<?xml version='1.0' encoding='UTF-8'?>
<osm version="0.6" generator="libosmium/2.20.0">
  <node id="313900197" version="6" timestamp="2010-11-26T19:43:53Z" uid="9581" user="Lobelt" changeset="6464578" lat="49.9182919" lon="8.4943103"/>
  <node id="313900198" version="8" timestamp="2010-11-26T19:46:59Z" uid="9581" user="Lobelt" changeset="6464578" lat="49.9183095" lon="8.4947765"/>
  <node id="313900199" version="12" timestamp="2010-11-26T19:47:01Z" uid="9581" user="Lobelt" changeset="6464578" lat="49.9183445" lon="8.4956017"/>
  <node id="313900200" version="13" timestamp="2010-11-26T19:47:00Z" uid="9581" user="Lobelt" changeset="6464578" lat="49.9183458" lon="8.4958075"/>
  <node id="313900237" version="1" timestamp="2008-11-23T12:14:56Z" uid="36809" user="pfoten_weg_!_" changeset="783010" lat="53.5548487" lon="14.5543102"/>
  <node id="313900238" version="1" timestamp="2008-11-23T12:14:56Z" uid="36809" user="pfoten_weg_!_" changeset="783010" lat="53.5554237" lon="14.5591937"/>
  <node id="313900239" version="1" timestamp="2008-11-23T12:14:56Z" uid="36809" user="pfoten_weg_!_" changeset="783010" lat="53.5545034" lon="14.554944"/>
  <node id="313900240" version="1" timestamp="2008-11-23T12:14:56Z" uid="36809" user="pfoten_weg_!_" changeset="783010" lat="53.5545386" lon="14.5580122"/>
  <node id="313900241" version="1" timestamp="2008-11-23T12:14:57Z" uid="36809" user="pfoten_weg_!_" changeset="783010" lat="53.5574501" lon="14.5576117"/>
  <node id="313900242" version="1" timestamp="2008-11-23T12:14:57Z" uid="36809" user="pfoten_weg_!_" changeset="783010" lat="53.5575494" lon="14.557728"/>
  <node id="313900243" version="1" timestamp="2008-11-23T12:14:57Z" uid="36809" user="pfoten_weg_!_" changeset="783010" lat="53.5546246" lon="14.5596607"/>
  <node id="313900244" version="1" timestamp="2008-11-23T12:14:57Z" uid="36809" user="pfoten_weg_!_" changeset="783010" lat="53.5575494" lon="14.5579689"/>
  <node id="313900245" version="1" timestamp="2008-11-23T12:14:57Z" uid="36809" user="pfoten_weg_!_" changeset="783010" lat="53.5545571" lon="14.5596205"/>
  <node id="313900247" version="1" timestamp="2008-11-23T12:14:57Z" uid="36809" user="pfoten_weg_!_" changeset="783010" lat="53.5562862" lon="14.5587121"/>
  <node id="313900251" version="1" timestamp="2008-11-23T12:14:57Z" uid="36809" user="pfoten_weg_!_" changeset="783010" lat="53.554508" lon="14.5553454"/>
  <node id="313900255" version="1" timestamp="2008-11-23T12:14:58Z" uid="36809" user="pfoten_weg_!_" changeset="783010" lat="53.5563944" lon="14.5562793"/>
  <node id="313900256" version="1" timestamp="2008-11-23T12:14:58Z" uid="36809" user="pfoten_weg_!_" changeset="783010" lat="53.557322" lon="14.5581129"/>
  <node id="313900257" version="1" timestamp="2008-11-23T12:14:58Z" uid="36809" user="pfoten_weg_!_" changeset="783010" lat="53.5545114" lon="14.5556417"/>
  <node id="313900258" version="1" timestamp="2008-11-23T12:14:58Z" uid="36809" user="pfoten_weg_!_" changeset="783010" lat="53.55573" lon="14.5554441"/>
  <node id="313900265" version="8" timestamp="2010-05-12T20:06:17Z" uid="9581" user="Lobelt" changeset="4680550" lat="49.4737761" lon="8.6804321"/>
  <node id="313900266" version="8" timestamp="2010-05-12T20:06:16Z" uid="9581" user="Lobelt" changeset="4680550" lat="49.4735587" lon="8.6804616"/>
  <node id="313900267" version="8" timestamp="2010-05-12T20:06:17Z" uid="9581" user="Lobelt" changeset="4680550" lat="49.4734315" lon="8.6813192"/>
  <node id="313900268" version="9" timestamp="2010-05-12T20:06:17Z" uid="9581" user="Lobelt" changeset="4680550" lat="49.4732815" lon="8.6815976"/>
  <node id="313901398" version="4" timestamp="2008-11-26T16:06:14Z" uid="6975" user="ulfl" changeset="797054" lat="38.2467419" lon="30.6497328">
    <tag k="ele" v="1420"/>
    <tag k="mountain_pass" v="yes"/>
    <tag k="name" v="Bozdurmuşbeli"/>
  </node>
  <node id="313903428" version="4" timestamp="2010-04-24T03:40:51Z" uid="4467" user="Rosscoe" changeset="4508938" lat="-27.6342666" lon="152.7403806"/>
  <node id="313903429" version="3" timestamp="2010-04-24T03:40:51Z" uid="4467" user="Rosscoe" changeset="4508938" lat="-27.6343046" lon="152.7402519">
    <tag k="direction" v="clockwise"/>
    <tag k="highway" v="mini_roundabout"/>
  </node>
  <node id="313903484" version="4" timestamp="2010-04-24T03:40:51Z" uid="4467" user="Rosscoe" changeset="4508938" lat="-27.6343502" lon="152.7401231"/>
  <node id="313904148" version="3" timestamp="2010-04-24T03:40:51Z" uid="4467" user="Rosscoe" changeset="4508938" lat="-27.6344567" lon="152.740312"/>
  <node id="313905669" version="3" timestamp="2010-01-30T06:40:38Z" uid="151899" user="Bikeman2000" changeset="3748494" lat="51.2893907" lon="6.6871"/>
  <node id="313905670" version="3" timestamp="2010-01-30T06:40:38Z" uid="151899" user="Bikeman2000" changeset="3748494" lat="51.2897631" lon="6.6890473"/>
  <node id="313906516" version="4" timestamp="2010-03-23T14:24:40Z" uid="58091" user="Andreas M" changeset="4212496" lat="48.279485" lon="16.1619271"/>
  <node id="313906632" version="5" timestamp="2010-01-23T15:17:18Z" uid="58091" user="Andreas M" changeset="3692579" lat="48.2794386" lon="16.1688412"/>
  <node id="313906923" version="2" timestamp="2008-11-26T02:20:16Z" uid="6975" user="ulfl" changeset="794829" lat="48.6430196" lon="9.617205">
    <tag k="name" v="Rosa Zeiten"/>
    <tag k="tourism" v="hotel"/>
  </node>
  <node id="313907729" version="5" timestamp="2009-10-23T11:53:08Z" uid="36809" user="pfoten_weg_!_" changeset="2929138" lat="47.9666614" lon="11.6538518">
    <tag k="addr:city" v="Sauerlach"/>
    <tag k="addr:country" v="DE"/>
    <tag k="addr:housenumber" v="2"/>
    <tag k="addr:postcode" v="82054"/>
    <tag k="addr:street" v="Ringbergstraße"/>
  </node>
  <node id="313907729" version="6" timestamp="2009-10-23T12:02:56Z" uid="36809" user="pfoten_weg_!_" changeset="2929214" lat="47.9666614" lon="11.6538518">
    <tag k="addr:city" v="Sauerlach"/>
    <tag k="addr:country" v="DE"/>
    <tag k="addr:housenumber" v="2"/>
    <tag k="addr:postcode" v="82054"/>
    <tag k="addr:street" v="Ringbergstraße"/>
  </node>
  <node id="313907729" version="7" timestamp="2009-10-23T12:08:35Z" uid="36809" user="pfoten_weg_!_" changeset="2929257" lat="47.9666614" lon="11.6538518">
    <tag k="addr:city" v="Sauerlach"/>
    <tag k="addr:country" v="DE"/>
    <tag k="addr:housenumber" v="2"/>
    <tag k="addr:postcode" v="82054"/>
    <tag k="addr:street" v="Ringbergstraße"/>
  </node>
  <node id="313908034" version="5" timestamp="2009-10-23T11:53:05Z" uid="36809" user="pfoten_weg_!_" changeset="2929138" lat="47.9666556" lon="11.6542724">
    <tag k="addr:city" v="Sauerlach"/>
    <tag k="addr:country" v="DE"/>
    <tag k="addr:housenumber" v="4"/>
    <tag k="addr:postcode" v="82054"/>
    <tag k="addr:street" v="Ringbergstraße"/>
  </node>
  <node id="313908034" version="6" timestamp="2009-10-23T12:02:55Z" uid="36809" user="pfoten_weg_!_" changeset="2929214" lat="47.9666556" lon="11.6542724">
    <tag k="addr:city" v="Sauerlach"/>
    <tag k="addr:country" v="DE"/>
    <tag k="addr:housenumber" v="4"/>
    <tag k="addr:postcode" v="82054"/>
    <tag k="addr:street" v="Ringbergstraße"/>
  </node>
  <node id="313908034" version="7" timestamp="2009-10-23T12:08:33Z" uid="36809" user="pfoten_weg_!_" changeset="2929257" lat="47.9666556" lon="11.6542724">
    <tag k="addr:city" v="Sauerlach"/>
    <tag k="addr:country" v="DE"/>
    <tag k="addr:housenumber" v="4"/>
    <tag k="addr:postcode" v="82054"/>
    <tag k="addr:street" v="Ringbergstraße"/>
  </node>
  <node id="313908036" version="4" timestamp="2009-10-23T11:53:05Z" uid="36809" user="pfoten_weg_!_" changeset="2929138" lat="47.9666499" lon="11.6546501">
    <tag k="addr:city" v="Sauerlach"/>
    <tag k="addr:country" v="DE"/>
    <tag k="addr:housenumber" v="6"/>
    <tag k="addr:postcode" v="82054"/>
    <tag k="addr:street" v="Ringbergstraße"/>
  </node>
  <node id="313908036" version="5" timestamp="2009-10-23T12:02:54Z" uid="36809" user="pfoten_weg_!_" changeset="2929214" lat="47.9666499" lon="11.6546501">
    <tag k="addr:city" v="Sauerlach"/>
    <tag k="addr:country" v="DE"/>
    <tag k="addr:housenumber" v="6"/>
    <tag k="addr:postcode" v="82054"/>
    <tag k="addr:street" v="Ringbergstraße"/>
  </node>
  <node id="313908036" version="6" timestamp="2009-10-23T12:08:32Z" uid="36809" user="pfoten_weg_!_" changeset="2929257" lat="47.9666499" lon="11.6546501">
    <tag k="addr:city" v="Sauerlach"/>
    <tag k="addr:country" v="DE"/>
    <tag k="addr:housenumber" v="6"/>
    <tag k="addr:postcode" v="82054"/>
    <tag k="addr:street" v="Ringbergstraße"/>
  </node>
  <node id="313908067" version="4" timestamp="2009-10-23T11:53:06Z" uid="36809" user="pfoten_weg_!_" changeset="2929138" lat="47.9666384" lon="11.6549505">
    <tag k="addr:city" v="Sauerlach"/>
    <tag k="addr:country" v="DE"/>
    <tag k="addr:housenumber" v="8"/>
    <tag k="addr:postcode" v="82054"/>
    <tag k="addr:street" v="Ringbergstraße"/>
  </node>
  <node id="313908067" version="5" timestamp="2009-10-23T12:02:55Z" uid="36809" user="pfoten_weg_!_" changeset="2929214" lat="47.9666384" lon="11.6549505">
    <tag k="addr:city" v="Sauerlach"/>
    <tag k="addr:country" v="DE"/>
    <tag k="addr:housenumber" v="8"/>
    <tag k="addr:postcode" v="82054"/>
    <tag k="addr:street" v="Ringbergstraße"/>
  </node>
  <node id="313908067" version="6" timestamp="2009-10-23T12:08:33Z" uid="36809" user="pfoten_weg_!_" changeset="2929257" lat="47.9666384" lon="11.6549505">
    <tag k="addr:city" v="Sauerlach"/>
    <tag k="addr:country" v="DE"/>
    <tag k="addr:housenumber" v="8"/>
    <tag k="addr:postcode" v="82054"/>
    <tag k="addr:street" v="Ringbergstraße"/>
  </node>
  <node id="313908498" version="6" timestamp="2009-10-23T11:53:31Z" uid="36809" user="pfoten_weg_!_" changeset="2929138" lat="47.9702071" lon="11.6538347">
    <tag k="addr:city" v="Sauerlach"/>
    <tag k="addr:country" v="DE"/>
    <tag k="addr:housenumber" v="11"/>
    <tag k="addr:postcode" v="82054"/>
    <tag k="addr:street" v="Tegernseer Landstraße"/>
  </node>
  <node id="313908498" version="7" timestamp="2009-10-23T12:03:05Z" uid="36809" user="pfoten_weg_!_" changeset="2929214" lat="47.9702071" lon="11.6538347">
    <tag k="addr:city" v="Sauerlach"/>
    <tag k="addr:country" v="DE"/>
    <tag k="addr:housenumber" v="11"/>
    <tag k="addr:postcode" v="82054"/>
    <tag k="addr:street" v="Tegernseer Landstraße"/>
  </node>
  <node id="313908498" version="8" timestamp="2009-10-23T12:08:47Z" uid="36809" user="pfoten_weg_!_" changeset="2929257" lat="47.9702071" lon="11.6538347">
    <tag k="addr:city" v="Sauerlach"/>
    <tag k="addr:country" v="DE"/>
    <tag k="addr:housenumber" v="11"/>
    <tag k="addr:postcode" v="82054"/>
    <tag k="addr:street" v="Tegernseer Landstraße"/>
  </node>
  <node id="313908584" version="5" timestamp="2009-10-23T11:53:30Z" uid="36809" user="pfoten_weg_!_" changeset="2929138" lat="47.9706266" lon="11.6532854">
    <tag k="addr:city" v="Sauerlach"/>
    <tag k="addr:country" v="DE"/>
    <tag k="addr:housenumber" v="8"/>
    <tag k="addr:postcode" v="82054"/>
    <tag k="addr:street" v="Tegernseer Landstraße"/>
  </node>
  <node id="313908584" version="6" timestamp="2009-10-23T12:03:03Z" uid="36809" user="pfoten_weg_!_" changeset="2929214" lat="47.9706266" lon="11.6532854">
    <tag k="addr:city" v="Sauerlach"/>
    <tag k="addr:country" v="DE"/>
    <tag k="addr:housenumber" v="8"/>
    <tag k="addr:postcode" v="82054"/>
    <tag k="addr:street" v="Tegernseer Landstraße"/>
  </node>
  <node id="313908584" version="7" timestamp="2009-10-23T12:08:43Z" uid="36809" user="pfoten_weg_!_" changeset="2929257" lat="47.9706266" lon="11.6532854">
    <tag k="addr:city" v="Sauerlach"/>
    <tag k="addr:country" v="DE"/>
    <tag k="addr:housenumber" v="8"/>
    <tag k="addr:postcode" v="82054"/>
    <tag k="addr:street" v="Tegernseer Landstraße"/>
  </node>
  <node id="313908606" version="3" timestamp="2009-03-22T04:30:49Z" uid="36809" user="pfoten_weg_!_" changeset="843843" lat="48.0272194" lon="11.5053866">
    <tag k="created_by" v="RambaZamba"/>
    <tag k="source" v="survey"/>
  </node>
  <node id="313908606" version="5" timestamp="2009-08-26T08:13:34Z" uid="36809" user="pfoten_weg_!_" changeset="2264689" lat="48.0272194" lon="11.5053866"/>
  <node id="313908607" version="3" timestamp="2009-03-22T04:30:50Z" uid="36809" user="pfoten_weg_!_" changeset="843843" lat="48.0270573" lon="11.5038813">
    <tag k="created_by" v="RambaZamba"/>
    <tag k="source" v="survey"/>
  </node>
  <node id="313908607" version="5" timestamp="2009-08-26T08:13:34Z" uid="36809" user="pfoten_weg_!_" changeset="2264689" lat="48.0270573" lon="11.5038813"/>
  <node id="313908608" version="3" timestamp="2009-03-22T04:30:47Z" uid="36809" user="pfoten_weg_!_" changeset="843843" lat="48.026908" lon="11.5018465">
    <tag k="created_by" v="RambaZamba"/>
    <tag k="source" v="survey"/>
  </node>
  <node id="313908608" version="5" timestamp="2009-08-26T08:13:30Z" uid="36809" user="pfoten_weg_!_" changeset="2264689" lat="48.026908" lon="11.5018465"/>
  <node id="313908609" version="3" timestamp="2009-03-22T04:30:47Z" uid="36809" user="pfoten_weg_!_" changeset="843843" lat="48.0266179" lon="11.5003157">
    <tag k="created_by" v="RambaZamba"/>
    <tag k="source" v="survey"/>
  </node>
  <node id="313908609" version="5" timestamp="2009-08-26T08:13:30Z" uid="36809" user="pfoten_weg_!_" changeset="2264689" lat="48.0266179" lon="11.5003157"/>
  <node id="313908610" version="3" timestamp="2009-03-22T04:30:46Z" uid="36809" user="pfoten_weg_!_" changeset="843843" lat="48.0263876" lon="11.4979939">
    <tag k="created_by" v="RambaZamba"/>
    <tag k="source" v="survey"/>
  </node>
  <node id="313908610" version="6" timestamp="2009-08-26T08:13:29Z" uid="36809" user="pfoten_weg_!_" changeset="2264689" lat="48.0264538" lon="11.4980168"/>
  <node id="313908611" version="3" timestamp="2009-03-22T04:30:47Z" uid="36809" user="pfoten_weg_!_" changeset="843843" lat="48.0257818" lon="11.4966034">
    <tag k="created_by" v="RambaZamba"/>
    <tag k="source" v="survey"/>
  </node>
  <node id="313908611" version="4" timestamp="2009-03-24T00:20:13Z" uid="36809" user="pfoten_weg_!_" changeset="853978" lat="48.0257471" lon="11.4966405">
    <tag k="created_by" v="RambaZamba"/>
    <tag k="source" v="survey"/>
  </node>
  <node id="313908611" version="6" timestamp="2009-06-08T13:19:30Z" uid="36809" user="pfoten_weg_!_" changeset="1458721" lat="48.0257471" lon="11.4966405">
    <tag k="created_by" v="RambaZamba"/>
    <tag k="source" v="survey"/>
  </node>
  <node id="313908611" version="8" timestamp="2009-08-26T08:13:30Z" uid="36809" user="pfoten_weg_!_" changeset="2264689" lat="48.0257624" lon="11.4962519">
    <tag k="source" v="survey"/>
  </node>
  <node id="313908611" version="9" timestamp="2009-10-11T23:33:32Z" uid="36809" user="pfoten_weg_!_" changeset="2821194" lat="48.0257624" lon="11.4962519"/>
  <node id="313908612" version="3" timestamp="2009-03-22T04:30:46Z" uid="36809" user="pfoten_weg_!_" changeset="843843" lat="48.0244978" lon="11.496259">
    <tag k="created_by" v="RambaZamba"/>
    <tag k="source" v="survey"/>
  </node>
  <node id="313908612" version="5" timestamp="2009-08-26T08:13:29Z" uid="36809" user="pfoten_weg_!_" changeset="2264689" lat="48.0244978" lon="11.496259"/>
  <node id="313908613" version="3" timestamp="2009-03-22T04:30:46Z" uid="36809" user="pfoten_weg_!_" changeset="843843" lat="48.022898" lon="11.4968713">
    <tag k="created_by" v="RambaZamba"/>
    <tag k="source" v="survey"/>
  </node>
  <node id="313908613" version="5" timestamp="2009-08-26T08:13:29Z" uid="36809" user="pfoten_weg_!_" changeset="2264689" lat="48.022898" lon="11.4968713"/>
  <node id="313908614" version="3" timestamp="2009-03-22T04:30:45Z" uid="36809" user="pfoten_weg_!_" changeset="843843" lat="48.0217461" lon="11.4968458">
    <tag k="created_by" v="RambaZamba"/>
    <tag k="source" v="survey"/>
  </node>
  <node id="313908614" version="5" timestamp="2009-08-26T08:13:28Z" uid="36809" user="pfoten_weg_!_" changeset="2264689" lat="48.0217461" lon="11.4968458"/>
  <node id="313908615" version="3" timestamp="2009-03-22T04:30:46Z" uid="36809" user="pfoten_weg_!_" changeset="843843" lat="48.0208587" lon="11.4961633">
    <tag k="created_by" v="RambaZamba"/>
    <tag k="source" v="survey"/>
  </node>
  <node id="313908615" version="6" timestamp="2009-08-26T08:13:29Z" uid="36809" user="pfoten_weg_!_" changeset="2264689" lat="48.0208587" lon="11.4965918"/>
  <node id="313908616" version="3" timestamp="2009-03-22T04:30:49Z" uid="36809" user="pfoten_weg_!_" changeset="843843" lat="48.0195575" lon="11.4953788">
    <tag k="created_by" v="RambaZamba"/>
    <tag k="source" v="survey"/>
  </node>
  <node id="313908616" version="5" timestamp="2009-08-26T08:13:32Z" uid="36809" user="pfoten_weg_!_" changeset="2264689" lat="48.0195575" lon="11.4953788"/>
  <node id="313908617" version="3" timestamp="2009-03-22T04:30:49Z" uid="36809" user="pfoten_weg_!_" changeset="843843" lat="48.0186743" lon="11.4940967">
    <tag k="created_by" v="RambaZamba"/>
    <tag k="source" v="survey"/>
  </node>
  <node id="313908617" version="5" timestamp="2009-08-26T08:13:32Z" uid="36809" user="pfoten_weg_!_" changeset="2264689" lat="48.0186743" lon="11.4940967"/>
  <node id="313908618" version="3" timestamp="2009-03-22T04:30:48Z" uid="36809" user="pfoten_weg_!_" changeset="843843" lat="48.0182178" lon="11.4925786">
    <tag k="created_by" v="RambaZamba"/>
    <tag k="source" v="survey"/>
  </node>
  <node id="313908618" version="5" timestamp="2009-08-26T08:13:31Z" uid="36809" user="pfoten_weg_!_" changeset="2264689" lat="48.0182178" lon="11.4925786"/>
  <node id="313908619" version="3" timestamp="2009-03-22T04:30:49Z" uid="36809" user="pfoten_weg_!_" changeset="843843" lat="48.0175437" lon="11.4908628">
    <tag k="created_by" v="RambaZamba"/>
    <tag k="source" v="survey"/>
  </node>
  <node id="313908619" version="5" timestamp="2009-08-26T08:13:32Z" uid="36809" user="pfoten_weg_!_" changeset="2264689" lat="48.0175437" lon="11.4908628"/>
  <node id="313908620" version="3" timestamp="2009-03-22T04:30:48Z" uid="36809" user="pfoten_weg_!_" changeset="843843" lat="48.016908" lon="11.490193">
    <tag k="created_by" v="RambaZamba"/>
    <tag k="source" v="survey"/>
  </node>
  <node id="313908620" version="5" timestamp="2009-08-26T08:13:31Z" uid="36809" user="pfoten_weg_!_" changeset="2264689" lat="48.016908" lon="11.490193"/>
  <node id="313908621" version="3" timestamp="2009-03-22T04:30:48Z" uid="36809" user="pfoten_weg_!_" changeset="843843" lat="48.0158157" lon="11.4897721">
    <tag k="created_by" v="RambaZamba"/>
    <tag k="source" v="survey"/>
  </node>
  <node id="313908621" version="5" timestamp="2009-08-26T08:13:31Z" uid="36809" user="pfoten_weg_!_" changeset="2264689" lat="48.0158157" lon="11.4897721"/>
  <node id="313908622" version="3" timestamp="2009-03-22T04:30:47Z" uid="36809" user="pfoten_weg_!_" changeset="843843" lat="48.0147405" lon="11.4884836">
    <tag k="created_by" v="RambaZamba"/>
    <tag k="source" v="survey"/>
  </node>
  <node id="313908622" version="5" timestamp="2009-08-26T08:13:31Z" uid="36809" user="pfoten_weg_!_" changeset="2264689" lat="48.0147405" lon="11.4884836"/>
  <node id="313908623" version="3" timestamp="2009-03-22T04:30:47Z" uid="36809" user="pfoten_weg_!_" changeset="843843" lat="48.0140748" lon="11.4877437">
    <tag k="created_by" v="RambaZamba"/>
    <tag k="source" v="survey"/>
  </node>
  <node id="313908623" version="5" timestamp="2009-08-26T08:13:31Z" uid="36809" user="pfoten_weg_!_" changeset="2264689" lat="48.0140748" lon="11.4877437"/>
  <node id="313908624" version="3" timestamp="2009-03-22T04:30:49Z" uid="36809" user="pfoten_weg_!_" changeset="843843" lat="48.0132556" lon="11.4864935">
    <tag k="created_by" v="RambaZamba"/>
    <tag k="source" v="survey"/>
  </node>
  <node id="313908624" version="5" timestamp="2009-08-26T08:13:32Z" uid="36809" user="pfoten_weg_!_" changeset="2264689" lat="48.0132556" lon="11.4864935"/>
  <node id="313908683" version="6" timestamp="2009-09-18T07:26:46Z" uid="4467" user="Rosscoe" changeset="2521065" lat="-27.6455943" lon="152.5936382"/>
  <node id="313908684" version="7" timestamp="2009-09-18T07:26:41Z" uid="4467" user="Rosscoe" changeset="2521065" lat="-27.6446556" lon="152.5936446"/>
  <node id="313908684" version="8" timestamp="2010-06-26T17:11:59Z" uid="74617" user="JohnSmith" changeset="5082284" lat="-27.6446556" lon="152.5937182"/>
  <node id="313908685" version="2" timestamp="2009-09-18T07:26:41Z" uid="4467" user="Rosscoe" changeset="2521065" lat="-27.643917" lon="152.5937877">
    <tag k="highway" v="crossing"/>
  </node>
  <node id="313908685" version="3" timestamp="2010-06-26T17:11:59Z" uid="74617" user="JohnSmith" changeset="5082284" lat="-27.6439342" lon="152.5938508">
    <tag k="highway" v="crossing"/>
  </node>
  <node id="313908699" version="4" timestamp="2009-06-05T19:23:08Z" uid="132212" user="Migro" changeset="1432201" lat="60.1968015" lon="24.8832357">
    <tag k="name" v="Munkkiniemen puistotie"/>
    <tag k="name:sv" v="Munksnäs allén"/>
    <tag k="railway" v="tram_stop"/>
    <tag k="ref" v="0121"/>
    <tag k="shelter" v="no"/>
  </node>
  <node id="313908714" version="5" timestamp="2009-10-23T11:53:33Z" uid="36809" user="pfoten_weg_!_" changeset="2929138" lat="47.970006" lon="11.6538433">
    <tag k="addr:city" v="Sauerlach"/>
    <tag k="addr:country" v="DE"/>
    <tag k="addr:housenumber" v="13"/>
    <tag k="addr:postcode" v="82054"/>
    <tag k="addr:street" v="Tegernseer Landstraße"/>
  </node>
  <node id="313908714" version="6" timestamp="2009-10-23T12:03:06Z" uid="36809" user="pfoten_weg_!_" changeset="2929214" lat="47.970006" lon="11.6538433">
    <tag k="addr:city" v="Sauerlach"/>
    <tag k="addr:country" v="DE"/>
    <tag k="addr:housenumber" v="13"/>
    <tag k="addr:postcode" v="82054"/>
    <tag k="addr:street" v="Tegernseer Landstraße"/>
  </node>
  <node id="313908714" version="7" timestamp="2009-10-23T12:08:48Z" uid="36809" user="pfoten_weg_!_" changeset="2929257" lat="47.970006" lon="11.6538433">
    <tag k="addr:city" v="Sauerlach"/>
    <tag k="addr:country" v="DE"/>
    <tag k="addr:housenumber" v="13"/>
    <tag k="addr:postcode" v="82054"/>
    <tag k="addr:street" v="Tegernseer Landstraße"/>
  </node>
  <node id="313908730" version="5" timestamp="2009-10-23T11:53:32Z" uid="36809" user="pfoten_weg_!_" changeset="2929138" lat="47.9697991" lon="11.6538175">
    <tag k="addr:city" v="Sauerlach"/>
    <tag k="addr:country" v="DE"/>
    <tag k="addr:housenumber" v="15"/>
    <tag k="addr:postcode" v="82054"/>
    <tag k="addr:street" v="Tegernseer Landstraße"/>
  </node>
  <node id="313908730" version="6" timestamp="2009-10-23T12:03:05Z" uid="36809" user="pfoten_weg_!_" changeset="2929214" lat="47.9697991" lon="11.6538175">
    <tag k="addr:city" v="Sauerlach"/>
    <tag k="addr:country" v="DE"/>
    <tag k="addr:housenumber" v="15"/>
    <tag k="addr:postcode" v="82054"/>
    <tag k="addr:street" v="Tegernseer Landstraße"/>
  </node>
  <node id="313908730" version="7" timestamp="2009-10-23T12:08:48Z" uid="36809" user="pfoten_weg_!_" changeset="2929257" lat="47.9697991" lon="11.6538175">
    <tag k="addr:city" v="Sauerlach"/>
    <tag k="addr:country" v="DE"/>
    <tag k="addr:housenumber" v="15"/>
    <tag k="addr:postcode" v="82054"/>
    <tag k="addr:street" v="Tegernseer Landstraße"/>
  </node>
  <node id="313908731" version="4" timestamp="2010-06-26T17:14:20Z" uid="74617" user="JohnSmith" changeset="5082284" lat="-27.6432677" lon="152.5922907"/>
  <node id="313908752" version="1" timestamp="2008-11-23T12:58:29Z" uid="7617" user="Franc" changeset="783716" lat="-33.733824" lon="150.8161505"/>
  <node id="313908755" version="1" timestamp="2008-11-23T12:58:30Z" uid="7617" user="Franc" changeset="783716" lat="-33.7351936" lon="150.8218253"/>
  <node id="313908755" version="2" timestamp="2008-11-24T06:46:48Z" uid="7617" user="Franc" changeset="786627" lat="-33.7352221" lon="150.8218538"/>
  <node id="313908757" version="1" timestamp="2008-11-23T12:58:31Z" uid="7617" user="Franc" changeset="783716" lat="-33.7344681" lon="150.8189593"/>
  <node id="313908757" version="2" timestamp="2010-09-14T11:06:11Z" uid="61114" user="Trav" changeset="5777436" lat="-33.7344265" lon="150.8189293"/>
  <node id="313908758" version="1" timestamp="2008-11-23T12:58:32Z" uid="7617" user="Franc" changeset="783716" lat="-33.7343005" lon="150.8174234"/>
  <node id="313908765" version="1" timestamp="2008-11-23T12:58:33Z" uid="7617" user="Franc" changeset="783716" lat="-33.7343278" lon="150.8179194"/>
  <node id="313908766" version="1" timestamp="2008-11-23T12:58:34Z" uid="7617" user="Franc" changeset="783716" lat="-33.7343689" lon="150.8184257"/>
  <node id="313908767" version="1" timestamp="2008-11-23T12:58:35Z" uid="7617" user="Franc" changeset="783716" lat="-33.7342013" lon="150.8167084"/>
  <node id="313908768" version="1" timestamp="2008-11-23T12:58:36Z" uid="7617" user="Franc" changeset="783716" lat="-33.7341294" lon="150.8165374"/>
  <node id="313908769" version="1" timestamp="2008-11-23T12:58:37Z" uid="7617" user="Franc" changeset="783716" lat="-33.7342628" lon="150.8169137"/>
  <node id="313908773" version="1" timestamp="2008-11-23T12:58:38Z" uid="7617" user="Franc" changeset="783716" lat="-33.7345947" lon="150.8198248"/>
  <node id="313908774" version="1" timestamp="2008-11-23T12:58:39Z" uid="7617" user="Franc" changeset="783716" lat="-33.7346905" lon="150.8201943"/>
  <node id="313908777" version="1" timestamp="2008-11-23T12:58:40Z" uid="7617" user="Franc" changeset="783716" lat="-33.7351523" lon="150.8214395"/>
  <node id="313908779" version="1" timestamp="2008-11-23T12:58:41Z" uid="7617" user="Franc" changeset="783716" lat="-33.7350736" lon="150.8211384"/>
  <node id="313908780" version="1" timestamp="2008-11-23T12:58:42Z" uid="7617" user="Franc" changeset="783716" lat="-33.7347965" lon="150.8204851"/>
  <node id="313908781" version="1" timestamp="2008-11-23T12:58:43Z" uid="7617" user="Franc" changeset="783716" lat="-33.7347178" lon="150.8205774"/>
  <node id="313908804" version="1" timestamp="2008-11-23T12:58:53Z" uid="7617" user="Franc" changeset="783716" lat="-33.7346768" lon="150.8206732"/>
  <node id="313908805" version="7" timestamp="2010-06-26T17:12:00Z" uid="74617" user="JohnSmith" changeset="5082284" lat="-27.643032" lon="152.5929945"/>
  <node id="313908806" version="7" timestamp="2010-06-26T17:12:00Z" uid="74617" user="JohnSmith" changeset="5082284" lat="-27.6427963" lon="152.5936897"/>
  <node id="313908807" version="7" timestamp="2010-06-26T17:11:59Z" uid="74617" user="JohnSmith" changeset="5082284" lat="-27.642315" lon="152.5950537"/>
  <node id="313908808" version="1" timestamp="2008-11-23T12:58:59Z" uid="7617" user="Franc" changeset="783716" lat="-33.7346802" lon="150.8207587"/>
  <node id="313908809" version="1" timestamp="2008-11-23T12:59:03Z" uid="7617" user="Franc" changeset="783716" lat="-33.734711" lon="150.8208579"/>
  <node id="313908810" version="1" timestamp="2008-11-23T12:59:07Z" uid="7617" user="Franc" changeset="783716" lat="-33.7347589" lon="150.8209264"/>
  <node id="313908820" version="1" timestamp="2008-11-23T12:59:08Z" uid="7617" user="Franc" changeset="783716" lat="-33.734817" lon="150.8209537"/>
  <node id="313908825" version="1" timestamp="2008-11-23T12:59:09Z" uid="7617" user="Franc" changeset="783716" lat="-33.7348854" lon="150.8209537"/>
  <node id="313908826" version="1" timestamp="2008-11-23T12:59:10Z" uid="7617" user="Franc" changeset="783716" lat="-33.7349778" lon="150.8209469"/>
  <node id="313908828" version="1" timestamp="2008-11-23T12:59:11Z" uid="7617" user="Franc" changeset="783716" lat="-33.7337566" lon="150.820249"/>
  <node id="313908830" version="1" timestamp="2008-11-23T12:59:12Z" uid="7617" user="Franc" changeset="783716" lat="-33.7351933" lon="150.8217166"/>
  <node id="313908830" version="2" timestamp="2008-11-24T06:46:49Z" uid="7617" user="Franc" changeset="786627" lat="-33.7351819" lon="150.8217538"/>
  <node id="313908831" version="1" timestamp="2008-11-23T12:59:13Z" uid="7617" user="Franc" changeset="783716" lat="-33.734085" lon="150.8220723"/>
  <node id="313908838" version="1" timestamp="2008-11-23T12:59:14Z" uid="7617" user="Franc" changeset="783716" lat="-33.7339618" lon="150.8212684"/>
  <node id="313908845" version="1" timestamp="2008-11-23T12:59:15Z" uid="7617" user="Franc" changeset="783716" lat="-33.7340063" lon="150.8212308"/>
  <node id="313908846" version="1" timestamp="2008-11-23T12:59:16Z" uid="7617" user="Franc" changeset="783716" lat="-33.7340371" lon="150.8211829"/>
  <node id="313908848" version="1" timestamp="2008-11-23T12:59:17Z" uid="7617" user="Franc" changeset="783716" lat="-33.7339105" lon="150.8202627"/>
  <node id="313908849" version="1" timestamp="2008-11-23T12:59:18Z" uid="7617" user="Franc" changeset="783716" lat="-33.7338831" lon="150.820208"/>
  <node id="313908852" version="1" timestamp="2008-11-23T12:59:19Z" uid="7617" user="Franc" changeset="783716" lat="-33.7338318" lon="150.8201909"/>
  <node id="313908853" version="1" timestamp="2008-11-23T12:59:20Z" uid="7617" user="Franc" changeset="783716" lat="-33.7337771" lon="150.8202011"/>
  <node id="313908854" version="1" timestamp="2008-11-23T12:59:21Z" uid="7617" user="Franc" changeset="783716" lat="-33.73376" lon="150.8203174"/>
  <node id="313908856" version="1" timestamp="2008-11-23T12:59:22Z" uid="7617" user="Franc" changeset="783716" lat="-33.7338694" lon="150.821159"/>
  <node id="313908857" version="1" timestamp="2008-11-23T12:59:23Z" uid="7617" user="Franc" changeset="783716" lat="-33.7339037" lon="150.8212274"/>
  <node id="313908858" version="1" timestamp="2008-11-23T12:59:24Z" uid="7617" user="Franc" changeset="783716" lat="-33.7335142" lon="150.8183194"/>
  <node id="313908859" version="1" timestamp="2008-11-23T12:59:25Z" uid="7617" user="Franc" changeset="783716" lat="-33.7334" lon="150.8177529"/>
  <node id="313908860" version="1" timestamp="2008-11-23T12:59:26Z" uid="7617" user="Franc" changeset="783716" lat="-33.7328908" lon="150.8195222"/>
  <node id="313908870" version="1" timestamp="2008-11-23T12:59:27Z" uid="7617" user="Franc" changeset="783716" lat="-33.7328069" lon="150.8193624"/>
  <node id="313908874" version="1" timestamp="2008-11-23T12:59:28Z" uid="7617" user="Franc" changeset="783716" lat="-33.732759" lon="150.8192385"/>
  <node id="313908875" version="1" timestamp="2008-11-23T12:59:29Z" uid="7617" user="Franc" changeset="783716" lat="-33.7327639" lon="150.8191197"/>
  <node id="313908876" version="1" timestamp="2008-11-23T12:59:30Z" uid="7617" user="Franc" changeset="783716" lat="-33.7327503" lon="150.8188948"/>
  <node id="313908880" version="1" timestamp="2008-11-23T12:59:32Z" uid="7617" user="Franc" changeset="783716" lat="-33.7327743" lon="150.818671"/>
  <node id="313908883" version="1" timestamp="2008-11-23T12:59:33Z" uid="7617" user="Franc" changeset="783716" lat="-33.7328029" lon="150.8184952"/>
  <node id="313908886" version="1" timestamp="2008-11-23T12:59:34Z" uid="7617" user="Franc" changeset="783716" lat="-33.7328708" lon="150.8183074"/>
  <node id="313908886" version="2" timestamp="2009-01-06T23:49:54Z" uid="30201" user="rrankin" changeset="749929" lat="-33.7328708" lon="150.8183074">
    <tag k="highway" v="turning_circle"/>
  </node>
  <node id="313908888" version="1" timestamp="2008-11-23T12:59:35Z" uid="7617" user="Franc" changeset="783716" lat="-33.7329695" lon="150.8181828"/>
  <node id="313908889" version="1" timestamp="2008-11-23T12:59:36Z" uid="7617" user="Franc" changeset="783716" lat="-33.733106" lon="150.8180532"/>
  <node id="313908890" version="1" timestamp="2008-11-23T12:59:37Z" uid="7617" user="Franc" changeset="783716" lat="-33.7333553" lon="150.8176818"/>
  <node id="313908891" version="1" timestamp="2008-11-23T12:59:42Z" uid="7617" user="Franc" changeset="783716" lat="-33.7334846" lon="150.8175639"/>
  <node id="313908893" version="1" timestamp="2008-11-23T12:59:43Z" uid="7617" user="Franc" changeset="783716" lat="-33.7335299" lon="150.8175548"/>
  <node id="313908895" version="1" timestamp="2008-11-23T12:59:44Z" uid="7617" user="Franc" changeset="783716" lat="-33.7335571" lon="150.8175662"/>
  <node id="313908899" version="2" timestamp="2010-06-26T17:11:59Z" uid="74617" user="JohnSmith" changeset="5082284" lat="-27.6405027" lon="152.5968139"/>
  <node id="313908900" version="2" timestamp="2010-06-26T17:11:59Z" uid="74617" user="JohnSmith" changeset="5082284" lat="-27.640795" lon="152.5967183"/>
  <node id="313908901" version="2" timestamp="2010-06-26T17:11:59Z" uid="74617" user="JohnSmith" changeset="5082284" lat="-27.6412009" lon="152.596588"/>
  <node id="313908903" version="2" timestamp="2010-06-26T17:11:59Z" uid="74617" user="JohnSmith" changeset="5082284" lat="-27.6413559" lon="152.5965241"/>
  <node id="313908905" version="3" timestamp="2010-06-26T17:11:59Z" uid="74617" user="JohnSmith" changeset="5082284" lat="-27.6415703" lon="152.5963971"/>
  <node id="313908907" version="2" timestamp="2010-06-26T17:11:59Z" uid="74617" user="JohnSmith" changeset="5082284" lat="-27.6417976" lon="152.5961363"/>
  <node id="313908909" version="2" timestamp="2010-06-26T17:12:00Z" uid="74617" user="JohnSmith" changeset="5082284" lat="-27.6418763" lon="152.5962046"/>
  <node id="313908911" version="1" timestamp="2008-11-23T12:59:47Z" uid="7617" user="Franc" changeset="783716" lat="-33.7335776" lon="150.8175979"/>
  <node id="313908927" version="1" timestamp="2008-11-23T12:59:49Z" uid="7617" user="Franc" changeset="783716" lat="-33.7335821" lon="150.8176319"/>
  <node id="313908940" version="1" timestamp="2008-11-23T12:59:52Z" uid="7617" user="Franc" changeset="783716" lat="-33.7335639" lon="150.8176614"/>
  <node id="313908942" version="1" timestamp="2008-11-23T12:59:53Z" uid="7617" user="Franc" changeset="783716" lat="-33.7334083" lon="150.8178071"/>
  <node id="313908945" version="1" timestamp="2008-11-23T12:59:54Z" uid="7617" user="Franc" changeset="783716" lat="-33.7330286" lon="150.8189384"/>
  <node id="313908948" version="1" timestamp="2008-11-23T12:59:55Z" uid="7617" user="Franc" changeset="783716" lat="-33.732761" lon="150.8189543"/>
  <node id="313908951" version="1" timestamp="2008-11-23T12:59:56Z" uid="7617" user="Franc" changeset="783716" lat="-33.7322257" lon="150.8204491"/>
  <node id="313908952" version="1" timestamp="2008-11-23T12:59:57Z" uid="7617" user="Franc" changeset="783716" lat="-33.7321985" lon="150.8199251"/>
  <node id="313908953" version="1" timestamp="2008-11-23T12:59:58Z" uid="7617" user="Franc" changeset="783716" lat="-33.7320193" lon="150.81929"/>
  <node id="313908954" version="1" timestamp="2008-11-23T12:59:59Z" uid="7617" user="Franc" changeset="783716" lat="-33.731992" lon="150.8192515"/>
  <node id="313908956" version="1" timestamp="2008-11-23T13:00:00Z" uid="7617" user="Franc" changeset="783716" lat="-33.7319217" lon="150.8192016"/>
  <node id="313908957" version="1" timestamp="2008-11-23T13:00:01Z" uid="7617" user="Franc" changeset="783716" lat="-33.7318786" lon="150.8191698"/>
  <node id="313908958" version="1" timestamp="2008-11-23T13:00:02Z" uid="7617" user="Franc" changeset="783716" lat="-33.7318333" lon="150.8191154"/>
  <node id="313908960" version="1" timestamp="2008-11-23T13:00:03Z" uid="7617" user="Franc" changeset="783716" lat="-33.7317879" lon="150.8190428"/>
  <node id="313908966" version="1" timestamp="2008-11-23T13:00:05Z" uid="7617" user="Franc" changeset="783716" lat="-33.7317357" lon="150.8189067"/>
  <node id="313908970" version="1" timestamp="2008-11-23T13:00:08Z" uid="7617" user="Franc" changeset="783716" lat="-33.7316606" lon="150.8186772"/>
  <node id="313908971" version="1" timestamp="2008-11-23T13:00:09Z" uid="7617" user="Franc" changeset="783716" lat="-33.7315021" lon="150.8188001"/>
  <node id="313908973" version="1" timestamp="2008-11-23T13:00:13Z" uid="7617" user="Franc" changeset="783716" lat="-33.7316133" lon="150.8189861"/>
  <node id="313908974" version="1" timestamp="2008-11-23T13:00:16Z" uid="7617" user="Franc" changeset="783716" lat="-33.7316949" lon="150.8190904"/>
  <node id="313908977" version="1" timestamp="2008-11-23T13:00:20Z" uid="7617" user="Franc" changeset="783716" lat="-33.7317539" lon="150.8191267"/>
  <node id="313908979" version="1" timestamp="2008-11-23T13:00:21Z" uid="7617" user="Franc" changeset="783716" lat="-33.7317902" lon="150.8191471"/>
  <node id="313908991" version="1" timestamp="2008-11-23T13:00:22Z" uid="7617" user="Franc" changeset="783716" lat="-33.7318469" lon="150.8191471"/>
  <node id="313909005" version="3" timestamp="2010-06-26T17:11:53Z" uid="74617" user="JohnSmith" changeset="5082284" lat="-27.6430809" lon="152.5936893">
    <tag k="highway" v="crossing"/>
  </node>
  <node id="313909014" version="1" timestamp="2008-11-23T13:00:24Z" uid="7617" user="Franc" changeset="783716" lat="-33.7320896" lon="150.8192129"/>
  <node id="313909023" version="1" timestamp="2008-11-23T13:00:27Z" uid="7617" user="Franc" changeset="783716" lat="-33.732169" lon="150.8191902"/>
  <node id="313909027" version="1" timestamp="2008-11-23T13:00:28Z" uid="7617" user="Franc" changeset="783716" lat="-33.7322302" lon="150.8191857"/>
  <node id="313909042" version="1" timestamp="2008-11-23T13:00:32Z" uid="7617" user="Franc" changeset="783716" lat="-33.7323005" lon="150.8192016"/>
  <node id="313909056" version="1" timestamp="2008-11-23T13:00:35Z" uid="7617" user="Franc" changeset="783716" lat="-33.7327519" lon="150.8192084"/>
  <node id="313909060" version="1" timestamp="2008-11-23T13:00:36Z" uid="7617" user="Franc" changeset="783716" lat="-33.731772" lon="150.8196099"/>
  <node id="313909064" version="1" timestamp="2008-11-23T13:00:37Z" uid="7617" user="Franc" changeset="783716" lat="-33.7319195" lon="150.819535"/>
  <node id="313909067" version="1" timestamp="2008-11-23T13:00:38Z" uid="7617" user="Franc" changeset="783716" lat="-33.7320669" lon="150.8194828"/>
  <node id="313909072" version="1" timestamp="2008-11-23T13:00:39Z" uid="7617" user="Franc" changeset="783716" lat="-33.7318922" lon="150.8201429"/>
  <node id="313909077" version="1" timestamp="2008-11-23T13:00:40Z" uid="7617" user="Franc" changeset="783716" lat="-33.7322098" lon="150.8200703"/>
  <node id="313909086" version="1" timestamp="2008-11-23T13:00:41Z" uid="7617" user="Franc" changeset="783716" lat="-33.7338479" lon="150.8163258"/>
  <node id="313909090" version="1" timestamp="2008-11-23T13:00:42Z" uid="7617" user="Franc" changeset="783716" lat="-33.733702" lon="150.8164737"/>
  <node id="313909094" version="1" timestamp="2008-11-23T13:00:43Z" uid="7617" user="Franc" changeset="783716" lat="-33.7337945" lon="150.8166155"/>
  <node id="313909123" version="1" timestamp="2008-11-23T13:00:48Z" uid="7617" user="Franc" changeset="783716" lat="-33.7337329" lon="150.8168991"/>
  <node id="313909127" version="1" timestamp="2008-11-23T13:00:49Z" uid="7617" user="Franc" changeset="783716" lat="-33.7337247" lon="150.8169649"/>
  <node id="313909131" version="4" timestamp="2009-10-23T11:53:03Z" uid="36809" user="pfoten_weg_!_" changeset="2929138" lat="47.9683682" lon="11.6536802">
    <tag k="addr:city" v="Sauerlach"/>
    <tag k="addr:country" v="DE"/>
    <tag k="addr:housenumber" v="37"/>
    <tag k="addr:postcode" v="82054"/>
    <tag k="addr:street" v="Tegernseer Landstraße"/>
  </node>
  <node id="313909131" version="5" timestamp="2009-10-23T12:02:53Z" uid="36809" user="pfoten_weg_!_" changeset="2929214" lat="47.9683682" lon="11.6536802">
    <tag k="addr:city" v="Sauerlach"/>
    <tag k="addr:country" v="DE"/>
    <tag k="addr:housenumber" v="37"/>
    <tag k="addr:postcode" v="82054"/>
    <tag k="addr:street" v="Tegernseer Landstraße"/>
  </node>
  <node id="313909131" version="6" timestamp="2009-10-23T12:08:31Z" uid="36809" user="pfoten_weg_!_" changeset="2929257" lat="47.9683682" lon="11.6536802">
    <tag k="addr:city" v="Sauerlach"/>
    <tag k="addr:country" v="DE"/>
    <tag k="addr:housenumber" v="37"/>
    <tag k="addr:postcode" v="82054"/>
    <tag k="addr:street" v="Tegernseer Landstraße"/>
  </node>
  <node id="313909134" version="1" timestamp="2008-11-23T13:00:50Z" uid="7617" user="Franc" changeset="783716" lat="-33.7338068" lon="150.817045"/>
  <node id="313909166" version="1" timestamp="2008-11-23T13:00:53Z" uid="7617" user="Franc" changeset="783716" lat="-33.7338664" lon="150.8177375"/>
  <node id="313909170" version="1" timestamp="2008-11-23T13:00:54Z" uid="7617" user="Franc" changeset="783716" lat="-33.733663" lon="150.8179533"/>
  <node id="313909187" version="1" timestamp="2008-11-23T13:00:58Z" uid="7617" user="Franc" changeset="783716" lat="-33.7335192" lon="150.8177663"/>
  <node id="313909192" version="1" timestamp="2008-11-23T13:00:59Z" uid="7617" user="Franc" changeset="783716" lat="-33.7334719" lon="150.8178115"/>
  <node id="313909195" version="1" timestamp="2008-11-23T13:01:00Z" uid="7617" user="Franc" changeset="783716" lat="-33.7335644" lon="150.8184115"/>
  <node id="313909209" version="1" timestamp="2008-11-23T13:01:04Z" uid="7617" user="Franc" changeset="783716" lat="-33.7334863" lon="150.8184198"/>
  <node id="313909219" version="1" timestamp="2008-11-23T13:01:05Z" uid="7617" user="Franc" changeset="783716" lat="-33.7334431" lon="150.8182225"/>
  <node id="313909225" version="1" timestamp="2008-11-23T13:01:06Z" uid="7617" user="Franc" changeset="783716" lat="-33.7332623" lon="150.818393"/>
  <node id="313909229" version="1" timestamp="2008-11-23T13:01:07Z" uid="7617" user="Franc" changeset="783716" lat="-33.7331554" lon="150.8182595"/>
  <node id="313909235" version="1" timestamp="2008-11-23T13:01:08Z" uid="7617" user="Franc" changeset="783716" lat="-33.7330609" lon="150.818391"/>
  <node id="313909248" version="1" timestamp="2008-11-23T13:01:11Z" uid="7617" user="Franc" changeset="783716" lat="-33.7329623" lon="150.8183129"/>
  <node id="313909253" version="1" timestamp="2008-11-23T13:01:12Z" uid="7617" user="Franc" changeset="783716" lat="-33.7328801" lon="150.8184876"/>
  <node id="313909256" version="1" timestamp="2008-11-23T13:01:13Z" uid="7617" user="Franc" changeset="783716" lat="-33.7331945" lon="150.8187486"/>
  <node id="313909260" version="1" timestamp="2008-11-23T13:01:14Z" uid="7617" user="Franc" changeset="783716" lat="-33.7332952" lon="150.8194719"/>
  <node id="313909272" version="1" timestamp="2008-11-23T13:01:17Z" uid="7617" user="Franc" changeset="783716" lat="-33.7328986" lon="150.8200164"/>
  <node id="313909281" version="1" timestamp="2008-11-23T13:01:18Z" uid="7617" user="Franc" changeset="783716" lat="-33.7322595" lon="150.820896"/>
  <node id="313909287" version="1" timestamp="2008-11-23T13:01:19Z" uid="7617" user="Franc" changeset="783716" lat="-33.7316512" lon="150.8204254"/>
  <node id="313909292" version="1" timestamp="2008-11-23T13:01:20Z" uid="7617" user="Franc" changeset="783716" lat="-33.7313615" lon="150.8204768"/>
  <node id="313909296" version="1" timestamp="2008-11-23T13:01:21Z" uid="7617" user="Franc" changeset="783716" lat="-33.7310758" lon="150.8206227"/>
  <node id="313909307" version="1" timestamp="2008-11-23T13:01:22Z" uid="7617" user="Franc" changeset="783716" lat="-33.7311087" lon="150.8207233"/>
  <node id="313909321" version="1" timestamp="2008-11-23T13:01:26Z" uid="7617" user="Franc" changeset="783716" lat="-33.7307203" lon="150.8209371"/>
  <node id="313909345" version="1" timestamp="2008-11-23T13:01:30Z" uid="7617" user="Franc" changeset="783716" lat="-33.7307553" lon="150.8210213"/>
  <node id="313909362" version="1" timestamp="2008-11-23T13:01:33Z" uid="7617" user="Franc" changeset="783716" lat="-33.7300545" lon="150.8213193"/>
  <node id="313909371" version="1" timestamp="2008-11-23T13:01:34Z" uid="7617" user="Franc" changeset="783716" lat="-33.7298552" lon="150.8213316"/>
  <node id="313909380" version="1" timestamp="2008-11-23T13:01:35Z" uid="7617" user="Franc" changeset="783716" lat="-33.7296456" lon="150.821309"/>
  <node id="313909390" version="1" timestamp="2008-11-23T13:01:37Z" uid="7617" user="Franc" changeset="783716" lat="-33.7294791" lon="150.821198"/>
  <node id="313909396" version="1" timestamp="2008-11-23T13:01:38Z" uid="7617" user="Franc" changeset="783716" lat="-33.7292963" lon="150.8211138"/>
  <node id="313909400" version="1" timestamp="2008-11-23T13:01:39Z" uid="7617" user="Franc" changeset="783716" lat="-33.7292161" lon="150.8216419"/>
  <node id="313909408" version="1" timestamp="2008-11-23T13:01:40Z" uid="7617" user="Franc" changeset="783716" lat="-33.7299066" lon="150.8216008"/>
  <node id="313909412" version="1" timestamp="2008-11-23T13:01:41Z" uid="7617" user="Franc" changeset="783716" lat="-33.7303669" lon="150.8215433"/>
  <node id="313909416" version="1" timestamp="2008-11-23T13:01:43Z" uid="7617" user="Franc" changeset="783716" lat="-33.730969" lon="150.8214487"/>
  <node id="313909420" version="1" timestamp="2008-11-23T13:01:43Z" uid="7617" user="Franc" changeset="783716" lat="-33.7313944" lon="150.8211097"/>
  <node id="313909421" version="2" timestamp="2009-03-30T00:42:44Z" uid="36809" user="pfoten_weg_!_" changeset="869093" lat="48.0095519" lon="11.4820776">
    <tag k="created_by" v="RambaZamba"/>
    <tag k="source" v="survey"/>
  </node>
  <node id="313909421" version="3" timestamp="2009-04-03T18:37:07Z" uid="36809" user="pfoten_weg_!_" changeset="137388" lat="48.0095519" lon="11.4820776">
    <tag k="created_by" v="RambaZamba"/>
    <tag k="source" v="survey"/>
  </node>
  <node id="313909423" version="2" timestamp="2009-03-30T00:42:44Z" uid="36809" user="pfoten_weg_!_" changeset="869093" lat="48.0087527" lon="11.4810835">
    <tag k="created_by" v="RambaZamba"/>
    <tag k="source" v="survey"/>
  </node>
  <node id="313909423" version="3" timestamp="2009-04-03T18:37:07Z" uid="36809" user="pfoten_weg_!_" changeset="137388" lat="48.0087527" lon="11.4810835">
    <tag k="created_by" v="RambaZamba"/>
    <tag k="source" v="survey"/>
  </node>
  <node id="313909424" version="1" timestamp="2008-11-23T13:01:45Z" uid="7617" user="Franc" changeset="783716" lat="-33.7321814" lon="150.8209412"/>
  <node id="313909426" version="2" timestamp="2009-03-30T00:42:46Z" uid="36809" user="pfoten_weg_!_" changeset="869093" lat="48.0087909" lon="11.4806342">
    <tag k="created_by" v="RambaZamba"/>
    <tag k="source" v="survey"/>
  </node>
  <node id="313909426" version="3" timestamp="2009-04-03T18:37:05Z" uid="36809" user="pfoten_weg_!_" changeset="137388" lat="48.0087909" lon="11.4806342">
    <tag k="created_by" v="RambaZamba"/>
    <tag k="source" v="survey"/>
  </node>
  <node id="313909430" version="2" timestamp="2009-03-30T00:42:45Z" uid="36809" user="pfoten_weg_!_" changeset="869093" lat="48.0077557" lon="11.4807056">
    <tag k="created_by" v="RambaZamba"/>
    <tag k="source" v="survey"/>
  </node>
  <node id="313909430" version="3" timestamp="2009-04-03T18:37:05Z" uid="36809" user="pfoten_weg_!_" changeset="137388" lat="48.0077557" lon="11.4807056">
    <tag k="created_by" v="RambaZamba"/>
    <tag k="source" v="survey"/>
  </node>
  <node id="313909434" version="2" timestamp="2009-03-30T00:42:45Z" uid="36809" user="pfoten_weg_!_" changeset="869093" lat="48.0078654" lon="11.4800567">
    <tag k="created_by" v="RambaZamba"/>
    <tag k="source" v="survey"/>
  </node>
  <node id="313909434" version="3" timestamp="2009-04-03T18:37:06Z" uid="36809" user="pfoten_weg_!_" changeset="137388" lat="48.0078654" lon="11.4800567">
    <tag k="created_by" v="RambaZamba"/>
    <tag k="source" v="survey"/>
  </node>
  <node id="313909438" version="1" timestamp="2008-11-23T13:01:46Z" uid="7617" user="Franc" changeset="783716" lat="-33.7322698" lon="150.8209453"/>
  <node id="313909440" version="2" timestamp="2009-03-30T00:42:34Z" uid="36809" user="pfoten_weg_!_" changeset="869093" lat="48.0059738" lon="11.4797096">
    <tag k="created_by" v="RambaZamba"/>
    <tag k="source" v="survey"/>
  </node>
  <node id="313909440" version="3" timestamp="2009-04-03T18:37:16Z" uid="36809" user="pfoten_weg_!_" changeset="137388" lat="48.0059738" lon="11.4797096">
    <tag k="created_by" v="RambaZamba"/>
    <tag k="source" v="survey"/>
  </node>
  <node id="313909443" version="2" timestamp="2009-03-30T00:42:34Z" uid="36809" user="pfoten_weg_!_" changeset="869093" lat="48.0062005" lon="11.4792224">
    <tag k="created_by" v="RambaZamba"/>
    <tag k="source" v="survey"/>
  </node>
  <node id="313909443" version="3" timestamp="2009-04-03T18:37:16Z" uid="36809" user="pfoten_weg_!_" changeset="137388" lat="48.0062005" lon="11.4792224">
    <tag k="created_by" v="RambaZamba"/>
    <tag k="source" v="survey"/>
  </node>
  <node id="313909447" version="2" timestamp="2009-03-30T00:42:34Z" uid="36809" user="pfoten_weg_!_" changeset="869093" lat="48.0043897" lon="11.4792297">
    <tag k="created_by" v="RambaZamba"/>
    <tag k="source" v="survey"/>
  </node>
  <node id="313909447" version="3" timestamp="2009-04-03T18:37:16Z" uid="36809" user="pfoten_weg_!_" changeset="137388" lat="48.0043897" lon="11.4792297">
    <tag k="created_by" v="RambaZamba"/>
    <tag k="source" v="survey"/>
  </node>
  <node id="313909450" version="1" timestamp="2008-11-23T13:01:48Z" uid="7617" user="Franc" changeset="783716" lat="-33.7325718" lon="150.8212206"/>
  <node id="313909453" version="2" timestamp="2009-03-30T00:42:34Z" uid="36809" user="pfoten_weg_!_" changeset="869093" lat="48.0026982" lon="11.4789887">
    <tag k="created_by" v="RambaZamba"/>
    <tag k="source" v="survey"/>
  </node>
  <node id="313909453" version="3" timestamp="2009-04-03T18:37:17Z" uid="36809" user="pfoten_weg_!_" changeset="137388" lat="48.0026982" lon="11.4789887">
    <tag k="created_by" v="RambaZamba"/>
    <tag k="source" v="survey"/>
  </node>
  <node id="313909455" version="2" timestamp="2009-03-30T00:42:33Z" uid="36809" user="pfoten_weg_!_" changeset="869093" lat="48.0046085" lon="11.4786755">
    <tag k="created_by" v="RambaZamba"/>
    <tag k="source" v="survey"/>
  </node>
  <node id="313909455" version="3" timestamp="2009-04-03T18:37:17Z" uid="36809" user="pfoten_weg_!_" changeset="137388" lat="48.0046085" lon="11.4786755">
    <tag k="created_by" v="RambaZamba"/>
    <tag k="source" v="survey"/>
  </node>
  <node id="313909459" version="2" timestamp="2009-03-30T00:42:35Z" uid="36809" user="pfoten_weg_!_" changeset="869093" lat="48.0030343" lon="11.4784575">
    <tag k="created_by" v="RambaZamba"/>
    <tag k="source" v="survey"/>
  </node>
  <node id="313909459" version="3" timestamp="2009-04-03T18:37:13Z" uid="36809" user="pfoten_weg_!_" changeset="137388" lat="48.0030343" lon="11.4784575">
    <tag k="created_by" v="RambaZamba"/>
    <tag k="source" v="survey"/>
  </node>
  <node id="313909463" version="2" timestamp="2009-03-30T00:42:36Z" uid="36809" user="pfoten_weg_!_" changeset="869093" lat="47.9991946" lon="11.4793571">
    <tag k="created_by" v="RambaZamba"/>
    <tag k="source" v="survey"/>
  </node>
  <node id="313909463" version="3" timestamp="2009-04-03T18:37:13Z" uid="36809" user="pfoten_weg_!_" changeset="137388" lat="47.9991946" lon="11.4793571">
    <tag k="created_by" v="RambaZamba"/>
    <tag k="source" v="survey"/>
  </node>
  <node id="313909467" version="2" timestamp="2009-03-30T00:42:34Z" uid="36809" user="pfoten_weg_!_" changeset="869093" lat="48.0015105" lon="11.4783312">
    <tag k="created_by" v="RambaZamba"/>
    <tag k="source" v="survey"/>
  </node>
  <node id="313909467" version="3" timestamp="2009-04-03T18:37:15Z" uid="36809" user="pfoten_weg_!_" changeset="137388" lat="48.0015105" lon="11.4783312">
    <tag k="created_by" v="RambaZamba"/>
    <tag k="source" v="survey"/>
  </node>
  <node id="313909471" version="2" timestamp="2009-03-30T00:42:35Z" uid="36809" user="pfoten_weg_!_" changeset="869093" lat="47.9979797" lon="11.4801439">
    <tag k="created_by" v="RambaZamba"/>
    <tag k="source" v="survey"/>
  </node>
  <node id="313909471" version="3" timestamp="2009-04-03T18:37:14Z" uid="36809" user="pfoten_weg_!_" changeset="137388" lat="47.9979797" lon="11.4801439">
    <tag k="created_by" v="RambaZamba"/>
    <tag k="source" v="survey"/>
  </node>
  <node id="313909474" version="2" timestamp="2009-03-30T00:42:37Z" uid="36809" user="pfoten_weg_!_" changeset="869093" lat="47.9976457" lon="11.4814963">
    <tag k="created_by" v="RambaZamba"/>
    <tag k="source" v="survey"/>
  </node>
  <node id="313909474" version="3" timestamp="2009-04-03T18:37:11Z" uid="36809" user="pfoten_weg_!_" changeset="137388" lat="47.9976457" lon="11.4814963">
    <tag k="created_by" v="RambaZamba"/>
    <tag k="source" v="survey"/>
  </node>
  <node id="313909476" version="1" timestamp="2008-11-23T13:01:51Z" uid="7617" user="Franc" changeset="783716" lat="-33.7317351" lon="150.8224545"/>
  <node id="313909479" version="2" timestamp="2009-03-30T00:42:37Z" uid="36809" user="pfoten_weg_!_" changeset="869093" lat="47.995174" lon="11.4803988">
    <tag k="created_by" v="RambaZamba"/>
    <tag k="source" v="survey"/>
  </node>
  <node id="313909479" version="3" timestamp="2009-04-03T18:37:11Z" uid="36809" user="pfoten_weg_!_" changeset="137388" lat="47.995174" lon="11.4803988">
    <tag k="created_by" v="RambaZamba"/>
    <tag k="source" v="survey"/>
  </node>
  <node id="313909484" version="2" timestamp="2009-03-30T00:42:37Z" uid="36809" user="pfoten_weg_!_" changeset="869093" lat="47.9932282" lon="11.478073">
    <tag k="created_by" v="RambaZamba"/>
    <tag k="source" v="survey"/>
  </node>
  <node id="313909484" version="3" timestamp="2009-04-03T18:37:12Z" uid="36809" user="pfoten_weg_!_" changeset="137388" lat="47.9932282" lon="11.478073">
    <tag k="created_by" v="RambaZamba"/>
    <tag k="source" v="survey"/>
  </node>
  <node id="313909488" version="1" timestamp="2008-11-23T13:01:52Z" uid="7617" user="Franc" changeset="783716" lat="-33.7336758" lon="150.8220224"/>
  <node id="313909490" version="2" timestamp="2009-03-30T00:42:39Z" uid="36809" user="pfoten_weg_!_" changeset="869093" lat="47.9989284" lon="11.478817">
    <tag k="created_by" v="RambaZamba"/>
    <tag k="source" v="survey"/>
  </node>
  <node id="313909490" version="3" timestamp="2009-04-03T18:37:09Z" uid="36809" user="pfoten_weg_!_" changeset="137388" lat="47.9989284" lon="11.478817">
    <tag k="created_by" v="RambaZamba"/>
    <tag k="source" v="survey"/>
  </node>
  <node id="313909493" version="2" timestamp="2009-03-30T00:42:39Z" uid="36809" user="pfoten_weg_!_" changeset="869093" lat="47.9967063" lon="11.4817824">
    <tag k="created_by" v="RambaZamba"/>
    <tag k="source" v="survey"/>
  </node>
  <node id="313909493" version="3" timestamp="2009-04-03T18:37:08Z" uid="36809" user="pfoten_weg_!_" changeset="137388" lat="47.9967063" lon="11.4817824">
    <tag k="created_by" v="RambaZamba"/>
    <tag k="source" v="survey"/>
  </node>
  <node id="313909495" version="2" timestamp="2009-03-30T00:42:40Z" uid="36809" user="pfoten_weg_!_" changeset="869093" lat="47.9959191" lon="11.4813045">
    <tag k="created_by" v="RambaZamba"/>
    <tag k="source" v="survey"/>
  </node>
  <node id="313909495" version="3" timestamp="2009-04-03T18:37:08Z" uid="36809" user="pfoten_weg_!_" changeset="137388" lat="47.9959191" lon="11.4813045">
    <tag k="created_by" v="RambaZamba"/>
    <tag k="source" v="survey"/>
  </node>
  <node id="313909496" version="1" timestamp="2008-11-23T13:01:53Z" uid="7617" user="Franc" changeset="783716" lat="-33.733365" lon="150.8198747"/>
  <node id="313909498" version="2" timestamp="2009-03-30T00:42:38Z" uid="36809" user="pfoten_weg_!_" changeset="869093" lat="47.9946563" lon="11.4788905">
    <tag k="created_by" v="RambaZamba"/>
    <tag k="source" v="survey"/>
  </node>
  <node id="313909498" version="3" timestamp="2009-04-03T18:37:10Z" uid="36809" user="pfoten_weg_!_" changeset="137388" lat="47.9946563" lon="11.4788905">
    <tag k="created_by" v="RambaZamba"/>
    <tag k="source" v="survey"/>
  </node>
  <node id="313909499" version="2" timestamp="2009-03-30T00:42:38Z" uid="36809" user="pfoten_weg_!_" changeset="869093" lat="47.9977067" lon="11.4793929">
    <tag k="created_by" v="RambaZamba"/>
    <tag k="source" v="survey"/>
  </node>
  <node id="313909499" version="3" timestamp="2009-04-03T18:37:10Z" uid="36809" user="pfoten_weg_!_" changeset="137388" lat="47.9977067" lon="11.4793929">
    <tag k="created_by" v="RambaZamba"/>
    <tag k="source" v="survey"/>
  </node>
  <node id="313909501" version="2" timestamp="2009-03-30T00:42:38Z" uid="36809" user="pfoten_weg_!_" changeset="869093" lat="47.9972967" lon="11.4804467">
    <tag k="created_by" v="RambaZamba"/>
    <tag k="source" v="survey"/>
  </node>
  <node id="313909501" version="3" timestamp="2009-04-03T18:37:10Z" uid="36809" user="pfoten_weg_!_" changeset="137388" lat="47.9972967" lon="11.4804467">
    <tag k="created_by" v="RambaZamba"/>
    <tag k="source" v="survey"/>
  </node>
  <node id="313909503" version="2" timestamp="2009-03-30T00:42:38Z" uid="36809" user="pfoten_weg_!_" changeset="869093" lat="47.9965177" lon="11.4807408">
    <tag k="created_by" v="RambaZamba"/>
    <tag k="source" v="survey"/>
  </node>
  <node id="313909503" version="3" timestamp="2009-04-03T18:37:09Z" uid="36809" user="pfoten_weg_!_" changeset="137388" lat="47.9965177" lon="11.4807408">
    <tag k="created_by" v="RambaZamba"/>
    <tag k="source" v="survey"/>
  </node>
  <node id="313909504" version="1" timestamp="2008-11-23T13:01:54Z" uid="7617" user="Franc" changeset="783716" lat="-33.7341767" lon="150.8197185"/>
  <node id="313909505" version="2" timestamp="2009-03-30T00:42:15Z" uid="36809" user="pfoten_weg_!_" changeset="869093" lat="47.9956731" lon="11.4799443">
    <tag k="created_by" v="RambaZamba"/>
    <tag k="source" v="survey"/>
  </node>
  <node id="313909505" version="3" timestamp="2009-04-03T18:37:39Z" uid="36809" user="pfoten_weg_!_" changeset="137388" lat="47.9956731" lon="11.4799443">
    <tag k="created_by" v="RambaZamba"/>
    <tag k="source" v="survey"/>
  </node>
  <node id="313909507" version="2" timestamp="2009-03-30T00:42:16Z" uid="36809" user="pfoten_weg_!_" changeset="869093" lat="47.9952549" lon="11.4784371">
    <tag k="created_by" v="RambaZamba"/>
    <tag k="source" v="survey"/>
  </node>
  <node id="313909507" version="3" timestamp="2009-04-03T18:37:39Z" uid="36809" user="pfoten_weg_!_" changeset="137388" lat="47.9952549" lon="11.4784371">
    <tag k="created_by" v="RambaZamba"/>
    <tag k="source" v="survey"/>
  </node>
  <node id="313909510" version="2" timestamp="2009-03-30T00:42:15Z" uid="36809" user="pfoten_weg_!_" changeset="869093" lat="47.9946399" lon="11.4776039">
    <tag k="created_by" v="RambaZamba"/>
    <tag k="source" v="survey"/>
  </node>
  <node id="313909510" version="3" timestamp="2009-04-03T18:37:40Z" uid="36809" user="pfoten_weg_!_" changeset="137388" lat="47.9946399" lon="11.4776039">
    <tag k="created_by" v="RambaZamba"/>
    <tag k="source" v="survey"/>
  </node>
  <node id="313909512" version="2" timestamp="2009-03-30T00:42:17Z" uid="36809" user="pfoten_weg_!_" changeset="869093" lat="47.9935001" lon="11.4770279">
    <tag k="created_by" v="RambaZamba"/>
    <tag k="source" v="survey"/>
  </node>
  <node id="313909512" version="3" timestamp="2009-04-03T18:37:38Z" uid="36809" user="pfoten_weg_!_" changeset="137388" lat="47.9935001" lon="11.4770279">
    <tag k="created_by" v="RambaZamba"/>
    <tag k="source" v="survey"/>
  </node>
  <node id="313909513" version="1" timestamp="2008-11-23T13:01:55Z" uid="7617" user="Franc" changeset="783716" lat="-33.733924" lon="150.8179533"/>
  <node id="313909514" version="2" timestamp="2009-03-30T00:42:17Z" uid="36809" user="pfoten_weg_!_" changeset="869093" lat="47.9898508" lon="11.476305">
    <tag k="created_by" v="RambaZamba"/>
    <tag k="source" v="survey"/>
  </node>
  <node id="313909514" version="3" timestamp="2009-04-03T18:37:37Z" uid="36809" user="pfoten_weg_!_" changeset="137388" lat="47.9898508" lon="11.476305">
    <tag k="created_by" v="RambaZamba"/>
    <tag k="source" v="survey"/>
  </node>
  <node id="313909516" version="2" timestamp="2009-03-30T00:42:16Z" uid="36809" user="pfoten_weg_!_" changeset="869093" lat="47.9912531" lon="11.4759741">
    <tag k="created_by" v="RambaZamba"/>
    <tag k="source" v="survey"/>
  </node>
  <node id="313909516" version="3" timestamp="2009-04-03T18:37:39Z" uid="36809" user="pfoten_weg_!_" changeset="137388" lat="47.9912531" lon="11.4759741">
    <tag k="created_by" v="RambaZamba"/>
    <tag k="source" v="survey"/>
  </node>
  <node id="313909518" version="2" timestamp="2009-03-30T00:42:16Z" uid="36809" user="pfoten_weg_!_" changeset="869093" lat="47.9880711" lon="11.47481">
    <tag k="created_by" v="RambaZamba"/>
    <tag k="source" v="survey"/>
  </node>
  <node id="313909518" version="3" timestamp="2009-04-03T18:37:38Z" uid="36809" user="pfoten_weg_!_" changeset="137388" lat="47.9880711" lon="11.47481">
    <tag k="created_by" v="RambaZamba"/>
    <tag k="source" v="survey"/>
  </node>
  <node id="313909520" version="2" timestamp="2009-03-30T00:42:14Z" uid="36809" user="pfoten_weg_!_" changeset="869093" lat="47.9877431" lon="11.4753124">
    <tag k="created_by" v="RambaZamba"/>
    <tag k="source" v="survey"/>
  </node>
  <node id="313909520" version="3" timestamp="2009-04-03T18:37:40Z" uid="36809" user="pfoten_weg_!_" changeset="137388" lat="47.9877431" lon="11.4753124">
    <tag k="created_by" v="RambaZamba"/>
    <tag k="source" v="survey"/>
  </node>
  <node id="313909522" version="2" timestamp="2009-03-30T00:42:14Z" uid="36809" user="pfoten_weg_!_" changeset="869093" lat="47.9917451" lon="11.4770524">
    <tag k="created_by" v="RambaZamba"/>
    <tag k="source" v="survey"/>
  </node>
  <node id="313909522" version="3" timestamp="2009-04-03T18:37:40Z" uid="36809" user="pfoten_weg_!_" changeset="137388" lat="47.9917451" lon="11.4770524">
    <tag k="created_by" v="RambaZamba"/>
    <tag k="source" v="survey"/>
  </node>
  <node id="313909536" version="1" timestamp="2008-11-23T13:01:59Z" uid="7617" user="Franc" changeset="783716" lat="-33.7338849" lon="150.8170019"/>
  <node id="313909549" version="1" timestamp="2008-11-23T13:02:00Z" uid="7617" user="Franc" changeset="783716" lat="-33.7342199" lon="150.8169895"/>
  <node id="313909560" version="1" timestamp="2008-11-23T13:02:01Z" uid="7617" user="Franc" changeset="783716" lat="-33.7342055" lon="150.8168642"/>
  <node id="313909572" version="1" timestamp="2008-11-23T13:02:02Z" uid="7617" user="Franc" changeset="783716" lat="-33.7341439" lon="150.8166874"/>
  <node id="313909582" version="1" timestamp="2008-11-23T13:02:03Z" uid="7617" user="Franc" changeset="783716" lat="-33.7340514" lon="150.8165148"/>
  <node id="313909612" version="1" timestamp="2008-11-23T13:02:09Z" uid="7617" user="Franc" changeset="783716" lat="-33.7323287" lon="150.8215557"/>
  <node id="313909637" version="1" timestamp="2008-11-23T13:02:12Z" uid="7617" user="Franc" changeset="783716" lat="-33.7323479" lon="150.8217797"/>
  <node id="313909643" version="1" timestamp="2008-11-23T13:02:13Z" uid="7617" user="Franc" changeset="783716" lat="-33.7322999" lon="150.8219045"/>
  <node id="313909647" version="1" timestamp="2008-11-23T13:02:14Z" uid="7617" user="Franc" changeset="783716" lat="-33.7321879" lon="150.8219749"/>
  <node id="313909651" version="1" timestamp="2008-11-23T13:02:15Z" uid="7617" user="Franc" changeset="783716" lat="-33.7316888" lon="150.8220869"/>
  <node id="313909655" version="1" timestamp="2008-11-23T13:02:16Z" uid="7617" user="Franc" changeset="783716" lat="-33.7317528" lon="150.8220517"/>
  <node id="313909672" version="1" timestamp="2008-11-23T13:02:21Z" uid="7617" user="Franc" changeset="783716" lat="-33.7316824" lon="150.8221733"/>
  <node id="313909677" version="1" timestamp="2008-11-23T13:02:22Z" uid="7617" user="Franc" changeset="783716" lat="-33.7301721" lon="150.820407"/>
  <node id="313909683" version="1" timestamp="2008-11-23T13:02:24Z" uid="7617" user="Franc" changeset="783716" lat="-33.7299545" lon="150.8204998"/>
  <node id="313909687" version="1" timestamp="2008-11-23T13:02:25Z" uid="7617" user="Franc" changeset="783716" lat="-33.7298457" lon="150.8205286"/>
  <node id="313909691" version="1" timestamp="2008-11-23T13:02:27Z" uid="7617" user="Franc" changeset="783716" lat="-33.7297977" lon="150.8205798"/>
  <node id="313909695" version="1" timestamp="2008-11-23T13:02:28Z" uid="7617" user="Franc" changeset="783716" lat="-33.7297817" lon="150.820663"/>
  <node id="313909698" version="1" timestamp="2008-11-23T13:02:29Z" uid="7617" user="Franc" changeset="783716" lat="-33.7297849" lon="150.820743"/>
  <node id="313909703" version="1" timestamp="2008-11-23T13:02:30Z" uid="7617" user="Franc" changeset="783716" lat="-33.7298105" lon="150.8208326"/>
  <node id="313909709" version="1" timestamp="2008-11-23T13:02:31Z" uid="7617" user="Franc" changeset="783716" lat="-33.7298553" lon="150.8208934"/>
  <node id="313909712" version="1" timestamp="2008-11-23T13:02:32Z" uid="7617" user="Franc" changeset="783716" lat="-33.7299193" lon="150.8209094"/>
  <node id="313909716" version="1" timestamp="2008-11-23T13:02:33Z" uid="7617" user="Franc" changeset="783716" lat="-33.7300153" lon="150.8208966"/>
  <node id="313909720" version="1" timestamp="2008-11-23T13:02:34Z" uid="7617" user="Franc" changeset="783716" lat="-33.7302329" lon="150.8208326"/>
  <node id="313909728" version="1" timestamp="2008-11-23T13:02:35Z" uid="7617" user="Franc" changeset="783716" lat="-33.7303353" lon="150.8208134"/>
  <node id="313909735" version="1" timestamp="2008-11-23T13:02:36Z" uid="7617" user="Franc" changeset="783716" lat="-33.7304569" lon="150.8207686"/>
  <node id="313909742" version="1" timestamp="2008-11-23T13:02:37Z" uid="7617" user="Franc" changeset="783716" lat="-33.7305497" lon="150.8207142"/>
  <node id="313909747" version="1" timestamp="2008-11-23T13:02:38Z" uid="7617" user="Franc" changeset="783716" lat="-33.7306169" lon="150.8206374"/>
  <node id="313909753" version="1" timestamp="2008-11-23T13:02:39Z" uid="7617" user="Franc" changeset="783716" lat="-33.7307097" lon="150.8205446"/>
  <node id="313909760" version="1" timestamp="2008-11-23T13:02:41Z" uid="7617" user="Franc" changeset="783716" lat="-33.7308697" lon="150.8204262"/>
  <node id="313909765" version="1" timestamp="2008-11-23T13:02:42Z" uid="7617" user="Franc" changeset="783716" lat="-33.7309688" lon="150.8203814"/>
  <node id="313909770" version="1" timestamp="2008-11-23T13:02:43Z" uid="7617" user="Franc" changeset="783716" lat="-33.7312344" lon="150.8203206"/>
  <node id="313909777" version="1" timestamp="2008-11-23T13:02:44Z" uid="7617" user="Franc" changeset="783716" lat="-33.7313336" lon="150.820279"/>
  <node id="313909790" version="1" timestamp="2008-11-23T13:02:47Z" uid="7617" user="Franc" changeset="783716" lat="-33.7313752" lon="150.8201958"/>
  <node id="313909795" version="1" timestamp="2008-11-23T13:02:48Z" uid="7617" user="Franc" changeset="783716" lat="-33.7313752" lon="150.820103"/>
  <node id="313909799" version="1" timestamp="2008-11-23T13:02:49Z" uid="7617" user="Franc" changeset="783716" lat="-33.731356" lon="150.8199975"/>
  <node id="313909803" version="1" timestamp="2008-11-23T13:02:50Z" uid="7617" user="Franc" changeset="783716" lat="-33.731324" lon="150.8198983"/>
  <node id="313909806" version="1" timestamp="2008-11-23T13:02:51Z" uid="7617" user="Franc" changeset="783716" lat="-33.7312728" lon="150.8198151"/>
  <node id="313909809" version="1" timestamp="2008-11-23T13:02:52Z" uid="7617" user="Franc" changeset="783716" lat="-33.7312024" lon="150.8197575"/>
  <node id="313909813" version="1" timestamp="2008-11-23T13:02:53Z" uid="7617" user="Franc" changeset="783716" lat="-33.7311288" lon="150.8197543"/>
  <node id="313909821" version="1" timestamp="2008-11-23T13:02:54Z" uid="7617" user="Franc" changeset="783716" lat="-33.7310232" lon="150.8197735"/>
  <node id="313909839" version="1" timestamp="2008-11-23T13:02:55Z" uid="7617" user="Franc" changeset="783716" lat="-33.7309272" lon="150.8198407"/>
  <node id="313909844" version="1" timestamp="2008-11-23T13:02:56Z" uid="7617" user="Franc" changeset="783716" lat="-33.7304697" lon="150.8202342"/>
  <node id="313909847" version="1" timestamp="2008-11-23T13:02:58Z" uid="7617" user="Franc" changeset="783716" lat="-33.7303033" lon="150.820359"/>
  <node id="313909851" version="1" timestamp="2008-11-23T13:02:59Z" uid="7617" user="Franc" changeset="783716" lat="-33.7306713" lon="150.8205638"/>
  <node id="313909860" version="3" timestamp="2010-06-26T17:18:31Z" uid="74617" user="JohnSmith" changeset="5082284" lat="-27.6464846" lon="152.5826922"/>
  <node id="313909902" version="5" timestamp="2010-06-26T17:14:20Z" uid="74617" user="JohnSmith" changeset="5082284" lat="-27.6444895" lon="152.5887178"/>
  <node id="313909904" version="2" timestamp="2010-06-26T17:14:20Z" uid="74617" user="JohnSmith" changeset="5082284" lat="-27.6457454" lon="152.5850635"/>
  <node id="313909905" version="2" timestamp="2010-06-26T17:18:31Z" uid="74617" user="JohnSmith" changeset="5082284" lat="-27.6462136" lon="152.5836779"/>
  <node id="313909907" version="2" timestamp="2010-06-26T17:18:30Z" uid="74617" user="JohnSmith" changeset="5082284" lat="-27.646347" lon="152.5832164"/>
  <node id="313909913" version="5" timestamp="2010-06-26T17:14:20Z" uid="74617" user="JohnSmith" changeset="5082284" lat="-27.6443894" lon="152.5889908"/>
</osm>
