<?xml version='1.0' encoding='UTF-8'?>
<osm version="0.6" generator="libosmium/2.20.0">
  <node id="316690127" version="2" timestamp="2010-07-29T09:38:07Z" uid="74617" user="JohnSmith" changeset="5344848" lat="48.4174356" lon="10.8363024">
    <tag k="amenity" v="emergency_phone"/>
    <tag k="emergency" v="phone"/>
    <tag k="operator" v="Straßenmeisterei"/>
    <tag k="source" v="Photo"/>
  </node>
  <node id="316690441" version="2" timestamp="2009-05-11T20:47:54Z" uid="49111" user="Markus B" changeset="1158489" lat="49.6899153" lon="11.4105908"/>
  <node id="316691182" version="2" timestamp="2009-05-11T20:47:54Z" uid="49111" user="Markus B" changeset="1158489" lat="49.69978" lon="11.4318187"/>
  <node id="316691578" version="3" timestamp="2009-05-04T05:40:33Z" uid="49111" user="Markus B" changeset="1070428" lat="49.7012823" lon="11.4347929"/>
  <node id="316693500" version="2" timestamp="2009-06-29T11:54:08Z" uid="20587" user="balrog-kun" changeset="1676160" lat="52.4120974" lon="16.9037523">
    <tag k="layer" v="2"/>
    <tag k="name" v="Rynek Jeżycki"/>
    <tag k="railway" v="halt"/>
  </node>
  <node id="316693829" version="2" timestamp="2008-12-13T21:26:35Z" uid="6975" user="ulfl" changeset="352865" lat="48.1160895" lon="16.2840023">
    <tag k="amenity" v="recycling"/>
    <tag k="name" v="Wirtschaftshof"/>
    <tag k="recycling:batteries" v="yes"/>
    <tag k="recycling:clothes" v="yes"/>
    <tag k="recycling:glass_bottles" v="yes"/>
    <tag k="recycling:paper" v="yes"/>
    <tag k="recycling:scrap_metal" v="yes"/>
    <tag k="recycling:white_goods" v="yes"/>
  </node>
  <node id="316695263" version="2" timestamp="2010-07-29T09:41:22Z" uid="74617" user="JohnSmith" changeset="5344848" lat="48.4172195" lon="10.7435399">
    <tag k="amenity" v="emergency_phone"/>
    <tag k="emergency" v="phone"/>
    <tag k="operator" v="Straßenmeisterei"/>
    <tag k="source" v="Photo"/>
  </node>
  <node id="316695266" version="2" timestamp="2010-07-29T09:26:14Z" uid="74617" user="JohnSmith" changeset="5344848" lat="48.4169679" lon="10.722079">
    <tag k="amenity" v="emergency_phone"/>
    <tag k="emergency" v="phone"/>
    <tag k="operator" v="Straßenmeisterei"/>
    <tag k="source" v="Photo"/>
  </node>
  <node id="316695774" version="5" timestamp="2009-08-13T14:54:30Z" uid="4667" user="MapZ" changeset="2132574" lat="47.6461076" lon="10.5800198"/>
  <node id="316697203" version="2" timestamp="2010-07-29T09:14:19Z" uid="74617" user="JohnSmith" changeset="5344848" lat="48.4199727" lon="10.6813274">
    <tag k="amenity" v="emergency_phone"/>
    <tag k="emergency" v="phone"/>
    <tag k="operator" v="Straßenmeisterei"/>
    <tag k="source" v="Photo"/>
  </node>
  <node id="316697205" version="2" timestamp="2010-07-29T09:10:28Z" uid="74617" user="JohnSmith" changeset="5344848" lat="48.4101964" lon="10.639431">
    <tag k="amenity" v="emergency_phone"/>
    <tag k="emergency" v="phone"/>
    <tag k="operator" v="Straßenmeisterei"/>
    <tag k="source" v="Photo"/>
  </node>
  <node id="316697645" version="3" timestamp="2010-08-25T07:34:53Z" uid="33382" user="de_muur" changeset="5586788" lat="53.7054668" lon="10.3829001"/>
  <node id="316697662" version="3" timestamp="2010-08-25T07:34:53Z" uid="33382" user="de_muur" changeset="5586788" lat="53.7061873" lon="10.3839212"/>
  <node id="316697663" version="2" timestamp="2010-08-25T07:34:54Z" uid="33382" user="de_muur" changeset="5586788" lat="53.7054362" lon="10.3874393"/>
  <node id="316697707" version="2" timestamp="2010-08-25T07:34:55Z" uid="33382" user="de_muur" changeset="5586788" lat="53.7066538" lon="10.3932668"/>
  <node id="316697708" version="2" timestamp="2010-08-25T07:34:55Z" uid="33382" user="de_muur" changeset="5586788" lat="53.7063736" lon="10.393056"/>
  <node id="316697709" version="2" timestamp="2010-08-25T07:34:55Z" uid="33382" user="de_muur" changeset="5586788" lat="53.7061448" lon="10.3926746"/>
  <node id="316697710" version="2" timestamp="2010-08-25T07:34:54Z" uid="33382" user="de_muur" changeset="5586788" lat="53.7058816" lon="10.3918801"/>
  <node id="316697711" version="2" timestamp="2010-08-25T07:34:54Z" uid="33382" user="de_muur" changeset="5586788" lat="53.7057818" lon="10.3912093"/>
  <node id="316697712" version="2" timestamp="2010-08-25T07:34:54Z" uid="33382" user="de_muur" changeset="5586788" lat="53.705798" lon="10.3901773"/>
  <node id="316697713" version="2" timestamp="2010-08-25T07:34:54Z" uid="33382" user="de_muur" changeset="5586788" lat="53.7058003" lon="10.3899089"/>
  <node id="316697715" version="2" timestamp="2010-08-25T07:34:54Z" uid="33382" user="de_muur" changeset="5586788" lat="53.7054154" lon="10.3881807"/>
  <node id="316697742" version="2" timestamp="2010-07-29T09:28:16Z" uid="74617" user="JohnSmith" changeset="5344848" lat="48.4098899" lon="10.610969">
    <tag k="amenity" v="emergency_phone"/>
    <tag k="emergency" v="phone"/>
    <tag k="operator" v="Straßenmeisterei"/>
    <tag k="source" v="Photo"/>
  </node>
  <node id="316697752" version="5" timestamp="2010-09-09T10:33:35Z" uid="115477" user="wowik" changeset="5731419" lat="55.7968514" lon="37.6397342">
    <tag k="name" v="Рижская"/>
    <tag k="railway" v="halt"/>
  </node>
  <node id="316697753" version="6" timestamp="2010-09-09T13:55:15Z" uid="115477" user="wowik" changeset="5732891" lat="55.7952938" lon="37.6375109">
    <tag k="description" v="практически не используется"/>
    <tag k="name" v="Рижская"/>
    <tag k="railway" v="halt"/>
  </node>
  <node id="316697793" version="2" timestamp="2010-07-29T09:01:33Z" uid="74617" user="JohnSmith" changeset="5344848" lat="48.4100125" lon="10.5972317">
    <tag k="amenity" v="emergency_phone"/>
    <tag k="emergency" v="phone"/>
    <tag k="operator" v="Straßenmeisterei"/>
    <tag k="source" v="Photo"/>
  </node>
  <node id="316698597" version="2" timestamp="2010-07-29T09:19:24Z" uid="74617" user="JohnSmith" changeset="5344848" lat="48.4072058" lon="10.5753483">
    <tag k="amenity" v="emergency_phone"/>
    <tag k="emergency" v="phone"/>
    <tag k="operator" v="Straßenmeisterei"/>
    <tag k="source" v="Photo"/>
  </node>
  <node id="316699156" version="2" timestamp="2010-07-29T09:00:07Z" uid="74617" user="JohnSmith" changeset="5344848" lat="48.4012165" lon="10.5531182">
    <tag k="amenity" v="emergency_phone"/>
    <tag k="emergency" v="phone"/>
    <tag k="operator" v="Straßenmeisterei"/>
    <tag k="source" v="Photo"/>
  </node>
  <node id="316699239" version="2" timestamp="2010-07-29T09:16:12Z" uid="74617" user="JohnSmith" changeset="5344848" lat="48.402811" lon="10.5321573">
    <tag k="amenity" v="emergency_phone"/>
    <tag k="emergency" v="phone"/>
    <tag k="operator" v="Straßenmeisterei"/>
    <tag k="source" v="Photo"/>
  </node>
  <node id="316699439" version="2" timestamp="2010-07-29T08:57:33Z" uid="74617" user="JohnSmith" changeset="5344848" lat="48.4086179" lon="10.5084658">
    <tag k="amenity" v="emergency_phone"/>
    <tag k="emergency" v="phone"/>
    <tag k="operator" v="Straßenmeisterei"/>
    <tag k="source" v="Photo"/>
  </node>
  <node id="316699713" version="2" timestamp="2010-07-29T09:16:58Z" uid="74617" user="JohnSmith" changeset="5344848" lat="48.411021" lon="10.4873265">
    <tag k="amenity" v="emergency_phone"/>
    <tag k="emergency" v="phone"/>
    <tag k="operator" v="Straßenmeisterei"/>
    <tag k="source" v="Photo"/>
  </node>
  <node id="316699799" version="2" timestamp="2010-07-29T09:41:04Z" uid="74617" user="JohnSmith" changeset="5344848" lat="48.413668" lon="10.4593619">
    <tag k="amenity" v="emergency_phone"/>
    <tag k="emergency" v="phone"/>
    <tag k="operator" v="Straßenmeisterei"/>
    <tag k="source" v="Photo"/>
  </node>
</osm>
