<?xml version='1.0' encoding='UTF-8'?>
<osm version="0.6" generator="libosmium/2.20.0">
  <node id="316740485" version="9" timestamp="2009-05-08T09:58:25Z" uid="115797" user="Elofant" changeset="1115422" lat="29.0022119" lon="-13.483954"/>
  <node id="316740486" version="9" timestamp="2009-05-08T09:58:26Z" uid="115797" user="Elofant" changeset="1115422" lat="29.0017615" lon="-13.4833274"/>
  <node id="316740488" version="9" timestamp="2009-05-08T09:58:26Z" uid="115797" user="Elofant" changeset="1115422" lat="29.0005604" lon="-13.4828124"/>
  <node id="316740489" version="9" timestamp="2009-05-08T09:58:26Z" uid="115797" user="Elofant" changeset="1115422" lat="28.999562" lon="-13.4834133"/>
  <node id="316740490" version="9" timestamp="2009-05-08T09:58:26Z" uid="115797" user="Elofant" changeset="1115422" lat="28.9996821" lon="-13.4845806"/>
  <node id="316740491" version="9" timestamp="2009-05-08T09:58:26Z" uid="115797" user="Elofant" changeset="1115422" lat="29.0000574" lon="-13.4863573"/>
  <node id="316740492" version="9" timestamp="2009-05-08T09:58:25Z" uid="115797" user="Elofant" changeset="1115422" lat="29.00011" lon="-13.4869151"/>
  <node id="316740646" version="7" timestamp="2009-05-08T09:28:10Z" uid="115797" user="Elofant" changeset="1115321" lat="29.0049293" lon="-13.4876018"/>
  <node id="316740646" version="8" timestamp="2009-05-08T09:29:31Z" uid="115797" user="Elofant" changeset="1115321" lat="29.0049293" lon="-13.4876018"/>
  <node id="316740646" version="9" timestamp="2009-05-08T09:31:31Z" uid="115797" user="Elofant" changeset="1115355" lat="29.0049293" lon="-13.4876018"/>
  <node id="316740646" version="10" timestamp="2009-05-08T09:32:33Z" uid="115797" user="Elofant" changeset="1115355" lat="29.0052858" lon="-13.4873476"/>
  <node id="316740646" version="11" timestamp="2009-05-08T09:33:59Z" uid="115797" user="Elofant" changeset="1115384" lat="29.0049254" lon="-13.4876223"/>
  <node id="316740646" version="12" timestamp="2009-05-08T09:35:12Z" uid="115797" user="Elofant" changeset="1115384" lat="29.0049254" lon="-13.4876223"/>
  <node id="316740675" version="1" timestamp="2008-12-05T07:49:10Z" uid="43967" user="railsnail" changeset="124879" lat="46.8345035" lon="12.7830438"/>
  <node id="316740675" version="2" timestamp="2008-12-08T16:05:11Z" uid="43967" user="railsnail" changeset="265970" lat="46.8345035" lon="12.7830438"/>
  <node id="316740675" version="3" timestamp="2008-12-08T16:05:26Z" uid="43967" user="railsnail" changeset="265970" lat="46.8345035" lon="12.7830438"/>
  <node id="316740675" version="4" timestamp="2009-01-09T16:36:52Z" uid="43967" user="railsnail" changeset="763383" lat="46.8345357" lon="12.7830237"/>
  <node id="316740675" version="5" timestamp="2009-01-09T16:37:46Z" uid="43967" user="railsnail" changeset="763383" lat="46.8345357" lon="12.7830237"/>
  <node id="316740675" version="6" timestamp="2009-01-09T16:38:06Z" uid="43967" user="railsnail" changeset="763383" lat="46.8345357" lon="12.7830237"/>
  <node id="316740678" version="1" timestamp="2008-12-05T07:49:22Z" uid="43967" user="railsnail" changeset="124879" lat="46.8326539" lon="12.7957296"/>
  <node id="316740678" version="2" timestamp="2009-02-19T18:41:21Z" uid="43967" user="railsnail" changeset="562123" lat="46.8326539" lon="12.7957296"/>
  <node id="316740692" version="1" timestamp="2008-12-05T07:50:21Z" uid="43967" user="railsnail" changeset="124879" lat="46.8316667" lon="12.8148465"/>
  <node id="316740692" version="2" timestamp="2008-12-05T07:50:22Z" uid="43967" user="railsnail" changeset="124879" lat="46.8316667" lon="12.8148465"/>
  <node id="316740692" version="3" timestamp="2008-12-05T07:50:37Z" uid="43967" user="railsnail" changeset="124879" lat="46.8316667" lon="12.8148465"/>
  <node id="316740692" version="4" timestamp="2008-12-05T07:50:48Z" uid="43967" user="railsnail" changeset="124879" lat="46.8316667" lon="12.8148465"/>
  <node id="316740692" version="5" timestamp="2009-03-15T11:17:08Z" uid="43967" user="railsnail" changeset="812306" lat="46.8316667" lon="12.8148465"/>
  <node id="316740692" version="6" timestamp="2009-05-23T06:50:49Z" uid="43967" user="railsnail" changeset="1292138" lat="46.8316667" lon="12.8148465"/>
  <node id="316740692" version="7" timestamp="2010-03-17T14:25:55Z" uid="43967" user="railsnail" changeset="4153315" lat="46.8316434" lon="12.8148417"/>
  <node id="316740693" version="1" timestamp="2008-12-05T07:50:37Z" uid="43967" user="railsnail" changeset="124879" lat="46.8314149" lon="12.8148269"/>
  <node id="316740693" version="2" timestamp="2008-12-05T07:50:48Z" uid="43967" user="railsnail" changeset="124879" lat="46.8314149" lon="12.8148269"/>
  <node id="316740693" version="3" timestamp="2009-08-13T13:44:18Z" uid="43967" user="railsnail" changeset="2131659" lat="46.8314149" lon="12.8148269"/>
  <node id="316740702" version="1" timestamp="2008-12-05T07:50:48Z" uid="43967" user="railsnail" changeset="124879" lat="46.8315034" lon="12.8148338"/>
  <node id="316740702" version="2" timestamp="2008-12-05T07:51:34Z" uid="43967" user="railsnail" changeset="124879" lat="46.8315034" lon="12.8148338"/>
  <node id="316740741" version="1" timestamp="2008-12-05T07:51:26Z" uid="43967" user="railsnail" changeset="124879" lat="46.8312916" lon="12.8156509"/>
  <node id="316740741" version="2" timestamp="2008-12-05T07:51:34Z" uid="43967" user="railsnail" changeset="124879" lat="46.8312916" lon="12.8156509"/>
  <node id="316740742" version="1" timestamp="2008-12-05T07:51:26Z" uid="43967" user="railsnail" changeset="124879" lat="46.831133" lon="12.8156766"/>
  <node id="316740743" version="1" timestamp="2008-12-05T07:51:26Z" uid="43967" user="railsnail" changeset="124879" lat="46.8311507" lon="12.8162517"/>
  <node id="316740744" version="1" timestamp="2008-12-05T07:51:26Z" uid="43967" user="railsnail" changeset="124879" lat="46.8313092" lon="12.8162603"/>
  <node id="316740744" version="2" timestamp="2008-12-05T07:51:34Z" uid="43967" user="railsnail" changeset="124879" lat="46.8313092" lon="12.8162603"/>
  <node id="316740753" version="1" timestamp="2008-12-05T07:51:34Z" uid="43967" user="railsnail" changeset="124879" lat="46.8314208" lon="12.8153419"/>
  <node id="316740754" version="1" timestamp="2008-12-05T07:51:34Z" uid="43967" user="railsnail" changeset="124879" lat="46.8311683" lon="12.8167324"/>
  <node id="316740754" version="3" timestamp="2010-03-17T14:05:12Z" uid="43967" user="railsnail" changeset="4153315" lat="46.8311112" lon="12.8169446"/>
  <node id="316740768" version="1" timestamp="2008-12-05T07:52:20Z" uid="43967" user="railsnail" changeset="124879" lat="46.8312152" lon="12.8159427">
    <tag k="created_by" v="Potlatch 0.10f"/>
    <tag k="is_in" v="Nussdorf-Debant"/>
    <tag k="name" v="SOS Kinderdorf"/>
    <tag k="place" v="hamlet"/>
  </node>
  <node id="316740814" version="3" timestamp="2009-05-08T09:26:44Z" uid="115797" user="Elofant" changeset="1115321" lat="29.0052757" lon="-13.486771"/>
  <node id="316742389" version="2" timestamp="2010-07-29T09:02:27Z" uid="74617" user="JohnSmith" changeset="5344848" lat="48.4647985" lon="10.119705">
    <tag k="amenity" v="emergency_phone"/>
    <tag k="emergency" v="phone"/>
    <tag k="operator" v="Straßenmeisterei"/>
    <tag k="source" v="Photo"/>
  </node>
  <node id="316742895" version="5" timestamp="2009-10-02T19:48:08Z" uid="86259" user="hasse_osm_korinthenkacker" changeset="2716821" lat="47.9098304" lon="11.6781353">
    <tag k="addr:city" v="Otterfing"/>
    <tag k="addr:country" v="DE"/>
    <tag k="addr:housenumber" v="16"/>
    <tag k="addr:postcode" v="83624"/>
    <tag k="addr:street" v="Bahnhofstraße"/>
  </node>
  <node id="316742904" version="5" timestamp="2009-10-02T19:48:08Z" uid="86259" user="hasse_osm_korinthenkacker" changeset="2716821" lat="47.9096175" lon="11.6783757">
    <tag k="addr:city" v="Otterfing"/>
    <tag k="addr:country" v="DE"/>
    <tag k="addr:housenumber" v="16r"/>
    <tag k="addr:postcode" v="83624"/>
    <tag k="addr:street" v="Bahnhofstraße"/>
  </node>
  <node id="316742982" version="4" timestamp="2009-10-02T19:48:07Z" uid="86259" user="hasse_osm_korinthenkacker" changeset="2716821" lat="47.9094174" lon="11.6776762">
    <tag k="addr:city" v="Otterfing"/>
    <tag k="addr:country" v="DE"/>
    <tag k="addr:housenumber" v="14r"/>
    <tag k="addr:postcode" v="83624"/>
    <tag k="addr:street" v="Bahnhofstraße"/>
  </node>
  <node id="316743020" version="5" timestamp="2009-10-02T19:48:05Z" uid="86259" user="hasse_osm_korinthenkacker" changeset="2716821" lat="47.9092727" lon="11.6762278">
    <tag k="addr:city" v="Otterfing"/>
    <tag k="addr:country" v="DE"/>
    <tag k="addr:housenumber" v="6"/>
    <tag k="addr:postcode" v="83624"/>
    <tag k="addr:street" v="Bahnhofstraße"/>
  </node>
  <node id="316743025" version="5" timestamp="2009-10-02T19:48:06Z" uid="86259" user="hasse_osm_korinthenkacker" changeset="2716821" lat="47.9093936" lon="11.6765454">
    <tag k="addr:city" v="Otterfing"/>
    <tag k="addr:country" v="DE"/>
    <tag k="addr:housenumber" v="8"/>
    <tag k="addr:postcode" v="83624"/>
    <tag k="addr:street" v="Bahnhofstraße"/>
  </node>
  <node id="316743026" version="2" timestamp="2010-07-29T09:00:35Z" uid="74617" user="JohnSmith" changeset="5344848" lat="48.4579197" lon="10.0785268">
    <tag k="amenity" v="emergency_phone"/>
    <tag k="emergency" v="phone"/>
    <tag k="operator" v="Straßenmeisterei"/>
    <tag k="source" v="Photo"/>
  </node>
  <node id="316743187" version="6" timestamp="2009-10-02T19:47:57Z" uid="86259" user="hasse_osm_korinthenkacker" changeset="2716821" lat="47.9086061" lon="11.6780273">
    <tag k="addr:city" v="Otterfing"/>
    <tag k="addr:country" v="DE"/>
    <tag k="addr:housenumber" v="12"/>
    <tag k="addr:postcode" v="83624"/>
    <tag k="addr:street" v="Kreuzstraße"/>
  </node>
  <node id="316743421" version="7" timestamp="2009-10-02T19:48:07Z" uid="86259" user="hasse_osm_korinthenkacker" changeset="2716821" lat="47.9086742" lon="11.6783477">
    <tag k="addr:city" v="Otterfing"/>
    <tag k="addr:country" v="DE"/>
    <tag k="addr:housenumber" v="14"/>
    <tag k="addr:postcode" v="83624"/>
    <tag k="addr:street" v="Kreuzstraße"/>
  </node>
  <node id="316743484" version="5" timestamp="2009-10-02T19:48:20Z" uid="86259" user="hasse_osm_korinthenkacker" changeset="2716821" lat="47.9086222" lon="11.6788992">
    <tag k="addr:city" v="Otterfing"/>
    <tag k="addr:country" v="DE"/>
    <tag k="addr:housenumber" v="18"/>
    <tag k="addr:postcode" v="83624"/>
    <tag k="addr:street" v="Kreuzstraße"/>
  </node>
  <node id="316743513" version="5" timestamp="2009-10-02T19:48:24Z" uid="86259" user="hasse_osm_korinthenkacker" changeset="2716821" lat="47.9089619" lon="11.6792575">
    <tag k="addr:city" v="Otterfing"/>
    <tag k="addr:country" v="DE"/>
    <tag k="addr:housenumber" v="20"/>
    <tag k="addr:postcode" v="83624"/>
    <tag k="addr:street" v="Kreuzstraße"/>
  </node>
  <node id="316743522" version="6" timestamp="2009-10-02T19:48:25Z" uid="86259" user="hasse_osm_korinthenkacker" changeset="2716821" lat="47.909094" lon="11.6802039">
    <tag k="addr:city" v="Otterfing"/>
    <tag k="addr:country" v="DE"/>
    <tag k="addr:housenumber" v="24"/>
    <tag k="addr:postcode" v="83624"/>
    <tag k="addr:street" v="Kreuzstraße"/>
  </node>
  <node id="316743523" version="6" timestamp="2009-10-02T19:48:25Z" uid="86259" user="hasse_osm_korinthenkacker" changeset="2716821" lat="47.909094" lon="11.6803069">
    <tag k="addr:city" v="Otterfing"/>
    <tag k="addr:country" v="DE"/>
    <tag k="addr:housenumber" v="26"/>
    <tag k="addr:postcode" v="83624"/>
    <tag k="addr:street" v="Kreuzstraße"/>
  </node>
  <node id="316743531" version="5" timestamp="2009-10-02T19:48:30Z" uid="86259" user="hasse_osm_korinthenkacker" changeset="2716821" lat="47.9094343" lon="11.683826">
    <tag k="addr:city" v="Otterfing"/>
    <tag k="addr:country" v="DE"/>
    <tag k="addr:housenumber" v="37"/>
    <tag k="addr:postcode" v="83624"/>
    <tag k="addr:street" v="Kreuzstraße"/>
  </node>
  <node id="316743793" version="2" timestamp="2010-07-29T09:16:12Z" uid="74617" user="JohnSmith" changeset="5344848" lat="48.4568621" lon="10.0243353">
    <tag k="amenity" v="emergency_phone"/>
    <tag k="emergency" v="phone"/>
    <tag k="operator" v="Straßenmeisterei"/>
    <tag k="source" v="Photo"/>
  </node>
  <node id="316743969" version="2" timestamp="2010-07-29T09:14:40Z" uid="74617" user="JohnSmith" changeset="5344848" lat="48.4568678" lon="9.9725474">
    <tag k="amenity" v="emergency_phone"/>
    <tag k="emergency" v="phone"/>
    <tag k="operator" v="Straßenmeisterei"/>
    <tag k="source" v="Photo"/>
  </node>
  <node id="316744329" version="2" timestamp="2011-01-23T18:23:57Z" uid="9581" user="Lobelt" changeset="7065211" lat="49.5941622" lon="8.6503192">
    <tag k="barrier" v="bollard"/>
  </node>
  <node id="316744573" version="2" timestamp="2010-08-29T22:23:22Z" uid="9581" user="Lobelt" changeset="5631574" lat="49.6876609" lon="8.6161095">
    <tag k="barrier" v="bollard"/>
  </node>
  <node id="316744717" version="9" timestamp="2008-12-22T08:53:27Z" uid="27600" user="Islanit" changeset="537609" lat="53.6718102" lon="10.2168139"/>
  <node id="316744717" version="10" timestamp="2008-12-22T08:53:29Z" uid="27600" user="Islanit" changeset="537609" lat="53.6718102" lon="10.2168139"/>
  <node id="316744718" version="6" timestamp="2008-12-22T08:53:27Z" uid="27600" user="Islanit" changeset="537609" lat="53.6746677" lon="10.2153719"/>
  <node id="316744842" version="5" timestamp="2008-12-22T08:53:26Z" uid="27600" user="Islanit" changeset="537609" lat="53.6723469" lon="10.2189293"/>
  <node id="316744907" version="6" timestamp="2008-12-22T08:53:29Z" uid="27600" user="Islanit" changeset="537609" lat="53.6703661" lon="10.2175778"/>
  <node id="316744908" version="6" timestamp="2008-12-22T08:53:29Z" uid="27600" user="Islanit" changeset="537609" lat="53.6701932" lon="10.2177837"/>
  <node id="316744909" version="6" timestamp="2008-12-22T08:53:29Z" uid="27600" user="Islanit" changeset="537609" lat="53.6700712" lon="10.2180069"/>
  <node id="316745032" version="6" timestamp="2008-12-22T08:53:26Z" uid="27600" user="Islanit" changeset="537609" lat="53.6723441" lon="10.2189339"/>
  <node id="316745033" version="3" timestamp="2008-12-09T23:10:25Z" uid="6975" user="ulfl" changeset="299549" lat="26.9030572" lon="90.2352285">
    <tag k="is_in:country" v="Bhutan"/>
    <tag k="is_in:country_code" v="bt"/>
    <tag k="loc_name" v="གསར་སྦང་"/>
    <tag k="name" v="Sarpang Dzongkhag"/>
    <tag k="place" v="county"/>
    <tag k="source" v="wikipedia"/>
    <tag k="website" v="www.dzongkhag.gov.bt"/>
  </node>
  <node id="316745139" version="3" timestamp="2008-12-22T08:53:29Z" uid="27600" user="Islanit" changeset="537609" lat="53.6708136" lon="10.2174233"/>
  <node id="316745140" version="5" timestamp="2008-12-22T08:53:29Z" uid="27600" user="Islanit" changeset="537609" lat="53.6707372" lon="10.2173896"/>
  <node id="316745141" version="3" timestamp="2008-12-22T08:53:29Z" uid="27600" user="Islanit" changeset="537609" lat="53.6706966" lon="10.2173718"/>
  <node id="316745271" version="4" timestamp="2008-12-22T08:53:26Z" uid="27600" user="Islanit" changeset="537609" lat="53.6722678" lon="10.2186163"/>
  <node id="316745273" version="5" timestamp="2009-10-02T19:48:33Z" uid="86259" user="hasse_osm_korinthenkacker" changeset="2716821" lat="47.9094501" lon="11.6841852">
    <tag k="addr:city" v="Otterfing"/>
    <tag k="addr:country" v="DE"/>
    <tag k="addr:housenumber" v="39"/>
    <tag k="addr:postcode" v="83624"/>
    <tag k="addr:street" v="Kreuzstraße"/>
  </node>
  <node id="316745282" version="5" timestamp="2009-10-02T19:48:35Z" uid="86259" user="hasse_osm_korinthenkacker" changeset="2716821" lat="47.9096975" lon="11.6853354">
    <tag k="addr:city" v="Otterfing"/>
    <tag k="addr:country" v="DE"/>
    <tag k="addr:housenumber" v="47"/>
    <tag k="addr:postcode" v="83624"/>
    <tag k="addr:street" v="Kreuzstraße"/>
  </node>
  <node id="316745285" version="4" timestamp="2008-12-22T08:53:29Z" uid="27600" user="Islanit" changeset="537609" lat="53.6701121" lon="10.217932"/>
  <node id="316745349" version="2" timestamp="2010-07-29T09:22:01Z" uid="74617" user="JohnSmith" changeset="5344848" lat="48.4571568" lon="9.9473354">
    <tag k="amenity" v="emergency_phone"/>
    <tag k="emergency" v="phone"/>
    <tag k="operator" v="Straßenmeisterei"/>
    <tag k="source" v="Photo"/>
  </node>
  <node id="316745352" version="2" timestamp="2010-07-29T09:41:48Z" uid="74617" user="JohnSmith" changeset="5344848" lat="48.4607084" lon="9.9332396">
    <tag k="amenity" v="emergency_phone"/>
    <tag k="emergency" v="phone"/>
    <tag k="operator" v="Straßenmeisterei"/>
    <tag k="source" v="Photo"/>
  </node>
  <node id="316745640" version="3" timestamp="2009-10-02T19:48:34Z" uid="86259" user="hasse_osm_korinthenkacker" changeset="2716821" lat="47.9099869" lon="11.6845856">
    <tag k="addr:city" v="Otterfing"/>
    <tag k="addr:country" v="DE"/>
    <tag k="addr:housenumber" v="5"/>
    <tag k="addr:postcode" v="83624"/>
    <tag k="addr:street" v="Stifterweg"/>
  </node>
  <node id="316745641" version="5" timestamp="2009-10-02T19:48:34Z" uid="86259" user="hasse_osm_korinthenkacker" changeset="2716821" lat="47.9099924" lon="11.6851135">
    <tag k="addr:city" v="Otterfing"/>
    <tag k="addr:country" v="DE"/>
    <tag k="addr:housenumber" v="4"/>
    <tag k="addr:postcode" v="83624"/>
    <tag k="addr:street" v="Stifterweg"/>
  </node>
  <node id="316745651" version="6" timestamp="2009-10-02T19:48:35Z" uid="86259" user="hasse_osm_korinthenkacker" changeset="2716821" lat="47.9101347" lon="11.6844685">
    <tag k="addr:city" v="Otterfing"/>
    <tag k="addr:country" v="DE"/>
    <tag k="addr:housenumber" v="6"/>
    <tag k="addr:postcode" v="83624"/>
    <tag k="addr:street" v="Stifterweg"/>
  </node>
  <node id="316745653" version="5" timestamp="2009-10-02T19:48:34Z" uid="86259" user="hasse_osm_korinthenkacker" changeset="2716821" lat="47.9095033" lon="11.6847444">
    <tag k="addr:city" v="Otterfing"/>
    <tag k="addr:country" v="DE"/>
    <tag k="addr:housenumber" v="1"/>
    <tag k="addr:postcode" v="83624"/>
    <tag k="addr:street" v="Stifterweg"/>
  </node>
  <node id="316745657" version="5" timestamp="2009-10-02T19:48:34Z" uid="86259" user="hasse_osm_korinthenkacker" changeset="2716821" lat="47.9095781" lon="11.6847101">
    <tag k="addr:city" v="Otterfing"/>
    <tag k="addr:country" v="DE"/>
    <tag k="addr:housenumber" v="3"/>
    <tag k="addr:postcode" v="83624"/>
    <tag k="addr:street" v="Stifterweg"/>
  </node>
  <node id="316745658" version="5" timestamp="2009-10-02T19:48:34Z" uid="86259" user="hasse_osm_korinthenkacker" changeset="2716821" lat="47.9096472" lon="11.6846844">
    <tag k="addr:city" v="Otterfing"/>
    <tag k="addr:country" v="DE"/>
    <tag k="addr:housenumber" v="3a"/>
    <tag k="addr:postcode" v="83624"/>
    <tag k="addr:street" v="Stifterweg"/>
  </node>
  <node id="316745659" version="2" timestamp="2010-07-29T09:25:14Z" uid="74617" user="JohnSmith" changeset="5344848" lat="48.4776432" lon="9.8791219">
    <tag k="amenity" v="emergency_phone"/>
    <tag k="emergency" v="phone"/>
    <tag k="operator" v="Straßenmeisterei"/>
    <tag k="source" v="Photo"/>
  </node>
  <node id="316745662" version="5" timestamp="2009-10-02T19:48:34Z" uid="86259" user="hasse_osm_korinthenkacker" changeset="2716821" lat="47.909722" lon="11.6846586">
    <tag k="addr:city" v="Otterfing"/>
    <tag k="addr:country" v="DE"/>
    <tag k="addr:housenumber" v="3b"/>
    <tag k="addr:postcode" v="83624"/>
    <tag k="addr:street" v="Stifterweg"/>
  </node>
  <node id="316746105" version="4" timestamp="2009-10-02T19:49:16Z" uid="86259" user="hasse_osm_korinthenkacker" changeset="2716821" lat="47.9115115" lon="11.6824827">
    <tag k="addr:city" v="Otterfing"/>
    <tag k="addr:country" v="DE"/>
    <tag k="addr:housenumber" v="11"/>
    <tag k="addr:postcode" v="83624"/>
    <tag k="addr:street" v="Adalbert-Stifter-Ring"/>
  </node>
  <node id="316746362" version="5" timestamp="2009-10-02T19:48:32Z" uid="86259" user="hasse_osm_korinthenkacker" changeset="2716821" lat="47.9110053" lon="11.6828089">
    <tag k="addr:city" v="Otterfing"/>
    <tag k="addr:country" v="DE"/>
    <tag k="addr:housenumber" v="14a"/>
    <tag k="addr:postcode" v="83624"/>
    <tag k="addr:street" v="Adalbert-Stifter-Ring"/>
  </node>
  <node id="316746377" version="4" timestamp="2009-10-02T19:48:31Z" uid="86259" user="hasse_osm_korinthenkacker" changeset="2716821" lat="47.9106428" lon="11.6831007">
    <tag k="addr:city" v="Otterfing"/>
    <tag k="addr:country" v="DE"/>
    <tag k="addr:housenumber" v="12"/>
    <tag k="addr:postcode" v="83624"/>
    <tag k="addr:street" v="Adalbert-Stifter-Ring"/>
  </node>
  <node id="316746390" version="5" timestamp="2009-10-02T19:48:32Z" uid="86259" user="hasse_osm_korinthenkacker" changeset="2716821" lat="47.91108" lon="11.682766">
    <tag k="addr:city" v="Otterfing"/>
    <tag k="addr:country" v="DE"/>
    <tag k="addr:housenumber" v="14b"/>
    <tag k="addr:postcode" v="83624"/>
    <tag k="addr:street" v="Adalbert-Stifter-Ring"/>
  </node>
  <node id="316746455" version="5" timestamp="2009-10-02T19:48:32Z" uid="86259" user="hasse_osm_korinthenkacker" changeset="2716821" lat="47.9112411" lon="11.682663">
    <tag k="addr:city" v="Otterfing"/>
    <tag k="addr:country" v="DE"/>
    <tag k="addr:housenumber" v="14c"/>
    <tag k="addr:postcode" v="83624"/>
    <tag k="addr:street" v="Adalbert-Stifter-Ring"/>
  </node>
  <node id="316746458" version="4" timestamp="2009-10-02T19:48:32Z" uid="86259" user="hasse_osm_korinthenkacker" changeset="2716821" lat="47.9113102" lon="11.68262">
    <tag k="addr:city" v="Otterfing"/>
    <tag k="addr:country" v="DE"/>
    <tag k="addr:housenumber" v="14d"/>
    <tag k="addr:postcode" v="83624"/>
    <tag k="addr:street" v="Adalbert-Stifter-Ring"/>
  </node>
  <node id="316746470" version="4" timestamp="2009-10-02T19:48:32Z" uid="86259" user="hasse_osm_korinthenkacker" changeset="2716821" lat="47.9108902" lon="11.6829805">
    <tag k="addr:city" v="Otterfing"/>
    <tag k="addr:country" v="DE"/>
    <tag k="addr:housenumber" v="14"/>
    <tag k="addr:postcode" v="83624"/>
    <tag k="addr:street" v="Adalbert-Stifter-Ring"/>
  </node>
  <node id="316746511" version="2" timestamp="2010-07-29T09:38:43Z" uid="74617" user="JohnSmith" changeset="5344848" lat="48.5173516" lon="9.8183438">
    <tag k="amenity" v="emergency_phone"/>
    <tag k="emergency" v="phone"/>
    <tag k="operator" v="Straßenmeisterei"/>
    <tag k="source" v="Photo"/>
  </node>
  <node id="316746512" version="2" timestamp="2010-07-29T09:27:38Z" uid="74617" user="JohnSmith" changeset="5344848" lat="48.5200491" lon="9.8071675">
    <tag k="amenity" v="emergency_phone"/>
    <tag k="emergency" v="phone"/>
    <tag k="operator" v="Straßenmeisterei"/>
    <tag k="source" v="Photo"/>
  </node>
  <node id="316746521" version="4" timestamp="2009-10-02T19:49:18Z" uid="86259" user="hasse_osm_korinthenkacker" changeset="2716821" lat="47.9113907" lon="11.6828947">
    <tag k="addr:city" v="Otterfing"/>
    <tag k="addr:country" v="DE"/>
    <tag k="addr:housenumber" v="18"/>
    <tag k="addr:postcode" v="83624"/>
    <tag k="addr:street" v="Adalbert-Stifter-Ring"/>
  </node>
  <node id="316746547" version="4" timestamp="2009-10-02T19:49:17Z" uid="86259" user="hasse_osm_korinthenkacker" changeset="2716821" lat="47.9122927" lon="11.6823912">
    <tag k="addr:city" v="Otterfing"/>
    <tag k="addr:country" v="DE"/>
    <tag k="addr:housenumber" v="18a"/>
    <tag k="addr:postcode" v="83624"/>
    <tag k="addr:street" v="Adalbert-Stifter-Ring"/>
  </node>
  <node id="316746549" version="3" timestamp="2009-10-02T19:48:33Z" uid="86259" user="hasse_osm_korinthenkacker" changeset="2716821" lat="47.9111203" lon="11.6830406">
    <tag k="addr:city" v="Otterfing"/>
    <tag k="addr:country" v="DE"/>
    <tag k="addr:housenumber" v="20"/>
    <tag k="addr:postcode" v="83624"/>
    <tag k="addr:street" v="Adalbert-Stifter-Ring"/>
  </node>
  <node id="316746550" version="4" timestamp="2009-10-02T19:48:32Z" uid="86259" user="hasse_osm_korinthenkacker" changeset="2716821" lat="47.9108557" lon="11.6832123">
    <tag k="addr:city" v="Otterfing"/>
    <tag k="addr:country" v="DE"/>
    <tag k="addr:housenumber" v="22"/>
    <tag k="addr:postcode" v="83624"/>
    <tag k="addr:street" v="Adalbert-Stifter-Ring"/>
  </node>
  <node id="316746574" version="5" timestamp="2009-10-02T19:48:32Z" uid="86259" user="hasse_osm_korinthenkacker" changeset="2716821" lat="47.9106354" lon="11.6833678">
    <tag k="addr:city" v="Otterfing"/>
    <tag k="addr:country" v="DE"/>
    <tag k="addr:housenumber" v="24"/>
    <tag k="addr:postcode" v="83624"/>
    <tag k="addr:street" v="Adalbert-Stifter-Ring"/>
  </node>
  <node id="316746594" version="4" timestamp="2009-10-02T19:48:33Z" uid="86259" user="hasse_osm_korinthenkacker" changeset="2716821" lat="47.9112066" lon="11.6833668">
    <tag k="addr:city" v="Otterfing"/>
    <tag k="addr:country" v="DE"/>
    <tag k="addr:housenumber" v="25"/>
    <tag k="addr:postcode" v="83624"/>
    <tag k="addr:street" v="Adalbert-Stifter-Ring"/>
  </node>
  <node id="316746605" version="2" timestamp="2010-07-29T09:01:14Z" uid="74617" user="JohnSmith" changeset="5344848" lat="48.5227422" lon="9.7379003">
    <tag k="amenity" v="emergency_phone"/>
    <tag k="emergency" v="phone"/>
    <tag k="operator" v="Straßenmeisterei"/>
    <tag k="source" v="Photo"/>
  </node>
  <node id="316746606" version="2" timestamp="2010-07-29T09:27:01Z" uid="74617" user="JohnSmith" changeset="5344848" lat="48.5274777" lon="9.7199264">
    <tag k="amenity" v="emergency_phone"/>
    <tag k="emergency" v="phone"/>
    <tag k="operator" v="Straßenmeisterei"/>
    <tag k="source" v="Photo"/>
  </node>
  <node id="316746607" version="4" timestamp="2009-10-02T19:48:33Z" uid="86259" user="hasse_osm_korinthenkacker" changeset="2716821" lat="47.9106946" lon="11.6837702">
    <tag k="addr:city" v="Otterfing"/>
    <tag k="addr:country" v="DE"/>
    <tag k="addr:housenumber" v="29"/>
    <tag k="addr:postcode" v="83624"/>
    <tag k="addr:street" v="Adalbert-Stifter-Ring"/>
  </node>
  <node id="316746625" version="3" timestamp="2009-10-02T19:48:33Z" uid="86259" user="hasse_osm_korinthenkacker" changeset="2716821" lat="47.910942" lon="11.6835728">
    <tag k="addr:city" v="Otterfing"/>
    <tag k="addr:country" v="DE"/>
    <tag k="addr:housenumber" v="27"/>
    <tag k="addr:postcode" v="83624"/>
    <tag k="addr:street" v="Adalbert-Stifter-Ring"/>
  </node>
  <node id="316746627" version="4" timestamp="2009-10-02T19:49:17Z" uid="86259" user="hasse_osm_korinthenkacker" changeset="2716821" lat="47.9114713" lon="11.6831694">
    <tag k="addr:city" v="Otterfing"/>
    <tag k="addr:country" v="DE"/>
    <tag k="addr:housenumber" v="23"/>
    <tag k="addr:postcode" v="83624"/>
    <tag k="addr:street" v="Adalbert-Stifter-Ring"/>
  </node>
  <node id="316746754" version="4" timestamp="2009-10-02T19:48:32Z" uid="86259" user="hasse_osm_korinthenkacker" changeset="2716821" lat="47.910545" lon="11.6838388">
    <tag k="addr:city" v="Otterfing"/>
    <tag k="addr:country" v="DE"/>
    <tag k="addr:housenumber" v="31"/>
    <tag k="addr:postcode" v="83624"/>
    <tag k="addr:street" v="Adalbert-Stifter-Ring"/>
  </node>
  <node id="316746771" version="4" timestamp="2009-10-02T19:48:32Z" uid="86259" user="hasse_osm_korinthenkacker" changeset="2716821" lat="47.9103782" lon="11.683856">
    <tag k="addr:city" v="Otterfing"/>
    <tag k="addr:country" v="DE"/>
    <tag k="addr:housenumber" v="31a"/>
    <tag k="addr:postcode" v="83624"/>
    <tag k="addr:street" v="Adalbert-Stifter-Ring"/>
  </node>
  <node id="316746818" version="4" timestamp="2009-10-02T19:48:32Z" uid="86259" user="hasse_osm_korinthenkacker" changeset="2716821" lat="47.9104472" lon="11.6835384">
    <tag k="addr:city" v="Otterfing"/>
    <tag k="addr:country" v="DE"/>
    <tag k="addr:housenumber" v="33"/>
    <tag k="addr:postcode" v="83624"/>
    <tag k="addr:street" v="Adalbert-Stifter-Ring"/>
  </node>
  <node id="316746830" version="4" timestamp="2009-10-02T19:48:32Z" uid="86259" user="hasse_osm_korinthenkacker" changeset="2716821" lat="47.9103954" lon="11.6832981">
    <tag k="addr:city" v="Otterfing"/>
    <tag k="addr:country" v="DE"/>
    <tag k="addr:housenumber" v="35"/>
    <tag k="addr:postcode" v="83624"/>
    <tag k="addr:street" v="Adalbert-Stifter-Ring"/>
  </node>
  <node id="316746910" version="5" timestamp="2009-10-02T19:48:33Z" uid="86259" user="hasse_osm_korinthenkacker" changeset="2716821" lat="47.9113129" lon="11.6832538">
    <tag k="addr:city" v="Otterfing"/>
    <tag k="addr:country" v="DE"/>
    <tag k="addr:housenumber" v="37"/>
    <tag k="addr:postcode" v="83624"/>
    <tag k="addr:street" v="Adalbert-Stifter-Ring"/>
  </node>
  <node id="316746932" version="3" timestamp="2008-12-09T23:10:28Z" uid="6975" user="ulfl" changeset="299549" lat="27.7509664" lon="91.3886759">
    <tag k="description" v="This dzongkhag was created in 1992 by separating the erstwhile Trashiyangtse dungkhag from Trashigang dzongkhag."/>
    <tag k="is_in:country" v="Bhutan"/>
    <tag k="is_in:country_code" v="bt"/>
    <tag k="loc_name" v="བཀྲ་ཤིས་གཡང་རྩེ་"/>
    <tag k="name" v="Trashiyangtse Dzongkhag"/>
    <tag k="place" v="county"/>
    <tag k="source" v="wikipedia"/>
  </node>
  <node id="316746981" version="5" timestamp="2009-10-02T19:48:30Z" uid="86259" user="hasse_osm_korinthenkacker" changeset="2716821" lat="47.9096126" lon="11.6834141">
    <tag k="addr:city" v="Otterfing"/>
    <tag k="addr:country" v="DE"/>
    <tag k="addr:housenumber" v="1"/>
    <tag k="addr:postcode" v="83624"/>
    <tag k="addr:street" v="Von-Eichendorff-Straße"/>
  </node>
  <node id="316747001" version="3" timestamp="2010-12-02T04:52:38Z" uid="4467" user="Rosscoe" changeset="6511120" lat="-34.9676559" lon="138.576371"/>
  <node id="316747004" version="5" timestamp="2009-10-02T19:48:30Z" uid="86259" user="hasse_osm_korinthenkacker" changeset="2716821" lat="47.9096143" lon="11.6836841">
    <tag k="addr:city" v="Otterfing"/>
    <tag k="addr:country" v="DE"/>
    <tag k="addr:housenumber" v="3"/>
    <tag k="addr:postcode" v="83624"/>
    <tag k="addr:street" v="Von-Eichendorff-Straße"/>
  </node>
  <node id="316747042" version="4" timestamp="2009-10-02T19:48:33Z" uid="86259" user="hasse_osm_korinthenkacker" changeset="2716821" lat="47.9096587" lon="11.6839634">
    <tag k="addr:city" v="Otterfing"/>
    <tag k="addr:country" v="DE"/>
    <tag k="addr:housenumber" v="5"/>
    <tag k="addr:postcode" v="83624"/>
    <tag k="addr:street" v="Von-Eichendorff-Straße"/>
  </node>
  <node id="316747047" version="5" timestamp="2009-10-02T19:48:33Z" uid="86259" user="hasse_osm_korinthenkacker" changeset="2716821" lat="47.9096357" lon="11.6840578">
    <tag k="addr:city" v="Otterfing"/>
    <tag k="addr:country" v="DE"/>
    <tag k="addr:housenumber" v="7"/>
    <tag k="addr:postcode" v="83624"/>
    <tag k="addr:street" v="Von-Eichendorff-Straße"/>
  </node>
  <node id="316747067" version="4" timestamp="2009-10-02T19:48:33Z" uid="86259" user="hasse_osm_korinthenkacker" changeset="2716821" lat="47.9098546" lon="11.6842422">
    <tag k="addr:city" v="Otterfing"/>
    <tag k="addr:country" v="DE"/>
    <tag k="addr:housenumber" v="2"/>
    <tag k="addr:postcode" v="83624"/>
    <tag k="addr:street" v="Von-Eichendorff-Straße"/>
  </node>
  <node id="316747068" version="4" timestamp="2011-03-18T12:20:35Z" uid="4467" user="Rosscoe" changeset="7594760" lat="-34.9711053" lon="138.5758451">
    <tag k="highway" v="turning_circle"/>
  </node>
  <node id="316747069" version="7" timestamp="2011-03-18T12:19:24Z" uid="4467" user="Rosscoe" changeset="7594760" lat="-34.9717569" lon="138.5759054"/>
  <node id="316747102" version="4" timestamp="2009-10-02T19:48:35Z" uid="86259" user="hasse_osm_korinthenkacker" changeset="2716821" lat="47.9100272" lon="11.6841307">
    <tag k="addr:city" v="Otterfing"/>
    <tag k="addr:country" v="DE"/>
    <tag k="addr:housenumber" v="4"/>
    <tag k="addr:postcode" v="83624"/>
    <tag k="addr:street" v="Von-Eichendorff-Straße"/>
  </node>
  <node id="316747155" version="7" timestamp="2009-10-02T19:48:30Z" uid="86259" user="hasse_osm_korinthenkacker" changeset="2716821" lat="47.9098313" lon="11.6833969">
    <tag k="addr:city" v="Otterfing"/>
    <tag k="addr:country" v="DE"/>
    <tag k="addr:housenumber" v="15"/>
    <tag k="addr:postcode" v="83624"/>
    <tag k="addr:street" v="Von-Eichendorff-Straße"/>
  </node>
  <node id="316747227" version="5" timestamp="2009-10-02T19:48:31Z" uid="86259" user="hasse_osm_korinthenkacker" changeset="2716821" lat="47.9100875" lon="11.6832862">
    <tag k="addr:city" v="Otterfing"/>
    <tag k="addr:country" v="DE"/>
    <tag k="addr:housenumber" v="16"/>
    <tag k="addr:postcode" v="83624"/>
    <tag k="addr:street" v="Von-Eichendorff-Straße"/>
  </node>
  <node id="316747236" version="2" timestamp="2010-07-29T09:30:54Z" uid="74617" user="JohnSmith" changeset="5344848" lat="48.531123" lon="9.6960245">
    <tag k="amenity" v="emergency_phone"/>
    <tag k="emergency" v="phone"/>
    <tag k="operator" v="Straßenmeisterei"/>
    <tag k="source" v="Photo"/>
  </node>
  <node id="316747237" version="2" timestamp="2010-07-29T09:39:24Z" uid="74617" user="JohnSmith" changeset="5344848" lat="48.5332958" lon="9.664593">
    <tag k="amenity" v="emergency_phone"/>
    <tag k="emergency" v="phone"/>
    <tag k="operator" v="Straßenmeisterei"/>
    <tag k="source" v="Photo"/>
  </node>
  <node id="316747238" version="2" timestamp="2010-07-29T09:18:55Z" uid="74617" user="JohnSmith" changeset="5344848" lat="48.5461739" lon="9.6481373">
    <tag k="amenity" v="emergency_phone"/>
    <tag k="emergency" v="phone"/>
    <tag k="operator" v="Straßenmeisterei"/>
  </node>
  <node id="316747240" version="2" timestamp="2010-07-29T09:16:05Z" uid="74617" user="JohnSmith" changeset="5344848" lat="48.5640328" lon="9.6743276">
    <tag k="amenity" v="emergency_phone"/>
    <tag k="emergency" v="phone"/>
    <tag k="operator" v="Straßenmeisterei"/>
  </node>
  <node id="316747241" version="2" timestamp="2010-07-29T09:22:14Z" uid="74617" user="JohnSmith" changeset="5344848" lat="48.5769897" lon="9.6750931">
    <tag k="amenity" v="emergency_phone"/>
    <tag k="emergency" v="phone"/>
    <tag k="operator" v="Straßenmeisterei"/>
  </node>
  <node id="316747242" version="3" timestamp="2010-07-29T08:59:37Z" uid="74617" user="JohnSmith" changeset="5344848" lat="48.584098" lon="9.6629563">
    <tag k="amenity" v="emergency_phone"/>
    <tag k="emergency" v="phone"/>
    <tag k="operator" v="Autobahnmeisterei"/>
  </node>
  <node id="316747243" version="5" timestamp="2009-10-02T19:48:31Z" uid="86259" user="hasse_osm_korinthenkacker" changeset="2716821" lat="47.9101681" lon="11.6836553">
    <tag k="addr:city" v="Otterfing"/>
    <tag k="addr:country" v="DE"/>
    <tag k="addr:housenumber" v="12"/>
    <tag k="addr:postcode" v="83624"/>
    <tag k="addr:street" v="Von-Eichendorff-Straße"/>
  </node>
  <node id="316747414" version="5" timestamp="2009-10-02T19:48:35Z" uid="86259" user="hasse_osm_korinthenkacker" changeset="2716821" lat="47.9103292" lon="11.6843333">
    <tag k="addr:city" v="Otterfing"/>
    <tag k="addr:country" v="DE"/>
    <tag k="addr:housenumber" v="6r"/>
    <tag k="addr:postcode" v="83624"/>
    <tag k="addr:street" v="Von-Eichendorff-Straße"/>
  </node>
  <node id="316747460" version="5" timestamp="2009-10-02T19:48:35Z" uid="86259" user="hasse_osm_korinthenkacker" changeset="2716821" lat="47.9102371" lon="11.68399">
    <tag k="addr:city" v="Otterfing"/>
    <tag k="addr:country" v="DE"/>
    <tag k="addr:housenumber" v="6"/>
    <tag k="addr:postcode" v="83624"/>
    <tag k="addr:street" v="Von-Eichendorff-Straße"/>
  </node>
  <node id="316747503" version="6" timestamp="2011-03-18T12:18:42Z" uid="4467" user="Rosscoe" changeset="7594760" lat="-34.9714374" lon="138.5811571"/>
  <node id="316747506" version="7" timestamp="2009-10-02T19:48:30Z" uid="86259" user="hasse_osm_korinthenkacker" changeset="2716821" lat="47.9099061" lon="11.6837917">
    <tag k="addr:city" v="Otterfing"/>
    <tag k="addr:country" v="DE"/>
    <tag k="addr:housenumber" v="9"/>
    <tag k="addr:postcode" v="83624"/>
    <tag k="addr:street" v="Von-Eichendorff-Straße"/>
  </node>
  <node id="316747543" version="5" timestamp="2009-10-02T19:48:31Z" uid="86259" user="hasse_osm_korinthenkacker" changeset="2716821" lat="47.9102544" lon="11.6836209">
    <tag k="addr:city" v="Otterfing"/>
    <tag k="addr:country" v="DE"/>
    <tag k="addr:housenumber" v="10"/>
    <tag k="addr:postcode" v="83624"/>
    <tag k="addr:street" v="Von-Eichendorff-Straße"/>
  </node>
  <node id="316748133" version="6" timestamp="2009-10-02T19:48:33Z" uid="86259" user="hasse_osm_korinthenkacker" changeset="2716821" lat="47.9092584" lon="11.6847276">
    <tag k="addr:city" v="Otterfing"/>
    <tag k="addr:country" v="DE"/>
    <tag k="addr:housenumber" v="54"/>
    <tag k="addr:postcode" v="83624"/>
    <tag k="addr:street" v="Kreuzstraße"/>
  </node>
  <node id="316748165" version="5" timestamp="2009-10-02T19:48:33Z" uid="86259" user="hasse_osm_korinthenkacker" changeset="2716821" lat="47.9092878" lon="11.6852431">
    <tag k="addr:city" v="Otterfing"/>
    <tag k="addr:country" v="DE"/>
    <tag k="addr:housenumber" v="60"/>
    <tag k="addr:postcode" v="83624"/>
    <tag k="addr:street" v="Kreuzstraße"/>
  </node>
  <node id="316748200" version="5" timestamp="2009-10-02T19:48:35Z" uid="86259" user="hasse_osm_korinthenkacker" changeset="2716821" lat="47.9098419" lon="11.6879909">
    <tag k="addr:city" v="Otterfing"/>
    <tag k="addr:country" v="DE"/>
    <tag k="addr:housenumber" v="61"/>
    <tag k="addr:postcode" v="83624"/>
    <tag k="addr:street" v="Kreuzstraße"/>
  </node>
  <node id="316749962" version="3" timestamp="2010-07-29T09:28:25Z" uid="74617" user="JohnSmith" changeset="5344848" lat="48.6144273" lon="9.6121539">
    <tag k="amenity" v="emergency_phone"/>
    <tag k="emergency" v="phone"/>
    <tag k="operator" v="Straßenmeisterei"/>
  </node>
  <node id="316749963" version="2" timestamp="2010-07-29T09:35:50Z" uid="74617" user="JohnSmith" changeset="5344848" lat="48.6186112" lon="9.5926055">
    <tag k="amenity" v="emergency_phone"/>
    <tag k="emergency" v="phone"/>
    <tag k="operator" v="Straßenmeisterei"/>
  </node>
  <node id="316749964" version="2" timestamp="2010-07-29T09:25:52Z" uid="74617" user="JohnSmith" changeset="5344848" lat="48.6335651" lon="9.551113">
    <tag k="amenity" v="emergency_phone"/>
    <tag k="emergency" v="phone"/>
    <tag k="operator" v="Straßenmeisterei"/>
  </node>
  <node id="316749965" version="3" timestamp="2010-07-29T09:31:10Z" uid="74617" user="JohnSmith" changeset="5344848" lat="48.6288424" lon="9.5189184">
    <tag k="amenity" v="emergency_phone"/>
    <tag k="emergency" v="phone"/>
    <tag k="operator" v="Straßenmeisterei"/>
  </node>
  <node id="316749966" version="3" timestamp="2010-07-29T09:13:35Z" uid="74617" user="JohnSmith" changeset="5344848" lat="48.6290324" lon="9.5001303">
    <tag k="amenity" v="emergency_phone"/>
    <tag k="emergency" v="phone"/>
    <tag k="operator" v="Straßenmeisterei"/>
    <tag k="source" v="Photo"/>
  </node>
</osm>
