<?xml version='1.0' encoding='UTF-8'?>
<osm version="0.6" generator="libosmium/2.20.0">
  <node id="317782188" version="5" timestamp="2010-03-05T10:07:54Z" uid="38528" user="acrosscanadatrails" changeset="4039314" lat="53.5395346" lon="-113.4817738"/>
  <node id="317782191" version="4" timestamp="2010-03-05T09:33:28Z" uid="38528" user="acrosscanadatrails" changeset="4039106" lat="53.5396816" lon="-113.4799917"/>
  <node id="317782191" version="5" timestamp="2010-03-05T10:07:54Z" uid="38528" user="acrosscanadatrails" changeset="4039314" lat="53.5396772" lon="-113.4803093"/>
  <node id="317782192" version="3" timestamp="2010-03-05T09:33:28Z" uid="38528" user="acrosscanadatrails" changeset="4039106" lat="53.5397021" lon="-113.478737"/>
  <node id="317782482" version="2" timestamp="2008-12-25T11:23:41Z" uid="43863" user="Rundling" changeset="594284" lat="53.02329" lon="11.4504235"/>
  <node id="317782717" version="2" timestamp="2008-12-25T11:23:41Z" uid="43863" user="Rundling" changeset="594284" lat="53.0231653" lon="11.4531137"/>
  <node id="317782719" version="2" timestamp="2008-12-25T11:23:41Z" uid="43863" user="Rundling" changeset="594284" lat="53.0231251" lon="11.4536076"/>
  <node id="317782722" version="2" timestamp="2008-12-25T11:23:41Z" uid="43863" user="Rundling" changeset="594284" lat="53.0232975" lon="11.4542797"/>
  <node id="317782724" version="2" timestamp="2008-12-25T11:23:41Z" uid="43863" user="Rundling" changeset="594284" lat="53.0233664" lon="11.4545497"/>
  <node id="317782726" version="2" timestamp="2008-12-25T11:23:41Z" uid="43863" user="Rundling" changeset="594284" lat="53.0231042" lon="11.4546688"/>
  <node id="317782727" version="2" timestamp="2008-12-25T11:23:41Z" uid="43863" user="Rundling" changeset="594284" lat="53.0229818" lon="11.4542782"/>
  <node id="317785733" version="5" timestamp="2009-10-02T19:47:25Z" uid="86259" user="hasse_osm_korinthenkacker" changeset="2716821" lat="47.9046505" lon="11.6757504">
    <tag k="addr:city" v="Otterfing"/>
    <tag k="addr:country" v="DE"/>
    <tag k="addr:housenumber" v="9"/>
    <tag k="addr:postcode" v="83624"/>
    <tag k="addr:street" v="Lipizzanerstraße"/>
    <tag k="source" v="survey"/>
  </node>
  <node id="317785733" version="6" timestamp="2009-10-23T11:33:26Z" uid="36809" user="pfoten_weg_!_" changeset="2928981" lat="47.9046505" lon="11.6757504">
    <tag k="addr:city" v="Otterfing"/>
    <tag k="addr:country" v="DE"/>
    <tag k="addr:housenumber" v="9"/>
    <tag k="addr:postcode" v="83624"/>
    <tag k="addr:street" v="Lipizzanerstraße"/>
  </node>
  <node id="317785752" version="5" timestamp="2009-10-02T19:47:21Z" uid="86259" user="hasse_osm_korinthenkacker" changeset="2716821" lat="47.9045815" lon="11.6753555">
    <tag k="addr:city" v="Otterfing"/>
    <tag k="addr:country" v="DE"/>
    <tag k="addr:housenumber" v="9c"/>
    <tag k="addr:postcode" v="83624"/>
    <tag k="addr:street" v="Lipizzanerstraße"/>
    <tag k="source" v="survey"/>
  </node>
  <node id="317785752" version="6" timestamp="2009-10-23T11:33:18Z" uid="36809" user="pfoten_weg_!_" changeset="2928981" lat="47.9045815" lon="11.6753555">
    <tag k="addr:city" v="Otterfing"/>
    <tag k="addr:country" v="DE"/>
    <tag k="addr:housenumber" v="9c"/>
    <tag k="addr:postcode" v="83624"/>
    <tag k="addr:street" v="Lipizzanerstraße"/>
  </node>
  <node id="317786022" version="5" timestamp="2009-10-02T19:47:18Z" uid="86259" user="hasse_osm_korinthenkacker" changeset="2716821" lat="47.9044732" lon="11.6747567">
    <tag k="addr:city" v="Otterfing"/>
    <tag k="addr:country" v="DE"/>
    <tag k="addr:housenumber" v="17"/>
    <tag k="addr:postcode" v="83624"/>
    <tag k="addr:street" v="Lipizzanerstraße"/>
    <tag k="source" v="survey"/>
  </node>
  <node id="317786022" version="6" timestamp="2009-10-23T11:33:13Z" uid="36809" user="pfoten_weg_!_" changeset="2928981" lat="47.9044732" lon="11.6747567">
    <tag k="addr:city" v="Otterfing"/>
    <tag k="addr:country" v="DE"/>
    <tag k="addr:housenumber" v="17"/>
    <tag k="addr:postcode" v="83624"/>
    <tag k="addr:street" v="Lipizzanerstraße"/>
  </node>
  <node id="317786139" version="4" timestamp="2009-10-02T19:47:18Z" uid="86259" user="hasse_osm_korinthenkacker" changeset="2716821" lat="47.9044041" lon="11.6744305">
    <tag k="addr:city" v="Otterfing"/>
    <tag k="addr:country" v="DE"/>
    <tag k="addr:housenumber" v="21"/>
    <tag k="addr:postcode" v="83624"/>
    <tag k="addr:street" v="Lipizzanerstraße"/>
    <tag k="source" v="survey"/>
  </node>
  <node id="317786139" version="5" timestamp="2009-10-23T11:33:11Z" uid="36809" user="pfoten_weg_!_" changeset="2928981" lat="47.9044041" lon="11.6744305">
    <tag k="addr:city" v="Otterfing"/>
    <tag k="addr:country" v="DE"/>
    <tag k="addr:housenumber" v="21"/>
    <tag k="addr:postcode" v="83624"/>
    <tag k="addr:street" v="Lipizzanerstraße"/>
  </node>
  <node id="317786687" version="4" timestamp="2009-10-02T19:47:19Z" uid="86259" user="hasse_osm_korinthenkacker" changeset="2716821" lat="47.9048472" lon="11.6737954">
    <tag k="addr:city" v="Otterfing"/>
    <tag k="addr:country" v="DE"/>
    <tag k="addr:housenumber" v="13"/>
    <tag k="addr:postcode" v="83624"/>
    <tag k="addr:street" v="Haidfeldstraße"/>
  </node>
  <node id="317786861" version="3" timestamp="2009-10-02T19:47:19Z" uid="86259" user="hasse_osm_korinthenkacker" changeset="2716821" lat="47.9049507" lon="11.6742073">
    <tag k="addr:city" v="Otterfing"/>
    <tag k="addr:country" v="DE"/>
    <tag k="addr:housenumber" v="9"/>
    <tag k="addr:postcode" v="83624"/>
    <tag k="addr:street" v="Haidfeldstraße"/>
  </node>
  <node id="317788455" version="6" timestamp="2009-10-02T19:47:26Z" uid="86259" user="hasse_osm_korinthenkacker" changeset="2716821" lat="47.9051281" lon="11.6781536">
    <tag k="addr:city" v="Otterfing"/>
    <tag k="addr:country" v="DE"/>
    <tag k="addr:housenumber" v="7"/>
    <tag k="addr:postcode" v="83624"/>
    <tag k="addr:street" v="Holzhamer Bogen"/>
  </node>
  <node id="317789581" version="6" timestamp="2009-10-02T19:47:24Z" uid="86259" user="hasse_osm_korinthenkacker" changeset="2716821" lat="47.9043423" lon="11.6767397">
    <tag k="addr:city" v="Otterfing"/>
    <tag k="addr:country" v="DE"/>
    <tag k="addr:housenumber" v="8"/>
    <tag k="addr:postcode" v="83624"/>
    <tag k="addr:street" v="Eduard-Moser-Straße"/>
  </node>
  <node id="317789642" version="4" timestamp="2009-10-29T19:38:05Z" uid="36809" user="pfoten_weg_!_" changeset="2983914" lat="52.1880875" lon="8.7042767">
    <tag k="power" v="tower"/>
    <tag k="ref" v="8593"/>
  </node>
</osm>
