<?xml version='1.0' encoding='UTF-8'?>
<osm version="0.6" generator="libosmium/2.20.0">
  <node id="317960600" version="3" timestamp="2009-10-02T20:04:00Z" uid="86259" user="hasse_osm_korinthenkacker" changeset="2717024" lat="47.8805696" lon="11.7080938">
    <tag k="addr:city" v="Holzkirchen"/>
    <tag k="addr:country" v="DE"/>
    <tag k="addr:housenumber" v="1"/>
    <tag k="addr:postcode" v="83607"/>
    <tag k="addr:street" v="Schinderäckerstraße"/>
    <tag k="source" v="survey"/>
  </node>
  <node id="317960893" version="4" timestamp="2009-10-02T20:04:00Z" uid="86259" user="hasse_osm_korinthenkacker" changeset="2717024" lat="47.8805956" lon="11.7081965">
    <tag k="addr:city" v="Holzkirchen"/>
    <tag k="addr:country" v="DE"/>
    <tag k="addr:housenumber" v="3"/>
    <tag k="addr:postcode" v="83607"/>
    <tag k="addr:street" v="Schinderäckerstraße"/>
    <tag k="source" v="survey"/>
  </node>
  <node id="317960896" version="4" timestamp="2009-10-02T20:03:58Z" uid="86259" user="hasse_osm_korinthenkacker" changeset="2717024" lat="47.8804142" lon="11.7078278">
    <tag k="addr:city" v="Holzkirchen"/>
    <tag k="addr:country" v="DE"/>
    <tag k="addr:housenumber" v="2"/>
    <tag k="addr:postcode" v="83607"/>
    <tag k="addr:street" v="Schinderäckerstraße"/>
    <tag k="source" v="survey"/>
  </node>
  <node id="317960927" version="4" timestamp="2009-10-02T20:03:59Z" uid="86259" user="hasse_osm_korinthenkacker" changeset="2717024" lat="47.8804027" lon="11.7077162">
    <tag k="addr:city" v="Holzkirchen"/>
    <tag k="addr:country" v="DE"/>
    <tag k="addr:housenumber" v="2a"/>
    <tag k="addr:postcode" v="83607"/>
    <tag k="addr:street" v="Schinderäckerstraße"/>
    <tag k="source" v="survey"/>
  </node>
  <node id="317961387" version="4" timestamp="2009-10-02T20:03:58Z" uid="86259" user="hasse_osm_korinthenkacker" changeset="2717024" lat="47.8802587" lon="11.7078535">
    <tag k="addr:city" v="Holzkirchen"/>
    <tag k="addr:country" v="DE"/>
    <tag k="addr:housenumber" v="4"/>
    <tag k="addr:postcode" v="83607"/>
    <tag k="addr:street" v="Schinderäckerstraße"/>
    <tag k="source" v="survey"/>
  </node>
  <node id="317961435" version="3" timestamp="2009-10-02T20:03:58Z" uid="86259" user="hasse_osm_korinthenkacker" changeset="2717024" lat="47.8801033" lon="11.7078792">
    <tag k="addr:city" v="Holzkirchen"/>
    <tag k="addr:country" v="DE"/>
    <tag k="addr:housenumber" v="6"/>
    <tag k="addr:postcode" v="83607"/>
    <tag k="addr:street" v="Schinderäckerstraße"/>
    <tag k="source" v="survey"/>
  </node>
  <node id="317961438" version="4" timestamp="2009-10-02T20:03:58Z" uid="86259" user="hasse_osm_korinthenkacker" changeset="2717024" lat="47.8799364" lon="11.7079136">
    <tag k="addr:city" v="Holzkirchen"/>
    <tag k="addr:country" v="DE"/>
    <tag k="addr:housenumber" v="8"/>
    <tag k="addr:postcode" v="83607"/>
    <tag k="addr:street" v="Schinderäckerstraße"/>
    <tag k="source" v="survey"/>
  </node>
  <node id="317961458" version="4" timestamp="2009-10-02T20:03:58Z" uid="86259" user="hasse_osm_korinthenkacker" changeset="2717024" lat="47.8799249" lon="11.7078106">
    <tag k="addr:city" v="Holzkirchen"/>
    <tag k="addr:country" v="DE"/>
    <tag k="addr:housenumber" v="8a"/>
    <tag k="addr:postcode" v="83607"/>
    <tag k="addr:street" v="Schinderäckerstraße"/>
    <tag k="source" v="survey"/>
  </node>
  <node id="317961668" version="5" timestamp="2009-10-02T20:03:56Z" uid="86259" user="hasse_osm_korinthenkacker" changeset="2717024" lat="47.8797379" lon="11.7079647">
    <tag k="addr:city" v="Holzkirchen"/>
    <tag k="addr:country" v="DE"/>
    <tag k="addr:housenumber" v="6"/>
    <tag k="addr:postcode" v="83607"/>
    <tag k="addr:street" v="Schinderäckerstraße"/>
    <tag k="source" v="survey"/>
  </node>
  <node id="317961889" version="5" timestamp="2009-10-02T20:03:59Z" uid="86259" user="hasse_osm_korinthenkacker" changeset="2717024" lat="47.8801639" lon="11.708145">
    <tag k="addr:city" v="Holzkirchen"/>
    <tag k="addr:country" v="DE"/>
    <tag k="addr:housenumber" v="19"/>
    <tag k="addr:postcode" v="83607"/>
    <tag k="addr:street" v="Schinderäckerstraße"/>
    <tag k="source" v="survey"/>
  </node>
  <node id="317961927" version="6" timestamp="2009-10-02T20:03:59Z" uid="86259" user="hasse_osm_korinthenkacker" changeset="2717024" lat="47.8801639" lon="11.708248">
    <tag k="addr:city" v="Holzkirchen"/>
    <tag k="addr:country" v="DE"/>
    <tag k="addr:housenumber" v="19a"/>
    <tag k="addr:postcode" v="83607"/>
    <tag k="addr:street" v="Schinderäckerstraße"/>
    <tag k="source" v="survey"/>
  </node>
  <node id="317961938" version="5" timestamp="2009-10-02T20:03:59Z" uid="86259" user="hasse_osm_korinthenkacker" changeset="2717024" lat="47.8801609" lon="11.7084457">
    <tag k="addr:city" v="Holzkirchen"/>
    <tag k="addr:country" v="DE"/>
    <tag k="addr:housenumber" v="21"/>
    <tag k="addr:postcode" v="83607"/>
    <tag k="addr:street" v="Schinderäckerstraße"/>
    <tag k="source" v="survey"/>
  </node>
  <node id="317962099" version="4" timestamp="2009-10-02T20:03:55Z" uid="86259" user="hasse_osm_korinthenkacker" changeset="2717024" lat="47.8794989" lon="11.7085745">
    <tag k="addr:city" v="Holzkirchen"/>
    <tag k="addr:country" v="DE"/>
    <tag k="addr:housenumber" v="29"/>
    <tag k="addr:postcode" v="83607"/>
    <tag k="addr:street" v="Schinderäckerstraße"/>
    <tag k="source" v="survey"/>
  </node>
  <node id="317962099" version="5" timestamp="2009-10-22T21:31:45Z" uid="36809" user="pfoten_weg_!_" changeset="2925729" lat="47.8794989" lon="11.7085745">
    <tag k="addr:city" v="Holzkirchen"/>
    <tag k="addr:country" v="DE"/>
    <tag k="addr:housenumber" v="29"/>
    <tag k="addr:postcode" v="83607"/>
    <tag k="addr:street" v="Schinderäckerstraße"/>
  </node>
  <node id="317962121" version="4" timestamp="2009-10-02T20:04:00Z" uid="86259" user="hasse_osm_korinthenkacker" changeset="2717024" lat="47.8790729" lon="11.7087032">
    <tag k="addr:city" v="Holzkirchen"/>
    <tag k="addr:country" v="DE"/>
    <tag k="addr:housenumber" v="27"/>
    <tag k="addr:postcode" v="83607"/>
    <tag k="addr:street" v="Schinderäckerstraße"/>
    <tag k="source" v="survey"/>
  </node>
  <node id="317962121" version="5" timestamp="2009-10-22T21:31:46Z" uid="36809" user="pfoten_weg_!_" changeset="2925729" lat="47.8790729" lon="11.7087032">
    <tag k="addr:city" v="Holzkirchen"/>
    <tag k="addr:country" v="DE"/>
    <tag k="addr:housenumber" v="27"/>
    <tag k="addr:postcode" v="83607"/>
    <tag k="addr:street" v="Schinderäckerstraße"/>
  </node>
  <node id="317962279" version="6" timestamp="2009-10-02T20:03:55Z" uid="86259" user="hasse_osm_korinthenkacker" changeset="2717024" lat="47.8797407" lon="11.7083942">
    <tag k="addr:city" v="Holzkirchen"/>
    <tag k="addr:country" v="DE"/>
    <tag k="addr:housenumber" v="25"/>
    <tag k="addr:postcode" v="83607"/>
    <tag k="addr:street" v="Schinderäckerstraße"/>
    <tag k="source" v="survey"/>
  </node>
  <node id="317962321" version="5" timestamp="2009-10-02T20:03:56Z" uid="86259" user="hasse_osm_korinthenkacker" changeset="2717024" lat="47.8797291" lon="11.7084886">
    <tag k="addr:city" v="Holzkirchen"/>
    <tag k="addr:country" v="DE"/>
    <tag k="addr:housenumber" v="25a"/>
    <tag k="addr:postcode" v="83607"/>
    <tag k="addr:street" v="Schinderäckerstraße"/>
    <tag k="source" v="survey"/>
  </node>
  <node id="317962530" version="4" timestamp="2009-10-02T20:03:56Z" uid="86259" user="hasse_osm_korinthenkacker" changeset="2717024" lat="47.8794874" lon="11.7084629">
    <tag k="addr:city" v="Holzkirchen"/>
    <tag k="addr:country" v="DE"/>
    <tag k="addr:housenumber" v="27"/>
    <tag k="addr:postcode" v="83607"/>
    <tag k="addr:street" v="Schinderäckerstraße"/>
    <tag k="source" v="survey"/>
  </node>
  <node id="317962530" version="5" timestamp="2009-10-22T21:31:45Z" uid="36809" user="pfoten_weg_!_" changeset="2925729" lat="47.8794874" lon="11.7084629">
    <tag k="addr:city" v="Holzkirchen"/>
    <tag k="addr:country" v="DE"/>
    <tag k="addr:housenumber" v="27"/>
    <tag k="addr:postcode" v="83607"/>
    <tag k="addr:street" v="Schinderäckerstraße"/>
  </node>
  <node id="317962982" version="5" timestamp="2009-10-02T20:03:59Z" uid="86259" user="hasse_osm_korinthenkacker" changeset="2717024" lat="47.8799134" lon="11.7082741">
    <tag k="addr:city" v="Holzkirchen"/>
    <tag k="addr:country" v="DE"/>
    <tag k="addr:housenumber" v="23"/>
    <tag k="addr:postcode" v="83607"/>
    <tag k="addr:street" v="Schinderäckerstraße"/>
    <tag k="source" v="survey"/>
  </node>
  <node id="317963028" version="6" timestamp="2009-10-02T20:03:59Z" uid="86259" user="hasse_osm_korinthenkacker" changeset="2717024" lat="47.8799048" lon="11.7083681">
    <tag k="addr:city" v="Holzkirchen"/>
    <tag k="addr:country" v="DE"/>
    <tag k="addr:housenumber" v="23a"/>
    <tag k="addr:postcode" v="83607"/>
    <tag k="addr:street" v="Schinderäckerstraße"/>
    <tag k="source" v="survey"/>
  </node>
  <node id="317963278" version="6" timestamp="2009-10-02T20:03:59Z" uid="86259" user="hasse_osm_korinthenkacker" changeset="2717024" lat="47.8801523" lon="11.7085398">
    <tag k="addr:city" v="Holzkirchen"/>
    <tag k="addr:country" v="DE"/>
    <tag k="addr:housenumber" v="21a"/>
    <tag k="addr:postcode" v="83607"/>
    <tag k="addr:street" v="Schinderäckerstraße"/>
    <tag k="source" v="survey"/>
  </node>
  <node id="317963659" version="4" timestamp="2009-10-02T20:03:58Z" uid="86259" user="hasse_osm_korinthenkacker" changeset="2717024" lat="47.8801494" lon="11.7073643">
    <tag k="addr:city" v="Holzkirchen"/>
    <tag k="addr:country" v="DE"/>
    <tag k="addr:housenumber" v="1"/>
    <tag k="addr:postcode" v="83607"/>
    <tag k="addr:street" v="Schönlohstraße"/>
    <tag k="source" v="survey"/>
  </node>
  <node id="317963761" version="3" timestamp="2009-10-02T20:03:58Z" uid="86259" user="hasse_osm_korinthenkacker" changeset="2717024" lat="47.8801609" lon="11.7074587">
    <tag k="addr:city" v="Holzkirchen"/>
    <tag k="addr:country" v="DE"/>
    <tag k="addr:housenumber" v="3"/>
    <tag k="addr:postcode" v="83607"/>
    <tag k="addr:street" v="Schönlohstraße"/>
    <tag k="source" v="survey"/>
  </node>
  <node id="317963802" version="4" timestamp="2009-10-02T20:03:58Z" uid="86259" user="hasse_osm_korinthenkacker" changeset="2717024" lat="47.8798558" lon="11.7074158">
    <tag k="addr:city" v="Holzkirchen"/>
    <tag k="addr:country" v="DE"/>
    <tag k="addr:housenumber" v="5"/>
    <tag k="addr:postcode" v="83607"/>
    <tag k="addr:street" v="Schönlohstraße"/>
    <tag k="source" v="survey"/>
  </node>
  <node id="317963908" version="1" timestamp="2008-12-11T15:25:51Z" uid="43863" user="Rundling" changeset="315325" lat="52.9881996" lon="10.5759874"/>
  <node id="317963908" version="2" timestamp="2011-02-07T16:21:39Z" uid="43863" user="Rundling" changeset="7217729" lat="52.9881825" lon="10.5759486"/>
  <node id="317963911" version="1" timestamp="2008-12-11T15:25:51Z" uid="43863" user="Rundling" changeset="315325" lat="52.9882179" lon="10.576197"/>
  <node id="317963911" version="2" timestamp="2011-02-07T16:21:35Z" uid="43863" user="Rundling" changeset="7217729" lat="52.9881681" lon="10.5760987"/>
  <node id="317964306" version="4" timestamp="2009-10-02T20:03:58Z" uid="86259" user="hasse_osm_korinthenkacker" changeset="2717024" lat="47.8798673" lon="11.7075016">
    <tag k="addr:city" v="Holzkirchen"/>
    <tag k="addr:country" v="DE"/>
    <tag k="addr:housenumber" v="7"/>
    <tag k="addr:postcode" v="83607"/>
    <tag k="addr:street" v="Schönlohstraße"/>
    <tag k="source" v="survey"/>
  </node>
  <node id="317964720" version="5" timestamp="2009-10-02T20:03:54Z" uid="86259" user="hasse_osm_korinthenkacker" changeset="2717024" lat="47.879591" lon="11.7074501">
    <tag k="addr:city" v="Holzkirchen"/>
    <tag k="addr:country" v="DE"/>
    <tag k="addr:housenumber" v="9"/>
    <tag k="addr:postcode" v="83607"/>
    <tag k="addr:street" v="Schönlohstraße"/>
    <tag k="source" v="survey"/>
  </node>
  <node id="317964783" version="4" timestamp="2009-10-02T20:03:54Z" uid="86259" user="hasse_osm_korinthenkacker" changeset="2717024" lat="47.8795967" lon="11.7075359">
    <tag k="addr:city" v="Holzkirchen"/>
    <tag k="addr:country" v="DE"/>
    <tag k="addr:housenumber" v="11"/>
    <tag k="addr:postcode" v="83607"/>
    <tag k="addr:street" v="Schönlohstraße"/>
    <tag k="source" v="survey"/>
  </node>
  <node id="317964792" version="4" timestamp="2009-10-02T20:03:54Z" uid="86259" user="hasse_osm_korinthenkacker" changeset="2717024" lat="47.8793492" lon="11.7075188">
    <tag k="addr:city" v="Holzkirchen"/>
    <tag k="addr:country" v="DE"/>
    <tag k="addr:housenumber" v="13"/>
    <tag k="addr:postcode" v="83607"/>
    <tag k="addr:street" v="Schönlohstraße"/>
    <tag k="source" v="survey"/>
  </node>
  <node id="317964792" version="5" timestamp="2009-10-22T21:31:43Z" uid="36809" user="pfoten_weg_!_" changeset="2925729" lat="47.8793492" lon="11.7075188">
    <tag k="addr:city" v="Holzkirchen"/>
    <tag k="addr:country" v="DE"/>
    <tag k="addr:housenumber" v="13"/>
    <tag k="addr:postcode" v="83607"/>
    <tag k="addr:street" v="Schönlohstraße"/>
  </node>
  <node id="317964795" version="5" timestamp="2009-10-02T20:03:54Z" uid="86259" user="hasse_osm_korinthenkacker" changeset="2717024" lat="47.8793665" lon="11.7076132">
    <tag k="addr:city" v="Holzkirchen"/>
    <tag k="addr:country" v="DE"/>
    <tag k="addr:housenumber" v="15"/>
    <tag k="addr:postcode" v="83607"/>
    <tag k="addr:street" v="Schönlohstraße"/>
    <tag k="source" v="survey"/>
  </node>
  <node id="317964795" version="6" timestamp="2009-10-22T21:31:43Z" uid="36809" user="pfoten_weg_!_" changeset="2925729" lat="47.8793665" lon="11.7076132">
    <tag k="addr:city" v="Holzkirchen"/>
    <tag k="addr:country" v="DE"/>
    <tag k="addr:housenumber" v="15"/>
    <tag k="addr:postcode" v="83607"/>
    <tag k="addr:street" v="Schönlohstraße"/>
  </node>
  <node id="317965493" version="3" timestamp="2009-10-02T20:03:52Z" uid="86259" user="hasse_osm_korinthenkacker" changeset="2717024" lat="47.8790556" lon="11.7071497">
    <tag k="addr:city" v="Holzkirchen"/>
    <tag k="addr:country" v="DE"/>
    <tag k="addr:housenumber" v="18"/>
    <tag k="addr:postcode" v="83607"/>
    <tag k="addr:street" v="Schönlohstraße"/>
    <tag k="source" v="survey"/>
  </node>
  <node id="317965493" version="4" timestamp="2009-10-22T21:31:40Z" uid="36809" user="pfoten_weg_!_" changeset="2925729" lat="47.8790556" lon="11.7071497">
    <tag k="addr:city" v="Holzkirchen"/>
    <tag k="addr:country" v="DE"/>
    <tag k="addr:housenumber" v="18"/>
    <tag k="addr:postcode" v="83607"/>
    <tag k="addr:street" v="Schönlohstraße"/>
  </node>
  <node id="317965594" version="3" timestamp="2009-10-02T20:03:52Z" uid="86259" user="hasse_osm_korinthenkacker" changeset="2717024" lat="47.8790556" lon="11.7072613">
    <tag k="addr:city" v="Holzkirchen"/>
    <tag k="addr:country" v="DE"/>
    <tag k="addr:housenumber" v="20"/>
    <tag k="addr:postcode" v="83607"/>
    <tag k="addr:street" v="Schönlohstraße"/>
    <tag k="source" v="survey"/>
  </node>
  <node id="317965594" version="4" timestamp="2009-10-22T21:31:39Z" uid="36809" user="pfoten_weg_!_" changeset="2925729" lat="47.8790556" lon="11.7072613">
    <tag k="addr:city" v="Holzkirchen"/>
    <tag k="addr:country" v="DE"/>
    <tag k="addr:housenumber" v="20"/>
    <tag k="addr:postcode" v="83607"/>
    <tag k="addr:street" v="Schönlohstraße"/>
  </node>
  <node id="317965634" version="4" timestamp="2009-10-02T20:03:53Z" uid="86259" user="hasse_osm_korinthenkacker" changeset="2717024" lat="47.8785836" lon="11.7074158">
    <tag k="addr:city" v="Holzkirchen"/>
    <tag k="addr:country" v="DE"/>
    <tag k="addr:housenumber" v="22"/>
    <tag k="addr:postcode" v="83607"/>
    <tag k="addr:street" v="Schönlohstraße"/>
    <tag k="source" v="survey"/>
  </node>
  <node id="317965634" version="5" timestamp="2009-10-22T21:31:42Z" uid="36809" user="pfoten_weg_!_" changeset="2925729" lat="47.8785836" lon="11.7074158">
    <tag k="addr:city" v="Holzkirchen"/>
    <tag k="addr:country" v="DE"/>
    <tag k="addr:housenumber" v="22"/>
    <tag k="addr:postcode" v="83607"/>
    <tag k="addr:street" v="Schönlohstraße"/>
  </node>
  <node id="317965705" version="3" timestamp="2009-10-02T20:03:51Z" uid="86259" user="hasse_osm_korinthenkacker" changeset="2717024" lat="47.8785663" lon="11.7072784">
    <tag k="addr:city" v="Holzkirchen"/>
    <tag k="addr:country" v="DE"/>
    <tag k="addr:housenumber" v="24"/>
    <tag k="addr:postcode" v="83607"/>
    <tag k="addr:street" v="Schönlohstraße"/>
    <tag k="source" v="survey"/>
  </node>
  <node id="317965705" version="4" timestamp="2009-10-22T21:31:38Z" uid="36809" user="pfoten_weg_!_" changeset="2925729" lat="47.8785663" lon="11.7072784">
    <tag k="addr:city" v="Holzkirchen"/>
    <tag k="addr:country" v="DE"/>
    <tag k="addr:housenumber" v="24"/>
    <tag k="addr:postcode" v="83607"/>
    <tag k="addr:street" v="Schönlohstraße"/>
  </node>
  <node id="317966769" version="1" timestamp="2008-12-11T15:36:24Z" uid="46381" user="TheDayAfter" changeset="321420" lat="54.1308781" lon="10.6162832"/>
  <node id="317966980" version="5" timestamp="2009-10-02T20:03:56Z" uid="86259" user="hasse_osm_korinthenkacker" changeset="2717024" lat="47.8803336" lon="11.7069008">
    <tag k="addr:city" v="Holzkirchen"/>
    <tag k="addr:country" v="DE"/>
    <tag k="addr:housenumber" v="23"/>
    <tag k="addr:postcode" v="83607"/>
    <tag k="addr:street" v="Austraße"/>
    <tag k="source" v="survey"/>
  </node>
  <node id="317967150" version="4" timestamp="2009-10-02T20:03:57Z" uid="86259" user="hasse_osm_korinthenkacker" changeset="2717024" lat="47.8803393" lon="11.7066004">
    <tag k="addr:city" v="Holzkirchen"/>
    <tag k="addr:country" v="DE"/>
    <tag k="addr:housenumber" v="21"/>
    <tag k="addr:postcode" v="83607"/>
    <tag k="addr:street" v="Austraße"/>
    <tag k="source" v="survey"/>
  </node>
</osm>
