<?xml version='1.0' encoding='UTF-8'?>
<osm version="0.6" generator="libosmium/2.20.0">
  <node id="318110040" version="6" timestamp="2009-10-02T20:03:45Z" uid="86259" user="hasse_osm_korinthenkacker" changeset="2717024" lat="47.8813353" lon="11.7010569">
    <tag k="addr:city" v="Holzkirchen"/>
    <tag k="addr:country" v="DE"/>
    <tag k="addr:housenumber" v="9a"/>
    <tag k="addr:postcode" v="83607"/>
    <tag k="addr:street" v="Lechlweg"/>
  </node>
  <node id="318110046" version="5" timestamp="2009-10-02T20:03:37Z" uid="86259" user="hasse_osm_korinthenkacker" changeset="2717024" lat="47.8797639" lon="11.7018384">
    <tag k="addr:city" v="Holzkirchen"/>
    <tag k="addr:country" v="DE"/>
    <tag k="addr:housenumber" v="15"/>
    <tag k="addr:postcode" v="83607"/>
    <tag k="addr:street" v="Rosenheimer Straße"/>
  </node>
  <node id="318110346" version="2" timestamp="2008-12-14T02:53:45Z" uid="6975" user="ulfl" changeset="365670" lat="48.4119717" lon="17.5003242">
    <tag k="highway" v="bus_stop"/>
  </node>
  <node id="318110357" version="2" timestamp="2008-12-14T02:53:43Z" uid="6975" user="ulfl" changeset="365670" lat="48.4223322" lon="17.6960404">
    <tag k="highway" v="bus_stop"/>
  </node>
  <node id="318110361" version="2" timestamp="2008-12-14T02:53:44Z" uid="6975" user="ulfl" changeset="365670" lat="48.4226179" lon="17.6969925">
    <tag k="highway" v="bus_stop"/>
  </node>
  <node id="318110566" version="2" timestamp="2008-12-14T02:53:44Z" uid="6975" user="ulfl" changeset="365670" lat="48.2736724" lon="17.8276569">
    <tag k="highway" v="bus_stop"/>
  </node>
  <node id="318110568" version="2" timestamp="2008-12-14T02:53:43Z" uid="6975" user="ulfl" changeset="365670" lat="48.2781672" lon="17.8256424">
    <tag k="highway" v="bus_stop"/>
  </node>
  <node id="318110578" version="2" timestamp="2008-12-14T02:53:45Z" uid="6975" user="ulfl" changeset="365670" lat="48.3127724" lon="17.8282914">
    <tag k="highway" v="bus_stop"/>
  </node>
  <node id="318110581" version="2" timestamp="2008-12-14T02:53:45Z" uid="6975" user="ulfl" changeset="365670" lat="48.3091915" lon="17.8291887">
    <tag k="highway" v="bus_stop"/>
  </node>
  <node id="318110587" version="2" timestamp="2008-12-14T02:53:45Z" uid="6975" user="ulfl" changeset="365670" lat="48.328874" lon="17.8186053">
    <tag k="highway" v="bus_stop"/>
  </node>
  <node id="318110592" version="5" timestamp="2009-10-02T20:03:36Z" uid="86259" user="hasse_osm_korinthenkacker" changeset="2717024" lat="47.8794243" lon="11.7015466">
    <tag k="addr:city" v="Holzkirchen"/>
    <tag k="addr:country" v="DE"/>
    <tag k="addr:housenumber" v="9"/>
    <tag k="addr:postcode" v="83607"/>
    <tag k="addr:street" v="Rosenheimer Straße"/>
  </node>
  <node id="318110593" version="2" timestamp="2008-12-14T02:53:43Z" uid="6975" user="ulfl" changeset="365670" lat="48.3257327" lon="17.8212391">
    <tag k="highway" v="bus_stop"/>
  </node>
  <node id="318110667" version="5" timestamp="2009-10-02T20:03:37Z" uid="86259" user="hasse_osm_korinthenkacker" changeset="2717024" lat="47.8795452" lon="11.7016324">
    <tag k="addr:city" v="Holzkirchen"/>
    <tag k="addr:country" v="DE"/>
    <tag k="addr:housenumber" v="11"/>
    <tag k="addr:postcode" v="83607"/>
    <tag k="addr:street" v="Rosenheimer Straße"/>
  </node>
  <node id="318110680" version="5" timestamp="2009-10-02T20:03:37Z" uid="86259" user="hasse_osm_korinthenkacker" changeset="2717024" lat="47.8796488" lon="11.7017182">
    <tag k="addr:city" v="Holzkirchen"/>
    <tag k="addr:country" v="DE"/>
    <tag k="addr:housenumber" v="13"/>
    <tag k="addr:postcode" v="83607"/>
    <tag k="addr:street" v="Rosenheimer Straße"/>
  </node>
  <node id="318111726" version="4" timestamp="2009-10-02T20:03:46Z" uid="86259" user="hasse_osm_korinthenkacker" changeset="2717024" lat="47.8820342" lon="11.7009277">
    <tag k="addr:city" v="Holzkirchen"/>
    <tag k="addr:country" v="DE"/>
    <tag k="addr:housenumber" v="23a"/>
    <tag k="addr:postcode" v="83607"/>
    <tag k="addr:street" v="Rosenheimer Straße"/>
  </node>
  <node id="318111779" version="6" timestamp="2009-10-02T20:03:51Z" uid="86259" user="hasse_osm_korinthenkacker" changeset="2717024" lat="47.8826641" lon="11.7042871">
    <tag k="addr:city" v="Holzkirchen"/>
    <tag k="addr:country" v="DE"/>
    <tag k="addr:housenumber" v="27"/>
    <tag k="addr:postcode" v="83607"/>
    <tag k="addr:street" v="Rosenheimer Straße"/>
  </node>
  <node id="318111787" version="9" timestamp="2010-02-10T22:37:33Z" uid="16922" user="amai" changeset="3844397" lat="49.843432" lon="8.723099"/>
  <node id="318111795" version="3" timestamp="2009-10-02T20:03:51Z" uid="86259" user="hasse_osm_korinthenkacker" changeset="2717024" lat="47.8829437" lon="11.7042837">
    <tag k="addr:city" v="Holzkirchen"/>
    <tag k="addr:country" v="DE"/>
    <tag k="addr:housenumber" v="29"/>
    <tag k="addr:postcode" v="83607"/>
    <tag k="addr:street" v="Rosenheimer Straße"/>
  </node>
  <node id="318111939" version="5" timestamp="2009-10-02T20:03:51Z" uid="86259" user="hasse_osm_korinthenkacker" changeset="2717024" lat="47.8825468" lon="11.7034827">
    <tag k="addr:city" v="Holzkirchen"/>
    <tag k="addr:country" v="DE"/>
    <tag k="addr:housenumber" v="1"/>
    <tag k="addr:postcode" v="83607"/>
    <tag k="addr:street" v="Victor-Kaluza-Straße"/>
  </node>
  <node id="318112162" version="6" timestamp="2009-10-02T20:03:46Z" uid="86259" user="hasse_osm_korinthenkacker" changeset="2717024" lat="47.8825556" lon="11.7024817">
    <tag k="addr:city" v="Holzkirchen"/>
    <tag k="addr:country" v="DE"/>
    <tag k="addr:housenumber" v="7"/>
    <tag k="addr:postcode" v="83607"/>
    <tag k="addr:street" v="Victor-Kaluza-Straße"/>
  </node>
  <node id="318112194" version="5" timestamp="2009-10-02T20:03:46Z" uid="86259" user="hasse_osm_korinthenkacker" changeset="2717024" lat="47.8826217" lon="11.703002">
    <tag k="addr:city" v="Holzkirchen"/>
    <tag k="addr:country" v="DE"/>
    <tag k="addr:housenumber" v="3"/>
    <tag k="addr:postcode" v="83607"/>
    <tag k="addr:street" v="Victor-Kaluza-Straße"/>
  </node>
  <node id="318112266" version="6" timestamp="2009-10-02T20:03:47Z" uid="86259" user="hasse_osm_korinthenkacker" changeset="2717024" lat="47.8826017" lon="11.7027649">
    <tag k="addr:city" v="Holzkirchen"/>
    <tag k="addr:country" v="DE"/>
    <tag k="addr:housenumber" v="5"/>
    <tag k="addr:postcode" v="83607"/>
    <tag k="addr:street" v="Victor-Kaluza-Straße"/>
  </node>
  <node id="318112313" version="4" timestamp="2009-10-02T20:03:46Z" uid="86259" user="hasse_osm_korinthenkacker" changeset="2717024" lat="47.883157" lon="11.7031565">
    <tag k="addr:city" v="Holzkirchen"/>
    <tag k="addr:country" v="DE"/>
    <tag k="addr:housenumber" v="1"/>
    <tag k="addr:postcode" v="83607"/>
    <tag k="addr:street" v="Enzianstraße"/>
  </node>
  <node id="318112401" version="4" timestamp="2009-10-02T19:46:02Z" uid="86259" user="hasse_osm_korinthenkacker" changeset="2716821" lat="47.8833412" lon="11.7033024">
    <tag k="addr:city" v="Holzkirchen"/>
    <tag k="addr:country" v="DE"/>
    <tag k="addr:housenumber" v="1a"/>
    <tag k="addr:postcode" v="83607"/>
    <tag k="addr:street" v="Enzianstraße"/>
  </node>
  <node id="318112407" version="5" timestamp="2009-10-02T19:46:05Z" uid="86259" user="hasse_osm_korinthenkacker" changeset="2716821" lat="47.8839398" lon="11.7042294">
    <tag k="addr:city" v="Holzkirchen"/>
    <tag k="addr:country" v="DE"/>
    <tag k="addr:housenumber" v="9"/>
    <tag k="addr:postcode" v="83607"/>
    <tag k="addr:street" v="Enzianstraße"/>
  </node>
  <node id="318112414" version="8" timestamp="2009-10-02T19:46:01Z" uid="86259" user="hasse_osm_korinthenkacker" changeset="2716821" lat="47.8838765" lon="11.7039461">
    <tag k="addr:city" v="Holzkirchen"/>
    <tag k="addr:country" v="DE"/>
    <tag k="addr:housenumber" v="7"/>
    <tag k="addr:postcode" v="83607"/>
    <tag k="addr:street" v="Enzianstraße"/>
  </node>
  <node id="318112416" version="5" timestamp="2009-10-02T19:46:01Z" uid="86259" user="hasse_osm_korinthenkacker" changeset="2716821" lat="47.8834966" lon="11.7035084">
    <tag k="addr:city" v="Holzkirchen"/>
    <tag k="addr:country" v="DE"/>
    <tag k="addr:housenumber" v="3"/>
    <tag k="addr:postcode" v="83607"/>
    <tag k="addr:street" v="Enzianstraße"/>
  </node>
  <node id="318112417" version="6" timestamp="2009-10-02T19:46:01Z" uid="86259" user="hasse_osm_korinthenkacker" changeset="2716821" lat="47.8836693" lon="11.7037831">
    <tag k="addr:city" v="Holzkirchen"/>
    <tag k="addr:country" v="DE"/>
    <tag k="addr:housenumber" v="5"/>
    <tag k="addr:postcode" v="83607"/>
    <tag k="addr:street" v="Enzianstraße"/>
  </node>
  <node id="318112495" version="3" timestamp="2009-10-02T20:03:51Z" uid="86259" user="hasse_osm_korinthenkacker" changeset="2717024" lat="47.8829955" lon="11.7034511">
    <tag k="addr:city" v="Holzkirchen"/>
    <tag k="addr:country" v="DE"/>
    <tag k="addr:housenumber" v="2"/>
    <tag k="addr:postcode" v="83607"/>
    <tag k="addr:street" v="Enzianstraße"/>
  </node>
  <node id="318112512" version="3" timestamp="2009-10-02T20:03:51Z" uid="86259" user="hasse_osm_korinthenkacker" changeset="2717024" lat="47.8831567" lon="11.7036657">
    <tag k="addr:city" v="Holzkirchen"/>
    <tag k="addr:country" v="DE"/>
    <tag k="addr:housenumber" v="4"/>
    <tag k="addr:postcode" v="83607"/>
    <tag k="addr:street" v="Enzianstraße"/>
  </node>
  <node id="318112589" version="3" timestamp="2009-10-02T19:46:00Z" uid="86259" user="hasse_osm_korinthenkacker" changeset="2716821" lat="47.8832085" lon="11.7037429">
    <tag k="addr:city" v="Holzkirchen"/>
    <tag k="addr:country" v="DE"/>
    <tag k="addr:housenumber" v="6"/>
    <tag k="addr:postcode" v="83607"/>
    <tag k="addr:street" v="Enzianstraße"/>
  </node>
  <node id="318112591" version="4" timestamp="2009-10-02T19:46:01Z" uid="86259" user="hasse_osm_korinthenkacker" changeset="2716821" lat="47.8833778" lon="11.7041155">
    <tag k="addr:city" v="Holzkirchen"/>
    <tag k="addr:country" v="DE"/>
    <tag k="addr:housenumber" v="8"/>
    <tag k="addr:postcode" v="83607"/>
    <tag k="addr:street" v="Enzianstraße"/>
  </node>
  <node id="318112593" version="4" timestamp="2009-10-02T19:46:00Z" uid="86259" user="hasse_osm_korinthenkacker" changeset="2716821" lat="47.8833318" lon="11.7042013">
    <tag k="addr:city" v="Holzkirchen"/>
    <tag k="addr:country" v="DE"/>
    <tag k="addr:housenumber" v="8a"/>
    <tag k="addr:postcode" v="83607"/>
    <tag k="addr:street" v="Enzianstraße"/>
  </node>
  <node id="318112650" version="4" timestamp="2009-10-02T19:46:01Z" uid="86259" user="hasse_osm_korinthenkacker" changeset="2716821" lat="47.8832915" lon="11.7042786">
    <tag k="addr:city" v="Holzkirchen"/>
    <tag k="addr:country" v="DE"/>
    <tag k="addr:housenumber" v="8b"/>
    <tag k="addr:postcode" v="83607"/>
    <tag k="addr:street" v="Enzianstraße"/>
  </node>
  <node id="318112651" version="7" timestamp="2009-10-02T19:46:01Z" uid="86259" user="hasse_osm_korinthenkacker" changeset="2716821" lat="47.8836771" lon="11.7045532">
    <tag k="addr:city" v="Holzkirchen"/>
    <tag k="addr:country" v="DE"/>
    <tag k="addr:housenumber" v="12"/>
    <tag k="addr:postcode" v="83607"/>
    <tag k="addr:street" v="Enzianstraße"/>
  </node>
  <node id="318112652" version="7" timestamp="2009-10-02T19:46:03Z" uid="86259" user="hasse_osm_korinthenkacker" changeset="2716821" lat="47.883821" lon="11.7047335">
    <tag k="addr:city" v="Holzkirchen"/>
    <tag k="addr:country" v="DE"/>
    <tag k="addr:housenumber" v="14"/>
    <tag k="addr:postcode" v="83607"/>
    <tag k="addr:street" v="Enzianstraße"/>
  </node>
  <node id="318112655" version="6" timestamp="2009-10-02T19:46:02Z" uid="86259" user="hasse_osm_korinthenkacker" changeset="2716821" lat="47.8838301" lon="11.7050819">
    <tag k="addr:city" v="Holzkirchen"/>
    <tag k="addr:country" v="DE"/>
    <tag k="addr:housenumber" v="16"/>
    <tag k="addr:postcode" v="83607"/>
    <tag k="addr:street" v="Enzianstraße"/>
  </node>
  <node id="318112834" version="7" timestamp="2009-10-02T19:46:01Z" uid="86259" user="hasse_osm_korinthenkacker" changeset="2716821" lat="47.8835217" lon="11.7043558">
    <tag k="addr:city" v="Holzkirchen"/>
    <tag k="addr:country" v="DE"/>
    <tag k="addr:housenumber" v="10"/>
    <tag k="addr:postcode" v="83607"/>
    <tag k="addr:street" v="Enzianstraße"/>
  </node>
  <node id="318113157" version="4" timestamp="2009-10-02T19:46:05Z" uid="86259" user="hasse_osm_korinthenkacker" changeset="2716821" lat="47.8840201" lon="11.7049274">
    <tag k="addr:city" v="Holzkirchen"/>
    <tag k="addr:country" v="DE"/>
    <tag k="addr:housenumber" v="18"/>
    <tag k="addr:postcode" v="83607"/>
    <tag k="addr:street" v="Enzianstraße"/>
  </node>
  <node id="318113571" version="3" timestamp="2009-10-02T19:46:06Z" uid="86259" user="hasse_osm_korinthenkacker" changeset="2716821" lat="47.8840086" lon="11.7059831">
    <tag k="addr:city" v="Holzkirchen"/>
    <tag k="addr:country" v="DE"/>
    <tag k="addr:housenumber" v="2"/>
    <tag k="addr:postcode" v="83607"/>
    <tag k="addr:street" v="Carl-Weinberger-Straße"/>
  </node>
  <node id="318113968" version="3" timestamp="2009-10-02T19:46:05Z" uid="86259" user="hasse_osm_korinthenkacker" changeset="2716821" lat="47.8840719" lon="11.7058716">
    <tag k="addr:city" v="Holzkirchen"/>
    <tag k="addr:country" v="DE"/>
    <tag k="addr:housenumber" v="4"/>
    <tag k="addr:postcode" v="83607"/>
    <tag k="addr:street" v="Carl-Weinberger-Straße"/>
  </node>
  <node id="318114404" version="1" timestamp="2008-12-12T14:09:43Z" uid="7617" user="Franc" changeset="331876" lat="-33.9099137" lon="151.2557963"/>
  <node id="318114404" version="2" timestamp="2011-03-26T07:37:44Z" uid="7617" user="Franc" changeset="7672617" lat="-33.9098643" lon="151.2557993"/>
  <node id="318114405" version="1" timestamp="2008-12-12T14:09:44Z" uid="7617" user="Franc" changeset="331876" lat="-33.9116452" lon="151.2554143"/>
  <node id="318114406" version="1" timestamp="2008-12-12T14:09:45Z" uid="7617" user="Franc" changeset="331876" lat="-33.9103262" lon="151.2557453"/>
  <node id="318114407" version="1" timestamp="2008-12-12T14:09:45Z" uid="7617" user="Franc" changeset="331876" lat="-33.9111971" lon="151.2554958"/>
  <node id="318114408" version="1" timestamp="2008-12-12T14:09:46Z" uid="7617" user="Franc" changeset="331876" lat="-33.9084464" lon="151.2573472"/>
  <node id="318114409" version="1" timestamp="2008-12-12T14:09:47Z" uid="7617" user="Franc" changeset="331876" lat="-33.9072149" lon="151.2528806"/>
  <node id="318114409" version="2" timestamp="2010-09-11T04:38:27Z" uid="7617" user="Franc" changeset="5746575" lat="-33.9072198" lon="151.2528422"/>
  <node id="318114409" version="3" timestamp="2011-01-01T12:11:36Z" uid="7617" user="Franc" changeset="6827223" lat="-33.9072038" lon="151.25287"/>
  <node id="318114412" version="1" timestamp="2008-12-12T14:09:49Z" uid="7617" user="Franc" changeset="331876" lat="-33.9073747" lon="151.2538441"/>
  <node id="318114412" version="2" timestamp="2010-09-11T04:38:27Z" uid="7617" user="Franc" changeset="5746575" lat="-33.9073539" lon="151.2538013"/>
  <node id="318114413" version="1" timestamp="2008-12-12T14:09:49Z" uid="7617" user="Franc" changeset="331876" lat="-33.9093009" lon="151.2528877"/>
  <node id="318114413" version="2" timestamp="2010-09-11T04:38:26Z" uid="7617" user="Franc" changeset="5746575" lat="-33.9092945" lon="151.2528509"/>
  <node id="318114414" version="1" timestamp="2008-12-12T14:09:50Z" uid="7617" user="Franc" changeset="331876" lat="-33.9040143" lon="151.2498823"/>
  <node id="318114415" version="1" timestamp="2008-12-12T14:09:51Z" uid="7617" user="Franc" changeset="331876" lat="-33.904447" lon="151.2497999"/>
  <node id="318115208" version="3" timestamp="2010-12-20T00:31:47Z" uid="6269" user="Mueck" changeset="6712177" lat="53.506763" lon="8.6200666"/>
  <node id="318115209" version="3" timestamp="2010-12-20T00:31:47Z" uid="6269" user="Mueck" changeset="6712177" lat="53.5066382" lon="8.6181513"/>
  <node id="318115210" version="3" timestamp="2010-12-08T01:35:16Z" uid="6269" user="Mueck" changeset="6581581" lat="53.5072352" lon="8.6153708"/>
</osm>
