<?xml version='1.0' encoding='UTF-8'?>
<osm version="0.6" generator="libosmium/2.20.0">
  <node id="318330036" version="5" timestamp="2009-10-02T19:45:46Z" uid="86259" user="hasse_osm_korinthenkacker" changeset="2716821" lat="47.887407" lon="11.6901594">
    <tag k="addr:city" v="Holzkirchen"/>
    <tag k="addr:country" v="DE"/>
    <tag k="addr:housenumber" v="5"/>
    <tag k="addr:postcode" v="83607"/>
    <tag k="addr:street" v="Reitschulweg"/>
  </node>
  <node id="318330514" version="3" timestamp="2009-10-02T19:45:43Z" uid="86259" user="hasse_osm_korinthenkacker" changeset="2716821" lat="47.8862276" lon="11.6897947">
    <tag k="addr:city" v="Holzkirchen"/>
    <tag k="addr:country" v="DE"/>
    <tag k="addr:housenumber" v="4"/>
    <tag k="addr:postcode" v="83607"/>
    <tag k="addr:street" v="Heignkamer Straße"/>
  </node>
  <node id="318330634" version="5" timestamp="2009-10-02T19:45:44Z" uid="86259" user="hasse_osm_korinthenkacker" changeset="2716821" lat="47.8861825" lon="11.690701">
    <tag k="addr:city" v="Holzkirchen"/>
    <tag k="addr:country" v="DE"/>
    <tag k="addr:housenumber" v="6"/>
    <tag k="addr:postcode" v="83607"/>
    <tag k="addr:street" v="Heignkamer Straße"/>
  </node>
  <node id="318330669" version="4" timestamp="2009-10-02T19:45:48Z" uid="86259" user="hasse_osm_korinthenkacker" changeset="2716821" lat="47.8882191" lon="11.6911595">
    <tag k="addr:city" v="Holzkirchen"/>
    <tag k="addr:country" v="DE"/>
    <tag k="addr:housenumber" v="16"/>
    <tag k="addr:postcode" v="83607"/>
    <tag k="addr:street" v="Heignkamer Straße"/>
  </node>
  <node id="318330680" version="4" timestamp="2009-10-02T19:45:47Z" uid="86259" user="hasse_osm_korinthenkacker" changeset="2716821" lat="47.8883687" lon="11.6913912">
    <tag k="addr:city" v="Holzkirchen"/>
    <tag k="addr:country" v="DE"/>
    <tag k="addr:housenumber" v="16a"/>
    <tag k="addr:postcode" v="83607"/>
    <tag k="addr:street" v="Heignkamer Straße"/>
  </node>
  <node id="318330730" version="4" timestamp="2009-10-02T19:45:48Z" uid="86259" user="hasse_osm_korinthenkacker" changeset="2716821" lat="47.8884838" lon="11.6909363">
    <tag k="addr:city" v="Holzkirchen"/>
    <tag k="addr:country" v="DE"/>
    <tag k="addr:housenumber" v="17"/>
    <tag k="addr:postcode" v="83607"/>
    <tag k="addr:street" v="Heignkamer Straße"/>
  </node>
  <node id="318330956" version="3" timestamp="2009-10-02T19:45:48Z" uid="86259" user="hasse_osm_korinthenkacker" changeset="2716821" lat="47.8885299" lon="11.6910135">
    <tag k="addr:city" v="Holzkirchen"/>
    <tag k="addr:country" v="DE"/>
    <tag k="addr:housenumber" v="17a"/>
    <tag k="addr:postcode" v="83607"/>
    <tag k="addr:street" v="Heignkamer Straße"/>
  </node>
  <node id="318330957" version="4" timestamp="2009-10-02T19:45:49Z" uid="86259" user="hasse_osm_korinthenkacker" changeset="2716821" lat="47.8885587" lon="11.691683">
    <tag k="addr:city" v="Holzkirchen"/>
    <tag k="addr:country" v="DE"/>
    <tag k="addr:housenumber" v="18"/>
    <tag k="addr:postcode" v="83607"/>
    <tag k="addr:street" v="Heignkamer Straße"/>
  </node>
  <node id="318331005" version="4" timestamp="2009-10-02T19:45:48Z" uid="86259" user="hasse_osm_korinthenkacker" changeset="2716821" lat="47.8886392" lon="11.6912453">
    <tag k="addr:city" v="Holzkirchen"/>
    <tag k="addr:country" v="DE"/>
    <tag k="addr:housenumber" v="19"/>
    <tag k="addr:postcode" v="83607"/>
    <tag k="addr:street" v="Heignkamer Straße"/>
  </node>
  <node id="318331042" version="4" timestamp="2009-10-02T19:45:49Z" uid="86259" user="hasse_osm_korinthenkacker" changeset="2716821" lat="47.8888637" lon="11.6913998">
    <tag k="addr:city" v="Holzkirchen"/>
    <tag k="addr:country" v="DE"/>
    <tag k="addr:housenumber" v="21"/>
    <tag k="addr:postcode" v="83607"/>
    <tag k="addr:street" v="Heignkamer Straße"/>
  </node>
  <node id="318331222" version="4" timestamp="2009-10-02T19:45:49Z" uid="86259" user="hasse_osm_korinthenkacker" changeset="2716821" lat="47.8890824" lon="11.691211">
    <tag k="addr:city" v="Holzkirchen"/>
    <tag k="addr:country" v="DE"/>
    <tag k="addr:housenumber" v="15"/>
    <tag k="addr:postcode" v="83607"/>
    <tag k="addr:street" v="Otterfinger Weg"/>
  </node>
  <node id="318331299" version="4" timestamp="2009-10-02T19:45:49Z" uid="86259" user="hasse_osm_korinthenkacker" changeset="2716821" lat="47.8889731" lon="11.6911938">
    <tag k="addr:city" v="Holzkirchen"/>
    <tag k="addr:country" v="DE"/>
    <tag k="addr:housenumber" v="17"/>
    <tag k="addr:postcode" v="83607"/>
    <tag k="addr:street" v="Otterfinger Weg"/>
  </node>
  <node id="318331468" version="5" timestamp="2009-10-02T19:45:45Z" uid="86259" user="hasse_osm_korinthenkacker" changeset="2716821" lat="47.8864061" lon="11.6939441">
    <tag k="addr:city" v="Holzkirchen"/>
    <tag k="addr:country" v="DE"/>
    <tag k="addr:housenumber" v="1"/>
    <tag k="addr:postcode" v="83607"/>
    <tag k="addr:street" v="Otterfinger Weg"/>
  </node>
  <node id="318331530" version="4" timestamp="2009-10-02T19:45:50Z" uid="86259" user="hasse_osm_korinthenkacker" changeset="2716821" lat="47.8867399" lon="11.6938975">
    <tag k="addr:city" v="Holzkirchen"/>
    <tag k="addr:country" v="DE"/>
    <tag k="addr:housenumber" v="3"/>
    <tag k="addr:postcode" v="83607"/>
    <tag k="addr:street" v="Otterfinger Weg"/>
  </node>
  <node id="318332595" version="3" timestamp="2010-03-28T09:25:10Z" uid="253183" user="Bastioh" changeset="4254172" lat="54.109915" lon="10.8167293">
    <tag k="amenity" v="cinema"/>
    <tag k="name" v="Kino Neustadt"/>
  </node>
  <node id="318332595" version="4" timestamp="2010-03-28T17:56:01Z" uid="253183" user="Bastioh" changeset="4259951" lat="54.1099151" lon="10.8167292">
    <tag k="amenity" v="cinema"/>
    <tag k="name" v="Kino center Neustadt"/>
  </node>
</osm>
