<?xml version='1.0' encoding='UTF-8'?>
<osm version="0.6" generator="libosmium/2.20.0">
  <node id="318310210" version="4" timestamp="2009-10-02T20:03:47Z" uid="86259" user="hasse_osm_korinthenkacker" changeset="2717024" lat="47.8817406" lon="11.7043523">
    <tag k="addr:city" v="Holzkirchen"/>
    <tag k="addr:country" v="DE"/>
    <tag k="addr:housenumber" v="5"/>
    <tag k="addr:postcode" v="83607"/>
    <tag k="addr:street" v="Mohnweg"/>
  </node>
  <node id="318310222" version="4" timestamp="2009-10-02T20:03:47Z" uid="86259" user="hasse_osm_korinthenkacker" changeset="2717024" lat="47.8818039" lon="11.7043523">
    <tag k="addr:city" v="Holzkirchen"/>
    <tag k="addr:country" v="DE"/>
    <tag k="addr:housenumber" v="7"/>
    <tag k="addr:postcode" v="83607"/>
    <tag k="addr:street" v="Mohnweg"/>
  </node>
  <node id="318310223" version="4" timestamp="2009-10-02T20:03:47Z" uid="86259" user="hasse_osm_korinthenkacker" changeset="2717024" lat="47.8818673" lon="11.7043523">
    <tag k="addr:city" v="Holzkirchen"/>
    <tag k="addr:country" v="DE"/>
    <tag k="addr:housenumber" v="9"/>
    <tag k="addr:postcode" v="83607"/>
    <tag k="addr:street" v="Mohnweg"/>
  </node>
  <node id="318310323" version="6" timestamp="2009-10-02T20:03:47Z" uid="86259" user="hasse_osm_korinthenkacker" changeset="2717024" lat="47.881591" lon="11.7047558">
    <tag k="addr:city" v="Holzkirchen"/>
    <tag k="addr:country" v="DE"/>
    <tag k="addr:housenumber" v="11"/>
    <tag k="addr:postcode" v="83607"/>
    <tag k="addr:street" v="Mohnweg"/>
  </node>
  <node id="318310340" version="5" timestamp="2009-10-02T20:03:48Z" uid="86259" user="hasse_osm_korinthenkacker" changeset="2717024" lat="47.8816658" lon="11.7047472">
    <tag k="addr:city" v="Holzkirchen"/>
    <tag k="addr:country" v="DE"/>
    <tag k="addr:housenumber" v="13"/>
    <tag k="addr:postcode" v="83607"/>
    <tag k="addr:street" v="Mohnweg"/>
  </node>
  <node id="318310349" version="6" timestamp="2009-10-02T20:03:48Z" uid="86259" user="hasse_osm_korinthenkacker" changeset="2717024" lat="47.8817291" lon="11.7047558">
    <tag k="addr:city" v="Holzkirchen"/>
    <tag k="addr:country" v="DE"/>
    <tag k="addr:housenumber" v="15"/>
    <tag k="addr:postcode" v="83607"/>
    <tag k="addr:street" v="Mohnweg"/>
  </node>
  <node id="318310363" version="5" timestamp="2009-10-02T20:03:48Z" uid="86259" user="hasse_osm_korinthenkacker" changeset="2717024" lat="47.8817982" lon="11.7047558">
    <tag k="addr:city" v="Holzkirchen"/>
    <tag k="addr:country" v="DE"/>
    <tag k="addr:housenumber" v="17"/>
    <tag k="addr:postcode" v="83607"/>
    <tag k="addr:street" v="Mohnweg"/>
  </node>
  <node id="318310369" version="5" timestamp="2009-10-02T20:03:48Z" uid="86259" user="hasse_osm_korinthenkacker" changeset="2717024" lat="47.8818673" lon="11.7047558">
    <tag k="addr:city" v="Holzkirchen"/>
    <tag k="addr:country" v="DE"/>
    <tag k="addr:housenumber" v="19"/>
    <tag k="addr:postcode" v="83607"/>
    <tag k="addr:street" v="Mohnweg"/>
  </node>
  <node id="318310422" version="3" timestamp="2010-05-17T15:12:33Z" uid="115477" user="wowik" changeset="4729586" lat="56.1719353" lon="37.0166199"/>
  <node id="318310443" version="3" timestamp="2010-05-17T15:12:08Z" uid="115477" user="wowik" changeset="4729586" lat="56.1783495" lon="37.008745"/>
  <node id="318310443" version="4" timestamp="2010-05-17T15:28:06Z" uid="115477" user="wowik" changeset="4729716" lat="56.1783643" lon="37.0088707"/>
  <node id="318310445" version="3" timestamp="2010-05-17T15:12:09Z" uid="115477" user="wowik" changeset="4729586" lat="56.1733929" lon="37.0208358"/>
  <node id="318310446" version="2" timestamp="2010-05-17T15:28:07Z" uid="115477" user="wowik" changeset="4729716" lat="56.1654353" lon="37.0381736">
    <tag k="created_by" v="Merkaartor 0.12"/>
  </node>
  <node id="318310448" version="3" timestamp="2010-05-17T15:28:06Z" uid="115477" user="wowik" changeset="4729716" lat="56.1543148" lon="37.0629578"/>
  <node id="318310781" version="5" timestamp="2009-10-02T20:03:44Z" uid="86259" user="hasse_osm_korinthenkacker" changeset="2717024" lat="47.8809584" lon="11.7049067">
    <tag k="addr:city" v="Holzkirchen"/>
    <tag k="addr:country" v="DE"/>
    <tag k="addr:housenumber" v="1"/>
    <tag k="addr:postcode" v="83607"/>
    <tag k="addr:street" v="Otto-Mair-Ring"/>
  </node>
  <node id="318310786" version="6" timestamp="2009-10-02T20:03:44Z" uid="86259" user="hasse_osm_korinthenkacker" changeset="2717024" lat="47.8811541" lon="11.7049325">
    <tag k="addr:city" v="Holzkirchen"/>
    <tag k="addr:country" v="DE"/>
    <tag k="addr:housenumber" v="3"/>
    <tag k="addr:postcode" v="83607"/>
    <tag k="addr:street" v="Otto-Mair-Ring"/>
  </node>
  <node id="318310787" version="5" timestamp="2009-10-02T20:03:47Z" uid="86259" user="hasse_osm_korinthenkacker" changeset="2717024" lat="47.8813211" lon="11.704941">
    <tag k="addr:city" v="Holzkirchen"/>
    <tag k="addr:country" v="DE"/>
    <tag k="addr:housenumber" v="5"/>
    <tag k="addr:postcode" v="83607"/>
    <tag k="addr:street" v="Otto-Mair-Ring"/>
  </node>
  <node id="318310874" version="6" timestamp="2009-10-02T20:03:44Z" uid="86259" user="hasse_osm_korinthenkacker" changeset="2717024" lat="47.8809296" lon="11.7053616">
    <tag k="addr:city" v="Holzkirchen"/>
    <tag k="addr:country" v="DE"/>
    <tag k="addr:housenumber" v="2"/>
    <tag k="addr:postcode" v="83607"/>
    <tag k="addr:street" v="Otto-Mair-Ring"/>
  </node>
  <node id="318310907" version="6" timestamp="2009-10-02T20:03:44Z" uid="86259" user="hasse_osm_korinthenkacker" changeset="2717024" lat="47.8811081" lon="11.7053788">
    <tag k="addr:city" v="Holzkirchen"/>
    <tag k="addr:country" v="DE"/>
    <tag k="addr:housenumber" v="4"/>
    <tag k="addr:postcode" v="83607"/>
    <tag k="addr:street" v="Otto-Mair-Ring"/>
  </node>
  <node id="318311072" version="6" timestamp="2009-10-02T20:03:48Z" uid="86259" user="hasse_osm_korinthenkacker" changeset="2717024" lat="47.8812693" lon="11.7054818">
    <tag k="addr:city" v="Holzkirchen"/>
    <tag k="addr:country" v="DE"/>
    <tag k="addr:housenumber" v="6"/>
    <tag k="addr:postcode" v="83607"/>
    <tag k="addr:street" v="Otto-Mair-Ring"/>
  </node>
  <node id="318311080" version="5" timestamp="2009-10-02T20:03:48Z" uid="86259" user="hasse_osm_korinthenkacker" changeset="2717024" lat="47.8812635" lon="11.7057478">
    <tag k="addr:city" v="Holzkirchen"/>
    <tag k="addr:country" v="DE"/>
    <tag k="addr:housenumber" v="8"/>
    <tag k="addr:postcode" v="83607"/>
    <tag k="addr:street" v="Otto-Mair-Ring"/>
  </node>
  <node id="318311411" version="5" timestamp="2009-01-29T12:50:13Z" uid="9581" user="Lobelt" changeset="851909" lat="51.492813" lon="13.1875711"/>
  <node id="318311412" version="5" timestamp="2009-01-29T12:50:13Z" uid="9581" user="Lobelt" changeset="851909" lat="51.4928365" lon="13.1873064"/>
  <node id="318311413" version="5" timestamp="2009-01-29T12:50:13Z" uid="9581" user="Lobelt" changeset="851909" lat="51.4929355" lon="13.1868369"/>
  <node id="318311500" version="4" timestamp="2010-05-17T15:28:05Z" uid="115477" user="wowik" changeset="4729716" lat="56.1637149" lon="37.0287322"/>
  <node id="318311501" version="4" timestamp="2010-05-17T15:28:03Z" uid="115477" user="wowik" changeset="4729716" lat="56.1642884" lon="37.0309638"/>
  <node id="318311502" version="4" timestamp="2010-05-17T15:28:04Z" uid="115477" user="wowik" changeset="4729716" lat="56.1651486" lon="37.0325088"/>
  <node id="318311503" version="4" timestamp="2010-05-17T15:28:04Z" uid="115477" user="wowik" changeset="4729716" lat="56.1662956" lon="37.0338821"/>
  <node id="318311556" version="4" timestamp="2010-05-17T15:28:03Z" uid="115477" user="wowik" changeset="4729716" lat="56.1670602" lon="37.047615"/>
  <node id="318311557" version="4" timestamp="2010-05-17T15:28:04Z" uid="115477" user="wowik" changeset="4729716" lat="56.1659133" lon="37.0452117"/>
  <node id="318311558" version="4" timestamp="2010-05-17T15:28:04Z" uid="115477" user="wowik" changeset="4729716" lat="56.1646707" lon="37.0448684"/>
  <node id="318311559" version="4" timestamp="2010-05-17T15:28:04Z" uid="115477" user="wowik" changeset="4729716" lat="56.1635237" lon="37.0453834"/>
  <node id="318311560" version="4" timestamp="2010-05-17T15:28:05Z" uid="115477" user="wowik" changeset="4729716" lat="56.162759" lon="37.0457267"/>
  <node id="318311561" version="4" timestamp="2010-05-17T15:28:08Z" uid="115477" user="wowik" changeset="4729716" lat="56.1620899" lon="37.0429801"/>
  <node id="318311562" version="4" timestamp="2010-05-17T15:28:07Z" uid="115477" user="wowik" changeset="4729716" lat="56.1618031" lon="37.0386886"/>
  <node id="318311563" version="4" timestamp="2010-05-17T15:28:07Z" uid="115477" user="wowik" changeset="4729716" lat="56.1610384" lon="37.0350837"/>
  <node id="318311582" version="5" timestamp="2009-10-02T20:03:45Z" uid="86259" user="hasse_osm_korinthenkacker" changeset="2717024" lat="47.8810966" lon="11.7058337">
    <tag k="addr:city" v="Holzkirchen"/>
    <tag k="addr:country" v="DE"/>
    <tag k="addr:housenumber" v="10"/>
    <tag k="addr:postcode" v="83607"/>
    <tag k="addr:street" v="Otto-Mair-Ring"/>
  </node>
  <node id="318311595" version="5" timestamp="2009-10-02T20:03:45Z" uid="86259" user="hasse_osm_korinthenkacker" changeset="2717024" lat="47.8808951" lon="11.7058251">
    <tag k="addr:city" v="Holzkirchen"/>
    <tag k="addr:country" v="DE"/>
    <tag k="addr:housenumber" v="12"/>
    <tag k="addr:postcode" v="83607"/>
    <tag k="addr:street" v="Otto-Mair-Ring"/>
  </node>
  <node id="318311976" version="3" timestamp="2009-10-02T20:03:48Z" uid="86259" user="hasse_osm_korinthenkacker" changeset="2717024" lat="47.8815622" lon="11.7051677">
    <tag k="addr:city" v="Holzkirchen"/>
    <tag k="addr:country" v="DE"/>
    <tag k="addr:housenumber" v="14"/>
    <tag k="addr:postcode" v="83607"/>
    <tag k="addr:street" v="Otto-Mair-Ring"/>
  </node>
  <node id="318311977" version="5" timestamp="2009-10-02T20:03:48Z" uid="86259" user="hasse_osm_korinthenkacker" changeset="2717024" lat="47.8815622" lon="11.7054252">
    <tag k="addr:city" v="Holzkirchen"/>
    <tag k="addr:country" v="DE"/>
    <tag k="addr:housenumber" v="14a"/>
    <tag k="addr:postcode" v="83607"/>
    <tag k="addr:street" v="Otto-Mair-Ring"/>
  </node>
  <node id="318312156" version="5" timestamp="2009-10-02T20:03:48Z" uid="86259" user="hasse_osm_korinthenkacker" changeset="2717024" lat="47.8815622" lon="11.7057686">
    <tag k="addr:city" v="Holzkirchen"/>
    <tag k="addr:country" v="DE"/>
    <tag k="addr:housenumber" v="16"/>
    <tag k="addr:postcode" v="83607"/>
    <tag k="addr:street" v="Otto-Mair-Ring"/>
  </node>
  <node id="318312161" version="6" timestamp="2009-10-02T20:04:01Z" uid="86259" user="hasse_osm_korinthenkacker" changeset="2717024" lat="47.8815564" lon="11.7059831">
    <tag k="addr:city" v="Holzkirchen"/>
    <tag k="addr:country" v="DE"/>
    <tag k="addr:housenumber" v="18"/>
    <tag k="addr:postcode" v="83607"/>
    <tag k="addr:street" v="Otto-Mair-Ring"/>
  </node>
  <node id="318312171" version="4" timestamp="2009-10-02T20:04:02Z" uid="86259" user="hasse_osm_korinthenkacker" changeset="2717024" lat="47.8815507" lon="11.7063093">
    <tag k="addr:city" v="Holzkirchen"/>
    <tag k="addr:country" v="DE"/>
    <tag k="addr:housenumber" v="18a"/>
    <tag k="addr:postcode" v="83607"/>
    <tag k="addr:street" v="Otto-Mair-Ring"/>
  </node>
  <node id="318312173" version="4" timestamp="2009-10-02T20:04:02Z" uid="86259" user="hasse_osm_korinthenkacker" changeset="2717024" lat="47.8815449" lon="11.7065067">
    <tag k="addr:city" v="Holzkirchen"/>
    <tag k="addr:country" v="DE"/>
    <tag k="addr:housenumber" v="20"/>
    <tag k="addr:postcode" v="83607"/>
    <tag k="addr:street" v="Otto-Mair-Ring"/>
  </node>
  <node id="318313097" version="7" timestamp="2009-10-02T20:03:57Z" uid="86259" user="hasse_osm_korinthenkacker" changeset="2717024" lat="47.8808893" lon="11.7063057">
    <tag k="addr:city" v="Holzkirchen"/>
    <tag k="addr:country" v="DE"/>
    <tag k="addr:housenumber" v="22"/>
    <tag k="addr:postcode" v="83607"/>
    <tag k="addr:street" v="Otto-Mair-Ring"/>
  </node>
  <node id="318313098" version="6" timestamp="2009-10-02T20:03:57Z" uid="86259" user="hasse_osm_korinthenkacker" changeset="2717024" lat="47.8810793" lon="11.7063229">
    <tag k="addr:city" v="Holzkirchen"/>
    <tag k="addr:country" v="DE"/>
    <tag k="addr:housenumber" v="24"/>
    <tag k="addr:postcode" v="83607"/>
    <tag k="addr:street" v="Otto-Mair-Ring"/>
  </node>
  <node id="318313104" version="5" timestamp="2009-10-02T20:04:01Z" uid="86259" user="hasse_osm_korinthenkacker" changeset="2717024" lat="47.8812686" lon="11.7063436">
    <tag k="addr:city" v="Holzkirchen"/>
    <tag k="addr:country" v="DE"/>
    <tag k="addr:housenumber" v="26"/>
    <tag k="addr:postcode" v="83607"/>
    <tag k="addr:street" v="Otto-Mair-Ring"/>
  </node>
  <node id="318313105" version="5" timestamp="2009-10-02T20:04:01Z" uid="86259" user="hasse_osm_korinthenkacker" changeset="2717024" lat="47.8812628" lon="11.7066784">
    <tag k="addr:city" v="Holzkirchen"/>
    <tag k="addr:country" v="DE"/>
    <tag k="addr:housenumber" v="28"/>
    <tag k="addr:postcode" v="83607"/>
    <tag k="addr:street" v="Otto-Mair-Ring"/>
  </node>
  <node id="318313112" version="5" timestamp="2009-10-02T20:03:57Z" uid="86259" user="hasse_osm_korinthenkacker" changeset="2717024" lat="47.8811305" lon="11.7068243">
    <tag k="addr:city" v="Holzkirchen"/>
    <tag k="addr:country" v="DE"/>
    <tag k="addr:housenumber" v="30"/>
    <tag k="addr:postcode" v="83607"/>
    <tag k="addr:street" v="Otto-Mair-Ring"/>
  </node>
  <node id="318313124" version="5" timestamp="2009-10-02T20:03:57Z" uid="86259" user="hasse_osm_korinthenkacker" changeset="2717024" lat="47.8809117" lon="11.7067985">
    <tag k="addr:city" v="Holzkirchen"/>
    <tag k="addr:country" v="DE"/>
    <tag k="addr:housenumber" v="32"/>
    <tag k="addr:postcode" v="83607"/>
    <tag k="addr:street" v="Otto-Mair-Ring"/>
  </node>
  <node id="318313931" version="8" timestamp="2009-02-22T21:11:07Z" uid="98061" user="manels" changeset="622335" lat="41.4812302" lon="2.1646179"/>
  <node id="318313931" version="9" timestamp="2009-02-22T21:11:27Z" uid="98061" user="manels" changeset="622335" lat="41.4812302" lon="2.1646179"/>
  <node id="318313931" version="10" timestamp="2009-02-22T21:13:00Z" uid="98061" user="manels" changeset="622335" lat="41.4812302" lon="2.1646179"/>
  <node id="318313932" version="5" timestamp="2009-02-22T21:11:08Z" uid="98061" user="manels" changeset="622335" lat="41.48368" lon="2.1612705"/>
  <node id="318313932" version="6" timestamp="2009-02-22T21:11:28Z" uid="98061" user="manels" changeset="622335" lat="41.48368" lon="2.1612705"/>
  <node id="318313932" version="7" timestamp="2009-02-22T21:13:01Z" uid="98061" user="manels" changeset="622335" lat="41.48368" lon="2.1612705"/>
  <node id="318313933" version="5" timestamp="2009-02-22T21:11:08Z" uid="98061" user="manels" changeset="622335" lat="41.4851911" lon="2.1591848"/>
  <node id="318313933" version="6" timestamp="2009-02-22T21:11:28Z" uid="98061" user="manels" changeset="622335" lat="41.4851911" lon="2.1591848"/>
  <node id="318313933" version="7" timestamp="2009-02-22T21:13:01Z" uid="98061" user="manels" changeset="622335" lat="41.4851911" lon="2.1591848"/>
  <node id="318313934" version="7" timestamp="2009-02-22T21:11:09Z" uid="98061" user="manels" changeset="622335" lat="41.488033" lon="2.1552538"/>
  <node id="318313934" version="8" timestamp="2009-02-22T21:11:28Z" uid="98061" user="manels" changeset="622335" lat="41.488033" lon="2.1552538"/>
  <node id="318313934" version="9" timestamp="2009-02-22T21:13:02Z" uid="98061" user="manels" changeset="622335" lat="41.488033" lon="2.1552538"/>
  <node id="318313935" version="5" timestamp="2009-02-22T21:11:10Z" uid="98061" user="manels" changeset="622335" lat="41.4887466" lon="2.1542496"/>
  <node id="318313935" version="6" timestamp="2009-02-22T21:11:29Z" uid="98061" user="manels" changeset="622335" lat="41.4887466" lon="2.1542496"/>
  <node id="318313935" version="7" timestamp="2009-02-22T21:13:02Z" uid="98061" user="manels" changeset="622335" lat="41.4887466" lon="2.1542496"/>
  <node id="318313936" version="5" timestamp="2009-02-22T21:11:10Z" uid="98061" user="manels" changeset="622335" lat="41.4905597" lon="2.1517948"/>
  <node id="318313936" version="6" timestamp="2009-02-22T21:11:29Z" uid="98061" user="manels" changeset="622335" lat="41.4905597" lon="2.1517948"/>
  <node id="318313936" version="7" timestamp="2009-02-22T21:13:03Z" uid="98061" user="manels" changeset="622335" lat="41.4905597" lon="2.1517948"/>
  <node id="318313937" version="5" timestamp="2009-02-22T21:11:10Z" uid="98061" user="manels" changeset="622335" lat="41.4913065" lon="2.1509322"/>
  <node id="318313937" version="6" timestamp="2009-02-22T21:11:30Z" uid="98061" user="manels" changeset="622335" lat="41.4913065" lon="2.1509322"/>
  <node id="318313937" version="7" timestamp="2009-02-22T21:13:03Z" uid="98061" user="manels" changeset="622335" lat="41.4913065" lon="2.1509322"/>
  <node id="318313938" version="5" timestamp="2009-02-22T21:11:11Z" uid="98061" user="manels" changeset="622335" lat="41.4926729" lon="2.1490873"/>
  <node id="318313938" version="6" timestamp="2009-02-22T21:11:30Z" uid="98061" user="manels" changeset="622335" lat="41.4926729" lon="2.1490873"/>
  <node id="318313938" version="7" timestamp="2009-02-22T21:13:03Z" uid="98061" user="manels" changeset="622335" lat="41.4926729" lon="2.1490873"/>
  <node id="318313939" version="5" timestamp="2009-02-22T21:11:11Z" uid="98061" user="manels" changeset="622335" lat="41.4931145" lon="2.1484156"/>
  <node id="318313939" version="6" timestamp="2009-02-22T21:11:31Z" uid="98061" user="manels" changeset="622335" lat="41.4931145" lon="2.1484156"/>
  <node id="318313939" version="7" timestamp="2009-02-22T21:13:03Z" uid="98061" user="manels" changeset="622335" lat="41.4931145" lon="2.1484156"/>
  <node id="318313940" version="5" timestamp="2009-02-22T21:11:12Z" uid="98061" user="manels" changeset="622335" lat="41.4931099" lon="2.1483649"/>
  <node id="318313940" version="6" timestamp="2009-02-22T21:11:31Z" uid="98061" user="manels" changeset="622335" lat="41.4931099" lon="2.1483649"/>
  <node id="318313940" version="7" timestamp="2009-02-22T21:13:04Z" uid="98061" user="manels" changeset="622335" lat="41.4931099" lon="2.1483649"/>
  <node id="318313942" version="5" timestamp="2009-02-22T21:11:12Z" uid="98061" user="manels" changeset="622335" lat="41.4931974" lon="2.1481717"/>
  <node id="318313942" version="6" timestamp="2009-02-22T21:11:32Z" uid="98061" user="manels" changeset="622335" lat="41.4931974" lon="2.1481717"/>
  <node id="318313942" version="7" timestamp="2009-02-22T21:13:04Z" uid="98061" user="manels" changeset="622335" lat="41.4931974" lon="2.1481717"/>
  <node id="318313943" version="5" timestamp="2009-02-22T21:11:12Z" uid="98061" user="manels" changeset="622335" lat="41.4934044" lon="2.1479555"/>
  <node id="318313943" version="6" timestamp="2009-02-22T21:11:32Z" uid="98061" user="manels" changeset="622335" lat="41.4934044" lon="2.1479555"/>
  <node id="318313943" version="7" timestamp="2009-02-22T21:13:05Z" uid="98061" user="manels" changeset="622335" lat="41.4934044" lon="2.1479555"/>
  <node id="318313945" version="5" timestamp="2009-02-22T21:11:13Z" uid="98061" user="manels" changeset="622335" lat="41.4956219" lon="2.1449466"/>
  <node id="318313945" version="6" timestamp="2009-02-22T21:11:32Z" uid="98061" user="manels" changeset="622335" lat="41.4956219" lon="2.1449466"/>
  <node id="318313945" version="7" timestamp="2009-02-22T21:13:05Z" uid="98061" user="manels" changeset="622335" lat="41.4956219" lon="2.1449466"/>
  <node id="318313946" version="5" timestamp="2009-02-22T21:11:14Z" uid="98061" user="manels" changeset="622335" lat="41.4970482" lon="2.1430327"/>
  <node id="318313946" version="6" timestamp="2009-02-22T21:11:32Z" uid="98061" user="manels" changeset="622335" lat="41.4970482" lon="2.1430327"/>
  <node id="318313946" version="7" timestamp="2009-02-22T21:13:06Z" uid="98061" user="manels" changeset="622335" lat="41.4970482" lon="2.1430327"/>
  <node id="318313948" version="5" timestamp="2009-02-22T21:11:14Z" uid="98061" user="manels" changeset="622335" lat="41.4975542" lon="2.1425082"/>
  <node id="318313948" version="6" timestamp="2009-02-22T21:11:33Z" uid="98061" user="manels" changeset="622335" lat="41.4975542" lon="2.1425082"/>
  <node id="318313948" version="7" timestamp="2009-02-22T21:13:06Z" uid="98061" user="manels" changeset="622335" lat="41.4975542" lon="2.1425082"/>
  <node id="318313949" version="5" timestamp="2009-02-22T21:11:15Z" uid="98061" user="manels" changeset="622335" lat="41.4978073" lon="2.1423288"/>
  <node id="318313949" version="6" timestamp="2009-02-22T21:11:33Z" uid="98061" user="manels" changeset="622335" lat="41.4978073" lon="2.1423288"/>
  <node id="318313949" version="7" timestamp="2009-02-22T21:13:06Z" uid="98061" user="manels" changeset="622335" lat="41.4978073" lon="2.1423288"/>
  <node id="318313951" version="5" timestamp="2009-02-22T21:11:15Z" uid="98061" user="manels" changeset="622335" lat="41.4979959" lon="2.1421218"/>
  <node id="318313951" version="6" timestamp="2009-02-22T21:11:34Z" uid="98061" user="manels" changeset="622335" lat="41.4979959" lon="2.1421218"/>
  <node id="318313951" version="7" timestamp="2009-02-22T21:13:07Z" uid="98061" user="manels" changeset="622335" lat="41.4979959" lon="2.1421218"/>
  <node id="318313953" version="5" timestamp="2009-02-22T21:11:15Z" uid="98061" user="manels" changeset="622335" lat="41.4986078" lon="2.1415789"/>
  <node id="318313953" version="6" timestamp="2009-02-22T21:11:34Z" uid="98061" user="manels" changeset="622335" lat="41.4986078" lon="2.1415789"/>
  <node id="318313953" version="7" timestamp="2009-02-22T21:13:07Z" uid="98061" user="manels" changeset="622335" lat="41.4986078" lon="2.1415789"/>
  <node id="318313954" version="5" timestamp="2009-02-22T21:11:16Z" uid="98061" user="manels" changeset="622335" lat="41.5000294" lon="2.1402953"/>
  <node id="318313954" version="6" timestamp="2009-02-22T21:11:35Z" uid="98061" user="manels" changeset="622335" lat="41.5000294" lon="2.1402953"/>
  <node id="318313954" version="7" timestamp="2009-02-22T21:13:07Z" uid="98061" user="manels" changeset="622335" lat="41.5000294" lon="2.1402953"/>
  <node id="318313956" version="5" timestamp="2009-02-22T21:11:16Z" uid="98061" user="manels" changeset="622335" lat="41.5008438" lon="2.1396098"/>
  <node id="318313956" version="6" timestamp="2009-02-22T21:11:36Z" uid="98061" user="manels" changeset="622335" lat="41.5008438" lon="2.1396098"/>
  <node id="318313956" version="7" timestamp="2009-02-22T21:13:07Z" uid="98061" user="manels" changeset="622335" lat="41.5008438" lon="2.1396098"/>
  <node id="318313957" version="5" timestamp="2009-02-22T21:11:17Z" uid="98061" user="manels" changeset="622335" lat="41.5015477" lon="2.1390439"/>
  <node id="318313957" version="6" timestamp="2009-02-22T21:11:36Z" uid="98061" user="manels" changeset="622335" lat="41.5015477" lon="2.1390439"/>
  <node id="318313957" version="7" timestamp="2009-02-22T21:13:08Z" uid="98061" user="manels" changeset="622335" lat="41.5015477" lon="2.1390439"/>
  <node id="318313959" version="5" timestamp="2009-02-22T21:11:17Z" uid="98061" user="manels" changeset="622335" lat="41.5021412" lon="2.1386344"/>
  <node id="318313959" version="6" timestamp="2009-02-22T21:11:37Z" uid="98061" user="manels" changeset="622335" lat="41.5021412" lon="2.1386344"/>
  <node id="318313959" version="7" timestamp="2009-02-22T21:13:08Z" uid="98061" user="manels" changeset="622335" lat="41.5021412" lon="2.1386344"/>
  <node id="318313960" version="5" timestamp="2009-02-22T21:11:17Z" uid="98061" user="manels" changeset="622335" lat="41.5036318" lon="2.1377465"/>
  <node id="318313960" version="6" timestamp="2009-02-22T21:11:37Z" uid="98061" user="manels" changeset="622335" lat="41.5036318" lon="2.1377465"/>
  <node id="318313960" version="7" timestamp="2009-02-22T21:13:09Z" uid="98061" user="manels" changeset="622335" lat="41.5036318" lon="2.1377465"/>
  <node id="318313961" version="5" timestamp="2009-02-22T21:11:18Z" uid="98061" user="manels" changeset="622335" lat="41.5044415" lon="2.1372266"/>
  <node id="318313961" version="6" timestamp="2009-02-22T21:11:37Z" uid="98061" user="manels" changeset="622335" lat="41.5044415" lon="2.1372266"/>
  <node id="318313961" version="7" timestamp="2009-02-22T21:13:09Z" uid="98061" user="manels" changeset="622335" lat="41.5044415" lon="2.1372266"/>
  <node id="318313963" version="5" timestamp="2009-02-22T21:11:18Z" uid="98061" user="manels" changeset="622335" lat="41.5056607" lon="2.1363156"/>
  <node id="318313963" version="6" timestamp="2009-02-22T21:11:38Z" uid="98061" user="manels" changeset="622335" lat="41.5056607" lon="2.1363156"/>
  <node id="318313963" version="7" timestamp="2009-02-22T21:13:09Z" uid="98061" user="manels" changeset="622335" lat="41.5056607" lon="2.1363156"/>
  <node id="318313964" version="5" timestamp="2009-02-22T21:11:18Z" uid="98061" user="manels" changeset="622335" lat="41.5063508" lon="2.1356945"/>
  <node id="318313964" version="6" timestamp="2009-02-22T21:11:38Z" uid="98061" user="manels" changeset="622335" lat="41.5063508" lon="2.1356945"/>
  <node id="318313964" version="7" timestamp="2009-02-22T21:13:09Z" uid="98061" user="manels" changeset="622335" lat="41.5063508" lon="2.1356945"/>
  <node id="318313966" version="5" timestamp="2009-02-22T21:11:18Z" uid="98061" user="manels" changeset="622335" lat="41.5070277" lon="2.1349612"/>
  <node id="318313966" version="6" timestamp="2009-02-22T21:11:39Z" uid="98061" user="manels" changeset="622335" lat="41.5070277" lon="2.1349612"/>
  <node id="318313966" version="7" timestamp="2009-02-22T21:13:10Z" uid="98061" user="manels" changeset="622335" lat="41.5070277" lon="2.1349612"/>
  <node id="318313968" version="5" timestamp="2009-02-22T21:11:19Z" uid="98061" user="manels" changeset="622335" lat="41.507819" lon="2.1340315"/>
  <node id="318313968" version="6" timestamp="2009-02-22T21:11:39Z" uid="98061" user="manels" changeset="622335" lat="41.507819" lon="2.1340315"/>
  <node id="318313968" version="7" timestamp="2009-02-22T21:13:10Z" uid="98061" user="manels" changeset="622335" lat="41.507819" lon="2.1340315"/>
  <node id="318313969" version="5" timestamp="2009-02-22T21:11:19Z" uid="98061" user="manels" changeset="622335" lat="41.5093027" lon="2.1322708"/>
  <node id="318313969" version="6" timestamp="2009-02-22T21:11:39Z" uid="98061" user="manels" changeset="622335" lat="41.5093027" lon="2.1322708"/>
  <node id="318313969" version="7" timestamp="2009-02-22T21:13:10Z" uid="98061" user="manels" changeset="622335" lat="41.5093027" lon="2.1322708"/>
  <node id="318313972" version="4" timestamp="2009-10-02T20:04:05Z" uid="86259" user="hasse_osm_korinthenkacker" changeset="2717024" lat="47.8826731" lon="11.7089872">
    <tag k="addr:city" v="Holzkirchen"/>
    <tag k="addr:country" v="DE"/>
    <tag k="addr:housenumber" v="1"/>
    <tag k="addr:postcode" v="83607"/>
    <tag k="addr:street" v="Rudolf-Diesel-Ring"/>
  </node>
  <node id="318314033" version="4" timestamp="2009-10-02T20:04:04Z" uid="86259" user="hasse_osm_korinthenkacker" changeset="2717024" lat="47.8830013" lon="11.7082147">
    <tag k="addr:city" v="Holzkirchen"/>
    <tag k="addr:country" v="DE"/>
    <tag k="addr:housenumber" v="3"/>
    <tag k="addr:postcode" v="83607"/>
    <tag k="addr:street" v="Rudolf-Diesel-Ring"/>
  </node>
  <node id="318314048" version="4" timestamp="2009-10-02T20:04:04Z" uid="86259" user="hasse_osm_korinthenkacker" changeset="2717024" lat="47.8828689" lon="11.708086">
    <tag k="addr:city" v="Holzkirchen"/>
    <tag k="addr:country" v="DE"/>
    <tag k="addr:housenumber" v="3a"/>
    <tag k="addr:postcode" v="83607"/>
    <tag k="addr:street" v="Rudolf-Diesel-Ring"/>
  </node>
  <node id="318314059" version="4" timestamp="2009-10-02T19:46:03Z" uid="86259" user="hasse_osm_korinthenkacker" changeset="2716821" lat="47.8832142" lon="11.7083864">
    <tag k="addr:city" v="Holzkirchen"/>
    <tag k="addr:country" v="DE"/>
    <tag k="addr:housenumber" v="5"/>
    <tag k="addr:postcode" v="83607"/>
    <tag k="addr:street" v="Rudolf-Diesel-Ring"/>
  </node>
  <node id="318314061" version="4" timestamp="2009-10-02T19:46:03Z" uid="86259" user="hasse_osm_korinthenkacker" changeset="2716821" lat="47.8833294" lon="11.708498">
    <tag k="addr:city" v="Holzkirchen"/>
    <tag k="addr:country" v="DE"/>
    <tag k="addr:housenumber" v="5a"/>
    <tag k="addr:postcode" v="83607"/>
    <tag k="addr:street" v="Rudolf-Diesel-Ring"/>
  </node>
  <node id="318314072" version="4" timestamp="2009-10-02T19:46:04Z" uid="86259" user="hasse_osm_korinthenkacker" changeset="2716821" lat="47.8834617" lon="11.7090902">
    <tag k="addr:city" v="Holzkirchen"/>
    <tag k="addr:country" v="DE"/>
    <tag k="addr:housenumber" v="7"/>
    <tag k="addr:postcode" v="83607"/>
    <tag k="addr:street" v="Rudolf-Diesel-Ring"/>
  </node>
  <node id="318314091" version="5" timestamp="2009-10-02T20:04:05Z" uid="86259" user="hasse_osm_korinthenkacker" changeset="2717024" lat="47.8830473" lon="11.7099743">
    <tag k="addr:city" v="Holzkirchen"/>
    <tag k="addr:country" v="DE"/>
    <tag k="addr:housenumber" v="9"/>
    <tag k="addr:postcode" v="83607"/>
    <tag k="addr:street" v="Rudolf-Diesel-Ring"/>
  </node>
  <node id="318314998" version="1" timestamp="2008-12-13T11:24:48Z" uid="59758" user="rendle" changeset="358855" lat="51.0194913" lon="4.0102333"/>
  <node id="318315008" version="4" timestamp="2010-01-31T22:53:37Z" uid="20587" user="balrog-kun" changeset="3764164" lat="40.4097848" lon="-3.6887346">
    <tag k="crossing" v="traffic_signals"/>
    <tag k="highway" v="traffic_signals"/>
    <tag k="traffic_signals:sound" v="no"/>
  </node>
  <node id="318315015" version="3" timestamp="2010-01-31T22:53:37Z" uid="20587" user="balrog-kun" changeset="3764164" lat="40.4097978" lon="-3.688563">
    <tag k="crossing" v="traffic_signals"/>
    <tag k="highway" v="traffic_signals"/>
    <tag k="traffic_signals:sound" v="no"/>
  </node>
  <node id="318315016" version="1" timestamp="2008-12-13T11:25:09Z" uid="59758" user="rendle" changeset="358855" lat="51.019826" lon="4.0093922"/>
  <node id="318315046" version="1" timestamp="2008-12-13T11:25:37Z" uid="59758" user="rendle" changeset="358855" lat="51.0180173" lon="4.0113319"/>
  <node id="318315046" version="2" timestamp="2008-12-13T11:25:43Z" uid="59758" user="rendle" changeset="358855" lat="51.0180173" lon="4.0113319"/>
  <node id="318315047" version="1" timestamp="2008-12-13T11:25:37Z" uid="59758" user="rendle" changeset="358855" lat="51.0181877" lon="4.0105661"/>
  <node id="318315047" version="2" timestamp="2008-12-13T11:25:39Z" uid="59758" user="rendle" changeset="358855" lat="51.0181877" lon="4.0105661"/>
  <node id="318315047" version="3" timestamp="2008-12-13T11:25:43Z" uid="59758" user="rendle" changeset="358855" lat="51.0181877" lon="4.0105661"/>
  <node id="318315150" version="1" timestamp="2008-12-13T11:26:57Z" uid="59758" user="rendle" changeset="358855" lat="51.016608" lon="4.0101475"/>
  <node id="318315150" version="2" timestamp="2008-12-13T11:27:30Z" uid="59758" user="rendle" changeset="358855" lat="51.016608" lon="4.0101475"/>
  <node id="318315151" version="1" timestamp="2008-12-13T11:26:57Z" uid="59758" user="rendle" changeset="358855" lat="51.016613" lon="4.010525"/>
  <node id="318315151" version="2" timestamp="2008-12-13T11:27:30Z" uid="59758" user="rendle" changeset="358855" lat="51.016613" lon="4.010525"/>
  <node id="318315152" version="1" timestamp="2008-12-13T11:26:57Z" uid="59758" user="rendle" changeset="358855" lat="51.016656" lon="4.010975"/>
  <node id="318315152" version="2" timestamp="2008-12-13T11:27:30Z" uid="59758" user="rendle" changeset="358855" lat="51.016656" lon="4.010975"/>
  <node id="318315153" version="1" timestamp="2008-12-13T11:26:57Z" uid="59758" user="rendle" changeset="358855" lat="51.016903" lon="4.011726"/>
  <node id="318315153" version="2" timestamp="2008-12-13T11:27:30Z" uid="59758" user="rendle" changeset="358855" lat="51.016903" lon="4.011726"/>
  <node id="318315154" version="1" timestamp="2008-12-13T11:26:57Z" uid="59758" user="rendle" changeset="358855" lat="51.01701" lon="4.012198"/>
  <node id="318315154" version="2" timestamp="2008-12-13T11:27:30Z" uid="59758" user="rendle" changeset="358855" lat="51.01701" lon="4.012198"/>
  <node id="318315155" version="1" timestamp="2008-12-13T11:26:57Z" uid="59758" user="rendle" changeset="358855" lat="51.017396" lon="4.012864"/>
  <node id="318315155" version="2" timestamp="2008-12-13T11:27:17Z" uid="59758" user="rendle" changeset="358855" lat="51.017396" lon="4.012864"/>
  <node id="318315155" version="3" timestamp="2008-12-13T11:27:30Z" uid="59758" user="rendle" changeset="358855" lat="51.017396" lon="4.012864"/>
  <node id="318315159" version="1" timestamp="2008-12-13T11:27:17Z" uid="59758" user="rendle" changeset="358855" lat="51.017472" lon="4.013078"/>
  <node id="318315160" version="1" timestamp="2008-12-13T11:27:17Z" uid="59758" user="rendle" changeset="358855" lat="51.017804" lon="4.013529"/>
  <node id="318315160" version="2" timestamp="2008-12-13T11:29:02Z" uid="59758" user="rendle" changeset="358855" lat="51.017804" lon="4.013529"/>
  <node id="318315161" version="1" timestamp="2008-12-13T11:27:17Z" uid="59758" user="rendle" changeset="358855" lat="51.018469" lon="4.014902"/>
  <node id="318315162" version="1" timestamp="2008-12-13T11:27:17Z" uid="59758" user="rendle" changeset="358855" lat="51.0189838" lon="4.0155462"/>
  <node id="318315163" version="1" timestamp="2008-12-13T11:27:17Z" uid="59758" user="rendle" changeset="358855" lat="51.0191781" lon="4.0158724"/>
  <node id="318315164" version="1" timestamp="2008-12-13T11:27:17Z" uid="59758" user="rendle" changeset="358855" lat="51.0194859" lon="4.0163616"/>
  <node id="318315165" version="1" timestamp="2008-12-13T11:27:17Z" uid="59758" user="rendle" changeset="358855" lat="51.019821" lon="4.017048"/>
  <node id="318315166" version="1" timestamp="2008-12-13T11:27:17Z" uid="59758" user="rendle" changeset="358855" lat="51.020111" lon="4.017541"/>
  <node id="318315176" version="1" timestamp="2008-12-13T11:27:30Z" uid="59758" user="rendle" changeset="358855" lat="51.0166304" lon="4.0099496"/>
  <node id="318315176" version="2" timestamp="2008-12-13T11:27:31Z" uid="59758" user="rendle" changeset="358855" lat="51.0166304" lon="4.0099496"/>
  <node id="318315494" version="1" timestamp="2008-12-13T11:28:45Z" uid="59758" user="rendle" changeset="358855" lat="51.01774" lon="4.013658"/>
  <node id="318315494" version="2" timestamp="2008-12-13T11:29:02Z" uid="59758" user="rendle" changeset="358855" lat="51.0176717" lon="4.0137266"/>
  <node id="318315495" version="1" timestamp="2008-12-13T11:28:45Z" uid="59758" user="rendle" changeset="358855" lat="51.01686" lon="4.014859"/>
  <node id="318315495" version="2" timestamp="2008-12-13T11:29:02Z" uid="59758" user="rendle" changeset="358855" lat="51.01686" lon="4.014859"/>
  <node id="318315496" version="1" timestamp="2008-12-13T11:28:45Z" uid="59758" user="rendle" changeset="358855" lat="51.016592" lon="4.015117"/>
  <node id="318315496" version="2" timestamp="2008-12-13T11:29:02Z" uid="59758" user="rendle" changeset="358855" lat="51.016592" lon="4.015117"/>
  <node id="318315497" version="1" timestamp="2008-12-13T11:28:45Z" uid="59758" user="rendle" changeset="358855" lat="51.016045" lon="4.015782"/>
  <node id="318315497" version="2" timestamp="2008-12-13T11:29:02Z" uid="59758" user="rendle" changeset="358855" lat="51.016045" lon="4.015782"/>
  <node id="318315497" version="3" timestamp="2008-12-13T11:30:00Z" uid="59758" user="rendle" changeset="358855" lat="51.016045" lon="4.015782"/>
  <node id="318315497" version="4" timestamp="2008-12-13T11:30:32Z" uid="59758" user="rendle" changeset="358855" lat="51.016045" lon="4.015782"/>
  <node id="318315547" version="1" timestamp="2008-12-13T11:30:00Z" uid="59758" user="rendle" changeset="358855" lat="51.015959" lon="4.015653"/>
  <node id="318315547" version="2" timestamp="2008-12-13T11:30:32Z" uid="59758" user="rendle" changeset="358855" lat="51.0159817" lon="4.0155891"/>
  <node id="318315548" version="1" timestamp="2008-12-13T11:30:00Z" uid="59758" user="rendle" changeset="358855" lat="51.015787" lon="4.015138"/>
  <node id="318315548" version="2" timestamp="2008-12-13T11:30:32Z" uid="59758" user="rendle" changeset="358855" lat="51.015787" lon="4.015138"/>
  <node id="318315549" version="1" timestamp="2008-12-13T11:30:00Z" uid="59758" user="rendle" changeset="358855" lat="51.0155875" lon="4.0145935"/>
  <node id="318315549" version="2" timestamp="2008-12-13T11:30:32Z" uid="59758" user="rendle" changeset="358855" lat="51.0155875" lon="4.0145935"/>
  <node id="318315550" version="1" timestamp="2008-12-13T11:30:00Z" uid="59758" user="rendle" changeset="358855" lat="51.0153877" lon="4.0140528"/>
  <node id="318315550" version="2" timestamp="2008-12-13T11:30:32Z" uid="59758" user="rendle" changeset="358855" lat="51.0153877" lon="4.0140528"/>
  <node id="318315551" version="1" timestamp="2008-12-13T11:30:00Z" uid="59758" user="rendle" changeset="358855" lat="51.015261" lon="4.0137"/>
  <node id="318315551" version="2" timestamp="2008-12-13T11:30:32Z" uid="59758" user="rendle" changeset="358855" lat="51.015261" lon="4.0137"/>
  <node id="318315552" version="1" timestamp="2008-12-13T11:30:00Z" uid="59758" user="rendle" changeset="358855" lat="51.014993" lon="4.012992"/>
  <node id="318315552" version="2" timestamp="2008-12-13T11:30:14Z" uid="59758" user="rendle" changeset="358855" lat="51.014993" lon="4.012992"/>
  <node id="318315552" version="3" timestamp="2008-12-13T11:30:32Z" uid="59758" user="rendle" changeset="358855" lat="51.014993" lon="4.012992"/>
  <node id="318315553" version="1" timestamp="2008-12-13T11:30:14Z" uid="59758" user="rendle" changeset="358855" lat="51.014543" lon="4.012263"/>
  <node id="318315554" version="1" timestamp="2008-12-13T11:30:14Z" uid="59758" user="rendle" changeset="358855" lat="51.014451" lon="4.0120919"/>
  <node id="318315554" version="2" timestamp="2008-12-13T11:30:14Z" uid="59758" user="rendle" changeset="358855" lat="51.014451" lon="4.0120919"/>
  <node id="318315554" version="3" timestamp="2008-12-13T11:34:31Z" uid="59758" user="rendle" changeset="358855" lat="51.014451" lon="4.0120919"/>
  <node id="318315753" version="1" timestamp="2008-12-13T11:32:18Z" uid="59758" user="rendle" changeset="358855" lat="51.015176" lon="4.019365"/>
  <node id="318315753" version="2" timestamp="2008-12-13T11:32:48Z" uid="59758" user="rendle" changeset="358855" lat="51.015176" lon="4.019365"/>
  <node id="318315755" version="1" timestamp="2008-12-13T11:32:18Z" uid="59758" user="rendle" changeset="358855" lat="51.014832" lon="4.019644"/>
  <node id="318315755" version="2" timestamp="2008-12-13T11:32:48Z" uid="59758" user="rendle" changeset="358855" lat="51.014832" lon="4.019644"/>
  <node id="318315757" version="1" timestamp="2008-12-13T11:32:18Z" uid="59758" user="rendle" changeset="358855" lat="51.014049" lon="4.020417"/>
  <node id="318315757" version="2" timestamp="2008-12-13T11:32:48Z" uid="59758" user="rendle" changeset="358855" lat="51.014049" lon="4.020417"/>
  <node id="318315758" version="1" timestamp="2008-12-13T11:32:18Z" uid="59758" user="rendle" changeset="358855" lat="51.013727" lon="4.020867"/>
  <node id="318315758" version="2" timestamp="2008-12-13T11:32:48Z" uid="59758" user="rendle" changeset="358855" lat="51.0137192" lon="4.0208076"/>
  <node id="318315759" version="1" timestamp="2008-12-13T11:32:18Z" uid="59758" user="rendle" changeset="358855" lat="51.013502" lon="4.02106"/>
  <node id="318315759" version="2" timestamp="2008-12-13T11:32:48Z" uid="59758" user="rendle" changeset="358855" lat="51.013502" lon="4.02106"/>
  <node id="318315760" version="1" timestamp="2008-12-13T11:32:18Z" uid="59758" user="rendle" changeset="358855" lat="51.013255" lon="4.021361"/>
  <node id="318315760" version="2" timestamp="2008-12-13T11:32:48Z" uid="59758" user="rendle" changeset="358855" lat="51.013255" lon="4.021361"/>
  <node id="318315761" version="1" timestamp="2008-12-13T11:32:18Z" uid="59758" user="rendle" changeset="358855" lat="51.012826" lon="4.021597"/>
  <node id="318315761" version="2" timestamp="2008-12-13T11:32:48Z" uid="59758" user="rendle" changeset="358855" lat="51.012826" lon="4.021597"/>
  <node id="318315762" version="1" timestamp="2008-12-13T11:32:18Z" uid="59758" user="rendle" changeset="358855" lat="51.012558" lon="4.021575"/>
  <node id="318315762" version="2" timestamp="2008-12-13T11:32:48Z" uid="59758" user="rendle" changeset="358855" lat="51.012558" lon="4.021575"/>
  <node id="318315764" version="1" timestamp="2008-12-13T11:32:18Z" uid="59758" user="rendle" changeset="358855" lat="51.011871" lon="4.021189"/>
  <node id="318315764" version="2" timestamp="2008-12-13T11:32:48Z" uid="59758" user="rendle" changeset="358855" lat="51.011871" lon="4.021189"/>
  <node id="318315766" version="1" timestamp="2008-12-13T11:32:18Z" uid="59758" user="rendle" changeset="358855" lat="51.011217" lon="4.021018"/>
  <node id="318315766" version="2" timestamp="2008-12-13T11:32:48Z" uid="59758" user="rendle" changeset="358855" lat="51.0112513" lon="4.0209621"/>
  <node id="318315768" version="1" timestamp="2008-12-13T11:32:18Z" uid="59758" user="rendle" changeset="358855" lat="51.010938" lon="4.020867"/>
  <node id="318315768" version="2" timestamp="2008-12-13T11:32:48Z" uid="59758" user="rendle" changeset="358855" lat="51.010938" lon="4.020867"/>
  <node id="318315769" version="1" timestamp="2008-12-13T11:32:18Z" uid="59758" user="rendle" changeset="358855" lat="51.010648" lon="4.020889"/>
  <node id="318315769" version="2" timestamp="2008-12-13T11:32:48Z" uid="59758" user="rendle" changeset="358855" lat="51.010648" lon="4.020889"/>
  <node id="318316173" version="3" timestamp="2010-05-10T18:54:31Z" uid="9581" user="Lobelt" changeset="4662267" lat="49.4543244" lon="8.4263342"/>
  <node id="318316174" version="3" timestamp="2010-05-10T18:54:30Z" uid="9581" user="Lobelt" changeset="4662267" lat="49.4538364" lon="8.4256854"/>
  <node id="318316175" version="2" timestamp="2010-05-10T18:54:30Z" uid="9581" user="Lobelt" changeset="4662267" lat="49.4538103" lon="8.4257805">
    <tag k="railway" v="level_crossing"/>
  </node>
  <node id="318316236" version="1" timestamp="2008-12-13T11:34:24Z" uid="59758" user="rendle" changeset="358855" lat="51.0172665" lon="4.0357229"/>
  <node id="318316236" version="2" timestamp="2008-12-13T11:34:29Z" uid="59758" user="rendle" changeset="358855" lat="51.0172665" lon="4.0357229"/>
  <node id="318316237" version="1" timestamp="2008-12-13T11:34:24Z" uid="59758" user="rendle" changeset="358855" lat="51.017364" lon="4.03563"/>
  <node id="318316238" version="1" timestamp="2008-12-13T11:34:24Z" uid="59758" user="rendle" changeset="358855" lat="51.017482" lon="4.03548"/>
  <node id="318316239" version="1" timestamp="2008-12-13T11:34:24Z" uid="59758" user="rendle" changeset="358855" lat="51.018158" lon="4.034171"/>
  <node id="318316240" version="1" timestamp="2008-12-13T11:34:24Z" uid="59758" user="rendle" changeset="358855" lat="51.018598" lon="4.033077"/>
  <node id="318316241" version="1" timestamp="2008-12-13T11:34:24Z" uid="59758" user="rendle" changeset="358855" lat="51.019102" lon="4.031553"/>
  <node id="318316242" version="1" timestamp="2008-12-13T11:34:24Z" uid="59758" user="rendle" changeset="358855" lat="51.0191781" lon="4.0312017"/>
  <node id="318316243" version="1" timestamp="2008-12-13T11:34:24Z" uid="59758" user="rendle" changeset="358855" lat="51.019381" lon="4.03048"/>
  <node id="318316244" version="1" timestamp="2008-12-13T11:34:24Z" uid="59758" user="rendle" changeset="358855" lat="51.019403" lon="4.030223"/>
  <node id="318316245" version="1" timestamp="2008-12-13T11:34:24Z" uid="59758" user="rendle" changeset="358855" lat="51.019478" lon="4.029922"/>
  <node id="318316246" version="1" timestamp="2008-12-13T11:34:24Z" uid="59758" user="rendle" changeset="358855" lat="51.019596" lon="4.029558"/>
  <node id="318316247" version="1" timestamp="2008-12-13T11:34:24Z" uid="59758" user="rendle" changeset="358855" lat="51.019843" lon="4.029129"/>
  <node id="318316248" version="1" timestamp="2008-12-13T11:34:24Z" uid="59758" user="rendle" changeset="358855" lat="51.020025" lon="4.028592"/>
  <node id="318316249" version="1" timestamp="2008-12-13T11:34:24Z" uid="59758" user="rendle" changeset="358855" lat="51.020368" lon="4.027283"/>
  <node id="318316250" version="1" timestamp="2008-12-13T11:34:25Z" uid="59758" user="rendle" changeset="358855" lat="51.0204469" lon="4.0267471"/>
  <node id="318316251" version="1" timestamp="2008-12-13T11:34:25Z" uid="59758" user="rendle" changeset="358855" lat="51.0204974" lon="4.0265024"/>
  <node id="318316251" version="2" timestamp="2008-12-13T11:34:32Z" uid="59758" user="rendle" changeset="358855" lat="51.0204974" lon="4.0265024"/>
  <node id="318316647" version="2" timestamp="2011-04-23T02:21:18Z" uid="4467" user="Rosscoe" changeset="7940061" lat="-31.939259" lon="115.9431649">
    <tag k="highway" v="turning_circle"/>
    <tag k="source" v="nearmap"/>
  </node>
  <node id="318317189" version="2" timestamp="2011-02-13T10:59:53Z" uid="4467" user="Rosscoe" changeset="7273869" lat="-27.5306609" lon="153.030103"/>
  <node id="318317190" version="2" timestamp="2009-08-03T11:18:13Z" uid="4467" user="Rosscoe" changeset="2024270" lat="-27.5306538" lon="153.0298926"/>
  <node id="318317190" version="3" timestamp="2011-02-13T11:00:20Z" uid="4467" user="Rosscoe" changeset="7273869" lat="-27.5306562" lon="153.029917"/>
  <node id="318317193" version="1" timestamp="2008-12-13T11:43:32Z" uid="5871" user="Banny" changeset="352783" lat="50.9570994" lon="7.1179387"/>
  <node id="318317194" version="1" timestamp="2008-12-13T11:43:33Z" uid="5871" user="Banny" changeset="352783" lat="50.9574262" lon="7.1204623"/>
  <node id="318317195" version="1" timestamp="2008-12-13T11:43:33Z" uid="5871" user="Banny" changeset="352783" lat="50.9570446" lon="7.1187587"/>
  <node id="318317196" version="1" timestamp="2008-12-13T11:43:33Z" uid="5871" user="Banny" changeset="352783" lat="50.9571057" lon="7.1192541"/>
  <node id="318317197" version="1" timestamp="2008-12-13T11:43:33Z" uid="5871" user="Banny" changeset="352783" lat="50.9572048" lon="7.1192808"/>
  <node id="318317198" version="1" timestamp="2008-12-13T11:43:33Z" uid="5871" user="Banny" changeset="352783" lat="50.9573081" lon="7.1193946"/>
  <node id="318317199" version="1" timestamp="2008-12-13T11:43:33Z" uid="5871" user="Banny" changeset="352783" lat="50.9573714" lon="7.1196524"/>
  <node id="318317200" version="1" timestamp="2008-12-13T11:43:34Z" uid="5871" user="Banny" changeset="352783" lat="50.9573629" lon="7.1192708"/>
  <node id="318317201" version="1" timestamp="2008-12-13T11:43:34Z" uid="5871" user="Banny" changeset="352783" lat="50.9566756" lon="7.1194381"/>
  <node id="318317202" version="1" timestamp="2008-12-13T11:43:34Z" uid="5871" user="Banny" changeset="352783" lat="50.9566777" lon="7.1196457">
    <tag k="amenity" v="parking"/>
  </node>
  <node id="318317203" version="1" timestamp="2008-12-13T11:43:34Z" uid="5871" user="Banny" changeset="352783" lat="50.9608011" lon="7.1272251"/>
  <node id="318317204" version="1" timestamp="2008-12-13T11:43:34Z" uid="5871" user="Banny" changeset="352783" lat="50.9605727" lon="7.1247728"/>
  <node id="318317205" version="1" timestamp="2008-12-13T11:43:34Z" uid="5871" user="Banny" changeset="352783" lat="50.9607141" lon="7.1235121"/>
  <node id="318317206" version="1" timestamp="2008-12-13T11:43:34Z" uid="5871" user="Banny" changeset="352783" lat="50.9602572" lon="7.1216125"/>
  <node id="318317207" version="1" timestamp="2008-12-13T11:43:34Z" uid="5871" user="Banny" changeset="352783" lat="50.9599686" lon="7.13088"/>
  <node id="318317208" version="1" timestamp="2008-12-13T11:43:35Z" uid="5871" user="Banny" changeset="352783" lat="50.9595497" lon="7.1304037"/>
  <node id="318317209" version="1" timestamp="2008-12-13T11:43:35Z" uid="5871" user="Banny" changeset="352783" lat="50.9590403" lon="7.1300532"/>
  <node id="318317210" version="1" timestamp="2008-12-13T11:43:35Z" uid="5871" user="Banny" changeset="352783" lat="50.9584742" lon="7.1290467"/>
  <node id="318317211" version="1" timestamp="2008-12-13T11:43:35Z" uid="5871" user="Banny" changeset="352783" lat="50.9581911" lon="7.1287051"/>
  <node id="318317212" version="1" timestamp="2008-12-13T11:43:35Z" uid="5871" user="Banny" changeset="352783" lat="50.9595384" lon="7.1313474"/>
  <node id="318317213" version="1" timestamp="2008-12-13T11:43:35Z" uid="5871" user="Banny" changeset="352783" lat="50.9591478" lon="7.13159"/>
  <node id="318317215" version="1" timestamp="2008-12-13T11:43:35Z" uid="5871" user="Banny" changeset="352783" lat="50.9585534" lon="7.1317068"/>
  <node id="318317219" version="1" timestamp="2008-12-13T11:43:36Z" uid="5871" user="Banny" changeset="352783" lat="50.9579817" lon="7.1318147"/>
  <node id="318317225" version="1" timestamp="2008-12-13T11:43:36Z" uid="5871" user="Banny" changeset="352783" lat="50.965086" lon="7.1263156"/>
  <node id="318317229" version="1" timestamp="2008-12-13T11:43:36Z" uid="5871" user="Banny" changeset="352783" lat="50.964265" lon="7.1233344"/>
  <node id="318317234" version="1" timestamp="2008-12-13T11:43:36Z" uid="5871" user="Banny" changeset="352783" lat="50.9635335" lon="7.1208694"/>
  <node id="318317238" version="1" timestamp="2008-12-13T11:43:36Z" uid="5871" user="Banny" changeset="352783" lat="50.9636554" lon="7.1200047"/>
  <node id="318317296" version="2" timestamp="2008-12-26T21:18:31Z" uid="17602" user="B10xyz" changeset="615275" lat="49.0945583" lon="11.4416491">
    <tag k="created_by" v="Merkaartor 0.12"/>
  </node>
  <node id="318317555" version="1" timestamp="2008-12-13T11:49:31Z" uid="1066" user="pavel" changeset="347886" lat="50.3389786" lon="14.5003592"/>
  <node id="318317557" version="1" timestamp="2008-12-13T11:49:32Z" uid="1066" user="pavel" changeset="347886" lat="50.3385193" lon="14.5019902"/>
  <node id="318317560" version="1" timestamp="2008-12-13T11:49:33Z" uid="1066" user="pavel" changeset="347886" lat="50.3385652" lon="14.502206"/>
  <node id="318317563" version="1" timestamp="2008-12-13T11:49:34Z" uid="1066" user="pavel" changeset="347886" lat="50.3387949" lon="14.50235"/>
  <node id="318317565" version="1" timestamp="2008-12-13T11:49:35Z" uid="1066" user="pavel" changeset="347886" lat="50.3328441" lon="14.4974943"/>
  <node id="318317568" version="1" timestamp="2008-12-13T11:49:37Z" uid="1066" user="pavel" changeset="347886" lat="50.3329311" lon="14.4974943"/>
  <node id="318317570" version="1" timestamp="2008-12-13T11:49:38Z" uid="1066" user="pavel" changeset="347886" lat="50.3330661" lon="14.4973648"/>
  <node id="318317573" version="1" timestamp="2008-12-13T11:49:39Z" uid="1066" user="pavel" changeset="347886" lat="50.3338059" lon="14.4965261"/>
  <node id="318317576" version="1" timestamp="2008-12-13T11:49:40Z" uid="1066" user="pavel" changeset="347886" lat="50.3389235" lon="14.4932685"/>
  <node id="318317578" version="1" timestamp="2008-12-13T11:49:41Z" uid="1066" user="pavel" changeset="347886" lat="50.3392366" lon="14.4934859"/>
  <node id="318317581" version="1" timestamp="2008-12-13T11:49:42Z" uid="1066" user="pavel" changeset="347886" lat="50.3398136" lon="14.4943388"/>
  <node id="318317584" version="1" timestamp="2008-12-13T11:49:44Z" uid="1066" user="pavel" changeset="347886" lat="50.3399116" lon="14.4944241"/>
  <node id="318317586" version="1" timestamp="2008-12-13T11:49:45Z" uid="1066" user="pavel" changeset="347886" lat="50.3400858" lon="14.4946544"/>
  <node id="318317589" version="1" timestamp="2008-12-13T11:49:46Z" uid="1066" user="pavel" changeset="347886" lat="50.344669" lon="14.4956282"/>
  <node id="318317591" version="1" timestamp="2008-12-13T11:49:47Z" uid="1066" user="pavel" changeset="347886" lat="50.3423885" lon="14.4934859"/>
  <node id="318317594" version="1" timestamp="2008-12-13T11:49:48Z" uid="1066" user="pavel" changeset="347886" lat="50.342051" lon="14.4931361"/>
  <node id="318317596" version="1" timestamp="2008-12-13T11:49:49Z" uid="1066" user="pavel" changeset="347886" lat="50.341621" lon="14.4926158"/>
  <node id="318317599" version="1" timestamp="2008-12-13T11:49:51Z" uid="1066" user="pavel" changeset="347886" lat="50.3408316" lon="14.4917288"/>
  <node id="318317601" version="1" timestamp="2008-12-13T11:49:52Z" uid="1066" user="pavel" changeset="347886" lat="50.3553545" lon="14.4833985"/>
  <node id="318317605" version="1" timestamp="2008-12-13T11:49:53Z" uid="1066" user="pavel" changeset="347886" lat="50.3546" lon="14.4826071"/>
  <node id="318317607" version="1" timestamp="2008-12-13T11:49:54Z" uid="1066" user="pavel" changeset="347886" lat="50.3540594" lon="14.4819646"/>
  <node id="318317610" version="1" timestamp="2008-12-13T11:49:55Z" uid="1066" user="pavel" changeset="347886" lat="50.3565087" lon="14.4745937"/>
  <node id="318317612" version="1" timestamp="2008-12-13T11:49:56Z" uid="1066" user="pavel" changeset="347886" lat="50.356924" lon="14.4750005"/>
  <node id="318317615" version="1" timestamp="2008-12-13T11:49:57Z" uid="1066" user="pavel" changeset="347886" lat="50.3567683" lon="14.4740242"/>
  <node id="318317617" version="1" timestamp="2008-12-13T11:49:59Z" uid="1066" user="pavel" changeset="347886" lat="50.3576581" lon="14.4720949"/>
  <node id="318317620" version="1" timestamp="2008-12-13T11:50:00Z" uid="1066" user="pavel" changeset="347886" lat="50.3577841" lon="14.4720484"/>
  <node id="318317623" version="1" timestamp="2008-12-13T11:50:01Z" uid="1066" user="pavel" changeset="347886" lat="50.3579917" lon="14.4723041"/>
  <node id="318317625" version="1" timestamp="2008-12-13T11:50:02Z" uid="1066" user="pavel" changeset="347886" lat="50.3572057" lon="14.4740358"/>
  <node id="318317628" version="1" timestamp="2008-12-13T11:50:03Z" uid="1066" user="pavel" changeset="347886" lat="50.3599122" lon="14.4690614"/>
  <node id="318317630" version="1" timestamp="2008-12-13T11:50:04Z" uid="1066" user="pavel" changeset="347886" lat="50.3595637" lon="14.4696542"/>
  <node id="318317633" version="1" timestamp="2008-12-13T11:50:06Z" uid="1066" user="pavel" changeset="347886" lat="50.3587851" lon="14.4705491"/>
  <node id="318317635" version="1" timestamp="2008-12-13T11:50:07Z" uid="1066" user="pavel" changeset="347886" lat="50.35771" lon="14.4714673"/>
  <node id="318317638" version="1" timestamp="2008-12-13T11:50:08Z" uid="1066" user="pavel" changeset="347886" lat="50.3574875" lon="14.4715951"/>
  <node id="318317641" version="1" timestamp="2008-12-13T11:50:09Z" uid="1066" user="pavel" changeset="347886" lat="50.3572651" lon="14.47163"/>
  <node id="318317643" version="1" timestamp="2008-12-13T11:50:10Z" uid="1066" user="pavel" changeset="347886" lat="50.3565161" lon="14.4713278"/>
  <node id="318317646" version="1" timestamp="2008-12-13T11:50:11Z" uid="1066" user="pavel" changeset="347886" lat="50.3553742" lon="14.471014"/>
  <node id="318317647" version="1" timestamp="2008-12-13T11:50:12Z" uid="1066" user="pavel" changeset="347886" lat="50.3547216" lon="14.4705026"/>
  <node id="318317648" version="1" timestamp="2008-12-13T11:50:14Z" uid="1066" user="pavel" changeset="347886" lat="50.3559303" lon="14.4711651"/>
  <node id="318317649" version="1" timestamp="2008-12-13T11:50:15Z" uid="1066" user="pavel" changeset="347886" lat="50.3547735" lon="14.4731525"/>
  <node id="318317663" version="1" timestamp="2008-12-13T11:50:16Z" uid="1066" user="pavel" changeset="347886" lat="50.3445486" lon="14.4971346"/>
  <node id="318317699" version="1" timestamp="2008-12-13T11:50:17Z" uid="1066" user="pavel" changeset="347886" lat="50.3445134" lon="14.4984044"/>
  <node id="318317700" version="1" timestamp="2008-12-13T11:50:18Z" uid="1066" user="pavel" changeset="347886" lat="50.3439452" lon="14.5002953"/>
  <node id="318317701" version="1" timestamp="2008-12-13T11:50:19Z" uid="1066" user="pavel" changeset="347886" lat="50.3439144" lon="14.5006335"/>
  <node id="318317707" version="1" timestamp="2008-12-13T11:50:21Z" uid="1066" user="pavel" changeset="347886" lat="50.3436854" lon="14.5016893"/>
  <node id="318317708" version="1" timestamp="2008-12-13T11:50:22Z" uid="1066" user="pavel" changeset="347886" lat="50.3435312" lon="14.5024968"/>
  <node id="318317709" version="1" timestamp="2008-12-13T11:50:23Z" uid="1066" user="pavel" changeset="347886" lat="50.3433727" lon="14.5030696"/>
  <node id="318317710" version="1" timestamp="2008-12-13T11:50:24Z" uid="1066" user="pavel" changeset="347886" lat="50.3431172" lon="14.5037114"/>
  <node id="318317711" version="1" timestamp="2008-12-13T11:50:25Z" uid="1066" user="pavel" changeset="347886" lat="50.3426504" lon="14.5047052"/>
  <node id="318317712" version="1" timestamp="2008-12-13T11:50:26Z" uid="1066" user="pavel" changeset="347886" lat="50.342298" lon="14.5058369"/>
  <node id="318317712" version="2" timestamp="2008-12-13T19:40:43Z" uid="1066" user="pavel" changeset="351994" lat="50.3423314" lon="14.5057325"/>
  <node id="318317713" version="1" timestamp="2008-12-13T11:50:27Z" uid="1066" user="pavel" changeset="347886" lat="50.3433331" lon="14.4982318"/>
  <node id="318317714" version="1" timestamp="2008-12-13T11:50:29Z" uid="1066" user="pavel" changeset="347886" lat="50.3433198" lon="14.4989841"/>
  <node id="318317715" version="1" timestamp="2008-12-13T11:50:30Z" uid="1066" user="pavel" changeset="347886" lat="50.3432274" lon="14.4997501"/>
  <node id="318317716" version="1" timestamp="2008-12-13T11:50:31Z" uid="1066" user="pavel" changeset="347886" lat="50.3431128" lon="14.5004402"/>
  <node id="318317716" version="2" timestamp="2008-12-13T19:40:43Z" uid="1066" user="pavel" changeset="351994" lat="50.3431216" lon="14.5004057"/>
  <node id="318317717" version="1" timestamp="2008-12-13T11:50:32Z" uid="1066" user="pavel" changeset="347886" lat="50.3430204" lon="14.5010475"/>
  <node id="318317728" version="2" timestamp="2010-03-25T22:23:39Z" uid="9581" user="Lobelt" changeset="4233761" lat="49.4593002" lon="8.5196183"/>
  <node id="318317729" version="2" timestamp="2010-03-25T22:23:39Z" uid="9581" user="Lobelt" changeset="4233761" lat="49.4594394" lon="8.5197503"/>
  <node id="318317730" version="2" timestamp="2010-03-25T22:23:39Z" uid="9581" user="Lobelt" changeset="4233761" lat="49.459657" lon="8.5197212"/>
  <node id="318317731" version="2" timestamp="2010-03-25T22:23:39Z" uid="9581" user="Lobelt" changeset="4233761" lat="49.4597814" lon="8.5195571"/>
  <node id="318317732" version="2" timestamp="2010-03-25T22:23:39Z" uid="9581" user="Lobelt" changeset="4233761" lat="49.4598239" lon="8.5192978"/>
  <node id="318317733" version="2" timestamp="2010-03-25T22:23:39Z" uid="9581" user="Lobelt" changeset="4233761" lat="49.4597789" lon="8.5190515"/>
  <node id="318317734" version="2" timestamp="2010-03-25T22:23:39Z" uid="9581" user="Lobelt" changeset="4233761" lat="49.4596449" lon="8.5185957"/>
  <node id="318317735" version="2" timestamp="2010-03-25T22:23:39Z" uid="9581" user="Lobelt" changeset="4233761" lat="49.459566" lon="8.5183274"/>
  <node id="318317736" version="2" timestamp="2010-03-25T22:23:39Z" uid="9581" user="Lobelt" changeset="4233761" lat="49.4595588" lon="8.5181154"/>
  <node id="318317737" version="2" timestamp="2010-03-25T22:23:39Z" uid="9581" user="Lobelt" changeset="4233761" lat="49.4596226" lon="8.5178545"/>
  <node id="318319140" version="2" timestamp="2009-07-22T16:32:59Z" uid="9581" user="Lobelt" changeset="1906674" lat="49.4769444" lon="8.5253395"/>
</osm>
