<?xml version='1.0' encoding='UTF-8'?>
<osm version="0.6" generator="libosmium/2.20.0">
  <node id="320462785" version="1" timestamp="2008-12-21T09:37:53Z" uid="58091" user="Andreas M" changeset="514916" lat="48.1601643" lon="16.4272327"/>
  <node id="320462787" version="1" timestamp="2008-12-21T09:37:53Z" uid="58091" user="Andreas M" changeset="514916" lat="48.1648389" lon="16.4241768"/>
  <node id="320462790" version="1" timestamp="2008-12-21T09:37:53Z" uid="58091" user="Andreas M" changeset="514916" lat="48.1643531" lon="16.4241768"/>
  <node id="320462874" version="3" timestamp="2009-11-29T22:00:58Z" uid="200463" user="harmagedon" changeset="3251061" lat="48.5163321" lon="12.8285179">
    <tag k="name" v="Kroneck"/>
    <tag k="number" v="2"/>
    <tag k="place" v="hamlet"/>
  </node>
  <node id="320463083" version="2" timestamp="2009-11-29T22:00:59Z" uid="200463" user="harmagedon" changeset="3251061" lat="48.5186233" lon="12.8290758">
    <tag k="is_in" v="Arnstorf"/>
    <tag k="name" v="Kroneck 1"/>
    <tag k="place" v="hamlet"/>
  </node>
  <node id="320464455" version="3" timestamp="2009-11-29T22:01:00Z" uid="200463" user="harmagedon" changeset="3251061" lat="48.5267412" lon="12.8234711">
    <tag k="is_in" v="Arnstorf,Rottal-Inn,Niederbayern,Bayern,Bundesrepublik Deutschland,Europe"/>
    <tag k="name" v="Neukirchen"/>
    <tag k="place" v="hamlet"/>
  </node>
  <node id="320464655" version="3" timestamp="2009-11-29T22:00:59Z" uid="200463" user="harmagedon" changeset="3251061" lat="48.5268549" lon="12.8207674">
    <tag k="is_in" v="Arnstorf,Rottal-Inn,Niederbayern,Bayern,Bundesrepublik Deutschland,Europe"/>
    <tag k="name" v="Neukirchen"/>
    <tag k="number" v="10"/>
    <tag k="place" v="hamlet"/>
  </node>
  <node id="320465263" version="3" timestamp="2009-11-29T21:58:14Z" uid="200463" user="harmagedon" changeset="3251061" lat="48.5139499" lon="12.8103819">
    <tag k="is_in" v="Arnstorf,Rottal-Inn,Niederbayern,Bayern,Bundesrepublik Deutschland,Europe"/>
    <tag k="name" v="Reith"/>
    <tag k="place" v="hamlet"/>
  </node>
  <node id="320466003" version="10" timestamp="2009-02-10T22:18:38Z" uid="49111" user="Markus B" changeset="333124" lat="49.5845145" lon="11.3710772"/>
  <node id="320466784" version="1" timestamp="2008-12-21T09:47:32Z" uid="18775" user="drlizau" changeset="525678" lat="-34.2312173" lon="146.1814074">
    <tag k="name" v="Yarran Wines"/>
    <tag k="tourism" v="attraction"/>
  </node>
  <node id="320467121" version="1" timestamp="2008-12-21T09:48:24Z" uid="58091" user="Andreas M" changeset="514916" lat="48.1580692" lon="16.4083593"/>
  <node id="320467602" version="1" timestamp="2008-12-21T09:49:45Z" uid="18775" user="drlizau" changeset="525678" lat="-34.2759813" lon="146.1439877">
    <tag k="name" v="De Bortoli Wines"/>
    <tag k="tourism" v="attraction"/>
  </node>
  <node id="320467606" version="1" timestamp="2008-12-21T09:49:46Z" uid="18775" user="drlizau" changeset="525678" lat="-34.2452167" lon="146.2155763">
    <tag k="name" v="Casella Wines"/>
    <tag k="tourism" v="attraction"/>
  </node>
</osm>
