<?xml version='1.0' encoding='UTF-8'?>
<osm version="0.6" generator="libosmium/2.20.0">
  <node id="322061727" version="2" timestamp="2010-06-07T19:53:50Z" uid="88880" user="firsttimelinux" changeset="4931820" lat="39.7489398" lon="2.6464246">
    <tag k="amenity" v="place_of_worship"/>
    <tag k="religion" v="christian"/>
  </node>
  <node id="322061730" version="2" timestamp="2010-05-30T13:22:51Z" uid="88880" user="firsttimelinux" changeset="4851892" lat="39.7486981" lon="2.6484586"/>
  <node id="322061732" version="2" timestamp="2010-05-30T13:22:51Z" uid="88880" user="firsttimelinux" changeset="4851892" lat="39.7487657" lon="2.6484248"/>
  <node id="322061735" version="2" timestamp="2010-05-30T13:22:54Z" uid="88880" user="firsttimelinux" changeset="4851892" lat="39.7488429" lon="2.6484818"/>
  <node id="322062105" version="2" timestamp="2010-05-30T23:53:13Z" uid="88880" user="firsttimelinux" changeset="4858757" lat="39.7439995" lon="2.6476993"/>
  <node id="322062887" version="3" timestamp="2010-08-25T07:47:53Z" uid="33382" user="de_muur" changeset="5586902" lat="53.7448293" lon="10.3257324"/>
  <node id="322062890" version="3" timestamp="2010-08-25T07:47:53Z" uid="33382" user="de_muur" changeset="5586902" lat="53.7435808" lon="10.3248188"/>
  <node id="322063657" version="1" timestamp="2008-12-27T16:47:22Z" uid="33382" user="de_muur" changeset="632755" lat="53.5187489" lon="10.3131693">
    <tag k="created_by" v="JOSM"/>
    <tag k="historic" v="archaeological_site"/>
  </node>
  <node id="322063657" version="2" timestamp="2011-02-28T16:30:41Z" uid="33382" user="de_muur" changeset="7421889" lat="53.5187489" lon="10.3131693">
    <tag k="historic" v="archaeological_site"/>
    <tag k="site_type" v="tumulus"/>
  </node>
  <node id="322064325" version="21" timestamp="2009-04-17T08:58:52Z" uid="6269" user="Mueck" changeset="598766" lat="50.6687664" lon="8.7163904"/>
  <node id="322064325" version="22" timestamp="2009-04-17T08:58:59Z" uid="6269" user="Mueck" changeset="598766" lat="50.6687664" lon="8.7163904"/>
  <node id="322064563" version="2" timestamp="2009-02-17T12:18:32Z" uid="9581" user="Lobelt" changeset="512064" lat="51.7876568" lon="14.3656331"/>
  <node id="322064565" version="2" timestamp="2009-02-17T12:18:32Z" uid="9581" user="Lobelt" changeset="512064" lat="51.788732" lon="14.3653497"/>
  <node id="322064567" version="2" timestamp="2009-02-17T12:18:32Z" uid="9581" user="Lobelt" changeset="512064" lat="51.7897345" lon="14.3656353"/>
  <node id="322064568" version="2" timestamp="2009-02-17T12:18:32Z" uid="9581" user="Lobelt" changeset="512064" lat="51.7906134" lon="14.3656888"/>
  <node id="322064574" version="2" timestamp="2009-02-17T12:18:32Z" uid="9581" user="Lobelt" changeset="512064" lat="51.7896701" lon="14.3659105"/>
  <node id="322064650" version="2" timestamp="2009-06-20T17:41:28Z" uid="9581" user="Lobelt" changeset="1576911" lat="49.6655333" lon="8.8950468">
    <tag k="amenity" v="shelter"/>
    <tag k="name" v="Lärmfeuer"/>
  </node>
  <node id="322065589" version="4" timestamp="2009-10-02T20:02:41Z" uid="86259" user="hasse_osm_korinthenkacker" changeset="2717024" lat="47.8783016" lon="11.6891813">
    <tag k="addr:city" v="Holzkirchen"/>
    <tag k="addr:country" v="DE"/>
    <tag k="addr:housenumber" v="15"/>
    <tag k="addr:postcode" v="83607"/>
    <tag k="addr:street" v="Albrecht-Dürer-Ring"/>
  </node>
  <node id="322065594" version="5" timestamp="2010-08-25T07:40:32Z" uid="33382" user="de_muur" changeset="5586843" lat="53.7347194" lon="10.3616881"/>
  <node id="322065686" version="4" timestamp="2009-10-02T20:02:44Z" uid="86259" user="hasse_osm_korinthenkacker" changeset="2717024" lat="47.8784628" lon="11.6893701">
    <tag k="addr:city" v="Holzkirchen"/>
    <tag k="addr:country" v="DE"/>
    <tag k="addr:housenumber" v="17"/>
    <tag k="addr:postcode" v="83607"/>
    <tag k="addr:street" v="Albrecht-Dürer-Ring"/>
  </node>
  <node id="322065716" version="4" timestamp="2009-10-02T20:03:29Z" uid="86259" user="hasse_osm_korinthenkacker" changeset="2717024" lat="47.8786412" lon="11.6896791">
    <tag k="addr:city" v="Holzkirchen"/>
    <tag k="addr:country" v="DE"/>
    <tag k="addr:housenumber" v="29"/>
    <tag k="addr:postcode" v="83607"/>
    <tag k="addr:street" v="Albrecht-Dürer-Ring"/>
  </node>
  <node id="322065731" version="4" timestamp="2009-10-02T20:03:29Z" uid="86259" user="hasse_osm_korinthenkacker" changeset="2717024" lat="47.8784973" lon="11.6899624">
    <tag k="addr:city" v="Holzkirchen"/>
    <tag k="addr:country" v="DE"/>
    <tag k="addr:housenumber" v="27"/>
    <tag k="addr:postcode" v="83607"/>
    <tag k="addr:street" v="Albrecht-Dürer-Ring"/>
  </node>
  <node id="322065739" version="6" timestamp="2009-10-02T20:02:57Z" uid="86259" user="hasse_osm_korinthenkacker" changeset="2717024" lat="47.8782843" lon="11.6897221">
    <tag k="addr:city" v="Holzkirchen"/>
    <tag k="addr:country" v="DE"/>
    <tag k="addr:housenumber" v="23"/>
    <tag k="addr:postcode" v="83607"/>
    <tag k="addr:street" v="Albrecht-Dürer-Ring"/>
  </node>
  <node id="322065751" version="5" timestamp="2009-10-02T20:02:57Z" uid="86259" user="hasse_osm_korinthenkacker" changeset="2717024" lat="47.8781116" lon="11.6895075">
    <tag k="addr:city" v="Holzkirchen"/>
    <tag k="addr:country" v="DE"/>
    <tag k="addr:housenumber" v="21"/>
    <tag k="addr:postcode" v="83607"/>
    <tag k="addr:street" v="Albrecht-Dürer-Ring"/>
  </node>
  <node id="322065883" version="4" timestamp="2009-10-02T20:02:44Z" uid="86259" user="hasse_osm_korinthenkacker" changeset="2717024" lat="47.8785146" lon="11.6894302">
    <tag k="addr:city" v="Holzkirchen"/>
    <tag k="addr:country" v="DE"/>
    <tag k="addr:housenumber" v="19"/>
    <tag k="addr:postcode" v="83607"/>
    <tag k="addr:street" v="Albrecht-Dürer-Ring"/>
  </node>
  <node id="322065950" version="4" timestamp="2010-08-25T07:40:32Z" uid="33382" user="de_muur" changeset="5586843" lat="53.73476" lon="10.3616047"/>
  <node id="322065986" version="4" timestamp="2009-10-02T20:02:41Z" uid="86259" user="hasse_osm_korinthenkacker" changeset="2717024" lat="47.8781634" lon="11.6894302">
    <tag k="addr:city" v="Holzkirchen"/>
    <tag k="addr:country" v="DE"/>
    <tag k="addr:housenumber" v="21a"/>
    <tag k="addr:postcode" v="83607"/>
    <tag k="addr:street" v="Albrecht-Dürer-Ring"/>
  </node>
  <node id="322066178" version="4" timestamp="2009-10-02T20:02:57Z" uid="86259" user="hasse_osm_korinthenkacker" changeset="2717024" lat="47.8783361" lon="11.6897821">
    <tag k="addr:city" v="Holzkirchen"/>
    <tag k="addr:country" v="DE"/>
    <tag k="addr:housenumber" v="25"/>
    <tag k="addr:postcode" v="83607"/>
    <tag k="addr:street" v="Albrecht-Dürer-Ring"/>
  </node>
  <node id="322066473" version="4" timestamp="2009-10-02T20:03:29Z" uid="86259" user="hasse_osm_korinthenkacker" changeset="2717024" lat="47.8785376" lon="11.6898851">
    <tag k="addr:city" v="Holzkirchen"/>
    <tag k="addr:country" v="DE"/>
    <tag k="addr:housenumber" v="27a"/>
    <tag k="addr:postcode" v="83607"/>
    <tag k="addr:street" v="Albrecht-Dürer-Ring"/>
  </node>
  <node id="322066705" version="4" timestamp="2009-10-02T20:03:29Z" uid="86259" user="hasse_osm_korinthenkacker" changeset="2717024" lat="47.8786815" lon="11.6895933">
    <tag k="addr:city" v="Holzkirchen"/>
    <tag k="addr:country" v="DE"/>
    <tag k="addr:housenumber" v="29a"/>
    <tag k="addr:postcode" v="83607"/>
    <tag k="addr:street" v="Albrecht-Dürer-Ring"/>
  </node>
  <node id="322066751" version="4" timestamp="2009-10-02T20:02:44Z" uid="86259" user="hasse_osm_korinthenkacker" changeset="2717024" lat="47.8788369" lon="11.6893873">
    <tag k="addr:city" v="Holzkirchen"/>
    <tag k="addr:country" v="DE"/>
    <tag k="addr:housenumber" v="31"/>
    <tag k="addr:postcode" v="83607"/>
    <tag k="addr:street" v="Albrecht-Dürer-Ring"/>
  </node>
  <node id="322066899" version="3" timestamp="2009-10-02T20:02:43Z" uid="86259" user="hasse_osm_korinthenkacker" changeset="2717024" lat="47.8784512" lon="11.6881857">
    <tag k="addr:city" v="Holzkirchen"/>
    <tag k="addr:country" v="DE"/>
    <tag k="addr:housenumber" v="34"/>
    <tag k="addr:postcode" v="83607"/>
    <tag k="addr:street" v="Albrecht-Dürer-Ring"/>
  </node>
  <node id="322066900" version="5" timestamp="2009-10-02T20:02:41Z" uid="86259" user="hasse_osm_korinthenkacker" changeset="2717024" lat="47.878267" lon="11.6884775">
    <tag k="addr:city" v="Holzkirchen"/>
    <tag k="addr:country" v="DE"/>
    <tag k="addr:housenumber" v="36"/>
    <tag k="addr:postcode" v="83607"/>
    <tag k="addr:street" v="Albrecht-Dürer-Ring"/>
  </node>
  <node id="322066919" version="4" timestamp="2009-10-02T20:02:41Z" uid="86259" user="hasse_osm_korinthenkacker" changeset="2717024" lat="47.8781404" lon="11.6887779">
    <tag k="addr:city" v="Holzkirchen"/>
    <tag k="addr:country" v="DE"/>
    <tag k="addr:housenumber" v="38"/>
    <tag k="addr:postcode" v="83607"/>
    <tag k="addr:street" v="Albrecht-Dürer-Ring"/>
  </node>
  <node id="322067927" version="5" timestamp="2009-10-02T20:03:29Z" uid="86259" user="hasse_osm_korinthenkacker" changeset="2717024" lat="47.8786379" lon="11.6907672">
    <tag k="addr:city" v="Holzkirchen"/>
    <tag k="addr:country" v="DE"/>
    <tag k="addr:housenumber" v="10"/>
    <tag k="addr:postcode" v="83607"/>
    <tag k="addr:street" v="Andreas-Mitterfellner-Straße"/>
  </node>
  <node id="322067932" version="3" timestamp="2010-08-25T07:40:32Z" uid="33382" user="de_muur" changeset="5586843" lat="53.7359083" lon="10.3614996"/>
  <node id="322067935" version="3" timestamp="2010-08-25T07:40:32Z" uid="33382" user="de_muur" changeset="5586843" lat="53.7347117" lon="10.3615931"/>
  <node id="322067938" version="3" timestamp="2010-08-25T07:40:31Z" uid="33382" user="de_muur" changeset="5586843" lat="53.733268" lon="10.3611297"/>
  <node id="322067957" version="3" timestamp="2010-08-25T07:40:31Z" uid="33382" user="de_muur" changeset="5586843" lat="53.733068" lon="10.3604136"/>
  <node id="322067958" version="3" timestamp="2010-08-25T07:40:30Z" uid="33382" user="de_muur" changeset="5586843" lat="53.7328827" lon="10.3598382"/>
  <node id="322067959" version="3" timestamp="2010-08-25T07:40:31Z" uid="33382" user="de_muur" changeset="5586843" lat="53.7328206" lon="10.3592296"/>
  <node id="322067960" version="3" timestamp="2010-08-25T07:40:30Z" uid="33382" user="de_muur" changeset="5586843" lat="53.7327422" lon="10.3583631"/>
  <node id="322068045" version="5" timestamp="2009-10-02T20:02:57Z" uid="86259" user="hasse_osm_korinthenkacker" changeset="2717024" lat="47.878281" lon="11.6908101">
    <tag k="addr:city" v="Holzkirchen"/>
    <tag k="addr:country" v="DE"/>
    <tag k="addr:housenumber" v="12"/>
    <tag k="addr:postcode" v="83607"/>
    <tag k="addr:street" v="Andreas-Mitterfellner-Straße"/>
  </node>
  <node id="322068082" version="7" timestamp="2009-07-26T02:42:48Z" uid="18775" user="drlizau" changeset="1940141" lat="42.4606284" lon="21.4669307"/>
  <node id="322068085" version="5" timestamp="2009-10-02T20:02:57Z" uid="86259" user="hasse_osm_korinthenkacker" changeset="2717024" lat="47.8783385" lon="11.6907414">
    <tag k="addr:city" v="Holzkirchen"/>
    <tag k="addr:country" v="DE"/>
    <tag k="addr:housenumber" v="14"/>
    <tag k="addr:postcode" v="83607"/>
    <tag k="addr:street" v="Andreas-Mitterfellner-Straße"/>
  </node>
  <node id="322068394" version="5" timestamp="2009-10-02T20:02:57Z" uid="86259" user="hasse_osm_korinthenkacker" changeset="2717024" lat="47.8780507" lon="11.6906642">
    <tag k="addr:city" v="Holzkirchen"/>
    <tag k="addr:country" v="DE"/>
    <tag k="addr:housenumber" v="16"/>
    <tag k="addr:postcode" v="83607"/>
    <tag k="addr:street" v="Andreas-Mitterfellner-Straße"/>
  </node>
  <node id="322068422" version="5" timestamp="2009-10-02T20:02:56Z" uid="86259" user="hasse_osm_korinthenkacker" changeset="2717024" lat="47.8779586" lon="11.6905955">
    <tag k="addr:city" v="Holzkirchen"/>
    <tag k="addr:country" v="DE"/>
    <tag k="addr:housenumber" v="18"/>
    <tag k="addr:postcode" v="83607"/>
    <tag k="addr:street" v="Andreas-Mitterfellner-Straße"/>
  </node>
  <node id="322068709" version="5" timestamp="2009-10-02T20:02:56Z" uid="86259" user="hasse_osm_korinthenkacker" changeset="2717024" lat="47.8775844" lon="11.6902865">
    <tag k="addr:city" v="Holzkirchen"/>
    <tag k="addr:country" v="DE"/>
    <tag k="addr:housenumber" v="24"/>
    <tag k="addr:postcode" v="83607"/>
    <tag k="addr:street" v="Andreas-Mitterfellner-Straße"/>
  </node>
  <node id="322068792" version="4" timestamp="2009-10-02T20:02:56Z" uid="86259" user="hasse_osm_korinthenkacker" changeset="2717024" lat="47.8777974" lon="11.6904582">
    <tag k="addr:city" v="Holzkirchen"/>
    <tag k="addr:country" v="DE"/>
    <tag k="addr:housenumber" v="20"/>
    <tag k="addr:postcode" v="83607"/>
    <tag k="addr:street" v="Andreas-Mitterfellner-Straße"/>
  </node>
  <node id="322068888" version="4" timestamp="2009-10-02T20:02:56Z" uid="86259" user="hasse_osm_korinthenkacker" changeset="2717024" lat="47.8777283" lon="11.6904152">
    <tag k="addr:city" v="Holzkirchen"/>
    <tag k="addr:country" v="DE"/>
    <tag k="addr:housenumber" v="22"/>
    <tag k="addr:postcode" v="83607"/>
    <tag k="addr:street" v="Andreas-Mitterfellner-Straße"/>
  </node>
  <node id="322069265" version="5" timestamp="2009-10-02T20:02:55Z" uid="86259" user="hasse_osm_korinthenkacker" changeset="2717024" lat="47.8773794" lon="11.6900259">
    <tag k="addr:city" v="Holzkirchen"/>
    <tag k="addr:country" v="DE"/>
    <tag k="addr:housenumber" v="26"/>
    <tag k="addr:postcode" v="83607"/>
    <tag k="addr:street" v="Andreas-Mitterfellner-Straße"/>
  </node>
  <node id="322069362" version="5" timestamp="2009-10-02T20:02:55Z" uid="86259" user="hasse_osm_korinthenkacker" changeset="2717024" lat="47.8770052" lon="11.6899314">
    <tag k="addr:city" v="Holzkirchen"/>
    <tag k="addr:country" v="DE"/>
    <tag k="addr:housenumber" v="28"/>
    <tag k="addr:postcode" v="83607"/>
    <tag k="addr:street" v="Andreas-Mitterfellner-Straße"/>
  </node>
  <node id="322069390" version="4" timestamp="2009-10-02T20:02:55Z" uid="86259" user="hasse_osm_korinthenkacker" changeset="2717024" lat="47.8768498" lon="11.6901374">
    <tag k="addr:city" v="Holzkirchen"/>
    <tag k="addr:country" v="DE"/>
    <tag k="addr:housenumber" v="30"/>
    <tag k="addr:postcode" v="83607"/>
    <tag k="addr:street" v="Andreas-Mitterfellner-Straße"/>
  </node>
  <node id="322069575" version="5" timestamp="2009-10-02T20:02:56Z" uid="86259" user="hasse_osm_korinthenkacker" changeset="2717024" lat="47.8773887" lon="11.6906556">
    <tag k="addr:city" v="Holzkirchen"/>
    <tag k="addr:country" v="DE"/>
    <tag k="addr:housenumber" v="11"/>
    <tag k="addr:postcode" v="83607"/>
    <tag k="addr:street" v="Andreas-Mitterfellner-Straße"/>
  </node>
  <node id="322069767" version="5" timestamp="2009-10-02T20:02:56Z" uid="86259" user="hasse_osm_korinthenkacker" changeset="2717024" lat="47.877057" lon="11.6907897">
    <tag k="addr:city" v="Holzkirchen"/>
    <tag k="addr:country" v="DE"/>
    <tag k="addr:housenumber" v="13a"/>
    <tag k="addr:postcode" v="83607"/>
    <tag k="addr:street" v="Andreas-Mitterfellner-Straße"/>
  </node>
  <node id="322069836" version="5" timestamp="2009-10-02T20:02:55Z" uid="86259" user="hasse_osm_korinthenkacker" changeset="2717024" lat="47.8769995" lon="11.6907554">
    <tag k="addr:city" v="Holzkirchen"/>
    <tag k="addr:country" v="DE"/>
    <tag k="addr:housenumber" v="13b"/>
    <tag k="addr:postcode" v="83607"/>
    <tag k="addr:street" v="Andreas-Mitterfellner-Straße"/>
  </node>
</osm>
