<?xml version='1.0' encoding='UTF-8'?>
<osm version="0.6" generator="libosmium/2.20.0">
  <node id="324210048" version="1" timestamp="2009-01-01T06:02:43Z" uid="19626" user="Swamp" changeset="700782" lat="-33.4496416" lon="150.0053546"/>
  <node id="324210050" version="1" timestamp="2009-01-01T06:02:43Z" uid="19626" user="Swamp" changeset="700782" lat="-33.4457472" lon="149.9974558"/>
  <node id="324210051" version="1" timestamp="2009-01-01T06:02:44Z" uid="19626" user="Swamp" changeset="700782" lat="-33.4534903" lon="149.9878932"/>
  <node id="324210052" version="1" timestamp="2009-01-01T06:02:45Z" uid="19626" user="Swamp" changeset="700782" lat="-33.4560919" lon="149.9852237"/>
  <node id="324210053" version="1" timestamp="2009-01-01T06:02:46Z" uid="19626" user="Swamp" changeset="700782" lat="-33.4544643" lon="149.9715329"/>
  <node id="324210054" version="1" timestamp="2009-01-01T06:02:47Z" uid="19626" user="Swamp" changeset="700782" lat="-33.450982" lon="149.9653876"/>
  <node id="324210055" version="1" timestamp="2009-01-01T06:02:47Z" uid="19626" user="Swamp" changeset="700782" lat="-33.4498369" lon="149.9579923"/>
  <node id="324210056" version="1" timestamp="2009-01-01T06:02:48Z" uid="19626" user="Swamp" changeset="700782" lat="-33.4415033" lon="149.9428509"/>
  <node id="324210057" version="1" timestamp="2009-01-01T06:02:49Z" uid="19626" user="Swamp" changeset="700782" lat="-33.433857" lon="149.9165996"/>
  <node id="324210058" version="1" timestamp="2009-01-01T06:02:50Z" uid="19626" user="Swamp" changeset="700782" lat="-33.4332565" lon="149.9117925"/>
  <node id="324210059" version="1" timestamp="2009-01-01T06:02:51Z" uid="19626" user="Swamp" changeset="700782" lat="-33.4321566" lon="149.8832355"/>
  <node id="324210060" version="1" timestamp="2009-01-01T06:02:51Z" uid="19626" user="Swamp" changeset="700782" lat="-33.4469263" lon="149.8280642"/>
  <node id="324210061" version="1" timestamp="2009-01-01T06:02:52Z" uid="19626" user="Swamp" changeset="700782" lat="-33.4501215" lon="149.7692334"/>
  <node id="324210062" version="1" timestamp="2009-01-01T06:02:53Z" uid="19626" user="Swamp" changeset="700782" lat="-33.4519702" lon="149.7742759"/>
  <node id="324210063" version="1" timestamp="2009-01-01T06:02:54Z" uid="19626" user="Swamp" changeset="700782" lat="-33.4470654" lon="149.7647323"/>
  <node id="324210064" version="1" timestamp="2009-01-01T06:02:55Z" uid="19626" user="Swamp" changeset="700782" lat="-33.4354994" lon="149.7502432"/>
  <node id="324210065" version="1" timestamp="2009-01-01T06:02:55Z" uid="19626" user="Swamp" changeset="700782" lat="-33.4292902" lon="149.7274554"/>
  <node id="324210066" version="1" timestamp="2009-01-01T06:02:56Z" uid="19626" user="Swamp" changeset="700782" lat="-33.4291124" lon="149.7190667"/>
  <node id="324210067" version="1" timestamp="2009-01-01T06:02:57Z" uid="19626" user="Swamp" changeset="700782" lat="-33.4262983" lon="149.7075792"/>
  <node id="324210068" version="1" timestamp="2009-01-01T06:02:58Z" uid="19626" user="Swamp" changeset="700782" lat="-33.4259382" lon="149.6888217"/>
  <node id="324210069" version="1" timestamp="2009-01-01T06:02:59Z" uid="19626" user="Swamp" changeset="700782" lat="-33.4261359" lon="149.6768678"/>
  <node id="324210074" version="1" timestamp="2009-01-01T06:02:59Z" uid="19626" user="Swamp" changeset="700782" lat="-33.4222281" lon="149.6482255"/>
  <node id="324210075" version="1" timestamp="2009-01-01T06:03:00Z" uid="19626" user="Swamp" changeset="700782" lat="-33.4196562" lon="149.6229758"/>
  <node id="324210362" version="1" timestamp="2009-01-01T06:10:10Z" uid="4467" user="Rosscoe" changeset="699495" lat="-20.3604507" lon="148.5911547">
    <tag k="addr:city" v="Strathdickie"/>
    <tag k="addr:country" v="AU"/>
    <tag k="addr:housenumber" v="15"/>
    <tag k="addr:postcode" v="4800"/>
    <tag k="addr:street" v="Wright Road"/>
  </node>
  <node id="324210362" version="2" timestamp="2009-01-18T07:18:43Z" uid="4467" user="Rosscoe" changeset="806275" lat="-20.3604507" lon="148.5911547">
    <tag k="addr:city" v="Strathdickie"/>
    <tag k="addr:country" v="AU"/>
    <tag k="addr:housenumber" v="15"/>
    <tag k="addr:postcode" v="4800"/>
    <tag k="addr:street" v="Wright Road"/>
    <tag k="source" v="survey"/>
  </node>
  <node id="324210362" version="3" timestamp="2011-01-03T10:23:33Z" uid="4467" user="Rosscoe" changeset="6847769" lat="-20.3605159" lon="148.5910929">
    <tag k="addr:city" v="Strathdickie"/>
    <tag k="addr:country" v="AU"/>
    <tag k="addr:housenumber" v="15"/>
    <tag k="addr:postcode" v="4800"/>
    <tag k="addr:street" v="Wright Road"/>
    <tag k="source" v="survey"/>
  </node>
  <node id="324210363" version="1" timestamp="2009-01-01T06:10:11Z" uid="4467" user="Rosscoe" changeset="699495" lat="-20.3605495" lon="148.590774">
    <tag k="addr:city" v="Strathdickie"/>
    <tag k="addr:country" v="AU"/>
    <tag k="addr:housenumber" v="19"/>
    <tag k="addr:postcode" v="4800"/>
    <tag k="addr:street" v="Wright Road"/>
  </node>
  <node id="324210363" version="2" timestamp="2009-01-18T07:18:42Z" uid="4467" user="Rosscoe" changeset="806275" lat="-20.3605495" lon="148.590774">
    <tag k="addr:city" v="Strathdickie"/>
    <tag k="addr:country" v="AU"/>
    <tag k="addr:housenumber" v="19"/>
    <tag k="addr:postcode" v="4800"/>
    <tag k="addr:street" v="Wright Road"/>
    <tag k="source" v="survey"/>
  </node>
  <node id="324210363" version="3" timestamp="2009-10-18T00:54:55Z" uid="4467" user="Rosscoe" changeset="2879267" lat="-20.3605495" lon="148.5907363">
    <tag k="addr:city" v="Strathdickie"/>
    <tag k="addr:country" v="AU"/>
    <tag k="addr:housenumber" v="19"/>
    <tag k="addr:postcode" v="4800"/>
    <tag k="addr:street" v="Wright Road"/>
    <tag k="source" v="survey"/>
  </node>
  <node id="324210363" version="4" timestamp="2011-01-03T10:22:44Z" uid="4467" user="Rosscoe" changeset="6847769" lat="-20.3606944" lon="148.5904813">
    <tag k="addr:city" v="Strathdickie"/>
    <tag k="addr:country" v="AU"/>
    <tag k="addr:housenumber" v="19"/>
    <tag k="addr:postcode" v="4800"/>
    <tag k="addr:street" v="Wright Road"/>
    <tag k="source" v="survey"/>
  </node>
  <node id="324210364" version="1" timestamp="2009-01-01T06:10:12Z" uid="4467" user="Rosscoe" changeset="699495" lat="-20.3606977" lon="148.5902024">
    <tag k="addr:city" v="Strathdickie"/>
    <tag k="addr:country" v="AU"/>
    <tag k="addr:housenumber" v="25"/>
    <tag k="addr:postcode" v="4800"/>
    <tag k="addr:street" v="Wright Road"/>
  </node>
  <node id="324210364" version="2" timestamp="2009-01-18T07:18:50Z" uid="4467" user="Rosscoe" changeset="806275" lat="-20.3606977" lon="148.5902024">
    <tag k="addr:city" v="Strathdickie"/>
    <tag k="addr:country" v="AU"/>
    <tag k="addr:housenumber" v="25"/>
    <tag k="addr:postcode" v="4800"/>
    <tag k="addr:street" v="Wright Road"/>
    <tag k="source" v="survey"/>
  </node>
  <node id="324210364" version="3" timestamp="2009-10-18T00:54:55Z" uid="4467" user="Rosscoe" changeset="2879267" lat="-20.3607731" lon="148.5901019">
    <tag k="addr:city" v="Strathdickie"/>
    <tag k="addr:country" v="AU"/>
    <tag k="addr:housenumber" v="25"/>
    <tag k="addr:postcode" v="4800"/>
    <tag k="addr:street" v="Wright Road"/>
    <tag k="source" v="survey"/>
  </node>
  <node id="324210365" version="1" timestamp="2009-01-01T06:10:13Z" uid="4467" user="Rosscoe" changeset="699495" lat="-20.3609039" lon="148.5894077">
    <tag k="addr:city" v="Strathdickie"/>
    <tag k="addr:country" v="AU"/>
    <tag k="addr:housenumber" v="33"/>
    <tag k="addr:postcode" v="4800"/>
    <tag k="addr:street" v="Wright Road"/>
  </node>
  <node id="324210365" version="2" timestamp="2009-01-18T07:18:49Z" uid="4467" user="Rosscoe" changeset="806275" lat="-20.3609039" lon="148.5894077">
    <tag k="addr:city" v="Strathdickie"/>
    <tag k="addr:country" v="AU"/>
    <tag k="addr:housenumber" v="33"/>
    <tag k="addr:postcode" v="4800"/>
    <tag k="addr:street" v="Wright Road"/>
    <tag k="source" v="survey"/>
  </node>
  <node id="324210366" version="1" timestamp="2009-01-01T06:10:14Z" uid="4467" user="Rosscoe" changeset="699495" lat="-20.3602628" lon="148.5844936">
    <tag k="addr:city" v="Strathdickie"/>
    <tag k="addr:country" v="AU"/>
    <tag k="addr:housenumber" v="84"/>
    <tag k="addr:postcode" v="4800"/>
    <tag k="addr:street" v="Wright Road"/>
  </node>
  <node id="324210366" version="2" timestamp="2009-01-18T07:18:48Z" uid="4467" user="Rosscoe" changeset="806275" lat="-20.3602628" lon="148.5844936">
    <tag k="addr:city" v="Strathdickie"/>
    <tag k="addr:country" v="AU"/>
    <tag k="addr:housenumber" v="84"/>
    <tag k="addr:postcode" v="4800"/>
    <tag k="addr:street" v="Wright Road"/>
    <tag k="source" v="survey"/>
  </node>
  <node id="324210366" version="3" timestamp="2011-01-03T10:22:47Z" uid="4467" user="Rosscoe" changeset="6847769" lat="-20.3602556" lon="148.5844318">
    <tag k="addr:city" v="Strathdickie"/>
    <tag k="addr:country" v="AU"/>
    <tag k="addr:housenumber" v="84"/>
    <tag k="addr:postcode" v="4800"/>
    <tag k="addr:street" v="Wright Road"/>
    <tag k="source" v="survey"/>
  </node>
  <node id="324210367" version="1" timestamp="2009-01-01T06:10:15Z" uid="4467" user="Rosscoe" changeset="699495" lat="-20.3607144" lon="148.5813438">
    <tag k="addr:city" v="Strathdickie"/>
    <tag k="addr:country" v="AU"/>
    <tag k="addr:housenumber" v="113"/>
    <tag k="addr:postcode" v="4800"/>
    <tag k="addr:street" v="Wright Road"/>
  </node>
  <node id="324210367" version="2" timestamp="2009-01-18T07:18:47Z" uid="4467" user="Rosscoe" changeset="806275" lat="-20.3607144" lon="148.5813438">
    <tag k="addr:city" v="Strathdickie"/>
    <tag k="addr:country" v="AU"/>
    <tag k="addr:housenumber" v="113"/>
    <tag k="addr:postcode" v="4800"/>
    <tag k="addr:street" v="Wright Road"/>
    <tag k="source" v="survey"/>
  </node>
  <node id="324210403" version="1" timestamp="2009-01-01T06:12:17Z" uid="4467" user="Rosscoe" changeset="699495" lat="-20.3284934" lon="148.6048271">
    <tag k="addr:city" v="Strathdickie"/>
    <tag k="addr:country" v="AU"/>
    <tag k="addr:housenumber" v="869"/>
    <tag k="addr:postcode" v="4800"/>
    <tag k="addr:street" v="Gregory Cannon Valley Road"/>
  </node>
  <node id="324210403" version="2" timestamp="2009-01-26T03:47:30Z" uid="4467" user="Rosscoe" changeset="840070" lat="-20.3284934" lon="148.6048271">
    <tag k="addr:city" v="Strathdickie"/>
    <tag k="addr:country" v="AU"/>
    <tag k="addr:housenumber" v="869"/>
    <tag k="addr:postcode" v="4800"/>
    <tag k="addr:street" v="Gregory Cannon Valley Road"/>
    <tag k="source" v="survey"/>
  </node>
  <node id="324210404" version="1" timestamp="2009-01-01T06:12:18Z" uid="4467" user="Rosscoe" changeset="699495" lat="-20.32817" lon="148.6025554">
    <tag k="addr:city" v="Strathdickie"/>
    <tag k="addr:country" v="AU"/>
    <tag k="addr:housenumber" v="845"/>
    <tag k="addr:postcode" v="4800"/>
    <tag k="addr:street" v="Gregory Cannon Valley Road"/>
  </node>
  <node id="324210404" version="2" timestamp="2009-01-01T06:13:06Z" uid="4467" user="Rosscoe" changeset="699495" lat="-20.3282172" lon="148.6025554">
    <tag k="addr:city" v="Strathdickie"/>
    <tag k="addr:country" v="AU"/>
    <tag k="addr:housenumber" v="845"/>
    <tag k="addr:postcode" v="4800"/>
    <tag k="addr:street" v="Gregory Cannon Valley Road"/>
  </node>
  <node id="324210404" version="3" timestamp="2009-01-26T03:47:29Z" uid="4467" user="Rosscoe" changeset="840070" lat="-20.3282172" lon="148.6025554">
    <tag k="addr:city" v="Strathdickie"/>
    <tag k="addr:country" v="AU"/>
    <tag k="addr:housenumber" v="845"/>
    <tag k="addr:postcode" v="4800"/>
    <tag k="addr:street" v="Gregory Cannon Valley Road"/>
    <tag k="source" v="survey"/>
  </node>
  <node id="324210984" version="3" timestamp="2009-08-15T01:31:46Z" uid="4467" user="Rosscoe" changeset="2149133" lat="-32.0936797" lon="116.0068288"/>
  <node id="324211208" version="2" timestamp="2009-12-14T17:06:29Z" uid="74617" user="JohnSmith" changeset="3373323" lat="-27.5302154" lon="153.0718878">
    <tag k="amenity" v="fuel"/>
    <tag k="operator" v="Shell"/>
  </node>
  <node id="324211209" version="3" timestamp="2011-02-16T10:58:31Z" uid="4467" user="Rosscoe" changeset="7302704" lat="-27.5293735" lon="153.0716159">
    <tag k="highway" v="traffic_signals"/>
  </node>
  <node id="324211685" version="4" timestamp="2010-07-06T09:26:27Z" uid="4467" user="Rosscoe" changeset="5148673" lat="-37.8944659" lon="145.1477557"/>
  <node id="324211708" version="8" timestamp="2010-04-17T07:54:14Z" uid="4467" user="Rosscoe" changeset="4445200" lat="-37.8966375" lon="145.1516727">
    <tag k="direction" v="clockwise"/>
    <tag k="highway" v="mini_roundabout"/>
  </node>
  <node id="324212168" version="1" timestamp="2009-01-01T07:09:17Z" uid="61114" user="Trav" changeset="703222" lat="-33.8177659" lon="151.1965153">
    <tag k="created_by" v="Merkaartor 0.13"/>
  </node>
  <node id="324212168" version="2" timestamp="2009-05-30T10:36:03Z" uid="61114" user="Trav" changeset="1357637" lat="-33.8177659" lon="151.1965153">
    <tag k="source" v="survey,approximation"/>
    <tag k="traffic_calming" v="table,choker"/>
  </node>
  <node id="324212168" version="3" timestamp="2009-05-31T07:05:33Z" uid="61114" user="Trav" changeset="1365696" lat="-33.8177659" lon="151.1965153">
    <tag k="source" v="approximation"/>
    <tag k="traffic_calming" v="table;choker"/>
  </node>
  <node id="324212168" version="5" timestamp="2010-01-12T11:32:37Z" uid="61114" user="Trav" changeset="3602366" lat="-33.8178017" lon="151.1964747">
    <tag k="source" v="nearmap"/>
    <tag k="traffic_calming" v="table;choker"/>
  </node>
  <node id="324212172" version="1" timestamp="2009-01-01T07:09:20Z" uid="61114" user="Trav" changeset="703222" lat="-33.818457" lon="151.1964851">
    <tag k="created_by" v="Merkaartor 0.13"/>
  </node>
  <node id="324212172" version="2" timestamp="2009-12-22T06:05:27Z" uid="7617" user="Franc" changeset="3424906" lat="-33.8184742" lon="151.1964208"/>
  <node id="324212181" version="1" timestamp="2009-01-01T07:09:28Z" uid="61114" user="Trav" changeset="703222" lat="-33.811343" lon="151.1913478">
    <tag k="created_by" v="Merkaartor 0.13"/>
  </node>
  <node id="324212181" version="2" timestamp="2010-01-15T12:50:39Z" uid="61114" user="Trav" changeset="3623940" lat="-33.8111631" lon="151.191335"/>
  <node id="324212182" version="1" timestamp="2009-01-01T07:09:28Z" uid="61114" user="Trav" changeset="703222" lat="-33.8112716" lon="151.1915785">
    <tag k="created_by" v="Merkaartor 0.13"/>
  </node>
  <node id="324212182" version="2" timestamp="2010-01-15T12:50:40Z" uid="61114" user="Trav" changeset="3623940" lat="-33.8111152" lon="151.1916568"/>
  <node id="324212184" version="1" timestamp="2009-01-01T07:09:29Z" uid="61114" user="Trav" changeset="703222" lat="-33.8117263" lon="151.1917555">
    <tag k="created_by" v="Merkaartor 0.13"/>
  </node>
  <node id="324212184" version="2" timestamp="2010-01-15T12:51:01Z" uid="61114" user="Trav" changeset="3623940" lat="-33.8117392" lon="151.1918106"/>
  <node id="324212186" version="1" timestamp="2009-01-01T07:09:30Z" uid="61114" user="Trav" changeset="703222" lat="-33.8117753" lon="151.191616">
    <tag k="created_by" v="Merkaartor 0.13"/>
  </node>
  <node id="324212186" version="2" timestamp="2010-01-15T12:51:04Z" uid="61114" user="Trav" changeset="3623940" lat="-33.8117692" lon="151.1916356"/>
  <node id="324212187" version="1" timestamp="2009-01-01T07:09:30Z" uid="61114" user="Trav" changeset="703222" lat="-33.811704" lon="151.1915302">
    <tag k="created_by" v="Merkaartor 0.13"/>
  </node>
  <node id="324212188" version="1" timestamp="2009-01-01T07:09:31Z" uid="61114" user="Trav" changeset="703222" lat="-33.8115613" lon="151.1914015">
    <tag k="created_by" v="Merkaartor 0.13"/>
  </node>
  <node id="324212190" version="1" timestamp="2009-01-01T07:09:31Z" uid="61114" user="Trav" changeset="703222" lat="-33.811439" lon="151.1913714">
    <tag k="created_by" v="Merkaartor 0.13"/>
  </node>
  <node id="324212191" version="1" timestamp="2009-01-01T07:09:32Z" uid="61114" user="Trav" changeset="703222" lat="-33.811386" lon="151.1911499">
    <tag k="created_by" v="Merkaartor 0.13"/>
  </node>
  <node id="324212192" version="1" timestamp="2009-01-01T07:09:32Z" uid="61114" user="Trav" changeset="703222" lat="-33.811111" lon="151.190961">
    <tag k="created_by" v="Merkaartor 0.13"/>
  </node>
  <node id="324212193" version="1" timestamp="2009-01-01T07:09:33Z" uid="61114" user="Trav" changeset="703222" lat="-33.8110059" lon="151.190842">
    <tag k="created_by" v="Merkaartor 0.13"/>
  </node>
  <node id="324212194" version="1" timestamp="2009-01-01T07:09:33Z" uid="61114" user="Trav" changeset="703222" lat="-33.8109151" lon="151.1905861">
    <tag k="created_by" v="Merkaartor 0.13"/>
  </node>
  <node id="324212195" version="1" timestamp="2009-01-01T07:09:33Z" uid="61114" user="Trav" changeset="703222" lat="-33.810923" lon="151.190443">
    <tag k="created_by" v="Merkaartor 0.13"/>
  </node>
  <node id="324212196" version="1" timestamp="2009-01-01T07:09:34Z" uid="61114" user="Trav" changeset="703222" lat="-33.810853" lon="151.190207">
    <tag k="created_by" v="Merkaartor 0.13"/>
  </node>
  <node id="324212197" version="1" timestamp="2009-01-01T07:09:36Z" uid="61114" user="Trav" changeset="703222" lat="-33.810767" lon="151.1899869">
    <tag k="created_by" v="Merkaartor 0.13"/>
  </node>
  <node id="324212198" version="1" timestamp="2009-01-01T07:09:37Z" uid="61114" user="Trav" changeset="703222" lat="-33.810729" lon="151.189876">
    <tag k="created_by" v="Merkaartor 0.13"/>
  </node>
  <node id="324212199" version="1" timestamp="2009-01-01T07:09:37Z" uid="61114" user="Trav" changeset="703222" lat="-33.8107056" lon="151.1898304">
    <tag k="created_by" v="Merkaartor 0.13"/>
  </node>
  <node id="324212200" version="1" timestamp="2009-01-01T07:09:38Z" uid="61114" user="Trav" changeset="703222" lat="-33.81065" lon="151.189722">
    <tag k="created_by" v="Merkaartor 0.13"/>
  </node>
  <node id="324212201" version="1" timestamp="2009-01-01T07:09:38Z" uid="61114" user="Trav" changeset="703222" lat="-33.8106319" lon="151.1895699">
    <tag k="created_by" v="Merkaartor 0.13"/>
  </node>
  <node id="324212202" version="1" timestamp="2009-01-01T07:09:39Z" uid="61114" user="Trav" changeset="703222" lat="-33.810605" lon="151.189406">
    <tag k="created_by" v="Merkaartor 0.13"/>
  </node>
  <node id="324212203" version="1" timestamp="2009-01-01T07:09:39Z" uid="61114" user="Trav" changeset="703222" lat="-33.810464" lon="151.189156">
    <tag k="created_by" v="Merkaartor 0.13"/>
  </node>
  <node id="324212204" version="1" timestamp="2009-01-01T07:09:39Z" uid="61114" user="Trav" changeset="703222" lat="-33.810318" lon="151.1889069">
    <tag k="created_by" v="Merkaartor 0.13"/>
  </node>
  <node id="324212205" version="1" timestamp="2009-01-01T07:09:40Z" uid="61114" user="Trav" changeset="703222" lat="-33.810217" lon="151.188639">
    <tag k="created_by" v="Merkaartor 0.13"/>
  </node>
  <node id="324212206" version="1" timestamp="2009-01-01T07:09:40Z" uid="61114" user="Trav" changeset="703222" lat="-33.8101259" lon="151.1884459">
    <tag k="created_by" v="Merkaartor 0.13"/>
  </node>
  <node id="324212207" version="1" timestamp="2009-01-01T07:09:41Z" uid="61114" user="Trav" changeset="703222" lat="-33.810065" lon="151.188356">
    <tag k="created_by" v="Merkaartor 0.13"/>
  </node>
  <node id="324212208" version="1" timestamp="2009-01-01T07:09:41Z" uid="61114" user="Trav" changeset="703222" lat="-33.810076" lon="151.1882459">
    <tag k="created_by" v="Merkaartor 0.13"/>
  </node>
  <node id="324212209" version="1" timestamp="2009-01-01T07:09:42Z" uid="61114" user="Trav" changeset="703222" lat="-33.810008" lon="151.1881179">
    <tag k="created_by" v="Merkaartor 0.13"/>
  </node>
  <node id="324212210" version="1" timestamp="2009-01-01T07:09:42Z" uid="61114" user="Trav" changeset="703222" lat="-33.809944" lon="151.187991">
    <tag k="created_by" v="Merkaartor 0.13"/>
  </node>
  <node id="324212211" version="1" timestamp="2009-01-01T07:09:43Z" uid="61114" user="Trav" changeset="703222" lat="-33.809864" lon="151.187851">
    <tag k="created_by" v="Merkaartor 0.13"/>
  </node>
  <node id="324212212" version="1" timestamp="2009-01-01T07:09:43Z" uid="61114" user="Trav" changeset="703222" lat="-33.8097669" lon="151.187609">
    <tag k="created_by" v="Merkaartor 0.13"/>
  </node>
  <node id="324212213" version="1" timestamp="2009-01-01T07:09:44Z" uid="61114" user="Trav" changeset="703222" lat="-33.809716" lon="151.187435">
    <tag k="created_by" v="Merkaartor 0.13"/>
  </node>
  <node id="324212214" version="1" timestamp="2009-01-01T07:09:44Z" uid="61114" user="Trav" changeset="703222" lat="-33.809707" lon="151.1873239">
    <tag k="created_by" v="Merkaartor 0.13"/>
  </node>
  <node id="324212215" version="1" timestamp="2009-01-01T07:09:45Z" uid="61114" user="Trav" changeset="703222" lat="-33.8096099" lon="151.187164">
    <tag k="created_by" v="Merkaartor 0.13"/>
  </node>
  <node id="324212216" version="1" timestamp="2009-01-01T07:09:45Z" uid="61114" user="Trav" changeset="703222" lat="-33.8095239" lon="151.18696">
    <tag k="created_by" v="Merkaartor 0.13"/>
  </node>
  <node id="324212217" version="1" timestamp="2009-01-01T07:09:45Z" uid="61114" user="Trav" changeset="703222" lat="-33.8094664" lon="151.1867666">
    <tag k="created_by" v="Merkaartor 0.13"/>
  </node>
  <node id="324212218" version="1" timestamp="2009-01-01T07:09:46Z" uid="61114" user="Trav" changeset="703222" lat="-33.8094085" lon="151.1866218">
    <tag k="created_by" v="Merkaartor 0.13"/>
  </node>
  <node id="324212219" version="1" timestamp="2009-01-01T07:09:46Z" uid="61114" user="Trav" changeset="703222" lat="-33.8093401" lon="151.1865473">
    <tag k="created_by" v="Merkaartor 0.13"/>
  </node>
  <node id="324212220" version="1" timestamp="2009-01-01T07:09:47Z" uid="61114" user="Trav" changeset="703222" lat="-33.8092284" lon="151.1863134">
    <tag k="created_by" v="Merkaartor 0.13"/>
  </node>
  <node id="324212221" version="1" timestamp="2009-01-01T07:09:49Z" uid="61114" user="Trav" changeset="703222" lat="-33.810596" lon="151.190081">
    <tag k="created_by" v="Merkaartor 0.13"/>
  </node>
  <node id="324212222" version="1" timestamp="2009-01-01T07:09:50Z" uid="61114" user="Trav" changeset="703222" lat="-33.810652" lon="151.1903329">
    <tag k="created_by" v="Merkaartor 0.13"/>
  </node>
  <node id="324212223" version="1" timestamp="2009-01-01T07:09:50Z" uid="61114" user="Trav" changeset="703222" lat="-33.810696" lon="151.19058">
    <tag k="created_by" v="Merkaartor 0.13"/>
  </node>
  <node id="324212224" version="1" timestamp="2009-01-01T07:09:50Z" uid="61114" user="Trav" changeset="703222" lat="-33.810699" lon="151.190816">
    <tag k="created_by" v="Merkaartor 0.13"/>
  </node>
  <node id="324212225" version="1" timestamp="2009-01-01T07:09:51Z" uid="61114" user="Trav" changeset="703222" lat="-33.810724" lon="151.191045">
    <tag k="created_by" v="Merkaartor 0.13"/>
  </node>
  <node id="324212226" version="1" timestamp="2009-01-01T07:09:51Z" uid="61114" user="Trav" changeset="703222" lat="-33.8107724" lon="151.1911923">
    <tag k="created_by" v="Merkaartor 0.13"/>
  </node>
  <node id="324212227" version="1" timestamp="2009-01-01T07:09:52Z" uid="61114" user="Trav" changeset="703222" lat="-33.8108329" lon="151.191315">
    <tag k="created_by" v="Merkaartor 0.13"/>
  </node>
  <node id="324212228" version="1" timestamp="2009-01-01T07:09:52Z" uid="61114" user="Trav" changeset="703222" lat="-33.8110285" lon="151.1914425">
    <tag k="created_by" v="Merkaartor 0.13"/>
  </node>
  <node id="324212229" version="1" timestamp="2009-01-01T07:09:57Z" uid="61114" user="Trav" changeset="703222" lat="-33.8105511" lon="151.1901791">
    <tag k="created_by" v="Merkaartor 0.13"/>
  </node>
  <node id="324212230" version="1" timestamp="2009-01-01T07:09:58Z" uid="61114" user="Trav" changeset="703222" lat="-33.810427" lon="151.1904499">
    <tag k="created_by" v="Merkaartor 0.13"/>
  </node>
  <node id="324212231" version="1" timestamp="2009-01-01T07:09:59Z" uid="61114" user="Trav" changeset="703222" lat="-33.8104429" lon="151.190809">
    <tag k="created_by" v="Merkaartor 0.13"/>
  </node>
  <node id="324212232" version="1" timestamp="2009-01-01T07:09:59Z" uid="61114" user="Trav" changeset="703222" lat="-33.810481" lon="151.1911209">
    <tag k="created_by" v="Merkaartor 0.13"/>
  </node>
  <node id="324212233" version="1" timestamp="2009-01-01T07:10:02Z" uid="61114" user="Trav" changeset="703222" lat="-33.81055" lon="151.191417">
    <tag k="created_by" v="Merkaartor 0.13"/>
  </node>
  <node id="324212234" version="1" timestamp="2009-01-01T07:10:02Z" uid="61114" user="Trav" changeset="703222" lat="-33.810684" lon="151.191484">
    <tag k="created_by" v="Merkaartor 0.13"/>
  </node>
  <node id="324212235" version="1" timestamp="2009-01-01T07:10:03Z" uid="61114" user="Trav" changeset="703222" lat="-33.8107323" lon="151.1914015">
    <tag k="created_by" v="Merkaartor 0.13"/>
  </node>
  <node id="324212235" version="2" timestamp="2009-07-26T07:40:53Z" uid="4467" user="Rosscoe" changeset="1941517" lat="-33.8107323" lon="151.1914015"/>
  <node id="324212236" version="1" timestamp="2009-01-01T07:10:04Z" uid="61114" user="Trav" changeset="703222" lat="-33.8108972" lon="151.191498">
    <tag k="created_by" v="Merkaartor 0.13"/>
  </node>
  <node id="324212237" version="1" timestamp="2009-01-01T07:10:04Z" uid="61114" user="Trav" changeset="703222" lat="-33.8107368" lon="151.1919701">
    <tag k="created_by" v="Merkaartor 0.13"/>
  </node>
  <node id="324212238" version="1" timestamp="2009-01-01T07:10:04Z" uid="61114" user="Trav" changeset="703222" lat="-33.8105718" lon="151.1918843">
    <tag k="created_by" v="Merkaartor 0.13"/>
  </node>
  <node id="324212277" version="1" timestamp="2009-01-01T07:19:18Z" uid="61114" user="Trav" changeset="703222" lat="-33.8095006" lon="151.1860943">
    <tag k="created_by" v="Merkaartor 0.13"/>
  </node>
  <node id="324212278" version="1" timestamp="2009-01-01T07:19:18Z" uid="61114" user="Trav" changeset="703222" lat="-33.8092882" lon="151.1862677">
    <tag k="created_by" v="Merkaartor 0.13"/>
  </node>
  <node id="324212279" version="1" timestamp="2009-01-01T07:19:21Z" uid="61114" user="Trav" changeset="703222" lat="-33.7812073" lon="151.1716175">
    <tag k="created_by" v="Merkaartor 0.13"/>
  </node>
  <node id="324212279" version="2" timestamp="2010-03-14T07:43:09Z" uid="7617" user="Franc" changeset="4121475" lat="-33.7811259" lon="151.1715654"/>
  <node id="324212318" version="2" timestamp="2009-02-01T19:04:30Z" uid="6975" user="ulfl" changeset="27333" lat="-27.5072815" lon="153.1152604">
    <tag k="network" v="Energex"/>
    <tag k="power" v="sub_station"/>
    <tag k="ref" v="SRD"/>
  </node>
  <node id="324212359" version="7" timestamp="2010-07-06T09:26:59Z" uid="4467" user="Rosscoe" changeset="5148673" lat="-37.894176" lon="145.1453485"/>
  <node id="324212360" version="7" timestamp="2010-07-06T09:27:12Z" uid="4467" user="Rosscoe" changeset="5148673" lat="-37.8942956" lon="145.1453955"/>
  <node id="324212371" version="6" timestamp="2010-07-06T09:27:04Z" uid="4467" user="Rosscoe" changeset="5148673" lat="-37.8940649" lon="145.1451393"/>
  <node id="324212372" version="13" timestamp="2010-07-06T09:24:35Z" uid="4467" user="Rosscoe" changeset="5148673" lat="-37.8940371" lon="145.1446275"/>
  <node id="324212374" version="1" timestamp="2009-01-01T07:27:39Z" uid="61114" user="Trav" changeset="703222" lat="-33.7809717" lon="151.1700276">
    <tag k="created_by" v="Merkaartor 0.13"/>
    <tag k="highway" v="traffic_signals"/>
  </node>
  <node id="324212374" version="2" timestamp="2010-03-14T07:25:54Z" uid="7617" user="Franc" changeset="4121403" lat="-33.7809383" lon="151.1700786">
    <tag k="highway" v="traffic_signals"/>
  </node>
  <node id="324212375" version="1" timestamp="2009-01-01T07:27:39Z" uid="61114" user="Trav" changeset="703222" lat="-33.7804002" lon="151.1708987">
    <tag k="created_by" v="Merkaartor 0.13"/>
  </node>
  <node id="324212375" version="2" timestamp="2009-12-31T02:10:44Z" uid="61114" user="Trav" changeset="3495692" lat="-33.7803648" lon="151.1708685"/>
  <node id="324212375" version="3" timestamp="2011-06-18T13:26:40Z" uid="7617" user="Franc" changeset="8473322" lat="-33.7803487" lon="151.1708596"/>
  <node id="324212376" version="1" timestamp="2009-01-01T07:27:40Z" uid="61114" user="Trav" changeset="703222" lat="-33.7797404" lon="151.1704373">
    <tag k="created_by" v="Merkaartor 0.13"/>
  </node>
  <node id="324212376" version="2" timestamp="2009-12-31T02:10:45Z" uid="61114" user="Trav" changeset="3495692" lat="-33.7797445" lon="151.1703662"/>
  <node id="324212376" version="3" timestamp="2010-05-01T06:25:39Z" uid="61114" user="Trav" changeset="4571792" lat="-33.7797155" lon="151.1703361"/>
  <node id="324212377" version="1" timestamp="2009-01-01T07:27:40Z" uid="61114" user="Trav" changeset="703222" lat="-33.7799053" lon="151.1698955">
    <tag k="created_by" v="Merkaartor 0.13"/>
  </node>
  <node id="324212377" version="2" timestamp="2009-12-31T02:10:44Z" uid="61114" user="Trav" changeset="3495692" lat="-33.779858" lon="151.1699163"/>
  <node id="324212378" version="1" timestamp="2009-01-01T07:27:41Z" uid="61114" user="Trav" changeset="703222" lat="-33.7799455" lon="151.1697239">
    <tag k="created_by" v="Merkaartor 0.13"/>
  </node>
  <node id="324212378" version="2" timestamp="2009-12-31T02:10:43Z" uid="61114" user="Trav" changeset="3495692" lat="-33.7798537" lon="151.1696861"/>
  <node id="324212379" version="1" timestamp="2009-01-01T07:27:41Z" uid="61114" user="Trav" changeset="703222" lat="-33.7800337" lon="151.1692712">
    <tag k="created_by" v="Merkaartor 0.13"/>
  </node>
  <node id="324212379" version="2" timestamp="2009-12-31T02:10:45Z" uid="61114" user="Trav" changeset="3495692" lat="-33.7800337" lon="151.1692712">
    <tag k="created_by" v="Merkaartor 0.13"/>
  </node>
  <node id="324212555" version="2" timestamp="2009-12-14T19:43:45Z" uid="74617" user="JohnSmith" changeset="3374481" lat="-27.495465" lon="153.0948663">
    <tag k="amenity" v="fuel"/>
    <tag k="operator" v="Mobil"/>
  </node>
  <node id="324212555" version="4" timestamp="2010-05-20T03:47:24Z" uid="4467" user="Rosscoe" changeset="4753667" lat="-27.495465" lon="153.094866">
    <tag k="amenity" v="fuel"/>
    <tag k="name" v="Mobil"/>
    <tag k="operator" v="Mobil"/>
  </node>
  <node id="324212556" version="2" timestamp="2010-05-20T03:47:36Z" uid="4467" user="Rosscoe" changeset="4753667" lat="-27.495958" lon="153.0933329">
    <tag k="amenity" v="fuel"/>
    <tag k="name" v="Caltex"/>
    <tag k="operator" v="Caltex"/>
  </node>
  <node id="324212795" version="2" timestamp="2009-02-01T19:08:21Z" uid="6975" user="ulfl" changeset="27333" lat="-37.8544339" lon="145.1699836">
    <tag k="name" v="Dan Murphys"/>
    <tag k="shop" v="beverages"/>
    <tag k="source" v="assoc_area"/>
  </node>
  <node id="324217040" version="2" timestamp="2009-08-09T06:38:39Z" uid="4467" user="Rosscoe" changeset="2081717" lat="-37.7073393" lon="145.0336987">
    <tag k="name" v="114"/>
  </node>
  <node id="324217046" version="2" timestamp="2009-08-09T06:38:39Z" uid="4467" user="Rosscoe" changeset="2081717" lat="-37.7072862" lon="145.0340933"/>
  <node id="324218997" version="3" timestamp="2010-04-06T18:24:17Z" uid="9581" user="Lobelt" changeset="4347065" lat="50.7392136" lon="9.2540883"/>
  <node id="324219690" version="10" timestamp="2010-06-12T10:43:03Z" uid="30201" user="rrankin" changeset="4969186" lat="-32.9114473" lon="151.7320845"/>
  <node id="324219691" version="15" timestamp="2010-06-12T10:43:10Z" uid="30201" user="rrankin" changeset="4969186" lat="-32.9115845" lon="151.7326857"/>
  <node id="324219705" version="9" timestamp="2010-06-12T10:43:04Z" uid="30201" user="rrankin" changeset="4969186" lat="-32.9114258" lon="151.7319367"/>
  <node id="324219706" version="10" timestamp="2010-06-12T10:42:55Z" uid="30201" user="rrankin" changeset="4969186" lat="-32.9114372" lon="151.7320087"/>
  <node id="324219721" version="2" timestamp="2010-06-12T10:43:01Z" uid="30201" user="rrankin" changeset="4969186" lat="-32.9114211" lon="151.7322583"/>
  <node id="324219722" version="2" timestamp="2010-06-12T10:43:13Z" uid="30201" user="rrankin" changeset="4969186" lat="-32.9112491" lon="151.7322012"/>
  <node id="324219802" version="1" timestamp="2009-01-01T09:18:12Z" uid="43863" user="Rundling" changeset="702079" lat="53.1471255" lon="10.5854766"/>
  <node id="324219803" version="1" timestamp="2009-01-01T09:18:12Z" uid="43863" user="Rundling" changeset="702079" lat="53.1491824" lon="10.5842185"/>
  <node id="324219804" version="1" timestamp="2009-01-01T09:18:12Z" uid="43863" user="Rundling" changeset="702079" lat="53.1519419" lon="10.5802375"/>
  <node id="324219805" version="1" timestamp="2009-01-01T09:18:12Z" uid="43863" user="Rundling" changeset="702079" lat="53.1880539" lon="10.5472645">
    <tag k="name" v="Gifkendorf"/>
    <tag k="place" v="village"/>
  </node>
  <node id="324219806" version="1" timestamp="2009-01-01T09:18:13Z" uid="43863" user="Rundling" changeset="702079" lat="53.164385" lon="10.6356182"/>
  <node id="324219806" version="2" timestamp="2010-12-30T16:37:34Z" uid="43863" user="Rundling" changeset="6811337" lat="53.164385" lon="10.6356182"/>
  <node id="324219807" version="1" timestamp="2009-01-01T09:18:13Z" uid="43863" user="Rundling" changeset="702079" lat="53.1637352" lon="10.6348144"/>
  <node id="324219807" version="2" timestamp="2010-12-30T16:38:01Z" uid="43863" user="Rundling" changeset="6811337" lat="53.1637352" lon="10.6348144"/>
  <node id="324219808" version="1" timestamp="2009-01-01T09:18:13Z" uid="43863" user="Rundling" changeset="702079" lat="53.1638801" lon="10.6315556"/>
  <node id="324219808" version="2" timestamp="2010-12-30T16:36:53Z" uid="43863" user="Rundling" changeset="6811337" lat="53.1638741" lon="10.631556"/>
  <node id="324219837" version="3" timestamp="2010-06-12T10:43:02Z" uid="30201" user="rrankin" changeset="4969186" lat="-32.9113578" lon="151.7331338"/>
  <node id="324219865" version="2" timestamp="2009-02-16T13:49:40Z" uid="9581" user="Lobelt" changeset="483189" lat="50.7422594" lon="9.2726467"/>
  <node id="324219866" version="2" timestamp="2009-02-16T13:49:40Z" uid="9581" user="Lobelt" changeset="483189" lat="50.7417906" lon="9.272688"/>
  <node id="324219867" version="2" timestamp="2009-02-16T13:49:40Z" uid="9581" user="Lobelt" changeset="483189" lat="50.7413476" lon="9.272645"/>
</osm>
