<?xml version='1.0' encoding='UTF-8'?>
<osm version="0.6" generator="libosmium/2.20.0">
  <node id="324683158" version="2" timestamp="2009-02-07T16:34:13Z" uid="6975" user="ulfl" changeset="238208" lat="48.7142726" lon="9.5153849">
    <tag k="ele" v="274.000000"/>
    <tag k="highway" v="bus_stop"/>
    <tag k="name" v="Stuttgarter Straße"/>
  </node>
  <node id="324683363" version="2" timestamp="2009-02-07T16:33:54Z" uid="6975" user="ulfl" changeset="238208" lat="48.7141537" lon="9.5166123">
    <tag k="ele" v="278.000000"/>
    <tag k="highway" v="bus_stop"/>
    <tag k="name" v="Bus Stuttgarter Straße 2"/>
  </node>
  <node id="324685156" version="2" timestamp="2009-02-07T16:34:02Z" uid="6975" user="ulfl" changeset="238208" lat="48.7143292" lon="9.5250151">
    <tag k="ele" v="279.000000"/>
    <tag k="highway" v="bus_stop"/>
    <tag k="name" v="Stadtmitte"/>
  </node>
  <node id="324686338" version="2" timestamp="2010-05-25T05:29:15Z" uid="18775" user="drlizau" changeset="4800396" lat="53.4795952" lon="-2.2490378">
    <tag k="name" v="RBS"/>
    <tag k="office" v="company"/>
  </node>
</osm>
