<?xml version='1.0' encoding='UTF-8'?>
<osm version="0.6" generator="libosmium/2.20.0">
  <node id="327216624" version="2" timestamp="2009-10-08T22:49:25Z" uid="179968" user="Ich_hasse_doitsche_OSM-Korinthenkacker" changeset="2788677" lat="53.0806395" lon="14.2371644">
    <tag k="highway" v="bus_stop"/>
  </node>
  <node id="327218151" version="1" timestamp="2009-01-05T14:50:34Z" uid="9581" user="Lobelt" changeset="737076" lat="50.732287" lon="11.5897563">
    <tag k="name" v="Kleindembach"/>
    <tag k="traffic_sign" v="city_limit"/>
  </node>
  <node id="327218151" version="3" timestamp="2009-05-12T17:26:53Z" uid="9581" user="Lobelt" changeset="1166911" lat="50.732283" lon="11.5897819">
    <tag k="name" v="Kleindembach"/>
    <tag k="traffic_sign" v="city_limit"/>
  </node>
  <node id="327218156" version="1" timestamp="2009-01-05T14:50:35Z" uid="9581" user="Lobelt" changeset="737076" lat="50.7420472" lon="11.571714">
    <tag k="name" v="Langenorla"/>
    <tag k="traffic_sign" v="city_limit"/>
  </node>
  <node id="327218156" version="3" timestamp="2009-05-12T17:26:53Z" uid="9581" user="Lobelt" changeset="1166911" lat="50.7420507" lon="11.5717321">
    <tag k="name" v="Langenorla"/>
    <tag k="traffic_sign" v="city_limit"/>
  </node>
  <node id="327218159" version="1" timestamp="2009-01-05T14:50:35Z" uid="9581" user="Lobelt" changeset="737076" lat="50.7441049" lon="11.5717466">
    <tag k="name" v="Langenorla"/>
    <tag k="traffic_sign" v="city_limit"/>
  </node>
  <node id="327218163" version="1" timestamp="2009-01-05T14:50:35Z" uid="9581" user="Lobelt" changeset="737076" lat="50.7415691" lon="11.5804044">
    <tag k="railway" v="level_crossing"/>
  </node>
</osm>
