<?xml version='1.0' encoding='UTF-8'?>
<osm version="0.6" generator="libosmium/2.20.0">
  <node id="330070152" version="5" timestamp="2009-01-08T23:42:31Z" uid="30632" user="antblant" changeset="762887" lat="53.3820427" lon="14.5382181"/>
  <node id="330070152" version="6" timestamp="2009-09-16T22:38:20Z" uid="30632" user="antblant" changeset="2507542" lat="53.3822528" lon="14.5375841"/>
  <node id="330070153" version="5" timestamp="2009-09-16T22:38:20Z" uid="30632" user="antblant" changeset="2507542" lat="53.3832528" lon="14.5347422"/>
  <node id="330070194" version="2" timestamp="2009-08-17T12:42:51Z" uid="20587" user="balrog-kun" changeset="2177538" lat="52.5774905" lon="20.6640359">
    <tag k="name" v="Cieksyn"/>
    <tag k="railway" v="halt"/>
    <tag k="wikipedia" v="pl:Cieksyn (przystanek kolejowy)"/>
  </node>
  <node id="330071183" version="2" timestamp="2009-02-01T19:15:09Z" uid="6975" user="ulfl" changeset="27333" lat="53.7966778" lon="-1.5909161">
    <tag k="name" v="Armley Trade Centre"/>
    <tag k="shop" v="general"/>
  </node>
  <node id="330071184" version="2" timestamp="2009-02-01T19:15:09Z" uid="6975" user="ulfl" changeset="27333" lat="53.7965103" lon="-1.5914964">
    <tag k="name" v="Jamali"/>
    <tag k="shop" v="general"/>
  </node>
  <node id="330071482" version="4" timestamp="2009-10-02T20:03:18Z" uid="86259" user="hasse_osm_korinthenkacker" changeset="2717024" lat="47.875265" lon="11.7083622">
    <tag k="addr:city" v="Holzkirchen"/>
    <tag k="addr:country" v="DE"/>
    <tag k="addr:housenumber" v="1"/>
    <tag k="addr:postcode" v="83607"/>
    <tag k="addr:street" v="Abt-Kaspar-Straße"/>
  </node>
  <node id="330072002" version="3" timestamp="2009-02-01T18:55:18Z" uid="6975" user="ulfl" changeset="27333" lat="46.0371872" lon="10.7954447">
    <tag k="ele" v="988"/>
    <tag k="mountain_pass" v="yes"/>
    <tag k="name" v="Passo del Durone"/>
  </node>
  <node id="330072943" version="5" timestamp="2009-10-02T20:03:19Z" uid="86259" user="hasse_osm_korinthenkacker" changeset="2717024" lat="47.8749514" lon="11.7102935">
    <tag k="addr:city" v="Holzkirchen"/>
    <tag k="addr:country" v="DE"/>
    <tag k="addr:housenumber" v="30"/>
    <tag k="addr:postcode" v="83607"/>
    <tag k="addr:street" v="Miesbacher Straße"/>
  </node>
  <node id="330073234" version="5" timestamp="2009-10-02T20:03:19Z" uid="86259" user="hasse_osm_korinthenkacker" changeset="2717024" lat="47.8749917" lon="11.7104823">
    <tag k="addr:city" v="Holzkirchen"/>
    <tag k="addr:country" v="DE"/>
    <tag k="addr:housenumber" v="32"/>
    <tag k="addr:postcode" v="83607"/>
    <tag k="addr:street" v="Miesbacher Straße"/>
  </node>
  <node id="330073301" version="5" timestamp="2009-10-02T20:03:18Z" uid="86259" user="hasse_osm_korinthenkacker" changeset="2717024" lat="47.8749226" lon="11.7100875">
    <tag k="addr:city" v="Holzkirchen"/>
    <tag k="addr:country" v="DE"/>
    <tag k="addr:housenumber" v="28"/>
    <tag k="addr:postcode" v="83607"/>
    <tag k="addr:street" v="Miesbacher Straße"/>
  </node>
  <node id="330073303" version="4" timestamp="2009-10-02T20:03:18Z" uid="86259" user="hasse_osm_korinthenkacker" changeset="2717024" lat="47.8748677" lon="11.7099071">
    <tag k="addr:city" v="Holzkirchen"/>
    <tag k="addr:country" v="DE"/>
    <tag k="addr:housenumber" v="26"/>
    <tag k="addr:postcode" v="83607"/>
    <tag k="addr:street" v="Miesbacher Straße"/>
  </node>
  <node id="330073321" version="4" timestamp="2009-10-02T20:03:18Z" uid="86259" user="hasse_osm_korinthenkacker" changeset="2717024" lat="47.8747468" lon="11.7094179">
    <tag k="addr:city" v="Holzkirchen"/>
    <tag k="addr:country" v="DE"/>
    <tag k="addr:housenumber" v="24"/>
    <tag k="addr:postcode" v="83607"/>
    <tag k="addr:street" v="Miesbacher Straße"/>
  </node>
  <node id="330073611" version="4" timestamp="2009-10-02T20:03:18Z" uid="86259" user="hasse_osm_korinthenkacker" changeset="2717024" lat="47.8746778" lon="11.7090746">
    <tag k="addr:city" v="Holzkirchen"/>
    <tag k="addr:country" v="DE"/>
    <tag k="addr:housenumber" v="22"/>
    <tag k="addr:postcode" v="83607"/>
    <tag k="addr:street" v="Miesbacher Straße"/>
  </node>
  <node id="330073730" version="4" timestamp="2009-10-02T20:03:18Z" uid="86259" user="hasse_osm_korinthenkacker" changeset="2717024" lat="47.8745511" lon="11.7089287">
    <tag k="addr:city" v="Holzkirchen"/>
    <tag k="addr:country" v="DE"/>
    <tag k="addr:housenumber" v="22a"/>
    <tag k="addr:postcode" v="83607"/>
    <tag k="addr:street" v="Miesbacher Straße"/>
  </node>
  <node id="330074278" version="3" timestamp="2009-10-02T20:03:18Z" uid="86259" user="hasse_osm_korinthenkacker" changeset="2717024" lat="47.8751901" lon="11.7093836">
    <tag k="addr:city" v="Holzkirchen"/>
    <tag k="addr:country" v="DE"/>
    <tag k="addr:housenumber" v="20"/>
    <tag k="addr:postcode" v="83607"/>
    <tag k="addr:street" v="Miesbacher Straße"/>
  </node>
  <node id="330074536" version="4" timestamp="2009-10-02T20:03:18Z" uid="86259" user="hasse_osm_korinthenkacker" changeset="2717024" lat="47.8752938" lon="11.7088858">
    <tag k="addr:city" v="Holzkirchen"/>
    <tag k="addr:country" v="DE"/>
    <tag k="addr:housenumber" v="16"/>
    <tag k="addr:postcode" v="83607"/>
    <tag k="addr:street" v="Miesbacher Straße"/>
  </node>
  <node id="330074767" version="4" timestamp="2009-10-02T20:03:18Z" uid="86259" user="hasse_osm_korinthenkacker" changeset="2717024" lat="47.8750174" lon="11.7089802">
    <tag k="addr:city" v="Holzkirchen"/>
    <tag k="addr:country" v="DE"/>
    <tag k="addr:housenumber" v="18"/>
    <tag k="addr:postcode" v="83607"/>
    <tag k="addr:street" v="Miesbacher Straße"/>
  </node>
  <node id="330076295" version="7" timestamp="2009-10-02T20:03:18Z" uid="86259" user="hasse_osm_korinthenkacker" changeset="2717024" lat="47.8750737" lon="11.7073161">
    <tag k="addr:city" v="Holzkirchen"/>
    <tag k="addr:country" v="DE"/>
    <tag k="addr:housenumber" v="1"/>
    <tag k="addr:postcode" v="83607"/>
    <tag k="addr:street" v="Hiltpoltsteiner Straße"/>
  </node>
  <node id="330076305" version="6" timestamp="2009-10-02T20:03:17Z" uid="86259" user="hasse_osm_korinthenkacker" changeset="2717024" lat="47.8745556" lon="11.7073418">
    <tag k="addr:city" v="Holzkirchen"/>
    <tag k="addr:country" v="DE"/>
    <tag k="addr:housenumber" v="3"/>
    <tag k="addr:postcode" v="83607"/>
    <tag k="addr:street" v="Hiltpoltsteiner Straße"/>
  </node>
  <node id="330076327" version="6" timestamp="2009-10-02T20:03:17Z" uid="86259" user="hasse_osm_korinthenkacker" changeset="2717024" lat="47.8748319" lon="11.7074363">
    <tag k="addr:city" v="Holzkirchen"/>
    <tag k="addr:country" v="DE"/>
    <tag k="addr:housenumber" v="1b"/>
    <tag k="addr:postcode" v="83607"/>
    <tag k="addr:street" v="Hiltpoltsteiner Straße"/>
  </node>
  <node id="330076550" version="6" timestamp="2009-10-02T20:03:17Z" uid="86259" user="hasse_osm_korinthenkacker" changeset="2717024" lat="47.8745498" lon="11.7076938">
    <tag k="addr:city" v="Holzkirchen"/>
    <tag k="addr:country" v="DE"/>
    <tag k="addr:housenumber" v="5"/>
    <tag k="addr:postcode" v="83607"/>
    <tag k="addr:street" v="Hiltpoltsteiner Straße"/>
  </node>
  <node id="330076675" version="2" timestamp="2010-07-29T09:33:23Z" uid="74617" user="JohnSmith" changeset="5344848" lat="49.0045685" lon="9.2376608">
    <tag k="amenity" v="emergency_phone"/>
    <tag k="emergency" v="phone"/>
    <tag k="operator" v="Autobahnmeisterei"/>
    <tag k="source" v="survey"/>
  </node>
  <node id="330076865" version="6" timestamp="2009-10-02T20:03:17Z" uid="86259" user="hasse_osm_korinthenkacker" changeset="2717024" lat="47.8748434" lon="11.7073333">
    <tag k="addr:city" v="Holzkirchen"/>
    <tag k="addr:country" v="DE"/>
    <tag k="addr:housenumber" v="1a"/>
    <tag k="addr:postcode" v="83607"/>
    <tag k="addr:street" v="Hiltpoltsteiner Straße"/>
  </node>
  <node id="330076980" version="6" timestamp="2009-10-02T20:03:16Z" uid="86259" user="hasse_osm_korinthenkacker" changeset="2717024" lat="47.8748319" lon="11.7068269">
    <tag k="addr:city" v="Holzkirchen"/>
    <tag k="addr:country" v="DE"/>
    <tag k="addr:housenumber" v="2c"/>
    <tag k="addr:postcode" v="83607"/>
    <tag k="addr:street" v="Hiltpoltsteiner Straße"/>
  </node>
  <node id="330077023" version="6" timestamp="2009-10-02T20:03:17Z" uid="86259" user="hasse_osm_korinthenkacker" changeset="2717024" lat="47.8752407" lon="11.7068269">
    <tag k="addr:city" v="Holzkirchen"/>
    <tag k="addr:country" v="DE"/>
    <tag k="addr:housenumber" v="2a"/>
    <tag k="addr:postcode" v="83607"/>
    <tag k="addr:street" v="Hiltpoltsteiner Straße"/>
  </node>
  <node id="330077035" version="6" timestamp="2009-10-02T20:03:17Z" uid="86259" user="hasse_osm_korinthenkacker" changeset="2717024" lat="47.8750277" lon="11.706844">
    <tag k="addr:city" v="Holzkirchen"/>
    <tag k="addr:country" v="DE"/>
    <tag k="addr:housenumber" v="2b"/>
    <tag k="addr:postcode" v="83607"/>
    <tag k="addr:street" v="Hiltpoltsteiner Straße"/>
  </node>
  <node id="330077059" version="6" timestamp="2009-10-02T20:03:16Z" uid="86259" user="hasse_osm_korinthenkacker" changeset="2717024" lat="47.8748262" lon="11.7067324">
    <tag k="addr:city" v="Holzkirchen"/>
    <tag k="addr:country" v="DE"/>
    <tag k="addr:housenumber" v="2d"/>
    <tag k="addr:postcode" v="83607"/>
    <tag k="addr:street" v="Hiltpoltsteiner Straße"/>
  </node>
  <node id="330077175" version="6" timestamp="2009-10-02T20:03:16Z" uid="86259" user="hasse_osm_korinthenkacker" changeset="2717024" lat="47.8745498" lon="11.706947">
    <tag k="addr:city" v="Holzkirchen"/>
    <tag k="addr:country" v="DE"/>
    <tag k="addr:housenumber" v="4"/>
    <tag k="addr:postcode" v="83607"/>
    <tag k="addr:street" v="Hiltpoltsteiner Straße"/>
  </node>
  <node id="330077177" version="1" timestamp="2009-01-07T20:04:45Z" uid="10712" user="Kraeml" changeset="752392" lat="48.9861848" lon="11.685296"/>
  <node id="330077179" version="1" timestamp="2009-01-07T20:04:45Z" uid="10712" user="Kraeml" changeset="752392" lat="48.9857044" lon="11.6856952"/>
  <node id="330077181" version="1" timestamp="2009-01-07T20:04:45Z" uid="10712" user="Kraeml" changeset="752392" lat="48.9848518" lon="11.6826367"/>
  <node id="330077182" version="1" timestamp="2009-01-07T20:04:46Z" uid="10712" user="Kraeml" changeset="752392" lat="48.9850886" lon="11.6822984"/>
  <node id="330077184" version="1" timestamp="2009-01-07T20:04:46Z" uid="10712" user="Kraeml" changeset="752392" lat="48.9851969" lon="11.6822375"/>
  <node id="330077185" version="1" timestamp="2009-01-07T20:04:46Z" uid="10712" user="Kraeml" changeset="752392" lat="48.9850074" lon="11.6828735"/>
  <node id="330077187" version="1" timestamp="2009-01-07T20:04:46Z" uid="10712" user="Kraeml" changeset="752392" lat="48.9848992" lon="11.6830901"/>
  <node id="330077188" version="1" timestamp="2009-01-07T20:04:47Z" uid="10712" user="Kraeml" changeset="752392" lat="48.9852849" lon="11.6830359"/>
  <node id="330077190" version="1" timestamp="2009-01-07T20:04:47Z" uid="10712" user="Kraeml" changeset="752392" lat="48.9854946" lon="11.6829277"/>
  <node id="330077191" version="1" timestamp="2009-01-07T20:04:47Z" uid="10712" user="Kraeml" changeset="752392" lat="48.9856097" lon="11.6829886"/>
  <node id="330077193" version="1" timestamp="2009-01-07T20:04:47Z" uid="10712" user="Kraeml" changeset="752392" lat="48.9855826" lon="11.6831171"/>
  <node id="330077195" version="1" timestamp="2009-01-07T20:04:48Z" uid="10712" user="Kraeml" changeset="752392" lat="48.9854405" lon="11.6833404"/>
  <node id="330077199" version="1" timestamp="2009-01-07T20:04:48Z" uid="10712" user="Kraeml" changeset="752392" lat="48.9854067" lon="11.683469"/>
  <node id="330077203" version="1" timestamp="2009-01-07T20:04:48Z" uid="10712" user="Kraeml" changeset="752392" lat="48.9854067" lon="11.683584"/>
  <node id="330077204" version="1" timestamp="2009-01-07T20:04:49Z" uid="10712" user="Kraeml" changeset="752392" lat="48.9855014" lon="11.6836043"/>
  <node id="330077206" version="1" timestamp="2009-01-07T20:04:49Z" uid="10712" user="Kraeml" changeset="752392" lat="48.9856638" lon="11.6834555"/>
  <node id="330077207" version="1" timestamp="2009-01-07T20:04:50Z" uid="10712" user="Kraeml" changeset="752392" lat="48.9857856" lon="11.6833337"/>
  <node id="330077209" version="1" timestamp="2009-01-07T20:04:50Z" uid="10712" user="Kraeml" changeset="752392" lat="48.9858871" lon="11.6833675"/>
  <node id="330077210" version="1" timestamp="2009-01-07T20:04:50Z" uid="10712" user="Kraeml" changeset="752392" lat="48.9858871" lon="11.6835028"/>
  <node id="330077212" version="1" timestamp="2009-01-07T20:04:50Z" uid="10712" user="Kraeml" changeset="752392" lat="48.9857788" lon="11.6837532"/>
  <node id="330077213" version="1" timestamp="2009-01-07T20:04:50Z" uid="10712" user="Kraeml" changeset="752392" lat="48.9856773" lon="11.6839833"/>
  <node id="330077215" version="1" timestamp="2009-01-07T20:04:51Z" uid="10712" user="Kraeml" changeset="752392" lat="48.9856097" lon="11.6841254"/>
  <node id="330077218" version="1" timestamp="2009-01-07T20:04:51Z" uid="10712" user="Kraeml" changeset="752392" lat="48.9856097" lon="11.6842945"/>
  <node id="330077220" version="1" timestamp="2009-01-07T20:04:51Z" uid="10712" user="Kraeml" changeset="752392" lat="48.9857179" lon="11.6843351"/>
  <node id="330077221" version="1" timestamp="2009-01-07T20:04:51Z" uid="10712" user="Kraeml" changeset="752392" lat="48.9859209" lon="11.6843013"/>
  <node id="330077223" version="1" timestamp="2009-01-07T20:04:52Z" uid="10712" user="Kraeml" changeset="752392" lat="48.9860833" lon="11.684166"/>
  <node id="330077224" version="1" timestamp="2009-01-07T20:04:52Z" uid="10712" user="Kraeml" changeset="752392" lat="48.9862593" lon="11.6840442"/>
  <node id="330077226" version="1" timestamp="2009-01-07T20:04:52Z" uid="10712" user="Kraeml" changeset="752392" lat="48.9863878" lon="11.6840103"/>
  <node id="330077227" version="1" timestamp="2009-01-07T20:04:52Z" uid="10712" user="Kraeml" changeset="752392" lat="48.9864893" lon="11.6840712"/>
  <node id="330077229" version="1" timestamp="2009-01-07T20:04:52Z" uid="10712" user="Kraeml" changeset="752392" lat="48.9864893" lon="11.6841998"/>
  <node id="330077230" version="1" timestamp="2009-01-07T20:04:53Z" uid="10712" user="Kraeml" changeset="752392" lat="48.9863811" lon="11.684369"/>
  <node id="330077233" version="1" timestamp="2009-01-07T20:04:53Z" uid="10712" user="Kraeml" changeset="752392" lat="48.9863134" lon="11.6845652"/>
  <node id="330077234" version="6" timestamp="2009-10-02T20:03:16Z" uid="86259" user="hasse_osm_korinthenkacker" changeset="2717024" lat="47.8745498" lon="11.7067839">
    <tag k="addr:city" v="Holzkirchen"/>
    <tag k="addr:country" v="DE"/>
    <tag k="addr:housenumber" v="4a"/>
    <tag k="addr:postcode" v="83607"/>
    <tag k="addr:street" v="Hiltpoltsteiner Straße"/>
  </node>
  <node id="330077236" version="2" timestamp="2010-07-29T09:23:08Z" uid="74617" user="JohnSmith" changeset="5344848" lat="49.0560517" lon="9.2688149">
    <tag k="amenity" v="emergency_phone"/>
    <tag k="emergency" v="phone"/>
    <tag k="operator" v="Autobahnmeisterei"/>
    <tag k="source" v="survey"/>
  </node>
  <node id="330077238" version="1" timestamp="2009-01-07T20:04:53Z" uid="10712" user="Kraeml" changeset="752392" lat="48.9863134" lon="11.6847411"/>
  <node id="330077240" version="1" timestamp="2009-01-07T20:04:53Z" uid="10712" user="Kraeml" changeset="752392" lat="48.9863134" lon="11.6849103"/>
  <node id="330077241" version="1" timestamp="2009-01-07T20:04:54Z" uid="10712" user="Kraeml" changeset="752392" lat="48.9863269" lon="11.6850659"/>
  <node id="330077243" version="1" timestamp="2009-01-07T20:04:54Z" uid="10712" user="Kraeml" changeset="752392" lat="48.9863134" lon="11.6852216"/>
  <node id="330077244" version="1" timestamp="2009-01-07T20:04:54Z" uid="10712" user="Kraeml" changeset="752392" lat="48.9851725" lon="11.682496"/>
  <node id="330077247" version="1" timestamp="2009-01-07T20:04:54Z" uid="10712" user="Kraeml" changeset="752392" lat="48.9850515" lon="11.6831947"/>
  <node id="330077248" version="1" timestamp="2009-01-07T20:04:54Z" uid="10712" user="Kraeml" changeset="752392" lat="48.9859254" lon="11.6846507">
    <tag k="name" v="Sommerrodelbahn"/>
    <tag k="tourism" v="attraction"/>
  </node>
</osm>
