<?xml version='1.0' encoding='UTF-8'?>
<osm version="0.6" generator="libosmium/2.20.0">
  <node id="330690909" version="2" timestamp="2010-07-29T09:13:11Z" uid="74617" user="JohnSmith" changeset="5344848" lat="49.5334087" lon="11.3174856">
    <tag k="amenity" v="emergency_phone"/>
    <tag k="emergency" v="phone"/>
    <tag k="operator" v="Autobahnmeisterei"/>
    <tag k="source" v="survey"/>
  </node>
  <node id="330690910" version="3" timestamp="2010-07-29T09:35:16Z" uid="74617" user="JohnSmith" changeset="5344848" lat="49.5468917" lon="11.3214462">
    <tag k="amenity" v="emergency_phone"/>
    <tag k="emergency" v="phone"/>
    <tag k="note" v="Notrufsäule"/>
    <tag k="operator" v="Autobahnmeisterei"/>
    <tag k="source" v="survey"/>
  </node>
  <node id="330690911" version="3" timestamp="2010-07-29T09:42:09Z" uid="74617" user="JohnSmith" changeset="5344848" lat="49.5469388" lon="11.3208925">
    <tag k="amenity" v="emergency_phone"/>
    <tag k="emergency" v="phone"/>
    <tag k="note" v="Notrufsäule"/>
    <tag k="operator" v="Autobahnmeisterei"/>
    <tag k="source" v="survey"/>
  </node>
  <node id="330690913" version="2" timestamp="2010-07-29T09:01:17Z" uid="74617" user="JohnSmith" changeset="5344848" lat="49.5511205" lon="11.3228373">
    <tag k="amenity" v="emergency_phone"/>
    <tag k="emergency" v="phone"/>
    <tag k="operator" v="Autobahnmeisterei"/>
    <tag k="source" v="survey"/>
  </node>
  <node id="330691574" version="3" timestamp="2010-03-19T14:58:09Z" uid="74617" user="JohnSmith" changeset="4170806" lat="-36.0538594" lon="146.460136">
    <tag k="name" v="Rutherglen"/>
    <tag k="place" v="town"/>
  </node>
  <node id="330693007" version="3" timestamp="2010-02-13T18:20:55Z" uid="85955" user="Gerd Höweler" changeset="3867211" lat="52.061959" lon="8.581909">
    <tag k="name" v="Bielefeld-Brake"/>
    <tag k="traffic_sign" v="city_limit"/>
  </node>
  <node id="330696187" version="2" timestamp="2009-02-01T19:11:04Z" uid="6975" user="ulfl" changeset="27333" lat="39.8242963" lon="-74.9311994">
    <tag k="name" v="Kohl&apos;s"/>
    <tag k="shop" v="clothes"/>
  </node>
  <node id="330696252" version="3" timestamp="2010-07-29T09:35:57Z" uid="74617" user="JohnSmith" changeset="5344848" lat="49.5647309" lon="11.3291841">
    <tag k="amenity" v="emergency_phone"/>
    <tag k="emergency" v="phone"/>
    <tag k="note" v="Notrufsäule"/>
    <tag k="operator" v="Autobahnmeisterei"/>
    <tag k="source" v="survey"/>
  </node>
  <node id="330696254" version="3" timestamp="2010-07-29T09:23:13Z" uid="74617" user="JohnSmith" changeset="5344848" lat="49.5815087" lon="11.3480198">
    <tag k="amenity" v="emergency_phone"/>
    <tag k="emergency" v="phone"/>
    <tag k="note" v="Notrufsäule"/>
    <tag k="operator" v="Autobahnmeisterei"/>
    <tag k="source" v="survey"/>
  </node>
  <node id="330696256" version="2" timestamp="2010-07-29T09:11:35Z" uid="74617" user="JohnSmith" changeset="5344848" lat="49.591489" lon="11.3592002">
    <tag k="amenity" v="emergency_phone"/>
    <tag k="emergency" v="phone"/>
    <tag k="operator" v="Autobahnmeisterei"/>
    <tag k="source" v="survey"/>
  </node>
  <node id="330696258" version="3" timestamp="2010-07-29T09:41:03Z" uid="74617" user="JohnSmith" changeset="5344848" lat="49.6032897" lon="11.3659261">
    <tag k="amenity" v="emergency_phone"/>
    <tag k="emergency" v="phone"/>
    <tag k="note" v="Notrufsäule"/>
    <tag k="operator" v="Autobahnmeisterei"/>
    <tag k="source" v="photo"/>
  </node>
  <node id="330696259" version="3" timestamp="2010-07-29T09:01:25Z" uid="74617" user="JohnSmith" changeset="5344848" lat="49.6132306" lon="11.3816957">
    <tag k="amenity" v="emergency_phone"/>
    <tag k="emergency" v="phone"/>
    <tag k="note" v="Notrufsäule"/>
    <tag k="operator" v="Autobahnmeisterei"/>
    <tag k="source" v="photo"/>
  </node>
  <node id="330696261" version="3" timestamp="2010-07-29T08:58:13Z" uid="74617" user="JohnSmith" changeset="5344848" lat="49.6199502" lon="11.4067447">
    <tag k="amenity" v="emergency_phone"/>
    <tag k="emergency" v="phone"/>
    <tag k="note" v="Notrufsäule"/>
    <tag k="operator" v="Autobahnmeisterei"/>
    <tag k="source" v="survey"/>
  </node>
  <node id="330697503" version="2" timestamp="2009-02-15T11:44:18Z" uid="36809" user="pfoten_weg_!_" changeset="463903" lat="48.0433982" lon="11.5100526">
    <tag k="amenity" v="telephone"/>
    <tag k="created_by" v="Potlatch 0.10f"/>
  </node>
  <node id="330697503" version="4" timestamp="2009-03-30T01:40:40Z" uid="36809" user="pfoten_weg_!_" changeset="869093" lat="48.0433982" lon="11.5100526">
    <tag k="amenity" v="telephone"/>
    <tag k="created_by" v="Potlatch 0.10f"/>
  </node>
  <node id="330697503" version="6" timestamp="2009-05-03T01:00:55Z" uid="36809" user="pfoten_weg_!_" changeset="1055353" lat="48.0432901" lon="11.5100136">
    <tag k="amenity" v="telephone"/>
    <tag k="created_by" v="Potlatch 0.10f"/>
  </node>
  <node id="330697503" version="7" timestamp="2009-05-03T01:11:44Z" uid="36809" user="pfoten_weg_!_" changeset="1055372" lat="48.0432901" lon="11.5100136">
    <tag k="amenity" v="telephone"/>
    <tag k="created_by" v="Potlatch 0.10f"/>
  </node>
  <node id="330697709" version="2" timestamp="2009-02-15T12:01:36Z" uid="36809" user="pfoten_weg_!_" changeset="463903" lat="48.0432835" lon="11.51025">
    <tag k="amenity" v="post_box"/>
    <tag k="created_by" v="Potlatch 0.10f"/>
  </node>
  <node id="330697709" version="5" timestamp="2009-05-03T01:34:52Z" uid="36809" user="pfoten_weg_!_" changeset="1055426" lat="48.0432835" lon="11.51025">
    <tag k="amenity" v="post_box"/>
    <tag k="created_by" v="RambaZamba"/>
    <tag k="name" v="Deutsche Post Briefkasten"/>
    <tag k="operator" v="Deutsche Post"/>
    <tag k="source" v="survey"/>
  </node>
  <node id="330697709" version="7" timestamp="2009-08-25T19:15:07Z" uid="36809" user="pfoten_weg_!_" changeset="2260562" lat="48.0432835" lon="11.51025">
    <tag k="amenity" v="post_box"/>
    <tag k="name" v="Deutsche Post Briefkasten"/>
    <tag k="operator" v="Deutsche Post"/>
    <tag k="source" v="survey"/>
  </node>
  <node id="330697889" version="2" timestamp="2009-02-16T00:09:30Z" uid="36809" user="pfoten_weg_!_" changeset="474664" lat="48.0435245" lon="11.5184382">
    <tag k="amenity" v="parking"/>
    <tag k="created_by" v="Potlatch 0.10f"/>
  </node>
  <node id="330697889" version="4" timestamp="2009-03-30T01:40:40Z" uid="36809" user="pfoten_weg_!_" changeset="869093" lat="48.0435245" lon="11.5184382">
    <tag k="amenity" v="parking"/>
    <tag k="created_by" v="Potlatch 0.10f"/>
  </node>
  <node id="330698004" version="2" timestamp="2009-01-10T20:50:47Z" uid="43863" user="Rundling" changeset="767994" lat="53.2165651" lon="7.7621362"/>
  <node id="330699381" version="2" timestamp="2009-02-16T00:09:26Z" uid="36809" user="pfoten_weg_!_" changeset="474664" lat="48.0429851" lon="11.5102328">
    <tag k="amenity" v="car_rental"/>
    <tag k="created_by" v="Potlatch 0.10f"/>
  </node>
  <node id="330699381" version="5" timestamp="2009-05-03T01:34:56Z" uid="36809" user="pfoten_weg_!_" changeset="1055426" lat="48.0430931" lon="11.5104845">
    <tag k="amenity" v="car_rental"/>
    <tag k="created_by" v="RambaZamba"/>
    <tag k="source" v="survey"/>
  </node>
  <node id="330699381" version="7" timestamp="2009-07-01T23:32:28Z" uid="36809" user="pfoten_weg_!_" changeset="1705773" lat="48.0430953" lon="11.5104822">
    <tag k="amenity" v="car_rental"/>
    <tag k="created_by" v="RambaZamba"/>
    <tag k="operator" v="Sixt"/>
    <tag k="source" v="survey"/>
  </node>
</osm>
