<?xml version='1.0' encoding='UTF-8'?>
<osm version="0.6" generator="libosmium/2.20.0">
  <node id="331385074" version="8" timestamp="2010-02-10T14:10:00Z" uid="171838" user="argrath" changeset="3840476" lat="33.5943692" lon="130.39481">
    <tag k="is_in:continent" v="Asia"/>
    <tag k="is_in:country" v="Japan"/>
    <tag k="is_in:country_code" v="jp"/>
    <tag k="is_in:island" v="Kyushu"/>
    <tag k="is_in:island:ja" v="九州"/>
    <tag k="is_in:island:ja_rm" v="Kyūshū"/>
    <tag k="is_in:region" v="福岡県 (Fukuoka Prefecture)"/>
    <tag k="is_in:state" v="九州 (Kyushu Region)"/>
    <tag k="name" v="福岡市 (Fukuoka)"/>
    <tag k="name:en" v="Fukuoka"/>
    <tag k="name:ja" v="福岡市"/>
    <tag k="name:ja_rm" v="Fukuoka-shi"/>
    <tag k="place" v="city"/>
    <tag k="population" v="1450149"/>
    <tag k="wikipedia" v="http://en.wikipedia.org/wiki/Fukuoka"/>
  </node>
  <node id="331385921" version="2" timestamp="2009-07-22T12:31:24Z" uid="74617" user="JohnSmith" changeset="1904539" lat="-20.7743788" lon="139.4912475"/>
  <node id="331386447" version="3" timestamp="2009-04-12T10:39:09Z" uid="19626" user="Swamp" changeset="449000" lat="-36.4115165" lon="148.6183821"/>
  <node id="331386448" version="3" timestamp="2009-04-12T10:39:10Z" uid="19626" user="Swamp" changeset="449000" lat="-36.4119807" lon="148.6164455"/>
  <node id="331386449" version="2" timestamp="2009-04-12T10:39:11Z" uid="19626" user="Swamp" changeset="449000" lat="-36.4117156" lon="148.6177437"/>
  <node id="331387166" version="21" timestamp="2011-03-09T04:51:38Z" uid="4467" user="Rosscoe" changeset="7500625" lat="-37.859093" lon="145.0028668"/>
</osm>
