<?xml version='1.0' encoding='UTF-8'?>
<osm version="0.6" generator="libosmium/2.20.0">
  <node id="331320085" version="1" timestamp="2009-01-11T20:06:12Z" uid="30201" user="rrankin" changeset="773720" lat="-33.7686605" lon="150.880693"/>
  <node id="331320085" version="2" timestamp="2010-01-08T21:50:28Z" uid="7617" user="Franc" changeset="3573989" lat="-33.7687397" lon="150.8805309"/>
  <node id="331323429" version="2" timestamp="2010-07-29T09:25:24Z" uid="74617" user="JohnSmith" changeset="5344848" lat="52.8049959" lon="12.7946257">
    <tag k="amenity" v="emergency_phone"/>
    <tag k="emergency" v="phone"/>
    <tag k="operator" v="Autobahnmeisterei"/>
    <tag k="source" v="survey"/>
  </node>
  <node id="331323430" version="2" timestamp="2010-07-29T09:02:49Z" uid="74617" user="JohnSmith" changeset="5344848" lat="52.8049631" lon="12.7940118">
    <tag k="amenity" v="emergency_phone"/>
    <tag k="emergency" v="phone"/>
    <tag k="operator" v="Autobahnmeisterei"/>
    <tag k="source" v="survey"/>
  </node>
  <node id="331323431" version="2" timestamp="2010-07-29T09:12:46Z" uid="74617" user="JohnSmith" changeset="5344848" lat="52.8480844" lon="12.7796051">
    <tag k="amenity" v="emergency_phone"/>
    <tag k="emergency" v="phone"/>
    <tag k="operator" v="Autobahnmeisterei"/>
    <tag k="source" v="survey"/>
  </node>
  <node id="331323432" version="2" timestamp="2010-07-29T08:59:08Z" uid="74617" user="JohnSmith" changeset="5344848" lat="52.8467961" lon="12.7802345">
    <tag k="amenity" v="emergency_phone"/>
    <tag k="emergency" v="phone"/>
    <tag k="operator" v="Autobahnmeisterei"/>
    <tag k="source" v="survey"/>
  </node>
  <node id="331323433" version="2" timestamp="2010-07-29T09:08:22Z" uid="74617" user="JohnSmith" changeset="5344848" lat="52.9041059" lon="12.7403551">
    <tag k="amenity" v="emergency_phone"/>
    <tag k="emergency" v="phone"/>
    <tag k="operator" v="Autobahnmeisterei"/>
    <tag k="source" v="survey"/>
  </node>
  <node id="331323434" version="2" timestamp="2010-07-29T09:30:28Z" uid="74617" user="JohnSmith" changeset="5344848" lat="52.907254" lon="12.736638">
    <tag k="amenity" v="emergency_phone"/>
    <tag k="emergency" v="phone"/>
    <tag k="operator" v="Autobahnmeisterei"/>
    <tag k="source" v="survey"/>
  </node>
  <node id="331323436" version="2" timestamp="2010-07-29T09:27:45Z" uid="74617" user="JohnSmith" changeset="5344848" lat="52.9188264" lon="12.7187177">
    <tag k="amenity" v="emergency_phone"/>
    <tag k="emergency" v="phone"/>
    <tag k="operator" v="Autobahnmeisterei"/>
    <tag k="source" v="survey"/>
  </node>
  <node id="331323437" version="2" timestamp="2010-07-29T09:34:23Z" uid="74617" user="JohnSmith" changeset="5344848" lat="52.9314176" lon="12.7030027">
    <tag k="amenity" v="emergency_phone"/>
    <tag k="emergency" v="phone"/>
    <tag k="operator" v="Autobahnmeisterei"/>
    <tag k="source" v="photo"/>
  </node>
  <node id="331323438" version="2" timestamp="2010-07-29T09:15:44Z" uid="74617" user="JohnSmith" changeset="5344848" lat="52.963995" lon="12.6414815">
    <tag k="amenity" v="emergency_phone"/>
    <tag k="emergency" v="phone"/>
    <tag k="operator" v="Autobahnmeisterei"/>
    <tag k="source" v="photo"/>
  </node>
  <node id="331323444" version="2" timestamp="2010-07-29T09:38:32Z" uid="74617" user="JohnSmith" changeset="5344848" lat="52.9764007" lon="12.6258533">
    <tag k="amenity" v="emergency_phone"/>
    <tag k="emergency" v="phone"/>
    <tag k="operator" v="Autobahnmeisterei"/>
    <tag k="source" v="photo"/>
  </node>
  <node id="331323445" version="2" timestamp="2010-07-29T08:58:45Z" uid="74617" user="JohnSmith" changeset="5344848" lat="52.9875434" lon="12.6156535">
    <tag k="amenity" v="emergency_phone"/>
    <tag k="emergency" v="phone"/>
    <tag k="operator" v="Autobahnmeisterei"/>
    <tag k="source" v="photo"/>
  </node>
  <node id="331323446" version="2" timestamp="2010-07-29T09:25:08Z" uid="74617" user="JohnSmith" changeset="5344848" lat="53.0010826" lon="12.5992987">
    <tag k="amenity" v="emergency_phone"/>
    <tag k="emergency" v="phone"/>
    <tag k="operator" v="Autobahnmeisterei"/>
    <tag k="source" v="photo"/>
  </node>
  <node id="331323447" version="2" timestamp="2010-07-29T09:30:11Z" uid="74617" user="JohnSmith" changeset="5344848" lat="53.0146666" lon="12.583072">
    <tag k="amenity" v="emergency_phone"/>
    <tag k="emergency" v="phone"/>
    <tag k="operator" v="Autobahnmeisterei"/>
    <tag k="source" v="photo"/>
  </node>
  <node id="331323448" version="2" timestamp="2010-07-29T09:21:09Z" uid="74617" user="JohnSmith" changeset="5344848" lat="53.0304942" lon="12.5693372">
    <tag k="amenity" v="emergency_phone"/>
    <tag k="emergency" v="phone"/>
    <tag k="operator" v="Autobahnmeisterei"/>
    <tag k="source" v="photo"/>
  </node>
  <node id="331323450" version="2" timestamp="2010-07-29T09:07:46Z" uid="74617" user="JohnSmith" changeset="5344848" lat="53.043584" lon="12.5515485">
    <tag k="amenity" v="emergency_phone"/>
    <tag k="emergency" v="phone"/>
    <tag k="operator" v="Autobahnmeisterei"/>
    <tag k="source" v="photo"/>
  </node>
  <node id="331323458" version="2" timestamp="2010-07-29T09:09:39Z" uid="74617" user="JohnSmith" changeset="5344848" lat="53.057395" lon="12.5352408">
    <tag k="amenity" v="emergency_phone"/>
    <tag k="emergency" v="phone"/>
    <tag k="operator" v="Autobahnmeisterei"/>
    <tag k="source" v="photo"/>
  </node>
  <node id="331323459" version="2" timestamp="2010-07-29T09:16:20Z" uid="74617" user="JohnSmith" changeset="5344848" lat="53.069402" lon="12.5292964">
    <tag k="amenity" v="emergency_phone"/>
    <tag k="emergency" v="phone"/>
    <tag k="operator" v="Autobahnmeisterei"/>
    <tag k="source" v="photo"/>
  </node>
  <node id="331323461" version="2" timestamp="2010-07-29T09:13:15Z" uid="74617" user="JohnSmith" changeset="5344848" lat="53.0737433" lon="12.5266987">
    <tag k="amenity" v="emergency_phone"/>
    <tag k="emergency" v="phone"/>
    <tag k="operator" v="Autobahnmeisterei"/>
    <tag k="source" v="survey"/>
  </node>
  <node id="331323462" version="3" timestamp="2010-07-29T09:35:21Z" uid="74617" user="JohnSmith" changeset="5344848" lat="53.0852194" lon="12.518081">
    <tag k="amenity" v="emergency_phone"/>
    <tag k="emergency" v="phone"/>
    <tag k="operator" v="Autobahnmeisterei"/>
    <tag k="source" v="photo"/>
  </node>
  <node id="331323467" version="4" timestamp="2009-02-01T18:25:47Z" uid="6975" user="ulfl" changeset="27333" lat="51.5903568" lon="-0.3329183">
    <tag k="highway" v="bus_stop"/>
  </node>
  <node id="331326023" version="2" timestamp="2010-07-29T09:13:44Z" uid="74617" user="JohnSmith" changeset="5344848" lat="48.696592" lon="8.8956946">
    <tag k="amenity" v="emergency_phone"/>
    <tag k="emergency" v="phone"/>
  </node>
  <node id="331326832" version="2" timestamp="2009-02-01T18:20:45Z" uid="49111" user="Markus B" changeset="24377" lat="47.0137709" lon="8.7353814"/>
  <node id="331327904" version="1" timestamp="2009-01-11T20:49:13Z" uid="43863" user="Rundling" changeset="774178" lat="52.9876462" lon="10.7494618"/>
  <node id="331327904" version="2" timestamp="2010-12-29T21:52:06Z" uid="43863" user="Rundling" changeset="6803892" lat="52.9876202" lon="10.7496158"/>
  <node id="331327904" version="3" timestamp="2011-02-27T17:45:40Z" uid="43863" user="Rundling" changeset="7413334" lat="52.9876064" lon="10.7496187"/>
  <node id="331327914" version="1" timestamp="2009-01-11T20:49:14Z" uid="43863" user="Rundling" changeset="774178" lat="52.9878909" lon="10.7495864"/>
  <node id="331327914" version="2" timestamp="2010-12-29T21:52:06Z" uid="43863" user="Rundling" changeset="6803892" lat="52.9879057" lon="10.7496788"/>
  <node id="331327923" version="1" timestamp="2009-01-11T20:49:14Z" uid="43863" user="Rundling" changeset="774178" lat="52.9879541" lon="10.7498585"/>
  <node id="331329436" version="3" timestamp="2010-07-29T09:28:54Z" uid="74617" user="JohnSmith" changeset="5344848" lat="53.0998611" lon="12.4930289">
    <tag k="amenity" v="emergency_phone"/>
    <tag k="emergency" v="phone"/>
    <tag k="operator" v="Autobahnmeisterei"/>
    <tag k="source" v="photo"/>
  </node>
  <node id="331329438" version="3" timestamp="2010-07-29T09:17:08Z" uid="74617" user="JohnSmith" changeset="5344848" lat="53.1329557" lon="12.4591655">
    <tag k="amenity" v="emergency_phone"/>
    <tag k="emergency" v="phone"/>
    <tag k="source" v="photo"/>
  </node>
</osm>
