<?xml version='1.0' encoding='UTF-8'?>
<osm version="0.6" generator="libosmium/2.20.0">
  <node id="333680489" version="2" timestamp="2009-10-03T18:31:44Z" uid="43967" user="railsnail" changeset="2727575" lat="46.624857" lon="14.22177"/>
  <node id="333680610" version="1" timestamp="2009-01-19T15:29:18Z" uid="20587" user="balrog-kun" changeset="812017" lat="52.2426059" lon="21.0705341">
    <tag k="shop" v="supermarket"/>
  </node>
  <node id="333680612" version="1" timestamp="2009-01-19T15:29:18Z" uid="20587" user="balrog-kun" changeset="812017" lat="52.2423015" lon="21.0713567">
    <tag k="amenity" v="grit_bin"/>
  </node>
  <node id="333680615" version="1" timestamp="2009-01-19T15:29:18Z" uid="20587" user="balrog-kun" changeset="812017" lat="52.242009" lon="21.0721465">
    <tag k="amenity" v="telephone"/>
  </node>
  <node id="333680618" version="1" timestamp="2009-01-19T15:29:18Z" uid="20587" user="balrog-kun" changeset="812017" lat="52.2189717" lon="20.9835676">
    <tag k="amenity" v="grit_bin"/>
  </node>
  <node id="333680619" version="1" timestamp="2009-01-19T15:29:18Z" uid="20587" user="balrog-kun" changeset="812017" lat="52.2192654" lon="20.9839114">
    <tag k="amenity" v="telephone"/>
  </node>
  <node id="333680621" version="1" timestamp="2009-01-19T15:29:18Z" uid="20587" user="balrog-kun" changeset="812017" lat="52.2174813" lon="20.982431">
    <tag k="amenity" v="grit_bin"/>
  </node>
  <node id="333680621" version="2" timestamp="2009-01-21T14:21:56Z" uid="20587" user="balrog-kun" changeset="821206" lat="52.2176105" lon="20.9825264">
    <tag k="amenity" v="grit_bin"/>
  </node>
  <node id="333680623" version="1" timestamp="2009-01-19T15:29:19Z" uid="20587" user="balrog-kun" changeset="812017" lat="52.2145574" lon="20.9798553">
    <tag k="amenity" v="grit_bin"/>
  </node>
  <node id="333681156" version="1" timestamp="2009-01-19T15:30:22Z" uid="58091" user="Andreas M" changeset="812902" lat="48.2307766" lon="16.3756593">
    <tag k="name" v="Anker"/>
    <tag k="shop" v="bakery"/>
  </node>
  <node id="333681910" version="1" timestamp="2009-01-19T15:31:30Z" uid="58091" user="Andreas M" changeset="812902" lat="48.2296818" lon="16.3770437">
    <tag k="amenity" v="car_wash"/>
    <tag k="name" v="Wash-Point"/>
  </node>
  <node id="333682110" version="1" timestamp="2009-01-19T15:32:33Z" uid="58091" user="Andreas M" changeset="812902" lat="48.2299792" lon="16.3778674">
    <tag k="name" v="Autohaus Honda Stahl"/>
    <tag k="shop" v="car"/>
  </node>
  <node id="333682320" version="1" timestamp="2009-01-19T15:32:54Z" uid="20587" user="balrog-kun" changeset="812017" lat="52.2529244" lon="21.029028">
    <tag k="note" v="TODO: jakis wybieg dla niedźwiedzi :)"/>
    <tag k="tourism" v="zoo"/>
  </node>
  <node id="333682320" version="2" timestamp="2009-08-08T14:36:58Z" uid="123700" user="Mala" changeset="2076300" lat="52.2529244" lon="21.029028">
    <tag k="animal" v="bear"/>
    <tag k="note" v="TODO: jakis wybieg dla niedźwiedzi :)"/>
    <tag k="tourism" v="zoo"/>
  </node>
  <node id="333682558" version="1" timestamp="2009-01-19T15:33:14Z" uid="58091" user="Andreas M" changeset="812902" lat="48.2344112" lon="16.3747698">
    <tag k="name" v="Anker"/>
    <tag k="shop" v="bakery"/>
  </node>
  <node id="333683168" version="2" timestamp="2009-10-03T18:31:44Z" uid="43967" user="railsnail" changeset="2727575" lat="46.623963" lon="14.221272"/>
  <node id="333683698" version="1" timestamp="2009-01-19T15:35:40Z" uid="58091" user="Andreas M" changeset="812902" lat="48.241149" lon="16.3777087">
    <tag k="name" v="Putzerei Hammerl"/>
    <tag k="shop" v="laundry"/>
  </node>
  <node id="333683963" version="1" timestamp="2009-01-19T15:36:19Z" uid="58091" user="Andreas M" changeset="812902" lat="48.2429678" lon="16.3786971">
    <tag k="name" v="Cut20"/>
    <tag k="shop" v="hairdresser"/>
  </node>
  <node id="333684166" version="1" timestamp="2009-01-19T15:36:45Z" uid="58091" user="Andreas M" changeset="812902" lat="48.2435698" lon="16.3797375">
    <tag k="name" v="Corinna Rauch"/>
    <tag k="shop" v="hairdresser"/>
  </node>
  <node id="333684583" version="1" timestamp="2009-01-19T15:37:59Z" uid="58091" user="Andreas M" changeset="812902" lat="48.236621" lon="16.3847032">
    <tag k="name" v="Anker"/>
    <tag k="shop" v="bakery"/>
  </node>
  <node id="333684701" version="1" timestamp="2009-01-19T15:38:41Z" uid="58091" user="Andreas M" changeset="812902" lat="48.2386443" lon="16.3834569">
    <tag k="shop" v="bakery"/>
  </node>
  <node id="333686899" version="2" timestamp="2010-04-06T09:06:32Z" uid="115477" user="wowik" changeset="4341800" lat="55.8948269" lon="37.4451398"/>
  <node id="333686902" version="2" timestamp="2011-05-11T16:33:29Z" uid="115477" user="wowik" changeset="8113835" lat="55.8967413" lon="37.4487541"/>
  <node id="333686906" version="2" timestamp="2010-04-06T09:06:32Z" uid="115477" user="wowik" changeset="4341800" lat="55.8946104" lon="37.4456226"/>
  <node id="333686909" version="2" timestamp="2010-09-14T06:46:38Z" uid="115477" user="wowik" changeset="5775570" lat="55.8948078" lon="37.4455421">
    <tag k="highway" v="crossing"/>
  </node>
  <node id="333686909" version="3" timestamp="2011-05-11T16:33:04Z" uid="115477" user="wowik" changeset="8113835" lat="55.8948014" lon="37.4455312">
    <tag k="highway" v="crossing"/>
  </node>
  <node id="333687274" version="1" timestamp="2009-01-19T15:45:04Z" uid="58091" user="Andreas M" changeset="812902" lat="48.2014056" lon="16.3359896">
    <tag k="amenity" v="recycling"/>
  </node>
  <node id="333687496" version="1" timestamp="2009-01-19T15:45:34Z" uid="58091" user="Andreas M" changeset="812902" lat="48.2040363" lon="16.3314937">
    <tag k="amenity" v="recycling"/>
  </node>
  <node id="333688274" version="1" timestamp="2009-01-19T15:47:21Z" uid="58091" user="Andreas M" changeset="812902" lat="48.2002676" lon="16.3305708">
    <tag k="amenity" v="recycling"/>
  </node>
  <node id="333689347" version="1" timestamp="2009-01-19T15:49:41Z" uid="20587" user="balrog-kun" changeset="812017" lat="52.2192161" lon="21.0182244">
    <tag k="name" v="Plac Zbawiciela"/>
    <tag k="railway" v="tram_stop"/>
  </node>
  <node id="333689347" version="4" timestamp="2009-08-08T15:03:44Z" uid="20587" user="balrog-kun" changeset="2076575" lat="52.2192161" lon="21.0182244">
    <tag k="name" v="Plac Zbawiciela 04"/>
    <tag k="railway" v="tram_stop"/>
  </node>
  <node id="333689347" version="5" timestamp="2009-11-01T03:15:20Z" uid="20587" user="balrog-kun" changeset="3003408" lat="52.2192161" lon="21.0182244">
    <tag k="name" v="Plac Zbawiciela 04"/>
    <tag k="railway" v="tram_stop"/>
    <tag k="tactile_paving" v="yes"/>
  </node>
  <node id="333689347" version="6" timestamp="2010-01-12T13:53:46Z" uid="20587" user="balrog-kun" changeset="3603234" lat="52.2192161" lon="21.0182244">
    <tag k="name" v="Plac Zbawiciela 04"/>
    <tag k="railway" v="tram_stop"/>
    <tag k="tactile_paving" v="yes"/>
    <tag k="tactile_paving:slab_size" v="40x40"/>
    <tag k="ztm:ciąg_ulicy" v="Marszałkowska"/>
  </node>
  <node id="333689348" version="1" timestamp="2009-01-19T15:49:41Z" uid="20587" user="balrog-kun" changeset="812017" lat="52.2204383" lon="21.0175133">
    <tag k="name" v="Plac Zbawiciela"/>
    <tag k="railway" v="tram_stop"/>
  </node>
  <node id="333689348" version="4" timestamp="2009-08-08T15:03:44Z" uid="20587" user="balrog-kun" changeset="2076575" lat="52.2204383" lon="21.0175133">
    <tag k="name" v="Plac Zbawiciela 03"/>
    <tag k="railway" v="tram_stop"/>
  </node>
  <node id="333689348" version="5" timestamp="2009-11-01T03:15:21Z" uid="20587" user="balrog-kun" changeset="3003408" lat="52.2204383" lon="21.0175133">
    <tag k="name" v="Plac Zbawiciela 03"/>
    <tag k="railway" v="tram_stop"/>
    <tag k="tactile_paving" v="yes"/>
  </node>
  <node id="333689348" version="6" timestamp="2010-01-12T13:53:46Z" uid="20587" user="balrog-kun" changeset="3603234" lat="52.2204383" lon="21.0175133">
    <tag k="name" v="Plac Zbawiciela 03"/>
    <tag k="railway" v="tram_stop"/>
    <tag k="tactile_paving" v="yes"/>
    <tag k="tactile_paving:slab_size" v="40x40"/>
    <tag k="ztm:ciąg_ulicy" v="Marszałkowska"/>
  </node>
  <node id="333689349" version="1" timestamp="2009-01-19T15:49:41Z" uid="20587" user="balrog-kun" changeset="812017" lat="52.2141124" lon="21.0211626">
    <tag k="name" v="Plac Unii Lubelskiej"/>
    <tag k="railway" v="tram_stop"/>
  </node>
  <node id="333689349" version="2" timestamp="2009-02-08T03:39:50Z" uid="20587" user="balrog-kun" changeset="270015" lat="52.2141969" lon="21.0211292">
    <tag k="name" v="Plac Unii Lubelskiej"/>
    <tag k="railway" v="tram_stop"/>
  </node>
  <node id="333689349" version="4" timestamp="2009-06-21T14:20:21Z" uid="20587" user="balrog-kun" changeset="1583765" lat="52.2141969" lon="21.0211291">
    <tag k="name" v="Pl.Unii Lubelskiej 05"/>
    <tag k="railway" v="tram_stop"/>
  </node>
  <node id="333689349" version="5" timestamp="2009-08-08T15:03:44Z" uid="20587" user="balrog-kun" changeset="2076575" lat="52.2141969" lon="21.0211291">
    <tag k="name" v="Plac Unii Lubelskiej 05"/>
    <tag k="railway" v="tram_stop"/>
  </node>
  <node id="333689349" version="6" timestamp="2009-11-01T03:15:19Z" uid="20587" user="balrog-kun" changeset="3003408" lat="52.2141969" lon="21.0211291">
    <tag k="name" v="Plac Unii Lubelskiej 05"/>
    <tag k="railway" v="tram_stop"/>
    <tag k="tactile_paving" v="yes"/>
  </node>
  <node id="333689349" version="7" timestamp="2010-01-12T13:53:45Z" uid="20587" user="balrog-kun" changeset="3603234" lat="52.2141969" lon="21.0211291">
    <tag k="name" v="Plac Unii Lubelskiej 05"/>
    <tag k="railway" v="tram_stop"/>
    <tag k="tactile_paving" v="yes"/>
    <tag k="tactile_paving:slab_size" v="40x40"/>
    <tag k="ztm:ciąg_ulicy" v="Marszałkowska"/>
  </node>
  <node id="333689351" version="1" timestamp="2009-01-19T15:49:41Z" uid="20587" user="balrog-kun" changeset="812017" lat="52.2258826" lon="21.0140867">
    <tag k="name" v="Hoża"/>
    <tag k="railway" v="tram_stop"/>
  </node>
  <node id="333689351" version="3" timestamp="2009-06-21T14:03:32Z" uid="20587" user="balrog-kun" changeset="1583602" lat="52.2258826" lon="21.0140866">
    <tag k="name" v="Hoża 04"/>
    <tag k="railway" v="tram_stop"/>
  </node>
  <node id="333689351" version="4" timestamp="2009-11-01T03:15:20Z" uid="20587" user="balrog-kun" changeset="3003408" lat="52.2258826" lon="21.0140866">
    <tag k="name" v="Hoża 04"/>
    <tag k="railway" v="tram_stop"/>
    <tag k="tactile_paving" v="yes"/>
  </node>
  <node id="333689351" version="5" timestamp="2010-01-12T13:53:46Z" uid="20587" user="balrog-kun" changeset="3603234" lat="52.2258826" lon="21.0140866">
    <tag k="name" v="Hoża 04"/>
    <tag k="railway" v="tram_stop"/>
    <tag k="tactile_paving" v="yes"/>
    <tag k="tactile_paving:slab_size" v="40x40"/>
    <tag k="ztm:ciąg_ulicy" v="Marszałkowska"/>
  </node>
  <node id="333689353" version="1" timestamp="2009-01-19T15:49:41Z" uid="20587" user="balrog-kun" changeset="812017" lat="52.226277" lon="21.0138576">
    <tag k="name" v="Hoża"/>
    <tag k="railway" v="tram_stop"/>
  </node>
  <node id="333689353" version="3" timestamp="2009-06-21T14:03:32Z" uid="20587" user="balrog-kun" changeset="1583602" lat="52.226277" lon="21.0138576">
    <tag k="name" v="Hoża 03"/>
    <tag k="railway" v="tram_stop"/>
  </node>
  <node id="333689353" version="4" timestamp="2009-11-01T03:15:20Z" uid="20587" user="balrog-kun" changeset="3003408" lat="52.226277" lon="21.0138576">
    <tag k="name" v="Hoża 03"/>
    <tag k="railway" v="tram_stop"/>
    <tag k="tactile_paving" v="yes"/>
  </node>
  <node id="333689353" version="5" timestamp="2010-01-12T13:53:46Z" uid="20587" user="balrog-kun" changeset="3603234" lat="52.226277" lon="21.0138576">
    <tag k="name" v="Hoża 03"/>
    <tag k="railway" v="tram_stop"/>
    <tag k="tactile_paving" v="yes"/>
    <tag k="tactile_paving:slab_size" v="40x40"/>
    <tag k="ztm:ciąg_ulicy" v="Marszałkowska"/>
  </node>
  <node id="333689355" version="1" timestamp="2009-01-19T15:49:41Z" uid="20587" user="balrog-kun" changeset="812017" lat="52.2354013" lon="21.0084353">
    <tag k="name" v="Metro Świętokrzyska"/>
    <tag k="railway" v="tram_stop"/>
  </node>
  <node id="333689355" version="3" timestamp="2009-06-21T14:03:32Z" uid="20587" user="balrog-kun" changeset="1583602" lat="52.2354013" lon="21.0084352">
    <tag k="name" v="Metro Świętokrzyska 05"/>
    <tag k="railway" v="tram_stop"/>
  </node>
  <node id="333689355" version="4" timestamp="2009-11-01T03:15:21Z" uid="20587" user="balrog-kun" changeset="3003408" lat="52.2354013" lon="21.0084352">
    <tag k="name" v="Metro Świętokrzyska 05"/>
    <tag k="railway" v="tram_stop"/>
    <tag k="tactile_paving" v="yes"/>
  </node>
  <node id="333689355" version="5" timestamp="2010-01-12T13:53:47Z" uid="20587" user="balrog-kun" changeset="3603234" lat="52.2354013" lon="21.0084352">
    <tag k="name" v="Metro Świętokrzyska 05"/>
    <tag k="railway" v="tram_stop"/>
    <tag k="tactile_paving" v="yes"/>
    <tag k="tactile_paving:slab_size" v="40x40"/>
    <tag k="ztm:ciąg_ulicy" v="Marszałkowska"/>
  </node>
  <node id="333689375" version="1" timestamp="2009-01-19T15:49:47Z" uid="58091" user="Andreas M" changeset="812902" lat="48.18695" lon="16.3364457"/>
  <node id="333689376" version="1" timestamp="2009-01-19T15:49:47Z" uid="58091" user="Andreas M" changeset="812902" lat="48.1869893" lon="16.33632"/>
</osm>
