<?xml version='1.0' encoding='UTF-8'?>
<osm version="0.6" generator="libosmium/2.20.0">
  <node id="335370134" version="3" timestamp="2009-09-01T20:58:39Z" uid="36809" user="pfoten_weg_!_" changeset="2343001" lat="47.8689653" lon="11.8305504">
    <tag k="addr:city" v="Holzolling"/>
    <tag k="addr:country" v="DE"/>
    <tag k="addr:housenumber" v="6"/>
    <tag k="addr:postcode" v="83629"/>
    <tag k="addr:street" v="Waldweg"/>
  </node>
  <node id="335370229" version="3" timestamp="2009-09-01T20:58:40Z" uid="36809" user="pfoten_weg_!_" changeset="2343001" lat="47.8692302" lon="11.8303874">
    <tag k="addr:city" v="Holzolling"/>
    <tag k="addr:country" v="DE"/>
    <tag k="addr:housenumber" v="4"/>
    <tag k="addr:postcode" v="83629"/>
    <tag k="addr:street" v="Waldweg"/>
  </node>
  <node id="335370506" version="3" timestamp="2009-09-01T20:58:44Z" uid="36809" user="pfoten_weg_!_" changeset="2343001" lat="47.8687696" lon="11.8312113">
    <tag k="addr:city" v="Holzolling"/>
    <tag k="addr:country" v="DE"/>
    <tag k="addr:housenumber" v="8"/>
    <tag k="addr:postcode" v="83629"/>
    <tag k="addr:street" v="Waldweg"/>
  </node>
  <node id="335370859" version="7" timestamp="2009-08-26T19:12:49Z" uid="36809" user="pfoten_weg_!_" changeset="2270948" lat="47.8690171" lon="11.8334"/>
  <node id="335371213" version="3" timestamp="2009-09-01T20:59:09Z" uid="36809" user="pfoten_weg_!_" changeset="2343001" lat="47.8700766" lon="11.8292973">
    <tag k="addr:city" v="Holzolling"/>
    <tag k="addr:country" v="DE"/>
    <tag k="addr:housenumber" v="1"/>
    <tag k="addr:postcode" v="83629"/>
    <tag k="addr:street" v="Esterndorfer Straße"/>
  </node>
  <node id="335371667" version="3" timestamp="2009-09-01T20:59:26Z" uid="36809" user="pfoten_weg_!_" changeset="2343001" lat="47.8698117" lon="11.8304989">
    <tag k="addr:city" v="Holzolling"/>
    <tag k="addr:country" v="DE"/>
    <tag k="addr:housenumber" v="11"/>
    <tag k="addr:postcode" v="83629"/>
    <tag k="addr:street" v="Esterndorfer Straße"/>
  </node>
  <node id="335371857" version="3" timestamp="2009-09-01T20:59:34Z" uid="36809" user="pfoten_weg_!_" changeset="2343001" lat="47.8697599" lon="11.830868">
    <tag k="addr:city" v="Holzolling"/>
    <tag k="addr:country" v="DE"/>
    <tag k="addr:housenumber" v="13"/>
    <tag k="addr:postcode" v="83629"/>
    <tag k="addr:street" v="Esterndorfer Straße"/>
  </node>
  <node id="335372014" version="3" timestamp="2009-09-01T20:59:38Z" uid="36809" user="pfoten_weg_!_" changeset="2343001" lat="47.8697023" lon="11.8312457">
    <tag k="addr:city" v="Holzolling"/>
    <tag k="addr:country" v="DE"/>
    <tag k="addr:housenumber" v="15"/>
    <tag k="addr:postcode" v="83629"/>
    <tag k="addr:street" v="Esterndorfer Straße"/>
  </node>
  <node id="335372097" version="3" timestamp="2009-09-01T20:59:40Z" uid="36809" user="pfoten_weg_!_" changeset="2343001" lat="47.8697426" lon="11.831589">
    <tag k="addr:city" v="Holzolling"/>
    <tag k="addr:country" v="DE"/>
    <tag k="addr:housenumber" v="17"/>
    <tag k="addr:postcode" v="83629"/>
    <tag k="addr:street" v="Esterndorfer Straße"/>
  </node>
  <node id="335372213" version="3" timestamp="2009-09-01T20:59:41Z" uid="36809" user="pfoten_weg_!_" changeset="2343001" lat="47.8695987" lon="11.8321383">
    <tag k="addr:city" v="Holzolling"/>
    <tag k="addr:country" v="DE"/>
    <tag k="addr:housenumber" v="19"/>
    <tag k="addr:postcode" v="83629"/>
    <tag k="addr:street" v="Esterndorfer Straße"/>
  </node>
  <node id="335372341" version="3" timestamp="2009-09-01T21:00:07Z" uid="36809" user="pfoten_weg_!_" changeset="2343001" lat="47.8695296" lon="11.8325074">
    <tag k="addr:city" v="Holzolling"/>
    <tag k="addr:country" v="DE"/>
    <tag k="addr:housenumber" v="21"/>
    <tag k="addr:postcode" v="83629"/>
    <tag k="addr:street" v="Esterndorfer Straße"/>
  </node>
  <node id="335372432" version="3" timestamp="2009-09-01T21:00:04Z" uid="36809" user="pfoten_weg_!_" changeset="2343001" lat="47.8695066" lon="11.8326104">
    <tag k="addr:city" v="Holzolling"/>
    <tag k="addr:country" v="DE"/>
    <tag k="addr:housenumber" v="23"/>
    <tag k="addr:postcode" v="83629"/>
    <tag k="addr:street" v="Esterndorfer Straße"/>
  </node>
  <node id="335372604" version="3" timestamp="2009-09-01T21:00:03Z" uid="36809" user="pfoten_weg_!_" changeset="2343001" lat="47.8694259" lon="11.832988">
    <tag k="addr:city" v="Holzolling"/>
    <tag k="addr:country" v="DE"/>
    <tag k="addr:housenumber" v="25"/>
    <tag k="addr:postcode" v="83629"/>
    <tag k="addr:street" v="Esterndorfer Straße"/>
  </node>
  <node id="335372999" version="4" timestamp="2009-09-01T20:59:52Z" uid="36809" user="pfoten_weg_!_" changeset="2343001" lat="47.8697426" lon="11.8291857">
    <tag k="addr:city" v="Holzolling"/>
    <tag k="addr:country" v="DE"/>
    <tag k="addr:housenumber" v="2"/>
    <tag k="addr:postcode" v="83629"/>
    <tag k="addr:street" v="Esterndorfer Straße"/>
  </node>
  <node id="335373157" version="3" timestamp="2009-09-01T20:59:49Z" uid="36809" user="pfoten_weg_!_" changeset="2343001" lat="47.869875" lon="11.8290141">
    <tag k="addr:city" v="Holzolling"/>
    <tag k="addr:country" v="DE"/>
    <tag k="addr:housenumber" v="2a"/>
    <tag k="addr:postcode" v="83629"/>
    <tag k="addr:street" v="Esterndorfer Straße"/>
  </node>
  <node id="335373389" version="3" timestamp="2009-09-01T21:00:25Z" uid="36809" user="pfoten_weg_!_" changeset="2343001" lat="47.8696735" lon="11.8295806">
    <tag k="addr:city" v="Holzolling"/>
    <tag k="addr:country" v="DE"/>
    <tag k="addr:housenumber" v="4"/>
    <tag k="addr:postcode" v="83629"/>
    <tag k="addr:street" v="Esterndorfer Straße"/>
  </node>
  <node id="335373601" version="3" timestamp="2009-09-01T21:00:22Z" uid="36809" user="pfoten_weg_!_" changeset="2343001" lat="47.8690344" lon="11.8300612">
    <tag k="addr:city" v="Holzolling"/>
    <tag k="addr:country" v="DE"/>
    <tag k="addr:housenumber" v="6"/>
    <tag k="addr:postcode" v="83629"/>
    <tag k="addr:street" v="Esterndorfer Straße"/>
  </node>
  <node id="335373848" version="3" timestamp="2009-09-01T21:00:17Z" uid="36809" user="pfoten_weg_!_" changeset="2343001" lat="47.8695296" lon="11.8301985">
    <tag k="addr:city" v="Holzolling"/>
    <tag k="addr:country" v="DE"/>
    <tag k="addr:housenumber" v="8"/>
    <tag k="addr:postcode" v="83629"/>
    <tag k="addr:street" v="Esterndorfer Straße"/>
  </node>
  <node id="335374103" version="3" timestamp="2009-09-01T21:00:14Z" uid="36809" user="pfoten_weg_!_" changeset="2343001" lat="47.8694029" lon="11.8311255">
    <tag k="addr:city" v="Holzolling"/>
    <tag k="addr:country" v="DE"/>
    <tag k="addr:housenumber" v="10"/>
    <tag k="addr:postcode" v="83629"/>
    <tag k="addr:street" v="Esterndorfer Straße"/>
  </node>
  <node id="335374202" version="3" timestamp="2009-09-01T21:00:11Z" uid="36809" user="pfoten_weg_!_" changeset="2343001" lat="47.8693568" lon="11.8314517">
    <tag k="addr:city" v="Holzolling"/>
    <tag k="addr:country" v="DE"/>
    <tag k="addr:housenumber" v="12"/>
    <tag k="addr:postcode" v="83629"/>
    <tag k="addr:street" v="Esterndorfer Straße"/>
  </node>
  <node id="335374407" version="3" timestamp="2009-09-01T21:00:45Z" uid="36809" user="pfoten_weg_!_" changeset="2343001" lat="47.8693165" lon="11.8318379">
    <tag k="addr:city" v="Holzolling"/>
    <tag k="addr:country" v="DE"/>
    <tag k="addr:housenumber" v="14"/>
    <tag k="addr:postcode" v="83629"/>
    <tag k="addr:street" v="Esterndorfer Straße"/>
  </node>
  <node id="335374545" version="3" timestamp="2009-09-01T21:00:46Z" uid="36809" user="pfoten_weg_!_" changeset="2343001" lat="47.8692532" lon="11.8322585">
    <tag k="addr:city" v="Holzolling"/>
    <tag k="addr:country" v="DE"/>
    <tag k="addr:housenumber" v="16"/>
    <tag k="addr:postcode" v="83629"/>
    <tag k="addr:street" v="Esterndorfer Straße"/>
  </node>
  <node id="335374746" version="3" timestamp="2009-09-01T21:00:41Z" uid="36809" user="pfoten_weg_!_" changeset="2343001" lat="47.8691726" lon="11.8326447">
    <tag k="addr:city" v="Holzolling"/>
    <tag k="addr:country" v="DE"/>
    <tag k="addr:housenumber" v="18"/>
    <tag k="addr:postcode" v="83629"/>
    <tag k="addr:street" v="Esterndorfer Straße"/>
  </node>
  <node id="335374911" version="3" timestamp="2009-09-01T21:00:28Z" uid="36809" user="pfoten_weg_!_" changeset="2343001" lat="47.8689826" lon="11.8331597">
    <tag k="addr:city" v="Holzolling"/>
    <tag k="addr:country" v="DE"/>
    <tag k="addr:housenumber" v="22"/>
    <tag k="addr:postcode" v="83629"/>
    <tag k="addr:street" v="Esterndorfer Straße"/>
  </node>
  <node id="335375332" version="2" timestamp="2009-09-01T21:00:27Z" uid="36809" user="pfoten_weg_!_" changeset="2343001" lat="47.8689884" lon="11.8333743"/>
  <node id="335375333" version="2" timestamp="2009-09-01T21:00:27Z" uid="36809" user="pfoten_weg_!_" changeset="2343001" lat="47.8691388" lon="11.8330371"/>
  <node id="335376062" version="6" timestamp="2009-09-01T21:00:53Z" uid="36809" user="pfoten_weg_!_" changeset="2343001" lat="47.8690171" lon="11.829366"/>
  <node id="335377525" version="4" timestamp="2009-09-01T21:03:18Z" uid="36809" user="pfoten_weg_!_" changeset="2343001" lat="47.8759663" lon="11.8193667">
    <tag k="addr:city" v="Holzolling"/>
    <tag k="addr:country" v="DE"/>
    <tag k="addr:housenumber" v="31"/>
    <tag k="addr:postcode" v="83629"/>
    <tag k="addr:street" v="Westerhamer Straße"/>
    <tag k="name" v="Johann-Nepomuk-Werner-Schule"/>
  </node>
  <node id="335377693" version="1" timestamp="2009-01-22T14:32:09Z" uid="55964" user="Evan Sebire" changeset="825723" lat="-37.7603234" lon="145.328264">
    <tag k="created_by" v="Merkaartor 0.13"/>
    <tag k="highway" v="traffic_signals"/>
  </node>
  <node id="335377693" version="2" timestamp="2011-03-07T00:42:41Z" uid="4467" user="Rosscoe" changeset="7480147" lat="-37.7603234" lon="145.328264">
    <tag k="created_by" v="Merkaartor 0.13"/>
    <tag k="highway" v="traffic_signals"/>
  </node>
  <node id="335377704" version="1" timestamp="2009-01-22T14:32:11Z" uid="55964" user="Evan Sebire" changeset="825723" lat="-37.7604926" lon="145.3282068">
    <tag k="created_by" v="Merkaartor 0.13"/>
  </node>
  <node id="335377719" version="7" timestamp="2009-09-01T21:03:23Z" uid="36809" user="pfoten_weg_!_" changeset="2343001" lat="47.8770636" lon="11.8195409"/>
  <node id="335377796" version="1" timestamp="2009-01-22T14:32:19Z" uid="55964" user="Evan Sebire" changeset="825723" lat="-37.759995" lon="145.3114525">
    <tag k="created_by" v="Merkaartor 0.13"/>
  </node>
  <node id="335377796" version="2" timestamp="2009-01-31T14:44:12Z" uid="55964" user="Evan Sebire" changeset="860182" lat="-37.759995" lon="145.3114525">
    <tag k="created_by" v="Merkaartor 0.13"/>
  </node>
  <node id="335377802" version="1" timestamp="2009-01-22T14:32:21Z" uid="55964" user="Evan Sebire" changeset="825723" lat="-37.7599185" lon="145.3114314">
    <tag k="created_by" v="Merkaartor 0.13"/>
  </node>
  <node id="335377802" version="2" timestamp="2009-01-31T14:44:10Z" uid="55964" user="Evan Sebire" changeset="860182" lat="-37.7599185" lon="145.3114314">
    <tag k="created_by" v="Merkaartor 0.13"/>
  </node>
  <node id="335377803" version="1" timestamp="2009-01-22T14:32:21Z" uid="55964" user="Evan Sebire" changeset="825723" lat="-37.7598237" lon="145.3113765">
    <tag k="created_by" v="Merkaartor 0.13"/>
  </node>
  <node id="335377803" version="2" timestamp="2009-01-31T14:44:11Z" uid="55964" user="Evan Sebire" changeset="860182" lat="-37.7598237" lon="145.3113765">
    <tag k="created_by" v="Merkaartor 0.13"/>
  </node>
  <node id="335377808" version="1" timestamp="2009-01-22T14:32:22Z" uid="55964" user="Evan Sebire" changeset="825723" lat="-37.760017" lon="145.3117664">
    <tag k="created_by" v="Merkaartor 0.13"/>
    <tag k="highway" v="traffic_signals"/>
  </node>
  <node id="335377808" version="2" timestamp="2009-01-31T14:44:07Z" uid="55964" user="Evan Sebire" changeset="860182" lat="-37.760017" lon="145.3117664">
    <tag k="created_by" v="Merkaartor 0.13"/>
  </node>
  <node id="335377808" version="4" timestamp="2011-03-07T00:42:39Z" uid="4467" user="Rosscoe" changeset="7480147" lat="-37.7599977" lon="145.3117226"/>
  <node id="335378228" version="3" timestamp="2009-09-01T21:03:10Z" uid="36809" user="pfoten_weg_!_" changeset="2343001" lat="47.871775" lon="11.825186">
    <tag k="addr:city" v="Holzolling"/>
    <tag k="addr:country" v="DE"/>
    <tag k="addr:housenumber" v="1"/>
    <tag k="addr:postcode" v="83629"/>
    <tag k="addr:street" v="Talblick"/>
  </node>
  <node id="335378448" version="3" timestamp="2009-09-01T21:03:57Z" uid="36809" user="pfoten_weg_!_" changeset="2343001" lat="47.8720802" lon="11.8252461">
    <tag k="addr:city" v="Holzolling"/>
    <tag k="addr:country" v="DE"/>
    <tag k="addr:housenumber" v="3"/>
    <tag k="addr:postcode" v="83629"/>
    <tag k="addr:street" v="Talblick"/>
  </node>
  <node id="335378567" version="3" timestamp="2009-09-01T21:04:00Z" uid="36809" user="pfoten_weg_!_" changeset="2343001" lat="47.8716311" lon="11.8258298">
    <tag k="addr:city" v="Holzolling"/>
    <tag k="addr:country" v="DE"/>
    <tag k="addr:housenumber" v="2"/>
    <tag k="addr:postcode" v="83629"/>
    <tag k="addr:street" v="Talblick"/>
  </node>
  <node id="335378838" version="3" timestamp="2009-09-01T21:04:06Z" uid="36809" user="pfoten_weg_!_" changeset="2343001" lat="47.8719305" lon="11.8259585">
    <tag k="addr:city" v="Holzolling"/>
    <tag k="addr:country" v="DE"/>
    <tag k="addr:housenumber" v="4"/>
    <tag k="addr:postcode" v="83629"/>
    <tag k="addr:street" v="Talblick"/>
  </node>
  <node id="335379983" version="4" timestamp="2009-02-01T19:20:45Z" uid="6975" user="ulfl" changeset="27333" lat="48.0833453" lon="16.259962">
    <tag k="leisure" v="pitch"/>
    <tag k="sport" v="soccer"/>
  </node>
</osm>
