<?xml version='1.0' encoding='UTF-8'?>
<osm version="0.6" generator="libosmium/2.20.0">
  <node id="336960839" version="1" timestamp="2009-01-26T03:24:01Z" uid="4467" user="Rosscoe" changeset="840070" lat="-20.2737108" lon="148.7043666">
    <tag k="amenity" v="restaurant"/>
    <tag k="cuisine" v="chinese"/>
    <tag k="name" v="Golden Dragon"/>
  </node>
  <node id="336960839" version="2" timestamp="2009-01-28T01:55:44Z" uid="4467" user="Rosscoe" changeset="848145" lat="-20.2737108" lon="148.7043666">
    <tag k="addr:city" v="Cannonvale"/>
    <tag k="addr:country" v="AU"/>
    <tag k="addr:housenumber" v="252"/>
    <tag k="addr:postcode" v="4802"/>
    <tag k="addr:street" v="Shute Harbour Road"/>
    <tag k="amenity" v="restaurant"/>
    <tag k="cuisine" v="chinese"/>
    <tag k="name" v="Golden Temple"/>
  </node>
  <node id="336961363" version="1" timestamp="2009-01-26T03:24:49Z" uid="4467" user="Rosscoe" changeset="840070" lat="-20.274876" lon="148.7040489">
    <tag k="name" v="Bush Village Backpackers"/>
    <tag k="tourism" v="hostel"/>
  </node>
  <node id="336961363" version="2" timestamp="2009-08-18T12:48:57Z" uid="4467" user="Rosscoe" changeset="2189542" lat="-20.2749567" lon="148.7040394">
    <tag k="name" v="Bush Village Backpackers"/>
    <tag k="tourism" v="hostel"/>
  </node>
  <node id="336962600" version="1" timestamp="2009-01-26T03:26:38Z" uid="4467" user="Rosscoe" changeset="840070" lat="-20.2948042" lon="148.673886">
    <tag k="addr:city" v="Cannonvale"/>
    <tag k="addr:country" v="AU"/>
    <tag k="addr:housenumber" v="1742"/>
    <tag k="addr:postcode" v="4802"/>
    <tag k="addr:street" v="Shute Harbour Road"/>
  </node>
  <node id="336962600" version="2" timestamp="2009-01-26T03:49:06Z" uid="4467" user="Rosscoe" changeset="840070" lat="-20.2948042" lon="148.673886">
    <tag k="addr:city" v="Cannonvale"/>
    <tag k="addr:country" v="AU"/>
    <tag k="addr:housenumber" v="1742"/>
    <tag k="addr:postcode" v="4802"/>
    <tag k="addr:street" v="Shute Harbour Road"/>
    <tag k="source" v="survey"/>
  </node>
  <node id="336967019" version="1" timestamp="2009-01-26T03:33:48Z" uid="4467" user="Rosscoe" changeset="840070" lat="-20.2967104" lon="148.6713045"/>
  <node id="336967028" version="1" timestamp="2009-01-26T03:33:49Z" uid="4467" user="Rosscoe" changeset="840070" lat="-20.2975998" lon="148.6716451"/>
  <node id="336967039" version="1" timestamp="2009-01-26T03:33:50Z" uid="4467" user="Rosscoe" changeset="840070" lat="-20.2982054" lon="148.6714181"/>
  <node id="336967049" version="1" timestamp="2009-01-26T03:33:51Z" uid="4467" user="Rosscoe" changeset="840070" lat="-20.2985839" lon="148.6712288"/>
  <node id="336967053" version="1" timestamp="2009-01-26T03:33:52Z" uid="4467" user="Rosscoe" changeset="840070" lat="-20.2991895" lon="148.671172"/>
  <node id="336967066" version="1" timestamp="2009-01-26T03:33:53Z" uid="4467" user="Rosscoe" changeset="840070" lat="-20.2997572" lon="148.6713613"/>
  <node id="336967081" version="1" timestamp="2009-01-26T03:33:54Z" uid="4467" user="Rosscoe" changeset="840070" lat="-20.3004764" lon="148.671929"/>
  <node id="336967094" version="1" timestamp="2009-01-26T03:33:55Z" uid="4467" user="Rosscoe" changeset="840070" lat="-20.300571" lon="148.6726103"/>
  <node id="336967109" version="1" timestamp="2009-01-26T03:33:56Z" uid="4467" user="Rosscoe" changeset="840070" lat="-20.3005142" lon="148.6735376"/>
  <node id="336967121" version="1" timestamp="2009-01-26T03:33:57Z" uid="4467" user="Rosscoe" changeset="840070" lat="-20.3006278" lon="148.6747109"/>
  <node id="336967136" version="1" timestamp="2009-01-26T03:33:58Z" uid="4467" user="Rosscoe" changeset="840070" lat="-20.3007413" lon="148.6752597"/>
  <node id="336969140" version="1" timestamp="2009-01-26T03:37:15Z" uid="4467" user="Rosscoe" changeset="840070" lat="-20.2807361" lon="148.6902947">
    <tag k="addr:city" v="Cannonvale"/>
    <tag k="addr:country" v="AU"/>
    <tag k="addr:housenumber" v="91"/>
    <tag k="addr:postcode" v="4802"/>
    <tag k="addr:street" v="Shute Harbour Road"/>
  </node>
  <node id="336969140" version="2" timestamp="2009-01-26T03:49:07Z" uid="4467" user="Rosscoe" changeset="840070" lat="-20.2807361" lon="148.6902947">
    <tag k="addr:city" v="Cannonvale"/>
    <tag k="addr:country" v="AU"/>
    <tag k="addr:housenumber" v="91"/>
    <tag k="addr:postcode" v="4802"/>
    <tag k="addr:street" v="Shute Harbour Road"/>
    <tag k="source" v="survey"/>
  </node>
  <node id="336969140" version="3" timestamp="2009-12-01T01:38:16Z" uid="4467" user="Rosscoe" changeset="3261250" lat="-20.2807056" lon="148.6902566">
    <tag k="addr:city" v="Cannonvale"/>
    <tag k="addr:country" v="AU"/>
    <tag k="addr:housenumber" v="91"/>
    <tag k="addr:postcode" v="4802"/>
    <tag k="addr:street" v="Shute Harbour Road"/>
    <tag k="source" v="survey"/>
  </node>
  <node id="336969150" version="1" timestamp="2009-01-26T03:37:16Z" uid="4467" user="Rosscoe" changeset="840070" lat="-20.2809084" lon="148.6905633">
    <tag k="addr:city" v="Cannonvale"/>
    <tag k="addr:country" v="AU"/>
    <tag k="addr:housenumber" v="106"/>
    <tag k="addr:postcode" v="4802"/>
    <tag k="addr:street" v="Shute Harbour Road"/>
    <tag k="name" v="Home Hardware"/>
    <tag k="shop" v="doityourself"/>
  </node>
  <node id="336969240" version="3" timestamp="2011-04-23T06:33:37Z" uid="4467" user="Rosscoe" changeset="7940722" lat="-30.7378561" lon="121.4636895"/>
  <node id="336969243" version="2" timestamp="2011-04-17T06:25:33Z" uid="4467" user="Rosscoe" changeset="7884195" lat="-30.7340997" lon="121.4677784"/>
  <node id="336969367" version="5" timestamp="2011-04-17T06:25:17Z" uid="4467" user="Rosscoe" changeset="7884195" lat="-30.7511107" lon="121.4573988"/>
  <node id="336969570" version="6" timestamp="2010-05-07T13:57:23Z" uid="4467" user="Rosscoe" changeset="4630294" lat="-30.7411571" lon="121.4683505"/>
  <node id="336969570" version="8" timestamp="2011-04-23T06:33:47Z" uid="4467" user="Rosscoe" changeset="7940722" lat="-30.7411443" lon="121.468359">
    <tag k="highway" v="traffic_signals"/>
  </node>
</osm>
