<?xml version='1.0' encoding='UTF-8'?>
<osm version="0.6" generator="libosmium/2.20.0">
  <node id="337513902" version="1" timestamp="2009-01-26T14:20:35Z" uid="30632" user="antblant" changeset="839323" lat="53.4613698" lon="14.4978761">
    <tag k="name" v="Tor Kolarski"/>
    <tag k="railway" v="tram_stop"/>
  </node>
  <node id="337513902" version="2" timestamp="2009-01-26T14:20:53Z" uid="30632" user="antblant" changeset="839323" lat="53.4613698" lon="14.4978761">
    <tag k="name" v="Tor kolarski"/>
    <tag k="railway" v="tram_stop"/>
  </node>
  <node id="337515021" version="2" timestamp="2009-04-11T18:53:47Z" uid="20587" user="balrog-kun" changeset="416296" lat="50.84988" lon="24.32098">
    <tag k="name" v="Володимир-Волинський"/>
    <tag k="place" v="town"/>
  </node>
  <node id="337515954" version="2" timestamp="2009-04-11T19:00:59Z" uid="20587" user="balrog-kun" changeset="416296" lat="50.8025" lon="23.9883">
    <tag k="name" v="Амбуків"/>
    <tag k="name:pl" v="Ambuków"/>
    <tag k="place" v="village"/>
  </node>
  <node id="337516379" version="1" timestamp="2009-01-26T14:22:54Z" uid="30632" user="antblant" changeset="839323" lat="53.4686665" lon="14.488229">
    <tag k="name" v="Kasyno"/>
    <tag k="railway" v="tram_stop"/>
  </node>
</osm>
