<?xml version='1.0' encoding='UTF-8'?>
<osm version="0.6" generator="libosmium/2.20.0">
  <node id="337576644" version="4" timestamp="2009-02-07T15:55:35Z" uid="6975" user="ulfl" changeset="238208" lat="49.00452" lon="38.36941">
    <tag k="is_in" v="Луганська обл., Україна"/>
    <tag k="name" v="Рубіжне"/>
    <tag k="name:ru" v="Рубежное"/>
    <tag k="place" v="town"/>
  </node>
  <node id="337577984" version="3" timestamp="2009-02-07T15:55:35Z" uid="6975" user="ulfl" changeset="238208" lat="48.97877" lon="38.58192">
    <tag k="is_in" v="Луганська обл., Україна"/>
    <tag k="name" v="Пурдівка"/>
    <tag k="place" v="village"/>
  </node>
  <node id="337578030" version="3" timestamp="2009-02-07T15:55:34Z" uid="6975" user="ulfl" changeset="238208" lat="48.97739" lon="38.44665">
    <tag k="is_in" v="Луганська обл., Україна"/>
    <tag k="name" v="Воєводівка"/>
    <tag k="place" v="village"/>
  </node>
  <node id="337578208" version="3" timestamp="2009-02-07T15:55:34Z" uid="6975" user="ulfl" changeset="238208" lat="48.97259" lon="38.62724">
    <tag k="is_in" v="Луганська обл., Україна"/>
    <tag k="name" v="Олександрівка"/>
    <tag k="place" v="village"/>
  </node>
  <node id="337579120" version="3" timestamp="2009-02-07T15:55:35Z" uid="6975" user="ulfl" changeset="238208" lat="48.95302" lon="38.35773">
    <tag k="is_in" v="Луганська обл., Україна"/>
    <tag k="name" v="Новодружеськ"/>
    <tag k="place" v="town"/>
  </node>
  <node id="337579305" version="3" timestamp="2009-02-07T15:55:36Z" uid="6975" user="ulfl" changeset="238208" lat="48.94752" lon="38.40786">
    <tag k="is_in" v="Луганська обл., Україна"/>
    <tag k="name" v="Синецький"/>
    <tag k="place" v="village"/>
  </node>
  <node id="337579368" version="4" timestamp="2009-02-07T15:55:35Z" uid="6975" user="ulfl" changeset="238208" lat="48.94512" lon="38.47927">
    <tag k="is_in" v="Луганська обл., Україна"/>
    <tag k="name" v="Сєверодонецьк"/>
    <tag k="name:ru" v="Северодонецк"/>
    <tag k="place" v="town"/>
  </node>
  <node id="337579837" version="3" timestamp="2009-02-07T15:55:36Z" uid="6975" user="ulfl" changeset="238208" lat="48.93001" lon="38.44185">
    <tag k="is_in" v="Луганська обл., Україна"/>
    <tag k="name" v="Павлоград"/>
    <tag k="place" v="village"/>
  </node>
  <node id="337579968" version="3" timestamp="2009-02-07T15:55:34Z" uid="6975" user="ulfl" changeset="238208" lat="48.92658" lon="38.55446">
    <tag k="is_in" v="Луганська обл., Україна"/>
    <tag k="name" v="Метьолкіне"/>
    <tag k="place" v="village"/>
  </node>
</osm>
