<?xml version='1.0' encoding='UTF-8'?>
<osm version="0.6" generator="libosmium/2.20.0">
  <node id="337675888" version="1" timestamp="2009-01-26T16:49:11Z" uid="30632" user="antblant" changeset="839323" lat="53.421203" lon="14.4993521">
    <tag k="name" v="Ku Słońcu"/>
    <tag k="railway" v="tram_stop"/>
  </node>
  <node id="337675888" version="2" timestamp="2009-04-21T22:42:27Z" uid="30632" user="antblant" changeset="890110" lat="53.4211343" lon="14.4991825">
    <tag k="name" v="Ku Słońcu"/>
    <tag k="railway" v="tram_stop"/>
  </node>
  <node id="337676230" version="5" timestamp="2009-05-17T10:42:54Z" uid="43863" user="Rundling" changeset="1220325" lat="52.6129011" lon="10.0934439"/>
  <node id="337677034" version="1" timestamp="2009-01-26T16:50:00Z" uid="30632" user="antblant" changeset="839323" lat="53.422686" lon="14.4959218">
    <tag k="name" v="Kręta"/>
    <tag k="railway" v="tram_stop"/>
  </node>
  <node id="337677034" version="2" timestamp="2010-04-28T19:47:34Z" uid="20587" user="balrog-kun" changeset="4552978" lat="53.4226667" lon="14.4959264">
    <tag k="name" v="Kręta"/>
    <tag k="railway" v="tram_stop"/>
  </node>
  <node id="337678608" version="1" timestamp="2009-01-26T16:51:17Z" uid="30632" user="antblant" changeset="839323" lat="53.421424" lon="14.4926601">
    <tag k="name" v="Kwiatowa"/>
    <tag k="railway" v="tram_stop"/>
  </node>
  <node id="337678608" version="2" timestamp="2010-04-28T19:47:35Z" uid="20587" user="balrog-kun" changeset="4552978" lat="53.421447" lon="14.4926871">
    <tag k="name" v="Kwiatowa"/>
    <tag k="railway" v="tram_stop"/>
  </node>
</osm>
