<?xml version='1.0' encoding='UTF-8'?>
<osm version="0.6" generator="libosmium/2.20.0">
  <node id="339811616" version="5" timestamp="2011-01-24T23:23:34Z" uid="23543" user="jkjk" changeset="7079318" lat="43.9083997" lon="125.3384321"/>
  <node id="339811617" version="5" timestamp="2011-01-24T23:23:30Z" uid="23543" user="jkjk" changeset="7079318" lat="43.9088797" lon="125.3454116"/>
  <node id="339811618" version="5" timestamp="2011-01-24T23:23:29Z" uid="23543" user="jkjk" changeset="7079318" lat="43.9107743" lon="125.3487722"/>
  <node id="339811619" version="5" timestamp="2011-01-24T23:23:23Z" uid="23543" user="jkjk" changeset="7079318" lat="43.9135239" lon="125.350271"/>
  <node id="339811621" version="5" timestamp="2011-01-24T23:23:24Z" uid="23543" user="jkjk" changeset="7079318" lat="43.9352229" lon="125.3418396"/>
  <node id="339814662" version="3" timestamp="2009-09-01T11:16:33Z" uid="36809" user="pfoten_weg_!_" changeset="2336357" lat="48.1356126" lon="11.5259008">
    <tag k="addr:city" v="München"/>
    <tag k="addr:country" v="DE"/>
    <tag k="addr:housenumber" v="9"/>
    <tag k="addr:postcode" v="80686"/>
    <tag k="addr:street" v="Hansastraße"/>
  </node>
  <node id="339814664" version="3" timestamp="2009-09-01T11:16:32Z" uid="36809" user="pfoten_weg_!_" changeset="2336357" lat="48.1352804" lon="11.5246889">
    <tag k="addr:city" v="München"/>
    <tag k="addr:country" v="DE"/>
    <tag k="addr:housenumber" v="2"/>
    <tag k="addr:postcode" v="80686"/>
    <tag k="addr:street" v="Hansastraße"/>
  </node>
  <node id="339814667" version="3" timestamp="2009-09-01T11:16:31Z" uid="36809" user="pfoten_weg_!_" changeset="2336357" lat="48.1344996" lon="11.5258439">
    <tag k="addr:city" v="München"/>
    <tag k="addr:country" v="DE"/>
    <tag k="addr:housenumber" v="12"/>
    <tag k="addr:postcode" v="80686"/>
    <tag k="addr:street" v="Hansastraße"/>
  </node>
  <node id="339814669" version="3" timestamp="2009-09-01T11:16:33Z" uid="36809" user="pfoten_weg_!_" changeset="2336357" lat="48.1343245" lon="11.5261178">
    <tag k="addr:city" v="München"/>
    <tag k="addr:country" v="DE"/>
    <tag k="addr:housenumber" v="14"/>
    <tag k="addr:postcode" v="80686"/>
    <tag k="addr:street" v="Hansastraße"/>
  </node>
  <node id="339814680" version="3" timestamp="2009-09-01T11:16:34Z" uid="36809" user="pfoten_weg_!_" changeset="2336357" lat="48.1331918" lon="11.527385">
    <tag k="addr:city" v="München"/>
    <tag k="addr:country" v="DE"/>
    <tag k="addr:housenumber" v="24"/>
    <tag k="addr:postcode" v="80686"/>
    <tag k="addr:street" v="Hansastraße"/>
  </node>
  <node id="339814683" version="3" timestamp="2009-09-01T11:16:34Z" uid="36809" user="pfoten_weg_!_" changeset="2336357" lat="48.1331389" lon="11.5277528">
    <tag k="addr:city" v="München"/>
    <tag k="addr:country" v="DE"/>
    <tag k="addr:housenumber" v="26"/>
    <tag k="addr:postcode" v="80686"/>
    <tag k="addr:street" v="Hansastraße"/>
  </node>
  <node id="339814685" version="3" timestamp="2009-09-01T11:16:34Z" uid="36809" user="pfoten_weg_!_" changeset="2336357" lat="48.1328739" lon="11.5278223">
    <tag k="addr:city" v="München"/>
    <tag k="addr:country" v="DE"/>
    <tag k="addr:housenumber" v="28"/>
    <tag k="addr:postcode" v="80686"/>
    <tag k="addr:street" v="Hansastraße"/>
  </node>
  <node id="339814693" version="3" timestamp="2009-09-01T11:16:36Z" uid="36809" user="pfoten_weg_!_" changeset="2336357" lat="48.132821" lon="11.5282093">
    <tag k="addr:city" v="München"/>
    <tag k="addr:country" v="DE"/>
    <tag k="addr:housenumber" v="30"/>
    <tag k="addr:postcode" v="80686"/>
    <tag k="addr:street" v="Hansastraße"/>
  </node>
  <node id="339814697" version="3" timestamp="2009-09-01T11:16:35Z" uid="36809" user="pfoten_weg_!_" changeset="2336357" lat="48.1325494" lon="11.528249">
    <tag k="addr:city" v="München"/>
    <tag k="addr:country" v="DE"/>
    <tag k="addr:housenumber" v="32"/>
    <tag k="addr:postcode" v="80686"/>
    <tag k="addr:street" v="Hansastraße"/>
  </node>
  <node id="339814704" version="3" timestamp="2009-09-01T11:16:36Z" uid="36809" user="pfoten_weg_!_" changeset="2336357" lat="48.1324997" lon="11.5286608">
    <tag k="addr:city" v="München"/>
    <tag k="addr:country" v="DE"/>
    <tag k="addr:housenumber" v="34"/>
    <tag k="addr:postcode" v="80686"/>
    <tag k="addr:street" v="Hansastraße"/>
  </node>
  <node id="339816587" version="2" timestamp="2009-03-08T11:15:36Z" uid="34428" user="usm78-gis" changeset="756383" lat="59.9555058" lon="30.3180245"/>
  <node id="339816723" version="3" timestamp="2009-09-01T11:16:44Z" uid="36809" user="pfoten_weg_!_" changeset="2336357" lat="48.1315384" lon="11.5275645">
    <tag k="amenity" v="biergarten"/>
    <tag k="name" v="&quot;Villa Flora&quot;"/>
  </node>
  <node id="339816736" version="3" timestamp="2009-09-01T11:16:43Z" uid="36809" user="pfoten_weg_!_" changeset="2336357" lat="48.1326249" lon="11.525563">
    <tag k="addr:city" v="München"/>
    <tag k="addr:country" v="DE"/>
    <tag k="addr:housenumber" v="7"/>
    <tag k="addr:postcode" v="80686"/>
    <tag k="addr:street" v="Dillwächterstraße"/>
  </node>
  <node id="339816738" version="3" timestamp="2009-09-01T11:16:44Z" uid="36809" user="pfoten_weg_!_" changeset="2336357" lat="48.1327244" lon="11.5257158">
    <tag k="addr:city" v="München"/>
    <tag k="addr:country" v="DE"/>
    <tag k="addr:housenumber" v="5"/>
    <tag k="addr:postcode" v="80686"/>
    <tag k="addr:street" v="Dillwächterstraße"/>
  </node>
  <node id="339816749" version="3" timestamp="2009-09-01T11:16:42Z" uid="36809" user="pfoten_weg_!_" changeset="2336357" lat="48.133662" lon="11.5269601">
    <tag k="addr:city" v="München"/>
    <tag k="addr:country" v="DE"/>
    <tag k="addr:housenumber" v="20"/>
    <tag k="addr:postcode" v="80686"/>
    <tag k="addr:street" v="Hansastraße"/>
  </node>
  <node id="339816750" version="3" timestamp="2009-09-01T11:16:43Z" uid="36809" user="pfoten_weg_!_" changeset="2336357" lat="48.1350699" lon="11.5256678">
    <tag k="addr:city" v="München"/>
    <tag k="addr:country" v="DE"/>
    <tag k="addr:housenumber" v="15"/>
    <tag k="addr:postcode" v="80686"/>
    <tag k="addr:street" v="Hansastraße"/>
  </node>
  <node id="339816752" version="3" timestamp="2009-09-01T11:16:42Z" uid="36809" user="pfoten_weg_!_" changeset="2336357" lat="48.1347509" lon="11.5261379">
    <tag k="addr:city" v="München"/>
    <tag k="addr:country" v="DE"/>
    <tag k="addr:housenumber" v="17"/>
    <tag k="addr:postcode" v="80686"/>
    <tag k="addr:street" v="Hansastraße"/>
  </node>
  <node id="339817234" version="3" timestamp="2010-10-02T16:21:48Z" uid="9581" user="Lobelt" changeset="5937459" lat="49.4164729" lon="9.0413961"/>
  <node id="339817235" version="3" timestamp="2010-10-02T16:19:22Z" uid="9581" user="Lobelt" changeset="5937459" lat="49.4164922" lon="9.0416044"/>
  <node id="339817236" version="3" timestamp="2010-10-02T16:20:33Z" uid="9581" user="Lobelt" changeset="5937459" lat="49.4164195" lon="9.0419314"/>
  <node id="339817239" version="2" timestamp="2010-10-02T16:22:42Z" uid="9581" user="Lobelt" changeset="5937459" lat="49.415067" lon="9.0428318"/>
  <node id="339817240" version="2" timestamp="2010-10-02T16:21:56Z" uid="9581" user="Lobelt" changeset="5937459" lat="49.4148576" lon="9.0425879"/>
  <node id="339817245" version="3" timestamp="2010-10-02T16:18:59Z" uid="9581" user="Lobelt" changeset="5937459" lat="49.4132642" lon="9.0432741"/>
  <node id="339817263" version="3" timestamp="2009-09-01T11:16:42Z" uid="36809" user="pfoten_weg_!_" changeset="2336357" lat="48.1315066" lon="11.529644">
    <tag k="addr:city" v="München"/>
    <tag k="addr:country" v="DE"/>
    <tag k="addr:housenumber" v="44"/>
    <tag k="addr:postcode" v="80686"/>
    <tag k="addr:street" v="Hansastraße"/>
  </node>
  <node id="339817265" version="3" timestamp="2009-09-01T11:16:41Z" uid="36809" user="pfoten_weg_!_" changeset="2336357" lat="48.1324452" lon="11.5298706">
    <tag k="addr:city" v="München"/>
    <tag k="addr:country" v="DE"/>
    <tag k="addr:housename" v="Frauenhofer Institut"/>
    <tag k="addr:housenumber" v="27c"/>
    <tag k="addr:postcode" v="80686"/>
    <tag k="addr:street" v="Hansastraße"/>
  </node>
  <node id="339818119" version="3" timestamp="2009-09-01T11:16:44Z" uid="36809" user="pfoten_weg_!_" changeset="2336357" lat="48.1328376" lon="11.5288385">
    <tag k="addr:city" v="München"/>
    <tag k="addr:country" v="DE"/>
    <tag k="addr:housenumber" v="27"/>
    <tag k="addr:postcode" v="80686"/>
    <tag k="addr:street" v="Hansastraße"/>
  </node>
</osm>
