<?xml version='1.0' encoding='UTF-8'?>
<osm version="0.6" generator="libosmium/2.20.0">
  <node id="340513048" version="5" timestamp="2010-09-14T14:20:42Z" uid="33382" user="de_muur" changeset="5778921" lat="53.3619954" lon="9.7220863"/>
  <node id="340513058" version="3" timestamp="2010-09-14T14:20:59Z" uid="33382" user="de_muur" changeset="5778921" lat="53.3601876" lon="9.7154734"/>
  <node id="340513069" version="3" timestamp="2010-09-14T14:20:48Z" uid="33382" user="de_muur" changeset="5778921" lat="53.3587898" lon="9.7105094"/>
  <node id="340515275" version="3" timestamp="2009-03-05T19:15:43Z" uid="58091" user="Andreas M" changeset="741039" lat="48.2558815" lon="16.3410831">
    <tag k="addr:city" v="Wien"/>
    <tag k="addr:country" v="AT"/>
    <tag k="addr:housenumber" v="11"/>
    <tag k="addr:postcode" v="1190"/>
    <tag k="addr:street" v="Himmelstraße"/>
    <tag k="amenity" v="post_office"/>
    <tag k="name" v="1190 Wien"/>
    <tag k="note" v="position should be checked"/>
    <tag k="postal_code" v="1196"/>
    <tag k="ref" v="1196"/>
    <tag k="type" v="Postfiliale"/>
  </node>
  <node id="340515317" version="3" timestamp="2009-04-15T13:16:25Z" uid="58091" user="Andreas M" changeset="564950" lat="48.2259355" lon="16.4229547">
    <tag k="addr:city" v="Wien"/>
    <tag k="addr:country" v="AT"/>
    <tag k="addr:housenumber" v="14"/>
    <tag k="addr:postcode" v="1220"/>
    <tag k="addr:street" v="Moissigasse"/>
    <tag k="amenity" v="post_office"/>
    <tag k="name" v="1220 Wien"/>
    <tag k="note" v="position should be checked"/>
    <tag k="postal_code" v="1223"/>
    <tag k="ref" v="1223"/>
    <tag k="type" v="Postfiliale"/>
  </node>
  <node id="340515328" version="2" timestamp="2009-02-20T14:25:37Z" uid="58091" user="Andreas M" changeset="572748" lat="48.2227548" lon="16.3986825">
    <tag k="addr:city" v="Wien"/>
    <tag k="addr:housenumber" v="9"/>
    <tag k="addr:postcode" v="1020"/>
    <tag k="addr:street" v="Lassallestraße"/>
    <tag k="amenity" v="post_office"/>
    <tag k="name" v="1020 Wien"/>
    <tag k="note" v="position should be checked"/>
    <tag k="postal_code" v="1402"/>
    <tag k="ref" v="1402"/>
    <tag k="type" v="Postfiliale"/>
  </node>
  <node id="340515328" version="4" timestamp="2009-03-15T06:43:01Z" uid="58091" user="Andreas M" changeset="810969" lat="48.2228386" lon="16.3986419">
    <tag k="addr:city" v="Wien"/>
    <tag k="addr:housenumber" v="9"/>
    <tag k="addr:postcode" v="1020"/>
    <tag k="addr:street" v="Lassallestraße"/>
    <tag k="amenity" v="post_office"/>
    <tag k="name" v="1020 Wien"/>
    <tag k="note" v="position should be checked"/>
    <tag k="postal_code" v="1402"/>
    <tag k="ref" v="1402"/>
    <tag k="type" v="Postfiliale"/>
  </node>
  <node id="340515352" version="3" timestamp="2009-02-10T15:44:05Z" uid="58091" user="Andreas M" changeset="321274" lat="48.1706352" lon="16.4260157">
    <tag k="addr:city" v="Wien"/>
    <tag k="addr:country" v="AT"/>
    <tag k="addr:housenumber" v="22"/>
    <tag k="addr:postcode" v="1110"/>
    <tag k="addr:street" v="Unter der Kirche"/>
    <tag k="amenity" v="post_office"/>
    <tag k="name" v="1110 Wien"/>
    <tag k="note" v="position should be checked"/>
    <tag k="postal_code" v="1110"/>
    <tag k="ref" v="1110"/>
    <tag k="type" v="Postfiliale"/>
  </node>
  <node id="340515831" version="3" timestamp="2010-08-28T15:37:57Z" uid="43967" user="railsnail" changeset="5617315" lat="46.819035" lon="13.5176756">
    <tag k="addr:city" v="Seeboden"/>
    <tag k="addr:housenumber" v="9"/>
    <tag k="addr:postcode" v="9871"/>
    <tag k="addr:street" v="Hauptplatz"/>
    <tag k="amenity" v="post_office"/>
    <tag k="name" v="9871 Seeboden"/>
    <tag k="note" v="position should be checked"/>
    <tag k="postal_code" v="9871"/>
    <tag k="ref" v="9871"/>
    <tag k="type" v="Postfiliale"/>
  </node>
  <node id="340516067" version="3" timestamp="2009-07-27T16:24:22Z" uid="43967" user="railsnail" changeset="1956986" lat="47.2157105" lon="15.3987572">
    <tag k="addr:city" v="Semriach"/>
    <tag k="addr:country" v="AT"/>
    <tag k="addr:housenumber" v="55"/>
    <tag k="addr:postcode" v="8102"/>
    <tag k="amenity" v="post_office"/>
    <tag k="name" v="8102 Semriach"/>
    <tag k="note" v="position should be checked"/>
    <tag k="postal_code" v="8102"/>
    <tag k="ref" v="8102"/>
    <tag k="type" v="Postfiliale"/>
  </node>
  <node id="340516452" version="2" timestamp="2009-11-03T20:17:35Z" uid="74027" user="katzlbt" changeset="3027880" lat="47.1308192" lon="11.4528725">
    <tag k="addr:city" v="Matrei am Brenner"/>
    <tag k="addr:housenumber" v="35"/>
    <tag k="addr:postcode" v="6143"/>
    <tag k="amenity" v="post_office"/>
    <tag k="name" v="6143 Matrei am Brenner"/>
    <tag k="note" v="position along the right street"/>
    <tag k="postal_code" v="6143"/>
    <tag k="ref" v="6143"/>
    <tag k="type" v="Postfiliale"/>
  </node>
  <node id="340516461" version="2" timestamp="2011-04-18T21:01:44Z" uid="74027" user="katzlbt" changeset="7901554" lat="47.081583" lon="11.415362">
    <tag k="addr:city" v="Trins"/>
    <tag k="addr:housenumber" v="78"/>
    <tag k="addr:postcode" v="6152"/>
    <tag k="addr:street" v="Trins"/>
    <tag k="amenity" v="post_office"/>
    <tag k="name" v="6152 Trins"/>
    <tag k="note" v="position along the right street"/>
    <tag k="postal_code" v="6152"/>
    <tag k="ref" v="6152"/>
    <tag k="type" v="Post.Partner"/>
  </node>
  <node id="340516466" version="2" timestamp="2009-12-17T22:54:54Z" uid="74027" user="katzlbt" changeset="3397440" lat="47.1849105" lon="11.4047329"/>
  <node id="340516466" version="3" timestamp="2009-12-17T22:55:04Z" uid="74027" user="katzlbt" changeset="3397440" lat="47.1849105" lon="11.4047329"/>
  <node id="340516558" version="2" timestamp="2009-07-13T09:10:58Z" uid="43967" user="railsnail" changeset="1814477" lat="46.8088271" lon="12.3703102">
    <tag k="addr:city" v="Innervillgraten"/>
    <tag k="addr:housenumber" v="79"/>
    <tag k="addr:postcode" v="9932"/>
    <tag k="amenity" v="post_office"/>
    <tag k="name" v="9932 Innervillgraten"/>
    <tag k="note" v="position along the right street"/>
    <tag k="postal_code" v="9932"/>
    <tag k="ref" v="9932"/>
    <tag k="type" v="Postfiliale"/>
  </node>
  <node id="340516634" version="2" timestamp="2009-06-14T17:27:39Z" uid="36809" user="pfoten_weg_!_" changeset="1517003" lat="47.4360545" lon="11.7522175">
    <tag k="addr:city" v="Wiesing"/>
    <tag k="addr:housenumber" v="19"/>
    <tag k="addr:postcode" v="6210"/>
    <tag k="amenity" v="post_office"/>
    <tag k="name" v="6210 Wiesing"/>
    <tag k="note" v="position along the right street"/>
    <tag k="postal_code" v="6210"/>
    <tag k="ref" v="6210"/>
    <tag k="type" v="Post-Servicestelle"/>
  </node>
  <node id="340516663" version="2" timestamp="2009-11-15T12:54:28Z" uid="74027" user="katzlbt" changeset="3121325" lat="47.1279126" lon="11.5252999"/>
  <node id="340516870" version="2" timestamp="2009-06-14T18:41:01Z" uid="43967" user="railsnail" changeset="1517544" lat="46.7994415" lon="12.608322">
    <tag k="addr:city" v="Assling"/>
    <tag k="addr:housenumber" v="6"/>
    <tag k="addr:postcode" v="9911"/>
    <tag k="addr:street" v="Thal-Aue"/>
    <tag k="amenity" v="post_office"/>
    <tag k="name" v="9911 Assling"/>
    <tag k="note" v="position along the right street"/>
    <tag k="postal_code" v="9911"/>
    <tag k="ref" v="9911"/>
    <tag k="type" v="Postfiliale"/>
  </node>
  <node id="340517218" version="2" timestamp="2009-07-30T11:22:31Z" uid="43967" user="railsnail" changeset="1983955" lat="46.8867372" lon="13.0368712">
    <tag k="addr:city" v="Stall im Mölltal"/>
    <tag k="addr:housenumber" v="6"/>
    <tag k="addr:postcode" v="9832"/>
    <tag k="amenity" v="post_office"/>
    <tag k="name" v="Stall im Mölltal"/>
    <tag k="note" v="position along the right street"/>
    <tag k="postal_code" v="9832"/>
    <tag k="ref" v="9832"/>
    <tag k="type" v="Postfiliale"/>
  </node>
  <node id="340519080" version="3" timestamp="2011-02-21T18:42:07Z" uid="9581" user="Lobelt" changeset="7356694" lat="47.0694604" lon="10.843928">
    <tag k="addr:city" v="St. Leonhard im Pitztal"/>
    <tag k="addr:housenumber" v="119"/>
    <tag k="addr:postcode" v="6481"/>
    <tag k="addr:street" v="Eggenstall"/>
    <tag k="amenity" v="post_office"/>
    <tag k="name" v="6481 St. Leonhard im Pitztal"/>
    <tag k="postal_code" v="6481"/>
    <tag k="ref" v="6481"/>
  </node>
  <node id="340519152" version="3" timestamp="2009-10-12T07:33:30Z" uid="43967" user="railsnail" changeset="2822657" lat="46.8302203" lon="12.8114093">
    <tag k="addr:city" v="Nussdorf-Debant"/>
    <tag k="addr:country" v="AT"/>
    <tag k="addr:housenumber" v="3"/>
    <tag k="addr:postcode" v="9990"/>
    <tag k="addr:street" v="Hermann Gmeiner-Straße"/>
    <tag k="amenity" v="post_office"/>
    <tag k="name" v="9990 Nussdorf-Debant"/>
    <tag k="note" v="position along the right street"/>
    <tag k="postal_code" v="9990"/>
    <tag k="type" v="Postfiliale"/>
  </node>
  <node id="340519152" version="4" timestamp="2009-10-12T07:35:07Z" uid="43967" user="railsnail" changeset="2822657" lat="46.8302203" lon="12.8114093">
    <tag k="addr:city" v="Nussdorf-Debant"/>
    <tag k="addr:country" v="AT"/>
    <tag k="addr:housenumber" v="3"/>
    <tag k="addr:postcode" v="9990"/>
    <tag k="addr:street" v="Hermann Gmeiner-Straße"/>
    <tag k="amenity" v="post_office"/>
    <tag k="fixme" v="check import"/>
    <tag k="name" v="9990 Nussdorf-Debant"/>
    <tag k="note" v="position along the right street"/>
    <tag k="postal_code" v="9990"/>
    <tag k="type" v="Postfiliale"/>
  </node>
  <node id="340519473" version="3" timestamp="2009-03-15T06:48:03Z" uid="58091" user="Andreas M" changeset="810969" lat="48.1378307" lon="16.4935283">
    <tag k="addr:city" v="Schwechat"/>
    <tag k="addr:country" v="AT"/>
    <tag k="addr:housenumber" v="1"/>
    <tag k="addr:postcode" v="2320"/>
    <tag k="addr:street" v="Am Concorde Park"/>
    <tag k="amenity" v="post_office"/>
    <tag k="name" v="2320 Concorde Park"/>
    <tag k="note" v="position along the right street"/>
    <tag k="postal_code" v="2320"/>
    <tag k="ref" v="2320"/>
    <tag k="type" v="Post-Servicestelle"/>
  </node>
  <node id="340519615" version="3" timestamp="2009-08-26T18:52:11Z" uid="43967" user="railsnail" changeset="2270760" lat="46.6256321" lon="13.3711015">
    <tag k="addr:city" v="Hermagor"/>
    <tag k="addr:country" v="AT"/>
    <tag k="addr:housenumber" v="5"/>
    <tag k="addr:postcode" v="9620"/>
    <tag k="addr:street" v="Bahnhofstraße"/>
    <tag k="amenity" v="post_office"/>
    <tag k="name" v="Hermagor"/>
    <tag k="note" v="position along the right street"/>
    <tag k="postal_code" v="9620"/>
    <tag k="ref" v="9620"/>
    <tag k="type" v="Postfiliale"/>
  </node>
  <node id="340519716" version="4" timestamp="2010-01-03T18:02:39Z" uid="6975" user="ulfl" changeset="3530905" lat="49.4596241" lon="11.0352878">
    <tag k="addr:city" v="Nürnberg"/>
    <tag k="addr:housenumber" v="212"/>
    <tag k="addr:postcode" v="90429"/>
    <tag k="addr:street" v="Fürther Straße"/>
    <tag k="leisure" v="sports_centre"/>
    <tag k="name" v="climbing_factory"/>
    <tag k="operator" v="Kletterschule Frankenjura"/>
    <tag k="sport" v="climbing"/>
    <tag k="url" v="http://www.climbing-factory.de/"/>
    <tag k="website" v="http://www.climbing-factory.de/"/>
  </node>
</osm>
