<?xml version='1.0' encoding='UTF-8'?>
<osm version="0.6" generator="libosmium/2.20.0">
  <node id="340552316" version="2" timestamp="2009-11-21T23:25:01Z" uid="4467" user="Rosscoe" changeset="3181629" lat="-26.8985359" lon="152.9589344">
    <tag k="amenity" v="parking"/>
    <tag k="capacity:disabled" v="yes"/>
    <tag k="parking" v="surface"/>
  </node>
  <node id="340553679" version="4" timestamp="2010-01-09T22:15:25Z" uid="74027" user="katzlbt" changeset="3582123" lat="47.3944378" lon="11.3283963">
    <tag k="amenity" v="restaurant"/>
    <tag k="ele" v="1757"/>
    <tag k="name" v="PleisenhÃ¼tte"/>
    <tag k="operator" v="Siegfried Gaugg"/>
    <tag k="phone" v="+43-664-9158792"/>
    <tag k="tourism" v="alpine_hut"/>
  </node>
  <node id="340557422" version="2" timestamp="2010-07-15T02:25:39Z" uid="4467" user="Rosscoe" changeset="5223165" lat="-26.9201262" lon="152.9934404">
    <tag k="amenity" v="fuel"/>
    <tag k="operator" v="Mobil"/>
    <tag k="source" v="local_knowledge"/>
  </node>
  <node id="340558845" version="4" timestamp="2010-04-03T12:56:42Z" uid="74617" user="JohnSmith" changeset="4312337" lat="-26.9117277" lon="152.9576034"/>
  <node id="340558864" version="2" timestamp="2010-04-03T12:56:38Z" uid="74617" user="JohnSmith" changeset="4312337" lat="-26.9117216" lon="152.9575252">
    <tag k="railway" v="level_crossing"/>
  </node>
  <node id="340558884" version="2" timestamp="2010-04-03T12:56:38Z" uid="74617" user="JohnSmith" changeset="4312337" lat="-26.9117759" lon="152.9578892"/>
</osm>
