<?xml version='1.0' encoding='UTF-8'?>
<osm version="0.6" generator="libosmium/2.20.0">
  <node id="340501814" version="5" timestamp="2009-05-01T19:27:14Z" uid="20587" user="balrog-kun" changeset="1041165" lat="50.0384588" lon="19.768973">
    <tag k="addr:postcode" v="32-060"/>
    <tag k="is_in" v="gmina Liszki, powiat krakowski, województwo małopolskie, Poland"/>
    <tag k="is_in:country" v="Poland"/>
    <tag k="is_in:county" v="powiat krakowski"/>
    <tag k="is_in:municipality" v="gmina Liszki"/>
    <tag k="is_in:province" v="województwo małopolskie"/>
    <tag k="name" v="Liszki"/>
    <tag k="place" v="village"/>
    <tag k="population" v="1850"/>
    <tag k="source:population" v="wikipedia"/>
    <tag k="teryt:rm" v="01"/>
    <tag k="teryt:simc" v="0325452"/>
    <tag k="teryt:stan_na" v="2009-01-01"/>
    <tag k="teryt:terc" v="1206072"/>
    <tag k="teryt:updated_by" v="teryt2osm combine.py v. 43"/>
    <tag k="wikipedia" v="Liszki, Lesser Poland Voivodeship"/>
  </node>
  <node id="340501814" version="6" timestamp="2010-04-11T04:39:21Z" uid="20587" user="balrog-kun" changeset="4389130" lat="50.0382702" lon="19.7685611">
    <tag k="addr:postcode" v="32-060"/>
    <tag k="is_in" v="gmina Liszki, powiat krakowski, województwo małopolskie, Poland"/>
    <tag k="is_in:country" v="Poland"/>
    <tag k="is_in:county" v="powiat krakowski"/>
    <tag k="is_in:municipality" v="gmina Liszki"/>
    <tag k="is_in:province" v="województwo małopolskie"/>
    <tag k="name" v="Liszki"/>
    <tag k="place" v="village"/>
    <tag k="population" v="1850"/>
    <tag k="source:population" v="wikipedia"/>
    <tag k="teryt:rm" v="01"/>
    <tag k="teryt:simc" v="0325452"/>
    <tag k="teryt:stan_na" v="2009-01-01"/>
    <tag k="teryt:terc" v="1206072"/>
    <tag k="teryt:updated_by" v="teryt2osm combine.py v. 43"/>
    <tag k="wikipedia" v="Liszki, Lesser Poland Voivodeship"/>
  </node>
  <node id="340501817" version="5" timestamp="2009-05-01T19:26:15Z" uid="20587" user="balrog-kun" changeset="1041165" lat="50.0238895" lon="19.7931657">
    <tag k="addr:postcode" v="32-060"/>
    <tag k="is_in" v="gmina Liszki, powiat krakowski, województwo małopolskie, Poland"/>
    <tag k="is_in:country" v="Poland"/>
    <tag k="is_in:county" v="powiat krakowski"/>
    <tag k="is_in:municipality" v="gmina Liszki"/>
    <tag k="is_in:province" v="województwo małopolskie"/>
    <tag k="name" v="Piekary"/>
    <tag k="place" v="village"/>
    <tag k="population" v="1500"/>
    <tag k="source:population" v="wikipedia"/>
    <tag k="teryt:rm" v="01"/>
    <tag k="teryt:simc" v="0325699"/>
    <tag k="teryt:stan_na" v="2009-01-01"/>
    <tag k="teryt:terc" v="1206072"/>
    <tag k="teryt:updated_by" v="teryt2osm combine.py v. 43"/>
    <tag k="wikipedia" v="Piekary, Kraków County"/>
  </node>
  <node id="340501817" version="6" timestamp="2010-04-11T04:39:21Z" uid="20587" user="balrog-kun" changeset="4389130" lat="50.0226446" lon="19.793041">
    <tag k="addr:postcode" v="32-060"/>
    <tag k="is_in" v="gmina Liszki, powiat krakowski, województwo małopolskie, Poland"/>
    <tag k="is_in:country" v="Poland"/>
    <tag k="is_in:county" v="powiat krakowski"/>
    <tag k="is_in:municipality" v="gmina Liszki"/>
    <tag k="is_in:province" v="województwo małopolskie"/>
    <tag k="name" v="Piekary"/>
    <tag k="place" v="village"/>
    <tag k="population" v="1500"/>
    <tag k="source:population" v="wikipedia"/>
    <tag k="teryt:rm" v="01"/>
    <tag k="teryt:simc" v="0325699"/>
    <tag k="teryt:stan_na" v="2009-01-01"/>
    <tag k="teryt:terc" v="1206072"/>
    <tag k="teryt:updated_by" v="teryt2osm combine.py v. 43"/>
    <tag k="wikipedia" v="Piekary, Kraków County"/>
  </node>
  <node id="340501822" version="5" timestamp="2009-05-01T19:26:19Z" uid="20587" user="balrog-kun" changeset="1041165" lat="49.9884071" lon="19.7278531">
    <tag k="is_in" v="gmina Czernichów, powiat krakowski, województwo małopolskie, Poland"/>
    <tag k="is_in:country" v="Poland"/>
    <tag k="is_in:county" v="powiat krakowski"/>
    <tag k="is_in:municipality" v="gmina Czernichów"/>
    <tag k="is_in:province" v="województwo małopolskie"/>
    <tag k="name" v="Wołowice"/>
    <tag k="place" v="village"/>
    <tag k="population" v="1334"/>
    <tag k="source:population" v="wikipedia"/>
    <tag k="teryt:rm" v="01"/>
    <tag k="teryt:simc" v="0316281"/>
    <tag k="teryt:stan_na" v="2009-01-01"/>
    <tag k="teryt:terc" v="1206012"/>
    <tag k="teryt:updated_by" v="teryt2osm combine.py v. 43"/>
    <tag k="wikipedia" v="Wołowice"/>
  </node>
  <node id="340501822" version="6" timestamp="2010-04-11T04:39:22Z" uid="20587" user="balrog-kun" changeset="4389130" lat="49.988498" lon="19.7277652">
    <tag k="is_in" v="gmina Czernichów, powiat krakowski, województwo małopolskie, Poland"/>
    <tag k="is_in:country" v="Poland"/>
    <tag k="is_in:county" v="powiat krakowski"/>
    <tag k="is_in:municipality" v="gmina Czernichów"/>
    <tag k="is_in:province" v="województwo małopolskie"/>
    <tag k="name" v="Wołowice"/>
    <tag k="place" v="village"/>
    <tag k="population" v="1334"/>
    <tag k="source:population" v="wikipedia"/>
    <tag k="teryt:rm" v="01"/>
    <tag k="teryt:simc" v="0316281"/>
    <tag k="teryt:stan_na" v="2009-01-01"/>
    <tag k="teryt:terc" v="1206012"/>
    <tag k="teryt:updated_by" v="teryt2osm combine.py v. 43"/>
    <tag k="wikipedia" v="Wołowice"/>
  </node>
  <node id="340501826" version="5" timestamp="2009-05-01T19:27:43Z" uid="20587" user="balrog-kun" changeset="1041165" lat="49.9859189" lon="19.5774239">
    <tag k="addr:postcode" v="34-115"/>
    <tag k="is_in" v="gmina Brzeźnica, powiat wadowicki, województwo małopolskie, Poland"/>
    <tag k="is_in:country" v="Poland"/>
    <tag k="is_in:county" v="powiat wadowicki"/>
    <tag k="is_in:municipality" v="gmina Brzeźnica"/>
    <tag k="is_in:province" v="województwo małopolskie"/>
    <tag k="name" v="Łączany"/>
    <tag k="place" v="village"/>
    <tag k="population" v="1589"/>
    <tag k="source:population" v="wikipedia"/>
    <tag k="teryt:rm" v="01"/>
    <tag k="teryt:simc" v="0047639"/>
    <tag k="teryt:stan_na" v="2009-01-01"/>
    <tag k="teryt:terc" v="1218022"/>
    <tag k="teryt:updated_by" v="teryt2osm combine.py v. 43"/>
    <tag k="wikipedia" v="Łączany, Lesser Poland Voivodeship"/>
  </node>
  <node id="340501826" version="6" timestamp="2010-04-11T04:39:22Z" uid="20587" user="balrog-kun" changeset="4389130" lat="49.9857422" lon="19.5764537">
    <tag k="addr:postcode" v="34-115"/>
    <tag k="is_in" v="gmina Brzeźnica, powiat wadowicki, województwo małopolskie, Poland"/>
    <tag k="is_in:country" v="Poland"/>
    <tag k="is_in:county" v="powiat wadowicki"/>
    <tag k="is_in:municipality" v="gmina Brzeźnica"/>
    <tag k="is_in:province" v="województwo małopolskie"/>
    <tag k="name" v="Łączany"/>
    <tag k="place" v="village"/>
    <tag k="population" v="1589"/>
    <tag k="source:population" v="wikipedia"/>
    <tag k="teryt:rm" v="01"/>
    <tag k="teryt:simc" v="0047639"/>
    <tag k="teryt:stan_na" v="2009-01-01"/>
    <tag k="teryt:terc" v="1218022"/>
    <tag k="teryt:updated_by" v="teryt2osm combine.py v. 43"/>
    <tag k="wikipedia" v="Łączany, Lesser Poland Voivodeship"/>
  </node>
  <node id="340501830" version="5" timestamp="2009-05-01T19:27:56Z" uid="20587" user="balrog-kun" changeset="1041165" lat="49.9643888" lon="19.6336911">
    <tag k="addr:postcode" v="34-114"/>
    <tag k="is_in" v="gmina Brzeźnica, powiat wadowicki, województwo małopolskie, Poland"/>
    <tag k="is_in:country" v="Poland"/>
    <tag k="is_in:county" v="powiat wadowicki"/>
    <tag k="is_in:municipality" v="gmina Brzeźnica"/>
    <tag k="is_in:province" v="województwo małopolskie"/>
    <tag k="name" v="Brzeźnica"/>
    <tag k="place" v="village"/>
    <tag k="population" v="1244"/>
    <tag k="source:population" v="wikipedia"/>
    <tag k="teryt:rm" v="01"/>
    <tag k="teryt:simc" v="0047361"/>
    <tag k="teryt:stan_na" v="2009-01-01"/>
    <tag k="teryt:terc" v="1218022"/>
    <tag k="teryt:updated_by" v="teryt2osm combine.py v. 43"/>
    <tag k="wikipedia" v="Brzeźnica, Wadowice County"/>
  </node>
  <node id="340501830" version="7" timestamp="2010-04-11T04:39:22Z" uid="20587" user="balrog-kun" changeset="4389130" lat="49.9662077" lon="19.6305443">
    <tag k="addr:postcode" v="34-114"/>
    <tag k="is_in" v="gmina Brzeźnica, powiat wadowicki, województwo małopolskie, Poland"/>
    <tag k="is_in:country" v="Poland"/>
    <tag k="is_in:county" v="powiat wadowicki"/>
    <tag k="is_in:municipality" v="gmina Brzeźnica"/>
    <tag k="is_in:province" v="województwo małopolskie"/>
    <tag k="name" v="Brzeźnica"/>
    <tag k="place" v="village"/>
    <tag k="population" v="1244"/>
    <tag k="source:population" v="wikipedia"/>
    <tag k="teryt:rm" v="01"/>
    <tag k="teryt:simc" v="0047361"/>
    <tag k="teryt:stan_na" v="2009-01-01"/>
    <tag k="teryt:terc" v="1218022"/>
    <tag k="teryt:updated_by" v="teryt2osm combine.py v. 43"/>
    <tag k="wikipedia" v="Brzeźnica, Wadowice County"/>
  </node>
  <node id="340501830" version="8" timestamp="2010-04-11T13:14:55Z" uid="20587" user="balrog-kun" changeset="4392352" lat="49.966061" lon="19.6298862">
    <tag k="addr:postcode" v="34-114"/>
    <tag k="is_in" v="gmina Brzeźnica, powiat wadowicki, województwo małopolskie, Poland"/>
    <tag k="is_in:country" v="Poland"/>
    <tag k="is_in:county" v="powiat wadowicki"/>
    <tag k="is_in:municipality" v="gmina Brzeźnica"/>
    <tag k="is_in:province" v="województwo małopolskie"/>
    <tag k="name" v="Brzeźnica"/>
    <tag k="place" v="village"/>
    <tag k="population" v="1244"/>
    <tag k="source:population" v="wikipedia"/>
    <tag k="teryt:rm" v="01"/>
    <tag k="teryt:simc" v="0047361"/>
    <tag k="teryt:stan_na" v="2009-01-01"/>
    <tag k="teryt:terc" v="1218022"/>
    <tag k="teryt:updated_by" v="teryt2osm combine.py v. 43"/>
    <tag k="wikipedia" v="Brzeźnica, Wadowice County"/>
  </node>
  <node id="340501833" version="5" timestamp="2009-05-01T19:24:48Z" uid="20587" user="balrog-kun" changeset="1041165" lat="49.9574875" lon="19.7442251">
    <tag k="addr:postcode" v="32-051"/>
    <tag k="is_in" v="gmina Skawina, powiat krakowski, województwo małopolskie, Poland"/>
    <tag k="is_in:country" v="Poland"/>
    <tag k="is_in:county" v="powiat krakowski"/>
    <tag k="is_in:municipality" v="gmina Skawina"/>
    <tag k="is_in:province" v="województwo małopolskie"/>
    <tag k="name" v="Zelczyna"/>
    <tag k="place" v="village"/>
    <tag k="population" v="830"/>
    <tag k="source:population" v="wikipedia"/>
    <tag k="teryt:rm" v="01"/>
    <tag k="teryt:simc" v="0335798"/>
    <tag k="teryt:stan_na" v="2009-01-01"/>
    <tag k="teryt:terc" v="1206115"/>
    <tag k="teryt:updated_by" v="teryt2osm combine.py v. 43"/>
    <tag k="wikipedia" v="Zelczyna"/>
  </node>
  <node id="340501833" version="7" timestamp="2010-04-11T04:39:22Z" uid="20587" user="balrog-kun" changeset="4389130" lat="49.9606819" lon="19.7516578">
    <tag k="addr:postcode" v="32-051"/>
    <tag k="is_in" v="gmina Skawina, powiat krakowski, województwo małopolskie, Poland"/>
    <tag k="is_in:country" v="Poland"/>
    <tag k="is_in:county" v="powiat krakowski"/>
    <tag k="is_in:municipality" v="gmina Skawina"/>
    <tag k="is_in:province" v="województwo małopolskie"/>
    <tag k="name" v="Zelczyna"/>
    <tag k="place" v="village"/>
    <tag k="population" v="830"/>
    <tag k="source:population" v="wikipedia"/>
    <tag k="teryt:rm" v="01"/>
    <tag k="teryt:simc" v="0335798"/>
    <tag k="teryt:stan_na" v="2009-01-01"/>
    <tag k="teryt:terc" v="1206115"/>
    <tag k="teryt:updated_by" v="teryt2osm combine.py v. 43"/>
    <tag k="wikipedia" v="Zelczyna"/>
  </node>
  <node id="340501833" version="8" timestamp="2010-04-11T13:14:55Z" uid="20587" user="balrog-kun" changeset="4392352" lat="49.9593455" lon="19.7474697">
    <tag k="addr:postcode" v="32-051"/>
    <tag k="is_in" v="gmina Skawina, powiat krakowski, województwo małopolskie, Poland"/>
    <tag k="is_in:country" v="Poland"/>
    <tag k="is_in:county" v="powiat krakowski"/>
    <tag k="is_in:municipality" v="gmina Skawina"/>
    <tag k="is_in:province" v="województwo małopolskie"/>
    <tag k="name" v="Zelczyna"/>
    <tag k="place" v="village"/>
    <tag k="population" v="830"/>
    <tag k="source:population" v="wikipedia"/>
    <tag k="teryt:rm" v="01"/>
    <tag k="teryt:simc" v="0335798"/>
    <tag k="teryt:stan_na" v="2009-01-01"/>
    <tag k="teryt:terc" v="1206115"/>
    <tag k="teryt:updated_by" v="teryt2osm combine.py v. 43"/>
    <tag k="wikipedia" v="Zelczyna"/>
  </node>
  <node id="340501837" version="5" timestamp="2009-05-01T19:26:32Z" uid="20587" user="balrog-kun" changeset="1041165" lat="49.941349" lon="19.7148087">
    <tag k="is_in" v="gmina Brzeźnica, powiat wadowicki, województwo małopolskie, Poland"/>
    <tag k="is_in:country" v="Poland"/>
    <tag k="is_in:county" v="powiat wadowicki"/>
    <tag k="is_in:municipality" v="gmina Brzeźnica"/>
    <tag k="is_in:province" v="województwo małopolskie"/>
    <tag k="name" v="Sosnowice"/>
    <tag k="place" v="village"/>
    <tag k="population" v="1087"/>
    <tag k="source:population" v="wikipedia"/>
    <tag k="teryt:rm" v="01"/>
    <tag k="teryt:simc" v="0048136"/>
    <tag k="teryt:stan_na" v="2009-01-01"/>
    <tag k="teryt:terc" v="1218022"/>
    <tag k="teryt:updated_by" v="teryt2osm combine.py v. 43"/>
    <tag k="wikipedia" v="Sosnowice, Lesser Poland Voivodeship"/>
  </node>
  <node id="340501837" version="7" timestamp="2010-04-11T04:39:22Z" uid="20587" user="balrog-kun" changeset="4389130" lat="49.9420858" lon="19.7133357">
    <tag k="is_in" v="gmina Brzeźnica, powiat wadowicki, województwo małopolskie, Poland"/>
    <tag k="is_in:country" v="Poland"/>
    <tag k="is_in:county" v="powiat wadowicki"/>
    <tag k="is_in:municipality" v="gmina Brzeźnica"/>
    <tag k="is_in:province" v="województwo małopolskie"/>
    <tag k="name" v="Sosnowice"/>
    <tag k="place" v="village"/>
    <tag k="population" v="1087"/>
    <tag k="source:population" v="wikipedia"/>
    <tag k="teryt:rm" v="01"/>
    <tag k="teryt:simc" v="0048136"/>
    <tag k="teryt:stan_na" v="2009-01-01"/>
    <tag k="teryt:terc" v="1218022"/>
    <tag k="teryt:updated_by" v="teryt2osm combine.py v. 43"/>
    <tag k="wikipedia" v="Sosnowice, Lesser Poland Voivodeship"/>
  </node>
  <node id="340501837" version="8" timestamp="2010-04-11T13:14:56Z" uid="20587" user="balrog-kun" changeset="4392352" lat="49.9418483" lon="19.7134624">
    <tag k="is_in" v="gmina Brzeźnica, powiat wadowicki, województwo małopolskie, Poland"/>
    <tag k="is_in:country" v="Poland"/>
    <tag k="is_in:county" v="powiat wadowicki"/>
    <tag k="is_in:municipality" v="gmina Brzeźnica"/>
    <tag k="is_in:province" v="województwo małopolskie"/>
    <tag k="name" v="Sosnowice"/>
    <tag k="place" v="village"/>
    <tag k="population" v="1087"/>
    <tag k="source:population" v="wikipedia"/>
    <tag k="teryt:rm" v="01"/>
    <tag k="teryt:simc" v="0048136"/>
    <tag k="teryt:stan_na" v="2009-01-01"/>
    <tag k="teryt:terc" v="1218022"/>
    <tag k="teryt:updated_by" v="teryt2osm combine.py v. 43"/>
    <tag k="wikipedia" v="Sosnowice, Lesser Poland Voivodeship"/>
  </node>
  <node id="340501840" version="5" timestamp="2009-05-01T19:27:49Z" uid="20587" user="balrog-kun" changeset="1041165" lat="49.9480025" lon="19.7407565">
    <tag k="is_in" v="gmina Skawina, powiat krakowski, województwo małopolskie, Poland"/>
    <tag k="is_in:country" v="Poland"/>
    <tag k="is_in:county" v="powiat krakowski"/>
    <tag k="is_in:municipality" v="gmina Skawina"/>
    <tag k="is_in:province" v="województwo małopolskie"/>
    <tag k="name" v="Krzęcin"/>
    <tag k="place" v="village"/>
    <tag k="population" v="1400"/>
    <tag k="source:population" v="wikipedia"/>
    <tag k="teryt:rm" v="01"/>
    <tag k="teryt:simc" v="0335166"/>
    <tag k="teryt:stan_na" v="2009-01-01"/>
    <tag k="teryt:terc" v="1206115"/>
    <tag k="teryt:updated_by" v="teryt2osm combine.py v. 43"/>
    <tag k="wikipedia" v="Krzęcin, Lesser Poland Voivodeship"/>
  </node>
  <node id="340501840" version="7" timestamp="2010-04-11T04:39:22Z" uid="20587" user="balrog-kun" changeset="4389130" lat="49.9434327" lon="19.742091">
    <tag k="is_in" v="gmina Skawina, powiat krakowski, województwo małopolskie, Poland"/>
    <tag k="is_in:country" v="Poland"/>
    <tag k="is_in:county" v="powiat krakowski"/>
    <tag k="is_in:municipality" v="gmina Skawina"/>
    <tag k="is_in:province" v="województwo małopolskie"/>
    <tag k="name" v="Krzęcin"/>
    <tag k="place" v="village"/>
    <tag k="population" v="1400"/>
    <tag k="source:population" v="wikipedia"/>
    <tag k="teryt:rm" v="01"/>
    <tag k="teryt:simc" v="0335166"/>
    <tag k="teryt:stan_na" v="2009-01-01"/>
    <tag k="teryt:terc" v="1206115"/>
    <tag k="teryt:updated_by" v="teryt2osm combine.py v. 43"/>
    <tag k="wikipedia" v="Krzęcin, Lesser Poland Voivodeship"/>
  </node>
  <node id="340501840" version="8" timestamp="2010-04-11T13:14:56Z" uid="20587" user="balrog-kun" changeset="4392352" lat="49.9433182" lon="19.7420572">
    <tag k="is_in" v="gmina Skawina, powiat krakowski, województwo małopolskie, Poland"/>
    <tag k="is_in:country" v="Poland"/>
    <tag k="is_in:county" v="powiat krakowski"/>
    <tag k="is_in:municipality" v="gmina Skawina"/>
    <tag k="is_in:province" v="województwo małopolskie"/>
    <tag k="name" v="Krzęcin"/>
    <tag k="place" v="village"/>
    <tag k="population" v="1400"/>
    <tag k="source:population" v="wikipedia"/>
    <tag k="teryt:rm" v="01"/>
    <tag k="teryt:simc" v="0335166"/>
    <tag k="teryt:stan_na" v="2009-01-01"/>
    <tag k="teryt:terc" v="1206115"/>
    <tag k="teryt:updated_by" v="teryt2osm combine.py v. 43"/>
    <tag k="wikipedia" v="Krzęcin, Lesser Poland Voivodeship"/>
  </node>
</osm>
