<?xml version='1.0' encoding='UTF-8'?>
<osm version="0.6" generator="libosmium/2.20.0">
  <node id="341011415" version="1" timestamp="2009-02-05T12:10:40Z" uid="10712" user="Kraeml" changeset="163231" lat="49.4952697" lon="10.4482966">
    <tag k="created_by" v="Potlatch 0.10f"/>
  </node>
  <node id="341014718" version="1" timestamp="2009-02-05T12:15:42Z" uid="30632" user="antblant" changeset="166983" lat="53.3684429" lon="14.6549237">
    <tag k="amenity" v="bicycle_parking"/>
    <tag k="created_by" v="Potlatch 0.10f"/>
  </node>
  <node id="341014718" version="2" timestamp="2009-11-03T14:34:01Z" uid="36809" user="pfoten_weg_!_" changeset="3025069" lat="53.3684429" lon="14.6549237">
    <tag k="amenity" v="bicycle_parking"/>
  </node>
  <node id="341015863" version="1" timestamp="2009-02-05T12:17:41Z" uid="30632" user="antblant" changeset="166983" lat="53.3675211" lon="14.6562111">
    <tag k="created_by" v="Potlatch 0.10f"/>
  </node>
  <node id="341015863" version="2" timestamp="2009-02-05T12:18:35Z" uid="30632" user="antblant" changeset="166983" lat="53.3675159" lon="14.6562369">
    <tag k="created_by" v="Potlatch 0.10f"/>
    <tag k="name" v="Wicherek"/>
    <tag k="shop" v="hairdresser"/>
  </node>
  <node id="341015863" version="3" timestamp="2009-11-03T14:34:29Z" uid="36809" user="pfoten_weg_!_" changeset="3025069" lat="53.3675159" lon="14.6562369">
    <tag k="name" v="Wicherek"/>
    <tag k="shop" v="hairdresser"/>
  </node>
  <node id="341017180" version="1" timestamp="2009-02-05T12:19:26Z" uid="30632" user="antblant" changeset="166983" lat="53.3683712" lon="14.6574385">
    <tag k="created_by" v="Potlatch 0.10f"/>
    <tag k="shop" v="florist"/>
  </node>
  <node id="341017180" version="2" timestamp="2009-03-16T23:20:58Z" uid="30632" user="antblant" changeset="822146" lat="53.3684218" lon="14.6573961">
    <tag k="created_by" v="Potlatch 0.10f"/>
    <tag k="shop" v="florist"/>
  </node>
  <node id="341017180" version="3" timestamp="2009-09-14T15:14:29Z" uid="30632" user="antblant" changeset="2482913" lat="53.3684256" lon="14.6573902">
    <tag k="addr:housenumber" v="2a"/>
    <tag k="created_by" v="Potlatch 0.10f"/>
    <tag k="name" v="Maranta"/>
    <tag k="opening_hours" v="Mo-Su 09:00-19:00 Sa 10:00-18:00"/>
    <tag k="shop" v="florist"/>
  </node>
  <node id="341017180" version="4" timestamp="2009-11-03T14:34:40Z" uid="36809" user="pfoten_weg_!_" changeset="3025069" lat="53.3684256" lon="14.6573902">
    <tag k="addr:housenumber" v="2a"/>
    <tag k="name" v="Maranta"/>
    <tag k="opening_hours" v="Mo-Su 09:00-19:00 Sa 10:00-18:00"/>
    <tag k="shop" v="florist"/>
  </node>
  <node id="341018256" version="1" timestamp="2009-02-05T12:21:06Z" uid="30632" user="antblant" changeset="166983" lat="53.368361" lon="14.6572239">
    <tag k="created_by" v="Potlatch 0.10f"/>
    <tag k="shop" v="convenience"/>
  </node>
  <node id="341018256" version="2" timestamp="2009-03-16T23:20:57Z" uid="30632" user="antblant" changeset="822146" lat="53.3684169" lon="14.6572869">
    <tag k="created_by" v="Potlatch 0.10f"/>
    <tag k="shop" v="convenience"/>
  </node>
  <node id="341018256" version="3" timestamp="2009-11-03T14:34:40Z" uid="36809" user="pfoten_weg_!_" changeset="3025069" lat="53.3684169" lon="14.6572869">
    <tag k="shop" v="convenience"/>
  </node>
  <node id="341019716" version="1" timestamp="2009-02-05T12:23:47Z" uid="10712" user="Kraeml" changeset="163231" lat="49.4680571" lon="10.6541186">
    <tag k="created_by" v="Potlatch 0.10f"/>
  </node>
  <node id="341019716" version="2" timestamp="2009-02-05T12:23:53Z" uid="10712" user="Kraeml" changeset="163231" lat="49.4681687" lon="10.663045">
    <tag k="created_by" v="Potlatch 0.10f"/>
  </node>
  <node id="341019959" version="2" timestamp="2009-06-01T17:05:21Z" uid="107674" user="GeoCounter" changeset="1390025" lat="50.0531261" lon="8.665429"/>
</osm>
