<?xml version='1.0' encoding='UTF-8'?>
<osm version="0.6" generator="libosmium/2.20.0">
  <node id="341341155" version="1" timestamp="2009-02-05T20:39:28Z" uid="20587" user="balrog-kun" changeset="165445" lat="52.2283747" lon="21.0015146">
    <tag k="name" v="Dworzec Centralny 09"/>
    <tag k="note" v="west rail (south bound)"/>
    <tag k="railway" v="tram_stop"/>
  </node>
  <node id="341341155" version="2" timestamp="2010-01-12T13:53:25Z" uid="20587" user="balrog-kun" changeset="3603234" lat="52.2283747" lon="21.0015146">
    <tag k="name" v="Dworzec Centralny 09"/>
    <tag k="note" v="west rail (south bound)"/>
    <tag k="railway" v="tram_stop"/>
    <tag k="tactile_paving" v="no"/>
  </node>
  <node id="341341155" version="3" timestamp="2010-01-13T14:45:05Z" uid="20587" user="balrog-kun" changeset="3610428" lat="52.2283747" lon="21.0015146">
    <tag k="name" v="Dworzec Centralny 09"/>
    <tag k="note" v="west rail (south bound)"/>
    <tag k="railway" v="tram_stop"/>
    <tag k="tactile_paving" v="no"/>
    <tag k="ztm:ciąg_ulicy" v="Al. Jana Pawła II"/>
  </node>
  <node id="341341159" version="1" timestamp="2009-02-05T20:39:28Z" uid="20587" user="balrog-kun" changeset="165445" lat="52.2295094" lon="21.0051436">
    <tag k="highway" v="bus_stop"/>
    <tag k="name" v="Dworzec Centralny 26"/>
  </node>
  <node id="341341162" version="1" timestamp="2009-02-05T20:39:28Z" uid="20587" user="balrog-kun" changeset="165445" lat="52.229637" lon="21.0050105"/>
  <node id="341341165" version="1" timestamp="2009-02-05T20:39:29Z" uid="20587" user="balrog-kun" changeset="165445" lat="52.2295899" lon="21.0051501"/>
  <node id="341341167" version="1" timestamp="2009-02-05T20:39:29Z" uid="20587" user="balrog-kun" changeset="165445" lat="52.2294201" lon="21.0052556"/>
  <node id="341341169" version="1" timestamp="2009-02-05T20:39:30Z" uid="20587" user="balrog-kun" changeset="165445" lat="52.2292984" lon="21.0051999"/>
  <node id="341341171" version="1" timestamp="2009-02-05T20:39:30Z" uid="20587" user="balrog-kun" changeset="165445" lat="52.229916" lon="21.0049338">
    <tag k="highway" v="bus_stop"/>
    <tag k="name" v="Dworzec Centralny 18"/>
  </node>
  <node id="341341174" version="1" timestamp="2009-02-05T20:39:30Z" uid="20587" user="balrog-kun" changeset="165445" lat="52.2290659" lon="21.0022781"/>
  <node id="341341178" version="1" timestamp="2009-02-05T20:39:31Z" uid="20587" user="balrog-kun" changeset="165445" lat="52.2291105" lon="21.002418"/>
  <node id="341341183" version="1" timestamp="2009-02-05T20:39:31Z" uid="20587" user="balrog-kun" changeset="165445" lat="52.2293837" lon="21.0037006"/>
  <node id="341341186" version="1" timestamp="2009-02-05T20:39:32Z" uid="20587" user="balrog-kun" changeset="165445" lat="52.2293908" lon="21.0038172"/>
  <node id="341341190" version="1" timestamp="2009-02-05T20:39:32Z" uid="20587" user="balrog-kun" changeset="165445" lat="52.2292163" lon="21.0032985">
    <tag k="highway" v="bus_stop"/>
    <tag k="name" v="Dworzec Centralny 40"/>
  </node>
  <node id="341341195" version="1" timestamp="2009-02-05T20:39:32Z" uid="20587" user="balrog-kun" changeset="165445" lat="52.2293479" lon="21.0036343">
    <tag k="highway" v="bus_stop"/>
    <tag k="name" v="Dworzec Centralny 35"/>
  </node>
  <node id="341341200" version="1" timestamp="2009-02-05T20:39:33Z" uid="20587" user="balrog-kun" changeset="165445" lat="52.2291883" lon="21.0029009">
    <tag k="highway" v="bus_stop"/>
    <tag k="name" v="Dworzec Centralny 37"/>
  </node>
  <node id="341341205" version="1" timestamp="2009-02-05T20:39:33Z" uid="20587" user="balrog-kun" changeset="165445" lat="52.2291143" lon="21.0025597">
    <tag k="highway" v="bus_stop"/>
    <tag k="name" v="Dworzec Centralny 38"/>
  </node>
  <node id="341341207" version="1" timestamp="2009-02-05T20:39:33Z" uid="20587" user="balrog-kun" changeset="165445" lat="52.2291587" lon="21.0025113">
    <tag k="highway" v="bus_stop"/>
    <tag k="name" v="Dworzec Centralny 34"/>
  </node>
  <node id="341341208" version="1" timestamp="2009-02-05T20:39:33Z" uid="20587" user="balrog-kun" changeset="165445" lat="52.2292294" lon="21.0028337">
    <tag k="highway" v="bus_stop"/>
    <tag k="name" v="Dworzec Centralny 33"/>
  </node>
  <node id="341341210" version="1" timestamp="2009-02-05T20:39:33Z" uid="20587" user="balrog-kun" changeset="165445" lat="52.2293051" lon="21.0032206">
    <tag k="highway" v="bus_stop"/>
    <tag k="name" v="Dworzec Centralny 32"/>
  </node>
  <node id="341341211" version="1" timestamp="2009-02-05T20:39:34Z" uid="20587" user="balrog-kun" changeset="165445" lat="52.2293924" lon="21.0035645">
    <tag k="highway" v="bus_stop"/>
    <tag k="name" v="Dworzec Centralny 31"/>
  </node>
  <node id="341341213" version="1" timestamp="2009-02-05T20:39:34Z" uid="20587" user="balrog-kun" changeset="165445" lat="52.2291159" lon="21.0027961">
    <tag k="highway" v="bus_stop"/>
  </node>
  <node id="341341215" version="1" timestamp="2009-02-05T20:39:34Z" uid="20587" user="balrog-kun" changeset="165445" lat="52.2245986" lon="20.9882202">
    <tag k="highway" v="bus_stop"/>
    <tag k="name" v="Plac Zawiszy 04"/>
  </node>
  <node id="341341219" version="1" timestamp="2009-02-05T20:39:34Z" uid="20587" user="balrog-kun" changeset="165445" lat="52.2248248" lon="20.9879954">
    <tag k="highway" v="bus_stop"/>
    <tag k="name" v="Plac Zawiszy 02"/>
  </node>
  <node id="341341221" version="1" timestamp="2009-02-05T20:39:34Z" uid="20587" user="balrog-kun" changeset="165445" lat="52.225787" lon="20.9887432">
    <tag k="highway" v="bus_stop"/>
    <tag k="name" v="Plac Zawiszy 12"/>
  </node>
  <node id="341341221" version="2" timestamp="2010-07-24T00:05:01Z" uid="20587" user="balrog-kun" changeset="5300013" lat="52.2258279" lon="20.9886842">
    <tag k="highway" v="bus_stop"/>
    <tag k="name" v="Plac Zawiszy 12"/>
  </node>
  <node id="341341223" version="1" timestamp="2009-02-05T20:39:34Z" uid="20587" user="balrog-kun" changeset="165445" lat="52.2252556" lon="20.9888027">
    <tag k="name" v="Plac Zawiszy 14"/>
    <tag k="railway" v="tram_stop"/>
  </node>
  <node id="341341223" version="2" timestamp="2009-10-28T13:21:28Z" uid="20587" user="balrog-kun" changeset="2973177" lat="52.2252556" lon="20.9888027">
    <tag k="name" v="Plac Zawiszy 14"/>
    <tag k="railway" v="tram_stop"/>
    <tag k="tactile_paving" v="yes"/>
  </node>
  <node id="341341223" version="3" timestamp="2010-01-12T13:53:23Z" uid="20587" user="balrog-kun" changeset="3603234" lat="52.2252556" lon="20.9888027">
    <tag k="name" v="Plac Zawiszy 14"/>
    <tag k="railway" v="tram_stop"/>
    <tag k="tactile_paving" v="yes"/>
    <tag k="tactile_paving:slab_size" v="40x40"/>
    <tag k="ztm:ciąg_ulicy" v="Towarowa"/>
  </node>
  <node id="341341223" version="4" timestamp="2010-07-24T00:05:16Z" uid="20587" user="balrog-kun" changeset="5300013" lat="52.2252496" lon="20.9887699">
    <tag k="name" v="Plac Zawiszy 14"/>
    <tag k="railway" v="tram_stop"/>
    <tag k="tactile_paving" v="yes"/>
    <tag k="tactile_paving:slab_size" v="40x40"/>
    <tag k="ztm:ciąg_ulicy" v="Towarowa"/>
  </node>
  <node id="341341224" version="1" timestamp="2009-02-05T20:39:35Z" uid="20587" user="balrog-kun" changeset="165445" lat="52.2253681" lon="20.988691"/>
  <node id="341341224" version="2" timestamp="2010-07-24T00:05:14Z" uid="20587" user="balrog-kun" changeset="5300013" lat="52.2253621" lon="20.9886598"/>
  <node id="341341226" version="1" timestamp="2009-02-05T20:39:35Z" uid="20587" user="balrog-kun" changeset="165445" lat="52.2250635" lon="20.9904979">
    <tag k="highway" v="bus_stop"/>
    <tag k="name" v="Plac Zawiszy 01"/>
  </node>
  <node id="341341226" version="2" timestamp="2010-01-10T10:26:06Z" uid="20587" user="balrog-kun" changeset="3585409" lat="52.2253126" lon="20.9913162">
    <tag k="highway" v="bus_stop"/>
    <tag k="name" v="Plac Zawiszy 01"/>
  </node>
  <node id="341341227" version="1" timestamp="2009-02-05T20:39:35Z" uid="20587" user="balrog-kun" changeset="165445" lat="52.225224" lon="20.9902733">
    <tag k="name" v="Plac Zawiszy 05"/>
    <tag k="note" v="south rail (bound Praga)"/>
    <tag k="railway" v="tram_stop"/>
  </node>
  <node id="341341227" version="3" timestamp="2009-07-31T03:44:43Z" uid="20587" user="balrog-kun" changeset="1990700" lat="52.2252239" lon="20.9902732">
    <tag k="name" v="Plac Zawiszy 05"/>
    <tag k="note" v="south rail (bound Praga)"/>
    <tag k="railway" v="tram_stop"/>
  </node>
  <node id="341341227" version="4" timestamp="2009-10-28T13:21:28Z" uid="20587" user="balrog-kun" changeset="2973177" lat="52.2252239" lon="20.9902732">
    <tag k="information" v="schedule"/>
    <tag k="information:voice" v="yes"/>
    <tag k="name" v="Plac Zawiszy 05"/>
    <tag k="note" v="south rail (bound Praga)"/>
    <tag k="railway" v="tram_stop"/>
    <tag k="tactile_paving" v="yes"/>
  </node>
  <node id="341341227" version="5" timestamp="2010-01-12T13:53:23Z" uid="20587" user="balrog-kun" changeset="3603234" lat="52.2252239" lon="20.9902732">
    <tag k="information" v="schedule"/>
    <tag k="information:voice" v="yes"/>
    <tag k="name" v="Plac Zawiszy 05"/>
    <tag k="note" v="south rail (bound Praga)"/>
    <tag k="railway" v="tram_stop"/>
    <tag k="tactile_paving" v="yes"/>
    <tag k="tactile_paving:slab_size" v="40x40"/>
    <tag k="ztm:ciąg_ulicy" v="Al. Jerozolimskie"/>
  </node>
  <node id="341341227" version="6" timestamp="2010-01-15T17:57:50Z" uid="20587" user="balrog-kun" changeset="3626110" lat="52.2252239" lon="20.9902732">
    <tag k="information" v="schedule"/>
    <tag k="information:voice" v="yes"/>
    <tag k="name" v="Plac Zawiszy 05"/>
    <tag k="railway" v="tram_stop"/>
    <tag k="tactile_paving" v="yes"/>
    <tag k="tactile_paving:slab_size" v="40x40"/>
    <tag k="ztm:ciąg_ulicy" v="Al. Jerozolimskie"/>
  </node>
  <node id="341341227" version="7" timestamp="2010-07-24T00:04:55Z" uid="20587" user="balrog-kun" changeset="5300013" lat="52.2252441" lon="20.9904689">
    <tag k="information" v="schedule"/>
    <tag k="information:voice" v="yes"/>
    <tag k="name" v="Plac Zawiszy 05"/>
    <tag k="railway" v="tram_stop"/>
    <tag k="tactile_paving" v="yes"/>
    <tag k="tactile_paving:slab_size" v="40x40"/>
    <tag k="ztm:ciąg_ulicy" v="Al. Jerozolimskie"/>
  </node>
  <node id="341341229" version="1" timestamp="2009-02-05T20:39:35Z" uid="20587" user="balrog-kun" changeset="165445" lat="52.2251552" lon="20.989858">
    <tag k="name" v="Plac Zawiszy 08"/>
    <tag k="railway" v="tram_stop"/>
  </node>
  <node id="341341229" version="3" timestamp="2009-07-31T03:44:43Z" uid="20587" user="balrog-kun" changeset="1990700" lat="52.2251551" lon="20.989858">
    <tag k="name" v="Plac Zawiszy 08"/>
    <tag k="railway" v="tram_stop"/>
  </node>
  <node id="341341229" version="4" timestamp="2009-10-28T13:21:29Z" uid="20587" user="balrog-kun" changeset="2973177" lat="52.2251551" lon="20.989858">
    <tag k="information" v="schedule"/>
    <tag k="information:voice" v="yes"/>
    <tag k="name" v="Plac Zawiszy 08"/>
    <tag k="railway" v="tram_stop"/>
    <tag k="tactile_paving" v="yes"/>
  </node>
  <node id="341341229" version="5" timestamp="2010-01-12T13:53:23Z" uid="20587" user="balrog-kun" changeset="3603234" lat="52.2251551" lon="20.989858">
    <tag k="information" v="schedule"/>
    <tag k="information:voice" v="yes"/>
    <tag k="name" v="Plac Zawiszy 08"/>
    <tag k="railway" v="tram_stop"/>
    <tag k="tactile_paving" v="yes"/>
    <tag k="tactile_paving:slab_size" v="40x40"/>
    <tag k="ztm:ciąg_ulicy" v="Al. Jerozolimskie"/>
  </node>
  <node id="341341229" version="6" timestamp="2010-07-24T00:05:02Z" uid="20587" user="balrog-kun" changeset="5300013" lat="52.225118" lon="20.9898771">
    <tag k="information" v="schedule"/>
    <tag k="information:voice" v="yes"/>
    <tag k="name" v="Plac Zawiszy 08"/>
    <tag k="railway" v="tram_stop"/>
    <tag k="tactile_paving" v="yes"/>
    <tag k="tactile_paving:slab_size" v="40x40"/>
    <tag k="ztm:ciąg_ulicy" v="Al. Jerozolimskie"/>
  </node>
  <node id="341343935" version="1" timestamp="2009-02-05T20:44:03Z" uid="38524" user="Kuddy" changeset="168300" lat="49.8752597" lon="6.8330018"/>
  <node id="341343937" version="1" timestamp="2009-02-05T20:44:03Z" uid="38524" user="Kuddy" changeset="168300" lat="49.8751288" lon="6.8326764"/>
  <node id="341343939" version="1" timestamp="2009-02-05T20:44:03Z" uid="38524" user="Kuddy" changeset="168300" lat="49.8750821" lon="6.8324851"/>
  <node id="341343941" version="1" timestamp="2009-02-05T20:44:03Z" uid="38524" user="Kuddy" changeset="168300" lat="49.8750651" lon="6.8323682"/>
  <node id="341343943" version="1" timestamp="2009-02-05T20:44:04Z" uid="38524" user="Kuddy" changeset="168300" lat="49.8750757" lon="6.8320112"/>
  <node id="341343945" version="1" timestamp="2009-02-05T20:44:04Z" uid="38524" user="Kuddy" changeset="168300" lat="49.8751185" lon="6.8316009"/>
  <node id="341343947" version="1" timestamp="2009-02-05T20:44:04Z" uid="38524" user="Kuddy" changeset="168300" lat="49.875143" lon="6.8313439"/>
  <node id="341343950" version="1" timestamp="2009-02-05T20:44:04Z" uid="38524" user="Kuddy" changeset="168300" lat="49.8751094" lon="6.8311327"/>
  <node id="341343952" version="1" timestamp="2009-02-05T20:44:04Z" uid="38524" user="Kuddy" changeset="168300" lat="49.8748339" lon="6.8304594"/>
  <node id="341343954" version="1" timestamp="2009-02-05T20:44:04Z" uid="38524" user="Kuddy" changeset="168300" lat="49.8747452" lon="6.8303431"/>
  <node id="341343956" version="1" timestamp="2009-02-05T20:44:04Z" uid="38524" user="Kuddy" changeset="168300" lat="49.874485" lon="6.8302758"/>
  <node id="341343958" version="1" timestamp="2009-02-05T20:44:05Z" uid="38524" user="Kuddy" changeset="168300" lat="49.8743749" lon="6.8301228"/>
  <node id="341343960" version="1" timestamp="2009-02-05T20:44:05Z" uid="38524" user="Kuddy" changeset="168300" lat="49.8739556" lon="6.8292995"/>
  <node id="341343962" version="1" timestamp="2009-02-05T20:44:05Z" uid="38524" user="Kuddy" changeset="168300" lat="49.8738424" lon="6.8290975"/>
  <node id="341343964" version="1" timestamp="2009-02-05T20:44:05Z" uid="38524" user="Kuddy" changeset="168300" lat="49.8736985" lon="6.8289506"/>
  <node id="341343967" version="1" timestamp="2009-02-05T20:44:05Z" uid="38524" user="Kuddy" changeset="168300" lat="49.8735302" lon="6.8288313"/>
  <node id="341343969" version="1" timestamp="2009-02-05T20:44:05Z" uid="38524" user="Kuddy" changeset="168300" lat="49.8734137" lon="6.8287513"/>
  <node id="341343971" version="1" timestamp="2009-02-05T20:44:05Z" uid="38524" user="Kuddy" changeset="168300" lat="49.8732824" lon="6.8286162"/>
  <node id="341343974" version="1" timestamp="2009-02-05T20:44:06Z" uid="38524" user="Kuddy" changeset="168300" lat="49.8730748" lon="6.8282989"/>
  <node id="341343977" version="1" timestamp="2009-02-05T20:44:06Z" uid="38524" user="Kuddy" changeset="168300" lat="49.8751007" lon="6.8317996"/>
  <node id="341343979" version="1" timestamp="2009-02-05T20:44:06Z" uid="38524" user="Kuddy" changeset="168300" lat="49.874857" lon="6.8308493">
    <tag k="amenity" v="parking"/>
    <tag k="created_by" v="JOSM"/>
    <tag k="name" v="Parkplatz Hetzerath"/>
  </node>
  <node id="341343979" version="2" timestamp="2009-02-15T16:56:45Z" uid="38524" user="Kuddy" changeset="454586" lat="49.8747379" lon="6.8305913">
    <tag k="amenity" v="parking"/>
    <tag k="created_by" v="JOSM"/>
    <tag k="name" v="Parkplatz Hetzerath"/>
  </node>
  <node id="341343979" version="3" timestamp="2009-02-20T23:48:02Z" uid="38524" user="Kuddy" changeset="590342" lat="49.8747379" lon="6.8305913">
    <tag k="amenity" v="parking"/>
    <tag k="created_by" v="JOSM"/>
    <tag k="highway" v="services"/>
    <tag k="name" v="Parkplatz Hetzerath"/>
  </node>
  <node id="341347226" version="1" timestamp="2009-02-05T20:48:54Z" uid="38524" user="Kuddy" changeset="168300" lat="49.8608281" lon="6.8061412"/>
  <node id="341347229" version="1" timestamp="2009-02-05T20:48:55Z" uid="38524" user="Kuddy" changeset="168300" lat="49.8606164" lon="6.8057642"/>
  <node id="341347321" version="1" timestamp="2009-02-05T20:49:10Z" uid="38524" user="Kuddy" changeset="168300" lat="49.8605028" lon="6.8054907"/>
  <node id="341347323" version="1" timestamp="2009-02-05T20:49:10Z" uid="38524" user="Kuddy" changeset="168300" lat="49.8604607" lon="6.8052719"/>
  <node id="341347325" version="1" timestamp="2009-02-05T20:49:11Z" uid="38524" user="Kuddy" changeset="168300" lat="49.8604649" lon="6.8049858"/>
  <node id="341347327" version="1" timestamp="2009-02-05T20:49:11Z" uid="38524" user="Kuddy" changeset="168300" lat="49.8605112" lon="6.8046282"/>
  <node id="341347330" version="1" timestamp="2009-02-05T20:49:11Z" uid="38524" user="Kuddy" changeset="168300" lat="49.8606164" lon="6.8042663"/>
  <node id="341347332" version="1" timestamp="2009-02-05T20:49:11Z" uid="38524" user="Kuddy" changeset="168300" lat="49.8609324" lon="6.8034804"/>
  <node id="341347334" version="1" timestamp="2009-02-05T20:49:11Z" uid="38524" user="Kuddy" changeset="168300" lat="49.8611392" lon="6.8029073"/>
  <node id="341347336" version="1" timestamp="2009-02-05T20:49:12Z" uid="38524" user="Kuddy" changeset="168300" lat="49.8615528" lon="6.8018561"/>
</osm>
