<?xml version='1.0' encoding='UTF-8'?>
<osm version="0.6" generator="libosmium/2.20.0">
  <node id="341483282" version="2" timestamp="2009-02-07T16:34:13Z" uid="6975" user="ulfl" changeset="238208" lat="47.337892" lon="8.6739983">
    <tag k="highway" v="bus_stop"/>
    <tag k="name" v="Maur, Kirche"/>
    <tag k="operator" v="VBZ"/>
  </node>
  <node id="341483284" version="2" timestamp="2009-02-07T16:34:12Z" uid="6975" user="ulfl" changeset="238208" lat="47.3376811" lon="8.6739259">
    <tag k="highway" v="bus_stop"/>
    <tag k="name" v="Maur, Kirche"/>
    <tag k="operator" v="VBZ"/>
  </node>
  <node id="341483292" version="2" timestamp="2009-02-07T16:34:13Z" uid="6975" user="ulfl" changeset="238208" lat="47.3403821" lon="8.6686044">
    <tag k="highway" v="bus_stop"/>
    <tag k="name" v="Maur, Dorf"/>
    <tag k="operator" v="VBZ"/>
  </node>
  <node id="341483294" version="2" timestamp="2009-02-07T16:34:13Z" uid="6975" user="ulfl" changeset="238208" lat="47.3401604" lon="8.6690926">
    <tag k="highway" v="bus_stop"/>
    <tag k="name" v="Maur, Dorf"/>
    <tag k="operator" v="VBZ"/>
  </node>
  <node id="341483300" version="2" timestamp="2009-02-07T16:34:05Z" uid="6975" user="ulfl" changeset="238208" lat="47.3431212" lon="8.6609172">
    <tag k="highway" v="bus_stop"/>
    <tag k="name" v="Maur, Platten"/>
    <tag k="operator" v="VBZ"/>
  </node>
  <node id="341483301" version="2" timestamp="2009-02-07T16:34:05Z" uid="6975" user="ulfl" changeset="238208" lat="47.3435864" lon="8.6606034">
    <tag k="highway" v="bus_stop"/>
    <tag k="name" v="Maur, Platten"/>
    <tag k="operator" v="VBZ"/>
  </node>
  <node id="341485067" version="2" timestamp="2009-02-07T16:33:48Z" uid="6975" user="ulfl" changeset="238208" lat="47.3466815" lon="8.651213">
    <tag k="highway" v="bus_stop"/>
    <tag k="name" v="Ebmatingen, Benkelsteg"/>
    <tag k="operator" v="VBZ"/>
  </node>
  <node id="341485069" version="2" timestamp="2009-02-07T16:33:47Z" uid="6975" user="ulfl" changeset="238208" lat="47.3462671" lon="8.6512586">
    <tag k="highway" v="bus_stop"/>
    <tag k="name" v="Ebmatingen, Benkelsteg"/>
    <tag k="operator" v="VBZ"/>
  </node>
  <node id="341485072" version="2" timestamp="2009-02-07T16:33:49Z" uid="6975" user="ulfl" changeset="238208" lat="47.3461526" lon="8.6516126">
    <tag k="highway" v="bus_stop"/>
    <tag k="name" v="Ebmatingen, Benkelsteg"/>
    <tag k="operator" v="VBZ"/>
  </node>
  <node id="341485958" version="2" timestamp="2009-02-07T16:33:57Z" uid="6975" user="ulfl" changeset="238208" lat="47.3512737" lon="8.6411788">
    <tag k="highway" v="bus_stop"/>
    <tag k="name" v="Ebmatingen"/>
    <tag k="operator" v="VBZ"/>
  </node>
  <node id="341485960" version="2" timestamp="2009-02-07T16:33:57Z" uid="6975" user="ulfl" changeset="238208" lat="47.3513991" lon="8.6412244">
    <tag k="highway" v="bus_stop"/>
    <tag k="name" v="Ebmatingen"/>
    <tag k="operator" v="VBZ"/>
  </node>
  <node id="341486700" version="2" timestamp="2009-02-07T16:34:09Z" uid="6975" user="ulfl" changeset="238208" lat="47.3548772" lon="8.6337196">
    <tag k="highway" v="bus_stop"/>
    <tag k="name" v="Ebmatingen, Leeacherstrasse"/>
    <tag k="operator" v="VBZ"/>
  </node>
  <node id="341486702" version="2" timestamp="2009-02-07T16:34:08Z" uid="6975" user="ulfl" changeset="238208" lat="47.3546319" lon="8.6352029">
    <tag k="highway" v="bus_stop"/>
    <tag k="name" v="Ebmatingen, Leeacherstrasse"/>
    <tag k="operator" v="VBZ"/>
  </node>
  <node id="341487607" version="2" timestamp="2009-02-07T16:34:00Z" uid="6975" user="ulfl" changeset="238208" lat="47.3570339" lon="8.6281889">
    <tag k="highway" v="bus_stop"/>
    <tag k="name" v="Binz, Post"/>
  </node>
  <node id="341487609" version="2" timestamp="2009-02-07T16:33:59Z" uid="6975" user="ulfl" changeset="238208" lat="47.3569377" lon="8.6281084">
    <tag k="highway" v="bus_stop"/>
    <tag k="name" v="Binz, Post"/>
  </node>
  <node id="341488135" version="2" timestamp="2009-02-07T16:33:57Z" uid="6975" user="ulfl" changeset="238208" lat="47.3592235" lon="8.6245143">
    <tag k="highway" v="bus_stop"/>
    <tag k="name" v="Binz, Friedlimatt"/>
    <tag k="operator" v="VBZ"/>
  </node>
  <node id="341488136" version="2" timestamp="2009-02-07T16:33:57Z" uid="6975" user="ulfl" changeset="238208" lat="47.3592453" lon="8.6247503">
    <tag k="highway" v="bus_stop"/>
    <tag k="name" v="Binz, Friedlimatt"/>
    <tag k="operator" v="VBZ"/>
  </node>
  <node id="341488659" version="2" timestamp="2009-02-07T16:33:49Z" uid="6975" user="ulfl" changeset="238208" lat="47.362572" lon="8.6181011">
    <tag k="highway" v="bus_stop"/>
    <tag k="name" v="Pfaffhausen, Müseren"/>
    <tag k="operator" v="VBZ"/>
  </node>
  <node id="341488661" version="2" timestamp="2009-02-07T16:33:49Z" uid="6975" user="ulfl" changeset="238208" lat="47.3627282" lon="8.6176478">
    <tag k="highway" v="bus_stop"/>
    <tag k="name" v="Pfaffhausen, Müseren"/>
    <tag k="operator" v="VBZ"/>
  </node>
</osm>
