<?xml version='1.0' encoding='UTF-8'?>
<osm version="0.6" generator="libosmium/2.20.0">
  <node id="343770671" version="3" timestamp="2010-03-07T19:54:23Z" uid="9581" user="Lobelt" changeset="4065569" lat="49.5137877" lon="8.5497456"/>
  <node id="343771682" version="4" timestamp="2010-03-07T19:54:22Z" uid="9581" user="Lobelt" changeset="4065569" lat="49.5115065" lon="8.5498984"/>
  <node id="343775818" version="2" timestamp="2010-06-12T10:15:17Z" uid="151899" user="Bikeman2000" changeset="4969040" lat="49.743672" lon="11.3762467"/>
  <node id="343775821" version="2" timestamp="2010-06-12T10:15:17Z" uid="151899" user="Bikeman2000" changeset="4969040" lat="49.7433312" lon="11.3763035"/>
  <node id="343776414" version="3" timestamp="2009-09-01T10:13:32Z" uid="36809" user="pfoten_weg_!_" changeset="2335647" lat="48.0024299" lon="11.3415697">
    <tag k="addr:city" v="Starnberg"/>
    <tag k="addr:country" v="DE"/>
    <tag k="addr:housenumber" v="10"/>
    <tag k="addr:postcode" v="82319"/>
    <tag k="addr:street" v="RheinlandstraÃŸe"/>
    <tag k="amenity" v="bank"/>
    <tag k="atm" v="yes"/>
    <tag k="name" v="Postbank"/>
    <tag k="opening_hours" v="Mo-Fr 08:30-17:30; Sa 09:00-12:30"/>
  </node>
</osm>
