<?xml version='1.0' encoding='UTF-8'?>
<osm version="0.6" generator="libosmium/2.20.0">
  <node id="348352795" version="2" timestamp="2009-03-08T14:16:09Z" uid="6975" user="ulfl" changeset="757880" lat="53.8549665" lon="-2.1870225">
    <tag k="name" v="Boundary Mill"/>
    <tag k="shop" v="clothes"/>
  </node>
  <node id="348353591" version="2" timestamp="2009-03-13T05:44:56Z" uid="20587" user="balrog-kun" changeset="798104" lat="19.7022649" lon="-71.494375">
    <tag k="alt_name" v="Castañuela"/>
    <tag k="created_by" v="Potlatch 0.10f"/>
    <tag k="name" v="Castañuelas"/>
    <tag k="place" v="town"/>
  </node>
  <node id="348353591" version="3" timestamp="2009-03-13T05:45:11Z" uid="20587" user="balrog-kun" changeset="798104" lat="19.7022649" lon="-71.494375">
    <tag k="alt_name" v="Castañuela"/>
    <tag k="created_by" v="Potlatch 0.10f"/>
    <tag k="name" v="Castañuelas"/>
    <tag k="place" v="town"/>
    <tag k="wikipedia" v="Castañuela"/>
  </node>
  <node id="348356015" version="3" timestamp="2010-05-01T12:29:47Z" uid="151899" user="Bikeman2000" changeset="4574340" lat="51.2562498" lon="6.8473037"/>
  <node id="348357942" version="2" timestamp="2009-04-16T22:48:43Z" uid="6975" user="ulfl" changeset="598814" lat="51.5382607" lon="-0.1026264">
    <tag k="name" v="Ryman"/>
    <tag k="shop" v="stationery"/>
  </node>
</osm>
