<?xml version='1.0' encoding='UTF-8'?>
<osm version="0.6" generator="libosmium/2.20.0">
  <node id="349883541" version="1" timestamp="2009-02-23T08:16:36Z" uid="9581" user="Lobelt" changeset="627149" lat="50.8130359" lon="11.4568442">
    <tag k="name" v="Geunitz"/>
    <tag k="traffic_sign" v="city_limit"/>
  </node>
  <node id="349883544" version="1" timestamp="2009-02-23T08:16:36Z" uid="9581" user="Lobelt" changeset="627149" lat="50.8099175" lon="11.4607618">
    <tag k="name" v="Geunitz"/>
    <tag k="traffic_sign" v="city_limit"/>
  </node>
  <node id="349883547" version="1" timestamp="2009-02-23T08:16:37Z" uid="9581" user="Lobelt" changeset="627149" lat="50.8099684" lon="11.4695044">
    <tag k="name" v="Reinstädt"/>
    <tag k="traffic_sign" v="city_limit"/>
  </node>
  <node id="349883550" version="1" timestamp="2009-02-23T08:16:37Z" uid="9581" user="Lobelt" changeset="627149" lat="50.8302519" lon="11.423154">
    <tag k="name" v="Drößnitz"/>
    <tag k="traffic_sign" v="city_limit"/>
  </node>
  <node id="349883553" version="1" timestamp="2009-02-23T08:16:37Z" uid="9581" user="Lobelt" changeset="627149" lat="50.8314247" lon="11.4213848">
    <tag k="name" v="Drößnitz"/>
    <tag k="traffic_sign" v="city_limit"/>
  </node>
  <node id="349883553" version="2" timestamp="2010-11-01T22:16:22Z" uid="9581" user="Lobelt" changeset="6263514" lat="50.8313005" lon="11.4214311">
    <tag k="name" v="Drößnitz"/>
    <tag k="traffic_sign" v="city_limit"/>
  </node>
  <node id="349883556" version="1" timestamp="2009-02-23T08:16:37Z" uid="9581" user="Lobelt" changeset="627149" lat="50.8310823" lon="11.4215303"/>
  <node id="349883556" version="4" timestamp="2010-11-01T22:17:10Z" uid="9581" user="Lobelt" changeset="6263514" lat="50.8310823" lon="11.4215303"/>
  <node id="349883558" version="1" timestamp="2009-02-23T08:16:37Z" uid="9581" user="Lobelt" changeset="627149" lat="50.8381415" lon="11.41918"/>
  <node id="349883558" version="2" timestamp="2010-11-01T22:14:47Z" uid="9581" user="Lobelt" changeset="6263514" lat="50.8382123" lon="11.4192306"/>
  <node id="349888162" version="1" timestamp="2009-02-23T08:22:21Z" uid="9581" user="Lobelt" changeset="627149" lat="50.8903645" lon="11.4372933">
    <tag k="name" v="Niedersynderstedt"/>
    <tag k="traffic_sign" v="city_limit"/>
  </node>
  <node id="349888165" version="1" timestamp="2009-02-23T08:22:21Z" uid="9581" user="Lobelt" changeset="627149" lat="50.8852355" lon="11.4411424">
    <tag k="name" v="Niedersynderstedt"/>
    <tag k="traffic_sign" v="city_limit"/>
  </node>
  <node id="349888168" version="1" timestamp="2009-02-23T08:22:21Z" uid="9581" user="Lobelt" changeset="627149" lat="50.8857618" lon="11.4413003"/>
  <node id="349888170" version="1" timestamp="2009-02-23T08:22:21Z" uid="9581" user="Lobelt" changeset="627149" lat="50.875582" lon="11.432159">
    <tag k="name" v="Söllnitz"/>
    <tag k="traffic_sign" v="city_limit"/>
  </node>
  <node id="349888170" version="2" timestamp="2011-05-01T21:53:57Z" uid="9581" user="Lobelt" changeset="8026477" lat="50.8755517" lon="11.4322071">
    <tag k="name" v="Söllnitz"/>
    <tag k="traffic_sign" v="city_limit"/>
  </node>
  <node id="349888173" version="1" timestamp="2009-02-23T08:22:21Z" uid="9581" user="Lobelt" changeset="627149" lat="50.8636218" lon="11.4255101">
    <tag k="name" v="Loßnitz"/>
    <tag k="traffic_sign" v="city_limit"/>
  </node>
  <node id="349889342" version="2" timestamp="2010-07-29T09:19:31Z" uid="74617" user="JohnSmith" changeset="5344848" lat="51.2701423" lon="12.6785606">
    <tag k="amenity" v="emergency_phone"/>
    <tag k="emergency" v="phone"/>
    <tag k="operator" v="Autobahnmeisterei"/>
  </node>
  <node id="349889343" version="2" timestamp="2010-07-29T09:26:04Z" uid="74617" user="JohnSmith" changeset="5344848" lat="51.2703514" lon="12.6789193">
    <tag k="amenity" v="emergency_phone"/>
    <tag k="emergency" v="phone"/>
    <tag k="operator" v="Autobahnmeisterei"/>
  </node>
  <node id="349889345" version="2" timestamp="2010-07-29T09:14:56Z" uid="74617" user="JohnSmith" changeset="5344848" lat="51.2820468" lon="12.6519908">
    <tag k="amenity" v="emergency_phone"/>
    <tag k="emergency" v="phone"/>
    <tag k="operator" v="Autobahnmeisterei"/>
  </node>
  <node id="349889346" version="2" timestamp="2010-07-29T09:38:01Z" uid="74617" user="JohnSmith" changeset="5344848" lat="51.282388" lon="12.6523411">
    <tag k="amenity" v="emergency_phone"/>
    <tag k="emergency" v="phone"/>
    <tag k="operator" v="Autobahnmeisterei"/>
  </node>
  <node id="349889347" version="2" timestamp="2010-07-29T08:58:20Z" uid="74617" user="JohnSmith" changeset="5344848" lat="51.2866133" lon="12.6392671">
    <tag k="amenity" v="emergency_phone"/>
    <tag k="emergency" v="phone"/>
    <tag k="operator" v="Autobahnmeisterei"/>
  </node>
  <node id="349889349" version="2" timestamp="2010-07-29T09:40:54Z" uid="74617" user="JohnSmith" changeset="5344848" lat="51.2858906" lon="12.6398526">
    <tag k="amenity" v="emergency_phone"/>
    <tag k="emergency" v="phone"/>
    <tag k="operator" v="Autobahnmeisterei"/>
  </node>
  <node id="349889350" version="2" timestamp="2010-07-29T09:20:47Z" uid="74617" user="JohnSmith" changeset="5344848" lat="51.3111976" lon="12.5536193">
    <tag k="amenity" v="emergency_phone"/>
    <tag k="emergency" v="phone"/>
    <tag k="operator" v="Autobahnmeisterei"/>
  </node>
  <node id="349889351" version="2" timestamp="2010-07-29T09:27:03Z" uid="74617" user="JohnSmith" changeset="5344848" lat="51.3104362" lon="12.553282">
    <tag k="amenity" v="emergency_phone"/>
    <tag k="emergency" v="phone"/>
    <tag k="operator" v="Autobahnmeisterei"/>
  </node>
  <node id="349889352" version="2" timestamp="2010-07-29T09:17:26Z" uid="74617" user="JohnSmith" changeset="5344848" lat="51.3022884" lon="12.5448445">
    <tag k="amenity" v="emergency_phone"/>
    <tag k="emergency" v="phone"/>
    <tag k="operator" v="Autobahnmeisterei"/>
  </node>
  <node id="349889354" version="2" timestamp="2010-07-29T09:01:17Z" uid="74617" user="JohnSmith" changeset="5344848" lat="51.30267" lon="12.5440307">
    <tag k="amenity" v="emergency_phone"/>
    <tag k="emergency" v="phone"/>
    <tag k="operator" v="Autobahnmeisterei"/>
  </node>
  <node id="349889355" version="2" timestamp="2010-07-29T09:11:28Z" uid="74617" user="JohnSmith" changeset="5344848" lat="51.2906197" lon="12.5253031">
    <tag k="amenity" v="emergency_phone"/>
    <tag k="emergency" v="phone"/>
    <tag k="operator" v="Autobahnmeisterei"/>
  </node>
  <node id="349889356" version="2" timestamp="2010-07-29T08:58:06Z" uid="74617" user="JohnSmith" changeset="5344848" lat="51.2910159" lon="12.5248423">
    <tag k="amenity" v="emergency_phone"/>
    <tag k="emergency" v="phone"/>
    <tag k="operator" v="Autobahnmeisterei"/>
  </node>
  <node id="349889358" version="2" timestamp="2010-07-29T09:29:22Z" uid="74617" user="JohnSmith" changeset="5344848" lat="51.2651142" lon="12.4813925">
    <tag k="amenity" v="emergency_phone"/>
    <tag k="emergency" v="phone"/>
    <tag k="operator" v="Autobahnmeisterei"/>
  </node>
  <node id="349889359" version="2" timestamp="2010-07-29T09:37:32Z" uid="74617" user="JohnSmith" changeset="5344848" lat="51.2654785" lon="12.480969">
    <tag k="amenity" v="emergency_phone"/>
    <tag k="emergency" v="phone"/>
    <tag k="operator" v="Autobahnmeisterei"/>
  </node>
  <node id="349889360" version="2" timestamp="2010-07-29T09:26:42Z" uid="74617" user="JohnSmith" changeset="5344848" lat="51.2620701" lon="12.4646508">
    <tag k="amenity" v="emergency_phone"/>
    <tag k="emergency" v="phone"/>
    <tag k="operator" v="Autobahnmeisterei"/>
  </node>
  <node id="349889361" version="2" timestamp="2010-07-29T09:32:56Z" uid="74617" user="JohnSmith" changeset="5344848" lat="51.2626694" lon="12.4624315">
    <tag k="amenity" v="emergency_phone"/>
    <tag k="emergency" v="phone"/>
    <tag k="operator" v="Autobahnmeisterei"/>
  </node>
  <node id="349889363" version="2" timestamp="2010-07-29T09:20:28Z" uid="74617" user="JohnSmith" changeset="5344848" lat="51.3308189" lon="12.513015">
    <tag k="amenity" v="emergency_phone"/>
    <tag k="emergency" v="phone"/>
    <tag k="operator" v="Autobahnmeisterei"/>
  </node>
  <node id="349889364" version="2" timestamp="2010-07-29T09:11:01Z" uid="74617" user="JohnSmith" changeset="5344848" lat="51.3306833" lon="12.5119922">
    <tag k="amenity" v="emergency_phone"/>
    <tag k="emergency" v="phone"/>
    <tag k="operator" v="Autobahnmeisterei"/>
  </node>
  <node id="349889748" version="1" timestamp="2009-02-23T08:27:54Z" uid="9581" user="Lobelt" changeset="627149" lat="49.4931832" lon="8.6727421"/>
  <node id="349889750" version="1" timestamp="2009-02-23T08:27:54Z" uid="9581" user="Lobelt" changeset="627149" lat="49.4926642" lon="8.6751965"/>
  <node id="349889752" version="1" timestamp="2009-02-23T08:27:55Z" uid="9581" user="Lobelt" changeset="627149" lat="49.4927637" lon="8.6749593">
    <tag k="leisure" v="playground"/>
  </node>
  <node id="349889753" version="1" timestamp="2009-02-23T08:27:55Z" uid="9581" user="Lobelt" changeset="627149" lat="49.4963745" lon="8.6714208">
    <tag k="fireplace" v="yes"/>
    <tag k="tourism" v="picnic_site"/>
  </node>
  <node id="349889754" version="1" timestamp="2009-02-23T08:27:55Z" uid="9581" user="Lobelt" changeset="627149" lat="49.4910071" lon="8.6752649"/>
  <node id="349889756" version="1" timestamp="2009-02-23T08:27:55Z" uid="9581" user="Lobelt" changeset="627149" lat="49.4912046" lon="8.6755852"/>
  <node id="349889757" version="1" timestamp="2009-02-23T08:27:55Z" uid="9581" user="Lobelt" changeset="627149" lat="49.491354" lon="8.6756947"/>
  <node id="349889758" version="1" timestamp="2009-02-23T08:27:55Z" uid="9581" user="Lobelt" changeset="627149" lat="49.4914802" lon="8.675692"/>
  <node id="349889760" version="1" timestamp="2009-02-23T08:27:55Z" uid="9581" user="Lobelt" changeset="627149" lat="49.4916368" lon="8.6755633"/>
  <node id="349889761" version="1" timestamp="2009-02-23T08:27:55Z" uid="9581" user="Lobelt" changeset="627149" lat="49.4919409" lon="8.6755934"/>
  <node id="349889762" version="1" timestamp="2009-02-23T08:27:55Z" uid="9581" user="Lobelt" changeset="627149" lat="49.4921134" lon="8.6757769"/>
  <node id="349889764" version="1" timestamp="2009-02-23T08:27:56Z" uid="9581" user="Lobelt" changeset="627149" lat="49.4923891" lon="8.6761192"/>
  <node id="349889765" version="1" timestamp="2009-02-23T08:27:56Z" uid="9581" user="Lobelt" changeset="627149" lat="49.4925136" lon="8.6763273"/>
  <node id="349889765" version="2" timestamp="2009-10-27T21:36:52Z" uid="9581" user="Lobelt" changeset="2969273" lat="49.4924707" lon="8.6762905"/>
</osm>
