<?xml version='1.0' encoding='UTF-8'?>
<osm version="0.6" generator="libosmium/2.20.0">
  <node id="350005916" version="5" timestamp="2009-05-01T19:17:59Z" uid="20587" user="balrog-kun" changeset="1041038" lat="50.3155669" lon="16.7335883">
    <tag k="is_in" v="gmina Bystrzyca Kłodzka, powiat kłodzki, województwo dolnośląskie, Poland"/>
    <tag k="is_in:country" v="Poland"/>
    <tag k="is_in:county" v="powiat kłodzki"/>
    <tag k="is_in:municipality" v="gmina Bystrzyca Kłodzka"/>
    <tag k="is_in:province" v="województwo dolnośląskie"/>
    <tag k="name" v="Nowy Waliszów"/>
    <tag k="place" v="village"/>
    <tag k="teryt:rm" v="01"/>
    <tag k="teryt:simc" v="0851488"/>
    <tag k="teryt:stan_na" v="2009-01-01"/>
    <tag k="teryt:terc" v="0208065"/>
    <tag k="teryt:updated_by" v="teryt2osm combine.py v. 43"/>
    <tag k="wikipedia" v="Nowy Waliszów"/>
  </node>
  <node id="350005916" version="7" timestamp="2010-04-11T04:39:44Z" uid="20587" user="balrog-kun" changeset="4389130" lat="50.3139764" lon="16.7350396">
    <tag k="is_in" v="gmina Bystrzyca Kłodzka, powiat kłodzki, województwo dolnośląskie, Poland"/>
    <tag k="is_in:country" v="Poland"/>
    <tag k="is_in:county" v="powiat kłodzki"/>
    <tag k="is_in:municipality" v="gmina Bystrzyca Kłodzka"/>
    <tag k="is_in:province" v="województwo dolnośląskie"/>
    <tag k="name" v="Nowy Waliszów"/>
    <tag k="place" v="village"/>
    <tag k="teryt:rm" v="01"/>
    <tag k="teryt:simc" v="0851488"/>
    <tag k="teryt:stan_na" v="2009-01-01"/>
    <tag k="teryt:terc" v="0208065"/>
    <tag k="teryt:updated_by" v="teryt2osm combine.py v. 43"/>
    <tag k="wikipedia" v="Nowy Waliszów"/>
  </node>
  <node id="350005916" version="8" timestamp="2010-04-11T13:14:57Z" uid="20587" user="balrog-kun" changeset="4392352" lat="50.314082" lon="16.734778">
    <tag k="is_in" v="gmina Bystrzyca Kłodzka, powiat kłodzki, województwo dolnośląskie, Poland"/>
    <tag k="is_in:country" v="Poland"/>
    <tag k="is_in:county" v="powiat kłodzki"/>
    <tag k="is_in:municipality" v="gmina Bystrzyca Kłodzka"/>
    <tag k="is_in:province" v="województwo dolnośląskie"/>
    <tag k="name" v="Nowy Waliszów"/>
    <tag k="place" v="village"/>
    <tag k="teryt:rm" v="01"/>
    <tag k="teryt:simc" v="0851488"/>
    <tag k="teryt:stan_na" v="2009-01-01"/>
    <tag k="teryt:terc" v="0208065"/>
    <tag k="teryt:updated_by" v="teryt2osm combine.py v. 43"/>
    <tag k="wikipedia" v="Nowy Waliszów"/>
  </node>
  <node id="350008334" version="3" timestamp="2009-05-01T19:19:21Z" uid="20587" user="balrog-kun" changeset="1041038" lat="50.3221433" lon="16.8286887">
    <tag k="addr:postcode" v="57-540"/>
    <tag k="is_in" v="gmina Lądek-Zdrój, powiat kłodzki, województwo dolnośląskie, Poland"/>
    <tag k="is_in:county" v="powiat kłodzki"/>
    <tag k="is_in:municipality" v="gmina Lądek-Zdrój"/>
    <tag k="is_in:province" v="województwo dolnośląskie"/>
    <tag k="name" v="Katy Bystrzyckie"/>
    <tag k="place" v="village"/>
    <tag k="population" v="68"/>
    <tag k="source:population" v="wikipedia"/>
    <tag k="wikipedia" v="Kąty Bystrzyckie"/>
  </node>
  <node id="350009881" version="5" timestamp="2009-05-01T19:18:01Z" uid="20587" user="balrog-kun" changeset="1041038" lat="50.3234585" lon="16.8032828">
    <tag k="addr:postcode" v="57-540"/>
    <tag k="is_in" v="gmina Lądek-Zdrój, powiat kłodzki, województwo dolnośląskie, Poland"/>
    <tag k="is_in:country" v="Poland"/>
    <tag k="is_in:county" v="powiat kłodzki"/>
    <tag k="is_in:municipality" v="gmina Lądek-Zdrój"/>
    <tag k="is_in:province" v="województwo dolnośląskie"/>
    <tag k="name" v="Konradów"/>
    <tag k="place" v="village"/>
    <tag k="population" v="310"/>
    <tag k="source:population" v="wikipedia"/>
    <tag k="teryt:rm" v="01"/>
    <tag k="teryt:simc" v="0853145"/>
    <tag k="teryt:stan_na" v="2009-01-01"/>
    <tag k="teryt:terc" v="0208085"/>
    <tag k="teryt:updated_by" v="teryt2osm combine.py v. 43"/>
    <tag k="wikipedia" v="Konradów, Lower Silesian Voivodeship"/>
  </node>
  <node id="350009881" version="8" timestamp="2010-04-11T04:39:44Z" uid="20587" user="balrog-kun" changeset="4389130" lat="50.3098783" lon="16.7927506">
    <tag k="addr:postcode" v="57-540"/>
    <tag k="is_in" v="gmina Lądek-Zdrój, powiat kłodzki, województwo dolnośląskie, Poland"/>
    <tag k="is_in:country" v="Poland"/>
    <tag k="is_in:county" v="powiat kłodzki"/>
    <tag k="is_in:municipality" v="gmina Lądek-Zdrój"/>
    <tag k="is_in:province" v="województwo dolnośląskie"/>
    <tag k="name" v="Konradów"/>
    <tag k="place" v="village"/>
    <tag k="population" v="310"/>
    <tag k="source:population" v="wikipedia"/>
    <tag k="teryt:rm" v="01"/>
    <tag k="teryt:simc" v="0853145"/>
    <tag k="teryt:stan_na" v="2009-01-01"/>
    <tag k="teryt:terc" v="0208085"/>
    <tag k="teryt:updated_by" v="teryt2osm combine.py v. 43"/>
    <tag k="wikipedia" v="Konradów, Lower Silesian Voivodeship"/>
  </node>
  <node id="350009881" version="9" timestamp="2010-04-11T13:14:57Z" uid="20587" user="balrog-kun" changeset="4392352" lat="50.3083004" lon="16.7925365">
    <tag k="addr:postcode" v="57-540"/>
    <tag k="is_in" v="gmina Lądek-Zdrój, powiat kłodzki, województwo dolnośląskie, Poland"/>
    <tag k="is_in:country" v="Poland"/>
    <tag k="is_in:county" v="powiat kłodzki"/>
    <tag k="is_in:municipality" v="gmina Lądek-Zdrój"/>
    <tag k="is_in:province" v="województwo dolnośląskie"/>
    <tag k="name" v="Konradów"/>
    <tag k="place" v="village"/>
    <tag k="population" v="310"/>
    <tag k="source:population" v="wikipedia"/>
    <tag k="teryt:rm" v="01"/>
    <tag k="teryt:simc" v="0853145"/>
    <tag k="teryt:stan_na" v="2009-01-01"/>
    <tag k="teryt:terc" v="0208085"/>
    <tag k="teryt:updated_by" v="teryt2osm combine.py v. 43"/>
    <tag k="wikipedia" v="Konradów, Lower Silesian Voivodeship"/>
  </node>
</osm>
