<?xml version='1.0' encoding='UTF-8'?>
<osm version="0.6" generator="libosmium/2.20.0">
  <node id="350068711" version="1" timestamp="2009-02-23T14:54:33Z" uid="20587" user="balrog-kun" changeset="639782" lat="52.2414082" lon="21.1142035">
    <tag k="addr:city" v="Warszawa@Warszawa Praga"/>
    <tag k="addr:housenumber" v="13"/>
    <tag k="addr:street" v="Podolska"/>
    <tag k="source" v="http://ump.waw.pl/ retrieved 13:05:59 02/23/09 (UMP-Warszawa/src/WARSZAWA_PRAGA.ulice.txt)"/>
  </node>
  <node id="350068722" version="1" timestamp="2009-02-23T14:54:33Z" uid="20587" user="balrog-kun" changeset="639782" lat="52.248014" lon="21.1091973">
    <tag k="addr:city" v="Warszawa@Warszawa Praga"/>
    <tag k="addr:housenumber" v="3"/>
    <tag k="addr:street" v="Dęby"/>
    <tag k="source" v="http://ump.waw.pl/ retrieved 13:05:59 02/23/09 (UMP-Warszawa/src/WARSZAWA_PRAGA.ulice.txt)"/>
  </node>
  <node id="350068732" version="1" timestamp="2009-02-23T14:54:33Z" uid="20587" user="balrog-kun" changeset="639782" lat="52.2493839" lon="21.0987997">
    <tag k="addr:city" v="Warszawa@Warszawa Praga"/>
    <tag k="addr:housenumber" v="55"/>
    <tag k="addr:street" v="Boremlowska"/>
    <tag k="source" v="http://ump.waw.pl/ retrieved 13:05:59 02/23/09 (UMP-Warszawa/src/WARSZAWA_PRAGA.ulice.txt)"/>
  </node>
  <node id="350068732" version="2" timestamp="2009-03-16T11:37:27Z" uid="20587" user="balrog-kun" changeset="818470" lat="52.2492561" lon="21.0990346">
    <tag k="addr:city" v="Warszawa@Warszawa Praga"/>
    <tag k="addr:housenumber" v="55"/>
    <tag k="addr:street" v="Boremlowska"/>
    <tag k="source" v="http://ump.waw.pl/ retrieved 13:05:59 02/23/09 (UMP-Warszawa/src/WARSZAWA_PRAGA.ulice.txt)"/>
  </node>
  <node id="350068732" version="3" timestamp="2009-05-13T17:47:15Z" uid="20587" user="balrog-kun" changeset="1177729" lat="52.2492561" lon="21.0991679">
    <tag k="addr:city" v="Warszawa@Warszawa Praga"/>
    <tag k="addr:housenumber" v="55"/>
    <tag k="addr:street" v="Boremlowska"/>
    <tag k="source" v="http://ump.waw.pl/ retrieved 13:05:59 02/23/09 (UMP-Warszawa/src/WARSZAWA_PRAGA.ulice.txt)"/>
  </node>
  <node id="350068743" version="1" timestamp="2009-02-23T14:54:33Z" uid="20587" user="balrog-kun" changeset="639782" lat="52.2473164" lon="21.1059692">
    <tag k="addr:city" v="Warszawa@Warszawa Praga"/>
    <tag k="addr:housenumber" v="19"/>
    <tag k="addr:street" v="Boremlowska"/>
    <tag k="source" v="http://ump.waw.pl/ retrieved 13:05:59 02/23/09 (UMP-Warszawa/src/WARSZAWA_PRAGA.ulice.txt)"/>
  </node>
  <node id="350068743" version="2" timestamp="2009-03-16T11:41:09Z" uid="20587" user="balrog-kun" changeset="818470" lat="52.247393" lon="21.1056954">
    <tag k="addr:city" v="Warszawa@Warszawa Praga"/>
    <tag k="addr:housenumber" v="19"/>
    <tag k="addr:street" v="Boremlowska"/>
    <tag k="source" v="http://ump.waw.pl/ retrieved 13:05:59 02/23/09 (UMP-Warszawa/src/WARSZAWA_PRAGA.ulice.txt)"/>
  </node>
  <node id="350068753" version="1" timestamp="2009-02-23T14:54:34Z" uid="20587" user="balrog-kun" changeset="639782" lat="52.2396572" lon="21.1078406">
    <tag k="addr:city" v="Warszawa@Warszawa Praga"/>
    <tag k="addr:housenumber" v="5"/>
    <tag k="addr:street" v="Pustelnicka"/>
    <tag k="source" v="http://ump.waw.pl/ retrieved 13:05:59 02/23/09 (UMP-Warszawa/src/WARSZAWA_PRAGA.ulice.txt)"/>
  </node>
  <node id="350068761" version="1" timestamp="2009-02-23T14:54:34Z" uid="20587" user="balrog-kun" changeset="639782" lat="52.2387419" lon="21.1182087">
    <tag k="addr:city" v="Warszawa@Warszawa Praga"/>
    <tag k="addr:housenumber" v="38"/>
    <tag k="addr:street" v="Grochowska"/>
    <tag k="source" v="http://ump.waw.pl/ retrieved 13:05:59 02/23/09 (UMP-Warszawa/src/WARSZAWA_PRAGA.ulice.txt)"/>
  </node>
  <node id="350068767" version="1" timestamp="2009-02-23T14:54:34Z" uid="20587" user="balrog-kun" changeset="639782" lat="52.2476741" lon="21.1031962">
    <tag k="addr:city" v="Warszawa@Warszawa Praga"/>
    <tag k="addr:housenumber" v="12"/>
    <tag k="addr:street" v="Obarowska"/>
    <tag k="source" v="http://ump.waw.pl/ retrieved 13:05:59 02/23/09 (UMP-Warszawa/src/WARSZAWA_PRAGA.ulice.txt)"/>
  </node>
  <node id="350068775" version="1" timestamp="2009-02-23T14:54:34Z" uid="20587" user="balrog-kun" changeset="639782" lat="52.2404872" lon="21.1095808">
    <tag k="addr:city" v="Warszawa@Warszawa Praga"/>
    <tag k="addr:housenumber" v="83"/>
    <tag k="addr:street" v="Grochowska"/>
    <tag k="source" v="http://ump.waw.pl/ retrieved 13:05:59 02/23/09 (UMP-Warszawa/src/WARSZAWA_PRAGA.ulice.txt)"/>
  </node>
  <node id="350068775" version="2" timestamp="2010-01-10T13:51:49Z" uid="20587" user="balrog-kun" changeset="3587090" lat="52.2404872" lon="21.1095808">
    <tag k="addr:city" v="Warszawa@Warszawa Praga"/>
    <tag k="addr:housenumber" v="83"/>
    <tag k="addr:street" v="Grochowska"/>
    <tag k="source" v="http://ump.waw.pl/ retrieved 13:05:59 02/23/09 (UMP-Warszawa/src/WARSZAWA_PRAGA.ulice.txt)"/>
  </node>
  <node id="350068784" version="1" timestamp="2009-02-23T14:54:35Z" uid="20587" user="balrog-kun" changeset="639782" lat="52.2488568" lon="21.1017456">
    <tag k="addr:city" v="Warszawa@Warszawa Praga"/>
    <tag k="addr:housenumber" v="40"/>
    <tag k="addr:street" v="Boremlowska"/>
    <tag k="source" v="http://ump.waw.pl/ retrieved 13:05:59 02/23/09 (UMP-Warszawa/src/WARSZAWA_PRAGA.ulice.txt)"/>
  </node>
  <node id="350068791" version="1" timestamp="2009-02-23T14:54:35Z" uid="20587" user="balrog-kun" changeset="639782" lat="52.2427703" lon="21.1133352">
    <tag k="addr:city" v="Warszawa@Warszawa Praga"/>
    <tag k="addr:housenumber" v="11"/>
    <tag k="addr:street" v="Kwatery Głównej"/>
    <tag k="source" v="http://ump.waw.pl/ retrieved 13:05:59 02/23/09 (UMP-Warszawa/src/WARSZAWA_PRAGA.ulice.txt)"/>
  </node>
  <node id="350068791" version="2" timestamp="2010-07-25T17:24:55Z" uid="20587" user="balrog-kun" changeset="5314114" lat="52.2427703" lon="21.1133352">
    <tag k="addr:city" v="Warszawa@Warszawa Praga"/>
    <tag k="addr:housenumber" v="11"/>
    <tag k="addr:street" v="Kwatery Głównej"/>
    <tag k="source" v="http://ump.waw.pl/ retrieved 13:05:59 02/23/09 (UMP-Warszawa/src/WARSZAWA_PRAGA.ulice.txt)"/>
  </node>
  <node id="350068798" version="1" timestamp="2009-02-23T14:54:35Z" uid="20587" user="balrog-kun" changeset="639782" lat="52.2461745" lon="21.1117355">
    <tag k="addr:city" v="Warszawa@Warszawa Praga"/>
    <tag k="addr:housenumber" v="7"/>
    <tag k="addr:street" v="Tyśmienicka"/>
    <tag k="source" v="http://ump.waw.pl/ retrieved 13:05:59 02/23/09 (UMP-Warszawa/src/WARSZAWA_PRAGA.ulice.txt)"/>
  </node>
  <node id="350068806" version="1" timestamp="2009-02-23T14:54:36Z" uid="20587" user="balrog-kun" changeset="639782" lat="52.2524243" lon="21.0946374">
    <tag k="addr:city" v="Warszawa@Warszawa Praga"/>
    <tag k="addr:housenumber" v="38"/>
    <tag k="addr:street" v="Garwolińska"/>
    <tag k="source" v="http://ump.waw.pl/ retrieved 13:05:59 02/23/09 (UMP-Warszawa/src/WARSZAWA_PRAGA.ulice.txt)"/>
  </node>
  <node id="350068806" version="2" timestamp="2009-03-16T11:37:03Z" uid="20587" user="balrog-kun" changeset="818470" lat="52.2524243" lon="21.0946374">
    <tag k="addr:city" v="Warszawa@Warszawa Praga"/>
    <tag k="addr:housenumber" v="38"/>
    <tag k="addr:street" v="Garwolińska"/>
    <tag k="source" v="http://ump.waw.pl/ retrieved 13:05:59 02/23/09 (UMP-Warszawa/src/WARSZAWA_PRAGA.ulice.txt)"/>
  </node>
  <node id="350068905" version="1" timestamp="2009-02-23T14:54:39Z" uid="20587" user="balrog-kun" changeset="639782" lat="52.2469359" lon="21.1098854">
    <tag k="addr:city" v="Warszawa@Warszawa Praga"/>
    <tag k="addr:housenumber" v="41"/>
    <tag k="addr:street" v="Żółkiewskiego"/>
    <tag k="source" v="http://ump.waw.pl/ retrieved 13:05:59 02/23/09 (UMP-Warszawa/src/WARSZAWA_PRAGA.ulice.txt)"/>
  </node>
  <node id="350068913" version="1" timestamp="2009-02-23T14:54:39Z" uid="20587" user="balrog-kun" changeset="639782" lat="52.241997" lon="21.1017073">
    <tag k="addr:city" v="Warszawa@Warszawa Praga"/>
    <tag k="addr:housenumber" v="87"/>
    <tag k="addr:street" v="Zamieniecka"/>
    <tag k="source" v="http://ump.waw.pl/ retrieved 13:05:59 02/23/09 (UMP-Warszawa/src/WARSZAWA_PRAGA.ulice.txt)"/>
  </node>
  <node id="350068921" version="1" timestamp="2009-02-23T14:54:40Z" uid="20587" user="balrog-kun" changeset="639782" lat="52.2457316" lon="21.1083525">
    <tag k="addr:city" v="Warszawa@Warszawa Praga"/>
    <tag k="addr:housenumber" v="60"/>
    <tag k="addr:street" v="Szaserów"/>
    <tag k="source" v="http://ump.waw.pl/ retrieved 13:05:59 02/23/09 (UMP-Warszawa/src/WARSZAWA_PRAGA.ulice.txt)"/>
  </node>
  <node id="350068930" version="1" timestamp="2009-02-23T14:54:40Z" uid="20587" user="balrog-kun" changeset="639782" lat="52.2404078" lon="21.1099714">
    <tag k="addr:city" v="Warszawa@Warszawa Praga"/>
    <tag k="addr:housenumber" v="75"/>
    <tag k="addr:street" v="Grochowska"/>
    <tag k="source" v="http://ump.waw.pl/ retrieved 13:05:59 02/23/09 (UMP-Warszawa/src/WARSZAWA_PRAGA.ulice.txt)"/>
  </node>
  <node id="350068940" version="1" timestamp="2009-02-23T14:54:40Z" uid="20587" user="balrog-kun" changeset="639782" lat="52.2458138" lon="21.1062204">
    <tag k="addr:city" v="Warszawa@Warszawa Praga"/>
    <tag k="addr:housenumber" v="67"/>
    <tag k="addr:street" v="Szaserów"/>
    <tag k="source" v="http://ump.waw.pl/ retrieved 13:05:59 02/23/09 (UMP-Warszawa/src/WARSZAWA_PRAGA.ulice.txt)"/>
  </node>
  <node id="350068940" version="2" timestamp="2011-05-19T23:43:09Z" uid="20587" user="balrog-kun" changeset="8194391" lat="52.2457732" lon="21.1061209">
    <tag k="addr:city" v="Warszawa@Warszawa Praga"/>
    <tag k="addr:housenumber" v="67"/>
    <tag k="addr:street" v="Szaserów"/>
    <tag k="source" v="http://ump.waw.pl/ retrieved 13:05:59 02/23/09 (UMP-Warszawa/src/WARSZAWA_PRAGA.ulice.txt)"/>
  </node>
  <node id="350068947" version="1" timestamp="2009-02-23T14:54:40Z" uid="20587" user="balrog-kun" changeset="639782" lat="52.2453176" lon="21.1079316">
    <tag k="addr:city" v="Warszawa@Warszawa Praga"/>
    <tag k="addr:housenumber" v="25"/>
    <tag k="addr:street" v="Domeyki"/>
    <tag k="source" v="http://ump.waw.pl/ retrieved 13:05:59 02/23/09 (UMP-Warszawa/src/WARSZAWA_PRAGA.ulice.txt)"/>
  </node>
  <node id="350068953" version="1" timestamp="2009-02-23T14:54:41Z" uid="20587" user="balrog-kun" changeset="639782" lat="52.2448061" lon="21.1053991">
    <tag k="addr:city" v="Warszawa@Warszawa Praga"/>
    <tag k="addr:housenumber" v="38"/>
    <tag k="addr:street" v="Osowska"/>
    <tag k="source" v="http://ump.waw.pl/ retrieved 13:05:59 02/23/09 (UMP-Warszawa/src/WARSZAWA_PRAGA.ulice.txt)"/>
  </node>
  <node id="350068959" version="1" timestamp="2009-02-23T14:54:41Z" uid="20587" user="balrog-kun" changeset="639782" lat="52.2446356" lon="21.1065492">
    <tag k="addr:city" v="Warszawa@Warszawa Praga"/>
    <tag k="addr:housenumber" v="34"/>
    <tag k="addr:street" v="Osowska"/>
    <tag k="source" v="http://ump.waw.pl/ retrieved 13:05:59 02/23/09 (UMP-Warszawa/src/WARSZAWA_PRAGA.ulice.txt)"/>
  </node>
  <node id="350068967" version="1" timestamp="2009-02-23T14:54:41Z" uid="20587" user="balrog-kun" changeset="639782" lat="52.241619" lon="21.1074112">
    <tag k="addr:city" v="Warszawa@Warszawa Praga"/>
    <tag k="addr:housenumber" v="1"/>
    <tag k="addr:street" v="Żółkiewskiego"/>
    <tag k="source" v="http://ump.waw.pl/ retrieved 13:05:59 02/23/09 (UMP-Warszawa/src/WARSZAWA_PRAGA.ulice.txt)"/>
  </node>
  <node id="350068975" version="1" timestamp="2009-02-23T14:54:42Z" uid="20587" user="balrog-kun" changeset="639782" lat="52.2480543" lon="21.1354616">
    <tag k="addr:city" v="Warszawa@Warszawa Rembertów"/>
    <tag k="addr:housenumber" v="37"/>
    <tag k="addr:street" v="Szymańskiego"/>
    <tag k="source" v="http://ump.waw.pl/ retrieved 13:05:59 02/23/09 (UMP-Warszawa/src/WARSZAWA_REMBERTOW.ulice.txt)"/>
  </node>
  <node id="350068980" version="1" timestamp="2009-02-23T14:54:42Z" uid="20587" user="balrog-kun" changeset="639782" lat="52.2478011" lon="21.1347802"/>
  <node id="350068988" version="1" timestamp="2009-02-23T14:54:42Z" uid="20587" user="balrog-kun" changeset="639782" lat="52.2459238" lon="21.1002806">
    <tag k="addr:city" v="Warszawa@Warszawa Praga"/>
    <tag k="addr:housenumber" v="64"/>
    <tag k="addr:street" v="Osowska"/>
    <tag k="source" v="http://ump.waw.pl/ retrieved 13:05:59 02/23/09 (UMP-Warszawa/src/WARSZAWA_PRAGA.ulice.txt)"/>
  </node>
  <node id="350068995" version="1" timestamp="2009-02-23T14:54:43Z" uid="20587" user="balrog-kun" changeset="639782" lat="52.2430691" lon="21.107379">
    <tag k="addr:city" v="Warszawa@Warszawa Praga"/>
    <tag k="addr:housenumber" v="2"/>
    <tag k="addr:street" v="Zaliwskiego"/>
    <tag k="source" v="http://ump.waw.pl/ retrieved 13:05:59 02/23/09 (UMP-Warszawa/src/WARSZAWA_PRAGA.ulice.txt)"/>
  </node>
  <node id="350068995" version="2" timestamp="2009-02-24T08:54:32Z" uid="20587" user="balrog-kun" changeset="647074" lat="52.2430691" lon="21.107379">
    <tag k="addr:city" v="Warszawa@Warszawa Praga"/>
    <tag k="addr:housenumber" v="2"/>
    <tag k="addr:street" v="Zaliwskiego"/>
    <tag k="source" v="http://ump.waw.pl/ retrieved 13:05:59 02/23/09 (UMP-Warszawa/src/WARSZAWA_PRAGA.ulice.txt)"/>
  </node>
  <node id="350069001" version="1" timestamp="2009-02-23T14:54:43Z" uid="20587" user="balrog-kun" changeset="639782" lat="52.2487645" lon="21.1006166">
    <tag k="addr:city" v="Warszawa@Warszawa Praga"/>
    <tag k="addr:housenumber" v="42"/>
    <tag k="addr:street" v="Nasielska"/>
    <tag k="source" v="http://ump.waw.pl/ retrieved 13:05:59 02/23/09 (UMP-Warszawa/src/WARSZAWA_PRAGA.ulice.txt)"/>
  </node>
  <node id="350069006" version="1" timestamp="2009-02-23T14:54:43Z" uid="20587" user="balrog-kun" changeset="639782" lat="52.2396978" lon="21.1161575">
    <tag k="addr:city" v="Warszawa@Warszawa Praga"/>
    <tag k="addr:housenumber" v="50"/>
    <tag k="addr:street" v="Grochowska"/>
    <tag k="source" v="http://ump.waw.pl/ retrieved 13:05:59 02/23/09 (UMP-Warszawa/src/WARSZAWA_PRAGA.ulice.txt)"/>
  </node>
  <node id="350069012" version="1" timestamp="2009-02-23T14:54:43Z" uid="20587" user="balrog-kun" changeset="639782" lat="52.2419319" lon="21.1001366">
    <tag k="addr:city" v="Warszawa@Warszawa Praga"/>
    <tag k="addr:housenumber" v="44"/>
    <tag k="addr:street" v="Mlądzka"/>
    <tag k="source" v="http://ump.waw.pl/ retrieved 13:05:59 02/23/09 (UMP-Warszawa/src/WARSZAWA_PRAGA.ulice.txt)"/>
  </node>
  <node id="350069018" version="1" timestamp="2009-02-23T14:54:44Z" uid="20587" user="balrog-kun" changeset="639782" lat="52.2389997" lon="21.1087106">
    <tag k="addr:city" v="Warszawa@Warszawa Praga"/>
    <tag k="addr:housenumber" v="41"/>
    <tag k="addr:street" v="Witolińska"/>
    <tag k="source" v="http://ump.waw.pl/ retrieved 13:05:59 02/23/09 (UMP-Warszawa/src/WARSZAWA_PRAGA.ulice.txt)"/>
  </node>
  <node id="350069024" version="1" timestamp="2009-02-23T14:54:44Z" uid="20587" user="balrog-kun" changeset="639782" lat="52.2495789" lon="21.1057704">
    <tag k="addr:city" v="Warszawa@Warszawa Praga"/>
    <tag k="addr:housenumber" v="119"/>
    <tag k="addr:street" v="Makowska"/>
    <tag k="source" v="http://ump.waw.pl/ retrieved 13:05:59 02/23/09 (UMP-Warszawa/src/WARSZAWA_PRAGA.ulice.txt)"/>
  </node>
  <node id="350069030" version="1" timestamp="2009-02-23T14:54:44Z" uid="20587" user="balrog-kun" changeset="639782" lat="52.2494309" lon="21.1056669">
    <tag k="addr:city" v="Warszawa@Warszawa Praga"/>
    <tag k="addr:housenumber" v="13"/>
    <tag k="addr:street" v="Pokrzywnicka"/>
    <tag k="source" v="http://ump.waw.pl/ retrieved 13:05:59 02/23/09 (UMP-Warszawa/src/WARSZAWA_PRAGA.ulice.txt)"/>
  </node>
  <node id="350069037" version="1" timestamp="2009-02-23T14:54:45Z" uid="20587" user="balrog-kun" changeset="639782" lat="52.2466649" lon="21.0987292">
    <tag k="addr:city" v="Warszawa@Warszawa Praga"/>
    <tag k="addr:housenumber" v="30"/>
    <tag k="addr:street" v="Nasielska"/>
    <tag k="source" v="http://ump.waw.pl/ retrieved 13:05:59 02/23/09 (UMP-Warszawa/src/WARSZAWA_PRAGA.ulice.txt)"/>
  </node>
  <node id="350069044" version="1" timestamp="2009-02-23T14:54:45Z" uid="20587" user="balrog-kun" changeset="639782" lat="52.2477394" lon="21.0999982">
    <tag k="addr:city" v="Warszawa@Warszawa Praga"/>
    <tag k="addr:housenumber" v="106"/>
    <tag k="addr:street" v="Szaserów"/>
    <tag k="source" v="http://ump.waw.pl/ retrieved 13:05:59 02/23/09 (UMP-Warszawa/src/WARSZAWA_PRAGA.ulice.txt)"/>
  </node>
  <node id="350069051" version="1" timestamp="2009-02-23T14:54:45Z" uid="20587" user="balrog-kun" changeset="639782" lat="52.2488531" lon="21.0985601">
    <tag k="addr:city" v="Warszawa@Warszawa Praga"/>
    <tag k="addr:housenumber" v="20"/>
    <tag k="addr:street" v="Wspólna Droga"/>
    <tag k="source" v="http://ump.waw.pl/ retrieved 13:05:59 02/23/09 (UMP-Warszawa/src/WARSZAWA_PRAGA.ulice.txt)"/>
  </node>
  <node id="350069057" version="1" timestamp="2009-02-23T14:54:46Z" uid="20587" user="balrog-kun" changeset="639782" lat="52.2455523" lon="21.1074261">
    <tag k="addr:city" v="Warszawa@Warszawa Praga"/>
    <tag k="addr:housenumber" v="61"/>
    <tag k="addr:street" v="Szaserów"/>
    <tag k="source" v="http://ump.waw.pl/ retrieved 13:05:59 02/23/09 (UMP-Warszawa/src/WARSZAWA_PRAGA.ulice.txt)"/>
  </node>
  <node id="350069076" version="1" timestamp="2009-02-23T14:54:46Z" uid="20587" user="balrog-kun" changeset="639782" lat="52.2471226" lon="21.1336826">
    <tag k="addr:city" v="Warszawa@Warszawa Rembertów"/>
    <tag k="addr:housenumber" v="24"/>
    <tag k="addr:street" v="Szymańskiego"/>
    <tag k="source" v="http://ump.waw.pl/ retrieved 13:05:59 02/23/09 (UMP-Warszawa/src/WARSZAWA_REMBERTOW.ulice.txt)"/>
  </node>
  <node id="350069082" version="1" timestamp="2009-02-23T14:54:47Z" uid="20587" user="balrog-kun" changeset="639782" lat="52.2487185" lon="21.0997951">
    <tag k="addr:city" v="Warszawa@Warszawa Praga"/>
    <tag k="addr:housenumber" v="17"/>
    <tag k="addr:street" v="Nasielska"/>
    <tag k="source" v="http://ump.waw.pl/ retrieved 13:05:59 02/23/09 (UMP-Warszawa/src/WARSZAWA_PRAGA.ulice.txt)"/>
  </node>
  <node id="350069082" version="2" timestamp="2009-05-13T17:47:15Z" uid="20587" user="balrog-kun" changeset="1177729" lat="52.2486198" lon="21.0996645">
    <tag k="addr:city" v="Warszawa@Warszawa Praga"/>
    <tag k="addr:housenumber" v="17"/>
    <tag k="addr:street" v="Nasielska"/>
    <tag k="source" v="http://ump.waw.pl/ retrieved 13:05:59 02/23/09 (UMP-Warszawa/src/WARSZAWA_PRAGA.ulice.txt)"/>
  </node>
  <node id="350069089" version="1" timestamp="2009-02-23T14:54:47Z" uid="20587" user="balrog-kun" changeset="639782" lat="52.2456727" lon="21.1061049">
    <tag k="addr:city" v="Warszawa@Warszawa Praga"/>
    <tag k="addr:housenumber" v="13"/>
    <tag k="addr:street" v="Zana"/>
    <tag k="source" v="http://ump.waw.pl/ retrieved 13:05:59 02/23/09 (UMP-Warszawa/src/WARSZAWA_PRAGA.ulice.txt)"/>
  </node>
  <node id="350069093" version="1" timestamp="2009-02-23T14:54:47Z" uid="20587" user="balrog-kun" changeset="639782" lat="52.246453" lon="21.1111711">
    <tag k="addr:city" v="Warszawa@Warszawa Praga"/>
    <tag k="addr:housenumber" v="44"/>
    <tag k="addr:street" v="Hetmańska"/>
    <tag k="source" v="http://ump.waw.pl/ retrieved 13:05:59 02/23/09 (UMP-Warszawa/src/WARSZAWA_PRAGA.ulice.txt)"/>
  </node>
  <node id="350069093" version="2" timestamp="2009-03-16T11:36:24Z" uid="20587" user="balrog-kun" changeset="818470" lat="52.246453" lon="21.1111711">
    <tag k="addr:city" v="Warszawa@Warszawa Praga"/>
    <tag k="addr:housenumber" v="44"/>
    <tag k="addr:street" v="Hetmańska"/>
    <tag k="source" v="http://ump.waw.pl/ retrieved 13:05:59 02/23/09 (UMP-Warszawa/src/WARSZAWA_PRAGA.ulice.txt)"/>
  </node>
  <node id="350069096" version="1" timestamp="2009-02-23T14:54:48Z" uid="20587" user="balrog-kun" changeset="639782" lat="52.2484332" lon="21.0983184">
    <tag k="addr:city" v="Warszawa@Warszawa Praga"/>
    <tag k="addr:housenumber" v="18"/>
    <tag k="addr:street" v="Wspólna Droga"/>
    <tag k="source" v="http://ump.waw.pl/ retrieved 13:05:59 02/23/09 (UMP-Warszawa/src/WARSZAWA_PRAGA.ulice.txt)"/>
  </node>
  <node id="350069098" version="1" timestamp="2009-02-23T14:54:48Z" uid="20587" user="balrog-kun" changeset="639782" lat="52.2428597" lon="21.1084444">
    <tag k="addr:city" v="Warszawa@Warszawa Praga"/>
    <tag k="addr:housenumber" v="18"/>
    <tag k="addr:street" v="Żółkiewskiego"/>
    <tag k="source" v="http://ump.waw.pl/ retrieved 13:05:59 02/23/09 (UMP-Warszawa/src/WARSZAWA_PRAGA.ulice.txt)"/>
  </node>
  <node id="350069100" version="1" timestamp="2009-02-23T14:54:48Z" uid="20587" user="balrog-kun" changeset="639782" lat="52.2482866" lon="21.098285">
    <tag k="addr:city" v="Warszawa@Warszawa Praga"/>
    <tag k="addr:housenumber" v="110"/>
    <tag k="addr:street" v="Szaserów"/>
    <tag k="source" v="http://ump.waw.pl/ retrieved 13:05:59 02/23/09 (UMP-Warszawa/src/WARSZAWA_PRAGA.ulice.txt)"/>
  </node>
  <node id="350069103" version="1" timestamp="2009-02-23T14:54:48Z" uid="20587" user="balrog-kun" changeset="639782" lat="52.2399677" lon="21.106266">
    <tag k="addr:city" v="Warszawa@Warszawa Praga"/>
    <tag k="addr:housenumber" v="50"/>
    <tag k="addr:street" v="Osiecka"/>
    <tag k="source" v="http://ump.waw.pl/ retrieved 13:05:59 02/23/09 (UMP-Warszawa/src/WARSZAWA_PRAGA.ulice.txt)"/>
  </node>
  <node id="350069105" version="1" timestamp="2009-02-23T14:54:49Z" uid="20587" user="balrog-kun" changeset="639782" lat="52.2481839" lon="21.1085623">
    <tag k="addr:city" v="Warszawa@Warszawa Praga"/>
    <tag k="addr:housenumber" v="7"/>
    <tag k="addr:street" v="Dęby"/>
    <tag k="source" v="http://ump.waw.pl/ retrieved 13:05:59 02/23/09 (UMP-Warszawa/src/WARSZAWA_PRAGA.ulice.txt)"/>
  </node>
  <node id="350069110" version="1" timestamp="2009-02-23T14:54:49Z" uid="20587" user="balrog-kun" changeset="639782" lat="52.2482047" lon="21.1041203">
    <tag k="addr:city" v="Warszawa@Warszawa Praga"/>
    <tag k="addr:housenumber" v="30"/>
    <tag k="addr:street" v="Boremlowska"/>
    <tag k="source" v="http://ump.waw.pl/ retrieved 13:05:59 02/23/09 (UMP-Warszawa/src/WARSZAWA_PRAGA.ulice.txt)"/>
  </node>
  <node id="350069113" version="1" timestamp="2009-02-23T14:54:49Z" uid="20587" user="balrog-kun" changeset="639782" lat="52.249726" lon="21.104484">
    <tag k="addr:city" v="Warszawa@Warszawa Praga"/>
    <tag k="addr:housenumber" v="68"/>
    <tag k="addr:street" v="Serocka"/>
    <tag k="source" v="http://ump.waw.pl/ retrieved 13:05:59 02/23/09 (UMP-Warszawa/src/WARSZAWA_PRAGA.ulice.txt)"/>
  </node>
  <node id="350069117" version="1" timestamp="2009-02-23T14:54:50Z" uid="20587" user="balrog-kun" changeset="639782" lat="52.2451338" lon="21.1113442">
    <tag k="addr:city" v="Warszawa@Warszawa Praga"/>
    <tag k="addr:housenumber" v="44"/>
    <tag k="addr:street" v="Szaserów"/>
    <tag k="source" v="http://ump.waw.pl/ retrieved 13:05:59 02/23/09 (UMP-Warszawa/src/WARSZAWA_PRAGA.ulice.txt)"/>
  </node>
  <node id="350069121" version="1" timestamp="2009-02-23T14:54:50Z" uid="20587" user="balrog-kun" changeset="639782" lat="52.2443712" lon="21.0994757">
    <tag k="addr:city" v="Warszawa@Warszawa Praga"/>
    <tag k="addr:housenumber" v="7"/>
    <tag k="addr:street" v="Serocka"/>
    <tag k="source" v="http://ump.waw.pl/ retrieved 13:05:59 02/23/09 (UMP-Warszawa/src/WARSZAWA_PRAGA.ulice.txt)"/>
  </node>
  <node id="350069121" version="2" timestamp="2009-12-19T12:10:43Z" uid="20587" user="balrog-kun" changeset="3406387" lat="52.2444235" lon="21.0995269">
    <tag k="addr:city" v="Warszawa@Warszawa Praga"/>
    <tag k="addr:housenumber" v="7"/>
    <tag k="addr:street" v="Serocka"/>
    <tag k="source" v="http://ump.waw.pl/ retrieved 13:05:59 02/23/09 (UMP-Warszawa/src/WARSZAWA_PRAGA.ulice.txt)"/>
  </node>
  <node id="350069127" version="1" timestamp="2009-02-23T14:54:50Z" uid="20587" user="balrog-kun" changeset="639782" lat="52.2491699" lon="21.0987425">
    <tag k="addr:city" v="Warszawa@Warszawa Praga"/>
    <tag k="addr:housenumber" v="22"/>
    <tag k="addr:street" v="Wspólna Droga"/>
    <tag k="source" v="http://ump.waw.pl/ retrieved 13:05:59 02/23/09 (UMP-Warszawa/src/WARSZAWA_PRAGA.ulice.txt)"/>
  </node>
  <node id="350069131" version="1" timestamp="2009-02-23T14:54:50Z" uid="20587" user="balrog-kun" changeset="639782" lat="52.2477597" lon="21.104328">
    <tag k="addr:city" v="Warszawa@Warszawa Praga"/>
    <tag k="addr:housenumber" v="25"/>
    <tag k="addr:street" v="Boremlowska"/>
    <tag k="source" v="http://ump.waw.pl/ retrieved 13:05:59 02/23/09 (UMP-Warszawa/src/WARSZAWA_PRAGA.ulice.txt)"/>
  </node>
  <node id="350069131" version="2" timestamp="2009-03-16T11:41:09Z" uid="20587" user="balrog-kun" changeset="818470" lat="52.2477612" lon="21.1043291">
    <tag k="addr:city" v="Warszawa@Warszawa Praga"/>
    <tag k="addr:housenumber" v="25"/>
    <tag k="addr:street" v="Boremlowska"/>
    <tag k="source" v="http://ump.waw.pl/ retrieved 13:05:59 02/23/09 (UMP-Warszawa/src/WARSZAWA_PRAGA.ulice.txt)"/>
  </node>
  <node id="350069132" version="1" timestamp="2009-02-23T14:54:50Z" uid="20587" user="balrog-kun" changeset="639782" lat="52.2481684" lon="21.0993633">
    <tag k="addr:city" v="Warszawa@Warszawa Praga"/>
    <tag k="addr:housenumber" v="15"/>
    <tag k="addr:street" v="Nasielska"/>
    <tag k="source" v="http://ump.waw.pl/ retrieved 13:05:59 02/23/09 (UMP-Warszawa/src/WARSZAWA_PRAGA.ulice.txt)"/>
  </node>
  <node id="350069132" version="2" timestamp="2009-05-13T17:47:14Z" uid="20587" user="balrog-kun" changeset="1177729" lat="52.2483364" lon="21.099379">
    <tag k="addr:city" v="Warszawa@Warszawa Praga"/>
    <tag k="addr:housenumber" v="15"/>
    <tag k="addr:street" v="Nasielska"/>
    <tag k="source" v="http://ump.waw.pl/ retrieved 13:05:59 02/23/09 (UMP-Warszawa/src/WARSZAWA_PRAGA.ulice.txt)"/>
  </node>
  <node id="350069136" version="1" timestamp="2009-02-23T14:54:51Z" uid="20587" user="balrog-kun" changeset="639782" lat="52.2467529" lon="21.1083559">
    <tag k="addr:city" v="Warszawa@Warszawa Praga"/>
    <tag k="addr:housenumber" v="8"/>
    <tag k="addr:street" v="Płowce"/>
    <tag k="source" v="http://ump.waw.pl/ retrieved 13:05:59 02/23/09 (UMP-Warszawa/src/WARSZAWA_PRAGA.ulice.txt)"/>
  </node>
  <node id="350069139" version="1" timestamp="2009-02-23T14:54:51Z" uid="20587" user="balrog-kun" changeset="639782" lat="52.244367" lon="21.1075586">
    <tag k="addr:city" v="Warszawa@Warszawa Praga"/>
    <tag k="addr:housenumber" v="28"/>
    <tag k="addr:street" v="Osowska"/>
    <tag k="source" v="http://ump.waw.pl/ retrieved 13:05:59 02/23/09 (UMP-Warszawa/src/WARSZAWA_PRAGA.ulice.txt)"/>
  </node>
  <node id="350069141" version="1" timestamp="2009-02-23T14:54:51Z" uid="20587" user="balrog-kun" changeset="639782" lat="52.2431473" lon="21.114341">
    <tag k="addr:city" v="Warszawa@Warszawa Praga"/>
    <tag k="addr:housenumber" v="27"/>
    <tag k="addr:street" v="Podolska"/>
    <tag k="source" v="http://ump.waw.pl/ retrieved 13:05:59 02/23/09 (UMP-Warszawa/src/WARSZAWA_PRAGA.ulice.txt)"/>
  </node>
  <node id="350069145" version="1" timestamp="2009-02-23T14:54:51Z" uid="20587" user="balrog-kun" changeset="639782" lat="52.2401187" lon="21.1092326">
    <tag k="addr:city" v="Warszawa@Warszawa Praga"/>
    <tag k="addr:housenumber" v="44"/>
    <tag k="addr:street" v="Witolińska"/>
    <tag k="source" v="http://ump.waw.pl/ retrieved 13:05:59 02/23/09 (UMP-Warszawa/src/WARSZAWA_PRAGA.ulice.txt)"/>
  </node>
  <node id="350069148" version="1" timestamp="2009-02-23T14:54:52Z" uid="20587" user="balrog-kun" changeset="639782" lat="52.2487803" lon="21.1026542">
    <tag k="addr:city" v="Warszawa@Warszawa Praga"/>
    <tag k="addr:housenumber" v="4"/>
    <tag k="addr:street" v="Rusznikarska"/>
    <tag k="source" v="http://ump.waw.pl/ retrieved 13:05:59 02/23/09 (UMP-Warszawa/src/WARSZAWA_PRAGA.ulice.txt)"/>
  </node>
  <node id="350069153" version="1" timestamp="2009-02-23T14:54:52Z" uid="20587" user="balrog-kun" changeset="639782" lat="52.2483729" lon="21.1081497">
    <tag k="addr:city" v="Warszawa@Warszawa Praga"/>
    <tag k="addr:housenumber" v="27"/>
    <tag k="addr:street" v="Byczyńska"/>
    <tag k="source" v="http://ump.waw.pl/ retrieved 13:05:59 02/23/09 (UMP-Warszawa/src/WARSZAWA_PRAGA.ulice.txt)"/>
  </node>
  <node id="350069155" version="1" timestamp="2009-02-23T14:54:52Z" uid="20587" user="balrog-kun" changeset="639782" lat="52.2475378" lon="21.1079662">
    <tag k="addr:city" v="Warszawa@Warszawa Praga"/>
    <tag k="addr:housenumber" v="14"/>
    <tag k="addr:street" v="Byczyńska"/>
    <tag k="source" v="http://ump.waw.pl/ retrieved 13:05:59 02/23/09 (UMP-Warszawa/src/WARSZAWA_PRAGA.ulice.txt)"/>
  </node>
  <node id="350069159" version="1" timestamp="2009-02-23T14:54:53Z" uid="20587" user="balrog-kun" changeset="639782" lat="52.2499175" lon="21.0928988">
    <tag k="addr:city" v="Warszawa@Warszawa Praga"/>
    <tag k="addr:housenumber" v="20"/>
    <tag k="addr:street" v="Garwolińska"/>
    <tag k="source" v="http://ump.waw.pl/ retrieved 13:05:59 02/23/09 (UMP-Warszawa/src/WARSZAWA_PRAGA.ulice.txt)"/>
  </node>
  <node id="350069159" version="2" timestamp="2009-05-13T17:30:56Z" uid="20587" user="balrog-kun" changeset="1177534" lat="52.2499175" lon="21.0928988">
    <tag k="addr:city" v="Warszawa@Warszawa Praga"/>
    <tag k="addr:housenumber" v="20"/>
    <tag k="addr:street" v="Garwolińska"/>
    <tag k="source" v="http://ump.waw.pl/ retrieved 13:05:59 02/23/09 (UMP-Warszawa/src/WARSZAWA_PRAGA.ulice.txt)"/>
  </node>
  <node id="350069164" version="1" timestamp="2009-02-23T14:54:53Z" uid="20587" user="balrog-kun" changeset="639782" lat="52.2428949" lon="21.1070412">
    <tag k="addr:city" v="Warszawa@Warszawa Praga"/>
    <tag k="addr:housenumber" v="11"/>
    <tag k="addr:street" v="Zaliwskiego"/>
    <tag k="source" v="http://ump.waw.pl/ retrieved 13:05:59 02/23/09 (UMP-Warszawa/src/WARSZAWA_PRAGA.ulice.txt)"/>
  </node>
  <node id="350069166" version="1" timestamp="2009-02-23T14:54:53Z" uid="20587" user="balrog-kun" changeset="639782" lat="52.24635" lon="21.1095717">
    <tag k="addr:city" v="Warszawa@Warszawa Praga"/>
    <tag k="addr:housenumber" v="35"/>
    <tag k="addr:street" v="Żółkiewskiego"/>
    <tag k="source" v="http://ump.waw.pl/ retrieved 13:05:59 02/23/09 (UMP-Warszawa/src/WARSZAWA_PRAGA.ulice.txt)"/>
  </node>
  <node id="350069172" version="1" timestamp="2009-02-23T14:54:54Z" uid="20587" user="balrog-kun" changeset="639782" lat="52.2439313" lon="21.1112178">
    <tag k="addr:city" v="Warszawa@Warszawa Praga"/>
    <tag k="addr:housenumber" v="24"/>
    <tag k="addr:street" v="Trembowelska"/>
    <tag k="source" v="http://ump.waw.pl/ retrieved 13:05:59 02/23/09 (UMP-Warszawa/src/WARSZAWA_PRAGA.ulice.txt)"/>
  </node>
  <node id="350069177" version="1" timestamp="2009-02-23T14:54:54Z" uid="20587" user="balrog-kun" changeset="639782" lat="52.2440774" lon="21.1150225">
    <tag k="addr:city" v="Warszawa@Warszawa Praga"/>
    <tag k="addr:housenumber" v="28"/>
    <tag k="addr:street" v="Podolska"/>
    <tag k="source" v="http://ump.waw.pl/ retrieved 13:05:59 02/23/09 (UMP-Warszawa/src/WARSZAWA_PRAGA.ulice.txt)"/>
  </node>
  <node id="350069177" version="2" timestamp="2009-04-26T10:26:40Z" uid="20587" user="balrog-kun" changeset="971717" lat="52.2440866" lon="21.1151881">
    <tag k="addr:city" v="Warszawa@Warszawa Praga"/>
    <tag k="addr:housenumber" v="28"/>
    <tag k="addr:street" v="Podolska"/>
    <tag k="source" v="http://ump.waw.pl/ retrieved 13:05:59 02/23/09 (UMP-Warszawa/src/WARSZAWA_PRAGA.ulice.txt)"/>
  </node>
  <node id="350069211" version="1" timestamp="2009-02-23T14:54:57Z" uid="20587" user="balrog-kun" changeset="639782" lat="52.2470489" lon="21.099134">
    <tag k="addr:city" v="Warszawa@Warszawa Praga"/>
    <tag k="addr:housenumber" v="32"/>
    <tag k="addr:street" v="Kiprów"/>
    <tag k="source" v="http://ump.waw.pl/ retrieved 13:05:59 02/23/09 (UMP-Warszawa/src/WARSZAWA_PRAGA.ulice.txt)"/>
  </node>
  <node id="350069216" version="1" timestamp="2009-02-23T14:54:58Z" uid="20587" user="balrog-kun" changeset="639782" lat="52.2337264" lon="21.1346157">
    <tag k="addr:city" v="Warszawa@Warszawa Wawer"/>
    <tag k="addr:housenumber" v="1"/>
    <tag k="addr:street" v="Barbórki"/>
    <tag k="source" v="http://ump.waw.pl/ retrieved 13:05:59 02/23/09 (UMP-Warszawa/src/WARSZAWA_WAWER.ulice.txt)"/>
  </node>
  <node id="350069220" version="1" timestamp="2009-02-23T14:54:58Z" uid="20587" user="balrog-kun" changeset="639782" lat="52.2486191" lon="21.10126">
    <tag k="addr:city" v="Warszawa@Warszawa Praga"/>
    <tag k="addr:housenumber" v="49"/>
    <tag k="addr:street" v="Boremlowska"/>
    <tag k="source" v="http://ump.waw.pl/ retrieved 13:05:59 02/23/09 (UMP-Warszawa/src/WARSZAWA_PRAGA.ulice.txt)"/>
  </node>
  <node id="350069223" version="1" timestamp="2009-02-23T14:54:59Z" uid="20587" user="balrog-kun" changeset="639782" lat="52.2468809" lon="21.1043401">
    <tag k="addr:city" v="Warszawa@Warszawa Praga"/>
    <tag k="addr:housenumber" v="27"/>
    <tag k="addr:street" v="Księdza Jana Sztuki"/>
    <tag k="source" v="http://ump.waw.pl/ retrieved 13:05:59 02/23/09 (UMP-Warszawa/src/WARSZAWA_PRAGA.ulice.txt)"/>
  </node>
  <node id="350069227" version="1" timestamp="2009-02-23T14:54:59Z" uid="20587" user="balrog-kun" changeset="639782" lat="52.2425866" lon="21.1078572">
    <tag k="addr:city" v="Warszawa@Warszawa Praga"/>
    <tag k="addr:housenumber" v="7"/>
    <tag k="addr:street" v="Żółkiewskiego"/>
    <tag k="source" v="http://ump.waw.pl/ retrieved 13:05:59 02/23/09 (UMP-Warszawa/src/WARSZAWA_PRAGA.ulice.txt)"/>
  </node>
  <node id="350069230" version="1" timestamp="2009-02-23T14:54:59Z" uid="20587" user="balrog-kun" changeset="639782" lat="52.2473419" lon="21.1329041">
    <tag k="addr:city" v="Warszawa@Warszawa Rembertów"/>
    <tag k="addr:housenumber" v="27"/>
    <tag k="addr:street" v="Szymańskiego"/>
    <tag k="source" v="http://ump.waw.pl/ retrieved 13:05:59 02/23/09 (UMP-Warszawa/src/WARSZAWA_REMBERTOW.ulice.txt)"/>
  </node>
  <node id="350069234" version="1" timestamp="2009-02-23T14:55:00Z" uid="20587" user="balrog-kun" changeset="639782" lat="52.248778" lon="21.1020429">
    <tag k="addr:city" v="Warszawa@Warszawa Praga"/>
    <tag k="addr:housenumber" v="1"/>
    <tag k="addr:street" v="Rusznikarska"/>
    <tag k="source" v="http://ump.waw.pl/ retrieved 13:05:59 02/23/09 (UMP-Warszawa/src/WARSZAWA_PRAGA.ulice.txt)"/>
  </node>
  <node id="350069237" version="1" timestamp="2009-02-23T14:55:00Z" uid="20587" user="balrog-kun" changeset="639782" lat="52.2463272" lon="21.1057671">
    <tag k="addr:city" v="Warszawa@Warszawa Praga"/>
    <tag k="addr:housenumber" v="10"/>
    <tag k="addr:street" v="Chłopickiego"/>
    <tag k="source" v="http://ump.waw.pl/ retrieved 13:05:59 02/23/09 (UMP-Warszawa/src/WARSZAWA_PRAGA.ulice.txt)"/>
  </node>
  <node id="350069240" version="1" timestamp="2009-02-23T14:55:00Z" uid="20587" user="balrog-kun" changeset="639782" lat="52.2442641" lon="21.0974549">
    <tag k="addr:city" v="Warszawa@Warszawa Praga"/>
    <tag k="addr:housenumber" v="65"/>
    <tag k="addr:street" v="Kordeckiego"/>
    <tag k="source" v="http://ump.waw.pl/ retrieved 13:05:59 02/23/09 (UMP-Warszawa/src/WARSZAWA_PRAGA.ulice.txt)"/>
  </node>
  <node id="350069244" version="1" timestamp="2009-02-23T14:55:01Z" uid="20587" user="balrog-kun" changeset="639782" lat="52.2445147" lon="21.1114333">
    <tag k="addr:city" v="Warszawa@Warszawa Praga"/>
    <tag k="addr:housenumber" v="28"/>
    <tag k="addr:street" v="Trembowelska"/>
    <tag k="source" v="http://ump.waw.pl/ retrieved 13:05:59 02/23/09 (UMP-Warszawa/src/WARSZAWA_PRAGA.ulice.txt)"/>
  </node>
  <node id="350069244" version="2" timestamp="2009-04-26T10:26:40Z" uid="20587" user="balrog-kun" changeset="971717" lat="52.2444563" lon="21.1114283">
    <tag k="addr:city" v="Warszawa@Warszawa Praga"/>
    <tag k="addr:housenumber" v="28"/>
    <tag k="addr:street" v="Trembowelska"/>
    <tag k="source" v="http://ump.waw.pl/ retrieved 13:05:59 02/23/09 (UMP-Warszawa/src/WARSZAWA_PRAGA.ulice.txt)"/>
  </node>
  <node id="350069247" version="1" timestamp="2009-02-23T14:55:01Z" uid="20587" user="balrog-kun" changeset="639782" lat="52.2423933" lon="21.1137746">
    <tag k="addr:city" v="Warszawa@Warszawa Praga"/>
    <tag k="addr:housenumber" v="22"/>
    <tag k="addr:street" v="Kwatery Głównej"/>
    <tag k="source" v="http://ump.waw.pl/ retrieved 13:05:59 02/23/09 (UMP-Warszawa/src/WARSZAWA_PRAGA.ulice.txt)"/>
  </node>
  <node id="350069251" version="1" timestamp="2009-02-23T14:55:01Z" uid="20587" user="balrog-kun" changeset="639782" lat="52.2483737" lon="21.1022608">
    <tag k="addr:city" v="Warszawa@Warszawa Praga"/>
    <tag k="addr:housenumber" v="43"/>
    <tag k="addr:street" v="Boremlowska"/>
    <tag k="source" v="http://ump.waw.pl/ retrieved 13:05:59 02/23/09 (UMP-Warszawa/src/WARSZAWA_PRAGA.ulice.txt)"/>
  </node>
  <node id="350069254" version="1" timestamp="2009-02-23T14:55:01Z" uid="20587" user="balrog-kun" changeset="639782" lat="52.2479803" lon="21.1083729">
    <tag k="addr:city" v="Warszawa@Warszawa Praga"/>
    <tag k="addr:housenumber" v="26"/>
    <tag k="addr:street" v="Byczyńska"/>
    <tag k="source" v="http://ump.waw.pl/ retrieved 13:05:59 02/23/09 (UMP-Warszawa/src/WARSZAWA_PRAGA.ulice.txt)"/>
  </node>
  <node id="350069256" version="1" timestamp="2009-02-23T14:55:01Z" uid="20587" user="balrog-kun" changeset="639782" lat="52.2497548" lon="21.0983359">
    <tag k="addr:city" v="Warszawa@Warszawa Praga"/>
    <tag k="addr:housenumber" v="29"/>
    <tag k="addr:street" v="Wspólna Droga"/>
    <tag k="source" v="http://ump.waw.pl/ retrieved 13:05:59 02/23/09 (UMP-Warszawa/src/WARSZAWA_PRAGA.ulice.txt)"/>
  </node>
  <node id="350069256" version="2" timestamp="2009-05-13T17:30:57Z" uid="20587" user="balrog-kun" changeset="1177534" lat="52.2497548" lon="21.0983359">
    <tag k="addr:city" v="Warszawa@Warszawa Praga"/>
    <tag k="addr:housenumber" v="29"/>
    <tag k="addr:street" v="Wspólna Droga"/>
    <tag k="source" v="http://ump.waw.pl/ retrieved 13:05:59 02/23/09 (UMP-Warszawa/src/WARSZAWA_PRAGA.ulice.txt)"/>
  </node>
  <node id="350069297" version="1" timestamp="2009-02-23T14:55:05Z" uid="20587" user="balrog-kun" changeset="639782" lat="52.2407285" lon="21.1078684">
    <tag k="addr:city" v="Warszawa@Warszawa Praga"/>
    <tag k="addr:housenumber" v="57"/>
    <tag k="addr:street" v="Tarnowiecka"/>
    <tag k="source" v="http://ump.waw.pl/ retrieved 13:05:59 02/23/09 (UMP-Warszawa/src/WARSZAWA_PRAGA.ulice.txt)"/>
  </node>
  <node id="350069304" version="1" timestamp="2009-02-23T14:55:05Z" uid="20587" user="balrog-kun" changeset="639782" lat="52.2447002" lon="21.1147272">
    <tag k="addr:city" v="Warszawa@Warszawa Praga"/>
    <tag k="addr:housenumber" v="36"/>
    <tag k="addr:street" v="Szaserów"/>
    <tag k="source" v="http://ump.waw.pl/ retrieved 13:05:59 02/23/09 (UMP-Warszawa/src/WARSZAWA_PRAGA.ulice.txt)"/>
  </node>
  <node id="350069310" version="1" timestamp="2009-02-23T14:55:06Z" uid="20587" user="balrog-kun" changeset="639782" lat="52.2397472" lon="21.1072914">
    <tag k="addr:city" v="Warszawa@Warszawa Praga"/>
    <tag k="addr:housenumber" v="49"/>
    <tag k="addr:street" v="Tarnowiecka"/>
    <tag k="source" v="http://ump.waw.pl/ retrieved 13:05:59 02/23/09 (UMP-Warszawa/src/WARSZAWA_PRAGA.ulice.txt)"/>
  </node>
  <node id="350069316" version="1" timestamp="2009-02-23T14:55:06Z" uid="20587" user="balrog-kun" changeset="639782" lat="52.2483351" lon="21.1042367">
    <tag k="addr:city" v="Warszawa@Warszawa Praga"/>
    <tag k="addr:housenumber" v="4"/>
    <tag k="addr:street" v="Chłodnicza"/>
    <tag k="source" v="http://ump.waw.pl/ retrieved 13:05:59 02/23/09 (UMP-Warszawa/src/WARSZAWA_PRAGA.ulice.txt)"/>
  </node>
  <node id="350069321" version="1" timestamp="2009-02-23T14:55:07Z" uid="20587" user="balrog-kun" changeset="639782" lat="52.245548" lon="21.1091689">
    <tag k="addr:city" v="Warszawa@Warszawa Praga"/>
    <tag k="addr:housenumber" v="27"/>
    <tag k="addr:street" v="Żółkiewskiego"/>
    <tag k="source" v="http://ump.waw.pl/ retrieved 13:05:59 02/23/09 (UMP-Warszawa/src/WARSZAWA_PRAGA.ulice.txt)"/>
  </node>
  <node id="350069326" version="1" timestamp="2009-02-23T14:55:07Z" uid="20587" user="balrog-kun" changeset="639782" lat="52.2456918" lon="21.1030206">
    <tag k="addr:city" v="Warszawa@Warszawa Praga"/>
    <tag k="addr:housenumber" v="3"/>
    <tag k="addr:street" v="Kiprów"/>
    <tag k="source" v="http://ump.waw.pl/ retrieved 13:05:59 02/23/09 (UMP-Warszawa/src/WARSZAWA_PRAGA.ulice.txt)"/>
  </node>
  <node id="350069330" version="1" timestamp="2009-02-23T14:55:07Z" uid="20587" user="balrog-kun" changeset="639782" lat="52.2393494" lon="21.1070243">
    <tag k="addr:city" v="Warszawa@Warszawa Praga"/>
    <tag k="addr:housenumber" v="47"/>
    <tag k="addr:street" v="Tarnowiecka"/>
    <tag k="source" v="http://ump.waw.pl/ retrieved 13:05:59 02/23/09 (UMP-Warszawa/src/WARSZAWA_PRAGA.ulice.txt)"/>
  </node>
  <node id="350069334" version="1" timestamp="2009-02-23T14:55:08Z" uid="20587" user="balrog-kun" changeset="639782" lat="52.2481288" lon="21.1049585">
    <tag k="addr:city" v="Warszawa@Warszawa Praga"/>
    <tag k="addr:housenumber" v="4"/>
    <tag k="addr:street" v="Pokrzywnicka"/>
    <tag k="source" v="http://ump.waw.pl/ retrieved 13:05:59 02/23/09 (UMP-Warszawa/src/WARSZAWA_PRAGA.ulice.txt)"/>
  </node>
  <node id="350069338" version="1" timestamp="2009-02-23T14:55:08Z" uid="20587" user="balrog-kun" changeset="639782" lat="52.23171" lon="21.1394488">
    <tag k="addr:city" v="Warszawa@Warszawa Wawer"/>
    <tag k="addr:housenumber" v="39"/>
    <tag k="addr:street" v="Barbórki"/>
    <tag k="source" v="http://ump.waw.pl/ retrieved 13:05:59 02/23/09 (UMP-Warszawa/src/WARSZAWA_WAWER.ulice.txt)"/>
  </node>
  <node id="350069343" version="1" timestamp="2009-02-23T14:55:09Z" uid="20587" user="balrog-kun" changeset="639782" lat="52.2480349" lon="21.102252">
    <tag k="addr:city" v="Warszawa@Warszawa Praga"/>
    <tag k="addr:housenumber" v="43"/>
    <tag k="addr:street" v="Serocka"/>
    <tag k="source" v="http://ump.waw.pl/ retrieved 13:05:59 02/23/09 (UMP-Warszawa/src/WARSZAWA_PRAGA.ulice.txt)"/>
  </node>
  <node id="350069343" version="2" timestamp="2011-01-21T22:50:17Z" uid="20587" user="balrog-kun" changeset="7045544" lat="52.2480518" lon="21.1022866">
    <tag k="addr:city" v="Warszawa@Warszawa Praga"/>
    <tag k="addr:housenumber" v="43"/>
    <tag k="addr:street" v="Serocka"/>
    <tag k="source" v="http://ump.waw.pl/ retrieved 13:05:59 02/23/09 (UMP-Warszawa/src/WARSZAWA_PRAGA.ulice.txt)"/>
  </node>
  <node id="350069348" version="1" timestamp="2009-02-23T14:55:09Z" uid="20587" user="balrog-kun" changeset="639782" lat="52.2499499" lon="21.1041321">
    <tag k="addr:city" v="Warszawa@Warszawa Praga"/>
    <tag k="addr:housenumber" v="59"/>
    <tag k="addr:street" v="Serocka"/>
    <tag k="source" v="http://ump.waw.pl/ retrieved 13:05:59 02/23/09 (UMP-Warszawa/src/WARSZAWA_PRAGA.ulice.txt)"/>
  </node>
  <node id="350069353" version="1" timestamp="2009-02-23T14:55:10Z" uid="20587" user="balrog-kun" changeset="639782" lat="52.2403117" lon="21.1076312">
    <tag k="addr:city" v="Warszawa@Warszawa Praga"/>
    <tag k="addr:housenumber" v="53"/>
    <tag k="addr:street" v="Tarnowiecka"/>
    <tag k="source" v="http://ump.waw.pl/ retrieved 13:05:59 02/23/09 (UMP-Warszawa/src/WARSZAWA_PRAGA.ulice.txt)"/>
  </node>
  <node id="350069359" version="1" timestamp="2009-02-23T14:55:10Z" uid="20587" user="balrog-kun" changeset="639782" lat="52.2485731" lon="21.1034042">
    <tag k="addr:city" v="Warszawa@Warszawa Praga"/>
    <tag k="addr:housenumber" v="48"/>
    <tag k="addr:street" v="Serocka"/>
    <tag k="source" v="http://ump.waw.pl/ retrieved 13:05:59 02/23/09 (UMP-Warszawa/src/WARSZAWA_PRAGA.ulice.txt)"/>
  </node>
  <node id="350069367" version="1" timestamp="2009-02-23T14:55:11Z" uid="20587" user="balrog-kun" changeset="639782" lat="52.2483525" lon="21.1007348">
    <tag k="addr:city" v="Warszawa@Warszawa Praga"/>
    <tag k="addr:housenumber" v="30"/>
    <tag k="addr:street" v="Obarowska"/>
    <tag k="source" v="http://ump.waw.pl/ retrieved 13:05:59 02/23/09 (UMP-Warszawa/src/WARSZAWA_PRAGA.ulice.txt)"/>
  </node>
  <node id="350069367" version="2" timestamp="2011-01-21T22:50:16Z" uid="20587" user="balrog-kun" changeset="7045544" lat="52.2484329" lon="21.1005481">
    <tag k="addr:housenumber" v="30"/>
    <tag k="addr:street" v="Obarowska"/>
  </node>
  <node id="350069376" version="1" timestamp="2009-02-23T14:55:12Z" uid="20587" user="balrog-kun" changeset="639782" lat="52.2476574" lon="21.1335772">
    <tag k="addr:city" v="Warszawa@Warszawa Rembertów"/>
    <tag k="addr:housenumber" v="3"/>
    <tag k="addr:street" v="Lotosu"/>
    <tag k="source" v="http://ump.waw.pl/ retrieved 13:05:59 02/23/09 (UMP-Warszawa/src/WARSZAWA_REMBERTOW.ulice.txt)"/>
  </node>
  <node id="350069383" version="1" timestamp="2009-02-23T14:55:12Z" uid="20587" user="balrog-kun" changeset="639782" lat="52.2470164" lon="21.1051594">
    <tag k="addr:city" v="Warszawa@Warszawa Praga"/>
    <tag k="addr:housenumber" v="24"/>
    <tag k="addr:street" v="Księdza Jana Sztuki"/>
    <tag k="source" v="http://ump.waw.pl/ retrieved 13:05:59 02/23/09 (UMP-Warszawa/src/WARSZAWA_PRAGA.ulice.txt)"/>
  </node>
  <node id="350069390" version="1" timestamp="2009-02-23T14:55:13Z" uid="20587" user="balrog-kun" changeset="639782" lat="52.2438947" lon="21.1078621">
    <tag k="addr:city" v="Warszawa@Warszawa Praga"/>
    <tag k="addr:housenumber" v="14"/>
    <tag k="addr:street" v="Domeyki"/>
    <tag k="source" v="http://ump.waw.pl/ retrieved 13:05:59 02/23/09 (UMP-Warszawa/src/WARSZAWA_PRAGA.ulice.txt)"/>
  </node>
  <node id="350069390" version="2" timestamp="2009-02-24T08:54:30Z" uid="20587" user="balrog-kun" changeset="647074" lat="52.2438363" lon="21.1077396">
    <tag k="addr:city" v="Warszawa@Warszawa Praga"/>
    <tag k="addr:housenumber" v="14"/>
    <tag k="addr:street" v="Domeyki"/>
    <tag k="source" v="http://ump.waw.pl/ retrieved 13:05:59 02/23/09 (UMP-Warszawa/src/WARSZAWA_PRAGA.ulice.txt)"/>
  </node>
  <node id="350069395" version="1" timestamp="2009-02-23T14:55:14Z" uid="20587" user="balrog-kun" changeset="639782" lat="52.2312173" lon="21.1389014">
    <tag k="addr:city" v="Warszawa@Warszawa Wawer"/>
    <tag k="addr:housenumber" v="40"/>
    <tag k="addr:street" v="Barbórki"/>
    <tag k="source" v="http://ump.waw.pl/ retrieved 13:05:59 02/23/09 (UMP-Warszawa/src/WARSZAWA_WAWER.ulice.txt)"/>
  </node>
  <node id="350069403" version="1" timestamp="2009-02-23T14:55:14Z" uid="20587" user="balrog-kun" changeset="639782" lat="52.2419012" lon="21.1075523">
    <tag k="addr:city" v="Warszawa@Warszawa Praga"/>
    <tag k="addr:housenumber" v="3"/>
    <tag k="addr:street" v="Żółkiewskiego"/>
    <tag k="source" v="http://ump.waw.pl/ retrieved 13:05:59 02/23/09 (UMP-Warszawa/src/WARSZAWA_PRAGA.ulice.txt)"/>
  </node>
  <node id="350069409" version="1" timestamp="2009-02-23T14:55:15Z" uid="20587" user="balrog-kun" changeset="639782" lat="52.241164" lon="21.1035354">
    <tag k="addr:city" v="Warszawa@Warszawa Praga"/>
    <tag k="addr:housenumber" v="58"/>
    <tag k="addr:street" v="Komorska"/>
    <tag k="source" v="http://ump.waw.pl/ retrieved 13:05:59 02/23/09 (UMP-Warszawa/src/WARSZAWA_PRAGA.ulice.txt)"/>
  </node>
  <node id="350069416" version="1" timestamp="2009-02-23T14:55:16Z" uid="20587" user="balrog-kun" changeset="639782" lat="52.2347615" lon="21.1268731">
    <tag k="addr:city" v="Warszawa@Warszawa Praga"/>
    <tag k="addr:housenumber" v="7"/>
    <tag k="addr:street" v="Płowiecka"/>
    <tag k="source" v="http://ump.waw.pl/ retrieved 13:05:59 02/23/09 (UMP-Warszawa/src/WARSZAWA_PRAGA.ulice.txt)"/>
  </node>
  <node id="350069424" version="1" timestamp="2009-02-23T14:55:17Z" uid="20587" user="balrog-kun" changeset="639782" lat="52.2477741" lon="21.1027169">
    <tag k="addr:city" v="Warszawa@Warszawa Praga"/>
    <tag k="addr:housenumber" v="40"/>
    <tag k="addr:street" v="Serocka"/>
    <tag k="source" v="http://ump.waw.pl/ retrieved 13:05:59 02/23/09 (UMP-Warszawa/src/WARSZAWA_PRAGA.ulice.txt)"/>
  </node>
  <node id="350069433" version="1" timestamp="2009-02-23T14:55:17Z" uid="20587" user="balrog-kun" changeset="639782" lat="52.2473636" lon="21.0986925">
    <tag k="addr:city" v="Warszawa@Warszawa Praga"/>
    <tag k="addr:housenumber" v="5"/>
    <tag k="addr:street" v="Nasielska"/>
    <tag k="source" v="http://ump.waw.pl/ retrieved 13:05:59 02/23/09 (UMP-Warszawa/src/WARSZAWA_PRAGA.ulice.txt)"/>
  </node>
  <node id="350069441" version="1" timestamp="2009-02-23T14:55:18Z" uid="20587" user="balrog-kun" changeset="639782" lat="52.2473508" lon="21.1044862">
    <tag k="addr:city" v="Warszawa@Warszawa Praga"/>
    <tag k="addr:housenumber" v="4"/>
    <tag k="addr:street" v="Obarowska"/>
    <tag k="source" v="http://ump.waw.pl/ retrieved 13:05:59 02/23/09 (UMP-Warszawa/src/WARSZAWA_PRAGA.ulice.txt)"/>
  </node>
  <node id="350069449" version="1" timestamp="2009-02-23T14:55:18Z" uid="20587" user="balrog-kun" changeset="639782" lat="52.2436949" lon="21.1117453">
    <tag k="addr:city" v="Warszawa@Warszawa Praga"/>
    <tag k="addr:housenumber" v="10"/>
    <tag k="addr:street" v="Osowska"/>
    <tag k="source" v="http://ump.waw.pl/ retrieved 13:05:59 02/23/09 (UMP-Warszawa/src/WARSZAWA_PRAGA.ulice.txt)"/>
  </node>
  <node id="350069456" version="1" timestamp="2009-02-23T14:55:19Z" uid="20587" user="balrog-kun" changeset="639782" lat="52.2464162" lon="21.0985473">
    <tag k="addr:city" v="Warszawa@Warszawa Praga"/>
    <tag k="addr:housenumber" v="28"/>
    <tag k="addr:street" v="Nasielska"/>
    <tag k="source" v="http://ump.waw.pl/ retrieved 13:05:59 02/23/09 (UMP-Warszawa/src/WARSZAWA_PRAGA.ulice.txt)"/>
  </node>
  <node id="350069460" version="1" timestamp="2009-02-23T14:55:19Z" uid="20587" user="balrog-kun" changeset="639782" lat="52.24801" lon="21.1053491">
    <tag k="addr:city" v="Warszawa@Warszawa Praga"/>
    <tag k="addr:housenumber" v="3"/>
    <tag k="addr:street" v="Załęże"/>
    <tag k="source" v="http://ump.waw.pl/ retrieved 13:05:59 02/23/09 (UMP-Warszawa/src/WARSZAWA_PRAGA.ulice.txt)"/>
  </node>
  <node id="350069467" version="1" timestamp="2009-02-23T14:55:20Z" uid="20587" user="balrog-kun" changeset="639782" lat="52.2502451" lon="21.1030009">
    <tag k="addr:city" v="Warszawa@Warszawa Praga"/>
    <tag k="addr:housenumber" v="133"/>
    <tag k="addr:street" v="Makowska"/>
    <tag k="source" v="http://ump.waw.pl/ retrieved 13:05:59 02/23/09 (UMP-Warszawa/src/WARSZAWA_PRAGA.ulice.txt)"/>
  </node>
  <node id="350069473" version="1" timestamp="2009-02-23T14:55:20Z" uid="20587" user="balrog-kun" changeset="639782" lat="52.2486867" lon="21.1090188">
    <tag k="addr:city" v="Warszawa@Warszawa Praga"/>
    <tag k="addr:housenumber" v="30"/>
    <tag k="addr:street" v="Byczyńska"/>
    <tag k="source" v="http://ump.waw.pl/ retrieved 13:05:59 02/23/09 (UMP-Warszawa/src/WARSZAWA_PRAGA.ulice.txt)"/>
  </node>
  <node id="350069478" version="1" timestamp="2009-02-23T14:55:21Z" uid="20587" user="balrog-kun" changeset="639782" lat="52.2474569" lon="21.1054505">
    <tag k="addr:city" v="Warszawa@Warszawa Praga"/>
    <tag k="addr:housenumber" v="19"/>
    <tag k="addr:street" v="Boremlowska"/>
    <tag k="source" v="http://ump.waw.pl/ retrieved 13:05:59 02/23/09 (UMP-Warszawa/src/WARSZAWA_PRAGA.ulice.txt)"/>
  </node>
  <node id="350069478" version="2" timestamp="2009-03-16T11:41:12Z" uid="20587" user="balrog-kun" changeset="818470" lat="52.2474569" lon="21.1054505">
    <tag k="addr:city" v="Warszawa@Warszawa Praga"/>
    <tag k="addr:housenumber" v="19"/>
    <tag k="addr:street" v="Boremlowska"/>
    <tag k="source" v="http://ump.waw.pl/ retrieved 13:05:59 02/23/09 (UMP-Warszawa/src/WARSZAWA_PRAGA.ulice.txt)"/>
  </node>
  <node id="350069485" version="1" timestamp="2009-02-23T14:55:22Z" uid="20587" user="balrog-kun" changeset="639782" lat="52.2398515" lon="21.1071998">
    <tag k="addr:city" v="Warszawa@Warszawa Praga"/>
    <tag k="addr:housenumber" v="9"/>
    <tag k="addr:street" v="Pustelnicka"/>
    <tag k="source" v="http://ump.waw.pl/ retrieved 13:05:59 02/23/09 (UMP-Warszawa/src/WARSZAWA_PRAGA.ulice.txt)"/>
  </node>
  <node id="350069492" version="1" timestamp="2009-02-23T14:55:22Z" uid="20587" user="balrog-kun" changeset="639782" lat="52.2477443" lon="21.1057695">
    <tag k="addr:city" v="Warszawa@Warszawa Praga"/>
    <tag k="addr:housenumber" v="22"/>
    <tag k="addr:street" v="Boremlowska"/>
    <tag k="source" v="http://ump.waw.pl/ retrieved 13:05:59 02/23/09 (UMP-Warszawa/src/WARSZAWA_PRAGA.ulice.txt)"/>
  </node>
  <node id="350069492" version="2" timestamp="2009-03-16T11:41:11Z" uid="20587" user="balrog-kun" changeset="818470" lat="52.2477443" lon="21.1057695">
    <tag k="addr:city" v="Warszawa@Warszawa Praga"/>
    <tag k="addr:housenumber" v="22"/>
    <tag k="addr:street" v="Boremlowska"/>
    <tag k="source" v="http://ump.waw.pl/ retrieved 13:05:59 02/23/09 (UMP-Warszawa/src/WARSZAWA_PRAGA.ulice.txt)"/>
  </node>
  <node id="350069500" version="1" timestamp="2009-02-23T14:55:23Z" uid="20587" user="balrog-kun" changeset="639782" lat="52.2403088" lon="21.1104497">
    <tag k="addr:city" v="Warszawa@Warszawa Praga"/>
    <tag k="addr:housenumber" v="71"/>
    <tag k="addr:street" v="Grochowska"/>
    <tag k="source" v="http://ump.waw.pl/ retrieved 13:05:59 02/23/09 (UMP-Warszawa/src/WARSZAWA_PRAGA.ulice.txt)"/>
  </node>
  <node id="350069505" version="1" timestamp="2009-02-23T14:55:23Z" uid="20587" user="balrog-kun" changeset="639782" lat="52.244762" lon="21.1059574">
    <tag k="addr:city" v="Warszawa@Warszawa Praga"/>
    <tag k="addr:housenumber" v="36"/>
    <tag k="addr:street" v="Osowska"/>
    <tag k="source" v="http://ump.waw.pl/ retrieved 13:05:59 02/23/09 (UMP-Warszawa/src/WARSZAWA_PRAGA.ulice.txt)"/>
  </node>
  <node id="350069509" version="1" timestamp="2009-02-23T14:55:24Z" uid="20587" user="balrog-kun" changeset="639782" lat="52.2439306" lon="21.1079357">
    <tag k="addr:city" v="Warszawa@Warszawa Praga"/>
    <tag k="addr:housenumber" v="25"/>
    <tag k="addr:street" v="Osowska"/>
    <tag k="source" v="http://ump.waw.pl/ retrieved 13:05:59 02/23/09 (UMP-Warszawa/src/WARSZAWA_PRAGA.ulice.txt)"/>
  </node>
  <node id="350069509" version="2" timestamp="2009-02-24T08:54:30Z" uid="20587" user="balrog-kun" changeset="647074" lat="52.2440015" lon="21.1078336">
    <tag k="addr:city" v="Warszawa@Warszawa Praga"/>
    <tag k="addr:housenumber" v="25"/>
    <tag k="addr:street" v="Osowska"/>
    <tag k="source" v="http://ump.waw.pl/ retrieved 13:05:59 02/23/09 (UMP-Warszawa/src/WARSZAWA_PRAGA.ulice.txt)"/>
  </node>
  <node id="350069516" version="1" timestamp="2009-02-23T14:55:24Z" uid="20587" user="balrog-kun" changeset="639782" lat="52.246652" lon="21.1016235">
    <tag k="addr:city" v="Warszawa@Warszawa Praga"/>
    <tag k="addr:housenumber" v="34"/>
    <tag k="addr:street" v="Serocka"/>
    <tag k="source" v="http://ump.waw.pl/ retrieved 13:05:59 02/23/09 (UMP-Warszawa/src/WARSZAWA_PRAGA.ulice.txt)"/>
  </node>
  <node id="350069524" version="1" timestamp="2009-02-23T14:55:24Z" uid="20587" user="balrog-kun" changeset="639782" lat="52.2404328" lon="21.1030883">
    <tag k="addr:city" v="Warszawa@Warszawa Praga"/>
    <tag k="addr:housenumber" v="50"/>
    <tag k="addr:street" v="Komorska"/>
    <tag k="source" v="http://ump.waw.pl/ retrieved 13:05:59 02/23/09 (UMP-Warszawa/src/WARSZAWA_PRAGA.ulice.txt)"/>
  </node>
  <node id="350069529" version="1" timestamp="2009-02-23T14:55:25Z" uid="20587" user="balrog-kun" changeset="639782" lat="52.2454463" lon="21.1097012">
    <tag k="addr:city" v="Warszawa@Warszawa Praga"/>
    <tag k="addr:housenumber" v="36"/>
    <tag k="addr:street" v="Żółkiewskiego"/>
    <tag k="source" v="http://ump.waw.pl/ retrieved 13:05:59 02/23/09 (UMP-Warszawa/src/WARSZAWA_PRAGA.ulice.txt)"/>
  </node>
  <node id="350069537" version="1" timestamp="2009-02-23T14:55:25Z" uid="20587" user="balrog-kun" changeset="639782" lat="52.2462576" lon="21.1106114">
    <tag k="addr:city" v="Warszawa@Warszawa Praga"/>
    <tag k="addr:housenumber" v="51"/>
    <tag k="addr:street" v="Hetmańska"/>
    <tag k="source" v="http://ump.waw.pl/ retrieved 13:05:59 02/23/09 (UMP-Warszawa/src/WARSZAWA_PRAGA.ulice.txt)"/>
  </node>
  <node id="350069544" version="1" timestamp="2009-02-23T14:55:26Z" uid="20587" user="balrog-kun" changeset="639782" lat="52.2506613" lon="21.1015866">
    <tag k="addr:city" v="Warszawa@Warszawa Praga"/>
    <tag k="addr:housenumber" v="139"/>
    <tag k="addr:street" v="Makowska"/>
    <tag k="source" v="http://ump.waw.pl/ retrieved 13:05:59 02/23/09 (UMP-Warszawa/src/WARSZAWA_PRAGA.ulice.txt)"/>
  </node>
  <node id="350069544" version="2" timestamp="2009-12-17T23:49:33Z" uid="20587" user="balrog-kun" changeset="3397637" lat="52.2505372" lon="21.1014228">
    <tag k="addr:city" v="Warszawa@Warszawa Praga"/>
    <tag k="addr:housenumber" v="139"/>
    <tag k="addr:street" v="Makowska"/>
    <tag k="source" v="http://ump.waw.pl/ retrieved 13:05:59 02/23/09 (UMP-Warszawa/src/WARSZAWA_PRAGA.ulice.txt)"/>
  </node>
  <node id="350069548" version="1" timestamp="2009-02-23T14:55:26Z" uid="20587" user="balrog-kun" changeset="639782" lat="52.2430101" lon="21.1074056">
    <tag k="addr:city" v="Warszawa@Warszawa Praga"/>
    <tag k="addr:housenumber" v="2"/>
    <tag k="addr:street" v="Domeyki"/>
    <tag k="source" v="http://ump.waw.pl/ retrieved 13:05:59 02/23/09 (UMP-Warszawa/src/WARSZAWA_PRAGA.ulice.txt)"/>
  </node>
  <node id="350069548" version="2" timestamp="2009-02-24T08:54:30Z" uid="20587" user="balrog-kun" changeset="647074" lat="52.2432227" lon="21.1074192">
    <tag k="addr:city" v="Warszawa@Warszawa Praga"/>
    <tag k="addr:housenumber" v="2"/>
    <tag k="addr:street" v="Domeyki"/>
    <tag k="source" v="http://ump.waw.pl/ retrieved 13:05:59 02/23/09 (UMP-Warszawa/src/WARSZAWA_PRAGA.ulice.txt)"/>
  </node>
  <node id="350069556" version="1" timestamp="2009-02-23T14:55:26Z" uid="20587" user="balrog-kun" changeset="639782" lat="52.2464023" lon="21.1015054">
    <tag k="addr:city" v="Warszawa@Warszawa Praga"/>
    <tag k="addr:housenumber" v="14"/>
    <tag k="addr:street" v="Kiprów"/>
    <tag k="source" v="http://ump.waw.pl/ retrieved 13:05:59 02/23/09 (UMP-Warszawa/src/WARSZAWA_PRAGA.ulice.txt)"/>
  </node>
  <node id="350069562" version="1" timestamp="2009-02-23T14:55:27Z" uid="20587" user="balrog-kun" changeset="639782" lat="52.247151" lon="21.1058301">
    <tag k="addr:city" v="Warszawa@Warszawa Praga"/>
    <tag k="addr:housenumber" v="19"/>
    <tag k="addr:street" v="Chłopickiego"/>
    <tag k="source" v="http://ump.waw.pl/ retrieved 13:05:59 02/23/09 (UMP-Warszawa/src/WARSZAWA_PRAGA.ulice.txt)"/>
  </node>
  <node id="350069570" version="1" timestamp="2009-02-23T14:55:27Z" uid="20587" user="balrog-kun" changeset="639782" lat="52.2492864" lon="21.0980081">
    <tag k="addr:city" v="Warszawa@Warszawa Praga"/>
    <tag k="addr:housenumber" v="27"/>
    <tag k="addr:street" v="Wspólna Droga"/>
    <tag k="source" v="http://ump.waw.pl/ retrieved 13:05:59 02/23/09 (UMP-Warszawa/src/WARSZAWA_PRAGA.ulice.txt)"/>
  </node>
  <node id="350069570" version="2" timestamp="2009-05-13T17:30:53Z" uid="20587" user="balrog-kun" changeset="1177534" lat="52.2493755" lon="21.0980784">
    <tag k="addr:city" v="Warszawa@Warszawa Praga"/>
    <tag k="addr:housenumber" v="27"/>
    <tag k="addr:street" v="Wspólna Droga"/>
    <tag k="source" v="http://ump.waw.pl/ retrieved 13:05:59 02/23/09 (UMP-Warszawa/src/WARSZAWA_PRAGA.ulice.txt)"/>
  </node>
  <node id="350069570" version="3" timestamp="2009-05-15T00:49:00Z" uid="20587" user="balrog-kun" changeset="1194128" lat="52.2493755" lon="21.0980784">
    <tag k="addr:city" v="Warszawa@Warszawa Praga"/>
    <tag k="addr:housenumber" v="27"/>
    <tag k="addr:street" v="Wspólna Droga"/>
    <tag k="source" v="http://ump.waw.pl/ retrieved 13:05:59 02/23/09 (UMP-Warszawa/src/WARSZAWA_PRAGA.ulice.txt)"/>
  </node>
  <node id="350069576" version="1" timestamp="2009-02-23T14:55:27Z" uid="20587" user="balrog-kun" changeset="639782" lat="52.242089" lon="21.1022933">
    <tag k="addr:city" v="Warszawa@Warszawa Praga"/>
    <tag k="addr:housenumber" v="129"/>
    <tag k="addr:street" v="Grochowska"/>
    <tag k="source" v="http://ump.waw.pl/ retrieved 13:05:59 02/23/09 (UMP-Warszawa/src/WARSZAWA_PRAGA.ulice.txt)"/>
  </node>
  <node id="350069584" version="1" timestamp="2009-02-23T14:55:28Z" uid="20587" user="balrog-kun" changeset="639782" lat="52.2463953" lon="21.1038059">
    <tag k="addr:city" v="Warszawa@Warszawa Praga"/>
    <tag k="addr:housenumber" v="81"/>
    <tag k="addr:street" v="Szaserów"/>
    <tag k="source" v="http://ump.waw.pl/ retrieved 13:05:59 02/23/09 (UMP-Warszawa/src/WARSZAWA_PRAGA.ulice.txt)"/>
  </node>
  <node id="350069590" version="1" timestamp="2009-02-23T14:55:28Z" uid="20587" user="balrog-kun" changeset="639782" lat="52.2424575" lon="21.1148392">
    <tag k="addr:city" v="Warszawa@Warszawa Praga"/>
    <tag k="addr:housenumber" v="14"/>
    <tag k="addr:street" v="Podolska"/>
    <tag k="source" v="http://ump.waw.pl/ retrieved 13:05:59 02/23/09 (UMP-Warszawa/src/WARSZAWA_PRAGA.ulice.txt)"/>
  </node>
  <node id="350069590" version="2" timestamp="2009-04-26T10:26:40Z" uid="20587" user="balrog-kun" changeset="971717" lat="52.2424575" lon="21.1149345">
    <tag k="addr:city" v="Warszawa@Warszawa Praga"/>
    <tag k="addr:housenumber" v="14"/>
    <tag k="addr:street" v="Podolska"/>
    <tag k="source" v="http://ump.waw.pl/ retrieved 13:05:59 02/23/09 (UMP-Warszawa/src/WARSZAWA_PRAGA.ulice.txt)"/>
  </node>
  <node id="350069595" version="1" timestamp="2009-02-23T14:55:28Z" uid="20587" user="balrog-kun" changeset="639782" lat="52.2427313" lon="21.1019709">
    <tag k="addr:city" v="Warszawa@Warszawa Praga"/>
    <tag k="addr:housenumber" v="1"/>
    <tag k="addr:street" v="plac Szembeka"/>
    <tag k="source" v="http://ump.waw.pl/ retrieved 13:05:59 02/23/09 (UMP-Warszawa/src/WARSZAWA_PRAGA.ulice.txt)"/>
  </node>
  <node id="350069595" version="2" timestamp="2009-02-24T08:54:32Z" uid="20587" user="balrog-kun" changeset="647074" lat="52.2427313" lon="21.1019709">
    <tag k="addr:city" v="Warszawa@Warszawa Praga"/>
    <tag k="addr:housenumber" v="1"/>
    <tag k="addr:street" v="plac Szembeka"/>
    <tag k="source" v="http://ump.waw.pl/ retrieved 13:05:59 02/23/09 (UMP-Warszawa/src/WARSZAWA_PRAGA.ulice.txt)"/>
  </node>
  <node id="350069601" version="1" timestamp="2009-02-23T14:55:28Z" uid="20587" user="balrog-kun" changeset="639782" lat="52.248338" lon="21.1036429">
    <tag k="addr:city" v="Warszawa@Warszawa Praga"/>
    <tag k="addr:housenumber" v="32"/>
    <tag k="addr:street" v="Boremlowska"/>
    <tag k="source" v="http://ump.waw.pl/ retrieved 13:05:59 02/23/09 (UMP-Warszawa/src/WARSZAWA_PRAGA.ulice.txt)"/>
  </node>
  <node id="350069608" version="1" timestamp="2009-02-23T14:55:29Z" uid="20587" user="balrog-kun" changeset="639782" lat="52.2333066" lon="21.1339493">
    <tag k="addr:city" v="Warszawa@Warszawa Wawer"/>
    <tag k="addr:housenumber" v="2"/>
    <tag k="addr:street" v="Barbórki"/>
    <tag k="source" v="http://ump.waw.pl/ retrieved 13:05:59 02/23/09 (UMP-Warszawa/src/WARSZAWA_WAWER.ulice.txt)"/>
  </node>
  <node id="350069617" version="1" timestamp="2009-02-23T14:55:29Z" uid="20587" user="balrog-kun" changeset="639782" lat="52.2455631" lon="21.1065581">
    <tag k="addr:city" v="Warszawa@Warszawa Praga"/>
    <tag k="addr:housenumber" v="30"/>
    <tag k="addr:street" v="Zana"/>
    <tag k="source" v="http://ump.waw.pl/ retrieved 13:05:59 02/23/09 (UMP-Warszawa/src/WARSZAWA_PRAGA.ulice.txt)"/>
  </node>
  <node id="350069625" version="1" timestamp="2009-02-23T14:55:29Z" uid="20587" user="balrog-kun" changeset="639782" lat="52.2407134" lon="21.1032571">
    <tag k="addr:city" v="Warszawa@Warszawa Praga"/>
    <tag k="addr:housenumber" v="54"/>
    <tag k="addr:street" v="Komorska"/>
    <tag k="source" v="http://ump.waw.pl/ retrieved 13:05:59 02/23/09 (UMP-Warszawa/src/WARSZAWA_PRAGA.ulice.txt)"/>
  </node>
  <node id="350069632" version="1" timestamp="2009-02-23T14:55:29Z" uid="20587" user="balrog-kun" changeset="639782" lat="52.2438863" lon="21.1085172">
    <tag k="addr:city" v="Warszawa@Warszawa Praga"/>
    <tag k="addr:housenumber" v="15"/>
    <tag k="addr:street" v="Żółkiewskiego"/>
    <tag k="source" v="http://ump.waw.pl/ retrieved 13:05:59 02/23/09 (UMP-Warszawa/src/WARSZAWA_PRAGA.ulice.txt)"/>
  </node>
  <node id="350069632" version="2" timestamp="2009-02-24T08:54:30Z" uid="20587" user="balrog-kun" changeset="647074" lat="52.2437196" lon="21.1083539">
    <tag k="addr:city" v="Warszawa@Warszawa Praga"/>
    <tag k="addr:housenumber" v="15"/>
    <tag k="addr:street" v="Żółkiewskiego"/>
    <tag k="source" v="http://ump.waw.pl/ retrieved 13:05:59 02/23/09 (UMP-Warszawa/src/WARSZAWA_PRAGA.ulice.txt)"/>
  </node>
  <node id="350069638" version="1" timestamp="2009-02-23T14:55:29Z" uid="20587" user="balrog-kun" changeset="639782" lat="52.250311" lon="21.098494">
    <tag k="addr:city" v="Warszawa@Warszawa Praga"/>
    <tag k="addr:housenumber" v="3"/>
    <tag k="addr:street" v="Szklanych Domów"/>
    <tag k="source" v="http://ump.waw.pl/ retrieved 13:05:59 02/23/09 (UMP-Warszawa/src/WARSZAWA_PRAGA.ulice.txt)"/>
  </node>
  <node id="350069638" version="2" timestamp="2009-05-13T17:30:57Z" uid="20587" user="balrog-kun" changeset="1177534" lat="52.250311" lon="21.098494">
    <tag k="addr:city" v="Warszawa@Warszawa Praga"/>
    <tag k="addr:housenumber" v="3"/>
    <tag k="addr:street" v="Szklanych Domów"/>
    <tag k="source" v="http://ump.waw.pl/ retrieved 13:05:59 02/23/09 (UMP-Warszawa/src/WARSZAWA_PRAGA.ulice.txt)"/>
  </node>
  <node id="350069646" version="1" timestamp="2009-02-23T14:55:30Z" uid="20587" user="balrog-kun" changeset="639782" lat="52.2473566" lon="21.0993027">
    <tag k="addr:city" v="Warszawa@Warszawa Praga"/>
    <tag k="addr:housenumber" v="32"/>
    <tag k="addr:street" v="Nasielska"/>
    <tag k="source" v="http://ump.waw.pl/ retrieved 13:05:59 02/23/09 (UMP-Warszawa/src/WARSZAWA_PRAGA.ulice.txt)"/>
  </node>
  <node id="350069652" version="1" timestamp="2009-02-23T14:55:30Z" uid="20587" user="balrog-kun" changeset="639782" lat="52.250384" lon="21.1024686">
    <tag k="addr:city" v="Warszawa@Warszawa Praga"/>
    <tag k="addr:housenumber" v="17"/>
    <tag k="addr:street" v="Barwnicza"/>
    <tag k="source" v="http://ump.waw.pl/ retrieved 13:05:59 02/23/09 (UMP-Warszawa/src/WARSZAWA_PRAGA.ulice.txt)"/>
  </node>
  <node id="350069658" version="1" timestamp="2009-02-23T14:55:30Z" uid="20587" user="balrog-kun" changeset="639782" lat="52.2476884" lon="21.098764">
    <tag k="addr:city" v="Warszawa@Warszawa Praga"/>
    <tag k="addr:housenumber" v="109"/>
    <tag k="addr:street" v="Szaserów"/>
    <tag k="source" v="http://ump.waw.pl/ retrieved 13:05:59 02/23/09 (UMP-Warszawa/src/WARSZAWA_PRAGA.ulice.txt)"/>
  </node>
  <node id="350069664" version="1" timestamp="2009-02-23T14:55:30Z" uid="20587" user="balrog-kun" changeset="639782" lat="52.2449382" lon="21.1048273">
    <tag k="addr:city" v="Warszawa@Warszawa Praga"/>
    <tag k="addr:housenumber" v="40"/>
    <tag k="addr:street" v="Osowska"/>
    <tag k="source" v="http://ump.waw.pl/ retrieved 13:05:59 02/23/09 (UMP-Warszawa/src/WARSZAWA_PRAGA.ulice.txt)"/>
  </node>
  <node id="350069672" version="1" timestamp="2009-02-23T14:55:31Z" uid="20587" user="balrog-kun" changeset="639782" lat="52.2424537" lon="21.1057931">
    <tag k="addr:city" v="Warszawa@Warszawa Praga"/>
    <tag k="addr:housenumber" v="13"/>
    <tag k="addr:street" v="Kordeckiego"/>
    <tag k="source" v="http://ump.waw.pl/ retrieved 13:05:59 02/23/09 (UMP-Warszawa/src/WARSZAWA_PRAGA.ulice.txt)"/>
  </node>
  <node id="350069678" version="1" timestamp="2009-02-23T14:55:31Z" uid="20587" user="balrog-kun" changeset="639782" lat="52.2474989" lon="21.1336625">
    <tag k="addr:city" v="Warszawa@Warszawa Rembertów"/>
    <tag k="addr:housenumber" v="29"/>
    <tag k="addr:street" v="Szymańskiego"/>
    <tag k="source" v="http://ump.waw.pl/ retrieved 13:05:59 02/23/09 (UMP-Warszawa/src/WARSZAWA_REMBERTOW.ulice.txt)"/>
  </node>
  <node id="350069685" version="1" timestamp="2009-02-23T14:55:31Z" uid="20587" user="balrog-kun" changeset="639782" lat="52.2423133" lon="21.106457">
    <tag k="addr:city" v="Warszawa@Warszawa Praga"/>
    <tag k="addr:housenumber" v="11"/>
    <tag k="addr:street" v="Kordeckiego"/>
    <tag k="source" v="http://ump.waw.pl/ retrieved 13:05:59 02/23/09 (UMP-Warszawa/src/WARSZAWA_PRAGA.ulice.txt)"/>
  </node>
  <node id="350069690" version="1" timestamp="2009-02-23T14:55:32Z" uid="20587" user="balrog-kun" changeset="639782" lat="52.2486499" lon="21.1025257">
    <tag k="addr:city" v="Warszawa@Warszawa Praga"/>
    <tag k="addr:housenumber" v="38"/>
    <tag k="addr:street" v="Boremlowska"/>
    <tag k="source" v="http://ump.waw.pl/ retrieved 13:05:59 02/23/09 (UMP-Warszawa/src/WARSZAWA_PRAGA.ulice.txt)"/>
  </node>
  <node id="350069697" version="1" timestamp="2009-02-23T14:55:32Z" uid="20587" user="balrog-kun" changeset="639782" lat="52.2426982" lon="21.104602">
    <tag k="addr:city" v="Warszawa@Warszawa Praga"/>
    <tag k="addr:housenumber" v="19"/>
    <tag k="addr:street" v="Kordeckiego"/>
    <tag k="source" v="http://ump.waw.pl/ retrieved 13:05:59 02/23/09 (UMP-Warszawa/src/WARSZAWA_PRAGA.ulice.txt)"/>
  </node>
  <node id="350069709" version="1" timestamp="2009-02-23T14:55:32Z" uid="20587" user="balrog-kun" changeset="639782" lat="52.2476494" lon="21.134195">
    <tag k="addr:city" v="Warszawa@Warszawa Rembertów"/>
    <tag k="addr:housenumber" v="33"/>
    <tag k="addr:street" v="Szymańskiego"/>
    <tag k="source" v="http://ump.waw.pl/ retrieved 13:05:59 02/23/09 (UMP-Warszawa/src/WARSZAWA_REMBERTOW.ulice.txt)"/>
  </node>
  <node id="350069716" version="1" timestamp="2009-02-23T14:55:33Z" uid="20587" user="balrog-kun" changeset="639782" lat="52.2478332" lon="21.099765">
    <tag k="addr:city" v="Warszawa@Warszawa Praga"/>
    <tag k="addr:housenumber" v="36"/>
    <tag k="addr:street" v="Nasielska"/>
    <tag k="source" v="http://ump.waw.pl/ retrieved 13:05:59 02/23/09 (UMP-Warszawa/src/WARSZAWA_PRAGA.ulice.txt)"/>
  </node>
  <node id="350069721" version="1" timestamp="2009-02-23T14:55:33Z" uid="20587" user="balrog-kun" changeset="639782" lat="52.2430731" lon="21.1028383">
    <tag k="addr:city" v="Warszawa@Warszawa Praga"/>
    <tag k="addr:housenumber" v="4"/>
    <tag k="addr:street" v="plac Szembeka"/>
    <tag k="source" v="http://ump.waw.pl/ retrieved 13:05:59 02/23/09 (UMP-Warszawa/src/WARSZAWA_PRAGA.ulice.txt)"/>
  </node>
  <node id="350069721" version="2" timestamp="2009-07-26T04:06:34Z" uid="20587" user="balrog-kun" changeset="1940356" lat="52.2430141" lon="21.102803">
    <tag k="addr:city" v="Warszawa@Warszawa Praga"/>
    <tag k="addr:housenumber" v="4"/>
    <tag k="addr:street" v="plac Szembeka"/>
    <tag k="source" v="http://ump.waw.pl/ retrieved 13:05:59 02/23/09 (UMP-Warszawa/src/WARSZAWA_PRAGA.ulice.txt)"/>
  </node>
  <node id="350069721" version="3" timestamp="2010-01-10T13:51:48Z" uid="20587" user="balrog-kun" changeset="3587090" lat="52.2430141" lon="21.102803">
    <tag k="addr:city" v="Warszawa@Warszawa Praga"/>
    <tag k="addr:housenumber" v="4"/>
    <tag k="addr:street" v="plac Szembeka"/>
    <tag k="source" v="http://ump.waw.pl/ retrieved 13:05:59 02/23/09 (UMP-Warszawa/src/WARSZAWA_PRAGA.ulice.txt)"/>
  </node>
  <node id="350069726" version="1" timestamp="2009-02-23T14:55:33Z" uid="20587" user="balrog-kun" changeset="639782" lat="52.2438199" lon="21.1117791">
    <tag k="addr:city" v="Warszawa@Warszawa Praga"/>
    <tag k="addr:housenumber" v="3"/>
    <tag k="addr:street" v="Biłgorajska"/>
    <tag k="source" v="http://ump.waw.pl/ retrieved 13:05:59 02/23/09 (UMP-Warszawa/src/WARSZAWA_PRAGA.ulice.txt)"/>
  </node>
  <node id="350069732" version="1" timestamp="2009-02-23T14:55:34Z" uid="20587" user="balrog-kun" changeset="639782" lat="52.2461924" lon="21.0990175">
    <tag k="addr:city" v="Warszawa@Warszawa Praga"/>
    <tag k="addr:housenumber" v="70"/>
    <tag k="addr:street" v="Osowska"/>
    <tag k="source" v="http://ump.waw.pl/ retrieved 13:05:59 02/23/09 (UMP-Warszawa/src/WARSZAWA_PRAGA.ulice.txt)"/>
  </node>
  <node id="350069740" version="1" timestamp="2009-02-23T14:55:34Z" uid="20587" user="balrog-kun" changeset="639782" lat="52.2481054" lon="21.1003387">
    <tag k="addr:city" v="Warszawa@Warszawa Praga"/>
    <tag k="addr:housenumber" v="29"/>
    <tag k="addr:street" v="Obarowska"/>
    <tag k="source" v="http://ump.waw.pl/ retrieved 13:05:59 02/23/09 (UMP-Warszawa/src/WARSZAWA_PRAGA.ulice.txt)"/>
  </node>
  <node id="350069740" version="2" timestamp="2011-01-21T22:50:17Z" uid="20587" user="balrog-kun" changeset="7045544" lat="52.2481054" lon="21.1003387">
    <tag k="addr:city" v="Warszawa@Warszawa Praga"/>
    <tag k="addr:housenumber" v="29"/>
    <tag k="addr:street" v="Obarowska"/>
    <tag k="source" v="http://ump.waw.pl/ retrieved 13:05:59 02/23/09 (UMP-Warszawa/src/WARSZAWA_PRAGA.ulice.txt)"/>
  </node>
  <node id="350069747" version="1" timestamp="2009-02-23T14:55:34Z" uid="20587" user="balrog-kun" changeset="639782" lat="52.249637" lon="21.1048307">
    <tag k="addr:city" v="Warszawa@Warszawa Praga"/>
    <tag k="addr:housenumber" v="19"/>
    <tag k="addr:street" v="Chłodnicza"/>
    <tag k="source" v="http://ump.waw.pl/ retrieved 13:05:59 02/23/09 (UMP-Warszawa/src/WARSZAWA_PRAGA.ulice.txt)"/>
  </node>
  <node id="350069753" version="1" timestamp="2009-02-23T14:55:35Z" uid="20587" user="balrog-kun" changeset="639782" lat="52.2397451" lon="21.1053763">
    <tag k="addr:city" v="Warszawa@Warszawa Praga"/>
    <tag k="addr:housenumber" v="22"/>
    <tag k="addr:street" v="Jarocińska"/>
    <tag k="source" v="http://ump.waw.pl/ retrieved 13:05:59 02/23/09 (UMP-Warszawa/src/WARSZAWA_PRAGA.ulice.txt)"/>
  </node>
  <node id="350069759" version="1" timestamp="2009-02-23T14:55:35Z" uid="20587" user="balrog-kun" changeset="639782" lat="52.2459998" lon="21.0985001">
    <tag k="addr:city" v="Warszawa@Warszawa Praga"/>
    <tag k="addr:housenumber" v="21"/>
    <tag k="addr:street" v="Pułtuska"/>
    <tag k="source" v="http://ump.waw.pl/ retrieved 13:05:59 02/23/09 (UMP-Warszawa/src/WARSZAWA_PRAGA.ulice.txt)"/>
  </node>
  <node id="350069773" version="1" timestamp="2009-02-23T14:55:36Z" uid="20587" user="balrog-kun" changeset="639782" lat="52.2423561" lon="21.1038445">
    <tag k="addr:city" v="Warszawa@Warszawa Praga"/>
    <tag k="addr:housenumber" v="122"/>
    <tag k="addr:street" v="Grochowska"/>
    <tag k="source" v="http://ump.waw.pl/ retrieved 13:05:59 02/23/09 (UMP-Warszawa/src/WARSZAWA_PRAGA.ulice.txt)"/>
  </node>
  <node id="350069779" version="1" timestamp="2009-02-23T14:55:36Z" uid="20587" user="balrog-kun" changeset="639782" lat="52.2477115" lon="21.1016764">
    <tag k="addr:city" v="Warszawa@Warszawa Praga"/>
    <tag k="addr:housenumber" v="21"/>
    <tag k="addr:street" v="Obarowska"/>
    <tag k="source" v="http://ump.waw.pl/ retrieved 13:05:59 02/23/09 (UMP-Warszawa/src/WARSZAWA_PRAGA.ulice.txt)"/>
  </node>
  <node id="350069779" version="2" timestamp="2011-01-21T22:50:16Z" uid="20587" user="balrog-kun" changeset="7045544" lat="52.24766" lon="21.1019286">
    <tag k="addr:housenumber" v="21"/>
    <tag k="addr:street" v="Obarowska"/>
  </node>
  <node id="350069786" version="1" timestamp="2009-02-23T14:55:36Z" uid="20587" user="balrog-kun" changeset="639782" lat="52.2493354" lon="21.101145">
    <tag k="addr:city" v="Warszawa@Warszawa Praga"/>
    <tag k="addr:housenumber" v="44"/>
    <tag k="addr:street" v="Nasielska"/>
    <tag k="source" v="http://ump.waw.pl/ retrieved 13:05:59 02/23/09 (UMP-Warszawa/src/WARSZAWA_PRAGA.ulice.txt)"/>
  </node>
  <node id="350069794" version="1" timestamp="2009-02-23T14:55:37Z" uid="20587" user="balrog-kun" changeset="639782" lat="52.2482169" lon="21.1351668">
    <tag k="addr:city" v="Warszawa@Warszawa Rembertów"/>
    <tag k="addr:housenumber" v="7"/>
    <tag k="addr:street" v="Babie Lato"/>
    <tag k="source" v="http://ump.waw.pl/ retrieved 13:05:59 02/23/09 (UMP-Warszawa/src/WARSZAWA_REMBERTOW.ulice.txt)"/>
  </node>
  <node id="350069802" version="1" timestamp="2009-02-23T14:55:37Z" uid="20587" user="balrog-kun" changeset="639782" lat="52.2420849" lon="21.1080388">
    <tag k="addr:city" v="Warszawa@Warszawa Praga"/>
    <tag k="addr:housenumber" v="6"/>
    <tag k="addr:street" v="Żółkiewskiego"/>
    <tag k="source" v="http://ump.waw.pl/ retrieved 13:05:59 02/23/09 (UMP-Warszawa/src/WARSZAWA_PRAGA.ulice.txt)"/>
  </node>
  <node id="350069810" version="1" timestamp="2009-02-23T14:55:37Z" uid="20587" user="balrog-kun" changeset="639782" lat="52.2407029" lon="21.1083866">
    <tag k="addr:city" v="Warszawa@Warszawa Praga"/>
    <tag k="addr:housenumber" v="54"/>
    <tag k="addr:street" v="Tarnowiecka"/>
    <tag k="source" v="http://ump.waw.pl/ retrieved 13:05:59 02/23/09 (UMP-Warszawa/src/WARSZAWA_PRAGA.ulice.txt)"/>
  </node>
  <node id="350069817" version="1" timestamp="2009-02-23T14:55:37Z" uid="20587" user="balrog-kun" changeset="639782" lat="52.2484263" lon="21.1020375">
    <tag k="addr:city" v="Warszawa@Warszawa Praga"/>
    <tag k="addr:housenumber" v="47"/>
    <tag k="addr:street" v="Boremlowska"/>
    <tag k="source" v="http://ump.waw.pl/ retrieved 13:05:59 02/23/09 (UMP-Warszawa/src/WARSZAWA_PRAGA.ulice.txt)"/>
  </node>
  <node id="350069821" version="1" timestamp="2009-02-23T14:55:38Z" uid="20587" user="balrog-kun" changeset="639782" lat="52.2408003" lon="21.1044239">
    <tag k="addr:city" v="Warszawa@Warszawa Praga"/>
    <tag k="addr:housenumber" v="28"/>
    <tag k="addr:street" v="Pustelnicka"/>
    <tag k="source" v="http://ump.waw.pl/ retrieved 13:05:59 02/23/09 (UMP-Warszawa/src/WARSZAWA_PRAGA.ulice.txt)"/>
  </node>
  <node id="350069829" version="1" timestamp="2009-02-23T14:55:38Z" uid="20587" user="balrog-kun" changeset="639782" lat="52.243786" lon="21.111123">
    <tag k="addr:city" v="Warszawa@Warszawa Praga"/>
    <tag k="addr:housenumber" v="12"/>
    <tag k="addr:street" v="Osowska"/>
    <tag k="source" v="http://ump.waw.pl/ retrieved 13:05:59 02/23/09 (UMP-Warszawa/src/WARSZAWA_PRAGA.ulice.txt)"/>
  </node>
  <node id="350069836" version="1" timestamp="2009-02-23T14:55:38Z" uid="20587" user="balrog-kun" changeset="639782" lat="52.2406521" lon="21.1051543">
    <tag k="addr:city" v="Warszawa@Warszawa Praga"/>
    <tag k="addr:housenumber" v="60"/>
    <tag k="addr:street" v="Kawcza"/>
    <tag k="source" v="http://ump.waw.pl/ retrieved 13:05:59 02/23/09 (UMP-Warszawa/src/WARSZAWA_PRAGA.ulice.txt)"/>
  </node>
  <node id="350069843" version="1" timestamp="2009-02-23T14:55:38Z" uid="20587" user="balrog-kun" changeset="639782" lat="52.2488697" lon="21.1086111">
    <tag k="addr:city" v="Warszawa@Warszawa Praga"/>
    <tag k="addr:housenumber" v="37"/>
    <tag k="addr:street" v="Byczyńska"/>
    <tag k="source" v="http://ump.waw.pl/ retrieved 13:05:59 02/23/09 (UMP-Warszawa/src/WARSZAWA_PRAGA.ulice.txt)"/>
  </node>
  <node id="350069851" version="1" timestamp="2009-02-23T14:55:39Z" uid="20587" user="balrog-kun" changeset="639782" lat="52.2492095" lon="21.1070325">
    <tag k="addr:city" v="Warszawa@Warszawa Praga"/>
    <tag k="addr:housenumber" v="14"/>
    <tag k="addr:street" v="Załęże"/>
    <tag k="source" v="http://ump.waw.pl/ retrieved 13:05:59 02/23/09 (UMP-Warszawa/src/WARSZAWA_PRAGA.ulice.txt)"/>
  </node>
  <node id="350069859" version="1" timestamp="2009-02-23T14:55:39Z" uid="20587" user="balrog-kun" changeset="639782" lat="52.2460279" lon="21.1031917">
    <tag k="addr:city" v="Warszawa@Warszawa Praga"/>
    <tag k="addr:housenumber" v="4"/>
    <tag k="addr:street" v="Kiprów"/>
    <tag k="source" v="http://ump.waw.pl/ retrieved 13:05:59 02/23/09 (UMP-Warszawa/src/WARSZAWA_PRAGA.ulice.txt)"/>
  </node>
  <node id="350069866" version="1" timestamp="2009-02-23T14:55:39Z" uid="20587" user="balrog-kun" changeset="639782" lat="52.2498705" lon="21.1045825">
    <tag k="addr:city" v="Warszawa@Warszawa Praga"/>
    <tag k="addr:housenumber" v="125"/>
    <tag k="addr:street" v="Makowska"/>
    <tag k="source" v="http://ump.waw.pl/ retrieved 13:05:59 02/23/09 (UMP-Warszawa/src/WARSZAWA_PRAGA.ulice.txt)"/>
  </node>
  <node id="350069871" version="1" timestamp="2009-02-23T14:55:39Z" uid="20587" user="balrog-kun" changeset="639782" lat="52.2460043" lon="21.1054422">
    <tag k="addr:city" v="Warszawa@Warszawa Praga"/>
    <tag k="addr:housenumber" v="71"/>
    <tag k="addr:street" v="Szaserów"/>
    <tag k="source" v="http://ump.waw.pl/ retrieved 13:05:59 02/23/09 (UMP-Warszawa/src/WARSZAWA_PRAGA.ulice.txt)"/>
  </node>
  <node id="350069871" version="2" timestamp="2011-05-19T23:42:57Z" uid="20587" user="balrog-kun" changeset="8194391" lat="52.2459373" lon="21.1054621">
    <tag k="addr:city" v="Warszawa@Warszawa Praga"/>
    <tag k="addr:housenumber" v="71"/>
    <tag k="addr:street" v="Szaserów"/>
    <tag k="source" v="http://ump.waw.pl/ retrieved 13:05:59 02/23/09 (UMP-Warszawa/src/WARSZAWA_PRAGA.ulice.txt)"/>
  </node>
  <node id="350069876" version="1" timestamp="2009-02-23T14:55:39Z" uid="20587" user="balrog-kun" changeset="639782" lat="52.2442123" lon="21.1085811">
    <tag k="addr:city" v="Warszawa@Warszawa Praga"/>
    <tag k="addr:housenumber" v="24"/>
    <tag k="addr:street" v="Osowska"/>
    <tag k="source" v="http://ump.waw.pl/ retrieved 13:05:59 02/23/09 (UMP-Warszawa/src/WARSZAWA_PRAGA.ulice.txt)"/>
  </node>
  <node id="350069883" version="1" timestamp="2009-02-23T14:55:40Z" uid="20587" user="balrog-kun" changeset="639782" lat="52.2400293" lon="21.104266">
    <tag k="addr:city" v="Warszawa@Warszawa Praga"/>
    <tag k="addr:housenumber" v="49"/>
    <tag k="addr:street" v="Kawcza"/>
    <tag k="source" v="http://ump.waw.pl/ retrieved 13:05:59 02/23/09 (UMP-Warszawa/src/WARSZAWA_PRAGA.ulice.txt)"/>
  </node>
  <node id="350069890" version="1" timestamp="2009-02-23T14:55:40Z" uid="20587" user="balrog-kun" changeset="639782" lat="52.2442612" lon="21.1159175">
    <tag k="addr:city" v="Warszawa@Warszawa Praga"/>
    <tag k="addr:housenumber" v="21"/>
    <tag k="addr:street" v="Szaserów"/>
    <tag k="source" v="http://ump.waw.pl/ retrieved 13:05:59 02/23/09 (UMP-Warszawa/src/WARSZAWA_PRAGA.ulice.txt)"/>
  </node>
  <node id="350069890" version="2" timestamp="2011-05-19T23:43:11Z" uid="20587" user="balrog-kun" changeset="8194391" lat="52.2441364" lon="21.1158981">
    <tag k="addr:city" v="Warszawa@Warszawa Praga"/>
    <tag k="addr:housenumber" v="21"/>
    <tag k="addr:street" v="Szaserów"/>
    <tag k="source" v="http://ump.waw.pl/ retrieved 13:05:59 02/23/09 (UMP-Warszawa/src/WARSZAWA_PRAGA.ulice.txt)"/>
  </node>
  <node id="350069896" version="1" timestamp="2009-02-23T14:55:41Z" uid="20587" user="balrog-kun" changeset="639782" lat="52.2474796" lon="21.0996047">
    <tag k="addr:city" v="Warszawa@Warszawa Praga"/>
    <tag k="addr:housenumber" v="107"/>
    <tag k="addr:street" v="Szaserów"/>
    <tag k="source" v="http://ump.waw.pl/ retrieved 13:05:59 02/23/09 (UMP-Warszawa/src/WARSZAWA_PRAGA.ulice.txt)"/>
  </node>
  <node id="350069903" version="1" timestamp="2009-02-23T14:55:41Z" uid="20587" user="balrog-kun" changeset="639782" lat="52.2412309" lon="21.1054956">
    <tag k="addr:city" v="Warszawa@Warszawa Praga"/>
    <tag k="addr:housenumber" v="64"/>
    <tag k="addr:street" v="Kawcza"/>
    <tag k="source" v="http://ump.waw.pl/ retrieved 13:05:59 02/23/09 (UMP-Warszawa/src/WARSZAWA_PRAGA.ulice.txt)"/>
  </node>
  <node id="350069911" version="1" timestamp="2009-02-23T14:55:41Z" uid="20587" user="balrog-kun" changeset="639782" lat="52.2488831" lon="21.1080115">
    <tag k="addr:city" v="Warszawa@Warszawa Praga"/>
    <tag k="addr:housenumber" v="46"/>
    <tag k="addr:street" v="Chłopickiego"/>
    <tag k="source" v="http://ump.waw.pl/ retrieved 13:05:59 02/23/09 (UMP-Warszawa/src/WARSZAWA_PRAGA.ulice.txt)"/>
  </node>
  <node id="350069916" version="1" timestamp="2009-02-23T14:55:41Z" uid="20587" user="balrog-kun" changeset="639782" lat="52.247807" lon="21.0920216">
    <tag k="addr:city" v="Warszawa@Warszawa Praga"/>
    <tag k="addr:housenumber" v="12"/>
    <tag k="addr:street" v="Garwolińska"/>
    <tag k="source" v="http://ump.waw.pl/ retrieved 13:05:59 02/23/09 (UMP-Warszawa/src/WARSZAWA_PRAGA.ulice.txt)"/>
  </node>
  <node id="350069916" version="2" timestamp="2009-05-13T17:30:57Z" uid="20587" user="balrog-kun" changeset="1177534" lat="52.247807" lon="21.0920216">
    <tag k="addr:city" v="Warszawa@Warszawa Praga"/>
    <tag k="addr:housenumber" v="12"/>
    <tag k="addr:street" v="Garwolińska"/>
    <tag k="source" v="http://ump.waw.pl/ retrieved 13:05:59 02/23/09 (UMP-Warszawa/src/WARSZAWA_PRAGA.ulice.txt)"/>
  </node>
  <node id="350069923" version="1" timestamp="2009-02-23T14:55:41Z" uid="20587" user="balrog-kun" changeset="639782" lat="52.2400541" lon="21.1087737">
    <tag k="addr:city" v="Warszawa@Warszawa Praga"/>
    <tag k="addr:housenumber" v="45"/>
    <tag k="addr:street" v="Witolińska"/>
    <tag k="source" v="http://ump.waw.pl/ retrieved 13:05:59 02/23/09 (UMP-Warszawa/src/WARSZAWA_PRAGA.ulice.txt)"/>
  </node>
  <node id="350069929" version="1" timestamp="2009-02-23T14:55:42Z" uid="20587" user="balrog-kun" changeset="639782" lat="52.2421473" lon="21.1137558">
    <tag k="addr:city" v="Warszawa@Warszawa Praga"/>
    <tag k="addr:housenumber" v="20"/>
    <tag k="addr:street" v="Kwatery Głównej"/>
    <tag k="source" v="http://ump.waw.pl/ retrieved 13:05:59 02/23/09 (UMP-Warszawa/src/WARSZAWA_PRAGA.ulice.txt)"/>
  </node>
  <node id="350069939" version="1" timestamp="2009-02-23T14:55:42Z" uid="20587" user="balrog-kun" changeset="639782" lat="52.2560486" lon="21.1115077">
    <tag k="addr:city" v="Warszawa@Warszawa Praga"/>
    <tag k="addr:housenumber" v="59"/>
    <tag k="addr:street" v="Chłopickiego"/>
    <tag k="source" v="http://ump.waw.pl/ retrieved 13:05:59 02/23/09 (UMP-Warszawa/src/WARSZAWA_PRAGA.ulice.txt)"/>
  </node>
  <node id="350069947" version="1" timestamp="2009-02-23T14:55:42Z" uid="20587" user="balrog-kun" changeset="639782" lat="52.2465915" lon="21.097133">
    <tag k="addr:city" v="Warszawa@Warszawa Praga"/>
    <tag k="addr:housenumber" v="10"/>
    <tag k="addr:street" v="Wspólna Droga"/>
    <tag k="source" v="http://ump.waw.pl/ retrieved 13:05:59 02/23/09 (UMP-Warszawa/src/WARSZAWA_PRAGA.ulice.txt)"/>
  </node>
  <node id="350069954" version="1" timestamp="2009-02-23T14:55:42Z" uid="20587" user="balrog-kun" changeset="639782" lat="52.2451387" lon="21.0973141">
    <tag k="addr:city" v="Warszawa@Warszawa Praga"/>
    <tag k="addr:housenumber" v="12"/>
    <tag k="addr:street" v="Nasielska"/>
    <tag k="source" v="http://ump.waw.pl/ retrieved 13:05:59 02/23/09 (UMP-Warszawa/src/WARSZAWA_PRAGA.ulice.txt)"/>
  </node>
  <node id="350069962" version="1" timestamp="2009-02-23T14:55:43Z" uid="20587" user="balrog-kun" changeset="639782" lat="52.2464763" lon="21.1338895">
    <tag k="addr:city" v="Warszawa@Warszawa Rembertów"/>
    <tag k="addr:housenumber" v="22"/>
    <tag k="addr:street" v="Niepołomicka"/>
    <tag k="source" v="http://ump.waw.pl/ retrieved 13:05:59 02/23/09 (UMP-Warszawa/src/WARSZAWA_REMBERTOW.ulice.txt)"/>
  </node>
  <node id="350069972" version="1" timestamp="2009-02-23T14:55:43Z" uid="20587" user="balrog-kun" changeset="639782" lat="52.2462267" lon="21.1062694">
    <tag k="addr:city" v="Warszawa@Warszawa Praga"/>
    <tag k="addr:housenumber" v="1"/>
    <tag k="addr:street" v="Byczyńska"/>
    <tag k="source" v="http://ump.waw.pl/ retrieved 13:05:59 02/23/09 (UMP-Warszawa/src/WARSZAWA_PRAGA.ulice.txt)"/>
  </node>
  <node id="350069981" version="1" timestamp="2009-02-23T14:55:43Z" uid="20587" user="balrog-kun" changeset="639782" lat="52.2522374" lon="21.0960749">
    <tag k="addr:city" v="Warszawa@Warszawa Praga"/>
    <tag k="addr:housenumber" v="155"/>
    <tag k="addr:street" v="Makowska"/>
    <tag k="source" v="http://ump.waw.pl/ retrieved 13:05:59 02/23/09 (UMP-Warszawa/src/WARSZAWA_PRAGA.ulice.txt)"/>
  </node>
  <node id="350069981" version="2" timestamp="2009-03-16T11:37:03Z" uid="20587" user="balrog-kun" changeset="818470" lat="52.2522374" lon="21.0960749">
    <tag k="addr:city" v="Warszawa@Warszawa Praga"/>
    <tag k="addr:housenumber" v="155"/>
    <tag k="addr:street" v="Makowska"/>
    <tag k="source" v="http://ump.waw.pl/ retrieved 13:05:59 02/23/09 (UMP-Warszawa/src/WARSZAWA_PRAGA.ulice.txt)"/>
  </node>
  <node id="350069989" version="1" timestamp="2009-02-23T14:55:43Z" uid="20587" user="balrog-kun" changeset="639782" lat="52.2459216" lon="21.1084429">
    <tag k="addr:city" v="Warszawa@Warszawa Praga"/>
    <tag k="addr:housenumber" v="3"/>
    <tag k="addr:street" v="Lubieszowska"/>
    <tag k="source" v="http://ump.waw.pl/ retrieved 13:05:59 02/23/09 (UMP-Warszawa/src/WARSZAWA_PRAGA.ulice.txt)"/>
  </node>
  <node id="350069995" version="1" timestamp="2009-02-23T14:55:43Z" uid="20587" user="balrog-kun" changeset="639782" lat="52.2427341" lon="21.107909">
    <tag k="addr:city" v="Warszawa@Warszawa Praga"/>
    <tag k="addr:housenumber" v="3"/>
    <tag k="addr:street" v="Zaliwskiego"/>
    <tag k="source" v="http://ump.waw.pl/ retrieved 13:05:59 02/23/09 (UMP-Warszawa/src/WARSZAWA_PRAGA.ulice.txt)"/>
  </node>
</osm>
