<?xml version='1.0' encoding='UTF-8'?>
<osm version="0.6" generator="libosmium/2.20.0">
  <node id="351620650" version="1" timestamp="2009-02-24T17:15:11Z" uid="58091" user="Andreas M" changeset="656764" lat="48.2335849" lon="16.3835319">
    <tag k="amenity" v="bicycle_rental"/>
    <tag k="construction" v="yes"/>
    <tag k="fixme" v="Noch nicht in Betrieb; name, ref und spaces geschätzt"/>
    <tag k="name" v="Traisengasse"/>
    <tag k="network" v="Citybike Wien"/>
    <tag k="ref" v="2004"/>
    <tag k="spaces" v="22"/>
    <tag k="url" v="http://www.citybikewien.at/"/>
  </node>
  <node id="351620650" version="2" timestamp="2009-07-14T04:41:45Z" uid="58091" user="Andreas M" changeset="1823373" lat="48.2335849" lon="16.3835319">
    <tag k="amenity" v="bicycle_rental"/>
    <tag k="name" v="Traisengasse"/>
    <tag k="network" v="Citybike Wien"/>
    <tag k="ref" v="2004"/>
    <tag k="spaces" v="24"/>
    <tag k="url" v="http://www.citybikewien.at/"/>
  </node>
  <node id="351628384" version="1" timestamp="2009-02-24T17:20:00Z" uid="58091" user="Andreas M" changeset="656764" lat="48.2002836" lon="16.3613045">
    <tag k="addr:city" v="Wien"/>
    <tag k="addr:housenumber" v="10-12"/>
    <tag k="addr:postcode" v="1060"/>
    <tag k="addr:street" v="Gumpendorfer Straße"/>
    <tag k="amenity" v="nightclub"/>
    <tag k="name" v="bar.phil"/>
    <tag k="url" v="http://phil.info/"/>
  </node>
  <node id="351628576" version="3" timestamp="2009-03-08T14:17:14Z" uid="6975" user="ulfl" changeset="757880" lat="48.8206965" lon="11.4618551">
    <tag k="amenity" v="driving_school"/>
    <tag k="name" v="Fahrschule Langer"/>
  </node>
</osm>
