<?xml version='1.0' encoding='UTF-8'?>
<osm version="0.6" generator="libosmium/2.20.0">
  <node id="351767350" version="2" timestamp="2009-03-08T14:19:49Z" uid="6975" user="ulfl" changeset="757880" lat="53.3819765" lon="-6.5889407">
    <tag k="name" v="Budgie&apos;s Pet Shop"/>
    <tag k="shop" v="pet"/>
  </node>
  <node id="351767358" version="2" timestamp="2009-04-16T22:43:15Z" uid="6975" user="ulfl" changeset="598814" lat="53.3820187" lon="-6.5888052">
    <tag k="name" v="Maynooth Jewellers&amp;Antiques"/>
    <tag k="shop" v="jewelry"/>
  </node>
  <node id="351767374" version="2" timestamp="2009-03-08T14:19:48Z" uid="6975" user="ulfl" changeset="757880" lat="53.381358" lon="-6.5898479">
    <tag k="name" v="The Happy Hound"/>
    <tag k="shop" v="pet"/>
  </node>
  <node id="351767980" version="1" timestamp="2009-02-24T18:53:16Z" uid="58091" user="Andreas M" changeset="656764" lat="48.2275564" lon="16.3994306">
    <tag k="amenity" v="place_of_worship"/>
    <tag k="denomination" v="serbian_orthodox"/>
    <tag k="name" v="Zur Auferstehung Christi"/>
    <tag k="religion" v="christian"/>
  </node>
  <node id="351769836" version="2" timestamp="2010-05-26T20:54:58Z" uid="9581" user="Lobelt" changeset="4816827" lat="49.5232557" lon="8.3488741"/>
</osm>
