<?xml version='1.0' encoding='UTF-8'?>
<osm version="0.6" generator="libosmium/2.20.0">
  <node id="364171641" version="1" timestamp="2009-03-20T23:33:15Z" uid="30632" user="antblant" changeset="838235" lat="53.4281817" lon="14.55463">
    <tag k="addr:housenumber" v="1"/>
    <tag k="addr:postcode" v="70-561"/>
    <tag k="addr:street" v="Staromłyńska"/>
    <tag k="created_by" v="Potlatch 0.10f"/>
    <tag k="name" v="Muzeum Sztuki Współczesnej"/>
    <tag k="tourism" v="museum"/>
  </node>
  <node id="364171641" version="2" timestamp="2009-05-18T16:53:57Z" uid="30632" user="antblant" changeset="1239621" lat="53.4281851" lon="14.5546294">
    <tag k="addr:housenumber" v="1"/>
    <tag k="addr:postcode" v="70-561"/>
    <tag k="addr:street" v="Staromłyńska"/>
    <tag k="created_by" v="Potlatch 0.10f"/>
    <tag k="name" v="Muzeum Sztuki Współczesnej"/>
    <tag k="operator" v="Muzeum Narodowe w Szczecinie"/>
    <tag k="tourism" v="museum"/>
  </node>
  <node id="364171641" version="3" timestamp="2009-05-18T16:54:24Z" uid="30632" user="antblant" changeset="1239621" lat="53.4281596" lon="14.5546036">
    <tag k="addr:housenumber" v="1"/>
    <tag k="addr:postcode" v="70-561"/>
    <tag k="addr:street" v="Staromłyńska"/>
    <tag k="created_by" v="Potlatch 0.10f"/>
    <tag k="name" v="Muzeum Sztuki Współczesnej"/>
    <tag k="operator" v="Muzeum Narodowe w Szczecinie"/>
    <tag k="tourism" v="museum"/>
  </node>
  <node id="364171641" version="4" timestamp="2009-05-31T10:53:50Z" uid="30632" user="antblant" changeset="1367508" lat="53.4281485" lon="14.5545244">
    <tag k="addr:housenumber" v="1"/>
    <tag k="addr:postcode" v="70-561"/>
    <tag k="addr:street" v="Staromłyńska"/>
    <tag k="created_by" v="Potlatch 0.10f"/>
    <tag k="name" v="Muzeum Sztuki Współczesnej"/>
    <tag k="operator" v="Muzeum Narodowe w Szczecinie"/>
    <tag k="tourism" v="museum"/>
  </node>
  <node id="364171641" version="5" timestamp="2009-11-03T01:02:20Z" uid="36809" user="pfoten_weg_!_" changeset="3021530" lat="53.4281485" lon="14.5545244">
    <tag k="addr:housenumber" v="1"/>
    <tag k="addr:postcode" v="70-561"/>
    <tag k="addr:street" v="Staromłyńska"/>
    <tag k="name" v="Muzeum Sztuki Współczesnej"/>
    <tag k="operator" v="Muzeum Narodowe w Szczecinie"/>
    <tag k="tourism" v="museum"/>
  </node>
  <node id="364173746" version="1" timestamp="2009-03-20T23:40:37Z" uid="30632" user="antblant" changeset="838235" lat="53.4244165" lon="14.560225">
    <tag k="created_by" v="Potlatch 0.10f"/>
    <tag k="name" v="Muzeum Historii Szczecina"/>
    <tag k="tourism" v="museum"/>
  </node>
  <node id="364173746" version="2" timestamp="2009-03-20T23:40:42Z" uid="30632" user="antblant" changeset="838235" lat="53.4243858" lon="14.5601907">
    <tag k="created_by" v="Potlatch 0.10f"/>
    <tag k="name" v="Muzeum Historii Szczecina"/>
    <tag k="tourism" v="museum"/>
  </node>
  <node id="364173746" version="3" timestamp="2009-08-31T19:46:01Z" uid="30632" user="antblant" changeset="2330748" lat="53.4243763" lon="14.5601986">
    <tag k="name" v="Muzeum Historii Szczecina"/>
    <tag k="tourism" v="museum"/>
  </node>
  <node id="364173746" version="4" timestamp="2010-03-25T08:51:24Z" uid="20587" user="balrog-kun" changeset="4227478" lat="53.4244051" lon="14.5601771">
    <tag k="name" v="Muzeum Historii Szczecina"/>
    <tag k="tourism" v="museum"/>
  </node>
  <node id="364174093" version="1" timestamp="2009-03-20T23:46:06Z" uid="7617" user="Franc" changeset="838245" lat="-37.7236879" lon="145.4289142"/>
  <node id="364174094" version="1" timestamp="2009-03-20T23:46:07Z" uid="7617" user="Franc" changeset="838245" lat="-37.739783" lon="145.4404491"/>
  <node id="364174095" version="1" timestamp="2009-03-20T23:46:08Z" uid="7617" user="Franc" changeset="838245" lat="-37.742636" lon="145.4401291"/>
  <node id="364174096" version="1" timestamp="2009-03-20T23:46:09Z" uid="7617" user="Franc" changeset="838245" lat="-37.742363" lon="145.4400881"/>
  <node id="364174097" version="1" timestamp="2009-03-20T23:46:09Z" uid="7617" user="Franc" changeset="838245" lat="-37.739243" lon="145.440486"/>
  <node id="364174098" version="1" timestamp="2009-03-20T23:46:10Z" uid="7617" user="Franc" changeset="838245" lat="-37.7387236" lon="145.4402988"/>
  <node id="364174099" version="1" timestamp="2009-03-20T23:46:11Z" uid="7617" user="Franc" changeset="838245" lat="-37.747224" lon="145.4411292"/>
  <node id="364174100" version="1" timestamp="2009-03-20T23:46:12Z" uid="7617" user="Franc" changeset="838245" lat="-37.7512761" lon="145.4417012"/>
  <node id="364174101" version="1" timestamp="2009-03-20T23:46:12Z" uid="7617" user="Franc" changeset="838245" lat="-37.749674" lon="145.4419112"/>
  <node id="364174102" version="1" timestamp="2009-03-20T23:46:13Z" uid="7617" user="Franc" changeset="838245" lat="-37.745493" lon="145.4414421"/>
  <node id="364174103" version="1" timestamp="2009-03-20T23:46:14Z" uid="7617" user="Franc" changeset="838245" lat="-37.7675303" lon="145.4393804"/>
  <node id="364174104" version="1" timestamp="2009-03-20T23:46:14Z" uid="7617" user="Franc" changeset="838245" lat="-37.7675442" lon="145.4441354"/>
  <node id="364174105" version="1" timestamp="2009-03-20T23:46:15Z" uid="7617" user="Franc" changeset="838245" lat="-37.7529061" lon="145.4393833"/>
  <node id="364174106" version="1" timestamp="2009-03-20T23:46:16Z" uid="7617" user="Franc" changeset="838245" lat="-37.7675303" lon="145.4589662"/>
  <node id="364174109" version="1" timestamp="2009-03-20T23:46:16Z" uid="7617" user="Franc" changeset="838245" lat="-37.727638" lon="145.431212"/>
  <node id="364174114" version="1" timestamp="2009-03-20T23:46:17Z" uid="7617" user="Franc" changeset="838245" lat="-37.7297056" lon="145.4377014"/>
  <node id="364174118" version="1" timestamp="2009-03-20T23:46:18Z" uid="7617" user="Franc" changeset="838245" lat="-37.7273069" lon="145.4307923"/>
  <node id="364175997" version="2" timestamp="2010-07-23T03:21:46Z" uid="74617" user="JohnSmith" changeset="5292289" lat="-35.1632559" lon="147.4647713"/>
  <node id="364175997" version="3" timestamp="2010-07-23T05:41:27Z" uid="4467" user="Rosscoe" changeset="5292634" lat="-35.1632559" lon="147.4647777"/>
  <node id="364177801" version="1" timestamp="2009-03-21T00:29:06Z" uid="36809" user="pfoten_weg_!_" changeset="840540" lat="48.0747104" lon="11.5320562">
    <tag k="access" v="no"/>
    <tag k="barrier" v="gate"/>
    <tag k="created_by" v="RambaZamba"/>
    <tag k="source" v="survey"/>
  </node>
  <node id="364177801" version="3" timestamp="2009-06-08T13:19:02Z" uid="36809" user="pfoten_weg_!_" changeset="1458721" lat="48.0747104" lon="11.5320562">
    <tag k="access" v="no"/>
    <tag k="barrier" v="gate"/>
    <tag k="created_by" v="RambaZamba"/>
    <tag k="source" v="survey"/>
  </node>
  <node id="364177801" version="5" timestamp="2009-08-25T23:41:47Z" uid="36809" user="pfoten_weg_!_" changeset="2262648" lat="48.0747104" lon="11.5320562">
    <tag k="access" v="no"/>
    <tag k="barrier" v="gate"/>
    <tag k="source" v="survey"/>
  </node>
  <node id="364177801" version="6" timestamp="2009-08-26T00:46:22Z" uid="36809" user="pfoten_weg_!_" changeset="2262879" lat="48.0747104" lon="11.5320562">
    <tag k="access" v="no"/>
    <tag k="barrier" v="gate"/>
    <tag k="source" v="survey"/>
  </node>
  <node id="364177801" version="7" timestamp="2009-10-03T17:38:11Z" uid="179968" user="Ich_hasse_doitsche_OSM-Korinthenkacker" changeset="2727120" lat="48.0747104" lon="11.5320562">
    <tag k="access" v="no"/>
    <tag k="barrier" v="gate"/>
  </node>
  <node id="364178012" version="1" timestamp="2009-03-21T00:30:35Z" uid="36809" user="pfoten_weg_!_" changeset="840540" lat="48.0742427" lon="11.5319496">
    <tag k="barrier" v="gate"/>
    <tag k="created_by" v="RambaZamba"/>
    <tag k="source" v="survey"/>
  </node>
  <node id="364178012" version="3" timestamp="2009-08-25T23:40:00Z" uid="36809" user="pfoten_weg_!_" changeset="2262648" lat="48.0742427" lon="11.5319496">
    <tag k="barrier" v="gate"/>
    <tag k="source" v="survey"/>
  </node>
  <node id="364178012" version="4" timestamp="2009-08-26T00:44:28Z" uid="36809" user="pfoten_weg_!_" changeset="2262879" lat="48.0742427" lon="11.5319496">
    <tag k="barrier" v="gate"/>
    <tag k="source" v="survey"/>
  </node>
  <node id="364178012" version="5" timestamp="2009-10-03T17:38:11Z" uid="179968" user="Ich_hasse_doitsche_OSM-Korinthenkacker" changeset="2727120" lat="48.0742427" lon="11.5319496">
    <tag k="barrier" v="gate"/>
  </node>
  <node id="364178328" version="1" timestamp="2009-03-21T00:32:11Z" uid="36809" user="pfoten_weg_!_" changeset="840540" lat="48.0818471" lon="11.5316946">
    <tag k="created_by" v="RambaZamba"/>
    <tag k="is_in" v="Thalkirchen,Thalkirchen-Obersendling-Forstenried-Fürstenried-Solln,München,Bayern,Bundesrepublik Deutschland,Europe"/>
    <tag k="name" v="Prinz Ludwigshöhe"/>
    <tag k="place" v="hamlet"/>
    <tag k="source" v="survey"/>
  </node>
  <node id="364178328" version="3" timestamp="2009-06-08T13:18:32Z" uid="36809" user="pfoten_weg_!_" changeset="1458721" lat="48.0818471" lon="11.5316946">
    <tag k="created_by" v="RambaZamba"/>
    <tag k="is_in" v="Thalkirchen,Thalkirchen-Obersendling-Forstenried-Fürstenried-Solln,München,Bayern,Bundesrepublik Deutschland,Europe"/>
    <tag k="name" v="Prinz Ludwigshöhe"/>
    <tag k="place" v="hamlet"/>
    <tag k="source" v="survey"/>
  </node>
  <node id="364178328" version="4" timestamp="2009-06-09T08:30:57Z" uid="36809" user="pfoten_weg_!_" changeset="1466149" lat="48.0818471" lon="11.5316946">
    <tag k="created_by" v="RambaZamba"/>
    <tag k="is_in" v="Thalkirchen,Thalkirchen-Obersendling-Forstenried-Fürstenried-Solln,München,Bayern,Bundesrepublik Deutschland,Europe"/>
    <tag k="name" v="Prinz Ludwigshöhe"/>
    <tag k="place" v="hamlet"/>
    <tag k="source" v="survey"/>
  </node>
  <node id="364178490" version="1" timestamp="2009-03-21T00:33:12Z" uid="36809" user="pfoten_weg_!_" changeset="840540" lat="48.0810533" lon="11.5261164">
    <tag k="amenity" v="post_box"/>
    <tag k="created_by" v="xybot"/>
    <tag k="source" v="survey"/>
  </node>
  <node id="364178490" version="2" timestamp="2009-04-22T18:13:06Z" uid="36809" user="pfoten_weg_!_" changeset="903669" lat="48.0810533" lon="11.5261164">
    <tag k="amenity" v="post_box"/>
    <tag k="created_by" v="RambaZamba"/>
    <tag k="source" v="survey"/>
  </node>
  <node id="364178490" version="4" timestamp="2009-06-08T13:18:34Z" uid="36809" user="pfoten_weg_!_" changeset="1458721" lat="48.0810533" lon="11.5261164">
    <tag k="amenity" v="post_box"/>
    <tag k="created_by" v="RambaZamba"/>
    <tag k="source" v="survey"/>
  </node>
  <node id="364178490" version="5" timestamp="2009-06-09T09:08:46Z" uid="36809" user="pfoten_weg_!_" changeset="1466458" lat="48.0810533" lon="11.5261164">
    <tag k="amenity" v="post_box"/>
    <tag k="created_by" v="RambaZamba"/>
    <tag k="source" v="survey"/>
  </node>
  <node id="364178491" version="1" timestamp="2009-03-21T00:33:12Z" uid="36809" user="pfoten_weg_!_" changeset="840540" lat="48.0810648" lon="11.5263448">
    <tag k="addr:city" v="München"/>
    <tag k="addr:country" v="DE"/>
    <tag k="addr:housenumber" v="43"/>
    <tag k="addr:postcode" v="81479"/>
    <tag k="addr:street" v="Sollner Straße"/>
    <tag k="amenity" v="restaurant"/>
    <tag k="name" v="Gasthaus zum Hirschen"/>
    <tag k="source" v="survey"/>
  </node>
  <node id="364178491" version="2" timestamp="2009-04-22T18:13:05Z" uid="36809" user="pfoten_weg_!_" changeset="903669" lat="48.0810648" lon="11.5263448">
    <tag k="addr:city" v="München"/>
    <tag k="addr:country" v="DE"/>
    <tag k="addr:housenumber" v="43"/>
    <tag k="addr:postcode" v="81479"/>
    <tag k="addr:street" v="Sollner Straße"/>
    <tag k="amenity" v="restaurant"/>
    <tag k="created_by" v="RambaZamba"/>
    <tag k="name" v="Gasthaus zum Hirschen"/>
    <tag k="source" v="survey"/>
  </node>
  <node id="364178491" version="4" timestamp="2009-06-08T13:18:34Z" uid="36809" user="pfoten_weg_!_" changeset="1458721" lat="48.0810648" lon="11.5263448">
    <tag k="addr:city" v="München"/>
    <tag k="addr:country" v="DE"/>
    <tag k="addr:housenumber" v="43"/>
    <tag k="addr:postcode" v="81479"/>
    <tag k="addr:street" v="Sollner Straße"/>
    <tag k="amenity" v="restaurant"/>
    <tag k="created_by" v="RambaZamba"/>
    <tag k="name" v="Gasthaus zum Hirschen"/>
    <tag k="source" v="survey"/>
  </node>
  <node id="364178491" version="5" timestamp="2009-06-09T09:08:46Z" uid="36809" user="pfoten_weg_!_" changeset="1466458" lat="48.0810648" lon="11.5263448">
    <tag k="addr:city" v="München"/>
    <tag k="addr:country" v="DE"/>
    <tag k="addr:housenumber" v="43"/>
    <tag k="addr:postcode" v="81479"/>
    <tag k="addr:street" v="Sollner Straße"/>
    <tag k="amenity" v="restaurant"/>
    <tag k="created_by" v="RambaZamba"/>
    <tag k="name" v="Gasthaus zum Hirschen"/>
    <tag k="source" v="survey"/>
  </node>
  <node id="364178690" version="1" timestamp="2009-03-21T00:34:51Z" uid="36809" user="pfoten_weg_!_" changeset="840540" lat="48.0756792" lon="11.5233047">
    <tag k="addr:city" v="München"/>
    <tag k="addr:country" v="DE"/>
    <tag k="addr:housenumber" v="232"/>
    <tag k="addr:postcode" v="81479"/>
    <tag k="addr:street" v="Wolfratshauser Straße"/>
    <tag k="amenity" v="fuel"/>
    <tag k="name" v="Agip"/>
    <tag k="operator" v="Mineralöl Großhandel"/>
    <tag k="source" v="survey"/>
  </node>
  <node id="364178690" version="2" timestamp="2009-04-06T02:46:14Z" uid="36809" user="pfoten_weg_!_" changeset="247599" lat="48.0756792" lon="11.5233047">
    <tag k="addr:city" v="München"/>
    <tag k="addr:country" v="DE"/>
    <tag k="addr:housenumber" v="232"/>
    <tag k="addr:postcode" v="81479"/>
    <tag k="addr:street" v="Wolfratshauser Straße"/>
    <tag k="amenity" v="fuel"/>
    <tag k="created_by" v="RambaZamba"/>
    <tag k="name" v="Agip"/>
    <tag k="operator" v="Mineralöl Großhandel"/>
    <tag k="source" v="survey"/>
  </node>
  <node id="364178690" version="4" timestamp="2009-08-19T01:39:06Z" uid="36809" user="pfoten_weg_!_" changeset="2196399" lat="48.0756792" lon="11.5233047">
    <tag k="addr:city" v="München"/>
    <tag k="addr:country" v="DE"/>
    <tag k="addr:housenumber" v="232"/>
    <tag k="addr:postcode" v="81479"/>
    <tag k="addr:street" v="Wolfratshauser Straße"/>
    <tag k="amenity" v="fuel"/>
    <tag k="name" v="Agip"/>
    <tag k="operator" v="Mineralöl Großhandel"/>
    <tag k="source" v="survey"/>
    <tag k="warnung" v="rumpelzumpel-verbrecher"/>
  </node>
  <node id="364178690" version="5" timestamp="2009-08-19T02:06:02Z" uid="36809" user="pfoten_weg_!_" changeset="2196453" lat="48.0756792" lon="11.5233047">
    <tag k="addr:city" v="München"/>
    <tag k="addr:country" v="DE"/>
    <tag k="addr:housenumber" v="232"/>
    <tag k="addr:postcode" v="81479"/>
    <tag k="addr:street" v="Wolfratshauser Straße"/>
    <tag k="amenity" v="fuel"/>
    <tag k="name" v="Agip"/>
    <tag k="operator" v="Mineralöl Großhandel"/>
    <tag k="source" v="survey"/>
  </node>
  <node id="364178690" version="6" timestamp="2009-10-02T20:46:17Z" uid="86259" user="hasse_osm_korinthenkacker" changeset="2717407" lat="48.0756792" lon="11.5233047">
    <tag k="addr:city" v="München"/>
    <tag k="addr:country" v="DE"/>
    <tag k="addr:housenumber" v="232"/>
    <tag k="addr:postcode" v="81479"/>
    <tag k="addr:street" v="Wolfratshauser Straße"/>
    <tag k="amenity" v="fuel"/>
    <tag k="name" v="Agip"/>
    <tag k="operator" v="Mineralöl Großhandel"/>
    <tag k="source" v="survey"/>
  </node>
</osm>
