<?xml version='1.0' encoding='UTF-8'?>
<osm version="0.6" generator="libosmium/2.20.0">
  <node id="365352543" version="2" timestamp="2010-04-05T15:55:47Z" uid="163746" user="anti_bot-nonsense" changeset="4334877" lat="40.6111062" lon="27.1163346">
    <tag k="is_in" v="Turkey, Tekirdağ"/>
    <tag k="name" v="Şarköy"/>
    <tag k="place" v="town"/>
  </node>
  <node id="365352556" version="2" timestamp="2010-04-05T16:23:33Z" uid="163746" user="anti_bot-nonsense" changeset="4334877" lat="40.6111458" lon="27.1160004"/>
  <node id="365352559" version="2" timestamp="2010-04-05T17:37:39Z" uid="163746" user="anti_bot-nonsense" changeset="4334877" lat="40.611206" lon="27.1166714"/>
  <node id="365352563" version="2" timestamp="2010-04-05T17:19:38Z" uid="163746" user="anti_bot-nonsense" changeset="4334877" lat="40.6107948" lon="27.116726"/>
  <node id="365355030" version="3" timestamp="2009-08-26T14:01:45Z" uid="36809" user="pfoten_weg_!_" changeset="2267796" lat="47.9951405" lon="11.3594561"/>
  <node id="365355202" version="4" timestamp="2009-08-26T14:01:45Z" uid="36809" user="pfoten_weg_!_" changeset="2267796" lat="47.9951005" lon="11.3587093"/>
  <node id="365355284" version="3" timestamp="2009-08-26T14:01:43Z" uid="36809" user="pfoten_weg_!_" changeset="2267796" lat="47.9951234" lon="11.3580828"/>
  <node id="365355285" version="3" timestamp="2009-08-26T14:01:43Z" uid="36809" user="pfoten_weg_!_" changeset="2267796" lat="47.9949109" lon="11.3576794"/>
  <node id="365356272" version="2" timestamp="2009-04-07T19:14:41Z" uid="6975" user="ulfl" changeset="298062" lat="55.0567906" lon="-1.6010187">
    <tag k="amenity" v="post_box"/>
    <tag k="postal_code" v="NE23 7JS"/>
    <tag k="ref" v="NE23 260"/>
  </node>
  <node id="365356350" version="2" timestamp="2009-04-07T19:14:42Z" uid="6975" user="ulfl" changeset="298062" lat="55.0520145" lon="-1.5915337">
    <tag k="amenity" v="post_box"/>
    <tag k="postal_code" v="NE23 7LJ"/>
    <tag k="ref" v="NE23 355"/>
  </node>
  <node id="365356380" version="2" timestamp="2009-04-07T19:14:38Z" uid="6975" user="ulfl" changeset="298062" lat="55.0467514" lon="-1.5786294">
    <tag k="amenity" v="post_box"/>
    <tag k="postal_code" v="NE23 7PE"/>
    <tag k="ref" v="NE23 345"/>
  </node>
  <node id="365356470" version="2" timestamp="2009-04-07T19:14:43Z" uid="6975" user="ulfl" changeset="298062" lat="55.0642255" lon="-1.5813871">
    <tag k="amenity" v="post_box"/>
    <tag k="postal_code" v="NE23 7BF"/>
    <tag k="ref" v="NE23 11"/>
  </node>
  <node id="365356473" version="2" timestamp="2009-04-07T19:14:42Z" uid="6975" user="ulfl" changeset="298062" lat="55.0642159" lon="-1.5813843">
    <tag k="amenity" v="post_box"/>
    <tag k="postal_code" v="NE23 7BF"/>
    <tag k="ref" v="NE23 25"/>
  </node>
  <node id="365358404" version="2" timestamp="2010-05-14T02:31:54Z" uid="23543" user="jkjk" changeset="4692039" lat="15.6526621" lon="32.5448409"/>
  <node id="365358779" version="5" timestamp="2009-10-01T16:26:28Z" uid="86259" user="hasse_osm_korinthenkacker" changeset="2702067" lat="47.7894706" lon="11.6976432">
    <tag k="railway" v="level_crossing"/>
  </node>
  <node id="365359339" version="2" timestamp="2009-04-07T19:14:40Z" uid="6975" user="ulfl" changeset="298062" lat="55.061906" lon="-1.5591472">
    <tag k="amenity" v="post_box"/>
    <tag k="postal_code" v="NE23 7TG"/>
    <tag k="ref" v="NE23 665"/>
  </node>
  <node id="365359397" version="2" timestamp="2009-04-07T19:14:38Z" uid="6975" user="ulfl" changeset="298062" lat="55.0637578" lon="-1.5441663">
    <tag k="amenity" v="post_box"/>
    <tag k="postal_code" v="NE23 7SE"/>
    <tag k="ref" v="NE23 146"/>
  </node>
  <node id="365359399" version="2" timestamp="2009-04-07T19:14:37Z" uid="6975" user="ulfl" changeset="298062" lat="55.0630061" lon="-1.552632">
    <tag k="amenity" v="post_box"/>
    <tag k="postal_code" v="NE23 7SD"/>
    <tag k="ref" v="NE23 55"/>
  </node>
  <node id="365359426" version="2" timestamp="2009-04-07T19:14:41Z" uid="6975" user="ulfl" changeset="298062" lat="55.0630069" lon="-1.5526251">
    <tag k="amenity" v="post_office"/>
    <tag k="postal_code" v="NE23 7SD"/>
  </node>
</osm>
