<?xml version='1.0' encoding='UTF-8'?>
<osm version="0.6" generator="libosmium/2.20.0">
  <node id="365782957" version="2" timestamp="2009-04-15T05:46:52Z" uid="6975" user="ulfl" changeset="553994" lat="33.8600117" lon="134.4158946">
    <tag k="mountain_pass" v="yes"/>
    <tag k="name" v="美杉峠"/>
    <tag k="name:en" v="Misugi Pass"/>
  </node>
  <node id="365784584" version="2" timestamp="2011-03-18T09:34:27Z" uid="49111" user="Markus B" changeset="7593312" lat="-17.502956" lon="-149.4898611">
    <tag k="created_by" v="Potlatch 0.10f"/>
    <tag k="leisure" v="stadium"/>
  </node>
  <node id="365784590" version="3" timestamp="2011-03-18T09:34:30Z" uid="49111" user="Markus B" changeset="7593312" lat="-17.5039056" lon="-149.4910032">
    <tag k="amenity" v="place_of_worship"/>
    <tag k="created_by" v="Potlatch 0.10f"/>
    <tag k="religion" v="christian"/>
  </node>
  <node id="365786257" version="2" timestamp="2010-07-28T20:30:16Z" uid="74617" user="JohnSmith" changeset="5341853" lat="49.2793516" lon="-122.930381">
    <tag k="emergency" v="phone"/>
  </node>
  <node id="365786257" version="3" timestamp="2010-07-29T08:18:05Z" uid="74617" user="JohnSmith" changeset="5344518" lat="49.2793516" lon="-122.930381">
    <tag k="amenity" v="emergency_phone"/>
    <tag k="emergency" v="phone"/>
  </node>
  <node id="365786258" version="2" timestamp="2010-07-28T20:29:32Z" uid="74617" user="JohnSmith" changeset="5341853" lat="49.2800083" lon="-122.9297637">
    <tag k="emergency" v="phone"/>
  </node>
  <node id="365786258" version="3" timestamp="2010-07-29T08:20:43Z" uid="74617" user="JohnSmith" changeset="5344518" lat="49.2800083" lon="-122.9297637">
    <tag k="amenity" v="emergency_phone"/>
    <tag k="emergency" v="phone"/>
  </node>
  <node id="365786260" version="2" timestamp="2010-07-28T20:29:59Z" uid="74617" user="JohnSmith" changeset="5341853" lat="49.2812633" lon="-122.928181">
    <tag k="emergency" v="phone"/>
  </node>
  <node id="365786260" version="3" timestamp="2010-07-29T08:19:21Z" uid="74617" user="JohnSmith" changeset="5344518" lat="49.2812633" lon="-122.928181">
    <tag k="amenity" v="emergency_phone"/>
    <tag k="emergency" v="phone"/>
  </node>
  <node id="365786261" version="2" timestamp="2010-07-28T20:29:45Z" uid="74617" user="JohnSmith" changeset="5341853" lat="49.2798343" lon="-122.9200978">
    <tag k="emergency" v="phone"/>
  </node>
  <node id="365786261" version="3" timestamp="2010-07-29T08:17:36Z" uid="74617" user="JohnSmith" changeset="5344518" lat="49.2798343" lon="-122.9200978">
    <tag k="amenity" v="emergency_phone"/>
    <tag k="emergency" v="phone"/>
  </node>
  <node id="365786327" version="2" timestamp="2010-02-07T09:27:57Z" uid="12188" user="Babis" changeset="3811996" lat="38.3069988" lon="23.7532833"/>
  <node id="365786348" version="2" timestamp="2009-04-08T18:56:19Z" uid="12188" user="Babis" changeset="325366" lat="38.3076319" lon="23.7690847"/>
  <node id="365786348" version="3" timestamp="2009-04-08T18:56:36Z" uid="12188" user="Babis" changeset="325366" lat="38.3076319" lon="23.7690847"/>
  <node id="365786348" version="4" timestamp="2009-04-08T18:58:53Z" uid="12188" user="Babis" changeset="325366" lat="38.3076319" lon="23.7690847"/>
  <node id="365786348" version="5" timestamp="2009-04-09T15:47:24Z" uid="12188" user="Babis" changeset="350193" lat="38.3076319" lon="23.7690847"/>
  <node id="365786348" version="6" timestamp="2009-04-09T15:48:10Z" uid="12188" user="Babis" changeset="350193" lat="38.3076319" lon="23.7690847"/>
  <node id="365786592" version="3" timestamp="2009-04-09T16:10:15Z" uid="12188" user="Babis" changeset="350193" lat="38.3017586" lon="23.7550428"/>
  <node id="365786838" version="1" timestamp="2009-03-26T05:14:04Z" uid="110593" user="esetzer" changeset="862344" lat="40.6150876" lon="-111.88954">
    <tag k="amenity" v="hospital"/>
    <tag k="created_by" v="Merkaartor 0.11"/>
    <tag k="emergency" v="no"/>
    <tag k="name" v="Greenwood Health Center (University of Utah)"/>
  </node>
  <node id="365786838" version="3" timestamp="2009-08-20T19:12:14Z" uid="110593" user="esetzer" changeset="2216018" lat="40.615634" lon="-111.889836">
    <tag k="amenity" v="hospital"/>
    <tag k="created_by" v="Merkaartor 0.11"/>
    <tag k="emergency" v="no"/>
    <tag k="name" v="Greenwood Health Center (University of Utah)"/>
  </node>
  <node id="365786838" version="4" timestamp="2010-03-29T03:15:36Z" uid="110593" user="esetzer" changeset="4263604" lat="40.615634" lon="-111.889836">
    <tag k="amenity" v="hospital"/>
    <tag k="created_by" v="Merkaartor 0.11"/>
    <tag k="emergency" v="no"/>
    <tag k="name" v="Greenwood Health Center (University of Utah)"/>
  </node>
  <node id="365788169" version="2" timestamp="2009-05-01T15:58:34Z" uid="68769" user="david lynch" changeset="1038277" lat="30.4855547" lon="-97.6777425">
    <tag k="name" v="Lowes"/>
    <tag k="shop" v="doityourself"/>
    <tag k="url" v="http://stores.lowes.com/lowes/cgi/site?site=0778"/>
  </node>
  <node id="365789085" version="2" timestamp="2009-10-16T23:13:14Z" uid="99207" user="Lar Kiesel" changeset="2869768" lat="34.1872893" lon="-79.816199">
    <tag k="name" v="Lowes"/>
    <tag k="shop" v="doityourself"/>
    <tag k="url" v="http://stores.lowes.com/lowes/cgi/site?site=1120"/>
  </node>
  <node id="365789089" version="2" timestamp="2010-04-25T15:19:19Z" uid="99207" user="Lar Kiesel" changeset="4522574" lat="34.0807478" lon="-81.1523465">
    <tag k="addr:city" v="Columbia, SC"/>
    <tag k="addr:housenumber" v="390"/>
    <tag k="addr:postcode" v="29212"/>
    <tag k="addr:street" v="Harbison Blvd"/>
    <tag k="name" v="Lowe&apos;s"/>
    <tag k="phone" v="803-749-1272"/>
    <tag k="shop" v="doityourself"/>
    <tag k="url" v="http://stores.lowes.com/lowes/cgi/site?site=0385"/>
  </node>
  <node id="365789235" version="2" timestamp="2010-07-18T19:37:18Z" uid="99207" user="Lar Kiesel" changeset="5254740" lat="33.978599" lon="-81.1121652">
    <tag k="name" v="Lowes"/>
    <tag k="shop" v="doityourself"/>
    <tag k="url" v="http://stores.lowes.com/lowes/cgi/site?site=0499"/>
  </node>
  <node id="365789242" version="2" timestamp="2009-10-12T09:19:43Z" uid="99207" user="Lar Kiesel" changeset="2823679" lat="34.0017162" lon="-81.2141935">
    <tag k="name" v="Lowes"/>
    <tag k="shop" v="doityourself"/>
    <tag k="url" v="http://stores.lowes.com/lowes/cgi/site?site=1066"/>
  </node>
  <node id="365789242" version="3" timestamp="2010-02-16T16:20:47Z" uid="99207" user="Lar Kiesel" changeset="3893532" lat="34.0017161" lon="-81.2141935">
    <tag k="addr:city" v="Lexington, SC"/>
    <tag k="addr:housenumber" v="5412"/>
    <tag k="addr:postcode" v="29072"/>
    <tag k="addr:street" v="Sunset Boulevard"/>
    <tag k="name" v="Lowes"/>
    <tag k="phone" v="803-358-2000"/>
    <tag k="shop" v="doityourself"/>
    <tag k="url" v="http://stores.lowes.com/lowes/cgi/site?site=1066"/>
  </node>
  <node id="365789749" version="15" timestamp="2010-07-17T14:54:22Z" uid="4467" user="Rosscoe" changeset="5243223" lat="-28.8211187" lon="153.3372953"/>
</osm>
