<?xml version='1.0' encoding='UTF-8'?>
<osm version="0.6" generator="libosmium/2.20.0">
  <node id="366651832" version="5" timestamp="2009-04-15T05:16:53Z" uid="6975" user="ulfl" changeset="553994" lat="52.0604105" lon="5.1382064">
    <tag k="highway" v="bus_stop"/>
    <tag k="name" v="Sleeswijk"/>
    <tag k="route_ref" v="8\s10"/>
    <tag k="shelter" v="yes"/>
  </node>
  <node id="366652383" version="2" timestamp="2009-04-15T05:16:41Z" uid="6975" user="ulfl" changeset="553994" lat="52.0632483" lon="5.1383664">
    <tag k="highway" v="bus_stop"/>
    <tag k="name" v="Betuwe"/>
    <tag k="route_ref" v="8\s10"/>
    <tag k="shelter" v="no"/>
  </node>
  <node id="366652510" version="2" timestamp="2009-04-15T05:15:29Z" uid="6975" user="ulfl" changeset="553994" lat="52.0639396" lon="5.1388127">
    <tag k="highway" v="bus_stop"/>
    <tag k="name" v="Betuwe"/>
    <tag k="route_ref" v="8\s10"/>
    <tag k="shelter" v="yes"/>
  </node>
  <node id="366653656" version="4" timestamp="2011-05-08T08:06:05Z" uid="9581" user="Lobelt" changeset="8079820" lat="49.8402564" lon="8.1269554">
    <tag k="amenity" v="post_box"/>
    <tag k="operator" v="Deutsche Post"/>
  </node>
  <node id="366653716" version="4" timestamp="2009-04-15T05:16:04Z" uid="6975" user="ulfl" changeset="553994" lat="52.0668968" lon="5.1402708">
    <tag k="highway" v="bus_stop"/>
    <tag k="name" v="Texel"/>
    <tag k="route_ref" v="1\s31"/>
    <tag k="shelter" v="yes"/>
  </node>
  <node id="366657715" version="2" timestamp="2009-11-05T03:14:18Z" uid="36809" user="pfoten_weg_!_" changeset="3037787" lat="53.3097137" lon="13.8508171"/>
  <node id="366657724" version="3" timestamp="2009-11-05T03:14:35Z" uid="36809" user="pfoten_weg_!_" changeset="3037787" lat="53.3181445" lon="13.8531939"/>
  <node id="366657829" version="3" timestamp="2010-07-29T09:26:36Z" uid="74617" user="JohnSmith" changeset="5344848" lat="53.3064259" lon="13.8610911">
    <tag k="amenity" v="emergency_phone"/>
    <tag k="emergency" v="phone"/>
  </node>
  <node id="366659918" version="2" timestamp="2009-10-28T03:07:15Z" uid="23543" user="jkjk" changeset="2970551" lat="50.0510717" lon="14.4464774">
    <tag k="amenity" v="fuel"/>
    <tag k="name" v="Na PankrÃ¡ci"/>
    <tag k="operator" v="OMW"/>
  </node>
  <node id="366659920" version="2" timestamp="2009-10-28T03:07:11Z" uid="23543" user="jkjk" changeset="2970551" lat="50.051232" lon="14.4461449"/>
  <node id="366659921" version="2" timestamp="2009-10-28T03:07:15Z" uid="23543" user="jkjk" changeset="2970551" lat="50.0509944" lon="14.446662"/>
  <node id="366659922" version="2" timestamp="2009-10-28T03:07:15Z" uid="23543" user="jkjk" changeset="2970551" lat="50.0508447" lon="14.4467044"/>
  <node id="366659923" version="2" timestamp="2009-10-28T03:07:15Z" uid="23543" user="jkjk" changeset="2970551" lat="50.0507258" lon="14.446935"/>
  <node id="366659924" version="2" timestamp="2009-10-28T03:07:14Z" uid="23543" user="jkjk" changeset="2970551" lat="50.050526" lon="14.4473226"/>
  <node id="366659925" version="2" timestamp="2009-10-28T03:07:15Z" uid="23543" user="jkjk" changeset="2970551" lat="50.050295" lon="14.4476288"/>
</osm>
