<?xml version='1.0' encoding='UTF-8'?>
<osm version="0.6" generator="libosmium/2.20.0">
  <node id="367860741" version="2" timestamp="2010-07-29T09:25:30Z" uid="74617" user="JohnSmith" changeset="5344848" lat="51.2886536" lon="6.785795">
    <tag k="amenity" v="emergency_phone"/>
    <tag k="emergency" v="phone"/>
    <tag k="operator" v="Autobahnmeisterei"/>
  </node>
  <node id="367860742" version="2" timestamp="2010-07-29T09:03:00Z" uid="74617" user="JohnSmith" changeset="5344848" lat="51.2883377" lon="6.7861262">
    <tag k="amenity" v="emergency_phone"/>
    <tag k="emergency" v="phone"/>
    <tag k="operator" v="Autobahnmeisterei"/>
  </node>
  <node id="367860743" version="2" timestamp="2010-07-29T09:12:56Z" uid="74617" user="JohnSmith" changeset="5344848" lat="51.2852136" lon="6.7824446">
    <tag k="amenity" v="emergency_phone"/>
    <tag k="emergency" v="phone"/>
    <tag k="operator" v="Autobahnmeisterei"/>
  </node>
  <node id="367860744" version="2" timestamp="2010-07-29T08:59:15Z" uid="74617" user="JohnSmith" changeset="5344848" lat="51.285016" lon="6.7828499">
    <tag k="amenity" v="emergency_phone"/>
    <tag k="emergency" v="phone"/>
    <tag k="operator" v="Autobahnmeisterei"/>
  </node>
  <node id="367860745" version="2" timestamp="2010-07-29T09:08:37Z" uid="74617" user="JohnSmith" changeset="5344848" lat="51.2764403" lon="6.7747711">
    <tag k="amenity" v="emergency_phone"/>
    <tag k="emergency" v="phone"/>
    <tag k="operator" v="Autobahnmeisterei"/>
  </node>
  <node id="367860746" version="2" timestamp="2010-07-29T09:30:36Z" uid="74617" user="JohnSmith" changeset="5344848" lat="51.2762556" lon="6.7750604">
    <tag k="amenity" v="emergency_phone"/>
    <tag k="emergency" v="phone"/>
    <tag k="operator" v="Autobahnmeisterei"/>
  </node>
  <node id="367860747" version="2" timestamp="2010-07-29T09:39:03Z" uid="74617" user="JohnSmith" changeset="5344848" lat="51.2712192" lon="6.7618217">
    <tag k="amenity" v="emergency_phone"/>
    <tag k="emergency" v="phone"/>
    <tag k="operator" v="Autobahnmeisterei"/>
  </node>
  <node id="367860748" version="2" timestamp="2010-07-29T09:27:49Z" uid="74617" user="JohnSmith" changeset="5344848" lat="51.2715379" lon="6.7618295">
    <tag k="amenity" v="emergency_phone"/>
    <tag k="emergency" v="phone"/>
    <tag k="operator" v="Autobahnmeisterei"/>
  </node>
  <node id="367860749" version="2" timestamp="2010-07-29T09:34:30Z" uid="74617" user="JohnSmith" changeset="5344848" lat="51.2715422" lon="6.7567805">
    <tag k="amenity" v="emergency_phone"/>
    <tag k="emergency" v="phone"/>
    <tag k="operator" v="Autobahnmeisterei"/>
  </node>
  <node id="367860750" version="2" timestamp="2010-07-29T09:15:50Z" uid="74617" user="JohnSmith" changeset="5344848" lat="51.2717921" lon="6.7567805">
    <tag k="amenity" v="emergency_phone"/>
    <tag k="emergency" v="phone"/>
    <tag k="operator" v="Autobahnmeisterei"/>
  </node>
  <node id="367860751" version="2" timestamp="2010-07-29T09:21:50Z" uid="74617" user="JohnSmith" changeset="5344848" lat="51.269032" lon="6.7356576">
    <tag k="amenity" v="emergency_phone"/>
    <tag k="emergency" v="phone"/>
    <tag k="operator" v="Autobahnmeisterei"/>
  </node>
  <node id="367860752" version="2" timestamp="2010-07-29T09:12:25Z" uid="74617" user="JohnSmith" changeset="5344848" lat="51.2693424" lon="6.7357911">
    <tag k="amenity" v="emergency_phone"/>
    <tag k="emergency" v="phone"/>
    <tag k="operator" v="Autobahnmeisterei"/>
  </node>
  <node id="367860753" version="2" timestamp="2010-07-29T09:18:15Z" uid="74617" user="JohnSmith" changeset="5344848" lat="51.2744631" lon="6.7149485">
    <tag k="amenity" v="emergency_phone"/>
    <tag k="emergency" v="phone"/>
    <tag k="operator" v="Autobahnmeisterei"/>
  </node>
  <node id="367860754" version="2" timestamp="2010-07-29T09:41:41Z" uid="74617" user="JohnSmith" changeset="5344848" lat="51.2747842" lon="6.7152456">
    <tag k="amenity" v="emergency_phone"/>
    <tag k="emergency" v="phone"/>
    <tag k="operator" v="Autobahnmeisterei"/>
  </node>
  <node id="367860755" version="2" timestamp="2010-07-29T09:02:22Z" uid="74617" user="JohnSmith" changeset="5344848" lat="51.280784" lon="6.6965359">
    <tag k="amenity" v="emergency_phone"/>
    <tag k="emergency" v="phone"/>
    <tag k="operator" v="Autobahnmeisterei"/>
  </node>
  <node id="367860756" version="2" timestamp="2010-07-29T09:38:38Z" uid="74617" user="JohnSmith" changeset="5344848" lat="51.2810997" lon="6.6969397">
    <tag k="amenity" v="emergency_phone"/>
    <tag k="emergency" v="phone"/>
    <tag k="operator" v="Autobahnmeisterei"/>
  </node>
  <node id="367860757" version="2" timestamp="2010-07-29T08:58:52Z" uid="74617" user="JohnSmith" changeset="5344848" lat="51.2838405" lon="6.6878375">
    <tag k="amenity" v="emergency_phone"/>
    <tag k="emergency" v="phone"/>
    <tag k="operator" v="Autobahnmeisterei"/>
  </node>
  <node id="367860758" version="2" timestamp="2010-07-29T09:25:13Z" uid="74617" user="JohnSmith" changeset="5344848" lat="51.2841409" lon="6.6880675">
    <tag k="amenity" v="emergency_phone"/>
    <tag k="emergency" v="phone"/>
    <tag k="operator" v="Autobahnmeisterei"/>
  </node>
  <node id="367860759" version="3" timestamp="2010-07-29T09:30:17Z" uid="74617" user="JohnSmith" changeset="5344848" lat="51.2873857" lon="6.6750577">
    <tag k="amenity" v="emergency_phone"/>
    <tag k="emergency" v="phone"/>
    <tag k="operator" v="Autobahnmeisterei"/>
  </node>
  <node id="367860760" version="4" timestamp="2010-07-29T09:21:18Z" uid="74617" user="JohnSmith" changeset="5344848" lat="51.2876292" lon="6.6753227">
    <tag k="amenity" v="emergency_phone"/>
    <tag k="emergency" v="phone"/>
    <tag k="operator" v="Autobahnmeisterei"/>
  </node>
  <node id="367860761" version="3" timestamp="2010-07-29T09:27:33Z" uid="74617" user="JohnSmith" changeset="5344848" lat="51.2894207" lon="6.6680104">
    <tag k="amenity" v="emergency_phone"/>
    <tag k="emergency" v="phone"/>
    <tag k="operator" v="Autobahnmeisterei"/>
  </node>
  <node id="367860762" version="3" timestamp="2010-07-29T09:07:56Z" uid="74617" user="JohnSmith" changeset="5344848" lat="51.2896356" lon="6.668251">
    <tag k="amenity" v="emergency_phone"/>
    <tag k="emergency" v="phone"/>
    <tag k="operator" v="Autobahnmeisterei"/>
  </node>
  <node id="367860763" version="3" timestamp="2010-07-29T09:15:30Z" uid="74617" user="JohnSmith" changeset="5344848" lat="51.2923651" lon="6.6611894">
    <tag k="amenity" v="emergency_phone"/>
    <tag k="emergency" v="phone"/>
    <tag k="operator" v="Autobahnmeisterei"/>
  </node>
  <node id="367860764" version="4" timestamp="2010-07-29T09:01:54Z" uid="74617" user="JohnSmith" changeset="5344848" lat="51.2926811" lon="6.6435521">
    <tag k="amenity" v="emergency_phone"/>
    <tag k="emergency" v="phone"/>
    <tag k="operator" v="Autobahnmeisterei"/>
  </node>
  <node id="367860807" version="1" timestamp="2009-03-31T10:57:27Z" uid="1066" user="pavel" changeset="872060" lat="50.008124" lon="14.714559">
    <tag k="amenity" v="fast_food"/>
    <tag k="created_by" v="andnav.org"/>
    <tag k="name" v="bistro"/>
  </node>
  <node id="367860911" version="1" timestamp="2009-03-31T10:58:00Z" uid="1066" user="pavel" changeset="872060" lat="50.00818" lon="14.715203">
    <tag k="created_by" v="andnav.org"/>
    <tag k="highway" v="bus_stop"/>
    <tag k="name" v="Babice"/>
  </node>
  <node id="367861148" version="1" timestamp="2009-03-31T11:00:25Z" uid="1066" user="pavel" changeset="872060" lat="50.0077" lon="14.717027">
    <tag k="amenity" v="restaurant"/>
    <tag k="created_by" v="andnav.org"/>
    <tag k="name" v="restaurace"/>
  </node>
  <node id="367861149" version="2" timestamp="2009-04-15T07:14:58Z" uid="6975" user="ulfl" changeset="553994" lat="41.0076258" lon="-76.8688974">
    <tag k="shop" v="butcher"/>
  </node>
  <node id="367865133" version="9" timestamp="2011-02-27T16:25:47Z" uid="9581" user="Lobelt" changeset="7412436" lat="49.519472" lon="8.4271381"/>
  <node id="367865461" version="6" timestamp="2010-10-09T17:21:38Z" uid="9581" user="Lobelt" changeset="5995218" lat="49.5268105" lon="8.4232396"/>
  <node id="367865462" version="6" timestamp="2010-10-09T17:21:43Z" uid="9581" user="Lobelt" changeset="5995218" lat="49.5262956" lon="8.4241"/>
  <node id="367866118" version="4" timestamp="2010-10-09T17:21:45Z" uid="9581" user="Lobelt" changeset="5995218" lat="49.5280501" lon="8.421747"/>
  <node id="367867007" version="20" timestamp="2009-04-16T11:01:54Z" uid="117265" user="Patrick Trettenbrein" changeset="576454" lat="47.2056894" lon="14.794597"/>
  <node id="367867007" version="21" timestamp="2009-04-16T11:02:05Z" uid="117265" user="Patrick Trettenbrein" changeset="576454" lat="47.2056894" lon="14.794597"/>
  <node id="367867007" version="22" timestamp="2009-04-16T11:02:30Z" uid="117265" user="Patrick Trettenbrein" changeset="576454" lat="47.2056894" lon="14.794597"/>
  <node id="367867200" version="18" timestamp="2009-04-16T18:54:31Z" uid="117265" user="Patrick Trettenbrein" changeset="582064" lat="47.2058626" lon="14.7948575"/>
  <node id="367867233" version="1" timestamp="2009-03-31T11:30:21Z" uid="1066" user="pavel" changeset="872060" lat="49.98976" lon="14.74184">
    <tag k="amenity" v="fast_food"/>
    <tag k="created_by" v="andnav.org"/>
    <tag k="name" v="stanek"/>
  </node>
  <node id="367867233" version="2" timestamp="2009-04-15T17:17:37Z" uid="1066" user="pavel" changeset="559184" lat="49.98968" lon="14.74184">
    <tag k="amenity" v="fast_food"/>
    <tag k="created_by" v="andnav.org"/>
    <tag k="name" v="stanek"/>
  </node>
  <node id="367867310" version="2" timestamp="2009-04-16T11:01:31Z" uid="117265" user="Patrick Trettenbrein" changeset="576454" lat="47.2057929" lon="14.794398">
    <tag k="amenity" v="fire_station"/>
    <tag k="created_by" v="Potlatch 0.10f"/>
  </node>
  <node id="367867399" version="2" timestamp="2009-04-15T05:16:45Z" uid="6975" user="ulfl" changeset="553994" lat="50.3793244" lon="-4.1288278">
    <tag k="highway" v="bus_stop"/>
  </node>
  <node id="367867400" version="1" timestamp="2009-03-31T11:31:36Z" uid="1066" user="pavel" changeset="872060" lat="49.989876" lon="14.742044">
    <tag k="created_by" v="andnav.org"/>
    <tag k="name" v="samoobsluha enapo"/>
    <tag k="shop" v="supermarket"/>
  </node>
  <node id="367867400" version="2" timestamp="2009-04-15T17:17:35Z" uid="1066" user="pavel" changeset="559184" lat="49.9897665" lon="14.7420275">
    <tag k="created_by" v="andnav.org"/>
    <tag k="name" v="samoobsluha enapo"/>
    <tag k="shop" v="supermarket"/>
  </node>
  <node id="367867713" version="1" timestamp="2009-03-31T11:32:33Z" uid="1066" user="pavel" changeset="872060" lat="49.989752" lon="14.741411">
    <tag k="created_by" v="andnav.org"/>
    <tag k="name" v="teta drogerie"/>
    <tag k="shop" v="electronics"/>
  </node>
  <node id="367867872" version="1" timestamp="2009-03-31T11:33:27Z" uid="1066" user="pavel" changeset="872060" lat="49.989776" lon="14.742141">
    <tag k="amenity" v="atm"/>
    <tag k="created_by" v="andnav.org"/>
    <tag k="name" v="csob bankomat"/>
  </node>
  <node id="367867972" version="1" timestamp="2009-03-31T11:33:54Z" uid="1066" user="pavel" changeset="872060" lat="49.989808" lon="14.742956">
    <tag k="amenity" v="restaurant"/>
    <tag k="created_by" v="andnav.org"/>
    <tag k="name" v="basta na budech"/>
  </node>
  <node id="367867972" version="2" timestamp="2009-04-15T17:17:30Z" uid="1066" user="pavel" changeset="559184" lat="49.9897562" lon="14.7428425">
    <tag k="amenity" v="restaurant"/>
    <tag k="created_by" v="andnav.org"/>
    <tag k="name" v="basta na budech"/>
  </node>
  <node id="367869852" version="2" timestamp="2009-04-15T07:28:33Z" uid="6975" user="ulfl" changeset="553994" lat="46.9045188" lon="6.35525">
    <tag k="name" v="Afat Voyages"/>
    <tag k="shop" v="travel_agency"/>
    <tag k="source" v="cadastre-dgi-fr source : Direction Générale des Impôts - Cadastre \s mise à jour : 2008"/>
  </node>
</osm>
