<?xml version='1.0' encoding='UTF-8'?>
<osm version="0.6" generator="libosmium/2.20.0">
  <node id="368160169" version="2" timestamp="2009-09-04T02:56:07Z" uid="68769" user="david lynch" changeset="2365783" lat="30.2823" lon="-97.7368">
    <tag k="addr:state" v="TX"/>
    <tag k="building" v="yes"/>
    <tag k="ele" v="163"/>
    <tag k="gnis:county_name" v="Travis"/>
    <tag k="gnis:feature_id" v="2360691"/>
    <tag k="gnis:import_uuid" v="57871b70-0100-4405-bb30-88b2e001a944"/>
    <tag k="gnis:reviewed" v="no"/>
    <tag k="name" v="Beauford H Jester Center"/>
    <tag k="source" v="USGS Geonames"/>
  </node>
  <node id="368160174" version="2" timestamp="2009-09-04T02:56:30Z" uid="68769" user="david lynch" changeset="2365783" lat="30.2842" lon="-97.7413">
    <tag k="addr:state" v="TX"/>
    <tag k="building" v="yes"/>
    <tag k="ele" v="176"/>
    <tag k="gnis:county_name" v="Travis"/>
    <tag k="gnis:feature_id" v="2360735"/>
    <tag k="gnis:import_uuid" v="57871b70-0100-4405-bb30-88b2e001a944"/>
    <tag k="gnis:reviewed" v="no"/>
    <tag k="name" v="Harry Ransom Center"/>
    <tag k="source" v="USGS Geonames"/>
  </node>
  <node id="368160178" version="2" timestamp="2009-09-04T02:57:11Z" uid="68769" user="david lynch" changeset="2365783" lat="30.2863" lon="-97.7404">
    <tag k="addr:state" v="TX"/>
    <tag k="building" v="yes"/>
    <tag k="ele" v="183"/>
    <tag k="gnis:county_name" v="Travis"/>
    <tag k="gnis:feature_id" v="2360780"/>
    <tag k="gnis:import_uuid" v="57871b70-0100-4405-bb30-88b2e001a944"/>
    <tag k="gnis:reviewed" v="no"/>
    <tag k="name" v="Peter Flawn Academic Center"/>
    <tag k="source" v="USGS Geonames"/>
  </node>
  <node id="368160366" version="2" timestamp="2009-08-24T02:20:04Z" uid="68769" user="david lynch" changeset="2238410" lat="30.2732639" lon="-97.7452832">
    <tag k="addr:state" v="TX"/>
    <tag k="amenity" v="courthouse"/>
    <tag k="ele" v="164"/>
    <tag k="gnis:county_name" v="Travis"/>
    <tag k="gnis:feature_id" v="2030529"/>
    <tag k="gnis:import_uuid" v="57871b70-0100-4405-bb30-88b2e001a944"/>
    <tag k="gnis:reviewed" v="no"/>
    <tag k="name" v="Travis County Courthouse"/>
    <tag k="source" v="USGS Geonames"/>
  </node>
  <node id="368161160" version="2" timestamp="2009-08-24T02:09:20Z" uid="68769" user="david lynch" changeset="2238410" lat="30.265795" lon="-97.7394551">
    <tag k="addr:state" v="TX"/>
    <tag k="amenity" v="fire_station"/>
    <tag k="ele" v="147"/>
    <tag k="gnis:county_name" v="Travis"/>
    <tag k="gnis:feature_id" v="2360661"/>
    <tag k="gnis:import_uuid" v="57871b70-0100-4405-bb30-88b2e001a944"/>
    <tag k="gnis:reviewed" v="no"/>
    <tag k="name" v="Austin Fire Station Number 1"/>
    <tag k="source" v="USGS Geonames"/>
  </node>
  <node id="368161173" version="2" timestamp="2009-09-22T02:37:03Z" uid="68769" user="david lynch" changeset="2564072" lat="30.2947394" lon="-97.7388276">
    <tag k="addr:state" v="TX"/>
    <tag k="amenity" v="fire_station"/>
    <tag k="ele" v="177"/>
    <tag k="gnis:county_name" v="Travis"/>
    <tag k="gnis:feature_id" v="2360677"/>
    <tag k="gnis:import_uuid" v="57871b70-0100-4405-bb30-88b2e001a944"/>
    <tag k="gnis:reviewed" v="no"/>
    <tag k="name" v="Austin Fire Station Number 3"/>
    <tag k="source" v="USGS Geonames"/>
  </node>
  <node id="368161175" version="2" timestamp="2009-04-23T20:23:37Z" uid="68769" user="david lynch" changeset="919017" lat="30.2934914" lon="-97.631554">
    <tag k="addr:state" v="TX"/>
    <tag k="amenity" v="fire_station"/>
    <tag k="ele" v="169"/>
    <tag k="gnis:county_name" v="Travis"/>
    <tag k="gnis:feature_id" v="2360675"/>
    <tag k="gnis:import_uuid" v="57871b70-0100-4405-bb30-88b2e001a944"/>
    <tag k="gnis:reviewed" v="no"/>
    <tag k="name" v="Austin Fire Station Number 26"/>
    <tag k="source" v="USGS Geonames"/>
  </node>
  <node id="368162051" version="2" timestamp="2009-08-25T18:17:25Z" uid="68769" user="david lynch" changeset="2259808" lat="30.3093281" lon="-97.6669511">
    <tag k="addr:state" v="TX"/>
    <tag k="amenity" v="library"/>
    <tag k="ele" v="156"/>
    <tag k="gnis:county_name" v="Travis"/>
    <tag k="gnis:feature_id" v="2360820"/>
    <tag k="gnis:import_uuid" v="57871b70-0100-4405-bb30-88b2e001a944"/>
    <tag k="gnis:reviewed" v="no"/>
    <tag k="name" v="Austin Public Library - University Hills Branch"/>
    <tag k="source" v="USGS Geonames"/>
  </node>
  <node id="368162203" version="2" timestamp="2009-08-25T18:17:31Z" uid="68769" user="david lynch" changeset="2259808" lat="30.2179163" lon="-97.7960678">
    <tag k="addr:state" v="TX"/>
    <tag k="amenity" v="library"/>
    <tag k="ele" v="199"/>
    <tag k="gnis:county_name" v="Travis"/>
    <tag k="gnis:feature_id" v="2360758"/>
    <tag k="gnis:import_uuid" v="57871b70-0100-4405-bb30-88b2e001a944"/>
    <tag k="gnis:reviewed" v="no"/>
    <tag k="name" v="Manchaca Branch Austin City Library"/>
    <tag k="source" v="USGS Geonames"/>
  </node>
  <node id="368162206" version="2" timestamp="2009-08-21T00:43:04Z" uid="68769" user="david lynch" changeset="2218185" lat="30.2711248" lon="-97.7458459">
    <tag k="addr:state" v="TX"/>
    <tag k="amenity" v="library"/>
    <tag k="ele" v="163"/>
    <tag k="gnis:county_name" v="Travis"/>
    <tag k="gnis:feature_id" v="2360745"/>
    <tag k="gnis:import_uuid" v="57871b70-0100-4405-bb30-88b2e001a944"/>
    <tag k="gnis:reviewed" v="no"/>
    <tag k="name" v="John Henry Faulk Branch Austin City Library"/>
    <tag k="source" v="USGS Geonames"/>
  </node>
  <node id="368162206" version="3" timestamp="2009-08-24T02:16:58Z" uid="68769" user="david lynch" changeset="2238410" lat="30.2711694" lon="-97.7460125">
    <tag k="addr:state" v="TX"/>
    <tag k="amenity" v="library"/>
    <tag k="ele" v="163"/>
    <tag k="gnis:county_name" v="Travis"/>
    <tag k="gnis:feature_id" v="2360745"/>
    <tag k="gnis:import_uuid" v="57871b70-0100-4405-bb30-88b2e001a944"/>
    <tag k="gnis:reviewed" v="no"/>
    <tag k="name" v="John Henry Faulk Branch Austin City Library"/>
    <tag k="source" v="USGS Geonames"/>
  </node>
  <node id="368162206" version="4" timestamp="2009-08-24T02:17:14Z" uid="68769" user="david lynch" changeset="2238410" lat="30.2711694" lon="-97.7460125">
    <tag k="addr:state" v="TX"/>
    <tag k="amenity" v="library"/>
    <tag k="ele" v="163"/>
    <tag k="gnis:county_name" v="Travis"/>
    <tag k="gnis:feature_id" v="2360745"/>
    <tag k="gnis:import_uuid" v="57871b70-0100-4405-bb30-88b2e001a944"/>
    <tag k="gnis:reviewed" v="no"/>
    <tag k="name" v="John Henry Faulk Branch Austin City Library"/>
    <tag k="source" v="USGS Geonames"/>
  </node>
  <node id="368162214" version="2" timestamp="2009-09-04T02:54:48Z" uid="68769" user="david lynch" changeset="2365783" lat="30.2829" lon="-97.7383">
    <tag k="addr:state" v="TX"/>
    <tag k="amenity" v="library"/>
    <tag k="ele" v="165"/>
    <tag k="gnis:county_name" v="Travis"/>
    <tag k="gnis:feature_id" v="2360778"/>
    <tag k="gnis:import_uuid" v="57871b70-0100-4405-bb30-88b2e001a944"/>
    <tag k="gnis:reviewed" v="no"/>
    <tag k="name" v="Perry Castaneda Library"/>
    <tag k="source" v="USGS Geonames"/>
  </node>
  <node id="368162225" version="2" timestamp="2009-08-24T02:17:32Z" uid="68769" user="david lynch" changeset="2238410" lat="30.2715973" lon="-97.7463943">
    <tag k="addr:state" v="TX"/>
    <tag k="amenity" v="library"/>
    <tag k="ele" v="162"/>
    <tag k="gnis:county_name" v="Travis"/>
    <tag k="gnis:feature_id" v="2031551"/>
    <tag k="gnis:import_uuid" v="57871b70-0100-4405-bb30-88b2e001a944"/>
    <tag k="gnis:reviewed" v="no"/>
    <tag k="name" v="Austin Public Library"/>
    <tag k="source" v="USGS Geonames"/>
  </node>
  <node id="368162553" version="2" timestamp="2009-09-04T02:57:55Z" uid="68769" user="david lynch" changeset="2365783" lat="30.2869" lon="-97.7406">
    <tag k="addr:state" v="TX"/>
    <tag k="amenity" v="theatre"/>
    <tag k="ele" v="182"/>
    <tag k="gnis:county_name" v="Travis"/>
    <tag k="gnis:feature_id" v="2360738"/>
    <tag k="gnis:import_uuid" v="57871b70-0100-4405-bb30-88b2e001a944"/>
    <tag k="gnis:reviewed" v="no"/>
    <tag k="name" v="Hogg Memorial Auditorium"/>
    <tag k="source" v="USGS Geonames"/>
  </node>
  <node id="368162712" version="2" timestamp="2009-08-21T00:43:22Z" uid="68769" user="david lynch" changeset="2218185" lat="30.2710417" lon="-97.741672">
    <tag k="addr:state" v="TX"/>
    <tag k="amenity" v="theatre"/>
    <tag k="ele" v="155"/>
    <tag k="gnis:county_name" v="Travis"/>
    <tag k="gnis:feature_id" v="2030708"/>
    <tag k="gnis:import_uuid" v="57871b70-0100-4405-bb30-88b2e001a944"/>
    <tag k="gnis:reviewed" v="no"/>
    <tag k="name" v="Millett Opera House"/>
    <tag k="source" v="USGS Geonames"/>
  </node>
  <node id="368162822" version="2" timestamp="2009-08-24T02:22:27Z" uid="68769" user="david lynch" changeset="2238410" lat="30.2752083" lon="-97.7427832">
    <tag k="addr:state" v="TX"/>
    <tag k="building" v="yes"/>
    <tag k="ele" v="166"/>
    <tag k="gnis:county_name" v="Travis"/>
    <tag k="gnis:feature_id" v="2030910"/>
    <tag k="gnis:import_uuid" v="57871b70-0100-4405-bb30-88b2e001a944"/>
    <tag k="gnis:reviewed" v="no"/>
    <tag k="name" v="John Hancock House"/>
    <tag k="source" v="USGS Geonames"/>
  </node>
  <node id="368164030" version="2" timestamp="2009-08-24T02:18:10Z" uid="68769" user="david lynch" changeset="2238410" lat="30.2701168" lon="-97.7437724">
    <tag k="addr:state" v="TX"/>
    <tag k="building" v="yes"/>
    <tag k="ele" v="161"/>
    <tag k="gnis:county_name" v="Travis"/>
    <tag k="gnis:feature_id" v="2031468"/>
    <tag k="gnis:import_uuid" v="57871b70-0100-4405-bb30-88b2e001a944"/>
    <tag k="gnis:reviewed" v="no"/>
    <tag k="name" v="Brown Building"/>
    <tag k="source" v="USGS Geonames"/>
  </node>
  <node id="368164054" version="2" timestamp="2009-08-24T02:21:20Z" uid="68769" user="david lynch" changeset="2238410" lat="30.2740972" lon="-97.7463943">
    <tag k="addr:state" v="TX"/>
    <tag k="building" v="yes"/>
    <tag k="ele" v="155"/>
    <tag k="gnis:county_name" v="Travis"/>
    <tag k="gnis:feature_id" v="2031499"/>
    <tag k="gnis:import_uuid" v="57871b70-0100-4405-bb30-88b2e001a944"/>
    <tag k="gnis:reviewed" v="no"/>
    <tag k="name" v="Brizendine House"/>
    <tag k="source" v="USGS Geonames"/>
  </node>
  <node id="368164538" version="3" timestamp="2009-06-05T07:51:04Z" uid="20587" user="balrog-kun" changeset="1427165" lat="52.1380476" lon="20.7934656">
    <tag k="created_by" v="Merkaartor 0.13"/>
  </node>
  <node id="368164561" version="2" timestamp="2009-06-05T06:32:24Z" uid="20587" user="balrog-kun" changeset="1426667" lat="52.1405145" lon="20.7960286">
    <tag k="created_by" v="Merkaartor 0.13"/>
  </node>
  <node id="368164588" version="2" timestamp="2009-09-04T02:58:57Z" uid="68769" user="david lynch" changeset="2365783" lat="30.2868" lon="-97.7378">
    <tag k="addr:state" v="TX"/>
    <tag k="building" v="yes"/>
    <tag k="ele" v="171"/>
    <tag k="gnis:county_name" v="Travis"/>
    <tag k="gnis:feature_id" v="2360785"/>
    <tag k="gnis:import_uuid" v="57871b70-0100-4405-bb30-88b2e001a944"/>
    <tag k="gnis:reviewed" v="no"/>
    <tag k="name" v="Robert A Welch Hall"/>
    <tag k="source" v="USGS Geonames"/>
  </node>
  <node id="368164603" version="2" timestamp="2009-09-04T02:57:23Z" uid="68769" user="david lynch" changeset="2365783" lat="30.2864" lon="-97.7412">
    <tag k="addr:state" v="TX"/>
    <tag k="building" v="yes"/>
    <tag k="ele" v="180"/>
    <tag k="gnis:county_name" v="Travis"/>
    <tag k="gnis:feature_id" v="2360818"/>
    <tag k="gnis:import_uuid" v="57871b70-0100-4405-bb30-88b2e001a944"/>
    <tag k="gnis:reviewed" v="no"/>
    <tag k="name" v="Union Building"/>
    <tag k="source" v="USGS Geonames"/>
  </node>
  <node id="368164764" version="2" timestamp="2009-08-21T00:43:21Z" uid="68769" user="david lynch" changeset="2218185" lat="30.267153" lon="-97.7438942">
    <tag k="addr:state" v="TX"/>
    <tag k="building" v="yes"/>
    <tag k="ele" v="149"/>
    <tag k="gnis:county_name" v="Travis"/>
    <tag k="gnis:feature_id" v="2032602"/>
    <tag k="gnis:import_uuid" v="57871b70-0100-4405-bb30-88b2e001a944"/>
    <tag k="gnis:reviewed" v="no"/>
    <tag k="name" v="Southwestern Telegraph and Telephone Building"/>
    <tag k="source" v="USGS Geonames"/>
  </node>
  <node id="368164983" version="2" timestamp="2010-06-06T18:15:34Z" uid="74617" user="JohnSmith" changeset="4920820" lat="32.7797338" lon="-96.8084001">
    <tag k="addr:state" v="TX"/>
    <tag k="ele" v="128"/>
    <tag k="gnis:county_name" v="Dallas"/>
    <tag k="gnis:feature_id" v="2014216"/>
    <tag k="gnis:import_uuid" v="57871b70-0100-4405-bb30-88b2e001a944"/>
    <tag k="gnis:reviewed" v="no"/>
    <tag k="name" v="The Sixth Floor Museum"/>
    <tag k="source" v="USGS Geonames"/>
    <tag k="tourism" v="museum"/>
  </node>
  <node id="368165074" version="2" timestamp="2009-08-24T02:16:37Z" uid="68769" user="david lynch" changeset="2238410" lat="30.2718588" lon="-97.7456349">
    <tag k="addr:state" v="TX"/>
    <tag k="ele" v="163"/>
    <tag k="gnis:county_name" v="Travis"/>
    <tag k="gnis:feature_id" v="2014387"/>
    <tag k="gnis:import_uuid" v="57871b70-0100-4405-bb30-88b2e001a944"/>
    <tag k="gnis:reviewed" v="no"/>
    <tag k="name" v="Austin History Center"/>
    <tag k="source" v="USGS Geonames"/>
    <tag k="tourism" v="museum"/>
  </node>
  <node id="368165074" version="3" timestamp="2009-08-24T02:16:52Z" uid="68769" user="david lynch" changeset="2238410" lat="30.2718588" lon="-97.7456349">
    <tag k="addr:state" v="TX"/>
    <tag k="ele" v="163"/>
    <tag k="gnis:county_name" v="Travis"/>
    <tag k="gnis:feature_id" v="2014387"/>
    <tag k="gnis:import_uuid" v="57871b70-0100-4405-bb30-88b2e001a944"/>
    <tag k="gnis:reviewed" v="no"/>
    <tag k="name" v="Austin History Center"/>
    <tag k="source" v="USGS Geonames"/>
    <tag k="tourism" v="museum"/>
  </node>
  <node id="368165075" version="2" timestamp="2009-09-04T02:54:20Z" uid="68769" user="david lynch" changeset="2365783" lat="30.2804859" lon="-97.7386164">
    <tag k="addr:state" v="TX"/>
    <tag k="ele" v="164"/>
    <tag k="gnis:county_name" v="Travis"/>
    <tag k="gnis:feature_id" v="2014389"/>
    <tag k="gnis:import_uuid" v="57871b70-0100-4405-bb30-88b2e001a944"/>
    <tag k="gnis:reviewed" v="no"/>
    <tag k="name" v="Bob Bullock Texas State History Museum"/>
    <tag k="source" v="USGS Geonames"/>
    <tag k="tourism" v="museum"/>
  </node>
  <node id="368165227" version="2" timestamp="2009-09-04T02:59:24Z" uid="68769" user="david lynch" changeset="2365783" lat="30.2839" lon="-97.7365">
    <tag k="addr:state" v="TX"/>
    <tag k="ele" v="164"/>
    <tag k="gnis:county_name" v="Travis"/>
    <tag k="gnis:feature_id" v="2360732"/>
    <tag k="gnis:import_uuid" v="57871b70-0100-4405-bb30-88b2e001a944"/>
    <tag k="gnis:reviewed" v="no"/>
    <tag k="leisure" v="sports_centre"/>
    <tag k="name" v="Gregory Gymnasium"/>
    <tag k="source" v="USGS Geonames"/>
  </node>
  <node id="368165249" version="1" timestamp="2009-04-01T06:10:25Z" uid="110593" user="esetzer" changeset="21189" lat="40.6188379" lon="-111.8974299">
    <tag k="created_by" v="Merkaartor 0.11"/>
  </node>
  <node id="368165505" version="2" timestamp="2009-08-24T02:08:41Z" uid="68769" user="david lynch" changeset="2238410" lat="30.2656838" lon="-97.7390517">
    <tag k="addr:state" v="TX"/>
    <tag k="ele" v="147"/>
    <tag k="gnis:county_name" v="Travis"/>
    <tag k="gnis:feature_id" v="1342937"/>
    <tag k="gnis:import_uuid" v="57871b70-0100-4405-bb30-88b2e001a944"/>
    <tag k="gnis:reviewed" v="no"/>
    <tag k="name" v="O&apos;Henry Museum"/>
    <tag k="source" v="USGS Geonames"/>
    <tag k="tourism" v="museum"/>
  </node>
  <node id="368165505" version="3" timestamp="2009-08-24T02:09:01Z" uid="68769" user="david lynch" changeset="2238410" lat="30.2656838" lon="-97.7390517">
    <tag k="addr:state" v="TX"/>
    <tag k="ele" v="147"/>
    <tag k="gnis:county_name" v="Travis"/>
    <tag k="gnis:feature_id" v="1342937"/>
    <tag k="gnis:import_uuid" v="57871b70-0100-4405-bb30-88b2e001a944"/>
    <tag k="gnis:reviewed" v="no"/>
    <tag k="name" v="O&apos;Henry Museum"/>
    <tag k="source" v="USGS Geonames"/>
    <tag k="tourism" v="museum"/>
  </node>
  <node id="368165745" version="2" timestamp="2009-08-24T02:09:21Z" uid="68769" user="david lynch" changeset="2238410" lat="30.266042" lon="-97.7394496">
    <tag k="addr:state" v="TX"/>
    <tag k="ele" v="147"/>
    <tag k="gnis:county_name" v="Travis"/>
    <tag k="gnis:feature_id" v="2032336"/>
    <tag k="gnis:import_uuid" v="57871b70-0100-4405-bb30-88b2e001a944"/>
    <tag k="gnis:reviewed" v="no"/>
    <tag k="name" v="O Henry Museum"/>
    <tag k="source" v="USGS Geonames"/>
    <tag k="tourism" v="museum"/>
  </node>
  <node id="368165757" version="2" timestamp="2009-08-24T02:17:02Z" uid="68769" user="david lynch" changeset="2238410" lat="30.2710798" lon="-97.7458412">
    <tag k="addr:state" v="TX"/>
    <tag k="ele" v="163"/>
    <tag k="gnis:county_name" v="Travis"/>
    <tag k="gnis:feature_id" v="2360659"/>
    <tag k="gnis:import_uuid" v="57871b70-0100-4405-bb30-88b2e001a944"/>
    <tag k="gnis:reviewed" v="no"/>
    <tag k="name" v="Austin City History Center Library"/>
    <tag k="source" v="USGS Geonames"/>
    <tag k="tourism" v="museum"/>
  </node>
  <node id="368165915" version="2" timestamp="2009-06-05T06:32:21Z" uid="20587" user="balrog-kun" changeset="1426667" lat="52.1476312" lon="20.7816702">
    <tag k="created_by" v="Merkaartor 0.13"/>
  </node>
  <node id="368165922" version="2" timestamp="2009-06-05T06:32:21Z" uid="20587" user="balrog-kun" changeset="1426667" lat="52.1483648" lon="20.7672398">
    <tag k="created_by" v="Merkaartor 0.13"/>
  </node>
  <node id="368166054" version="1" timestamp="2009-04-01T06:17:08Z" uid="110593" user="esetzer" changeset="21189" lat="40.610436" lon="-111.8931626">
    <tag k="created_by" v="Merkaartor 0.11"/>
  </node>
  <node id="368166055" version="1" timestamp="2009-04-01T06:17:09Z" uid="110593" user="esetzer" changeset="21189" lat="40.6099881" lon="-111.8931376">
    <tag k="created_by" v="Merkaartor 0.11"/>
  </node>
  <node id="368166066" version="1" timestamp="2009-04-01T06:17:13Z" uid="110593" user="esetzer" changeset="21189" lat="40.610436" lon="-111.8936166">
    <tag k="created_by" v="Merkaartor 0.11"/>
  </node>
  <node id="368166067" version="1" timestamp="2009-04-01T06:17:17Z" uid="110593" user="esetzer" changeset="21189" lat="40.60884" lon="-111.8915329">
    <tag k="created_by" v="Merkaartor 0.11"/>
  </node>
  <node id="368166068" version="1" timestamp="2009-04-01T06:17:21Z" uid="110593" user="esetzer" changeset="21189" lat="40.6104376" lon="-111.8939013">
    <tag k="created_by" v="Merkaartor 0.11"/>
  </node>
  <node id="368166069" version="1" timestamp="2009-04-01T06:17:25Z" uid="110593" user="esetzer" changeset="21189" lat="40.6097659" lon="-111.8929966">
    <tag k="created_by" v="Merkaartor 0.11"/>
  </node>
  <node id="368166304" version="2" timestamp="2011-03-18T02:54:08Z" uid="20587" user="balrog-kun" changeset="7591739" lat="37.794651" lon="-122.4030265">
    <tag k="addr:state" v="CA"/>
    <tag k="building" v="yes"/>
    <tag k="ele" v="5"/>
    <tag k="gnis:county_name" v="San Francisco"/>
    <tag k="gnis:feature_id" v="1655569"/>
    <tag k="gnis:import_uuid" v="57871b70-0100-4405-bb30-88b2e001a944"/>
    <tag k="gnis:reviewed" v="no"/>
    <tag k="name" v="Transamerica Pyramid"/>
    <tag k="source" v="USGS Geonames"/>
  </node>
  <node id="368166784" version="3" timestamp="2010-03-26T23:42:23Z" uid="110593" user="esetzer" changeset="4242990" lat="40.7173281" lon="-111.836251">
    <tag k="amenity" v="signpost"/>
    <tag k="information" v="terminal"/>
    <tag k="note" v="This is non-interactive (it shows dynamically updated traffic information)"/>
    <tag k="tourism" v="information"/>
  </node>
  <node id="368167882" version="1" timestamp="2009-04-01T06:26:04Z" uid="110593" user="esetzer" changeset="21189" lat="40.6081612" lon="-111.8907745">
    <tag k="created_by" v="Merkaartor 0.11"/>
  </node>
  <node id="368167882" version="2" timestamp="2009-04-11T02:17:14Z" uid="110593" user="esetzer" changeset="428174" lat="40.6084043" lon="-111.891007">
    <tag k="created_by" v="Merkaartor 0.11"/>
  </node>
  <node id="368167883" version="1" timestamp="2009-04-01T06:26:05Z" uid="110593" user="esetzer" changeset="21189" lat="40.6074387" lon="-111.889987">
    <tag k="created_by" v="Merkaartor 0.11"/>
  </node>
  <node id="368167883" version="2" timestamp="2009-04-11T02:17:15Z" uid="110593" user="esetzer" changeset="428174" lat="40.6076818" lon="-111.8902195">
    <tag k="created_by" v="Merkaartor 0.11"/>
  </node>
  <node id="368167937" version="1" timestamp="2009-04-01T06:26:24Z" uid="110593" user="esetzer" changeset="21189" lat="40.6158761" lon="-111.888268">
    <tag k="created_by" v="Merkaartor 0.11"/>
  </node>
  <node id="368167951" version="1" timestamp="2009-04-01T06:26:28Z" uid="110593" user="esetzer" changeset="21189" lat="40.6158761" lon="-111.8891818">
    <tag k="created_by" v="Merkaartor 0.11"/>
  </node>
  <node id="368167952" version="1" timestamp="2009-04-01T06:26:29Z" uid="110593" user="esetzer" changeset="21189" lat="40.6164469" lon="-111.8891968">
    <tag k="created_by" v="Merkaartor 0.11"/>
  </node>
  <node id="368167954" version="1" timestamp="2009-04-01T06:26:29Z" uid="110593" user="esetzer" changeset="21189" lat="40.6164583" lon="-111.8881593">
    <tag k="created_by" v="Merkaartor 0.11"/>
  </node>
  <node id="368167956" version="1" timestamp="2009-04-01T06:26:29Z" uid="110593" user="esetzer" changeset="21189" lat="40.6159103" lon="-111.888268">
    <tag k="created_by" v="Merkaartor 0.11"/>
  </node>
  <node id="368168298" version="1" timestamp="2009-04-01T06:28:04Z" uid="110593" user="esetzer" changeset="21189" lat="40.615447" lon="-111.888268">
    <tag k="created_by" v="Merkaartor 0.11"/>
  </node>
  <node id="368168300" version="1" timestamp="2009-04-01T06:28:05Z" uid="110593" user="esetzer" changeset="21189" lat="40.6158304" lon="-111.8887006">
    <tag k="created_by" v="Merkaartor 0.11"/>
  </node>
  <node id="368168301" version="1" timestamp="2009-04-01T06:28:05Z" uid="110593" user="esetzer" changeset="21189" lat="40.614547" lon="-111.888368">
    <tag k="created_by" v="Merkaartor 0.11"/>
  </node>
  <node id="368168303" version="1" timestamp="2009-04-01T06:28:05Z" uid="110593" user="esetzer" changeset="21189" lat="40.614547" lon="-111.8887608">
    <tag k="created_by" v="Merkaartor 0.11"/>
  </node>
  <node id="368168303" version="3" timestamp="2010-03-29T03:15:22Z" uid="110593" user="esetzer" changeset="4263602" lat="40.6151305" lon="-111.8876322">
    <tag k="note" v="none"/>
  </node>
  <node id="368168753" version="2" timestamp="2011-03-27T13:18:31Z" uid="20587" user="balrog-kun" changeset="7685951" lat="37.7324308" lon="-122.3910819">
    <tag k="addr:state" v="CA"/>
    <tag k="amenity" v="library"/>
    <tag k="ele" v="28"/>
    <tag k="gnis:county_name" v="San Francisco"/>
    <tag k="gnis:feature_id" v="1657088"/>
    <tag k="gnis:import_uuid" v="57871b70-0100-4405-bb30-88b2e001a944"/>
    <tag k="name" v="Anna E. Warden branch of San Francisco Public Library"/>
    <tag k="source" v="USGS Geonames"/>
  </node>
</osm>
