<?xml version='1.0' encoding='UTF-8'?>
<osm version="0.6" generator="libosmium/2.20.0">
  <node id="368880044" version="2" timestamp="2009-04-15T06:23:32Z" uid="6975" user="ulfl" changeset="553994" lat="48.6923394" lon="10.3635829">
    <tag k="highway" v="steps"/>
  </node>
  <node id="368880579" version="2" timestamp="2010-10-29T18:25:37Z" uid="171838" user="argrath" changeset="6221000" lat="34.8504447" lon="136.405255">
    <tag k="created_by" v="Merkaartor 0.11"/>
  </node>
  <node id="368883651" version="2" timestamp="2009-04-15T05:41:11Z" uid="6975" user="ulfl" changeset="553994" lat="51.237898" lon="6.7995242">
    <tag k="name" v="Rewe"/>
    <tag k="shop" v="supermarket"/>
  </node>
  <node id="368885010" version="3" timestamp="2009-09-10T22:24:25Z" uid="28657" user="Ranger Nemo" changeset="2441738" lat="46.5616036" lon="-90.4378524">
    <tag k="addr:state" v="WI"/>
    <tag k="ele" v="183"/>
    <tag k="gnis:county_name" v="Iron"/>
    <tag k="gnis:created" v="08/29/1980"/>
    <tag k="gnis:feature_id" v="1580353"/>
    <tag k="gnis:feature_type" v="Bay"/>
    <tag k="name" v="Saxon Harbor"/>
    <tag k="natural" v="bay"/>
    <tag k="source_ref" v="geonames.usgs.gov"/>
  </node>
</osm>
