<?xml version='1.0' encoding='UTF-8'?>
<osm version="0.6" generator="libosmium/2.20.0">
  <node id="370220293" version="4" timestamp="2010-06-20T07:33:30Z" uid="9719" user="dvaey" changeset="5030187" lat="-35.3474152" lon="149.0849713"/>
  <node id="370220330" version="3" timestamp="2010-06-19T16:31:06Z" uid="9719" user="dvaey" changeset="5025139" lat="-35.3455171" lon="149.0842109"/>
  <node id="370221312" version="1" timestamp="2009-04-06T02:08:38Z" uid="36809" user="pfoten_weg_!_" changeset="247599" lat="48.075961" lon="11.524377">
    <tag k="addr:city" v="München"/>
    <tag k="addr:housename" v="Bang &amp; Olufsen"/>
    <tag k="addr:housenumber" v="181"/>
    <tag k="addr:postcode" v="81479"/>
    <tag k="addr:street" v="Wolfratshauser Straße"/>
    <tag k="created_by" v="RambaZamba"/>
    <tag k="name" v="Elektronikgeschäft"/>
    <tag k="shop" v="hifi"/>
    <tag k="source" v="survey"/>
  </node>
  <node id="370221312" version="3" timestamp="2009-08-19T01:38:18Z" uid="36809" user="pfoten_weg_!_" changeset="2196399" lat="48.075961" lon="11.524377">
    <tag k="addr:city" v="München"/>
    <tag k="addr:housename" v="Bang &amp; Olufsen"/>
    <tag k="addr:housenumber" v="181"/>
    <tag k="addr:postcode" v="81479"/>
    <tag k="addr:street" v="Wolfratshauser Straße"/>
    <tag k="name" v="Elektronikgeschäft"/>
    <tag k="shop" v="hifi"/>
    <tag k="source" v="survey"/>
    <tag k="warnung" v="rumpelzumpel-verbrecher"/>
  </node>
  <node id="370221312" version="4" timestamp="2009-08-19T02:05:16Z" uid="36809" user="pfoten_weg_!_" changeset="2196453" lat="48.075961" lon="11.524377">
    <tag k="addr:city" v="München"/>
    <tag k="addr:housename" v="Bang &amp; Olufsen"/>
    <tag k="addr:housenumber" v="181"/>
    <tag k="addr:postcode" v="81479"/>
    <tag k="addr:street" v="Wolfratshauser Straße"/>
    <tag k="name" v="Elektronikgeschäft"/>
    <tag k="shop" v="hifi"/>
    <tag k="source" v="survey"/>
  </node>
  <node id="370221312" version="5" timestamp="2009-10-02T20:46:17Z" uid="86259" user="hasse_osm_korinthenkacker" changeset="2717407" lat="48.075961" lon="11.524377">
    <tag k="addr:city" v="München"/>
    <tag k="addr:housename" v="Bang &amp; Olufsen"/>
    <tag k="addr:housenumber" v="181"/>
    <tag k="addr:postcode" v="81479"/>
    <tag k="addr:street" v="Wolfratshauser Straße"/>
    <tag k="name" v="Elektronikgeschäft"/>
    <tag k="shop" v="hifi"/>
    <tag k="source" v="survey"/>
  </node>
  <node id="370221313" version="1" timestamp="2009-04-06T02:08:39Z" uid="36809" user="pfoten_weg_!_" changeset="247599" lat="48.076808" lon="11.526087">
    <tag k="addr:city" v="München"/>
    <tag k="addr:housename" v="Bistro No. 13"/>
    <tag k="addr:housenumber" v="50"/>
    <tag k="addr:postcode" v="81479"/>
    <tag k="addr:street" v="Sollner Straße"/>
    <tag k="amenity" v="bar"/>
    <tag k="created_by" v="RambaZamba"/>
    <tag k="name" v="Bistro"/>
    <tag k="ref" v="Bistro No. 13"/>
    <tag k="source" v="survey"/>
  </node>
  <node id="370221313" version="3" timestamp="2009-06-08T13:19:07Z" uid="36809" user="pfoten_weg_!_" changeset="1458721" lat="48.076808" lon="11.526087">
    <tag k="addr:city" v="München"/>
    <tag k="addr:housename" v="Bistro No. 13"/>
    <tag k="addr:housenumber" v="50"/>
    <tag k="addr:postcode" v="81479"/>
    <tag k="addr:street" v="Sollner Straße"/>
    <tag k="amenity" v="bar"/>
    <tag k="created_by" v="RambaZamba"/>
    <tag k="name" v="Bistro"/>
    <tag k="ref" v="Bistro No. 13"/>
    <tag k="source" v="survey"/>
  </node>
  <node id="370221313" version="5" timestamp="2009-08-19T01:38:19Z" uid="36809" user="pfoten_weg_!_" changeset="2196399" lat="48.076808" lon="11.526087">
    <tag k="addr:city" v="München"/>
    <tag k="addr:housename" v="Bistro No. 13"/>
    <tag k="addr:housenumber" v="50"/>
    <tag k="addr:postcode" v="81479"/>
    <tag k="addr:street" v="Sollner Straße"/>
    <tag k="amenity" v="bar"/>
    <tag k="name" v="Bistro"/>
    <tag k="ref" v="Bistro No. 13"/>
    <tag k="source" v="survey"/>
    <tag k="warnung" v="rumpelzumpel-verbrecher"/>
  </node>
  <node id="370221313" version="6" timestamp="2009-08-19T02:05:17Z" uid="36809" user="pfoten_weg_!_" changeset="2196453" lat="48.076808" lon="11.526087">
    <tag k="addr:city" v="München"/>
    <tag k="addr:housename" v="Bistro No. 13"/>
    <tag k="addr:housenumber" v="50"/>
    <tag k="addr:postcode" v="81479"/>
    <tag k="addr:street" v="Sollner Straße"/>
    <tag k="amenity" v="bar"/>
    <tag k="name" v="Bistro"/>
    <tag k="ref" v="Bistro No. 13"/>
    <tag k="source" v="survey"/>
  </node>
  <node id="370221313" version="7" timestamp="2009-10-02T20:43:33Z" uid="86259" user="hasse_osm_korinthenkacker" changeset="2717407" lat="48.076808" lon="11.526087">
    <tag k="addr:city" v="München"/>
    <tag k="addr:housename" v="Bistro No. 13"/>
    <tag k="addr:housenumber" v="50"/>
    <tag k="addr:postcode" v="81479"/>
    <tag k="addr:street" v="Sollner Straße"/>
    <tag k="amenity" v="bar"/>
    <tag k="name" v="Bistro"/>
    <tag k="ref" v="Bistro No. 13"/>
    <tag k="source" v="survey"/>
  </node>
  <node id="370221314" version="1" timestamp="2009-04-06T02:08:39Z" uid="36809" user="pfoten_weg_!_" changeset="247599" lat="48.077265" lon="11.525432">
    <tag k="addr:city" v="München"/>
    <tag k="addr:housenumber" v="224"/>
    <tag k="addr:postcode" v="81479"/>
    <tag k="addr:street" v="Wolfratshauser Straße"/>
    <tag k="amenity" v="cafe"/>
    <tag k="created_by" v="RambaZamba"/>
    <tag k="name" v="Konditorei, Bäckerei"/>
    <tag k="ref" v="Café Kustermann"/>
    <tag k="shop" v="bakery"/>
    <tag k="source" v="survey"/>
  </node>
  <node id="370221314" version="3" timestamp="2009-06-08T13:19:07Z" uid="36809" user="pfoten_weg_!_" changeset="1458721" lat="48.077265" lon="11.525432">
    <tag k="addr:city" v="München"/>
    <tag k="addr:housenumber" v="224"/>
    <tag k="addr:postcode" v="81479"/>
    <tag k="addr:street" v="Wolfratshauser Straße"/>
    <tag k="amenity" v="cafe"/>
    <tag k="created_by" v="RambaZamba"/>
    <tag k="name" v="Konditorei, Bäckerei"/>
    <tag k="ref" v="Café Kustermann"/>
    <tag k="shop" v="bakery"/>
    <tag k="source" v="survey"/>
  </node>
  <node id="370221314" version="5" timestamp="2009-08-19T01:38:17Z" uid="36809" user="pfoten_weg_!_" changeset="2196399" lat="48.077265" lon="11.525432">
    <tag k="addr:city" v="München"/>
    <tag k="addr:housenumber" v="224"/>
    <tag k="addr:postcode" v="81479"/>
    <tag k="addr:street" v="Wolfratshauser Straße"/>
    <tag k="amenity" v="cafe"/>
    <tag k="name" v="Konditorei, Bäckerei"/>
    <tag k="ref" v="Café Kustermann"/>
    <tag k="shop" v="bakery"/>
    <tag k="source" v="survey"/>
    <tag k="warnung" v="rumpelzumpel-verbrecher"/>
  </node>
  <node id="370221314" version="6" timestamp="2009-08-19T02:05:15Z" uid="36809" user="pfoten_weg_!_" changeset="2196453" lat="48.077265" lon="11.525432">
    <tag k="addr:city" v="München"/>
    <tag k="addr:housenumber" v="224"/>
    <tag k="addr:postcode" v="81479"/>
    <tag k="addr:street" v="Wolfratshauser Straße"/>
    <tag k="amenity" v="cafe"/>
    <tag k="name" v="Konditorei, Bäckerei"/>
    <tag k="ref" v="Café Kustermann"/>
    <tag k="shop" v="bakery"/>
    <tag k="source" v="survey"/>
  </node>
  <node id="370221314" version="7" timestamp="2009-10-02T20:43:34Z" uid="86259" user="hasse_osm_korinthenkacker" changeset="2717407" lat="48.077265" lon="11.525432">
    <tag k="addr:city" v="München"/>
    <tag k="addr:housenumber" v="224"/>
    <tag k="addr:postcode" v="81479"/>
    <tag k="addr:street" v="Wolfratshauser Straße"/>
    <tag k="amenity" v="cafe"/>
    <tag k="name" v="Konditorei, Bäckerei"/>
    <tag k="ref" v="Café Kustermann"/>
    <tag k="shop" v="bakery"/>
    <tag k="source" v="survey"/>
  </node>
  <node id="370221315" version="1" timestamp="2009-04-06T02:08:39Z" uid="36809" user="pfoten_weg_!_" changeset="247599" lat="48.076294" lon="11.526061">
    <tag k="amenity" v="restaurant"/>
    <tag k="created_by" v="RambaZamba"/>
    <tag k="name" v="Restaurant"/>
    <tag k="note" v="Herterichstrasse 8"/>
    <tag k="ref" v="Corso Stub&apos;n"/>
    <tag k="source" v="survey"/>
  </node>
  <node id="370221315" version="2" timestamp="2009-06-20T22:55:23Z" uid="36809" user="pfoten_weg_!_" changeset="1579309" lat="48.0763205" lon="11.5260559">
    <tag k="amenity" v="restaurant"/>
    <tag k="created_by" v="RambaZamba"/>
    <tag k="name" v="Restaurant"/>
    <tag k="ref" v="Corso Stub&apos;n"/>
    <tag k="source" v="survey"/>
  </node>
  <node id="370221315" version="4" timestamp="2009-08-19T01:38:18Z" uid="36809" user="pfoten_weg_!_" changeset="2196399" lat="48.0763205" lon="11.5260559">
    <tag k="amenity" v="restaurant"/>
    <tag k="name" v="Restaurant"/>
    <tag k="ref" v="Corso Stub&apos;n"/>
    <tag k="source" v="survey"/>
    <tag k="warnung" v="rumpelzumpel-verbrecher"/>
  </node>
  <node id="370221315" version="5" timestamp="2009-08-19T02:05:15Z" uid="36809" user="pfoten_weg_!_" changeset="2196453" lat="48.0763205" lon="11.5260559">
    <tag k="amenity" v="restaurant"/>
    <tag k="name" v="Restaurant"/>
    <tag k="ref" v="Corso Stub&apos;n"/>
    <tag k="source" v="survey"/>
  </node>
  <node id="370221315" version="6" timestamp="2009-10-03T17:39:45Z" uid="179968" user="Ich_hasse_doitsche_OSM-Korinthenkacker" changeset="2727120" lat="48.0763205" lon="11.5260559">
    <tag k="amenity" v="restaurant"/>
    <tag k="name" v="Restaurant"/>
    <tag k="ref" v="Corso Stub&apos;n"/>
  </node>
  <node id="370221316" version="1" timestamp="2009-04-06T02:08:39Z" uid="36809" user="pfoten_weg_!_" changeset="247599" lat="48.0769" lon="11.525676">
    <tag k="addr:city" v="München"/>
    <tag k="addr:housename" v="Fahrschule"/>
    <tag k="addr:housenumber" v="173"/>
    <tag k="addr:postcode" v="81479"/>
    <tag k="addr:street" v="Wolfratshauser Straße"/>
    <tag k="amenity" v="school"/>
    <tag k="created_by" v="RambaZamba"/>
    <tag k="name" v="Fahrschule"/>
    <tag k="source" v="survey"/>
  </node>
  <node id="370221316" version="3" timestamp="2009-06-08T13:19:07Z" uid="36809" user="pfoten_weg_!_" changeset="1458721" lat="48.0769" lon="11.525676">
    <tag k="addr:city" v="München"/>
    <tag k="addr:housename" v="Fahrschule"/>
    <tag k="addr:housenumber" v="173"/>
    <tag k="addr:postcode" v="81479"/>
    <tag k="addr:street" v="Wolfratshauser Straße"/>
    <tag k="amenity" v="school"/>
    <tag k="created_by" v="RambaZamba"/>
    <tag k="name" v="Fahrschule"/>
    <tag k="source" v="survey"/>
  </node>
  <node id="370221316" version="5" timestamp="2009-08-19T01:38:16Z" uid="36809" user="pfoten_weg_!_" changeset="2196399" lat="48.0769" lon="11.525676">
    <tag k="addr:city" v="München"/>
    <tag k="addr:housename" v="Fahrschule"/>
    <tag k="addr:housenumber" v="173"/>
    <tag k="addr:postcode" v="81479"/>
    <tag k="addr:street" v="Wolfratshauser Straße"/>
    <tag k="amenity" v="school"/>
    <tag k="name" v="Fahrschule"/>
    <tag k="source" v="survey"/>
    <tag k="warnung" v="rumpelzumpel-verbrecher"/>
  </node>
  <node id="370221316" version="6" timestamp="2009-08-19T02:05:14Z" uid="36809" user="pfoten_weg_!_" changeset="2196453" lat="48.0769" lon="11.525676">
    <tag k="addr:city" v="München"/>
    <tag k="addr:housename" v="Fahrschule"/>
    <tag k="addr:housenumber" v="173"/>
    <tag k="addr:postcode" v="81479"/>
    <tag k="addr:street" v="Wolfratshauser Straße"/>
    <tag k="amenity" v="school"/>
    <tag k="name" v="Fahrschule"/>
    <tag k="source" v="survey"/>
  </node>
  <node id="370221316" version="7" timestamp="2009-10-02T20:43:34Z" uid="86259" user="hasse_osm_korinthenkacker" changeset="2717407" lat="48.0769" lon="11.525676">
    <tag k="addr:city" v="München"/>
    <tag k="addr:housename" v="Fahrschule"/>
    <tag k="addr:housenumber" v="173"/>
    <tag k="addr:postcode" v="81479"/>
    <tag k="addr:street" v="Wolfratshauser Straße"/>
    <tag k="amenity" v="school"/>
    <tag k="name" v="Fahrschule"/>
    <tag k="source" v="survey"/>
  </node>
  <node id="370221317" version="1" timestamp="2009-04-06T02:08:40Z" uid="36809" user="pfoten_weg_!_" changeset="247599" lat="48.077655" lon="11.525731">
    <tag k="amenity" v="pharmacy"/>
    <tag k="created_by" v="RambaZamba"/>
    <tag k="dispensing" v="yes"/>
    <tag k="name" v="Apotheke"/>
    <tag k="ref" v="Forellen"/>
    <tag k="source" v="survey"/>
  </node>
  <node id="370221317" version="3" timestamp="2009-06-08T13:19:07Z" uid="36809" user="pfoten_weg_!_" changeset="1458721" lat="48.077655" lon="11.525731">
    <tag k="amenity" v="pharmacy"/>
    <tag k="created_by" v="RambaZamba"/>
    <tag k="dispensing" v="yes"/>
    <tag k="name" v="Apotheke"/>
    <tag k="ref" v="Forellen"/>
    <tag k="source" v="survey"/>
  </node>
  <node id="370221317" version="5" timestamp="2009-08-19T01:38:17Z" uid="36809" user="pfoten_weg_!_" changeset="2196399" lat="48.077655" lon="11.525731">
    <tag k="amenity" v="pharmacy"/>
    <tag k="dispensing" v="yes"/>
    <tag k="name" v="Apotheke"/>
    <tag k="ref" v="Forellen"/>
    <tag k="source" v="survey"/>
    <tag k="warnung" v="rumpelzumpel-verbrecher"/>
  </node>
  <node id="370221317" version="6" timestamp="2009-08-19T02:05:15Z" uid="36809" user="pfoten_weg_!_" changeset="2196453" lat="48.077655" lon="11.525731">
    <tag k="amenity" v="pharmacy"/>
    <tag k="dispensing" v="yes"/>
    <tag k="name" v="Apotheke"/>
    <tag k="ref" v="Forellen"/>
    <tag k="source" v="survey"/>
  </node>
  <node id="370221317" version="7" timestamp="2009-10-03T17:39:50Z" uid="179968" user="Ich_hasse_doitsche_OSM-Korinthenkacker" changeset="2727120" lat="48.077655" lon="11.525731">
    <tag k="amenity" v="pharmacy"/>
    <tag k="dispensing" v="yes"/>
    <tag k="name" v="Apotheke"/>
    <tag k="ref" v="Forellen"/>
  </node>
  <node id="370221318" version="1" timestamp="2009-04-06T02:08:40Z" uid="36809" user="pfoten_weg_!_" changeset="247599" lat="48.074488" lon="11.521838">
    <tag k="addr:city" v="München"/>
    <tag k="addr:housename" v="Haus"/>
    <tag k="addr:housenumber" v="244"/>
    <tag k="addr:postcode" v="81479"/>
    <tag k="addr:street" v="Wolfratshauser Straße"/>
    <tag k="created_by" v="RambaZamba"/>
    <tag k="name" v="Frisör"/>
    <tag k="ref" v="Die zwei Frisöre"/>
    <tag k="source" v="survey"/>
  </node>
  <node id="370221318" version="3" timestamp="2009-08-19T01:38:15Z" uid="36809" user="pfoten_weg_!_" changeset="2196399" lat="48.074488" lon="11.521838">
    <tag k="addr:city" v="München"/>
    <tag k="addr:housename" v="Haus"/>
    <tag k="addr:housenumber" v="244"/>
    <tag k="addr:postcode" v="81479"/>
    <tag k="addr:street" v="Wolfratshauser Straße"/>
    <tag k="name" v="Frisör"/>
    <tag k="ref" v="Die zwei Frisöre"/>
    <tag k="source" v="survey"/>
    <tag k="warnung" v="rumpelzumpel-verbrecher"/>
  </node>
  <node id="370221318" version="4" timestamp="2009-08-19T02:05:13Z" uid="36809" user="pfoten_weg_!_" changeset="2196453" lat="48.074488" lon="11.521838">
    <tag k="addr:city" v="München"/>
    <tag k="addr:housename" v="Haus"/>
    <tag k="addr:housenumber" v="244"/>
    <tag k="addr:postcode" v="81479"/>
    <tag k="addr:street" v="Wolfratshauser Straße"/>
    <tag k="name" v="Frisör"/>
    <tag k="ref" v="Die zwei Frisöre"/>
    <tag k="source" v="survey"/>
  </node>
  <node id="370221318" version="5" timestamp="2009-10-02T20:46:25Z" uid="86259" user="hasse_osm_korinthenkacker" changeset="2717407" lat="48.074488" lon="11.521838">
    <tag k="addr:city" v="München"/>
    <tag k="addr:housename" v="Haus"/>
    <tag k="addr:housenumber" v="244"/>
    <tag k="addr:postcode" v="81479"/>
    <tag k="addr:street" v="Wolfratshauser Straße"/>
    <tag k="name" v="Frisör"/>
    <tag k="ref" v="Die zwei Frisöre"/>
    <tag k="source" v="survey"/>
  </node>
  <node id="370221319" version="1" timestamp="2009-04-06T02:08:40Z" uid="36809" user="pfoten_weg_!_" changeset="247599" lat="48.074888" lon="11.523034">
    <tag k="addr:city" v="München"/>
    <tag k="addr:housename" v="Getränkemarkt"/>
    <tag k="addr:housenumber" v="193"/>
    <tag k="addr:postcode" v="81479"/>
    <tag k="addr:street" v="Wolfratshauser Straße"/>
    <tag k="created_by" v="RambaZamba"/>
    <tag k="name" v="Getränkemarkt"/>
    <tag k="ref" v="Getränke Planet"/>
    <tag k="shop" v="beverages"/>
    <tag k="source" v="survey"/>
  </node>
  <node id="370221319" version="3" timestamp="2009-08-19T01:38:15Z" uid="36809" user="pfoten_weg_!_" changeset="2196399" lat="48.074888" lon="11.523034">
    <tag k="addr:city" v="München"/>
    <tag k="addr:housename" v="Getränkemarkt"/>
    <tag k="addr:housenumber" v="193"/>
    <tag k="addr:postcode" v="81479"/>
    <tag k="addr:street" v="Wolfratshauser Straße"/>
    <tag k="name" v="Getränkemarkt"/>
    <tag k="ref" v="Getränke Planet"/>
    <tag k="shop" v="beverages"/>
    <tag k="source" v="survey"/>
    <tag k="warnung" v="rumpelzumpel-verbrecher"/>
  </node>
  <node id="370221319" version="4" timestamp="2009-08-19T02:05:14Z" uid="36809" user="pfoten_weg_!_" changeset="2196453" lat="48.074888" lon="11.523034">
    <tag k="addr:city" v="München"/>
    <tag k="addr:housename" v="Getränkemarkt"/>
    <tag k="addr:housenumber" v="193"/>
    <tag k="addr:postcode" v="81479"/>
    <tag k="addr:street" v="Wolfratshauser Straße"/>
    <tag k="name" v="Getränkemarkt"/>
    <tag k="ref" v="Getränke Planet"/>
    <tag k="shop" v="beverages"/>
    <tag k="source" v="survey"/>
  </node>
  <node id="370221319" version="5" timestamp="2009-09-27T23:29:48Z" uid="36809" user="pfoten_weg_!_" changeset="2659640" lat="48.074888" lon="11.523034">
    <tag k="addr:city" v="München"/>
    <tag k="addr:housename" v="Getränkemarkt"/>
    <tag k="addr:housenumber" v="193"/>
    <tag k="addr:postcode" v="81479"/>
    <tag k="addr:street" v="Wolfratshauser Straße"/>
    <tag k="name" v="Getränkemarkt"/>
    <tag k="ref" v="Getränke Planet"/>
    <tag k="shop" v="beverages"/>
    <tag k="source" v="survey"/>
  </node>
  <node id="370221320" version="1" timestamp="2009-04-06T02:08:41Z" uid="36809" user="pfoten_weg_!_" changeset="247599" lat="48.074344" lon="11.521639">
    <tag k="addr:city" v="München"/>
    <tag k="addr:housename" v="Wohnhaus"/>
    <tag k="addr:housenumber" v="246"/>
    <tag k="addr:postcode" v="81479"/>
    <tag k="addr:street" v="Wolfratshauser Straße"/>
    <tag k="created_by" v="RambaZamba"/>
    <tag k="name" v="246"/>
    <tag k="source" v="survey"/>
  </node>
  <node id="370221320" version="2" timestamp="2009-06-07T21:18:14Z" uid="36809" user="pfoten_weg_!_" changeset="1453903" lat="48.074344" lon="11.521639">
    <tag k="addr:city" v="München"/>
    <tag k="addr:housename" v="Wohngebäude"/>
    <tag k="addr:housenumber" v="246"/>
    <tag k="addr:postcode" v="81479"/>
    <tag k="addr:street" v="Wolfratshauser Straße"/>
    <tag k="created_by" v="RambaZamba"/>
    <tag k="name" v="246"/>
    <tag k="source" v="survey"/>
  </node>
  <node id="370221320" version="3" timestamp="2009-06-08T18:14:56Z" uid="36809" user="pfoten_weg_!_" changeset="1461570" lat="48.074344" lon="11.521639">
    <tag k="addr:city" v="München"/>
    <tag k="addr:housename" v="Wohngebäude"/>
    <tag k="addr:housenumber" v="246"/>
    <tag k="addr:postcode" v="81479"/>
    <tag k="addr:street" v="Wolfratshauser Straße"/>
    <tag k="created_by" v="RambaZamba"/>
    <tag k="name" v="246"/>
    <tag k="source" v="survey"/>
  </node>
  <node id="370221321" version="1" timestamp="2009-04-06T02:08:41Z" uid="36809" user="pfoten_weg_!_" changeset="247599" lat="48.073504" lon="11.520601">
    <tag k="addr:city" v="München"/>
    <tag k="addr:housename" v="Wohnhaus"/>
    <tag k="addr:housenumber" v="250"/>
    <tag k="addr:postcode" v="81479"/>
    <tag k="addr:street" v="Wolfratshauser Straße"/>
    <tag k="created_by" v="RambaZamba"/>
    <tag k="name" v="250"/>
    <tag k="source" v="survey"/>
  </node>
  <node id="370221321" version="2" timestamp="2009-05-29T13:04:02Z" uid="36809" user="pfoten_weg_!_" changeset="1350761" lat="48.0734998" lon="11.5205985">
    <tag k="addr:city" v="München"/>
    <tag k="addr:housename" v="Wohnhaus"/>
    <tag k="addr:housenumber" v="250"/>
    <tag k="addr:postcode" v="81479"/>
    <tag k="addr:street" v="Wolfratshauser Straße"/>
    <tag k="created_by" v="RambaZamba"/>
    <tag k="name" v="250"/>
    <tag k="source" v="survey"/>
  </node>
  <node id="370221321" version="3" timestamp="2009-05-29T20:41:55Z" uid="36809" user="pfoten_weg_!_" changeset="1354240" lat="48.0734998" lon="11.5205985">
    <tag k="addr:city" v="München"/>
    <tag k="addr:housename" v="Wohnhaus"/>
    <tag k="addr:housenumber" v="250"/>
    <tag k="addr:postcode" v="81479"/>
    <tag k="addr:street" v="Wolfratshauser Straße"/>
    <tag k="created_by" v="RambaZamba"/>
    <tag k="name" v="250"/>
    <tag k="source" v="survey"/>
  </node>
  <node id="370221322" version="1" timestamp="2009-04-06T02:08:41Z" uid="36809" user="pfoten_weg_!_" changeset="247599" lat="48.073407" lon="11.520509">
    <tag k="addr:city" v="München"/>
    <tag k="addr:housename" v="Wohnhaus"/>
    <tag k="addr:housenumber" v="252"/>
    <tag k="addr:postcode" v="81479"/>
    <tag k="addr:street" v="Wolfratshauser Straße"/>
    <tag k="created_by" v="RambaZamba"/>
    <tag k="name" v="252"/>
    <tag k="source" v="survey"/>
  </node>
  <node id="370221322" version="2" timestamp="2009-05-29T13:04:02Z" uid="36809" user="pfoten_weg_!_" changeset="1350761" lat="48.0733997" lon="11.5205016">
    <tag k="addr:city" v="München"/>
    <tag k="addr:housename" v="Wohnhaus"/>
    <tag k="addr:housenumber" v="252"/>
    <tag k="addr:postcode" v="81479"/>
    <tag k="addr:street" v="Wolfratshauser Straße"/>
    <tag k="created_by" v="RambaZamba"/>
    <tag k="name" v="252"/>
    <tag k="source" v="survey"/>
  </node>
  <node id="370221322" version="3" timestamp="2009-05-29T20:41:55Z" uid="36809" user="pfoten_weg_!_" changeset="1354240" lat="48.0733997" lon="11.5205016">
    <tag k="addr:city" v="München"/>
    <tag k="addr:housename" v="Wohnhaus"/>
    <tag k="addr:housenumber" v="252"/>
    <tag k="addr:postcode" v="81479"/>
    <tag k="addr:street" v="Wolfratshauser Straße"/>
    <tag k="created_by" v="RambaZamba"/>
    <tag k="name" v="252"/>
    <tag k="source" v="survey"/>
  </node>
  <node id="370221324" version="1" timestamp="2009-04-06T02:08:42Z" uid="36809" user="pfoten_weg_!_" changeset="247599" lat="48.073144" lon="11.520253">
    <tag k="addr:city" v="München"/>
    <tag k="addr:housename" v="Wohnhaus"/>
    <tag k="addr:housenumber" v="254"/>
    <tag k="addr:postcode" v="81479"/>
    <tag k="addr:street" v="Wolfratshauser Straße"/>
    <tag k="created_by" v="RambaZamba"/>
    <tag k="name" v="254"/>
    <tag k="source" v="survey"/>
  </node>
  <node id="370221324" version="2" timestamp="2009-05-29T13:04:02Z" uid="36809" user="pfoten_weg_!_" changeset="1350761" lat="48.0731471" lon="11.5202569">
    <tag k="addr:city" v="München"/>
    <tag k="addr:housename" v="Wohnhaus"/>
    <tag k="addr:housenumber" v="254"/>
    <tag k="addr:postcode" v="81479"/>
    <tag k="addr:street" v="Wolfratshauser Straße"/>
    <tag k="created_by" v="RambaZamba"/>
    <tag k="name" v="254"/>
    <tag k="source" v="survey"/>
  </node>
  <node id="370221324" version="3" timestamp="2009-05-29T20:41:55Z" uid="36809" user="pfoten_weg_!_" changeset="1354240" lat="48.0731471" lon="11.5202569">
    <tag k="addr:city" v="München"/>
    <tag k="addr:housename" v="Wohnhaus"/>
    <tag k="addr:housenumber" v="254"/>
    <tag k="addr:postcode" v="81479"/>
    <tag k="addr:street" v="Wolfratshauser Straße"/>
    <tag k="created_by" v="RambaZamba"/>
    <tag k="name" v="254"/>
    <tag k="source" v="survey"/>
  </node>
  <node id="370221331" version="1" timestamp="2009-04-06T02:08:42Z" uid="36809" user="pfoten_weg_!_" changeset="247599" lat="48.073065" lon="11.520171">
    <tag k="addr:city" v="München"/>
    <tag k="addr:housename" v="Wohnhaus"/>
    <tag k="addr:housenumber" v="256"/>
    <tag k="addr:postcode" v="81479"/>
    <tag k="addr:street" v="Wolfratshauser Straße"/>
    <tag k="created_by" v="RambaZamba"/>
    <tag k="name" v="256"/>
    <tag k="source" v="survey"/>
  </node>
  <node id="370221331" version="2" timestamp="2009-05-29T13:04:02Z" uid="36809" user="pfoten_weg_!_" changeset="1350761" lat="48.073042" lon="11.5201551">
    <tag k="addr:city" v="München"/>
    <tag k="addr:housename" v="Wohnhaus"/>
    <tag k="addr:housenumber" v="256"/>
    <tag k="addr:postcode" v="81479"/>
    <tag k="addr:street" v="Wolfratshauser Straße"/>
    <tag k="created_by" v="RambaZamba"/>
    <tag k="name" v="256"/>
    <tag k="source" v="survey"/>
  </node>
  <node id="370221331" version="3" timestamp="2009-05-29T20:41:55Z" uid="36809" user="pfoten_weg_!_" changeset="1354240" lat="48.073042" lon="11.5201551">
    <tag k="addr:city" v="München"/>
    <tag k="addr:housename" v="Wohnhaus"/>
    <tag k="addr:housenumber" v="256"/>
    <tag k="addr:postcode" v="81479"/>
    <tag k="addr:street" v="Wolfratshauser Straße"/>
    <tag k="created_by" v="RambaZamba"/>
    <tag k="name" v="256"/>
    <tag k="source" v="survey"/>
  </node>
  <node id="370221333" version="1" timestamp="2009-04-06T02:08:42Z" uid="36809" user="pfoten_weg_!_" changeset="247599" lat="48.072721" lon="11.519718">
    <tag k="addr:city" v="München"/>
    <tag k="addr:housename" v="Wohnhaus"/>
    <tag k="addr:housenumber" v="258"/>
    <tag k="addr:postcode" v="81479"/>
    <tag k="addr:street" v="Wolfratshauser Straße"/>
    <tag k="created_by" v="RambaZamba"/>
    <tag k="name" v="258"/>
  </node>
  <node id="370221333" version="2" timestamp="2009-04-06T02:46:05Z" uid="36809" user="pfoten_weg_!_" changeset="247599" lat="48.072721" lon="11.519718">
    <tag k="addr:city" v="München"/>
    <tag k="addr:housename" v="Wohnhaus"/>
    <tag k="addr:housenumber" v="258"/>
    <tag k="addr:postcode" v="81479"/>
    <tag k="addr:street" v="Wolfratshauser Straße"/>
    <tag k="created_by" v="RambaZamba"/>
    <tag k="name" v="258"/>
    <tag k="source" v="survey"/>
  </node>
  <node id="370221333" version="3" timestamp="2009-05-29T20:46:31Z" uid="36809" user="pfoten_weg_!_" changeset="1354282" lat="48.0727198" lon="11.5197217">
    <tag k="addr:city" v="München"/>
    <tag k="addr:housename" v="Wohnhaus"/>
    <tag k="addr:housenumber" v="258"/>
    <tag k="addr:postcode" v="81479"/>
    <tag k="addr:street" v="Wolfratshauser Straße"/>
    <tag k="created_by" v="RambaZamba"/>
    <tag k="name" v="258"/>
    <tag k="source" v="survey"/>
  </node>
  <node id="370221333" version="4" timestamp="2009-06-07T21:18:14Z" uid="36809" user="pfoten_weg_!_" changeset="1453903" lat="48.0727198" lon="11.5197217">
    <tag k="addr:city" v="München"/>
    <tag k="addr:housename" v="Wohngebäude"/>
    <tag k="addr:housenumber" v="258"/>
    <tag k="addr:postcode" v="81479"/>
    <tag k="addr:street" v="Wolfratshauser Straße"/>
    <tag k="created_by" v="RambaZamba"/>
    <tag k="name" v="258"/>
    <tag k="source" v="survey"/>
  </node>
  <node id="370221333" version="5" timestamp="2009-06-08T18:14:56Z" uid="36809" user="pfoten_weg_!_" changeset="1461570" lat="48.0727198" lon="11.5197217">
    <tag k="addr:city" v="München"/>
    <tag k="addr:housename" v="Wohngebäude"/>
    <tag k="addr:housenumber" v="258"/>
    <tag k="addr:postcode" v="81479"/>
    <tag k="addr:street" v="Wolfratshauser Straße"/>
    <tag k="created_by" v="RambaZamba"/>
    <tag k="name" v="258"/>
    <tag k="source" v="survey"/>
  </node>
  <node id="370221334" version="1" timestamp="2009-04-06T02:08:43Z" uid="36809" user="pfoten_weg_!_" changeset="247599" lat="48.0726" lon="11.519604">
    <tag k="addr:city" v="München"/>
    <tag k="addr:housename" v="Wohnhaus"/>
    <tag k="addr:housenumber" v="260"/>
    <tag k="addr:postcode" v="81479"/>
    <tag k="addr:street" v="Wolfratshauser Straße"/>
    <tag k="created_by" v="RambaZamba"/>
    <tag k="name" v="260"/>
    <tag k="source" v="survey"/>
  </node>
  <node id="370221334" version="2" timestamp="2009-06-07T21:18:14Z" uid="36809" user="pfoten_weg_!_" changeset="1453903" lat="48.0726" lon="11.519604">
    <tag k="addr:city" v="München"/>
    <tag k="addr:housename" v="Wohngebäude"/>
    <tag k="addr:housenumber" v="260"/>
    <tag k="addr:postcode" v="81479"/>
    <tag k="addr:street" v="Wolfratshauser Straße"/>
    <tag k="created_by" v="RambaZamba"/>
    <tag k="name" v="260"/>
    <tag k="source" v="survey"/>
  </node>
  <node id="370221334" version="3" timestamp="2009-06-08T18:14:56Z" uid="36809" user="pfoten_weg_!_" changeset="1461570" lat="48.0726" lon="11.519604">
    <tag k="addr:city" v="München"/>
    <tag k="addr:housename" v="Wohngebäude"/>
    <tag k="addr:housenumber" v="260"/>
    <tag k="addr:postcode" v="81479"/>
    <tag k="addr:street" v="Wolfratshauser Straße"/>
    <tag k="created_by" v="RambaZamba"/>
    <tag k="name" v="260"/>
    <tag k="source" v="survey"/>
  </node>
  <node id="370221335" version="1" timestamp="2009-04-06T02:08:43Z" uid="36809" user="pfoten_weg_!_" changeset="247599" lat="48.077373" lon="11.526348">
    <tag k="addr:city" v="München"/>
    <tag k="addr:housename" v="Hofpfisterei"/>
    <tag k="addr:housenumber" v="67"/>
    <tag k="addr:postcode" v="81479"/>
    <tag k="addr:street" v="Sollner Straße"/>
    <tag k="created_by" v="RambaZamba"/>
    <tag k="name" v="Hofpfisterei"/>
    <tag k="shop" v="bakery"/>
    <tag k="source" v="survey"/>
  </node>
  <node id="370221335" version="3" timestamp="2009-06-08T13:19:07Z" uid="36809" user="pfoten_weg_!_" changeset="1458721" lat="48.077373" lon="11.526348">
    <tag k="addr:city" v="München"/>
    <tag k="addr:housename" v="Hofpfisterei"/>
    <tag k="addr:housenumber" v="67"/>
    <tag k="addr:postcode" v="81479"/>
    <tag k="addr:street" v="Sollner Straße"/>
    <tag k="created_by" v="RambaZamba"/>
    <tag k="name" v="Hofpfisterei"/>
    <tag k="shop" v="bakery"/>
    <tag k="source" v="survey"/>
  </node>
  <node id="370221335" version="4" timestamp="2009-06-20T22:57:29Z" uid="36809" user="pfoten_weg_!_" changeset="1579314" lat="48.0773376" lon="11.5263628">
    <tag k="created_by" v="RambaZamba"/>
    <tag k="name" v="Hofpfisterei"/>
    <tag k="shop" v="bakery"/>
    <tag k="source" v="survey"/>
  </node>
  <node id="370221335" version="6" timestamp="2009-08-19T01:38:19Z" uid="36809" user="pfoten_weg_!_" changeset="2196399" lat="48.0773376" lon="11.5263628">
    <tag k="name" v="Hofpfisterei"/>
    <tag k="shop" v="bakery"/>
    <tag k="source" v="survey"/>
    <tag k="warnung" v="rumpelzumpel-verbrecher"/>
  </node>
  <node id="370221335" version="7" timestamp="2009-08-19T02:05:17Z" uid="36809" user="pfoten_weg_!_" changeset="2196453" lat="48.0773376" lon="11.5263628">
    <tag k="name" v="Hofpfisterei"/>
    <tag k="shop" v="bakery"/>
    <tag k="source" v="survey"/>
  </node>
  <node id="370221335" version="8" timestamp="2009-10-03T17:39:48Z" uid="179968" user="Ich_hasse_doitsche_OSM-Korinthenkacker" changeset="2727120" lat="48.0773376" lon="11.5263628">
    <tag k="name" v="Hofpfisterei"/>
    <tag k="shop" v="bakery"/>
  </node>
  <node id="370221336" version="1" timestamp="2009-04-06T02:08:43Z" uid="36809" user="pfoten_weg_!_" changeset="247599" lat="48.072583" lon="11.520306">
    <tag k="addr:city" v="München"/>
    <tag k="addr:housename" v="Pegasus"/>
    <tag k="addr:housenumber" v="211"/>
    <tag k="addr:postcode" v="81479"/>
    <tag k="addr:street" v="Wolfratshauser Straße"/>
    <tag k="created_by" v="RambaZamba"/>
    <tag k="name" v="Hotel"/>
    <tag k="ref" v="Pegasus"/>
    <tag k="source" v="survey"/>
    <tag k="tourism" v="hotel"/>
  </node>
  <node id="370221336" version="3" timestamp="2009-08-26T00:25:36Z" uid="36809" user="pfoten_weg_!_" changeset="2262648" lat="48.072583" lon="11.520306">
    <tag k="addr:city" v="München"/>
    <tag k="addr:housename" v="Pegasus"/>
    <tag k="addr:housenumber" v="211"/>
    <tag k="addr:postcode" v="81479"/>
    <tag k="addr:street" v="Wolfratshauser Straße"/>
    <tag k="name" v="Hotel"/>
    <tag k="ref" v="Pegasus"/>
    <tag k="source" v="survey"/>
    <tag k="tourism" v="hotel"/>
  </node>
  <node id="370221336" version="4" timestamp="2009-08-26T01:27:08Z" uid="36809" user="pfoten_weg_!_" changeset="2262879" lat="48.072583" lon="11.520306">
    <tag k="addr:city" v="München"/>
    <tag k="addr:housename" v="Pegasus"/>
    <tag k="addr:housenumber" v="211"/>
    <tag k="addr:postcode" v="81479"/>
    <tag k="addr:street" v="Wolfratshauser Straße"/>
    <tag k="name" v="Hotel"/>
    <tag k="ref" v="Pegasus"/>
    <tag k="source" v="survey"/>
    <tag k="tourism" v="hotel"/>
  </node>
  <node id="370221336" version="5" timestamp="2009-10-02T20:46:42Z" uid="86259" user="hasse_osm_korinthenkacker" changeset="2717407" lat="48.072583" lon="11.520306">
    <tag k="addr:city" v="München"/>
    <tag k="addr:housename" v="Pegasus"/>
    <tag k="addr:housenumber" v="211"/>
    <tag k="addr:postcode" v="81479"/>
    <tag k="addr:street" v="Wolfratshauser Straße"/>
    <tag k="name" v="Hotel"/>
    <tag k="ref" v="Pegasus"/>
    <tag k="source" v="survey"/>
    <tag k="tourism" v="hotel"/>
  </node>
  <node id="370221337" version="1" timestamp="2009-04-06T02:08:43Z" uid="36809" user="pfoten_weg_!_" changeset="247599" lat="48.075531" lon="11.523859">
    <tag k="amenity" v="bank"/>
    <tag k="created_by" v="RambaZamba"/>
    <tag k="name" v="Bank"/>
    <tag k="ref" v="Hypo-Vereinsbank"/>
    <tag k="source" v="survey"/>
  </node>
  <node id="370221337" version="3" timestamp="2009-08-19T01:38:22Z" uid="36809" user="pfoten_weg_!_" changeset="2196399" lat="48.075531" lon="11.523859">
    <tag k="amenity" v="bank"/>
    <tag k="name" v="Bank"/>
    <tag k="ref" v="Hypo-Vereinsbank"/>
    <tag k="source" v="survey"/>
    <tag k="warnung" v="rumpelzumpel-verbrecher"/>
  </node>
  <node id="370221337" version="4" timestamp="2009-08-19T02:05:19Z" uid="36809" user="pfoten_weg_!_" changeset="2196453" lat="48.075531" lon="11.523859">
    <tag k="amenity" v="bank"/>
    <tag k="name" v="Bank"/>
    <tag k="ref" v="Hypo-Vereinsbank"/>
    <tag k="source" v="survey"/>
  </node>
  <node id="370221337" version="5" timestamp="2009-10-03T17:36:08Z" uid="179968" user="Ich_hasse_doitsche_OSM-Korinthenkacker" changeset="2727120" lat="48.075531" lon="11.523859">
    <tag k="amenity" v="bank"/>
    <tag k="name" v="Bank"/>
    <tag k="ref" v="Hypo-Vereinsbank"/>
  </node>
  <node id="370221337" version="7" timestamp="2010-05-08T21:12:53Z" uid="36809" user="pfoten_weg_!_" changeset="4643162" lat="48.0755311" lon="11.5238589">
    <tag k="amenity" v="bank"/>
    <tag k="name" v="Hypo-Vereinsbank"/>
  </node>
  <node id="370221338" version="1" timestamp="2009-04-06T02:08:43Z" uid="36809" user="pfoten_weg_!_" changeset="247599" lat="48.074114" lon="11.521182">
    <tag k="addr:city" v="München"/>
    <tag k="addr:housename" v="Werkstatt"/>
    <tag k="addr:housenumber" v="248"/>
    <tag k="addr:postcode" v="81479"/>
    <tag k="addr:street" v="Wolfratshauser Straße"/>
    <tag k="created_by" v="RambaZamba"/>
    <tag k="name" v="KFZ-Werkstatt"/>
    <tag k="note" v="Wolfratshauser Str. 248"/>
    <tag k="shop" v="car_repair"/>
    <tag k="source" v="survey"/>
  </node>
  <node id="370221338" version="3" timestamp="2009-08-19T01:38:21Z" uid="36809" user="pfoten_weg_!_" changeset="2196399" lat="48.074114" lon="11.521182">
    <tag k="addr:city" v="München"/>
    <tag k="addr:housename" v="Werkstatt"/>
    <tag k="addr:housenumber" v="248"/>
    <tag k="addr:postcode" v="81479"/>
    <tag k="addr:street" v="Wolfratshauser Straße"/>
    <tag k="name" v="KFZ-Werkstatt"/>
    <tag k="note" v="Wolfratshauser Str. 248"/>
    <tag k="shop" v="car_repair"/>
    <tag k="source" v="survey"/>
    <tag k="warnung" v="rumpelzumpel-verbrecher"/>
  </node>
  <node id="370221338" version="4" timestamp="2009-08-19T02:05:19Z" uid="36809" user="pfoten_weg_!_" changeset="2196453" lat="48.074114" lon="11.521182">
    <tag k="addr:city" v="München"/>
    <tag k="addr:housename" v="Werkstatt"/>
    <tag k="addr:housenumber" v="248"/>
    <tag k="addr:postcode" v="81479"/>
    <tag k="addr:street" v="Wolfratshauser Straße"/>
    <tag k="name" v="KFZ-Werkstatt"/>
    <tag k="note" v="Wolfratshauser Str. 248"/>
    <tag k="shop" v="car_repair"/>
    <tag k="source" v="survey"/>
  </node>
  <node id="370221338" version="5" timestamp="2009-10-02T20:46:25Z" uid="86259" user="hasse_osm_korinthenkacker" changeset="2717407" lat="48.074114" lon="11.521182">
    <tag k="addr:city" v="München"/>
    <tag k="addr:housename" v="Werkstatt"/>
    <tag k="addr:housenumber" v="248"/>
    <tag k="addr:postcode" v="81479"/>
    <tag k="addr:street" v="Wolfratshauser Straße"/>
    <tag k="name" v="KFZ-Werkstatt"/>
    <tag k="note" v="Wolfratshauser Str. 248"/>
    <tag k="shop" v="car_repair"/>
    <tag k="source" v="survey"/>
  </node>
  <node id="370221339" version="1" timestamp="2009-04-06T02:08:44Z" uid="36809" user="pfoten_weg_!_" changeset="247599" lat="48.073189" lon="11.520894">
    <tag k="created_by" v="RambaZamba"/>
    <tag k="name" v="Geschäft"/>
    <tag k="ref" v="Mayr&apos;s Kamin-Studio"/>
    <tag k="shop" v="hardware"/>
    <tag k="source" v="survey"/>
  </node>
  <node id="370221339" version="3" timestamp="2009-08-19T01:38:21Z" uid="36809" user="pfoten_weg_!_" changeset="2196399" lat="48.073189" lon="11.520894">
    <tag k="name" v="Geschäft"/>
    <tag k="ref" v="Mayr&apos;s Kamin-Studio"/>
    <tag k="shop" v="hardware"/>
    <tag k="source" v="survey"/>
    <tag k="warnung" v="rumpelzumpel-verbrecher"/>
  </node>
  <node id="370221339" version="4" timestamp="2009-08-19T02:05:18Z" uid="36809" user="pfoten_weg_!_" changeset="2196453" lat="48.073189" lon="11.520894">
    <tag k="name" v="Geschäft"/>
    <tag k="ref" v="Mayr&apos;s Kamin-Studio"/>
    <tag k="shop" v="hardware"/>
    <tag k="source" v="survey"/>
  </node>
  <node id="370221339" version="5" timestamp="2009-10-03T17:35:41Z" uid="179968" user="Ich_hasse_doitsche_OSM-Korinthenkacker" changeset="2727120" lat="48.073189" lon="11.520894">
    <tag k="name" v="Geschäft"/>
    <tag k="ref" v="Mayr&apos;s Kamin-Studio"/>
    <tag k="shop" v="hardware"/>
  </node>
  <node id="370221339" version="9" timestamp="2010-05-08T20:41:13Z" uid="36809" user="pfoten_weg_!_" changeset="4642840" lat="48.073189" lon="11.5208939">
    <tag k="addr:city" v="München"/>
    <tag k="addr:housenumber" v="207"/>
    <tag k="addr:postcode" v="81479"/>
    <tag k="addr:street" v="Wolfratshauser Straße"/>
    <tag k="name" v="Mayr&apos;s Kamin-Studio"/>
    <tag k="shop" v="hardware"/>
  </node>
  <node id="370221340" version="1" timestamp="2009-04-06T02:08:44Z" uid="36809" user="pfoten_weg_!_" changeset="247599" lat="48.072936" lon="11.520636">
    <tag k="created_by" v="RambaZamba"/>
    <tag k="name" v="Modegeschäft"/>
    <tag k="ref" v="Mode Lisa&apos;s"/>
    <tag k="shop" v="convenience"/>
    <tag k="source" v="survey"/>
  </node>
  <node id="370221340" version="3" timestamp="2009-08-26T00:25:34Z" uid="36809" user="pfoten_weg_!_" changeset="2262648" lat="48.072936" lon="11.520636">
    <tag k="name" v="Modegeschäft"/>
    <tag k="ref" v="Mode Lisa&apos;s"/>
    <tag k="shop" v="convenience"/>
    <tag k="source" v="survey"/>
  </node>
  <node id="370221340" version="4" timestamp="2009-08-26T01:27:06Z" uid="36809" user="pfoten_weg_!_" changeset="2262879" lat="48.072936" lon="11.520636">
    <tag k="name" v="Modegeschäft"/>
    <tag k="ref" v="Mode Lisa&apos;s"/>
    <tag k="shop" v="convenience"/>
    <tag k="source" v="survey"/>
  </node>
  <node id="370221340" version="5" timestamp="2009-10-03T17:35:41Z" uid="179968" user="Ich_hasse_doitsche_OSM-Korinthenkacker" changeset="2727120" lat="48.072936" lon="11.520636">
    <tag k="name" v="Modegeschäft"/>
    <tag k="ref" v="Mode Lisa&apos;s"/>
    <tag k="shop" v="convenience"/>
  </node>
  <node id="370221340" version="9" timestamp="2010-05-08T20:40:21Z" uid="36809" user="pfoten_weg_!_" changeset="4642840" lat="48.0729361" lon="11.5206359">
    <tag k="addr:city" v="München"/>
    <tag k="addr:housenumber" v="207"/>
    <tag k="addr:postcode" v="81479"/>
    <tag k="addr:street" v="Wolfratshauser Straße"/>
    <tag k="name" v="Lisa&apos;s Kindermoden"/>
    <tag k="shop" v="fashion"/>
  </node>
  <node id="370221341" version="1" timestamp="2009-04-06T02:08:59Z" uid="36809" user="pfoten_weg_!_" changeset="247599" lat="48.076721" lon="11.524715">
    <tag k="created_by" v="RambaZamba"/>
    <tag k="name" v="Plus"/>
    <tag k="note" v="Plus"/>
    <tag k="shop" v="supermarket"/>
    <tag k="source" v="survey"/>
  </node>
  <node id="370221341" version="3" timestamp="2009-06-08T13:19:08Z" uid="36809" user="pfoten_weg_!_" changeset="1458721" lat="48.076721" lon="11.524715">
    <tag k="created_by" v="RambaZamba"/>
    <tag k="name" v="Plus"/>
    <tag k="note" v="Plus"/>
    <tag k="shop" v="supermarket"/>
    <tag k="source" v="survey"/>
  </node>
  <node id="370221341" version="5" timestamp="2009-08-19T01:38:20Z" uid="36809" user="pfoten_weg_!_" changeset="2196399" lat="48.076721" lon="11.524715">
    <tag k="name" v="Plus"/>
    <tag k="note" v="Plus"/>
    <tag k="shop" v="supermarket"/>
    <tag k="source" v="survey"/>
    <tag k="warnung" v="rumpelzumpel-verbrecher"/>
  </node>
  <node id="370221341" version="6" timestamp="2009-08-19T02:05:18Z" uid="36809" user="pfoten_weg_!_" changeset="2196453" lat="48.076721" lon="11.524715">
    <tag k="name" v="Plus"/>
    <tag k="note" v="Plus"/>
    <tag k="shop" v="supermarket"/>
    <tag k="source" v="survey"/>
  </node>
  <node id="370221341" version="7" timestamp="2009-10-03T17:39:42Z" uid="179968" user="Ich_hasse_doitsche_OSM-Korinthenkacker" changeset="2727120" lat="48.076721" lon="11.524715">
    <tag k="name" v="Plus"/>
    <tag k="note" v="Plus"/>
    <tag k="shop" v="supermarket"/>
  </node>
  <node id="370221342" version="1" timestamp="2009-04-06T02:08:59Z" uid="36809" user="pfoten_weg_!_" changeset="247599" lat="48.075364" lon="11.523635">
    <tag k="addr:city" v="München"/>
    <tag k="addr:housename" v="Rent-a-Car"/>
    <tag k="addr:housenumber" v="189"/>
    <tag k="addr:postcode" v="81479"/>
    <tag k="addr:street" v="Wolfratshauser Straße"/>
    <tag k="amenity" v="car_rental"/>
    <tag k="created_by" v="RambaZamba"/>
    <tag k="name" v="Rent-a-Car"/>
    <tag k="ref" v="Buchbinder Rent-a-Car"/>
    <tag k="source" v="survey"/>
  </node>
  <node id="370221342" version="3" timestamp="2009-08-19T01:38:20Z" uid="36809" user="pfoten_weg_!_" changeset="2196399" lat="48.075364" lon="11.523635">
    <tag k="addr:city" v="München"/>
    <tag k="addr:housename" v="Rent-a-Car"/>
    <tag k="addr:housenumber" v="189"/>
    <tag k="addr:postcode" v="81479"/>
    <tag k="addr:street" v="Wolfratshauser Straße"/>
    <tag k="amenity" v="car_rental"/>
    <tag k="name" v="Rent-a-Car"/>
    <tag k="ref" v="Buchbinder Rent-a-Car"/>
    <tag k="source" v="survey"/>
    <tag k="warnung" v="rumpelzumpel-verbrecher"/>
  </node>
  <node id="370221342" version="4" timestamp="2009-08-19T02:05:18Z" uid="36809" user="pfoten_weg_!_" changeset="2196453" lat="48.075364" lon="11.523635">
    <tag k="addr:city" v="München"/>
    <tag k="addr:housename" v="Rent-a-Car"/>
    <tag k="addr:housenumber" v="189"/>
    <tag k="addr:postcode" v="81479"/>
    <tag k="addr:street" v="Wolfratshauser Straße"/>
    <tag k="amenity" v="car_rental"/>
    <tag k="name" v="Rent-a-Car"/>
    <tag k="ref" v="Buchbinder Rent-a-Car"/>
    <tag k="source" v="survey"/>
  </node>
  <node id="370221342" version="5" timestamp="2009-10-02T20:46:18Z" uid="86259" user="hasse_osm_korinthenkacker" changeset="2717407" lat="48.075364" lon="11.523635">
    <tag k="addr:city" v="München"/>
    <tag k="addr:housename" v="Rent-a-Car"/>
    <tag k="addr:housenumber" v="189"/>
    <tag k="addr:postcode" v="81479"/>
    <tag k="addr:street" v="Wolfratshauser Straße"/>
    <tag k="amenity" v="car_rental"/>
    <tag k="name" v="Rent-a-Car"/>
    <tag k="ref" v="Buchbinder Rent-a-Car"/>
    <tag k="source" v="survey"/>
  </node>
  <node id="370221344" version="1" timestamp="2009-04-06T02:09:01Z" uid="36809" user="pfoten_weg_!_" changeset="247599" lat="48.072497" lon="11.520241">
    <tag k="addr:city" v="München"/>
    <tag k="addr:housename" v="Siddharta"/>
    <tag k="addr:housenumber" v="211"/>
    <tag k="addr:postcode" v="81479"/>
    <tag k="addr:street" v="Wolfratshauser Straße"/>
    <tag k="amenity" v="restaurant"/>
    <tag k="created_by" v="RambaZamba"/>
    <tag k="cuisine" v="indian"/>
    <tag k="name" v="Restaurant"/>
    <tag k="ref" v="Siddharta"/>
    <tag k="source" v="survey"/>
  </node>
  <node id="370221344" version="3" timestamp="2009-08-26T00:25:20Z" uid="36809" user="pfoten_weg_!_" changeset="2262648" lat="48.072497" lon="11.520241">
    <tag k="addr:city" v="München"/>
    <tag k="addr:housename" v="Siddharta"/>
    <tag k="addr:housenumber" v="211"/>
    <tag k="addr:postcode" v="81479"/>
    <tag k="addr:street" v="Wolfratshauser Straße"/>
    <tag k="amenity" v="restaurant"/>
    <tag k="cuisine" v="indian"/>
    <tag k="name" v="Restaurant"/>
    <tag k="ref" v="Siddharta"/>
    <tag k="source" v="survey"/>
  </node>
  <node id="370221344" version="4" timestamp="2009-08-26T01:26:52Z" uid="36809" user="pfoten_weg_!_" changeset="2262879" lat="48.072497" lon="11.520241">
    <tag k="addr:city" v="München"/>
    <tag k="addr:housename" v="Siddharta"/>
    <tag k="addr:housenumber" v="211"/>
    <tag k="addr:postcode" v="81479"/>
    <tag k="addr:street" v="Wolfratshauser Straße"/>
    <tag k="amenity" v="restaurant"/>
    <tag k="cuisine" v="indian"/>
    <tag k="name" v="Restaurant"/>
    <tag k="ref" v="Siddharta"/>
    <tag k="source" v="survey"/>
  </node>
  <node id="370221344" version="5" timestamp="2009-10-02T20:46:42Z" uid="86259" user="hasse_osm_korinthenkacker" changeset="2717407" lat="48.072497" lon="11.520241">
    <tag k="addr:city" v="München"/>
    <tag k="addr:housename" v="Siddharta"/>
    <tag k="addr:housenumber" v="211"/>
    <tag k="addr:postcode" v="81479"/>
    <tag k="addr:street" v="Wolfratshauser Straße"/>
    <tag k="amenity" v="restaurant"/>
    <tag k="cuisine" v="indian"/>
    <tag k="name" v="Restaurant"/>
    <tag k="ref" v="Siddharta"/>
    <tag k="source" v="survey"/>
  </node>
  <node id="370221345" version="1" timestamp="2009-04-06T02:09:01Z" uid="36809" user="pfoten_weg_!_" changeset="247599" lat="48.077306" lon="11.525019">
    <tag k="addr:city" v="München"/>
    <tag k="addr:housenumber" v="3"/>
    <tag k="addr:postcode" v="81479"/>
    <tag k="addr:street" v="Frans-Hals-Straße"/>
    <tag k="amenity" v="restaurant"/>
    <tag k="created_by" v="RambaZamba"/>
    <tag k="cuisine" v="italian"/>
    <tag k="name" v="Restaurant"/>
    <tag k="note" v="Frans-Hals-Str. 3"/>
    <tag k="ref" v="Ristorante Al Pino"/>
    <tag k="source" v="survey"/>
  </node>
  <node id="370221345" version="3" timestamp="2009-06-08T13:19:07Z" uid="36809" user="pfoten_weg_!_" changeset="1458721" lat="48.077306" lon="11.525019">
    <tag k="addr:city" v="München"/>
    <tag k="addr:housenumber" v="3"/>
    <tag k="addr:postcode" v="81479"/>
    <tag k="addr:street" v="Frans-Hals-Straße"/>
    <tag k="amenity" v="restaurant"/>
    <tag k="created_by" v="RambaZamba"/>
    <tag k="cuisine" v="italian"/>
    <tag k="name" v="Restaurant"/>
    <tag k="note" v="Frans-Hals-Str. 3"/>
    <tag k="ref" v="Ristorante Al Pino"/>
    <tag k="source" v="survey"/>
  </node>
  <node id="370221345" version="5" timestamp="2009-08-19T01:38:14Z" uid="36809" user="pfoten_weg_!_" changeset="2196399" lat="48.077306" lon="11.525019">
    <tag k="addr:city" v="München"/>
    <tag k="addr:housenumber" v="3"/>
    <tag k="addr:postcode" v="81479"/>
    <tag k="addr:street" v="Frans-Hals-Straße"/>
    <tag k="amenity" v="restaurant"/>
    <tag k="cuisine" v="italian"/>
    <tag k="name" v="Restaurant"/>
    <tag k="note" v="Frans-Hals-Str. 3"/>
    <tag k="ref" v="Ristorante Al Pino"/>
    <tag k="source" v="survey"/>
    <tag k="warnung" v="rumpelzumpel-verbrecher"/>
  </node>
  <node id="370221345" version="6" timestamp="2009-08-19T02:05:12Z" uid="36809" user="pfoten_weg_!_" changeset="2196453" lat="48.077306" lon="11.525019">
    <tag k="addr:city" v="München"/>
    <tag k="addr:housenumber" v="3"/>
    <tag k="addr:postcode" v="81479"/>
    <tag k="addr:street" v="Frans-Hals-Straße"/>
    <tag k="amenity" v="restaurant"/>
    <tag k="cuisine" v="italian"/>
    <tag k="name" v="Restaurant"/>
    <tag k="note" v="Frans-Hals-Str. 3"/>
    <tag k="ref" v="Ristorante Al Pino"/>
    <tag k="source" v="survey"/>
  </node>
  <node id="370221345" version="7" timestamp="2009-10-02T20:43:34Z" uid="86259" user="hasse_osm_korinthenkacker" changeset="2717407" lat="48.077306" lon="11.525019">
    <tag k="addr:city" v="München"/>
    <tag k="addr:housenumber" v="3"/>
    <tag k="addr:postcode" v="81479"/>
    <tag k="addr:street" v="Frans-Hals-Straße"/>
    <tag k="amenity" v="restaurant"/>
    <tag k="cuisine" v="italian"/>
    <tag k="name" v="Restaurant"/>
    <tag k="note" v="Frans-Hals-Str. 3"/>
    <tag k="ref" v="Ristorante Al Pino"/>
    <tag k="source" v="survey"/>
  </node>
  <node id="370221346" version="1" timestamp="2009-04-06T02:09:01Z" uid="36809" user="pfoten_weg_!_" changeset="247599" lat="48.076518" lon="11.526187">
    <tag k="addr:city" v="München"/>
    <tag k="addr:housename" v="Rossmann Drogeriemärkte"/>
    <tag k="addr:housenumber" v="8"/>
    <tag k="addr:postcode" v="81479"/>
    <tag k="addr:street" v="Herterichstraße"/>
    <tag k="created_by" v="RambaZamba"/>
    <tag k="name" v="Drogeriemarkt"/>
    <tag k="ref" v="Rossmann Drogeriemärkte"/>
    <tag k="shop" v="supermarket"/>
    <tag k="source" v="survey"/>
  </node>
  <node id="370221346" version="3" timestamp="2009-08-19T01:38:15Z" uid="36809" user="pfoten_weg_!_" changeset="2196399" lat="48.076518" lon="11.526187">
    <tag k="addr:city" v="München"/>
    <tag k="addr:housename" v="Rossmann Drogeriemärkte"/>
    <tag k="addr:housenumber" v="8"/>
    <tag k="addr:postcode" v="81479"/>
    <tag k="addr:street" v="Herterichstraße"/>
    <tag k="name" v="Drogeriemarkt"/>
    <tag k="ref" v="Rossmann Drogeriemärkte"/>
    <tag k="shop" v="supermarket"/>
    <tag k="source" v="survey"/>
    <tag k="warnung" v="rumpelzumpel-verbrecher"/>
  </node>
  <node id="370221346" version="4" timestamp="2009-08-19T02:05:13Z" uid="36809" user="pfoten_weg_!_" changeset="2196453" lat="48.076518" lon="11.526187">
    <tag k="addr:city" v="München"/>
    <tag k="addr:housename" v="Rossmann Drogeriemärkte"/>
    <tag k="addr:housenumber" v="8"/>
    <tag k="addr:postcode" v="81479"/>
    <tag k="addr:street" v="Herterichstraße"/>
    <tag k="name" v="Drogeriemarkt"/>
    <tag k="ref" v="Rossmann Drogeriemärkte"/>
    <tag k="shop" v="supermarket"/>
    <tag k="source" v="survey"/>
  </node>
  <node id="370221346" version="5" timestamp="2009-10-02T20:43:33Z" uid="86259" user="hasse_osm_korinthenkacker" changeset="2717407" lat="48.076518" lon="11.526187">
    <tag k="addr:city" v="München"/>
    <tag k="addr:housename" v="Rossmann Drogeriemärkte"/>
    <tag k="addr:housenumber" v="8"/>
    <tag k="addr:postcode" v="81479"/>
    <tag k="addr:street" v="Herterichstraße"/>
    <tag k="name" v="Drogeriemarkt"/>
    <tag k="ref" v="Rossmann Drogeriemärkte"/>
    <tag k="shop" v="supermarket"/>
    <tag k="source" v="survey"/>
  </node>
  <node id="370221348" version="1" timestamp="2009-04-06T02:09:02Z" uid="36809" user="pfoten_weg_!_" changeset="247599" lat="48.076396" lon="11.524333">
    <tag k="addr:city" v="München"/>
    <tag k="addr:housename" v="Bank"/>
    <tag k="addr:housenumber" v="228a"/>
    <tag k="addr:postcode" v="81479"/>
    <tag k="addr:street" v="Wolfratshauser Straße"/>
    <tag k="amenity" v="bank"/>
    <tag k="created_by" v="RambaZamba"/>
    <tag k="name" v="Bank"/>
    <tag k="note" v="Wolfratshauser Str. 228a"/>
    <tag k="ref" v="Sparkasse"/>
    <tag k="source" v="survey"/>
  </node>
  <node id="370221348" version="3" timestamp="2009-08-19T01:38:12Z" uid="36809" user="pfoten_weg_!_" changeset="2196399" lat="48.076396" lon="11.524333">
    <tag k="addr:city" v="München"/>
    <tag k="addr:housename" v="Bank"/>
    <tag k="addr:housenumber" v="228a"/>
    <tag k="addr:postcode" v="81479"/>
    <tag k="addr:street" v="Wolfratshauser Straße"/>
    <tag k="amenity" v="bank"/>
    <tag k="name" v="Bank"/>
    <tag k="note" v="Wolfratshauser Str. 228a"/>
    <tag k="ref" v="Sparkasse"/>
    <tag k="source" v="survey"/>
    <tag k="warnung" v="rumpelzumpel-verbrecher"/>
  </node>
  <node id="370221348" version="4" timestamp="2009-08-19T02:05:11Z" uid="36809" user="pfoten_weg_!_" changeset="2196453" lat="48.076396" lon="11.524333">
    <tag k="addr:city" v="München"/>
    <tag k="addr:housename" v="Bank"/>
    <tag k="addr:housenumber" v="228a"/>
    <tag k="addr:postcode" v="81479"/>
    <tag k="addr:street" v="Wolfratshauser Straße"/>
    <tag k="amenity" v="bank"/>
    <tag k="name" v="Bank"/>
    <tag k="note" v="Wolfratshauser Str. 228a"/>
    <tag k="ref" v="Sparkasse"/>
    <tag k="source" v="survey"/>
  </node>
  <node id="370221348" version="5" timestamp="2009-10-02T20:43:43Z" uid="86259" user="hasse_osm_korinthenkacker" changeset="2717407" lat="48.076396" lon="11.524333">
    <tag k="addr:city" v="München"/>
    <tag k="addr:housename" v="Bank"/>
    <tag k="addr:housenumber" v="228a"/>
    <tag k="addr:postcode" v="81479"/>
    <tag k="addr:street" v="Wolfratshauser Straße"/>
    <tag k="amenity" v="bank"/>
    <tag k="name" v="Bank"/>
    <tag k="note" v="Wolfratshauser Str. 228a"/>
    <tag k="ref" v="Sparkasse"/>
    <tag k="source" v="survey"/>
  </node>
  <node id="370221349" version="1" timestamp="2009-04-06T02:09:02Z" uid="36809" user="pfoten_weg_!_" changeset="247599" lat="48.073287" lon="11.520988">
    <tag k="created_by" v="RambaZamba"/>
    <tag k="name" v="Spielzeugkiste"/>
    <tag k="shop" v="toys"/>
    <tag k="source" v="survey"/>
  </node>
  <node id="370221349" version="3" timestamp="2009-08-19T01:38:13Z" uid="36809" user="pfoten_weg_!_" changeset="2196399" lat="48.073287" lon="11.520988">
    <tag k="name" v="Spielzeugkiste"/>
    <tag k="shop" v="toys"/>
    <tag k="source" v="survey"/>
    <tag k="warnung" v="rumpelzumpel-verbrecher"/>
  </node>
  <node id="370221349" version="4" timestamp="2009-08-19T02:05:11Z" uid="36809" user="pfoten_weg_!_" changeset="2196453" lat="48.073287" lon="11.520988">
    <tag k="name" v="Spielzeugkiste"/>
    <tag k="shop" v="toys"/>
    <tag k="source" v="survey"/>
  </node>
  <node id="370221349" version="5" timestamp="2009-10-03T17:35:41Z" uid="179968" user="Ich_hasse_doitsche_OSM-Korinthenkacker" changeset="2727120" lat="48.073287" lon="11.520988">
    <tag k="name" v="Spielzeugkiste"/>
    <tag k="shop" v="toys"/>
  </node>
  <node id="370221349" version="8" timestamp="2010-05-08T20:40:46Z" uid="36809" user="pfoten_weg_!_" changeset="4642840" lat="48.073287" lon="11.5209879">
    <tag k="addr:city" v="München"/>
    <tag k="addr:housenumber" v="207"/>
    <tag k="addr:postcode" v="81479"/>
    <tag k="addr:street" v="Wolfratshauser Straße"/>
    <tag k="name" v="Spielzeugkiste"/>
    <tag k="shop" v="toys"/>
  </node>
  <node id="370221350" version="1" timestamp="2009-04-06T02:09:02Z" uid="36809" user="pfoten_weg_!_" changeset="247599" lat="48.077539" lon="11.525613">
    <tag k="addr:city" v="München"/>
    <tag k="addr:housenumber" v="228a"/>
    <tag k="addr:postcode" v="81479"/>
    <tag k="addr:street" v="Wolfratshauser Straße"/>
    <tag k="amenity" v="bank"/>
    <tag k="created_by" v="RambaZamba"/>
    <tag k="name" v="Bank"/>
    <tag k="ref" v="Stadtsparkasse München"/>
    <tag k="source" v="survey"/>
  </node>
  <node id="370221350" version="3" timestamp="2009-06-08T13:19:06Z" uid="36809" user="pfoten_weg_!_" changeset="1458721" lat="48.077539" lon="11.525613">
    <tag k="addr:city" v="München"/>
    <tag k="addr:housenumber" v="228a"/>
    <tag k="addr:postcode" v="81479"/>
    <tag k="addr:street" v="Wolfratshauser Straße"/>
    <tag k="amenity" v="bank"/>
    <tag k="created_by" v="RambaZamba"/>
    <tag k="name" v="Bank"/>
    <tag k="ref" v="Stadtsparkasse München"/>
    <tag k="source" v="survey"/>
  </node>
  <node id="370221350" version="5" timestamp="2009-08-19T01:38:13Z" uid="36809" user="pfoten_weg_!_" changeset="2196399" lat="48.077539" lon="11.525613">
    <tag k="addr:city" v="München"/>
    <tag k="addr:housenumber" v="228a"/>
    <tag k="addr:postcode" v="81479"/>
    <tag k="addr:street" v="Wolfratshauser Straße"/>
    <tag k="amenity" v="bank"/>
    <tag k="name" v="Bank"/>
    <tag k="ref" v="Stadtsparkasse München"/>
    <tag k="source" v="survey"/>
    <tag k="warnung" v="rumpelzumpel-verbrecher"/>
  </node>
  <node id="370221350" version="6" timestamp="2009-08-19T02:05:11Z" uid="36809" user="pfoten_weg_!_" changeset="2196453" lat="48.077539" lon="11.525613">
    <tag k="addr:city" v="München"/>
    <tag k="addr:housenumber" v="228a"/>
    <tag k="addr:postcode" v="81479"/>
    <tag k="addr:street" v="Wolfratshauser Straße"/>
    <tag k="amenity" v="bank"/>
    <tag k="name" v="Bank"/>
    <tag k="ref" v="Stadtsparkasse München"/>
    <tag k="source" v="survey"/>
  </node>
  <node id="370221350" version="7" timestamp="2009-10-02T20:43:34Z" uid="86259" user="hasse_osm_korinthenkacker" changeset="2717407" lat="48.077539" lon="11.525613">
    <tag k="addr:city" v="München"/>
    <tag k="addr:housenumber" v="228a"/>
    <tag k="addr:postcode" v="81479"/>
    <tag k="addr:street" v="Wolfratshauser Straße"/>
    <tag k="amenity" v="bank"/>
    <tag k="name" v="Bank"/>
    <tag k="ref" v="Stadtsparkasse München"/>
    <tag k="source" v="survey"/>
  </node>
  <node id="370221351" version="1" timestamp="2009-04-06T02:09:02Z" uid="36809" user="pfoten_weg_!_" changeset="247599" lat="48.076687" lon="11.524678">
    <tag k="amenity" v="fast_food"/>
    <tag k="created_by" v="RambaZamba"/>
    <tag k="name" v="Vinzenzmurr"/>
    <tag k="source" v="survey"/>
  </node>
  <node id="370221351" version="3" timestamp="2009-08-19T01:38:14Z" uid="36809" user="pfoten_weg_!_" changeset="2196399" lat="48.076687" lon="11.524678">
    <tag k="amenity" v="fast_food"/>
    <tag k="name" v="Vinzenzmurr"/>
    <tag k="source" v="survey"/>
    <tag k="warnung" v="rumpelzumpel-verbrecher"/>
  </node>
  <node id="370221351" version="4" timestamp="2009-08-19T02:05:12Z" uid="36809" user="pfoten_weg_!_" changeset="2196453" lat="48.076687" lon="11.524678">
    <tag k="amenity" v="fast_food"/>
    <tag k="name" v="Vinzenzmurr"/>
    <tag k="source" v="survey"/>
  </node>
  <node id="370221351" version="5" timestamp="2009-10-03T17:39:42Z" uid="179968" user="Ich_hasse_doitsche_OSM-Korinthenkacker" changeset="2727120" lat="48.076687" lon="11.524678">
    <tag k="amenity" v="fast_food"/>
    <tag k="name" v="Vinzenzmurr"/>
  </node>
  <node id="370221352" version="1" timestamp="2009-04-06T02:09:02Z" uid="36809" user="pfoten_weg_!_" changeset="247599" lat="48.076489" lon="11.526626">
    <tag k="addr:city" v="München"/>
    <tag k="addr:housename" v="Wohnhaus"/>
    <tag k="addr:housenumber" v="73"/>
    <tag k="addr:postcode" v="81479"/>
    <tag k="addr:street" v="Sollner Straße"/>
    <tag k="amenity" v="dentist"/>
    <tag k="created_by" v="RambaZamba"/>
    <tag k="name" v="Zahnarzt"/>
    <tag k="source" v="survey"/>
  </node>
  <node id="370221352" version="2" timestamp="2009-06-07T21:18:14Z" uid="36809" user="pfoten_weg_!_" changeset="1453903" lat="48.076489" lon="11.526626">
    <tag k="addr:city" v="München"/>
    <tag k="addr:housename" v="Wohngebäude"/>
    <tag k="addr:housenumber" v="73"/>
    <tag k="addr:postcode" v="81479"/>
    <tag k="addr:street" v="Sollner Straße"/>
    <tag k="amenity" v="dentist"/>
    <tag k="created_by" v="RambaZamba"/>
    <tag k="name" v="Zahnarzt"/>
    <tag k="source" v="survey"/>
  </node>
  <node id="370221352" version="3" timestamp="2009-06-08T18:14:56Z" uid="36809" user="pfoten_weg_!_" changeset="1461570" lat="48.076489" lon="11.526626">
    <tag k="addr:city" v="München"/>
    <tag k="addr:housename" v="Wohngebäude"/>
    <tag k="addr:housenumber" v="73"/>
    <tag k="addr:postcode" v="81479"/>
    <tag k="addr:street" v="Sollner Straße"/>
    <tag k="amenity" v="dentist"/>
    <tag k="created_by" v="RambaZamba"/>
    <tag k="name" v="Zahnarzt"/>
    <tag k="source" v="survey"/>
  </node>
  <node id="370221362" version="1" timestamp="2009-04-06T02:09:27Z" uid="110593" user="esetzer" changeset="281796" lat="40.7009645" lon="-111.8048167">
    <tag k="created_by" v="Merkaartor 0.11"/>
  </node>
  <node id="370221363" version="1" timestamp="2009-04-06T02:09:27Z" uid="110593" user="esetzer" changeset="281796" lat="40.7008356" lon="-111.8064411">
    <tag k="created_by" v="Merkaartor 0.11"/>
  </node>
  <node id="370221364" version="1" timestamp="2009-04-06T02:09:28Z" uid="110593" user="esetzer" changeset="281796" lat="40.7008499" lon="-111.81003">
    <tag k="created_by" v="Merkaartor 0.11"/>
  </node>
  <node id="370221365" version="1" timestamp="2009-04-06T02:09:31Z" uid="110593" user="esetzer" changeset="281796" lat="40.7006351" lon="-111.817166">
    <tag k="created_by" v="Merkaartor 0.11"/>
  </node>
  <node id="370221367" version="1" timestamp="2009-04-06T02:09:34Z" uid="110593" user="esetzer" changeset="281796" lat="40.7006351" lon="-111.8163766">
    <tag k="created_by" v="Merkaartor 0.11"/>
  </node>
  <node id="370221368" version="1" timestamp="2009-04-06T02:09:35Z" uid="110593" user="esetzer" changeset="281796" lat="40.7001248" lon="-111.8163776">
    <tag k="created_by" v="Merkaartor 0.11"/>
  </node>
  <node id="370221369" version="1" timestamp="2009-04-06T02:09:37Z" uid="110593" user="esetzer" changeset="281796" lat="40.7006806" lon="-111.8147236">
    <tag k="created_by" v="Merkaartor 0.11"/>
  </node>
  <node id="370221370" version="1" timestamp="2009-04-06T02:09:40Z" uid="110593" user="esetzer" changeset="281796" lat="40.700081" lon="-111.8154137">
    <tag k="created_by" v="Merkaartor 0.11"/>
  </node>
  <node id="370221371" version="1" timestamp="2009-04-06T02:09:41Z" uid="110593" user="esetzer" changeset="281796" lat="40.6995752" lon="-111.815451">
    <tag k="created_by" v="Merkaartor 0.11"/>
  </node>
  <node id="370221372" version="1" timestamp="2009-04-06T02:09:42Z" uid="110593" user="esetzer" changeset="281796" lat="40.6995882" lon="-111.8168331">
    <tag k="created_by" v="Merkaartor 0.11"/>
  </node>
  <node id="370221373" version="1" timestamp="2009-04-06T02:09:42Z" uid="110593" user="esetzer" changeset="281796" lat="40.700081" lon="-111.8154137">
    <tag k="created_by" v="Merkaartor 0.11"/>
  </node>
  <node id="370221374" version="1" timestamp="2009-04-06T02:09:51Z" uid="110593" user="esetzer" changeset="281796" lat="40.6987151" lon="-111.8011452">
    <tag k="created_by" v="Merkaartor 0.11"/>
  </node>
  <node id="370221375" version="1" timestamp="2009-04-06T02:09:52Z" uid="110593" user="esetzer" changeset="281796" lat="40.6987017" lon="-111.8022695">
    <tag k="created_by" v="Merkaartor 0.11"/>
  </node>
  <node id="370221492" version="1" timestamp="2009-04-06T02:14:42Z" uid="110593" user="esetzer" changeset="281796" lat="40.7000022" lon="-111.8226667">
    <tag k="created_by" v="Merkaartor 0.11"/>
  </node>
  <node id="370221493" version="1" timestamp="2009-04-06T02:14:43Z" uid="110593" user="esetzer" changeset="281796" lat="40.6991401" lon="-111.8211743">
    <tag k="created_by" v="Merkaartor 0.11"/>
  </node>
  <node id="370221494" version="1" timestamp="2009-04-06T02:14:44Z" uid="110593" user="esetzer" changeset="281796" lat="40.6999458" lon="-111.8211212">
    <tag k="created_by" v="Merkaartor 0.11"/>
  </node>
  <node id="370221495" version="1" timestamp="2009-04-06T02:14:44Z" uid="110593" user="esetzer" changeset="281796" lat="40.6995429" lon="-111.8147994">
    <tag k="created_by" v="Merkaartor 0.11"/>
  </node>
  <node id="370221496" version="1" timestamp="2009-04-06T02:14:45Z" uid="110593" user="esetzer" changeset="281796" lat="40.7005259" lon="-111.8146294">
    <tag k="created_by" v="Merkaartor 0.11"/>
  </node>
  <node id="370221497" version="1" timestamp="2009-04-06T02:14:47Z" uid="110593" user="esetzer" changeset="281796" lat="40.700047" lon="-111.8139387">
    <tag k="created_by" v="Merkaartor 0.11"/>
  </node>
  <node id="370221498" version="1" timestamp="2009-04-06T02:14:47Z" uid="110593" user="esetzer" changeset="281796" lat="40.700542" lon="-111.8139281">
    <tag k="created_by" v="Merkaartor 0.11"/>
  </node>
  <node id="370221571" version="1" timestamp="2009-04-06T02:17:13Z" uid="110593" user="esetzer" changeset="281796" lat="40.6870079" lon="-111.8079712">
    <tag k="created_by" v="Merkaartor 0.11"/>
    <tag k="highway" v="incline"/>
  </node>
  <node id="370221652" version="3" timestamp="2009-04-16T22:48:33Z" uid="6975" user="ulfl" changeset="598814" lat="42.6471194" lon="-73.6997003">
    <tag k="name" v="Staples"/>
    <tag k="shop" v="stationery"/>
  </node>
  <node id="370221655" version="1" timestamp="2009-04-06T02:23:47Z" uid="36809" user="pfoten_weg_!_" changeset="247599" lat="48.0766201" lon="11.52507">
    <tag k="created_by" v="RambaZamba"/>
    <tag k="fixme" v="name, operator, network, shelter"/>
    <tag k="highway" v="bus_stop"/>
    <tag k="name" v="Bus"/>
    <tag k="ref" v="270"/>
    <tag k="source" v="survey"/>
  </node>
  <node id="370221655" version="2" timestamp="2009-04-06T02:39:14Z" uid="36809" user="pfoten_weg_!_" changeset="247599" lat="48.0766201" lon="11.52507">
    <tag k="created_by" v="RambaZamba"/>
    <tag k="highway" v="bus_stop"/>
    <tag k="name" v="Bus"/>
    <tag k="ref" v="270"/>
    <tag k="source" v="survey"/>
  </node>
  <node id="370221655" version="3" timestamp="2009-04-06T23:37:06Z" uid="36809" user="pfoten_weg_!_" changeset="301365" lat="48.0766201" lon="11.52507">
    <tag k="created_by" v="RambaZamba"/>
    <tag k="highway" v="bus_stop"/>
    <tag k="name" v="Sollner Straße"/>
    <tag k="ref" v="134,270"/>
    <tag k="source" v="survey"/>
  </node>
  <node id="370221655" version="5" timestamp="2009-08-19T01:14:42Z" uid="36809" user="pfoten_weg_!_" changeset="2196346" lat="48.0766201" lon="11.52507">
    <tag k="discovered_by" v="RambaZamba"/>
    <tag k="highway" v="bus_stop"/>
    <tag k="name" v="Sollner Straße"/>
    <tag k="ref" v="134,270"/>
    <tag k="source" v="survey"/>
  </node>
  <node id="370221655" version="7" timestamp="2009-08-28T20:42:28Z" uid="36809" user="pfoten_weg_!_" changeset="2295155" lat="48.0766201" lon="11.52507">
    <tag k="discovered_by" v="RambaZamba"/>
    <tag k="highway" v="bus_stop"/>
    <tag k="name" v="Sollner Straße"/>
    <tag k="ref" v="134,270"/>
    <tag k="source" v="survey"/>
  </node>
  <node id="370221655" version="9" timestamp="2009-08-31T21:10:06Z" uid="36809" user="pfoten_weg_!_" changeset="2331411" lat="48.0766201" lon="11.52507">
    <tag k="highway" v="bus_stop"/>
    <tag k="name" v="Sollner Straße"/>
    <tag k="ref" v="134,270"/>
    <tag k="source" v="survey"/>
  </node>
  <node id="370221655" version="10" timestamp="2009-10-03T17:39:42Z" uid="179968" user="Ich_hasse_doitsche_OSM-Korinthenkacker" changeset="2727120" lat="48.0766201" lon="11.52507">
    <tag k="highway" v="bus_stop"/>
    <tag k="name" v="Sollner Straße"/>
    <tag k="ref" v="134,270"/>
  </node>
  <node id="370221679" version="1" timestamp="2009-04-06T02:25:13Z" uid="110593" user="esetzer" changeset="281796" lat="40.6390277" lon="-111.8075197">
    <tag k="created_by" v="Merkaartor 0.11"/>
  </node>
  <node id="370221680" version="1" timestamp="2009-04-06T02:25:19Z" uid="110593" user="esetzer" changeset="281796" lat="40.6404268" lon="-111.8078531">
    <tag k="created_by" v="Merkaartor 0.11"/>
  </node>
  <node id="370221682" version="1" timestamp="2009-04-06T02:25:27Z" uid="110593" user="esetzer" changeset="281796" lat="40.6406799" lon="-111.8079022">
    <tag k="created_by" v="Merkaartor 0.11"/>
  </node>
  <node id="370221684" version="1" timestamp="2009-04-06T02:25:30Z" uid="110593" user="esetzer" changeset="281796" lat="40.6410743" lon="-111.8079512">
    <tag k="created_by" v="Merkaartor 0.11"/>
  </node>
  <node id="370221688" version="1" timestamp="2009-04-06T02:25:30Z" uid="110593" user="esetzer" changeset="281796" lat="40.6414687" lon="-111.8079806">
    <tag k="created_by" v="Merkaartor 0.11"/>
  </node>
  <node id="370221690" version="1" timestamp="2009-04-06T02:25:30Z" uid="110593" user="esetzer" changeset="281796" lat="40.6417664" lon="-111.8079904">
    <tag k="created_by" v="Merkaartor 0.11"/>
  </node>
  <node id="370221696" version="1" timestamp="2009-04-06T02:25:31Z" uid="110593" user="esetzer" changeset="281796" lat="40.6420492" lon="-111.8079708">
    <tag k="created_by" v="Merkaartor 0.11"/>
  </node>
  <node id="370221697" version="1" timestamp="2009-04-06T02:25:32Z" uid="110593" user="esetzer" changeset="281796" lat="40.6422724" lon="-111.8078335">
    <tag k="created_by" v="Merkaartor 0.11"/>
  </node>
  <node id="370221698" version="1" timestamp="2009-04-06T02:25:32Z" uid="110593" user="esetzer" changeset="281796" lat="40.6423766" lon="-111.8077354">
    <tag k="created_by" v="Merkaartor 0.11"/>
  </node>
  <node id="370221776" version="1" timestamp="2009-04-06T02:31:40Z" uid="110593" user="esetzer" changeset="281796" lat="40.6308827" lon="-111.7944702">
    <tag k="created_by" v="Merkaartor 0.11"/>
  </node>
  <node id="370221777" version="1" timestamp="2009-04-06T02:31:40Z" uid="110593" user="esetzer" changeset="281796" lat="40.6308083" lon="-111.7941887">
    <tag k="created_by" v="Merkaartor 0.11"/>
  </node>
  <node id="370221778" version="1" timestamp="2009-04-06T02:31:41Z" uid="110593" user="esetzer" changeset="281796" lat="40.6307108" lon="-111.7936746">
    <tag k="created_by" v="Merkaartor 0.11"/>
  </node>
  <node id="370221779" version="1" timestamp="2009-04-06T02:31:41Z" uid="110593" user="esetzer" changeset="281796" lat="40.6306922" lon="-111.7932523">
    <tag k="created_by" v="Merkaartor 0.11"/>
  </node>
  <node id="370221780" version="1" timestamp="2009-04-06T02:31:41Z" uid="110593" user="esetzer" changeset="281796" lat="40.6307619" lon="-111.792934">
    <tag k="created_by" v="Merkaartor 0.11"/>
  </node>
  <node id="370221781" version="1" timestamp="2009-04-06T02:31:41Z" uid="110593" user="esetzer" changeset="281796" lat="40.6309941" lon="-111.7924015">
    <tag k="created_by" v="Merkaartor 0.11"/>
  </node>
  <node id="370221782" version="1" timestamp="2009-04-06T02:31:41Z" uid="110593" user="esetzer" changeset="281796" lat="40.6311985" lon="-111.7923158">
    <tag k="created_by" v="Merkaartor 0.11"/>
  </node>
  <node id="370221783" version="1" timestamp="2009-04-06T02:31:42Z" uid="110593" user="esetzer" changeset="281796" lat="40.6314818" lon="-111.792322">
    <tag k="created_by" v="Merkaartor 0.11"/>
  </node>
  <node id="370221784" version="1" timestamp="2009-04-06T02:31:42Z" uid="110593" user="esetzer" changeset="281796" lat="40.6318395" lon="-111.7925239">
    <tag k="created_by" v="Merkaartor 0.11"/>
  </node>
  <node id="370221785" version="1" timestamp="2009-04-06T02:31:42Z" uid="110593" user="esetzer" changeset="281796" lat="40.6328474" lon="-111.7927259">
    <tag k="created_by" v="Merkaartor 0.11"/>
  </node>
  <node id="370221786" version="1" timestamp="2009-04-06T02:31:42Z" uid="110593" user="esetzer" changeset="281796" lat="40.6331632" lon="-111.7927014">
    <tag k="created_by" v="Merkaartor 0.11"/>
  </node>
  <node id="370221787" version="1" timestamp="2009-04-06T02:31:43Z" uid="110593" user="esetzer" changeset="281796" lat="40.6334791" lon="-111.792475">
    <tag k="created_by" v="Merkaartor 0.11"/>
  </node>
  <node id="370221788" version="1" timestamp="2009-04-06T02:31:43Z" uid="110593" user="esetzer" changeset="281796" lat="40.6339993" lon="-111.79212">
    <tag k="created_by" v="Merkaartor 0.11"/>
  </node>
  <node id="370221789" version="1" timestamp="2009-04-06T02:31:43Z" uid="110593" user="esetzer" changeset="281796" lat="40.6343383" lon="-111.7920037">
    <tag k="created_by" v="Merkaartor 0.11"/>
  </node>
  <node id="370221790" version="1" timestamp="2009-04-06T02:31:43Z" uid="110593" user="esetzer" changeset="281796" lat="40.6368325" lon="-111.7923648">
    <tag k="created_by" v="Merkaartor 0.11"/>
  </node>
  <node id="370221791" version="1" timestamp="2009-04-06T02:31:43Z" uid="110593" user="esetzer" changeset="281796" lat="40.6370694" lon="-111.7925301">
    <tag k="created_by" v="Merkaartor 0.11"/>
  </node>
  <node id="370221792" version="1" timestamp="2009-04-06T02:31:44Z" uid="110593" user="esetzer" changeset="281796" lat="40.6372924" lon="-111.7927137">
    <tag k="created_by" v="Merkaartor 0.11"/>
  </node>
  <node id="370221793" version="1" timestamp="2009-04-06T02:31:44Z" uid="110593" user="esetzer" changeset="281796" lat="40.6374549" lon="-111.7928606">
    <tag k="created_by" v="Merkaartor 0.11"/>
  </node>
  <node id="370221794" version="1" timestamp="2009-04-06T02:31:44Z" uid="110593" user="esetzer" changeset="281796" lat="40.6376686" lon="-111.7928116">
    <tag k="created_by" v="Merkaartor 0.11"/>
  </node>
  <node id="370221795" version="1" timestamp="2009-04-06T02:31:45Z" uid="110593" user="esetzer" changeset="281796" lat="40.637859" lon="-111.7925301">
    <tag k="created_by" v="Merkaartor 0.11"/>
  </node>
  <node id="370221796" version="1" timestamp="2009-04-06T02:31:45Z" uid="110593" user="esetzer" changeset="281796" lat="40.6381423" lon="-111.7921873">
    <tag k="created_by" v="Merkaartor 0.11"/>
  </node>
  <node id="370221797" version="1" timestamp="2009-04-06T02:31:45Z" uid="110593" user="esetzer" changeset="281796" lat="40.6383746" lon="-111.7921322">
    <tag k="created_by" v="Merkaartor 0.11"/>
  </node>
  <node id="370221798" version="1" timestamp="2009-04-06T02:31:45Z" uid="110593" user="esetzer" changeset="281796" lat="40.6388251" lon="-111.7923954">
    <tag k="created_by" v="Merkaartor 0.11"/>
  </node>
  <node id="370221799" version="1" timestamp="2009-04-06T02:31:46Z" uid="110593" user="esetzer" changeset="281796" lat="40.6390341" lon="-111.7927871">
    <tag k="created_by" v="Merkaartor 0.11"/>
  </node>
  <node id="370221800" version="1" timestamp="2009-04-06T02:31:46Z" uid="110593" user="esetzer" changeset="281796" lat="40.6403486" lon="-111.7945559">
    <tag k="created_by" v="Merkaartor 0.11"/>
  </node>
  <node id="370221801" version="1" timestamp="2009-04-06T02:31:46Z" uid="110593" user="esetzer" changeset="281796" lat="40.6409385" lon="-111.7948558">
    <tag k="created_by" v="Merkaartor 0.11"/>
  </node>
  <node id="370221802" version="1" timestamp="2009-04-06T02:31:46Z" uid="110593" user="esetzer" changeset="281796" lat="40.6416491" lon="-111.7948375">
    <tag k="created_by" v="Merkaartor 0.11"/>
  </node>
  <node id="370221803" version="1" timestamp="2009-04-06T02:31:46Z" uid="110593" user="esetzer" changeset="281796" lat="40.6420718" lon="-111.7949231">
    <tag k="created_by" v="Merkaartor 0.11"/>
  </node>
  <node id="370221804" version="1" timestamp="2009-04-06T02:31:47Z" uid="110593" user="esetzer" changeset="281796" lat="40.6422947" lon="-111.7950762">
    <tag k="created_by" v="Merkaartor 0.11"/>
  </node>
  <node id="370221805" version="1" timestamp="2009-04-06T02:31:47Z" uid="110593" user="esetzer" changeset="281796" lat="40.6425734" lon="-111.7956209">
    <tag k="created_by" v="Merkaartor 0.11"/>
  </node>
  <node id="370221806" version="1" timestamp="2009-04-06T02:31:47Z" uid="110593" user="esetzer" changeset="281796" lat="40.6424666" lon="-111.7966675">
    <tag k="created_by" v="Merkaartor 0.11"/>
  </node>
  <node id="370221807" version="1" timestamp="2009-04-06T02:31:47Z" uid="110593" user="esetzer" changeset="281796" lat="40.6424573" lon="-111.7969062">
    <tag k="created_by" v="Merkaartor 0.11"/>
  </node>
  <node id="370221808" version="1" timestamp="2009-04-06T02:31:48Z" uid="110593" user="esetzer" changeset="281796" lat="40.6434048" lon="-111.7981547">
    <tag k="created_by" v="Merkaartor 0.11"/>
  </node>
  <node id="370221809" version="1" timestamp="2009-04-06T02:31:48Z" uid="110593" user="esetzer" changeset="281796" lat="40.6434838" lon="-111.798577">
    <tag k="created_by" v="Merkaartor 0.11"/>
  </node>
  <node id="370221810" version="1" timestamp="2009-04-06T02:31:48Z" uid="110593" user="esetzer" changeset="281796" lat="40.6433491" lon="-111.7990422">
    <tag k="created_by" v="Merkaartor 0.11"/>
  </node>
  <node id="370221811" version="1" timestamp="2009-04-06T02:31:49Z" uid="110593" user="esetzer" changeset="281796" lat="40.6431308" lon="-111.7992625">
    <tag k="created_by" v="Merkaartor 0.11"/>
  </node>
  <node id="370221812" version="1" timestamp="2009-04-06T02:31:49Z" uid="110593" user="esetzer" changeset="281796" lat="40.6325335" lon="-111.7988677">
    <tag k="created_by" v="Merkaartor 0.11"/>
  </node>
  <node id="370222220" version="4" timestamp="2010-04-28T14:10:07Z" uid="4467" user="Rosscoe" changeset="4549640" lat="-38.0509519" lon="145.2561548"/>
  <node id="370222220" version="5" timestamp="2010-04-28T14:15:20Z" uid="4467" user="Rosscoe" changeset="4549640" lat="-38.0509519" lon="145.2561548"/>
  <node id="370222220" version="6" timestamp="2010-04-28T14:22:15Z" uid="4467" user="Rosscoe" changeset="4549640" lat="-38.0509519" lon="145.2561548"/>
  <node id="370222220" version="7" timestamp="2010-04-28T14:29:35Z" uid="4467" user="Rosscoe" changeset="4549640" lat="-38.0509519" lon="145.2561548"/>
  <node id="370222221" version="4" timestamp="2010-04-28T14:06:40Z" uid="4467" user="Rosscoe" changeset="4549640" lat="-38.0510549" lon="145.2562107"/>
  <node id="370222221" version="5" timestamp="2010-04-28T14:09:32Z" uid="4467" user="Rosscoe" changeset="4549640" lat="-38.0510549" lon="145.2562107"/>
  <node id="370222221" version="6" timestamp="2010-04-28T14:14:36Z" uid="4467" user="Rosscoe" changeset="4549640" lat="-38.0510549" lon="145.2562107"/>
  <node id="370222221" version="7" timestamp="2010-04-28T14:21:41Z" uid="4467" user="Rosscoe" changeset="4549640" lat="-38.0510549" lon="145.2562107"/>
  <node id="370222221" version="8" timestamp="2010-04-28T14:28:57Z" uid="4467" user="Rosscoe" changeset="4549640" lat="-38.0510549" lon="145.2562107"/>
  <node id="370222222" version="3" timestamp="2010-04-28T14:06:00Z" uid="4467" user="Rosscoe" changeset="4549640" lat="-38.0511107" lon="145.2561808"/>
  <node id="370222222" version="4" timestamp="2010-04-28T14:08:49Z" uid="4467" user="Rosscoe" changeset="4549640" lat="-38.0511107" lon="145.2561808"/>
  <node id="370222222" version="5" timestamp="2010-04-28T14:13:45Z" uid="4467" user="Rosscoe" changeset="4549640" lat="-38.0511107" lon="145.2561808"/>
  <node id="370222222" version="6" timestamp="2010-04-28T14:20:58Z" uid="4467" user="Rosscoe" changeset="4549640" lat="-38.0511107" lon="145.2561808"/>
  <node id="370222222" version="7" timestamp="2010-04-28T14:28:13Z" uid="4467" user="Rosscoe" changeset="4549640" lat="-38.0511107" lon="145.2561808"/>
  <node id="370222223" version="3" timestamp="2010-04-28T14:05:31Z" uid="4467" user="Rosscoe" changeset="4549640" lat="-38.0511817" lon="145.2560631"/>
  <node id="370222223" version="4" timestamp="2010-04-28T14:08:19Z" uid="4467" user="Rosscoe" changeset="4549640" lat="-38.0511817" lon="145.2560631"/>
  <node id="370222223" version="5" timestamp="2010-04-28T14:13:06Z" uid="4467" user="Rosscoe" changeset="4549640" lat="-38.0511817" lon="145.2560631"/>
  <node id="370222223" version="6" timestamp="2010-04-28T14:20:22Z" uid="4467" user="Rosscoe" changeset="4549640" lat="-38.0511817" lon="145.2560631"/>
  <node id="370222223" version="7" timestamp="2010-04-28T14:27:38Z" uid="4467" user="Rosscoe" changeset="4549640" lat="-38.0511817" lon="145.2560631"/>
  <node id="370222224" version="3" timestamp="2010-04-28T14:05:50Z" uid="4467" user="Rosscoe" changeset="4549640" lat="-38.0511295" lon="145.2559456"/>
  <node id="370222224" version="4" timestamp="2010-04-28T14:08:39Z" uid="4467" user="Rosscoe" changeset="4549640" lat="-38.0511295" lon="145.2559456"/>
  <node id="370222224" version="5" timestamp="2010-04-28T14:13:32Z" uid="4467" user="Rosscoe" changeset="4549640" lat="-38.0511295" lon="145.2559456"/>
  <node id="370222224" version="6" timestamp="2010-04-28T14:20:47Z" uid="4467" user="Rosscoe" changeset="4549640" lat="-38.0511295" lon="145.2559456"/>
  <node id="370222224" version="7" timestamp="2010-04-28T14:28:01Z" uid="4467" user="Rosscoe" changeset="4549640" lat="-38.0511295" lon="145.2559456"/>
  <node id="370222225" version="3" timestamp="2010-04-28T14:05:10Z" uid="4467" user="Rosscoe" changeset="4549640" lat="-38.0510616" lon="145.2559367"/>
  <node id="370222225" version="4" timestamp="2010-04-28T14:07:59Z" uid="4467" user="Rosscoe" changeset="4549640" lat="-38.0510616" lon="145.2559367"/>
  <node id="370222225" version="5" timestamp="2010-04-28T14:12:36Z" uid="4467" user="Rosscoe" changeset="4549640" lat="-38.0510616" lon="145.2559367"/>
  <node id="370222225" version="6" timestamp="2010-04-28T14:19:34Z" uid="4467" user="Rosscoe" changeset="4549640" lat="-38.0510616" lon="145.2559367"/>
  <node id="370222225" version="7" timestamp="2010-04-28T14:27:07Z" uid="4467" user="Rosscoe" changeset="4549640" lat="-38.0510616" lon="145.2559367"/>
  <node id="370222226" version="3" timestamp="2010-04-28T14:33:59Z" uid="4467" user="Rosscoe" changeset="4549640" lat="-38.0509823" lon="145.2559512"/>
  <node id="370222248" version="1" timestamp="2009-04-06T02:45:44Z" uid="36809" user="pfoten_weg_!_" changeset="247599" lat="48.0792311" lon="11.5234164"/>
  <node id="370222248" version="2" timestamp="2009-04-22T18:12:53Z" uid="36809" user="pfoten_weg_!_" changeset="903669" lat="48.0792311" lon="11.5234164">
    <tag k="created_by" v="RambaZamba"/>
    <tag k="source" v="survey"/>
  </node>
  <node id="370222248" version="4" timestamp="2009-06-08T13:18:55Z" uid="36809" user="pfoten_weg_!_" changeset="1458721" lat="48.0792311" lon="11.5234164">
    <tag k="created_by" v="RambaZamba"/>
    <tag k="source" v="survey"/>
  </node>
  <node id="370222248" version="6" timestamp="2009-08-19T01:35:40Z" uid="36809" user="pfoten_weg_!_" changeset="2196399" lat="48.0792311" lon="11.5234164">
    <tag k="source" v="survey"/>
    <tag k="warnung" v="rumpelzumpel-verbrecher"/>
  </node>
  <node id="370222248" version="7" timestamp="2009-08-19T02:02:49Z" uid="36809" user="pfoten_weg_!_" changeset="2196453" lat="48.0792311" lon="11.5234164">
    <tag k="source" v="survey"/>
  </node>
  <node id="370222248" version="8" timestamp="2009-10-03T17:39:23Z" uid="179968" user="Ich_hasse_doitsche_OSM-Korinthenkacker" changeset="2727120" lat="48.0792311" lon="11.5234164"/>
  <node id="370222252" version="1" timestamp="2009-04-06T02:45:44Z" uid="36809" user="pfoten_weg_!_" changeset="247599" lat="48.0796883" lon="11.5239368"/>
  <node id="370222252" version="2" timestamp="2009-04-22T18:12:53Z" uid="36809" user="pfoten_weg_!_" changeset="903669" lat="48.0796883" lon="11.5239368">
    <tag k="created_by" v="RambaZamba"/>
    <tag k="source" v="survey"/>
  </node>
  <node id="370222252" version="4" timestamp="2009-06-08T13:18:55Z" uid="36809" user="pfoten_weg_!_" changeset="1458721" lat="48.0796883" lon="11.5239368">
    <tag k="created_by" v="RambaZamba"/>
    <tag k="source" v="survey"/>
  </node>
  <node id="370222252" version="6" timestamp="2009-08-19T01:35:39Z" uid="36809" user="pfoten_weg_!_" changeset="2196399" lat="48.0796883" lon="11.5239368">
    <tag k="source" v="survey"/>
    <tag k="warnung" v="rumpelzumpel-verbrecher"/>
  </node>
  <node id="370222252" version="7" timestamp="2009-08-19T02:02:47Z" uid="36809" user="pfoten_weg_!_" changeset="2196453" lat="48.0796883" lon="11.5239368">
    <tag k="source" v="survey"/>
  </node>
  <node id="370222252" version="8" timestamp="2009-10-03T17:39:23Z" uid="179968" user="Ich_hasse_doitsche_OSM-Korinthenkacker" changeset="2727120" lat="48.0796883" lon="11.5239368"/>
  <node id="370222253" version="1" timestamp="2009-04-06T02:45:44Z" uid="36809" user="pfoten_weg_!_" changeset="247599" lat="48.0752627" lon="11.5300152"/>
  <node id="370222253" version="2" timestamp="2009-04-13T22:30:05Z" uid="36809" user="pfoten_weg_!_" changeset="529931" lat="48.0752512" lon="11.5299963"/>
  <node id="370222253" version="3" timestamp="2009-04-22T18:12:53Z" uid="36809" user="pfoten_weg_!_" changeset="903669" lat="48.0752512" lon="11.5299963">
    <tag k="created_by" v="RambaZamba"/>
    <tag k="source" v="survey"/>
  </node>
  <node id="370222253" version="4" timestamp="2009-04-29T16:58:21Z" uid="36809" user="pfoten_weg_!_" changeset="1017914" lat="48.0752696" lon="11.5300205">
    <tag k="created_by" v="RambaZamba"/>
    <tag k="source" v="survey"/>
  </node>
  <node id="370222253" version="5" timestamp="2009-04-29T17:25:52Z" uid="36809" user="pfoten_weg_!_" changeset="1018241" lat="48.0752696" lon="11.5300205">
    <tag k="created_by" v="RambaZamba"/>
    <tag k="source" v="survey"/>
  </node>
  <node id="370222254" version="1" timestamp="2009-04-06T02:45:45Z" uid="36809" user="pfoten_weg_!_" changeset="247599" lat="48.0749304" lon="11.53056"/>
  <node id="370222254" version="2" timestamp="2009-04-13T22:33:33Z" uid="36809" user="pfoten_weg_!_" changeset="529931" lat="48.0749304" lon="11.53056"/>
  <node id="370222255" version="1" timestamp="2009-04-06T02:45:45Z" uid="36809" user="pfoten_weg_!_" changeset="247599" lat="48.0747146" lon="11.5308221"/>
  <node id="370222255" version="2" timestamp="2009-04-13T22:33:34Z" uid="36809" user="pfoten_weg_!_" changeset="529931" lat="48.0747146" lon="11.5308221"/>
  <node id="370222261" version="5" timestamp="2010-07-22T14:56:29Z" uid="4467" user="Rosscoe" changeset="5288090" lat="-38.0305438" lon="145.2961822"/>
  <node id="370222261" version="6" timestamp="2011-02-06T10:27:20Z" uid="4467" user="Rosscoe" changeset="7201643" lat="-38.0305287" lon="145.2961587"/>
  <node id="370222262" version="4" timestamp="2010-07-22T14:55:19Z" uid="4467" user="Rosscoe" changeset="5288090" lat="-38.030481" lon="145.2962064"/>
  <node id="370222262" version="5" timestamp="2011-02-06T10:27:24Z" uid="4467" user="Rosscoe" changeset="7201643" lat="-38.0304657" lon="145.2961943"/>
  <node id="370222263" version="5" timestamp="2010-07-22T14:56:36Z" uid="4467" user="Rosscoe" changeset="5288090" lat="-38.0304558" lon="145.2962808"/>
  <node id="370222263" version="6" timestamp="2011-02-06T10:27:17Z" uid="4467" user="Rosscoe" changeset="7201643" lat="-38.030449" lon="145.2962672"/>
  <node id="370222264" version="4" timestamp="2010-07-22T14:56:57Z" uid="4467" user="Rosscoe" changeset="5288090" lat="-38.0305139" lon="145.2963497"/>
  <node id="370222264" version="5" timestamp="2011-02-06T10:27:20Z" uid="4467" user="Rosscoe" changeset="7201643" lat="-38.0304958" lon="145.2963454"/>
  <node id="370222265" version="5" timestamp="2010-07-22T14:56:02Z" uid="4467" user="Rosscoe" changeset="5288090" lat="-38.030607" lon="145.2963229"/>
  <node id="370222265" version="6" timestamp="2011-02-06T10:27:14Z" uid="4467" user="Rosscoe" changeset="7201643" lat="-38.0305891" lon="145.2963086"/>
  <node id="370222266" version="6" timestamp="2010-07-22T14:57:21Z" uid="4467" user="Rosscoe" changeset="5288090" lat="-38.0306585" lon="145.2962712"/>
  <node id="370222267" version="4" timestamp="2010-07-22T14:56:14Z" uid="4467" user="Rosscoe" changeset="5288090" lat="-38.0306038" lon="145.2962096"/>
  <node id="370222267" version="5" timestamp="2011-02-06T10:27:27Z" uid="4467" user="Rosscoe" changeset="7201643" lat="-38.0305868" lon="145.2961986"/>
  <node id="370222372" version="4" timestamp="2010-07-30T03:19:39Z" uid="4467" user="Rosscoe" changeset="5351439" lat="-38.0272109" lon="145.3054815">
    <tag k="name" v="Rebound Lesuire Centre"/>
    <tag k="shop" v="gymnasium"/>
  </node>
  <node id="370222548" version="2" timestamp="2010-02-19T15:14:58Z" uid="9719" user="dvaey" changeset="3916200" lat="-35.3054157" lon="149.1852704"/>
  <node id="370222662" version="2" timestamp="2010-07-10T09:26:32Z" uid="4467" user="Rosscoe" changeset="5180754" lat="-34.9066329" lon="138.5272279"/>
  <node id="370222690" version="3" timestamp="2010-07-10T09:28:45Z" uid="4467" user="Rosscoe" changeset="5180754" lat="-34.9053016" lon="138.5412521"/>
  <node id="370223138" version="3" timestamp="2010-07-10T13:42:06Z" uid="4467" user="Rosscoe" changeset="5182665" lat="-34.9050018" lon="138.5206462"/>
  <node id="370223139" version="3" timestamp="2010-07-10T13:41:15Z" uid="4467" user="Rosscoe" changeset="5182665" lat="-34.9039893" lon="138.5205258"/>
  <node id="370223181" version="2" timestamp="2010-07-10T13:41:27Z" uid="4467" user="Rosscoe" changeset="5182665" lat="-34.9051066" lon="138.5183518"/>
  <node id="370223232" version="2" timestamp="2010-07-10T09:27:15Z" uid="4467" user="Rosscoe" changeset="5180754" lat="-34.9021608" lon="138.5273212"/>
  <node id="370223243" version="2" timestamp="2010-07-10T09:25:56Z" uid="4467" user="Rosscoe" changeset="5180754" lat="-34.9026112" lon="138.5273523"/>
  <node id="370223248" version="2" timestamp="2010-07-10T09:27:25Z" uid="4467" user="Rosscoe" changeset="5180754" lat="-34.9048126" lon="138.5263556"/>
  <node id="370223257" version="2" timestamp="2010-07-10T09:27:11Z" uid="4467" user="Rosscoe" changeset="5180754" lat="-34.9047586" lon="138.5275215"/>
  <node id="370223285" version="3" timestamp="2010-07-10T13:41:51Z" uid="4467" user="Rosscoe" changeset="5182665" lat="-34.9035734" lon="138.5204864"/>
  <node id="370223353" version="4" timestamp="2010-05-01T13:51:08Z" uid="4467" user="Rosscoe" changeset="4575172" lat="-34.9042785" lon="138.5253406">
    <tag k="direction" v="clockwise"/>
    <tag k="highway" v="mini_roundabout"/>
  </node>
  <node id="370223355" version="2" timestamp="2010-07-10T09:27:49Z" uid="4467" user="Rosscoe" changeset="5180754" lat="-34.9042355" lon="138.5263159"/>
  <node id="370223427" version="2" timestamp="2010-07-10T13:41:13Z" uid="4467" user="Rosscoe" changeset="5182665" lat="-34.9078396" lon="138.5176959"/>
  <node id="370223428" version="2" timestamp="2010-07-10T13:42:08Z" uid="4467" user="Rosscoe" changeset="5182665" lat="-34.9073215" lon="138.5176928"/>
  <node id="370223429" version="2" timestamp="2010-07-10T13:41:31Z" uid="4467" user="Rosscoe" changeset="5182665" lat="-34.9072336" lon="138.5175772"/>
  <node id="370223430" version="2" timestamp="2010-07-10T13:41:50Z" uid="4467" user="Rosscoe" changeset="5182665" lat="-34.9072429" lon="138.5171525"/>
  <node id="370223431" version="2" timestamp="2010-07-10T13:40:56Z" uid="4467" user="Rosscoe" changeset="5182665" lat="-34.9072909" lon="138.5169975"/>
  <node id="370223432" version="2" timestamp="2010-07-10T13:40:46Z" uid="4467" user="Rosscoe" changeset="5182665" lat="-34.9073111" lon="138.5168852"/>
  <node id="370223433" version="2" timestamp="2010-07-10T13:41:06Z" uid="4467" user="Rosscoe" changeset="5182665" lat="-34.9073243" lon="138.5165186"/>
  <node id="370223434" version="2" timestamp="2010-07-10T13:41:35Z" uid="4467" user="Rosscoe" changeset="5182665" lat="-34.9072802" lon="138.5164599"/>
  <node id="370223438" version="2" timestamp="2010-07-10T13:41:17Z" uid="4467" user="Rosscoe" changeset="5182665" lat="-34.9079507" lon="138.5173059"/>
  <node id="370223439" version="2" timestamp="2010-07-10T13:41:39Z" uid="4467" user="Rosscoe" changeset="5182665" lat="-34.9079102" lon="138.5174546"/>
  <node id="370223497" version="2" timestamp="2010-07-10T13:40:40Z" uid="4467" user="Rosscoe" changeset="5182665" lat="-34.9081696" lon="138.5178136"/>
  <node id="370223547" version="2" timestamp="2010-07-11T12:56:38Z" uid="4467" user="Rosscoe" changeset="5190118" lat="-34.9194624" lon="138.5154873"/>
  <node id="370223548" version="2" timestamp="2010-07-11T12:59:05Z" uid="4467" user="Rosscoe" changeset="5190118" lat="-34.918512" lon="138.5152175"/>
  <node id="370223549" version="2" timestamp="2010-07-11T12:57:01Z" uid="4467" user="Rosscoe" changeset="5190118" lat="-34.9183152" lon="138.5151"/>
  <node id="370223550" version="2" timestamp="2010-07-11T12:55:50Z" uid="4467" user="Rosscoe" changeset="5190118" lat="-34.917726" lon="138.5147189"/>
  <node id="370223554" version="2" timestamp="2010-07-11T12:55:46Z" uid="4467" user="Rosscoe" changeset="5190118" lat="-34.9187004" lon="138.5152355"/>
  <node id="370224451" version="4" timestamp="2010-07-10T09:27:33Z" uid="4467" user="Rosscoe" changeset="5180754" lat="-34.9053092" lon="138.5349038"/>
  <node id="370224592" version="2" timestamp="2010-07-10T09:26:21Z" uid="4467" user="Rosscoe" changeset="5180754" lat="-34.9037029" lon="138.5386291"/>
  <node id="370224617" version="2" timestamp="2010-05-01T13:51:03Z" uid="4467" user="Rosscoe" changeset="4575172" lat="-34.9049744" lon="138.525331"/>
  <node id="370224622" version="2" timestamp="2010-05-01T13:51:08Z" uid="4467" user="Rosscoe" changeset="4575172" lat="-34.904965" lon="138.5258423"/>
  <node id="370224626" version="2" timestamp="2010-07-10T09:27:53Z" uid="4467" user="Rosscoe" changeset="5180754" lat="-34.9026322" lon="138.5263475"/>
  <node id="370224628" version="2" timestamp="2010-07-10T09:26:14Z" uid="4467" user="Rosscoe" changeset="5180754" lat="-34.9037564" lon="138.5264377"/>
  <node id="370225121" version="2" timestamp="2010-01-09T16:51:44Z" uid="9581" user="Lobelt" changeset="3579426" lat="49.538619" lon="8.2465343">
    <tag k="created_by" v="Potlatch 0.10f"/>
    <tag k="power" v="tower"/>
  </node>
  <node id="370225213" version="3" timestamp="2010-07-10T09:28:42Z" uid="4467" user="Rosscoe" changeset="5180754" lat="-34.9055444" lon="138.5340073"/>
  <node id="370226466" version="2" timestamp="2010-07-10T09:26:39Z" uid="4467" user="Rosscoe" changeset="5180754" lat="-34.9103604" lon="138.5452778"/>
  <node id="370226468" version="2" timestamp="2010-07-10T09:26:55Z" uid="4467" user="Rosscoe" changeset="5180754" lat="-34.910304" lon="138.5463901"/>
  <node id="370226471" version="2" timestamp="2010-07-10T09:26:50Z" uid="4467" user="Rosscoe" changeset="5180754" lat="-34.9104251" lon="138.5463853"/>
  <node id="370226499" version="2" timestamp="2010-07-10T09:27:55Z" uid="4467" user="Rosscoe" changeset="5180754" lat="-34.9103882" lon="138.5466612"/>
  <node id="370226501" version="2" timestamp="2010-07-10T09:28:33Z" uid="4467" user="Rosscoe" changeset="5180754" lat="-34.9094103" lon="138.5466213"/>
  <node id="370226504" version="2" timestamp="2010-07-10T09:27:18Z" uid="4467" user="Rosscoe" changeset="5180754" lat="-34.9085851" lon="138.5464986"/>
  <node id="370226506" version="2" timestamp="2010-07-10T09:26:34Z" uid="4467" user="Rosscoe" changeset="5180754" lat="-34.9077354" lon="138.5464307"/>
  <node id="370226510" version="2" timestamp="2010-07-10T09:27:59Z" uid="4467" user="Rosscoe" changeset="5180754" lat="-34.9085217" lon="138.5477296"/>
  <node id="370226511" version="2" timestamp="2010-07-10T09:26:43Z" uid="4467" user="Rosscoe" changeset="5180754" lat="-34.9076696" lon="138.547669"/>
  <node id="370226527" version="2" timestamp="2010-07-10T09:28:39Z" uid="4467" user="Rosscoe" changeset="5180754" lat="-34.9103917" lon="138.5468297"/>
  <node id="370226606" version="2" timestamp="2010-07-10T09:02:56Z" uid="4467" user="Rosscoe" changeset="5180572" lat="-34.9019471" lon="138.5605542"/>
  <node id="370226607" version="2" timestamp="2010-07-10T09:04:27Z" uid="4467" user="Rosscoe" changeset="5180572" lat="-34.9019634" lon="138.5607466"/>
  <node id="370226608" version="2" timestamp="2010-07-10T09:03:46Z" uid="4467" user="Rosscoe" changeset="5180572" lat="-34.9020252" lon="138.5619365"/>
  <node id="370226609" version="2" timestamp="2010-07-10T09:02:49Z" uid="4467" user="Rosscoe" changeset="5180572" lat="-34.9011153" lon="138.5604996"/>
  <node id="370226610" version="2" timestamp="2010-07-10T09:02:12Z" uid="4467" user="Rosscoe" changeset="5180572" lat="-34.9028507" lon="138.5618467"/>
  <node id="370226611" version="2" timestamp="2010-07-10T09:03:23Z" uid="4467" user="Rosscoe" changeset="5180572" lat="-34.902782" lon="138.5606329"/>
  <node id="370229334" version="3" timestamp="2009-06-14T18:15:56Z" uid="43967" user="railsnail" changeset="1517544" lat="46.7890881" lon="12.6271746"/>
  <node id="370229334" version="4" timestamp="2009-11-26T10:42:21Z" uid="43967" user="railsnail" changeset="3219156" lat="46.7890881" lon="12.6271746"/>
  <node id="370229334" version="5" timestamp="2009-11-26T10:48:13Z" uid="43967" user="railsnail" changeset="3219156" lat="46.7890881" lon="12.6271746"/>
  <node id="370229336" version="2" timestamp="2011-01-16T18:38:27Z" uid="43967" user="railsnail" changeset="6991723" lat="46.7886746" lon="12.6250378"/>
  <node id="370229337" version="2" timestamp="2009-11-26T10:44:42Z" uid="43967" user="railsnail" changeset="3219156" lat="46.7886465" lon="12.6233379"/>
  <node id="370229337" version="3" timestamp="2011-01-16T18:38:25Z" uid="43967" user="railsnail" changeset="6991723" lat="46.7886099" lon="12.6232785"/>
  <node id="370229339" version="2" timestamp="2009-06-14T18:16:56Z" uid="43967" user="railsnail" changeset="1517544" lat="46.7895288" lon="12.6244109"/>
  <node id="370229339" version="3" timestamp="2011-01-16T19:55:14Z" uid="43967" user="railsnail" changeset="6992892" lat="46.7896224" lon="12.6244466"/>
  <node id="370229340" version="2" timestamp="2011-01-16T18:38:25Z" uid="43967" user="railsnail" changeset="6991723" lat="46.7896926" lon="12.6244333"/>
  <node id="370229342" version="2" timestamp="2011-01-16T19:55:29Z" uid="43967" user="railsnail" changeset="6992892" lat="46.7895018" lon="12.6222149"/>
  <node id="370229346" version="2" timestamp="2009-06-14T18:17:29Z" uid="43967" user="railsnail" changeset="1517544" lat="46.789852" lon="12.6228144"/>
  <node id="370229348" version="2" timestamp="2009-06-14T18:17:29Z" uid="43967" user="railsnail" changeset="1517544" lat="46.7907688" lon="12.6236555"/>
  <node id="370229354" version="2" timestamp="2011-01-16T19:55:04Z" uid="43967" user="railsnail" changeset="6992892" lat="46.7946751" lon="12.6281446"/>
  <node id="370229358" version="2" timestamp="2011-01-16T19:55:44Z" uid="43967" user="railsnail" changeset="6992892" lat="46.7950571" lon="12.6289814"/>
  <node id="370229452" version="2" timestamp="2009-06-14T18:24:25Z" uid="43967" user="railsnail" changeset="1517544" lat="46.7980787" lon="12.6192353"/>
  <node id="370229454" version="2" timestamp="2009-06-14T18:24:25Z" uid="43967" user="railsnail" changeset="1517544" lat="46.7979847" lon="12.6188748"/>
  <node id="370229455" version="2" timestamp="2009-06-14T18:24:25Z" uid="43967" user="railsnail" changeset="1517544" lat="46.7977085" lon="12.6185315"/>
  <node id="370229457" version="2" timestamp="2009-06-14T18:24:26Z" uid="43967" user="railsnail" changeset="1517544" lat="46.7975675" lon="12.6184113"/>
  <node id="370229458" version="2" timestamp="2009-06-14T18:24:26Z" uid="43967" user="railsnail" changeset="1517544" lat="46.797497" lon="12.6178963"/>
  <node id="370229460" version="2" timestamp="2009-06-14T18:24:26Z" uid="43967" user="railsnail" changeset="1517544" lat="46.7973853" lon="12.6175873"/>
  <node id="370229461" version="2" timestamp="2009-06-14T18:24:26Z" uid="43967" user="railsnail" changeset="1517544" lat="46.7972208" lon="12.6171582"/>
  <node id="370229463" version="2" timestamp="2009-06-14T18:24:26Z" uid="43967" user="railsnail" changeset="1517544" lat="46.7971797" lon="12.6167977"/>
  <node id="370229469" version="2" timestamp="2009-06-14T18:25:50Z" uid="43967" user="railsnail" changeset="1517544" lat="46.797826" lon="12.6164715"/>
  <node id="370229470" version="2" timestamp="2009-06-14T18:25:51Z" uid="43967" user="railsnail" changeset="1517544" lat="46.7980552" lon="12.6168749"/>
  <node id="370229535" version="2" timestamp="2009-06-14T18:23:02Z" uid="43967" user="railsnail" changeset="1517544" lat="46.809764" lon="12.615413"/>
  <node id="370229563" version="2" timestamp="2009-06-14T18:21:02Z" uid="43967" user="railsnail" changeset="1517544" lat="46.8140759" lon="12.6095192"/>
  <node id="370229564" version="2" timestamp="2009-06-14T18:21:02Z" uid="43967" user="railsnail" changeset="1517544" lat="46.8143931" lon="12.6098025"/>
  <node id="370229598" version="2" timestamp="2009-07-06T13:55:40Z" uid="43967" user="railsnail" changeset="1752956" lat="46.814671" lon="12.6160901"/>
  <node id="370229599" version="2" timestamp="2009-07-06T13:55:40Z" uid="43967" user="railsnail" changeset="1752956" lat="46.8145183" lon="12.6164335"/>
  <node id="370229601" version="2" timestamp="2009-07-06T13:55:25Z" uid="43967" user="railsnail" changeset="1752956" lat="46.8140131" lon="12.617266"/>
  <node id="370229690" version="2" timestamp="2009-06-22T06:32:05Z" uid="43967" user="railsnail" changeset="1590482" lat="46.8393523" lon="12.6095819"/>
  <node id="370229691" version="2" timestamp="2009-06-22T06:32:06Z" uid="43967" user="railsnail" changeset="1590482" lat="46.8393758" lon="12.6101141"/>
  <node id="370229692" version="2" timestamp="2009-06-22T06:32:06Z" uid="43967" user="railsnail" changeset="1590482" lat="46.839276" lon="12.6103029"/>
  <node id="370229693" version="2" timestamp="2009-06-22T06:32:06Z" uid="43967" user="railsnail" changeset="1590482" lat="46.8391292" lon="12.6108951"/>
  <node id="370229694" version="2" timestamp="2009-06-22T06:32:06Z" uid="43967" user="railsnail" changeset="1590482" lat="46.8388533" lon="12.6110925"/>
  <node id="370229695" version="2" timestamp="2009-06-22T06:32:06Z" uid="43967" user="railsnail" changeset="1590482" lat="46.8386243" lon="12.611496"/>
  <node id="370229696" version="2" timestamp="2009-06-22T06:32:06Z" uid="43967" user="railsnail" changeset="1590482" lat="46.8384364" lon="12.6119251"/>
  <node id="370229732" version="2" timestamp="2009-06-22T06:45:39Z" uid="43967" user="railsnail" changeset="1590482" lat="46.832655" lon="12.619207"/>
  <node id="370229742" version="2" timestamp="2009-06-22T06:45:39Z" uid="43967" user="railsnail" changeset="1590482" lat="46.832065" lon="12.62078"/>
  <node id="370229746" version="2" timestamp="2009-06-22T06:45:35Z" uid="43967" user="railsnail" changeset="1590482" lat="46.8312201" lon="12.6214266"/>
  <node id="370229747" version="2" timestamp="2009-06-22T06:45:35Z" uid="43967" user="railsnail" changeset="1590482" lat="46.8309558" lon="12.6221647"/>
  <node id="370229748" version="2" timestamp="2009-06-22T06:45:39Z" uid="43967" user="railsnail" changeset="1590482" lat="46.83113" lon="12.622173"/>
  <node id="370229749" version="2" timestamp="2009-06-22T06:45:39Z" uid="43967" user="railsnail" changeset="1590482" lat="46.831125" lon="12.62233"/>
  <node id="370229750" version="2" timestamp="2009-06-22T06:45:39Z" uid="43967" user="railsnail" changeset="1590482" lat="46.831122" lon="12.622408"/>
  <node id="370229751" version="2" timestamp="2009-06-22T06:45:39Z" uid="43967" user="railsnail" changeset="1590482" lat="46.831056" lon="12.622797"/>
  <node id="370229752" version="2" timestamp="2009-06-22T06:45:39Z" uid="43967" user="railsnail" changeset="1590482" lat="46.831104" lon="12.622997"/>
  <node id="370229753" version="2" timestamp="2009-06-22T06:45:36Z" uid="43967" user="railsnail" changeset="1590482" lat="46.8308501" lon="12.6227827"/>
</osm>
