<?xml version='1.0' encoding='UTF-8'?>
<osm version="0.6" generator="libosmium/2.20.0">
  <node id="371371522" version="2" timestamp="2009-05-31T17:10:10Z" uid="20587" user="balrog-kun" changeset="1371225" lat="52.1753892" lon="20.8813518">
    <tag k="created_by" v="Merkaartor 0.13"/>
    <tag k="railway" v="level_crossing"/>
  </node>
  <node id="371371717" version="2" timestamp="2009-05-31T17:10:11Z" uid="20587" user="balrog-kun" changeset="1371225" lat="52.1754817" lon="20.8817035">
    <tag k="created_by" v="Merkaartor 0.13"/>
    <tag k="name" v="Michałowice"/>
    <tag k="railway" v="halt"/>
  </node>
  <node id="371371717" version="3" timestamp="2009-06-05T14:12:57Z" uid="20587" user="balrog-kun" changeset="1429641" lat="52.1754817" lon="20.8817035">
    <tag k="created_by" v="Merkaartor 0.13"/>
    <tag k="name" v="Michałowice"/>
    <tag k="railway" v="halt"/>
    <tag k="wikipedia" v="pl:Michałowice (przystanek kolejowy)"/>
  </node>
  <node id="371378503" version="6" timestamp="2009-09-12T02:35:24Z" uid="36809" user="pfoten_weg_!_" changeset="2453290" lat="46.5051899" lon="11.4295385"/>
  <node id="371378551" version="5" timestamp="2009-06-11T17:45:33Z" uid="9581" user="Lobelt" changeset="1489652" lat="49.4826504" lon="8.2573774"/>
</osm>
