<?xml version='1.0' encoding='UTF-8'?>
<osm version="0.6" generator="libosmium/2.20.0">
  <node id="372581481" version="3" timestamp="2010-11-20T19:46:10Z" uid="9581" user="Lobelt" changeset="6417384" lat="49.6647434" lon="8.6556953"/>
  <node id="372582980" version="2" timestamp="2009-12-08T05:26:40Z" uid="200463" user="harmagedon" changeset="3321904" lat="48.2558025" lon="13.0798863">
    <tag k="name" v="UW St. Peter"/>
    <tag k="operator" v="Verbund"/>
    <tag k="power" v="station"/>
  </node>
  <node id="372582980" version="3" timestamp="2009-12-08T06:49:16Z" uid="200463" user="harmagedon" changeset="3322149" lat="48.2558025" lon="13.0798863">
    <tag k="name" v="UW St. Peter"/>
    <tag k="operator" v="Verbund"/>
    <tag k="power" v="station"/>
  </node>
  <node id="372585735" version="2" timestamp="2009-04-15T05:46:51Z" uid="6975" user="ulfl" changeset="553994" lat="42.2571285" lon="2.3794046">
    <tag k="ele" v="870"/>
    <tag k="mountain_pass" v="yes"/>
    <tag k="name" v="Coll de Capsacosta"/>
  </node>
  <node id="372589746" version="6" timestamp="2009-05-27T01:23:14Z" uid="36809" user="pfoten_weg_!_" changeset="1330413" lat="48.0136367" lon="11.3771854"/>
</osm>
