<?xml version='1.0' encoding='UTF-8'?>
<osm version="0.6" generator="libosmium/2.20.0">
  <node id="374767569" version="1" timestamp="2009-04-14T00:47:56Z" uid="20587" user="balrog-kun" changeset="511475" lat="52.0407468" lon="20.9976428">
    <tag k="is_in" v="piaseczyński,mazowieckie,Poland"/>
    <tag k="name" v="Jazgarzew"/>
    <tag k="place" v="village"/>
  </node>
  <node id="374767569" version="2" timestamp="2009-04-14T11:18:16Z" uid="20587" user="balrog-kun" changeset="513194" lat="52.0407468" lon="20.9976428">
    <tag k="is_in" v="piaseczyński,mazowieckie,Poland"/>
    <tag k="name" v="Jazgarzew"/>
    <tag k="place" v="village"/>
  </node>
  <node id="374767580" version="1" timestamp="2009-04-14T00:47:56Z" uid="20587" user="balrog-kun" changeset="511475" lat="52.0352079" lon="21.0085956">
    <tag k="created_by" v="JOSM"/>
    <tag k="is_in" v="Piaseczno,piaseczyński,mazowieckie,Poland"/>
    <tag k="name" v="Wólka Kozodawska"/>
    <tag k="place" v="village"/>
  </node>
  <node id="374767580" version="5" timestamp="2009-05-01T13:15:01Z" uid="20587" user="balrog-kun" changeset="1036297" lat="52.0352079" lon="21.0085956">
    <tag k="addr:postcode" v="05-502"/>
    <tag k="created_by" v="JOSM"/>
    <tag k="is_in" v="gmina Piaseczno, powiat piaseczyński, województwo mazowieckie, Poland"/>
    <tag k="is_in:country" v="Poland"/>
    <tag k="is_in:county" v="powiat piaseczyński"/>
    <tag k="is_in:municipality" v="gmina Piaseczno"/>
    <tag k="is_in:province" v="województwo mazowieckie"/>
    <tag k="name" v="Wólka Kozodawska"/>
    <tag k="place" v="village"/>
    <tag k="population" v="896"/>
    <tag k="source:population" v="wikipedia"/>
    <tag k="teryt:rm" v="01"/>
    <tag k="teryt:simc" v="0006557"/>
    <tag k="teryt:stan_na" v="2009-01-01"/>
    <tag k="teryt:terc" v="1418045"/>
    <tag k="teryt:updated_by" v="teryt2osm combine.py v. 43:44M"/>
    <tag k="wikipedia" v="pl:Wólka Kozodawska"/>
  </node>
  <node id="374767580" version="6" timestamp="2009-10-28T16:24:39Z" uid="20587" user="balrog-kun" changeset="2974473" lat="52.0362645" lon="21.0101989">
    <tag k="addr:postcode" v="05-502"/>
    <tag k="is_in" v="gmina Piaseczno, powiat piaseczyński, województwo mazowieckie, Poland"/>
    <tag k="is_in:country" v="Poland"/>
    <tag k="is_in:county" v="powiat piaseczyński"/>
    <tag k="is_in:municipality" v="gmina Piaseczno"/>
    <tag k="is_in:province" v="województwo mazowieckie"/>
    <tag k="name" v="Wólka Kozodawska"/>
    <tag k="place" v="village"/>
    <tag k="population" v="896"/>
    <tag k="source:population" v="wikipedia"/>
    <tag k="teryt:rm" v="01"/>
    <tag k="teryt:simc" v="0006557"/>
    <tag k="teryt:stan_na" v="2009-01-01"/>
    <tag k="teryt:terc" v="1418045"/>
    <tag k="teryt:updated_by" v="teryt2osm combine.py v. 43:44M"/>
    <tag k="wikipedia" v="pl:Wólka Kozodawska"/>
  </node>
  <node id="374767580" version="7" timestamp="2010-04-11T04:46:46Z" uid="20587" user="balrog-kun" changeset="4389130" lat="52.0370042" lon="21.0113212">
    <tag k="addr:postcode" v="05-502"/>
    <tag k="is_in" v="gmina Piaseczno, powiat piaseczyński, województwo mazowieckie, Poland"/>
    <tag k="is_in:country" v="Poland"/>
    <tag k="is_in:county" v="powiat piaseczyński"/>
    <tag k="is_in:municipality" v="gmina Piaseczno"/>
    <tag k="is_in:province" v="województwo mazowieckie"/>
    <tag k="name" v="Wólka Kozodawska"/>
    <tag k="place" v="village"/>
    <tag k="population" v="896"/>
    <tag k="source:population" v="wikipedia"/>
    <tag k="teryt:rm" v="01"/>
    <tag k="teryt:simc" v="0006557"/>
    <tag k="teryt:stan_na" v="2009-01-01"/>
    <tag k="teryt:terc" v="1418045"/>
    <tag k="teryt:updated_by" v="teryt2osm combine.py v. 43:44M"/>
    <tag k="wikipedia" v="pl:Wólka Kozodawska"/>
  </node>
</osm>
