<?xml version='1.0' encoding='UTF-8'?>
<osm version="0.6" generator="libosmium/2.20.0">
  <node id="376344299" version="1" timestamp="2009-04-15T10:06:50Z" uid="20587" user="balrog-kun" changeset="551593" lat="52.211574" lon="20.9711025">
    <tag k="addr:city" v="Warszawa@Warszawa Ochota"/>
    <tag k="addr:housenumber" v="1"/>
    <tag k="addr:street" v="Mątwicka"/>
    <tag k="source" v="http://ump.waw.pl/ retrieved 11:07:14 02/24/09 (UMP-Warszawa/src/WARSZAWA_OCHOTA.ulice.txt)"/>
  </node>
  <node id="376344300" version="1" timestamp="2009-04-15T10:06:50Z" uid="20587" user="balrog-kun" changeset="551593" lat="52.2113934" lon="20.9715709">
    <tag k="addr:city" v="Warszawa@Warszawa Ochota"/>
    <tag k="addr:housenumber" v="15"/>
    <tag k="addr:street" v="Białobrzeska"/>
    <tag k="source" v="http://ump.waw.pl/ retrieved 11:07:14 02/24/09 (UMP-Warszawa/src/WARSZAWA_OCHOTA.ulice.txt)"/>
  </node>
  <node id="376344302" version="1" timestamp="2009-04-15T10:06:50Z" uid="20587" user="balrog-kun" changeset="551593" lat="52.2077587" lon="20.9759463">
    <tag k="addr:city" v="Warszawa@Warszawa Ochota"/>
    <tag k="addr:housenumber" v="3"/>
    <tag k="addr:street" v="Skorochód-Majewskiego"/>
    <tag k="source" v="http://ump.waw.pl/ retrieved 11:07:14 02/24/09 (UMP-Warszawa/src/WARSZAWA_OCHOTA.ulice.txt)"/>
  </node>
  <node id="376344303" version="1" timestamp="2009-04-15T10:06:51Z" uid="20587" user="balrog-kun" changeset="551593" lat="52.2099135" lon="20.9693015">
    <tag k="addr:city" v="Warszawa@Warszawa Ochota"/>
    <tag k="addr:housenumber" v="21"/>
    <tag k="addr:street" v="Opaczewska"/>
    <tag k="source" v="http://ump.waw.pl/ retrieved 11:07:14 02/24/09 (UMP-Warszawa/src/WARSZAWA_OCHOTA.ulice.txt)"/>
  </node>
  <node id="376344305" version="1" timestamp="2009-04-15T10:06:51Z" uid="20587" user="balrog-kun" changeset="551593" lat="52.2111143" lon="20.9736889">
    <tag k="addr:city" v="Warszawa@Warszawa Ochota"/>
    <tag k="addr:housenumber" v="5"/>
    <tag k="addr:street" v="Dunajecka"/>
    <tag k="source" v="http://ump.waw.pl/ retrieved 11:07:14 02/24/09 (UMP-Warszawa/src/WARSZAWA_OCHOTA.ulice.txt)"/>
  </node>
  <node id="376344306" version="1" timestamp="2009-04-15T10:06:51Z" uid="20587" user="balrog-kun" changeset="551593" lat="52.2157014" lon="20.9707586">
    <tag k="addr:city" v="Warszawa@Warszawa Ochota"/>
    <tag k="addr:housenumber" v="27"/>
    <tag k="addr:street" v="Szczęśliwicka"/>
    <tag k="source" v="http://ump.waw.pl/ retrieved 11:07:14 02/24/09 (UMP-Warszawa/src/WARSZAWA_OCHOTA.ulice.txt)"/>
  </node>
  <node id="376344308" version="1" timestamp="2009-04-15T10:06:51Z" uid="20587" user="balrog-kun" changeset="551593" lat="52.2074259" lon="20.9767866">
    <tag k="addr:city" v="Warszawa@Warszawa Ochota"/>
    <tag k="addr:housenumber" v="4"/>
    <tag k="addr:street" v="Siemieńskiego"/>
    <tag k="source" v="http://ump.waw.pl/ retrieved 11:07:14 02/24/09 (UMP-Warszawa/src/WARSZAWA_OCHOTA.ulice.txt)"/>
  </node>
  <node id="376344309" version="1" timestamp="2009-04-15T10:06:51Z" uid="20587" user="balrog-kun" changeset="551593" lat="52.2016336" lon="20.9730792">
    <tag k="addr:city" v="Warszawa@Warszawa Ochota"/>
    <tag k="addr:housenumber" v="28"/>
    <tag k="addr:street" v="Korotyńskiego"/>
    <tag k="source" v="http://ump.waw.pl/ retrieved 11:07:14 02/24/09 (UMP-Warszawa/src/WARSZAWA_OCHOTA.ulice.txt)"/>
  </node>
  <node id="376344311" version="1" timestamp="2009-04-15T10:06:51Z" uid="20587" user="balrog-kun" changeset="551593" lat="52.2125102" lon="20.9664922">
    <tag k="addr:city" v="Warszawa@Warszawa Ochota"/>
    <tag k="addr:housenumber" v="60"/>
    <tag k="addr:street" v="Szczęśliwicka"/>
    <tag k="source" v="http://ump.waw.pl/ retrieved 11:07:14 02/24/09 (UMP-Warszawa/src/WARSZAWA_OCHOTA.ulice.txt)"/>
  </node>
  <node id="376344312" version="1" timestamp="2009-04-15T10:06:52Z" uid="20587" user="balrog-kun" changeset="551593" lat="52.2115586" lon="20.9668779">
    <tag k="addr:city" v="Warszawa@Warszawa Ochota"/>
    <tag k="addr:housenumber" v="45"/>
    <tag k="addr:street" v="Szczęśliwicka"/>
    <tag k="source" v="http://ump.waw.pl/ retrieved 11:07:14 02/24/09 (UMP-Warszawa/src/WARSZAWA_OCHOTA.ulice.txt)"/>
  </node>
  <node id="376344314" version="1" timestamp="2009-04-15T10:06:52Z" uid="20587" user="balrog-kun" changeset="551593" lat="52.2071545" lon="20.9692125">
    <tag k="addr:city" v="Warszawa@Warszawa Ochota"/>
    <tag k="addr:housenumber" v="18"/>
    <tag k="addr:street" v="Bobrowskiego"/>
    <tag k="source" v="http://ump.waw.pl/ retrieved 11:07:14 02/24/09 (UMP-Warszawa/src/WARSZAWA_OCHOTA.ulice.txt)"/>
  </node>
  <node id="376344315" version="1" timestamp="2009-04-15T10:06:52Z" uid="20587" user="balrog-kun" changeset="551593" lat="52.209328" lon="20.9666866">
    <tag k="addr:city" v="Warszawa@Warszawa Ochota"/>
    <tag k="addr:housenumber" v="27"/>
    <tag k="addr:street" v="Trzech Budrysów"/>
    <tag k="source" v="http://ump.waw.pl/ retrieved 11:07:14 02/24/09 (UMP-Warszawa/src/WARSZAWA_OCHOTA.ulice.txt)"/>
  </node>
  <node id="376344317" version="1" timestamp="2009-04-15T10:06:52Z" uid="20587" user="balrog-kun" changeset="551593" lat="52.2075078" lon="20.9658656">
    <tag k="addr:city" v="Warszawa@Warszawa Ochota"/>
    <tag k="addr:housenumber" v="25"/>
    <tag k="addr:street" v="Dickensa"/>
    <tag k="source" v="http://ump.waw.pl/ retrieved 11:07:14 02/24/09 (UMP-Warszawa/src/WARSZAWA_OCHOTA.ulice.txt)"/>
  </node>
  <node id="376344317" version="3" timestamp="2010-12-04T04:20:13Z" uid="20587" user="balrog-kun" changeset="6534205" lat="52.2073472" lon="20.9656856">
    <tag k="addr:city" v="Warszawa@Warszawa Ochota"/>
    <tag k="addr:housenumber" v="25"/>
    <tag k="addr:street" v="Dickensa"/>
    <tag k="source" v="http://ump.waw.pl/ retrieved 11:07:14 02/24/09 (UMP-Warszawa/src/WARSZAWA_OCHOTA.ulice.txt)"/>
  </node>
  <node id="376344318" version="1" timestamp="2009-04-15T10:06:52Z" uid="20587" user="balrog-kun" changeset="551593" lat="52.2174355" lon="20.9738661">
    <tag k="addr:city" v="Warszawa@Warszawa Ochota"/>
    <tag k="addr:housenumber" v="35"/>
    <tag k="addr:street" v="Kopińska"/>
    <tag k="source" v="http://ump.waw.pl/ retrieved 11:07:14 02/24/09 (UMP-Warszawa/src/WARSZAWA_OCHOTA.ulice.txt)"/>
  </node>
  <node id="376344320" version="1" timestamp="2009-04-15T10:06:52Z" uid="20587" user="balrog-kun" changeset="551593" lat="52.2158408" lon="20.9752235">
    <tag k="addr:city" v="Warszawa@Warszawa Ochota"/>
    <tag k="addr:housenumber" v="29"/>
    <tag k="addr:street" v="Białobrzeska"/>
    <tag k="source" v="http://ump.waw.pl/ retrieved 11:07:14 02/24/09 (UMP-Warszawa/src/WARSZAWA_OCHOTA.ulice.txt)"/>
  </node>
  <node id="376344321" version="1" timestamp="2009-04-15T10:06:53Z" uid="20587" user="balrog-kun" changeset="551593" lat="52.2112333" lon="20.9690858">
    <tag k="addr:city" v="Warszawa@Warszawa Ochota"/>
    <tag k="addr:housenumber" v="12"/>
    <tag k="addr:street" v="Orzeszkowej"/>
    <tag k="source" v="http://ump.waw.pl/ retrieved 11:07:14 02/24/09 (UMP-Warszawa/src/WARSZAWA_OCHOTA.ulice.txt)"/>
  </node>
  <node id="376344323" version="1" timestamp="2009-04-15T10:06:53Z" uid="20587" user="balrog-kun" changeset="551593" lat="52.203089" lon="20.9775184">
    <tag k="addr:city" v="Warszawa@Warszawa Ochota"/>
    <tag k="addr:housenumber" v="3"/>
    <tag k="addr:street" v="Wiślicka"/>
    <tag k="source" v="http://ump.waw.pl/ retrieved 11:07:14 02/24/09 (UMP-Warszawa/src/WARSZAWA_OCHOTA.ulice.txt)"/>
  </node>
  <node id="376344324" version="1" timestamp="2009-04-15T10:06:53Z" uid="20587" user="balrog-kun" changeset="551593" lat="52.2058349" lon="20.9726593">
    <tag k="addr:city" v="Warszawa@Warszawa Ochota"/>
    <tag k="addr:housenumber" v="109"/>
    <tag k="addr:street" v="Grójecka"/>
    <tag k="source" v="http://ump.waw.pl/ retrieved 11:07:14 02/24/09 (UMP-Warszawa/src/WARSZAWA_OCHOTA.ulice.txt)"/>
  </node>
  <node id="376344325" version="1" timestamp="2009-04-15T10:06:53Z" uid="20587" user="balrog-kun" changeset="551593" lat="52.2063324" lon="20.967634">
    <tag k="addr:city" v="Warszawa@Warszawa Ochota"/>
    <tag k="addr:housenumber" v="10"/>
    <tag k="addr:street" v="Urbanistów"/>
    <tag k="source" v="http://ump.waw.pl/ retrieved 11:07:14 02/24/09 (UMP-Warszawa/src/WARSZAWA_OCHOTA.ulice.txt)"/>
  </node>
  <node id="376344327" version="1" timestamp="2009-04-15T10:06:53Z" uid="20587" user="balrog-kun" changeset="551593" lat="52.2076746" lon="20.967421">
    <tag k="addr:city" v="Warszawa@Warszawa Ochota"/>
    <tag k="addr:housenumber" v="35"/>
    <tag k="addr:street" v="Trzech Budrysów"/>
    <tag k="source" v="http://ump.waw.pl/ retrieved 11:07:14 02/24/09 (UMP-Warszawa/src/WARSZAWA_OCHOTA.ulice.txt)"/>
  </node>
  <node id="376344328" version="1" timestamp="2009-04-15T10:06:53Z" uid="20587" user="balrog-kun" changeset="551593" lat="52.2034692" lon="20.9756807">
    <tag k="addr:city" v="Warszawa@Warszawa Ochota"/>
    <tag k="addr:housenumber" v="29"/>
    <tag k="addr:street" v="Pawińskiego"/>
    <tag k="source" v="http://ump.waw.pl/ retrieved 11:07:14 02/24/09 (UMP-Warszawa/src/WARSZAWA_OCHOTA.ulice.txt)"/>
  </node>
  <node id="376344330" version="1" timestamp="2009-04-15T10:06:53Z" uid="20587" user="balrog-kun" changeset="551593" lat="52.2089663" lon="20.9653131">
    <tag k="addr:city" v="Warszawa@Warszawa Ochota"/>
    <tag k="addr:housenumber" v="23"/>
    <tag k="addr:street" v="Trzech Budrysów"/>
    <tag k="source" v="http://ump.waw.pl/ retrieved 11:07:14 02/24/09 (UMP-Warszawa/src/WARSZAWA_OCHOTA.ulice.txt)"/>
  </node>
  <node id="376344331" version="1" timestamp="2009-04-15T10:06:54Z" uid="20587" user="balrog-kun" changeset="551593" lat="52.2024035" lon="20.9708313">
    <tag k="addr:city" v="Warszawa@Warszawa Ochota"/>
    <tag k="addr:housenumber" v="40"/>
    <tag k="addr:street" v="Skorochód-Majewskiego"/>
    <tag k="source" v="http://ump.waw.pl/ retrieved 11:07:14 02/24/09 (UMP-Warszawa/src/WARSZAWA_OCHOTA.ulice.txt)"/>
  </node>
  <node id="376344333" version="1" timestamp="2009-04-15T10:06:54Z" uid="20587" user="balrog-kun" changeset="551593" lat="52.2099178" lon="20.9641775">
    <tag k="addr:city" v="Warszawa@Warszawa Ochota"/>
    <tag k="addr:housenumber" v="70"/>
    <tag k="addr:street" v="Szczęśliwicka"/>
    <tag k="source" v="http://ump.waw.pl/ retrieved 11:07:14 02/24/09 (UMP-Warszawa/src/WARSZAWA_OCHOTA.ulice.txt)"/>
  </node>
  <node id="376344334" version="1" timestamp="2009-04-15T10:06:54Z" uid="20587" user="balrog-kun" changeset="551593" lat="52.2067326" lon="20.9672643">
    <tag k="addr:city" v="Warszawa@Warszawa Ochota"/>
    <tag k="addr:housenumber" v="1"/>
    <tag k="addr:street" v="Urbanistów"/>
    <tag k="source" v="http://ump.waw.pl/ retrieved 11:07:14 02/24/09 (UMP-Warszawa/src/WARSZAWA_OCHOTA.ulice.txt)"/>
  </node>
  <node id="376344334" version="2" timestamp="2010-12-04T04:20:11Z" uid="20587" user="balrog-kun" changeset="6534205" lat="52.2067326" lon="20.9672643">
    <tag k="addr:city" v="Warszawa@Warszawa Ochota"/>
    <tag k="addr:housenumber" v="1"/>
    <tag k="addr:street" v="Urbanistów"/>
    <tag k="source" v="http://ump.waw.pl/ retrieved 11:07:14 02/24/09 (UMP-Warszawa/src/WARSZAWA_OCHOTA.ulice.txt)"/>
  </node>
  <node id="376344335" version="1" timestamp="2009-04-15T10:06:54Z" uid="20587" user="balrog-kun" changeset="551593" lat="52.2075255" lon="20.9781976">
    <tag k="addr:city" v="Warszawa@Warszawa Ochota"/>
    <tag k="addr:housenumber" v="8"/>
    <tag k="addr:street" v="Pawińskiego"/>
    <tag k="source" v="http://ump.waw.pl/ retrieved 11:07:14 02/24/09 (UMP-Warszawa/src/WARSZAWA_OCHOTA.ulice.txt)"/>
  </node>
  <node id="376344337" version="1" timestamp="2009-04-15T10:06:54Z" uid="20587" user="balrog-kun" changeset="551593" lat="52.2116333" lon="20.9691774">
    <tag k="addr:city" v="Warszawa@Warszawa Ochota"/>
    <tag k="addr:housenumber" v="8"/>
    <tag k="addr:street" v="Orzeszkowej"/>
    <tag k="source" v="http://ump.waw.pl/ retrieved 11:07:14 02/24/09 (UMP-Warszawa/src/WARSZAWA_OCHOTA.ulice.txt)"/>
  </node>
  <node id="376344338" version="1" timestamp="2009-04-15T10:06:54Z" uid="20587" user="balrog-kun" changeset="551593" lat="52.2164825" lon="20.9715757">
    <tag k="addr:city" v="Warszawa@Warszawa Ochota"/>
    <tag k="addr:housenumber" v="23"/>
    <tag k="addr:street" v="Szczęśliwicka"/>
    <tag k="source" v="http://ump.waw.pl/ retrieved 11:07:14 02/24/09 (UMP-Warszawa/src/WARSZAWA_OCHOTA.ulice.txt)"/>
  </node>
  <node id="376344340" version="1" timestamp="2009-04-15T10:06:54Z" uid="20587" user="balrog-kun" changeset="551593" lat="52.2037718" lon="20.9762774">
    <tag k="addr:city" v="Warszawa@Warszawa Ochota"/>
    <tag k="addr:housenumber" v="7"/>
    <tag k="addr:street" v="Wiślicka"/>
    <tag k="source" v="http://ump.waw.pl/ retrieved 11:07:14 02/24/09 (UMP-Warszawa/src/WARSZAWA_OCHOTA.ulice.txt)"/>
  </node>
  <node id="376344341" version="1" timestamp="2009-04-15T10:06:54Z" uid="20587" user="balrog-kun" changeset="551593" lat="52.2110571" lon="20.9690466">
    <tag k="addr:city" v="Warszawa@Warszawa Ochota"/>
    <tag k="addr:housenumber" v="14"/>
    <tag k="addr:street" v="Orzeszkowej"/>
    <tag k="source" v="http://ump.waw.pl/ retrieved 11:07:14 02/24/09 (UMP-Warszawa/src/WARSZAWA_OCHOTA.ulice.txt)"/>
  </node>
  <node id="376344343" version="1" timestamp="2009-04-15T10:06:55Z" uid="20587" user="balrog-kun" changeset="551593" lat="52.2082534" lon="20.9769917">
    <tag k="addr:city" v="Warszawa@Warszawa Ochota"/>
    <tag k="addr:housenumber" v="7"/>
    <tag k="addr:street" v="Archiwalna"/>
    <tag k="source" v="http://ump.waw.pl/ retrieved 11:07:14 02/24/09 (UMP-Warszawa/src/WARSZAWA_OCHOTA.ulice.txt)"/>
  </node>
  <node id="376344344" version="1" timestamp="2009-04-15T10:06:55Z" uid="20587" user="balrog-kun" changeset="551593" lat="52.2170562" lon="20.9762864">
    <tag k="addr:city" v="Warszawa@Warszawa Ochota"/>
    <tag k="addr:housenumber" v="39"/>
    <tag k="addr:street" v="Białobrzeska"/>
    <tag k="source" v="http://ump.waw.pl/ retrieved 11:07:14 02/24/09 (UMP-Warszawa/src/WARSZAWA_OCHOTA.ulice.txt)"/>
  </node>
  <node id="376344346" version="1" timestamp="2009-04-15T10:06:55Z" uid="20587" user="balrog-kun" changeset="551593" lat="52.2107823" lon="20.9689744">
    <tag k="addr:city" v="Warszawa@Warszawa Ochota"/>
    <tag k="addr:housenumber" v="16"/>
    <tag k="addr:street" v="Orzeszkowej"/>
    <tag k="source" v="http://ump.waw.pl/ retrieved 11:07:14 02/24/09 (UMP-Warszawa/src/WARSZAWA_OCHOTA.ulice.txt)"/>
  </node>
  <node id="376344347" version="1" timestamp="2009-04-15T10:06:55Z" uid="20587" user="balrog-kun" changeset="551593" lat="52.2034296" lon="20.9772434">
    <tag k="addr:city" v="Warszawa@Warszawa Ochota"/>
    <tag k="addr:housenumber" v="5"/>
    <tag k="addr:street" v="Wiślicka"/>
    <tag k="source" v="http://ump.waw.pl/ retrieved 11:07:14 02/24/09 (UMP-Warszawa/src/WARSZAWA_OCHOTA.ulice.txt)"/>
  </node>
  <node id="376344349" version="1" timestamp="2009-04-15T10:06:55Z" uid="20587" user="balrog-kun" changeset="551593" lat="52.2178815" lon="20.9736969">
    <tag k="addr:city" v="Warszawa@Warszawa Ochota"/>
    <tag k="addr:housenumber" v="38"/>
    <tag k="addr:street" v="Kopińska"/>
    <tag k="source" v="http://ump.waw.pl/ retrieved 11:07:14 02/24/09 (UMP-Warszawa/src/WARSZAWA_OCHOTA.ulice.txt)"/>
  </node>
  <node id="376344350" version="1" timestamp="2009-04-15T10:06:56Z" uid="20587" user="balrog-kun" changeset="551593" lat="52.2027575" lon="20.9733477">
    <tag k="addr:city" v="Warszawa@Warszawa Ochota"/>
    <tag k="addr:housenumber" v="21"/>
    <tag k="addr:street" v="Siemieńskiego"/>
    <tag k="source" v="http://ump.waw.pl/ retrieved 11:07:14 02/24/09 (UMP-Warszawa/src/WARSZAWA_OCHOTA.ulice.txt)"/>
  </node>
  <node id="376344352" version="1" timestamp="2009-04-15T10:06:56Z" uid="20587" user="balrog-kun" changeset="551593" lat="52.2108509" lon="20.9685953">
    <tag k="addr:city" v="Warszawa@Warszawa Ochota"/>
    <tag k="addr:housenumber" v="13"/>
    <tag k="addr:street" v="Piotrkowska"/>
    <tag k="source" v="http://ump.waw.pl/ retrieved 11:07:14 02/24/09 (UMP-Warszawa/src/WARSZAWA_OCHOTA.ulice.txt)"/>
  </node>
  <node id="376344353" version="1" timestamp="2009-04-15T10:06:56Z" uid="20587" user="balrog-kun" changeset="551593" lat="52.2187216" lon="20.9749824">
    <tag k="addr:city" v="Warszawa@Warszawa Ochota"/>
    <tag k="addr:housenumber" v="4"/>
    <tag k="addr:street" v="Grzymały"/>
    <tag k="source" v="http://ump.waw.pl/ retrieved 11:07:14 02/24/09 (UMP-Warszawa/src/WARSZAWA_OCHOTA.ulice.txt)"/>
  </node>
  <node id="376344354" version="1" timestamp="2009-04-15T10:06:56Z" uid="20587" user="balrog-kun" changeset="551593" lat="52.2070024" lon="20.9714916">
    <tag k="addr:city" v="Warszawa@Warszawa Ochota"/>
    <tag k="addr:housenumber" v="17"/>
    <tag k="addr:street" v="Skarżyńskiego"/>
    <tag k="source" v="http://ump.waw.pl/ retrieved 11:07:14 02/24/09 (UMP-Warszawa/src/WARSZAWA_OCHOTA.ulice.txt)"/>
  </node>
  <node id="376344356" version="1" timestamp="2009-04-15T10:06:56Z" uid="20587" user="balrog-kun" changeset="551593" lat="52.210032" lon="20.9701602">
    <tag k="addr:city" v="Warszawa@Warszawa Ochota"/>
    <tag k="addr:housenumber" v="19"/>
    <tag k="addr:street" v="Opaczewska"/>
    <tag k="source" v="http://ump.waw.pl/ retrieved 11:07:14 02/24/09 (UMP-Warszawa/src/WARSZAWA_OCHOTA.ulice.txt)"/>
  </node>
  <node id="376344357" version="1" timestamp="2009-04-15T10:06:56Z" uid="20587" user="balrog-kun" changeset="551593" lat="52.2192073" lon="20.9741211">
    <tag k="addr:city" v="Warszawa@Warszawa Ochota"/>
    <tag k="addr:housenumber" v="38"/>
    <tag k="addr:street" v="Barska"/>
    <tag k="source" v="http://ump.waw.pl/ retrieved 11:07:14 02/24/09 (UMP-Warszawa/src/WARSZAWA_OCHOTA.ulice.txt)"/>
  </node>
  <node id="376344359" version="1" timestamp="2009-04-15T10:06:56Z" uid="20587" user="balrog-kun" changeset="551593" lat="52.2177757" lon="20.9757692">
    <tag k="addr:city" v="Warszawa@Warszawa Ochota"/>
    <tag k="addr:housenumber" v="20"/>
    <tag k="addr:street" v="Kopińska"/>
    <tag k="source" v="http://ump.waw.pl/ retrieved 11:07:14 02/24/09 (UMP-Warszawa/src/WARSZAWA_OCHOTA.ulice.txt)"/>
  </node>
  <node id="376344360" version="1" timestamp="2009-04-15T10:06:57Z" uid="20587" user="balrog-kun" changeset="551593" lat="52.2170869" lon="20.979786">
    <tag k="addr:city" v="Warszawa@Warszawa Ochota"/>
    <tag k="addr:housenumber" v="10"/>
    <tag k="addr:street" v="Kopińska"/>
    <tag k="source" v="http://ump.waw.pl/ retrieved 11:07:14 02/24/09 (UMP-Warszawa/src/WARSZAWA_OCHOTA.ulice.txt)"/>
  </node>
  <node id="376344362" version="1" timestamp="2009-04-15T10:06:57Z" uid="20587" user="balrog-kun" changeset="551593" lat="52.2129301" lon="20.9724059">
    <tag k="addr:city" v="Warszawa@Warszawa Ochota"/>
    <tag k="addr:housenumber" v="8"/>
    <tag k="addr:street" v="Bitwy Warszawskiej 1920 roku"/>
    <tag k="source" v="http://ump.waw.pl/ retrieved 11:07:14 02/24/09 (UMP-Warszawa/src/WARSZAWA_OCHOTA.ulice.txt)"/>
  </node>
  <node id="376344363" version="1" timestamp="2009-04-15T10:06:57Z" uid="20587" user="balrog-kun" changeset="551593" lat="52.2056621" lon="20.975306">
    <tag k="addr:city" v="Warszawa@Warszawa Ochota"/>
    <tag k="addr:housenumber" v="8"/>
    <tag k="addr:street" v="Siemieńskiego"/>
    <tag k="source" v="http://ump.waw.pl/ retrieved 11:07:14 02/24/09 (UMP-Warszawa/src/WARSZAWA_OCHOTA.ulice.txt)"/>
  </node>
  <node id="376344365" version="1" timestamp="2009-04-15T10:06:57Z" uid="20587" user="balrog-kun" changeset="551593" lat="52.2028429" lon="20.9699929">
    <tag k="addr:city" v="Warszawa@Warszawa Ochota"/>
    <tag k="addr:housenumber" v="119"/>
    <tag k="addr:street" v="Grójecka"/>
    <tag k="source" v="http://ump.waw.pl/ retrieved 11:07:14 02/24/09 (UMP-Warszawa/src/WARSZAWA_OCHOTA.ulice.txt)"/>
  </node>
  <node id="376344366" version="1" timestamp="2009-04-15T10:06:57Z" uid="20587" user="balrog-kun" changeset="551593" lat="52.2096906" lon="20.9738066">
    <tag k="addr:city" v="Warszawa@Warszawa Ochota"/>
    <tag k="addr:housenumber" v="1"/>
    <tag k="addr:street" v="Skarżyńskiego"/>
    <tag k="source" v="http://ump.waw.pl/ retrieved 11:07:14 02/24/09 (UMP-Warszawa/src/WARSZAWA_OCHOTA.ulice.txt)"/>
  </node>
  <node id="376344367" version="1" timestamp="2009-04-15T10:06:57Z" uid="20587" user="balrog-kun" changeset="551593" lat="52.2050899" lon="20.9770189">
    <tag k="addr:city" v="Warszawa@Warszawa Ochota"/>
    <tag k="addr:housenumber" v="17"/>
    <tag k="addr:street" v="Pawińskiego"/>
    <tag k="source" v="http://ump.waw.pl/ retrieved 11:07:14 02/24/09 (UMP-Warszawa/src/WARSZAWA_OCHOTA.ulice.txt)"/>
  </node>
  <node id="376344369" version="1" timestamp="2009-04-15T10:06:58Z" uid="20587" user="balrog-kun" changeset="551593" lat="52.2039405" lon="20.9717527">
    <tag k="addr:city" v="Warszawa@Warszawa Ochota"/>
    <tag k="addr:housenumber" v="30"/>
    <tag k="addr:street" v="Skorochód-Majewskiego"/>
    <tag k="source" v="http://ump.waw.pl/ retrieved 11:07:14 02/24/09 (UMP-Warszawa/src/WARSZAWA_OCHOTA.ulice.txt)"/>
  </node>
  <node id="376344371" version="1" timestamp="2009-04-15T10:06:58Z" uid="20587" user="balrog-kun" changeset="551593" lat="52.2059018" lon="20.9768046">
    <tag k="addr:city" v="Warszawa@Warszawa Ochota"/>
    <tag k="addr:housenumber" v="14"/>
    <tag k="addr:street" v="Pawińskiego"/>
    <tag k="source" v="http://ump.waw.pl/ retrieved 11:07:14 02/24/09 (UMP-Warszawa/src/WARSZAWA_OCHOTA.ulice.txt)"/>
  </node>
  <node id="376344373" version="1" timestamp="2009-04-15T10:06:58Z" uid="20587" user="balrog-kun" changeset="551593" lat="52.2018219" lon="20.9724044">
    <tag k="addr:city" v="Warszawa@Warszawa Ochota"/>
    <tag k="addr:housenumber" v="30"/>
    <tag k="addr:street" v="Korotyńskiego"/>
    <tag k="source" v="http://ump.waw.pl/ retrieved 11:07:14 02/24/09 (UMP-Warszawa/src/WARSZAWA_OCHOTA.ulice.txt)"/>
  </node>
  <node id="376344374" version="1" timestamp="2009-04-15T10:06:58Z" uid="20587" user="balrog-kun" changeset="551593" lat="52.2105939" lon="20.9689039">
    <tag k="addr:city" v="Warszawa@Warszawa Ochota"/>
    <tag k="addr:housenumber" v="26"/>
    <tag k="addr:street" v="Opaczewska"/>
    <tag k="source" v="http://ump.waw.pl/ retrieved 11:07:14 02/24/09 (UMP-Warszawa/src/WARSZAWA_OCHOTA.ulice.txt)"/>
  </node>
  <node id="376344376" version="1" timestamp="2009-04-15T10:06:58Z" uid="20587" user="balrog-kun" changeset="551593" lat="52.203191" lon="20.9688527">
    <tag k="addr:city" v="Warszawa@Warszawa Ochota"/>
    <tag k="addr:housenumber" v="130"/>
    <tag k="addr:street" v="Grójecka"/>
    <tag k="source" v="http://ump.waw.pl/ retrieved 11:07:14 02/24/09 (UMP-Warszawa/src/WARSZAWA_OCHOTA.ulice.txt)"/>
  </node>
  <node id="376344376" version="2" timestamp="2010-12-04T04:20:10Z" uid="20587" user="balrog-kun" changeset="6534205" lat="52.203191" lon="20.9688527">
    <tag k="addr:city" v="Warszawa@Warszawa Ochota"/>
    <tag k="addr:housenumber" v="130"/>
    <tag k="addr:street" v="Grójecka"/>
    <tag k="source" v="http://ump.waw.pl/ retrieved 11:07:14 02/24/09 (UMP-Warszawa/src/WARSZAWA_OCHOTA.ulice.txt)"/>
  </node>
  <node id="376344378" version="1" timestamp="2009-04-15T10:06:58Z" uid="20587" user="balrog-kun" changeset="551593" lat="52.2118348" lon="20.9697458">
    <tag k="addr:city" v="Warszawa@Warszawa Ochota"/>
    <tag k="addr:housenumber" v="7"/>
    <tag k="addr:street" v="Orzeszkowej"/>
    <tag k="source" v="http://ump.waw.pl/ retrieved 11:07:14 02/24/09 (UMP-Warszawa/src/WARSZAWA_OCHOTA.ulice.txt)"/>
  </node>
  <node id="376344381" version="1" timestamp="2009-04-15T10:06:59Z" uid="20587" user="balrog-kun" changeset="551593" lat="52.2049229" lon="20.9726572">
    <tag k="addr:city" v="Warszawa@Warszawa Ochota"/>
    <tag k="addr:housenumber" v="22"/>
    <tag k="addr:street" v="Skorochód-Majewskiego"/>
    <tag k="source" v="http://ump.waw.pl/ retrieved 11:07:14 02/24/09 (UMP-Warszawa/src/WARSZAWA_OCHOTA.ulice.txt)"/>
  </node>
  <node id="376344383" version="1" timestamp="2009-04-15T10:06:59Z" uid="20587" user="balrog-kun" changeset="551593" lat="52.2110729" lon="20.9891163">
    <tag k="addr:city" v="Warszawa@Warszawa Ochota"/>
    <tag k="addr:housenumber" v="32"/>
    <tag k="addr:street" v="Żwirki i Wigury"/>
    <tag k="source" v="http://ump.waw.pl/ retrieved 11:07:14 02/24/09 (UMP-Warszawa/src/WARSZAWA_OCHOTA.ulice.txt)"/>
  </node>
  <node id="376344384" version="1" timestamp="2009-04-15T10:06:59Z" uid="20587" user="balrog-kun" changeset="551593" lat="52.2074713" lon="20.9679473">
    <tag k="addr:city" v="Warszawa@Warszawa Ochota"/>
    <tag k="addr:housenumber" v="1"/>
    <tag k="addr:street" v="Białobrzeska"/>
    <tag k="source" v="http://ump.waw.pl/ retrieved 11:07:14 02/24/09 (UMP-Warszawa/src/WARSZAWA_OCHOTA.ulice.txt)"/>
  </node>
  <node id="376344386" version="1" timestamp="2009-04-15T10:06:59Z" uid="20587" user="balrog-kun" changeset="551593" lat="52.2049024" lon="20.970418">
    <tag k="addr:city" v="Warszawa@Warszawa Ochota"/>
    <tag k="addr:housenumber" v="126"/>
    <tag k="addr:street" v="Grójecka"/>
    <tag k="source" v="http://ump.waw.pl/ retrieved 11:07:14 02/24/09 (UMP-Warszawa/src/WARSZAWA_OCHOTA.ulice.txt)"/>
  </node>
  <node id="376344386" version="2" timestamp="2010-12-04T04:20:11Z" uid="20587" user="balrog-kun" changeset="6534205" lat="52.2049024" lon="20.970418">
    <tag k="addr:city" v="Warszawa@Warszawa Ochota"/>
    <tag k="addr:housenumber" v="126"/>
    <tag k="addr:street" v="Grójecka"/>
    <tag k="source" v="http://ump.waw.pl/ retrieved 11:07:14 02/24/09 (UMP-Warszawa/src/WARSZAWA_OCHOTA.ulice.txt)"/>
  </node>
  <node id="376344388" version="1" timestamp="2009-04-15T10:06:59Z" uid="20587" user="balrog-kun" changeset="551593" lat="52.2079454" lon="20.9662436">
    <tag k="addr:city" v="Warszawa@Warszawa Ochota"/>
    <tag k="addr:housenumber" v="32"/>
    <tag k="addr:street" v="Dickensa"/>
    <tag k="source" v="http://ump.waw.pl/ retrieved 11:07:14 02/24/09 (UMP-Warszawa/src/WARSZAWA_OCHOTA.ulice.txt)"/>
  </node>
  <node id="376344390" version="1" timestamp="2009-04-15T10:06:59Z" uid="20587" user="balrog-kun" changeset="551593" lat="52.2111955" lon="20.9680111">
    <tag k="addr:city" v="Warszawa@Warszawa Ochota"/>
    <tag k="addr:housenumber" v="2"/>
    <tag k="addr:street" v="Dobosza"/>
    <tag k="source" v="http://ump.waw.pl/ retrieved 11:07:14 02/24/09 (UMP-Warszawa/src/WARSZAWA_OCHOTA.ulice.txt)"/>
  </node>
  <node id="376344392" version="1" timestamp="2009-04-15T10:06:59Z" uid="20587" user="balrog-kun" changeset="551593" lat="52.2089892" lon="20.9643347">
    <tag k="addr:city" v="Warszawa@Warszawa Ochota"/>
    <tag k="addr:housenumber" v="59"/>
    <tag k="addr:street" v="Szczęśliwicka"/>
    <tag k="source" v="http://ump.waw.pl/ retrieved 11:07:14 02/24/09 (UMP-Warszawa/src/WARSZAWA_OCHOTA.ulice.txt)"/>
  </node>
  <node id="376344393" version="1" timestamp="2009-04-15T10:07:00Z" uid="20587" user="balrog-kun" changeset="551593" lat="52.2083973" lon="20.9764812">
    <tag k="addr:city" v="Warszawa@Warszawa Ochota"/>
    <tag k="addr:housenumber" v="9"/>
    <tag k="addr:street" v="Archiwalna"/>
    <tag k="source" v="http://ump.waw.pl/ retrieved 11:07:14 02/24/09 (UMP-Warszawa/src/WARSZAWA_OCHOTA.ulice.txt)"/>
  </node>
  <node id="376344396" version="1" timestamp="2009-04-15T10:07:00Z" uid="20587" user="balrog-kun" changeset="551593" lat="52.2092096" lon="20.9629005">
    <tag k="addr:city" v="Warszawa@Warszawa Ochota"/>
    <tag k="addr:housenumber" v="2"/>
    <tag k="addr:street" v="Bohaterów Września"/>
    <tag k="source" v="http://ump.waw.pl/ retrieved 11:07:14 02/24/09 (UMP-Warszawa/src/WARSZAWA_OCHOTA.ulice.txt)"/>
  </node>
  <node id="376344398" version="1" timestamp="2009-04-15T10:07:00Z" uid="20587" user="balrog-kun" changeset="551593" lat="52.210398" lon="20.9669404">
    <tag k="addr:city" v="Warszawa@Warszawa Ochota"/>
    <tag k="addr:housenumber" v="32"/>
    <tag k="addr:street" v="Opaczewska"/>
    <tag k="source" v="http://ump.waw.pl/ retrieved 11:07:14 02/24/09 (UMP-Warszawa/src/WARSZAWA_OCHOTA.ulice.txt)"/>
  </node>
  <node id="376344400" version="1" timestamp="2009-04-15T10:07:00Z" uid="20587" user="balrog-kun" changeset="551593" lat="52.2107573" lon="20.9678833">
    <tag k="addr:city" v="Warszawa@Warszawa Ochota"/>
    <tag k="addr:housenumber" v="1"/>
    <tag k="addr:street" v="Dobosza"/>
    <tag k="source" v="http://ump.waw.pl/ retrieved 11:07:14 02/24/09 (UMP-Warszawa/src/WARSZAWA_OCHOTA.ulice.txt)"/>
  </node>
  <node id="376344402" version="1" timestamp="2009-04-15T10:07:00Z" uid="20587" user="balrog-kun" changeset="551593" lat="52.2089575" lon="20.9788862">
    <tag k="addr:city" v="Warszawa@Warszawa Ochota"/>
    <tag k="addr:housenumber" v="2"/>
    <tag k="addr:street" v="Hankiewicza"/>
    <tag k="source" v="http://ump.waw.pl/ retrieved 11:07:14 02/24/09 (UMP-Warszawa/src/WARSZAWA_OCHOTA.ulice.txt)"/>
  </node>
  <node id="376344404" version="1" timestamp="2009-04-15T10:07:01Z" uid="20587" user="balrog-kun" changeset="551593" lat="52.2180881" lon="20.9719379">
    <tag k="addr:city" v="Warszawa@Warszawa Ochota"/>
    <tag k="addr:housenumber" v="36"/>
    <tag k="addr:street" v="Szczęśliwicka"/>
    <tag k="source" v="http://ump.waw.pl/ retrieved 11:07:14 02/24/09 (UMP-Warszawa/src/WARSZAWA_OCHOTA.ulice.txt)"/>
  </node>
  <node id="376344406" version="1" timestamp="2009-04-15T10:07:01Z" uid="20587" user="balrog-kun" changeset="551593" lat="52.2167841" lon="20.9807034">
    <tag k="addr:city" v="Warszawa@Warszawa Ochota"/>
    <tag k="addr:housenumber" v="2"/>
    <tag k="addr:street" v="Kopińska"/>
    <tag k="source" v="http://ump.waw.pl/ retrieved 11:07:14 02/24/09 (UMP-Warszawa/src/WARSZAWA_OCHOTA.ulice.txt)"/>
  </node>
  <node id="376344408" version="1" timestamp="2009-04-15T10:07:01Z" uid="20587" user="balrog-kun" changeset="551593" lat="52.2045608" lon="20.9750135">
    <tag k="addr:city" v="Warszawa@Warszawa Ochota"/>
    <tag k="addr:housenumber" v="13"/>
    <tag k="addr:street" v="Siemieńskiego"/>
    <tag k="source" v="http://ump.waw.pl/ retrieved 11:07:14 02/24/09 (UMP-Warszawa/src/WARSZAWA_OCHOTA.ulice.txt)"/>
  </node>
  <node id="376344410" version="1" timestamp="2009-04-15T10:07:01Z" uid="20587" user="balrog-kun" changeset="551593" lat="52.2063898" lon="20.971706">
    <tag k="addr:city" v="Warszawa@Warszawa Ochota"/>
    <tag k="addr:housenumber" v="14"/>
    <tag k="addr:street" v="Dickensa"/>
    <tag k="source" v="http://ump.waw.pl/ retrieved 11:07:14 02/24/09 (UMP-Warszawa/src/WARSZAWA_OCHOTA.ulice.txt)"/>
  </node>
  <node id="376344412" version="1" timestamp="2009-04-15T10:07:01Z" uid="20587" user="balrog-kun" changeset="551593" lat="52.2107615" lon="20.9623272">
    <tag k="addr:city" v="Warszawa@Warszawa Ochota"/>
    <tag k="addr:housenumber" v="6"/>
    <tag k="addr:street" v="Bohaterów Września"/>
    <tag k="source" v="http://ump.waw.pl/ retrieved 11:07:14 02/24/09 (UMP-Warszawa/src/WARSZAWA_OCHOTA.ulice.txt)"/>
  </node>
  <node id="376344414" version="1" timestamp="2009-04-15T10:07:01Z" uid="20587" user="balrog-kun" changeset="551593" lat="52.2112321" lon="20.9665572">
    <tag k="addr:city" v="Warszawa@Warszawa Ochota"/>
    <tag k="addr:housenumber" v="12"/>
    <tag k="addr:street" v="Dobosza"/>
    <tag k="source" v="http://ump.waw.pl/ retrieved 11:07:14 02/24/09 (UMP-Warszawa/src/WARSZAWA_OCHOTA.ulice.txt)"/>
  </node>
  <node id="376344416" version="1" timestamp="2009-04-15T10:07:02Z" uid="20587" user="balrog-kun" changeset="551593" lat="52.217922" lon="20.9730413">
    <tag k="addr:city" v="Warszawa@Warszawa Ochota"/>
    <tag k="addr:housenumber" v="42"/>
    <tag k="addr:street" v="Kopińska"/>
    <tag k="source" v="http://ump.waw.pl/ retrieved 11:07:14 02/24/09 (UMP-Warszawa/src/WARSZAWA_OCHOTA.ulice.txt)"/>
  </node>
  <node id="376344417" version="1" timestamp="2009-04-15T10:07:02Z" uid="20587" user="balrog-kun" changeset="551593" lat="52.2094235" lon="20.9677525">
    <tag k="addr:city" v="Warszawa@Warszawa Ochota"/>
    <tag k="addr:housenumber" v="31"/>
    <tag k="addr:street" v="Trzech Budrysów"/>
    <tag k="source" v="http://ump.waw.pl/ retrieved 11:07:14 02/24/09 (UMP-Warszawa/src/WARSZAWA_OCHOTA.ulice.txt)"/>
  </node>
  <node id="376344419" version="1" timestamp="2009-04-15T10:07:02Z" uid="20587" user="balrog-kun" changeset="551593" lat="52.210619" lon="20.9655956">
    <tag k="addr:city" v="Warszawa@Warszawa Ochota"/>
    <tag k="addr:housenumber" v="51"/>
    <tag k="addr:street" v="Szczęśliwicka"/>
    <tag k="source" v="http://ump.waw.pl/ retrieved 11:07:14 02/24/09 (UMP-Warszawa/src/WARSZAWA_OCHOTA.ulice.txt)"/>
  </node>
  <node id="376344421" version="1" timestamp="2009-04-15T10:07:02Z" uid="20587" user="balrog-kun" changeset="551593" lat="52.2056694" lon="20.9732642">
    <tag k="addr:city" v="Warszawa@Warszawa Ochota"/>
    <tag k="addr:housenumber" v="18"/>
    <tag k="addr:street" v="Skorochód-Majewskiego"/>
    <tag k="source" v="http://ump.waw.pl/ retrieved 11:07:14 02/24/09 (UMP-Warszawa/src/WARSZAWA_OCHOTA.ulice.txt)"/>
  </node>
  <node id="376344423" version="1" timestamp="2009-04-15T10:07:02Z" uid="20587" user="balrog-kun" changeset="551593" lat="52.2096773" lon="20.9798877">
    <tag k="addr:city" v="Warszawa@Warszawa Ochota"/>
    <tag k="addr:housenumber" v="2"/>
    <tag k="addr:street" v="Pawińskiego"/>
    <tag k="source" v="http://ump.waw.pl/ retrieved 11:07:14 02/24/09 (UMP-Warszawa/src/WARSZAWA_OCHOTA.ulice.txt)"/>
  </node>
  <node id="376344425" version="1" timestamp="2009-04-15T10:07:02Z" uid="20587" user="balrog-kun" changeset="551593" lat="52.2112951" lon="20.9706706">
    <tag k="addr:city" v="Warszawa@Warszawa Ochota"/>
    <tag k="addr:housenumber" v="8"/>
    <tag k="addr:street" v="Mątwicka"/>
    <tag k="source" v="http://ump.waw.pl/ retrieved 11:07:14 02/24/09 (UMP-Warszawa/src/WARSZAWA_OCHOTA.ulice.txt)"/>
  </node>
  <node id="376344427" version="1" timestamp="2009-04-15T10:07:02Z" uid="20587" user="balrog-kun" changeset="551593" lat="52.2053243" lon="20.972604">
    <tag k="addr:city" v="Warszawa@Warszawa Ochota"/>
    <tag k="addr:housenumber" v="7"/>
    <tag k="addr:street" v="Dickensa"/>
    <tag k="source" v="http://ump.waw.pl/ retrieved 11:07:14 02/24/09 (UMP-Warszawa/src/WARSZAWA_OCHOTA.ulice.txt)"/>
  </node>
  <node id="376344429" version="1" timestamp="2009-04-15T10:07:03Z" uid="20587" user="balrog-kun" changeset="551593" lat="52.2076495" lon="20.9812099">
    <tag k="addr:city" v="Warszawa@Warszawa Ochota"/>
    <tag k="addr:housenumber" v="7"/>
    <tag k="addr:street" v="Pawińskiego"/>
    <tag k="source" v="http://ump.waw.pl/ retrieved 11:07:14 02/24/09 (UMP-Warszawa/src/WARSZAWA_OCHOTA.ulice.txt)"/>
  </node>
  <node id="376344431" version="1" timestamp="2009-04-15T10:07:03Z" uid="20587" user="balrog-kun" changeset="551593" lat="52.2098103" lon="20.9699786">
    <tag k="addr:city" v="Warszawa@Warszawa Ochota"/>
    <tag k="addr:housenumber" v="11"/>
    <tag k="addr:street" v="Białobrzeska"/>
    <tag k="source" v="http://ump.waw.pl/ retrieved 11:07:14 02/24/09 (UMP-Warszawa/src/WARSZAWA_OCHOTA.ulice.txt)"/>
  </node>
  <node id="376344433" version="1" timestamp="2009-04-15T10:07:03Z" uid="20587" user="balrog-kun" changeset="551593" lat="52.2093252" lon="20.9646227">
    <tag k="addr:city" v="Warszawa@Warszawa Ochota"/>
    <tag k="addr:housenumber" v="57"/>
    <tag k="addr:street" v="Szczęśliwicka"/>
    <tag k="source" v="http://ump.waw.pl/ retrieved 11:07:14 02/24/09 (UMP-Warszawa/src/WARSZAWA_OCHOTA.ulice.txt)"/>
  </node>
  <node id="376344434" version="1" timestamp="2009-04-15T10:07:03Z" uid="20587" user="balrog-kun" changeset="551593" lat="52.2049848" lon="20.9740927">
    <tag k="addr:city" v="Warszawa@Warszawa Ochota"/>
    <tag k="addr:housenumber" v="5"/>
    <tag k="addr:street" v="Dickensa"/>
    <tag k="source" v="http://ump.waw.pl/ retrieved 11:07:14 02/24/09 (UMP-Warszawa/src/WARSZAWA_OCHOTA.ulice.txt)"/>
  </node>
  <node id="376344436" version="1" timestamp="2009-04-15T10:07:03Z" uid="20587" user="balrog-kun" changeset="551593" lat="52.2040612" lon="20.9751091">
    <tag k="addr:city" v="Warszawa@Warszawa Ochota"/>
    <tag k="addr:housenumber" v="24"/>
    <tag k="addr:street" v="Pawińskiego"/>
    <tag k="source" v="http://ump.waw.pl/ retrieved 11:07:14 02/24/09 (UMP-Warszawa/src/WARSZAWA_OCHOTA.ulice.txt)"/>
  </node>
  <node id="376344438" version="1" timestamp="2009-04-15T10:07:03Z" uid="20587" user="balrog-kun" changeset="551593" lat="52.2084715" lon="20.9648862">
    <tag k="addr:city" v="Warszawa@Warszawa Ochota"/>
    <tag k="addr:housenumber" v="21"/>
    <tag k="addr:street" v="Trzech Budrysów"/>
    <tag k="source" v="http://ump.waw.pl/ retrieved 11:07:14 02/24/09 (UMP-Warszawa/src/WARSZAWA_OCHOTA.ulice.txt)"/>
  </node>
  <node id="376344440" version="1" timestamp="2009-04-15T10:07:04Z" uid="20587" user="balrog-kun" changeset="551593" lat="52.2029297" lon="20.9784378">
    <tag k="addr:city" v="Warszawa@Warszawa Ochota"/>
    <tag k="addr:housenumber" v="6"/>
    <tag k="addr:street" v="Wiślicka"/>
    <tag k="source" v="http://ump.waw.pl/ retrieved 11:07:14 02/24/09 (UMP-Warszawa/src/WARSZAWA_OCHOTA.ulice.txt)"/>
  </node>
  <node id="376344440" version="2" timestamp="2010-06-23T02:27:13Z" uid="20587" user="balrog-kun" changeset="5056010" lat="52.2029297" lon="20.9784378">
    <tag k="addr:city" v="Warszawa@Warszawa Ochota"/>
    <tag k="addr:housenumber" v="6"/>
    <tag k="addr:street" v="Wiślicka"/>
    <tag k="source" v="http://ump.waw.pl/ retrieved 11:07:14 02/24/09 (UMP-Warszawa/src/WARSZAWA_OCHOTA.ulice.txt)"/>
  </node>
  <node id="376344442" version="1" timestamp="2009-04-15T10:07:04Z" uid="20587" user="balrog-kun" changeset="551593" lat="52.2049756" lon="20.9760323">
    <tag k="addr:city" v="Warszawa@Warszawa Ochota"/>
    <tag k="addr:housenumber" v="18"/>
    <tag k="addr:street" v="Pawińskiego"/>
    <tag k="source" v="http://ump.waw.pl/ retrieved 11:07:14 02/24/09 (UMP-Warszawa/src/WARSZAWA_OCHOTA.ulice.txt)"/>
  </node>
  <node id="376344444" version="1" timestamp="2009-04-15T10:07:04Z" uid="20587" user="balrog-kun" changeset="551593" lat="52.2095705" lon="20.9731636">
    <tag k="addr:city" v="Warszawa@Warszawa Ochota"/>
    <tag k="addr:housenumber" v="2"/>
    <tag k="addr:street" v="Skarżyńskiego"/>
    <tag k="source" v="http://ump.waw.pl/ retrieved 11:07:14 02/24/09 (UMP-Warszawa/src/WARSZAWA_OCHOTA.ulice.txt)"/>
  </node>
  <node id="376344446" version="1" timestamp="2009-04-15T10:07:04Z" uid="20587" user="balrog-kun" changeset="551593" lat="52.2098814" lon="20.9615458">
    <tag k="addr:city" v="Warszawa@Warszawa Ochota"/>
    <tag k="addr:housenumber" v="43"/>
    <tag k="addr:street" v="Opaczewska"/>
    <tag k="source" v="http://ump.waw.pl/ retrieved 11:07:14 02/24/09 (UMP-Warszawa/src/WARSZAWA_OCHOTA.ulice.txt)"/>
  </node>
  <node id="376344448" version="1" timestamp="2009-04-15T10:07:04Z" uid="20587" user="balrog-kun" changeset="551593" lat="52.2016192" lon="20.9776154">
    <tag k="addr:city" v="Warszawa@Warszawa Ochota"/>
    <tag k="addr:housenumber" v="19"/>
    <tag k="addr:street" v="Pruszkowska"/>
    <tag k="source" v="http://ump.waw.pl/ retrieved 11:07:14 02/24/09 (UMP-Warszawa/src/WARSZAWA_OCHOTA.ulice.txt)"/>
  </node>
  <node id="376344450" version="1" timestamp="2009-04-15T10:07:04Z" uid="20587" user="balrog-kun" changeset="551593" lat="52.2027108" lon="20.9720018">
    <tag k="addr:city" v="Warszawa@Warszawa Ochota"/>
    <tag k="addr:housenumber" v="17"/>
    <tag k="addr:street" v="Skorochód-Majewskiego"/>
    <tag k="source" v="http://ump.waw.pl/ retrieved 11:07:14 02/24/09 (UMP-Warszawa/src/WARSZAWA_OCHOTA.ulice.txt)"/>
  </node>
  <node id="376344452" version="1" timestamp="2009-04-15T10:07:05Z" uid="20587" user="balrog-kun" changeset="551593" lat="52.2163062" lon="20.9704907">
    <tag k="addr:city" v="Warszawa@Warszawa Ochota"/>
    <tag k="addr:housenumber" v="46"/>
    <tag k="addr:street" v="Szczęśliwicka"/>
    <tag k="source" v="http://ump.waw.pl/ retrieved 11:07:14 02/24/09 (UMP-Warszawa/src/WARSZAWA_OCHOTA.ulice.txt)"/>
  </node>
  <node id="376344454" version="1" timestamp="2009-04-15T10:07:05Z" uid="20587" user="balrog-kun" changeset="551593" lat="52.2112785" lon="20.9710697">
    <tag k="addr:city" v="Warszawa@Warszawa Ochota"/>
    <tag k="addr:housenumber" v="9"/>
    <tag k="addr:street" v="Mątwicka"/>
    <tag k="source" v="http://ump.waw.pl/ retrieved 11:07:14 02/24/09 (UMP-Warszawa/src/WARSZAWA_OCHOTA.ulice.txt)"/>
  </node>
  <node id="376344456" version="1" timestamp="2009-04-15T10:07:05Z" uid="20587" user="balrog-kun" changeset="551593" lat="52.2095899" lon="20.9649785">
    <tag k="addr:city" v="Warszawa@Warszawa Ochota"/>
    <tag k="addr:housenumber" v="31"/>
    <tag k="addr:street" v="Opaczewska"/>
    <tag k="source" v="http://ump.waw.pl/ retrieved 11:07:14 02/24/09 (UMP-Warszawa/src/WARSZAWA_OCHOTA.ulice.txt)"/>
  </node>
  <node id="376344458" version="1" timestamp="2009-04-15T10:07:05Z" uid="20587" user="balrog-kun" changeset="551593" lat="52.2105548" lon="20.9685064">
    <tag k="addr:city" v="Warszawa@Warszawa Ochota"/>
    <tag k="addr:housenumber" v="28"/>
    <tag k="addr:street" v="Opaczewska"/>
    <tag k="source" v="http://ump.waw.pl/ retrieved 11:07:14 02/24/09 (UMP-Warszawa/src/WARSZAWA_OCHOTA.ulice.txt)"/>
  </node>
  <node id="376344460" version="1" timestamp="2009-04-15T10:07:05Z" uid="20587" user="balrog-kun" changeset="551593" lat="52.2067047" lon="20.9644981">
    <tag k="addr:city" v="Warszawa@Warszawa Ochota"/>
    <tag k="addr:housenumber" v="29"/>
    <tag k="addr:street" v="Dickensa"/>
    <tag k="source" v="http://ump.waw.pl/ retrieved 11:07:14 02/24/09 (UMP-Warszawa/src/WARSZAWA_OCHOTA.ulice.txt)"/>
  </node>
  <node id="376344460" version="2" timestamp="2010-12-04T04:20:12Z" uid="20587" user="balrog-kun" changeset="6534205" lat="52.2067047" lon="20.9644981">
    <tag k="addr:city" v="Warszawa@Warszawa Ochota"/>
    <tag k="addr:housenumber" v="29"/>
    <tag k="addr:street" v="Dickensa"/>
    <tag k="source" v="http://ump.waw.pl/ retrieved 11:07:14 02/24/09 (UMP-Warszawa/src/WARSZAWA_OCHOTA.ulice.txt)"/>
  </node>
  <node id="376344462" version="1" timestamp="2009-04-15T10:07:05Z" uid="20587" user="balrog-kun" changeset="551593" lat="52.2108132" lon="20.9661346">
    <tag k="addr:city" v="Warszawa@Warszawa Ochota"/>
    <tag k="addr:housenumber" v="7"/>
    <tag k="addr:street" v="Dobosza"/>
    <tag k="source" v="http://ump.waw.pl/ retrieved 11:07:14 02/24/09 (UMP-Warszawa/src/WARSZAWA_OCHOTA.ulice.txt)"/>
  </node>
  <node id="376344463" version="1" timestamp="2009-04-15T10:07:05Z" uid="20587" user="balrog-kun" changeset="551593" lat="52.2103901" lon="20.965856">
    <tag k="addr:city" v="Warszawa@Warszawa Ochota"/>
    <tag k="addr:housenumber" v="40"/>
    <tag k="addr:street" v="Opaczewska"/>
    <tag k="source" v="http://ump.waw.pl/ retrieved 11:07:14 02/24/09 (UMP-Warszawa/src/WARSZAWA_OCHOTA.ulice.txt)"/>
  </node>
  <node id="376344466" version="1" timestamp="2009-04-15T10:07:06Z" uid="20587" user="balrog-kun" changeset="551593" lat="52.2070635" lon="20.9878392">
    <tag k="addr:city" v="Warszawa@Warszawa Ochota"/>
    <tag k="addr:housenumber" v="26"/>
    <tag k="addr:street" v="Żwirki i Wigury"/>
    <tag k="source" v="http://ump.waw.pl/ retrieved 11:07:14 02/24/09 (UMP-Warszawa/src/WARSZAWA_OCHOTA.ulice.txt)"/>
  </node>
  <node id="376344467" version="1" timestamp="2009-04-15T10:07:06Z" uid="20587" user="balrog-kun" changeset="551593" lat="52.2165582" lon="20.9707427">
    <tag k="addr:city" v="Warszawa@Warszawa Ochota"/>
    <tag k="addr:housenumber" v="42"/>
    <tag k="addr:street" v="Szczęśliwicka"/>
    <tag k="source" v="http://ump.waw.pl/ retrieved 11:07:14 02/24/09 (UMP-Warszawa/src/WARSZAWA_OCHOTA.ulice.txt)"/>
  </node>
  <node id="376344470" version="1" timestamp="2009-04-15T10:07:06Z" uid="20587" user="balrog-kun" changeset="551593" lat="52.2041614" lon="20.9729359">
    <tag k="addr:city" v="Warszawa@Warszawa Ochota"/>
    <tag k="addr:housenumber" v="15"/>
    <tag k="addr:street" v="Skorochód-Majewskiego"/>
    <tag k="source" v="http://ump.waw.pl/ retrieved 11:07:14 02/24/09 (UMP-Warszawa/src/WARSZAWA_OCHOTA.ulice.txt)"/>
  </node>
  <node id="376344471" version="1" timestamp="2009-04-15T10:07:06Z" uid="20587" user="balrog-kun" changeset="551593" lat="52.2047725" lon="20.9756464">
    <tag k="addr:city" v="Warszawa@Warszawa Ochota"/>
    <tag k="addr:housenumber" v="2"/>
    <tag k="addr:street" v="Dickensa"/>
    <tag k="source" v="http://ump.waw.pl/ retrieved 11:07:14 02/24/09 (UMP-Warszawa/src/WARSZAWA_OCHOTA.ulice.txt)"/>
  </node>
  <node id="376344473" version="1" timestamp="2009-04-15T10:07:06Z" uid="20587" user="balrog-kun" changeset="551593" lat="52.2020349" lon="20.9716233">
    <tag k="addr:city" v="Warszawa@Warszawa Ochota"/>
    <tag k="addr:housenumber" v="32"/>
    <tag k="addr:street" v="Korotyńskiego"/>
    <tag k="source" v="http://ump.waw.pl/ retrieved 11:07:14 02/24/09 (UMP-Warszawa/src/WARSZAWA_OCHOTA.ulice.txt)"/>
  </node>
  <node id="376344475" version="1" timestamp="2009-04-15T10:07:06Z" uid="20587" user="balrog-kun" changeset="551593" lat="52.2116371" lon="20.968796">
    <tag k="addr:city" v="Warszawa@Warszawa Ochota"/>
    <tag k="addr:housenumber" v="3"/>
    <tag k="addr:street" v="Piotrkowska"/>
    <tag k="source" v="http://ump.waw.pl/ retrieved 11:07:14 02/24/09 (UMP-Warszawa/src/WARSZAWA_OCHOTA.ulice.txt)"/>
  </node>
  <node id="376344477" version="1" timestamp="2009-04-15T10:07:07Z" uid="20587" user="balrog-kun" changeset="551593" lat="52.2021506" lon="20.9784263">
    <tag k="addr:city" v="Warszawa@Warszawa Ochota"/>
    <tag k="addr:housenumber" v="2"/>
    <tag k="addr:street" v="Wiślicka"/>
    <tag k="source" v="http://ump.waw.pl/ retrieved 11:07:14 02/24/09 (UMP-Warszawa/src/WARSZAWA_OCHOTA.ulice.txt)"/>
  </node>
  <node id="376344477" version="2" timestamp="2010-06-23T02:27:14Z" uid="20587" user="balrog-kun" changeset="5056010" lat="52.2021506" lon="20.9784263">
    <tag k="addr:city" v="Warszawa@Warszawa Ochota"/>
    <tag k="addr:housenumber" v="2"/>
    <tag k="addr:street" v="Wiślicka"/>
    <tag k="source" v="http://ump.waw.pl/ retrieved 11:07:14 02/24/09 (UMP-Warszawa/src/WARSZAWA_OCHOTA.ulice.txt)"/>
  </node>
  <node id="376344478" version="1" timestamp="2009-04-15T10:07:07Z" uid="20587" user="balrog-kun" changeset="551593" lat="52.2172266" lon="20.9714605">
    <tag k="addr:city" v="Warszawa@Warszawa Ochota"/>
    <tag k="addr:housenumber" v="40"/>
    <tag k="addr:street" v="Szczęśliwicka"/>
    <tag k="source" v="http://ump.waw.pl/ retrieved 11:07:14 02/24/09 (UMP-Warszawa/src/WARSZAWA_OCHOTA.ulice.txt)"/>
  </node>
  <node id="376344481" version="1" timestamp="2009-04-15T10:07:07Z" uid="20587" user="balrog-kun" changeset="551593" lat="52.2057822" lon="20.9742061">
    <tag k="addr:city" v="Warszawa@Warszawa Ochota"/>
    <tag k="addr:housenumber" v="9"/>
    <tag k="addr:street" v="Skorochód-Majewskiego"/>
    <tag k="source" v="http://ump.waw.pl/ retrieved 11:07:14 02/24/09 (UMP-Warszawa/src/WARSZAWA_OCHOTA.ulice.txt)"/>
  </node>
  <node id="376344482" version="1" timestamp="2009-04-15T10:07:07Z" uid="20587" user="balrog-kun" changeset="551593" lat="52.2024869" lon="20.9702463">
    <tag k="addr:city" v="Warszawa@Warszawa Ochota"/>
    <tag k="addr:housenumber" v="34"/>
    <tag k="addr:street" v="Korotyńskiego"/>
    <tag k="source" v="http://ump.waw.pl/ retrieved 11:07:14 02/24/09 (UMP-Warszawa/src/WARSZAWA_OCHOTA.ulice.txt)"/>
  </node>
  <node id="376344485" version="1" timestamp="2009-04-15T10:07:07Z" uid="20587" user="balrog-kun" changeset="551593" lat="52.2161776" lon="20.9755383">
    <tag k="addr:city" v="Warszawa@Warszawa Ochota"/>
    <tag k="addr:housenumber" v="33"/>
    <tag k="addr:street" v="Białobrzeska"/>
    <tag k="source" v="http://ump.waw.pl/ retrieved 11:07:14 02/24/09 (UMP-Warszawa/src/WARSZAWA_OCHOTA.ulice.txt)"/>
  </node>
  <node id="376344486" version="1" timestamp="2009-04-15T10:07:07Z" uid="20587" user="balrog-kun" changeset="551593" lat="52.2085706" lon="20.9644504">
    <tag k="addr:city" v="Warszawa@Warszawa Ochota"/>
    <tag k="addr:housenumber" v="34"/>
    <tag k="addr:street" v="Dickensa"/>
    <tag k="source" v="http://ump.waw.pl/ retrieved 11:07:14 02/24/09 (UMP-Warszawa/src/WARSZAWA_OCHOTA.ulice.txt)"/>
  </node>
  <node id="376344489" version="1" timestamp="2009-04-15T10:07:08Z" uid="20587" user="balrog-kun" changeset="551593" lat="52.2089096" lon="20.9685338">
    <tag k="addr:city" v="Warszawa@Warszawa Ochota"/>
    <tag k="addr:housenumber" v="33"/>
    <tag k="addr:street" v="Trzech Budrysów"/>
    <tag k="source" v="http://ump.waw.pl/ retrieved 11:07:14 02/24/09 (UMP-Warszawa/src/WARSZAWA_OCHOTA.ulice.txt)"/>
  </node>
  <node id="376344490" version="1" timestamp="2009-04-15T10:07:08Z" uid="20587" user="balrog-kun" changeset="551593" lat="52.2088818" lon="20.9800871">
    <tag k="addr:city" v="Warszawa@Warszawa Ochota"/>
    <tag k="addr:housenumber" v="3"/>
    <tag k="addr:street" v="Pawińskiego"/>
    <tag k="source" v="http://ump.waw.pl/ retrieved 11:07:14 02/24/09 (UMP-Warszawa/src/WARSZAWA_OCHOTA.ulice.txt)"/>
  </node>
  <node id="376344492" version="1" timestamp="2009-04-15T10:07:08Z" uid="20587" user="balrog-kun" changeset="551593" lat="52.2077688" lon="20.9782568">
    <tag k="addr:city" v="Warszawa@Warszawa Ochota"/>
    <tag k="addr:housenumber" v="3"/>
    <tag k="addr:street" v="Archiwalna"/>
    <tag k="source" v="http://ump.waw.pl/ retrieved 11:07:14 02/24/09 (UMP-Warszawa/src/WARSZAWA_OCHOTA.ulice.txt)"/>
  </node>
  <node id="376344494" version="1" timestamp="2009-04-15T10:07:08Z" uid="20587" user="balrog-kun" changeset="551593" lat="52.2070925" lon="20.9708971">
    <tag k="addr:city" v="Warszawa@Warszawa Ochota"/>
    <tag k="addr:housenumber" v="12"/>
    <tag k="addr:street" v="Skarżyńskiego"/>
    <tag k="source" v="http://ump.waw.pl/ retrieved 11:07:14 02/24/09 (UMP-Warszawa/src/WARSZAWA_OCHOTA.ulice.txt)"/>
  </node>
  <node id="376344496" version="1" timestamp="2009-04-15T10:07:08Z" uid="20587" user="balrog-kun" changeset="551593" lat="52.2057898" lon="20.9703914">
    <tag k="addr:city" v="Warszawa@Warszawa Ochota"/>
    <tag k="addr:housenumber" v="12"/>
    <tag k="addr:street" v="Geodetów"/>
    <tag k="source" v="http://ump.waw.pl/ retrieved 11:07:14 02/24/09 (UMP-Warszawa/src/WARSZAWA_OCHOTA.ulice.txt)"/>
  </node>
  <node id="376344496" version="2" timestamp="2009-04-15T16:02:33Z" uid="20587" user="balrog-kun" changeset="561631" lat="52.2057898" lon="20.9703914">
    <tag k="addr:city" v="Warszawa@Warszawa Ochota"/>
    <tag k="addr:housenumber" v="12"/>
    <tag k="addr:street" v="Geodetów"/>
    <tag k="source" v="http://ump.waw.pl/ retrieved 11:07:14 02/24/09 (UMP-Warszawa/src/WARSZAWA_OCHOTA.ulice.txt)"/>
  </node>
  <node id="376344498" version="1" timestamp="2009-04-15T10:07:09Z" uid="20587" user="balrog-kun" changeset="551593" lat="52.2115906" lon="20.9707034">
    <tag k="addr:city" v="Warszawa@Warszawa Ochota"/>
    <tag k="addr:housenumber" v="6"/>
    <tag k="addr:street" v="Mątwicka"/>
    <tag k="source" v="http://ump.waw.pl/ retrieved 11:07:14 02/24/09 (UMP-Warszawa/src/WARSZAWA_OCHOTA.ulice.txt)"/>
  </node>
  <node id="376344501" version="1" timestamp="2009-04-15T10:07:09Z" uid="20587" user="balrog-kun" changeset="551593" lat="52.2188118" lon="20.977202">
    <tag k="addr:city" v="Warszawa@Warszawa Ochota"/>
    <tag k="addr:housenumber" v="29"/>
    <tag k="addr:street" v="Barska"/>
    <tag k="source" v="http://ump.waw.pl/ retrieved 11:07:14 02/24/09 (UMP-Warszawa/src/WARSZAWA_OCHOTA.ulice.txt)"/>
  </node>
  <node id="376344502" version="1" timestamp="2009-04-15T10:07:09Z" uid="20587" user="balrog-kun" changeset="551593" lat="52.2169233" lon="20.9719989">
    <tag k="addr:city" v="Warszawa@Warszawa Ochota"/>
    <tag k="addr:housenumber" v="21"/>
    <tag k="addr:street" v="Szczęśliwicka"/>
    <tag k="source" v="http://ump.waw.pl/ retrieved 11:07:14 02/24/09 (UMP-Warszawa/src/WARSZAWA_OCHOTA.ulice.txt)"/>
  </node>
  <node id="376344505" version="1" timestamp="2009-04-15T10:07:09Z" uid="20587" user="balrog-kun" changeset="551593" lat="52.20792" lon="20.9698055">
    <tag k="addr:city" v="Warszawa@Warszawa Ochota"/>
    <tag k="addr:housenumber" v="14"/>
    <tag k="addr:street" v="Bobrowskiego"/>
    <tag k="source" v="http://ump.waw.pl/ retrieved 11:07:14 02/24/09 (UMP-Warszawa/src/WARSZAWA_OCHOTA.ulice.txt)"/>
  </node>
  <node id="376344506" version="1" timestamp="2009-04-15T10:07:09Z" uid="20587" user="balrog-kun" changeset="551593" lat="52.2121584" lon="20.970038">
    <tag k="addr:city" v="Warszawa@Warszawa Ochota"/>
    <tag k="addr:housenumber" v="5"/>
    <tag k="addr:street" v="Orzeszkowej"/>
    <tag k="source" v="http://ump.waw.pl/ retrieved 11:07:14 02/24/09 (UMP-Warszawa/src/WARSZAWA_OCHOTA.ulice.txt)"/>
  </node>
  <node id="376344509" version="1" timestamp="2009-04-15T10:07:10Z" uid="20587" user="balrog-kun" changeset="551593" lat="52.2081254" lon="20.9754665">
    <tag k="addr:city" v="Warszawa@Warszawa Ochota"/>
    <tag k="addr:housenumber" v="4"/>
    <tag k="addr:street" v="Skorochód-Majewskiego"/>
    <tag k="source" v="http://ump.waw.pl/ retrieved 11:07:14 02/24/09 (UMP-Warszawa/src/WARSZAWA_OCHOTA.ulice.txt)"/>
  </node>
  <node id="376344510" version="1" timestamp="2009-04-15T10:07:10Z" uid="20587" user="balrog-kun" changeset="551593" lat="52.2052194" lon="20.9748188">
    <tag k="addr:city" v="Warszawa@Warszawa Ochota"/>
    <tag k="addr:housenumber" v="6"/>
    <tag k="addr:street" v="Dickensa"/>
    <tag k="source" v="http://ump.waw.pl/ retrieved 11:07:14 02/24/09 (UMP-Warszawa/src/WARSZAWA_OCHOTA.ulice.txt)"/>
  </node>
  <node id="376344513" version="1" timestamp="2009-04-15T10:07:10Z" uid="20587" user="balrog-kun" changeset="551593" lat="52.2106859" lon="20.9634838">
    <tag k="addr:city" v="Warszawa@Warszawa Ochota"/>
    <tag k="addr:housenumber" v="31"/>
    <tag k="addr:street" v="Opaczewska"/>
    <tag k="source" v="http://ump.waw.pl/ retrieved 11:07:14 02/24/09 (UMP-Warszawa/src/WARSZAWA_OCHOTA.ulice.txt)"/>
  </node>
  <node id="376344514" version="1" timestamp="2009-04-15T10:07:10Z" uid="20587" user="balrog-kun" changeset="551593" lat="52.2144921" lon="20.9681038">
    <tag k="addr:city" v="Warszawa@Warszawa Ochota"/>
    <tag k="addr:housenumber" v="16"/>
    <tag k="addr:street" v="Bitwy Warszawskiej 1920 roku"/>
    <tag k="source" v="http://ump.waw.pl/ retrieved 11:07:14 02/24/09 (UMP-Warszawa/src/WARSZAWA_OCHOTA.ulice.txt)"/>
  </node>
  <node id="376344516" version="1" timestamp="2009-04-15T10:07:10Z" uid="20587" user="balrog-kun" changeset="551593" lat="52.2096045" lon="20.9666498">
    <tag k="addr:city" v="Warszawa@Warszawa Ochota"/>
    <tag k="addr:housenumber" v="25"/>
    <tag k="addr:street" v="Opaczewska"/>
    <tag k="source" v="http://ump.waw.pl/ retrieved 11:07:14 02/24/09 (UMP-Warszawa/src/WARSZAWA_OCHOTA.ulice.txt)"/>
  </node>
  <node id="376344518" version="1" timestamp="2009-04-15T10:07:10Z" uid="20587" user="balrog-kun" changeset="551593" lat="52.216397" lon="20.9757434">
    <tag k="addr:city" v="Warszawa@Warszawa Ochota"/>
    <tag k="addr:housenumber" v="35"/>
    <tag k="addr:street" v="Białobrzeska"/>
    <tag k="source" v="http://ump.waw.pl/ retrieved 11:07:14 02/24/09 (UMP-Warszawa/src/WARSZAWA_OCHOTA.ulice.txt)"/>
  </node>
  <node id="376344520" version="1" timestamp="2009-04-15T10:07:11Z" uid="20587" user="balrog-kun" changeset="551593" lat="52.2033574" lon="20.9783111">
    <tag k="addr:city" v="Warszawa@Warszawa Ochota"/>
    <tag k="addr:housenumber" v="8"/>
    <tag k="addr:street" v="Wiślicka"/>
    <tag k="source" v="http://ump.waw.pl/ retrieved 11:07:14 02/24/09 (UMP-Warszawa/src/WARSZAWA_OCHOTA.ulice.txt)"/>
  </node>
  <node id="376344520" version="2" timestamp="2010-06-23T02:27:13Z" uid="20587" user="balrog-kun" changeset="5056010" lat="52.2033574" lon="20.9783111">
    <tag k="addr:city" v="Warszawa@Warszawa Ochota"/>
    <tag k="addr:housenumber" v="8"/>
    <tag k="addr:street" v="Wiślicka"/>
    <tag k="source" v="http://ump.waw.pl/ retrieved 11:07:14 02/24/09 (UMP-Warszawa/src/WARSZAWA_OCHOTA.ulice.txt)"/>
  </node>
  <node id="376344523" version="1" timestamp="2009-04-15T10:07:11Z" uid="20587" user="balrog-kun" changeset="551593" lat="52.2111004" lon="20.9624118">
    <tag k="addr:city" v="Warszawa@Warszawa Ochota"/>
    <tag k="addr:housenumber" v="41"/>
    <tag k="addr:street" v="Opaczewska"/>
    <tag k="source" v="http://ump.waw.pl/ retrieved 11:07:14 02/24/09 (UMP-Warszawa/src/WARSZAWA_OCHOTA.ulice.txt)"/>
  </node>
  <node id="376344524" version="1" timestamp="2009-04-15T10:07:11Z" uid="20587" user="balrog-kun" changeset="551593" lat="52.2111394" lon="20.9686689">
    <tag k="addr:city" v="Warszawa@Warszawa Ochota"/>
    <tag k="addr:housenumber" v="7"/>
    <tag k="addr:street" v="Piotrkowska"/>
    <tag k="source" v="http://ump.waw.pl/ retrieved 11:07:14 02/24/09 (UMP-Warszawa/src/WARSZAWA_OCHOTA.ulice.txt)"/>
  </node>
  <node id="376344527" version="1" timestamp="2009-04-15T10:07:11Z" uid="20587" user="balrog-kun" changeset="551593" lat="52.2173158" lon="20.9723609">
    <tag k="addr:city" v="Warszawa@Warszawa Ochota"/>
    <tag k="addr:housenumber" v="19"/>
    <tag k="addr:street" v="Szczęśliwicka"/>
    <tag k="source" v="http://ump.waw.pl/ retrieved 11:07:14 02/24/09 (UMP-Warszawa/src/WARSZAWA_OCHOTA.ulice.txt)"/>
  </node>
  <node id="376344528" version="1" timestamp="2009-04-15T10:07:11Z" uid="20587" user="balrog-kun" changeset="551593" lat="52.2111166" lon="20.965127">
    <tag k="addr:city" v="Warszawa@Warszawa Ochota"/>
    <tag k="addr:housenumber" v="68"/>
    <tag k="addr:street" v="Szczęśliwicka"/>
    <tag k="source" v="http://ump.waw.pl/ retrieved 11:07:14 02/24/09 (UMP-Warszawa/src/WARSZAWA_OCHOTA.ulice.txt)"/>
  </node>
  <node id="376344531" version="1" timestamp="2009-04-15T10:07:11Z" uid="20587" user="balrog-kun" changeset="551593" lat="52.2068668" lon="20.9787874">
    <tag k="addr:city" v="Warszawa@Warszawa Ochota"/>
    <tag k="addr:housenumber" v="5"/>
    <tag k="addr:street" v="Pawińskiego"/>
    <tag k="source" v="http://ump.waw.pl/ retrieved 11:07:14 02/24/09 (UMP-Warszawa/src/WARSZAWA_OCHOTA.ulice.txt)"/>
  </node>
  <node id="376344532" version="1" timestamp="2009-04-15T10:07:12Z" uid="20587" user="balrog-kun" changeset="551593" lat="52.2021792" lon="20.973256">
    <tag k="addr:city" v="Warszawa@Warszawa Ochota"/>
    <tag k="addr:housenumber" v="25"/>
    <tag k="addr:street" v="Siemieńskiego"/>
    <tag k="source" v="http://ump.waw.pl/ retrieved 11:07:14 02/24/09 (UMP-Warszawa/src/WARSZAWA_OCHOTA.ulice.txt)"/>
  </node>
  <node id="376344534" version="1" timestamp="2009-04-15T10:07:12Z" uid="20587" user="balrog-kun" changeset="551593" lat="52.2022612" lon="20.9762402">
    <tag k="addr:city" v="Warszawa@Warszawa Ochota"/>
    <tag k="addr:housenumber" v="10"/>
    <tag k="addr:street" v="Pruszkowska"/>
    <tag k="source" v="http://ump.waw.pl/ retrieved 11:07:14 02/24/09 (UMP-Warszawa/src/WARSZAWA_OCHOTA.ulice.txt)"/>
  </node>
  <node id="376344536" version="1" timestamp="2009-04-15T10:07:12Z" uid="20587" user="balrog-kun" changeset="551593" lat="52.2112988" lon="20.9633983">
    <tag k="addr:city" v="Warszawa@Warszawa Ochota"/>
    <tag k="addr:housenumber" v="44"/>
    <tag k="addr:street" v="Opaczewska"/>
    <tag k="source" v="http://ump.waw.pl/ retrieved 11:07:14 02/24/09 (UMP-Warszawa/src/WARSZAWA_OCHOTA.ulice.txt)"/>
  </node>
  <node id="376344537" version="1" timestamp="2009-04-15T10:07:12Z" uid="20587" user="balrog-kun" changeset="551593" lat="52.2088623" lon="20.9672495">
    <tag k="addr:city" v="Warszawa@Warszawa Ochota"/>
    <tag k="addr:housenumber" v="24"/>
    <tag k="addr:street" v="Trzech Budrysów"/>
    <tag k="source" v="http://ump.waw.pl/ retrieved 11:07:14 02/24/09 (UMP-Warszawa/src/WARSZAWA_OCHOTA.ulice.txt)"/>
  </node>
  <node id="376344540" version="1" timestamp="2009-04-15T10:07:12Z" uid="20587" user="balrog-kun" changeset="551593" lat="52.2182026" lon="20.9731825">
    <tag k="addr:city" v="Warszawa@Warszawa Ochota"/>
    <tag k="addr:housenumber" v="19"/>
    <tag k="addr:street" v="Szczęśliwicka"/>
    <tag k="source" v="http://ump.waw.pl/ retrieved 11:07:14 02/24/09 (UMP-Warszawa/src/WARSZAWA_OCHOTA.ulice.txt)"/>
  </node>
  <node id="376344541" version="1" timestamp="2009-04-15T10:07:12Z" uid="20587" user="balrog-kun" changeset="551593" lat="52.212203" lon="20.9674846">
    <tag k="addr:city" v="Warszawa@Warszawa Ochota"/>
    <tag k="addr:housenumber" v="41"/>
    <tag k="addr:street" v="Szczęśliwicka"/>
    <tag k="source" v="http://ump.waw.pl/ retrieved 11:07:14 02/24/09 (UMP-Warszawa/src/WARSZAWA_OCHOTA.ulice.txt)"/>
  </node>
  <node id="376344544" version="1" timestamp="2009-04-15T10:07:12Z" uid="20587" user="balrog-kun" changeset="551593" lat="52.2107325" lon="20.9708897">
    <tag k="addr:city" v="Warszawa@Warszawa Ochota"/>
    <tag k="addr:housenumber" v="18"/>
    <tag k="addr:street" v="Opaczewska"/>
    <tag k="source" v="http://ump.waw.pl/ retrieved 11:07:14 02/24/09 (UMP-Warszawa/src/WARSZAWA_OCHOTA.ulice.txt)"/>
  </node>
  <node id="376344545" version="1" timestamp="2009-04-15T10:07:13Z" uid="20587" user="balrog-kun" changeset="551593" lat="52.2026013" lon="20.9776188">
    <tag k="addr:city" v="Warszawa@Warszawa Ochota"/>
    <tag k="addr:housenumber" v="1"/>
    <tag k="addr:street" v="Wiślicka"/>
    <tag k="source" v="http://ump.waw.pl/ retrieved 11:07:14 02/24/09 (UMP-Warszawa/src/WARSZAWA_OCHOTA.ulice.txt)"/>
  </node>
  <node id="376344547" version="1" timestamp="2009-04-15T10:07:13Z" uid="20587" user="balrog-kun" changeset="551593" lat="52.2122009" lon="20.9721791">
    <tag k="addr:city" v="Warszawa@Warszawa Ochota"/>
    <tag k="addr:housenumber" v="5"/>
    <tag k="addr:street" v="Bitwy Warszawskiej 1920 roku"/>
    <tag k="source" v="http://ump.waw.pl/ retrieved 11:07:14 02/24/09 (UMP-Warszawa/src/WARSZAWA_OCHOTA.ulice.txt)"/>
  </node>
  <node id="376344549" version="1" timestamp="2009-04-15T10:07:13Z" uid="20587" user="balrog-kun" changeset="551593" lat="52.2092432" lon="20.9659324">
    <tag k="addr:city" v="Warszawa@Warszawa Ochota"/>
    <tag k="addr:housenumber" v="25"/>
    <tag k="addr:street" v="Trzech Budrysów"/>
    <tag k="source" v="http://ump.waw.pl/ retrieved 11:07:14 02/24/09 (UMP-Warszawa/src/WARSZAWA_OCHOTA.ulice.txt)"/>
  </node>
  <node id="376344550" version="1" timestamp="2009-04-15T10:07:13Z" uid="20587" user="balrog-kun" changeset="551593" lat="52.2129837" lon="20.9698163">
    <tag k="addr:city" v="Warszawa@Warszawa Ochota"/>
    <tag k="addr:housenumber" v="13"/>
    <tag k="addr:street" v="Bitwy Warszawskiej 1920 roku"/>
    <tag k="source" v="http://ump.waw.pl/ retrieved 11:07:14 02/24/09 (UMP-Warszawa/src/WARSZAWA_OCHOTA.ulice.txt)"/>
  </node>
  <node id="376344553" version="1" timestamp="2009-04-15T10:07:13Z" uid="20587" user="balrog-kun" changeset="551593" lat="52.2054976" lon="20.9764992">
    <tag k="addr:city" v="Warszawa@Warszawa Ochota"/>
    <tag k="addr:housenumber" v="16"/>
    <tag k="addr:street" v="Pawińskiego"/>
    <tag k="source" v="http://ump.waw.pl/ retrieved 11:07:14 02/24/09 (UMP-Warszawa/src/WARSZAWA_OCHOTA.ulice.txt)"/>
  </node>
  <node id="376344554" version="1" timestamp="2009-04-15T10:07:13Z" uid="20587" user="balrog-kun" changeset="551593" lat="52.218963" lon="20.9740895">
    <tag k="addr:city" v="Warszawa@Warszawa Ochota"/>
    <tag k="addr:housenumber" v="37"/>
    <tag k="addr:street" v="Barska"/>
    <tag k="source" v="http://ump.waw.pl/ retrieved 11:07:14 02/24/09 (UMP-Warszawa/src/WARSZAWA_OCHOTA.ulice.txt)"/>
  </node>
  <node id="376344557" version="1" timestamp="2009-04-15T10:07:14Z" uid="20587" user="balrog-kun" changeset="551593" lat="52.2097725" lon="20.96845">
    <tag k="addr:city" v="Warszawa@Warszawa Ochota"/>
    <tag k="addr:housenumber" v="21"/>
    <tag k="addr:street" v="Opaczewska"/>
    <tag k="source" v="http://ump.waw.pl/ retrieved 11:07:14 02/24/09 (UMP-Warszawa/src/WARSZAWA_OCHOTA.ulice.txt)"/>
  </node>
  <node id="376344558" version="1" timestamp="2009-04-15T10:07:14Z" uid="20587" user="balrog-kun" changeset="551593" lat="52.217488" lon="20.9728666">
    <tag k="addr:city" v="Warszawa@Warszawa Ochota"/>
    <tag k="addr:housenumber" v="37"/>
    <tag k="addr:street" v="Kopińska"/>
    <tag k="source" v="http://ump.waw.pl/ retrieved 11:07:14 02/24/09 (UMP-Warszawa/src/WARSZAWA_OCHOTA.ulice.txt)"/>
  </node>
  <node id="376344561" version="1" timestamp="2009-04-15T10:07:14Z" uid="20587" user="balrog-kun" changeset="551593" lat="52.2031382" lon="20.9715021">
    <tag k="addr:city" v="Warszawa@Warszawa Ochota"/>
    <tag k="addr:housenumber" v="34"/>
    <tag k="addr:street" v="Skorochód-Majewskiego"/>
    <tag k="source" v="http://ump.waw.pl/ retrieved 11:07:14 02/24/09 (UMP-Warszawa/src/WARSZAWA_OCHOTA.ulice.txt)"/>
  </node>
  <node id="376344563" version="1" timestamp="2009-04-15T10:07:14Z" uid="20587" user="balrog-kun" changeset="551593" lat="52.2104711" lon="20.9679294">
    <tag k="addr:city" v="Warszawa@Warszawa Ochota"/>
    <tag k="addr:housenumber" v="30"/>
    <tag k="addr:street" v="Opaczewska"/>
    <tag k="source" v="http://ump.waw.pl/ retrieved 11:07:14 02/24/09 (UMP-Warszawa/src/WARSZAWA_OCHOTA.ulice.txt)"/>
  </node>
  <node id="376344566" version="1" timestamp="2009-04-15T10:07:14Z" uid="20587" user="balrog-kun" changeset="551593" lat="52.2032746" lon="20.9744566">
    <tag k="addr:city" v="Warszawa@Warszawa Ochota"/>
    <tag k="addr:housenumber" v="28"/>
    <tag k="addr:street" v="Pawińskiego"/>
    <tag k="source" v="http://ump.waw.pl/ retrieved 11:07:14 02/24/09 (UMP-Warszawa/src/WARSZAWA_OCHOTA.ulice.txt)"/>
  </node>
  <node id="376344568" version="1" timestamp="2009-04-15T10:07:14Z" uid="20587" user="balrog-kun" changeset="551593" lat="52.2069461" lon="20.9695614">
    <tag k="addr:city" v="Warszawa@Warszawa Ochota"/>
    <tag k="addr:housenumber" v="11"/>
    <tag k="addr:street" v="Bobrowskiego"/>
    <tag k="source" v="http://ump.waw.pl/ retrieved 11:07:14 02/24/09 (UMP-Warszawa/src/WARSZAWA_OCHOTA.ulice.txt)"/>
  </node>
  <node id="376344570" version="1" timestamp="2009-04-15T10:07:14Z" uid="20587" user="balrog-kun" changeset="551593" lat="52.203865" lon="20.9735722">
    <tag k="addr:city" v="Warszawa@Warszawa Ochota"/>
    <tag k="addr:housenumber" v="14"/>
    <tag k="addr:street" v="Siemieńskiego"/>
    <tag k="source" v="http://ump.waw.pl/ retrieved 11:07:14 02/24/09 (UMP-Warszawa/src/WARSZAWA_OCHOTA.ulice.txt)"/>
  </node>
  <node id="376344573" version="1" timestamp="2009-04-15T10:07:15Z" uid="20587" user="balrog-kun" changeset="551593" lat="52.2086854" lon="20.9690017">
    <tag k="addr:city" v="Warszawa@Warszawa Ochota"/>
    <tag k="addr:housenumber" v="7"/>
    <tag k="addr:street" v="Białobrzeska"/>
    <tag k="source" v="http://ump.waw.pl/ retrieved 11:07:14 02/24/09 (UMP-Warszawa/src/WARSZAWA_OCHOTA.ulice.txt)"/>
  </node>
  <node id="376344576" version="1" timestamp="2009-04-15T10:07:15Z" uid="20587" user="balrog-kun" changeset="551593" lat="52.219501" lon="20.9689393">
    <tag k="addr:city" v="Warszawa@Warszawa Ochota"/>
    <tag k="addr:housenumber" v="142"/>
    <tag k="addr:street" v="Aleje Jerozolimskie"/>
    <tag k="source" v="http://ump.waw.pl/ retrieved 11:07:14 02/24/09 (UMP-Warszawa/src/WARSZAWA_OCHOTA.ulice.txt)"/>
  </node>
  <node id="376344579" version="1" timestamp="2009-04-15T10:07:15Z" uid="20587" user="balrog-kun" changeset="551593" lat="52.2067366" lon="20.9860456">
    <tag k="addr:city" v="Warszawa@Warszawa Ochota"/>
    <tag k="addr:housenumber" v="81"/>
    <tag k="addr:street" v="Żwirki i Wigury"/>
    <tag k="source" v="http://ump.waw.pl/ retrieved 11:07:14 02/24/09 (UMP-Warszawa/src/WARSZAWA_OCHOTA.ulice.txt)"/>
  </node>
  <node id="376344581" version="1" timestamp="2009-04-15T10:07:15Z" uid="20587" user="balrog-kun" changeset="551593" lat="52.2109976" lon="20.9643706">
    <tag k="addr:city" v="Warszawa@Warszawa Ochota"/>
    <tag k="addr:housenumber" v="42"/>
    <tag k="addr:street" v="Opaczewska"/>
    <tag k="source" v="http://ump.waw.pl/ retrieved 11:07:14 02/24/09 (UMP-Warszawa/src/WARSZAWA_OCHOTA.ulice.txt)"/>
  </node>
  <node id="376344585" version="1" timestamp="2009-04-15T10:07:15Z" uid="20587" user="balrog-kun" changeset="551593" lat="52.2047883" lon="20.9717533">
    <tag k="addr:city" v="Warszawa@Warszawa Ochota"/>
    <tag k="addr:housenumber" v="111"/>
    <tag k="addr:street" v="Grójecka"/>
    <tag k="source" v="http://ump.waw.pl/ retrieved 11:07:14 02/24/09 (UMP-Warszawa/src/WARSZAWA_OCHOTA.ulice.txt)"/>
  </node>
  <node id="376344587" version="1" timestamp="2009-04-15T10:07:15Z" uid="20587" user="balrog-kun" changeset="551593" lat="52.2054556" lon="20.9741144">
    <tag k="addr:city" v="Warszawa@Warszawa Ochota"/>
    <tag k="addr:housenumber" v="10"/>
    <tag k="addr:street" v="Dickensa"/>
    <tag k="source" v="http://ump.waw.pl/ retrieved 11:07:14 02/24/09 (UMP-Warszawa/src/WARSZAWA_OCHOTA.ulice.txt)"/>
  </node>
  <node id="376344590" version="1" timestamp="2009-04-15T10:07:15Z" uid="20587" user="balrog-kun" changeset="551593" lat="52.2035354" lon="20.9716577">
    <tag k="addr:city" v="Warszawa@Warszawa Ochota"/>
    <tag k="addr:housenumber" v="32"/>
    <tag k="addr:street" v="Skorochód-Majewskiego"/>
    <tag k="source" v="http://ump.waw.pl/ retrieved 11:07:14 02/24/09 (UMP-Warszawa/src/WARSZAWA_OCHOTA.ulice.txt)"/>
  </node>
  <node id="376344593" version="1" timestamp="2009-04-15T10:07:16Z" uid="20587" user="balrog-kun" changeset="551593" lat="52.2043998" lon="20.9753969">
    <tag k="addr:city" v="Warszawa@Warszawa Ochota"/>
    <tag k="addr:housenumber" v="22"/>
    <tag k="addr:street" v="Pawińskiego"/>
    <tag k="source" v="http://ump.waw.pl/ retrieved 11:07:14 02/24/09 (UMP-Warszawa/src/WARSZAWA_OCHOTA.ulice.txt)"/>
  </node>
  <node id="376344595" version="1" timestamp="2009-04-15T10:07:16Z" uid="20587" user="balrog-kun" changeset="551593" lat="52.2184574" lon="20.9758522">
    <tag k="addr:city" v="Warszawa@Warszawa Ochota"/>
    <tag k="addr:housenumber" v="2"/>
    <tag k="addr:street" v="Grzymały"/>
    <tag k="source" v="http://ump.waw.pl/ retrieved 11:07:14 02/24/09 (UMP-Warszawa/src/WARSZAWA_OCHOTA.ulice.txt)"/>
  </node>
  <node id="376344599" version="1" timestamp="2009-04-15T10:07:16Z" uid="20587" user="balrog-kun" changeset="551593" lat="52.2018865" lon="20.9732924">
    <tag k="addr:city" v="Warszawa@Warszawa Ochota"/>
    <tag k="addr:housenumber" v="34"/>
    <tag k="addr:street" v="Pawińskiego"/>
    <tag k="source" v="http://ump.waw.pl/ retrieved 11:07:14 02/24/09 (UMP-Warszawa/src/WARSZAWA_OCHOTA.ulice.txt)"/>
  </node>
  <node id="376344601" version="1" timestamp="2009-04-15T10:07:16Z" uid="20587" user="balrog-kun" changeset="551593" lat="52.2116407" lon="20.9656449">
    <tag k="addr:city" v="Warszawa@Warszawa Ochota"/>
    <tag k="addr:housenumber" v="62"/>
    <tag k="addr:street" v="Szczęśliwicka"/>
    <tag k="source" v="http://ump.waw.pl/ retrieved 11:07:14 02/24/09 (UMP-Warszawa/src/WARSZAWA_OCHOTA.ulice.txt)"/>
  </node>
  <node id="376344606" version="1" timestamp="2009-04-15T10:07:16Z" uid="20587" user="balrog-kun" changeset="551593" lat="52.2096597" lon="20.9674862">
    <tag k="addr:city" v="Warszawa@Warszawa Ochota"/>
    <tag k="addr:housenumber" v="23"/>
    <tag k="addr:street" v="Opaczewska"/>
    <tag k="source" v="http://ump.waw.pl/ retrieved 11:07:14 02/24/09 (UMP-Warszawa/src/WARSZAWA_OCHOTA.ulice.txt)"/>
  </node>
  <node id="376344608" version="1" timestamp="2009-04-15T10:07:16Z" uid="20587" user="balrog-kun" changeset="551593" lat="52.2095818" lon="20.9638895">
    <tag k="addr:city" v="Warszawa@Warszawa Ochota"/>
    <tag k="addr:housenumber" v="80"/>
    <tag k="addr:street" v="Szczęśliwicka"/>
    <tag k="source" v="http://ump.waw.pl/ retrieved 11:07:14 02/24/09 (UMP-Warszawa/src/WARSZAWA_OCHOTA.ulice.txt)"/>
  </node>
  <node id="376344612" version="1" timestamp="2009-04-15T10:07:16Z" uid="20587" user="balrog-kun" changeset="551593" lat="52.2080686" lon="20.9746168">
    <tag k="addr:city" v="Warszawa@Warszawa Ochota"/>
    <tag k="addr:housenumber" v="93"/>
    <tag k="addr:street" v="Grójecka"/>
    <tag k="source" v="http://ump.waw.pl/ retrieved 11:07:14 02/24/09 (UMP-Warszawa/src/WARSZAWA_OCHOTA.ulice.txt)"/>
  </node>
  <node id="376344614" version="1" timestamp="2009-04-15T10:07:17Z" uid="20587" user="balrog-kun" changeset="551593" lat="52.212861" lon="20.966897">
    <tag k="addr:city" v="Warszawa@Warszawa Ochota"/>
    <tag k="addr:housenumber" v="58"/>
    <tag k="addr:street" v="Szczęśliwicka"/>
    <tag k="source" v="http://ump.waw.pl/ retrieved 11:07:14 02/24/09 (UMP-Warszawa/src/WARSZAWA_OCHOTA.ulice.txt)"/>
  </node>
  <node id="376344616" version="1" timestamp="2009-04-15T10:07:17Z" uid="20587" user="balrog-kun" changeset="551593" lat="52.2049907" lon="20.9754041">
    <tag k="addr:city" v="Warszawa@Warszawa Ochota"/>
    <tag k="addr:housenumber" v="11"/>
    <tag k="addr:street" v="Siemieńskiego"/>
    <tag k="source" v="http://ump.waw.pl/ retrieved 11:07:14 02/24/09 (UMP-Warszawa/src/WARSZAWA_OCHOTA.ulice.txt)"/>
  </node>
  <node id="376344620" version="1" timestamp="2009-04-15T10:07:17Z" uid="20587" user="balrog-kun" changeset="551593" lat="52.2096917" lon="20.9740462">
    <tag k="addr:city" v="Warszawa@Warszawa Ochota"/>
    <tag k="addr:housenumber" v="5"/>
    <tag k="addr:street" v="Opaczewska"/>
    <tag k="source" v="http://ump.waw.pl/ retrieved 11:07:14 02/24/09 (UMP-Warszawa/src/WARSZAWA_OCHOTA.ulice.txt)"/>
  </node>
  <node id="376344622" version="1" timestamp="2009-04-15T10:07:17Z" uid="20587" user="balrog-kun" changeset="551593" lat="52.2067722" lon="20.9638623">
    <tag k="addr:city" v="Warszawa@Warszawa Ochota"/>
    <tag k="addr:housenumber" v="31"/>
    <tag k="addr:street" v="Dickensa"/>
    <tag k="source" v="http://ump.waw.pl/ retrieved 11:07:14 02/24/09 (UMP-Warszawa/src/WARSZAWA_OCHOTA.ulice.txt)"/>
  </node>
  <node id="376344622" version="2" timestamp="2010-12-04T04:20:10Z" uid="20587" user="balrog-kun" changeset="6534205" lat="52.2067722" lon="20.9638623">
    <tag k="addr:city" v="Warszawa@Warszawa Ochota"/>
    <tag k="addr:housenumber" v="31"/>
    <tag k="addr:street" v="Dickensa"/>
    <tag k="source" v="http://ump.waw.pl/ retrieved 11:07:14 02/24/09 (UMP-Warszawa/src/WARSZAWA_OCHOTA.ulice.txt)"/>
  </node>
  <node id="376344625" version="1" timestamp="2009-04-15T10:07:17Z" uid="20587" user="balrog-kun" changeset="551593" lat="52.2166733" lon="20.9760016">
    <tag k="addr:city" v="Warszawa@Warszawa Ochota"/>
    <tag k="addr:housenumber" v="37"/>
    <tag k="addr:street" v="Białobrzeska"/>
    <tag k="source" v="http://ump.waw.pl/ retrieved 11:07:14 02/24/09 (UMP-Warszawa/src/WARSZAWA_OCHOTA.ulice.txt)"/>
  </node>
  <node id="376344626" version="1" timestamp="2009-04-15T10:07:17Z" uid="20587" user="balrog-kun" changeset="551593" lat="52.2081353" lon="20.977429">
    <tag k="addr:city" v="Warszawa@Warszawa Ochota"/>
    <tag k="addr:housenumber" v="5"/>
    <tag k="addr:street" v="Archiwalna"/>
    <tag k="source" v="http://ump.waw.pl/ retrieved 11:07:14 02/24/09 (UMP-Warszawa/src/WARSZAWA_OCHOTA.ulice.txt)"/>
  </node>
  <node id="376344627" version="1" timestamp="2009-04-15T10:07:17Z" uid="20587" user="balrog-kun" changeset="551593" lat="52.2155533" lon="20.9706161">
    <tag k="addr:city" v="Warszawa@Warszawa Ochota"/>
    <tag k="addr:housenumber" v="29"/>
    <tag k="addr:street" v="Szczęśliwicka"/>
    <tag k="source" v="http://ump.waw.pl/ retrieved 11:07:14 02/24/09 (UMP-Warszawa/src/WARSZAWA_OCHOTA.ulice.txt)"/>
  </node>
  <node id="376344630" version="1" timestamp="2009-04-15T10:07:18Z" uid="20587" user="balrog-kun" changeset="551593" lat="52.2020199" lon="20.9750076">
    <tag k="addr:city" v="Warszawa@Warszawa Ochota"/>
    <tag k="addr:housenumber" v="29"/>
    <tag k="addr:street" v="Pruszkowska"/>
    <tag k="source" v="http://ump.waw.pl/ retrieved 11:07:14 02/24/09 (UMP-Warszawa/src/WARSZAWA_OCHOTA.ulice.txt)"/>
  </node>
  <node id="376344631" version="1" timestamp="2009-04-15T10:07:18Z" uid="20587" user="balrog-kun" changeset="551593" lat="52.202661" lon="20.9739562">
    <tag k="addr:city" v="Warszawa@Warszawa Ochota"/>
    <tag k="addr:housenumber" v="30"/>
    <tag k="addr:street" v="Pawińskiego"/>
    <tag k="source" v="http://ump.waw.pl/ retrieved 11:07:14 02/24/09 (UMP-Warszawa/src/WARSZAWA_OCHOTA.ulice.txt)"/>
  </node>
  <node id="376344634" version="1" timestamp="2009-04-15T10:07:18Z" uid="20587" user="balrog-kun" changeset="551593" lat="52.2065238" lon="20.9767699">
    <tag k="addr:city" v="Warszawa@Warszawa Ochota"/>
    <tag k="addr:housenumber" v="7"/>
    <tag k="addr:street" v="Siemieńskiego"/>
    <tag k="source" v="http://ump.waw.pl/ retrieved 11:07:14 02/24/09 (UMP-Warszawa/src/WARSZAWA_OCHOTA.ulice.txt)"/>
  </node>
  <node id="376344635" version="1" timestamp="2009-04-15T10:07:18Z" uid="20587" user="balrog-kun" changeset="551593" lat="52.2198461" lon="20.9723042">
    <tag k="addr:city" v="Warszawa@Warszawa Ochota"/>
    <tag k="addr:housenumber" v="159"/>
    <tag k="addr:street" v="Aleje Jerozolimskie"/>
    <tag k="source" v="http://ump.waw.pl/ retrieved 11:07:14 02/24/09 (UMP-Warszawa/src/WARSZAWA_OCHOTA.ulice.txt)"/>
  </node>
  <node id="376344638" version="1" timestamp="2009-04-15T10:07:18Z" uid="20587" user="balrog-kun" changeset="551593" lat="52.2080363" lon="20.9684379">
    <tag k="addr:city" v="Warszawa@Warszawa Ochota"/>
    <tag k="addr:housenumber" v="3"/>
    <tag k="addr:street" v="Białobrzeska"/>
    <tag k="source" v="http://ump.waw.pl/ retrieved 11:07:14 02/24/09 (UMP-Warszawa/src/WARSZAWA_OCHOTA.ulice.txt)"/>
  </node>
  <node id="376344639" version="1" timestamp="2009-04-15T10:07:19Z" uid="20587" user="balrog-kun" changeset="551593" lat="52.2112757" lon="20.9723694">
    <tag k="addr:city" v="Warszawa@Warszawa Ochota"/>
    <tag k="addr:housenumber" v="16"/>
    <tag k="addr:street" v="Białobrzeska"/>
    <tag k="source" v="http://ump.waw.pl/ retrieved 11:07:14 02/24/09 (UMP-Warszawa/src/WARSZAWA_OCHOTA.ulice.txt)"/>
  </node>
  <node id="376344641" version="1" timestamp="2009-04-15T10:07:19Z" uid="20587" user="balrog-kun" changeset="551593" lat="52.2021549" lon="20.9775139">
    <tag k="addr:city" v="Warszawa@Warszawa Ochota"/>
    <tag k="addr:housenumber" v="8"/>
    <tag k="addr:street" v="Pruszkowska"/>
    <tag k="source" v="http://ump.waw.pl/ retrieved 11:07:14 02/24/09 (UMP-Warszawa/src/WARSZAWA_OCHOTA.ulice.txt)"/>
  </node>
  <node id="376344642" version="1" timestamp="2009-04-15T10:07:19Z" uid="20587" user="balrog-kun" changeset="551593" lat="52.211986" lon="20.9894008">
    <tag k="addr:city" v="Warszawa@Warszawa Ochota"/>
    <tag k="addr:housenumber" v="34"/>
    <tag k="addr:street" v="Żwirki i Wigury"/>
    <tag k="source" v="http://ump.waw.pl/ retrieved 11:07:14 02/24/09 (UMP-Warszawa/src/WARSZAWA_OCHOTA.ulice.txt)"/>
  </node>
  <node id="376344644" version="1" timestamp="2009-04-15T10:07:19Z" uid="20587" user="balrog-kun" changeset="551593" lat="52.2160589" lon="20.9711692">
    <tag k="addr:city" v="Warszawa@Warszawa Ochota"/>
    <tag k="addr:housenumber" v="25"/>
    <tag k="addr:street" v="Szczęśliwicka"/>
    <tag k="source" v="http://ump.waw.pl/ retrieved 11:07:14 02/24/09 (UMP-Warszawa/src/WARSZAWA_OCHOTA.ulice.txt)"/>
  </node>
  <node id="376344645" version="1" timestamp="2009-04-15T10:07:19Z" uid="20587" user="balrog-kun" changeset="551593" lat="52.2190996" lon="20.9773135">
    <tag k="addr:city" v="Warszawa@Warszawa Ochota"/>
    <tag k="addr:housenumber" v="28"/>
    <tag k="addr:street" v="Barska"/>
    <tag k="source" v="http://ump.waw.pl/ retrieved 11:07:14 02/24/09 (UMP-Warszawa/src/WARSZAWA_OCHOTA.ulice.txt)"/>
  </node>
  <node id="376344646" version="1" timestamp="2009-04-15T10:07:20Z" uid="20587" user="balrog-kun" changeset="551593" lat="52.2077129" lon="20.9778537">
    <tag k="addr:city" v="Warszawa@Warszawa Ochota"/>
    <tag k="addr:housenumber" v="3"/>
    <tag k="addr:street" v="Siemieńskiego"/>
    <tag k="source" v="http://ump.waw.pl/ retrieved 11:07:14 02/24/09 (UMP-Warszawa/src/WARSZAWA_OCHOTA.ulice.txt)"/>
  </node>
  <node id="376344648" version="1" timestamp="2009-04-15T10:07:20Z" uid="20587" user="balrog-kun" changeset="551593" lat="52.2025283" lon="20.9754837">
    <tag k="addr:city" v="Warszawa@Warszawa Ochota"/>
    <tag k="addr:housenumber" v="12"/>
    <tag k="addr:street" v="Pruszkowska"/>
    <tag k="source" v="http://ump.waw.pl/ retrieved 11:07:14 02/24/09 (UMP-Warszawa/src/WARSZAWA_OCHOTA.ulice.txt)"/>
  </node>
  <node id="376344649" version="1" timestamp="2009-04-15T10:07:20Z" uid="20587" user="balrog-kun" changeset="551593" lat="52.2083529" lon="20.9687129">
    <tag k="addr:city" v="Warszawa@Warszawa Ochota"/>
    <tag k="addr:housenumber" v="5"/>
    <tag k="addr:street" v="Białobrzeska"/>
    <tag k="source" v="http://ump.waw.pl/ retrieved 11:07:14 02/24/09 (UMP-Warszawa/src/WARSZAWA_OCHOTA.ulice.txt)"/>
  </node>
  <node id="376344651" version="1" timestamp="2009-04-15T10:07:20Z" uid="20587" user="balrog-kun" changeset="551593" lat="52.2173297" lon="20.9759769">
    <tag k="addr:city" v="Warszawa@Warszawa Ochota"/>
    <tag k="addr:housenumber" v="17"/>
    <tag k="addr:street" v="Kopińska"/>
    <tag k="source" v="http://ump.waw.pl/ retrieved 11:07:14 02/24/09 (UMP-Warszawa/src/WARSZAWA_OCHOTA.ulice.txt)"/>
  </node>
  <node id="376344653" version="1" timestamp="2009-04-15T10:07:20Z" uid="20587" user="balrog-kun" changeset="551593" lat="52.2017533" lon="20.9762283">
    <tag k="addr:city" v="Warszawa@Warszawa Ochota"/>
    <tag k="addr:housenumber" v="21"/>
    <tag k="addr:street" v="Pruszkowska"/>
    <tag k="source" v="http://ump.waw.pl/ retrieved 11:07:14 02/24/09 (UMP-Warszawa/src/WARSZAWA_OCHOTA.ulice.txt)"/>
  </node>
  <node id="376344654" version="1" timestamp="2009-04-15T10:07:21Z" uid="20587" user="balrog-kun" changeset="551593" lat="52.2058428" lon="20.9857461">
    <tag k="addr:city" v="Warszawa@Warszawa Ochota"/>
    <tag k="addr:housenumber" v="61"/>
    <tag k="addr:street" v="Żwirki i Wigury"/>
    <tag k="source" v="http://ump.waw.pl/ retrieved 11:07:14 02/24/09 (UMP-Warszawa/src/WARSZAWA_OCHOTA.ulice.txt)"/>
  </node>
  <node id="376344656" version="1" timestamp="2009-04-15T10:07:21Z" uid="20587" user="balrog-kun" changeset="551593" lat="52.2022228" lon="20.984249">
    <tag k="addr:city" v="Warszawa@Warszawa Ochota"/>
    <tag k="addr:housenumber" v="51"/>
    <tag k="addr:street" v="Żwirki i Wigury"/>
    <tag k="source" v="http://ump.waw.pl/ retrieved 11:07:14 02/24/09 (UMP-Warszawa/src/WARSZAWA_OCHOTA.ulice.txt)"/>
  </node>
  <node id="376344657" version="1" timestamp="2009-04-15T10:07:21Z" uid="20587" user="balrog-kun" changeset="551593" lat="52.2045385" lon="20.9893491">
    <tag k="addr:city" v="Warszawa@Warszawa Mokotów"/>
    <tag k="addr:housenumber" v="24"/>
    <tag k="addr:street" v="Żwirki i Wigury"/>
    <tag k="source" v="http://ump.waw.pl/ retrieved 11:07:14 02/24/09 (UMP-Warszawa/src/WARSZAWA_MOKOTOW.ulice.txt)"/>
  </node>
  <node id="376344659" version="1" timestamp="2009-04-15T10:07:21Z" uid="20587" user="balrog-kun" changeset="551593" lat="52.2033794" lon="20.9849216">
    <tag k="addr:city" v="Warszawa@Warszawa Ochota"/>
    <tag k="addr:housenumber" v="53"/>
    <tag k="addr:street" v="Żwirki i Wigury"/>
    <tag k="source" v="http://ump.waw.pl/ retrieved 11:07:14 02/24/09 (UMP-Warszawa/src/WARSZAWA_OCHOTA.ulice.txt)"/>
  </node>
  <node id="376344659" version="2" timestamp="2009-04-27T21:33:46Z" uid="20587" user="balrog-kun" changeset="997728" lat="52.2033794" lon="20.9849216">
    <tag k="addr:city" v="Warszawa@Warszawa Ochota"/>
    <tag k="addr:housenumber" v="53"/>
    <tag k="addr:street" v="Żwirki i Wigury"/>
    <tag k="source" v="http://ump.waw.pl/ retrieved 11:07:14 02/24/09 (UMP-Warszawa/src/WARSZAWA_OCHOTA.ulice.txt)"/>
  </node>
  <node id="376344660" version="1" timestamp="2009-04-15T10:07:21Z" uid="20587" user="balrog-kun" changeset="551593" lat="52.2039977" lon="20.9851543">
    <tag k="addr:city" v="Warszawa@Warszawa Ochota"/>
    <tag k="addr:housenumber" v="55"/>
    <tag k="addr:street" v="Żwirki i Wigury"/>
    <tag k="source" v="http://ump.waw.pl/ retrieved 11:07:14 02/24/09 (UMP-Warszawa/src/WARSZAWA_OCHOTA.ulice.txt)"/>
  </node>
  <node id="376344660" version="2" timestamp="2009-04-27T21:33:46Z" uid="20587" user="balrog-kun" changeset="997728" lat="52.2039977" lon="20.9851543">
    <tag k="addr:city" v="Warszawa@Warszawa Ochota"/>
    <tag k="addr:housenumber" v="55"/>
    <tag k="addr:street" v="Żwirki i Wigury"/>
    <tag k="source" v="http://ump.waw.pl/ retrieved 11:07:14 02/24/09 (UMP-Warszawa/src/WARSZAWA_OCHOTA.ulice.txt)"/>
  </node>
  <node id="376344662" version="1" timestamp="2009-04-15T10:07:22Z" uid="20587" user="balrog-kun" changeset="551593" lat="52.2050819" lon="20.9855624">
    <tag k="addr:city" v="Warszawa@Warszawa Ochota"/>
    <tag k="addr:housenumber" v="59"/>
    <tag k="addr:street" v="Żwirki i Wigury"/>
    <tag k="source" v="http://ump.waw.pl/ retrieved 11:07:14 02/24/09 (UMP-Warszawa/src/WARSZAWA_OCHOTA.ulice.txt)"/>
  </node>
  <node id="376344662" version="2" timestamp="2009-04-27T21:33:46Z" uid="20587" user="balrog-kun" changeset="997728" lat="52.2050819" lon="20.9855624">
    <tag k="addr:city" v="Warszawa@Warszawa Ochota"/>
    <tag k="addr:housenumber" v="59"/>
    <tag k="addr:street" v="Żwirki i Wigury"/>
    <tag k="source" v="http://ump.waw.pl/ retrieved 11:07:14 02/24/09 (UMP-Warszawa/src/WARSZAWA_OCHOTA.ulice.txt)"/>
  </node>
  <node id="376346032" version="2" timestamp="2010-12-19T02:53:06Z" uid="6269" user="Mueck" changeset="6702383" lat="53.5452178" lon="8.5949837"/>
  <node id="376346034" version="2" timestamp="2010-12-19T02:53:07Z" uid="6269" user="Mueck" changeset="6702383" lat="53.5452253" lon="8.5950918"/>
  <node id="376346610" version="8" timestamp="2011-03-07T11:52:32Z" uid="4467" user="Rosscoe" changeset="7483372" lat="-37.8170406" lon="145.3784033"/>
  <node id="376346612" version="5" timestamp="2011-03-07T11:52:32Z" uid="4467" user="Rosscoe" changeset="7483372" lat="-37.8168623" lon="145.3782786"/>
  <node id="376346613" version="5" timestamp="2011-03-07T11:52:31Z" uid="4467" user="Rosscoe" changeset="7483372" lat="-37.8166321" lon="145.3782702"/>
  <node id="376346614" version="5" timestamp="2011-03-07T11:52:32Z" uid="4467" user="Rosscoe" changeset="7483372" lat="-37.8164171" lon="145.3783824"/>
  <node id="376346615" version="5" timestamp="2011-03-07T11:52:31Z" uid="4467" user="Rosscoe" changeset="7483372" lat="-37.8162041" lon="145.3787514"/>
  <node id="376346616" version="5" timestamp="2011-03-07T11:52:31Z" uid="4467" user="Rosscoe" changeset="7483372" lat="-37.8162049" lon="145.3790648"/>
  <node id="376346617" version="5" timestamp="2011-03-07T11:52:32Z" uid="4467" user="Rosscoe" changeset="7483372" lat="-37.8166424" lon="145.3795822"/>
  <node id="376346618" version="5" timestamp="2011-03-07T11:52:31Z" uid="4467" user="Rosscoe" changeset="7483372" lat="-37.8169163" lon="145.3795544"/>
  <node id="376346620" version="5" timestamp="2011-03-07T11:52:30Z" uid="4467" user="Rosscoe" changeset="7483372" lat="-37.8171291" lon="145.3793829"/>
  <node id="376346621" version="5" timestamp="2011-03-07T11:52:32Z" uid="4467" user="Rosscoe" changeset="7483372" lat="-37.8172346" lon="145.379037"/>
  <node id="376346623" version="5" timestamp="2011-03-07T11:52:31Z" uid="4467" user="Rosscoe" changeset="7483372" lat="-37.817211" lon="145.3786872"/>
  <node id="376347181" version="8" timestamp="2011-03-07T11:52:32Z" uid="4467" user="Rosscoe" changeset="7483372" lat="-37.8165" lon="145.3782546"/>
  <node id="376347183" version="8" timestamp="2011-03-07T11:52:32Z" uid="4467" user="Rosscoe" changeset="7483372" lat="-37.8162658" lon="145.3784606"/>
  <node id="376347184" version="12" timestamp="2011-03-07T11:52:31Z" uid="4467" user="Rosscoe" changeset="7483372" lat="-37.8161186" lon="145.3789723"/>
  <node id="376347187" version="7" timestamp="2011-03-07T11:50:18Z" uid="4467" user="Rosscoe" changeset="7483347" lat="-37.8110529" lon="145.3812472"/>
  <node id="376347302" version="5" timestamp="2009-08-04T12:06:01Z" uid="4467" user="Rosscoe" changeset="2035025" lat="-37.8152018" lon="145.3783907"/>
  <node id="376347309" version="5" timestamp="2009-08-04T12:03:50Z" uid="4467" user="Rosscoe" changeset="2034997" lat="-37.8136131" lon="145.3746904"/>
  <node id="376347310" version="5" timestamp="2009-08-04T12:03:51Z" uid="4467" user="Rosscoe" changeset="2034997" lat="-37.8133387" lon="145.3731135"/>
</osm>
