<?xml version='1.0' encoding='UTF-8'?>
<osm version="0.6" generator="libosmium/2.20.0">
  <node id="377031452" version="2" timestamp="2009-04-16T16:29:37Z" uid="20587" user="balrog-kun" changeset="585970" lat="52.2258467" lon="21.0192033">
    <tag k="amenity" v="restaurant"/>
    <tag k="created_by" v="Potlatch 0.10f"/>
    <tag k="name" v="Restauracja Endorfina"/>
  </node>
  <node id="377031996" version="2" timestamp="2009-04-16T16:29:36Z" uid="20587" user="balrog-kun" changeset="585970" lat="52.2261914" lon="21.0190234">
    <tag k="amenity" v="restaurant"/>
    <tag k="created_by" v="Potlatch 0.10f"/>
    <tag k="cuisine" v="sushi"/>
    <tag k="name" v="Tomo Sushi"/>
  </node>
  <node id="377034710" version="2" timestamp="2010-03-28T18:40:50Z" uid="1066" user="pavel" changeset="4260440" lat="50.1077673" lon="14.566393"/>
  <node id="377034726" version="2" timestamp="2010-03-28T18:40:50Z" uid="1066" user="pavel" changeset="4260440" lat="50.1078017" lon="14.56673"/>
  <node id="377036723" version="2" timestamp="2010-07-29T09:19:57Z" uid="74617" user="JohnSmith" changeset="5344848" lat="51.2635364" lon="9.0219171">
    <tag k="amenity" v="emergency_phone"/>
    <tag k="emergency" v="phone"/>
  </node>
</osm>
