<?xml version='1.0' encoding='UTF-8'?>
<osm version="0.6" generator="libosmium/2.20.0">
  <node id="377980001" version="1" timestamp="2009-04-16T13:15:03Z" uid="20587" user="balrog-kun" changeset="578511" lat="52.2770718" lon="20.9450364">
    <tag k="addr:city" v="Warszawa@Warszawa Bielany"/>
    <tag k="addr:housenumber" v="31"/>
    <tag k="addr:street" v="Płatnicza"/>
    <tag k="source" v="http://ump.waw.pl/ retrieved 11:07:14 02/24/09 (UMP-Warszawa/src/WARSZAWA_BIELANY.ulice.txt)"/>
  </node>
  <node id="377980001" version="3" timestamp="2009-09-01T17:42:59Z" uid="20587" user="balrog-kun" changeset="2340514" lat="52.2770867" lon="20.9450178">
    <tag k="addr:city" v="Warszawa@Warszawa Bielany"/>
    <tag k="addr:housenumber" v="32"/>
    <tag k="addr:street" v="Płatnicza"/>
    <tag k="source" v="http://ump.waw.pl/ retrieved 11:07:14 02/24/09 (UMP-Warszawa/src/WARSZAWA_BIELANY.ulice.txt)"/>
  </node>
  <node id="377980006" version="1" timestamp="2009-04-16T13:15:03Z" uid="20587" user="balrog-kun" changeset="578511" lat="52.2836329" lon="20.9376352">
    <tag k="addr:city" v="Warszawa@Warszawa Bielany"/>
    <tag k="addr:housenumber" v="4"/>
    <tag k="addr:street" v="Wolumen"/>
    <tag k="source" v="http://ump.waw.pl/ retrieved 11:07:14 02/24/09 (UMP-Warszawa/src/WARSZAWA_BIELANY.ulice.txt)"/>
  </node>
  <node id="377980013" version="1" timestamp="2009-04-16T13:15:03Z" uid="20587" user="balrog-kun" changeset="578511" lat="52.2802657" lon="20.9459125">
    <tag k="addr:city" v="Warszawa@Warszawa Bielany"/>
    <tag k="addr:housenumber" v="66"/>
    <tag k="addr:street" v="Płatnicza"/>
    <tag k="source" v="http://ump.waw.pl/ retrieved 11:07:14 02/24/09 (UMP-Warszawa/src/WARSZAWA_BIELANY.ulice.txt)"/>
  </node>
  <node id="377980020" version="1" timestamp="2009-04-16T13:15:03Z" uid="20587" user="balrog-kun" changeset="578511" lat="52.2819395" lon="20.9316466">
    <tag k="addr:city" v="Warszawa@Warszawa Bielany"/>
    <tag k="addr:housenumber" v="6"/>
    <tag k="addr:street" v="Petofiego"/>
    <tag k="source" v="http://ump.waw.pl/ retrieved 11:07:14 02/24/09 (UMP-Warszawa/src/WARSZAWA_BIELANY.ulice.txt)"/>
  </node>
  <node id="377980027" version="1" timestamp="2009-04-16T13:15:04Z" uid="20587" user="balrog-kun" changeset="578511" lat="52.2807184" lon="20.9357001">
    <tag k="addr:city" v="Warszawa@Warszawa Bielany"/>
    <tag k="addr:housenumber" v="5"/>
    <tag k="addr:street" v="Andersena"/>
    <tag k="source" v="http://ump.waw.pl/ retrieved 11:07:14 02/24/09 (UMP-Warszawa/src/WARSZAWA_BIELANY.ulice.txt)"/>
  </node>
  <node id="377980036" version="1" timestamp="2009-04-16T13:15:04Z" uid="20587" user="balrog-kun" changeset="578511" lat="52.2740072" lon="20.9191847">
    <tag k="addr:city" v="Warszawa@Warszawa Bielany"/>
    <tag k="addr:housenumber" v="19"/>
    <tag k="addr:street" v="Słonecznikowa"/>
    <tag k="source" v="http://ump.waw.pl/ retrieved 11:07:14 02/24/09 (UMP-Warszawa/src/WARSZAWA_BIELANY.ulice.txt)"/>
  </node>
  <node id="377980044" version="1" timestamp="2009-04-16T13:15:04Z" uid="20587" user="balrog-kun" changeset="578511" lat="52.2759531" lon="20.9143333">
    <tag k="addr:city" v="Warszawa@Warszawa Bielany"/>
    <tag k="addr:housenumber" v="27"/>
    <tag k="addr:street" v="Rodziny Połanieckich"/>
    <tag k="source" v="http://ump.waw.pl/ retrieved 11:07:14 02/24/09 (UMP-Warszawa/src/WARSZAWA_BIELANY.ulice.txt)"/>
  </node>
  <node id="377980054" version="1" timestamp="2009-04-16T13:15:05Z" uid="20587" user="balrog-kun" changeset="578511" lat="52.2800639" lon="20.9239385">
    <tag k="addr:city" v="Warszawa@Warszawa Bielany"/>
    <tag k="addr:housenumber" v="30"/>
    <tag k="addr:street" v="Conrada"/>
    <tag k="source" v="http://ump.waw.pl/ retrieved 11:07:14 02/24/09 (UMP-Warszawa/src/WARSZAWA_BIELANY.ulice.txt)"/>
  </node>
  <node id="377980062" version="1" timestamp="2009-04-16T13:15:05Z" uid="20587" user="balrog-kun" changeset="578511" lat="52.2775621" lon="20.9452085">
    <tag k="addr:city" v="Warszawa@Warszawa Bielany"/>
    <tag k="addr:housenumber" v="35"/>
    <tag k="addr:street" v="Płatnicza"/>
    <tag k="source" v="http://ump.waw.pl/ retrieved 11:07:14 02/24/09 (UMP-Warszawa/src/WARSZAWA_BIELANY.ulice.txt)"/>
  </node>
  <node id="377980070" version="1" timestamp="2009-04-16T13:15:06Z" uid="20587" user="balrog-kun" changeset="578511" lat="52.271999" lon="20.9221765">
    <tag k="addr:city" v="Warszawa@Warszawa Bielany"/>
    <tag k="addr:housenumber" v="4"/>
    <tag k="addr:street" v="Kluczowa"/>
    <tag k="source" v="http://ump.waw.pl/ retrieved 11:07:14 02/24/09 (UMP-Warszawa/src/WARSZAWA_BIELANY.ulice.txt)"/>
  </node>
  <node id="377980076" version="1" timestamp="2009-04-16T13:15:06Z" uid="20587" user="balrog-kun" changeset="578511" lat="52.2812408" lon="20.946692"/>
  <node id="377980086" version="1" timestamp="2009-04-16T13:15:07Z" uid="20587" user="balrog-kun" changeset="578511" lat="52.2741732" lon="20.9200894">
    <tag k="addr:city" v="Warszawa@Warszawa Bielany"/>
    <tag k="addr:housenumber" v="17"/>
    <tag k="addr:street" v="Brązownicza"/>
    <tag k="source" v="http://ump.waw.pl/ retrieved 11:07:14 02/24/09 (UMP-Warszawa/src/WARSZAWA_BIELANY.ulice.txt)"/>
  </node>
  <node id="377980096" version="1" timestamp="2009-04-16T13:15:07Z" uid="20587" user="balrog-kun" changeset="578511" lat="52.2826231" lon="20.9365553">
    <tag k="addr:city" v="Warszawa@Warszawa Bielany"/>
    <tag k="addr:housenumber" v="6"/>
    <tag k="addr:street" v="Wolumen"/>
    <tag k="source" v="http://ump.waw.pl/ retrieved 11:07:14 02/24/09 (UMP-Warszawa/src/WARSZAWA_BIELANY.ulice.txt)"/>
  </node>
  <node id="377980107" version="1" timestamp="2009-04-16T13:15:08Z" uid="20587" user="balrog-kun" changeset="578511" lat="52.2750351" lon="20.937014">
    <tag k="addr:city" v="Warszawa@Warszawa Bielany"/>
    <tag k="addr:housenumber" v="1"/>
    <tag k="addr:street" v="Fortowa"/>
    <tag k="source" v="http://ump.waw.pl/ retrieved 11:07:14 02/24/09 (UMP-Warszawa/src/WARSZAWA_BIELANY.ulice.txt)"/>
  </node>
  <node id="377980115" version="1" timestamp="2009-04-16T13:15:08Z" uid="20587" user="balrog-kun" changeset="578511" lat="52.277869" lon="20.9170664">
    <tag k="addr:city" v="Warszawa@Warszawa Bielany"/>
    <tag k="addr:housenumber" v="12"/>
    <tag k="addr:street" v="Bogusławskiego"/>
    <tag k="source" v="http://ump.waw.pl/ retrieved 11:07:14 02/24/09 (UMP-Warszawa/src/WARSZAWA_BIELANY.ulice.txt)"/>
  </node>
  <node id="377980125" version="1" timestamp="2009-04-16T13:15:09Z" uid="20587" user="balrog-kun" changeset="578511" lat="52.2721135" lon="20.9228641">
    <tag k="addr:city" v="Warszawa@Warszawa Bielany"/>
    <tag k="addr:housenumber" v="10"/>
    <tag k="addr:street" v="Kluczowa"/>
    <tag k="source" v="http://ump.waw.pl/ retrieved 11:07:14 02/24/09 (UMP-Warszawa/src/WARSZAWA_BIELANY.ulice.txt)"/>
  </node>
  <node id="377980125" version="2" timestamp="2010-10-09T14:34:59Z" uid="20587" user="balrog-kun" changeset="5993788" lat="52.2722064" lon="20.9227279">
    <tag k="addr:city" v="Warszawa@Warszawa Bielany"/>
    <tag k="addr:housenumber" v="10"/>
    <tag k="addr:street" v="Kluczowa"/>
    <tag k="source" v="http://ump.waw.pl/ retrieved 11:07:14 02/24/09 (UMP-Warszawa/src/WARSZAWA_BIELANY.ulice.txt)"/>
  </node>
  <node id="377980136" version="1" timestamp="2009-04-16T13:15:09Z" uid="20587" user="balrog-kun" changeset="578511" lat="52.2772614" lon="20.9270364">
    <tag k="addr:city" v="Warszawa@Warszawa Bielany"/>
    <tag k="addr:housenumber" v="12"/>
    <tag k="addr:street" v="Nerudy"/>
    <tag k="source" v="http://ump.waw.pl/ retrieved 11:07:14 02/24/09 (UMP-Warszawa/src/WARSZAWA_BIELANY.ulice.txt)"/>
  </node>
  <node id="377980136" version="2" timestamp="2010-10-09T14:34:56Z" uid="20587" user="balrog-kun" changeset="5993788" lat="52.2773126" lon="20.9277902">
    <tag k="addr:city" v="Warszawa@Warszawa Bielany"/>
    <tag k="addr:housenumber" v="12"/>
    <tag k="addr:street" v="Nerudy"/>
    <tag k="source" v="http://ump.waw.pl/ retrieved 11:07:14 02/24/09 (UMP-Warszawa/src/WARSZAWA_BIELANY.ulice.txt)"/>
  </node>
  <node id="377980149" version="1" timestamp="2009-04-16T13:15:10Z" uid="20587" user="balrog-kun" changeset="578511" lat="52.2763135" lon="20.9227616">
    <tag k="addr:city" v="Warszawa@Warszawa Bielany"/>
    <tag k="addr:housenumber" v="15"/>
    <tag k="addr:street" v="Conrada"/>
    <tag k="source" v="http://ump.waw.pl/ retrieved 11:07:14 02/24/09 (UMP-Warszawa/src/WARSZAWA_BIELANY.ulice.txt)"/>
  </node>
  <node id="377980159" version="1" timestamp="2009-04-16T13:15:10Z" uid="20587" user="balrog-kun" changeset="578511" lat="52.2803701" lon="20.9226163">
    <tag k="addr:city" v="Warszawa@Warszawa Bielany"/>
    <tag k="addr:housenumber" v="29"/>
    <tag k="addr:street" v="Conrada"/>
    <tag k="source" v="http://ump.waw.pl/ retrieved 11:07:14 02/24/09 (UMP-Warszawa/src/WARSZAWA_BIELANY.ulice.txt)"/>
  </node>
  <node id="377980169" version="1" timestamp="2009-04-16T13:15:11Z" uid="20587" user="balrog-kun" changeset="578511" lat="52.2788819" lon="20.945003"/>
  <node id="377980177" version="1" timestamp="2009-04-16T13:15:12Z" uid="20587" user="balrog-kun" changeset="578511" lat="52.2761129" lon="20.9448031">
    <tag k="addr:city" v="Warszawa@Warszawa Bielany"/>
    <tag k="addr:housenumber" v="1"/>
    <tag k="addr:street" v="Płatnicza"/>
    <tag k="source" v="http://ump.waw.pl/ retrieved 11:07:14 02/24/09 (UMP-Warszawa/src/WARSZAWA_BIELANY.ulice.txt)"/>
  </node>
  <node id="377980177" version="3" timestamp="2009-09-01T17:43:00Z" uid="20587" user="balrog-kun" changeset="2340514" lat="52.2763328" lon="20.9448406">
    <tag k="addr:city" v="Warszawa@Warszawa Bielany"/>
    <tag k="addr:housenumber" v="18"/>
    <tag k="addr:street" v="Płatnicza"/>
    <tag k="source" v="http://ump.waw.pl/ retrieved 11:07:14 02/24/09 (UMP-Warszawa/src/WARSZAWA_BIELANY.ulice.txt)"/>
  </node>
  <node id="377980184" version="1" timestamp="2009-04-16T13:15:13Z" uid="20587" user="balrog-kun" changeset="578511" lat="52.2720155" lon="20.922404">
    <tag k="addr:city" v="Warszawa@Warszawa Bielany"/>
    <tag k="addr:housenumber" v="6"/>
    <tag k="addr:street" v="Kluczowa"/>
    <tag k="source" v="http://ump.waw.pl/ retrieved 11:07:14 02/24/09 (UMP-Warszawa/src/WARSZAWA_BIELANY.ulice.txt)"/>
  </node>
  <node id="377980193" version="1" timestamp="2009-04-16T13:15:13Z" uid="20587" user="balrog-kun" changeset="578511" lat="52.2725705" lon="20.9236496">
    <tag k="addr:city" v="Warszawa@Warszawa Bielany"/>
    <tag k="addr:housenumber" v="15"/>
    <tag k="addr:street" v="Mistrzowska"/>
    <tag k="source" v="http://ump.waw.pl/ retrieved 11:07:14 02/24/09 (UMP-Warszawa/src/WARSZAWA_BIELANY.ulice.txt)"/>
  </node>
  <node id="377980204" version="1" timestamp="2009-04-16T13:15:14Z" uid="20587" user="balrog-kun" changeset="578511" lat="52.2772795" lon="20.9266375">
    <tag k="addr:city" v="Warszawa@Warszawa Bielany"/>
    <tag k="addr:housenumber" v="3"/>
    <tag k="addr:street" v="Nerudy"/>
    <tag k="source" v="http://ump.waw.pl/ retrieved 11:07:14 02/24/09 (UMP-Warszawa/src/WARSZAWA_BIELANY.ulice.txt)"/>
  </node>
  <node id="377980359" version="1" timestamp="2009-04-16T13:15:25Z" uid="20587" user="balrog-kun" changeset="578511" lat="52.2771523" lon="20.9160403">
    <tag k="addr:city" v="Warszawa@Warszawa Bielany"/>
    <tag k="addr:housenumber" v="8"/>
    <tag k="addr:street" v="Bogusławskiego"/>
    <tag k="source" v="http://ump.waw.pl/ retrieved 11:07:14 02/24/09 (UMP-Warszawa/src/WARSZAWA_BIELANY.ulice.txt)"/>
  </node>
  <node id="377980368" version="1" timestamp="2009-04-16T13:15:25Z" uid="20587" user="balrog-kun" changeset="578511" lat="52.2760983" lon="20.9240767">
    <tag k="addr:city" v="Warszawa@Warszawa Bielany"/>
    <tag k="addr:housenumber" v="11"/>
    <tag k="addr:street" v="Nerudy"/>
    <tag k="source" v="http://ump.waw.pl/ retrieved 11:07:14 02/24/09 (UMP-Warszawa/src/WARSZAWA_BIELANY.ulice.txt)"/>
  </node>
  <node id="377980379" version="1" timestamp="2009-04-16T13:15:25Z" uid="20587" user="balrog-kun" changeset="578511" lat="52.2844023" lon="20.932501">
    <tag k="addr:city" v="Warszawa@Warszawa Bielany"/>
    <tag k="addr:housenumber" v="2"/>
    <tag k="addr:street" v="Tołstoja"/>
    <tag k="source" v="http://ump.waw.pl/ retrieved 11:07:14 02/24/09 (UMP-Warszawa/src/WARSZAWA_BIELANY.ulice.txt)"/>
  </node>
  <node id="377980379" version="2" timestamp="2009-11-01T02:37:21Z" uid="20587" user="balrog-kun" changeset="3003332" lat="52.2844023" lon="20.932501">
    <tag k="addr:city" v="Warszawa@Warszawa Bielany"/>
    <tag k="addr:housenumber" v="2"/>
    <tag k="addr:street" v="Tołstoja"/>
    <tag k="source" v="http://ump.waw.pl/ retrieved 11:07:14 02/24/09 (UMP-Warszawa/src/WARSZAWA_BIELANY.ulice.txt)"/>
  </node>
  <node id="377980392" version="1" timestamp="2009-04-16T13:15:26Z" uid="20587" user="balrog-kun" changeset="578511" lat="52.2822199" lon="20.9316568">
    <tag k="addr:city" v="Warszawa@Warszawa Bielany"/>
    <tag k="addr:housenumber" v="8"/>
    <tag k="addr:street" v="Petofiego"/>
    <tag k="source" v="http://ump.waw.pl/ retrieved 11:07:14 02/24/09 (UMP-Warszawa/src/WARSZAWA_BIELANY.ulice.txt)"/>
  </node>
  <node id="377980403" version="1" timestamp="2009-04-16T13:15:26Z" uid="20587" user="balrog-kun" changeset="578511" lat="52.2789841" lon="20.9342379">
    <tag k="addr:city" v="Warszawa@Warszawa Bielany"/>
    <tag k="addr:housenumber" v="14"/>
    <tag k="addr:street" v="Wólczyńska"/>
    <tag k="source" v="http://ump.waw.pl/ retrieved 11:07:14 02/24/09 (UMP-Warszawa/src/WARSZAWA_BIELANY.ulice.txt)"/>
  </node>
  <node id="377980423" version="1" timestamp="2009-04-16T13:15:27Z" uid="20587" user="balrog-kun" changeset="578511" lat="52.2801586" lon="20.9466822">
    <tag k="addr:city" v="Warszawa@Warszawa Bielany"/>
    <tag k="addr:housenumber" v="71"/>
    <tag k="addr:street" v="Płatnicza"/>
    <tag k="source" v="http://ump.waw.pl/ retrieved 11:07:14 02/24/09 (UMP-Warszawa/src/WARSZAWA_BIELANY.ulice.txt)"/>
  </node>
  <node id="377980433" version="1" timestamp="2009-04-16T13:15:27Z" uid="20587" user="balrog-kun" changeset="578511" lat="52.2841586" lon="20.9343613">
    <tag k="addr:city" v="Warszawa@Warszawa Bielany"/>
    <tag k="addr:housenumber" v="2"/>
    <tag k="addr:street" v="Szekspira"/>
    <tag k="source" v="http://ump.waw.pl/ retrieved 11:07:14 02/24/09 (UMP-Warszawa/src/WARSZAWA_BIELANY.ulice.txt)"/>
  </node>
  <node id="377980433" version="2" timestamp="2009-11-01T02:37:10Z" uid="20587" user="balrog-kun" changeset="3003332" lat="52.2841611" lon="20.9344429">
    <tag k="addr:city" v="Warszawa@Warszawa Bielany"/>
    <tag k="addr:housenumber" v="2"/>
    <tag k="addr:street" v="Szekspira"/>
    <tag k="source" v="http://ump.waw.pl/ retrieved 11:07:14 02/24/09 (UMP-Warszawa/src/WARSZAWA_BIELANY.ulice.txt)"/>
  </node>
  <node id="377980445" version="1" timestamp="2009-04-16T13:15:28Z" uid="20587" user="balrog-kun" changeset="578511" lat="52.2793837" lon="20.9329512">
    <tag k="addr:city" v="Warszawa@Warszawa Bielany"/>
    <tag k="addr:housenumber" v="22"/>
    <tag k="addr:street" v="Wolumen"/>
    <tag k="source" v="http://ump.waw.pl/ retrieved 11:07:14 02/24/09 (UMP-Warszawa/src/WARSZAWA_BIELANY.ulice.txt)"/>
  </node>
  <node id="377980457" version="1" timestamp="2009-04-16T13:15:28Z" uid="20587" user="balrog-kun" changeset="578511" lat="52.2722922" lon="20.9213379">
    <tag k="addr:city" v="Warszawa@Warszawa Bielany"/>
    <tag k="addr:housenumber" v="4"/>
    <tag k="addr:street" v="Sieciechowska"/>
    <tag k="source" v="http://ump.waw.pl/ retrieved 11:07:14 02/24/09 (UMP-Warszawa/src/WARSZAWA_BIELANY.ulice.txt)"/>
  </node>
  <node id="377980469" version="1" timestamp="2009-04-16T13:15:29Z" uid="20587" user="balrog-kun" changeset="578511" lat="52.2733671" lon="20.9181909">
    <tag k="addr:city" v="Warszawa@Warszawa Bielany"/>
    <tag k="addr:housenumber" v="9"/>
    <tag k="addr:street" v="Osikowa"/>
    <tag k="source" v="http://ump.waw.pl/ retrieved 11:07:14 02/24/09 (UMP-Warszawa/src/WARSZAWA_BIELANY.ulice.txt)"/>
  </node>
  <node id="377980482" version="1" timestamp="2009-04-16T13:15:29Z" uid="20587" user="balrog-kun" changeset="578511" lat="52.2746601" lon="20.917484">
    <tag k="addr:city" v="Warszawa@Warszawa Bielany"/>
    <tag k="addr:housenumber" v="5"/>
    <tag k="addr:street" v="Kwitnąca"/>
    <tag k="source" v="http://ump.waw.pl/ retrieved 11:07:14 02/24/09 (UMP-Warszawa/src/WARSZAWA_BIELANY.ulice.txt)"/>
  </node>
  <node id="377980493" version="1" timestamp="2009-04-16T13:15:30Z" uid="20587" user="balrog-kun" changeset="578511" lat="52.2735591" lon="20.9180159">
    <tag k="addr:city" v="Warszawa@Warszawa Bielany"/>
    <tag k="addr:housenumber" v="11"/>
    <tag k="addr:street" v="Osikowa"/>
    <tag k="source" v="http://ump.waw.pl/ retrieved 11:07:14 02/24/09 (UMP-Warszawa/src/WARSZAWA_BIELANY.ulice.txt)"/>
  </node>
  <node id="377980505" version="1" timestamp="2009-04-16T13:15:31Z" uid="20587" user="balrog-kun" changeset="578511" lat="52.2715788" lon="20.9295014">
    <tag k="addr:city" v="Warszawa@Warszawa Bielany"/>
    <tag k="addr:housenumber" v="6"/>
    <tag k="addr:street" v="Conrada"/>
    <tag k="source" v="http://ump.waw.pl/ retrieved 11:07:14 02/24/09 (UMP-Warszawa/src/WARSZAWA_BIELANY.ulice.txt)"/>
  </node>
  <node id="377980505" version="2" timestamp="2010-10-09T14:35:11Z" uid="20587" user="balrog-kun" changeset="5993788" lat="52.2715788" lon="20.9295014">
    <tag k="addr:city" v="Warszawa@Warszawa Bielany"/>
    <tag k="addr:housenumber" v="6"/>
    <tag k="addr:street" v="Conrada"/>
    <tag k="source" v="http://ump.waw.pl/ retrieved 11:07:14 02/24/09 (UMP-Warszawa/src/WARSZAWA_BIELANY.ulice.txt)"/>
  </node>
  <node id="377980516" version="1" timestamp="2009-04-16T13:15:31Z" uid="20587" user="balrog-kun" changeset="578511" lat="52.2729808" lon="20.9234972">
    <tag k="addr:city" v="Warszawa@Warszawa Bielany"/>
    <tag k="addr:housenumber" v="11"/>
    <tag k="addr:street" v="Brązownicza"/>
    <tag k="source" v="http://ump.waw.pl/ retrieved 11:07:14 02/24/09 (UMP-Warszawa/src/WARSZAWA_BIELANY.ulice.txt)"/>
  </node>
  <node id="377980527" version="1" timestamp="2009-04-16T13:15:32Z" uid="20587" user="balrog-kun" changeset="578511" lat="52.2787648" lon="20.9312994">
    <tag k="addr:city" v="Warszawa@Warszawa Bielany"/>
    <tag k="addr:housenumber" v="79"/>
    <tag k="addr:street" v="Aspekt"/>
    <tag k="source" v="http://ump.waw.pl/ retrieved 11:07:14 02/24/09 (UMP-Warszawa/src/WARSZAWA_BIELANY.ulice.txt)"/>
  </node>
  <node id="377980537" version="1" timestamp="2009-04-16T13:15:32Z" uid="20587" user="balrog-kun" changeset="578511" lat="52.2736592" lon="20.9223398">
    <tag k="addr:city" v="Warszawa@Warszawa Bielany"/>
    <tag k="addr:housenumber" v="13"/>
    <tag k="addr:street" v="Brązownicza"/>
    <tag k="source" v="http://ump.waw.pl/ retrieved 11:07:14 02/24/09 (UMP-Warszawa/src/WARSZAWA_BIELANY.ulice.txt)"/>
  </node>
  <node id="377980548" version="1" timestamp="2009-04-16T13:15:33Z" uid="20587" user="balrog-kun" changeset="578511" lat="52.2731971" lon="20.9187009">
    <tag k="addr:city" v="Warszawa@Warszawa Bielany"/>
    <tag k="addr:housenumber" v="7"/>
    <tag k="addr:street" v="Osikowa"/>
    <tag k="source" v="http://ump.waw.pl/ retrieved 11:07:14 02/24/09 (UMP-Warszawa/src/WARSZAWA_BIELANY.ulice.txt)"/>
  </node>
  <node id="377980558" version="1" timestamp="2009-04-16T13:15:33Z" uid="20587" user="balrog-kun" changeset="578511" lat="52.2815117" lon="20.9260798">
    <tag k="addr:city" v="Warszawa@Warszawa Bielany"/>
    <tag k="addr:housenumber" v="2"/>
    <tag k="addr:street" v="Sokratesa"/>
    <tag k="source" v="http://ump.waw.pl/ retrieved 11:07:14 02/24/09 (UMP-Warszawa/src/WARSZAWA_BIELANY.ulice.txt)"/>
  </node>
  <node id="377980578" version="1" timestamp="2009-04-16T13:15:34Z" uid="20587" user="balrog-kun" changeset="578511" lat="52.275185" lon="20.935854">
    <tag k="addr:city" v="Warszawa@Warszawa Bielany"/>
    <tag k="addr:housenumber" v="15"/>
    <tag k="addr:street" v="Fortowa"/>
    <tag k="source" v="http://ump.waw.pl/ retrieved 11:07:14 02/24/09 (UMP-Warszawa/src/WARSZAWA_BIELANY.ulice.txt)"/>
  </node>
  <node id="377980589" version="1" timestamp="2009-04-16T13:15:35Z" uid="20587" user="balrog-kun" changeset="578511" lat="52.2857628" lon="20.9308846">
    <tag k="addr:city" v="Warszawa@Warszawa Bielany"/>
    <tag k="addr:housenumber" v="4"/>
    <tag k="addr:street" v="Tołstoja"/>
    <tag k="source" v="http://ump.waw.pl/ retrieved 11:07:14 02/24/09 (UMP-Warszawa/src/WARSZAWA_BIELANY.ulice.txt)"/>
  </node>
  <node id="377980598" version="1" timestamp="2009-04-16T13:15:35Z" uid="20587" user="balrog-kun" changeset="578511" lat="52.2706949" lon="20.9325161">
    <tag k="addr:city" v="Warszawa@Warszawa Bielany"/>
    <tag k="addr:housenumber" v="1"/>
    <tag k="addr:street" v="Conrada"/>
    <tag k="source" v="http://ump.waw.pl/ retrieved 11:07:14 02/24/09 (UMP-Warszawa/src/WARSZAWA_BIELANY.ulice.txt)"/>
  </node>
  <node id="377980609" version="1" timestamp="2009-04-16T13:15:36Z" uid="20587" user="balrog-kun" changeset="578511" lat="52.2717804" lon="20.9229782">
    <tag k="addr:city" v="Warszawa@Warszawa Bielany"/>
    <tag k="addr:housenumber" v="4"/>
    <tag k="addr:street" v="Mistrzowska"/>
    <tag k="source" v="http://ump.waw.pl/ retrieved 11:07:14 02/24/09 (UMP-Warszawa/src/WARSZAWA_BIELANY.ulice.txt)"/>
  </node>
  <node id="377980617" version="1" timestamp="2009-04-16T13:15:36Z" uid="20587" user="balrog-kun" changeset="578511" lat="52.2797989" lon="20.9336175">
    <tag k="addr:city" v="Warszawa@Warszawa Bielany"/>
    <tag k="addr:housenumber" v="18"/>
    <tag k="addr:street" v="Wolumen"/>
    <tag k="source" v="http://ump.waw.pl/ retrieved 11:07:14 02/24/09 (UMP-Warszawa/src/WARSZAWA_BIELANY.ulice.txt)"/>
  </node>
  <node id="377980624" version="1" timestamp="2009-04-16T13:15:37Z" uid="20587" user="balrog-kun" changeset="578511" lat="52.2849254" lon="20.9301148">
    <tag k="addr:city" v="Warszawa@Warszawa Bielany"/>
    <tag k="addr:housenumber" v="3"/>
    <tag k="addr:street" v="Tołstoja"/>
    <tag k="source" v="http://ump.waw.pl/ retrieved 11:07:14 02/24/09 (UMP-Warszawa/src/WARSZAWA_BIELANY.ulice.txt)"/>
  </node>
  <node id="377980662" version="1" timestamp="2009-04-16T13:15:38Z" uid="20587" user="balrog-kun" changeset="578511" lat="52.2714006" lon="20.9263692">
    <tag k="addr:city" v="Warszawa@Warszawa Bielany"/>
    <tag k="addr:housenumber" v="3"/>
    <tag k="addr:street" v="Brązownicza"/>
    <tag k="source" v="http://ump.waw.pl/ retrieved 11:07:14 02/24/09 (UMP-Warszawa/src/WARSZAWA_BIELANY.ulice.txt)"/>
  </node>
  <node id="377980674" version="1" timestamp="2009-04-16T13:15:39Z" uid="20587" user="balrog-kun" changeset="578511" lat="52.2775919" lon="20.9226462">
    <tag k="addr:city" v="Warszawa@Warszawa Bielany"/>
    <tag k="addr:housenumber" v="17"/>
    <tag k="addr:street" v="Conrada"/>
    <tag k="source" v="http://ump.waw.pl/ retrieved 11:07:14 02/24/09 (UMP-Warszawa/src/WARSZAWA_BIELANY.ulice.txt)"/>
  </node>
  <node id="377980685" version="1" timestamp="2009-04-16T13:15:39Z" uid="20587" user="balrog-kun" changeset="578511" lat="52.2841195" lon="20.9369666">
    <tag k="addr:city" v="Warszawa@Warszawa Bielany"/>
    <tag k="addr:housenumber" v="3"/>
    <tag k="addr:street" v="Dantego"/>
    <tag k="source" v="http://ump.waw.pl/ retrieved 11:07:14 02/24/09 (UMP-Warszawa/src/WARSZAWA_BIELANY.ulice.txt)"/>
  </node>
  <node id="377980696" version="1" timestamp="2009-04-16T13:15:40Z" uid="20587" user="balrog-kun" changeset="578511" lat="52.2816406" lon="20.9242096">
    <tag k="addr:city" v="Warszawa@Warszawa Bielany"/>
    <tag k="addr:housenumber" v="1"/>
    <tag k="addr:street" v="Sokratesa"/>
    <tag k="source" v="http://ump.waw.pl/ retrieved 11:07:14 02/24/09 (UMP-Warszawa/src/WARSZAWA_BIELANY.ulice.txt)"/>
  </node>
  <node id="377980707" version="1" timestamp="2009-04-16T13:15:40Z" uid="20587" user="balrog-kun" changeset="578511" lat="52.2787369" lon="20.916001">
    <tag k="addr:city" v="Warszawa@Warszawa Bielany"/>
    <tag k="addr:housenumber" v="19"/>
    <tag k="addr:street" v="Esej"/>
    <tag k="source" v="http://ump.waw.pl/ retrieved 11:07:14 02/24/09 (UMP-Warszawa/src/WARSZAWA_BIELANY.ulice.txt)"/>
  </node>
  <node id="377980721" version="1" timestamp="2009-04-16T13:15:41Z" uid="20587" user="balrog-kun" changeset="578511" lat="52.2867753" lon="20.9367006">
    <tag k="addr:city" v="Warszawa@Warszawa Bielany"/>
    <tag k="addr:housenumber" v="7"/>
    <tag k="addr:street" v="Wergiliusza"/>
    <tag k="source" v="http://ump.waw.pl/ retrieved 11:07:14 02/24/09 (UMP-Warszawa/src/WARSZAWA_BIELANY.ulice.txt)"/>
  </node>
  <node id="377980733" version="1" timestamp="2009-04-16T13:15:41Z" uid="20587" user="balrog-kun" changeset="578511" lat="52.2719104" lon="20.9213805">
    <tag k="addr:city" v="Warszawa@Warszawa Bielany"/>
    <tag k="addr:housenumber" v="2"/>
    <tag k="addr:street" v="Kluczowa"/>
    <tag k="source" v="http://ump.waw.pl/ retrieved 11:07:14 02/24/09 (UMP-Warszawa/src/WARSZAWA_BIELANY.ulice.txt)"/>
  </node>
  <node id="377980741" version="1" timestamp="2009-04-16T13:15:42Z" uid="20587" user="balrog-kun" changeset="578511" lat="52.2815143" lon="20.9379695">
    <tag k="addr:city" v="Warszawa@Warszawa Bielany"/>
    <tag k="addr:housenumber" v="23"/>
    <tag k="addr:street" v="Reymonta"/>
    <tag k="source" v="http://ump.waw.pl/ retrieved 11:07:14 02/24/09 (UMP-Warszawa/src/WARSZAWA_BIELANY.ulice.txt)"/>
  </node>
  <node id="377980748" version="1" timestamp="2009-04-16T13:15:42Z" uid="20587" user="balrog-kun" changeset="578511" lat="52.2849768" lon="20.9415984">
    <tag k="addr:city" v="Warszawa@Warszawa Bielany"/>
    <tag k="addr:housenumber" v="54"/>
    <tag k="addr:street" v="Reymonta"/>
    <tag k="source" v="http://ump.waw.pl/ retrieved 11:07:14 02/24/09 (UMP-Warszawa/src/WARSZAWA_BIELANY.ulice.txt)"/>
  </node>
  <node id="377980748" version="2" timestamp="2009-11-01T02:37:12Z" uid="20587" user="balrog-kun" changeset="3003332" lat="52.2844885" lon="20.9414654">
    <tag k="addr:city" v="Warszawa@Warszawa Bielany"/>
    <tag k="addr:housenumber" v="54"/>
    <tag k="addr:street" v="Reymonta"/>
    <tag k="source" v="http://ump.waw.pl/ retrieved 11:07:14 02/24/09 (UMP-Warszawa/src/WARSZAWA_BIELANY.ulice.txt)"/>
  </node>
  <node id="377980763" version="1" timestamp="2009-04-16T13:15:43Z" uid="20587" user="balrog-kun" changeset="578511" lat="52.273465" lon="20.9191506">
    <tag k="addr:city" v="Warszawa@Warszawa Bielany"/>
    <tag k="addr:housenumber" v="3"/>
    <tag k="addr:street" v="Osikowa"/>
    <tag k="source" v="http://ump.waw.pl/ retrieved 11:07:14 02/24/09 (UMP-Warszawa/src/WARSZAWA_BIELANY.ulice.txt)"/>
  </node>
  <node id="377980772" version="1" timestamp="2009-04-16T13:15:43Z" uid="20587" user="balrog-kun" changeset="578511" lat="52.2717445" lon="20.9256057">
    <tag k="addr:city" v="Warszawa@Warszawa Bielany"/>
    <tag k="addr:housenumber" v="7"/>
    <tag k="addr:street" v="Brązownicza"/>
    <tag k="source" v="http://ump.waw.pl/ retrieved 11:07:14 02/24/09 (UMP-Warszawa/src/WARSZAWA_BIELANY.ulice.txt)"/>
  </node>
  <node id="377980778" version="1" timestamp="2009-04-16T13:15:43Z" uid="20587" user="balrog-kun" changeset="578511" lat="52.2767887" lon="20.9305218">
    <tag k="addr:city" v="Warszawa@Warszawa Bielany"/>
    <tag k="addr:housenumber" v="73"/>
    <tag k="addr:street" v="Aspekt"/>
    <tag k="source" v="http://ump.waw.pl/ retrieved 11:07:14 02/24/09 (UMP-Warszawa/src/WARSZAWA_BIELANY.ulice.txt)"/>
  </node>
  <node id="377980785" version="1" timestamp="2009-04-16T13:15:44Z" uid="20587" user="balrog-kun" changeset="578511" lat="52.2830423" lon="20.9403547">
    <tag k="addr:city" v="Warszawa@Warszawa Bielany"/>
    <tag k="addr:housenumber" v="25"/>
    <tag k="addr:street" v="Reymonta"/>
    <tag k="source" v="http://ump.waw.pl/ retrieved 11:07:14 02/24/09 (UMP-Warszawa/src/WARSZAWA_BIELANY.ulice.txt)"/>
  </node>
  <node id="377980785" version="2" timestamp="2009-11-01T02:37:11Z" uid="20587" user="balrog-kun" changeset="3003332" lat="52.2829803" lon="20.9402977">
    <tag k="addr:city" v="Warszawa@Warszawa Bielany"/>
    <tag k="addr:housenumber" v="25"/>
    <tag k="addr:street" v="Reymonta"/>
    <tag k="source" v="http://ump.waw.pl/ retrieved 11:07:14 02/24/09 (UMP-Warszawa/src/WARSZAWA_BIELANY.ulice.txt)"/>
  </node>
  <node id="377980793" version="1" timestamp="2009-04-16T13:15:44Z" uid="20587" user="balrog-kun" changeset="578511" lat="52.2813267" lon="20.9348627">
    <tag k="addr:city" v="Warszawa@Warszawa Bielany"/>
    <tag k="addr:housenumber" v="12"/>
    <tag k="addr:street" v="Wolumen"/>
    <tag k="source" v="http://ump.waw.pl/ retrieved 11:07:14 02/24/09 (UMP-Warszawa/src/WARSZAWA_BIELANY.ulice.txt)"/>
  </node>
  <node id="377980804" version="1" timestamp="2009-04-16T13:15:44Z" uid="20587" user="balrog-kun" changeset="578511" lat="52.2798039" lon="20.9327331">
    <tag k="addr:city" v="Warszawa@Warszawa Bielany"/>
    <tag k="addr:housenumber" v="20"/>
    <tag k="addr:street" v="Wolumen"/>
    <tag k="source" v="http://ump.waw.pl/ retrieved 11:07:14 02/24/09 (UMP-Warszawa/src/WARSZAWA_BIELANY.ulice.txt)"/>
  </node>
  <node id="377980812" version="1" timestamp="2009-04-16T13:15:44Z" uid="20587" user="balrog-kun" changeset="578511" lat="52.2809802" lon="20.9337958">
    <tag k="addr:city" v="Warszawa@Warszawa Bielany"/>
    <tag k="addr:housenumber" v="14"/>
    <tag k="addr:street" v="Wolumen"/>
    <tag k="source" v="http://ump.waw.pl/ retrieved 11:07:14 02/24/09 (UMP-Warszawa/src/WARSZAWA_BIELANY.ulice.txt)"/>
  </node>
  <node id="377980824" version="1" timestamp="2009-04-16T13:15:45Z" uid="20587" user="balrog-kun" changeset="578511" lat="52.2808613" lon="20.9316666">
    <tag k="addr:city" v="Warszawa@Warszawa Bielany"/>
    <tag k="addr:housenumber" v="4"/>
    <tag k="addr:street" v="Petofiego"/>
    <tag k="source" v="http://ump.waw.pl/ retrieved 11:07:14 02/24/09 (UMP-Warszawa/src/WARSZAWA_BIELANY.ulice.txt)"/>
  </node>
  <node id="377980833" version="1" timestamp="2009-04-16T13:15:45Z" uid="20587" user="balrog-kun" changeset="578511" lat="52.2824287" lon="20.9280458">
    <tag k="addr:city" v="Warszawa@Warszawa Bielany"/>
    <tag k="addr:housenumber" v="7"/>
    <tag k="addr:street" v="Petofiego"/>
    <tag k="source" v="http://ump.waw.pl/ retrieved 11:07:14 02/24/09 (UMP-Warszawa/src/WARSZAWA_BIELANY.ulice.txt)"/>
  </node>
  <node id="377980842" version="1" timestamp="2009-04-16T13:15:45Z" uid="20587" user="balrog-kun" changeset="578511" lat="52.2757385" lon="20.915274">
    <tag k="addr:city" v="Warszawa@Warszawa Bielany"/>
    <tag k="addr:housenumber" v="29"/>
    <tag k="addr:street" v="Rodziny Połanieckich"/>
    <tag k="source" v="http://ump.waw.pl/ retrieved 11:07:14 02/24/09 (UMP-Warszawa/src/WARSZAWA_BIELANY.ulice.txt)"/>
  </node>
  <node id="377980853" version="1" timestamp="2009-04-16T13:15:46Z" uid="20587" user="balrog-kun" changeset="578511" lat="52.2746603" lon="20.9227885">
    <tag k="addr:city" v="Warszawa@Warszawa Bielany"/>
    <tag k="addr:housenumber" v="11"/>
    <tag k="addr:street" v="Conrada"/>
    <tag k="source" v="http://ump.waw.pl/ retrieved 11:07:14 02/24/09 (UMP-Warszawa/src/WARSZAWA_BIELANY.ulice.txt)"/>
  </node>
  <node id="377980853" version="2" timestamp="2010-10-09T14:35:02Z" uid="20587" user="balrog-kun" changeset="5993788" lat="52.2746507" lon="20.9226995">
    <tag k="addr:city" v="Warszawa@Warszawa Bielany"/>
    <tag k="addr:housenumber" v="11"/>
    <tag k="addr:street" v="Conrada"/>
    <tag k="source" v="http://ump.waw.pl/ retrieved 11:07:14 02/24/09 (UMP-Warszawa/src/WARSZAWA_BIELANY.ulice.txt)"/>
  </node>
  <node id="377980862" version="1" timestamp="2009-04-16T13:15:46Z" uid="20587" user="balrog-kun" changeset="578511" lat="52.2850725" lon="20.9351321">
    <tag k="addr:city" v="Warszawa@Warszawa Bielany"/>
    <tag k="addr:housenumber" v="1"/>
    <tag k="addr:street" v="Goldoniego"/>
    <tag k="source" v="http://ump.waw.pl/ retrieved 11:07:14 02/24/09 (UMP-Warszawa/src/WARSZAWA_BIELANY.ulice.txt)"/>
  </node>
  <node id="377980872" version="1" timestamp="2009-04-16T13:15:46Z" uid="20587" user="balrog-kun" changeset="578511" lat="52.2723517" lon="20.9209499">
    <tag k="addr:city" v="Warszawa@Warszawa Bielany"/>
    <tag k="addr:housenumber" v="1"/>
    <tag k="addr:street" v="Sieciechowska"/>
    <tag k="source" v="http://ump.waw.pl/ retrieved 11:07:14 02/24/09 (UMP-Warszawa/src/WARSZAWA_BIELANY.ulice.txt)"/>
  </node>
  <node id="377980883" version="1" timestamp="2009-04-16T13:15:47Z" uid="20587" user="balrog-kun" changeset="578511" lat="52.2772609" lon="20.9307146">
    <tag k="addr:city" v="Warszawa@Warszawa Bielany"/>
    <tag k="addr:housenumber" v="75"/>
    <tag k="addr:street" v="Aspekt"/>
    <tag k="source" v="http://ump.waw.pl/ retrieved 11:07:14 02/24/09 (UMP-Warszawa/src/WARSZAWA_BIELANY.ulice.txt)"/>
  </node>
  <node id="377980892" version="1" timestamp="2009-04-16T13:15:47Z" uid="20587" user="balrog-kun" changeset="578511" lat="52.2807798" lon="20.9367724">
    <tag k="addr:city" v="Warszawa@Warszawa Bielany"/>
    <tag k="addr:housenumber" v="4"/>
    <tag k="addr:street" v="Andersena"/>
    <tag k="source" v="http://ump.waw.pl/ retrieved 11:07:14 02/24/09 (UMP-Warszawa/src/WARSZAWA_BIELANY.ulice.txt)"/>
  </node>
  <node id="377980899" version="1" timestamp="2009-04-16T13:15:47Z" uid="20587" user="balrog-kun" changeset="578511" lat="52.2792162" lon="20.9189952">
    <tag k="addr:city" v="Warszawa@Warszawa Bielany"/>
    <tag k="addr:housenumber" v="16"/>
    <tag k="addr:street" v="Bogusławskiego"/>
    <tag k="source" v="http://ump.waw.pl/ retrieved 11:07:14 02/24/09 (UMP-Warszawa/src/WARSZAWA_BIELANY.ulice.txt)"/>
  </node>
  <node id="377980910" version="1" timestamp="2009-04-16T13:15:48Z" uid="20587" user="balrog-kun" changeset="578511" lat="52.2794977" lon="20.9344498">
    <tag k="addr:city" v="Warszawa@Warszawa Bielany"/>
    <tag k="addr:housenumber" v="11"/>
    <tag k="addr:street" v="Wolumen"/>
    <tag k="source" v="http://ump.waw.pl/ retrieved 11:07:14 02/24/09 (UMP-Warszawa/src/WARSZAWA_BIELANY.ulice.txt)"/>
  </node>
  <node id="377980921" version="1" timestamp="2009-04-16T13:15:48Z" uid="20587" user="balrog-kun" changeset="578511" lat="52.2705386" lon="20.9310655">
    <tag k="addr:city" v="Warszawa@Warszawa Bielany"/>
    <tag k="addr:housenumber" v="3"/>
    <tag k="addr:street" v="Conrada"/>
    <tag k="source" v="http://ump.waw.pl/ retrieved 11:07:14 02/24/09 (UMP-Warszawa/src/WARSZAWA_BIELANY.ulice.txt)"/>
  </node>
  <node id="377980934" version="1" timestamp="2009-04-16T13:15:48Z" uid="20587" user="balrog-kun" changeset="578511" lat="52.2820537" lon="20.926816">
    <tag k="addr:city" v="Warszawa@Warszawa Bielany"/>
    <tag k="addr:housenumber" v="4"/>
    <tag k="addr:street" v="Sokratesa"/>
    <tag k="source" v="http://ump.waw.pl/ retrieved 11:07:14 02/24/09 (UMP-Warszawa/src/WARSZAWA_BIELANY.ulice.txt)"/>
  </node>
  <node id="377980944" version="1" timestamp="2009-04-16T13:15:49Z" uid="20587" user="balrog-kun" changeset="578511" lat="52.2836617" lon="20.9356055">
    <tag k="addr:city" v="Warszawa@Warszawa Bielany"/>
    <tag k="addr:housenumber" v="1"/>
    <tag k="addr:street" v="Dantego"/>
    <tag k="source" v="http://ump.waw.pl/ retrieved 11:07:14 02/24/09 (UMP-Warszawa/src/WARSZAWA_BIELANY.ulice.txt)"/>
  </node>
  <node id="377980954" version="1" timestamp="2009-04-16T13:15:49Z" uid="20587" user="balrog-kun" changeset="578511" lat="52.2776557" lon="20.9444866">
    <tag k="addr:city" v="Warszawa@Warszawa Bielany"/>
    <tag k="addr:housenumber" v="38"/>
    <tag k="addr:street" v="Płatnicza"/>
    <tag k="source" v="http://ump.waw.pl/ retrieved 11:07:14 02/24/09 (UMP-Warszawa/src/WARSZAWA_BIELANY.ulice.txt)"/>
  </node>
  <node id="377980964" version="1" timestamp="2009-04-16T13:15:50Z" uid="20587" user="balrog-kun" changeset="578511" lat="52.2797259" lon="20.9455239">
    <tag k="addr:city" v="Warszawa@Warszawa Bielany"/>
    <tag k="addr:housenumber" v="56"/>
    <tag k="addr:street" v="Płatnicza"/>
    <tag k="source" v="http://ump.waw.pl/ retrieved 11:07:14 02/24/09 (UMP-Warszawa/src/WARSZAWA_BIELANY.ulice.txt)"/>
  </node>
  <node id="377980972" version="1" timestamp="2009-04-16T13:15:50Z" uid="20587" user="balrog-kun" changeset="578511" lat="52.2763495" lon="20.9269257">
    <tag k="addr:city" v="Warszawa@Warszawa Bielany"/>
    <tag k="addr:housenumber" v="2"/>
    <tag k="addr:street" v="Nerudy"/>
    <tag k="source" v="http://ump.waw.pl/ retrieved 11:07:14 02/24/09 (UMP-Warszawa/src/WARSZAWA_BIELANY.ulice.txt)"/>
  </node>
  <node id="377980972" version="2" timestamp="2010-10-09T14:34:59Z" uid="20587" user="balrog-kun" changeset="5993788" lat="52.2763896" lon="20.9277888">
    <tag k="addr:city" v="Warszawa@Warszawa Bielany"/>
    <tag k="addr:housenumber" v="2"/>
    <tag k="addr:street" v="Nerudy"/>
    <tag k="source" v="http://ump.waw.pl/ retrieved 11:07:14 02/24/09 (UMP-Warszawa/src/WARSZAWA_BIELANY.ulice.txt)"/>
  </node>
  <node id="377980981" version="1" timestamp="2009-04-16T13:15:50Z" uid="20587" user="balrog-kun" changeset="578511" lat="52.2850749" lon="20.9341703">
    <tag k="addr:city" v="Warszawa@Warszawa Bielany"/>
    <tag k="addr:housenumber" v="1"/>
    <tag k="addr:street" v="Szekspira"/>
    <tag k="source" v="http://ump.waw.pl/ retrieved 11:07:14 02/24/09 (UMP-Warszawa/src/WARSZAWA_BIELANY.ulice.txt)"/>
  </node>
  <node id="377980989" version="1" timestamp="2009-04-16T13:15:51Z" uid="20587" user="balrog-kun" changeset="578511" lat="52.2755485" lon="20.9238366">
    <tag k="addr:city" v="Warszawa@Warszawa Bielany"/>
    <tag k="addr:housenumber" v="18"/>
    <tag k="addr:street" v="Conrada"/>
    <tag k="source" v="http://ump.waw.pl/ retrieved 11:07:14 02/24/09 (UMP-Warszawa/src/WARSZAWA_BIELANY.ulice.txt)"/>
  </node>
  <node id="377980997" version="1" timestamp="2009-04-16T13:15:51Z" uid="20587" user="balrog-kun" changeset="578511" lat="52.2826423" lon="20.9286176">
    <tag k="addr:city" v="Warszawa@Warszawa Bielany"/>
    <tag k="addr:housenumber" v="5"/>
    <tag k="addr:street" v="Petofiego"/>
    <tag k="source" v="http://ump.waw.pl/ retrieved 11:07:14 02/24/09 (UMP-Warszawa/src/WARSZAWA_BIELANY.ulice.txt)"/>
  </node>
  <node id="377981003" version="1" timestamp="2009-04-16T13:15:51Z" uid="20587" user="balrog-kun" changeset="578511" lat="52.28236" lon="20.9274473">
    <tag k="addr:city" v="Warszawa@Warszawa Bielany"/>
    <tag k="addr:housenumber" v="8"/>
    <tag k="addr:street" v="Sokratesa"/>
    <tag k="source" v="http://ump.waw.pl/ retrieved 11:07:14 02/24/09 (UMP-Warszawa/src/WARSZAWA_BIELANY.ulice.txt)"/>
  </node>
  <node id="377981008" version="1" timestamp="2009-04-16T13:15:52Z" uid="20587" user="balrog-kun" changeset="578511" lat="52.2728013" lon="20.9262411">
    <tag k="addr:city" v="Warszawa@Warszawa Bielany"/>
    <tag k="addr:housenumber" v="10"/>
    <tag k="addr:street" v="Conrada"/>
    <tag k="source" v="http://ump.waw.pl/ retrieved 11:07:14 02/24/09 (UMP-Warszawa/src/WARSZAWA_BIELANY.ulice.txt)"/>
  </node>
  <node id="377981017" version="1" timestamp="2009-04-16T13:15:52Z" uid="20587" user="balrog-kun" changeset="578511" lat="52.2810754" lon="20.9306388">
    <tag k="addr:city" v="Warszawa@Warszawa Bielany"/>
    <tag k="addr:housenumber" v="1"/>
    <tag k="addr:street" v="Petofiego"/>
    <tag k="source" v="http://ump.waw.pl/ retrieved 11:07:14 02/24/09 (UMP-Warszawa/src/WARSZAWA_BIELANY.ulice.txt)"/>
  </node>
  <node id="377981025" version="1" timestamp="2009-04-16T13:15:53Z" uid="20587" user="balrog-kun" changeset="578511" lat="52.2730969" lon="20.9212553">
    <tag k="addr:city" v="Warszawa@Warszawa Bielany"/>
    <tag k="addr:housenumber" v="9"/>
    <tag k="addr:street" v="Sieciechowska"/>
    <tag k="source" v="http://ump.waw.pl/ retrieved 11:07:14 02/24/09 (UMP-Warszawa/src/WARSZAWA_BIELANY.ulice.txt)"/>
  </node>
  <node id="377981031" version="1" timestamp="2009-04-16T13:15:53Z" uid="20587" user="balrog-kun" changeset="578511" lat="52.2814283" lon="20.9366221">
    <tag k="addr:city" v="Warszawa@Warszawa Bielany"/>
    <tag k="addr:housenumber" v="6"/>
    <tag k="addr:street" v="Andersena"/>
    <tag k="source" v="http://ump.waw.pl/ retrieved 11:07:14 02/24/09 (UMP-Warszawa/src/WARSZAWA_BIELANY.ulice.txt)"/>
  </node>
  <node id="377981037" version="1" timestamp="2009-04-16T13:15:53Z" uid="20587" user="balrog-kun" changeset="578511" lat="52.2715884" lon="20.9230036">
    <tag k="addr:city" v="Warszawa@Warszawa Bielany"/>
    <tag k="addr:housenumber" v="2"/>
    <tag k="addr:street" v="Mistrzowska"/>
    <tag k="source" v="http://ump.waw.pl/ retrieved 11:07:14 02/24/09 (UMP-Warszawa/src/WARSZAWA_BIELANY.ulice.txt)"/>
  </node>
  <node id="377981044" version="1" timestamp="2009-04-16T13:15:54Z" uid="20587" user="balrog-kun" changeset="578511" lat="52.2794186" lon="20.9359336">
    <tag k="addr:city" v="Warszawa@Warszawa Bielany"/>
    <tag k="addr:housenumber" v="1"/>
    <tag k="addr:street" v="Andersena"/>
    <tag k="source" v="http://ump.waw.pl/ retrieved 11:07:14 02/24/09 (UMP-Warszawa/src/WARSZAWA_BIELANY.ulice.txt)"/>
  </node>
  <node id="377981053" version="1" timestamp="2009-04-16T13:15:54Z" uid="20587" user="balrog-kun" changeset="578511" lat="52.2717933" lon="20.92514">
    <tag k="addr:city" v="Warszawa@Warszawa Bielany"/>
    <tag k="addr:housenumber" v="9"/>
    <tag k="addr:street" v="Brązownicza"/>
    <tag k="source" v="http://ump.waw.pl/ retrieved 11:07:14 02/24/09 (UMP-Warszawa/src/WARSZAWA_BIELANY.ulice.txt)"/>
  </node>
  <node id="377981058" version="1" timestamp="2009-04-16T13:15:54Z" uid="20587" user="balrog-kun" changeset="578511" lat="52.2818418" lon="20.935371">
    <tag k="addr:city" v="Warszawa@Warszawa Bielany"/>
    <tag k="addr:housenumber" v="10"/>
    <tag k="addr:street" v="Wolumen"/>
    <tag k="source" v="http://ump.waw.pl/ retrieved 11:07:14 02/24/09 (UMP-Warszawa/src/WARSZAWA_BIELANY.ulice.txt)"/>
  </node>
  <node id="377981067" version="1" timestamp="2009-04-16T13:15:55Z" uid="20587" user="balrog-kun" changeset="578511" lat="52.2850389" lon="20.9412115">
    <tag k="addr:city" v="Warszawa@Warszawa Bielany"/>
    <tag k="addr:housenumber" v="27"/>
    <tag k="addr:street" v="Reymonta"/>
    <tag k="source" v="http://ump.waw.pl/ retrieved 11:07:14 02/24/09 (UMP-Warszawa/src/WARSZAWA_BIELANY.ulice.txt)"/>
  </node>
  <node id="377981067" version="2" timestamp="2009-11-01T02:37:12Z" uid="20587" user="balrog-kun" changeset="3003332" lat="52.2848324" lon="20.9409041">
    <tag k="addr:city" v="Warszawa@Warszawa Bielany"/>
    <tag k="addr:housenumber" v="27"/>
    <tag k="addr:street" v="Reymonta"/>
    <tag k="source" v="http://ump.waw.pl/ retrieved 11:07:14 02/24/09 (UMP-Warszawa/src/WARSZAWA_BIELANY.ulice.txt)"/>
  </node>
  <node id="377981072" version="1" timestamp="2009-04-16T13:15:55Z" uid="20587" user="balrog-kun" changeset="578511" lat="52.2737092" lon="20.924773">
    <tag k="addr:city" v="Warszawa@Warszawa Bielany"/>
    <tag k="addr:housenumber" v="14"/>
    <tag k="addr:street" v="Conrada"/>
    <tag k="source" v="http://ump.waw.pl/ retrieved 11:07:14 02/24/09 (UMP-Warszawa/src/WARSZAWA_BIELANY.ulice.txt)"/>
  </node>
  <node id="377981079" version="1" timestamp="2009-04-16T13:15:55Z" uid="20587" user="balrog-kun" changeset="578511" lat="52.2758373" lon="20.9158425">
    <tag k="addr:city" v="Warszawa@Warszawa Bielany"/>
    <tag k="addr:housenumber" v="4"/>
    <tag k="addr:street" v="Bogusławskiego"/>
    <tag k="source" v="http://ump.waw.pl/ retrieved 11:07:14 02/24/09 (UMP-Warszawa/src/WARSZAWA_BIELANY.ulice.txt)"/>
  </node>
  <node id="377981085" version="1" timestamp="2009-04-16T13:15:55Z" uid="20587" user="balrog-kun" changeset="578511" lat="52.2710845" lon="20.9279721">
    <tag k="addr:city" v="Warszawa@Warszawa Bielany"/>
    <tag k="addr:housenumber" v="7"/>
    <tag k="addr:street" v="Conrada"/>
    <tag k="source" v="http://ump.waw.pl/ retrieved 11:07:14 02/24/09 (UMP-Warszawa/src/WARSZAWA_BIELANY.ulice.txt)"/>
  </node>
  <node id="377981085" version="2" timestamp="2010-10-09T14:35:12Z" uid="20587" user="balrog-kun" changeset="5993788" lat="52.2710845" lon="20.9279721">
    <tag k="addr:city" v="Warszawa@Warszawa Bielany"/>
    <tag k="addr:housenumber" v="7"/>
    <tag k="addr:street" v="Conrada"/>
    <tag k="source" v="http://ump.waw.pl/ retrieved 11:07:14 02/24/09 (UMP-Warszawa/src/WARSZAWA_BIELANY.ulice.txt)"/>
  </node>
  <node id="377981093" version="1" timestamp="2009-04-16T13:15:56Z" uid="20587" user="balrog-kun" changeset="578511" lat="52.2767268" lon="20.9309088">
    <tag k="addr:city" v="Warszawa@Warszawa Bielany"/>
    <tag k="addr:housenumber" v="48"/>
    <tag k="addr:street" v="Aspekt"/>
    <tag k="source" v="http://ump.waw.pl/ retrieved 11:07:14 02/24/09 (UMP-Warszawa/src/WARSZAWA_BIELANY.ulice.txt)"/>
  </node>
  <node id="377981103" version="1" timestamp="2009-04-16T13:15:56Z" uid="20587" user="balrog-kun" changeset="578511" lat="52.27501" lon="20.9183142">
    <tag k="addr:city" v="Warszawa@Warszawa Bielany"/>
    <tag k="addr:housenumber" v="11"/>
    <tag k="addr:street" v="Kwitnąca"/>
    <tag k="source" v="http://ump.waw.pl/ retrieved 11:07:14 02/24/09 (UMP-Warszawa/src/WARSZAWA_BIELANY.ulice.txt)"/>
  </node>
  <node id="377981108" version="1" timestamp="2009-04-16T13:15:57Z" uid="20587" user="balrog-kun" changeset="578511" lat="52.2819295" lon="20.9295566">
    <tag k="addr:city" v="Warszawa@Warszawa Bielany"/>
    <tag k="addr:housenumber" v="2"/>
    <tag k="addr:street" v="Czechowa"/>
    <tag k="source" v="http://ump.waw.pl/ retrieved 11:07:14 02/24/09 (UMP-Warszawa/src/WARSZAWA_BIELANY.ulice.txt)"/>
  </node>
  <node id="377981114" version="1" timestamp="2009-04-16T13:15:57Z" uid="20587" user="balrog-kun" changeset="578511" lat="52.2723135" lon="20.9224141">
    <tag k="addr:city" v="Warszawa@Warszawa Bielany"/>
    <tag k="addr:housenumber" v="8"/>
    <tag k="addr:street" v="Kluczowa"/>
    <tag k="source" v="http://ump.waw.pl/ retrieved 11:07:14 02/24/09 (UMP-Warszawa/src/WARSZAWA_BIELANY.ulice.txt)"/>
  </node>
  <node id="377981114" version="2" timestamp="2010-10-09T14:35:10Z" uid="20587" user="balrog-kun" changeset="5993788" lat="52.2724064" lon="20.9222779">
    <tag k="addr:city" v="Warszawa@Warszawa Bielany"/>
    <tag k="addr:housenumber" v="8"/>
    <tag k="addr:street" v="Kluczowa"/>
    <tag k="source" v="http://ump.waw.pl/ retrieved 11:07:14 02/24/09 (UMP-Warszawa/src/WARSZAWA_BIELANY.ulice.txt)"/>
  </node>
  <node id="377981120" version="1" timestamp="2009-04-16T13:15:57Z" uid="20587" user="balrog-kun" changeset="578511" lat="52.2821211" lon="20.9371496">
    <tag k="addr:city" v="Warszawa@Warszawa Bielany"/>
    <tag k="addr:housenumber" v="8"/>
    <tag k="addr:street" v="Andersena"/>
    <tag k="source" v="http://ump.waw.pl/ retrieved 11:07:14 02/24/09 (UMP-Warszawa/src/WARSZAWA_BIELANY.ulice.txt)"/>
  </node>
  <node id="377981128" version="1" timestamp="2009-04-16T13:15:58Z" uid="20587" user="balrog-kun" changeset="578511" lat="52.2766913" lon="20.9155813">
    <tag k="addr:city" v="Warszawa@Warszawa Bielany"/>
    <tag k="addr:housenumber" v="6"/>
    <tag k="addr:street" v="Bogusławskiego"/>
    <tag k="source" v="http://ump.waw.pl/ retrieved 11:07:14 02/24/09 (UMP-Warszawa/src/WARSZAWA_BIELANY.ulice.txt)"/>
  </node>
  <node id="377981128" version="2" timestamp="2010-10-09T14:35:11Z" uid="20587" user="balrog-kun" changeset="5993788" lat="52.2766052" lon="20.9158626">
    <tag k="addr:city" v="Warszawa@Warszawa Bielany"/>
    <tag k="addr:housenumber" v="6"/>
    <tag k="addr:street" v="Bogusławskiego"/>
    <tag k="source" v="http://ump.waw.pl/ retrieved 11:07:14 02/24/09 (UMP-Warszawa/src/WARSZAWA_BIELANY.ulice.txt)"/>
  </node>
  <node id="377981134" version="1" timestamp="2009-04-16T13:15:58Z" uid="20587" user="balrog-kun" changeset="578511" lat="52.2810094" lon="20.9473653"/>
  <node id="377981138" version="1" timestamp="2009-04-16T13:15:58Z" uid="20587" user="balrog-kun" changeset="578511" lat="52.2779339" lon="20.9365486">
    <tag k="addr:city" v="Warszawa@Warszawa Bielany"/>
    <tag k="addr:housenumber" v="7"/>
    <tag k="addr:street" v="Wólczyńska"/>
    <tag k="source" v="http://ump.waw.pl/ retrieved 11:07:14 02/24/09 (UMP-Warszawa/src/WARSZAWA_BIELANY.ulice.txt)"/>
  </node>
  <node id="377981145" version="1" timestamp="2009-04-16T13:15:59Z" uid="20587" user="balrog-kun" changeset="578511" lat="52.2758115" lon="20.9228046">
    <tag k="addr:city" v="Warszawa@Warszawa Bielany"/>
    <tag k="addr:housenumber" v="13"/>
    <tag k="addr:street" v="Conrada"/>
    <tag k="source" v="http://ump.waw.pl/ retrieved 11:07:14 02/24/09 (UMP-Warszawa/src/WARSZAWA_BIELANY.ulice.txt)"/>
  </node>
  <node id="377981145" version="2" timestamp="2010-10-09T14:34:49Z" uid="20587" user="balrog-kun" changeset="5993788" lat="52.2758019" lon="20.9227156">
    <tag k="addr:city" v="Warszawa@Warszawa Bielany"/>
    <tag k="addr:housenumber" v="13"/>
    <tag k="addr:street" v="Conrada"/>
    <tag k="source" v="http://ump.waw.pl/ retrieved 11:07:14 02/24/09 (UMP-Warszawa/src/WARSZAWA_BIELANY.ulice.txt)"/>
  </node>
  <node id="377981148" version="1" timestamp="2009-04-16T13:15:59Z" uid="20587" user="balrog-kun" changeset="578511" lat="52.2777181" lon="20.9383799">
    <tag k="addr:city" v="Warszawa@Warszawa Bielany"/>
    <tag k="addr:housenumber" v="3"/>
    <tag k="addr:street" v="Wólczyńska"/>
    <tag k="source" v="http://ump.waw.pl/ retrieved 11:07:14 02/24/09 (UMP-Warszawa/src/WARSZAWA_BIELANY.ulice.txt)"/>
  </node>
  <node id="377981155" version="1" timestamp="2009-04-16T13:15:59Z" uid="20587" user="balrog-kun" changeset="578511" lat="52.2743255" lon="20.924388">
    <tag k="addr:city" v="Warszawa@Warszawa Bielany"/>
    <tag k="addr:housenumber" v="16"/>
    <tag k="addr:street" v="Conrada"/>
    <tag k="source" v="http://ump.waw.pl/ retrieved 11:07:14 02/24/09 (UMP-Warszawa/src/WARSZAWA_BIELANY.ulice.txt)"/>
  </node>
  <node id="377981157" version="1" timestamp="2009-04-16T13:15:59Z" uid="20587" user="balrog-kun" changeset="578511" lat="52.2794318" lon="20.9382175">
    <tag k="addr:city" v="Warszawa@Warszawa Bielany"/>
    <tag k="addr:housenumber" v="21"/>
    <tag k="addr:street" v="Reymonta"/>
    <tag k="source" v="http://ump.waw.pl/ retrieved 11:07:14 02/24/09 (UMP-Warszawa/src/WARSZAWA_BIELANY.ulice.txt)"/>
  </node>
  <node id="377981163" version="1" timestamp="2009-04-16T13:16:00Z" uid="20587" user="balrog-kun" changeset="578511" lat="52.2771519" lon="20.9442935">
    <tag k="addr:city" v="Warszawa@Warszawa Bielany"/>
    <tag k="addr:housenumber" v="32"/>
    <tag k="addr:street" v="Płatnicza"/>
    <tag k="source" v="http://ump.waw.pl/ retrieved 11:07:14 02/24/09 (UMP-Warszawa/src/WARSZAWA_BIELANY.ulice.txt)"/>
  </node>
  <node id="377981167" version="1" timestamp="2009-04-16T13:16:00Z" uid="20587" user="balrog-kun" changeset="578511" lat="52.27807" lon="20.9353935">
    <tag k="addr:city" v="Warszawa@Warszawa Bielany"/>
    <tag k="addr:housenumber" v="9"/>
    <tag k="addr:street" v="Wólczyńska"/>
    <tag k="source" v="http://ump.waw.pl/ retrieved 11:07:14 02/24/09 (UMP-Warszawa/src/WARSZAWA_BIELANY.ulice.txt)"/>
  </node>
  <node id="377981175" version="1" timestamp="2009-04-16T13:16:00Z" uid="20587" user="balrog-kun" changeset="578511" lat="52.2773922" lon="20.9261366">
    <tag k="addr:city" v="Warszawa@Warszawa Bielany"/>
    <tag k="addr:housenumber" v="5"/>
    <tag k="addr:street" v="Nerudy"/>
    <tag k="source" v="http://ump.waw.pl/ retrieved 11:07:14 02/24/09 (UMP-Warszawa/src/WARSZAWA_BIELANY.ulice.txt)"/>
  </node>
  <node id="377981178" version="1" timestamp="2009-04-16T13:16:00Z" uid="20587" user="balrog-kun" changeset="578511" lat="52.2732763" lon="20.9252417">
    <tag k="addr:city" v="Warszawa@Warszawa Bielany"/>
    <tag k="addr:housenumber" v="12"/>
    <tag k="addr:street" v="Conrada"/>
    <tag k="source" v="http://ump.waw.pl/ retrieved 11:07:14 02/24/09 (UMP-Warszawa/src/WARSZAWA_BIELANY.ulice.txt)"/>
  </node>
  <node id="377981183" version="1" timestamp="2009-04-16T13:16:01Z" uid="20587" user="balrog-kun" changeset="578511" lat="52.2801105" lon="20.9313106">
    <tag k="addr:city" v="Warszawa@Warszawa Bielany"/>
    <tag k="addr:housenumber" v="2"/>
    <tag k="addr:street" v="Petofiego"/>
    <tag k="source" v="http://ump.waw.pl/ retrieved 11:07:14 02/24/09 (UMP-Warszawa/src/WARSZAWA_BIELANY.ulice.txt)"/>
  </node>
  <node id="377981188" version="1" timestamp="2009-04-16T13:16:01Z" uid="20587" user="balrog-kun" changeset="578511" lat="52.2709958" lon="20.9264324">
    <tag k="addr:city" v="Warszawa@Warszawa Bielany"/>
    <tag k="addr:housenumber" v="1"/>
    <tag k="addr:street" v="Brązownicza"/>
    <tag k="source" v="http://ump.waw.pl/ retrieved 11:07:14 02/24/09 (UMP-Warszawa/src/WARSZAWA_BIELANY.ulice.txt)"/>
  </node>
  <node id="377981192" version="1" timestamp="2009-04-16T13:16:01Z" uid="20587" user="balrog-kun" changeset="578511" lat="52.2820115" lon="20.947644">
    <tag k="addr:city" v="Warszawa@Warszawa Bielany"/>
    <tag k="addr:housenumber" v="106"/>
    <tag k="addr:street" v="Płatnicza"/>
    <tag k="source" v="http://ump.waw.pl/ retrieved 11:07:14 02/24/09 (UMP-Warszawa/src/WARSZAWA_BIELANY.ulice.txt)"/>
  </node>
  <node id="377981192" version="2" timestamp="2009-08-08T12:33:19Z" uid="20587" user="balrog-kun" changeset="2075132" lat="52.2820624" lon="20.9476995">
    <tag k="addr:city" v="Warszawa@Warszawa Bielany"/>
    <tag k="addr:housenumber" v="106"/>
    <tag k="addr:street" v="Płatnicza"/>
    <tag k="source" v="http://ump.waw.pl/ retrieved 11:07:14 02/24/09 (UMP-Warszawa/src/WARSZAWA_BIELANY.ulice.txt)"/>
  </node>
  <node id="377981196" version="1" timestamp="2009-04-16T13:16:01Z" uid="20587" user="balrog-kun" changeset="578511" lat="52.2712964" lon="20.9314875">
    <tag k="addr:city" v="Warszawa@Warszawa Bielany"/>
    <tag k="addr:housenumber" v="4"/>
    <tag k="addr:street" v="Conrada"/>
    <tag k="source" v="http://ump.waw.pl/ retrieved 11:07:14 02/24/09 (UMP-Warszawa/src/WARSZAWA_BIELANY.ulice.txt)"/>
  </node>
  <node id="377981199" version="1" timestamp="2009-04-16T13:16:01Z" uid="20587" user="balrog-kun" changeset="578511" lat="52.2825827" lon="20.9304987">
    <tag k="addr:city" v="Warszawa@Warszawa Bielany"/>
    <tag k="addr:housenumber" v="3"/>
    <tag k="addr:street" v="Petofiego"/>
    <tag k="source" v="http://ump.waw.pl/ retrieved 11:07:14 02/24/09 (UMP-Warszawa/src/WARSZAWA_BIELANY.ulice.txt)"/>
  </node>
  <node id="377981204" version="1" timestamp="2009-04-16T13:16:01Z" uid="20587" user="balrog-kun" changeset="578511" lat="52.2784638" lon="20.9238285">
    <tag k="addr:city" v="Warszawa@Warszawa Bielany"/>
    <tag k="addr:housenumber" v="28"/>
    <tag k="addr:street" v="Conrada"/>
    <tag k="source" v="http://ump.waw.pl/ retrieved 11:07:14 02/24/09 (UMP-Warszawa/src/WARSZAWA_BIELANY.ulice.txt)"/>
  </node>
  <node id="377981208" version="1" timestamp="2009-04-16T13:16:02Z" uid="20587" user="balrog-kun" changeset="578511" lat="52.277074" lon="20.922757">
    <tag k="addr:city" v="Warszawa@Warszawa Bielany"/>
    <tag k="addr:housenumber" v="21"/>
    <tag k="addr:street" v="Kwitnąca"/>
    <tag k="source" v="http://ump.waw.pl/ retrieved 11:07:14 02/24/09 (UMP-Warszawa/src/WARSZAWA_BIELANY.ulice.txt)"/>
  </node>
  <node id="377981211" version="1" timestamp="2009-04-16T13:16:02Z" uid="20587" user="balrog-kun" changeset="578511" lat="52.2842814" lon="20.9310392">
    <tag k="addr:city" v="Warszawa@Warszawa Bielany"/>
    <tag k="addr:housenumber" v="1"/>
    <tag k="addr:street" v="Tołstoja"/>
    <tag k="source" v="http://ump.waw.pl/ retrieved 11:07:14 02/24/09 (UMP-Warszawa/src/WARSZAWA_BIELANY.ulice.txt)"/>
  </node>
  <node id="377981211" version="2" timestamp="2009-11-01T02:37:10Z" uid="20587" user="balrog-kun" changeset="3003332" lat="52.284244" lon="20.9315287">
    <tag k="addr:city" v="Warszawa@Warszawa Bielany"/>
    <tag k="addr:housenumber" v="1"/>
    <tag k="addr:street" v="Tołstoja"/>
    <tag k="source" v="http://ump.waw.pl/ retrieved 11:07:14 02/24/09 (UMP-Warszawa/src/WARSZAWA_BIELANY.ulice.txt)"/>
  </node>
  <node id="377981214" version="1" timestamp="2009-04-16T13:16:02Z" uid="20587" user="balrog-kun" changeset="578511" lat="52.2730374" lon="20.9216433">
    <tag k="addr:city" v="Warszawa@Warszawa Bielany"/>
    <tag k="addr:housenumber" v="8"/>
    <tag k="addr:street" v="Sieciechowska"/>
    <tag k="source" v="http://ump.waw.pl/ retrieved 11:07:14 02/24/09 (UMP-Warszawa/src/WARSZAWA_BIELANY.ulice.txt)"/>
  </node>
  <node id="377981220" version="1" timestamp="2009-04-16T13:16:02Z" uid="20587" user="balrog-kun" changeset="578511" lat="52.2824469" lon="20.9264303">
    <tag k="addr:city" v="Warszawa@Warszawa Bielany"/>
    <tag k="addr:housenumber" v="6"/>
    <tag k="addr:street" v="Sokratesa"/>
    <tag k="source" v="http://ump.waw.pl/ retrieved 11:07:14 02/24/09 (UMP-Warszawa/src/WARSZAWA_BIELANY.ulice.txt)"/>
  </node>
  <node id="377981222" version="1" timestamp="2009-04-16T13:16:03Z" uid="20587" user="balrog-kun" changeset="578511" lat="52.2751144" lon="20.9363969">
    <tag k="addr:city" v="Warszawa@Warszawa Bielany"/>
    <tag k="addr:housenumber" v="13"/>
    <tag k="addr:street" v="Fortowa"/>
    <tag k="source" v="http://ump.waw.pl/ retrieved 11:07:14 02/24/09 (UMP-Warszawa/src/WARSZAWA_BIELANY.ulice.txt)"/>
  </node>
  <node id="377981225" version="1" timestamp="2009-04-16T13:16:03Z" uid="20587" user="balrog-kun" changeset="578511" lat="52.2853363" lon="20.9325656">
    <tag k="addr:city" v="Warszawa@Warszawa Bielany"/>
    <tag k="addr:housenumber" v="3"/>
    <tag k="addr:street" v="Szekspira"/>
    <tag k="source" v="http://ump.waw.pl/ retrieved 11:07:14 02/24/09 (UMP-Warszawa/src/WARSZAWA_BIELANY.ulice.txt)"/>
  </node>
  <node id="377981229" version="1" timestamp="2009-04-16T13:16:03Z" uid="20587" user="balrog-kun" changeset="578511" lat="52.2862756" lon="20.9359368">
    <tag k="addr:city" v="Warszawa@Warszawa Bielany"/>
    <tag k="addr:housenumber" v="7"/>
    <tag k="addr:street" v="Dantego"/>
    <tag k="source" v="http://ump.waw.pl/ retrieved 11:07:14 02/24/09 (UMP-Warszawa/src/WARSZAWA_BIELANY.ulice.txt)"/>
  </node>
  <node id="377981230" version="1" timestamp="2009-04-16T13:16:03Z" uid="20587" user="balrog-kun" changeset="578511" lat="52.2768816" lon="20.914494">
    <tag k="addr:city" v="Warszawa@Warszawa Bielany"/>
    <tag k="addr:housenumber" v="37"/>
    <tag k="addr:street" v="Maszewska"/>
    <tag k="source" v="http://ump.waw.pl/ retrieved 11:07:14 02/24/09 (UMP-Warszawa/src/WARSZAWA_BIELANY.ulice.txt)"/>
  </node>
  <node id="377981235" version="1" timestamp="2009-04-16T13:16:03Z" uid="20587" user="balrog-kun" changeset="578511" lat="52.2802934" lon="20.9338279">
    <tag k="addr:city" v="Warszawa@Warszawa Bielany"/>
    <tag k="addr:housenumber" v="16"/>
    <tag k="addr:street" v="Wolumen"/>
    <tag k="source" v="http://ump.waw.pl/ retrieved 11:07:14 02/24/09 (UMP-Warszawa/src/WARSZAWA_BIELANY.ulice.txt)"/>
  </node>
  <node id="377981236" version="1" timestamp="2009-04-16T13:16:03Z" uid="20587" user="balrog-kun" changeset="578511" lat="52.2835589" lon="20.9265705">
    <tag k="addr:city" v="Warszawa@Warszawa Bielany"/>
    <tag k="addr:housenumber" v="7"/>
    <tag k="addr:street" v="Sokratesa"/>
    <tag k="source" v="http://ump.waw.pl/ retrieved 11:07:14 02/24/09 (UMP-Warszawa/src/WARSZAWA_BIELANY.ulice.txt)"/>
  </node>
  <node id="377981240" version="1" timestamp="2009-04-16T13:16:04Z" uid="20587" user="balrog-kun" changeset="578511" lat="52.2779562" lon="20.9313961">
    <tag k="addr:city" v="Warszawa@Warszawa Bielany"/>
    <tag k="addr:housenumber" v="62"/>
    <tag k="addr:street" v="Aspekt"/>
    <tag k="source" v="http://ump.waw.pl/ retrieved 11:07:14 02/24/09 (UMP-Warszawa/src/WARSZAWA_BIELANY.ulice.txt)"/>
  </node>
  <node id="377981242" version="1" timestamp="2009-04-16T13:16:04Z" uid="20587" user="balrog-kun" changeset="578511" lat="52.2819295" lon="20.9291566">
    <tag k="addr:city" v="Warszawa@Warszawa Bielany"/>
    <tag k="addr:housenumber" v="1"/>
    <tag k="addr:street" v="Czechowa"/>
    <tag k="source" v="http://ump.waw.pl/ retrieved 11:07:14 02/24/09 (UMP-Warszawa/src/WARSZAWA_BIELANY.ulice.txt)"/>
  </node>
  <node id="377981244" version="1" timestamp="2009-04-16T13:16:04Z" uid="20587" user="balrog-kun" changeset="578511" lat="52.2744546" lon="20.9177011">
    <tag k="addr:city" v="Warszawa@Warszawa Bielany"/>
    <tag k="addr:housenumber" v="6"/>
    <tag k="addr:street" v="Kwitnąca"/>
    <tag k="source" v="http://ump.waw.pl/ retrieved 11:07:14 02/24/09 (UMP-Warszawa/src/WARSZAWA_BIELANY.ulice.txt)"/>
  </node>
  <node id="377981248" version="1" timestamp="2009-04-16T13:16:04Z" uid="20587" user="balrog-kun" changeset="578511" lat="52.2848095" lon="20.9366266">
    <tag k="addr:city" v="Warszawa@Warszawa Bielany"/>
    <tag k="addr:housenumber" v="5"/>
    <tag k="addr:street" v="Dantego"/>
    <tag k="source" v="http://ump.waw.pl/ retrieved 11:07:14 02/24/09 (UMP-Warszawa/src/WARSZAWA_BIELANY.ulice.txt)"/>
  </node>
  <node id="377981250" version="1" timestamp="2009-04-16T13:16:04Z" uid="20587" user="balrog-kun" changeset="578511" lat="52.2866046" lon="20.9343614">
    <tag k="addr:city" v="Warszawa@Warszawa Bielany"/>
    <tag k="addr:housenumber" v="4"/>
    <tag k="addr:street" v="Szekspira"/>
    <tag k="source" v="http://ump.waw.pl/ retrieved 11:07:14 02/24/09 (UMP-Warszawa/src/WARSZAWA_BIELANY.ulice.txt)"/>
  </node>
  <node id="377981253" version="1" timestamp="2009-04-16T13:16:04Z" uid="20587" user="balrog-kun" changeset="578511" lat="52.2793524" lon="20.9226461">
    <tag k="addr:city" v="Warszawa@Warszawa Bielany"/>
    <tag k="addr:housenumber" v="23"/>
    <tag k="addr:street" v="Conrada"/>
    <tag k="source" v="http://ump.waw.pl/ retrieved 11:07:14 02/24/09 (UMP-Warszawa/src/WARSZAWA_BIELANY.ulice.txt)"/>
  </node>
  <node id="377981258" version="1" timestamp="2009-04-16T13:16:05Z" uid="20587" user="balrog-kun" changeset="578511" lat="52.279579" lon="20.9462401">
    <tag k="addr:city" v="Warszawa@Warszawa Bielany"/>
    <tag k="addr:housenumber" v="65"/>
    <tag k="addr:street" v="Płatnicza"/>
    <tag k="source" v="http://ump.waw.pl/ retrieved 11:07:14 02/24/09 (UMP-Warszawa/src/WARSZAWA_BIELANY.ulice.txt)"/>
  </node>
  <node id="377981262" version="1" timestamp="2009-04-16T13:16:05Z" uid="20587" user="balrog-kun" changeset="578511" lat="52.2715949" lon="20.9260198">
    <tag k="addr:city" v="Warszawa@Warszawa Bielany"/>
    <tag k="addr:housenumber" v="5"/>
    <tag k="addr:street" v="Brązownicza"/>
    <tag k="source" v="http://ump.waw.pl/ retrieved 11:07:14 02/24/09 (UMP-Warszawa/src/WARSZAWA_BIELANY.ulice.txt)"/>
  </node>
  <node id="377981268" version="1" timestamp="2009-04-16T13:16:05Z" uid="20587" user="balrog-kun" changeset="578511" lat="52.2763677" lon="20.9265268">
    <tag k="addr:city" v="Warszawa@Warszawa Bielany"/>
    <tag k="addr:housenumber" v="1"/>
    <tag k="addr:street" v="Nerudy"/>
    <tag k="source" v="http://ump.waw.pl/ retrieved 11:07:14 02/24/09 (UMP-Warszawa/src/WARSZAWA_BIELANY.ulice.txt)"/>
  </node>
  <node id="377981268" version="2" timestamp="2010-10-09T14:35:10Z" uid="20587" user="balrog-kun" changeset="5993788" lat="52.2763744" lon="20.9266142">
    <tag k="addr:city" v="Warszawa@Warszawa Bielany"/>
    <tag k="addr:housenumber" v="1"/>
    <tag k="addr:street" v="Nerudy"/>
    <tag k="source" v="http://ump.waw.pl/ retrieved 11:07:14 02/24/09 (UMP-Warszawa/src/WARSZAWA_BIELANY.ulice.txt)"/>
  </node>
  <node id="377981271" version="1" timestamp="2009-04-16T13:16:05Z" uid="20587" user="balrog-kun" changeset="578511" lat="52.2826211" lon="20.9254583">
    <tag k="addr:city" v="Warszawa@Warszawa Bielany"/>
    <tag k="addr:housenumber" v="5"/>
    <tag k="addr:street" v="Sokratesa"/>
    <tag k="source" v="http://ump.waw.pl/ retrieved 11:07:14 02/24/09 (UMP-Warszawa/src/WARSZAWA_BIELANY.ulice.txt)"/>
  </node>
  <node id="377981278" version="1" timestamp="2009-04-16T13:16:05Z" uid="20587" user="balrog-kun" changeset="578511" lat="52.2786551" lon="20.9456687"/>
  <node id="377981281" version="1" timestamp="2009-04-16T13:16:05Z" uid="20587" user="balrog-kun" changeset="578511" lat="52.2836864" lon="20.9300265">
    <tag k="addr:city" v="Warszawa@Warszawa Bielany"/>
    <tag k="addr:housenumber" v="2"/>
    <tag k="addr:street" v="Balzaca"/>
    <tag k="source" v="http://ump.waw.pl/ retrieved 11:07:14 02/24/09 (UMP-Warszawa/src/WARSZAWA_BIELANY.ulice.txt)"/>
  </node>
  <node id="377981289" version="1" timestamp="2009-04-16T13:16:06Z" uid="20587" user="balrog-kun" changeset="578511" lat="52.2787275" lon="20.9153008">
    <tag k="addr:city" v="Warszawa@Warszawa Bielany"/>
    <tag k="addr:housenumber" v="21"/>
    <tag k="addr:street" v="Esej"/>
    <tag k="source" v="http://ump.waw.pl/ retrieved 11:07:14 02/24/09 (UMP-Warszawa/src/WARSZAWA_BIELANY.ulice.txt)"/>
  </node>
  <node id="377981294" version="1" timestamp="2009-04-16T13:16:06Z" uid="20587" user="balrog-kun" changeset="578511" lat="52.2754003" lon="20.9303413">
    <tag k="addr:city" v="Warszawa@Warszawa Bielany"/>
    <tag k="addr:housenumber" v="42"/>
    <tag k="addr:street" v="Aspekt"/>
    <tag k="source" v="http://ump.waw.pl/ retrieved 11:07:14 02/24/09 (UMP-Warszawa/src/WARSZAWA_BIELANY.ulice.txt)"/>
  </node>
  <node id="377981299" version="1" timestamp="2009-04-16T13:16:06Z" uid="20587" user="balrog-kun" changeset="578511" lat="52.2742539" lon="20.9208677">
    <tag k="addr:city" v="Warszawa@Warszawa Bielany"/>
    <tag k="addr:housenumber" v="16"/>
    <tag k="addr:street" v="Brązownicza"/>
    <tag k="source" v="http://ump.waw.pl/ retrieved 11:07:14 02/24/09 (UMP-Warszawa/src/WARSZAWA_BIELANY.ulice.txt)"/>
  </node>
  <node id="377981299" version="2" timestamp="2010-10-09T14:34:49Z" uid="20587" user="balrog-kun" changeset="5993788" lat="52.2743713" lon="20.9209572">
    <tag k="addr:city" v="Warszawa@Warszawa Bielany"/>
    <tag k="addr:housenumber" v="16"/>
    <tag k="addr:street" v="Brązownicza"/>
    <tag k="source" v="http://ump.waw.pl/ retrieved 11:07:14 02/24/09 (UMP-Warszawa/src/WARSZAWA_BIELANY.ulice.txt)"/>
  </node>
  <node id="377981303" version="1" timestamp="2009-04-16T13:16:06Z" uid="20587" user="balrog-kun" changeset="578511" lat="52.2738771" lon="20.9213616">
    <tag k="addr:city" v="Warszawa@Warszawa Bielany"/>
    <tag k="addr:housenumber" v="15"/>
    <tag k="addr:street" v="Brązownicza"/>
    <tag k="source" v="http://ump.waw.pl/ retrieved 11:07:14 02/24/09 (UMP-Warszawa/src/WARSZAWA_BIELANY.ulice.txt)"/>
  </node>
  <node id="377981308" version="1" timestamp="2009-04-16T13:16:06Z" uid="20587" user="balrog-kun" changeset="578511" lat="52.2797661" lon="20.9208316">
    <tag k="addr:city" v="Warszawa@Warszawa Bielany"/>
    <tag k="addr:housenumber" v="26"/>
    <tag k="addr:street" v="Bogusławskiego"/>
    <tag k="source" v="http://ump.waw.pl/ retrieved 11:07:14 02/24/09 (UMP-Warszawa/src/WARSZAWA_BIELANY.ulice.txt)"/>
  </node>
  <node id="377981313" version="1" timestamp="2009-04-16T13:16:06Z" uid="20587" user="balrog-kun" changeset="578511" lat="52.2754623" lon="20.9299544">
    <tag k="addr:city" v="Warszawa@Warszawa Bielany"/>
    <tag k="addr:housenumber" v="69"/>
    <tag k="addr:street" v="Aspekt"/>
    <tag k="source" v="http://ump.waw.pl/ retrieved 11:07:14 02/24/09 (UMP-Warszawa/src/WARSZAWA_BIELANY.ulice.txt)"/>
  </node>
  <node id="377981320" version="1" timestamp="2009-04-16T13:16:06Z" uid="20587" user="balrog-kun" changeset="578511" lat="52.2797383" lon="20.9189914">
    <tag k="addr:city" v="Warszawa@Warszawa Bielany"/>
    <tag k="addr:housenumber" v="20"/>
    <tag k="addr:street" v="Bogusławskiego"/>
    <tag k="source" v="http://ump.waw.pl/ retrieved 11:07:14 02/24/09 (UMP-Warszawa/src/WARSZAWA_BIELANY.ulice.txt)"/>
  </node>
  <node id="377981327" version="1" timestamp="2009-04-16T13:16:07Z" uid="20587" user="balrog-kun" changeset="578511" lat="52.2818095" lon="20.9482964">
    <tag k="addr:city" v="Warszawa@Warszawa Bielany"/>
    <tag k="addr:housenumber" v="115"/>
    <tag k="addr:street" v="Płatnicza"/>
    <tag k="source" v="http://ump.waw.pl/ retrieved 11:07:14 02/24/09 (UMP-Warszawa/src/WARSZAWA_BIELANY.ulice.txt)"/>
  </node>
  <node id="377981335" version="1" timestamp="2009-04-16T13:16:07Z" uid="20587" user="balrog-kun" changeset="578511" lat="52.2734021" lon="20.9202904">
    <tag k="addr:city" v="Warszawa@Warszawa Bielany"/>
    <tag k="addr:housenumber" v="5"/>
    <tag k="addr:street" v="Osikowa"/>
    <tag k="source" v="http://ump.waw.pl/ retrieved 11:07:14 02/24/09 (UMP-Warszawa/src/WARSZAWA_BIELANY.ulice.txt)"/>
  </node>
  <node id="377981342" version="1" timestamp="2009-04-16T13:16:07Z" uid="20587" user="balrog-kun" changeset="578511" lat="52.2710837" lon="20.928731">
    <tag k="addr:city" v="Warszawa@Warszawa Bielany"/>
    <tag k="addr:housenumber" v="5"/>
    <tag k="addr:street" v="Conrada"/>
    <tag k="source" v="http://ump.waw.pl/ retrieved 11:07:14 02/24/09 (UMP-Warszawa/src/WARSZAWA_BIELANY.ulice.txt)"/>
  </node>
  <node id="377981348" version="1" timestamp="2009-04-16T13:16:07Z" uid="20587" user="balrog-kun" changeset="578511" lat="52.2829801" lon="20.9407416">
    <tag k="addr:city" v="Warszawa@Warszawa Bielany"/>
    <tag k="addr:housenumber" v="48"/>
    <tag k="addr:street" v="Reymonta"/>
    <tag k="source" v="http://ump.waw.pl/ retrieved 11:07:14 02/24/09 (UMP-Warszawa/src/WARSZAWA_BIELANY.ulice.txt)"/>
  </node>
  <node id="377981348" version="2" timestamp="2009-11-01T02:37:11Z" uid="20587" user="balrog-kun" changeset="3003332" lat="52.2828755" lon="20.940843">
    <tag k="addr:city" v="Warszawa@Warszawa Bielany"/>
    <tag k="addr:housenumber" v="48"/>
    <tag k="addr:street" v="Reymonta"/>
    <tag k="source" v="http://ump.waw.pl/ retrieved 11:07:14 02/24/09 (UMP-Warszawa/src/WARSZAWA_BIELANY.ulice.txt)"/>
  </node>
  <node id="377981355" version="1" timestamp="2009-04-16T13:16:07Z" uid="20587" user="balrog-kun" changeset="578511" lat="52.2772433" lon="20.9253473">
    <tag k="addr:city" v="Warszawa@Warszawa Bielany"/>
    <tag k="addr:housenumber" v="7"/>
    <tag k="addr:street" v="Nerudy"/>
    <tag k="source" v="http://ump.waw.pl/ retrieved 11:07:14 02/24/09 (UMP-Warszawa/src/WARSZAWA_BIELANY.ulice.txt)"/>
  </node>
  <node id="377981363" version="1" timestamp="2009-04-16T13:16:08Z" uid="20587" user="balrog-kun" changeset="578511" lat="52.2742296" lon="20.9194072">
    <tag k="addr:city" v="Warszawa@Warszawa Bielany"/>
    <tag k="addr:housenumber" v="25"/>
    <tag k="addr:street" v="Słonecznikowa"/>
    <tag k="source" v="http://ump.waw.pl/ retrieved 11:07:14 02/24/09 (UMP-Warszawa/src/WARSZAWA_BIELANY.ulice.txt)"/>
  </node>
  <node id="377981370" version="1" timestamp="2009-04-16T13:16:08Z" uid="20587" user="balrog-kun" changeset="578511" lat="52.2761814" lon="20.9440412">
    <tag k="addr:city" v="Warszawa@Warszawa Bielany"/>
    <tag k="addr:housenumber" v="2"/>
    <tag k="addr:street" v="Płatnicza"/>
    <tag k="source" v="http://ump.waw.pl/ retrieved 11:07:14 02/24/09 (UMP-Warszawa/src/WARSZAWA_BIELANY.ulice.txt)"/>
  </node>
  <node id="377981373" version="1" timestamp="2009-04-16T13:16:08Z" uid="20587" user="balrog-kun" changeset="578511" lat="52.2746215" lon="20.9181312">
    <tag k="addr:city" v="Warszawa@Warszawa Bielany"/>
    <tag k="addr:housenumber" v="8"/>
    <tag k="addr:street" v="Kwitnąca"/>
    <tag k="source" v="http://ump.waw.pl/ retrieved 11:07:14 02/24/09 (UMP-Warszawa/src/WARSZAWA_BIELANY.ulice.txt)"/>
  </node>
  <node id="377981379" version="1" timestamp="2009-04-16T13:16:08Z" uid="20587" user="balrog-kun" changeset="578511" lat="52.2821681" lon="20.9248518">
    <tag k="addr:city" v="Warszawa@Warszawa Bielany"/>
    <tag k="addr:housenumber" v="3"/>
    <tag k="addr:street" v="Sokratesa"/>
    <tag k="source" v="http://ump.waw.pl/ retrieved 11:07:14 02/24/09 (UMP-Warszawa/src/WARSZAWA_BIELANY.ulice.txt)"/>
  </node>
  <node id="377981387" version="1" timestamp="2009-04-16T13:16:08Z" uid="20587" user="balrog-kun" changeset="578511" lat="52.2792392" lon="20.9373823">
    <tag k="addr:city" v="Warszawa@Warszawa Bielany"/>
    <tag k="addr:housenumber" v="2"/>
    <tag k="addr:street" v="Andersena"/>
    <tag k="source" v="http://ump.waw.pl/ retrieved 11:07:14 02/24/09 (UMP-Warszawa/src/WARSZAWA_BIELANY.ulice.txt)"/>
  </node>
</osm>
