<?xml version='1.0' encoding='UTF-8'?>
<osm version="0.6" generator="libosmium/2.20.0">
  <node id="378177306" version="1" timestamp="2009-04-16T16:17:13Z" uid="20587" user="balrog-kun" changeset="585970" lat="52.2244343" lon="21.0140393">
    <tag k="amenity" v="pub"/>
    <tag k="name" v="Pepper"/>
  </node>
  <node id="378177678" version="2" timestamp="2009-07-20T17:14:55Z" uid="9581" user="Lobelt" changeset="1887113" lat="50.7161424" lon="11.2751593"/>
  <node id="378177693" version="2" timestamp="2010-06-06T20:14:28Z" uid="9581" user="Lobelt" changeset="4922168" lat="50.7173593" lon="11.279402"/>
  <node id="378178843" version="1" timestamp="2009-04-16T16:19:29Z" uid="20587" user="balrog-kun" changeset="585970" lat="52.224741" lon="21.0158132">
    <tag k="amenity" v="restaurant"/>
    <tag k="name" v="Kwai"/>
  </node>
  <node id="378178853" version="1" timestamp="2009-04-16T16:19:30Z" uid="20587" user="balrog-kun" changeset="585970" lat="52.2254044" lon="21.0175567">
    <tag k="amenity" v="cafe"/>
  </node>
  <node id="378178853" version="2" timestamp="2009-04-16T16:29:18Z" uid="20587" user="balrog-kun" changeset="585970" lat="52.2252028" lon="21.0163869">
    <tag k="amenity" v="cafe"/>
    <tag k="note" v="TODO: name"/>
  </node>
  <node id="378178853" version="4" timestamp="2009-11-12T18:25:00Z" uid="20587" user="balrog-kun" changeset="3100350" lat="52.22515" lon="21.0162039">
    <tag k="amenity" v="cafe"/>
    <tag k="name" v="Kawangarda"/>
  </node>
  <node id="378178866" version="1" timestamp="2009-04-16T16:19:31Z" uid="20587" user="balrog-kun" changeset="585970" lat="52.2248199" lon="21.0161368">
    <tag k="amenity" v="pharmacy"/>
  </node>
  <node id="378178876" version="1" timestamp="2009-04-16T16:19:32Z" uid="20587" user="balrog-kun" changeset="585970" lat="52.2250624" lon="21.0173825">
    <tag k="amenity" v="pub"/>
    <tag k="name" v="Cztery Kąty"/>
  </node>
  <node id="378178876" version="2" timestamp="2009-04-16T16:29:20Z" uid="20587" user="balrog-kun" changeset="585970" lat="52.2249444" lon="21.0167758">
    <tag k="amenity" v="pub"/>
    <tag k="name" v="Cztery Kąty"/>
  </node>
  <node id="378178876" version="3" timestamp="2009-04-16T16:30:52Z" uid="20587" user="balrog-kun" changeset="585970" lat="52.2249229" lon="21.0166987">
    <tag k="amenity" v="pub"/>
    <tag k="name" v="Cztery Kąty"/>
  </node>
  <node id="378178876" version="4" timestamp="2009-11-12T18:25:00Z" uid="20587" user="balrog-kun" changeset="3100350" lat="52.2250481" lon="21.0173212">
    <tag k="amenity" v="pub"/>
    <tag k="name" v="Cztery Kąty"/>
  </node>
  <node id="378178885" version="1" timestamp="2009-04-16T16:19:33Z" uid="20587" user="balrog-kun" changeset="585970" lat="52.2253311" lon="21.0187373">
    <tag k="amenity" v="pub"/>
    <tag k="name" v="Gorączka Złota"/>
  </node>
  <node id="378178885" version="2" timestamp="2009-04-16T16:29:21Z" uid="20587" user="balrog-kun" changeset="585970" lat="52.2250463" lon="21.0172857">
    <tag k="amenity" v="pub"/>
    <tag k="name" v="Gorączka Złota"/>
  </node>
  <node id="378178885" version="3" timestamp="2009-11-12T18:25:00Z" uid="20587" user="balrog-kun" changeset="3100350" lat="52.2248309" lon="21.0163496">
    <tag k="amenity" v="pub"/>
    <tag k="name" v="Gorączka Złota"/>
  </node>
</osm>
