<?xml version='1.0' encoding='UTF-8'?>
<osm version="0.6" generator="libosmium/2.20.0">
  <node id="38106597" version="2" timestamp="2009-10-12T21:55:44Z" uid="36809" user="pfoten_weg_!_" changeset="2831291" lat="48.0662704" lon="11.3254378">
    <tag k="name" v="Unterbrunn"/>
    <tag k="place" v="village"/>
  </node>
  <node id="38106609" version="4" timestamp="2009-08-26T08:35:52Z" uid="36809" user="pfoten_weg_!_" changeset="2264896" lat="48.0498566" lon="11.3165529">
    <tag k="name" v="Oberbrunn"/>
    <tag k="place" v="village"/>
  </node>
  <node id="38108924" version="4" timestamp="2009-08-24T23:12:50Z" uid="36809" user="pfoten_weg_!_" changeset="2251012" lat="48.0731506" lon="11.2643179">
    <tag k="name" v="Oberpfaffenhofen"/>
    <tag k="place" v="village"/>
  </node>
  <node id="38108931" version="3" timestamp="2009-10-02T19:25:41Z" uid="86259" user="hasse_osm_korinthenkacker" changeset="2716617" lat="48.0871291" lon="11.2744688">
    <tag k="name" v="Weichselbaum"/>
    <tag k="place" v="hamlet"/>
  </node>
</osm>
