<?xml version='1.0' encoding='UTF-8'?>
<osm version="0.6" generator="libosmium/2.20.0">
  <node id="381982122" version="3" timestamp="2011-02-21T18:54:13Z" uid="49111" user="Markus B" changeset="7356787" lat="28.9170656" lon="-13.7050329"/>
  <node id="381988469" version="2" timestamp="2009-06-05T09:01:45Z" uid="74617" user="JohnSmith" changeset="1427621" lat="-33.4356599" lon="149.3648371">
    <tag k="barrier" v="cattle_grid"/>
  </node>
  <node id="381988528" version="3" timestamp="2009-07-23T01:40:58Z" uid="20587" user="balrog-kun" changeset="1910614" lat="4.9372048" lon="-52.3258337">
    <tag k="admin_level" v="2"/>
    <tag k="capital" v="yes"/>
    <tag k="is_in" v="French Guiana"/>
    <tag k="is_in:continent" v="South America"/>
    <tag k="name" v="Cayenne"/>
    <tag k="name:es" v="Cayena"/>
    <tag k="name:it" v="Caienna"/>
    <tag k="name:lt" v="Kajenas"/>
    <tag k="name:pl" v="Kajenna"/>
    <tag k="name:ru" v="Кайенна"/>
    <tag k="place" v="city"/>
    <tag k="wikipedia" v="Cayenne"/>
  </node>
  <node id="381989644" version="2" timestamp="2009-06-05T09:01:45Z" uid="74617" user="JohnSmith" changeset="1427621" lat="-33.437823" lon="149.3640646">
    <tag k="barrier" v="cattle_grid"/>
  </node>
</osm>
