<?xml version='1.0' encoding='UTF-8'?>
<osm version="0.6" generator="libosmium/2.20.0">
  <node id="382382543" version="3" timestamp="2009-10-20T23:49:45Z" uid="36809" user="pfoten_weg_!_" changeset="2908189" lat="48.0221972" lon="11.2282876">
    <tag k="amenity" v="post_box"/>
  </node>
  <node id="382384116" version="2" timestamp="2010-04-06T21:53:58Z" uid="23543" user="jkjk" changeset="4349668" lat="49.1398006" lon="19.9666226"/>
  <node id="382384293" version="2" timestamp="2010-04-06T21:53:58Z" uid="23543" user="jkjk" changeset="4349668" lat="49.1397141" lon="19.966062"/>
  <node id="382389382" version="3" timestamp="2009-11-25T19:55:12Z" uid="88880" user="firsttimelinux" changeset="3215537" lat="48.8960928" lon="9.1909066">
    <tag k="addr:city" v="Ludwigsburg"/>
    <tag k="addr:country" v="DE"/>
    <tag k="addr:housenumber" v="13"/>
    <tag k="addr:postcode" v="71634"/>
    <tag k="addr:street" v="WilhelmstraÃŸe"/>
    <tag k="amenity" v="restaurant"/>
    <tag k="name" v="Ratskeller"/>
  </node>
</osm>
