<?xml version='1.0' encoding='UTF-8'?>
<osm version="0.6" generator="libosmium/2.20.0">
  <node id="384856076" version="3" timestamp="2010-07-28T20:29:55Z" uid="74617" user="JohnSmith" changeset="5341853" lat="37.3651123" lon="-120.4270684">
    <tag k="emergency" v="phone"/>
    <tag k="name" v="Outside Tuolumne"/>
  </node>
  <node id="384856076" version="4" timestamp="2010-07-29T08:19:38Z" uid="74617" user="JohnSmith" changeset="5344518" lat="37.3651123" lon="-120.4270684">
    <tag k="amenity" v="emergency_phone"/>
    <tag k="emergency" v="phone"/>
    <tag k="name" v="Outside Tuolumne"/>
  </node>
  <node id="384856626" version="5" timestamp="2010-07-28T20:29:54Z" uid="74617" user="JohnSmith" changeset="5341853" lat="37.365699" lon="-120.4249913">
    <tag k="emergency" v="phone"/>
    <tag k="name" v="Outside Library"/>
  </node>
  <node id="384856626" version="6" timestamp="2010-07-29T08:17:16Z" uid="74617" user="JohnSmith" changeset="5344518" lat="37.365699" lon="-120.4249913">
    <tag k="amenity" v="emergency_phone"/>
    <tag k="emergency" v="phone"/>
    <tag k="name" v="Outside Library"/>
  </node>
  <node id="384857598" version="3" timestamp="2010-07-28T20:30:21Z" uid="74617" user="JohnSmith" changeset="5341853" lat="37.3642801" lon="-120.4269311">
    <tag k="emergency" v="phone"/>
    <tag k="name" v="Outside DC"/>
  </node>
  <node id="384857598" version="4" timestamp="2010-07-29T08:17:50Z" uid="74617" user="JohnSmith" changeset="5344518" lat="37.3642801" lon="-120.4269311">
    <tag k="amenity" v="emergency_phone"/>
    <tag k="emergency" v="phone"/>
    <tag k="name" v="Outside DC"/>
  </node>
  <node id="384859126" version="3" timestamp="2010-07-28T20:30:45Z" uid="74617" user="JohnSmith" changeset="5341853" lat="37.3644711" lon="-120.4273431">
    <tag k="emergency" v="phone"/>
    <tag k="name" v="Outside DC near Housing"/>
  </node>
  <node id="384859126" version="4" timestamp="2010-07-29T08:17:17Z" uid="74617" user="JohnSmith" changeset="5344518" lat="37.3644711" lon="-120.4273431">
    <tag k="amenity" v="emergency_phone"/>
    <tag k="emergency" v="phone"/>
    <tag k="name" v="Outside DC near Housing"/>
  </node>
  <node id="384859572" version="3" timestamp="2010-07-28T20:30:05Z" uid="74617" user="JohnSmith" changeset="5341853" lat="37.3648872" lon="-120.4280297">
    <tag k="emergency" v="phone"/>
    <tag k="name" v="Outside Calaveras"/>
  </node>
  <node id="384859572" version="4" timestamp="2010-07-29T08:20:26Z" uid="74617" user="JohnSmith" changeset="5344518" lat="37.3648872" lon="-120.4280297">
    <tag k="amenity" v="emergency_phone"/>
    <tag k="emergency" v="phone"/>
    <tag k="name" v="Outside Calaveras"/>
  </node>
</osm>
