<?xml version='1.0' encoding='UTF-8'?>
<osm version="0.6" generator="libosmium/2.20.0">
  <node id="385040000" version="1" timestamp="2009-04-26T02:10:14Z" uid="26515" user="Simon Ward" changeset="966798" lat="52.5287351" lon="-2.0313566">
    <tag k="name" v="Petals 2 Go"/>
    <tag k="shop" v="florist"/>
    <tag k="source" v="survey"/>
  </node>
  <node id="385040000" version="2" timestamp="2009-04-26T02:12:05Z" uid="26515" user="Simon Ward" changeset="966827" lat="52.5287174" lon="-2.0313525">
    <tag k="name" v="Petals 2 Go"/>
    <tag k="shop" v="florist"/>
    <tag k="source" v="survey"/>
  </node>
  <node id="385040001" version="1" timestamp="2009-04-26T02:10:14Z" uid="26515" user="Simon Ward" changeset="966798" lat="52.5287828" lon="-2.0313483">
    <tag k="name" v="The Cutting Room"/>
    <tag k="shop" v="hairdresser"/>
    <tag k="source" v="survey"/>
  </node>
  <node id="385040001" version="2" timestamp="2009-04-26T02:12:05Z" uid="26515" user="Simon Ward" changeset="966827" lat="52.5287462" lon="-2.0313516">
    <tag k="name" v="The Cutting Room"/>
    <tag k="shop" v="hairdresser"/>
    <tag k="source" v="survey"/>
  </node>
  <node id="385040054" version="1" timestamp="2009-04-26T02:12:05Z" uid="26515" user="Simon Ward" changeset="966827" lat="52.5287808" lon="-2.0313505">
    <tag k="shop" v="convenience"/>
  </node>
  <node id="385040055" version="1" timestamp="2009-04-26T02:12:05Z" uid="26515" user="Simon Ward" changeset="966827" lat="52.5290275" lon="-2.0313319">
    <tag k="amenity" v="fast_food"/>
    <tag k="cuisine" v="fish_and_chips"/>
    <tag k="name" v="Fryday’s"/>
    <tag k="source" v="survey"/>
  </node>
  <node id="385040102" version="1" timestamp="2009-04-26T02:13:06Z" uid="26515" user="Simon Ward" changeset="966847" lat="52.5292485" lon="-2.0312721">
    <tag k="amenity" v="fast_food"/>
    <tag k="cuisine" v="chinese"/>
    <tag k="name" v="New World"/>
    <tag k="source" v="survey"/>
  </node>
  <node id="385040158" version="1" timestamp="2009-04-26T02:17:00Z" uid="26515" user="Simon Ward" changeset="966930" lat="52.5286867" lon="-2.0306703"/>
  <node id="385040159" version="1" timestamp="2009-04-26T02:17:00Z" uid="26515" user="Simon Ward" changeset="966930" lat="52.5289925" lon="-2.0311101"/>
  <node id="385040160" version="1" timestamp="2009-04-26T02:17:00Z" uid="26515" user="Simon Ward" changeset="966930" lat="52.5264496" lon="-2.0298059">
    <tag k="crossing" v="zebra"/>
    <tag k="highway" v="crossing"/>
    <tag k="source" v="survey"/>
  </node>
  <node id="385040168" version="1" timestamp="2009-04-26T02:17:41Z" uid="26515" user="Simon Ward" changeset="966946" lat="52.5253714" lon="-2.0289325">
    <tag k="amenity" v="pub"/>
    <tag k="name" v="Royal Oak"/>
    <tag k="source" v="survey"/>
  </node>
  <node id="385040188" version="1" timestamp="2009-04-26T02:18:14Z" uid="26515" user="Simon Ward" changeset="966961" lat="52.5223317" lon="-2.0271238">
    <tag k="amenity" v="pub"/>
    <tag k="name" v="Greets Green Social Club"/>
    <tag k="source" v="survey"/>
  </node>
  <node id="385040568" version="1" timestamp="2009-04-26T02:29:05Z" uid="26515" user="Simon Ward" changeset="967216" lat="52.5220723" lon="-2.0267753">
    <tag k="shop" v="convenience"/>
    <tag k="source" v="survey"/>
  </node>
  <node id="385040569" version="1" timestamp="2009-04-26T02:29:05Z" uid="26515" user="Simon Ward" changeset="967216" lat="52.522063" lon="-2.0268524">
    <tag k="amenity" v="post_box"/>
    <tag k="postal_code" v="B70"/>
    <tag k="ref" v="B70 4"/>
    <tag k="source" v="survey"/>
  </node>
  <node id="385040570" version="1" timestamp="2009-04-26T02:29:05Z" uid="26515" user="Simon Ward" changeset="967216" lat="52.5185926" lon="-2.0036713"/>
  <node id="385040602" version="1" timestamp="2009-04-26T02:29:53Z" uid="26515" user="Simon Ward" changeset="967236" lat="52.5154677" lon="-2.0113456">
    <tag k="amenity" v="pub"/>
    <tag k="name" v="The Yew Tree"/>
    <tag k="source" v="survey"/>
  </node>
  <node id="385041899" version="1" timestamp="2009-04-26T02:35:54Z" uid="26515" user="Simon Ward" changeset="967380" lat="52.5217076" lon="-2.0277172">
    <tag k="amenity" v="disused"/>
    <tag k="disused" v="pub"/>
    <tag k="name" v="Ye Olde Rose &amp; Crown"/>
    <tag k="source" v="survey"/>
  </node>
  <node id="385042331" version="1" timestamp="2009-04-26T02:38:35Z" uid="26515" user="Simon Ward" changeset="967424" lat="52.523645" lon="-2.0278553">
    <tag k="addr:street" v="Whitehall Road"/>
    <tag k="amenity" v="telephone"/>
    <tag k="phone" v="0121 557 2488"/>
    <tag k="source" v="survey"/>
  </node>
  <node id="385042489" version="1" timestamp="2009-04-26T02:40:12Z" uid="26515" user="Simon Ward" changeset="967454" lat="52.524146" lon="-2.0285729">
    <tag k="amenity" v="community_centre"/>
    <tag k="name" v="Farley Park Lodge"/>
    <tag k="source" v="survey"/>
  </node>
  <node id="385042584" version="1" timestamp="2009-04-26T02:42:26Z" uid="26515" user="Simon Ward" changeset="967493" lat="52.5246345" lon="-2.0290249">
    <tag k="amenity" v="place_of_worship"/>
    <tag k="denomination" v="catholic"/>
    <tag k="name" v="The Parish Church of Saint Peters Greets Green"/>
    <tag k="religion" v="christian"/>
    <tag k="source" v="survey"/>
  </node>
  <node id="385043074" version="2" timestamp="2009-08-09T12:26:39Z" uid="7617" user="Franc" changeset="2084930" lat="-34.2048094" lon="150.7909177"/>
  <node id="385043074" version="3" timestamp="2009-08-10T10:30:00Z" uid="7617" user="Franc" changeset="2095739" lat="-34.2047856" lon="150.7909129"/>
  <node id="385043074" version="4" timestamp="2010-01-31T13:43:49Z" uid="7617" user="Franc" changeset="3759177" lat="-34.2048285" lon="150.7908947"/>
  <node id="385043077" version="2" timestamp="2010-01-31T13:43:51Z" uid="7617" user="Franc" changeset="3759177" lat="-34.1980873" lon="150.7884893"/>
  <node id="385043079" version="2" timestamp="2009-08-09T12:26:39Z" uid="7617" user="Franc" changeset="2084930" lat="-34.1982561" lon="150.7890655"/>
  <node id="385043083" version="2" timestamp="2009-08-09T12:26:38Z" uid="7617" user="Franc" changeset="2084930" lat="-34.1986486" lon="150.7896515"/>
  <node id="385043085" version="2" timestamp="2009-08-09T12:26:38Z" uid="7617" user="Franc" changeset="2084930" lat="-34.1989583" lon="150.7896619"/>
  <node id="385043087" version="2" timestamp="2009-08-09T12:26:38Z" uid="7617" user="Franc" changeset="2084930" lat="-34.1992667" lon="150.7898508"/>
  <node id="385043089" version="2" timestamp="2009-08-09T12:26:38Z" uid="7617" user="Franc" changeset="2084930" lat="-34.1989973" lon="150.7897226">
    <tag k="amenity" v="toilets"/>
    <tag k="charge" v="no"/>
  </node>
  <node id="385043089" version="3" timestamp="2010-01-31T13:43:51Z" uid="7617" user="Franc" changeset="3759177" lat="-34.1989538" lon="150.7897317">
    <tag k="amenity" v="toilets"/>
    <tag k="charge" v="no"/>
  </node>
  <node id="385043089" version="4" timestamp="2010-08-29T00:26:14Z" uid="4467" user="Rosscoe" changeset="5621459" lat="-34.1989538" lon="150.7897317">
    <tag k="amenity" v="toilets"/>
  </node>
  <node id="385043441" version="1" timestamp="2009-04-26T02:47:48Z" uid="26515" user="Simon Ward" changeset="967586" lat="52.525476" lon="-2.0299928">
    <tag k="leisure" v="pitch"/>
    <tag k="sport" v="soccer"/>
  </node>
  <node id="385043442" version="1" timestamp="2009-04-26T02:47:48Z" uid="26515" user="Simon Ward" changeset="967586" lat="52.5247043" lon="-2.0322808">
    <tag k="amenity" v="telephone"/>
    <tag k="phone" v="0121 557 3366"/>
    <tag k="source" v="survey"/>
  </node>
  <node id="385043665" version="1" timestamp="2009-04-26T02:51:15Z" uid="26515" user="Simon Ward" changeset="967657" lat="52.5262536" lon="-2.0319193">
    <tag k="name" v="Harry’s News, Off Licence &amp; Grocers"/>
    <tag k="shop" v="convenience"/>
    <tag k="source" v="survey"/>
  </node>
  <node id="385043666" version="1" timestamp="2009-04-26T02:51:15Z" uid="26515" user="Simon Ward" changeset="967657" lat="52.5262741" lon="-2.0319338">
    <tag k="amenity" v="fast_food"/>
    <tag k="cuisine" v="chinese"/>
    <tag k="name" v="Tasty"/>
    <tag k="source" v="survey"/>
  </node>
  <node id="385043802" version="1" timestamp="2009-04-26T02:53:46Z" uid="26515" user="Simon Ward" changeset="967694" lat="52.5274684" lon="-2.0317797">
    <tag k="amenity" v="library"/>
    <tag k="name" v="Sandwell Library &amp; Information Service"/>
    <tag k="source" v="survey"/>
  </node>
  <node id="385043833" version="1" timestamp="2009-04-26T02:56:11Z" uid="26515" user="Simon Ward" changeset="967736" lat="52.5219169" lon="-2.0270292">
    <tag k="amenity" v="fast_food"/>
    <tag k="cuisine" v="fish_and_chips"/>
    <tag k="name" v="Chapman Chippy"/>
    <tag k="source" v="survey"/>
  </node>
  <node id="385044007" version="1" timestamp="2009-04-26T02:58:01Z" uid="26515" user="Simon Ward" changeset="967774" lat="52.5194344" lon="-2.0060477">
    <tag k="amenity" v="pub"/>
    <tag k="name" v="The Vine"/>
    <tag k="source" v="survey"/>
  </node>
  <node id="385044008" version="1" timestamp="2009-04-26T02:58:01Z" uid="26515" user="Simon Ward" changeset="967774" lat="52.5195744" lon="-2.0059782"/>
</osm>
