<?xml version='1.0' encoding='UTF-8'?>
<osm version="0.6" generator="libosmium/2.20.0">
  <node id="386211600" version="3" timestamp="2009-06-16T14:28:23Z" uid="20587" user="balrog-kun" changeset="1535626" lat="50.9981" lon="15.5636">
    <tag k="addr:postcode" v="59-623"/>
    <tag k="is_in" v="gmina Lubomierz, powiat lwówecki, województwo dolnośląskie, Poland"/>
    <tag k="is_in:country" v="Poland"/>
    <tag k="is_in:county" v="powiat lwówecki"/>
    <tag k="is_in:municipality" v="gmina Lubomierz"/>
    <tag k="is_in:province" v="województwo dolnośląskie"/>
    <tag k="name" v="Wojciechów"/>
    <tag k="place" v="village"/>
    <tag k="teryt:rm" v="01"/>
    <tag k="teryt:simc" v="0190733"/>
    <tag k="teryt:stan_na" v="2009-01-01"/>
    <tag k="teryt:terc" v="0212025"/>
    <tag k="teryt:updated_by" v="teryt2osm combine.py v. 47M"/>
    <tag k="wikipedia" v="Wojciechów, Lwówek Śląski County"/>
  </node>
  <node id="386211600" version="4" timestamp="2010-04-11T04:46:50Z" uid="20587" user="balrog-kun" changeset="4389130" lat="50.997974" lon="15.563444">
    <tag k="addr:postcode" v="59-623"/>
    <tag k="is_in" v="gmina Lubomierz, powiat lwówecki, województwo dolnośląskie, Poland"/>
    <tag k="is_in:country" v="Poland"/>
    <tag k="is_in:county" v="powiat lwówecki"/>
    <tag k="is_in:municipality" v="gmina Lubomierz"/>
    <tag k="is_in:province" v="województwo dolnośląskie"/>
    <tag k="name" v="Wojciechów"/>
    <tag k="place" v="village"/>
    <tag k="teryt:rm" v="01"/>
    <tag k="teryt:simc" v="0190733"/>
    <tag k="teryt:stan_na" v="2009-01-01"/>
    <tag k="teryt:terc" v="0212025"/>
    <tag k="teryt:updated_by" v="teryt2osm combine.py v. 47M"/>
    <tag k="wikipedia" v="Wojciechów, Lwówek Śląski County"/>
  </node>
  <node id="386215430" version="1" timestamp="2009-04-27T20:07:02Z" uid="38524" user="Kuddy" changeset="996725" lat="50.1557193" lon="6.7549913">
    <tag k="historic" v="archaeological_site"/>
    <tag k="name" v="Römische Töpferöfen"/>
  </node>
  <node id="386215431" version="1" timestamp="2009-04-27T20:07:02Z" uid="38524" user="Kuddy" changeset="996725" lat="50.1566517" lon="6.7608274">
    <tag k="name" v="Sauerbrunnen"/>
    <tag k="natural" v="spring"/>
  </node>
  <node id="386215432" version="1" timestamp="2009-04-27T20:07:02Z" uid="38524" user="Kuddy" changeset="996725" lat="50.1555802" lon="6.7156498">
    <tag k="name" v="Sauerbrunnen"/>
    <tag k="natural" v="spring"/>
  </node>
  <node id="386215432" version="2" timestamp="2009-05-15T17:50:00Z" uid="38524" user="Kuddy" changeset="1202422" lat="50.1555802" lon="6.7156498">
    <tag k="name" v="Zwei Sauerbrunnen"/>
    <tag k="natural" v="spring"/>
  </node>
  <node id="386215432" version="3" timestamp="2009-10-03T17:43:36Z" uid="38524" user="Kuddy" changeset="2727284" lat="50.1553998" lon="6.7159477">
    <tag k="name" v="Zwei Sauerbrunnen"/>
    <tag k="natural" v="spring"/>
  </node>
  <node id="386215433" version="1" timestamp="2009-04-27T20:07:02Z" uid="38524" user="Kuddy" changeset="996725" lat="50.1380845" lon="6.6987558">
    <tag k="historic" v="archaeological_site"/>
    <tag k="name" v="Römische Fundstelle"/>
  </node>
  <node id="386215434" version="1" timestamp="2009-04-27T20:07:02Z" uid="38524" user="Kuddy" changeset="996725" lat="50.1563399" lon="6.6569681">
    <tag k="historic" v="archaeological_site"/>
    <tag k="name" v="Quellheiligtum"/>
    <tag k="natural" v="spring"/>
  </node>
  <node id="386215435" version="1" timestamp="2009-04-27T20:07:02Z" uid="38524" user="Kuddy" changeset="996725" lat="50.170194" lon="6.6691429">
    <tag k="name" v="Kalksinterquelle"/>
    <tag k="natural" v="spring"/>
  </node>
  <node id="386215436" version="1" timestamp="2009-04-27T20:07:02Z" uid="38524" user="Kuddy" changeset="996725" lat="50.1475236" lon="6.642862">
    <tag k="historic" v="archaeological_site"/>
    <tag k="name" v="Ausgedehnte Trümmerstätte"/>
  </node>
  <node id="386215437" version="1" timestamp="2009-04-27T20:07:02Z" uid="38524" user="Kuddy" changeset="996725" lat="50.1743923" lon="6.6572199">
    <tag k="historic" v="archaeological_site"/>
    <tag k="name" v="Römische Fundstelle"/>
  </node>
  <node id="386215438" version="1" timestamp="2009-04-27T20:07:02Z" uid="38524" user="Kuddy" changeset="996725" lat="50.138489" lon="6.6287727">
    <tag k="historic" v="archaeological_site"/>
    <tag k="name" v="Überreste eines Tempels"/>
  </node>
  <node id="386215439" version="1" timestamp="2009-04-27T20:07:02Z" uid="38524" user="Kuddy" changeset="996725" lat="50.1410088" lon="6.62696">
    <tag k="name" v="Grindelborn"/>
    <tag k="natural" v="spring"/>
  </node>
  <node id="386215440" version="1" timestamp="2009-04-27T20:07:02Z" uid="38524" user="Kuddy" changeset="996725" lat="50.1564189" lon="6.6289563">
    <tag k="historic" v="archaeological_site"/>
    <tag k="name" v="Römisches Steinplattengrab"/>
  </node>
</osm>
