<?xml version='1.0' encoding='UTF-8'?>
<osm version="0.6" generator="libosmium/2.20.0">
  <node id="386590038" version="5" timestamp="2009-06-16T14:37:38Z" uid="20587" user="balrog-kun" changeset="1535709" lat="52.6935517" lon="16.4658247">
    <tag k="is_in" v="Polska"/>
    <tag k="is_in:county" v="powiat szamotulski"/>
    <tag k="is_in:municipality" v="gmina Obrzycko"/>
    <tag k="is_in:province" v="województwo wielkopolskie"/>
    <tag k="name" v="Kożmin"/>
    <tag k="place" v="village"/>
    <tag k="wikipedia" v="pl:Koźmin (powiat szamotulski)"/>
  </node>
  <node id="386590038" version="7" timestamp="2010-04-11T04:46:52Z" uid="20587" user="balrog-kun" changeset="4389130" lat="52.6937132" lon="16.4670434">
    <tag k="is_in" v="Polska"/>
    <tag k="is_in:county" v="powiat szamotulski"/>
    <tag k="is_in:municipality" v="gmina Obrzycko"/>
    <tag k="is_in:province" v="województwo wielkopolskie"/>
    <tag k="name" v="Kożmin"/>
    <tag k="name:en" v="Kozmin"/>
    <tag k="place" v="village"/>
    <tag k="wikipedia" v="pl:Koźmin (powiat szamotulski)"/>
  </node>
  <node id="386590214" version="3" timestamp="2009-06-16T14:37:43Z" uid="20587" user="balrog-kun" changeset="1535709" lat="52.6910539" lon="16.4994706">
    <tag k="addr:postcode" v="64-520"/>
    <tag k="is_in" v="Polska"/>
    <tag k="is_in:county" v="powiat szamotulski"/>
    <tag k="is_in:municipality" v="gmina Obrzycko"/>
    <tag k="is_in:province" v="województwo wielkopolskie"/>
    <tag k="name" v="Obrowo"/>
    <tag k="place" v="village"/>
    <tag k="wikipedia" v="pl:Obrowo (województwo wielkopolskie)"/>
  </node>
  <node id="386590214" version="4" timestamp="2010-04-11T04:46:52Z" uid="20587" user="balrog-kun" changeset="4389130" lat="52.6914967" lon="16.4995154">
    <tag k="addr:postcode" v="64-520"/>
    <tag k="is_in" v="Polska"/>
    <tag k="is_in:county" v="powiat szamotulski"/>
    <tag k="is_in:municipality" v="gmina Obrzycko"/>
    <tag k="is_in:province" v="województwo wielkopolskie"/>
    <tag k="name" v="Obrowo"/>
    <tag k="place" v="village"/>
    <tag k="wikipedia" v="pl:Obrowo (województwo wielkopolskie)"/>
  </node>
  <node id="386591691" version="3" timestamp="2009-06-16T14:37:49Z" uid="20587" user="balrog-kun" changeset="1535709" lat="52.6730503" lon="16.506337">
    <tag k="addr:postcode" v="64-520"/>
    <tag k="is_in" v="Polska"/>
    <tag k="is_in:country" v="Poland"/>
    <tag k="is_in:county" v="powiat szamotulski"/>
    <tag k="is_in:municipality" v="gmina Obrzycko"/>
    <tag k="is_in:province" v="województwo wielkopolskie"/>
    <tag k="name" v="Dobrogostowo"/>
    <tag k="place" v="village"/>
    <tag k="teryt:rm" v="01"/>
    <tag k="teryt:simc" v="0591917"/>
    <tag k="teryt:stan_na" v="2009-01-01"/>
    <tag k="teryt:terc" v="3024042"/>
    <tag k="teryt:updated_by" v="teryt2osm combine.py v. 47M"/>
    <tag k="wikipedia" v="Dobrogostowo"/>
  </node>
  <node id="386591691" version="4" timestamp="2010-04-11T04:46:52Z" uid="20587" user="balrog-kun" changeset="4389130" lat="52.6732752" lon="16.5052549">
    <tag k="addr:postcode" v="64-520"/>
    <tag k="is_in" v="Polska"/>
    <tag k="is_in:country" v="Poland"/>
    <tag k="is_in:county" v="powiat szamotulski"/>
    <tag k="is_in:municipality" v="gmina Obrzycko"/>
    <tag k="is_in:province" v="województwo wielkopolskie"/>
    <tag k="name" v="Dobrogostowo"/>
    <tag k="place" v="village"/>
    <tag k="teryt:rm" v="01"/>
    <tag k="teryt:simc" v="0591917"/>
    <tag k="teryt:stan_na" v="2009-01-01"/>
    <tag k="teryt:terc" v="3024042"/>
    <tag k="teryt:updated_by" v="teryt2osm combine.py v. 47M"/>
    <tag k="wikipedia" v="Dobrogostowo"/>
  </node>
  <node id="386592491" version="5" timestamp="2009-06-16T14:37:55Z" uid="20587" user="balrog-kun" changeset="1535709" lat="52.6587884" lon="16.4852225">
    <tag k="is_in" v="Polska"/>
    <tag k="is_in:country" v="Poland"/>
    <tag k="is_in:county" v="powiat szamotulski"/>
    <tag k="is_in:municipality" v="gmina Obrzycko"/>
    <tag k="is_in:province" v="województwo wielkopolskie"/>
    <tag k="name" v="Pęckowo"/>
    <tag k="place" v="village"/>
    <tag k="teryt:rm" v="01"/>
    <tag k="teryt:simc" v="0591930"/>
    <tag k="teryt:stan_na" v="2009-01-01"/>
    <tag k="teryt:terc" v="3024042"/>
    <tag k="teryt:updated_by" v="teryt2osm combine.py v. 47M"/>
    <tag k="wikipedia" v="pl:Pęckowo (powiat szamotulski)"/>
  </node>
  <node id="386592491" version="7" timestamp="2010-04-11T04:46:52Z" uid="20587" user="balrog-kun" changeset="4389130" lat="52.661033" lon="16.4834001">
    <tag k="is_in" v="Polska"/>
    <tag k="is_in:country" v="Poland"/>
    <tag k="is_in:county" v="powiat szamotulski"/>
    <tag k="is_in:municipality" v="gmina Obrzycko"/>
    <tag k="is_in:province" v="województwo wielkopolskie"/>
    <tag k="name" v="Pęckowo"/>
    <tag k="name:en" v="Peckowo"/>
    <tag k="place" v="village"/>
    <tag k="teryt:rm" v="01"/>
    <tag k="teryt:simc" v="0591930"/>
    <tag k="teryt:stan_na" v="2009-01-01"/>
    <tag k="teryt:terc" v="3024042"/>
    <tag k="teryt:updated_by" v="teryt2osm combine.py v. 47M"/>
    <tag k="wikipedia" v="pl:Pęckowo (powiat szamotulski)"/>
  </node>
  <node id="386594761" version="3" timestamp="2009-06-16T14:37:56Z" uid="20587" user="balrog-kun" changeset="1535709" lat="52.6438956" lon="16.4696015">
    <tag k="addr:postcode" v="64-560"/>
    <tag k="is_in" v="Polska"/>
    <tag k="is_in:country" v="Poland"/>
    <tag k="is_in:county" v="powiat szamotulski"/>
    <tag k="is_in:municipality" v="gmina Ostroróg"/>
    <tag k="is_in:province" v="województwo wielkopolskie"/>
    <tag k="name" v="Kluczewo"/>
    <tag k="place" v="village"/>
    <tag k="teryt:rm" v="01"/>
    <tag k="teryt:simc" v="0592443"/>
    <tag k="teryt:stan_na" v="2009-01-01"/>
    <tag k="teryt:terc" v="3024055"/>
    <tag k="teryt:updated_by" v="teryt2osm combine.py v. 47M"/>
    <tag k="wikipedia" v="pl:Kluczewo (powiat szamotulski)"/>
  </node>
  <node id="386594761" version="4" timestamp="2010-04-11T04:46:52Z" uid="20587" user="balrog-kun" changeset="4389130" lat="52.6435129" lon="16.4698141">
    <tag k="addr:postcode" v="64-560"/>
    <tag k="is_in" v="Polska"/>
    <tag k="is_in:country" v="Poland"/>
    <tag k="is_in:county" v="powiat szamotulski"/>
    <tag k="is_in:municipality" v="gmina Ostroróg"/>
    <tag k="is_in:province" v="województwo wielkopolskie"/>
    <tag k="name" v="Kluczewo"/>
    <tag k="place" v="village"/>
    <tag k="teryt:rm" v="01"/>
    <tag k="teryt:simc" v="0592443"/>
    <tag k="teryt:stan_na" v="2009-01-01"/>
    <tag k="teryt:terc" v="3024055"/>
    <tag k="teryt:updated_by" v="teryt2osm combine.py v. 47M"/>
    <tag k="wikipedia" v="pl:Kluczewo (powiat szamotulski)"/>
  </node>
  <node id="386596562" version="3" timestamp="2009-06-16T14:37:35Z" uid="20587" user="balrog-kun" changeset="1535709" lat="52.6258732" lon="16.45604">
    <tag k="addr:postcode" v="64-560"/>
    <tag k="is_in" v="Polska"/>
    <tag k="is_in:county" v="powiat szamotulski"/>
    <tag k="is_in:municipality" v="gmina Ostroróg"/>
    <tag k="is_in:province" v="województwo wielkopolskie"/>
    <tag k="name" v="Ostroróg"/>
    <tag k="place" v="village"/>
    <tag k="population" v="2016"/>
    <tag k="source:population" v="wikipedia"/>
    <tag k="teryt:terc" v="3024054"/>
    <tag k="wikipedia" v="Ostroróg"/>
  </node>
  <node id="386596562" version="4" timestamp="2010-04-11T04:46:52Z" uid="20587" user="balrog-kun" changeset="4389130" lat="52.6261122" lon="16.45406">
    <tag k="addr:postcode" v="64-560"/>
    <tag k="is_in" v="Polska"/>
    <tag k="is_in:county" v="powiat szamotulski"/>
    <tag k="is_in:municipality" v="gmina Ostroróg"/>
    <tag k="is_in:province" v="województwo wielkopolskie"/>
    <tag k="name" v="Ostroróg"/>
    <tag k="place" v="village"/>
    <tag k="population" v="2016"/>
    <tag k="source:population" v="wikipedia"/>
    <tag k="teryt:terc" v="3024054"/>
    <tag k="wikipedia" v="Ostroróg"/>
  </node>
  <node id="386597019" version="3" timestamp="2009-06-16T14:37:47Z" uid="20587" user="balrog-kun" changeset="1535709" lat="52.6226421" lon="16.4992989">
    <tag k="is_in" v="Polska"/>
    <tag k="is_in:country" v="Poland"/>
    <tag k="is_in:county" v="powiat szamotulski"/>
    <tag k="is_in:municipality" v="gmina Ostroróg"/>
    <tag k="is_in:province" v="województwo wielkopolskie"/>
    <tag k="name" v="Szczepankowo"/>
    <tag k="place" v="village"/>
    <tag k="teryt:rm" v="01"/>
    <tag k="teryt:simc" v="0592510"/>
    <tag k="teryt:stan_na" v="2009-01-01"/>
    <tag k="teryt:terc" v="3024055"/>
    <tag k="teryt:updated_by" v="teryt2osm combine.py v. 47M"/>
    <tag k="wikipedia" v="pl:Szczepankowo (województwo wielkopolskie)"/>
  </node>
  <node id="386597019" version="4" timestamp="2010-04-11T04:46:52Z" uid="20587" user="balrog-kun" changeset="4389130" lat="52.6225785" lon="16.4991372">
    <tag k="is_in" v="Polska"/>
    <tag k="is_in:country" v="Poland"/>
    <tag k="is_in:county" v="powiat szamotulski"/>
    <tag k="is_in:municipality" v="gmina Ostroróg"/>
    <tag k="is_in:province" v="województwo wielkopolskie"/>
    <tag k="name" v="Szczepankowo"/>
    <tag k="place" v="village"/>
    <tag k="teryt:rm" v="01"/>
    <tag k="teryt:simc" v="0592510"/>
    <tag k="teryt:stan_na" v="2009-01-01"/>
    <tag k="teryt:terc" v="3024055"/>
    <tag k="teryt:updated_by" v="teryt2osm combine.py v. 47M"/>
    <tag k="wikipedia" v="pl:Szczepankowo (województwo wielkopolskie)"/>
  </node>
  <node id="386597249" version="4" timestamp="2009-06-16T14:37:55Z" uid="20587" user="balrog-kun" changeset="1535709" lat="52.6143053" lon="16.5350042">
    <tag k="is_in" v="Polska"/>
    <tag k="is_in:country" v="Poland"/>
    <tag k="is_in:county" v="powiat szamotulski"/>
    <tag k="is_in:municipality" v="gmina Szamotuły"/>
    <tag k="is_in:province" v="województwo wielkopolskie"/>
    <tag k="name" v="Śmiłowo"/>
    <tag k="place" v="village"/>
    <tag k="teryt:rm" v="01"/>
    <tag k="teryt:simc" v="0596091"/>
    <tag k="teryt:stan_na" v="2009-01-01"/>
    <tag k="teryt:terc" v="3024075"/>
    <tag k="teryt:updated_by" v="teryt2osm combine.py v. 47M"/>
    <tag k="wikipedia" v="pl:Śmiłowo (powiat szamotulski)"/>
  </node>
  <node id="386597249" version="6" timestamp="2010-04-11T04:46:53Z" uid="20587" user="balrog-kun" changeset="4389130" lat="52.6152979" lon="16.5342637">
    <tag k="is_in" v="Polska"/>
    <tag k="is_in:country" v="Poland"/>
    <tag k="is_in:county" v="powiat szamotulski"/>
    <tag k="is_in:municipality" v="gmina Szamotuły"/>
    <tag k="is_in:province" v="województwo wielkopolskie"/>
    <tag k="name" v="Śmiłowo"/>
    <tag k="name:en" v="Smilowo"/>
    <tag k="place" v="village"/>
    <tag k="teryt:rm" v="01"/>
    <tag k="teryt:simc" v="0596091"/>
    <tag k="teryt:stan_na" v="2009-01-01"/>
    <tag k="teryt:terc" v="3024075"/>
    <tag k="teryt:updated_by" v="teryt2osm combine.py v. 47M"/>
    <tag k="wikipedia" v="pl:Śmiłowo (powiat szamotulski)"/>
  </node>
  <node id="386598396" version="4" timestamp="2009-06-16T14:37:34Z" uid="20587" user="balrog-kun" changeset="1535709" lat="52.6467085" lon="16.5358626">
    <tag k="is_in" v="Polska"/>
    <tag k="is_in:country" v="Poland"/>
    <tag k="is_in:county" v="powiat szamotulski"/>
    <tag k="is_in:municipality" v="gmina Obrzycko"/>
    <tag k="is_in:province" v="województwo wielkopolskie"/>
    <tag k="name" v="Gaj Mały"/>
    <tag k="place" v="village"/>
    <tag k="teryt:rm" v="01"/>
    <tag k="teryt:simc" v="0591946"/>
    <tag k="teryt:stan_na" v="2009-01-01"/>
    <tag k="teryt:terc" v="3024042"/>
    <tag k="teryt:updated_by" v="teryt2osm combine.py v. 47M"/>
    <tag k="wikipedia" v="Gaj Mały"/>
  </node>
  <node id="386598396" version="6" timestamp="2010-04-11T04:46:53Z" uid="20587" user="balrog-kun" changeset="4389130" lat="52.6473691" lon="16.535546">
    <tag k="is_in" v="Polska"/>
    <tag k="is_in:country" v="Poland"/>
    <tag k="is_in:county" v="powiat szamotulski"/>
    <tag k="is_in:municipality" v="gmina Obrzycko"/>
    <tag k="is_in:province" v="województwo wielkopolskie"/>
    <tag k="name" v="Gaj Mały"/>
    <tag k="name:en" v="Gaj Maly"/>
    <tag k="place" v="village"/>
    <tag k="teryt:rm" v="01"/>
    <tag k="teryt:simc" v="0591946"/>
    <tag k="teryt:stan_na" v="2009-01-01"/>
    <tag k="teryt:terc" v="3024042"/>
    <tag k="teryt:updated_by" v="teryt2osm combine.py v. 47M"/>
    <tag k="wikipedia" v="Gaj Mały"/>
  </node>
  <node id="386598966" version="3" timestamp="2009-06-16T14:37:48Z" uid="20587" user="balrog-kun" changeset="1535709" lat="52.6746116" lon="16.5532006">
    <tag k="addr:postcode" v="64-520"/>
    <tag k="is_in" v="Polska"/>
    <tag k="is_in:country" v="Poland"/>
    <tag k="is_in:county" v="powiat szamotulski"/>
    <tag k="is_in:municipality" v="gmina Obrzycko"/>
    <tag k="is_in:province" v="województwo wielkopolskie"/>
    <tag k="name" v="Kobylniki"/>
    <tag k="place" v="village"/>
    <tag k="teryt:rm" v="01"/>
    <tag k="teryt:simc" v="0591981"/>
    <tag k="teryt:stan_na" v="2009-01-01"/>
    <tag k="teryt:terc" v="3024042"/>
    <tag k="teryt:updated_by" v="teryt2osm combine.py v. 47M"/>
    <tag k="wikipedia" v="Kobylniki, Szamotuły County"/>
  </node>
  <node id="386598966" version="4" timestamp="2010-04-11T04:46:53Z" uid="20587" user="balrog-kun" changeset="4389130" lat="52.6740201" lon="16.5526334">
    <tag k="addr:postcode" v="64-520"/>
    <tag k="is_in" v="Polska"/>
    <tag k="is_in:country" v="Poland"/>
    <tag k="is_in:county" v="powiat szamotulski"/>
    <tag k="is_in:municipality" v="gmina Obrzycko"/>
    <tag k="is_in:province" v="województwo wielkopolskie"/>
    <tag k="name" v="Kobylniki"/>
    <tag k="place" v="village"/>
    <tag k="teryt:rm" v="01"/>
    <tag k="teryt:simc" v="0591981"/>
    <tag k="teryt:stan_na" v="2009-01-01"/>
    <tag k="teryt:terc" v="3024042"/>
    <tag k="teryt:updated_by" v="teryt2osm combine.py v. 47M"/>
    <tag k="wikipedia" v="Kobylniki, Szamotuły County"/>
  </node>
  <node id="386599403" version="4" timestamp="2009-06-16T14:37:47Z" uid="20587" user="balrog-kun" changeset="1535709" lat="52.6849155" lon="16.5319143">
    <tag k="addr:postcode" v="64-520"/>
    <tag k="is_in" v="Polska"/>
    <tag k="is_in:country" v="Poland"/>
    <tag k="is_in:county" v="powiat szamotulski"/>
    <tag k="is_in:municipality" v="gmina Obrzycko"/>
    <tag k="is_in:province" v="województwo wielkopolskie"/>
    <tag k="name" v="Słopanowo"/>
    <tag k="place" v="village"/>
    <tag k="teryt:rm" v="01"/>
    <tag k="teryt:simc" v="0592101"/>
    <tag k="teryt:stan_na" v="2009-01-01"/>
    <tag k="teryt:terc" v="3024042"/>
    <tag k="teryt:updated_by" v="teryt2osm combine.py v. 47M"/>
    <tag k="wikipedia" v="pl:Słopanowo"/>
  </node>
  <node id="386599403" version="5" timestamp="2010-04-11T04:46:53Z" uid="20587" user="balrog-kun" changeset="4389130" lat="52.6844639" lon="16.533239">
    <tag k="addr:postcode" v="64-520"/>
    <tag k="is_in" v="Polska"/>
    <tag k="is_in:country" v="Poland"/>
    <tag k="is_in:county" v="powiat szamotulski"/>
    <tag k="is_in:municipality" v="gmina Obrzycko"/>
    <tag k="is_in:province" v="województwo wielkopolskie"/>
    <tag k="name" v="Słopanowo"/>
    <tag k="place" v="village"/>
    <tag k="teryt:rm" v="01"/>
    <tag k="teryt:simc" v="0592101"/>
    <tag k="teryt:stan_na" v="2009-01-01"/>
    <tag k="teryt:terc" v="3024042"/>
    <tag k="teryt:updated_by" v="teryt2osm combine.py v. 47M"/>
    <tag k="wikipedia" v="pl:Słopanowo"/>
  </node>
</osm>
