<?xml version='1.0' encoding='UTF-8'?>
<osm version="0.6" generator="libosmium/2.20.0">
  <node id="386850248" version="1" timestamp="2009-04-28T16:40:23Z" uid="38524" user="Kuddy" changeset="1006068" lat="50.1544751" lon="6.9228775">
    <tag k="historic" v="archaeological_site"/>
    <tag k="name" v="Grabhügelfeld"/>
  </node>
  <node id="386850249" version="1" timestamp="2009-04-28T16:40:23Z" uid="38524" user="Kuddy" changeset="1006068" lat="50.1547422" lon="6.9383156">
    <tag k="historic" v="castle"/>
    <tag k="name" v="Waltersburg"/>
  </node>
  <node id="386852112" version="1" timestamp="2009-04-28T16:46:14Z" uid="38524" user="Kuddy" changeset="1006140" lat="50.1452837" lon="6.9506764">
    <tag k="historic" v="archaeological_site"/>
    <tag k="name" v="Römische Siedlungsstelle"/>
  </node>
  <node id="386852115" version="1" timestamp="2009-04-28T16:46:14Z" uid="38524" user="Kuddy" changeset="1006140" lat="50.1363008" lon="6.9522941">
    <tag k="historic" v="archaeological_site"/>
    <tag k="name" v="Hügelgrab"/>
  </node>
  <node id="386852117" version="1" timestamp="2009-04-28T16:46:14Z" uid="38524" user="Kuddy" changeset="1006140" lat="50.1363008" lon="6.9505385">
    <tag k="historic" v="archaeological_site"/>
    <tag k="name" v="Grabhügelgruppe"/>
  </node>
  <node id="386852120" version="1" timestamp="2009-04-28T16:46:14Z" uid="38524" user="Kuddy" changeset="1006140" lat="50.1273436" lon="6.9503245">
    <tag k="historic" v="archaeological_site"/>
    <tag k="name" v="Römische Fundstreuung"/>
  </node>
  <node id="386852123" version="1" timestamp="2009-04-28T16:46:14Z" uid="38524" user="Kuddy" changeset="1006140" lat="50.1182408" lon="6.9641591">
    <tag k="historic" v="archaeological_site"/>
    <tag k="name" v="Römische Siedlungsstelle"/>
  </node>
  <node id="386852125" version="1" timestamp="2009-04-28T16:46:14Z" uid="38524" user="Kuddy" changeset="1006140" lat="50.1361516" lon="6.9644954">
    <tag k="historic" v="archaeological_site"/>
    <tag k="name" v="Römische Villa"/>
  </node>
  <node id="386855881" version="1" timestamp="2009-04-28T16:59:20Z" uid="38524" user="Kuddy" changeset="1006324" lat="50.2417187" lon="6.9437622">
    <tag k="historic" v="archaeological_site"/>
    <tag k="name" v="Römische Siedlung"/>
  </node>
  <node id="386855882" version="1" timestamp="2009-04-28T16:59:21Z" uid="38524" user="Kuddy" changeset="1006324" lat="50.2488833" lon="6.9461625">
    <tag k="historic" v="archaeological_site"/>
    <tag k="name" v="Römischer Tempelbezirk"/>
  </node>
  <node id="386855883" version="1" timestamp="2009-04-28T16:59:21Z" uid="38524" user="Kuddy" changeset="1006324" lat="50.2640797" lon="6.9499918">
    <tag k="name" v="Aussichtspunkt"/>
    <tag k="tourism" v="viewpoint"/>
  </node>
  <node id="386855884" version="1" timestamp="2009-04-28T16:59:21Z" uid="38524" user="Kuddy" changeset="1006324" lat="50.2621276" lon="6.9530534">
    <tag k="historic" v="archaeological_site"/>
    <tag k="name" v="Römische Siedlungsstelle"/>
  </node>
  <node id="386855885" version="1" timestamp="2009-04-28T16:59:21Z" uid="38524" user="Kuddy" changeset="1006324" lat="50.2739552" lon="6.9531223">
    <tag k="name" v="Tertiärvulkan Hochkelberg"/>
    <tag k="natural" v="volcano"/>
  </node>
  <node id="386855886" version="1" timestamp="2009-04-28T16:59:21Z" uid="38524" user="Kuddy" changeset="1006324" lat="50.2739084" lon="6.953121">
    <tag k="historic" v="archaeological_site"/>
    <tag k="name" v="Römische Befestigungsanlage Hochkelberg"/>
  </node>
  <node id="386855887" version="1" timestamp="2009-04-28T16:59:21Z" uid="38524" user="Kuddy" changeset="1006324" lat="50.2705984" lon="6.9498108">
    <tag k="name" v="Dreiländereck"/>
    <tag k="tourism" v="attraction"/>
  </node>
  <node id="386855888" version="1" timestamp="2009-04-28T16:59:21Z" uid="38524" user="Kuddy" changeset="1006324" lat="50.2742424" lon="6.9446738">
    <tag k="historic" v="archaeological_site"/>
    <tag k="name" v="Meilenstein"/>
  </node>
  <node id="386855889" version="1" timestamp="2009-04-28T16:59:21Z" uid="38524" user="Kuddy" changeset="1006324" lat="50.2721876" lon="6.9454604">
    <tag k="name" v="Hohlwege"/>
    <tag k="tourism" v="attraction"/>
  </node>
  <node id="386855890" version="1" timestamp="2009-04-28T16:59:21Z" uid="38524" user="Kuddy" changeset="1006324" lat="50.2677219" lon="6.9605613">
    <tag k="landuse" v="cemetery"/>
    <tag k="name" v="Keltisch- römischer Friedhof"/>
  </node>
  <node id="386857392" version="1" timestamp="2009-04-28T17:04:35Z" uid="110593" user="esetzer" changeset="1006406" lat="40.7532227" lon="-111.8881901">
    <tag k="created_by" v="Merkaartor 0.11"/>
  </node>
  <node id="386857437" version="1" timestamp="2009-04-28T17:04:38Z" uid="110593" user="esetzer" changeset="1006406" lat="40.7531752" lon="-111.8892295">
    <tag k="created_by" v="Merkaartor 0.11"/>
  </node>
  <node id="386857447" version="1" timestamp="2009-04-28T17:04:38Z" uid="110593" user="esetzer" changeset="1006406" lat="40.7531594" lon="-111.8904868">
    <tag k="created_by" v="Merkaartor 0.11"/>
  </node>
  <node id="386857447" version="2" timestamp="2009-04-28T17:08:54Z" uid="110593" user="esetzer" changeset="1006462" lat="40.7531752" lon="-111.890361">
    <tag k="created_by" v="Merkaartor 0.11"/>
  </node>
  <node id="386857482" version="1" timestamp="2009-04-28T17:04:39Z" uid="110593" user="esetzer" changeset="1006406" lat="40.7519691" lon="-111.8904657">
    <tag k="created_by" v="Merkaartor 0.11"/>
  </node>
  <node id="386858414" version="1" timestamp="2009-04-28T17:06:31Z" uid="110593" user="esetzer" changeset="1006434" lat="40.7532126" lon="-111.8884112">
    <tag k="created_by" v="Merkaartor 0.11"/>
  </node>
  <node id="386858415" version="1" timestamp="2009-04-28T17:06:34Z" uid="110593" user="esetzer" changeset="1006434" lat="40.7530006" lon="-111.890361">
    <tag k="created_by" v="Merkaartor 0.11"/>
  </node>
  <node id="386858416" version="1" timestamp="2009-04-28T17:06:35Z" uid="110593" user="esetzer" changeset="1006434" lat="40.7525562" lon="-111.8903401">
    <tag k="created_by" v="Merkaartor 0.11"/>
  </node>
  <node id="386858417" version="1" timestamp="2009-04-28T17:06:35Z" uid="110593" user="esetzer" changeset="1006434" lat="40.7525721" lon="-111.8884123">
    <tag k="created_by" v="Merkaartor 0.11"/>
  </node>
  <node id="386858759" version="1" timestamp="2009-04-28T17:08:53Z" uid="110593" user="esetzer" changeset="1006462" lat="40.7530011" lon="-111.890484">
    <tag k="created_by" v="Merkaartor 0.11"/>
  </node>
  <node id="386858770" version="1" timestamp="2009-04-28T17:08:54Z" uid="110593" user="esetzer" changeset="1006462" lat="40.7519891" lon="-111.8884535">
    <tag k="created_by" v="Merkaartor 0.11"/>
  </node>
  <node id="386858788" version="1" timestamp="2009-04-28T17:08:56Z" uid="110593" user="esetzer" changeset="1006462" lat="40.7524768" lon="-111.8884333">
    <tag k="created_by" v="Merkaartor 0.11"/>
  </node>
  <node id="386858795" version="1" timestamp="2009-04-28T17:08:56Z" uid="110593" user="esetzer" changeset="1006462" lat="40.752006" lon="-111.8903272">
    <tag k="created_by" v="Merkaartor 0.11"/>
  </node>
  <node id="386858802" version="1" timestamp="2009-04-28T17:08:56Z" uid="110593" user="esetzer" changeset="1006462" lat="40.752461" lon="-111.8903191">
    <tag k="created_by" v="Merkaartor 0.11"/>
  </node>
  <node id="386859006" version="1" timestamp="2009-04-28T17:09:11Z" uid="38524" user="Kuddy" changeset="1006467" lat="50.2708911" lon="6.981286">
    <tag k="historic" v="archaeological_site"/>
    <tag k="name" v="Grabhügelnekropole"/>
  </node>
  <node id="386859008" version="1" timestamp="2009-04-28T17:09:11Z" uid="38524" user="Kuddy" changeset="1006467" lat="50.267239" lon="6.9776138">
    <tag k="landuse" v="quarry"/>
    <tag k="name" v="Alter Steinbruch"/>
  </node>
  <node id="386859010" version="1" timestamp="2009-04-28T17:09:11Z" uid="38524" user="Kuddy" changeset="1006467" lat="50.2742798" lon="6.9958327">
    <tag k="historic" v="archaeological_site"/>
    <tag k="name" v="Grabhügel"/>
  </node>
  <node id="386859011" version="1" timestamp="2009-04-28T17:09:11Z" uid="38524" user="Kuddy" changeset="1006467" lat="50.2706729" lon="7.0092245">
    <tag k="historic" v="archaeological_site"/>
    <tag k="name" v="Römische Wasserleitung"/>
  </node>
  <node id="386859013" version="1" timestamp="2009-04-28T17:09:11Z" uid="38524" user="Kuddy" changeset="1006467" lat="50.2612786" lon="7.0512279">
    <tag k="historic" v="archaeological_site"/>
    <tag k="name" v="Römische Siedlungsstelle"/>
  </node>
  <node id="386859015" version="1" timestamp="2009-04-28T17:09:11Z" uid="38524" user="Kuddy" changeset="1006467" lat="50.2619857" lon="6.9906579">
    <tag k="name" v="Galgen"/>
    <tag k="tourism" v="attraction"/>
  </node>
  <node id="386859017" version="1" timestamp="2009-04-28T17:09:11Z" uid="38524" user="Kuddy" changeset="1006467" lat="50.2434182" lon="7.0367637">
    <tag k="historic" v="archaeological_site"/>
    <tag k="name" v="Römische Siedlungsstelle"/>
  </node>
  <node id="386859018" version="1" timestamp="2009-04-28T17:09:11Z" uid="38524" user="Kuddy" changeset="1006467" lat="50.2374887" lon="7.0383592">
    <tag k="historic" v="archaeological_site"/>
    <tag k="name" v="Befestigungsanlagen auf dem Höchstberg"/>
  </node>
  <node id="386859020" version="1" timestamp="2009-04-28T17:09:11Z" uid="38524" user="Kuddy" changeset="1006467" lat="50.2289826" lon="7.0312061">
    <tag k="historic" v="archaeological_site"/>
    <tag k="name" v="Grabhügelgruppe"/>
  </node>
  <node id="386859022" version="1" timestamp="2009-04-28T17:09:11Z" uid="38524" user="Kuddy" changeset="1006467" lat="50.225587" lon="7.0223706">
    <tag k="historic" v="archaeological_site"/>
    <tag k="name" v="Grabhügelgruppe"/>
  </node>
  <node id="386859024" version="1" timestamp="2009-04-28T17:09:11Z" uid="38524" user="Kuddy" changeset="1006467" lat="50.2312214" lon="7.0049344">
    <tag k="historic" v="archaeological_site"/>
    <tag k="name" v="Mittelalterliche Siedlung"/>
  </node>
</osm>
