<?xml version='1.0' encoding='UTF-8'?>
<osm version="0.6" generator="libosmium/2.20.0">
  <node id="387221853" version="2" timestamp="2009-07-28T04:07:34Z" uid="36809" user="pfoten_weg_!_" changeset="1961234" lat="37.8076744" lon="-122.413285">
    <tag k="name" v="Radisson"/>
    <tag k="tourism" v="hotel"/>
  </node>
  <node id="387222132" version="3" timestamp="2009-12-29T03:14:36Z" uid="7617" user="Franc" changeset="3477619" lat="-33.8304208" lon="151.2059755">
    <tag k="highway" v="crossing"/>
    <tag k="source" v="survey"/>
    <tag k="traffic_calming" v="hump"/>
  </node>
  <node id="387222132" version="4" timestamp="2010-09-25T03:29:27Z" uid="7617" user="Franc" changeset="5867953" lat="-33.8304186" lon="151.2059676">
    <tag k="highway" v="crossing"/>
    <tag k="source" v="survey"/>
    <tag k="traffic_calming" v="hump"/>
  </node>
  <node id="387222137" version="2" timestamp="2010-02-25T11:32:01Z" uid="30201" user="rrankin" changeset="3970809" lat="-33.8323664" lon="151.20551">
    <tag k="crossing_ref" v="zebra"/>
    <tag k="highway" v="crossing"/>
    <tag k="source" v="survey"/>
    <tag k="traffic_calming" v="table"/>
  </node>
  <node id="387222561" version="3" timestamp="2009-07-28T04:07:34Z" uid="36809" user="pfoten_weg_!_" changeset="1961234" lat="37.8074235" lon="-122.4134052">
    <tag k="name" v="Sheraton Fisherman&apos;s Wharf"/>
    <tag k="operator" v="Sheraton"/>
    <tag k="tourism" v="hotel"/>
  </node>
  <node id="387222820" version="2" timestamp="2009-11-18T23:00:15Z" uid="9581" user="Lobelt" changeset="3155722" lat="50.9336288" lon="11.4679628">
    <tag k="power" v="tower"/>
  </node>
  <node id="387223336" version="2" timestamp="2009-07-28T04:07:34Z" uid="36809" user="pfoten_weg_!_" changeset="1961234" lat="37.8075998" lon="-122.4141777">
    <tag k="name" v="The Wharf Inn"/>
    <tag k="tourism" v="hotel"/>
  </node>
  <node id="387223625" version="2" timestamp="2009-05-23T16:33:05Z" uid="34428" user="usm78-gis" changeset="1296578" lat="58.9750033" lon="29.9631568"/>
  <node id="387224271" version="2" timestamp="2009-07-28T04:07:34Z" uid="36809" user="pfoten_weg_!_" changeset="1961234" lat="37.8068877" lon="-122.4170788">
    <tag k="24h" v="yes"/>
    <tag k="amenity" v="restaurant"/>
    <tag k="name" v="Denny&apos;s"/>
  </node>
  <node id="387229939" version="2" timestamp="2009-09-15T18:36:58Z" uid="43967" user="railsnail" changeset="2495684" lat="46.0877454" lon="13.2477769"/>
</osm>
