<?xml version='1.0' encoding='UTF-8'?>
<osm version="0.6" generator="libosmium/2.20.0">
  <node id="387988144" version="1" timestamp="2009-04-30T23:33:56Z" uid="36809" user="pfoten_weg_!_" changeset="1031814" lat="48.0722027" lon="11.5310562">
    <tag k="amenity" v="pharmacy"/>
    <tag k="created_by" v="RambaZamba"/>
    <tag k="dispensing" v="yes"/>
    <tag k="name" v="Wassermann-Apotheke"/>
    <tag k="source" v="survey"/>
  </node>
  <node id="387988144" version="2" timestamp="2009-06-02T00:22:42Z" uid="86259" user="hasse_osm_korinthenkacker" changeset="1399758" lat="48.0724701" lon="11.5319659">
    <tag k="amenity" v="pharmacy"/>
    <tag k="created_by" v="RambaZamba"/>
    <tag k="dispensing" v="yes"/>
    <tag k="name" v="Wassermann-Apotheke"/>
    <tag k="source" v="survey"/>
  </node>
  <node id="387988144" version="3" timestamp="2009-06-02T00:23:35Z" uid="86259" user="hasse_osm_korinthenkacker" changeset="1399758" lat="48.0724701" lon="11.5319659">
    <tag k="amenity" v="pharmacy"/>
    <tag k="created_by" v="RambaZamba"/>
    <tag k="dispensing" v="yes"/>
    <tag k="name" v="Wassermann-Apotheke"/>
    <tag k="source" v="survey"/>
  </node>
  <node id="387988148" version="1" timestamp="2009-04-30T23:33:56Z" uid="36809" user="pfoten_weg_!_" changeset="1031814" lat="48.0722024" lon="11.5310251">
    <tag k="addr:city" v="Pullach im Isartal"/>
    <tag k="addr:housename" v="Wassermann-Apotheke"/>
    <tag k="addr:housenumber" v="2"/>
    <tag k="addr:postcode" v="82049"/>
    <tag k="addr:street" v="Rosenstraße"/>
    <tag k="created_by" v="RambaZamba"/>
    <tag k="source" v="survey"/>
  </node>
  <node id="387988148" version="3" timestamp="2009-08-25T19:07:51Z" uid="36809" user="pfoten_weg_!_" changeset="2260477" lat="48.0722024" lon="11.5310251">
    <tag k="addr:city" v="Pullach im Isartal"/>
    <tag k="addr:housename" v="Wassermann-Apotheke"/>
    <tag k="addr:housenumber" v="2"/>
    <tag k="addr:postcode" v="82049"/>
    <tag k="addr:street" v="Rosenstraße"/>
    <tag k="source" v="survey"/>
  </node>
</osm>
