<?xml version='1.0' encoding='UTF-8'?>
<osm version="0.6" generator="libosmium/2.20.0">
  <node id="389678554" version="2" timestamp="2010-07-29T08:58:09Z" uid="74617" user="JohnSmith" changeset="5344848" lat="53.8861079" lon="-1.9217241">
    <tag k="amenity" v="emergency_phone"/>
    <tag k="emergency" v="phone"/>
    <tag k="ref" v="A629 8A"/>
  </node>
  <node id="389678559" version="2" timestamp="2010-07-29T09:33:02Z" uid="74617" user="JohnSmith" changeset="5344848" lat="53.8962271" lon="-1.9345128">
    <tag k="amenity" v="emergency_phone"/>
    <tag k="emergency" v="phone"/>
    <tag k="ref" v="A629 4A"/>
  </node>
  <node id="389678564" version="2" timestamp="2010-07-29T09:15:59Z" uid="74617" user="JohnSmith" changeset="5344848" lat="53.9018033" lon="-1.9481242">
    <tag k="amenity" v="emergency_phone"/>
    <tag k="emergency" v="phone"/>
    <tag k="ref" v="A629 6A"/>
  </node>
  <node id="389678569" version="2" timestamp="2010-07-29T09:02:44Z" uid="74617" user="JohnSmith" changeset="5344848" lat="53.9028757" lon="-1.9629704">
    <tag k="amenity" v="emergency_phone"/>
    <tag k="emergency" v="phone"/>
  </node>
  <node id="389679335" version="2" timestamp="2011-04-02T04:34:31Z" uid="7617" user="Franc" changeset="7740982" lat="-33.5241718" lon="151.3162116"/>
  <node id="389679337" version="3" timestamp="2011-04-02T04:34:37Z" uid="7617" user="Franc" changeset="7740982" lat="-33.5240415" lon="151.3153097">
    <tag k="highway" v="turning_circle"/>
  </node>
</osm>
