<?xml version='1.0' encoding='UTF-8'?>
<osm version="0.6" generator="libosmium/2.20.0">
  <node id="389781967" version="1" timestamp="2009-05-03T15:47:15Z" uid="10712" user="Kraeml" changeset="1063292" lat="47.7891841" lon="11.5746529"/>
  <node id="389781968" version="1" timestamp="2009-05-03T15:47:15Z" uid="10712" user="Kraeml" changeset="1063292" lat="47.7899979" lon="11.5735136"/>
  <node id="389781969" version="1" timestamp="2009-05-03T15:47:15Z" uid="10712" user="Kraeml" changeset="1063292" lat="47.7911139" lon="11.5728858"/>
  <node id="389781970" version="1" timestamp="2009-05-03T15:47:15Z" uid="10712" user="Kraeml" changeset="1063292" lat="47.7936251" lon="11.5705607"/>
  <node id="389781971" version="1" timestamp="2009-05-03T15:47:15Z" uid="10712" user="Kraeml" changeset="1063292" lat="47.7948341" lon="11.5693981"/>
  <node id="389781972" version="1" timestamp="2009-05-03T15:47:15Z" uid="10712" user="Kraeml" changeset="1063292" lat="47.7950666" lon="11.5677473"/>
  <node id="389783488" version="2" timestamp="2011-01-04T00:25:01Z" uid="6269" user="Mueck" changeset="6856599" lat="53.6032174" lon="8.5348268">
    <tag k="highway" v="bus_stop"/>
    <tag k="name" v="Anne-Frank-Schule"/>
  </node>
  <node id="389783493" version="1" timestamp="2009-05-03T15:50:00Z" uid="10712" user="Kraeml" changeset="1063340" lat="47.7453692" lon="11.5866853"/>
  <node id="389783494" version="1" timestamp="2009-05-03T15:50:00Z" uid="10712" user="Kraeml" changeset="1063340" lat="47.7446367" lon="11.5862227"/>
  <node id="389783495" version="1" timestamp="2009-05-03T15:50:00Z" uid="10712" user="Kraeml" changeset="1063340" lat="47.7443089" lon="11.5859528"/>
  <node id="389783496" version="1" timestamp="2009-05-03T15:50:00Z" uid="10712" user="Kraeml" changeset="1063340" lat="47.7440391" lon="11.5854901"/>
  <node id="389783592" version="2" timestamp="2011-01-04T00:24:55Z" uid="6269" user="Mueck" changeset="6856599" lat="53.6030741" lon="8.5354276">
    <tag k="highway" v="bus_stop"/>
    <tag k="name" v="Anne-Frank-Schule"/>
  </node>
  <node id="389784247" version="3" timestamp="2010-12-17T00:44:15Z" uid="6269" user="Mueck" changeset="6683028" lat="53.5936428" lon="8.5483538"/>
  <node id="389785410" version="1" timestamp="2009-05-03T15:53:31Z" uid="10712" user="Kraeml" changeset="1063384" lat="47.7452535" lon="11.5872251"/>
  <node id="389785412" version="1" timestamp="2009-05-03T15:53:31Z" uid="10712" user="Kraeml" changeset="1063384" lat="47.7458704" lon="11.5886324"/>
  <node id="389785414" version="1" timestamp="2009-05-03T15:53:31Z" uid="10712" user="Kraeml" changeset="1063384" lat="47.745215" lon="11.5889794"/>
  <node id="389785416" version="1" timestamp="2009-05-03T15:53:31Z" uid="10712" user="Kraeml" changeset="1063384" lat="47.744174" lon="11.5892685"/>
  <node id="389785418" version="1" timestamp="2009-05-03T15:53:31Z" uid="10712" user="Kraeml" changeset="1063384" lat="47.7433451" lon="11.5890565"/>
  <node id="389785420" version="1" timestamp="2009-05-03T15:53:31Z" uid="10712" user="Kraeml" changeset="1063384" lat="47.7428439" lon="11.5891336"/>
  <node id="389785422" version="1" timestamp="2009-05-03T15:53:31Z" uid="10712" user="Kraeml" changeset="1063384" lat="47.7422848" lon="11.5901939"/>
  <node id="389785898" version="2" timestamp="2009-09-30T14:09:00Z" uid="36809" user="pfoten_weg_!_" changeset="2688850" lat="47.209883" lon="11.526933">
    <tag k="ele" v="2610"/>
    <tag k="massif" v="Tuxer Alpen"/>
    <tag k="name" v="Glungezerhütte"/>
    <tag k="note" v="Koordinaten vom ÖAV zur Verfügung gestellt"/>
    <tag k="operator" v="Sektion Hall in Tirol"/>
    <tag k="tourism" v="alpine_hut"/>
  </node>
  <node id="389785898" version="4" timestamp="2010-07-12T06:56:27Z" uid="74027" user="katzlbt" changeset="5196060" lat="47.2097685" lon="11.5268225">
    <tag k="amenity" v="restaurant"/>
    <tag k="ele" v="2610"/>
    <tag k="massif" v="Tuxer Alpen"/>
    <tag k="name" v="Glungezerhütte"/>
    <tag k="note" v="Koordinaten vom ÖAV zur Verfügung gestellt"/>
    <tag k="operator" v="Sektion Hall in Tirol"/>
    <tag k="tourism" v="alpine_hut"/>
  </node>
  <node id="389786113" version="2" timestamp="2009-09-30T14:11:52Z" uid="36809" user="pfoten_weg_!_" changeset="2688850" lat="47.166733" lon="11.640617">
    <tag k="ele" v="2019"/>
    <tag k="massif" v="Tuxer Alpen"/>
    <tag k="name" v="Lizumer Hütte"/>
    <tag k="note" v="Koordinaten vom ÖAV zur Verfügung gestellt"/>
    <tag k="operator" v="Sektion Hall in Tirol"/>
    <tag k="tourism" v="alpine_hut"/>
  </node>
  <node id="389786131" version="2" timestamp="2009-07-12T06:39:20Z" uid="43967" user="railsnail" changeset="1803416" lat="46.93425" lon="12.7413">
    <tag k="created_by" v="GPSBabel-1.3.6"/>
    <tag k="ele" v="1977"/>
    <tag k="massif" v="Schobergruppe"/>
    <tag k="name" v="Lienzer Hütte"/>
    <tag k="note" v="Koordinaten vom ÖAV zur Verfügung gestellt"/>
    <tag k="operator" v="Sektion Lienz"/>
    <tag k="tourism" v="alpine_hut"/>
  </node>
  <node id="389786165" version="2" timestamp="2009-09-30T13:50:18Z" uid="36809" user="pfoten_weg_!_" changeset="2688850" lat="47.211167" lon="11.452317">
    <tag k="ele" v="1970"/>
    <tag k="massif" v="Tuxer Alpen"/>
    <tag k="name" v="Patscherkofelhaus"/>
    <tag k="note" v="Koordinaten vom ÖAV zur Verfügung gestellt"/>
    <tag k="operator" v="Sektion TK Innsbruck"/>
    <tag k="tourism" v="alpine_hut"/>
  </node>
  <node id="389786208" version="2" timestamp="2009-09-30T13:49:58Z" uid="36809" user="pfoten_weg_!_" changeset="2688850" lat="47.142017" lon="11.5686">
    <tag k="ele" v="1787"/>
    <tag k="massif" v="Tuxer Alpen"/>
    <tag k="name" v="Naviser Hütte"/>
    <tag k="note" v="Koordinaten vom ÖAV zur Verfügung gestellt"/>
    <tag k="operator" v="Sektion Akad.Sektion Innsbruck"/>
    <tag k="tourism" v="alpine_hut"/>
  </node>
  <node id="389786208" version="3" timestamp="2009-11-30T08:11:49Z" uid="74027" user="katzlbt" changeset="3253652" lat="47.1422114" lon="11.5689977">
    <tag k="ele" v="1787"/>
    <tag k="massif" v="Tuxer Alpen"/>
    <tag k="name" v="Naviser Hütte"/>
    <tag k="note" v="Koordinaten vom ÖAV zur Verfügung gestellt"/>
    <tag k="operator" v="Sektion Akad.Sektion Innsbruck"/>
    <tag k="tourism" v="alpine_hut"/>
  </node>
  <node id="389786208" version="4" timestamp="2009-12-06T16:09:54Z" uid="74027" user="katzlbt" changeset="3306612" lat="47.1420577" lon="11.5684562">
    <tag k="ele" v="1787"/>
    <tag k="massif" v="Tuxer Alpen"/>
    <tag k="name" v="Naviser Hütte"/>
    <tag k="note" v="Koordinaten vom ÖAV zur Verfügung gestellt"/>
    <tag k="operator" v="Sektion Akad.Sektion Innsbruck"/>
    <tag k="tourism" v="alpine_hut"/>
  </node>
  <node id="389786208" version="5" timestamp="2009-12-06T19:09:27Z" uid="74027" user="katzlbt" changeset="3308471" lat="47.1420577" lon="11.5684561">
    <tag k="ele" v="1787"/>
    <tag k="massif" v="Tuxer Alpen"/>
    <tag k="name" v="Naviser Hütte"/>
    <tag k="note" v="closed down alpine_hut"/>
    <tag k="operator" v="Sektion Akad.Sektion Innsbruck"/>
    <tag k="place" v="locality"/>
  </node>
  <node id="389786208" version="6" timestamp="2009-12-06T19:30:40Z" uid="74027" user="katzlbt" changeset="3308933" lat="47.1420986" lon="11.5684443">
    <tag k="ele" v="1787"/>
    <tag k="massif" v="Tuxer Alpen"/>
    <tag k="name" v="Naviser Hütte"/>
    <tag k="note" v="closed down alpine_hut"/>
    <tag k="operator" v="Sektion Akad.Sektion Innsbruck"/>
    <tag k="place" v="locality"/>
  </node>
  <node id="389786400" version="2" timestamp="2009-09-30T14:09:04Z" uid="36809" user="pfoten_weg_!_" changeset="2688850" lat="47.219927" lon="11.521665">
    <tag k="ele" v="1229"/>
    <tag k="massif" v="Tuxer Alpen"/>
    <tag k="name" v="Vinzenz-Tollinger-Hütte"/>
    <tag k="note" v="Koordinaten vom ÖAV zur Verfügung gestellt"/>
    <tag k="operator" v="Sektion Hall in Tirol"/>
    <tag k="tourism" v="alpine_hut"/>
  </node>
</osm>
