<?xml version='1.0' encoding='UTF-8'?>
<osm version="0.6" generator="libosmium/2.20.0">
  <node id="390020030" version="2" timestamp="2009-10-17T23:23:41Z" uid="36809" user="pfoten_weg_!_" changeset="2879001" lat="47.7296658" lon="11.2340307">
    <tag k="name" v="Abertshausen"/>
    <tag k="place" v="hamlet"/>
  </node>
  <node id="390020033" version="2" timestamp="2009-10-17T23:23:42Z" uid="36809" user="pfoten_weg_!_" changeset="2879001" lat="47.7264313" lon="11.2319316"/>
  <node id="390020034" version="2" timestamp="2009-10-17T23:23:41Z" uid="36809" user="pfoten_weg_!_" changeset="2879001" lat="47.7265252" lon="11.2323904"/>
  <node id="390020036" version="2" timestamp="2009-10-17T23:23:40Z" uid="36809" user="pfoten_weg_!_" changeset="2879001" lat="47.7264448" lon="11.2327263"/>
  <node id="390020037" version="2" timestamp="2009-10-17T23:23:40Z" uid="36809" user="pfoten_weg_!_" changeset="2879001" lat="47.7261712" lon="11.2328728"/>
  <node id="390020039" version="2" timestamp="2009-10-17T23:23:39Z" uid="36809" user="pfoten_weg_!_" changeset="2879001" lat="47.7257489" lon="11.2329248"/>
  <node id="390020040" version="2" timestamp="2009-10-17T23:23:39Z" uid="36809" user="pfoten_weg_!_" changeset="2879001" lat="47.7252597" lon="11.2325855"/>
  <node id="390020041" version="2" timestamp="2009-10-17T23:23:39Z" uid="36809" user="pfoten_weg_!_" changeset="2879001" lat="47.7251619" lon="11.2320523"/>
  <node id="390020043" version="2" timestamp="2009-10-17T23:23:38Z" uid="36809" user="pfoten_weg_!_" changeset="2879001" lat="47.7252597" lon="11.231519"/>
  <node id="390020045" version="2" timestamp="2009-10-17T23:23:38Z" uid="36809" user="pfoten_weg_!_" changeset="2879001" lat="47.7256836" lon="11.2313736"/>
  <node id="390020046" version="2" timestamp="2009-10-17T23:23:41Z" uid="36809" user="pfoten_weg_!_" changeset="2879001" lat="47.7260749" lon="11.231519"/>
  <node id="390020086" version="3" timestamp="2009-10-17T23:43:24Z" uid="36809" user="pfoten_weg_!_" changeset="2879001" lat="47.728507" lon="11.254247">
    <tag k="ele" v="668"/>
    <tag k="name" v="Habaching"/>
    <tag k="place" v="hamlet"/>
  </node>
  <node id="390020089" version="2" timestamp="2009-10-17T23:28:16Z" uid="36809" user="pfoten_weg_!_" changeset="2879001" lat="47.6915945" lon="11.2642843"/>
  <node id="390020092" version="2" timestamp="2009-10-17T23:28:30Z" uid="36809" user="pfoten_weg_!_" changeset="2879001" lat="47.6961518" lon="11.2628142"/>
  <node id="390020095" version="2" timestamp="2009-10-17T23:28:15Z" uid="36809" user="pfoten_weg_!_" changeset="2879001" lat="47.6915431" lon="11.2634202"/>
  <node id="390020096" version="2" timestamp="2009-10-17T23:28:31Z" uid="36809" user="pfoten_weg_!_" changeset="2879001" lat="47.6945744" lon="11.2630216"/>
  <node id="390020098" version="2" timestamp="2009-10-17T23:28:31Z" uid="36809" user="pfoten_weg_!_" changeset="2879001" lat="47.6950079" lon="11.2638355"/>
  <node id="390020100" version="2" timestamp="2009-10-17T23:28:30Z" uid="36809" user="pfoten_weg_!_" changeset="2879001" lat="47.6962161" lon="11.2637065"/>
  <node id="390020101" version="3" timestamp="2009-10-17T23:44:43Z" uid="36809" user="pfoten_weg_!_" changeset="2879001" lat="47.728188" lon="11.2720879"/>
  <node id="390020102" version="3" timestamp="2009-10-17T23:44:42Z" uid="36809" user="pfoten_weg_!_" changeset="2879001" lat="47.728022" lon="11.2734606"/>
  <node id="390020104" version="3" timestamp="2009-10-17T23:44:44Z" uid="36809" user="pfoten_weg_!_" changeset="2879001" lat="47.728115" lon="11.2736514"/>
  <node id="390020105" version="3" timestamp="2009-10-17T23:44:44Z" uid="36809" user="pfoten_weg_!_" changeset="2879001" lat="47.7284106" lon="11.2736239"/>
  <node id="390020107" version="3" timestamp="2009-10-17T23:44:45Z" uid="36809" user="pfoten_weg_!_" changeset="2879001" lat="47.7284437" lon="11.2731841"/>
  <node id="390020109" version="3" timestamp="2009-10-17T23:44:46Z" uid="36809" user="pfoten_weg_!_" changeset="2879001" lat="47.7286507" lon="11.2728746"/>
  <node id="390020110" version="3" timestamp="2009-10-17T23:44:46Z" uid="36809" user="pfoten_weg_!_" changeset="2879001" lat="47.7288239" lon="11.2724992"/>
  <node id="390020112" version="3" timestamp="2009-10-17T23:43:54Z" uid="36809" user="pfoten_weg_!_" changeset="2879001" lat="47.7289917" lon="11.2718931"/>
  <node id="390020114" version="3" timestamp="2009-10-17T23:43:53Z" uid="36809" user="pfoten_weg_!_" changeset="2879001" lat="47.7290737" lon="11.2713533"/>
  <node id="390020116" version="3" timestamp="2009-10-17T23:43:52Z" uid="36809" user="pfoten_weg_!_" changeset="2879001" lat="47.72901" lon="11.2707408"/>
  <node id="390020118" version="3" timestamp="2009-10-17T23:43:52Z" uid="36809" user="pfoten_weg_!_" changeset="2879001" lat="47.7290239" lon="11.2703363"/>
  <node id="390020120" version="3" timestamp="2009-10-17T23:43:51Z" uid="36809" user="pfoten_weg_!_" changeset="2879001" lat="47.7289157" lon="11.2702251"/>
  <node id="390020121" version="3" timestamp="2009-10-17T23:43:43Z" uid="36809" user="pfoten_weg_!_" changeset="2879001" lat="47.7286485" lon="11.270194"/>
  <node id="390020123" version="3" timestamp="2009-10-17T23:43:44Z" uid="36809" user="pfoten_weg_!_" changeset="2879001" lat="47.7284367" lon="11.27042"/>
  <node id="390021522" version="1" timestamp="2009-05-03T20:29:03Z" uid="36809" user="pfoten_weg_!_" changeset="1067974" lat="48.0722205" lon="11.5201137">
    <tag k="addr:city" v="München"/>
    <tag k="addr:housenumber" v="41"/>
    <tag k="addr:postcode" v="81479"/>
    <tag k="addr:street" v="Melchiorstraße"/>
    <tag k="created_by" v="RambaZamba"/>
    <tag k="source" v="survey"/>
  </node>
  <node id="390021522" version="2" timestamp="2009-05-04T20:09:43Z" uid="36809" user="pfoten_weg_!_" changeset="1079969" lat="48.0722205" lon="11.5201137">
    <tag k="addr:city" v="München"/>
    <tag k="addr:housenumber" v="41"/>
    <tag k="addr:postcode" v="81479"/>
    <tag k="addr:street" v="Melchiorstraße"/>
    <tag k="created_by" v="RambaZamba"/>
    <tag k="name" v="41"/>
    <tag k="source" v="survey"/>
  </node>
  <node id="390021522" version="3" timestamp="2009-06-08T18:23:55Z" uid="36809" user="pfoten_weg_!_" changeset="1461692" lat="48.0722205" lon="11.5201137">
    <tag k="addr:city" v="München"/>
    <tag k="addr:housenumber" v="41"/>
    <tag k="addr:postcode" v="81479"/>
    <tag k="addr:street" v="Melchiorstraße"/>
    <tag k="created_by" v="RambaZamba"/>
    <tag k="name" v="41"/>
    <tag k="source" v="survey"/>
  </node>
  <node id="390021524" version="1" timestamp="2009-05-03T20:29:03Z" uid="36809" user="pfoten_weg_!_" changeset="1067974" lat="48.0721558" lon="11.5206315">
    <tag k="addr:city" v="München"/>
    <tag k="addr:housenumber" v="39"/>
    <tag k="addr:postcode" v="81479"/>
    <tag k="addr:street" v="Melchiorstraße"/>
    <tag k="created_by" v="RambaZamba"/>
    <tag k="source" v="survey"/>
  </node>
  <node id="390021524" version="2" timestamp="2009-05-04T20:09:43Z" uid="36809" user="pfoten_weg_!_" changeset="1079969" lat="48.0721558" lon="11.5206315">
    <tag k="addr:city" v="München"/>
    <tag k="addr:housenumber" v="39"/>
    <tag k="addr:postcode" v="81479"/>
    <tag k="addr:street" v="Melchiorstraße"/>
    <tag k="created_by" v="RambaZamba"/>
    <tag k="name" v="39"/>
    <tag k="source" v="survey"/>
  </node>
  <node id="390021524" version="3" timestamp="2009-06-08T18:23:55Z" uid="36809" user="pfoten_weg_!_" changeset="1461692" lat="48.0721558" lon="11.5206315">
    <tag k="addr:city" v="München"/>
    <tag k="addr:housenumber" v="39"/>
    <tag k="addr:postcode" v="81479"/>
    <tag k="addr:street" v="Melchiorstraße"/>
    <tag k="created_by" v="RambaZamba"/>
    <tag k="name" v="39"/>
    <tag k="source" v="survey"/>
  </node>
  <node id="390021525" version="1" timestamp="2009-05-03T20:29:03Z" uid="36809" user="pfoten_weg_!_" changeset="1067974" lat="48.072077" lon="11.5212715">
    <tag k="addr:city" v="München"/>
    <tag k="addr:housenumber" v="37"/>
    <tag k="addr:postcode" v="81479"/>
    <tag k="addr:street" v="Melchiorstraße"/>
    <tag k="created_by" v="RambaZamba"/>
    <tag k="source" v="survey"/>
  </node>
  <node id="390021525" version="2" timestamp="2009-05-04T20:09:43Z" uid="36809" user="pfoten_weg_!_" changeset="1079969" lat="48.072077" lon="11.5212715">
    <tag k="addr:city" v="München"/>
    <tag k="addr:housenumber" v="37"/>
    <tag k="addr:postcode" v="81479"/>
    <tag k="addr:street" v="Melchiorstraße"/>
    <tag k="created_by" v="RambaZamba"/>
    <tag k="name" v="37"/>
    <tag k="source" v="survey"/>
  </node>
  <node id="390021525" version="3" timestamp="2009-06-08T18:23:54Z" uid="36809" user="pfoten_weg_!_" changeset="1461692" lat="48.072077" lon="11.5212715">
    <tag k="addr:city" v="München"/>
    <tag k="addr:housenumber" v="37"/>
    <tag k="addr:postcode" v="81479"/>
    <tag k="addr:street" v="Melchiorstraße"/>
    <tag k="created_by" v="RambaZamba"/>
    <tag k="name" v="37"/>
    <tag k="source" v="survey"/>
  </node>
</osm>
