<?xml version='1.0' encoding='UTF-8'?>
<osm version="0.6" generator="libosmium/2.20.0">
  <node id="391555063" version="2" timestamp="2009-09-22T18:04:16Z" uid="9581" user="Lobelt" changeset="2574584" lat="50.8677499" lon="11.7258155"/>
  <node id="391555064" version="2" timestamp="2009-09-22T18:04:17Z" uid="9581" user="Lobelt" changeset="2574584" lat="50.8677473" lon="11.7259651"/>
  <node id="391555979" version="2" timestamp="2010-07-29T09:03:09Z" uid="74617" user="JohnSmith" changeset="5344848" lat="51.5758743" lon="7.4829646">
    <tag k="amenity" v="emergency_phone"/>
    <tag k="emergency" v="phone"/>
    <tag k="operator" v="Autobahnmeisterei"/>
  </node>
  <node id="391555981" version="2" timestamp="2010-07-29T08:59:27Z" uid="74617" user="JohnSmith" changeset="5344848" lat="51.5760478" lon="7.4827997">
    <tag k="amenity" v="emergency_phone"/>
    <tag k="emergency" v="phone"/>
    <tag k="operator" v="Autobahnmeisterei"/>
  </node>
  <node id="391555982" version="2" timestamp="2010-07-29T09:25:36Z" uid="74617" user="JohnSmith" changeset="5344848" lat="51.5764293" lon="7.4581409">
    <tag k="amenity" v="emergency_phone"/>
    <tag k="emergency" v="phone"/>
    <tag k="operator" v="Autobahnmeisterei"/>
  </node>
  <node id="391555983" version="2" timestamp="2010-07-29T09:30:42Z" uid="74617" user="JohnSmith" changeset="5344848" lat="51.5766852" lon="7.4584814">
    <tag k="amenity" v="emergency_phone"/>
    <tag k="emergency" v="phone"/>
    <tag k="operator" v="Autobahnmeisterei"/>
  </node>
  <node id="391555984" version="2" timestamp="2010-07-29T09:21:58Z" uid="74617" user="JohnSmith" changeset="5344848" lat="51.5822663" lon="7.4328071">
    <tag k="amenity" v="emergency_phone"/>
    <tag k="emergency" v="phone"/>
    <tag k="operator" v="Autobahnmeisterei"/>
  </node>
  <node id="391555986" version="3" timestamp="2010-07-29T09:08:47Z" uid="74617" user="JohnSmith" changeset="5344848" lat="51.5825652" lon="7.4328317">
    <tag k="amenity" v="emergency_phone"/>
    <tag k="emergency" v="phone"/>
    <tag k="operator" v="Autobahnmeisterei"/>
    <tag k="source" v="HiRes aerial imagery"/>
  </node>
</osm>
