<?xml version='1.0' encoding='UTF-8'?>
<osm version="0.6" generator="libosmium/2.20.0">
  <node id="392721448" version="1" timestamp="2009-05-09T15:37:31Z" uid="34428" user="usm78-gis" changeset="1128841" lat="60.7473429" lon="28.6751231"/>
  <node id="392721450" version="1" timestamp="2009-05-09T15:37:41Z" uid="34428" user="usm78-gis" changeset="1128841" lat="60.7475863" lon="28.6739998"/>
  <node id="392721630" version="1" timestamp="2009-05-09T15:38:13Z" uid="34428" user="usm78-gis" changeset="1128841" lat="60.7445574" lon="28.6766858"/>
  <node id="392721633" version="1" timestamp="2009-05-09T15:38:13Z" uid="34428" user="usm78-gis" changeset="1128841" lat="60.74444" lon="28.6771493"/>
  <node id="392721823" version="3" timestamp="2010-07-28T20:11:11Z" uid="74617" user="JohnSmith" changeset="5339329" lat="47.9988946" lon="11.6653865">
    <tag k="emergency" v="fire_hydrant"/>
    <tag k="fire_hydrant" v="up"/>
    <tag k="source" v="survey"/>
  </node>
  <node id="392721823" version="4" timestamp="2010-07-30T17:41:08Z" uid="74617" user="JohnSmith" changeset="5356742" lat="47.9988946" lon="11.6653865">
    <tag k="amenity" v="fire_hydrant"/>
    <tag k="emergency" v="fire_hydrant"/>
    <tag k="fire_hydrant" v="up"/>
    <tag k="source" v="survey"/>
  </node>
  <node id="392721970" version="1" timestamp="2009-05-09T15:39:33Z" uid="49111" user="Markus B" changeset="1128908" lat="49.5523937" lon="11.333163"/>
  <node id="392721971" version="1" timestamp="2009-05-09T15:39:33Z" uid="49111" user="Markus B" changeset="1128908" lat="49.5523368" lon="11.3334402"/>
  <node id="392721972" version="1" timestamp="2009-05-09T15:39:33Z" uid="49111" user="Markus B" changeset="1128908" lat="49.5521446" lon="11.3333434"/>
  <node id="392721973" version="1" timestamp="2009-05-09T15:39:33Z" uid="49111" user="Markus B" changeset="1128908" lat="49.552199" lon="11.333068"/>
  <node id="392721974" version="1" timestamp="2009-05-09T15:39:33Z" uid="49111" user="Markus B" changeset="1128908" lat="49.5518926" lon="11.3328266"/>
  <node id="392721975" version="1" timestamp="2009-05-09T15:39:33Z" uid="49111" user="Markus B" changeset="1128908" lat="49.5518203" lon="11.3331899"/>
  <node id="392721976" version="1" timestamp="2009-05-09T15:39:33Z" uid="49111" user="Markus B" changeset="1128908" lat="49.5522169" lon="11.3329802"/>
  <node id="392721977" version="1" timestamp="2009-05-09T15:39:33Z" uid="49111" user="Markus B" changeset="1128908" lat="49.5524279" lon="11.3328958">
    <tag k="amenity" v="bench"/>
  </node>
  <node id="392721978" version="1" timestamp="2009-05-09T15:39:33Z" uid="49111" user="Markus B" changeset="1128908" lat="49.552464" lon="11.3328459">
    <tag k="historic" v="wayside_cross"/>
  </node>
  <node id="392721979" version="1" timestamp="2009-05-09T15:39:33Z" uid="49111" user="Markus B" changeset="1128908" lat="49.5557352" lon="11.3364999"/>
  <node id="392721980" version="1" timestamp="2009-05-09T15:39:33Z" uid="49111" user="Markus B" changeset="1128908" lat="49.5558335" lon="11.3369069"/>
  <node id="392721981" version="1" timestamp="2009-05-09T15:39:33Z" uid="49111" user="Markus B" changeset="1128908" lat="49.5553478" lon="11.3374981"/>
  <node id="392721982" version="1" timestamp="2009-05-09T15:39:33Z" uid="49111" user="Markus B" changeset="1128908" lat="49.5551937" lon="11.3366782"/>
  <node id="392721983" version="1" timestamp="2009-05-09T15:39:33Z" uid="49111" user="Markus B" changeset="1128908" lat="49.5552534" lon="11.3373703"/>
  <node id="392721984" version="1" timestamp="2009-05-09T15:39:33Z" uid="49111" user="Markus B" changeset="1128908" lat="49.5563595" lon="11.3362712">
    <tag k="amenity" v="recycling"/>
    <tag k="recycling:cans" v="yes"/>
    <tag k="recycling:clothes" v="yes"/>
    <tag k="recycling:glass" v="yes"/>
  </node>
  <node id="392721985" version="1" timestamp="2009-05-09T15:39:33Z" uid="49111" user="Markus B" changeset="1128908" lat="49.556257" lon="11.3358934"/>
  <node id="392721985" version="2" timestamp="2010-06-16T21:09:54Z" uid="49111" user="Markus B" changeset="5004458" lat="49.5562568" lon="11.3358917"/>
  <node id="392721987" version="1" timestamp="2009-05-09T15:39:33Z" uid="49111" user="Markus B" changeset="1128908" lat="49.5562696" lon="11.3360401"/>
  <node id="392721987" version="2" timestamp="2010-06-16T21:09:54Z" uid="49111" user="Markus B" changeset="5004458" lat="49.5562697" lon="11.3360406"/>
  <node id="392721988" version="1" timestamp="2009-05-09T15:39:33Z" uid="49111" user="Markus B" changeset="1128908" lat="49.5561325" lon="11.3360694"/>
  <node id="392721988" version="2" timestamp="2010-06-16T21:09:54Z" uid="49111" user="Markus B" changeset="5004458" lat="49.5561323" lon="11.3360698"/>
  <node id="392721989" version="1" timestamp="2009-05-09T15:39:33Z" uid="49111" user="Markus B" changeset="1128908" lat="49.5561178" lon="11.3359186"/>
  <node id="392721989" version="2" timestamp="2010-06-16T21:09:54Z" uid="49111" user="Markus B" changeset="5004458" lat="49.5561182" lon="11.3359199"/>
  <node id="392721990" version="1" timestamp="2009-05-09T15:39:33Z" uid="49111" user="Markus B" changeset="1128908" lat="49.5559835" lon="11.336104"/>
  <node id="392721990" version="2" timestamp="2010-06-16T21:09:54Z" uid="49111" user="Markus B" changeset="5004458" lat="49.5559832" lon="11.3361032"/>
  <node id="392721991" version="1" timestamp="2009-05-09T15:39:33Z" uid="49111" user="Markus B" changeset="1128908" lat="49.5559688" lon="11.3359531"/>
  <node id="392721991" version="2" timestamp="2010-06-16T21:09:54Z" uid="49111" user="Markus B" changeset="5004458" lat="49.5559691" lon="11.3359534"/>
  <node id="392722898" version="1" timestamp="2009-05-09T15:48:07Z" uid="34428" user="usm78-gis" changeset="1128841" lat="60.4391123" lon="29.3285442"/>
  <node id="392722899" version="1" timestamp="2009-05-09T15:48:07Z" uid="36809" user="pfoten_weg_!_" changeset="1128997" lat="48.011485" lon="11.473139">
    <tag k="created_by" v="RambaZamba"/>
    <tag k="name" v="Verbot und Sackgasse Schild"/>
    <tag k="source" v="survey"/>
  </node>
  <node id="392722899" version="2" timestamp="2009-05-09T16:15:03Z" uid="36809" user="pfoten_weg_!_" changeset="1129316" lat="48.011485" lon="11.4730916">
    <tag k="access" v="designated"/>
    <tag k="created_by" v="RambaZamba"/>
    <tag k="oneway" v="yes"/>
    <tag k="source" v="survey"/>
  </node>
  <node id="392722899" version="3" timestamp="2009-05-09T16:16:16Z" uid="36809" user="pfoten_weg_!_" changeset="1129334" lat="48.011485" lon="11.4730916">
    <tag k="access" v="designated"/>
    <tag k="created_by" v="RambaZamba"/>
    <tag k="source" v="survey"/>
  </node>
  <node id="392722899" version="5" timestamp="2009-08-19T13:17:48Z" uid="36809" user="pfoten_weg_!_" changeset="2201154" lat="48.011485" lon="11.4730916">
    <tag k="access" v="designated"/>
    <tag k="source" v="survey at RambaZamba"/>
  </node>
  <node id="392722899" version="7" timestamp="2009-08-28T21:27:30Z" uid="36809" user="pfoten_weg_!_" changeset="2295609" lat="48.011485" lon="11.4730916">
    <tag k="access" v="designated"/>
    <tag k="discovered_by" v="RambaZamba"/>
    <tag k="source" v="survey"/>
  </node>
  <node id="392722899" version="9" timestamp="2009-08-31T17:38:52Z" uid="36809" user="pfoten_weg_!_" changeset="2328905" lat="48.011485" lon="11.4730916">
    <tag k="access" v="designated"/>
    <tag k="source" v="survey"/>
  </node>
  <node id="392722899" version="10" timestamp="2009-10-02T17:31:21Z" uid="86259" user="hasse_osm_korinthenkacker" changeset="2715119" lat="48.011485" lon="11.4730916">
    <tag k="access" v="designated"/>
  </node>
  <node id="392722900" version="1" timestamp="2009-05-09T15:48:08Z" uid="36809" user="pfoten_weg_!_" changeset="1128997" lat="48.009666" lon="11.470934">
    <tag k="created_by" v="RambaZamba"/>
    <tag k="name" v="Metalltor"/>
    <tag k="source" v="survey"/>
  </node>
  <node id="392722900" version="2" timestamp="2009-05-09T16:15:03Z" uid="36809" user="pfoten_weg_!_" changeset="1129316" lat="48.0097008" lon="11.4709482">
    <tag k="access" v="private"/>
    <tag k="barrier" v="kissing_gate"/>
    <tag k="created_by" v="RambaZamba"/>
    <tag k="source" v="survey"/>
  </node>
  <node id="392722900" version="4" timestamp="2009-08-19T13:17:46Z" uid="36809" user="pfoten_weg_!_" changeset="2201154" lat="48.0097008" lon="11.4709482">
    <tag k="access" v="private"/>
    <tag k="barrier" v="kissing_gate"/>
    <tag k="source" v="survey at RambaZamba"/>
  </node>
  <node id="392722900" version="6" timestamp="2009-08-28T21:27:29Z" uid="36809" user="pfoten_weg_!_" changeset="2295609" lat="48.0097008" lon="11.4709482">
    <tag k="access" v="private"/>
    <tag k="barrier" v="kissing_gate"/>
    <tag k="discovered_by" v="RambaZamba"/>
    <tag k="source" v="survey"/>
  </node>
  <node id="392722900" version="8" timestamp="2009-08-31T17:38:52Z" uid="36809" user="pfoten_weg_!_" changeset="2328905" lat="48.0097008" lon="11.4709482">
    <tag k="access" v="private"/>
    <tag k="barrier" v="kissing_gate"/>
    <tag k="source" v="survey"/>
  </node>
  <node id="392722900" version="9" timestamp="2009-10-02T17:30:58Z" uid="86259" user="hasse_osm_korinthenkacker" changeset="2715119" lat="48.0097008" lon="11.4709482">
    <tag k="access" v="private"/>
    <tag k="barrier" v="kissing_gate"/>
  </node>
  <node id="392722901" version="1" timestamp="2009-05-09T15:48:08Z" uid="36809" user="pfoten_weg_!_" changeset="1128997" lat="48.009746" lon="11.471783">
    <tag k="created_by" v="RambaZamba"/>
    <tag k="name" v="Klein Holztor"/>
    <tag k="source" v="survey"/>
  </node>
  <node id="392722901" version="2" timestamp="2009-05-09T16:15:03Z" uid="36809" user="pfoten_weg_!_" changeset="1129316" lat="48.0097468" lon="11.4717731">
    <tag k="access" v="private"/>
    <tag k="barrier" v="kissing_gate"/>
    <tag k="created_by" v="RambaZamba"/>
    <tag k="source" v="survey"/>
  </node>
  <node id="392722901" version="4" timestamp="2009-08-19T13:17:45Z" uid="36809" user="pfoten_weg_!_" changeset="2201154" lat="48.0097468" lon="11.4717731">
    <tag k="access" v="private"/>
    <tag k="barrier" v="kissing_gate"/>
    <tag k="source" v="survey at RambaZamba"/>
  </node>
  <node id="392722901" version="6" timestamp="2009-08-28T21:27:29Z" uid="36809" user="pfoten_weg_!_" changeset="2295609" lat="48.0097468" lon="11.4717731">
    <tag k="access" v="private"/>
    <tag k="barrier" v="kissing_gate"/>
    <tag k="discovered_by" v="RambaZamba"/>
    <tag k="source" v="survey"/>
  </node>
  <node id="392722901" version="8" timestamp="2009-08-31T17:38:52Z" uid="36809" user="pfoten_weg_!_" changeset="2328905" lat="48.0097468" lon="11.4717731">
    <tag k="access" v="private"/>
    <tag k="barrier" v="kissing_gate"/>
    <tag k="source" v="survey"/>
  </node>
  <node id="392722901" version="9" timestamp="2009-10-02T17:30:58Z" uid="86259" user="hasse_osm_korinthenkacker" changeset="2715119" lat="48.0097468" lon="11.4717731">
    <tag k="access" v="private"/>
    <tag k="barrier" v="kissing_gate"/>
  </node>
  <node id="392722902" version="1" timestamp="2009-05-09T15:48:08Z" uid="36809" user="pfoten_weg_!_" changeset="1128997" lat="48.010215" lon="11.470499">
    <tag k="created_by" v="RambaZamba"/>
    <tag k="name" v="Quer gelegte Holzbalken"/>
    <tag k="source" v="survey"/>
  </node>
  <node id="392722902" version="2" timestamp="2009-05-09T16:15:04Z" uid="36809" user="pfoten_weg_!_" changeset="1129316" lat="48.010215" lon="11.470499">
    <tag k="created_by" v="RambaZamba"/>
    <tag k="name" v="Quer gelegte Holzbalken"/>
    <tag k="source" v="survey"/>
  </node>
  <node id="392722903" version="1" timestamp="2009-05-09T15:48:08Z" uid="36809" user="pfoten_weg_!_" changeset="1128997" lat="48.010153" lon="11.470503">
    <tag k="created_by" v="RambaZamba"/>
    <tag k="name" v="Picnic Platzl Grass"/>
    <tag k="source" v="survey"/>
  </node>
  <node id="392722903" version="2" timestamp="2009-05-09T16:15:03Z" uid="36809" user="pfoten_weg_!_" changeset="1129316" lat="48.0101574" lon="11.4704774">
    <tag k="access" v="unknown"/>
    <tag k="created_by" v="RambaZamba"/>
    <tag k="source" v="survey"/>
    <tag k="tourism" v="picnic_site"/>
  </node>
  <node id="392722903" version="4" timestamp="2009-08-19T13:17:43Z" uid="36809" user="pfoten_weg_!_" changeset="2201154" lat="48.0101574" lon="11.4704774">
    <tag k="access" v="unknown"/>
    <tag k="source" v="survey at RambaZamba"/>
    <tag k="tourism" v="picnic_site"/>
  </node>
  <node id="392722903" version="6" timestamp="2009-08-28T21:27:29Z" uid="36809" user="pfoten_weg_!_" changeset="2295609" lat="48.0101574" lon="11.4704774">
    <tag k="access" v="unknown"/>
    <tag k="discovered_by" v="RambaZamba"/>
    <tag k="source" v="survey"/>
    <tag k="tourism" v="picnic_site"/>
  </node>
  <node id="392722903" version="8" timestamp="2009-08-31T17:38:52Z" uid="36809" user="pfoten_weg_!_" changeset="2328905" lat="48.0101574" lon="11.4704774">
    <tag k="access" v="unknown"/>
    <tag k="source" v="survey"/>
    <tag k="tourism" v="picnic_site"/>
  </node>
  <node id="392722903" version="9" timestamp="2009-10-02T17:30:58Z" uid="86259" user="hasse_osm_korinthenkacker" changeset="2715119" lat="48.0101574" lon="11.4704774">
    <tag k="access" v="unknown"/>
    <tag k="tourism" v="picnic_site"/>
  </node>
  <node id="392722904" version="1" timestamp="2009-05-09T15:48:08Z" uid="36809" user="pfoten_weg_!_" changeset="1128997" lat="48.011739" lon="11.47224">
    <tag k="created_by" v="RambaZamba"/>
    <tag k="name" v="Furte"/>
    <tag k="source" v="survey"/>
  </node>
  <node id="392722904" version="2" timestamp="2009-05-09T16:15:03Z" uid="36809" user="pfoten_weg_!_" changeset="1129316" lat="48.011691" lon="11.4722031">
    <tag k="access" v="permissive"/>
    <tag k="barrier" v="kissing_gate"/>
    <tag k="created_by" v="RambaZamba"/>
    <tag k="source" v="survey"/>
  </node>
  <node id="392722904" version="4" timestamp="2009-08-19T13:17:39Z" uid="36809" user="pfoten_weg_!_" changeset="2201154" lat="48.011691" lon="11.4722031">
    <tag k="access" v="permissive"/>
    <tag k="barrier" v="kissing_gate"/>
    <tag k="source" v="survey at RambaZamba"/>
  </node>
  <node id="392722904" version="6" timestamp="2009-08-28T21:27:28Z" uid="36809" user="pfoten_weg_!_" changeset="2295609" lat="48.011691" lon="11.4722031">
    <tag k="access" v="permissive"/>
    <tag k="barrier" v="kissing_gate"/>
    <tag k="discovered_by" v="RambaZamba"/>
    <tag k="source" v="survey"/>
  </node>
  <node id="392722904" version="8" timestamp="2009-08-31T17:38:52Z" uid="36809" user="pfoten_weg_!_" changeset="2328905" lat="48.011691" lon="11.4722031">
    <tag k="access" v="permissive"/>
    <tag k="barrier" v="kissing_gate"/>
    <tag k="source" v="survey"/>
  </node>
  <node id="392722904" version="9" timestamp="2009-10-02T17:31:21Z" uid="86259" user="hasse_osm_korinthenkacker" changeset="2715119" lat="48.011691" lon="11.4722031">
    <tag k="access" v="permissive"/>
    <tag k="barrier" v="kissing_gate"/>
  </node>
  <node id="392722905" version="1" timestamp="2009-05-09T15:48:08Z" uid="36809" user="pfoten_weg_!_" changeset="1128997" lat="48.018812" lon="11.480495">
    <tag k="addr:city" v="Baierbrunn"/>
    <tag k="addr:postcode" v="82065"/>
    <tag k="created_by" v="RambaZamba"/>
    <tag k="name" v="25"/>
    <tag k="source" v="survey"/>
  </node>
  <node id="392722905" version="2" timestamp="2009-05-09T15:51:43Z" uid="36809" user="pfoten_weg_!_" changeset="1129036" lat="48.0187761" lon="11.4805786">
    <tag k="addr:city" v="Baierbrunn"/>
    <tag k="addr:postcode" v="82065"/>
    <tag k="created_by" v="RambaZamba"/>
    <tag k="name" v="25"/>
    <tag k="source" v="survey"/>
  </node>
  <node id="392722905" version="4" timestamp="2009-08-19T13:17:38Z" uid="36809" user="pfoten_weg_!_" changeset="2201154" lat="48.0187761" lon="11.4805786">
    <tag k="addr:city" v="Baierbrunn"/>
    <tag k="addr:postcode" v="82065"/>
    <tag k="name" v="25"/>
    <tag k="source" v="survey at RambaZamba"/>
  </node>
  <node id="392722905" version="6" timestamp="2009-08-28T21:27:28Z" uid="36809" user="pfoten_weg_!_" changeset="2295609" lat="48.0187761" lon="11.4805786">
    <tag k="addr:city" v="Baierbrunn"/>
    <tag k="addr:postcode" v="82065"/>
    <tag k="discovered_by" v="RambaZamba"/>
    <tag k="name" v="25"/>
    <tag k="source" v="survey"/>
  </node>
  <node id="392722905" version="8" timestamp="2009-08-31T17:38:52Z" uid="36809" user="pfoten_weg_!_" changeset="2328905" lat="48.0187761" lon="11.4805786">
    <tag k="addr:city" v="Baierbrunn"/>
    <tag k="addr:postcode" v="82065"/>
    <tag k="name" v="25"/>
    <tag k="source" v="survey"/>
  </node>
  <node id="392722905" version="9" timestamp="2009-10-11T23:33:09Z" uid="36809" user="pfoten_weg_!_" changeset="2821194" lat="48.0187761" lon="11.4805786">
    <tag k="addr:city" v="Baierbrunn"/>
    <tag k="addr:postcode" v="82065"/>
    <tag k="name" v="25"/>
  </node>
  <node id="392722906" version="1" timestamp="2009-05-09T15:48:08Z" uid="36809" user="pfoten_weg_!_" changeset="1128997" lat="48.018919" lon="11.480563">
    <tag k="created_by" v="RambaZamba"/>
    <tag k="name" v="Spielstraße"/>
    <tag k="source" v="survey"/>
  </node>
  <node id="392722906" version="2" timestamp="2009-05-09T15:51:44Z" uid="36809" user="pfoten_weg_!_" changeset="1129036" lat="48.018919" lon="11.480563">
    <tag k="created_by" v="RambaZamba"/>
    <tag k="name" v="Spielstraße"/>
    <tag k="source" v="survey"/>
  </node>
  <node id="392722907" version="1" timestamp="2009-05-09T15:48:08Z" uid="36809" user="pfoten_weg_!_" changeset="1128997" lat="48.019551" lon="11.481782">
    <tag k="created_by" v="RambaZamba"/>
    <tag k="crossing" v="traffic_signals"/>
    <tag k="highway" v="traffic_signals"/>
    <tag k="name" v="Ampel"/>
    <tag k="source" v="survey"/>
  </node>
  <node id="392722907" version="3" timestamp="2009-08-19T13:17:34Z" uid="36809" user="pfoten_weg_!_" changeset="2201154" lat="48.019551" lon="11.481782">
    <tag k="crossing" v="traffic_signals"/>
    <tag k="highway" v="traffic_signals"/>
    <tag k="name" v="Ampel"/>
    <tag k="source" v="survey at RambaZamba"/>
  </node>
  <node id="392722907" version="5" timestamp="2009-08-28T21:27:28Z" uid="36809" user="pfoten_weg_!_" changeset="2295609" lat="48.019551" lon="11.481782">
    <tag k="crossing" v="traffic_signals"/>
    <tag k="discovered_by" v="RambaZamba"/>
    <tag k="highway" v="traffic_signals"/>
    <tag k="name" v="Ampel"/>
    <tag k="source" v="survey"/>
  </node>
  <node id="392722907" version="7" timestamp="2009-08-31T17:38:52Z" uid="36809" user="pfoten_weg_!_" changeset="2328905" lat="48.019551" lon="11.481782">
    <tag k="crossing" v="traffic_signals"/>
    <tag k="highway" v="traffic_signals"/>
    <tag k="name" v="Ampel"/>
    <tag k="source" v="survey"/>
  </node>
  <node id="392722907" version="8" timestamp="2009-10-11T23:33:15Z" uid="36809" user="pfoten_weg_!_" changeset="2821194" lat="48.019551" lon="11.481782">
    <tag k="crossing" v="traffic_signals"/>
    <tag k="highway" v="traffic_signals"/>
    <tag k="name" v="Ampel"/>
  </node>
  <node id="392722908" version="1" timestamp="2009-05-09T15:48:08Z" uid="36809" user="pfoten_weg_!_" changeset="1128997" lat="48.019483" lon="11.481462">
    <tag k="addr:city" v="Baierbrunn"/>
    <tag k="addr:housenumber" v="17B"/>
    <tag k="addr:postcode" v="82065"/>
    <tag k="created_by" v="RambaZamba"/>
    <tag k="name" v="17B"/>
    <tag k="source" v="survey"/>
  </node>
  <node id="392722908" version="2" timestamp="2009-05-09T15:51:43Z" uid="36809" user="pfoten_weg_!_" changeset="1129036" lat="48.0194595" lon="11.481469">
    <tag k="addr:city" v="Baierbrunn"/>
    <tag k="addr:housenumber" v="17B"/>
    <tag k="addr:postcode" v="82065"/>
    <tag k="created_by" v="RambaZamba"/>
    <tag k="name" v="17B"/>
    <tag k="source" v="survey"/>
  </node>
  <node id="392722908" version="4" timestamp="2009-08-19T13:17:29Z" uid="36809" user="pfoten_weg_!_" changeset="2201154" lat="48.0194595" lon="11.481469">
    <tag k="addr:city" v="Baierbrunn"/>
    <tag k="addr:housenumber" v="17B"/>
    <tag k="addr:postcode" v="82065"/>
    <tag k="name" v="17B"/>
    <tag k="source" v="survey at RambaZamba"/>
  </node>
  <node id="392722908" version="6" timestamp="2009-08-28T21:27:27Z" uid="36809" user="pfoten_weg_!_" changeset="2295609" lat="48.0194595" lon="11.481469">
    <tag k="addr:city" v="Baierbrunn"/>
    <tag k="addr:housenumber" v="17B"/>
    <tag k="addr:postcode" v="82065"/>
    <tag k="discovered_by" v="RambaZamba"/>
    <tag k="name" v="17B"/>
    <tag k="source" v="survey"/>
  </node>
  <node id="392722908" version="8" timestamp="2009-08-31T17:38:51Z" uid="36809" user="pfoten_weg_!_" changeset="2328905" lat="48.0194595" lon="11.481469">
    <tag k="addr:city" v="Baierbrunn"/>
    <tag k="addr:housenumber" v="17B"/>
    <tag k="addr:postcode" v="82065"/>
    <tag k="name" v="17B"/>
    <tag k="source" v="survey"/>
  </node>
  <node id="392722908" version="9" timestamp="2009-10-11T23:33:15Z" uid="36809" user="pfoten_weg_!_" changeset="2821194" lat="48.0194595" lon="11.481469">
    <tag k="addr:city" v="Baierbrunn"/>
    <tag k="addr:housenumber" v="17B"/>
    <tag k="addr:postcode" v="82065"/>
    <tag k="name" v="17B"/>
  </node>
  <node id="392722909" version="1" timestamp="2009-05-09T15:48:08Z" uid="36809" user="pfoten_weg_!_" changeset="1128997" lat="48.019219" lon="11.480682">
    <tag k="amenity" v="bicycle_parking"/>
    <tag k="capacity" v="40"/>
    <tag k="created_by" v="RambaZamba"/>
    <tag k="source" v="survey"/>
  </node>
  <node id="392722909" version="3" timestamp="2009-08-19T13:17:27Z" uid="36809" user="pfoten_weg_!_" changeset="2201154" lat="48.019219" lon="11.480682">
    <tag k="amenity" v="bicycle_parking"/>
    <tag k="capacity" v="40"/>
    <tag k="source" v="survey at RambaZamba"/>
  </node>
  <node id="392722909" version="5" timestamp="2009-08-28T21:27:27Z" uid="36809" user="pfoten_weg_!_" changeset="2295609" lat="48.019219" lon="11.480682">
    <tag k="amenity" v="bicycle_parking"/>
    <tag k="capacity" v="40"/>
    <tag k="discovered_by" v="RambaZamba"/>
    <tag k="source" v="survey"/>
  </node>
  <node id="392722909" version="7" timestamp="2009-08-31T17:38:51Z" uid="36809" user="pfoten_weg_!_" changeset="2328905" lat="48.019219" lon="11.480682">
    <tag k="amenity" v="bicycle_parking"/>
    <tag k="capacity" v="40"/>
    <tag k="source" v="survey"/>
  </node>
  <node id="392722909" version="8" timestamp="2009-10-11T23:33:11Z" uid="36809" user="pfoten_weg_!_" changeset="2821194" lat="48.019219" lon="11.480682">
    <tag k="amenity" v="bicycle_parking"/>
    <tag k="capacity" v="40"/>
  </node>
  <node id="392722910" version="1" timestamp="2009-05-09T15:48:08Z" uid="36809" user="pfoten_weg_!_" changeset="1128997" lat="48.019207" lon="11.480252">
    <tag k="created_by" v="RambaZamba"/>
    <tag k="name" v="Treppe"/>
    <tag k="source" v="survey"/>
  </node>
  <node id="392722910" version="2" timestamp="2009-05-09T15:51:44Z" uid="36809" user="pfoten_weg_!_" changeset="1129036" lat="48.019207" lon="11.480252">
    <tag k="created_by" v="RambaZamba"/>
    <tag k="name" v="Treppe"/>
    <tag k="source" v="survey"/>
  </node>
  <node id="392722911" version="1" timestamp="2009-05-09T15:48:08Z" uid="36809" user="pfoten_weg_!_" changeset="1128997" lat="48.019149" lon="11.479766">
    <tag k="created_by" v="RambaZamba"/>
    <tag k="crossing" v="traffic_signals"/>
    <tag k="highway" v="traffic_signals"/>
    <tag k="name" v="Ampel"/>
    <tag k="source" v="survey"/>
  </node>
  <node id="392722911" version="3" timestamp="2009-08-19T13:17:25Z" uid="36809" user="pfoten_weg_!_" changeset="2201154" lat="48.019149" lon="11.479766">
    <tag k="crossing" v="traffic_signals"/>
    <tag k="highway" v="traffic_signals"/>
    <tag k="name" v="Ampel"/>
    <tag k="source" v="survey at RambaZamba"/>
  </node>
  <node id="392722911" version="5" timestamp="2009-08-28T21:27:26Z" uid="36809" user="pfoten_weg_!_" changeset="2295609" lat="48.019149" lon="11.479766">
    <tag k="crossing" v="traffic_signals"/>
    <tag k="discovered_by" v="RambaZamba"/>
    <tag k="highway" v="traffic_signals"/>
    <tag k="name" v="Ampel"/>
    <tag k="source" v="survey"/>
  </node>
  <node id="392722911" version="7" timestamp="2009-08-31T17:38:51Z" uid="36809" user="pfoten_weg_!_" changeset="2328905" lat="48.019149" lon="11.479766">
    <tag k="crossing" v="traffic_signals"/>
    <tag k="highway" v="traffic_signals"/>
    <tag k="name" v="Ampel"/>
    <tag k="source" v="survey"/>
  </node>
  <node id="392722911" version="8" timestamp="2009-10-11T23:33:08Z" uid="36809" user="pfoten_weg_!_" changeset="2821194" lat="48.019149" lon="11.479766">
    <tag k="crossing" v="traffic_signals"/>
    <tag k="highway" v="traffic_signals"/>
    <tag k="name" v="Ampel"/>
  </node>
  <node id="392722912" version="1" timestamp="2009-05-09T15:48:08Z" uid="36809" user="pfoten_weg_!_" changeset="1128997" lat="48.019058" lon="11.479458">
    <tag k="addr:city" v="Baierbrunn"/>
    <tag k="addr:housenumber" v="19"/>
    <tag k="addr:postcode" v="82065"/>
    <tag k="created_by" v="RambaZamba"/>
    <tag k="name" v="19"/>
    <tag k="source" v="survey"/>
  </node>
  <node id="392722912" version="2" timestamp="2009-05-09T16:05:48Z" uid="36809" user="pfoten_weg_!_" changeset="1129220" lat="48.0190306" lon="11.4794692">
    <tag k="addr:city" v="Baierbrunn"/>
    <tag k="addr:housenumber" v="19"/>
    <tag k="addr:postcode" v="82065"/>
    <tag k="created_by" v="RambaZamba"/>
    <tag k="name" v="19"/>
    <tag k="source" v="survey"/>
  </node>
  <node id="392722912" version="4" timestamp="2009-08-19T13:18:00Z" uid="36809" user="pfoten_weg_!_" changeset="2201154" lat="48.0190306" lon="11.4794692">
    <tag k="addr:city" v="Baierbrunn"/>
    <tag k="addr:housenumber" v="19"/>
    <tag k="addr:postcode" v="82065"/>
    <tag k="name" v="19"/>
    <tag k="source" v="survey at RambaZamba"/>
  </node>
  <node id="392722912" version="6" timestamp="2009-08-28T21:27:31Z" uid="36809" user="pfoten_weg_!_" changeset="2295609" lat="48.0190306" lon="11.4794692">
    <tag k="addr:city" v="Baierbrunn"/>
    <tag k="addr:housenumber" v="19"/>
    <tag k="addr:postcode" v="82065"/>
    <tag k="discovered_by" v="RambaZamba"/>
    <tag k="name" v="19"/>
    <tag k="source" v="survey"/>
  </node>
  <node id="392722912" version="8" timestamp="2009-08-31T17:38:53Z" uid="36809" user="pfoten_weg_!_" changeset="2328905" lat="48.0190306" lon="11.4794692">
    <tag k="addr:city" v="Baierbrunn"/>
    <tag k="addr:housenumber" v="19"/>
    <tag k="addr:postcode" v="82065"/>
    <tag k="name" v="19"/>
    <tag k="source" v="survey"/>
  </node>
  <node id="392722912" version="9" timestamp="2009-10-11T23:33:09Z" uid="36809" user="pfoten_weg_!_" changeset="2821194" lat="48.0190306" lon="11.4794692">
    <tag k="addr:city" v="Baierbrunn"/>
    <tag k="addr:housenumber" v="19"/>
    <tag k="addr:postcode" v="82065"/>
    <tag k="name" v="19"/>
  </node>
  <node id="392722913" version="1" timestamp="2009-05-09T15:48:09Z" uid="36809" user="pfoten_weg_!_" changeset="1128997" lat="48.018988" lon="11.479192">
    <tag k="addr:city" v="Baierbrunn"/>
    <tag k="addr:housenumber" v="21"/>
    <tag k="addr:postcode" v="82065"/>
    <tag k="created_by" v="RambaZamba"/>
    <tag k="name" v="21"/>
    <tag k="source" v="survey"/>
  </node>
  <node id="392722913" version="2" timestamp="2009-05-09T16:05:48Z" uid="36809" user="pfoten_weg_!_" changeset="1129220" lat="48.0189108" lon="11.4792131">
    <tag k="addr:city" v="Baierbrunn"/>
    <tag k="addr:housenumber" v="21"/>
    <tag k="addr:postcode" v="82065"/>
    <tag k="created_by" v="RambaZamba"/>
    <tag k="name" v="21"/>
    <tag k="source" v="survey"/>
  </node>
  <node id="392722913" version="4" timestamp="2009-08-19T13:18:02Z" uid="36809" user="pfoten_weg_!_" changeset="2201154" lat="48.0189108" lon="11.4792131">
    <tag k="addr:city" v="Baierbrunn"/>
    <tag k="addr:housenumber" v="21"/>
    <tag k="addr:postcode" v="82065"/>
    <tag k="name" v="21"/>
    <tag k="source" v="survey at RambaZamba"/>
  </node>
  <node id="392722913" version="6" timestamp="2009-08-28T21:27:31Z" uid="36809" user="pfoten_weg_!_" changeset="2295609" lat="48.0189108" lon="11.4792131">
    <tag k="addr:city" v="Baierbrunn"/>
    <tag k="addr:housenumber" v="21"/>
    <tag k="addr:postcode" v="82065"/>
    <tag k="discovered_by" v="RambaZamba"/>
    <tag k="name" v="21"/>
    <tag k="source" v="survey"/>
  </node>
  <node id="392722913" version="8" timestamp="2009-08-31T17:38:53Z" uid="36809" user="pfoten_weg_!_" changeset="2328905" lat="48.0189108" lon="11.4792131">
    <tag k="addr:city" v="Baierbrunn"/>
    <tag k="addr:housenumber" v="21"/>
    <tag k="addr:postcode" v="82065"/>
    <tag k="name" v="21"/>
    <tag k="source" v="survey"/>
  </node>
  <node id="392722913" version="9" timestamp="2009-10-11T23:33:08Z" uid="36809" user="pfoten_weg_!_" changeset="2821194" lat="48.0189108" lon="11.4792131">
    <tag k="addr:city" v="Baierbrunn"/>
    <tag k="addr:housenumber" v="21"/>
    <tag k="addr:postcode" v="82065"/>
    <tag k="name" v="21"/>
  </node>
  <node id="392722914" version="1" timestamp="2009-05-09T15:48:09Z" uid="36809" user="pfoten_weg_!_" changeset="1128997" lat="48.019238" lon="11.47986">
    <tag k="created_by" v="RambaZamba"/>
    <tag k="name" v="Brucke 2m Breit, 2.2 Hoh"/>
    <tag k="source" v="survey"/>
  </node>
  <node id="392722914" version="2" timestamp="2009-05-09T15:57:17Z" uid="36809" user="pfoten_weg_!_" changeset="1129113" lat="48.019238" lon="11.47986">
    <tag k="created_by" v="RambaZamba"/>
    <tag k="name" v="Brucke 2m Breit, 2.2 Hoh"/>
    <tag k="source" v="survey"/>
  </node>
  <node id="392722915" version="1" timestamp="2009-05-09T15:48:09Z" uid="36809" user="pfoten_weg_!_" changeset="1128997" lat="48.0190685" lon="11.4805041">
    <tag k="created_by" v="RambaZamba"/>
    <tag k="man_made" v="tower"/>
    <tag k="name" v="Funkmast"/>
    <tag k="source" v="survey"/>
  </node>
  <node id="392722915" version="2" timestamp="2009-05-09T15:51:43Z" uid="36809" user="pfoten_weg_!_" changeset="1129036" lat="48.0190538" lon="11.4805162">
    <tag k="created_by" v="RambaZamba"/>
    <tag k="man_made" v="tower"/>
    <tag k="name" v="Funkmast"/>
    <tag k="source" v="survey"/>
  </node>
  <node id="392722915" version="4" timestamp="2009-08-19T13:18:07Z" uid="36809" user="pfoten_weg_!_" changeset="2201154" lat="48.0190538" lon="11.4805162">
    <tag k="man_made" v="tower"/>
    <tag k="name" v="Funkmast"/>
    <tag k="source" v="survey at RambaZamba"/>
  </node>
  <node id="392722915" version="6" timestamp="2009-08-28T21:27:32Z" uid="36809" user="pfoten_weg_!_" changeset="2295609" lat="48.0190538" lon="11.4805162">
    <tag k="discovered_by" v="RambaZamba"/>
    <tag k="man_made" v="tower"/>
    <tag k="name" v="Funkmast"/>
    <tag k="source" v="survey"/>
  </node>
  <node id="392722915" version="8" timestamp="2009-08-31T17:38:53Z" uid="36809" user="pfoten_weg_!_" changeset="2328905" lat="48.0190538" lon="11.4805162">
    <tag k="man_made" v="tower"/>
    <tag k="name" v="Funkmast"/>
    <tag k="source" v="survey"/>
  </node>
  <node id="392722915" version="9" timestamp="2009-10-11T23:33:10Z" uid="36809" user="pfoten_weg_!_" changeset="2821194" lat="48.0190538" lon="11.4805162">
    <tag k="man_made" v="tower"/>
    <tag k="name" v="Funkmast"/>
  </node>
  <node id="392722916" version="1" timestamp="2009-05-09T15:48:09Z" uid="36809" user="pfoten_weg_!_" changeset="1128997" lat="48.018707" lon="11.480421">
    <tag k="addr:city" v="Baierbrunn"/>
    <tag k="addr:housenumber" v="1"/>
    <tag k="addr:postcode" v="82065"/>
    <tag k="addr:street" v="Wirthsfeld"/>
    <tag k="created_by" v="RambaZamba"/>
    <tag k="name" v="1 Wirthsfeld"/>
    <tag k="source" v="survey"/>
  </node>
  <node id="392722916" version="3" timestamp="2009-08-19T13:17:55Z" uid="36809" user="pfoten_weg_!_" changeset="2201154" lat="48.018707" lon="11.480421">
    <tag k="addr:city" v="Baierbrunn"/>
    <tag k="addr:housenumber" v="1"/>
    <tag k="addr:postcode" v="82065"/>
    <tag k="addr:street" v="Wirthsfeld"/>
    <tag k="name" v="1 Wirthsfeld"/>
    <tag k="source" v="survey at RambaZamba"/>
  </node>
  <node id="392722916" version="5" timestamp="2009-08-28T21:27:30Z" uid="36809" user="pfoten_weg_!_" changeset="2295609" lat="48.018707" lon="11.480421">
    <tag k="addr:city" v="Baierbrunn"/>
    <tag k="addr:housenumber" v="1"/>
    <tag k="addr:postcode" v="82065"/>
    <tag k="addr:street" v="Wirthsfeld"/>
    <tag k="discovered_by" v="RambaZamba"/>
    <tag k="name" v="1 Wirthsfeld"/>
    <tag k="source" v="survey"/>
  </node>
  <node id="392722916" version="7" timestamp="2009-08-31T17:38:53Z" uid="36809" user="pfoten_weg_!_" changeset="2328905" lat="48.018707" lon="11.480421">
    <tag k="addr:city" v="Baierbrunn"/>
    <tag k="addr:housenumber" v="1"/>
    <tag k="addr:postcode" v="82065"/>
    <tag k="addr:street" v="Wirthsfeld"/>
    <tag k="name" v="1 Wirthsfeld"/>
    <tag k="source" v="survey"/>
  </node>
  <node id="392722916" version="8" timestamp="2009-10-11T23:33:09Z" uid="36809" user="pfoten_weg_!_" changeset="2821194" lat="48.018707" lon="11.480421">
    <tag k="addr:city" v="Baierbrunn"/>
    <tag k="addr:housenumber" v="1"/>
    <tag k="addr:postcode" v="82065"/>
    <tag k="addr:street" v="Wirthsfeld"/>
    <tag k="name" v="1 Wirthsfeld"/>
  </node>
  <node id="392722917" version="1" timestamp="2009-05-09T15:48:09Z" uid="36809" user="pfoten_weg_!_" changeset="1128997" lat="48.018545" lon="11.480253">
    <tag k="amenity" v="recycling"/>
    <tag k="created_by" v="RambaZamba"/>
    <tag k="name" v="Recycling"/>
    <tag k="source" v="survey"/>
  </node>
  <node id="392722917" version="3" timestamp="2009-08-19T13:17:57Z" uid="36809" user="pfoten_weg_!_" changeset="2201154" lat="48.018545" lon="11.480253">
    <tag k="amenity" v="recycling"/>
    <tag k="name" v="Recycling"/>
    <tag k="source" v="survey at RambaZamba"/>
  </node>
  <node id="392722917" version="5" timestamp="2009-08-28T21:27:31Z" uid="36809" user="pfoten_weg_!_" changeset="2295609" lat="48.018545" lon="11.480253">
    <tag k="amenity" v="recycling"/>
    <tag k="discovered_by" v="RambaZamba"/>
    <tag k="name" v="Recycling"/>
    <tag k="source" v="survey"/>
  </node>
  <node id="392722917" version="7" timestamp="2009-08-31T17:38:53Z" uid="36809" user="pfoten_weg_!_" changeset="2328905" lat="48.018545" lon="11.480253">
    <tag k="amenity" v="recycling"/>
    <tag k="name" v="Recycling"/>
    <tag k="source" v="survey"/>
  </node>
  <node id="392722917" version="8" timestamp="2009-10-11T23:33:10Z" uid="36809" user="pfoten_weg_!_" changeset="2821194" lat="48.018545" lon="11.480253">
    <tag k="amenity" v="recycling"/>
    <tag k="name" v="Recycling"/>
  </node>
  <node id="392722918" version="1" timestamp="2009-05-09T15:48:09Z" uid="36809" user="pfoten_weg_!_" changeset="1128997" lat="48.0194839" lon="11.4808703"/>
  <node id="392722918" version="2" timestamp="2009-07-09T18:26:35Z" uid="36809" user="pfoten_weg_!_" changeset="1783173" lat="48.0195081" lon="11.4809052"/>
  <node id="392723636" version="2" timestamp="2010-11-26T20:04:05Z" uid="49111" user="Markus B" changeset="6464772" lat="49.3866863" lon="11.0663121"/>
  <node id="392723637" version="2" timestamp="2010-11-26T20:04:05Z" uid="49111" user="Markus B" changeset="6464772" lat="49.3881138" lon="11.0712182"/>
  <node id="392723940" version="2" timestamp="2010-11-19T17:24:47Z" uid="8619" user="cetest" changeset="6408671" lat="51.8880329" lon="4.6377051"/>
  <node id="392723960" version="2" timestamp="2010-08-24T18:25:06Z" uid="8619" user="cetest" changeset="5582447" lat="51.8893017" lon="4.6359643">
    <tag k="tourism" v="information"/>
  </node>
  <node id="392724705" version="1" timestamp="2009-05-09T15:51:43Z" uid="36809" user="pfoten_weg_!_" changeset="1129036" lat="48.0194357" lon="11.4810393">
    <tag k="created_by" v="RambaZamba"/>
    <tag k="source" v="survey"/>
  </node>
  <node id="392724705" version="3" timestamp="2009-08-19T14:03:48Z" uid="36809" user="pfoten_weg_!_" changeset="2201154" lat="48.0194357" lon="11.4810393">
    <tag k="source" v="survey at RambaZamba"/>
  </node>
  <node id="392724705" version="5" timestamp="2009-08-31T17:42:10Z" uid="36809" user="pfoten_weg_!_" changeset="2328905" lat="48.0194357" lon="11.4810393"/>
  <node id="392724706" version="1" timestamp="2009-05-09T15:51:43Z" uid="36809" user="pfoten_weg_!_" changeset="1129036" lat="48.0194601" lon="11.4812019">
    <tag k="created_by" v="RambaZamba"/>
    <tag k="source" v="survey"/>
  </node>
  <node id="392724706" version="3" timestamp="2009-08-19T14:03:49Z" uid="36809" user="pfoten_weg_!_" changeset="2201154" lat="48.0194601" lon="11.4812019">
    <tag k="source" v="survey at RambaZamba"/>
  </node>
  <node id="392724706" version="5" timestamp="2009-08-31T17:42:10Z" uid="36809" user="pfoten_weg_!_" changeset="2328905" lat="48.0194601" lon="11.4812019"/>
  <node id="392724707" version="1" timestamp="2009-05-09T15:51:43Z" uid="36809" user="pfoten_weg_!_" changeset="1129036" lat="48.0194194" lon="11.4809892">
    <tag k="created_by" v="RambaZamba"/>
    <tag k="source" v="survey"/>
  </node>
  <node id="392724707" version="3" timestamp="2009-08-19T14:03:48Z" uid="36809" user="pfoten_weg_!_" changeset="2201154" lat="48.0194194" lon="11.4809892">
    <tag k="source" v="survey at RambaZamba"/>
  </node>
  <node id="392724707" version="5" timestamp="2009-08-31T17:42:10Z" uid="36809" user="pfoten_weg_!_" changeset="2328905" lat="48.0194194" lon="11.4809892"/>
  <node id="392724708" version="1" timestamp="2009-05-09T15:51:43Z" uid="36809" user="pfoten_weg_!_" changeset="1129036" lat="48.0194772" lon="11.4813559">
    <tag k="created_by" v="RambaZamba"/>
    <tag k="source" v="survey"/>
  </node>
  <node id="392724708" version="3" timestamp="2009-08-19T14:03:50Z" uid="36809" user="pfoten_weg_!_" changeset="2201154" lat="48.0194772" lon="11.4813559">
    <tag k="source" v="survey at RambaZamba"/>
  </node>
  <node id="392724708" version="5" timestamp="2009-08-31T17:42:11Z" uid="36809" user="pfoten_weg_!_" changeset="2328905" lat="48.0194772" lon="11.4813559"/>
  <node id="392724709" version="1" timestamp="2009-05-09T15:51:43Z" uid="36809" user="pfoten_weg_!_" changeset="1129036" lat="48.0193833" lon="11.4808962">
    <tag k="created_by" v="RambaZamba"/>
    <tag k="source" v="survey"/>
  </node>
  <node id="392724709" version="3" timestamp="2009-08-19T14:03:50Z" uid="36809" user="pfoten_weg_!_" changeset="2201154" lat="48.0193833" lon="11.4808962">
    <tag k="source" v="survey at RambaZamba"/>
  </node>
  <node id="392724709" version="5" timestamp="2009-08-31T17:42:11Z" uid="36809" user="pfoten_weg_!_" changeset="2328905" lat="48.0193833" lon="11.4808962"/>
  <node id="392727762" version="1" timestamp="2009-05-09T15:57:15Z" uid="36809" user="pfoten_weg_!_" changeset="1129113" lat="48.0172402" lon="11.4801221">
    <tag k="created_by" v="RambaZamba"/>
    <tag k="source" v="survey"/>
  </node>
  <node id="392727762" version="3" timestamp="2009-08-19T13:56:35Z" uid="36809" user="pfoten_weg_!_" changeset="2201154" lat="48.0172402" lon="11.4801221">
    <tag k="source" v="survey at RambaZamba"/>
  </node>
  <node id="392727762" version="5" timestamp="2009-08-31T17:41:42Z" uid="36809" user="pfoten_weg_!_" changeset="2328905" lat="48.0172402" lon="11.4801221"/>
  <node id="392727766" version="1" timestamp="2009-05-09T15:57:15Z" uid="36809" user="pfoten_weg_!_" changeset="1129113" lat="48.0174717" lon="11.4795056">
    <tag k="created_by" v="RambaZamba"/>
    <tag k="source" v="survey"/>
  </node>
  <node id="392727766" version="3" timestamp="2009-08-19T13:56:36Z" uid="36809" user="pfoten_weg_!_" changeset="2201154" lat="48.0174717" lon="11.4795056">
    <tag k="source" v="survey at RambaZamba"/>
  </node>
  <node id="392727766" version="5" timestamp="2009-08-31T17:41:42Z" uid="36809" user="pfoten_weg_!_" changeset="2328905" lat="48.0174717" lon="11.4795056"/>
  <node id="392727768" version="1" timestamp="2009-05-09T15:57:15Z" uid="36809" user="pfoten_weg_!_" changeset="1129113" lat="48.0170678" lon="11.479719"/>
  <node id="392727770" version="1" timestamp="2009-05-09T15:57:15Z" uid="36809" user="pfoten_weg_!_" changeset="1129113" lat="48.0172083" lon="11.4798365">
    <tag k="barrier" v="gate"/>
    <tag k="bicycle" v="no"/>
    <tag k="created_by" v="RambaZamba"/>
    <tag k="foot" v="no"/>
    <tag k="source" v="survey"/>
  </node>
  <node id="392727770" version="2" timestamp="2009-07-18T11:14:29Z" uid="36809" user="pfoten_weg_!_" changeset="1862569" lat="48.0172083" lon="11.4798365">
    <tag k="barrier" v="gate"/>
    <tag k="bicycle" v="no"/>
    <tag k="discovered_by" v="RambaZamba"/>
    <tag k="foot" v="no"/>
    <tag k="source" v="survey"/>
  </node>
  <node id="392727770" version="4" timestamp="2009-08-19T13:56:34Z" uid="36809" user="pfoten_weg_!_" changeset="2201154" lat="48.0172083" lon="11.4798365">
    <tag k="barrier" v="gate"/>
    <tag k="bicycle" v="no"/>
    <tag k="foot" v="no"/>
    <tag k="source" v="survey at RambaZamba"/>
  </node>
  <node id="392727770" version="6" timestamp="2009-08-28T21:27:40Z" uid="36809" user="pfoten_weg_!_" changeset="2295609" lat="48.0172083" lon="11.4798365">
    <tag k="barrier" v="gate"/>
    <tag k="bicycle" v="no"/>
    <tag k="discovered_by" v="RambaZamba"/>
    <tag k="foot" v="no"/>
    <tag k="source" v="survey"/>
  </node>
  <node id="392727770" version="8" timestamp="2009-08-31T17:41:42Z" uid="36809" user="pfoten_weg_!_" changeset="2328905" lat="48.0172083" lon="11.4798365">
    <tag k="barrier" v="gate"/>
    <tag k="bicycle" v="no"/>
    <tag k="foot" v="no"/>
    <tag k="source" v="survey"/>
  </node>
  <node id="392727770" version="9" timestamp="2009-10-11T23:33:06Z" uid="36809" user="pfoten_weg_!_" changeset="2821194" lat="48.0172083" lon="11.4798365">
    <tag k="barrier" v="gate"/>
    <tag k="bicycle" v="no"/>
    <tag k="foot" v="no"/>
  </node>
  <node id="392727773" version="1" timestamp="2009-05-09T15:57:15Z" uid="36809" user="pfoten_weg_!_" changeset="1129113" lat="48.0197765" lon="11.4846086"/>
</osm>
