<?xml version='1.0' encoding='UTF-8'?>
<osm version="0.6" generator="libosmium/2.20.0">
  <node id="393200011" version="1" timestamp="2009-05-10T14:03:33Z" uid="26515" user="Simon Ward" changeset="1139709" lat="54.9221302" lon="-1.3716634">
    <tag k="addr:street" v="Bede Street"/>
    <tag k="amenity" v="telephone"/>
    <tag k="phone" v="0191 567 1747"/>
    <tag k="source" v="survey"/>
  </node>
  <node id="393200011" version="2" timestamp="2009-05-10T14:06:29Z" uid="26515" user="Simon Ward" changeset="1139745" lat="54.9221302" lon="-1.3717059">
    <tag k="addr:street" v="Bede Street"/>
    <tag k="amenity" v="telephone"/>
    <tag k="phone" v="0191 567 1747"/>
    <tag k="source" v="survey"/>
  </node>
  <node id="393201308" version="1" timestamp="2009-05-10T14:06:29Z" uid="26515" user="Simon Ward" changeset="1139745" lat="54.922112" lon="-1.3716048">
    <tag k="name" v="Booze Buster"/>
    <tag k="shop" v="alcohol"/>
    <tag k="source" v="survey"/>
  </node>
  <node id="393201647" version="1" timestamp="2009-05-10T14:07:17Z" uid="26515" user="Simon Ward" changeset="1139752" lat="54.9220363" lon="-1.3714435">
    <tag k="name" v="Ellaze"/>
    <tag k="shop" v="hairdresser"/>
    <tag k="source" v="survey"/>
  </node>
  <node id="393202107" version="1" timestamp="2009-05-10T14:08:18Z" uid="26515" user="Simon Ward" changeset="1139764" lat="54.921969" lon="-1.3712689">
    <tag k="amenity" v="fast_food"/>
    <tag k="name" v="Gills Fry Fry"/>
    <tag k="source" v="survey"/>
  </node>
  <node id="393204522" version="1" timestamp="2009-05-10T14:10:55Z" uid="26515" user="Simon Ward" changeset="1139800" lat="54.9230157" lon="-1.3679647">
    <tag k="name" v="April Guest House"/>
    <tag k="source" v="survey"/>
    <tag k="tourism" v="guest_house"/>
  </node>
  <node id="393204815" version="1" timestamp="2009-05-10T14:11:56Z" uid="26515" user="Simon Ward" changeset="1139815" lat="54.9223346" lon="-1.3711653">
    <tag k="highway" v="bus_stop"/>
    <tag k="services" v="19"/>
    <tag k="source" v="survey"/>
    <tag k="zone" v="57"/>
  </node>
  <node id="393207407" version="1" timestamp="2009-05-10T14:16:05Z" uid="26515" user="Simon Ward" changeset="1139868" lat="54.9212741" lon="-1.3730877">
    <tag k="name" v="Roker Park Newsagent &amp; Confectioner"/>
    <tag k="note" v="unsure of exact location"/>
    <tag k="shop" v="convenience"/>
    <tag k="source" v="survey"/>
  </node>
  <node id="393208531" version="1" timestamp="2009-05-10T14:17:33Z" uid="26515" user="Simon Ward" changeset="1139896" lat="54.9222269" lon="-1.3750932"/>
  <node id="393208538" version="1" timestamp="2009-05-10T14:17:58Z" uid="26515" user="Simon Ward" changeset="1139901" lat="54.9221046" lon="-1.3753011"/>
  <node id="393209084" version="1" timestamp="2009-05-10T14:19:22Z" uid="26515" user="Simon Ward" changeset="1139918" lat="54.921556" lon="-1.3771229"/>
  <node id="393209085" version="1" timestamp="2009-05-10T14:19:22Z" uid="26515" user="Simon Ward" changeset="1139918" lat="54.9215949" lon="-1.3767361"/>
  <node id="393209086" version="1" timestamp="2009-05-10T14:19:22Z" uid="26515" user="Simon Ward" changeset="1139918" lat="54.9215226" lon="-1.3763735"/>
  <node id="393209805" version="1" timestamp="2009-05-10T14:20:42Z" uid="26515" user="Simon Ward" changeset="1139938" lat="54.92039" lon="-1.3769563"/>
  <node id="393209805" version="2" timestamp="2009-05-10T14:22:30Z" uid="26515" user="Simon Ward" changeset="1139963" lat="54.9203447" lon="-1.3769488"/>
  <node id="393209806" version="1" timestamp="2009-05-10T14:20:42Z" uid="26515" user="Simon Ward" changeset="1139938" lat="54.9206728" lon="-1.3758529"/>
  <node id="393209806" version="2" timestamp="2009-05-10T14:22:30Z" uid="26515" user="Simon Ward" changeset="1139963" lat="54.9206545" lon="-1.3758"/>
</osm>
