<?xml version='1.0' encoding='UTF-8'?>
<osm version="0.6" generator="libosmium/2.20.0">
  <node id="39392569" version="7" timestamp="2009-05-01T14:20:53Z" uid="20587" user="balrog-kun" changeset="1037166" lat="49.560257" lon="22.2062701">
    <tag k="addr:postcode" v="38-500"/>
    <tag k="created_by" v="Potlatch 0.10b"/>
    <tag k="is_in" v="powiat sanocki, województwo podkarpackie, Poland"/>
    <tag k="is_in:country" v="Poland"/>
    <tag k="is_in:county" v="powiat sanocki"/>
    <tag k="is_in:municipality" v="gmina Sanok"/>
    <tag k="is_in:province" v="województwo podkarpackie"/>
    <tag k="name" v="Sanok"/>
    <tag k="place" v="town"/>
    <tag k="population" v="39110"/>
    <tag k="source:population" v="wikipedia"/>
    <tag k="teryt:rm" v="96"/>
    <tag k="teryt:simc" v="0953510"/>
    <tag k="teryt:stan_na" v="2009-01-01"/>
    <tag k="teryt:terc" v="1817011"/>
    <tag k="teryt:updated_by" v="teryt2osm combine.py v. 36M"/>
    <tag k="wikipedia" v="Sanok"/>
  </node>
  <node id="39392569" version="12" timestamp="2010-04-11T04:37:31Z" uid="20587" user="balrog-kun" changeset="4389130" lat="49.558367" lon="22.2060976">
    <tag k="addr:postcode" v="38-500"/>
    <tag k="is_in" v="powiat sanocki, województwo podkarpackie, Poland"/>
    <tag k="is_in:country" v="Poland"/>
    <tag k="is_in:county" v="powiat sanocki"/>
    <tag k="is_in:municipality" v="gmina Sanok"/>
    <tag k="is_in:province" v="województwo podkarpackie"/>
    <tag k="name" v="Sanok"/>
    <tag k="place" v="town"/>
    <tag k="population" v="39110"/>
    <tag k="source:population" v="wikipedia"/>
    <tag k="teryt:rm" v="96"/>
    <tag k="teryt:simc" v="0953510"/>
    <tag k="teryt:stan_na" v="2009-01-01"/>
    <tag k="teryt:terc" v="1817011"/>
    <tag k="teryt:updated_by" v="teryt2osm combine.py v. 49"/>
    <tag k="wikipedia" v="Sanok"/>
  </node>
  <node id="39393534" version="5" timestamp="2010-04-11T04:37:31Z" uid="20587" user="balrog-kun" changeset="4389130" lat="49.4734138" lon="22.3274146">
    <tag k="is_in" v="Poland"/>
    <tag k="name" v="Lesko"/>
    <tag k="place" v="town"/>
    <tag k="postal_code" v="38-600"/>
  </node>
  <node id="39393534" version="6" timestamp="2010-04-27T04:20:19Z" uid="30632" user="antblant" changeset="4537912" lat="49.4734138" lon="22.3274146">
    <tag k="is_in" v="Poland"/>
    <tag k="name" v="Lesko"/>
    <tag k="place" v="town"/>
    <tag k="postal_code" v="38-600"/>
    <tag k="teryt:simc" v="0953409"/>
  </node>
  <node id="39394158" version="5" timestamp="2009-05-01T14:22:27Z" uid="20587" user="balrog-kun" changeset="1037166" lat="49.3718247" lon="22.4320008">
    <tag k="addr:postcode" v="38-610"/>
    <tag k="created_by" v="Potlatch alpha"/>
    <tag k="is_in" v="gmina Solina, powiat leski, województwo podkarpackie, Poland"/>
    <tag k="is_in:country" v="Poland"/>
    <tag k="is_in:county" v="powiat leski"/>
    <tag k="is_in:municipality" v="gmina Solina"/>
    <tag k="is_in:province" v="województwo podkarpackie"/>
    <tag k="name" v="Polańczyk"/>
    <tag k="place" v="village"/>
    <tag k="population" v="830"/>
    <tag k="source:population" v="wikipedia"/>
    <tag k="teryt:rm" v="01"/>
    <tag k="teryt:simc" v="0360603"/>
    <tag k="teryt:stan_na" v="2009-01-01"/>
    <tag k="teryt:terc" v="1821052"/>
    <tag k="teryt:updated_by" v="teryt2osm combine.py v. 43"/>
    <tag k="wikipedia" v="Polańczyk"/>
  </node>
  <node id="39394158" version="6" timestamp="2010-04-11T04:37:31Z" uid="20587" user="balrog-kun" changeset="4389130" lat="49.3713403" lon="22.4282686">
    <tag k="addr:postcode" v="38-610"/>
    <tag k="is_in" v="gmina Solina, powiat leski, województwo podkarpackie, Poland"/>
    <tag k="is_in:country" v="Poland"/>
    <tag k="is_in:county" v="powiat leski"/>
    <tag k="is_in:municipality" v="gmina Solina"/>
    <tag k="is_in:province" v="województwo podkarpackie"/>
    <tag k="name" v="Polańczyk"/>
    <tag k="place" v="village"/>
    <tag k="population" v="830"/>
    <tag k="source:population" v="wikipedia"/>
    <tag k="teryt:rm" v="01"/>
    <tag k="teryt:simc" v="0360603"/>
    <tag k="teryt:stan_na" v="2009-01-01"/>
    <tag k="teryt:terc" v="1821052"/>
    <tag k="teryt:updated_by" v="teryt2osm combine.py v. 43"/>
    <tag k="wikipedia" v="Polańczyk"/>
  </node>
  <node id="39394587" version="5" timestamp="2009-05-01T14:22:03Z" uid="20587" user="balrog-kun" changeset="1037166" lat="49.3964095" lon="22.4527718">
    <tag k="addr:postcode" v="38-612"/>
    <tag k="created_by" v="Potlatch alpha"/>
    <tag k="is_in" v="gmina Solina, powiat leski, województwo podkarpackie, Poland"/>
    <tag k="is_in:country" v="Poland"/>
    <tag k="is_in:county" v="powiat leski"/>
    <tag k="is_in:municipality" v="gmina Solina"/>
    <tag k="is_in:province" v="województwo podkarpackie"/>
    <tag k="name" v="Solina"/>
    <tag k="place" v="village"/>
    <tag k="population" v="190"/>
    <tag k="source:population" v="wikipedia"/>
    <tag k="teryt:rm" v="01"/>
    <tag k="teryt:simc" v="0360649"/>
    <tag k="teryt:stan_na" v="2009-01-01"/>
    <tag k="teryt:terc" v="1821052"/>
    <tag k="teryt:updated_by" v="teryt2osm combine.py v. 43"/>
    <tag k="wikipedia" v="Solina, Poland"/>
  </node>
  <node id="39394587" version="6" timestamp="2010-04-11T04:37:31Z" uid="20587" user="balrog-kun" changeset="4389130" lat="49.3976817" lon="22.4527563">
    <tag k="addr:postcode" v="38-612"/>
    <tag k="is_in" v="gmina Solina, powiat leski, województwo podkarpackie, Poland"/>
    <tag k="is_in:country" v="Poland"/>
    <tag k="is_in:county" v="powiat leski"/>
    <tag k="is_in:municipality" v="gmina Solina"/>
    <tag k="is_in:province" v="województwo podkarpackie"/>
    <tag k="name" v="Solina"/>
    <tag k="place" v="village"/>
    <tag k="population" v="190"/>
    <tag k="source:population" v="wikipedia"/>
    <tag k="teryt:rm" v="01"/>
    <tag k="teryt:simc" v="0360649"/>
    <tag k="teryt:stan_na" v="2009-01-01"/>
    <tag k="teryt:terc" v="1821052"/>
    <tag k="teryt:updated_by" v="teryt2osm combine.py v. 43"/>
    <tag k="wikipedia" v="Solina, Poland"/>
  </node>
  <node id="39395437" version="2" timestamp="2009-05-01T17:42:50Z" uid="20587" user="balrog-kun" changeset="1039740" lat="49.3104209" lon="22.532251">
    <tag k="created_by" v="Potlatch alpha"/>
    <tag k="is_in" v="gmina Czarna, powiat bieszczadzki, województwo podkarpackie, Poland"/>
    <tag k="is_in:county" v="powiat bieszczadzki"/>
    <tag k="is_in:municipality" v="gmina Czarna"/>
    <tag k="is_in:province" v="województwo podkarpackie"/>
    <tag k="name" v="Chrewt"/>
    <tag k="place" v="village"/>
    <tag k="population" v="10"/>
    <tag k="source:population" v="wikipedia"/>
    <tag k="wikipedia" v="Chrewt"/>
  </node>
  <node id="39395437" version="3" timestamp="2010-04-11T04:37:31Z" uid="20587" user="balrog-kun" changeset="4389130" lat="49.3101956" lon="22.5315757">
    <tag k="is_in" v="gmina Czarna, powiat bieszczadzki, województwo podkarpackie, Poland"/>
    <tag k="is_in:county" v="powiat bieszczadzki"/>
    <tag k="is_in:municipality" v="gmina Czarna"/>
    <tag k="is_in:province" v="województwo podkarpackie"/>
    <tag k="name" v="Chrewt"/>
    <tag k="place" v="village"/>
    <tag k="population" v="10"/>
    <tag k="source:population" v="wikipedia"/>
    <tag k="wikipedia" v="Chrewt"/>
  </node>
  <node id="39395437" version="4" timestamp="2010-04-27T04:09:06Z" uid="30632" user="antblant" changeset="4537879" lat="49.3101956" lon="22.5315757">
    <tag k="is_in" v="gmina Czarna, powiat bieszczadzki, województwo podkarpackie, Poland"/>
    <tag k="is_in:county" v="powiat bieszczadzki"/>
    <tag k="is_in:municipality" v="gmina Czarna"/>
    <tag k="is_in:province" v="województwo podkarpackie"/>
    <tag k="name" v="Chrewt"/>
    <tag k="place" v="village"/>
    <tag k="population" v="10"/>
    <tag k="source:population" v="wikipedia"/>
    <tag k="teryt:simc" v="0347979"/>
    <tag k="wikipedia" v="Chrewt"/>
  </node>
</osm>
