<?xml version='1.0' encoding='UTF-8'?>
<osm version="0.6" generator="libosmium/2.20.0">
  <node id="399814261" version="1" timestamp="2009-05-14T20:52:42Z" uid="6269" user="Mueck" changeset="1192883" lat="49.0092962" lon="8.3932523">
    <tag k="addr:city" v="Karlsruhe"/>
    <tag k="addr:housenumber" v="24"/>
    <tag k="addr:postcode" v="76133"/>
    <tag k="addr:street" v="Douglasstraße"/>
    <tag k="shop" v="organic"/>
  </node>
  <node id="399814261" version="2" timestamp="2009-05-14T20:53:40Z" uid="6269" user="Mueck" changeset="1192883" lat="49.0093187" lon="8.3932523">
    <tag k="addr:city" v="Karlsruhe"/>
    <tag k="addr:housenumber" v="24"/>
    <tag k="addr:postcode" v="76133"/>
    <tag k="addr:street" v="Douglasstraße"/>
    <tag k="shop" v="organic"/>
  </node>
  <node id="399814261" version="3" timestamp="2009-05-14T20:56:53Z" uid="6269" user="Mueck" changeset="1192883" lat="49.0093187" lon="8.3932523">
    <tag k="addr:city" v="Karlsruhe"/>
    <tag k="addr:housenumber" v="24"/>
    <tag k="addr:postcode" v="76133"/>
    <tag k="addr:street" v="Douglasstraße"/>
    <tag k="name" v="Reformhaus"/>
    <tag k="shop" v="organic"/>
  </node>
  <node id="399814261" version="4" timestamp="2009-05-14T21:02:44Z" uid="6269" user="Mueck" changeset="1192883" lat="49.0093187" lon="8.3932523">
    <tag k="addr:city" v="Karlsruhe"/>
    <tag k="addr:housenumber" v="24"/>
    <tag k="addr:postcode" v="76133"/>
    <tag k="addr:street" v="Douglasstraße"/>
    <tag k="name" v="Reformhaus Neuleben"/>
    <tag k="shop" v="organic"/>
  </node>
  <node id="399814261" version="5" timestamp="2011-01-28T00:54:27Z" uid="6269" user="Mueck" changeset="7109243" lat="49.0093709" lon="8.3932655">
    <tag k="addr:city" v="Karlsruhe"/>
    <tag k="addr:housenumber" v="24"/>
    <tag k="addr:postcode" v="76133"/>
    <tag k="addr:street" v="Douglasstraße"/>
    <tag k="name" v="Reformhaus Neuleben"/>
    <tag k="shop" v="organic"/>
  </node>
  <node id="399814261" version="6" timestamp="2011-03-20T12:13:41Z" uid="6269" user="Mueck" changeset="7615724" lat="49.0093709" lon="8.3932655">
    <tag k="addr:city" v="Karlsruhe"/>
    <tag k="addr:housenumber" v="24"/>
    <tag k="addr:postcode" v="76133"/>
    <tag k="addr:street" v="Douglasstraße"/>
    <tag k="name" v="Reformhaus Neuleben"/>
    <tag k="shop" v="organic"/>
  </node>
  <node id="399814265" version="1" timestamp="2009-05-14T20:52:42Z" uid="6269" user="Mueck" changeset="1192883" lat="49.009161" lon="8.3932437">
    <tag k="addr:city" v="Karlsruhe"/>
    <tag k="addr:housenumber" v="26"/>
    <tag k="addr:postcode" v="76133"/>
    <tag k="addr:street" v="Douglasstraße"/>
    <tag k="shop" v="organic"/>
  </node>
  <node id="399814265" version="2" timestamp="2009-05-14T20:53:40Z" uid="6269" user="Mueck" changeset="1192883" lat="49.0091948" lon="8.3932523">
    <tag k="addr:city" v="Karlsruhe"/>
    <tag k="addr:housenumber" v="26"/>
    <tag k="addr:postcode" v="76133"/>
    <tag k="addr:street" v="Douglasstraße"/>
    <tag k="shop" v="organic"/>
  </node>
  <node id="399814265" version="3" timestamp="2009-05-14T21:02:44Z" uid="6269" user="Mueck" changeset="1192883" lat="49.0091948" lon="8.3932523">
    <tag k="addr:city" v="Karlsruhe"/>
    <tag k="addr:housenumber" v="26"/>
    <tag k="addr:postcode" v="76133"/>
    <tag k="addr:street" v="Douglasstraße"/>
    <tag k="name" v="Reisebüro Viktoria"/>
    <tag k="shop" v="travel_agency"/>
  </node>
  <node id="399814265" version="5" timestamp="2011-01-28T00:54:27Z" uid="6269" user="Mueck" changeset="7109243" lat="49.0092495" lon="8.3932481">
    <tag k="addr:city" v="Karlsruhe"/>
    <tag k="addr:housenumber" v="26"/>
    <tag k="addr:postcode" v="76133"/>
    <tag k="addr:street" v="Douglasstraße"/>
    <tag k="name" v="Reisebüro Viktoria"/>
    <tag k="shop" v="travel_agency"/>
  </node>
  <node id="399814265" version="6" timestamp="2011-03-20T12:13:19Z" uid="6269" user="Mueck" changeset="7615724" lat="49.0092718" lon="8.3932211">
    <tag k="addr:city" v="Karlsruhe"/>
    <tag k="addr:housenumber" v="26"/>
    <tag k="addr:postcode" v="76133"/>
    <tag k="addr:street" v="Douglasstraße"/>
    <tag k="name" v="Reisebüro Viktoria"/>
    <tag k="shop" v="travel_agency"/>
  </node>
  <node id="399814281" version="1" timestamp="2009-05-14T20:52:43Z" uid="6269" user="Mueck" changeset="1192883" lat="49.0089077" lon="8.3932437"/>
  <node id="399814281" version="2" timestamp="2009-05-14T20:53:10Z" uid="6269" user="Mueck" changeset="1192883" lat="49.0089077" lon="8.3932437">
    <tag k="addr:housenumber" v="32"/>
    <tag k="addr:postcode" v="76133"/>
    <tag k="addr:street" v="Douglasstraße"/>
  </node>
  <node id="399814281" version="3" timestamp="2009-05-14T20:53:41Z" uid="6269" user="Mueck" changeset="1192883" lat="49.0088739" lon="8.3932437">
    <tag k="addr:housenumber" v="32"/>
    <tag k="addr:postcode" v="76133"/>
    <tag k="addr:street" v="Douglasstraße"/>
  </node>
  <node id="399814281" version="4" timestamp="2011-01-28T00:53:39Z" uid="6269" user="Mueck" changeset="7109243" lat="49.0088633" lon="8.3932279">
    <tag k="addr:housenumber" v="32"/>
    <tag k="addr:postcode" v="76133"/>
    <tag k="addr:street" v="Douglasstraße"/>
  </node>
  <node id="399814281" version="5" timestamp="2011-01-28T00:53:57Z" uid="6269" user="Mueck" changeset="7109243" lat="49.0089408" lon="8.393236">
    <tag k="addr:housenumber" v="32"/>
    <tag k="addr:postcode" v="76133"/>
    <tag k="addr:street" v="Douglasstraße"/>
  </node>
  <node id="399814281" version="6" timestamp="2011-03-20T02:16:31Z" uid="6269" user="Mueck" changeset="7612251" lat="49.0089413" lon="8.3932147">
    <tag k="addr:housenumber" v="32"/>
    <tag k="addr:postcode" v="76133"/>
    <tag k="addr:street" v="Douglasstraße"/>
  </node>
  <node id="399814281" version="7" timestamp="2011-03-20T12:13:23Z" uid="6269" user="Mueck" changeset="7615724" lat="49.0089483" lon="8.3931906">
    <tag k="addr:housenumber" v="32"/>
    <tag k="addr:postcode" v="76133"/>
    <tag k="addr:street" v="Douglasstraße"/>
    <tag k="shop" v="clothes"/>
  </node>
</osm>
