<?xml version='1.0' encoding='UTF-8'?>
<osm version="0.6" generator="libosmium/2.20.0">
  <node id="399846045" version="1" timestamp="2009-05-14T21:02:44Z" uid="6269" user="Mueck" changeset="1192883" lat="49.0087726" lon="8.3932351">
    <tag k="addr:housenumber" v="32"/>
    <tag k="addr:postcode" v="76133"/>
    <tag k="addr:street" v="Douglasstraße"/>
    <tag k="name" v="Sauberland Reinigung"/>
    <tag k="shop" v="dry_cleaning"/>
  </node>
  <node id="399846045" version="2" timestamp="2009-05-14T21:04:09Z" uid="6269" user="Mueck" changeset="1192883" lat="49.0087726" lon="8.3932351">
    <tag k="addr:housenumber" v="34"/>
    <tag k="addr:postcode" v="76133"/>
    <tag k="addr:street" v="Douglasstraße"/>
    <tag k="name" v="Sauberland Reinigung"/>
    <tag k="shop" v="dry_cleaning"/>
  </node>
  <node id="399846045" version="3" timestamp="2011-01-28T00:53:45Z" uid="6269" user="Mueck" changeset="7109243" lat="49.0087754" lon="8.3932199">
    <tag k="addr:housenumber" v="34"/>
    <tag k="addr:postcode" v="76133"/>
    <tag k="addr:street" v="Douglasstraße"/>
    <tag k="name" v="Sauberland Reinigung"/>
    <tag k="shop" v="dry_cleaning"/>
  </node>
  <node id="399846045" version="4" timestamp="2011-03-20T02:16:30Z" uid="6269" user="Mueck" changeset="7612251" lat="49.0088256" lon="8.3931966">
    <tag k="addr:housenumber" v="34"/>
    <tag k="addr:postcode" v="76133"/>
    <tag k="addr:street" v="Douglasstraße"/>
    <tag k="name" v="Sauberland Reinigung"/>
    <tag k="shop" v="dry_cleaning"/>
  </node>
  <node id="399846045" version="5" timestamp="2011-03-20T12:13:24Z" uid="6269" user="Mueck" changeset="7615724" lat="49.0088231" lon="8.3931809">
    <tag k="addr:housenumber" v="34"/>
    <tag k="addr:postcode" v="76133"/>
    <tag k="addr:street" v="Douglasstraße"/>
    <tag k="name" v="Sauberland Reinigung"/>
    <tag k="shop" v="dry_cleaning"/>
  </node>
  <node id="399847761" version="1" timestamp="2009-05-14T21:03:46Z" uid="6269" user="Mueck" changeset="1192883" lat="49.0086318" lon="8.3932265">
    <tag k="addr:housenumber" v="36"/>
    <tag k="addr:postcode" v="76133"/>
    <tag k="addr:street" v="Douglasstraße"/>
    <tag k="name" v="Hoodstars"/>
    <tag k="shop" v="clothes"/>
  </node>
  <node id="399847761" version="2" timestamp="2010-04-19T21:21:09Z" uid="6269" user="Mueck" changeset="4472722" lat="49.0086318" lon="8.3932264">
    <tag k="addr:housenumber" v="36"/>
    <tag k="addr:postcode" v="76133"/>
    <tag k="addr:street" v="Douglasstraße"/>
  </node>
  <node id="399847761" version="3" timestamp="2011-01-28T00:53:24Z" uid="6269" user="Mueck" changeset="7109243" lat="49.0086469" lon="8.3932011">
    <tag k="addr:housenumber" v="36"/>
    <tag k="addr:postcode" v="76133"/>
    <tag k="addr:street" v="Douglasstraße"/>
  </node>
  <node id="399847761" version="4" timestamp="2011-03-20T12:13:23Z" uid="6269" user="Mueck" changeset="7615724" lat="49.0086472" lon="8.3931782">
    <tag k="addr:housenumber" v="36"/>
    <tag k="addr:postcode" v="76133"/>
    <tag k="addr:street" v="Douglasstraße"/>
  </node>
</osm>
