<?xml version='1.0' encoding='UTF-8'?>
<osm version="0.6" generator="libosmium/2.20.0">
  <node id="401250223" version="2" timestamp="2010-12-06T19:29:05Z" uid="9581" user="Lobelt" changeset="6567343" lat="32.5304218" lon="-1.9668028"/>
  <node id="401250224" version="2" timestamp="2010-12-06T19:29:07Z" uid="9581" user="Lobelt" changeset="6567343" lat="32.5314168" lon="-1.9658717"/>
  <node id="401250226" version="2" timestamp="2010-12-06T20:25:10Z" uid="9581" user="Lobelt" changeset="6568244" lat="32.5347238" lon="-1.967998"/>
  <node id="401250230" version="2" timestamp="2010-12-06T19:29:03Z" uid="9581" user="Lobelt" changeset="6567343" lat="32.5314027" lon="-1.9632546"/>
  <node id="401250669" version="2" timestamp="2010-12-06T19:29:07Z" uid="9581" user="Lobelt" changeset="6567343" lat="32.5267081" lon="-1.9797278"/>
  <node id="401251009" version="4" timestamp="2010-07-11T06:25:29Z" uid="33382" user="de_muur" changeset="5187109" lat="53.2023408" lon="9.2029311"/>
  <node id="401253889" version="2" timestamp="2009-08-26T09:52:15Z" uid="36809" user="pfoten_weg_!_" changeset="2265457" lat="48.0990436" lon="11.5239212">
    <tag k="bus_lines" v="133"/>
    <tag k="highway" v="bus_stop"/>
    <tag k="name" v="Ratzinger Platz"/>
    <tag k="network" v="MVV"/>
    <tag k="operator" v="MVG"/>
    <tag k="ref" v="133"/>
    <tag k="shelter" v="yes"/>
    <tag k="source" v="survey"/>
    <tag k="website:official" v="http://www.mvv-muenchen.de"/>
  </node>
  <node id="401253889" version="3" timestamp="2009-10-13T23:39:21Z" uid="36809" user="pfoten_weg_!_" changeset="2841273" lat="48.0990436" lon="11.5239212">
    <tag k="bus_lines" v="133"/>
    <tag k="highway" v="bus_stop"/>
    <tag k="name" v="Ratzinger Platz"/>
    <tag k="network" v="MVV"/>
    <tag k="operator" v="MVG"/>
    <tag k="ref" v="133"/>
    <tag k="shelter" v="yes"/>
    <tag k="website:official" v="http://www.mvv-muenchen.de"/>
  </node>
  <node id="401253890" version="2" timestamp="2009-08-26T09:52:13Z" uid="36809" user="pfoten_weg_!_" changeset="2265457" lat="48.0979404" lon="11.5238229">
    <tag k="bus_lines" v="133"/>
    <tag k="highway" v="bus_stop"/>
    <tag k="name" v="Aidenbachstraße"/>
    <tag k="network" v="MVV"/>
    <tag k="operator" v="MVG"/>
    <tag k="ref" v="133"/>
    <tag k="shelter" v="yes"/>
    <tag k="source" v="survey"/>
    <tag k="website:official" v="http://www.mvv-muenchen.de"/>
  </node>
  <node id="401253890" version="3" timestamp="2009-10-13T23:33:31Z" uid="36809" user="pfoten_weg_!_" changeset="2841273" lat="48.0979404" lon="11.5238229">
    <tag k="bus_lines" v="133"/>
    <tag k="highway" v="bus_stop"/>
    <tag k="name" v="Aidenbachstraße"/>
    <tag k="network" v="MVV"/>
    <tag k="operator" v="MVG"/>
    <tag k="ref" v="133"/>
    <tag k="shelter" v="yes"/>
    <tag k="website:official" v="http://www.mvv-muenchen.de"/>
  </node>
  <node id="401253891" version="2" timestamp="2009-08-26T09:52:14Z" uid="36809" user="pfoten_weg_!_" changeset="2265457" lat="48.1018384" lon="11.5245341">
    <tag k="bus_lines" v="133"/>
    <tag k="highway" v="bus_stop"/>
    <tag k="name" v="Murnauer Straße"/>
    <tag k="network" v="MVV"/>
    <tag k="operator" v="MVG"/>
    <tag k="ref" v="133"/>
    <tag k="shelter" v="yes"/>
    <tag k="source" v="survey"/>
    <tag k="website:official" v="http://www.mvv-muenchen.de"/>
  </node>
  <node id="401253892" version="2" timestamp="2009-08-26T09:52:19Z" uid="36809" user="pfoten_weg_!_" changeset="2265457" lat="48.1065329" lon="11.523056">
    <tag k="bus_lines" v="133"/>
    <tag k="highway" v="bus_stop"/>
    <tag k="name" v="Höglwörther Straße"/>
    <tag k="network" v="MVV"/>
    <tag k="operator" v="MVG"/>
    <tag k="ref" v="133"/>
    <tag k="shelter" v="yes"/>
    <tag k="source" v="survey"/>
    <tag k="website:official" v="http://www.mvv-muenchen.de"/>
  </node>
  <node id="401253893" version="2" timestamp="2009-08-26T09:52:20Z" uid="36809" user="pfoten_weg_!_" changeset="2265457" lat="48.1091352" lon="11.5206925">
    <tag k="bus_lines" v="133"/>
    <tag k="highway" v="bus_stop"/>
    <tag k="name" v="Pilsenseestraße"/>
    <tag k="network" v="MVV"/>
    <tag k="operator" v="MVG"/>
    <tag k="ref" v="133"/>
    <tag k="shelter" v="yes"/>
    <tag k="source" v="survey"/>
    <tag k="website:official" v="http://www.mvv-muenchen.de"/>
  </node>
  <node id="401253894" version="2" timestamp="2009-08-26T09:52:16Z" uid="36809" user="pfoten_weg_!_" changeset="2265457" lat="48.113951" lon="11.5173461">
    <tag k="bus_lines" v="133"/>
    <tag k="highway" v="bus_stop"/>
    <tag k="name" v="Luise-Kiesselbach-Platz"/>
    <tag k="network" v="MVV"/>
    <tag k="operator" v="MVG"/>
    <tag k="ref" v="133"/>
    <tag k="shelter" v="no"/>
    <tag k="source" v="survey"/>
    <tag k="website:official" v="http://www.mvv-muenchen.de"/>
  </node>
  <node id="401253895" version="2" timestamp="2009-08-26T09:52:17Z" uid="36809" user="pfoten_weg_!_" changeset="2265457" lat="48.1182021" lon="11.5175058">
    <tag k="bus_lines" v="133"/>
    <tag k="highway" v="bus_stop"/>
    <tag k="name" v="Westpark"/>
    <tag k="network" v="MVV"/>
    <tag k="operator" v="MVG"/>
    <tag k="ref" v="133"/>
    <tag k="shelter" v="yes"/>
    <tag k="source" v="survey"/>
    <tag k="website:official" v="http://www.mvv-muenchen.de"/>
  </node>
  <node id="401253896" version="2" timestamp="2009-08-26T09:52:12Z" uid="36809" user="pfoten_weg_!_" changeset="2265457" lat="48.1205538" lon="11.5184683">
    <tag k="bus_lines" v="133"/>
    <tag k="highway" v="bus_stop"/>
    <tag k="name" v="Hinterbärenbadstraße"/>
    <tag k="network" v="MVV"/>
    <tag k="operator" v="MVG"/>
    <tag k="ref" v="133"/>
    <tag k="shelter" v="no"/>
    <tag k="source" v="survey"/>
    <tag k="website:official" v="http://www.mvv-muenchen.de"/>
  </node>
  <node id="401253983" version="3" timestamp="2009-06-11T15:28:06Z" uid="4667" user="MapZ" changeset="1488376" lat="28.8261231" lon="-17.8058739"/>
  <node id="401255288" version="2" timestamp="2010-07-29T08:58:31Z" uid="74617" user="JohnSmith" changeset="5344848" lat="52.3881352" lon="9.9968372">
    <tag k="amenity" v="emergency_phone"/>
    <tag k="emergency" v="phone"/>
    <tag k="operator" v="Autobahnmeisterei"/>
  </node>
  <node id="401255289" version="2" timestamp="2010-07-29T09:07:15Z" uid="74617" user="JohnSmith" changeset="5344848" lat="52.3868535" lon="10.0007694">
    <tag k="amenity" v="emergency_phone"/>
    <tag k="emergency" v="phone"/>
    <tag k="operator" v="Autobahnmeisterei"/>
  </node>
  <node id="401255290" version="2" timestamp="2010-07-29T09:30:02Z" uid="74617" user="JohnSmith" changeset="5344848" lat="52.3812863" lon="10.0238765">
    <tag k="amenity" v="emergency_phone"/>
    <tag k="emergency" v="phone"/>
    <tag k="operator" v="Autobahnmeisterei"/>
  </node>
  <node id="401255291" version="2" timestamp="2010-07-29T09:38:17Z" uid="74617" user="JohnSmith" changeset="5344848" lat="52.3685842" lon="10.0685667">
    <tag k="amenity" v="emergency_phone"/>
    <tag k="emergency" v="phone"/>
    <tag k="operator" v="Autobahnmeisterei"/>
  </node>
  <node id="401255292" version="2" timestamp="2010-07-29T09:27:19Z" uid="74617" user="JohnSmith" changeset="5344848" lat="52.3646263" lon="10.096775">
    <tag k="amenity" v="emergency_phone"/>
    <tag k="emergency" v="phone"/>
    <tag k="operator" v="Autobahnmeisterei"/>
  </node>
  <node id="401255294" version="2" timestamp="2010-07-29T09:15:12Z" uid="74617" user="JohnSmith" changeset="5344848" lat="52.363398" lon="10.1192338">
    <tag k="amenity" v="emergency_phone"/>
    <tag k="emergency" v="phone"/>
    <tag k="operator" v="Autobahnmeisterei"/>
  </node>
  <node id="401255442" version="2" timestamp="2010-07-29T09:34:24Z" uid="74617" user="JohnSmith" changeset="5344848" lat="52.3920699" lon="9.9423492">
    <tag k="amenity" v="emergency_phone"/>
    <tag k="emergency" v="phone"/>
    <tag k="operator" v="Autobahnmeisterei"/>
  </node>
  <node id="401255443" version="2" timestamp="2010-07-29T09:41:36Z" uid="74617" user="JohnSmith" changeset="5344848" lat="52.3948353" lon="9.9238413">
    <tag k="amenity" v="emergency_phone"/>
    <tag k="emergency" v="phone"/>
    <tag k="operator" v="Autobahnmeisterei"/>
  </node>
  <node id="401255444" version="2" timestamp="2010-07-29T09:30:11Z" uid="74617" user="JohnSmith" changeset="5344848" lat="52.3943901" lon="9.9236329">
    <tag k="amenity" v="emergency_phone"/>
    <tag k="emergency" v="phone"/>
    <tag k="operator" v="Autobahnmeisterei"/>
  </node>
  <node id="401256491" version="2" timestamp="2009-08-26T09:50:05Z" uid="36809" user="pfoten_weg_!_" changeset="2265457" lat="48.0974312" lon="11.5238638"/>
  <node id="401259040" version="3" timestamp="2010-04-06T17:58:24Z" uid="9581" user="Lobelt" changeset="4346748" lat="50.664456" lon="9.3241965"/>
</osm>
