<?xml version='1.0' encoding='UTF-8'?>
<osm version="0.6" generator="libosmium/2.20.0">
  <node id="401451512" version="3" timestamp="2011-03-09T23:38:45Z" uid="49111" user="Markus B" changeset="7509958" lat="-29.4237823" lon="153.3196254"/>
  <node id="401451921" version="2" timestamp="2011-01-30T18:43:24Z" uid="9581" user="Lobelt" changeset="7137881" lat="49.4815795" lon="8.6666612"/>
  <node id="401451925" version="2" timestamp="2011-01-30T18:42:48Z" uid="9581" user="Lobelt" changeset="7137881" lat="49.4821837" lon="8.6678417"/>
  <node id="401452024" version="2" timestamp="2010-05-12T20:06:15Z" uid="9581" user="Lobelt" changeset="4680550" lat="49.4782145" lon="8.6754619"/>
  <node id="401452070" version="2" timestamp="2009-08-29T02:49:17Z" uid="20587" user="balrog-kun" changeset="2296799" lat="52.8572407" lon="19.2997085"/>
  <node id="401452083" version="2" timestamp="2009-08-29T02:49:17Z" uid="20587" user="balrog-kun" changeset="2296799" lat="52.9032519" lon="19.4686047"/>
  <node id="401452083" version="3" timestamp="2009-11-12T05:35:29Z" uid="36809" user="pfoten_weg_!_" changeset="3095599" lat="52.9032519" lon="19.4686047"/>
  <node id="401452083" version="4" timestamp="2009-11-12T10:55:15Z" uid="36809" user="pfoten_weg_!_" changeset="3096994" lat="52.9032519" lon="19.4686047"/>
  <node id="401452083" version="5" timestamp="2009-11-12T12:31:17Z" uid="36809" user="pfoten_weg_!_" changeset="3097611" lat="52.9032519" lon="19.4686047"/>
  <node id="401452106" version="2" timestamp="2009-08-29T02:55:23Z" uid="20587" user="balrog-kun" changeset="2296799" lat="52.8637144" lon="19.6657624"/>
  <node id="401452107" version="2" timestamp="2009-08-29T02:55:23Z" uid="20587" user="balrog-kun" changeset="2296799" lat="52.8636945" lon="19.6675292"/>
  <node id="401452109" version="2" timestamp="2009-08-29T02:55:23Z" uid="20587" user="balrog-kun" changeset="2296799" lat="52.8639337" lon="19.663913"/>
  <node id="401454403" version="2" timestamp="2010-04-01T06:48:01Z" uid="33382" user="de_muur" changeset="4291448" lat="53.4830499" lon="10.2885303"/>
  <node id="401456030" version="2" timestamp="2010-07-29T09:03:21Z" uid="74617" user="JohnSmith" changeset="5344848" lat="52.6682064" lon="13.4046714">
    <tag k="amenity" v="emergency_phone"/>
    <tag k="emergency" v="phone"/>
    <tag k="operator" v="Autobahnmeisterei"/>
  </node>
  <node id="401456033" version="2" timestamp="2010-07-29T09:17:28Z" uid="74617" user="JohnSmith" changeset="5344848" lat="52.6683075" lon="13.4050799">
    <tag k="amenity" v="emergency_phone"/>
    <tag k="emergency" v="phone"/>
    <tag k="operator" v="Autobahnmeisterei"/>
  </node>
  <node id="401456039" version="2" timestamp="2010-07-29T09:29:26Z" uid="74617" user="JohnSmith" changeset="5344848" lat="52.6767545" lon="13.3934789">
    <tag k="amenity" v="emergency_phone"/>
    <tag k="emergency" v="phone"/>
    <tag k="operator" v="Autobahnmeisterei"/>
  </node>
  <node id="401456041" version="2" timestamp="2010-07-29T09:26:44Z" uid="74617" user="JohnSmith" changeset="5344848" lat="52.6775749" lon="13.3908409">
    <tag k="amenity" v="emergency_phone"/>
    <tag k="emergency" v="phone"/>
    <tag k="operator" v="Autobahnmeisterei"/>
  </node>
  <node id="401456044" version="2" timestamp="2010-07-29T09:00:58Z" uid="74617" user="JohnSmith" changeset="5344848" lat="52.6806398" lon="13.3793336">
    <tag k="amenity" v="emergency_phone"/>
    <tag k="emergency" v="phone"/>
    <tag k="operator" v="Autobahnmeisterei"/>
  </node>
  <node id="401456046" version="2" timestamp="2010-07-29T09:32:59Z" uid="74617" user="JohnSmith" changeset="5344848" lat="52.6811212" lon="13.3707578">
    <tag k="amenity" v="emergency_phone"/>
    <tag k="emergency" v="phone"/>
    <tag k="operator" v="Autobahnmeisterei"/>
  </node>
  <node id="401456048" version="2" timestamp="2010-07-29T09:29:01Z" uid="74617" user="JohnSmith" changeset="5344848" lat="52.6820955" lon="13.351673">
    <tag k="amenity" v="emergency_phone"/>
    <tag k="emergency" v="phone"/>
    <tag k="operator" v="Autobahnmeisterei"/>
  </node>
  <node id="401456051" version="2" timestamp="2010-07-29T09:23:56Z" uid="74617" user="JohnSmith" changeset="5344848" lat="52.6823179" lon="13.3517313">
    <tag k="amenity" v="emergency_phone"/>
    <tag k="emergency" v="phone"/>
    <tag k="operator" v="Autobahnmeisterei"/>
  </node>
  <node id="401458389" version="2" timestamp="2010-07-29T09:22:52Z" uid="74617" user="JohnSmith" changeset="5344848" lat="52.6894323" lon="13.3216683">
    <tag k="amenity" v="emergency_phone"/>
    <tag k="emergency" v="phone"/>
    <tag k="operator" v="Autobahnmeisterei"/>
  </node>
  <node id="401458390" version="2" timestamp="2010-07-29T09:00:02Z" uid="74617" user="JohnSmith" changeset="5344848" lat="52.6914679" lon="13.3158633">
    <tag k="amenity" v="emergency_phone"/>
    <tag k="emergency" v="phone"/>
    <tag k="operator" v="Autobahnmeisterei"/>
  </node>
  <node id="401458391" version="2" timestamp="2010-07-29T09:09:48Z" uid="74617" user="JohnSmith" changeset="5344848" lat="52.6967422" lon="13.2974813">
    <tag k="amenity" v="emergency_phone"/>
    <tag k="emergency" v="phone"/>
    <tag k="operator" v="Autobahnmeisterei"/>
  </node>
  <node id="401458393" version="2" timestamp="2010-07-29T09:03:34Z" uid="74617" user="JohnSmith" changeset="5344848" lat="52.6969726" lon="13.2976213">
    <tag k="amenity" v="emergency_phone"/>
    <tag k="emergency" v="phone"/>
    <tag k="operator" v="Autobahnmeisterei"/>
  </node>
  <node id="401458394" version="2" timestamp="2010-07-29T09:28:18Z" uid="74617" user="JohnSmith" changeset="5344848" lat="52.7000314" lon="13.2774442">
    <tag k="amenity" v="emergency_phone"/>
    <tag k="emergency" v="phone"/>
    <tag k="operator" v="Autobahnmeisterei"/>
  </node>
  <node id="401458395" version="2" timestamp="2010-07-29T09:35:33Z" uid="74617" user="JohnSmith" changeset="5344848" lat="52.6999483" lon="13.2705676">
    <tag k="amenity" v="emergency_phone"/>
    <tag k="emergency" v="phone"/>
    <tag k="operator" v="Autobahnmeisterei"/>
  </node>
  <node id="401458396" version="2" timestamp="2010-07-29T09:25:45Z" uid="74617" user="JohnSmith" changeset="5344848" lat="52.6992212" lon="13.2400451">
    <tag k="amenity" v="emergency_phone"/>
    <tag k="emergency" v="phone"/>
    <tag k="operator" v="Autobahnmeisterei"/>
  </node>
  <node id="401458397" version="2" timestamp="2010-07-29T09:30:59Z" uid="74617" user="JohnSmith" changeset="5344848" lat="52.6994026" lon="13.2400779">
    <tag k="amenity" v="emergency_phone"/>
    <tag k="emergency" v="phone"/>
    <tag k="operator" v="Autobahnmeisterei"/>
  </node>
  <node id="401458403" version="2" timestamp="2010-07-29T09:11:38Z" uid="74617" user="JohnSmith" changeset="5344848" lat="52.7005916" lon="13.2247579">
    <tag k="amenity" v="emergency_phone"/>
    <tag k="emergency" v="phone"/>
    <tag k="operator" v="Autobahnmeisterei"/>
  </node>
  <node id="401458407" version="2" timestamp="2010-07-29T09:37:47Z" uid="74617" user="JohnSmith" changeset="5344848" lat="52.7008391" lon="13.2248579">
    <tag k="amenity" v="emergency_phone"/>
    <tag k="emergency" v="phone"/>
    <tag k="operator" v="Autobahnmeisterei"/>
  </node>
  <node id="401458410" version="2" timestamp="2010-07-29T09:14:44Z" uid="74617" user="JohnSmith" changeset="5344848" lat="52.705324" lon="13.1932199">
    <tag k="amenity" v="emergency_phone"/>
    <tag k="emergency" v="phone"/>
    <tag k="operator" v="Autobahnmeisterei"/>
  </node>
  <node id="401458413" version="2" timestamp="2010-07-29T09:17:19Z" uid="74617" user="JohnSmith" changeset="5344848" lat="52.7056117" lon="13.1932786">
    <tag k="amenity" v="emergency_phone"/>
    <tag k="emergency" v="phone"/>
    <tag k="operator" v="Autobahnmeisterei"/>
  </node>
  <node id="401458416" version="2" timestamp="2010-07-29T09:37:21Z" uid="74617" user="JohnSmith" changeset="5344848" lat="52.7055546" lon="13.1519175">
    <tag k="amenity" v="emergency_phone"/>
    <tag k="emergency" v="phone"/>
    <tag k="operator" v="Autobahnmeisterei"/>
  </node>
  <node id="401458418" version="2" timestamp="2010-07-29T09:24:11Z" uid="74617" user="JohnSmith" changeset="5344848" lat="52.7057647" lon="13.1519175">
    <tag k="amenity" v="emergency_phone"/>
    <tag k="emergency" v="phone"/>
    <tag k="operator" v="Autobahnmeisterei"/>
  </node>
  <node id="401458422" version="2" timestamp="2010-07-29T09:05:52Z" uid="74617" user="JohnSmith" changeset="5344848" lat="52.706864" lon="13.1235686">
    <tag k="amenity" v="emergency_phone"/>
    <tag k="emergency" v="phone"/>
    <tag k="operator" v="Autobahnmeisterei"/>
  </node>
  <node id="401458426" version="2" timestamp="2010-07-29T09:32:41Z" uid="74617" user="JohnSmith" changeset="5344848" lat="52.7071518" lon="13.1236166">
    <tag k="amenity" v="emergency_phone"/>
    <tag k="emergency" v="phone"/>
    <tag k="operator" v="Autobahnmeisterei"/>
  </node>
  <node id="401458427" version="2" timestamp="2010-07-29T09:40:26Z" uid="74617" user="JohnSmith" changeset="5344848" lat="52.7071223" lon="13.101582">
    <tag k="amenity" v="emergency_phone"/>
    <tag k="emergency" v="phone"/>
    <tag k="operator" v="Autobahnmeisterei"/>
  </node>
  <node id="401458433" version="2" timestamp="2010-07-29T09:12:06Z" uid="74617" user="JohnSmith" changeset="5344848" lat="52.7061652" lon="13.0931977">
    <tag k="amenity" v="emergency_phone"/>
    <tag k="emergency" v="phone"/>
    <tag k="operator" v="Autobahnmeisterei"/>
  </node>
  <node id="401458437" version="2" timestamp="2010-07-29T09:38:20Z" uid="74617" user="JohnSmith" changeset="5344848" lat="52.7068537" lon="13.1025727">
    <tag k="amenity" v="emergency_phone"/>
    <tag k="emergency" v="phone"/>
    <tag k="operator" v="Autobahnmeisterei"/>
  </node>
  <node id="401458440" version="2" timestamp="2010-07-29T09:15:16Z" uid="74617" user="JohnSmith" changeset="5344848" lat="52.7047339" lon="13.0610151">
    <tag k="amenity" v="emergency_phone"/>
    <tag k="emergency" v="phone"/>
    <tag k="operator" v="Autobahnmeisterei"/>
  </node>
  <node id="401458443" version="2" timestamp="2010-07-29T09:07:23Z" uid="74617" user="JohnSmith" changeset="5344848" lat="52.7049072" lon="13.0611603">
    <tag k="amenity" v="emergency_phone"/>
    <tag k="emergency" v="phone"/>
    <tag k="operator" v="Autobahnmeisterei"/>
  </node>
  <node id="401458447" version="2" timestamp="2010-07-29T09:33:51Z" uid="74617" user="JohnSmith" changeset="5344848" lat="52.7095257" lon="13.032967">
    <tag k="amenity" v="emergency_phone"/>
    <tag k="emergency" v="phone"/>
    <tag k="operator" v="Autobahnmeisterei"/>
  </node>
  <node id="401458449" version="2" timestamp="2010-07-29T09:29:45Z" uid="74617" user="JohnSmith" changeset="5344848" lat="52.7098005" lon="13.0297389">
    <tag k="amenity" v="emergency_phone"/>
    <tag k="emergency" v="phone"/>
    <tag k="operator" v="Autobahnmeisterei"/>
  </node>
  <node id="401458457" version="3" timestamp="2010-06-02T17:28:52Z" uid="163746" user="anti_bot-nonsense" changeset="4886066" lat="47.9012043" lon="12.2998025"/>
  <node id="401458471" version="2" timestamp="2010-07-29T09:28:06Z" uid="74617" user="JohnSmith" changeset="5344848" lat="52.7063286" lon="13.0114529">
    <tag k="amenity" v="emergency_phone"/>
    <tag k="emergency" v="phone"/>
    <tag k="operator" v="Autobahnmeisterei"/>
  </node>
  <node id="401458472" version="2" timestamp="2010-07-29T09:18:42Z" uid="74617" user="JohnSmith" changeset="5344848" lat="52.6934148" lon="13.0094403">
    <tag k="amenity" v="emergency_phone"/>
    <tag k="emergency" v="phone"/>
    <tag k="operator" v="Autobahnmeisterei"/>
  </node>
  <node id="401458473" version="2" timestamp="2010-07-29T09:25:34Z" uid="74617" user="JohnSmith" changeset="5344848" lat="52.6934027" lon="13.0098739">
    <tag k="amenity" v="emergency_phone"/>
    <tag k="emergency" v="phone"/>
    <tag k="operator" v="Autobahnmeisterei"/>
  </node>
  <node id="401458474" version="2" timestamp="2010-07-29T09:03:06Z" uid="74617" user="JohnSmith" changeset="5344848" lat="52.7063373" lon="13.0118533">
    <tag k="amenity" v="emergency_phone"/>
    <tag k="emergency" v="phone"/>
    <tag k="operator" v="Autobahnmeisterei"/>
  </node>
  <node id="401458475" version="2" timestamp="2010-07-29T09:12:59Z" uid="74617" user="JohnSmith" changeset="5344848" lat="52.675344" lon="13.0066862">
    <tag k="amenity" v="emergency_phone"/>
    <tag k="emergency" v="phone"/>
    <tag k="operator" v="Autobahnmeisterei"/>
  </node>
  <node id="401458713" version="3" timestamp="2010-06-02T17:28:54Z" uid="163746" user="anti_bot-nonsense" changeset="4886066" lat="47.9009741" lon="12.2997756"/>
  <node id="401458743" version="2" timestamp="2010-07-29T09:15:07Z" uid="74617" user="JohnSmith" changeset="5344848" lat="52.6586665" lon="13.0036631">
    <tag k="amenity" v="emergency_phone"/>
    <tag k="emergency" v="phone"/>
    <tag k="operator" v="Autobahnmeisterei"/>
    <tag k="source" v="photo"/>
  </node>
  <node id="401459020" version="2" timestamp="2010-01-02T15:01:05Z" uid="58091" user="Andreas M" changeset="3519058" lat="48.0865938" lon="16.3856525"/>
  <node id="401459021" version="2" timestamp="2010-01-02T15:00:56Z" uid="58091" user="Andreas M" changeset="3519058" lat="48.0824968" lon="16.3880791"/>
  <node id="401459068" version="2" timestamp="2010-01-02T15:00:56Z" uid="58091" user="Andreas M" changeset="3519058" lat="48.0867005" lon="16.3854949"/>
</osm>
