<?xml version='1.0' encoding='UTF-8'?>
<osm version="0.6" generator="libosmium/2.20.0">
  <node id="401950699" version="1" timestamp="2009-05-16T23:06:37Z" uid="20587" user="balrog-kun" changeset="1216480" lat="50.7297655" lon="23.2204372">
    <tag k="historic" v="monument"/>
    <tag k="name" v="Pomnik Jeńców Radzieckich"/>
  </node>
  <node id="401950703" version="1" timestamp="2009-05-16T23:06:37Z" uid="20587" user="balrog-kun" changeset="1216480" lat="50.7217991" lon="23.2199502"/>
  <node id="401950705" version="1" timestamp="2009-05-16T23:06:37Z" uid="20587" user="balrog-kun" changeset="1216480" lat="50.7218799" lon="23.2215"/>
  <node id="401950708" version="1" timestamp="2009-05-16T23:06:37Z" uid="20587" user="balrog-kun" changeset="1216480" lat="50.7211193" lon="23.2231888">
    <tag k="amenity" v="school"/>
    <tag k="name" v="Specjalny Ośrodek Szkolno-Wychowawczy"/>
  </node>
  <node id="401950710" version="1" timestamp="2009-05-16T23:06:37Z" uid="20587" user="balrog-kun" changeset="1216480" lat="50.7159392" lon="23.2255937">
    <tag k="amenity" v="school"/>
    <tag k="name" v="Gimnazjum NR5"/>
  </node>
  <node id="401950713" version="1" timestamp="2009-05-16T23:06:38Z" uid="20587" user="balrog-kun" changeset="1216480" lat="50.715849" lon="23.224739">
    <tag k="amenity" v="school"/>
    <tag k="name" v="Szkoła Podstawowa NR8"/>
    <tag k="ref" v="SP8"/>
  </node>
  <node id="401950716" version="1" timestamp="2009-05-16T23:06:38Z" uid="20587" user="balrog-kun" changeset="1216480" lat="50.7045411" lon="23.2290087"/>
  <node id="401950718" version="1" timestamp="2009-05-16T23:06:38Z" uid="20587" user="balrog-kun" changeset="1216480" lat="50.7122648" lon="23.2330816"/>
  <node id="401950720" version="1" timestamp="2009-05-16T23:06:38Z" uid="20587" user="balrog-kun" changeset="1216480" lat="50.7142801" lon="23.234239"/>
  <node id="401950721" version="1" timestamp="2009-05-16T23:06:38Z" uid="20587" user="balrog-kun" changeset="1216480" lat="50.7187332" lon="23.2354186"/>
  <node id="401950721" version="2" timestamp="2009-05-16T23:34:11Z" uid="20587" user="balrog-kun" changeset="1216642" lat="50.7186769" lon="23.2343948"/>
  <node id="401950723" version="1" timestamp="2009-05-16T23:06:38Z" uid="20587" user="balrog-kun" changeset="1216480" lat="50.7183178" lon="23.2408894"/>
  <node id="401950725" version="1" timestamp="2009-05-16T23:06:38Z" uid="20587" user="balrog-kun" changeset="1216480" lat="50.7181709" lon="23.2374861"/>
  <node id="401950727" version="1" timestamp="2009-05-16T23:06:38Z" uid="20587" user="balrog-kun" changeset="1216480" lat="50.7148693" lon="23.2378417"/>
  <node id="401950729" version="1" timestamp="2009-05-16T23:06:38Z" uid="20587" user="balrog-kun" changeset="1216480" lat="50.7150162" lon="23.2412449"/>
  <node id="401950731" version="1" timestamp="2009-05-16T23:06:38Z" uid="20587" user="balrog-kun" changeset="1216480" lat="50.7171537" lon="23.2369821">
    <tag k="name" v="Carrefour"/>
    <tag k="operator" v="Carrefour"/>
    <tag k="shop" v="supermarket"/>
  </node>
  <node id="401950734" version="1" timestamp="2009-05-16T23:06:38Z" uid="20587" user="balrog-kun" changeset="1216480" lat="50.7164914" lon="23.2292813">
    <tag k="shop" v="supermarket"/>
  </node>
  <node id="401950736" version="1" timestamp="2009-05-16T23:06:38Z" uid="20587" user="balrog-kun" changeset="1216480" lat="50.714312" lon="23.2268545">
    <tag k="amenity" v="post_office"/>
  </node>
  <node id="401950738" version="1" timestamp="2009-05-16T23:06:38Z" uid="20587" user="balrog-kun" changeset="1216480" lat="50.7133199" lon="23.2234373">
    <tag k="amenity" v="school"/>
    <tag k="name" v="Technikum Mechaniczne"/>
  </node>
  <node id="401950740" version="1" timestamp="2009-05-16T23:06:38Z" uid="20587" user="balrog-kun" changeset="1216480" lat="50.7130493" lon="23.2222977">
    <tag k="tourism" v="hostel"/>
  </node>
  <node id="401950742" version="1" timestamp="2009-05-16T23:06:38Z" uid="20587" user="balrog-kun" changeset="1216480" lat="50.7130042" lon="23.2172054">
    <tag k="amenity" v="university"/>
    <tag k="name" v="Wydział Nauk Rolniczych Uniwersytetu Przyrodniczego w Lublinie"/>
    <tag k="operator" v="Uniwersytet Przyrodniczy w Lublinie"/>
  </node>
  <node id="401950745" version="1" timestamp="2009-05-16T23:06:38Z" uid="20587" user="balrog-kun" changeset="1216480" lat="50.7128125" lon="23.215959">
    <tag k="amenity" v="school"/>
    <tag k="name" v="Technikum Rolnicze"/>
  </node>
  <node id="401950747" version="1" timestamp="2009-05-16T23:06:38Z" uid="20587" user="balrog-kun" changeset="1216480" lat="50.7311625" lon="23.2205866"/>
  <node id="401950749" version="1" timestamp="2009-05-16T23:06:38Z" uid="20587" user="balrog-kun" changeset="1216480" lat="50.7335198" lon="23.2198441"/>
  <node id="401950751" version="1" timestamp="2009-05-16T23:06:38Z" uid="20587" user="balrog-kun" changeset="1216480" lat="50.7332375" lon="23.2176066"/>
  <node id="401950753" version="1" timestamp="2009-05-16T23:06:38Z" uid="20587" user="balrog-kun" changeset="1216480" lat="50.7325487" lon="23.2178236"/>
  <node id="401950755" version="1" timestamp="2009-05-16T23:06:38Z" uid="20587" user="balrog-kun" changeset="1216480" lat="50.7324265" lon="23.2168551"/>
  <node id="401950757" version="1" timestamp="2009-05-16T23:06:38Z" uid="20587" user="balrog-kun" changeset="1216480" lat="50.7307579" lon="23.2173807"/>
  <node id="401950759" version="1" timestamp="2009-05-16T23:06:38Z" uid="20587" user="balrog-kun" changeset="1216480" lat="50.7200646" lon="23.2230433">
    <tag k="amenity" v="place_of_worship"/>
    <tag k="denomination" v="catholic"/>
    <tag k="name" v="Kościół pod wezwaniem Świętej Bożej Opatrzności"/>
    <tag k="religion" v="christian"/>
  </node>
  <node id="401950762" version="1" timestamp="2009-05-16T23:06:38Z" uid="20587" user="balrog-kun" changeset="1216480" lat="50.7169785" lon="23.2310157">
    <tag k="addr:city" v="Zamość"/>
    <tag k="addr:housenumber" v="1b"/>
    <tag k="addr:postcode" v="22-400"/>
    <tag k="addr:street" v="Romualda Traugutta"/>
    <tag k="amenity" v="place_of_worship"/>
    <tag k="denomination" v="evangelical"/>
    <tag k="name" v="Zbór Kościoła Ewangelicznych Chrześcijan"/>
    <tag k="religion" v="christian"/>
    <tag k="wikipedia" v="pl:Zbór Kościoła Ewangelicznych Chrześcijan w Zamościu"/>
  </node>
  <node id="401950765" version="1" timestamp="2009-05-16T23:06:38Z" uid="20587" user="balrog-kun" changeset="1216480" lat="50.7191267" lon="23.2270248">
    <tag k="addr:postcode" v="22-400"/>
    <tag k="is_in" v="Zamość"/>
    <tag k="name" v="Osiedle Karolówka"/>
    <tag k="place" v="suburb"/>
    <tag k="wikipedia" v="pl:Osiedle Karolówka w Zamościu"/>
  </node>
  <node id="401950765" version="2" timestamp="2009-06-16T14:38:27Z" uid="20587" user="balrog-kun" changeset="1535715" lat="50.7191267" lon="23.2270248">
    <tag k="addr:postcode" v="22-400"/>
    <tag k="is_in" v="Zamość, gmina Zamość, powiat Zamość, województwo lubelskie, Poland"/>
    <tag k="is_in:country" v="Poland"/>
    <tag k="is_in:county" v="powiat Zamość"/>
    <tag k="is_in:municipality" v="gmina Zamość"/>
    <tag k="is_in:province" v="województwo lubelskie"/>
    <tag k="is_in:town" v="Zamość"/>
    <tag k="name" v="Osiedle Karolówka"/>
    <tag k="place" v="suburb"/>
    <tag k="wikipedia" v="pl:Osiedle Karolówka w Zamościu"/>
  </node>
  <node id="401950768" version="1" timestamp="2009-05-16T23:06:38Z" uid="20587" user="balrog-kun" changeset="1216480" lat="50.7068423" lon="23.2241517">
    <tag k="is_in" v="Zamość"/>
    <tag k="name" v="Osiedle Błonie"/>
    <tag k="place" v="suburb"/>
  </node>
  <node id="401950771" version="1" timestamp="2009-05-16T23:06:38Z" uid="20587" user="balrog-kun" changeset="1216480" lat="50.717178" lon="23.2468842"/>
  <node id="401950771" version="2" timestamp="2009-05-16T23:34:11Z" uid="20587" user="balrog-kun" changeset="1216642" lat="50.7144088" lon="23.2423049"/>
  <node id="401950773" version="1" timestamp="2009-05-16T23:06:38Z" uid="20587" user="balrog-kun" changeset="1216480" lat="50.7217058" lon="23.2436604"/>
  <node id="401950775" version="1" timestamp="2009-05-16T23:06:38Z" uid="20587" user="balrog-kun" changeset="1216480" lat="50.717617" lon="23.2507181"/>
  <node id="401950777" version="1" timestamp="2009-05-16T23:06:39Z" uid="20587" user="balrog-kun" changeset="1216480" lat="50.7177878" lon="23.2495585"/>
  <node id="401950779" version="1" timestamp="2009-05-16T23:06:39Z" uid="20587" user="balrog-kun" changeset="1216480" lat="50.7262589" lon="23.2516807">
    <tag k="highway" v="traffic_signals"/>
  </node>
  <node id="401950781" version="1" timestamp="2009-05-16T23:06:39Z" uid="20587" user="balrog-kun" changeset="1216480" lat="50.7315358" lon="23.2510833">
    <tag k="highway" v="traffic_signals"/>
  </node>
  <node id="401950783" version="1" timestamp="2009-05-16T23:06:39Z" uid="20587" user="balrog-kun" changeset="1216480" lat="50.7174844" lon="23.2516162">
    <tag k="is_in" v="Zamość"/>
    <tag k="name" v="Stare Miasto"/>
    <tag k="place" v="suburb"/>
    <tag k="wikipedia" v="pl:Osiedle Stare Miasto w Zamościu"/>
  </node>
  <node id="401950783" version="2" timestamp="2009-06-16T14:38:29Z" uid="20587" user="balrog-kun" changeset="1535715" lat="50.7174844" lon="23.2516162">
    <tag k="addr:postcode" v="22-400"/>
    <tag k="is_in" v="Zamość, gmina Zamość, powiat Zamość, województwo lubelskie, Poland"/>
    <tag k="is_in:country" v="Poland"/>
    <tag k="is_in:county" v="powiat Zamość"/>
    <tag k="is_in:municipality" v="gmina Zamość"/>
    <tag k="is_in:province" v="województwo lubelskie"/>
    <tag k="is_in:town" v="Zamość"/>
    <tag k="name" v="Stare Miasto"/>
    <tag k="place" v="suburb"/>
    <tag k="wikipedia" v="pl:Osiedle Stare Miasto w Zamościu"/>
  </node>
</osm>
