<?xml version='1.0' encoding='UTF-8'?>
<osm version="0.6" generator="libosmium/2.20.0">
  <node id="402841485" version="2" timestamp="2009-10-23T12:14:04Z" uid="36809" user="pfoten_weg_!_" changeset="2929257" lat="47.9926635" lon="11.7371932">
    <tag k="addr:city" v="Dürrnhaar"/>
    <tag k="addr:country" v="DE"/>
    <tag k="addr:housenumber" v="6a"/>
    <tag k="addr:postcode" v="85653"/>
    <tag k="addr:street" v="Egmatinger Straße"/>
  </node>
  <node id="402841488" version="2" timestamp="2009-10-23T12:14:04Z" uid="36809" user="pfoten_weg_!_" changeset="2929257" lat="47.9926487" lon="11.7369638">
    <tag k="addr:city" v="Dürrnhaar"/>
    <tag k="addr:country" v="DE"/>
    <tag k="addr:housenumber" v="6"/>
    <tag k="addr:postcode" v="85653"/>
    <tag k="addr:street" v="Egmatinger Straße"/>
  </node>
  <node id="402841491" version="2" timestamp="2009-10-23T12:14:13Z" uid="36809" user="pfoten_weg_!_" changeset="2929257" lat="47.991104" lon="11.7389465">
    <tag k="addr:city" v="Dürrnhaar"/>
    <tag k="addr:country" v="DE"/>
    <tag k="addr:housenumber" v="2"/>
    <tag k="addr:postcode" v="85653"/>
    <tag k="addr:street" v="Furter Feld"/>
  </node>
  <node id="402841555" version="2" timestamp="2009-10-21T22:53:14Z" uid="36809" user="pfoten_weg_!_" changeset="2917503" lat="48.0141183" lon="11.7283702">
    <tag k="addr:city" v="Höhenkirchen-Siegertsbrunn"/>
    <tag k="addr:country" v="DE"/>
    <tag k="addr:housenumber" v="45"/>
    <tag k="addr:postcode" v="85635"/>
    <tag k="addr:street" v="Faistenhaarer Straße"/>
    <tag k="name" v="Siedler und Eigenheimer Vereinigung Höhenkirchen und Umgebung"/>
  </node>
  <node id="402845839" version="3" timestamp="2010-11-26T19:44:10Z" uid="9581" user="Lobelt" changeset="6464578" lat="49.8606664" lon="8.4930038"/>
  <node id="402845843" version="2" timestamp="2010-11-26T19:43:56Z" uid="9581" user="Lobelt" changeset="6464578" lat="49.8751266" lon="8.4939373"/>
</osm>
