<?xml version='1.0' encoding='UTF-8'?>
<osm version="0.6" generator="libosmium/2.20.0">
  <node id="404577203" version="4" timestamp="2009-11-29T22:33:01Z" uid="49111" user="Markus B" changeset="3251478" lat="49.50718" lon="11.271074"/>
  <node id="404577203" version="5" timestamp="2009-12-01T22:17:47Z" uid="49111" user="Markus B" changeset="3268110" lat="49.5071662" lon="11.2710581"/>
  <node id="404577207" version="3" timestamp="2009-12-01T22:17:48Z" uid="49111" user="Markus B" changeset="3268110" lat="49.5070256" lon="11.2708798"/>
  <node id="404577210" version="3" timestamp="2009-12-01T22:17:48Z" uid="49111" user="Markus B" changeset="3268110" lat="49.5066457" lon="11.2704522"/>
  <node id="404577213" version="3" timestamp="2009-12-01T22:17:46Z" uid="49111" user="Markus B" changeset="3268110" lat="49.5060282" lon="11.2698864"/>
  <node id="404577250" version="4" timestamp="2009-12-01T22:17:48Z" uid="49111" user="Markus B" changeset="3268110" lat="49.5080386" lon="11.2717727"/>
  <node id="404577253" version="4" timestamp="2009-12-01T22:17:48Z" uid="49111" user="Markus B" changeset="3268110" lat="49.5078651" lon="11.2716074"/>
  <node id="404577304" version="4" timestamp="2009-11-29T22:33:01Z" uid="49111" user="Markus B" changeset="3251478" lat="49.507476" lon="11.2713455"/>
  <node id="404577304" version="5" timestamp="2009-12-01T22:17:47Z" uid="49111" user="Markus B" changeset="3268110" lat="49.5074623" lon="11.2713223"/>
  <node id="404577306" version="4" timestamp="2009-11-29T22:33:01Z" uid="49111" user="Markus B" changeset="3251478" lat="49.5073868" lon="11.2712517"/>
  <node id="404577308" version="5" timestamp="2009-11-29T22:33:01Z" uid="49111" user="Markus B" changeset="3251478" lat="49.5073193" lon="11.2711934"/>
  <node id="404578779" version="3" timestamp="2009-08-26T10:47:48Z" uid="36809" user="pfoten_weg_!_" changeset="2265993" lat="48.1902575" lon="11.6109145">
    <tag k="addr:city" v="München"/>
    <tag k="addr:country" v="DE"/>
    <tag k="addr:housename" v="Deutsche Bahn"/>
    <tag k="addr:housenumber" v="5"/>
    <tag k="addr:postcode" v="80939"/>
    <tag k="addr:street" v="Völckerstraße"/>
  </node>
  <node id="404578780" version="3" timestamp="2009-08-26T10:47:48Z" uid="36809" user="pfoten_weg_!_" changeset="2265993" lat="48.1906695" lon="11.6111522">
    <tag k="addr:city" v="München"/>
    <tag k="addr:country" v="DE"/>
    <tag k="addr:housename" v="Sparda Bank"/>
    <tag k="addr:housenumber" v="5"/>
    <tag k="addr:postcode" v="80939"/>
    <tag k="addr:street" v="Völckerstraße"/>
  </node>
  <node id="404578783" version="4" timestamp="2009-08-26T10:47:48Z" uid="36809" user="pfoten_weg_!_" changeset="2265993" lat="48.1908466" lon="11.612249">
    <tag k="addr:city" v="München"/>
    <tag k="addr:country" v="DE"/>
    <tag k="addr:housenumber" v="15"/>
    <tag k="addr:postcode" v="80939"/>
    <tag k="addr:street" v="Georg-Wopfner-Straße"/>
  </node>
  <node id="404578784" version="4" timestamp="2009-08-26T10:47:50Z" uid="36809" user="pfoten_weg_!_" changeset="2265993" lat="48.1907911" lon="11.6125147">
    <tag k="addr:city" v="München"/>
    <tag k="addr:country" v="DE"/>
    <tag k="addr:housenumber" v="13"/>
    <tag k="addr:postcode" v="80939"/>
    <tag k="addr:street" v="Georg-Wopfner-Straße"/>
  </node>
  <node id="404578785" version="4" timestamp="2009-08-26T10:47:49Z" uid="36809" user="pfoten_weg_!_" changeset="2265993" lat="48.1907343" lon="11.6127602">
    <tag k="addr:city" v="München"/>
    <tag k="addr:country" v="DE"/>
    <tag k="addr:housenumber" v="11"/>
    <tag k="addr:postcode" v="80939"/>
    <tag k="addr:street" v="Georg-Wopfner-Straße"/>
  </node>
  <node id="404578794" version="2" timestamp="2009-07-27T21:35:26Z" uid="36809" user="pfoten_weg_!_" changeset="1960118" lat="48.189963" lon="11.6037051"/>
  <node id="404578795" version="2" timestamp="2009-07-27T21:35:26Z" uid="36809" user="pfoten_weg_!_" changeset="1960118" lat="48.1900196" lon="11.6032648"/>
  <node id="404578796" version="2" timestamp="2009-07-27T21:35:26Z" uid="36809" user="pfoten_weg_!_" changeset="1960118" lat="48.1898265" lon="11.6032089"/>
  <node id="404578797" version="2" timestamp="2009-07-27T21:35:26Z" uid="36809" user="pfoten_weg_!_" changeset="1960118" lat="48.1897699" lon="11.6036492"/>
  <node id="404578798" version="2" timestamp="2009-07-27T21:35:26Z" uid="36809" user="pfoten_weg_!_" changeset="1960118" lat="48.1901099" lon="11.603968"/>
  <node id="404578799" version="2" timestamp="2009-07-27T21:35:26Z" uid="36809" user="pfoten_weg_!_" changeset="1960118" lat="48.1906037" lon="11.6041119"/>
  <node id="404578800" version="2" timestamp="2009-07-27T21:35:26Z" uid="36809" user="pfoten_weg_!_" changeset="1960118" lat="48.190643" lon="11.6038079"/>
  <node id="404578801" version="2" timestamp="2009-07-27T21:35:26Z" uid="36809" user="pfoten_weg_!_" changeset="1960118" lat="48.1901493" lon="11.603664"/>
  <node id="404578802" version="2" timestamp="2009-07-27T21:35:26Z" uid="36809" user="pfoten_weg_!_" changeset="1960118" lat="48.1906646" lon="11.603644"/>
  <node id="404578803" version="2" timestamp="2009-07-27T21:35:26Z" uid="36809" user="pfoten_weg_!_" changeset="1960118" lat="48.1907536" lon="11.6030136"/>
  <node id="404578804" version="2" timestamp="2009-07-27T21:35:26Z" uid="36809" user="pfoten_weg_!_" changeset="1960118" lat="48.1903672" lon="11.6028908"/>
  <node id="404578805" version="2" timestamp="2009-07-27T21:35:26Z" uid="36809" user="pfoten_weg_!_" changeset="1960118" lat="48.1902782" lon="11.6035212"/>
  <node id="404578806" version="2" timestamp="2009-07-27T21:35:26Z" uid="36809" user="pfoten_weg_!_" changeset="1960118" lat="48.1900448" lon="11.6027466"/>
  <node id="404578807" version="2" timestamp="2009-07-27T21:35:26Z" uid="36809" user="pfoten_weg_!_" changeset="1960118" lat="48.1899887" lon="11.6031555"/>
  <node id="404578808" version="2" timestamp="2009-07-27T21:35:26Z" uid="36809" user="pfoten_weg_!_" changeset="1960118" lat="48.1897354" lon="11.6030774"/>
  <node id="404578809" version="2" timestamp="2009-07-27T21:35:26Z" uid="36809" user="pfoten_weg_!_" changeset="1960118" lat="48.1897915" lon="11.6026684"/>
  <node id="404578831" version="3" timestamp="2009-08-26T10:47:47Z" uid="36809" user="pfoten_weg_!_" changeset="2265993" lat="48.1902399" lon="11.6009844">
    <tag k="addr:city" v="München"/>
    <tag k="addr:country" v="DE"/>
    <tag k="addr:housenumber" v="20"/>
    <tag k="addr:postcode" v="80939"/>
    <tag k="addr:street" v="Lindberghstraße"/>
  </node>
  <node id="404578832" version="3" timestamp="2009-08-26T10:47:47Z" uid="36809" user="pfoten_weg_!_" changeset="2265993" lat="48.1903029" lon="11.6004983">
    <tag k="addr:city" v="München"/>
    <tag k="addr:country" v="DE"/>
    <tag k="addr:housenumber" v="18"/>
    <tag k="addr:postcode" v="80939"/>
    <tag k="addr:street" v="Lindberghstraße"/>
  </node>
  <node id="404578833" version="3" timestamp="2009-08-26T10:47:46Z" uid="36809" user="pfoten_weg_!_" changeset="2265993" lat="48.1899257" lon="11.6036564">
    <tag k="addr:city" v="München"/>
    <tag k="addr:country" v="DE"/>
    <tag k="addr:housenumber" v="30"/>
    <tag k="addr:postcode" v="80939"/>
    <tag k="addr:street" v="Lindberghstraße"/>
  </node>
  <node id="404578836" version="3" timestamp="2009-08-26T10:47:46Z" uid="36809" user="pfoten_weg_!_" changeset="2265993" lat="48.189986" lon="11.6030182">
    <tag k="addr:city" v="München"/>
    <tag k="addr:country" v="DE"/>
    <tag k="addr:housenumber" v="28"/>
    <tag k="addr:postcode" v="80939"/>
    <tag k="addr:street" v="Lindberghstraße"/>
  </node>
  <node id="404578837" version="3" timestamp="2009-08-26T10:47:45Z" uid="36809" user="pfoten_weg_!_" changeset="2265993" lat="48.1900194" lon="11.6027706">
    <tag k="addr:city" v="München"/>
    <tag k="addr:country" v="DE"/>
    <tag k="addr:housenumber" v="26"/>
    <tag k="addr:postcode" v="80939"/>
    <tag k="addr:street" v="Lindberghstraße"/>
  </node>
  <node id="404578838" version="3" timestamp="2009-08-26T10:47:45Z" uid="36809" user="pfoten_weg_!_" changeset="2265993" lat="48.1903305" lon="11.6032945">
    <tag k="addr:city" v="München"/>
    <tag k="addr:country" v="DE"/>
    <tag k="addr:housenumber" v="17"/>
    <tag k="addr:postcode" v="80939"/>
    <tag k="addr:street" v="Lindberghstraße"/>
  </node>
  <node id="404578839" version="3" timestamp="2009-08-26T10:47:44Z" uid="36809" user="pfoten_weg_!_" changeset="2265993" lat="48.1901511" lon="11.6038279">
    <tag k="addr:city" v="München"/>
    <tag k="addr:country" v="DE"/>
    <tag k="addr:housenumber" v="19"/>
    <tag k="addr:postcode" v="80939"/>
    <tag k="addr:street" v="Lindberghstraße"/>
  </node>
  <node id="404578848" version="3" timestamp="2009-08-26T10:47:43Z" uid="36809" user="pfoten_weg_!_" changeset="2265993" lat="48.1918221" lon="11.6004454">
    <tag k="addr:city" v="München"/>
    <tag k="addr:country" v="DE"/>
    <tag k="addr:housename" v="Opel Ofner"/>
    <tag k="addr:housenumber" v="8"/>
    <tag k="addr:postcode" v="80939"/>
    <tag k="addr:street" v="Lindberghstraße"/>
  </node>
  <node id="404578849" version="3" timestamp="2009-08-26T10:47:43Z" uid="36809" user="pfoten_weg_!_" changeset="2265993" lat="48.1921629" lon="11.6014429">
    <tag k="addr:city" v="München"/>
    <tag k="addr:country" v="DE"/>
    <tag k="addr:housenumber" v="4"/>
    <tag k="addr:postcode" v="80939"/>
    <tag k="addr:street" v="Lindberghstraße"/>
  </node>
  <node id="404578850" version="3" timestamp="2009-08-26T10:47:44Z" uid="36809" user="pfoten_weg_!_" changeset="2265993" lat="48.1907403" lon="11.5997808">
    <tag k="addr:city" v="München"/>
    <tag k="addr:country" v="DE"/>
    <tag k="addr:housenumber" v="10 - 12"/>
    <tag k="addr:postcode" v="80939"/>
    <tag k="addr:street" v="Lindberghstraße"/>
  </node>
</osm>
