<?xml version='1.0' encoding='UTF-8'?>
<osm version="0.6" generator="libosmium/2.20.0">
  <node id="406022187" version="1" timestamp="2009-05-19T15:04:59Z" uid="55964" user="Evan Sebire" changeset="1250536" lat="46.587093" lon="7.643636"/>
  <node id="406022201" version="1" timestamp="2009-05-19T15:04:59Z" uid="55964" user="Evan Sebire" changeset="1250536" lat="46.5871" lon="7.643893"/>
  <node id="406022212" version="1" timestamp="2009-05-19T15:05:00Z" uid="55964" user="Evan Sebire" changeset="1250536" lat="46.5870312" lon="7.6440957"/>
  <node id="406022259" version="1" timestamp="2009-05-19T15:05:00Z" uid="55964" user="Evan Sebire" changeset="1250536" lat="46.5871387" lon="7.6441541">
    <tag k="highway" v="bus_stop"/>
  </node>
  <node id="406022259" version="2" timestamp="2010-05-16T10:54:30Z" uid="55964" user="Evan Sebire" changeset="4715520" lat="46.5871387" lon="7.6441541">
    <tag k="highway" v="bus_stop"/>
    <tag k="name" v="Marktplatz"/>
    <tag k="operator" v="afa"/>
    <tag k="phone" v="+41 33 673 7474"/>
    <tag k="route_ref" v="230"/>
    <tag k="shelter" v="yes"/>
    <tag k="source" v="survey"/>
    <tag k="url" v="http://www.afa-busbetrieb.ch"/>
  </node>
  <node id="406022259" version="3" timestamp="2010-05-18T20:40:51Z" uid="55964" user="Evan Sebire" changeset="4742788" lat="46.5871387" lon="7.6441541">
    <tag k="highway" v="bus_stop"/>
    <tag k="name" v="Marktplatz"/>
    <tag k="operator" v="afa"/>
    <tag k="phone" v="+41 33 673 7474"/>
    <tag k="route_ref" v="230"/>
    <tag k="shelter" v="yes"/>
    <tag k="source" v="survey"/>
    <tag k="towards" v="Adelboden"/>
    <tag k="url" v="http://www.afa-busbetrieb.ch"/>
  </node>
  <node id="406022272" version="1" timestamp="2009-05-19T15:05:00Z" uid="55964" user="Evan Sebire" changeset="1250536" lat="46.585576" lon="7.6482668">
    <tag k="highway" v="bus_stop"/>
  </node>
  <node id="406022272" version="2" timestamp="2010-05-16T10:54:27Z" uid="55964" user="Evan Sebire" changeset="4715520" lat="46.5855641" lon="7.6482298">
    <tag k="highway" v="bus_stop"/>
    <tag k="name" v="Widi"/>
    <tag k="operator" v="afa"/>
    <tag k="phone" v="+41 33 673 7474"/>
    <tag k="route_ref" v="230"/>
    <tag k="source" v="survey"/>
    <tag k="url" v="http://www.afa-busbetrieb.ch"/>
  </node>
  <node id="406022281" version="1" timestamp="2009-05-19T15:05:01Z" uid="55964" user="Evan Sebire" changeset="1250536" lat="46.5858694" lon="7.6483258">
    <tag k="highway" v="bus_stop"/>
  </node>
  <node id="406022281" version="2" timestamp="2010-05-16T10:54:27Z" uid="55964" user="Evan Sebire" changeset="4715520" lat="46.5858281" lon="7.648277">
    <tag k="highway" v="bus_stop"/>
    <tag k="name" v="Widi"/>
    <tag k="operator" v="post;afa"/>
    <tag k="phone" v="+41 33 673 7474"/>
    <tag k="route_ref" v="210;230"/>
    <tag k="source" v="survey"/>
    <tag k="url" v="http://www.afa-busbetrieb.ch"/>
  </node>
  <node id="406022290" version="1" timestamp="2009-05-19T15:05:01Z" uid="55964" user="Evan Sebire" changeset="1250536" lat="46.5859318" lon="7.647619">
    <tag k="highway" v="bus_stop"/>
  </node>
  <node id="406022290" version="2" timestamp="2009-06-18T19:28:52Z" uid="55964" user="Evan Sebire" changeset="1557819" lat="46.5859632" lon="7.6475484">
    <tag k="highway" v="bus_stop"/>
  </node>
  <node id="406022290" version="3" timestamp="2010-05-16T10:54:26Z" uid="55964" user="Evan Sebire" changeset="4715520" lat="46.5859632" lon="7.6475484">
    <tag k="highway" v="bus_stop"/>
    <tag k="name" v="Widi"/>
    <tag k="operator" v="post;afa"/>
    <tag k="phone" v="+41 33 673 7474"/>
    <tag k="route_ref" v="210;230"/>
    <tag k="source" v="survey"/>
    <tag k="url" v="http://www.afa-busbetrieb.ch"/>
  </node>
  <node id="406022335" version="1" timestamp="2009-05-19T15:05:02Z" uid="55964" user="Evan Sebire" changeset="1250536" lat="46.5886972" lon="7.6457529">
    <tag k="highway" v="bus_stop"/>
  </node>
  <node id="406022335" version="2" timestamp="2010-05-16T10:54:31Z" uid="55964" user="Evan Sebire" changeset="4715520" lat="46.5886897" lon="7.645776">
    <tag k="highway" v="bus_stop"/>
    <tag k="name" v="Verkehrsbüro"/>
    <tag k="operator" v="post"/>
    <tag k="phone" v="0848 888 888"/>
    <tag k="route_ref" v="210"/>
    <tag k="source" v="survey"/>
    <tag k="url" v="http://www.postauto.ch"/>
  </node>
  <node id="406022346" version="1" timestamp="2009-05-19T15:05:02Z" uid="55964" user="Evan Sebire" changeset="1250536" lat="46.5885635" lon="7.6458252">
    <tag k="highway" v="bus_stop"/>
  </node>
  <node id="406022346" version="2" timestamp="2009-07-04T07:21:49Z" uid="55964" user="Evan Sebire" changeset="1727259" lat="46.5885741" lon="7.6457966">
    <tag k="highway" v="bus_stop"/>
  </node>
  <node id="406022346" version="3" timestamp="2010-05-16T10:54:31Z" uid="55964" user="Evan Sebire" changeset="4715520" lat="46.5885741" lon="7.6457966">
    <tag k="highway" v="bus_stop"/>
    <tag k="name" v="Verkehrsbüro"/>
    <tag k="operator" v="post"/>
    <tag k="phone" v="0848 888 888"/>
    <tag k="route_ref" v="210"/>
    <tag k="source" v="survey"/>
    <tag k="url" v="http://www.postauto.ch"/>
  </node>
  <node id="406022357" version="1" timestamp="2009-05-19T15:05:02Z" uid="55964" user="Evan Sebire" changeset="1250536" lat="46.5884698" lon="7.6510523">
    <tag k="amenity" v="toilets"/>
  </node>
</osm>
