<?xml version='1.0' encoding='UTF-8'?>
<osm version="0.6" generator="libosmium/2.20.0">
  <node id="409692980" version="1" timestamp="2009-05-22T13:40:56Z" uid="36809" user="pfoten_weg_!_" changeset="1286285" lat="48.0673421" lon="11.517569">
    <tag k="addr:city" v="München"/>
    <tag k="addr:country" v="DE"/>
    <tag k="addr:housename" v="Wohnhaus"/>
    <tag k="addr:housenumber" v="000"/>
    <tag k="addr:postcode" v="81479"/>
    <tag k="addr:street" v="Wolfratshauser Straße"/>
    <tag k="created_by" v="RambaZamba"/>
    <tag k="name" v="245"/>
  </node>
  <node id="409692980" version="2" timestamp="2009-05-22T13:41:55Z" uid="36809" user="pfoten_weg_!_" changeset="1286295" lat="48.0673421" lon="11.517569">
    <tag k="addr:city" v="München"/>
    <tag k="addr:country" v="DE"/>
    <tag k="addr:housename" v="Wohnhaus"/>
    <tag k="addr:housenumber" v="000"/>
    <tag k="addr:postcode" v="81479"/>
    <tag k="addr:street" v="Wolfratshauser Straße"/>
    <tag k="created_by" v="RambaZamba"/>
    <tag k="name" v="245"/>
  </node>
  <node id="409692981" version="1" timestamp="2009-05-22T13:40:56Z" uid="36809" user="pfoten_weg_!_" changeset="1286285" lat="48.0674051" lon="11.518533">
    <tag k="addr:city" v="München"/>
    <tag k="addr:country" v="DE"/>
    <tag k="addr:housename" v="Wohnhaus"/>
    <tag k="addr:housenumber" v="46"/>
    <tag k="addr:postcode" v="81479"/>
    <tag k="addr:street" v="Wilhelm-Leibl-Straße"/>
    <tag k="created_by" v="RambaZamba"/>
    <tag k="name" v="46"/>
    <tag k="source" v="survey"/>
  </node>
  <node id="409692981" version="2" timestamp="2009-06-07T21:18:03Z" uid="36809" user="pfoten_weg_!_" changeset="1453903" lat="48.0674051" lon="11.518533">
    <tag k="addr:city" v="München"/>
    <tag k="addr:country" v="DE"/>
    <tag k="addr:housename" v="Wohngebäude"/>
    <tag k="addr:housenumber" v="46"/>
    <tag k="addr:postcode" v="81479"/>
    <tag k="addr:street" v="Wilhelm-Leibl-Straße"/>
    <tag k="created_by" v="RambaZamba"/>
    <tag k="name" v="46"/>
    <tag k="source" v="survey"/>
  </node>
  <node id="409692981" version="3" timestamp="2009-06-08T18:15:37Z" uid="36809" user="pfoten_weg_!_" changeset="1461570" lat="48.0674051" lon="11.518533">
    <tag k="addr:city" v="München"/>
    <tag k="addr:country" v="DE"/>
    <tag k="addr:housename" v="Wohngebäude"/>
    <tag k="addr:housenumber" v="46"/>
    <tag k="addr:postcode" v="81479"/>
    <tag k="addr:street" v="Wilhelm-Leibl-Straße"/>
    <tag k="created_by" v="RambaZamba"/>
    <tag k="name" v="46"/>
    <tag k="source" v="survey"/>
  </node>
  <node id="409692982" version="1" timestamp="2009-05-22T13:40:56Z" uid="36809" user="pfoten_weg_!_" changeset="1286285" lat="48.0670511" lon="11.517951">
    <tag k="addr:city" v="München"/>
    <tag k="addr:country" v="DE"/>
    <tag k="addr:housename" v="Wohnhaus"/>
    <tag k="addr:housenumber" v="247"/>
    <tag k="addr:postcode" v="81479"/>
    <tag k="addr:street" v="Wolfratshauser Straße"/>
    <tag k="created_by" v="RambaZamba"/>
    <tag k="name" v="247"/>
    <tag k="source" v="survey"/>
  </node>
  <node id="409692982" version="2" timestamp="2009-06-07T21:18:03Z" uid="36809" user="pfoten_weg_!_" changeset="1453903" lat="48.0670511" lon="11.517951">
    <tag k="addr:city" v="München"/>
    <tag k="addr:country" v="DE"/>
    <tag k="addr:housename" v="Wohngebäude"/>
    <tag k="addr:housenumber" v="247"/>
    <tag k="addr:postcode" v="81479"/>
    <tag k="addr:street" v="Wolfratshauser Straße"/>
    <tag k="created_by" v="RambaZamba"/>
    <tag k="name" v="247"/>
    <tag k="source" v="survey"/>
  </node>
  <node id="409692982" version="3" timestamp="2009-06-08T18:15:37Z" uid="36809" user="pfoten_weg_!_" changeset="1461570" lat="48.0670511" lon="11.517951">
    <tag k="addr:city" v="München"/>
    <tag k="addr:country" v="DE"/>
    <tag k="addr:housename" v="Wohngebäude"/>
    <tag k="addr:housenumber" v="247"/>
    <tag k="addr:postcode" v="81479"/>
    <tag k="addr:street" v="Wolfratshauser Straße"/>
    <tag k="created_by" v="RambaZamba"/>
    <tag k="name" v="247"/>
    <tag k="source" v="survey"/>
  </node>
  <node id="409692983" version="1" timestamp="2009-05-22T13:40:56Z" uid="36809" user="pfoten_weg_!_" changeset="1286285" lat="48.0665741" lon="11.518988">
    <tag k="addr:city" v="Pullach i. Isartal"/>
    <tag k="addr:country" v="DE"/>
    <tag k="addr:housename" v="Wohnhaus"/>
    <tag k="addr:housenumber" v="000"/>
    <tag k="addr:postcode" v="82049"/>
    <tag k="addr:street" v="Münchner Straße"/>
    <tag k="created_by" v="RambaZamba"/>
    <tag k="name" v="65"/>
  </node>
  <node id="409692983" version="2" timestamp="2009-05-22T13:41:55Z" uid="36809" user="pfoten_weg_!_" changeset="1286295" lat="48.0665741" lon="11.518988">
    <tag k="addr:city" v="Pullach i. Isartal"/>
    <tag k="addr:country" v="DE"/>
    <tag k="addr:housename" v="Wohnhaus"/>
    <tag k="addr:housenumber" v="000"/>
    <tag k="addr:postcode" v="82049"/>
    <tag k="addr:street" v="Münchner Straße"/>
    <tag k="created_by" v="RambaZamba"/>
    <tag k="name" v="65"/>
  </node>
  <node id="409692984" version="1" timestamp="2009-05-22T13:40:56Z" uid="36809" user="pfoten_weg_!_" changeset="1286285" lat="48.0674051" lon="11.518533">
    <tag k="addr:city" v="München"/>
    <tag k="addr:country" v="DE"/>
    <tag k="addr:housename" v="Wohnhaus"/>
    <tag k="addr:housenumber" v="000"/>
    <tag k="addr:postcode" v="81479"/>
    <tag k="addr:street" v="STR"/>
    <tag k="created_by" v="RambaZamba"/>
    <tag k="name" v="46"/>
  </node>
  <node id="409692984" version="2" timestamp="2009-05-22T13:41:55Z" uid="36809" user="pfoten_weg_!_" changeset="1286295" lat="48.0674051" lon="11.518533">
    <tag k="addr:city" v="München"/>
    <tag k="addr:country" v="DE"/>
    <tag k="addr:housename" v="Wohnhaus"/>
    <tag k="addr:housenumber" v="000"/>
    <tag k="addr:postcode" v="81479"/>
    <tag k="addr:street" v="STR"/>
    <tag k="created_by" v="RambaZamba"/>
    <tag k="name" v="46"/>
  </node>
  <node id="409692985" version="1" timestamp="2009-05-22T13:40:56Z" uid="36809" user="pfoten_weg_!_" changeset="1286285" lat="48.0677009" lon="11.5180103">
    <tag k="addr:city" v="München"/>
    <tag k="addr:country" v="DE"/>
    <tag k="addr:housename" v="Kindertagesstätte Rasselbande GmbH"/>
    <tag k="addr:housenumber" v="40"/>
    <tag k="addr:postcode" v="81479"/>
    <tag k="addr:street" v="Wilhelm-Leibl-Straße"/>
    <tag k="created_by" v="RambaZamba"/>
    <tag k="name" v="40"/>
    <tag k="source" v="survey"/>
  </node>
  <node id="409692985" version="2" timestamp="2009-07-17T15:09:55Z" uid="36809" user="pfoten_weg_!_" changeset="1855298" lat="48.0677009" lon="11.5180103">
    <tag k="addr:city" v="München"/>
    <tag k="addr:country" v="DE"/>
    <tag k="addr:housename" v="Kindertagesstätte Rasselbande GmbH"/>
    <tag k="addr:housenumber" v="40"/>
    <tag k="addr:postcode" v="81479"/>
    <tag k="addr:street" v="Wilhelm-Leibl-Straße"/>
    <tag k="discovered_by" v="RambaZamba"/>
    <tag k="name" v="40"/>
    <tag k="source" v="survey"/>
  </node>
  <node id="409692985" version="4" timestamp="2009-08-25T23:49:30Z" uid="36809" user="pfoten_weg_!_" changeset="2262648" lat="48.0677009" lon="11.5180103">
    <tag k="addr:city" v="München"/>
    <tag k="addr:country" v="DE"/>
    <tag k="addr:housename" v="Kindertagesstätte Rasselbande GmbH"/>
    <tag k="addr:housenumber" v="40"/>
    <tag k="addr:postcode" v="81479"/>
    <tag k="addr:street" v="Wilhelm-Leibl-Straße"/>
    <tag k="name" v="40"/>
    <tag k="source" v="survey"/>
  </node>
  <node id="409692985" version="5" timestamp="2009-08-26T00:53:17Z" uid="36809" user="pfoten_weg_!_" changeset="2262879" lat="48.0677009" lon="11.5180103">
    <tag k="addr:city" v="München"/>
    <tag k="addr:country" v="DE"/>
    <tag k="addr:housename" v="Kindertagesstätte Rasselbande GmbH"/>
    <tag k="addr:housenumber" v="40"/>
    <tag k="addr:postcode" v="81479"/>
    <tag k="addr:street" v="Wilhelm-Leibl-Straße"/>
    <tag k="name" v="40"/>
    <tag k="source" v="survey"/>
  </node>
  <node id="409692985" version="6" timestamp="2009-10-02T20:47:35Z" uid="86259" user="hasse_osm_korinthenkacker" changeset="2717407" lat="48.0677009" lon="11.5180103">
    <tag k="addr:city" v="München"/>
    <tag k="addr:country" v="DE"/>
    <tag k="addr:housename" v="Kindertagesstätte Rasselbande GmbH"/>
    <tag k="addr:housenumber" v="40"/>
    <tag k="addr:postcode" v="81479"/>
    <tag k="addr:street" v="Wilhelm-Leibl-Straße"/>
    <tag k="name" v="40"/>
    <tag k="source" v="survey"/>
  </node>
  <node id="409692986" version="1" timestamp="2009-05-22T13:40:56Z" uid="36809" user="pfoten_weg_!_" changeset="1286285" lat="48.0670121" lon="11.517474">
    <tag k="addr:city" v="München"/>
    <tag k="addr:country" v="DE"/>
    <tag k="addr:housename" v="Wohnhaus"/>
    <tag k="addr:housenumber" v="000"/>
    <tag k="addr:postcode" v="81479"/>
    <tag k="addr:street" v="Wolfratshauser Straße"/>
    <tag k="created_by" v="RambaZamba"/>
    <tag k="name" v="249"/>
  </node>
  <node id="409692986" version="2" timestamp="2009-05-22T13:41:55Z" uid="36809" user="pfoten_weg_!_" changeset="1286295" lat="48.0670121" lon="11.517474">
    <tag k="addr:city" v="München"/>
    <tag k="addr:country" v="DE"/>
    <tag k="addr:housename" v="Wohnhaus"/>
    <tag k="addr:housenumber" v="000"/>
    <tag k="addr:postcode" v="81479"/>
    <tag k="addr:street" v="Wolfratshauser Straße"/>
    <tag k="created_by" v="RambaZamba"/>
    <tag k="name" v="249"/>
  </node>
  <node id="409692987" version="1" timestamp="2009-05-22T13:40:56Z" uid="36809" user="pfoten_weg_!_" changeset="1286285" lat="48.0668181" lon="11.518897">
    <tag k="addr:city" v="Pullach i. Isartal"/>
    <tag k="addr:country" v="DE"/>
    <tag k="addr:housename" v="Wohnhaus"/>
    <tag k="addr:housenumber" v="000"/>
    <tag k="addr:postcode" v="82049"/>
    <tag k="addr:street" v="Münchner Straße"/>
    <tag k="created_by" v="RambaZamba"/>
    <tag k="name" v="65A"/>
  </node>
  <node id="409692987" version="2" timestamp="2009-05-22T13:41:55Z" uid="36809" user="pfoten_weg_!_" changeset="1286295" lat="48.0668181" lon="11.518897">
    <tag k="addr:city" v="Pullach i. Isartal"/>
    <tag k="addr:country" v="DE"/>
    <tag k="addr:housename" v="Wohnhaus"/>
    <tag k="addr:housenumber" v="000"/>
    <tag k="addr:postcode" v="82049"/>
    <tag k="addr:street" v="Münchner Straße"/>
    <tag k="created_by" v="RambaZamba"/>
    <tag k="name" v="65A"/>
  </node>
  <node id="409692990" version="1" timestamp="2009-05-22T13:40:56Z" uid="36809" user="pfoten_weg_!_" changeset="1286285" lat="48.0668951" lon="11.518863">
    <tag k="addr:city" v="Pullach i. Isartal"/>
    <tag k="addr:country" v="DE"/>
    <tag k="addr:housename" v="Wohnhaus"/>
    <tag k="addr:housenumber" v="000"/>
    <tag k="addr:postcode" v="82049"/>
    <tag k="addr:street" v="Münchner Straße"/>
    <tag k="created_by" v="RambaZamba"/>
    <tag k="name" v="67"/>
  </node>
  <node id="409692990" version="2" timestamp="2009-05-22T13:41:55Z" uid="36809" user="pfoten_weg_!_" changeset="1286295" lat="48.0668951" lon="11.518863">
    <tag k="addr:city" v="Pullach i. Isartal"/>
    <tag k="addr:country" v="DE"/>
    <tag k="addr:housename" v="Wohnhaus"/>
    <tag k="addr:housenumber" v="000"/>
    <tag k="addr:postcode" v="82049"/>
    <tag k="addr:street" v="Münchner Straße"/>
    <tag k="created_by" v="RambaZamba"/>
    <tag k="name" v="67"/>
  </node>
  <node id="409692994" version="1" timestamp="2009-05-22T13:40:56Z" uid="36809" user="pfoten_weg_!_" changeset="1286285" lat="48.0668511" lon="11.51741">
    <tag k="addr:city" v="München"/>
    <tag k="addr:country" v="DE"/>
    <tag k="addr:housename" v="Wohnhaus"/>
    <tag k="addr:housenumber" v="000"/>
    <tag k="addr:postcode" v="81479"/>
    <tag k="addr:street" v="Wolfratshauser Straße"/>
    <tag k="created_by" v="RambaZamba"/>
    <tag k="name" v="251"/>
  </node>
  <node id="409692994" version="2" timestamp="2009-05-22T13:41:55Z" uid="36809" user="pfoten_weg_!_" changeset="1286295" lat="48.0668511" lon="11.51741">
    <tag k="addr:city" v="München"/>
    <tag k="addr:country" v="DE"/>
    <tag k="addr:housename" v="Wohnhaus"/>
    <tag k="addr:housenumber" v="000"/>
    <tag k="addr:postcode" v="81479"/>
    <tag k="addr:street" v="Wolfratshauser Straße"/>
    <tag k="created_by" v="RambaZamba"/>
    <tag k="name" v="251"/>
  </node>
  <node id="409692996" version="1" timestamp="2009-05-22T13:40:56Z" uid="36809" user="pfoten_weg_!_" changeset="1286285" lat="48.0675341" lon="11.517643">
    <tag k="addr:city" v="München"/>
    <tag k="addr:country" v="DE"/>
    <tag k="addr:housename" v="Wohnhaus"/>
    <tag k="addr:housenumber" v="000"/>
    <tag k="addr:postcode" v="81479"/>
    <tag k="addr:street" v="Wolfratshauser Straße"/>
    <tag k="created_by" v="RambaZamba"/>
    <tag k="name" v="243"/>
  </node>
  <node id="409692996" version="2" timestamp="2009-05-22T13:41:54Z" uid="36809" user="pfoten_weg_!_" changeset="1286295" lat="48.0675341" lon="11.517643">
    <tag k="addr:city" v="München"/>
    <tag k="addr:country" v="DE"/>
    <tag k="addr:housename" v="Wohnhaus"/>
    <tag k="addr:housenumber" v="000"/>
    <tag k="addr:postcode" v="81479"/>
    <tag k="addr:street" v="Wolfratshauser Straße"/>
    <tag k="created_by" v="RambaZamba"/>
    <tag k="name" v="243"/>
  </node>
  <node id="409692997" version="1" timestamp="2009-05-22T13:40:57Z" uid="36809" user="pfoten_weg_!_" changeset="1286285" lat="48.0675341" lon="11.517643">
    <tag k="addr:city" v="München"/>
    <tag k="addr:country" v="DE"/>
    <tag k="addr:housename" v="Wohnhaus"/>
    <tag k="addr:housenumber" v="243"/>
    <tag k="addr:postcode" v="81479"/>
    <tag k="addr:street" v="Wolfratshauser Straße"/>
    <tag k="created_by" v="RambaZamba"/>
    <tag k="name" v="243"/>
    <tag k="source" v="survey"/>
  </node>
  <node id="409692997" version="2" timestamp="2009-06-07T21:18:05Z" uid="36809" user="pfoten_weg_!_" changeset="1453903" lat="48.0675341" lon="11.517643">
    <tag k="addr:city" v="München"/>
    <tag k="addr:country" v="DE"/>
    <tag k="addr:housename" v="Wohngebäude"/>
    <tag k="addr:housenumber" v="243"/>
    <tag k="addr:postcode" v="81479"/>
    <tag k="addr:street" v="Wolfratshauser Straße"/>
    <tag k="created_by" v="RambaZamba"/>
    <tag k="name" v="243"/>
    <tag k="source" v="survey"/>
  </node>
  <node id="409692997" version="3" timestamp="2009-06-08T18:15:36Z" uid="36809" user="pfoten_weg_!_" changeset="1461570" lat="48.0675341" lon="11.517643">
    <tag k="addr:city" v="München"/>
    <tag k="addr:country" v="DE"/>
    <tag k="addr:housename" v="Wohngebäude"/>
    <tag k="addr:housenumber" v="243"/>
    <tag k="addr:postcode" v="81479"/>
    <tag k="addr:street" v="Wolfratshauser Straße"/>
    <tag k="created_by" v="RambaZamba"/>
    <tag k="name" v="243"/>
    <tag k="source" v="survey"/>
  </node>
  <node id="409692998" version="1" timestamp="2009-05-22T13:40:57Z" uid="36809" user="pfoten_weg_!_" changeset="1286285" lat="48.0670121" lon="11.517474">
    <tag k="addr:city" v="München"/>
    <tag k="addr:country" v="DE"/>
    <tag k="addr:housename" v="Wohnhaus"/>
    <tag k="addr:housenumber" v="249"/>
    <tag k="addr:postcode" v="81479"/>
    <tag k="addr:street" v="Wolfratshauser Straße"/>
    <tag k="created_by" v="RambaZamba"/>
    <tag k="name" v="249"/>
    <tag k="source" v="survey"/>
  </node>
  <node id="409692998" version="2" timestamp="2009-06-07T21:18:05Z" uid="36809" user="pfoten_weg_!_" changeset="1453903" lat="48.0670121" lon="11.517474">
    <tag k="addr:city" v="München"/>
    <tag k="addr:country" v="DE"/>
    <tag k="addr:housename" v="Wohngebäude"/>
    <tag k="addr:housenumber" v="249"/>
    <tag k="addr:postcode" v="81479"/>
    <tag k="addr:street" v="Wolfratshauser Straße"/>
    <tag k="created_by" v="RambaZamba"/>
    <tag k="name" v="249"/>
    <tag k="source" v="survey"/>
  </node>
  <node id="409692998" version="3" timestamp="2009-06-08T18:15:36Z" uid="36809" user="pfoten_weg_!_" changeset="1461570" lat="48.0670121" lon="11.517474">
    <tag k="addr:city" v="München"/>
    <tag k="addr:country" v="DE"/>
    <tag k="addr:housename" v="Wohngebäude"/>
    <tag k="addr:housenumber" v="249"/>
    <tag k="addr:postcode" v="81479"/>
    <tag k="addr:street" v="Wolfratshauser Straße"/>
    <tag k="created_by" v="RambaZamba"/>
    <tag k="name" v="249"/>
    <tag k="source" v="survey"/>
  </node>
  <node id="409692999" version="1" timestamp="2009-05-22T13:40:57Z" uid="36809" user="pfoten_weg_!_" changeset="1286285" lat="48.0673421" lon="11.517569">
    <tag k="addr:city" v="München"/>
    <tag k="addr:country" v="DE"/>
    <tag k="addr:housename" v="Wohnhaus"/>
    <tag k="addr:housenumber" v="245"/>
    <tag k="addr:postcode" v="81479"/>
    <tag k="addr:street" v="Wolfratshauser Straße"/>
    <tag k="created_by" v="RambaZamba"/>
    <tag k="name" v="245"/>
    <tag k="source" v="survey"/>
  </node>
  <node id="409692999" version="2" timestamp="2009-06-07T21:18:05Z" uid="36809" user="pfoten_weg_!_" changeset="1453903" lat="48.0673421" lon="11.517569">
    <tag k="addr:city" v="München"/>
    <tag k="addr:country" v="DE"/>
    <tag k="addr:housename" v="Wohngebäude"/>
    <tag k="addr:housenumber" v="245"/>
    <tag k="addr:postcode" v="81479"/>
    <tag k="addr:street" v="Wolfratshauser Straße"/>
    <tag k="created_by" v="RambaZamba"/>
    <tag k="name" v="245"/>
    <tag k="source" v="survey"/>
  </node>
  <node id="409692999" version="3" timestamp="2009-06-08T18:15:37Z" uid="36809" user="pfoten_weg_!_" changeset="1461570" lat="48.0673421" lon="11.517569">
    <tag k="addr:city" v="München"/>
    <tag k="addr:country" v="DE"/>
    <tag k="addr:housename" v="Wohngebäude"/>
    <tag k="addr:housenumber" v="245"/>
    <tag k="addr:postcode" v="81479"/>
    <tag k="addr:street" v="Wolfratshauser Straße"/>
    <tag k="created_by" v="RambaZamba"/>
    <tag k="name" v="245"/>
    <tag k="source" v="survey"/>
  </node>
  <node id="409693000" version="1" timestamp="2009-05-22T13:40:57Z" uid="36809" user="pfoten_weg_!_" changeset="1286285" lat="48.0668181" lon="11.518897">
    <tag k="addr:city" v="Pullach i. Isartal"/>
    <tag k="addr:country" v="DE"/>
    <tag k="addr:housename" v="Wohnhaus"/>
    <tag k="addr:housenumber" v="65A"/>
    <tag k="addr:postcode" v="82049"/>
    <tag k="addr:street" v="Münchner Straße"/>
    <tag k="created_by" v="RambaZamba"/>
    <tag k="name" v="65A"/>
    <tag k="source" v="survey"/>
  </node>
  <node id="409693000" version="2" timestamp="2009-06-07T21:18:04Z" uid="36809" user="pfoten_weg_!_" changeset="1453903" lat="48.0668181" lon="11.518897">
    <tag k="addr:city" v="Pullach i. Isartal"/>
    <tag k="addr:country" v="DE"/>
    <tag k="addr:housename" v="Wohngebäude"/>
    <tag k="addr:housenumber" v="65A"/>
    <tag k="addr:postcode" v="82049"/>
    <tag k="addr:street" v="Münchner Straße"/>
    <tag k="created_by" v="RambaZamba"/>
    <tag k="name" v="65A"/>
    <tag k="source" v="survey"/>
  </node>
  <node id="409693000" version="3" timestamp="2009-06-08T18:15:37Z" uid="36809" user="pfoten_weg_!_" changeset="1461570" lat="48.0668181" lon="11.518897">
    <tag k="addr:city" v="Pullach i. Isartal"/>
    <tag k="addr:country" v="DE"/>
    <tag k="addr:housename" v="Wohngebäude"/>
    <tag k="addr:housenumber" v="65A"/>
    <tag k="addr:postcode" v="82049"/>
    <tag k="addr:street" v="Münchner Straße"/>
    <tag k="created_by" v="RambaZamba"/>
    <tag k="name" v="65A"/>
    <tag k="source" v="survey"/>
  </node>
  <node id="409693001" version="1" timestamp="2009-05-22T13:40:57Z" uid="36809" user="pfoten_weg_!_" changeset="1286285" lat="48.0668951" lon="11.518863">
    <tag k="addr:city" v="Pullach i. Isartal"/>
    <tag k="addr:country" v="DE"/>
    <tag k="addr:housename" v="Wohnhaus"/>
    <tag k="addr:housenumber" v="67"/>
    <tag k="addr:postcode" v="82049"/>
    <tag k="addr:street" v="Münchner Straße"/>
    <tag k="created_by" v="RambaZamba"/>
    <tag k="name" v="67"/>
    <tag k="source" v="survey"/>
  </node>
  <node id="409693001" version="2" timestamp="2009-06-07T21:18:04Z" uid="36809" user="pfoten_weg_!_" changeset="1453903" lat="48.0668951" lon="11.518863">
    <tag k="addr:city" v="Pullach i. Isartal"/>
    <tag k="addr:country" v="DE"/>
    <tag k="addr:housename" v="Wohngebäude"/>
    <tag k="addr:housenumber" v="67"/>
    <tag k="addr:postcode" v="82049"/>
    <tag k="addr:street" v="Münchner Straße"/>
    <tag k="created_by" v="RambaZamba"/>
    <tag k="name" v="67"/>
    <tag k="source" v="survey"/>
  </node>
  <node id="409693001" version="3" timestamp="2009-06-08T18:15:37Z" uid="36809" user="pfoten_weg_!_" changeset="1461570" lat="48.0668951" lon="11.518863">
    <tag k="addr:city" v="Pullach i. Isartal"/>
    <tag k="addr:country" v="DE"/>
    <tag k="addr:housename" v="Wohngebäude"/>
    <tag k="addr:housenumber" v="67"/>
    <tag k="addr:postcode" v="82049"/>
    <tag k="addr:street" v="Münchner Straße"/>
    <tag k="created_by" v="RambaZamba"/>
    <tag k="name" v="67"/>
    <tag k="source" v="survey"/>
  </node>
  <node id="409693002" version="1" timestamp="2009-05-22T13:40:57Z" uid="36809" user="pfoten_weg_!_" changeset="1286285" lat="48.0673471" lon="11.518576">
    <tag k="addr:city" v="München"/>
    <tag k="addr:country" v="DE"/>
    <tag k="addr:housename" v="Wohnhaus"/>
    <tag k="addr:housenumber" v="48"/>
    <tag k="addr:postcode" v="81479"/>
    <tag k="addr:street" v="Wilhelm-Leibl-Straße"/>
    <tag k="created_by" v="RambaZamba"/>
    <tag k="name" v="48"/>
    <tag k="source" v="survey"/>
  </node>
  <node id="409693002" version="2" timestamp="2009-06-07T21:18:04Z" uid="36809" user="pfoten_weg_!_" changeset="1453903" lat="48.0673471" lon="11.518576">
    <tag k="addr:city" v="München"/>
    <tag k="addr:country" v="DE"/>
    <tag k="addr:housename" v="Wohngebäude"/>
    <tag k="addr:housenumber" v="48"/>
    <tag k="addr:postcode" v="81479"/>
    <tag k="addr:street" v="Wilhelm-Leibl-Straße"/>
    <tag k="created_by" v="RambaZamba"/>
    <tag k="name" v="48"/>
    <tag k="source" v="survey"/>
  </node>
  <node id="409693002" version="3" timestamp="2009-06-08T18:15:37Z" uid="36809" user="pfoten_weg_!_" changeset="1461570" lat="48.0673471" lon="11.518576">
    <tag k="addr:city" v="München"/>
    <tag k="addr:country" v="DE"/>
    <tag k="addr:housename" v="Wohngebäude"/>
    <tag k="addr:housenumber" v="48"/>
    <tag k="addr:postcode" v="81479"/>
    <tag k="addr:street" v="Wilhelm-Leibl-Straße"/>
    <tag k="created_by" v="RambaZamba"/>
    <tag k="name" v="48"/>
    <tag k="source" v="survey"/>
  </node>
  <node id="409693003" version="1" timestamp="2009-05-22T13:40:57Z" uid="36809" user="pfoten_weg_!_" changeset="1286285" lat="48.0671681" lon="11.518618">
    <tag k="addr:city" v="München"/>
    <tag k="addr:country" v="DE"/>
    <tag k="addr:housename" v="Wohnhaus"/>
    <tag k="addr:housenumber" v="50"/>
    <tag k="addr:postcode" v="81479"/>
    <tag k="addr:street" v="Wilhelm-Leibl-Straße"/>
    <tag k="created_by" v="RambaZamba"/>
    <tag k="name" v="50"/>
    <tag k="source" v="survey"/>
  </node>
  <node id="409693003" version="2" timestamp="2009-06-07T21:18:04Z" uid="36809" user="pfoten_weg_!_" changeset="1453903" lat="48.0671681" lon="11.518618">
    <tag k="addr:city" v="München"/>
    <tag k="addr:country" v="DE"/>
    <tag k="addr:housename" v="Wohngebäude"/>
    <tag k="addr:housenumber" v="50"/>
    <tag k="addr:postcode" v="81479"/>
    <tag k="addr:street" v="Wilhelm-Leibl-Straße"/>
    <tag k="created_by" v="RambaZamba"/>
    <tag k="name" v="50"/>
    <tag k="source" v="survey"/>
  </node>
  <node id="409693003" version="3" timestamp="2009-06-08T18:15:37Z" uid="36809" user="pfoten_weg_!_" changeset="1461570" lat="48.0671681" lon="11.518618">
    <tag k="addr:city" v="München"/>
    <tag k="addr:country" v="DE"/>
    <tag k="addr:housename" v="Wohngebäude"/>
    <tag k="addr:housenumber" v="50"/>
    <tag k="addr:postcode" v="81479"/>
    <tag k="addr:street" v="Wilhelm-Leibl-Straße"/>
    <tag k="created_by" v="RambaZamba"/>
    <tag k="name" v="50"/>
    <tag k="source" v="survey"/>
  </node>
  <node id="409693004" version="1" timestamp="2009-05-22T13:40:57Z" uid="36809" user="pfoten_weg_!_" changeset="1286285" lat="48.0668511" lon="11.51741">
    <tag k="addr:city" v="München"/>
    <tag k="addr:country" v="DE"/>
    <tag k="addr:housename" v="Wohnhaus"/>
    <tag k="addr:housenumber" v="251"/>
    <tag k="addr:postcode" v="81479"/>
    <tag k="addr:street" v="Wolfratshauser Straße"/>
    <tag k="created_by" v="RambaZamba"/>
    <tag k="name" v="251"/>
    <tag k="source" v="survey"/>
  </node>
  <node id="409693004" version="2" timestamp="2009-06-07T21:18:04Z" uid="36809" user="pfoten_weg_!_" changeset="1453903" lat="48.0668511" lon="11.51741">
    <tag k="addr:city" v="München"/>
    <tag k="addr:country" v="DE"/>
    <tag k="addr:housename" v="Wohngebäude"/>
    <tag k="addr:housenumber" v="251"/>
    <tag k="addr:postcode" v="81479"/>
    <tag k="addr:street" v="Wolfratshauser Straße"/>
    <tag k="created_by" v="RambaZamba"/>
    <tag k="name" v="251"/>
    <tag k="source" v="survey"/>
  </node>
  <node id="409693004" version="3" timestamp="2009-06-08T18:15:37Z" uid="36809" user="pfoten_weg_!_" changeset="1461570" lat="48.0668511" lon="11.51741">
    <tag k="addr:city" v="München"/>
    <tag k="addr:country" v="DE"/>
    <tag k="addr:housename" v="Wohngebäude"/>
    <tag k="addr:housenumber" v="251"/>
    <tag k="addr:postcode" v="81479"/>
    <tag k="addr:street" v="Wolfratshauser Straße"/>
    <tag k="created_by" v="RambaZamba"/>
    <tag k="name" v="251"/>
    <tag k="source" v="survey"/>
  </node>
  <node id="409693005" version="1" timestamp="2009-05-22T13:40:57Z" uid="36809" user="pfoten_weg_!_" changeset="1286285" lat="48.0665741" lon="11.518988">
    <tag k="addr:city" v="Pullach i. Isartal"/>
    <tag k="addr:country" v="DE"/>
    <tag k="addr:housename" v="Wohnhaus"/>
    <tag k="addr:housenumber" v="65"/>
    <tag k="addr:postcode" v="82049"/>
    <tag k="addr:street" v="Münchner Straße"/>
    <tag k="created_by" v="RambaZamba"/>
    <tag k="name" v="65"/>
    <tag k="source" v="survey"/>
  </node>
  <node id="409693005" version="2" timestamp="2009-06-07T21:18:03Z" uid="36809" user="pfoten_weg_!_" changeset="1453903" lat="48.0665741" lon="11.518988">
    <tag k="addr:city" v="Pullach i. Isartal"/>
    <tag k="addr:country" v="DE"/>
    <tag k="addr:housename" v="Wohngebäude"/>
    <tag k="addr:housenumber" v="65"/>
    <tag k="addr:postcode" v="82049"/>
    <tag k="addr:street" v="Münchner Straße"/>
    <tag k="created_by" v="RambaZamba"/>
    <tag k="name" v="65"/>
    <tag k="source" v="survey"/>
  </node>
  <node id="409693005" version="3" timestamp="2009-06-08T18:15:37Z" uid="36809" user="pfoten_weg_!_" changeset="1461570" lat="48.0665741" lon="11.518988">
    <tag k="addr:city" v="Pullach i. Isartal"/>
    <tag k="addr:country" v="DE"/>
    <tag k="addr:housename" v="Wohngebäude"/>
    <tag k="addr:housenumber" v="65"/>
    <tag k="addr:postcode" v="82049"/>
    <tag k="addr:street" v="Münchner Straße"/>
    <tag k="created_by" v="RambaZamba"/>
    <tag k="name" v="65"/>
    <tag k="source" v="survey"/>
  </node>
  <node id="409693008" version="1" timestamp="2009-05-22T13:40:57Z" uid="36809" user="pfoten_weg_!_" changeset="1286285" lat="48.0670511" lon="11.517951">
    <tag k="addr:city" v="München"/>
    <tag k="addr:country" v="DE"/>
    <tag k="addr:housename" v="Wohnhaus"/>
    <tag k="addr:housenumber" v="000"/>
    <tag k="addr:postcode" v="81479"/>
    <tag k="addr:street" v="Wolfratshauser Straße"/>
    <tag k="created_by" v="RambaZamba"/>
    <tag k="name" v="247"/>
  </node>
  <node id="409693008" version="2" timestamp="2009-05-22T13:41:54Z" uid="36809" user="pfoten_weg_!_" changeset="1286295" lat="48.0670511" lon="11.517951">
    <tag k="addr:city" v="München"/>
    <tag k="addr:country" v="DE"/>
    <tag k="addr:housename" v="Wohnhaus"/>
    <tag k="addr:housenumber" v="000"/>
    <tag k="addr:postcode" v="81479"/>
    <tag k="addr:street" v="Wolfratshauser Straße"/>
    <tag k="created_by" v="RambaZamba"/>
    <tag k="name" v="247"/>
  </node>
  <node id="409693011" version="1" timestamp="2009-05-22T13:40:57Z" uid="36809" user="pfoten_weg_!_" changeset="1286285" lat="48.0671681" lon="11.518618">
    <tag k="addr:city" v="München"/>
    <tag k="addr:country" v="DE"/>
    <tag k="addr:housename" v="Wohnhaus"/>
    <tag k="addr:housenumber" v="000"/>
    <tag k="addr:postcode" v="81479"/>
    <tag k="addr:street" v="STR"/>
    <tag k="created_by" v="RambaZamba"/>
    <tag k="name" v="50"/>
  </node>
  <node id="409693011" version="2" timestamp="2009-05-22T13:41:54Z" uid="36809" user="pfoten_weg_!_" changeset="1286295" lat="48.0671681" lon="11.518618">
    <tag k="addr:city" v="München"/>
    <tag k="addr:country" v="DE"/>
    <tag k="addr:housename" v="Wohnhaus"/>
    <tag k="addr:housenumber" v="000"/>
    <tag k="addr:postcode" v="81479"/>
    <tag k="addr:street" v="STR"/>
    <tag k="created_by" v="RambaZamba"/>
    <tag k="name" v="50"/>
  </node>
  <node id="409693014" version="1" timestamp="2009-05-22T13:40:57Z" uid="36809" user="pfoten_weg_!_" changeset="1286285" lat="48.0673471" lon="11.518576">
    <tag k="addr:city" v="München"/>
    <tag k="addr:country" v="DE"/>
    <tag k="addr:housename" v="Wohnhaus"/>
    <tag k="addr:housenumber" v="000"/>
    <tag k="addr:postcode" v="81479"/>
    <tag k="addr:street" v="STR"/>
    <tag k="created_by" v="RambaZamba"/>
    <tag k="name" v="48"/>
  </node>
  <node id="409693014" version="2" timestamp="2009-05-22T13:41:54Z" uid="36809" user="pfoten_weg_!_" changeset="1286295" lat="48.0673471" lon="11.518576">
    <tag k="addr:city" v="München"/>
    <tag k="addr:country" v="DE"/>
    <tag k="addr:housename" v="Wohnhaus"/>
    <tag k="addr:housenumber" v="000"/>
    <tag k="addr:postcode" v="81479"/>
    <tag k="addr:street" v="STR"/>
    <tag k="created_by" v="RambaZamba"/>
    <tag k="name" v="48"/>
  </node>
  <node id="409696550" version="2" timestamp="2011-03-21T19:02:01Z" uid="9581" user="Lobelt" changeset="7630578" lat="49.7368957" lon="8.5790463"/>
  <node id="409698876" version="2" timestamp="2010-06-17T16:39:29Z" uid="115477" user="wowik" changeset="5009908" lat="54.9332365" lon="20.4071498"/>
  <node id="409698878" version="2" timestamp="2010-06-17T16:39:29Z" uid="115477" user="wowik" changeset="5009908" lat="54.9328297" lon="20.4030085"/>
  <node id="409698879" version="2" timestamp="2010-06-17T16:39:29Z" uid="115477" user="wowik" changeset="5009908" lat="54.9338899" lon="20.4024721"/>
  <node id="409698880" version="2" timestamp="2010-06-17T16:39:29Z" uid="115477" user="wowik" changeset="5009908" lat="54.9358007" lon="20.4048539"/>
  <node id="409698881" version="2" timestamp="2010-06-17T16:39:29Z" uid="115477" user="wowik" changeset="5009908" lat="54.9361459" lon="20.4059053"/>
  <node id="409698882" version="2" timestamp="2010-06-17T16:39:29Z" uid="115477" user="wowik" changeset="5009908" lat="54.9362445" lon="20.4064847"/>
  <node id="409698883" version="2" timestamp="2010-06-17T16:39:29Z" uid="115477" user="wowik" changeset="5009908" lat="54.9363678" lon="20.407343"/>
  <node id="409698884" version="2" timestamp="2010-06-17T16:39:30Z" uid="115477" user="wowik" changeset="5009908" lat="54.9355911" lon="20.407858"/>
  <node id="409698885" version="2" timestamp="2010-06-17T16:39:30Z" uid="115477" user="wowik" changeset="5009908" lat="54.9350364" lon="20.4083944"/>
  <node id="409698891" version="2" timestamp="2010-06-17T16:39:25Z" uid="115477" user="wowik" changeset="5009908" lat="54.9324845" lon="20.4071498"/>
  <node id="409698894" version="2" timestamp="2010-06-17T16:39:31Z" uid="115477" user="wowik" changeset="5009908" lat="54.93525" lon="20.40425"/>
  <node id="409698895" version="2" timestamp="2010-06-17T16:39:31Z" uid="115477" user="wowik" changeset="5009908" lat="54.93475" lon="20.40275"/>
  <node id="409698896" version="2" timestamp="2010-06-17T16:39:31Z" uid="115477" user="wowik" changeset="5009908" lat="54.935" lon="20.4025"/>
  <node id="409698897" version="2" timestamp="2010-06-17T16:39:31Z" uid="115477" user="wowik" changeset="5009908" lat="54.93525" lon="20.40275"/>
  <node id="409698917" version="2" timestamp="2010-08-09T15:35:49Z" uid="115477" user="wowik" changeset="5445037" lat="54.8870622" lon="20.3995951"/>
  <node id="409698918" version="2" timestamp="2010-08-09T15:35:49Z" uid="115477" user="wowik" changeset="5445037" lat="54.8863155" lon="20.4006787"/>
  <node id="409698920" version="2" timestamp="2010-08-09T15:35:49Z" uid="115477" user="wowik" changeset="5445037" lat="54.8851738" lon="20.400389"/>
  <node id="409698921" version="2" timestamp="2010-08-09T15:35:49Z" uid="115477" user="wowik" changeset="5445037" lat="54.8849084" lon="20.3996809"/>
  <node id="409698922" version="2" timestamp="2010-08-09T15:35:49Z" uid="115477" user="wowik" changeset="5445037" lat="54.884896" lon="20.3988441"/>
  <node id="409698924" version="2" timestamp="2010-08-09T15:35:49Z" uid="115477" user="wowik" changeset="5445037" lat="54.8862291" lon="20.3976424"/>
  <node id="409698925" version="2" timestamp="2010-08-09T15:35:49Z" uid="115477" user="wowik" changeset="5445037" lat="54.8865006" lon="20.397739"/>
  <node id="409698926" version="2" timestamp="2010-08-09T15:35:49Z" uid="115477" user="wowik" changeset="5445037" lat="54.8862969" lon="20.3959473"/>
  <node id="409698927" version="2" timestamp="2010-08-09T15:35:50Z" uid="115477" user="wowik" changeset="5445037" lat="54.8869943" lon="20.3953679"/>
  <node id="409698928" version="2" timestamp="2010-08-09T15:35:50Z" uid="115477" user="wowik" changeset="5445037" lat="54.8885864" lon="20.3952499"/>
  <node id="409698929" version="2" timestamp="2010-08-09T15:35:50Z" uid="115477" user="wowik" changeset="5445037" lat="54.8886666" lon="20.3989513"/>
  <node id="409698931" version="2" timestamp="2010-08-11T15:56:41Z" uid="115477" user="wowik" changeset="5464179" lat="54.8958306" lon="20.2690859"/>
  <node id="409698932" version="2" timestamp="2010-08-11T15:56:49Z" uid="115477" user="wowik" changeset="5464179" lat="54.8937445" lon="20.2705268"/>
  <node id="409698933" version="2" timestamp="2010-08-11T15:56:56Z" uid="115477" user="wowik" changeset="5464179" lat="54.8937416" lon="20.2692578"/>
  <node id="409698934" version="2" timestamp="2010-08-11T15:56:43Z" uid="115477" user="wowik" changeset="5464179" lat="54.8944082" lon="20.2689174"/>
  <node id="409698948" version="2" timestamp="2010-08-11T15:56:57Z" uid="115477" user="wowik" changeset="5464179" lat="54.89125" lon="20.27125"/>
  <node id="409698949" version="2" timestamp="2010-08-11T15:56:57Z" uid="115477" user="wowik" changeset="5464179" lat="54.89125" lon="20.26925"/>
  <node id="409698950" version="2" timestamp="2010-08-11T15:56:57Z" uid="115477" user="wowik" changeset="5464179" lat="54.893" lon="20.27025"/>
  <node id="409698951" version="2" timestamp="2010-08-11T15:56:57Z" uid="115477" user="wowik" changeset="5464179" lat="54.89375" lon="20.26925"/>
  <node id="409698952" version="2" timestamp="2010-08-11T15:56:57Z" uid="115477" user="wowik" changeset="5464179" lat="54.89375" lon="20.271"/>
  <node id="409698953" version="2" timestamp="2010-08-11T15:56:57Z" uid="115477" user="wowik" changeset="5464179" lat="54.89275" lon="20.27075"/>
  <node id="409698972" version="2" timestamp="2010-08-11T15:56:54Z" uid="115477" user="wowik" changeset="5464179" lat="54.8812231" lon="20.2774946"/>
  <node id="409698974" version="2" timestamp="2010-08-11T15:56:49Z" uid="115477" user="wowik" changeset="5464179" lat="54.8815565" lon="20.2792795"/>
  <node id="409698995" version="3" timestamp="2010-08-11T17:15:02Z" uid="115477" user="wowik" changeset="5464781" lat="54.9387334" lon="20.2164207"/>
  <node id="409698995" version="4" timestamp="2010-09-22T14:06:58Z" uid="115477" user="wowik" changeset="5845865" lat="54.9385842" lon="20.216438"/>
  <node id="409698995" version="5" timestamp="2011-04-29T17:48:01Z" uid="115477" user="wowik" changeset="8005347" lat="54.9386747" lon="20.216438"/>
  <node id="409698998" version="3" timestamp="2010-08-11T17:15:01Z" uid="115477" user="wowik" changeset="5464781" lat="54.9382687" lon="20.2112691"/>
  <node id="409698998" version="4" timestamp="2010-09-22T14:06:56Z" uid="115477" user="wowik" changeset="5845865" lat="54.9381195" lon="20.2112864"/>
  <node id="409698998" version="5" timestamp="2011-04-29T17:47:44Z" uid="115477" user="wowik" changeset="8005347" lat="54.93821" lon="20.2112864"/>
  <node id="409698999" version="3" timestamp="2010-08-11T17:15:03Z" uid="115477" user="wowik" changeset="5464781" lat="54.9389472" lon="20.2071714"/>
  <node id="409698999" version="4" timestamp="2010-09-22T14:06:58Z" uid="115477" user="wowik" changeset="5845865" lat="54.938798" lon="20.2071887"/>
  <node id="409698999" version="5" timestamp="2011-04-29T17:48:06Z" uid="115477" user="wowik" changeset="8005347" lat="54.9388885" lon="20.2071887"/>
  <node id="409699001" version="3" timestamp="2010-08-11T17:15:03Z" uid="115477" user="wowik" changeset="5464781" lat="54.939589" lon="20.2050939"/>
  <node id="409699001" version="4" timestamp="2010-09-22T14:06:58Z" uid="115477" user="wowik" changeset="5845865" lat="54.9394398" lon="20.2051112"/>
  <node id="409699001" version="5" timestamp="2011-04-29T17:47:37Z" uid="115477" user="wowik" changeset="8005347" lat="54.9395303" lon="20.2051112"/>
  <node id="409699002" version="2" timestamp="2010-08-11T17:15:01Z" uid="115477" user="wowik" changeset="5464781" lat="54.9396622" lon="20.2062674"/>
  <node id="409699002" version="3" timestamp="2010-09-22T14:06:58Z" uid="115477" user="wowik" changeset="5845865" lat="54.9395131" lon="20.2062847"/>
  <node id="409699002" version="4" timestamp="2011-04-29T17:48:03Z" uid="115477" user="wowik" changeset="8005347" lat="54.9396036" lon="20.2062847"/>
  <node id="409699004" version="2" timestamp="2010-08-11T17:15:01Z" uid="115477" user="wowik" changeset="5464781" lat="54.9391817" lon="20.2098771"/>
  <node id="409699004" version="3" timestamp="2010-09-22T14:06:57Z" uid="115477" user="wowik" changeset="5845865" lat="54.9390325" lon="20.2098944"/>
  <node id="409699004" version="4" timestamp="2011-04-29T17:47:35Z" uid="115477" user="wowik" changeset="8005347" lat="54.939123" lon="20.2098944"/>
  <node id="409699057" version="2" timestamp="2010-07-23T14:50:34Z" uid="115477" user="wowik" changeset="5296212" lat="54.90125" lon="20.0874828"/>
  <node id="409699058" version="2" timestamp="2010-07-23T14:50:22Z" uid="115477" user="wowik" changeset="5296212" lat="54.9001062" lon="20.0891018"/>
  <node id="409699060" version="2" timestamp="2010-07-23T14:50:33Z" uid="115477" user="wowik" changeset="5296212" lat="54.8999303" lon="20.0888146"/>
  <node id="409699066" version="2" timestamp="2010-07-23T14:50:34Z" uid="115477" user="wowik" changeset="5296212" lat="54.9044303" lon="20.0859027"/>
  <node id="409699068" version="2" timestamp="2010-07-23T14:50:28Z" uid="115477" user="wowik" changeset="5296212" lat="54.9042571" lon="20.0873187"/>
  <node id="409699069" version="2" timestamp="2010-07-23T14:50:33Z" uid="115477" user="wowik" changeset="5296212" lat="54.9030439" lon="20.087166"/>
  <node id="409699071" version="2" timestamp="2010-07-23T14:50:23Z" uid="115477" user="wowik" changeset="5296212" lat="54.8949177" lon="20.0987081"/>
  <node id="409699072" version="2" timestamp="2010-07-23T14:50:23Z" uid="115477" user="wowik" changeset="5296212" lat="54.8932768" lon="20.0974443"/>
  <node id="409699075" version="2" timestamp="2010-07-23T14:50:34Z" uid="115477" user="wowik" changeset="5296212" lat="54.8910506" lon="20.0984845"/>
  <node id="409699077" version="2" timestamp="2010-07-23T14:50:28Z" uid="115477" user="wowik" changeset="5296212" lat="54.8905843" lon="20.098504"/>
  <node id="409699078" version="2" timestamp="2010-07-23T14:50:33Z" uid="115477" user="wowik" changeset="5296212" lat="54.8902696" lon="20.097377"/>
  <node id="409699079" version="2" timestamp="2010-07-23T14:50:20Z" uid="115477" user="wowik" changeset="5296212" lat="54.8915983" lon="20.0960489"/>
  <node id="409699081" version="2" timestamp="2010-07-23T14:50:23Z" uid="115477" user="wowik" changeset="5296212" lat="54.8918314" lon="20.09525"/>
  <node id="409699084" version="2" timestamp="2010-07-23T14:50:22Z" uid="115477" user="wowik" changeset="5296212" lat="54.894" lon="20.0925839"/>
  <node id="409699086" version="2" timestamp="2010-07-23T14:50:30Z" uid="115477" user="wowik" changeset="5296212" lat="54.8945" lon="20.091873"/>
  <node id="409699089" version="2" timestamp="2010-07-23T14:50:21Z" uid="115477" user="wowik" changeset="5296212" lat="54.8958399" lon="20.092127"/>
  <node id="409699090" version="2" timestamp="2010-07-23T14:50:24Z" uid="115477" user="wowik" changeset="5296212" lat="54.8962023" lon="20.0919235"/>
  <node id="409699091" version="2" timestamp="2010-07-23T14:50:28Z" uid="115477" user="wowik" changeset="5296212" lat="54.897" lon="20.0903144"/>
  <node id="409699092" version="2" timestamp="2010-07-23T14:50:34Z" uid="115477" user="wowik" changeset="5296212" lat="54.8990844" lon="20.0891028"/>
  <node id="409699093" version="2" timestamp="2010-07-23T14:50:22Z" uid="115477" user="wowik" changeset="5296212" lat="54.8994214" lon="20.0895017"/>
  <node id="409699095" version="2" timestamp="2010-07-23T14:50:30Z" uid="115477" user="wowik" changeset="5296212" lat="54.8994045" lon="20.0907517"/>
  <node id="409699096" version="2" timestamp="2010-07-23T14:50:33Z" uid="115477" user="wowik" changeset="5296212" lat="54.8992893" lon="20.0929535"/>
  <node id="409699098" version="2" timestamp="2010-07-23T14:50:22Z" uid="115477" user="wowik" changeset="5296212" lat="54.899368" lon="20.093473"/>
  <node id="409699099" version="2" timestamp="2010-07-23T14:50:24Z" uid="115477" user="wowik" changeset="5296212" lat="54.898941" lon="20.0939299"/>
  <node id="409699101" version="2" timestamp="2010-07-23T14:50:35Z" uid="115477" user="wowik" changeset="5296212" lat="54.8981882" lon="20.0934356"/>
  <node id="409699102" version="2" timestamp="2010-07-23T14:50:23Z" uid="115477" user="wowik" changeset="5296212" lat="54.8971011" lon="20.0955684"/>
  <node id="409699103" version="2" timestamp="2010-07-23T14:50:27Z" uid="115477" user="wowik" changeset="5296212" lat="54.8966602" lon="20.0959161"/>
  <node id="409699104" version="2" timestamp="2010-07-23T14:50:28Z" uid="115477" user="wowik" changeset="5296212" lat="54.8959707" lon="20.0962129"/>
  <node id="409699105" version="2" timestamp="2010-07-23T14:50:33Z" uid="115477" user="wowik" changeset="5296212" lat="54.8956826" lon="20.0969178"/>
  <node id="409699106" version="2" timestamp="2010-07-23T14:50:34Z" uid="115477" user="wowik" changeset="5296212" lat="54.8961157" lon="20.0980746"/>
  <node id="409699108" version="2" timestamp="2010-07-23T14:50:28Z" uid="115477" user="wowik" changeset="5296212" lat="54.8967248" lon="20.0995391"/>
  <node id="409699171" version="2" timestamp="2010-08-11T15:56:57Z" uid="115477" user="wowik" changeset="5464179" lat="54.8943927" lon="20.2696026"/>
</osm>
