<?xml version='1.0' encoding='UTF-8'?>
<osm version="0.6" generator="libosmium/2.20.0">
  <node id="409820587" version="2" timestamp="2010-06-29T20:46:23Z" uid="74617" user="JohnSmith" changeset="5109183" lat="55.603971" lon="-2.4362265">
    <tag k="fixme" v="sport=rugby is ambiguous, see http://wiki.osm.org/wiki/Tag:sport%3Drugby for more details"/>
    <tag k="leisure" v="stadium"/>
    <tag k="name" v="Kelso RFC"/>
    <tag k="sport" v="rugby"/>
  </node>
  <node id="409820852" version="1" timestamp="2009-05-22T19:56:10Z" uid="59758" user="rendle" changeset="1289900" lat="51.0326232" lon="4.0331064">
    <tag k="historic" v="memorial"/>
    <tag k="name" v="Kruis van Weesp"/>
  </node>
  <node id="409820852" version="2" timestamp="2009-11-11T18:20:16Z" uid="59758" user="rendle" changeset="3092381" lat="51.0326004" lon="4.0330719">
    <tag k="historic" v="memorial"/>
    <tag k="name" v="Kruis van Weesp"/>
  </node>
  <node id="409820852" version="3" timestamp="2009-11-11T19:23:31Z" uid="59758" user="rendle" changeset="3092817" lat="51.0326174" lon="4.0330394">
    <tag k="historic" v="memorial"/>
    <tag k="name" v="Kruis van de Weepse"/>
  </node>
  <node id="409820917" version="1" timestamp="2009-05-22T19:56:43Z" uid="59758" user="rendle" changeset="1289900" lat="51.0297677" lon="4.0247379"/>
  <node id="409820919" version="1" timestamp="2009-05-22T19:56:43Z" uid="59758" user="rendle" changeset="1289900" lat="51.02996" lon="4.024472"/>
  <node id="409820920" version="1" timestamp="2009-05-22T19:56:43Z" uid="59758" user="rendle" changeset="1289900" lat="51.030282" lon="4.023936"/>
  <node id="409821379" version="1" timestamp="2009-05-22T19:57:04Z" uid="59758" user="rendle" changeset="1289900" lat="51.0303347" lon="4.0238273"/>
  <node id="409821380" version="1" timestamp="2009-05-22T19:57:04Z" uid="59758" user="rendle" changeset="1289900" lat="51.0296855" lon="4.02486"/>
  <node id="409821381" version="1" timestamp="2009-05-22T19:57:20Z" uid="59758" user="rendle" changeset="1289900" lat="51.028275" lon="4.020138"/>
  <node id="409821382" version="1" timestamp="2009-05-22T19:57:20Z" uid="59758" user="rendle" changeset="1289900" lat="51.028029" lon="4.019666"/>
  <node id="409821575" version="1" timestamp="2009-05-22T19:57:56Z" uid="59758" user="rendle" changeset="1289900" lat="51.0279023" lon="4.0214967"/>
  <node id="409821576" version="1" timestamp="2009-05-22T19:57:56Z" uid="59758" user="rendle" changeset="1289900" lat="51.0280295" lon="4.0213562"/>
  <node id="409821577" version="1" timestamp="2009-05-22T19:57:56Z" uid="59758" user="rendle" changeset="1289900" lat="51.028436" lon="4.020867"/>
  <node id="409822895" version="1" timestamp="2009-05-22T19:59:42Z" uid="59758" user="rendle" changeset="1289900" lat="51.025375" lon="4.0098351">
    <tag k="highway" v="bus_stop"/>
    <tag k="name" v="Stroming"/>
  </node>
  <node id="409826109" version="1" timestamp="2009-05-22T20:02:03Z" uid="59758" user="rendle" changeset="1289900" lat="51.0254196" lon="4.0103726"/>
  <node id="409826114" version="1" timestamp="2009-05-22T20:02:03Z" uid="59758" user="rendle" changeset="1289900" lat="51.025507" lon="4.010353"/>
  <node id="409826118" version="1" timestamp="2009-05-22T20:02:03Z" uid="59758" user="rendle" changeset="1289900" lat="51.0256758" lon="4.0103269"/>
  <node id="409826122" version="1" timestamp="2009-05-22T20:02:03Z" uid="59758" user="rendle" changeset="1289900" lat="51.0257622" lon="4.0101982"/>
  <node id="409826125" version="1" timestamp="2009-05-22T20:02:03Z" uid="59758" user="rendle" changeset="1289900" lat="51.026001" lon="4.010139"/>
  <node id="409826125" version="2" timestamp="2009-05-30T21:17:19Z" uid="59758" user="rendle" changeset="1363787" lat="51.0259986" lon="4.0101125"/>
  <node id="409826128" version="1" timestamp="2009-05-22T20:02:03Z" uid="59758" user="rendle" changeset="1289900" lat="51.0260699" lon="4.009975"/>
  <node id="409826131" version="1" timestamp="2009-05-22T20:02:03Z" uid="59758" user="rendle" changeset="1289900" lat="51.026355" lon="4.009902"/>
  <node id="409826136" version="1" timestamp="2009-05-22T20:02:04Z" uid="59758" user="rendle" changeset="1289900" lat="51.026409" lon="4.009838"/>
  <node id="409826136" version="2" timestamp="2009-05-30T21:21:22Z" uid="59758" user="rendle" changeset="1363787" lat="51.0264251" lon="4.0098721"/>
  <node id="409826141" version="1" timestamp="2009-05-22T20:02:04Z" uid="59758" user="rendle" changeset="1289900" lat="51.026419" lon="4.009752"/>
  <node id="409826151" version="1" timestamp="2009-05-22T20:02:04Z" uid="59758" user="rendle" changeset="1289900" lat="51.0263722" lon="4.0094085"/>
  <node id="409826151" version="2" timestamp="2009-05-30T21:20:11Z" uid="59758" user="rendle" changeset="1363787" lat="51.0263765" lon="4.0093657"/>
  <node id="409826156" version="1" timestamp="2009-05-22T20:02:04Z" uid="59758" user="rendle" changeset="1289900" lat="51.0262967" lon="4.0093227"/>
  <node id="409826159" version="1" timestamp="2009-05-22T20:02:04Z" uid="59758" user="rendle" changeset="1289900" lat="51.0260807" lon="4.0093485"/>
  <node id="409826162" version="1" timestamp="2009-05-22T20:02:04Z" uid="59758" user="rendle" changeset="1289900" lat="51.0259728" lon="4.0092369"/>
  <node id="409826166" version="1" timestamp="2009-05-22T20:02:04Z" uid="59758" user="rendle" changeset="1289900" lat="51.0254491" lon="4.0093399"/>
  <node id="409826170" version="1" timestamp="2009-05-22T20:02:04Z" uid="59758" user="rendle" changeset="1289900" lat="51.0253348" lon="4.0093509"/>
  <node id="409828678" version="2" timestamp="2010-05-01T20:36:07Z" uid="151899" user="Bikeman2000" changeset="4579158" lat="51.2014747" lon="6.7560687"/>
  <node id="409829321" version="3" timestamp="2009-08-26T10:47:51Z" uid="36809" user="pfoten_weg_!_" changeset="2265993" lat="48.1914663" lon="11.6122008">
    <tag k="addr:city" v="München"/>
    <tag k="addr:country" v="DE"/>
    <tag k="addr:housenumber" v="30"/>
    <tag k="addr:postcode" v="80939"/>
    <tag k="addr:street" v="Völckerstraße"/>
  </node>
  <node id="409829330" version="3" timestamp="2009-08-26T10:47:57Z" uid="36809" user="pfoten_weg_!_" changeset="2265993" lat="48.190062" lon="11.6128528">
    <tag k="addr:city" v="München"/>
    <tag k="addr:country" v="DE"/>
    <tag k="addr:housenumber" v="16"/>
    <tag k="addr:postcode" v="80939"/>
    <tag k="addr:street" v="Georg-Wopfner-Straße"/>
  </node>
  <node id="409829331" version="3" timestamp="2009-08-26T10:47:58Z" uid="36809" user="pfoten_weg_!_" changeset="2265993" lat="48.1901733" lon="11.6129095">
    <tag k="addr:city" v="München"/>
    <tag k="addr:country" v="DE"/>
    <tag k="addr:housenumber" v="18"/>
    <tag k="addr:postcode" v="80939"/>
    <tag k="addr:street" v="Georg-Wopfner-Straße"/>
  </node>
  <node id="409829332" version="3" timestamp="2009-08-26T10:47:58Z" uid="36809" user="pfoten_weg_!_" changeset="2265993" lat="48.1902946" lon="11.6129721">
    <tag k="addr:city" v="München"/>
    <tag k="addr:country" v="DE"/>
    <tag k="addr:housenumber" v="20"/>
    <tag k="addr:postcode" v="80939"/>
    <tag k="addr:street" v="Georg-Wopfner-Straße"/>
  </node>
  <node id="409829333" version="3" timestamp="2009-08-26T10:47:59Z" uid="36809" user="pfoten_weg_!_" changeset="2265993" lat="48.190408" lon="11.6130407">
    <tag k="addr:city" v="München"/>
    <tag k="addr:country" v="DE"/>
    <tag k="addr:housenumber" v="22"/>
    <tag k="addr:postcode" v="80939"/>
    <tag k="addr:street" v="Georg-Wopfner-Straße"/>
  </node>
  <node id="409829334" version="3" timestamp="2009-08-26T10:48:00Z" uid="36809" user="pfoten_weg_!_" changeset="2265993" lat="48.1905134" lon="11.6130885">
    <tag k="addr:city" v="München"/>
    <tag k="addr:country" v="DE"/>
    <tag k="addr:housenumber" v="24"/>
    <tag k="addr:postcode" v="80939"/>
    <tag k="addr:street" v="Georg-Wopfner-Straße"/>
  </node>
  <node id="409829335" version="3" timestamp="2009-08-26T10:48:00Z" uid="36809" user="pfoten_weg_!_" changeset="2265993" lat="48.1906207" lon="11.6131511">
    <tag k="addr:city" v="München"/>
    <tag k="addr:country" v="DE"/>
    <tag k="addr:housenumber" v="26"/>
    <tag k="addr:postcode" v="80939"/>
    <tag k="addr:street" v="Georg-Wopfner-Straße"/>
  </node>
  <node id="409829336" version="3" timestamp="2009-08-26T10:47:52Z" uid="36809" user="pfoten_weg_!_" changeset="2265993" lat="48.1907062" lon="11.6132018">
    <tag k="addr:city" v="München"/>
    <tag k="addr:country" v="DE"/>
    <tag k="addr:housenumber" v="28"/>
    <tag k="addr:postcode" v="80939"/>
    <tag k="addr:street" v="Georg-Wopfner-Straße"/>
  </node>
  <node id="409829337" version="3" timestamp="2009-08-26T10:47:53Z" uid="36809" user="pfoten_weg_!_" changeset="2265993" lat="48.1908216" lon="11.6132495">
    <tag k="addr:city" v="München"/>
    <tag k="addr:country" v="DE"/>
    <tag k="addr:housenumber" v="30"/>
    <tag k="addr:postcode" v="80939"/>
    <tag k="addr:street" v="Georg-Wopfner-Straße"/>
  </node>
  <node id="409829338" version="3" timestamp="2009-08-26T10:47:53Z" uid="36809" user="pfoten_weg_!_" changeset="2265993" lat="48.1912163" lon="11.6134854">
    <tag k="addr:city" v="München"/>
    <tag k="addr:country" v="DE"/>
    <tag k="addr:housenumber" v="32"/>
    <tag k="addr:postcode" v="80939"/>
    <tag k="addr:street" v="Georg-Wopfner-Straße"/>
  </node>
  <node id="409829339" version="3" timestamp="2009-08-26T10:47:54Z" uid="36809" user="pfoten_weg_!_" changeset="2265993" lat="48.19134" lon="11.6135432">
    <tag k="addr:city" v="München"/>
    <tag k="addr:country" v="DE"/>
    <tag k="addr:housenumber" v="34"/>
    <tag k="addr:postcode" v="80939"/>
    <tag k="addr:street" v="Georg-Wopfner-Straße"/>
  </node>
  <node id="409829340" version="3" timestamp="2009-08-26T10:47:54Z" uid="36809" user="pfoten_weg_!_" changeset="2265993" lat="48.1914517" lon="11.6136043">
    <tag k="addr:city" v="München"/>
    <tag k="addr:country" v="DE"/>
    <tag k="addr:housenumber" v="36"/>
    <tag k="addr:postcode" v="80939"/>
    <tag k="addr:street" v="Georg-Wopfner-Straße"/>
  </node>
  <node id="409829341" version="3" timestamp="2009-08-26T10:47:55Z" uid="36809" user="pfoten_weg_!_" changeset="2265993" lat="48.1915602" lon="11.6136634">
    <tag k="addr:city" v="München"/>
    <tag k="addr:country" v="DE"/>
    <tag k="addr:housenumber" v="38"/>
    <tag k="addr:postcode" v="80939"/>
    <tag k="addr:street" v="Georg-Wopfner-Straße"/>
  </node>
  <node id="409829342" version="3" timestamp="2009-08-26T10:47:56Z" uid="36809" user="pfoten_weg_!_" changeset="2265993" lat="48.1916785" lon="11.6137197">
    <tag k="addr:city" v="München"/>
    <tag k="addr:country" v="DE"/>
    <tag k="addr:housenumber" v="40"/>
    <tag k="addr:postcode" v="80939"/>
    <tag k="addr:street" v="Georg-Wopfner-Straße"/>
  </node>
  <node id="409829343" version="3" timestamp="2009-08-26T10:47:56Z" uid="36809" user="pfoten_weg_!_" changeset="2265993" lat="48.1917956" lon="11.6137832">
    <tag k="addr:city" v="München"/>
    <tag k="addr:country" v="DE"/>
    <tag k="addr:housenumber" v="42"/>
    <tag k="addr:postcode" v="80939"/>
    <tag k="addr:street" v="Georg-Wopfner-Straße"/>
  </node>
  <node id="409829344" version="3" timestamp="2009-08-26T10:47:51Z" uid="36809" user="pfoten_weg_!_" changeset="2265993" lat="48.1920152" lon="11.6138944">
    <tag k="addr:city" v="München"/>
    <tag k="addr:country" v="DE"/>
    <tag k="addr:housenumber" v="46"/>
    <tag k="addr:postcode" v="80939"/>
    <tag k="addr:street" v="Georg-Wopfner-Straße"/>
  </node>
  <node id="409829345" version="3" timestamp="2009-08-26T10:47:50Z" uid="36809" user="pfoten_weg_!_" changeset="2265993" lat="48.1919089" lon="11.6138381">
    <tag k="addr:city" v="München"/>
    <tag k="addr:country" v="DE"/>
    <tag k="addr:housenumber" v="44"/>
    <tag k="addr:postcode" v="80939"/>
    <tag k="addr:street" v="Georg-Wopfner-Straße"/>
  </node>
</osm>
