<?xml version='1.0' encoding='UTF-8'?>
<osm version="0.6" generator="libosmium/2.20.0">
  <node id="410262708" version="2" timestamp="2009-06-06T17:39:58Z" uid="9581" user="Lobelt" changeset="1440732" lat="50.9516029" lon="11.9266976"/>
  <node id="410262710" version="2" timestamp="2009-06-06T17:39:58Z" uid="9581" user="Lobelt" changeset="1440732" lat="50.9516973" lon="11.9267672"/>
  <node id="410263644" version="2" timestamp="2011-04-03T12:06:43Z" uid="6269" user="Mueck" changeset="7753307" lat="48.9991292" lon="8.4584752"/>
  <node id="410263647" version="2" timestamp="2011-04-03T12:06:40Z" uid="6269" user="Mueck" changeset="7753307" lat="48.9987335" lon="8.458399"/>
  <node id="410263648" version="2" timestamp="2011-04-03T12:06:37Z" uid="6269" user="Mueck" changeset="7753307" lat="48.9990379" lon="8.4582747">
    <tag k="addr:city" v="Karlsruhe"/>
    <tag k="addr:country" v="DE"/>
    <tag k="addr:housenumber" v="8"/>
    <tag k="addr:postcode" v="76227"/>
    <tag k="addr:street" v="Pfaffstraße"/>
  </node>
  <node id="410263651" version="2" timestamp="2011-04-03T12:06:38Z" uid="6269" user="Mueck" changeset="7753307" lat="48.9988541" lon="8.4582295">
    <tag k="addr:city" v="Karlsruhe"/>
    <tag k="addr:country" v="DE"/>
    <tag k="addr:housenumber" v="6"/>
    <tag k="addr:postcode" v="76227"/>
    <tag k="addr:street" v="Pfaffstraße"/>
  </node>
  <node id="410263653" version="2" timestamp="2011-04-03T12:06:44Z" uid="6269" user="Mueck" changeset="7753307" lat="48.9986513" lon="8.4581797">
    <tag k="addr:city" v="Karlsruhe"/>
    <tag k="addr:country" v="DE"/>
    <tag k="addr:housenumber" v="4"/>
    <tag k="addr:postcode" v="76227"/>
    <tag k="addr:street" v="Pfaffstraße"/>
  </node>
  <node id="410263654" version="2" timestamp="2011-04-03T12:06:37Z" uid="6269" user="Mueck" changeset="7753307" lat="48.9984531" lon="8.4581309">
    <tag k="addr:city" v="Karlsruhe"/>
    <tag k="addr:country" v="DE"/>
    <tag k="addr:housenumber" v="2"/>
    <tag k="addr:postcode" v="76227"/>
    <tag k="addr:street" v="Pfaffstraße"/>
  </node>
  <node id="410264997" version="2" timestamp="2009-06-08T13:48:13Z" uid="58091" user="Andreas M" changeset="1458947" lat="48.1573441" lon="16.438006"/>
</osm>
