<?xml version='1.0' encoding='UTF-8'?>
<osm version="0.6" generator="libosmium/2.20.0">
  <node id="411901843" version="2" timestamp="2010-05-02T16:50:08Z" uid="151899" user="Bikeman2000" changeset="4587272" lat="51.2008347" lon="6.752403"/>
  <node id="411903714" version="3" timestamp="2009-08-06T01:31:46Z" uid="20587" user="balrog-kun" changeset="2051615" lat="52.2535558" lon="20.981445">
    <tag k="name" v="Powązkowska 03"/>
    <tag k="railway" v="tram_stop"/>
  </node>
  <node id="411903714" version="4" timestamp="2010-01-12T13:53:39Z" uid="20587" user="balrog-kun" changeset="3603234" lat="52.2535558" lon="20.981445">
    <tag k="name" v="Powązkowska 03"/>
    <tag k="railway" v="tram_stop"/>
    <tag k="tactile_paving" v="yes"/>
    <tag k="tactile_paving:slab_size" v="40x40"/>
    <tag k="ztm:ciąg_ulicy" v="Okopowa"/>
  </node>
  <node id="411903715" version="3" timestamp="2009-08-06T01:31:46Z" uid="20587" user="balrog-kun" changeset="2051615" lat="52.2529656" lon="20.9811879">
    <tag k="name" v="Powązkowska 04"/>
    <tag k="railway" v="tram_stop"/>
  </node>
  <node id="411903715" version="4" timestamp="2010-01-12T13:53:39Z" uid="20587" user="balrog-kun" changeset="3603234" lat="52.2529656" lon="20.9811879">
    <tag k="name" v="Powązkowska 04"/>
    <tag k="railway" v="tram_stop"/>
    <tag k="tactile_paving" v="yes"/>
    <tag k="tactile_paving:slab_size" v="40x40"/>
    <tag k="ztm:ciąg_ulicy" v="Okopowa"/>
  </node>
  <node id="411903716" version="3" timestamp="2009-08-08T15:03:48Z" uid="20587" user="balrog-kun" changeset="2076575" lat="52.2627973" lon="20.9795385">
    <tag k="name" v="Plac Grunwaldzki 03"/>
    <tag k="railway" v="tram_stop"/>
  </node>
  <node id="411903716" version="4" timestamp="2010-01-12T13:53:40Z" uid="20587" user="balrog-kun" changeset="3603234" lat="52.2627973" lon="20.9795385">
    <tag k="name" v="Plac Grunwaldzki 03"/>
    <tag k="railway" v="tram_stop"/>
    <tag k="tactile_paving" v="yes"/>
    <tag k="tactile_paving:slab_size" v="40x40"/>
    <tag k="ztm:ciąg_ulicy" v="Popiełuszki"/>
  </node>
  <node id="411903717" version="3" timestamp="2009-08-08T15:03:48Z" uid="20587" user="balrog-kun" changeset="2076575" lat="52.2630022" lon="20.9794012">
    <tag k="name" v="Plac Grunwaldzki 04"/>
    <tag k="railway" v="tram_stop"/>
  </node>
  <node id="411903717" version="4" timestamp="2010-01-12T13:53:40Z" uid="20587" user="balrog-kun" changeset="3603234" lat="52.2630022" lon="20.9794012">
    <tag k="name" v="Plac Grunwaldzki 04"/>
    <tag k="railway" v="tram_stop"/>
    <tag k="tactile_paving" v="yes"/>
    <tag k="tactile_paving:slab_size" v="40x40"/>
    <tag k="ztm:ciąg_ulicy" v="Popiełuszki"/>
  </node>
  <node id="411903718" version="3" timestamp="2009-08-08T15:03:48Z" uid="20587" user="balrog-kun" changeset="2076575" lat="52.2627849" lon="20.9771253">
    <tag k="name" v="Plac Grunwaldzki 08"/>
    <tag k="railway" v="tram_stop"/>
  </node>
  <node id="411903718" version="4" timestamp="2010-01-12T13:53:40Z" uid="20587" user="balrog-kun" changeset="3603234" lat="52.2627849" lon="20.9771253">
    <tag k="name" v="Plac Grunwaldzki 08"/>
    <tag k="railway" v="tram_stop"/>
    <tag k="tactile_paving" v="yes"/>
    <tag k="tactile_paving:slab_size" v="40x40"/>
    <tag k="ztm:ciąg_ulicy" v="Broniewskiego"/>
  </node>
  <node id="411903719" version="3" timestamp="2009-08-08T15:03:48Z" uid="20587" user="balrog-kun" changeset="2076575" lat="52.2626459" lon="20.977616">
    <tag k="name" v="Plac Grunwaldzki 07"/>
    <tag k="railway" v="tram_stop"/>
  </node>
  <node id="411903719" version="4" timestamp="2010-01-12T13:53:40Z" uid="20587" user="balrog-kun" changeset="3603234" lat="52.2626459" lon="20.977616">
    <tag k="name" v="Plac Grunwaldzki 07"/>
    <tag k="railway" v="tram_stop"/>
    <tag k="tactile_paving" v="yes"/>
    <tag k="tactile_paving:slab_size" v="40x40"/>
    <tag k="ztm:ciąg_ulicy" v="Broniewskiego"/>
  </node>
  <node id="411903996" version="3" timestamp="2010-01-12T13:53:39Z" uid="20587" user="balrog-kun" changeset="3603234" lat="52.2668585" lon="20.9624382">
    <tag k="name" v="Włościańska 04"/>
    <tag k="railway" v="tram_stop"/>
    <tag k="tactile_paving" v="yes"/>
    <tag k="tactile_paving:slab_size" v="35x35"/>
    <tag k="ztm:ciąg_ulicy" v="Broniewskiego"/>
  </node>
  <node id="411903997" version="3" timestamp="2010-01-12T13:53:39Z" uid="20587" user="balrog-kun" changeset="3603234" lat="52.2667351" lon="20.9629155">
    <tag k="name" v="Włościańska 03"/>
    <tag k="railway" v="tram_stop"/>
    <tag k="tactile_paving" v="yes"/>
    <tag k="tactile_paving:slab_size" v="35x35"/>
    <tag k="ztm:ciąg_ulicy" v="Broniewskiego"/>
  </node>
  <node id="411906911" version="3" timestamp="2010-01-12T13:53:34Z" uid="20587" user="balrog-kun" changeset="3603234" lat="52.2694909" lon="20.9529572">
    <tag k="name" v="Duracza 04"/>
    <tag k="railway" v="tram_stop"/>
    <tag k="tactile_paving" v="yes"/>
    <tag k="tactile_paving:slab_size" v="40x40"/>
    <tag k="ztm:ciąg_ulicy" v="Broniewskiego"/>
  </node>
  <node id="411906912" version="3" timestamp="2010-01-12T13:53:35Z" uid="20587" user="balrog-kun" changeset="3603234" lat="52.2681119" lon="20.9578519">
    <tag k="name" v="Park Olszyna 04"/>
    <tag k="railway" v="tram_stop"/>
    <tag k="tactile_paving" v="yes"/>
    <tag k="tactile_paving:slab_size" v="35x35"/>
    <tag k="ztm:ciąg_ulicy" v="Broniewskiego"/>
  </node>
  <node id="411906913" version="3" timestamp="2010-01-12T13:53:35Z" uid="20587" user="balrog-kun" changeset="3603234" lat="52.2679769" lon="20.9583425">
    <tag k="name" v="Park Olszyna 03"/>
    <tag k="railway" v="tram_stop"/>
    <tag k="tactile_paving" v="yes"/>
    <tag k="tactile_paving:slab_size" v="35x35"/>
    <tag k="ztm:ciąg_ulicy" v="Broniewskiego"/>
  </node>
  <node id="411907770" version="2" timestamp="2009-11-02T00:15:12Z" uid="20587" user="balrog-kun" changeset="3012820" lat="50.8234424" lon="19.0886617"/>
  <node id="411909036" version="2" timestamp="2009-06-09T18:26:04Z" uid="9581" user="Lobelt" changeset="1470863" lat="51.6596323" lon="14.3839377"/>
  <node id="411909037" version="2" timestamp="2009-06-09T18:26:04Z" uid="9581" user="Lobelt" changeset="1470863" lat="51.6595791" lon="14.3851908"/>
  <node id="411909038" version="2" timestamp="2009-06-09T18:26:04Z" uid="9581" user="Lobelt" changeset="1470863" lat="51.6593927" lon="14.3863924"/>
  <node id="411909039" version="2" timestamp="2009-06-09T18:26:04Z" uid="9581" user="Lobelt" changeset="1470863" lat="51.6570766" lon="14.4010266"/>
  <node id="411909040" version="2" timestamp="2009-06-09T18:26:05Z" uid="9581" user="Lobelt" changeset="1470863" lat="51.6558146" lon="14.409026"/>
  <node id="411909041" version="2" timestamp="2009-06-09T18:26:04Z" uid="9581" user="Lobelt" changeset="1470863" lat="51.6550265" lon="14.4137896"/>
  <node id="411909042" version="2" timestamp="2009-06-09T18:26:04Z" uid="9581" user="Lobelt" changeset="1470863" lat="51.6545899" lon="14.4148796"/>
</osm>
