<?xml version='1.0' encoding='UTF-8'?>
<osm version="0.6" generator="libosmium/2.20.0">
  <node id="412372362" version="1" timestamp="2009-05-29T08:45:34Z" uid="46381" user="TheDayAfter" changeset="1349025" lat="52.5207163" lon="13.4795917"/>
  <node id="412372363" version="1" timestamp="2009-05-29T08:45:35Z" uid="46381" user="TheDayAfter" changeset="1349025" lat="52.5221368" lon="13.4771847"/>
  <node id="412372364" version="1" timestamp="2009-05-29T08:45:35Z" uid="46381" user="TheDayAfter" changeset="1349025" lat="52.5221159" lon="13.4792446"/>
  <node id="412372365" version="1" timestamp="2009-05-29T08:45:35Z" uid="46381" user="TheDayAfter" changeset="1349025" lat="52.5220741" lon="13.4793133"/>
  <node id="412372366" version="1" timestamp="2009-05-29T08:45:35Z" uid="46381" user="TheDayAfter" changeset="1349025" lat="52.5220271" lon="13.4793476"/>
  <node id="412372367" version="1" timestamp="2009-05-29T08:45:35Z" uid="46381" user="TheDayAfter" changeset="1349025" lat="52.5208207" lon="13.4793648"/>
  <node id="412372368" version="1" timestamp="2009-05-29T08:45:35Z" uid="46381" user="TheDayAfter" changeset="1349025" lat="52.5207789" lon="13.4794077"/>
  <node id="412372369" version="1" timestamp="2009-05-29T08:45:35Z" uid="46381" user="TheDayAfter" changeset="1349025" lat="52.5207424" lon="13.479588"/>
  <node id="412374482" version="1" timestamp="2009-05-29T09:00:18Z" uid="99207" user="Lar Kiesel" changeset="1349101" lat="34.8319671" lon="-82.2981961"/>
  <node id="412374483" version="1" timestamp="2009-05-29T09:00:18Z" uid="99207" user="Lar Kiesel" changeset="1349101" lat="34.8322066" lon="-82.2978184"/>
  <node id="412377437" version="2" timestamp="2009-06-16T14:31:20Z" uid="20587" user="balrog-kun" changeset="1535654" lat="51.736532" lon="19.6509589">
    <tag k="addr:postcode" v="95-020"/>
    <tag k="is_in" v="gmina Andrespol, powiat łódzki wschodni, województwo łódzkie, Poland"/>
    <tag k="is_in:county" v="powiat łódzki wschodni"/>
    <tag k="is_in:municipality" v="gmina Andrespol"/>
    <tag k="is_in:province" v="województwo łódzkie"/>
    <tag k="name" v="Nowy Bedoń"/>
    <tag k="place" v="village"/>
    <tag k="population" v="439"/>
    <tag k="source:population" v="wikipedia"/>
    <tag k="wikipedia" v="Nowy Bedoń"/>
  </node>
  <node id="412377437" version="3" timestamp="2010-04-27T04:16:57Z" uid="30632" user="antblant" changeset="4537905" lat="51.736532" lon="19.6509589">
    <tag k="addr:postcode" v="95-020"/>
    <tag k="is_in" v="gmina Andrespol, powiat łódzki wschodni, województwo łódzkie, Poland"/>
    <tag k="is_in:county" v="powiat łódzki wschodni"/>
    <tag k="is_in:municipality" v="gmina Andrespol"/>
    <tag k="is_in:province" v="województwo łódzkie"/>
    <tag k="name" v="Nowy Bedoń"/>
    <tag k="place" v="village"/>
    <tag k="population" v="439"/>
    <tag k="source:population" v="wikipedia"/>
    <tag k="teryt:simc" v="0413110"/>
    <tag k="wikipedia" v="Nowy Bedoń"/>
  </node>
</osm>
