<?xml version='1.0' encoding='UTF-8'?>
<osm version="0.6" generator="libosmium/2.20.0">
  <node id="412431263" version="3" timestamp="2010-07-28T20:06:36Z" uid="74617" user="JohnSmith" changeset="5339329" lat="48.3864623" lon="7.8170387">
    <tag k="emergency" v="fire_hydrant"/>
    <tag k="fire_hydrant" v="up"/>
  </node>
  <node id="412431263" version="4" timestamp="2010-07-30T17:48:16Z" uid="74617" user="JohnSmith" changeset="5356742" lat="48.3864623" lon="7.8170387">
    <tag k="amenity" v="fire_hydrant"/>
    <tag k="emergency" v="fire_hydrant"/>
    <tag k="fire_hydrant" v="up"/>
  </node>
  <node id="412435811" version="2" timestamp="2009-09-25T00:02:07Z" uid="4467" user="Rosscoe" changeset="2611175" lat="-32.6056883" lon="149.5774762">
    <tag k="highway" v="turning_circle"/>
  </node>
  <node id="412435815" version="2" timestamp="2009-09-25T00:02:07Z" uid="4467" user="Rosscoe" changeset="2611175" lat="-32.6068162" lon="149.5784976">
    <tag k="highway" v="turning_circle"/>
  </node>
  <node id="412438451" version="2" timestamp="2009-09-25T00:02:42Z" uid="4467" user="Rosscoe" changeset="2611179" lat="-32.6163235" lon="149.5955607">
    <tag k="highway" v="turning_circle"/>
  </node>
  <node id="412438466" version="2" timestamp="2009-09-25T00:02:42Z" uid="4467" user="Rosscoe" changeset="2611179" lat="-32.6126436" lon="149.6024529">
    <tag k="highway" v="turning_circle"/>
  </node>
  <node id="412439168" version="1" timestamp="2009-05-29T13:03:58Z" uid="36809" user="pfoten_weg_!_" changeset="1350761" lat="48.073751" lon="11.5197524"/>
  <node id="412439168" version="2" timestamp="2009-06-09T08:57:39Z" uid="36809" user="pfoten_weg_!_" changeset="1466365" lat="48.073751" lon="11.5197524">
    <tag k="created_by" v="RambaZamba"/>
  </node>
  <node id="412439168" version="4" timestamp="2009-08-19T01:59:33Z" uid="36809" user="pfoten_weg_!_" changeset="2196399" lat="48.073751" lon="11.5197524">
    <tag k="warnung" v="rumpelzumpel-verbrecher"/>
  </node>
  <node id="412439168" version="5" timestamp="2009-08-19T02:23:40Z" uid="36809" user="pfoten_weg_!_" changeset="2196453" lat="48.073751" lon="11.5197524"/>
  <node id="412439169" version="1" timestamp="2009-05-29T13:03:58Z" uid="36809" user="pfoten_weg_!_" changeset="1350761" lat="48.0736435" lon="11.5196807"/>
  <node id="412439169" version="2" timestamp="2009-06-09T08:57:39Z" uid="36809" user="pfoten_weg_!_" changeset="1466365" lat="48.0736435" lon="11.5196807">
    <tag k="created_by" v="RambaZamba"/>
  </node>
  <node id="412439169" version="4" timestamp="2009-08-19T01:59:32Z" uid="36809" user="pfoten_weg_!_" changeset="2196399" lat="48.0736435" lon="11.5196807">
    <tag k="warnung" v="rumpelzumpel-verbrecher"/>
  </node>
  <node id="412439169" version="5" timestamp="2009-08-19T02:23:40Z" uid="36809" user="pfoten_weg_!_" changeset="2196453" lat="48.0736435" lon="11.5196807"/>
  <node id="412439170" version="1" timestamp="2009-05-29T13:03:58Z" uid="36809" user="pfoten_weg_!_" changeset="1350761" lat="48.0735875" lon="11.5196512"/>
  <node id="412439170" version="2" timestamp="2009-06-09T08:57:39Z" uid="36809" user="pfoten_weg_!_" changeset="1466365" lat="48.0735875" lon="11.5196512">
    <tag k="created_by" v="RambaZamba"/>
  </node>
  <node id="412439170" version="4" timestamp="2009-08-19T01:59:33Z" uid="36809" user="pfoten_weg_!_" changeset="2196399" lat="48.0735875" lon="11.5196512">
    <tag k="warnung" v="rumpelzumpel-verbrecher"/>
  </node>
  <node id="412439170" version="5" timestamp="2009-08-19T02:23:41Z" uid="36809" user="pfoten_weg_!_" changeset="2196453" lat="48.0735875" lon="11.5196512"/>
  <node id="412439171" version="1" timestamp="2009-05-29T13:03:58Z" uid="36809" user="pfoten_weg_!_" changeset="1350761" lat="48.0735436" lon="11.5196405"/>
  <node id="412439171" version="2" timestamp="2009-06-09T08:57:39Z" uid="36809" user="pfoten_weg_!_" changeset="1466365" lat="48.0735436" lon="11.5196405">
    <tag k="created_by" v="RambaZamba"/>
  </node>
  <node id="412439171" version="4" timestamp="2009-08-19T01:59:33Z" uid="36809" user="pfoten_weg_!_" changeset="2196399" lat="48.0735436" lon="11.5196405">
    <tag k="warnung" v="rumpelzumpel-verbrecher"/>
  </node>
  <node id="412439171" version="5" timestamp="2009-08-19T02:23:40Z" uid="36809" user="pfoten_weg_!_" changeset="2196453" lat="48.0735436" lon="11.5196405"/>
  <node id="412439172" version="1" timestamp="2009-05-29T13:03:58Z" uid="36809" user="pfoten_weg_!_" changeset="1350761" lat="48.0734918" lon="11.5196384"/>
  <node id="412439172" version="2" timestamp="2009-06-09T08:57:39Z" uid="36809" user="pfoten_weg_!_" changeset="1466365" lat="48.0734918" lon="11.5196384">
    <tag k="created_by" v="RambaZamba"/>
  </node>
  <node id="412439172" version="4" timestamp="2009-08-19T01:59:31Z" uid="36809" user="pfoten_weg_!_" changeset="2196399" lat="48.0734918" lon="11.5196384">
    <tag k="warnung" v="rumpelzumpel-verbrecher"/>
  </node>
  <node id="412439172" version="5" timestamp="2009-08-19T02:23:38Z" uid="36809" user="pfoten_weg_!_" changeset="2196453" lat="48.0734918" lon="11.5196384"/>
  <node id="412439173" version="1" timestamp="2009-05-29T13:03:58Z" uid="36809" user="pfoten_weg_!_" changeset="1350761" lat="48.073423" lon="11.5196411"/>
  <node id="412439173" version="2" timestamp="2009-06-09T08:57:39Z" uid="36809" user="pfoten_weg_!_" changeset="1466365" lat="48.073423" lon="11.5196411">
    <tag k="created_by" v="RambaZamba"/>
  </node>
  <node id="412439173" version="4" timestamp="2009-08-19T01:59:31Z" uid="36809" user="pfoten_weg_!_" changeset="2196399" lat="48.073423" lon="11.5196411">
    <tag k="warnung" v="rumpelzumpel-verbrecher"/>
  </node>
  <node id="412439173" version="5" timestamp="2009-08-19T02:23:38Z" uid="36809" user="pfoten_weg_!_" changeset="2196453" lat="48.073423" lon="11.5196411"/>
  <node id="412439174" version="1" timestamp="2009-05-29T13:03:58Z" uid="36809" user="pfoten_weg_!_" changeset="1350761" lat="48.073367" lon="11.5196317"/>
  <node id="412439174" version="2" timestamp="2009-06-09T08:57:39Z" uid="36809" user="pfoten_weg_!_" changeset="1466365" lat="48.073367" lon="11.5196317">
    <tag k="created_by" v="RambaZamba"/>
  </node>
  <node id="412439174" version="4" timestamp="2009-08-19T01:59:32Z" uid="36809" user="pfoten_weg_!_" changeset="2196399" lat="48.073367" lon="11.5196317">
    <tag k="warnung" v="rumpelzumpel-verbrecher"/>
  </node>
  <node id="412439174" version="5" timestamp="2009-08-19T02:23:39Z" uid="36809" user="pfoten_weg_!_" changeset="2196453" lat="48.073367" lon="11.5196317"/>
  <node id="412439175" version="1" timestamp="2009-05-29T13:03:59Z" uid="36809" user="pfoten_weg_!_" changeset="1350761" lat="48.0733137" lon="11.5196143"/>
  <node id="412439175" version="2" timestamp="2009-06-09T08:57:39Z" uid="36809" user="pfoten_weg_!_" changeset="1466365" lat="48.0733137" lon="11.5196143">
    <tag k="created_by" v="RambaZamba"/>
  </node>
  <node id="412439175" version="4" timestamp="2009-08-19T01:59:31Z" uid="36809" user="pfoten_weg_!_" changeset="2196399" lat="48.0733137" lon="11.5196143">
    <tag k="warnung" v="rumpelzumpel-verbrecher"/>
  </node>
  <node id="412439175" version="5" timestamp="2009-08-19T02:23:39Z" uid="36809" user="pfoten_weg_!_" changeset="2196453" lat="48.0733137" lon="11.5196143"/>
  <node id="412439176" version="1" timestamp="2009-05-29T13:03:59Z" uid="36809" user="pfoten_weg_!_" changeset="1350761" lat="48.0732671" lon="11.5195882"/>
  <node id="412439176" version="2" timestamp="2009-06-09T08:57:39Z" uid="36809" user="pfoten_weg_!_" changeset="1466365" lat="48.0732671" lon="11.5195882">
    <tag k="created_by" v="RambaZamba"/>
  </node>
  <node id="412439176" version="4" timestamp="2009-08-19T01:59:29Z" uid="36809" user="pfoten_weg_!_" changeset="2196399" lat="48.0732671" lon="11.5195882">
    <tag k="warnung" v="rumpelzumpel-verbrecher"/>
  </node>
  <node id="412439176" version="5" timestamp="2009-08-19T02:23:37Z" uid="36809" user="pfoten_weg_!_" changeset="2196453" lat="48.0732671" lon="11.5195882"/>
  <node id="412439177" version="1" timestamp="2009-05-29T13:03:59Z" uid="36809" user="pfoten_weg_!_" changeset="1350761" lat="48.0732326" lon="11.5195627"/>
  <node id="412439177" version="2" timestamp="2009-06-09T08:57:39Z" uid="36809" user="pfoten_weg_!_" changeset="1466365" lat="48.0732326" lon="11.5195627">
    <tag k="created_by" v="RambaZamba"/>
  </node>
  <node id="412439177" version="4" timestamp="2009-08-19T01:59:28Z" uid="36809" user="pfoten_weg_!_" changeset="2196399" lat="48.0732326" lon="11.5195627">
    <tag k="warnung" v="rumpelzumpel-verbrecher"/>
  </node>
  <node id="412439177" version="5" timestamp="2009-08-19T02:23:36Z" uid="36809" user="pfoten_weg_!_" changeset="2196453" lat="48.0732326" lon="11.5195627"/>
  <node id="412439178" version="1" timestamp="2009-05-29T13:03:59Z" uid="36809" user="pfoten_weg_!_" changeset="1350761" lat="48.0730632" lon="11.519392"/>
  <node id="412439178" version="2" timestamp="2009-05-29T20:46:32Z" uid="36809" user="pfoten_weg_!_" changeset="1354282" lat="48.073063" lon="11.5193928"/>
  <node id="412439178" version="3" timestamp="2009-06-09T08:57:39Z" uid="36809" user="pfoten_weg_!_" changeset="1466365" lat="48.073063" lon="11.5193928">
    <tag k="created_by" v="RambaZamba"/>
  </node>
  <node id="412439178" version="5" timestamp="2009-08-19T01:59:30Z" uid="36809" user="pfoten_weg_!_" changeset="2196399" lat="48.073063" lon="11.5193928">
    <tag k="warnung" v="rumpelzumpel-verbrecher"/>
  </node>
  <node id="412439178" version="6" timestamp="2009-08-19T02:23:38Z" uid="36809" user="pfoten_weg_!_" changeset="2196453" lat="48.073063" lon="11.5193928"/>
  <node id="412439179" version="1" timestamp="2009-05-29T13:03:59Z" uid="36809" user="pfoten_weg_!_" changeset="1350761" lat="48.0729813" lon="11.5193092"/>
  <node id="412439179" version="2" timestamp="2009-05-29T20:46:32Z" uid="36809" user="pfoten_weg_!_" changeset="1354282" lat="48.0729604" lon="11.5193367">
    <tag k="addr:city" v="München"/>
    <tag k="addr:country" v="DE"/>
    <tag k="addr:housename" v="Wohnhaus"/>
    <tag k="addr:housenumber" v="38"/>
    <tag k="addr:postcode" v="81479"/>
    <tag k="addr:street" v="Bertelestraße"/>
    <tag k="created_by" v="RambaZamba"/>
    <tag k="name" v="38"/>
  </node>
  <node id="412439179" version="3" timestamp="2009-06-07T21:18:47Z" uid="36809" user="pfoten_weg_!_" changeset="1453903" lat="48.0729604" lon="11.5193367">
    <tag k="addr:city" v="München"/>
    <tag k="addr:country" v="DE"/>
    <tag k="addr:housename" v="Wohngebäude"/>
    <tag k="addr:housenumber" v="38"/>
    <tag k="addr:postcode" v="81479"/>
    <tag k="addr:street" v="Bertelestraße"/>
    <tag k="created_by" v="RambaZamba"/>
    <tag k="name" v="38"/>
  </node>
  <node id="412439179" version="4" timestamp="2009-06-08T18:15:08Z" uid="36809" user="pfoten_weg_!_" changeset="1461570" lat="48.0729604" lon="11.5193367">
    <tag k="addr:city" v="München"/>
    <tag k="addr:country" v="DE"/>
    <tag k="addr:housename" v="Wohngebäude"/>
    <tag k="addr:housenumber" v="38"/>
    <tag k="addr:postcode" v="81479"/>
    <tag k="addr:street" v="Bertelestraße"/>
    <tag k="created_by" v="RambaZamba"/>
    <tag k="name" v="38"/>
  </node>
  <node id="412439180" version="1" timestamp="2009-05-29T13:03:59Z" uid="36809" user="pfoten_weg_!_" changeset="1350761" lat="48.0729572" lon="11.5200108">
    <tag k="access" v="private"/>
    <tag k="barrier" v="sally_port"/>
    <tag k="bicycle" v="no"/>
    <tag k="foot" v="yes"/>
  </node>
  <node id="412439180" version="2" timestamp="2009-06-09T08:57:39Z" uid="36809" user="pfoten_weg_!_" changeset="1466365" lat="48.0729572" lon="11.5200108">
    <tag k="access" v="private"/>
    <tag k="barrier" v="sally_port"/>
    <tag k="bicycle" v="no"/>
    <tag k="created_by" v="RambaZamba"/>
    <tag k="foot" v="yes"/>
  </node>
  <node id="412439180" version="4" timestamp="2009-08-19T01:59:26Z" uid="36809" user="pfoten_weg_!_" changeset="2196399" lat="48.0729572" lon="11.5200108">
    <tag k="access" v="private"/>
    <tag k="barrier" v="sally_port"/>
    <tag k="bicycle" v="no"/>
    <tag k="foot" v="yes"/>
    <tag k="warnung" v="rumpelzumpel-verbrecher"/>
  </node>
  <node id="412439180" version="5" timestamp="2009-08-19T02:23:34Z" uid="36809" user="pfoten_weg_!_" changeset="2196453" lat="48.0729572" lon="11.5200108">
    <tag k="access" v="private"/>
    <tag k="barrier" v="sally_port"/>
    <tag k="bicycle" v="no"/>
    <tag k="foot" v="yes"/>
  </node>
  <node id="412439181" version="1" timestamp="2009-05-29T13:03:59Z" uid="36809" user="pfoten_weg_!_" changeset="1350761" lat="48.0731779" lon="11.5195076"/>
  <node id="412439181" version="2" timestamp="2009-06-09T08:57:39Z" uid="36809" user="pfoten_weg_!_" changeset="1466365" lat="48.0731779" lon="11.5195076">
    <tag k="created_by" v="RambaZamba"/>
  </node>
  <node id="412439181" version="4" timestamp="2009-08-19T01:59:26Z" uid="36809" user="pfoten_weg_!_" changeset="2196399" lat="48.0731779" lon="11.5195076">
    <tag k="warnung" v="rumpelzumpel-verbrecher"/>
  </node>
  <node id="412439181" version="5" timestamp="2009-08-19T02:23:34Z" uid="36809" user="pfoten_weg_!_" changeset="2196453" lat="48.0731779" lon="11.5195076"/>
  <node id="412439182" version="1" timestamp="2009-05-29T13:03:59Z" uid="36809" user="pfoten_weg_!_" changeset="1350761" lat="48.0731775" lon="11.5191302"/>
  <node id="412439182" version="2" timestamp="2009-06-09T08:57:39Z" uid="36809" user="pfoten_weg_!_" changeset="1466365" lat="48.0731775" lon="11.5191302">
    <tag k="created_by" v="RambaZamba"/>
  </node>
  <node id="412439182" version="4" timestamp="2009-08-19T01:59:27Z" uid="36809" user="pfoten_weg_!_" changeset="2196399" lat="48.0731775" lon="11.5191302">
    <tag k="warnung" v="rumpelzumpel-verbrecher"/>
  </node>
  <node id="412439182" version="5" timestamp="2009-08-19T02:23:35Z" uid="36809" user="pfoten_weg_!_" changeset="2196453" lat="48.0731775" lon="11.5191302"/>
  <node id="412439183" version="1" timestamp="2009-05-29T13:03:59Z" uid="36809" user="pfoten_weg_!_" changeset="1350761" lat="48.0731569" lon="11.5191107"/>
  <node id="412439183" version="2" timestamp="2009-05-29T20:46:32Z" uid="36809" user="pfoten_weg_!_" changeset="1354282" lat="48.0731569" lon="11.5191107">
    <tag k="addr:city" v="München"/>
    <tag k="addr:country" v="DE"/>
    <tag k="addr:housename" v="Wohnhaus"/>
    <tag k="addr:housenumber" v="38A"/>
    <tag k="addr:postcode" v="81479"/>
    <tag k="addr:street" v="Bertelestraße"/>
    <tag k="created_by" v="RambaZamba"/>
    <tag k="name" v="38A"/>
  </node>
  <node id="412439183" version="3" timestamp="2009-06-07T21:18:46Z" uid="36809" user="pfoten_weg_!_" changeset="1453903" lat="48.0731569" lon="11.5191107">
    <tag k="addr:city" v="München"/>
    <tag k="addr:country" v="DE"/>
    <tag k="addr:housename" v="Wohngebäude"/>
    <tag k="addr:housenumber" v="38A"/>
    <tag k="addr:postcode" v="81479"/>
    <tag k="addr:street" v="Bertelestraße"/>
    <tag k="created_by" v="RambaZamba"/>
    <tag k="name" v="38A"/>
  </node>
  <node id="412439183" version="4" timestamp="2009-06-08T18:15:08Z" uid="36809" user="pfoten_weg_!_" changeset="1461570" lat="48.0731569" lon="11.5191107">
    <tag k="addr:city" v="München"/>
    <tag k="addr:country" v="DE"/>
    <tag k="addr:housename" v="Wohngebäude"/>
    <tag k="addr:housenumber" v="38A"/>
    <tag k="addr:postcode" v="81479"/>
    <tag k="addr:street" v="Bertelestraße"/>
    <tag k="created_by" v="RambaZamba"/>
    <tag k="name" v="38A"/>
  </node>
  <node id="412439184" version="1" timestamp="2009-05-29T13:03:59Z" uid="36809" user="pfoten_weg_!_" changeset="1350761" lat="48.0733715" lon="11.5193445"/>
  <node id="412439184" version="2" timestamp="2009-06-09T08:57:40Z" uid="36809" user="pfoten_weg_!_" changeset="1466365" lat="48.0733715" lon="11.5193445">
    <tag k="created_by" v="RambaZamba"/>
  </node>
  <node id="412439184" version="4" timestamp="2009-08-19T01:59:36Z" uid="36809" user="pfoten_weg_!_" changeset="2196399" lat="48.0733715" lon="11.5193445">
    <tag k="warnung" v="rumpelzumpel-verbrecher"/>
  </node>
  <node id="412439184" version="5" timestamp="2009-08-19T02:23:43Z" uid="36809" user="pfoten_weg_!_" changeset="2196453" lat="48.0733715" lon="11.5193445"/>
  <node id="412439185" version="1" timestamp="2009-05-29T13:03:59Z" uid="36809" user="pfoten_weg_!_" changeset="1350761" lat="48.0733535" lon="11.5193295"/>
  <node id="412439185" version="2" timestamp="2009-05-29T20:46:32Z" uid="36809" user="pfoten_weg_!_" changeset="1354282" lat="48.0733539" lon="11.5193287">
    <tag k="addr:city" v="München"/>
    <tag k="addr:country" v="DE"/>
    <tag k="addr:housename" v="Wohnhaus"/>
    <tag k="addr:housenumber" v="36A"/>
    <tag k="addr:postcode" v="81479"/>
    <tag k="addr:street" v="Bertelestraße"/>
    <tag k="created_by" v="RambaZamba"/>
    <tag k="name" v="36A"/>
  </node>
  <node id="412439185" version="3" timestamp="2009-06-07T21:18:47Z" uid="36809" user="pfoten_weg_!_" changeset="1453903" lat="48.0733539" lon="11.5193287">
    <tag k="addr:city" v="München"/>
    <tag k="addr:country" v="DE"/>
    <tag k="addr:housename" v="Wohngebäude"/>
    <tag k="addr:housenumber" v="36A"/>
    <tag k="addr:postcode" v="81479"/>
    <tag k="addr:street" v="Bertelestraße"/>
    <tag k="created_by" v="RambaZamba"/>
    <tag k="name" v="36A"/>
  </node>
  <node id="412439185" version="4" timestamp="2009-06-08T18:15:07Z" uid="36809" user="pfoten_weg_!_" changeset="1461570" lat="48.0733539" lon="11.5193287">
    <tag k="addr:city" v="München"/>
    <tag k="addr:country" v="DE"/>
    <tag k="addr:housename" v="Wohngebäude"/>
    <tag k="addr:housenumber" v="36A"/>
    <tag k="addr:postcode" v="81479"/>
    <tag k="addr:street" v="Bertelestraße"/>
    <tag k="created_by" v="RambaZamba"/>
    <tag k="name" v="36A"/>
  </node>
  <node id="412439186" version="1" timestamp="2009-05-29T13:03:59Z" uid="36809" user="pfoten_weg_!_" changeset="1350761" lat="48.0733865" lon="11.5198865"/>
  <node id="412439186" version="2" timestamp="2009-06-09T08:57:40Z" uid="36809" user="pfoten_weg_!_" changeset="1466365" lat="48.0733865" lon="11.5198865">
    <tag k="created_by" v="RambaZamba"/>
  </node>
  <node id="412439186" version="4" timestamp="2009-08-19T01:59:37Z" uid="36809" user="pfoten_weg_!_" changeset="2196399" lat="48.0733865" lon="11.5198865">
    <tag k="warnung" v="rumpelzumpel-verbrecher"/>
  </node>
  <node id="412439186" version="5" timestamp="2009-08-19T02:23:45Z" uid="36809" user="pfoten_weg_!_" changeset="2196453" lat="48.0733865" lon="11.5198865"/>
  <node id="412439187" version="1" timestamp="2009-05-29T13:03:59Z" uid="36809" user="pfoten_weg_!_" changeset="1350761" lat="48.0733697" lon="11.5198725"/>
  <node id="412439187" version="2" timestamp="2009-05-29T20:46:32Z" uid="36809" user="pfoten_weg_!_" changeset="1354282" lat="48.0733699" lon="11.5198717">
    <tag k="addr:city" v="München"/>
    <tag k="addr:country" v="DE"/>
    <tag k="addr:housename" v="Wohnhaus"/>
    <tag k="addr:housenumber" v="36"/>
    <tag k="addr:postcode" v="81479"/>
    <tag k="addr:street" v="Bertelestraße"/>
    <tag k="created_by" v="RambaZamba"/>
    <tag k="name" v="36"/>
  </node>
  <node id="412439187" version="3" timestamp="2009-06-07T21:18:48Z" uid="36809" user="pfoten_weg_!_" changeset="1453903" lat="48.0733699" lon="11.5198717">
    <tag k="addr:city" v="München"/>
    <tag k="addr:country" v="DE"/>
    <tag k="addr:housename" v="Wohngebäude"/>
    <tag k="addr:housenumber" v="36"/>
    <tag k="addr:postcode" v="81479"/>
    <tag k="addr:street" v="Bertelestraße"/>
    <tag k="created_by" v="RambaZamba"/>
    <tag k="name" v="36"/>
  </node>
  <node id="412439187" version="4" timestamp="2009-06-08T18:15:06Z" uid="36809" user="pfoten_weg_!_" changeset="1461570" lat="48.0733699" lon="11.5198717">
    <tag k="addr:city" v="München"/>
    <tag k="addr:country" v="DE"/>
    <tag k="addr:housename" v="Wohngebäude"/>
    <tag k="addr:housenumber" v="36"/>
    <tag k="addr:postcode" v="81479"/>
    <tag k="addr:street" v="Bertelestraße"/>
    <tag k="created_by" v="RambaZamba"/>
    <tag k="name" v="36"/>
  </node>
  <node id="412439188" version="1" timestamp="2009-05-29T13:03:59Z" uid="36809" user="pfoten_weg_!_" changeset="1350761" lat="48.0729507" lon="11.5200255"/>
  <node id="412439188" version="2" timestamp="2009-06-09T08:57:40Z" uid="36809" user="pfoten_weg_!_" changeset="1466365" lat="48.0729507" lon="11.5200255">
    <tag k="created_by" v="RambaZamba"/>
  </node>
  <node id="412439188" version="4" timestamp="2009-08-26T00:05:36Z" uid="36809" user="pfoten_weg_!_" changeset="2262648" lat="48.0729507" lon="11.5200255"/>
  <node id="412439188" version="5" timestamp="2009-08-26T01:07:52Z" uid="36809" user="pfoten_weg_!_" changeset="2262879" lat="48.0729507" lon="11.5200255"/>
  <node id="412439189" version="1" timestamp="2009-05-29T13:03:59Z" uid="36809" user="pfoten_weg_!_" changeset="1350761" lat="48.0727765" lon="11.5198565"/>
  <node id="412439189" version="2" timestamp="2009-06-09T08:57:40Z" uid="36809" user="pfoten_weg_!_" changeset="1466365" lat="48.0727765" lon="11.5198565">
    <tag k="created_by" v="RambaZamba"/>
  </node>
  <node id="412439189" version="4" timestamp="2009-08-26T00:05:37Z" uid="36809" user="pfoten_weg_!_" changeset="2262648" lat="48.0727765" lon="11.5198565"/>
  <node id="412439189" version="5" timestamp="2009-08-26T01:07:52Z" uid="36809" user="pfoten_weg_!_" changeset="2262879" lat="48.0727765" lon="11.5198565"/>
  <node id="412439190" version="1" timestamp="2009-05-29T13:03:59Z" uid="36809" user="pfoten_weg_!_" changeset="1350761" lat="48.0727755" lon="11.5198075"/>
  <node id="412439190" version="2" timestamp="2009-06-09T08:57:40Z" uid="36809" user="pfoten_weg_!_" changeset="1466365" lat="48.0727755" lon="11.5198075">
    <tag k="created_by" v="RambaZamba"/>
  </node>
  <node id="412439190" version="4" timestamp="2009-08-26T00:05:37Z" uid="36809" user="pfoten_weg_!_" changeset="2262648" lat="48.0727755" lon="11.5198075"/>
  <node id="412439190" version="5" timestamp="2009-08-26T01:07:53Z" uid="36809" user="pfoten_weg_!_" changeset="2262879" lat="48.0727755" lon="11.5198075"/>
  <node id="412439191" version="1" timestamp="2009-05-29T13:03:59Z" uid="36809" user="pfoten_weg_!_" changeset="1350761" lat="48.0725715" lon="11.5196035"/>
  <node id="412439191" version="2" timestamp="2009-06-09T08:57:40Z" uid="36809" user="pfoten_weg_!_" changeset="1466365" lat="48.0725715" lon="11.5196035">
    <tag k="created_by" v="RambaZamba"/>
  </node>
  <node id="412439191" version="4" timestamp="2009-08-26T00:05:38Z" uid="36809" user="pfoten_weg_!_" changeset="2262648" lat="48.0725715" lon="11.5196035"/>
  <node id="412439191" version="5" timestamp="2009-08-26T01:07:53Z" uid="36809" user="pfoten_weg_!_" changeset="2262879" lat="48.0725715" lon="11.5196035"/>
  <node id="412439192" version="1" timestamp="2009-05-29T13:03:59Z" uid="36809" user="pfoten_weg_!_" changeset="1350761" lat="48.0734943" lon="11.5206087"/>
  <node id="412439192" version="2" timestamp="2009-05-29T20:46:32Z" uid="36809" user="pfoten_weg_!_" changeset="1354282" lat="48.0734943" lon="11.5206087">
    <tag k="addr:city" v="München"/>
    <tag k="addr:country" v="DE"/>
    <tag k="addr:housename" v="Wohnhaus"/>
    <tag k="addr:housenumber" v="250"/>
    <tag k="addr:postcode" v="81479"/>
    <tag k="addr:street" v="Wolfratshauser Straße"/>
    <tag k="created_by" v="RambaZamba"/>
    <tag k="name" v="250"/>
  </node>
  <node id="412439192" version="3" timestamp="2009-06-07T21:18:47Z" uid="36809" user="pfoten_weg_!_" changeset="1453903" lat="48.0734943" lon="11.5206087">
    <tag k="addr:city" v="München"/>
    <tag k="addr:country" v="DE"/>
    <tag k="addr:housename" v="Wohngebäude"/>
    <tag k="addr:housenumber" v="250"/>
    <tag k="addr:postcode" v="81479"/>
    <tag k="addr:street" v="Wolfratshauser Straße"/>
    <tag k="created_by" v="RambaZamba"/>
    <tag k="name" v="250"/>
  </node>
  <node id="412439192" version="4" timestamp="2009-06-08T18:15:07Z" uid="36809" user="pfoten_weg_!_" changeset="1461570" lat="48.0734943" lon="11.5206087">
    <tag k="addr:city" v="München"/>
    <tag k="addr:country" v="DE"/>
    <tag k="addr:housename" v="Wohngebäude"/>
    <tag k="addr:housenumber" v="250"/>
    <tag k="addr:postcode" v="81479"/>
    <tag k="addr:street" v="Wolfratshauser Straße"/>
    <tag k="created_by" v="RambaZamba"/>
    <tag k="name" v="250"/>
  </node>
  <node id="412439193" version="1" timestamp="2009-05-29T13:03:59Z" uid="36809" user="pfoten_weg_!_" changeset="1350761" lat="48.0733941" lon="11.52051"/>
  <node id="412439193" version="2" timestamp="2009-05-29T20:46:32Z" uid="36809" user="pfoten_weg_!_" changeset="1354282" lat="48.0733941" lon="11.52051">
    <tag k="addr:city" v="München"/>
    <tag k="addr:country" v="DE"/>
    <tag k="addr:housename" v="Wohnhaus"/>
    <tag k="addr:housenumber" v="252"/>
    <tag k="addr:postcode" v="81479"/>
    <tag k="addr:street" v="Wolfratshauser Straße"/>
    <tag k="created_by" v="RambaZamba"/>
    <tag k="name" v="252"/>
  </node>
  <node id="412439193" version="3" timestamp="2009-06-07T21:18:47Z" uid="36809" user="pfoten_weg_!_" changeset="1453903" lat="48.0733941" lon="11.52051">
    <tag k="addr:city" v="München"/>
    <tag k="addr:country" v="DE"/>
    <tag k="addr:housename" v="Wohngebäude"/>
    <tag k="addr:housenumber" v="252"/>
    <tag k="addr:postcode" v="81479"/>
    <tag k="addr:street" v="Wolfratshauser Straße"/>
    <tag k="created_by" v="RambaZamba"/>
    <tag k="name" v="252"/>
  </node>
  <node id="412439193" version="4" timestamp="2009-06-08T18:15:07Z" uid="36809" user="pfoten_weg_!_" changeset="1461570" lat="48.0733941" lon="11.52051">
    <tag k="addr:city" v="München"/>
    <tag k="addr:country" v="DE"/>
    <tag k="addr:housename" v="Wohngebäude"/>
    <tag k="addr:housenumber" v="252"/>
    <tag k="addr:postcode" v="81479"/>
    <tag k="addr:street" v="Wolfratshauser Straße"/>
    <tag k="created_by" v="RambaZamba"/>
    <tag k="name" v="252"/>
  </node>
  <node id="412439194" version="1" timestamp="2009-05-29T13:03:59Z" uid="36809" user="pfoten_weg_!_" changeset="1350761" lat="48.0732761" lon="11.5203526"/>
  <node id="412439194" version="2" timestamp="2009-06-09T08:57:40Z" uid="36809" user="pfoten_weg_!_" changeset="1466365" lat="48.0732761" lon="11.5203526">
    <tag k="created_by" v="RambaZamba"/>
  </node>
  <node id="412439194" version="4" timestamp="2009-08-19T01:59:34Z" uid="36809" user="pfoten_weg_!_" changeset="2196399" lat="48.0732761" lon="11.5203526">
    <tag k="warnung" v="rumpelzumpel-verbrecher"/>
  </node>
  <node id="412439194" version="5" timestamp="2009-08-19T02:23:42Z" uid="36809" user="pfoten_weg_!_" changeset="2196453" lat="48.0732761" lon="11.5203526"/>
  <node id="412439195" version="1" timestamp="2009-05-29T13:04:00Z" uid="36809" user="pfoten_weg_!_" changeset="1350761" lat="48.0731433" lon="11.5202628"/>
  <node id="412439195" version="2" timestamp="2009-05-29T20:46:32Z" uid="36809" user="pfoten_weg_!_" changeset="1354282" lat="48.0731433" lon="11.5202628">
    <tag k="addr:city" v="München"/>
    <tag k="addr:country" v="DE"/>
    <tag k="addr:housename" v="Wohnhaus"/>
    <tag k="addr:housenumber" v="254"/>
    <tag k="addr:postcode" v="81479"/>
    <tag k="addr:street" v="Wolfratshauser Straße"/>
    <tag k="created_by" v="RambaZamba"/>
    <tag k="name" v="254"/>
  </node>
  <node id="412439195" version="3" timestamp="2009-06-07T21:18:47Z" uid="36809" user="pfoten_weg_!_" changeset="1453903" lat="48.0731433" lon="11.5202628">
    <tag k="addr:city" v="München"/>
    <tag k="addr:country" v="DE"/>
    <tag k="addr:housename" v="Wohngebäude"/>
    <tag k="addr:housenumber" v="254"/>
    <tag k="addr:postcode" v="81479"/>
    <tag k="addr:street" v="Wolfratshauser Straße"/>
    <tag k="created_by" v="RambaZamba"/>
    <tag k="name" v="254"/>
  </node>
  <node id="412439195" version="4" timestamp="2009-06-08T18:15:07Z" uid="36809" user="pfoten_weg_!_" changeset="1461570" lat="48.0731433" lon="11.5202628">
    <tag k="addr:city" v="München"/>
    <tag k="addr:country" v="DE"/>
    <tag k="addr:housename" v="Wohngebäude"/>
    <tag k="addr:housenumber" v="254"/>
    <tag k="addr:postcode" v="81479"/>
    <tag k="addr:street" v="Wolfratshauser Straße"/>
    <tag k="created_by" v="RambaZamba"/>
    <tag k="name" v="254"/>
  </node>
  <node id="412439196" version="1" timestamp="2009-05-29T13:04:00Z" uid="36809" user="pfoten_weg_!_" changeset="1350761" lat="48.0730391" lon="11.5201601"/>
  <node id="412439196" version="2" timestamp="2009-05-29T20:46:32Z" uid="36809" user="pfoten_weg_!_" changeset="1354282" lat="48.0730391" lon="11.5201601">
    <tag k="addr:city" v="München"/>
    <tag k="addr:country" v="DE"/>
    <tag k="addr:housename" v="Wohnhaus"/>
    <tag k="addr:housenumber" v="256"/>
    <tag k="addr:postcode" v="81479"/>
    <tag k="addr:street" v="Wolfratshauser Straße"/>
    <tag k="created_by" v="RambaZamba"/>
    <tag k="name" v="256"/>
  </node>
  <node id="412439196" version="3" timestamp="2009-06-07T21:18:47Z" uid="36809" user="pfoten_weg_!_" changeset="1453903" lat="48.0730391" lon="11.5201601">
    <tag k="addr:city" v="München"/>
    <tag k="addr:country" v="DE"/>
    <tag k="addr:housename" v="Wohngebäude"/>
    <tag k="addr:housenumber" v="256"/>
    <tag k="addr:postcode" v="81479"/>
    <tag k="addr:street" v="Wolfratshauser Straße"/>
    <tag k="created_by" v="RambaZamba"/>
    <tag k="name" v="256"/>
  </node>
  <node id="412439196" version="4" timestamp="2009-06-08T18:15:07Z" uid="36809" user="pfoten_weg_!_" changeset="1461570" lat="48.0730391" lon="11.5201601">
    <tag k="addr:city" v="München"/>
    <tag k="addr:country" v="DE"/>
    <tag k="addr:housename" v="Wohngebäude"/>
    <tag k="addr:housenumber" v="256"/>
    <tag k="addr:postcode" v="81479"/>
    <tag k="addr:street" v="Wolfratshauser Straße"/>
    <tag k="created_by" v="RambaZamba"/>
    <tag k="name" v="256"/>
  </node>
  <node id="412439197" version="1" timestamp="2009-05-29T13:04:00Z" uid="36809" user="pfoten_weg_!_" changeset="1350761" lat="48.073752" lon="11.5203294"/>
  <node id="412439197" version="2" timestamp="2009-06-09T08:57:39Z" uid="36809" user="pfoten_weg_!_" changeset="1466365" lat="48.073752" lon="11.5203294">
    <tag k="created_by" v="RambaZamba"/>
  </node>
  <node id="412439197" version="4" timestamp="2009-08-19T01:59:34Z" uid="36809" user="pfoten_weg_!_" changeset="2196399" lat="48.073752" lon="11.5203294">
    <tag k="warnung" v="rumpelzumpel-verbrecher"/>
  </node>
  <node id="412439197" version="5" timestamp="2009-08-19T02:23:41Z" uid="36809" user="pfoten_weg_!_" changeset="2196453" lat="48.073752" lon="11.5203294"/>
  <node id="412439198" version="1" timestamp="2009-05-29T13:04:00Z" uid="36809" user="pfoten_weg_!_" changeset="1350761" lat="48.0737205" lon="11.5202995"/>
  <node id="412439198" version="2" timestamp="2009-05-29T20:46:32Z" uid="36809" user="pfoten_weg_!_" changeset="1354282" lat="48.0737201" lon="11.5203026">
    <tag k="addr:city" v="München"/>
    <tag k="addr:country" v="DE"/>
    <tag k="addr:housename" v="Wohnhaus"/>
    <tag k="addr:housenumber" v="42"/>
    <tag k="addr:postcode" v="81479"/>
    <tag k="addr:street" v="Bertelestraße"/>
    <tag k="created_by" v="RambaZamba"/>
    <tag k="name" v="42"/>
  </node>
  <node id="412439198" version="3" timestamp="2009-06-07T21:18:47Z" uid="36809" user="pfoten_weg_!_" changeset="1453903" lat="48.0737201" lon="11.5203026">
    <tag k="addr:city" v="München"/>
    <tag k="addr:country" v="DE"/>
    <tag k="addr:housename" v="Wohngebäude"/>
    <tag k="addr:housenumber" v="42"/>
    <tag k="addr:postcode" v="81479"/>
    <tag k="addr:street" v="Bertelestraße"/>
    <tag k="created_by" v="RambaZamba"/>
    <tag k="name" v="42"/>
  </node>
  <node id="412439198" version="4" timestamp="2009-06-08T18:15:07Z" uid="36809" user="pfoten_weg_!_" changeset="1461570" lat="48.0737201" lon="11.5203026">
    <tag k="addr:city" v="München"/>
    <tag k="addr:country" v="DE"/>
    <tag k="addr:housename" v="Wohngebäude"/>
    <tag k="addr:housenumber" v="42"/>
    <tag k="addr:postcode" v="81479"/>
    <tag k="addr:street" v="Bertelestraße"/>
    <tag k="created_by" v="RambaZamba"/>
    <tag k="name" v="42"/>
  </node>
  <node id="412439199" version="1" timestamp="2009-05-29T13:04:00Z" uid="36809" user="pfoten_weg_!_" changeset="1350761" lat="48.0738564" lon="11.520028"/>
  <node id="412439199" version="2" timestamp="2009-06-09T08:57:40Z" uid="36809" user="pfoten_weg_!_" changeset="1466365" lat="48.0738564" lon="11.520028">
    <tag k="created_by" v="RambaZamba"/>
  </node>
  <node id="412439199" version="4" timestamp="2009-08-19T01:59:34Z" uid="36809" user="pfoten_weg_!_" changeset="2196399" lat="48.0738564" lon="11.520028">
    <tag k="warnung" v="rumpelzumpel-verbrecher"/>
  </node>
  <node id="412439199" version="5" timestamp="2009-08-19T02:23:41Z" uid="36809" user="pfoten_weg_!_" changeset="2196453" lat="48.0738564" lon="11.520028"/>
  <node id="412439200" version="1" timestamp="2009-05-29T13:04:00Z" uid="36809" user="pfoten_weg_!_" changeset="1350761" lat="48.0738236" lon="11.5199999"/>
  <node id="412439200" version="2" timestamp="2009-05-29T20:46:32Z" uid="36809" user="pfoten_weg_!_" changeset="1354282" lat="48.0738236" lon="11.5199999">
    <tag k="addr:city" v="München"/>
    <tag k="addr:country" v="DE"/>
    <tag k="addr:housename" v="Wohnhaus"/>
    <tag k="addr:housenumber" v="40"/>
    <tag k="addr:postcode" v="81479"/>
    <tag k="addr:street" v="Bertelestraße"/>
    <tag k="created_by" v="RambaZamba"/>
    <tag k="name" v="40"/>
  </node>
  <node id="412439200" version="3" timestamp="2009-06-07T21:18:48Z" uid="36809" user="pfoten_weg_!_" changeset="1453903" lat="48.0738236" lon="11.5199999">
    <tag k="addr:city" v="München"/>
    <tag k="addr:country" v="DE"/>
    <tag k="addr:housename" v="Wohngebäude"/>
    <tag k="addr:housenumber" v="40"/>
    <tag k="addr:postcode" v="81479"/>
    <tag k="addr:street" v="Bertelestraße"/>
    <tag k="created_by" v="RambaZamba"/>
    <tag k="name" v="40"/>
  </node>
  <node id="412439200" version="4" timestamp="2009-06-08T18:15:06Z" uid="36809" user="pfoten_weg_!_" changeset="1461570" lat="48.0738236" lon="11.5199999">
    <tag k="addr:city" v="München"/>
    <tag k="addr:country" v="DE"/>
    <tag k="addr:housename" v="Wohngebäude"/>
    <tag k="addr:housenumber" v="40"/>
    <tag k="addr:postcode" v="81479"/>
    <tag k="addr:street" v="Bertelestraße"/>
    <tag k="created_by" v="RambaZamba"/>
    <tag k="name" v="40"/>
  </node>
  <node id="412439201" version="1" timestamp="2009-05-29T13:04:00Z" uid="36809" user="pfoten_weg_!_" changeset="1350761" lat="48.0730055" lon="11.5204136"/>
  <node id="412439201" version="2" timestamp="2009-06-09T08:57:40Z" uid="36809" user="pfoten_weg_!_" changeset="1466365" lat="48.0730055" lon="11.5204136">
    <tag k="created_by" v="RambaZamba"/>
  </node>
  <node id="412439201" version="4" timestamp="2009-08-19T01:59:46Z" uid="36809" user="pfoten_weg_!_" changeset="2196399" lat="48.0730055" lon="11.5204136">
    <tag k="warnung" v="rumpelzumpel-verbrecher"/>
  </node>
  <node id="412439201" version="5" timestamp="2009-08-19T02:23:54Z" uid="36809" user="pfoten_weg_!_" changeset="2196453" lat="48.0730055" lon="11.5204136"/>
  <node id="412439201" version="6" timestamp="2009-10-19T23:19:20Z" uid="36809" user="pfoten_weg_!_" changeset="2899260" lat="48.073011" lon="11.5203753"/>
  <node id="412439202" version="1" timestamp="2009-05-29T13:04:00Z" uid="36809" user="pfoten_weg_!_" changeset="1350761" lat="48.0730915" lon="11.52021">
    <tag k="layer" v="-1"/>
  </node>
  <node id="412439202" version="2" timestamp="2009-06-09T08:57:40Z" uid="36809" user="pfoten_weg_!_" changeset="1466365" lat="48.0730915" lon="11.52021">
    <tag k="created_by" v="RambaZamba"/>
    <tag k="layer" v="-1"/>
  </node>
  <node id="412439202" version="4" timestamp="2009-08-19T01:59:46Z" uid="36809" user="pfoten_weg_!_" changeset="2196399" lat="48.0730915" lon="11.52021">
    <tag k="layer" v="-1"/>
    <tag k="warnung" v="rumpelzumpel-verbrecher"/>
  </node>
  <node id="412439202" version="5" timestamp="2009-08-19T02:23:54Z" uid="36809" user="pfoten_weg_!_" changeset="2196453" lat="48.0730915" lon="11.52021">
    <tag k="layer" v="-1"/>
  </node>
  <node id="412439202" version="6" timestamp="2009-10-19T23:19:21Z" uid="36809" user="pfoten_weg_!_" changeset="2899260" lat="48.0730872" lon="11.5202057">
    <tag k="layer" v="-1"/>
  </node>
  <node id="412439203" version="1" timestamp="2009-05-29T13:04:00Z" uid="36809" user="pfoten_weg_!_" changeset="1350761" lat="48.0730015" lon="11.5202485"/>
  <node id="412439203" version="2" timestamp="2009-06-09T08:57:40Z" uid="36809" user="pfoten_weg_!_" changeset="1466365" lat="48.0730015" lon="11.5202485">
    <tag k="created_by" v="RambaZamba"/>
  </node>
  <node id="412439203" version="4" timestamp="2009-08-19T01:59:45Z" uid="36809" user="pfoten_weg_!_" changeset="2196399" lat="48.0730015" lon="11.5202485">
    <tag k="warnung" v="rumpelzumpel-verbrecher"/>
  </node>
  <node id="412439203" version="5" timestamp="2009-08-19T02:23:53Z" uid="36809" user="pfoten_weg_!_" changeset="2196453" lat="48.0730015" lon="11.5202485"/>
  <node id="412439203" version="6" timestamp="2009-10-19T23:20:15Z" uid="36809" user="pfoten_weg_!_" changeset="2899260" lat="48.0730015" lon="11.5202485"/>
  <node id="412439204" version="1" timestamp="2009-05-29T13:04:00Z" uid="36809" user="pfoten_weg_!_" changeset="1350761" lat="48.0730542" lon="11.5202993"/>
  <node id="412439204" version="2" timestamp="2009-06-09T08:57:40Z" uid="36809" user="pfoten_weg_!_" changeset="1466365" lat="48.0730542" lon="11.5202993">
    <tag k="created_by" v="RambaZamba"/>
  </node>
  <node id="412439204" version="4" timestamp="2009-08-19T01:59:45Z" uid="36809" user="pfoten_weg_!_" changeset="2196399" lat="48.0730542" lon="11.5202993">
    <tag k="warnung" v="rumpelzumpel-verbrecher"/>
  </node>
  <node id="412439204" version="5" timestamp="2009-08-19T02:23:53Z" uid="36809" user="pfoten_weg_!_" changeset="2196453" lat="48.0730542" lon="11.5202993"/>
  <node id="412439204" version="6" timestamp="2009-10-19T23:19:19Z" uid="36809" user="pfoten_weg_!_" changeset="2899260" lat="48.0730615" lon="11.5202628"/>
  <node id="412439205" version="1" timestamp="2009-05-29T13:04:00Z" uid="36809" user="pfoten_weg_!_" changeset="1350761" lat="48.0733588" lon="11.520593"/>
  <node id="412439205" version="2" timestamp="2009-06-09T08:57:40Z" uid="36809" user="pfoten_weg_!_" changeset="1466365" lat="48.0733588" lon="11.520593">
    <tag k="created_by" v="RambaZamba"/>
  </node>
  <node id="412439205" version="4" timestamp="2009-08-19T01:59:44Z" uid="36809" user="pfoten_weg_!_" changeset="2196399" lat="48.0733588" lon="11.520593">
    <tag k="warnung" v="rumpelzumpel-verbrecher"/>
  </node>
  <node id="412439205" version="5" timestamp="2009-08-19T02:23:52Z" uid="36809" user="pfoten_weg_!_" changeset="2196453" lat="48.0733588" lon="11.520593"/>
  <node id="412439205" version="6" timestamp="2009-10-19T23:19:23Z" uid="36809" user="pfoten_weg_!_" changeset="2899260" lat="48.0733666" lon="11.5205821"/>
  <node id="412439206" version="1" timestamp="2009-05-29T13:04:00Z" uid="36809" user="pfoten_weg_!_" changeset="1350761" lat="48.0739148" lon="11.5198606"/>
  <node id="412439206" version="2" timestamp="2009-06-09T08:57:40Z" uid="36809" user="pfoten_weg_!_" changeset="1466365" lat="48.0739148" lon="11.5198606">
    <tag k="created_by" v="RambaZamba"/>
  </node>
  <node id="412439206" version="4" timestamp="2009-08-19T01:59:44Z" uid="36809" user="pfoten_weg_!_" changeset="2196399" lat="48.0739148" lon="11.5198606">
    <tag k="warnung" v="rumpelzumpel-verbrecher"/>
  </node>
  <node id="412439206" version="5" timestamp="2009-08-19T02:23:52Z" uid="36809" user="pfoten_weg_!_" changeset="2196453" lat="48.0739148" lon="11.5198606"/>
  <node id="412439207" version="1" timestamp="2009-05-29T13:04:00Z" uid="36809" user="pfoten_weg_!_" changeset="1350761" lat="48.0735832" lon="11.5208189"/>
  <node id="412439207" version="2" timestamp="2009-06-09T08:57:40Z" uid="36809" user="pfoten_weg_!_" changeset="1466365" lat="48.0735832" lon="11.5208189">
    <tag k="created_by" v="RambaZamba"/>
  </node>
  <node id="412439207" version="4" timestamp="2009-08-19T01:59:43Z" uid="36809" user="pfoten_weg_!_" changeset="2196399" lat="48.0735832" lon="11.5208189">
    <tag k="warnung" v="rumpelzumpel-verbrecher"/>
  </node>
  <node id="412439207" version="5" timestamp="2009-08-19T02:23:51Z" uid="36809" user="pfoten_weg_!_" changeset="2196453" lat="48.0735832" lon="11.5208189"/>
</osm>
