<?xml version='1.0' encoding='UTF-8'?>
<osm version="0.6" generator="libosmium/2.20.0">
  <node id="412983729" version="2" timestamp="2009-06-16T14:37:41Z" uid="20587" user="balrog-kun" changeset="1535709" lat="52.637737" lon="16.578658">
    <tag k="addr:postcode" v="64-500"/>
    <tag k="is_in" v="gmina Szamotuły, powiat szamotulski, województwo wielkopolskie, Poland"/>
    <tag k="is_in:county" v="powiat szamotulski"/>
    <tag k="is_in:municipality" v="gmina Szamotuły"/>
    <tag k="is_in:province" v="województwo wielkopolskie"/>
    <tag k="name" v="Szczuczyn"/>
    <tag k="place" v="village"/>
    <tag k="wikipedia" v="pl:Szczuczyn (województwo wielkopolskie)"/>
  </node>
  <node id="412983729" version="3" timestamp="2010-04-11T04:47:07Z" uid="20587" user="balrog-kun" changeset="4389130" lat="52.6374139" lon="16.5790306">
    <tag k="addr:postcode" v="64-500"/>
    <tag k="is_in" v="gmina Szamotuły, powiat szamotulski, województwo wielkopolskie, Poland"/>
    <tag k="is_in:county" v="powiat szamotulski"/>
    <tag k="is_in:municipality" v="gmina Szamotuły"/>
    <tag k="is_in:province" v="województwo wielkopolskie"/>
    <tag k="name" v="Szczuczyn"/>
    <tag k="place" v="village"/>
    <tag k="wikipedia" v="pl:Szczuczyn (województwo wielkopolskie)"/>
  </node>
  <node id="412983730" version="2" timestamp="2009-06-16T14:37:47Z" uid="20587" user="balrog-kun" changeset="1535709" lat="52.744696" lon="16.2692384">
    <tag k="is_in" v="gmina Wronki, powiat szamotulski, województwo wielkopolskie, Poland"/>
    <tag k="is_in:county" v="powiat szamotulski"/>
    <tag k="is_in:municipality" v="gmina Wronki"/>
    <tag k="is_in:province" v="województwo wielkopolskie"/>
    <tag k="name" v="Mokrz"/>
    <tag k="place" v="village"/>
    <tag k="wikipedia" v="pl:Mokrz"/>
  </node>
  <node id="412983730" version="3" timestamp="2010-04-11T04:47:07Z" uid="20587" user="balrog-kun" changeset="4389130" lat="52.7451172" lon="16.2702439">
    <tag k="is_in" v="gmina Wronki, powiat szamotulski, województwo wielkopolskie, Poland"/>
    <tag k="is_in:county" v="powiat szamotulski"/>
    <tag k="is_in:municipality" v="gmina Wronki"/>
    <tag k="is_in:province" v="województwo wielkopolskie"/>
    <tag k="name" v="Mokrz"/>
    <tag k="place" v="village"/>
    <tag k="wikipedia" v="pl:Mokrz"/>
  </node>
  <node id="412983730" version="4" timestamp="2010-04-27T04:21:00Z" uid="30632" user="antblant" changeset="4537915" lat="52.7451172" lon="16.2702439">
    <tag k="is_in" v="gmina Wronki, powiat szamotulski, województwo wielkopolskie, Poland"/>
    <tag k="is_in:county" v="powiat szamotulski"/>
    <tag k="is_in:municipality" v="gmina Wronki"/>
    <tag k="is_in:province" v="województwo wielkopolskie"/>
    <tag k="name" v="Mokrz"/>
    <tag k="place" v="village"/>
    <tag k="teryt:simc" v="0533179"/>
    <tag k="wikipedia" v="pl:Mokrz"/>
  </node>
  <node id="412985109" version="1" timestamp="2009-05-30T18:20:27Z" uid="30632" user="antblant" changeset="1361937" lat="53.4251521" lon="14.5273996">
    <tag k="note" v="fixme"/>
    <tag k="power" v="tower"/>
  </node>
  <node id="412985109" version="2" timestamp="2009-10-21T20:40:09Z" uid="30632" user="antblant" changeset="2916799" lat="53.4249349" lon="14.5274996">
    <tag k="note" v="fixme"/>
    <tag k="power" v="tower"/>
  </node>
  <node id="412985115" version="1" timestamp="2009-05-30T18:20:27Z" uid="30632" user="antblant" changeset="1361937" lat="53.426691" lon="14.5263622">
    <tag k="note" v="fixme"/>
    <tag k="power" v="tower"/>
  </node>
  <node id="412985119" version="1" timestamp="2009-05-30T18:20:27Z" uid="30632" user="antblant" changeset="1361937" lat="53.4243724" lon="14.5273928">
    <tag k="note" v="fixme"/>
    <tag k="power" v="tower"/>
  </node>
  <node id="412985119" version="2" timestamp="2009-10-21T20:40:09Z" uid="30632" user="antblant" changeset="2916799" lat="53.4244229" lon="14.52755">
    <tag k="note" v="fixme"/>
    <tag k="power" v="tower"/>
  </node>
  <node id="412985123" version="1" timestamp="2009-05-30T18:20:27Z" uid="30632" user="antblant" changeset="1361937" lat="53.4136268" lon="14.5277392"/>
  <node id="412985123" version="2" timestamp="2009-06-19T20:20:21Z" uid="30632" user="antblant" changeset="1568874" lat="53.4136193" lon="14.527802"/>
  <node id="412985123" version="3" timestamp="2009-09-13T14:27:04Z" uid="30632" user="antblant" changeset="2470392" lat="53.4136048" lon="14.5274367"/>
  <node id="412985128" version="1" timestamp="2009-05-30T18:20:27Z" uid="30632" user="antblant" changeset="1361937" lat="53.4078094" lon="14.5199442">
    <tag k="note" v="power=tower"/>
  </node>
  <node id="412985128" version="2" timestamp="2009-06-19T20:20:21Z" uid="30632" user="antblant" changeset="1568874" lat="53.4077543" lon="14.5198076">
    <tag k="power" v="tower"/>
    <tag k="ref" v="12"/>
  </node>
  <node id="412985131" version="1" timestamp="2009-05-30T18:20:27Z" uid="30632" user="antblant" changeset="1361937" lat="53.4056356" lon="14.5178428">
    <tag k="note" v="power=tower"/>
  </node>
  <node id="412985131" version="2" timestamp="2009-06-19T20:20:21Z" uid="30632" user="antblant" changeset="1568874" lat="53.4056619" lon="14.5177946">
    <tag k="power" v="tower"/>
    <tag k="ref" v="11"/>
  </node>
  <node id="412985136" version="1" timestamp="2009-05-30T18:20:27Z" uid="30632" user="antblant" changeset="1361937" lat="53.4097542" lon="14.5235246">
    <tag k="note" v="power=tower"/>
  </node>
  <node id="412985136" version="2" timestamp="2009-06-19T20:20:21Z" uid="30632" user="antblant" changeset="1568874" lat="53.4097063" lon="14.5235527">
    <tag k="power" v="tower"/>
    <tag k="ref" v="14"/>
  </node>
  <node id="412985139" version="1" timestamp="2009-05-30T18:20:27Z" uid="30632" user="antblant" changeset="1361937" lat="53.4089174" lon="14.5220942">
    <tag k="note" v="power=tower"/>
  </node>
  <node id="412985139" version="2" timestamp="2009-06-19T20:20:21Z" uid="30632" user="antblant" changeset="1568874" lat="53.4090491" lon="14.5221263">
    <tag k="power" v="tower"/>
    <tag k="ref" v="13"/>
  </node>
  <node id="412985141" version="1" timestamp="2009-05-30T18:20:27Z" uid="30632" user="antblant" changeset="1361937" lat="53.4109226" lon="14.5243987">
    <tag k="note" v="power=tower"/>
  </node>
  <node id="412985141" version="2" timestamp="2009-09-13T14:27:04Z" uid="30632" user="antblant" changeset="2470392" lat="53.4109153" lon="14.5241673">
    <tag k="note" v="power=tower"/>
  </node>
  <node id="412985144" version="1" timestamp="2009-05-30T18:20:27Z" uid="30632" user="antblant" changeset="1361937" lat="53.4110963" lon="14.5265973">
    <tag k="note" v="power=tower"/>
  </node>
  <node id="412985144" version="2" timestamp="2009-06-19T20:20:21Z" uid="30632" user="antblant" changeset="1568874" lat="53.4111786" lon="14.5271372">
    <tag k="amenity" v="recycling"/>
  </node>
  <node id="412985144" version="3" timestamp="2010-04-25T19:15:21Z" uid="20587" user="balrog-kun" changeset="4525292" lat="53.4112222" lon="14.5270431">
    <tag k="amenity" v="recycling"/>
  </node>
  <node id="412985149" version="1" timestamp="2009-05-30T18:20:27Z" uid="30632" user="antblant" changeset="1361937" lat="53.4130646" lon="14.5281248">
    <tag k="note" v="power=tower"/>
  </node>
  <node id="412985149" version="2" timestamp="2009-06-19T20:20:22Z" uid="30632" user="antblant" changeset="1568874" lat="53.4130646" lon="14.5281248">
    <tag k="note" v="power=tower"/>
  </node>
  <node id="412989083" version="2" timestamp="2009-06-16T14:35:15Z" uid="20587" user="balrog-kun" changeset="1535687" lat="52.6583064" lon="16.0797243">
    <tag k="is_in" v="Białystok, gmina Miasto Białystok, powiat białystok, województwo podlaskie, Poland"/>
    <tag k="is_in:county" v="powiat białystok"/>
    <tag k="is_in:municipality" v="gmina Miasto Białystok"/>
    <tag k="is_in:province" v="województwo podlaskie"/>
    <tag k="is_in:town" v="Białystok"/>
    <tag k="name" v="Piaski"/>
    <tag k="place" v="suburb"/>
    <tag k="wikipedia" v="Białystok-Piaski"/>
  </node>
  <node id="412989086" version="2" timestamp="2009-06-16T14:37:34Z" uid="20587" user="balrog-kun" changeset="1535709" lat="52.60736" lon="15.9223966">
    <tag k="is_in" v="gmina Międzychód, powiat międzychodzki, województwo wielkopolskie, Poland"/>
    <tag k="is_in:county" v="powiat międzychodzki"/>
    <tag k="is_in:municipality" v="gmina Międzychód"/>
    <tag k="is_in:province" v="województwo wielkopolskie"/>
    <tag k="name" v="Bielsko"/>
    <tag k="place" v="village"/>
    <tag k="population" v="1300"/>
    <tag k="source:population" v="wikipedia"/>
    <tag k="wikipedia" v="pl:Bielsko (powiat międzychodzki)"/>
  </node>
  <node id="412989086" version="3" timestamp="2010-04-11T04:47:07Z" uid="20587" user="balrog-kun" changeset="4389130" lat="52.607327" lon="15.9228416">
    <tag k="is_in" v="gmina Międzychód, powiat międzychodzki, województwo wielkopolskie, Poland"/>
    <tag k="is_in:county" v="powiat międzychodzki"/>
    <tag k="is_in:municipality" v="gmina Międzychód"/>
    <tag k="is_in:province" v="województwo wielkopolskie"/>
    <tag k="name" v="Bielsko"/>
    <tag k="place" v="village"/>
    <tag k="population" v="1300"/>
    <tag k="source:population" v="wikipedia"/>
    <tag k="wikipedia" v="pl:Bielsko (powiat międzychodzki)"/>
  </node>
  <node id="412989089" version="2" timestamp="2009-06-16T14:37:52Z" uid="20587" user="balrog-kun" changeset="1535709" lat="52.5861409" lon="15.8953599">
    <tag k="addr:postcode" v="64-400"/>
    <tag k="is_in" v="gmina Międzychód, powiat międzychodzki, województwo wielkopolskie, Poland"/>
    <tag k="is_in:county" v="powiat międzychodzki"/>
    <tag k="is_in:municipality" v="gmina Międzychód"/>
    <tag k="is_in:province" v="województwo wielkopolskie"/>
    <tag k="name" v="Wielowieś"/>
    <tag k="place" v="village"/>
    <tag k="population" v="296"/>
    <tag k="source:population" v="wikipedia"/>
    <tag k="wikipedia" v="pl:Wielowieś (powiat międzychodzki)"/>
  </node>
  <node id="412989089" version="4" timestamp="2010-04-11T04:47:07Z" uid="20587" user="balrog-kun" changeset="4389130" lat="52.5863672" lon="15.8956989">
    <tag k="addr:postcode" v="64-400"/>
    <tag k="is_in" v="gmina Międzychód, powiat międzychodzki, województwo wielkopolskie, Poland"/>
    <tag k="is_in:county" v="powiat międzychodzki"/>
    <tag k="is_in:municipality" v="gmina Międzychód"/>
    <tag k="is_in:province" v="województwo wielkopolskie"/>
    <tag k="name" v="Wielowieś"/>
    <tag k="name:de" v="Wielowies"/>
    <tag k="name:en" v="Wielowies"/>
    <tag k="place" v="village"/>
    <tag k="population" v="296"/>
    <tag k="source:population" v="wikipedia"/>
    <tag k="wikipedia" v="pl:Wielowieś (powiat międzychodzki)"/>
  </node>
</osm>
