<?xml version='1.0' encoding='UTF-8'?>
<osm version="0.6" generator="libosmium/2.20.0">
  <node id="413110222" version="2" timestamp="2009-06-21T14:20:21Z" uid="20587" user="balrog-kun" changeset="1583765" lat="52.2174417" lon="21.0192511">
    <tag k="name" v="Trasa Łazienkowska 01"/>
    <tag k="railway" v="tram_stop"/>
  </node>
  <node id="413110222" version="3" timestamp="2009-11-01T03:15:19Z" uid="20587" user="balrog-kun" changeset="3003408" lat="52.2174417" lon="21.0192511">
    <tag k="name" v="Trasa Łazienkowska 01"/>
    <tag k="railway" v="tram_stop"/>
    <tag k="tactile_paving" v="yes"/>
  </node>
  <node id="413110222" version="4" timestamp="2010-01-12T13:53:45Z" uid="20587" user="balrog-kun" changeset="3603234" lat="52.2174417" lon="21.0192511">
    <tag k="name" v="Trasa Łazienkowska 01"/>
    <tag k="railway" v="tram_stop"/>
    <tag k="tactile_paving" v="yes"/>
    <tag k="ztm:ciąg_ulicy" v="Marszałkowska"/>
  </node>
  <node id="413115832" version="2" timestamp="2009-08-08T15:03:48Z" uid="20587" user="balrog-kun" changeset="2076575" lat="52.2096835" lon="21.0211728">
    <tag k="name" v="Rakowiecka 06"/>
    <tag k="railway" v="tram_stop"/>
  </node>
  <node id="413115832" version="3" timestamp="2010-01-12T13:53:45Z" uid="20587" user="balrog-kun" changeset="3603234" lat="52.2096835" lon="21.0211728">
    <tag k="name" v="Rakowiecka 06"/>
    <tag k="railway" v="tram_stop"/>
    <tag k="tactile_paving" v="yes"/>
    <tag k="tactile_paving:slab_size" v="40x40"/>
    <tag k="ztm:ciąg_ulicy" v="Puławska"/>
  </node>
  <node id="413119542" version="2" timestamp="2009-08-08T15:03:45Z" uid="20587" user="balrog-kun" changeset="2076575" lat="52.2053475" lon="21.0228315">
    <tag k="name" v="Dworkowa 06"/>
    <tag k="railway" v="tram_stop"/>
  </node>
  <node id="413119542" version="3" timestamp="2010-01-12T13:53:12Z" uid="20587" user="balrog-kun" changeset="3603234" lat="52.2053475" lon="21.0228315">
    <tag k="name" v="Dworkowa 06"/>
    <tag k="railway" v="tram_stop"/>
    <tag k="tactile_paving" v="yes"/>
    <tag k="tactile_paving:slab_size" v="40x40"/>
    <tag k="ztm:ciąg_ulicy" v="Puławska"/>
  </node>
</osm>
