<?xml version='1.0' encoding='UTF-8'?>
<osm version="0.6" generator="libosmium/2.20.0">
  <node id="413370343" version="2" timestamp="2009-06-16T14:28:31Z" uid="20587" user="balrog-kun" changeset="1535626" lat="51.4055639" lon="17.0976359">
    <tag k="is_in" v="gmina Trzebnica, powiat trzebnicki, województwo dolnośląskie, Poland"/>
    <tag k="is_in:county" v="powiat trzebnicki"/>
    <tag k="is_in:municipality" v="gmina Trzebnica"/>
    <tag k="is_in:province" v="województwo dolnośląskie"/>
    <tag k="name" v="Biedaszków Mały"/>
    <tag k="place" v="village"/>
    <tag k="wikipedia" v="Biedaszków Mały"/>
  </node>
  <node id="413370343" version="3" timestamp="2010-04-27T04:10:55Z" uid="30632" user="antblant" changeset="4537882" lat="51.4055639" lon="17.0976359">
    <tag k="is_in" v="gmina Trzebnica, powiat trzebnicki, województwo dolnośląskie, Poland"/>
    <tag k="is_in:county" v="powiat trzebnicki"/>
    <tag k="is_in:municipality" v="gmina Trzebnica"/>
    <tag k="is_in:province" v="województwo dolnośląskie"/>
    <tag k="name" v="Biedaszków Mały"/>
    <tag k="place" v="village"/>
    <tag k="teryt:simc" v="0881294"/>
    <tag k="wikipedia" v="Biedaszków Mały"/>
  </node>
  <node id="413370344" version="2" timestamp="2010-04-11T04:47:11Z" uid="20587" user="balrog-kun" changeset="4389130" lat="51.4157601" lon="17.0957371">
    <tag k="name" v="Ujeździec Wielki"/>
    <tag k="place" v="village"/>
  </node>
  <node id="413370344" version="3" timestamp="2010-04-27T04:10:55Z" uid="30632" user="antblant" changeset="4537882" lat="51.4157601" lon="17.0957371">
    <tag k="name" v="Ujeździec Wielki"/>
    <tag k="place" v="village"/>
    <tag k="teryt:simc" v="0881740"/>
  </node>
  <node id="413370345" version="2" timestamp="2009-06-16T14:28:16Z" uid="20587" user="balrog-kun" changeset="1535626" lat="51.4726557" lon="17.1620089">
    <tag k="addr:postcode" v="56-300"/>
    <tag k="is_in" v="gmina Milicz, powiat milicki, województwo dolnośląskie, Poland"/>
    <tag k="is_in:county" v="powiat milicki"/>
    <tag k="is_in:municipality" v="gmina Milicz"/>
    <tag k="is_in:province" v="województwo dolnośląskie"/>
    <tag k="name" v="Gruszeczka"/>
    <tag k="place" v="village"/>
    <tag k="wikipedia" v="Gruszeczka"/>
  </node>
  <node id="413370345" version="3" timestamp="2010-04-11T04:47:11Z" uid="20587" user="balrog-kun" changeset="4389130" lat="51.473056" lon="17.1626782">
    <tag k="addr:postcode" v="56-300"/>
    <tag k="is_in" v="gmina Milicz, powiat milicki, województwo dolnośląskie, Poland"/>
    <tag k="is_in:county" v="powiat milicki"/>
    <tag k="is_in:municipality" v="gmina Milicz"/>
    <tag k="is_in:province" v="województwo dolnośląskie"/>
    <tag k="name" v="Gruszeczka"/>
    <tag k="place" v="village"/>
    <tag k="wikipedia" v="Gruszeczka"/>
  </node>
  <node id="413370345" version="4" timestamp="2010-04-27T04:10:55Z" uid="30632" user="antblant" changeset="4537882" lat="51.473056" lon="17.1626782">
    <tag k="addr:postcode" v="56-300"/>
    <tag k="is_in" v="gmina Milicz, powiat milicki, województwo dolnośląskie, Poland"/>
    <tag k="is_in:county" v="powiat milicki"/>
    <tag k="is_in:municipality" v="gmina Milicz"/>
    <tag k="is_in:province" v="województwo dolnośląskie"/>
    <tag k="name" v="Gruszeczka"/>
    <tag k="place" v="village"/>
    <tag k="teryt:simc" v="0877766"/>
    <tag k="wikipedia" v="Gruszeczka"/>
  </node>
  <node id="413370347" version="2" timestamp="2009-06-16T14:28:16Z" uid="20587" user="balrog-kun" changeset="1535626" lat="51.5223491" lon="17.0787532">
    <tag k="addr:postcode" v="56-300"/>
    <tag k="is_in" v="gmina Milicz, powiat milicki, województwo dolnośląskie, Poland"/>
    <tag k="is_in:county" v="powiat milicki"/>
    <tag k="is_in:municipality" v="gmina Milicz"/>
    <tag k="is_in:province" v="województwo dolnośląskie"/>
    <tag k="name" v="Grabówka"/>
    <tag k="place" v="village"/>
    <tag k="wikipedia" v="Grabówka, Lower Silesian Voivodeship"/>
  </node>
  <node id="413371601" version="2" timestamp="2009-06-16T14:28:29Z" uid="20587" user="balrog-kun" changeset="1535626" lat="51.5425849" lon="17.063132">
    <tag k="addr:postcode" v="56-300"/>
    <tag k="is_in" v="gmina Milicz, powiat milicki, województwo dolnośląskie, Poland"/>
    <tag k="is_in:county" v="powiat milicki"/>
    <tag k="is_in:municipality" v="gmina Milicz"/>
    <tag k="is_in:province" v="województwo dolnośląskie"/>
    <tag k="name" v="Olsza"/>
    <tag k="place" v="village"/>
    <tag k="wikipedia" v="Olsza, Lower Silesian Voivodeship"/>
  </node>
  <node id="413371601" version="3" timestamp="2010-04-11T04:47:11Z" uid="20587" user="balrog-kun" changeset="4389130" lat="51.5417614" lon="17.0634794">
    <tag k="addr:postcode" v="56-300"/>
    <tag k="is_in" v="gmina Milicz, powiat milicki, województwo dolnośląskie, Poland"/>
    <tag k="is_in:county" v="powiat milicki"/>
    <tag k="is_in:municipality" v="gmina Milicz"/>
    <tag k="is_in:province" v="województwo dolnośląskie"/>
    <tag k="name" v="Olsza"/>
    <tag k="place" v="village"/>
    <tag k="wikipedia" v="Olsza, Lower Silesian Voivodeship"/>
  </node>
  <node id="413371649" version="2" timestamp="2010-05-02T10:17:31Z" uid="151899" user="Bikeman2000" changeset="4583124" lat="51.2516885" lon="6.7749687"/>
  <node id="413371650" version="2" timestamp="2010-05-02T10:17:32Z" uid="151899" user="Bikeman2000" changeset="4583124" lat="51.2517758" lon="6.7755239"/>
  <node id="413371655" version="3" timestamp="2010-05-02T12:12:29Z" uid="151899" user="Bikeman2000" changeset="4584263" lat="51.2525521" lon="6.7740608"/>
  <node id="413371906" version="2" timestamp="2009-08-10T03:02:59Z" uid="4467" user="Rosscoe" changeset="2092485" lat="-34.0485624" lon="150.7589368"/>
  <node id="413371907" version="2" timestamp="2009-08-10T03:02:59Z" uid="4467" user="Rosscoe" changeset="2092485" lat="-34.0489772" lon="150.7596838"/>
  <node id="413371911" version="2" timestamp="2009-08-10T02:12:43Z" uid="4467" user="Rosscoe" changeset="2092346" lat="-34.0494033" lon="150.7586345"/>
  <node id="413371911" version="3" timestamp="2009-08-10T03:02:59Z" uid="4467" user="Rosscoe" changeset="2092485" lat="-34.0494033" lon="150.7586345"/>
  <node id="413371912" version="2" timestamp="2009-08-10T02:12:43Z" uid="4467" user="Rosscoe" changeset="2092346" lat="-34.0493573" lon="150.7585549"/>
  <node id="413371912" version="3" timestamp="2009-08-10T03:02:59Z" uid="4467" user="Rosscoe" changeset="2092485" lat="-34.0493573" lon="150.7585549"/>
  <node id="413371913" version="2" timestamp="2009-08-10T02:12:43Z" uid="4467" user="Rosscoe" changeset="2092346" lat="-34.0493073" lon="150.7584685"/>
  <node id="413371913" version="3" timestamp="2009-08-10T03:02:59Z" uid="4467" user="Rosscoe" changeset="2092485" lat="-34.0493073" lon="150.7584685"/>
  <node id="413371915" version="2" timestamp="2009-06-16T14:37:51Z" uid="20587" user="balrog-kun" changeset="1535709" lat="51.6158179" lon="17.0560939">
    <tag k="addr:postcode" v="63-920"/>
    <tag k="is_in" v="gmina Pakosław, powiat rawicki, województwo wielkopolskie, Poland"/>
    <tag k="is_in:county" v="powiat rawicki"/>
    <tag k="is_in:municipality" v="gmina Pakosław"/>
    <tag k="is_in:province" v="województwo wielkopolskie"/>
    <tag k="name" v="Pakosław"/>
    <tag k="place" v="town"/>
    <tag k="population" v="890"/>
    <tag k="source:population" v="wikipedia"/>
    <tag k="wikipedia" v="Pakosław, Rawicz County"/>
  </node>
  <node id="413371915" version="3" timestamp="2010-04-11T04:47:11Z" uid="20587" user="balrog-kun" changeset="4389130" lat="51.6157255" lon="17.0565157">
    <tag k="addr:postcode" v="63-920"/>
    <tag k="is_in" v="gmina Pakosław, powiat rawicki, województwo wielkopolskie, Poland"/>
    <tag k="is_in:county" v="powiat rawicki"/>
    <tag k="is_in:municipality" v="gmina Pakosław"/>
    <tag k="is_in:province" v="województwo wielkopolskie"/>
    <tag k="name" v="Pakosław"/>
    <tag k="place" v="town"/>
    <tag k="population" v="890"/>
    <tag k="source:population" v="wikipedia"/>
    <tag k="wikipedia" v="Pakosław, Rawicz County"/>
  </node>
  <node id="413379581" version="2" timestamp="2009-10-15T12:03:24Z" uid="186548" user="fojhtirf" changeset="2854054" lat="52.4421231" lon="8.3507187"/>
  <node id="413379585" version="2" timestamp="2009-10-15T12:03:24Z" uid="186548" user="fojhtirf" changeset="2854054" lat="52.4420631" lon="8.3491618"/>
  <node id="413379628" version="2" timestamp="2009-06-16T14:37:51Z" uid="20587" user="balrog-kun" changeset="1535709" lat="51.627861" lon="17.0056254">
    <tag k="is_in" v="gmina Pakosław, powiat rawicki, województwo wielkopolskie, Poland"/>
    <tag k="is_in:county" v="powiat rawicki"/>
    <tag k="is_in:municipality" v="gmina Pakosław"/>
    <tag k="is_in:province" v="województwo wielkopolskie"/>
    <tag k="name" v="Chojno"/>
    <tag k="place" v="village"/>
    <tag k="wikipedia" v="Chojno, Rawicz County"/>
  </node>
  <node id="413379628" version="3" timestamp="2010-04-11T04:47:11Z" uid="20587" user="balrog-kun" changeset="4389130" lat="51.6271857" lon="17.0071478">
    <tag k="is_in" v="gmina Pakosław, powiat rawicki, województwo wielkopolskie, Poland"/>
    <tag k="is_in:county" v="powiat rawicki"/>
    <tag k="is_in:municipality" v="gmina Pakosław"/>
    <tag k="is_in:province" v="województwo wielkopolskie"/>
    <tag k="name" v="Chojno"/>
    <tag k="place" v="village"/>
    <tag k="wikipedia" v="Chojno, Rawicz County"/>
  </node>
  <node id="413379629" version="2" timestamp="2009-06-16T14:37:46Z" uid="20587" user="balrog-kun" changeset="1535709" lat="51.6501802" lon="16.9776446">
    <tag k="is_in" v="gmina Miejska Górka, powiat rawicki, województwo wielkopolskie, Poland"/>
    <tag k="is_in:county" v="powiat rawicki"/>
    <tag k="is_in:municipality" v="gmina Miejska Górka"/>
    <tag k="is_in:province" v="województwo wielkopolskie"/>
    <tag k="name" v="Dąbrowa"/>
    <tag k="place" v="village"/>
    <tag k="wikipedia" v="Dąbrowa, Rawicz County"/>
  </node>
  <node id="413379630" version="2" timestamp="2009-06-16T14:37:50Z" uid="20587" user="balrog-kun" changeset="1535709" lat="51.6713173" lon="16.895333">
    <tag k="is_in" v="gmina Miejska Górka, powiat rawicki, województwo wielkopolskie, Poland"/>
    <tag k="is_in:county" v="powiat rawicki"/>
    <tag k="is_in:municipality" v="gmina Miejska Górka"/>
    <tag k="is_in:province" v="województwo wielkopolskie"/>
    <tag k="name" v="Zakrzewo"/>
    <tag k="place" v="village"/>
    <tag k="wikipedia" v="Zakrzewo, Rawicz County"/>
  </node>
  <node id="413379630" version="3" timestamp="2010-04-11T04:47:11Z" uid="20587" user="balrog-kun" changeset="4389130" lat="51.6710961" lon="16.8956921">
    <tag k="is_in" v="gmina Miejska Górka, powiat rawicki, województwo wielkopolskie, Poland"/>
    <tag k="is_in:county" v="powiat rawicki"/>
    <tag k="is_in:municipality" v="gmina Miejska Górka"/>
    <tag k="is_in:province" v="województwo wielkopolskie"/>
    <tag k="name" v="Zakrzewo"/>
    <tag k="place" v="village"/>
    <tag k="wikipedia" v="Zakrzewo, Rawicz County"/>
  </node>
  <node id="413379631" version="2" timestamp="2009-06-16T14:37:56Z" uid="20587" user="balrog-kun" changeset="1535709" lat="51.6935619" lon="16.8536193">
    <tag k="addr:postcode" v="63-940"/>
    <tag k="is_in" v="gmina Bojanowo, powiat rawicki, województwo wielkopolskie, Poland"/>
    <tag k="is_in:county" v="powiat rawicki"/>
    <tag k="is_in:municipality" v="gmina Bojanowo"/>
    <tag k="is_in:province" v="województwo wielkopolskie"/>
    <tag k="name" v="Kawcze"/>
    <tag k="place" v="village"/>
    <tag k="wikipedia" v="Kawcze, Greater Poland Voivodeship"/>
  </node>
  <node id="413379631" version="3" timestamp="2010-04-11T04:47:11Z" uid="20587" user="balrog-kun" changeset="4389130" lat="51.6932103" lon="16.8529655">
    <tag k="addr:postcode" v="63-940"/>
    <tag k="is_in" v="gmina Bojanowo, powiat rawicki, województwo wielkopolskie, Poland"/>
    <tag k="is_in:county" v="powiat rawicki"/>
    <tag k="is_in:municipality" v="gmina Bojanowo"/>
    <tag k="is_in:province" v="województwo wielkopolskie"/>
    <tag k="name" v="Kawcze"/>
    <tag k="place" v="village"/>
    <tag k="wikipedia" v="Kawcze, Greater Poland Voivodeship"/>
  </node>
</osm>
