<?xml version='1.0' encoding='UTF-8'?>
<osm version="0.6" generator="libosmium/2.20.0">
  <node id="413350244" version="3" timestamp="2009-10-20T00:18:27Z" uid="36809" user="pfoten_weg_!_" changeset="2899059" lat="47.7360271" lon="11.709155"/>
  <node id="413350462" version="2" timestamp="2009-06-16T14:28:11Z" uid="20587" user="balrog-kun" changeset="1535626" lat="50.9637355" lon="17.1247073">
    <tag k="is_in" v="gmina Żórawina, powiat wrocławski, województwo dolnośląskie, Poland"/>
    <tag k="is_in:county" v="powiat wrocławski"/>
    <tag k="is_in:municipality" v="gmina Żórawina"/>
    <tag k="is_in:province" v="województwo dolnośląskie"/>
    <tag k="name" v="Rynakowice"/>
    <tag k="place" v="village"/>
    <tag k="population" v="39"/>
    <tag k="source:population" v="wikipedia"/>
    <tag k="wikipedia" v="Rynakowice"/>
  </node>
  <node id="413350462" version="3" timestamp="2010-04-27T04:14:06Z" uid="30632" user="antblant" changeset="4537892" lat="50.9637355" lon="17.1247073">
    <tag k="is_in" v="gmina Żórawina, powiat wrocławski, województwo dolnośląskie, Poland"/>
    <tag k="is_in:county" v="powiat wrocławski"/>
    <tag k="is_in:municipality" v="gmina Żórawina"/>
    <tag k="is_in:province" v="województwo dolnośląskie"/>
    <tag k="name" v="Rynakowice"/>
    <tag k="place" v="village"/>
    <tag k="population" v="39"/>
    <tag k="source:population" v="wikipedia"/>
    <tag k="teryt:simc" v="0884737"/>
    <tag k="wikipedia" v="Rynakowice"/>
  </node>
  <node id="413350463" version="3" timestamp="2009-10-20T00:22:59Z" uid="36809" user="pfoten_weg_!_" changeset="2899059" lat="47.7390152" lon="11.7120086"/>
  <node id="413350464" version="4" timestamp="2009-10-20T00:22:59Z" uid="36809" user="pfoten_weg_!_" changeset="2899059" lat="47.7385495" lon="11.7119726"/>
  <node id="413350465" version="3" timestamp="2009-10-20T00:22:48Z" uid="36809" user="pfoten_weg_!_" changeset="2899059" lat="47.737675" lon="11.7125847"/>
  <node id="413350466" version="3" timestamp="2009-10-20T00:22:49Z" uid="36809" user="pfoten_weg_!_" changeset="2899059" lat="47.737401" lon="11.7126363"/>
  <node id="413350467" version="4" timestamp="2009-10-20T00:22:40Z" uid="36809" user="pfoten_weg_!_" changeset="2899059" lat="47.7368154" lon="11.7119534"/>
  <node id="413350468" version="3" timestamp="2009-10-20T00:22:40Z" uid="36809" user="pfoten_weg_!_" changeset="2899059" lat="47.736599" lon="11.7120356"/>
  <node id="413350470" version="3" timestamp="2009-10-20T00:22:40Z" uid="36809" user="pfoten_weg_!_" changeset="2899059" lat="47.7364766" lon="11.71191"/>
  <node id="413350471" version="3" timestamp="2009-10-20T00:22:40Z" uid="36809" user="pfoten_weg_!_" changeset="2899059" lat="47.7362931" lon="11.7116065"/>
  <node id="413350472" version="3" timestamp="2009-10-20T00:18:36Z" uid="36809" user="pfoten_weg_!_" changeset="2899059" lat="47.736441" lon="11.71016"/>
  <node id="413350473" version="4" timestamp="2009-10-20T00:18:33Z" uid="36809" user="pfoten_weg_!_" changeset="2899059" lat="47.7365061" lon="11.7094808"/>
  <node id="413350474" version="2" timestamp="2009-06-16T14:28:19Z" uid="20587" user="balrog-kun" changeset="1535626" lat="50.9496244" lon="17.1185704">
    <tag k="addr:postcode" v="55-216"/>
    <tag k="is_in" v="gmina Domaniów, powiat oławski, województwo dolnośląskie, Poland"/>
    <tag k="is_in:county" v="powiat oławski"/>
    <tag k="is_in:municipality" v="gmina Domaniów"/>
    <tag k="is_in:province" v="województwo dolnośląskie"/>
    <tag k="name" v="Gęsice"/>
    <tag k="place" v="village"/>
    <tag k="population" v="211"/>
    <tag k="source:population" v="wikipedia"/>
    <tag k="wikipedia" v="Gęsice, Lower Silesian Voivodeship"/>
  </node>
  <node id="413350474" version="3" timestamp="2010-04-11T04:47:09Z" uid="20587" user="balrog-kun" changeset="4389130" lat="50.9495346" lon="17.1174729">
    <tag k="addr:postcode" v="55-216"/>
    <tag k="is_in" v="gmina Domaniów, powiat oławski, województwo dolnośląskie, Poland"/>
    <tag k="is_in:county" v="powiat oławski"/>
    <tag k="is_in:municipality" v="gmina Domaniów"/>
    <tag k="is_in:province" v="województwo dolnośląskie"/>
    <tag k="name" v="Gęsice"/>
    <tag k="place" v="village"/>
    <tag k="population" v="211"/>
    <tag k="source:population" v="wikipedia"/>
    <tag k="wikipedia" v="Gęsice, Lower Silesian Voivodeship"/>
  </node>
  <node id="413350476" version="2" timestamp="2009-06-16T14:28:26Z" uid="20587" user="balrog-kun" changeset="1535626" lat="50.9288555" lon="17.140114">
    <tag k="is_in" v="gmina Domaniów, powiat oławski, województwo dolnośląskie, Poland"/>
    <tag k="is_in:county" v="powiat oławski"/>
    <tag k="is_in:municipality" v="gmina Domaniów"/>
    <tag k="is_in:province" v="województwo dolnośląskie"/>
    <tag k="name" v="Piskorzów"/>
    <tag k="place" v="village"/>
    <tag k="wikipedia" v="Piskorzów"/>
  </node>
  <node id="413350476" version="3" timestamp="2010-04-11T04:47:10Z" uid="20587" user="balrog-kun" changeset="4389130" lat="50.9293738" lon="17.1403513">
    <tag k="is_in" v="gmina Domaniów, powiat oławski, województwo dolnośląskie, Poland"/>
    <tag k="is_in:county" v="powiat oławski"/>
    <tag k="is_in:municipality" v="gmina Domaniów"/>
    <tag k="is_in:province" v="województwo dolnośląskie"/>
    <tag k="name" v="Piskorzów"/>
    <tag k="place" v="village"/>
    <tag k="wikipedia" v="Piskorzów"/>
  </node>
  <node id="413350476" version="4" timestamp="2010-04-27T04:01:21Z" uid="30632" user="antblant" changeset="4537859" lat="50.9293738" lon="17.1403513">
    <tag k="is_in" v="gmina Domaniów, powiat oławski, województwo dolnośląskie, Poland"/>
    <tag k="is_in:county" v="powiat oławski"/>
    <tag k="is_in:municipality" v="gmina Domaniów"/>
    <tag k="is_in:province" v="województwo dolnośląskie"/>
    <tag k="name" v="Piskorzów"/>
    <tag k="place" v="village"/>
    <tag k="teryt:simc" v="0874414"/>
    <tag k="wikipedia" v="Piskorzów"/>
  </node>
  <node id="413350477" version="2" timestamp="2009-06-16T14:28:31Z" uid="20587" user="balrog-kun" changeset="1535626" lat="50.9332372" lon="17.1053525">
    <tag k="is_in" v="gmina Żórawina, powiat wrocławski, województwo dolnośląskie, Poland"/>
    <tag k="is_in:county" v="powiat wrocławski"/>
    <tag k="is_in:municipality" v="gmina Żórawina"/>
    <tag k="is_in:province" v="województwo dolnośląskie"/>
    <tag k="name" v="Nowy Śleszów"/>
    <tag k="place" v="village"/>
    <tag k="wikipedia" v="Nowy Śleszów"/>
  </node>
  <node id="413350477" version="3" timestamp="2010-04-27T04:01:21Z" uid="30632" user="antblant" changeset="4537859" lat="50.9332372" lon="17.1053525">
    <tag k="is_in" v="gmina Żórawina, powiat wrocławski, województwo dolnośląskie, Poland"/>
    <tag k="is_in:county" v="powiat wrocławski"/>
    <tag k="is_in:municipality" v="gmina Żórawina"/>
    <tag k="is_in:province" v="województwo dolnośląskie"/>
    <tag k="name" v="Nowy Śleszów"/>
    <tag k="place" v="village"/>
    <tag k="teryt:simc" v="0884677"/>
    <tag k="wikipedia" v="Nowy Śleszów"/>
  </node>
  <node id="413350478" version="2" timestamp="2009-06-16T14:28:09Z" uid="20587" user="balrog-kun" changeset="1535626" lat="50.9421076" lon="17.0687028">
    <tag k="is_in" v="gmina Żórawina, powiat wrocławski, województwo dolnośląskie, Poland"/>
    <tag k="is_in:county" v="powiat wrocławski"/>
    <tag k="is_in:municipality" v="gmina Żórawina"/>
    <tag k="is_in:province" v="województwo dolnośląskie"/>
    <tag k="name" v="Polakowice"/>
    <tag k="place" v="village"/>
    <tag k="wikipedia" v="Polakowice"/>
  </node>
  <node id="413350478" version="3" timestamp="2010-04-11T04:47:10Z" uid="20587" user="balrog-kun" changeset="4389130" lat="50.94299" lon="17.0650864">
    <tag k="is_in" v="gmina Żórawina, powiat wrocławski, województwo dolnośląskie, Poland"/>
    <tag k="is_in:county" v="powiat wrocławski"/>
    <tag k="is_in:municipality" v="gmina Żórawina"/>
    <tag k="is_in:province" v="województwo dolnośląskie"/>
    <tag k="name" v="Polakowice"/>
    <tag k="place" v="village"/>
    <tag k="wikipedia" v="Polakowice"/>
  </node>
  <node id="413350478" version="4" timestamp="2010-04-27T04:01:21Z" uid="30632" user="antblant" changeset="4537859" lat="50.94299" lon="17.0650864">
    <tag k="is_in" v="gmina Żórawina, powiat wrocławski, województwo dolnośląskie, Poland"/>
    <tag k="is_in:county" v="powiat wrocławski"/>
    <tag k="is_in:municipality" v="gmina Żórawina"/>
    <tag k="is_in:province" v="województwo dolnośląskie"/>
    <tag k="name" v="Polakowice"/>
    <tag k="place" v="village"/>
    <tag k="teryt:simc" v="0884708"/>
    <tag k="wikipedia" v="Polakowice"/>
  </node>
  <node id="413351229" version="2" timestamp="2009-06-16T14:28:16Z" uid="20587" user="balrog-kun" changeset="1535626" lat="50.9291801" lon="17.0389196">
    <tag k="addr:postcode" v="55-030"/>
    <tag k="is_in" v="gmina Żórawina, powiat wrocławski, województwo dolnośląskie, Poland"/>
    <tag k="is_in:county" v="powiat wrocławski"/>
    <tag k="is_in:municipality" v="gmina Żórawina"/>
    <tag k="is_in:province" v="województwo dolnośląskie"/>
    <tag k="name" v="Węgry"/>
    <tag k="place" v="village"/>
    <tag k="wikipedia" v="Węgry, Lower Silesian Voivodeship"/>
  </node>
  <node id="413351229" version="3" timestamp="2010-04-11T04:47:10Z" uid="20587" user="balrog-kun" changeset="4389130" lat="50.9286329" lon="17.0386872">
    <tag k="addr:postcode" v="55-030"/>
    <tag k="is_in" v="gmina Żórawina, powiat wrocławski, województwo dolnośląskie, Poland"/>
    <tag k="is_in:county" v="powiat wrocławski"/>
    <tag k="is_in:municipality" v="gmina Żórawina"/>
    <tag k="is_in:province" v="województwo dolnośląskie"/>
    <tag k="name" v="Węgry"/>
    <tag k="place" v="village"/>
    <tag k="wikipedia" v="Węgry, Lower Silesian Voivodeship"/>
  </node>
  <node id="413351230" version="2" timestamp="2009-06-16T14:28:23Z" uid="20587" user="balrog-kun" changeset="1535626" lat="50.9149503" lon="16.9922277">
    <tag k="addr:postcode" v="55-200"/>
    <tag k="is_in" v="gmina Oława, powiat oławski, województwo dolnośląskie, Poland"/>
    <tag k="is_in:county" v="powiat oławski"/>
    <tag k="is_in:municipality" v="gmina Oława"/>
    <tag k="is_in:province" v="województwo dolnośląskie"/>
    <tag k="name" v="Marcinkowice"/>
    <tag k="place" v="village"/>
    <tag k="population" v="1300"/>
    <tag k="source:population" v="wikipedia"/>
    <tag k="wikipedia" v="Marcinkowice, Lower Silesian Voivodeship"/>
  </node>
  <node id="413351231" version="2" timestamp="2009-06-16T14:28:20Z" uid="20587" user="balrog-kun" changeset="1535626" lat="50.9198744" lon="16.9576379">
    <tag k="is_in" v="gmina Żórawina, powiat wrocławski, województwo dolnośląskie, Poland"/>
    <tag k="is_in:county" v="powiat wrocławski"/>
    <tag k="is_in:municipality" v="gmina Żórawina"/>
    <tag k="is_in:province" v="województwo dolnośląskie"/>
    <tag k="name" v="Przecławice"/>
    <tag k="place" v="village"/>
    <tag k="wikipedia" v="Przecławice, Wrocław County"/>
  </node>
  <node id="413351231" version="3" timestamp="2010-04-11T04:47:10Z" uid="20587" user="balrog-kun" changeset="4389130" lat="50.9196505" lon="16.957877">
    <tag k="is_in" v="gmina Żórawina, powiat wrocławski, województwo dolnośląskie, Poland"/>
    <tag k="is_in:county" v="powiat wrocławski"/>
    <tag k="is_in:municipality" v="gmina Żórawina"/>
    <tag k="is_in:province" v="województwo dolnośląskie"/>
    <tag k="name" v="Przecławice"/>
    <tag k="place" v="village"/>
    <tag k="wikipedia" v="Przecławice, Wrocław County"/>
  </node>
  <node id="413351232" version="2" timestamp="2011-05-09T19:51:33Z" uid="30632" user="antblant" changeset="8096240" lat="50.925277" lon="17.032547">
    <tag k="name" v="Węgry"/>
    <tag k="railway" v="station"/>
    <tag k="wikipedia" v="pl:Węgry_(przystanek_kolejowy)"/>
  </node>
  <node id="413351348" version="2" timestamp="2009-06-16T14:28:09Z" uid="20587" user="balrog-kun" changeset="1535626" lat="50.9344272" lon="16.9650193">
    <tag k="addr:postcode" v="55-020"/>
    <tag k="is_in" v="gmina Żórawina, powiat wrocławski, województwo dolnośląskie, Poland"/>
    <tag k="is_in:county" v="powiat wrocławski"/>
    <tag k="is_in:municipality" v="gmina Żórawina"/>
    <tag k="is_in:province" v="województwo dolnośląskie"/>
    <tag k="name" v="Jaksonów"/>
    <tag k="place" v="village"/>
    <tag k="wikipedia" v="Jaksonów"/>
  </node>
  <node id="413351348" version="3" timestamp="2010-04-11T04:47:10Z" uid="20587" user="balrog-kun" changeset="4389130" lat="50.9349815" lon="16.965342">
    <tag k="addr:postcode" v="55-020"/>
    <tag k="is_in" v="gmina Żórawina, powiat wrocławski, województwo dolnośląskie, Poland"/>
    <tag k="is_in:county" v="powiat wrocławski"/>
    <tag k="is_in:municipality" v="gmina Żórawina"/>
    <tag k="is_in:province" v="województwo dolnośląskie"/>
    <tag k="name" v="Jaksonów"/>
    <tag k="place" v="village"/>
    <tag k="wikipedia" v="Jaksonów"/>
  </node>
  <node id="413351348" version="4" timestamp="2010-04-27T04:18:21Z" uid="30632" user="antblant" changeset="4537909" lat="50.9349815" lon="16.965342">
    <tag k="addr:postcode" v="55-020"/>
    <tag k="is_in" v="gmina Żórawina, powiat wrocławski, województwo dolnośląskie, Poland"/>
    <tag k="is_in:county" v="powiat wrocławski"/>
    <tag k="is_in:municipality" v="gmina Żórawina"/>
    <tag k="is_in:province" v="województwo dolnośląskie"/>
    <tag k="name" v="Jaksonów"/>
    <tag k="place" v="village"/>
    <tag k="teryt:simc" v="0884588"/>
    <tag k="wikipedia" v="Jaksonów"/>
  </node>
  <node id="413351349" version="2" timestamp="2009-06-16T14:28:17Z" uid="20587" user="balrog-kun" changeset="1535626" lat="50.9469747" lon="16.9943734">
    <tag k="is_in" v="gmina Żórawina, powiat wrocławski, województwo dolnośląskie, Poland"/>
    <tag k="is_in:county" v="powiat wrocławski"/>
    <tag k="is_in:municipality" v="gmina Żórawina"/>
    <tag k="is_in:province" v="województwo dolnośląskie"/>
    <tag k="name" v="Pasterzyce"/>
    <tag k="place" v="village"/>
    <tag k="wikipedia" v="Pasterzyce"/>
  </node>
  <node id="413351349" version="3" timestamp="2010-04-11T04:47:10Z" uid="20587" user="balrog-kun" changeset="4389130" lat="50.9474659" lon="16.994748">
    <tag k="is_in" v="gmina Żórawina, powiat wrocławski, województwo dolnośląskie, Poland"/>
    <tag k="is_in:county" v="powiat wrocławski"/>
    <tag k="is_in:municipality" v="gmina Żórawina"/>
    <tag k="is_in:province" v="województwo dolnośląskie"/>
    <tag k="name" v="Pasterzyce"/>
    <tag k="place" v="village"/>
    <tag k="wikipedia" v="Pasterzyce"/>
  </node>
  <node id="413351349" version="4" timestamp="2010-04-27T04:18:21Z" uid="30632" user="antblant" changeset="4537909" lat="50.9474659" lon="16.994748">
    <tag k="is_in" v="gmina Żórawina, powiat wrocławski, województwo dolnośląskie, Poland"/>
    <tag k="is_in:county" v="powiat wrocławski"/>
    <tag k="is_in:municipality" v="gmina Żórawina"/>
    <tag k="is_in:province" v="województwo dolnośląskie"/>
    <tag k="name" v="Pasterzyce"/>
    <tag k="place" v="village"/>
    <tag k="teryt:simc" v="0884690"/>
    <tag k="wikipedia" v="Pasterzyce"/>
  </node>
  <node id="413351350" version="2" timestamp="2009-06-16T14:28:23Z" uid="20587" user="balrog-kun" changeset="1535626" lat="50.9437841" lon="17.0202943">
    <tag k="addr:postcode" v="55-020"/>
    <tag k="is_in" v="gmina Żórawina, powiat wrocławski, województwo dolnośląskie, Poland"/>
    <tag k="is_in:county" v="powiat wrocławski"/>
    <tag k="is_in:municipality" v="gmina Żórawina"/>
    <tag k="is_in:province" v="województwo dolnośląskie"/>
    <tag k="name" v="Bogunów"/>
    <tag k="place" v="village"/>
    <tag k="wikipedia" v="Bogunów"/>
  </node>
  <node id="413351350" version="3" timestamp="2010-04-11T04:47:10Z" uid="20587" user="balrog-kun" changeset="4389130" lat="50.9438099" lon="17.0200806">
    <tag k="addr:postcode" v="55-020"/>
    <tag k="is_in" v="gmina Żórawina, powiat wrocławski, województwo dolnośląskie, Poland"/>
    <tag k="is_in:county" v="powiat wrocławski"/>
    <tag k="is_in:municipality" v="gmina Żórawina"/>
    <tag k="is_in:province" v="województwo dolnośląskie"/>
    <tag k="name" v="Bogunów"/>
    <tag k="place" v="village"/>
    <tag k="wikipedia" v="Bogunów"/>
  </node>
  <node id="413351350" version="4" timestamp="2010-04-27T04:05:45Z" uid="30632" user="antblant" changeset="4537871" lat="50.9438099" lon="17.0200806">
    <tag k="addr:postcode" v="55-020"/>
    <tag k="is_in" v="gmina Żórawina, powiat wrocławski, województwo dolnośląskie, Poland"/>
    <tag k="is_in:county" v="powiat wrocławski"/>
    <tag k="is_in:municipality" v="gmina Żórawina"/>
    <tag k="is_in:province" v="województwo dolnośląskie"/>
    <tag k="name" v="Bogunów"/>
    <tag k="place" v="village"/>
    <tag k="teryt:simc" v="0884513"/>
    <tag k="wikipedia" v="Bogunów"/>
  </node>
  <node id="413351353" version="2" timestamp="2009-11-04T04:13:16Z" uid="4467" user="Rosscoe" changeset="3030183" lat="-41.4323273" lon="147.1418212"/>
  <node id="413351353" version="3" timestamp="2009-11-11T00:39:54Z" uid="4467" user="Rosscoe" changeset="3086815" lat="-41.4323273" lon="147.1418212"/>
  <node id="413351354" version="2" timestamp="2009-12-22T07:37:58Z" uid="4467" user="Rosscoe" changeset="3425154" lat="-41.4331379" lon="147.1422891"/>
  <node id="413351354" version="7" timestamp="2011-02-01T07:58:24Z" uid="4467" user="Rosscoe" changeset="7152257" lat="-41.4330302" lon="147.1422554"/>
  <node id="413351355" version="2" timestamp="2009-11-11T00:39:54Z" uid="4467" user="Rosscoe" changeset="3086815" lat="-41.4334899" lon="147.1416803"/>
  <node id="413351356" version="2" timestamp="2009-11-11T00:39:52Z" uid="4467" user="Rosscoe" changeset="3086815" lat="-41.4335133" lon="147.1416601"/>
  <node id="413351356" version="3" timestamp="2009-12-22T07:37:58Z" uid="4467" user="Rosscoe" changeset="3425154" lat="-41.4335138" lon="147.1416601"/>
  <node id="413351356" version="7" timestamp="2011-02-01T07:57:50Z" uid="4467" user="Rosscoe" changeset="7152257" lat="-41.43317" lon="147.1419545"/>
  <node id="413351357" version="2" timestamp="2009-11-10T23:54:23Z" uid="4467" user="Rosscoe" changeset="3086609" lat="-41.4324461" lon="147.1414916"/>
  <node id="413351357" version="6" timestamp="2011-02-01T07:58:32Z" uid="4467" user="Rosscoe" changeset="7152257" lat="-41.4326659" lon="147.1416911"/>
  <node id="413351358" version="2" timestamp="2009-08-15T12:40:05Z" uid="4467" user="Rosscoe" changeset="2153652" lat="-41.4327191" lon="147.1409152"/>
  <node id="413351358" version="3" timestamp="2009-11-11T00:39:52Z" uid="4467" user="Rosscoe" changeset="3086815" lat="-41.4327216" lon="147.1408955"/>
  <node id="413351358" version="7" timestamp="2011-02-01T07:59:23Z" uid="4467" user="Rosscoe" changeset="7152257" lat="-41.4326782" lon="147.1411215"/>
  <node id="413351359" version="2" timestamp="2009-11-11T00:39:52Z" uid="4467" user="Rosscoe" changeset="3086815" lat="-41.433641" lon="147.1417882"/>
  <node id="413351359" version="3" timestamp="2009-12-22T07:37:58Z" uid="4467" user="Rosscoe" changeset="3425154" lat="-41.4336415" lon="147.1417882"/>
  <node id="413351359" version="7" timestamp="2011-02-01T07:58:10Z" uid="4467" user="Rosscoe" changeset="7152257" lat="-41.4333819" lon="147.142165"/>
  <node id="413351361" version="2" timestamp="2009-11-04T04:13:17Z" uid="4467" user="Rosscoe" changeset="3030183" lat="-41.4313369" lon="147.1442235"/>
  <node id="413351362" version="2" timestamp="2009-11-04T04:13:03Z" uid="4467" user="Rosscoe" changeset="3030183" lat="-41.4315422" lon="147.1437438"/>
  <node id="413351362" version="3" timestamp="2009-11-11T00:39:53Z" uid="4467" user="Rosscoe" changeset="3086815" lat="-41.4315348" lon="147.1437266"/>
  <node id="413351362" version="4" timestamp="2009-12-22T07:37:59Z" uid="4467" user="Rosscoe" changeset="3425154" lat="-41.4315353" lon="147.1437266"/>
  <node id="413351364" version="2" timestamp="2009-11-11T00:39:53Z" uid="4467" user="Rosscoe" changeset="3086815" lat="-41.4318443" lon="147.1451753"/>
  <node id="413351365" version="3" timestamp="2009-10-20T00:16:12Z" uid="36809" user="pfoten_weg_!_" changeset="2899059" lat="47.729648" lon="11.7075068"/>
  <node id="413352750" version="1" timestamp="2009-05-31T08:01:29Z" uid="7617" user="Franc" changeset="1366036" lat="-33.8640033" lon="151.0633807"/>
  <node id="413352751" version="1" timestamp="2009-05-31T08:01:29Z" uid="7617" user="Franc" changeset="1366036" lat="-33.8644288" lon="151.0654992"/>
  <node id="413352752" version="1" timestamp="2009-05-31T08:01:29Z" uid="7617" user="Franc" changeset="1366036" lat="-33.8643004" lon="151.0653905"/>
  <node id="413352753" version="1" timestamp="2009-05-31T08:01:29Z" uid="7617" user="Franc" changeset="1366036" lat="-33.8642148" lon="151.0652588"/>
  <node id="413352754" version="1" timestamp="2009-05-31T08:01:29Z" uid="7617" user="Franc" changeset="1366036" lat="-33.8641435" lon="151.0644829"/>
  <node id="413352755" version="1" timestamp="2009-05-31T08:01:29Z" uid="7617" user="Franc" changeset="1366036" lat="-33.8641649" lon="151.0643026"/>
  <node id="413352756" version="1" timestamp="2009-05-31T08:01:29Z" uid="7617" user="Franc" changeset="1366036" lat="-33.8657647" lon="151.0635353"/>
  <node id="413352757" version="1" timestamp="2009-05-31T08:01:29Z" uid="7617" user="Franc" changeset="1366036" lat="-33.865672" lon="151.0633951"/>
  <node id="413352758" version="1" timestamp="2009-05-31T08:01:29Z" uid="7617" user="Franc" changeset="1366036" lat="-33.8654438" lon="151.0630887"/>
  <node id="413352759" version="1" timestamp="2009-05-31T08:01:29Z" uid="7617" user="Franc" changeset="1366036" lat="-33.8653321" lon="151.0628568"/>
  <node id="413352760" version="1" timestamp="2009-05-31T08:01:29Z" uid="7617" user="Franc" changeset="1366036" lat="-33.8652608" lon="151.0627452"/>
  <node id="413352761" version="1" timestamp="2009-05-31T08:01:29Z" uid="7617" user="Franc" changeset="1366036" lat="-33.8652204" lon="151.0627137"/>
  <node id="413352762" version="1" timestamp="2009-05-31T08:01:29Z" uid="7617" user="Franc" changeset="1366036" lat="-33.8651134" lon="151.062708"/>
  <node id="413352763" version="1" timestamp="2009-05-31T08:01:29Z" uid="7617" user="Franc" changeset="1366036" lat="-33.864569" lon="151.0630687"/>
  <node id="413352764" version="1" timestamp="2009-05-31T08:01:29Z" uid="7617" user="Franc" changeset="1366036" lat="-33.8644906" lon="151.0631403"/>
  <node id="413352765" version="1" timestamp="2009-05-31T08:01:29Z" uid="7617" user="Franc" changeset="1366036" lat="-33.8644763" lon="151.0632462"/>
  <node id="413352766" version="1" timestamp="2009-05-31T08:01:29Z" uid="7617" user="Franc" changeset="1366036" lat="-33.8646855" lon="151.0637128"/>
  <node id="413352767" version="1" timestamp="2009-05-31T08:01:31Z" uid="7617" user="Franc" changeset="1366036" lat="-33.8647093" lon="151.0638188"/>
  <node id="413352768" version="1" timestamp="2009-05-31T08:01:31Z" uid="7617" user="Franc" changeset="1366036" lat="-33.8646855" lon="151.0639046"/>
  <node id="413352769" version="1" timestamp="2009-05-31T08:01:31Z" uid="7617" user="Franc" changeset="1366036" lat="-33.8642315" lon="151.0641709"/>
  <node id="413352770" version="1" timestamp="2009-05-31T08:01:31Z" uid="7617" user="Franc" changeset="1366036" lat="-33.8615357" lon="151.0645402">
    <tag k="highway" v="turning_circle"/>
  </node>
  <node id="413352771" version="1" timestamp="2009-05-31T08:01:31Z" uid="7617" user="Franc" changeset="1366036" lat="-33.862382" lon="151.0666902"/>
  <node id="413352772" version="1" timestamp="2009-05-31T08:01:31Z" uid="7617" user="Franc" changeset="1366036" lat="-33.8619203" lon="151.0655306"/>
  <node id="413352772" version="2" timestamp="2009-05-31T13:06:23Z" uid="7617" user="Franc" changeset="1368823" lat="-33.8619083" lon="151.0655017"/>
  <node id="413352773" version="1" timestamp="2009-05-31T08:01:31Z" uid="7617" user="Franc" changeset="1366036" lat="-33.8596172" lon="151.0668448"/>
  <node id="413352773" version="2" timestamp="2009-05-31T13:06:23Z" uid="7617" user="Franc" changeset="1368823" lat="-33.8596052" lon="151.0668159"/>
  <node id="413352774" version="1" timestamp="2009-05-31T08:01:31Z" uid="7617" user="Franc" changeset="1366036" lat="-33.8592012" lon="151.0659401"/>
  <node id="413352775" version="1" timestamp="2009-05-31T08:01:31Z" uid="7617" user="Franc" changeset="1366036" lat="-33.8573924" lon="151.0669234"/>
  <node id="413352775" version="2" timestamp="2009-12-06T21:36:09Z" uid="30201" user="rrankin" changeset="3310249" lat="-33.8574121" lon="151.0669044"/>
  <node id="413352776" version="1" timestamp="2009-05-31T08:01:31Z" uid="7617" user="Franc" changeset="1366036" lat="-33.8590752" lon="151.0659458"/>
  <node id="413352777" version="1" timestamp="2009-05-31T08:01:31Z" uid="7617" user="Franc" changeset="1366036" lat="-33.8592892" lon="151.0660231"/>
  <node id="413353100" version="2" timestamp="2010-06-15T18:07:37Z" uid="151899" user="Bikeman2000" changeset="4993818" lat="51.232343" lon="6.7808595"/>
  <node id="413353103" version="2" timestamp="2010-06-15T18:07:39Z" uid="151899" user="Bikeman2000" changeset="4993818" lat="51.2326404" lon="6.7800296"/>
  <node id="413353106" version="2" timestamp="2010-05-02T12:56:30Z" uid="151899" user="Bikeman2000" changeset="4584711" lat="51.2330928" lon="6.7804396"/>
  <node id="413353107" version="2" timestamp="2010-05-02T12:56:30Z" uid="151899" user="Bikeman2000" changeset="4584711" lat="51.233254" lon="6.78052"/>
  <node id="413353107" version="3" timestamp="2010-06-15T18:07:36Z" uid="151899" user="Bikeman2000" changeset="4993818" lat="51.2332553" lon="6.7805095"/>
  <node id="413353409" version="1" timestamp="2009-05-31T08:03:11Z" uid="27600" user="Islanit" changeset="1366039" lat="53.469506" lon="10.2741112"/>
  <node id="413353409" version="2" timestamp="2009-05-31T08:03:14Z" uid="27600" user="Islanit" changeset="1366039" lat="53.469506" lon="10.2741112"/>
  <node id="413353433" version="2" timestamp="2009-09-22T10:31:47Z" uid="171838" user="argrath" changeset="2568071" lat="34.5527257" lon="135.4750337"/>
  <node id="413353434" version="2" timestamp="2009-09-22T10:31:48Z" uid="171838" user="argrath" changeset="2568071" lat="34.5514532" lon="135.4781236"/>
  <node id="413353435" version="2" timestamp="2009-09-22T10:31:48Z" uid="171838" user="argrath" changeset="2568071" lat="34.5546343" lon="135.4801407"/>
  <node id="413353436" version="2" timestamp="2009-09-22T10:31:48Z" uid="171838" user="argrath" changeset="2568071" lat="34.5552705" lon="135.4800978"/>
  <node id="413353437" version="2" timestamp="2009-09-22T10:31:49Z" uid="171838" user="argrath" changeset="2568071" lat="34.5556946" lon="135.4796686"/>
  <node id="413353438" version="2" timestamp="2009-09-22T10:31:49Z" uid="171838" user="argrath" changeset="2568071" lat="34.5560834" lon="135.478982"/>
  <node id="413353439" version="2" timestamp="2009-09-22T10:31:50Z" uid="171838" user="argrath" changeset="2568071" lat="34.5562248" lon="135.4782954"/>
  <node id="413353440" version="2" timestamp="2009-09-22T10:31:50Z" uid="171838" user="argrath" changeset="2568071" lat="34.5562601" lon="135.4776516"/>
  <node id="413353441" version="2" timestamp="2009-09-22T10:31:50Z" uid="171838" user="argrath" changeset="2568071" lat="34.5559774" lon="135.4768791"/>
  <node id="413353442" version="2" timestamp="2009-09-22T10:31:51Z" uid="171838" user="argrath" changeset="2568071" lat="34.5527257" lon="135.4750337"/>
  <node id="413357293" version="2" timestamp="2009-07-26T08:39:25Z" uid="49111" user="Markus B" changeset="1942025" lat="47.3665904" lon="8.5450545"/>
  <node id="413357304" version="2" timestamp="2009-07-26T08:39:25Z" uid="49111" user="Markus B" changeset="1942025" lat="47.3669549" lon="8.5446197"/>
  <node id="413357308" version="2" timestamp="2009-07-26T08:39:25Z" uid="49111" user="Markus B" changeset="1942025" lat="47.3666541" lon="8.5419692"/>
</osm>
