<?xml version='1.0' encoding='UTF-8'?>
<osm version="0.6" generator="libosmium/2.20.0">
  <node id="413360496" version="2" timestamp="2009-06-16T14:28:25Z" uid="20587" user="balrog-kun" changeset="1535626" lat="51.0039907" lon="17.0165178">
    <tag k="is_in" v="gmina Żórawina, powiat wrocławski, województwo dolnośląskie, Poland"/>
    <tag k="is_in:county" v="powiat wrocławski"/>
    <tag k="is_in:municipality" v="gmina Żórawina"/>
    <tag k="is_in:province" v="województwo dolnośląskie"/>
    <tag k="name" v="Rzeplin"/>
    <tag k="place" v="village"/>
    <tag k="wikipedia" v="Rzeplin, Lower Silesian Voivodeship"/>
  </node>
  <node id="413360496" version="3" timestamp="2010-04-11T04:47:10Z" uid="20587" user="balrog-kun" changeset="4389130" lat="51.0036758" lon="17.0166898">
    <tag k="is_in" v="gmina Żórawina, powiat wrocławski, województwo dolnośląskie, Poland"/>
    <tag k="is_in:county" v="powiat wrocławski"/>
    <tag k="is_in:municipality" v="gmina Żórawina"/>
    <tag k="is_in:province" v="województwo dolnośląskie"/>
    <tag k="name" v="Rzeplin"/>
    <tag k="place" v="village"/>
    <tag k="wikipedia" v="Rzeplin, Lower Silesian Voivodeship"/>
  </node>
  <node id="413360502" version="2" timestamp="2009-06-16T14:28:26Z" uid="20587" user="balrog-kun" changeset="1535626" lat="50.9978871" lon="17.0046731">
    <tag k="addr:postcode" v="55-020"/>
    <tag k="is_in" v="gmina Żórawina, powiat wrocławski, województwo dolnośląskie, Poland"/>
    <tag k="is_in:county" v="powiat wrocławski"/>
    <tag k="is_in:municipality" v="gmina Żórawina"/>
    <tag k="is_in:province" v="województwo dolnośląskie"/>
    <tag k="name" v="Szukalice"/>
    <tag k="place" v="village"/>
    <tag k="population" v="100"/>
    <tag k="source:population" v="wikipedia"/>
    <tag k="wikipedia" v="Szukalice"/>
  </node>
  <node id="413360502" version="3" timestamp="2010-04-11T04:47:10Z" uid="20587" user="balrog-kun" changeset="4389130" lat="50.9978388" lon="17.0041808">
    <tag k="addr:postcode" v="55-020"/>
    <tag k="is_in" v="gmina Żórawina, powiat wrocławski, województwo dolnośląskie, Poland"/>
    <tag k="is_in:county" v="powiat wrocławski"/>
    <tag k="is_in:municipality" v="gmina Żórawina"/>
    <tag k="is_in:province" v="województwo dolnośląskie"/>
    <tag k="name" v="Szukalice"/>
    <tag k="place" v="village"/>
    <tag k="population" v="100"/>
    <tag k="source:population" v="wikipedia"/>
    <tag k="wikipedia" v="Szukalice"/>
  </node>
  <node id="413360502" version="4" timestamp="2010-04-27T04:16:58Z" uid="30632" user="antblant" changeset="4537905" lat="50.9978388" lon="17.0041808">
    <tag k="addr:postcode" v="55-020"/>
    <tag k="is_in" v="gmina Żórawina, powiat wrocławski, województwo dolnośląskie, Poland"/>
    <tag k="is_in:county" v="powiat wrocławski"/>
    <tag k="is_in:municipality" v="gmina Żórawina"/>
    <tag k="is_in:province" v="województwo dolnośląskie"/>
    <tag k="name" v="Szukalice"/>
    <tag k="place" v="village"/>
    <tag k="population" v="100"/>
    <tag k="source:population" v="wikipedia"/>
    <tag k="teryt:simc" v="0884772"/>
    <tag k="wikipedia" v="Szukalice"/>
  </node>
  <node id="413360509" version="2" timestamp="2009-06-16T14:28:28Z" uid="20587" user="balrog-kun" changeset="1535626" lat="51.0222426" lon="17.0309373">
    <tag k="addr:postcode" v="55-020"/>
    <tag k="is_in" v="gmina Żórawina, powiat wrocławski, województwo dolnośląskie, Poland"/>
    <tag k="is_in:county" v="powiat wrocławski"/>
    <tag k="is_in:municipality" v="gmina Żórawina"/>
    <tag k="is_in:province" v="województwo dolnośląskie"/>
    <tag k="name" v="Suchy Dwór"/>
    <tag k="place" v="village"/>
    <tag k="wikipedia" v="Suchy Dwór, Lower Silesian Voivodeship"/>
  </node>
  <node id="413360509" version="3" timestamp="2010-04-11T04:47:10Z" uid="20587" user="balrog-kun" changeset="4389130" lat="51.0215929" lon="17.0310554">
    <tag k="addr:postcode" v="55-020"/>
    <tag k="is_in" v="gmina Żórawina, powiat wrocławski, województwo dolnośląskie, Poland"/>
    <tag k="is_in:county" v="powiat wrocławski"/>
    <tag k="is_in:municipality" v="gmina Żórawina"/>
    <tag k="is_in:province" v="województwo dolnośląskie"/>
    <tag k="name" v="Suchy Dwór"/>
    <tag k="place" v="village"/>
    <tag k="wikipedia" v="Suchy Dwór, Lower Silesian Voivodeship"/>
  </node>
  <node id="413360514" version="2" timestamp="2009-06-16T14:28:16Z" uid="20587" user="balrog-kun" changeset="1535626" lat="51.0352521" lon="17.0310231">
    <tag k="is_in" v="gmina Święta Katarzyna, powiat wrocławski, województwo dolnośląskie, Poland"/>
    <tag k="is_in:county" v="powiat wrocławski"/>
    <tag k="is_in:municipality" v="gmina Święta Katarzyna"/>
    <tag k="is_in:province" v="województwo dolnośląskie"/>
    <tag k="name" v="Biestrzyków"/>
    <tag k="place" v="village"/>
    <tag k="wikipedia" v="Biestrzyków"/>
  </node>
  <node id="413360514" version="3" timestamp="2010-04-11T04:47:10Z" uid="20587" user="balrog-kun" changeset="4389130" lat="51.0348291" lon="17.033385">
    <tag k="is_in" v="gmina Święta Katarzyna, powiat wrocławski, województwo dolnośląskie, Poland"/>
    <tag k="is_in:county" v="powiat wrocławski"/>
    <tag k="is_in:municipality" v="gmina Święta Katarzyna"/>
    <tag k="is_in:province" v="województwo dolnośląskie"/>
    <tag k="name" v="Biestrzyków"/>
    <tag k="place" v="village"/>
    <tag k="wikipedia" v="Biestrzyków"/>
  </node>
  <node id="413360514" version="4" timestamp="2010-04-27T04:04:18Z" uid="30632" user="antblant" changeset="4537867" lat="51.0348291" lon="17.033385">
    <tag k="is_in" v="gmina Święta Katarzyna, powiat wrocławski, województwo dolnośląskie, Poland"/>
    <tag k="is_in:county" v="powiat wrocławski"/>
    <tag k="is_in:municipality" v="gmina Święta Katarzyna"/>
    <tag k="is_in:province" v="województwo dolnośląskie"/>
    <tag k="name" v="Biestrzyków"/>
    <tag k="place" v="village"/>
    <tag k="teryt:simc" v="0881029"/>
    <tag k="wikipedia" v="Biestrzyków"/>
  </node>
  <node id="413363145" version="2" timestamp="2009-06-16T14:28:13Z" uid="20587" user="balrog-kun" changeset="1535626" lat="51.1765582" lon="17.0515878">
    <tag k="is_in" v="gmina Wisznia Mała, powiat trzebnicki, województwo dolnośląskie, Poland"/>
    <tag k="is_in:county" v="powiat trzebnicki"/>
    <tag k="is_in:municipality" v="gmina Wisznia Mała"/>
    <tag k="is_in:province" v="województwo dolnośląskie"/>
    <tag k="name" v="Krzyżanowice"/>
    <tag k="place" v="village"/>
    <tag k="wikipedia" v="pl:Krzyżanowice (województwo dolnośląskie)"/>
  </node>
  <node id="413363145" version="3" timestamp="2010-04-11T04:47:10Z" uid="20587" user="balrog-kun" changeset="4389130" lat="51.1760721" lon="17.0511649">
    <tag k="is_in" v="gmina Wisznia Mała, powiat trzebnicki, województwo dolnośląskie, Poland"/>
    <tag k="is_in:county" v="powiat trzebnicki"/>
    <tag k="is_in:municipality" v="gmina Wisznia Mała"/>
    <tag k="is_in:province" v="województwo dolnośląskie"/>
    <tag k="name" v="Krzyżanowice"/>
    <tag k="place" v="village"/>
    <tag k="wikipedia" v="pl:Krzyżanowice (województwo dolnośląskie)"/>
  </node>
  <node id="413363146" version="2" timestamp="2009-06-16T14:28:20Z" uid="20587" user="balrog-kun" changeset="1535626" lat="51.1960599" lon="17.0706851">
    <tag k="is_in" v="gmina Długołęka, powiat wrocławski, województwo dolnośląskie, Poland"/>
    <tag k="is_in:county" v="powiat wrocławski"/>
    <tag k="is_in:municipality" v="gmina Długołęka"/>
    <tag k="is_in:province" v="województwo dolnośląskie"/>
    <tag k="name" v="Raków"/>
    <tag k="place" v="hamlet"/>
    <tag k="population" v="240"/>
    <tag k="source:population" v="wikipedia"/>
    <tag k="wikipedia" v="Raków, Wrocław County"/>
  </node>
  <node id="413363945" version="3" timestamp="2010-04-17T06:54:52Z" uid="30201" user="rrankin" changeset="4444865" lat="-34.0511299" lon="150.7548499"/>
  <node id="413363952" version="2" timestamp="2010-04-17T06:54:52Z" uid="30201" user="rrankin" changeset="4444865" lat="-34.0510451" lon="150.7548909"/>
  <node id="413363954" version="2" timestamp="2010-04-17T06:54:52Z" uid="30201" user="rrankin" changeset="4444865" lat="-34.0510857" lon="150.7550239"/>
  <node id="413363956" version="2" timestamp="2010-04-17T06:54:52Z" uid="30201" user="rrankin" changeset="4444865" lat="-34.0511988" lon="150.7549689"/>
  <node id="413363957" version="2" timestamp="2010-04-17T06:54:52Z" uid="30201" user="rrankin" changeset="4444865" lat="-34.0510299" lon="150.7549559"/>
  <node id="413363959" version="3" timestamp="2010-04-17T06:54:52Z" uid="30201" user="rrankin" changeset="4444865" lat="-34.0510795" lon="150.7548609"/>
  <node id="413363962" version="2" timestamp="2010-04-17T06:54:52Z" uid="30201" user="rrankin" changeset="4444865" lat="-34.0511901" lon="150.7548959"/>
  <node id="413363965" version="2" timestamp="2010-04-17T06:54:52Z" uid="30201" user="rrankin" changeset="4444865" lat="-34.0511535" lon="150.7550209"/>
  <node id="413363994" version="2" timestamp="2009-08-10T03:03:00Z" uid="4467" user="Rosscoe" changeset="2092485" lat="-34.0487254" lon="150.7592935">
    <tag k="highway" v="crossing"/>
  </node>
  <node id="413363996" version="2" timestamp="2009-08-10T03:03:00Z" uid="4467" user="Rosscoe" changeset="2092485" lat="-34.0485092" lon="150.7588933"/>
  <node id="413364001" version="2" timestamp="2009-08-10T03:03:00Z" uid="4467" user="Rosscoe" changeset="2092485" lat="-34.0490479" lon="150.7590479">
    <tag k="highway" v="crossing"/>
  </node>
  <node id="413364003" version="2" timestamp="2009-08-10T02:12:44Z" uid="4467" user="Rosscoe" changeset="2092346" lat="-34.0494607" lon="150.7587337">
    <tag k="highway" v="crossing"/>
  </node>
  <node id="413364003" version="3" timestamp="2009-08-10T03:03:00Z" uid="4467" user="Rosscoe" changeset="2092485" lat="-34.0494607" lon="150.7587337">
    <tag k="highway" v="crossing"/>
  </node>
  <node id="413364005" version="2" timestamp="2009-08-10T03:03:00Z" uid="4467" user="Rosscoe" changeset="2092485" lat="-34.0489059" lon="150.7587861"/>
  <node id="413364009" version="2" timestamp="2009-08-10T03:03:00Z" uid="4467" user="Rosscoe" changeset="2092485" lat="-34.0489614" lon="150.7597302"/>
  <node id="413364011" version="2" timestamp="2009-08-10T03:03:00Z" uid="4467" user="Rosscoe" changeset="2092485" lat="-34.0493983" lon="150.7589106"/>
  <node id="413364012" version="2" timestamp="2009-08-10T03:03:00Z" uid="4467" user="Rosscoe" changeset="2092485" lat="-34.0490985" lon="150.7591498"/>
  <node id="413364014" version="2" timestamp="2009-08-10T03:03:00Z" uid="4467" user="Rosscoe" changeset="2092485" lat="-34.0487836" lon="150.7594011"/>
  <node id="413364018" version="2" timestamp="2009-08-10T03:03:00Z" uid="4467" user="Rosscoe" changeset="2092485" lat="-34.0488725" lon="150.7595657"/>
  <node id="413364020" version="2" timestamp="2009-08-10T03:03:00Z" uid="4467" user="Rosscoe" changeset="2092485" lat="-34.0488222" lon="150.758634"/>
  <node id="413364022" version="2" timestamp="2009-08-10T03:03:00Z" uid="4467" user="Rosscoe" changeset="2092485" lat="-34.0489966" lon="150.758951"/>
  <node id="413364026" version="2" timestamp="2009-08-10T03:03:00Z" uid="4467" user="Rosscoe" changeset="2092485" lat="-34.0486754" lon="150.759201"/>
  <node id="413364029" version="2" timestamp="2009-08-10T03:03:00Z" uid="4467" user="Rosscoe" changeset="2092485" lat="-34.0485874" lon="150.7590382"/>
  <node id="413365279" version="2" timestamp="2010-10-16T19:39:06Z" uid="9581" user="Lobelt" changeset="6060768" lat="49.5209154" lon="9.5683193"/>
  <node id="413365304" version="3" timestamp="2010-10-16T19:39:09Z" uid="9581" user="Lobelt" changeset="6060768" lat="49.5189956" lon="9.5660501"/>
  <node id="413369480" version="2" timestamp="2010-10-04T18:21:54Z" uid="20587" user="balrog-kun" changeset="5956007" lat="54.1596632" lon="19.395867"/>
  <node id="413369481" version="2" timestamp="2010-10-04T18:18:08Z" uid="20587" user="balrog-kun" changeset="5956007" lat="54.1595201" lon="19.395873"/>
  <node id="413369482" version="2" timestamp="2010-10-04T18:22:29Z" uid="20587" user="balrog-kun" changeset="5956007" lat="54.1590067" lon="19.3959434">
    <tag k="highway" v="pedestrian"/>
  </node>
  <node id="413369593" version="2" timestamp="2010-04-27T03:59:29Z" uid="30632" user="antblant" changeset="4537857" lat="51.2002013" lon="17.0869929">
    <tag k="name" v="Cienin"/>
    <tag k="place" v="village"/>
    <tag k="teryt:simc" v="0994437"/>
  </node>
  <node id="413369594" version="2" timestamp="2009-06-16T14:28:27Z" uid="20587" user="balrog-kun" changeset="1535626" lat="51.2299866" lon="17.1133429">
    <tag k="addr:postcode" v="55-095"/>
    <tag k="is_in" v="gmina Długołęka, powiat wrocławski, województwo dolnośląskie, Poland"/>
    <tag k="is_in:county" v="powiat wrocławski"/>
    <tag k="is_in:municipality" v="gmina Długołęka"/>
    <tag k="is_in:province" v="województwo dolnośląskie"/>
    <tag k="name" v="Siedlec"/>
    <tag k="place" v="village"/>
    <tag k="population" v="1500"/>
    <tag k="source:population" v="wikipedia"/>
    <tag k="wikipedia" v="Siedlec, Lower Silesian Voivodeship"/>
  </node>
  <node id="413369594" version="3" timestamp="2010-04-11T04:47:11Z" uid="20587" user="balrog-kun" changeset="4389130" lat="51.2299693" lon="17.1136408">
    <tag k="addr:postcode" v="55-095"/>
    <tag k="is_in" v="gmina Długołęka, powiat wrocławski, województwo dolnośląskie, Poland"/>
    <tag k="is_in:county" v="powiat wrocławski"/>
    <tag k="is_in:municipality" v="gmina Długołęka"/>
    <tag k="is_in:province" v="województwo dolnośląskie"/>
    <tag k="name" v="Siedlec"/>
    <tag k="place" v="village"/>
    <tag k="population" v="1500"/>
    <tag k="source:population" v="wikipedia"/>
    <tag k="wikipedia" v="Siedlec, Lower Silesian Voivodeship"/>
  </node>
  <node id="413369595" version="2" timestamp="2009-06-16T14:28:11Z" uid="20587" user="balrog-kun" changeset="1535626" lat="51.2400899" lon="17.1308524">
    <tag k="addr:postcode" v="55-095"/>
    <tag k="is_in" v="gmina Długołęka, powiat wrocławski, województwo dolnośląskie, Poland"/>
    <tag k="is_in:county" v="powiat wrocławski"/>
    <tag k="is_in:municipality" v="gmina Długołęka"/>
    <tag k="is_in:province" v="województwo dolnośląskie"/>
    <tag k="name" v="Godzieszowa"/>
    <tag k="place" v="village"/>
    <tag k="population" v="310"/>
    <tag k="source:population" v="wikipedia"/>
    <tag k="wikipedia" v="Godzieszowa"/>
  </node>
  <node id="413369595" version="3" timestamp="2010-04-27T04:04:30Z" uid="30632" user="antblant" changeset="4537867" lat="51.2400899" lon="17.1308524">
    <tag k="addr:postcode" v="55-095"/>
    <tag k="is_in" v="gmina Długołęka, powiat wrocławski, województwo dolnośląskie, Poland"/>
    <tag k="is_in:county" v="powiat wrocławski"/>
    <tag k="is_in:municipality" v="gmina Długołęka"/>
    <tag k="is_in:province" v="województwo dolnośląskie"/>
    <tag k="name" v="Godzieszowa"/>
    <tag k="place" v="village"/>
    <tag k="population" v="310"/>
    <tag k="source:population" v="wikipedia"/>
    <tag k="teryt:simc" v="0873780"/>
    <tag k="wikipedia" v="Godzieszowa"/>
  </node>
  <node id="413369597" version="2" timestamp="2009-06-16T14:28:18Z" uid="20587" user="balrog-kun" changeset="1535626" lat="51.3544568" lon="17.0789248">
    <tag k="is_in" v="gmina Trzebnica, powiat trzebnicki, województwo dolnośląskie, Poland"/>
    <tag k="is_in:county" v="powiat trzebnicki"/>
    <tag k="is_in:municipality" v="gmina Trzebnica"/>
    <tag k="is_in:province" v="województwo dolnośląskie"/>
    <tag k="name" v="Szczytkowice"/>
    <tag k="place" v="village"/>
    <tag k="wikipedia" v="Szczytkowice"/>
  </node>
  <node id="413369597" version="3" timestamp="2010-04-11T04:47:11Z" uid="20587" user="balrog-kun" changeset="4389130" lat="51.3551277" lon="17.0797073">
    <tag k="is_in" v="gmina Trzebnica, powiat trzebnicki, województwo dolnośląskie, Poland"/>
    <tag k="is_in:county" v="powiat trzebnicki"/>
    <tag k="is_in:municipality" v="gmina Trzebnica"/>
    <tag k="is_in:province" v="województwo dolnośląskie"/>
    <tag k="name" v="Szczytkowice"/>
    <tag k="place" v="village"/>
    <tag k="wikipedia" v="Szczytkowice"/>
  </node>
  <node id="413369597" version="4" timestamp="2010-04-27T04:04:30Z" uid="30632" user="antblant" changeset="4537867" lat="51.3551277" lon="17.0797073">
    <tag k="is_in" v="gmina Trzebnica, powiat trzebnicki, województwo dolnośląskie, Poland"/>
    <tag k="is_in:county" v="powiat trzebnicki"/>
    <tag k="is_in:municipality" v="gmina Trzebnica"/>
    <tag k="is_in:province" v="województwo dolnośląskie"/>
    <tag k="name" v="Szczytkowice"/>
    <tag k="place" v="village"/>
    <tag k="teryt:simc" v="0881696"/>
    <tag k="wikipedia" v="Szczytkowice"/>
  </node>
  <node id="413369599" version="2" timestamp="2009-06-16T14:28:25Z" uid="20587" user="balrog-kun" changeset="1535626" lat="51.3706951" lon="17.089997">
    <tag k="is_in" v="gmina Trzebnica, powiat trzebnicki, województwo dolnośląskie, Poland"/>
    <tag k="is_in:county" v="powiat trzebnicki"/>
    <tag k="is_in:municipality" v="gmina Trzebnica"/>
    <tag k="is_in:province" v="województwo dolnośląskie"/>
    <tag k="name" v="Komorówko"/>
    <tag k="place" v="village"/>
    <tag k="wikipedia" v="Komorówko, Lower Silesian Voivodeship"/>
  </node>
</osm>
