<?xml version='1.0' encoding='UTF-8'?>
<osm version="0.6" generator="libosmium/2.20.0">
  <node id="413385136" version="2" timestamp="2009-06-16T14:37:43Z" uid="20587" user="balrog-kun" changeset="1535709" lat="51.9807434" lon="16.6514022">
    <tag k="is_in" v="gmina Śmigiel, powiat kościański, województwo wielkopolskie, Poland"/>
    <tag k="is_in:county" v="powiat kościański"/>
    <tag k="is_in:municipality" v="gmina Śmigiel"/>
    <tag k="is_in:province" v="województwo wielkopolskie"/>
    <tag k="name" v="Karmin"/>
    <tag k="place" v="village"/>
    <tag k="wikipedia" v="Karmin, Kościan County"/>
  </node>
  <node id="413385136" version="3" timestamp="2010-04-11T04:47:11Z" uid="20587" user="balrog-kun" changeset="4389130" lat="51.9811414" lon="16.6513265">
    <tag k="is_in" v="gmina Śmigiel, powiat kościański, województwo wielkopolskie, Poland"/>
    <tag k="is_in:county" v="powiat kościański"/>
    <tag k="is_in:municipality" v="gmina Śmigiel"/>
    <tag k="is_in:province" v="województwo wielkopolskie"/>
    <tag k="name" v="Karmin"/>
    <tag k="place" v="village"/>
    <tag k="wikipedia" v="Karmin, Kościan County"/>
  </node>
  <node id="413385147" version="2" timestamp="2009-06-16T14:37:48Z" uid="20587" user="balrog-kun" changeset="1535709" lat="52.0316766" lon="16.6128642">
    <tag k="addr:postcode" v="64-035"/>
    <tag k="is_in" v="gmina Śmigiel, powiat kościański, województwo wielkopolskie, Poland"/>
    <tag k="is_in:county" v="powiat kościański"/>
    <tag k="is_in:municipality" v="gmina Śmigiel"/>
    <tag k="is_in:province" v="województwo wielkopolskie"/>
    <tag k="name" v="Stara Przysieka Pierwsza"/>
    <tag k="place" v="village"/>
    <tag k="wikipedia" v="pl:Stara Przysieka Pierwsza"/>
  </node>
  <node id="413385147" version="3" timestamp="2010-04-11T04:47:11Z" uid="20587" user="balrog-kun" changeset="4389130" lat="52.0271446" lon="16.6220969">
    <tag k="addr:postcode" v="64-035"/>
    <tag k="is_in" v="gmina Śmigiel, powiat kościański, województwo wielkopolskie, Poland"/>
    <tag k="is_in:county" v="powiat kościański"/>
    <tag k="is_in:municipality" v="gmina Śmigiel"/>
    <tag k="is_in:province" v="województwo wielkopolskie"/>
    <tag k="name" v="Stara Przysieka Pierwsza"/>
    <tag k="place" v="village"/>
    <tag k="wikipedia" v="pl:Stara Przysieka Pierwsza"/>
  </node>
  <node id="413385147" version="4" timestamp="2010-04-27T03:59:35Z" uid="30632" user="antblant" changeset="4537857" lat="52.0271446" lon="16.6220969">
    <tag k="addr:postcode" v="64-035"/>
    <tag k="is_in" v="gmina Śmigiel, powiat kościański, województwo wielkopolskie, Poland"/>
    <tag k="is_in:county" v="powiat kościański"/>
    <tag k="is_in:municipality" v="gmina Śmigiel"/>
    <tag k="is_in:province" v="województwo wielkopolskie"/>
    <tag k="name" v="Stara Przysieka Pierwsza"/>
    <tag k="place" v="village"/>
    <tag k="teryt:simc" v="0376751"/>
    <tag k="wikipedia" v="pl:Stara Przysieka Pierwsza"/>
  </node>
  <node id="413385152" version="2" timestamp="2009-06-16T14:37:35Z" uid="20587" user="balrog-kun" changeset="1535709" lat="52.0691526" lon="16.6273696">
    <tag k="is_in" v="gmina Poniec, powiat gostyński, województwo wielkopolskie, Poland"/>
    <tag k="is_in:county" v="powiat gostyński"/>
    <tag k="is_in:municipality" v="gmina Poniec"/>
    <tag k="is_in:province" v="województwo wielkopolskie"/>
    <tag k="name" v="Czarkowo"/>
    <tag k="place" v="village"/>
    <tag k="population" v="171"/>
    <tag k="source:population" v="wikipedia"/>
    <tag k="wikipedia" v="Czarkowo, Gostyń County"/>
  </node>
  <node id="413385152" version="3" timestamp="2010-04-11T04:47:12Z" uid="20587" user="balrog-kun" changeset="4389130" lat="52.0699978" lon="16.6258007">
    <tag k="is_in" v="gmina Poniec, powiat gostyński, województwo wielkopolskie, Poland"/>
    <tag k="is_in:county" v="powiat gostyński"/>
    <tag k="is_in:municipality" v="gmina Poniec"/>
    <tag k="is_in:province" v="województwo wielkopolskie"/>
    <tag k="name" v="Czarkowo"/>
    <tag k="place" v="village"/>
    <tag k="population" v="171"/>
    <tag k="source:population" v="wikipedia"/>
    <tag k="wikipedia" v="Czarkowo, Gostyń County"/>
  </node>
  <node id="413385255" version="3" timestamp="2011-05-09T17:36:48Z" uid="30632" user="antblant" changeset="8094849" lat="52.0789574" lon="16.6418263">
    <tag k="name" v="Kościan"/>
    <tag k="railway" v="station"/>
    <tag k="wikipedia" v="pl:Kościan_(stacja_kolejowa)"/>
  </node>
  <node id="413386186" version="2" timestamp="2011-05-01T16:49:36Z" uid="9581" user="Lobelt" changeset="8023121" lat="50.8031212" lon="11.3537482"/>
  <node id="413388588" version="3" timestamp="2010-01-23T15:15:43Z" uid="151899" user="Bikeman2000" changeset="3692561" lat="51.2674577" lon="6.7665486"/>
  <node id="413388593" version="3" timestamp="2010-01-23T15:15:43Z" uid="151899" user="Bikeman2000" changeset="3692561" lat="51.2667529" lon="6.7668436"/>
</osm>
