<?xml version='1.0' encoding='UTF-8'?>
<osm version="0.6" generator="libosmium/2.20.0">
  <node id="413692028" version="2" timestamp="2010-01-22T14:32:04Z" uid="20587" user="balrog-kun" changeset="3683630" lat="52.1765305" lon="20.9443987"/>
  <node id="413692029" version="2" timestamp="2010-01-12T13:53:04Z" uid="20587" user="balrog-kun" changeset="3603234" lat="52.176418" lon="20.9446899">
    <tag k="name" v="Okęcie 15"/>
    <tag k="railway" v="tram_stop"/>
    <tag k="tactile_paving" v="yes"/>
    <tag k="tactile_paving:slab_size" v="40x40"/>
    <tag k="ztm:ciąg_ulicy" v="Al. Krakowska"/>
  </node>
  <node id="413692033" version="2" timestamp="2010-01-12T13:53:04Z" uid="20587" user="balrog-kun" changeset="3603234" lat="52.1761237" lon="20.9440046">
    <tag k="name" v="Okęcie 02"/>
    <tag k="railway" v="tram_stop"/>
    <tag k="tactile_paving" v="yes"/>
    <tag k="tactile_paving:slab_size" v="40x40"/>
    <tag k="ztm:ciąg_ulicy" v="Al. Krakowska"/>
  </node>
  <node id="413692035" version="2" timestamp="2010-01-22T14:32:04Z" uid="20587" user="balrog-kun" changeset="3683630" lat="52.1758043" lon="20.9437787"/>
  <node id="413692045" version="2" timestamp="2010-01-12T13:53:04Z" uid="20587" user="balrog-kun" changeset="3603234" lat="52.1759405" lon="20.9438668">
    <tag k="name" v="Okęcie 03"/>
    <tag k="railway" v="tram_stop"/>
    <tag k="tactile_paving" v="yes"/>
    <tag k="tactile_paving:slab_size" v="40x40"/>
    <tag k="ztm:ciąg_ulicy" v="Al. Krakowska"/>
  </node>
  <node id="413692048" version="2" timestamp="2010-01-17T02:44:15Z" uid="20587" user="balrog-kun" changeset="3637686" lat="52.1758343" lon="20.943829"/>
  <node id="413692048" version="3" timestamp="2010-01-22T14:32:04Z" uid="20587" user="balrog-kun" changeset="3683630" lat="52.1758222" lon="20.9438238"/>
  <node id="413692067" version="2" timestamp="2010-01-12T13:53:04Z" uid="20587" user="balrog-kun" changeset="3603234" lat="52.1763139" lon="20.9441558">
    <tag k="name" v="Okęcie 01"/>
    <tag k="railway" v="tram_stop"/>
    <tag k="tactile_paving" v="yes"/>
    <tag k="tactile_paving:slab_size" v="40x40"/>
    <tag k="ztm:ciąg_ulicy" v="Al. Krakowska"/>
  </node>
  <node id="413697148" version="2" timestamp="2009-08-08T15:03:47Z" uid="20587" user="balrog-kun" changeset="2076575" lat="52.2187322" lon="20.9832888">
    <tag k="name" v="Plac Narutowicza 07"/>
    <tag k="railway" v="tram_stop"/>
  </node>
  <node id="413697148" version="3" timestamp="2009-10-28T13:21:27Z" uid="20587" user="balrog-kun" changeset="2973177" lat="52.2187322" lon="20.9832888">
    <tag k="information" v="schedule"/>
    <tag k="information:voice" v="yes"/>
    <tag k="name" v="Plac Narutowicza 07"/>
    <tag k="railway" v="tram_stop"/>
    <tag k="tactile_paving" v="yes"/>
  </node>
  <node id="413697148" version="4" timestamp="2010-01-12T13:53:21Z" uid="20587" user="balrog-kun" changeset="3603234" lat="52.2187322" lon="20.9832888">
    <tag k="information" v="schedule"/>
    <tag k="information:voice" v="yes"/>
    <tag k="name" v="Plac Narutowicza 07"/>
    <tag k="railway" v="tram_stop"/>
    <tag k="tactile_paving" v="yes"/>
    <tag k="tactile_paving:slab_size" v="40x40"/>
    <tag k="ztm:ciąg_ulicy" v="Grójecka"/>
  </node>
  <node id="413697148" version="5" timestamp="2010-01-22T14:32:12Z" uid="20587" user="balrog-kun" changeset="3683630" lat="52.2187322" lon="20.9832888"/>
</osm>
