<?xml version='1.0' encoding='UTF-8'?>
<osm version="0.6" generator="libosmium/2.20.0">
  <node id="414070995" version="2" timestamp="2010-06-13T00:10:09Z" uid="256927" user="Timo Müller" changeset="4974970" lat="49.3429518" lon="8.6676948"/>
  <node id="414072014" version="2" timestamp="2010-06-02T20:26:29Z" uid="163746" user="anti_bot-nonsense" changeset="4887487" lat="47.9112056" lon="12.280432"/>
  <node id="414072027" version="2" timestamp="2010-06-02T20:27:35Z" uid="163746" user="anti_bot-nonsense" changeset="4887487" lat="47.9104787" lon="12.2829856"/>
  <node id="414072862" version="2" timestamp="2009-08-26T18:47:20Z" uid="36809" user="pfoten_weg_!_" changeset="2270779" lat="47.860142" lon="11.87064"/>
  <node id="414072870" version="2" timestamp="2009-08-26T18:47:21Z" uid="36809" user="pfoten_weg_!_" changeset="2270779" lat="47.8603826" lon="11.8706467"/>
  <node id="414072876" version="2" timestamp="2009-08-26T18:47:20Z" uid="36809" user="pfoten_weg_!_" changeset="2270779" lat="47.8605133" lon="11.8706332"/>
  <node id="414072879" version="2" timestamp="2009-08-26T18:47:21Z" uid="36809" user="pfoten_weg_!_" changeset="2270779" lat="47.8605895" lon="11.8706009"/>
  <node id="414072882" version="2" timestamp="2009-08-26T18:47:22Z" uid="36809" user="pfoten_weg_!_" changeset="2270779" lat="47.8607404" lon="11.8704348"/>
  <node id="414072886" version="2" timestamp="2009-08-26T18:47:22Z" uid="36809" user="pfoten_weg_!_" changeset="2270779" lat="47.8607547" lon="11.8700183"/>
  <node id="414072890" version="2" timestamp="2009-08-26T18:47:22Z" uid="36809" user="pfoten_weg_!_" changeset="2270779" lat="47.8607769" lon="11.8696466"/>
  <node id="414073503" version="2" timestamp="2011-01-23T18:23:50Z" uid="9581" user="Lobelt" changeset="7065211" lat="49.5946298" lon="8.6560796"/>
  <node id="414073506" version="4" timestamp="2010-03-07T18:26:42Z" uid="9581" user="Lobelt" changeset="4064534" lat="49.588551" lon="8.6532914"/>
  <node id="414073506" version="5" timestamp="2010-10-10T13:34:30Z" uid="9581" user="Lobelt" changeset="6002138" lat="49.5885296" lon="8.6533343"/>
  <node id="414076607" version="3" timestamp="2009-09-01T21:00:18Z" uid="36809" user="pfoten_weg_!_" changeset="2343001" lat="47.889035" lon="11.802829">
    <tag k="is_in" v="Weyarn,Miesbach,Oberbayern,Bayern,Bundesrepublik Deutschland,Europe"/>
    <tag k="name" v="Mittenkirchen"/>
    <tag k="place" v="hamlet"/>
  </node>
  <node id="414076608" version="3" timestamp="2009-09-01T21:00:21Z" uid="36809" user="pfoten_weg_!_" changeset="2343001" lat="47.8880171" lon="11.8009964"/>
  <node id="414077492" version="2" timestamp="2009-06-16T14:28:30Z" uid="20587" user="balrog-kun" changeset="1535626" lat="50.7025804" lon="17.0564249">
    <tag k="is_in" v="gmina Strzelin, powiat strzeliński, województwo dolnośląskie, Poland"/>
    <tag k="is_in:county" v="powiat strzeliński"/>
    <tag k="is_in:municipality" v="gmina Strzelin"/>
    <tag k="is_in:province" v="województwo dolnośląskie"/>
    <tag k="name" v="Nowolesie"/>
    <tag k="place" v="village"/>
    <tag k="wikipedia" v="Nowolesie"/>
  </node>
  <node id="414077492" version="3" timestamp="2010-04-11T04:47:15Z" uid="20587" user="balrog-kun" changeset="4389130" lat="50.7028458" lon="17.0573357">
    <tag k="is_in" v="gmina Strzelin, powiat strzeliński, województwo dolnośląskie, Poland"/>
    <tag k="is_in:county" v="powiat strzeliński"/>
    <tag k="is_in:municipality" v="gmina Strzelin"/>
    <tag k="is_in:province" v="województwo dolnośląskie"/>
    <tag k="name" v="Nowolesie"/>
    <tag k="place" v="village"/>
    <tag k="wikipedia" v="Nowolesie"/>
  </node>
  <node id="414077492" version="4" timestamp="2010-04-27T04:07:24Z" uid="30632" user="antblant" changeset="4537875" lat="50.7028458" lon="17.0573357">
    <tag k="is_in" v="gmina Strzelin, powiat strzeliński, województwo dolnośląskie, Poland"/>
    <tag k="is_in:county" v="powiat strzeliński"/>
    <tag k="is_in:municipality" v="gmina Strzelin"/>
    <tag k="is_in:province" v="województwo dolnośląskie"/>
    <tag k="name" v="Nowolesie"/>
    <tag k="place" v="village"/>
    <tag k="teryt:simc" v="0880573"/>
    <tag k="wikipedia" v="Nowolesie"/>
  </node>
  <node id="414077551" version="2" timestamp="2009-06-16T14:28:08Z" uid="20587" user="balrog-kun" changeset="1535626" lat="50.7200635" lon="17.0552106">
    <tag k="is_in" v="gmina Strzelin, powiat strzeliński, województwo dolnośląskie, Poland"/>
    <tag k="is_in:county" v="powiat strzeliński"/>
    <tag k="is_in:municipality" v="gmina Strzelin"/>
    <tag k="is_in:province" v="województwo dolnośląskie"/>
    <tag k="name" v="Gębczyce"/>
    <tag k="place" v="village"/>
    <tag k="wikipedia" v="Gębczyce"/>
  </node>
  <node id="414077551" version="5" timestamp="2010-04-11T04:47:15Z" uid="20587" user="balrog-kun" changeset="4389130" lat="50.7222895" lon="17.0535383">
    <tag k="is_in" v="gmina Strzelin, powiat strzeliński, województwo dolnośląskie, Poland"/>
    <tag k="is_in:county" v="powiat strzeliński"/>
    <tag k="is_in:municipality" v="gmina Strzelin"/>
    <tag k="is_in:province" v="województwo dolnośląskie"/>
    <tag k="name" v="Gębczyce"/>
    <tag k="place" v="village"/>
    <tag k="wikipedia" v="Gębczyce"/>
  </node>
  <node id="414077551" version="6" timestamp="2010-04-27T03:56:25Z" uid="30632" user="antblant" changeset="4537843" lat="50.7222895" lon="17.0535383">
    <tag k="is_in" v="gmina Strzelin, powiat strzeliński, województwo dolnośląskie, Poland"/>
    <tag k="is_in:county" v="powiat strzeliński"/>
    <tag k="is_in:municipality" v="gmina Strzelin"/>
    <tag k="is_in:province" v="województwo dolnośląskie"/>
    <tag k="name" v="Gębczyce"/>
    <tag k="place" v="village"/>
    <tag k="teryt:simc" v="0880372"/>
    <tag k="wikipedia" v="Gębczyce"/>
  </node>
  <node id="414077552" version="2" timestamp="2009-06-16T14:28:18Z" uid="20587" user="balrog-kun" changeset="1535626" lat="50.730495" lon="17.0404368">
    <tag k="addr:postcode" v="57-140"/>
    <tag k="is_in" v="gmina Strzelin, powiat strzeliński, województwo dolnośląskie, Poland"/>
    <tag k="is_in:county" v="powiat strzeliński"/>
    <tag k="is_in:municipality" v="gmina Strzelin"/>
    <tag k="is_in:province" v="województwo dolnośląskie"/>
    <tag k="name" v="Biały Kościół"/>
    <tag k="place" v="village"/>
    <tag k="wikipedia" v="Biały Kościół, Lower Silesian Voivodeship"/>
  </node>
  <node id="414077905" version="2" timestamp="2009-10-13T20:54:01Z" uid="9581" user="Lobelt" changeset="2840472" lat="49.5937" lon="8.8142495"/>
  <node id="414078121" version="2" timestamp="2009-10-13T20:54:01Z" uid="9581" user="Lobelt" changeset="2840472" lat="49.5945236" lon="8.8184617"/>
  <node id="414078522" version="1" timestamp="2009-06-01T15:11:29Z" uid="30632" user="antblant" changeset="1383239" lat="53.4300086" lon="14.5515047"/>
  <node id="414078523" version="1" timestamp="2009-06-01T15:11:29Z" uid="30632" user="antblant" changeset="1383239" lat="53.429818" lon="14.5510054"/>
  <node id="414078524" version="1" timestamp="2009-06-01T15:11:30Z" uid="30632" user="antblant" changeset="1383239" lat="53.4306571" lon="14.5508076"/>
  <node id="414078525" version="1" timestamp="2009-06-01T15:11:30Z" uid="30632" user="antblant" changeset="1383239" lat="53.4304665" lon="14.5503082"/>
  <node id="414078525" version="2" timestamp="2009-09-01T12:25:39Z" uid="30632" user="antblant" changeset="2337029" lat="53.4304527" lon="14.5503221"/>
  <node id="414078526" version="1" timestamp="2009-06-01T15:11:30Z" uid="30632" user="antblant" changeset="1383239" lat="53.4299574" lon="14.5513699"/>
  <node id="414078527" version="1" timestamp="2009-06-01T15:11:30Z" uid="30632" user="antblant" changeset="1383239" lat="53.43062" lon="14.5507031"/>
  <node id="414078758" version="1" timestamp="2009-06-01T15:12:18Z" uid="53938" user="ctheile" changeset="1383302" lat="53.02276" lon="13.711274">
    <tag k="addr:phone" v="+49"/>
    <tag k="amenity" v="restaurant"/>
    <tag k="created_by" v="Amenity Editor"/>
    <tag k="cuisine" v="german"/>
    <tag k="name" v="Zur Post"/>
  </node>
  <node id="414078758" version="5" timestamp="2010-05-27T11:38:40Z" uid="53938" user="ctheile" changeset="4821218" lat="53.0255248" lon="13.7086224">
    <tag k="amenity" v="restaurant"/>
    <tag k="cuisine" v="german"/>
    <tag k="name" v="Zur Post"/>
  </node>
</osm>
