<?xml version='1.0' encoding='UTF-8'?>
<osm version="0.6" generator="libosmium/2.20.0">
  <node id="414630722" version="2" timestamp="2009-10-10T18:51:14Z" uid="9581" user="Lobelt" changeset="2807322" lat="50.7897805" lon="11.4609643"/>
  <node id="414630730" version="2" timestamp="2009-10-10T18:51:14Z" uid="9581" user="Lobelt" changeset="2807322" lat="50.7889433" lon="11.4622359"/>
  <node id="414630787" version="2" timestamp="2009-10-04T17:11:39Z" uid="9581" user="Lobelt" changeset="2740193" lat="50.7817588" lon="11.4733775"/>
  <node id="414630788" version="2" timestamp="2009-10-04T17:11:39Z" uid="9581" user="Lobelt" changeset="2740193" lat="50.7817559" lon="11.4742489"/>
  <node id="414631332" version="2" timestamp="2009-10-04T17:11:39Z" uid="9581" user="Lobelt" changeset="2740193" lat="50.7817326" lon="11.4748776"/>
  <node id="414631334" version="2" timestamp="2009-10-04T17:11:39Z" uid="9581" user="Lobelt" changeset="2740193" lat="50.7816846" lon="11.4753074"/>
  <node id="414631713" version="6" timestamp="2009-12-24T01:15:28Z" uid="6975" user="ulfl" changeset="3439374" lat="51.5074064" lon="7.4504255">
    <tag k="club-mate" v="yes"/>
    <tag k="loc_name" v="REWE Möllerbrücke"/>
    <tag k="name" v="Rewe Kamp"/>
    <tag k="operator" v="Kamp Gmbh &amp; Co EH oHG"/>
    <tag k="shop" v="supermarket"/>
  </node>
  <node id="414633011" version="2" timestamp="2010-07-12T07:31:18Z" uid="59758" user="rendle" changeset="5196239" lat="51.0178818" lon="4.1213934"/>
  <node id="414633012" version="2" timestamp="2010-07-12T07:31:18Z" uid="59758" user="rendle" changeset="5196239" lat="51.0158753" lon="4.1200419"/>
  <node id="414633013" version="2" timestamp="2010-07-12T07:31:18Z" uid="59758" user="rendle" changeset="5196239" lat="51.015605" lon="4.1193453"/>
  <node id="414633014" version="2" timestamp="2010-07-12T07:31:17Z" uid="59758" user="rendle" changeset="5196239" lat="51.0152619" lon="4.1186072"/>
  <node id="414633015" version="2" timestamp="2010-07-12T07:31:17Z" uid="59758" user="rendle" changeset="5196239" lat="51.0148565" lon="4.1180146"/>
  <node id="414633016" version="2" timestamp="2010-07-12T07:31:17Z" uid="59758" user="rendle" changeset="5196239" lat="51.0143471" lon="4.1173181"/>
  <node id="414633017" version="2" timestamp="2010-07-12T07:31:17Z" uid="59758" user="rendle" changeset="5196239" lat="51.0138376" lon="4.116871"/>
  <node id="414633018" version="2" timestamp="2010-07-12T07:31:17Z" uid="59758" user="rendle" changeset="5196239" lat="51.0134322" lon="4.1166839"/>
  <node id="414633019" version="2" timestamp="2010-07-12T07:31:17Z" uid="59758" user="rendle" changeset="5196239" lat="51.0131307" lon="4.1166111"/>
  <node id="414633020" version="2" timestamp="2010-07-12T07:31:16Z" uid="59758" user="rendle" changeset="5196239" lat="51.0128084" lon="4.1160913"/>
  <node id="414633567" version="2" timestamp="2009-11-10T20:11:02Z" uid="9581" user="Lobelt" changeset="3084971" lat="50.7797343" lon="11.497294"/>
  <node id="414633573" version="2" timestamp="2009-11-10T20:11:02Z" uid="9581" user="Lobelt" changeset="3084971" lat="50.7799304" lon="11.4977403"/>
  <node id="414635546" version="1" timestamp="2009-06-02T09:40:12Z" uid="130898" user="hotelfirst" changeset="1402430" lat="48.2123134" lon="15.6068857">
    <tag k="addr:housenumber" v="62"/>
  </node>
  <node id="414635546" version="2" timestamp="2009-06-10T07:27:11Z" uid="130898" user="hotelfirst" changeset="1474647" lat="48.2123157" lon="15.6068813">
    <tag k="addr:housenumber" v="62"/>
  </node>
  <node id="414635546" version="3" timestamp="2009-06-10T07:27:30Z" uid="130898" user="hotelfirst" changeset="1474647" lat="48.2123157" lon="15.6068813">
    <tag k="housenumber" v="62"/>
  </node>
  <node id="414635546" version="7" timestamp="2010-10-07T16:27:04Z" uid="130898" user="hotelfirst" changeset="5979373" lat="48.2124478" lon="15.6069213">
    <tag k="addr:city" v="St.Pölten"/>
    <tag k="addr:housenumber" v="62"/>
    <tag k="addr:postcode" v="3100"/>
    <tag k="addr:street" v="Weinheberstrasse "/>
  </node>
  <node id="414637967" version="2" timestamp="2010-06-12T08:43:15Z" uid="30201" user="rrankin" changeset="4968439" lat="-32.9535942" lon="151.712104"/>
  <node id="414638157" version="1" timestamp="2009-06-02T09:49:21Z" uid="20587" user="balrog-kun" changeset="1402520" lat="52.1650715" lon="20.9325567">
    <tag k="addr:city" v="Warszawa@Warszawa Włochy"/>
    <tag k="addr:housenumber" v="14"/>
    <tag k="addr:street" v="aleja Krakowska"/>
    <tag k="source" v="http://ump.waw.pl/ retrieved 11:07:14 02/24/09 (UMP-Warszawa/src/WARSZAWA_WLOCHY.ulice.txt)"/>
  </node>
  <node id="414638159" version="1" timestamp="2009-06-02T09:49:21Z" uid="20587" user="balrog-kun" changeset="1402520" lat="52.194373" lon="20.961141">
    <tag k="addr:city" v="Warszawa@Warszawa Włochy"/>
    <tag k="addr:housenumber" v="269"/>
    <tag k="addr:street" v="aleja Krakowska"/>
    <tag k="source" v="http://ump.waw.pl/ retrieved 11:07:14 02/24/09 (UMP-Warszawa/src/WARSZAWA_WLOCHY.ulice.txt)"/>
  </node>
  <node id="414638162" version="1" timestamp="2009-06-02T09:49:21Z" uid="20587" user="balrog-kun" changeset="1402520" lat="52.1792938" lon="20.9466478">
    <tag k="addr:city" v="Warszawa@Warszawa Włochy"/>
    <tag k="addr:housenumber" v="133"/>
    <tag k="addr:street" v="aleja Krakowska"/>
    <tag k="source" v="http://ump.waw.pl/ retrieved 11:07:14 02/24/09 (UMP-Warszawa/src/WARSZAWA_WLOCHY.ulice.txt)"/>
  </node>
  <node id="414638166" version="1" timestamp="2009-06-02T09:49:21Z" uid="20587" user="balrog-kun" changeset="1402520" lat="52.1881484" lon="20.9568918">
    <tag k="addr:city" v="Warszawa@Warszawa Włochy"/>
    <tag k="addr:housenumber" v="230"/>
    <tag k="addr:street" v="aleja Krakowska"/>
    <tag k="source" v="http://ump.waw.pl/ retrieved 11:07:14 02/24/09 (UMP-Warszawa/src/WARSZAWA_WLOCHY.ulice.txt)"/>
  </node>
  <node id="414638170" version="1" timestamp="2009-06-02T09:49:21Z" uid="20587" user="balrog-kun" changeset="1402520" lat="52.1899352" lon="20.9821732">
    <tag k="addr:city" v="Warszawa@Warszawa Włochy"/>
    <tag k="addr:housenumber" v="12"/>
    <tag k="addr:street" v="Żwirki i Wigury"/>
    <tag k="source" v="http://ump.waw.pl/ retrieved 11:07:14 02/24/09 (UMP-Warszawa/src/WARSZAWA_WLOCHY.ulice.txt)"/>
  </node>
  <node id="414638173" version="1" timestamp="2009-06-02T09:49:21Z" uid="20587" user="balrog-kun" changeset="1402520" lat="52.1795112" lon="20.947199">
    <tag k="addr:city" v="Warszawa@Warszawa Włochy"/>
    <tag k="addr:housenumber" v="137"/>
    <tag k="addr:street" v="fixme"/>
    <tag k="source" v="http://ump.waw.pl/ retrieved 11:07:14 02/24/09 (UMP-Warszawa/src/WARSZAWA_WLOCHY.ulice.txt)"/>
  </node>
  <node id="414638177" version="1" timestamp="2009-06-02T09:49:21Z" uid="20587" user="balrog-kun" changeset="1402520" lat="52.1766523" lon="20.9437536">
    <tag k="addr:city" v="Warszawa@Warszawa Włochy"/>
    <tag k="addr:housenumber" v="105"/>
    <tag k="addr:street" v="aleja Krakowska"/>
    <tag k="source" v="http://ump.waw.pl/ retrieved 11:07:14 02/24/09 (UMP-Warszawa/src/WARSZAWA_WLOCHY.ulice.txt)"/>
  </node>
  <node id="414638181" version="1" timestamp="2009-06-02T09:49:21Z" uid="20587" user="balrog-kun" changeset="1402520" lat="52.1920942" lon="20.9706481">
    <tag k="addr:city" v="Warszawa@Warszawa Włochy"/>
    <tag k="addr:housenumber" v="3"/>
    <tag k="addr:street" v="Sulmierzycka"/>
    <tag k="source" v="http://ump.waw.pl/ retrieved 11:07:14 02/24/09 (UMP-Warszawa/src/WARSZAWA_WLOCHY.ulice.txt)"/>
  </node>
  <node id="414638184" version="1" timestamp="2009-06-02T09:49:21Z" uid="20587" user="balrog-kun" changeset="1402520" lat="52.1683884" lon="20.9362417">
    <tag k="addr:city" v="Warszawa@Warszawa Włochy"/>
    <tag k="addr:housenumber" v="42"/>
    <tag k="addr:street" v="aleja Krakowska"/>
    <tag k="source" v="http://ump.waw.pl/ retrieved 11:07:14 02/24/09 (UMP-Warszawa/src/WARSZAWA_WLOCHY.ulice.txt)"/>
  </node>
  <node id="414638187" version="1" timestamp="2009-06-02T09:49:21Z" uid="20587" user="balrog-kun" changeset="1402520" lat="52.1823299" lon="20.9513047">
    <tag k="addr:city" v="Warszawa@Warszawa Włochy"/>
    <tag k="addr:housenumber" v="176"/>
    <tag k="addr:street" v="aleja Krakowska"/>
    <tag k="source" v="http://ump.waw.pl/ retrieved 11:07:14 02/24/09 (UMP-Warszawa/src/WARSZAWA_WLOCHY.ulice.txt)"/>
  </node>
  <node id="414638191" version="1" timestamp="2009-06-02T09:49:21Z" uid="20587" user="balrog-kun" changeset="1402520" lat="52.1823114" lon="20.9777053">
    <tag k="addr:city" v="Warszawa@Warszawa Włochy"/>
    <tag k="addr:housenumber" v="3"/>
    <tag k="addr:street" v="Żwirki i Wigury"/>
    <tag k="source" v="http://ump.waw.pl/ retrieved 11:07:14 02/24/09 (UMP-Warszawa/src/WARSZAWA_WLOCHY.ulice.txt)"/>
  </node>
  <node id="414638194" version="1" timestamp="2009-06-02T09:49:21Z" uid="20587" user="balrog-kun" changeset="1402520" lat="52.1792263" lon="20.947987">
    <tag k="addr:city" v="Warszawa@Warszawa Włochy"/>
    <tag k="addr:housenumber" v="114"/>
    <tag k="addr:street" v="aleja Krakowska"/>
    <tag k="source" v="http://ump.waw.pl/ retrieved 11:07:14 02/24/09 (UMP-Warszawa/src/WARSZAWA_WLOCHY.ulice.txt)"/>
  </node>
  <node id="414638197" version="1" timestamp="2009-06-02T09:49:21Z" uid="20587" user="balrog-kun" changeset="1402520" lat="52.1686131" lon="20.9351415">
    <tag k="addr:city" v="Warszawa@Warszawa Włochy"/>
    <tag k="addr:housenumber" v="47"/>
    <tag k="addr:street" v="aleja Krakowska"/>
    <tag k="source" v="http://ump.waw.pl/ retrieved 11:07:14 02/24/09 (UMP-Warszawa/src/WARSZAWA_WLOCHY.ulice.txt)"/>
  </node>
  <node id="414638201" version="1" timestamp="2009-06-02T09:49:21Z" uid="20587" user="balrog-kun" changeset="1402520" lat="52.1917784" lon="20.9589389">
    <tag k="addr:city" v="Warszawa@Warszawa Włochy"/>
    <tag k="addr:housenumber" v="255"/>
    <tag k="addr:street" v="aleja Krakowska"/>
    <tag k="source" v="http://ump.waw.pl/ retrieved 11:07:14 02/24/09 (UMP-Warszawa/src/WARSZAWA_WLOCHY.ulice.txt)"/>
  </node>
  <node id="414638204" version="1" timestamp="2009-06-02T09:49:22Z" uid="20587" user="balrog-kun" changeset="1402520" lat="52.1926508" lon="20.9596722">
    <tag k="addr:city" v="Warszawa@Warszawa Włochy"/>
    <tag k="addr:housenumber" v="259"/>
    <tag k="addr:street" v="aleja Krakowska"/>
  </node>
  <node id="414638207" version="1" timestamp="2009-06-02T09:49:22Z" uid="20587" user="balrog-kun" changeset="1402520" lat="52.1646748" lon="20.9321277">
    <tag k="addr:city" v="Warszawa@Warszawa Włochy"/>
    <tag k="addr:housenumber" v="10"/>
    <tag k="addr:street" v="aleja Krakowska"/>
    <tag k="source" v="http://ump.waw.pl/ retrieved 11:07:14 02/24/09 (UMP-Warszawa/src/WARSZAWA_WLOCHY.ulice.txt)"/>
  </node>
  <node id="414638212" version="1" timestamp="2009-06-02T09:49:22Z" uid="20587" user="balrog-kun" changeset="1402520" lat="52.1905801" lon="20.9799441">
    <tag k="addr:city" v="Warszawa@Warszawa Włochy"/>
    <tag k="addr:housenumber" v="19"/>
    <tag k="addr:street" v="Żwirki i Wigury"/>
    <tag k="source" v="http://ump.waw.pl/ retrieved 11:07:14 02/24/09 (UMP-Warszawa/src/WARSZAWA_WLOCHY.ulice.txt)"/>
  </node>
  <node id="414638253" version="1" timestamp="2009-06-02T09:49:22Z" uid="20587" user="balrog-kun" changeset="1402520" lat="52.1931301" lon="20.9600923">
    <tag k="addr:city" v="Warszawa@Warszawa Włochy"/>
    <tag k="addr:housenumber" v="267"/>
    <tag k="addr:street" v="aleja Krakowska"/>
    <tag k="source" v="http://ump.waw.pl/ retrieved 11:07:14 02/24/09 (UMP-Warszawa/src/WARSZAWA_WLOCHY.ulice.txt)"/>
  </node>
  <node id="414638257" version="1" timestamp="2009-06-02T09:49:22Z" uid="20587" user="balrog-kun" changeset="1402520" lat="52.1692126" lon="20.9371327">
    <tag k="addr:city" v="Warszawa@Warszawa Włochy"/>
    <tag k="addr:housenumber" v="48"/>
    <tag k="addr:street" v="aleja Krakowska"/>
    <tag k="source" v="http://ump.waw.pl/ retrieved 11:07:14 02/24/09 (UMP-Warszawa/src/WARSZAWA_WLOCHY.ulice.txt)"/>
  </node>
  <node id="414638262" version="1" timestamp="2009-06-02T09:49:23Z" uid="20587" user="balrog-kun" changeset="1402520" lat="52.1877388" lon="20.9565587">
    <tag k="addr:city" v="Warszawa@Warszawa Włochy"/>
    <tag k="addr:housenumber" v="228"/>
    <tag k="addr:street" v="aleja Krakowska"/>
    <tag k="source" v="http://ump.waw.pl/ retrieved 11:07:14 02/24/09 (UMP-Warszawa/src/WARSZAWA_WLOCHY.ulice.txt)"/>
  </node>
  <node id="414638268" version="1" timestamp="2009-06-02T09:49:23Z" uid="20587" user="balrog-kun" changeset="1402520" lat="52.1818521" lon="20.9492203">
    <tag k="addr:city" v="Warszawa@Warszawa Włochy"/>
    <tag k="addr:housenumber" v="159"/>
    <tag k="addr:street" v="aleja Krakowska"/>
    <tag k="source" v="http://ump.waw.pl/ retrieved 11:07:14 02/24/09 (UMP-Warszawa/src/WARSZAWA_WLOCHY.ulice.txt)"/>
  </node>
  <node id="414638272" version="1" timestamp="2009-06-02T09:49:23Z" uid="20587" user="balrog-kun" changeset="1402520" lat="52.1956072" lon="20.9621169">
    <tag k="addr:city" v="Warszawa@Warszawa Włochy"/>
    <tag k="addr:housenumber" v="285"/>
    <tag k="addr:street" v="aleja Krakowska"/>
    <tag k="source" v="http://ump.waw.pl/ retrieved 11:07:14 02/24/09 (UMP-Warszawa/src/WARSZAWA_WLOCHY.ulice.txt)"/>
  </node>
  <node id="414638275" version="1" timestamp="2009-06-02T09:49:23Z" uid="20587" user="balrog-kun" changeset="1402520" lat="52.1847936" lon="20.9538352">
    <tag k="addr:city" v="Warszawa@Warszawa Włochy"/>
    <tag k="addr:housenumber" v="208"/>
    <tag k="addr:street" v="aleja Krakowska"/>
    <tag k="source" v="http://ump.waw.pl/ retrieved 11:07:14 02/24/09 (UMP-Warszawa/src/WARSZAWA_WLOCHY.ulice.txt)"/>
  </node>
  <node id="414638277" version="1" timestamp="2009-06-02T09:49:23Z" uid="20587" user="balrog-kun" changeset="1402520" lat="52.1836009" lon="20.9527911">
    <tag k="addr:city" v="Warszawa@Warszawa Włochy"/>
    <tag k="addr:housenumber" v="178"/>
    <tag k="addr:street" v="aleja Krakowska"/>
    <tag k="source" v="http://ump.waw.pl/ retrieved 11:07:14 02/24/09 (UMP-Warszawa/src/WARSZAWA_WLOCHY.ulice.txt)"/>
  </node>
  <node id="414638280" version="1" timestamp="2009-06-02T09:49:23Z" uid="20587" user="balrog-kun" changeset="1402520" lat="52.1636733" lon="20.9310444">
    <tag k="addr:city" v="Warszawa@Warszawa Włochy"/>
    <tag k="addr:housenumber" v="4"/>
    <tag k="addr:street" v="aleja Krakowska"/>
    <tag k="source" v="http://ump.waw.pl/ retrieved 11:07:14 02/24/09 (UMP-Warszawa/src/WARSZAWA_WLOCHY.ulice.txt)"/>
  </node>
  <node id="414638283" version="1" timestamp="2009-06-02T09:49:23Z" uid="20587" user="balrog-kun" changeset="1402520" lat="52.1917459" lon="20.9673005">
    <tag k="addr:city" v="Warszawa@Warszawa Włochy"/>
    <tag k="addr:housenumber" v="8"/>
    <tag k="addr:street" v="Lechicka"/>
    <tag k="source" v="http://ump.waw.pl/ retrieved 11:07:14 02/24/09 (UMP-Warszawa/src/WARSZAWA_WLOCHY.ulice.txt)"/>
  </node>
  <node id="414638285" version="1" timestamp="2009-06-02T09:49:23Z" uid="20587" user="balrog-kun" changeset="1402520" lat="52.1749115" lon="20.9418751">
    <tag k="addr:city" v="Warszawa@Warszawa Włochy"/>
    <tag k="addr:housenumber" v="85"/>
    <tag k="addr:street" v="aleja Krakowska"/>
    <tag k="source" v="http://ump.waw.pl/ retrieved 11:07:14 02/24/09 (UMP-Warszawa/src/WARSZAWA_WLOCHY.ulice.txt)"/>
  </node>
  <node id="414638288" version="1" timestamp="2009-06-02T09:49:23Z" uid="20587" user="balrog-kun" changeset="1402520" lat="52.1780946" lon="20.9453512">
    <tag k="addr:city" v="Warszawa@Warszawa Włochy"/>
    <tag k="addr:housenumber" v="123"/>
    <tag k="addr:street" v="aleja Krakowska"/>
    <tag k="source" v="http://ump.waw.pl/ retrieved 11:07:14 02/24/09 (UMP-Warszawa/src/WARSZAWA_WLOCHY.ulice.txt)"/>
  </node>
  <node id="414638291" version="1" timestamp="2009-06-02T09:49:23Z" uid="20587" user="balrog-kun" changeset="1402520" lat="52.1899712" lon="20.9573695">
    <tag k="addr:city" v="Warszawa@Warszawa Włochy"/>
    <tag k="addr:housenumber" v="239"/>
    <tag k="addr:street" v="aleja Krakowska"/>
    <tag k="source" v="http://ump.waw.pl/ retrieved 11:07:14 02/24/09 (UMP-Warszawa/src/WARSZAWA_WLOCHY.ulice.txt)"/>
  </node>
  <node id="414638294" version="1" timestamp="2009-06-02T09:49:23Z" uid="20587" user="balrog-kun" changeset="1402520" lat="52.1843496" lon="20.9533441">
    <tag k="addr:city" v="Warszawa@Warszawa Włochy"/>
    <tag k="addr:housenumber" v="206"/>
    <tag k="addr:street" v="aleja Krakowska"/>
    <tag k="source" v="http://ump.waw.pl/ retrieved 11:07:14 02/24/09 (UMP-Warszawa/src/WARSZAWA_WLOCHY.ulice.txt)"/>
  </node>
  <node id="414638297" version="1" timestamp="2009-06-02T09:49:23Z" uid="20587" user="balrog-kun" changeset="1402520" lat="52.1785233" lon="20.9458185">
    <tag k="addr:city" v="Warszawa@Warszawa Włochy"/>
    <tag k="addr:housenumber" v="125"/>
    <tag k="addr:street" v="aleja Krakowska"/>
    <tag k="source" v="http://ump.waw.pl/ retrieved 11:07:14 02/24/09 (UMP-Warszawa/src/WARSZAWA_WLOCHY.ulice.txt)"/>
  </node>
  <node id="414638302" version="1" timestamp="2009-06-02T09:49:23Z" uid="20587" user="balrog-kun" changeset="1402520" lat="52.180618" lon="20.9494899">
    <tag k="addr:city" v="Warszawa@Warszawa Włochy"/>
    <tag k="addr:housenumber" v="120"/>
    <tag k="addr:street" v="aleja Krakowska"/>
    <tag k="source" v="http://ump.waw.pl/ retrieved 11:07:14 02/24/09 (UMP-Warszawa/src/WARSZAWA_WLOCHY.ulice.txt)"/>
  </node>
  <node id="414638305" version="1" timestamp="2009-06-02T09:49:23Z" uid="20587" user="balrog-kun" changeset="1402520" lat="52.1913291" lon="20.9599373">
    <tag k="addr:city" v="Warszawa@Warszawa Włochy"/>
    <tag k="addr:housenumber" v="258"/>
    <tag k="addr:street" v="aleja Krakowska"/>
    <tag k="source" v="http://ump.waw.pl/ retrieved 11:07:14 02/24/09 (UMP-Warszawa/src/WARSZAWA_WLOCHY.ulice.txt)"/>
  </node>
  <node id="414638310" version="1" timestamp="2009-06-02T09:49:23Z" uid="20587" user="balrog-kun" changeset="1402520" lat="52.1688039" lon="20.9366909">
    <tag k="addr:city" v="Warszawa@Warszawa Włochy"/>
    <tag k="addr:housenumber" v="46"/>
    <tag k="addr:street" v="aleja Krakowska"/>
    <tag k="source" v="http://ump.waw.pl/ retrieved 11:07:14 02/24/09 (UMP-Warszawa/src/WARSZAWA_WLOCHY.ulice.txt)"/>
  </node>
  <node id="414638314" version="1" timestamp="2009-06-02T09:49:23Z" uid="20587" user="balrog-kun" changeset="1402520" lat="52.1843446" lon="20.9521679">
    <tag k="addr:city" v="Warszawa@Warszawa Włochy"/>
    <tag k="addr:housenumber" v="179"/>
    <tag k="addr:street" v="aleja Krakowska"/>
    <tag k="source" v="http://ump.waw.pl/ retrieved 11:07:14 02/24/09 (UMP-Warszawa/src/WARSZAWA_WLOCHY.ulice.txt)"/>
  </node>
  <node id="414638314" version="2" timestamp="2009-06-06T15:45:48Z" uid="20587" user="balrog-kun" changeset="1439673" lat="52.1839149" lon="20.9515354">
    <tag k="addr:city" v="Warszawa@Warszawa Włochy"/>
    <tag k="addr:housenumber" v="179"/>
    <tag k="addr:street" v="aleja Krakowska"/>
    <tag k="source" v="http://ump.waw.pl/ retrieved 11:07:14 02/24/09 (UMP-Warszawa/src/WARSZAWA_WLOCHY.ulice.txt)"/>
  </node>
  <node id="414638319" version="1" timestamp="2009-06-02T09:49:24Z" uid="20587" user="balrog-kun" changeset="1402520" lat="52.184593" lon="20.9524369">
    <tag k="addr:city" v="Warszawa@Warszawa Włochy"/>
    <tag k="addr:housenumber" v="181"/>
    <tag k="addr:street" v="aleja Krakowska"/>
    <tag k="source" v="http://ump.waw.pl/ retrieved 11:07:14 02/24/09 (UMP-Warszawa/src/WARSZAWA_WLOCHY.ulice.txt)"/>
  </node>
  <node id="414638319" version="2" timestamp="2009-06-06T15:45:48Z" uid="20587" user="balrog-kun" changeset="1439673" lat="52.1843449" lon="20.952038">
    <tag k="addr:city" v="Warszawa@Warszawa Włochy"/>
    <tag k="addr:housenumber" v="181"/>
    <tag k="addr:street" v="aleja Krakowska"/>
    <tag k="source" v="http://ump.waw.pl/ retrieved 11:07:14 02/24/09 (UMP-Warszawa/src/WARSZAWA_WLOCHY.ulice.txt)"/>
  </node>
  <node id="414638324" version="1" timestamp="2009-06-02T09:49:24Z" uid="20587" user="balrog-kun" changeset="1402520" lat="52.1913669" lon="20.9584755">
    <tag k="addr:city" v="Warszawa@Warszawa Włochy"/>
    <tag k="addr:housenumber" v="245"/>
    <tag k="addr:street" v="aleja Krakowska"/>
    <tag k="source" v="http://ump.waw.pl/ retrieved 11:07:14 02/24/09 (UMP-Warszawa/src/WARSZAWA_WLOCHY.ulice.txt)"/>
  </node>
  <node id="414638329" version="1" timestamp="2009-06-02T09:49:24Z" uid="20587" user="balrog-kun" changeset="1402520" lat="52.1642401" lon="20.9304319">
    <tag k="addr:city" v="Warszawa@Warszawa Włochy"/>
    <tag k="addr:housenumber" v="11"/>
    <tag k="addr:street" v="aleja Krakowska"/>
    <tag k="source" v="http://ump.waw.pl/ retrieved 11:07:14 02/24/09 (UMP-Warszawa/src/WARSZAWA_WLOCHY.ulice.txt)"/>
  </node>
  <node id="414638333" version="1" timestamp="2009-06-02T09:49:24Z" uid="20587" user="balrog-kun" changeset="1402520" lat="52.1964093" lon="20.9628959">
    <tag k="addr:city" v="Warszawa@Warszawa Włochy"/>
    <tag k="addr:housenumber" v="287"/>
    <tag k="addr:street" v="aleja Krakowska"/>
    <tag k="source" v="http://ump.waw.pl/ retrieved 11:07:14 02/24/09 (UMP-Warszawa/src/WARSZAWA_WLOCHY.ulice.txt)"/>
  </node>
  <node id="414638339" version="1" timestamp="2009-06-02T09:49:24Z" uid="20587" user="balrog-kun" changeset="1402520" lat="52.1918013" lon="20.9653489">
    <tag k="addr:city" v="Warszawa@Warszawa Włochy"/>
    <tag k="addr:housenumber" v="19"/>
    <tag k="addr:street" v="Lechicka"/>
    <tag k="source" v="http://ump.waw.pl/ retrieved 11:07:14 02/24/09 (UMP-Warszawa/src/WARSZAWA_WLOCHY.ulice.txt)"/>
  </node>
  <node id="414638344" version="1" timestamp="2009-06-02T09:49:24Z" uid="20587" user="balrog-kun" changeset="1402520" lat="52.1840971" lon="20.9518999">
    <tag k="addr:city" v="Warszawa@Warszawa Włochy"/>
    <tag k="addr:housenumber" v="177"/>
    <tag k="addr:street" v="aleja Krakowska"/>
    <tag k="source" v="http://ump.waw.pl/ retrieved 11:07:14 02/24/09 (UMP-Warszawa/src/WARSZAWA_WLOCHY.ulice.txt)"/>
  </node>
  <node id="414638344" version="2" timestamp="2009-06-06T15:45:48Z" uid="20587" user="balrog-kun" changeset="1439673" lat="52.1833337" lon="20.9508664">
    <tag k="addr:city" v="Warszawa@Warszawa Włochy"/>
    <tag k="addr:housenumber" v="177"/>
    <tag k="addr:street" v="aleja Krakowska"/>
    <tag k="source" v="http://ump.waw.pl/ retrieved 11:07:14 02/24/09 (UMP-Warszawa/src/WARSZAWA_WLOCHY.ulice.txt)"/>
  </node>
  <node id="414638346" version="1" timestamp="2009-06-02T09:49:24Z" uid="20587" user="balrog-kun" changeset="1402520" lat="52.186091" lon="20.953929">
    <tag k="addr:city" v="Warszawa@Warszawa Włochy"/>
    <tag k="addr:housenumber" v="193"/>
    <tag k="addr:street" v="aleja Krakowska"/>
    <tag k="source" v="http://ump.waw.pl/ retrieved 11:07:14 02/24/09 (UMP-Warszawa/src/WARSZAWA_WLOCHY.ulice.txt)"/>
  </node>
  <node id="414638346" version="2" timestamp="2009-06-06T15:45:47Z" uid="20587" user="balrog-kun" changeset="1439673" lat="52.1849898" lon="20.9527538">
    <tag k="addr:city" v="Warszawa@Warszawa Włochy"/>
    <tag k="addr:housenumber" v="193"/>
    <tag k="addr:street" v="aleja Krakowska"/>
    <tag k="source" v="http://ump.waw.pl/ retrieved 11:07:14 02/24/09 (UMP-Warszawa/src/WARSZAWA_WLOCHY.ulice.txt)"/>
  </node>
  <node id="414638348" version="1" timestamp="2009-06-02T09:49:24Z" uid="20587" user="balrog-kun" changeset="1402520" lat="52.1918969" lon="20.9602938">
    <tag k="addr:city" v="Warszawa@Warszawa Włochy"/>
    <tag k="addr:housenumber" v="262"/>
    <tag k="addr:street" v="aleja Krakowska"/>
    <tag k="source" v="http://ump.waw.pl/ retrieved 11:07:14 02/24/09 (UMP-Warszawa/src/WARSZAWA_WLOCHY.ulice.txt)"/>
  </node>
  <node id="414638350" version="1" timestamp="2009-06-02T09:49:24Z" uid="20587" user="balrog-kun" changeset="1402520" lat="52.1895512" lon="20.9583035">
    <tag k="addr:city" v="Warszawa@Warszawa Włochy"/>
    <tag k="addr:housenumber" v="246"/>
    <tag k="addr:street" v="aleja Krakowska"/>
    <tag k="source" v="http://ump.waw.pl/ retrieved 11:07:14 02/24/09 (UMP-Warszawa/src/WARSZAWA_WLOCHY.ulice.txt)"/>
  </node>
  <node id="414638352" version="1" timestamp="2009-06-02T09:49:24Z" uid="20587" user="balrog-kun" changeset="1402520" lat="52.1799006" lon="20.9476159">
    <tag k="addr:city" v="Warszawa@Warszawa Włochy"/>
    <tag k="addr:housenumber" v="139"/>
    <tag k="addr:street" v="fixme"/>
    <tag k="source" v="http://ump.waw.pl/ retrieved 11:07:14 02/24/09 (UMP-Warszawa/src/WARSZAWA_WLOCHY.ulice.txt)"/>
  </node>
  <node id="414638354" version="1" timestamp="2009-06-02T09:49:24Z" uid="20587" user="balrog-kun" changeset="1402520" lat="52.165691" lon="20.9332183">
    <tag k="addr:city" v="Warszawa@Warszawa Włochy"/>
    <tag k="addr:housenumber" v="22"/>
    <tag k="addr:street" v="aleja Krakowska"/>
    <tag k="source" v="http://ump.waw.pl/ retrieved 11:07:14 02/24/09 (UMP-Warszawa/src/WARSZAWA_WLOCHY.ulice.txt)"/>
  </node>
  <node id="414638357" version="1" timestamp="2009-06-02T09:49:24Z" uid="20587" user="balrog-kun" changeset="1402520" lat="52.1881082" lon="20.9557097">
    <tag k="addr:city" v="Warszawa@Warszawa Włochy"/>
    <tag k="addr:housenumber" v="213"/>
    <tag k="addr:street" v="aleja Krakowska"/>
    <tag k="source" v="http://ump.waw.pl/ retrieved 11:07:14 02/24/09 (UMP-Warszawa/src/WARSZAWA_WLOCHY.ulice.txt)"/>
  </node>
  <node id="414638359" version="1" timestamp="2009-06-02T09:49:24Z" uid="20587" user="balrog-kun" changeset="1402520" lat="52.1909165" lon="20.9580221">
    <tag k="addr:city" v="Warszawa@Warszawa Włochy"/>
    <tag k="addr:housenumber" v="243"/>
    <tag k="addr:street" v="aleja Krakowska"/>
    <tag k="source" v="http://ump.waw.pl/ retrieved 11:07:14 02/24/09 (UMP-Warszawa/src/WARSZAWA_WLOCHY.ulice.txt)"/>
  </node>
  <node id="414638363" version="1" timestamp="2009-06-02T09:49:24Z" uid="20587" user="balrog-kun" changeset="1402520" lat="52.1640007" lon="20.9314278">
    <tag k="addr:city" v="Warszawa@Warszawa Włochy"/>
    <tag k="addr:housenumber" v="8"/>
    <tag k="addr:street" v="aleja Krakowska"/>
    <tag k="source" v="http://ump.waw.pl/ retrieved 11:07:14 02/24/09 (UMP-Warszawa/src/WARSZAWA_WLOCHY.ulice.txt)"/>
  </node>
  <node id="414638368" version="1" timestamp="2009-06-02T09:49:24Z" uid="20587" user="balrog-kun" changeset="1402520" lat="52.1890903" lon="20.9577513">
    <tag k="addr:city" v="Warszawa@Warszawa Włochy"/>
    <tag k="addr:housenumber" v="242"/>
    <tag k="addr:street" v="aleja Krakowska"/>
    <tag k="source" v="http://ump.waw.pl/ retrieved 11:07:14 02/24/09 (UMP-Warszawa/src/WARSZAWA_WLOCHY.ulice.txt)"/>
  </node>
  <node id="414638372" version="1" timestamp="2009-06-02T09:49:24Z" uid="20587" user="balrog-kun" changeset="1402520" lat="52.1696977" lon="20.9376572">
    <tag k="addr:city" v="Warszawa@Warszawa Włochy"/>
    <tag k="addr:housenumber" v="52"/>
    <tag k="addr:street" v="aleja Krakowska"/>
    <tag k="source" v="http://ump.waw.pl/ retrieved 11:07:14 02/24/09 (UMP-Warszawa/src/WARSZAWA_WLOCHY.ulice.txt)"/>
  </node>
  <node id="414638376" version="1" timestamp="2009-06-02T09:49:24Z" uid="20587" user="balrog-kun" changeset="1402520" lat="52.1633998" lon="20.9307427">
    <tag k="addr:city" v="Warszawa@Warszawa Włochy"/>
    <tag k="addr:housenumber" v="2"/>
    <tag k="addr:street" v="aleja Krakowska"/>
    <tag k="source" v="http://ump.waw.pl/ retrieved 11:07:14 02/24/09 (UMP-Warszawa/src/WARSZAWA_WLOCHY.ulice.txt)"/>
  </node>
  <node id="414638381" version="1" timestamp="2009-06-02T09:49:25Z" uid="20587" user="balrog-kun" changeset="1402520" lat="52.1892635" lon="20.9579318">
    <tag k="addr:city" v="Warszawa@Warszawa Włochy"/>
    <tag k="addr:housenumber" v="244"/>
    <tag k="addr:street" v="aleja Krakowska"/>
    <tag k="source" v="http://ump.waw.pl/ retrieved 11:07:14 02/24/09 (UMP-Warszawa/src/WARSZAWA_WLOCHY.ulice.txt)"/>
  </node>
  <node id="414638384" version="1" timestamp="2009-06-02T09:49:25Z" uid="20587" user="balrog-kun" changeset="1402520" lat="52.1831343" lon="20.977976">
    <tag k="addr:city" v="Warszawa@Warszawa Włochy"/>
    <tag k="addr:housenumber" v="5"/>
    <tag k="addr:street" v="Żwirki i Wigury"/>
    <tag k="source" v="http://ump.waw.pl/ retrieved 11:07:14 02/24/09 (UMP-Warszawa/src/WARSZAWA_WLOCHY.ulice.txt)"/>
  </node>
  <node id="414638390" version="1" timestamp="2009-06-02T09:49:25Z" uid="20587" user="balrog-kun" changeset="1402520" lat="52.1865625" lon="20.9543311">
    <tag k="addr:city" v="Warszawa@Warszawa Włochy"/>
    <tag k="addr:housenumber" v="195"/>
    <tag k="addr:street" v="aleja Krakowska"/>
    <tag k="source" v="http://ump.waw.pl/ retrieved 11:07:14 02/24/09 (UMP-Warszawa/src/WARSZAWA_WLOCHY.ulice.txt)"/>
  </node>
  <node id="414638390" version="2" timestamp="2009-06-06T15:45:48Z" uid="20587" user="balrog-kun" changeset="1439673" lat="52.1853048" lon="20.9530063">
    <tag k="addr:city" v="Warszawa@Warszawa Włochy"/>
    <tag k="addr:housenumber" v="195"/>
    <tag k="addr:street" v="aleja Krakowska"/>
    <tag k="source" v="http://ump.waw.pl/ retrieved 11:07:14 02/24/09 (UMP-Warszawa/src/WARSZAWA_WLOCHY.ulice.txt)"/>
  </node>
  <node id="414638395" version="1" timestamp="2009-06-02T09:49:25Z" uid="20587" user="balrog-kun" changeset="1402520" lat="52.1878125" lon="20.9554922">
    <tag k="addr:city" v="Warszawa@Warszawa Włochy"/>
    <tag k="addr:housenumber" v="205"/>
    <tag k="addr:street" v="aleja Krakowska"/>
    <tag k="source" v="http://ump.waw.pl/ retrieved 11:07:14 02/24/09 (UMP-Warszawa/src/WARSZAWA_WLOCHY.ulice.txt)"/>
  </node>
  <node id="414638401" version="1" timestamp="2009-06-02T09:49:25Z" uid="20587" user="balrog-kun" changeset="1402520" lat="52.1915228" lon="20.9700407">
    <tag k="addr:city" v="Warszawa@Warszawa Włochy"/>
    <tag k="addr:housenumber" v="1"/>
    <tag k="addr:street" v="Sulmierzycka"/>
    <tag k="source" v="http://ump.waw.pl/ retrieved 11:07:14 02/24/09 (UMP-Warszawa/src/WARSZAWA_WLOCHY.ulice.txt)"/>
  </node>
  <node id="414638405" version="1" timestamp="2009-06-02T09:49:25Z" uid="20587" user="balrog-kun" changeset="1402520" lat="52.1911737" lon="20.9679586">
    <tag k="addr:city" v="Warszawa@Warszawa Włochy"/>
    <tag k="addr:housenumber" v="13"/>
    <tag k="addr:street" v="Lechicka"/>
    <tag k="source" v="http://ump.waw.pl/ retrieved 11:07:14 02/24/09 (UMP-Warszawa/src/WARSZAWA_WLOCHY.ulice.txt)"/>
  </node>
  <node id="414638411" version="1" timestamp="2009-06-02T09:49:25Z" uid="20587" user="balrog-kun" changeset="1402520" lat="52.1896678" lon="20.9570843">
    <tag k="addr:city" v="Warszawa@Warszawa Włochy"/>
    <tag k="addr:housenumber" v="237"/>
    <tag k="addr:street" v="aleja Krakowska"/>
    <tag k="source" v="http://ump.waw.pl/ retrieved 11:07:14 02/24/09 (UMP-Warszawa/src/WARSZAWA_WLOCHY.ulice.txt)"/>
  </node>
  <node id="414638415" version="1" timestamp="2009-06-02T09:49:25Z" uid="20587" user="balrog-kun" changeset="1402520" lat="52.1921157" lon="20.9641663">
    <tag k="addr:city" v="Warszawa@Warszawa Włochy"/>
    <tag k="addr:housenumber" v="23"/>
    <tag k="addr:street" v="Lechicka"/>
    <tag k="source" v="http://ump.waw.pl/ retrieved 11:07:14 02/24/09 (UMP-Warszawa/src/WARSZAWA_WLOCHY.ulice.txt)"/>
  </node>
  <node id="414638420" version="1" timestamp="2009-06-02T09:49:25Z" uid="20587" user="balrog-kun" changeset="1402520" lat="52.1661251" lon="20.9337948">
    <tag k="addr:city" v="Warszawa@Warszawa Włochy"/>
    <tag k="addr:housenumber" v="26"/>
    <tag k="addr:street" v="aleja Krakowska"/>
    <tag k="source" v="http://ump.waw.pl/ retrieved 11:07:14 02/24/09 (UMP-Warszawa/src/WARSZAWA_WLOCHY.ulice.txt)"/>
  </node>
  <node id="414638425" version="1" timestamp="2009-06-02T09:49:25Z" uid="20587" user="balrog-kun" changeset="1402520" lat="52.1911933" lon="20.9696246">
    <tag k="addr:city" v="Warszawa@Warszawa Włochy"/>
    <tag k="addr:housenumber" v="4"/>
    <tag k="addr:street" v="Lechicka"/>
    <tag k="source" v="http://ump.waw.pl/ retrieved 11:07:14 02/24/09 (UMP-Warszawa/src/WARSZAWA_WLOCHY.ulice.txt)"/>
  </node>
  <node id="414638431" version="1" timestamp="2009-06-02T09:49:25Z" uid="20587" user="balrog-kun" changeset="1402520" lat="52.1802857" lon="20.9475905">
    <tag k="addr:city" v="Warszawa@Warszawa Włochy"/>
    <tag k="addr:housenumber" v="141"/>
    <tag k="addr:street" v="aleja Krakowska"/>
    <tag k="source" v="http://ump.waw.pl/ retrieved 11:07:14 02/24/09 (UMP-Warszawa/src/WARSZAWA_WLOCHY.ulice.txt)"/>
  </node>
  <node id="414638436" version="1" timestamp="2009-06-02T09:49:25Z" uid="20587" user="balrog-kun" changeset="1402520" lat="52.185332" lon="20.9531643">
    <tag k="addr:city" v="Warszawa@Warszawa Włochy"/>
    <tag k="addr:housenumber" v="191"/>
    <tag k="addr:street" v="aleja Krakowska"/>
    <tag k="source" v="http://ump.waw.pl/ retrieved 11:07:14 02/24/09 (UMP-Warszawa/src/WARSZAWA_WLOCHY.ulice.txt)"/>
  </node>
  <node id="414638436" version="2" timestamp="2009-06-06T15:45:48Z" uid="20587" user="balrog-kun" changeset="1439673" lat="52.1847241" lon="20.9524375">
    <tag k="addr:city" v="Warszawa@Warszawa Włochy"/>
    <tag k="addr:housenumber" v="191"/>
    <tag k="addr:street" v="aleja Krakowska"/>
    <tag k="source" v="http://ump.waw.pl/ retrieved 11:07:14 02/24/09 (UMP-Warszawa/src/WARSZAWA_WLOCHY.ulice.txt)"/>
  </node>
  <node id="414638440" version="1" timestamp="2009-06-02T09:49:25Z" uid="20587" user="balrog-kun" changeset="1402520" lat="52.1754523" lon="20.9454388">
    <tag k="addr:city" v="Warszawa@Warszawa Włochy"/>
    <tag k="addr:housenumber" v="102"/>
    <tag k="addr:street" v="aleja Krakowska"/>
    <tag k="source" v="http://ump.waw.pl/ retrieved 11:07:14 02/24/09 (UMP-Warszawa/src/WARSZAWA_WLOCHY.ulice.txt)"/>
  </node>
  <node id="414638444" version="1" timestamp="2009-06-02T09:49:25Z" uid="20587" user="balrog-kun" changeset="1402520" lat="52.1771361" lon="20.9443367">
    <tag k="addr:city" v="Warszawa@Warszawa Włochy"/>
    <tag k="addr:housenumber" v="107"/>
    <tag k="addr:street" v="aleja Krakowska"/>
    <tag k="source" v="http://ump.waw.pl/ retrieved 11:07:14 02/24/09 (UMP-Warszawa/src/WARSZAWA_WLOCHY.ulice.txt)"/>
  </node>
  <node id="414638447" version="1" timestamp="2009-06-02T09:49:25Z" uid="20587" user="balrog-kun" changeset="1402520" lat="52.1661355" lon="20.9324272">
    <tag k="addr:city" v="Warszawa@Warszawa Włochy"/>
    <tag k="addr:housenumber" v="23"/>
    <tag k="addr:street" v="aleja Krakowska"/>
    <tag k="source" v="http://ump.waw.pl/ retrieved 11:07:14 02/24/09 (UMP-Warszawa/src/WARSZAWA_WLOCHY.ulice.txt)"/>
  </node>
  <node id="414638449" version="1" timestamp="2009-06-02T09:49:25Z" uid="20587" user="balrog-kun" changeset="1402520" lat="52.1892923" lon="20.9567974">
    <tag k="addr:city" v="Warszawa@Warszawa Włochy"/>
    <tag k="addr:housenumber" v="231"/>
    <tag k="addr:street" v="aleja Krakowska"/>
    <tag k="source" v="http://ump.waw.pl/ retrieved 11:07:14 02/24/09 (UMP-Warszawa/src/WARSZAWA_WLOCHY.ulice.txt)"/>
  </node>
  <node id="414638452" version="1" timestamp="2009-06-02T09:49:25Z" uid="20587" user="balrog-kun" changeset="1402520" lat="52.1910512" lon="20.959683">
    <tag k="addr:city" v="Warszawa@Warszawa Włochy"/>
    <tag k="addr:housenumber" v="256"/>
    <tag k="addr:street" v="aleja Krakowska"/>
    <tag k="source" v="http://ump.waw.pl/ retrieved 11:07:14 02/24/09 (UMP-Warszawa/src/WARSZAWA_WLOCHY.ulice.txt)"/>
  </node>
  <node id="414638455" version="1" timestamp="2009-06-02T09:49:25Z" uid="20587" user="balrog-kun" changeset="1402520" lat="52.1860492" lon="20.9550524">
    <tag k="addr:city" v="Warszawa@Warszawa Włochy"/>
    <tag k="addr:housenumber" v="212"/>
    <tag k="addr:street" v="aleja Krakowska"/>
    <tag k="source" v="http://ump.waw.pl/ retrieved 11:07:14 02/24/09 (UMP-Warszawa/src/WARSZAWA_WLOCHY.ulice.txt)"/>
  </node>
  <node id="414638457" version="1" timestamp="2009-06-02T09:49:25Z" uid="20587" user="balrog-kun" changeset="1402520" lat="52.1679006" lon="20.9342818">
    <tag k="addr:city" v="Warszawa@Warszawa Włochy"/>
    <tag k="addr:housenumber" v="45"/>
    <tag k="addr:street" v="aleja Krakowska"/>
    <tag k="source" v="http://ump.waw.pl/ retrieved 11:07:14 02/24/09 (UMP-Warszawa/src/WARSZAWA_WLOCHY.ulice.txt)"/>
  </node>
  <node id="414638460" version="1" timestamp="2009-06-02T09:49:26Z" uid="20587" user="balrog-kun" changeset="1402520" lat="52.1711001" lon="20.9393148">
    <tag k="addr:city" v="Warszawa@Warszawa Włochy"/>
    <tag k="addr:housenumber" v="62"/>
    <tag k="addr:street" v="aleja Krakowska"/>
    <tag k="source" v="http://ump.waw.pl/ retrieved 11:07:14 02/24/09 (UMP-Warszawa/src/WARSZAWA_WLOCHY.ulice.txt)"/>
  </node>
  <node id="414638463" version="1" timestamp="2009-06-02T09:49:26Z" uid="20587" user="balrog-kun" changeset="1402520" lat="52.1838064" lon="20.9515851">
    <tag k="addr:city" v="Warszawa@Warszawa Włochy"/>
    <tag k="addr:housenumber" v="173"/>
    <tag k="addr:street" v="aleja Krakowska"/>
    <tag k="source" v="http://ump.waw.pl/ retrieved 11:07:14 02/24/09 (UMP-Warszawa/src/WARSZAWA_WLOCHY.ulice.txt)"/>
  </node>
  <node id="414638463" version="2" timestamp="2009-06-06T15:45:48Z" uid="20587" user="balrog-kun" changeset="1439673" lat="52.1826991" lon="20.9501777">
    <tag k="addr:city" v="Warszawa@Warszawa Włochy"/>
    <tag k="addr:housenumber" v="173"/>
    <tag k="addr:street" v="aleja Krakowska"/>
    <tag k="source" v="http://ump.waw.pl/ retrieved 11:07:14 02/24/09 (UMP-Warszawa/src/WARSZAWA_WLOCHY.ulice.txt)"/>
  </node>
  <node id="414638465" version="1" timestamp="2009-06-02T09:49:26Z" uid="20587" user="balrog-kun" changeset="1402520" lat="52.1916421" lon="20.9660309">
    <tag k="addr:city" v="Warszawa@Warszawa Włochy"/>
    <tag k="addr:housenumber" v="17"/>
    <tag k="addr:street" v="Lechicka"/>
    <tag k="source" v="http://ump.waw.pl/ retrieved 11:07:14 02/24/09 (UMP-Warszawa/src/WARSZAWA_WLOCHY.ulice.txt)"/>
  </node>
  <node id="414638467" version="1" timestamp="2009-06-02T09:49:26Z" uid="20587" user="balrog-kun" changeset="1402520" lat="52.1812441" lon="20.9772731">
    <tag k="addr:city" v="Warszawa@Warszawa Włochy"/>
    <tag k="addr:housenumber" v="1"/>
    <tag k="addr:street" v="Żwirki i Wigury"/>
    <tag k="note" v="TODO"/>
    <tag k="source" v="http://ump.waw.pl/ retrieved 11:07:14 02/24/09 (UMP-Warszawa/src/WARSZAWA_WLOCHY.ulice.txt)"/>
  </node>
  <node id="414638467" version="2" timestamp="2010-06-24T02:52:31Z" uid="20587" user="balrog-kun" changeset="5063204" lat="52.1812441" lon="20.9772731">
    <tag k="addr:city" v="Warszawa@Warszawa Włochy"/>
    <tag k="addr:housenumber" v="1"/>
    <tag k="addr:street" v="Żwirki i Wigury"/>
    <tag k="note" v="TODO"/>
    <tag k="source" v="http://ump.waw.pl/ retrieved 11:07:14 02/24/09 (UMP-Warszawa/src/WARSZAWA_WLOCHY.ulice.txt)"/>
  </node>
  <node id="414638470" version="1" timestamp="2009-06-02T09:49:26Z" uid="20587" user="balrog-kun" changeset="1402520" lat="52.1829909" lon="20.9505535">
    <tag k="addr:city" v="Warszawa@Warszawa Włochy"/>
    <tag k="addr:housenumber" v="169"/>
    <tag k="addr:street" v="aleja Krakowska"/>
    <tag k="source" v="http://ump.waw.pl/ retrieved 11:07:14 02/24/09 (UMP-Warszawa/src/WARSZAWA_WLOCHY.ulice.txt)"/>
  </node>
  <node id="414638470" version="2" timestamp="2009-06-06T15:45:48Z" uid="20587" user="balrog-kun" changeset="1439673" lat="52.1822321" lon="20.9496721">
    <tag k="addr:city" v="Warszawa@Warszawa Włochy"/>
    <tag k="addr:housenumber" v="169"/>
    <tag k="addr:street" v="aleja Krakowska"/>
    <tag k="source" v="http://ump.waw.pl/ retrieved 11:07:14 02/24/09 (UMP-Warszawa/src/WARSZAWA_WLOCHY.ulice.txt)"/>
  </node>
  <node id="414638473" version="1" timestamp="2009-06-02T09:49:26Z" uid="20587" user="balrog-kun" changeset="1402520" lat="52.1909089" lon="20.9691013">
    <tag k="addr:city" v="Warszawa@Warszawa Włochy"/>
    <tag k="addr:housenumber" v="1"/>
    <tag k="addr:street" v="Lechicka"/>
    <tag k="source" v="http://ump.waw.pl/ retrieved 11:07:14 02/24/09 (UMP-Warszawa/src/WARSZAWA_WLOCHY.ulice.txt)"/>
  </node>
  <node id="414638475" version="1" timestamp="2009-06-02T09:49:26Z" uid="20587" user="balrog-kun" changeset="1402520" lat="52.1657185" lon="20.9319972">
    <tag k="addr:city" v="Warszawa@Warszawa Włochy"/>
    <tag k="addr:housenumber" v="21"/>
    <tag k="addr:street" v="aleja Krakowska"/>
    <tag k="source" v="http://ump.waw.pl/ retrieved 11:07:14 02/24/09 (UMP-Warszawa/src/WARSZAWA_WLOCHY.ulice.txt)"/>
  </node>
  <node id="414638479" version="1" timestamp="2009-06-02T09:49:26Z" uid="20587" user="balrog-kun" changeset="1402520" lat="52.1939696" lon="20.9607612">
    <tag k="addr:city" v="Warszawa@Warszawa Włochy"/>
    <tag k="addr:housenumber" v="267"/>
    <tag k="addr:street" v="aleja Krakowska"/>
    <tag k="source" v="http://ump.waw.pl/ retrieved 11:07:14 02/24/09 (UMP-Warszawa/src/WARSZAWA_WLOCHY.ulice.txt)"/>
  </node>
  <node id="414638483" version="1" timestamp="2009-06-02T09:49:26Z" uid="20587" user="balrog-kun" changeset="1402520" lat="52.1926065" lon="20.9609407">
    <tag k="addr:city" v="Warszawa@Warszawa Włochy"/>
    <tag k="addr:housenumber" v="264"/>
    <tag k="addr:street" v="aleja Krakowska"/>
    <tag k="source" v="http://ump.waw.pl/ retrieved 11:07:14 02/24/09 (UMP-Warszawa/src/WARSZAWA_WLOCHY.ulice.txt)"/>
  </node>
  <node id="414638487" version="1" timestamp="2009-06-02T09:49:26Z" uid="20587" user="balrog-kun" changeset="1402520" lat="52.1731132" lon="20.9399388">
    <tag k="addr:city" v="Warszawa@Warszawa Włochy"/>
    <tag k="addr:housenumber" v="79"/>
    <tag k="addr:street" v="aleja Krakowska"/>
    <tag k="source" v="http://ump.waw.pl/ retrieved 11:07:14 02/24/09 (UMP-Warszawa/src/WARSZAWA_WLOCHY.ulice.txt)"/>
  </node>
  <node id="414638492" version="1" timestamp="2009-06-02T09:49:26Z" uid="20587" user="balrog-kun" changeset="1402520" lat="52.1967873" lon="20.9632273">
    <tag k="addr:city" v="Warszawa@Warszawa Włochy"/>
    <tag k="addr:housenumber" v="291"/>
    <tag k="addr:street" v="aleja Krakowska"/>
    <tag k="source" v="http://ump.waw.pl/ retrieved 11:07:14 02/24/09 (UMP-Warszawa/src/WARSZAWA_WLOCHY.ulice.txt)"/>
  </node>
</osm>
