<?xml version='1.0' encoding='UTF-8'?>
<osm version="0.6" generator="libosmium/2.20.0">
  <node id="415219797" version="2" timestamp="2009-10-11T14:35:07Z" uid="74617" user="JohnSmith" changeset="2815167" lat="-23.4353333" lon="144.2779668">
    <tag k="aeroway" v="aerodrome"/>
    <tag k="ele" v="191"/>
    <tag k="iata" v="LRE"/>
    <tag k="icao" v="YLRE"/>
    <tag k="is_in" v="Longreach, Queensland"/>
    <tag k="name" v="Longreach Airport"/>
    <tag k="operator" v="Longreach Shire Council"/>
    <tag k="source" v="wikipedia"/>
    <tag k="type" v="public"/>
    <tag k="wikipedia:en" v="Longreach_Airport"/>
  </node>
  <node id="415219801" version="2" timestamp="2011-01-08T15:06:29Z" uid="4467" user="Rosscoe" changeset="6904751" lat="-22.9614031" lon="145.2523886">
    <tag k="aeroway" v="aerodrome"/>
    <tag k="ele" v="232"/>
    <tag k="iata" v="AXC"/>
    <tag k="icao" v="YAMC"/>
    <tag k="is_in" v="Aramac, Queensland"/>
    <tag k="name" v="Aramac Airport"/>
    <tag k="operator" v="Aramac Shire Council"/>
    <tag k="source" v="wikipedia"/>
    <tag k="type" v="public"/>
    <tag k="wikipedia:en" v="Aramac_Airport"/>
  </node>
  <node id="415219803" version="2" timestamp="2011-01-08T15:06:33Z" uid="4467" user="Rosscoe" changeset="6904751" lat="-22.9602314" lon="145.2542398"/>
  <node id="415219804" version="2" timestamp="2011-01-08T15:06:31Z" uid="4467" user="Rosscoe" changeset="6904751" lat="-22.9546572" lon="145.2432196"/>
</osm>
