<?xml version='1.0' encoding='UTF-8'?>
<osm version="0.6" generator="libosmium/2.20.0">
  <node id="415372115" version="3" timestamp="2010-06-13T17:57:32Z" uid="13367" user="nubok" changeset="4981207" lat="52.2095858" lon="11.5593291"/>
  <node id="415372116" version="3" timestamp="2010-06-13T17:57:32Z" uid="13367" user="nubok" changeset="4981207" lat="52.2093799" lon="11.5595999"/>
  <node id="415372305" version="4" timestamp="2010-06-13T17:57:30Z" uid="13367" user="nubok" changeset="4981207" lat="52.209274" lon="11.5593485">
    <tag k="name" v="Meitzendorf"/>
    <tag k="railway" v="station"/>
    <tag k="uic_ref" v="8012328"/>
  </node>
  <node id="415373638" version="2" timestamp="2009-10-09T19:33:04Z" uid="9581" user="Lobelt" changeset="2797566" lat="50.5811018" lon="11.8056218"/>
  <node id="415373767" version="3" timestamp="2010-07-29T09:24:10Z" uid="74617" user="JohnSmith" changeset="5344848" lat="49.1072457" lon="8.5473513">
    <tag k="amenity" v="emergency_phone"/>
    <tag k="emergency" v="phone"/>
    <tag k="operator" v="Björn-Steiger-Stiftung"/>
  </node>
  <node id="415374427" version="2" timestamp="2009-06-16T14:36:26Z" uid="20587" user="balrog-kun" changeset="1535698" lat="50.2500972" lon="18.5657512">
    <tag k="addr:postcode" v="44-153"/>
    <tag k="is_in" v="gmina Sośnicowice, powiat gliwicki, województwo śląskie, Poland"/>
    <tag k="is_in:county" v="powiat gliwicki"/>
    <tag k="is_in:municipality" v="gmina Sośnicowice"/>
    <tag k="is_in:province" v="województwo śląskie"/>
    <tag k="name" v="Smolnica"/>
    <tag k="place" v="village"/>
    <tag k="population" v="1089"/>
    <tag k="source:population" v="wikipedia"/>
    <tag k="wikipedia" v="pl:Smolnica (województwo śląskie)"/>
  </node>
</osm>
