<?xml version='1.0' encoding='UTF-8'?>
<osm version="0.6" generator="libosmium/2.20.0">
  <node id="418567764" version="2" timestamp="2009-06-16T14:28:28Z" uid="20587" user="balrog-kun" changeset="1535626" lat="50.8541174" lon="16.0122766">
    <tag k="is_in" v="gmina Marciszów, powiat kamiennogórski, województwo dolnośląskie, Poland"/>
    <tag k="is_in:county" v="powiat kamiennogórski"/>
    <tag k="is_in:municipality" v="gmina Marciszów"/>
    <tag k="is_in:province" v="województwo dolnośląskie"/>
    <tag k="name" v="Marciszów"/>
    <tag k="place" v="village"/>
    <tag k="wikipedia" v="Marciszów"/>
  </node>
  <node id="418567764" version="3" timestamp="2010-04-11T04:47:20Z" uid="20587" user="balrog-kun" changeset="4389130" lat="50.8542352" lon="16.0111556">
    <tag k="is_in" v="gmina Marciszów, powiat kamiennogórski, województwo dolnośląskie, Poland"/>
    <tag k="is_in:county" v="powiat kamiennogórski"/>
    <tag k="is_in:municipality" v="gmina Marciszów"/>
    <tag k="is_in:province" v="województwo dolnośląskie"/>
    <tag k="name" v="Marciszów"/>
    <tag k="place" v="village"/>
    <tag k="wikipedia" v="Marciszów"/>
  </node>
  <node id="418567764" version="4" timestamp="2010-04-27T04:11:05Z" uid="30632" user="antblant" changeset="4537882" lat="50.8542352" lon="16.0111556">
    <tag k="is_in" v="gmina Marciszów, powiat kamiennogórski, województwo dolnośląskie, Poland"/>
    <tag k="is_in:county" v="powiat kamiennogórski"/>
    <tag k="is_in:municipality" v="gmina Marciszów"/>
    <tag k="is_in:province" v="województwo dolnośląskie"/>
    <tag k="name" v="Marciszów"/>
    <tag k="place" v="village"/>
    <tag k="teryt:simc" v="0191052"/>
    <tag k="wikipedia" v="Marciszów"/>
  </node>
  <node id="418567765" version="2" timestamp="2009-06-16T14:28:34Z" uid="20587" user="balrog-kun" changeset="1535626" lat="50.8082255" lon="16.0408362">
    <tag k="is_in" v="gmina Kamienna Góra, powiat kamiennogórski, województwo dolnośląskie, Poland"/>
    <tag k="is_in:county" v="powiat kamiennogórski"/>
    <tag k="is_in:municipality" v="gmina Kamienna Góra"/>
    <tag k="is_in:province" v="województwo dolnośląskie"/>
    <tag k="name" v="Dębrznik"/>
    <tag k="place" v="village"/>
    <tag k="wikipedia" v="Dębrznik"/>
  </node>
  <node id="418567765" version="3" timestamp="2010-04-11T04:47:20Z" uid="20587" user="balrog-kun" changeset="4389130" lat="50.8081159" lon="16.0406093">
    <tag k="is_in" v="gmina Kamienna Góra, powiat kamiennogórski, województwo dolnośląskie, Poland"/>
    <tag k="is_in:county" v="powiat kamiennogórski"/>
    <tag k="is_in:municipality" v="gmina Kamienna Góra"/>
    <tag k="is_in:province" v="województwo dolnośląskie"/>
    <tag k="name" v="Dębrznik"/>
    <tag k="place" v="village"/>
    <tag k="wikipedia" v="Dębrznik"/>
  </node>
  <node id="418567765" version="4" timestamp="2010-04-27T04:11:04Z" uid="30632" user="antblant" changeset="4537882" lat="50.8081159" lon="16.0406093">
    <tag k="is_in" v="gmina Kamienna Góra, powiat kamiennogórski, województwo dolnośląskie, Poland"/>
    <tag k="is_in:county" v="powiat kamiennogórski"/>
    <tag k="is_in:municipality" v="gmina Kamienna Góra"/>
    <tag k="is_in:province" v="województwo dolnośląskie"/>
    <tag k="name" v="Dębrznik"/>
    <tag k="place" v="village"/>
    <tag k="teryt:simc" v="0189859"/>
    <tag k="wikipedia" v="Dębrznik"/>
  </node>
  <node id="418567766" version="2" timestamp="2009-06-16T14:28:19Z" uid="20587" user="balrog-kun" changeset="1535626" lat="50.7609602" lon="16.0628858">
    <tag k="addr:postcode" v="58-400"/>
    <tag k="is_in" v="gmina Kamienna Góra, powiat kamiennogórski, województwo dolnośląskie, Poland"/>
    <tag k="is_in:county" v="powiat kamiennogórski"/>
    <tag k="is_in:municipality" v="gmina Kamienna Góra"/>
    <tag k="is_in:province" v="województwo dolnośląskie"/>
    <tag k="name" v="Czadrów"/>
    <tag k="place" v="village"/>
    <tag k="population" v="720"/>
    <tag k="source:population" v="wikipedia"/>
    <tag k="wikipedia" v="Czadrów"/>
  </node>
  <node id="418567766" version="3" timestamp="2010-04-27T04:11:04Z" uid="30632" user="antblant" changeset="4537882" lat="50.7609602" lon="16.0628858">
    <tag k="addr:postcode" v="58-400"/>
    <tag k="is_in" v="gmina Kamienna Góra, powiat kamiennogórski, województwo dolnośląskie, Poland"/>
    <tag k="is_in:county" v="powiat kamiennogórski"/>
    <tag k="is_in:municipality" v="gmina Kamienna Góra"/>
    <tag k="is_in:province" v="województwo dolnośląskie"/>
    <tag k="name" v="Czadrów"/>
    <tag k="place" v="village"/>
    <tag k="population" v="720"/>
    <tag k="source:population" v="wikipedia"/>
    <tag k="teryt:simc" v="0189836"/>
    <tag k="wikipedia" v="Czadrów"/>
  </node>
  <node id="418567767" version="2" timestamp="2009-06-16T14:28:19Z" uid="20587" user="balrog-kun" changeset="1535626" lat="50.7293348" lon="16.0719157">
    <tag k="is_in" v="gmina Kamienna Góra, powiat kamiennogórski, województwo dolnośląskie, Poland"/>
    <tag k="is_in:county" v="powiat kamiennogórski"/>
    <tag k="is_in:municipality" v="gmina Kamienna Góra"/>
    <tag k="is_in:province" v="województwo dolnośląskie"/>
    <tag k="name" v="Krzeszów"/>
    <tag k="place" v="village"/>
    <tag k="population" v="1527"/>
    <tag k="source:population" v="wikipedia"/>
    <tag k="wikipedia" v="Krzeszów, Lower Silesian Voivodeship"/>
  </node>
  <node id="418567767" version="4" timestamp="2010-04-11T04:47:20Z" uid="20587" user="balrog-kun" changeset="4389130" lat="50.7332601" lon="16.0668522">
    <tag k="is_in" v="gmina Kamienna Góra, powiat kamiennogórski, województwo dolnośląskie, Poland"/>
    <tag k="is_in:county" v="powiat kamiennogórski"/>
    <tag k="is_in:municipality" v="gmina Kamienna Góra"/>
    <tag k="is_in:province" v="województwo dolnośląskie"/>
    <tag k="name" v="Krzeszów"/>
    <tag k="place" v="village"/>
    <tag k="population" v="1527"/>
    <tag k="source:population" v="wikipedia"/>
    <tag k="wikipedia" v="Krzeszów, Lower Silesian Voivodeship"/>
  </node>
  <node id="418567768" version="2" timestamp="2009-06-16T14:28:26Z" uid="20587" user="balrog-kun" changeset="1535626" lat="50.7064662" lon="16.0702357">
    <tag k="is_in" v="gmina Kamienna Góra, powiat kamiennogórski, województwo dolnośląskie, Poland"/>
    <tag k="is_in:county" v="powiat kamiennogórski"/>
    <tag k="is_in:municipality" v="gmina Kamienna Góra"/>
    <tag k="is_in:province" v="województwo dolnośląskie"/>
    <tag k="name" v="Jawiszów"/>
    <tag k="place" v="village"/>
    <tag k="wikipedia" v="Jawiszów"/>
  </node>
  <node id="418567768" version="4" timestamp="2010-04-27T04:11:04Z" uid="30632" user="antblant" changeset="4537882" lat="50.7131941" lon="16.071303">
    <tag k="is_in" v="gmina Kamienna Góra, powiat kamiennogórski, województwo dolnośląskie, Poland"/>
    <tag k="is_in:county" v="powiat kamiennogórski"/>
    <tag k="is_in:municipality" v="gmina Kamienna Góra"/>
    <tag k="is_in:province" v="województwo dolnośląskie"/>
    <tag k="name" v="Jawiszów"/>
    <tag k="place" v="village"/>
    <tag k="teryt:simc" v="0189894"/>
    <tag k="wikipedia" v="Jawiszów"/>
  </node>
  <node id="418567769" version="2" timestamp="2009-06-16T14:28:32Z" uid="20587" user="balrog-kun" changeset="1535626" lat="50.6833203" lon="16.0660358">
    <tag k="is_in" v="gmina Kamienna Góra, powiat kamiennogórski, województwo dolnośląskie, Poland"/>
    <tag k="is_in:county" v="powiat kamiennogórski"/>
    <tag k="is_in:municipality" v="gmina Kamienna Góra"/>
    <tag k="is_in:province" v="województwo dolnośląskie"/>
    <tag k="name" v="Olszyny"/>
    <tag k="place" v="village"/>
    <tag k="wikipedia" v="Olszyny, Lower Silesian Voivodeship"/>
  </node>
  <node id="418567769" version="4" timestamp="2010-04-11T04:47:20Z" uid="20587" user="balrog-kun" changeset="4389130" lat="50.6850501" lon="16.0700283">
    <tag k="is_in" v="gmina Kamienna Góra, powiat kamiennogórski, województwo dolnośląskie, Poland"/>
    <tag k="is_in:county" v="powiat kamiennogórski"/>
    <tag k="is_in:municipality" v="gmina Kamienna Góra"/>
    <tag k="is_in:province" v="województwo dolnośląskie"/>
    <tag k="name" v="Olszyny"/>
    <tag k="place" v="village"/>
    <tag k="wikipedia" v="Olszyny, Lower Silesian Voivodeship"/>
  </node>
  <node id="418568980" version="2" timestamp="2009-09-16T08:34:47Z" uid="43967" user="railsnail" changeset="2499729" lat="46.6301312" lon="13.2466176"/>
  <node id="418569489" version="2" timestamp="2009-06-16T14:28:10Z" uid="20587" user="balrog-kun" changeset="1535626" lat="50.7802173" lon="15.9538975">
    <tag k="addr:postcode" v="58-400"/>
    <tag k="is_in" v="gmina Kamienna Góra, powiat kamiennogórski, województwo dolnośląskie, Poland"/>
    <tag k="is_in:county" v="powiat kamiennogórski"/>
    <tag k="is_in:municipality" v="gmina Kamienna Góra"/>
    <tag k="is_in:province" v="województwo dolnośląskie"/>
    <tag k="name" v="Pisarzowice"/>
    <tag k="place" v="village"/>
    <tag k="wikipedia" v="Pisarzowice, Kamienna Góra County"/>
  </node>
  <node id="418569489" version="3" timestamp="2010-04-11T04:47:21Z" uid="20587" user="balrog-kun" changeset="4389130" lat="50.7827021" lon="15.9546333">
    <tag k="addr:postcode" v="58-400"/>
    <tag k="is_in" v="gmina Kamienna Góra, powiat kamiennogórski, województwo dolnośląskie, Poland"/>
    <tag k="is_in:county" v="powiat kamiennogórski"/>
    <tag k="is_in:municipality" v="gmina Kamienna Góra"/>
    <tag k="is_in:province" v="województwo dolnośląskie"/>
    <tag k="name" v="Pisarzowice"/>
    <tag k="place" v="village"/>
    <tag k="wikipedia" v="Pisarzowice, Kamienna Góra County"/>
  </node>
  <node id="418569490" version="2" timestamp="2009-06-16T14:28:17Z" uid="20587" user="balrog-kun" changeset="1535626" lat="50.7784911" lon="15.9068583">
    <tag k="is_in" v="gmina Kamienna Góra, powiat kamiennogórski, województwo dolnośląskie, Poland"/>
    <tag k="is_in:county" v="powiat kamiennogórski"/>
    <tag k="is_in:municipality" v="gmina Kamienna Góra"/>
    <tag k="is_in:province" v="województwo dolnośląskie"/>
    <tag k="name" v="Leszczyniec"/>
    <tag k="place" v="village"/>
    <tag k="wikipedia" v="Leszczyniec"/>
  </node>
  <node id="418569490" version="3" timestamp="2010-04-11T04:47:21Z" uid="20587" user="balrog-kun" changeset="4389130" lat="50.7790368" lon="15.9077768">
    <tag k="is_in" v="gmina Kamienna Góra, powiat kamiennogórski, województwo dolnośląskie, Poland"/>
    <tag k="is_in:county" v="powiat kamiennogórski"/>
    <tag k="is_in:municipality" v="gmina Kamienna Góra"/>
    <tag k="is_in:province" v="województwo dolnośląskie"/>
    <tag k="name" v="Leszczyniec"/>
    <tag k="place" v="village"/>
    <tag k="wikipedia" v="Leszczyniec"/>
  </node>
  <node id="418569490" version="4" timestamp="2010-04-27T04:06:01Z" uid="30632" user="antblant" changeset="4537871" lat="50.7790368" lon="15.9077768">
    <tag k="is_in" v="gmina Kamienna Góra, powiat kamiennogórski, województwo dolnośląskie, Poland"/>
    <tag k="is_in:county" v="powiat kamiennogórski"/>
    <tag k="is_in:municipality" v="gmina Kamienna Góra"/>
    <tag k="is_in:province" v="województwo dolnośląskie"/>
    <tag k="name" v="Leszczyniec"/>
    <tag k="place" v="village"/>
    <tag k="teryt:simc" v="0189931"/>
    <tag k="wikipedia" v="Leszczyniec"/>
  </node>
  <node id="418569491" version="2" timestamp="2009-06-16T14:28:21Z" uid="20587" user="balrog-kun" changeset="1535626" lat="50.7694608" lon="15.8942585">
    <tag k="is_in" v="gmina Kamienna Góra, powiat kamiennogórski, województwo dolnośląskie, Poland"/>
    <tag k="is_in:county" v="powiat kamiennogórski"/>
    <tag k="is_in:municipality" v="gmina Kamienna Góra"/>
    <tag k="is_in:province" v="województwo dolnośląskie"/>
    <tag k="name" v="Ogorzelec"/>
    <tag k="place" v="village"/>
    <tag k="wikipedia" v="Ogorzelec, Kamienna Góra County"/>
  </node>
  <node id="418569491" version="3" timestamp="2010-04-11T04:47:21Z" uid="20587" user="balrog-kun" changeset="4389130" lat="50.7676816" lon="15.892906">
    <tag k="is_in" v="gmina Kamienna Góra, powiat kamiennogórski, województwo dolnośląskie, Poland"/>
    <tag k="is_in:county" v="powiat kamiennogórski"/>
    <tag k="is_in:municipality" v="gmina Kamienna Góra"/>
    <tag k="is_in:province" v="województwo dolnośląskie"/>
    <tag k="name" v="Ogorzelec"/>
    <tag k="place" v="village"/>
    <tag k="wikipedia" v="Ogorzelec, Kamienna Góra County"/>
  </node>
  <node id="418569492" version="2" timestamp="2009-06-16T14:28:30Z" uid="20587" user="balrog-kun" changeset="1535626" lat="50.792166" lon="15.8415493">
    <tag k="addr:postcode" v="58-530"/>
    <tag k="is_in" v="gmina [[Gmina Kowary, powiat jeleniogórski, województwo dolnośląskie, Poland"/>
    <tag k="is_in:county" v="powiat jeleniogórski"/>
    <tag k="is_in:municipality" v="gmina [[Gmina Kowary"/>
    <tag k="is_in:province" v="województwo dolnośląskie"/>
    <tag k="name" v="Kowary"/>
    <tag k="place" v="city"/>
    <tag k="population" v="11635"/>
    <tag k="source:population" v="wikipedia"/>
    <tag k="teryt:terc" v="0206021"/>
    <tag k="wikipedia" v="Kowary"/>
  </node>
  <node id="418569492" version="3" timestamp="2009-06-16T14:49:28Z" uid="20587" user="balrog-kun" changeset="1535805" lat="50.792166" lon="15.8415493">
    <tag k="addr:postcode" v="58-530"/>
    <tag k="is_in" v="gmina Kowary, powiat jeleniogórski, województwo dolnośląskie, Poland"/>
    <tag k="is_in:county" v="powiat jeleniogórski"/>
    <tag k="is_in:municipality" v="gmina Kowary"/>
    <tag k="is_in:province" v="województwo dolnośląskie"/>
    <tag k="name" v="Kowary"/>
    <tag k="name:de" v="Schmiedeberg"/>
    <tag k="place" v="town"/>
    <tag k="population" v="11579"/>
    <tag k="source:population" v="wikipedia"/>
    <tag k="teryt:terc" v="0206021"/>
    <tag k="wikipedia" v="Kowary"/>
  </node>
  <node id="418569492" version="4" timestamp="2010-04-11T04:47:21Z" uid="20587" user="balrog-kun" changeset="4389130" lat="50.7941712" lon="15.8429355">
    <tag k="addr:postcode" v="58-530"/>
    <tag k="is_in" v="gmina Kowary, powiat jeleniogórski, województwo dolnośląskie, Poland"/>
    <tag k="is_in:county" v="powiat jeleniogórski"/>
    <tag k="is_in:municipality" v="gmina Kowary"/>
    <tag k="is_in:province" v="województwo dolnośląskie"/>
    <tag k="name" v="Kowary"/>
    <tag k="name:de" v="Schmiedeberg"/>
    <tag k="place" v="town"/>
    <tag k="population" v="11579"/>
    <tag k="source:population" v="wikipedia"/>
    <tag k="teryt:terc" v="0206021"/>
    <tag k="wikipedia" v="Kowary"/>
  </node>
  <node id="418569493" version="3" timestamp="2009-06-16T14:28:08Z" uid="20587" user="balrog-kun" changeset="1535626" lat="50.8191115" lon="15.8062337">
    <tag k="is_in" v="gmina Mysłakowice, powiat jeleniogórski, województwo dolnośląskie, Poland"/>
    <tag k="is_in:county" v="powiat jeleniogórski"/>
    <tag k="is_in:municipality" v="gmina Mysłakowice"/>
    <tag k="is_in:province" v="województwo dolnośląskie"/>
    <tag k="name" v="Kostrzyca"/>
    <tag k="place" v="village"/>
    <tag k="wikipedia" v="Kostrzyca, Lower Silesian Voivodeship"/>
  </node>
  <node id="418569493" version="4" timestamp="2010-04-11T04:47:21Z" uid="20587" user="balrog-kun" changeset="4389130" lat="50.8181961" lon="15.8020626">
    <tag k="is_in" v="gmina Mysłakowice, powiat jeleniogórski, województwo dolnośląskie, Poland"/>
    <tag k="is_in:county" v="powiat jeleniogórski"/>
    <tag k="is_in:municipality" v="gmina Mysłakowice"/>
    <tag k="is_in:province" v="województwo dolnośląskie"/>
    <tag k="name" v="Kostrzyca"/>
    <tag k="place" v="village"/>
    <tag k="wikipedia" v="Kostrzyca, Lower Silesian Voivodeship"/>
  </node>
  <node id="418569493" version="5" timestamp="2010-04-27T04:06:00Z" uid="30632" user="antblant" changeset="4537871" lat="50.8181961" lon="15.8020626">
    <tag k="is_in" v="gmina Mysłakowice, powiat jeleniogórski, województwo dolnośląskie, Poland"/>
    <tag k="is_in:county" v="powiat jeleniogórski"/>
    <tag k="is_in:municipality" v="gmina Mysłakowice"/>
    <tag k="is_in:province" v="województwo dolnośląskie"/>
    <tag k="name" v="Kostrzyca"/>
    <tag k="place" v="village"/>
    <tag k="teryt:simc" v="0191419"/>
    <tag k="wikipedia" v="Kostrzyca, Lower Silesian Voivodeship"/>
  </node>
</osm>
