<?xml version='1.0' encoding='UTF-8'?>
<osm version="0.6" generator="libosmium/2.20.0">
  <node id="420446302" version="2" timestamp="2010-10-02T10:42:49Z" uid="9581" user="Lobelt" changeset="5934959" lat="49.5368481" lon="8.9105445">
    <tag k="name" v="Rotehnberg Finkenbach"/>
    <tag k="traffic_sign" v="city_limit"/>
  </node>
  <node id="420446302" version="3" timestamp="2010-10-03T19:01:53Z" uid="9581" user="Lobelt" changeset="5947483" lat="49.5368481" lon="8.9105445">
    <tag k="name" v="Rotehnberg Finkenbach"/>
    <tag k="traffic_sign" v="city_limit"/>
  </node>
  <node id="420446446" version="1" timestamp="2009-06-14T22:22:55Z" uid="36809" user="pfoten_weg_!_" changeset="1520424" lat="47.438531" lon="11.697312">
    <tag k="addr:city" v="Pertisau"/>
    <tag k="addr:country" v="AT"/>
    <tag k="addr:housenumber" v="35A"/>
    <tag k="addr:postcode" v="6113"/>
    <tag k="addr:street" v="Eben/Pertisau"/>
    <tag k="created_by" v="RambaZamba"/>
    <tag k="name" v="35A"/>
    <tag k="source" v="survey"/>
  </node>
  <node id="420446446" version="2" timestamp="2009-06-17T15:37:44Z" uid="36809" user="pfoten_weg_!_" changeset="1546464" lat="47.438531" lon="11.697312">
    <tag k="addr:city" v="Pertisau"/>
    <tag k="addr:country" v="AT"/>
    <tag k="addr:housenumber" v="35A"/>
    <tag k="addr:postcode" v="6113"/>
    <tag k="addr:street" v="Eben/Pertisau"/>
    <tag k="created_by" v="RambaZamba"/>
    <tag k="name" v="35A"/>
    <tag k="source" v="survey"/>
  </node>
  <node id="420446447" version="1" timestamp="2009-06-14T22:22:56Z" uid="36809" user="pfoten_weg_!_" changeset="1520424" lat="47.438658" lon="11.697189">
    <tag k="addr:city" v="Pertisau"/>
    <tag k="addr:country" v="AT"/>
    <tag k="addr:housenumber" v="36"/>
    <tag k="addr:postcode" v="6113"/>
    <tag k="addr:street" v="Eben/Pertisau"/>
    <tag k="created_by" v="RambaZamba"/>
    <tag k="name" v="36"/>
    <tag k="source" v="survey"/>
  </node>
  <node id="420446447" version="2" timestamp="2009-06-17T15:37:44Z" uid="36809" user="pfoten_weg_!_" changeset="1546464" lat="47.438658" lon="11.697189">
    <tag k="addr:city" v="Pertisau"/>
    <tag k="addr:country" v="AT"/>
    <tag k="addr:housenumber" v="36"/>
    <tag k="addr:postcode" v="6113"/>
    <tag k="addr:street" v="Eben/Pertisau"/>
    <tag k="created_by" v="RambaZamba"/>
    <tag k="name" v="36"/>
    <tag k="source" v="survey"/>
  </node>
  <node id="420446448" version="1" timestamp="2009-06-14T22:22:56Z" uid="36809" user="pfoten_weg_!_" changeset="1520424" lat="47.439129" lon="11.696776">
    <tag k="addr:city" v="Pertisau"/>
    <tag k="addr:country" v="AT"/>
    <tag k="addr:housenumber" v="36D"/>
    <tag k="addr:postcode" v="6113"/>
    <tag k="addr:street" v="Eben/Pertisau"/>
    <tag k="created_by" v="RambaZamba"/>
    <tag k="name" v="36D"/>
    <tag k="source" v="survey"/>
  </node>
  <node id="420446448" version="2" timestamp="2009-06-16T16:58:38Z" uid="36809" user="pfoten_weg_!_" changeset="1536851" lat="47.4391212" lon="11.6967614">
    <tag k="addr:city" v="Pertisau"/>
    <tag k="addr:country" v="AT"/>
    <tag k="addr:housenumber" v="36D"/>
    <tag k="addr:postcode" v="6113"/>
    <tag k="addr:street" v="Eben/Pertisau"/>
    <tag k="created_by" v="RambaZamba"/>
    <tag k="name" v="36D"/>
    <tag k="source" v="survey"/>
  </node>
  <node id="420446448" version="3" timestamp="2009-06-17T15:37:46Z" uid="36809" user="pfoten_weg_!_" changeset="1546464" lat="47.4391212" lon="11.6967614">
    <tag k="addr:city" v="Pertisau"/>
    <tag k="addr:country" v="AT"/>
    <tag k="addr:housenumber" v="36D"/>
    <tag k="addr:postcode" v="6113"/>
    <tag k="addr:street" v="Eben/Pertisau"/>
    <tag k="created_by" v="RambaZamba"/>
    <tag k="name" v="36D"/>
    <tag k="source" v="survey"/>
  </node>
  <node id="420446449" version="1" timestamp="2009-06-14T22:22:56Z" uid="36809" user="pfoten_weg_!_" changeset="1520424" lat="47.439467" lon="11.696491">
    <tag k="addr:city" v="Pertisau"/>
    <tag k="addr:country" v="AT"/>
    <tag k="addr:housenumber" v="36E"/>
    <tag k="addr:postcode" v="6113"/>
    <tag k="addr:street" v="Eben/Pertisau"/>
    <tag k="created_by" v="RambaZamba"/>
    <tag k="name" v="36E"/>
    <tag k="source" v="survey"/>
  </node>
  <node id="420446449" version="2" timestamp="2009-06-17T15:37:46Z" uid="36809" user="pfoten_weg_!_" changeset="1546464" lat="47.439467" lon="11.696491">
    <tag k="addr:city" v="Pertisau"/>
    <tag k="addr:country" v="AT"/>
    <tag k="addr:housenumber" v="36E"/>
    <tag k="addr:postcode" v="6113"/>
    <tag k="addr:street" v="Eben/Pertisau"/>
    <tag k="created_by" v="RambaZamba"/>
    <tag k="name" v="36E"/>
    <tag k="source" v="survey"/>
  </node>
  <node id="420446450" version="1" timestamp="2009-06-14T22:22:56Z" uid="36809" user="pfoten_weg_!_" changeset="1520424" lat="47.440109" lon="11.695762">
    <tag k="addr:city" v="Pertisau"/>
    <tag k="addr:country" v="AT"/>
    <tag k="addr:housenumber" v="37"/>
    <tag k="addr:postcode" v="6113"/>
    <tag k="addr:street" v="Eben/Pertisau"/>
    <tag k="created_by" v="RambaZamba"/>
    <tag k="name" v="37"/>
    <tag k="source" v="survey"/>
  </node>
  <node id="420446450" version="2" timestamp="2009-06-17T15:37:46Z" uid="36809" user="pfoten_weg_!_" changeset="1546464" lat="47.440109" lon="11.695762">
    <tag k="addr:city" v="Pertisau"/>
    <tag k="addr:country" v="AT"/>
    <tag k="addr:housenumber" v="37"/>
    <tag k="addr:postcode" v="6113"/>
    <tag k="addr:street" v="Eben/Pertisau"/>
    <tag k="created_by" v="RambaZamba"/>
    <tag k="name" v="37"/>
    <tag k="source" v="survey"/>
  </node>
  <node id="420446451" version="1" timestamp="2009-06-14T22:22:56Z" uid="36809" user="pfoten_weg_!_" changeset="1520424" lat="47.440457" lon="11.695789">
    <tag k="addr:city" v="Pertisau"/>
    <tag k="addr:country" v="AT"/>
    <tag k="addr:housenumber" v="37A"/>
    <tag k="addr:postcode" v="6113"/>
    <tag k="addr:street" v="Eben/Pertisau"/>
    <tag k="created_by" v="RambaZamba"/>
    <tag k="name" v="37A"/>
    <tag k="source" v="survey"/>
  </node>
  <node id="420446451" version="2" timestamp="2009-06-17T15:37:46Z" uid="36809" user="pfoten_weg_!_" changeset="1546464" lat="47.440457" lon="11.695789">
    <tag k="addr:city" v="Pertisau"/>
    <tag k="addr:country" v="AT"/>
    <tag k="addr:housenumber" v="37A"/>
    <tag k="addr:postcode" v="6113"/>
    <tag k="addr:street" v="Eben/Pertisau"/>
    <tag k="created_by" v="RambaZamba"/>
    <tag k="name" v="37A"/>
    <tag k="source" v="survey"/>
  </node>
  <node id="420446452" version="1" timestamp="2009-06-14T22:22:56Z" uid="36809" user="pfoten_weg_!_" changeset="1520424" lat="47.44106" lon="11.698449">
    <tag k="addr:city" v="Pertisau"/>
    <tag k="addr:country" v="AT"/>
    <tag k="addr:housenumber" v="52A"/>
    <tag k="addr:postcode" v="6113"/>
    <tag k="addr:street" v="Eben/Pertisau"/>
    <tag k="created_by" v="RambaZamba"/>
    <tag k="name" v="52A"/>
    <tag k="source" v="survey"/>
  </node>
  <node id="420446452" version="2" timestamp="2009-06-17T15:37:45Z" uid="36809" user="pfoten_weg_!_" changeset="1546464" lat="47.44106" lon="11.698449">
    <tag k="addr:city" v="Pertisau"/>
    <tag k="addr:country" v="AT"/>
    <tag k="addr:housenumber" v="52A"/>
    <tag k="addr:postcode" v="6113"/>
    <tag k="addr:street" v="Eben/Pertisau"/>
    <tag k="created_by" v="RambaZamba"/>
    <tag k="name" v="52A"/>
    <tag k="source" v="survey"/>
  </node>
  <node id="420446453" version="1" timestamp="2009-06-14T22:22:56Z" uid="36809" user="pfoten_weg_!_" changeset="1520424" lat="47.441103" lon="11.699047">
    <tag k="addr:city" v="Pertisau"/>
    <tag k="addr:country" v="AT"/>
    <tag k="addr:housenumber" v="53C"/>
    <tag k="addr:postcode" v="6113"/>
    <tag k="addr:street" v="Eben/Pertisau"/>
    <tag k="created_by" v="RambaZamba"/>
    <tag k="name" v="53C"/>
    <tag k="source" v="survey"/>
  </node>
  <node id="420446453" version="2" timestamp="2009-06-17T12:13:50Z" uid="36809" user="pfoten_weg_!_" changeset="1544827" lat="47.441103" lon="11.699047">
    <tag k="addr:city" v="Pertisau"/>
    <tag k="addr:country" v="AT"/>
    <tag k="addr:housename" v="Gebäude"/>
    <tag k="addr:housenumber" v="53C"/>
    <tag k="addr:postcode" v="6113"/>
    <tag k="addr:street" v="Eben/Pertisau"/>
    <tag k="created_by" v="RambaZamba"/>
    <tag k="name" v="53C"/>
    <tag k="source" v="survey"/>
  </node>
  <node id="420446453" version="3" timestamp="2009-06-17T15:37:45Z" uid="36809" user="pfoten_weg_!_" changeset="1546464" lat="47.441103" lon="11.699047">
    <tag k="addr:city" v="Pertisau"/>
    <tag k="addr:country" v="AT"/>
    <tag k="addr:housename" v="Gebäude"/>
    <tag k="addr:housenumber" v="53C"/>
    <tag k="addr:postcode" v="6113"/>
    <tag k="addr:street" v="Eben/Pertisau"/>
    <tag k="created_by" v="RambaZamba"/>
    <tag k="name" v="53C"/>
    <tag k="source" v="survey"/>
  </node>
  <node id="420446454" version="1" timestamp="2009-06-14T22:22:56Z" uid="36809" user="pfoten_weg_!_" changeset="1520424" lat="47.441281" lon="11.700033">
    <tag k="addr:city" v="Pertisau"/>
    <tag k="addr:country" v="AT"/>
    <tag k="addr:housenumber" v="53G"/>
    <tag k="addr:postcode" v="6113"/>
    <tag k="addr:street" v="Eben/Pertisau"/>
    <tag k="created_by" v="RambaZamba"/>
    <tag k="name" v="53G"/>
    <tag k="source" v="survey"/>
  </node>
  <node id="420446454" version="2" timestamp="2009-06-17T15:37:46Z" uid="36809" user="pfoten_weg_!_" changeset="1546464" lat="47.441281" lon="11.700033">
    <tag k="addr:city" v="Pertisau"/>
    <tag k="addr:country" v="AT"/>
    <tag k="addr:housenumber" v="53G"/>
    <tag k="addr:postcode" v="6113"/>
    <tag k="addr:street" v="Eben/Pertisau"/>
    <tag k="created_by" v="RambaZamba"/>
    <tag k="name" v="53G"/>
    <tag k="source" v="survey"/>
  </node>
  <node id="420446455" version="1" timestamp="2009-06-14T22:22:56Z" uid="36809" user="pfoten_weg_!_" changeset="1520424" lat="47.441432" lon="11.700607">
    <tag k="addr:city" v="Pertisau"/>
    <tag k="addr:country" v="AT"/>
    <tag k="addr:housenumber" v="54"/>
    <tag k="addr:postcode" v="6113"/>
    <tag k="addr:street" v="Eben/Pertisau"/>
    <tag k="created_by" v="RambaZamba"/>
    <tag k="name" v="54"/>
    <tag k="source" v="survey"/>
  </node>
  <node id="420446455" version="2" timestamp="2009-06-14T22:23:45Z" uid="36809" user="pfoten_weg_!_" changeset="1520427" lat="47.4414071" lon="11.7006111">
    <tag k="addr:city" v="Pertisau"/>
    <tag k="addr:country" v="AT"/>
    <tag k="addr:housenumber" v="54"/>
    <tag k="addr:postcode" v="6113"/>
    <tag k="addr:street" v="Eben/Pertisau"/>
    <tag k="created_by" v="RambaZamba"/>
    <tag k="name" v="54"/>
    <tag k="source" v="survey"/>
  </node>
  <node id="420446455" version="3" timestamp="2009-06-17T15:37:46Z" uid="36809" user="pfoten_weg_!_" changeset="1546464" lat="47.4414071" lon="11.7006111">
    <tag k="addr:city" v="Pertisau"/>
    <tag k="addr:country" v="AT"/>
    <tag k="addr:housenumber" v="54"/>
    <tag k="addr:postcode" v="6113"/>
    <tag k="addr:street" v="Eben/Pertisau"/>
    <tag k="created_by" v="RambaZamba"/>
    <tag k="name" v="54"/>
    <tag k="source" v="survey"/>
  </node>
  <node id="420446456" version="1" timestamp="2009-06-14T22:22:56Z" uid="36809" user="pfoten_weg_!_" changeset="1520424" lat="47.44143" lon="11.701335">
    <tag k="addr:city" v="Pertisau"/>
    <tag k="addr:country" v="AT"/>
    <tag k="addr:housenumber" v="54A Karwendel Hotel"/>
    <tag k="addr:postcode" v="6113"/>
    <tag k="addr:street" v="Eben/Pertisau"/>
    <tag k="created_by" v="RambaZamba"/>
    <tag k="name" v="54A Karwendel Hotel"/>
    <tag k="source" v="survey"/>
  </node>
  <node id="420446456" version="2" timestamp="2009-06-17T15:37:45Z" uid="36809" user="pfoten_weg_!_" changeset="1546464" lat="47.44143" lon="11.701335">
    <tag k="addr:city" v="Pertisau"/>
    <tag k="addr:country" v="AT"/>
    <tag k="addr:housenumber" v="54A Karwendel Hotel"/>
    <tag k="addr:postcode" v="6113"/>
    <tag k="addr:street" v="Eben/Pertisau"/>
    <tag k="created_by" v="RambaZamba"/>
    <tag k="name" v="54A Karwendel Hotel"/>
    <tag k="source" v="survey"/>
  </node>
  <node id="420446457" version="1" timestamp="2009-06-14T22:22:57Z" uid="36809" user="pfoten_weg_!_" changeset="1520424" lat="47.441706" lon="11.699093">
    <tag k="addr:city" v="Pertisau"/>
    <tag k="addr:country" v="AT"/>
    <tag k="addr:housenumber" v="52B Sport Zentrum"/>
    <tag k="addr:postcode" v="6113"/>
    <tag k="addr:street" v="Eben/Pertisau"/>
    <tag k="created_by" v="RambaZamba"/>
    <tag k="name" v="52B Sport Zentrum"/>
    <tag k="source" v="survey"/>
  </node>
  <node id="420446457" version="2" timestamp="2009-06-15T16:18:06Z" uid="36809" user="pfoten_weg_!_" changeset="1526444" lat="47.441706" lon="11.699093">
    <tag k="addr:city" v="Pertisau"/>
    <tag k="addr:country" v="AT"/>
    <tag k="addr:housenumber" v="52B"/>
    <tag k="addr:postcode" v="6113"/>
    <tag k="addr:street" v="Eben/Pertisau"/>
    <tag k="created_by" v="RambaZamba"/>
    <tag k="name" v="52B"/>
    <tag k="source" v="survey"/>
  </node>
  <node id="420446457" version="3" timestamp="2009-06-17T15:37:45Z" uid="36809" user="pfoten_weg_!_" changeset="1546464" lat="47.441706" lon="11.699093">
    <tag k="addr:city" v="Pertisau"/>
    <tag k="addr:country" v="AT"/>
    <tag k="addr:housenumber" v="52B"/>
    <tag k="addr:postcode" v="6113"/>
    <tag k="addr:street" v="Eben/Pertisau"/>
    <tag k="created_by" v="RambaZamba"/>
    <tag k="name" v="52B"/>
    <tag k="source" v="survey"/>
  </node>
  <node id="420446458" version="1" timestamp="2009-06-14T22:22:57Z" uid="36809" user="pfoten_weg_!_" changeset="1520424" lat="47.441332" lon="11.699114">
    <tag k="addr:city" v="Pertisau"/>
    <tag k="addr:country" v="AT"/>
    <tag k="addr:housenumber" v="53E"/>
    <tag k="addr:postcode" v="6113"/>
    <tag k="addr:street" v="Eben/Pertisau"/>
    <tag k="created_by" v="RambaZamba"/>
    <tag k="name" v="53E"/>
    <tag k="source" v="survey"/>
  </node>
  <node id="420446458" version="2" timestamp="2009-06-17T15:37:45Z" uid="36809" user="pfoten_weg_!_" changeset="1546464" lat="47.441332" lon="11.699114">
    <tag k="addr:city" v="Pertisau"/>
    <tag k="addr:country" v="AT"/>
    <tag k="addr:housenumber" v="53E"/>
    <tag k="addr:postcode" v="6113"/>
    <tag k="addr:street" v="Eben/Pertisau"/>
    <tag k="created_by" v="RambaZamba"/>
    <tag k="name" v="53E"/>
    <tag k="source" v="survey"/>
  </node>
  <node id="420446459" version="1" timestamp="2009-06-14T22:22:57Z" uid="36809" user="pfoten_weg_!_" changeset="1520424" lat="47.44221" lon="11.695381">
    <tag k="addr:city" v="Pertisau"/>
    <tag k="addr:country" v="AT"/>
    <tag k="addr:housenumber" v="50D"/>
    <tag k="addr:postcode" v="6113"/>
    <tag k="addr:street" v="Eben/Pertisau"/>
    <tag k="created_by" v="RambaZamba"/>
    <tag k="name" v="50D"/>
    <tag k="source" v="survey"/>
  </node>
  <node id="420446459" version="2" timestamp="2009-06-17T15:37:45Z" uid="36809" user="pfoten_weg_!_" changeset="1546464" lat="47.44221" lon="11.695381">
    <tag k="addr:city" v="Pertisau"/>
    <tag k="addr:country" v="AT"/>
    <tag k="addr:housenumber" v="50D"/>
    <tag k="addr:postcode" v="6113"/>
    <tag k="addr:street" v="Eben/Pertisau"/>
    <tag k="created_by" v="RambaZamba"/>
    <tag k="name" v="50D"/>
    <tag k="source" v="survey"/>
  </node>
  <node id="420446460" version="1" timestamp="2009-06-14T22:22:57Z" uid="36809" user="pfoten_weg_!_" changeset="1520424" lat="47.442235" lon="11.695107">
    <tag k="addr:city" v="Pertisau"/>
    <tag k="addr:country" v="AT"/>
    <tag k="addr:housenumber" v="46D"/>
    <tag k="addr:postcode" v="6113"/>
    <tag k="addr:street" v="Eben/Pertisau"/>
    <tag k="created_by" v="RambaZamba"/>
    <tag k="name" v="46D"/>
    <tag k="source" v="survey"/>
  </node>
  <node id="420446460" version="2" timestamp="2009-06-17T15:37:45Z" uid="36809" user="pfoten_weg_!_" changeset="1546464" lat="47.442235" lon="11.695107">
    <tag k="addr:city" v="Pertisau"/>
    <tag k="addr:country" v="AT"/>
    <tag k="addr:housenumber" v="46D"/>
    <tag k="addr:postcode" v="6113"/>
    <tag k="addr:street" v="Eben/Pertisau"/>
    <tag k="created_by" v="RambaZamba"/>
    <tag k="name" v="46D"/>
    <tag k="source" v="survey"/>
  </node>
  <node id="420446461" version="1" timestamp="2009-06-14T22:22:57Z" uid="36809" user="pfoten_weg_!_" changeset="1520424" lat="47.441444" lon="11.694801">
    <tag k="addr:city" v="Pertisau"/>
    <tag k="addr:country" v="AT"/>
    <tag k="addr:housenumber" v="46B"/>
    <tag k="addr:postcode" v="6113"/>
    <tag k="addr:street" v="Eben/Pertisau"/>
    <tag k="created_by" v="RambaZamba"/>
    <tag k="name" v="46B"/>
    <tag k="source" v="survey"/>
  </node>
  <node id="420446461" version="2" timestamp="2009-06-17T15:37:45Z" uid="36809" user="pfoten_weg_!_" changeset="1546464" lat="47.441444" lon="11.694801">
    <tag k="addr:city" v="Pertisau"/>
    <tag k="addr:country" v="AT"/>
    <tag k="addr:housenumber" v="46B"/>
    <tag k="addr:postcode" v="6113"/>
    <tag k="addr:street" v="Eben/Pertisau"/>
    <tag k="created_by" v="RambaZamba"/>
    <tag k="name" v="46B"/>
    <tag k="source" v="survey"/>
  </node>
  <node id="420446462" version="1" timestamp="2009-06-14T22:22:57Z" uid="36809" user="pfoten_weg_!_" changeset="1520424" lat="47.440788" lon="11.694378">
    <tag k="addr:city" v="Pertisau"/>
    <tag k="addr:country" v="AT"/>
    <tag k="addr:housenumber" v="45"/>
    <tag k="addr:postcode" v="6113"/>
    <tag k="addr:street" v="Eben/Pertisau"/>
    <tag k="created_by" v="RambaZamba"/>
    <tag k="name" v="45"/>
    <tag k="source" v="survey"/>
  </node>
  <node id="420446462" version="2" timestamp="2009-06-17T15:37:45Z" uid="36809" user="pfoten_weg_!_" changeset="1546464" lat="47.440788" lon="11.694378">
    <tag k="addr:city" v="Pertisau"/>
    <tag k="addr:country" v="AT"/>
    <tag k="addr:housenumber" v="45"/>
    <tag k="addr:postcode" v="6113"/>
    <tag k="addr:street" v="Eben/Pertisau"/>
    <tag k="created_by" v="RambaZamba"/>
    <tag k="name" v="45"/>
    <tag k="source" v="survey"/>
  </node>
  <node id="420446463" version="1" timestamp="2009-06-14T22:22:57Z" uid="36809" user="pfoten_weg_!_" changeset="1520424" lat="47.440984" lon="11.694893">
    <tag k="addr:city" v="Pertisau"/>
    <tag k="addr:country" v="AT"/>
    <tag k="addr:housenumber" v="46A"/>
    <tag k="addr:postcode" v="6113"/>
    <tag k="addr:street" v="Eben/Pertisau"/>
    <tag k="created_by" v="RambaZamba"/>
    <tag k="name" v="46A"/>
    <tag k="source" v="survey"/>
  </node>
  <node id="420446463" version="2" timestamp="2009-06-17T15:37:45Z" uid="36809" user="pfoten_weg_!_" changeset="1546464" lat="47.440984" lon="11.694893">
    <tag k="addr:city" v="Pertisau"/>
    <tag k="addr:country" v="AT"/>
    <tag k="addr:housenumber" v="46A"/>
    <tag k="addr:postcode" v="6113"/>
    <tag k="addr:street" v="Eben/Pertisau"/>
    <tag k="created_by" v="RambaZamba"/>
    <tag k="name" v="46A"/>
    <tag k="source" v="survey"/>
  </node>
  <node id="420446464" version="1" timestamp="2009-06-14T22:22:57Z" uid="36809" user="pfoten_weg_!_" changeset="1520424" lat="47.441031" lon="11.692758">
    <tag k="addr:city" v="Pertisau"/>
    <tag k="addr:country" v="AT"/>
    <tag k="addr:housenumber" v="42"/>
    <tag k="addr:postcode" v="6113"/>
    <tag k="addr:street" v="Eben/Pertisau"/>
    <tag k="created_by" v="RambaZamba"/>
    <tag k="name" v="42"/>
    <tag k="source" v="survey"/>
  </node>
  <node id="420446464" version="2" timestamp="2009-06-17T15:37:43Z" uid="36809" user="pfoten_weg_!_" changeset="1546464" lat="47.441031" lon="11.692758">
    <tag k="addr:city" v="Pertisau"/>
    <tag k="addr:country" v="AT"/>
    <tag k="addr:housenumber" v="42"/>
    <tag k="addr:postcode" v="6113"/>
    <tag k="addr:street" v="Eben/Pertisau"/>
    <tag k="created_by" v="RambaZamba"/>
    <tag k="name" v="42"/>
    <tag k="source" v="survey"/>
  </node>
  <node id="420446465" version="1" timestamp="2009-06-14T22:22:57Z" uid="36809" user="pfoten_weg_!_" changeset="1520424" lat="47.441045" lon="11.693004">
    <tag k="addr:city" v="Pertisau"/>
    <tag k="addr:country" v="AT"/>
    <tag k="addr:housenumber" v="43"/>
    <tag k="addr:postcode" v="6113"/>
    <tag k="addr:street" v="Eben/Pertisau"/>
    <tag k="created_by" v="RambaZamba"/>
    <tag k="name" v="43"/>
    <tag k="source" v="survey"/>
  </node>
  <node id="420446465" version="2" timestamp="2009-06-17T15:37:43Z" uid="36809" user="pfoten_weg_!_" changeset="1546464" lat="47.441045" lon="11.693004">
    <tag k="addr:city" v="Pertisau"/>
    <tag k="addr:country" v="AT"/>
    <tag k="addr:housenumber" v="43"/>
    <tag k="addr:postcode" v="6113"/>
    <tag k="addr:street" v="Eben/Pertisau"/>
    <tag k="created_by" v="RambaZamba"/>
    <tag k="name" v="43"/>
    <tag k="source" v="survey"/>
  </node>
  <node id="420446466" version="1" timestamp="2009-06-14T22:22:57Z" uid="36809" user="pfoten_weg_!_" changeset="1520424" lat="47.44094" lon="11.69132">
    <tag k="addr:city" v="Pertisau"/>
    <tag k="addr:country" v="AT"/>
    <tag k="addr:housenumber" v="40A"/>
    <tag k="addr:postcode" v="6113"/>
    <tag k="addr:street" v="Eben/Pertisau"/>
    <tag k="created_by" v="RambaZamba"/>
    <tag k="name" v="40A"/>
    <tag k="source" v="survey"/>
  </node>
  <node id="420446466" version="2" timestamp="2009-06-17T15:37:43Z" uid="36809" user="pfoten_weg_!_" changeset="1546464" lat="47.44094" lon="11.69132">
    <tag k="addr:city" v="Pertisau"/>
    <tag k="addr:country" v="AT"/>
    <tag k="addr:housenumber" v="40A"/>
    <tag k="addr:postcode" v="6113"/>
    <tag k="addr:street" v="Eben/Pertisau"/>
    <tag k="created_by" v="RambaZamba"/>
    <tag k="name" v="40A"/>
    <tag k="source" v="survey"/>
  </node>
  <node id="420446467" version="1" timestamp="2009-06-14T22:22:57Z" uid="36809" user="pfoten_weg_!_" changeset="1520424" lat="47.441038" lon="11.692489">
    <tag k="addr:city" v="Pertisau"/>
    <tag k="addr:country" v="AT"/>
    <tag k="addr:housenumber" v="40"/>
    <tag k="addr:postcode" v="6113"/>
    <tag k="addr:street" v="Eben/Pertisau"/>
    <tag k="created_by" v="RambaZamba"/>
    <tag k="name" v="40"/>
    <tag k="source" v="survey"/>
  </node>
  <node id="420446467" version="2" timestamp="2009-06-17T15:37:43Z" uid="36809" user="pfoten_weg_!_" changeset="1546464" lat="47.441038" lon="11.692489">
    <tag k="addr:city" v="Pertisau"/>
    <tag k="addr:country" v="AT"/>
    <tag k="addr:housenumber" v="40"/>
    <tag k="addr:postcode" v="6113"/>
    <tag k="addr:street" v="Eben/Pertisau"/>
    <tag k="created_by" v="RambaZamba"/>
    <tag k="name" v="40"/>
    <tag k="source" v="survey"/>
  </node>
  <node id="420446468" version="1" timestamp="2009-06-14T22:22:57Z" uid="36809" user="pfoten_weg_!_" changeset="1520424" lat="47.440965" lon="11.690419">
    <tag k="addr:city" v="Pertisau"/>
    <tag k="addr:country" v="AT"/>
    <tag k="addr:housenumber" v="40B"/>
    <tag k="addr:postcode" v="6113"/>
    <tag k="addr:street" v="Eben/Pertisau"/>
    <tag k="created_by" v="RambaZamba"/>
    <tag k="name" v="40B"/>
    <tag k="source" v="survey"/>
  </node>
  <node id="420446468" version="2" timestamp="2009-06-17T15:37:44Z" uid="36809" user="pfoten_weg_!_" changeset="1546464" lat="47.440965" lon="11.690419">
    <tag k="addr:city" v="Pertisau"/>
    <tag k="addr:country" v="AT"/>
    <tag k="addr:housenumber" v="40B"/>
    <tag k="addr:postcode" v="6113"/>
    <tag k="addr:street" v="Eben/Pertisau"/>
    <tag k="created_by" v="RambaZamba"/>
    <tag k="name" v="40B"/>
    <tag k="source" v="survey"/>
  </node>
  <node id="420446470" version="1" timestamp="2009-06-14T22:22:58Z" uid="36809" user="pfoten_weg_!_" changeset="1520424" lat="47.440933" lon="11.69081">
    <tag k="addr:city" v="Pertisau"/>
    <tag k="addr:country" v="AT"/>
    <tag k="addr:housenumber" v="40U"/>
    <tag k="addr:postcode" v="6113"/>
    <tag k="addr:street" v="Eben/Pertisau"/>
    <tag k="created_by" v="RambaZamba"/>
    <tag k="name" v="40U"/>
    <tag k="source" v="survey"/>
  </node>
  <node id="420446470" version="2" timestamp="2009-06-17T15:37:44Z" uid="36809" user="pfoten_weg_!_" changeset="1546464" lat="47.440933" lon="11.69081">
    <tag k="addr:city" v="Pertisau"/>
    <tag k="addr:country" v="AT"/>
    <tag k="addr:housenumber" v="40U"/>
    <tag k="addr:postcode" v="6113"/>
    <tag k="addr:street" v="Eben/Pertisau"/>
    <tag k="created_by" v="RambaZamba"/>
    <tag k="name" v="40U"/>
    <tag k="source" v="survey"/>
  </node>
  <node id="420446471" version="1" timestamp="2009-06-14T22:22:58Z" uid="36809" user="pfoten_weg_!_" changeset="1520424" lat="47.441187" lon="11.68955">
    <tag k="addr:city" v="Pertisau"/>
    <tag k="addr:country" v="AT"/>
    <tag k="addr:housenumber" v="40R Foto"/>
    <tag k="addr:postcode" v="6113"/>
    <tag k="addr:street" v="Eben/Pertisau"/>
    <tag k="created_by" v="RambaZamba"/>
    <tag k="name" v="40R Foto"/>
    <tag k="source" v="survey"/>
  </node>
  <node id="420446471" version="2" timestamp="2009-06-15T16:18:06Z" uid="36809" user="pfoten_weg_!_" changeset="1526444" lat="47.441187" lon="11.68955">
    <tag k="addr:city" v="Pertisau"/>
    <tag k="addr:country" v="AT"/>
    <tag k="addr:housenumber" v="40R"/>
    <tag k="addr:postcode" v="6113"/>
    <tag k="addr:street" v="Eben/Pertisau"/>
    <tag k="created_by" v="RambaZamba"/>
    <tag k="name" v="40R"/>
    <tag k="source" v="survey"/>
  </node>
  <node id="420446471" version="3" timestamp="2009-06-17T15:37:44Z" uid="36809" user="pfoten_weg_!_" changeset="1546464" lat="47.441187" lon="11.68955">
    <tag k="addr:city" v="Pertisau"/>
    <tag k="addr:country" v="AT"/>
    <tag k="addr:housenumber" v="40R"/>
    <tag k="addr:postcode" v="6113"/>
    <tag k="addr:street" v="Eben/Pertisau"/>
    <tag k="created_by" v="RambaZamba"/>
    <tag k="name" v="40R"/>
    <tag k="source" v="survey"/>
  </node>
  <node id="420446472" version="1" timestamp="2009-06-14T22:22:58Z" uid="36809" user="pfoten_weg_!_" changeset="1520424" lat="47.441085" lon="11.689872">
    <tag k="addr:city" v="Pertisau"/>
    <tag k="addr:country" v="AT"/>
    <tag k="addr:housenumber" v="40G"/>
    <tag k="addr:postcode" v="6113"/>
    <tag k="addr:street" v="Eben/Pertisau"/>
    <tag k="created_by" v="RambaZamba"/>
    <tag k="name" v="40G"/>
    <tag k="source" v="survey"/>
  </node>
  <node id="420446472" version="2" timestamp="2009-06-17T15:37:44Z" uid="36809" user="pfoten_weg_!_" changeset="1546464" lat="47.441085" lon="11.689872">
    <tag k="addr:city" v="Pertisau"/>
    <tag k="addr:country" v="AT"/>
    <tag k="addr:housenumber" v="40G"/>
    <tag k="addr:postcode" v="6113"/>
    <tag k="addr:street" v="Eben/Pertisau"/>
    <tag k="created_by" v="RambaZamba"/>
    <tag k="name" v="40G"/>
    <tag k="source" v="survey"/>
  </node>
  <node id="420446473" version="1" timestamp="2009-06-14T22:22:58Z" uid="36809" user="pfoten_weg_!_" changeset="1520424" lat="47.439757" lon="11.69588">
    <tag k="addr:city" v="Pertisau"/>
    <tag k="addr:country" v="AT"/>
    <tag k="addr:housenumber" v="34B"/>
    <tag k="addr:postcode" v="6113"/>
    <tag k="addr:street" v="Eben/Pertisau"/>
    <tag k="created_by" v="RambaZamba"/>
    <tag k="name" v="34B"/>
    <tag k="source" v="survey"/>
  </node>
  <node id="420446473" version="2" timestamp="2009-06-17T15:37:44Z" uid="36809" user="pfoten_weg_!_" changeset="1546464" lat="47.439757" lon="11.69588">
    <tag k="addr:city" v="Pertisau"/>
    <tag k="addr:country" v="AT"/>
    <tag k="addr:housenumber" v="34B"/>
    <tag k="addr:postcode" v="6113"/>
    <tag k="addr:street" v="Eben/Pertisau"/>
    <tag k="created_by" v="RambaZamba"/>
    <tag k="name" v="34B"/>
    <tag k="source" v="survey"/>
  </node>
  <node id="420446474" version="1" timestamp="2009-06-14T22:22:58Z" uid="36809" user="pfoten_weg_!_" changeset="1520424" lat="47.441263" lon="11.689228">
    <tag k="addr:city" v="Pertisau"/>
    <tag k="addr:country" v="AT"/>
    <tag k="addr:housenumber" v="40V Foto"/>
    <tag k="addr:postcode" v="6113"/>
    <tag k="addr:street" v="Eben/Pertisau"/>
    <tag k="created_by" v="RambaZamba"/>
    <tag k="name" v="40V Foto"/>
    <tag k="source" v="survey"/>
  </node>
  <node id="420446474" version="2" timestamp="2009-06-15T16:18:06Z" uid="36809" user="pfoten_weg_!_" changeset="1526444" lat="47.441263" lon="11.689228">
    <tag k="addr:city" v="Pertisau"/>
    <tag k="addr:country" v="AT"/>
    <tag k="addr:housenumber" v="40V"/>
    <tag k="addr:postcode" v="6113"/>
    <tag k="addr:street" v="Eben/Pertisau"/>
    <tag k="created_by" v="RambaZamba"/>
    <tag k="name" v="40V"/>
    <tag k="source" v="survey"/>
  </node>
  <node id="420446474" version="3" timestamp="2009-06-17T15:37:44Z" uid="36809" user="pfoten_weg_!_" changeset="1546464" lat="47.441263" lon="11.689228">
    <tag k="addr:city" v="Pertisau"/>
    <tag k="addr:country" v="AT"/>
    <tag k="addr:housenumber" v="40V"/>
    <tag k="addr:postcode" v="6113"/>
    <tag k="addr:street" v="Eben/Pertisau"/>
    <tag k="created_by" v="RambaZamba"/>
    <tag k="name" v="40V"/>
    <tag k="source" v="survey"/>
  </node>
</osm>
