<?xml version='1.0' encoding='UTF-8'?>
<osm version="0.6" generator="libosmium/2.20.0">
  <node id="420576078" version="1" timestamp="2009-06-15T12:32:35Z" uid="36809" user="pfoten_weg_!_" changeset="1524578" lat="47.4426043" lon="11.703666">
    <tag k="created_by" v="RambaZamba"/>
    <tag k="name" v="Fürstenhaus"/>
    <tag k="ref" v="Travel Charme Pertisau GmbH"/>
    <tag k="source" v="survey"/>
    <tag k="tourism" v="hotel"/>
  </node>
  <node id="420576078" version="2" timestamp="2009-06-15T18:19:09Z" uid="36809" user="pfoten_weg_!_" changeset="1527682" lat="47.4425811" lon="11.7036046">
    <tag k="created_by" v="RambaZamba"/>
    <tag k="name" v="Fürstenhaus"/>
    <tag k="ref" v="Travel Charme Pertisau GmbH"/>
    <tag k="source" v="survey"/>
    <tag k="tourism" v="hotel"/>
  </node>
  <node id="420576078" version="5" timestamp="2009-08-28T22:36:53Z" uid="36809" user="pfoten_weg_!_" changeset="2295972" lat="47.4425816" lon="11.7035969">
    <tag k="discovered_by" v="RambaZamba"/>
    <tag k="name" v="Fürstenhaus"/>
    <tag k="ref" v="Travel Charme Pertisau GmbH"/>
    <tag k="source" v="survey"/>
    <tag k="stars" v="4"/>
    <tag k="tourism" v="hotel"/>
  </node>
  <node id="420576078" version="7" timestamp="2009-08-31T12:03:31Z" uid="64924" user="leck_mich_alle_am_arsch" changeset="2325486" lat="47.4425816" lon="11.7035969">
    <tag k="name" v="Fürstenhaus"/>
    <tag k="ref" v="Travel Charme Pertisau GmbH"/>
    <tag k="source" v="survey"/>
    <tag k="stars" v="4"/>
    <tag k="tourism" v="hotel"/>
  </node>
  <node id="420576078" version="8" timestamp="2009-10-15T18:05:59Z" uid="36809" user="pfoten_weg_!_" changeset="2857512" lat="47.4425816" lon="11.7035969">
    <tag k="name" v="Fürstenhaus"/>
    <tag k="ref" v="Travel Charme Pertisau GmbH"/>
    <tag k="stars" v="4"/>
    <tag k="tourism" v="hotel"/>
  </node>
  <node id="420576079" version="1" timestamp="2009-06-15T12:32:35Z" uid="36809" user="pfoten_weg_!_" changeset="1524578" lat="47.4415807" lon="11.7044597"/>
  <node id="420576080" version="1" timestamp="2009-06-15T12:32:35Z" uid="36809" user="pfoten_weg_!_" changeset="1524578" lat="47.4417666" lon="11.7048697"/>
  <node id="420576081" version="1" timestamp="2009-06-15T12:32:35Z" uid="36809" user="pfoten_weg_!_" changeset="1524578" lat="47.4416469" lon="11.7044824"/>
  <node id="420576082" version="1" timestamp="2009-06-15T12:32:35Z" uid="36809" user="pfoten_weg_!_" changeset="1524578" lat="47.4421062" lon="11.7051734"/>
  <node id="420576083" version="1" timestamp="2009-06-15T12:32:35Z" uid="36809" user="pfoten_weg_!_" changeset="1524578" lat="47.4412539" lon="11.7053384"/>
  <node id="420576084" version="1" timestamp="2009-06-15T12:32:35Z" uid="36809" user="pfoten_weg_!_" changeset="1524578" lat="47.4425595" lon="11.7034877">
    <tag k="addr:city" v="Pertisau am Achensee"/>
    <tag k="addr:country" v="AT"/>
    <tag k="addr:housenumber" v="63"/>
    <tag k="addr:postcode" v="6213"/>
    <tag k="addr:street" v="Eben / Pertisau"/>
    <tag k="name" v="63"/>
  </node>
  <node id="420577742" version="1" timestamp="2009-06-15T12:35:26Z" uid="64977" user="CLoeser" changeset="1524600" lat="53.9343382" lon="9.5560375">
    <tag k="name" v="Hof Basten"/>
  </node>
  <node id="420577742" version="2" timestamp="2009-07-08T05:33:55Z" uid="64977" user="CLoeser" changeset="1768645" lat="53.934351" lon="9.5560165"/>
</osm>
