<?xml version='1.0' encoding='UTF-8'?>
<osm version="0.6" generator="libosmium/2.20.0">
  <node id="42174164" version="1" timestamp="2007-09-05T17:15:26Z" uid="12188" user="Babis" changeset="341528" lat="38.3938176" lon="23.7951336">
    <tag k="created_by" v="Potlatch alpha"/>
    <tag k="is_in" v="Evia Greece Europe"/>
    <tag k="name" v="Eretria"/>
    <tag k="place" v="town"/>
  </node>
  <node id="42174164" version="4" timestamp="2010-02-12T10:26:16Z" uid="12188" user="Babis" changeset="3854972" lat="38.3922514" lon="23.7952928">
    <tag k="is_in" v="Eretria municipality,Evia prefecture,Sterea Ellada,Greece,EU"/>
    <tag k="name" v="Ερέτρια"/>
    <tag k="name:de" v="Eretria"/>
    <tag k="name:el" v="Ερέτρια"/>
    <tag k="name:en" v="Eretria"/>
    <tag k="name:fr" v="Eretria"/>
    <tag k="place" v="village"/>
    <tag k="population" v="3156"/>
  </node>
  <node id="42174164" version="5" timestamp="2010-02-12T17:39:15Z" uid="12188" user="Babis" changeset="3858580" lat="38.3924863" lon="23.7952676">
    <tag k="is_in" v="Eretria municipality,Evia prefecture,Sterea Ellada,Greece,EU"/>
    <tag k="name" v="Ερέτρια"/>
    <tag k="name:de" v="Eretria"/>
    <tag k="name:el" v="Ερέτρια"/>
    <tag k="name:en" v="Eretria"/>
    <tag k="name:fr" v="Eretria"/>
    <tag k="place" v="village"/>
    <tag k="population" v="3156"/>
  </node>
  <node id="42174164" version="6" timestamp="2010-02-12T17:40:25Z" uid="12188" user="Babis" changeset="3858580" lat="38.3922656" lon="23.795273">
    <tag k="is_in" v="Eretria municipality,Evia prefecture,Sterea Ellada,Greece,EU"/>
    <tag k="name" v="Ερέτρια"/>
    <tag k="name:de" v="Eretria"/>
    <tag k="name:el" v="Ερέτρια"/>
    <tag k="name:en" v="Eretria"/>
    <tag k="name:fr" v="Eretria"/>
    <tag k="place" v="village"/>
    <tag k="population" v="3156"/>
  </node>
  <node id="42174164" version="8" timestamp="2010-03-20T09:07:37Z" uid="12188" user="Babis" changeset="4177365" lat="38.3922709" lon="23.7952809">
    <tag k="is_in" v="Eretria municipality,Evia prefecture,Sterea Ellada,Greece,EU"/>
    <tag k="name" v="Ερέτρια"/>
    <tag k="name:de" v="Eretria"/>
    <tag k="name:el" v="Ερέτρια"/>
    <tag k="name:en" v="Eretria"/>
    <tag k="name:fr" v="Eretria"/>
    <tag k="place" v="town"/>
    <tag k="population" v="3156"/>
  </node>
  <node id="42176155" version="1" timestamp="2007-09-05T17:17:03Z" uid="8328" user="benpre" changeset="338795" lat="49.0093213" lon="2.5862979">
    <tag k="created_by" v="JOSM"/>
  </node>
  <node id="42176160" version="1" timestamp="2007-09-05T17:17:03Z" uid="8328" user="benpre" changeset="338795" lat="49.0094713" lon="2.5890201">
    <tag k="created_by" v="JOSM"/>
  </node>
  <node id="42176169" version="1" timestamp="2007-09-05T17:17:03Z" uid="8328" user="benpre" changeset="338795" lat="49.008828" lon="2.5773456">
    <tag k="created_by" v="JOSM"/>
  </node>
  <node id="42176169" version="2" timestamp="2007-11-17T18:17:59Z" uid="8328" user="benpre" changeset="545740" lat="49.0088276" lon="2.5773389">
    <tag k="created_by" v="JOSM"/>
  </node>
  <node id="42176173" version="1" timestamp="2007-09-05T17:17:04Z" uid="8328" user="benpre" changeset="338795" lat="49.0087385" lon="2.5757229">
    <tag k="created_by" v="JOSM"/>
  </node>
  <node id="42176173" version="2" timestamp="2007-11-17T18:17:59Z" uid="8328" user="benpre" changeset="545740" lat="49.0087375" lon="2.5757042">
    <tag k="created_by" v="JOSM"/>
  </node>
  <node id="42176180" version="1" timestamp="2007-09-05T17:17:04Z" uid="8328" user="benpre" changeset="338795" lat="49.0085189" lon="2.5717375">
    <tag k="created_by" v="JOSM"/>
  </node>
  <node id="42176186" version="1" timestamp="2007-09-05T17:17:05Z" uid="8328" user="benpre" changeset="338795" lat="49.0084346" lon="2.5692318">
    <tag k="created_by" v="JOSM"/>
  </node>
  <node id="42176186" version="2" timestamp="2007-11-17T18:17:59Z" uid="8328" user="benpre" changeset="545740" lat="49.0084007" lon="2.5691676">
    <tag k="created_by" v="JOSM"/>
  </node>
  <node id="42176190" version="1" timestamp="2007-09-05T17:17:05Z" uid="8328" user="benpre" changeset="338795" lat="49.0081312" lon="2.5644775">
    <tag k="created_by" v="JOSM"/>
  </node>
  <node id="42176190" version="2" timestamp="2007-11-17T18:17:59Z" uid="8328" user="benpre" changeset="545740" lat="49.0081294" lon="2.5644391">
    <tag k="created_by" v="JOSM"/>
  </node>
  <node id="42176200" version="1" timestamp="2007-09-05T17:17:05Z" uid="8328" user="benpre" changeset="338795" lat="49.0075844" lon="2.5588896">
    <tag k="created_by" v="JOSM"/>
  </node>
  <node id="42176214" version="1" timestamp="2007-09-06T11:41:20Z" uid="8328" user="benpre" changeset="354428" lat="49.0071737" lon="2.5535991">
    <tag k="created_by" v="JOSM"/>
  </node>
  <node id="42176219" version="1" timestamp="2007-09-05T17:17:06Z" uid="8328" user="benpre" changeset="338795" lat="49.0073391" lon="2.5563823">
    <tag k="created_by" v="JOSM"/>
  </node>
  <node id="42176221" version="1" timestamp="2007-09-05T17:17:06Z" uid="8328" user="benpre" changeset="338795" lat="49.0067404" lon="2.5523733">
    <tag k="created_by" v="JOSM"/>
  </node>
  <node id="42176229" version="1" timestamp="2007-09-05T17:17:06Z" uid="8328" user="benpre" changeset="338795" lat="49.0098084" lon="2.590986">
    <tag k="created_by" v="JOSM"/>
  </node>
  <node id="42176235" version="1" timestamp="2007-09-05T17:17:06Z" uid="8328" user="benpre" changeset="338795" lat="49.0099582" lon="2.5939535">
    <tag k="created_by" v="JOSM"/>
  </node>
  <node id="42176240" version="1" timestamp="2007-09-05T17:17:07Z" uid="8328" user="benpre" changeset="338795" lat="49.0100276" lon="2.5953292">
    <tag k="created_by" v="JOSM"/>
  </node>
  <node id="42176247" version="1" timestamp="2007-09-05T18:01:55Z" uid="8328" user="benpre" changeset="338795" lat="49.0088905" lon="2.595471">
    <tag k="created_by" v="JOSM"/>
  </node>
  <node id="42176254" version="1" timestamp="2007-09-05T18:01:56Z" uid="8328" user="benpre" changeset="338795" lat="49.0057392" lon="2.595864">
    <tag k="created_by" v="JOSM"/>
  </node>
  <node id="42176259" version="1" timestamp="2007-09-05T18:01:56Z" uid="8328" user="benpre" changeset="338795" lat="49.0050471" lon="2.5959503">
    <tag k="created_by" v="JOSM"/>
  </node>
  <node id="42176266" version="1" timestamp="2007-09-05T18:01:57Z" uid="8328" user="benpre" changeset="338795" lat="49.008578" lon="2.5891257">
    <tag k="created_by" v="JOSM"/>
  </node>
  <node id="42176272" version="1" timestamp="2007-09-17T16:42:59Z" uid="8328" user="benpre" changeset="452128" lat="49.008756" lon="2.5927423">
    <tag k="created_by" v="JOSM"/>
  </node>
  <node id="42176278" version="1" timestamp="2007-09-05T17:17:08Z" uid="8328" user="benpre" changeset="338795" lat="49.0088221" lon="2.5940847">
    <tag k="created_by" v="JOSM"/>
  </node>
  <node id="42176284" version="1" timestamp="2007-09-05T17:17:08Z" uid="8328" user="benpre" changeset="338795" lat="49.008443" lon="2.5863859">
    <tag k="created_by" v="JOSM"/>
  </node>
  <node id="42176289" version="1" timestamp="2007-09-05T18:01:57Z" uid="8328" user="benpre" changeset="338795" lat="49.005191" lon="2.589526">
    <tag k="created_by" v="JOSM"/>
  </node>
  <node id="42176297" version="1" timestamp="2007-09-05T18:01:57Z" uid="8328" user="benpre" changeset="338795" lat="49.004727" lon="2.5895808">
    <tag k="created_by" v="JOSM"/>
  </node>
  <node id="42178495" version="1" timestamp="2007-09-05T17:19:18Z" uid="12188" user="Babis" changeset="341528" lat="38.392378" lon="23.8843804">
    <tag k="created_by" v="Potlatch alpha"/>
    <tag k="is_in" v="Evia Greece Europe"/>
    <tag k="name" v="Amarinthos"/>
    <tag k="place" v="town"/>
  </node>
  <node id="42179460" version="1" timestamp="2007-09-05T17:21:42Z" uid="12188" user="Babis" changeset="341528" lat="38.4057706" lon="23.7573681"/>
  <node id="42179462" version="1" timestamp="2007-09-05T17:21:42Z" uid="12188" user="Babis" changeset="341528" lat="38.4059993" lon="23.7576599"/>
  <node id="42179464" version="1" timestamp="2007-09-05T17:21:42Z" uid="12188" user="Babis" changeset="341528" lat="38.4061809" lon="23.7579518"/>
  <node id="42179744" version="1" timestamp="2007-09-05T17:22:09Z" uid="12188" user="Babis" changeset="341528" lat="38.4065104" lon="23.7548447"/>
  <node id="42179748" version="1" timestamp="2007-09-05T17:22:09Z" uid="12188" user="Babis" changeset="341528" lat="38.4052998" lon="23.7568016"/>
  <node id="42179755" version="1" timestamp="2007-09-05T17:20:39Z" uid="12188" user="Babis" changeset="341528" lat="38.4052998" lon="23.7568016"/>
</osm>
