<?xml version='1.0' encoding='UTF-8'?>
<osm version="0.6" generator="libosmium/2.20.0">
  <node id="421822587" version="1" timestamp="2009-06-16T16:52:04Z" uid="36809" user="pfoten_weg_!_" changeset="1536787" lat="47.4388718" lon="11.6962255">
    <tag k="barrier" v="bollard"/>
    <tag k="bicycle" v="yes"/>
    <tag k="foot" v="yes"/>
  </node>
  <node id="421827450" version="1" timestamp="2009-06-16T16:56:43Z" uid="58091" user="Andreas M" changeset="1536834" lat="48.169812" lon="16.4109394"/>
  <node id="421829156" version="1" timestamp="2009-06-16T16:58:37Z" uid="36809" user="pfoten_weg_!_" changeset="1536851" lat="47.438991" lon="11.69577"/>
  <node id="421829158" version="1" timestamp="2009-06-16T16:58:37Z" uid="36809" user="pfoten_weg_!_" changeset="1536851" lat="47.4390933" lon="11.6959852"/>
  <node id="421829159" version="1" timestamp="2009-06-16T16:58:37Z" uid="36809" user="pfoten_weg_!_" changeset="1536851" lat="47.4388936" lon="11.6961928"/>
  <node id="421829161" version="1" timestamp="2009-06-16T16:58:37Z" uid="36809" user="pfoten_weg_!_" changeset="1536851" lat="47.4387913" lon="11.6959776"/>
  <node id="421829162" version="1" timestamp="2009-06-16T16:58:37Z" uid="36809" user="pfoten_weg_!_" changeset="1536851" lat="47.4388451" lon="11.6960829">
    <tag k="addr:city" v="Pertisau"/>
    <tag k="addr:country" v="AT"/>
    <tag k="addr:housename" v="Halle"/>
    <tag k="addr:housenumber" v="35C"/>
    <tag k="addr:postcode" v="6113"/>
    <tag k="addr:street" v="Eben/Pertisau"/>
    <tag k="created_by" v="RambaZamba"/>
    <tag k="source" v="survey"/>
  </node>
  <node id="421829162" version="2" timestamp="2009-06-17T15:37:43Z" uid="36809" user="pfoten_weg_!_" changeset="1546464" lat="47.4388451" lon="11.6960829">
    <tag k="addr:city" v="Pertisau"/>
    <tag k="addr:country" v="AT"/>
    <tag k="addr:housename" v="Halle"/>
    <tag k="addr:housenumber" v="35C"/>
    <tag k="addr:postcode" v="6113"/>
    <tag k="addr:street" v="Eben/Pertisau"/>
    <tag k="created_by" v="RambaZamba"/>
    <tag k="source" v="survey"/>
  </node>
</osm>
