<?xml version='1.0' encoding='UTF-8'?>
<osm version="0.6" generator="libosmium/2.20.0">
  <node id="42203027" version="1" timestamp="2007-09-05T17:46:04Z" uid="12188" user="Babis" changeset="341528" lat="38.4618366" lon="23.5921698">
    <tag k="created_by" v="Potlatch alpha"/>
    <tag k="is_in" v="Evia Greece Europe"/>
    <tag k="name" v="Halkida"/>
    <tag k="place" v="city"/>
  </node>
  <node id="42207017" version="1" timestamp="2007-09-16T09:23:40Z" uid="12188" user="Babis" changeset="443858" lat="37.9395044" lon="23.7316575">
    <tag k="created_by" v="Potlatch alpha"/>
    <tag k="is_in" v="Athens Greece Europe"/>
    <tag k="name" v="Agios Dimitrios"/>
    <tag k="place" v="town"/>
  </node>
  <node id="42207017" version="4" timestamp="2008-03-22T06:25:21Z" uid="12188" user="Babis" changeset="372310" lat="37.9395054" lon="23.7316474">
    <tag k="created_by" v="Potlatch 0.7b"/>
    <tag k="is_in" v="Greece"/>
    <tag k="place" v="suburb"/>
  </node>
  <node id="42207017" version="5" timestamp="2008-03-22T06:26:54Z" uid="12188" user="Babis" changeset="372310" lat="37.9395054" lon="23.7316474">
    <tag k="created_by" v="Potlatch 0.7b"/>
    <tag k="is_in" v="Greece"/>
    <tag k="name" v="Agios Dimitrios"/>
    <tag k="name:de" v="Agios Dimitrios"/>
    <tag k="name:en" v="Agios Dimitrios"/>
    <tag k="place" v="suburb"/>
  </node>
  <node id="42207017" version="6" timestamp="2008-03-22T06:28:19Z" uid="12188" user="Babis" changeset="372310" lat="37.9395054" lon="23.7316388">
    <tag k="created_by" v="Potlatch 0.7b"/>
    <tag k="is_in" v="Greece"/>
    <tag k="name" v="Agios Dimitrios"/>
    <tag k="name:de" v="Agios Dimitrios"/>
    <tag k="name:en" v="Agios Dimitrios"/>
    <tag k="place" v="suburb"/>
  </node>
  <node id="42207017" version="7" timestamp="2009-01-09T09:21:13Z" uid="12188" user="Babis" changeset="762274" lat="37.9395074" lon="23.7316353">
    <tag k="created_by" v="Potlatch 0.10f"/>
    <tag k="is_in" v="Athens,Greece"/>
    <tag k="name" v="Agios Dimitrios"/>
    <tag k="name:de" v="Agios Dimitrios"/>
    <tag k="name:en" v="Agios Dimitrios"/>
    <tag k="place" v="town"/>
  </node>
  <node id="42207017" version="8" timestamp="2009-01-09T09:25:55Z" uid="12188" user="Babis" changeset="762274" lat="37.9395102" lon="23.7316346">
    <tag k="created_by" v="Potlatch 0.10f"/>
    <tag k="is_in" v="Athens,Greece"/>
    <tag k="name" v="Agios Dimitrios"/>
    <tag k="name:de" v="Agios Dimitrios"/>
    <tag k="name:en" v="Agios Dimitrios"/>
    <tag k="place" v="town"/>
  </node>
  <node id="42207017" version="10" timestamp="2009-03-18T18:15:11Z" uid="12188" user="Babis" changeset="827959" lat="37.9393238" lon="23.7337056">
    <tag k="created_by" v="Potlatch 0.10f"/>
    <tag k="is_in" v="Agios Dimitrios municipality,Athina prefecture,Attiki,Greece,EU"/>
    <tag k="name" v="Άγιος Δημήτριος"/>
    <tag k="name:de" v="Agios Dimitrios"/>
    <tag k="name:el" v="Άγιος Δημήτριος"/>
    <tag k="name:en" v="Agios Dimitrios"/>
    <tag k="name:fr" v="Agios Dimitrios"/>
    <tag k="place" v="suburb"/>
    <tag k="population" v="65173"/>
  </node>
  <node id="42208418" version="1" timestamp="2007-09-16T09:23:29Z" uid="12188" user="Babis" changeset="443858" lat="37.9319768" lon="23.7561021">
    <tag k="created_by" v="Potlatch alpha"/>
    <tag k="is_in" v="Athens Greece Europe"/>
    <tag k="name" v="Ilioupoli"/>
    <tag k="place" v="town"/>
  </node>
</osm>
