<?xml version='1.0' encoding='UTF-8'?>
<osm version="0.6" generator="libosmium/2.20.0">
  <node id="422233253" version="2" timestamp="2009-07-05T14:02:40Z" uid="38528" user="acrosscanadatrails" changeset="1739621" lat="48.8766581" lon="-124.1929147">
    <tag k="attribution" v="Natural Resources Canada"/>
    <tag k="canvec:CODE" v="1580010"/>
    <tag k="canvec:CONCISCODE" v="120 RIV River"/>
    <tag k="canvec:GEONAMEDB" v="CGNDB"/>
    <tag k="canvec:LANGUAGE" v="French unilingual"/>
    <tag k="canvec:NAMEID" v="0ca1babf849c20c3ca6579c07f1f6421"/>
    <tag k="canvec:PROVIDER" v="Federal"/>
    <tag k="canvec:Planimetric Accuracy (CMAS)" v="0"/>
    <tag k="canvec:Theme" v="TO Toponymy"/>
    <tag k="canvec:UUID" v="8fcc31a488f54fcba8217aa7ab554dcd"/>
    <tag k="canvec:VALDATE" v="1989"/>
    <tag k="canvec:datasetName" v="092C16"/>
    <tag k="canvec:entity" v="Named feature - ( Entité nommée )"/>
    <tag k="canvec:entity_definition" v="A feature delineating the extent; in whole or in part; of a toponymic phenomenon for which the geometry does not fully correspond to that of another feature."/>
    <tag k="canvec:generic_code" v="1580009"/>
    <tag k="canvec:source" v="CanVec_Feature_Catalogue_Edition_1_0_2.pdf"/>
    <tag k="created_by" v="canvec2osm"/>
    <tag k="name" v="Utility Creek"/>
    <tag k="name:fr" v="Utility Creek"/>
    <tag k="natural" v="river"/>
    <tag k="source" v="CanVec_Import_2009"/>
  </node>
  <node id="422233253" version="4" timestamp="2009-11-11T17:33:32Z" uid="36809" user="pfoten_weg_!_" changeset="3091919" lat="48.8766581" lon="-124.1929147">
    <tag k="attribution" v="Natural Resources Canada"/>
    <tag k="canvec:CODE" v="1580010"/>
    <tag k="name" v="Utility Creek"/>
    <tag k="name:fr" v="Utility Creek"/>
    <tag k="natural" v="river"/>
    <tag k="source" v="CanVec_Import_2009"/>
  </node>
  <node id="422233254" version="2" timestamp="2009-07-05T13:56:03Z" uid="38528" user="acrosscanadatrails" changeset="1739581" lat="48.9437178" lon="-124.4960086">
    <tag k="attribution" v="Natural Resources Canada"/>
    <tag k="canvec:CODE" v="1580010"/>
    <tag k="canvec:CONCISCODE" v="120 RIV River"/>
    <tag k="canvec:GEONAMEDB" v="CGNDB"/>
    <tag k="canvec:LANGUAGE" v="French unilingual"/>
    <tag k="canvec:NAMEID" v="0ca021db849c20c37d1d52eaf7dabdb7"/>
    <tag k="canvec:PROVIDER" v="Federal"/>
    <tag k="canvec:Planimetric Accuracy (CMAS)" v="0"/>
    <tag k="canvec:Theme" v="TO Toponymy"/>
    <tag k="canvec:UUID" v="98056654798e41ff9a0360459814e084"/>
    <tag k="canvec:VALDATE" v="1989"/>
    <tag k="canvec:datasetName" v="092C16"/>
    <tag k="canvec:entity" v="Named feature - ( Entité nommée )"/>
    <tag k="canvec:entity_definition" v="A feature delineating the extent; in whole or in part; of a toponymic phenomenon for which the geometry does not fully correspond to that of another feature."/>
    <tag k="canvec:generic_code" v="1580009"/>
    <tag k="canvec:source" v="CanVec_Feature_Catalogue_Edition_1_0_2.pdf"/>
    <tag k="created_by" v="canvec2osm"/>
    <tag k="name" v="Redbed Creek"/>
    <tag k="name:fr" v="Redbed Creek"/>
    <tag k="natural" v="river"/>
    <tag k="source" v="CanVec_Import_2009"/>
  </node>
  <node id="422233255" version="2" timestamp="2009-07-05T14:02:40Z" uid="38528" user="acrosscanadatrails" changeset="1739621" lat="48.9993966" lon="-124.1611577">
    <tag k="attribution" v="Natural Resources Canada"/>
    <tag k="canvec:CODE" v="1580010"/>
    <tag k="canvec:CONCISCODE" v="120 RIV River"/>
    <tag k="canvec:GEONAMEDB" v="CGNDB"/>
    <tag k="canvec:LANGUAGE" v="French unilingual"/>
    <tag k="canvec:NAMEID" v="0c9da801849c20c32dbcc1852fcbb1ef"/>
    <tag k="canvec:PROVIDER" v="Federal"/>
    <tag k="canvec:Planimetric Accuracy (CMAS)" v="0"/>
    <tag k="canvec:Theme" v="TO Toponymy"/>
    <tag k="canvec:UUID" v="8db729d17db14c1793ce173841ddd68e"/>
    <tag k="canvec:VALDATE" v="1989"/>
    <tag k="canvec:datasetName" v="092C16"/>
    <tag k="canvec:entity" v="Named feature - ( Entité nommée )"/>
    <tag k="canvec:entity_definition" v="A feature delineating the extent; in whole or in part; of a toponymic phenomenon for which the geometry does not fully correspond to that of another feature."/>
    <tag k="canvec:generic_code" v="1580009"/>
    <tag k="canvec:source" v="CanVec_Feature_Catalogue_Edition_1_0_2.pdf"/>
    <tag k="created_by" v="canvec2osm"/>
    <tag k="name" v="South Nanaimo River"/>
    <tag k="name:fr" v="South Nanaimo River"/>
    <tag k="natural" v="river"/>
    <tag k="source" v="CanVec_Import_2009"/>
  </node>
  <node id="422233256" version="3" timestamp="2009-11-11T17:32:49Z" uid="36809" user="pfoten_weg_!_" changeset="3091919" lat="48.819494" lon="-124.3957699">
    <tag k="attribution" v="Natural Resources Canada"/>
    <tag k="canvec:CODE" v="1580010"/>
    <tag k="name" v="Towincut Mountain"/>
    <tag k="name:fr" v="Towincut Mountain"/>
    <tag k="natural" v="peak"/>
    <tag k="place" v="unincorporated_area"/>
    <tag k="source" v="CanVec_Import_2009"/>
  </node>
  <node id="422233257" version="2" timestamp="2009-07-05T14:02:39Z" uid="38528" user="acrosscanadatrails" changeset="1739621" lat="48.7834724" lon="-124.1096223">
    <tag k="attribution" v="Natural Resources Canada"/>
    <tag k="canvec:CODE" v="1580010"/>
    <tag k="canvec:CONCISCODE" v="120 RIV River"/>
    <tag k="canvec:GEONAMEDB" v="CGNDB"/>
    <tag k="canvec:LANGUAGE" v="French unilingual"/>
    <tag k="canvec:NAMEID" v="0c8f6490849c20c333ad37c67feaeff8"/>
    <tag k="canvec:PROVIDER" v="Federal"/>
    <tag k="canvec:Planimetric Accuracy (CMAS)" v="0"/>
    <tag k="canvec:Theme" v="TO Toponymy"/>
    <tag k="canvec:UUID" v="6a3858d76c2a427c95021ea2217a2081"/>
    <tag k="canvec:VALDATE" v="1989"/>
    <tag k="canvec:datasetName" v="092C16"/>
    <tag k="canvec:entity" v="Named feature - ( Entité nommée )"/>
    <tag k="canvec:entity_definition" v="A feature delineating the extent; in whole or in part; of a toponymic phenomenon for which the geometry does not fully correspond to that of another feature."/>
    <tag k="canvec:generic_code" v="1580009"/>
    <tag k="canvec:source" v="CanVec_Feature_Catalogue_Edition_1_0_2.pdf"/>
    <tag k="created_by" v="canvec2osm"/>
    <tag k="name" v="March Creek"/>
    <tag k="name:fr" v="March Creek"/>
    <tag k="natural" v="river"/>
    <tag k="source" v="CanVec_Import_2009"/>
  </node>
  <node id="422233257" version="4" timestamp="2009-11-11T17:33:02Z" uid="36809" user="pfoten_weg_!_" changeset="3091919" lat="48.7834724" lon="-124.1096223">
    <tag k="attribution" v="Natural Resources Canada"/>
    <tag k="canvec:CODE" v="1580010"/>
    <tag k="name" v="March Creek"/>
    <tag k="name:fr" v="March Creek"/>
    <tag k="natural" v="river"/>
    <tag k="source" v="CanVec_Import_2009"/>
  </node>
  <node id="422233259" version="2" timestamp="2009-07-05T14:02:39Z" uid="38528" user="acrosscanadatrails" changeset="1739621" lat="48.9667439" lon="-124.0926002">
    <tag k="attribution" v="Natural Resources Canada"/>
    <tag k="canvec:CODE" v="1580010"/>
    <tag k="canvec:CONCISCODE" v="120 RIV River"/>
    <tag k="canvec:GEONAMEDB" v="CGNDB"/>
    <tag k="canvec:LANGUAGE" v="French unilingual"/>
    <tag k="canvec:NAMEID" v="0c9da801849c20c32dbcc1852fcbb1ef"/>
    <tag k="canvec:PROVIDER" v="Federal"/>
    <tag k="canvec:Planimetric Accuracy (CMAS)" v="0"/>
    <tag k="canvec:Theme" v="TO Toponymy"/>
    <tag k="canvec:UUID" v="45161e29ae844a7c8b296ff37fd6782d"/>
    <tag k="canvec:VALDATE" v="1989"/>
    <tag k="canvec:datasetName" v="092C16"/>
    <tag k="canvec:entity" v="Named feature - ( Entité nommée )"/>
    <tag k="canvec:entity_definition" v="A feature delineating the extent; in whole or in part; of a toponymic phenomenon for which the geometry does not fully correspond to that of another feature."/>
    <tag k="canvec:generic_code" v="1580009"/>
    <tag k="canvec:source" v="CanVec_Feature_Catalogue_Edition_1_0_2.pdf"/>
    <tag k="created_by" v="canvec2osm"/>
    <tag k="name" v="South Nanaimo River"/>
    <tag k="name:fr" v="South Nanaimo River"/>
    <tag k="natural" v="river"/>
    <tag k="source" v="CanVec_Import_2009"/>
  </node>
  <node id="422233260" version="2" timestamp="2009-07-05T14:02:40Z" uid="38528" user="acrosscanadatrails" changeset="1739621" lat="48.9138377" lon="-124.1827146">
    <tag k="attribution" v="Natural Resources Canada"/>
    <tag k="canvec:CODE" v="1580010"/>
    <tag k="canvec:CONCISCODE" v="120 RIV River"/>
    <tag k="canvec:GEONAMEDB" v="CGNDB"/>
    <tag k="canvec:LANGUAGE" v="French unilingual"/>
    <tag k="canvec:NAMEID" v="0c9eee52849c20c3d669f33c6496cf67"/>
    <tag k="canvec:PROVIDER" v="Federal"/>
    <tag k="canvec:Planimetric Accuracy (CMAS)" v="0"/>
    <tag k="canvec:Theme" v="TO Toponymy"/>
    <tag k="canvec:UUID" v="becd7e4783b24da287008a90a3b9d89f"/>
    <tag k="canvec:VALDATE" v="1989"/>
    <tag k="canvec:datasetName" v="092C16"/>
    <tag k="canvec:entity" v="Named feature - ( Entité nommée )"/>
    <tag k="canvec:entity_definition" v="A feature delineating the extent; in whole or in part; of a toponymic phenomenon for which the geometry does not fully correspond to that of another feature."/>
    <tag k="canvec:generic_code" v="1580009"/>
    <tag k="canvec:source" v="CanVec_Feature_Catalogue_Edition_1_0_2.pdf"/>
    <tag k="created_by" v="canvec2osm"/>
    <tag k="name" v="Widow Creek"/>
    <tag k="name:fr" v="Widow Creek"/>
    <tag k="natural" v="river"/>
    <tag k="source" v="CanVec_Import_2009"/>
  </node>
  <node id="422233260" version="4" timestamp="2009-11-11T17:33:39Z" uid="36809" user="pfoten_weg_!_" changeset="3091919" lat="48.9138377" lon="-124.1827146">
    <tag k="attribution" v="Natural Resources Canada"/>
    <tag k="canvec:CODE" v="1580010"/>
    <tag k="name" v="Widow Creek"/>
    <tag k="name:fr" v="Widow Creek"/>
    <tag k="natural" v="river"/>
    <tag k="source" v="CanVec_Import_2009"/>
  </node>
  <node id="422233261" version="3" timestamp="2009-11-11T17:33:11Z" uid="36809" user="pfoten_weg_!_" changeset="3091919" lat="48.8189307" lon="-124.0337657">
    <tag k="attribution" v="Natural Resources Canada"/>
    <tag k="canvec:CODE" v="1580010"/>
    <tag k="name" v="Grant Lake"/>
    <tag k="name:fr" v="Grant Lake"/>
    <tag k="natural" v="water"/>
    <tag k="place" v="state"/>
    <tag k="source" v="CanVec_Import_2009"/>
  </node>
  <node id="422233262" version="2" timestamp="2009-07-05T14:02:40Z" uid="38528" user="acrosscanadatrails" changeset="1739621" lat="48.8367558" lon="-124.1918827">
    <tag k="attribution" v="Natural Resources Canada"/>
    <tag k="canvec:CODE" v="1580010"/>
    <tag k="canvec:CONCISCODE" v="220 BAY Bay"/>
    <tag k="canvec:GEONAMEDB" v="CGNDB"/>
    <tag k="canvec:LANGUAGE" v="French unilingual"/>
    <tag k="canvec:NAMEID" v="0c949b4c849c20c3534f1fba0d6e61a4"/>
    <tag k="canvec:PROVIDER" v="Federal"/>
    <tag k="canvec:Planimetric Accuracy (CMAS)" v="0"/>
    <tag k="canvec:Theme" v="TO Toponymy"/>
    <tag k="canvec:UUID" v="7de53abb6c934ed2861232a6fe43db67"/>
    <tag k="canvec:VALDATE" v="1989"/>
    <tag k="canvec:datasetName" v="092C16"/>
    <tag k="canvec:entity" v="Named feature - ( Entité nommée )"/>
    <tag k="canvec:entity_definition" v="A feature delineating the extent; in whole or in part; of a toponymic phenomenon for which the geometry does not fully correspond to that of another feature."/>
    <tag k="canvec:generic_code" v="1580009"/>
    <tag k="canvec:source" v="CanVec_Feature_Catalogue_Edition_1_0_2.pdf"/>
    <tag k="created_by" v="canvec2osm"/>
    <tag k="name" v="Gordon Bay"/>
    <tag k="name:fr" v="Gordon Bay"/>
    <tag k="natural" v="bay"/>
    <tag k="source" v="CanVec_Import_2009"/>
  </node>
  <node id="422233262" version="4" timestamp="2009-11-11T17:32:59Z" uid="36809" user="pfoten_weg_!_" changeset="3091919" lat="48.8367558" lon="-124.1918827">
    <tag k="attribution" v="Natural Resources Canada"/>
    <tag k="canvec:CODE" v="1580010"/>
    <tag k="name" v="Gordon Bay"/>
    <tag k="name:fr" v="Gordon Bay"/>
    <tag k="natural" v="bay"/>
    <tag k="source" v="CanVec_Import_2009"/>
  </node>
  <node id="422233263" version="2" timestamp="2009-07-05T14:02:40Z" uid="38528" user="acrosscanadatrails" changeset="1739621" lat="48.8411704" lon="-124.0429857">
    <tag k="attribution" v="Natural Resources Canada"/>
    <tag k="canvec:CODE" v="1580010"/>
    <tag k="canvec:CONCISCODE" v="120 RIV River"/>
    <tag k="canvec:GEONAMEDB" v="CGNDB"/>
    <tag k="canvec:LANGUAGE" v="French unilingual"/>
    <tag k="canvec:NAMEID" v="0c90a893849c20c38bf643f4c08d22d7"/>
    <tag k="canvec:PROVIDER" v="Federal"/>
    <tag k="canvec:Planimetric Accuracy (CMAS)" v="0"/>
    <tag k="canvec:Theme" v="TO Toponymy"/>
    <tag k="canvec:UUID" v="b35d983414244a088b23a31d6a620dbb"/>
    <tag k="canvec:VALDATE" v="1989"/>
    <tag k="canvec:datasetName" v="092C16"/>
    <tag k="canvec:entity" v="Named feature - ( Entité nommée )"/>
    <tag k="canvec:entity_definition" v="A feature delineating the extent; in whole or in part; of a toponymic phenomenon for which the geometry does not fully correspond to that of another feature."/>
    <tag k="canvec:generic_code" v="1580009"/>
    <tag k="canvec:source" v="CanVec_Feature_Catalogue_Edition_1_0_2.pdf"/>
    <tag k="created_by" v="canvec2osm"/>
    <tag k="name" v="Stanley Creek"/>
    <tag k="name:fr" v="Stanley Creek"/>
    <tag k="natural" v="river"/>
    <tag k="source" v="CanVec_Import_2009"/>
  </node>
  <node id="422233263" version="4" timestamp="2009-11-11T17:33:17Z" uid="36809" user="pfoten_weg_!_" changeset="3091919" lat="48.8411704" lon="-124.0429857">
    <tag k="attribution" v="Natural Resources Canada"/>
    <tag k="canvec:CODE" v="1580010"/>
    <tag k="name" v="Stanley Creek"/>
    <tag k="name:fr" v="Stanley Creek"/>
    <tag k="natural" v="river"/>
    <tag k="source" v="CanVec_Import_2009"/>
  </node>
  <node id="422233264" version="2" timestamp="2009-07-05T14:02:42Z" uid="38528" user="acrosscanadatrails" changeset="1739621" lat="48.8830533" lon="-124.1968248">
    <tag k="attribution" v="Natural Resources Canada"/>
    <tag k="canvec:CODE" v="1580010"/>
    <tag k="canvec:CONCISCODE" v="120 RIV River"/>
    <tag k="canvec:GEONAMEDB" v="CGNDB"/>
    <tag k="canvec:LANGUAGE" v="French unilingual"/>
    <tag k="canvec:NAMEID" v="0c95dfa4849c20c36a4cc5c642661d7f"/>
    <tag k="canvec:PROVIDER" v="Federal"/>
    <tag k="canvec:Planimetric Accuracy (CMAS)" v="0"/>
    <tag k="canvec:Theme" v="TO Toponymy"/>
    <tag k="canvec:UUID" v="a7697f08f52441c9ab8182c244e3305e"/>
    <tag k="canvec:VALDATE" v="1989"/>
    <tag k="canvec:datasetName" v="092C16"/>
    <tag k="canvec:entity" v="Named feature - ( Entité nommée )"/>
    <tag k="canvec:entity_definition" v="A feature delineating the extent; in whole or in part; of a toponymic phenomenon for which the geometry does not fully correspond to that of another feature."/>
    <tag k="canvec:generic_code" v="1580009"/>
    <tag k="canvec:source" v="CanVec_Feature_Catalogue_Edition_1_0_2.pdf"/>
    <tag k="created_by" v="canvec2osm"/>
    <tag k="name" v="Coonskin Creek"/>
    <tag k="name:fr" v="Coonskin Creek"/>
    <tag k="natural" v="river"/>
    <tag k="source" v="CanVec_Import_2009"/>
  </node>
  <node id="422233264" version="4" timestamp="2009-11-11T17:33:33Z" uid="36809" user="pfoten_weg_!_" changeset="3091919" lat="48.8830533" lon="-124.1968248">
    <tag k="attribution" v="Natural Resources Canada"/>
    <tag k="canvec:CODE" v="1580010"/>
    <tag k="name" v="Coonskin Creek"/>
    <tag k="name:fr" v="Coonskin Creek"/>
    <tag k="natural" v="river"/>
    <tag k="source" v="CanVec_Import_2009"/>
  </node>
  <node id="422233265" version="2" timestamp="2009-07-05T14:02:42Z" uid="38528" user="acrosscanadatrails" changeset="1739621" lat="48.808014" lon="-124.0333491">
    <tag k="attribution" v="Natural Resources Canada"/>
    <tag k="canvec:CODE" v="1580010"/>
    <tag k="canvec:CONCISCODE" v="120 RIV River"/>
    <tag k="canvec:GEONAMEDB" v="CGNDB"/>
    <tag k="canvec:LANGUAGE" v="French unilingual"/>
    <tag k="canvec:NAMEID" v="0c95127b849c20c3742b034fc8d351c3"/>
    <tag k="canvec:PROVIDER" v="Federal"/>
    <tag k="canvec:Planimetric Accuracy (CMAS)" v="0"/>
    <tag k="canvec:Theme" v="TO Toponymy"/>
    <tag k="canvec:UUID" v="6e90c0feb4c3431cb208cfde0c846d7c"/>
    <tag k="canvec:VALDATE" v="1989"/>
    <tag k="canvec:datasetName" v="092C16"/>
    <tag k="canvec:entity" v="Named feature - ( Entité nommée )"/>
    <tag k="canvec:entity_definition" v="A feature delineating the extent; in whole or in part; of a toponymic phenomenon for which the geometry does not fully correspond to that of another feature."/>
    <tag k="canvec:generic_code" v="1580009"/>
    <tag k="canvec:source" v="CanVec_Feature_Catalogue_Edition_1_0_2.pdf"/>
    <tag k="created_by" v="canvec2osm"/>
    <tag k="name" v="Fairservice Creek"/>
    <tag k="name:fr" v="Fairservice Creek"/>
    <tag k="natural" v="river"/>
    <tag k="source" v="CanVec_Import_2009"/>
  </node>
  <node id="422233265" version="4" timestamp="2009-11-11T17:33:10Z" uid="36809" user="pfoten_weg_!_" changeset="3091919" lat="48.808014" lon="-124.0333491">
    <tag k="attribution" v="Natural Resources Canada"/>
    <tag k="canvec:CODE" v="1580010"/>
    <tag k="name" v="Fairservice Creek"/>
    <tag k="name:fr" v="Fairservice Creek"/>
    <tag k="natural" v="river"/>
    <tag k="source" v="CanVec_Import_2009"/>
  </node>
  <node id="422233266" version="2" timestamp="2009-07-05T14:02:42Z" uid="38528" user="acrosscanadatrails" changeset="1739621" lat="48.9745619" lon="-124.062797">
    <tag k="attribution" v="Natural Resources Canada"/>
    <tag k="canvec:CODE" v="1580010"/>
    <tag k="canvec:CONCISCODE" v="120 RIV River"/>
    <tag k="canvec:GEONAMEDB" v="CGNDB"/>
    <tag k="canvec:LANGUAGE" v="French unilingual"/>
    <tag k="canvec:NAMEID" v="0c927854849c20c3fdd259e85af2eb94"/>
    <tag k="canvec:PROVIDER" v="Federal"/>
    <tag k="canvec:Planimetric Accuracy (CMAS)" v="0"/>
    <tag k="canvec:Theme" v="TO Toponymy"/>
    <tag k="canvec:UUID" v="4f25506ed37d4f85b991af62b28fbfb6"/>
    <tag k="canvec:VALDATE" v="1989"/>
    <tag k="canvec:datasetName" v="092C16"/>
    <tag k="canvec:entity" v="Named feature - ( Entité nommée )"/>
    <tag k="canvec:entity_definition" v="A feature delineating the extent; in whole or in part; of a toponymic phenomenon for which the geometry does not fully correspond to that of another feature."/>
    <tag k="canvec:generic_code" v="1580009"/>
    <tag k="canvec:source" v="CanVec_Feature_Catalogue_Edition_1_0_2.pdf"/>
    <tag k="created_by" v="canvec2osm"/>
    <tag k="name" v="Haslam Creek"/>
    <tag k="name:fr" v="Haslam Creek"/>
    <tag k="natural" v="river"/>
    <tag k="source" v="CanVec_Import_2009"/>
  </node>
  <node id="422233267" version="3" timestamp="2009-11-11T17:33:34Z" uid="36809" user="pfoten_weg_!_" changeset="3091919" lat="48.8903885" lon="-124.2271554">
    <tag k="attribution" v="Natural Resources Canada"/>
    <tag k="canvec:CODE" v="1580010"/>
    <tag k="name" v="Vancouver Island"/>
    <tag k="name:fr" v="Île de Vancouver"/>
    <tag k="natural" v="feature"/>
    <tag k="place" v="island"/>
    <tag k="source" v="CanVec_Import_2009"/>
  </node>
  <node id="422233268" version="3" timestamp="2009-11-11T17:33:38Z" uid="36809" user="pfoten_weg_!_" changeset="3091919" lat="48.9095897" lon="-124.1671209">
    <tag k="attribution" v="Natural Resources Canada"/>
    <tag k="canvec:CODE" v="1580010"/>
    <tag k="name" v="Mount Franklyn"/>
    <tag k="name:fr" v="Mount Franklyn"/>
    <tag k="natural" v="peak"/>
    <tag k="place" v="unincorporated_area"/>
    <tag k="source" v="CanVec_Import_2009"/>
  </node>
  <node id="422233269" version="3" timestamp="2009-11-11T17:33:35Z" uid="36809" user="pfoten_weg_!_" changeset="3091919" lat="48.9268711" lon="-124.2117522">
    <tag k="attribution" v="Natural Resources Canada"/>
    <tag k="canvec:CODE" v="1580010"/>
    <tag k="name" v="Sherk Lake"/>
    <tag k="name:fr" v="Sherk Lake"/>
    <tag k="natural" v="water"/>
    <tag k="place" v="state"/>
    <tag k="source" v="CanVec_Import_2009"/>
  </node>
  <node id="422233269" version="4" timestamp="2010-02-25T17:14:34Z" uid="38528" user="acrosscanadatrails" changeset="3973511" lat="48.9268712" lon="-124.2117522">
    <tag k="attribution" v="Natural Resources Canada"/>
    <tag k="canvec:CODE" v="1580010"/>
    <tag k="name" v="Sherk Lake"/>
    <tag k="name:fr" v="Sherk Lake"/>
    <tag k="natural" v="water"/>
    <tag k="source" v="CanVec_Import_2009"/>
  </node>
  <node id="422233270" version="2" timestamp="2009-07-05T14:02:43Z" uid="38528" user="acrosscanadatrails" changeset="1739621" lat="48.9530485" lon="-124.0866863">
    <tag k="attribution" v="Natural Resources Canada"/>
    <tag k="canvec:CODE" v="1580010"/>
    <tag k="canvec:CONCISCODE" v="120 RIV River"/>
    <tag k="canvec:GEONAMEDB" v="CGNDB"/>
    <tag k="canvec:LANGUAGE" v="French unilingual"/>
    <tag k="canvec:NAMEID" v="0c9c1280849c20c30b44e24d021b8687"/>
    <tag k="canvec:PROVIDER" v="Federal"/>
    <tag k="canvec:Planimetric Accuracy (CMAS)" v="0"/>
    <tag k="canvec:Theme" v="TO Toponymy"/>
    <tag k="canvec:UUID" v="476880430792411e92c1d6c2129788e5"/>
    <tag k="canvec:VALDATE" v="1989"/>
    <tag k="canvec:datasetName" v="092C16"/>
    <tag k="canvec:entity" v="Named feature - ( Entité nommée )"/>
    <tag k="canvec:entity_definition" v="A feature delineating the extent; in whole or in part; of a toponymic phenomenon for which the geometry does not fully correspond to that of another feature."/>
    <tag k="canvec:generic_code" v="1580009"/>
    <tag k="canvec:source" v="CanVec_Feature_Catalogue_Edition_1_0_2.pdf"/>
    <tag k="created_by" v="canvec2osm"/>
    <tag k="name" v="Rheinhart Creek"/>
    <tag k="name:fr" v="Rheinhart Creek"/>
    <tag k="natural" v="river"/>
    <tag k="source" v="CanVec_Import_2009"/>
  </node>
  <node id="422233271" version="2" timestamp="2009-07-05T14:02:42Z" uid="38528" user="acrosscanadatrails" changeset="1739621" lat="48.7723533" lon="-124.4162829">
    <tag k="attribution" v="Natural Resources Canada"/>
    <tag k="canvec:CODE" v="1580010"/>
    <tag k="canvec:CONCISCODE" v="120 RIV River"/>
    <tag k="canvec:GEONAMEDB" v="CGNDB"/>
    <tag k="canvec:LANGUAGE" v="French unilingual"/>
    <tag k="canvec:NAMEID" v="0ca96d86849c20c3cbcc50d5495f686c"/>
    <tag k="canvec:PROVIDER" v="Federal"/>
    <tag k="canvec:Planimetric Accuracy (CMAS)" v="0"/>
    <tag k="canvec:Theme" v="TO Toponymy"/>
    <tag k="canvec:UUID" v="86556d5a629f4a2ab12952e0c98dd649"/>
    <tag k="canvec:VALDATE" v="1989"/>
    <tag k="canvec:datasetName" v="092C16"/>
    <tag k="canvec:entity" v="Named feature - ( Entité nommée )"/>
    <tag k="canvec:entity_definition" v="A feature delineating the extent; in whole or in part; of a toponymic phenomenon for which the geometry does not fully correspond to that of another feature."/>
    <tag k="canvec:generic_code" v="1580009"/>
    <tag k="canvec:source" v="CanVec_Feature_Catalogue_Edition_1_0_2.pdf"/>
    <tag k="created_by" v="canvec2osm"/>
    <tag k="name" v="Loup Creek"/>
    <tag k="name:fr" v="Loup Creek"/>
    <tag k="natural" v="river"/>
    <tag k="source" v="CanVec_Import_2009"/>
  </node>
  <node id="422233273" version="2" timestamp="2009-06-17T06:58:02Z" uid="38528" user="acrosscanadatrails" changeset="1542202" lat="48.8187616" lon="-124.0819777">
    <tag k="attribution" v="Natural Resources Canada"/>
    <tag k="canvec:CODE" v="1580010"/>
    <tag k="canvec:CONCISCODE" v="110 PARK Conservation area"/>
    <tag k="canvec:GEONAMEDB" v="CTI_LABEL"/>
    <tag k="canvec:LANGUAGE" v="French unilingual"/>
    <tag k="canvec:NAMEID" v="008a4239aec349de88186173ebe546ad"/>
    <tag k="canvec:PROVIDER" v="Federal"/>
    <tag k="canvec:Planimetric Accuracy (CMAS)" v="0"/>
    <tag k="canvec:Theme" v="TO Toponymy"/>
    <tag k="canvec:UUID" v="98f7cff18a8f4df687f9f20f794f7c3f"/>
    <tag k="canvec:VALDATE" v="1989"/>
    <tag k="canvec:datasetName" v="092C16"/>
    <tag k="canvec:entity" v="Named feature - ( Entité nommée )"/>
    <tag k="canvec:entity_definition" v="A feature delineating the extent; in whole or in part; of a toponymic phenomenon for which the geometry does not fully correspond to that of another feature."/>
    <tag k="canvec:generic_code" v="1580009"/>
    <tag k="canvec:source" v="CanVec_Feature_Catalogue_Edition_1_0_2.pdf"/>
    <tag k="created_by" v="canvec2osm"/>
    <tag k="leisure" v="nature_reserve"/>
    <tag k="name" v="Lakeview Provincial Park"/>
    <tag k="name:fr" v="Lakeview Provincial Park"/>
    <tag k="natural" v="feature"/>
    <tag k="source" v="CanVec_Import_2009"/>
  </node>
  <node id="422233273" version="4" timestamp="2009-11-11T17:33:07Z" uid="36809" user="pfoten_weg_!_" changeset="3091919" lat="48.8187616" lon="-124.0819777">
    <tag k="attribution" v="Natural Resources Canada"/>
    <tag k="canvec:CODE" v="1580010"/>
    <tag k="leisure" v="nature_reserve"/>
    <tag k="name" v="Lakeview Provincial Park"/>
    <tag k="name:fr" v="Lakeview Provincial Park"/>
    <tag k="natural" v="feature"/>
    <tag k="source" v="CanVec_Import_2009"/>
  </node>
  <node id="422233274" version="2" timestamp="2009-07-05T14:02:41Z" uid="38528" user="acrosscanadatrails" changeset="1739621" lat="48.8406444" lon="-124.4035642">
    <tag k="attribution" v="Natural Resources Canada"/>
    <tag k="canvec:CODE" v="1580010"/>
    <tag k="canvec:CONCISCODE" v="120 RIV River"/>
    <tag k="canvec:GEONAMEDB" v="CGNDB"/>
    <tag k="canvec:LANGUAGE" v="French unilingual"/>
    <tag k="canvec:NAMEID" v="cd717499d05211d892e2080020a0f4c9"/>
    <tag k="canvec:PROVIDER" v="Federal"/>
    <tag k="canvec:Planimetric Accuracy (CMAS)" v="0"/>
    <tag k="canvec:Theme" v="TO Toponymy"/>
    <tag k="canvec:UUID" v="628d82d4433b40dcb6a4399735c440b0"/>
    <tag k="canvec:VALDATE" v="1989"/>
    <tag k="canvec:datasetName" v="092C16"/>
    <tag k="canvec:entity" v="Named feature - ( Entité nommée )"/>
    <tag k="canvec:entity_definition" v="A feature delineating the extent; in whole or in part; of a toponymic phenomenon for which the geometry does not fully correspond to that of another feature."/>
    <tag k="canvec:generic_code" v="1580009"/>
    <tag k="canvec:source" v="CanVec_Feature_Catalogue_Edition_1_0_2.pdf"/>
    <tag k="created_by" v="canvec2osm"/>
    <tag k="name" v="Nixon Creek"/>
    <tag k="name:fr" v="Nixon Creek"/>
    <tag k="natural" v="river"/>
    <tag k="source" v="CanVec_Import_2009"/>
  </node>
  <node id="422233274" version="4" timestamp="2009-11-11T17:32:52Z" uid="36809" user="pfoten_weg_!_" changeset="3091919" lat="48.8406444" lon="-124.4035642">
    <tag k="attribution" v="Natural Resources Canada"/>
    <tag k="canvec:CODE" v="1580010"/>
    <tag k="name" v="Nixon Creek"/>
    <tag k="name:fr" v="Nixon Creek"/>
    <tag k="natural" v="river"/>
    <tag k="source" v="CanVec_Import_2009"/>
  </node>
  <node id="422233275" version="3" timestamp="2009-09-04T17:51:18Z" uid="38528" user="acrosscanadatrails" changeset="2372439" lat="48.9081892" lon="-124.3835952">
    <tag k="attribution" v="Natural Resources Canada"/>
    <tag k="canvec:CODE" v="1580010"/>
    <tag k="created_by" v="canvec2osm"/>
    <tag k="name" v="Cowichan Lake"/>
    <tag k="name:fr" v="Cowichan Lake"/>
    <tag k="natural" v="water"/>
    <tag k="source" v="CanVec_Import_2009"/>
  </node>
  <node id="422233275" version="4" timestamp="2009-11-11T17:33:23Z" uid="36809" user="pfoten_weg_!_" changeset="3091919" lat="48.9081892" lon="-124.3835952">
    <tag k="attribution" v="Natural Resources Canada"/>
    <tag k="canvec:CODE" v="1580010"/>
    <tag k="name" v="Cowichan Lake"/>
    <tag k="name:fr" v="Cowichan Lake"/>
    <tag k="natural" v="water"/>
    <tag k="source" v="CanVec_Import_2009"/>
  </node>
  <node id="422233276" version="3" timestamp="2009-11-11T17:33:04Z" uid="36809" user="pfoten_weg_!_" changeset="3091919" lat="48.8124726" lon="-124.1084403">
    <tag k="attribution" v="Natural Resources Canada"/>
    <tag k="canvec:CODE" v="1580010"/>
    <tag k="name" v="Mesachie Lake"/>
    <tag k="name:fr" v="Mesachie Lake"/>
    <tag k="natural" v="water"/>
    <tag k="place" v="state"/>
    <tag k="source" v="CanVec_Import_2009"/>
  </node>
  <node id="422233277" version="2" timestamp="2009-07-05T14:02:41Z" uid="38528" user="acrosscanadatrails" changeset="1739621" lat="48.8783368" lon="-124.237378">
    <tag k="attribution" v="Natural Resources Canada"/>
    <tag k="canvec:CODE" v="1580010"/>
    <tag k="canvec:CONCISCODE" v="120 RIV River"/>
    <tag k="canvec:GEONAMEDB" v="CGNDB"/>
    <tag k="canvec:LANGUAGE" v="French unilingual"/>
    <tag k="canvec:NAMEID" v="0c8ddb9d849c20c340b9e2cae8cd8288"/>
    <tag k="canvec:PROVIDER" v="Federal"/>
    <tag k="canvec:Planimetric Accuracy (CMAS)" v="0"/>
    <tag k="canvec:Theme" v="TO Toponymy"/>
    <tag k="canvec:UUID" v="0958fd3559004b52a91589296f60bc90"/>
    <tag k="canvec:VALDATE" v="1989"/>
    <tag k="canvec:datasetName" v="092C16"/>
    <tag k="canvec:entity" v="Named feature - ( Entité nommée )"/>
    <tag k="canvec:entity_definition" v="A feature delineating the extent; in whole or in part; of a toponymic phenomenon for which the geometry does not fully correspond to that of another feature."/>
    <tag k="canvec:generic_code" v="1580009"/>
    <tag k="canvec:source" v="CanVec_Feature_Catalogue_Edition_1_0_2.pdf"/>
    <tag k="created_by" v="canvec2osm"/>
    <tag k="name" v="Cottonwood Creek"/>
    <tag k="name:fr" v="Cottonwood Creek"/>
    <tag k="natural" v="river"/>
    <tag k="source" v="CanVec_Import_2009"/>
  </node>
  <node id="422233277" version="4" timestamp="2009-11-11T17:33:25Z" uid="36809" user="pfoten_weg_!_" changeset="3091919" lat="48.8783368" lon="-124.237378">
    <tag k="attribution" v="Natural Resources Canada"/>
    <tag k="canvec:CODE" v="1580010"/>
    <tag k="name" v="Cottonwood Creek"/>
    <tag k="name:fr" v="Cottonwood Creek"/>
    <tag k="natural" v="river"/>
    <tag k="source" v="CanVec_Import_2009"/>
  </node>
  <node id="422233278" version="2" timestamp="2009-07-05T14:02:41Z" uid="38528" user="acrosscanadatrails" changeset="1739621" lat="48.8013923" lon="-124.1934847">
    <tag k="attribution" v="Natural Resources Canada"/>
    <tag k="canvec:CODE" v="1580010"/>
    <tag k="canvec:CONCISCODE" v="120 RIV River"/>
    <tag k="canvec:GEONAMEDB" v="CGNDB"/>
    <tag k="canvec:LANGUAGE" v="French unilingual"/>
    <tag k="canvec:NAMEID" v="0c930965849c20c31de42a9bc6affc9f"/>
    <tag k="canvec:PROVIDER" v="Federal"/>
    <tag k="canvec:Planimetric Accuracy (CMAS)" v="0"/>
    <tag k="canvec:Theme" v="TO Toponymy"/>
    <tag k="canvec:UUID" v="93396ac1e7ff4f39943e86cc1beed0f5"/>
    <tag k="canvec:VALDATE" v="1989"/>
    <tag k="canvec:datasetName" v="092C16"/>
    <tag k="canvec:entity" v="Named feature - ( Entité nommée )"/>
    <tag k="canvec:entity_definition" v="A feature delineating the extent; in whole or in part; of a toponymic phenomenon for which the geometry does not fully correspond to that of another feature."/>
    <tag k="canvec:generic_code" v="1580009"/>
    <tag k="canvec:source" v="CanVec_Feature_Catalogue_Edition_1_0_2.pdf"/>
    <tag k="created_by" v="canvec2osm"/>
    <tag k="name" v="Ashburnham Creek"/>
    <tag k="name:fr" v="Ashburnham Creek"/>
    <tag k="natural" v="river"/>
    <tag k="source" v="CanVec_Import_2009"/>
  </node>
  <node id="422233278" version="4" timestamp="2009-11-11T17:32:56Z" uid="36809" user="pfoten_weg_!_" changeset="3091919" lat="48.8013923" lon="-124.1934847">
    <tag k="attribution" v="Natural Resources Canada"/>
    <tag k="canvec:CODE" v="1580010"/>
    <tag k="name" v="Ashburnham Creek"/>
    <tag k="name:fr" v="Ashburnham Creek"/>
    <tag k="natural" v="river"/>
    <tag k="source" v="CanVec_Import_2009"/>
  </node>
  <node id="422233279" version="2" timestamp="2009-07-05T14:02:41Z" uid="38528" user="acrosscanadatrails" changeset="1739621" lat="48.824205" lon="-124.190627">
    <tag k="attribution" v="Natural Resources Canada"/>
    <tag k="canvec:CODE" v="1580010"/>
    <tag k="canvec:CONCISCODE" v="120 RIV River"/>
    <tag k="canvec:GEONAMEDB" v="CGNDB"/>
    <tag k="canvec:LANGUAGE" v="French unilingual"/>
    <tag k="canvec:NAMEID" v="0cfd565b849c20c3d58b8c8603cbbc5e"/>
    <tag k="canvec:PROVIDER" v="Federal"/>
    <tag k="canvec:Planimetric Accuracy (CMAS)" v="0"/>
    <tag k="canvec:Theme" v="TO Toponymy"/>
    <tag k="canvec:UUID" v="9897be36d7ea459198d1e8cc2675814a"/>
    <tag k="canvec:VALDATE" v="1989"/>
    <tag k="canvec:datasetName" v="092C16"/>
    <tag k="canvec:entity" v="Named feature - ( Entité nommée )"/>
    <tag k="canvec:entity_definition" v="A feature delineating the extent; in whole or in part; of a toponymic phenomenon for which the geometry does not fully correspond to that of another feature."/>
    <tag k="canvec:generic_code" v="1580009"/>
    <tag k="canvec:source" v="CanVec_Feature_Catalogue_Edition_1_0_2.pdf"/>
    <tag k="created_by" v="canvec2osm"/>
    <tag k="name" v="Sutton Creek"/>
    <tag k="name:fr" v="Sutton Creek"/>
    <tag k="natural" v="river"/>
    <tag k="source" v="CanVec_Import_2009"/>
  </node>
  <node id="422233279" version="4" timestamp="2009-11-11T17:32:57Z" uid="36809" user="pfoten_weg_!_" changeset="3091919" lat="48.824205" lon="-124.190627">
    <tag k="attribution" v="Natural Resources Canada"/>
    <tag k="canvec:CODE" v="1580010"/>
    <tag k="name" v="Sutton Creek"/>
    <tag k="name:fr" v="Sutton Creek"/>
    <tag k="natural" v="river"/>
    <tag k="source" v="CanVec_Import_2009"/>
  </node>
  <node id="422233281" version="3" timestamp="2010-04-23T09:26:20Z" uid="38528" user="acrosscanadatrails" changeset="4501949" lat="48.9702737" lon="-124.4762846">
    <tag k="attribution" v="Natural Resources Canada"/>
    <tag k="canvec:CODE" v="1580010"/>
    <tag k="name" v="Heather Lake"/>
    <tag k="name:fr" v="Heather Lake"/>
    <tag k="natural" v="water"/>
    <tag k="source" v="CanVec_Import_2009"/>
  </node>
  <node id="422233282" version="3" timestamp="2009-11-11T17:33:37Z" uid="36809" user="pfoten_weg_!_" changeset="3091919" lat="48.8982161" lon="-124.1852743">
    <tag k="attribution" v="Natural Resources Canada"/>
    <tag k="canvec:CODE" v="1580010"/>
    <tag k="name" v="Mount Holmes"/>
    <tag k="name:fr" v="Mount Holmes"/>
    <tag k="natural" v="peak"/>
    <tag k="place" v="unincorporated_area"/>
    <tag k="source" v="CanVec_Import_2009"/>
  </node>
  <node id="422233283" version="2" timestamp="2009-07-05T14:02:39Z" uid="38528" user="acrosscanadatrails" changeset="1739621" lat="48.7872165" lon="-124.1389413">
    <tag k="attribution" v="Natural Resources Canada"/>
    <tag k="canvec:CODE" v="1580010"/>
    <tag k="canvec:CONCISCODE" v="120 RIV River"/>
    <tag k="canvec:GEONAMEDB" v="CGNDB"/>
    <tag k="canvec:LANGUAGE" v="French unilingual"/>
    <tag k="canvec:NAMEID" v="0c97cfa1849c20c3670ff05b5c5cdc34"/>
    <tag k="canvec:PROVIDER" v="Federal"/>
    <tag k="canvec:Planimetric Accuracy (CMAS)" v="0"/>
    <tag k="canvec:Theme" v="TO Toponymy"/>
    <tag k="canvec:UUID" v="8ade8b5ee1004a188720ce0299400e69"/>
    <tag k="canvec:VALDATE" v="1989"/>
    <tag k="canvec:datasetName" v="092C16"/>
    <tag k="canvec:entity" v="Named feature - ( Entité nommée )"/>
    <tag k="canvec:entity_definition" v="A feature delineating the extent; in whole or in part; of a toponymic phenomenon for which the geometry does not fully correspond to that of another feature."/>
    <tag k="canvec:generic_code" v="1580009"/>
    <tag k="canvec:source" v="CanVec_Feature_Catalogue_Edition_1_0_2.pdf"/>
    <tag k="created_by" v="canvec2osm"/>
    <tag k="name" v="Nineteen Creek"/>
    <tag k="name:fr" v="Nineteen Creek"/>
    <tag k="natural" v="river"/>
    <tag k="source" v="CanVec_Import_2009"/>
  </node>
  <node id="422233283" version="4" timestamp="2009-11-11T17:33:01Z" uid="36809" user="pfoten_weg_!_" changeset="3091919" lat="48.7872165" lon="-124.1389413">
    <tag k="attribution" v="Natural Resources Canada"/>
    <tag k="canvec:CODE" v="1580010"/>
    <tag k="name" v="Nineteen Creek"/>
    <tag k="name:fr" v="Nineteen Creek"/>
    <tag k="natural" v="river"/>
    <tag k="source" v="CanVec_Import_2009"/>
  </node>
  <node id="422233285" version="2" timestamp="2009-07-05T14:02:39Z" uid="38528" user="acrosscanadatrails" changeset="1739621" lat="48.8276981" lon="-124.3787875">
    <tag k="attribution" v="Natural Resources Canada"/>
    <tag k="canvec:CODE" v="1580010"/>
    <tag k="canvec:CONCISCODE" v="120 RIV River"/>
    <tag k="canvec:GEONAMEDB" v="CGNDB"/>
    <tag k="canvec:LANGUAGE" v="French unilingual"/>
    <tag k="canvec:NAMEID" v="0c928115849c20c30e8499260fa76fd8"/>
    <tag k="canvec:PROVIDER" v="Federal"/>
    <tag k="canvec:Planimetric Accuracy (CMAS)" v="0"/>
    <tag k="canvec:Theme" v="TO Toponymy"/>
    <tag k="canvec:UUID" v="e7790fdd400848c9b78fd9170950a9fc"/>
    <tag k="canvec:VALDATE" v="1989"/>
    <tag k="canvec:datasetName" v="092C16"/>
    <tag k="canvec:entity" v="Named feature - ( Entité nommée )"/>
    <tag k="canvec:entity_definition" v="A feature delineating the extent; in whole or in part; of a toponymic phenomenon for which the geometry does not fully correspond to that of another feature."/>
    <tag k="canvec:generic_code" v="1580009"/>
    <tag k="canvec:source" v="CanVec_Feature_Catalogue_Edition_1_0_2.pdf"/>
    <tag k="created_by" v="canvec2osm"/>
    <tag k="name" v="Hauk Creek"/>
    <tag k="name:fr" v="Hauk Creek"/>
    <tag k="natural" v="river"/>
    <tag k="source" v="CanVec_Import_2009"/>
  </node>
  <node id="422233285" version="4" timestamp="2009-11-11T17:32:53Z" uid="36809" user="pfoten_weg_!_" changeset="3091919" lat="48.8276981" lon="-124.3787875">
    <tag k="attribution" v="Natural Resources Canada"/>
    <tag k="canvec:CODE" v="1580010"/>
    <tag k="name" v="Hauk Creek"/>
    <tag k="name:fr" v="Hauk Creek"/>
    <tag k="natural" v="river"/>
    <tag k="source" v="CanVec_Import_2009"/>
  </node>
  <node id="422233286" version="4" timestamp="2009-11-11T17:33:16Z" uid="36809" user="pfoten_weg_!_" changeset="3091919" lat="48.8264613" lon="-124.0518648">
    <tag k="attribution" v="Natural Resources Canada"/>
    <tag k="canvec:CODE" v="1580010"/>
    <tag k="name" v="Lake Cowichan"/>
    <tag k="name:fr" v="Lake Cowichan"/>
    <tag k="natural" v="feature"/>
    <tag k="place" v="town"/>
    <tag k="source" v="CanVec_Import_2009"/>
  </node>
  <node id="422233287" version="2" timestamp="2009-07-05T14:02:38Z" uid="38528" user="acrosscanadatrails" changeset="1739621" lat="48.8212858" lon="-124.1812329">
    <tag k="attribution" v="Natural Resources Canada"/>
    <tag k="canvec:CODE" v="1580010"/>
    <tag k="canvec:CONCISCODE" v="220 BAY Bay"/>
    <tag k="canvec:GEONAMEDB" v="CGNDB"/>
    <tag k="canvec:LANGUAGE" v="French unilingual"/>
    <tag k="canvec:NAMEID" v="0c9ab551849c20c3a2db700fb92a4cfc"/>
    <tag k="canvec:PROVIDER" v="Federal"/>
    <tag k="canvec:Planimetric Accuracy (CMAS)" v="0"/>
    <tag k="canvec:Theme" v="TO Toponymy"/>
    <tag k="canvec:UUID" v="7a89af3e74f04b3f93cb5dfc150c7907"/>
    <tag k="canvec:VALDATE" v="1989"/>
    <tag k="canvec:datasetName" v="092C16"/>
    <tag k="canvec:entity" v="Named feature - ( Entité nommée )"/>
    <tag k="canvec:entity_definition" v="A feature delineating the extent; in whole or in part; of a toponymic phenomenon for which the geometry does not fully correspond to that of another feature."/>
    <tag k="canvec:generic_code" v="1580009"/>
    <tag k="canvec:source" v="CanVec_Feature_Catalogue_Edition_1_0_2.pdf"/>
    <tag k="created_by" v="canvec2osm"/>
    <tag k="name" v="Honeymoon Bay"/>
    <tag k="name:fr" v="Honeymoon Bay"/>
    <tag k="natural" v="bay"/>
    <tag k="source" v="CanVec_Import_2009"/>
  </node>
  <node id="422233287" version="4" timestamp="2009-11-11T17:33:00Z" uid="36809" user="pfoten_weg_!_" changeset="3091919" lat="48.8212858" lon="-124.1812329">
    <tag k="attribution" v="Natural Resources Canada"/>
    <tag k="canvec:CODE" v="1580010"/>
    <tag k="name" v="Honeymoon Bay"/>
    <tag k="name:fr" v="Honeymoon Bay"/>
    <tag k="natural" v="bay"/>
    <tag k="source" v="CanVec_Import_2009"/>
  </node>
  <node id="422233288" version="2" timestamp="2009-07-05T14:02:38Z" uid="38528" user="acrosscanadatrails" changeset="1739621" lat="48.9797737" lon="-124.3315313">
    <tag k="attribution" v="Natural Resources Canada"/>
    <tag k="canvec:CODE" v="1580010"/>
    <tag k="canvec:CONCISCODE" v="120 RIV River"/>
    <tag k="canvec:GEONAMEDB" v="CGNDB"/>
    <tag k="canvec:LANGUAGE" v="French unilingual"/>
    <tag k="canvec:NAMEID" v="c63ef6c5c6cd11d892e2080020a0f4c9"/>
    <tag k="canvec:PROVIDER" v="Federal"/>
    <tag k="canvec:Planimetric Accuracy (CMAS)" v="0"/>
    <tag k="canvec:Theme" v="TO Toponymy"/>
    <tag k="canvec:UUID" v="fc26d8cf0b2c4d04be1f3a2059d4e8c6"/>
    <tag k="canvec:VALDATE" v="1989"/>
    <tag k="canvec:datasetName" v="092C16"/>
    <tag k="canvec:entity" v="Named feature - ( Entité nommée )"/>
    <tag k="canvec:entity_definition" v="A feature delineating the extent; in whole or in part; of a toponymic phenomenon for which the geometry does not fully correspond to that of another feature."/>
    <tag k="canvec:generic_code" v="1580009"/>
    <tag k="canvec:source" v="CanVec_Feature_Catalogue_Edition_1_0_2.pdf"/>
    <tag k="created_by" v="canvec2osm"/>
    <tag k="name" v="Green Creek"/>
    <tag k="name:fr" v="Green Creek"/>
    <tag k="natural" v="river"/>
    <tag k="source" v="CanVec_Import_2009"/>
  </node>
  <node id="422233289" version="2" timestamp="2009-07-05T14:02:38Z" uid="38528" user="acrosscanadatrails" changeset="1739621" lat="48.8639266" lon="-124.3104295">
    <tag k="attribution" v="Natural Resources Canada"/>
    <tag k="canvec:CODE" v="1580010"/>
    <tag k="canvec:CONCISCODE" v="120 RIV River"/>
    <tag k="canvec:GEONAMEDB" v="CGNDB"/>
    <tag k="canvec:LANGUAGE" v="French unilingual"/>
    <tag k="canvec:NAMEID" v="0ca826fd849c20c339049397ed1c6283"/>
    <tag k="canvec:PROVIDER" v="Federal"/>
    <tag k="canvec:Planimetric Accuracy (CMAS)" v="0"/>
    <tag k="canvec:Theme" v="TO Toponymy"/>
    <tag k="canvec:UUID" v="672f40de7e5d457aa93e70f1879f50a5"/>
    <tag k="canvec:VALDATE" v="1989"/>
    <tag k="canvec:datasetName" v="092C16"/>
    <tag k="canvec:entity" v="Named feature - ( Entité nommée )"/>
    <tag k="canvec:entity_definition" v="A feature delineating the extent; in whole or in part; of a toponymic phenomenon for which the geometry does not fully correspond to that of another feature."/>
    <tag k="canvec:generic_code" v="1580009"/>
    <tag k="canvec:source" v="CanVec_Feature_Catalogue_Edition_1_0_2.pdf"/>
    <tag k="created_by" v="canvec2osm"/>
    <tag k="name" v="Croft Creek"/>
    <tag k="name:fr" v="Croft Creek"/>
    <tag k="natural" v="river"/>
    <tag k="source" v="CanVec_Import_2009"/>
  </node>
  <node id="422233289" version="4" timestamp="2009-11-11T17:32:56Z" uid="36809" user="pfoten_weg_!_" changeset="3091919" lat="48.8639266" lon="-124.3104295">
    <tag k="attribution" v="Natural Resources Canada"/>
    <tag k="canvec:CODE" v="1580010"/>
    <tag k="name" v="Croft Creek"/>
    <tag k="name:fr" v="Croft Creek"/>
    <tag k="natural" v="river"/>
    <tag k="source" v="CanVec_Import_2009"/>
  </node>
  <node id="422233290" version="2" timestamp="2009-07-05T13:56:03Z" uid="38528" user="acrosscanadatrails" changeset="1739581" lat="48.8868657" lon="-124.485481">
    <tag k="attribution" v="Natural Resources Canada"/>
    <tag k="canvec:CODE" v="1580010"/>
    <tag k="canvec:CONCISCODE" v="120 RIV River"/>
    <tag k="canvec:GEONAMEDB" v="CGNDB"/>
    <tag k="canvec:LANGUAGE" v="French unilingual"/>
    <tag k="canvec:NAMEID" v="0c9f309d849c20c3646f08993f10a53f"/>
    <tag k="canvec:PROVIDER" v="Federal"/>
    <tag k="canvec:Planimetric Accuracy (CMAS)" v="0"/>
    <tag k="canvec:Theme" v="TO Toponymy"/>
    <tag k="canvec:UUID" v="a43b8b66a3aa44dd85c5c44d1999fcde"/>
    <tag k="canvec:VALDATE" v="1989"/>
    <tag k="canvec:datasetName" v="092C16"/>
    <tag k="canvec:entity" v="Named feature - ( Entité nommée )"/>
    <tag k="canvec:entity_definition" v="A feature delineating the extent; in whole or in part; of a toponymic phenomenon for which the geometry does not fully correspond to that of another feature."/>
    <tag k="canvec:generic_code" v="1580009"/>
    <tag k="canvec:source" v="CanVec_Feature_Catalogue_Edition_1_0_2.pdf"/>
    <tag k="created_by" v="canvec2osm"/>
    <tag k="name" v="Vernon Creek"/>
    <tag k="name:fr" v="Vernon Creek"/>
    <tag k="natural" v="river"/>
    <tag k="source" v="CanVec_Import_2009"/>
  </node>
  <node id="422233290" version="4" timestamp="2009-11-11T17:32:43Z" uid="36809" user="pfoten_weg_!_" changeset="3091919" lat="48.8868657" lon="-124.485481">
    <tag k="attribution" v="Natural Resources Canada"/>
    <tag k="canvec:CODE" v="1580010"/>
    <tag k="name" v="Vernon Creek"/>
    <tag k="name:fr" v="Vernon Creek"/>
    <tag k="natural" v="river"/>
    <tag k="source" v="CanVec_Import_2009"/>
  </node>
  <node id="422233291" version="3" timestamp="2009-11-11T17:33:39Z" uid="36809" user="pfoten_weg_!_" changeset="3091919" lat="48.8757545" lon="-124.1372297">
    <tag k="attribution" v="Natural Resources Canada"/>
    <tag k="canvec:CODE" v="1580010"/>
    <tag k="name" v="Mount Good"/>
    <tag k="name:fr" v="Mount Good"/>
    <tag k="natural" v="peak"/>
    <tag k="place" v="unincorporated_area"/>
    <tag k="source" v="CanVec_Import_2009"/>
  </node>
  <node id="422233292" version="2" timestamp="2009-07-05T14:02:38Z" uid="38528" user="acrosscanadatrails" changeset="1739621" lat="48.8270742" lon="-124.0037237">
    <tag k="attribution" v="Natural Resources Canada"/>
    <tag k="canvec:CODE" v="1580010"/>
    <tag k="canvec:CONCISCODE" v="120 RIV River"/>
    <tag k="canvec:GEONAMEDB" v="CGNDB"/>
    <tag k="canvec:LANGUAGE" v="French unilingual"/>
    <tag k="canvec:NAMEID" v="d60e0c5ad05211d892e2080020a0f4c9"/>
    <tag k="canvec:PROVIDER" v="Federal"/>
    <tag k="canvec:Planimetric Accuracy (CMAS)" v="0"/>
    <tag k="canvec:Theme" v="TO Toponymy"/>
    <tag k="canvec:UUID" v="2b4f146576bb4fc1951a9a2c87ec274a"/>
    <tag k="canvec:VALDATE" v="1989"/>
    <tag k="canvec:datasetName" v="092C16"/>
    <tag k="canvec:entity" v="Named feature - ( Entité nommée )"/>
    <tag k="canvec:entity_definition" v="A feature delineating the extent; in whole or in part; of a toponymic phenomenon for which the geometry does not fully correspond to that of another feature."/>
    <tag k="canvec:generic_code" v="1580009"/>
    <tag k="canvec:source" v="CanVec_Feature_Catalogue_Edition_1_0_2.pdf"/>
    <tag k="created_by" v="canvec2osm"/>
    <tag k="name" v="Golding Brook"/>
    <tag k="name:fr" v="Golding Brook"/>
    <tag k="natural" v="river"/>
    <tag k="source" v="CanVec_Import_2009"/>
  </node>
  <node id="422233292" version="4" timestamp="2009-11-11T17:33:20Z" uid="36809" user="pfoten_weg_!_" changeset="3091919" lat="48.8270742" lon="-124.0037237">
    <tag k="attribution" v="Natural Resources Canada"/>
    <tag k="canvec:CODE" v="1580010"/>
    <tag k="name" v="Golding Brook"/>
    <tag k="name:fr" v="Golding Brook"/>
    <tag k="natural" v="river"/>
    <tag k="source" v="CanVec_Import_2009"/>
  </node>
  <node id="422233293" version="2" timestamp="2009-07-05T14:02:38Z" uid="38528" user="acrosscanadatrails" changeset="1739621" lat="48.8861884" lon="-124.1630713">
    <tag k="attribution" v="Natural Resources Canada"/>
    <tag k="canvec:CODE" v="1580010"/>
    <tag k="canvec:CONCISCODE" v="120 RIV River"/>
    <tag k="canvec:GEONAMEDB" v="CGNDB"/>
    <tag k="canvec:LANGUAGE" v="French unilingual"/>
    <tag k="canvec:NAMEID" v="0c9e6b2c849c20c3654dc9a0ad223b7f"/>
    <tag k="canvec:PROVIDER" v="Federal"/>
    <tag k="canvec:Planimetric Accuracy (CMAS)" v="0"/>
    <tag k="canvec:Theme" v="TO Toponymy"/>
    <tag k="canvec:UUID" v="371a6ccace594805adb7f81542a14f2a"/>
    <tag k="canvec:VALDATE" v="1989"/>
    <tag k="canvec:datasetName" v="092C16"/>
    <tag k="canvec:entity" v="Named feature - ( Entité nommée )"/>
    <tag k="canvec:entity_definition" v="A feature delineating the extent; in whole or in part; of a toponymic phenomenon for which the geometry does not fully correspond to that of another feature."/>
    <tag k="canvec:generic_code" v="1580009"/>
    <tag k="canvec:source" v="CanVec_Feature_Catalogue_Edition_1_0_2.pdf"/>
    <tag k="created_by" v="canvec2osm"/>
    <tag k="name" v="Meade Creek"/>
    <tag k="name:fr" v="Meade Creek"/>
    <tag k="natural" v="river"/>
    <tag k="source" v="CanVec_Import_2009"/>
  </node>
  <node id="422233293" version="4" timestamp="2009-11-11T17:33:37Z" uid="36809" user="pfoten_weg_!_" changeset="3091919" lat="48.8861884" lon="-124.1630713">
    <tag k="attribution" v="Natural Resources Canada"/>
    <tag k="canvec:CODE" v="1580010"/>
    <tag k="name" v="Meade Creek"/>
    <tag k="name:fr" v="Meade Creek"/>
    <tag k="natural" v="river"/>
    <tag k="source" v="CanVec_Import_2009"/>
  </node>
  <node id="422233294" version="2" timestamp="2009-07-05T14:02:37Z" uid="38528" user="acrosscanadatrails" changeset="1739621" lat="48.7618022" lon="-124.0278838">
    <tag k="attribution" v="Natural Resources Canada"/>
    <tag k="canvec:CODE" v="1580010"/>
    <tag k="canvec:CONCISCODE" v="120 RIV River"/>
    <tag k="canvec:GEONAMEDB" v="CGNDB"/>
    <tag k="canvec:LANGUAGE" v="French unilingual"/>
    <tag k="canvec:NAMEID" v="0c8b42c7849c20c3cee9dfe6fb05fb81"/>
    <tag k="canvec:PROVIDER" v="Federal"/>
    <tag k="canvec:Planimetric Accuracy (CMAS)" v="0"/>
    <tag k="canvec:Theme" v="TO Toponymy"/>
    <tag k="canvec:UUID" v="f3f06dbd4b1f463580a7363e07eb26c7"/>
    <tag k="canvec:VALDATE" v="1989"/>
    <tag k="canvec:datasetName" v="092C16"/>
    <tag k="canvec:entity" v="Named feature - ( Entité nommée )"/>
    <tag k="canvec:entity_definition" v="A feature delineating the extent; in whole or in part; of a toponymic phenomenon for which the geometry does not fully correspond to that of another feature."/>
    <tag k="canvec:generic_code" v="1580009"/>
    <tag k="canvec:source" v="CanVec_Feature_Catalogue_Edition_1_0_2.pdf"/>
    <tag k="created_by" v="canvec2osm"/>
    <tag k="name" v="East Robertson River"/>
    <tag k="name:fr" v="East Robertson River"/>
    <tag k="natural" v="river"/>
    <tag k="source" v="CanVec_Import_2009"/>
  </node>
  <node id="422233298" version="2" timestamp="2009-07-05T13:56:03Z" uid="38528" user="acrosscanadatrails" changeset="1739581" lat="48.7922404" lon="-124.4658676">
    <tag k="attribution" v="Natural Resources Canada"/>
    <tag k="canvec:CODE" v="1580010"/>
    <tag k="canvec:CONCISCODE" v="120 RIV River"/>
    <tag k="canvec:GEONAMEDB" v="CGNDB"/>
    <tag k="canvec:LANGUAGE" v="French unilingual"/>
    <tag k="canvec:NAMEID" v="0c8d58bc849c20c3055208f85ceafc90"/>
    <tag k="canvec:PROVIDER" v="Federal"/>
    <tag k="canvec:Planimetric Accuracy (CMAS)" v="0"/>
    <tag k="canvec:Theme" v="TO Toponymy"/>
    <tag k="canvec:UUID" v="b8f70422062e45ffa9f2710e78dac11c"/>
    <tag k="canvec:VALDATE" v="1989"/>
    <tag k="canvec:datasetName" v="092C16"/>
    <tag k="canvec:entity" v="Named feature - ( Entité nommée )"/>
    <tag k="canvec:entity_definition" v="A feature delineating the extent; in whole or in part; of a toponymic phenomenon for which the geometry does not fully correspond to that of another feature."/>
    <tag k="canvec:generic_code" v="1580009"/>
    <tag k="canvec:source" v="CanVec_Feature_Catalogue_Edition_1_0_2.pdf"/>
    <tag k="created_by" v="canvec2osm"/>
    <tag k="name" v="Caycuse River"/>
    <tag k="name:fr" v="Caycuse River"/>
    <tag k="natural" v="river"/>
    <tag k="source" v="CanVec_Import_2009"/>
  </node>
  <node id="422233298" version="4" timestamp="2009-11-11T17:32:41Z" uid="36809" user="pfoten_weg_!_" changeset="3091919" lat="48.7922404" lon="-124.4658676">
    <tag k="attribution" v="Natural Resources Canada"/>
    <tag k="canvec:CODE" v="1580010"/>
    <tag k="name" v="Caycuse River"/>
    <tag k="name:fr" v="Caycuse River"/>
    <tag k="natural" v="river"/>
    <tag k="source" v="CanVec_Import_2009"/>
  </node>
  <node id="422233303" version="3" timestamp="2009-11-11T17:32:42Z" uid="36809" user="pfoten_weg_!_" changeset="3091919" lat="48.8796018" lon="-124.4800519">
    <tag k="attribution" v="Natural Resources Canada"/>
    <tag k="canvec:CODE" v="1580010"/>
    <tag k="name" v="Mount Vernon"/>
    <tag k="name:fr" v="Mount Vernon"/>
    <tag k="natural" v="peak"/>
    <tag k="place" v="unincorporated_area"/>
    <tag k="source" v="CanVec_Import_2009"/>
  </node>
  <node id="422233304" version="2" timestamp="2009-07-05T14:02:39Z" uid="38528" user="acrosscanadatrails" changeset="1739621" lat="48.920571" lon="-124.0716204">
    <tag k="attribution" v="Natural Resources Canada"/>
    <tag k="canvec:CODE" v="1580010"/>
    <tag k="canvec:CONCISCODE" v="120 RIV River"/>
    <tag k="canvec:GEONAMEDB" v="CGNDB"/>
    <tag k="canvec:LANGUAGE" v="French unilingual"/>
    <tag k="canvec:NAMEID" v="0c9c1280849c20c30b44e24d021b8687"/>
    <tag k="canvec:PROVIDER" v="Federal"/>
    <tag k="canvec:Planimetric Accuracy (CMAS)" v="0"/>
    <tag k="canvec:Theme" v="TO Toponymy"/>
    <tag k="canvec:UUID" v="0024b8e29cda4fc79093fb5612b7041a"/>
    <tag k="canvec:VALDATE" v="1989"/>
    <tag k="canvec:datasetName" v="092C16"/>
    <tag k="canvec:entity" v="Named feature - ( Entité nommée )"/>
    <tag k="canvec:entity_definition" v="A feature delineating the extent; in whole or in part; of a toponymic phenomenon for which the geometry does not fully correspond to that of another feature."/>
    <tag k="canvec:generic_code" v="1580009"/>
    <tag k="canvec:source" v="CanVec_Feature_Catalogue_Edition_1_0_2.pdf"/>
    <tag k="created_by" v="canvec2osm"/>
    <tag k="name" v="Rheinhart Creek"/>
    <tag k="name:fr" v="Rheinhart Creek"/>
    <tag k="natural" v="river"/>
    <tag k="source" v="CanVec_Import_2009"/>
  </node>
  <node id="422233304" version="4" timestamp="2009-11-11T17:33:44Z" uid="36809" user="pfoten_weg_!_" changeset="3091919" lat="48.920571" lon="-124.0716204">
    <tag k="attribution" v="Natural Resources Canada"/>
    <tag k="canvec:CODE" v="1580010"/>
    <tag k="name" v="Rheinhart Creek"/>
    <tag k="name:fr" v="Rheinhart Creek"/>
    <tag k="natural" v="river"/>
    <tag k="source" v="CanVec_Import_2009"/>
  </node>
  <node id="422233306" version="2" timestamp="2009-07-05T14:02:39Z" uid="38528" user="acrosscanadatrails" changeset="1739621" lat="48.832705" lon="-124.1202426">
    <tag k="attribution" v="Natural Resources Canada"/>
    <tag k="canvec:CODE" v="1580010"/>
    <tag k="canvec:CONCISCODE" v="220 BAY Bay"/>
    <tag k="canvec:GEONAMEDB" v="CGNDB"/>
    <tag k="canvec:LANGUAGE" v="French unilingual"/>
    <tag k="canvec:NAMEID" v="0c8f60af849c20c31d50b4c16a5dd5d7"/>
    <tag k="canvec:PROVIDER" v="Federal"/>
    <tag k="canvec:Planimetric Accuracy (CMAS)" v="0"/>
    <tag k="canvec:Theme" v="TO Toponymy"/>
    <tag k="canvec:UUID" v="6a515bb0e88744b7b6bf83550d17b932"/>
    <tag k="canvec:VALDATE" v="1989"/>
    <tag k="canvec:datasetName" v="092C16"/>
    <tag k="canvec:entity" v="Named feature - ( Entité nommée )"/>
    <tag k="canvec:entity_definition" v="A feature delineating the extent; in whole or in part; of a toponymic phenomenon for which the geometry does not fully correspond to that of another feature."/>
    <tag k="canvec:generic_code" v="1580009"/>
    <tag k="canvec:source" v="CanVec_Feature_Catalogue_Edition_1_0_2.pdf"/>
    <tag k="created_by" v="canvec2osm"/>
    <tag k="name" v="Marble Bay"/>
    <tag k="name:fr" v="Marble Bay"/>
    <tag k="natural" v="bay"/>
    <tag k="source" v="CanVec_Import_2009"/>
  </node>
  <node id="422233306" version="4" timestamp="2009-11-11T17:33:05Z" uid="36809" user="pfoten_weg_!_" changeset="3091919" lat="48.832705" lon="-124.1202426">
    <tag k="attribution" v="Natural Resources Canada"/>
    <tag k="canvec:CODE" v="1580010"/>
    <tag k="name" v="Marble Bay"/>
    <tag k="name:fr" v="Marble Bay"/>
    <tag k="natural" v="bay"/>
    <tag k="source" v="CanVec_Import_2009"/>
  </node>
  <node id="422233312" version="2" timestamp="2009-07-05T13:56:03Z" uid="38528" user="acrosscanadatrails" changeset="1739581" lat="48.8653455" lon="-124.4515439">
    <tag k="attribution" v="Natural Resources Canada"/>
    <tag k="canvec:CODE" v="1580010"/>
    <tag k="canvec:CONCISCODE" v="120 RIV River"/>
    <tag k="canvec:GEONAMEDB" v="CGNDB"/>
    <tag k="canvec:LANGUAGE" v="French unilingual"/>
    <tag k="canvec:NAMEID" v="0ca014ef849c20c378be8b433235b78f"/>
    <tag k="canvec:PROVIDER" v="Federal"/>
    <tag k="canvec:Planimetric Accuracy (CMAS)" v="0"/>
    <tag k="canvec:Theme" v="TO Toponymy"/>
    <tag k="canvec:UUID" v="258afcaee6594d90a7bf50612f80a1a8"/>
    <tag k="canvec:VALDATE" v="1989"/>
    <tag k="canvec:datasetName" v="092C16"/>
    <tag k="canvec:entity" v="Named feature - ( Entité nommée )"/>
    <tag k="canvec:entity_definition" v="A feature delineating the extent; in whole or in part; of a toponymic phenomenon for which the geometry does not fully correspond to that of another feature."/>
    <tag k="canvec:generic_code" v="1580009"/>
    <tag k="canvec:source" v="CanVec_Feature_Catalogue_Edition_1_0_2.pdf"/>
    <tag k="created_by" v="canvec2osm"/>
    <tag k="name" v="Raymond Creek"/>
    <tag k="name:fr" v="Raymond Creek"/>
    <tag k="natural" v="river"/>
    <tag k="source" v="CanVec_Import_2009"/>
  </node>
  <node id="422233312" version="4" timestamp="2009-11-11T17:32:51Z" uid="36809" user="pfoten_weg_!_" changeset="3091919" lat="48.8653455" lon="-124.4515439">
    <tag k="attribution" v="Natural Resources Canada"/>
    <tag k="canvec:CODE" v="1580010"/>
    <tag k="name" v="Raymond Creek"/>
    <tag k="name:fr" v="Raymond Creek"/>
    <tag k="natural" v="river"/>
    <tag k="source" v="CanVec_Import_2009"/>
  </node>
  <node id="422233318" version="2" timestamp="2009-07-05T14:02:37Z" uid="38528" user="acrosscanadatrails" changeset="1739621" lat="48.7650906" lon="-124.2187271">
    <tag k="attribution" v="Natural Resources Canada"/>
    <tag k="canvec:CODE" v="1580010"/>
    <tag k="canvec:CONCISCODE" v="120 RIV River"/>
    <tag k="canvec:GEONAMEDB" v="CGNDB"/>
    <tag k="canvec:LANGUAGE" v="French unilingual"/>
    <tag k="canvec:NAMEID" v="0c97cfa1849c20c3670ff05b5c5cdc34"/>
    <tag k="canvec:PROVIDER" v="Federal"/>
    <tag k="canvec:Planimetric Accuracy (CMAS)" v="0"/>
    <tag k="canvec:Theme" v="TO Toponymy"/>
    <tag k="canvec:UUID" v="32ce89321a9e4481b97e60428856ebe9"/>
    <tag k="canvec:VALDATE" v="1989"/>
    <tag k="canvec:datasetName" v="092C16"/>
    <tag k="canvec:entity" v="Named feature - ( Entité nommée )"/>
    <tag k="canvec:entity_definition" v="A feature delineating the extent; in whole or in part; of a toponymic phenomenon for which the geometry does not fully correspond to that of another feature."/>
    <tag k="canvec:generic_code" v="1580009"/>
    <tag k="canvec:source" v="CanVec_Feature_Catalogue_Edition_1_0_2.pdf"/>
    <tag k="created_by" v="canvec2osm"/>
    <tag k="name" v="Nineteen Creek"/>
    <tag k="name:fr" v="Nineteen Creek"/>
    <tag k="natural" v="river"/>
    <tag k="source" v="CanVec_Import_2009"/>
  </node>
  <node id="422233324" version="3" timestamp="2010-02-25T17:20:04Z" uid="38528" user="acrosscanadatrails" changeset="3973558" lat="48.9763639" lon="-124.370357">
    <tag k="attribution" v="Natural Resources Canada"/>
    <tag k="canvec:CODE" v="1580010"/>
    <tag k="name" v="Gillespie Lake"/>
    <tag k="name:fr" v="Gillespie Lake"/>
    <tag k="natural" v="water"/>
    <tag k="source" v="CanVec_Import_2009"/>
  </node>
  <node id="422233330" version="3" timestamp="2009-09-04T17:51:18Z" uid="38528" user="acrosscanadatrails" changeset="2372439" lat="48.8312834" lon="-124.1433465">
    <tag k="attribution" v="Natural Resources Canada"/>
    <tag k="canvec:CODE" v="1580010"/>
    <tag k="created_by" v="canvec2osm"/>
    <tag k="name" v="Cowichan Lake"/>
    <tag k="name:fr" v="Cowichan Lake"/>
    <tag k="natural" v="water"/>
    <tag k="source" v="CanVec_Import_2009"/>
  </node>
  <node id="422233330" version="4" timestamp="2009-11-11T17:33:05Z" uid="36809" user="pfoten_weg_!_" changeset="3091919" lat="48.8312834" lon="-124.1433465">
    <tag k="attribution" v="Natural Resources Canada"/>
    <tag k="canvec:CODE" v="1580010"/>
    <tag k="name" v="Cowichan Lake"/>
    <tag k="name:fr" v="Cowichan Lake"/>
    <tag k="natural" v="water"/>
    <tag k="source" v="CanVec_Import_2009"/>
  </node>
  <node id="422233335" version="2" timestamp="2009-07-05T14:02:37Z" uid="38528" user="acrosscanadatrails" changeset="1739621" lat="48.9287388" lon="-124.1544465">
    <tag k="attribution" v="Natural Resources Canada"/>
    <tag k="canvec:CODE" v="1580010"/>
    <tag k="canvec:CONCISCODE" v="120 RIV River"/>
    <tag k="canvec:GEONAMEDB" v="CGNDB"/>
    <tag k="canvec:LANGUAGE" v="French unilingual"/>
    <tag k="canvec:NAMEID" v="0c9190b9849c20c3dc59f51cae3da767"/>
    <tag k="canvec:PROVIDER" v="Federal"/>
    <tag k="canvec:Planimetric Accuracy (CMAS)" v="0"/>
    <tag k="canvec:Theme" v="TO Toponymy"/>
    <tag k="canvec:UUID" v="976a7454fa94451183905e9ffa74dedf"/>
    <tag k="canvec:VALDATE" v="1989"/>
    <tag k="canvec:datasetName" v="092C16"/>
    <tag k="canvec:entity" v="Named feature - ( Entité nommée )"/>
    <tag k="canvec:entity_definition" v="A feature delineating the extent; in whole or in part; of a toponymic phenomenon for which the geometry does not fully correspond to that of another feature."/>
    <tag k="canvec:generic_code" v="1580009"/>
    <tag k="canvec:source" v="CanVec_Feature_Catalogue_Edition_1_0_2.pdf"/>
    <tag k="created_by" v="canvec2osm"/>
    <tag k="name" v="Harrison Creek"/>
    <tag k="name:fr" v="Harrison Creek"/>
    <tag k="natural" v="river"/>
    <tag k="source" v="CanVec_Import_2009"/>
  </node>
  <node id="422233335" version="4" timestamp="2009-11-11T17:33:41Z" uid="36809" user="pfoten_weg_!_" changeset="3091919" lat="48.9287388" lon="-124.1544465">
    <tag k="attribution" v="Natural Resources Canada"/>
    <tag k="canvec:CODE" v="1580010"/>
    <tag k="name" v="Harrison Creek"/>
    <tag k="name:fr" v="Harrison Creek"/>
    <tag k="natural" v="river"/>
    <tag k="source" v="CanVec_Import_2009"/>
  </node>
  <node id="422233341" version="3" timestamp="2009-11-11T17:33:09Z" uid="36809" user="pfoten_weg_!_" changeset="3091919" lat="48.8222427" lon="-124.03729">
    <tag k="attribution" v="Natural Resources Canada"/>
    <tag k="canvec:CODE" v="1580010"/>
    <tag k="name" v="Kwassin Lake"/>
    <tag k="name:fr" v="Kwassin Lake"/>
    <tag k="natural" v="water"/>
    <tag k="place" v="state"/>
    <tag k="source" v="CanVec_Import_2009"/>
  </node>
  <node id="422233353" version="2" timestamp="2009-07-05T14:02:48Z" uid="38528" user="acrosscanadatrails" changeset="1739621" lat="48.9553393" lon="-124.2669381">
    <tag k="attribution" v="Natural Resources Canada"/>
    <tag k="canvec:CODE" v="1580010"/>
    <tag k="canvec:CONCISCODE" v="120 RIV River"/>
    <tag k="canvec:GEONAMEDB" v="CGNDB"/>
    <tag k="canvec:LANGUAGE" v="French unilingual"/>
    <tag k="canvec:NAMEID" v="0c8ddb9d849c20c340b9e2cae8cd8288"/>
    <tag k="canvec:PROVIDER" v="Federal"/>
    <tag k="canvec:Planimetric Accuracy (CMAS)" v="0"/>
    <tag k="canvec:Theme" v="TO Toponymy"/>
    <tag k="canvec:UUID" v="8a7149820e794ae290beb34a71f022e1"/>
    <tag k="canvec:VALDATE" v="1989"/>
    <tag k="canvec:datasetName" v="092C16"/>
    <tag k="canvec:entity" v="Named feature - ( Entité nommée )"/>
    <tag k="canvec:entity_definition" v="A feature delineating the extent; in whole or in part; of a toponymic phenomenon for which the geometry does not fully correspond to that of another feature."/>
    <tag k="canvec:generic_code" v="1580009"/>
    <tag k="canvec:source" v="CanVec_Feature_Catalogue_Edition_1_0_2.pdf"/>
    <tag k="created_by" v="canvec2osm"/>
    <tag k="name" v="Cottonwood Creek"/>
    <tag k="name:fr" v="Cottonwood Creek"/>
    <tag k="natural" v="river"/>
    <tag k="source" v="CanVec_Import_2009"/>
  </node>
  <node id="422233359" version="3" timestamp="2009-11-11T17:33:03Z" uid="36809" user="pfoten_weg_!_" changeset="3091919" lat="48.8156238" lon="-124.1294175">
    <tag k="attribution" v="Natural Resources Canada"/>
    <tag k="canvec:CODE" v="1580010"/>
    <tag k="name" v="Bear Lake"/>
    <tag k="name:fr" v="Bear Lake"/>
    <tag k="natural" v="water"/>
    <tag k="place" v="state"/>
    <tag k="source" v="CanVec_Import_2009"/>
  </node>
  <node id="422233365" version="2" timestamp="2009-07-05T14:02:47Z" uid="38528" user="acrosscanadatrails" changeset="1739621" lat="48.9840052" lon="-124.4103828">
    <tag k="attribution" v="Natural Resources Canada"/>
    <tag k="canvec:CODE" v="1580010"/>
    <tag k="canvec:CONCISCODE" v="120 RIV River"/>
    <tag k="canvec:GEONAMEDB" v="CGNDB"/>
    <tag k="canvec:LANGUAGE" v="French unilingual"/>
    <tag k="canvec:NAMEID" v="0c98d71d849c20c381d601292f44f0cd"/>
    <tag k="canvec:PROVIDER" v="Federal"/>
    <tag k="canvec:Planimetric Accuracy (CMAS)" v="0"/>
    <tag k="canvec:Theme" v="TO Toponymy"/>
    <tag k="canvec:UUID" v="1785927ee7d14b03a443e1b1ae9dda26"/>
    <tag k="canvec:VALDATE" v="1989"/>
    <tag k="canvec:datasetName" v="092C16"/>
    <tag k="canvec:entity" v="Named feature - ( Entité nommée )"/>
    <tag k="canvec:entity_definition" v="A feature delineating the extent; in whole or in part; of a toponymic phenomenon for which the geometry does not fully correspond to that of another feature."/>
    <tag k="canvec:generic_code" v="1580009"/>
    <tag k="canvec:source" v="CanVec_Feature_Catalogue_Edition_1_0_2.pdf"/>
    <tag k="created_by" v="canvec2osm"/>
    <tag k="name" v="Shaw Creek"/>
    <tag k="name:fr" v="Shaw Creek"/>
    <tag k="natural" v="river"/>
    <tag k="source" v="CanVec_Import_2009"/>
  </node>
  <node id="422233371" version="2" timestamp="2009-07-05T14:02:47Z" uid="38528" user="acrosscanadatrails" changeset="1739621" lat="48.8393099" lon="-124.1003295">
    <tag k="attribution" v="Natural Resources Canada"/>
    <tag k="canvec:CODE" v="1580010"/>
    <tag k="canvec:CONCISCODE" v="120 RIV River"/>
    <tag k="canvec:GEONAMEDB" v="CGNDB"/>
    <tag k="canvec:LANGUAGE" v="French unilingual"/>
    <tag k="canvec:NAMEID" v="0c9e6b2c849c20c3654dc9a0ad223b7f"/>
    <tag k="canvec:PROVIDER" v="Federal"/>
    <tag k="canvec:Planimetric Accuracy (CMAS)" v="0"/>
    <tag k="canvec:Theme" v="TO Toponymy"/>
    <tag k="canvec:UUID" v="97ae3a907fdf4ede9c2a362726016ed1"/>
    <tag k="canvec:VALDATE" v="1989"/>
    <tag k="canvec:datasetName" v="092C16"/>
    <tag k="canvec:entity" v="Named feature - ( Entité nommée )"/>
    <tag k="canvec:entity_definition" v="A feature delineating the extent; in whole or in part; of a toponymic phenomenon for which the geometry does not fully correspond to that of another feature."/>
    <tag k="canvec:generic_code" v="1580009"/>
    <tag k="canvec:source" v="CanVec_Feature_Catalogue_Edition_1_0_2.pdf"/>
    <tag k="created_by" v="canvec2osm"/>
    <tag k="name" v="Meade Creek"/>
    <tag k="name:fr" v="Meade Creek"/>
    <tag k="natural" v="river"/>
    <tag k="source" v="CanVec_Import_2009"/>
  </node>
  <node id="422233371" version="4" timestamp="2009-11-11T17:33:12Z" uid="36809" user="pfoten_weg_!_" changeset="3091919" lat="48.8393099" lon="-124.1003295">
    <tag k="attribution" v="Natural Resources Canada"/>
    <tag k="canvec:CODE" v="1580010"/>
    <tag k="name" v="Meade Creek"/>
    <tag k="name:fr" v="Meade Creek"/>
    <tag k="natural" v="river"/>
    <tag k="source" v="CanVec_Import_2009"/>
  </node>
  <node id="422233383" version="2" timestamp="2009-07-05T14:02:47Z" uid="38528" user="acrosscanadatrails" changeset="1739621" lat="48.9936849" lon="-124.3208881">
    <tag k="attribution" v="Natural Resources Canada"/>
    <tag k="canvec:CODE" v="1580010"/>
    <tag k="canvec:CONCISCODE" v="120 RIV River"/>
    <tag k="canvec:GEONAMEDB" v="CGNDB"/>
    <tag k="canvec:LANGUAGE" v="French unilingual"/>
    <tag k="canvec:NAMEID" v="0c95b5c7849c20c31735cf76b36a2bd0"/>
    <tag k="canvec:PROVIDER" v="Federal"/>
    <tag k="canvec:Planimetric Accuracy (CMAS)" v="0"/>
    <tag k="canvec:Theme" v="TO Toponymy"/>
    <tag k="canvec:UUID" v="c47331bdce5e4aa9b3bd625ee0a99339"/>
    <tag k="canvec:VALDATE" v="1989"/>
    <tag k="canvec:datasetName" v="092C16"/>
    <tag k="canvec:entity" v="Named feature - ( Entité nommée )"/>
    <tag k="canvec:entity_definition" v="A feature delineating the extent; in whole or in part; of a toponymic phenomenon for which the geometry does not fully correspond to that of another feature."/>
    <tag k="canvec:generic_code" v="1580009"/>
    <tag k="canvec:source" v="CanVec_Feature_Catalogue_Edition_1_0_2.pdf"/>
    <tag k="created_by" v="canvec2osm"/>
    <tag k="name" v="Jump Creek"/>
    <tag k="name:fr" v="Jump Creek"/>
    <tag k="natural" v="river"/>
    <tag k="source" v="CanVec_Import_2009"/>
  </node>
  <node id="422233389" version="2" timestamp="2009-07-05T13:56:04Z" uid="38528" user="acrosscanadatrails" changeset="1739581" lat="48.7560296" lon="-124.4869803">
    <tag k="attribution" v="Natural Resources Canada"/>
    <tag k="canvec:CODE" v="1580010"/>
    <tag k="canvec:CONCISCODE" v="120 RIV River"/>
    <tag k="canvec:GEONAMEDB" v="CGNDB"/>
    <tag k="canvec:LANGUAGE" v="French unilingual"/>
    <tag k="canvec:NAMEID" v="0c8d58bc849c20c3055208f85ceafc90"/>
    <tag k="canvec:PROVIDER" v="Federal"/>
    <tag k="canvec:Planimetric Accuracy (CMAS)" v="0"/>
    <tag k="canvec:Theme" v="TO Toponymy"/>
    <tag k="canvec:UUID" v="f834bc58a8ce463d8d3378fc236d98c8"/>
    <tag k="canvec:VALDATE" v="1989"/>
    <tag k="canvec:datasetName" v="092C16"/>
    <tag k="canvec:entity" v="Named feature - ( Entité nommée )"/>
    <tag k="canvec:entity_definition" v="A feature delineating the extent; in whole or in part; of a toponymic phenomenon for which the geometry does not fully correspond to that of another feature."/>
    <tag k="canvec:generic_code" v="1580009"/>
    <tag k="canvec:source" v="CanVec_Feature_Catalogue_Edition_1_0_2.pdf"/>
    <tag k="created_by" v="canvec2osm"/>
    <tag k="name" v="Caycuse River"/>
    <tag k="name:fr" v="Caycuse River"/>
    <tag k="natural" v="river"/>
    <tag k="source" v="CanVec_Import_2009"/>
  </node>
  <node id="422233396" version="3" timestamp="2009-09-04T17:51:18Z" uid="38528" user="acrosscanadatrails" changeset="2372439" lat="48.8401249" lon="-124.1653707">
    <tag k="attribution" v="Natural Resources Canada"/>
    <tag k="canvec:CODE" v="1580010"/>
    <tag k="created_by" v="canvec2osm"/>
    <tag k="name" v="Bald Mountain"/>
    <tag k="name:fr" v="Bald Mountain"/>
    <tag k="natural" v="peak"/>
    <tag k="source" v="CanVec_Import_2009"/>
  </node>
  <node id="422233396" version="4" timestamp="2009-11-11T17:33:04Z" uid="36809" user="pfoten_weg_!_" changeset="3091919" lat="48.8401249" lon="-124.1653707">
    <tag k="attribution" v="Natural Resources Canada"/>
    <tag k="canvec:CODE" v="1580010"/>
    <tag k="name" v="Bald Mountain"/>
    <tag k="name:fr" v="Bald Mountain"/>
    <tag k="natural" v="peak"/>
    <tag k="source" v="CanVec_Import_2009"/>
  </node>
  <node id="422233416" version="2" timestamp="2009-07-05T14:02:47Z" uid="38528" user="acrosscanadatrails" changeset="1739621" lat="48.902475" lon="-124.2356955">
    <tag k="attribution" v="Natural Resources Canada"/>
    <tag k="canvec:CODE" v="1580010"/>
    <tag k="canvec:CONCISCODE" v="120 RIV River"/>
    <tag k="canvec:GEONAMEDB" v="CGNDB"/>
    <tag k="canvec:LANGUAGE" v="French unilingual"/>
    <tag k="canvec:NAMEID" v="0c9eee52849c20c3d669f33c6496cf67"/>
    <tag k="canvec:PROVIDER" v="Federal"/>
    <tag k="canvec:Planimetric Accuracy (CMAS)" v="0"/>
    <tag k="canvec:Theme" v="TO Toponymy"/>
    <tag k="canvec:UUID" v="15bbee86e01a4117b37429c0ef3a6c45"/>
    <tag k="canvec:VALDATE" v="1989"/>
    <tag k="canvec:datasetName" v="092C16"/>
    <tag k="canvec:entity" v="Named feature - ( Entité nommée )"/>
    <tag k="canvec:entity_definition" v="A feature delineating the extent; in whole or in part; of a toponymic phenomenon for which the geometry does not fully correspond to that of another feature."/>
    <tag k="canvec:generic_code" v="1580009"/>
    <tag k="canvec:source" v="CanVec_Feature_Catalogue_Edition_1_0_2.pdf"/>
    <tag k="created_by" v="canvec2osm"/>
    <tag k="name" v="Widow Creek"/>
    <tag k="name:fr" v="Widow Creek"/>
    <tag k="natural" v="river"/>
    <tag k="source" v="CanVec_Import_2009"/>
  </node>
  <node id="422233416" version="4" timestamp="2009-11-11T17:33:26Z" uid="36809" user="pfoten_weg_!_" changeset="3091919" lat="48.902475" lon="-124.2356955">
    <tag k="attribution" v="Natural Resources Canada"/>
    <tag k="canvec:CODE" v="1580010"/>
    <tag k="name" v="Widow Creek"/>
    <tag k="name:fr" v="Widow Creek"/>
    <tag k="natural" v="river"/>
    <tag k="source" v="CanVec_Import_2009"/>
  </node>
  <node id="422233417" version="2" timestamp="2009-07-05T14:02:47Z" uid="38528" user="acrosscanadatrails" changeset="1739621" lat="48.9971377" lon="-124.283081">
    <tag k="attribution" v="Natural Resources Canada"/>
    <tag k="canvec:CODE" v="1580010"/>
    <tag k="canvec:CONCISCODE" v="120 RIV River"/>
    <tag k="canvec:GEONAMEDB" v="CGNDB"/>
    <tag k="canvec:LANGUAGE" v="French unilingual"/>
    <tag k="canvec:NAMEID" v="0c95b5c7849c20c31735cf76b36a2bd0"/>
    <tag k="canvec:PROVIDER" v="Federal"/>
    <tag k="canvec:Planimetric Accuracy (CMAS)" v="0"/>
    <tag k="canvec:Theme" v="TO Toponymy"/>
    <tag k="canvec:UUID" v="4bb217c9a46649e68b109c5c8e95e836"/>
    <tag k="canvec:VALDATE" v="1989"/>
    <tag k="canvec:datasetName" v="092C16"/>
    <tag k="canvec:entity" v="Named feature - ( Entité nommée )"/>
    <tag k="canvec:entity_definition" v="A feature delineating the extent; in whole or in part; of a toponymic phenomenon for which the geometry does not fully correspond to that of another feature."/>
    <tag k="canvec:generic_code" v="1580009"/>
    <tag k="canvec:source" v="CanVec_Feature_Catalogue_Edition_1_0_2.pdf"/>
    <tag k="created_by" v="canvec2osm"/>
    <tag k="name" v="Jump Creek"/>
    <tag k="name:fr" v="Jump Creek"/>
    <tag k="natural" v="river"/>
    <tag k="source" v="CanVec_Import_2009"/>
  </node>
  <node id="422233418" version="2" timestamp="2009-06-17T06:59:54Z" uid="38528" user="acrosscanadatrails" changeset="1542211" lat="48.8339443" lon="-124.1990254">
    <tag k="attribution" v="Natural Resources Canada"/>
    <tag k="canvec:CODE" v="1580010"/>
    <tag k="canvec:CONCISCODE" v="110 PARK Conservation area"/>
    <tag k="canvec:GEONAMEDB" v="CGNDB"/>
    <tag k="canvec:LANGUAGE" v="French unilingual"/>
    <tag k="canvec:NAMEID" v="0c949b0b849c20c32a922550a7977c60"/>
    <tag k="canvec:PROVIDER" v="Federal"/>
    <tag k="canvec:Planimetric Accuracy (CMAS)" v="0"/>
    <tag k="canvec:Theme" v="TO Toponymy"/>
    <tag k="canvec:UUID" v="2b18ebf81fd94c258100dceefdce23e6"/>
    <tag k="canvec:VALDATE" v="1989"/>
    <tag k="canvec:datasetName" v="092C16"/>
    <tag k="canvec:entity" v="Named feature - ( Entité nommée )"/>
    <tag k="canvec:entity_definition" v="A feature delineating the extent; in whole or in part; of a toponymic phenomenon for which the geometry does not fully correspond to that of another feature."/>
    <tag k="canvec:generic_code" v="1580009"/>
    <tag k="canvec:source" v="CanVec_Feature_Catalogue_Edition_1_0_2.pdf"/>
    <tag k="created_by" v="canvec2osm"/>
    <tag k="leisure" v="nature_reserve"/>
    <tag k="name" v="Gordon Bay Park"/>
    <tag k="name:fr" v="Gordon Bay Park"/>
    <tag k="natural" v="feature"/>
    <tag k="source" v="CanVec_Import_2009"/>
  </node>
  <node id="422233418" version="4" timestamp="2009-11-11T17:32:58Z" uid="36809" user="pfoten_weg_!_" changeset="3091919" lat="48.8339443" lon="-124.1990254">
    <tag k="attribution" v="Natural Resources Canada"/>
    <tag k="canvec:CODE" v="1580010"/>
    <tag k="leisure" v="nature_reserve"/>
    <tag k="name" v="Gordon Bay Park"/>
    <tag k="name:fr" v="Gordon Bay Park"/>
    <tag k="natural" v="feature"/>
    <tag k="source" v="CanVec_Import_2009"/>
  </node>
  <node id="422233423" version="2" timestamp="2009-07-05T14:02:46Z" uid="38528" user="acrosscanadatrails" changeset="1739621" lat="48.81285" lon="-124.1345525">
    <tag k="attribution" v="Natural Resources Canada"/>
    <tag k="canvec:CODE" v="1580010"/>
    <tag k="canvec:CONCISCODE" v="120 RIV River"/>
    <tag k="canvec:GEONAMEDB" v="CGNDB"/>
    <tag k="canvec:LANGUAGE" v="French unilingual"/>
    <tag k="canvec:NAMEID" v="df9ccd09c6cd11d892e2080020a0f4c9"/>
    <tag k="canvec:PROVIDER" v="Federal"/>
    <tag k="canvec:Planimetric Accuracy (CMAS)" v="0"/>
    <tag k="canvec:Theme" v="TO Toponymy"/>
    <tag k="canvec:UUID" v="d1bc7355c2734aeea0c84d32e595b6a6"/>
    <tag k="canvec:VALDATE" v="1989"/>
    <tag k="canvec:datasetName" v="092C16"/>
    <tag k="canvec:entity" v="Named feature - ( Entité nommée )"/>
    <tag k="canvec:entity_definition" v="A feature delineating the extent; in whole or in part; of a toponymic phenomenon for which the geometry does not fully correspond to that of another feature."/>
    <tag k="canvec:generic_code" v="1580009"/>
    <tag k="canvec:source" v="CanVec_Feature_Catalogue_Edition_1_0_2.pdf"/>
    <tag k="created_by" v="canvec2osm"/>
    <tag k="name" v="Robertson River"/>
    <tag k="name:fr" v="Robertson River"/>
    <tag k="natural" v="river"/>
    <tag k="source" v="CanVec_Import_2009"/>
  </node>
  <node id="422233423" version="4" timestamp="2009-11-11T17:33:03Z" uid="36809" user="pfoten_weg_!_" changeset="3091919" lat="48.81285" lon="-124.1345525">
    <tag k="attribution" v="Natural Resources Canada"/>
    <tag k="canvec:CODE" v="1580010"/>
    <tag k="name" v="Robertson River"/>
    <tag k="name:fr" v="Robertson River"/>
    <tag k="natural" v="river"/>
    <tag k="source" v="CanVec_Import_2009"/>
  </node>
  <node id="422233429" version="2" timestamp="2009-07-05T14:02:45Z" uid="38528" user="acrosscanadatrails" changeset="1739621" lat="48.9914649" lon="-124.0963186">
    <tag k="attribution" v="Natural Resources Canada"/>
    <tag k="canvec:CODE" v="1580010"/>
    <tag k="canvec:CONCISCODE" v="120 RIV River"/>
    <tag k="canvec:GEONAMEDB" v="CGNDB"/>
    <tag k="canvec:LANGUAGE" v="French unilingual"/>
    <tag k="canvec:NAMEID" v="f497bdf3c6cd11d892e2080020a0f4c9"/>
    <tag k="canvec:PROVIDER" v="Federal"/>
    <tag k="canvec:Planimetric Accuracy (CMAS)" v="0"/>
    <tag k="canvec:Theme" v="TO Toponymy"/>
    <tag k="canvec:UUID" v="077ddfc5b5354f00bea336e361f50ad6"/>
    <tag k="canvec:VALDATE" v="1989"/>
    <tag k="canvec:datasetName" v="092C16"/>
    <tag k="canvec:entity" v="Named feature - ( Entité nommée )"/>
    <tag k="canvec:entity_definition" v="A feature delineating the extent; in whole or in part; of a toponymic phenomenon for which the geometry does not fully correspond to that of another feature."/>
    <tag k="canvec:generic_code" v="1580009"/>
    <tag k="canvec:source" v="CanVec_Feature_Catalogue_Edition_1_0_2.pdf"/>
    <tag k="created_by" v="canvec2osm"/>
    <tag k="name" v="Whisky-jack Creek"/>
    <tag k="name:fr" v="Whisky-jack Creek"/>
    <tag k="natural" v="river"/>
    <tag k="source" v="CanVec_Import_2009"/>
  </node>
  <node id="422233435" version="2" timestamp="2009-07-05T14:02:46Z" uid="38528" user="acrosscanadatrails" changeset="1739621" lat="48.7622444" lon="-124.1013975">
    <tag k="attribution" v="Natural Resources Canada"/>
    <tag k="canvec:CODE" v="1580010"/>
    <tag k="canvec:CONCISCODE" v="120 RIV River"/>
    <tag k="canvec:GEONAMEDB" v="CGNDB"/>
    <tag k="canvec:LANGUAGE" v="French unilingual"/>
    <tag k="canvec:NAMEID" v="0c8b42c7849c20c3cee9dfe6fb05fb81"/>
    <tag k="canvec:PROVIDER" v="Federal"/>
    <tag k="canvec:Planimetric Accuracy (CMAS)" v="0"/>
    <tag k="canvec:Theme" v="TO Toponymy"/>
    <tag k="canvec:UUID" v="a1dc80549ff94ebb9cb8f4296e16de7d"/>
    <tag k="canvec:VALDATE" v="1989"/>
    <tag k="canvec:datasetName" v="092C16"/>
    <tag k="canvec:entity" v="Named feature - ( Entité nommée )"/>
    <tag k="canvec:entity_definition" v="A feature delineating the extent; in whole or in part; of a toponymic phenomenon for which the geometry does not fully correspond to that of another feature."/>
    <tag k="canvec:generic_code" v="1580009"/>
    <tag k="canvec:source" v="CanVec_Feature_Catalogue_Edition_1_0_2.pdf"/>
    <tag k="created_by" v="canvec2osm"/>
    <tag k="name" v="East Robertson River"/>
    <tag k="name:fr" v="East Robertson River"/>
    <tag k="natural" v="river"/>
    <tag k="source" v="CanVec_Import_2009"/>
  </node>
  <node id="422233441" version="2" timestamp="2009-07-05T14:02:45Z" uid="38528" user="acrosscanadatrails" changeset="1739621" lat="48.8367255" lon="-124.0615656">
    <tag k="attribution" v="Natural Resources Canada"/>
    <tag k="canvec:CODE" v="1580010"/>
    <tag k="canvec:CONCISCODE" v="120 RIV River"/>
    <tag k="canvec:GEONAMEDB" v="CGNDB"/>
    <tag k="canvec:LANGUAGE" v="French unilingual"/>
    <tag k="canvec:NAMEID" v="0c9bcf63849c20c309db9a310eca3f89"/>
    <tag k="canvec:PROVIDER" v="Federal"/>
    <tag k="canvec:Planimetric Accuracy (CMAS)" v="0"/>
    <tag k="canvec:Theme" v="TO Toponymy"/>
    <tag k="canvec:UUID" v="d1f6cfa28be94b448375c9739ab1faf9"/>
    <tag k="canvec:VALDATE" v="1989"/>
    <tag k="canvec:datasetName" v="092C16"/>
    <tag k="canvec:entity" v="Named feature - ( Entité nommée )"/>
    <tag k="canvec:entity_definition" v="A feature delineating the extent; in whole or in part; of a toponymic phenomenon for which the geometry does not fully correspond to that of another feature."/>
    <tag k="canvec:generic_code" v="1580009"/>
    <tag k="canvec:source" v="CanVec_Feature_Catalogue_Edition_1_0_2.pdf"/>
    <tag k="created_by" v="canvec2osm"/>
    <tag k="name" v="Oliver Creek"/>
    <tag k="name:fr" v="Oliver Creek"/>
    <tag k="natural" v="river"/>
    <tag k="source" v="CanVec_Import_2009"/>
  </node>
  <node id="422233441" version="4" timestamp="2009-11-11T17:33:14Z" uid="36809" user="pfoten_weg_!_" changeset="3091919" lat="48.8367255" lon="-124.0615656">
    <tag k="attribution" v="Natural Resources Canada"/>
    <tag k="canvec:CODE" v="1580010"/>
    <tag k="name" v="Oliver Creek"/>
    <tag k="name:fr" v="Oliver Creek"/>
    <tag k="natural" v="river"/>
    <tag k="source" v="CanVec_Import_2009"/>
  </node>
  <node id="422233446" version="3" timestamp="2009-11-11T17:33:03Z" uid="36809" user="pfoten_weg_!_" changeset="3091919" lat="48.8092745" lon="-124.1230715">
    <tag k="attribution" v="Natural Resources Canada"/>
    <tag k="canvec:CODE" v="1580010"/>
    <tag k="name" v="Mesachie Lake"/>
    <tag k="name:fr" v="Mesachie Lake"/>
    <tag k="natural" v="feature"/>
    <tag k="place" v="unincorporated_area"/>
    <tag k="source" v="CanVec_Import_2009"/>
  </node>
  <node id="422233452" version="2" timestamp="2009-07-05T14:02:45Z" uid="38528" user="acrosscanadatrails" changeset="1739621" lat="48.8280142" lon="-124.30303">
    <tag k="attribution" v="Natural Resources Canada"/>
    <tag k="canvec:CODE" v="1580010"/>
    <tag k="canvec:CONCISCODE" v="120 RIV River"/>
    <tag k="canvec:GEONAMEDB" v="CGNDB"/>
    <tag k="canvec:LANGUAGE" v="French unilingual"/>
    <tag k="canvec:NAMEID" v="0cfd565b849c20c3d58b8c8603cbbc5e"/>
    <tag k="canvec:PROVIDER" v="Federal"/>
    <tag k="canvec:Planimetric Accuracy (CMAS)" v="0"/>
    <tag k="canvec:Theme" v="TO Toponymy"/>
    <tag k="canvec:UUID" v="48e4b13c8a974d9fb5b82877dbaa7609"/>
    <tag k="canvec:VALDATE" v="1989"/>
    <tag k="canvec:datasetName" v="092C16"/>
    <tag k="canvec:entity" v="Named feature - ( Entité nommée )"/>
    <tag k="canvec:entity_definition" v="A feature delineating the extent; in whole or in part; of a toponymic phenomenon for which the geometry does not fully correspond to that of another feature."/>
    <tag k="canvec:generic_code" v="1580009"/>
    <tag k="canvec:source" v="CanVec_Feature_Catalogue_Edition_1_0_2.pdf"/>
    <tag k="created_by" v="canvec2osm"/>
    <tag k="name" v="Sutton Creek"/>
    <tag k="name:fr" v="Sutton Creek"/>
    <tag k="natural" v="river"/>
    <tag k="source" v="CanVec_Import_2009"/>
  </node>
  <node id="422233452" version="4" timestamp="2009-11-11T17:32:55Z" uid="36809" user="pfoten_weg_!_" changeset="3091919" lat="48.8280142" lon="-124.30303">
    <tag k="attribution" v="Natural Resources Canada"/>
    <tag k="canvec:CODE" v="1580010"/>
    <tag k="name" v="Sutton Creek"/>
    <tag k="name:fr" v="Sutton Creek"/>
    <tag k="natural" v="river"/>
    <tag k="source" v="CanVec_Import_2009"/>
  </node>
  <node id="422233459" version="2" timestamp="2009-07-05T14:02:45Z" uid="38528" user="acrosscanadatrails" changeset="1739621" lat="48.9207346" lon="-124.4083203">
    <tag k="attribution" v="Natural Resources Canada"/>
    <tag k="canvec:CODE" v="1580010"/>
    <tag k="canvec:CONCISCODE" v="120 RIV River"/>
    <tag k="canvec:GEONAMEDB" v="CGNDB"/>
    <tag k="canvec:LANGUAGE" v="French unilingual"/>
    <tag k="canvec:NAMEID" v="0c98d71d849c20c381d601292f44f0cd"/>
    <tag k="canvec:PROVIDER" v="Federal"/>
    <tag k="canvec:Planimetric Accuracy (CMAS)" v="0"/>
    <tag k="canvec:Theme" v="TO Toponymy"/>
    <tag k="canvec:UUID" v="8127a2fcc0ec498088d46ed86d3a13b2"/>
    <tag k="canvec:VALDATE" v="1989"/>
    <tag k="canvec:datasetName" v="092C16"/>
    <tag k="canvec:entity" v="Named feature - ( Entité nommée )"/>
    <tag k="canvec:entity_definition" v="A feature delineating the extent; in whole or in part; of a toponymic phenomenon for which the geometry does not fully correspond to that of another feature."/>
    <tag k="canvec:generic_code" v="1580009"/>
    <tag k="canvec:source" v="CanVec_Feature_Catalogue_Edition_1_0_2.pdf"/>
    <tag k="created_by" v="canvec2osm"/>
    <tag k="name" v="Shaw Creek"/>
    <tag k="name:fr" v="Shaw Creek"/>
    <tag k="natural" v="river"/>
    <tag k="source" v="CanVec_Import_2009"/>
  </node>
  <node id="422233459" version="4" timestamp="2009-11-11T17:33:24Z" uid="36809" user="pfoten_weg_!_" changeset="3091919" lat="48.9207346" lon="-124.4083203">
    <tag k="attribution" v="Natural Resources Canada"/>
    <tag k="canvec:CODE" v="1580010"/>
    <tag k="name" v="Shaw Creek"/>
    <tag k="name:fr" v="Shaw Creek"/>
    <tag k="natural" v="river"/>
    <tag k="source" v="CanVec_Import_2009"/>
  </node>
  <node id="422233465" version="2" timestamp="2009-07-05T14:02:45Z" uid="38528" user="acrosscanadatrails" changeset="1739621" lat="48.8542201" lon="-124.1442814">
    <tag k="attribution" v="Natural Resources Canada"/>
    <tag k="canvec:CODE" v="1580010"/>
    <tag k="canvec:CONCISCODE" v="220 BAY Bay"/>
    <tag k="canvec:GEONAMEDB" v="CGNDB"/>
    <tag k="canvec:LANGUAGE" v="French unilingual"/>
    <tag k="canvec:NAMEID" v="0c9a4698849c20c34b931ed191a82429"/>
    <tag k="canvec:PROVIDER" v="Federal"/>
    <tag k="canvec:Planimetric Accuracy (CMAS)" v="0"/>
    <tag k="canvec:Theme" v="TO Toponymy"/>
    <tag k="canvec:UUID" v="e96d7516957a4e579d1eb4df3e073cda"/>
    <tag k="canvec:VALDATE" v="1989"/>
    <tag k="canvec:datasetName" v="092C16"/>
    <tag k="canvec:entity" v="Named feature - ( Entité nommée )"/>
    <tag k="canvec:entity_definition" v="A feature delineating the extent; in whole or in part; of a toponymic phenomenon for which the geometry does not fully correspond to that of another feature."/>
    <tag k="canvec:generic_code" v="1580009"/>
    <tag k="canvec:source" v="CanVec_Feature_Catalogue_Edition_1_0_2.pdf"/>
    <tag k="created_by" v="canvec2osm"/>
    <tag k="name" v="North Arm"/>
    <tag k="name:fr" v="North Arm"/>
    <tag k="natural" v="bay"/>
    <tag k="source" v="CanVec_Import_2009"/>
  </node>
  <node id="422233465" version="4" timestamp="2009-11-11T17:33:06Z" uid="36809" user="pfoten_weg_!_" changeset="3091919" lat="48.8542201" lon="-124.1442814">
    <tag k="attribution" v="Natural Resources Canada"/>
    <tag k="canvec:CODE" v="1580010"/>
    <tag k="name" v="North Arm"/>
    <tag k="name:fr" v="North Arm"/>
    <tag k="natural" v="bay"/>
    <tag k="source" v="CanVec_Import_2009"/>
  </node>
  <node id="422233471" version="2" timestamp="2009-07-05T14:02:45Z" uid="38528" user="acrosscanadatrails" changeset="1739621" lat="48.9257598" lon="-124.2903716">
    <tag k="attribution" v="Natural Resources Canada"/>
    <tag k="canvec:CODE" v="1580010"/>
    <tag k="canvec:CONCISCODE" v="120 RIV River"/>
    <tag k="canvec:GEONAMEDB" v="CGNDB"/>
    <tag k="canvec:LANGUAGE" v="French unilingual"/>
    <tag k="canvec:NAMEID" v="0c9c27e2849c20c3d44520cb5be3008d"/>
    <tag k="canvec:PROVIDER" v="Federal"/>
    <tag k="canvec:Planimetric Accuracy (CMAS)" v="0"/>
    <tag k="canvec:Theme" v="TO Toponymy"/>
    <tag k="canvec:UUID" v="26ef8b4238a741249be9aefa270b27df"/>
    <tag k="canvec:VALDATE" v="1989"/>
    <tag k="canvec:datasetName" v="092C16"/>
    <tag k="canvec:entity" v="Named feature - ( Entité nommée )"/>
    <tag k="canvec:entity_definition" v="A feature delineating the extent; in whole or in part; of a toponymic phenomenon for which the geometry does not fully correspond to that of another feature."/>
    <tag k="canvec:generic_code" v="1580009"/>
    <tag k="canvec:source" v="CanVec_Feature_Catalogue_Edition_1_0_2.pdf"/>
    <tag k="created_by" v="canvec2osm"/>
    <tag k="name" v="Wardroper Creek"/>
    <tag k="name:fr" v="Wardroper Creek"/>
    <tag k="natural" v="river"/>
    <tag k="source" v="CanVec_Import_2009"/>
  </node>
  <node id="422233471" version="4" timestamp="2009-11-11T17:33:25Z" uid="36809" user="pfoten_weg_!_" changeset="3091919" lat="48.9257598" lon="-124.2903716">
    <tag k="attribution" v="Natural Resources Canada"/>
    <tag k="canvec:CODE" v="1580010"/>
    <tag k="name" v="Wardroper Creek"/>
    <tag k="name:fr" v="Wardroper Creek"/>
    <tag k="natural" v="river"/>
    <tag k="source" v="CanVec_Import_2009"/>
  </node>
  <node id="422233477" version="2" timestamp="2009-07-05T14:02:44Z" uid="38528" user="acrosscanadatrails" changeset="1739621" lat="48.8602962" lon="-124.3821422">
    <tag k="attribution" v="Natural Resources Canada"/>
    <tag k="canvec:CODE" v="1580010"/>
    <tag k="canvec:CONCISCODE" v="120 RIV River"/>
    <tag k="canvec:GEONAMEDB" v="CGNDB"/>
    <tag k="canvec:LANGUAGE" v="French unilingual"/>
    <tag k="canvec:NAMEID" v="0c949dd9849c20c358a6e7dfc88e65ac"/>
    <tag k="canvec:PROVIDER" v="Federal"/>
    <tag k="canvec:Planimetric Accuracy (CMAS)" v="0"/>
    <tag k="canvec:Theme" v="TO Toponymy"/>
    <tag k="canvec:UUID" v="d54c7165c3e84abf82b42bf9ecf8c8eb"/>
    <tag k="canvec:VALDATE" v="1989"/>
    <tag k="canvec:datasetName" v="092C16"/>
    <tag k="canvec:entity" v="Named feature - ( Entité nommée )"/>
    <tag k="canvec:entity_definition" v="A feature delineating the extent; in whole or in part; of a toponymic phenomenon for which the geometry does not fully correspond to that of another feature."/>
    <tag k="canvec:generic_code" v="1580009"/>
    <tag k="canvec:source" v="CanVec_Feature_Catalogue_Edition_1_0_2.pdf"/>
    <tag k="created_by" v="canvec2osm"/>
    <tag k="name" v="Gordon River"/>
    <tag k="name:fr" v="Gordon River"/>
    <tag k="natural" v="river"/>
    <tag k="source" v="CanVec_Import_2009"/>
  </node>
  <node id="422233477" version="4" timestamp="2009-11-11T17:32:53Z" uid="36809" user="pfoten_weg_!_" changeset="3091919" lat="48.8602962" lon="-124.3821422">
    <tag k="attribution" v="Natural Resources Canada"/>
    <tag k="canvec:CODE" v="1580010"/>
    <tag k="name" v="Gordon River"/>
    <tag k="name:fr" v="Gordon River"/>
    <tag k="natural" v="river"/>
    <tag k="source" v="CanVec_Import_2009"/>
  </node>
  <node id="422233483" version="2" timestamp="2009-07-05T13:56:04Z" uid="38528" user="acrosscanadatrails" changeset="1739581" lat="48.8713502" lon="-124.4970903">
    <tag k="attribution" v="Natural Resources Canada"/>
    <tag k="canvec:CODE" v="1580010"/>
    <tag k="canvec:CONCISCODE" v="120 RIV River"/>
    <tag k="canvec:GEONAMEDB" v="CGNDB"/>
    <tag k="canvec:LANGUAGE" v="French unilingual"/>
    <tag k="canvec:NAMEID" v="0ca014ef849c20c378be8b433235b78f"/>
    <tag k="canvec:PROVIDER" v="Federal"/>
    <tag k="canvec:Planimetric Accuracy (CMAS)" v="0"/>
    <tag k="canvec:Theme" v="TO Toponymy"/>
    <tag k="canvec:UUID" v="a0d494a844ce4408b1947de166732aaf"/>
    <tag k="canvec:VALDATE" v="1989"/>
    <tag k="canvec:datasetName" v="092C16"/>
    <tag k="canvec:entity" v="Named feature - ( Entité nommée )"/>
    <tag k="canvec:entity_definition" v="A feature delineating the extent; in whole or in part; of a toponymic phenomenon for which the geometry does not fully correspond to that of another feature."/>
    <tag k="canvec:generic_code" v="1580009"/>
    <tag k="canvec:source" v="CanVec_Feature_Catalogue_Edition_1_0_2.pdf"/>
    <tag k="created_by" v="canvec2osm"/>
    <tag k="name" v="Raymond Creek"/>
    <tag k="name:fr" v="Raymond Creek"/>
    <tag k="natural" v="river"/>
    <tag k="source" v="CanVec_Import_2009"/>
  </node>
  <node id="422233489" version="3" timestamp="2009-11-11T17:33:00Z" uid="36809" user="pfoten_weg_!_" changeset="3091919" lat="48.816685" lon="-124.1752425">
    <tag k="attribution" v="Natural Resources Canada"/>
    <tag k="canvec:CODE" v="1580010"/>
    <tag k="name" v="Honeymoon Bay"/>
    <tag k="name:fr" v="Honeymoon Bay"/>
    <tag k="natural" v="feature"/>
    <tag k="place" v="unincorporated_area"/>
    <tag k="source" v="CanVec_Import_2009"/>
  </node>
  <node id="422233494" version="3" timestamp="2009-11-11T17:33:07Z" uid="36809" user="pfoten_weg_!_" changeset="3091919" lat="48.8132896" lon="-124.0794936">
    <tag k="attribution" v="Natural Resources Canada"/>
    <tag k="canvec:CODE" v="1580010"/>
    <tag k="name" v="Beaver Lake"/>
    <tag k="name:fr" v="Beaver Lake"/>
    <tag k="natural" v="water"/>
    <tag k="place" v="state"/>
    <tag k="source" v="CanVec_Import_2009"/>
  </node>
  <node id="422233494" version="4" timestamp="2010-02-25T17:13:04Z" uid="38528" user="acrosscanadatrails" changeset="3973496" lat="48.8132897" lon="-124.0794937">
    <tag k="attribution" v="Natural Resources Canada"/>
    <tag k="canvec:CODE" v="1580010"/>
    <tag k="name" v="Beaver Lake"/>
    <tag k="name:fr" v="Beaver Lake"/>
    <tag k="natural" v="water"/>
    <tag k="source" v="CanVec_Import_2009"/>
  </node>
  <node id="422233500" version="2" timestamp="2009-07-05T14:02:44Z" uid="38528" user="acrosscanadatrails" changeset="1739621" lat="48.9190783" lon="-124.324265">
    <tag k="attribution" v="Natural Resources Canada"/>
    <tag k="canvec:CODE" v="1580010"/>
    <tag k="canvec:CONCISCODE" v="120 RIV River"/>
    <tag k="canvec:GEONAMEDB" v="CGNDB"/>
    <tag k="canvec:LANGUAGE" v="French unilingual"/>
    <tag k="canvec:NAMEID" v="0c9c9445849c20c33a47ce3d30b24729"/>
    <tag k="canvec:PROVIDER" v="Federal"/>
    <tag k="canvec:Planimetric Accuracy (CMAS)" v="0"/>
    <tag k="canvec:Theme" v="TO Toponymy"/>
    <tag k="canvec:UUID" v="2a9a9dee24cc42f19edc108027b91934"/>
    <tag k="canvec:VALDATE" v="1989"/>
    <tag k="canvec:datasetName" v="092C16"/>
    <tag k="canvec:entity" v="Named feature - ( Entité nommée )"/>
    <tag k="canvec:entity_definition" v="A feature delineating the extent; in whole or in part; of a toponymic phenomenon for which the geometry does not fully correspond to that of another feature."/>
    <tag k="canvec:generic_code" v="1580009"/>
    <tag k="canvec:source" v="CanVec_Feature_Catalogue_Edition_1_0_2.pdf"/>
    <tag k="created_by" v="canvec2osm"/>
    <tag k="name" v="McKay Creek"/>
    <tag k="name:fr" v="McKay Creek"/>
    <tag k="natural" v="river"/>
    <tag k="source" v="CanVec_Import_2009"/>
  </node>
  <node id="422233500" version="4" timestamp="2009-11-11T17:33:25Z" uid="36809" user="pfoten_weg_!_" changeset="3091919" lat="48.9190783" lon="-124.324265">
    <tag k="attribution" v="Natural Resources Canada"/>
    <tag k="canvec:CODE" v="1580010"/>
    <tag k="name" v="McKay Creek"/>
    <tag k="name:fr" v="McKay Creek"/>
    <tag k="natural" v="river"/>
    <tag k="source" v="CanVec_Import_2009"/>
  </node>
  <node id="422233505" version="2" timestamp="2009-07-05T14:02:44Z" uid="38528" user="acrosscanadatrails" changeset="1739621" lat="48.993778" lon="-124.3600833">
    <tag k="attribution" v="Natural Resources Canada"/>
    <tag k="canvec:CODE" v="1580010"/>
    <tag k="canvec:CONCISCODE" v="120 RIV River"/>
    <tag k="canvec:GEONAMEDB" v="CGNDB"/>
    <tag k="canvec:LANGUAGE" v="French unilingual"/>
    <tag k="canvec:NAMEID" v="c63ef6c5c6cd11d892e2080020a0f4c9"/>
    <tag k="canvec:PROVIDER" v="Federal"/>
    <tag k="canvec:Planimetric Accuracy (CMAS)" v="0"/>
    <tag k="canvec:Theme" v="TO Toponymy"/>
    <tag k="canvec:UUID" v="19a9b43b51974f6ea0dda4f15eca26b0"/>
    <tag k="canvec:VALDATE" v="1989"/>
    <tag k="canvec:datasetName" v="092C16"/>
    <tag k="canvec:entity" v="Named feature - ( Entité nommée )"/>
    <tag k="canvec:entity_definition" v="A feature delineating the extent; in whole or in part; of a toponymic phenomenon for which the geometry does not fully correspond to that of another feature."/>
    <tag k="canvec:generic_code" v="1580009"/>
    <tag k="canvec:source" v="CanVec_Feature_Catalogue_Edition_1_0_2.pdf"/>
    <tag k="created_by" v="canvec2osm"/>
    <tag k="name" v="Green Creek"/>
    <tag k="name:fr" v="Green Creek"/>
    <tag k="natural" v="river"/>
    <tag k="source" v="CanVec_Import_2009"/>
  </node>
  <node id="422233510" version="3" timestamp="2010-04-23T09:30:25Z" uid="38528" user="acrosscanadatrails" changeset="4501976" lat="48.7516098" lon="-124.4997398">
    <tag k="attribution" v="Natural Resources Canada"/>
    <tag k="canvec:CODE" v="1580010"/>
    <tag k="canvec:source" v="CanVec_Feature_Catalogue_Edition_1_0_2.pdf"/>
    <tag k="name" v="McClure Lake"/>
    <tag k="name:fr" v="McClure Lake"/>
    <tag k="natural" v="water"/>
    <tag k="source" v="CanVec_Import_2009"/>
  </node>
  <node id="422233516" version="3" timestamp="2009-11-11T17:33:04Z" uid="36809" user="pfoten_weg_!_" changeset="3091919" lat="48.8298253" lon="-124.1617094">
    <tag k="attribution" v="Natural Resources Canada"/>
    <tag k="canvec:CODE" v="1580010"/>
    <tag k="name" v="Goat Island"/>
    <tag k="name:fr" v="Goat Island"/>
    <tag k="natural" v="feature"/>
    <tag k="place" v="island"/>
    <tag k="source" v="CanVec_Import_2009"/>
  </node>
  <node id="422233531" version="3" timestamp="2009-11-11T17:33:19Z" uid="36809" user="pfoten_weg_!_" changeset="3091919" lat="48.8512983" lon="-124.0160253">
    <tag k="attribution" v="Natural Resources Canada"/>
    <tag k="canvec:CODE" v="1580010"/>
    <tag k="name" v="Hill 60 Ridge"/>
    <tag k="name:fr" v="Hill 60 Ridge"/>
    <tag k="natural" v="peak"/>
    <tag k="place" v="unincorporated_area"/>
    <tag k="source" v="CanVec_Import_2009"/>
  </node>
  <node id="422233532" version="3" timestamp="2009-11-11T17:33:21Z" uid="36809" user="pfoten_weg_!_" changeset="3091919" lat="48.8884799" lon="-124.3680066">
    <tag k="attribution" v="Natural Resources Canada"/>
    <tag k="canvec:CODE" v="1580010"/>
    <tag k="name" v="Caycuse"/>
    <tag k="name:fr" v="Caycuse"/>
    <tag k="natural" v="feature"/>
    <tag k="place" v="unincorporated_area"/>
    <tag k="source" v="CanVec_Import_2009"/>
  </node>
  <node id="422233537" version="2" timestamp="2009-07-05T14:02:44Z" uid="38528" user="acrosscanadatrails" changeset="1739621" lat="48.9723938" lon="-124.3038665">
    <tag k="attribution" v="Natural Resources Canada"/>
    <tag k="canvec:CODE" v="1580010"/>
    <tag k="canvec:CONCISCODE" v="120 RIV River"/>
    <tag k="canvec:GEONAMEDB" v="CGNDB"/>
    <tag k="canvec:LANGUAGE" v="French unilingual"/>
    <tag k="canvec:NAMEID" v="0c9c9445849c20c33a47ce3d30b24729"/>
    <tag k="canvec:PROVIDER" v="Federal"/>
    <tag k="canvec:Planimetric Accuracy (CMAS)" v="0"/>
    <tag k="canvec:Theme" v="TO Toponymy"/>
    <tag k="canvec:UUID" v="75178f31c9964d44b3e1ff50251384d2"/>
    <tag k="canvec:VALDATE" v="1989"/>
    <tag k="canvec:datasetName" v="092C16"/>
    <tag k="canvec:entity" v="Named feature - ( Entité nommée )"/>
    <tag k="canvec:entity_definition" v="A feature delineating the extent; in whole or in part; of a toponymic phenomenon for which the geometry does not fully correspond to that of another feature."/>
    <tag k="canvec:generic_code" v="1580009"/>
    <tag k="canvec:source" v="CanVec_Feature_Catalogue_Edition_1_0_2.pdf"/>
    <tag k="created_by" v="canvec2osm"/>
    <tag k="name" v="McKay Creek"/>
    <tag k="name:fr" v="McKay Creek"/>
    <tag k="natural" v="river"/>
    <tag k="source" v="CanVec_Import_2009"/>
  </node>
  <node id="422233543" version="2" timestamp="2009-07-05T14:02:44Z" uid="38528" user="acrosscanadatrails" changeset="1739621" lat="48.8166673" lon="-124.1499949">
    <tag k="attribution" v="Natural Resources Canada"/>
    <tag k="canvec:CODE" v="1580010"/>
    <tag k="canvec:CONCISCODE" v="220 BAY Bay"/>
    <tag k="canvec:GEONAMEDB" v="CGNDB"/>
    <tag k="canvec:LANGUAGE" v="French unilingual"/>
    <tag k="canvec:NAMEID" v="0c9c9b88849c20c3784f09caf3359abd"/>
    <tag k="canvec:PROVIDER" v="Federal"/>
    <tag k="canvec:Planimetric Accuracy (CMAS)" v="0"/>
    <tag k="canvec:Theme" v="TO Toponymy"/>
    <tag k="canvec:UUID" v="a3dee44c5110494189264d9bac001e58"/>
    <tag k="canvec:VALDATE" v="1989"/>
    <tag k="canvec:datasetName" v="092C16"/>
    <tag k="canvec:entity" v="Named feature - ( Entité nommée )"/>
    <tag k="canvec:entity_definition" v="A feature delineating the extent; in whole or in part; of a toponymic phenomenon for which the geometry does not fully correspond to that of another feature."/>
    <tag k="canvec:generic_code" v="1580009"/>
    <tag k="canvec:source" v="CanVec_Feature_Catalogue_Edition_1_0_2.pdf"/>
    <tag k="created_by" v="canvec2osm"/>
    <tag k="name" v="McKenzie Bay"/>
    <tag k="name:fr" v="McKenzie Bay"/>
    <tag k="natural" v="bay"/>
    <tag k="source" v="CanVec_Import_2009"/>
  </node>
  <node id="422233543" version="4" timestamp="2009-11-11T17:33:00Z" uid="36809" user="pfoten_weg_!_" changeset="3091919" lat="48.8166673" lon="-124.1499949">
    <tag k="attribution" v="Natural Resources Canada"/>
    <tag k="canvec:CODE" v="1580010"/>
    <tag k="name" v="McKenzie Bay"/>
    <tag k="name:fr" v="McKenzie Bay"/>
    <tag k="natural" v="bay"/>
    <tag k="source" v="CanVec_Import_2009"/>
  </node>
  <node id="422233549" version="3" timestamp="2009-11-11T17:32:55Z" uid="36809" user="pfoten_weg_!_" changeset="3091919" lat="48.8412649" lon="-124.3183144">
    <tag k="attribution" v="Natural Resources Canada"/>
    <tag k="canvec:CODE" v="1580010"/>
    <tag k="name" v="Seymour Range"/>
    <tag k="name:fr" v="Seymour Range"/>
    <tag k="natural" v="peak"/>
    <tag k="place" v="unincorporated_area"/>
    <tag k="source" v="CanVec_Import_2009"/>
  </node>
  <node id="422233555" version="2" timestamp="2009-07-05T14:02:43Z" uid="38528" user="acrosscanadatrails" changeset="1739621" lat="48.8856216" lon="-124.2158239">
    <tag k="attribution" v="Natural Resources Canada"/>
    <tag k="canvec:CODE" v="1580010"/>
    <tag k="canvec:CONCISCODE" v="120 RIV River"/>
    <tag k="canvec:GEONAMEDB" v="CGNDB"/>
    <tag k="canvec:LANGUAGE" v="French unilingual"/>
    <tag k="canvec:NAMEID" v="0cfbfec7849c20c3fa3c53025a17c8e6"/>
    <tag k="canvec:PROVIDER" v="Federal"/>
    <tag k="canvec:Planimetric Accuracy (CMAS)" v="0"/>
    <tag k="canvec:Theme" v="TO Toponymy"/>
    <tag k="canvec:UUID" v="ab674b5dc92743cdbc1843525407d2f4"/>
    <tag k="canvec:VALDATE" v="1989"/>
    <tag k="canvec:datasetName" v="092C16"/>
    <tag k="canvec:entity" v="Named feature - ( Entité nommée )"/>
    <tag k="canvec:entity_definition" v="A feature delineating the extent; in whole or in part; of a toponymic phenomenon for which the geometry does not fully correspond to that of another feature."/>
    <tag k="canvec:generic_code" v="1580009"/>
    <tag k="canvec:source" v="CanVec_Feature_Catalogue_Edition_1_0_2.pdf"/>
    <tag k="created_by" v="canvec2osm"/>
    <tag k="name" v="Youbou Creek"/>
    <tag k="name:fr" v="Youbou Creek"/>
    <tag k="natural" v="river"/>
    <tag k="source" v="CanVec_Import_2009"/>
  </node>
  <node id="422233555" version="4" timestamp="2009-11-11T17:33:29Z" uid="36809" user="pfoten_weg_!_" changeset="3091919" lat="48.8856216" lon="-124.2158239">
    <tag k="attribution" v="Natural Resources Canada"/>
    <tag k="canvec:CODE" v="1580010"/>
    <tag k="name" v="Youbou Creek"/>
    <tag k="name:fr" v="Youbou Creek"/>
    <tag k="natural" v="river"/>
    <tag k="source" v="CanVec_Import_2009"/>
  </node>
  <node id="422233560" version="2" timestamp="2009-07-05T14:02:43Z" uid="38528" user="acrosscanadatrails" changeset="1739621" lat="48.7561279" lon="-124.1111098">
    <tag k="attribution" v="Natural Resources Canada"/>
    <tag k="canvec:CODE" v="1580010"/>
    <tag k="canvec:CONCISCODE" v="120 RIV River"/>
    <tag k="canvec:GEONAMEDB" v="CGNDB"/>
    <tag k="canvec:LANGUAGE" v="French unilingual"/>
    <tag k="canvec:NAMEID" v="df9ccd09c6cd11d892e2080020a0f4c9"/>
    <tag k="canvec:PROVIDER" v="Federal"/>
    <tag k="canvec:Planimetric Accuracy (CMAS)" v="0"/>
    <tag k="canvec:Theme" v="TO Toponymy"/>
    <tag k="canvec:UUID" v="47d5e49f71764404b83b4ff8d9647592"/>
    <tag k="canvec:VALDATE" v="1989"/>
    <tag k="canvec:datasetName" v="092C16"/>
    <tag k="canvec:entity" v="Named feature - ( Entité nommée )"/>
    <tag k="canvec:entity_definition" v="A feature delineating the extent; in whole or in part; of a toponymic phenomenon for which the geometry does not fully correspond to that of another feature."/>
    <tag k="canvec:generic_code" v="1580009"/>
    <tag k="canvec:source" v="CanVec_Feature_Catalogue_Edition_1_0_2.pdf"/>
    <tag k="created_by" v="canvec2osm"/>
    <tag k="name" v="Robertson River"/>
    <tag k="name:fr" v="Robertson River"/>
    <tag k="natural" v="river"/>
    <tag k="source" v="CanVec_Import_2009"/>
  </node>
  <node id="422233566" version="2" timestamp="2009-07-05T14:02:43Z" uid="38528" user="acrosscanadatrails" changeset="1739621" lat="48.9000008" lon="-124.3746616">
    <tag k="attribution" v="Natural Resources Canada"/>
    <tag k="canvec:CODE" v="1580010"/>
    <tag k="canvec:CONCISCODE" v="120 RIV River"/>
    <tag k="canvec:GEONAMEDB" v="CGNDB"/>
    <tag k="canvec:LANGUAGE" v="French unilingual"/>
    <tag k="canvec:NAMEID" v="cd717499d05211d892e2080020a0f4c9"/>
    <tag k="canvec:PROVIDER" v="Federal"/>
    <tag k="canvec:Planimetric Accuracy (CMAS)" v="0"/>
    <tag k="canvec:Theme" v="TO Toponymy"/>
    <tag k="canvec:UUID" v="5cd5351a71174e02b55d4c18a1cc84ac"/>
    <tag k="canvec:VALDATE" v="1989"/>
    <tag k="canvec:datasetName" v="092C16"/>
    <tag k="canvec:entity" v="Named feature - ( Entité nommée )"/>
    <tag k="canvec:entity_definition" v="A feature delineating the extent; in whole or in part; of a toponymic phenomenon for which the geometry does not fully correspond to that of another feature."/>
    <tag k="canvec:generic_code" v="1580009"/>
    <tag k="canvec:source" v="CanVec_Feature_Catalogue_Edition_1_0_2.pdf"/>
    <tag k="created_by" v="canvec2osm"/>
    <tag k="name" v="Nixon Creek"/>
    <tag k="name:fr" v="Nixon Creek"/>
    <tag k="natural" v="river"/>
    <tag k="source" v="CanVec_Import_2009"/>
  </node>
  <node id="422233566" version="4" timestamp="2009-11-11T17:33:23Z" uid="36809" user="pfoten_weg_!_" changeset="3091919" lat="48.9000008" lon="-124.3746616">
    <tag k="attribution" v="Natural Resources Canada"/>
    <tag k="canvec:CODE" v="1580010"/>
    <tag k="name" v="Nixon Creek"/>
    <tag k="name:fr" v="Nixon Creek"/>
    <tag k="natural" v="river"/>
    <tag k="source" v="CanVec_Import_2009"/>
  </node>
  <node id="422233572" version="3" timestamp="2009-11-11T17:33:30Z" uid="36809" user="pfoten_weg_!_" changeset="3091919" lat="48.8740615" lon="-124.2062292">
    <tag k="attribution" v="Natural Resources Canada"/>
    <tag k="canvec:CODE" v="1580010"/>
    <tag k="name" v="Youbou"/>
    <tag k="name:fr" v="Youbou"/>
    <tag k="natural" v="feature"/>
    <tag k="place" v="unincorporated_area"/>
    <tag k="source" v="CanVec_Import_2009"/>
  </node>
  <node id="422233578" version="2" timestamp="2009-07-05T14:02:43Z" uid="38528" user="acrosscanadatrails" changeset="1739621" lat="48.9200829" lon="-124.1342326">
    <tag k="attribution" v="Natural Resources Canada"/>
    <tag k="canvec:CODE" v="1580010"/>
    <tag k="canvec:CONCISCODE" v="120 RIV River"/>
    <tag k="canvec:GEONAMEDB" v="CGNDB"/>
    <tag k="canvec:LANGUAGE" v="French unilingual"/>
    <tag k="canvec:NAMEID" v="0c9d9edf849c20c321accb946aad01ff"/>
    <tag k="canvec:PROVIDER" v="Federal"/>
    <tag k="canvec:Planimetric Accuracy (CMAS)" v="0"/>
    <tag k="canvec:Theme" v="TO Toponymy"/>
    <tag k="canvec:UUID" v="0648db8a11d549cd94b21262d7df5b65"/>
    <tag k="canvec:VALDATE" v="1989"/>
    <tag k="canvec:datasetName" v="092C16"/>
    <tag k="canvec:entity" v="Named feature - ( Entité nommée )"/>
    <tag k="canvec:entity_definition" v="A feature delineating the extent; in whole or in part; of a toponymic phenomenon for which the geometry does not fully correspond to that of another feature."/>
    <tag k="canvec:generic_code" v="1580009"/>
    <tag k="canvec:source" v="CanVec_Feature_Catalogue_Edition_1_0_2.pdf"/>
    <tag k="created_by" v="canvec2osm"/>
    <tag k="name" v="South Chemainus Creek"/>
    <tag k="name:fr" v="South Chemainus Creek"/>
    <tag k="natural" v="river"/>
    <tag k="source" v="CanVec_Import_2009"/>
  </node>
  <node id="422233578" version="4" timestamp="2009-11-11T17:33:42Z" uid="36809" user="pfoten_weg_!_" changeset="3091919" lat="48.9200829" lon="-124.1342326">
    <tag k="attribution" v="Natural Resources Canada"/>
    <tag k="canvec:CODE" v="1580010"/>
    <tag k="name" v="South Chemainus Creek"/>
    <tag k="name:fr" v="South Chemainus Creek"/>
    <tag k="natural" v="river"/>
    <tag k="source" v="CanVec_Import_2009"/>
  </node>
  <node id="422233584" version="3" timestamp="2009-11-11T17:33:36Z" uid="36809" user="pfoten_weg_!_" changeset="3091919" lat="48.9440508" lon="-124.2160935">
    <tag k="attribution" v="Natural Resources Canada"/>
    <tag k="canvec:CODE" v="1580010"/>
    <tag k="name" v="Mount Landale"/>
    <tag k="name:fr" v="Mount Landale"/>
    <tag k="natural" v="peak"/>
    <tag k="place" v="unincorporated_area"/>
    <tag k="source" v="CanVec_Import_2009"/>
  </node>
  <node id="422233590" version="2" timestamp="2009-07-05T14:02:43Z" uid="38528" user="acrosscanadatrails" changeset="1739621" lat="48.8343184" lon="-124.2270205">
    <tag k="attribution" v="Natural Resources Canada"/>
    <tag k="canvec:CODE" v="1580010"/>
    <tag k="canvec:CONCISCODE" v="120 RIV River"/>
    <tag k="canvec:GEONAMEDB" v="CGNDB"/>
    <tag k="canvec:LANGUAGE" v="French unilingual"/>
    <tag k="canvec:NAMEID" v="0cfbc7c2849c20c3cf36958aa870c679"/>
    <tag k="canvec:PROVIDER" v="Federal"/>
    <tag k="canvec:Planimetric Accuracy (CMAS)" v="0"/>
    <tag k="canvec:Theme" v="TO Toponymy"/>
    <tag k="canvec:UUID" v="b18e833d874b4628aa8478540c8811d5"/>
    <tag k="canvec:VALDATE" v="1989"/>
    <tag k="canvec:datasetName" v="092C16"/>
    <tag k="canvec:entity" v="Named feature - ( Entité nommée )"/>
    <tag k="canvec:entity_definition" v="A feature delineating the extent; in whole or in part; of a toponymic phenomenon for which the geometry does not fully correspond to that of another feature."/>
    <tag k="canvec:generic_code" v="1580009"/>
    <tag k="canvec:source" v="CanVec_Feature_Catalogue_Edition_1_0_2.pdf"/>
    <tag k="created_by" v="canvec2osm"/>
    <tag k="name" v="Millar Creek"/>
    <tag k="name:fr" v="Millar Creek"/>
    <tag k="natural" v="river"/>
    <tag k="source" v="CanVec_Import_2009"/>
  </node>
  <node id="422233590" version="4" timestamp="2009-11-11T17:32:57Z" uid="36809" user="pfoten_weg_!_" changeset="3091919" lat="48.8343184" lon="-124.2270205">
    <tag k="attribution" v="Natural Resources Canada"/>
    <tag k="canvec:CODE" v="1580010"/>
    <tag k="name" v="Millar Creek"/>
    <tag k="name:fr" v="Millar Creek"/>
    <tag k="natural" v="river"/>
    <tag k="source" v="CanVec_Import_2009"/>
  </node>
  <node id="422233596" version="3" timestamp="2010-02-25T17:27:15Z" uid="38528" user="acrosscanadatrails" changeset="3973617" lat="48.9762985" lon="-124.326102">
    <tag k="attribution" v="Natural Resources Canada"/>
    <tag k="canvec:CODE" v="1580010"/>
    <tag k="name" v="Delphi Lake"/>
    <tag k="name:fr" v="Delphi Lake"/>
    <tag k="natural" v="water"/>
    <tag k="source" v="CanVec_Import_2009"/>
  </node>
  <node id="422233607" version="2" timestamp="2009-07-05T14:02:50Z" uid="38528" user="acrosscanadatrails" changeset="1739621" lat="48.7711441" lon="-124.343342">
    <tag k="attribution" v="Natural Resources Canada"/>
    <tag k="canvec:CODE" v="1580010"/>
    <tag k="canvec:CONCISCODE" v="120 RIV River"/>
    <tag k="canvec:GEONAMEDB" v="CGNDB"/>
    <tag k="canvec:LANGUAGE" v="French unilingual"/>
    <tag k="canvec:NAMEID" v="0c928115849c20c30e8499260fa76fd8"/>
    <tag k="canvec:PROVIDER" v="Federal"/>
    <tag k="canvec:Planimetric Accuracy (CMAS)" v="0"/>
    <tag k="canvec:Theme" v="TO Toponymy"/>
    <tag k="canvec:UUID" v="ffb2275c0f3a465aa0520c802f3b6e52"/>
    <tag k="canvec:VALDATE" v="1989"/>
    <tag k="canvec:datasetName" v="092C16"/>
    <tag k="canvec:entity" v="Named feature - ( Entité nommée )"/>
    <tag k="canvec:entity_definition" v="A feature delineating the extent; in whole or in part; of a toponymic phenomenon for which the geometry does not fully correspond to that of another feature."/>
    <tag k="canvec:generic_code" v="1580009"/>
    <tag k="canvec:source" v="CanVec_Feature_Catalogue_Edition_1_0_2.pdf"/>
    <tag k="created_by" v="canvec2osm"/>
    <tag k="name" v="Hauk Creek"/>
    <tag k="name:fr" v="Hauk Creek"/>
    <tag k="natural" v="river"/>
    <tag k="source" v="CanVec_Import_2009"/>
  </node>
  <node id="422233614" version="2" timestamp="2009-07-05T14:02:50Z" uid="38528" user="acrosscanadatrails" changeset="1739621" lat="48.7985142" lon="-124.3965899">
    <tag k="attribution" v="Natural Resources Canada"/>
    <tag k="canvec:CODE" v="1580010"/>
    <tag k="canvec:CONCISCODE" v="120 RIV River"/>
    <tag k="canvec:GEONAMEDB" v="CGNDB"/>
    <tag k="canvec:LANGUAGE" v="French unilingual"/>
    <tag k="canvec:NAMEID" v="0c981ee8849c20c3219090642229f158"/>
    <tag k="canvec:PROVIDER" v="Federal"/>
    <tag k="canvec:Planimetric Accuracy (CMAS)" v="0"/>
    <tag k="canvec:Theme" v="TO Toponymy"/>
    <tag k="canvec:UUID" v="85dc1d6a66274b1497a5cc0b2635cc45"/>
    <tag k="canvec:VALDATE" v="1989"/>
    <tag k="canvec:datasetName" v="092C16"/>
    <tag k="canvec:entity" v="Named feature - ( Entité nommée )"/>
    <tag k="canvec:entity_definition" v="A feature delineating the extent; in whole or in part; of a toponymic phenomenon for which the geometry does not fully correspond to that of another feature."/>
    <tag k="canvec:generic_code" v="1580009"/>
    <tag k="canvec:source" v="CanVec_Feature_Catalogue_Edition_1_0_2.pdf"/>
    <tag k="created_by" v="canvec2osm"/>
    <tag k="name" v="Hinne Creek"/>
    <tag k="name:fr" v="Hinne Creek"/>
    <tag k="natural" v="river"/>
    <tag k="source" v="CanVec_Import_2009"/>
  </node>
  <node id="422233614" version="4" timestamp="2009-11-11T17:32:48Z" uid="36809" user="pfoten_weg_!_" changeset="3091919" lat="48.7985142" lon="-124.3965899">
    <tag k="attribution" v="Natural Resources Canada"/>
    <tag k="canvec:CODE" v="1580010"/>
    <tag k="name" v="Hinne Creek"/>
    <tag k="name:fr" v="Hinne Creek"/>
    <tag k="natural" v="river"/>
    <tag k="source" v="CanVec_Import_2009"/>
  </node>
  <node id="422233620" version="2" timestamp="2009-07-05T14:02:50Z" uid="38528" user="acrosscanadatrails" changeset="1739621" lat="48.814578" lon="-124.063441">
    <tag k="attribution" v="Natural Resources Canada"/>
    <tag k="canvec:CODE" v="1580010"/>
    <tag k="canvec:CONCISCODE" v="120 RIV River"/>
    <tag k="canvec:GEONAMEDB" v="CGNDB"/>
    <tag k="canvec:LANGUAGE" v="French unilingual"/>
    <tag k="canvec:NAMEID" v="0c8cc5d6849c20c3e7d8f6092a2596ee"/>
    <tag k="canvec:PROVIDER" v="Federal"/>
    <tag k="canvec:Planimetric Accuracy (CMAS)" v="0"/>
    <tag k="canvec:Theme" v="TO Toponymy"/>
    <tag k="canvec:UUID" v="ec843c2d06694842bca773b1241ae72d"/>
    <tag k="canvec:VALDATE" v="1989"/>
    <tag k="canvec:datasetName" v="092C16"/>
    <tag k="canvec:entity" v="Named feature - ( Entité nommée )"/>
    <tag k="canvec:entity_definition" v="A feature delineating the extent; in whole or in part; of a toponymic phenomenon for which the geometry does not fully correspond to that of another feature."/>
    <tag k="canvec:generic_code" v="1580009"/>
    <tag k="canvec:source" v="CanVec_Feature_Catalogue_Edition_1_0_2.pdf"/>
    <tag k="created_by" v="canvec2osm"/>
    <tag k="name" v="Beaver Creek"/>
    <tag k="name:fr" v="Beaver Creek"/>
    <tag k="natural" v="river"/>
    <tag k="source" v="CanVec_Import_2009"/>
  </node>
  <node id="422233620" version="4" timestamp="2009-11-11T17:33:07Z" uid="36809" user="pfoten_weg_!_" changeset="3091919" lat="48.814578" lon="-124.063441">
    <tag k="attribution" v="Natural Resources Canada"/>
    <tag k="canvec:CODE" v="1580010"/>
    <tag k="name" v="Beaver Creek"/>
    <tag k="name:fr" v="Beaver Creek"/>
    <tag k="natural" v="river"/>
    <tag k="source" v="CanVec_Import_2009"/>
  </node>
  <node id="422233632" version="2" timestamp="2009-07-05T14:02:50Z" uid="38528" user="acrosscanadatrails" changeset="1739621" lat="48.8054906" lon="-124.0023192">
    <tag k="attribution" v="Natural Resources Canada"/>
    <tag k="canvec:CODE" v="1580010"/>
    <tag k="canvec:CONCISCODE" v="120 RIV River"/>
    <tag k="canvec:GEONAMEDB" v="CGNDB"/>
    <tag k="canvec:LANGUAGE" v="French unilingual"/>
    <tag k="canvec:NAMEID" v="0c8df011849c20c36b14465952e252a1"/>
    <tag k="canvec:PROVIDER" v="Federal"/>
    <tag k="canvec:Planimetric Accuracy (CMAS)" v="0"/>
    <tag k="canvec:Theme" v="TO Toponymy"/>
    <tag k="canvec:UUID" v="d48425027d734af7b197a2a9d2d329e8"/>
    <tag k="canvec:VALDATE" v="1989"/>
    <tag k="canvec:datasetName" v="092C16"/>
    <tag k="canvec:entity" v="Named feature - ( Entité nommée )"/>
    <tag k="canvec:entity_definition" v="A feature delineating the extent; in whole or in part; of a toponymic phenomenon for which the geometry does not fully correspond to that of another feature."/>
    <tag k="canvec:generic_code" v="1580009"/>
    <tag k="canvec:source" v="CanVec_Feature_Catalogue_Edition_1_0_2.pdf"/>
    <tag k="created_by" v="canvec2osm"/>
    <tag k="name" v="Cowichan River"/>
    <tag k="name:fr" v="Cowichan River"/>
    <tag k="natural" v="river"/>
    <tag k="source" v="CanVec_Import_2009"/>
  </node>
  <node id="422233632" version="4" timestamp="2009-11-11T17:33:20Z" uid="36809" user="pfoten_weg_!_" changeset="3091919" lat="48.8054906" lon="-124.0023192">
    <tag k="attribution" v="Natural Resources Canada"/>
    <tag k="canvec:CODE" v="1580010"/>
    <tag k="name" v="Cowichan River"/>
    <tag k="name:fr" v="Cowichan River"/>
    <tag k="natural" v="river"/>
    <tag k="source" v="CanVec_Import_2009"/>
  </node>
  <node id="422233646" version="2" timestamp="2009-07-05T13:56:04Z" uid="38528" user="acrosscanadatrails" changeset="1739581" lat="48.956483" lon="-124.4819065">
    <tag k="attribution" v="Natural Resources Canada"/>
    <tag k="canvec:CODE" v="1580010"/>
    <tag k="canvec:CONCISCODE" v="120 RIV River"/>
    <tag k="canvec:GEONAMEDB" v="CGNDB"/>
    <tag k="canvec:LANGUAGE" v="French unilingual"/>
    <tag k="canvec:NAMEID" v="0ca021db849c20c37d1d52eaf7dabdb7"/>
    <tag k="canvec:PROVIDER" v="Federal"/>
    <tag k="canvec:Planimetric Accuracy (CMAS)" v="0"/>
    <tag k="canvec:Theme" v="TO Toponymy"/>
    <tag k="canvec:UUID" v="db08606b1d4d49ee8104d8e2121dd4e4"/>
    <tag k="canvec:VALDATE" v="1989"/>
    <tag k="canvec:datasetName" v="092C16"/>
    <tag k="canvec:entity" v="Named feature - ( Entité nommée )"/>
    <tag k="canvec:entity_definition" v="A feature delineating the extent; in whole or in part; of a toponymic phenomenon for which the geometry does not fully correspond to that of another feature."/>
    <tag k="canvec:generic_code" v="1580009"/>
    <tag k="canvec:source" v="CanVec_Feature_Catalogue_Edition_1_0_2.pdf"/>
    <tag k="created_by" v="canvec2osm"/>
    <tag k="name" v="Redbed Creek"/>
    <tag k="name:fr" v="Redbed Creek"/>
    <tag k="natural" v="river"/>
    <tag k="source" v="CanVec_Import_2009"/>
  </node>
  <node id="422233647" version="3" timestamp="2009-11-11T17:33:34Z" uid="36809" user="pfoten_weg_!_" changeset="3091919" lat="48.8903885" lon="-124.2271554">
    <tag k="attribution" v="Natural Resources Canada"/>
    <tag k="canvec:CODE" v="1580010"/>
    <tag k="name" v="Vancouver Island"/>
    <tag k="name:fr" v="Île de Vancouver"/>
    <tag k="natural" v="feature"/>
    <tag k="place" v="island"/>
    <tag k="source" v="CanVec_Import_2009"/>
  </node>
  <node id="422233652" version="2" timestamp="2009-07-05T13:56:05Z" uid="38528" user="acrosscanadatrails" changeset="1739581" lat="48.9055456" lon="-124.4983821">
    <tag k="attribution" v="Natural Resources Canada"/>
    <tag k="canvec:CODE" v="1580010"/>
    <tag k="canvec:CONCISCODE" v="120 RIV River"/>
    <tag k="canvec:GEONAMEDB" v="CGNDB"/>
    <tag k="canvec:LANGUAGE" v="French unilingual"/>
    <tag k="canvec:NAMEID" v="0c9f309d849c20c3646f08993f10a53f"/>
    <tag k="canvec:PROVIDER" v="Federal"/>
    <tag k="canvec:Planimetric Accuracy (CMAS)" v="0"/>
    <tag k="canvec:Theme" v="TO Toponymy"/>
    <tag k="canvec:UUID" v="adbd29deec8447c99f3ace1d856c50e5"/>
    <tag k="canvec:VALDATE" v="1989"/>
    <tag k="canvec:datasetName" v="092C16"/>
    <tag k="canvec:entity" v="Named feature - ( Entité nommée )"/>
    <tag k="canvec:entity_definition" v="A feature delineating the extent; in whole or in part; of a toponymic phenomenon for which the geometry does not fully correspond to that of another feature."/>
    <tag k="canvec:generic_code" v="1580009"/>
    <tag k="canvec:source" v="CanVec_Feature_Catalogue_Edition_1_0_2.pdf"/>
    <tag k="created_by" v="canvec2osm"/>
    <tag k="name" v="Vernon Creek"/>
    <tag k="name:fr" v="Vernon Creek"/>
    <tag k="natural" v="river"/>
    <tag k="source" v="CanVec_Import_2009"/>
  </node>
  <node id="422233657" version="3" timestamp="2009-11-11T17:32:54Z" uid="36809" user="pfoten_weg_!_" changeset="3091919" lat="48.8023781" lon="-124.3438042">
    <tag k="attribution" v="Natural Resources Canada"/>
    <tag k="canvec:CODE" v="1580010"/>
    <tag k="name" v="Mount Sutton"/>
    <tag k="name:fr" v="Mount Sutton"/>
    <tag k="natural" v="peak"/>
    <tag k="place" v="unincorporated_area"/>
    <tag k="source" v="CanVec_Import_2009"/>
  </node>
  <node id="422233663" version="2" timestamp="2009-07-05T14:02:51Z" uid="38528" user="acrosscanadatrails" changeset="1739621" lat="48.9575456" lon="-124.2028044">
    <tag k="attribution" v="Natural Resources Canada"/>
    <tag k="canvec:CODE" v="1580010"/>
    <tag k="canvec:CONCISCODE" v="120 RIV River"/>
    <tag k="canvec:GEONAMEDB" v="CGNDB"/>
    <tag k="canvec:LANGUAGE" v="French unilingual"/>
    <tag k="canvec:NAMEID" v="0c8edea4849c20c330610b4336fc042e"/>
    <tag k="canvec:PROVIDER" v="Federal"/>
    <tag k="canvec:Planimetric Accuracy (CMAS)" v="0"/>
    <tag k="canvec:Theme" v="TO Toponymy"/>
    <tag k="canvec:UUID" v="4d36e59328dc4e1497fee86d9f1cbca0"/>
    <tag k="canvec:VALDATE" v="1989"/>
    <tag k="canvec:datasetName" v="092C16"/>
    <tag k="canvec:entity" v="Named feature - ( Entité nommée )"/>
    <tag k="canvec:entity_definition" v="A feature delineating the extent; in whole or in part; of a toponymic phenomenon for which the geometry does not fully correspond to that of another feature."/>
    <tag k="canvec:generic_code" v="1580009"/>
    <tag k="canvec:source" v="CanVec_Feature_Catalogue_Edition_1_0_2.pdf"/>
    <tag k="created_by" v="canvec2osm"/>
    <tag k="name" v="Chemainus River"/>
    <tag k="name:fr" v="Chemainus River"/>
    <tag k="natural" v="river"/>
    <tag k="source" v="CanVec_Import_2009"/>
  </node>
  <node id="422233669" version="2" timestamp="2009-07-05T14:02:48Z" uid="38528" user="acrosscanadatrails" changeset="1739621" lat="48.8828369" lon="-124.004289">
    <tag k="attribution" v="Natural Resources Canada"/>
    <tag k="canvec:CODE" v="1580010"/>
    <tag k="canvec:CONCISCODE" v="120 RIV River"/>
    <tag k="canvec:GEONAMEDB" v="CGNDB"/>
    <tag k="canvec:LANGUAGE" v="French unilingual"/>
    <tag k="canvec:NAMEID" v="0c8edea4849c20c330610b4336fc042e"/>
    <tag k="canvec:PROVIDER" v="Federal"/>
    <tag k="canvec:Planimetric Accuracy (CMAS)" v="0"/>
    <tag k="canvec:Theme" v="TO Toponymy"/>
    <tag k="canvec:UUID" v="fcf7a6c86e4d42669a290c93d1bd8520"/>
    <tag k="canvec:VALDATE" v="1989"/>
    <tag k="canvec:datasetName" v="092C16"/>
    <tag k="canvec:entity" v="Named feature - ( Entité nommée )"/>
    <tag k="canvec:entity_definition" v="A feature delineating the extent; in whole or in part; of a toponymic phenomenon for which the geometry does not fully correspond to that of another feature."/>
    <tag k="canvec:generic_code" v="1580009"/>
    <tag k="canvec:source" v="CanVec_Feature_Catalogue_Edition_1_0_2.pdf"/>
    <tag k="created_by" v="canvec2osm"/>
    <tag k="name" v="Chemainus River"/>
    <tag k="name:fr" v="Chemainus River"/>
    <tag k="natural" v="river"/>
    <tag k="source" v="CanVec_Import_2009"/>
  </node>
  <node id="422233669" version="4" timestamp="2009-11-11T17:33:45Z" uid="36809" user="pfoten_weg_!_" changeset="3091919" lat="48.8828369" lon="-124.004289">
    <tag k="attribution" v="Natural Resources Canada"/>
    <tag k="canvec:CODE" v="1580010"/>
    <tag k="name" v="Chemainus River"/>
    <tag k="name:fr" v="Chemainus River"/>
    <tag k="natural" v="river"/>
    <tag k="source" v="CanVec_Import_2009"/>
  </node>
  <node id="422233674" version="3" timestamp="2009-09-04T17:51:19Z" uid="38528" user="acrosscanadatrails" changeset="2372439" lat="48.9190646" lon="-124.4798801">
    <tag k="attribution" v="Natural Resources Canada"/>
    <tag k="canvec:CODE" v="1580010"/>
    <tag k="created_by" v="canvec2osm"/>
    <tag k="name" v="Kissinger Lake"/>
    <tag k="name:fr" v="Kissinger Lake"/>
    <tag k="natural" v="water"/>
    <tag k="source" v="CanVec_Import_2009"/>
  </node>
  <node id="422233674" version="4" timestamp="2009-11-11T17:32:46Z" uid="36809" user="pfoten_weg_!_" changeset="3091919" lat="48.9190646" lon="-124.4798801">
    <tag k="attribution" v="Natural Resources Canada"/>
    <tag k="canvec:CODE" v="1580010"/>
    <tag k="name" v="Kissinger Lake"/>
    <tag k="name:fr" v="Kissinger Lake"/>
    <tag k="natural" v="water"/>
    <tag k="source" v="CanVec_Import_2009"/>
  </node>
  <node id="422233680" version="3" timestamp="2009-11-11T17:33:35Z" uid="36809" user="pfoten_weg_!_" changeset="3091919" lat="48.8903885" lon="-124.2271554">
    <tag k="attribution" v="Natural Resources Canada"/>
    <tag k="canvec:CODE" v="1580010"/>
    <tag k="name" v="Vancouver Island Ranges"/>
    <tag k="name:fr" v="Vancouver Island Ranges"/>
    <tag k="natural" v="peak"/>
    <tag k="place" v="unincorporated_area"/>
    <tag k="source" v="CanVec_Import_2009"/>
  </node>
  <node id="422233686" version="2" timestamp="2009-07-05T14:02:48Z" uid="38528" user="acrosscanadatrails" changeset="1739621" lat="48.9936065" lon="-124.0049872">
    <tag k="attribution" v="Natural Resources Canada"/>
    <tag k="canvec:CODE" v="1580010"/>
    <tag k="canvec:CONCISCODE" v="120 RIV River"/>
    <tag k="canvec:GEONAMEDB" v="CGNDB"/>
    <tag k="canvec:LANGUAGE" v="French unilingual"/>
    <tag k="canvec:NAMEID" v="0c927854849c20c3fdd259e85af2eb94"/>
    <tag k="canvec:PROVIDER" v="Federal"/>
    <tag k="canvec:Planimetric Accuracy (CMAS)" v="0"/>
    <tag k="canvec:Theme" v="TO Toponymy"/>
    <tag k="canvec:UUID" v="15e7dc5f3df44adea5e3951cbe92f9f5"/>
    <tag k="canvec:VALDATE" v="1989"/>
    <tag k="canvec:datasetName" v="092C16"/>
    <tag k="canvec:entity" v="Named feature - ( Entité nommée )"/>
    <tag k="canvec:entity_definition" v="A feature delineating the extent; in whole or in part; of a toponymic phenomenon for which the geometry does not fully correspond to that of another feature."/>
    <tag k="canvec:generic_code" v="1580009"/>
    <tag k="canvec:source" v="CanVec_Feature_Catalogue_Edition_1_0_2.pdf"/>
    <tag k="created_by" v="canvec2osm"/>
    <tag k="name" v="Haslam Creek"/>
    <tag k="name:fr" v="Haslam Creek"/>
    <tag k="natural" v="river"/>
    <tag k="source" v="CanVec_Import_2009"/>
  </node>
  <node id="422233691" version="2" timestamp="2009-07-05T14:02:49Z" uid="38528" user="acrosscanadatrails" changeset="1739621" lat="48.8101678" lon="-124.316124">
    <tag k="attribution" v="Natural Resources Canada"/>
    <tag k="canvec:CODE" v="1580010"/>
    <tag k="canvec:CONCISCODE" v="120 RIV River"/>
    <tag k="canvec:GEONAMEDB" v="CGNDB"/>
    <tag k="canvec:LANGUAGE" v="French unilingual"/>
    <tag k="canvec:NAMEID" v="0c949dd9849c20c358a6e7dfc88e65ac"/>
    <tag k="canvec:PROVIDER" v="Federal"/>
    <tag k="canvec:Planimetric Accuracy (CMAS)" v="0"/>
    <tag k="canvec:Theme" v="TO Toponymy"/>
    <tag k="canvec:UUID" v="47f8643f20e949ab904ed8607c1ad1fc"/>
    <tag k="canvec:VALDATE" v="1989"/>
    <tag k="canvec:datasetName" v="092C16"/>
    <tag k="canvec:entity" v="Named feature - ( Entité nommée )"/>
    <tag k="canvec:entity_definition" v="A feature delineating the extent; in whole or in part; of a toponymic phenomenon for which the geometry does not fully correspond to that of another feature."/>
    <tag k="canvec:generic_code" v="1580009"/>
    <tag k="canvec:source" v="CanVec_Feature_Catalogue_Edition_1_0_2.pdf"/>
    <tag k="created_by" v="canvec2osm"/>
    <tag k="name" v="Gordon River"/>
    <tag k="name:fr" v="Gordon River"/>
    <tag k="natural" v="river"/>
    <tag k="source" v="CanVec_Import_2009"/>
  </node>
  <node id="422233691" version="4" timestamp="2009-11-11T17:32:55Z" uid="36809" user="pfoten_weg_!_" changeset="3091919" lat="48.8101678" lon="-124.316124">
    <tag k="attribution" v="Natural Resources Canada"/>
    <tag k="canvec:CODE" v="1580010"/>
    <tag k="name" v="Gordon River"/>
    <tag k="name:fr" v="Gordon River"/>
    <tag k="natural" v="river"/>
    <tag k="source" v="CanVec_Import_2009"/>
  </node>
  <node id="422233697" version="2" timestamp="2009-07-05T14:02:49Z" uid="38528" user="acrosscanadatrails" changeset="1739621" lat="48.9242195" lon="-124.1636585">
    <tag k="attribution" v="Natural Resources Canada"/>
    <tag k="canvec:CODE" v="1580010"/>
    <tag k="canvec:CONCISCODE" v="120 RIV River"/>
    <tag k="canvec:GEONAMEDB" v="CGNDB"/>
    <tag k="canvec:LANGUAGE" v="French unilingual"/>
    <tag k="canvec:NAMEID" v="0c9c1137849c20c3eb06350c0438be39"/>
    <tag k="canvec:PROVIDER" v="Federal"/>
    <tag k="canvec:Planimetric Accuracy (CMAS)" v="0"/>
    <tag k="canvec:Theme" v="TO Toponymy"/>
    <tag k="canvec:UUID" v="c3af7c58e2e24ad6978056300e38be45"/>
    <tag k="canvec:VALDATE" v="1989"/>
    <tag k="canvec:datasetName" v="092C16"/>
    <tag k="canvec:entity" v="Named feature - ( Entité nommée )"/>
    <tag k="canvec:entity_definition" v="A feature delineating the extent; in whole or in part; of a toponymic phenomenon for which the geometry does not fully correspond to that of another feature."/>
    <tag k="canvec:generic_code" v="1580009"/>
    <tag k="canvec:source" v="CanVec_Feature_Catalogue_Edition_1_0_2.pdf"/>
    <tag k="created_by" v="canvec2osm"/>
    <tag k="name" v="Reynard Creek"/>
    <tag k="name:fr" v="Reynard Creek"/>
    <tag k="natural" v="river"/>
    <tag k="source" v="CanVec_Import_2009"/>
  </node>
  <node id="422233697" version="4" timestamp="2009-11-11T17:33:40Z" uid="36809" user="pfoten_weg_!_" changeset="3091919" lat="48.9242195" lon="-124.1636585">
    <tag k="attribution" v="Natural Resources Canada"/>
    <tag k="canvec:CODE" v="1580010"/>
    <tag k="name" v="Reynard Creek"/>
    <tag k="name:fr" v="Reynard Creek"/>
    <tag k="natural" v="river"/>
    <tag k="source" v="CanVec_Import_2009"/>
  </node>
  <node id="422233703" version="2" timestamp="2009-07-05T14:02:49Z" uid="38528" user="acrosscanadatrails" changeset="1739621" lat="48.754842" lon="-124.3529206">
    <tag k="attribution" v="Natural Resources Canada"/>
    <tag k="canvec:CODE" v="1580010"/>
    <tag k="canvec:CONCISCODE" v="120 RIV River"/>
    <tag k="canvec:GEONAMEDB" v="CGNDB"/>
    <tag k="canvec:LANGUAGE" v="French unilingual"/>
    <tag k="canvec:NAMEID" v="0c949dd9849c20c358a6e7dfc88e65ac"/>
    <tag k="canvec:PROVIDER" v="Federal"/>
    <tag k="canvec:Planimetric Accuracy (CMAS)" v="0"/>
    <tag k="canvec:Theme" v="TO Toponymy"/>
    <tag k="canvec:UUID" v="e07719ba945d40adb4453136fc106d09"/>
    <tag k="canvec:VALDATE" v="1989"/>
    <tag k="canvec:datasetName" v="092C16"/>
    <tag k="canvec:entity" v="Named feature - ( Entité nommée )"/>
    <tag k="canvec:entity_definition" v="A feature delineating the extent; in whole or in part; of a toponymic phenomenon for which the geometry does not fully correspond to that of another feature."/>
    <tag k="canvec:generic_code" v="1580009"/>
    <tag k="canvec:source" v="CanVec_Feature_Catalogue_Edition_1_0_2.pdf"/>
    <tag k="created_by" v="canvec2osm"/>
    <tag k="name" v="Gordon River"/>
    <tag k="name:fr" v="Gordon River"/>
    <tag k="natural" v="river"/>
    <tag k="source" v="CanVec_Import_2009"/>
  </node>
  <node id="422233715" version="2" timestamp="2009-07-05T14:02:49Z" uid="38528" user="acrosscanadatrails" changeset="1739621" lat="48.8259204" lon="-124.0214372">
    <tag k="attribution" v="Natural Resources Canada"/>
    <tag k="canvec:CODE" v="1580010"/>
    <tag k="canvec:CONCISCODE" v="120 RIV River"/>
    <tag k="canvec:GEONAMEDB" v="CGNDB"/>
    <tag k="canvec:LANGUAGE" v="French unilingual"/>
    <tag k="canvec:NAMEID" v="0c8df011849c20c36b14465952e252a1"/>
    <tag k="canvec:PROVIDER" v="Federal"/>
    <tag k="canvec:Planimetric Accuracy (CMAS)" v="0"/>
    <tag k="canvec:Theme" v="TO Toponymy"/>
    <tag k="canvec:UUID" v="ed2a9afea60341fdb10be60fd0b3dc69"/>
    <tag k="canvec:VALDATE" v="1989"/>
    <tag k="canvec:datasetName" v="092C16"/>
    <tag k="canvec:entity" v="Named feature - ( Entité nommée )"/>
    <tag k="canvec:entity_definition" v="A feature delineating the extent; in whole or in part; of a toponymic phenomenon for which the geometry does not fully correspond to that of another feature."/>
    <tag k="canvec:generic_code" v="1580009"/>
    <tag k="canvec:source" v="CanVec_Feature_Catalogue_Edition_1_0_2.pdf"/>
    <tag k="created_by" v="canvec2osm"/>
    <tag k="name" v="Cowichan River"/>
    <tag k="name:fr" v="Cowichan River"/>
    <tag k="natural" v="river"/>
    <tag k="source" v="CanVec_Import_2009"/>
  </node>
  <node id="422233715" version="4" timestamp="2009-11-11T17:33:18Z" uid="36809" user="pfoten_weg_!_" changeset="3091919" lat="48.8259204" lon="-124.0214372">
    <tag k="attribution" v="Natural Resources Canada"/>
    <tag k="canvec:CODE" v="1580010"/>
    <tag k="name" v="Cowichan River"/>
    <tag k="name:fr" v="Cowichan River"/>
    <tag k="natural" v="river"/>
    <tag k="source" v="CanVec_Import_2009"/>
  </node>
</osm>
