<?xml version='1.0' encoding='UTF-8'?>
<osm version="0.6" generator="libosmium/2.20.0">
  <node id="422771419" version="1" timestamp="2009-06-17T11:22:59Z" uid="36809" user="pfoten_weg_!_" changeset="1544391" lat="47.4274405" lon="11.695982">
    <tag k="aerialway" v="station"/>
    <tag k="created_by" v="RambaZamba"/>
    <tag k="source" v="survey"/>
  </node>
  <node id="422771419" version="2" timestamp="2009-06-17T11:51:40Z" uid="36809" user="pfoten_weg_!_" changeset="1544656" lat="47.4274405" lon="11.695982">
    <tag k="aerialway" v="station"/>
    <tag k="created_by" v="RambaZamba"/>
    <tag k="name" v="Karwendel-Bergbahn Zwölferkopf"/>
    <tag k="source" v="survey"/>
  </node>
  <node id="422771419" version="4" timestamp="2009-08-28T22:36:38Z" uid="36809" user="pfoten_weg_!_" changeset="2295972" lat="47.4274405" lon="11.695982">
    <tag k="aerialway" v="station"/>
    <tag k="discovered_by" v="RambaZamba"/>
    <tag k="name" v="Karwendel-Bergbahn Zwölferkopf"/>
    <tag k="source" v="survey"/>
  </node>
  <node id="422771419" version="6" timestamp="2009-08-31T12:03:28Z" uid="64924" user="leck_mich_alle_am_arsch" changeset="2325486" lat="47.4274405" lon="11.695982">
    <tag k="aerialway" v="station"/>
    <tag k="name" v="Karwendel-Bergbahn Zwölferkopf"/>
    <tag k="source" v="survey"/>
  </node>
  <node id="422771419" version="9" timestamp="2009-10-15T18:10:51Z" uid="36809" user="pfoten_weg_!_" changeset="2857512" lat="47.4274405" lon="11.695982">
    <tag k="aerialway" v="station"/>
    <tag k="name" v="Zwölferkopf-Bergstation"/>
    <tag k="source" v="survey"/>
  </node>
  <node id="422771420" version="1" timestamp="2009-06-17T11:23:00Z" uid="36809" user="pfoten_weg_!_" changeset="1544391" lat="47.4371001" lon="11.6968168">
    <tag k="aerialway" v="station"/>
    <tag k="created_by" v="RambaZamba"/>
    <tag k="source" v="survey"/>
  </node>
  <node id="422771420" version="2" timestamp="2009-06-17T11:51:40Z" uid="36809" user="pfoten_weg_!_" changeset="1544656" lat="47.4371001" lon="11.6968168">
    <tag k="aerialway" v="station"/>
    <tag k="created_by" v="RambaZamba"/>
    <tag k="name" v="Karwendel-Bergbahn Pertisau"/>
    <tag k="source" v="survey"/>
  </node>
  <node id="422771420" version="4" timestamp="2009-08-28T22:36:38Z" uid="36809" user="pfoten_weg_!_" changeset="2295972" lat="47.4371001" lon="11.6968168">
    <tag k="aerialway" v="station"/>
    <tag k="discovered_by" v="RambaZamba"/>
    <tag k="name" v="Karwendel-Bergbahn Pertisau"/>
    <tag k="source" v="survey"/>
  </node>
  <node id="422771420" version="6" timestamp="2009-08-31T12:03:28Z" uid="64924" user="leck_mich_alle_am_arsch" changeset="2325486" lat="47.4371001" lon="11.6968168">
    <tag k="aerialway" v="station"/>
    <tag k="name" v="Karwendel-Bergbahn Pertisau"/>
    <tag k="source" v="survey"/>
  </node>
  <node id="422771420" version="7" timestamp="2009-10-15T18:10:20Z" uid="36809" user="pfoten_weg_!_" changeset="2857512" lat="47.4371001" lon="11.6968168">
    <tag k="aerialway" v="station"/>
    <tag k="name" v="Karwendel-Bergbahn Pertisau"/>
    <tag k="source" v="survey"/>
  </node>
</osm>
