<?xml version='1.0' encoding='UTF-8'?>
<osm version="0.6" generator="libosmium/2.20.0">
  <node id="423805946" version="1" timestamp="2009-06-18T10:57:53Z" uid="55964" user="Evan Sebire" changeset="1553531" lat="46.5863557" lon="7.6474209">
    <tag k="addr:city" v="Frutigen"/>
    <tag k="addr:country" v="CH"/>
    <tag k="addr:housenumber" v="21"/>
    <tag k="addr:postcode" v="3714"/>
    <tag k="addr:street" v="Kanderstegstrasse"/>
  </node>
  <node id="423805946" version="2" timestamp="2010-05-12T19:53:18Z" uid="55964" user="Evan Sebire" changeset="4680403" lat="46.5863557" lon="7.6474209">
    <tag k="addr:city" v="Frutigen"/>
    <tag k="addr:country" v="CH"/>
    <tag k="addr:housenumber" v="21"/>
    <tag k="addr:postcode" v="3714"/>
    <tag k="addr:street" v="Kanderstegstrasse"/>
    <tag k="source" v="survey"/>
  </node>
  <node id="423806560" version="1" timestamp="2009-06-18T11:01:22Z" uid="36809" user="pfoten_weg_!_" changeset="1553561" lat="47.4367553" lon="11.6936188">
    <tag k="addr:city" v="Pertisau"/>
    <tag k="addr:country" v="AT"/>
    <tag k="addr:housenumber" v="15A"/>
    <tag k="addr:postcode" v="6213"/>
    <tag k="addr:street" v="Eben/Pertisau"/>
    <tag k="created_by" v="RambaZamba"/>
    <tag k="name" v="15A"/>
    <tag k="source" v="survey"/>
  </node>
  <node id="423806560" version="2" timestamp="2009-06-18T11:42:06Z" uid="36809" user="pfoten_weg_!_" changeset="1553856" lat="47.4367553" lon="11.6936188">
    <tag k="addr:city" v="Pertisau"/>
    <tag k="addr:country" v="AT"/>
    <tag k="addr:housenumber" v="15A"/>
    <tag k="addr:postcode" v="6213"/>
    <tag k="addr:street" v="Eben/Pertisau"/>
    <tag k="created_by" v="RambaZamba"/>
    <tag k="name" v="15A"/>
    <tag k="source" v="survey"/>
  </node>
  <node id="423806561" version="1" timestamp="2009-06-18T11:01:22Z" uid="36809" user="pfoten_weg_!_" changeset="1553561" lat="47.4377126" lon="11.6946122">
    <tag k="addr:city" v="Pertisau"/>
    <tag k="addr:country" v="AT"/>
    <tag k="addr:housenumber" v="17"/>
    <tag k="addr:postcode" v="6213"/>
    <tag k="addr:street" v="Eben/Pertisau"/>
    <tag k="created_by" v="RambaZamba"/>
    <tag k="name" v="17"/>
    <tag k="source" v="survey"/>
  </node>
  <node id="423806561" version="2" timestamp="2009-06-18T11:42:06Z" uid="36809" user="pfoten_weg_!_" changeset="1553856" lat="47.4377126" lon="11.6946122">
    <tag k="addr:city" v="Pertisau"/>
    <tag k="addr:country" v="AT"/>
    <tag k="addr:housenumber" v="17"/>
    <tag k="addr:postcode" v="6213"/>
    <tag k="addr:street" v="Eben/Pertisau"/>
    <tag k="created_by" v="RambaZamba"/>
    <tag k="name" v="17"/>
    <tag k="source" v="survey"/>
  </node>
  <node id="423806562" version="1" timestamp="2009-06-18T11:01:22Z" uid="36809" user="pfoten_weg_!_" changeset="1553561" lat="47.4374579" lon="11.6938909">
    <tag k="addr:city" v="Pertisau"/>
    <tag k="addr:country" v="AT"/>
    <tag k="addr:housenumber" v="17B"/>
    <tag k="addr:postcode" v="6213"/>
    <tag k="addr:street" v="Eben/Pertisau"/>
    <tag k="created_by" v="RambaZamba"/>
    <tag k="name" v="17B"/>
    <tag k="source" v="survey"/>
  </node>
  <node id="423806562" version="2" timestamp="2009-06-18T11:42:06Z" uid="36809" user="pfoten_weg_!_" changeset="1553856" lat="47.4374579" lon="11.6938909">
    <tag k="addr:city" v="Pertisau"/>
    <tag k="addr:country" v="AT"/>
    <tag k="addr:housenumber" v="17B"/>
    <tag k="addr:postcode" v="6213"/>
    <tag k="addr:street" v="Eben/Pertisau"/>
    <tag k="created_by" v="RambaZamba"/>
    <tag k="name" v="17B"/>
    <tag k="source" v="survey"/>
  </node>
  <node id="423806563" version="1" timestamp="2009-06-18T11:01:22Z" uid="36809" user="pfoten_weg_!_" changeset="1553561" lat="47.4374058" lon="11.6949433">
    <tag k="addr:city" v="Pertisau"/>
    <tag k="addr:country" v="AT"/>
    <tag k="addr:housenumber" v="16C"/>
    <tag k="addr:postcode" v="6213"/>
    <tag k="addr:street" v="Eben/Pertisau"/>
    <tag k="created_by" v="RambaZamba"/>
    <tag k="name" v="16C"/>
    <tag k="source" v="survey"/>
  </node>
  <node id="423806563" version="2" timestamp="2009-06-18T11:42:06Z" uid="36809" user="pfoten_weg_!_" changeset="1553856" lat="47.4374058" lon="11.6949433">
    <tag k="addr:city" v="Pertisau"/>
    <tag k="addr:country" v="AT"/>
    <tag k="addr:housenumber" v="16C"/>
    <tag k="addr:postcode" v="6213"/>
    <tag k="addr:street" v="Eben/Pertisau"/>
    <tag k="created_by" v="RambaZamba"/>
    <tag k="name" v="16C"/>
    <tag k="source" v="survey"/>
  </node>
  <node id="423806564" version="1" timestamp="2009-06-18T11:01:22Z" uid="36809" user="pfoten_weg_!_" changeset="1553561" lat="47.4367001" lon="11.693392">
    <tag k="addr:city" v="Pertisau"/>
    <tag k="addr:country" v="AT"/>
    <tag k="addr:housenumber" v="15A"/>
    <tag k="addr:postcode" v="6213"/>
    <tag k="addr:street" v="Eben/Pertisau"/>
    <tag k="created_by" v="RambaZamba"/>
    <tag k="name" v="15A"/>
    <tag k="source" v="survey"/>
  </node>
  <node id="423806564" version="2" timestamp="2009-06-18T11:42:05Z" uid="36809" user="pfoten_weg_!_" changeset="1553856" lat="47.4367001" lon="11.693392">
    <tag k="addr:city" v="Pertisau"/>
    <tag k="addr:country" v="AT"/>
    <tag k="addr:housenumber" v="15A"/>
    <tag k="addr:postcode" v="6213"/>
    <tag k="addr:street" v="Eben/Pertisau"/>
    <tag k="created_by" v="RambaZamba"/>
    <tag k="name" v="15A"/>
    <tag k="source" v="survey"/>
  </node>
  <node id="423806565" version="1" timestamp="2009-06-18T11:01:22Z" uid="36809" user="pfoten_weg_!_" changeset="1553561" lat="47.4368995" lon="11.6943536">
    <tag k="addr:city" v="Pertisau"/>
    <tag k="addr:country" v="AT"/>
    <tag k="addr:housenumber" v="15H"/>
    <tag k="addr:postcode" v="6213"/>
    <tag k="addr:street" v="Eben/Pertisau"/>
    <tag k="created_by" v="RambaZamba"/>
    <tag k="name" v="15H"/>
    <tag k="source" v="survey"/>
  </node>
  <node id="423806565" version="2" timestamp="2009-06-18T11:42:05Z" uid="36809" user="pfoten_weg_!_" changeset="1553856" lat="47.4368995" lon="11.6943536">
    <tag k="addr:city" v="Pertisau"/>
    <tag k="addr:country" v="AT"/>
    <tag k="addr:housenumber" v="15H"/>
    <tag k="addr:postcode" v="6213"/>
    <tag k="addr:street" v="Eben/Pertisau"/>
    <tag k="created_by" v="RambaZamba"/>
    <tag k="name" v="15H"/>
    <tag k="source" v="survey"/>
  </node>
  <node id="423806566" version="1" timestamp="2009-06-18T11:01:22Z" uid="36809" user="pfoten_weg_!_" changeset="1553561" lat="47.4371358" lon="11.6953198">
    <tag k="addr:city" v="Pertisau"/>
    <tag k="addr:country" v="AT"/>
    <tag k="addr:housenumber" v="15"/>
    <tag k="addr:postcode" v="6213"/>
    <tag k="addr:street" v="Eben/Pertisau"/>
    <tag k="created_by" v="RambaZamba"/>
    <tag k="name" v="15"/>
    <tag k="source" v="survey"/>
  </node>
  <node id="423806566" version="2" timestamp="2009-06-18T11:42:06Z" uid="36809" user="pfoten_weg_!_" changeset="1553856" lat="47.4371358" lon="11.6953198">
    <tag k="addr:city" v="Pertisau"/>
    <tag k="addr:country" v="AT"/>
    <tag k="addr:housenumber" v="15"/>
    <tag k="addr:postcode" v="6213"/>
    <tag k="addr:street" v="Eben/Pertisau"/>
    <tag k="created_by" v="RambaZamba"/>
    <tag k="name" v="15"/>
    <tag k="source" v="survey"/>
  </node>
  <node id="423806567" version="1" timestamp="2009-06-18T11:01:23Z" uid="36809" user="pfoten_weg_!_" changeset="1553561" lat="47.4374088" lon="11.6943808">
    <tag k="addr:city" v="Pertisau"/>
    <tag k="addr:country" v="AT"/>
    <tag k="addr:housenumber" v="17C"/>
    <tag k="addr:postcode" v="6213"/>
    <tag k="addr:street" v="Eben/Pertisau"/>
    <tag k="created_by" v="RambaZamba"/>
    <tag k="name" v="17C"/>
    <tag k="source" v="survey"/>
  </node>
  <node id="423806567" version="2" timestamp="2009-06-18T11:42:05Z" uid="36809" user="pfoten_weg_!_" changeset="1553856" lat="47.4374088" lon="11.6943808">
    <tag k="addr:city" v="Pertisau"/>
    <tag k="addr:country" v="AT"/>
    <tag k="addr:housenumber" v="17C"/>
    <tag k="addr:postcode" v="6213"/>
    <tag k="addr:street" v="Eben/Pertisau"/>
    <tag k="created_by" v="RambaZamba"/>
    <tag k="name" v="17C"/>
    <tag k="source" v="survey"/>
  </node>
  <node id="423806568" version="1" timestamp="2009-06-18T11:01:23Z" uid="36809" user="pfoten_weg_!_" changeset="1553561" lat="47.4374702" lon="11.6953515">
    <tag k="addr:city" v="Pertisau"/>
    <tag k="addr:country" v="AT"/>
    <tag k="addr:housenumber" v="16A"/>
    <tag k="addr:postcode" v="6213"/>
    <tag k="addr:street" v="Eben/Pertisau"/>
    <tag k="created_by" v="RambaZamba"/>
    <tag k="name" v="16A"/>
    <tag k="source" v="survey"/>
  </node>
  <node id="423806568" version="2" timestamp="2009-06-18T11:42:05Z" uid="36809" user="pfoten_weg_!_" changeset="1553856" lat="47.4374702" lon="11.6953515">
    <tag k="addr:city" v="Pertisau"/>
    <tag k="addr:country" v="AT"/>
    <tag k="addr:housenumber" v="16A"/>
    <tag k="addr:postcode" v="6213"/>
    <tag k="addr:street" v="Eben/Pertisau"/>
    <tag k="created_by" v="RambaZamba"/>
    <tag k="name" v="16A"/>
    <tag k="source" v="survey"/>
  </node>
  <node id="423806569" version="1" timestamp="2009-06-18T11:01:23Z" uid="36809" user="pfoten_weg_!_" changeset="1553561" lat="47.4369547" lon="11.6935099">
    <tag k="addr:city" v="Pertisau"/>
    <tag k="addr:country" v="AT"/>
    <tag k="addr:housenumber" v="15B"/>
    <tag k="addr:postcode" v="6213"/>
    <tag k="addr:street" v="Eben/Pertisau"/>
    <tag k="created_by" v="RambaZamba"/>
    <tag k="name" v="15B"/>
    <tag k="source" v="survey"/>
  </node>
  <node id="423806569" version="2" timestamp="2009-06-18T11:42:05Z" uid="36809" user="pfoten_weg_!_" changeset="1553856" lat="47.4369547" lon="11.6935099">
    <tag k="addr:city" v="Pertisau"/>
    <tag k="addr:country" v="AT"/>
    <tag k="addr:housenumber" v="15B"/>
    <tag k="addr:postcode" v="6213"/>
    <tag k="addr:street" v="Eben/Pertisau"/>
    <tag k="created_by" v="RambaZamba"/>
    <tag k="name" v="15B"/>
    <tag k="source" v="survey"/>
  </node>
  <node id="423806570" version="1" timestamp="2009-06-18T11:01:23Z" uid="36809" user="pfoten_weg_!_" changeset="1553561" lat="47.4379059" lon="11.6936414">
    <tag k="addr:city" v="Pertisau"/>
    <tag k="addr:country" v="AT"/>
    <tag k="addr:housenumber" v="17A"/>
    <tag k="addr:postcode" v="6213"/>
    <tag k="addr:street" v="Eben/Pertisau"/>
    <tag k="created_by" v="RambaZamba"/>
    <tag k="name" v="17A"/>
    <tag k="source" v="survey"/>
  </node>
  <node id="423806570" version="2" timestamp="2009-06-18T11:42:05Z" uid="36809" user="pfoten_weg_!_" changeset="1553856" lat="47.4379059" lon="11.6936414">
    <tag k="addr:city" v="Pertisau"/>
    <tag k="addr:country" v="AT"/>
    <tag k="addr:housenumber" v="17A"/>
    <tag k="addr:postcode" v="6213"/>
    <tag k="addr:street" v="Eben/Pertisau"/>
    <tag k="created_by" v="RambaZamba"/>
    <tag k="name" v="17A"/>
    <tag k="source" v="survey"/>
  </node>
  <node id="423806571" version="1" timestamp="2009-06-18T11:01:24Z" uid="36809" user="pfoten_weg_!_" changeset="1553561" lat="47.4373751" lon="11.6933738">
    <tag k="addr:city" v="Pertisau"/>
    <tag k="addr:country" v="AT"/>
    <tag k="addr:housenumber" v="18B"/>
    <tag k="addr:postcode" v="6213"/>
    <tag k="addr:street" v="Eben/Pertisau"/>
    <tag k="created_by" v="RambaZamba"/>
    <tag k="name" v="18B"/>
    <tag k="source" v="survey"/>
  </node>
  <node id="423806571" version="2" timestamp="2009-06-18T11:42:05Z" uid="36809" user="pfoten_weg_!_" changeset="1553856" lat="47.4373751" lon="11.6933738">
    <tag k="addr:city" v="Pertisau"/>
    <tag k="addr:country" v="AT"/>
    <tag k="addr:housenumber" v="18B"/>
    <tag k="addr:postcode" v="6213"/>
    <tag k="addr:street" v="Eben/Pertisau"/>
    <tag k="created_by" v="RambaZamba"/>
    <tag k="name" v="18B"/>
    <tag k="source" v="survey"/>
  </node>
  <node id="423806929" version="2" timestamp="2009-11-25T01:14:34Z" uid="99207" user="Lar Kiesel" changeset="3209104" lat="32.9790265" lon="-80.0278936"/>
  <node id="423806936" version="2" timestamp="2009-11-25T01:14:34Z" uid="99207" user="Lar Kiesel" changeset="3209104" lat="32.9791647" lon="-80.0283342"/>
  <node id="423807162" version="1" timestamp="2009-06-18T11:06:09Z" uid="4467" user="Rosscoe" changeset="1553598" lat="-21.1388227" lon="149.1790005"/>
  <node id="423807162" version="2" timestamp="2010-08-18T23:17:58Z" uid="4467" user="Rosscoe" changeset="5531573" lat="-21.1390145" lon="149.1796382"/>
  <node id="423807164" version="1" timestamp="2009-06-18T11:06:10Z" uid="4467" user="Rosscoe" changeset="1553598" lat="-21.1395432" lon="149.1788718"/>
  <node id="423807164" version="2" timestamp="2010-08-18T23:17:52Z" uid="4467" user="Rosscoe" changeset="5531573" lat="-21.1395743" lon="149.1790152"/>
  <node id="423807166" version="1" timestamp="2009-06-18T11:06:10Z" uid="4467" user="Rosscoe" changeset="1553598" lat="-21.1395592" lon="149.1782624"/>
  <node id="423807166" version="2" timestamp="2010-08-18T23:17:48Z" uid="4467" user="Rosscoe" changeset="5531573" lat="-21.1399947" lon="149.1785268"/>
  <node id="423807167" version="1" timestamp="2009-06-18T11:06:10Z" uid="4467" user="Rosscoe" changeset="1553598" lat="-21.1398474" lon="149.1775071"/>
  <node id="423807167" version="2" timestamp="2010-08-18T23:18:04Z" uid="4467" user="Rosscoe" changeset="5531573" lat="-21.1400617" lon="149.1783056"/>
  <node id="423809396" version="3" timestamp="2011-04-10T06:43:10Z" uid="4467" user="Rosscoe" changeset="7819615" lat="-26.1990933" lon="152.6732605"/>
  <node id="423809397" version="2" timestamp="2011-04-10T06:43:13Z" uid="4467" user="Rosscoe" changeset="7819615" lat="-26.1992722" lon="152.6732255"/>
  <node id="423809422" version="2" timestamp="2009-06-22T10:15:08Z" uid="74617" user="JohnSmith" changeset="1591984" lat="-26.2135749" lon="152.6937486"/>
  <node id="423809422" version="3" timestamp="2009-06-25T03:20:02Z" uid="74617" user="JohnSmith" changeset="1617964" lat="-26.2137403" lon="152.69381"/>
  <node id="423809422" version="4" timestamp="2009-06-25T05:49:29Z" uid="74617" user="JohnSmith" changeset="1618471" lat="-26.2139211" lon="152.693996"/>
  <node id="423809422" version="5" timestamp="2009-10-06T14:32:16Z" uid="74617" user="JohnSmith" changeset="2761311" lat="-26.2139571" lon="152.6939359"/>
  <node id="423809423" version="2" timestamp="2009-10-06T14:32:16Z" uid="74617" user="JohnSmith" changeset="2761311" lat="-26.2163169" lon="152.6955258"/>
  <node id="423809424" version="2" timestamp="2009-10-06T14:32:16Z" uid="74617" user="JohnSmith" changeset="2761311" lat="-26.2174842" lon="152.6961478"/>
  <node id="423809425" version="2" timestamp="2009-10-06T14:32:16Z" uid="74617" user="JohnSmith" changeset="2761311" lat="-26.2179282" lon="152.6962591"/>
  <node id="423809426" version="3" timestamp="2009-10-06T14:32:16Z" uid="74617" user="JohnSmith" changeset="2761311" lat="-26.2189549" lon="152.6964057"/>
  <node id="423809427" version="2" timestamp="2009-10-06T14:32:15Z" uid="74617" user="JohnSmith" changeset="2761311" lat="-26.220488" lon="152.6965654"/>
  <node id="423809428" version="2" timestamp="2009-10-06T14:32:16Z" uid="74617" user="JohnSmith" changeset="2761311" lat="-26.2209606" lon="152.6964953"/>
  <node id="423809432" version="3" timestamp="2009-07-05T12:09:43Z" uid="74617" user="JohnSmith" changeset="1738611" lat="-26.2248384" lon="152.6923213"/>
</osm>
