<?xml version='1.0' encoding='UTF-8'?>
<osm version="0.6" generator="libosmium/2.20.0">
  <node id="428471436" version="2" timestamp="2009-10-18T16:39:48Z" uid="74027" user="katzlbt" changeset="2885601" lat="47.3595485" lon="11.1240296"/>
  <node id="428471439" version="2" timestamp="2009-10-18T16:39:50Z" uid="74027" user="katzlbt" changeset="2885601" lat="47.3531118" lon="11.1224074"/>
  <node id="428471440" version="2" timestamp="2009-10-18T16:39:51Z" uid="74027" user="katzlbt" changeset="2885601" lat="47.3512162" lon="11.1229653"/>
  <node id="428471442" version="2" timestamp="2009-10-18T16:39:53Z" uid="74027" user="katzlbt" changeset="2885601" lat="47.3471687" lon="11.1246991"/>
  <node id="428471442" version="3" timestamp="2009-10-18T16:54:54Z" uid="74027" user="katzlbt" changeset="2885601" lat="47.3472269" lon="11.1245446"/>
  <node id="428472725" version="2" timestamp="2010-03-12T09:45:58Z" uid="7617" user="Franc" changeset="4104695" lat="-33.8292948" lon="151.1274881">
    <tag k="amenity" v="library"/>
    <tag k="name" v="Gladesville Branch Library"/>
  </node>
  <node id="428472732" version="2" timestamp="2010-03-12T09:45:57Z" uid="7617" user="Franc" changeset="4104695" lat="-33.8299149" lon="151.1269307">
    <tag k="amenity" v="place_of_worship"/>
    <tag k="denomination" v="presbyterian"/>
    <tag k="name" v="Presbyterian Church of St Andrew"/>
    <tag k="religion" v="christian"/>
  </node>
  <node id="428472735" version="2" timestamp="2010-03-12T10:37:27Z" uid="7617" user="Franc" changeset="4104996" lat="-33.8309021" lon="151.1261839">
    <tag k="name" v="St Vincent De Paul"/>
    <tag k="shop" v="clothes"/>
  </node>
  <node id="428472737" version="2" timestamp="2010-03-12T09:45:57Z" uid="7617" user="Franc" changeset="4104695" lat="-33.8312017" lon="151.1266522">
    <tag k="name" v="Gladesville Newsagent"/>
    <tag k="shop" v="newsagent"/>
  </node>
  <node id="428474229" version="1" timestamp="2009-06-23T13:32:00Z" uid="20587" user="balrog-kun" changeset="1602529" lat="52.155606" lon="21.0905584"/>
  <node id="428474229" version="2" timestamp="2010-06-21T02:31:37Z" uid="20587" user="balrog-kun" changeset="5038879" lat="52.1553336" lon="21.0902819"/>
  <node id="428474230" version="1" timestamp="2009-06-23T13:32:01Z" uid="20587" user="balrog-kun" changeset="1602529" lat="52.1562385" lon="21.0907808"/>
  <node id="428474230" version="2" timestamp="2010-06-21T02:31:41Z" uid="20587" user="balrog-kun" changeset="5038879" lat="52.1561543" lon="21.0910693"/>
  <node id="428474231" version="1" timestamp="2009-06-23T13:32:01Z" uid="20587" user="balrog-kun" changeset="1602529" lat="52.1600038" lon="21.0893916"/>
  <node id="428474231" version="2" timestamp="2010-06-21T02:31:42Z" uid="20587" user="balrog-kun" changeset="5038879" lat="52.1600091" lon="21.0894459"/>
  <node id="428474232" version="1" timestamp="2009-06-23T13:32:01Z" uid="20587" user="balrog-kun" changeset="1602529" lat="52.162137" lon="21.0882418"/>
  <node id="428474232" version="2" timestamp="2011-01-18T03:07:33Z" uid="20587" user="balrog-kun" changeset="7006661" lat="52.1624262" lon="21.0879662"/>
  <node id="428474233" version="1" timestamp="2009-06-23T13:32:01Z" uid="20587" user="balrog-kun" changeset="1602529" lat="52.1631481" lon="21.0876008"/>
  <node id="428474233" version="2" timestamp="2011-01-18T03:07:29Z" uid="20587" user="balrog-kun" changeset="7006661" lat="52.163144" lon="21.087541"/>
  <node id="428474234" version="1" timestamp="2009-06-23T13:32:01Z" uid="20587" user="balrog-kun" changeset="1602529" lat="52.1641081" lon="21.0868432"/>
  <node id="428474234" version="2" timestamp="2010-06-23T04:06:47Z" uid="20587" user="balrog-kun" changeset="5056160" lat="52.1640913" lon="21.0867591"/>
  <node id="428474234" version="3" timestamp="2011-02-22T13:11:28Z" uid="20587" user="balrog-kun" changeset="7362943" lat="52.1640838" lon="21.0867178"/>
  <node id="428474235" version="1" timestamp="2009-06-23T13:32:01Z" uid="20587" user="balrog-kun" changeset="1602529" lat="52.1622596" lon="21.0885415"/>
  <node id="428474236" version="1" timestamp="2009-06-23T13:32:01Z" uid="20587" user="balrog-kun" changeset="1602529" lat="52.1600294" lon="21.0911874">
    <tag k="addr:city" v="Warszawa@Warszawa Wilanów"/>
    <tag k="addr:housenumber" v="26"/>
    <tag k="addr:street" v="Vogla"/>
    <tag k="source" v="http://ump.waw.pl/ retrieved 11:07:14 02/24/09 (UMP-Warszawa/src/WARSZAWA_WILANOW.ulice.txt)"/>
  </node>
  <node id="428474237" version="1" timestamp="2009-06-23T13:32:01Z" uid="20587" user="balrog-kun" changeset="1602529" lat="52.1740441" lon="21.0500072">
    <tag k="addr:city" v="Warszawa@Warszawa Mokotów"/>
    <tag k="addr:housenumber" v="122"/>
    <tag k="addr:street" v="aleja Wilanowska"/>
    <tag k="source" v="http://ump.waw.pl/ retrieved 11:07:14 02/24/09 (UMP-Warszawa/src/WARSZAWA_MOKOTOW.ulice.txt)"/>
  </node>
  <node id="428474238" version="1" timestamp="2009-06-23T13:32:01Z" uid="20587" user="balrog-kun" changeset="1602529" lat="52.1692449" lon="21.0844654">
    <tag k="addr:city" v="Warszawa@Warszawa Wilanów"/>
    <tag k="addr:housenumber" v="30"/>
    <tag k="addr:street" v="Wiertnicza"/>
    <tag k="source" v="http://ump.waw.pl/ retrieved 11:07:14 02/24/09 (UMP-Warszawa/src/WARSZAWA_WILANOW.ulice.txt)"/>
  </node>
  <node id="428474238" version="2" timestamp="2010-06-21T05:09:55Z" uid="20587" user="balrog-kun" changeset="5039352" lat="52.1693741" lon="21.0842513">
    <tag k="addr:city" v="Warszawa@Warszawa Wilanów"/>
    <tag k="addr:housenumber" v="30"/>
    <tag k="addr:street" v="Wiertnicza"/>
    <tag k="source" v="http://ump.waw.pl/ retrieved 11:07:14 02/24/09 (UMP-Warszawa/src/WARSZAWA_WILANOW.ulice.txt)"/>
  </node>
  <node id="428474239" version="1" timestamp="2009-06-23T13:32:01Z" uid="20587" user="balrog-kun" changeset="1602529" lat="52.1746495" lon="21.0774101">
    <tag k="addr:city" v="Warszawa@Warszawa Wilanów"/>
    <tag k="addr:housenumber" v="109"/>
    <tag k="addr:street" v="Wiertnicza"/>
    <tag k="source" v="http://ump.waw.pl/ retrieved 11:07:14 02/24/09 (UMP-Warszawa/src/WARSZAWA_WILANOW.ulice.txt)"/>
  </node>
  <node id="428474240" version="1" timestamp="2009-06-23T13:32:02Z" uid="20587" user="balrog-kun" changeset="1602529" lat="52.1563691" lon="21.0903229">
    <tag k="addr:city" v="Warszawa@Warszawa Wilanów"/>
    <tag k="addr:housenumber" v="30"/>
    <tag k="addr:street" v="Koralowa"/>
    <tag k="source" v="http://ump.waw.pl/ retrieved 11:07:14 02/24/09 (UMP-Warszawa/src/WARSZAWA_WILANOW.ulice.txt)"/>
  </node>
  <node id="428474241" version="1" timestamp="2009-06-23T13:32:02Z" uid="20587" user="balrog-kun" changeset="1602529" lat="52.1726171" lon="21.0563775">
    <tag k="addr:city" v="Warszawa@Warszawa Mokotów"/>
    <tag k="addr:housenumber" v="60"/>
    <tag k="addr:street" v="aleja Wilanowska"/>
    <tag k="source" v="http://ump.waw.pl/ retrieved 11:07:14 02/24/09 (UMP-Warszawa/src/WARSZAWA_MOKOTOW.ulice.txt)"/>
  </node>
  <node id="428474242" version="1" timestamp="2009-06-23T13:32:02Z" uid="20587" user="balrog-kun" changeset="1602529" lat="52.159939" lon="21.0906599">
    <tag k="addr:city" v="Warszawa@Warszawa Wilanów"/>
    <tag k="addr:housenumber" v="20"/>
    <tag k="addr:street" v="Vogla"/>
    <tag k="source" v="http://ump.waw.pl/ retrieved 11:07:14 02/24/09 (UMP-Warszawa/src/WARSZAWA_WILANOW.ulice.txt)"/>
  </node>
  <node id="428474243" version="1" timestamp="2009-06-23T13:32:02Z" uid="20587" user="balrog-kun" changeset="1602529" lat="52.1737764" lon="21.0664455">
    <tag k="addr:city" v="Warszawa@Warszawa Wilanów"/>
    <tag k="addr:housenumber" v="8"/>
    <tag k="addr:street" v="Radosna"/>
    <tag k="source" v="http://ump.waw.pl/ retrieved 11:07:14 02/24/09 (UMP-Warszawa/src/WARSZAWA_WILANOW.ulice.txt)"/>
  </node>
  <node id="428474244" version="1" timestamp="2009-06-23T13:32:02Z" uid="20587" user="balrog-kun" changeset="1602529" lat="52.1583596" lon="21.0896251">
    <tag k="addr:city" v="Warszawa@Warszawa Wilanów"/>
    <tag k="addr:housenumber" v="52"/>
    <tag k="addr:street" v="Koralowa"/>
    <tag k="source" v="http://ump.waw.pl/ retrieved 11:07:14 02/24/09 (UMP-Warszawa/src/WARSZAWA_WILANOW.ulice.txt)"/>
  </node>
  <node id="428474245" version="1" timestamp="2009-06-23T13:32:02Z" uid="20587" user="balrog-kun" changeset="1602529" lat="52.1632717" lon="21.0871274">
    <tag k="addr:city" v="Warszawa@Warszawa Wilanów"/>
    <tag k="addr:housenumber" v="21"/>
    <tag k="addr:street" v="Kostki-Potockiego"/>
    <tag k="source" v="http://ump.waw.pl/ retrieved 11:07:14 02/24/09 (UMP-Warszawa/src/WARSZAWA_WILANOW.ulice.txt)"/>
  </node>
  <node id="428474246" version="1" timestamp="2009-06-23T13:32:02Z" uid="20587" user="balrog-kun" changeset="1602529" lat="52.173761" lon="21.0513518">
    <tag k="addr:city" v="Warszawa@Warszawa Mokotów"/>
    <tag k="addr:housenumber" v="108"/>
    <tag k="addr:street" v="aleja Wilanowska"/>
    <tag k="source" v="http://ump.waw.pl/ retrieved 11:07:14 02/24/09 (UMP-Warszawa/src/WARSZAWA_MOKOTOW.ulice.txt)"/>
  </node>
  <node id="428474247" version="1" timestamp="2009-06-23T13:32:02Z" uid="20587" user="balrog-kun" changeset="1602529" lat="52.1734291" lon="21.067493">
    <tag k="addr:city" v="Warszawa@Warszawa Wilanów"/>
    <tag k="addr:housenumber" v="11"/>
    <tag k="addr:street" v="Radosna"/>
    <tag k="source" v="http://ump.waw.pl/ retrieved 11:07:14 02/24/09 (UMP-Warszawa/src/WARSZAWA_WILANOW.ulice.txt)"/>
  </node>
  <node id="428474248" version="1" timestamp="2009-06-23T13:32:02Z" uid="20587" user="balrog-kun" changeset="1602529" lat="52.1727913" lon="21.0525108">
    <tag k="addr:city" v="Warszawa@Warszawa Mokotów"/>
    <tag k="addr:housenumber" v="67"/>
    <tag k="addr:street" v="aleja Wilanowska"/>
    <tag k="source" v="http://ump.waw.pl/ retrieved 11:07:14 02/24/09 (UMP-Warszawa/src/WARSZAWA_MOKOTOW.ulice.txt)"/>
  </node>
  <node id="428474249" version="1" timestamp="2009-06-23T13:32:02Z" uid="20587" user="balrog-kun" changeset="1602529" lat="52.1736686" lon="21.0488439">
    <tag k="addr:city" v="Warszawa@Warszawa Mokotów"/>
    <tag k="addr:housenumber" v="103"/>
    <tag k="addr:street" v="aleja Wilanowska"/>
    <tag k="source" v="http://ump.waw.pl/ retrieved 11:07:14 02/24/09 (UMP-Warszawa/src/WARSZAWA_MOKOTOW.ulice.txt)"/>
  </node>
  <node id="428474250" version="1" timestamp="2009-06-23T13:32:03Z" uid="20587" user="balrog-kun" changeset="1602529" lat="52.1656644" lon="21.0783988">
    <tag k="addr:city" v="Warszawa@Warszawa Wilanów"/>
    <tag k="addr:housenumber" v="9"/>
    <tag k="addr:street" v="aleja Wilanowska"/>
    <tag k="source" v="http://ump.waw.pl/ retrieved 11:07:14 02/24/09 (UMP-Warszawa/src/WARSZAWA_WILANOW.ulice.txt)"/>
  </node>
  <node id="428474251" version="1" timestamp="2009-06-23T13:32:03Z" uid="20587" user="balrog-kun" changeset="1602529" lat="52.1847859" lon="21.0800206">
    <tag k="addr:city" v="Warszawa@Warszawa Mokotów"/>
    <tag k="addr:housenumber" v="19"/>
    <tag k="addr:street" v="Zawodzie"/>
    <tag k="source" v="http://ump.waw.pl/ retrieved 11:07:14 02/24/09 (UMP-Warszawa/src/WARSZAWA_MOKOTOW.ulice.txt)"/>
  </node>
  <node id="428474252" version="1" timestamp="2009-06-23T13:32:03Z" uid="20587" user="balrog-kun" changeset="1602529" lat="52.1743104" lon="21.0487422">
    <tag k="addr:city" v="Warszawa@Warszawa Mokotów"/>
    <tag k="addr:housenumber" v="126"/>
    <tag k="addr:street" v="aleja Wilanowska"/>
    <tag k="source" v="http://ump.waw.pl/ retrieved 11:07:14 02/24/09 (UMP-Warszawa/src/WARSZAWA_MOKOTOW.ulice.txt)"/>
  </node>
  <node id="428474253" version="1" timestamp="2009-06-23T13:32:03Z" uid="20587" user="balrog-kun" changeset="1602529" lat="52.1896618" lon="21.0595916">
    <tag k="addr:city" v="Warszawa@Warszawa Mokotów"/>
    <tag k="addr:housenumber" v="63"/>
    <tag k="addr:street" v="Powsińska"/>
    <tag k="source" v="http://ump.waw.pl/ retrieved 11:07:14 02/24/09 (UMP-Warszawa/src/WARSZAWA_MOKOTOW.ulice.txt)"/>
  </node>
  <node id="428474254" version="1" timestamp="2009-06-23T13:32:03Z" uid="20587" user="balrog-kun" changeset="1602529" lat="52.1760596" lon="21.0423344">
    <tag k="addr:city" v="Warszawa@Warszawa Mokotów"/>
    <tag k="addr:housenumber" v="182"/>
    <tag k="addr:street" v="aleja Wilanowska"/>
    <tag k="source" v="http://ump.waw.pl/ retrieved 11:07:14 02/24/09 (UMP-Warszawa/src/WARSZAWA_MOKOTOW.ulice.txt)"/>
  </node>
  <node id="428474255" version="1" timestamp="2009-06-23T13:32:03Z" uid="20587" user="balrog-kun" changeset="1602529" lat="52.1732659" lon="21.0501102">
    <tag k="addr:city" v="Warszawa@Warszawa Mokotów"/>
    <tag k="addr:housenumber" v="97"/>
    <tag k="addr:street" v="aleja Wilanowska"/>
    <tag k="source" v="http://ump.waw.pl/ retrieved 11:07:14 02/24/09 (UMP-Warszawa/src/WARSZAWA_MOKOTOW.ulice.txt)"/>
  </node>
  <node id="428474256" version="1" timestamp="2009-06-23T13:32:03Z" uid="20587" user="balrog-kun" changeset="1602529" lat="52.1621276" lon="21.0861512">
    <tag k="addr:city" v="Warszawa@Warszawa Wilanów"/>
    <tag k="addr:housenumber" v="372"/>
    <tag k="addr:street" v="Przyczółkowa"/>
    <tag k="source" v="http://ump.waw.pl/ retrieved 11:07:14 02/24/09 (UMP-Warszawa/src/WARSZAWA_WILANOW.ulice.txt)"/>
  </node>
  <node id="428474257" version="1" timestamp="2009-06-23T13:32:03Z" uid="20587" user="balrog-kun" changeset="1602529" lat="52.1603956" lon="21.0888046">
    <tag k="addr:city" v="Warszawa@Warszawa Wilanów"/>
    <tag k="addr:housenumber" v="1"/>
    <tag k="addr:street" v="Kostki-Potockiego"/>
    <tag k="source" v="http://ump.waw.pl/ retrieved 11:07:14 02/24/09 (UMP-Warszawa/src/WARSZAWA_WILANOW.ulice.txt)"/>
  </node>
  <node id="428474258" version="1" timestamp="2009-06-23T13:32:04Z" uid="20587" user="balrog-kun" changeset="1602529" lat="52.1907497" lon="21.0600982">
    <tag k="addr:city" v="Warszawa@Warszawa Mokotów"/>
    <tag k="addr:housenumber" v="66"/>
    <tag k="addr:street" v="Powsińska"/>
    <tag k="source" v="http://ump.waw.pl/ retrieved 11:07:14 02/24/09 (UMP-Warszawa/src/WARSZAWA_MOKOTOW.ulice.txt)"/>
  </node>
  <node id="428474259" version="1" timestamp="2009-06-23T13:32:04Z" uid="20587" user="balrog-kun" changeset="1602529" lat="52.1744356" lon="21.0776156">
    <tag k="addr:city" v="Warszawa@Warszawa Wilanów"/>
    <tag k="addr:housenumber" v="107"/>
    <tag k="addr:street" v="Wiertnicza"/>
    <tag k="source" v="http://ump.waw.pl/ retrieved 11:07:14 02/24/09 (UMP-Warszawa/src/WARSZAWA_WILANOW.ulice.txt)"/>
  </node>
  <node id="428474260" version="1" timestamp="2009-06-23T13:32:04Z" uid="20587" user="balrog-kun" changeset="1602529" lat="52.1600774" lon="21.0914673">
    <tag k="addr:city" v="Warszawa@Warszawa Wilanów"/>
    <tag k="addr:housenumber" v="28"/>
    <tag k="addr:street" v="Vogla"/>
    <tag k="source" v="http://ump.waw.pl/ retrieved 11:07:14 02/24/09 (UMP-Warszawa/src/WARSZAWA_WILANOW.ulice.txt)"/>
  </node>
  <node id="428474261" version="1" timestamp="2009-06-23T13:32:04Z" uid="20587" user="balrog-kun" changeset="1602529" lat="52.1713684" lon="21.0823434">
    <tag k="addr:city" v="Warszawa@Warszawa Wilanów"/>
    <tag k="addr:housenumber" v="56"/>
    <tag k="addr:street" v="Wiertnicza"/>
    <tag k="source" v="http://ump.waw.pl/ retrieved 11:07:14 02/24/09 (UMP-Warszawa/src/WARSZAWA_WILANOW.ulice.txt)"/>
  </node>
  <node id="428474262" version="1" timestamp="2009-06-23T13:32:04Z" uid="20587" user="balrog-kun" changeset="1602529" lat="52.1798463" lon="21.0718293">
    <tag k="addr:city" v="Warszawa@Warszawa Mokotów"/>
    <tag k="addr:housenumber" v="6"/>
    <tag k="addr:street" v="Powsińska"/>
  </node>
  <node id="428474263" version="1" timestamp="2009-06-23T13:32:04Z" uid="20587" user="balrog-kun" changeset="1602529" lat="52.1732726" lon="21.0536721">
    <tag k="addr:city" v="Warszawa@Warszawa Mokotów"/>
    <tag k="addr:housenumber" v="92"/>
    <tag k="addr:street" v="aleja Wilanowska"/>
    <tag k="source" v="http://ump.waw.pl/ retrieved 11:07:14 02/24/09 (UMP-Warszawa/src/WARSZAWA_MOKOTOW.ulice.txt)"/>
  </node>
  <node id="428474264" version="1" timestamp="2009-06-23T13:32:04Z" uid="20587" user="balrog-kun" changeset="1602529" lat="52.1705358" lon="21.0685175">
    <tag k="addr:city" v="Warszawa@Warszawa Mokotów"/>
    <tag k="addr:housenumber" v="4"/>
    <tag k="addr:street" v="Sobieskiego"/>
    <tag k="source" v="http://ump.waw.pl/ retrieved 11:07:14 02/24/09 (UMP-Warszawa/src/WARSZAWA_MOKOTOW.ulice.txt)"/>
  </node>
  <node id="428474265" version="1" timestamp="2009-06-23T13:32:04Z" uid="20587" user="balrog-kun" changeset="1602529" lat="52.1832858" lon="21.0552562">
    <tag k="addr:city" v="Warszawa@Warszawa Mokotów"/>
    <tag k="addr:housenumber" v="62"/>
    <tag k="addr:street" v="Sobieskiego"/>
  </node>
  <node id="428474266" version="1" timestamp="2009-06-23T13:32:04Z" uid="20587" user="balrog-kun" changeset="1602529" lat="52.1738726" lon="21.07975">
    <tag k="addr:city" v="Warszawa@Warszawa Wilanów"/>
    <tag k="addr:housenumber" v="88"/>
    <tag k="addr:street" v="Wiertnicza"/>
    <tag k="source" v="http://ump.waw.pl/ retrieved 11:07:14 02/24/09 (UMP-Warszawa/src/WARSZAWA_WILANOW.ulice.txt)"/>
  </node>
  <node id="428474267" version="1" timestamp="2009-06-23T13:32:05Z" uid="20587" user="balrog-kun" changeset="1602529" lat="52.1739989" lon="21.064866">
    <tag k="addr:city" v="Warszawa@Warszawa Mokotów"/>
    <tag k="addr:housenumber" v="14"/>
    <tag k="addr:street" v="Sobieskiego"/>
    <tag k="source" v="http://ump.waw.pl/ retrieved 11:07:14 02/24/09 (UMP-Warszawa/src/WARSZAWA_MOKOTOW.ulice.txt)"/>
  </node>
  <node id="428474268" version="1" timestamp="2009-06-23T13:32:05Z" uid="20587" user="balrog-kun" changeset="1602529" lat="52.1662413" lon="21.0799628">
    <tag k="addr:city" v="Warszawa@Warszawa Wilanów"/>
    <tag k="addr:housenumber" v="5"/>
    <tag k="addr:street" v="aleja Wilanowska"/>
    <tag k="source" v="http://ump.waw.pl/ retrieved 11:07:14 02/24/09 (UMP-Warszawa/src/WARSZAWA_WILANOW.ulice.txt)"/>
  </node>
  <node id="428474269" version="1" timestamp="2009-06-23T13:32:05Z" uid="20587" user="balrog-kun" changeset="1602529" lat="52.1852065" lon="21.0532779">
    <tag k="addr:city" v="Warszawa@Warszawa Mokotów"/>
    <tag k="addr:housenumber" v="72"/>
    <tag k="addr:street" v="Sobieskiego"/>
    <tag k="source" v="http://ump.waw.pl/ retrieved 11:07:14 02/24/09 (UMP-Warszawa/src/WARSZAWA_MOKOTOW.ulice.txt)"/>
  </node>
  <node id="428474270" version="1" timestamp="2009-06-23T13:32:05Z" uid="20587" user="balrog-kun" changeset="1602529" lat="52.1729051" lon="21.0642486">
    <tag k="addr:city" v="Warszawa@Warszawa Mokotów"/>
    <tag k="addr:housenumber" v="9"/>
    <tag k="addr:street" v="Sobieskiego"/>
    <tag k="source" v="http://ump.waw.pl/ retrieved 11:07:14 02/24/09 (UMP-Warszawa/src/WARSZAWA_MOKOTOW.ulice.txt)"/>
  </node>
  <node id="428474271" version="1" timestamp="2009-06-23T13:32:05Z" uid="20587" user="balrog-kun" changeset="1602529" lat="52.1603992" lon="21.0930667">
    <tag k="addr:city" v="Warszawa@Warszawa Wilanów"/>
    <tag k="addr:housenumber" v="40"/>
    <tag k="addr:street" v="Vogla"/>
    <tag k="source" v="http://ump.waw.pl/ retrieved 11:07:14 02/24/09 (UMP-Warszawa/src/WARSZAWA_WILANOW.ulice.txt)"/>
  </node>
  <node id="428474272" version="1" timestamp="2009-06-23T13:32:05Z" uid="20587" user="balrog-kun" changeset="1602529" lat="52.1733751" lon="21.0786849">
    <tag k="addr:city" v="Warszawa@Warszawa Wilanów"/>
    <tag k="addr:housenumber" v="93"/>
    <tag k="addr:street" v="Wiertnicza"/>
    <tag k="source" v="http://ump.waw.pl/ retrieved 11:07:14 02/24/09 (UMP-Warszawa/src/WARSZAWA_WILANOW.ulice.txt)"/>
  </node>
  <node id="428474273" version="1" timestamp="2009-06-23T13:32:05Z" uid="20587" user="balrog-kun" changeset="1602529" lat="52.1763983" lon="21.0770054">
    <tag k="addr:city" v="Warszawa@Warszawa Wilanów"/>
    <tag k="addr:housenumber" v="124"/>
    <tag k="addr:street" v="Wiertnicza"/>
  </node>
  <node id="428474274" version="1" timestamp="2009-06-23T13:32:05Z" uid="20587" user="balrog-kun" changeset="1602529" lat="52.1598072" lon="21.0898908">
    <tag k="addr:city" v="Warszawa@Warszawa Wilanów"/>
    <tag k="addr:housenumber" v="8"/>
    <tag k="addr:street" v="Vogla"/>
    <tag k="source" v="http://ump.waw.pl/ retrieved 11:07:14 02/24/09 (UMP-Warszawa/src/WARSZAWA_WILANOW.ulice.txt)"/>
  </node>
  <node id="428474275" version="1" timestamp="2009-06-23T13:32:06Z" uid="20587" user="balrog-kun" changeset="1602529" lat="52.1709418" lon="21.0812265">
    <tag k="addr:city" v="Warszawa@Warszawa Wilanów"/>
    <tag k="addr:housenumber" v="63"/>
    <tag k="addr:street" v="Wiertnicza"/>
    <tag k="source" v="http://ump.waw.pl/ retrieved 11:07:14 02/24/09 (UMP-Warszawa/src/WARSZAWA_WILANOW.ulice.txt)"/>
  </node>
  <node id="428474276" version="1" timestamp="2009-06-23T13:32:06Z" uid="20587" user="balrog-kun" changeset="1602529" lat="52.1571295" lon="21.0908526">
    <tag k="addr:city" v="Warszawa@Warszawa Wilanów"/>
    <tag k="addr:housenumber" v="11"/>
    <tag k="addr:street" v="Koralowa"/>
    <tag k="source" v="http://ump.waw.pl/ retrieved 11:07:14 02/24/09 (UMP-Warszawa/src/WARSZAWA_WILANOW.ulice.txt)"/>
  </node>
  <node id="428474276" version="2" timestamp="2011-01-18T03:07:27Z" uid="20587" user="balrog-kun" changeset="7006661" lat="52.15673" lon="21.0910697">
    <tag k="addr:city" v="Warszawa@Warszawa Wilanów"/>
    <tag k="addr:housenumber" v="11"/>
    <tag k="addr:street" v="Koralowa"/>
    <tag k="source" v="http://ump.waw.pl/ retrieved 11:07:14 02/24/09 (UMP-Warszawa/src/WARSZAWA_WILANOW.ulice.txt)"/>
  </node>
  <node id="428474277" version="1" timestamp="2009-06-23T13:32:06Z" uid="20587" user="balrog-kun" changeset="1602529" lat="52.1601397" lon="21.0887643">
    <tag k="addr:city" v="Warszawa@Warszawa Wilanów"/>
    <tag k="addr:housenumber" v="11"/>
    <tag k="addr:street" v="Vogla"/>
    <tag k="source" v="http://ump.waw.pl/ retrieved 11:07:14 02/24/09 (UMP-Warszawa/src/WARSZAWA_WILANOW.ulice.txt)"/>
  </node>
  <node id="428474278" version="1" timestamp="2009-06-23T13:32:06Z" uid="20587" user="balrog-kun" changeset="1602529" lat="52.1618054" lon="21.086367">
    <tag k="addr:city" v="Warszawa@Warszawa Wilanów"/>
    <tag k="addr:housenumber" v="370"/>
    <tag k="addr:street" v="Przyczółkowa"/>
    <tag k="source" v="http://ump.waw.pl/ retrieved 11:07:14 02/24/09 (UMP-Warszawa/src/WARSZAWA_WILANOW.ulice.txt)"/>
  </node>
  <node id="428474279" version="1" timestamp="2009-06-23T13:32:06Z" uid="20587" user="balrog-kun" changeset="1602529" lat="52.1603996" lon="21.0895554">
    <tag k="addr:city" v="Warszawa@Warszawa Wilanów"/>
    <tag k="addr:housenumber" v="2"/>
    <tag k="addr:street" v="Kostki-Potockiego"/>
    <tag k="source" v="http://ump.waw.pl/ retrieved 11:07:14 02/24/09 (UMP-Warszawa/src/WARSZAWA_WILANOW.ulice.txt)"/>
  </node>
  <node id="428474280" version="1" timestamp="2009-06-23T13:32:06Z" uid="20587" user="balrog-kun" changeset="1602529" lat="52.1746968" lon="21.0688719">
    <tag k="addr:city" v="Warszawa@Warszawa Wilanów"/>
    <tag k="addr:housenumber" v="3"/>
    <tag k="addr:street" v="Radosna"/>
    <tag k="source" v="http://ump.waw.pl/ retrieved 11:07:14 02/24/09 (UMP-Warszawa/src/WARSZAWA_WILANOW.ulice.txt)"/>
  </node>
  <node id="428474281" version="1" timestamp="2009-06-23T13:32:06Z" uid="20587" user="balrog-kun" changeset="1602529" lat="52.1672969" lon="21.0862463">
    <tag k="addr:city" v="Warszawa@Warszawa Wilanów"/>
    <tag k="addr:housenumber" v="24"/>
    <tag k="addr:street" v="Kostki-Potockiego"/>
    <tag k="source" v="http://ump.waw.pl/ retrieved 11:07:14 02/24/09 (UMP-Warszawa/src/WARSZAWA_WILANOW.ulice.txt)"/>
  </node>
  <node id="428474282" version="1" timestamp="2009-06-23T13:32:06Z" uid="20587" user="balrog-kun" changeset="1602529" lat="52.1594997" lon="21.0899772">
    <tag k="addr:city" v="Warszawa@Warszawa Wilanów"/>
    <tag k="addr:housenumber" v="49"/>
    <tag k="addr:street" v="Koralowa"/>
    <tag k="source" v="http://ump.waw.pl/ retrieved 11:07:14 02/24/09 (UMP-Warszawa/src/WARSZAWA_WILANOW.ulice.txt)"/>
  </node>
  <node id="428474283" version="1" timestamp="2009-06-23T13:32:06Z" uid="20587" user="balrog-kun" changeset="1602529" lat="52.1901306" lon="21.0608772">
    <tag k="addr:city" v="Warszawa@Warszawa Mokotów"/>
    <tag k="addr:housenumber" v="64"/>
    <tag k="addr:street" v="Powsińska"/>
    <tag k="source" v="http://ump.waw.pl/ retrieved 11:07:14 02/24/09 (UMP-Warszawa/src/WARSZAWA_MOKOTOW.ulice.txt)"/>
  </node>
  <node id="428474284" version="1" timestamp="2009-06-23T13:32:07Z" uid="20587" user="balrog-kun" changeset="1602529" lat="52.1769897" lon="21.0384353">
    <tag k="addr:city" v="Warszawa@Warszawa Mokotów"/>
    <tag k="addr:housenumber" v="196"/>
    <tag k="addr:street" v="aleja Wilanowska"/>
    <tag k="source" v="http://ump.waw.pl/ retrieved 11:07:14 02/24/09 (UMP-Warszawa/src/WARSZAWA_MOKOTOW.ulice.txt)"/>
  </node>
  <node id="428474285" version="1" timestamp="2009-06-23T13:32:07Z" uid="20587" user="balrog-kun" changeset="1602529" lat="52.161338" lon="21.0941265">
    <tag k="addr:city" v="Warszawa@Warszawa Wilanów"/>
    <tag k="addr:housenumber" v="17"/>
    <tag k="addr:street" v="Vogla"/>
    <tag k="source" v="http://ump.waw.pl/ retrieved 11:07:14 02/24/09 (UMP-Warszawa/src/WARSZAWA_WILANOW.ulice.txt)"/>
  </node>
  <node id="428474286" version="1" timestamp="2009-06-23T13:32:07Z" uid="20587" user="balrog-kun" changeset="1602529" lat="52.1722598" lon="21.0549367">
    <tag k="addr:city" v="Warszawa@Warszawa Mokotów"/>
    <tag k="addr:housenumber" v="59"/>
    <tag k="addr:street" v="aleja Wilanowska"/>
    <tag k="source" v="http://ump.waw.pl/ retrieved 11:07:14 02/24/09 (UMP-Warszawa/src/WARSZAWA_MOKOTOW.ulice.txt)"/>
  </node>
  <node id="428474287" version="1" timestamp="2009-06-23T13:32:07Z" uid="20587" user="balrog-kun" changeset="1602529" lat="52.1714776" lon="21.0807091">
    <tag k="addr:city" v="Warszawa@Warszawa Wilanów"/>
    <tag k="addr:housenumber" v="65"/>
    <tag k="addr:street" v="Wiertnicza"/>
    <tag k="source" v="http://ump.waw.pl/ retrieved 11:07:14 02/24/09 (UMP-Warszawa/src/WARSZAWA_WILANOW.ulice.txt)"/>
  </node>
  <node id="428474288" version="1" timestamp="2009-06-23T13:32:07Z" uid="20587" user="balrog-kun" changeset="1602529" lat="52.1561889" lon="21.0911807">
    <tag k="addr:city" v="Warszawa@Warszawa Wilanów"/>
    <tag k="addr:housenumber" v="7"/>
    <tag k="addr:street" v="Koralowa"/>
    <tag k="source" v="http://ump.waw.pl/ retrieved 11:07:14 02/24/09 (UMP-Warszawa/src/WARSZAWA_WILANOW.ulice.txt)"/>
  </node>
  <node id="428474288" version="2" timestamp="2011-01-18T03:07:31Z" uid="20587" user="balrog-kun" changeset="7006661" lat="52.1562456" lon="21.091205">
    <tag k="addr:city" v="Warszawa@Warszawa Wilanów"/>
    <tag k="addr:housenumber" v="7"/>
    <tag k="addr:street" v="Koralowa"/>
    <tag k="source" v="http://ump.waw.pl/ retrieved 11:07:14 02/24/09 (UMP-Warszawa/src/WARSZAWA_WILANOW.ulice.txt)"/>
  </node>
  <node id="428474289" version="1" timestamp="2009-06-23T13:32:07Z" uid="20587" user="balrog-kun" changeset="1602529" lat="52.1762646" lon="21.0414637">
    <tag k="addr:city" v="Warszawa@Warszawa Mokotów"/>
    <tag k="addr:housenumber" v="194"/>
    <tag k="addr:street" v="aleja Wilanowska"/>
    <tag k="source" v="http://ump.waw.pl/ retrieved 11:07:14 02/24/09 (UMP-Warszawa/src/WARSZAWA_MOKOTOW.ulice.txt)"/>
  </node>
  <node id="428474290" version="1" timestamp="2009-06-23T13:32:07Z" uid="20587" user="balrog-kun" changeset="1602529" lat="52.1901146" lon="21.0590242">
    <tag k="addr:city" v="Warszawa@Warszawa Mokotów"/>
    <tag k="addr:housenumber" v="67"/>
    <tag k="addr:street" v="Powsińska"/>
    <tag k="source" v="http://ump.waw.pl/ retrieved 11:07:14 02/24/09 (UMP-Warszawa/src/WARSZAWA_MOKOTOW.ulice.txt)"/>
  </node>
  <node id="428474291" version="1" timestamp="2009-06-23T13:32:07Z" uid="20587" user="balrog-kun" changeset="1602529" lat="52.1732373" lon="21.0804079">
    <tag k="addr:city" v="Warszawa@Warszawa Wilanów"/>
    <tag k="addr:housenumber" v="76"/>
    <tag k="addr:street" v="Wiertnicza"/>
    <tag k="source" v="http://ump.waw.pl/ retrieved 11:07:14 02/24/09 (UMP-Warszawa/src/WARSZAWA_WILANOW.ulice.txt)"/>
  </node>
  <node id="428474292" version="1" timestamp="2009-06-23T13:32:07Z" uid="20587" user="balrog-kun" changeset="1602529" lat="52.1613024" lon="21.0890428">
    <tag k="addr:city" v="Warszawa@Warszawa Wilanów"/>
    <tag k="addr:housenumber" v="4"/>
    <tag k="addr:street" v="Kostki-Potockiego"/>
    <tag k="source" v="http://ump.waw.pl/ retrieved 11:07:14 02/24/09 (UMP-Warszawa/src/WARSZAWA_WILANOW.ulice.txt)"/>
  </node>
  <node id="428474293" version="1" timestamp="2009-06-23T13:32:07Z" uid="20587" user="balrog-kun" changeset="1602529" lat="52.1889268" lon="21.0622717">
    <tag k="addr:city" v="Warszawa@Warszawa Mokotów"/>
    <tag k="addr:housenumber" v="48"/>
    <tag k="addr:street" v="Powsińska"/>
    <tag k="source" v="http://ump.waw.pl/ retrieved 11:07:14 02/24/09 (UMP-Warszawa/src/WARSZAWA_MOKOTOW.ulice.txt)"/>
  </node>
  <node id="428474294" version="1" timestamp="2009-06-23T13:32:08Z" uid="20587" user="balrog-kun" changeset="1602529" lat="52.1595954" lon="21.0891698">
    <tag k="addr:city" v="Warszawa@Warszawa Wilanów"/>
    <tag k="addr:housenumber" v="78"/>
    <tag k="addr:street" v="Koralowa"/>
    <tag k="source" v="http://ump.waw.pl/ retrieved 11:07:14 02/24/09 (UMP-Warszawa/src/WARSZAWA_WILANOW.ulice.txt)"/>
  </node>
  <node id="428474295" version="1" timestamp="2009-06-23T13:32:08Z" uid="20587" user="balrog-kun" changeset="1602529" lat="52.1739164" lon="21.0781143">
    <tag k="addr:city" v="Warszawa@Warszawa Wilanów"/>
    <tag k="addr:housenumber" v="97"/>
    <tag k="addr:street" v="Wiertnicza"/>
    <tag k="source" v="http://ump.waw.pl/ retrieved 11:07:14 02/24/09 (UMP-Warszawa/src/WARSZAWA_WILANOW.ulice.txt)"/>
  </node>
  <node id="428474296" version="1" timestamp="2009-06-23T13:32:08Z" uid="20587" user="balrog-kun" changeset="1602529" lat="52.1759686" lon="21.0775849">
    <tag k="addr:city" v="Warszawa@Warszawa Wilanów"/>
    <tag k="addr:housenumber" v="122"/>
    <tag k="addr:street" v="Wiertnicza"/>
    <tag k="source" v="http://ump.waw.pl/ retrieved 11:07:14 02/24/09 (UMP-Warszawa/src/WARSZAWA_WILANOW.ulice.txt)"/>
  </node>
  <node id="428474297" version="1" timestamp="2009-06-23T13:32:08Z" uid="20587" user="balrog-kun" changeset="1602529" lat="52.1619839" lon="21.0879492">
    <tag k="addr:city" v="Warszawa@Warszawa Wilanów"/>
    <tag k="addr:housenumber" v="17"/>
    <tag k="addr:street" v="Kostki-Potockiego"/>
    <tag k="source" v="http://ump.waw.pl/ retrieved 11:07:14 02/24/09 (UMP-Warszawa/src/WARSZAWA_WILANOW.ulice.txt)"/>
  </node>
  <node id="428474298" version="1" timestamp="2009-06-23T13:32:08Z" uid="20587" user="balrog-kun" changeset="1602529" lat="52.1741591" lon="21.0674543">
    <tag k="addr:city" v="Warszawa@Warszawa Wilanów"/>
    <tag k="addr:housenumber" v="4"/>
    <tag k="addr:street" v="Radosna"/>
    <tag k="source" v="http://ump.waw.pl/ retrieved 11:07:14 02/24/09 (UMP-Warszawa/src/WARSZAWA_WILANOW.ulice.txt)"/>
  </node>
  <node id="428474299" version="1" timestamp="2009-06-23T13:32:08Z" uid="20587" user="balrog-kun" changeset="1602529" lat="52.1592174" lon="21.0883231">
    <tag k="addr:city" v="Warszawa@Warszawa Wilanów"/>
    <tag k="addr:housenumber" v="354"/>
    <tag k="addr:street" v="Przyczółkowa"/>
    <tag k="source" v="http://ump.waw.pl/ retrieved 11:07:14 02/24/09 (UMP-Warszawa/src/WARSZAWA_WILANOW.ulice.txt)"/>
  </node>
  <node id="428474300" version="1" timestamp="2009-06-23T13:32:08Z" uid="20587" user="balrog-kun" changeset="1602529" lat="52.180626" lon="21.0709558">
    <tag k="addr:city" v="Warszawa@Warszawa Mokotów"/>
    <tag k="addr:housenumber" v="16"/>
    <tag k="addr:street" v="Powsińska"/>
    <tag k="source" v="http://ump.waw.pl/ retrieved 11:07:14 02/24/09 (UMP-Warszawa/src/WARSZAWA_MOKOTOW.ulice.txt)"/>
  </node>
  <node id="428474301" version="1" timestamp="2009-06-23T13:32:08Z" uid="20587" user="balrog-kun" changeset="1602529" lat="52.1714887" lon="21.0568719">
    <tag k="addr:city" v="Warszawa@Warszawa Mokotów"/>
    <tag k="addr:housenumber" v="43"/>
    <tag k="addr:street" v="aleja Wilanowska"/>
    <tag k="source" v="http://ump.waw.pl/ retrieved 11:07:14 02/24/09 (UMP-Warszawa/src/WARSZAWA_MOKOTOW.ulice.txt)"/>
  </node>
  <node id="428474302" version="1" timestamp="2009-06-23T13:32:08Z" uid="20587" user="balrog-kun" changeset="1602529" lat="52.1621241" lon="21.0885784">
    <tag k="addr:city" v="Warszawa@Warszawa Wilanów"/>
    <tag k="addr:housenumber" v="6"/>
    <tag k="addr:street" v="Kostki-Potockiego"/>
    <tag k="source" v="http://ump.waw.pl/ retrieved 11:07:14 02/24/09 (UMP-Warszawa/src/WARSZAWA_WILANOW.ulice.txt)"/>
  </node>
  <node id="428474303" version="1" timestamp="2009-06-23T13:32:08Z" uid="20587" user="balrog-kun" changeset="1602529" lat="52.1693695" lon="21.0828067">
    <tag k="addr:city" v="Warszawa@Warszawa Wilanów"/>
    <tag k="addr:housenumber" v="39"/>
    <tag k="addr:street" v="Wiertnicza"/>
    <tag k="source" v="http://ump.waw.pl/ retrieved 11:07:14 02/24/09 (UMP-Warszawa/src/WARSZAWA_WILANOW.ulice.txt)"/>
  </node>
  <node id="428474304" version="1" timestamp="2009-06-23T13:32:08Z" uid="20587" user="balrog-kun" changeset="1602529" lat="52.1846889" lon="21.0828648">
    <tag k="addr:city" v="Warszawa@Warszawa Mokotów"/>
    <tag k="addr:housenumber" v="22"/>
    <tag k="addr:street" v="Zawodzie"/>
    <tag k="source" v="http://ump.waw.pl/ retrieved 11:07:14 02/24/09 (UMP-Warszawa/src/WARSZAWA_MOKOTOW.ulice.txt)"/>
  </node>
  <node id="428474305" version="1" timestamp="2009-06-23T13:32:09Z" uid="20587" user="balrog-kun" changeset="1602529" lat="52.1799535" lon="21.071714">
    <tag k="addr:city" v="Warszawa@Warszawa Mokotów"/>
    <tag k="addr:housenumber" v="8"/>
    <tag k="addr:street" v="Powsińska"/>
    <tag k="source" v="http://ump.waw.pl/ retrieved 11:07:14 02/24/09 (UMP-Warszawa/src/WARSZAWA_MOKOTOW.ulice.txt)"/>
  </node>
  <node id="428474306" version="1" timestamp="2009-06-23T13:32:09Z" uid="20587" user="balrog-kun" changeset="1602529" lat="52.161517" lon="21.0882165">
    <tag k="addr:city" v="Warszawa@Warszawa Wilanów"/>
    <tag k="addr:housenumber" v="5"/>
    <tag k="addr:street" v="Kostki-Potockiego"/>
    <tag k="source" v="http://ump.waw.pl/ retrieved 11:07:14 02/24/09 (UMP-Warszawa/src/WARSZAWA_WILANOW.ulice.txt)"/>
  </node>
  <node id="428474307" version="1" timestamp="2009-06-23T13:32:09Z" uid="20587" user="balrog-kun" changeset="1602529" lat="52.1601284" lon="21.091765">
    <tag k="addr:city" v="Warszawa@Warszawa Wilanów"/>
    <tag k="addr:housenumber" v="32"/>
    <tag k="addr:street" v="Vogla"/>
    <tag k="source" v="http://ump.waw.pl/ retrieved 11:07:14 02/24/09 (UMP-Warszawa/src/WARSZAWA_WILANOW.ulice.txt)"/>
  </node>
  <node id="428474308" version="1" timestamp="2009-06-23T13:32:09Z" uid="20587" user="balrog-kun" changeset="1602529" lat="52.1755022" lon="21.0764557">
    <tag k="addr:city" v="Warszawa@Warszawa Wilanów"/>
    <tag k="addr:housenumber" v="123"/>
    <tag k="addr:street" v="Wiertnicza"/>
    <tag k="source" v="http://ump.waw.pl/ retrieved 11:07:14 02/24/09 (UMP-Warszawa/src/WARSZAWA_WILANOW.ulice.txt)"/>
  </node>
  <node id="428474309" version="1" timestamp="2009-06-23T13:32:09Z" uid="20587" user="balrog-kun" changeset="1602529" lat="52.1729934" lon="21.0513421">
    <tag k="addr:city" v="Warszawa@Warszawa Mokotów"/>
    <tag k="addr:housenumber" v="91"/>
    <tag k="addr:street" v="aleja Wilanowska"/>
    <tag k="source" v="http://ump.waw.pl/ retrieved 11:07:14 02/24/09 (UMP-Warszawa/src/WARSZAWA_MOKOTOW.ulice.txt)"/>
  </node>
  <node id="428474310" version="1" timestamp="2009-06-23T13:32:09Z" uid="20587" user="balrog-kun" changeset="1602529" lat="52.1676108" lon="21.0855675">
    <tag k="addr:city" v="Warszawa@Warszawa Wilanów"/>
    <tag k="addr:housenumber" v="16"/>
    <tag k="addr:street" v="Wiertnicza"/>
    <tag k="source" v="http://ump.waw.pl/ retrieved 11:07:14 02/24/09 (UMP-Warszawa/src/WARSZAWA_WILANOW.ulice.txt)"/>
  </node>
  <node id="428474311" version="1" timestamp="2009-06-23T13:32:09Z" uid="20587" user="balrog-kun" changeset="1602529" lat="52.1598787" lon="21.0903081">
    <tag k="addr:city" v="Warszawa@Warszawa Wilanów"/>
    <tag k="addr:housenumber" v="14"/>
    <tag k="addr:street" v="Vogla"/>
    <tag k="source" v="http://ump.waw.pl/ retrieved 11:07:14 02/24/09 (UMP-Warszawa/src/WARSZAWA_WILANOW.ulice.txt)"/>
  </node>
  <node id="428474312" version="1" timestamp="2009-06-23T13:32:10Z" uid="20587" user="balrog-kun" changeset="1602529" lat="52.1752499" lon="21.0768049">
    <tag k="addr:city" v="Warszawa@Warszawa Wilanów"/>
    <tag k="addr:housenumber" v="117"/>
    <tag k="addr:street" v="Wiertnicza"/>
    <tag k="source" v="http://ump.waw.pl/ retrieved 11:07:14 02/24/09 (UMP-Warszawa/src/WARSZAWA_WILANOW.ulice.txt)"/>
  </node>
  <node id="428474313" version="1" timestamp="2009-06-23T13:32:10Z" uid="20587" user="balrog-kun" changeset="1602529" lat="52.156935" lon="21.0898592">
    <tag k="addr:city" v="Warszawa@Warszawa Wilanów"/>
    <tag k="addr:housenumber" v="306"/>
    <tag k="addr:street" v="Przyczółkowa"/>
    <tag k="source" v="http://ump.waw.pl/ retrieved 11:07:14 02/24/09 (UMP-Warszawa/src/WARSZAWA_WILANOW.ulice.txt)"/>
  </node>
  <node id="428474314" version="1" timestamp="2009-06-23T13:32:10Z" uid="20587" user="balrog-kun" changeset="1602529" lat="52.1735205" lon="21.0524944">
    <tag k="addr:city" v="Warszawa@Warszawa Mokotów"/>
    <tag k="addr:housenumber" v="98"/>
    <tag k="addr:street" v="aleja Wilanowska"/>
    <tag k="source" v="http://ump.waw.pl/ retrieved 11:07:14 02/24/09 (UMP-Warszawa/src/WARSZAWA_MOKOTOW.ulice.txt)"/>
  </node>
  <node id="428474315" version="1" timestamp="2009-06-23T13:32:10Z" uid="20587" user="balrog-kun" changeset="1602529" lat="52.1877316" lon="21.0506848">
    <tag k="addr:city" v="Warszawa@Warszawa Mokotów"/>
    <tag k="addr:housenumber" v="78"/>
    <tag k="addr:street" v="Sobieskiego"/>
    <tag k="source" v="http://ump.waw.pl/ retrieved 11:07:14 02/24/09 (UMP-Warszawa/src/WARSZAWA_MOKOTOW.ulice.txt)"/>
  </node>
  <node id="428474316" version="1" timestamp="2009-06-23T13:32:10Z" uid="20587" user="balrog-kun" changeset="1602529" lat="52.1655326" lon="21.0871363">
    <tag k="addr:city" v="Warszawa@Warszawa Wilanów"/>
    <tag k="addr:housenumber" v="16"/>
    <tag k="addr:street" v="Kostki-Potockiego"/>
    <tag k="source" v="http://ump.waw.pl/ retrieved 11:07:14 02/24/09 (UMP-Warszawa/src/WARSZAWA_WILANOW.ulice.txt)"/>
  </node>
  <node id="428474317" version="1" timestamp="2009-06-23T13:32:10Z" uid="20587" user="balrog-kun" changeset="1602529" lat="52.1750931" lon="21.076984">
    <tag k="addr:city" v="Warszawa@Warszawa Wilanów"/>
    <tag k="addr:housenumber" v="115"/>
    <tag k="addr:street" v="Wiertnicza"/>
    <tag k="source" v="http://ump.waw.pl/ retrieved 11:07:14 02/24/09 (UMP-Warszawa/src/WARSZAWA_WILANOW.ulice.txt)"/>
  </node>
  <node id="428474318" version="1" timestamp="2009-06-23T13:32:10Z" uid="20587" user="balrog-kun" changeset="1602529" lat="52.171232" lon="21.06587">
    <tag k="addr:city" v="Warszawa@Warszawa Mokotów"/>
    <tag k="addr:housenumber" v="1"/>
    <tag k="addr:street" v="Sobieskiego"/>
    <tag k="source" v="http://ump.waw.pl/ retrieved 11:07:14 02/24/09 (UMP-Warszawa/src/WARSZAWA_MOKOTOW.ulice.txt)"/>
  </node>
  <node id="428474319" version="1" timestamp="2009-06-23T13:32:10Z" uid="20587" user="balrog-kun" changeset="1602529" lat="52.1753674" lon="21.0416549">
    <tag k="addr:city" v="Warszawa@Warszawa Mokotów"/>
    <tag k="addr:housenumber" v="263"/>
    <tag k="addr:street" v="aleja Wilanowska"/>
    <tag k="source" v="http://ump.waw.pl/ retrieved 11:07:14 02/24/09 (UMP-Warszawa/src/WARSZAWA_MOKOTOW.ulice.txt)"/>
  </node>
  <node id="428474320" version="1" timestamp="2009-06-23T13:32:10Z" uid="20587" user="balrog-kun" changeset="1602529" lat="52.1596681" lon="21.0888546">
    <tag k="addr:city" v="Warszawa@Warszawa Wilanów"/>
    <tag k="addr:housenumber" v="4"/>
    <tag k="addr:street" v="Vogla"/>
    <tag k="source" v="http://ump.waw.pl/ retrieved 11:07:14 02/24/09 (UMP-Warszawa/src/WARSZAWA_WILANOW.ulice.txt)"/>
  </node>
  <node id="428474321" version="1" timestamp="2009-06-23T13:32:10Z" uid="20587" user="balrog-kun" changeset="1602529" lat="52.1906722" lon="21.0583254">
    <tag k="addr:city" v="Warszawa@Warszawa Mokotów"/>
    <tag k="addr:housenumber" v="69"/>
    <tag k="addr:street" v="Powsińska"/>
    <tag k="source" v="http://ump.waw.pl/ retrieved 11:07:14 02/24/09 (UMP-Warszawa/src/WARSZAWA_MOKOTOW.ulice.txt)"/>
  </node>
  <node id="428474322" version="1" timestamp="2009-06-23T13:32:10Z" uid="20587" user="balrog-kun" changeset="1602529" lat="52.1888779" lon="21.060574">
    <tag k="addr:city" v="Warszawa@Warszawa Mokotów"/>
    <tag k="addr:housenumber" v="61"/>
    <tag k="addr:street" v="Powsińska"/>
    <tag k="source" v="http://ump.waw.pl/ retrieved 11:07:14 02/24/09 (UMP-Warszawa/src/WARSZAWA_MOKOTOW.ulice.txt)"/>
  </node>
  <node id="428474323" version="1" timestamp="2009-06-23T13:32:11Z" uid="20587" user="balrog-kun" changeset="1602529" lat="52.1760514" lon="21.0387191">
    <tag k="addr:city" v="Warszawa@Warszawa Mokotów"/>
    <tag k="addr:housenumber" v="287"/>
    <tag k="addr:street" v="aleja Wilanowska"/>
    <tag k="source" v="http://ump.waw.pl/ retrieved 11:07:14 02/24/09 (UMP-Warszawa/src/WARSZAWA_MOKOTOW.ulice.txt)"/>
  </node>
  <node id="428474324" version="1" timestamp="2009-06-23T13:32:11Z" uid="20587" user="balrog-kun" changeset="1602529" lat="52.1912207" lon="21.057638">
    <tag k="addr:city" v="Warszawa@Warszawa Mokotów"/>
    <tag k="addr:housenumber" v="71"/>
    <tag k="addr:street" v="Powsińska"/>
    <tag k="source" v="http://ump.waw.pl/ retrieved 11:07:14 02/24/09 (UMP-Warszawa/src/WARSZAWA_MOKOTOW.ulice.txt)"/>
  </node>
  <node id="428474325" version="1" timestamp="2009-06-23T13:32:11Z" uid="20587" user="balrog-kun" changeset="1602529" lat="52.185583" lon="21.0778124">
    <tag k="addr:city" v="Warszawa@Warszawa Mokotów"/>
    <tag k="addr:housenumber" v="25"/>
    <tag k="addr:street" v="Zawodzie"/>
    <tag k="source" v="http://ump.waw.pl/ retrieved 11:07:14 02/24/09 (UMP-Warszawa/src/WARSZAWA_MOKOTOW.ulice.txt)"/>
  </node>
  <node id="428474326" version="1" timestamp="2009-06-23T13:32:11Z" uid="20587" user="balrog-kun" changeset="1602529" lat="52.1595525" lon="21.0881047">
    <tag k="addr:city" v="Warszawa@Warszawa Wilanów"/>
    <tag k="addr:housenumber" v="2"/>
    <tag k="addr:street" v="Vogla"/>
    <tag k="source" v="http://ump.waw.pl/ retrieved 11:07:14 02/24/09 (UMP-Warszawa/src/WARSZAWA_WILANOW.ulice.txt)"/>
  </node>
  <node id="428474327" version="1" timestamp="2009-06-23T13:32:11Z" uid="20587" user="balrog-kun" changeset="1602529" lat="52.1698157" lon="21.0839513">
    <tag k="addr:city" v="Warszawa@Warszawa Wilanów"/>
    <tag k="addr:housenumber" v="32"/>
    <tag k="addr:street" v="Wiertnicza"/>
    <tag k="source" v="http://ump.waw.pl/ retrieved 11:07:14 02/24/09 (UMP-Warszawa/src/WARSZAWA_WILANOW.ulice.txt)"/>
  </node>
  <node id="428474328" version="1" timestamp="2009-06-23T13:32:11Z" uid="20587" user="balrog-kun" changeset="1602529" lat="52.1926867" lon="21.0576609">
    <tag k="addr:city" v="Warszawa@Warszawa Mokotów"/>
    <tag k="addr:housenumber" v="106"/>
    <tag k="addr:street" v="Powsińska"/>
    <tag k="source" v="http://ump.waw.pl/ retrieved 11:07:14 02/24/09 (UMP-Warszawa/src/WARSZAWA_MOKOTOW.ulice.txt)"/>
  </node>
  <node id="428474329" version="1" timestamp="2009-06-23T13:32:11Z" uid="20587" user="balrog-kun" changeset="1602529" lat="52.1602556" lon="21.0925076">
    <tag k="addr:city" v="Warszawa@Warszawa Wilanów"/>
    <tag k="addr:housenumber" v="36"/>
    <tag k="addr:street" v="Vogla"/>
    <tag k="source" v="http://ump.waw.pl/ retrieved 11:07:14 02/24/09 (UMP-Warszawa/src/WARSZAWA_WILANOW.ulice.txt)"/>
  </node>
  <node id="428474330" version="1" timestamp="2009-06-23T13:32:11Z" uid="20587" user="balrog-kun" changeset="1602529" lat="52.1782721" lon="21.0724713">
    <tag k="addr:city" v="Warszawa@Warszawa Wilanów"/>
    <tag k="addr:housenumber" v="167"/>
    <tag k="addr:street" v="Wiertnicza"/>
    <tag k="source" v="http://ump.waw.pl/ retrieved 11:07:14 02/24/09 (UMP-Warszawa/src/WARSZAWA_WILANOW.ulice.txt)"/>
  </node>
  <node id="428474331" version="1" timestamp="2009-06-23T13:32:11Z" uid="20587" user="balrog-kun" changeset="1602529" lat="52.1588509" lon="21.0894529">
    <tag k="addr:city" v="Warszawa@Warszawa Wilanów"/>
    <tag k="addr:housenumber" v="60"/>
    <tag k="addr:street" v="Koralowa"/>
    <tag k="source" v="http://ump.waw.pl/ retrieved 11:07:14 02/24/09 (UMP-Warszawa/src/WARSZAWA_WILANOW.ulice.txt)"/>
  </node>
  <node id="428474332" version="1" timestamp="2009-06-23T13:32:12Z" uid="20587" user="balrog-kun" changeset="1602529" lat="52.186566" lon="21.0623925">
    <tag k="addr:city" v="Warszawa@Warszawa Mokotów"/>
    <tag k="addr:housenumber" v="31"/>
    <tag k="addr:street" v="Powsińska"/>
    <tag k="source" v="http://ump.waw.pl/ retrieved 11:07:14 02/24/09 (UMP-Warszawa/src/WARSZAWA_MOKOTOW.ulice.txt)"/>
  </node>
  <node id="428474333" version="1" timestamp="2009-06-23T13:32:12Z" uid="20587" user="balrog-kun" changeset="1602529" lat="52.1756248" lon="21.077983">
    <tag k="addr:city" v="Warszawa@Warszawa Wilanów"/>
    <tag k="addr:housenumber" v="118"/>
    <tag k="addr:street" v="Wiertnicza"/>
    <tag k="source" v="http://ump.waw.pl/ retrieved 11:07:14 02/24/09 (UMP-Warszawa/src/WARSZAWA_WILANOW.ulice.txt)"/>
  </node>
  <node id="428474334" version="1" timestamp="2009-06-23T13:32:12Z" uid="20587" user="balrog-kun" changeset="1602529" lat="52.175812" lon="21.0777929">
    <tag k="addr:city" v="Warszawa@Warszawa Wilanów"/>
    <tag k="addr:housenumber" v="120"/>
    <tag k="addr:street" v="Wiertnicza"/>
    <tag k="source" v="http://ump.waw.pl/ retrieved 11:07:14 02/24/09 (UMP-Warszawa/src/WARSZAWA_WILANOW.ulice.txt)"/>
  </node>
  <node id="428474335" version="1" timestamp="2009-06-23T13:32:12Z" uid="20587" user="balrog-kun" changeset="1602529" lat="52.1667942" lon="21.086767">
    <tag k="addr:city" v="Warszawa@Warszawa Wilanów"/>
    <tag k="addr:housenumber" v="22"/>
    <tag k="addr:street" v="Kostki-Potockiego"/>
    <tag k="source" v="http://ump.waw.pl/ retrieved 11:07:14 02/24/09 (UMP-Warszawa/src/WARSZAWA_WILANOW.ulice.txt)"/>
  </node>
  <node id="428474336" version="1" timestamp="2009-06-23T13:32:12Z" uid="20587" user="balrog-kun" changeset="1602529" lat="52.1924481" lon="21.0579611">
    <tag k="addr:city" v="Warszawa@Warszawa Mokotów"/>
    <tag k="addr:housenumber" v="104"/>
    <tag k="addr:street" v="Powsińska"/>
    <tag k="source" v="http://ump.waw.pl/ retrieved 11:07:14 02/24/09 (UMP-Warszawa/src/WARSZAWA_MOKOTOW.ulice.txt)"/>
  </node>
  <node id="428474337" version="1" timestamp="2009-06-23T13:32:12Z" uid="20587" user="balrog-kun" changeset="1602529" lat="52.1664196" lon="21.0868733">
    <tag k="addr:city" v="Warszawa@Warszawa Wilanów"/>
    <tag k="addr:housenumber" v="20"/>
    <tag k="addr:street" v="Kostki-Potockiego"/>
    <tag k="source" v="http://ump.waw.pl/ retrieved 11:07:14 02/24/09 (UMP-Warszawa/src/WARSZAWA_WILANOW.ulice.txt)"/>
  </node>
  <node id="428474337" version="2" timestamp="2010-06-23T04:07:13Z" uid="20587" user="balrog-kun" changeset="5056160" lat="52.1664196" lon="21.0868733">
    <tag k="addr:city" v="Warszawa@Warszawa Wilanów"/>
    <tag k="addr:housenumber" v="20"/>
    <tag k="addr:street" v="Kostki-Potockiego"/>
    <tag k="source" v="http://ump.waw.pl/ retrieved 11:07:14 02/24/09 (UMP-Warszawa/src/WARSZAWA_WILANOW.ulice.txt)"/>
  </node>
  <node id="428474338" version="1" timestamp="2009-06-23T13:32:12Z" uid="20587" user="balrog-kun" changeset="1602529" lat="52.154676" lon="21.0918532">
    <tag k="addr:city" v="Warszawa@Warszawa Wilanów"/>
    <tag k="addr:housenumber" v="292"/>
    <tag k="addr:street" v="Przyczółkowa"/>
    <tag k="source" v="http://ump.waw.pl/ retrieved 11:07:14 02/24/09 (UMP-Warszawa/src/WARSZAWA_WILANOW.ulice.txt)"/>
  </node>
  <node id="428474339" version="1" timestamp="2009-06-23T13:32:12Z" uid="20587" user="balrog-kun" changeset="1602529" lat="52.1753914" lon="21.0634336">
    <tag k="addr:city" v="Warszawa@Warszawa Mokotów"/>
    <tag k="addr:housenumber" v="18"/>
    <tag k="addr:street" v="Sobieskiego"/>
    <tag k="source" v="http://ump.waw.pl/ retrieved 11:07:14 02/24/09 (UMP-Warszawa/src/WARSZAWA_MOKOTOW.ulice.txt)"/>
  </node>
  <node id="428474340" version="1" timestamp="2009-06-23T13:32:12Z" uid="20587" user="balrog-kun" changeset="1602529" lat="52.1758197" lon="21.0434344">
    <tag k="addr:city" v="Warszawa@Warszawa Mokotów"/>
    <tag k="addr:housenumber" v="178"/>
    <tag k="addr:street" v="aleja Wilanowska"/>
    <tag k="source" v="http://ump.waw.pl/ retrieved 11:07:14 02/24/09 (UMP-Warszawa/src/WARSZAWA_MOKOTOW.ulice.txt)"/>
  </node>
  <node id="428474341" version="1" timestamp="2009-06-23T13:32:13Z" uid="20587" user="balrog-kun" changeset="1602529" lat="52.1821111" lon="21.0889396">
    <tag k="addr:city" v="Warszawa@Warszawa Mokotów"/>
    <tag k="addr:housenumber" v="16"/>
    <tag k="addr:street" v="Zawodzie"/>
    <tag k="source" v="http://ump.waw.pl/ retrieved 11:07:14 02/24/09 (UMP-Warszawa/src/WARSZAWA_MOKOTOW.ulice.txt)"/>
  </node>
  <node id="428474342" version="1" timestamp="2009-06-23T13:32:13Z" uid="20587" user="balrog-kun" changeset="1602529" lat="52.1571605" lon="21.0900455">
    <tag k="addr:city" v="Warszawa@Warszawa Wilanów"/>
    <tag k="addr:housenumber" v="36"/>
    <tag k="addr:street" v="Koralowa"/>
    <tag k="source" v="http://ump.waw.pl/ retrieved 11:07:14 02/24/09 (UMP-Warszawa/src/WARSZAWA_WILANOW.ulice.txt)"/>
  </node>
  <node id="428474343" version="1" timestamp="2009-06-23T13:32:13Z" uid="20587" user="balrog-kun" changeset="1602529" lat="52.1661142" lon="21.0869122">
    <tag k="addr:city" v="Warszawa@Warszawa Wilanów"/>
    <tag k="addr:housenumber" v="18"/>
    <tag k="addr:street" v="Kostki-Potockiego"/>
    <tag k="source" v="http://ump.waw.pl/ retrieved 11:07:14 02/24/09 (UMP-Warszawa/src/WARSZAWA_WILANOW.ulice.txt)"/>
  </node>
  <node id="428474343" version="2" timestamp="2011-02-22T13:11:52Z" uid="20587" user="balrog-kun" changeset="7362943" lat="52.1660796" lon="21.0869452">
    <tag k="addr:city" v="Warszawa@Warszawa Wilanów"/>
    <tag k="addr:housenumber" v="18"/>
    <tag k="addr:street" v="Kostki-Potockiego"/>
    <tag k="source" v="http://ump.waw.pl/ retrieved 11:07:14 02/24/09 (UMP-Warszawa/src/WARSZAWA_WILANOW.ulice.txt)"/>
  </node>
  <node id="428474344" version="1" timestamp="2009-06-23T13:32:13Z" uid="20587" user="balrog-kun" changeset="1602529" lat="52.1800676" lon="21.0715911">
    <tag k="addr:city" v="Warszawa@Warszawa Mokotów"/>
    <tag k="addr:housenumber" v="10"/>
    <tag k="addr:street" v="Powsińska"/>
    <tag k="source" v="http://ump.waw.pl/ retrieved 11:07:14 02/24/09 (UMP-Warszawa/src/WARSZAWA_MOKOTOW.ulice.txt)"/>
  </node>
  <node id="428474345" version="1" timestamp="2009-06-23T13:32:13Z" uid="20587" user="balrog-kun" changeset="1602529" lat="52.1640241" lon="21.0864932">
    <tag k="addr:city" v="Warszawa@Warszawa Wilanów"/>
    <tag k="addr:housenumber" v="23"/>
    <tag k="addr:street" v="Kostki-Potockiego"/>
    <tag k="source" v="http://ump.waw.pl/ retrieved 11:07:14 02/24/09 (UMP-Warszawa/src/WARSZAWA_WILANOW.ulice.txt)"/>
  </node>
  <node id="428474346" version="1" timestamp="2009-06-23T13:32:13Z" uid="20587" user="balrog-kun" changeset="1602529" lat="52.1759969" lon="21.0758065">
    <tag k="addr:city" v="Warszawa@Warszawa Wilanów"/>
    <tag k="addr:housenumber" v="125"/>
    <tag k="addr:street" v="Wiertnicza"/>
    <tag k="source" v="http://ump.waw.pl/ retrieved 11:07:14 02/24/09 (UMP-Warszawa/src/WARSZAWA_WILANOW.ulice.txt)"/>
  </node>
  <node id="428474347" version="1" timestamp="2009-06-23T13:32:13Z" uid="20587" user="balrog-kun" changeset="1602529" lat="52.1589691" lon="21.0901663">
    <tag k="addr:city" v="Warszawa@Warszawa Wilanów"/>
    <tag k="addr:housenumber" v="41"/>
    <tag k="addr:street" v="Koralowa"/>
    <tag k="source" v="http://ump.waw.pl/ retrieved 11:07:14 02/24/09 (UMP-Warszawa/src/WARSZAWA_WILANOW.ulice.txt)"/>
  </node>
  <node id="428474348" version="1" timestamp="2009-06-23T13:32:13Z" uid="20587" user="balrog-kun" changeset="1602529" lat="52.1585463" lon="21.090311">
    <tag k="addr:city" v="Warszawa@Warszawa Wilanów"/>
    <tag k="addr:housenumber" v="31"/>
    <tag k="addr:street" v="Koralowa"/>
    <tag k="source" v="http://ump.waw.pl/ retrieved 11:07:14 02/24/09 (UMP-Warszawa/src/WARSZAWA_WILANOW.ulice.txt)"/>
  </node>
  <node id="428474349" version="1" timestamp="2009-06-23T13:32:13Z" uid="20587" user="balrog-kun" changeset="1602529" lat="52.180334" lon="21.0713042">
    <tag k="addr:city" v="Warszawa@Warszawa Mokotów"/>
    <tag k="addr:housenumber" v="12"/>
    <tag k="addr:street" v="Powsińska"/>
    <tag k="source" v="http://ump.waw.pl/ retrieved 11:07:14 02/24/09 (UMP-Warszawa/src/WARSZAWA_MOKOTOW.ulice.txt)"/>
  </node>
  <node id="428474350" version="1" timestamp="2009-06-23T13:32:13Z" uid="20587" user="balrog-kun" changeset="1602529" lat="52.1687877" lon="21.0848301">
    <tag k="addr:city" v="Warszawa@Warszawa Wilanów"/>
    <tag k="addr:housenumber" v="26"/>
    <tag k="addr:street" v="Wiertnicza"/>
    <tag k="source" v="http://ump.waw.pl/ retrieved 11:07:14 02/24/09 (UMP-Warszawa/src/WARSZAWA_WILANOW.ulice.txt)"/>
  </node>
  <node id="428474350" version="2" timestamp="2010-06-21T05:09:59Z" uid="20587" user="balrog-kun" changeset="5039352" lat="52.1687877" lon="21.0848301">
    <tag k="addr:city" v="Warszawa@Warszawa Wilanów"/>
    <tag k="addr:housenumber" v="26"/>
    <tag k="addr:street" v="Wiertnicza"/>
    <tag k="source" v="http://ump.waw.pl/ retrieved 11:07:14 02/24/09 (UMP-Warszawa/src/WARSZAWA_WILANOW.ulice.txt)"/>
  </node>
  <node id="428474351" version="1" timestamp="2009-06-23T13:32:13Z" uid="20587" user="balrog-kun" changeset="1602529" lat="52.1744338" lon="21.0644401">
    <tag k="addr:city" v="Warszawa@Warszawa Mokotów"/>
    <tag k="addr:housenumber" v="16"/>
    <tag k="addr:street" v="Sobieskiego"/>
    <tag k="source" v="http://ump.waw.pl/ retrieved 11:07:14 02/24/09 (UMP-Warszawa/src/WARSZAWA_MOKOTOW.ulice.txt)"/>
  </node>
  <node id="428474352" version="1" timestamp="2009-06-23T13:32:14Z" uid="20587" user="balrog-kun" changeset="1602529" lat="52.1737808" lon="21.0483626">
    <tag k="addr:city" v="Warszawa@Warszawa Mokotów"/>
    <tag k="addr:housenumber" v="105"/>
    <tag k="addr:street" v="aleja Wilanowska"/>
    <tag k="source" v="http://ump.waw.pl/ retrieved 11:07:14 02/24/09 (UMP-Warszawa/src/WARSZAWA_MOKOTOW.ulice.txt)"/>
  </node>
  <node id="428474353" version="1" timestamp="2009-06-23T13:32:14Z" uid="20587" user="balrog-kun" changeset="1602529" lat="52.1814131" lon="21.0701488">
    <tag k="addr:city" v="Warszawa@Warszawa Mokotów"/>
    <tag k="addr:housenumber" v="22"/>
    <tag k="addr:street" v="Powsińska"/>
    <tag k="source" v="http://ump.waw.pl/ retrieved 11:07:14 02/24/09 (UMP-Warszawa/src/WARSZAWA_MOKOTOW.ulice.txt)"/>
  </node>
  <node id="428474354" version="1" timestamp="2009-06-23T13:32:14Z" uid="20587" user="balrog-kun" changeset="1602529" lat="52.1741695" lon="21.0466957">
    <tag k="addr:city" v="Warszawa@Warszawa Mokotów"/>
    <tag k="addr:housenumber" v="115"/>
    <tag k="addr:street" v="aleja Wilanowska"/>
    <tag k="source" v="http://ump.waw.pl/ retrieved 11:07:14 02/24/09 (UMP-Warszawa/src/WARSZAWA_MOKOTOW.ulice.txt)"/>
  </node>
  <node id="428474355" version="1" timestamp="2009-06-23T13:32:14Z" uid="20587" user="balrog-kun" changeset="1602529" lat="52.1745355" lon="21.0476725">
    <tag k="addr:city" v="Warszawa@Warszawa Mokotów"/>
    <tag k="addr:housenumber" v="134"/>
    <tag k="addr:street" v="aleja Wilanowska"/>
    <tag k="source" v="http://ump.waw.pl/ retrieved 11:07:14 02/24/09 (UMP-Warszawa/src/WARSZAWA_MOKOTOW.ulice.txt)"/>
  </node>
  <node id="428474356" version="1" timestamp="2009-06-23T13:32:14Z" uid="20587" user="balrog-kun" changeset="1602529" lat="52.1709549" lon="21.0637531">
    <tag k="addr:city" v="Warszawa@Warszawa Mokotów"/>
    <tag k="addr:housenumber" v="48"/>
    <tag k="addr:street" v="aleja Wilanowska"/>
    <tag k="source" v="http://ump.waw.pl/ retrieved 11:07:14 02/24/09 (UMP-Warszawa/src/WARSZAWA_MOKOTOW.ulice.txt)"/>
  </node>
  <node id="428474357" version="1" timestamp="2009-06-23T13:32:14Z" uid="20587" user="balrog-kun" changeset="1602529" lat="52.1660578" lon="21.0860824">
    <tag k="addr:city" v="Warszawa@Warszawa Wilanów"/>
    <tag k="addr:housenumber" v="27"/>
    <tag k="addr:street" v="Kostki-Potockiego"/>
    <tag k="source" v="http://ump.waw.pl/ retrieved 11:07:14 02/24/09 (UMP-Warszawa/src/WARSZAWA_WILANOW.ulice.txt)"/>
  </node>
  <node id="428474358" version="1" timestamp="2009-06-23T13:32:14Z" uid="20587" user="balrog-kun" changeset="1602529" lat="52.1853355" lon="21.0784979">
    <tag k="addr:city" v="Warszawa@Warszawa Mokotów"/>
    <tag k="addr:housenumber" v="23"/>
    <tag k="addr:street" v="Zawodzie"/>
    <tag k="source" v="http://ump.waw.pl/ retrieved 11:07:14 02/24/09 (UMP-Warszawa/src/WARSZAWA_MOKOTOW.ulice.txt)"/>
  </node>
  <node id="428474359" version="1" timestamp="2009-06-23T13:32:14Z" uid="20587" user="balrog-kun" changeset="1602529" lat="52.157425" lon="21.0914797">
    <tag k="addr:city" v="Warszawa@Warszawa Wilanów"/>
    <tag k="addr:housenumber" v="16"/>
    <tag k="addr:street" v="Młocarni"/>
    <tag k="source" v="http://ump.waw.pl/ retrieved 11:07:14 02/24/09 (UMP-Warszawa/src/WARSZAWA_WILANOW.ulice.txt)"/>
  </node>
  <node id="428474360" version="1" timestamp="2009-06-23T13:32:15Z" uid="20587" user="balrog-kun" changeset="1602529" lat="52.157411" lon="21.0907316">
    <tag k="addr:city" v="Warszawa@Warszawa Wilanów"/>
    <tag k="addr:housenumber" v="25"/>
    <tag k="addr:street" v="Młocarni"/>
    <tag k="source" v="http://ump.waw.pl/ retrieved 11:07:14 02/24/09 (UMP-Warszawa/src/WARSZAWA_WILANOW.ulice.txt)"/>
  </node>
  <node id="428474361" version="1" timestamp="2009-06-23T13:32:15Z" uid="20587" user="balrog-kun" changeset="1602529" lat="52.1842037" lon="21.0816334">
    <tag k="addr:city" v="Warszawa@Warszawa Mokotów"/>
    <tag k="addr:housenumber" v="15"/>
    <tag k="addr:street" v="Zawodzie"/>
    <tag k="source" v="http://ump.waw.pl/ retrieved 11:07:14 02/24/09 (UMP-Warszawa/src/WARSZAWA_MOKOTOW.ulice.txt)"/>
  </node>
  <node id="428474362" version="1" timestamp="2009-06-23T13:32:15Z" uid="20587" user="balrog-kun" changeset="1602529" lat="52.1850337" lon="21.0793342">
    <tag k="addr:city" v="Warszawa@Warszawa Mokotów"/>
    <tag k="addr:housenumber" v="21"/>
    <tag k="addr:street" v="Zawodzie"/>
    <tag k="source" v="http://ump.waw.pl/ retrieved 11:07:14 02/24/09 (UMP-Warszawa/src/WARSZAWA_MOKOTOW.ulice.txt)"/>
  </node>
  <node id="428474363" version="1" timestamp="2009-06-23T13:32:15Z" uid="20587" user="balrog-kun" changeset="1602529" lat="52.1593819" lon="21.0892667">
    <tag k="addr:city" v="Warszawa@Warszawa Wilanów"/>
    <tag k="addr:housenumber" v="76"/>
    <tag k="addr:street" v="Koralowa"/>
    <tag k="source" v="http://ump.waw.pl/ retrieved 11:07:14 02/24/09 (UMP-Warszawa/src/WARSZAWA_WILANOW.ulice.txt)"/>
  </node>
  <node id="428474364" version="1" timestamp="2009-06-23T13:32:15Z" uid="20587" user="balrog-kun" changeset="1602529" lat="52.1728009" lon="21.0808599">
    <tag k="addr:city" v="Warszawa@Warszawa Wilanów"/>
    <tag k="addr:housenumber" v="74"/>
    <tag k="addr:street" v="Wiertnicza"/>
    <tag k="source" v="http://ump.waw.pl/ retrieved 11:07:14 02/24/09 (UMP-Warszawa/src/WARSZAWA_WILANOW.ulice.txt)"/>
  </node>
  <node id="428474365" version="1" timestamp="2009-06-23T13:32:15Z" uid="20587" user="balrog-kun" changeset="1602529" lat="52.1919081" lon="21.0567766">
    <tag k="addr:city" v="Warszawa@Warszawa Mokotów"/>
    <tag k="addr:housenumber" v="73"/>
    <tag k="addr:street" v="Powsińska"/>
    <tag k="source" v="http://ump.waw.pl/ retrieved 11:07:14 02/24/09 (UMP-Warszawa/src/WARSZAWA_MOKOTOW.ulice.txt)"/>
  </node>
  <node id="428474366" version="1" timestamp="2009-06-23T13:32:15Z" uid="20587" user="balrog-kun" changeset="1602529" lat="52.1734919" lon="21.0496017">
    <tag k="addr:city" v="Warszawa@Warszawa Mokotów"/>
    <tag k="addr:housenumber" v="99"/>
    <tag k="addr:street" v="aleja Wilanowska"/>
    <tag k="source" v="http://ump.waw.pl/ retrieved 11:07:14 02/24/09 (UMP-Warszawa/src/WARSZAWA_MOKOTOW.ulice.txt)"/>
  </node>
  <node id="428474367" version="1" timestamp="2009-06-23T13:32:15Z" uid="20587" user="balrog-kun" changeset="1602529" lat="52.1706218" lon="21.0618834">
    <tag k="addr:city" v="Warszawa@Warszawa Mokotów"/>
    <tag k="addr:housenumber" v="39"/>
    <tag k="addr:street" v="aleja Wilanowska"/>
    <tag k="source" v="http://ump.waw.pl/ retrieved 11:07:14 02/24/09 (UMP-Warszawa/src/WARSZAWA_MOKOTOW.ulice.txt)"/>
  </node>
  <node id="428474368" version="1" timestamp="2009-06-23T13:32:15Z" uid="20587" user="balrog-kun" changeset="1602529" lat="52.1718449" lon="21.08185">
    <tag k="addr:city" v="Warszawa@Warszawa Wilanów"/>
    <tag k="addr:housenumber" v="58"/>
    <tag k="addr:street" v="Wiertnicza"/>
    <tag k="source" v="http://ump.waw.pl/ retrieved 11:07:14 02/24/09 (UMP-Warszawa/src/WARSZAWA_WILANOW.ulice.txt)"/>
  </node>
  <node id="428474369" version="1" timestamp="2009-06-23T13:32:16Z" uid="20587" user="balrog-kun" changeset="1602529" lat="52.1605159" lon="21.1039315">
    <tag k="addr:city" v="Warszawa@Warszawa Wilanów"/>
    <tag k="addr:housenumber" v="44"/>
    <tag k="addr:street" v="Vogla"/>
    <tag k="source" v="http://ump.waw.pl/ retrieved 11:07:14 02/24/09 (UMP-Warszawa/src/WARSZAWA_WILANOW.ulice.txt)"/>
  </node>
  <node id="428474370" version="1" timestamp="2009-06-23T13:32:16Z" uid="20587" user="balrog-kun" changeset="1602529" lat="52.1556029" lon="21.0912691">
    <tag k="addr:city" v="Warszawa@Warszawa Wilanów"/>
    <tag k="addr:housenumber" v="300"/>
    <tag k="addr:street" v="Przyczółkowa"/>
    <tag k="source" v="http://ump.waw.pl/ retrieved 11:07:14 02/24/09 (UMP-Warszawa/src/WARSZAWA_WILANOW.ulice.txt)"/>
  </node>
  <node id="428474371" version="1" timestamp="2009-06-23T13:32:16Z" uid="20587" user="balrog-kun" changeset="1602529" lat="52.1711482" lon="21.0585663">
    <tag k="addr:city" v="Warszawa@Warszawa Mokotów"/>
    <tag k="addr:housenumber" v="41"/>
    <tag k="addr:street" v="aleja Wilanowska"/>
    <tag k="source" v="http://ump.waw.pl/ retrieved 11:07:14 02/24/09 (UMP-Warszawa/src/WARSZAWA_MOKOTOW.ulice.txt)"/>
  </node>
  <node id="428474372" version="1" timestamp="2009-06-23T13:32:16Z" uid="20587" user="balrog-kun" changeset="1602529" lat="52.1760129" lon="21.062941">
    <tag k="addr:city" v="Warszawa@Warszawa Mokotów"/>
    <tag k="addr:housenumber" v="22"/>
    <tag k="addr:street" v="Sobieskiego"/>
    <tag k="source" v="http://ump.waw.pl/ retrieved 11:07:14 02/24/09 (UMP-Warszawa/src/WARSZAWA_MOKOTOW.ulice.txt)"/>
  </node>
  <node id="428474375" version="1" timestamp="2009-06-23T13:32:16Z" uid="20587" user="balrog-kun" changeset="1602529" lat="52.1657921" lon="21.0871225">
    <tag k="addr:city" v="Warszawa@Warszawa Wilanów"/>
    <tag k="addr:housenumber" v="18"/>
    <tag k="addr:street" v="Kostki-Potockiego"/>
    <tag k="source" v="http://ump.waw.pl/ retrieved 11:07:14 02/24/09 (UMP-Warszawa/src/WARSZAWA_WILANOW.ulice.txt)"/>
  </node>
  <node id="428474377" version="1" timestamp="2009-06-23T13:32:16Z" uid="20587" user="balrog-kun" changeset="1602529" lat="52.1625958" lon="21.0875661">
    <tag k="addr:city" v="Warszawa@Warszawa Wilanów"/>
    <tag k="addr:housenumber" v="19"/>
    <tag k="addr:street" v="Kostki-Potockiego"/>
    <tag k="source" v="http://ump.waw.pl/ retrieved 11:07:14 02/24/09 (UMP-Warszawa/src/WARSZAWA_WILANOW.ulice.txt)"/>
  </node>
  <node id="428474378" version="1" timestamp="2009-06-23T13:32:16Z" uid="20587" user="balrog-kun" changeset="1602529" lat="52.174334" lon="21.0792721">
    <tag k="addr:city" v="Warszawa@Warszawa Wilanów"/>
    <tag k="addr:housenumber" v="94"/>
    <tag k="addr:street" v="Wiertnicza"/>
    <tag k="source" v="http://ump.waw.pl/ retrieved 11:07:14 02/24/09 (UMP-Warszawa/src/WARSZAWA_WILANOW.ulice.txt)"/>
  </node>
  <node id="428474379" version="1" timestamp="2009-06-23T13:32:16Z" uid="20587" user="balrog-kun" changeset="1602529" lat="52.1922066" lon="21.058265">
    <tag k="addr:city" v="Warszawa@Warszawa Mokotów"/>
    <tag k="addr:housenumber" v="74"/>
    <tag k="addr:street" v="Powsińska"/>
    <tag k="source" v="http://ump.waw.pl/ retrieved 11:07:14 02/24/09 (UMP-Warszawa/src/WARSZAWA_MOKOTOW.ulice.txt)"/>
  </node>
  <node id="428474380" version="1" timestamp="2009-06-23T13:32:16Z" uid="20587" user="balrog-kun" changeset="1602529" lat="52.1600442" lon="21.0881878">
    <tag k="addr:city" v="Warszawa@Warszawa Wilanów"/>
    <tag k="addr:housenumber" v="9"/>
    <tag k="addr:street" v="Vogla"/>
    <tag k="source" v="http://ump.waw.pl/ retrieved 11:07:14 02/24/09 (UMP-Warszawa/src/WARSZAWA_WILANOW.ulice.txt)"/>
  </node>
  <node id="428474381" version="1" timestamp="2009-06-23T13:32:16Z" uid="20587" user="balrog-kun" changeset="1602529" lat="52.1665844" lon="21.0784916">
    <tag k="addr:city" v="Warszawa@Warszawa Wilanów"/>
    <tag k="addr:housenumber" v="7"/>
    <tag k="addr:street" v="aleja Wilanowska"/>
    <tag k="source" v="http://ump.waw.pl/ retrieved 11:07:14 02/24/09 (UMP-Warszawa/src/WARSZAWA_WILANOW.ulice.txt)"/>
  </node>
  <node id="428474382" version="1" timestamp="2009-06-23T13:32:17Z" uid="20587" user="balrog-kun" changeset="1602529" lat="52.15775" lon="21.0906074">
    <tag k="addr:city" v="Warszawa@Warszawa Wilanów"/>
    <tag k="addr:housenumber" v="11"/>
    <tag k="addr:street" v="Koralowa"/>
    <tag k="source" v="http://ump.waw.pl/ retrieved 11:07:14 02/24/09 (UMP-Warszawa/src/WARSZAWA_WILANOW.ulice.txt)"/>
  </node>
  <node id="428474385" version="1" timestamp="2009-06-23T13:32:17Z" uid="20587" user="balrog-kun" changeset="1602529" lat="52.157633" lon="21.0898799">
    <tag k="addr:city" v="Warszawa@Warszawa Wilanów"/>
    <tag k="addr:housenumber" v="38"/>
    <tag k="addr:street" v="Koralowa"/>
    <tag k="source" v="http://ump.waw.pl/ retrieved 11:07:14 02/24/09 (UMP-Warszawa/src/WARSZAWA_WILANOW.ulice.txt)"/>
  </node>
  <node id="428474387" version="1" timestamp="2009-06-23T13:32:17Z" uid="20587" user="balrog-kun" changeset="1602529" lat="52.1812351" lon="21.0886967">
    <tag k="addr:city" v="Warszawa@Warszawa Mokotów"/>
    <tag k="addr:housenumber" v="5"/>
    <tag k="addr:street" v="Zawodzie"/>
    <tag k="source" v="http://ump.waw.pl/ retrieved 11:07:14 02/24/09 (UMP-Warszawa/src/WARSZAWA_MOKOTOW.ulice.txt)"/>
  </node>
  <node id="428474388" version="1" timestamp="2009-06-23T13:32:17Z" uid="20587" user="balrog-kun" changeset="1602529" lat="52.1743765" lon="21.0626827">
    <tag k="addr:city" v="Warszawa@Warszawa Mokotów"/>
    <tag k="addr:housenumber" v="15"/>
    <tag k="addr:street" v="Sobieskiego"/>
    <tag k="source" v="http://ump.waw.pl/ retrieved 11:07:14 02/24/09 (UMP-Warszawa/src/WARSZAWA_MOKOTOW.ulice.txt)"/>
  </node>
  <node id="428474389" version="1" timestamp="2009-06-23T13:32:17Z" uid="20587" user="balrog-kun" changeset="1602529" lat="52.1628375" lon="21.0856756">
    <tag k="addr:city" v="Warszawa@Warszawa Wilanów"/>
    <tag k="addr:housenumber" v="376"/>
    <tag k="addr:street" v="Przyczółkowa"/>
    <tag k="source" v="http://ump.waw.pl/ retrieved 11:07:14 02/24/09 (UMP-Warszawa/src/WARSZAWA_WILANOW.ulice.txt)"/>
  </node>
  <node id="428474390" version="1" timestamp="2009-06-23T13:32:17Z" uid="20587" user="balrog-kun" changeset="1602529" lat="52.1788644" lon="21.0734062">
    <tag k="addr:city" v="Warszawa@Warszawa Wilanów"/>
    <tag k="addr:housenumber" v="166"/>
    <tag k="addr:street" v="Wiertnicza"/>
    <tag k="source" v="http://ump.waw.pl/ retrieved 11:07:14 02/24/09 (UMP-Warszawa/src/WARSZAWA_WILANOW.ulice.txt)"/>
  </node>
  <node id="428474391" version="1" timestamp="2009-06-23T13:32:17Z" uid="20587" user="balrog-kun" changeset="1602529" lat="52.1744264" lon="21.0681589">
    <tag k="addr:city" v="Warszawa@Warszawa Wilanów"/>
    <tag k="addr:housenumber" v="7"/>
    <tag k="addr:street" v="Radosna"/>
    <tag k="source" v="http://ump.waw.pl/ retrieved 11:07:14 02/24/09 (UMP-Warszawa/src/WARSZAWA_WILANOW.ulice.txt)"/>
  </node>
  <node id="428474394" version="1" timestamp="2009-06-23T13:32:17Z" uid="20587" user="balrog-kun" changeset="1602529" lat="52.1601643" lon="21.0874663">
    <tag k="addr:city" v="Warszawa@Warszawa Wilanów"/>
    <tag k="addr:housenumber" v="360"/>
    <tag k="addr:street" v="Przyczółkowa"/>
    <tag k="source" v="http://ump.waw.pl/ retrieved 11:07:14 02/24/09 (UMP-Warszawa/src/WARSZAWA_WILANOW.ulice.txt)"/>
  </node>
  <node id="428474908" version="2" timestamp="2009-08-02T04:12:06Z" uid="20587" user="balrog-kun" changeset="2009571" lat="52.39954" lon="16.9211461"/>
  <node id="428474909" version="2" timestamp="2009-08-02T04:12:06Z" uid="20587" user="balrog-kun" changeset="2009571" lat="52.3993542" lon="16.9211581"/>
  <node id="428474910" version="2" timestamp="2009-08-02T04:12:06Z" uid="20587" user="balrog-kun" changeset="2009571" lat="52.3993484" lon="16.9209176"/>
  <node id="428474911" version="2" timestamp="2009-08-02T04:12:06Z" uid="20587" user="balrog-kun" changeset="2009571" lat="52.3995343" lon="16.9209056"/>
  <node id="428475160" version="1" timestamp="2009-06-23T13:38:29Z" uid="20587" user="balrog-kun" changeset="1602576" lat="52.1349343" lon="21.0552563">
    <tag k="addr:city" v="Warszawa@Warszawa Ursynów"/>
    <tag k="addr:housenumber" v="6"/>
    <tag k="addr:street" v="Małej Łąki"/>
    <tag k="source" v="http://ump.waw.pl/ retrieved 11:07:14 02/24/09 (UMP-Warszawa/src/WARSZAWA_URSYNOW.ulice.txt)"/>
  </node>
  <node id="428475161" version="1" timestamp="2009-06-23T13:38:29Z" uid="20587" user="balrog-kun" changeset="1602576" lat="52.1334916" lon="21.062955">
    <tag k="addr:city" v="Warszawa@Warszawa Ursynów"/>
    <tag k="addr:housenumber" v="15"/>
    <tag k="addr:street" v="KEN"/>
    <tag k="source" v="http://ump.waw.pl/ retrieved 11:07:14 02/24/09 (UMP-Warszawa/src/WARSZAWA_URSYNOW.ulice.txt)"/>
  </node>
  <node id="428475162" version="1" timestamp="2009-06-23T13:38:29Z" uid="20587" user="balrog-kun" changeset="1602576" lat="52.1350617" lon="21.0558733">
    <tag k="addr:city" v="Warszawa@Warszawa Ursynów"/>
    <tag k="addr:housenumber" v="12"/>
    <tag k="addr:street" v="Małej Łąki"/>
    <tag k="source" v="http://ump.waw.pl/ retrieved 11:07:14 02/24/09 (UMP-Warszawa/src/WARSZAWA_URSYNOW.ulice.txt)"/>
  </node>
  <node id="428475163" version="1" timestamp="2009-06-23T13:38:29Z" uid="20587" user="balrog-kun" changeset="1602576" lat="52.1355694" lon="21.0522686">
    <tag k="addr:city" v="Warszawa@Warszawa Ursynów"/>
    <tag k="addr:housenumber" v="3"/>
    <tag k="addr:street" v="Małej Łąki"/>
    <tag k="source" v="http://ump.waw.pl/ retrieved 11:07:14 02/24/09 (UMP-Warszawa/src/WARSZAWA_URSYNOW.ulice.txt)"/>
  </node>
  <node id="428475164" version="1" timestamp="2009-06-23T13:38:29Z" uid="20587" user="balrog-kun" changeset="1602576" lat="52.1371665" lon="21.0514915">
    <tag k="addr:city" v="Warszawa@Warszawa Ursynów"/>
    <tag k="addr:housenumber" v="19"/>
    <tag k="addr:street" v="Małej Łąki"/>
    <tag k="source" v="http://ump.waw.pl/ retrieved 11:07:14 02/24/09 (UMP-Warszawa/src/WARSZAWA_URSYNOW.ulice.txt)"/>
  </node>
  <node id="428475165" version="1" timestamp="2009-06-23T13:38:29Z" uid="20587" user="balrog-kun" changeset="1602576" lat="52.1341573" lon="21.0623995">
    <tag k="addr:city" v="Warszawa@Warszawa Ursynów"/>
    <tag k="addr:housenumber" v="19"/>
    <tag k="addr:street" v="KEN"/>
    <tag k="source" v="http://ump.waw.pl/ retrieved 11:07:14 02/24/09 (UMP-Warszawa/src/WARSZAWA_URSYNOW.ulice.txt)"/>
  </node>
  <node id="428475166" version="1" timestamp="2009-06-23T13:38:29Z" uid="20587" user="balrog-kun" changeset="1602576" lat="52.1367218" lon="21.0519751">
    <tag k="addr:city" v="Warszawa@Warszawa Ursynów"/>
    <tag k="addr:housenumber" v="13"/>
    <tag k="addr:street" v="Małej Łąki"/>
    <tag k="source" v="http://ump.waw.pl/ retrieved 11:07:14 02/24/09 (UMP-Warszawa/src/WARSZAWA_URSYNOW.ulice.txt)"/>
  </node>
  <node id="428475167" version="1" timestamp="2009-06-23T13:38:29Z" uid="20587" user="balrog-kun" changeset="1602576" lat="52.13481" lon="21.0617804">
    <tag k="addr:city" v="Warszawa@Warszawa Ursynów"/>
    <tag k="addr:housenumber" v="21"/>
    <tag k="addr:street" v="KEN"/>
    <tag k="source" v="http://ump.waw.pl/ retrieved 11:07:14 02/24/09 (UMP-Warszawa/src/WARSZAWA_URSYNOW.ulice.txt)"/>
  </node>
  <node id="428475168" version="1" timestamp="2009-06-23T13:38:29Z" uid="20587" user="balrog-kun" changeset="1602576" lat="52.1362981" lon="21.0533157">
    <tag k="addr:city" v="Warszawa@Warszawa Ursynów"/>
    <tag k="addr:housenumber" v="7"/>
    <tag k="addr:street" v="Małej Łąki"/>
    <tag k="source" v="http://ump.waw.pl/ retrieved 11:07:14 02/24/09 (UMP-Warszawa/src/WARSZAWA_URSYNOW.ulice.txt)"/>
  </node>
  <node id="428475169" version="1" timestamp="2009-06-23T13:38:30Z" uid="20587" user="balrog-kun" changeset="1602576" lat="52.1355329" lon="21.0554228">
    <tag k="addr:city" v="Warszawa@Warszawa Ursynów"/>
    <tag k="addr:housenumber" v="26"/>
    <tag k="addr:street" v="Małej Łąki"/>
    <tag k="source" v="http://ump.waw.pl/ retrieved 11:07:14 02/24/09 (UMP-Warszawa/src/WARSZAWA_URSYNOW.ulice.txt)"/>
  </node>
  <node id="428475170" version="1" timestamp="2009-06-23T13:38:30Z" uid="20587" user="balrog-kun" changeset="1602576" lat="52.1368212" lon="21.052849">
    <tag k="addr:city" v="Warszawa@Warszawa Ursynów"/>
    <tag k="addr:housenumber" v="15"/>
    <tag k="addr:street" v="Małej Łąki"/>
    <tag k="source" v="http://ump.waw.pl/ retrieved 11:07:14 02/24/09 (UMP-Warszawa/src/WARSZAWA_URSYNOW.ulice.txt)"/>
  </node>
  <node id="428475171" version="1" timestamp="2009-06-23T13:38:30Z" uid="20587" user="balrog-kun" changeset="1602576" lat="52.1362489" lon="21.0523559">
    <tag k="addr:city" v="Warszawa@Warszawa Ursynów"/>
    <tag k="addr:housenumber" v="9"/>
    <tag k="addr:street" v="Małej Łąki"/>
    <tag k="source" v="http://ump.waw.pl/ retrieved 11:07:14 02/24/09 (UMP-Warszawa/src/WARSZAWA_URSYNOW.ulice.txt)"/>
  </node>
  <node id="428475172" version="1" timestamp="2009-06-23T13:38:30Z" uid="20587" user="balrog-kun" changeset="1602576" lat="52.1321639" lon="21.0500586">
    <tag k="addr:city" v="Warszawa@Warszawa Ursynów"/>
    <tag k="addr:housenumber" v="24"/>
    <tag k="addr:street" v="Wełniana"/>
    <tag k="source" v="http://ump.waw.pl/ retrieved 11:07:14 02/24/09 (UMP-Warszawa/src/WARSZAWA_URSYNOW.ulice.txt)"/>
  </node>
  <node id="428475173" version="1" timestamp="2009-06-23T13:38:30Z" uid="20587" user="balrog-kun" changeset="1602576" lat="52.1358398" lon="21.0529371">
    <tag k="addr:city" v="Warszawa@Warszawa Ursynów"/>
    <tag k="addr:housenumber" v="5"/>
    <tag k="addr:street" v="Małej Łąki"/>
    <tag k="source" v="http://ump.waw.pl/ retrieved 11:07:14 02/24/09 (UMP-Warszawa/src/WARSZAWA_URSYNOW.ulice.txt)"/>
  </node>
  <node id="428475174" version="1" timestamp="2009-06-23T13:38:30Z" uid="20587" user="balrog-kun" changeset="1602576" lat="52.1346066" lon="21.0632567">
    <tag k="addr:city" v="Warszawa@Warszawa Ursynów"/>
    <tag k="addr:housenumber" v="26"/>
    <tag k="addr:street" v="KEN"/>
    <tag k="source" v="http://ump.waw.pl/ retrieved 11:07:14 02/24/09 (UMP-Warszawa/src/WARSZAWA_URSYNOW.ulice.txt)"/>
  </node>
  <node id="428475175" version="1" timestamp="2009-06-23T13:38:30Z" uid="20587" user="balrog-kun" changeset="1602576" lat="52.13741" lon="21.0517478">
    <tag k="addr:city" v="Warszawa@Warszawa Ursynów"/>
    <tag k="addr:housenumber" v="23"/>
    <tag k="addr:street" v="Małej Łąki"/>
    <tag k="source" v="http://ump.waw.pl/ retrieved 11:07:14 02/24/09 (UMP-Warszawa/src/WARSZAWA_URSYNOW.ulice.txt)"/>
  </node>
  <node id="428475176" version="1" timestamp="2009-06-23T13:38:30Z" uid="20587" user="balrog-kun" changeset="1602576" lat="52.1356955" lon="21.0553395">
    <tag k="addr:city" v="Warszawa@Warszawa Ursynów"/>
    <tag k="addr:housenumber" v="30"/>
    <tag k="addr:street" v="Małej Łąki"/>
    <tag k="source" v="http://ump.waw.pl/ retrieved 11:07:14 02/24/09 (UMP-Warszawa/src/WARSZAWA_URSYNOW.ulice.txt)"/>
  </node>
  <node id="428475177" version="1" timestamp="2009-06-23T13:38:30Z" uid="20587" user="balrog-kun" changeset="1602576" lat="52.1371046" lon="21.0538335">
    <tag k="addr:city" v="Warszawa@Warszawa Ursynów"/>
    <tag k="addr:housenumber" v="74"/>
    <tag k="addr:street" v="Małej Łąki"/>
    <tag k="source" v="http://ump.waw.pl/ retrieved 11:07:14 02/24/09 (UMP-Warszawa/src/WARSZAWA_URSYNOW.ulice.txt)"/>
  </node>
  <node id="428475178" version="1" timestamp="2009-06-23T13:38:30Z" uid="20587" user="balrog-kun" changeset="1602576" lat="52.1360889" lon="21.0553435">
    <tag k="addr:city" v="Warszawa@Warszawa Ursynów"/>
    <tag k="addr:housenumber" v="36"/>
    <tag k="addr:street" v="Małej Łąki"/>
    <tag k="source" v="http://ump.waw.pl/ retrieved 11:07:14 02/24/09 (UMP-Warszawa/src/WARSZAWA_URSYNOW.ulice.txt)"/>
  </node>
  <node id="428475179" version="1" timestamp="2009-06-23T13:38:30Z" uid="20587" user="balrog-kun" changeset="1602576" lat="52.1350218" lon="21.0533866">
    <tag k="addr:city" v="Warszawa@Warszawa Ursynów"/>
    <tag k="addr:housenumber" v="2"/>
    <tag k="addr:street" v="Małej Łąki"/>
    <tag k="source" v="http://ump.waw.pl/ retrieved 11:07:14 02/24/09 (UMP-Warszawa/src/WARSZAWA_URSYNOW.ulice.txt)"/>
  </node>
  <node id="428475180" version="1" timestamp="2009-06-23T13:38:30Z" uid="20587" user="balrog-kun" changeset="1602576" lat="52.1368266" lon="21.0508161">
    <tag k="addr:city" v="Warszawa@Warszawa Ursynów"/>
    <tag k="addr:housenumber" v="21"/>
    <tag k="addr:street" v="Małej Łąki"/>
    <tag k="source" v="http://ump.waw.pl/ retrieved 11:07:14 02/24/09 (UMP-Warszawa/src/WARSZAWA_URSYNOW.ulice.txt)"/>
  </node>
  <node id="428475181" version="1" timestamp="2009-06-23T13:38:30Z" uid="20587" user="balrog-kun" changeset="1602576" lat="52.1322329" lon="21.049355">
    <tag k="addr:city" v="Warszawa@Warszawa Ursynów"/>
    <tag k="addr:housenumber" v="26"/>
    <tag k="addr:street" v="Wełniana"/>
    <tag k="source" v="http://ump.waw.pl/ retrieved 11:07:14 02/24/09 (UMP-Warszawa/src/WARSZAWA_URSYNOW.ulice.txt)"/>
  </node>
  <node id="428475182" version="1" timestamp="2009-06-23T13:38:30Z" uid="20587" user="balrog-kun" changeset="1602576" lat="52.1375805" lon="21.0522989">
    <tag k="addr:city" v="Warszawa@Warszawa Ursynów"/>
    <tag k="addr:housenumber" v="17"/>
    <tag k="addr:street" v="Małej Łąki"/>
    <tag k="source" v="http://ump.waw.pl/ retrieved 11:07:14 02/24/09 (UMP-Warszawa/src/WARSZAWA_URSYNOW.ulice.txt)"/>
  </node>
  <node id="428475183" version="1" timestamp="2009-06-23T13:38:30Z" uid="20587" user="balrog-kun" changeset="1602576" lat="52.1356377" lon="21.0541865">
    <tag k="addr:city" v="Warszawa@Warszawa Ursynów"/>
    <tag k="addr:housenumber" v="10"/>
    <tag k="addr:street" v="Małej Łąki"/>
    <tag k="source" v="http://ump.waw.pl/ retrieved 11:07:14 02/24/09 (UMP-Warszawa/src/WARSZAWA_URSYNOW.ulice.txt)"/>
  </node>
  <node id="428475184" version="1" timestamp="2009-06-23T13:38:30Z" uid="20587" user="balrog-kun" changeset="1602576" lat="52.1323423" lon="21.0482388">
    <tag k="addr:city" v="Warszawa@Warszawa Ursynów"/>
    <tag k="addr:housenumber" v="30"/>
    <tag k="addr:street" v="Wełniana"/>
    <tag k="source" v="http://ump.waw.pl/ retrieved 11:07:14 02/24/09 (UMP-Warszawa/src/WARSZAWA_URSYNOW.ulice.txt)"/>
  </node>
  <node id="428475185" version="1" timestamp="2009-06-23T13:38:30Z" uid="20587" user="balrog-kun" changeset="1602576" lat="52.140629" lon="21.0593216">
    <tag k="addr:city" v="Warszawa@Warszawa Ursynów"/>
    <tag k="addr:housenumber" v="18"/>
    <tag k="addr:street" v="Belgradzka"/>
    <tag k="source" v="http://ump.waw.pl/ retrieved 11:07:14 02/24/09 (UMP-Warszawa/src/WARSZAWA_URSYNOW.ulice.txt)"/>
  </node>
  <node id="428475185" version="2" timestamp="2010-06-05T13:49:28Z" uid="20587" user="balrog-kun" changeset="4908888" lat="52.1405836" lon="21.0593401">
    <tag k="addr:city" v="Warszawa@Warszawa Ursynów"/>
    <tag k="addr:housenumber" v="18"/>
    <tag k="addr:street" v="Belgradzka"/>
    <tag k="source" v="http://ump.waw.pl/ retrieved 11:07:14 02/24/09 (UMP-Warszawa/src/WARSZAWA_URSYNOW.ulice.txt)"/>
  </node>
  <node id="428475186" version="1" timestamp="2009-06-23T13:38:31Z" uid="20587" user="balrog-kun" changeset="1602576" lat="52.1350218" lon="21.0544216">
    <tag k="addr:city" v="Warszawa@Warszawa Ursynów"/>
    <tag k="addr:housenumber" v="4"/>
    <tag k="addr:street" v="Małej Łąki"/>
    <tag k="source" v="http://ump.waw.pl/ retrieved 11:07:14 02/24/09 (UMP-Warszawa/src/WARSZAWA_URSYNOW.ulice.txt)"/>
  </node>
  <node id="428475187" version="1" timestamp="2009-06-23T13:38:31Z" uid="20587" user="balrog-kun" changeset="1602576" lat="52.1352673" lon="21.0533866">
    <tag k="addr:city" v="Warszawa@Warszawa Ursynów"/>
    <tag k="addr:housenumber" v="1"/>
    <tag k="addr:street" v="Małej Łąki"/>
    <tag k="source" v="http://ump.waw.pl/ retrieved 11:07:14 02/24/09 (UMP-Warszawa/src/WARSZAWA_URSYNOW.ulice.txt)"/>
  </node>
  <node id="428475188" version="1" timestamp="2009-06-23T13:38:31Z" uid="20587" user="balrog-kun" changeset="1602576" lat="52.135952" lon="21.0516945">
    <tag k="addr:city" v="Warszawa@Warszawa Ursynów"/>
    <tag k="addr:housenumber" v="11"/>
    <tag k="addr:street" v="Małej Łąki"/>
    <tag k="source" v="http://ump.waw.pl/ retrieved 11:07:14 02/24/09 (UMP-Warszawa/src/WARSZAWA_URSYNOW.ulice.txt)"/>
  </node>
  <node id="428475189" version="1" timestamp="2009-06-23T13:38:31Z" uid="20587" user="balrog-kun" changeset="1602576" lat="52.1368714" lon="21.0540356">
    <tag k="addr:city" v="Warszawa@Warszawa Ursynów"/>
    <tag k="addr:housenumber" v="72"/>
    <tag k="addr:street" v="Małej Łąki"/>
    <tag k="source" v="http://ump.waw.pl/ retrieved 11:07:14 02/24/09 (UMP-Warszawa/src/WARSZAWA_URSYNOW.ulice.txt)"/>
  </node>
  <node id="428475190" version="1" timestamp="2009-06-23T13:38:31Z" uid="20587" user="balrog-kun" changeset="1602576" lat="52.1353075" lon="21.0556488">
    <tag k="addr:city" v="Warszawa@Warszawa Ursynów"/>
    <tag k="addr:housenumber" v="22"/>
    <tag k="addr:street" v="Małej Łąki"/>
    <tag k="source" v="http://ump.waw.pl/ retrieved 11:07:14 02/24/09 (UMP-Warszawa/src/WARSZAWA_URSYNOW.ulice.txt)"/>
  </node>
  <node id="428475191" version="1" timestamp="2009-06-23T13:38:31Z" uid="20587" user="balrog-kun" changeset="1602576" lat="52.1352673" lon="21.0544216">
    <tag k="addr:city" v="Warszawa@Warszawa Ursynów"/>
    <tag k="addr:housenumber" v="8"/>
    <tag k="addr:street" v="Małej Łąki"/>
    <tag k="source" v="http://ump.waw.pl/ retrieved 11:07:14 02/24/09 (UMP-Warszawa/src/WARSZAWA_URSYNOW.ulice.txt)"/>
  </node>
  <node id="428475219" version="1" timestamp="2009-06-23T13:39:20Z" uid="20587" user="balrog-kun" changeset="1602584" lat="52.138375" lon="21.0290518">
    <tag k="addr:city" v="Warszawa@Warszawa Ursynów"/>
    <tag k="addr:housenumber" v="24"/>
    <tag k="addr:street" v="Żołny"/>
    <tag k="source" v="http://ump.waw.pl/ retrieved 11:07:14 02/24/09 (UMP-Warszawa/src/WARSZAWA_URSYNOW.ulice.txt)"/>
  </node>
  <node id="428475570" version="1" timestamp="2009-06-23T13:41:21Z" uid="20587" user="balrog-kun" changeset="1602603" lat="52.0984018" lon="21.0365505">
    <tag k="addr:city" v="Józefosław"/>
    <tag k="addr:housenumber" v="30"/>
    <tag k="addr:street" v="Dzikiej Róży"/>
    <tag k="source" v="http://ump.waw.pl/ retrieved 11:07:14 02/24/09 (UMP-Warszawa/src/JOZEFOSLAW.ulice.txt)"/>
  </node>
  <node id="428475573" version="1" timestamp="2009-06-23T13:41:21Z" uid="20587" user="balrog-kun" changeset="1602603" lat="52.0986625" lon="21.0370047">
    <tag k="addr:city" v="Józefosław"/>
    <tag k="addr:housenumber" v="13"/>
    <tag k="addr:street" v="Dzikiej Róży"/>
    <tag k="source" v="http://ump.waw.pl/ retrieved 11:07:14 02/24/09 (UMP-Warszawa/src/JOZEFOSLAW.ulice.txt)"/>
  </node>
  <node id="428475575" version="1" timestamp="2009-06-23T13:41:21Z" uid="20587" user="balrog-kun" changeset="1602603" lat="52.0997563" lon="21.0360691">
    <tag k="addr:city" v="Józefosław"/>
    <tag k="addr:housenumber" v="25"/>
    <tag k="addr:street" v="Dzikiej Róży"/>
    <tag k="source" v="http://ump.waw.pl/ retrieved 11:07:14 02/24/09 (UMP-Warszawa/src/JOZEFOSLAW.ulice.txt)"/>
  </node>
  <node id="428475578" version="1" timestamp="2009-06-23T13:41:21Z" uid="20587" user="balrog-kun" changeset="1602603" lat="52.0984284" lon="21.0374825">
    <tag k="addr:city" v="Józefosław"/>
    <tag k="addr:housenumber" v="34"/>
    <tag k="addr:street" v="Dzikiej Róży"/>
    <tag k="source" v="http://ump.waw.pl/ retrieved 11:07:14 02/24/09 (UMP-Warszawa/src/JOZEFOSLAW.ulice.txt)"/>
  </node>
  <node id="428475580" version="1" timestamp="2009-06-23T13:41:21Z" uid="20587" user="balrog-kun" changeset="1602603" lat="52.0994876" lon="21.0356263">
    <tag k="addr:city" v="Józefosław"/>
    <tag k="addr:housenumber" v="3"/>
    <tag k="addr:street" v="Dzikiej Róży"/>
    <tag k="source" v="http://ump.waw.pl/ retrieved 11:07:14 02/24/09 (UMP-Warszawa/src/JOZEFOSLAW.ulice.txt)"/>
  </node>
  <node id="428475583" version="1" timestamp="2009-06-23T13:41:21Z" uid="20587" user="balrog-kun" changeset="1602603" lat="52.099219" lon="21.0351838">
    <tag k="addr:city" v="Józefosław"/>
    <tag k="addr:housenumber" v="4"/>
    <tag k="addr:street" v="Dzikiej Róży"/>
    <tag k="source" v="http://ump.waw.pl/ retrieved 11:07:14 02/24/09 (UMP-Warszawa/src/JOZEFOSLAW.ulice.txt)"/>
  </node>
  <node id="428475585" version="1" timestamp="2009-06-23T13:41:21Z" uid="20587" user="balrog-kun" changeset="1602603" lat="52.098595" lon="21.0377602">
    <tag k="addr:city" v="Józefosław"/>
    <tag k="addr:housenumber" v="38"/>
    <tag k="addr:street" v="Dzikiej Róży"/>
    <tag k="source" v="http://ump.waw.pl/ retrieved 11:07:14 02/24/09 (UMP-Warszawa/src/JOZEFOSLAW.ulice.txt)"/>
  </node>
  <node id="428475586" version="1" timestamp="2009-06-23T13:41:21Z" uid="20587" user="balrog-kun" changeset="1602603" lat="52.0989346" lon="21.0374787">
    <tag k="addr:city" v="Józefosław"/>
    <tag k="addr:housenumber" v="15"/>
    <tag k="addr:street" v="Dzikiej Róży"/>
    <tag k="source" v="http://ump.waw.pl/ retrieved 11:07:14 02/24/09 (UMP-Warszawa/src/JOZEFOSLAW.ulice.txt)"/>
  </node>
  <node id="428476636" version="2" timestamp="2009-12-07T04:32:05Z" uid="23543" user="jkjk" changeset="3312484" lat="49.9173732" lon="14.2327246"/>
  <node id="428476637" version="2" timestamp="2009-12-07T04:32:05Z" uid="23543" user="jkjk" changeset="3312484" lat="49.9174527" lon="14.2336617"/>
  <node id="428476638" version="2" timestamp="2009-12-07T04:32:12Z" uid="23543" user="jkjk" changeset="3312484" lat="49.9173047" lon="14.2339873"/>
  <node id="428478199" version="3" timestamp="2009-11-12T02:11:25Z" uid="36809" user="pfoten_weg_!_" changeset="3095175" lat="47.8448524" lon="11.6947181"/>
  <node id="428478199" version="4" timestamp="2009-11-12T02:35:04Z" uid="36809" user="pfoten_weg_!_" changeset="3095231" lat="47.8448524" lon="11.6947181"/>
  <node id="428478200" version="2" timestamp="2009-11-12T02:05:29Z" uid="36809" user="pfoten_weg_!_" changeset="3095175" lat="47.8499486" lon="11.6771257"/>
  <node id="428478200" version="3" timestamp="2009-11-12T02:29:41Z" uid="36809" user="pfoten_weg_!_" changeset="3095231" lat="47.8499486" lon="11.6771257"/>
  <node id="428478201" version="3" timestamp="2009-11-12T02:05:29Z" uid="36809" user="pfoten_weg_!_" changeset="3095175" lat="47.8498496" lon="11.677073"/>
  <node id="428478201" version="4" timestamp="2009-11-12T02:29:41Z" uid="36809" user="pfoten_weg_!_" changeset="3095231" lat="47.8498496" lon="11.677073"/>
  <node id="428478202" version="2" timestamp="2009-11-12T02:05:29Z" uid="36809" user="pfoten_weg_!_" changeset="3095175" lat="47.8497585" lon="11.6770055"/>
  <node id="428478202" version="3" timestamp="2009-11-12T02:29:41Z" uid="36809" user="pfoten_weg_!_" changeset="3095231" lat="47.8497585" lon="11.6770055"/>
  <node id="428478203" version="3" timestamp="2009-11-12T02:05:28Z" uid="36809" user="pfoten_weg_!_" changeset="3095175" lat="47.8495846" lon="11.6770987"/>
  <node id="428478203" version="4" timestamp="2009-11-12T02:29:41Z" uid="36809" user="pfoten_weg_!_" changeset="3095231" lat="47.8495846" lon="11.6770987"/>
  <node id="428478204" version="3" timestamp="2009-11-12T02:05:29Z" uid="36809" user="pfoten_weg_!_" changeset="3095175" lat="47.8496134" lon="11.6775193"/>
  <node id="428478204" version="4" timestamp="2009-11-12T02:29:41Z" uid="36809" user="pfoten_weg_!_" changeset="3095231" lat="47.8496134" lon="11.6775193"/>
  <node id="428478205" version="3" timestamp="2009-11-12T02:07:26Z" uid="36809" user="pfoten_weg_!_" changeset="3095175" lat="47.8515142" lon="11.6798796"/>
  <node id="428478205" version="4" timestamp="2009-11-12T02:31:25Z" uid="36809" user="pfoten_weg_!_" changeset="3095231" lat="47.8515142" lon="11.6798796"/>
  <node id="428478206" version="3" timestamp="2009-11-12T02:07:23Z" uid="36809" user="pfoten_weg_!_" changeset="3095175" lat="47.8514969" lon="11.6787381"/>
  <node id="428478206" version="4" timestamp="2009-11-12T02:31:22Z" uid="36809" user="pfoten_weg_!_" changeset="3095231" lat="47.8514969" lon="11.6787381"/>
  <node id="428478207" version="3" timestamp="2009-11-12T02:05:35Z" uid="36809" user="pfoten_weg_!_" changeset="3095175" lat="47.8516409" lon="11.6779227"/>
  <node id="428478207" version="4" timestamp="2009-11-12T02:29:46Z" uid="36809" user="pfoten_weg_!_" changeset="3095231" lat="47.8516409" lon="11.6779227"/>
  <node id="428478208" version="3" timestamp="2009-11-12T02:05:35Z" uid="36809" user="pfoten_weg_!_" changeset="3095175" lat="47.8516121" lon="11.6775536"/>
  <node id="428478208" version="4" timestamp="2009-11-12T02:29:46Z" uid="36809" user="pfoten_weg_!_" changeset="3095231" lat="47.8516121" lon="11.6775536"/>
  <node id="428478209" version="2" timestamp="2009-11-12T02:09:50Z" uid="36809" user="pfoten_weg_!_" changeset="3095175" lat="47.8637532" lon="11.6851938"/>
  <node id="428478209" version="3" timestamp="2009-11-12T02:33:42Z" uid="36809" user="pfoten_weg_!_" changeset="3095231" lat="47.8637532" lon="11.6851938"/>
  <node id="428478210" version="3" timestamp="2009-11-12T02:09:49Z" uid="36809" user="pfoten_weg_!_" changeset="3095175" lat="47.863995" lon="11.6851337"/>
  <node id="428478210" version="4" timestamp="2009-11-12T02:33:42Z" uid="36809" user="pfoten_weg_!_" changeset="3095231" lat="47.863995" lon="11.6851337"/>
  <node id="428478211" version="3" timestamp="2009-11-12T02:09:56Z" uid="36809" user="pfoten_weg_!_" changeset="3095175" lat="47.8640468" lon="11.6853483"/>
  <node id="428478211" version="4" timestamp="2009-11-12T02:33:46Z" uid="36809" user="pfoten_weg_!_" changeset="3095231" lat="47.8640468" lon="11.6853483"/>
  <node id="428478212" version="3" timestamp="2009-11-12T02:09:52Z" uid="36809" user="pfoten_weg_!_" changeset="3095175" lat="47.8640123" lon="11.6852195"/>
  <node id="428478212" version="4" timestamp="2009-11-12T02:33:44Z" uid="36809" user="pfoten_weg_!_" changeset="3095231" lat="47.8640123" lon="11.6852195"/>
  <node id="428478213" version="2" timestamp="2009-11-12T02:09:50Z" uid="36809" user="pfoten_weg_!_" changeset="3095175" lat="47.863995" lon="11.6849105"/>
  <node id="428478213" version="3" timestamp="2009-11-12T02:33:42Z" uid="36809" user="pfoten_weg_!_" changeset="3095231" lat="47.863995" lon="11.6849105"/>
  <node id="428479002" version="1" timestamp="2009-06-23T13:52:08Z" uid="20587" user="balrog-kun" changeset="1602692" lat="52.1392321" lon="21.0169068">
    <tag k="addr:city" v="Warszawa@Warszawa Ursynów"/>
    <tag k="addr:housenumber" v="350"/>
    <tag k="addr:street" v="Puławska"/>
    <tag k="source" v="http://ump.waw.pl/ retrieved 11:07:14 02/24/09 (UMP-Warszawa/src/WARSZAWA_URSYNOW.ulice.txt)"/>
  </node>
  <node id="428479003" version="1" timestamp="2009-06-23T13:52:08Z" uid="20587" user="balrog-kun" changeset="1602692" lat="52.1144549" lon="21.0175824">
    <tag k="addr:city" v="Warszawa@Warszawa Ursynów"/>
    <tag k="addr:housenumber" v="504"/>
    <tag k="addr:street" v="Puławska"/>
    <tag k="source" v="http://ump.waw.pl/ retrieved 11:07:14 02/24/09 (UMP-Warszawa/src/WARSZAWA_URSYNOW.ulice.txt)"/>
  </node>
  <node id="428479004" version="1" timestamp="2009-06-23T13:52:09Z" uid="20587" user="balrog-kun" changeset="1602692" lat="52.1262085" lon="21.016804">
    <tag k="addr:city" v="Warszawa@Warszawa Ursynów"/>
    <tag k="addr:housenumber" v="430"/>
    <tag k="addr:street" v="Puławska"/>
    <tag k="source" v="http://ump.waw.pl/ retrieved 11:07:14 02/24/09 (UMP-Warszawa/src/WARSZAWA_URSYNOW.ulice.txt)"/>
  </node>
  <node id="428479005" version="1" timestamp="2009-06-23T13:52:09Z" uid="20587" user="balrog-kun" changeset="1602692" lat="52.1304782" lon="21.0167143">
    <tag k="addr:city" v="Warszawa@Warszawa Ursynów"/>
    <tag k="addr:housenumber" v="408"/>
    <tag k="addr:street" v="Puławska"/>
    <tag k="source" v="http://ump.waw.pl/ retrieved 11:07:14 02/24/09 (UMP-Warszawa/src/WARSZAWA_URSYNOW.ulice.txt)"/>
  </node>
  <node id="428479006" version="1" timestamp="2009-06-23T13:52:09Z" uid="20587" user="balrog-kun" changeset="1602692" lat="52.1237383" lon="21.0171601">
    <tag k="addr:city" v="Warszawa@Warszawa Ursynów"/>
    <tag k="addr:housenumber" v="440"/>
    <tag k="addr:street" v="Puławska"/>
    <tag k="source" v="http://ump.waw.pl/ retrieved 11:07:14 02/24/09 (UMP-Warszawa/src/WARSZAWA_URSYNOW.ulice.txt)"/>
  </node>
  <node id="428479007" version="1" timestamp="2009-06-23T13:52:09Z" uid="20587" user="balrog-kun" changeset="1602692" lat="52.1159659" lon="21.0198099">
    <tag k="addr:city" v="Warszawa@Warszawa Ursynów"/>
    <tag k="addr:housenumber" v="589"/>
    <tag k="addr:street" v="Puławska"/>
    <tag k="source" v="http://ump.waw.pl/ retrieved 11:07:14 02/24/09 (UMP-Warszawa/src/WARSZAWA_URSYNOW.ulice.txt)"/>
  </node>
  <node id="428479008" version="1" timestamp="2009-06-23T13:52:09Z" uid="20587" user="balrog-kun" changeset="1602692" lat="52.1235177" lon="21.0190188">
    <tag k="addr:city" v="Warszawa@Warszawa Ursynów"/>
    <tag k="addr:housenumber" v="541"/>
    <tag k="addr:street" v="Puławska"/>
    <tag k="source" v="http://ump.waw.pl/ retrieved 11:07:14 02/24/09 (UMP-Warszawa/src/WARSZAWA_URSYNOW.ulice.txt)"/>
  </node>
  <node id="428479009" version="1" timestamp="2009-06-23T13:52:09Z" uid="20587" user="balrog-kun" changeset="1602692" lat="52.1117278" lon="21.0193967">
    <tag k="addr:city" v="Warszawa@Warszawa Ursynów"/>
    <tag k="addr:housenumber" v="607"/>
    <tag k="addr:street" v="Puławska"/>
    <tag k="source" v="http://ump.waw.pl/ retrieved 11:07:14 02/24/09 (UMP-Warszawa/src/WARSZAWA_URSYNOW.ulice.txt)"/>
  </node>
  <node id="428479010" version="1" timestamp="2009-06-23T13:52:09Z" uid="20587" user="balrog-kun" changeset="1602692" lat="52.1292192" lon="21.0188528">
    <tag k="addr:city" v="Warszawa@Warszawa Ursynów"/>
    <tag k="addr:housenumber" v="501"/>
    <tag k="addr:street" v="Puławska"/>
    <tag k="source" v="http://ump.waw.pl/ retrieved 11:07:14 02/24/09 (UMP-Warszawa/src/WARSZAWA_URSYNOW.ulice.txt)"/>
  </node>
  <node id="428479011" version="1" timestamp="2009-06-23T13:52:09Z" uid="20587" user="balrog-kun" changeset="1602692" lat="52.1379604" lon="21.0192009">
    <tag k="addr:city" v="Warszawa@Warszawa Ursynów"/>
    <tag k="addr:housenumber" v="51"/>
    <tag k="addr:street" v="Rajskich Ptaków"/>
    <tag k="source" v="http://ump.waw.pl/ retrieved 11:07:14 02/24/09 (UMP-Warszawa/src/WARSZAWA_URSYNOW.ulice.txt)"/>
  </node>
  <node id="428479012" version="1" timestamp="2009-06-23T13:52:09Z" uid="20587" user="balrog-kun" changeset="1602692" lat="52.1129899" lon="21.0175891">
    <tag k="addr:city" v="Warszawa@Warszawa Ursynów"/>
    <tag k="addr:housenumber" v="512"/>
    <tag k="addr:street" v="Puławska"/>
    <tag k="source" v="http://ump.waw.pl/ retrieved 11:07:14 02/24/09 (UMP-Warszawa/src/WARSZAWA_URSYNOW.ulice.txt)"/>
  </node>
  <node id="428479013" version="1" timestamp="2009-06-23T13:52:09Z" uid="20587" user="balrog-kun" changeset="1602692" lat="52.1211662" lon="21.0190946">
    <tag k="addr:city" v="Warszawa@Warszawa Ursynów"/>
    <tag k="addr:housenumber" v="559"/>
    <tag k="addr:street" v="Puławska"/>
    <tag k="source" v="http://ump.waw.pl/ retrieved 11:07:14 02/24/09 (UMP-Warszawa/src/WARSZAWA_URSYNOW.ulice.txt)"/>
  </node>
  <node id="428479014" version="1" timestamp="2009-06-23T13:52:09Z" uid="20587" user="balrog-kun" changeset="1602692" lat="52.1320844" lon="21.0186934">
    <tag k="addr:city" v="Warszawa@Warszawa Ursynów"/>
    <tag k="addr:housenumber" v="487"/>
    <tag k="addr:street" v="Puławska"/>
    <tag k="source" v="http://ump.waw.pl/ retrieved 11:07:14 02/24/09 (UMP-Warszawa/src/WARSZAWA_URSYNOW.ulice.txt)"/>
  </node>
  <node id="428479015" version="1" timestamp="2009-06-23T13:52:09Z" uid="20587" user="balrog-kun" changeset="1602692" lat="52.1143998" lon="21.019361">
    <tag k="addr:city" v="Warszawa@Warszawa Ursynów"/>
    <tag k="addr:housenumber" v="597"/>
    <tag k="addr:street" v="Puławska"/>
    <tag k="source" v="http://ump.waw.pl/ retrieved 11:07:14 02/24/09 (UMP-Warszawa/src/WARSZAWA_URSYNOW.ulice.txt)"/>
  </node>
  <node id="428479016" version="1" timestamp="2009-06-23T13:52:09Z" uid="20587" user="balrog-kun" changeset="1602692" lat="52.1335688" lon="21.0199457">
    <tag k="addr:city" v="Warszawa@Warszawa Ursynów"/>
    <tag k="addr:housenumber" v="24"/>
    <tag k="addr:street" v="Rajskich Ptaków"/>
    <tag k="source" v="http://ump.waw.pl/ retrieved 11:07:14 02/24/09 (UMP-Warszawa/src/WARSZAWA_URSYNOW.ulice.txt)"/>
  </node>
  <node id="428479017" version="1" timestamp="2009-06-23T13:52:09Z" uid="20587" user="balrog-kun" changeset="1602692" lat="52.1179201" lon="21.01746">
    <tag k="addr:city" v="Warszawa@Warszawa Ursynów"/>
    <tag k="addr:housenumber" v="480"/>
    <tag k="addr:street" v="Puławska"/>
    <tag k="source" v="http://ump.waw.pl/ retrieved 11:07:14 02/24/09 (UMP-Warszawa/src/WARSZAWA_URSYNOW.ulice.txt)"/>
  </node>
  <node id="428479018" version="1" timestamp="2009-06-23T13:52:09Z" uid="20587" user="balrog-kun" changeset="1602692" lat="52.1101788" lon="21.0194601">
    <tag k="addr:city" v="Warszawa@Warszawa Ursynów"/>
    <tag k="addr:housenumber" v="615"/>
    <tag k="addr:street" v="Puławska"/>
    <tag k="source" v="http://ump.waw.pl/ retrieved 11:07:14 02/24/09 (UMP-Warszawa/src/WARSZAWA_URSYNOW.ulice.txt)"/>
  </node>
  <node id="428479019" version="1" timestamp="2009-06-23T13:52:09Z" uid="20587" user="balrog-kun" changeset="1602692" lat="52.127405" lon="21.0169388">
    <tag k="addr:city" v="Warszawa@Warszawa Ursynów"/>
    <tag k="addr:housenumber" v="422"/>
    <tag k="addr:street" v="Puławska"/>
    <tag k="source" v="http://ump.waw.pl/ retrieved 11:07:14 02/24/09 (UMP-Warszawa/src/WARSZAWA_URSYNOW.ulice.txt)"/>
  </node>
  <node id="428479020" version="1" timestamp="2009-06-23T13:52:10Z" uid="20587" user="balrog-kun" changeset="1602692" lat="52.1279482" lon="21.0189577">
    <tag k="addr:city" v="Warszawa@Warszawa Ursynów"/>
    <tag k="addr:housenumber" v="511"/>
    <tag k="addr:street" v="Puławska"/>
    <tag k="source" v="http://ump.waw.pl/ retrieved 11:07:14 02/24/09 (UMP-Warszawa/src/WARSZAWA_URSYNOW.ulice.txt)"/>
  </node>
  <node id="428479020" version="2" timestamp="2009-12-31T14:47:45Z" uid="20587" user="balrog-kun" changeset="3501400" lat="52.1279482" lon="21.0189577">
    <tag k="addr:city" v="Warszawa@Warszawa Ursynów"/>
    <tag k="addr:housenumber" v="511"/>
    <tag k="addr:street" v="Puławska"/>
    <tag k="source" v="http://ump.waw.pl/ retrieved 11:07:14 02/24/09 (UMP-Warszawa/src/WARSZAWA_URSYNOW.ulice.txt)"/>
  </node>
  <node id="428479021" version="1" timestamp="2009-06-23T13:52:10Z" uid="20587" user="balrog-kun" changeset="1602692" lat="52.1346431" lon="21.0170468">
    <tag k="addr:city" v="Warszawa@Warszawa Ursynów"/>
    <tag k="addr:housenumber" v="380"/>
    <tag k="addr:street" v="Puławska"/>
    <tag k="source" v="http://ump.waw.pl/ retrieved 11:07:14 02/24/09 (UMP-Warszawa/src/WARSZAWA_URSYNOW.ulice.txt)"/>
  </node>
  <node id="428479022" version="1" timestamp="2009-06-23T13:52:10Z" uid="20587" user="balrog-kun" changeset="1602692" lat="52.1362406" lon="21.0169006">
    <tag k="addr:city" v="Warszawa@Warszawa Ursynów"/>
    <tag k="addr:housenumber" v="366"/>
    <tag k="addr:street" v="Puławska"/>
    <tag k="source" v="http://ump.waw.pl/ retrieved 11:07:14 02/24/09 (UMP-Warszawa/src/WARSZAWA_URSYNOW.ulice.txt)"/>
  </node>
  <node id="428479023" version="1" timestamp="2009-06-23T13:52:10Z" uid="20587" user="balrog-kun" changeset="1602692" lat="52.133028" lon="21.0192119">
    <tag k="addr:city" v="Warszawa@Warszawa Ursynów"/>
    <tag k="addr:housenumber" v="17"/>
    <tag k="addr:street" v="Rajskich Ptaków"/>
    <tag k="source" v="http://ump.waw.pl/ retrieved 11:07:14 02/24/09 (UMP-Warszawa/src/WARSZAWA_URSYNOW.ulice.txt)"/>
  </node>
  <node id="428479024" version="1" timestamp="2009-06-23T13:52:10Z" uid="20587" user="balrog-kun" changeset="1602692" lat="52.1109709" lon="21.0194277">
    <tag k="addr:city" v="Warszawa@Warszawa Ursynów"/>
    <tag k="addr:housenumber" v="609"/>
    <tag k="addr:street" v="Puławska"/>
    <tag k="source" v="http://ump.waw.pl/ retrieved 11:07:14 02/24/09 (UMP-Warszawa/src/WARSZAWA_URSYNOW.ulice.txt)"/>
  </node>
  <node id="428479025" version="1" timestamp="2009-06-23T13:52:10Z" uid="20587" user="balrog-kun" changeset="1602692" lat="52.1367001" lon="21.0169261">
    <tag k="addr:city" v="Warszawa@Warszawa Ursynów"/>
    <tag k="addr:housenumber" v="366"/>
    <tag k="addr:street" v="Puławska"/>
    <tag k="source" v="http://ump.waw.pl/ retrieved 11:07:14 02/24/09 (UMP-Warszawa/src/WARSZAWA_URSYNOW.ulice.txt)"/>
  </node>
  <node id="428479026" version="1" timestamp="2009-06-23T13:52:10Z" uid="20587" user="balrog-kun" changeset="1602692" lat="52.1313992" lon="21.018683">
    <tag k="addr:city" v="Warszawa@Warszawa Ursynów"/>
    <tag k="addr:housenumber" v="489"/>
    <tag k="addr:street" v="Puławska"/>
    <tag k="source" v="http://ump.waw.pl/ retrieved 11:07:14 02/24/09 (UMP-Warszawa/src/WARSZAWA_URSYNOW.ulice.txt)"/>
  </node>
  <node id="428479027" version="1" timestamp="2009-06-23T13:52:10Z" uid="20587" user="balrog-kun" changeset="1602692" lat="52.1117036" lon="21.0204582">
    <tag k="addr:city" v="Warszawa@Warszawa Ursynów"/>
    <tag k="addr:housenumber" v="33"/>
    <tag k="addr:street" v="Karmazynowa"/>
    <tag k="source" v="http://ump.waw.pl/ retrieved 11:07:14 02/24/09 (UMP-Warszawa/src/WARSZAWA_URSYNOW.ulice.txt)"/>
  </node>
  <node id="428479028" version="1" timestamp="2009-06-23T13:52:10Z" uid="20587" user="balrog-kun" changeset="1602692" lat="52.1107664" lon="21.0176576">
    <tag k="addr:city" v="Warszawa@Warszawa Ursynów"/>
    <tag k="addr:housenumber" v="528"/>
    <tag k="addr:street" v="Puławska"/>
    <tag k="source" v="http://ump.waw.pl/ retrieved 11:07:14 02/24/09 (UMP-Warszawa/src/WARSZAWA_URSYNOW.ulice.txt)"/>
  </node>
  <node id="428479028" version="2" timestamp="2009-12-31T14:47:31Z" uid="20587" user="balrog-kun" changeset="3501400" lat="52.1108288" lon="21.0178134">
    <tag k="addr:city" v="Warszawa@Warszawa Ursynów"/>
    <tag k="addr:housenumber" v="528"/>
    <tag k="addr:street" v="Puławska"/>
    <tag k="source" v="http://ump.waw.pl/ retrieved 11:07:14 02/24/09 (UMP-Warszawa/src/WARSZAWA_URSYNOW.ulice.txt)"/>
  </node>
  <node id="428479029" version="1" timestamp="2009-06-23T13:52:10Z" uid="20587" user="balrog-kun" changeset="1602692" lat="52.1381371" lon="21.0169152">
    <tag k="addr:city" v="Warszawa@Warszawa Ursynów"/>
    <tag k="addr:housenumber" v="356"/>
    <tag k="addr:street" v="Puławska"/>
    <tag k="source" v="http://ump.waw.pl/ retrieved 11:07:14 02/24/09 (UMP-Warszawa/src/WARSZAWA_URSYNOW.ulice.txt)"/>
  </node>
  <node id="428479030" version="1" timestamp="2009-06-23T13:52:10Z" uid="20587" user="balrog-kun" changeset="1602692" lat="52.132832" lon="21.0170747">
    <tag k="addr:city" v="Warszawa@Warszawa Ursynów"/>
    <tag k="addr:housenumber" v="392"/>
    <tag k="addr:street" v="Puławska"/>
    <tag k="source" v="http://ump.waw.pl/ retrieved 11:07:14 02/24/09 (UMP-Warszawa/src/WARSZAWA_URSYNOW.ulice.txt)"/>
  </node>
  <node id="428479031" version="1" timestamp="2009-06-23T13:52:10Z" uid="20587" user="balrog-kun" changeset="1602692" lat="52.1265709" lon="21.0189937">
    <tag k="addr:city" v="Warszawa@Warszawa Ursynów"/>
    <tag k="addr:housenumber" v="523"/>
    <tag k="addr:street" v="Puławska"/>
    <tag k="source" v="http://ump.waw.pl/ retrieved 11:07:14 02/24/09 (UMP-Warszawa/src/WARSZAWA_URSYNOW.ulice.txt)"/>
  </node>
  <node id="428479032" version="1" timestamp="2009-06-23T13:52:10Z" uid="20587" user="balrog-kun" changeset="1602692" lat="52.1267138" lon="21.0169763">
    <tag k="addr:city" v="Warszawa@Warszawa Ursynów"/>
    <tag k="addr:housenumber" v="428"/>
    <tag k="addr:street" v="Puławska"/>
    <tag k="source" v="http://ump.waw.pl/ retrieved 11:07:14 02/24/09 (UMP-Warszawa/src/WARSZAWA_URSYNOW.ulice.txt)"/>
  </node>
  <node id="428479033" version="1" timestamp="2009-06-23T13:52:10Z" uid="20587" user="balrog-kun" changeset="1602692" lat="52.1202179" lon="21.0175173">
    <tag k="addr:city" v="Warszawa@Warszawa Ursynów"/>
    <tag k="addr:housenumber" v="466"/>
    <tag k="addr:street" v="Puławska"/>
    <tag k="source" v="http://ump.waw.pl/ retrieved 11:07:14 02/24/09 (UMP-Warszawa/src/WARSZAWA_URSYNOW.ulice.txt)"/>
  </node>
  <node id="428479034" version="1" timestamp="2009-06-23T13:52:10Z" uid="20587" user="balrog-kun" changeset="1602692" lat="52.1158822" lon="21.0175099">
    <tag k="addr:city" v="Warszawa@Warszawa Ursynów"/>
    <tag k="addr:housenumber" v="496"/>
    <tag k="addr:street" v="Puławska"/>
    <tag k="source" v="http://ump.waw.pl/ retrieved 11:07:14 02/24/09 (UMP-Warszawa/src/WARSZAWA_URSYNOW.ulice.txt)"/>
  </node>
  <node id="428479035" version="1" timestamp="2009-06-23T13:52:10Z" uid="20587" user="balrog-kun" changeset="1602692" lat="52.108725" lon="21.0176969">
    <tag k="addr:city" v="Warszawa@Warszawa Ursynów"/>
    <tag k="addr:housenumber" v="540"/>
    <tag k="addr:street" v="Puławska"/>
    <tag k="source" v="http://ump.waw.pl/ retrieved 11:07:14 02/24/09 (UMP-Warszawa/src/WARSZAWA_URSYNOW.ulice.txt)"/>
  </node>
  <node id="428479036" version="1" timestamp="2009-06-23T13:52:10Z" uid="20587" user="balrog-kun" changeset="1602692" lat="52.1294028" lon="21.0172483">
    <tag k="addr:city" v="Warszawa@Warszawa Ursynów"/>
    <tag k="addr:housenumber" v="410"/>
    <tag k="addr:street" v="Puławska"/>
    <tag k="source" v="http://ump.waw.pl/ retrieved 11:07:14 02/24/09 (UMP-Warszawa/src/WARSZAWA_URSYNOW.ulice.txt)"/>
  </node>
  <node id="428479037" version="1" timestamp="2009-06-23T13:52:10Z" uid="20587" user="balrog-kun" changeset="1602692" lat="52.13927" lon="21.0188561">
    <tag k="addr:city" v="Warszawa@Warszawa Ursynów"/>
    <tag k="addr:housenumber" v="441"/>
    <tag k="addr:street" v="Puławska"/>
    <tag k="source" v="http://ump.waw.pl/ retrieved 11:07:14 02/24/09 (UMP-Warszawa/src/WARSZAWA_URSYNOW.ulice.txt)"/>
  </node>
  <node id="428479037" version="2" timestamp="2009-12-31T14:47:34Z" uid="20587" user="balrog-kun" changeset="3501400" lat="52.1394197" lon="21.0187477">
    <tag k="addr:city" v="Warszawa@Warszawa Ursynów"/>
    <tag k="addr:housenumber" v="441"/>
    <tag k="addr:street" v="Puławska"/>
    <tag k="source" v="http://ump.waw.pl/ retrieved 11:07:14 02/24/09 (UMP-Warszawa/src/WARSZAWA_URSYNOW.ulice.txt)"/>
  </node>
  <node id="428479038" version="1" timestamp="2009-06-23T13:52:11Z" uid="20587" user="balrog-kun" changeset="1602692" lat="52.1174447" lon="21.0197724">
    <tag k="addr:city" v="Warszawa@Warszawa Ursynów"/>
    <tag k="addr:housenumber" v="585"/>
    <tag k="addr:street" v="Puławska"/>
    <tag k="source" v="http://ump.waw.pl/ retrieved 11:07:14 02/24/09 (UMP-Warszawa/src/WARSZAWA_URSYNOW.ulice.txt)"/>
  </node>
  <node id="428479039" version="1" timestamp="2009-06-23T13:52:11Z" uid="20587" user="balrog-kun" changeset="1602692" lat="52.1345373" lon="21.0189776">
    <tag k="addr:city" v="Warszawa@Warszawa Ursynów"/>
    <tag k="addr:housenumber" v="475"/>
    <tag k="addr:street" v="Puławska"/>
    <tag k="source" v="http://ump.waw.pl/ retrieved 11:07:14 02/24/09 (UMP-Warszawa/src/WARSZAWA_URSYNOW.ulice.txt)"/>
  </node>
  <node id="428479040" version="1" timestamp="2009-06-23T13:52:11Z" uid="20587" user="balrog-kun" changeset="1602692" lat="52.1121316" lon="21.021499">
    <tag k="addr:city" v="Warszawa@Warszawa Ursynów"/>
    <tag k="addr:housenumber" v="28"/>
    <tag k="addr:street" v="Karmazynowa"/>
    <tag k="source" v="http://ump.waw.pl/ retrieved 11:07:14 02/24/09 (UMP-Warszawa/src/WARSZAWA_URSYNOW.ulice.txt)"/>
  </node>
  <node id="428479041" version="1" timestamp="2009-06-23T13:52:11Z" uid="20587" user="balrog-kun" changeset="1602692" lat="52.1134382" lon="21.0208343">
    <tag k="addr:city" v="Warszawa@Warszawa Ursynów"/>
    <tag k="addr:housenumber" v="34"/>
    <tag k="addr:street" v="Karmazynowa"/>
    <tag k="source" v="http://ump.waw.pl/ retrieved 11:07:14 02/24/09 (UMP-Warszawa/src/WARSZAWA_URSYNOW.ulice.txt)"/>
  </node>
  <node id="428479042" version="1" timestamp="2009-06-23T13:52:11Z" uid="20587" user="balrog-kun" changeset="1602692" lat="52.1251209" lon="21.0190565">
    <tag k="addr:city" v="Warszawa@Warszawa Ursynów"/>
    <tag k="addr:housenumber" v="531"/>
    <tag k="addr:street" v="Puławska"/>
    <tag k="source" v="http://ump.waw.pl/ retrieved 11:07:14 02/24/09 (UMP-Warszawa/src/WARSZAWA_URSYNOW.ulice.txt)"/>
  </node>
  <node id="428479043" version="1" timestamp="2009-06-23T13:52:11Z" uid="20587" user="balrog-kun" changeset="1602692" lat="52.135948" lon="21.0189466">
    <tag k="addr:city" v="Warszawa@Warszawa Ursynów"/>
    <tag k="addr:housenumber" v="467"/>
    <tag k="addr:street" v="Puławska"/>
    <tag k="source" v="http://ump.waw.pl/ retrieved 11:07:14 02/24/09 (UMP-Warszawa/src/WARSZAWA_URSYNOW.ulice.txt)"/>
  </node>
  <node id="428479044" version="1" timestamp="2009-06-23T13:52:11Z" uid="20587" user="balrog-kun" changeset="1602692" lat="52.1375951" lon="21.0201255">
    <tag k="addr:city" v="Warszawa@Warszawa Ursynów"/>
    <tag k="addr:housenumber" v="56"/>
    <tag k="addr:street" v="Rajskich Ptaków"/>
    <tag k="source" v="http://ump.waw.pl/ retrieved 11:07:14 02/24/09 (UMP-Warszawa/src/WARSZAWA_URSYNOW.ulice.txt)"/>
  </node>
  <node id="428479045" version="1" timestamp="2009-06-23T13:52:11Z" uid="20587" user="balrog-kun" changeset="1602692" lat="52.1376874" lon="21.0169186">
    <tag k="addr:city" v="Warszawa@Warszawa Ursynów"/>
    <tag k="addr:housenumber" v="358"/>
    <tag k="addr:street" v="Puławska"/>
    <tag k="source" v="http://ump.waw.pl/ retrieved 11:07:14 02/24/09 (UMP-Warszawa/src/WARSZAWA_URSYNOW.ulice.txt)"/>
  </node>
  <node id="428479046" version="1" timestamp="2009-06-23T13:52:11Z" uid="20587" user="balrog-kun" changeset="1602692" lat="52.1194436" lon="21.019129">
    <tag k="addr:city" v="Warszawa@Warszawa Ursynów"/>
    <tag k="addr:housenumber" v="565"/>
    <tag k="addr:street" v="Puławska"/>
    <tag k="source" v="http://ump.waw.pl/ retrieved 11:07:14 02/24/09 (UMP-Warszawa/src/WARSZAWA_URSYNOW.ulice.txt)"/>
  </node>
  <node id="428479047" version="1" timestamp="2009-06-23T13:52:11Z" uid="20587" user="balrog-kun" changeset="1602692" lat="52.1280483" lon="21.0173022">
    <tag k="addr:city" v="Warszawa@Warszawa Ursynów"/>
    <tag k="addr:housenumber" v="420"/>
    <tag k="addr:street" v="Puławska"/>
    <tag k="source" v="http://ump.waw.pl/ retrieved 11:07:14 02/24/09 (UMP-Warszawa/src/WARSZAWA_URSYNOW.ulice.txt)"/>
  </node>
  <node id="428479048" version="1" timestamp="2009-06-23T13:52:11Z" uid="20587" user="balrog-kun" changeset="1602692" lat="52.133991" lon="21.0170466">
    <tag k="addr:city" v="Warszawa@Warszawa Ursynów"/>
    <tag k="addr:housenumber" v="382"/>
    <tag k="addr:street" v="Puławska"/>
    <tag k="source" v="http://ump.waw.pl/ retrieved 11:07:14 02/24/09 (UMP-Warszawa/src/WARSZAWA_URSYNOW.ulice.txt)"/>
  </node>
  <node id="428479049" version="1" timestamp="2009-06-23T13:52:11Z" uid="20587" user="balrog-kun" changeset="1602692" lat="52.1330159" lon="21.0186941">
    <tag k="addr:city" v="Warszawa@Warszawa Ursynów"/>
    <tag k="addr:housenumber" v="479"/>
    <tag k="addr:street" v="Puławska"/>
    <tag k="source" v="http://ump.waw.pl/ retrieved 11:07:14 02/24/09 (UMP-Warszawa/src/WARSZAWA_URSYNOW.ulice.txt)"/>
  </node>
  <node id="428479051" version="1" timestamp="2009-06-23T13:52:11Z" uid="20587" user="balrog-kun" changeset="1602692" lat="52.1227742" lon="21.0169092">
    <tag k="addr:city" v="Warszawa@Warszawa Ursynów"/>
    <tag k="addr:housenumber" v="450"/>
    <tag k="addr:street" v="Puławska"/>
    <tag k="source" v="http://ump.waw.pl/ retrieved 11:07:14 02/24/09 (UMP-Warszawa/src/WARSZAWA_URSYNOW.ulice.txt)"/>
  </node>
  <node id="428479051" version="2" timestamp="2009-12-31T14:47:32Z" uid="20587" user="balrog-kun" changeset="3501400" lat="52.1226943" lon="21.0171694">
    <tag k="addr:city" v="Warszawa@Warszawa Ursynów"/>
    <tag k="addr:housenumber" v="450"/>
    <tag k="addr:street" v="Puławska"/>
    <tag k="source" v="http://ump.waw.pl/ retrieved 11:07:14 02/24/09 (UMP-Warszawa/src/WARSZAWA_URSYNOW.ulice.txt)"/>
  </node>
  <node id="428479052" version="1" timestamp="2009-06-23T13:52:11Z" uid="20587" user="balrog-kun" changeset="1602692" lat="52.1076156" lon="21.017513">
    <tag k="addr:city" v="Warszawa@Warszawa Ursynów"/>
    <tag k="addr:housenumber" v="558"/>
    <tag k="addr:street" v="Puławska"/>
    <tag k="source" v="http://ump.waw.pl/ retrieved 11:07:14 02/24/09 (UMP-Warszawa/src/WARSZAWA_URSYNOW.ulice.txt)"/>
  </node>
  <node id="428479052" version="2" timestamp="2009-12-31T14:47:46Z" uid="20587" user="balrog-kun" changeset="3501400" lat="52.1076156" lon="21.017513">
    <tag k="addr:city" v="Warszawa@Warszawa Ursynów"/>
    <tag k="addr:housenumber" v="558"/>
    <tag k="addr:street" v="Puławska"/>
    <tag k="source" v="http://ump.waw.pl/ retrieved 11:07:14 02/24/09 (UMP-Warszawa/src/WARSZAWA_URSYNOW.ulice.txt)"/>
  </node>
  <node id="428479054" version="1" timestamp="2009-06-23T13:52:11Z" uid="20587" user="balrog-kun" changeset="1602692" lat="52.1172172" lon="21.0174772">
    <tag k="addr:city" v="Warszawa@Warszawa Ursynów"/>
    <tag k="addr:housenumber" v="482"/>
    <tag k="addr:street" v="Puławska"/>
    <tag k="source" v="http://ump.waw.pl/ retrieved 11:07:14 02/24/09 (UMP-Warszawa/src/WARSZAWA_URSYNOW.ulice.txt)"/>
  </node>
  <node id="428479056" version="1" timestamp="2009-06-23T13:52:11Z" uid="20587" user="balrog-kun" changeset="1602692" lat="52.1386897" lon="21.016911">
    <tag k="addr:city" v="Warszawa@Warszawa Ursynów"/>
    <tag k="addr:housenumber" v="352"/>
    <tag k="addr:street" v="Puławska"/>
    <tag k="source" v="http://ump.waw.pl/ retrieved 11:07:14 02/24/09 (UMP-Warszawa/src/WARSZAWA_URSYNOW.ulice.txt)"/>
  </node>
  <node id="428479058" version="1" timestamp="2009-06-23T13:52:11Z" uid="20587" user="balrog-kun" changeset="1602692" lat="52.1216668" lon="21.0169088">
    <tag k="addr:city" v="Warszawa@Warszawa Ursynów"/>
    <tag k="addr:housenumber" v="456"/>
    <tag k="addr:street" v="Puławska"/>
    <tag k="source" v="http://ump.waw.pl/ retrieved 11:07:14 02/24/09 (UMP-Warszawa/src/WARSZAWA_URSYNOW.ulice.txt)"/>
  </node>
  <node id="428479058" version="2" timestamp="2009-12-31T14:47:32Z" uid="20587" user="balrog-kun" changeset="3501400" lat="52.1217307" lon="21.0171473">
    <tag k="addr:city" v="Warszawa@Warszawa Ursynów"/>
    <tag k="addr:housenumber" v="456"/>
    <tag k="addr:street" v="Puławska"/>
    <tag k="source" v="http://ump.waw.pl/ retrieved 11:07:14 02/24/09 (UMP-Warszawa/src/WARSZAWA_URSYNOW.ulice.txt)"/>
  </node>
  <node id="428479059" version="1" timestamp="2009-06-23T13:52:11Z" uid="20587" user="balrog-kun" changeset="1602692" lat="52.1406816" lon="21.0168958">
    <tag k="addr:city" v="Warszawa@Warszawa Ursynów"/>
    <tag k="addr:housenumber" v="338"/>
    <tag k="addr:street" v="Puławska"/>
    <tag k="source" v="http://ump.waw.pl/ retrieved 11:07:14 02/24/09 (UMP-Warszawa/src/WARSZAWA_URSYNOW.ulice.txt)"/>
  </node>
  <node id="428479060" version="1" timestamp="2009-06-23T13:52:11Z" uid="20587" user="balrog-kun" changeset="1602692" lat="52.1368136" lon="21.0187968">
    <tag k="addr:city" v="Warszawa@Warszawa Ursynów"/>
    <tag k="addr:housenumber" v="465"/>
    <tag k="addr:street" v="Puławska"/>
    <tag k="source" v="http://ump.waw.pl/ retrieved 11:07:14 02/24/09 (UMP-Warszawa/src/WARSZAWA_URSYNOW.ulice.txt)"/>
  </node>
  <node id="428479061" version="1" timestamp="2009-06-23T13:52:12Z" uid="20587" user="balrog-kun" changeset="1602692" lat="52.1249226" lon="21.0168589">
    <tag k="addr:city" v="Warszawa@Warszawa Ursynów"/>
    <tag k="addr:housenumber" v="436"/>
    <tag k="addr:street" v="Puławska"/>
    <tag k="source" v="http://ump.waw.pl/ retrieved 11:07:14 02/24/09 (UMP-Warszawa/src/WARSZAWA_URSYNOW.ulice.txt)"/>
  </node>
  <node id="428479062" version="1" timestamp="2009-06-23T13:52:12Z" uid="20587" user="balrog-kun" changeset="1602692" lat="52.1381397" lon="21.0202958">
    <tag k="addr:city" v="Warszawa@Warszawa Ursynów"/>
    <tag k="addr:housenumber" v="58"/>
    <tag k="addr:street" v="Rajskich Ptaków"/>
    <tag k="source" v="http://ump.waw.pl/ retrieved 11:07:14 02/24/09 (UMP-Warszawa/src/WARSZAWA_URSYNOW.ulice.txt)"/>
  </node>
  <node id="428479063" version="1" timestamp="2009-06-23T13:52:12Z" uid="20587" user="balrog-kun" changeset="1602692" lat="52.1069089" lon="21.0175319">
    <tag k="addr:city" v="Warszawa@Warszawa Ursynów"/>
    <tag k="addr:housenumber" v="560"/>
    <tag k="addr:street" v="Puławska"/>
    <tag k="source" v="http://ump.waw.pl/ retrieved 11:07:14 02/24/09 (UMP-Warszawa/src/WARSZAWA_URSYNOW.ulice.txt)"/>
  </node>
  <node id="428479063" version="2" timestamp="2009-12-31T14:47:46Z" uid="20587" user="balrog-kun" changeset="3501400" lat="52.1069089" lon="21.0175319">
    <tag k="addr:city" v="Warszawa@Warszawa Ursynów"/>
    <tag k="addr:housenumber" v="560"/>
    <tag k="addr:street" v="Puławska"/>
    <tag k="source" v="http://ump.waw.pl/ retrieved 11:07:14 02/24/09 (UMP-Warszawa/src/WARSZAWA_URSYNOW.ulice.txt)"/>
  </node>
  <node id="428479064" version="1" timestamp="2009-06-23T13:52:12Z" uid="20587" user="balrog-kun" changeset="1602692" lat="52.1337823" lon="21.0191899">
    <tag k="addr:city" v="Warszawa@Warszawa Ursynów"/>
    <tag k="addr:housenumber" v="25"/>
    <tag k="addr:street" v="Rajskich Ptaków"/>
    <tag k="source" v="http://ump.waw.pl/ retrieved 11:07:14 02/24/09 (UMP-Warszawa/src/WARSZAWA_URSYNOW.ulice.txt)"/>
  </node>
  <node id="428479065" version="1" timestamp="2009-06-23T13:52:12Z" uid="20587" user="balrog-kun" changeset="1602692" lat="52.133017" lon="21.0199695">
    <tag k="addr:city" v="Warszawa@Warszawa Ursynów"/>
    <tag k="addr:housenumber" v="22"/>
    <tag k="addr:street" v="Rajskich Ptaków"/>
  </node>
  <node id="428479066" version="1" timestamp="2009-06-23T13:52:12Z" uid="20587" user="balrog-kun" changeset="1602692" lat="52.1086589" lon="21.0195223">
    <tag k="addr:city" v="Warszawa@Warszawa Ursynów"/>
    <tag k="addr:housenumber" v="621"/>
    <tag k="addr:street" v="Puławska"/>
    <tag k="source" v="http://ump.waw.pl/ retrieved 11:07:14 02/24/09 (UMP-Warszawa/src/WARSZAWA_URSYNOW.ulice.txt)"/>
  </node>
  <node id="428479066" version="2" timestamp="2009-12-31T14:47:31Z" uid="20587" user="balrog-kun" changeset="3501400" lat="52.1085992" lon="21.0195015">
    <tag k="addr:city" v="Warszawa@Warszawa Ursynów"/>
    <tag k="addr:housenumber" v="621"/>
    <tag k="addr:street" v="Puławska"/>
    <tag k="source" v="http://ump.waw.pl/ retrieved 11:07:14 02/24/09 (UMP-Warszawa/src/WARSZAWA_URSYNOW.ulice.txt)"/>
  </node>
  <node id="428479067" version="1" timestamp="2009-06-23T13:52:12Z" uid="20587" user="balrog-kun" changeset="1602692" lat="52.112521" lon="21.0214998">
    <tag k="addr:city" v="Warszawa@Warszawa Ursynów"/>
    <tag k="addr:housenumber" v="30"/>
    <tag k="addr:street" v="Karmazynowa"/>
    <tag k="source" v="http://ump.waw.pl/ retrieved 11:07:14 02/24/09 (UMP-Warszawa/src/WARSZAWA_URSYNOW.ulice.txt)"/>
  </node>
  <node id="428479068" version="1" timestamp="2009-06-23T13:52:12Z" uid="20587" user="balrog-kun" changeset="1602692" lat="52.1261195" lon="21.0190132">
    <tag k="addr:city" v="Warszawa@Warszawa Ursynów"/>
    <tag k="addr:housenumber" v="525"/>
    <tag k="addr:street" v="Puławska"/>
    <tag k="source" v="http://ump.waw.pl/ retrieved 11:07:14 02/24/09 (UMP-Warszawa/src/WARSZAWA_URSYNOW.ulice.txt)"/>
  </node>
  <node id="428479069" version="1" timestamp="2009-06-23T13:52:12Z" uid="20587" user="balrog-kun" changeset="1602692" lat="52.1095877" lon="21.0194843">
    <tag k="addr:city" v="Warszawa@Warszawa Ursynów"/>
    <tag k="addr:housenumber" v="617"/>
    <tag k="addr:street" v="Puławska"/>
    <tag k="source" v="http://ump.waw.pl/ retrieved 11:07:14 02/24/09 (UMP-Warszawa/src/WARSZAWA_URSYNOW.ulice.txt)"/>
  </node>
  <node id="428479069" version="2" timestamp="2009-12-31T14:47:31Z" uid="20587" user="balrog-kun" changeset="3501400" lat="52.1090193" lon="21.0194878">
    <tag k="addr:city" v="Warszawa@Warszawa Ursynów"/>
    <tag k="addr:housenumber" v="619"/>
    <tag k="addr:street" v="Puławska"/>
  </node>
  <node id="428479070" version="1" timestamp="2009-06-23T13:52:12Z" uid="20587" user="balrog-kun" changeset="1602692" lat="52.1320873" lon="21.0192394">
    <tag k="addr:city" v="Warszawa@Warszawa Ursynów"/>
    <tag k="addr:housenumber" v="13"/>
    <tag k="addr:street" v="Rajskich Ptaków"/>
    <tag k="source" v="http://ump.waw.pl/ retrieved 11:07:14 02/24/09 (UMP-Warszawa/src/WARSZAWA_URSYNOW.ulice.txt)"/>
  </node>
  <node id="428479071" version="1" timestamp="2009-06-23T13:52:12Z" uid="20587" user="balrog-kun" changeset="1602692" lat="52.1333723" lon="21.0192019">
    <tag k="addr:city" v="Warszawa@Warszawa Ursynów"/>
    <tag k="addr:housenumber" v="23"/>
    <tag k="addr:street" v="Rajskich Ptaków"/>
    <tag k="source" v="http://ump.waw.pl/ retrieved 11:07:14 02/24/09 (UMP-Warszawa/src/WARSZAWA_URSYNOW.ulice.txt)"/>
  </node>
  <node id="428479072" version="1" timestamp="2009-06-23T13:52:12Z" uid="20587" user="balrog-kun" changeset="1602692" lat="52.1370189" lon="21.0199452">
    <tag k="addr:city" v="Warszawa@Warszawa Ursynów"/>
    <tag k="addr:housenumber" v="52"/>
    <tag k="addr:street" v="Rajskich Ptaków"/>
    <tag k="source" v="http://ump.waw.pl/ retrieved 11:07:14 02/24/09 (UMP-Warszawa/src/WARSZAWA_URSYNOW.ulice.txt)"/>
  </node>
  <node id="428479073" version="1" timestamp="2009-06-23T13:52:12Z" uid="20587" user="balrog-kun" changeset="1602692" lat="52.1402255" lon="21.0188357">
    <tag k="addr:city" v="Warszawa@Warszawa Ursynów"/>
    <tag k="addr:housenumber" v="437"/>
    <tag k="addr:street" v="Puławska"/>
    <tag k="source" v="http://ump.waw.pl/ retrieved 11:07:14 02/24/09 (UMP-Warszawa/src/WARSZAWA_URSYNOW.ulice.txt)"/>
  </node>
  <node id="428479074" version="1" timestamp="2009-06-23T13:52:12Z" uid="20587" user="balrog-kun" changeset="1602692" lat="52.1119106" lon="21.0215858">
    <tag k="addr:city" v="Warszawa@Warszawa Ursynów"/>
    <tag k="addr:housenumber" v="31"/>
    <tag k="addr:street" v="Karmazynowa"/>
    <tag k="source" v="http://ump.waw.pl/ retrieved 11:07:14 02/24/09 (UMP-Warszawa/src/WARSZAWA_URSYNOW.ulice.txt)"/>
  </node>
  <node id="428479075" version="1" timestamp="2009-06-23T13:52:12Z" uid="20587" user="balrog-kun" changeset="1602692" lat="52.1223665" lon="21.0191819">
    <tag k="addr:city" v="Warszawa@Warszawa Ursynów"/>
    <tag k="addr:housenumber" v="557"/>
    <tag k="addr:street" v="Puławska"/>
    <tag k="source" v="http://ump.waw.pl/ retrieved 11:07:14 02/24/09 (UMP-Warszawa/src/WARSZAWA_URSYNOW.ulice.txt)"/>
  </node>
  <node id="428479076" version="1" timestamp="2009-06-23T13:52:12Z" uid="20587" user="balrog-kun" changeset="1602692" lat="52.112622" lon="21.0201843">
    <tag k="addr:city" v="Warszawa@Warszawa Ursynów"/>
    <tag k="addr:housenumber" v="32"/>
    <tag k="addr:street" v="Karmazynowa"/>
    <tag k="source" v="http://ump.waw.pl/ retrieved 11:07:14 02/24/09 (UMP-Warszawa/src/WARSZAWA_URSYNOW.ulice.txt)"/>
  </node>
  <node id="428479077" version="1" timestamp="2009-06-23T13:52:12Z" uid="20587" user="balrog-kun" changeset="1602692" lat="52.1325366" lon="21.0187049">
    <tag k="addr:city" v="Warszawa@Warszawa Ursynów"/>
    <tag k="addr:housenumber" v="485"/>
    <tag k="addr:street" v="Puławska"/>
    <tag k="source" v="http://ump.waw.pl/ retrieved 11:07:14 02/24/09 (UMP-Warszawa/src/WARSZAWA_URSYNOW.ulice.txt)"/>
  </node>
  <node id="428479078" version="1" timestamp="2009-06-23T13:52:12Z" uid="20587" user="balrog-kun" changeset="1602692" lat="52.1364245" lon="21.0197593">
    <tag k="addr:city" v="Warszawa@Warszawa Ursynów"/>
    <tag k="addr:housenumber" v="50"/>
    <tag k="addr:street" v="Rajskich Ptaków"/>
    <tag k="source" v="http://ump.waw.pl/ retrieved 11:07:14 02/24/09 (UMP-Warszawa/src/WARSZAWA_URSYNOW.ulice.txt)"/>
  </node>
  <node id="428479079" version="1" timestamp="2009-06-23T13:52:13Z" uid="20587" user="balrog-kun" changeset="1602692" lat="52.1322665" lon="21.0168569">
    <tag k="addr:city" v="Warszawa@Warszawa Ursynów"/>
    <tag k="addr:housenumber" v="394"/>
    <tag k="addr:street" v="Puławska"/>
    <tag k="source" v="http://ump.waw.pl/ retrieved 11:07:14 02/24/09 (UMP-Warszawa/src/WARSZAWA_URSYNOW.ulice.txt)"/>
  </node>
  <node id="428479080" version="1" timestamp="2009-06-23T13:52:13Z" uid="20587" user="balrog-kun" changeset="1602692" lat="52.1312048" lon="21.0192652">
    <tag k="addr:city" v="Warszawa@Warszawa Ursynów"/>
    <tag k="addr:housenumber" v="11"/>
    <tag k="addr:street" v="Rajskich Ptaków"/>
    <tag k="source" v="http://ump.waw.pl/ retrieved 11:07:14 02/24/09 (UMP-Warszawa/src/WARSZAWA_URSYNOW.ulice.txt)"/>
  </node>
  <node id="428479081" version="1" timestamp="2009-06-23T13:52:13Z" uid="20587" user="balrog-kun" changeset="1602692" lat="52.119068" lon="21.0174319">
    <tag k="addr:city" v="Warszawa@Warszawa Ursynów"/>
    <tag k="addr:housenumber" v="470"/>
    <tag k="addr:street" v="Puławska"/>
    <tag k="source" v="http://ump.waw.pl/ retrieved 11:07:14 02/24/09 (UMP-Warszawa/src/WARSZAWA_URSYNOW.ulice.txt)"/>
  </node>
  <node id="428479082" version="1" timestamp="2009-06-23T13:52:13Z" uid="20587" user="balrog-kun" changeset="1602692" lat="52.1152049" lon="21.0172531">
    <tag k="addr:city" v="Warszawa@Warszawa Ursynów"/>
    <tag k="addr:housenumber" v="502"/>
    <tag k="addr:street" v="Puławska"/>
    <tag k="source" v="http://ump.waw.pl/ retrieved 11:07:14 02/24/09 (UMP-Warszawa/src/WARSZAWA_URSYNOW.ulice.txt)"/>
  </node>
  <node id="428479083" version="1" timestamp="2009-06-23T13:52:13Z" uid="20587" user="balrog-kun" changeset="1602692" lat="52.1325259" lon="21.0199875">
    <tag k="addr:city" v="Warszawa@Warszawa Ursynów"/>
    <tag k="addr:housenumber" v="14"/>
    <tag k="addr:street" v="Rajskich Ptaków"/>
  </node>
  <node id="428479084" version="1" timestamp="2009-06-23T13:52:13Z" uid="20587" user="balrog-kun" changeset="1602692" lat="52.1257195" lon="21.0190306">
    <tag k="addr:city" v="Warszawa@Warszawa Ursynów"/>
    <tag k="addr:housenumber" v="529"/>
    <tag k="addr:street" v="Puławska"/>
    <tag k="source" v="http://ump.waw.pl/ retrieved 11:07:14 02/24/09 (UMP-Warszawa/src/WARSZAWA_URSYNOW.ulice.txt)"/>
  </node>
  <node id="428479085" version="1" timestamp="2009-06-23T13:52:13Z" uid="20587" user="balrog-kun" changeset="1602692" lat="52.1324674" lon="21.0192283">
    <tag k="addr:city" v="Warszawa@Warszawa Ursynów"/>
    <tag k="addr:housenumber" v="15"/>
    <tag k="addr:street" v="Rajskich Ptaków"/>
    <tag k="source" v="http://ump.waw.pl/ retrieved 11:07:14 02/24/09 (UMP-Warszawa/src/WARSZAWA_URSYNOW.ulice.txt)"/>
  </node>
  <node id="428479548" version="2" timestamp="2009-11-12T02:09:48Z" uid="36809" user="pfoten_weg_!_" changeset="3095175" lat="47.8639547" lon="11.6849191"/>
  <node id="428479548" version="3" timestamp="2009-11-12T02:33:40Z" uid="36809" user="pfoten_weg_!_" changeset="3095231" lat="47.8639547" lon="11.6849191"/>
  <node id="428479550" version="2" timestamp="2009-11-12T02:09:47Z" uid="36809" user="pfoten_weg_!_" changeset="3095175" lat="47.8639374" lon="11.6850393"/>
  <node id="428479550" version="3" timestamp="2009-11-12T02:33:40Z" uid="36809" user="pfoten_weg_!_" changeset="3095231" lat="47.8639374" lon="11.6850393"/>
  <node id="428479553" version="2" timestamp="2009-11-12T02:09:48Z" uid="36809" user="pfoten_weg_!_" changeset="3095175" lat="47.8636783" lon="11.6850908"/>
  <node id="428479553" version="3" timestamp="2009-11-12T02:33:40Z" uid="36809" user="pfoten_weg_!_" changeset="3095231" lat="47.8636783" lon="11.6850908"/>
  <node id="428479554" version="2" timestamp="2009-11-12T02:09:46Z" uid="36809" user="pfoten_weg_!_" changeset="3095175" lat="47.8636092" lon="11.684962"/>
  <node id="428479554" version="3" timestamp="2009-11-12T02:33:39Z" uid="36809" user="pfoten_weg_!_" changeset="3095231" lat="47.8636092" lon="11.684962"/>
  <node id="428479555" version="2" timestamp="2009-11-12T02:09:46Z" uid="36809" user="pfoten_weg_!_" changeset="3095175" lat="47.8635689" lon="11.6848161"/>
  <node id="428479555" version="3" timestamp="2009-11-12T02:33:39Z" uid="36809" user="pfoten_weg_!_" changeset="3095231" lat="47.8635689" lon="11.6848161"/>
</osm>
