<?xml version='1.0' encoding='UTF-8'?>
<osm version="0.6" generator="libosmium/2.20.0">
  <node id="430960038" version="1" timestamp="2009-06-29T21:28:06Z" uid="38528" user="acrosscanadatrails" changeset="1682831" lat="48.412932" lon="-123.3607341"/>
  <node id="430960039" version="1" timestamp="2009-06-29T21:28:06Z" uid="38528" user="acrosscanadatrails" changeset="1682831" lat="48.4129774" lon="-123.3607336"/>
  <node id="430960040" version="1" timestamp="2009-06-29T21:28:06Z" uid="38528" user="acrosscanadatrails" changeset="1682831" lat="48.413125" lon="-123.3607267"/>
  <node id="430960041" version="1" timestamp="2009-06-29T21:28:06Z" uid="38528" user="acrosscanadatrails" changeset="1682831" lat="48.4135362" lon="-123.3607091"/>
  <node id="430960042" version="1" timestamp="2009-06-29T21:28:06Z" uid="38528" user="acrosscanadatrails" changeset="1682831" lat="48.413811" lon="-123.3607216"/>
  <node id="430960043" version="1" timestamp="2009-06-29T21:28:06Z" uid="38528" user="acrosscanadatrails" changeset="1682831" lat="48.4139027" lon="-123.3607225"/>
  <node id="430960044" version="1" timestamp="2009-06-29T21:28:06Z" uid="38528" user="acrosscanadatrails" changeset="1682831" lat="48.414068" lon="-123.3607225"/>
  <node id="430960045" version="1" timestamp="2009-06-29T21:28:06Z" uid="38528" user="acrosscanadatrails" changeset="1682831" lat="48.4144324" lon="-123.3607325"/>
  <node id="430960046" version="1" timestamp="2009-06-29T21:28:06Z" uid="38528" user="acrosscanadatrails" changeset="1682831" lat="48.4146669" lon="-123.3607397"/>
  <node id="430960047" version="1" timestamp="2009-06-29T21:28:06Z" uid="38528" user="acrosscanadatrails" changeset="1682831" lat="48.4147823" lon="-123.3607388"/>
  <node id="430960048" version="1" timestamp="2009-06-29T21:28:06Z" uid="38528" user="acrosscanadatrails" changeset="1682831" lat="48.4149708" lon="-123.3607162"/>
  <node id="430960049" version="1" timestamp="2009-06-29T21:28:06Z" uid="38528" user="acrosscanadatrails" changeset="1682831" lat="48.415309" lon="-123.3607108"/>
  <node id="430960050" version="1" timestamp="2009-06-29T21:28:06Z" uid="38528" user="acrosscanadatrails" changeset="1682831" lat="48.4155201" lon="-123.3607063"/>
  <node id="430960051" version="1" timestamp="2009-06-29T21:28:06Z" uid="38528" user="acrosscanadatrails" changeset="1682831" lat="48.4159773" lon="-123.3606477"/>
  <node id="430960052" version="1" timestamp="2009-06-29T21:28:06Z" uid="38528" user="acrosscanadatrails" changeset="1682831" lat="48.4161893" lon="-123.3606459"/>
  <node id="430960053" version="1" timestamp="2009-06-29T21:28:06Z" uid="38528" user="acrosscanadatrails" changeset="1682831" lat="48.4164806" lon="-123.3606612"/>
  <node id="430960054" version="1" timestamp="2009-06-29T21:28:06Z" uid="38528" user="acrosscanadatrails" changeset="1682831" lat="48.4166682" lon="-123.3606531"/>
  <node id="430960055" version="1" timestamp="2009-06-29T21:28:06Z" uid="38528" user="acrosscanadatrails" changeset="1682831" lat="48.4167611" lon="-123.3607018"/>
  <node id="430960056" version="1" timestamp="2009-06-29T21:28:06Z" uid="38528" user="acrosscanadatrails" changeset="1682831" lat="48.4168404" lon="-123.3609491"/>
  <node id="430960057" version="1" timestamp="2009-06-29T21:28:06Z" uid="38528" user="acrosscanadatrails" changeset="1682831" lat="48.4169924" lon="-123.3612948"/>
  <node id="430960058" version="1" timestamp="2009-06-29T21:28:07Z" uid="38528" user="acrosscanadatrails" changeset="1682831" lat="48.4170827" lon="-123.3614952"/>
  <node id="430960059" version="1" timestamp="2009-06-29T21:28:07Z" uid="38528" user="acrosscanadatrails" changeset="1682831" lat="48.417214" lon="-123.3617467"/>
  <node id="430960060" version="1" timestamp="2009-06-29T21:28:07Z" uid="38528" user="acrosscanadatrails" changeset="1682831" lat="48.4172918" lon="-123.361891"/>
  <node id="430960061" version="1" timestamp="2009-06-29T21:28:07Z" uid="38528" user="acrosscanadatrails" changeset="1682831" lat="48.4173267" lon="-123.3620116"/>
  <node id="430960062" version="1" timestamp="2009-06-29T21:28:07Z" uid="38528" user="acrosscanadatrails" changeset="1682831" lat="48.4173876" lon="-123.3621548"/>
  <node id="430960063" version="1" timestamp="2009-06-29T21:28:07Z" uid="38528" user="acrosscanadatrails" changeset="1682831" lat="48.4174592" lon="-123.3622942"/>
  <node id="430960064" version="1" timestamp="2009-06-29T21:28:07Z" uid="38528" user="acrosscanadatrails" changeset="1682831" lat="48.4174407" lon="-123.362259"/>
  <node id="430960065" version="1" timestamp="2009-06-29T21:28:07Z" uid="38528" user="acrosscanadatrails" changeset="1682831" lat="48.4174223" lon="-123.3622152"/>
  <node id="430960066" version="1" timestamp="2009-06-29T21:28:07Z" uid="38528" user="acrosscanadatrails" changeset="1682831" lat="48.4163212" lon="-123.3627518"/>
  <node id="430960067" version="1" timestamp="2009-06-29T21:28:07Z" uid="38528" user="acrosscanadatrails" changeset="1682831" lat="48.4163171" lon="-123.3628124"/>
  <node id="430960068" version="1" timestamp="2009-06-29T21:28:07Z" uid="38528" user="acrosscanadatrails" changeset="1682831" lat="48.4162941" lon="-123.362936"/>
  <node id="430960069" version="1" timestamp="2009-06-29T21:28:07Z" uid="38528" user="acrosscanadatrails" changeset="1682831" lat="48.416313" lon="-123.3631073"/>
  <node id="430960070" version="1" timestamp="2009-06-29T21:28:07Z" uid="38528" user="acrosscanadatrails" changeset="1682831" lat="48.4163322" lon="-123.3632388"/>
  <node id="430960071" version="1" timestamp="2009-06-29T21:28:07Z" uid="38528" user="acrosscanadatrails" changeset="1682831" lat="48.4162948" lon="-123.3627599">
    <tag k="information" v="hikingmap"/>
    <tag k="name" v="Mayors Grove"/>
    <tag k="tourism" v="information"/>
  </node>
  <node id="430960072" version="1" timestamp="2009-06-29T21:28:07Z" uid="38528" user="acrosscanadatrails" changeset="1682831" lat="48.4170943" lon="-123.3624935">
    <tag k="amenity" v="bench"/>
  </node>
  <node id="430960073" version="1" timestamp="2009-06-29T21:28:07Z" uid="38528" user="acrosscanadatrails" changeset="1682831" lat="48.4175179" lon="-123.3622674"/>
  <node id="430960073" version="2" timestamp="2009-06-29T21:39:11Z" uid="38528" user="acrosscanadatrails" changeset="1682901" lat="48.4175179" lon="-123.3622674">
    <tag k="bicycle" v="yes"/>
    <tag k="highway" v="crossing"/>
    <tag k="horse" v="yes"/>
  </node>
  <node id="430960074" version="1" timestamp="2009-06-29T21:28:07Z" uid="38528" user="acrosscanadatrails" changeset="1682831" lat="48.41738" lon="-123.3623379"/>
  <node id="430960075" version="1" timestamp="2009-06-29T21:28:07Z" uid="38528" user="acrosscanadatrails" changeset="1682831" lat="48.4171715" lon="-123.36241"/>
  <node id="430960076" version="1" timestamp="2009-06-29T21:28:07Z" uid="38528" user="acrosscanadatrails" changeset="1682831" lat="48.4170192" lon="-123.3624771"/>
  <node id="430960077" version="1" timestamp="2009-06-29T21:28:07Z" uid="38528" user="acrosscanadatrails" changeset="1682831" lat="48.41688" lon="-123.362545"/>
  <node id="430960078" version="1" timestamp="2009-06-29T21:28:07Z" uid="38528" user="acrosscanadatrails" changeset="1682831" lat="48.4165769" lon="-123.3626417"/>
  <node id="430960079" version="1" timestamp="2009-06-29T21:28:07Z" uid="38528" user="acrosscanadatrails" changeset="1682831" lat="48.416411" lon="-123.3626994"/>
  <node id="430960080" version="1" timestamp="2009-06-29T21:28:07Z" uid="38528" user="acrosscanadatrails" changeset="1682831" lat="48.4162811" lon="-123.3627333"/>
  <node id="430960081" version="1" timestamp="2009-06-29T21:28:08Z" uid="38528" user="acrosscanadatrails" changeset="1682831" lat="48.4160913" lon="-123.3628026"/>
  <node id="430960082" version="1" timestamp="2009-06-29T21:28:08Z" uid="38528" user="acrosscanadatrails" changeset="1682831" lat="48.4159557" lon="-123.3628913"/>
  <node id="430960083" version="1" timestamp="2009-06-29T21:28:08Z" uid="38528" user="acrosscanadatrails" changeset="1682831" lat="48.4157811" lon="-123.362944"/>
  <node id="430960084" version="1" timestamp="2009-06-29T21:28:08Z" uid="38528" user="acrosscanadatrails" changeset="1682831" lat="48.4156022" lon="-123.3629634"/>
  <node id="430960085" version="1" timestamp="2009-06-29T21:28:08Z" uid="38528" user="acrosscanadatrails" changeset="1682831" lat="48.4154651" lon="-123.3629714"/>
  <node id="430960086" version="1" timestamp="2009-06-29T21:28:08Z" uid="38528" user="acrosscanadatrails" changeset="1682831" lat="48.4153662" lon="-123.3629735"/>
  <node id="430960087" version="1" timestamp="2009-06-29T21:28:08Z" uid="38528" user="acrosscanadatrails" changeset="1682831" lat="48.4152717" lon="-123.3629454"/>
  <node id="430960088" version="1" timestamp="2009-06-29T21:28:08Z" uid="38528" user="acrosscanadatrails" changeset="1682831" lat="48.415201" lon="-123.3629216"/>
  <node id="430960089" version="1" timestamp="2009-06-29T21:28:08Z" uid="38528" user="acrosscanadatrails" changeset="1682831" lat="48.4151245" lon="-123.3628733"/>
  <node id="430960090" version="1" timestamp="2009-06-29T21:28:08Z" uid="38528" user="acrosscanadatrails" changeset="1682831" lat="48.4162568" lon="-123.3627401"/>
  <node id="430960091" version="1" timestamp="2009-06-29T21:28:08Z" uid="38528" user="acrosscanadatrails" changeset="1682831" lat="48.4163236" lon="-123.3627222"/>
  <node id="430960092" version="1" timestamp="2009-06-29T21:28:08Z" uid="38528" user="acrosscanadatrails" changeset="1682831" lat="48.4163171" lon="-123.3628124"/>
  <node id="430960093" version="1" timestamp="2009-06-29T21:28:08Z" uid="38528" user="acrosscanadatrails" changeset="1682831" lat="48.4162821" lon="-123.3627831"/>
  <node id="430960094" version="1" timestamp="2009-06-29T21:28:08Z" uid="38528" user="acrosscanadatrails" changeset="1682831" lat="48.4163103" lon="-123.3628488"/>
  <node id="430960095" version="1" timestamp="2009-06-29T21:28:08Z" uid="38528" user="acrosscanadatrails" changeset="1682831" lat="48.4162568" lon="-123.3627401"/>
  <node id="430960096" version="1" timestamp="2009-06-29T21:28:08Z" uid="38528" user="acrosscanadatrails" changeset="1682831" lat="48.4162632" lon="-123.36276"/>
  <node id="430960097" version="1" timestamp="2009-06-29T21:28:08Z" uid="38528" user="acrosscanadatrails" changeset="1682831" lat="48.4162479" lon="-123.3627435"/>
  <node id="430960606" version="1" timestamp="2009-06-29T21:29:54Z" uid="36809" user="pfoten_weg_!_" changeset="1682846" lat="48.072114" lon="11.532914">
    <tag k="addr:city" v="Pullach im Istartal"/>
    <tag k="addr:country" v="DE"/>
    <tag k="addr:housename" v="Wohngebäude"/>
    <tag k="addr:housenumber" v="2"/>
    <tag k="addr:postcode" v="82049"/>
    <tag k="addr:street" v="Fritz-Gerlich-Straße"/>
    <tag k="created_by" v="RambaZamba"/>
    <tag k="name" v="2"/>
    <tag k="source" v="survey"/>
  </node>
  <node id="430960606" version="2" timestamp="2009-06-29T21:31:12Z" uid="36809" user="pfoten_weg_!_" changeset="1682854" lat="48.072114" lon="11.532914">
    <tag k="addr:city" v="Pullach im Istartal"/>
    <tag k="addr:country" v="DE"/>
    <tag k="addr:housename" v="Wohngebäude"/>
    <tag k="addr:housenumber" v="2"/>
    <tag k="addr:postcode" v="82049"/>
    <tag k="addr:street" v="Fritz-Gerlich-Straße"/>
    <tag k="created_by" v="RambaZamba"/>
    <tag k="name" v="2"/>
    <tag k="source" v="survey"/>
  </node>
  <node id="430960607" version="1" timestamp="2009-06-29T21:29:54Z" uid="36809" user="pfoten_weg_!_" changeset="1682846" lat="48.072186" lon="11.533085">
    <tag k="addr:city" v="Pullach im Istartal"/>
    <tag k="addr:country" v="DE"/>
    <tag k="addr:housename" v="Wohngebäude"/>
    <tag k="addr:housenumber" v="4"/>
    <tag k="addr:postcode" v="82049"/>
    <tag k="addr:street" v="Fritz-Gerlich-Straße"/>
    <tag k="created_by" v="RambaZamba"/>
    <tag k="name" v="4"/>
    <tag k="source" v="survey"/>
  </node>
  <node id="430960607" version="2" timestamp="2009-06-29T21:31:12Z" uid="36809" user="pfoten_weg_!_" changeset="1682854" lat="48.072186" lon="11.533085">
    <tag k="addr:city" v="Pullach im Istartal"/>
    <tag k="addr:country" v="DE"/>
    <tag k="addr:housename" v="Wohngebäude"/>
    <tag k="addr:housenumber" v="4"/>
    <tag k="addr:postcode" v="82049"/>
    <tag k="addr:street" v="Fritz-Gerlich-Straße"/>
    <tag k="created_by" v="RambaZamba"/>
    <tag k="name" v="4"/>
    <tag k="source" v="survey"/>
  </node>
  <node id="430960608" version="1" timestamp="2009-06-29T21:29:54Z" uid="36809" user="pfoten_weg_!_" changeset="1682846" lat="48.072322" lon="11.533354">
    <tag k="addr:city" v="Pullach im Istartal"/>
    <tag k="addr:country" v="DE"/>
    <tag k="addr:housename" v="Wohngebäude"/>
    <tag k="addr:housenumber" v="6"/>
    <tag k="addr:postcode" v="82049"/>
    <tag k="addr:street" v="Fritz-Gerlich-Straße"/>
    <tag k="created_by" v="RambaZamba"/>
    <tag k="name" v="6"/>
    <tag k="source" v="survey"/>
  </node>
  <node id="430960608" version="2" timestamp="2009-06-29T21:31:12Z" uid="36809" user="pfoten_weg_!_" changeset="1682854" lat="48.072322" lon="11.533354">
    <tag k="addr:city" v="Pullach im Istartal"/>
    <tag k="addr:country" v="DE"/>
    <tag k="addr:housename" v="Wohngebäude"/>
    <tag k="addr:housenumber" v="6"/>
    <tag k="addr:postcode" v="82049"/>
    <tag k="addr:street" v="Fritz-Gerlich-Straße"/>
    <tag k="created_by" v="RambaZamba"/>
    <tag k="name" v="6"/>
    <tag k="source" v="survey"/>
  </node>
  <node id="430960609" version="1" timestamp="2009-06-29T21:29:55Z" uid="36809" user="pfoten_weg_!_" changeset="1682846" lat="48.072301" lon="11.533847">
    <tag k="addr:city" v="Pullach im Istartal"/>
    <tag k="addr:country" v="DE"/>
    <tag k="addr:housename" v="Wohngebäude"/>
    <tag k="addr:housenumber" v="3"/>
    <tag k="addr:postcode" v="82049"/>
    <tag k="addr:street" v="Marienstraße"/>
    <tag k="created_by" v="RambaZamba"/>
    <tag k="name" v="3"/>
    <tag k="source" v="survey"/>
  </node>
  <node id="430960609" version="2" timestamp="2009-06-29T21:31:11Z" uid="36809" user="pfoten_weg_!_" changeset="1682854" lat="48.072301" lon="11.533847">
    <tag k="addr:city" v="Pullach im Istartal"/>
    <tag k="addr:country" v="DE"/>
    <tag k="addr:housename" v="Wohngebäude"/>
    <tag k="addr:housenumber" v="3"/>
    <tag k="addr:postcode" v="82049"/>
    <tag k="addr:street" v="Marienstraße"/>
    <tag k="created_by" v="RambaZamba"/>
    <tag k="name" v="3"/>
    <tag k="source" v="survey"/>
  </node>
  <node id="430960610" version="1" timestamp="2009-06-29T21:29:55Z" uid="36809" user="pfoten_weg_!_" changeset="1682846" lat="48.072441" lon="11.534255">
    <tag k="addr:city" v="Pullach im Istartal"/>
    <tag k="addr:country" v="DE"/>
    <tag k="addr:housename" v="Wohngebäude"/>
    <tag k="addr:housenumber" v="4"/>
    <tag k="addr:postcode" v="82049"/>
    <tag k="addr:street" v="Marienstraße"/>
    <tag k="created_by" v="RambaZamba"/>
    <tag k="name" v="4"/>
    <tag k="source" v="survey"/>
  </node>
  <node id="430960610" version="2" timestamp="2009-06-29T21:31:11Z" uid="36809" user="pfoten_weg_!_" changeset="1682854" lat="48.072441" lon="11.534255">
    <tag k="addr:city" v="Pullach im Istartal"/>
    <tag k="addr:country" v="DE"/>
    <tag k="addr:housename" v="Wohngebäude"/>
    <tag k="addr:housenumber" v="4"/>
    <tag k="addr:postcode" v="82049"/>
    <tag k="addr:street" v="Marienstraße"/>
    <tag k="created_by" v="RambaZamba"/>
    <tag k="name" v="4"/>
    <tag k="source" v="survey"/>
  </node>
  <node id="430960611" version="1" timestamp="2009-06-29T21:29:56Z" uid="36809" user="pfoten_weg_!_" changeset="1682846" lat="48.072473" lon="11.533598">
    <tag k="addr:city" v="Pullach im Istartal"/>
    <tag k="addr:country" v="DE"/>
    <tag k="addr:housename" v="Wohngebäude"/>
    <tag k="addr:housenumber" v="8"/>
    <tag k="addr:postcode" v="82049"/>
    <tag k="addr:street" v="Fritz-Gerlich-Straße"/>
    <tag k="created_by" v="RambaZamba"/>
    <tag k="name" v="8"/>
    <tag k="source" v="survey"/>
  </node>
  <node id="430960611" version="2" timestamp="2009-06-29T21:31:11Z" uid="36809" user="pfoten_weg_!_" changeset="1682854" lat="48.072473" lon="11.533598">
    <tag k="addr:city" v="Pullach im Istartal"/>
    <tag k="addr:country" v="DE"/>
    <tag k="addr:housename" v="Wohngebäude"/>
    <tag k="addr:housenumber" v="8"/>
    <tag k="addr:postcode" v="82049"/>
    <tag k="addr:street" v="Fritz-Gerlich-Straße"/>
    <tag k="created_by" v="RambaZamba"/>
    <tag k="name" v="8"/>
    <tag k="source" v="survey"/>
  </node>
  <node id="430960612" version="1" timestamp="2009-06-29T21:29:56Z" uid="36809" user="pfoten_weg_!_" changeset="1682846" lat="48.0727" lon="11.534067">
    <tag k="addr:city" v="Pullach im Istartal"/>
    <tag k="addr:country" v="DE"/>
    <tag k="addr:housename" v="Wohngebäude"/>
    <tag k="addr:housenumber" v="10"/>
    <tag k="addr:postcode" v="82049"/>
    <tag k="addr:street" v="Fritz-Gerlich-Straße"/>
    <tag k="created_by" v="RambaZamba"/>
    <tag k="name" v="10"/>
    <tag k="source" v="survey"/>
  </node>
  <node id="430960612" version="2" timestamp="2009-06-29T21:31:10Z" uid="36809" user="pfoten_weg_!_" changeset="1682854" lat="48.0727" lon="11.534067">
    <tag k="addr:city" v="Pullach im Istartal"/>
    <tag k="addr:country" v="DE"/>
    <tag k="addr:housename" v="Wohngebäude"/>
    <tag k="addr:housenumber" v="10"/>
    <tag k="addr:postcode" v="82049"/>
    <tag k="addr:street" v="Fritz-Gerlich-Straße"/>
    <tag k="created_by" v="RambaZamba"/>
    <tag k="name" v="10"/>
    <tag k="source" v="survey"/>
  </node>
  <node id="430960613" version="1" timestamp="2009-06-29T21:29:56Z" uid="36809" user="pfoten_weg_!_" changeset="1682846" lat="48.072892" lon="11.534303">
    <tag k="addr:city" v="Pullach im Istartal"/>
    <tag k="addr:country" v="DE"/>
    <tag k="addr:housename" v="Wohngebäude"/>
    <tag k="addr:housenumber" v="12"/>
    <tag k="addr:postcode" v="82049"/>
    <tag k="addr:street" v="Fritz-Gerlich-Straße"/>
    <tag k="created_by" v="RambaZamba"/>
    <tag k="name" v="12"/>
    <tag k="source" v="survey"/>
  </node>
  <node id="430960613" version="2" timestamp="2009-06-29T21:31:10Z" uid="36809" user="pfoten_weg_!_" changeset="1682854" lat="48.072892" lon="11.534303">
    <tag k="addr:city" v="Pullach im Istartal"/>
    <tag k="addr:country" v="DE"/>
    <tag k="addr:housename" v="Wohngebäude"/>
    <tag k="addr:housenumber" v="12"/>
    <tag k="addr:postcode" v="82049"/>
    <tag k="addr:street" v="Fritz-Gerlich-Straße"/>
    <tag k="created_by" v="RambaZamba"/>
    <tag k="name" v="12"/>
    <tag k="source" v="survey"/>
  </node>
  <node id="430960614" version="1" timestamp="2009-06-29T21:29:57Z" uid="36809" user="pfoten_weg_!_" changeset="1682846" lat="48.072996" lon="11.534491">
    <tag k="addr:city" v="Pullach im Istartal"/>
    <tag k="addr:country" v="DE"/>
    <tag k="addr:housename" v="Wohngebäude"/>
    <tag k="addr:housenumber" v="14"/>
    <tag k="addr:postcode" v="82049"/>
    <tag k="addr:street" v="Fritz-Gerlich-Straße"/>
    <tag k="created_by" v="RambaZamba"/>
    <tag k="name" v="14"/>
    <tag k="source" v="survey"/>
  </node>
  <node id="430960614" version="2" timestamp="2009-06-29T21:31:09Z" uid="36809" user="pfoten_weg_!_" changeset="1682854" lat="48.072996" lon="11.534491">
    <tag k="addr:city" v="Pullach im Istartal"/>
    <tag k="addr:country" v="DE"/>
    <tag k="addr:housename" v="Wohngebäude"/>
    <tag k="addr:housenumber" v="14"/>
    <tag k="addr:postcode" v="82049"/>
    <tag k="addr:street" v="Fritz-Gerlich-Straße"/>
    <tag k="created_by" v="RambaZamba"/>
    <tag k="name" v="14"/>
    <tag k="source" v="survey"/>
  </node>
  <node id="430960615" version="1" timestamp="2009-06-29T21:29:57Z" uid="36809" user="pfoten_weg_!_" changeset="1682846" lat="48.073358" lon="11.534351">
    <tag k="addr:city" v="Pullach im Istartal"/>
    <tag k="addr:country" v="DE"/>
    <tag k="addr:housename" v="Wohngebäude"/>
    <tag k="addr:housenumber" v="11"/>
    <tag k="addr:postcode" v="82049"/>
    <tag k="addr:street" v="Fritz-Gerlich-Straße"/>
    <tag k="created_by" v="RambaZamba"/>
    <tag k="name" v="11"/>
    <tag k="source" v="survey"/>
  </node>
  <node id="430960615" version="2" timestamp="2009-06-29T21:31:09Z" uid="36809" user="pfoten_weg_!_" changeset="1682854" lat="48.073358" lon="11.534351">
    <tag k="addr:city" v="Pullach im Istartal"/>
    <tag k="addr:country" v="DE"/>
    <tag k="addr:housename" v="Wohngebäude"/>
    <tag k="addr:housenumber" v="11"/>
    <tag k="addr:postcode" v="82049"/>
    <tag k="addr:street" v="Fritz-Gerlich-Straße"/>
    <tag k="created_by" v="RambaZamba"/>
    <tag k="name" v="11"/>
    <tag k="source" v="survey"/>
  </node>
  <node id="430960616" version="1" timestamp="2009-06-29T21:29:58Z" uid="36809" user="pfoten_weg_!_" changeset="1682846" lat="48.073224" lon="11.534303">
    <tag k="addr:city" v="Pullach im Istartal"/>
    <tag k="addr:country" v="DE"/>
    <tag k="addr:housename" v="Wohngebäude"/>
    <tag k="addr:housenumber" v="9"/>
    <tag k="addr:postcode" v="82049"/>
    <tag k="addr:street" v="Fritz-Gerlich-Straße"/>
    <tag k="created_by" v="RambaZamba"/>
    <tag k="name" v="9"/>
    <tag k="source" v="survey"/>
  </node>
  <node id="430960616" version="2" timestamp="2009-06-29T21:31:09Z" uid="36809" user="pfoten_weg_!_" changeset="1682854" lat="48.073224" lon="11.534303">
    <tag k="addr:city" v="Pullach im Istartal"/>
    <tag k="addr:country" v="DE"/>
    <tag k="addr:housename" v="Wohngebäude"/>
    <tag k="addr:housenumber" v="9"/>
    <tag k="addr:postcode" v="82049"/>
    <tag k="addr:street" v="Fritz-Gerlich-Straße"/>
    <tag k="created_by" v="RambaZamba"/>
    <tag k="name" v="9"/>
    <tag k="source" v="survey"/>
  </node>
  <node id="430960617" version="1" timestamp="2009-06-29T21:29:58Z" uid="36809" user="pfoten_weg_!_" changeset="1682846" lat="48.073153" lon="11.534022">
    <tag k="addr:city" v="Pullach im Istartal"/>
    <tag k="addr:country" v="DE"/>
    <tag k="addr:housename" v="Wohngebäude"/>
    <tag k="addr:housenumber" v="7"/>
    <tag k="addr:postcode" v="82049"/>
    <tag k="addr:street" v="Fritz-Gerlich-Straße"/>
    <tag k="created_by" v="RambaZamba"/>
    <tag k="name" v="7"/>
    <tag k="source" v="survey"/>
  </node>
  <node id="430960617" version="2" timestamp="2009-06-29T21:31:08Z" uid="36809" user="pfoten_weg_!_" changeset="1682854" lat="48.073153" lon="11.534022">
    <tag k="addr:city" v="Pullach im Istartal"/>
    <tag k="addr:country" v="DE"/>
    <tag k="addr:housename" v="Wohngebäude"/>
    <tag k="addr:housenumber" v="7"/>
    <tag k="addr:postcode" v="82049"/>
    <tag k="addr:street" v="Fritz-Gerlich-Straße"/>
    <tag k="created_by" v="RambaZamba"/>
    <tag k="name" v="7"/>
    <tag k="source" v="survey"/>
  </node>
  <node id="430960618" version="1" timestamp="2009-06-29T21:29:58Z" uid="36809" user="pfoten_weg_!_" changeset="1682846" lat="48.072628" lon="11.533058">
    <tag k="addr:city" v="Pullach im Istartal"/>
    <tag k="addr:country" v="DE"/>
    <tag k="addr:housename" v="Wohngebäude"/>
    <tag k="addr:housenumber" v="1"/>
    <tag k="addr:postcode" v="82049"/>
    <tag k="addr:street" v="Fritz-Gerlich-Straße"/>
    <tag k="created_by" v="RambaZamba"/>
    <tag k="name" v="1"/>
    <tag k="source" v="survey"/>
  </node>
  <node id="430960618" version="2" timestamp="2009-06-29T21:31:08Z" uid="36809" user="pfoten_weg_!_" changeset="1682854" lat="48.072628" lon="11.533058">
    <tag k="addr:city" v="Pullach im Istartal"/>
    <tag k="addr:country" v="DE"/>
    <tag k="addr:housename" v="Wohngebäude"/>
    <tag k="addr:housenumber" v="1"/>
    <tag k="addr:postcode" v="82049"/>
    <tag k="addr:street" v="Fritz-Gerlich-Straße"/>
    <tag k="created_by" v="RambaZamba"/>
    <tag k="name" v="1"/>
    <tag k="source" v="survey"/>
  </node>
  <node id="430960619" version="1" timestamp="2009-06-29T21:29:59Z" uid="36809" user="pfoten_weg_!_" changeset="1682846" lat="48.072437" lon="11.532824">
    <tag k="addr:city" v="Pullach im Istartal"/>
    <tag k="addr:country" v="DE"/>
    <tag k="addr:housename" v="Wohngebäude"/>
    <tag k="addr:housenumber" v="1A"/>
    <tag k="addr:postcode" v="82049"/>
    <tag k="addr:street" v="Fritz-Gerlich-Straße"/>
    <tag k="created_by" v="RambaZamba"/>
    <tag k="name" v="1A"/>
    <tag k="source" v="survey"/>
  </node>
  <node id="430960619" version="2" timestamp="2009-06-29T21:31:07Z" uid="36809" user="pfoten_weg_!_" changeset="1682854" lat="48.072437" lon="11.532824">
    <tag k="addr:city" v="Pullach im Istartal"/>
    <tag k="addr:country" v="DE"/>
    <tag k="addr:housename" v="Wohngebäude"/>
    <tag k="addr:housenumber" v="1A"/>
    <tag k="addr:postcode" v="82049"/>
    <tag k="addr:street" v="Fritz-Gerlich-Straße"/>
    <tag k="created_by" v="RambaZamba"/>
    <tag k="name" v="1A"/>
    <tag k="source" v="survey"/>
  </node>
  <node id="430960620" version="1" timestamp="2009-06-29T21:29:59Z" uid="36809" user="pfoten_weg_!_" changeset="1682846" lat="48.072021" lon="11.532032">
    <tag k="addr:city" v="Pullach im Istartal"/>
    <tag k="addr:country" v="DE"/>
    <tag k="addr:housename" v="Wohngebäude"/>
    <tag k="addr:housenumber" v="1"/>
    <tag k="addr:postcode" v="82049"/>
    <tag k="addr:street" v="Hilariastraße"/>
    <tag k="created_by" v="RambaZamba"/>
    <tag k="name" v="1"/>
    <tag k="source" v="survey"/>
  </node>
  <node id="430960620" version="2" timestamp="2009-06-29T21:31:07Z" uid="36809" user="pfoten_weg_!_" changeset="1682854" lat="48.072021" lon="11.532032">
    <tag k="addr:city" v="Pullach im Istartal"/>
    <tag k="addr:country" v="DE"/>
    <tag k="addr:housename" v="Wohngebäude"/>
    <tag k="addr:housenumber" v="1"/>
    <tag k="addr:postcode" v="82049"/>
    <tag k="addr:street" v="Hilariastraße"/>
    <tag k="created_by" v="RambaZamba"/>
    <tag k="name" v="1"/>
    <tag k="source" v="survey"/>
  </node>
  <node id="430960965" version="1" timestamp="2009-06-29T21:31:00Z" uid="36809" user="pfoten_weg_!_" changeset="1682854" lat="48.0728921" lon="11.534303">
    <tag k="addr:city" v="Pullach im Isartal"/>
    <tag k="addr:country" v="DE"/>
    <tag k="addr:housename" v="Wohngebäude"/>
    <tag k="addr:housenumber" v="12"/>
    <tag k="addr:postcode" v="82049"/>
    <tag k="addr:street" v="Fritz-Gerlich-Straße"/>
    <tag k="created_by" v="RambaZamba"/>
    <tag k="name" v="12"/>
    <tag k="source" v="survey"/>
  </node>
  <node id="430960965" version="2" timestamp="2009-07-14T16:17:34Z" uid="36809" user="pfoten_weg_!_" changeset="1828190" lat="48.0728921" lon="11.534303">
    <tag k="addr:city" v="Pullach im Isartal"/>
    <tag k="addr:country" v="DE"/>
    <tag k="addr:housename" v="Wohngebäude"/>
    <tag k="addr:housenumber" v="12"/>
    <tag k="addr:postcode" v="82049"/>
    <tag k="addr:street" v="Fritz-Gerlich-Straße"/>
    <tag k="discovered_by" v="RambaZamba"/>
    <tag k="name" v="12"/>
    <tag k="source" v="survey"/>
  </node>
  <node id="430960965" version="4" timestamp="2009-08-17T18:09:10Z" uid="36809" user="pfoten_weg_!_" changeset="2180201" lat="48.0728921" lon="11.534303">
    <tag k="addr:city" v="Pullach im Isartal"/>
    <tag k="addr:country" v="DE"/>
    <tag k="addr:housename" v="Wohngebäude"/>
    <tag k="addr:housenumber" v="12"/>
    <tag k="addr:postcode" v="82049"/>
    <tag k="addr:street" v="Fritz-Gerlich-Straße"/>
    <tag k="name" v="12"/>
    <tag k="source" v="survey"/>
  </node>
  <node id="430960971" version="1" timestamp="2009-06-29T21:31:01Z" uid="36809" user="pfoten_weg_!_" changeset="1682854" lat="48.0721141" lon="11.532914">
    <tag k="addr:city" v="Pullach im Isartal"/>
    <tag k="addr:country" v="DE"/>
    <tag k="addr:housename" v="Wohngebäude"/>
    <tag k="addr:housenumber" v="2"/>
    <tag k="addr:postcode" v="82049"/>
    <tag k="addr:street" v="Fritz-Gerlich-Straße"/>
    <tag k="created_by" v="RambaZamba"/>
    <tag k="name" v="2"/>
    <tag k="source" v="survey"/>
  </node>
  <node id="430960971" version="2" timestamp="2009-07-14T16:17:34Z" uid="36809" user="pfoten_weg_!_" changeset="1828190" lat="48.0721141" lon="11.532914">
    <tag k="addr:city" v="Pullach im Isartal"/>
    <tag k="addr:country" v="DE"/>
    <tag k="addr:housename" v="Wohngebäude"/>
    <tag k="addr:housenumber" v="2"/>
    <tag k="addr:postcode" v="82049"/>
    <tag k="addr:street" v="Fritz-Gerlich-Straße"/>
    <tag k="discovered_by" v="RambaZamba"/>
    <tag k="name" v="2"/>
    <tag k="source" v="survey"/>
  </node>
  <node id="430960971" version="4" timestamp="2009-08-17T18:09:09Z" uid="36809" user="pfoten_weg_!_" changeset="2180201" lat="48.0721141" lon="11.532914">
    <tag k="addr:city" v="Pullach im Isartal"/>
    <tag k="addr:country" v="DE"/>
    <tag k="addr:housename" v="Wohngebäude"/>
    <tag k="addr:housenumber" v="2"/>
    <tag k="addr:postcode" v="82049"/>
    <tag k="addr:street" v="Fritz-Gerlich-Straße"/>
    <tag k="name" v="2"/>
    <tag k="source" v="survey"/>
  </node>
  <node id="430960977" version="1" timestamp="2009-06-29T21:31:01Z" uid="36809" user="pfoten_weg_!_" changeset="1682854" lat="48.0727001" lon="11.534067">
    <tag k="addr:city" v="Pullach im Isartal"/>
    <tag k="addr:country" v="DE"/>
    <tag k="addr:housename" v="Wohngebäude"/>
    <tag k="addr:housenumber" v="10"/>
    <tag k="addr:postcode" v="82049"/>
    <tag k="addr:street" v="Fritz-Gerlich-Straße"/>
    <tag k="created_by" v="RambaZamba"/>
    <tag k="name" v="10"/>
    <tag k="source" v="survey"/>
  </node>
  <node id="430960977" version="2" timestamp="2009-07-14T16:17:32Z" uid="36809" user="pfoten_weg_!_" changeset="1828190" lat="48.0727001" lon="11.534067">
    <tag k="addr:city" v="Pullach im Isartal"/>
    <tag k="addr:country" v="DE"/>
    <tag k="addr:housename" v="Wohngebäude"/>
    <tag k="addr:housenumber" v="10"/>
    <tag k="addr:postcode" v="82049"/>
    <tag k="addr:street" v="Fritz-Gerlich-Straße"/>
    <tag k="discovered_by" v="RambaZamba"/>
    <tag k="name" v="10"/>
    <tag k="source" v="survey"/>
  </node>
  <node id="430960977" version="4" timestamp="2009-08-17T18:09:15Z" uid="36809" user="pfoten_weg_!_" changeset="2180201" lat="48.0727001" lon="11.534067">
    <tag k="addr:city" v="Pullach im Isartal"/>
    <tag k="addr:country" v="DE"/>
    <tag k="addr:housename" v="Wohngebäude"/>
    <tag k="addr:housenumber" v="10"/>
    <tag k="addr:postcode" v="82049"/>
    <tag k="addr:street" v="Fritz-Gerlich-Straße"/>
    <tag k="name" v="10"/>
    <tag k="source" v="survey"/>
  </node>
  <node id="430960984" version="1" timestamp="2009-06-29T21:31:02Z" uid="36809" user="pfoten_weg_!_" changeset="1682854" lat="48.0720211" lon="11.532032">
    <tag k="addr:city" v="Pullach im Isartal"/>
    <tag k="addr:country" v="DE"/>
    <tag k="addr:housename" v="Wohngebäude"/>
    <tag k="addr:housenumber" v="1"/>
    <tag k="addr:postcode" v="82049"/>
    <tag k="addr:street" v="Hilariastraße"/>
    <tag k="created_by" v="RambaZamba"/>
    <tag k="name" v="1"/>
    <tag k="source" v="survey"/>
  </node>
  <node id="430960984" version="2" timestamp="2009-07-14T16:17:33Z" uid="36809" user="pfoten_weg_!_" changeset="1828190" lat="48.0720211" lon="11.532032">
    <tag k="addr:city" v="Pullach im Isartal"/>
    <tag k="addr:country" v="DE"/>
    <tag k="addr:housename" v="Wohngebäude"/>
    <tag k="addr:housenumber" v="1"/>
    <tag k="addr:postcode" v="82049"/>
    <tag k="addr:street" v="Hilariastraße"/>
    <tag k="discovered_by" v="RambaZamba"/>
    <tag k="name" v="1"/>
    <tag k="source" v="survey"/>
  </node>
  <node id="430960984" version="4" timestamp="2009-08-17T18:09:13Z" uid="36809" user="pfoten_weg_!_" changeset="2180201" lat="48.0720211" lon="11.532032">
    <tag k="addr:city" v="Pullach im Isartal"/>
    <tag k="addr:country" v="DE"/>
    <tag k="addr:housename" v="Wohngebäude"/>
    <tag k="addr:housenumber" v="1"/>
    <tag k="addr:postcode" v="82049"/>
    <tag k="addr:street" v="Hilariastraße"/>
    <tag k="name" v="1"/>
    <tag k="source" v="survey"/>
  </node>
  <node id="430960985" version="1" timestamp="2009-06-29T21:31:02Z" uid="36809" user="pfoten_weg_!_" changeset="1682854" lat="48.0721861" lon="11.533085">
    <tag k="addr:city" v="Pullach im Isartal"/>
    <tag k="addr:country" v="DE"/>
    <tag k="addr:housename" v="Wohngebäude"/>
    <tag k="addr:housenumber" v="4"/>
    <tag k="addr:postcode" v="82049"/>
    <tag k="addr:street" v="Fritz-Gerlich-Straße"/>
    <tag k="created_by" v="RambaZamba"/>
    <tag k="name" v="4"/>
    <tag k="source" v="survey"/>
  </node>
  <node id="430960985" version="2" timestamp="2009-07-14T16:17:33Z" uid="36809" user="pfoten_weg_!_" changeset="1828190" lat="48.0721861" lon="11.533085">
    <tag k="addr:city" v="Pullach im Isartal"/>
    <tag k="addr:country" v="DE"/>
    <tag k="addr:housename" v="Wohngebäude"/>
    <tag k="addr:housenumber" v="4"/>
    <tag k="addr:postcode" v="82049"/>
    <tag k="addr:street" v="Fritz-Gerlich-Straße"/>
    <tag k="discovered_by" v="RambaZamba"/>
    <tag k="name" v="4"/>
    <tag k="source" v="survey"/>
  </node>
  <node id="430960985" version="4" timestamp="2009-08-17T18:09:13Z" uid="36809" user="pfoten_weg_!_" changeset="2180201" lat="48.0721861" lon="11.533085">
    <tag k="addr:city" v="Pullach im Isartal"/>
    <tag k="addr:country" v="DE"/>
    <tag k="addr:housename" v="Wohngebäude"/>
    <tag k="addr:housenumber" v="4"/>
    <tag k="addr:postcode" v="82049"/>
    <tag k="addr:street" v="Fritz-Gerlich-Straße"/>
    <tag k="name" v="4"/>
    <tag k="source" v="survey"/>
  </node>
  <node id="430960986" version="1" timestamp="2009-06-29T21:31:02Z" uid="36809" user="pfoten_weg_!_" changeset="1682854" lat="48.0733581" lon="11.534351">
    <tag k="addr:city" v="Pullach im Isartal"/>
    <tag k="addr:country" v="DE"/>
    <tag k="addr:housename" v="Wohngebäude"/>
    <tag k="addr:housenumber" v="11"/>
    <tag k="addr:postcode" v="82049"/>
    <tag k="addr:street" v="Fritz-Gerlich-Straße"/>
    <tag k="created_by" v="RambaZamba"/>
    <tag k="name" v="11"/>
    <tag k="source" v="survey"/>
  </node>
  <node id="430960986" version="2" timestamp="2009-07-14T16:17:33Z" uid="36809" user="pfoten_weg_!_" changeset="1828190" lat="48.0733581" lon="11.534351">
    <tag k="addr:city" v="Pullach im Isartal"/>
    <tag k="addr:country" v="DE"/>
    <tag k="addr:housename" v="Wohngebäude"/>
    <tag k="addr:housenumber" v="11"/>
    <tag k="addr:postcode" v="82049"/>
    <tag k="addr:street" v="Fritz-Gerlich-Straße"/>
    <tag k="discovered_by" v="RambaZamba"/>
    <tag k="name" v="11"/>
    <tag k="source" v="survey"/>
  </node>
  <node id="430960986" version="4" timestamp="2009-08-17T18:09:14Z" uid="36809" user="pfoten_weg_!_" changeset="2180201" lat="48.0733581" lon="11.534351">
    <tag k="addr:city" v="Pullach im Isartal"/>
    <tag k="addr:country" v="DE"/>
    <tag k="addr:housename" v="Wohngebäude"/>
    <tag k="addr:housenumber" v="11"/>
    <tag k="addr:postcode" v="82049"/>
    <tag k="addr:street" v="Fritz-Gerlich-Straße"/>
    <tag k="name" v="11"/>
    <tag k="source" v="survey"/>
  </node>
  <node id="430960987" version="1" timestamp="2009-06-29T21:31:03Z" uid="36809" user="pfoten_weg_!_" changeset="1682854" lat="48.0729961" lon="11.534491">
    <tag k="addr:city" v="Pullach im Isartal"/>
    <tag k="addr:country" v="DE"/>
    <tag k="addr:housename" v="Wohngebäude"/>
    <tag k="addr:housenumber" v="14"/>
    <tag k="addr:postcode" v="82049"/>
    <tag k="addr:street" v="Fritz-Gerlich-Straße"/>
    <tag k="created_by" v="RambaZamba"/>
    <tag k="name" v="14"/>
    <tag k="source" v="survey"/>
  </node>
  <node id="430960987" version="2" timestamp="2009-07-14T16:17:33Z" uid="36809" user="pfoten_weg_!_" changeset="1828190" lat="48.0729961" lon="11.534491">
    <tag k="addr:city" v="Pullach im Isartal"/>
    <tag k="addr:country" v="DE"/>
    <tag k="addr:housename" v="Wohngebäude"/>
    <tag k="addr:housenumber" v="14"/>
    <tag k="addr:postcode" v="82049"/>
    <tag k="addr:street" v="Fritz-Gerlich-Straße"/>
    <tag k="discovered_by" v="RambaZamba"/>
    <tag k="name" v="14"/>
    <tag k="source" v="survey"/>
  </node>
  <node id="430960987" version="4" timestamp="2009-08-17T18:09:14Z" uid="36809" user="pfoten_weg_!_" changeset="2180201" lat="48.0729961" lon="11.534491">
    <tag k="addr:city" v="Pullach im Isartal"/>
    <tag k="addr:country" v="DE"/>
    <tag k="addr:housename" v="Wohngebäude"/>
    <tag k="addr:housenumber" v="14"/>
    <tag k="addr:postcode" v="82049"/>
    <tag k="addr:street" v="Fritz-Gerlich-Straße"/>
    <tag k="name" v="14"/>
    <tag k="source" v="survey"/>
  </node>
  <node id="430960988" version="1" timestamp="2009-06-29T21:31:03Z" uid="36809" user="pfoten_weg_!_" changeset="1682854" lat="48.0723011" lon="11.533847">
    <tag k="addr:city" v="Pullach im Isartal"/>
    <tag k="addr:country" v="DE"/>
    <tag k="addr:housename" v="Wohngebäude"/>
    <tag k="addr:housenumber" v="3"/>
    <tag k="addr:postcode" v="82049"/>
    <tag k="addr:street" v="Marienstraße"/>
    <tag k="created_by" v="RambaZamba"/>
    <tag k="name" v="3"/>
    <tag k="source" v="survey"/>
  </node>
  <node id="430960988" version="2" timestamp="2009-07-14T16:17:34Z" uid="36809" user="pfoten_weg_!_" changeset="1828190" lat="48.0723011" lon="11.533847">
    <tag k="addr:city" v="Pullach im Isartal"/>
    <tag k="addr:country" v="DE"/>
    <tag k="addr:housename" v="Wohngebäude"/>
    <tag k="addr:housenumber" v="3"/>
    <tag k="addr:postcode" v="82049"/>
    <tag k="addr:street" v="Marienstraße"/>
    <tag k="discovered_by" v="RambaZamba"/>
    <tag k="name" v="3"/>
    <tag k="source" v="survey"/>
  </node>
  <node id="430960988" version="4" timestamp="2009-08-17T18:09:11Z" uid="36809" user="pfoten_weg_!_" changeset="2180201" lat="48.0723011" lon="11.533847">
    <tag k="addr:city" v="Pullach im Isartal"/>
    <tag k="addr:country" v="DE"/>
    <tag k="addr:housename" v="Wohngebäude"/>
    <tag k="addr:housenumber" v="3"/>
    <tag k="addr:postcode" v="82049"/>
    <tag k="addr:street" v="Marienstraße"/>
    <tag k="name" v="3"/>
    <tag k="source" v="survey"/>
  </node>
  <node id="430960989" version="1" timestamp="2009-06-29T21:31:03Z" uid="36809" user="pfoten_weg_!_" changeset="1682854" lat="48.0731531" lon="11.534022">
    <tag k="addr:city" v="Pullach im Isartal"/>
    <tag k="addr:country" v="DE"/>
    <tag k="addr:housename" v="Wohngebäude"/>
    <tag k="addr:housenumber" v="7"/>
    <tag k="addr:postcode" v="82049"/>
    <tag k="addr:street" v="Fritz-Gerlich-Straße"/>
    <tag k="created_by" v="RambaZamba"/>
    <tag k="name" v="7"/>
    <tag k="source" v="survey"/>
  </node>
  <node id="430960989" version="2" timestamp="2009-07-14T16:17:34Z" uid="36809" user="pfoten_weg_!_" changeset="1828190" lat="48.0731531" lon="11.534022">
    <tag k="addr:city" v="Pullach im Isartal"/>
    <tag k="addr:country" v="DE"/>
    <tag k="addr:housename" v="Wohngebäude"/>
    <tag k="addr:housenumber" v="7"/>
    <tag k="addr:postcode" v="82049"/>
    <tag k="addr:street" v="Fritz-Gerlich-Straße"/>
    <tag k="discovered_by" v="RambaZamba"/>
    <tag k="name" v="7"/>
    <tag k="source" v="survey"/>
  </node>
  <node id="430960989" version="4" timestamp="2009-08-17T18:09:11Z" uid="36809" user="pfoten_weg_!_" changeset="2180201" lat="48.0731531" lon="11.534022">
    <tag k="addr:city" v="Pullach im Isartal"/>
    <tag k="addr:country" v="DE"/>
    <tag k="addr:housename" v="Wohngebäude"/>
    <tag k="addr:housenumber" v="7"/>
    <tag k="addr:postcode" v="82049"/>
    <tag k="addr:street" v="Fritz-Gerlich-Straße"/>
    <tag k="name" v="7"/>
    <tag k="source" v="survey"/>
  </node>
  <node id="430960990" version="1" timestamp="2009-06-29T21:31:04Z" uid="36809" user="pfoten_weg_!_" changeset="1682854" lat="48.0723221" lon="11.533354">
    <tag k="addr:city" v="Pullach im Isartal"/>
    <tag k="addr:country" v="DE"/>
    <tag k="addr:housename" v="Wohngebäude"/>
    <tag k="addr:housenumber" v="6"/>
    <tag k="addr:postcode" v="82049"/>
    <tag k="addr:street" v="Fritz-Gerlich-Straße"/>
    <tag k="created_by" v="RambaZamba"/>
    <tag k="name" v="6"/>
    <tag k="source" v="survey"/>
  </node>
  <node id="430960990" version="2" timestamp="2009-07-14T16:17:34Z" uid="36809" user="pfoten_weg_!_" changeset="1828190" lat="48.0723221" lon="11.533354">
    <tag k="addr:city" v="Pullach im Isartal"/>
    <tag k="addr:country" v="DE"/>
    <tag k="addr:housename" v="Wohngebäude"/>
    <tag k="addr:housenumber" v="6"/>
    <tag k="addr:postcode" v="82049"/>
    <tag k="addr:street" v="Fritz-Gerlich-Straße"/>
    <tag k="discovered_by" v="RambaZamba"/>
    <tag k="name" v="6"/>
    <tag k="source" v="survey"/>
  </node>
  <node id="430960990" version="4" timestamp="2009-08-17T18:09:12Z" uid="36809" user="pfoten_weg_!_" changeset="2180201" lat="48.0723221" lon="11.533354">
    <tag k="addr:city" v="Pullach im Isartal"/>
    <tag k="addr:country" v="DE"/>
    <tag k="addr:housename" v="Wohngebäude"/>
    <tag k="addr:housenumber" v="6"/>
    <tag k="addr:postcode" v="82049"/>
    <tag k="addr:street" v="Fritz-Gerlich-Straße"/>
    <tag k="name" v="6"/>
    <tag k="source" v="survey"/>
  </node>
  <node id="430960991" version="1" timestamp="2009-06-29T21:31:04Z" uid="36809" user="pfoten_weg_!_" changeset="1682854" lat="48.0732241" lon="11.534303">
    <tag k="addr:city" v="Pullach im Isartal"/>
    <tag k="addr:country" v="DE"/>
    <tag k="addr:housename" v="Wohngebäude"/>
    <tag k="addr:housenumber" v="9"/>
    <tag k="addr:postcode" v="82049"/>
    <tag k="addr:street" v="Fritz-Gerlich-Straße"/>
    <tag k="created_by" v="RambaZamba"/>
    <tag k="name" v="9"/>
    <tag k="source" v="survey"/>
  </node>
  <node id="430960991" version="2" timestamp="2009-07-14T16:17:34Z" uid="36809" user="pfoten_weg_!_" changeset="1828190" lat="48.0732241" lon="11.534303">
    <tag k="addr:city" v="Pullach im Isartal"/>
    <tag k="addr:country" v="DE"/>
    <tag k="addr:housename" v="Wohngebäude"/>
    <tag k="addr:housenumber" v="9"/>
    <tag k="addr:postcode" v="82049"/>
    <tag k="addr:street" v="Fritz-Gerlich-Straße"/>
    <tag k="discovered_by" v="RambaZamba"/>
    <tag k="name" v="9"/>
    <tag k="source" v="survey"/>
  </node>
  <node id="430960991" version="4" timestamp="2009-08-17T18:09:12Z" uid="36809" user="pfoten_weg_!_" changeset="2180201" lat="48.0732241" lon="11.534303">
    <tag k="addr:city" v="Pullach im Isartal"/>
    <tag k="addr:country" v="DE"/>
    <tag k="addr:housename" v="Wohngebäude"/>
    <tag k="addr:housenumber" v="9"/>
    <tag k="addr:postcode" v="82049"/>
    <tag k="addr:street" v="Fritz-Gerlich-Straße"/>
    <tag k="name" v="9"/>
    <tag k="source" v="survey"/>
  </node>
  <node id="430960992" version="1" timestamp="2009-06-29T21:31:05Z" uid="36809" user="pfoten_weg_!_" changeset="1682854" lat="48.0724731" lon="11.533598">
    <tag k="addr:city" v="Pullach im Isartal"/>
    <tag k="addr:country" v="DE"/>
    <tag k="addr:housename" v="Wohngebäude"/>
    <tag k="addr:housenumber" v="8"/>
    <tag k="addr:postcode" v="82049"/>
    <tag k="addr:street" v="Fritz-Gerlich-Straße"/>
    <tag k="created_by" v="RambaZamba"/>
    <tag k="name" v="8"/>
    <tag k="source" v="survey"/>
  </node>
  <node id="430960992" version="2" timestamp="2009-07-14T16:17:36Z" uid="36809" user="pfoten_weg_!_" changeset="1828190" lat="48.0724731" lon="11.533598">
    <tag k="addr:city" v="Pullach im Isartal"/>
    <tag k="addr:country" v="DE"/>
    <tag k="addr:housename" v="Wohngebäude"/>
    <tag k="addr:housenumber" v="8"/>
    <tag k="addr:postcode" v="82049"/>
    <tag k="addr:street" v="Fritz-Gerlich-Straße"/>
    <tag k="discovered_by" v="RambaZamba"/>
    <tag k="name" v="8"/>
    <tag k="source" v="survey"/>
  </node>
  <node id="430960992" version="4" timestamp="2009-08-17T18:09:02Z" uid="36809" user="pfoten_weg_!_" changeset="2180201" lat="48.0724731" lon="11.533598">
    <tag k="addr:city" v="Pullach im Isartal"/>
    <tag k="addr:country" v="DE"/>
    <tag k="addr:housename" v="Wohngebäude"/>
    <tag k="addr:housenumber" v="8"/>
    <tag k="addr:postcode" v="82049"/>
    <tag k="addr:street" v="Fritz-Gerlich-Straße"/>
    <tag k="name" v="8"/>
    <tag k="source" v="survey"/>
  </node>
  <node id="430960993" version="1" timestamp="2009-06-29T21:31:05Z" uid="36809" user="pfoten_weg_!_" changeset="1682854" lat="48.0724371" lon="11.532824">
    <tag k="addr:city" v="Pullach im Isartal"/>
    <tag k="addr:country" v="DE"/>
    <tag k="addr:housename" v="Wohngebäude"/>
    <tag k="addr:housenumber" v="1A"/>
    <tag k="addr:postcode" v="82049"/>
    <tag k="addr:street" v="Fritz-Gerlich-Straße"/>
    <tag k="created_by" v="RambaZamba"/>
    <tag k="name" v="1A"/>
    <tag k="source" v="survey"/>
  </node>
  <node id="430960993" version="2" timestamp="2009-07-14T16:17:35Z" uid="36809" user="pfoten_weg_!_" changeset="1828190" lat="48.0724371" lon="11.532824">
    <tag k="addr:city" v="Pullach im Isartal"/>
    <tag k="addr:country" v="DE"/>
    <tag k="addr:housename" v="Wohngebäude"/>
    <tag k="addr:housenumber" v="1A"/>
    <tag k="addr:postcode" v="82049"/>
    <tag k="addr:street" v="Fritz-Gerlich-Straße"/>
    <tag k="discovered_by" v="RambaZamba"/>
    <tag k="name" v="1A"/>
    <tag k="source" v="survey"/>
  </node>
  <node id="430960993" version="4" timestamp="2009-08-17T18:09:02Z" uid="36809" user="pfoten_weg_!_" changeset="2180201" lat="48.0724371" lon="11.532824">
    <tag k="addr:city" v="Pullach im Isartal"/>
    <tag k="addr:country" v="DE"/>
    <tag k="addr:housename" v="Wohngebäude"/>
    <tag k="addr:housenumber" v="1A"/>
    <tag k="addr:postcode" v="82049"/>
    <tag k="addr:street" v="Fritz-Gerlich-Straße"/>
    <tag k="name" v="1A"/>
    <tag k="source" v="survey"/>
  </node>
  <node id="430960994" version="1" timestamp="2009-06-29T21:31:06Z" uid="36809" user="pfoten_weg_!_" changeset="1682854" lat="48.0724411" lon="11.534255">
    <tag k="addr:city" v="Pullach im Isartal"/>
    <tag k="addr:country" v="DE"/>
    <tag k="addr:housename" v="Wohngebäude"/>
    <tag k="addr:housenumber" v="4"/>
    <tag k="addr:postcode" v="82049"/>
    <tag k="addr:street" v="Marienstraße"/>
    <tag k="created_by" v="RambaZamba"/>
    <tag k="name" v="4"/>
    <tag k="source" v="survey"/>
  </node>
  <node id="430960994" version="2" timestamp="2009-07-14T16:17:36Z" uid="36809" user="pfoten_weg_!_" changeset="1828190" lat="48.0724411" lon="11.534255">
    <tag k="addr:city" v="Pullach im Isartal"/>
    <tag k="addr:country" v="DE"/>
    <tag k="addr:housename" v="Wohngebäude"/>
    <tag k="addr:housenumber" v="4"/>
    <tag k="addr:postcode" v="82049"/>
    <tag k="addr:street" v="Marienstraße"/>
    <tag k="discovered_by" v="RambaZamba"/>
    <tag k="name" v="4"/>
    <tag k="source" v="survey"/>
  </node>
  <node id="430960994" version="4" timestamp="2009-08-17T18:09:00Z" uid="36809" user="pfoten_weg_!_" changeset="2180201" lat="48.0724411" lon="11.534255">
    <tag k="addr:city" v="Pullach im Isartal"/>
    <tag k="addr:country" v="DE"/>
    <tag k="addr:housename" v="Wohngebäude"/>
    <tag k="addr:housenumber" v="4"/>
    <tag k="addr:postcode" v="82049"/>
    <tag k="addr:street" v="Marienstraße"/>
    <tag k="name" v="4"/>
    <tag k="source" v="survey"/>
  </node>
  <node id="430960995" version="1" timestamp="2009-06-29T21:31:06Z" uid="36809" user="pfoten_weg_!_" changeset="1682854" lat="48.0726281" lon="11.533058">
    <tag k="addr:city" v="Pullach im Isartal"/>
    <tag k="addr:country" v="DE"/>
    <tag k="addr:housename" v="Wohngebäude"/>
    <tag k="addr:housenumber" v="1"/>
    <tag k="addr:postcode" v="82049"/>
    <tag k="addr:street" v="Fritz-Gerlich-Straße"/>
    <tag k="created_by" v="RambaZamba"/>
    <tag k="name" v="1"/>
    <tag k="source" v="survey"/>
  </node>
  <node id="430960995" version="2" timestamp="2009-07-14T16:17:36Z" uid="36809" user="pfoten_weg_!_" changeset="1828190" lat="48.0726281" lon="11.533058">
    <tag k="addr:city" v="Pullach im Isartal"/>
    <tag k="addr:country" v="DE"/>
    <tag k="addr:housename" v="Wohngebäude"/>
    <tag k="addr:housenumber" v="1"/>
    <tag k="addr:postcode" v="82049"/>
    <tag k="addr:street" v="Fritz-Gerlich-Straße"/>
    <tag k="discovered_by" v="RambaZamba"/>
    <tag k="name" v="1"/>
    <tag k="source" v="survey"/>
  </node>
  <node id="430960995" version="4" timestamp="2009-08-17T18:09:01Z" uid="36809" user="pfoten_weg_!_" changeset="2180201" lat="48.0726281" lon="11.533058">
    <tag k="addr:city" v="Pullach im Isartal"/>
    <tag k="addr:country" v="DE"/>
    <tag k="addr:housename" v="Wohngebäude"/>
    <tag k="addr:housenumber" v="1"/>
    <tag k="addr:postcode" v="82049"/>
    <tag k="addr:street" v="Fritz-Gerlich-Straße"/>
    <tag k="name" v="1"/>
    <tag k="source" v="survey"/>
  </node>
  <node id="430961149" version="3" timestamp="2009-10-30T03:23:09Z" uid="36809" user="pfoten_weg_!_" changeset="2986371" lat="47.6174876" lon="11.7415105"/>
  <node id="430961150" version="3" timestamp="2009-10-30T03:23:20Z" uid="36809" user="pfoten_weg_!_" changeset="2986371" lat="47.6171381" lon="11.7416485"/>
  <node id="430961151" version="3" timestamp="2009-10-30T03:23:20Z" uid="36809" user="pfoten_weg_!_" changeset="2986371" lat="47.6169715" lon="11.7417509"/>
  <node id="430961153" version="3" timestamp="2009-10-30T03:23:08Z" uid="36809" user="pfoten_weg_!_" changeset="2986371" lat="47.6165109" lon="11.7416106"/>
  <node id="430961154" version="3" timestamp="2009-10-30T03:23:09Z" uid="36809" user="pfoten_weg_!_" changeset="2986371" lat="47.6163566" lon="11.7415552"/>
  <node id="430961155" version="3" timestamp="2009-10-30T03:23:04Z" uid="36809" user="pfoten_weg_!_" changeset="2986371" lat="47.6159163" lon="11.7411935"/>
  <node id="430961156" version="3" timestamp="2009-10-30T03:23:04Z" uid="36809" user="pfoten_weg_!_" changeset="2986371" lat="47.6153296" lon="11.7414181"/>
  <node id="430961157" version="3" timestamp="2009-10-30T03:23:15Z" uid="36809" user="pfoten_weg_!_" changeset="2986371" lat="47.6148074" lon="11.7420291"/>
  <node id="430961158" version="3" timestamp="2009-10-30T03:20:08Z" uid="36809" user="pfoten_weg_!_" changeset="2986371" lat="47.6144066" lon="11.7421271"/>
  <node id="430961159" version="3" timestamp="2009-10-30T03:20:07Z" uid="36809" user="pfoten_weg_!_" changeset="2986371" lat="47.6141534" lon="11.7424054"/>
  <node id="430961162" version="3" timestamp="2009-10-19T20:43:02Z" uid="36809" user="pfoten_weg_!_" changeset="2898478" lat="47.6158423" lon="11.7428337"/>
  <node id="430961163" version="3" timestamp="2009-10-19T20:43:01Z" uid="36809" user="pfoten_weg_!_" changeset="2898478" lat="47.6159565" lon="11.742724"/>
  <node id="430961164" version="4" timestamp="2009-10-19T20:43:00Z" uid="36809" user="pfoten_weg_!_" changeset="2898478" lat="47.615963" lon="11.7428148"/>
  <node id="430961165" version="4" timestamp="2009-10-19T20:42:59Z" uid="36809" user="pfoten_weg_!_" changeset="2898478" lat="47.6158358" lon="11.7427428"/>
  <node id="430961166" version="3" timestamp="2009-10-30T03:23:20Z" uid="36809" user="pfoten_weg_!_" changeset="2986371" lat="47.6170043" lon="11.7423074"/>
  <node id="430961167" version="3" timestamp="2009-10-30T03:23:21Z" uid="36809" user="pfoten_weg_!_" changeset="2986371" lat="47.6170186" lon="11.7424127"/>
  <node id="430961173" version="4" timestamp="2009-10-30T03:23:31Z" uid="36809" user="pfoten_weg_!_" changeset="2986371" lat="47.61802" lon="11.7414196"/>
  <node id="430962305" version="1" timestamp="2009-06-29T21:39:09Z" uid="38528" user="acrosscanadatrails" changeset="1682901" lat="48.4175894" lon="-123.3623566">
    <tag k="bicycle" v="yes"/>
    <tag k="highway" v="crossing"/>
    <tag k="horse" v="yes"/>
  </node>
  <node id="430962306" version="1" timestamp="2009-06-29T21:39:09Z" uid="38528" user="acrosscanadatrails" changeset="1682901" lat="48.4176344" lon="-123.3625618"/>
  <node id="430962307" version="1" timestamp="2009-06-29T21:39:09Z" uid="38528" user="acrosscanadatrails" changeset="1682901" lat="48.4176948" lon="-123.3625465"/>
  <node id="430962308" version="1" timestamp="2009-06-29T21:39:09Z" uid="38528" user="acrosscanadatrails" changeset="1682901" lat="48.4177634" lon="-123.3624969"/>
  <node id="430962309" version="1" timestamp="2009-06-29T21:39:09Z" uid="38528" user="acrosscanadatrails" changeset="1682901" lat="48.4178292" lon="-123.3624266"/>
  <node id="430962310" version="1" timestamp="2009-06-29T21:39:09Z" uid="38528" user="acrosscanadatrails" changeset="1682901" lat="48.4178626" lon="-123.362367"/>
  <node id="430962311" version="1" timestamp="2009-06-29T21:39:09Z" uid="38528" user="acrosscanadatrails" changeset="1682901" lat="48.4179398" lon="-123.362283"/>
  <node id="430962312" version="1" timestamp="2009-06-29T21:39:09Z" uid="38528" user="acrosscanadatrails" changeset="1682901" lat="48.417978" lon="-123.3621912"/>
  <node id="430962313" version="1" timestamp="2009-06-29T21:39:09Z" uid="38528" user="acrosscanadatrails" changeset="1682901" lat="48.418089" lon="-123.3620757"/>
  <node id="430962314" version="1" timestamp="2009-06-29T21:39:10Z" uid="38528" user="acrosscanadatrails" changeset="1682901" lat="48.4182333" lon="-123.3619684"/>
  <node id="430962315" version="1" timestamp="2009-06-29T21:39:10Z" uid="38528" user="acrosscanadatrails" changeset="1682901" lat="48.4183956" lon="-123.3618133"/>
  <node id="430962316" version="1" timestamp="2009-06-29T21:39:10Z" uid="38528" user="acrosscanadatrails" changeset="1682901" lat="48.4185976" lon="-123.3616347"/>
  <node id="430962317" version="1" timestamp="2009-06-29T21:39:10Z" uid="38528" user="acrosscanadatrails" changeset="1682901" lat="48.4187519" lon="-123.3615174"/>
  <node id="430962318" version="1" timestamp="2009-06-29T21:39:10Z" uid="38528" user="acrosscanadatrails" changeset="1682901" lat="48.4188114" lon="-123.3614633"/>
  <node id="430962319" version="1" timestamp="2009-06-29T21:39:10Z" uid="38528" user="acrosscanadatrails" changeset="1682901" lat="48.4188679" lon="-123.3614002"/>
  <node id="430962320" version="1" timestamp="2009-06-29T21:39:10Z" uid="38528" user="acrosscanadatrails" changeset="1682901" lat="48.4191616" lon="-123.3618511"/>
  <node id="430962321" version="1" timestamp="2009-06-29T21:39:10Z" uid="38528" user="acrosscanadatrails" changeset="1682901" lat="48.4192148" lon="-123.3619355"/>
  <node id="430962322" version="1" timestamp="2009-06-29T21:39:10Z" uid="38528" user="acrosscanadatrails" changeset="1682901" lat="48.4192976" lon="-123.3620618"/>
  <node id="430962323" version="1" timestamp="2009-06-29T21:39:10Z" uid="38528" user="acrosscanadatrails" changeset="1682901" lat="48.4195425" lon="-123.3624479"/>
  <node id="430962324" version="1" timestamp="2009-06-29T21:39:10Z" uid="38528" user="acrosscanadatrails" changeset="1682901" lat="48.4197803" lon="-123.362821"/>
  <node id="430962325" version="1" timestamp="2009-06-29T21:39:10Z" uid="38528" user="acrosscanadatrails" changeset="1682901" lat="48.4202572" lon="-123.3635437"/>
  <node id="430962326" version="1" timestamp="2009-06-29T21:39:10Z" uid="38528" user="acrosscanadatrails" changeset="1682901" lat="48.4203993" lon="-123.3637477"/>
  <node id="430962327" version="1" timestamp="2009-06-29T21:39:10Z" uid="38528" user="acrosscanadatrails" changeset="1682901" lat="48.4197545" lon="-123.3627806">
    <tag k="barrier" v="gate"/>
    <tag k="bicycle" v="no"/>
    <tag k="foot" v="yes"/>
  </node>
  <node id="430962328" version="1" timestamp="2009-06-29T21:39:10Z" uid="38528" user="acrosscanadatrails" changeset="1682901" lat="48.4205918" lon="-123.3653737">
    <tag k="barrier" v="bollard"/>
    <tag k="foot" v="yes"/>
  </node>
  <node id="430962329" version="1" timestamp="2009-06-29T21:39:10Z" uid="38528" user="acrosscanadatrails" changeset="1682901" lat="48.4204574" lon="-123.3650214"/>
  <node id="430962330" version="1" timestamp="2009-06-29T21:39:10Z" uid="38528" user="acrosscanadatrails" changeset="1682901" lat="48.4204572" lon="-123.36517"/>
  <node id="430962331" version="1" timestamp="2009-06-29T21:39:10Z" uid="38528" user="acrosscanadatrails" changeset="1682901" lat="48.4205346" lon="-123.365357"/>
  <node id="430962332" version="1" timestamp="2009-06-29T21:39:10Z" uid="38528" user="acrosscanadatrails" changeset="1682901" lat="48.4206269" lon="-123.3653778"/>
  <node id="430962333" version="1" timestamp="2009-06-29T21:39:10Z" uid="38528" user="acrosscanadatrails" changeset="1682901" lat="48.4208659" lon="-123.3653653"/>
  <node id="430962334" version="1" timestamp="2009-06-29T21:39:10Z" uid="38528" user="acrosscanadatrails" changeset="1682901" lat="48.4209955" lon="-123.3654149"/>
  <node id="430962335" version="1" timestamp="2009-06-29T21:39:10Z" uid="38528" user="acrosscanadatrails" changeset="1682901" lat="48.4211184" lon="-123.3655266"/>
  <node id="430962336" version="1" timestamp="2009-06-29T21:39:10Z" uid="38528" user="acrosscanadatrails" changeset="1682901" lat="48.421203" lon="-123.3656742"/>
  <node id="430962337" version="1" timestamp="2009-06-29T21:39:10Z" uid="38528" user="acrosscanadatrails" changeset="1682901" lat="48.4213225" lon="-123.3658242"/>
  <node id="430962338" version="1" timestamp="2009-06-29T21:39:10Z" uid="38528" user="acrosscanadatrails" changeset="1682901" lat="48.4213698" lon="-123.3658343"/>
  <node id="430962339" version="1" timestamp="2009-06-29T21:39:10Z" uid="38528" user="acrosscanadatrails" changeset="1682901" lat="48.4213563" lon="-123.3657295"/>
  <node id="430962340" version="1" timestamp="2009-06-29T21:39:10Z" uid="38528" user="acrosscanadatrails" changeset="1682901" lat="48.4217948" lon="-123.3659234">
    <tag k="amenity" v="car_rental"/>
    <tag k="name" v="National"/>
    <tag k="operator" v="National Car Rental"/>
  </node>
  <node id="430962341" version="1" timestamp="2009-06-29T21:39:10Z" uid="38528" user="acrosscanadatrails" changeset="1682901" lat="48.4213896" lon="-123.3660426">
    <tag k="amenity" v="car_rental"/>
    <tag k="name" v="Budget"/>
    <tag k="operator" v="Budget Car Rental"/>
  </node>
  <node id="430962342" version="1" timestamp="2009-06-29T21:39:10Z" uid="38528" user="acrosscanadatrails" changeset="1682901" lat="48.42198" lon="-123.3658693"/>
  <node id="430962343" version="1" timestamp="2009-06-29T21:39:10Z" uid="38528" user="acrosscanadatrails" changeset="1682901" lat="48.4218081" lon="-123.3656762"/>
  <node id="430962344" version="1" timestamp="2009-06-29T21:39:11Z" uid="38528" user="acrosscanadatrails" changeset="1682901" lat="48.4216629" lon="-123.365524"/>
  <node id="430962345" version="1" timestamp="2009-06-29T21:39:11Z" uid="38528" user="acrosscanadatrails" changeset="1682901" lat="48.4214741" lon="-123.3653253"/>
  <node id="430964375" version="1" timestamp="2009-06-29T21:49:26Z" uid="38528" user="acrosscanadatrails" changeset="1682956" lat="48.4592745" lon="-123.4062516"/>
  <node id="430964376" version="1" timestamp="2009-06-29T21:49:27Z" uid="38528" user="acrosscanadatrails" changeset="1682956" lat="48.4592745" lon="-123.4062516"/>
  <node id="430964377" version="1" timestamp="2009-06-29T21:49:27Z" uid="38528" user="acrosscanadatrails" changeset="1682956" lat="48.4607418" lon="-123.4098342"/>
  <node id="430964378" version="1" timestamp="2009-06-29T21:49:27Z" uid="38528" user="acrosscanadatrails" changeset="1682956" lat="48.4586022" lon="-123.4083678"/>
  <node id="430964379" version="1" timestamp="2009-06-29T21:49:27Z" uid="38528" user="acrosscanadatrails" changeset="1682956" lat="48.4591826" lon="-123.4077986"/>
  <node id="430964380" version="1" timestamp="2009-06-29T21:49:27Z" uid="38528" user="acrosscanadatrails" changeset="1682956" lat="48.4590868" lon="-123.4058771"/>
  <node id="430964381" version="1" timestamp="2009-06-29T21:49:27Z" uid="38528" user="acrosscanadatrails" changeset="1682956" lat="48.4597646" lon="-123.4072279"/>
  <node id="430964382" version="1" timestamp="2009-06-29T21:49:27Z" uid="38528" user="acrosscanadatrails" changeset="1682956" lat="48.4617086" lon="-123.4117553"/>
  <node id="430964383" version="1" timestamp="2009-06-29T21:49:27Z" uid="38528" user="acrosscanadatrails" changeset="1682956" lat="48.4595837" lon="-123.4068677"/>
  <node id="430964384" version="1" timestamp="2009-06-29T21:49:27Z" uid="38528" user="acrosscanadatrails" changeset="1682956" lat="48.4602571" lon="-123.4084528"/>
  <node id="430964385" version="1" timestamp="2009-06-29T21:49:27Z" uid="38528" user="acrosscanadatrails" changeset="1682956" lat="48.4601006" lon="-123.4079521"/>
  <node id="430964386" version="1" timestamp="2009-06-29T21:49:27Z" uid="38528" user="acrosscanadatrails" changeset="1682956" lat="48.4616081" lon="-123.4115556"/>
  <node id="430964387" version="1" timestamp="2009-06-29T21:49:27Z" uid="38528" user="acrosscanadatrails" changeset="1682956" lat="48.4597646" lon="-123.4072279"/>
  <node id="430964388" version="1" timestamp="2009-06-29T21:49:27Z" uid="38528" user="acrosscanadatrails" changeset="1682956" lat="48.4605184" lon="-123.4092888"/>
  <node id="430964389" version="1" timestamp="2009-06-29T21:49:27Z" uid="38528" user="acrosscanadatrails" changeset="1682956" lat="48.4613388" lon="-123.4110205"/>
  <node id="430964390" version="1" timestamp="2009-06-29T21:49:27Z" uid="38528" user="acrosscanadatrails" changeset="1682956" lat="48.4597646" lon="-123.4072279"/>
  <node id="430964391" version="1" timestamp="2009-06-29T21:49:27Z" uid="38528" user="acrosscanadatrails" changeset="1682956" lat="48.4600173" lon="-123.4074911"/>
  <node id="430964392" version="1" timestamp="2009-06-29T21:49:27Z" uid="38528" user="acrosscanadatrails" changeset="1682956" lat="48.4599906" lon="-123.4075142"/>
  <node id="430964393" version="1" timestamp="2009-06-29T21:49:27Z" uid="38528" user="acrosscanadatrails" changeset="1682956" lat="48.4599921" lon="-123.4076166"/>
  <node id="430964394" version="1" timestamp="2009-06-29T21:49:27Z" uid="38528" user="acrosscanadatrails" changeset="1682956" lat="48.4599841" lon="-123.407701"/>
  <node id="430966116" version="1" timestamp="2009-06-29T22:00:25Z" uid="38528" user="acrosscanadatrails" changeset="1683007" lat="48.4607143" lon="-123.4077078"/>
  <node id="430966117" version="1" timestamp="2009-06-29T22:00:25Z" uid="38528" user="acrosscanadatrails" changeset="1683007" lat="48.4606597" lon="-123.4076021"/>
  <node id="430966118" version="1" timestamp="2009-06-29T22:00:25Z" uid="38528" user="acrosscanadatrails" changeset="1683007" lat="48.460606" lon="-123.4075196"/>
  <node id="430966120" version="1" timestamp="2009-06-29T22:00:25Z" uid="38528" user="acrosscanadatrails" changeset="1683007" lat="48.4605591" lon="-123.407332"/>
  <node id="430966122" version="1" timestamp="2009-06-29T22:00:25Z" uid="38528" user="acrosscanadatrails" changeset="1683007" lat="48.4605433" lon="-123.4072331"/>
  <node id="430966123" version="1" timestamp="2009-06-29T22:00:25Z" uid="38528" user="acrosscanadatrails" changeset="1683007" lat="48.4605122" lon="-123.407104"/>
  <node id="430966124" version="1" timestamp="2009-06-29T22:00:25Z" uid="38528" user="acrosscanadatrails" changeset="1683007" lat="48.4604877" lon="-123.4070535"/>
  <node id="430966127" version="1" timestamp="2009-06-29T22:00:25Z" uid="38528" user="acrosscanadatrails" changeset="1683007" lat="48.4604467" lon="-123.4070503"/>
  <node id="430966128" version="1" timestamp="2009-06-29T22:00:25Z" uid="38528" user="acrosscanadatrails" changeset="1683007" lat="48.4609785" lon="-123.4080986"/>
  <node id="430966129" version="1" timestamp="2009-06-29T22:00:25Z" uid="38528" user="acrosscanadatrails" changeset="1683007" lat="48.46091" lon="-123.4079552"/>
  <node id="430966130" version="1" timestamp="2009-06-29T22:00:25Z" uid="38528" user="acrosscanadatrails" changeset="1683007" lat="48.4608784" lon="-123.4079056"/>
  <node id="430966131" version="1" timestamp="2009-06-29T22:00:25Z" uid="38528" user="acrosscanadatrails" changeset="1683007" lat="48.4608189" lon="-123.4078154"/>
  <node id="430966132" version="1" timestamp="2009-06-29T22:00:25Z" uid="38528" user="acrosscanadatrails" changeset="1683007" lat="48.4606791" lon="-123.4076891"/>
  <node id="430966134" version="1" timestamp="2009-06-29T22:00:25Z" uid="38528" user="acrosscanadatrails" changeset="1683007" lat="48.4602011" lon="-123.4079101"/>
  <node id="430966135" version="1" timestamp="2009-06-29T22:00:25Z" uid="38528" user="acrosscanadatrails" changeset="1683007" lat="48.4604879" lon="-123.4077937"/>
  <node id="430966136" version="1" timestamp="2009-06-29T22:00:25Z" uid="38528" user="acrosscanadatrails" changeset="1683007" lat="48.4600261" lon="-123.4075078"/>
  <node id="430966137" version="1" timestamp="2009-06-29T22:00:25Z" uid="38528" user="acrosscanadatrails" changeset="1683007" lat="48.460092" lon="-123.4076549"/>
  <node id="430966138" version="1" timestamp="2009-06-29T22:00:25Z" uid="38528" user="acrosscanadatrails" changeset="1683007" lat="48.4601362" lon="-123.4077541"/>
  <node id="430966140" version="1" timestamp="2009-06-29T22:00:26Z" uid="38528" user="acrosscanadatrails" changeset="1683007" lat="48.4601668" lon="-123.4078343"/>
  <node id="430966141" version="1" timestamp="2009-06-29T22:00:26Z" uid="38528" user="acrosscanadatrails" changeset="1683007" lat="48.4598184" lon="-123.4062247"/>
  <node id="430966142" version="1" timestamp="2009-06-29T22:00:26Z" uid="38528" user="acrosscanadatrails" changeset="1683007" lat="48.4598075" lon="-123.4062968"/>
  <node id="430966143" version="1" timestamp="2009-06-29T22:00:26Z" uid="38528" user="acrosscanadatrails" changeset="1683007" lat="48.4598229" lon="-123.4064303"/>
  <node id="430966144" version="1" timestamp="2009-06-29T22:00:26Z" uid="38528" user="acrosscanadatrails" changeset="1683007" lat="48.4598562" lon="-123.4066134"/>
  <node id="430966145" version="1" timestamp="2009-06-29T22:00:26Z" uid="38528" user="acrosscanadatrails" changeset="1683007" lat="48.4598923" lon="-123.4068199"/>
  <node id="430966146" version="1" timestamp="2009-06-29T22:00:26Z" uid="38528" user="acrosscanadatrails" changeset="1683007" lat="48.4599266" lon="-123.4070869"/>
  <node id="430966147" version="1" timestamp="2009-06-29T22:00:26Z" uid="38528" user="acrosscanadatrails" changeset="1683007" lat="48.4599591" lon="-123.4073466"/>
  <node id="430966148" version="1" timestamp="2009-06-29T22:00:26Z" uid="38528" user="acrosscanadatrails" changeset="1683007" lat="48.4599744" lon="-123.4073981"/>
  <node id="430966150" version="1" timestamp="2009-06-29T22:00:26Z" uid="38528" user="acrosscanadatrails" changeset="1683007" lat="48.4596592" lon="-123.4053814">
    <tag k="highway" v="speed_camera"/>
  </node>
  <node id="430966151" version="1" timestamp="2009-06-29T22:00:26Z" uid="38528" user="acrosscanadatrails" changeset="1683007" lat="48.4596763" lon="-123.4054572"/>
  <node id="430966152" version="1" timestamp="2009-06-29T22:00:26Z" uid="38528" user="acrosscanadatrails" changeset="1683007" lat="48.459752" lon="-123.4057884"/>
  <node id="430966153" version="1" timestamp="2009-06-29T22:00:26Z" uid="38528" user="acrosscanadatrails" changeset="1683007" lat="48.4598102" lon="-123.4060579"/>
  <node id="430966155" version="1" timestamp="2009-06-29T22:00:26Z" uid="38528" user="acrosscanadatrails" changeset="1683007" lat="48.4598295" lon="-123.4061988"/>
  <node id="430966322" version="1" timestamp="2009-06-29T22:02:06Z" uid="49111" user="Markus B" changeset="1683018" lat="-25.9770671" lon="32.5700115"/>
  <node id="430966325" version="1" timestamp="2009-06-29T22:02:06Z" uid="49111" user="Markus B" changeset="1683018" lat="-25.9770913" lon="32.5698695"/>
  <node id="430966327" version="1" timestamp="2009-06-29T22:02:06Z" uid="49111" user="Markus B" changeset="1683018" lat="-25.9771844" lon="32.569858"/>
  <node id="430966333" version="1" timestamp="2009-06-29T22:02:06Z" uid="49111" user="Markus B" changeset="1683018" lat="-25.9771464" lon="32.5700307"/>
  <node id="430966335" version="1" timestamp="2009-06-29T22:02:06Z" uid="49111" user="Markus B" changeset="1683018" lat="-25.9771499" lon="32.5702531"/>
  <node id="430966337" version="1" timestamp="2009-06-29T22:02:06Z" uid="49111" user="Markus B" changeset="1683018" lat="-25.9760084" lon="32.5717454"/>
  <node id="430966339" version="1" timestamp="2009-06-29T22:02:06Z" uid="49111" user="Markus B" changeset="1683018" lat="-25.976154" lon="32.5718152"/>
  <node id="430966341" version="1" timestamp="2009-06-29T22:02:06Z" uid="49111" user="Markus B" changeset="1683018" lat="-25.9764909" lon="32.5709657"/>
  <node id="430966341" version="2" timestamp="2009-06-30T07:44:36Z" uid="49111" user="Markus B" changeset="1685224" lat="-25.97653" lon="32.5709512"/>
  <node id="430966343" version="1" timestamp="2009-06-29T22:02:06Z" uid="49111" user="Markus B" changeset="1683018" lat="-25.9766774" lon="32.5712927"/>
  <node id="430966345" version="1" timestamp="2009-06-29T22:02:06Z" uid="49111" user="Markus B" changeset="1683018" lat="-25.9769243" lon="32.5711798"/>
  <node id="430966347" version="1" timestamp="2009-06-29T22:02:06Z" uid="49111" user="Markus B" changeset="1683018" lat="-25.9770943" lon="32.5710644"/>
  <node id="430966349" version="1" timestamp="2009-06-29T22:02:07Z" uid="49111" user="Markus B" changeset="1683018" lat="-25.9770409" lon="32.5714809"/>
  <node id="430966350" version="1" timestamp="2009-06-29T22:02:07Z" uid="49111" user="Markus B" changeset="1683018" lat="-25.9772109" lon="32.5713974"/>
  <node id="430966352" version="1" timestamp="2009-06-29T22:02:07Z" uid="49111" user="Markus B" changeset="1683018" lat="-25.9758902" lon="32.5679227"/>
  <node id="430966353" version="1" timestamp="2009-06-29T22:02:07Z" uid="49111" user="Markus B" changeset="1683018" lat="-25.961013" lon="32.5447866"/>
  <node id="430966354" version="1" timestamp="2009-06-29T22:02:07Z" uid="49111" user="Markus B" changeset="1683018" lat="-25.9624818" lon="32.547026"/>
  <node id="430966355" version="1" timestamp="2009-06-29T22:02:07Z" uid="49111" user="Markus B" changeset="1683018" lat="-25.9600433" lon="32.5434972"/>
  <node id="430966356" version="1" timestamp="2009-06-29T22:02:07Z" uid="49111" user="Markus B" changeset="1683018" lat="-25.9594195" lon="32.5428975"/>
  <node id="430966357" version="1" timestamp="2009-06-29T22:02:07Z" uid="49111" user="Markus B" changeset="1683018" lat="-25.9586586" lon="32.5424103"/>
  <node id="430966359" version="1" timestamp="2009-06-29T22:02:07Z" uid="49111" user="Markus B" changeset="1683018" lat="-25.9587527" lon="32.5425021"/>
  <node id="430966360" version="1" timestamp="2009-06-29T22:02:07Z" uid="49111" user="Markus B" changeset="1683018" lat="-25.958448" lon="32.5425559"/>
  <node id="430966362" version="1" timestamp="2009-06-29T22:02:07Z" uid="49111" user="Markus B" changeset="1683018" lat="-25.9586742" lon="32.5425988"/>
  <node id="430966363" version="1" timestamp="2009-06-29T22:02:07Z" uid="49111" user="Markus B" changeset="1683018" lat="-25.9585942" lon="32.5425497"/>
  <node id="430966365" version="1" timestamp="2009-06-29T22:02:07Z" uid="49111" user="Markus B" changeset="1683018" lat="-25.9552281" lon="32.5427364"/>
  <node id="430966367" version="1" timestamp="2009-06-29T22:02:07Z" uid="49111" user="Markus B" changeset="1683018" lat="-25.9556256" lon="32.5426914"/>
  <node id="430966368" version="1" timestamp="2009-06-29T22:02:07Z" uid="49111" user="Markus B" changeset="1683018" lat="-25.9570402" lon="32.5432908"/>
  <node id="430966370" version="1" timestamp="2009-06-29T22:02:07Z" uid="49111" user="Markus B" changeset="1683018" lat="-25.9540358" lon="32.5429162"/>
  <node id="430966372" version="1" timestamp="2009-06-29T22:02:07Z" uid="49111" user="Markus B" changeset="1683018" lat="-25.9537865" lon="32.542609"/>
  <node id="430966374" version="1" timestamp="2009-06-29T22:02:07Z" uid="49111" user="Markus B" changeset="1683018" lat="-25.9540358" lon="32.5424142"/>
  <node id="430966375" version="1" timestamp="2009-06-29T22:02:07Z" uid="49111" user="Markus B" changeset="1683018" lat="-25.9741208" lon="32.5549879"/>
  <node id="430966377" version="1" timestamp="2009-06-29T22:02:07Z" uid="49111" user="Markus B" changeset="1683018" lat="-25.9748961" lon="32.5553961"/>
  <node id="430966379" version="1" timestamp="2009-06-29T22:02:07Z" uid="49111" user="Markus B" changeset="1683018" lat="-25.9748587" lon="32.5555789"/>
  <node id="430966381" version="1" timestamp="2009-06-29T22:02:07Z" uid="49111" user="Markus B" changeset="1683018" lat="-25.9748787" lon="32.5555053"/>
  <node id="430966383" version="1" timestamp="2009-06-29T22:02:07Z" uid="49111" user="Markus B" changeset="1683018" lat="-25.9743971" lon="32.5546757"/>
  <node id="430966385" version="1" timestamp="2009-06-29T22:02:07Z" uid="49111" user="Markus B" changeset="1683018" lat="-25.9743618" lon="32.5546333"/>
  <node id="430966388" version="1" timestamp="2009-06-29T22:02:07Z" uid="49111" user="Markus B" changeset="1683018" lat="-25.9744013" lon="32.5542704"/>
  <node id="430966390" version="1" timestamp="2009-06-29T22:02:07Z" uid="49111" user="Markus B" changeset="1683018" lat="-25.9745595" lon="32.5540834"/>
  <node id="430966392" version="1" timestamp="2009-06-29T22:02:07Z" uid="49111" user="Markus B" changeset="1683018" lat="-25.9746867" lon="32.5539759"/>
  <node id="430966394" version="1" timestamp="2009-06-29T22:02:07Z" uid="49111" user="Markus B" changeset="1683018" lat="-25.9746626" lon="32.5534696"/>
  <node id="430966396" version="1" timestamp="2009-06-29T22:02:07Z" uid="49111" user="Markus B" changeset="1683018" lat="-25.9745384" lon="32.553086"/>
  <node id="430966398" version="1" timestamp="2009-06-29T22:02:07Z" uid="49111" user="Markus B" changeset="1683018" lat="-25.9747798" lon="32.5536729"/>
  <node id="430966400" version="1" timestamp="2009-06-29T22:02:08Z" uid="49111" user="Markus B" changeset="1683018" lat="-25.9746246" lon="32.5532701"/>
  <node id="430966402" version="1" timestamp="2009-06-29T22:02:08Z" uid="49111" user="Markus B" changeset="1683018" lat="-25.9743419" lon="32.5524914"/>
  <node id="430966405" version="1" timestamp="2009-06-29T22:02:08Z" uid="49111" user="Markus B" changeset="1683018" lat="-25.9743663" lon="32.5526088"/>
  <node id="430966407" version="1" timestamp="2009-06-29T22:02:08Z" uid="49111" user="Markus B" changeset="1683018" lat="-25.9749546" lon="32.551487"/>
  <node id="430966409" version="1" timestamp="2009-06-29T22:02:08Z" uid="49111" user="Markus B" changeset="1683018" lat="-25.9751227" lon="32.5515206"/>
  <node id="430966412" version="1" timestamp="2009-06-29T22:02:08Z" uid="49111" user="Markus B" changeset="1683018" lat="-25.9752649" lon="32.5515158"/>
  <node id="430966415" version="1" timestamp="2009-06-29T22:02:08Z" uid="49111" user="Markus B" changeset="1683018" lat="-25.9753037" lon="32.5513624"/>
  <node id="430966418" version="1" timestamp="2009-06-29T22:02:08Z" uid="49111" user="Markus B" changeset="1683018" lat="-25.9755969" lon="32.5513192"/>
  <node id="430966421" version="1" timestamp="2009-06-29T22:02:08Z" uid="49111" user="Markus B" changeset="1683018" lat="-25.9758382" lon="32.5512329"/>
  <node id="430966424" version="1" timestamp="2009-06-29T22:02:08Z" uid="49111" user="Markus B" changeset="1683018" lat="-25.9757089" lon="32.5513336"/>
  <node id="430966427" version="1" timestamp="2009-06-29T22:02:08Z" uid="49111" user="Markus B" changeset="1683018" lat="-25.9763728" lon="32.5515829"/>
  <node id="430966430" version="1" timestamp="2009-06-29T22:02:08Z" uid="49111" user="Markus B" changeset="1683018" lat="-25.9766529" lon="32.5516405"/>
  <node id="430966431" version="1" timestamp="2009-06-29T22:02:08Z" uid="49111" user="Markus B" changeset="1683018" lat="-25.9772651" lon="32.5519378"/>
  <node id="430966433" version="1" timestamp="2009-06-29T22:02:08Z" uid="49111" user="Markus B" changeset="1683018" lat="-25.9774849" lon="32.5516021"/>
  <node id="430966435" version="1" timestamp="2009-06-29T22:02:08Z" uid="49111" user="Markus B" changeset="1683018" lat="-25.9767004" lon="32.5510651"/>
  <node id="430966436" version="1" timestamp="2009-06-29T22:02:08Z" uid="49111" user="Markus B" changeset="1683018" lat="-25.9768685" lon="32.5512904"/>
  <node id="430966438" version="1" timestamp="2009-06-29T22:02:08Z" uid="49111" user="Markus B" changeset="1683018" lat="-25.9768168" lon="32.5507438"/>
  <node id="430966441" version="1" timestamp="2009-06-29T22:02:08Z" uid="49111" user="Markus B" changeset="1683018" lat="-25.9774116" lon="32.5506287"/>
  <node id="430966443" version="1" timestamp="2009-06-29T22:02:08Z" uid="49111" user="Markus B" changeset="1683018" lat="-25.9779246" lon="32.5500246"/>
  <node id="430966445" version="1" timestamp="2009-06-29T22:02:08Z" uid="49111" user="Markus B" changeset="1683018" lat="-25.9767777" lon="32.5566724"/>
  <node id="430966447" version="1" timestamp="2009-06-29T22:02:08Z" uid="49111" user="Markus B" changeset="1683018" lat="-25.9805817" lon="32.5588422"/>
  <node id="430966449" version="1" timestamp="2009-06-29T22:02:08Z" uid="49111" user="Markus B" changeset="1683018" lat="-25.9804847" lon="32.5593457"/>
  <node id="430966450" version="1" timestamp="2009-06-29T22:02:08Z" uid="49111" user="Markus B" changeset="1683018" lat="-25.9804901" lon="32.5597592"/>
  <node id="430966452" version="1" timestamp="2009-06-29T22:02:08Z" uid="49111" user="Markus B" changeset="1683018" lat="-25.9805547" lon="32.5599331"/>
  <node id="430966454" version="1" timestamp="2009-06-29T22:02:08Z" uid="49111" user="Markus B" changeset="1683018" lat="-25.9817132" lon="32.5605504"/>
  <node id="430966456" version="1" timestamp="2009-06-29T22:02:08Z" uid="49111" user="Markus B" changeset="1683018" lat="-25.9803897" lon="32.5616068"/>
  <node id="430966458" version="1" timestamp="2009-06-29T22:02:08Z" uid="49111" user="Markus B" changeset="1683018" lat="-25.9806065" lon="32.5605686"/>
  <node id="430966460" version="1" timestamp="2009-06-29T22:02:08Z" uid="49111" user="Markus B" changeset="1683018" lat="-25.9804341" lon="32.5611057"/>
  <node id="430966462" version="1" timestamp="2009-06-29T22:02:08Z" uid="49111" user="Markus B" changeset="1683018" lat="-25.9803547" lon="32.5611786"/>
  <node id="430966464" version="1" timestamp="2009-06-29T22:02:08Z" uid="49111" user="Markus B" changeset="1683018" lat="-25.9803996" lon="32.5612246"/>
  <node id="430966465" version="1" timestamp="2009-06-29T22:02:09Z" uid="49111" user="Markus B" changeset="1683018" lat="-25.9804478" lon="32.5612131"/>
  <node id="430966467" version="1" timestamp="2009-06-29T22:02:09Z" uid="49111" user="Markus B" changeset="1683018" lat="-25.9804927" lon="32.5611632"/>
  <node id="430966469" version="1" timestamp="2009-06-29T22:02:09Z" uid="49111" user="Markus B" changeset="1683018" lat="-25.9804582" lon="32.5611366"/>
  <node id="430966471" version="1" timestamp="2009-06-29T22:02:09Z" uid="49111" user="Markus B" changeset="1683018" lat="-25.9806513" lon="32.5605686"/>
  <node id="430966473" version="1" timestamp="2009-06-29T22:02:09Z" uid="49111" user="Markus B" changeset="1683018" lat="-25.980713" lon="32.5605761"/>
  <node id="430966475" version="1" timestamp="2009-06-29T22:02:09Z" uid="49111" user="Markus B" changeset="1683018" lat="-25.9804858" lon="32.5617693"/>
  <node id="430966477" version="1" timestamp="2009-06-29T22:02:09Z" uid="49111" user="Markus B" changeset="1683018" lat="-25.9803134" lon="32.5616274"/>
  <node id="430966479" version="1" timestamp="2009-06-29T22:02:09Z" uid="49111" user="Markus B" changeset="1683018" lat="-25.9802961" lon="32.5616811"/>
  <node id="430966480" version="1" timestamp="2009-06-29T22:02:09Z" uid="49111" user="Markus B" changeset="1683018" lat="-25.9805134" lon="32.5616619"/>
  <node id="430966482" version="1" timestamp="2009-06-29T22:02:09Z" uid="49111" user="Markus B" changeset="1683018" lat="-25.9804444" lon="32.5616312"/>
  <node id="430966484" version="1" timestamp="2009-06-29T22:02:09Z" uid="49111" user="Markus B" changeset="1683018" lat="-25.9807685" lon="32.5605648"/>
  <node id="430966486" version="1" timestamp="2009-06-29T22:02:09Z" uid="49111" user="Markus B" changeset="1683018" lat="-25.9811444" lon="32.5605993"/>
  <node id="430966502" version="1" timestamp="2009-06-29T22:02:30Z" uid="38528" user="acrosscanadatrails" changeset="1683023" lat="48.4598249" lon="-123.4073579"/>
  <node id="430966503" version="1" timestamp="2009-06-29T22:02:30Z" uid="38528" user="acrosscanadatrails" changeset="1683023" lat="48.4598807" lon="-123.4073604"/>
  <node id="430966504" version="1" timestamp="2009-06-29T22:02:30Z" uid="38528" user="acrosscanadatrails" changeset="1683023" lat="48.4599371" lon="-123.4073632"/>
  <node id="430966977" version="1" timestamp="2009-06-29T22:07:11Z" uid="38528" user="acrosscanadatrails" changeset="1683053" lat="48.4594471" lon="-123.4045912"/>
  <node id="430966978" version="1" timestamp="2009-06-29T22:07:11Z" uid="38528" user="acrosscanadatrails" changeset="1683053" lat="48.4594493" lon="-123.4045342"/>
  <node id="430966979" version="1" timestamp="2009-06-29T22:07:11Z" uid="38528" user="acrosscanadatrails" changeset="1683053" lat="48.4594464" lon="-123.404483"/>
  <node id="430966980" version="1" timestamp="2009-06-29T22:07:11Z" uid="38528" user="acrosscanadatrails" changeset="1683053" lat="48.4594284" lon="-123.4043993"/>
  <node id="430966981" version="1" timestamp="2009-06-29T22:07:12Z" uid="38528" user="acrosscanadatrails" changeset="1683053" lat="48.4595651" lon="-123.4051596"/>
  <node id="430966982" version="1" timestamp="2009-06-29T22:07:12Z" uid="38528" user="acrosscanadatrails" changeset="1683053" lat="48.4595248" lon="-123.4051456"/>
  <node id="430966983" version="1" timestamp="2009-06-29T22:07:12Z" uid="38528" user="acrosscanadatrails" changeset="1683053" lat="48.4594979" lon="-123.405146"/>
  <node id="430966984" version="1" timestamp="2009-06-29T22:07:12Z" uid="38528" user="acrosscanadatrails" changeset="1683053" lat="48.4594805" lon="-123.4051544"/>
  <node id="430966985" version="1" timestamp="2009-06-29T22:07:12Z" uid="38528" user="acrosscanadatrails" changeset="1683053" lat="48.4594587" lon="-123.405174"/>
  <node id="430966986" version="1" timestamp="2009-06-29T22:07:12Z" uid="38528" user="acrosscanadatrails" changeset="1683053" lat="48.4594417" lon="-123.4051895"/>
  <node id="430966987" version="1" timestamp="2009-06-29T22:07:12Z" uid="38528" user="acrosscanadatrails" changeset="1683053" lat="48.4594221" lon="-123.4052058"/>
  <node id="430966988" version="1" timestamp="2009-06-29T22:07:12Z" uid="38528" user="acrosscanadatrails" changeset="1683053" lat="48.459393" lon="-123.4052486"/>
  <node id="430966989" version="1" timestamp="2009-06-29T22:07:12Z" uid="38528" user="acrosscanadatrails" changeset="1683053" lat="48.459363" lon="-123.4052996"/>
  <node id="430966990" version="1" timestamp="2009-06-29T22:07:12Z" uid="38528" user="acrosscanadatrails" changeset="1683053" lat="48.4593339" lon="-123.4053506"/>
  <node id="430966991" version="1" timestamp="2009-06-29T22:07:12Z" uid="38528" user="acrosscanadatrails" changeset="1683053" lat="48.4592844" lon="-123.4054574"/>
  <node id="430966992" version="1" timestamp="2009-06-29T22:07:12Z" uid="38528" user="acrosscanadatrails" changeset="1683053" lat="48.4592397" lon="-123.4055719"/>
  <node id="430966993" version="1" timestamp="2009-06-29T22:07:12Z" uid="38528" user="acrosscanadatrails" changeset="1683053" lat="48.4592219" lon="-123.4056303"/>
  <node id="430966994" version="1" timestamp="2009-06-29T22:07:12Z" uid="38528" user="acrosscanadatrails" changeset="1683053" lat="48.4591946" lon="-123.4057152"/>
  <node id="430966995" version="1" timestamp="2009-06-29T22:07:12Z" uid="38528" user="acrosscanadatrails" changeset="1683053" lat="48.4591809" lon="-123.4057769"/>
  <node id="430966996" version="1" timestamp="2009-06-29T22:07:12Z" uid="38528" user="acrosscanadatrails" changeset="1683053" lat="48.4591746" lon="-123.4058445"/>
  <node id="430966997" version="1" timestamp="2009-06-29T22:07:12Z" uid="38528" user="acrosscanadatrails" changeset="1683053" lat="48.4589971" lon="-123.4061106"/>
  <node id="430966998" version="1" timestamp="2009-06-29T22:07:12Z" uid="38528" user="acrosscanadatrails" changeset="1683053" lat="48.4590063" lon="-123.406064"/>
  <node id="430966999" version="1" timestamp="2009-06-29T22:07:12Z" uid="38528" user="acrosscanadatrails" changeset="1683053" lat="48.459092" lon="-123.4055685"/>
  <node id="430967000" version="1" timestamp="2009-06-29T22:07:13Z" uid="38528" user="acrosscanadatrails" changeset="1683053" lat="48.4591086" lon="-123.4054444"/>
  <node id="430967001" version="1" timestamp="2009-06-29T22:07:13Z" uid="38528" user="acrosscanadatrails" changeset="1683053" lat="48.4591064" lon="-123.405378"/>
  <node id="430967002" version="1" timestamp="2009-06-29T22:07:13Z" uid="38528" user="acrosscanadatrails" changeset="1683053" lat="48.4591194" lon="-123.4053088"/>
  <node id="430967003" version="1" timestamp="2009-06-29T22:07:13Z" uid="38528" user="acrosscanadatrails" changeset="1683053" lat="48.4591352" lon="-123.4052539"/>
  <node id="430967004" version="1" timestamp="2009-06-29T22:07:13Z" uid="38528" user="acrosscanadatrails" changeset="1683053" lat="48.4591749" lon="-123.4051421"/>
  <node id="430967005" version="1" timestamp="2009-06-29T22:07:13Z" uid="38528" user="acrosscanadatrails" changeset="1683053" lat="48.4591995" lon="-123.4050909"/>
  <node id="430967006" version="1" timestamp="2009-06-29T22:07:13Z" uid="38528" user="acrosscanadatrails" changeset="1683053" lat="48.459224" lon="-123.4050353"/>
  <node id="430967007" version="1" timestamp="2009-06-29T22:07:13Z" uid="38528" user="acrosscanadatrails" changeset="1683053" lat="48.4592529" lon="-123.4049819"/>
  <node id="430967008" version="1" timestamp="2009-06-29T22:07:13Z" uid="38528" user="acrosscanadatrails" changeset="1683053" lat="48.4592853" lon="-123.404935"/>
  <node id="430967009" version="1" timestamp="2009-06-29T22:07:13Z" uid="38528" user="acrosscanadatrails" changeset="1683053" lat="48.4593062" lon="-123.4048845"/>
  <node id="430967010" version="1" timestamp="2009-06-29T22:07:13Z" uid="38528" user="acrosscanadatrails" changeset="1683053" lat="48.4593546" lon="-123.4048109"/>
  <node id="430967011" version="1" timestamp="2009-06-29T22:07:13Z" uid="38528" user="acrosscanadatrails" changeset="1683053" lat="48.4593957" lon="-123.4047691"/>
  <node id="430967013" version="1" timestamp="2009-06-29T22:07:13Z" uid="38528" user="acrosscanadatrails" changeset="1683053" lat="48.459421" lon="-123.4047128"/>
  <node id="430967014" version="1" timestamp="2009-06-29T22:07:13Z" uid="38528" user="acrosscanadatrails" changeset="1683053" lat="48.4594303" lon="-123.4046875"/>
  <node id="430967015" version="1" timestamp="2009-06-29T22:07:13Z" uid="38528" user="acrosscanadatrails" changeset="1683053" lat="48.4594376" lon="-123.4046536"/>
  <node id="430967016" version="1" timestamp="2009-06-29T22:07:13Z" uid="38528" user="acrosscanadatrails" changeset="1683053" lat="48.4594469" lon="-123.4046139"/>
  <node id="430968761" version="1" timestamp="2009-06-29T22:16:06Z" uid="103576" user="DiverCTH" changeset="1683089" lat="35.0279825" lon="-85.0927855"/>
  <node id="430968762" version="1" timestamp="2009-06-29T22:16:06Z" uid="103576" user="DiverCTH" changeset="1683089" lat="35.0719413" lon="-85.0646057"/>
  <node id="430968763" version="1" timestamp="2009-06-29T22:16:06Z" uid="103576" user="DiverCTH" changeset="1683089" lat="35.0721552" lon="-85.0647799"/>
  <node id="430968764" version="1" timestamp="2009-06-29T22:16:06Z" uid="103576" user="DiverCTH" changeset="1683089" lat="35.0746811" lon="-85.0655941"/>
  <node id="430968765" version="1" timestamp="2009-06-29T22:16:06Z" uid="103576" user="DiverCTH" changeset="1683089" lat="35.0684097" lon="-85.0639838"/>
  <node id="430968799" version="3" timestamp="2009-08-10T06:46:08Z" uid="4467" user="Rosscoe" changeset="2093517" lat="-27.5553223" lon="151.933618"/>
  <node id="430968800" version="3" timestamp="2009-08-10T06:46:10Z" uid="4467" user="Rosscoe" changeset="2093517" lat="-27.5551481" lon="151.9336499"/>
  <node id="430968804" version="2" timestamp="2009-07-12T07:04:01Z" uid="74617" user="JohnSmith" changeset="1803677" lat="-27.5568203" lon="151.9438932"/>
  <node id="430968804" version="3" timestamp="2009-07-12T07:13:32Z" uid="74617" user="JohnSmith" changeset="1803732" lat="-27.5568203" lon="151.9438932"/>
  <node id="430968805" version="2" timestamp="2009-07-12T07:14:38Z" uid="74617" user="JohnSmith" changeset="1803744" lat="-27.5563186" lon="151.940447"/>
  <node id="430968815" version="2" timestamp="2009-07-12T07:15:59Z" uid="74617" user="JohnSmith" changeset="1803757" lat="-27.6056409" lon="151.9354621"/>
  <node id="430969531" version="1" timestamp="2009-06-29T22:23:05Z" uid="103576" user="DiverCTH" changeset="1683123" lat="35.0250754" lon="-85.0905908"/>
  <node id="430969545" version="2" timestamp="2010-11-01T15:07:17Z" uid="9581" user="Lobelt" changeset="6255724" lat="50.2658209" lon="8.6637481"/>
  <node id="430969546" version="2" timestamp="2010-11-01T15:07:28Z" uid="9581" user="Lobelt" changeset="6255724" lat="50.2660174" lon="8.6637945"/>
  <node id="430969547" version="2" timestamp="2010-11-01T15:07:33Z" uid="9581" user="Lobelt" changeset="6255724" lat="50.2661255" lon="8.6638516"/>
  <node id="430969549" version="2" timestamp="2010-11-01T15:07:30Z" uid="9581" user="Lobelt" changeset="6255724" lat="50.2682152" lon="8.6646737"/>
</osm>
