<?xml version='1.0' encoding='UTF-8'?>
<osm version="0.6" generator="libosmium/2.20.0">
  <node id="432420826" version="1" timestamp="2009-07-02T06:23:09Z" uid="74617" user="JohnSmith" changeset="1707226" lat="-26.1620566" lon="152.6506541"/>
  <node id="432420828" version="1" timestamp="2009-07-02T06:23:09Z" uid="74617" user="JohnSmith" changeset="1707226" lat="-26.1621521" lon="152.6507633"/>
  <node id="432421587" version="2" timestamp="2010-12-30T16:38:10Z" uid="43863" user="Rundling" changeset="6811337" lat="53.1493518" lon="10.6677733"/>
  <node id="432421589" version="2" timestamp="2010-12-30T16:36:26Z" uid="43863" user="Rundling" changeset="6811337" lat="53.1496807" lon="10.6678101"/>
  <node id="432421593" version="2" timestamp="2010-12-30T16:36:40Z" uid="43863" user="Rundling" changeset="6811337" lat="53.1494392" lon="10.6676462"/>
  <node id="432421595" version="2" timestamp="2010-12-30T16:36:09Z" uid="43863" user="Rundling" changeset="6811337" lat="53.1498565" lon="10.6680121"/>
  <node id="432421596" version="3" timestamp="2010-12-30T16:36:33Z" uid="43863" user="Rundling" changeset="6811337" lat="53.1494411" lon="10.6676378"/>
  <node id="432421599" version="3" timestamp="2010-12-30T16:36:31Z" uid="43863" user="Rundling" changeset="6811337" lat="53.1496817" lon="10.6678057"/>
  <node id="432421601" version="3" timestamp="2010-12-30T16:36:58Z" uid="43863" user="Rundling" changeset="6811337" lat="53.1498598" lon="10.6680085"/>
  <node id="432421603" version="3" timestamp="2010-12-30T16:36:31Z" uid="43863" user="Rundling" changeset="6811337" lat="53.1500035" lon="10.669219"/>
  <node id="432421607" version="2" timestamp="2010-12-30T16:36:44Z" uid="43863" user="Rundling" changeset="6811337" lat="53.1500129" lon="10.6684951"/>
  <node id="432421608" version="2" timestamp="2010-12-30T16:38:34Z" uid="43863" user="Rundling" changeset="6811337" lat="53.1499166" lon="10.6695681"/>
  <node id="432421609" version="2" timestamp="2010-12-30T16:37:30Z" uid="43863" user="Rundling" changeset="6811337" lat="53.1498608" lon="10.6698405"/>
  <node id="432421610" version="2" timestamp="2010-12-30T16:36:41Z" uid="43863" user="Rundling" changeset="6811337" lat="53.1473176" lon="10.6796854"/>
  <node id="432421611" version="2" timestamp="2010-12-30T16:37:00Z" uid="43863" user="Rundling" changeset="6811337" lat="53.1448599" lon="10.6894458"/>
  <node id="432421612" version="2" timestamp="2010-12-30T16:36:10Z" uid="43863" user="Rundling" changeset="6811337" lat="53.1430782" lon="10.6964453"/>
  <node id="432421624" version="2" timestamp="2011-02-07T18:53:42Z" uid="43863" user="Rundling" changeset="7219355" lat="53.1237146" lon="10.7547556"/>
  <node id="432421626" version="2" timestamp="2011-02-07T18:53:42Z" uid="43863" user="Rundling" changeset="7219355" lat="53.1227658" lon="10.7645251"/>
  <node id="432421633" version="2" timestamp="2010-01-26T11:50:26Z" uid="43863" user="Rundling" changeset="3718698" lat="53.1354821" lon="10.8712612"/>
  <node id="432421634" version="2" timestamp="2010-01-26T11:50:19Z" uid="43863" user="Rundling" changeset="3718698" lat="53.1356844" lon="10.8711846"/>
  <node id="432421635" version="2" timestamp="2010-01-26T11:50:19Z" uid="43863" user="Rundling" changeset="3718698" lat="53.1373867" lon="10.8725559"/>
  <node id="432421636" version="2" timestamp="2010-01-26T11:50:20Z" uid="43863" user="Rundling" changeset="3718698" lat="53.138473" lon="10.8736187"/>
  <node id="432421637" version="2" timestamp="2010-01-26T11:50:19Z" uid="43863" user="Rundling" changeset="3718698" lat="53.139498" lon="10.8748906"/>
  <node id="432421638" version="2" timestamp="2010-01-26T11:50:19Z" uid="43863" user="Rundling" changeset="3718698" lat="53.1402795" lon="10.8758232"/>
  <node id="432421645" version="2" timestamp="2010-01-25T21:01:24Z" uid="43863" user="Rundling" changeset="3714714" lat="53.140735" lon="10.8763128"/>
  <node id="432421646" version="2" timestamp="2010-01-25T21:01:25Z" uid="43863" user="Rundling" changeset="3714714" lat="53.1406468" lon="10.8773898"/>
  <node id="432421647" version="2" timestamp="2010-01-25T21:01:25Z" uid="43863" user="Rundling" changeset="3714714" lat="53.140454" lon="10.8781054"/>
  <node id="432421648" version="2" timestamp="2010-01-26T11:50:20Z" uid="43863" user="Rundling" changeset="3718698" lat="53.13849" lon="10.8736166"/>
  <node id="432421648" version="3" timestamp="2010-01-26T13:08:01Z" uid="43863" user="Rundling" changeset="3719255" lat="53.1384741" lon="10.8736166"/>
  <node id="432421648" version="4" timestamp="2010-01-27T09:41:37Z" uid="43863" user="Rundling" changeset="3726275" lat="53.1384741" lon="10.8736166"/>
  <node id="432421649" version="2" timestamp="2010-01-26T11:50:26Z" uid="43863" user="Rundling" changeset="3718698" lat="53.1395711" lon="10.8751256"/>
  <node id="432421650" version="2" timestamp="2010-01-25T21:01:24Z" uid="43863" user="Rundling" changeset="3714714" lat="53.1400956" lon="10.875753"/>
  <node id="432421651" version="2" timestamp="2010-01-26T11:50:20Z" uid="43863" user="Rundling" changeset="3718698" lat="53.1402948" lon="10.8758157"/>
  <node id="432421651" version="3" timestamp="2010-01-26T13:08:01Z" uid="43863" user="Rundling" changeset="3719255" lat="53.14028" lon="10.8758151"/>
  <node id="432421652" version="2" timestamp="2010-01-26T11:50:20Z" uid="43863" user="Rundling" changeset="3718698" lat="53.1408062" lon="10.8762625"/>
  <node id="432421653" version="2" timestamp="2010-01-26T11:50:20Z" uid="43863" user="Rundling" changeset="3718698" lat="53.1407038" lon="10.8774038"/>
  <node id="432421654" version="2" timestamp="2010-01-26T11:50:20Z" uid="43863" user="Rundling" changeset="3718698" lat="53.1383455" lon="10.8773588"/>
  <node id="432421655" version="2" timestamp="2010-01-26T11:50:20Z" uid="43863" user="Rundling" changeset="3718698" lat="53.1394898" lon="10.8820449"/>
  <node id="432421655" version="3" timestamp="2010-01-26T13:02:18Z" uid="43863" user="Rundling" changeset="3719219" lat="53.1395015" lon="10.8820476"/>
  <node id="432421656" version="2" timestamp="2010-01-26T11:50:20Z" uid="43863" user="Rundling" changeset="3718698" lat="53.1381521" lon="10.8815515"/>
  <node id="432421656" version="3" timestamp="2010-01-26T15:05:19Z" uid="43863" user="Rundling" changeset="3720196" lat="53.139265" lon="10.8791341"/>
  <node id="432421656" version="4" timestamp="2010-01-26T16:51:59Z" uid="43863" user="Rundling" changeset="3721067" lat="53.1392273" lon="10.8791642"/>
  <node id="432421657" version="2" timestamp="2010-01-25T21:01:25Z" uid="43863" user="Rundling" changeset="3714714" lat="53.1400827" lon="10.8783955"/>
  <node id="432421658" version="2" timestamp="2010-01-25T21:01:25Z" uid="43863" user="Rundling" changeset="3714714" lat="53.1396655" lon="10.8786765"/>
  <node id="432421659" version="2" timestamp="2010-01-25T21:01:24Z" uid="43863" user="Rundling" changeset="3714714" lat="53.1390057" lon="10.8792043"/>
  <node id="432421660" version="2" timestamp="2010-01-25T21:01:24Z" uid="43863" user="Rundling" changeset="3714714" lat="53.1389248" lon="10.8792043"/>
  <node id="432421661" version="2" timestamp="2010-01-25T21:01:24Z" uid="43863" user="Rundling" changeset="3714714" lat="53.1388397" lon="10.8791575"/>
  <node id="432421662" version="2" timestamp="2010-01-25T21:01:25Z" uid="43863" user="Rundling" changeset="3714714" lat="53.1387503" lon="10.8790723"/>
  <node id="432421663" version="2" timestamp="2010-01-25T21:01:25Z" uid="43863" user="Rundling" changeset="3714714" lat="53.1386566" lon="10.8788936"/>
  <node id="432421664" version="2" timestamp="2010-01-25T21:01:24Z" uid="43863" user="Rundling" changeset="3714714" lat="53.138414" lon="10.8773526"/>
  <node id="432421665" version="2" timestamp="2010-01-26T11:50:19Z" uid="43863" user="Rundling" changeset="3718698" lat="53.135709" lon="10.8711396"/>
  <node id="432421665" version="3" timestamp="2010-01-26T13:08:01Z" uid="43863" user="Rundling" changeset="3719255" lat="53.1356845" lon="10.87118"/>
  <node id="432421667" version="2" timestamp="2010-01-26T11:50:19Z" uid="43863" user="Rundling" changeset="3718698" lat="53.1347393" lon="10.8700874"/>
  <node id="432421667" version="3" timestamp="2010-01-26T12:48:34Z" uid="43863" user="Rundling" changeset="3719142" lat="53.134719" lon="10.8698759"/>
  <node id="432424846" version="2" timestamp="2009-07-22T20:51:32Z" uid="123700" user="Mala" changeset="1909234" lat="33.0000012" lon="64.9999946">
    <tag k="capital_city" v="Kabul"/>
    <tag k="country_code_fips" v="AF"/>
    <tag k="country_code_iso3166_1_alpha_2" v="AF"/>
    <tag k="is_in" v="Asia"/>
    <tag k="is_in:continent" v="Asia"/>
    <tag k="name" v="Afghanistan"/>
    <tag k="name:ar" v="أفغانستان"/>
    <tag k="name:cs_ascii" v="Afganistan"/>
    <tag k="name:da" v="Afghanistan"/>
    <tag k="name:de" v="Afghanistan"/>
    <tag k="name:en" v="Afghanistan"/>
    <tag k="name:eo" v="Afganio"/>
    <tag k="name:he" v="אפגניסטן"/>
    <tag k="name:hu" v="Afganisztán"/>
    <tag k="name:zh" v="阿富汗"/>
    <tag k="name:zh_py" v="Afuhan"/>
    <tag k="name:zh_pyt" v="Āfùhàn"/>
    <tag k="place" v="country"/>
    <tag k="source" v="CIA World Factbook"/>
  </node>
  <node id="432424924" version="2" timestamp="2009-07-22T19:58:58Z" uid="123700" user="Mala" changeset="1908819" lat="33.0000012" lon="64.9999946">
    <tag k="capital_city" v="Kabul"/>
    <tag k="country_code_fips" v="AF"/>
    <tag k="country_code_iso3166_1_alpha_2" v="AF"/>
    <tag k="is_in" v="Asia"/>
    <tag k="is_in:continent" v="Asia"/>
    <tag k="name" v="Afghanistan"/>
    <tag k="name:ar" v="أفغانستان"/>
    <tag k="name:cs_ascii" v="Afganistan"/>
    <tag k="name:da" v="Afghanistan"/>
    <tag k="name:de" v="Afghanistan"/>
    <tag k="name:en" v="Afghanistan"/>
    <tag k="name:eo" v="Afganio"/>
    <tag k="name:he" v="אפגניסטן"/>
    <tag k="name:hu" v="Afganisztán"/>
    <tag k="name:it" v="Afghanistan"/>
    <tag k="name:pl" v="Afganistan"/>
    <tag k="name:zh" v="阿富汗"/>
    <tag k="name:zh_py" v="Afuhan"/>
    <tag k="name:zh_pyt" v="Āfùhàn"/>
    <tag k="official_name:it" v="Repubblica Islamica dell&apos;Afghanistan"/>
    <tag k="official_name:pl" v="Islamska Republika Afganistanu"/>
    <tag k="place" v="country"/>
    <tag k="source" v="CIA World Factbook"/>
  </node>
  <node id="432424924" version="3" timestamp="2009-07-22T20:51:32Z" uid="123700" user="Mala" changeset="1909234" lat="33.0000012" lon="64.9999946">
    <tag k="capital_city" v="Kabul"/>
    <tag k="country_code_fips" v="AF"/>
    <tag k="country_code_iso3166_1_alpha_2" v="AF"/>
    <tag k="is_in" v="Asia"/>
    <tag k="is_in:continent" v="Asia"/>
    <tag k="name" v="Afghanistan"/>
    <tag k="name:ar" v="أفغانستان"/>
    <tag k="name:cs_ascii" v="Afganistan"/>
    <tag k="name:da" v="Afghanistan"/>
    <tag k="name:de" v="Afghanistan"/>
    <tag k="name:en" v="Afghanistan"/>
    <tag k="name:eo" v="Afganio"/>
    <tag k="name:he" v="אפגניסטן"/>
    <tag k="name:hu" v="Afganisztán"/>
    <tag k="name:it" v="Afghanistan"/>
    <tag k="name:pl" v="Afganistan"/>
    <tag k="name:zh" v="阿富汗"/>
    <tag k="name:zh_py" v="Afuhan"/>
    <tag k="name:zh_pyt" v="Āfùhàn"/>
    <tag k="official_name:it" v="Repubblica Islamica dell&apos;Afghanistan"/>
    <tag k="official_name:pl" v="Islamska Republika Afganistanu"/>
    <tag k="place" v="country"/>
    <tag k="source" v="CIA World Factbook"/>
  </node>
  <node id="432424925" version="2" timestamp="2009-07-23T00:20:39Z" uid="20587" user="balrog-kun" changeset="1910333" lat="41" lon="20">
    <tag k="country_code_fips" v="AL"/>
    <tag k="country_code_iso3166_1_alpha_2" v="AL"/>
    <tag k="is_in" v="Europe"/>
    <tag k="is_in:continent" v="Europe"/>
    <tag k="name" v="Shqipëria"/>
    <tag k="name:ar" v="ألبانيا"/>
    <tag k="name:da" v="Albanien"/>
    <tag k="name:de" v="Albanien"/>
    <tag k="name:en" v="Albania"/>
    <tag k="name:eo" v="Albanio"/>
    <tag k="name:he" v="אלבניה"/>
    <tag k="name:hu" v="Albánia"/>
    <tag k="name:nl" v="Albanië"/>
    <tag k="name:sl" v="Albanija"/>
    <tag k="name:zh" v="阿尔巴尼亚"/>
    <tag k="name:zh_py" v="Aerbaniya"/>
    <tag k="name:zh_pyt" v="Āěrbāníyà"/>
    <tag k="place" v="country"/>
    <tag k="source" v="CIA World Factbook"/>
  </node>
  <node id="432424926" version="2" timestamp="2009-07-23T10:45:31Z" uid="123700" user="Mala" changeset="1914232" lat="28" lon="3">
    <tag k="capital_city" v="Algiers"/>
    <tag k="country_code_fips" v="AG"/>
    <tag k="country_code_iso3166_1_alpha_2" v="DZ"/>
    <tag k="is_in" v="Africa"/>
    <tag k="is_in:continent" v="Africa"/>
    <tag k="name" v="الجزائر (Al Jaza&apos;ir)"/>
    <tag k="name:ar" v="الجزائر"/>
    <tag k="name:ber" v="ⴷⵥⴰⵢⴻⵔ (Dzayer)"/>
    <tag k="name:da" v="Algeriet"/>
    <tag k="name:de" v="Algerien"/>
    <tag k="name:en" v="Algeria"/>
    <tag k="name:eo" v="Alĝerio"/>
    <tag k="name:es" v="Argelia"/>
    <tag k="name:fi" v="Algeria"/>
    <tag k="name:fr" v="Algérie"/>
    <tag k="name:he" v="אלג&apos;יר"/>
    <tag k="name:hu" v="Algéria"/>
    <tag k="name:it" v="Algeria"/>
    <tag k="name:nl" v="Algerije"/>
    <tag k="name:pl" v="Algieria"/>
    <tag k="name:zh" v="阿尔及利亚"/>
    <tag k="name:zh_py" v="Aerjiliya"/>
    <tag k="name:zh_pyt" v="Āěrjílìyà"/>
    <tag k="official_name" v="الجمهورية الجزائرية الديمقراطية الشعبية"/>
    <tag k="official_name:en" v="People&apos;s Democratic Republic of Algeria"/>
    <tag k="place" v="country"/>
    <tag k="population" v="33769669"/>
    <tag k="source" v="CIA World Factbook"/>
    <tag k="wikipedia" v="Algeria"/>
  </node>
  <node id="432424928" version="2" timestamp="2009-07-23T23:49:47Z" uid="123700" user="Mala" changeset="1920545" lat="-13.7464942" lon="16.7519683">
    <tag k="country_code_fips" v="AO"/>
    <tag k="country_code_iso3166_1_alpha_2" v="AO"/>
    <tag k="geonames:id" v="3351879"/>
    <tag k="int_name" v="Angola"/>
    <tag k="is_in:continent" v="Africa"/>
    <tag k="name" v="Angola"/>
    <tag k="name:ar" v="أنغولا"/>
    <tag k="name:da" v="Angola"/>
    <tag k="name:de" v="Angola"/>
    <tag k="name:en" v="Angola"/>
    <tag k="name:eo" v="Angolo"/>
    <tag k="name:he" v="אנגולה"/>
    <tag k="name:hu" v="Angola"/>
    <tag k="name:zh" v="安哥拉"/>
    <tag k="name:zh_py" v="Angela"/>
    <tag k="name:zh_pyt" v="Āngēlā"/>
    <tag k="place" v="country"/>
    <tag k="watch:hakan" v="countries"/>
  </node>
  <node id="432424929" version="2" timestamp="2009-07-23T02:16:58Z" uid="123700" user="Mala" changeset="1910715" lat="17.0790698" lon="-61.8221895">
    <tag k="capital_city" v="Saint John&apos;s"/>
    <tag k="country_code_fips" v="AC"/>
    <tag k="country_code_iso3166_1_alpha_2" v="AG"/>
    <tag k="geonames:id" v="3576396"/>
    <tag k="int_name" v="Antigua and Barbuda"/>
    <tag k="is_in:continent" v="North America"/>
    <tag k="is_in:sea" v="Caribbean Sea"/>
    <tag k="name" v="Antigua and Barbuda"/>
    <tag k="name:ar" v="أنتيغوا وبربودا"/>
    <tag k="name:cy" v="Antigua a Barbuda"/>
    <tag k="name:da" v="Antigua og Barbuda"/>
    <tag k="name:en" v="Antigua and Barbuda"/>
    <tag k="name:eo" v="Antigvo-Barbudo"/>
    <tag k="name:es" v="Antigua y Barbuda"/>
    <tag k="name:hu" v="Antigua és Barbuda"/>
    <tag k="name:it" v="Antigua e Barbuda"/>
    <tag k="name:pl" v="Antigua i Barbuda"/>
    <tag k="place" v="country"/>
    <tag k="watch:hakan" v="countries"/>
    <tag k="wikipedia" v="Antigua and Barbuda"/>
  </node>
  <node id="432424930" version="2" timestamp="2009-07-23T01:41:12Z" uid="20587" user="balrog-kun" changeset="1910614" lat="-35.1125305" lon="-65.2419436">
    <tag k="country_code_fips" v="AR"/>
    <tag k="country_code_iso3166_1_alpha_2" v="AR"/>
    <tag k="geonames:id" v="3865483"/>
    <tag k="int_name" v="Argentina"/>
    <tag k="is_in:continent" v="South America"/>
    <tag k="name" v="Argentina"/>
    <tag k="name:ar" v="الأرجنتين"/>
    <tag k="name:cy" v="Yr Ariannin"/>
    <tag k="name:da" v="Argentina"/>
    <tag k="name:de" v="Argentinien"/>
    <tag k="name:en" v="Argentina"/>
    <tag k="name:eo" v="Argentino"/>
    <tag k="name:fi" v="Argentiina"/>
    <tag k="name:he" v="ארגנטינה"/>
    <tag k="name:hu" v="Argentína"/>
    <tag k="place" v="country"/>
    <tag k="watch:hakan" v="countries"/>
  </node>
  <node id="432424931" version="2" timestamp="2009-07-22T20:51:24Z" uid="123700" user="Mala" changeset="1909234" lat="40.7587844" lon="44.6519728">
    <tag k="capital_city" v="Yerevan"/>
    <tag k="country_code_fips" v="AM"/>
    <tag k="country_code_iso3166_1_alpha_2" v="AM"/>
    <tag k="geonames:id" v="174982"/>
    <tag k="int_name" v="Armenia"/>
    <tag k="is_in:continent" v="Europe"/>
    <tag k="name" v="Armenia"/>
    <tag k="name:ar" v="أرمينيا"/>
    <tag k="name:ay" v="Հայաստան (Hayastan)"/>
    <tag k="name:da" v="Armenien"/>
    <tag k="name:de" v="Armenien"/>
    <tag k="name:en" v="Armenia"/>
    <tag k="name:eo" v="Armenio"/>
    <tag k="name:fi" v="Armenia"/>
    <tag k="name:he" v="ארמניה"/>
    <tag k="name:hu" v="Örményország"/>
    <tag k="name:zh" v="亚美尼亚"/>
    <tag k="name:zh_py" v="Yameiniya"/>
    <tag k="name:zh_pyt" v="Yàměiníyà"/>
    <tag k="official_name" v="Republic of Armenia"/>
    <tag k="place" v="country"/>
    <tag k="population" v="3231900"/>
    <tag k="watch:hakan" v="countries"/>
  </node>
  <node id="432424932" version="2" timestamp="2009-07-23T23:57:50Z" uid="20587" user="balrog-kun" changeset="1920568" lat="-27.2693086" lon="136.1049177">
    <tag k="capital_city" v="Canberra"/>
    <tag k="country_code_fips" v="AS"/>
    <tag k="country_code_iso3166_1_alpha_2" v="AU"/>
    <tag k="geonames:id" v="2077456"/>
    <tag k="int_name" v="Australia"/>
    <tag k="is_in:continent" v="Australia"/>
    <tag k="name" v="Australia"/>
    <tag k="name:ar" v="أستراليا"/>
    <tag k="name:cy" v="Awstralia"/>
    <tag k="name:da" v="Australien"/>
    <tag k="name:de" v="Australien"/>
    <tag k="name:en" v="Australia"/>
    <tag k="name:eo" v="Aŭstralio"/>
    <tag k="name:fi" v="Australia"/>
    <tag k="name:he" v="אוסטרליה"/>
    <tag k="name:hu" v="Ausztrália"/>
    <tag k="place" v="country"/>
    <tag k="watch:hakan" v="countries"/>
  </node>
  <node id="432424933" version="2" timestamp="2009-07-24T01:37:58Z" uid="20587" user="balrog-kun" changeset="1920743" lat="47.2000035" lon="13.2000007">
    <tag k="capital_city" v="Vienna"/>
    <tag k="country_code_fips" v="AU"/>
    <tag k="country_code_iso3166_1_alpha_2" v="AT"/>
    <tag k="is_in" v="Europe"/>
    <tag k="is_in:continent" v="Europe"/>
    <tag k="name" v="Österreich"/>
    <tag k="name:ar" v="النمسا"/>
    <tag k="name:cy" v="Awstria"/>
    <tag k="name:da" v="Østrig"/>
    <tag k="name:de" v="Österreich"/>
    <tag k="name:en" v="Austria"/>
    <tag k="name:eo" v="Aŭstrio"/>
    <tag k="name:fi" v="Itävalta"/>
    <tag k="name:fr" v="Autriche"/>
    <tag k="name:he" v="אוסטריה"/>
    <tag k="name:hu" v="Ausztria"/>
    <tag k="name:nl" v="Oostenrijk"/>
    <tag k="name:pl" v="Austria"/>
    <tag k="name:sl" v="Avstrija"/>
    <tag k="name:zh" v="奥地利"/>
    <tag k="name:zh_py" v="Audili"/>
    <tag k="name:zh_pyt" v="Àodìlì"/>
    <tag k="place" v="country"/>
    <tag k="source" v="CIA World Factbook"/>
  </node>
  <node id="432424934" version="2" timestamp="2009-07-22T19:59:01Z" uid="123700" user="Mala" changeset="1908819" lat="40.1636112" lon="47.8208333">
    <tag k="capital_city" v="Baku"/>
    <tag k="country_code_fips" v="AJ"/>
    <tag k="country_code_iso3166_1_alpha_2" v="AZ"/>
    <tag k="geonames:id" v="587116"/>
    <tag k="int_name" v="Azerbaijan"/>
    <tag k="is_in:continent" v="Asia"/>
    <tag k="name" v="Azerbaijan"/>
    <tag k="name:ar" v="أذربيجان"/>
    <tag k="name:az" v="Azərbaycan"/>
    <tag k="name:da" v="Aserbajdsjan"/>
    <tag k="name:de" v="Aserbeidschan"/>
    <tag k="name:en" v="Azerbaijan"/>
    <tag k="name:eo" v="Azerbajĝano"/>
    <tag k="name:fi" v="Azerbaidžan"/>
    <tag k="name:he" v="אזרבייג&amp;apos;ן"/>
    <tag k="name:hu" v="Azerbajdzsán"/>
    <tag k="name:it" v="Azerbaigian"/>
    <tag k="name:pl" v="Azerbejdżan"/>
    <tag k="name:zh" v="阿塞拜疆"/>
    <tag k="name:zh_py" v="Asaibaijiang"/>
    <tag k="name:zh_pyt" v="Āsàibàijiāng"/>
    <tag k="official_name" v="Republic of Azerbaijan"/>
    <tag k="official_name:az" v="Azərbaycan Respublikası"/>
    <tag k="official_name:it" v="Repubblica dell&apos;Azerbaigian"/>
    <tag k="official_name:pl" v="Republika Azerbejdżanu"/>
    <tag k="place" v="country"/>
    <tag k="population" v="8676000"/>
    <tag k="watch:hakan" v="countries"/>
    <tag k="wikipedia:en" v="Azerbaijan"/>
  </node>
  <node id="432424934" version="3" timestamp="2009-07-22T20:51:25Z" uid="123700" user="Mala" changeset="1909234" lat="40.1636112" lon="47.8208333">
    <tag k="capital_city" v="Baku"/>
    <tag k="country_code_fips" v="AJ"/>
    <tag k="country_code_iso3166_1_alpha_2" v="AZ"/>
    <tag k="geonames:id" v="587116"/>
    <tag k="int_name" v="Azerbaijan"/>
    <tag k="is_in:continent" v="Asia"/>
    <tag k="name" v="Azerbaijan"/>
    <tag k="name:ar" v="أذربيجان"/>
    <tag k="name:az" v="Azərbaycan"/>
    <tag k="name:da" v="Aserbajdsjan"/>
    <tag k="name:de" v="Aserbeidschan"/>
    <tag k="name:en" v="Azerbaijan"/>
    <tag k="name:eo" v="Azerbajĝano"/>
    <tag k="name:fi" v="Azerbaidžan"/>
    <tag k="name:he" v="אזרבייג&amp;apos;ן"/>
    <tag k="name:hu" v="Azerbajdzsán"/>
    <tag k="name:it" v="Azerbaigian"/>
    <tag k="name:pl" v="Azerbejdżan"/>
    <tag k="name:zh" v="阿塞拜疆"/>
    <tag k="name:zh_py" v="Asaibaijiang"/>
    <tag k="name:zh_pyt" v="Āsàibàijiāng"/>
    <tag k="official_name" v="Republic of Azerbaijan"/>
    <tag k="official_name:az" v="Azərbaycan Respublikası"/>
    <tag k="official_name:it" v="Repubblica dell&apos;Azerbaigian"/>
    <tag k="official_name:pl" v="Republika Azerbejdżanu"/>
    <tag k="place" v="country"/>
    <tag k="population" v="8676000"/>
    <tag k="watch:hakan" v="countries"/>
    <tag k="wikipedia:en" v="Azerbaijan"/>
  </node>
  <node id="432424935" version="2" timestamp="2009-07-23T01:02:54Z" uid="123700" user="Mala" changeset="1910504" lat="24.7736111" lon="-78">
    <tag k="country_code_fips" v="BF"/>
    <tag k="country_code_iso3166_1_alpha_2" v="BS"/>
    <tag k="geonames:id" v="3572887"/>
    <tag k="int_name" v="Bahamas"/>
    <tag k="is_in:continent" v="North America"/>
    <tag k="is_in:sea" v="Caribbean Sea"/>
    <tag k="name" v="Bahamas"/>
    <tag k="name:ar" v="جزر البهاما"/>
    <tag k="name:cy" v="Y Bahamas"/>
    <tag k="name:en" v="Bahamas"/>
    <tag k="name:eo" v="Bahamoj"/>
    <tag k="name:fi" v="Bahama"/>
    <tag k="name:he" v="בהמה"/>
    <tag k="name:hu" v="Bahama-szigetek"/>
    <tag k="place" v="country"/>
    <tag k="watch:hakan" v="countries"/>
    <tag k="wikipedia" v="The Bahamas"/>
  </node>
  <node id="432424936" version="2" timestamp="2009-07-22T23:17:06Z" uid="123700" user="Mala" changeset="1910099" lat="26.1550678" lon="50.5345106">
    <tag k="capital_city" v="Manama"/>
    <tag k="country_code_fips" v="BA"/>
    <tag k="country_code_iso3166_1_alpha_2" v="BH"/>
    <tag k="int_name" v="Bahrain"/>
    <tag k="is_in:continent" v="Asia"/>
    <tag k="is_in:island" v="Bahrain"/>
    <tag k="is_in:sea" v="Persian Gulf"/>
    <tag k="name" v="البحرين"/>
    <tag k="name:ar" v="البحرين"/>
    <tag k="name:cy" v="Bahrain"/>
    <tag k="name:da" v="Bahrain"/>
    <tag k="name:de" v="Bahrain"/>
    <tag k="name:en" v="Bahrain"/>
    <tag k="name:eo" v="Barejno"/>
    <tag k="name:fi" v="Bahrain"/>
    <tag k="name:he" v="בחריין"/>
    <tag k="name:hu" v="Bahrein"/>
    <tag k="name:zh" v="巴林"/>
    <tag k="name:zh_py" v="Balin"/>
    <tag k="name:zh_pyt" v="Bālín"/>
    <tag k="official_name" v="Kingdom of Bahrain"/>
    <tag k="official_name:ar" v="‎مملكة البحرين  (Mamlakat al-Baḥrayn)"/>
    <tag k="place" v="country"/>
    <tag k="population" v="1046814"/>
  </node>
  <node id="432424937" version="2" timestamp="2009-07-22T19:23:52Z" uid="123700" user="Mala" changeset="1908405" lat="24.6753868" lon="89.4019881">
    <tag k="country_code_fips" v="BG"/>
    <tag k="country_code_iso3166_1_alpha_2" v="BD"/>
    <tag k="geonames:id" v="1210997"/>
    <tag k="int_name" v="Bangladesh"/>
    <tag k="is_in:continent" v="Asia"/>
    <tag k="name" v="Bangladesh"/>
    <tag k="name:ar" v="بنغلاديش"/>
    <tag k="name:da" v="Bangladesh"/>
    <tag k="name:en" v="Bangladesh"/>
    <tag k="name:eo" v="Bangladeŝo"/>
    <tag k="name:he" v="בנגלדש"/>
    <tag k="name:hu" v="Banglades"/>
    <tag k="name:it" v="Bangladesh"/>
    <tag k="name:pl" v="Bangladesz"/>
    <tag k="name:zh" v="孟加拉国"/>
    <tag k="name:zh_py" v="Mengjialaguo"/>
    <tag k="name:zh_pyt" v="Mèngjiālāguó"/>
    <tag k="official_name:it" v="Repubblica Popolare del Bangladesh"/>
    <tag k="official_name:pl" v="Ludowa Republika Bangladeszu"/>
    <tag k="place" v="country"/>
    <tag k="watch:hakan" v="countries"/>
  </node>
  <node id="432424937" version="3" timestamp="2009-07-22T20:51:13Z" uid="123700" user="Mala" changeset="1909234" lat="24.6753868" lon="89.4019881">
    <tag k="country_code_fips" v="BG"/>
    <tag k="country_code_iso3166_1_alpha_2" v="BD"/>
    <tag k="geonames:id" v="1210997"/>
    <tag k="int_name" v="Bangladesh"/>
    <tag k="is_in:continent" v="Asia"/>
    <tag k="name" v="Bangladesh"/>
    <tag k="name:ar" v="بنغلاديش"/>
    <tag k="name:da" v="Bangladesh"/>
    <tag k="name:en" v="Bangladesh"/>
    <tag k="name:eo" v="Bangladeŝo"/>
    <tag k="name:he" v="בנגלדש"/>
    <tag k="name:hu" v="Banglades"/>
    <tag k="name:it" v="Bangladesh"/>
    <tag k="name:pl" v="Bangladesz"/>
    <tag k="name:zh" v="孟加拉国"/>
    <tag k="name:zh_py" v="Mengjialaguo"/>
    <tag k="name:zh_pyt" v="Mèngjiālāguó"/>
    <tag k="official_name:it" v="Repubblica Popolare del Bangladesh"/>
    <tag k="official_name:pl" v="Ludowa Republika Bangladeszu"/>
    <tag k="place" v="country"/>
    <tag k="watch:hakan" v="countries"/>
    <tag k="wikipedia" v="Bangladesh"/>
  </node>
  <node id="432424938" version="2" timestamp="2009-07-23T02:17:04Z" uid="123700" user="Mala" changeset="1910715" lat="13.15" lon="-59.525">
    <tag k="country_code_fips" v="BB"/>
    <tag k="country_code_iso3166_1_alpha_2" v="BB"/>
    <tag k="geonames:id" v="3374084"/>
    <tag k="int_name" v="Barbados"/>
    <tag k="is_in:continent" v="North America"/>
    <tag k="is_in:sea" v="Caribbean Sea"/>
    <tag k="name" v="Barbados"/>
    <tag k="name:ar" v="بربادوس"/>
    <tag k="name:da" v="Barbados"/>
    <tag k="name:en" v="Barbados"/>
    <tag k="name:eo" v="Barbado"/>
    <tag k="name:he" v="ברבדוס"/>
    <tag k="name:hu" v="Barbados"/>
    <tag k="place" v="country"/>
    <tag k="watch:hakan" v="countries"/>
  </node>
  <node id="432424940" version="2" timestamp="2009-07-24T01:37:56Z" uid="20587" user="balrog-kun" changeset="1920743" lat="50.5916695" lon="4.3833255">
    <tag k="country_code_fips" v="BE"/>
    <tag k="country_code_iso3166_1_alpha_2" v="BE"/>
    <tag k="created_by" v="Potlatch 0.10f"/>
    <tag k="geonames:id" v="2802361"/>
    <tag k="int_name" v="Belgium"/>
    <tag k="is_in:continent" v="Europe"/>
    <tag k="name" v="België - Belgique - Belgien"/>
    <tag k="name:af" v="België"/>
    <tag k="name:ar" v="بلجيكا"/>
    <tag k="name:ca" v="Bèlgica"/>
    <tag k="name:cs" v="Belgie"/>
    <tag k="name:cy" v="Gwlad Belg"/>
    <tag k="name:da" v="Belgien"/>
    <tag k="name:de" v="Belgien"/>
    <tag k="name:el" v="Βέλγιο"/>
    <tag k="name:en" v="Belgium"/>
    <tag k="name:eo" v="Belgio"/>
    <tag k="name:es" v="Bélgica"/>
    <tag k="name:fi" v="Belgia"/>
    <tag k="name:fr" v="Belgique"/>
    <tag k="name:ga" v="An_Bheilg"/>
    <tag k="name:he" v="בלגיה"/>
    <tag k="name:hu" v="Belgium"/>
    <tag k="name:hy" v="Բելգիա"/>
    <tag k="name:la" v="Belgia"/>
    <tag k="name:nl" v="België"/>
    <tag k="name:zh" v="比利时"/>
    <tag k="name:zh_py" v="Bilishi"/>
    <tag k="name:zh_pyt" v="Bǐlìshí"/>
    <tag k="place" v="country"/>
    <tag k="watch:hakan" v="countries"/>
  </node>
  <node id="432424941" version="2" timestamp="2009-07-23T00:14:45Z" uid="123700" user="Mala" changeset="1910307" lat="16.8259461" lon="-88.7600599">
    <tag k="country_code_fips" v="BH"/>
    <tag k="country_code_iso3166_1_alpha_2" v="BZ"/>
    <tag k="geonames:id" v="3582678"/>
    <tag k="int_name" v="Belize"/>
    <tag k="is_in:continent" v="North America"/>
    <tag k="name" v="Belize"/>
    <tag k="name:ar" v="بليز"/>
    <tag k="name:da" v="Belize"/>
    <tag k="name:en" v="Belize"/>
    <tag k="name:eo" v="Belizo"/>
    <tag k="name:hu" v="Belize"/>
    <tag k="place" v="country"/>
    <tag k="watch:hakan" v="countries"/>
  </node>
  <node id="432424943" version="2" timestamp="2009-07-22T20:51:37Z" uid="123700" user="Mala" changeset="1909234" lat="27.5494611" lon="90.5120023">
    <tag k="capital_city" v="Thimphu"/>
    <tag k="country_code_fips" v="BT"/>
    <tag k="country_code_iso3166_1_alpha_2" v="BT"/>
    <tag k="geonames:id" v="1252634"/>
    <tag k="int_name" v="Bhutan"/>
    <tag k="is_in:continent" v="Asia"/>
    <tag k="name" v="Bhutan"/>
    <tag k="name:ar" v="بوتان"/>
    <tag k="name:da" v="Bhutan"/>
    <tag k="name:de" v="Bhutan"/>
    <tag k="name:dz" v="འབྲུག་ཡུལ་"/>
    <tag k="name:en" v="Bhutan"/>
    <tag k="name:eo" v="Butano"/>
    <tag k="name:he" v="בוטן"/>
    <tag k="name:hu" v="Bhután"/>
    <tag k="name:zh" v="不丹"/>
    <tag k="name:zh_py" v="Budan"/>
    <tag k="name:zh_pyt" v="Bùdān"/>
    <tag k="official_name" v="Kingdom of Bhutan"/>
    <tag k="place" v="country"/>
    <tag k="population" v="672425"/>
    <tag k="watch:hakan" v="countries"/>
  </node>
  <node id="432424944" version="2" timestamp="2009-07-23T01:41:07Z" uid="20587" user="balrog-kun" changeset="1910614" lat="-16.1779383" lon="-62.7866332">
    <tag k="country_code_fips" v="BL"/>
    <tag k="country_code_iso3166_1_alpha_2" v="BO"/>
    <tag k="geonames:id" v="3923057"/>
    <tag k="int_name" v="Bolivia"/>
    <tag k="is_in:continent" v="South America"/>
    <tag k="name" v="Bolivia"/>
    <tag k="name:ar" v="بوليفيا"/>
    <tag k="name:cy" v="Bolifia"/>
    <tag k="name:da" v="Bolivia"/>
    <tag k="name:de" v="Bolivien"/>
    <tag k="name:en" v="Bolivia"/>
    <tag k="name:eo" v="Bolivio"/>
    <tag k="name:he" v="בוליוויה"/>
    <tag k="name:hu" v="Bolívia"/>
    <tag k="place" v="country"/>
    <tag k="watch:hakan" v="countries"/>
  </node>
  <node id="432424945" version="2" timestamp="2009-07-23T00:20:32Z" uid="20587" user="balrog-kun" changeset="1910333" lat="43.9131969" lon="17.6823536">
    <tag k="country_code_fips" v="BK"/>
    <tag k="country_code_iso3166_1_alpha_2" v="BA"/>
    <tag k="geonames:id" v="3277605"/>
    <tag k="int_name" v="Bosnia and Herzegovina"/>
    <tag k="is_in:continent" v="Europe"/>
    <tag k="name" v="Bosna i Hercegovina"/>
    <tag k="name:ar" v="البوسنة والهرسك"/>
    <tag k="name:cy" v="Bosna a Hercegovina"/>
    <tag k="name:da" v="Bosnien-Hercegovina"/>
    <tag k="name:de" v="Bosnien und Herzegovina"/>
    <tag k="name:en" v="Bosnia and Herzegovina"/>
    <tag k="name:eo" v="Bosnio kaj Hercegovino"/>
    <tag k="name:fi" v="Bosnia ja Hertsegovina"/>
    <tag k="name:he" v="בוסניה הרצגובינה"/>
    <tag k="name:hu" v="Bosznia-Hercegovina"/>
    <tag k="name:zh" v="波斯尼亚和黑塞哥维纳"/>
    <tag k="name:zh_py" v="Bosiniya he Heisaigeweina"/>
    <tag k="name:zh_pyt" v="Bōsīníyà hé Hēisāigēwéinà"/>
    <tag k="place" v="country"/>
    <tag k="watch:hakan" v="countries"/>
  </node>
  <node id="432424947" version="2" timestamp="2009-07-23T01:41:06Z" uid="20587" user="balrog-kun" changeset="1910614" lat="-8.4666585" lon="-51.3333416">
    <tag k="country_code_fips" v="BR"/>
    <tag k="country_code_iso3166_1_alpha_2" v="BR"/>
    <tag k="geonames:id" v="3469034"/>
    <tag k="int_name" v="Brazil"/>
    <tag k="is_in:continent" v="South America"/>
    <tag k="name" v="Brasil"/>
    <tag k="name:ar" v="البرازيل"/>
    <tag k="name:da" v="Brasilien"/>
    <tag k="name:de" v="Brasilien"/>
    <tag k="name:en" v="Brazil"/>
    <tag k="name:eo" v="Brzilo"/>
    <tag k="name:fi" v="Brasilia"/>
    <tag k="name:he" v="ברזיל"/>
    <tag k="name:hu" v="Brazília"/>
    <tag k="name:it" v="Brasile"/>
    <tag k="place" v="country"/>
    <tag k="watch:hakan" v="countries"/>
  </node>
  <node id="432424948" version="2" timestamp="2009-07-22T18:59:57Z" uid="123700" user="Mala" changeset="1908128" lat="4.4161362" lon="114.564173">
    <tag k="country_code_fips" v="BX"/>
    <tag k="country_code_iso3166_1_alpha_2" v="BN"/>
    <tag k="geonames:id" v="1820814"/>
    <tag k="int_name" v="Brunei Darussalam"/>
    <tag k="is_in:continent" v="Asia"/>
    <tag k="name" v="Brunei Darussalam"/>
    <tag k="name:ar" v="بروني دار السلام"/>
    <tag k="name:da" v="Brunei"/>
    <tag k="name:en" v="Brunei Darussalam"/>
    <tag k="name:eo" v="Brunejo"/>
    <tag k="name:fi" v="Brunei"/>
    <tag k="name:he" v="ברוניי"/>
    <tag k="name:hu" v="Brunei"/>
    <tag k="name:it" v="Brunei"/>
    <tag k="name:pl" v="Brunei"/>
    <tag k="name:zh" v="文莱"/>
    <tag k="name:zh_py" v="Wenlai"/>
    <tag k="name:zh_pyt" v="Wénlái"/>
    <tag k="official_name:pl" v="Państwo Brunei Darussalam"/>
    <tag k="place" v="country"/>
    <tag k="watch:hakan" v="countries"/>
    <tag k="wikipedia" v="Brunei"/>
  </node>
  <node id="432424948" version="3" timestamp="2009-07-22T20:51:42Z" uid="123700" user="Mala" changeset="1909234" lat="4.4161362" lon="114.564173">
    <tag k="country_code_fips" v="BX"/>
    <tag k="country_code_iso3166_1_alpha_2" v="BN"/>
    <tag k="geonames:id" v="1820814"/>
    <tag k="int_name" v="Brunei Darussalam"/>
    <tag k="is_in:continent" v="Asia"/>
    <tag k="name" v="Brunei Darussalam"/>
    <tag k="name:ar" v="بروني دار السلام"/>
    <tag k="name:da" v="Brunei"/>
    <tag k="name:en" v="Brunei Darussalam"/>
    <tag k="name:eo" v="Brunejo"/>
    <tag k="name:fi" v="Brunei"/>
    <tag k="name:he" v="ברוניי"/>
    <tag k="name:hu" v="Brunei"/>
    <tag k="name:it" v="Brunei"/>
    <tag k="name:pl" v="Brunei"/>
    <tag k="name:zh" v="文莱"/>
    <tag k="name:zh_py" v="Wenlai"/>
    <tag k="name:zh_pyt" v="Wénlái"/>
    <tag k="official_name:pl" v="Państwo Brunei Darussalam"/>
    <tag k="place" v="country"/>
    <tag k="watch:hakan" v="countries"/>
    <tag k="wikipedia" v="Brunei"/>
  </node>
  <node id="432424949" version="2" timestamp="2009-07-23T00:20:34Z" uid="20587" user="balrog-kun" changeset="1910333" lat="42.6073614" lon="25.4856918">
    <tag k="country_code_fips" v="BU"/>
    <tag k="country_code_iso3166_1_alpha_2" v="BG"/>
    <tag k="geonames:id" v="732800"/>
    <tag k="int_name" v="Bulgaria"/>
    <tag k="is_in:continent" v="Europe"/>
    <tag k="name" v="България"/>
    <tag k="name:ar" v="بلغاريا"/>
    <tag k="name:bg" v="България"/>
    <tag k="name:cy" v="Bwlgaria"/>
    <tag k="name:da" v="Bulgarien"/>
    <tag k="name:de" v="Bulgarien"/>
    <tag k="name:en" v="Bulgaria"/>
    <tag k="name:eo" v="Bulgario"/>
    <tag k="name:fr" v="Bulgarie"/>
    <tag k="name:he" v="בולגריה"/>
    <tag k="name:hu" v="Bulgária"/>
    <tag k="name:zh" v="保加利亚"/>
    <tag k="name:zh_py" v="Baojialiya"/>
    <tag k="name:zh_pyt" v="Bǎojiālìyà"/>
    <tag k="place" v="country"/>
    <tag k="watch:hakan" v="countries"/>
  </node>
  <node id="432424951" version="2" timestamp="2009-07-23T11:58:57Z" uid="123700" user="Mala" changeset="1914917" lat="-2.7025" lon="30.4008333">
    <tag k="country_code_fips" v="BY"/>
    <tag k="country_code_iso3166_1_alpha_2" v="BI"/>
    <tag k="geonames:id" v="433561"/>
    <tag k="int_name" v="Burundi"/>
    <tag k="is_in:continent" v="Africa"/>
    <tag k="name" v="Burundi"/>
    <tag k="name:ar" v="بوروندي"/>
    <tag k="name:cy" v="Bwrwndi"/>
    <tag k="name:da" v="Burundi"/>
    <tag k="name:en" v="Burundi"/>
    <tag k="name:eo" v="Burundo"/>
    <tag k="name:he" v="בורונדי"/>
    <tag k="name:hu" v="Burundi"/>
    <tag k="name:zh" v="布隆迪"/>
    <tag k="name:zh_py" v="Bulongdi"/>
    <tag k="name:zh_pyt" v="Bùlóngdí"/>
    <tag k="place" v="country"/>
    <tag k="watch:hakan" v="countries"/>
  </node>
  <node id="432424952" version="2" timestamp="2009-07-22T18:59:56Z" uid="123700" user="Mala" changeset="1908128" lat="13.5065805" lon="104.8695042">
    <tag k="country_code_fips" v="CB"/>
    <tag k="country_code_iso3166_1_alpha_2" v="KH"/>
    <tag k="geonames:id" v="1831722"/>
    <tag k="int_name" v="Cambodia"/>
    <tag k="is_in:continent" v="Asia"/>
    <tag k="name" v="Cambodia"/>
    <tag k="name:ar" v="كمبوديا"/>
    <tag k="name:da" v="Cambodja"/>
    <tag k="name:de" v="Kambodscha"/>
    <tag k="name:en" v="Cambodia"/>
    <tag k="name:eo" v="Kamboĝo"/>
    <tag k="name:fi" v="Kambodža"/>
    <tag k="name:he" v="קמבודיה"/>
    <tag k="name:hu" v="Kambodzsa"/>
    <tag k="name:it" v="Cambogia"/>
    <tag k="name:pl" v="Kambodża"/>
    <tag k="name:zh" v="高棉"/>
    <tag k="name:zh_py" v="Gaomian"/>
    <tag k="name:zh_pyt" v="Gāomián"/>
    <tag k="official_name:it" v="Regno di Cambogia"/>
    <tag k="official_name:pl" v="Królestwo Kambodży"/>
    <tag k="place" v="country"/>
    <tag k="watch:hakan" v="countries"/>
  </node>
  <node id="432424952" version="3" timestamp="2009-07-22T20:51:11Z" uid="123700" user="Mala" changeset="1909234" lat="13.5065805" lon="104.8695042">
    <tag k="country_code_fips" v="CB"/>
    <tag k="country_code_iso3166_1_alpha_2" v="KH"/>
    <tag k="geonames:id" v="1831722"/>
    <tag k="int_name" v="Cambodia"/>
    <tag k="is_in:continent" v="Asia"/>
    <tag k="name" v="Cambodia"/>
    <tag k="name:ar" v="كمبوديا"/>
    <tag k="name:da" v="Cambodja"/>
    <tag k="name:de" v="Kambodscha"/>
    <tag k="name:en" v="Cambodia"/>
    <tag k="name:eo" v="Kamboĝo"/>
    <tag k="name:fi" v="Kambodža"/>
    <tag k="name:he" v="קמבודיה"/>
    <tag k="name:hu" v="Kambodzsa"/>
    <tag k="name:it" v="Cambogia"/>
    <tag k="name:pl" v="Kambodża"/>
    <tag k="name:zh" v="高棉"/>
    <tag k="name:zh_py" v="Gaomian"/>
    <tag k="name:zh_pyt" v="Gāomián"/>
    <tag k="official_name:it" v="Regno di Cambogia"/>
    <tag k="official_name:pl" v="Królestwo Kambodży"/>
    <tag k="place" v="country"/>
    <tag k="watch:hakan" v="countries"/>
    <tag k="wikipedia" v="Cambodia"/>
  </node>
  <node id="432424953" version="2" timestamp="2009-07-23T23:49:43Z" uid="123700" user="Mala" changeset="1920545" lat="4.6125069" lon="13.1536428">
    <tag k="country_code_fips" v="CM"/>
    <tag k="country_code_iso3166_1_alpha_2" v="CM"/>
    <tag k="geonames:id" v="2233387"/>
    <tag k="int_name" v="Cameroon"/>
    <tag k="is_in:continent" v="Africa"/>
    <tag k="name" v="Cameroon"/>
    <tag k="name:ar" v="الكاميرون"/>
    <tag k="name:cy" v="Camerŵn"/>
    <tag k="name:da" v="Cameroun"/>
    <tag k="name:de" v="Kamerun"/>
    <tag k="name:en" v="Cameroon"/>
    <tag k="name:eo" v="Kameruno"/>
    <tag k="name:fi" v="Kamerun"/>
    <tag k="name:he" v="קמרון"/>
    <tag k="name:hu" v="Kamerun"/>
    <tag k="name:zh" v="喀麦隆"/>
    <tag k="name:zh_py" v="Kamailong"/>
    <tag k="name:zh_pyt" v="Kāmàilóng"/>
    <tag k="place" v="country"/>
    <tag k="watch:hakan" v="countries"/>
  </node>
  <node id="432424954" version="2" timestamp="2009-07-23T00:14:47Z" uid="123700" user="Mala" changeset="1910307" lat="61.0666667" lon="-107.9916667">
    <tag k="country_code_fips" v="CA"/>
    <tag k="country_code_iso3166_1_alpha_2" v="CA"/>
    <tag k="geonames:id" v="6251999"/>
    <tag k="int_name" v="Canada"/>
    <tag k="is_in:continent" v="North America"/>
    <tag k="name" v="Canada"/>
    <tag k="name:ar" v="كندا"/>
    <tag k="name:da" v="Canada"/>
    <tag k="name:de" v="Kanada"/>
    <tag k="name:en" v="Canada"/>
    <tag k="name:eo" v="Kanado"/>
    <tag k="name:fi" v="Kanada"/>
    <tag k="name:he" v="קנדה"/>
    <tag k="name:hu" v="Kanada"/>
    <tag k="name:zh" v="加拿大"/>
    <tag k="name:zh_py" v="Jianada"/>
    <tag k="name:zh_pyt" v="Jiānádà"/>
    <tag k="place" v="country"/>
    <tag k="watch:hakan" v="countries"/>
  </node>
  <node id="432424955" version="2" timestamp="2009-07-23T00:20:31Z" uid="20587" user="balrog-kun" changeset="1910333" lat="16" lon="-24.0083334">
    <tag k="capital_city" v="Praia"/>
    <tag k="country_code_fips" v="CV"/>
    <tag k="country_code_iso3166_1_alpha_2" v="CV"/>
    <tag k="geonames:id" v="3374766"/>
    <tag k="int_name" v="Cape Verde"/>
    <tag k="is_in:continent" v="Africa"/>
    <tag k="is_in:ocean" v="Atlantic"/>
    <tag k="name" v="Cape Verde"/>
    <tag k="name:ar" v="الرأس الأخضر"/>
    <tag k="name:cy" v="Cabo Verde"/>
    <tag k="name:da" v="Kap Verde"/>
    <tag k="name:en" v="Cape Verde"/>
    <tag k="name:eo" v="Kabo-Verdo"/>
    <tag k="name:fi" v="Kap Verde"/>
    <tag k="name:hu" v="Zöld-Fok"/>
    <tag k="place" v="country"/>
    <tag k="watch:hakan" v="countries"/>
  </node>
  <node id="432424956" version="2" timestamp="2009-07-23T23:49:28Z" uid="123700" user="Mala" changeset="1920545" lat="5.4916667" lon="20.425">
    <tag k="capital_city" v="Bangui"/>
    <tag k="country_code_fips" v="CT"/>
    <tag k="country_code_iso3166_1_alpha_2" v="CF"/>
    <tag k="geonames:id" v="239880"/>
    <tag k="int_name" v="Central African Republic"/>
    <tag k="is_in:continent" v="Africa"/>
    <tag k="name" v="Republique Centrafricaine"/>
    <tag k="name:ar" v="جمهورية أفريقيا الوسطى"/>
    <tag k="name:cy" v="Gweriniaeth Canolbarth Affrica"/>
    <tag k="name:da" v="Centralafrikanske Republik"/>
    <tag k="name:en" v="Central African Republic"/>
    <tag k="name:eo" v="Centr-Afrika Respubliko"/>
    <tag k="name:es" v="República Centroafricana"/>
    <tag k="name:fr" v="République centrafricaine"/>
    <tag k="name:hu" v="Közép-Afrikai Köztarsaság"/>
    <tag k="name:it" v="Repubblica Centrafricana"/>
    <tag k="name:pl" v="Republika Środkowoafrykańska"/>
    <tag k="name:zh" v="中非"/>
    <tag k="name:zh_py" v="Zhong Fei"/>
    <tag k="name:zh_pyt" v="Zhōng Fēi"/>
    <tag k="place" v="country"/>
    <tag k="watch:hakan" v="countries"/>
    <tag k="wikipedia" v="Central African Republic"/>
  </node>
  <node id="432424957" version="2" timestamp="2009-07-23T10:45:35Z" uid="123700" user="Mala" changeset="1914232" lat="16.6403646" lon="17.5278888">
    <tag k="country_code_fips" v="CD"/>
    <tag k="country_code_iso3166_1_alpha_2" v="TD"/>
    <tag k="int_name" v="Chad"/>
    <tag k="is_in:continent" v="Africa"/>
    <tag k="name" v="Chad"/>
    <tag k="name:ar" v="تشاد"/>
    <tag k="name:cy" v="Tchad"/>
    <tag k="name:da" v="Tchad"/>
    <tag k="name:de" v="Tschad"/>
    <tag k="name:en" v="Chad"/>
    <tag k="name:eo" v="Ĉado"/>
    <tag k="name:fi" v="Tšad"/>
    <tag k="name:he" v="צ&amp;apos;אד"/>
    <tag k="name:hu" v="Csád"/>
    <tag k="name:zh" v="乍得"/>
    <tag k="name:zh_py" v="Zhade"/>
    <tag k="name:zh_pyt" v="Zhàdé"/>
    <tag k="place" v="country"/>
  </node>
  <node id="432424958" version="2" timestamp="2009-07-23T01:41:11Z" uid="20587" user="balrog-kun" changeset="1910614" lat="-31.7613461" lon="-71.3198939">
    <tag k="country_code_fips" v="CI"/>
    <tag k="country_code_iso3166_1_alpha_2" v="CL"/>
    <tag k="geonames:id" v="3895114"/>
    <tag k="int_name" v="Chile"/>
    <tag k="is_in:continent" v="South America"/>
    <tag k="name" v="Chile"/>
    <tag k="name:ar" v="شيلي"/>
    <tag k="name:da" v="Chile"/>
    <tag k="name:en" v="Chile"/>
    <tag k="name:eo" v="Ĉilio"/>
    <tag k="name:he" v="צילה"/>
    <tag k="name:hu" v="Chile"/>
    <tag k="place" v="country"/>
    <tag k="watch:hakan" v="countries"/>
  </node>
  <node id="432424959" version="2" timestamp="2009-07-22T18:08:50Z" uid="123700" user="Mala" changeset="1907555" lat="35.0000046" lon="104.9999916">
    <tag k="capital_city" v="Beijing"/>
    <tag k="country_code_fips" v="CH"/>
    <tag k="country_code_iso3166_1_alpha_2" v="CN"/>
    <tag k="gns:ADM1" v="00"/>
    <tag k="gns:DSG" v="PCLI"/>
    <tag k="gns:UFI" v="-1900673"/>
    <tag k="gns:UNI" v="-2618136"/>
    <tag k="int_name" v="China"/>
    <tag k="is_in:continent" v="Asia"/>
    <tag k="name" v="China 中国"/>
    <tag k="name:ar" v="الصين"/>
    <tag k="name:cy" v="Tsieina"/>
    <tag k="name:da" v="Kina"/>
    <tag k="name:de" v="China"/>
    <tag k="name:en" v="China"/>
    <tag k="name:eo" v="Ĉinio"/>
    <tag k="name:fi" v="Kiina"/>
    <tag k="name:he" v="סין"/>
    <tag k="name:hu" v="Kína"/>
    <tag k="name:pl" v="Chiny"/>
    <tag k="name:zh" v="中国"/>
    <tag k="name:zh_py" v="Zhongguo"/>
    <tag k="name:zh_pyt" v="Zhōngguó"/>
    <tag k="official_name" v="中华人民共和国"/>
    <tag k="official_name:en" v="People&amp;apos;s Republic of China"/>
    <tag k="official_name:it" v="Repubblica Popolare Cinese"/>
    <tag k="official_name:pl" v="Chińska Republika Ludowa"/>
    <tag k="official_name:zh_py" v="Zhonghua Renmin Gongheguo"/>
    <tag k="official_name:zh_pyt" v="Zhōnghuá Rénmín Gònghéguó"/>
    <tag k="place" v="country"/>
    <tag k="population" v="1300000000"/>
  </node>
  <node id="432424960" version="2" timestamp="2009-07-23T01:41:03Z" uid="20587" user="balrog-kun" changeset="1910614" lat="4.1662894" lon="-73.4492894">
    <tag k="country_code_fips" v="CO"/>
    <tag k="country_code_iso3166_1_alpha_2" v="CO"/>
    <tag k="created_by" v="Potlatch 0.10f"/>
    <tag k="int_name" v="Colombia"/>
    <tag k="is_in:continent" v="South America"/>
    <tag k="name" v="Colombia"/>
    <tag k="name:ar" v="كولومبيا"/>
    <tag k="name:da" v="Colombia"/>
    <tag k="name:de" v="Kolumbien"/>
    <tag k="name:en" v="Colombia"/>
    <tag k="name:fr" v="Colombie"/>
    <tag k="name:he" v="קולומביה"/>
    <tag k="name:ja" v="コロンビア"/>
    <tag k="name:la" v="Columbia"/>
    <tag k="name:pt" v="Colômbia"/>
    <tag k="official_name" v="Republic of Colombia"/>
    <tag k="official_name:es" v="República de Colombia"/>
    <tag k="place" v="country"/>
    <tag k="population" v="44050548"/>
  </node>
  <node id="432424963" version="2" timestamp="2009-07-23T00:14:41Z" uid="123700" user="Mala" changeset="1910307" lat="10.2735332" lon="-84.07388">
    <tag k="country_code_fips" v="CS"/>
    <tag k="country_code_iso3166_1_alpha_2" v="CR"/>
    <tag k="geonames:id" v="3624060"/>
    <tag k="int_name" v="Costa Rica"/>
    <tag k="is_in:continent" v="North America"/>
    <tag k="name" v="Costa Rica"/>
    <tag k="name:ar" v="كوستاريكا"/>
    <tag k="name:da" v="Costa Rica"/>
    <tag k="name:en" v="Costa Rica"/>
    <tag k="name:eo" v="Kostariko"/>
    <tag k="name:he" v="קוסטה ריקה"/>
    <tag k="name:hu" v="Costa Rica"/>
    <tag k="place" v="country"/>
    <tag k="watch:hakan" v="countries"/>
  </node>
  <node id="432424964" version="2" timestamp="2009-07-22T19:11:31Z" uid="20587" user="balrog-kun" changeset="1908268" lat="45.6729877" lon="16.75883">
    <tag k="country_code_fips" v="HR"/>
    <tag k="country_code_iso3166_1_alpha_2" v="HR"/>
    <tag k="geonames:id" v="3202326"/>
    <tag k="int_name" v="Croatia"/>
    <tag k="is_in:continent" v="Europe"/>
    <tag k="name" v="Hrvatska"/>
    <tag k="name:ar" v="كرواتيا"/>
    <tag k="name:da" v="Kroatien"/>
    <tag k="name:en" v="Croatia"/>
    <tag k="name:eo" v="Kroatio"/>
    <tag k="name:fi" v="Kroatia"/>
    <tag k="name:he" v="קרואטיה"/>
    <tag k="name:hu" v="Horvátország"/>
    <tag k="name:zh" v="克罗地亚"/>
    <tag k="name:zh_py" v="Keluodiya"/>
    <tag k="name:zh_pyt" v="Kèluódìyà"/>
    <tag k="place" v="country"/>
    <tag k="watch:hakan" v="countries"/>
  </node>
  <node id="432424965" version="2" timestamp="2009-07-23T01:02:53Z" uid="123700" user="Mala" changeset="1910504" lat="22.1217469" lon="-81.8707403">
    <tag k="country_code_fips" v="CU"/>
    <tag k="country_code_iso3166_1_alpha_2" v="CU"/>
    <tag k="geonames:id" v="3562981"/>
    <tag k="int_name" v="Cuba"/>
    <tag k="is_in:continent" v="North America"/>
    <tag k="name" v="Cuba"/>
    <tag k="name:ar" v="كوبا"/>
    <tag k="name:da" v="Cuba"/>
    <tag k="name:en" v="Cuba"/>
    <tag k="name:eo" v="Kubo"/>
    <tag k="name:fi" v="Kuuba"/>
    <tag k="name:he" v="קובה"/>
    <tag k="name:hu" v="Kuba"/>
    <tag k="place" v="country"/>
    <tag k="watch:hakan" v="countries"/>
  </node>
  <node id="432424966" version="2" timestamp="2009-07-23T00:20:37Z" uid="20587" user="balrog-kun" changeset="1910333" lat="34.982258" lon="33.1451644">
    <tag k="country_code_iso3166_1_alpha_2" v="CY"/>
    <tag k="is_in:continent" v="Europe"/>
    <tag k="name" v="Cyprus"/>
    <tag k="name:ar" v="قبرص"/>
    <tag k="name:da" v="Cypern"/>
    <tag k="name:de" v="Zypern"/>
    <tag k="name:el" v="Κύπρος"/>
    <tag k="name:en" v="Cyprus"/>
    <tag k="name:eo" v="Kipro"/>
    <tag k="name:fi" v="Kypros"/>
    <tag k="name:fr" v="Chypre"/>
    <tag k="name:he" v="קפריסין"/>
    <tag k="name:hu" v="Ciprus"/>
    <tag k="name:pl" v="Cypr"/>
    <tag k="name:sl" v="Ciper"/>
    <tag k="name:tr" v="Kibris"/>
    <tag k="name:zh" v="塞浦路斯"/>
    <tag k="name:zh_py" v="Saipulusi"/>
    <tag k="name:zh_pyt" v="Sàipǔlùsī"/>
    <tag k="place" v="country"/>
  </node>
  <node id="432424967" version="2" timestamp="2009-07-22T19:11:30Z" uid="20587" user="balrog-kun" changeset="1908268" lat="49.8166667" lon="15.475">
    <tag k="country_code_fips" v="EZ"/>
    <tag k="country_code_iso3166_1_alpha_2" v="CZ"/>
    <tag k="geonames:id" v="3077311"/>
    <tag k="int_name" v="Czech Republic"/>
    <tag k="is_in:continent" v="Europe"/>
    <tag k="name" v="Česká republika"/>
    <tag k="name:ar" v="الجمهورية التشيكية"/>
    <tag k="name:cy" v="Gweriniaeth Tsiec"/>
    <tag k="name:cz" v="Česká republika"/>
    <tag k="name:da" v="Tjekkiet"/>
    <tag k="name:de" v="Tschechien"/>
    <tag k="name:en" v="Czech Republic"/>
    <tag k="name:eo" v="Ĉeĥio"/>
    <tag k="name:es" v="República Checa"/>
    <tag k="name:fi" v="Tšekki"/>
    <tag k="name:fr" v="République tchèque"/>
    <tag k="name:he" v="צכיה"/>
    <tag k="name:hu" v="Csehország"/>
    <tag k="name:zh" v="捷克"/>
    <tag k="name:zh_py" v="Jieke"/>
    <tag k="name:zh_pyt" v="Jiékè"/>
    <tag k="place" v="country"/>
    <tag k="watch:hakan" v="countries"/>
  </node>
  <node id="432424969" version="2" timestamp="2009-07-23T11:59:10Z" uid="123700" user="Mala" changeset="1914917" lat="12.0199999" lon="42.6">
    <tag k="country_code_fips" v="DJ"/>
    <tag k="country_code_iso3166_1_alpha_2" v="DJ"/>
    <tag k="geonames:id" v="223816"/>
    <tag k="int_name" v="Djibouti"/>
    <tag k="is_in:continent" v="Africa"/>
    <tag k="name" v="Djibouti"/>
    <tag k="name:ar" v="جيبوتي"/>
    <tag k="name:da" v="Djibouti"/>
    <tag k="name:de" v="Dschibuti"/>
    <tag k="name:en" v="Djibouti"/>
    <tag k="name:eo" v="Ĝibutio"/>
    <tag k="name:fi" v="Djibouti"/>
    <tag k="name:he" v="ג&amp;apos;יבוטי"/>
    <tag k="name:hu" v="Dzsibuti"/>
    <tag k="name:zh" v="吉布提"/>
    <tag k="name:zh_py" v="Jibuti"/>
    <tag k="name:zh_pyt" v="Jíbùtí"/>
    <tag k="official_name" v="Republic of Djibouti"/>
    <tag k="place" v="country"/>
    <tag k="population" v="496373"/>
    <tag k="watch:hakan" v="countries"/>
  </node>
  <node id="432424970" version="2" timestamp="2009-07-23T02:17:06Z" uid="123700" user="Mala" changeset="1910715" lat="15.4112636" lon="-61.3653297">
    <tag k="country_code_fips" v="DO"/>
    <tag k="country_code_iso3166_1_alpha_2" v="DM"/>
    <tag k="geonames:id" v="3575830"/>
    <tag k="int_name" v="Dominica"/>
    <tag k="is_in:continent" v="North America"/>
    <tag k="is_in:sea" v="Caribbean Sea"/>
    <tag k="name" v="Dominica"/>
    <tag k="name:ar" v="دومينيكا"/>
    <tag k="name:da" v="Dominica"/>
    <tag k="name:en" v="Dominica"/>
    <tag k="name:eo" v="Dominiko"/>
    <tag k="name:hu" v="Dominikai Közösség"/>
    <tag k="place" v="country"/>
    <tag k="watch:hakan" v="countries"/>
  </node>
  <node id="432424971" version="2" timestamp="2009-07-23T01:02:50Z" uid="123700" user="Mala" changeset="1910504" lat="19.0941392" lon="-70.3012329">
    <tag k="country_code_fips" v="DR"/>
    <tag k="country_code_iso3166_1_alpha_2" v="DO"/>
    <tag k="de:name" v="Dominikanische Republik"/>
    <tag k="is_in:continent" v="North America"/>
    <tag k="is_in:sea" v="Caribbean Sea"/>
    <tag k="name" v="Dominican Republic"/>
    <tag k="name:ar" v="الجمهورية الدومينيكية"/>
    <tag k="name:cy" v="Gweriniaeth Dominica"/>
    <tag k="name:da" v="Dominikanske Republik"/>
    <tag k="name:de" v="Dominikanische Republik"/>
    <tag k="name:do" v="República Dominicána"/>
    <tag k="name:eo" v="Domingo"/>
    <tag k="name:he" v="דומיניק"/>
    <tag k="name:hu" v="Dominikai Köztársaság"/>
    <tag k="place" v="country"/>
  </node>
  <node id="432424972" version="2" timestamp="2009-07-22T20:51:12Z" uid="123700" user="Mala" changeset="1909234" lat="-8.5152777" lon="125.8376389">
    <tag k="alt_name" v="East Timor"/>
    <tag k="capital_city" v="Dili"/>
    <tag k="country_code_fips" v="TT"/>
    <tag k="country_code_iso3166_1_alpha_2" v="TL"/>
    <tag k="int_name" v="Timor-Leste"/>
    <tag k="is_in:archipelago" v="Lesser Sunda Islands"/>
    <tag k="is_in:continent" v="Asia"/>
    <tag k="name" v="Timor-Leste"/>
    <tag k="name:ar" v="جمهورية تيمور"/>
    <tag k="name:da" v="Østtimor"/>
    <tag k="name:en" v="Timor-Leste"/>
    <tag k="name:eo" v="Orienta Timoro"/>
    <tag k="name:hu" v="Kelet-Timor"/>
    <tag k="name:it" v="Timor Est"/>
    <tag k="name:pl" v="Timor Wschodni"/>
    <tag k="official_name:en" v="Democratic Republic of Timor-Leste"/>
    <tag k="official_name:pl" v="Demokratyczna Republika Timoru Wschodniego"/>
    <tag k="place" v="country"/>
    <tag k="population" v="1115000"/>
    <tag k="wikipedia" v="East Timor"/>
  </node>
  <node id="432424973" version="2" timestamp="2009-07-23T01:41:04Z" uid="20587" user="balrog-kun" changeset="1910614" lat="-1.3398086" lon="-79.366648">
    <tag k="capital_city" v="Quito"/>
    <tag k="country_code_fips" v="EC"/>
    <tag k="country_code_iso3166_1_alpha_2" v="EC"/>
    <tag k="geonames:id" v="3658394"/>
    <tag k="gns_classification" v="PCLI"/>
    <tag k="gns_uni" v="-1371330"/>
    <tag k="int_name" v="Ecuador"/>
    <tag k="is_in:continent" v="South America"/>
    <tag k="name" v="Ecuador"/>
    <tag k="name:ar" v="إكوادور"/>
    <tag k="name:da" v="Ecuador"/>
    <tag k="name:de" v="Ekuador"/>
    <tag k="name:en" v="Ecuador"/>
    <tag k="name:eo" v="Ekvadoro"/>
    <tag k="name:he" v="אקואדור"/>
    <tag k="name:hu" v="Ecuador"/>
    <tag k="official_name" v="Republic of Ecuador"/>
    <tag k="official_name:es" v="República del Ecuador"/>
    <tag k="place" v="country"/>
    <tag k="population" v="13755680"/>
    <tag k="source" v="GNS"/>
    <tag k="watch:hakan" v="countries"/>
  </node>
  <node id="432424974" version="2" timestamp="2009-07-23T10:45:43Z" uid="123700" user="Mala" changeset="1914232" lat="26.2540097" lon="29.2675781">
    <tag k="capital_city" v="Cairo"/>
    <tag k="country_code_fips" v="EG"/>
    <tag k="country_code_iso3166_1_alpha_2" v="EG"/>
    <tag k="geonames:id" v="357994"/>
    <tag k="int_name" v="Egypt"/>
    <tag k="is_in:continent" v="Africa"/>
    <tag k="name" v="Egypt"/>
    <tag k="name:ar" v="مصر"/>
    <tag k="name:cy" v="Yr Aifft"/>
    <tag k="name:da" v="Egypten"/>
    <tag k="name:de" v="Ägypten"/>
    <tag k="name:en" v="Egypt"/>
    <tag k="name:eo" v="Egiptio"/>
    <tag k="name:fi" v="Egypti"/>
    <tag k="name:he" v="מצריים"/>
    <tag k="name:hu" v="Egyiptom"/>
    <tag k="name:zh" v="埃及"/>
    <tag k="name:zh_py" v="Aiji"/>
    <tag k="name:zh_pyt" v="Āijí"/>
    <tag k="place" v="country"/>
    <tag k="watch:hakan" v="countries"/>
  </node>
  <node id="432424975" version="2" timestamp="2009-07-23T00:14:43Z" uid="123700" user="Mala" changeset="1910307" lat="13.8" lon="-88.9140278">
    <tag k="country_code_fips" v="ES"/>
    <tag k="country_code_iso3166_1_alpha_2" v="SV"/>
    <tag k="int_name" v="El Salvador"/>
    <tag k="is_in:continent" v="North America"/>
    <tag k="name" v="El Salvador"/>
    <tag k="name:ar" v="السلفادور"/>
    <tag k="name:da" v="El Salvador"/>
    <tag k="name:en" v="El Salvador"/>
    <tag k="name:eo" v="Salvadoro"/>
    <tag k="name:he" v="אל סלבדור"/>
    <tag k="name:hu" v="El Salvador"/>
    <tag k="place" v="country"/>
  </node>
  <node id="432424977" version="2" timestamp="2009-07-23T11:59:16Z" uid="123700" user="Mala" changeset="1914917" lat="15.95" lon="37.9999999">
    <tag k="country_code_fips" v="ER"/>
    <tag k="country_code_iso3166_1_alpha_2" v="ER"/>
    <tag k="geonames:id" v="338010"/>
    <tag k="int_name" v="Eritrea"/>
    <tag k="is_in:continent" v="Africa"/>
    <tag k="name" v="Eritrea"/>
    <tag k="name:ar" v="إريتريا"/>
    <tag k="name:da" v="Eritrea"/>
    <tag k="name:en" v="Eritrea"/>
    <tag k="name:eo" v="Eritreo"/>
    <tag k="name:fi" v="Eritrea"/>
    <tag k="name:he" v="אריתריאה"/>
    <tag k="name:hu" v="Eritrea"/>
    <tag k="name:zh" v="厄立特里亚"/>
    <tag k="name:zh_py" v="Eliteliya"/>
    <tag k="name:zh_pyt" v="Èlìtèlǐyà"/>
    <tag k="place" v="country"/>
    <tag k="watch:hakan" v="countries"/>
  </node>
  <node id="432424978" version="2" timestamp="2009-07-22T19:59:05Z" uid="20587" user="balrog-kun" changeset="1908820" lat="58.7523611" lon="25.3319445">
    <tag k="country_code_fips" v="EN"/>
    <tag k="country_code_iso3166_1_alpha_2" v="EE"/>
    <tag k="geonames:id" v="453733"/>
    <tag k="int_name" v="Estonia"/>
    <tag k="is_in:continent" v="Europe"/>
    <tag k="name" v="Eesti"/>
    <tag k="name:ar" v="إستونيا"/>
    <tag k="name:da" v="Estland"/>
    <tag k="name:de" v="Estland"/>
    <tag k="name:en" v="Estonia"/>
    <tag k="name:eo" v="Estonio"/>
    <tag k="name:fi" v="Viro"/>
    <tag k="name:fr" v="Estonie"/>
    <tag k="name:he" v="אסטוניה"/>
    <tag k="name:hu" v="Észtország"/>
    <tag k="name:zh" v="爱沙尼亚"/>
    <tag k="name:zh_py" v="Aishaniya"/>
    <tag k="name:zh_pyt" v="Àishāníyà"/>
    <tag k="place" v="country"/>
    <tag k="watch:hakan" v="countries"/>
  </node>
  <node id="432424979" version="2" timestamp="2009-07-23T11:59:12Z" uid="123700" user="Mala" changeset="1914917" lat="11.1166619" lon="40.4000036">
    <tag k="country_code_fips" v="ET"/>
    <tag k="country_code_iso3166_1_alpha_2" v="ET"/>
    <tag k="geonames:id" v="337996"/>
    <tag k="int_name" v="Ethiopia"/>
    <tag k="is_in:continent" v="Africa"/>
    <tag k="name" v="Ethiopia"/>
    <tag k="name:am" v="ኢትዮጵያ"/>
    <tag k="name:ar" v="إثيوبيا"/>
    <tag k="name:da" v="Etiopien"/>
    <tag k="name:de" v="Äthiopien"/>
    <tag k="name:en" v="Ethiopia"/>
    <tag k="name:eo" v="Etiopio"/>
    <tag k="name:fi" v="Etiopia"/>
    <tag k="name:he" v="אתיופיה"/>
    <tag k="name:hu" v="Etiópia"/>
    <tag k="name:zh" v="埃塞俄比亚"/>
    <tag k="name:zh_py" v="Aisaiebiya"/>
    <tag k="name:zh_pyt" v="Āisàiébǐyà"/>
    <tag k="official_name" v="Federal Democratic Republic of Ethiopia"/>
    <tag k="old_name" v="Abyssinia"/>
    <tag k="place" v="country"/>
    <tag k="population" v="78254090"/>
    <tag k="watch:hakan" v="countries"/>
  </node>
  <node id="432424980" version="2" timestamp="2009-07-23T23:33:38Z" uid="20587" user="balrog-kun" changeset="1920502" lat="-18.1240122" lon="179.0123269">
    <tag k="country_code_fips" v="FJ"/>
    <tag k="country_code_iso3166_1_alpha_2" v="FJ"/>
    <tag k="geonames:id" v="2205218"/>
    <tag k="int_name" v="Fiji"/>
    <tag k="is_in:ocean" v="Pacific"/>
    <tag k="name" v="Fiji"/>
    <tag k="name:ar" v="فيجي"/>
    <tag k="name:da" v="Fiji"/>
    <tag k="name:en" v="Fiji"/>
    <tag k="name:eo" v="Fiĝioj"/>
    <tag k="name:fi" v="Fidži"/>
    <tag k="name:he" v="פיג&amp;apos;י"/>
    <tag k="name:hu" v="Fidzsi-szigetek"/>
    <tag k="place" v="country"/>
    <tag k="watch:hakan" v="countries"/>
  </node>
  <node id="432424983" version="2" timestamp="2009-07-23T23:49:44Z" uid="123700" user="Mala" changeset="1920545" lat="-0.9" lon="11.69">
    <tag k="country_code_fips" v="GB"/>
    <tag k="country_code_iso3166_1_alpha_2" v="GA"/>
    <tag k="geonames:id" v="2400553"/>
    <tag k="int_name" v="Gabon"/>
    <tag k="is_in:continent" v="Africa"/>
    <tag k="name" v="Gabon"/>
    <tag k="name:ar" v="غابون"/>
    <tag k="name:da" v="Gabon"/>
    <tag k="name:en" v="Gabon"/>
    <tag k="name:eo" v="Gabono"/>
    <tag k="name:he" v="גבון"/>
    <tag k="name:hu" v="Gabon"/>
    <tag k="name:zh" v="加蓬"/>
    <tag k="name:zh_py" v="Jiapeng"/>
    <tag k="name:zh_pyt" v="Jiāpéng"/>
    <tag k="place" v="country"/>
    <tag k="watch:hakan" v="countries"/>
  </node>
  <node id="432424984" version="2" timestamp="2009-07-23T23:49:33Z" uid="123700" user="Mala" changeset="1920545" lat="13.47" lon="-15.49">
    <tag k="country_code_fips" v="GA"/>
    <tag k="country_code_iso3166_1_alpha_2" v="GM"/>
    <tag k="geonames:id" v="2413451"/>
    <tag k="int_name" v="Gambia"/>
    <tag k="is_in:continent" v="Africa"/>
    <tag k="name" v="Gambia"/>
    <tag k="name:ar" v="غامبيا"/>
    <tag k="name:cy" v="Y Gambia"/>
    <tag k="name:da" v="Gambia"/>
    <tag k="name:de" v="Gambia"/>
    <tag k="name:en" v="Gambia"/>
    <tag k="name:eo" v="Gambio"/>
    <tag k="name:he" v="גמביה"/>
    <tag k="name:hu" v="Gambia"/>
    <tag k="name:zh" v="冈比亚"/>
    <tag k="name:zh_py" v="Gangbiya"/>
    <tag k="name:zh_pyt" v="Gāngbǐyà"/>
    <tag k="place" v="country"/>
    <tag k="watch:hakan" v="countries"/>
    <tag k="wikipedia" v="The Gambia"/>
  </node>
  <node id="432424985" version="2" timestamp="2009-07-22T20:51:16Z" uid="123700" user="Mala" changeset="1909234" lat="42.3525002" lon="43.3379086">
    <tag k="capital_city" v="Tbilisi"/>
    <tag k="country_code_fips" v="GG"/>
    <tag k="country_code_iso3166_1_alpha_2" v="GE"/>
    <tag k="geonames:id" v="614540"/>
    <tag k="int_name" v="Georgia"/>
    <tag k="is_in:continent" v="Europe"/>
    <tag k="name" v="საქართველო"/>
    <tag k="name:ar" v="جورجيا"/>
    <tag k="name:da" v="Georgien"/>
    <tag k="name:de" v="Georgien"/>
    <tag k="name:en" v="Georgia"/>
    <tag k="name:eo" v="Kartvelio"/>
    <tag k="name:fi" v="Georgia"/>
    <tag k="name:he" v="גיאורגיה"/>
    <tag k="name:hu" v="Grúzia"/>
    <tag k="name:it" v="Georgia"/>
    <tag k="name:ka" v="საქართველო"/>
    <tag k="name:pl" v="Gruzja"/>
    <tag k="name:zh" v="乔治亚"/>
    <tag k="name:zh_py" v="Qiaozhiya"/>
    <tag k="name:zh_pyt" v="Qiáozhìyà"/>
    <tag k="place" v="country"/>
    <tag k="population" v="4630841"/>
    <tag k="watch:hakan" v="countries"/>
    <tag k="wikipedia" v="Georgia (country)"/>
    <tag k="wikipedia:en" v="Georgia_(country)"/>
  </node>
  <node id="432424987" version="2" timestamp="2009-07-23T23:49:40Z" uid="123700" user="Mala" changeset="1920545" lat="8.03" lon="-1.0799999">
    <tag k="country_code_fips" v="GH"/>
    <tag k="country_code_iso3166_1_alpha_2" v="GH"/>
    <tag k="geonames:id" v="2300660"/>
    <tag k="int_name" v="Ghana"/>
    <tag k="is_in:continent" v="Africa"/>
    <tag k="name" v="Ghana"/>
    <tag k="name:ar" v="غانا"/>
    <tag k="name:da" v="Ghana"/>
    <tag k="name:en" v="Ghana"/>
    <tag k="name:eo" v="Ganao"/>
    <tag k="name:he" v="גאנה"/>
    <tag k="name:hu" v="Ghána"/>
    <tag k="name:zh" v="加纳"/>
    <tag k="name:zh_py" v="Jiana"/>
    <tag k="name:zh_pyt" v="Jiānà"/>
    <tag k="place" v="country"/>
    <tag k="watch:hakan" v="countries"/>
  </node>
  <node id="432424990" version="2" timestamp="2009-07-23T02:17:02Z" uid="123700" user="Mala" changeset="1910715" lat="12.1360041" lon="-61.6903814">
    <tag k="country_code_fips" v="GJ"/>
    <tag k="country_code_iso3166_1_alpha_2" v="GD"/>
    <tag k="geonames:id" v="3580239"/>
    <tag k="int_name" v="Grenada"/>
    <tag k="is_in:continent" v="North America"/>
    <tag k="is_in:sea" v="Caribbean Sea"/>
    <tag k="name" v="Grenada"/>
    <tag k="name:ar" v="غرينادا"/>
    <tag k="name:da" v="Grenada"/>
    <tag k="name:en" v="Grenada"/>
    <tag k="name:eo" v="Grenado"/>
    <tag k="name:he" v="גרנדה"/>
    <tag k="name:hu" v="Grenada"/>
    <tag k="place" v="country"/>
    <tag k="watch:hakan" v="countries"/>
  </node>
  <node id="432424991" version="2" timestamp="2009-07-23T00:14:43Z" uid="123700" user="Mala" changeset="1910307" lat="15.132844" lon="-90.2877684">
    <tag k="country_code_fips" v="GT"/>
    <tag k="country_code_iso3166_1_alpha_2" v="GT"/>
    <tag k="geonames:id" v="3595528"/>
    <tag k="int_name" v="Guatemala"/>
    <tag k="is_in:continent" v="North America"/>
    <tag k="name" v="Guatemala"/>
    <tag k="name:ar" v="غواتيمالا"/>
    <tag k="name:da" v="Guatemala"/>
    <tag k="name:en" v="Guatemala"/>
    <tag k="name:eo" v="Gvatemalo"/>
    <tag k="name:he" v="גואטמלה"/>
    <tag k="name:hu" v="Guatemala"/>
    <tag k="place" v="country"/>
    <tag k="watch:hakan" v="countries"/>
  </node>
  <node id="432424992" version="2" timestamp="2009-07-23T23:49:35Z" uid="123700" user="Mala" changeset="1920545" lat="10.7399999" lon="-10.72">
    <tag k="country_code_fips" v="GV"/>
    <tag k="country_code_iso3166_1_alpha_2" v="GN"/>
    <tag k="geonames:id" v="2420477"/>
    <tag k="int_name" v="Guinea"/>
    <tag k="is_in:continent" v="Africa"/>
    <tag k="name" v="Guinea"/>
    <tag k="name:ar" v="غينيا"/>
    <tag k="name:cy" v="Guinée"/>
    <tag k="name:da" v="Guinea"/>
    <tag k="name:en" v="Guinea"/>
    <tag k="name:eo" v="Gvineo"/>
    <tag k="name:he" v="גינאה"/>
    <tag k="name:hu" v="Guinea"/>
    <tag k="name:zh" v="几内亚"/>
    <tag k="name:zh_py" v="Jineiya"/>
    <tag k="name:zh_pyt" v="Jīnèiyà"/>
    <tag k="place" v="country"/>
    <tag k="watch:hakan" v="countries"/>
  </node>
  <node id="432424993" version="2" timestamp="2009-07-23T23:49:34Z" uid="123700" user="Mala" changeset="1920545" lat="12.0999999" lon="-14.9">
    <tag k="country_code_fips" v="PU"/>
    <tag k="country_code_iso3166_1_alpha_2" v="GW"/>
    <tag k="geonames:id" v="2372248"/>
    <tag k="int_name" v="Guinea-Bissau"/>
    <tag k="name" v="Guinea-Bissau"/>
    <tag k="name:ar" v="غينيا-بيساو"/>
    <tag k="name:cy" v="Guiné-Bissau"/>
    <tag k="name:da" v="Guinea-Bissau"/>
    <tag k="name:en" v="Guinea-Bissau"/>
    <tag k="name:eo" v="Gvineo Bisaŭa"/>
    <tag k="name:hu" v="Bissau-Guinea"/>
    <tag k="name:zh" v="几内亚比绍"/>
    <tag k="name:zh_py" v="Jineiya Bishao"/>
    <tag k="name:zh_pyt" v="Jīnèiyà Bǐshào"/>
    <tag k="place" v="country"/>
    <tag k="watch:hakan" v="countries"/>
  </node>
  <node id="432424994" version="2" timestamp="2009-07-23T01:40:59Z" uid="20587" user="balrog-kun" changeset="1910614" lat="4.0039471" lon="-53.000103">
    <tag k="country_code_fips" v="FG"/>
    <tag k="country_code_iso3166_1_alpha_2" v="GF"/>
    <tag k="int_name" v="French Guiana"/>
    <tag k="is_in:continent" v="South America"/>
    <tag k="name" v="Guyane"/>
    <tag k="name:ar" v="غيانا"/>
    <tag k="name:cy" v="Guyane"/>
    <tag k="name:da" v="Fransk Guyana"/>
    <tag k="name:de" v="Französisch Guayana"/>
    <tag k="name:en" v="French Guiana"/>
    <tag k="name:eo" v="Gujano"/>
    <tag k="name:fi" v="Ranskan Guayana"/>
    <tag k="name:fr" v="Guyane française"/>
    <tag k="name:hu" v="Francia Guyana"/>
    <tag k="place" v="country"/>
    <tag k="watch:hakan" v="countries"/>
  </node>
  <node id="432424995" version="2" timestamp="2009-07-23T01:41:01Z" uid="20587" user="balrog-kun" changeset="1910614" lat="4.8416667" lon="-58.6416667">
    <tag k="country_code_fips" v="GY"/>
    <tag k="country_code_iso3166_1_alpha_2" v="GY"/>
    <tag k="geonames:id" v="3378535"/>
    <tag k="int_name" v="Guyana"/>
    <tag k="is_in:continent" v="South America"/>
    <tag k="name" v="Guyana"/>
    <tag k="name:ar" v="غيانا"/>
    <tag k="name:da" v="Guyana"/>
    <tag k="name:en" v="Guyana"/>
    <tag k="name:eo" v="Gujano"/>
    <tag k="name:hu" v="Guyana"/>
    <tag k="place" v="country"/>
    <tag k="watch:hakan" v="countries"/>
  </node>
  <node id="432424997" version="2" timestamp="2009-07-23T01:02:51Z" uid="123700" user="Mala" changeset="1910504" lat="19.1399521" lon="-72.3570683">
    <tag k="country_code_fips" v="HA"/>
    <tag k="country_code_iso3166_1_alpha_2" v="HT"/>
    <tag k="is_in:continent" v="North America"/>
    <tag k="is_in:sea" v="Caribbean Sea"/>
    <tag k="name" v="Haiti"/>
    <tag k="name:ar" v="هايتي"/>
    <tag k="name:da" v="Haiti"/>
    <tag k="name:eo" v="Haitio"/>
    <tag k="name:he" v="האיטי"/>
    <tag k="name:hu" v="Haiti"/>
    <tag k="place" v="country"/>
  </node>
  <node id="432424999" version="2" timestamp="2009-07-23T00:14:42Z" uid="123700" user="Mala" changeset="1910307" lat="15.0610437" lon="-84.5978415">
    <tag k="country_code_fips" v="HO"/>
    <tag k="country_code_iso3166_1_alpha_2" v="HN"/>
    <tag k="geonames:id" v="3608932"/>
    <tag k="int_name" v="Honduras"/>
    <tag k="is_in:continent" v="North America"/>
    <tag k="name" v="Honduras"/>
    <tag k="name:ar" v="هندوراس"/>
    <tag k="name:da" v="Honduras"/>
    <tag k="name:en" v="Honduras"/>
    <tag k="name:eo" v="Honduro"/>
    <tag k="name:he" v="הונדורס"/>
    <tag k="name:hu" v="Honduras"/>
    <tag k="place" v="country"/>
    <tag k="watch:hakan" v="countries"/>
  </node>
  <node id="432425000" version="2" timestamp="2009-07-22T19:11:29Z" uid="20587" user="balrog-kun" changeset="1908268" lat="47.1801069" lon="19.5037201">
    <tag k="country_code_fips" v="HU"/>
    <tag k="country_code_iso3166_1_alpha_2" v="HU"/>
    <tag k="geonames:id" v="719819"/>
    <tag k="int_name" v="Hungary"/>
    <tag k="is_in:continent" v="Europe"/>
    <tag k="name" v="Magyarország"/>
    <tag k="name:ar" v="هنغاريا"/>
    <tag k="name:cy" v="Hwngari"/>
    <tag k="name:da" v="Ungarn"/>
    <tag k="name:de" v="Ungarn"/>
    <tag k="name:en" v="Hungary"/>
    <tag k="name:eo" v="Hungario"/>
    <tag k="name:fi" v="Unkari"/>
    <tag k="name:fr" v="Hongrie"/>
    <tag k="name:he" v="הונגריה"/>
    <tag k="name:hu" v="Magyarország"/>
    <tag k="name:ro" v="Ungaria"/>
    <tag k="name:zh" v="匈牙利"/>
    <tag k="name:zh_py" v="Xiongyali"/>
    <tag k="name:zh_pyt" v="Xiōngyálì"/>
    <tag k="place" v="country"/>
    <tag k="watch:hakan" v="countries"/>
  </node>
  <node id="432425001" version="2" timestamp="2009-07-22T21:29:27Z" uid="20587" user="balrog-kun" changeset="1909555" lat="64.9841665" lon="-18.1058718">
    <tag k="capital_city" v="Reykjavík"/>
    <tag k="country_code_fips" v="IC"/>
    <tag k="country_code_iso3166_1_alpha_2" v="IS"/>
    <tag k="geonames:id" v="2629691"/>
    <tag k="int_name" v="Iceland"/>
    <tag k="is_in:continent" v="Europe"/>
    <tag k="is_in:ocean" v="Atlantic"/>
    <tag k="name" v="Ísland"/>
    <tag k="name:ar" v="آيسلندا"/>
    <tag k="name:cy" v="Gwlad yr Iâ"/>
    <tag k="name:de" v="Island"/>
    <tag k="name:en" v="Iceland"/>
    <tag k="name:eo" v="Islando"/>
    <tag k="name:fi" v="Islanti"/>
    <tag k="name:he" v="איסלנד"/>
    <tag k="name:hu" v="Izland"/>
    <tag k="name:is" v="Ísland"/>
    <tag k="name:zh" v="冰岛"/>
    <tag k="name:zh_py" v="Bingdao"/>
    <tag k="name:zh_pyt" v="Bīngdǎo"/>
    <tag k="official_name" v="Republic of Iceland"/>
    <tag k="place" v="country"/>
    <tag k="population" v="320000"/>
    <tag k="watch:hakan" v="countries"/>
  </node>
  <node id="432425002" version="2" timestamp="2009-07-22T19:23:54Z" uid="123700" user="Mala" changeset="1908405" lat="22.3510786" lon="78.6677674">
    <tag k="country_code_fips" v="IN"/>
    <tag k="country_code_iso3166_1_alpha_2" v="IN"/>
    <tag k="geonames:id" v="1269750"/>
    <tag k="int_name" v="India"/>
    <tag k="is_in:continent" v="Asia"/>
    <tag k="name" v="India"/>
    <tag k="name:ar" v="الهند"/>
    <tag k="name:da" v="Indien"/>
    <tag k="name:de" v="Indien"/>
    <tag k="name:en" v="India"/>
    <tag k="name:eo" v="Barato"/>
    <tag k="name:fi" v="Intia"/>
    <tag k="name:he" v="הודו"/>
    <tag k="name:hu" v="India"/>
    <tag k="name:it" v="India"/>
    <tag k="name:pl" v="Indie"/>
    <tag k="name:zh" v="印度"/>
    <tag k="name:zh_py" v="Yindu"/>
    <tag k="name:zh_pyt" v="Yìndù"/>
    <tag k="official_name:it" v="Repubblica dell&apos;India"/>
    <tag k="official_name:pl" v="Republika Indii"/>
    <tag k="place" v="country"/>
    <tag k="watch:hakan" v="countries"/>
  </node>
  <node id="432425002" version="3" timestamp="2009-07-22T20:51:35Z" uid="123700" user="Mala" changeset="1909234" lat="22.3510786" lon="78.6677674">
    <tag k="country_code_fips" v="IN"/>
    <tag k="country_code_iso3166_1_alpha_2" v="IN"/>
    <tag k="geonames:id" v="1269750"/>
    <tag k="int_name" v="India"/>
    <tag k="is_in:continent" v="Asia"/>
    <tag k="name" v="India"/>
    <tag k="name:ar" v="الهند"/>
    <tag k="name:da" v="Indien"/>
    <tag k="name:de" v="Indien"/>
    <tag k="name:en" v="India"/>
    <tag k="name:eo" v="Barato"/>
    <tag k="name:fi" v="Intia"/>
    <tag k="name:he" v="הודו"/>
    <tag k="name:hu" v="India"/>
    <tag k="name:it" v="India"/>
    <tag k="name:pl" v="Indie"/>
    <tag k="name:zh" v="印度"/>
    <tag k="name:zh_py" v="Yindu"/>
    <tag k="name:zh_pyt" v="Yìndù"/>
    <tag k="official_name:it" v="Repubblica dell&apos;India"/>
    <tag k="official_name:pl" v="Republika Indii"/>
    <tag k="place" v="country"/>
    <tag k="watch:hakan" v="countries"/>
  </node>
  <node id="432425003" version="2" timestamp="2009-07-22T20:51:41Z" uid="123700" user="Mala" changeset="1909234" lat="-4.7993863" lon="114.5632448">
    <tag k="capital_city" v="Jakarta"/>
    <tag k="country_code_alpha2" v="ID"/>
    <tag k="country_code_fips" v="ID"/>
    <tag k="country_code_iso3166_1_alpha_2" v="ID"/>
    <tag k="geonames:id" v="1643084"/>
    <tag k="int_name" v="Indonesia"/>
    <tag k="is_in:continent" v="Asia"/>
    <tag k="is_in:ocean" v="Indian"/>
    <tag k="name" v="Indonesia"/>
    <tag k="name:ar" v="إندونيسيا"/>
    <tag k="name:da" v="Indonesien"/>
    <tag k="name:en" v="Indonesia"/>
    <tag k="name:eo" v="Indonezio"/>
    <tag k="name:fi" v="Indonesia"/>
    <tag k="name:he" v="אינדונזיה"/>
    <tag k="name:hu" v="Indonézia"/>
    <tag k="place" v="country"/>
  </node>
  <node id="432425004" version="2" timestamp="2009-07-22T20:51:22Z" uid="123700" user="Mala" changeset="1909234" lat="32.9407059" lon="52.9471794">
    <tag k="capital_city" v="Tehran"/>
    <tag k="country_code_fips" v="IR"/>
    <tag k="country_code_iso3166_1_alpha_2" v="IR"/>
    <tag k="int_name" v="Iran"/>
    <tag k="is_in" v="Asia"/>
    <tag k="is_in:continent" v="Asia"/>
    <tag k="name" v="ایران"/>
    <tag k="name:ar" v="إيران"/>
    <tag k="name:cy" v="Iran"/>
    <tag k="name:da" v="Iran"/>
    <tag k="name:de" v="Iran"/>
    <tag k="name:en" v="Iran"/>
    <tag k="name:eo" v="Irano"/>
    <tag k="name:fa" v="ایران"/>
    <tag k="name:fi" v="Iran"/>
    <tag k="name:he" v="אירן"/>
    <tag k="name:hu" v="Irán"/>
    <tag k="name:ru" v="Иран"/>
    <tag k="name:zh" v="伊朗"/>
    <tag k="name:zh_py" v="Yilang"/>
    <tag k="name:zh_pyt" v="Yīlǎng"/>
    <tag k="official_name" v="جمهوری اسلامی ایران"/>
    <tag k="official_name:en" v="Islamic Republic of Iran"/>
    <tag k="old_name:en" v="Persia"/>
    <tag k="place" v="country"/>
    <tag k="population" v="70472846"/>
  </node>
  <node id="432425005" version="2" timestamp="2009-07-22T23:17:06Z" uid="123700" user="Mala" changeset="1910099" lat="33.0955556" lon="44.175">
    <tag k="country_code_fips" v="IZ"/>
    <tag k="country_code_iso3166_1_alpha_2" v="IQ"/>
    <tag k="geonames:id" v="99237"/>
    <tag k="int_name" v="Iraq"/>
    <tag k="is_in:continent" v="Asia"/>
    <tag k="name" v="Iraq"/>
    <tag k="name:ar" v="العراق"/>
    <tag k="name:cy" v="Irac"/>
    <tag k="name:da" v="Irak"/>
    <tag k="name:de" v="Irak"/>
    <tag k="name:en" v="Iraq"/>
    <tag k="name:eo" v="Irako"/>
    <tag k="name:fi" v="Irak"/>
    <tag k="name:he" v="עירק"/>
    <tag k="name:hu" v="Irak"/>
    <tag k="name:zh" v="伊拉克"/>
    <tag k="name:zh_py" v="Yilake"/>
    <tag k="name:zh_pyt" v="Yīlākè"/>
    <tag k="place" v="country"/>
    <tag k="watch:hakan" v="countries"/>
  </node>
  <node id="432425006" version="2" timestamp="2009-07-22T17:45:37Z" uid="20587" user="balrog-kun" changeset="1907299" lat="53.4" lon="-7.3416667">
    <tag k="capital_city" v="Dublin"/>
    <tag k="country_code_fips" v="EI"/>
    <tag k="country_code_iso3166_1_alpha_2" v="IE"/>
    <tag k="geonames:id" v="2963597"/>
    <tag k="int_name" v="Ireland"/>
    <tag k="is_in:continent" v="Europe"/>
    <tag k="is_in:ocean" v="Atlantic"/>
    <tag k="name" v="Ireland"/>
    <tag k="name:ar" v="أيرلندا"/>
    <tag k="name:cy" v="Iwerddon"/>
    <tag k="name:de" v="Irland"/>
    <tag k="name:en" v="Ireland"/>
    <tag k="name:eo" v="Irlando"/>
    <tag k="name:fi" v="Irlanti"/>
    <tag k="name:fr" v="Irlande"/>
    <tag k="name:ga" v="Éire"/>
    <tag k="name:he" v="אירלנד"/>
    <tag k="name:hu" v="Írország"/>
    <tag k="name:lv" v="Īrija"/>
    <tag k="name:zh" v="爱尔兰"/>
    <tag k="name:zh_py" v="Aierlan"/>
    <tag k="name:zh_pyt" v="Àiěrlán"/>
    <tag k="official_name" v="Republic of Ireland"/>
    <tag k="place" v="country"/>
    <tag k="population" v="4422100"/>
    <tag k="watch:hakan" v="countries"/>
    <tag k="wikipedia" v="Republic_of_Ireland"/>
  </node>
  <node id="432425007" version="2" timestamp="2009-07-23T00:20:38Z" uid="20587" user="balrog-kun" changeset="1910333" lat="31.1430556" lon="34.975">
    <tag k="capital_city" v="Jerusalem"/>
    <tag k="country_code_fips" v="IS"/>
    <tag k="country_code_iso3166_1_alpha_2" v="IL"/>
    <tag k="geonames:id" v="294640"/>
    <tag k="int_name" v="Israel"/>
    <tag k="is_in:continent" v="Asia"/>
    <tag k="name" v="ישראל"/>
    <tag k="name:ar" v="إسرائيل"/>
    <tag k="name:cy" v="Israel"/>
    <tag k="name:da" v="Israel"/>
    <tag k="name:en" v="Israel"/>
    <tag k="name:eo" v="Israelo"/>
    <tag k="name:fi" v="Israel"/>
    <tag k="name:he" v="ישראל"/>
    <tag k="name:hu" v="Izrael"/>
    <tag k="name:zh" v="以色列"/>
    <tag k="name:zh_py" v="Yiselie"/>
    <tag k="name:zh_pyt" v="Yǐsèliè"/>
    <tag k="place" v="country"/>
    <tag k="watch:hakan" v="countries"/>
  </node>
  <node id="432425009" version="2" timestamp="2009-07-23T23:49:39Z" uid="123700" user="Mala" changeset="1920545" lat="7.9896848" lon="-5.5678953">
    <tag k="country_code_fips" v="IV"/>
    <tag k="country_code_iso3166_1_alpha_2" v="CI"/>
    <tag k="geonames:id" v="2287781"/>
    <tag k="int_name" v="Côte d&amp;apos;Ivoire"/>
    <tag k="is_in:continent" v="Africa"/>
    <tag k="name" v="Côte d&amp;apos;Ivoire"/>
    <tag k="name:ar" v="كوت ديفوار"/>
    <tag k="name:da" v="Elfenbenskysten"/>
    <tag k="name:en" v="Côte d&amp;apos;Ivoire"/>
    <tag k="name:eo" v="Ebur-Bordo"/>
    <tag k="name:fi" v="Norsunluurannikko"/>
    <tag k="name:he" v="חוף השנהב"/>
    <tag k="name:hu" v="Elefántcsontpart"/>
    <tag k="name:zh" v="科特迪瓦"/>
    <tag k="name:zh_py" v="Ketediwa"/>
    <tag k="name:zh_pyt" v="Kētèdíwǎ"/>
    <tag k="place" v="country"/>
    <tag k="watch:hakan" v="countries"/>
  </node>
  <node id="432425010" version="2" timestamp="2009-07-23T01:02:51Z" uid="123700" user="Mala" changeset="1910504" lat="18.1850104" lon="-77.3947347">
    <tag k="country_code" v="JM"/>
    <tag k="country_code_fips" v="JM"/>
    <tag k="country_code_iso3166_1_alpha_2" v="JM"/>
    <tag k="is_in:continent" v="North America"/>
    <tag k="is_in:sea" v="Caribbean Sea"/>
    <tag k="name" v="Jamaica"/>
    <tag k="name:ar" v="جامايكا"/>
    <tag k="name:da" v="Jamaica"/>
    <tag k="name:eo" v="Jamajko"/>
    <tag k="name:fi" v="Jamaika"/>
    <tag k="name:he" v="ג&amp;apos;מייקה"/>
    <tag k="name:hu" v="Jamaica"/>
    <tag k="place" v="country"/>
  </node>
  <node id="432425011" version="2" timestamp="2009-07-22T18:08:11Z" uid="123700" user="Mala" changeset="1907548" lat="36.5747826" lon="139.2394743">
    <tag k="capital_city" v="Tokyo"/>
    <tag k="country_code_fips" v="JA"/>
    <tag k="country_code_iso3166_1_alpha_2" v="JP"/>
    <tag k="is_in" v="Asia"/>
    <tag k="is_in:continent" v="Asia"/>
    <tag k="is_in:ocean" v="Pacific"/>
    <tag k="name" v="日本 (Japan)"/>
    <tag k="name:ar" v="اليابان"/>
    <tag k="name:cy" v="Japan"/>
    <tag k="name:da" v="Japan"/>
    <tag k="name:de" v="Japan"/>
    <tag k="name:en" v="Japan"/>
    <tag k="name:eo" v="Japanio"/>
    <tag k="name:fi" v="Japani"/>
    <tag k="name:he" v="יפן"/>
    <tag k="name:hu" v="Japán"/>
    <tag k="name:it" v="Giappone"/>
    <tag k="name:ja" v="日本"/>
    <tag k="name:ja_rm" v="Nippon"/>
    <tag k="name:pl" v="Japonia"/>
    <tag k="name:zh" v="日本"/>
    <tag k="name:zh_py" v="Riben"/>
    <tag k="name:zh_pyt" v="Rìběn"/>
    <tag k="place" v="country"/>
  </node>
  <node id="432425012" version="2" timestamp="2009-07-22T23:17:04Z" uid="123700" user="Mala" changeset="1910099" lat="31.1666667" lon="36.9416667">
    <tag k="country_code_fips" v="JO"/>
    <tag k="country_code_iso3166_1_alpha_2" v="JO"/>
    <tag k="geonames:id" v="248816"/>
    <tag k="int_name" v="Jordan"/>
    <tag k="is_in:continent" v="Asia"/>
    <tag k="name" v="Jordan"/>
    <tag k="name:ar" v="الأردن"/>
    <tag k="name:cy" v="Gwlad Iorddonen"/>
    <tag k="name:da" v="Jordan"/>
    <tag k="name:de" v="Jordanien"/>
    <tag k="name:en" v="Jordan"/>
    <tag k="name:eo" v="Jordanio"/>
    <tag k="name:fi" v="Jordania"/>
    <tag k="name:he" v="ירדן"/>
    <tag k="name:hu" v="Jordánia"/>
    <tag k="name:zh" v="约旦"/>
    <tag k="name:zh_py" v="Yuedan"/>
    <tag k="name:zh_pyt" v="Yuēdàn"/>
    <tag k="place" v="country"/>
    <tag k="watch:hakan" v="countries"/>
  </node>
  <node id="432425013" version="2" timestamp="2009-07-22T20:51:26Z" uid="123700" user="Mala" changeset="1909234" lat="47.228589" lon="65.2093468">
    <tag k="country_code_fips" v="KZ"/>
    <tag k="country_code_iso3166_1_alpha_2" v="KZ"/>
    <tag k="geonames:id" v="1522867"/>
    <tag k="int_name" v="Kazakhstan"/>
    <tag k="is_in:continent" v="Asia"/>
    <tag k="name" v="Kazakhstan"/>
    <tag k="name:ar" v="كازاخستان"/>
    <tag k="name:cy" v="Kazakstan"/>
    <tag k="name:da" v="Kasakhstan"/>
    <tag k="name:de" v="Kasachstan"/>
    <tag k="name:en" v="Kazakhstan"/>
    <tag k="name:eo" v="Kazaĥio"/>
    <tag k="name:fi" v="Kazakstan"/>
    <tag k="name:he" v="קזחסטן"/>
    <tag k="name:hu" v="Kazahsztán"/>
    <tag k="name:kk" v="Қазақстан (Qazaqstan)"/>
    <tag k="name:ru" v="Казахстан (Kazakhstán)"/>
    <tag k="name:zh" v="哈萨克斯坦"/>
    <tag k="name:zh_py" v="Hasakesitan"/>
    <tag k="name:zh_pyt" v="Hāsàkèsītǎn"/>
    <tag k="official_name" v="Republic of Kazakhstan"/>
    <tag k="place" v="country"/>
    <tag k="population" v="15217711"/>
    <tag k="watch:hakan" v="countries"/>
    <tag k="wikipedia:en" v="Kazakhstan"/>
  </node>
  <node id="432425014" version="2" timestamp="2009-07-23T11:59:03Z" uid="123700" user="Mala" changeset="1914917" lat="1.4419471" lon="38.4314107">
    <tag k="country_code_fips" v="KE"/>
    <tag k="country_code_iso3166_1_alpha_2" v="KE"/>
    <tag k="geonames:id" v="192950"/>
    <tag k="int_name" v="Kenya"/>
    <tag k="is_in:continent" v="Africa"/>
    <tag k="name" v="Kenya"/>
    <tag k="name:ar" v="كينيا"/>
    <tag k="name:da" v="Kenya"/>
    <tag k="name:de" v="Kenia"/>
    <tag k="name:en" v="Kenya"/>
    <tag k="name:eo" v="Kenjo"/>
    <tag k="name:fi" v="Kenia"/>
    <tag k="name:he" v="קניה"/>
    <tag k="name:hu" v="Kenya"/>
    <tag k="name:zh" v="肯尼亚"/>
    <tag k="name:zh_py" v="Kenniya"/>
    <tag k="name:zh_pyt" v="Kěnníyà"/>
    <tag k="place" v="country"/>
    <tag k="watch:hakan" v="countries"/>
  </node>
  <node id="432425015" version="2" timestamp="2009-07-26T22:51:26Z" uid="20587" user="balrog-kun" changeset="1950468" lat="-7.5" lon="-179.6">
    <tag k="capital" v="South Tarawa"/>
    <tag k="country_code_fips" v="KR"/>
    <tag k="country_code_iso3166_1_alpha_2" v="KI"/>
    <tag k="geonames:id" v="4030945"/>
    <tag k="int_name" v="Kiribati"/>
    <tag k="is_in:ocean" v="Pacific"/>
    <tag k="name" v="Kiribati"/>
    <tag k="name:ar" v="كيريباس"/>
    <tag k="name:da" v="Kiribati"/>
    <tag k="name:en" v="Kiribati"/>
    <tag k="name:eo" v="Kiribato"/>
    <tag k="name:he" v="קיריבטי"/>
    <tag k="name:hu" v="Kiribati"/>
    <tag k="name:lt" v="Kiribatis"/>
    <tag k="official_name" v="Republic of Kiribati"/>
    <tag k="official_name:es" v="República de Kiribati"/>
    <tag k="official_name:gil" v="Ribaberikin Kiribati"/>
    <tag k="official_name:pl" v="Republika Kiribati"/>
    <tag k="place" v="country"/>
    <tag k="watch:hakan" v="countries"/>
    <tag k="wikipedia" v="Kiribati"/>
  </node>
  <node id="432425016" version="3" timestamp="2009-07-22T23:17:08Z" uid="123700" user="Mala" changeset="1910099" lat="29.2733758" lon="47.497961">
    <tag k="capital_city" v="Kuwait City"/>
    <tag k="country_code_fips" v="KU"/>
    <tag k="country_code_iso3166_1_alpha_2" v="KW"/>
    <tag k="geonames:id" v="285570"/>
    <tag k="int_name" v="Kuwait"/>
    <tag k="is_in:continent" v="Asia"/>
    <tag k="name" v="Kuwait"/>
    <tag k="name:ar" v="الكويت"/>
    <tag k="name:da" v="Kuwait"/>
    <tag k="name:de" v="Kuwait"/>
    <tag k="name:en" v="Kuwait"/>
    <tag k="name:eo" v="Kuvajto"/>
    <tag k="name:fa" v="کویت"/>
    <tag k="name:fi" v="Kuwait"/>
    <tag k="name:he" v="כווית"/>
    <tag k="name:hu" v="Kuvait"/>
    <tag k="name:zh" v="科威特"/>
    <tag k="name:zh_py" v="Keweite"/>
    <tag k="name:zh_pyt" v="Kēwēitè"/>
    <tag k="official_name" v="State of Kuwait"/>
    <tag k="place" v="country"/>
    <tag k="population" v="3399637"/>
    <tag k="watch:hakan" v="countries"/>
  </node>
  <node id="432425017" version="2" timestamp="2009-07-22T20:51:29Z" uid="123700" user="Mala" changeset="1909234" lat="41.5083333" lon="74.7245833">
    <tag k="capital_city" v="Bishkek"/>
    <tag k="country_code_fips" v="KG"/>
    <tag k="country_code_iso3166_1_alpha_2" v="KG"/>
    <tag k="geonames:id" v="1527747"/>
    <tag k="int_name" v="Kyrgyzstan"/>
    <tag k="is_in:continent" v="Asia"/>
    <tag k="name" v="Kyrgyzstan"/>
    <tag k="name:ar" v="قيرغيزستان"/>
    <tag k="name:da" v="Kirgisistan"/>
    <tag k="name:de" v="Kirgisistan"/>
    <tag k="name:en" v="Kyrgyzstan"/>
    <tag k="name:eo" v="Kirgizio"/>
    <tag k="name:fi" v="Kirgisia"/>
    <tag k="name:he" v="קירגיסטן"/>
    <tag k="name:hu" v="Kirgizisztán"/>
    <tag k="name:ky" v="Кыргызстан"/>
    <tag k="name:ru" v="Киргизия"/>
    <tag k="name:zh" v="吉尔吉斯斯坦"/>
    <tag k="name:zh_py" v="Jierjisisitan"/>
    <tag k="name:zh_pyt" v="Jíěrjísīsītǎn"/>
    <tag k="place" v="country"/>
    <tag k="population" v="5356869"/>
    <tag k="watch:hakan" v="countries"/>
  </node>
  <node id="432425018" version="2" timestamp="2009-07-22T20:51:44Z" uid="123700" user="Mala" changeset="1909234" lat="20.0170797" lon="103.3782729">
    <tag k="country_code_fips" v="LA"/>
    <tag k="country_code_iso3166_1_alpha_2" v="LA"/>
    <tag k="geonames:id" v="1655842"/>
    <tag k="int_name" v="Laos"/>
    <tag k="is_in:continent" v="Asia"/>
    <tag k="name" v="Laos"/>
    <tag k="name:ar" v="لاوس"/>
    <tag k="name:da" v="Laos"/>
    <tag k="name:en" v="Laos"/>
    <tag k="name:eo" v="Laoso"/>
    <tag k="name:he" v="לאוס"/>
    <tag k="name:hu" v="Laosz"/>
    <tag k="name:zh" v="老挝"/>
    <tag k="name:zh_py" v="Laowo"/>
    <tag k="name:zh_pyt" v="Lǎowō"/>
    <tag k="place" v="country"/>
    <tag k="watch:hakan" v="countries"/>
  </node>
  <node id="432425019" version="2" timestamp="2009-07-22T19:59:01Z" uid="20587" user="balrog-kun" changeset="1908820" lat="56.8666667" lon="24.6">
    <tag k="country_code_fips" v="LG"/>
    <tag k="country_code_iso3166_1_alpha_2" v="LV"/>
    <tag k="geonames:id" v="458258"/>
    <tag k="int_name" v="Latvia"/>
    <tag k="is_in:continent" v="Europe"/>
    <tag k="name" v="Latvija"/>
    <tag k="name:ar" v="لاتفيا"/>
    <tag k="name:cy" v="Latfia"/>
    <tag k="name:da" v="Letland"/>
    <tag k="name:de" v="Lettland"/>
    <tag k="name:en" v="Latvia"/>
    <tag k="name:eo" v="Latvio"/>
    <tag k="name:es" v="Letonia"/>
    <tag k="name:fi" v="Latvia"/>
    <tag k="name:fr" v="Lettonie"/>
    <tag k="name:he" v="לטביה"/>
    <tag k="name:hu" v="Lettország"/>
    <tag k="name:pl" v="Łotwa"/>
    <tag k="name:zh" v="拉脱维亚"/>
    <tag k="name:zh_py" v="Latuoweiya"/>
    <tag k="name:zh_pyt" v="Lātuōwéiyà"/>
    <tag k="official_name" v="Latvijas Republika"/>
    <tag k="official_name:en" v="Republic of Latvia"/>
    <tag k="official_name:es" v="República de Letonia"/>
    <tag k="official_name:pl" v="Republika Łotwy"/>
    <tag k="place" v="country"/>
    <tag k="watch:hakan" v="countries"/>
    <tag k="wikipedia" v="Lativa"/>
  </node>
  <node id="432425020" version="2" timestamp="2009-07-22T23:17:03Z" uid="123700" user="Mala" changeset="1910099" lat="33.8750071" lon="35.8434571">
    <tag k="capital_city" v="Beirut"/>
    <tag k="country_code_fips" v="LE"/>
    <tag k="country_code_iso3166_1_alpha_2" v="LB"/>
    <tag k="geonames:id" v="272103"/>
    <tag k="int_name" v="Lebanon"/>
    <tag k="is_in:continent" v="Asia"/>
    <tag k="name" v="لبنان  Lebanon"/>
    <tag k="name:ar" v="لبنان"/>
    <tag k="name:cy" v="Libanus"/>
    <tag k="name:da" v="Libanon"/>
    <tag k="name:de" v="Libanon"/>
    <tag k="name:en" v="Lebanon"/>
    <tag k="name:eo" v="Libano"/>
    <tag k="name:fi" v="Libanon"/>
    <tag k="name:fr" v="Liban"/>
    <tag k="name:he" v="לבנון"/>
    <tag k="name:hu" v="Libanon"/>
    <tag k="name:zh" v="黎巴嫩"/>
    <tag k="name:zh_py" v="Libanen"/>
    <tag k="name:zh_pyt" v="Líbānèn"/>
    <tag k="official_name" v="Republic of Lebanon"/>
    <tag k="place" v="country"/>
    <tag k="population" v="4196453"/>
    <tag k="watch:hakan" v="countries"/>
  </node>
  <node id="432425021" version="2" timestamp="2009-07-23T11:58:33Z" uid="123700" user="Mala" changeset="1914917" lat="-29.462404" lon="28.0903154">
    <tag k="country_code_iso3166_1_alpha_2" v="LS"/>
    <tag k="is_in:continent" v="Africa"/>
    <tag k="name" v="Lesotho"/>
    <tag k="name:ar" v="ليسوتو"/>
    <tag k="name:da" v="Lesotho"/>
    <tag k="name:eo" v="Lesoto"/>
    <tag k="name:fi" v="Lesotho"/>
    <tag k="name:hu" v="Lesotho"/>
    <tag k="name:pl" v="Lesoto"/>
    <tag k="name:zh" v="莱索托"/>
    <tag k="name:zh_py" v="Laisuotuo"/>
    <tag k="name:zh_pyt" v="Láisuǒtuō"/>
    <tag k="place" v="country"/>
  </node>
  <node id="432425022" version="2" timestamp="2009-07-23T23:49:37Z" uid="123700" user="Mala" changeset="1920545" lat="5.7499316" lon="-9.365827">
    <tag k="country_code_fips" v="LI"/>
    <tag k="country_code_iso3166_1_alpha_2" v="LR"/>
    <tag k="geonames:id" v="2275384"/>
    <tag k="int_name" v="Liberia"/>
    <tag k="is_in:continent" v="Africa"/>
    <tag k="name" v="Liberia"/>
    <tag k="name:ar" v="ليبريا"/>
    <tag k="name:da" v="Liberia"/>
    <tag k="name:en" v="Liberia"/>
    <tag k="name:eo" v="Liberio"/>
    <tag k="name:he" v="ליבריה"/>
    <tag k="name:hu" v="Libéria"/>
    <tag k="name:zh" v="利比里亚"/>
    <tag k="name:zh_py" v="Libiliya"/>
    <tag k="name:zh_pyt" v="Lìbǐlǐyà"/>
    <tag k="place" v="country"/>
    <tag k="watch:hakan" v="countries"/>
  </node>
  <node id="432425023" version="2" timestamp="2009-07-23T10:45:30Z" uid="123700" user="Mala" changeset="1914232" lat="26.7" lon="15.25">
    <tag k="capital_city" v="Tripoli"/>
    <tag k="country_code_fips" v="LY"/>
    <tag k="country_code_iso3166_1_alpha_2" v="LY"/>
    <tag k="geonames:id" v="2215636"/>
    <tag k="int_name" v="Libya"/>
    <tag k="is_in:continent" v="Africa"/>
    <tag k="name" v="ليبيا"/>
    <tag k="name:da" v="Libyen"/>
    <tag k="name:de" v="Libyen"/>
    <tag k="name:en" v="Libya"/>
    <tag k="name:eo" v="Libio"/>
    <tag k="name:es" v="Libia"/>
    <tag k="name:fi" v="Libya"/>
    <tag k="name:fr" v="Libye"/>
    <tag k="name:he" v="לוב"/>
    <tag k="name:hu" v="Líbia"/>
    <tag k="name:it" v="Libia"/>
    <tag k="name:pl" v="Libia"/>
    <tag k="name:zh" v="利比亚"/>
    <tag k="name:zh_py" v="Libiya"/>
    <tag k="name:zh_pyt" v="Lìbǐyà"/>
    <tag k="official_name" v="الجماهيرية العربية الليبية الشعبية الإشتراكية العظمى"/>
    <tag k="official_name:en" v="Great Socialist People&apos;s Libyan Arab Jamahiriya"/>
    <tag k="place" v="country"/>
    <tag k="watch:hakan" v="countries"/>
    <tag k="wikipedia" v="Libya"/>
  </node>
  <node id="432425024" version="2" timestamp="2009-07-22T19:11:26Z" uid="20587" user="balrog-kun" changeset="1908268" lat="47.1324057" lon="9.5728939">
    <tag k="country_code_fips" v="LS"/>
    <tag k="country_code_iso3166_1_alpha_2" v="LI"/>
    <tag k="geonames:id" v="3042058"/>
    <tag k="int_name" v="Liechtenstein"/>
    <tag k="is_in:continent" v="Europe"/>
    <tag k="name" v="Liechtenstein"/>
    <tag k="name:ar" v="ليختنشتاين"/>
    <tag k="name:eo" v="Liĥtenŝtejno"/>
    <tag k="name:he" v="ליכטנשטיין"/>
    <tag k="name:hu" v="Liechtenstein"/>
    <tag k="name:ru" v="Лихтенштейн"/>
    <tag k="name:zh" v="列支敦士登"/>
    <tag k="name:zh_py" v="Liezhidunshideng"/>
    <tag k="name:zh_pyt" v="Lièzhīdūnshìdēng"/>
    <tag k="official_name" v="Fürstentum Liechtenstein"/>
    <tag k="official_name:de" v="Fürstentum Liechtenstein"/>
    <tag k="official_name:en" v="Principality of Liechtenstein"/>
    <tag k="official_name:es" v="Principado de Liechtenstein"/>
    <tag k="official_name:pl" v="Księstwo Liechtenstein"/>
    <tag k="official_name:ru" v="Кня́жество Лихтенште́йн"/>
    <tag k="place" v="country"/>
    <tag k="watch:hakan" v="countries"/>
    <tag k="wikipedia" v="Liechtenstein"/>
  </node>
  <node id="432425025" version="2" timestamp="2009-07-22T19:59:07Z" uid="20587" user="balrog-kun" changeset="1908820" lat="54.7333339" lon="24.6120711">
    <tag k="country_code_fips" v="LH"/>
    <tag k="country_code_iso3166_1_alpha_2" v="LT"/>
    <tag k="geonames:id" v="597427"/>
    <tag k="int_name" v="Lithuania"/>
    <tag k="is_in:continent" v="Europe"/>
    <tag k="name" v="Lietuva"/>
    <tag k="name:ar" v="ليتوانيا"/>
    <tag k="name:cy" v="Lithwania"/>
    <tag k="name:da" v="Litauen"/>
    <tag k="name:de" v="Litauen"/>
    <tag k="name:en" v="Lithuania"/>
    <tag k="name:eo" v="Litovio"/>
    <tag k="name:fi" v="Liettua"/>
    <tag k="name:fr" v="Lituanie"/>
    <tag k="name:he" v="לטביה"/>
    <tag k="name:hu" v="Litvánia"/>
    <tag k="name:zh" v="立陶宛"/>
    <tag k="name:zh_py" v="Litaowan"/>
    <tag k="name:zh_pyt" v="Lìtáowǎn"/>
    <tag k="official_name" v="Republic of Lithuania"/>
    <tag k="official_name:lt" v="Lietuvos Respublika"/>
    <tag k="place" v="country"/>
    <tag k="population" v="3369600"/>
    <tag k="watch:hakan" v="countries"/>
  </node>
  <node id="432425027" version="2" timestamp="2009-07-23T00:20:35Z" uid="20587" user="balrog-kun" changeset="1910333" lat="41.6198612" lon="21.7190278">
    <tag k="country_code_fips" v="MK"/>
    <tag k="country_code_iso3166_1_alpha_2" v="MK"/>
    <tag k="geonames:id" v="718075"/>
    <tag k="int_name" v="Macedonia"/>
    <tag k="is_in:continent" v="Europe"/>
    <tag k="name" v="Macedonia"/>
    <tag k="name:ar" v="مقدونيا"/>
    <tag k="name:cy" v="Gweriniaeth Macedonia"/>
    <tag k="name:da" v="Makedonien"/>
    <tag k="name:en" v="Macedonia"/>
    <tag k="name:eo" v="Makedonio"/>
    <tag k="name:fi" v="Makedonia"/>
    <tag k="name:he" v="מקדוניה"/>
    <tag k="name:hu" v="Macedónia"/>
    <tag k="name:zh" v="马其顿"/>
    <tag k="name:zh_py" v="Maqidun"/>
    <tag k="name:zh_pyt" v="Mǎqídùn"/>
    <tag k="place" v="country"/>
    <tag k="watch:hakan" v="countries"/>
    <tag k="wikipedia" v="Republic of Macedonia"/>
  </node>
  <node id="432425028" version="3" timestamp="2009-07-23T23:58:06Z" uid="123700" user="Mala" changeset="1920569" lat="-18.925" lon="46.4416667">
    <tag k="capital_city" v="Antananarivo"/>
    <tag k="country_code_fips" v="MA"/>
    <tag k="country_code_iso3166_1_alpha_2" v="MG"/>
    <tag k="geonames:id" v="1062947"/>
    <tag k="int_name" v="Madagascar"/>
    <tag k="is_in:continent" v="Africa"/>
    <tag k="name" v="Madagascar"/>
    <tag k="name:af" v="Madagaskar"/>
    <tag k="name:ar" v="مدغشقر"/>
    <tag k="name:da" v="Madagaskar"/>
    <tag k="name:de" v="Madagaskar"/>
    <tag k="name:en" v="Madagascar"/>
    <tag k="name:eo" v="Madagaskaro"/>
    <tag k="name:es" v="Madagascar"/>
    <tag k="name:fi" v="Madagaskar"/>
    <tag k="name:fr" v="Madagascar"/>
    <tag k="name:he" v="מדגסקר"/>
    <tag k="name:hu" v="Madagaszkár"/>
    <tag k="name:it" v="Madagascar"/>
    <tag k="name:pl" v="Madagascar"/>
    <tag k="name:zh" v="马达加斯加"/>
    <tag k="name:zh_py" v="Madajiasijia"/>
    <tag k="name:zh_pyt" v="Mǎdájiāsījiā"/>
    <tag k="place" v="country"/>
    <tag k="watch:hakan" v="countries"/>
    <tag k="wikipedia" v="Madagascar"/>
  </node>
  <node id="432425028" version="4" timestamp="2009-07-24T01:21:50Z" uid="20587" user="balrog-kun" changeset="1920720" lat="-18.925" lon="46.4416667">
    <tag k="capital_city" v="Antananarivo"/>
    <tag k="country_code_fips" v="MA"/>
    <tag k="country_code_iso3166_1_alpha_2" v="MG"/>
    <tag k="geonames:id" v="1062947"/>
    <tag k="int_name" v="Madagascar"/>
    <tag k="is_in:continent" v="Africa"/>
    <tag k="name" v="Madagascar"/>
    <tag k="name:af" v="Madagaskar"/>
    <tag k="name:ar" v="مدغشقر"/>
    <tag k="name:da" v="Madagaskar"/>
    <tag k="name:de" v="Madagaskar"/>
    <tag k="name:en" v="Madagascar"/>
    <tag k="name:eo" v="Madagaskaro"/>
    <tag k="name:es" v="Madagascar"/>
    <tag k="name:fi" v="Madagaskar"/>
    <tag k="name:fr" v="Madagascar"/>
    <tag k="name:he" v="מדגסקר"/>
    <tag k="name:hu" v="Madagaszkár"/>
    <tag k="name:it" v="Madagascar"/>
    <tag k="name:la" v="Madagascaria"/>
    <tag k="name:pl" v="Madagaskar"/>
    <tag k="name:zh" v="马达加斯加"/>
    <tag k="name:zh_py" v="Madajiasijia"/>
    <tag k="name:zh_pyt" v="Mǎdájiāsījiā"/>
    <tag k="official_name" v="Repoblikan&apos;i Madagasikara"/>
    <tag k="official_name:en" v="Republic of Madagascar"/>
    <tag k="official_name:es" v="República de Madagascar"/>
    <tag k="official_name:fr" v="République de Madagascar"/>
    <tag k="official_name:pl" v="Republika Madagaskaru"/>
    <tag k="place" v="country"/>
    <tag k="watch:hakan" v="countries"/>
    <tag k="wikipedia" v="Madagascar"/>
  </node>
  <node id="432425029" version="2" timestamp="2009-07-23T11:58:51Z" uid="123700" user="Mala" changeset="1914917" lat="-11.0756208" lon="34.1734825">
    <tag k="country_code_fips" v="MI"/>
    <tag k="country_code_iso3166_1_alpha_2" v="MW"/>
    <tag k="geonames:id" v="927384"/>
    <tag k="int_name" v="Malawi"/>
    <tag k="is_in:continent" v="Africa"/>
    <tag k="name" v="Malawi"/>
    <tag k="name:ar" v="ملاوي"/>
    <tag k="name:da" v="Malawi"/>
    <tag k="name:en" v="Malawi"/>
    <tag k="name:eo" v="Malavio"/>
    <tag k="name:fi" v="Malawi"/>
    <tag k="name:hu" v="Malawi"/>
    <tag k="name:zh" v="马拉维"/>
    <tag k="name:zh_py" v="Malawei"/>
    <tag k="name:zh_pyt" v="Mǎlāwéi"/>
    <tag k="place" v="country"/>
    <tag k="watch:hakan" v="countries"/>
  </node>
  <node id="432425030" version="2" timestamp="2009-07-22T20:51:39Z" uid="123700" user="Mala" changeset="1909234" lat="4.5693476" lon="102.2657003">
    <tag k="capital_city" v="Kuala Lumpur"/>
    <tag k="country_code_fips" v="MY"/>
    <tag k="country_code_iso3166_1_alpha_2" v="MY"/>
    <tag k="geonames:id" v="1733045"/>
    <tag k="int_name" v="Malaysia"/>
    <tag k="is_in:continent" v="Asia"/>
    <tag k="is_in:ocean" v="Pacific"/>
    <tag k="name" v="Malaysia"/>
    <tag k="name:ar" v="ماليزي"/>
    <tag k="name:da" v="Malaysia"/>
    <tag k="name:de" v="Malaysia"/>
    <tag k="name:en" v="Malaysia"/>
    <tag k="name:eo" v="Malajzio"/>
    <tag k="name:fi" v="Malesia"/>
    <tag k="name:he" v="מלזיה"/>
    <tag k="name:hu" v="Malajzia"/>
    <tag k="name:zh" v="马来西亚"/>
    <tag k="name:zh_py" v="Malaixiya"/>
    <tag k="name:zh_pyt" v="Mǎláixīyà"/>
    <tag k="place" v="country"/>
    <tag k="watch:hakan" v="countries"/>
  </node>
  <node id="432425031" version="2" timestamp="2009-07-23T10:45:36Z" uid="123700" user="Mala" changeset="1914232" lat="16.37" lon="-2.29">
    <tag k="country_code_fips" v="ML"/>
    <tag k="country_code_iso3166_1_alpha_2" v="ML"/>
    <tag k="geonames:id" v="2453866"/>
    <tag k="int_name" v="Mali"/>
    <tag k="is_in:continent" v="Africa"/>
    <tag k="name" v="Mali"/>
    <tag k="name:ar" v="مالي"/>
    <tag k="name:da" v="Mali"/>
    <tag k="name:en" v="Mali"/>
    <tag k="name:eo" v="Malio"/>
    <tag k="name:he" v="מאלי"/>
    <tag k="name:hu" v="Mali"/>
    <tag k="place" v="country"/>
    <tag k="watch:hakan" v="countries"/>
  </node>
  <node id="432425033" version="2" timestamp="2009-07-23T23:33:34Z" uid="20587" user="balrog-kun" changeset="1920502" lat="6.9518191" lon="170.9985511">
    <tag k="country_code_fips" v="RM"/>
    <tag k="country_code_iso3166_1_alpha_2" v="MH"/>
    <tag k="geonames:id" v="2080185"/>
    <tag k="int_name" v="Marshall Islands"/>
    <tag k="name" v="Marshall Islands"/>
    <tag k="name:ar" v="جزر مارشال"/>
    <tag k="name:cy" v="Ynysoedd Marshall"/>
    <tag k="name:da" v="Marshalløerne"/>
    <tag k="name:de" v="Marshallinseln"/>
    <tag k="name:en" v="Marshall Islands"/>
    <tag k="name:eo" v="Marŝala Insularo"/>
    <tag k="name:he" v="איי מרשל"/>
    <tag k="name:hu" v="Marshall-szigetek"/>
    <tag k="place" v="country"/>
    <tag k="watch:hakan" v="countries"/>
  </node>
  <node id="432425034" version="2" timestamp="2009-07-23T10:45:38Z" uid="123700" user="Mala" changeset="1914232" lat="20.2539976" lon="-9.2398844">
    <tag k="country_code_fips" v="MR"/>
    <tag k="country_code_iso3166_1_alpha_2" v="MR"/>
    <tag k="geonames:id" v="2378080"/>
    <tag k="int_name" v="Mauritania"/>
    <tag k="name" v="Mauritania"/>
    <tag k="name:ar" v="موريتانيا"/>
    <tag k="name:da" v="Mauretanien"/>
    <tag k="name:de" v="Mauretanien"/>
    <tag k="name:en" v="Mauritania"/>
    <tag k="name:eo" v="Maŭritanio"/>
    <tag k="name:fi" v="Mauritania"/>
    <tag k="name:he" v="מאוריטניה"/>
    <tag k="name:hu" v="Mauritánia"/>
    <tag k="name:zh" v="毛里塔尼亚"/>
    <tag k="name:zh_py" v="Maolitaniya"/>
    <tag k="name:zh_pyt" v="Máolǐtǎníyà"/>
    <tag k="place" v="country"/>
    <tag k="watch:hakan" v="countries"/>
  </node>
  <node id="432425036" version="2" timestamp="2009-07-23T00:14:39Z" uid="123700" user="Mala" changeset="1910307" lat="22.4999985" lon="-100.0000059">
    <tag k="capital_city" v="México, D. F"/>
    <tag k="country_code_fips" v="MX"/>
    <tag k="country_code_iso3166_1_alpha_2" v="MX"/>
    <tag k="geonames:id" v="3996063"/>
    <tag k="int_name" v="Mexico"/>
    <tag k="is_in:continent" v="North America"/>
    <tag k="name" v="México"/>
    <tag k="name:ar" v="المكسيك"/>
    <tag k="name:da" v="Mexico"/>
    <tag k="name:de" v="Mexiko"/>
    <tag k="name:en" v="Mexico"/>
    <tag k="name:eo" v="Meksiko"/>
    <tag k="name:es" v="México"/>
    <tag k="name:fi" v="Meksiko"/>
    <tag k="name:he" v="מקסיקו"/>
    <tag k="name:hu" v="Mexikó"/>
    <tag k="name:it" v="Messico"/>
    <tag k="name:pl" v="Meksyk"/>
    <tag k="official_name" v="Estados Unidos Mexicanos"/>
    <tag k="official_name:it" v="Stati Uniti Messicani"/>
    <tag k="official_name:pl" v="Meksykańskie Stany Zjednoczone"/>
    <tag k="place" v="country"/>
    <tag k="watch:hakan" v="countries"/>
    <tag k="wikipedia" v="Mexico"/>
  </node>
  <node id="432425037" version="2" timestamp="2009-07-23T23:33:34Z" uid="20587" user="balrog-kun" changeset="1920502" lat="5.56" lon="150.1983333">
    <tag k="country_code_fips" v="FM"/>
    <tag k="country_code_iso3166_1_alpha_2" v="FM"/>
    <tag k="geonames:id" v="2081918"/>
    <tag k="int_name" v="Micronesia"/>
    <tag k="name" v="Micronesia"/>
    <tag k="name:ar" v="ميكرونيزيا"/>
    <tag k="name:da" v="Mikronesien"/>
    <tag k="name:de" v="Mikronesien"/>
    <tag k="name:en" v="Micronesia"/>
    <tag k="name:eo" v="Mikronezio"/>
    <tag k="name:he" v="מיקרונזיה"/>
    <tag k="name:hu" v="Mikronézia"/>
    <tag k="place" v="country"/>
    <tag k="watch:hakan" v="countries"/>
  </node>
  <node id="432425038" version="2" timestamp="2009-07-23T00:20:32Z" uid="20587" user="balrog-kun" changeset="1910333" lat="46.9702189" lon="28.4023995">
    <tag k="capital_city" v="Chişinău"/>
    <tag k="country_code_fips" v="MD"/>
    <tag k="country_code_iso3166_1_alpha_2" v="MD"/>
    <tag k="geonames:id" v="617790"/>
    <tag k="int_name" v="The Republic of Moldova"/>
    <tag k="is_in:continent" v="Europe"/>
    <tag k="name" v="Republica Moldova"/>
    <tag k="name:ar" v="جمهورية مولدوفا"/>
    <tag k="name:cy" v="Moldofa"/>
    <tag k="name:da" v="Moldova"/>
    <tag k="name:de" v="Moldavien"/>
    <tag k="name:en" v="Moldova"/>
    <tag k="name:eo" v="Moldavio"/>
    <tag k="name:fi" v="Moldova"/>
    <tag k="name:he" v="מולדובה"/>
    <tag k="name:hu" v="Moldova"/>
    <tag k="name:ru" v="Молдавия"/>
    <tag k="name:zh" v="摩尔多瓦"/>
    <tag k="name:zh_py" v="Moerduowa"/>
    <tag k="name:zh_pyt" v="Móěrduōwǎ"/>
    <tag k="official_name" v="The Republic of Moldova"/>
    <tag k="place" v="country"/>
    <tag k="population" v="4128047"/>
    <tag k="watch:hakan" v="countries"/>
  </node>
  <node id="432425039" version="2" timestamp="2009-07-22T18:42:38Z" uid="20587" user="balrog-kun" changeset="1907934" lat="43.73125" lon="7.4197222">
    <tag k="country_code_fips" v="MN"/>
    <tag k="country_code_iso3166_1_alpha_2" v="MC"/>
    <tag k="geonames:id" v="2993457"/>
    <tag k="int_name" v="Monaco"/>
    <tag k="is_in:continent" v="Europe"/>
    <tag k="name" v="Monaco"/>
    <tag k="name:ar" v="موناكو"/>
    <tag k="name:da" v="Monaco"/>
    <tag k="name:en" v="Monaco"/>
    <tag k="name:eo" v="Monako"/>
    <tag k="name:fi" v="Monaco"/>
    <tag k="name:he" v="מונקו"/>
    <tag k="name:hu" v="Monaco"/>
    <tag k="name:zh" v="摩纳哥"/>
    <tag k="name:zh_py" v="Monage"/>
    <tag k="name:zh_pyt" v="Mónàgē"/>
    <tag k="place" v="country"/>
    <tag k="watch:hakan" v="countries"/>
  </node>
  <node id="432425041" version="2" timestamp="2009-07-23T10:45:31Z" uid="123700" user="Mala" changeset="1914232" lat="30.8506457" lon="-7.3478891">
    <tag k="capital_city" v="Rabat"/>
    <tag k="country_code_fips" v="MO"/>
    <tag k="country_code_iso3166_1_alpha_2" v="MA"/>
    <tag k="geonames:id" v="2542007"/>
    <tag k="int_name" v="Morocco"/>
    <tag k="is_in:continent" v="Africa"/>
    <tag k="name" v="المغرب"/>
    <tag k="name:ar" v="المغرب"/>
    <tag k="name:cy" v="Moroco"/>
    <tag k="name:da" v="Marokko"/>
    <tag k="name:de" v="Marokko"/>
    <tag k="name:en" v="Morocco"/>
    <tag k="name:eo" v="Maroko"/>
    <tag k="name:es" v="Marruecos"/>
    <tag k="name:fi" v="Marokko"/>
    <tag k="name:fr" v="Maroc"/>
    <tag k="name:he" v="מרוקו"/>
    <tag k="name:hu" v="Marokkó"/>
    <tag k="name:it" v="Marocco"/>
    <tag k="name:pl" v="Maroko"/>
    <tag k="name:zh" v="摩洛哥"/>
    <tag k="name:zh_py" v="Moluoge"/>
    <tag k="name:zh_pyt" v="Móluògē"/>
    <tag k="official_name" v="المملكة المغربية"/>
    <tag k="official_name:en" v="Kingdom of Morocco"/>
    <tag k="place" v="country"/>
    <tag k="watch:hakan" v="countries"/>
    <tag k="wikipedia" v="Morocco"/>
  </node>
  <node id="432425042" version="2" timestamp="2009-07-23T11:58:44Z" uid="123700" user="Mala" changeset="1914917" lat="-19.3022645" lon="34.9145101">
    <tag k="capital_city" v="Maputo"/>
    <tag k="country_code_fips" v="MZ"/>
    <tag k="country_code_iso3166_1_alpha_2" v="MZ"/>
    <tag k="geonames:id" v="1036973"/>
    <tag k="int_name" v="Mozambique"/>
    <tag k="is_in:continent" v="Africa"/>
    <tag k="name" v="Mozambique"/>
    <tag k="name:ar" v="موزمبيق"/>
    <tag k="name:cy" v="Mosambic"/>
    <tag k="name:da" v="Mozambique"/>
    <tag k="name:en" v="Mozambique"/>
    <tag k="name:eo" v="Mozambiko"/>
    <tag k="name:fi" v="Mosambik"/>
    <tag k="name:he" v="מוזמביק"/>
    <tag k="name:hu" v="Mozambik"/>
    <tag k="name:pt" v="Moçambique"/>
    <tag k="name:zh" v="莫桑比克"/>
    <tag k="name:zh_py" v="Mosangbike"/>
    <tag k="name:zh_pyt" v="Mòsāngbǐkè"/>
    <tag k="official_name" v="República de Moçambique"/>
    <tag k="place" v="country"/>
    <tag k="population" v="21397000"/>
    <tag k="watch:hakan" v="countries"/>
  </node>
  <node id="432425043" version="2" timestamp="2009-07-22T20:51:43Z" uid="123700" user="Mala" changeset="1909234" lat="17.175" lon="96">
    <tag k="country_code_fips" v="BM"/>
    <tag k="country_code_iso3166_1_alpha_2" v="MM"/>
    <tag k="geonames:id" v="1327865"/>
    <tag k="int_name" v="Myanmar"/>
    <tag k="is_in:continent" v="Asia"/>
    <tag k="name" v="Myanmar"/>
    <tag k="name:ar" v="ميانمار"/>
    <tag k="name:da" v="Myanmar"/>
    <tag k="name:en" v="Myanmar"/>
    <tag k="name:eo" v="Birmo"/>
    <tag k="name:he" v="מיאנמר"/>
    <tag k="name:hu" v="Mianmar"/>
    <tag k="name:zh" v="缅甸"/>
    <tag k="name:zh_py" v="Miandian"/>
    <tag k="name:zh_pyt" v="Miǎndiàn"/>
    <tag k="place" v="country"/>
    <tag k="watch:hakan" v="countries"/>
    <tag k="wikipedia" v="Burma"/>
  </node>
  <node id="432425045" version="2" timestamp="2009-07-23T23:33:35Z" uid="20587" user="balrog-kun" changeset="1920502" lat="-0.525" lon="166.9333334">
    <tag k="country_code_fips" v="NR"/>
    <tag k="country_code_iso3166_1_alpha_2" v="NR"/>
    <tag k="geonames:id" v="2110425"/>
    <tag k="int_name" v="Nauru"/>
    <tag k="is_in:island" v="Nauru"/>
    <tag k="is_in:ocean" v="Pacific"/>
    <tag k="name" v="Nauru"/>
    <tag k="name:ar" v="ناورو"/>
    <tag k="name:da" v="Nauru"/>
    <tag k="name:en" v="Nauru"/>
    <tag k="name:eo" v="Nauro"/>
    <tag k="name:hu" v="Nauru"/>
    <tag k="official_name" v="Republic of Nauru"/>
    <tag k="place" v="country"/>
    <tag k="population" v="13770"/>
  </node>
  <node id="432425046" version="2" timestamp="2009-07-22T20:51:37Z" uid="123700" user="Mala" changeset="1909234" lat="28.1083334" lon="84.0916666">
    <tag k="country_code_fips" v="NP"/>
    <tag k="country_code_iso3166_1_alpha_2" v="NP"/>
    <tag k="geonames:id" v="1282988"/>
    <tag k="int_name" v="Nepal"/>
    <tag k="is_in:continent" v="Asia"/>
    <tag k="name" v="Nepal"/>
    <tag k="name:ar" v="نيبال"/>
    <tag k="name:da" v="Nepal"/>
    <tag k="name:de" v="Nepal"/>
    <tag k="name:en" v="Nepal"/>
    <tag k="name:eo" v="Nepalo"/>
    <tag k="name:he" v="נפאל"/>
    <tag k="name:hu" v="Nepál"/>
    <tag k="name:zh" v="尼泊尔"/>
    <tag k="name:zh_py" v="Niboer"/>
    <tag k="name:zh_pyt" v="Níbóěr"/>
    <tag k="place" v="country"/>
    <tag k="watch:hakan" v="countries"/>
  </node>
  <node id="432425047" version="2" timestamp="2009-07-23T12:54:42Z" uid="20587" user="balrog-kun" changeset="1915349" lat="-41.3117326" lon="174.9746694">
    <tag k="capital_city" v="Wellington"/>
    <tag k="country_code_fips" v="NZ"/>
    <tag k="country_code_iso3166_1_alpha_2" v="NZ"/>
    <tag k="int_name" v="New Zealand"/>
    <tag k="is_in:continent" v="Oceania"/>
    <tag k="name" v="New Zealand"/>
    <tag k="name:ar" v="نيوزيلندا"/>
    <tag k="name:cy" v="Seland Newydd"/>
    <tag k="name:da" v="New Zealand"/>
    <tag k="name:de" v="Neuseeland"/>
    <tag k="name:en" v="New Zealand"/>
    <tag k="name:eo" v="Nov-Zelando"/>
    <tag k="name:fi" v="Uusi-Seelanti"/>
    <tag k="name:he" v="ניו זילנד"/>
    <tag k="name:hu" v="Új-Zéland"/>
    <tag k="name:mi" v="Aotearoa"/>
    <tag k="place" v="country"/>
  </node>
  <node id="432425048" version="2" timestamp="2009-07-23T00:14:42Z" uid="123700" user="Mala" changeset="1910307" lat="12.3724492" lon="-84.8700031">
    <tag k="country_code_fips" v="NU"/>
    <tag k="country_code_iso3166_1_alpha_2" v="NI"/>
    <tag k="geonames:id" v="3617476"/>
    <tag k="int_name" v="Nicaragua"/>
    <tag k="is_in:continent" v="North America"/>
    <tag k="name" v="Nicaragua"/>
    <tag k="name:ar" v="نيكاراغوا"/>
    <tag k="name:da" v="Nicaragua"/>
    <tag k="name:en" v="Nicaragua"/>
    <tag k="name:eo" v="Nikaragvo"/>
    <tag k="name:he" v="ניקרגואה"/>
    <tag k="name:hu" v="Nicaragua"/>
    <tag k="place" v="country"/>
    <tag k="watch:hakan" v="countries"/>
  </node>
  <node id="432425049" version="2" timestamp="2009-07-23T10:45:36Z" uid="123700" user="Mala" changeset="1914232" lat="19.4799091" lon="9.9859088">
    <tag k="country_code_fips" v="NG"/>
    <tag k="country_code_iso3166_1_alpha_2" v="NE"/>
    <tag k="geonames:id" v="2440476"/>
    <tag k="int_name" v="Niger"/>
    <tag k="is_in:continent" v="Africa"/>
    <tag k="name" v="Niger"/>
    <tag k="name:ar" v="النيجر"/>
    <tag k="name:da" v="Niger"/>
    <tag k="name:en" v="Niger"/>
    <tag k="name:eo" v="Niĝero"/>
    <tag k="name:hu" v="Niger"/>
    <tag k="name:zh" v="尼日尔"/>
    <tag k="name:zh_py" v="Nirier"/>
    <tag k="name:zh_pyt" v="Nírìěr"/>
    <tag k="place" v="country"/>
    <tag k="watch:hakan" v="countries"/>
  </node>
  <node id="432425053" version="2" timestamp="2009-07-22T20:51:20Z" uid="123700" user="Mala" changeset="1909234" lat="20.9999816" lon="57.0037413">
    <tag k="capital_city" v="Muscat"/>
    <tag k="country_code_fips" v="MU"/>
    <tag k="country_code_iso3166_1_alpha_2" v="OM"/>
    <tag k="is_in:continent" v="Asia"/>
    <tag k="name" v="سلطنة عُمان Oman"/>
    <tag k="name:ar" v="عمان"/>
    <tag k="name:cy" v="Oman"/>
    <tag k="name:da" v="Oman"/>
    <tag k="name:de" v="Oman"/>
    <tag k="name:en" v="Oman"/>
    <tag k="name:eo" v="Omano"/>
    <tag k="name:fi" v="Oman"/>
    <tag k="name:he" v="עומן"/>
    <tag k="name:hu" v="Omán"/>
    <tag k="name:zh" v="阿曼"/>
    <tag k="name:zh_py" v="Aman"/>
    <tag k="name:zh_pyt" v="Āmàn"/>
    <tag k="off_name" v="Sultanate of Oman"/>
    <tag k="official_name" v="Sultanate of Oman"/>
    <tag k="place" v="country"/>
    <tag k="population" v="2577000"/>
  </node>
  <node id="432425054" version="2" timestamp="2009-07-22T19:23:54Z" uid="123700" user="Mala" changeset="1908405" lat="30.3308102" lon="71.2475309">
    <tag k="capital_city" v="Karachi"/>
    <tag k="country_code_fips" v="PK"/>
    <tag k="country_code_iso3166_1_alpha_2" v="PK"/>
    <tag k="geonames:id" v="1168579"/>
    <tag k="int_name" v="Pakistan"/>
    <tag k="is_in:continent" v="Asia"/>
    <tag k="name" v="Pakistan"/>
    <tag k="name:ar" v="باكستان"/>
    <tag k="name:da" v="Pakistan"/>
    <tag k="name:de" v="Pakistan"/>
    <tag k="name:en" v="Pakistan"/>
    <tag k="name:eo" v="Pakistano"/>
    <tag k="name:fi" v="Pakistan"/>
    <tag k="name:he" v="פקיסטן"/>
    <tag k="name:hu" v="Pakisztán"/>
    <tag k="name:it" v="Pakistan"/>
    <tag k="name:pl" v="Pakistan"/>
    <tag k="name:ur" v="پاکستان"/>
    <tag k="name:zh" v="巴基斯坦"/>
    <tag k="name:zh_py" v="Bajisitan"/>
    <tag k="name:zh_pyt" v="Bājīsītǎn"/>
    <tag k="official_name" v="Islamic Republic of Pakistan"/>
    <tag k="official_name:it" v="Repubblica Islamica del Pakistan"/>
    <tag k="official_name:pl" v="Islamska Republika Pakistanu"/>
    <tag k="place" v="country"/>
    <tag k="population" v="172800000"/>
    <tag k="watch:hakan" v="countries"/>
  </node>
  <node id="432425054" version="3" timestamp="2009-07-22T20:51:34Z" uid="123700" user="Mala" changeset="1909234" lat="30.3308102" lon="71.2475309">
    <tag k="capital_city" v="Karachi"/>
    <tag k="country_code_fips" v="PK"/>
    <tag k="country_code_iso3166_1_alpha_2" v="PK"/>
    <tag k="geonames:id" v="1168579"/>
    <tag k="int_name" v="Pakistan"/>
    <tag k="is_in:continent" v="Asia"/>
    <tag k="name" v="Pakistan"/>
    <tag k="name:ar" v="باكستان"/>
    <tag k="name:da" v="Pakistan"/>
    <tag k="name:de" v="Pakistan"/>
    <tag k="name:en" v="Pakistan"/>
    <tag k="name:eo" v="Pakistano"/>
    <tag k="name:fi" v="Pakistan"/>
    <tag k="name:he" v="פקיסטן"/>
    <tag k="name:hu" v="Pakisztán"/>
    <tag k="name:it" v="Pakistan"/>
    <tag k="name:pl" v="Pakistan"/>
    <tag k="name:ur" v="پاکستان"/>
    <tag k="name:zh" v="巴基斯坦"/>
    <tag k="name:zh_py" v="Bajisitan"/>
    <tag k="name:zh_pyt" v="Bājīsītǎn"/>
    <tag k="official_name" v="Islamic Republic of Pakistan"/>
    <tag k="official_name:it" v="Repubblica Islamica del Pakistan"/>
    <tag k="official_name:pl" v="Islamska Republika Pakistanu"/>
    <tag k="place" v="country"/>
    <tag k="population" v="172800000"/>
    <tag k="watch:hakan" v="countries"/>
  </node>
  <node id="432425055" version="2" timestamp="2009-07-23T00:14:40Z" uid="123700" user="Mala" changeset="1910307" lat="8.3095638" lon="-81.3065967">
    <tag k="country_code_fips" v="PM"/>
    <tag k="country_code_iso3166_1_alpha_2" v="PA"/>
    <tag k="geonames:id" v="3703430"/>
    <tag k="int_name" v="Panama"/>
    <tag k="is_in:continent" v="North America"/>
    <tag k="name" v="Panama"/>
    <tag k="name:ar" v="بنما"/>
    <tag k="name:da" v="Panama"/>
    <tag k="name:en" v="Panama"/>
    <tag k="name:eo" v="Panamo"/>
    <tag k="name:he" v="פנמה"/>
    <tag k="name:hu" v="Panama"/>
    <tag k="place" v="country"/>
    <tag k="watch:hakan" v="countries"/>
  </node>
  <node id="432425056" version="2" timestamp="2009-07-23T23:33:33Z" uid="20587" user="balrog-kun" changeset="1920502" lat="-5.6816629" lon="144.2489365">
    <tag k="capital_city" v="Port Moresby"/>
    <tag k="country_code_fips" v="PP"/>
    <tag k="country_code_iso3166_1_alpha_2" v="PG"/>
    <tag k="geonames:id" v="2088628"/>
    <tag k="int_name" v="Papua New Guinea"/>
    <tag k="name" v="Papua New Guinea"/>
    <tag k="name:ar" v="بابوا نيوغينيا"/>
    <tag k="name:cy" v="Papua Guinea Newydd"/>
    <tag k="name:da" v="Papua Ny Guinea"/>
    <tag k="name:de" v="Papua-Neuguinea"/>
    <tag k="name:en" v="Papua New Guinea"/>
    <tag k="name:eo" v="Papuo-Nov-Gvineo"/>
    <tag k="name:fi" v="Papua-Uusi-Guinea"/>
    <tag k="name:hu" v="Pápua Új-Guinea"/>
    <tag k="place" v="country"/>
    <tag k="watch:hakan" v="countries"/>
  </node>
  <node id="432425057" version="2" timestamp="2009-07-23T01:41:08Z" uid="20587" user="balrog-kun" changeset="1910614" lat="-23.4333334" lon="-58.45">
    <tag k="country_code_fips" v="PA"/>
    <tag k="country_code_iso3166_1_alpha_2" v="PY"/>
    <tag k="geonames:id" v="3437598"/>
    <tag k="int_name" v="Paraguay"/>
    <tag k="is_in:continent" v="South America"/>
    <tag k="name" v="Paraguay"/>
    <tag k="name:ar" v="باراغواي"/>
    <tag k="name:da" v="Paraguay"/>
    <tag k="name:en" v="Paraguay"/>
    <tag k="name:eo" v="Paragvajo"/>
    <tag k="name:he" v="פראגואי"/>
    <tag k="name:hu" v="Paraguay"/>
    <tag k="place" v="country"/>
    <tag k="watch:hakan" v="countries"/>
  </node>
  <node id="432425059" version="2" timestamp="2009-07-22T20:51:42Z" uid="123700" user="Mala" changeset="1909234" lat="12.7502921" lon="122.731255">
    <tag k="capital_city" v="Manila"/>
    <tag k="country_code_fips" v="RP"/>
    <tag k="country_code_iso3166_1_alpha_2" v="PH"/>
    <tag k="is_in" v="Asia, ASEAN, South East Asia, Pacific Ocean"/>
    <tag k="is_in:continent" v="Asia"/>
    <tag k="is_in:ocean" v="Pacific"/>
    <tag k="name" v="Philippines"/>
    <tag k="name:ar" v="الفلبين"/>
    <tag k="name:cy" v="Pilipinas"/>
    <tag k="name:da" v="Filippinerne"/>
    <tag k="name:de" v="Philippinen"/>
    <tag k="name:eo" v="Filipinoj"/>
    <tag k="name:fi" v="Filippiinit"/>
    <tag k="name:he" v="פיליפינים"/>
    <tag k="name:hu" v="Fülöp-szigetek"/>
    <tag k="name:zh" v="菲律宾"/>
    <tag k="name:zh_py" v="Feilübin"/>
    <tag k="name:zh_pyt" v="Fēilǜbīn"/>
    <tag k="place" v="country"/>
  </node>
  <node id="432425060" version="2" timestamp="2009-07-22T21:29:23Z" uid="20587" user="balrog-kun" changeset="1909555" lat="52.0976954" lon="19.025852">
    <tag k="country_code_iso3166_1_alpha_2" v="PL"/>
    <tag k="is_in" v="Europe"/>
    <tag k="is_in:continent" v="Europe"/>
    <tag k="name" v="Polska"/>
    <tag k="name:ar" v="بولندا"/>
    <tag k="name:cy" v="Gwlad Pwyl"/>
    <tag k="name:da" v="Polen"/>
    <tag k="name:de" v="Polen"/>
    <tag k="name:en" v="Poland"/>
    <tag k="name:eo" v="Pollando"/>
    <tag k="name:es" v="Polonia"/>
    <tag k="name:fi" v="Puola"/>
    <tag k="name:fr" v="Pologne"/>
    <tag k="name:he" v="פולין"/>
    <tag k="name:hu" v="Lengyelország"/>
    <tag k="name:la" v="Polonia"/>
    <tag k="name:nl" v="Polen"/>
    <tag k="name:ru" v="По́льша"/>
    <tag k="name:sl" v="Poljska"/>
    <tag k="name:zh" v="波兰"/>
    <tag k="name:zh_py" v="Bolan"/>
    <tag k="name:zh_pyt" v="Bōlán"/>
    <tag k="official_name" v="Rzeczpospolita Polska"/>
    <tag k="official_name:en" v="Republic of Poland"/>
    <tag k="official_name:eo" v="Pola Respubliko"/>
    <tag k="official_name:es" v="República Polaca"/>
    <tag k="official_name:fr" v="République de Pologne"/>
    <tag k="official_name:nl" v="Republiek Polen"/>
    <tag k="official_name:ru" v="Респу́блика По́льша"/>
    <tag k="place" v="country"/>
    <tag k="wikipedia" v="Poland"/>
  </node>
  <node id="432425060" version="44" timestamp="2010-04-27T03:56:25Z" uid="30632" user="antblant" changeset="4537843" lat="52.0977181" lon="19.0258159">
    <tag k="country_code_iso3166_1_alpha_2" v="PL"/>
    <tag k="is_in" v="Europe"/>
    <tag k="is_in:continent" v="Europe"/>
    <tag k="name" v="Polska"/>
    <tag k="name:af" v="Pole"/>
    <tag k="name:ar" v="بولندا"/>
    <tag k="name:be" v="Польшча"/>
    <tag k="name:br" v="Polonia"/>
    <tag k="name:ca" v="Polònia"/>
    <tag k="name:cs" v="Polsko"/>
    <tag k="name:cy" v="Gwlad Pwyl"/>
    <tag k="name:da" v="Polen"/>
    <tag k="name:de" v="Polen"/>
    <tag k="name:el" v="Πολωνία"/>
    <tag k="name:en" v="Poland"/>
    <tag k="name:eo" v="Pollando"/>
    <tag k="name:es" v="Polonia"/>
    <tag k="name:et" v="Poola"/>
    <tag k="name:eu" v="Polonia"/>
    <tag k="name:fa" v="لهستان"/>
    <tag k="name:fi" v="Puola"/>
    <tag k="name:fr" v="Pologne"/>
    <tag k="name:fy" v="Poalen"/>
    <tag k="name:ga" v="An Pholainn"/>
    <tag k="name:gd" v="A&apos; Phòlainn"/>
    <tag k="name:haw" v="Pōlani"/>
    <tag k="name:he" v="פולין"/>
    <tag k="name:hr" v="Poljska"/>
    <tag k="name:hu" v="Lengyelország"/>
    <tag k="name:hy" v="Լեհաստան"/>
    <tag k="name:id" v="Polandia"/>
    <tag k="name:is" v="Pólland"/>
    <tag k="name:it" v="Polonia"/>
    <tag k="name:ja" v="ポーランド"/>
    <tag k="name:la" v="Polonia"/>
    <tag k="name:lb" v="Polen"/>
    <tag k="name:li" v="Pole"/>
    <tag k="name:lt" v="Lenkija"/>
    <tag k="name:lv" v="Polija"/>
    <tag k="name:mn" v="Польш"/>
    <tag k="name:nl" v="Polen"/>
    <tag k="name:no" v="Polen"/>
    <tag k="name:pl" v="Polska"/>
    <tag k="name:ro" v="Polonia"/>
    <tag k="name:ru" v="Польша"/>
    <tag k="name:sk" v="Poľsko"/>
    <tag k="name:sl" v="Poljska"/>
    <tag k="name:sv" v="Polen"/>
    <tag k="name:th" v="ประเทศโปแลนด์"/>
    <tag k="name:tr" v="Polonya"/>
    <tag k="name:uk" v="Польща"/>
    <tag k="name:vi" v="Ba Lan"/>
    <tag k="name:zh" v="波兰"/>
    <tag k="name:zh_pinyin" v="Bōlán"/>
    <tag k="official_name" v="Rzeczpospolita Polska"/>
    <tag k="official_name:be" v="Рэспубліка Польшча"/>
    <tag k="official_name:el" v="Δημοκρατία της Πολωνίας"/>
    <tag k="official_name:en" v="Republic of Poland"/>
    <tag k="official_name:eo" v="Pola Respubliko"/>
    <tag k="official_name:es" v="República Polaca"/>
    <tag k="official_name:et" v="Poola Vabariik"/>
    <tag k="official_name:fr" v="République de Pologne"/>
    <tag k="official_name:it" v="Repubblica di Polonia"/>
    <tag k="official_name:ja" v="ポーランド共和国"/>
    <tag k="official_name:lt" v="Lenkijos Respublika"/>
    <tag k="official_name:nl" v="Republiek Polen"/>
    <tag k="official_name:ru" v="Респу́блика По́льша"/>
    <tag k="official_name:sk" v="Poľská republika"/>
    <tag k="official_name:sv" v="Republiken Polen"/>
    <tag k="official_name:vi" v="Cộng hòa Ba Lan"/>
    <tag k="place" v="country"/>
    <tag k="teryt:simc" v="0219112"/>
    <tag k="wikipedia" v="Poland"/>
    <tag k="wikipedia:fr" v="Pologne"/>
  </node>
  <node id="432425061" version="2" timestamp="2009-07-22T17:27:26Z" uid="20587" user="balrog-kun" changeset="1907117" lat="39.4999613" lon="-8.0074031">
    <tag k="capital_city" v="Lisbon"/>
    <tag k="country_code" v="PT"/>
    <tag k="country_code_fips" v="PO"/>
    <tag k="country_code_iso3166_1_alpha_2" v="PT"/>
    <tag k="is_in:continent" v="Europe"/>
    <tag k="name" v="Portugal"/>
    <tag k="name:ar" v="البرتغال"/>
    <tag k="name:cy" v="Portiwgal"/>
    <tag k="name:da" v="Portugal"/>
    <tag k="name:de" v="Portugal"/>
    <tag k="name:en" v="Portugal"/>
    <tag k="name:eo" v="Portugalio"/>
    <tag k="name:fi" v="Portugali"/>
    <tag k="name:fr" v="Portugal"/>
    <tag k="name:he" v="פורטוגל"/>
    <tag k="name:hu" v="Portugália"/>
    <tag k="name:pl" v="Portugalia"/>
    <tag k="name:sl" v="Portugalska"/>
    <tag k="name:zh" v="葡萄牙"/>
    <tag k="name:zh_py" v="Putaoya"/>
    <tag k="name:zh_pyt" v="Pútáoyá"/>
    <tag k="place" v="country"/>
  </node>
  <node id="432425062" version="2" timestamp="2009-07-22T20:51:18Z" uid="123700" user="Mala" changeset="1909234" lat="25.3629167" lon="51.6972222">
    <tag k="country_code_fips" v="QA"/>
    <tag k="country_code_iso3166_1_alpha_2" v="QA"/>
    <tag k="geonames:id" v="289688"/>
    <tag k="int_name" v="Qatar"/>
    <tag k="is_in:continent" v="Asia"/>
    <tag k="name" v="قطر Qatar"/>
    <tag k="name:ar" v="قطر"/>
    <tag k="name:da" v="Qatar"/>
    <tag k="name:de" v="Katar"/>
    <tag k="name:en" v="Qatar"/>
    <tag k="name:eo" v="Kataro"/>
    <tag k="name:fi" v="Qatar"/>
    <tag k="name:he" v="קטר"/>
    <tag k="name:hu" v="Katar"/>
    <tag k="name:it" v="Qatar"/>
    <tag k="name:pl" v="Katar"/>
    <tag k="name:zh" v="卡塔尔"/>
    <tag k="name:zh_py" v="Kataer"/>
    <tag k="name:zh_pyt" v="Kǎtǎěr"/>
    <tag k="official_name" v="دولة قطر"/>
    <tag k="place" v="country"/>
    <tag k="watch:hakan" v="countries"/>
    <tag k="wikipedia" v="Qatar"/>
  </node>
  <node id="432425063" version="2" timestamp="2009-07-23T23:49:26Z" uid="123700" user="Mala" changeset="1920545" lat="-0.5318323" lon="15.8515814">
    <tag k="alt_name" v="Congo-Brazzaville;Congo (Brazzaville);The Congo"/>
    <tag k="capital_city" v="Brazzaville"/>
    <tag k="country_code_fips" v="CF"/>
    <tag k="country_code_iso3166_1_alpha_2" v="CG"/>
    <tag k="geonames:id" v="2260494"/>
    <tag k="int_name" v="Republic of the Congo"/>
    <tag k="is_in:continent" v="Africa"/>
    <tag k="name" v="République du Congo"/>
    <tag k="name:ar" v="جمهورية الكونغو الديمقراطية"/>
    <tag k="name:cy" v="Gweriniaeth y Congo"/>
    <tag k="name:da" v="Republikken Congo"/>
    <tag k="name:en" v="Republic of the Congo"/>
    <tag k="name:eo" v="Respubliko Kongo"/>
    <tag k="name:es" v="República del Congo"/>
    <tag k="name:fi" v="Kongon tasavalta"/>
    <tag k="name:fr" v="République du Congo"/>
    <tag k="name:he" v="קונגו"/>
    <tag k="name:hu" v="Kongó"/>
    <tag k="name:it" v="Repubblica del Congo"/>
    <tag k="name:kg" v="Repubilika ya Kongo"/>
    <tag k="name:ln" v="Republiki ya Kongó"/>
    <tag k="name:pl" v="Kongo"/>
    <tag k="place" v="country"/>
    <tag k="population" v="3999000"/>
    <tag k="watch:hakan" v="countries"/>
    <tag k="wikipedia" v="Republic of the Congo"/>
  </node>
  <node id="432425064" version="3" timestamp="2009-07-23T00:20:24Z" uid="20587" user="balrog-kun" changeset="1910333" lat="45.8833382" lon="24.4833389">
    <tag k="capital_city" v="Bucureşti"/>
    <tag k="country_code_fips" v="RO"/>
    <tag k="country_code_iso3166_1_alpha_2" v="RO"/>
    <tag k="geonames:id" v="798549"/>
    <tag k="int_name" v="Romania"/>
    <tag k="is_in:continent" v="Europe"/>
    <tag k="name" v="România"/>
    <tag k="name:ar" v="رومانيا"/>
    <tag k="name:cy" v="Rwmania"/>
    <tag k="name:da" v="Rumænien"/>
    <tag k="name:de" v="Rumänien"/>
    <tag k="name:en" v="Romania"/>
    <tag k="name:eo" v="Rumanio"/>
    <tag k="name:es" v="Rumania"/>
    <tag k="name:fr" v="Roumanie"/>
    <tag k="name:he" v="רומניה"/>
    <tag k="name:hu" v="Románia"/>
    <tag k="name:pl" v="Rumunia"/>
    <tag k="name:ro" v="România"/>
    <tag k="name:zh" v="罗马尼亚"/>
    <tag k="name:zh_py" v="Luomaniya"/>
    <tag k="name:zh_pyt" v="Luómăníyà"/>
    <tag k="place" v="country"/>
    <tag k="watch:hakan" v="countries"/>
    <tag k="wikipedia" v="Romania"/>
  </node>
  <node id="432425065" version="2" timestamp="2009-07-22T19:59:03Z" uid="20587" user="balrog-kun" changeset="1908820" lat="64.6862927" lon="97.7453312">
    <tag k="alt_name" v="Russia, Россия"/>
    <tag k="capital_city" v="Moscow"/>
    <tag k="country_code_fips" v="RS"/>
    <tag k="country_code_iso3166_1_alpha_2" v="RU"/>
    <tag k="int_name" v="Russian Federation"/>
    <tag k="is_in:continent" v="Europe;Asia"/>
    <tag k="name" v="Российская Федерация"/>
    <tag k="name:ar" v="روسيا الاتحادية"/>
    <tag k="name:by" v="Расія"/>
    <tag k="name:cy" v="Ffederasiwn Rwsia"/>
    <tag k="name:da" v="Rusland"/>
    <tag k="name:de" v="Russland"/>
    <tag k="name:en" v="Russian Federation"/>
    <tag k="name:eo" v="Rusio"/>
    <tag k="name:fi" v="Venäjä"/>
    <tag k="name:he" v="רוסיה"/>
    <tag k="name:hu" v="Oroszország"/>
    <tag k="name:ro" v="Rusia"/>
    <tag k="name:ru" v="Российская Федерация"/>
    <tag k="name:ua" v="Росія"/>
    <tag k="name:zh" v="俄罗斯"/>
    <tag k="name:zh_py" v="Eluosi"/>
    <tag k="name:zh_pyt" v="Éluósī"/>
    <tag k="place" v="country"/>
    <tag k="population" v="142008838"/>
  </node>
  <node id="432425066" version="2" timestamp="2009-07-23T11:58:59Z" uid="123700" user="Mala" changeset="1914917" lat="-1.9519668" lon="29.9574216">
    <tag k="country_code_fips" v="RW"/>
    <tag k="country_code_iso3166_1_alpha_2" v="RW"/>
    <tag k="int_name" v="Rwanda"/>
    <tag k="is_in:continent" v="Africa"/>
    <tag k="name" v="Rwanda"/>
    <tag k="name:ar" v="رواندا"/>
    <tag k="name:da" v="Rwanda"/>
    <tag k="name:de" v="Ruanda"/>
    <tag k="name:en" v="Rwanda"/>
    <tag k="name:eo" v="Ruando"/>
    <tag k="name:fi" v="Ruanda"/>
    <tag k="name:he" v="רואנדה"/>
    <tag k="name:hu" v="Ruanda"/>
    <tag k="name:zh" v="卢旺达"/>
    <tag k="name:zh_py" v="Luwangda"/>
    <tag k="name:zh_pyt" v="Lúwàngdá"/>
    <tag k="place" v="country"/>
  </node>
  <node id="432425067" version="2" timestamp="2009-07-23T10:45:39Z" uid="123700" user="Mala" changeset="1914232" lat="24.3916667" lon="-12.875">
    <tag k="country_code_fips" v="WI"/>
    <tag k="country_code_iso3166_1_alpha_2" v="EH"/>
    <tag k="geonames:id" v="2461445"/>
    <tag k="int_name" v="Western Sahara"/>
    <tag k="is_in:continent" v="Africa"/>
    <tag k="name" v="Western Sahara"/>
    <tag k="name:ar" v="الجمهورية العربية الصحراوية"/>
    <tag k="name:cy" v="Gorllewin Sahara"/>
    <tag k="name:da" v="Vestsahara"/>
    <tag k="name:de" v="Westsahara"/>
    <tag k="name:en" v="Western Sahara"/>
    <tag k="name:eo" v="Okcidenta Saharo"/>
    <tag k="name:fi" v="Länsi-Sahara"/>
    <tag k="name:hu" v="Nyugat-Szahara"/>
    <tag k="name:zh" v="西撒哈拉"/>
    <tag k="name:zh_py" v="Xi Sahala"/>
    <tag k="name:zh_pyt" v="Xī Sāhālā"/>
    <tag k="place" v="country"/>
    <tag k="watch:hakan" v="countries"/>
  </node>
  <node id="432425068" version="2" timestamp="2009-07-23T02:17:09Z" uid="123700" user="Mala" changeset="1910715" lat="17.3461794" lon="-62.7687025">
    <tag k="alt_name" v="Federation of Saint Christopher and Nevis"/>
    <tag k="capital_city" v="Basseterre"/>
    <tag k="country_code_fips" v="SC"/>
    <tag k="country_code_iso3166_1_alpha_2" v="KN"/>
    <tag k="is_in:continent" v="North America"/>
    <tag k="is_in:ocean" v="Atlantic"/>
    <tag k="is_in:sea" v="Caribbean Sea"/>
    <tag k="name" v="Saint Kitts and Nevis"/>
    <tag k="name:ar" v="سانت كيتس ونيفس"/>
    <tag k="name:cy" v="Saint Kitts a Nevis"/>
    <tag k="name:da" v="Saint Kitts og Nevis"/>
    <tag k="name:eo" v="Sankta-Kito kaj Neviso"/>
    <tag k="name:hu" v="Saint Christopher és Nevis"/>
    <tag k="official_name" v="Federation of Saint Kitts and Nevis"/>
    <tag k="place" v="country"/>
    <tag k="population" v="42696"/>
  </node>
  <node id="432425069" version="2" timestamp="2009-07-23T02:17:04Z" uid="123700" user="Mala" changeset="1910715" lat="13.825" lon="-60.975">
    <tag k="country_code_fips" v="ST"/>
    <tag k="country_code_iso3166_1_alpha_2" v="LC"/>
    <tag k="geonames:id" v="3576468"/>
    <tag k="int_name" v="Saint Lucia"/>
    <tag k="is_in:continent" v="North America"/>
    <tag k="is_in:sea" v="Caribbean Sea"/>
    <tag k="name" v="Saint Lucia"/>
    <tag k="name:ar" v="سانت لوسيا"/>
    <tag k="name:da" v="Saint Lucia"/>
    <tag k="name:en" v="Saint Lucia"/>
    <tag k="name:eo" v="Sankta Lucio"/>
    <tag k="name:hu" v="Saint Lucia"/>
    <tag k="place" v="country"/>
    <tag k="watch:hakan" v="countries"/>
  </node>
  <node id="432425070" version="2" timestamp="2009-07-23T02:17:00Z" uid="123700" user="Mala" changeset="1910715" lat="12.9044136" lon="-61.2765287">
    <tag k="capital_city" v="Kingstown"/>
    <tag k="country_code_fips" v="VC"/>
    <tag k="country_code_iso3166_1_alpha_2" v="VC"/>
    <tag k="int_name" v="Saint Vincent and the Grenadines"/>
    <tag k="is_in:continent" v="North America"/>
    <tag k="is_in:sea" v="Caribbean Sea"/>
    <tag k="name" v="Saint Vincent and the Grenadines"/>
    <tag k="name:ar" v="سانت فنسنت وجزر غرينادين"/>
    <tag k="name:cy" v="Saint Vincent a&apos;r Grenadines"/>
    <tag k="name:da" v="Saint Vincent og Grenadinerne"/>
    <tag k="name:en" v="Saint Vincent and the Grenadines"/>
    <tag k="name:eo" v="Sankta Vincento kaj Grenadinoj"/>
    <tag k="name:es" v="San Vicente y las Granadinas"/>
    <tag k="name:fr" v="Saint-Vincent-et-les Grenadines"/>
    <tag k="name:hu" v="Saint Vincent és a Grenadine-szigetek"/>
    <tag k="name:it" v="Saint Vincent e Grenadine"/>
    <tag k="name:pl" v="Saint Vincent i Grenadyny"/>
    <tag k="place" v="country"/>
    <tag k="wikipedia" v="Saint Vincent and the Grenadines"/>
  </node>
  <node id="432425071" version="2" timestamp="2009-07-26T22:51:32Z" uid="20587" user="balrog-kun" changeset="1950468" lat="-13.7333334" lon="-171.9333334">
    <tag k="country_code_fips" v="WS"/>
    <tag k="country_code_iso3166_1_alpha_2" v="WS"/>
    <tag k="int_name" v="Samoa"/>
    <tag k="is_in:ocean" v="Pacific"/>
    <tag k="name" v="Samoa"/>
    <tag k="name:ar" v="ساموا"/>
    <tag k="name:da" v="Samoa"/>
    <tag k="name:en" v="Samoa"/>
    <tag k="name:eo" v="Samoo"/>
    <tag k="name:he" v="סמואה"/>
    <tag k="name:hu" v="Szamoa"/>
    <tag k="place" v="country"/>
  </node>
  <node id="432425074" version="2" timestamp="2009-07-22T23:17:07Z" uid="123700" user="Mala" changeset="1910099" lat="26.2097327" lon="42.1165356">
    <tag k="country_code_fips" v="SA"/>
    <tag k="country_code_iso3166_1_alpha_2" v="SA"/>
    <tag k="int_name" v="Saudi Arabia"/>
    <tag k="is_in:continent" v="Asia"/>
    <tag k="name" v="Saudi Arabia"/>
    <tag k="name:ar" v="المملكة العربية السعودية"/>
    <tag k="name:da" v="Saudi-Arabien"/>
    <tag k="name:de" v="Saudi-Arabien"/>
    <tag k="name:en" v="Saudi Arabia"/>
    <tag k="name:eo" v="Saŭda Arabio"/>
    <tag k="name:he" v="ערב הסעודית"/>
    <tag k="name:hu" v="Szaúd-Arábia"/>
    <tag k="name:zh" v="沙特阿拉伯"/>
    <tag k="name:zh_py" v="Shate Alabo"/>
    <tag k="name:zh_pyt" v="Shātè Ālābó"/>
    <tag k="place" v="country"/>
  </node>
  <node id="432425075" version="2" timestamp="2009-07-23T23:49:31Z" uid="123700" user="Mala" changeset="1920545" lat="14.475" lon="-14.4529167">
    <tag k="capital_city" v="Dakar"/>
    <tag k="country_code_fips" v="SG"/>
    <tag k="country_code_iso3166_1_alpha_2" v="SN"/>
    <tag k="int_name" v="Senegal"/>
    <tag k="is_in:continent" v="Europe"/>
    <tag k="name" v="Sénégal"/>
    <tag k="name:ar" v="السنغال"/>
    <tag k="name:cy" v="Sénégal"/>
    <tag k="name:da" v="Senegal"/>
    <tag k="name:de" v="Senegal"/>
    <tag k="name:en" v="Senegal"/>
    <tag k="name:eo" v="Senegaleo"/>
    <tag k="name:es" v="Senegal"/>
    <tag k="name:fi" v="Senegal"/>
    <tag k="name:fr" v="Sénégal"/>
    <tag k="name:he" v="סנגל"/>
    <tag k="name:hu" v="Szenegál"/>
    <tag k="name:it" v="Senegal"/>
    <tag k="name:pl" v="Senegal"/>
    <tag k="name:zh" v="塞内加尔"/>
    <tag k="name:zh_py" v="Saineijiaer"/>
    <tag k="name:zh_pyt" v="Sàinèijiāěr"/>
    <tag k="official_name" v="République du Sénégal"/>
    <tag k="place" v="country"/>
    <tag k="wikipedia" v="Senegal"/>
  </node>
  <node id="432425077" version="2" timestamp="2009-07-23T23:49:36Z" uid="123700" user="Mala" changeset="1920545" lat="8.64" lon="-11.84">
    <tag k="country_code_fips" v="SL"/>
    <tag k="country_code_iso3166_1_alpha_2" v="SL"/>
    <tag k="int_name" v="Sierra Leone"/>
    <tag k="is_in:continent" v="Africa"/>
    <tag k="name" v="Sierra Leone"/>
    <tag k="name:ar" v="سيراليون"/>
    <tag k="name:da" v="Sierra Leone"/>
    <tag k="name:en" v="Sierra Leone"/>
    <tag k="name:eo" v="Siera-Leono"/>
    <tag k="name:he" v="סיארה ליאון"/>
    <tag k="name:hu" v="Sierra Leone"/>
    <tag k="name:zh" v="塞拉利昂"/>
    <tag k="name:zh_py" v="Sailali&amp;apos;ang"/>
    <tag k="name:zh_pyt" v="Sàilālì&amp;apos;áng"/>
    <tag k="place" v="country"/>
  </node>
  <node id="432425078" version="2" timestamp="2009-07-22T20:51:40Z" uid="123700" user="Mala" changeset="1909234" lat="1.3571683" lon="103.8195384">
    <tag k="capital_city" v="Singapore City"/>
    <tag k="country_code_fips" v="SN"/>
    <tag k="country_code_iso3166_1_alpha_2" v="SG"/>
    <tag k="is_in:continent" v="Asia"/>
    <tag k="is_in:ocean" v="Pacific"/>
    <tag k="name" v="Singapore"/>
    <tag k="name:ar" v="سنغافورة"/>
    <tag k="name:da" v="Singapore"/>
    <tag k="name:de" v="Singapur"/>
    <tag k="name:eo" v="Singapuro"/>
    <tag k="name:fi" v="Singapore"/>
    <tag k="name:he" v="סינגפור"/>
    <tag k="name:hu" v="Szingapúr"/>
    <tag k="name:ms" v="Singapura"/>
    <tag k="name:pl" v="Singapur"/>
    <tag k="name:zh" v="新加坡"/>
    <tag k="name:zh_py" v="Xinjiapo"/>
    <tag k="name:zh_pyt" v="Xīnjiāpō"/>
    <tag k="official_name" v="Republic of Singapore"/>
    <tag k="place" v="country"/>
    <tag k="population" v="4839400"/>
  </node>
  <node id="432425081" version="2" timestamp="2009-07-23T11:59:09Z" uid="123700" user="Mala" changeset="1914917" lat="8.3676254" lon="49.0834557">
    <tag k="country_code_fips" v="SO"/>
    <tag k="country_code_iso3166_1_alpha_2" v="SO"/>
    <tag k="int_name" v="Somalia"/>
    <tag k="is_in:continent" v="Africa"/>
    <tag k="name" v="Somalia"/>
    <tag k="name:ar" v="الصومال"/>
    <tag k="name:da" v="Somalia"/>
    <tag k="name:en" v="Somalia"/>
    <tag k="name:eo" v="Somalio"/>
    <tag k="name:fi" v="Somalia"/>
    <tag k="name:he" v="סומליה"/>
    <tag k="name:hu" v="Szomália"/>
    <tag k="name:so" v="Soomaaliya"/>
    <tag k="name:zh" v="索马里"/>
    <tag k="name:zh_py" v="Suomali"/>
    <tag k="name:zh_pyt" v="Suǒmǎlǐ"/>
    <tag k="official_name" v="Somali Republic"/>
    <tag k="official_name:ar" v="جمهورية الصومال‎"/>
    <tag k="official_name:so" v="Jamhuuriyadda Soomaaliya"/>
    <tag k="place" v="country"/>
    <tag k="population" v="9558666"/>
  </node>
  <node id="432425082" version="2" timestamp="2009-07-23T11:58:36Z" uid="123700" user="Mala" changeset="1914917" lat="-28.8166667" lon="24.9916667">
    <tag k="country_code_fips" v="SF"/>
    <tag k="country_code_iso3166_1_alpha_2" v="ZA"/>
    <tag k="int_name" v="South Africa"/>
    <tag k="is_in:continent" v="Africa"/>
    <tag k="name" v="South Africa"/>
    <tag k="name:af" v="Suid-Afrika"/>
    <tag k="name:ar" v="جنوب أفريقيا"/>
    <tag k="name:cy" v="De Affrica"/>
    <tag k="name:da" v="Sydafrika"/>
    <tag k="name:de" v="Südafrika"/>
    <tag k="name:en" v="South Africa"/>
    <tag k="name:eo" v="Sudafriko"/>
    <tag k="name:fi" v="Etelä-Afrikka"/>
    <tag k="name:he" v="דרום אפריקה"/>
    <tag k="name:hu" v="Dél-Afrikai Köztársaság"/>
    <tag k="name:ss" v="INingizimu Afrika"/>
    <tag k="name:st" v="Afrika Borwa"/>
    <tag k="name:tn" v="Aferika Borwa"/>
    <tag k="name:ts" v="Afrika-Dzonga"/>
    <tag k="name:ve" v="Afurika Tshipembe"/>
    <tag k="name:xh" v="uMzantsi Afrika"/>
    <tag k="name:zh" v="南非"/>
    <tag k="name:zh_py" v="Nan Fei"/>
    <tag k="name:zh_pyt" v="Nán Fēi"/>
    <tag k="name:zu" v="Ningizimu Afrika"/>
    <tag k="place" v="country"/>
  </node>
  <node id="432425083" version="2" timestamp="2009-07-22T18:08:26Z" uid="123700" user="Mala" changeset="1907550" lat="35.3984488" lon="127.9371471">
    <tag k="country_code_fips" v="KS"/>
    <tag k="country_code_iso3166_1_alpha_2" v="KR"/>
    <tag k="geonames:id" v="1835841"/>
    <tag k="int_name" v="Republic of Korea"/>
    <tag k="is_in:continent" v="Asia"/>
    <tag k="name" v="Republic of Korea"/>
    <tag k="name:ar" v="كوريا الجنوبية"/>
    <tag k="name:da" v="Sydkorea"/>
    <tag k="name:de" v="Südkorea"/>
    <tag k="name:en" v="Republic of Korea"/>
    <tag k="name:eo" v="Sud-Koreio"/>
    <tag k="name:fi" v="Etelä-Korea"/>
    <tag k="name:he" v="קוריאה הדרומית"/>
    <tag k="name:hu" v="Dél-Korea"/>
    <tag k="name:zh" v="韩国"/>
    <tag k="name:zh_py" v="Hanguo"/>
    <tag k="name:zh_pyt" v="Hánguó"/>
    <tag k="place" v="country"/>
    <tag k="watch:hakan" v="countries"/>
    <tag k="wikipedia" v="South Korea"/>
  </node>
  <node id="432425084" version="2" timestamp="2009-07-22T16:54:28Z" uid="20587" user="balrog-kun" changeset="1906857" lat="40.0027417" lon="-4.0030298">
    <tag k="capital_city" v="Madrid"/>
    <tag k="country_code" v="ES"/>
    <tag k="country_code_fips" v="SP"/>
    <tag k="country_code_iso3166_1_alpha_2" v="ES"/>
    <tag k="is_in:continent" v="Europe"/>
    <tag k="name" v="España"/>
    <tag k="name:ar" v="إسبانيا"/>
    <tag k="name:cy" v="Sbaen"/>
    <tag k="name:da" v="Spanien"/>
    <tag k="name:de" v="Spanien"/>
    <tag k="name:en" v="Spain"/>
    <tag k="name:eo" v="Hispanio"/>
    <tag k="name:es" v="España"/>
    <tag k="name:fi" v="Espanja"/>
    <tag k="name:fr" v="Espagne"/>
    <tag k="name:he" v="ספרד"/>
    <tag k="name:hu" v="Spanyolország"/>
    <tag k="name:nl" v="Spanje"/>
    <tag k="name:pl" v="Hiszpania"/>
    <tag k="name:sl" v="Španija"/>
    <tag k="name:zh" v="西班牙"/>
    <tag k="name:zh_py" v="Xibanya"/>
    <tag k="name:zh_pyt" v="Xībānyá"/>
    <tag k="place" v="country"/>
  </node>
  <node id="432425085" version="2" timestamp="2009-07-22T20:51:33Z" uid="123700" user="Mala" changeset="1909234" lat="7.9090102" lon="80.833875">
    <tag k="country_code_fips" v="CE"/>
    <tag k="country_code_iso3166_1_alpha_2" v="LK"/>
    <tag k="geonames:id" v="1227603"/>
    <tag k="int_name" v="Sri Lanka"/>
    <tag k="is_in:continent" v="Asia"/>
    <tag k="name" v="Sri Lanka"/>
    <tag k="name:ar" v="سري لنكا"/>
    <tag k="name:da" v="Sri Lanka"/>
    <tag k="name:en" v="Sri Lanka"/>
    <tag k="name:eo" v="Sri-Lanko"/>
    <tag k="name:he" v="סרי לנקה"/>
    <tag k="name:hu" v="Srí Lanka"/>
    <tag k="name:zh" v="斯里兰卡"/>
    <tag k="name:zh_py" v="Sililanka"/>
    <tag k="name:zh_pyt" v="Sīlǐlánkǎ"/>
    <tag k="place" v="country"/>
    <tag k="watch:hakan" v="countries"/>
  </node>
  <node id="432425086" version="2" timestamp="2009-07-23T10:45:34Z" uid="123700" user="Mala" changeset="1914232" lat="17.7520935" lon="28.9776374">
    <tag k="capital_city" v="Khartoum"/>
    <tag k="country_code_fips" v="SU"/>
    <tag k="country_code_iso3166_1_alpha_2" v="SD"/>
    <tag k="int_name" v="Sudan"/>
    <tag k="is_in:continent" v="Africa"/>
    <tag k="name" v="السودان ‎al-Sūdān"/>
    <tag k="name:ar" v="السودان"/>
    <tag k="name:cy" v="Sudan"/>
    <tag k="name:da" v="Sudan"/>
    <tag k="name:de" v="Sudan"/>
    <tag k="name:en" v="Sudan"/>
    <tag k="name:eo" v="Sudano"/>
    <tag k="name:fi" v="Sudan"/>
    <tag k="name:he" v="סודן"/>
    <tag k="name:hu" v="Szudán"/>
    <tag k="name:zh" v="苏丹"/>
    <tag k="name:zh_py" v="Sudan"/>
    <tag k="name:zh_pyt" v="Sūdān"/>
    <tag k="official_name" v="Republic of Sudan"/>
    <tag k="place" v="country"/>
    <tag k="population" v="39379358"/>
  </node>
  <node id="432425087" version="2" timestamp="2009-07-23T01:40:57Z" uid="20587" user="balrog-kun" changeset="1910614" lat="4.0083334" lon="-56.9833334">
    <tag k="capital_city" v="Paramaribo"/>
    <tag k="country_code_fips" v="NS"/>
    <tag k="country_code_iso3166_1_alpha_2" v="SR"/>
    <tag k="int_name" v="Suriname"/>
    <tag k="is_in:continent" v="South America"/>
    <tag k="name" v="Suriname"/>
    <tag k="name:ar" v="سورينام"/>
    <tag k="name:da" v="Surinam"/>
    <tag k="name:en" v="Suriname"/>
    <tag k="name:eo" v="Surinamo"/>
    <tag k="name:hu" v="Suriname"/>
    <tag k="name:pl" v="Surinam"/>
    <tag k="official_name" v="Republiek van Suriname"/>
    <tag k="official_name:en" v="Republic of Suriname"/>
    <tag k="official_name:es" v="República de Surinam"/>
    <tag k="official_name:pl" v="Republika Surinam"/>
    <tag k="old_name:es" v="Guyana Holandesa"/>
    <tag k="old_name:pl" v="Gujana Holenderska"/>
    <tag k="place" v="country"/>
    <tag k="wikipedia" v="Suriname"/>
  </node>
  <node id="432425090" version="2" timestamp="2009-07-23T11:58:41Z" uid="123700" user="Mala" changeset="1914917" lat="-26.5625198" lon="31.3991563">
    <tag k="country_code_iso3166_1_alpha_2" v="SZ"/>
    <tag k="is_in:continent" v="Africa"/>
    <tag k="name" v="Swaziland"/>
    <tag k="name:ar" v="سوازيلند"/>
    <tag k="name:cy" v="Gwlad Swazi"/>
    <tag k="name:da" v="Swaziland"/>
    <tag k="name:de" v="Swasiland"/>
    <tag k="name:eo" v="Svazilando"/>
    <tag k="name:fi" v="Swazimaa"/>
    <tag k="name:hu" v="Szváziföld"/>
    <tag k="name:zh" v="斯威士兰"/>
    <tag k="name:zh_py" v="Siweishilan"/>
    <tag k="name:zh_pyt" v="Sīwēishìlán"/>
    <tag k="place" v="country"/>
  </node>
  <node id="432425098" version="2" timestamp="2009-07-22T23:17:02Z" uid="123700" user="Mala" changeset="1910099" lat="34.6401389" lon="39.0494445">
    <tag k="country_code_fips" v="SY"/>
    <tag k="country_code_iso3166_1_alpha_2" v="SY"/>
    <tag k="int_name" v="Syria"/>
    <tag k="is_in:continent" v="Africa"/>
    <tag k="name" v="Syria"/>
    <tag k="name:ar" v="سوريا"/>
    <tag k="name:da" v="Syrien"/>
    <tag k="name:de" v="Syrien"/>
    <tag k="name:en" v="Syria"/>
    <tag k="name:eo" v="Sirio"/>
    <tag k="name:fi" v="Syyria"/>
    <tag k="name:he" v="סוריה"/>
    <tag k="name:hu" v="Szíria"/>
    <tag k="name:zh" v="叙利亚"/>
    <tag k="name:zh_py" v="Xuliya"/>
    <tag k="name:zh_pyt" v="Xùlìyà"/>
    <tag k="place" v="country"/>
  </node>
  <node id="432425100" version="2" timestamp="2009-07-22T20:51:30Z" uid="123700" user="Mala" changeset="1909234" lat="38.825" lon="71.2083334">
    <tag k="capital_city" v="Dushanbe"/>
    <tag k="country_code_fips" v="TI"/>
    <tag k="country_code_iso3166_1_alpha_2" v="TJ"/>
    <tag k="int_name" v="Tajikistan"/>
    <tag k="is_in:continent" v="Asia"/>
    <tag k="name" v="Tajikistan"/>
    <tag k="name:ar" v="طاجيكستان"/>
    <tag k="name:da" v="Tadsjikistan"/>
    <tag k="name:de" v="Tadschikistan"/>
    <tag k="name:en" v="Tajikistan"/>
    <tag k="name:eo" v="Taĝikio"/>
    <tag k="name:fa" v="تاجیکستان"/>
    <tag k="name:fi" v="Tadžikistan"/>
    <tag k="name:he" v="טג&amp;apos;יקיסטן"/>
    <tag k="name:hu" v="Tádzsikisztán"/>
    <tag k="name:tg" v="Тоҷикистон"/>
    <tag k="name:zh" v="塔吉克斯坦"/>
    <tag k="name:zh_py" v="Tajikesitan"/>
    <tag k="name:zh_pyt" v="Tǎjíkèsītǎn"/>
    <tag k="place" v="country"/>
    <tag k="population" v="7215700"/>
  </node>
  <node id="432425101" version="2" timestamp="2009-07-23T11:58:53Z" uid="123700" user="Mala" changeset="1914917" lat="-3.3666667" lon="35.0166667">
    <tag k="country_code_fips" v="TZ"/>
    <tag k="country_code_iso3166_1_alpha_2" v="TZ"/>
    <tag k="int_name" v="Tanzania"/>
    <tag k="is_in:continent" v="Africa"/>
    <tag k="name" v="Tanzania"/>
    <tag k="name:ar" v="تنـزاني"/>
    <tag k="name:da" v="Tanzania"/>
    <tag k="name:de" v="Tansania"/>
    <tag k="name:en" v="Tanzania"/>
    <tag k="name:eo" v="Tanzanio"/>
    <tag k="name:fi" v="Tansania"/>
    <tag k="name:he" v="טנזניה"/>
    <tag k="name:hu" v="Tanzánia"/>
    <tag k="name:zh" v="坦桑尼亚"/>
    <tag k="name:zh_py" v="Tansangniya"/>
    <tag k="name:zh_pyt" v="Tǎnsāngníyà"/>
    <tag k="place" v="country"/>
  </node>
  <node id="432425103" version="2" timestamp="2009-07-22T20:51:32Z" uid="123700" user="Mala" changeset="1909234" lat="4.2217921" lon="73.4868379">
    <tag k="country_code_fips" v="MV"/>
    <tag k="country_code_iso3166_1_alpha_2" v="MV"/>
    <tag k="geonames:id" v="1282028"/>
    <tag k="int_name" v="Maldives"/>
    <tag k="name" v="Maldives"/>
    <tag k="name:ar" v="ملديف"/>
    <tag k="name:da" v="Maldiverne"/>
    <tag k="name:de" v="Malediven"/>
    <tag k="name:en" v="Maldives"/>
    <tag k="name:eo" v="Maldivoj"/>
    <tag k="name:hu" v="Maldív-szigetek"/>
    <tag k="name:zh" v="马尔代夫"/>
    <tag k="name:zh_py" v="Maerdaifu"/>
    <tag k="name:zh_pyt" v="Mǎěrdàifū"/>
    <tag k="place" v="country"/>
    <tag k="watch:hakan" v="countries"/>
  </node>
  <node id="432425104" version="2" timestamp="2009-07-23T23:49:41Z" uid="123700" user="Mala" changeset="1920545" lat="8.78" lon="1.0199999">
    <tag k="country_code_fips" v="TO"/>
    <tag k="country_code_iso3166_1_alpha_2" v="TG"/>
    <tag k="int_name" v="Togo"/>
    <tag k="name" v="Togo"/>
    <tag k="name:ar" v="توغو"/>
    <tag k="name:da" v="Togo"/>
    <tag k="name:en" v="Togo"/>
    <tag k="name:eo" v="Togo"/>
    <tag k="name:he" v="טוגו"/>
    <tag k="name:hu" v="Togo"/>
    <tag k="name:zh" v="多哥"/>
    <tag k="name:zh_py" v="Duoge"/>
    <tag k="name:zh_pyt" v="Duōgē"/>
    <tag k="place" v="country"/>
  </node>
  <node id="432425105" version="2" timestamp="2009-07-26T22:51:28Z" uid="20587" user="balrog-kun" changeset="1950468" lat="-22.5" lon="-179.6">
    <tag k="country_code_fips" v="TN"/>
    <tag k="country_code_iso3166_1_alpha_2" v="TO"/>
    <tag k="int_name" v="Tonga"/>
    <tag k="is_in:ocean" v="Pacific"/>
    <tag k="name" v="Tonga"/>
    <tag k="name:ar" v="تونغا"/>
    <tag k="name:da" v="Tonga"/>
    <tag k="name:en" v="Tonga"/>
    <tag k="name:eo" v="Tongo"/>
    <tag k="name:he" v="טונגה"/>
    <tag k="name:hu" v="Tonga"/>
    <tag k="place" v="country"/>
  </node>
  <node id="432425106" version="2" timestamp="2009-07-23T02:17:02Z" uid="123700" user="Mala" changeset="1910715" lat="10.8677288" lon="-60.9820799">
    <tag k="country_code_fips" v="TD"/>
    <tag k="country_code_iso3166_1_alpha_2" v="TT"/>
    <tag k="int_name" v="Trinidad and Tobago"/>
    <tag k="is_in:continent" v="North America"/>
    <tag k="is_in:sea" v="Caribbean Sea"/>
    <tag k="name" v="Trinidad and Tobago"/>
    <tag k="name:ar" v="ترينيداد وتوباغو"/>
    <tag k="name:cy" v="Trinidad a Tobago"/>
    <tag k="name:da" v="Trinidad og Tobago"/>
    <tag k="name:en" v="Trinidad and Tobago"/>
    <tag k="name:eo" v="Trinidado kaj Tobago"/>
    <tag k="name:he" v="טרינידד וטובגו"/>
    <tag k="name:hu" v="Trinidad és Tobago"/>
    <tag k="place" v="country"/>
  </node>
  <node id="432425107" version="2" timestamp="2009-07-23T10:45:42Z" uid="123700" user="Mala" changeset="1914232" lat="33.8439007" lon="9.4001769">
    <tag k="country_code_fips" v="TS"/>
    <tag k="country_code_iso3166_1_alpha_2" v="TN"/>
    <tag k="int_name" v="Tunisia"/>
    <tag k="is_in:continent" v="Africa"/>
    <tag k="name" v="Tunisia"/>
    <tag k="name:ar" v="تونس"/>
    <tag k="name:da" v="Tunesien"/>
    <tag k="name:de" v="Tunesien"/>
    <tag k="name:en" v="Tunisia"/>
    <tag k="name:eo" v="Tunizio"/>
    <tag k="name:fi" v="Tunisia"/>
    <tag k="name:he" v="טוניס"/>
    <tag k="name:hu" v="Tunézia"/>
    <tag k="name:zh" v="突尼西亚"/>
    <tag k="name:zh_py" v="Tunixiya"/>
    <tag k="name:zh_pyt" v="Tūníxīyà"/>
    <tag k="place" v="country"/>
  </node>
  <node id="432425109" version="2" timestamp="2009-07-22T19:59:00Z" uid="123700" user="Mala" changeset="1908819" lat="38.9229167" lon="59.3833334">
    <tag k="alt_name" v="Turkmenia"/>
    <tag k="capital_city" v="Ashgabat"/>
    <tag k="country_code_fips" v="TX"/>
    <tag k="country_code_iso3166_1_alpha_2" v="TM"/>
    <tag k="int_name" v="Turkmenistan"/>
    <tag k="is_in:continent" v="Asia"/>
    <tag k="name" v="Türkmenistan"/>
    <tag k="name:ar" v="تركمانستان"/>
    <tag k="name:da" v="Turkmenistan"/>
    <tag k="name:en" v="Turkmenistan"/>
    <tag k="name:eo" v="Turkmenio"/>
    <tag k="name:fi" v="Turkmenistan"/>
    <tag k="name:he" v="טורקמניסטן"/>
    <tag k="name:hu" v="Türkmenisztán"/>
    <tag k="name:it" v="Turkmenistan"/>
    <tag k="name:pl" v="Turkmenistan"/>
    <tag k="name:tk" v="Türkmenistan"/>
    <tag k="name:zh" v="土库曼斯坦"/>
    <tag k="name:zh_py" v="Tukumansitan"/>
    <tag k="name:zh_pyt" v="Tǔkùmànsītǎn"/>
    <tag k="place" v="country"/>
    <tag k="population" v="5110023"/>
  </node>
  <node id="432425109" version="3" timestamp="2009-07-22T20:51:29Z" uid="123700" user="Mala" changeset="1909234" lat="38.9229167" lon="59.3833334">
    <tag k="alt_name" v="Turkmenia"/>
    <tag k="capital_city" v="Ashgabat"/>
    <tag k="country_code_fips" v="TX"/>
    <tag k="country_code_iso3166_1_alpha_2" v="TM"/>
    <tag k="int_name" v="Turkmenistan"/>
    <tag k="is_in:continent" v="Asia"/>
    <tag k="name" v="Türkmenistan"/>
    <tag k="name:ar" v="تركمانستان"/>
    <tag k="name:da" v="Turkmenistan"/>
    <tag k="name:en" v="Turkmenistan"/>
    <tag k="name:eo" v="Turkmenio"/>
    <tag k="name:fi" v="Turkmenistan"/>
    <tag k="name:he" v="טורקמניסטן"/>
    <tag k="name:hu" v="Türkmenisztán"/>
    <tag k="name:it" v="Turkmenistan"/>
    <tag k="name:pl" v="Turkmenistan"/>
    <tag k="name:tk" v="Türkmenistan"/>
    <tag k="name:zh" v="土库曼斯坦"/>
    <tag k="name:zh_py" v="Tukumansitan"/>
    <tag k="name:zh_pyt" v="Tǔkùmànsītǎn"/>
    <tag k="place" v="country"/>
    <tag k="population" v="5110023"/>
  </node>
  <node id="432425110" version="2" timestamp="2009-07-23T23:33:35Z" uid="20587" user="balrog-kun" changeset="1920502" lat="-8.2" lon="177.9916667">
    <tag k="country_code_fips" v="TV"/>
    <tag k="country_code_iso3166_1_alpha_2" v="TV"/>
    <tag k="int_name" v="Tuvalu"/>
    <tag k="name" v="Tuvalu"/>
    <tag k="name:ar" v="توفالو"/>
    <tag k="name:cy" v="Twfalw"/>
    <tag k="name:da" v="Tuvalu"/>
    <tag k="name:en" v="Tuvalu"/>
    <tag k="name:eo" v="Tuvalo"/>
    <tag k="name:he" v="טובלו"/>
    <tag k="name:hu" v="Tuvalu"/>
    <tag k="place" v="country"/>
  </node>
  <node id="432425111" version="2" timestamp="2009-07-23T11:59:02Z" uid="123700" user="Mala" changeset="1914917" lat="1.5333334" lon="32.2166667">
    <tag k="country_code_fips" v="UG"/>
    <tag k="country_code_iso3166_1_alpha_2" v="UG"/>
    <tag k="int_name" v="Uganda"/>
    <tag k="is_in:continent" v="Africa"/>
    <tag k="name" v="Uganda"/>
    <tag k="name:ar" v="أوغندا"/>
    <tag k="name:da" v="Uganda"/>
    <tag k="name:de" v="Uganda"/>
    <tag k="name:en" v="Uganda"/>
    <tag k="name:eo" v="Ugando"/>
    <tag k="name:fi" v="Uganda"/>
    <tag k="name:he" v="אוגנדה"/>
    <tag k="name:hu" v="Uganda"/>
    <tag k="name:zh" v="乌干达"/>
    <tag k="name:zh_py" v="Wuganda"/>
    <tag k="name:zh_pyt" v="Wūgāndá"/>
    <tag k="place" v="country"/>
  </node>
  <node id="432425112" version="2" timestamp="2009-07-22T19:59:00Z" uid="20587" user="balrog-kun" changeset="1908820" lat="49.4871636" lon="31.271872">
    <tag k="country_code_fips" v="UP"/>
    <tag k="country_code_iso3166_1_alpha_2" v="UA"/>
    <tag k="geoname:id" v="690791"/>
    <tag k="int_name" v="Ukraine"/>
    <tag k="name" v="Україна"/>
    <tag k="name:ar" v="أوكرانيا"/>
    <tag k="name:cy" v="Wcráin"/>
    <tag k="name:da" v="Ukraine"/>
    <tag k="name:en" v="Ukraine"/>
    <tag k="name:eo" v="Ukrainio"/>
    <tag k="name:es" v="Ucrania"/>
    <tag k="name:he" v="אוקראינה"/>
    <tag k="name:hu" v="Ukrajna"/>
    <tag k="name:pl" v="Ukraina"/>
    <tag k="name:ru" v="Украина"/>
    <tag k="name:zh" v="乌克兰"/>
    <tag k="name:zh_py" v="Wukelan"/>
    <tag k="name:zh_pyt" v="Wūkèlán"/>
    <tag k="place" v="country"/>
    <tag k="wikipedia" v="Ukraine"/>
  </node>
  <node id="432425113" version="2" timestamp="2009-07-22T20:51:19Z" uid="123700" user="Mala" changeset="1909234" lat="24.0001945" lon="53.9995319">
    <tag k="country_code_fips" v="AE"/>
    <tag k="country_code_iso3166_1_alpha_2" v="AE"/>
    <tag k="int_name" v="United Arab Emirates"/>
    <tag k="is_in:continent" v="Asia"/>
    <tag k="name" v="United Arab Emirates"/>
    <tag k="name:ar" v="الإمارات العربية المتحدة"/>
    <tag k="name:cy" v="Yr Emiradau Arabaidd Unedig"/>
    <tag k="name:da" v="Forenede Arabiske Emirater"/>
    <tag k="name:de" v="Vereinigte Arabische Emirate"/>
    <tag k="name:en" v="United Arab Emirates"/>
    <tag k="name:eo" v="Unuiĝintaj Arabaj Emirlandoj"/>
    <tag k="name:fi" v="Yhdistyneet arabiemiirikunnat"/>
    <tag k="name:he" v="איחוד האמירויות הערביות"/>
    <tag k="name:hu" v="Egyesült Arab Emírségek"/>
    <tag k="name:nl" v="Verenigde Arabische Emiraten"/>
    <tag k="name:pl" v="Zjednoczone Emiraty Arabskie"/>
    <tag k="name:sl" v="Združeni arabski emirati"/>
    <tag k="name:zh" v="阿拉伯联合酋长国"/>
    <tag k="name:zh_py" v="Alabo Lianhe Qiuchangguo"/>
    <tag k="name:zh_pyt" v="Ālābó Liánhé Qiúchángguó"/>
    <tag k="place" v="country"/>
  </node>
  <node id="432425114" version="2" timestamp="2009-07-22T17:45:40Z" uid="20587" user="balrog-kun" changeset="1907299" lat="54.8847109" lon="-2.4359629">
    <tag k="alt_name" v="United Kingdom; UK; Britain; Great Britain"/>
    <tag k="capital_city" v="London"/>
    <tag k="country_code" v="gb"/>
    <tag k="country_code_fips" v="UK"/>
    <tag k="country_code_iso3166_1_alpha_2" v="GB"/>
    <tag k="is_in:continent" v="Europe"/>
    <tag k="is_in:ocean" v="Atlantic"/>
    <tag k="name" v="United Kingdom"/>
    <tag k="name:ar" v="المملكة المتحدة"/>
    <tag k="name:cy" v="Y Deyrnas Unedig"/>
    <tag k="name:de" v="Vereinigtes Königreich"/>
    <tag k="name:en" v="United Kingdom"/>
    <tag k="name:eo" v="Unuiĝinta Reĝlando"/>
    <tag k="name:fi" v="Yhdistynyt kuningaskunta"/>
    <tag k="name:fr" v="Royaume-Uni"/>
    <tag k="name:gd" v="An Rìoghachd Aonaichte"/>
    <tag k="name:he" v="בריטניה"/>
    <tag k="name:hu" v="Nagy-Britannia"/>
    <tag k="name:sv" v="Storbritannien"/>
    <tag k="name:zh" v="英国"/>
    <tag k="name:zh_py" v="Yingguo"/>
    <tag k="name:zh_pyt" v="Yīngguó"/>
    <tag k="official_name" v="United Kingdom of Great Britain and Northern Ireland"/>
    <tag k="place" v="country"/>
    <tag k="population" v="60975000"/>
  </node>
  <node id="432425115" version="2" timestamp="2009-07-23T00:14:47Z" uid="123700" user="Mala" changeset="1910307" lat="39.7836936" lon="-100.4458446">
    <tag k="alt_name" v="USA;US;The States"/>
    <tag k="capital_city" v="Washington DC"/>
    <tag k="country_code" v="US"/>
    <tag k="country_code_fips" v="US"/>
    <tag k="country_code_iso3166_1_alpha_2" v="US"/>
    <tag k="is_in:continent" v="North America"/>
    <tag k="is_in:ocean" v="Pacific;Atlantic"/>
    <tag k="name" v="United States of America"/>
    <tag k="name:ar" v="الولايات المتحدة الأمريكية"/>
    <tag k="name:cy" v="Unol Daleithiau America"/>
    <tag k="name:da" v="USA"/>
    <tag k="name:de" v="Vereinigte Staaten von Amerika"/>
    <tag k="name:en" v="United States of America"/>
    <tag k="name:eo" v="Usono"/>
    <tag k="name:es" v="Estados Unidos"/>
    <tag k="name:fi" v="Yhdysvallat"/>
    <tag k="name:fr" v="États-Unis d&amp;apos;Amérique"/>
    <tag k="name:he" v="ארצות הברית של אמריקה"/>
    <tag k="name:hu" v="Amerikai Egyesült Államok"/>
    <tag k="name:nl" v="Verenigde Staten van Amerika"/>
    <tag k="name:pl" v="Stany Zjednoczone Ameryki"/>
    <tag k="name:sl" v="Združene države Amerike"/>
    <tag k="name:zh" v="美国"/>
    <tag k="name:zh_py" v="Meiguo"/>
    <tag k="name:zh_pyt" v="Měiguó"/>
    <tag k="place" v="country"/>
    <tag k="source" v="Wikipedia"/>
  </node>
  <node id="432425116" version="2" timestamp="2009-07-23T01:40:50Z" uid="20587" user="balrog-kun" changeset="1910614" lat="-32.95" lon="-54.8916667">
    <tag k="capital_city" v="Montevideo"/>
    <tag k="country_code_fips" v="UY"/>
    <tag k="country_code_iso3166_1_alpha_2" v="UY"/>
    <tag k="int_name" v="Uruguay"/>
    <tag k="is_in:continent" v="South America"/>
    <tag k="name" v="Uruguay"/>
    <tag k="name:ar" v="أوروغواي"/>
    <tag k="name:da" v="Uruguay"/>
    <tag k="name:en" v="Uruguay"/>
    <tag k="name:eo" v="Urugvajo"/>
    <tag k="name:he" v="אורוגואי"/>
    <tag k="name:hu" v="Uruguay"/>
    <tag k="name:la" v="Uruguaia"/>
    <tag k="name:pl" v="Urugwaj"/>
    <tag k="name:ru" v="Уругвай"/>
    <tag k="official_name" v="Oriental Republic of Uruguay"/>
    <tag k="official_name:es" v="República Oriental del Uruguay"/>
    <tag k="official_name:pl" v="Wschodnia Republika Urugwaju"/>
    <tag k="place" v="country"/>
    <tag k="population" v="3477778"/>
    <tag k="wikipedia" v="Uruguay"/>
  </node>
  <node id="432425117" version="2" timestamp="2009-07-22T20:51:27Z" uid="123700" user="Mala" changeset="1909234" lat="41.2010481" lon="64.9183958">
    <tag k="capital_city" v="Tashkent"/>
    <tag k="country_code_fips" v="UZ"/>
    <tag k="country_code_iso3166_1_alpha_2" v="UZ"/>
    <tag k="int_name" v="Uzbekistan"/>
    <tag k="is_in:continent" v="Asia"/>
    <tag k="name" v="Uzbekistan"/>
    <tag k="name:ar" v="أوزبكستان"/>
    <tag k="name:da" v="Usbekistan"/>
    <tag k="name:de" v="Usbekistan"/>
    <tag k="name:en" v="Uzbekistan"/>
    <tag k="name:eo" v="Uzbekio"/>
    <tag k="name:fi" v="Uzbekistan"/>
    <tag k="name:he" v="אוזבקיסטן"/>
    <tag k="name:hu" v="Üzbegisztán"/>
    <tag k="name:uz" v="Ўзбекистон Республикаси (O‘zbekiston Respublikasi)"/>
    <tag k="name:zh" v="乌兹别克斯坦"/>
    <tag k="name:zh_py" v="Wuzibiekesitan"/>
    <tag k="name:zh_pyt" v="Wūzībiékèsītǎn"/>
    <tag k="place" v="country"/>
    <tag k="population" v="27372000"/>
  </node>
  <node id="432425118" version="2" timestamp="2009-07-23T23:33:38Z" uid="20587" user="balrog-kun" changeset="1920502" lat="-17.6257563" lon="168.4077491">
    <tag k="capital_city" v="Port Vila"/>
    <tag k="country_code_fips" v="NH"/>
    <tag k="country_code_iso3166_1_alpha_2" v="VU"/>
    <tag k="is_in" v="Pacific Ocean"/>
    <tag k="is_in:ocean" v="Pacific"/>
    <tag k="name" v="Vanuatu"/>
    <tag k="name:ar" v="فانواتو"/>
    <tag k="name:da" v="Vanuatu"/>
    <tag k="name:eo" v="Vanuatuo"/>
    <tag k="name:he" v="ונואטו"/>
    <tag k="name:hu" v="Vanuatu"/>
    <tag k="official_name" v="Republic of Vanuatu"/>
    <tag k="official_name:bi" v="Ripablik blong Vanuatu"/>
    <tag k="official_name:fr" v="République de Vanuatu"/>
    <tag k="place" v="country"/>
    <tag k="population" v="215446"/>
  </node>
  <node id="432425120" version="2" timestamp="2009-07-23T01:41:03Z" uid="20587" user="balrog-kun" changeset="1910614" lat="8.0018341" lon="-66.1109085">
    <tag k="country_code_fips" v="VE"/>
    <tag k="country_code_iso3166_1_alpha_2" v="VE"/>
    <tag k="int_name" v="Venezuela"/>
    <tag k="is_in:continent" v="South America"/>
    <tag k="name" v="Venezuela"/>
    <tag k="name:ar" v="فنزويلا"/>
    <tag k="name:da" v="Venezuela"/>
    <tag k="name:en" v="Venezuela"/>
    <tag k="name:eo" v="Venezuelo"/>
    <tag k="name:he" v="ונצואלה"/>
    <tag k="name:hu" v="Venezuela"/>
    <tag k="official_name" v="Bolivarian Republic of Venezuela"/>
    <tag k="official_name:es" v="República Bolivariana de Venezuela"/>
    <tag k="place" v="country"/>
    <tag k="population" v="28199822"/>
  </node>
  <node id="432425121" version="2" timestamp="2009-07-22T20:51:47Z" uid="123700" user="Mala" changeset="1909234" lat="13.2902342" lon="108.425224">
    <tag k="country_code_fips" v="VM"/>
    <tag k="country_code_iso3166_1_alpha_2" v="VN"/>
    <tag k="int_name" v="Viet Nam"/>
    <tag k="is_in:continent" v="Asia"/>
    <tag k="name" v="Viet Nam"/>
    <tag k="name:ar" v="فييت نام"/>
    <tag k="name:da" v="Vietnam"/>
    <tag k="name:de" v="Vietnam"/>
    <tag k="name:en" v="Vietnam"/>
    <tag k="name:eo" v="Vjetnamio"/>
    <tag k="name:fi" v="Vietnam"/>
    <tag k="name:he" v="ויאטנם"/>
    <tag k="name:hu" v="Vietnam"/>
    <tag k="name:zh" v="越南"/>
    <tag k="name:zh_py" v="Yuenan"/>
    <tag k="name:zh_pyt" v="Yuènán"/>
    <tag k="place" v="country"/>
  </node>
  <node id="432425122" version="2" timestamp="2009-07-22T20:51:21Z" uid="123700" user="Mala" changeset="1909234" lat="14.495528" lon="47.0735445">
    <tag k="capital_city" v="San‘a’"/>
    <tag k="country_code_fips" v="YM"/>
    <tag k="country_code_iso3166_1_alpha_2" v="YE"/>
    <tag k="int_name" v="Yemen"/>
    <tag k="is_in:continent" v="Asia"/>
    <tag k="name" v="اليَمَن al-Yaman"/>
    <tag k="name:ar" v="اليمن"/>
    <tag k="name:cy" v="Yemen"/>
    <tag k="name:da" v="Yemen"/>
    <tag k="name:de" v="Jemen"/>
    <tag k="name:en" v="Yemen"/>
    <tag k="name:eo" v="Jemeno"/>
    <tag k="name:fi" v="Jemen"/>
    <tag k="name:he" v="תימן"/>
    <tag k="name:hu" v="Jemen"/>
    <tag k="name:zh" v="也门"/>
    <tag k="name:zh_py" v="Yemen"/>
    <tag k="name:zh_pyt" v="Yěmén"/>
    <tag k="official_name" v="Republic of Yemen"/>
    <tag k="place" v="country"/>
  </node>
  <node id="432425123" version="2" timestamp="2009-07-23T11:58:26Z" uid="123700" user="Mala" changeset="1914917" lat="-14.4220022" lon="24.0945554">
    <tag k="capital_city" v="Lusaka"/>
    <tag k="country_code_fips" v="ZA"/>
    <tag k="country_code_iso3166_1_alpha_2" v="ZM"/>
    <tag k="int_name" v="Zambia"/>
    <tag k="is_in:continent" v="Africa"/>
    <tag k="name" v="Zambia"/>
    <tag k="name:ar" v="زامبيا"/>
    <tag k="name:da" v="Zambia"/>
    <tag k="name:de" v="Sambia"/>
    <tag k="name:en" v="Zambia"/>
    <tag k="name:eo" v="Zambio"/>
    <tag k="name:es" v="Zambia"/>
    <tag k="name:fi" v="Sambia"/>
    <tag k="name:fr" v="Zambie"/>
    <tag k="name:he" v="זמביה"/>
    <tag k="name:hu" v="Zambia"/>
    <tag k="name:it" v="Zambia"/>
    <tag k="name:pl" v="Zambia"/>
    <tag k="name:zh" v="赞比亚"/>
    <tag k="name:zh_py" v="Zanbiya"/>
    <tag k="name:zh_pyt" v="Zànbǐyà"/>
    <tag k="official_name" v="Republic of Zambia"/>
    <tag k="place" v="country"/>
    <tag k="population" v="11668000"/>
    <tag k="wikipedia" v="Zambia"/>
  </node>
  <node id="432425124" version="2" timestamp="2009-07-23T11:58:45Z" uid="123700" user="Mala" changeset="1914917" lat="-19.7632201" lon="29.3528701">
    <tag k="country_code_fips" v="ZI"/>
    <tag k="country_code_iso3166_1_alpha_2" v="ZW"/>
    <tag k="int_name" v="Zimbabwe"/>
    <tag k="is_in:continent" v="Africa"/>
    <tag k="name" v="Zimbabwe"/>
    <tag k="name:ar" v="زمبابوي"/>
    <tag k="name:da" v="Zimbabwe"/>
    <tag k="name:en" v="Zimbabwe"/>
    <tag k="name:eo" v="Zimbabvo"/>
    <tag k="name:he" v="זימבבווה"/>
    <tag k="name:hu" v="Zimbabwe"/>
    <tag k="name:zh" v="津巴布韦"/>
    <tag k="name:zh_py" v="Jinbabuwei"/>
    <tag k="name:zh_pyt" v="Jīnbābùwéi"/>
    <tag k="place" v="country"/>
  </node>
  <node id="432425672" version="2" timestamp="2009-10-19T19:46:38Z" uid="36809" user="pfoten_weg_!_" changeset="2897938" lat="47.6200113" lon="11.7418895"/>
  <node id="432427050" version="2" timestamp="2010-06-18T03:42:42Z" uid="30201" user="rrankin" changeset="5013658" lat="-32.9552464" lon="151.6488514"/>
  <node id="432427051" version="2" timestamp="2010-06-18T03:42:33Z" uid="30201" user="rrankin" changeset="5013658" lat="-32.9552855" lon="151.6491506"/>
  <node id="432427052" version="2" timestamp="2010-06-18T03:42:31Z" uid="30201" user="rrankin" changeset="5013658" lat="-32.9553362" lon="151.649311"/>
  <node id="432428723" version="2" timestamp="2010-06-18T03:42:15Z" uid="30201" user="rrankin" changeset="5013658" lat="-32.9623697" lon="151.6569572"/>
  <node id="432428754" version="2" timestamp="2009-11-27T21:24:19Z" uid="43863" user="Rundling" changeset="3231856" lat="53.1532419" lon="10.8817501"/>
  <node id="432428755" version="2" timestamp="2010-01-25T21:01:25Z" uid="43863" user="Rundling" changeset="3714714" lat="53.1555754" lon="10.8838203"/>
  <node id="432428756" version="2" timestamp="2010-01-25T21:01:25Z" uid="43863" user="Rundling" changeset="3714714" lat="53.1540788" lon="10.8933275"/>
  <node id="432428757" version="2" timestamp="2010-01-25T21:01:25Z" uid="43863" user="Rundling" changeset="3714714" lat="53.147048" lon="10.9249275"/>
  <node id="432429274" version="2" timestamp="2010-04-25T17:05:38Z" uid="23543" user="jkjk" changeset="4523832" lat="50.0192537" lon="14.5201"/>
  <node id="432429853" version="2" timestamp="2009-10-27T21:51:54Z" uid="9581" user="Lobelt" changeset="2969417" lat="49.4423642" lon="8.6372934"/>
  <node id="432429854" version="2" timestamp="2009-10-27T21:51:54Z" uid="9581" user="Lobelt" changeset="2969417" lat="49.4420593" lon="8.6377468"/>
  <node id="432429856" version="2" timestamp="2009-10-27T21:51:54Z" uid="9581" user="Lobelt" changeset="2969417" lat="49.4418052" lon="8.6377955"/>
  <node id="432429857" version="2" timestamp="2009-10-27T21:51:54Z" uid="9581" user="Lobelt" changeset="2969417" lat="49.4417528" lon="8.6379923"/>
  <node id="432429858" version="2" timestamp="2009-10-27T21:51:54Z" uid="9581" user="Lobelt" changeset="2969417" lat="49.4420078" lon="8.6376342"/>
  <node id="432429859" version="2" timestamp="2009-10-27T21:51:54Z" uid="9581" user="Lobelt" changeset="2969417" lat="49.4422029" lon="8.6367664"/>
  <node id="432429860" version="2" timestamp="2009-10-27T21:51:54Z" uid="9581" user="Lobelt" changeset="2969417" lat="49.4422093" lon="8.636881"/>
  <node id="432429861" version="2" timestamp="2009-10-27T21:51:54Z" uid="9581" user="Lobelt" changeset="2969417" lat="49.4422833" lon="8.6371758"/>
  <node id="432429862" version="2" timestamp="2009-10-27T21:51:54Z" uid="9581" user="Lobelt" changeset="2969417" lat="49.442416" lon="8.6374946"/>
  <node id="432429864" version="2" timestamp="2009-10-27T21:51:54Z" uid="9581" user="Lobelt" changeset="2969417" lat="49.4424596" lon="8.6379345"/>
  <node id="432429886" version="3" timestamp="2011-06-16T12:27:37Z" uid="30201" user="rrankin" changeset="8455714" lat="-32.9638469" lon="151.6600258"/>
  <node id="432429890" version="2" timestamp="2011-01-10T14:04:09Z" uid="4467" user="Rosscoe" changeset="6926594" lat="-32.9629055" lon="151.6616696"/>
  <node id="432429891" version="2" timestamp="2011-01-10T14:04:41Z" uid="4467" user="Rosscoe" changeset="6926594" lat="-32.9626264" lon="151.6618547"/>
  <node id="432429892" version="2" timestamp="2011-01-10T14:04:27Z" uid="4467" user="Rosscoe" changeset="6926594" lat="-32.9618568" lon="151.6624638"/>
  <node id="432429959" version="2" timestamp="2011-01-10T14:04:13Z" uid="4467" user="Rosscoe" changeset="6926594" lat="-32.9623067" lon="151.6615471"/>
  <node id="432429960" version="2" timestamp="2011-01-10T14:04:41Z" uid="4467" user="Rosscoe" changeset="6926594" lat="-32.9626264" lon="151.660989"/>
  <node id="432429962" version="2" timestamp="2011-01-10T14:04:17Z" uid="4467" user="Rosscoe" changeset="6926594" lat="-32.9616897" lon="151.6609436"/>
  <node id="432429963" version="2" timestamp="2011-01-10T14:04:09Z" uid="4467" user="Rosscoe" changeset="6926594" lat="-32.9615031" lon="151.6616591"/>
  <node id="432429964" version="2" timestamp="2011-01-10T14:04:36Z" uid="4467" user="Rosscoe" changeset="6926594" lat="-32.961609" lon="151.6624423"/>
</osm>
