<?xml version='1.0' encoding='UTF-8'?>
<osm version="0.6" generator="libosmium/2.20.0">
  <node id="432821219" version="3" timestamp="2011-04-04T11:45:57Z" uid="115477" user="wowik" changeset="7763699" lat="55.7035395" lon="37.6522258"/>
  <node id="432821220" version="3" timestamp="2011-04-04T11:46:28Z" uid="115477" user="wowik" changeset="7763699" lat="55.7036011" lon="37.6523518"/>
  <node id="432821221" version="3" timestamp="2011-04-04T11:46:11Z" uid="115477" user="wowik" changeset="7763699" lat="55.7036492" lon="37.6522563"/>
  <node id="432821224" version="3" timestamp="2011-04-04T11:45:55Z" uid="115477" user="wowik" changeset="7763699" lat="55.7038961" lon="37.6527271"/>
  <node id="432821225" version="3" timestamp="2011-04-04T11:46:16Z" uid="115477" user="wowik" changeset="7763699" lat="55.7038839" lon="37.6527441"/>
  <node id="432821226" version="3" timestamp="2011-04-04T11:46:25Z" uid="115477" user="wowik" changeset="7763699" lat="55.7040057" lon="37.6529603"/>
  <node id="432821227" version="3" timestamp="2011-04-04T11:46:09Z" uid="115477" user="wowik" changeset="7763699" lat="55.7039316" lon="37.6530924"/>
  <node id="432821228" version="3" timestamp="2011-04-04T11:46:06Z" uid="115477" user="wowik" changeset="7763699" lat="55.703973" lon="37.6531664"/>
  <node id="432821230" version="3" timestamp="2011-04-04T11:46:03Z" uid="115477" user="wowik" changeset="7763699" lat="55.7038757" lon="37.6533304"/>
  <node id="432821231" version="3" timestamp="2011-04-04T11:46:22Z" uid="115477" user="wowik" changeset="7763699" lat="55.703808" lon="37.6532124"/>
  <node id="432821232" version="3" timestamp="2011-04-04T11:46:09Z" uid="115477" user="wowik" changeset="7763699" lat="55.7039077" lon="37.6530413"/>
  <node id="432821233" version="3" timestamp="2011-04-04T11:45:53Z" uid="115477" user="wowik" changeset="7763699" lat="55.7038152" lon="37.6528687"/>
  <node id="432821234" version="3" timestamp="2011-04-04T11:46:05Z" uid="115477" user="wowik" changeset="7763699" lat="55.7038272" lon="37.6528496"/>
  <node id="432821235" version="3" timestamp="2011-04-04T11:46:25Z" uid="115477" user="wowik" changeset="7763699" lat="55.7035779" lon="37.6523863"/>
  <node id="432821236" version="3" timestamp="2011-04-04T11:46:21Z" uid="115477" user="wowik" changeset="7763699" lat="55.7034858" lon="37.6525593"/>
  <node id="432821237" version="3" timestamp="2011-04-04T11:46:06Z" uid="115477" user="wowik" changeset="7763699" lat="55.7034222" lon="37.6524373"/>
  <node id="432821522" version="2" timestamp="2009-07-05T07:14:46Z" uid="74617" user="JohnSmith" changeset="1736244" lat="37.7821927" lon="-122.4192077">
    <tag k="bulb" v="no"/>
    <tag k="highway" v="bus_stop"/>
    <tag k="operator" v="Muni"/>
    <tag k="route_ref" v="16AX;16BX"/>
    <tag k="shelter" v="no"/>
    <tag k="source" v="survey"/>
    <tag k="ticker" v="no"/>
  </node>
  <node id="432821662" version="5" timestamp="2011-01-14T16:41:55Z" uid="115477" user="wowik" changeset="6968851" lat="55.9835983" lon="37.1748753"/>
  <node id="432821663" version="6" timestamp="2011-01-14T16:44:30Z" uid="115477" user="wowik" changeset="6968851" lat="55.9828099" lon="37.1764415"/>
  <node id="432821664" version="3" timestamp="2011-01-14T16:43:23Z" uid="115477" user="wowik" changeset="6968851" lat="55.9821828" lon="37.1755891"/>
  <node id="432821664" version="4" timestamp="2011-01-17T16:53:05Z" uid="115477" user="wowik" changeset="7001307" lat="55.98219" lon="37.1755677"/>
  <node id="432821665" version="3" timestamp="2011-01-14T16:42:38Z" uid="115477" user="wowik" changeset="6968851" lat="55.9822087" lon="37.1754504"/>
  <node id="432821666" version="3" timestamp="2011-01-14T16:41:57Z" uid="115477" user="wowik" changeset="6968851" lat="55.9829579" lon="37.1756506"/>
  <node id="432821667" version="4" timestamp="2011-01-14T16:44:32Z" uid="115477" user="wowik" changeset="6968851" lat="55.9830593" lon="37.1755181"/>
  <node id="432821668" version="3" timestamp="2011-01-14T16:42:49Z" uid="115477" user="wowik" changeset="6968851" lat="55.9830947" lon="37.1745818"/>
  <node id="432821669" version="3" timestamp="2011-01-14T16:42:11Z" uid="115477" user="wowik" changeset="6968851" lat="55.9831436" lon="37.1743707"/>
  <node id="432821670" version="5" timestamp="2011-01-14T16:45:14Z" uid="115477" user="wowik" changeset="6968851" lat="55.9835508" lon="37.1748542"/>
  <node id="432822154" version="4" timestamp="2011-02-11T10:04:33Z" uid="115477" user="wowik" changeset="7253570" lat="56.009065" lon="37.1255484"/>
  <node id="432823029" version="2" timestamp="2009-11-06T06:40:00Z" uid="74617" user="JohnSmith" changeset="3045911" lat="-27.3125906" lon="152.9908879"/>
  <node id="432823030" version="2" timestamp="2009-11-06T06:39:59Z" uid="74617" user="JohnSmith" changeset="3045911" lat="-27.3127494" lon="152.9907829"/>
  <node id="432823031" version="2" timestamp="2009-11-06T06:39:59Z" uid="74617" user="JohnSmith" changeset="3045911" lat="-27.313035" lon="152.9904198"/>
  <node id="432823032" version="2" timestamp="2009-11-06T06:39:59Z" uid="74617" user="JohnSmith" changeset="3045911" lat="-27.3131364" lon="152.9901629"/>
  <node id="432823033" version="2" timestamp="2009-11-06T06:39:58Z" uid="74617" user="JohnSmith" changeset="3045911" lat="-27.3131743" lon="152.9895874"/>
  <node id="432823034" version="2" timestamp="2009-11-06T06:39:58Z" uid="74617" user="JohnSmith" changeset="3045911" lat="-27.3131926" lon="152.989207"/>
  <node id="432823035" version="2" timestamp="2009-11-06T06:39:58Z" uid="74617" user="JohnSmith" changeset="3045911" lat="-27.313183" lon="152.9890851"/>
  <node id="432823035" version="3" timestamp="2009-11-06T06:46:46Z" uid="74617" user="JohnSmith" changeset="3045936" lat="-27.3131846" lon="152.9890957"/>
  <node id="432824800" version="6" timestamp="2009-07-05T07:15:13Z" uid="74617" user="JohnSmith" changeset="1736248" lat="37.7831831" lon="-122.4189845">
    <tag k="bulb" v="no"/>
    <tag k="highway" v="bus_stop"/>
    <tag k="operator" v="Muni"/>
    <tag k="route_ref" v="31"/>
    <tag k="shelter" v="no"/>
    <tag k="source" v="survey"/>
    <tag k="ticker" v="no"/>
  </node>
  <node id="432824864" version="3" timestamp="2009-12-24T03:41:33Z" uid="6975" user="ulfl" changeset="3439765" lat="61.0060645" lon="69.0284463">
    <tag k="amenity" v="bank"/>
    <tag k="atm" v="yes"/>
    <tag k="name" v="Ханты-Мансийский банк"/>
  </node>
  <node id="432828213" version="1" timestamp="2009-07-03T10:07:22Z" uid="36809" user="pfoten_weg_!_" changeset="1718749" lat="48.073095" lon="11.533421">
    <tag k="addr:city" v="Pullach"/>
    <tag k="addr:country" v="DE"/>
    <tag k="addr:housename" v="Wohngebäude"/>
    <tag k="addr:housenumber" v="9"/>
    <tag k="addr:postcode" v="82049"/>
    <tag k="addr:street" v="Marienstraße"/>
    <tag k="created_by" v="RambaZamba"/>
    <tag k="name" v="9"/>
  </node>
  <node id="432828213" version="2" timestamp="2009-07-09T09:29:14Z" uid="36809" user="pfoten_weg_!_" changeset="1779321" lat="48.073095" lon="11.533421">
    <tag k="addr:city" v="Pullach"/>
    <tag k="addr:country" v="DE"/>
    <tag k="addr:housename" v="Wohngebäude"/>
    <tag k="addr:housenumber" v="9"/>
    <tag k="addr:postcode" v="82049"/>
    <tag k="addr:street" v="Marienstraße"/>
    <tag k="name" v="9"/>
    <tag k="source" v="survey"/>
  </node>
  <node id="432828213" version="3" timestamp="2009-07-14T16:15:57Z" uid="36809" user="pfoten_weg_!_" changeset="1828190" lat="48.073095" lon="11.533421">
    <tag k="addr:city" v="Pullach"/>
    <tag k="addr:country" v="DE"/>
    <tag k="addr:housename" v="Wohngebäude"/>
    <tag k="addr:housenumber" v="9"/>
    <tag k="addr:postcode" v="82049"/>
    <tag k="addr:street" v="Marienstraße"/>
    <tag k="discovered_by" v="RambaZamba"/>
    <tag k="name" v="9"/>
    <tag k="source" v="survey"/>
  </node>
  <node id="432828213" version="5" timestamp="2009-08-17T18:12:03Z" uid="36809" user="pfoten_weg_!_" changeset="2180201" lat="48.073095" lon="11.533421">
    <tag k="addr:city" v="Pullach"/>
    <tag k="addr:country" v="DE"/>
    <tag k="addr:housename" v="Wohngebäude"/>
    <tag k="addr:housenumber" v="9"/>
    <tag k="addr:postcode" v="82049"/>
    <tag k="addr:street" v="Marienstraße"/>
    <tag k="name" v="9"/>
    <tag k="source" v="survey"/>
  </node>
  <node id="432828214" version="1" timestamp="2009-07-03T10:07:22Z" uid="36809" user="pfoten_weg_!_" changeset="1718749" lat="48.073333" lon="11.533357">
    <tag k="addr:city" v="Pullach"/>
    <tag k="addr:country" v="DE"/>
    <tag k="addr:housename" v="Wohngebäude"/>
    <tag k="addr:housenumber" v="11"/>
    <tag k="addr:postcode" v="82049"/>
    <tag k="addr:street" v="Marienstraße"/>
    <tag k="created_by" v="RambaZamba"/>
    <tag k="name" v="11"/>
  </node>
  <node id="432828214" version="2" timestamp="2009-07-09T09:29:15Z" uid="36809" user="pfoten_weg_!_" changeset="1779321" lat="48.073333" lon="11.533357">
    <tag k="addr:city" v="Pullach"/>
    <tag k="addr:country" v="DE"/>
    <tag k="addr:housename" v="Wohngebäude"/>
    <tag k="addr:housenumber" v="11"/>
    <tag k="addr:postcode" v="82049"/>
    <tag k="addr:street" v="Marienstraße"/>
    <tag k="name" v="11"/>
    <tag k="source" v="survey"/>
  </node>
  <node id="432828214" version="3" timestamp="2009-07-14T16:15:58Z" uid="36809" user="pfoten_weg_!_" changeset="1828190" lat="48.073333" lon="11.533357">
    <tag k="addr:city" v="Pullach"/>
    <tag k="addr:country" v="DE"/>
    <tag k="addr:housename" v="Wohngebäude"/>
    <tag k="addr:housenumber" v="11"/>
    <tag k="addr:postcode" v="82049"/>
    <tag k="addr:street" v="Marienstraße"/>
    <tag k="discovered_by" v="RambaZamba"/>
    <tag k="name" v="11"/>
    <tag k="source" v="survey"/>
  </node>
  <node id="432828214" version="5" timestamp="2009-08-17T18:12:03Z" uid="36809" user="pfoten_weg_!_" changeset="2180201" lat="48.073333" lon="11.533357">
    <tag k="addr:city" v="Pullach"/>
    <tag k="addr:country" v="DE"/>
    <tag k="addr:housename" v="Wohngebäude"/>
    <tag k="addr:housenumber" v="11"/>
    <tag k="addr:postcode" v="82049"/>
    <tag k="addr:street" v="Marienstraße"/>
    <tag k="name" v="11"/>
    <tag k="source" v="survey"/>
  </node>
  <node id="432828215" version="1" timestamp="2009-07-03T10:07:22Z" uid="36809" user="pfoten_weg_!_" changeset="1718749" lat="48.073307" lon="11.533201">
    <tag k="addr:city" v="Pullach"/>
    <tag k="addr:country" v="DE"/>
    <tag k="addr:housename" v="Wohngebäude"/>
    <tag k="addr:housenumber" v="11A"/>
    <tag k="addr:postcode" v="82049"/>
    <tag k="created_by" v="RambaZamba"/>
    <tag k="name" v="11A"/>
  </node>
  <node id="432828215" version="2" timestamp="2009-07-09T09:29:15Z" uid="36809" user="pfoten_weg_!_" changeset="1779321" lat="48.073307" lon="11.533201">
    <tag k="addr:city" v="Pullach"/>
    <tag k="addr:country" v="DE"/>
    <tag k="addr:housename" v="Wohngebäude"/>
    <tag k="addr:housenumber" v="11A"/>
    <tag k="addr:postcode" v="82049"/>
    <tag k="name" v="11A"/>
    <tag k="source" v="survey"/>
  </node>
  <node id="432828215" version="3" timestamp="2009-07-14T16:15:58Z" uid="36809" user="pfoten_weg_!_" changeset="1828190" lat="48.073307" lon="11.533201">
    <tag k="addr:city" v="Pullach"/>
    <tag k="addr:country" v="DE"/>
    <tag k="addr:housename" v="Wohngebäude"/>
    <tag k="addr:housenumber" v="11A"/>
    <tag k="addr:postcode" v="82049"/>
    <tag k="discovered_by" v="RambaZamba"/>
    <tag k="name" v="11A"/>
    <tag k="source" v="survey"/>
  </node>
  <node id="432828215" version="5" timestamp="2009-08-17T18:12:02Z" uid="36809" user="pfoten_weg_!_" changeset="2180201" lat="48.073307" lon="11.533201">
    <tag k="addr:city" v="Pullach"/>
    <tag k="addr:country" v="DE"/>
    <tag k="addr:housename" v="Wohngebäude"/>
    <tag k="addr:housenumber" v="11A"/>
    <tag k="addr:postcode" v="82049"/>
    <tag k="name" v="11A"/>
    <tag k="source" v="survey"/>
  </node>
  <node id="432828216" version="1" timestamp="2009-07-03T10:07:23Z" uid="36809" user="pfoten_weg_!_" changeset="1718749" lat="48.073554" lon="11.533287">
    <tag k="addr:city" v="Pullach"/>
    <tag k="addr:country" v="DE"/>
    <tag k="addr:housename" v="Wohngebäude"/>
    <tag k="addr:housenumber" v="13"/>
    <tag k="addr:postcode" v="82049"/>
    <tag k="addr:street" v="Marienstraße"/>
    <tag k="created_by" v="RambaZamba"/>
    <tag k="name" v="13"/>
  </node>
  <node id="432828216" version="2" timestamp="2009-07-09T09:29:14Z" uid="36809" user="pfoten_weg_!_" changeset="1779321" lat="48.073554" lon="11.533287">
    <tag k="addr:city" v="Pullach"/>
    <tag k="addr:country" v="DE"/>
    <tag k="addr:housename" v="Wohngebäude"/>
    <tag k="addr:housenumber" v="13"/>
    <tag k="addr:postcode" v="82049"/>
    <tag k="addr:street" v="Marienstraße"/>
    <tag k="name" v="13"/>
    <tag k="source" v="survey"/>
  </node>
  <node id="432828216" version="3" timestamp="2009-07-14T16:15:55Z" uid="36809" user="pfoten_weg_!_" changeset="1828190" lat="48.073554" lon="11.533287">
    <tag k="addr:city" v="Pullach"/>
    <tag k="addr:country" v="DE"/>
    <tag k="addr:housename" v="Wohngebäude"/>
    <tag k="addr:housenumber" v="13"/>
    <tag k="addr:postcode" v="82049"/>
    <tag k="addr:street" v="Marienstraße"/>
    <tag k="discovered_by" v="RambaZamba"/>
    <tag k="name" v="13"/>
    <tag k="source" v="survey"/>
  </node>
  <node id="432828216" version="5" timestamp="2009-08-17T18:12:06Z" uid="36809" user="pfoten_weg_!_" changeset="2180201" lat="48.073554" lon="11.533287">
    <tag k="addr:city" v="Pullach"/>
    <tag k="addr:country" v="DE"/>
    <tag k="addr:housename" v="Wohngebäude"/>
    <tag k="addr:housenumber" v="13"/>
    <tag k="addr:postcode" v="82049"/>
    <tag k="addr:street" v="Marienstraße"/>
    <tag k="name" v="13"/>
    <tag k="source" v="survey"/>
  </node>
  <node id="432828217" version="1" timestamp="2009-07-03T10:07:23Z" uid="36809" user="pfoten_weg_!_" changeset="1718749" lat="48.0737466" lon="11.5332365">
    <tag k="addr:city" v="Pullach"/>
    <tag k="addr:country" v="DE"/>
    <tag k="addr:housename" v="Wohngebäude"/>
    <tag k="addr:housenumber" v="15"/>
    <tag k="addr:postcode" v="82049"/>
    <tag k="addr:street" v="Marienstraße"/>
    <tag k="created_by" v="RambaZamba"/>
    <tag k="name" v="15"/>
  </node>
  <node id="432828217" version="2" timestamp="2009-07-09T09:29:14Z" uid="36809" user="pfoten_weg_!_" changeset="1779321" lat="48.0737466" lon="11.5332365">
    <tag k="addr:city" v="Pullach"/>
    <tag k="addr:country" v="DE"/>
    <tag k="addr:housename" v="Wohngebäude"/>
    <tag k="addr:housenumber" v="15"/>
    <tag k="addr:postcode" v="82049"/>
    <tag k="addr:street" v="Marienstraße"/>
    <tag k="name" v="15"/>
    <tag k="source" v="survey"/>
  </node>
  <node id="432828217" version="3" timestamp="2009-07-14T16:15:55Z" uid="36809" user="pfoten_weg_!_" changeset="1828190" lat="48.0737466" lon="11.5332365">
    <tag k="addr:city" v="Pullach"/>
    <tag k="addr:country" v="DE"/>
    <tag k="addr:housename" v="Wohngebäude"/>
    <tag k="addr:housenumber" v="15"/>
    <tag k="addr:postcode" v="82049"/>
    <tag k="addr:street" v="Marienstraße"/>
    <tag k="discovered_by" v="RambaZamba"/>
    <tag k="name" v="15"/>
    <tag k="source" v="survey"/>
  </node>
  <node id="432828217" version="5" timestamp="2009-08-17T18:12:06Z" uid="36809" user="pfoten_weg_!_" changeset="2180201" lat="48.0737466" lon="11.5332365">
    <tag k="addr:city" v="Pullach"/>
    <tag k="addr:country" v="DE"/>
    <tag k="addr:housename" v="Wohngebäude"/>
    <tag k="addr:housenumber" v="15"/>
    <tag k="addr:postcode" v="82049"/>
    <tag k="addr:street" v="Marienstraße"/>
    <tag k="name" v="15"/>
    <tag k="source" v="survey"/>
  </node>
  <node id="432828218" version="1" timestamp="2009-07-03T10:07:23Z" uid="36809" user="pfoten_weg_!_" changeset="1718749" lat="48.073805" lon="11.532886">
    <tag k="addr:city" v="Pullach"/>
    <tag k="addr:country" v="DE"/>
    <tag k="addr:housename" v="Wohngebäude"/>
    <tag k="addr:housenumber" v="9"/>
    <tag k="addr:postcode" v="82049"/>
    <tag k="addr:street" v="Immergrünstraße"/>
    <tag k="created_by" v="RambaZamba"/>
    <tag k="name" v="9"/>
  </node>
  <node id="432828218" version="2" timestamp="2009-07-09T09:29:14Z" uid="36809" user="pfoten_weg_!_" changeset="1779321" lat="48.073805" lon="11.532886">
    <tag k="addr:city" v="Pullach"/>
    <tag k="addr:country" v="DE"/>
    <tag k="addr:housename" v="Wohngebäude"/>
    <tag k="addr:housenumber" v="9"/>
    <tag k="addr:postcode" v="82049"/>
    <tag k="addr:street" v="Immergrünstraße"/>
    <tag k="name" v="9"/>
    <tag k="source" v="survey"/>
  </node>
  <node id="432828218" version="3" timestamp="2009-07-14T16:15:55Z" uid="36809" user="pfoten_weg_!_" changeset="1828190" lat="48.073805" lon="11.532886">
    <tag k="addr:city" v="Pullach"/>
    <tag k="addr:country" v="DE"/>
    <tag k="addr:housename" v="Wohngebäude"/>
    <tag k="addr:housenumber" v="9"/>
    <tag k="addr:postcode" v="82049"/>
    <tag k="addr:street" v="Immergrünstraße"/>
    <tag k="discovered_by" v="RambaZamba"/>
    <tag k="name" v="9"/>
    <tag k="source" v="survey"/>
  </node>
  <node id="432828218" version="5" timestamp="2009-08-17T18:12:05Z" uid="36809" user="pfoten_weg_!_" changeset="2180201" lat="48.073805" lon="11.532886">
    <tag k="addr:city" v="Pullach"/>
    <tag k="addr:country" v="DE"/>
    <tag k="addr:housename" v="Wohngebäude"/>
    <tag k="addr:housenumber" v="9"/>
    <tag k="addr:postcode" v="82049"/>
    <tag k="addr:street" v="Immergrünstraße"/>
    <tag k="name" v="9"/>
    <tag k="source" v="survey"/>
  </node>
  <node id="432828219" version="1" timestamp="2009-07-03T10:07:24Z" uid="36809" user="pfoten_weg_!_" changeset="1718749" lat="48.073463" lon="11.533969">
    <tag k="addr:city" v="Pullach"/>
    <tag k="addr:country" v="DE"/>
    <tag k="addr:housename" v="Wohngebäude"/>
    <tag k="addr:housenumber" v="8"/>
    <tag k="addr:postcode" v="82049"/>
    <tag k="addr:street" v="Marienstraße"/>
    <tag k="created_by" v="RambaZamba"/>
    <tag k="name" v="8"/>
  </node>
  <node id="432828219" version="2" timestamp="2009-07-09T09:29:14Z" uid="36809" user="pfoten_weg_!_" changeset="1779321" lat="48.073463" lon="11.533969">
    <tag k="addr:city" v="Pullach"/>
    <tag k="addr:country" v="DE"/>
    <tag k="addr:housename" v="Wohngebäude"/>
    <tag k="addr:housenumber" v="8"/>
    <tag k="addr:postcode" v="82049"/>
    <tag k="addr:street" v="Marienstraße"/>
    <tag k="name" v="8"/>
    <tag k="source" v="survey"/>
  </node>
  <node id="432828219" version="3" timestamp="2009-07-14T16:15:56Z" uid="36809" user="pfoten_weg_!_" changeset="1828190" lat="48.073463" lon="11.533969">
    <tag k="addr:city" v="Pullach"/>
    <tag k="addr:country" v="DE"/>
    <tag k="addr:housename" v="Wohngebäude"/>
    <tag k="addr:housenumber" v="8"/>
    <tag k="addr:postcode" v="82049"/>
    <tag k="addr:street" v="Marienstraße"/>
    <tag k="discovered_by" v="RambaZamba"/>
    <tag k="name" v="8"/>
    <tag k="source" v="survey"/>
  </node>
  <node id="432828219" version="5" timestamp="2009-08-17T18:12:05Z" uid="36809" user="pfoten_weg_!_" changeset="2180201" lat="48.073463" lon="11.533969">
    <tag k="addr:city" v="Pullach"/>
    <tag k="addr:country" v="DE"/>
    <tag k="addr:housename" v="Wohngebäude"/>
    <tag k="addr:housenumber" v="8"/>
    <tag k="addr:postcode" v="82049"/>
    <tag k="addr:street" v="Marienstraße"/>
    <tag k="name" v="8"/>
    <tag k="source" v="survey"/>
  </node>
  <node id="432828220" version="1" timestamp="2009-07-03T10:07:24Z" uid="36809" user="pfoten_weg_!_" changeset="1718749" lat="48.07319" lon="11.533903">
    <tag k="addr:city" v="Pullach"/>
    <tag k="addr:country" v="DE"/>
    <tag k="addr:housename" v="Wohngebäude"/>
    <tag k="addr:housenumber" v="6"/>
    <tag k="addr:postcode" v="82049"/>
    <tag k="addr:street" v="Marienstraße"/>
    <tag k="created_by" v="RambaZamba"/>
    <tag k="name" v="6 Baustelle"/>
  </node>
  <node id="432828220" version="2" timestamp="2009-07-09T09:29:14Z" uid="36809" user="pfoten_weg_!_" changeset="1779321" lat="48.07319" lon="11.533903">
    <tag k="addr:city" v="Pullach"/>
    <tag k="addr:country" v="DE"/>
    <tag k="addr:housename" v="Wohngebäude"/>
    <tag k="addr:housenumber" v="6"/>
    <tag k="addr:postcode" v="82049"/>
    <tag k="addr:street" v="Marienstraße"/>
    <tag k="name" v="6"/>
    <tag k="source" v="survey"/>
  </node>
  <node id="432828220" version="3" timestamp="2009-07-14T16:15:56Z" uid="36809" user="pfoten_weg_!_" changeset="1828190" lat="48.07319" lon="11.533903">
    <tag k="addr:city" v="Pullach"/>
    <tag k="addr:country" v="DE"/>
    <tag k="addr:housename" v="Wohngebäude"/>
    <tag k="addr:housenumber" v="6"/>
    <tag k="addr:postcode" v="82049"/>
    <tag k="addr:street" v="Marienstraße"/>
    <tag k="discovered_by" v="RambaZamba"/>
    <tag k="name" v="6"/>
    <tag k="source" v="survey"/>
  </node>
  <node id="432828220" version="5" timestamp="2009-08-17T18:12:04Z" uid="36809" user="pfoten_weg_!_" changeset="2180201" lat="48.07319" lon="11.533903">
    <tag k="addr:city" v="Pullach"/>
    <tag k="addr:country" v="DE"/>
    <tag k="addr:housename" v="Wohngebäude"/>
    <tag k="addr:housenumber" v="6"/>
    <tag k="addr:postcode" v="82049"/>
    <tag k="addr:street" v="Marienstraße"/>
    <tag k="name" v="6"/>
    <tag k="source" v="survey"/>
  </node>
  <node id="432828221" version="1" timestamp="2009-07-03T10:07:24Z" uid="36809" user="pfoten_weg_!_" changeset="1718749" lat="48.072118" lon="11.534019">
    <tag k="addr:city" v="Pullach"/>
    <tag k="addr:country" v="DE"/>
    <tag k="addr:housename" v="Wohngebäude"/>
    <tag k="addr:housenumber" v="1A"/>
    <tag k="addr:postcode" v="82049"/>
    <tag k="addr:street" v="Marienstraße"/>
    <tag k="created_by" v="RambaZamba"/>
    <tag k="name" v="1A"/>
  </node>
  <node id="432828221" version="2" timestamp="2009-07-09T09:29:14Z" uid="36809" user="pfoten_weg_!_" changeset="1779321" lat="48.072118" lon="11.534019">
    <tag k="addr:city" v="Pullach"/>
    <tag k="addr:country" v="DE"/>
    <tag k="addr:housename" v="Wohngebäude"/>
    <tag k="addr:housenumber" v="1A"/>
    <tag k="addr:postcode" v="82049"/>
    <tag k="addr:street" v="Marienstraße"/>
    <tag k="name" v="1A"/>
    <tag k="source" v="survey"/>
  </node>
  <node id="432828221" version="3" timestamp="2009-07-14T16:15:56Z" uid="36809" user="pfoten_weg_!_" changeset="1828190" lat="48.072118" lon="11.534019">
    <tag k="addr:city" v="Pullach"/>
    <tag k="addr:country" v="DE"/>
    <tag k="addr:housename" v="Wohngebäude"/>
    <tag k="addr:housenumber" v="1A"/>
    <tag k="addr:postcode" v="82049"/>
    <tag k="addr:street" v="Marienstraße"/>
    <tag k="discovered_by" v="RambaZamba"/>
    <tag k="name" v="1A"/>
    <tag k="source" v="survey"/>
  </node>
  <node id="432828221" version="5" timestamp="2009-08-17T18:12:04Z" uid="36809" user="pfoten_weg_!_" changeset="2180201" lat="48.072118" lon="11.534019">
    <tag k="addr:city" v="Pullach"/>
    <tag k="addr:country" v="DE"/>
    <tag k="addr:housename" v="Wohngebäude"/>
    <tag k="addr:housenumber" v="1A"/>
    <tag k="addr:postcode" v="82049"/>
    <tag k="addr:street" v="Marienstraße"/>
    <tag k="name" v="1A"/>
    <tag k="source" v="survey"/>
  </node>
  <node id="432828222" version="1" timestamp="2009-07-03T10:07:25Z" uid="36809" user="pfoten_weg_!_" changeset="1718749" lat="48.071941" lon="11.533982">
    <tag k="addr:city" v="Pullach"/>
    <tag k="addr:country" v="DE"/>
    <tag k="addr:housename" v="Wohngebäude"/>
    <tag k="addr:housenumber" v="1"/>
    <tag k="addr:postcode" v="82049"/>
    <tag k="addr:street" v="Marienstraße"/>
    <tag k="created_by" v="RambaZamba"/>
    <tag k="name" v="1"/>
  </node>
  <node id="432828222" version="2" timestamp="2009-07-09T09:29:14Z" uid="36809" user="pfoten_weg_!_" changeset="1779321" lat="48.071941" lon="11.533982">
    <tag k="addr:city" v="Pullach"/>
    <tag k="addr:country" v="DE"/>
    <tag k="addr:housename" v="Wohngebäude"/>
    <tag k="addr:housenumber" v="1"/>
    <tag k="addr:postcode" v="82049"/>
    <tag k="addr:street" v="Marienstraße"/>
    <tag k="name" v="1"/>
    <tag k="source" v="survey"/>
  </node>
  <node id="432828222" version="3" timestamp="2009-07-14T16:15:57Z" uid="36809" user="pfoten_weg_!_" changeset="1828190" lat="48.071941" lon="11.533982">
    <tag k="addr:city" v="Pullach"/>
    <tag k="addr:country" v="DE"/>
    <tag k="addr:housename" v="Wohngebäude"/>
    <tag k="addr:housenumber" v="1"/>
    <tag k="addr:postcode" v="82049"/>
    <tag k="addr:street" v="Marienstraße"/>
    <tag k="discovered_by" v="RambaZamba"/>
    <tag k="name" v="1"/>
    <tag k="source" v="survey"/>
  </node>
  <node id="432828222" version="5" timestamp="2009-08-17T18:12:04Z" uid="36809" user="pfoten_weg_!_" changeset="2180201" lat="48.071941" lon="11.533982">
    <tag k="addr:city" v="Pullach"/>
    <tag k="addr:country" v="DE"/>
    <tag k="addr:housename" v="Wohngebäude"/>
    <tag k="addr:housenumber" v="1"/>
    <tag k="addr:postcode" v="82049"/>
    <tag k="addr:street" v="Marienstraße"/>
    <tag k="name" v="1"/>
    <tag k="source" v="survey"/>
  </node>
  <node id="432828223" version="1" timestamp="2009-07-03T10:07:25Z" uid="36809" user="pfoten_weg_!_" changeset="1718749" lat="48.072009" lon="11.534478">
    <tag k="addr:city" v="Pullach"/>
    <tag k="addr:country" v="DE"/>
    <tag k="addr:housename" v="Wohngebäude"/>
    <tag k="addr:housenumber" v="2"/>
    <tag k="addr:postcode" v="82049"/>
    <tag k="addr:street" v="Marienstraße"/>
    <tag k="created_by" v="RambaZamba"/>
    <tag k="name" v="2"/>
  </node>
  <node id="432828223" version="2" timestamp="2009-07-09T09:29:14Z" uid="36809" user="pfoten_weg_!_" changeset="1779321" lat="48.072009" lon="11.534478">
    <tag k="addr:city" v="Pullach"/>
    <tag k="addr:country" v="DE"/>
    <tag k="addr:housename" v="Wohngebäude"/>
    <tag k="addr:housenumber" v="2"/>
    <tag k="addr:postcode" v="82049"/>
    <tag k="addr:street" v="Marienstraße"/>
    <tag k="name" v="2"/>
    <tag k="source" v="survey"/>
  </node>
  <node id="432828223" version="3" timestamp="2009-07-14T16:15:57Z" uid="36809" user="pfoten_weg_!_" changeset="1828190" lat="48.072009" lon="11.534478">
    <tag k="addr:city" v="Pullach"/>
    <tag k="addr:country" v="DE"/>
    <tag k="addr:housename" v="Wohngebäude"/>
    <tag k="addr:housenumber" v="2"/>
    <tag k="addr:postcode" v="82049"/>
    <tag k="addr:street" v="Marienstraße"/>
    <tag k="discovered_by" v="RambaZamba"/>
    <tag k="name" v="2"/>
    <tag k="source" v="survey"/>
  </node>
  <node id="432828223" version="5" timestamp="2009-08-17T18:12:03Z" uid="36809" user="pfoten_weg_!_" changeset="2180201" lat="48.072009" lon="11.534478">
    <tag k="addr:city" v="Pullach"/>
    <tag k="addr:country" v="DE"/>
    <tag k="addr:housename" v="Wohngebäude"/>
    <tag k="addr:housenumber" v="2"/>
    <tag k="addr:postcode" v="82049"/>
    <tag k="addr:street" v="Marienstraße"/>
    <tag k="name" v="2"/>
    <tag k="source" v="survey"/>
  </node>
  <node id="432828224" version="1" timestamp="2009-07-03T10:07:26Z" uid="36809" user="pfoten_weg_!_" changeset="1718749" lat="48.072032" lon="11.535177">
    <tag k="addr:city" v="Pullach"/>
    <tag k="addr:country" v="DE"/>
    <tag k="addr:housename" v="Wohngebäude"/>
    <tag k="addr:housenumber" v="33"/>
    <tag k="addr:postcode" v="82049"/>
    <tag k="addr:street" v="Georg-Kalb-Straße"/>
    <tag k="created_by" v="RambaZamba"/>
    <tag k="name" v="33"/>
  </node>
  <node id="432828224" version="2" timestamp="2009-07-09T09:29:16Z" uid="36809" user="pfoten_weg_!_" changeset="1779321" lat="48.072032" lon="11.535177">
    <tag k="addr:city" v="Pullach"/>
    <tag k="addr:country" v="DE"/>
    <tag k="addr:housename" v="Wohngebäude"/>
    <tag k="addr:housenumber" v="33"/>
    <tag k="addr:postcode" v="82049"/>
    <tag k="addr:street" v="Georg-Kalb-Straße"/>
    <tag k="name" v="33"/>
    <tag k="source" v="survey"/>
  </node>
  <node id="432828224" version="3" timestamp="2009-07-14T16:16:08Z" uid="36809" user="pfoten_weg_!_" changeset="1828190" lat="48.072032" lon="11.535177">
    <tag k="addr:city" v="Pullach"/>
    <tag k="addr:country" v="DE"/>
    <tag k="addr:housename" v="Wohngebäude"/>
    <tag k="addr:housenumber" v="33"/>
    <tag k="addr:postcode" v="82049"/>
    <tag k="addr:street" v="Georg-Kalb-Straße"/>
    <tag k="discovered_by" v="RambaZamba"/>
    <tag k="name" v="33"/>
    <tag k="source" v="survey"/>
  </node>
  <node id="432828224" version="5" timestamp="2009-08-17T18:11:50Z" uid="36809" user="pfoten_weg_!_" changeset="2180201" lat="48.072032" lon="11.535177">
    <tag k="addr:city" v="Pullach"/>
    <tag k="addr:country" v="DE"/>
    <tag k="addr:housename" v="Wohngebäude"/>
    <tag k="addr:housenumber" v="33"/>
    <tag k="addr:postcode" v="82049"/>
    <tag k="addr:street" v="Georg-Kalb-Straße"/>
    <tag k="name" v="33"/>
    <tag k="source" v="survey"/>
  </node>
  <node id="432828225" version="1" timestamp="2009-07-03T10:07:26Z" uid="36809" user="pfoten_weg_!_" changeset="1718749" lat="48.072201" lon="11.535559">
    <tag k="addr:city" v="Pullach"/>
    <tag k="addr:country" v="DE"/>
    <tag k="addr:housename" v="Wohngebäude"/>
    <tag k="addr:housenumber" v="22"/>
    <tag k="addr:postcode" v="82049"/>
    <tag k="addr:street" v="Georg-Kalb-Straße"/>
    <tag k="created_by" v="RambaZamba"/>
    <tag k="name" v="22"/>
  </node>
  <node id="432828225" version="2" timestamp="2009-07-03T15:31:35Z" uid="36809" user="pfoten_weg_!_" changeset="1722030" lat="48.072201" lon="11.535559">
    <tag k="addr:city" v="Pullach"/>
    <tag k="addr:country" v="DE"/>
    <tag k="addr:housename" v="Wohngebäude"/>
    <tag k="addr:housenumber" v="22"/>
    <tag k="addr:postcode" v="82049"/>
    <tag k="addr:street" v="Georg-Kalb-Straße"/>
    <tag k="created_by" v="RambaZamba"/>
    <tag k="name" v="22"/>
    <tag k="source" v="survey"/>
  </node>
  <node id="432828225" version="3" timestamp="2009-07-14T16:16:07Z" uid="36809" user="pfoten_weg_!_" changeset="1828190" lat="48.072201" lon="11.535559">
    <tag k="addr:city" v="Pullach"/>
    <tag k="addr:country" v="DE"/>
    <tag k="addr:housename" v="Wohngebäude"/>
    <tag k="addr:housenumber" v="22"/>
    <tag k="addr:postcode" v="82049"/>
    <tag k="addr:street" v="Georg-Kalb-Straße"/>
    <tag k="discovered_by" v="RambaZamba"/>
    <tag k="name" v="22"/>
    <tag k="source" v="survey"/>
  </node>
  <node id="432828225" version="5" timestamp="2009-08-17T18:11:51Z" uid="36809" user="pfoten_weg_!_" changeset="2180201" lat="48.072201" lon="11.535559">
    <tag k="addr:city" v="Pullach"/>
    <tag k="addr:country" v="DE"/>
    <tag k="addr:housename" v="Wohngebäude"/>
    <tag k="addr:housenumber" v="22"/>
    <tag k="addr:postcode" v="82049"/>
    <tag k="addr:street" v="Georg-Kalb-Straße"/>
    <tag k="name" v="22"/>
    <tag k="source" v="survey"/>
  </node>
  <node id="432828226" version="1" timestamp="2009-07-03T10:07:27Z" uid="36809" user="pfoten_weg_!_" changeset="1718749" lat="48.072347" lon="11.535112">
    <tag k="addr:city" v="Pullach"/>
    <tag k="addr:country" v="DE"/>
    <tag k="addr:housename" v="Wohngebäude"/>
    <tag k="addr:housenumber" v="35"/>
    <tag k="addr:postcode" v="82049"/>
    <tag k="addr:street" v="Georg-Kalb-Straße"/>
    <tag k="created_by" v="RambaZamba"/>
    <tag k="name" v="35"/>
  </node>
  <node id="432828226" version="2" timestamp="2009-07-09T09:29:16Z" uid="36809" user="pfoten_weg_!_" changeset="1779321" lat="48.072347" lon="11.535112">
    <tag k="addr:city" v="Pullach"/>
    <tag k="addr:country" v="DE"/>
    <tag k="addr:housename" v="Wohngebäude"/>
    <tag k="addr:housenumber" v="35"/>
    <tag k="addr:postcode" v="82049"/>
    <tag k="addr:street" v="Georg-Kalb-Straße"/>
    <tag k="name" v="35"/>
    <tag k="source" v="survey"/>
  </node>
  <node id="432828226" version="3" timestamp="2009-07-14T16:16:07Z" uid="36809" user="pfoten_weg_!_" changeset="1828190" lat="48.072347" lon="11.535112">
    <tag k="addr:city" v="Pullach"/>
    <tag k="addr:country" v="DE"/>
    <tag k="addr:housename" v="Wohngebäude"/>
    <tag k="addr:housenumber" v="35"/>
    <tag k="addr:postcode" v="82049"/>
    <tag k="addr:street" v="Georg-Kalb-Straße"/>
    <tag k="discovered_by" v="RambaZamba"/>
    <tag k="name" v="35"/>
    <tag k="source" v="survey"/>
  </node>
  <node id="432828226" version="5" timestamp="2009-08-17T18:11:51Z" uid="36809" user="pfoten_weg_!_" changeset="2180201" lat="48.072347" lon="11.535112">
    <tag k="addr:city" v="Pullach"/>
    <tag k="addr:country" v="DE"/>
    <tag k="addr:housename" v="Wohngebäude"/>
    <tag k="addr:housenumber" v="35"/>
    <tag k="addr:postcode" v="82049"/>
    <tag k="addr:street" v="Georg-Kalb-Straße"/>
    <tag k="name" v="35"/>
    <tag k="source" v="survey"/>
  </node>
  <node id="432828227" version="1" timestamp="2009-07-03T10:07:27Z" uid="36809" user="pfoten_weg_!_" changeset="1718749" lat="48.072308" lon="11.534797">
    <tag k="addr:city" v="Pullach"/>
    <tag k="addr:country" v="DE"/>
    <tag k="addr:housename" v="Wohngebäude"/>
    <tag k="addr:housenumber" v="35A"/>
    <tag k="addr:postcode" v="82049"/>
    <tag k="addr:street" v="Georg-Kalb-Straße"/>
    <tag k="created_by" v="RambaZamba"/>
    <tag k="name" v="35A"/>
  </node>
  <node id="432828227" version="2" timestamp="2009-07-09T09:29:16Z" uid="36809" user="pfoten_weg_!_" changeset="1779321" lat="48.072308" lon="11.534797">
    <tag k="addr:city" v="Pullach"/>
    <tag k="addr:country" v="DE"/>
    <tag k="addr:housename" v="Wohngebäude"/>
    <tag k="addr:housenumber" v="35A"/>
    <tag k="addr:postcode" v="82049"/>
    <tag k="addr:street" v="Georg-Kalb-Straße"/>
    <tag k="name" v="35A"/>
    <tag k="source" v="survey"/>
  </node>
  <node id="432828227" version="3" timestamp="2009-07-14T16:16:06Z" uid="36809" user="pfoten_weg_!_" changeset="1828190" lat="48.072308" lon="11.534797">
    <tag k="addr:city" v="Pullach"/>
    <tag k="addr:country" v="DE"/>
    <tag k="addr:housename" v="Wohngebäude"/>
    <tag k="addr:housenumber" v="35A"/>
    <tag k="addr:postcode" v="82049"/>
    <tag k="addr:street" v="Georg-Kalb-Straße"/>
    <tag k="discovered_by" v="RambaZamba"/>
    <tag k="name" v="35A"/>
    <tag k="source" v="survey"/>
  </node>
  <node id="432828227" version="5" timestamp="2009-08-17T18:11:52Z" uid="36809" user="pfoten_weg_!_" changeset="2180201" lat="48.072308" lon="11.534797">
    <tag k="addr:city" v="Pullach"/>
    <tag k="addr:country" v="DE"/>
    <tag k="addr:housename" v="Wohngebäude"/>
    <tag k="addr:housenumber" v="35A"/>
    <tag k="addr:postcode" v="82049"/>
    <tag k="addr:street" v="Georg-Kalb-Straße"/>
    <tag k="name" v="35A"/>
    <tag k="source" v="survey"/>
  </node>
  <node id="432828228" version="1" timestamp="2009-07-03T10:07:28Z" uid="36809" user="pfoten_weg_!_" changeset="1718749" lat="48.072957" lon="11.53485">
    <tag k="addr:city" v="Pullach"/>
    <tag k="addr:country" v="DE"/>
    <tag k="addr:housename" v="Wohngebäude"/>
    <tag k="addr:housenumber" v="39"/>
    <tag k="addr:postcode" v="82049"/>
    <tag k="addr:street" v="Georg-Kalb-Straße"/>
    <tag k="created_by" v="RambaZamba"/>
    <tag k="name" v="39"/>
  </node>
  <node id="432828228" version="2" timestamp="2009-07-09T09:29:16Z" uid="36809" user="pfoten_weg_!_" changeset="1779321" lat="48.072957" lon="11.53485">
    <tag k="addr:city" v="Pullach"/>
    <tag k="addr:country" v="DE"/>
    <tag k="addr:housename" v="Wohngebäude"/>
    <tag k="addr:housenumber" v="39"/>
    <tag k="addr:postcode" v="82049"/>
    <tag k="addr:street" v="Georg-Kalb-Straße"/>
    <tag k="name" v="39"/>
    <tag k="source" v="survey"/>
  </node>
  <node id="432828228" version="3" timestamp="2009-07-14T16:16:06Z" uid="36809" user="pfoten_weg_!_" changeset="1828190" lat="48.072957" lon="11.53485">
    <tag k="addr:city" v="Pullach"/>
    <tag k="addr:country" v="DE"/>
    <tag k="addr:housename" v="Wohngebäude"/>
    <tag k="addr:housenumber" v="39"/>
    <tag k="addr:postcode" v="82049"/>
    <tag k="addr:street" v="Georg-Kalb-Straße"/>
    <tag k="discovered_by" v="RambaZamba"/>
    <tag k="name" v="39"/>
    <tag k="source" v="survey"/>
  </node>
  <node id="432828228" version="5" timestamp="2009-08-17T18:11:53Z" uid="36809" user="pfoten_weg_!_" changeset="2180201" lat="48.072957" lon="11.53485">
    <tag k="addr:city" v="Pullach"/>
    <tag k="addr:country" v="DE"/>
    <tag k="addr:housename" v="Wohngebäude"/>
    <tag k="addr:housenumber" v="39"/>
    <tag k="addr:postcode" v="82049"/>
    <tag k="addr:street" v="Georg-Kalb-Straße"/>
    <tag k="name" v="39"/>
    <tag k="source" v="survey"/>
  </node>
  <node id="432828229" version="1" timestamp="2009-07-03T10:07:28Z" uid="36809" user="pfoten_weg_!_" changeset="1718749" lat="48.072541" lon="11.535038">
    <tag k="addr:city" v="Pullach"/>
    <tag k="addr:country" v="DE"/>
    <tag k="addr:housename" v="Wohngebäude"/>
    <tag k="addr:housenumber" v="37"/>
    <tag k="addr:postcode" v="82049"/>
    <tag k="addr:street" v="Georg-Kalb-Straße"/>
    <tag k="created_by" v="RambaZamba"/>
    <tag k="name" v="37"/>
  </node>
  <node id="432828229" version="2" timestamp="2009-07-09T09:29:16Z" uid="36809" user="pfoten_weg_!_" changeset="1779321" lat="48.072541" lon="11.535038">
    <tag k="addr:city" v="Pullach"/>
    <tag k="addr:country" v="DE"/>
    <tag k="addr:housename" v="Wohngebäude"/>
    <tag k="addr:housenumber" v="37"/>
    <tag k="addr:postcode" v="82049"/>
    <tag k="addr:street" v="Georg-Kalb-Straße"/>
    <tag k="name" v="37"/>
    <tag k="source" v="survey"/>
  </node>
  <node id="432828229" version="3" timestamp="2009-07-14T16:16:06Z" uid="36809" user="pfoten_weg_!_" changeset="1828190" lat="48.072541" lon="11.535038">
    <tag k="addr:city" v="Pullach"/>
    <tag k="addr:country" v="DE"/>
    <tag k="addr:housename" v="Wohngebäude"/>
    <tag k="addr:housenumber" v="37"/>
    <tag k="addr:postcode" v="82049"/>
    <tag k="addr:street" v="Georg-Kalb-Straße"/>
    <tag k="discovered_by" v="RambaZamba"/>
    <tag k="name" v="37"/>
    <tag k="source" v="survey"/>
  </node>
  <node id="432828229" version="5" timestamp="2009-08-17T18:11:53Z" uid="36809" user="pfoten_weg_!_" changeset="2180201" lat="48.072541" lon="11.535038">
    <tag k="addr:city" v="Pullach"/>
    <tag k="addr:country" v="DE"/>
    <tag k="addr:housename" v="Wohngebäude"/>
    <tag k="addr:housenumber" v="37"/>
    <tag k="addr:postcode" v="82049"/>
    <tag k="addr:street" v="Georg-Kalb-Straße"/>
    <tag k="name" v="37"/>
    <tag k="source" v="survey"/>
  </node>
  <node id="432828231" version="1" timestamp="2009-07-03T10:07:28Z" uid="36809" user="pfoten_weg_!_" changeset="1718749" lat="48.073663" lon="11.534097">
    <tag k="addr:city" v="Pullach"/>
    <tag k="addr:country" v="DE"/>
    <tag k="addr:housename" v="Wohngebäude"/>
    <tag k="addr:housenumber" v="3"/>
    <tag k="addr:postcode" v="82049"/>
    <tag k="addr:street" v="Immergrünstraße"/>
    <tag k="created_by" v="RambaZamba"/>
    <tag k="name" v="3"/>
  </node>
  <node id="432828231" version="2" timestamp="2009-07-09T09:29:16Z" uid="36809" user="pfoten_weg_!_" changeset="1779321" lat="48.073663" lon="11.534097">
    <tag k="addr:city" v="Pullach"/>
    <tag k="addr:country" v="DE"/>
    <tag k="addr:housename" v="Wohngebäude"/>
    <tag k="addr:housenumber" v="3"/>
    <tag k="addr:postcode" v="82049"/>
    <tag k="addr:street" v="Immergrünstraße"/>
    <tag k="name" v="3"/>
    <tag k="source" v="survey"/>
  </node>
  <node id="432828231" version="3" timestamp="2009-07-14T16:16:05Z" uid="36809" user="pfoten_weg_!_" changeset="1828190" lat="48.073663" lon="11.534097">
    <tag k="addr:city" v="Pullach"/>
    <tag k="addr:country" v="DE"/>
    <tag k="addr:housename" v="Wohngebäude"/>
    <tag k="addr:housenumber" v="3"/>
    <tag k="addr:postcode" v="82049"/>
    <tag k="addr:street" v="Immergrünstraße"/>
    <tag k="discovered_by" v="RambaZamba"/>
    <tag k="name" v="3"/>
    <tag k="source" v="survey"/>
  </node>
  <node id="432828231" version="5" timestamp="2009-08-17T18:11:54Z" uid="36809" user="pfoten_weg_!_" changeset="2180201" lat="48.073663" lon="11.534097">
    <tag k="addr:city" v="Pullach"/>
    <tag k="addr:country" v="DE"/>
    <tag k="addr:housename" v="Wohngebäude"/>
    <tag k="addr:housenumber" v="3"/>
    <tag k="addr:postcode" v="82049"/>
    <tag k="addr:street" v="Immergrünstraße"/>
    <tag k="name" v="3"/>
    <tag k="source" v="survey"/>
  </node>
  <node id="432828232" version="1" timestamp="2009-07-03T10:07:29Z" uid="36809" user="pfoten_weg_!_" changeset="1718749" lat="48.073607" lon="11.534641">
    <tag k="addr:city" v="Pullach"/>
    <tag k="addr:country" v="DE"/>
    <tag k="addr:housename" v="Wohngebäude"/>
    <tag k="addr:housenumber" v="1"/>
    <tag k="addr:postcode" v="82049"/>
    <tag k="addr:street" v="Immergrünstraße"/>
    <tag k="created_by" v="RambaZamba"/>
    <tag k="name" v="1"/>
  </node>
  <node id="432828232" version="2" timestamp="2009-07-09T09:29:16Z" uid="36809" user="pfoten_weg_!_" changeset="1779321" lat="48.073607" lon="11.534641">
    <tag k="addr:city" v="Pullach"/>
    <tag k="addr:country" v="DE"/>
    <tag k="addr:housename" v="Wohngebäude"/>
    <tag k="addr:housenumber" v="1"/>
    <tag k="addr:postcode" v="82049"/>
    <tag k="addr:street" v="Immergrünstraße"/>
    <tag k="name" v="1"/>
    <tag k="source" v="survey"/>
  </node>
  <node id="432828232" version="3" timestamp="2009-07-14T16:16:05Z" uid="36809" user="pfoten_weg_!_" changeset="1828190" lat="48.073607" lon="11.534641">
    <tag k="addr:city" v="Pullach"/>
    <tag k="addr:country" v="DE"/>
    <tag k="addr:housename" v="Wohngebäude"/>
    <tag k="addr:housenumber" v="1"/>
    <tag k="addr:postcode" v="82049"/>
    <tag k="addr:street" v="Immergrünstraße"/>
    <tag k="discovered_by" v="RambaZamba"/>
    <tag k="name" v="1"/>
    <tag k="source" v="survey"/>
  </node>
  <node id="432828232" version="5" timestamp="2009-08-17T18:11:54Z" uid="36809" user="pfoten_weg_!_" changeset="2180201" lat="48.073607" lon="11.534641">
    <tag k="addr:city" v="Pullach"/>
    <tag k="addr:country" v="DE"/>
    <tag k="addr:housename" v="Wohngebäude"/>
    <tag k="addr:housenumber" v="1"/>
    <tag k="addr:postcode" v="82049"/>
    <tag k="addr:street" v="Immergrünstraße"/>
    <tag k="name" v="1"/>
    <tag k="source" v="survey"/>
  </node>
  <node id="432828233" version="1" timestamp="2009-07-03T10:07:29Z" uid="36809" user="pfoten_weg_!_" changeset="1718749" lat="48.07371" lon="11.533696">
    <tag k="addr:city" v="Pullach"/>
    <tag k="addr:country" v="DE"/>
    <tag k="addr:housename" v="Wohngebäude"/>
    <tag k="addr:housenumber" v="7"/>
    <tag k="addr:postcode" v="82049"/>
    <tag k="addr:street" v="Immergrünstraße"/>
    <tag k="created_by" v="RambaZamba"/>
    <tag k="name" v="7"/>
  </node>
  <node id="432828233" version="2" timestamp="2009-07-09T09:29:15Z" uid="36809" user="pfoten_weg_!_" changeset="1779321" lat="48.07371" lon="11.533696">
    <tag k="addr:city" v="Pullach"/>
    <tag k="addr:country" v="DE"/>
    <tag k="addr:housename" v="Wohngebäude"/>
    <tag k="addr:housenumber" v="7"/>
    <tag k="addr:postcode" v="82049"/>
    <tag k="addr:street" v="Immergrünstraße"/>
    <tag k="name" v="7"/>
    <tag k="source" v="survey"/>
  </node>
  <node id="432828233" version="3" timestamp="2009-07-14T16:16:05Z" uid="36809" user="pfoten_weg_!_" changeset="1828190" lat="48.07371" lon="11.533696">
    <tag k="addr:city" v="Pullach"/>
    <tag k="addr:country" v="DE"/>
    <tag k="addr:housename" v="Wohngebäude"/>
    <tag k="addr:housenumber" v="7"/>
    <tag k="addr:postcode" v="82049"/>
    <tag k="addr:street" v="Immergrünstraße"/>
    <tag k="discovered_by" v="RambaZamba"/>
    <tag k="name" v="7"/>
    <tag k="source" v="survey"/>
  </node>
  <node id="432828233" version="5" timestamp="2009-08-17T18:11:54Z" uid="36809" user="pfoten_weg_!_" changeset="2180201" lat="48.07371" lon="11.533696">
    <tag k="addr:city" v="Pullach"/>
    <tag k="addr:country" v="DE"/>
    <tag k="addr:housename" v="Wohngebäude"/>
    <tag k="addr:housenumber" v="7"/>
    <tag k="addr:postcode" v="82049"/>
    <tag k="addr:street" v="Immergrünstraße"/>
    <tag k="name" v="7"/>
    <tag k="source" v="survey"/>
  </node>
  <node id="432828234" version="1" timestamp="2009-07-03T10:07:29Z" uid="36809" user="pfoten_weg_!_" changeset="1718749" lat="48.073683" lon="11.533888">
    <tag k="addr:city" v="Pullach"/>
    <tag k="addr:country" v="DE"/>
    <tag k="addr:housename" v="Wohngebäude"/>
    <tag k="addr:housenumber" v="5"/>
    <tag k="addr:postcode" v="82049"/>
    <tag k="addr:street" v="Immergrünstraße"/>
    <tag k="created_by" v="RambaZamba"/>
    <tag k="name" v="5"/>
  </node>
  <node id="432828234" version="2" timestamp="2009-07-09T09:29:15Z" uid="36809" user="pfoten_weg_!_" changeset="1779321" lat="48.073683" lon="11.533888">
    <tag k="addr:city" v="Pullach"/>
    <tag k="addr:country" v="DE"/>
    <tag k="addr:housename" v="Wohngebäude"/>
    <tag k="addr:housenumber" v="5"/>
    <tag k="addr:postcode" v="82049"/>
    <tag k="addr:street" v="Immergrünstraße"/>
    <tag k="name" v="5"/>
    <tag k="source" v="survey"/>
  </node>
  <node id="432828234" version="3" timestamp="2009-07-14T16:16:03Z" uid="36809" user="pfoten_weg_!_" changeset="1828190" lat="48.073683" lon="11.533888">
    <tag k="addr:city" v="Pullach"/>
    <tag k="addr:country" v="DE"/>
    <tag k="addr:housename" v="Wohngebäude"/>
    <tag k="addr:housenumber" v="5"/>
    <tag k="addr:postcode" v="82049"/>
    <tag k="addr:street" v="Immergrünstraße"/>
    <tag k="discovered_by" v="RambaZamba"/>
    <tag k="name" v="5"/>
    <tag k="source" v="survey"/>
  </node>
  <node id="432828234" version="5" timestamp="2009-08-17T18:11:55Z" uid="36809" user="pfoten_weg_!_" changeset="2180201" lat="48.073683" lon="11.533888">
    <tag k="addr:city" v="Pullach"/>
    <tag k="addr:country" v="DE"/>
    <tag k="addr:housename" v="Wohngebäude"/>
    <tag k="addr:housenumber" v="5"/>
    <tag k="addr:postcode" v="82049"/>
    <tag k="addr:street" v="Immergrünstraße"/>
    <tag k="name" v="5"/>
    <tag k="source" v="survey"/>
  </node>
  <node id="432828235" version="1" timestamp="2009-07-03T10:07:30Z" uid="36809" user="pfoten_weg_!_" changeset="1718749" lat="48.071885" lon="11.53587">
    <tag k="addr:city" v="Pullach"/>
    <tag k="addr:country" v="DE"/>
    <tag k="addr:housename" v="Wohngebäude"/>
    <tag k="addr:housenumber" v="22"/>
    <tag k="addr:postcode" v="82049"/>
    <tag k="addr:street" v="Pullacher Straße"/>
    <tag k="created_by" v="RambaZamba"/>
    <tag k="name" v="22"/>
  </node>
  <node id="432828235" version="2" timestamp="2009-07-03T15:31:35Z" uid="36809" user="pfoten_weg_!_" changeset="1722030" lat="48.071885" lon="11.53587">
    <tag k="addr:city" v="Pullach"/>
    <tag k="addr:country" v="DE"/>
    <tag k="addr:housename" v="Wohngebäude"/>
    <tag k="addr:housenumber" v="22"/>
    <tag k="addr:postcode" v="82049"/>
    <tag k="addr:street" v="Pullacher Straße"/>
    <tag k="created_by" v="RambaZamba"/>
    <tag k="name" v="22"/>
    <tag k="source" v="survey"/>
  </node>
  <node id="432828235" version="3" timestamp="2009-07-14T16:16:03Z" uid="36809" user="pfoten_weg_!_" changeset="1828190" lat="48.071885" lon="11.53587">
    <tag k="addr:city" v="Pullach"/>
    <tag k="addr:country" v="DE"/>
    <tag k="addr:housename" v="Wohngebäude"/>
    <tag k="addr:housenumber" v="22"/>
    <tag k="addr:postcode" v="82049"/>
    <tag k="addr:street" v="Pullacher Straße"/>
    <tag k="discovered_by" v="RambaZamba"/>
    <tag k="name" v="22"/>
    <tag k="source" v="survey"/>
  </node>
  <node id="432828235" version="5" timestamp="2009-08-17T18:11:55Z" uid="36809" user="pfoten_weg_!_" changeset="2180201" lat="48.071885" lon="11.53587">
    <tag k="addr:city" v="Pullach"/>
    <tag k="addr:country" v="DE"/>
    <tag k="addr:housename" v="Wohngebäude"/>
    <tag k="addr:housenumber" v="22"/>
    <tag k="addr:postcode" v="82049"/>
    <tag k="addr:street" v="Pullacher Straße"/>
    <tag k="name" v="22"/>
    <tag k="source" v="survey"/>
  </node>
  <node id="432828236" version="1" timestamp="2009-07-03T10:07:30Z" uid="36809" user="pfoten_weg_!_" changeset="1718749" lat="48.073662" lon="11.53508">
    <tag k="addr:city" v="Pullach"/>
    <tag k="addr:country" v="DE"/>
    <tag k="addr:housename" v="Wohngebäude"/>
    <tag k="addr:housenumber" v="5"/>
    <tag k="addr:postcode" v="82049"/>
    <tag k="created_by" v="RambaZamba"/>
    <tag k="name" v="15"/>
  </node>
  <node id="432828236" version="2" timestamp="2009-07-09T09:29:15Z" uid="36809" user="pfoten_weg_!_" changeset="1779321" lat="48.073662" lon="11.53508">
    <tag k="addr:city" v="Pullach"/>
    <tag k="addr:country" v="DE"/>
    <tag k="addr:housename" v="Wohngebäude"/>
    <tag k="addr:housenumber" v="5"/>
    <tag k="addr:postcode" v="82049"/>
    <tag k="name" v="15"/>
    <tag k="source" v="survey"/>
  </node>
  <node id="432828236" version="3" timestamp="2009-07-14T16:16:02Z" uid="36809" user="pfoten_weg_!_" changeset="1828190" lat="48.073662" lon="11.53508">
    <tag k="addr:city" v="Pullach"/>
    <tag k="addr:country" v="DE"/>
    <tag k="addr:housename" v="Wohngebäude"/>
    <tag k="addr:housenumber" v="5"/>
    <tag k="addr:postcode" v="82049"/>
    <tag k="discovered_by" v="RambaZamba"/>
    <tag k="name" v="15"/>
    <tag k="source" v="survey"/>
  </node>
  <node id="432828236" version="5" timestamp="2009-08-17T18:11:55Z" uid="36809" user="pfoten_weg_!_" changeset="2180201" lat="48.073662" lon="11.53508">
    <tag k="addr:city" v="Pullach"/>
    <tag k="addr:country" v="DE"/>
    <tag k="addr:housename" v="Wohngebäude"/>
    <tag k="addr:housenumber" v="5"/>
    <tag k="addr:postcode" v="82049"/>
    <tag k="name" v="15"/>
    <tag k="source" v="survey"/>
  </node>
  <node id="432828237" version="1" timestamp="2009-07-03T10:07:31Z" uid="36809" user="pfoten_weg_!_" changeset="1718749" lat="48.07198" lon="11.53683">
    <tag k="addr:city" v="Pullach"/>
    <tag k="addr:country" v="DE"/>
    <tag k="addr:housename" v="Wohngebäude"/>
    <tag k="addr:housenumber" v="22B"/>
    <tag k="addr:postcode" v="82049"/>
    <tag k="addr:street" v="Pullacher Straße"/>
    <tag k="created_by" v="RambaZamba"/>
    <tag k="name" v="22B"/>
  </node>
  <node id="432828237" version="2" timestamp="2009-07-03T15:31:35Z" uid="36809" user="pfoten_weg_!_" changeset="1722030" lat="48.07198" lon="11.53683">
    <tag k="addr:city" v="Pullach"/>
    <tag k="addr:country" v="DE"/>
    <tag k="addr:housename" v="Wohngebäude"/>
    <tag k="addr:housenumber" v="22B"/>
    <tag k="addr:postcode" v="82049"/>
    <tag k="addr:street" v="Pullacher Straße"/>
    <tag k="created_by" v="RambaZamba"/>
    <tag k="name" v="22B"/>
    <tag k="source" v="survey"/>
  </node>
  <node id="432828237" version="3" timestamp="2009-07-14T16:16:02Z" uid="36809" user="pfoten_weg_!_" changeset="1828190" lat="48.07198" lon="11.53683">
    <tag k="addr:city" v="Pullach"/>
    <tag k="addr:country" v="DE"/>
    <tag k="addr:housename" v="Wohngebäude"/>
    <tag k="addr:housenumber" v="22B"/>
    <tag k="addr:postcode" v="82049"/>
    <tag k="addr:street" v="Pullacher Straße"/>
    <tag k="discovered_by" v="RambaZamba"/>
    <tag k="name" v="22B"/>
    <tag k="source" v="survey"/>
  </node>
  <node id="432828237" version="5" timestamp="2009-08-17T18:11:56Z" uid="36809" user="pfoten_weg_!_" changeset="2180201" lat="48.07198" lon="11.53683">
    <tag k="addr:city" v="Pullach"/>
    <tag k="addr:country" v="DE"/>
    <tag k="addr:housename" v="Wohngebäude"/>
    <tag k="addr:housenumber" v="22B"/>
    <tag k="addr:postcode" v="82049"/>
    <tag k="addr:street" v="Pullacher Straße"/>
    <tag k="name" v="22B"/>
    <tag k="source" v="survey"/>
  </node>
  <node id="432828238" version="1" timestamp="2009-07-03T10:07:31Z" uid="36809" user="pfoten_weg_!_" changeset="1718749" lat="48.071989" lon="11.536661">
    <tag k="addr:city" v="Pullach"/>
    <tag k="addr:country" v="DE"/>
    <tag k="addr:housename" v="Wohngebäude"/>
    <tag k="addr:housenumber" v="22A"/>
    <tag k="addr:postcode" v="82049"/>
    <tag k="addr:street" v="Pullacher Straße"/>
    <tag k="created_by" v="RambaZamba"/>
    <tag k="name" v="22A"/>
  </node>
  <node id="432828238" version="2" timestamp="2009-07-03T15:31:34Z" uid="36809" user="pfoten_weg_!_" changeset="1722030" lat="48.071989" lon="11.536661">
    <tag k="addr:city" v="Pullach"/>
    <tag k="addr:country" v="DE"/>
    <tag k="addr:housename" v="Wohngebäude"/>
    <tag k="addr:housenumber" v="22A"/>
    <tag k="addr:postcode" v="82049"/>
    <tag k="addr:street" v="Pullacher Straße"/>
    <tag k="created_by" v="RambaZamba"/>
    <tag k="name" v="22A"/>
    <tag k="source" v="survey"/>
  </node>
  <node id="432828238" version="3" timestamp="2009-07-14T16:16:02Z" uid="36809" user="pfoten_weg_!_" changeset="1828190" lat="48.071989" lon="11.536661">
    <tag k="addr:city" v="Pullach"/>
    <tag k="addr:country" v="DE"/>
    <tag k="addr:housename" v="Wohngebäude"/>
    <tag k="addr:housenumber" v="22A"/>
    <tag k="addr:postcode" v="82049"/>
    <tag k="addr:street" v="Pullacher Straße"/>
    <tag k="discovered_by" v="RambaZamba"/>
    <tag k="name" v="22A"/>
    <tag k="source" v="survey"/>
  </node>
  <node id="432828238" version="5" timestamp="2009-08-17T18:11:56Z" uid="36809" user="pfoten_weg_!_" changeset="2180201" lat="48.071989" lon="11.536661">
    <tag k="addr:city" v="Pullach"/>
    <tag k="addr:country" v="DE"/>
    <tag k="addr:housename" v="Wohngebäude"/>
    <tag k="addr:housenumber" v="22A"/>
    <tag k="addr:postcode" v="82049"/>
    <tag k="addr:street" v="Pullacher Straße"/>
    <tag k="name" v="22A"/>
    <tag k="source" v="survey"/>
  </node>
  <node id="432828239" version="1" timestamp="2009-07-03T10:07:31Z" uid="36809" user="pfoten_weg_!_" changeset="1718749" lat="48.071749" lon="11.536841">
    <tag k="addr:city" v="Pullach"/>
    <tag k="addr:country" v="DE"/>
    <tag k="addr:housename" v="Wohngebäude"/>
    <tag k="addr:housenumber" v="22D"/>
    <tag k="addr:postcode" v="82049"/>
    <tag k="addr:street" v="Pullacher Straße"/>
    <tag k="created_by" v="RambaZamba"/>
    <tag k="name" v="22D"/>
  </node>
  <node id="432828239" version="2" timestamp="2009-07-03T15:31:34Z" uid="36809" user="pfoten_weg_!_" changeset="1722030" lat="48.071749" lon="11.536841">
    <tag k="addr:city" v="Pullach"/>
    <tag k="addr:country" v="DE"/>
    <tag k="addr:housename" v="Wohngebäude"/>
    <tag k="addr:housenumber" v="22D"/>
    <tag k="addr:postcode" v="82049"/>
    <tag k="addr:street" v="Pullacher Straße"/>
    <tag k="created_by" v="RambaZamba"/>
    <tag k="name" v="22D"/>
    <tag k="source" v="survey"/>
  </node>
  <node id="432828239" version="3" timestamp="2009-07-14T16:16:02Z" uid="36809" user="pfoten_weg_!_" changeset="1828190" lat="48.071749" lon="11.536841">
    <tag k="addr:city" v="Pullach"/>
    <tag k="addr:country" v="DE"/>
    <tag k="addr:housename" v="Wohngebäude"/>
    <tag k="addr:housenumber" v="22D"/>
    <tag k="addr:postcode" v="82049"/>
    <tag k="addr:street" v="Pullacher Straße"/>
    <tag k="discovered_by" v="RambaZamba"/>
    <tag k="name" v="22D"/>
    <tag k="source" v="survey"/>
  </node>
  <node id="432828239" version="5" timestamp="2009-08-17T18:11:57Z" uid="36809" user="pfoten_weg_!_" changeset="2180201" lat="48.071749" lon="11.536841">
    <tag k="addr:city" v="Pullach"/>
    <tag k="addr:country" v="DE"/>
    <tag k="addr:housename" v="Wohngebäude"/>
    <tag k="addr:housenumber" v="22D"/>
    <tag k="addr:postcode" v="82049"/>
    <tag k="addr:street" v="Pullacher Straße"/>
    <tag k="name" v="22D"/>
    <tag k="source" v="survey"/>
  </node>
  <node id="432828240" version="1" timestamp="2009-07-03T10:07:32Z" uid="36809" user="pfoten_weg_!_" changeset="1718749" lat="48.071758" lon="11.536658">
    <tag k="addr:city" v="Pullach"/>
    <tag k="addr:country" v="DE"/>
    <tag k="addr:housename" v="Wohngebäude"/>
    <tag k="addr:housenumber" v="22C"/>
    <tag k="addr:postcode" v="82049"/>
    <tag k="addr:street" v="Pullacher Straße"/>
    <tag k="created_by" v="RambaZamba"/>
    <tag k="name" v="22C"/>
  </node>
  <node id="432828240" version="2" timestamp="2009-07-03T15:31:34Z" uid="36809" user="pfoten_weg_!_" changeset="1722030" lat="48.071758" lon="11.536658">
    <tag k="addr:city" v="Pullach"/>
    <tag k="addr:country" v="DE"/>
    <tag k="addr:housename" v="Wohngebäude"/>
    <tag k="addr:housenumber" v="22C"/>
    <tag k="addr:postcode" v="82049"/>
    <tag k="addr:street" v="Pullacher Straße"/>
    <tag k="created_by" v="RambaZamba"/>
    <tag k="name" v="22C"/>
    <tag k="source" v="survey"/>
  </node>
  <node id="432828240" version="3" timestamp="2009-07-14T16:16:01Z" uid="36809" user="pfoten_weg_!_" changeset="1828190" lat="48.071758" lon="11.536658">
    <tag k="addr:city" v="Pullach"/>
    <tag k="addr:country" v="DE"/>
    <tag k="addr:housename" v="Wohngebäude"/>
    <tag k="addr:housenumber" v="22C"/>
    <tag k="addr:postcode" v="82049"/>
    <tag k="addr:street" v="Pullacher Straße"/>
    <tag k="discovered_by" v="RambaZamba"/>
    <tag k="name" v="22C"/>
    <tag k="source" v="survey"/>
  </node>
  <node id="432828240" version="5" timestamp="2009-08-17T18:11:58Z" uid="36809" user="pfoten_weg_!_" changeset="2180201" lat="48.071758" lon="11.536658">
    <tag k="addr:city" v="Pullach"/>
    <tag k="addr:country" v="DE"/>
    <tag k="addr:housename" v="Wohngebäude"/>
    <tag k="addr:housenumber" v="22C"/>
    <tag k="addr:postcode" v="82049"/>
    <tag k="addr:street" v="Pullacher Straße"/>
    <tag k="name" v="22C"/>
    <tag k="source" v="survey"/>
  </node>
  <node id="432828241" version="1" timestamp="2009-07-03T10:07:32Z" uid="36809" user="pfoten_weg_!_" changeset="1718749" lat="48.0725779" lon="11.5364316">
    <tag k="addr:city" v="Pullach"/>
    <tag k="addr:country" v="DE"/>
    <tag k="addr:housename" v="Wohngebäude"/>
    <tag k="addr:housenumber" v="24A"/>
    <tag k="addr:postcode" v="82049"/>
    <tag k="addr:street" v="Pullacher Straße"/>
    <tag k="created_by" v="RambaZamba"/>
    <tag k="name" v="24A"/>
  </node>
  <node id="432828241" version="2" timestamp="2009-07-03T15:31:34Z" uid="36809" user="pfoten_weg_!_" changeset="1722030" lat="48.0725779" lon="11.5364316">
    <tag k="addr:city" v="Pullach"/>
    <tag k="addr:country" v="DE"/>
    <tag k="addr:housename" v="Wohngebäude"/>
    <tag k="addr:housenumber" v="24A"/>
    <tag k="addr:postcode" v="82049"/>
    <tag k="addr:street" v="Pullacher Straße"/>
    <tag k="created_by" v="RambaZamba"/>
    <tag k="name" v="24A"/>
    <tag k="source" v="survey"/>
  </node>
  <node id="432828241" version="3" timestamp="2009-07-14T16:16:01Z" uid="36809" user="pfoten_weg_!_" changeset="1828190" lat="48.0725779" lon="11.5364316">
    <tag k="addr:city" v="Pullach"/>
    <tag k="addr:country" v="DE"/>
    <tag k="addr:housename" v="Wohngebäude"/>
    <tag k="addr:housenumber" v="24A"/>
    <tag k="addr:postcode" v="82049"/>
    <tag k="addr:street" v="Pullacher Straße"/>
    <tag k="discovered_by" v="RambaZamba"/>
    <tag k="name" v="24A"/>
    <tag k="source" v="survey"/>
  </node>
  <node id="432828241" version="5" timestamp="2009-08-17T18:11:57Z" uid="36809" user="pfoten_weg_!_" changeset="2180201" lat="48.0725779" lon="11.5364316">
    <tag k="addr:city" v="Pullach"/>
    <tag k="addr:country" v="DE"/>
    <tag k="addr:housename" v="Wohngebäude"/>
    <tag k="addr:housenumber" v="24A"/>
    <tag k="addr:postcode" v="82049"/>
    <tag k="addr:street" v="Pullacher Straße"/>
    <tag k="name" v="24A"/>
    <tag k="source" v="survey"/>
  </node>
  <node id="432828242" version="1" timestamp="2009-07-03T10:07:33Z" uid="36809" user="pfoten_weg_!_" changeset="1718749" lat="48.072451" lon="11.535767">
    <tag k="addr:city" v="Pullach"/>
    <tag k="addr:country" v="DE"/>
    <tag k="addr:housename" v="Wohngebäude"/>
    <tag k="addr:housenumber" v="8"/>
    <tag k="addr:postcode" v="82049"/>
    <tag k="addr:street" v="Georgenstraße"/>
    <tag k="created_by" v="RambaZamba"/>
    <tag k="name" v="8"/>
  </node>
  <node id="432828242" version="2" timestamp="2009-07-03T15:31:34Z" uid="36809" user="pfoten_weg_!_" changeset="1722030" lat="48.072451" lon="11.535767">
    <tag k="addr:city" v="Pullach"/>
    <tag k="addr:country" v="DE"/>
    <tag k="addr:housename" v="Wohngebäude"/>
    <tag k="addr:housenumber" v="8"/>
    <tag k="addr:postcode" v="82049"/>
    <tag k="addr:street" v="Georgenstraße"/>
    <tag k="created_by" v="RambaZamba"/>
    <tag k="name" v="8"/>
    <tag k="source" v="survey"/>
  </node>
  <node id="432828242" version="3" timestamp="2009-07-14T16:16:00Z" uid="36809" user="pfoten_weg_!_" changeset="1828190" lat="48.072451" lon="11.535767">
    <tag k="addr:city" v="Pullach"/>
    <tag k="addr:country" v="DE"/>
    <tag k="addr:housename" v="Wohngebäude"/>
    <tag k="addr:housenumber" v="8"/>
    <tag k="addr:postcode" v="82049"/>
    <tag k="addr:street" v="Georgenstraße"/>
    <tag k="discovered_by" v="RambaZamba"/>
    <tag k="name" v="8"/>
    <tag k="source" v="survey"/>
  </node>
  <node id="432828242" version="5" timestamp="2009-08-17T18:11:58Z" uid="36809" user="pfoten_weg_!_" changeset="2180201" lat="48.072451" lon="11.535767">
    <tag k="addr:city" v="Pullach"/>
    <tag k="addr:country" v="DE"/>
    <tag k="addr:housename" v="Wohngebäude"/>
    <tag k="addr:housenumber" v="8"/>
    <tag k="addr:postcode" v="82049"/>
    <tag k="addr:street" v="Georgenstraße"/>
    <tag k="name" v="8"/>
    <tag k="source" v="survey"/>
  </node>
  <node id="432828243" version="1" timestamp="2009-07-03T10:07:34Z" uid="36809" user="pfoten_weg_!_" changeset="1718749" lat="48.072299" lon="11.536235">
    <tag k="addr:city" v="Pullach"/>
    <tag k="addr:country" v="DE"/>
    <tag k="addr:housename" v="Wohngebäude"/>
    <tag k="addr:housenumber" v="24"/>
    <tag k="addr:postcode" v="82049"/>
    <tag k="addr:street" v="Pullacher Straße"/>
    <tag k="created_by" v="RambaZamba"/>
    <tag k="name" v="24"/>
  </node>
  <node id="432828243" version="2" timestamp="2009-07-03T15:31:34Z" uid="36809" user="pfoten_weg_!_" changeset="1722030" lat="48.072299" lon="11.536235">
    <tag k="addr:city" v="Pullach"/>
    <tag k="addr:country" v="DE"/>
    <tag k="addr:housename" v="Wohngebäude"/>
    <tag k="addr:housenumber" v="24"/>
    <tag k="addr:postcode" v="82049"/>
    <tag k="addr:street" v="Pullacher Straße"/>
    <tag k="created_by" v="RambaZamba"/>
    <tag k="name" v="24"/>
    <tag k="source" v="survey"/>
  </node>
  <node id="432828243" version="3" timestamp="2009-07-14T16:16:01Z" uid="36809" user="pfoten_weg_!_" changeset="1828190" lat="48.072299" lon="11.536235">
    <tag k="addr:city" v="Pullach"/>
    <tag k="addr:country" v="DE"/>
    <tag k="addr:housename" v="Wohngebäude"/>
    <tag k="addr:housenumber" v="24"/>
    <tag k="addr:postcode" v="82049"/>
    <tag k="addr:street" v="Pullacher Straße"/>
    <tag k="discovered_by" v="RambaZamba"/>
    <tag k="name" v="24"/>
    <tag k="source" v="survey"/>
  </node>
  <node id="432828243" version="5" timestamp="2009-08-17T18:11:58Z" uid="36809" user="pfoten_weg_!_" changeset="2180201" lat="48.072299" lon="11.536235">
    <tag k="addr:city" v="Pullach"/>
    <tag k="addr:country" v="DE"/>
    <tag k="addr:housename" v="Wohngebäude"/>
    <tag k="addr:housenumber" v="24"/>
    <tag k="addr:postcode" v="82049"/>
    <tag k="addr:street" v="Pullacher Straße"/>
    <tag k="name" v="24"/>
    <tag k="source" v="survey"/>
  </node>
  <node id="432828245" version="1" timestamp="2009-07-03T10:07:34Z" uid="36809" user="pfoten_weg_!_" changeset="1718749" lat="48.07298" lon="11.535881">
    <tag k="addr:city" v="Pullach"/>
    <tag k="addr:country" v="DE"/>
    <tag k="addr:housename" v="Wohngebäude"/>
    <tag k="addr:housenumber" v="3"/>
    <tag k="addr:postcode" v="82049"/>
    <tag k="addr:street" v="Georgenstraße"/>
    <tag k="created_by" v="RambaZamba"/>
    <tag k="name" v="3"/>
  </node>
  <node id="432828245" version="2" timestamp="2009-07-09T09:29:15Z" uid="36809" user="pfoten_weg_!_" changeset="1779321" lat="48.07298" lon="11.535881">
    <tag k="addr:city" v="Pullach"/>
    <tag k="addr:country" v="DE"/>
    <tag k="addr:housename" v="Wohngebäude"/>
    <tag k="addr:housenumber" v="3"/>
    <tag k="addr:postcode" v="82049"/>
    <tag k="addr:street" v="Georgenstraße"/>
    <tag k="name" v="3"/>
    <tag k="source" v="survey"/>
  </node>
  <node id="432828245" version="3" timestamp="2009-07-14T16:16:00Z" uid="36809" user="pfoten_weg_!_" changeset="1828190" lat="48.07298" lon="11.535881">
    <tag k="addr:city" v="Pullach"/>
    <tag k="addr:country" v="DE"/>
    <tag k="addr:housename" v="Wohngebäude"/>
    <tag k="addr:housenumber" v="3"/>
    <tag k="addr:postcode" v="82049"/>
    <tag k="addr:street" v="Georgenstraße"/>
    <tag k="discovered_by" v="RambaZamba"/>
    <tag k="name" v="3"/>
    <tag k="source" v="survey"/>
  </node>
  <node id="432828245" version="5" timestamp="2009-08-17T18:11:59Z" uid="36809" user="pfoten_weg_!_" changeset="2180201" lat="48.07298" lon="11.535881">
    <tag k="addr:city" v="Pullach"/>
    <tag k="addr:country" v="DE"/>
    <tag k="addr:housename" v="Wohngebäude"/>
    <tag k="addr:housenumber" v="3"/>
    <tag k="addr:postcode" v="82049"/>
    <tag k="addr:street" v="Georgenstraße"/>
    <tag k="name" v="3"/>
    <tag k="source" v="survey"/>
  </node>
  <node id="432828246" version="1" timestamp="2009-07-03T10:07:35Z" uid="36809" user="pfoten_weg_!_" changeset="1718749" lat="48.073437" lon="11.535505">
    <tag k="addr:city" v="Pullach"/>
    <tag k="addr:country" v="DE"/>
    <tag k="addr:housename" v="Wohngebäude"/>
    <tag k="addr:housenumber" v="1"/>
    <tag k="addr:postcode" v="82049"/>
    <tag k="addr:street" v="Georgenstraße"/>
    <tag k="created_by" v="RambaZamba"/>
    <tag k="name" v="1"/>
  </node>
  <node id="432828246" version="2" timestamp="2009-07-09T09:29:15Z" uid="36809" user="pfoten_weg_!_" changeset="1779321" lat="48.073437" lon="11.535505">
    <tag k="addr:city" v="Pullach"/>
    <tag k="addr:country" v="DE"/>
    <tag k="addr:housename" v="Wohngebäude"/>
    <tag k="addr:housenumber" v="1"/>
    <tag k="addr:postcode" v="82049"/>
    <tag k="addr:street" v="Georgenstraße"/>
    <tag k="name" v="1"/>
    <tag k="source" v="survey"/>
  </node>
  <node id="432828246" version="3" timestamp="2009-07-14T16:15:59Z" uid="36809" user="pfoten_weg_!_" changeset="1828190" lat="48.073437" lon="11.535505">
    <tag k="addr:city" v="Pullach"/>
    <tag k="addr:country" v="DE"/>
    <tag k="addr:housename" v="Wohngebäude"/>
    <tag k="addr:housenumber" v="1"/>
    <tag k="addr:postcode" v="82049"/>
    <tag k="addr:street" v="Georgenstraße"/>
    <tag k="discovered_by" v="RambaZamba"/>
    <tag k="name" v="1"/>
    <tag k="source" v="survey"/>
  </node>
  <node id="432828246" version="5" timestamp="2009-08-17T18:12:00Z" uid="36809" user="pfoten_weg_!_" changeset="2180201" lat="48.073437" lon="11.535505">
    <tag k="addr:city" v="Pullach"/>
    <tag k="addr:country" v="DE"/>
    <tag k="addr:housename" v="Wohngebäude"/>
    <tag k="addr:housenumber" v="1"/>
    <tag k="addr:postcode" v="82049"/>
    <tag k="addr:street" v="Georgenstraße"/>
    <tag k="name" v="1"/>
    <tag k="source" v="survey"/>
  </node>
  <node id="432828247" version="1" timestamp="2009-07-03T10:07:35Z" uid="36809" user="pfoten_weg_!_" changeset="1718749" lat="48.072683" lon="11.535564">
    <tag k="addr:city" v="Pullach"/>
    <tag k="addr:country" v="DE"/>
    <tag k="addr:housename" v="Wohngebäude"/>
    <tag k="addr:housenumber" v="6"/>
    <tag k="addr:postcode" v="82049"/>
    <tag k="addr:street" v="Georgenstraße"/>
    <tag k="created_by" v="RambaZamba"/>
    <tag k="name" v="6"/>
  </node>
  <node id="432828247" version="2" timestamp="2009-07-09T09:29:15Z" uid="36809" user="pfoten_weg_!_" changeset="1779321" lat="48.072683" lon="11.535564">
    <tag k="addr:city" v="Pullach"/>
    <tag k="addr:country" v="DE"/>
    <tag k="addr:housename" v="Wohngebäude"/>
    <tag k="addr:housenumber" v="6"/>
    <tag k="addr:postcode" v="82049"/>
    <tag k="addr:street" v="Georgenstraße"/>
    <tag k="name" v="6"/>
    <tag k="source" v="survey"/>
  </node>
  <node id="432828247" version="3" timestamp="2009-07-14T16:16:00Z" uid="36809" user="pfoten_weg_!_" changeset="1828190" lat="48.072683" lon="11.535564">
    <tag k="addr:city" v="Pullach"/>
    <tag k="addr:country" v="DE"/>
    <tag k="addr:housename" v="Wohngebäude"/>
    <tag k="addr:housenumber" v="6"/>
    <tag k="addr:postcode" v="82049"/>
    <tag k="addr:street" v="Georgenstraße"/>
    <tag k="discovered_by" v="RambaZamba"/>
    <tag k="name" v="6"/>
    <tag k="source" v="survey"/>
  </node>
  <node id="432828247" version="5" timestamp="2009-08-17T18:11:59Z" uid="36809" user="pfoten_weg_!_" changeset="2180201" lat="48.072683" lon="11.535564">
    <tag k="addr:city" v="Pullach"/>
    <tag k="addr:country" v="DE"/>
    <tag k="addr:housename" v="Wohngebäude"/>
    <tag k="addr:housenumber" v="6"/>
    <tag k="addr:postcode" v="82049"/>
    <tag k="addr:street" v="Georgenstraße"/>
    <tag k="name" v="6"/>
    <tag k="source" v="survey"/>
  </node>
  <node id="432828248" version="1" timestamp="2009-07-03T10:07:36Z" uid="36809" user="pfoten_weg_!_" changeset="1718749" lat="48.072844" lon="11.535548">
    <tag k="addr:city" v="Pullach"/>
    <tag k="addr:country" v="DE"/>
    <tag k="addr:housename" v="Wohngebäude"/>
    <tag k="addr:housenumber" v="4"/>
    <tag k="addr:postcode" v="82049"/>
    <tag k="addr:street" v="Georgenstraße"/>
    <tag k="created_by" v="RambaZamba"/>
    <tag k="name" v="4"/>
  </node>
  <node id="432828248" version="2" timestamp="2009-07-09T09:29:15Z" uid="36809" user="pfoten_weg_!_" changeset="1779321" lat="48.072844" lon="11.535548">
    <tag k="addr:city" v="Pullach"/>
    <tag k="addr:country" v="DE"/>
    <tag k="addr:housename" v="Wohngebäude"/>
    <tag k="addr:housenumber" v="4"/>
    <tag k="addr:postcode" v="82049"/>
    <tag k="addr:street" v="Georgenstraße"/>
    <tag k="name" v="4"/>
    <tag k="source" v="survey"/>
  </node>
  <node id="432828248" version="3" timestamp="2009-07-14T16:15:59Z" uid="36809" user="pfoten_weg_!_" changeset="1828190" lat="48.072844" lon="11.535548">
    <tag k="addr:city" v="Pullach"/>
    <tag k="addr:country" v="DE"/>
    <tag k="addr:housename" v="Wohngebäude"/>
    <tag k="addr:housenumber" v="4"/>
    <tag k="addr:postcode" v="82049"/>
    <tag k="addr:street" v="Georgenstraße"/>
    <tag k="discovered_by" v="RambaZamba"/>
    <tag k="name" v="4"/>
    <tag k="source" v="survey"/>
  </node>
  <node id="432828248" version="5" timestamp="2009-08-17T18:12:01Z" uid="36809" user="pfoten_weg_!_" changeset="2180201" lat="48.072844" lon="11.535548">
    <tag k="addr:city" v="Pullach"/>
    <tag k="addr:country" v="DE"/>
    <tag k="addr:housename" v="Wohngebäude"/>
    <tag k="addr:housenumber" v="4"/>
    <tag k="addr:postcode" v="82049"/>
    <tag k="addr:street" v="Georgenstraße"/>
    <tag k="name" v="4"/>
    <tag k="source" v="survey"/>
  </node>
  <node id="432828249" version="1" timestamp="2009-07-03T10:07:36Z" uid="36809" user="pfoten_weg_!_" changeset="1718749" lat="48.07267" lon="11.536069">
    <tag k="addr:city" v="Pullach"/>
    <tag k="addr:country" v="DE"/>
    <tag k="addr:housename" v="Wohngebäude"/>
    <tag k="addr:housenumber" v="23"/>
    <tag k="addr:postcode" v="82049"/>
    <tag k="addr:street" v="Pullacher Straße"/>
    <tag k="created_by" v="RambaZamba"/>
    <tag k="name" v="23"/>
  </node>
  <node id="432828249" version="2" timestamp="2009-07-03T15:31:34Z" uid="36809" user="pfoten_weg_!_" changeset="1722030" lat="48.07267" lon="11.536069">
    <tag k="addr:city" v="Pullach"/>
    <tag k="addr:country" v="DE"/>
    <tag k="addr:housename" v="Wohngebäude"/>
    <tag k="addr:housenumber" v="23"/>
    <tag k="addr:postcode" v="82049"/>
    <tag k="addr:street" v="Pullacher Straße"/>
    <tag k="created_by" v="RambaZamba"/>
    <tag k="name" v="23"/>
    <tag k="source" v="survey"/>
  </node>
  <node id="432828249" version="3" timestamp="2009-07-03T15:31:56Z" uid="36809" user="pfoten_weg_!_" changeset="1722038" lat="48.0726792" lon="11.5360517">
    <tag k="addr:city" v="Pullach"/>
    <tag k="addr:country" v="DE"/>
    <tag k="addr:housename" v="Wohngebäude"/>
    <tag k="addr:housenumber" v="23"/>
    <tag k="addr:postcode" v="82049"/>
    <tag k="addr:street" v="Pullacher Straße"/>
    <tag k="created_by" v="RambaZamba"/>
    <tag k="name" v="23"/>
    <tag k="source" v="survey"/>
  </node>
  <node id="432828249" version="4" timestamp="2009-07-14T16:15:59Z" uid="36809" user="pfoten_weg_!_" changeset="1828190" lat="48.0726792" lon="11.5360517">
    <tag k="addr:city" v="Pullach"/>
    <tag k="addr:country" v="DE"/>
    <tag k="addr:housename" v="Wohngebäude"/>
    <tag k="addr:housenumber" v="23"/>
    <tag k="addr:postcode" v="82049"/>
    <tag k="addr:street" v="Pullacher Straße"/>
    <tag k="discovered_by" v="RambaZamba"/>
    <tag k="name" v="23"/>
    <tag k="source" v="survey"/>
  </node>
  <node id="432828249" version="6" timestamp="2009-08-17T18:12:00Z" uid="36809" user="pfoten_weg_!_" changeset="2180201" lat="48.0726792" lon="11.5360517">
    <tag k="addr:city" v="Pullach"/>
    <tag k="addr:country" v="DE"/>
    <tag k="addr:housename" v="Wohngebäude"/>
    <tag k="addr:housenumber" v="23"/>
    <tag k="addr:postcode" v="82049"/>
    <tag k="addr:street" v="Pullacher Straße"/>
    <tag k="name" v="23"/>
    <tag k="source" v="survey"/>
  </node>
  <node id="432828251" version="1" timestamp="2009-07-03T10:07:36Z" uid="36809" user="pfoten_weg_!_" changeset="1718749" lat="48.0733208" lon="11.5369757">
    <tag k="addr:city" v="Pullach"/>
    <tag k="addr:country" v="DE"/>
    <tag k="addr:housename" v="Wohngebäude"/>
    <tag k="addr:housenumber" v="26 Tor"/>
    <tag k="addr:postcode" v="82049"/>
    <tag k="addr:street" v="Pullacher Straße"/>
    <tag k="created_by" v="RambaZamba"/>
    <tag k="name" v="26 Tor"/>
  </node>
  <node id="432828251" version="2" timestamp="2009-07-03T16:35:36Z" uid="36809" user="pfoten_weg_!_" changeset="1722649" lat="48.0733208" lon="11.5369757">
    <tag k="addr:city" v="Pullach"/>
    <tag k="addr:country" v="DE"/>
    <tag k="addr:housename" v="Wohngebäude"/>
    <tag k="addr:housenumber" v="26 Tor"/>
    <tag k="addr:postcode" v="82049"/>
    <tag k="addr:street" v="Pullacher Straße"/>
    <tag k="created_by" v="RambaZamba"/>
    <tag k="name" v="26 Tor"/>
  </node>
  <node id="432828252" version="1" timestamp="2009-07-03T10:07:37Z" uid="36809" user="pfoten_weg_!_" changeset="1718749" lat="48.073181" lon="11.535247">
    <tag k="addr:city" v="Pullach"/>
    <tag k="addr:country" v="DE"/>
    <tag k="addr:housename" v="Wohngebäude"/>
    <tag k="addr:housenumber" v="2"/>
    <tag k="addr:postcode" v="82049"/>
    <tag k="addr:street" v="Georgenstraße"/>
    <tag k="created_by" v="RambaZamba"/>
    <tag k="name" v="2"/>
  </node>
  <node id="432828252" version="2" timestamp="2009-07-09T09:29:15Z" uid="36809" user="pfoten_weg_!_" changeset="1779321" lat="48.073181" lon="11.535247">
    <tag k="addr:city" v="Pullach"/>
    <tag k="addr:country" v="DE"/>
    <tag k="addr:housename" v="Wohngebäude"/>
    <tag k="addr:housenumber" v="2"/>
    <tag k="addr:postcode" v="82049"/>
    <tag k="addr:street" v="Georgenstraße"/>
    <tag k="name" v="2"/>
    <tag k="source" v="survey"/>
  </node>
  <node id="432828252" version="3" timestamp="2009-07-14T16:15:59Z" uid="36809" user="pfoten_weg_!_" changeset="1828190" lat="48.073181" lon="11.535247">
    <tag k="addr:city" v="Pullach"/>
    <tag k="addr:country" v="DE"/>
    <tag k="addr:housename" v="Wohngebäude"/>
    <tag k="addr:housenumber" v="2"/>
    <tag k="addr:postcode" v="82049"/>
    <tag k="addr:street" v="Georgenstraße"/>
    <tag k="discovered_by" v="RambaZamba"/>
    <tag k="name" v="2"/>
    <tag k="source" v="survey"/>
  </node>
  <node id="432828252" version="5" timestamp="2009-08-17T18:12:01Z" uid="36809" user="pfoten_weg_!_" changeset="2180201" lat="48.073181" lon="11.535247">
    <tag k="addr:city" v="Pullach"/>
    <tag k="addr:country" v="DE"/>
    <tag k="addr:housename" v="Wohngebäude"/>
    <tag k="addr:housenumber" v="2"/>
    <tag k="addr:postcode" v="82049"/>
    <tag k="addr:street" v="Georgenstraße"/>
    <tag k="name" v="2"/>
    <tag k="source" v="survey"/>
  </node>
  <node id="432828255" version="1" timestamp="2009-07-03T10:07:37Z" uid="36809" user="pfoten_weg_!_" changeset="1718749" lat="48.073269" lon="11.536251">
    <tag k="addr:city" v="Pullach"/>
    <tag k="addr:country" v="DE"/>
    <tag k="addr:housename" v="Wohngebäude"/>
    <tag k="addr:housenumber" v="25"/>
    <tag k="addr:postcode" v="82049"/>
    <tag k="addr:street" v="Pullacher Straße"/>
    <tag k="created_by" v="RambaZamba"/>
    <tag k="name" v="25"/>
  </node>
  <node id="432828255" version="2" timestamp="2009-07-09T09:29:15Z" uid="36809" user="pfoten_weg_!_" changeset="1779321" lat="48.073269" lon="11.536251">
    <tag k="addr:city" v="Pullach"/>
    <tag k="addr:country" v="DE"/>
    <tag k="addr:housename" v="Wohngebäude"/>
    <tag k="addr:housenumber" v="25"/>
    <tag k="addr:postcode" v="82049"/>
    <tag k="addr:street" v="Pullacher Straße"/>
    <tag k="name" v="25"/>
    <tag k="source" v="survey"/>
  </node>
  <node id="432828255" version="3" timestamp="2009-07-14T16:15:58Z" uid="36809" user="pfoten_weg_!_" changeset="1828190" lat="48.073269" lon="11.536251">
    <tag k="addr:city" v="Pullach"/>
    <tag k="addr:country" v="DE"/>
    <tag k="addr:housename" v="Wohngebäude"/>
    <tag k="addr:housenumber" v="25"/>
    <tag k="addr:postcode" v="82049"/>
    <tag k="addr:street" v="Pullacher Straße"/>
    <tag k="discovered_by" v="RambaZamba"/>
    <tag k="name" v="25"/>
    <tag k="source" v="survey"/>
  </node>
  <node id="432828255" version="5" timestamp="2009-08-17T18:12:01Z" uid="36809" user="pfoten_weg_!_" changeset="2180201" lat="48.073269" lon="11.536251">
    <tag k="addr:city" v="Pullach"/>
    <tag k="addr:country" v="DE"/>
    <tag k="addr:housename" v="Wohngebäude"/>
    <tag k="addr:housenumber" v="25"/>
    <tag k="addr:postcode" v="82049"/>
    <tag k="addr:street" v="Pullacher Straße"/>
    <tag k="name" v="25"/>
    <tag k="source" v="survey"/>
  </node>
  <node id="432828260" version="1" timestamp="2009-07-03T10:07:38Z" uid="36809" user="pfoten_weg_!_" changeset="1718749" lat="48.073953" lon="11.536367">
    <tag k="addr:city" v="Pullach"/>
    <tag k="addr:country" v="DE"/>
    <tag k="addr:housename" v="Wohngebäude"/>
    <tag k="addr:housenumber" v="1"/>
    <tag k="addr:postcode" v="82049"/>
    <tag k="addr:street" v="Bahnhofplatz"/>
    <tag k="created_by" v="RambaZamba"/>
    <tag k="name" v="1"/>
  </node>
  <node id="432828260" version="2" timestamp="2009-07-09T09:29:18Z" uid="36809" user="pfoten_weg_!_" changeset="1779321" lat="48.073953" lon="11.536367">
    <tag k="addr:city" v="Pullach"/>
    <tag k="addr:country" v="DE"/>
    <tag k="addr:housename" v="Wohngebäude"/>
    <tag k="addr:housenumber" v="1"/>
    <tag k="addr:postcode" v="82049"/>
    <tag k="addr:street" v="Bahnhofplatz"/>
    <tag k="name" v="1"/>
    <tag k="source" v="survey"/>
  </node>
  <node id="432828260" version="3" timestamp="2009-07-14T16:16:11Z" uid="36809" user="pfoten_weg_!_" changeset="1828190" lat="48.073953" lon="11.536367">
    <tag k="addr:city" v="Pullach"/>
    <tag k="addr:country" v="DE"/>
    <tag k="addr:housename" v="Wohngebäude"/>
    <tag k="addr:housenumber" v="1"/>
    <tag k="addr:postcode" v="82049"/>
    <tag k="addr:street" v="Bahnhofplatz"/>
    <tag k="discovered_by" v="RambaZamba"/>
    <tag k="name" v="1"/>
    <tag k="source" v="survey"/>
  </node>
  <node id="432828260" version="5" timestamp="2009-08-17T18:11:25Z" uid="36809" user="pfoten_weg_!_" changeset="2180201" lat="48.073953" lon="11.536367">
    <tag k="addr:city" v="Pullach"/>
    <tag k="addr:country" v="DE"/>
    <tag k="addr:housename" v="Wohngebäude"/>
    <tag k="addr:housenumber" v="1"/>
    <tag k="addr:postcode" v="82049"/>
    <tag k="addr:street" v="Bahnhofplatz"/>
    <tag k="name" v="1"/>
    <tag k="source" v="survey"/>
  </node>
  <node id="432828263" version="1" timestamp="2009-07-03T10:07:38Z" uid="36809" user="pfoten_weg_!_" changeset="1718749" lat="48.073733" lon="11.537369">
    <tag k="addr:city" v="Pullach"/>
    <tag k="addr:country" v="DE"/>
    <tag k="addr:housename" v="Wohngebäude"/>
    <tag k="addr:housenumber" v="4"/>
    <tag k="addr:postcode" v="82049"/>
    <tag k="addr:street" v="Bahnhofplatz"/>
    <tag k="created_by" v="RambaZamba"/>
    <tag k="name" v="4"/>
  </node>
  <node id="432828263" version="2" timestamp="2009-07-09T09:29:18Z" uid="36809" user="pfoten_weg_!_" changeset="1779321" lat="48.073733" lon="11.537369">
    <tag k="addr:city" v="Pullach"/>
    <tag k="addr:country" v="DE"/>
    <tag k="addr:housename" v="Wohngebäude"/>
    <tag k="addr:housenumber" v="4"/>
    <tag k="addr:postcode" v="82049"/>
    <tag k="addr:street" v="Bahnhofplatz"/>
    <tag k="name" v="4"/>
    <tag k="source" v="survey"/>
  </node>
  <node id="432828263" version="3" timestamp="2009-07-14T16:16:12Z" uid="36809" user="pfoten_weg_!_" changeset="1828190" lat="48.073733" lon="11.537369">
    <tag k="addr:city" v="Pullach"/>
    <tag k="addr:country" v="DE"/>
    <tag k="addr:housename" v="Wohngebäude"/>
    <tag k="addr:housenumber" v="4"/>
    <tag k="addr:postcode" v="82049"/>
    <tag k="addr:street" v="Bahnhofplatz"/>
    <tag k="discovered_by" v="RambaZamba"/>
    <tag k="name" v="4"/>
    <tag k="source" v="survey"/>
  </node>
  <node id="432828263" version="5" timestamp="2009-08-17T18:11:24Z" uid="36809" user="pfoten_weg_!_" changeset="2180201" lat="48.073733" lon="11.537369">
    <tag k="addr:city" v="Pullach"/>
    <tag k="addr:country" v="DE"/>
    <tag k="addr:housename" v="Wohngebäude"/>
    <tag k="addr:housenumber" v="4"/>
    <tag k="addr:postcode" v="82049"/>
    <tag k="addr:street" v="Bahnhofplatz"/>
    <tag k="name" v="4"/>
    <tag k="source" v="survey"/>
  </node>
  <node id="432828266" version="1" timestamp="2009-07-03T10:07:39Z" uid="36809" user="pfoten_weg_!_" changeset="1718749" lat="48.07281" lon="11.536841">
    <tag k="amenity" v="restaurant"/>
    <tag k="created_by" v="RambaZamba"/>
    <tag k="name" v="Ristorante La Terra Rossa"/>
  </node>
  <node id="432828266" version="3" timestamp="2009-08-25T19:07:48Z" uid="36809" user="pfoten_weg_!_" changeset="2260477" lat="48.07281" lon="11.536841">
    <tag k="amenity" v="restaurant"/>
    <tag k="name" v="Ristorante La Terra Rossa"/>
  </node>
  <node id="432828267" version="1" timestamp="2009-07-03T10:07:39Z" uid="36809" user="pfoten_weg_!_" changeset="1718749" lat="48.074009" lon="11.537114">
    <tag k="addr:city" v="Pullach"/>
    <tag k="addr:country" v="DE"/>
    <tag k="addr:housename" v="Wohngebäude"/>
    <tag k="addr:housenumber" v="2"/>
    <tag k="addr:postcode" v="82049"/>
    <tag k="addr:street" v="Bahnhofplatz"/>
    <tag k="created_by" v="RambaZamba"/>
    <tag k="name" v="2"/>
  </node>
  <node id="432828267" version="2" timestamp="2009-07-09T09:29:18Z" uid="36809" user="pfoten_weg_!_" changeset="1779321" lat="48.074009" lon="11.537114">
    <tag k="addr:city" v="Pullach"/>
    <tag k="addr:country" v="DE"/>
    <tag k="addr:housename" v="Wohngebäude"/>
    <tag k="addr:housenumber" v="2"/>
    <tag k="addr:postcode" v="82049"/>
    <tag k="addr:street" v="Bahnhofplatz"/>
    <tag k="name" v="2"/>
    <tag k="source" v="survey"/>
  </node>
  <node id="432828267" version="3" timestamp="2009-07-14T16:16:11Z" uid="36809" user="pfoten_weg_!_" changeset="1828190" lat="48.074009" lon="11.537114">
    <tag k="addr:city" v="Pullach"/>
    <tag k="addr:country" v="DE"/>
    <tag k="addr:housename" v="Wohngebäude"/>
    <tag k="addr:housenumber" v="2"/>
    <tag k="addr:postcode" v="82049"/>
    <tag k="addr:street" v="Bahnhofplatz"/>
    <tag k="discovered_by" v="RambaZamba"/>
    <tag k="name" v="2"/>
    <tag k="source" v="survey"/>
  </node>
  <node id="432828267" version="5" timestamp="2009-08-17T18:11:26Z" uid="36809" user="pfoten_weg_!_" changeset="2180201" lat="48.074009" lon="11.537114">
    <tag k="addr:city" v="Pullach"/>
    <tag k="addr:country" v="DE"/>
    <tag k="addr:housename" v="Wohngebäude"/>
    <tag k="addr:housenumber" v="2"/>
    <tag k="addr:postcode" v="82049"/>
    <tag k="addr:street" v="Bahnhofplatz"/>
    <tag k="name" v="2"/>
    <tag k="source" v="survey"/>
  </node>
  <node id="432828268" version="1" timestamp="2009-07-03T10:07:40Z" uid="36809" user="pfoten_weg_!_" changeset="1718749" lat="48.076543" lon="11.526184">
    <tag k="addr:city" v="München"/>
    <tag k="addr:country" v="DE"/>
    <tag k="addr:housename" v="Wohngebäude"/>
    <tag k="addr:housenumber" v="8"/>
    <tag k="addr:postcode" v="81479"/>
    <tag k="addr:street" v="Herterichstraße"/>
    <tag k="created_by" v="RambaZamba"/>
    <tag k="name" v="8"/>
  </node>
  <node id="432828268" version="2" timestamp="2009-07-09T09:29:18Z" uid="36809" user="pfoten_weg_!_" changeset="1779321" lat="48.076543" lon="11.526184">
    <tag k="addr:city" v="München"/>
    <tag k="addr:country" v="DE"/>
    <tag k="addr:housename" v="Wohngebäude"/>
    <tag k="addr:housenumber" v="8"/>
    <tag k="addr:postcode" v="81479"/>
    <tag k="addr:street" v="Herterichstraße"/>
    <tag k="name" v="8"/>
    <tag k="source" v="survey"/>
  </node>
  <node id="432828268" version="3" timestamp="2009-07-14T16:16:10Z" uid="36809" user="pfoten_weg_!_" changeset="1828190" lat="48.076543" lon="11.526184">
    <tag k="addr:city" v="München"/>
    <tag k="addr:country" v="DE"/>
    <tag k="addr:housename" v="Wohngebäude"/>
    <tag k="addr:housenumber" v="8"/>
    <tag k="addr:postcode" v="81479"/>
    <tag k="addr:street" v="Herterichstraße"/>
    <tag k="discovered_by" v="RambaZamba"/>
    <tag k="name" v="8"/>
    <tag k="source" v="survey"/>
  </node>
  <node id="432828268" version="5" timestamp="2009-08-17T18:11:28Z" uid="36809" user="pfoten_weg_!_" changeset="2180201" lat="48.076543" lon="11.526184">
    <tag k="addr:city" v="München"/>
    <tag k="addr:country" v="DE"/>
    <tag k="addr:housename" v="Wohngebäude"/>
    <tag k="addr:housenumber" v="8"/>
    <tag k="addr:postcode" v="81479"/>
    <tag k="addr:street" v="Herterichstraße"/>
    <tag k="name" v="8"/>
    <tag k="source" v="survey"/>
  </node>
  <node id="432828269" version="1" timestamp="2009-07-03T10:07:40Z" uid="36809" user="pfoten_weg_!_" changeset="1718749" lat="48.0763029" lon="11.5261036">
    <tag k="addr:city" v="München"/>
    <tag k="addr:country" v="DE"/>
    <tag k="addr:housename" v="Wohngebäude"/>
    <tag k="addr:housenumber" v="8A"/>
    <tag k="addr:postcode" v="81479"/>
    <tag k="addr:street" v="Herterichstraße"/>
    <tag k="created_by" v="RambaZamba"/>
    <tag k="name" v="8A"/>
  </node>
  <node id="432828269" version="2" timestamp="2009-07-09T09:29:18Z" uid="36809" user="pfoten_weg_!_" changeset="1779321" lat="48.0763029" lon="11.5261036">
    <tag k="addr:city" v="München"/>
    <tag k="addr:country" v="DE"/>
    <tag k="addr:housename" v="Wohngebäude"/>
    <tag k="addr:housenumber" v="8A"/>
    <tag k="addr:postcode" v="81479"/>
    <tag k="addr:street" v="Herterichstraße"/>
    <tag k="name" v="8A"/>
    <tag k="source" v="survey"/>
  </node>
  <node id="432828269" version="3" timestamp="2009-07-14T16:16:10Z" uid="36809" user="pfoten_weg_!_" changeset="1828190" lat="48.0763029" lon="11.5261036">
    <tag k="addr:city" v="München"/>
    <tag k="addr:country" v="DE"/>
    <tag k="addr:housename" v="Wohngebäude"/>
    <tag k="addr:housenumber" v="8A"/>
    <tag k="addr:postcode" v="81479"/>
    <tag k="addr:street" v="Herterichstraße"/>
    <tag k="discovered_by" v="RambaZamba"/>
    <tag k="name" v="8A"/>
    <tag k="source" v="survey"/>
  </node>
  <node id="432828269" version="5" timestamp="2009-08-17T18:11:28Z" uid="36809" user="pfoten_weg_!_" changeset="2180201" lat="48.0763029" lon="11.5261036">
    <tag k="addr:city" v="München"/>
    <tag k="addr:country" v="DE"/>
    <tag k="addr:housename" v="Wohngebäude"/>
    <tag k="addr:housenumber" v="8A"/>
    <tag k="addr:postcode" v="81479"/>
    <tag k="addr:street" v="Herterichstraße"/>
    <tag k="name" v="8A"/>
    <tag k="source" v="survey"/>
  </node>
  <node id="432828270" version="1" timestamp="2009-07-03T10:07:41Z" uid="36809" user="pfoten_weg_!_" changeset="1718749" lat="48.073581" lon="11.537179">
    <tag k="addr:city" v="Pullach"/>
    <tag k="addr:country" v="DE"/>
    <tag k="addr:housename" v="Wohngebäude"/>
    <tag k="addr:housenumber" v="5"/>
    <tag k="addr:postcode" v="82049"/>
    <tag k="addr:street" v="Bahnhofplatz"/>
    <tag k="created_by" v="RambaZamba"/>
    <tag k="name" v="5"/>
  </node>
  <node id="432828270" version="2" timestamp="2009-07-09T09:29:18Z" uid="36809" user="pfoten_weg_!_" changeset="1779321" lat="48.073581" lon="11.537179">
    <tag k="addr:city" v="Pullach"/>
    <tag k="addr:country" v="DE"/>
    <tag k="addr:housename" v="Wohngebäude"/>
    <tag k="addr:housenumber" v="5"/>
    <tag k="addr:postcode" v="82049"/>
    <tag k="addr:street" v="Bahnhofplatz"/>
    <tag k="name" v="5"/>
    <tag k="source" v="survey"/>
  </node>
  <node id="432828270" version="3" timestamp="2009-07-14T16:16:11Z" uid="36809" user="pfoten_weg_!_" changeset="1828190" lat="48.073581" lon="11.537179">
    <tag k="addr:city" v="Pullach"/>
    <tag k="addr:country" v="DE"/>
    <tag k="addr:housename" v="Wohngebäude"/>
    <tag k="addr:housenumber" v="5"/>
    <tag k="addr:postcode" v="82049"/>
    <tag k="addr:street" v="Bahnhofplatz"/>
    <tag k="discovered_by" v="RambaZamba"/>
    <tag k="name" v="5"/>
    <tag k="source" v="survey"/>
  </node>
  <node id="432828270" version="5" timestamp="2009-08-17T18:11:27Z" uid="36809" user="pfoten_weg_!_" changeset="2180201" lat="48.073581" lon="11.537179">
    <tag k="addr:city" v="Pullach"/>
    <tag k="addr:country" v="DE"/>
    <tag k="addr:housename" v="Wohngebäude"/>
    <tag k="addr:housenumber" v="5"/>
    <tag k="addr:postcode" v="82049"/>
    <tag k="addr:street" v="Bahnhofplatz"/>
    <tag k="name" v="5"/>
    <tag k="source" v="survey"/>
  </node>
  <node id="432828271" version="1" timestamp="2009-07-03T10:07:41Z" uid="36809" user="pfoten_weg_!_" changeset="1718749" lat="48.076862" lon="11.526074">
    <tag k="addr:city" v="München"/>
    <tag k="addr:country" v="DE"/>
    <tag k="addr:housename" v="Wohngebäude"/>
    <tag k="addr:housenumber" v="50"/>
    <tag k="addr:postcode" v="81479"/>
    <tag k="addr:street" v="Sollner Straße"/>
    <tag k="created_by" v="RambaZamba"/>
    <tag k="name" v="50"/>
  </node>
  <node id="432828271" version="2" timestamp="2009-07-09T09:29:18Z" uid="36809" user="pfoten_weg_!_" changeset="1779321" lat="48.076862" lon="11.526074">
    <tag k="addr:city" v="München"/>
    <tag k="addr:country" v="DE"/>
    <tag k="addr:housename" v="Wohngebäude"/>
    <tag k="addr:housenumber" v="50"/>
    <tag k="addr:postcode" v="81479"/>
    <tag k="addr:street" v="Sollner Straße"/>
    <tag k="name" v="50"/>
    <tag k="source" v="survey"/>
  </node>
  <node id="432828271" version="3" timestamp="2009-07-14T16:16:11Z" uid="36809" user="pfoten_weg_!_" changeset="1828190" lat="48.076862" lon="11.526074">
    <tag k="addr:city" v="München"/>
    <tag k="addr:country" v="DE"/>
    <tag k="addr:housename" v="Wohngebäude"/>
    <tag k="addr:housenumber" v="50"/>
    <tag k="addr:postcode" v="81479"/>
    <tag k="addr:street" v="Sollner Straße"/>
    <tag k="discovered_by" v="RambaZamba"/>
    <tag k="name" v="50"/>
    <tag k="source" v="survey"/>
  </node>
  <node id="432828271" version="5" timestamp="2009-08-17T18:11:27Z" uid="36809" user="pfoten_weg_!_" changeset="2180201" lat="48.076862" lon="11.526074">
    <tag k="addr:city" v="München"/>
    <tag k="addr:country" v="DE"/>
    <tag k="addr:housename" v="Wohngebäude"/>
    <tag k="addr:housenumber" v="50"/>
    <tag k="addr:postcode" v="81479"/>
    <tag k="addr:street" v="Sollner Straße"/>
    <tag k="name" v="50"/>
    <tag k="source" v="survey"/>
  </node>
  <node id="432828272" version="1" timestamp="2009-07-03T10:07:41Z" uid="36809" user="pfoten_weg_!_" changeset="1718749" lat="48.07438" lon="11.52653">
    <tag k="addr:city" v="München"/>
    <tag k="addr:country" v="DE"/>
    <tag k="addr:housename" v="Wohngebäude"/>
    <tag k="addr:housenumber" v="62"/>
    <tag k="addr:postcode" v="81479"/>
    <tag k="addr:street" v="Sollner Straße"/>
    <tag k="created_by" v="RambaZamba"/>
    <tag k="name" v="62"/>
  </node>
  <node id="432828272" version="2" timestamp="2009-07-09T09:29:17Z" uid="36809" user="pfoten_weg_!_" changeset="1779321" lat="48.07438" lon="11.52653">
    <tag k="addr:city" v="München"/>
    <tag k="addr:country" v="DE"/>
    <tag k="addr:housename" v="Wohngebäude"/>
    <tag k="addr:housenumber" v="62"/>
    <tag k="addr:postcode" v="81479"/>
    <tag k="addr:street" v="Sollner Straße"/>
    <tag k="name" v="62"/>
    <tag k="source" v="survey"/>
  </node>
  <node id="432828272" version="3" timestamp="2009-07-14T16:16:09Z" uid="36809" user="pfoten_weg_!_" changeset="1828190" lat="48.07438" lon="11.52653">
    <tag k="addr:city" v="München"/>
    <tag k="addr:country" v="DE"/>
    <tag k="addr:housename" v="Wohngebäude"/>
    <tag k="addr:housenumber" v="62"/>
    <tag k="addr:postcode" v="81479"/>
    <tag k="addr:street" v="Sollner Straße"/>
    <tag k="discovered_by" v="RambaZamba"/>
    <tag k="name" v="62"/>
    <tag k="source" v="survey"/>
  </node>
  <node id="432828272" version="5" timestamp="2009-08-17T18:11:32Z" uid="36809" user="pfoten_weg_!_" changeset="2180201" lat="48.07438" lon="11.52653">
    <tag k="addr:city" v="München"/>
    <tag k="addr:country" v="DE"/>
    <tag k="addr:housename" v="Wohngebäude"/>
    <tag k="addr:housenumber" v="62"/>
    <tag k="addr:postcode" v="81479"/>
    <tag k="addr:street" v="Sollner Straße"/>
    <tag k="name" v="62"/>
    <tag k="source" v="survey"/>
  </node>
  <node id="432828273" version="1" timestamp="2009-07-03T10:07:42Z" uid="36809" user="pfoten_weg_!_" changeset="1718749" lat="48.074779" lon="11.526472">
    <tag k="addr:city" v="München"/>
    <tag k="addr:country" v="DE"/>
    <tag k="addr:housename" v="Wohngebäude"/>
    <tag k="addr:housenumber" v="60"/>
    <tag k="addr:postcode" v="81479"/>
    <tag k="addr:street" v="Sollner Straße"/>
    <tag k="created_by" v="RambaZamba"/>
    <tag k="name" v="60"/>
  </node>
  <node id="432828273" version="2" timestamp="2009-07-09T09:29:17Z" uid="36809" user="pfoten_weg_!_" changeset="1779321" lat="48.074779" lon="11.526472">
    <tag k="addr:city" v="München"/>
    <tag k="addr:country" v="DE"/>
    <tag k="addr:housename" v="Wohngebäude"/>
    <tag k="addr:housenumber" v="60"/>
    <tag k="addr:postcode" v="81479"/>
    <tag k="addr:street" v="Sollner Straße"/>
    <tag k="name" v="60"/>
    <tag k="source" v="survey"/>
  </node>
  <node id="432828273" version="3" timestamp="2009-07-14T16:16:10Z" uid="36809" user="pfoten_weg_!_" changeset="1828190" lat="48.074779" lon="11.526472">
    <tag k="addr:city" v="München"/>
    <tag k="addr:country" v="DE"/>
    <tag k="addr:housename" v="Wohngebäude"/>
    <tag k="addr:housenumber" v="60"/>
    <tag k="addr:postcode" v="81479"/>
    <tag k="addr:street" v="Sollner Straße"/>
    <tag k="discovered_by" v="RambaZamba"/>
    <tag k="name" v="60"/>
    <tag k="source" v="survey"/>
  </node>
  <node id="432828273" version="5" timestamp="2009-08-17T18:11:30Z" uid="36809" user="pfoten_weg_!_" changeset="2180201" lat="48.074779" lon="11.526472">
    <tag k="addr:city" v="München"/>
    <tag k="addr:country" v="DE"/>
    <tag k="addr:housename" v="Wohngebäude"/>
    <tag k="addr:housenumber" v="60"/>
    <tag k="addr:postcode" v="81479"/>
    <tag k="addr:street" v="Sollner Straße"/>
    <tag k="name" v="60"/>
    <tag k="source" v="survey"/>
  </node>
  <node id="432828274" version="1" timestamp="2009-07-03T10:07:42Z" uid="36809" user="pfoten_weg_!_" changeset="1718749" lat="48.075275" lon="11.526517">
    <tag k="addr:city" v="München"/>
    <tag k="addr:country" v="DE"/>
    <tag k="addr:housename" v="Wohngebäude"/>
    <tag k="addr:housenumber" v="54"/>
    <tag k="addr:postcode" v="81479"/>
    <tag k="addr:street" v="Sollner Straße"/>
    <tag k="created_by" v="RambaZamba"/>
    <tag k="name" v="54"/>
  </node>
  <node id="432828274" version="2" timestamp="2009-07-09T09:29:17Z" uid="36809" user="pfoten_weg_!_" changeset="1779321" lat="48.075275" lon="11.526517">
    <tag k="addr:city" v="München"/>
    <tag k="addr:country" v="DE"/>
    <tag k="addr:housename" v="Wohngebäude"/>
    <tag k="addr:housenumber" v="54"/>
    <tag k="addr:postcode" v="81479"/>
    <tag k="addr:street" v="Sollner Straße"/>
    <tag k="name" v="54"/>
    <tag k="source" v="survey"/>
  </node>
  <node id="432828274" version="3" timestamp="2009-07-14T16:16:10Z" uid="36809" user="pfoten_weg_!_" changeset="1828190" lat="48.075275" lon="11.526517">
    <tag k="addr:city" v="München"/>
    <tag k="addr:country" v="DE"/>
    <tag k="addr:housename" v="Wohngebäude"/>
    <tag k="addr:housenumber" v="54"/>
    <tag k="addr:postcode" v="81479"/>
    <tag k="addr:street" v="Sollner Straße"/>
    <tag k="discovered_by" v="RambaZamba"/>
    <tag k="name" v="54"/>
    <tag k="source" v="survey"/>
  </node>
  <node id="432828274" version="5" timestamp="2009-08-17T18:11:29Z" uid="36809" user="pfoten_weg_!_" changeset="2180201" lat="48.075275" lon="11.526517">
    <tag k="addr:city" v="München"/>
    <tag k="addr:country" v="DE"/>
    <tag k="addr:housename" v="Wohngebäude"/>
    <tag k="addr:housenumber" v="54"/>
    <tag k="addr:postcode" v="81479"/>
    <tag k="addr:street" v="Sollner Straße"/>
    <tag k="name" v="54"/>
    <tag k="source" v="survey"/>
  </node>
  <node id="432828275" version="1" timestamp="2009-07-03T10:07:42Z" uid="36809" user="pfoten_weg_!_" changeset="1718749" lat="48.075921" lon="11.52645">
    <tag k="addr:city" v="München"/>
    <tag k="addr:country" v="DE"/>
    <tag k="addr:housename" v="Wohngebäude"/>
    <tag k="addr:housenumber" v="52"/>
    <tag k="addr:postcode" v="81479"/>
    <tag k="addr:street" v="Sollner Straße"/>
    <tag k="created_by" v="RambaZamba"/>
    <tag k="name" v="52"/>
  </node>
  <node id="432828275" version="2" timestamp="2009-07-09T09:29:17Z" uid="36809" user="pfoten_weg_!_" changeset="1779321" lat="48.075921" lon="11.52645">
    <tag k="addr:city" v="München"/>
    <tag k="addr:country" v="DE"/>
    <tag k="addr:housename" v="Wohngebäude"/>
    <tag k="addr:housenumber" v="52"/>
    <tag k="addr:postcode" v="81479"/>
    <tag k="addr:street" v="Sollner Straße"/>
    <tag k="name" v="52"/>
    <tag k="source" v="survey"/>
  </node>
  <node id="432828275" version="3" timestamp="2009-07-14T16:16:10Z" uid="36809" user="pfoten_weg_!_" changeset="1828190" lat="48.075921" lon="11.52645">
    <tag k="addr:city" v="München"/>
    <tag k="addr:country" v="DE"/>
    <tag k="addr:housename" v="Wohngebäude"/>
    <tag k="addr:housenumber" v="52"/>
    <tag k="addr:postcode" v="81479"/>
    <tag k="addr:street" v="Sollner Straße"/>
    <tag k="discovered_by" v="RambaZamba"/>
    <tag k="name" v="52"/>
    <tag k="source" v="survey"/>
  </node>
  <node id="432828275" version="5" timestamp="2009-08-17T18:11:28Z" uid="36809" user="pfoten_weg_!_" changeset="2180201" lat="48.075921" lon="11.52645">
    <tag k="addr:city" v="München"/>
    <tag k="addr:country" v="DE"/>
    <tag k="addr:housename" v="Wohngebäude"/>
    <tag k="addr:housenumber" v="52"/>
    <tag k="addr:postcode" v="81479"/>
    <tag k="addr:street" v="Sollner Straße"/>
    <tag k="name" v="52"/>
    <tag k="source" v="survey"/>
  </node>
  <node id="432828276" version="1" timestamp="2009-07-03T10:07:43Z" uid="36809" user="pfoten_weg_!_" changeset="1718749" lat="48.0736154" lon="11.5264464">
    <tag k="addr:city" v="München"/>
    <tag k="addr:country" v="DE"/>
    <tag k="addr:housename" v="Wohngebäude"/>
    <tag k="addr:housenumber" v="68A"/>
    <tag k="addr:postcode" v="81479"/>
    <tag k="addr:street" v="Sollner Straße"/>
    <tag k="created_by" v="RambaZamba"/>
    <tag k="name" v="68A"/>
  </node>
  <node id="432828276" version="2" timestamp="2009-07-09T09:29:16Z" uid="36809" user="pfoten_weg_!_" changeset="1779321" lat="48.0736154" lon="11.5264464">
    <tag k="addr:city" v="München"/>
    <tag k="addr:country" v="DE"/>
    <tag k="addr:housename" v="Wohngebäude"/>
    <tag k="addr:housenumber" v="68A"/>
    <tag k="addr:postcode" v="81479"/>
    <tag k="addr:street" v="Sollner Straße"/>
    <tag k="name" v="68A"/>
    <tag k="source" v="survey"/>
  </node>
  <node id="432828276" version="3" timestamp="2009-07-14T16:16:08Z" uid="36809" user="pfoten_weg_!_" changeset="1828190" lat="48.0736154" lon="11.5264464">
    <tag k="addr:city" v="München"/>
    <tag k="addr:country" v="DE"/>
    <tag k="addr:housename" v="Wohngebäude"/>
    <tag k="addr:housenumber" v="68A"/>
    <tag k="addr:postcode" v="81479"/>
    <tag k="addr:street" v="Sollner Straße"/>
    <tag k="discovered_by" v="RambaZamba"/>
    <tag k="name" v="68A"/>
    <tag k="source" v="survey"/>
  </node>
  <node id="432828276" version="5" timestamp="2009-08-17T18:11:48Z" uid="36809" user="pfoten_weg_!_" changeset="2180201" lat="48.0736154" lon="11.5264464">
    <tag k="addr:city" v="München"/>
    <tag k="addr:country" v="DE"/>
    <tag k="addr:housename" v="Wohngebäude"/>
    <tag k="addr:housenumber" v="68A"/>
    <tag k="addr:postcode" v="81479"/>
    <tag k="addr:street" v="Sollner Straße"/>
    <tag k="name" v="68A"/>
    <tag k="source" v="survey"/>
  </node>
  <node id="432828277" version="1" timestamp="2009-07-03T10:07:43Z" uid="36809" user="pfoten_weg_!_" changeset="1718749" lat="48.073696" lon="11.526457">
    <tag k="addr:city" v="München"/>
    <tag k="addr:country" v="DE"/>
    <tag k="addr:housename" v="Wohngebäude"/>
    <tag k="addr:housenumber" v="68"/>
    <tag k="addr:postcode" v="81479"/>
    <tag k="addr:street" v="Sollner Straße"/>
    <tag k="created_by" v="RambaZamba"/>
    <tag k="name" v="68"/>
  </node>
  <node id="432828277" version="2" timestamp="2009-07-09T09:29:16Z" uid="36809" user="pfoten_weg_!_" changeset="1779321" lat="48.073696" lon="11.526457">
    <tag k="addr:city" v="München"/>
    <tag k="addr:country" v="DE"/>
    <tag k="addr:housename" v="Wohngebäude"/>
    <tag k="addr:housenumber" v="68"/>
    <tag k="addr:postcode" v="81479"/>
    <tag k="addr:street" v="Sollner Straße"/>
    <tag k="name" v="68"/>
    <tag k="source" v="survey"/>
  </node>
  <node id="432828277" version="3" timestamp="2009-07-14T16:16:09Z" uid="36809" user="pfoten_weg_!_" changeset="1828190" lat="48.073696" lon="11.526457">
    <tag k="addr:city" v="München"/>
    <tag k="addr:country" v="DE"/>
    <tag k="addr:housename" v="Wohngebäude"/>
    <tag k="addr:housenumber" v="68"/>
    <tag k="addr:postcode" v="81479"/>
    <tag k="addr:street" v="Sollner Straße"/>
    <tag k="discovered_by" v="RambaZamba"/>
    <tag k="name" v="68"/>
    <tag k="source" v="survey"/>
  </node>
  <node id="432828277" version="5" timestamp="2009-08-17T18:11:48Z" uid="36809" user="pfoten_weg_!_" changeset="2180201" lat="48.073696" lon="11.526457">
    <tag k="addr:city" v="München"/>
    <tag k="addr:country" v="DE"/>
    <tag k="addr:housename" v="Wohngebäude"/>
    <tag k="addr:housenumber" v="68"/>
    <tag k="addr:postcode" v="81479"/>
    <tag k="addr:street" v="Sollner Straße"/>
    <tag k="name" v="68"/>
    <tag k="source" v="survey"/>
  </node>
  <node id="432828278" version="1" timestamp="2009-07-03T10:07:44Z" uid="36809" user="pfoten_weg_!_" changeset="1718749" lat="48.07397" lon="11.526498">
    <tag k="addr:city" v="München"/>
    <tag k="addr:country" v="DE"/>
    <tag k="addr:housename" v="Wohngebäude"/>
    <tag k="addr:housenumber" v="66"/>
    <tag k="addr:postcode" v="81479"/>
    <tag k="addr:street" v="Sollner Straße"/>
    <tag k="created_by" v="RambaZamba"/>
    <tag k="name" v="66"/>
  </node>
  <node id="432828278" version="2" timestamp="2009-07-09T09:29:17Z" uid="36809" user="pfoten_weg_!_" changeset="1779321" lat="48.07397" lon="11.526498">
    <tag k="addr:city" v="München"/>
    <tag k="addr:country" v="DE"/>
    <tag k="addr:housename" v="Wohngebäude"/>
    <tag k="addr:housenumber" v="66"/>
    <tag k="addr:postcode" v="81479"/>
    <tag k="addr:street" v="Sollner Straße"/>
    <tag k="name" v="66"/>
    <tag k="source" v="survey"/>
  </node>
  <node id="432828278" version="3" timestamp="2009-07-14T16:16:09Z" uid="36809" user="pfoten_weg_!_" changeset="1828190" lat="48.07397" lon="11.526498">
    <tag k="addr:city" v="München"/>
    <tag k="addr:country" v="DE"/>
    <tag k="addr:housename" v="Wohngebäude"/>
    <tag k="addr:housenumber" v="66"/>
    <tag k="addr:postcode" v="81479"/>
    <tag k="addr:street" v="Sollner Straße"/>
    <tag k="discovered_by" v="RambaZamba"/>
    <tag k="name" v="66"/>
    <tag k="source" v="survey"/>
  </node>
  <node id="432828278" version="5" timestamp="2009-08-17T18:11:47Z" uid="36809" user="pfoten_weg_!_" changeset="2180201" lat="48.07397" lon="11.526498">
    <tag k="addr:city" v="München"/>
    <tag k="addr:country" v="DE"/>
    <tag k="addr:housename" v="Wohngebäude"/>
    <tag k="addr:housenumber" v="66"/>
    <tag k="addr:postcode" v="81479"/>
    <tag k="addr:street" v="Sollner Straße"/>
    <tag k="name" v="66"/>
    <tag k="source" v="survey"/>
  </node>
  <node id="432828279" version="1" timestamp="2009-07-03T10:07:44Z" uid="36809" user="pfoten_weg_!_" changeset="1718749" lat="48.074086" lon="11.526506">
    <tag k="addr:city" v="München"/>
    <tag k="addr:country" v="DE"/>
    <tag k="addr:housename" v="Wohngebäude"/>
    <tag k="addr:housenumber" v="64"/>
    <tag k="addr:postcode" v="81479"/>
    <tag k="addr:street" v="Sollner Straße"/>
    <tag k="created_by" v="RambaZamba"/>
    <tag k="name" v="64"/>
  </node>
  <node id="432828279" version="2" timestamp="2009-07-09T09:29:17Z" uid="36809" user="pfoten_weg_!_" changeset="1779321" lat="48.074086" lon="11.526506">
    <tag k="addr:city" v="München"/>
    <tag k="addr:country" v="DE"/>
    <tag k="addr:housename" v="Wohngebäude"/>
    <tag k="addr:housenumber" v="64"/>
    <tag k="addr:postcode" v="81479"/>
    <tag k="addr:street" v="Sollner Straße"/>
    <tag k="name" v="64"/>
    <tag k="source" v="survey"/>
  </node>
  <node id="432828279" version="3" timestamp="2009-07-14T16:16:09Z" uid="36809" user="pfoten_weg_!_" changeset="1828190" lat="48.074086" lon="11.526506">
    <tag k="addr:city" v="München"/>
    <tag k="addr:country" v="DE"/>
    <tag k="addr:housename" v="Wohngebäude"/>
    <tag k="addr:housenumber" v="64"/>
    <tag k="addr:postcode" v="81479"/>
    <tag k="addr:street" v="Sollner Straße"/>
    <tag k="discovered_by" v="RambaZamba"/>
    <tag k="name" v="64"/>
    <tag k="source" v="survey"/>
  </node>
  <node id="432828279" version="5" timestamp="2009-08-17T18:11:47Z" uid="36809" user="pfoten_weg_!_" changeset="2180201" lat="48.074086" lon="11.526506">
    <tag k="addr:city" v="München"/>
    <tag k="addr:country" v="DE"/>
    <tag k="addr:housename" v="Wohngebäude"/>
    <tag k="addr:housenumber" v="64"/>
    <tag k="addr:postcode" v="81479"/>
    <tag k="addr:street" v="Sollner Straße"/>
    <tag k="name" v="64"/>
    <tag k="source" v="survey"/>
  </node>
  <node id="432828280" version="1" timestamp="2009-07-03T10:07:45Z" uid="36809" user="pfoten_weg_!_" changeset="1718749" lat="48.073301" lon="11.526427">
    <tag k="addr:city" v="München"/>
    <tag k="addr:country" v="DE"/>
    <tag k="addr:housename" v="Wohngebäude"/>
    <tag k="addr:housenumber" v="72"/>
    <tag k="addr:postcode" v="81479"/>
    <tag k="addr:street" v="Sollner Straße"/>
    <tag k="created_by" v="RambaZamba"/>
    <tag k="name" v="72"/>
  </node>
  <node id="432828280" version="2" timestamp="2009-07-09T09:29:16Z" uid="36809" user="pfoten_weg_!_" changeset="1779321" lat="48.073301" lon="11.526427">
    <tag k="addr:city" v="München"/>
    <tag k="addr:country" v="DE"/>
    <tag k="addr:housename" v="Wohngebäude"/>
    <tag k="addr:housenumber" v="72"/>
    <tag k="addr:postcode" v="81479"/>
    <tag k="addr:street" v="Sollner Straße"/>
    <tag k="name" v="72"/>
    <tag k="source" v="survey"/>
  </node>
  <node id="432828280" version="3" timestamp="2009-07-14T16:16:08Z" uid="36809" user="pfoten_weg_!_" changeset="1828190" lat="48.073301" lon="11.526427">
    <tag k="addr:city" v="München"/>
    <tag k="addr:country" v="DE"/>
    <tag k="addr:housename" v="Wohngebäude"/>
    <tag k="addr:housenumber" v="72"/>
    <tag k="addr:postcode" v="81479"/>
    <tag k="addr:street" v="Sollner Straße"/>
    <tag k="discovered_by" v="RambaZamba"/>
    <tag k="name" v="72"/>
    <tag k="source" v="survey"/>
  </node>
  <node id="432828280" version="4" timestamp="2009-07-14T16:39:27Z" uid="36809" user="pfoten_weg_!_" changeset="1828396" lat="48.073301" lon="11.526427">
    <tag k="addr:city" v="München"/>
    <tag k="addr:country" v="DE"/>
    <tag k="addr:housename" v="Wohngebäude"/>
    <tag k="addr:housenumber" v="72"/>
    <tag k="addr:postcode" v="81479"/>
    <tag k="addr:street" v="Sollner Straße"/>
    <tag k="detections_by" v="RambaZamba"/>
    <tag k="discovered_by" v="RambaZamba"/>
    <tag k="name" v="72"/>
    <tag k="source" v="survey"/>
  </node>
  <node id="432828280" version="6" timestamp="2009-08-17T18:11:49Z" uid="36809" user="pfoten_weg_!_" changeset="2180201" lat="48.073301" lon="11.526427">
    <tag k="addr:city" v="München"/>
    <tag k="addr:country" v="DE"/>
    <tag k="addr:housename" v="Wohngebäude"/>
    <tag k="addr:housenumber" v="72"/>
    <tag k="addr:postcode" v="81479"/>
    <tag k="addr:street" v="Sollner Straße"/>
    <tag k="name" v="72"/>
    <tag k="source" v="survey"/>
  </node>
  <node id="432828281" version="1" timestamp="2009-07-03T10:07:45Z" uid="36809" user="pfoten_weg_!_" changeset="1718749" lat="48.0735377" lon="11.5263967">
    <tag k="addr:city" v="München"/>
    <tag k="addr:country" v="DE"/>
    <tag k="addr:housename" v="Wohngebäude"/>
    <tag k="addr:housenumber" v="70"/>
    <tag k="addr:postcode" v="81479"/>
    <tag k="addr:street" v="Sollner Straße"/>
    <tag k="created_by" v="RambaZamba"/>
    <tag k="name" v="70"/>
  </node>
  <node id="432828281" version="2" timestamp="2009-07-09T09:29:16Z" uid="36809" user="pfoten_weg_!_" changeset="1779321" lat="48.0735377" lon="11.5263967">
    <tag k="addr:city" v="München"/>
    <tag k="addr:country" v="DE"/>
    <tag k="addr:housename" v="Wohngebäude"/>
    <tag k="addr:housenumber" v="70"/>
    <tag k="addr:postcode" v="81479"/>
    <tag k="addr:street" v="Sollner Straße"/>
    <tag k="name" v="70"/>
    <tag k="source" v="survey"/>
  </node>
  <node id="432828281" version="3" timestamp="2009-07-14T16:16:08Z" uid="36809" user="pfoten_weg_!_" changeset="1828190" lat="48.0735377" lon="11.5263967">
    <tag k="addr:city" v="München"/>
    <tag k="addr:country" v="DE"/>
    <tag k="addr:housename" v="Wohngebäude"/>
    <tag k="addr:housenumber" v="70"/>
    <tag k="addr:postcode" v="81479"/>
    <tag k="addr:street" v="Sollner Straße"/>
    <tag k="discovered_by" v="RambaZamba"/>
    <tag k="name" v="70"/>
    <tag k="source" v="survey"/>
  </node>
  <node id="432828281" version="5" timestamp="2009-08-17T18:11:49Z" uid="36809" user="pfoten_weg_!_" changeset="2180201" lat="48.0735377" lon="11.5263967">
    <tag k="addr:city" v="München"/>
    <tag k="addr:country" v="DE"/>
    <tag k="addr:housename" v="Wohngebäude"/>
    <tag k="addr:housenumber" v="70"/>
    <tag k="addr:postcode" v="81479"/>
    <tag k="addr:street" v="Sollner Straße"/>
    <tag k="name" v="70"/>
    <tag k="source" v="survey"/>
  </node>
  <node id="432828282" version="1" timestamp="2009-07-03T10:07:45Z" uid="36809" user="pfoten_weg_!_" changeset="1718749" lat="48.072501" lon="11.5361706"/>
  <node id="432828283" version="1" timestamp="2009-07-03T10:07:46Z" uid="36809" user="pfoten_weg_!_" changeset="1718749" lat="48.0724705" lon="11.5362629"/>
  <node id="432828283" version="2" timestamp="2009-07-03T15:31:35Z" uid="36809" user="pfoten_weg_!_" changeset="1722030" lat="48.0724707" lon="11.5362631"/>
  <node id="432828284" version="1" timestamp="2009-07-03T10:07:46Z" uid="36809" user="pfoten_weg_!_" changeset="1718749" lat="48.0723173" lon="11.5363882">
    <tag k="amenity" v="restaurant"/>
    <tag k="name" v="Hotel"/>
    <tag k="tourism" v="hotel"/>
  </node>
  <node id="432828284" version="2" timestamp="2009-07-03T15:31:35Z" uid="36809" user="pfoten_weg_!_" changeset="1722030" lat="48.0723173" lon="11.5363882">
    <tag k="amenity" v="restaurant"/>
    <tag k="created_by" v="RambaZamba"/>
    <tag k="name" v="Hotel"/>
    <tag k="source" v="survey"/>
    <tag k="tourism" v="hotel"/>
  </node>
  <node id="432828284" version="4" timestamp="2009-08-25T19:07:49Z" uid="36809" user="pfoten_weg_!_" changeset="2260477" lat="48.0723173" lon="11.5363882">
    <tag k="amenity" v="restaurant"/>
    <tag k="name" v="Hotel"/>
    <tag k="source" v="survey"/>
    <tag k="tourism" v="hotel"/>
  </node>
  <node id="432828285" version="1" timestamp="2009-07-03T10:07:46Z" uid="36809" user="pfoten_weg_!_" changeset="1718749" lat="48.0722764" lon="11.5364218">
    <tag k="amenity" v="restaurant"/>
    <tag k="name" v="Restaurant"/>
  </node>
  <node id="432828285" version="2" timestamp="2009-07-03T15:31:35Z" uid="36809" user="pfoten_weg_!_" changeset="1722030" lat="48.0722764" lon="11.5364218">
    <tag k="amenity" v="restaurant"/>
    <tag k="created_by" v="RambaZamba"/>
    <tag k="name" v="Restaurant"/>
    <tag k="source" v="survey"/>
  </node>
  <node id="432828285" version="3" timestamp="2009-07-03T16:39:44Z" uid="36809" user="pfoten_weg_!_" changeset="1722687" lat="48.0722702" lon="11.5365761">
    <tag k="amenity" v="restaurant"/>
    <tag k="created_by" v="RambaZamba"/>
    <tag k="name" v="Restaurant"/>
    <tag k="source" v="survey"/>
  </node>
  <node id="432828285" version="5" timestamp="2009-08-25T19:07:49Z" uid="36809" user="pfoten_weg_!_" changeset="2260477" lat="48.0722702" lon="11.5365761">
    <tag k="amenity" v="restaurant"/>
    <tag k="name" v="Restaurant"/>
    <tag k="source" v="survey"/>
  </node>
  <node id="432828970" version="2" timestamp="2009-08-22T06:12:40Z" uid="34428" user="usm78-gis" changeset="2230680" lat="59.8744337" lon="30.3783645"/>
  <node id="432828973" version="2" timestamp="2009-08-22T06:17:36Z" uid="34428" user="usm78-gis" changeset="2230712" lat="59.8770484" lon="30.3841323"/>
  <node id="432829160" version="1" timestamp="2009-07-03T10:18:46Z" uid="43863" user="Rundling" changeset="1718880" lat="52.9984985" lon="10.4836625"/>
  <node id="432829160" version="2" timestamp="2009-07-03T10:20:04Z" uid="43863" user="Rundling" changeset="1718894" lat="52.9984985" lon="10.4836625"/>
  <node id="432829161" version="1" timestamp="2009-07-03T10:18:46Z" uid="43863" user="Rundling" changeset="1718880" lat="52.997802" lon="10.4831107"/>
  <node id="432829161" version="2" timestamp="2009-07-03T10:20:04Z" uid="43863" user="Rundling" changeset="1718894" lat="52.997802" lon="10.4831107"/>
  <node id="432829162" version="1" timestamp="2009-07-03T10:18:46Z" uid="43863" user="Rundling" changeset="1718880" lat="52.9974231" lon="10.4844311"/>
  <node id="432829162" version="2" timestamp="2009-07-03T10:20:04Z" uid="43863" user="Rundling" changeset="1718894" lat="52.9974231" lon="10.4844311"/>
  <node id="432829163" version="1" timestamp="2009-07-03T10:18:46Z" uid="43863" user="Rundling" changeset="1718880" lat="52.9981196" lon="10.4849828"/>
  <node id="432829163" version="2" timestamp="2009-07-03T10:20:04Z" uid="43863" user="Rundling" changeset="1718894" lat="52.9981196" lon="10.4849828"/>
  <node id="432829164" version="1" timestamp="2009-07-03T10:18:46Z" uid="43863" user="Rundling" changeset="1718880" lat="52.9985582" lon="10.4846062"/>
  <node id="432829164" version="2" timestamp="2009-07-03T10:20:04Z" uid="43863" user="Rundling" changeset="1718894" lat="52.9985582" lon="10.4846062"/>
  <node id="432829165" version="1" timestamp="2009-07-03T10:18:46Z" uid="43863" user="Rundling" changeset="1718880" lat="52.9973725" lon="10.483474"/>
  <node id="432829165" version="2" timestamp="2009-07-03T10:20:04Z" uid="43863" user="Rundling" changeset="1718894" lat="52.9973725" lon="10.483474"/>
  <node id="432829166" version="1" timestamp="2009-07-03T10:18:46Z" uid="43863" user="Rundling" changeset="1718880" lat="52.9972993" lon="10.483973"/>
  <node id="432829166" version="2" timestamp="2009-07-03T10:20:04Z" uid="43863" user="Rundling" changeset="1718894" lat="52.9972993" lon="10.483973"/>
  <node id="432829167" version="1" timestamp="2009-07-03T10:18:46Z" uid="43863" user="Rundling" changeset="1718880" lat="52.9975457" lon="10.4831798"/>
  <node id="432829167" version="2" timestamp="2009-07-03T10:20:03Z" uid="43863" user="Rundling" changeset="1718894" lat="52.9975457" lon="10.4831798"/>
  <node id="432829168" version="1" timestamp="2009-07-03T10:18:46Z" uid="43863" user="Rundling" changeset="1718880" lat="52.9986006" lon="10.4840945"/>
  <node id="432829168" version="2" timestamp="2009-07-03T10:20:03Z" uid="43863" user="Rundling" changeset="1718894" lat="52.9986006" lon="10.4840945"/>
  <node id="432829169" version="1" timestamp="2009-07-03T10:18:46Z" uid="43863" user="Rundling" changeset="1718880" lat="52.9983657" lon="10.4848685"/>
  <node id="432829169" version="2" timestamp="2009-07-03T10:20:03Z" uid="43863" user="Rundling" changeset="1718894" lat="52.9983657" lon="10.4848685"/>
  <node id="432829275" version="1" timestamp="2009-07-03T10:20:03Z" uid="43863" user="Rundling" changeset="1718894" lat="52.9977415" lon="10.4830628"/>
  <node id="432829275" version="2" timestamp="2009-07-03T12:55:49Z" uid="43863" user="Rundling" changeset="1720691" lat="52.9977415" lon="10.4830628"/>
  <node id="432829276" version="1" timestamp="2009-07-03T10:20:03Z" uid="43863" user="Rundling" changeset="1718894" lat="52.9973626" lon="10.4843832"/>
  <node id="432829276" version="2" timestamp="2009-07-03T12:55:49Z" uid="43863" user="Rundling" changeset="1720691" lat="52.9973626" lon="10.4843832"/>
  <node id="432829277" version="1" timestamp="2009-07-03T10:20:03Z" uid="43863" user="Rundling" changeset="1718894" lat="52.9982377" lon="10.4850764"/>
  <node id="432829277" version="2" timestamp="2009-07-03T12:55:49Z" uid="43863" user="Rundling" changeset="1720691" lat="52.9982377" lon="10.4850764"/>
  <node id="432829278" version="1" timestamp="2009-07-03T10:20:03Z" uid="43863" user="Rundling" changeset="1718894" lat="52.9986166" lon="10.4837561"/>
  <node id="432829278" version="2" timestamp="2009-07-03T12:55:49Z" uid="43863" user="Rundling" changeset="1720691" lat="52.9986166" lon="10.4837561"/>
  <node id="432829279" version="1" timestamp="2009-07-03T10:20:03Z" uid="43863" user="Rundling" changeset="1718894" lat="52.9986006" lon="10.4845614"/>
  <node id="432829279" version="2" timestamp="2009-07-03T12:55:49Z" uid="43863" user="Rundling" changeset="1720691" lat="52.9986006" lon="10.4845614"/>
  <node id="432829280" version="1" timestamp="2009-07-03T10:20:03Z" uid="43863" user="Rundling" changeset="1718894" lat="52.9984504" lon="10.4848941"/>
  <node id="432829280" version="2" timestamp="2009-07-03T12:55:49Z" uid="43863" user="Rundling" changeset="1720691" lat="52.9984504" lon="10.4848941"/>
  <node id="432829281" version="1" timestamp="2009-07-03T10:20:03Z" uid="43863" user="Rundling" changeset="1718894" lat="52.9986583" lon="10.4841393"/>
  <node id="432829281" version="2" timestamp="2009-07-03T12:55:49Z" uid="43863" user="Rundling" changeset="1720691" lat="52.9986583" lon="10.4841393"/>
  <node id="432829282" version="1" timestamp="2009-07-03T10:20:03Z" uid="43863" user="Rundling" changeset="1718894" lat="52.9974033" lon="10.4835316"/>
  <node id="432829282" version="2" timestamp="2009-07-03T12:55:49Z" uid="43863" user="Rundling" changeset="1720691" lat="52.9974033" lon="10.4835316"/>
  <node id="432829283" version="1" timestamp="2009-07-03T10:20:03Z" uid="43863" user="Rundling" changeset="1718894" lat="52.9973609" lon="10.4839857"/>
  <node id="432829283" version="2" timestamp="2009-07-03T12:55:49Z" uid="43863" user="Rundling" changeset="1720691" lat="52.9973609" lon="10.4839857"/>
  <node id="432829284" version="1" timestamp="2009-07-03T10:20:03Z" uid="43863" user="Rundling" changeset="1718894" lat="52.9975573" lon="10.4832693"/>
  <node id="432829284" version="2" timestamp="2009-07-03T12:55:49Z" uid="43863" user="Rundling" changeset="1720691" lat="52.9975573" lon="10.4832693"/>
  <node id="432829675" version="1" timestamp="2009-07-03T10:21:17Z" uid="30632" user="antblant" changeset="1718914" lat="53.2629197" lon="14.492387"/>
  <node id="432829676" version="1" timestamp="2009-07-03T10:21:17Z" uid="30632" user="antblant" changeset="1718914" lat="53.262633" lon="14.4929935"/>
  <node id="432829677" version="1" timestamp="2009-07-03T10:21:17Z" uid="30632" user="antblant" changeset="1718914" lat="53.2527762" lon="14.4835291"/>
  <node id="432829678" version="1" timestamp="2009-07-03T10:21:17Z" uid="30632" user="antblant" changeset="1718914" lat="53.2520617" lon="14.4794364">
    <tag k="note" v="fixme"/>
    <tag k="power" v="tower"/>
  </node>
  <node id="432829681" version="1" timestamp="2009-07-03T10:21:17Z" uid="30632" user="antblant" changeset="1718914" lat="53.2539657" lon="14.4692802">
    <tag k="amenity" v="bench"/>
  </node>
  <node id="432829682" version="1" timestamp="2009-07-03T10:21:17Z" uid="30632" user="antblant" changeset="1718914" lat="53.2688453" lon="14.4312569"/>
  <node id="432829684" version="1" timestamp="2009-07-03T10:21:17Z" uid="30632" user="antblant" changeset="1718914" lat="53.2693861" lon="14.432395"/>
  <node id="432829686" version="1" timestamp="2009-07-03T10:21:18Z" uid="30632" user="antblant" changeset="1718914" lat="53.2701833" lon="14.4322313"/>
  <node id="432829687" version="1" timestamp="2009-07-03T10:21:18Z" uid="30632" user="antblant" changeset="1718914" lat="53.2702346" lon="14.4319273"/>
  <node id="432829689" version="1" timestamp="2009-07-03T10:21:18Z" uid="30632" user="antblant" changeset="1718914" lat="53.270174" lon="14.4314518"/>
  <node id="432829691" version="1" timestamp="2009-07-03T10:21:18Z" uid="30632" user="antblant" changeset="1718914" lat="53.2703092" lon="14.4312257"/>
  <node id="432829693" version="1" timestamp="2009-07-03T10:21:18Z" uid="30632" user="antblant" changeset="1718914" lat="53.2709292" lon="14.430719"/>
  <node id="432829694" version="1" timestamp="2009-07-03T10:21:18Z" uid="30632" user="antblant" changeset="1718914" lat="53.271097" lon="14.4302124"/>
  <node id="432829696" version="1" timestamp="2009-07-03T10:21:18Z" uid="30632" user="antblant" changeset="1718914" lat="53.2712601" lon="14.430111"/>
  <node id="432829697" version="1" timestamp="2009-07-03T10:21:18Z" uid="30632" user="antblant" changeset="1718914" lat="53.2723789" lon="14.4303605"/>
  <node id="432829698" version="1" timestamp="2009-07-03T10:21:18Z" uid="30632" user="antblant" changeset="1718914" lat="53.2726959" lon="14.4299395"/>
  <node id="432829699" version="1" timestamp="2009-07-03T10:21:18Z" uid="30632" user="antblant" changeset="1718914" lat="53.2730595" lon="14.4292224"/>
  <node id="432829700" version="1" timestamp="2009-07-03T10:21:18Z" uid="30632" user="antblant" changeset="1718914" lat="53.2732879" lon="14.4284741"/>
  <node id="432829701" version="1" timestamp="2009-07-03T10:21:18Z" uid="30632" user="antblant" changeset="1718914" lat="53.2733531" lon="14.4275621"/>
  <node id="432829702" version="1" timestamp="2009-07-03T10:21:18Z" uid="30632" user="antblant" changeset="1718914" lat="53.2733858" lon="14.4272503"/>
  <node id="432829703" version="1" timestamp="2009-07-03T10:21:18Z" uid="30632" user="antblant" changeset="1718914" lat="53.2736701" lon="14.4263305"/>
  <node id="432829704" version="1" timestamp="2009-07-03T10:21:18Z" uid="30632" user="antblant" changeset="1718914" lat="53.2741176" lon="14.4252937"/>
  <node id="432829705" version="1" timestamp="2009-07-03T10:21:18Z" uid="30632" user="antblant" changeset="1718914" lat="53.2746024" lon="14.424522"/>
  <node id="432829706" version="1" timestamp="2009-07-03T10:21:18Z" uid="30632" user="antblant" changeset="1718914" lat="53.2750545" lon="14.4238595"/>
  <node id="432829707" version="1" timestamp="2009-07-03T10:21:18Z" uid="30632" user="antblant" changeset="1718914" lat="53.2753948" lon="14.4232514"/>
  <node id="432829708" version="1" timestamp="2009-07-03T10:21:18Z" uid="30632" user="antblant" changeset="1718914" lat="53.2755859" lon="14.4228227"/>
  <node id="432829709" version="1" timestamp="2009-07-03T10:21:19Z" uid="30632" user="antblant" changeset="1718914" lat="53.2759215" lon="14.421786"/>
  <node id="432829710" version="1" timestamp="2009-07-03T10:21:19Z" uid="30632" user="antblant" changeset="1718914" lat="53.2761045" lon="14.4212234"/>
  <node id="432829711" version="1" timestamp="2009-07-03T10:21:19Z" uid="30632" user="antblant" changeset="1718914" lat="53.2761041" lon="14.4223199"/>
  <node id="432829712" version="1" timestamp="2009-07-03T10:21:19Z" uid="30632" user="antblant" changeset="1718914" lat="53.2760369" lon="14.4239912"/>
  <node id="432829713" version="1" timestamp="2009-07-03T10:21:19Z" uid="30632" user="antblant" changeset="1718914" lat="53.2759661" lon="14.4266477"/>
  <node id="432829714" version="1" timestamp="2009-07-03T10:21:19Z" uid="30632" user="antblant" changeset="1718914" lat="53.2759698" lon="14.4273773"/>
  <node id="432829715" version="1" timestamp="2009-07-03T10:21:19Z" uid="30632" user="antblant" changeset="1718914" lat="53.2760108" lon="14.4278013"/>
  <node id="432829716" version="1" timestamp="2009-07-03T10:21:19Z" uid="30632" user="antblant" changeset="1718914" lat="53.2759549" lon="14.4292356"/>
  <node id="432829717" version="1" timestamp="2009-07-03T10:21:19Z" uid="30632" user="antblant" changeset="1718914" lat="53.2758878" lon="14.4302147"/>
  <node id="432829718" version="1" timestamp="2009-07-03T10:21:19Z" uid="30632" user="antblant" changeset="1718914" lat="53.2758691" lon="14.4309069"/>
  <node id="432829719" version="1" timestamp="2009-07-03T10:21:19Z" uid="30632" user="antblant" changeset="1718914" lat="53.2758244" lon="14.4318672"/>
  <node id="432829720" version="1" timestamp="2009-07-03T10:21:19Z" uid="30632" user="antblant" changeset="1718914" lat="53.2758318" lon="14.4322788"/>
  <node id="432829721" version="1" timestamp="2009-07-03T10:21:19Z" uid="30632" user="antblant" changeset="1718914" lat="53.275761" lon="14.4341059"/>
  <node id="432829722" version="1" timestamp="2009-07-03T10:21:19Z" uid="30632" user="antblant" changeset="1718914" lat="53.2757148" lon="14.4341172"/>
  <node id="432829723" version="1" timestamp="2009-07-03T10:21:19Z" uid="30632" user="antblant" changeset="1718914" lat="53.2755621" lon="14.4340373"/>
  <node id="432829724" version="1" timestamp="2009-07-03T10:21:19Z" uid="30632" user="antblant" changeset="1718914" lat="53.2753693" lon="14.4339958"/>
  <node id="432829725" version="1" timestamp="2009-07-03T10:21:19Z" uid="30632" user="antblant" changeset="1718914" lat="53.2751955" lon="14.4339671"/>
  <node id="432829726" version="1" timestamp="2009-07-03T10:21:19Z" uid="30632" user="antblant" changeset="1718914" lat="53.2750352" lon="14.4339799"/>
  <node id="432829727" version="1" timestamp="2009-07-03T10:21:19Z" uid="30632" user="antblant" changeset="1718914" lat="53.274955" lon="14.4339958"/>
  <node id="432829728" version="1" timestamp="2009-07-03T10:21:19Z" uid="30632" user="antblant" changeset="1718914" lat="53.2748809" lon="14.4339946"/>
  <node id="432829729" version="1" timestamp="2009-07-03T10:21:19Z" uid="30632" user="antblant" changeset="1718914" lat="53.2748752" lon="14.4339845">
    <tag k="amenity" v="hunting_stand"/>
    <tag k="height" v="low"/>
    <tag k="shelter" v="yes"/>
  </node>
  <node id="432829730" version="1" timestamp="2009-07-03T10:21:19Z" uid="30632" user="antblant" changeset="1718914" lat="53.2721013" lon="14.4302986"/>
</osm>
