<?xml version='1.0' encoding='UTF-8'?>
<osm version="0.6" generator="libosmium/2.20.0">
  <node id="433481673" version="3" timestamp="2010-09-07T16:21:39Z" uid="43967" user="railsnail" changeset="5709404" lat="46.0527594" lon="11.2487413"/>
  <node id="433482747" version="1" timestamp="2009-07-03T23:42:15Z" uid="99207" user="Lar Kiesel" changeset="1725918" lat="33.920483" lon="-81.4026191"/>
  <node id="433482748" version="1" timestamp="2009-07-03T23:42:16Z" uid="99207" user="Lar Kiesel" changeset="1725918" lat="33.9202907" lon="-81.402602"/>
  <node id="433482749" version="1" timestamp="2009-07-03T23:42:16Z" uid="99207" user="Lar Kiesel" changeset="1725918" lat="33.9200984" lon="-81.402705"/>
  <node id="433482750" version="1" timestamp="2009-07-03T23:42:17Z" uid="99207" user="Lar Kiesel" changeset="1725918" lat="33.9196355" lon="-81.4037092"/>
  <node id="433482751" version="1" timestamp="2009-07-03T23:42:18Z" uid="99207" user="Lar Kiesel" changeset="1725918" lat="33.9216867" lon="-81.4009369"/>
  <node id="433482752" version="1" timestamp="2009-07-03T23:42:18Z" uid="99207" user="Lar Kiesel" changeset="1725918" lat="33.9217793" lon="-81.400748"/>
  <node id="433482753" version="1" timestamp="2009-07-03T23:42:18Z" uid="99207" user="Lar Kiesel" changeset="1725918" lat="33.9216724" lon="-81.4006622"/>
  <node id="433482754" version="1" timestamp="2009-07-03T23:42:18Z" uid="99207" user="Lar Kiesel" changeset="1725918" lat="33.9215727" lon="-81.400851"/>
  <node id="433482755" version="1" timestamp="2009-07-03T23:42:19Z" uid="99207" user="Lar Kiesel" changeset="1725918" lat="33.9213519" lon="-81.4014518"/>
  <node id="433482756" version="1" timestamp="2009-07-03T23:42:19Z" uid="99207" user="Lar Kiesel" changeset="1725918" lat="33.9214232" lon="-81.4012802"/>
  <node id="433482757" version="1" timestamp="2009-07-03T23:42:19Z" uid="99207" user="Lar Kiesel" changeset="1725918" lat="33.9213092" lon="-81.4012115"/>
  <node id="433482758" version="1" timestamp="2009-07-03T23:42:19Z" uid="99207" user="Lar Kiesel" changeset="1725918" lat="33.9212237" lon="-81.4013918"/>
  <node id="433482758" version="2" timestamp="2009-07-22T17:52:28Z" uid="99207" user="Lar Kiesel" changeset="1907378" lat="33.9212447" lon="-81.4013815"/>
  <node id="433482759" version="1" timestamp="2009-07-03T23:42:19Z" uid="99207" user="Lar Kiesel" changeset="1725918" lat="33.9209104" lon="-81.4011171"/>
  <node id="433482760" version="1" timestamp="2009-07-03T23:42:20Z" uid="99207" user="Lar Kiesel" changeset="1725918" lat="33.9210314" lon="-81.4008339"/>
  <node id="433482761" version="1" timestamp="2009-07-03T23:42:20Z" uid="99207" user="Lar Kiesel" changeset="1725918" lat="33.9208463" lon="-81.4007223"/>
  <node id="433482762" version="1" timestamp="2009-07-03T23:42:20Z" uid="99207" user="Lar Kiesel" changeset="1725918" lat="33.9207252" lon="-81.4010055"/>
  <node id="433483330" version="1" timestamp="2009-07-03T23:51:23Z" uid="99207" user="Lar Kiesel" changeset="1725918" lat="33.9226756" lon="-81.3933095"/>
  <node id="433483334" version="1" timestamp="2009-07-03T23:51:25Z" uid="99207" user="Lar Kiesel" changeset="1725918" lat="33.9147025" lon="-81.3915022"/>
  <node id="433483336" version="1" timestamp="2009-07-03T23:51:25Z" uid="99207" user="Lar Kiesel" changeset="1725918" lat="33.9147076" lon="-81.3926037"/>
  <node id="433483341" version="1" timestamp="2009-07-03T23:51:26Z" uid="99207" user="Lar Kiesel" changeset="1725918" lat="33.9148348" lon="-81.3915298"/>
  <node id="433483342" version="1" timestamp="2009-07-03T23:51:26Z" uid="99207" user="Lar Kiesel" changeset="1725918" lat="33.9149274" lon="-81.3915384"/>
  <node id="433483343" version="1" timestamp="2009-07-03T23:51:26Z" uid="99207" user="Lar Kiesel" changeset="1725918" lat="33.9150058" lon="-81.3915813"/>
  <node id="433483344" version="1" timestamp="2009-07-03T23:51:26Z" uid="99207" user="Lar Kiesel" changeset="1725918" lat="33.915077" lon="-81.39165"/>
  <node id="433483345" version="1" timestamp="2009-07-03T23:51:26Z" uid="99207" user="Lar Kiesel" changeset="1725918" lat="33.9151055" lon="-81.3917701"/>
  <node id="433483346" version="1" timestamp="2009-07-03T23:51:27Z" uid="99207" user="Lar Kiesel" changeset="1725918" lat="33.9151055" lon="-81.3918817"/>
  <node id="433483347" version="1" timestamp="2009-07-03T23:51:27Z" uid="99207" user="Lar Kiesel" changeset="1725918" lat="33.9150485" lon="-81.3920448"/>
  <node id="433483348" version="1" timestamp="2009-07-03T23:51:27Z" uid="99207" user="Lar Kiesel" changeset="1725918" lat="33.914963" lon="-81.3922336"/>
  <node id="433483349" version="1" timestamp="2009-07-03T23:51:27Z" uid="99207" user="Lar Kiesel" changeset="1725918" lat="33.9148775" lon="-81.3924225"/>
  <node id="433483350" version="1" timestamp="2009-07-03T23:51:27Z" uid="99207" user="Lar Kiesel" changeset="1725918" lat="33.9147778" lon="-81.3925255"/>
  <node id="433483520" version="2" timestamp="2009-07-24T01:21:52Z" uid="20587" user="balrog-kun" changeset="1920720" lat="-6.1666667" lon="71.425">
    <tag k="country_code_fips" v="IO"/>
    <tag k="country_code_iso3166_1_alpha_2" v="IO"/>
    <tag k="geonames:id" v="1282588"/>
    <tag k="int_name" v="British Indian Ocean Territory"/>
    <tag k="name" v="British Indian Ocean Territory"/>
    <tag k="name:ar" v="إقليم المحيط الهندي البريطاني"/>
    <tag k="name:en" v="British Indian Ocean Territory"/>
    <tag k="name:eo" v="Brita Hindoceana Teritorio"/>
    <tag k="name:hu" v="Brit Indiai-óceáni Terület"/>
    <tag k="name:zh" v="英属印度洋领地"/>
    <tag k="name:zh_py" v="Yingshu Yinduyang Lingdu"/>
    <tag k="name:zh_pyt" v="Yīngshǔ Yìndùyáng Lǐngdì"/>
    <tag k="place" v="country"/>
    <tag k="watch:hakan" v="countries"/>
  </node>
  <node id="433483521" version="2" timestamp="2009-07-23T01:02:49Z" uid="123700" user="Mala" changeset="1910504" lat="18.4023914" lon="-64.5661203">
    <tag k="country_code_fips" v="VI"/>
    <tag k="country_code_iso3166_1_alpha_2" v="VG"/>
    <tag k="int_name" v="British Virgin Islands"/>
    <tag k="is_in:continent" v="North America"/>
    <tag k="name" v="British Virgin Islands"/>
    <tag k="name:ar" v="جزر فيرجن البريطانية"/>
    <tag k="name:da" v="Britiske Jomfruøer"/>
    <tag k="name:en" v="British Virgin Islands"/>
    <tag k="name:eo" v="Britaj Virgulininsuloj"/>
    <tag k="name:hu" v="Brit Virgin-szigetek"/>
    <tag k="place" v="country"/>
  </node>
  <node id="433483522" version="2" timestamp="2009-07-23T01:02:52Z" uid="123700" user="Mala" changeset="1910504" lat="19.5416667" lon="-80.5666667">
    <tag k="country_code_fips" v="CJ"/>
    <tag k="country_code_iso3166_1_alpha_2" v="KY"/>
    <tag k="geonames:id" v="3580718"/>
    <tag k="int_name" v="Cayman Islands"/>
    <tag k="is_in:continent" v="North America"/>
    <tag k="name" v="Cayman Islands"/>
    <tag k="name:ar" v="جزر الكايمان"/>
    <tag k="name:cy" v="Ynysoedd Cayman"/>
    <tag k="name:da" v="Caymanøerne"/>
    <tag k="name:en" v="Cayman Islands"/>
    <tag k="name:eo" v="Kajmaninsuloj"/>
    <tag k="name:he" v="איי קיימן"/>
    <tag k="name:hu" v="Kajmán-szigetek"/>
    <tag k="place" v="country"/>
    <tag k="watch:hakan" v="countries"/>
  </node>
  <node id="433483523" version="2" timestamp="2009-07-23T23:57:48Z" uid="20587" user="balrog-kun" changeset="1920568" lat="-10.4878802" lon="105.6330396">
    <tag k="country_code_fips" v="KT"/>
    <tag k="country_code_iso3166_1_alpha_2" v="CX"/>
    <tag k="geonames:id" v="2078138"/>
    <tag k="int_name" v="Christmas Island"/>
    <tag k="is_in" v="Australia"/>
    <tag k="name" v="Christmas Island"/>
    <tag k="name:ar" v="جزيرة الميلاد"/>
    <tag k="name:cy" v="Ynys y Nadolig"/>
    <tag k="name:da" v="Juleøen"/>
    <tag k="name:de" v="Weihnachtsinsel"/>
    <tag k="name:en" v="Christmas Island"/>
    <tag k="name:eo" v="Kristnaskinsulo"/>
    <tag k="name:es" v="Isla de Navidad"/>
    <tag k="name:hu" v="Karácsony-sziget"/>
    <tag k="name:pl" v="Wyspa Bożego Narodzenia"/>
    <tag k="official_name" v="Territory of Christmas Island"/>
    <tag k="official_name:es" v="Territorio de la Isla de Navidad"/>
    <tag k="official_name:pl" v="Terytorium Wyspy Bożego Narodzenia"/>
    <tag k="place" v="country"/>
    <tag k="watch:hakan" v="countries"/>
    <tag k="wikipedia" v="Christmas Island"/>
  </node>
  <node id="433483523" version="32" timestamp="2010-06-20T02:02:28Z" uid="74617" user="JohnSmith" changeset="5029186" lat="-10.4878279" lon="105.6329821">
    <tag k="alt_name:vi" v="Đảo Christmas"/>
    <tag k="country_code_fips" v="KT"/>
    <tag k="country_code_iso3166_1_alpha_2" v="CX"/>
    <tag k="geonames:id" v="2078138"/>
    <tag k="int_name" v="Christmas Island"/>
    <tag k="is_in" v="Australia"/>
    <tag k="name" v="Christmas Island"/>
    <tag k="name:af" v="Christmas-eiland"/>
    <tag k="name:ar" v="جزيرة الميلاد"/>
    <tag k="name:bg" v="Рождество"/>
    <tag k="name:bpy" v="ক্রিসমাস দ্বীপমালা"/>
    <tag k="name:br" v="Enez Nedeleg"/>
    <tag k="name:bs" v="Božićno ostrvo"/>
    <tag k="name:ca" v="Illa Christmas"/>
    <tag k="name:cs" v="Vánoční ostrov"/>
    <tag k="name:cy" v="Ynys y Nadolig"/>
    <tag k="name:da" v="Juleøen"/>
    <tag k="name:de" v="Weihnachtsinsel"/>
    <tag k="name:el" v="Νήσος των Χριστουγέννων"/>
    <tag k="name:eo" v="Kristnaskinsulo"/>
    <tag k="name:es" v="Isla de Navidad"/>
    <tag k="name:et" v="Jõulusaar"/>
    <tag k="name:eu" v="Christmas uhartea"/>
    <tag k="name:fa" v="جزیره کریسمس"/>
    <tag k="name:fi" v="Joulusaari"/>
    <tag k="name:fr" v="Île Christmas"/>
    <tag k="name:fy" v="Krysteilân"/>
    <tag k="name:ga" v="Oileán na Nollag"/>
    <tag k="name:gl" v="Illa de Nadal"/>
    <tag k="name:he" v="טריטוריית האי חג המולד"/>
    <tag k="name:hi" v="क्रिसमस आईलैंड"/>
    <tag k="name:hr" v="Božićni otok"/>
    <tag k="name:hu" v="Karácsony-sziget"/>
    <tag k="name:id" v="Pulau Natal"/>
    <tag k="name:is" v="Jólaeyja"/>
    <tag k="name:it" v="Isola del Natale"/>
    <tag k="name:ja" v="クリスマス島"/>
    <tag k="name:ka" v="შობის კუნძული"/>
    <tag k="name:kk" v="Кристмас аралы"/>
    <tag k="name:ko" v="크리스마스 섬"/>
    <tag k="name:kw" v="Ynys Nadelik"/>
    <tag k="name:lb" v="Chrëschtdagsinsel"/>
    <tag k="name:lij" v="Isoa Christmas"/>
    <tag k="name:lt" v="Kalėdų sala"/>
    <tag k="name:lv" v="Ziemsvētku sala"/>
    <tag k="name:mn" v="Зул Сарын Арал"/>
    <tag k="name:mr" v="क्रिसमस द्वीप"/>
    <tag k="name:ms" v="Pulau Krismas"/>
    <tag k="name:nl" v="Christmaseiland"/>
    <tag k="name:nn" v="Christmasøya"/>
    <tag k="name:no" v="Christmasøya"/>
    <tag k="name:pl" v="Wyspa Bożego Narodzenia"/>
    <tag k="name:pt" v="Ilha Christmas"/>
    <tag k="name:ro" v="Insula Crăciunului"/>
    <tag k="name:ru" v="Остров Рождества"/>
    <tag k="name:sh" v="Božićni otok"/>
    <tag k="name:sk" v="Vianočný ostrov"/>
    <tag k="name:sl" v="Božični otoki"/>
    <tag k="name:sr" v="Божићно Острво"/>
    <tag k="name:sv" v="Julön"/>
    <tag k="name:sw" v="Kisiwa cha Krismasi"/>
    <tag k="name:ta" v="கிறிஸ்துமசு தீவு"/>
    <tag k="name:th" v="เกาะคริสต์มาส"/>
    <tag k="name:tr" v="Christmas Adası"/>
    <tag k="name:uk" v="Острів Різдва"/>
    <tag k="name:vi" v="Đảo Giáng Sinh"/>
    <tag k="name:wo" v="Dunu Christmas"/>
    <tag k="name:zh" v="圣诞岛"/>
    <tag k="name:zh-min-nan" v="Christmas-tó"/>
    <tag k="official_name" v="Territory of Christmas Island"/>
    <tag k="official_name:es" v="Territorio de la Isla de Navidad"/>
    <tag k="official_name:lv" v="Ziemsvētku salas teritorija"/>
    <tag k="official_name:pl" v="Terytorium Wyspy Bożego Narodzenia"/>
    <tag k="place" v="island"/>
    <tag k="wikipedia" v="Christmas Island"/>
  </node>
  <node id="433483524" version="2" timestamp="2009-07-26T22:51:38Z" uid="20587" user="balrog-kun" changeset="1950468" lat="10.3027023" lon="-109.2178158">
    <tag k="alt_name" v="Île de la Passion"/>
    <tag k="country_code_fips" v="IP"/>
    <tag k="int_name" v="Clipperton Island"/>
    <tag k="name" v="Clipperton Island"/>
    <tag k="name:ar" v="جزيرة كليبرتون"/>
    <tag k="name:en" v="Clipperton Island"/>
    <tag k="name:eo" v="Klipertono"/>
    <tag k="name:fr" v="Île de Clipperton"/>
    <tag k="place" v="country"/>
    <tag k="population" v="0"/>
  </node>
  <node id="433483525" version="2" timestamp="2009-07-23T23:57:49Z" uid="20587" user="balrog-kun" changeset="1920568" lat="-12.1692311" lon="96.8301907">
    <tag k="country_code_fips" v="CK"/>
    <tag k="country_code_iso3166_1_alpha_2" v="CC"/>
    <tag k="geonames:id" v="1547376"/>
    <tag k="int_name" v="Cocos (Keeling) Islands"/>
    <tag k="name" v="Cocos (Keeling) Islands"/>
    <tag k="name:ar" v="جزر كوكوس (كيلينغ)"/>
    <tag k="name:da" v="Cocosøerne"/>
    <tag k="name:de" v="Kokosinseln"/>
    <tag k="name:en" v="Cocos (Keeling) Islands"/>
    <tag k="name:eo" v="Kokosinsuloj"/>
    <tag k="name:fi" v="Kookossaaret"/>
    <tag k="name:hu" v="Kókusz (Keeling)-szigetek"/>
    <tag k="place" v="country"/>
    <tag k="watch:hakan" v="countries"/>
  </node>
  <node id="433483526" version="2" timestamp="2009-07-26T22:51:36Z" uid="20587" user="balrog-kun" changeset="1950468" lat="-21.236883" lon="-159.7711247">
    <tag k="country_code_fips" v="CW"/>
    <tag k="country_code_iso3166_1_alpha_2" v="CK"/>
    <tag k="geonames:id" v="1899402"/>
    <tag k="int_name" v="Cook Islands"/>
    <tag k="name" v="Cook Islands"/>
    <tag k="name:ar" v="جزر كوك"/>
    <tag k="name:cy" v="Ynysoedd Cook"/>
    <tag k="name:da" v="Cook-øerne"/>
    <tag k="name:en" v="Cook Islands"/>
    <tag k="name:eo" v="Kukinsuloj"/>
    <tag k="name:fi" v="Cookinsaaret"/>
    <tag k="name:hu" v="Cook-szigetek"/>
    <tag k="place" v="country"/>
    <tag k="watch:hakan" v="countries"/>
  </node>
  <node id="433483527" version="2" timestamp="2009-07-23T23:33:32Z" uid="20587" user="balrog-kun" changeset="1920502" lat="-16.2255615" lon="150.0338687">
    <tag k="country_code_fips" v="CR"/>
    <tag k="int_name" v="Coral Sea Islands"/>
    <tag k="is_in:ocean" v="Pacific"/>
    <tag k="name" v="Coral Sea Islands"/>
    <tag k="name:ar" v="جزر بحر الكورال"/>
    <tag k="name:en" v="Coral Sea Islands"/>
    <tag k="name:eo" v="Koralmaraj Insuloj"/>
    <tag k="name:es" v="Islas del Mar del Coral"/>
    <tag k="name:pl" v="Wyspy Morza Koralowego"/>
    <tag k="official_name" v="Coral Sea Islands Territory"/>
    <tag k="official_name:es" v="Territorio de las Islas del Mar del Coral"/>
    <tag k="official_name:pl" v="Terytorium Wysp Morza Koralowego"/>
    <tag k="place" v="country"/>
    <tag k="wikipedia" v="Coral Sea Islands"/>
  </node>
  <node id="433483527" version="3" timestamp="2009-07-26T12:36:46Z" uid="74617" user="JohnSmith" changeset="1944209" lat="-16.2255615" lon="150.0338687">
    <tag k="country_code_fips" v="CR"/>
    <tag k="int_name" v="Coral Sea Islands"/>
    <tag k="is_in:ocean" v="Pacific"/>
    <tag k="name" v="Coral Sea Islands"/>
    <tag k="name:ar" v="جزر بحر الكورال"/>
    <tag k="name:en" v="Coral Sea Islands"/>
    <tag k="name:eo" v="Koralmaraj Insuloj"/>
    <tag k="name:es" v="Islas del Mar del Coral"/>
    <tag k="name:pl" v="Wyspy Morza Koralowego"/>
    <tag k="official_name" v="Coral Sea Islands Territory"/>
    <tag k="official_name:es" v="Territorio de las Islas del Mar del Coral"/>
    <tag k="official_name:pl" v="Terytorium Wysp Morza Koralowego"/>
    <tag k="place" v="country"/>
    <tag k="wikipedia:en" v="Coral Sea Islands"/>
  </node>
  <node id="433483527" version="4" timestamp="2009-08-04T07:42:16Z" uid="4467" user="Rosscoe" changeset="2032824" lat="-16.2255615" lon="150.0338687">
    <tag k="country_code_fips" v="CR"/>
    <tag k="int_name" v="Coral Sea Islands"/>
    <tag k="is_in:ocean" v="Pacific"/>
    <tag k="name" v="Coral Sea Islands"/>
    <tag k="name:ar" v="جزر بحر الكورال"/>
    <tag k="name:en" v="Coral Sea Islands"/>
    <tag k="name:eo" v="Koralmaraj Insuloj"/>
    <tag k="name:es" v="Islas del Mar del Coral"/>
    <tag k="name:pl" v="Wyspy Morza Koralowego"/>
    <tag k="official_name" v="Coral Sea Islands Territory"/>
    <tag k="official_name:es" v="Territorio de las Islas del Mar del Coral"/>
    <tag k="official_name:pl" v="Terytorium Wysp Morza Koralowego"/>
    <tag k="place" v="state"/>
    <tag k="wikipedia:en" v="Coral Sea Islands"/>
  </node>
  <node id="433483528" version="2" timestamp="2009-07-23T01:41:09Z" uid="20587" user="balrog-kun" changeset="1910614" lat="-51.9666617" lon="-59.5500086">
    <tag k="country_code_fips" v="FK"/>
    <tag k="country_code_iso3166_1_alpha_2" v="FK"/>
    <tag k="geonames:id" v="3474414"/>
    <tag k="int_name" v="Falkland Islands"/>
    <tag k="is_in:continent" v="South America"/>
    <tag k="name" v="Falkland Islands"/>
    <tag k="name:ar" v="جزر الفولكلاند"/>
    <tag k="name:cy" v="Ynysoedd y Falklands"/>
    <tag k="name:da" v="Falklandsøerne"/>
    <tag k="name:de" v="Falkland Inseln"/>
    <tag k="name:en" v="Falkland Islands"/>
    <tag k="name:eo" v="Falklandoj"/>
    <tag k="name:es" v="Islas Malvinas"/>
    <tag k="name:hu" v="Falkland-szigetek"/>
    <tag k="place" v="country"/>
    <tag k="watch:hakan" v="countries"/>
  </node>
  <node id="433483529" version="2" timestamp="2009-07-22T21:29:26Z" uid="20587" user="balrog-kun" changeset="1909555" lat="62.0448589" lon="-7.0322887">
    <tag k="alt_name" v="Faeroe Islands;Faroes;Faeroes"/>
    <tag k="capital_city" v="Tórshavn"/>
    <tag k="country_code_fips" v="FO"/>
    <tag k="country_code_iso3166_1_alpha_2" v="FO"/>
    <tag k="geonames:id" v="2622320"/>
    <tag k="is_in:continent" v="Europe"/>
    <tag k="is_in:ocean" v="Atlantic"/>
    <tag k="name" v="Føroyar/Færøerne"/>
    <tag k="name:ar" v="جزر فارو"/>
    <tag k="name:cy" v="Føroyar"/>
    <tag k="name:da" v="Færøerne"/>
    <tag k="name:de" v="Färöer"/>
    <tag k="name:eo" v="Ferooj"/>
    <tag k="name:fi" v="Färsaaret"/>
    <tag k="name:fo" v="Føroyar"/>
    <tag k="name:hu" v="Feröer"/>
    <tag k="name:zh" v="法罗群岛"/>
    <tag k="name:zh_py" v="Faluoqundao"/>
    <tag k="name:zh_pyt" v="Fǎluóqúndǎo"/>
    <tag k="place" v="country"/>
    <tag k="population" v="48778"/>
    <tag k="watch:hakan" v="countries"/>
  </node>
  <node id="433483530" version="2" timestamp="2009-07-26T22:51:30Z" uid="20587" user="balrog-kun" changeset="1950468" lat="-5.6416667" lon="-179.9">
    <tag k="country_code_fips" v="FP"/>
    <tag k="country_code_iso3166_1_alpha_2" v="PF"/>
    <tag k="geonames:id" v="4020092"/>
    <tag k="int_name" v="French Polynesia"/>
    <tag k="is_in:ocean" v="Pacific"/>
    <tag k="name" v="French Polynesia"/>
    <tag k="name:ar" v="بولونيزيا الفرنسية"/>
    <tag k="name:cy" v="Polynesia Ffrengig"/>
    <tag k="name:da" v="Fransk Polynesien"/>
    <tag k="name:en" v="French Polynesia"/>
    <tag k="name:eo" v="Franca Polinezio"/>
    <tag k="name:hu" v="Francia Polinézia"/>
    <tag k="place" v="country"/>
    <tag k="watch:hakan" v="countries"/>
  </node>
  <node id="433483532" version="2" timestamp="2009-07-22T23:17:04Z" uid="123700" user="Mala" changeset="1910099" lat="31.3999985" lon="34.383334">
    <tag k="country_code_fips" v="GZ"/>
    <tag k="int_name" v="Gaza Strip"/>
    <tag k="is_in:continent" v="Asia"/>
    <tag k="name" v="Gaza Strip - غزة"/>
    <tag k="name:ar" v="قطاع غزة"/>
    <tag k="name:cy" v="Llain Gaza"/>
    <tag k="name:da" v="Gazastriben"/>
    <tag k="name:en" v="Gaza Strip"/>
    <tag k="name:eo" v="Gaza Sektoro"/>
    <tag k="name:he" v="רצועת עזה"/>
    <tag k="name:zh" v="加沙地带"/>
    <tag k="name:zh_py" v="Jiasha Didai"/>
    <tag k="name:zh_pyt" v="Jiāshā Dìdài"/>
    <tag k="place" v="country"/>
  </node>
  <node id="433483534" version="2" timestamp="2009-07-23T00:14:48Z" uid="123700" user="Mala" changeset="1910307" lat="77.6192264" lon="-42.8125592">
    <tag k="capital_city" v="Nuuk"/>
    <tag k="country_code_fips" v="GL"/>
    <tag k="country_code_iso3166_1_alpha_2" v="GL"/>
    <tag k="description" v="Self-governing Danish province."/>
    <tag k="geonames:id" v="3425505"/>
    <tag k="int_name" v="Greenland"/>
    <tag k="is_in:continent" v="North America"/>
    <tag k="name" v="Kalaallit Nunaat"/>
    <tag k="name:ar" v="غرينلاند"/>
    <tag k="name:cy" v="Yr Ynys Las"/>
    <tag k="name:da" v="Grønland"/>
    <tag k="name:en" v="Greenland"/>
    <tag k="name:eo" v="Gronlando"/>
    <tag k="name:fi" v="Grönlanti"/>
    <tag k="name:he" v="גרינלנד"/>
    <tag k="name:hu" v="Grönland"/>
    <tag k="name:kl" v="Kalaallit Nunaat"/>
    <tag k="name:zh" v="格陵兰岛"/>
    <tag k="name:zh_py" v="Gelinglan Dao"/>
    <tag k="name:zh_pyt" v="Gélínglán Dǎo"/>
    <tag k="place" v="country"/>
    <tag k="population" v="57564"/>
    <tag k="watch:hakan" v="countries"/>
  </node>
  <node id="433483535" version="2" timestamp="2009-07-23T02:16:59Z" uid="123700" user="Mala" changeset="1910715" lat="16.249954" lon="-61.5658122">
    <tag k="Wikipedia" v="Guadeloupe"/>
    <tag k="capital_city" v="Basse Terre"/>
    <tag k="country_code_fips" v="GP"/>
    <tag k="country_code_iso3166_1_alpha_2" v="GP"/>
    <tag k="description" v="Overseas department of France"/>
    <tag k="geonames:id" v="3579143"/>
    <tag k="int_name" v="Guadeloupe"/>
    <tag k="is_in:continent" v="North America"/>
    <tag k="is_in:country" v="France"/>
    <tag k="is_in:country_code" v="fr"/>
    <tag k="is_in:sea" v="Caribbean Sea"/>
    <tag k="name" v="Guadeloupe"/>
    <tag k="name:ar" v="غوادلوب"/>
    <tag k="name:da" v="Guadeloupe"/>
    <tag k="name:en" v="Guadeloupe"/>
    <tag k="name:eo" v="Gvadelupo"/>
    <tag k="name:es" v="Guadalupe"/>
    <tag k="name:fr" v="Guadeloupe"/>
    <tag k="name:hu" v="Guadeloupe"/>
    <tag k="name:it" v="Guadalupa"/>
    <tag k="name:pl" v="Gwadelupa"/>
    <tag k="place" v="country"/>
    <tag k="population" v="408000"/>
    <tag k="watch:hakan" v="countries"/>
    <tag k="wikipedia" v="Guadeloupe"/>
  </node>
  <node id="433483541" version="2" timestamp="2009-07-12T09:23:29Z" uid="18775" user="drlizau" changeset="1804782" lat="42.7315804" lon="21.1653505">
    <tag k="is_in:continent" v="Europe"/>
    <tag k="name" v="Kosovo"/>
    <tag k="name:ar" v="كوسوفو"/>
    <tag k="name:da" v="Kosovo"/>
    <tag k="name:eo" v="Kosovo"/>
    <tag k="name:he" v="קוסובו"/>
    <tag k="name:zh" v="科索沃"/>
    <tag k="name:zh_py" v="Kesuowo"/>
    <tag k="name:zh_pyt" v="Kēsuǒwò"/>
    <tag k="note" v="Edits to this node are being monitored"/>
    <tag k="place" v="country"/>
    <tag k="status" v="dispute"/>
    <tag k="watch:80n" v="yes"/>
  </node>
  <node id="433483543" version="2" timestamp="2009-07-23T02:17:06Z" uid="123700" user="Mala" changeset="1910715" lat="14.6116629" lon="-60.9623469">
    <tag k="country_code_fips" v="MB"/>
    <tag k="country_code_iso3166_1_alpha_2" v="MQ"/>
    <tag k="geonames:id" v="3570311"/>
    <tag k="int_name" v="Martinique"/>
    <tag k="is_in:continent" v="North America"/>
    <tag k="name" v="Martinique"/>
    <tag k="name:ar" v="مارتينيك"/>
    <tag k="name:da" v="Martinique"/>
    <tag k="name:en" v="Martinique"/>
    <tag k="name:eo" v="Martiniko"/>
    <tag k="name:hu" v="Martinique"/>
    <tag k="place" v="country"/>
    <tag k="watch:hakan" v="countries"/>
  </node>
  <node id="433483547" version="2" timestamp="2009-07-23T02:17:08Z" uid="123700" user="Mala" changeset="1910715" lat="16.7416667" lon="-62.1916667">
    <tag k="country_code_fips" v="MH"/>
    <tag k="country_code_iso3166_1_alpha_2" v="MS"/>
    <tag k="geonames:id" v="3578097"/>
    <tag k="int_name" v="Montserrat"/>
    <tag k="is_in:continent" v="North America"/>
    <tag k="is_in:sea" v="Caribbean Sea"/>
    <tag k="name" v="Montserrat"/>
    <tag k="name:ar" v="مونتسرات"/>
    <tag k="name:da" v="Montserrat"/>
    <tag k="name:en" v="Montserrat"/>
    <tag k="name:eo" v="Moncerato"/>
    <tag k="name:hu" v="Montserrat"/>
    <tag k="place" v="country"/>
    <tag k="watch:hakan" v="countries"/>
  </node>
  <node id="433483548" version="2" timestamp="2009-07-23T02:17:01Z" uid="123700" user="Mala" changeset="1910715" lat="12.1821283" lon="-68.9967467">
    <tag k="country_code_fips" v="NT"/>
    <tag k="country_code_iso3166_1_alpha_2" v="AN"/>
    <tag k="geonames:id" v="3513447"/>
    <tag k="int_name" v="Netherlands Antilles"/>
    <tag k="is_in:sea" v="Caribbean Sea"/>
    <tag k="name" v="Netherlands Antilles"/>
    <tag k="name:ar" v="جزر الأنتيل"/>
    <tag k="name:cy" v="Antilles yr Iseldiroedd"/>
    <tag k="name:da" v="Nederlandske Antiller"/>
    <tag k="name:en" v="Netherlands Antilles"/>
    <tag k="name:eo" v="Nederlandaj Antiloj"/>
    <tag k="name:hu" v="Holland Antillák"/>
    <tag k="place" v="country"/>
    <tag k="watch:hakan" v="countries"/>
  </node>
  <node id="433483550" version="2" timestamp="2009-07-23T12:54:38Z" uid="20587" user="balrog-kun" changeset="1915349" lat="-21.3018986" lon="165.487909">
    <tag k="country_code_fips" v="NC"/>
    <tag k="country_code_iso3166_1_alpha_2" v="NC"/>
    <tag k="geonames:id" v="2139685"/>
    <tag k="int_name" v="New Caledonia"/>
    <tag k="is_in:ocean" v="Pacific"/>
    <tag k="name" v="Nouvelle-Calédonie"/>
    <tag k="name:ar" v="كاليدونيا الجديدة"/>
    <tag k="name:cy" v="Caledonia Newydd"/>
    <tag k="name:da" v="Ny Kaledonien"/>
    <tag k="name:de" v="Neukaledonien"/>
    <tag k="name:en" v="New Caledonia"/>
    <tag k="name:eo" v="Nov-Kaledonio"/>
    <tag k="name:es" v="Nueva Caledonia"/>
    <tag k="name:fi" v="Uusi-Kaledonia"/>
    <tag k="name:fr" v="Nouvelle-Calédonie"/>
    <tag k="name:hu" v="Új-Kaledónia"/>
    <tag k="name:pl" v="Nowa Kaledonia"/>
    <tag k="name:ru" v="Новая Каледония"/>
    <tag k="official_name:es" v="Colectividad de Ultramar francesa de Nueva Caledonia"/>
    <tag k="place" v="country"/>
    <tag k="watch:hakan" v="countries"/>
    <tag k="wikipedia" v="New Caledonia"/>
  </node>
  <node id="433483550" version="3" timestamp="2009-07-26T12:31:26Z" uid="74617" user="JohnSmith" changeset="1944150" lat="-21.3018986" lon="165.487909">
    <tag k="country_code_fips" v="NC"/>
    <tag k="country_code_iso3166_1_alpha_2" v="NC"/>
    <tag k="geonames:id" v="2139685"/>
    <tag k="int_name" v="New Caledonia"/>
    <tag k="is_in:ocean" v="Pacific"/>
    <tag k="name" v="Nouvelle-Calédonie"/>
    <tag k="name:ar" v="كاليدونيا الجديدة"/>
    <tag k="name:cy" v="Caledonia Newydd"/>
    <tag k="name:da" v="Ny Kaledonien"/>
    <tag k="name:de" v="Neukaledonien"/>
    <tag k="name:en" v="New Caledonia"/>
    <tag k="name:eo" v="Nov-Kaledonio"/>
    <tag k="name:es" v="Nueva Caledonia"/>
    <tag k="name:fi" v="Uusi-Kaledonia"/>
    <tag k="name:fr" v="Nouvelle-Calédonie"/>
    <tag k="name:hu" v="Új-Kaledónia"/>
    <tag k="name:pl" v="Nowa Kaledonia"/>
    <tag k="name:ru" v="Новая Каледония"/>
    <tag k="official_name:es" v="Colectividad de Ultramar francesa de Nueva Caledonia"/>
    <tag k="place" v="country"/>
    <tag k="watch:hakan" v="countries"/>
    <tag k="wikipedia:en" v="New Caledonia"/>
  </node>
  <node id="433483552" version="2" timestamp="2009-07-26T22:51:24Z" uid="20587" user="balrog-kun" changeset="1950468" lat="-19.025" lon="-169.8666667">
    <tag k="alt_name" v="Rock of Polynesia"/>
    <tag k="capital_city" v="Alofi"/>
    <tag k="country_code_fips" v="NE"/>
    <tag k="country_code_iso3166_1_alpha_2" v="NU"/>
    <tag k="geonames:id" v="4036232"/>
    <tag k="int_name" v="Niue"/>
    <tag k="is_in:ocean" v="Pacific"/>
    <tag k="name" v="Niue"/>
    <tag k="name:ar" v="نيوي"/>
    <tag k="name:da" v="Niue"/>
    <tag k="name:en" v="Niue"/>
    <tag k="name:eo" v="Niuo"/>
    <tag k="name:hu" v="Niue"/>
    <tag k="name:niu" v="Niuē-fekai"/>
    <tag k="name:ru" v="Ниуэ"/>
    <tag k="place" v="country"/>
    <tag k="watch:hakan" v="countries"/>
    <tag k="wikipedia" v="Niue"/>
  </node>
  <node id="433483554" version="2" timestamp="2009-07-23T12:54:43Z" uid="20587" user="balrog-kun" changeset="1915349" lat="-29.0333817" lon="167.9496194">
    <tag k="country_code_fips" v="NF"/>
    <tag k="country_code_iso3166_1_alpha_2" v="NF"/>
    <tag k="geonames:id" v="2155115"/>
    <tag k="int_name" v="Norfolk Island"/>
    <tag k="is_in:ocean" v="Pacific"/>
    <tag k="name" v="Norfolk Island"/>
    <tag k="name:ar" v="جزيرة نورفولك"/>
    <tag k="name:cy" v="Ynys Norfolk"/>
    <tag k="name:da" v="Norfolk-øen"/>
    <tag k="name:en" v="Norfolk Island"/>
    <tag k="name:eo" v="Norfolkinsulo"/>
    <tag k="name:hu" v="Norfolk-sziget"/>
    <tag k="place" v="country"/>
    <tag k="watch:hakan" v="countries"/>
  </node>
  <node id="433483557" version="2" timestamp="2009-07-26T22:51:38Z" uid="20587" user="balrog-kun" changeset="1950468" lat="-24.5" lon="-127.7583333">
    <tag k="country_code_fips" v="PC"/>
    <tag k="country_code_iso3166_1_alpha_2" v="PN"/>
    <tag k="geonames:id" v="4030699"/>
    <tag k="int_name" v="Pitcairn"/>
    <tag k="is_in:ocean" v="Pacific"/>
    <tag k="name" v="Pitcairn"/>
    <tag k="name:ar" v="بتكايرن"/>
    <tag k="name:da" v="Pitcairn"/>
    <tag k="name:en" v="Pitcairn"/>
    <tag k="name:eo" v="Pitkarna Insulo"/>
    <tag k="name:hu" v="Pitcairn-szigetek"/>
    <tag k="place" v="country"/>
    <tag k="watch:hakan" v="countries"/>
    <tag k="wikipedia" v="Pitcairn Islands"/>
  </node>
  <node id="433483569" version="2" timestamp="2009-07-23T01:40:54Z" uid="20587" user="balrog-kun" changeset="1910614" lat="-54.8433084" lon="-35.8090417">
    <tag k="capital_city" v="King Edward Point"/>
    <tag k="country_code_fips" v="SX"/>
    <tag k="country_code_iso3166_1_alpha_2" v="GS"/>
    <tag k="geonames:id" v="3474415"/>
    <tag k="int_name" v="South Georgia and South Sandwich Islands"/>
    <tag k="is_in:continent" v="South America"/>
    <tag k="name" v="South Georgia and South Sandwich Islands"/>
    <tag k="name:ar" v="جزر جورجيا الجنوبية وساندويتش الجنوبية"/>
    <tag k="name:da" v="Sydgeorgien og Sydsandwichøerne"/>
    <tag k="name:en" v="South Georgia and South Sandwich Islands"/>
    <tag k="name:eo" v="Sud-Georgio kaj Sud-Sandviĉinsuloj"/>
    <tag k="name:es" v="Islas Georgias del Sur y Sandwich del Sur"/>
    <tag k="name:hu" v="Déli-Georgia és Déli-Sandwich-szigetek"/>
    <tag k="name:pl" v="Georgia Południowa i Sandwich Południowy"/>
    <tag k="place" v="country"/>
    <tag k="watch:hakan" v="countries"/>
    <tag k="wikipedia" v="South Georgia and the South Sandwich Islands"/>
  </node>
  <node id="433483572" version="2" timestamp="2009-07-26T22:51:24Z" uid="20587" user="balrog-kun" changeset="1950468" lat="-9.2666667" lon="-161.2583334">
    <tag k="country_code_fips" v="TL"/>
    <tag k="country_code_iso3166_1_alpha_2" v="TK"/>
    <tag k="int_name" v="Tokelau"/>
    <tag k="is_in:ocean" v="Pacific"/>
    <tag k="name" v="Tokelau"/>
    <tag k="name:ar" v="توكلو"/>
    <tag k="name:da" v="Tokelau"/>
    <tag k="name:en" v="Tokelau"/>
    <tag k="name:eo" v="Tokelao"/>
    <tag k="name:hu" v="Tokelau-szigetek"/>
    <tag k="place" v="country"/>
    <tag k="wikipedia" v="Tokelau"/>
  </node>
  <node id="433483575" version="2" timestamp="2009-07-23T01:02:52Z" uid="123700" user="Mala" changeset="1910504" lat="21.7214258" lon="-71.6201324">
    <tag k="country_code_fips" v="TK"/>
    <tag k="country_code_iso3166_1_alpha_2" v="TC"/>
    <tag k="int_name" v="Turks and Caicos Islands"/>
    <tag k="is_in:continent" v="North America"/>
    <tag k="is_in:sea" v="Caribbean Sea"/>
    <tag k="name" v="Turks and Caicos Islands"/>
    <tag k="name:ar" v="جزر تركس وكايكوس"/>
    <tag k="name:cy" v="Ynysoedd Turks a Caicos"/>
    <tag k="name:da" v="Turks- og Caicosøerne"/>
    <tag k="name:en" v="Turks and Caicos Islands"/>
    <tag k="name:eo" v="Turkoj kaj Kajkoj"/>
    <tag k="name:hu" v="Turks- és Caicos-szigetek"/>
    <tag k="place" v="country"/>
  </node>
  <node id="433483578" version="2" timestamp="2009-07-26T22:51:31Z" uid="20587" user="balrog-kun" changeset="1950468" lat="-12.3333334" lon="-177.0666667">
    <tag k="country_code_fips" v="WF"/>
    <tag k="country_code_iso3166_1_alpha_2" v="WF"/>
    <tag k="int_name" v="Wallis and Futuna Islands"/>
    <tag k="is_in:ocean" v="Pacific"/>
    <tag k="name" v="Wallis and Futuna Islands"/>
    <tag k="name:ar" v="جزر واليس وفوتونا"/>
    <tag k="name:da" v="Wallis og Futuna"/>
    <tag k="name:en" v="Wallis and Futuna Islands"/>
    <tag k="name:eo" v="Valiso kaj Futuno"/>
    <tag k="name:hu" v="Wallis és Futuna"/>
    <tag k="place" v="country"/>
    <tag k="wikipedia" v="Wallis and Futuna"/>
  </node>
  <node id="433484191" version="1" timestamp="2009-07-03T23:56:21Z" uid="99207" user="Lar Kiesel" changeset="1725959" lat="33.9226322" lon="-81.3933144"/>
  <node id="433484192" version="1" timestamp="2009-07-03T23:56:22Z" uid="99207" user="Lar Kiesel" changeset="1725959" lat="33.9227304" lon="-81.3933033"/>
  <node id="433484193" version="1" timestamp="2009-07-03T23:56:23Z" uid="99207" user="Lar Kiesel" changeset="1725959" lat="33.9226154" lon="-81.3930642"/>
  <node id="433484194" version="1" timestamp="2009-07-03T23:56:23Z" uid="99207" user="Lar Kiesel" changeset="1725959" lat="33.9226107" lon="-81.3929946"/>
  <node id="433484194" version="2" timestamp="2009-07-23T13:17:33Z" uid="99207" user="Lar Kiesel" changeset="1915565" lat="33.9226107" lon="-81.3929946"/>
  <node id="433484195" version="1" timestamp="2009-07-03T23:56:23Z" uid="99207" user="Lar Kiesel" changeset="1725959" lat="33.9225985" lon="-81.3928063"/>
  <node id="433484195" version="2" timestamp="2009-07-03T23:59:12Z" uid="99207" user="Lar Kiesel" changeset="1725959" lat="33.9226036" lon="-81.3928658"/>
  <node id="433484195" version="3" timestamp="2009-07-23T13:17:32Z" uid="99207" user="Lar Kiesel" changeset="1915565" lat="33.9226108" lon="-81.3928485"/>
  <node id="433484196" version="1" timestamp="2009-07-03T23:56:23Z" uid="99207" user="Lar Kiesel" changeset="1725959" lat="33.9225871" lon="-81.3926343"/>
  <node id="433484196" version="2" timestamp="2009-07-23T13:17:32Z" uid="99207" user="Lar Kiesel" changeset="1915565" lat="33.9225871" lon="-81.3926343"/>
  <node id="433484197" version="1" timestamp="2009-07-03T23:56:23Z" uid="99207" user="Lar Kiesel" changeset="1725959" lat="33.922575" lon="-81.3924525"/>
  <node id="433484198" version="1" timestamp="2009-07-03T23:56:23Z" uid="99207" user="Lar Kiesel" changeset="1725959" lat="33.9225608" lon="-81.3922393"/>
  <node id="433484199" version="1" timestamp="2009-07-03T23:56:23Z" uid="99207" user="Lar Kiesel" changeset="1725959" lat="33.9222047" lon="-81.3922736"/>
  <node id="433484200" version="1" timestamp="2009-07-03T23:56:23Z" uid="99207" user="Lar Kiesel" changeset="1725959" lat="33.922219" lon="-81.3924195"/>
  <node id="433484200" version="2" timestamp="2009-07-03T23:59:13Z" uid="99207" user="Lar Kiesel" changeset="1725959" lat="33.922219" lon="-81.3924195"/>
  <node id="433484201" version="1" timestamp="2009-07-03T23:56:23Z" uid="99207" user="Lar Kiesel" changeset="1725959" lat="33.9222266" lon="-81.3924977"/>
  <node id="433484201" version="2" timestamp="2009-07-03T23:59:13Z" uid="99207" user="Lar Kiesel" changeset="1725959" lat="33.922219" lon="-81.3924882"/>
  <node id="433484202" version="1" timestamp="2009-07-03T23:56:23Z" uid="99207" user="Lar Kiesel" changeset="1725959" lat="33.9222332" lon="-81.3925654"/>
  <node id="433484202" version="2" timestamp="2009-07-03T23:59:13Z" uid="99207" user="Lar Kiesel" changeset="1725959" lat="33.9222332" lon="-81.3925654"/>
  <node id="433484203" version="1" timestamp="2009-07-03T23:56:23Z" uid="99207" user="Lar Kiesel" changeset="1725959" lat="33.9222332" lon="-81.3927028"/>
  <node id="433484203" version="2" timestamp="2009-07-23T13:17:33Z" uid="99207" user="Lar Kiesel" changeset="1915565" lat="33.9222334" lon="-81.3926768"/>
  <node id="433484204" version="1" timestamp="2009-07-03T23:56:23Z" uid="99207" user="Lar Kiesel" changeset="1725959" lat="33.9222332" lon="-81.3928229"/>
  <node id="433484204" version="2" timestamp="2009-07-03T23:59:14Z" uid="99207" user="Lar Kiesel" changeset="1725959" lat="33.9222332" lon="-81.3928229"/>
  <node id="433484205" version="1" timestamp="2009-07-03T23:56:23Z" uid="99207" user="Lar Kiesel" changeset="1725959" lat="33.9222374" lon="-81.3928756"/>
  <node id="433484206" version="1" timestamp="2009-07-03T23:56:24Z" uid="99207" user="Lar Kiesel" changeset="1725959" lat="33.9222475" lon="-81.3930032"/>
  <node id="433484206" version="2" timestamp="2009-07-03T23:59:14Z" uid="99207" user="Lar Kiesel" changeset="1725959" lat="33.9222475" lon="-81.3930032"/>
  <node id="433484207" version="1" timestamp="2009-07-03T23:56:24Z" uid="99207" user="Lar Kiesel" changeset="1725959" lat="33.922219" lon="-81.3930461"/>
  <node id="433484207" version="2" timestamp="2009-07-23T13:17:32Z" uid="99207" user="Lar Kiesel" changeset="1915565" lat="33.9222618" lon="-81.3930287"/>
  <node id="433484208" version="1" timestamp="2009-07-03T23:56:24Z" uid="99207" user="Lar Kiesel" changeset="1725959" lat="33.922162" lon="-81.3930718"/>
  <node id="433484209" version="1" timestamp="2009-07-03T23:56:24Z" uid="99207" user="Lar Kiesel" changeset="1725959" lat="33.9220765" lon="-81.3930804"/>
  <node id="433484210" version="1" timestamp="2009-07-03T23:56:24Z" uid="99207" user="Lar Kiesel" changeset="1725959" lat="33.9220053" lon="-81.3930718"/>
  <node id="433484211" version="1" timestamp="2009-07-03T23:56:24Z" uid="99207" user="Lar Kiesel" changeset="1725959" lat="33.9219626" lon="-81.3930203"/>
  <node id="433484212" version="1" timestamp="2009-07-03T23:56:24Z" uid="99207" user="Lar Kiesel" changeset="1725959" lat="33.9219412" lon="-81.3927113"/>
  <node id="433484213" version="1" timestamp="2009-07-03T23:56:24Z" uid="99207" user="Lar Kiesel" changeset="1725959" lat="33.9219911" lon="-81.3926598"/>
  <node id="433484214" version="1" timestamp="2009-07-03T23:56:24Z" uid="99207" user="Lar Kiesel" changeset="1725959" lat="33.9220552" lon="-81.3926598"/>
  <node id="433484215" version="1" timestamp="2009-07-03T23:56:24Z" uid="99207" user="Lar Kiesel" changeset="1725959" lat="33.9221406" lon="-81.3926169"/>
  <node id="433484216" version="1" timestamp="2009-07-03T23:56:24Z" uid="99207" user="Lar Kiesel" changeset="1725959" lat="33.9221335" lon="-81.3922908"/>
  <node id="433484216" version="2" timestamp="2009-07-03T23:59:13Z" uid="99207" user="Lar Kiesel" changeset="1725959" lat="33.9221193" lon="-81.3922994"/>
  <node id="433484217" version="1" timestamp="2009-07-03T23:56:24Z" uid="99207" user="Lar Kiesel" changeset="1725959" lat="33.9221335" lon="-81.3922049"/>
  <node id="433484218" version="1" timestamp="2009-07-03T23:56:25Z" uid="99207" user="Lar Kiesel" changeset="1725959" lat="33.9226321" lon="-81.3921534"/>
  <node id="433484218" version="2" timestamp="2009-07-03T23:59:13Z" uid="99207" user="Lar Kiesel" changeset="1725959" lat="33.9226178" lon="-81.3921534"/>
  <node id="433484219" version="1" timestamp="2009-07-03T23:56:25Z" uid="99207" user="Lar Kiesel" changeset="1725959" lat="33.9223757" lon="-81.3924796"/>
  <node id="433484219" version="2" timestamp="2009-07-03T23:59:14Z" uid="99207" user="Lar Kiesel" changeset="1725959" lat="33.9223757" lon="-81.3924796"/>
  <node id="433484220" version="1" timestamp="2009-07-03T23:56:25Z" uid="99207" user="Lar Kiesel" changeset="1725959" lat="33.9224469" lon="-81.3926684"/>
  <node id="433484220" version="2" timestamp="2009-07-03T23:59:14Z" uid="99207" user="Lar Kiesel" changeset="1725959" lat="33.9224469" lon="-81.3926684"/>
  <node id="433484221" version="1" timestamp="2009-07-03T23:56:26Z" uid="99207" user="Lar Kiesel" changeset="1725959" lat="33.9224184" lon="-81.3928487"/>
  <node id="433484221" version="2" timestamp="2009-07-03T23:59:14Z" uid="99207" user="Lar Kiesel" changeset="1725959" lat="33.9224184" lon="-81.3928487"/>
  <node id="433484222" version="1" timestamp="2009-07-03T23:56:26Z" uid="99207" user="Lar Kiesel" changeset="1725959" lat="33.9222332" lon="-81.3931062"/>
  <node id="433484222" version="2" timestamp="2009-07-23T13:17:32Z" uid="99207" user="Lar Kiesel" changeset="1915565" lat="33.922269" lon="-81.393106"/>
  <node id="433484223" version="1" timestamp="2009-07-03T23:56:26Z" uid="99207" user="Lar Kiesel" changeset="1725959" lat="33.9223828" lon="-81.3930976"/>
  <node id="433484223" version="2" timestamp="2009-07-03T23:59:15Z" uid="99207" user="Lar Kiesel" changeset="1725959" lat="33.9223828" lon="-81.3930976"/>
  <node id="433484272" version="1" timestamp="2009-07-03T23:59:12Z" uid="99207" user="Lar Kiesel" changeset="1725959" lat="33.9216994" lon="-81.39342"/>
  <node id="433484273" version="1" timestamp="2009-07-03T23:59:13Z" uid="99207" user="Lar Kiesel" changeset="1725959" lat="33.9226394" lon="-81.3922393"/>
  <node id="433484274" version="1" timestamp="2009-07-03T23:59:15Z" uid="99207" user="Lar Kiesel" changeset="1725959" lat="33.9216919" lon="-81.3932006"/>
  <node id="433484275" version="1" timestamp="2009-07-03T23:59:15Z" uid="99207" user="Lar Kiesel" changeset="1725959" lat="33.9216634" lon="-81.3931491"/>
  <node id="433484276" version="1" timestamp="2009-07-03T23:59:15Z" uid="99207" user="Lar Kiesel" changeset="1725959" lat="33.9213358" lon="-81.393192"/>
  <node id="433484277" version="1" timestamp="2009-07-03T23:59:15Z" uid="99207" user="Lar Kiesel" changeset="1725959" lat="33.9208942" lon="-81.3932435"/>
  <node id="433484278" version="1" timestamp="2009-07-03T23:59:15Z" uid="99207" user="Lar Kiesel" changeset="1725959" lat="33.9208373" lon="-81.3932692"/>
  <node id="433484279" version="1" timestamp="2009-07-03T23:59:15Z" uid="99207" user="Lar Kiesel" changeset="1725959" lat="33.9208373" lon="-81.393398"/>
  <node id="433484280" version="1" timestamp="2009-07-03T23:59:16Z" uid="99207" user="Lar Kiesel" changeset="1725959" lat="33.9227959" lon="-81.3931834"/>
  <node id="433484280" version="2" timestamp="2009-08-19T08:26:05Z" uid="99207" user="Lar Kiesel" changeset="2198456" lat="33.9226942" lon="-81.3931748"/>
  <node id="433484281" version="1" timestamp="2009-07-03T23:59:16Z" uid="99207" user="Lar Kiesel" changeset="1725959" lat="33.9227104" lon="-81.3920848"/>
  <node id="433484281" version="2" timestamp="2009-08-19T08:26:05Z" uid="99207" user="Lar Kiesel" changeset="2198456" lat="33.9226159" lon="-81.3920848"/>
  <node id="433484282" version="1" timestamp="2009-07-03T23:59:16Z" uid="99207" user="Lar Kiesel" changeset="1725959" lat="33.9220836" lon="-81.3921534"/>
  <node id="433484283" version="1" timestamp="2009-07-03T23:59:16Z" uid="99207" user="Lar Kiesel" changeset="1725959" lat="33.9221834" lon="-81.3932778"/>
  <node id="433484339" version="1" timestamp="2009-07-04T00:01:19Z" uid="99207" user="Lar Kiesel" changeset="1725959" lat="33.9213999" lon="-81.3914496"/>
  <node id="433484340" version="1" timestamp="2009-07-04T00:01:19Z" uid="99207" user="Lar Kiesel" changeset="1725959" lat="33.9218842" lon="-81.3904969"/>
  <node id="433484341" version="1" timestamp="2009-07-04T00:01:20Z" uid="99207" user="Lar Kiesel" changeset="1725959" lat="33.9207518" lon="-81.3905398"/>
  <node id="433484342" version="1" timestamp="2009-07-04T00:01:20Z" uid="99207" user="Lar Kiesel" changeset="1725959" lat="33.9207874" lon="-81.3910806"/>
  <node id="433484343" version="1" timestamp="2009-07-04T00:01:20Z" uid="99207" user="Lar Kiesel" changeset="1725959" lat="33.9223757" lon="-81.3919904"/>
  <node id="433484344" version="1" timestamp="2009-07-04T00:01:20Z" uid="99207" user="Lar Kiesel" changeset="1725959" lat="33.9220552" lon="-81.3920247"/>
  <node id="433484345" version="1" timestamp="2009-07-04T00:01:20Z" uid="99207" user="Lar Kiesel" changeset="1725959" lat="33.9219911" lon="-81.3915355"/>
  <node id="433484346" version="1" timestamp="2009-07-04T00:01:20Z" uid="99207" user="Lar Kiesel" changeset="1725959" lat="33.9216563" lon="-81.3915355"/>
  <node id="433484347" version="1" timestamp="2009-07-04T00:01:20Z" uid="99207" user="Lar Kiesel" changeset="1725959" lat="33.9216278" lon="-81.3911235"/>
  <node id="433484348" version="1" timestamp="2009-07-04T00:01:20Z" uid="99207" user="Lar Kiesel" changeset="1725959" lat="33.9221691" lon="-81.390763"/>
  <node id="433484349" version="1" timestamp="2009-07-04T00:01:21Z" uid="99207" user="Lar Kiesel" changeset="1725959" lat="33.9223187" lon="-81.390763"/>
  <node id="433484349" version="2" timestamp="2009-07-30T06:39:43Z" uid="99207" user="Lar Kiesel" changeset="1981959" lat="33.9222822" lon="-81.3907653"/>
  <node id="433486448" version="2" timestamp="2010-02-21T23:16:29Z" uid="7617" user="Franc" changeset="3939995" lat="-33.8640349" lon="151.1294032"/>
  <node id="433486449" version="2" timestamp="2010-02-21T23:16:25Z" uid="7617" user="Franc" changeset="3939995" lat="-33.8642864" lon="151.1272497"/>
  <node id="433486452" version="2" timestamp="2010-01-05T23:52:29Z" uid="7617" user="Franc" changeset="3550157" lat="-33.864593" lon="151.1233688"/>
  <node id="433486453" version="2" timestamp="2010-01-06T00:07:53Z" uid="7617" user="Franc" changeset="3550239" lat="-33.8645698" lon="151.1231093"/>
  <node id="433486454" version="2" timestamp="2010-01-05T23:52:29Z" uid="7617" user="Franc" changeset="3550157" lat="-33.8645817" lon="151.1232312"/>
  <node id="433486455" version="2" timestamp="2010-12-19T09:25:09Z" uid="7617" user="Franc" changeset="6703554" lat="-33.8451701" lon="151.1268633"/>
  <node id="433486456" version="2" timestamp="2010-01-05T23:52:28Z" uid="7617" user="Franc" changeset="3550157" lat="-33.8646298" lon="151.1233632"/>
  <node id="433486457" version="2" timestamp="2010-01-05T23:52:29Z" uid="7617" user="Franc" changeset="3550157" lat="-33.8646585" lon="151.1233283"/>
  <node id="433486458" version="2" timestamp="2010-01-05T23:52:29Z" uid="7617" user="Franc" changeset="3550157" lat="-33.8646619" lon="151.1232789"/>
  <node id="433486459" version="2" timestamp="2010-01-05T23:52:29Z" uid="7617" user="Franc" changeset="3550157" lat="-33.8646537" lon="151.1232575"/>
  <node id="433486460" version="2" timestamp="2010-01-05T23:52:29Z" uid="7617" user="Franc" changeset="3550157" lat="-33.8646266" lon="151.1232311"/>
  <node id="433486461" version="2" timestamp="2010-01-05T23:52:29Z" uid="7617" user="Franc" changeset="3550157" lat="-33.8646092" lon="151.1232262"/>
  <node id="433486462" version="2" timestamp="2010-01-05T23:52:29Z" uid="7617" user="Franc" changeset="3550157" lat="-33.8645644" lon="151.1232441"/>
  <node id="433486463" version="2" timestamp="2010-01-05T23:52:29Z" uid="7617" user="Franc" changeset="3550157" lat="-33.8645445" lon="151.123304"/>
  <node id="433486464" version="2" timestamp="2010-01-05T23:52:29Z" uid="7617" user="Franc" changeset="3550157" lat="-33.8645583" lon="151.1233444"/>
  <node id="433486467" version="2" timestamp="2010-12-19T09:14:38Z" uid="7617" user="Franc" changeset="6703469" lat="-33.848827" lon="151.1365046"/>
  <node id="433486468" version="2" timestamp="2010-12-19T09:24:39Z" uid="7617" user="Franc" changeset="6703554" lat="-33.8451177" lon="151.1294858"/>
  <node id="433486475" version="2" timestamp="2010-12-19T09:24:40Z" uid="7617" user="Franc" changeset="6703554" lat="-33.8468016" lon="151.1245848"/>
  <node id="433486476" version="2" timestamp="2010-12-19T09:14:43Z" uid="7617" user="Franc" changeset="6703469" lat="-33.8510756" lon="151.1317313"/>
  <node id="433486482" version="2" timestamp="2010-12-19T09:24:41Z" uid="7617" user="Franc" changeset="6703554" lat="-33.8454441" lon="151.1272601"/>
  <node id="433486483" version="2" timestamp="2010-12-19T09:25:11Z" uid="7617" user="Franc" changeset="6703554" lat="-33.8456416" lon="151.1272267"/>
  <node id="433486484" version="2" timestamp="2010-12-19T09:25:15Z" uid="7617" user="Franc" changeset="6703554" lat="-33.8457308" lon="151.1270563"/>
  <node id="433486485" version="2" timestamp="2010-12-19T09:25:09Z" uid="7617" user="Franc" changeset="6703554" lat="-33.8459037" lon="151.1268706"/>
  <node id="433486486" version="2" timestamp="2010-12-19T09:25:10Z" uid="7617" user="Franc" changeset="6703554" lat="-33.8461276" lon="151.1263155"/>
  <node id="433486487" version="2" timestamp="2010-12-19T09:25:15Z" uid="7617" user="Franc" changeset="6703554" lat="-33.8468028" lon="151.1245566"/>
  <node id="433486488" version="2" timestamp="2010-12-19T09:25:09Z" uid="7617" user="Franc" changeset="6703554" lat="-33.8467447" lon="151.1245155"/>
  <node id="433486495" version="2" timestamp="2010-12-19T09:14:18Z" uid="7617" user="Franc" changeset="6703469" lat="-33.8496982" lon="151.1332997"/>
  <node id="433486496" version="2" timestamp="2010-12-19T09:14:45Z" uid="7617" user="Franc" changeset="6703469" lat="-33.8494963" lon="151.1334238"/>
  <node id="433486497" version="2" timestamp="2010-12-19T09:14:02Z" uid="7617" user="Franc" changeset="6703469" lat="-33.849475" lon="151.1335268"/>
  <node id="433486498" version="2" timestamp="2010-12-19T09:14:07Z" uid="7617" user="Franc" changeset="6703469" lat="-33.849445" lon="151.1335635"/>
  <node id="433486499" version="2" timestamp="2010-12-19T09:14:27Z" uid="7617" user="Franc" changeset="6703469" lat="-33.8494211" lon="151.13361"/>
  <node id="433486506" version="2" timestamp="2010-12-19T09:14:40Z" uid="7617" user="Franc" changeset="6703469" lat="-33.8519894" lon="151.1340831"/>
  <node id="433486507" version="2" timestamp="2010-12-19T09:13:56Z" uid="7617" user="Franc" changeset="6703469" lat="-33.850619" lon="151.1372455"/>
  <node id="433486508" version="2" timestamp="2010-12-19T09:14:31Z" uid="7617" user="Franc" changeset="6703469" lat="-33.8491192" lon="151.1362616"/>
  <node id="433486509" version="2" timestamp="2010-12-19T09:13:45Z" uid="7617" user="Franc" changeset="6703469" lat="-33.8487737" lon="151.1365934"/>
  <node id="433486510" version="2" timestamp="2010-12-19T09:13:50Z" uid="7617" user="Franc" changeset="6703469" lat="-33.8489214" lon="151.1366507"/>
  <node id="433486511" version="2" timestamp="2010-12-19T09:14:12Z" uid="7617" user="Franc" changeset="6703469" lat="-33.8493744" lon="151.1364124"/>
  <node id="433486512" version="2" timestamp="2010-12-19T09:14:38Z" uid="7617" user="Franc" changeset="6703469" lat="-33.8520536" lon="151.1341432"/>
  <node id="433486514" version="2" timestamp="2010-12-19T09:14:00Z" uid="7617" user="Franc" changeset="6703469" lat="-33.849295" lon="151.1366842"/>
  <node id="433486515" version="2" timestamp="2010-12-19T09:14:21Z" uid="7617" user="Franc" changeset="6703469" lat="-33.8494417" lon="151.1368012"/>
  <node id="433486516" version="2" timestamp="2010-12-19T09:13:49Z" uid="7617" user="Franc" changeset="6703469" lat="-33.8492238" lon="151.1372061"/>
  <node id="433486519" version="2" timestamp="2010-12-19T09:14:34Z" uid="7617" user="Franc" changeset="6703469" lat="-33.8496875" lon="151.1334948"/>
  <node id="433486520" version="2" timestamp="2010-12-19T09:14:11Z" uid="7617" user="Franc" changeset="6703469" lat="-33.8502113" lon="151.1333635"/>
  <node id="433486528" version="2" timestamp="2010-12-19T09:14:32Z" uid="7617" user="Franc" changeset="6703469" lat="-33.8510986" lon="151.1344475"/>
  <node id="433486529" version="2" timestamp="2010-12-19T09:13:46Z" uid="7617" user="Franc" changeset="6703469" lat="-33.8514165" lon="151.1345234"/>
  <node id="433486530" version="2" timestamp="2010-12-19T09:13:53Z" uid="7617" user="Franc" changeset="6703469" lat="-33.8516072" lon="151.1346336"/>
  <node id="433486531" version="2" timestamp="2010-12-19T09:14:14Z" uid="7617" user="Franc" changeset="6703469" lat="-33.8517487" lon="151.1348512"/>
  <node id="433486532" version="2" timestamp="2010-12-19T09:14:47Z" uid="7617" user="Franc" changeset="6703469" lat="-33.8517047" lon="151.1353525"/>
  <node id="433486533" version="2" timestamp="2010-12-19T09:14:05Z" uid="7617" user="Franc" changeset="6703469" lat="-33.8517824" lon="151.1354373">
    <tag k="highway" v="crossing"/>
  </node>
  <node id="433486534" version="2" timestamp="2010-12-19T09:14:09Z" uid="7617" user="Franc" changeset="6703469" lat="-33.8494017" lon="151.1361723"/>
  <node id="433486535" version="2" timestamp="2010-12-19T09:14:28Z" uid="7617" user="Franc" changeset="6703469" lat="-33.849517" lon="151.136263"/>
  <node id="433486536" version="2" timestamp="2010-12-19T09:14:06Z" uid="7617" user="Franc" changeset="6703469" lat="-33.8495631" lon="151.1362842"/>
  <node id="433486537" version="2" timestamp="2010-12-19T09:14:25Z" uid="7617" user="Franc" changeset="6703469" lat="-33.8497607" lon="151.1363614"/>
  <node id="433486538" version="2" timestamp="2010-12-19T09:14:28Z" uid="7617" user="Franc" changeset="6703469" lat="-33.8498376" lon="151.1364837"/>
  <node id="433486539" version="2" timestamp="2010-12-19T09:14:49Z" uid="7617" user="Franc" changeset="6703469" lat="-33.8498587" lon="151.1332954"/>
  <node id="433486540" version="2" timestamp="2010-12-19T09:14:19Z" uid="7617" user="Franc" changeset="6703469" lat="-33.8500901" lon="151.133149"/>
  <node id="433486541" version="2" timestamp="2010-12-19T09:14:37Z" uid="7617" user="Franc" changeset="6703469" lat="-33.8507987" lon="151.1322073"/>
  <node id="433486542" version="2" timestamp="2010-12-19T09:14:42Z" uid="7617" user="Franc" changeset="6703469" lat="-33.8512138" lon="151.1319028"/>
  <node id="433486543" version="2" timestamp="2010-12-19T09:13:58Z" uid="7617" user="Franc" changeset="6703469" lat="-33.8512779" lon="151.132262"/>
  <node id="433486544" version="2" timestamp="2010-12-19T09:14:27Z" uid="7617" user="Franc" changeset="6703469" lat="-33.851336" lon="151.1323033"/>
  <node id="433486545" version="2" timestamp="2010-12-19T09:14:46Z" uid="7617" user="Franc" changeset="6703469" lat="-33.8513824" lon="151.1323907"/>
  <node id="433486548" version="2" timestamp="2010-12-19T09:14:40Z" uid="7617" user="Franc" changeset="6703469" lat="-33.8515725" lon="151.1336752"/>
  <node id="433486549" version="2" timestamp="2010-12-19T09:13:56Z" uid="7617" user="Franc" changeset="6703469" lat="-33.8515228" lon="151.1342507"/>
  <node id="433486550" version="2" timestamp="2010-12-19T09:14:03Z" uid="7617" user="Franc" changeset="6703469" lat="-33.8513521" lon="151.1319619"/>
  <node id="433486551" version="2" timestamp="2010-12-19T09:14:23Z" uid="7617" user="Franc" changeset="6703469" lat="-33.8506092" lon="151.1352495"/>
  <node id="433486552" version="2" timestamp="2010-12-19T09:13:57Z" uid="7617" user="Franc" changeset="6703469" lat="-33.8506412" lon="151.1351724"/>
  <node id="433486553" version="2" timestamp="2010-12-19T09:14:18Z" uid="7617" user="Franc" changeset="6703469" lat="-33.8511685" lon="151.1343359"/>
  <node id="433486554" version="2" timestamp="2010-12-19T09:14:23Z" uid="7617" user="Franc" changeset="6703469" lat="-33.8512318" lon="151.1343091"/>
  <node id="433486555" version="2" timestamp="2010-12-19T09:14:52Z" uid="7617" user="Franc" changeset="6703469" lat="-33.8514619" lon="151.1341374"/>
  <node id="433486556" version="2" timestamp="2010-12-19T09:14:13Z" uid="7617" user="Franc" changeset="6703469" lat="-33.8519518" lon="151.1341583"/>
  <node id="433486557" version="2" timestamp="2010-12-19T09:14:31Z" uid="7617" user="Franc" changeset="6703469" lat="-33.8520108" lon="151.1342119"/>
  <node id="433486558" version="2" timestamp="2010-12-19T09:14:36Z" uid="7617" user="Franc" changeset="6703469" lat="-33.8506446" lon="151.1370765"/>
  <node id="433486559" version="2" timestamp="2010-12-19T09:13:51Z" uid="7617" user="Franc" changeset="6703469" lat="-33.8506137" lon="151.1371419"/>
  <node id="433486560" version="2" timestamp="2010-12-19T09:14:22Z" uid="7617" user="Franc" changeset="6703469" lat="-33.8520251" lon="151.1340831"/>
  <node id="433486561" version="2" timestamp="2010-12-19T09:14:39Z" uid="7617" user="Franc" changeset="6703469" lat="-33.8519538" lon="151.134126"/>
  <node id="433486562" version="2" timestamp="2010-12-19T09:14:45Z" uid="7617" user="Franc" changeset="6703469" lat="-33.8519726" lon="151.1342013"/>
  <node id="433486563" version="2" timestamp="2010-12-19T09:14:02Z" uid="7617" user="Franc" changeset="6703469" lat="-33.8520393" lon="151.1341947"/>
  <node id="433486564" version="2" timestamp="2010-12-19T09:14:34Z" uid="7617" user="Franc" changeset="6703469" lat="-33.8507044" lon="151.1354365"/>
  <node id="433486565" version="2" timestamp="2010-12-19T09:13:49Z" uid="7617" user="Franc" changeset="6703469" lat="-33.8506917" lon="151.1353642"/>
  <node id="433486566" version="2" timestamp="2010-12-19T09:13:55Z" uid="7617" user="Franc" changeset="6703469" lat="-33.8505573" lon="151.1352501"/>
  <node id="433486567" version="2" timestamp="2010-12-19T09:14:16Z" uid="7617" user="Franc" changeset="6703469" lat="-33.8505007" lon="151.1352861"/>
  <node id="433486568" version="2" timestamp="2010-12-19T09:13:50Z" uid="7617" user="Franc" changeset="6703469" lat="-33.8504165" lon="151.1354354"/>
  <node id="433486569" version="2" timestamp="2010-12-19T09:14:12Z" uid="7617" user="Franc" changeset="6703469" lat="-33.8504618" lon="151.135592"/>
  <node id="433486570" version="2" timestamp="2010-12-19T09:14:16Z" uid="7617" user="Franc" changeset="6703469" lat="-33.8505157" lon="151.135622"/>
  <node id="433486571" version="2" timestamp="2010-12-19T09:14:35Z" uid="7617" user="Franc" changeset="6703469" lat="-33.8505847" lon="151.1356251"/>
  <node id="433486572" version="2" timestamp="2010-12-19T09:14:07Z" uid="7617" user="Franc" changeset="6703469" lat="-33.8503103" lon="151.1349892"/>
  <node id="433486573" version="2" timestamp="2010-12-19T09:14:27Z" uid="7617" user="Franc" changeset="6703469" lat="-33.8502171" lon="151.1347977"/>
  <node id="433486574" version="2" timestamp="2010-12-19T09:14:30Z" uid="7617" user="Franc" changeset="6703469" lat="-33.8502009" lon="151.1345902"/>
  <node id="433486576" version="2" timestamp="2010-12-19T09:14:15Z" uid="7617" user="Franc" changeset="6703469" lat="-33.850251" lon="151.1342825"/>
  <node id="433486577" version="2" timestamp="2010-12-19T09:14:34Z" uid="7617" user="Franc" changeset="6703469" lat="-33.850301" lon="151.1343853"/>
  <node id="433486578" version="2" timestamp="2010-12-19T09:14:38Z" uid="7617" user="Franc" changeset="6703469" lat="-33.8506098" lon="151.1345668"/>
  <node id="433486579" version="2" timestamp="2010-12-19T09:14:51Z" uid="7617" user="Franc" changeset="6703469" lat="-33.8506422" lon="151.1356051"/>
  <node id="433486580" version="2" timestamp="2010-12-19T09:14:28Z" uid="7617" user="Franc" changeset="6703469" lat="-33.8507728" lon="151.1358142"/>
  <node id="433486581" version="2" timestamp="2010-12-19T09:14:48Z" uid="7617" user="Franc" changeset="6703469" lat="-33.8509371" lon="151.1355655"/>
  <node id="433486582" version="2" timestamp="2010-12-19T09:13:49Z" uid="7617" user="Franc" changeset="6703469" lat="-33.8505825" lon="151.1361422"/>
  <node id="433486583" version="2" timestamp="2010-12-19T09:14:51Z" uid="7617" user="Franc" changeset="6703469" lat="-33.8503428" lon="151.1356394"/>
  <node id="433486584" version="2" timestamp="2010-12-19T09:14:50Z" uid="7617" user="Franc" changeset="6703469" lat="-33.8500718" lon="151.1362389"/>
  <node id="433486585" version="2" timestamp="2010-12-19T09:14:51Z" uid="7617" user="Franc" changeset="6703469" lat="-33.8499508" lon="151.1362831"/>
  <node id="433486586" version="2" timestamp="2010-12-19T09:14:11Z" uid="7617" user="Franc" changeset="6703469" lat="-33.8499072" lon="151.1364854"/>
  <node id="433486587" version="2" timestamp="2010-12-19T09:14:29Z" uid="7617" user="Franc" changeset="6703469" lat="-33.8499415" lon="151.1365381"/>
  <node id="433486588" version="2" timestamp="2010-12-19T09:14:00Z" uid="7617" user="Franc" changeset="6703469" lat="-33.8497974" lon="151.1365342"/>
  <node id="433486589" version="2" timestamp="2010-12-19T09:14:21Z" uid="7617" user="Franc" changeset="6703469" lat="-33.8498027" lon="151.1366081"/>
  <node id="433486590" version="2" timestamp="2010-12-19T09:14:26Z" uid="7617" user="Franc" changeset="6703469" lat="-33.8498387" lon="151.1366457"/>
  <node id="433486591" version="2" timestamp="2010-12-19T09:14:43Z" uid="7617" user="Franc" changeset="6703469" lat="-33.8498967" lon="151.1366436"/>
  <node id="433486592" version="2" timestamp="2010-12-19T09:14:43Z" uid="7617" user="Franc" changeset="6703469" lat="-33.8499146" lon="151.1366292"/>
  <node id="433486593" version="2" timestamp="2010-12-19T09:14:01Z" uid="7617" user="Franc" changeset="6703469" lat="-33.8499329" lon="151.1365975"/>
  <node id="433486594" version="2" timestamp="2010-12-19T09:14:07Z" uid="7617" user="Franc" changeset="6703469" lat="-33.8499579" lon="151.1361371"/>
  <node id="433486595" version="2" timestamp="2010-12-19T09:14:26Z" uid="7617" user="Franc" changeset="6703469" lat="-33.8499059" lon="151.1358553"/>
  <node id="433486596" version="2" timestamp="2010-12-19T09:13:54Z" uid="7617" user="Franc" changeset="6703469" lat="-33.849932" lon="151.1356357"/>
  <node id="433486597" version="2" timestamp="2010-12-19T09:14:15Z" uid="7617" user="Franc" changeset="6703469" lat="-33.8499709" lon="151.1354103"/>
  <node id="433486598" version="2" timestamp="2010-12-19T09:14:21Z" uid="7617" user="Franc" changeset="6703469" lat="-33.8500106" lon="151.1352498"/>
  <node id="433486599" version="2" timestamp="2010-12-19T09:14:52Z" uid="7617" user="Franc" changeset="6703469" lat="-33.8500221" lon="151.1365578"/>
  <node id="433486600" version="2" timestamp="2010-12-19T09:14:16Z" uid="7617" user="Franc" changeset="6703469" lat="-33.8502869" lon="151.1369535"/>
  <node id="433486601" version="2" timestamp="2010-12-19T09:14:52Z" uid="7617" user="Franc" changeset="6703469" lat="-33.8504783" lon="151.1370127"/>
  <node id="433486602" version="2" timestamp="2010-12-19T09:14:40Z" uid="7617" user="Franc" changeset="6703469" lat="-33.8505336" lon="151.1371423"/>
  <node id="433486603" version="2" timestamp="2010-12-19T09:13:55Z" uid="7617" user="Franc" changeset="6703469" lat="-33.8505661" lon="151.1365191"/>
  <node id="433486604" version="2" timestamp="2010-12-19T09:14:30Z" uid="7617" user="Franc" changeset="6703469" lat="-33.8501057" lon="151.1372567"/>
  <node id="433486605" version="2" timestamp="2010-12-19T09:14:50Z" uid="7617" user="Franc" changeset="6703469" lat="-33.8505322" lon="151.1372499"/>
  <node id="433486606" version="2" timestamp="2010-12-19T09:13:50Z" uid="7617" user="Franc" changeset="6703469" lat="-33.850632" lon="151.1371765"/>
  <node id="433486607" version="2" timestamp="2010-12-19T09:14:11Z" uid="7617" user="Franc" changeset="6703469" lat="-33.8505955" lon="151.1371287"/>
  <node id="433486608" version="2" timestamp="2010-12-19T09:14:37Z" uid="7617" user="Franc" changeset="6703469" lat="-33.8505132" lon="151.1371952"/>
  <node id="433486609" version="2" timestamp="2010-12-19T09:13:53Z" uid="7617" user="Franc" changeset="6703469" lat="-33.8505704" lon="151.1372697"/>
  <node id="433486658" version="3" timestamp="2010-09-07T16:54:25Z" uid="43967" user="railsnail" changeset="5709641" lat="46.1081577" lon="11.1117068"/>
</osm>
