<?xml version='1.0' encoding='UTF-8'?>
<osm version="0.6" generator="libosmium/2.20.0">
  <node id="436263678" version="3" timestamp="2009-08-08T15:03:47Z" uid="20587" user="balrog-kun" changeset="2076575" lat="52.2749803" lon="20.9388208">
    <tag k="name" v="Aleja Reymonta 04"/>
    <tag k="railway" v="tram_stop"/>
  </node>
  <node id="436263678" version="4" timestamp="2010-01-12T13:53:36Z" uid="20587" user="balrog-kun" changeset="3603234" lat="52.2749803" lon="20.9388208">
    <tag k="name" v="Aleja Reymonta 04"/>
    <tag k="railway" v="tram_stop"/>
    <tag k="tactile_paving" v="yes"/>
    <tag k="tactile_paving:slab_size" v="40x40"/>
    <tag k="ztm:ciąg_ulicy" v="Broniewskiego"/>
  </node>
  <node id="436266063" version="2" timestamp="2009-08-08T15:03:47Z" uid="20587" user="balrog-kun" changeset="2076575" lat="52.2755639" lon="20.9379901">
    <tag k="name" v="Aleja Reymonta 03"/>
    <tag k="railway" v="tram_stop"/>
  </node>
  <node id="436266063" version="3" timestamp="2010-01-12T13:53:36Z" uid="20587" user="balrog-kun" changeset="3603234" lat="52.2755639" lon="20.9379901">
    <tag k="name" v="Aleja Reymonta 03"/>
    <tag k="railway" v="tram_stop"/>
    <tag k="tactile_paving" v="yes"/>
    <tag k="tactile_paving:slab_size" v="40x40"/>
    <tag k="ztm:ciąg_ulicy" v="Wólczyńska"/>
  </node>
</osm>
