<?xml version='1.0' encoding='UTF-8'?>
<osm version="0.6" generator="libosmium/2.20.0">
  <node id="436961062" version="2" timestamp="2010-06-06T05:23:14Z" uid="20587" user="balrog-kun" changeset="4914567" lat="51.7788935" lon="19.4362247">
    <tag k="denomination" v="catholic"/>
    <tag k="landuse" v="cemetery"/>
    <tag k="name" v="Cmentarz Katolicki"/>
    <tag k="religion" v="christian"/>
  </node>
  <node id="436961062" version="3" timestamp="2011-06-10T22:46:17Z" uid="66036" user="h4v" changeset="8401653" lat="51.7788935" lon="19.4362247">
    <tag k="addr:housenumber" v="39"/>
    <tag k="denomination" v="catholic"/>
    <tag k="landuse" v="cemetery"/>
    <tag k="name" v="Cmentarz Katolicki"/>
    <tag k="religion" v="christian"/>
  </node>
  <node id="436961067" version="2" timestamp="2010-06-06T05:23:10Z" uid="20587" user="balrog-kun" changeset="4914567" lat="51.776833" lon="19.4352891">
    <tag k="denomination" v="orthodox"/>
    <tag k="landuse" v="cemetery"/>
    <tag k="name" v="Cmentarz Prawosławny"/>
    <tag k="religion" v="christian"/>
  </node>
  <node id="436961067" version="3" timestamp="2011-06-10T22:46:13Z" uid="66036" user="h4v" changeset="8401653" lat="51.776833" lon="19.4352891">
    <tag k="denomination" v="orthodox"/>
    <tag k="heritage" v="2"/>
    <tag k="heritage:operator" v="nid"/>
    <tag k="historic" v="heritage"/>
    <tag k="landuse" v="cemetery"/>
    <tag k="name" v="Cmentarz Prawosławny"/>
    <tag k="ref:nid" v="A/275"/>
    <tag k="religion" v="christian"/>
  </node>
  <node id="436961069" version="2" timestamp="2010-06-06T05:23:32Z" uid="20587" user="balrog-kun" changeset="4914567" lat="51.7759461" lon="19.432946">
    <tag k="denomination" v="evangelical"/>
    <tag k="landuse" v="cemetery"/>
    <tag k="name" v="Cmentarz Ewangielicki"/>
    <tag k="religion" v="christian"/>
  </node>
  <node id="436961069" version="3" timestamp="2011-06-10T22:46:17Z" uid="66036" user="h4v" changeset="8401653" lat="51.7761908" lon="19.4337295">
    <tag k="addr:housenumber" v="43"/>
    <tag k="denomination" v="evangelical"/>
    <tag k="heritage" v="2"/>
    <tag k="heritage:operator" v="nid"/>
    <tag k="historic" v="heritage"/>
    <tag k="landuse" v="cemetery"/>
    <tag k="name" v="Cmentarz Ewangielicki"/>
    <tag k="ref:nid" v="A/273"/>
    <tag k="religion" v="christian"/>
  </node>
</osm>
