<?xml version='1.0' encoding='UTF-8'?>
<osm version="0.6" generator="libosmium/2.20.0">
  <node id="437562441" version="1" timestamp="2009-07-08T21:06:00Z" uid="36809" user="pfoten_weg_!_" changeset="1776650" lat="48.0737891" lon="11.53897">
    <tag k="source" v="survey"/>
  </node>
  <node id="437562441" version="2" timestamp="2009-10-13T23:30:57Z" uid="36809" user="pfoten_weg_!_" changeset="2841273" lat="48.0737891" lon="11.53897"/>
  <node id="437562442" version="1" timestamp="2009-07-08T21:06:00Z" uid="36809" user="pfoten_weg_!_" changeset="1776650" lat="48.0727183" lon="11.5391279">
    <tag k="source" v="survey"/>
  </node>
  <node id="437562442" version="2" timestamp="2009-10-13T23:30:36Z" uid="36809" user="pfoten_weg_!_" changeset="2841273" lat="48.0727183" lon="11.5391279"/>
  <node id="437562443" version="1" timestamp="2009-07-08T21:06:00Z" uid="36809" user="pfoten_weg_!_" changeset="1776650" lat="48.0698057" lon="11.5403303"/>
  <node id="437562444" version="1" timestamp="2009-07-08T21:06:00Z" uid="36809" user="pfoten_weg_!_" changeset="1776650" lat="48.0739702" lon="11.5391758">
    <tag k="source" v="survey"/>
  </node>
  <node id="437562444" version="2" timestamp="2009-10-13T23:30:57Z" uid="36809" user="pfoten_weg_!_" changeset="2841273" lat="48.0739702" lon="11.5391758"/>
  <node id="437562445" version="1" timestamp="2009-07-08T21:06:00Z" uid="36809" user="pfoten_weg_!_" changeset="1776650" lat="48.0701072" lon="11.5400389"/>
  <node id="437562446" version="1" timestamp="2009-07-08T21:06:01Z" uid="36809" user="pfoten_weg_!_" changeset="1776650" lat="48.0731925" lon="11.5388461">
    <tag k="source" v="survey"/>
  </node>
  <node id="437562446" version="2" timestamp="2009-10-13T23:30:36Z" uid="36809" user="pfoten_weg_!_" changeset="2841273" lat="48.0731925" lon="11.5388461"/>
  <node id="437562447" version="1" timestamp="2009-07-08T21:06:01Z" uid="36809" user="pfoten_weg_!_" changeset="1776650" lat="48.073045" lon="11.5388171">
    <tag k="source" v="survey"/>
  </node>
  <node id="437562447" version="2" timestamp="2009-10-13T23:30:35Z" uid="36809" user="pfoten_weg_!_" changeset="2841273" lat="48.073045" lon="11.5388171"/>
  <node id="437562448" version="1" timestamp="2009-07-08T21:06:01Z" uid="36809" user="pfoten_weg_!_" changeset="1776650" lat="48.0694139" lon="11.5403203"/>
  <node id="437562449" version="1" timestamp="2009-07-08T21:06:01Z" uid="36809" user="pfoten_weg_!_" changeset="1776650" lat="48.073281" lon="11.5382887">
    <tag k="source" v="survey"/>
  </node>
  <node id="437562449" version="2" timestamp="2009-10-13T23:30:27Z" uid="36809" user="pfoten_weg_!_" changeset="2841273" lat="48.073281" lon="11.5382887"/>
  <node id="437562450" version="1" timestamp="2009-07-08T21:06:01Z" uid="36809" user="pfoten_weg_!_" changeset="1776650" lat="48.0716044" lon="11.5393958"/>
  <node id="437562451" version="1" timestamp="2009-07-08T21:06:01Z" uid="36809" user="pfoten_weg_!_" changeset="1776650" lat="48.0729976" lon="11.538717">
    <tag k="source" v="survey"/>
  </node>
  <node id="437562451" version="2" timestamp="2009-10-13T23:30:35Z" uid="36809" user="pfoten_weg_!_" changeset="2841273" lat="48.0729976" lon="11.538717"/>
  <node id="437562452" version="1" timestamp="2009-07-08T21:06:01Z" uid="36809" user="pfoten_weg_!_" changeset="1776650" lat="48.073332" lon="11.5390489">
    <tag k="source" v="survey"/>
  </node>
  <node id="437562452" version="2" timestamp="2009-10-13T23:30:35Z" uid="36809" user="pfoten_weg_!_" changeset="2841273" lat="48.073332" lon="11.5390489"/>
  <node id="437562453" version="1" timestamp="2009-07-08T21:06:01Z" uid="36809" user="pfoten_weg_!_" changeset="1776650" lat="48.0574272" lon="11.5355443"/>
  <node id="437562454" version="1" timestamp="2009-07-08T21:06:01Z" uid="36809" user="pfoten_weg_!_" changeset="1776650" lat="48.0574548" lon="11.5355264"/>
  <node id="437562455" version="1" timestamp="2009-07-08T21:06:01Z" uid="36809" user="pfoten_weg_!_" changeset="1776650" lat="48.0574571" lon="11.5355435"/>
  <node id="437562456" version="1" timestamp="2009-07-08T21:06:01Z" uid="36809" user="pfoten_weg_!_" changeset="1776650" lat="48.054148" lon="11.5252618"/>
  <node id="437563198" version="1" timestamp="2009-07-08T21:09:11Z" uid="36809" user="pfoten_weg_!_" changeset="1776682" lat="48.0653073" lon="11.5304255">
    <tag k="access" v="private"/>
    <tag k="amenity" v="parking"/>
    <tag k="capacity" v="20"/>
    <tag k="parking" v="surface"/>
    <tag k="source" v="survey"/>
  </node>
  <node id="437563198" version="2" timestamp="2009-10-02T21:24:15Z" uid="86259" user="hasse_osm_korinthenkacker" changeset="2717728" lat="48.0653073" lon="11.5304255">
    <tag k="access" v="private"/>
    <tag k="amenity" v="parking"/>
    <tag k="capacity" v="20"/>
    <tag k="parking" v="surface"/>
  </node>
  <node id="437564236" version="1" timestamp="2009-07-08T21:13:41Z" uid="36809" user="pfoten_weg_!_" changeset="1776707" lat="48.0578905" lon="11.5214618">
    <tag k="amenity" v="post_office"/>
    <tag k="operator" v="Deutsche Post AG"/>
  </node>
  <node id="437564237" version="1" timestamp="2009-07-08T21:13:41Z" uid="36809" user="pfoten_weg_!_" changeset="1776707" lat="48.0581248" lon="11.5242612">
    <tag k="source" v="survey"/>
  </node>
  <node id="437564237" version="2" timestamp="2009-10-02T21:22:58Z" uid="86259" user="hasse_osm_korinthenkacker" changeset="2717728" lat="48.0581248" lon="11.5242612"/>
  <node id="437564238" version="1" timestamp="2009-07-08T21:13:41Z" uid="36809" user="pfoten_weg_!_" changeset="1776707" lat="48.0582051" lon="11.5237806">
    <tag k="source" v="survey"/>
  </node>
  <node id="437564238" version="2" timestamp="2009-10-02T21:22:58Z" uid="86259" user="hasse_osm_korinthenkacker" changeset="2717728" lat="48.0582051" lon="11.5237806"/>
  <node id="437564239" version="1" timestamp="2009-07-08T21:13:41Z" uid="36809" user="pfoten_weg_!_" changeset="1776707" lat="48.0582624" lon="11.5232399">
    <tag k="source" v="survey"/>
  </node>
  <node id="437564239" version="2" timestamp="2009-10-02T21:22:57Z" uid="86259" user="hasse_osm_korinthenkacker" changeset="2717728" lat="48.0582624" lon="11.5232399"/>
  <node id="437564240" version="1" timestamp="2009-07-08T21:13:41Z" uid="36809" user="pfoten_weg_!_" changeset="1776707" lat="48.0579068" lon="11.5252225">
    <tag k="source" v="survey"/>
  </node>
  <node id="437564240" version="2" timestamp="2009-10-02T21:23:30Z" uid="86259" user="hasse_osm_korinthenkacker" changeset="2717728" lat="48.0579068" lon="11.5252225"/>
  <node id="437564241" version="1" timestamp="2009-07-08T21:13:41Z" uid="36809" user="pfoten_weg_!_" changeset="1776707" lat="48.0582624" lon="11.5232999">
    <tag k="source" v="survey"/>
  </node>
  <node id="437564241" version="2" timestamp="2009-10-02T21:22:59Z" uid="86259" user="hasse_osm_korinthenkacker" changeset="2717728" lat="48.0582624" lon="11.5232999"/>
  <node id="437564242" version="1" timestamp="2009-07-08T21:13:41Z" uid="36809" user="pfoten_weg_!_" changeset="1776707" lat="48.0582567" lon="11.5233772">
    <tag k="source" v="survey"/>
  </node>
  <node id="437564242" version="2" timestamp="2009-10-02T21:22:59Z" uid="86259" user="hasse_osm_korinthenkacker" changeset="2717728" lat="48.0582567" lon="11.5233772"/>
  <node id="437564243" version="1" timestamp="2009-07-08T21:13:41Z" uid="36809" user="pfoten_weg_!_" changeset="1776707" lat="48.0579986" lon="11.5248449">
    <tag k="source" v="survey"/>
  </node>
  <node id="437564243" version="2" timestamp="2009-10-02T21:23:30Z" uid="86259" user="hasse_osm_korinthenkacker" changeset="2717728" lat="48.0579986" lon="11.5248449"/>
  <node id="437564245" version="1" timestamp="2009-07-08T21:13:41Z" uid="36809" user="pfoten_weg_!_" changeset="1776707" lat="48.0593274" lon="11.5231583">
    <tag k="source" v="survey"/>
  </node>
  <node id="437564245" version="2" timestamp="2009-10-02T21:23:02Z" uid="86259" user="hasse_osm_korinthenkacker" changeset="2717728" lat="48.0593274" lon="11.5231583"/>
  <node id="437564246" version="1" timestamp="2009-07-08T21:13:41Z" uid="36809" user="pfoten_weg_!_" changeset="1776707" lat="48.0593389" lon="11.5230982">
    <tag k="source" v="survey"/>
  </node>
  <node id="437564246" version="2" timestamp="2009-10-02T21:23:02Z" uid="86259" user="hasse_osm_korinthenkacker" changeset="2717728" lat="48.0593389" lon="11.5230982"/>
  <node id="437564248" version="1" timestamp="2009-07-08T21:13:41Z" uid="36809" user="pfoten_weg_!_" changeset="1776707" lat="48.0593389" lon="11.5230467">
    <tag k="source" v="survey"/>
  </node>
  <node id="437564248" version="2" timestamp="2009-10-02T21:23:02Z" uid="86259" user="hasse_osm_korinthenkacker" changeset="2717728" lat="48.0593389" lon="11.5230467"/>
  <node id="437564251" version="1" timestamp="2009-07-08T21:13:41Z" uid="36809" user="pfoten_weg_!_" changeset="1776707" lat="48.0593217" lon="11.5230038">
    <tag k="source" v="survey"/>
  </node>
  <node id="437564251" version="2" timestamp="2009-10-02T21:23:02Z" uid="86259" user="hasse_osm_korinthenkacker" changeset="2717728" lat="48.0593217" lon="11.5230038"/>
  <node id="437564513" version="1" timestamp="2009-07-08T21:16:44Z" uid="36809" user="pfoten_weg_!_" changeset="1776728" lat="48.0649952" lon="11.5211026">
    <tag k="addr:city" v="Pullach im Isartal"/>
    <tag k="addr:country" v="DE"/>
    <tag k="addr:housename" v="Wohngebäude"/>
    <tag k="addr:housenumber" v="8"/>
    <tag k="addr:postcode" v="82049"/>
    <tag k="addr:street" v="Wurzelseppstraße"/>
    <tag k="name" v="8"/>
    <tag k="source" v="survey"/>
  </node>
  <node id="437564513" version="2" timestamp="2009-07-09T09:29:06Z" uid="36809" user="pfoten_weg_!_" changeset="1779321" lat="48.0649952" lon="11.5211026">
    <tag k="addr:city" v="Pullach im Isartal"/>
    <tag k="addr:country" v="DE"/>
    <tag k="addr:housename" v="Wohngebäude"/>
    <tag k="addr:housenumber" v="8"/>
    <tag k="addr:postcode" v="82049"/>
    <tag k="addr:street" v="Wurzelseppstraße"/>
    <tag k="name" v="8"/>
    <tag k="source" v="survey"/>
  </node>
  <node id="437564513" version="3" timestamp="2009-07-14T16:18:44Z" uid="36809" user="pfoten_weg_!_" changeset="1828190" lat="48.0649952" lon="11.5211026">
    <tag k="addr:city" v="Pullach im Isartal"/>
    <tag k="addr:country" v="DE"/>
    <tag k="addr:housename" v="Wohngebäude"/>
    <tag k="addr:housenumber" v="8"/>
    <tag k="addr:postcode" v="82049"/>
    <tag k="addr:street" v="Wurzelseppstraße"/>
    <tag k="discovered_by" v="RambaZamba"/>
    <tag k="name" v="8"/>
    <tag k="source" v="survey"/>
  </node>
  <node id="437564513" version="5" timestamp="2009-08-17T18:05:25Z" uid="36809" user="pfoten_weg_!_" changeset="2180201" lat="48.0649952" lon="11.5211026">
    <tag k="addr:city" v="Pullach im Isartal"/>
    <tag k="addr:country" v="DE"/>
    <tag k="addr:housename" v="Wohngebäude"/>
    <tag k="addr:housenumber" v="8"/>
    <tag k="addr:postcode" v="82049"/>
    <tag k="addr:street" v="Wurzelseppstraße"/>
    <tag k="name" v="8"/>
    <tag k="source" v="survey"/>
  </node>
  <node id="437564515" version="1" timestamp="2009-07-08T21:16:44Z" uid="36809" user="pfoten_weg_!_" changeset="1776728" lat="48.0650208" lon="11.5219564">
    <tag k="addr:city" v="Pullach im Isartal"/>
    <tag k="addr:country" v="DE"/>
    <tag k="addr:housename" v="Wohngebäude"/>
    <tag k="addr:housenumber" v="24"/>
    <tag k="addr:postcode" v="82049"/>
    <tag k="addr:street" v="Wurzelseppstraße"/>
    <tag k="name" v="24"/>
    <tag k="source" v="survey"/>
  </node>
  <node id="437564515" version="2" timestamp="2009-07-09T09:29:06Z" uid="36809" user="pfoten_weg_!_" changeset="1779321" lat="48.0650208" lon="11.5219564">
    <tag k="addr:city" v="Pullach im Isartal"/>
    <tag k="addr:country" v="DE"/>
    <tag k="addr:housename" v="Wohngebäude"/>
    <tag k="addr:housenumber" v="24"/>
    <tag k="addr:postcode" v="82049"/>
    <tag k="addr:street" v="Wurzelseppstraße"/>
    <tag k="name" v="24"/>
    <tag k="source" v="survey"/>
  </node>
  <node id="437564515" version="3" timestamp="2009-07-14T16:18:44Z" uid="36809" user="pfoten_weg_!_" changeset="1828190" lat="48.0650208" lon="11.5219564">
    <tag k="addr:city" v="Pullach im Isartal"/>
    <tag k="addr:country" v="DE"/>
    <tag k="addr:housename" v="Wohngebäude"/>
    <tag k="addr:housenumber" v="24"/>
    <tag k="addr:postcode" v="82049"/>
    <tag k="addr:street" v="Wurzelseppstraße"/>
    <tag k="discovered_by" v="RambaZamba"/>
    <tag k="name" v="24"/>
    <tag k="source" v="survey"/>
  </node>
  <node id="437564515" version="5" timestamp="2009-08-17T18:05:25Z" uid="36809" user="pfoten_weg_!_" changeset="2180201" lat="48.0650208" lon="11.5219564">
    <tag k="addr:city" v="Pullach im Isartal"/>
    <tag k="addr:country" v="DE"/>
    <tag k="addr:housename" v="Wohngebäude"/>
    <tag k="addr:housenumber" v="24"/>
    <tag k="addr:postcode" v="82049"/>
    <tag k="addr:street" v="Wurzelseppstraße"/>
    <tag k="name" v="24"/>
    <tag k="source" v="survey"/>
  </node>
  <node id="437564516" version="1" timestamp="2009-07-08T21:16:44Z" uid="36809" user="pfoten_weg_!_" changeset="1776728" lat="48.0649936" lon="11.5210228">
    <tag k="addr:city" v="Pullach im Isartal"/>
    <tag k="addr:country" v="DE"/>
    <tag k="addr:housename" v="Wohngebäude"/>
    <tag k="addr:housenumber" v="6"/>
    <tag k="addr:postcode" v="82049"/>
    <tag k="addr:street" v="Wurzelseppstraße"/>
    <tag k="name" v="6"/>
    <tag k="source" v="survey"/>
  </node>
  <node id="437564516" version="2" timestamp="2009-07-09T09:29:06Z" uid="36809" user="pfoten_weg_!_" changeset="1779321" lat="48.0649936" lon="11.5210228">
    <tag k="addr:city" v="Pullach im Isartal"/>
    <tag k="addr:country" v="DE"/>
    <tag k="addr:housename" v="Wohngebäude"/>
    <tag k="addr:housenumber" v="6"/>
    <tag k="addr:postcode" v="82049"/>
    <tag k="addr:street" v="Wurzelseppstraße"/>
    <tag k="name" v="6"/>
    <tag k="source" v="survey"/>
  </node>
  <node id="437564516" version="3" timestamp="2009-07-14T16:18:44Z" uid="36809" user="pfoten_weg_!_" changeset="1828190" lat="48.0649936" lon="11.5210228">
    <tag k="addr:city" v="Pullach im Isartal"/>
    <tag k="addr:country" v="DE"/>
    <tag k="addr:housename" v="Wohngebäude"/>
    <tag k="addr:housenumber" v="6"/>
    <tag k="addr:postcode" v="82049"/>
    <tag k="addr:street" v="Wurzelseppstraße"/>
    <tag k="discovered_by" v="RambaZamba"/>
    <tag k="name" v="6"/>
    <tag k="source" v="survey"/>
  </node>
  <node id="437564516" version="5" timestamp="2009-08-17T18:05:24Z" uid="36809" user="pfoten_weg_!_" changeset="2180201" lat="48.0649936" lon="11.5210228">
    <tag k="addr:city" v="Pullach im Isartal"/>
    <tag k="addr:country" v="DE"/>
    <tag k="addr:housename" v="Wohngebäude"/>
    <tag k="addr:housenumber" v="6"/>
    <tag k="addr:postcode" v="82049"/>
    <tag k="addr:street" v="Wurzelseppstraße"/>
    <tag k="name" v="6"/>
    <tag k="source" v="survey"/>
  </node>
  <node id="437564518" version="1" timestamp="2009-07-08T21:16:44Z" uid="36809" user="pfoten_weg_!_" changeset="1776728" lat="48.065022" lon="11.5218651">
    <tag k="addr:city" v="Pullach im Isartal"/>
    <tag k="addr:country" v="DE"/>
    <tag k="addr:housename" v="Wohngebäude"/>
    <tag k="addr:housenumber" v="22"/>
    <tag k="addr:postcode" v="82049"/>
    <tag k="addr:street" v="Wurzelseppstraße"/>
    <tag k="name" v="22"/>
    <tag k="source" v="survey"/>
  </node>
  <node id="437564518" version="2" timestamp="2009-07-09T09:29:06Z" uid="36809" user="pfoten_weg_!_" changeset="1779321" lat="48.065022" lon="11.5218651">
    <tag k="addr:city" v="Pullach im Isartal"/>
    <tag k="addr:country" v="DE"/>
    <tag k="addr:housename" v="Wohngebäude"/>
    <tag k="addr:housenumber" v="22"/>
    <tag k="addr:postcode" v="82049"/>
    <tag k="addr:street" v="Wurzelseppstraße"/>
    <tag k="name" v="22"/>
    <tag k="source" v="survey"/>
  </node>
  <node id="437564518" version="3" timestamp="2009-07-14T16:18:44Z" uid="36809" user="pfoten_weg_!_" changeset="1828190" lat="48.065022" lon="11.5218651">
    <tag k="addr:city" v="Pullach im Isartal"/>
    <tag k="addr:country" v="DE"/>
    <tag k="addr:housename" v="Wohngebäude"/>
    <tag k="addr:housenumber" v="22"/>
    <tag k="addr:postcode" v="82049"/>
    <tag k="addr:street" v="Wurzelseppstraße"/>
    <tag k="discovered_by" v="RambaZamba"/>
    <tag k="name" v="22"/>
    <tag k="source" v="survey"/>
  </node>
  <node id="437564518" version="5" timestamp="2009-08-17T18:05:24Z" uid="36809" user="pfoten_weg_!_" changeset="2180201" lat="48.065022" lon="11.5218651">
    <tag k="addr:city" v="Pullach im Isartal"/>
    <tag k="addr:country" v="DE"/>
    <tag k="addr:housename" v="Wohngebäude"/>
    <tag k="addr:housenumber" v="22"/>
    <tag k="addr:postcode" v="82049"/>
    <tag k="addr:street" v="Wurzelseppstraße"/>
    <tag k="name" v="22"/>
    <tag k="source" v="survey"/>
  </node>
  <node id="437564520" version="1" timestamp="2009-07-08T21:16:44Z" uid="36809" user="pfoten_weg_!_" changeset="1776728" lat="48.064992" lon="11.520943">
    <tag k="addr:city" v="Pullach im Isartal"/>
    <tag k="addr:country" v="DE"/>
    <tag k="addr:housename" v="Wohngebäude"/>
    <tag k="addr:housenumber" v="4"/>
    <tag k="addr:postcode" v="82049"/>
    <tag k="addr:street" v="Wurzelseppstraße"/>
    <tag k="name" v="4"/>
    <tag k="source" v="survey"/>
  </node>
  <node id="437564520" version="2" timestamp="2009-07-09T09:29:05Z" uid="36809" user="pfoten_weg_!_" changeset="1779321" lat="48.064992" lon="11.520943">
    <tag k="addr:city" v="Pullach im Isartal"/>
    <tag k="addr:country" v="DE"/>
    <tag k="addr:housename" v="Wohngebäude"/>
    <tag k="addr:housenumber" v="4"/>
    <tag k="addr:postcode" v="82049"/>
    <tag k="addr:street" v="Wurzelseppstraße"/>
    <tag k="name" v="4"/>
    <tag k="source" v="survey"/>
  </node>
  <node id="437564520" version="3" timestamp="2009-07-14T16:18:43Z" uid="36809" user="pfoten_weg_!_" changeset="1828190" lat="48.064992" lon="11.520943">
    <tag k="addr:city" v="Pullach im Isartal"/>
    <tag k="addr:country" v="DE"/>
    <tag k="addr:housename" v="Wohngebäude"/>
    <tag k="addr:housenumber" v="4"/>
    <tag k="addr:postcode" v="82049"/>
    <tag k="addr:street" v="Wurzelseppstraße"/>
    <tag k="discovered_by" v="RambaZamba"/>
    <tag k="name" v="4"/>
    <tag k="source" v="survey"/>
  </node>
  <node id="437564520" version="5" timestamp="2009-08-17T18:05:27Z" uid="36809" user="pfoten_weg_!_" changeset="2180201" lat="48.064992" lon="11.520943">
    <tag k="addr:city" v="Pullach im Isartal"/>
    <tag k="addr:country" v="DE"/>
    <tag k="addr:housename" v="Wohngebäude"/>
    <tag k="addr:housenumber" v="4"/>
    <tag k="addr:postcode" v="82049"/>
    <tag k="addr:street" v="Wurzelseppstraße"/>
    <tag k="name" v="4"/>
    <tag k="source" v="survey"/>
  </node>
  <node id="437564521" version="1" timestamp="2009-07-08T21:16:44Z" uid="36809" user="pfoten_weg_!_" changeset="1776728" lat="48.0650233" lon="11.5217739">
    <tag k="addr:city" v="Pullach im Isartal"/>
    <tag k="addr:country" v="DE"/>
    <tag k="addr:housename" v="Wohngebäude"/>
    <tag k="addr:housenumber" v="20"/>
    <tag k="addr:postcode" v="82049"/>
    <tag k="addr:street" v="Wurzelseppstraße"/>
    <tag k="name" v="20"/>
    <tag k="source" v="survey"/>
  </node>
  <node id="437564521" version="2" timestamp="2009-07-09T09:29:05Z" uid="36809" user="pfoten_weg_!_" changeset="1779321" lat="48.0650233" lon="11.5217739">
    <tag k="addr:city" v="Pullach im Isartal"/>
    <tag k="addr:country" v="DE"/>
    <tag k="addr:housename" v="Wohngebäude"/>
    <tag k="addr:housenumber" v="20"/>
    <tag k="addr:postcode" v="82049"/>
    <tag k="addr:street" v="Wurzelseppstraße"/>
    <tag k="name" v="20"/>
    <tag k="source" v="survey"/>
  </node>
  <node id="437564521" version="3" timestamp="2009-07-14T16:18:43Z" uid="36809" user="pfoten_weg_!_" changeset="1828190" lat="48.0650233" lon="11.5217739">
    <tag k="addr:city" v="Pullach im Isartal"/>
    <tag k="addr:country" v="DE"/>
    <tag k="addr:housename" v="Wohngebäude"/>
    <tag k="addr:housenumber" v="20"/>
    <tag k="addr:postcode" v="82049"/>
    <tag k="addr:street" v="Wurzelseppstraße"/>
    <tag k="discovered_by" v="RambaZamba"/>
    <tag k="name" v="20"/>
    <tag k="source" v="survey"/>
  </node>
  <node id="437564521" version="5" timestamp="2009-08-17T18:05:27Z" uid="36809" user="pfoten_weg_!_" changeset="2180201" lat="48.0650233" lon="11.5217739">
    <tag k="addr:city" v="Pullach im Isartal"/>
    <tag k="addr:country" v="DE"/>
    <tag k="addr:housename" v="Wohngebäude"/>
    <tag k="addr:housenumber" v="20"/>
    <tag k="addr:postcode" v="82049"/>
    <tag k="addr:street" v="Wurzelseppstraße"/>
    <tag k="name" v="20"/>
    <tag k="source" v="survey"/>
  </node>
  <node id="437564523" version="1" timestamp="2009-07-08T21:16:45Z" uid="36809" user="pfoten_weg_!_" changeset="1776728" lat="48.0650353" lon="11.5223836">
    <tag k="addr:city" v="Pullach im Isartal"/>
    <tag k="addr:country" v="DE"/>
    <tag k="addr:housename" v="Wohngebäude"/>
    <tag k="addr:housenumber" v="30"/>
    <tag k="addr:postcode" v="82049"/>
    <tag k="addr:street" v="Wurzelseppstraße"/>
    <tag k="name" v="30"/>
    <tag k="source" v="survey"/>
  </node>
  <node id="437564523" version="2" timestamp="2009-07-09T09:29:05Z" uid="36809" user="pfoten_weg_!_" changeset="1779321" lat="48.0650353" lon="11.5223836">
    <tag k="addr:city" v="Pullach im Isartal"/>
    <tag k="addr:country" v="DE"/>
    <tag k="addr:housename" v="Wohngebäude"/>
    <tag k="addr:housenumber" v="30"/>
    <tag k="addr:postcode" v="82049"/>
    <tag k="addr:street" v="Wurzelseppstraße"/>
    <tag k="name" v="30"/>
    <tag k="source" v="survey"/>
  </node>
  <node id="437564523" version="3" timestamp="2009-07-14T16:18:43Z" uid="36809" user="pfoten_weg_!_" changeset="1828190" lat="48.0650353" lon="11.5223836">
    <tag k="addr:city" v="Pullach im Isartal"/>
    <tag k="addr:country" v="DE"/>
    <tag k="addr:housename" v="Wohngebäude"/>
    <tag k="addr:housenumber" v="30"/>
    <tag k="addr:postcode" v="82049"/>
    <tag k="addr:street" v="Wurzelseppstraße"/>
    <tag k="discovered_by" v="RambaZamba"/>
    <tag k="name" v="30"/>
    <tag k="source" v="survey"/>
  </node>
  <node id="437564523" version="5" timestamp="2009-08-17T18:05:27Z" uid="36809" user="pfoten_weg_!_" changeset="2180201" lat="48.0650353" lon="11.5223836">
    <tag k="addr:city" v="Pullach im Isartal"/>
    <tag k="addr:country" v="DE"/>
    <tag k="addr:housename" v="Wohngebäude"/>
    <tag k="addr:housenumber" v="30"/>
    <tag k="addr:postcode" v="82049"/>
    <tag k="addr:street" v="Wurzelseppstraße"/>
    <tag k="name" v="30"/>
    <tag k="source" v="survey"/>
  </node>
  <node id="437564524" version="1" timestamp="2009-07-08T21:16:45Z" uid="36809" user="pfoten_weg_!_" changeset="1776728" lat="48.0650245" lon="11.5216826">
    <tag k="addr:city" v="Pullach im Isartal"/>
    <tag k="addr:country" v="DE"/>
    <tag k="addr:housename" v="Wohngebäude"/>
    <tag k="addr:housenumber" v="18"/>
    <tag k="addr:postcode" v="82049"/>
    <tag k="addr:street" v="Wurzelseppstraße"/>
    <tag k="name" v="18"/>
    <tag k="source" v="survey"/>
  </node>
  <node id="437564524" version="2" timestamp="2009-07-09T09:29:06Z" uid="36809" user="pfoten_weg_!_" changeset="1779321" lat="48.0650245" lon="11.5216826">
    <tag k="addr:city" v="Pullach im Isartal"/>
    <tag k="addr:country" v="DE"/>
    <tag k="addr:housename" v="Wohngebäude"/>
    <tag k="addr:housenumber" v="18"/>
    <tag k="addr:postcode" v="82049"/>
    <tag k="addr:street" v="Wurzelseppstraße"/>
    <tag k="name" v="18"/>
    <tag k="source" v="survey"/>
  </node>
  <node id="437564524" version="3" timestamp="2009-07-14T16:18:44Z" uid="36809" user="pfoten_weg_!_" changeset="1828190" lat="48.0650245" lon="11.5216826">
    <tag k="addr:city" v="Pullach im Isartal"/>
    <tag k="addr:country" v="DE"/>
    <tag k="addr:housename" v="Wohngebäude"/>
    <tag k="addr:housenumber" v="18"/>
    <tag k="addr:postcode" v="82049"/>
    <tag k="addr:street" v="Wurzelseppstraße"/>
    <tag k="discovered_by" v="RambaZamba"/>
    <tag k="name" v="18"/>
    <tag k="source" v="survey"/>
  </node>
  <node id="437564524" version="5" timestamp="2009-08-17T18:05:26Z" uid="36809" user="pfoten_weg_!_" changeset="2180201" lat="48.0650245" lon="11.5216826">
    <tag k="addr:city" v="Pullach im Isartal"/>
    <tag k="addr:country" v="DE"/>
    <tag k="addr:housename" v="Wohngebäude"/>
    <tag k="addr:housenumber" v="18"/>
    <tag k="addr:postcode" v="82049"/>
    <tag k="addr:street" v="Wurzelseppstraße"/>
    <tag k="name" v="18"/>
    <tag k="source" v="survey"/>
  </node>
  <node id="437564526" version="1" timestamp="2009-07-08T21:16:45Z" uid="36809" user="pfoten_weg_!_" changeset="1776728" lat="48.0650258" lon="11.5215914">
    <tag k="addr:city" v="Pullach im Isartal"/>
    <tag k="addr:country" v="DE"/>
    <tag k="addr:housename" v="Wohngebäude"/>
    <tag k="addr:housenumber" v="16"/>
    <tag k="addr:postcode" v="82049"/>
    <tag k="addr:street" v="Wurzelseppstraße"/>
    <tag k="name" v="16"/>
    <tag k="source" v="survey"/>
  </node>
  <node id="437564526" version="2" timestamp="2009-07-09T09:29:05Z" uid="36809" user="pfoten_weg_!_" changeset="1779321" lat="48.0650258" lon="11.5215914">
    <tag k="addr:city" v="Pullach im Isartal"/>
    <tag k="addr:country" v="DE"/>
    <tag k="addr:housename" v="Wohngebäude"/>
    <tag k="addr:housenumber" v="16"/>
    <tag k="addr:postcode" v="82049"/>
    <tag k="addr:street" v="Wurzelseppstraße"/>
    <tag k="name" v="16"/>
    <tag k="source" v="survey"/>
  </node>
  <node id="437564526" version="3" timestamp="2009-07-14T16:18:44Z" uid="36809" user="pfoten_weg_!_" changeset="1828190" lat="48.0650258" lon="11.5215914">
    <tag k="addr:city" v="Pullach im Isartal"/>
    <tag k="addr:country" v="DE"/>
    <tag k="addr:housename" v="Wohngebäude"/>
    <tag k="addr:housenumber" v="16"/>
    <tag k="addr:postcode" v="82049"/>
    <tag k="addr:street" v="Wurzelseppstraße"/>
    <tag k="discovered_by" v="RambaZamba"/>
    <tag k="name" v="16"/>
    <tag k="source" v="survey"/>
  </node>
  <node id="437564526" version="5" timestamp="2009-08-17T18:05:26Z" uid="36809" user="pfoten_weg_!_" changeset="2180201" lat="48.0650258" lon="11.5215914">
    <tag k="addr:city" v="Pullach im Isartal"/>
    <tag k="addr:country" v="DE"/>
    <tag k="addr:housename" v="Wohngebäude"/>
    <tag k="addr:housenumber" v="16"/>
    <tag k="addr:postcode" v="82049"/>
    <tag k="addr:street" v="Wurzelseppstraße"/>
    <tag k="name" v="16"/>
    <tag k="source" v="survey"/>
  </node>
  <node id="437564527" version="1" timestamp="2009-07-08T21:16:45Z" uid="36809" user="pfoten_weg_!_" changeset="1776728" lat="48.0650389" lon="11.522286">
    <tag k="addr:city" v="Pullach im Isartal"/>
    <tag k="addr:country" v="DE"/>
    <tag k="addr:housename" v="Wohngebäude"/>
    <tag k="addr:housenumber" v="28"/>
    <tag k="addr:postcode" v="82049"/>
    <tag k="addr:street" v="Wurzelseppstraße"/>
    <tag k="name" v="28"/>
    <tag k="source" v="survey"/>
  </node>
  <node id="437564527" version="2" timestamp="2009-07-09T09:29:05Z" uid="36809" user="pfoten_weg_!_" changeset="1779321" lat="48.0650389" lon="11.522286">
    <tag k="addr:city" v="Pullach im Isartal"/>
    <tag k="addr:country" v="DE"/>
    <tag k="addr:housename" v="Wohngebäude"/>
    <tag k="addr:housenumber" v="28"/>
    <tag k="addr:postcode" v="82049"/>
    <tag k="addr:street" v="Wurzelseppstraße"/>
    <tag k="name" v="28"/>
    <tag k="source" v="survey"/>
  </node>
  <node id="437564527" version="3" timestamp="2009-07-14T16:18:43Z" uid="36809" user="pfoten_weg_!_" changeset="1828190" lat="48.0650389" lon="11.522286">
    <tag k="addr:city" v="Pullach im Isartal"/>
    <tag k="addr:country" v="DE"/>
    <tag k="addr:housename" v="Wohngebäude"/>
    <tag k="addr:housenumber" v="28"/>
    <tag k="addr:postcode" v="82049"/>
    <tag k="addr:street" v="Wurzelseppstraße"/>
    <tag k="discovered_by" v="RambaZamba"/>
    <tag k="name" v="28"/>
    <tag k="source" v="survey"/>
  </node>
  <node id="437564527" version="5" timestamp="2009-08-17T18:05:26Z" uid="36809" user="pfoten_weg_!_" changeset="2180201" lat="48.0650389" lon="11.522286">
    <tag k="addr:city" v="Pullach im Isartal"/>
    <tag k="addr:country" v="DE"/>
    <tag k="addr:housename" v="Wohngebäude"/>
    <tag k="addr:housenumber" v="28"/>
    <tag k="addr:postcode" v="82049"/>
    <tag k="addr:street" v="Wurzelseppstraße"/>
    <tag k="name" v="28"/>
    <tag k="source" v="survey"/>
  </node>
  <node id="437564529" version="1" timestamp="2009-07-08T21:16:45Z" uid="36809" user="pfoten_weg_!_" changeset="1776728" lat="48.065" lon="11.521342">
    <tag k="addr:city" v="Pullach im Isartal"/>
    <tag k="addr:country" v="DE"/>
    <tag k="addr:housename" v="Wohngebäude"/>
    <tag k="addr:housenumber" v="14"/>
    <tag k="addr:postcode" v="82049"/>
    <tag k="addr:street" v="Wurzelseppstraße"/>
    <tag k="name" v="14"/>
    <tag k="source" v="survey"/>
  </node>
  <node id="437564529" version="2" timestamp="2009-07-09T09:29:06Z" uid="36809" user="pfoten_weg_!_" changeset="1779321" lat="48.065" lon="11.521342">
    <tag k="addr:city" v="Pullach im Isartal"/>
    <tag k="addr:country" v="DE"/>
    <tag k="addr:housename" v="Wohngebäude"/>
    <tag k="addr:housenumber" v="14"/>
    <tag k="addr:postcode" v="82049"/>
    <tag k="addr:street" v="Wurzelseppstraße"/>
    <tag k="name" v="14"/>
    <tag k="source" v="survey"/>
  </node>
  <node id="437564529" version="3" timestamp="2009-07-14T16:18:44Z" uid="36809" user="pfoten_weg_!_" changeset="1828190" lat="48.065" lon="11.521342">
    <tag k="addr:city" v="Pullach im Isartal"/>
    <tag k="addr:country" v="DE"/>
    <tag k="addr:housename" v="Wohngebäude"/>
    <tag k="addr:housenumber" v="14"/>
    <tag k="addr:postcode" v="82049"/>
    <tag k="addr:street" v="Wurzelseppstraße"/>
    <tag k="discovered_by" v="RambaZamba"/>
    <tag k="name" v="14"/>
    <tag k="source" v="survey"/>
  </node>
  <node id="437564529" version="5" timestamp="2009-08-17T18:05:23Z" uid="36809" user="pfoten_weg_!_" changeset="2180201" lat="48.065" lon="11.521342">
    <tag k="addr:city" v="Pullach im Isartal"/>
    <tag k="addr:country" v="DE"/>
    <tag k="addr:housename" v="Wohngebäude"/>
    <tag k="addr:housenumber" v="14"/>
    <tag k="addr:postcode" v="82049"/>
    <tag k="addr:street" v="Wurzelseppstraße"/>
    <tag k="name" v="14"/>
    <tag k="source" v="survey"/>
  </node>
  <node id="437564530" version="1" timestamp="2009-07-08T21:16:45Z" uid="36809" user="pfoten_weg_!_" changeset="1776728" lat="48.065028" lon="11.522579">
    <tag k="addr:city" v="Pullach im Isartal"/>
    <tag k="addr:country" v="DE"/>
    <tag k="addr:housename" v="Wohngebäude"/>
    <tag k="addr:housenumber" v="34"/>
    <tag k="addr:postcode" v="82049"/>
    <tag k="addr:street" v="Wurzelseppstraße"/>
    <tag k="name" v="34"/>
    <tag k="source" v="survey"/>
  </node>
  <node id="437564530" version="2" timestamp="2009-07-09T09:29:06Z" uid="36809" user="pfoten_weg_!_" changeset="1779321" lat="48.065028" lon="11.522579">
    <tag k="addr:city" v="Pullach im Isartal"/>
    <tag k="addr:country" v="DE"/>
    <tag k="addr:housename" v="Wohngebäude"/>
    <tag k="addr:housenumber" v="34"/>
    <tag k="addr:postcode" v="82049"/>
    <tag k="addr:street" v="Wurzelseppstraße"/>
    <tag k="name" v="34"/>
    <tag k="source" v="survey"/>
  </node>
  <node id="437564530" version="3" timestamp="2009-07-14T16:18:44Z" uid="36809" user="pfoten_weg_!_" changeset="1828190" lat="48.065028" lon="11.522579">
    <tag k="addr:city" v="Pullach im Isartal"/>
    <tag k="addr:country" v="DE"/>
    <tag k="addr:housename" v="Wohngebäude"/>
    <tag k="addr:housenumber" v="34"/>
    <tag k="addr:postcode" v="82049"/>
    <tag k="addr:street" v="Wurzelseppstraße"/>
    <tag k="discovered_by" v="RambaZamba"/>
    <tag k="name" v="34"/>
    <tag k="source" v="survey"/>
  </node>
  <node id="437564530" version="5" timestamp="2009-08-17T18:05:23Z" uid="36809" user="pfoten_weg_!_" changeset="2180201" lat="48.065028" lon="11.522579">
    <tag k="addr:city" v="Pullach im Isartal"/>
    <tag k="addr:country" v="DE"/>
    <tag k="addr:housename" v="Wohngebäude"/>
    <tag k="addr:housenumber" v="34"/>
    <tag k="addr:postcode" v="82049"/>
    <tag k="addr:street" v="Wurzelseppstraße"/>
    <tag k="name" v="34"/>
    <tag k="source" v="survey"/>
  </node>
  <node id="437564532" version="1" timestamp="2009-07-08T21:16:45Z" uid="36809" user="pfoten_weg_!_" changeset="1776728" lat="48.0650425" lon="11.5221883">
    <tag k="addr:city" v="Pullach im Isartal"/>
    <tag k="addr:country" v="DE"/>
    <tag k="addr:housename" v="Wohngebäude"/>
    <tag k="addr:housenumber" v="26"/>
    <tag k="addr:postcode" v="82049"/>
    <tag k="addr:street" v="Wurzelseppstraße"/>
    <tag k="name" v="26"/>
    <tag k="source" v="survey"/>
  </node>
  <node id="437564532" version="2" timestamp="2009-07-09T09:29:07Z" uid="36809" user="pfoten_weg_!_" changeset="1779321" lat="48.0650425" lon="11.5221883">
    <tag k="addr:city" v="Pullach im Isartal"/>
    <tag k="addr:country" v="DE"/>
    <tag k="addr:housename" v="Wohngebäude"/>
    <tag k="addr:housenumber" v="26"/>
    <tag k="addr:postcode" v="82049"/>
    <tag k="addr:street" v="Wurzelseppstraße"/>
    <tag k="name" v="26"/>
    <tag k="source" v="survey"/>
  </node>
  <node id="437564532" version="3" timestamp="2009-07-14T16:18:45Z" uid="36809" user="pfoten_weg_!_" changeset="1828190" lat="48.0650425" lon="11.5221883">
    <tag k="addr:city" v="Pullach im Isartal"/>
    <tag k="addr:country" v="DE"/>
    <tag k="addr:housename" v="Wohngebäude"/>
    <tag k="addr:housenumber" v="26"/>
    <tag k="addr:postcode" v="82049"/>
    <tag k="addr:street" v="Wurzelseppstraße"/>
    <tag k="discovered_by" v="RambaZamba"/>
    <tag k="name" v="26"/>
    <tag k="source" v="survey"/>
  </node>
  <node id="437564532" version="5" timestamp="2009-08-17T18:05:22Z" uid="36809" user="pfoten_weg_!_" changeset="2180201" lat="48.0650425" lon="11.5221883">
    <tag k="addr:city" v="Pullach im Isartal"/>
    <tag k="addr:country" v="DE"/>
    <tag k="addr:housename" v="Wohngebäude"/>
    <tag k="addr:housenumber" v="26"/>
    <tag k="addr:postcode" v="82049"/>
    <tag k="addr:street" v="Wurzelseppstraße"/>
    <tag k="name" v="26"/>
    <tag k="source" v="survey"/>
  </node>
  <node id="437564533" version="1" timestamp="2009-07-08T21:16:45Z" uid="36809" user="pfoten_weg_!_" changeset="1776728" lat="48.0650317" lon="11.5224813">
    <tag k="addr:city" v="Pullach im Isartal"/>
    <tag k="addr:country" v="DE"/>
    <tag k="addr:housename" v="Wohngebäude"/>
    <tag k="addr:housenumber" v="32"/>
    <tag k="addr:postcode" v="82049"/>
    <tag k="addr:street" v="Wurzelseppstraße"/>
    <tag k="name" v="32"/>
    <tag k="source" v="survey"/>
  </node>
  <node id="437564533" version="2" timestamp="2009-07-09T09:29:07Z" uid="36809" user="pfoten_weg_!_" changeset="1779321" lat="48.0650317" lon="11.5224813">
    <tag k="addr:city" v="Pullach im Isartal"/>
    <tag k="addr:country" v="DE"/>
    <tag k="addr:housename" v="Wohngebäude"/>
    <tag k="addr:housenumber" v="32"/>
    <tag k="addr:postcode" v="82049"/>
    <tag k="addr:street" v="Wurzelseppstraße"/>
    <tag k="name" v="32"/>
    <tag k="source" v="survey"/>
  </node>
  <node id="437564533" version="3" timestamp="2009-07-14T16:18:45Z" uid="36809" user="pfoten_weg_!_" changeset="1828190" lat="48.0650317" lon="11.5224813">
    <tag k="addr:city" v="Pullach im Isartal"/>
    <tag k="addr:country" v="DE"/>
    <tag k="addr:housename" v="Wohngebäude"/>
    <tag k="addr:housenumber" v="32"/>
    <tag k="addr:postcode" v="82049"/>
    <tag k="addr:street" v="Wurzelseppstraße"/>
    <tag k="discovered_by" v="RambaZamba"/>
    <tag k="name" v="32"/>
    <tag k="source" v="survey"/>
  </node>
  <node id="437564533" version="5" timestamp="2009-08-17T18:05:22Z" uid="36809" user="pfoten_weg_!_" changeset="2180201" lat="48.0650317" lon="11.5224813">
    <tag k="addr:city" v="Pullach im Isartal"/>
    <tag k="addr:country" v="DE"/>
    <tag k="addr:housename" v="Wohngebäude"/>
    <tag k="addr:housenumber" v="32"/>
    <tag k="addr:postcode" v="82049"/>
    <tag k="addr:street" v="Wurzelseppstraße"/>
    <tag k="name" v="32"/>
    <tag k="source" v="survey"/>
  </node>
  <node id="437564534" version="1" timestamp="2009-07-08T21:16:45Z" uid="36809" user="pfoten_weg_!_" changeset="1776728" lat="48.0649984" lon="11.5212622">
    <tag k="addr:city" v="Pullach im Isartal"/>
    <tag k="addr:country" v="DE"/>
    <tag k="addr:housename" v="Wohngebäude"/>
    <tag k="addr:housenumber" v="12"/>
    <tag k="addr:postcode" v="82049"/>
    <tag k="addr:street" v="Wurzelseppstraße"/>
    <tag k="name" v="12"/>
    <tag k="source" v="survey"/>
  </node>
  <node id="437564534" version="2" timestamp="2009-07-09T09:29:07Z" uid="36809" user="pfoten_weg_!_" changeset="1779321" lat="48.0649984" lon="11.5212622">
    <tag k="addr:city" v="Pullach im Isartal"/>
    <tag k="addr:country" v="DE"/>
    <tag k="addr:housename" v="Wohngebäude"/>
    <tag k="addr:housenumber" v="12"/>
    <tag k="addr:postcode" v="82049"/>
    <tag k="addr:street" v="Wurzelseppstraße"/>
    <tag k="name" v="12"/>
    <tag k="source" v="survey"/>
  </node>
  <node id="437564534" version="3" timestamp="2009-07-14T16:18:44Z" uid="36809" user="pfoten_weg_!_" changeset="1828190" lat="48.0649984" lon="11.5212622">
    <tag k="addr:city" v="Pullach im Isartal"/>
    <tag k="addr:country" v="DE"/>
    <tag k="addr:housename" v="Wohngebäude"/>
    <tag k="addr:housenumber" v="12"/>
    <tag k="addr:postcode" v="82049"/>
    <tag k="addr:street" v="Wurzelseppstraße"/>
    <tag k="discovered_by" v="RambaZamba"/>
    <tag k="name" v="12"/>
    <tag k="source" v="survey"/>
  </node>
  <node id="437564534" version="5" timestamp="2009-08-17T18:05:22Z" uid="36809" user="pfoten_weg_!_" changeset="2180201" lat="48.0649984" lon="11.5212622">
    <tag k="addr:city" v="Pullach im Isartal"/>
    <tag k="addr:country" v="DE"/>
    <tag k="addr:housename" v="Wohngebäude"/>
    <tag k="addr:housenumber" v="12"/>
    <tag k="addr:postcode" v="82049"/>
    <tag k="addr:street" v="Wurzelseppstraße"/>
    <tag k="name" v="12"/>
    <tag k="source" v="survey"/>
  </node>
  <node id="437564536" version="1" timestamp="2009-07-08T21:16:45Z" uid="36809" user="pfoten_weg_!_" changeset="1776728" lat="48.0649968" lon="11.5211824">
    <tag k="addr:city" v="Pullach im Isartal"/>
    <tag k="addr:country" v="DE"/>
    <tag k="addr:housename" v="Wohngebäude"/>
    <tag k="addr:housenumber" v="10"/>
    <tag k="addr:postcode" v="82049"/>
    <tag k="addr:street" v="Wurzelseppstraße"/>
    <tag k="name" v="10"/>
    <tag k="source" v="survey"/>
  </node>
  <node id="437564536" version="2" timestamp="2009-07-09T09:29:06Z" uid="36809" user="pfoten_weg_!_" changeset="1779321" lat="48.0649968" lon="11.5211824">
    <tag k="addr:city" v="Pullach im Isartal"/>
    <tag k="addr:country" v="DE"/>
    <tag k="addr:housename" v="Wohngebäude"/>
    <tag k="addr:housenumber" v="10"/>
    <tag k="addr:postcode" v="82049"/>
    <tag k="addr:street" v="Wurzelseppstraße"/>
    <tag k="name" v="10"/>
    <tag k="source" v="survey"/>
  </node>
  <node id="437564536" version="3" timestamp="2009-07-14T16:18:44Z" uid="36809" user="pfoten_weg_!_" changeset="1828190" lat="48.0649968" lon="11.5211824">
    <tag k="addr:city" v="Pullach im Isartal"/>
    <tag k="addr:country" v="DE"/>
    <tag k="addr:housename" v="Wohngebäude"/>
    <tag k="addr:housenumber" v="10"/>
    <tag k="addr:postcode" v="82049"/>
    <tag k="addr:street" v="Wurzelseppstraße"/>
    <tag k="discovered_by" v="RambaZamba"/>
    <tag k="name" v="10"/>
    <tag k="source" v="survey"/>
  </node>
  <node id="437564536" version="5" timestamp="2009-08-17T18:05:23Z" uid="36809" user="pfoten_weg_!_" changeset="2180201" lat="48.0649968" lon="11.5211824">
    <tag k="addr:city" v="Pullach im Isartal"/>
    <tag k="addr:country" v="DE"/>
    <tag k="addr:housename" v="Wohngebäude"/>
    <tag k="addr:housenumber" v="10"/>
    <tag k="addr:postcode" v="82049"/>
    <tag k="addr:street" v="Wurzelseppstraße"/>
    <tag k="name" v="10"/>
    <tag k="source" v="survey"/>
  </node>
  <node id="437564773" version="1" timestamp="2009-07-08T21:19:13Z" uid="36809" user="pfoten_weg_!_" changeset="1776744" lat="48.066868" lon="11.5262015"/>
  <node id="437564773" version="2" timestamp="2009-09-29T14:28:59Z" uid="36809" user="pfoten_weg_!_" changeset="2677781" lat="48.0668041" lon="11.5260603"/>
  <node id="437564774" version="1" timestamp="2009-07-08T21:19:13Z" uid="36809" user="pfoten_weg_!_" changeset="1776744" lat="48.0670956" lon="11.5263185"/>
  <node id="437564774" version="2" timestamp="2009-09-29T14:28:59Z" uid="36809" user="pfoten_weg_!_" changeset="2677781" lat="48.0670691" lon="11.5261167"/>
  <node id="437564775" version="1" timestamp="2009-07-08T21:19:14Z" uid="36809" user="pfoten_weg_!_" changeset="1776744" lat="48.0670303" lon="11.5271506"/>
  <node id="437564775" version="2" timestamp="2009-09-29T14:29:01Z" uid="36809" user="pfoten_weg_!_" changeset="2677781" lat="48.0670015" lon="11.5271494"/>
  <node id="437564776" version="1" timestamp="2009-07-08T21:19:14Z" uid="36809" user="pfoten_weg_!_" changeset="1776744" lat="48.0669808" lon="11.5271654"/>
  <node id="437564776" version="2" timestamp="2009-09-29T14:29:00Z" uid="36809" user="pfoten_weg_!_" changeset="2677781" lat="48.0669122" lon="11.5269986"/>
  <node id="437564777" version="1" timestamp="2009-07-08T21:19:14Z" uid="36809" user="pfoten_weg_!_" changeset="1776744" lat="48.0666305" lon="11.5269137"/>
  <node id="437564777" version="2" timestamp="2009-09-29T14:29:00Z" uid="36809" user="pfoten_weg_!_" changeset="2677781" lat="48.0665377" lon="11.5268005"/>
  <node id="437564778" version="1" timestamp="2009-07-08T21:19:14Z" uid="36809" user="pfoten_weg_!_" changeset="1776744" lat="48.0668096" lon="11.5261926"/>
  <node id="437564778" version="2" timestamp="2009-09-29T14:28:58Z" uid="36809" user="pfoten_weg_!_" changeset="2677781" lat="48.0666604" lon="11.5261531"/>
  <node id="437565524" version="2" timestamp="2009-07-12T07:28:03Z" uid="74617" user="JohnSmith" changeset="1803853" lat="-27.5903385" lon="151.927542"/>
  <node id="437565527" version="2" timestamp="2009-07-12T07:28:01Z" uid="74617" user="JohnSmith" changeset="1803853" lat="-27.5922769" lon="151.9214774"/>
  <node id="437566270" version="2" timestamp="2009-11-22T20:25:17Z" uid="17602" user="B10xyz" changeset="3190458" lat="52.5311561" lon="13.3607894"/>
</osm>
