<?xml version='1.0' encoding='UTF-8'?>
<osm version="0.6" generator="libosmium/2.20.0">
  <node id="438204327" version="2" timestamp="2010-04-11T04:48:09Z" uid="20587" user="balrog-kun" changeset="4389130" lat="50.9351091" lon="16.7864192">
    <tag k="name" v="MichaÅ‚owice"/>
    <tag k="place" v="village"/>
  </node>
  <node id="438204331" version="2" timestamp="2010-04-11T04:48:09Z" uid="20587" user="balrog-kun" changeset="4389130" lat="50.9307332" lon="16.8041469">
    <tag k="name" v="Stary Zamek"/>
    <tag k="place" v="village"/>
  </node>
  <node id="438204331" version="3" timestamp="2010-04-27T04:17:21Z" uid="30632" user="antblant" changeset="4537905" lat="50.9307332" lon="16.8041469">
    <tag k="name" v="Stary Zamek"/>
    <tag k="place" v="village"/>
    <tag k="teryt:simc" v="0880194"/>
  </node>
  <node id="438208327" version="2" timestamp="2010-04-11T04:48:09Z" uid="20587" user="balrog-kun" changeset="4389130" lat="50.9457635" lon="16.8545856">
    <tag k="name" v="Solna"/>
    <tag k="place" v="village"/>
  </node>
  <node id="438208327" version="3" timestamp="2010-04-27T03:59:50Z" uid="30632" user="antblant" changeset="4537857" lat="50.9457635" lon="16.8545856">
    <tag k="name" v="Solna"/>
    <tag k="place" v="village"/>
    <tag k="teryt:simc" v="0875589"/>
  </node>
</osm>
