<?xml version='1.0' encoding='UTF-8'?>
<osm version="0.6" generator="libosmium/2.20.0">
  <node id="441231554" version="4" timestamp="2009-10-17T23:11:34Z" uid="36809" user="pfoten_weg_!_" changeset="2879001" lat="47.6790335" lon="11.1950147"/>
  <node id="441232551" version="2" timestamp="2009-11-12T02:14:20Z" uid="36809" user="pfoten_weg_!_" changeset="3095175" lat="47.8515258" lon="11.6989279">
    <tag k="addr:city" v="Sufferloh"/>
    <tag k="addr:country" v="DE"/>
    <tag k="addr:housenumber" v="10"/>
    <tag k="addr:postcode" v="83607"/>
    <tag k="addr:street" v="Am Frauenberg"/>
  </node>
  <node id="441232551" version="3" timestamp="2009-11-12T02:37:59Z" uid="36809" user="pfoten_weg_!_" changeset="3095231" lat="47.8515258" lon="11.6989279">
    <tag k="addr:city" v="Sufferloh"/>
    <tag k="addr:country" v="DE"/>
    <tag k="addr:housenumber" v="10"/>
    <tag k="addr:postcode" v="83607"/>
    <tag k="addr:street" v="Am Frauenberg"/>
  </node>
  <node id="441232552" version="2" timestamp="2009-11-12T02:14:34Z" uid="36809" user="pfoten_weg_!_" changeset="3095175" lat="47.85133" lon="11.6992884">
    <tag k="addr:city" v="Sufferloh"/>
    <tag k="addr:country" v="DE"/>
    <tag k="addr:housenumber" v="12"/>
    <tag k="addr:postcode" v="83607"/>
    <tag k="addr:street" v="Am Frauenberg"/>
  </node>
  <node id="441232552" version="3" timestamp="2009-11-12T02:38:24Z" uid="36809" user="pfoten_weg_!_" changeset="3095231" lat="47.85133" lon="11.6992884">
    <tag k="addr:city" v="Sufferloh"/>
    <tag k="addr:country" v="DE"/>
    <tag k="addr:housenumber" v="12"/>
    <tag k="addr:postcode" v="83607"/>
    <tag k="addr:street" v="Am Frauenberg"/>
  </node>
  <node id="441232554" version="2" timestamp="2009-11-12T02:14:17Z" uid="36809" user="pfoten_weg_!_" changeset="3095175" lat="47.8512206" lon="11.6987563">
    <tag k="addr:city" v="Sufferloh"/>
    <tag k="addr:country" v="DE"/>
    <tag k="addr:housenumber" v="14"/>
    <tag k="addr:postcode" v="83607"/>
    <tag k="addr:street" v="Am Frauenberg"/>
  </node>
  <node id="441232554" version="3" timestamp="2009-11-12T02:37:57Z" uid="36809" user="pfoten_weg_!_" changeset="3095231" lat="47.8512206" lon="11.6987563">
    <tag k="addr:city" v="Sufferloh"/>
    <tag k="addr:country" v="DE"/>
    <tag k="addr:housenumber" v="14"/>
    <tag k="addr:postcode" v="83607"/>
    <tag k="addr:street" v="Am Frauenberg"/>
  </node>
  <node id="441232555" version="2" timestamp="2009-11-12T02:14:17Z" uid="36809" user="pfoten_weg_!_" changeset="3095175" lat="47.8511515" lon="11.6984301">
    <tag k="addr:city" v="Sufferloh"/>
    <tag k="addr:country" v="DE"/>
    <tag k="addr:housenumber" v="3"/>
    <tag k="addr:postcode" v="83607"/>
    <tag k="addr:street" v="Am Sufferloher Weiher"/>
  </node>
  <node id="441232555" version="3" timestamp="2009-11-12T02:37:57Z" uid="36809" user="pfoten_weg_!_" changeset="3095231" lat="47.8511515" lon="11.6984301">
    <tag k="addr:city" v="Sufferloh"/>
    <tag k="addr:country" v="DE"/>
    <tag k="addr:housenumber" v="3"/>
    <tag k="addr:postcode" v="83607"/>
    <tag k="addr:street" v="Am Sufferloher Weiher"/>
  </node>
  <node id="441232556" version="2" timestamp="2009-11-12T02:14:10Z" uid="36809" user="pfoten_weg_!_" changeset="3095175" lat="47.8509729" lon="11.6981383">
    <tag k="addr:city" v="Sufferloh"/>
    <tag k="addr:country" v="DE"/>
    <tag k="addr:housenumber" v="1"/>
    <tag k="addr:postcode" v="83607"/>
    <tag k="addr:street" v="Am Sufferloher Weiher"/>
  </node>
  <node id="441232556" version="3" timestamp="2009-11-12T02:37:50Z" uid="36809" user="pfoten_weg_!_" changeset="3095231" lat="47.8509729" lon="11.6981383">
    <tag k="addr:city" v="Sufferloh"/>
    <tag k="addr:country" v="DE"/>
    <tag k="addr:housenumber" v="1"/>
    <tag k="addr:postcode" v="83607"/>
    <tag k="addr:street" v="Am Sufferloher Weiher"/>
  </node>
  <node id="441232557" version="2" timestamp="2009-11-12T02:14:09Z" uid="36809" user="pfoten_weg_!_" changeset="3095175" lat="47.8511803" lon="11.6978551">
    <tag k="addr:city" v="Sufferloh"/>
    <tag k="addr:country" v="DE"/>
    <tag k="addr:housenumber" v="2"/>
    <tag k="addr:postcode" v="83607"/>
    <tag k="addr:street" v="St. Bartholomäus-Weg"/>
  </node>
  <node id="441232557" version="3" timestamp="2009-11-12T02:37:50Z" uid="36809" user="pfoten_weg_!_" changeset="3095231" lat="47.8511803" lon="11.6978551">
    <tag k="addr:city" v="Sufferloh"/>
    <tag k="addr:country" v="DE"/>
    <tag k="addr:housenumber" v="2"/>
    <tag k="addr:postcode" v="83607"/>
    <tag k="addr:street" v="St. Bartholomäus-Weg"/>
  </node>
  <node id="441232560" version="2" timestamp="2009-11-12T02:14:09Z" uid="36809" user="pfoten_weg_!_" changeset="3095175" lat="47.8512667" lon="11.6979666">
    <tag k="addr:city" v="Sufferloh"/>
    <tag k="addr:country" v="DE"/>
    <tag k="addr:housenumber" v="4"/>
    <tag k="addr:postcode" v="83607"/>
    <tag k="addr:street" v="St. Bartholomäus-Weg"/>
  </node>
  <node id="441232560" version="3" timestamp="2009-11-12T02:37:49Z" uid="36809" user="pfoten_weg_!_" changeset="3095231" lat="47.8512667" lon="11.6979666">
    <tag k="addr:city" v="Sufferloh"/>
    <tag k="addr:country" v="DE"/>
    <tag k="addr:housenumber" v="4"/>
    <tag k="addr:postcode" v="83607"/>
    <tag k="addr:street" v="St. Bartholomäus-Weg"/>
  </node>
  <node id="441232561" version="2" timestamp="2009-11-12T02:14:19Z" uid="36809" user="pfoten_weg_!_" changeset="3095175" lat="47.8514279" lon="11.6984902">
    <tag k="addr:city" v="Sufferloh"/>
    <tag k="addr:country" v="DE"/>
    <tag k="addr:housenumber" v="8"/>
    <tag k="addr:postcode" v="83607"/>
    <tag k="addr:street" v="St. Bartholomäus-Weg"/>
  </node>
  <node id="441232561" version="3" timestamp="2009-11-12T02:37:59Z" uid="36809" user="pfoten_weg_!_" changeset="3095231" lat="47.8514279" lon="11.6984902">
    <tag k="addr:city" v="Sufferloh"/>
    <tag k="addr:country" v="DE"/>
    <tag k="addr:housenumber" v="8"/>
    <tag k="addr:postcode" v="83607"/>
    <tag k="addr:street" v="St. Bartholomäus-Weg"/>
  </node>
  <node id="441239909" version="7" timestamp="2010-05-19T19:22:30Z" uid="9581" user="Lobelt" changeset="4750855" lat="49.7247229" lon="6.8113124">
    <tag k="power" v="tower"/>
  </node>
</osm>
