<?xml version='1.0' encoding='UTF-8'?>
<osm version="0.6" generator="libosmium/2.20.0">
  <node id="441871535" version="1" timestamp="2009-07-14T18:05:28Z" uid="59758" user="rendle" changeset="1829258" lat="51.0607185" lon="3.7576773">
    <tag k="amenity" v="fuel"/>
    <tag k="ele" v="36.000000"/>
    <tag k="name" v="Q8"/>
  </node>
  <node id="441872441" version="1" timestamp="2009-07-14T18:07:00Z" uid="59758" user="rendle" changeset="1829258" lat="51.0583179" lon="3.7428887">
    <tag k="amenity" v="pub"/>
    <tag k="name" v="Capri"/>
  </node>
  <node id="441873855" version="1" timestamp="2009-07-14T18:08:44Z" uid="59758" user="rendle" changeset="1829258" lat="51.0579079" lon="3.7418587">
    <tag k="amenity" v="pub"/>
    <tag k="ele" v="56.000000"/>
    <tag k="name" v="Eltus"/>
  </node>
  <node id="441874645" version="1" timestamp="2009-07-14T18:09:33Z" uid="59758" user="rendle" changeset="1829258" lat="51.0568829" lon="3.7380822">
    <tag k="amenity" v="pub"/>
    <tag k="ele" v="48.000000"/>
    <tag k="name" v="De zevende hemel"/>
  </node>
  <node id="441875628" version="1" timestamp="2009-07-14T18:10:41Z" uid="59758" user="rendle" changeset="1829258" lat="51.0536243" lon="3.7315762">
    <tag k="ele" v="48.000000"/>
    <tag k="name" v="Belgacom"/>
  </node>
  <node id="441876085" version="1" timestamp="2009-07-14T18:11:03Z" uid="59758" user="rendle" changeset="1829258" lat="51.0535542" lon="3.7311041">
    <tag k="amenity" v="pharmacy"/>
    <tag k="ele" v="55.000000"/>
  </node>
  <node id="441876085" version="2" timestamp="2010-04-04T10:14:34Z" uid="59758" user="rendle" changeset="4320998" lat="51.0535542" lon="3.7311042">
    <tag k="addr:housenumber" v="4"/>
    <tag k="amenity" v="pharmacy"/>
    <tag k="ele" v="55.000000"/>
  </node>
  <node id="441876508" version="1" timestamp="2009-07-14T18:11:23Z" uid="59758" user="rendle" changeset="1829258" lat="51.0534571" lon="3.7312071">
    <tag k="amenity" v="fast_food"/>
    <tag k="ele" v="48.000000"/>
    <tag k="name" v="Xantyp"/>
  </node>
  <node id="441876717" version="2" timestamp="2009-09-30T12:45:05Z" uid="36809" user="pfoten_weg_!_" changeset="2687886" lat="47.0874475" lon="11.4722033"/>
  <node id="441876720" version="2" timestamp="2009-09-30T12:45:05Z" uid="36809" user="pfoten_weg_!_" changeset="2687886" lat="47.0876247" lon="11.4716485"/>
  <node id="441876722" version="2" timestamp="2009-09-30T12:45:07Z" uid="36809" user="pfoten_weg_!_" changeset="2687886" lat="47.0884713" lon="11.4716557"/>
  <node id="441876847" version="1" timestamp="2009-07-14T18:11:50Z" uid="59758" user="rendle" changeset="1829258" lat="51.0533869" lon="3.7312844">
    <tag k="amenity" v="fast_food"/>
    <tag k="ele" v="48.000000"/>
    <tag k="name" v="Gunes"/>
  </node>
  <node id="441877521" version="1" timestamp="2009-07-14T18:12:27Z" uid="59758" user="rendle" changeset="1829258" lat="51.0523348" lon="3.7295249">
    <tag k="amenity" v="school"/>
    <tag k="ele" v="82.000000"/>
    <tag k="name" v="Sint Bavo"/>
  </node>
  <node id="441878339" version="1" timestamp="2009-07-14T18:13:29Z" uid="59758" user="rendle" changeset="1829258" lat="51.0523888" lon="3.727525">
    <tag k="amenity" v="restaurant"/>
    <tag k="ele" v="54.000000"/>
    <tag k="name" v="Adriatico"/>
  </node>
  <node id="441878840" version="1" timestamp="2009-07-14T18:14:37Z" uid="59758" user="rendle" changeset="1829258" lat="51.0526909" lon="3.7267096">
    <tag k="ele" v="67.000000"/>
    <tag k="name" v="Ibis"/>
    <tag k="tourism" v="hotel"/>
  </node>
  <node id="441878840" version="2" timestamp="2009-07-14T18:15:18Z" uid="59758" user="rendle" changeset="1829258" lat="51.0527772" lon="3.7265379">
    <tag k="ele" v="67.000000"/>
    <tag k="name" v="Ibis"/>
    <tag k="tourism" v="hotel"/>
  </node>
  <node id="441879185" version="1" timestamp="2009-07-14T18:16:13Z" uid="59758" user="rendle" changeset="1829258" lat="51.0535704" lon="3.7261174">
    <tag k="amenity" v="cafe"/>
    <tag k="ele" v="91.000000"/>
    <tag k="name" v="Sint Baafs"/>
  </node>
  <node id="441879185" version="2" timestamp="2009-07-14T18:19:17Z" uid="59758" user="rendle" changeset="1829258" lat="51.053511" lon="3.7261689">
    <tag k="amenity" v="cafe"/>
    <tag k="ele" v="91.000000"/>
    <tag k="name" v="Sint Baafs"/>
  </node>
</osm>
