<?xml version='1.0' encoding='UTF-8'?>
<osm version="0.6" generator="libosmium/2.20.0">
  <node id="442680002" version="1" timestamp="2009-07-16T19:00:42Z" uid="36809" user="pfoten_weg_!_" changeset="1848107" lat="48.0664786" lon="11.525704">
    <tag k="amenity" v="school"/>
    <tag k="discovered_by" v="RambaZamba"/>
    <tag k="name" v="Staatliches Gymnasium Pullach"/>
    <tag k="source" v="survey"/>
  </node>
  <node id="442680002" version="3" timestamp="2009-08-25T23:48:56Z" uid="36809" user="pfoten_weg_!_" changeset="2262648" lat="48.0664786" lon="11.525704">
    <tag k="amenity" v="school"/>
    <tag k="name" v="Staatliches Gymnasium Pullach"/>
    <tag k="source" v="survey"/>
  </node>
  <node id="442680002" version="4" timestamp="2009-08-26T00:52:44Z" uid="36809" user="pfoten_weg_!_" changeset="2262879" lat="48.0664786" lon="11.525704">
    <tag k="amenity" v="school"/>
    <tag k="name" v="Staatliches Gymnasium Pullach"/>
    <tag k="source" v="survey"/>
  </node>
  <node id="442680002" version="5" timestamp="2009-10-02T21:24:08Z" uid="86259" user="hasse_osm_korinthenkacker" changeset="2717728" lat="48.0664786" lon="11.525704">
    <tag k="amenity" v="school"/>
    <tag k="name" v="Staatliches Gymnasium Pullach"/>
  </node>
  <node id="442682585" version="1" timestamp="2009-07-16T19:07:02Z" uid="6975" user="ulfl" changeset="1848190" lat="49.457498" lon="11.0539516">
    <tag k="amenity" v="bar"/>
    <tag k="name" v="B-M-F"/>
    <tag k="tourism" v="museum"/>
  </node>
  <node id="442683443" version="2" timestamp="2010-06-25T08:37:24Z" uid="49111" user="Markus B" changeset="5071870" lat="48.1552678" lon="11.5837673">
    <tag k="amenity" v="restaurant"/>
    <tag k="name" v="L&apos;Osteria"/>
    <tag k="smoking" v="no"/>
  </node>
  <node id="442686687" version="2" timestamp="2010-01-13T16:14:33Z" uid="33382" user="de_muur" changeset="3611024" lat="53.0478232" lon="8.9191426"/>
</osm>
