<?xml version='1.0' encoding='UTF-8'?>
<osm version="0.6" generator="libosmium/2.20.0">
  <node id="443151773" version="1" timestamp="2009-07-17T22:18:06Z" uid="59758" user="rendle" changeset="1858899" lat="50.9374464" lon="4.0283704">
    <tag k="amenity" v="restaurant"/>
    <tag k="ele" v="96.000000"/>
    <tag k="name" v="Astridpark"/>
  </node>
  <node id="443152281" version="1" timestamp="2009-07-17T22:20:53Z" uid="59758" user="rendle" changeset="1858899" lat="50.9376628" lon="4.0281558">
    <tag k="amenity" v="restaurant"/>
    <tag k="ele" v="96.000000"/>
    <tag k="name" v="Hoy Yeunh"/>
  </node>
  <node id="443152363" version="1" timestamp="2009-07-17T22:21:23Z" uid="59758" user="rendle" changeset="1858899" lat="50.9376952" lon="4.0287567">
    <tag k="amenity" v="pub"/>
    <tag k="ele" v="97.000000"/>
    <tag k="name" v="Toile cirÃ©e"/>
  </node>
  <node id="443152541" version="1" timestamp="2009-07-17T22:21:48Z" uid="59758" user="rendle" changeset="1858899" lat="50.9377926" lon="4.0295549">
    <tag k="amenity" v="restaurant"/>
    <tag k="ele" v="99.000000"/>
    <tag k="name" v="In de maeltydt"/>
  </node>
  <node id="443153165" version="1" timestamp="2009-07-17T22:23:54Z" uid="59758" user="rendle" changeset="1858899" lat="50.9379657" lon="4.0308423">
    <tag k="amenity" v="pub"/>
    <tag k="ele" v="101.000000"/>
    <tag k="name" v="Oliver Twist"/>
  </node>
  <node id="443153165" version="2" timestamp="2009-07-17T22:23:57Z" uid="59758" user="rendle" changeset="1858899" lat="50.9379657" lon="4.0309797">
    <tag k="amenity" v="pub"/>
    <tag k="ele" v="101.000000"/>
    <tag k="name" v="Oliver Twist"/>
  </node>
  <node id="443153190" version="1" timestamp="2009-07-17T22:24:21Z" uid="59758" user="rendle" changeset="1858899" lat="50.9377331" lon="4.0309024">
    <tag k="ele" v="101.000000"/>
    <tag k="name" v="Van Impe"/>
    <tag k="shop" v="bicycle"/>
  </node>
  <node id="443153206" version="1" timestamp="2009-07-17T22:24:45Z" uid="59758" user="rendle" changeset="1858899" lat="50.9380306" lon="4.0315805">
    <tag k="amenity" v="fast_food"/>
    <tag k="ele" v="97.000000"/>
    <tag k="name" v="Pyramide"/>
  </node>
  <node id="443153443" version="1" timestamp="2009-07-17T22:25:12Z" uid="59758" user="rendle" changeset="1858899" lat="50.9380847" lon="4.0317521">
    <tag k="amenity" v="pub"/>
    <tag k="ele" v="96.000000"/>
    <tag k="name" v="Den ijzer"/>
  </node>
  <node id="443153842" version="2" timestamp="2009-12-24T03:47:32Z" uid="6975" user="ulfl" changeset="3439784" lat="44.8994051" lon="-76.246651">
    <tag k="name" v="Drummond House Bed &amp; Breakfast"/>
    <tag k="tourism" v="bed_and_breakfast"/>
  </node>
  <node id="443153888" version="1" timestamp="2009-07-17T22:26:39Z" uid="59758" user="rendle" changeset="1858899" lat="50.9378629" lon="4.0321813">
    <tag k="amenity" v="cinema"/>
    <tag k="ele" v="98.000000"/>
    <tag k="name" v="Feestpaleis"/>
  </node>
  <node id="443153911" version="1" timestamp="2009-07-17T22:27:08Z" uid="59758" user="rendle" changeset="1858899" lat="50.9379657" lon="4.0326019">
    <tag k="amenity" v="restaurant"/>
    <tag k="ele" v="98.000000"/>
    <tag k="name" v="Joris"/>
  </node>
  <node id="443154747" version="1" timestamp="2009-07-17T22:29:27Z" uid="59758" user="rendle" changeset="1858899" lat="50.9385769" lon="4.0360694"/>
  <node id="443154748" version="1" timestamp="2009-07-17T22:29:27Z" uid="59758" user="rendle" changeset="1858899" lat="50.9385282" lon="4.0365758"/>
  <node id="443154749" version="1" timestamp="2009-07-17T22:29:27Z" uid="59758" user="rendle" changeset="1858899" lat="50.9384633" lon="4.0371251"/>
  <node id="443154795" version="1" timestamp="2009-07-17T22:29:55Z" uid="59758" user="rendle" changeset="1858899" lat="50.9383497" lon="4.0333486">
    <tag k="amenity" v="bank"/>
    <tag k="ele" v="99.000000"/>
    <tag k="name" v="Citibank"/>
  </node>
  <node id="443154795" version="2" timestamp="2009-07-17T22:32:38Z" uid="59758" user="rendle" changeset="1858899" lat="50.9380739" lon="4.0333658">
    <tag k="amenity" v="bank"/>
    <tag k="ele" v="99.000000"/>
    <tag k="name" v="Citibank"/>
  </node>
  <node id="443154845" version="1" timestamp="2009-07-17T22:30:24Z" uid="59758" user="rendle" changeset="1858899" lat="50.9384579" lon="4.0360608">
    <tag k="amenity" v="bank"/>
    <tag k="ele" v="107.000000"/>
    <tag k="name" v="Fortis"/>
  </node>
  <node id="443154889" version="1" timestamp="2009-07-17T22:30:57Z" uid="59758" user="rendle" changeset="1858899" lat="50.9386364" lon="4.0365157">
    <tag k="ele" v="110.000000"/>
    <tag k="name" v="ING"/>
  </node>
  <node id="443155319" version="1" timestamp="2009-07-17T22:31:19Z" uid="59758" user="rendle" changeset="1858899" lat="50.9383064" lon="4.0375457">
    <tag k="amenity" v="pub"/>
    <tag k="ele" v="109.000000"/>
    <tag k="name" v="De koornbloem"/>
  </node>
  <node id="443155592" version="1" timestamp="2009-07-17T22:31:47Z" uid="59758" user="rendle" changeset="1858899" lat="50.9382523" lon="4.0379835">
    <tag k="amenity" v="pub"/>
    <tag k="ele" v="111.000000"/>
    <tag k="name" v="Cognac"/>
  </node>
  <node id="443155596" version="1" timestamp="2009-07-17T22:32:11Z" uid="59758" user="rendle" changeset="1858899" lat="50.9382361" lon="4.0383954">
    <tag k="amenity" v="fast_food"/>
    <tag k="ele" v="112.000000"/>
    <tag k="name" v="McDonald&apos;s"/>
  </node>
</osm>
