<?xml version='1.0' encoding='UTF-8'?>
<osm version="0.6" generator="libosmium/2.20.0">
  <node id="444560034" version="1" timestamp="2009-07-20T18:12:12Z" uid="36809" user="pfoten_weg_!_" changeset="1887814" lat="48.070089" lon="11.532635">
    <tag k="addr:city" v="Pullach im Isartal"/>
    <tag k="addr:country" v="DE"/>
    <tag k="addr:housename" v="Wohngebäude"/>
    <tag k="addr:housenumber" v="20"/>
    <tag k="addr:postcode" v="82049"/>
    <tag k="addr:street" v="Karwendelstraße"/>
    <tag k="discovered_by" v="RambaZamba"/>
    <tag k="name" v="20"/>
    <tag k="source" v="survey"/>
  </node>
  <node id="444560034" version="3" timestamp="2009-08-17T18:11:12Z" uid="36809" user="pfoten_weg_!_" changeset="2180201" lat="48.070089" lon="11.532635">
    <tag k="addr:city" v="Pullach im Isartal"/>
    <tag k="addr:country" v="DE"/>
    <tag k="addr:housename" v="Wohngebäude"/>
    <tag k="addr:housenumber" v="20"/>
    <tag k="addr:postcode" v="82049"/>
    <tag k="addr:street" v="Karwendelstraße"/>
    <tag k="name" v="20"/>
    <tag k="source" v="survey"/>
  </node>
  <node id="444560035" version="1" timestamp="2009-07-20T18:12:13Z" uid="36809" user="pfoten_weg_!_" changeset="1887814" lat="48.069855" lon="11.532335">
    <tag k="addr:city" v="Pullach im Isartal"/>
    <tag k="addr:country" v="DE"/>
    <tag k="addr:housename" v="Wohngebäude"/>
    <tag k="addr:housenumber" v="18"/>
    <tag k="addr:postcode" v="82049"/>
    <tag k="addr:street" v="Karwendelstraße"/>
    <tag k="discovered_by" v="RambaZamba"/>
    <tag k="name" v="18"/>
    <tag k="source" v="survey"/>
  </node>
  <node id="444560035" version="3" timestamp="2009-08-17T18:11:11Z" uid="36809" user="pfoten_weg_!_" changeset="2180201" lat="48.069855" lon="11.532335">
    <tag k="addr:city" v="Pullach im Isartal"/>
    <tag k="addr:country" v="DE"/>
    <tag k="addr:housename" v="Wohngebäude"/>
    <tag k="addr:housenumber" v="18"/>
    <tag k="addr:postcode" v="82049"/>
    <tag k="addr:street" v="Karwendelstraße"/>
    <tag k="name" v="18"/>
    <tag k="source" v="survey"/>
  </node>
  <node id="444560036" version="1" timestamp="2009-07-20T18:12:13Z" uid="36809" user="pfoten_weg_!_" changeset="1887814" lat="48.069645" lon="11.532174">
    <tag k="addr:city" v="Pullach im Isartal"/>
    <tag k="addr:country" v="DE"/>
    <tag k="addr:housename" v="Wohngebäude"/>
    <tag k="addr:housenumber" v="16"/>
    <tag k="addr:postcode" v="82049"/>
    <tag k="addr:street" v="Karwendelstraße"/>
    <tag k="discovered_by" v="RambaZamba"/>
    <tag k="name" v="16"/>
    <tag k="source" v="survey"/>
  </node>
  <node id="444560036" version="3" timestamp="2009-08-17T18:11:12Z" uid="36809" user="pfoten_weg_!_" changeset="2180201" lat="48.069645" lon="11.532174">
    <tag k="addr:city" v="Pullach im Isartal"/>
    <tag k="addr:country" v="DE"/>
    <tag k="addr:housename" v="Wohngebäude"/>
    <tag k="addr:housenumber" v="16"/>
    <tag k="addr:postcode" v="82049"/>
    <tag k="addr:street" v="Karwendelstraße"/>
    <tag k="name" v="16"/>
    <tag k="source" v="survey"/>
  </node>
  <node id="444560037" version="1" timestamp="2009-07-20T18:12:13Z" uid="36809" user="pfoten_weg_!_" changeset="1887814" lat="48.069199" lon="11.531844">
    <tag k="addr:city" v="Pullach im Isartal"/>
    <tag k="addr:country" v="DE"/>
    <tag k="addr:housename" v="Wohngebäude"/>
    <tag k="addr:housenumber" v="12"/>
    <tag k="addr:postcode" v="82049"/>
    <tag k="addr:street" v="Karwendelstraße"/>
    <tag k="discovered_by" v="RambaZamba"/>
    <tag k="name" v="12"/>
    <tag k="source" v="survey"/>
  </node>
  <node id="444560037" version="3" timestamp="2009-08-17T18:11:12Z" uid="36809" user="pfoten_weg_!_" changeset="2180201" lat="48.069199" lon="11.531844">
    <tag k="addr:city" v="Pullach im Isartal"/>
    <tag k="addr:country" v="DE"/>
    <tag k="addr:housename" v="Wohngebäude"/>
    <tag k="addr:housenumber" v="12"/>
    <tag k="addr:postcode" v="82049"/>
    <tag k="addr:street" v="Karwendelstraße"/>
    <tag k="name" v="12"/>
    <tag k="source" v="survey"/>
  </node>
  <node id="444560038" version="1" timestamp="2009-07-20T18:12:14Z" uid="36809" user="pfoten_weg_!_" changeset="1887814" lat="48.069012" lon="11.532317">
    <tag k="addr:city" v="Pullach im Isartal"/>
    <tag k="addr:country" v="DE"/>
    <tag k="addr:housename" v="Wohngebäude"/>
    <tag k="addr:housenumber" v="5"/>
    <tag k="addr:postcode" v="82049"/>
    <tag k="addr:street" v="Wallbergstraße"/>
    <tag k="discovered_by" v="RambaZamba"/>
    <tag k="name" v="5"/>
    <tag k="source" v="survey"/>
  </node>
  <node id="444560038" version="3" timestamp="2009-08-17T18:11:14Z" uid="36809" user="pfoten_weg_!_" changeset="2180201" lat="48.069012" lon="11.532317">
    <tag k="addr:city" v="Pullach im Isartal"/>
    <tag k="addr:country" v="DE"/>
    <tag k="addr:housename" v="Wohngebäude"/>
    <tag k="addr:housenumber" v="5"/>
    <tag k="addr:postcode" v="82049"/>
    <tag k="addr:street" v="Wallbergstraße"/>
    <tag k="name" v="5"/>
    <tag k="source" v="survey"/>
  </node>
  <node id="444560039" version="1" timestamp="2009-07-20T18:12:14Z" uid="36809" user="pfoten_weg_!_" changeset="1887814" lat="48.069233" lon="11.53248">
    <tag k="addr:city" v="Pullach im Isartal"/>
    <tag k="addr:country" v="DE"/>
    <tag k="addr:housename" v="Wohngebäude"/>
    <tag k="addr:housenumber" v="7"/>
    <tag k="addr:postcode" v="82049"/>
    <tag k="addr:street" v="Wallbergstraße"/>
    <tag k="discovered_by" v="RambaZamba"/>
    <tag k="name" v="7"/>
    <tag k="source" v="survey"/>
  </node>
  <node id="444560039" version="3" timestamp="2009-08-17T18:11:13Z" uid="36809" user="pfoten_weg_!_" changeset="2180201" lat="48.069233" lon="11.53248">
    <tag k="addr:city" v="Pullach im Isartal"/>
    <tag k="addr:country" v="DE"/>
    <tag k="addr:housename" v="Wohngebäude"/>
    <tag k="addr:housenumber" v="7"/>
    <tag k="addr:postcode" v="82049"/>
    <tag k="addr:street" v="Wallbergstraße"/>
    <tag k="name" v="7"/>
    <tag k="source" v="survey"/>
  </node>
  <node id="444560040" version="1" timestamp="2009-07-20T18:12:14Z" uid="36809" user="pfoten_weg_!_" changeset="1887814" lat="48.069473" lon="11.532654">
    <tag k="addr:city" v="Pullach im Isartal"/>
    <tag k="addr:country" v="DE"/>
    <tag k="addr:housename" v="Wohngebäude"/>
    <tag k="addr:housenumber" v="9"/>
    <tag k="addr:postcode" v="82049"/>
    <tag k="addr:street" v="Wallbergstraße"/>
    <tag k="discovered_by" v="RambaZamba"/>
    <tag k="name" v="9"/>
    <tag k="source" v="survey"/>
  </node>
  <node id="444560040" version="3" timestamp="2009-08-17T18:11:07Z" uid="36809" user="pfoten_weg_!_" changeset="2180201" lat="48.069473" lon="11.532654">
    <tag k="addr:city" v="Pullach im Isartal"/>
    <tag k="addr:country" v="DE"/>
    <tag k="addr:housename" v="Wohngebäude"/>
    <tag k="addr:housenumber" v="9"/>
    <tag k="addr:postcode" v="82049"/>
    <tag k="addr:street" v="Wallbergstraße"/>
    <tag k="name" v="9"/>
    <tag k="source" v="survey"/>
  </node>
  <node id="444560041" version="1" timestamp="2009-07-20T18:12:14Z" uid="36809" user="pfoten_weg_!_" changeset="1887814" lat="48.069715" lon="11.53282">
    <tag k="addr:city" v="Pullach im Isartal"/>
    <tag k="addr:country" v="DE"/>
    <tag k="addr:housename" v="Wohngebäude"/>
    <tag k="addr:housenumber" v="11"/>
    <tag k="addr:postcode" v="82049"/>
    <tag k="addr:street" v="Wallbergstraße"/>
    <tag k="discovered_by" v="RambaZamba"/>
    <tag k="name" v="11"/>
    <tag k="source" v="survey"/>
  </node>
  <node id="444560041" version="3" timestamp="2009-08-17T18:11:06Z" uid="36809" user="pfoten_weg_!_" changeset="2180201" lat="48.069715" lon="11.53282">
    <tag k="addr:city" v="Pullach im Isartal"/>
    <tag k="addr:country" v="DE"/>
    <tag k="addr:housename" v="Wohngebäude"/>
    <tag k="addr:housenumber" v="11"/>
    <tag k="addr:postcode" v="82049"/>
    <tag k="addr:street" v="Wallbergstraße"/>
    <tag k="name" v="11"/>
    <tag k="source" v="survey"/>
  </node>
  <node id="444560042" version="1" timestamp="2009-07-20T18:12:14Z" uid="36809" user="pfoten_weg_!_" changeset="1887814" lat="48.069939" lon="11.533027">
    <tag k="addr:city" v="Pullach im Isartal"/>
    <tag k="addr:country" v="DE"/>
    <tag k="addr:housename" v="Wohngebäude"/>
    <tag k="addr:housenumber" v="13"/>
    <tag k="addr:postcode" v="82049"/>
    <tag k="addr:street" v="Wallbergstraße"/>
    <tag k="discovered_by" v="RambaZamba"/>
    <tag k="name" v="13"/>
    <tag k="source" v="survey"/>
  </node>
  <node id="444560042" version="3" timestamp="2009-08-17T18:11:08Z" uid="36809" user="pfoten_weg_!_" changeset="2180201" lat="48.069939" lon="11.533027">
    <tag k="addr:city" v="Pullach im Isartal"/>
    <tag k="addr:country" v="DE"/>
    <tag k="addr:housename" v="Wohngebäude"/>
    <tag k="addr:housenumber" v="13"/>
    <tag k="addr:postcode" v="82049"/>
    <tag k="addr:street" v="Wallbergstraße"/>
    <tag k="name" v="13"/>
    <tag k="source" v="survey"/>
  </node>
  <node id="444560043" version="1" timestamp="2009-07-20T18:12:15Z" uid="36809" user="pfoten_weg_!_" changeset="1887814" lat="48.069586" lon="11.533316">
    <tag k="addr:city" v="Pullach im Isartal"/>
    <tag k="addr:country" v="DE"/>
    <tag k="addr:housename" v="Wohngebäude"/>
    <tag k="addr:housenumber" v="Bau"/>
    <tag k="addr:postcode" v="82049"/>
    <tag k="addr:street" v="Wallbergstraße"/>
    <tag k="discovered_by" v="RambaZamba"/>
    <tag k="name" v="Bau"/>
    <tag k="source" v="survey"/>
  </node>
  <node id="444560043" version="3" timestamp="2009-08-17T18:11:07Z" uid="36809" user="pfoten_weg_!_" changeset="2180201" lat="48.069586" lon="11.533316">
    <tag k="addr:city" v="Pullach im Isartal"/>
    <tag k="addr:country" v="DE"/>
    <tag k="addr:housename" v="Wohngebäude"/>
    <tag k="addr:housenumber" v="Bau"/>
    <tag k="addr:postcode" v="82049"/>
    <tag k="addr:street" v="Wallbergstraße"/>
    <tag k="name" v="Bau"/>
    <tag k="source" v="survey"/>
  </node>
  <node id="444560044" version="1" timestamp="2009-07-20T18:12:15Z" uid="36809" user="pfoten_weg_!_" changeset="1887814" lat="48.069374" lon="11.533013">
    <tag k="addr:city" v="Pullach im Isartal"/>
    <tag k="addr:country" v="DE"/>
    <tag k="addr:housename" v="Wohngebäude"/>
    <tag k="addr:housenumber" v="12"/>
    <tag k="addr:postcode" v="82049"/>
    <tag k="addr:street" v="Wallbergstraße"/>
    <tag k="discovered_by" v="RambaZamba"/>
    <tag k="name" v="12"/>
    <tag k="source" v="survey"/>
  </node>
  <node id="444560044" version="3" timestamp="2009-08-17T18:11:10Z" uid="36809" user="pfoten_weg_!_" changeset="2180201" lat="48.069374" lon="11.533013">
    <tag k="addr:city" v="Pullach im Isartal"/>
    <tag k="addr:country" v="DE"/>
    <tag k="addr:housename" v="Wohngebäude"/>
    <tag k="addr:housenumber" v="12"/>
    <tag k="addr:postcode" v="82049"/>
    <tag k="addr:street" v="Wallbergstraße"/>
    <tag k="name" v="12"/>
    <tag k="source" v="survey"/>
  </node>
  <node id="444560045" version="1" timestamp="2009-07-20T18:12:15Z" uid="36809" user="pfoten_weg_!_" changeset="1887814" lat="48.069003" lon="11.532769">
    <tag k="addr:city" v="Pullach im Isartal"/>
    <tag k="addr:country" v="DE"/>
    <tag k="addr:housename" v="Wohngebäude"/>
    <tag k="addr:housenumber" v="10"/>
    <tag k="addr:postcode" v="82049"/>
    <tag k="addr:street" v="Wallbergstraße"/>
    <tag k="discovered_by" v="RambaZamba"/>
    <tag k="name" v="10"/>
    <tag k="source" v="survey"/>
  </node>
  <node id="444560045" version="3" timestamp="2009-08-17T18:11:09Z" uid="36809" user="pfoten_weg_!_" changeset="2180201" lat="48.069003" lon="11.532769">
    <tag k="addr:city" v="Pullach im Isartal"/>
    <tag k="addr:country" v="DE"/>
    <tag k="addr:housename" v="Wohngebäude"/>
    <tag k="addr:housenumber" v="10"/>
    <tag k="addr:postcode" v="82049"/>
    <tag k="addr:street" v="Wallbergstraße"/>
    <tag k="name" v="10"/>
    <tag k="source" v="survey"/>
  </node>
  <node id="444560046" version="1" timestamp="2009-07-20T18:12:15Z" uid="36809" user="pfoten_weg_!_" changeset="1887814" lat="48.068779" lon="11.532665">
    <tag k="addr:city" v="Pullach im Isartal"/>
    <tag k="addr:country" v="DE"/>
    <tag k="addr:housename" v="Wohngebäude"/>
    <tag k="addr:housenumber" v="8"/>
    <tag k="addr:postcode" v="82049"/>
    <tag k="addr:street" v="Wallbergstraße"/>
    <tag k="discovered_by" v="RambaZamba"/>
    <tag k="name" v="8"/>
    <tag k="source" v="survey"/>
  </node>
  <node id="444560046" version="3" timestamp="2009-08-17T18:11:11Z" uid="36809" user="pfoten_weg_!_" changeset="2180201" lat="48.068779" lon="11.532665">
    <tag k="addr:city" v="Pullach im Isartal"/>
    <tag k="addr:country" v="DE"/>
    <tag k="addr:housename" v="Wohngebäude"/>
    <tag k="addr:housenumber" v="8"/>
    <tag k="addr:postcode" v="82049"/>
    <tag k="addr:street" v="Wallbergstraße"/>
    <tag k="name" v="8"/>
    <tag k="source" v="survey"/>
  </node>
  <node id="444560047" version="1" timestamp="2009-07-20T18:12:16Z" uid="36809" user="pfoten_weg_!_" changeset="1887814" lat="48.068453" lon="11.53237">
    <tag k="addr:city" v="Pullach im Isartal"/>
    <tag k="addr:country" v="DE"/>
    <tag k="addr:housename" v="Wohngebäude"/>
    <tag k="addr:housenumber" v="6"/>
    <tag k="addr:postcode" v="82049"/>
    <tag k="addr:street" v="Wallbergstraße"/>
    <tag k="discovered_by" v="RambaZamba"/>
    <tag k="name" v="6"/>
    <tag k="source" v="survey"/>
  </node>
  <node id="444560047" version="3" timestamp="2009-08-17T18:11:10Z" uid="36809" user="pfoten_weg_!_" changeset="2180201" lat="48.068453" lon="11.53237">
    <tag k="addr:city" v="Pullach im Isartal"/>
    <tag k="addr:country" v="DE"/>
    <tag k="addr:housename" v="Wohngebäude"/>
    <tag k="addr:housenumber" v="6"/>
    <tag k="addr:postcode" v="82049"/>
    <tag k="addr:street" v="Wallbergstraße"/>
    <tag k="name" v="6"/>
    <tag k="source" v="survey"/>
  </node>
  <node id="444560048" version="1" timestamp="2009-07-20T18:12:16Z" uid="36809" user="pfoten_weg_!_" changeset="1887814" lat="48.068518" lon="11.532053">
    <tag k="addr:city" v="Pullach im Isartal"/>
    <tag k="addr:country" v="DE"/>
    <tag k="addr:housename" v="Wohngebäude"/>
    <tag k="addr:housenumber" v="4A"/>
    <tag k="addr:postcode" v="82049"/>
    <tag k="addr:street" v="Wallbergstraße"/>
    <tag k="discovered_by" v="RambaZamba"/>
    <tag k="name" v="4A"/>
    <tag k="source" v="survey"/>
  </node>
  <node id="444560048" version="3" timestamp="2009-08-17T18:11:19Z" uid="36809" user="pfoten_weg_!_" changeset="2180201" lat="48.068518" lon="11.532053">
    <tag k="addr:city" v="Pullach im Isartal"/>
    <tag k="addr:country" v="DE"/>
    <tag k="addr:housename" v="Wohngebäude"/>
    <tag k="addr:housenumber" v="4A"/>
    <tag k="addr:postcode" v="82049"/>
    <tag k="addr:street" v="Wallbergstraße"/>
    <tag k="name" v="4A"/>
    <tag k="source" v="survey"/>
  </node>
  <node id="444560049" version="1" timestamp="2009-07-20T18:12:16Z" uid="36809" user="pfoten_weg_!_" changeset="1887814" lat="48.068555" lon="11.531946">
    <tag k="addr:city" v="Pullach im Isartal"/>
    <tag k="addr:country" v="DE"/>
    <tag k="addr:housename" v="Wohngebäude"/>
    <tag k="addr:housenumber" v="4"/>
    <tag k="addr:postcode" v="82049"/>
    <tag k="addr:street" v="Wallbergstraße"/>
    <tag k="discovered_by" v="RambaZamba"/>
    <tag k="name" v="4"/>
    <tag k="source" v="survey"/>
  </node>
  <node id="444560049" version="3" timestamp="2009-08-17T18:11:20Z" uid="36809" user="pfoten_weg_!_" changeset="2180201" lat="48.068555" lon="11.531946">
    <tag k="addr:city" v="Pullach im Isartal"/>
    <tag k="addr:country" v="DE"/>
    <tag k="addr:housename" v="Wohngebäude"/>
    <tag k="addr:housenumber" v="4"/>
    <tag k="addr:postcode" v="82049"/>
    <tag k="addr:street" v="Wallbergstraße"/>
    <tag k="name" v="4"/>
    <tag k="source" v="survey"/>
  </node>
  <node id="444560050" version="1" timestamp="2009-07-20T18:12:17Z" uid="36809" user="pfoten_weg_!_" changeset="1887814" lat="48.068702" lon="11.531501">
    <tag k="addr:city" v="Pullach im Isartal"/>
    <tag k="addr:country" v="DE"/>
    <tag k="addr:housename" v="Wohngebäude"/>
    <tag k="addr:housenumber" v="2"/>
    <tag k="addr:postcode" v="82049"/>
    <tag k="addr:street" v="Wallbergstraße"/>
    <tag k="discovered_by" v="RambaZamba"/>
    <tag k="name" v="2"/>
    <tag k="source" v="survey"/>
  </node>
  <node id="444560050" version="3" timestamp="2009-08-17T18:11:20Z" uid="36809" user="pfoten_weg_!_" changeset="2180201" lat="48.068702" lon="11.531501">
    <tag k="addr:city" v="Pullach im Isartal"/>
    <tag k="addr:country" v="DE"/>
    <tag k="addr:housename" v="Wohngebäude"/>
    <tag k="addr:housenumber" v="2"/>
    <tag k="addr:postcode" v="82049"/>
    <tag k="addr:street" v="Wallbergstraße"/>
    <tag k="name" v="2"/>
    <tag k="source" v="survey"/>
  </node>
  <node id="444560051" version="1" timestamp="2009-07-20T18:12:17Z" uid="36809" user="pfoten_weg_!_" changeset="1887814" lat="48.06865" lon="11.531664">
    <tag k="addr:city" v="Pullach im Isartal"/>
    <tag k="addr:country" v="DE"/>
    <tag k="addr:housename" v="Wohngebäude"/>
    <tag k="addr:housenumber" v="2A"/>
    <tag k="addr:postcode" v="82049"/>
    <tag k="addr:street" v="Wallbergstraße"/>
    <tag k="discovered_by" v="RambaZamba"/>
    <tag k="name" v="2A"/>
    <tag k="source" v="survey"/>
  </node>
  <node id="444560051" version="3" timestamp="2009-08-17T18:11:21Z" uid="36809" user="pfoten_weg_!_" changeset="2180201" lat="48.06865" lon="11.531664">
    <tag k="addr:city" v="Pullach im Isartal"/>
    <tag k="addr:country" v="DE"/>
    <tag k="addr:housename" v="Wohngebäude"/>
    <tag k="addr:housenumber" v="2A"/>
    <tag k="addr:postcode" v="82049"/>
    <tag k="addr:street" v="Wallbergstraße"/>
    <tag k="name" v="2A"/>
    <tag k="source" v="survey"/>
  </node>
  <node id="444560053" version="1" timestamp="2009-07-20T18:12:18Z" uid="36809" user="pfoten_weg_!_" changeset="1887814" lat="48.068428" lon="11.53146">
    <tag k="addr:city" v="Pullach im Isartal"/>
    <tag k="addr:country" v="DE"/>
    <tag k="addr:housename" v="Wohngebäude"/>
    <tag k="addr:housenumber" v="6A"/>
    <tag k="addr:postcode" v="82049"/>
    <tag k="addr:street" v="Karwendelstraße"/>
    <tag k="discovered_by" v="RambaZamba"/>
    <tag k="name" v="6A"/>
    <tag k="source" v="survey"/>
  </node>
  <node id="444560053" version="3" timestamp="2009-08-17T18:11:22Z" uid="36809" user="pfoten_weg_!_" changeset="2180201" lat="48.068428" lon="11.53146">
    <tag k="addr:city" v="Pullach im Isartal"/>
    <tag k="addr:country" v="DE"/>
    <tag k="addr:housename" v="Wohngebäude"/>
    <tag k="addr:housenumber" v="6A"/>
    <tag k="addr:postcode" v="82049"/>
    <tag k="addr:street" v="Karwendelstraße"/>
    <tag k="name" v="6A"/>
    <tag k="source" v="survey"/>
  </node>
  <node id="444560054" version="1" timestamp="2009-07-20T18:12:18Z" uid="36809" user="pfoten_weg_!_" changeset="1887814" lat="48.068464" lon="11.531332">
    <tag k="addr:city" v="Pullach im Isartal"/>
    <tag k="addr:country" v="DE"/>
    <tag k="addr:housename" v="Wohngebäude"/>
    <tag k="addr:housenumber" v="6"/>
    <tag k="addr:postcode" v="82049"/>
    <tag k="addr:street" v="Karwendelstraße"/>
    <tag k="discovered_by" v="RambaZamba"/>
    <tag k="name" v="6"/>
    <tag k="source" v="survey"/>
  </node>
  <node id="444560054" version="3" timestamp="2009-08-17T18:11:22Z" uid="36809" user="pfoten_weg_!_" changeset="2180201" lat="48.068464" lon="11.531332">
    <tag k="addr:city" v="Pullach im Isartal"/>
    <tag k="addr:country" v="DE"/>
    <tag k="addr:housename" v="Wohngebäude"/>
    <tag k="addr:housenumber" v="6"/>
    <tag k="addr:postcode" v="82049"/>
    <tag k="addr:street" v="Karwendelstraße"/>
    <tag k="name" v="6"/>
    <tag k="source" v="survey"/>
  </node>
  <node id="444560055" version="1" timestamp="2009-07-20T18:12:18Z" uid="36809" user="pfoten_weg_!_" changeset="1887814" lat="48.068134" lon="11.531887">
    <tag k="addr:city" v="Pullach im Isartal"/>
    <tag k="addr:country" v="DE"/>
    <tag k="addr:housename" v="Wohngebäude"/>
    <tag k="addr:housenumber" v="12A"/>
    <tag k="addr:postcode" v="82049"/>
    <tag k="discovered_by" v="RambaZamba"/>
    <tag k="name" v="12A"/>
    <tag k="source" v="survey"/>
  </node>
  <node id="444560055" version="3" timestamp="2009-08-17T18:11:23Z" uid="36809" user="pfoten_weg_!_" changeset="2180201" lat="48.068134" lon="11.531887">
    <tag k="addr:city" v="Pullach im Isartal"/>
    <tag k="addr:country" v="DE"/>
    <tag k="addr:housename" v="Wohngebäude"/>
    <tag k="addr:housenumber" v="12A"/>
    <tag k="addr:postcode" v="82049"/>
    <tag k="name" v="12A"/>
    <tag k="source" v="survey"/>
  </node>
  <node id="444560056" version="1" timestamp="2009-07-20T18:12:18Z" uid="36809" user="pfoten_weg_!_" changeset="1887814" lat="48.068225" lon="11.531138">
    <tag k="addr:city" v="Pullach im Isartal"/>
    <tag k="addr:country" v="DE"/>
    <tag k="addr:housename" v="Wohngebäude"/>
    <tag k="addr:housenumber" v="4"/>
    <tag k="addr:postcode" v="82049"/>
    <tag k="addr:street" v="Karwendelstraße"/>
    <tag k="discovered_by" v="RambaZamba"/>
    <tag k="name" v="4"/>
    <tag k="source" v="survey"/>
  </node>
  <node id="444560056" version="3" timestamp="2009-08-17T18:11:15Z" uid="36809" user="pfoten_weg_!_" changeset="2180201" lat="48.068225" lon="11.531138">
    <tag k="addr:city" v="Pullach im Isartal"/>
    <tag k="addr:country" v="DE"/>
    <tag k="addr:housename" v="Wohngebäude"/>
    <tag k="addr:housenumber" v="4"/>
    <tag k="addr:postcode" v="82049"/>
    <tag k="addr:street" v="Karwendelstraße"/>
    <tag k="name" v="4"/>
    <tag k="source" v="survey"/>
  </node>
  <node id="444560057" version="1" timestamp="2009-07-20T18:12:19Z" uid="36809" user="pfoten_weg_!_" changeset="1887814" lat="48.067826" lon="11.533264">
    <tag k="addr:city" v="Pullach im Isartal"/>
    <tag k="addr:country" v="DE"/>
    <tag k="addr:housename" v="Wohngebäude"/>
    <tag k="addr:housenumber" v="10"/>
    <tag k="addr:postcode" v="82049"/>
    <tag k="addr:street" v="Promenadeweg"/>
    <tag k="discovered_by" v="RambaZamba"/>
    <tag k="name" v="10"/>
    <tag k="source" v="survey"/>
  </node>
  <node id="444560057" version="3" timestamp="2009-08-17T18:11:15Z" uid="36809" user="pfoten_weg_!_" changeset="2180201" lat="48.067826" lon="11.533264">
    <tag k="addr:city" v="Pullach im Isartal"/>
    <tag k="addr:country" v="DE"/>
    <tag k="addr:housename" v="Wohngebäude"/>
    <tag k="addr:housenumber" v="10"/>
    <tag k="addr:postcode" v="82049"/>
    <tag k="addr:street" v="Promenadeweg"/>
    <tag k="name" v="10"/>
    <tag k="source" v="survey"/>
  </node>
  <node id="444560058" version="1" timestamp="2009-07-20T18:12:19Z" uid="36809" user="pfoten_weg_!_" changeset="1887814" lat="48.068118" lon="11.53208">
    <tag k="addr:city" v="Pullach im Isartal"/>
    <tag k="addr:country" v="DE"/>
    <tag k="addr:housename" v="Wohngebäude"/>
    <tag k="addr:housenumber" v="12"/>
    <tag k="addr:postcode" v="82049"/>
    <tag k="discovered_by" v="RambaZamba"/>
    <tag k="name" v="12"/>
    <tag k="source" v="survey"/>
  </node>
  <node id="444560058" version="3" timestamp="2009-08-17T18:11:16Z" uid="36809" user="pfoten_weg_!_" changeset="2180201" lat="48.068118" lon="11.53208">
    <tag k="addr:city" v="Pullach im Isartal"/>
    <tag k="addr:country" v="DE"/>
    <tag k="addr:housename" v="Wohngebäude"/>
    <tag k="addr:housenumber" v="12"/>
    <tag k="addr:postcode" v="82049"/>
    <tag k="name" v="12"/>
    <tag k="source" v="survey"/>
  </node>
  <node id="444560059" version="1" timestamp="2009-07-20T18:12:19Z" uid="36809" user="pfoten_weg_!_" changeset="1887814" lat="48.067867" lon="11.533928">
    <tag k="addr:city" v="Pullach im Isartal"/>
    <tag k="addr:country" v="DE"/>
    <tag k="addr:housename" v="Wohngebäude"/>
    <tag k="addr:housenumber" v="6"/>
    <tag k="addr:postcode" v="82049"/>
    <tag k="addr:street" v="Promenadeweg"/>
    <tag k="discovered_by" v="RambaZamba"/>
    <tag k="name" v="6"/>
    <tag k="source" v="survey"/>
  </node>
  <node id="444560059" version="3" timestamp="2009-08-17T18:11:16Z" uid="36809" user="pfoten_weg_!_" changeset="2180201" lat="48.067867" lon="11.533928">
    <tag k="addr:city" v="Pullach im Isartal"/>
    <tag k="addr:country" v="DE"/>
    <tag k="addr:housename" v="Wohngebäude"/>
    <tag k="addr:housenumber" v="6"/>
    <tag k="addr:postcode" v="82049"/>
    <tag k="addr:street" v="Promenadeweg"/>
    <tag k="name" v="6"/>
    <tag k="source" v="survey"/>
  </node>
  <node id="444560060" version="1" timestamp="2009-07-20T18:12:19Z" uid="36809" user="pfoten_weg_!_" changeset="1887814" lat="48.067885" lon="11.533563">
    <tag k="addr:city" v="Pullach im Isartal"/>
    <tag k="addr:country" v="DE"/>
    <tag k="addr:housename" v="Wohngebäude"/>
    <tag k="addr:housenumber" v="8"/>
    <tag k="addr:postcode" v="82049"/>
    <tag k="addr:street" v="Promenadeweg"/>
    <tag k="discovered_by" v="RambaZamba"/>
    <tag k="name" v="8"/>
    <tag k="source" v="survey"/>
  </node>
  <node id="444560060" version="3" timestamp="2009-08-17T18:11:17Z" uid="36809" user="pfoten_weg_!_" changeset="2180201" lat="48.067885" lon="11.533563">
    <tag k="addr:city" v="Pullach im Isartal"/>
    <tag k="addr:country" v="DE"/>
    <tag k="addr:housename" v="Wohngebäude"/>
    <tag k="addr:housenumber" v="8"/>
    <tag k="addr:postcode" v="82049"/>
    <tag k="addr:street" v="Promenadeweg"/>
    <tag k="name" v="8"/>
    <tag k="source" v="survey"/>
  </node>
  <node id="444560061" version="1" timestamp="2009-07-20T18:12:20Z" uid="36809" user="pfoten_weg_!_" changeset="1887814" lat="48.068181" lon="11.53429">
    <tag k="addr:city" v="Pullach im Isartal"/>
    <tag k="addr:country" v="DE"/>
    <tag k="addr:housename" v="Wohngebäude"/>
    <tag k="addr:housenumber" v="3"/>
    <tag k="addr:postcode" v="82049"/>
    <tag k="addr:street" v="Wendelsteinstraße"/>
    <tag k="discovered_by" v="RambaZamba"/>
    <tag k="name" v="3"/>
    <tag k="source" v="survey"/>
  </node>
  <node id="444560061" version="3" timestamp="2009-08-17T18:11:17Z" uid="36809" user="pfoten_weg_!_" changeset="2180201" lat="48.068181" lon="11.53429">
    <tag k="addr:city" v="Pullach im Isartal"/>
    <tag k="addr:country" v="DE"/>
    <tag k="addr:housename" v="Wohngebäude"/>
    <tag k="addr:housenumber" v="3"/>
    <tag k="addr:postcode" v="82049"/>
    <tag k="addr:street" v="Wendelsteinstraße"/>
    <tag k="name" v="3"/>
    <tag k="source" v="survey"/>
  </node>
  <node id="444560062" version="1" timestamp="2009-07-20T18:12:20Z" uid="36809" user="pfoten_weg_!_" changeset="1887814" lat="48.067969" lon="11.53429">
    <tag k="addr:city" v="Pullach im Isartal"/>
    <tag k="addr:country" v="DE"/>
    <tag k="addr:housename" v="Wohngebäude"/>
    <tag k="addr:housenumber" v="1"/>
    <tag k="addr:postcode" v="82049"/>
    <tag k="addr:street" v="Wendelsteinstraße"/>
    <tag k="discovered_by" v="RambaZamba"/>
    <tag k="name" v="1"/>
    <tag k="source" v="survey"/>
  </node>
  <node id="444560062" version="3" timestamp="2009-08-17T18:11:18Z" uid="36809" user="pfoten_weg_!_" changeset="2180201" lat="48.067969" lon="11.53429">
    <tag k="addr:city" v="Pullach im Isartal"/>
    <tag k="addr:country" v="DE"/>
    <tag k="addr:housename" v="Wohngebäude"/>
    <tag k="addr:housenumber" v="1"/>
    <tag k="addr:postcode" v="82049"/>
    <tag k="addr:street" v="Wendelsteinstraße"/>
    <tag k="name" v="1"/>
    <tag k="source" v="survey"/>
  </node>
  <node id="444560063" version="1" timestamp="2009-07-20T18:12:20Z" uid="36809" user="pfoten_weg_!_" changeset="1887814" lat="48.068749" lon="11.534334">
    <tag k="addr:city" v="Pullach im Isartal"/>
    <tag k="addr:country" v="DE"/>
    <tag k="addr:housename" v="Wohngebäude"/>
    <tag k="addr:housenumber" v="7"/>
    <tag k="addr:postcode" v="82049"/>
    <tag k="addr:street" v="Wendelsteinstraße"/>
    <tag k="discovered_by" v="RambaZamba"/>
    <tag k="name" v="7"/>
    <tag k="source" v="survey"/>
  </node>
  <node id="444560063" version="3" timestamp="2009-08-17T18:11:18Z" uid="36809" user="pfoten_weg_!_" changeset="2180201" lat="48.068749" lon="11.534334">
    <tag k="addr:city" v="Pullach im Isartal"/>
    <tag k="addr:country" v="DE"/>
    <tag k="addr:housename" v="Wohngebäude"/>
    <tag k="addr:housenumber" v="7"/>
    <tag k="addr:postcode" v="82049"/>
    <tag k="addr:street" v="Wendelsteinstraße"/>
    <tag k="name" v="7"/>
    <tag k="source" v="survey"/>
  </node>
  <node id="444560065" version="1" timestamp="2009-07-20T18:12:20Z" uid="36809" user="pfoten_weg_!_" changeset="1887814" lat="48.068403" lon="11.534325">
    <tag k="addr:city" v="Pullach im Isartal"/>
    <tag k="addr:country" v="DE"/>
    <tag k="addr:housename" v="Wohngebäude"/>
    <tag k="addr:housenumber" v="5"/>
    <tag k="addr:postcode" v="82049"/>
    <tag k="addr:street" v="Wendelsteinstraße"/>
    <tag k="discovered_by" v="RambaZamba"/>
    <tag k="name" v="5"/>
    <tag k="source" v="survey"/>
  </node>
  <node id="444560065" version="3" timestamp="2009-08-17T18:10:47Z" uid="36809" user="pfoten_weg_!_" changeset="2180201" lat="48.068403" lon="11.534325">
    <tag k="addr:city" v="Pullach im Isartal"/>
    <tag k="addr:country" v="DE"/>
    <tag k="addr:housename" v="Wohngebäude"/>
    <tag k="addr:housenumber" v="5"/>
    <tag k="addr:postcode" v="82049"/>
    <tag k="addr:street" v="Wendelsteinstraße"/>
    <tag k="name" v="5"/>
    <tag k="source" v="survey"/>
  </node>
  <node id="444560066" version="1" timestamp="2009-07-20T18:12:20Z" uid="36809" user="pfoten_weg_!_" changeset="1887814" lat="48.06912" lon="11.534362">
    <tag k="addr:city" v="Pullach im Isartal"/>
    <tag k="addr:country" v="DE"/>
    <tag k="addr:housename" v="Wohngebäude"/>
    <tag k="addr:housenumber" v="11"/>
    <tag k="addr:postcode" v="82049"/>
    <tag k="addr:street" v="Wendelsteinstraße"/>
    <tag k="discovered_by" v="RambaZamba"/>
    <tag k="name" v="11"/>
    <tag k="source" v="survey"/>
  </node>
  <node id="444560066" version="3" timestamp="2009-08-17T18:10:47Z" uid="36809" user="pfoten_weg_!_" changeset="2180201" lat="48.06912" lon="11.534362">
    <tag k="addr:city" v="Pullach im Isartal"/>
    <tag k="addr:country" v="DE"/>
    <tag k="addr:housename" v="Wohngebäude"/>
    <tag k="addr:housenumber" v="11"/>
    <tag k="addr:postcode" v="82049"/>
    <tag k="addr:street" v="Wendelsteinstraße"/>
    <tag k="name" v="11"/>
    <tag k="source" v="survey"/>
  </node>
  <node id="444560067" version="1" timestamp="2009-07-20T18:12:21Z" uid="36809" user="pfoten_weg_!_" changeset="1887814" lat="48.069082" lon="11.534488">
    <tag k="addr:city" v="Pullach im Isartal"/>
    <tag k="addr:country" v="DE"/>
    <tag k="addr:housename" v="Wohngebäude"/>
    <tag k="addr:housenumber" v="9"/>
    <tag k="addr:postcode" v="82049"/>
    <tag k="addr:street" v="Wendelsteinstraße"/>
    <tag k="discovered_by" v="RambaZamba"/>
    <tag k="name" v="9"/>
    <tag k="source" v="survey"/>
  </node>
  <node id="444560067" version="3" timestamp="2009-08-17T18:10:47Z" uid="36809" user="pfoten_weg_!_" changeset="2180201" lat="48.069082" lon="11.534488">
    <tag k="addr:city" v="Pullach im Isartal"/>
    <tag k="addr:country" v="DE"/>
    <tag k="addr:housename" v="Wohngebäude"/>
    <tag k="addr:housenumber" v="9"/>
    <tag k="addr:postcode" v="82049"/>
    <tag k="addr:street" v="Wendelsteinstraße"/>
    <tag k="name" v="9"/>
    <tag k="source" v="survey"/>
  </node>
  <node id="444560069" version="1" timestamp="2009-07-20T18:12:21Z" uid="36809" user="pfoten_weg_!_" changeset="1887814" lat="48.069321" lon="11.534733">
    <tag k="addr:city" v="Pullach im Isartal"/>
    <tag k="addr:country" v="DE"/>
    <tag k="addr:housename" v="Wohngebäude"/>
    <tag k="addr:housenumber" v="12"/>
    <tag k="addr:postcode" v="82049"/>
    <tag k="addr:street" v="Wendelsteinstraße"/>
    <tag k="discovered_by" v="RambaZamba"/>
    <tag k="name" v="12"/>
    <tag k="source" v="survey"/>
  </node>
  <node id="444560069" version="3" timestamp="2009-08-17T18:10:46Z" uid="36809" user="pfoten_weg_!_" changeset="2180201" lat="48.069321" lon="11.534733">
    <tag k="addr:city" v="Pullach im Isartal"/>
    <tag k="addr:country" v="DE"/>
    <tag k="addr:housename" v="Wohngebäude"/>
    <tag k="addr:housenumber" v="12"/>
    <tag k="addr:postcode" v="82049"/>
    <tag k="addr:street" v="Wendelsteinstraße"/>
    <tag k="name" v="12"/>
    <tag k="source" v="survey"/>
  </node>
  <node id="444560072" version="1" timestamp="2009-07-20T18:12:21Z" uid="36809" user="pfoten_weg_!_" changeset="1887814" lat="48.068741" lon="11.53472">
    <tag k="addr:city" v="Pullach im Isartal"/>
    <tag k="addr:country" v="DE"/>
    <tag k="addr:housename" v="Wohngebäude"/>
    <tag k="addr:housenumber" v="8"/>
    <tag k="addr:postcode" v="82049"/>
    <tag k="addr:street" v="Wendelsteinstraße"/>
    <tag k="discovered_by" v="RambaZamba"/>
    <tag k="name" v="8"/>
    <tag k="source" v="survey"/>
  </node>
  <node id="444560072" version="3" timestamp="2009-08-17T18:10:45Z" uid="36809" user="pfoten_weg_!_" changeset="2180201" lat="48.068741" lon="11.53472">
    <tag k="addr:city" v="Pullach im Isartal"/>
    <tag k="addr:country" v="DE"/>
    <tag k="addr:housename" v="Wohngebäude"/>
    <tag k="addr:housenumber" v="8"/>
    <tag k="addr:postcode" v="82049"/>
    <tag k="addr:street" v="Wendelsteinstraße"/>
    <tag k="name" v="8"/>
    <tag k="source" v="survey"/>
  </node>
  <node id="444560075" version="1" timestamp="2009-07-20T18:12:21Z" uid="36809" user="pfoten_weg_!_" changeset="1887814" lat="48.069208" lon="11.534086">
    <tag k="addr:city" v="Pullach im Isartal"/>
    <tag k="addr:country" v="DE"/>
    <tag k="addr:housename" v="Wohngebäude"/>
    <tag k="addr:housenumber" v="13"/>
    <tag k="addr:postcode" v="82049"/>
    <tag k="addr:street" v="Wendelsteinstraße"/>
    <tag k="discovered_by" v="RambaZamba"/>
    <tag k="name" v="13"/>
    <tag k="source" v="survey"/>
  </node>
  <node id="444560075" version="3" timestamp="2009-08-17T18:10:45Z" uid="36809" user="pfoten_weg_!_" changeset="2180201" lat="48.069208" lon="11.534086">
    <tag k="addr:city" v="Pullach im Isartal"/>
    <tag k="addr:country" v="DE"/>
    <tag k="addr:housename" v="Wohngebäude"/>
    <tag k="addr:housenumber" v="13"/>
    <tag k="addr:postcode" v="82049"/>
    <tag k="addr:street" v="Wendelsteinstraße"/>
    <tag k="name" v="13"/>
    <tag k="source" v="survey"/>
  </node>
  <node id="444560078" version="1" timestamp="2009-07-20T18:12:22Z" uid="36809" user="pfoten_weg_!_" changeset="1887814" lat="48.069394" lon="11.534518">
    <tag k="addr:city" v="Pullach im Isartal"/>
    <tag k="addr:country" v="DE"/>
    <tag k="addr:housename" v="Wohngebäude"/>
    <tag k="addr:housenumber" v="12"/>
    <tag k="addr:postcode" v="82049"/>
    <tag k="addr:street" v="Wendelsteinstraße"/>
    <tag k="discovered_by" v="RambaZamba"/>
    <tag k="name" v="12A"/>
    <tag k="source" v="survey"/>
  </node>
  <node id="444560078" version="3" timestamp="2009-08-17T18:10:44Z" uid="36809" user="pfoten_weg_!_" changeset="2180201" lat="48.069394" lon="11.534518">
    <tag k="addr:city" v="Pullach im Isartal"/>
    <tag k="addr:country" v="DE"/>
    <tag k="addr:housename" v="Wohngebäude"/>
    <tag k="addr:housenumber" v="12"/>
    <tag k="addr:postcode" v="82049"/>
    <tag k="addr:street" v="Wendelsteinstraße"/>
    <tag k="name" v="12A"/>
    <tag k="source" v="survey"/>
  </node>
  <node id="444560079" version="1" timestamp="2009-07-20T18:12:22Z" uid="36809" user="pfoten_weg_!_" changeset="1887814" lat="48.067955" lon="11.534746">
    <tag k="addr:city" v="Pullach im Isartal"/>
    <tag k="addr:country" v="DE"/>
    <tag k="addr:housename" v="Wohngebäude"/>
    <tag k="addr:housenumber" v="2"/>
    <tag k="addr:postcode" v="82049"/>
    <tag k="addr:street" v="Wendelsteinstraße"/>
    <tag k="discovered_by" v="RambaZamba"/>
    <tag k="name" v="2"/>
    <tag k="source" v="survey"/>
  </node>
  <node id="444560079" version="3" timestamp="2009-08-17T18:10:43Z" uid="36809" user="pfoten_weg_!_" changeset="2180201" lat="48.067955" lon="11.534746">
    <tag k="addr:city" v="Pullach im Isartal"/>
    <tag k="addr:country" v="DE"/>
    <tag k="addr:housename" v="Wohngebäude"/>
    <tag k="addr:housenumber" v="2"/>
    <tag k="addr:postcode" v="82049"/>
    <tag k="addr:street" v="Wendelsteinstraße"/>
    <tag k="name" v="2"/>
    <tag k="source" v="survey"/>
  </node>
  <node id="444560085" version="1" timestamp="2009-07-20T18:12:22Z" uid="36809" user="pfoten_weg_!_" changeset="1887814" lat="48.067989" lon="11.535191">
    <tag k="addr:city" v="Pullach im Isartal"/>
    <tag k="addr:country" v="DE"/>
    <tag k="addr:housename" v="Wohngebäude"/>
    <tag k="addr:housenumber" v="11"/>
    <tag k="addr:postcode" v="82049"/>
    <tag k="addr:street" v="Georg-Kalb-Straße"/>
    <tag k="discovered_by" v="RambaZamba"/>
    <tag k="name" v="11"/>
    <tag k="source" v="survey"/>
  </node>
  <node id="444560085" version="3" timestamp="2009-08-17T18:10:52Z" uid="36809" user="pfoten_weg_!_" changeset="2180201" lat="48.067989" lon="11.535191">
    <tag k="addr:city" v="Pullach im Isartal"/>
    <tag k="addr:country" v="DE"/>
    <tag k="addr:housename" v="Wohngebäude"/>
    <tag k="addr:housenumber" v="11"/>
    <tag k="addr:postcode" v="82049"/>
    <tag k="addr:street" v="Georg-Kalb-Straße"/>
    <tag k="name" v="11"/>
    <tag k="source" v="survey"/>
  </node>
  <node id="444560088" version="1" timestamp="2009-07-20T18:12:23Z" uid="36809" user="pfoten_weg_!_" changeset="1887814" lat="48.068471" lon="11.53468">
    <tag k="addr:city" v="Pullach im Isartal"/>
    <tag k="addr:country" v="DE"/>
    <tag k="addr:housename" v="Wohngebäude"/>
    <tag k="addr:housenumber" v="6"/>
    <tag k="addr:postcode" v="82049"/>
    <tag k="addr:street" v="Wendelsteinstraße"/>
    <tag k="discovered_by" v="RambaZamba"/>
    <tag k="name" v="6"/>
    <tag k="source" v="survey"/>
  </node>
  <node id="444560088" version="3" timestamp="2009-08-17T18:10:51Z" uid="36809" user="pfoten_weg_!_" changeset="2180201" lat="48.068471" lon="11.53468">
    <tag k="addr:city" v="Pullach im Isartal"/>
    <tag k="addr:country" v="DE"/>
    <tag k="addr:housename" v="Wohngebäude"/>
    <tag k="addr:housenumber" v="6"/>
    <tag k="addr:postcode" v="82049"/>
    <tag k="addr:street" v="Wendelsteinstraße"/>
    <tag k="name" v="6"/>
    <tag k="source" v="survey"/>
  </node>
  <node id="444560091" version="1" timestamp="2009-07-20T18:12:23Z" uid="36809" user="pfoten_weg_!_" changeset="1887814" lat="48.068195" lon="11.534625">
    <tag k="addr:city" v="Pullach im Isartal"/>
    <tag k="addr:country" v="DE"/>
    <tag k="addr:housename" v="Wohngebäude"/>
    <tag k="addr:housenumber" v="4"/>
    <tag k="addr:postcode" v="82049"/>
    <tag k="addr:street" v="Wendelsteinstraße"/>
    <tag k="discovered_by" v="RambaZamba"/>
    <tag k="name" v="4"/>
    <tag k="source" v="survey"/>
  </node>
  <node id="444560091" version="3" timestamp="2009-08-17T18:10:50Z" uid="36809" user="pfoten_weg_!_" changeset="2180201" lat="48.068195" lon="11.534625">
    <tag k="addr:city" v="Pullach im Isartal"/>
    <tag k="addr:country" v="DE"/>
    <tag k="addr:housename" v="Wohngebäude"/>
    <tag k="addr:housenumber" v="4"/>
    <tag k="addr:postcode" v="82049"/>
    <tag k="addr:street" v="Wendelsteinstraße"/>
    <tag k="name" v="4"/>
    <tag k="source" v="survey"/>
  </node>
  <node id="444560094" version="1" timestamp="2009-07-20T18:12:23Z" uid="36809" user="pfoten_weg_!_" changeset="1887814" lat="48.068604" lon="11.535199">
    <tag k="addr:city" v="Pullach im Isartal"/>
    <tag k="addr:country" v="DE"/>
    <tag k="addr:housename" v="Wohngebäude"/>
    <tag k="addr:housenumber" v="17"/>
    <tag k="addr:postcode" v="82049"/>
    <tag k="addr:street" v="Georg-Kalb-Straße"/>
    <tag k="discovered_by" v="RambaZamba"/>
    <tag k="name" v="17"/>
    <tag k="source" v="survey"/>
  </node>
  <node id="444560094" version="3" timestamp="2009-08-17T18:10:49Z" uid="36809" user="pfoten_weg_!_" changeset="2180201" lat="48.068604" lon="11.535199">
    <tag k="addr:city" v="Pullach im Isartal"/>
    <tag k="addr:country" v="DE"/>
    <tag k="addr:housename" v="Wohngebäude"/>
    <tag k="addr:housenumber" v="17"/>
    <tag k="addr:postcode" v="82049"/>
    <tag k="addr:street" v="Georg-Kalb-Straße"/>
    <tag k="name" v="17"/>
    <tag k="source" v="survey"/>
  </node>
  <node id="444560096" version="1" timestamp="2009-07-20T18:12:24Z" uid="36809" user="pfoten_weg_!_" changeset="1887814" lat="48.068679" lon="11.535167">
    <tag k="addr:city" v="Pullach im Isartal"/>
    <tag k="addr:country" v="DE"/>
    <tag k="addr:housename" v="Wohngebäude"/>
    <tag k="addr:housenumber" v="17A"/>
    <tag k="addr:postcode" v="82049"/>
    <tag k="addr:street" v="Georg-Kalb-Straße"/>
    <tag k="discovered_by" v="RambaZamba"/>
    <tag k="name" v="17A"/>
    <tag k="source" v="survey"/>
  </node>
  <node id="444560096" version="3" timestamp="2009-08-17T18:10:56Z" uid="36809" user="pfoten_weg_!_" changeset="2180201" lat="48.068679" lon="11.535167">
    <tag k="addr:city" v="Pullach im Isartal"/>
    <tag k="addr:country" v="DE"/>
    <tag k="addr:housename" v="Wohngebäude"/>
    <tag k="addr:housenumber" v="17A"/>
    <tag k="addr:postcode" v="82049"/>
    <tag k="addr:street" v="Georg-Kalb-Straße"/>
    <tag k="name" v="17A"/>
    <tag k="source" v="survey"/>
  </node>
  <node id="444560100" version="1" timestamp="2009-07-20T18:12:24Z" uid="36809" user="pfoten_weg_!_" changeset="1887814" lat="48.068347" lon="11.535264">
    <tag k="addr:city" v="Pullach im Isartal"/>
    <tag k="addr:country" v="DE"/>
    <tag k="addr:housename" v="Wohngebäude"/>
    <tag k="addr:housenumber" v="15"/>
    <tag k="addr:postcode" v="82049"/>
    <tag k="addr:street" v="Georg-Kalb-Straße"/>
    <tag k="discovered_by" v="RambaZamba"/>
    <tag k="name" v="15"/>
    <tag k="source" v="survey"/>
  </node>
  <node id="444560100" version="3" timestamp="2009-08-17T18:10:54Z" uid="36809" user="pfoten_weg_!_" changeset="2180201" lat="48.068347" lon="11.535264">
    <tag k="addr:city" v="Pullach im Isartal"/>
    <tag k="addr:country" v="DE"/>
    <tag k="addr:housename" v="Wohngebäude"/>
    <tag k="addr:housenumber" v="15"/>
    <tag k="addr:postcode" v="82049"/>
    <tag k="addr:street" v="Georg-Kalb-Straße"/>
    <tag k="name" v="15"/>
    <tag k="source" v="survey"/>
  </node>
  <node id="444560103" version="1" timestamp="2009-07-20T18:12:24Z" uid="36809" user="pfoten_weg_!_" changeset="1887814" lat="48.06843" lon="11.535231">
    <tag k="addr:city" v="Pullach im Isartal"/>
    <tag k="addr:country" v="DE"/>
    <tag k="addr:housename" v="Wohngebäude"/>
    <tag k="addr:housenumber" v="15A"/>
    <tag k="addr:postcode" v="82049"/>
    <tag k="addr:street" v="Georg-Kalb-Straße"/>
    <tag k="discovered_by" v="RambaZamba"/>
    <tag k="name" v="15A"/>
    <tag k="source" v="survey"/>
  </node>
  <node id="444560103" version="3" timestamp="2009-08-17T18:10:55Z" uid="36809" user="pfoten_weg_!_" changeset="2180201" lat="48.06843" lon="11.535231">
    <tag k="addr:city" v="Pullach im Isartal"/>
    <tag k="addr:country" v="DE"/>
    <tag k="addr:housename" v="Wohngebäude"/>
    <tag k="addr:housenumber" v="15A"/>
    <tag k="addr:postcode" v="82049"/>
    <tag k="addr:street" v="Georg-Kalb-Straße"/>
    <tag k="name" v="15A"/>
    <tag k="source" v="survey"/>
  </node>
  <node id="444560105" version="1" timestamp="2009-07-20T18:12:25Z" uid="36809" user="pfoten_weg_!_" changeset="1887814" lat="48.069825" lon="11.535751">
    <tag k="addr:city" v="Pullach im Isartal"/>
    <tag k="addr:country" v="DE"/>
    <tag k="addr:housename" v="Wohngebäude"/>
    <tag k="addr:housenumber" v="12"/>
    <tag k="addr:postcode" v="82049"/>
    <tag k="addr:street" v="Georg-Kalb-Straße"/>
    <tag k="discovered_by" v="RambaZamba"/>
    <tag k="name" v="12"/>
    <tag k="source" v="survey"/>
  </node>
  <node id="444560105" version="3" timestamp="2009-08-17T18:10:54Z" uid="36809" user="pfoten_weg_!_" changeset="2180201" lat="48.069825" lon="11.535751">
    <tag k="addr:city" v="Pullach im Isartal"/>
    <tag k="addr:country" v="DE"/>
    <tag k="addr:housename" v="Wohngebäude"/>
    <tag k="addr:housenumber" v="12"/>
    <tag k="addr:postcode" v="82049"/>
    <tag k="addr:street" v="Georg-Kalb-Straße"/>
    <tag k="name" v="12"/>
    <tag k="source" v="survey"/>
  </node>
  <node id="444560106" version="1" timestamp="2009-07-20T18:12:25Z" uid="36809" user="pfoten_weg_!_" changeset="1887814" lat="48.069514" lon="11.535685">
    <tag k="addr:city" v="Pullach im Isartal"/>
    <tag k="addr:country" v="DE"/>
    <tag k="addr:housename" v="Wohngebäude"/>
    <tag k="addr:housenumber" v="10"/>
    <tag k="addr:postcode" v="82049"/>
    <tag k="addr:street" v="Georg-Kalb-Straße"/>
    <tag k="discovered_by" v="RambaZamba"/>
    <tag k="name" v="10"/>
    <tag k="source" v="survey"/>
  </node>
  <node id="444560106" version="3" timestamp="2009-08-17T18:10:54Z" uid="36809" user="pfoten_weg_!_" changeset="2180201" lat="48.069514" lon="11.535685">
    <tag k="addr:city" v="Pullach im Isartal"/>
    <tag k="addr:country" v="DE"/>
    <tag k="addr:housename" v="Wohngebäude"/>
    <tag k="addr:housenumber" v="10"/>
    <tag k="addr:postcode" v="82049"/>
    <tag k="addr:street" v="Georg-Kalb-Straße"/>
    <tag k="name" v="10"/>
    <tag k="source" v="survey"/>
  </node>
  <node id="444560110" version="1" timestamp="2009-07-20T18:12:25Z" uid="36809" user="pfoten_weg_!_" changeset="1887814" lat="48.069353" lon="11.535081">
    <tag k="addr:city" v="Pullach im Isartal"/>
    <tag k="addr:country" v="DE"/>
    <tag k="addr:housename" v="Wohngebäude"/>
    <tag k="addr:housenumber" v="21"/>
    <tag k="addr:postcode" v="82049"/>
    <tag k="discovered_by" v="RambaZamba"/>
    <tag k="name" v="21"/>
    <tag k="source" v="survey"/>
  </node>
  <node id="444560110" version="3" timestamp="2009-08-17T18:10:53Z" uid="36809" user="pfoten_weg_!_" changeset="2180201" lat="48.069353" lon="11.535081">
    <tag k="addr:city" v="Pullach im Isartal"/>
    <tag k="addr:country" v="DE"/>
    <tag k="addr:housename" v="Wohngebäude"/>
    <tag k="addr:housenumber" v="21"/>
    <tag k="addr:postcode" v="82049"/>
    <tag k="name" v="21"/>
    <tag k="source" v="survey"/>
  </node>
  <node id="444560112" version="1" timestamp="2009-07-20T18:12:25Z" uid="36809" user="pfoten_weg_!_" changeset="1887814" lat="48.069996" lon="11.535406">
    <tag k="addr:city" v="Pullach im Isartal"/>
    <tag k="addr:country" v="DE"/>
    <tag k="addr:housename" v="Wohngebäude"/>
    <tag k="addr:housenumber" v="25"/>
    <tag k="addr:postcode" v="82049"/>
    <tag k="addr:street" v="Georg-Kalb-Straße"/>
    <tag k="discovered_by" v="RambaZamba"/>
    <tag k="name" v="25"/>
    <tag k="source" v="survey"/>
  </node>
  <node id="444560112" version="3" timestamp="2009-08-17T18:11:00Z" uid="36809" user="pfoten_weg_!_" changeset="2180201" lat="48.069996" lon="11.535406">
    <tag k="addr:city" v="Pullach im Isartal"/>
    <tag k="addr:country" v="DE"/>
    <tag k="addr:housename" v="Wohngebäude"/>
    <tag k="addr:housenumber" v="25"/>
    <tag k="addr:postcode" v="82049"/>
    <tag k="addr:street" v="Georg-Kalb-Straße"/>
    <tag k="name" v="25"/>
    <tag k="source" v="survey"/>
  </node>
  <node id="444560116" version="1" timestamp="2009-07-20T18:12:26Z" uid="36809" user="pfoten_weg_!_" changeset="1887814" lat="48.06565" lon="11.529905">
    <tag k="addr:city" v="Pullach im Isartal"/>
    <tag k="addr:country" v="DE"/>
    <tag k="addr:housename" v="Wohngebäude"/>
    <tag k="addr:housenumber" v="23"/>
    <tag k="addr:postcode" v="82049"/>
    <tag k="addr:street" v="Am Grundelberg"/>
    <tag k="discovered_by" v="RambaZamba"/>
    <tag k="name" v="23"/>
    <tag k="source" v="survey"/>
  </node>
  <node id="444560116" version="3" timestamp="2009-08-17T18:10:59Z" uid="36809" user="pfoten_weg_!_" changeset="2180201" lat="48.06565" lon="11.529905">
    <tag k="addr:city" v="Pullach im Isartal"/>
    <tag k="addr:country" v="DE"/>
    <tag k="addr:housename" v="Wohngebäude"/>
    <tag k="addr:housenumber" v="23"/>
    <tag k="addr:postcode" v="82049"/>
    <tag k="addr:street" v="Am Grundelberg"/>
    <tag k="name" v="23"/>
    <tag k="source" v="survey"/>
  </node>
  <node id="444560119" version="1" timestamp="2009-07-20T18:12:26Z" uid="36809" user="pfoten_weg_!_" changeset="1887814" lat="48.067632" lon="11.537058">
    <tag k="addr:city" v="Pullach im Isartal"/>
    <tag k="addr:country" v="DE"/>
    <tag k="addr:housename" v="Wohngebäude"/>
    <tag k="addr:housenumber" v="9"/>
    <tag k="addr:postcode" v="82049"/>
    <tag k="addr:street" v="Georg-Kalb-Straße"/>
    <tag k="discovered_by" v="RambaZamba"/>
    <tag k="name" v="9"/>
    <tag k="source" v="survey"/>
  </node>
  <node id="444560119" version="3" timestamp="2009-08-17T18:10:59Z" uid="36809" user="pfoten_weg_!_" changeset="2180201" lat="48.067632" lon="11.537058">
    <tag k="addr:city" v="Pullach im Isartal"/>
    <tag k="addr:country" v="DE"/>
    <tag k="addr:housename" v="Wohngebäude"/>
    <tag k="addr:housenumber" v="9"/>
    <tag k="addr:postcode" v="82049"/>
    <tag k="addr:street" v="Georg-Kalb-Straße"/>
    <tag k="name" v="9"/>
    <tag k="source" v="survey"/>
  </node>
  <node id="444560121" version="1" timestamp="2009-07-20T18:12:26Z" uid="36809" user="pfoten_weg_!_" changeset="1887814" lat="48.068555" lon="11.53653">
    <tag k="addr:city" v="Pullach im Isartal"/>
    <tag k="addr:country" v="DE"/>
    <tag k="addr:housename" v="Bürogebäude"/>
    <tag k="addr:housenumber" v="5-8 Hermes Arzneimittel"/>
    <tag k="addr:postcode" v="82049"/>
    <tag k="addr:street" v="Georg-Kalb-Straße"/>
    <tag k="discovered_by" v="RambaZamba"/>
    <tag k="name" v="5-8 Hermes Arzneimittel"/>
    <tag k="source" v="survey"/>
  </node>
  <node id="444560121" version="3" timestamp="2009-08-26T00:07:50Z" uid="36809" user="pfoten_weg_!_" changeset="2262648" lat="48.068555" lon="11.53653">
    <tag k="addr:city" v="Pullach im Isartal"/>
    <tag k="addr:country" v="DE"/>
    <tag k="addr:housename" v="Bürogebäude"/>
    <tag k="addr:housenumber" v="5-8 Hermes Arzneimittel"/>
    <tag k="addr:postcode" v="82049"/>
    <tag k="addr:street" v="Georg-Kalb-Straße"/>
    <tag k="name" v="5-8 Hermes Arzneimittel"/>
    <tag k="source" v="survey"/>
  </node>
  <node id="444560121" version="4" timestamp="2009-08-26T01:10:01Z" uid="36809" user="pfoten_weg_!_" changeset="2262879" lat="48.068555" lon="11.53653">
    <tag k="addr:city" v="Pullach im Isartal"/>
    <tag k="addr:country" v="DE"/>
    <tag k="addr:housename" v="Bürogebäude"/>
    <tag k="addr:housenumber" v="5-8 Hermes Arzneimittel"/>
    <tag k="addr:postcode" v="82049"/>
    <tag k="addr:street" v="Georg-Kalb-Straße"/>
    <tag k="name" v="5-8 Hermes Arzneimittel"/>
    <tag k="source" v="survey"/>
  </node>
  <node id="444560121" version="5" timestamp="2009-10-02T20:44:44Z" uid="86259" user="hasse_osm_korinthenkacker" changeset="2717407" lat="48.068555" lon="11.53653">
    <tag k="addr:city" v="Pullach im Isartal"/>
    <tag k="addr:country" v="DE"/>
    <tag k="addr:housename" v="Bürogebäude"/>
    <tag k="addr:housenumber" v="5-8 Hermes Arzneimittel"/>
    <tag k="addr:postcode" v="82049"/>
    <tag k="addr:street" v="Georg-Kalb-Straße"/>
    <tag k="name" v="5-8 Hermes Arzneimittel"/>
    <tag k="source" v="survey"/>
  </node>
  <node id="444560122" version="1" timestamp="2009-07-20T18:12:26Z" uid="36809" user="pfoten_weg_!_" changeset="1887814" lat="48.069571" lon="11.535966">
    <tag k="addr:city" v="Pullach im Isartal"/>
    <tag k="addr:country" v="DE"/>
    <tag k="addr:housename" v="Wohngebäude"/>
    <tag k="addr:housenumber" v="10A"/>
    <tag k="addr:postcode" v="82049"/>
    <tag k="addr:street" v="Georg-Kalb-Straße"/>
    <tag k="discovered_by" v="RambaZamba"/>
    <tag k="name" v="10A"/>
    <tag k="source" v="survey"/>
  </node>
  <node id="444560122" version="3" timestamp="2009-08-17T18:10:58Z" uid="36809" user="pfoten_weg_!_" changeset="2180201" lat="48.069571" lon="11.535966">
    <tag k="addr:city" v="Pullach im Isartal"/>
    <tag k="addr:country" v="DE"/>
    <tag k="addr:housename" v="Wohngebäude"/>
    <tag k="addr:housenumber" v="10A"/>
    <tag k="addr:postcode" v="82049"/>
    <tag k="addr:street" v="Georg-Kalb-Straße"/>
    <tag k="name" v="10A"/>
    <tag k="source" v="survey"/>
  </node>
  <node id="444560124" version="1" timestamp="2009-07-20T18:12:27Z" uid="36809" user="pfoten_weg_!_" changeset="1887814" lat="48.065849" lon="11.528389">
    <tag k="addr:city" v="Pullach im Isartal"/>
    <tag k="addr:country" v="DE"/>
    <tag k="addr:housename" v="Wohngebäude"/>
    <tag k="addr:housenumber" v="15"/>
    <tag k="addr:postcode" v="82049"/>
    <tag k="addr:street" v="Am Grundelberg"/>
    <tag k="discovered_by" v="RambaZamba"/>
    <tag k="name" v="15"/>
    <tag k="source" v="survey"/>
  </node>
  <node id="444560124" version="3" timestamp="2009-08-17T18:10:56Z" uid="36809" user="pfoten_weg_!_" changeset="2180201" lat="48.065849" lon="11.528389">
    <tag k="addr:city" v="Pullach im Isartal"/>
    <tag k="addr:country" v="DE"/>
    <tag k="addr:housename" v="Wohngebäude"/>
    <tag k="addr:housenumber" v="15"/>
    <tag k="addr:postcode" v="82049"/>
    <tag k="addr:street" v="Am Grundelberg"/>
    <tag k="name" v="15"/>
    <tag k="source" v="survey"/>
  </node>
  <node id="444560128" version="1" timestamp="2009-07-20T18:12:27Z" uid="36809" user="pfoten_weg_!_" changeset="1887814" lat="48.065824" lon="11.528751">
    <tag k="addr:city" v="Pullach im Isartal"/>
    <tag k="addr:country" v="DE"/>
    <tag k="addr:housename" v="Wohngebäude"/>
    <tag k="addr:housenumber" v="17"/>
    <tag k="addr:postcode" v="82049"/>
    <tag k="addr:street" v="Am Grundelberg"/>
    <tag k="discovered_by" v="RambaZamba"/>
    <tag k="name" v="17"/>
    <tag k="source" v="survey"/>
  </node>
  <node id="444560128" version="3" timestamp="2009-08-17T18:10:12Z" uid="36809" user="pfoten_weg_!_" changeset="2180201" lat="48.065824" lon="11.528751">
    <tag k="addr:city" v="Pullach im Isartal"/>
    <tag k="addr:country" v="DE"/>
    <tag k="addr:housename" v="Wohngebäude"/>
    <tag k="addr:housenumber" v="17"/>
    <tag k="addr:postcode" v="82049"/>
    <tag k="addr:street" v="Am Grundelberg"/>
    <tag k="name" v="17"/>
    <tag k="source" v="survey"/>
  </node>
  <node id="444560132" version="1" timestamp="2009-07-20T18:12:27Z" uid="36809" user="pfoten_weg_!_" changeset="1887814" lat="48.065741" lon="11.529116">
    <tag k="addr:city" v="Pullach im Isartal"/>
    <tag k="addr:country" v="DE"/>
    <tag k="addr:housename" v="Wohngebäude"/>
    <tag k="addr:housenumber" v="19"/>
    <tag k="addr:postcode" v="82049"/>
    <tag k="addr:street" v="Am Grundelberg"/>
    <tag k="discovered_by" v="RambaZamba"/>
    <tag k="name" v="19"/>
    <tag k="source" v="survey"/>
  </node>
  <node id="444560132" version="3" timestamp="2009-08-17T18:10:13Z" uid="36809" user="pfoten_weg_!_" changeset="2180201" lat="48.065741" lon="11.529116">
    <tag k="addr:city" v="Pullach im Isartal"/>
    <tag k="addr:country" v="DE"/>
    <tag k="addr:housename" v="Wohngebäude"/>
    <tag k="addr:housenumber" v="19"/>
    <tag k="addr:postcode" v="82049"/>
    <tag k="addr:street" v="Am Grundelberg"/>
    <tag k="name" v="19"/>
    <tag k="source" v="survey"/>
  </node>
  <node id="444560134" version="1" timestamp="2009-07-20T18:12:28Z" uid="36809" user="pfoten_weg_!_" changeset="1887814" lat="48.065659" lon="11.529502">
    <tag k="addr:city" v="Pullach im Isartal"/>
    <tag k="addr:country" v="DE"/>
    <tag k="addr:housename" v="Wohngebäude"/>
    <tag k="addr:housenumber" v="21"/>
    <tag k="addr:postcode" v="82049"/>
    <tag k="addr:street" v="Am Grundelberg"/>
    <tag k="discovered_by" v="RambaZamba"/>
    <tag k="name" v="21"/>
    <tag k="source" v="survey"/>
  </node>
  <node id="444560134" version="3" timestamp="2009-08-17T18:10:14Z" uid="36809" user="pfoten_weg_!_" changeset="2180201" lat="48.065659" lon="11.529502">
    <tag k="addr:city" v="Pullach im Isartal"/>
    <tag k="addr:country" v="DE"/>
    <tag k="addr:housename" v="Wohngebäude"/>
    <tag k="addr:housenumber" v="21"/>
    <tag k="addr:postcode" v="82049"/>
    <tag k="addr:street" v="Am Grundelberg"/>
    <tag k="name" v="21"/>
    <tag k="source" v="survey"/>
  </node>
  <node id="444560152" version="1" timestamp="2009-07-20T18:12:29Z" uid="36809" user="pfoten_weg_!_" changeset="1887814" lat="48.066012" lon="11.530074">
    <tag k="addr:city" v="Pullach im Isartal"/>
    <tag k="addr:country" v="DE"/>
    <tag k="addr:housename" v="Wohngebäude"/>
    <tag k="addr:housenumber" v="1"/>
    <tag k="addr:postcode" v="82049"/>
    <tag k="addr:street" v="Am Grundelberg"/>
    <tag k="discovered_by" v="RambaZamba"/>
    <tag k="name" v="1"/>
    <tag k="source" v="survey"/>
  </node>
  <node id="444560152" version="3" timestamp="2009-08-17T18:10:11Z" uid="36809" user="pfoten_weg_!_" changeset="2180201" lat="48.066012" lon="11.530074">
    <tag k="addr:city" v="Pullach im Isartal"/>
    <tag k="addr:country" v="DE"/>
    <tag k="addr:housename" v="Wohngebäude"/>
    <tag k="addr:housenumber" v="1"/>
    <tag k="addr:postcode" v="82049"/>
    <tag k="addr:street" v="Am Grundelberg"/>
    <tag k="name" v="1"/>
    <tag k="source" v="survey"/>
  </node>
  <node id="444560158" version="1" timestamp="2009-07-20T18:12:30Z" uid="36809" user="pfoten_weg_!_" changeset="1887814" lat="48.066205" lon="11.529146">
    <tag k="addr:city" v="Pullach im Isartal"/>
    <tag k="addr:country" v="DE"/>
    <tag k="addr:housename" v="Wohngebäude"/>
    <tag k="addr:housenumber" v="9"/>
    <tag k="addr:postcode" v="82049"/>
    <tag k="addr:street" v="Am Grundelberg"/>
    <tag k="discovered_by" v="RambaZamba"/>
    <tag k="name" v="9"/>
    <tag k="source" v="survey"/>
  </node>
  <node id="444560158" version="3" timestamp="2009-08-17T18:10:12Z" uid="36809" user="pfoten_weg_!_" changeset="2180201" lat="48.066205" lon="11.529146">
    <tag k="addr:city" v="Pullach im Isartal"/>
    <tag k="addr:country" v="DE"/>
    <tag k="addr:housename" v="Wohngebäude"/>
    <tag k="addr:housenumber" v="9"/>
    <tag k="addr:postcode" v="82049"/>
    <tag k="addr:street" v="Am Grundelberg"/>
    <tag k="name" v="9"/>
    <tag k="source" v="survey"/>
  </node>
  <node id="444560161" version="1" timestamp="2009-07-20T18:12:30Z" uid="36809" user="pfoten_weg_!_" changeset="1887814" lat="48.066245" lon="11.528915">
    <tag k="addr:city" v="Pullach im Isartal"/>
    <tag k="addr:country" v="DE"/>
    <tag k="addr:housename" v="Wohngebäude"/>
    <tag k="addr:housenumber" v="11"/>
    <tag k="addr:postcode" v="82049"/>
    <tag k="addr:street" v="Am Grundelberg"/>
    <tag k="discovered_by" v="RambaZamba"/>
    <tag k="name" v="11"/>
    <tag k="source" v="survey"/>
  </node>
  <node id="444560161" version="3" timestamp="2009-08-17T18:10:20Z" uid="36809" user="pfoten_weg_!_" changeset="2180201" lat="48.066245" lon="11.528915">
    <tag k="addr:city" v="Pullach im Isartal"/>
    <tag k="addr:country" v="DE"/>
    <tag k="addr:housename" v="Wohngebäude"/>
    <tag k="addr:housenumber" v="11"/>
    <tag k="addr:postcode" v="82049"/>
    <tag k="addr:street" v="Am Grundelberg"/>
    <tag k="name" v="11"/>
    <tag k="source" v="survey"/>
  </node>
  <node id="444560169" version="1" timestamp="2009-07-20T18:12:30Z" uid="36809" user="pfoten_weg_!_" changeset="1887814" lat="48.066166" lon="11.528475">
    <tag k="addr:city" v="Pullach im Isartal"/>
    <tag k="addr:country" v="DE"/>
    <tag k="addr:housename" v="Wohngebäude"/>
    <tag k="addr:housenumber" v="13"/>
    <tag k="addr:postcode" v="82049"/>
    <tag k="addr:street" v="Am Grundelberg"/>
    <tag k="discovered_by" v="RambaZamba"/>
    <tag k="name" v="13"/>
    <tag k="source" v="survey"/>
  </node>
  <node id="444560169" version="3" timestamp="2009-08-17T18:10:22Z" uid="36809" user="pfoten_weg_!_" changeset="2180201" lat="48.066166" lon="11.528475">
    <tag k="addr:city" v="Pullach im Isartal"/>
    <tag k="addr:country" v="DE"/>
    <tag k="addr:housename" v="Wohngebäude"/>
    <tag k="addr:housenumber" v="13"/>
    <tag k="addr:postcode" v="82049"/>
    <tag k="addr:street" v="Am Grundelberg"/>
    <tag k="name" v="13"/>
    <tag k="source" v="survey"/>
  </node>
  <node id="444560175" version="1" timestamp="2009-07-20T18:12:30Z" uid="36809" user="pfoten_weg_!_" changeset="1887814" lat="48.065996" lon="11.529403">
    <tag k="addr:city" v="Pullach im Isartal"/>
    <tag k="addr:country" v="DE"/>
    <tag k="addr:housename" v="Wohngebäude"/>
    <tag k="addr:housenumber" v="7"/>
    <tag k="addr:postcode" v="82049"/>
    <tag k="addr:street" v="Am Grundelberg"/>
    <tag k="discovered_by" v="RambaZamba"/>
    <tag k="name" v="7"/>
    <tag k="source" v="survey"/>
  </node>
  <node id="444560175" version="3" timestamp="2009-08-17T18:10:23Z" uid="36809" user="pfoten_weg_!_" changeset="2180201" lat="48.065996" lon="11.529403">
    <tag k="addr:city" v="Pullach im Isartal"/>
    <tag k="addr:country" v="DE"/>
    <tag k="addr:housename" v="Wohngebäude"/>
    <tag k="addr:housenumber" v="7"/>
    <tag k="addr:postcode" v="82049"/>
    <tag k="addr:street" v="Am Grundelberg"/>
    <tag k="name" v="7"/>
    <tag k="source" v="survey"/>
  </node>
  <node id="444560182" version="1" timestamp="2009-07-20T18:12:31Z" uid="36809" user="pfoten_weg_!_" changeset="1887814" lat="48.065962" lon="11.529591">
    <tag k="addr:city" v="Pullach im Isartal"/>
    <tag k="addr:country" v="DE"/>
    <tag k="addr:housename" v="Wohngebäude"/>
    <tag k="addr:housenumber" v="5"/>
    <tag k="addr:postcode" v="82049"/>
    <tag k="addr:street" v="Am Grundelberg"/>
    <tag k="discovered_by" v="RambaZamba"/>
    <tag k="name" v="5"/>
    <tag k="source" v="survey"/>
  </node>
  <node id="444560182" version="3" timestamp="2009-08-17T18:10:16Z" uid="36809" user="pfoten_weg_!_" changeset="2180201" lat="48.065962" lon="11.529591">
    <tag k="addr:city" v="Pullach im Isartal"/>
    <tag k="addr:country" v="DE"/>
    <tag k="addr:housename" v="Wohngebäude"/>
    <tag k="addr:housenumber" v="5"/>
    <tag k="addr:postcode" v="82049"/>
    <tag k="addr:street" v="Am Grundelberg"/>
    <tag k="name" v="5"/>
    <tag k="source" v="survey"/>
  </node>
  <node id="444560188" version="1" timestamp="2009-07-20T18:12:31Z" uid="36809" user="pfoten_weg_!_" changeset="1887814" lat="48.065929" lon="11.52977">
    <tag k="addr:city" v="Pullach im Isartal"/>
    <tag k="addr:country" v="DE"/>
    <tag k="addr:housename" v="Wohngebäude"/>
    <tag k="addr:housenumber" v="3"/>
    <tag k="addr:postcode" v="82049"/>
    <tag k="addr:street" v="Am Grundelberg"/>
    <tag k="discovered_by" v="RambaZamba"/>
    <tag k="name" v="3"/>
    <tag k="source" v="survey"/>
  </node>
  <node id="444560188" version="3" timestamp="2009-08-17T18:10:18Z" uid="36809" user="pfoten_weg_!_" changeset="2180201" lat="48.065929" lon="11.52977">
    <tag k="addr:city" v="Pullach im Isartal"/>
    <tag k="addr:country" v="DE"/>
    <tag k="addr:housename" v="Wohngebäude"/>
    <tag k="addr:housenumber" v="3"/>
    <tag k="addr:postcode" v="82049"/>
    <tag k="addr:street" v="Am Grundelberg"/>
    <tag k="name" v="3"/>
    <tag k="source" v="survey"/>
  </node>
  <node id="444561217" version="1" timestamp="2009-07-20T18:14:48Z" uid="9581" user="Lobelt" changeset="1887841" lat="50.7280969" lon="11.3458861"/>
  <node id="444561218" version="1" timestamp="2009-07-20T18:14:48Z" uid="9581" user="Lobelt" changeset="1887841" lat="50.7283586" lon="11.346332"/>
  <node id="444561220" version="1" timestamp="2009-07-20T18:14:48Z" uid="9581" user="Lobelt" changeset="1887841" lat="50.7277837" lon="11.3472107"/>
  <node id="444561221" version="1" timestamp="2009-07-20T18:14:48Z" uid="9581" user="Lobelt" changeset="1887841" lat="50.7279177" lon="11.3469992"/>
  <node id="444561222" version="1" timestamp="2009-07-20T18:14:48Z" uid="9581" user="Lobelt" changeset="1887841" lat="50.7276704" lon="11.3464622"/>
  <node id="444561223" version="1" timestamp="2009-07-20T18:14:48Z" uid="9581" user="Lobelt" changeset="1887841" lat="50.7285151" lon="11.3459089"/>
  <node id="444561224" version="1" timestamp="2009-07-20T18:14:48Z" uid="9581" user="Lobelt" changeset="1887841" lat="50.7286964" lon="11.3459186"/>
  <node id="444561225" version="1" timestamp="2009-07-20T18:14:48Z" uid="9581" user="Lobelt" changeset="1887841" lat="50.728921" lon="11.346026"/>
  <node id="444561227" version="1" timestamp="2009-07-20T18:14:48Z" uid="9581" user="Lobelt" changeset="1887841" lat="50.7294237" lon="11.3460781"/>
  <node id="444561228" version="1" timestamp="2009-07-20T18:14:48Z" uid="9581" user="Lobelt" changeset="1887841" lat="50.7294525" lon="11.3460521"/>
  <node id="444561230" version="1" timestamp="2009-07-20T18:14:48Z" uid="9581" user="Lobelt" changeset="1887841" lat="50.729401" lon="11.3458405"/>
  <node id="444561231" version="1" timestamp="2009-07-20T18:14:49Z" uid="9581" user="Lobelt" changeset="1887841" lat="50.7284677" lon="11.3455997"/>
  <node id="444561232" version="1" timestamp="2009-07-20T18:14:49Z" uid="9581" user="Lobelt" changeset="1887841" lat="50.7247404" lon="11.3395747"/>
  <node id="444561234" version="1" timestamp="2009-07-20T18:14:49Z" uid="9581" user="Lobelt" changeset="1887841" lat="50.7248459" lon="11.3398429"/>
  <node id="444561235" version="1" timestamp="2009-07-20T18:14:49Z" uid="9581" user="Lobelt" changeset="1887841" lat="50.7246003" lon="11.3406214"/>
  <node id="444561237" version="1" timestamp="2009-07-20T18:14:49Z" uid="9581" user="Lobelt" changeset="1887841" lat="50.7235688" lon="11.341632"/>
  <node id="444561240" version="1" timestamp="2009-07-20T18:14:49Z" uid="9581" user="Lobelt" changeset="1887841" lat="50.7232892" lon="11.3422548"/>
  <node id="444561241" version="1" timestamp="2009-07-20T18:14:49Z" uid="9581" user="Lobelt" changeset="1887841" lat="50.7265491" lon="11.3382186"/>
  <node id="444561242" version="1" timestamp="2009-07-20T18:14:49Z" uid="9581" user="Lobelt" changeset="1887841" lat="50.7266661" lon="11.3386925"/>
  <node id="444561244" version="1" timestamp="2009-07-20T18:14:49Z" uid="9581" user="Lobelt" changeset="1887841" lat="50.7261733" lon="11.3391377"/>
  <node id="444561245" version="1" timestamp="2009-07-20T18:14:49Z" uid="9581" user="Lobelt" changeset="1887841" lat="50.7260661" lon="11.3391143"/>
  <node id="444561246" version="1" timestamp="2009-07-20T18:14:49Z" uid="9581" user="Lobelt" changeset="1887841" lat="50.7258453" lon="11.3389763"/>
  <node id="444561248" version="1" timestamp="2009-07-20T18:14:49Z" uid="9581" user="Lobelt" changeset="1887841" lat="50.7256705" lon="11.3391403"/>
  <node id="444561249" version="1" timestamp="2009-07-20T18:14:49Z" uid="9581" user="Lobelt" changeset="1887841" lat="50.725598" lon="11.3392861"/>
  <node id="444561250" version="1" timestamp="2009-07-20T18:14:50Z" uid="9581" user="Lobelt" changeset="1887841" lat="50.7256013" lon="11.3394397"/>
  <node id="444561251" version="1" timestamp="2009-07-20T18:14:50Z" uid="9581" user="Lobelt" changeset="1887841" lat="50.7260299" lon="11.3400803"/>
  <node id="444561253" version="1" timestamp="2009-07-20T18:14:50Z" uid="9581" user="Lobelt" changeset="1887841" lat="50.7264535" lon="11.3407468"/>
  <node id="444561254" version="1" timestamp="2009-07-20T18:14:50Z" uid="9581" user="Lobelt" changeset="1887841" lat="50.7265952" lon="11.341015"/>
  <node id="444561255" version="1" timestamp="2009-07-20T18:14:50Z" uid="9581" user="Lobelt" changeset="1887841" lat="50.7266051" lon="11.3411608"/>
  <node id="444561256" version="1" timestamp="2009-07-20T18:14:50Z" uid="9581" user="Lobelt" changeset="1887841" lat="50.7265227" lon="11.3415123"/>
  <node id="444561257" version="1" timestamp="2009-07-20T18:14:50Z" uid="9581" user="Lobelt" changeset="1887841" lat="50.7265507" lon="11.3416243"/>
  <node id="444561258" version="1" timestamp="2009-07-20T18:14:50Z" uid="9581" user="Lobelt" changeset="1887841" lat="50.7265985" lon="11.3416556"/>
  <node id="444561260" version="1" timestamp="2009-07-20T18:14:50Z" uid="9581" user="Lobelt" changeset="1887841" lat="50.7269694" lon="11.3419628"/>
  <node id="444561261" version="1" timestamp="2009-07-20T18:14:50Z" uid="9581" user="Lobelt" changeset="1887841" lat="50.727032" lon="11.3419966"/>
  <node id="444561262" version="1" timestamp="2009-07-20T18:14:50Z" uid="9581" user="Lobelt" changeset="1887841" lat="50.7270996" lon="11.341968"/>
  <node id="444561264" version="1" timestamp="2009-07-20T18:14:50Z" uid="9581" user="Lobelt" changeset="1887841" lat="50.7262408" lon="11.3402235"/>
  <node id="444561265" version="1" timestamp="2009-07-20T18:14:51Z" uid="9581" user="Lobelt" changeset="1887841" lat="50.7268276" lon="11.3403042"/>
  <node id="444561266" version="1" timestamp="2009-07-20T18:14:51Z" uid="9581" user="Lobelt" changeset="1887841" lat="50.7269446" lon="11.3402495"/>
  <node id="444561267" version="1" timestamp="2009-07-20T18:14:51Z" uid="9581" user="Lobelt" changeset="1887841" lat="50.7271787" lon="11.3399657"/>
  <node id="444561268" version="1" timestamp="2009-07-20T18:14:51Z" uid="9581" user="Lobelt" changeset="1887841" lat="50.7276666" lon="11.3392757"/>
  <node id="444561270" version="1" timestamp="2009-07-20T18:14:51Z" uid="9581" user="Lobelt" changeset="1887841" lat="50.7278363" lon="11.3390856"/>
  <node id="444561271" version="1" timestamp="2009-07-20T18:14:51Z" uid="9581" user="Lobelt" changeset="1887841" lat="50.7279526" lon="11.3388163"/>
  <node id="444561273" version="1" timestamp="2009-07-20T18:14:51Z" uid="9581" user="Lobelt" changeset="1887841" lat="50.7282142" lon="11.3393045"/>
  <node id="444561274" version="1" timestamp="2009-07-20T18:14:51Z" uid="9581" user="Lobelt" changeset="1887841" lat="50.728447" lon="11.3399424"/>
  <node id="444561275" version="1" timestamp="2009-07-20T18:14:51Z" uid="9581" user="Lobelt" changeset="1887841" lat="50.7279629" lon="11.3404827"/>
  <node id="444561276" version="1" timestamp="2009-07-20T18:14:51Z" uid="9581" user="Lobelt" changeset="1887841" lat="50.7278125" lon="11.340704"/>
  <node id="444561277" version="1" timestamp="2009-07-20T18:14:51Z" uid="9581" user="Lobelt" changeset="1887841" lat="50.7280206" lon="11.3409937"/>
  <node id="444561278" version="1" timestamp="2009-07-20T18:14:51Z" uid="9581" user="Lobelt" changeset="1887841" lat="50.7281936" lon="11.3411402"/>
  <node id="444561280" version="1" timestamp="2009-07-20T18:14:52Z" uid="9581" user="Lobelt" changeset="1887841" lat="50.7289168" lon="11.3416414"/>
  <node id="444561281" version="1" timestamp="2009-07-20T18:14:52Z" uid="9581" user="Lobelt" changeset="1887841" lat="50.7295348" lon="11.3421622"/>
  <node id="444561282" version="1" timestamp="2009-07-20T18:14:52Z" uid="9581" user="Lobelt" changeset="1887841" lat="50.72978" lon="11.342556"/>
  <node id="444561284" version="1" timestamp="2009-07-20T18:14:52Z" uid="9581" user="Lobelt" changeset="1887841" lat="50.7301281" lon="11.3430084"/>
  <node id="444561285" version="1" timestamp="2009-07-20T18:14:52Z" uid="9581" user="Lobelt" changeset="1887841" lat="50.7304225" lon="11.3424996"/>
  <node id="444561286" version="1" timestamp="2009-07-20T18:14:52Z" uid="9581" user="Lobelt" changeset="1887841" lat="50.7307154" lon="11.3420014"/>
  <node id="444561287" version="1" timestamp="2009-07-20T18:14:52Z" uid="9581" user="Lobelt" changeset="1887841" lat="50.7310249" lon="11.3426792"/>
  <node id="444561289" version="1" timestamp="2009-07-20T18:14:52Z" uid="9581" user="Lobelt" changeset="1887841" lat="50.731359" lon="11.3423511"/>
  <node id="444561290" version="1" timestamp="2009-07-20T18:14:52Z" uid="9581" user="Lobelt" changeset="1887841" lat="50.7315876" lon="11.3428088"/>
  <node id="444561291" version="1" timestamp="2009-07-20T18:14:52Z" uid="9581" user="Lobelt" changeset="1887841" lat="50.7319256" lon="11.3424478"/>
  <node id="444561293" version="1" timestamp="2009-07-20T18:14:53Z" uid="9581" user="Lobelt" changeset="1887841" lat="50.7316294" lon="11.3418578"/>
  <node id="444561294" version="1" timestamp="2009-07-20T18:14:53Z" uid="9581" user="Lobelt" changeset="1887841" lat="50.7319417" lon="11.341573"/>
  <node id="444561295" version="1" timestamp="2009-07-20T18:14:53Z" uid="9581" user="Lobelt" changeset="1887841" lat="50.731388" lon="11.3404237"/>
  <node id="444561297" version="1" timestamp="2009-07-20T18:14:53Z" uid="9581" user="Lobelt" changeset="1887841" lat="50.7310017" lon="11.3398542"/>
  <node id="444561298" version="1" timestamp="2009-07-20T18:14:53Z" uid="9581" user="Lobelt" changeset="1887841" lat="50.7306541" lon="11.3394117"/>
  <node id="444561299" version="1" timestamp="2009-07-20T18:14:53Z" uid="9581" user="Lobelt" changeset="1887841" lat="50.7303837" lon="11.33931"/>
  <node id="444561300" version="1" timestamp="2009-07-20T18:14:53Z" uid="9581" user="Lobelt" changeset="1887841" lat="50.7303322" lon="11.3394015"/>
  <node id="444561302" version="1" timestamp="2009-07-20T18:14:53Z" uid="9581" user="Lobelt" changeset="1887841" lat="50.7299878" lon="11.3392083"/>
  <node id="444561303" version="1" timestamp="2009-07-20T18:14:53Z" uid="9581" user="Lobelt" changeset="1887841" lat="50.7298268" lon="11.3394168"/>
  <node id="444561304" version="1" timestamp="2009-07-20T18:14:53Z" uid="9581" user="Lobelt" changeset="1887841" lat="50.7297174" lon="11.3400016"/>
  <node id="444561305" version="1" timestamp="2009-07-20T18:14:53Z" uid="9581" user="Lobelt" changeset="1887841" lat="50.7296369" lon="11.3399609"/>
  <node id="444561307" version="1" timestamp="2009-07-20T18:14:54Z" uid="9581" user="Lobelt" changeset="1887841" lat="50.7297335" lon="11.3389286"/>
  <node id="444561308" version="1" timestamp="2009-07-20T18:14:54Z" uid="9581" user="Lobelt" changeset="1887841" lat="50.7294373" lon="11.338593"/>
  <node id="444561310" version="1" timestamp="2009-07-20T18:14:54Z" uid="9581" user="Lobelt" changeset="1887841" lat="50.7290253" lon="11.3380285"/>
  <node id="444561311" version="1" timestamp="2009-07-20T18:14:54Z" uid="9581" user="Lobelt" changeset="1887841" lat="50.7287742" lon="11.3376928"/>
  <node id="444561313" version="1" timestamp="2009-07-20T18:14:54Z" uid="9581" user="Lobelt" changeset="1887841" lat="50.7285521" lon="11.3375759"/>
  <node id="444561314" version="1" timestamp="2009-07-20T18:14:54Z" uid="9581" user="Lobelt" changeset="1887841" lat="50.7285521" lon="11.3383438"/>
  <node id="444561317" version="1" timestamp="2009-07-20T18:14:54Z" uid="9581" user="Lobelt" changeset="1887841" lat="50.7282108" lon="11.3385014"/>
  <node id="444561319" version="1" timestamp="2009-07-20T18:14:54Z" uid="9581" user="Lobelt" changeset="1887841" lat="50.7281143" lon="11.337344"/>
  <node id="444561321" version="1" timestamp="2009-07-20T18:14:54Z" uid="9581" user="Lobelt" changeset="1887841" lat="50.7284521" lon="11.337497"/>
  <node id="444561322" version="1" timestamp="2009-07-20T18:14:54Z" uid="9581" user="Lobelt" changeset="1887841" lat="50.7288395" lon="11.3366668"/>
  <node id="444561323" version="1" timestamp="2009-07-20T18:14:54Z" uid="9581" user="Lobelt" changeset="1887841" lat="50.7279127" lon="11.3371838"/>
  <node id="444561324" version="1" timestamp="2009-07-20T18:14:54Z" uid="9581" user="Lobelt" changeset="1887841" lat="50.7285057" lon="11.3367973"/>
  <node id="444561326" version="1" timestamp="2009-07-20T18:14:54Z" uid="9581" user="Lobelt" changeset="1887841" lat="50.728172" lon="11.3370544"/>
  <node id="444561327" version="1" timestamp="2009-07-20T18:14:54Z" uid="9581" user="Lobelt" changeset="1887841" lat="50.7288097" lon="11.3376852"/>
  <node id="444561328" version="1" timestamp="2009-07-20T18:14:55Z" uid="9581" user="Lobelt" changeset="1887841" lat="50.7293804" lon="11.3384729"/>
  <node id="444561329" version="1" timestamp="2009-07-20T18:14:55Z" uid="9581" user="Lobelt" changeset="1887841" lat="50.7297533" lon="11.3389057"/>
  <node id="444561331" version="1" timestamp="2009-07-20T18:14:55Z" uid="9581" user="Lobelt" changeset="1887841" lat="50.7303301" lon="11.3392703"/>
  <node id="444561332" version="1" timestamp="2009-07-20T18:14:55Z" uid="9581" user="Lobelt" changeset="1887841" lat="50.7364288" lon="11.3468023"/>
  <node id="444561333" version="1" timestamp="2009-07-20T18:14:55Z" uid="9581" user="Lobelt" changeset="1887841" lat="50.7237652" lon="11.3399208"/>
  <node id="444561334" version="1" timestamp="2009-07-20T18:14:55Z" uid="9581" user="Lobelt" changeset="1887841" lat="50.7237289" lon="11.3396969"/>
  <node id="444561335" version="1" timestamp="2009-07-20T18:14:55Z" uid="9581" user="Lobelt" changeset="1887841" lat="50.7237635" lon="11.3394599"/>
  <node id="444561337" version="1" timestamp="2009-07-20T18:14:55Z" uid="9581" user="Lobelt" changeset="1887841" lat="50.7238295" lon="11.3392673"/>
  <node id="444561338" version="1" timestamp="2009-07-20T18:14:55Z" uid="9581" user="Lobelt" changeset="1887841" lat="50.7240998" lon="11.3385434"/>
  <node id="444561339" version="1" timestamp="2009-07-20T18:14:55Z" uid="9581" user="Lobelt" changeset="1887841" lat="50.7239581" lon="11.3384809"/>
  <node id="444561340" version="1" timestamp="2009-07-20T18:14:55Z" uid="9581" user="Lobelt" changeset="1887841" lat="50.7327754" lon="11.3334338"/>
  <node id="444561341" version="1" timestamp="2009-07-20T18:14:55Z" uid="9581" user="Lobelt" changeset="1887841" lat="50.7327787" lon="11.3328271"/>
  <node id="444561343" version="1" timestamp="2009-07-20T18:14:55Z" uid="9581" user="Lobelt" changeset="1887841" lat="50.733044" lon="11.3328349"/>
  <node id="444561344" version="1" timestamp="2009-07-20T18:14:55Z" uid="9581" user="Lobelt" changeset="1887841" lat="50.732782" lon="11.3335509"/>
  <node id="444561345" version="1" timestamp="2009-07-20T18:14:55Z" uid="9581" user="Lobelt" changeset="1887841" lat="50.7327639" lon="11.3336994"/>
  <node id="444561346" version="1" timestamp="2009-07-20T18:14:56Z" uid="9581" user="Lobelt" changeset="1887841" lat="50.7320404" lon="11.3340196"/>
  <node id="444561347" version="1" timestamp="2009-07-20T18:14:56Z" uid="9581" user="Lobelt" changeset="1887841" lat="50.7356099" lon="11.3338035"/>
  <node id="444561349" version="1" timestamp="2009-07-20T18:14:56Z" uid="9581" user="Lobelt" changeset="1887841" lat="50.7356528" lon="11.3340222"/>
  <node id="444561350" version="1" timestamp="2009-07-20T18:14:56Z" uid="9581" user="Lobelt" changeset="1887841" lat="50.7356099" lon="11.3342045"/>
  <node id="444561351" version="1" timestamp="2009-07-20T18:14:56Z" uid="9581" user="Lobelt" changeset="1887841" lat="50.7352309" lon="11.3344779"/>
  <node id="444561352" version="1" timestamp="2009-07-20T18:14:56Z" uid="9581" user="Lobelt" changeset="1887841" lat="50.7350727" lon="11.3346393"/>
  <node id="444561353" version="1" timestamp="2009-07-20T18:14:56Z" uid="9581" user="Lobelt" changeset="1887841" lat="50.7350266" lon="11.3347929"/>
  <node id="444561354" version="1" timestamp="2009-07-20T18:14:56Z" uid="9581" user="Lobelt" changeset="1887841" lat="50.7350529" lon="11.3352903"/>
  <node id="444561355" version="1" timestamp="2009-07-20T18:14:56Z" uid="9581" user="Lobelt" changeset="1887841" lat="50.7352293" lon="11.3361808"/>
  <node id="444561357" version="1" timestamp="2009-07-20T18:14:56Z" uid="9581" user="Lobelt" changeset="1887841" lat="50.7354402" lon="11.3372092"/>
  <node id="444561358" version="1" timestamp="2009-07-20T18:14:56Z" uid="9581" user="Lobelt" changeset="1887841" lat="50.7355143" lon="11.3378732"/>
  <node id="444561359" version="1" timestamp="2009-07-20T18:14:56Z" uid="9581" user="Lobelt" changeset="1887841" lat="50.7355209" lon="11.338394"/>
  <node id="444561360" version="1" timestamp="2009-07-20T18:14:56Z" uid="9581" user="Lobelt" changeset="1887841" lat="50.7354303" lon="11.3390189"/>
  <node id="444561361" version="1" timestamp="2009-07-20T18:14:56Z" uid="9581" user="Lobelt" changeset="1887841" lat="50.7354155" lon="11.339287"/>
  <node id="444561363" version="1" timestamp="2009-07-20T18:14:56Z" uid="9581" user="Lobelt" changeset="1887841" lat="50.7354155" lon="11.3397349"/>
  <node id="444561364" version="1" timestamp="2009-07-20T18:14:56Z" uid="9581" user="Lobelt" changeset="1887841" lat="50.735432" lon="11.3400786"/>
  <node id="444561365" version="1" timestamp="2009-07-20T18:14:56Z" uid="9581" user="Lobelt" changeset="1887841" lat="50.7354802" lon="11.3409735"/>
  <node id="444561367" version="1" timestamp="2009-07-20T18:14:57Z" uid="9581" user="Lobelt" changeset="1887841" lat="50.735475" lon="11.3412217"/>
  <node id="444561368" version="1" timestamp="2009-07-20T18:14:57Z" uid="9581" user="Lobelt" changeset="1887841" lat="50.7200062" lon="11.3433515"/>
  <node id="444561369" version="1" timestamp="2009-07-20T18:14:57Z" uid="9581" user="Lobelt" changeset="1887841" lat="50.7198034" lon="11.3434271"/>
  <node id="444561370" version="1" timestamp="2009-07-20T18:14:57Z" uid="9581" user="Lobelt" changeset="1887841" lat="50.7194144" lon="11.3435546"/>
  <node id="444561372" version="1" timestamp="2009-07-20T18:14:57Z" uid="9581" user="Lobelt" changeset="1887841" lat="50.7195413" lon="11.3443957"/>
  <node id="444561374" version="1" timestamp="2009-07-20T18:14:57Z" uid="9581" user="Lobelt" changeset="1887841" lat="50.7195957" lon="11.3444738"/>
  <node id="444561375" version="1" timestamp="2009-07-20T18:14:57Z" uid="9581" user="Lobelt" changeset="1887841" lat="50.7196765" lon="11.3445258"/>
  <node id="444561377" version="1" timestamp="2009-07-20T18:14:57Z" uid="9581" user="Lobelt" changeset="1887841" lat="50.7201167" lon="11.3443254"/>
  <node id="444561378" version="1" timestamp="2009-07-20T18:14:57Z" uid="9581" user="Lobelt" changeset="1887841" lat="50.7199518" lon="11.3437968"/>
  <node id="444561379" version="1" timestamp="2009-07-20T18:14:57Z" uid="9581" user="Lobelt" changeset="1887841" lat="50.7195512" lon="11.3439348"/>
  <node id="444561380" version="1" timestamp="2009-07-20T18:14:57Z" uid="9581" user="Lobelt" changeset="1887841" lat="50.7199132" lon="11.3435174"/>
  <node id="444561385" version="1" timestamp="2009-07-20T18:14:59Z" uid="9581" user="Lobelt" changeset="1887841" lat="50.7195126" lon="11.3436554"/>
  <node id="444561386" version="1" timestamp="2009-07-20T18:14:59Z" uid="9581" user="Lobelt" changeset="1887841" lat="50.7197425" lon="11.3435781"/>
  <node id="444561388" version="1" timestamp="2009-07-20T18:14:59Z" uid="9581" user="Lobelt" changeset="1887841" lat="50.7196716" lon="11.3436015"/>
  <node id="444561389" version="1" timestamp="2009-07-20T18:14:59Z" uid="9581" user="Lobelt" changeset="1887841" lat="50.7197576" lon="11.3436875"/>
  <node id="444561390" version="1" timestamp="2009-07-20T18:14:59Z" uid="9581" user="Lobelt" changeset="1887841" lat="50.7196868" lon="11.3437119"/>
  <node id="444561391" version="1" timestamp="2009-07-20T18:14:59Z" uid="9581" user="Lobelt" changeset="1887841" lat="50.7200491" lon="11.343966"/>
  <node id="444561393" version="1" timestamp="2009-07-20T18:14:59Z" uid="9581" user="Lobelt" changeset="1887841" lat="50.7197738" lon="11.3440624"/>
  <node id="444561394" version="1" timestamp="2009-07-20T18:14:59Z" uid="9581" user="Lobelt" changeset="1887841" lat="50.7200972" lon="11.3443089"/>
  <node id="444561395" version="1" timestamp="2009-07-20T18:14:59Z" uid="9581" user="Lobelt" changeset="1887841" lat="50.7198219" lon="11.3444053"/>
  <node id="444561396" version="1" timestamp="2009-07-20T18:14:59Z" uid="9581" user="Lobelt" changeset="1887841" lat="50.7238485" lon="11.3364039"/>
  <node id="444562504" version="2" timestamp="2011-02-20T14:06:25Z" uid="6269" user="Mueck" changeset="7341253" lat="49.0151548" lon="8.3749687"/>
  <node id="444562507" version="2" timestamp="2011-02-20T13:36:33Z" uid="6269" user="Mueck" changeset="7341253" lat="49.0152217" lon="8.3747635"/>
  <node id="444562507" version="3" timestamp="2011-02-20T14:42:10Z" uid="6269" user="Mueck" changeset="7341253" lat="49.0152217" lon="8.3747632"/>
  <node id="444562509" version="2" timestamp="2011-02-20T13:11:30Z" uid="6269" user="Mueck" changeset="7341253" lat="49.0165559" lon="8.3701233"/>
  <node id="444562510" version="2" timestamp="2011-02-20T13:36:34Z" uid="6269" user="Mueck" changeset="7341253" lat="49.0151534" lon="8.3747594"/>
  <node id="444562510" version="3" timestamp="2011-02-20T14:42:12Z" uid="6269" user="Mueck" changeset="7341253" lat="49.0151534" lon="8.3747598"/>
  <node id="444562512" version="2" timestamp="2011-02-20T13:11:46Z" uid="6269" user="Mueck" changeset="7341253" lat="49.0167109" lon="8.3697458"/>
  <node id="444562525" version="2" timestamp="2011-02-20T12:51:43Z" uid="6269" user="Mueck" changeset="7341253" lat="49.0167958" lon="8.3695666"/>
  <node id="444562529" version="2" timestamp="2011-02-20T12:51:44Z" uid="6269" user="Mueck" changeset="7341253" lat="49.0169511" lon="8.3690381"/>
  <node id="444562531" version="2" timestamp="2011-02-20T13:36:33Z" uid="6269" user="Mueck" changeset="7341253" lat="49.0152466" lon="8.3740405"/>
  <node id="444562533" version="2" timestamp="2011-02-20T12:51:43Z" uid="6269" user="Mueck" changeset="7341253" lat="49.0170746" lon="8.3691649"/>
  <node id="444562535" version="2" timestamp="2011-02-20T12:51:43Z" uid="6269" user="Mueck" changeset="7341253" lat="49.0166659" lon="8.369734"/>
  <node id="444562535" version="3" timestamp="2011-02-20T13:11:46Z" uid="6269" user="Mueck" changeset="7341253" lat="49.0166659" lon="8.369734"/>
  <node id="444562537" version="2" timestamp="2011-02-20T12:51:43Z" uid="6269" user="Mueck" changeset="7341253" lat="49.0167223" lon="8.3695545"/>
  <node id="444562539" version="2" timestamp="2011-02-20T13:36:34Z" uid="6269" user="Mueck" changeset="7341253" lat="49.0152562" lon="8.3747656"/>
  <node id="444562539" version="3" timestamp="2011-02-20T14:42:11Z" uid="6269" user="Mueck" changeset="7341253" lat="49.0152563" lon="8.374765"/>
  <node id="444562540" version="2" timestamp="2011-02-20T13:36:34Z" uid="6269" user="Mueck" changeset="7341253" lat="49.0152418" lon="8.3742016"/>
  <node id="444562542" version="2" timestamp="2011-02-20T13:11:31Z" uid="6269" user="Mueck" changeset="7341253" lat="49.0165377" lon="8.370123"/>
  <node id="444562544" version="2" timestamp="2011-02-20T12:51:50Z" uid="6269" user="Mueck" changeset="7341253" lat="49.0169789" lon="8.3689989"/>
  <node id="444562546" version="2" timestamp="2011-02-20T13:36:34Z" uid="6269" user="Mueck" changeset="7341253" lat="49.0151867" lon="8.3739494"/>
  <node id="444562548" version="2" timestamp="2011-02-20T14:06:26Z" uid="6269" user="Mueck" changeset="7341253" lat="49.0151904" lon="8.3748986"/>
  <node id="444562549" version="2" timestamp="2011-02-20T13:36:33Z" uid="6269" user="Mueck" changeset="7341253" lat="49.0151822" lon="8.3741873"/>
  <node id="444562551" version="2" timestamp="2011-02-20T12:51:44Z" uid="6269" user="Mueck" changeset="7341253" lat="49.0170403" lon="8.3691297"/>
  <node id="444562553" version="2" timestamp="2011-02-20T12:51:44Z" uid="6269" user="Mueck" changeset="7341253" lat="49.0170051" lon="8.3690935"/>
  <node id="444565048" version="1" timestamp="2009-07-20T18:23:11Z" uid="55964" user="Evan Sebire" changeset="1887955" lat="46.602677" lon="7.6306779"/>
  <node id="444565050" version="1" timestamp="2009-07-20T18:23:11Z" uid="55964" user="Evan Sebire" changeset="1887955" lat="46.60267" lon="7.6308547"/>
  <node id="444565051" version="1" timestamp="2009-07-20T18:23:11Z" uid="55964" user="Evan Sebire" changeset="1887955" lat="46.6027066" lon="7.6315809"/>
  <node id="444565053" version="1" timestamp="2009-07-20T18:23:12Z" uid="55964" user="Evan Sebire" changeset="1887955" lat="46.6027283" lon="7.632001"/>
  <node id="444565055" version="1" timestamp="2009-07-20T18:23:12Z" uid="55964" user="Evan Sebire" changeset="1887955" lat="46.6027309" lon="7.6322228"/>
  <node id="444565057" version="1" timestamp="2009-07-20T18:23:12Z" uid="55964" user="Evan Sebire" changeset="1887955" lat="46.6027286" lon="7.6325918"/>
  <node id="444565059" version="1" timestamp="2009-07-20T18:23:12Z" uid="55964" user="Evan Sebire" changeset="1887955" lat="46.6027504" lon="7.6332823"/>
  <node id="444565060" version="1" timestamp="2009-07-20T18:23:13Z" uid="55964" user="Evan Sebire" changeset="1887955" lat="46.602804" lon="7.633621"/>
  <node id="444565062" version="1" timestamp="2009-07-20T18:23:13Z" uid="55964" user="Evan Sebire" changeset="1887955" lat="46.602834" lon="7.633882"/>
  <node id="444565065" version="1" timestamp="2009-07-20T18:23:13Z" uid="55964" user="Evan Sebire" changeset="1887955" lat="46.602842" lon="7.634025"/>
  <node id="444565066" version="1" timestamp="2009-07-20T18:23:14Z" uid="55964" user="Evan Sebire" changeset="1887955" lat="46.6028701" lon="7.6342638"/>
  <node id="444565068" version="1" timestamp="2009-07-20T18:23:14Z" uid="55964" user="Evan Sebire" changeset="1887955" lat="46.6029031" lon="7.6345553"/>
  <node id="444565069" version="1" timestamp="2009-07-20T18:23:14Z" uid="55964" user="Evan Sebire" changeset="1887955" lat="46.6029095" lon="7.6346984"/>
  <node id="444565071" version="1" timestamp="2009-07-20T18:23:14Z" uid="55964" user="Evan Sebire" changeset="1887955" lat="46.6028979" lon="7.6349508"/>
  <node id="444565073" version="1" timestamp="2009-07-20T18:23:14Z" uid="55964" user="Evan Sebire" changeset="1887955" lat="46.6028763" lon="7.635222"/>
  <node id="444565075" version="1" timestamp="2009-07-20T18:23:15Z" uid="55964" user="Evan Sebire" changeset="1887955" lat="46.6028264" lon="7.6354187"/>
  <node id="444565077" version="1" timestamp="2009-07-20T18:23:15Z" uid="55964" user="Evan Sebire" changeset="1887955" lat="46.6028166" lon="7.6354774"/>
  <node id="444565079" version="1" timestamp="2009-07-20T18:23:15Z" uid="55964" user="Evan Sebire" changeset="1887955" lat="46.602829" lon="7.6355824"/>
  <node id="444565080" version="1" timestamp="2009-07-20T18:23:16Z" uid="55964" user="Evan Sebire" changeset="1887955" lat="46.6028507" lon="7.6356497"/>
  <node id="444565083" version="1" timestamp="2009-07-20T18:23:16Z" uid="55964" user="Evan Sebire" changeset="1887955" lat="46.6028862" lon="7.6356714"/>
  <node id="444565090" version="1" timestamp="2009-07-20T18:23:16Z" uid="55964" user="Evan Sebire" changeset="1887955" lat="46.6029369" lon="7.6356479"/>
  <node id="444565449" version="1" timestamp="2009-07-20T18:23:57Z" uid="36809" user="pfoten_weg_!_" changeset="1887967" lat="48.0657993" lon="11.5309796">
    <tag k="access" v="destination"/>
    <tag k="discovered_by" v="RambaZamba"/>
    <tag k="source" v="survey"/>
  </node>
  <node id="444565449" version="3" timestamp="2009-08-26T00:06:26Z" uid="36809" user="pfoten_weg_!_" changeset="2262648" lat="48.0657993" lon="11.5309796">
    <tag k="access" v="destination"/>
    <tag k="source" v="survey"/>
  </node>
  <node id="444565449" version="4" timestamp="2009-08-26T01:08:43Z" uid="36809" user="pfoten_weg_!_" changeset="2262879" lat="48.0657993" lon="11.5309796">
    <tag k="access" v="destination"/>
    <tag k="source" v="survey"/>
  </node>
  <node id="444565449" version="5" timestamp="2009-10-02T21:24:15Z" uid="86259" user="hasse_osm_korinthenkacker" changeset="2717728" lat="48.0657993" lon="11.5309796">
    <tag k="access" v="destination"/>
  </node>
  <node id="444567335" version="1" timestamp="2009-07-20T18:28:06Z" uid="55964" user="Evan Sebire" changeset="1888031" lat="46.6005221" lon="7.6301295"/>
  <node id="444567336" version="1" timestamp="2009-07-20T18:28:06Z" uid="55964" user="Evan Sebire" changeset="1888031" lat="46.600565" lon="7.630434"/>
  <node id="444567338" version="1" timestamp="2009-07-20T18:28:06Z" uid="55964" user="Evan Sebire" changeset="1888031" lat="46.6006264" lon="7.6308654"/>
  <node id="444567340" version="1" timestamp="2009-07-20T18:28:06Z" uid="55964" user="Evan Sebire" changeset="1888031" lat="46.599524" lon="7.635757"/>
  <node id="444567341" version="1" timestamp="2009-07-20T18:28:07Z" uid="55964" user="Evan Sebire" changeset="1888031" lat="46.5994807" lon="7.6360696"/>
  <node id="444567343" version="1" timestamp="2009-07-20T18:28:07Z" uid="55964" user="Evan Sebire" changeset="1888031" lat="46.599449" lon="7.636763"/>
  <node id="444567344" version="1" timestamp="2009-07-20T18:28:07Z" uid="55964" user="Evan Sebire" changeset="1888031" lat="46.5994356" lon="7.6376453"/>
  <node id="444567346" version="1" timestamp="2009-07-20T18:28:07Z" uid="55964" user="Evan Sebire" changeset="1888031" lat="46.6000249" lon="7.6430833"/>
  <node id="444567354" version="1" timestamp="2009-07-20T18:28:09Z" uid="55964" user="Evan Sebire" changeset="1888031" lat="46.6002643" lon="7.6431917"/>
  <node id="444567356" version="1" timestamp="2009-07-20T18:28:10Z" uid="55964" user="Evan Sebire" changeset="1888031" lat="46.600432" lon="7.643363"/>
  <node id="444567359" version="1" timestamp="2009-07-20T18:28:10Z" uid="55964" user="Evan Sebire" changeset="1888031" lat="46.6006295" lon="7.6439597"/>
  <node id="444567360" version="1" timestamp="2009-07-20T18:28:10Z" uid="55964" user="Evan Sebire" changeset="1888031" lat="46.600684" lon="7.644093"/>
  <node id="444567361" version="1" timestamp="2009-07-20T18:28:11Z" uid="55964" user="Evan Sebire" changeset="1888031" lat="46.600922" lon="7.644575"/>
  <node id="444567363" version="1" timestamp="2009-07-20T18:28:11Z" uid="55964" user="Evan Sebire" changeset="1888031" lat="46.601193" lon="7.64484"/>
  <node id="444567364" version="1" timestamp="2009-07-20T18:28:11Z" uid="55964" user="Evan Sebire" changeset="1888031" lat="46.601468" lon="7.644996"/>
  <node id="444567366" version="1" timestamp="2009-07-20T18:28:11Z" uid="55964" user="Evan Sebire" changeset="1888031" lat="46.601878" lon="7.645148"/>
  <node id="444567367" version="1" timestamp="2009-07-20T18:28:11Z" uid="55964" user="Evan Sebire" changeset="1888031" lat="46.602191" lon="7.645457"/>
  <node id="444567370" version="1" timestamp="2009-07-20T18:28:11Z" uid="55964" user="Evan Sebire" changeset="1888031" lat="46.602449" lon="7.645648"/>
  <node id="444567374" version="1" timestamp="2009-07-20T18:28:11Z" uid="55964" user="Evan Sebire" changeset="1888031" lat="46.602873" lon="7.646153"/>
  <node id="444567374" version="2" timestamp="2009-09-20T15:15:29Z" uid="55964" user="Evan Sebire" changeset="2546924" lat="46.6028575" lon="7.6461536"/>
  <node id="444567375" version="1" timestamp="2009-07-20T18:28:12Z" uid="55964" user="Evan Sebire" changeset="1888031" lat="46.602979" lon="7.646352"/>
  <node id="444567376" version="1" timestamp="2009-07-20T18:28:12Z" uid="55964" user="Evan Sebire" changeset="1888031" lat="46.6030171" lon="7.6464426"/>
  <node id="444567376" version="2" timestamp="2009-09-20T15:15:29Z" uid="55964" user="Evan Sebire" changeset="2546924" lat="46.6030124" lon="7.6464521"/>
  <node id="444567379" version="1" timestamp="2009-07-20T18:28:12Z" uid="55964" user="Evan Sebire" changeset="1888031" lat="46.604099" lon="7.646818"/>
  <node id="444567379" version="2" timestamp="2009-09-20T15:15:30Z" uid="55964" user="Evan Sebire" changeset="2546924" lat="46.6040673" lon="7.6468589"/>
  <node id="444567380" version="1" timestamp="2009-07-20T18:28:13Z" uid="55964" user="Evan Sebire" changeset="1888031" lat="46.603974" lon="7.646763"/>
  <node id="444567381" version="1" timestamp="2009-07-20T18:28:13Z" uid="55964" user="Evan Sebire" changeset="1888031" lat="46.603666" lon="7.646603"/>
  <node id="444567381" version="2" timestamp="2009-09-20T15:15:30Z" uid="55964" user="Evan Sebire" changeset="2546924" lat="46.6036403" lon="7.6466263"/>
  <node id="444567383" version="1" timestamp="2009-07-20T18:28:13Z" uid="55964" user="Evan Sebire" changeset="1888031" lat="46.603382" lon="7.646579"/>
  <node id="444567384" version="1" timestamp="2009-07-20T18:28:13Z" uid="55964" user="Evan Sebire" changeset="1888031" lat="46.603168" lon="7.646602"/>
  <node id="444567385" version="1" timestamp="2009-07-20T18:28:13Z" uid="55964" user="Evan Sebire" changeset="1888031" lat="46.603103" lon="7.6465958"/>
  <node id="444567385" version="2" timestamp="2009-09-20T15:15:29Z" uid="55964" user="Evan Sebire" changeset="2546924" lat="46.6030887" lon="7.646607"/>
  <node id="444568694" version="2" timestamp="2010-08-28T23:36:09Z" uid="34428" user="usm78-gis" changeset="5621267" lat="60.1593162" lon="29.9355945"/>
  <node id="444568696" version="2" timestamp="2010-08-28T23:36:10Z" uid="34428" user="usm78-gis" changeset="5621267" lat="60.1594706" lon="29.9354026"/>
  <node id="444568697" version="2" timestamp="2010-08-28T23:36:24Z" uid="34428" user="usm78-gis" changeset="5621267" lat="60.1595133" lon="29.9355655"/>
  <node id="444568698" version="2" timestamp="2010-08-28T23:36:16Z" uid="34428" user="usm78-gis" changeset="5621267" lat="60.1593978" lon="29.9354152"/>
  <node id="444568982" version="1" timestamp="2009-07-20T18:32:09Z" uid="55964" user="Evan Sebire" changeset="1888086" lat="46.6038505" lon="7.6473365"/>
  <node id="444568984" version="1" timestamp="2009-07-20T18:32:10Z" uid="55964" user="Evan Sebire" changeset="1888086" lat="46.6035984" lon="7.6473341"/>
  <node id="444568988" version="1" timestamp="2009-07-20T18:32:11Z" uid="55964" user="Evan Sebire" changeset="1888086" lat="46.6030381" lon="7.6525103"/>
  <node id="444568988" version="2" timestamp="2009-08-09T19:14:20Z" uid="55964" user="Evan Sebire" changeset="2089878" lat="46.60304" lon="7.65248"/>
  <node id="444568990" version="1" timestamp="2009-07-20T18:32:11Z" uid="55964" user="Evan Sebire" changeset="1888086" lat="46.603088" lon="7.651987"/>
  <node id="444568995" version="1" timestamp="2009-07-20T18:32:11Z" uid="55964" user="Evan Sebire" changeset="1888086" lat="46.60309" lon="7.651499"/>
  <node id="444568999" version="1" timestamp="2009-07-20T18:32:11Z" uid="55964" user="Evan Sebire" changeset="1888086" lat="46.603071" lon="7.651176"/>
  <node id="444569003" version="1" timestamp="2009-07-20T18:32:12Z" uid="55964" user="Evan Sebire" changeset="1888086" lat="46.602994" lon="7.650947"/>
  <node id="444569006" version="1" timestamp="2009-07-20T18:32:12Z" uid="55964" user="Evan Sebire" changeset="1888086" lat="46.602874" lon="7.650505"/>
  <node id="444569013" version="1" timestamp="2009-07-20T18:32:12Z" uid="55964" user="Evan Sebire" changeset="1888086" lat="46.602741" lon="7.650098"/>
  <node id="444569018" version="1" timestamp="2009-07-20T18:32:12Z" uid="55964" user="Evan Sebire" changeset="1888086" lat="46.602699" lon="7.649809"/>
  <node id="444569022" version="1" timestamp="2009-07-20T18:32:12Z" uid="55964" user="Evan Sebire" changeset="1888086" lat="46.602716" lon="7.649479"/>
  <node id="444569068" version="1" timestamp="2009-07-20T18:32:15Z" uid="55964" user="Evan Sebire" changeset="1888086" lat="46.6031084" lon="7.6509048"/>
  <node id="444569070" version="1" timestamp="2009-07-20T18:32:15Z" uid="55964" user="Evan Sebire" changeset="1888086" lat="46.602857" lon="7.6501304"/>
  <node id="444569072" version="1" timestamp="2009-07-20T18:32:16Z" uid="55964" user="Evan Sebire" changeset="1888086" lat="46.6027997" lon="7.6497792"/>
  <node id="444569073" version="1" timestamp="2009-07-20T18:32:16Z" uid="55964" user="Evan Sebire" changeset="1888086" lat="46.6028675" lon="7.649432"/>
  <node id="444569074" version="1" timestamp="2009-07-20T18:32:16Z" uid="55964" user="Evan Sebire" changeset="1888086" lat="46.6031258" lon="7.6485224"/>
  <node id="444569075" version="1" timestamp="2009-07-20T18:32:16Z" uid="55964" user="Evan Sebire" changeset="1888086" lat="46.6036993" lon="7.6474921"/>
  <node id="444569076" version="1" timestamp="2009-07-20T18:32:17Z" uid="55964" user="Evan Sebire" changeset="1888086" lat="46.6042809" lon="7.6468272"/>
  <node id="444569109" version="1" timestamp="2009-07-20T18:32:36Z" uid="36809" user="pfoten_weg_!_" changeset="1888093" lat="48.0926249" lon="11.5021177">
    <tag k="source" v="survey"/>
  </node>
  <node id="444569109" version="2" timestamp="2009-10-13T22:57:42Z" uid="36809" user="pfoten_weg_!_" changeset="2841175" lat="48.0926249" lon="11.5021177"/>
  <node id="444569110" version="1" timestamp="2009-07-20T18:32:36Z" uid="36809" user="pfoten_weg_!_" changeset="1888093" lat="48.09277" lon="11.5019668">
    <tag k="source" v="survey"/>
  </node>
  <node id="444569110" version="2" timestamp="2009-10-13T22:57:58Z" uid="36809" user="pfoten_weg_!_" changeset="2841175" lat="48.09277" lon="11.5019668"/>
  <node id="444569111" version="1" timestamp="2009-07-20T18:32:36Z" uid="36809" user="pfoten_weg_!_" changeset="1888093" lat="48.0927585" lon="11.5020784">
    <tag k="source" v="survey"/>
  </node>
  <node id="444569111" version="2" timestamp="2009-10-13T22:58:00Z" uid="36809" user="pfoten_weg_!_" changeset="2841175" lat="48.0927585" lon="11.5020784"/>
  <node id="444569112" version="1" timestamp="2009-07-20T18:32:36Z" uid="36809" user="pfoten_weg_!_" changeset="1888093" lat="48.0926783" lon="11.5019411">
    <tag k="source" v="survey"/>
  </node>
  <node id="444569112" version="2" timestamp="2009-10-13T22:57:57Z" uid="36809" user="pfoten_weg_!_" changeset="2841175" lat="48.0926783" lon="11.5019411"/>
  <node id="444569113" version="1" timestamp="2009-07-20T18:32:36Z" uid="36809" user="pfoten_weg_!_" changeset="1888093" lat="48.0928674" lon="11.4978555"/>
  <node id="444569114" version="1" timestamp="2009-07-20T18:32:36Z" uid="36809" user="pfoten_weg_!_" changeset="1888093" lat="48.0926897" lon="11.5021471">
    <tag k="source" v="survey"/>
  </node>
  <node id="444569114" version="2" timestamp="2009-10-13T22:58:00Z" uid="36809" user="pfoten_weg_!_" changeset="2841175" lat="48.0926897" lon="11.5021471"/>
  <node id="444569115" version="1" timestamp="2009-07-20T18:32:36Z" uid="36809" user="pfoten_weg_!_" changeset="1888093" lat="48.0926216" lon="11.5020549">
    <tag k="source" v="survey"/>
  </node>
  <node id="444569115" version="2" timestamp="2009-10-13T22:57:42Z" uid="36809" user="pfoten_weg_!_" changeset="2841175" lat="48.0926216" lon="11.5020549"/>
  <node id="444569116" version="1" timestamp="2009-07-20T18:32:36Z" uid="36809" user="pfoten_weg_!_" changeset="1888093" lat="48.0927347" lon="11.5021329">
    <tag k="source" v="survey"/>
  </node>
  <node id="444569116" version="2" timestamp="2009-10-13T22:57:59Z" uid="36809" user="pfoten_weg_!_" changeset="2841175" lat="48.0927347" lon="11.5021329"/>
  <node id="444569117" version="1" timestamp="2009-07-20T18:32:37Z" uid="36809" user="pfoten_weg_!_" changeset="1888093" lat="48.0926328" lon="11.5019807">
    <tag k="source" v="survey"/>
  </node>
  <node id="444569117" version="2" timestamp="2009-10-13T22:57:39Z" uid="36809" user="pfoten_weg_!_" changeset="2841175" lat="48.0926328" lon="11.5019807"/>
  <node id="444569118" version="1" timestamp="2009-07-20T18:32:37Z" uid="36809" user="pfoten_weg_!_" changeset="1888093" lat="48.0932481" lon="11.4979674">
    <tag k="source" v="survey"/>
  </node>
  <node id="444569118" version="2" timestamp="2009-10-13T22:57:45Z" uid="36809" user="pfoten_weg_!_" changeset="2841175" lat="48.0932481" lon="11.4979674"/>
  <node id="444569119" version="1" timestamp="2009-07-20T18:32:37Z" uid="36809" user="pfoten_weg_!_" changeset="1888093" lat="48.0926496" lon="11.5021385">
    <tag k="source" v="survey"/>
  </node>
  <node id="444569119" version="2" timestamp="2009-10-13T22:57:41Z" uid="36809" user="pfoten_weg_!_" changeset="2841175" lat="48.0926496" lon="11.5021385"/>
  <node id="444569120" version="1" timestamp="2009-07-20T18:32:37Z" uid="36809" user="pfoten_weg_!_" changeset="1888093" lat="48.0930057" lon="11.4978861"/>
  <node id="444569121" version="1" timestamp="2009-07-20T18:32:37Z" uid="36809" user="pfoten_weg_!_" changeset="1888093" lat="48.0927413" lon="11.5019496">
    <tag k="source" v="survey"/>
  </node>
  <node id="444569121" version="2" timestamp="2009-10-13T22:57:57Z" uid="36809" user="pfoten_weg_!_" changeset="2841175" lat="48.0927413" lon="11.5019496"/>
  <node id="444569122" version="1" timestamp="2009-07-20T18:32:37Z" uid="36809" user="pfoten_weg_!_" changeset="1888093" lat="48.0930502" lon="11.4996228">
    <tag k="source" v="survey"/>
  </node>
  <node id="444569122" version="2" timestamp="2009-10-13T22:57:45Z" uid="36809" user="pfoten_weg_!_" changeset="2841175" lat="48.0930502" lon="11.4996228"/>
</osm>
