<?xml version='1.0' encoding='UTF-8'?>
<osm version="0.6" generator="libosmium/2.20.0">
  <node id="445923823" version="4" timestamp="2010-07-30T06:03:28Z" uid="4467" user="Rosscoe" changeset="5351887" lat="-27.511211" lon="153.031649">
    <tag k="name" v="Ray White Annerley"/>
    <tag k="office" v="real_estate"/>
    <tag k="source" v="survey"/>
  </node>
  <node id="445923824" version="2" timestamp="2010-07-30T06:03:31Z" uid="4467" user="Rosscoe" changeset="5351887" lat="-27.5112008" lon="153.0317983">
    <tag k="name" v="Julie Hardeman Real Estate"/>
    <tag k="office" v="real_estate"/>
    <tag k="source" v="survey"/>
  </node>
  <node id="445923828" version="2" timestamp="2010-07-30T06:03:27Z" uid="4467" user="Rosscoe" changeset="5351887" lat="-27.5108544" lon="153.0319623">
    <tag k="name" v="RE/MAX Colonial"/>
    <tag k="office" v="real_estate"/>
    <tag k="source" v="survey"/>
  </node>
  <node id="445923830" version="3" timestamp="2010-07-30T06:03:42Z" uid="4467" user="Rosscoe" changeset="5351887" lat="-27.5106096" lon="153.032061">
    <tag k="name" v="LJ Hooker"/>
    <tag k="office" v="real_estate"/>
    <tag k="source" v="survey"/>
  </node>
  <node id="445923835" version="2" timestamp="2010-07-30T06:03:41Z" uid="4467" user="Rosscoe" changeset="5351887" lat="-27.5105414" lon="153.0321827">
    <tag k="amenity" v="waste_basket"/>
    <tag k="source" v="survey"/>
  </node>
</osm>
