<?xml version='1.0' encoding='UTF-8'?>
<osm version="0.6" generator="libosmium/2.20.0">
  <node id="446384227" version="1" timestamp="2009-07-23T21:40:41Z" uid="36809" user="pfoten_weg_!_" changeset="1920147" lat="48.0989267" lon="11.5268673">
    <tag k="amenity" v="wifi"/>
    <tag k="class" v="free"/>
    <tag k="discovered_by" v="RambaZamba"/>
    <tag k="internet_access" v="wlan"/>
    <tag k="internet_access:operator" v="FON"/>
    <tag k="man_made" v="beacon"/>
    <tag k="name" v="FON_24_7_Free"/>
    <tag k="ref" v="Boschetsriederstr 93,81379 Muc,UT0,K1,wookie2k"/>
    <tag k="source" v="survey"/>
  </node>
  <node id="446384227" version="2" timestamp="2009-07-23T21:41:41Z" uid="36809" user="pfoten_weg_!_" changeset="1920154" lat="48.0989267" lon="11.5268673">
    <tag k="amenity" v="wifi"/>
    <tag k="discovered_by" v="RambaZamba"/>
    <tag k="internet_access" v="wlan"/>
    <tag k="internet_access:operator" v="FON"/>
    <tag k="man_made" v="beacon"/>
    <tag k="name" v="FON_24_7_Free"/>
    <tag k="ref" v="Boschetsriederstr 93,81379 Muc,UT0,K1,wookie2k"/>
    <tag k="source" v="survey"/>
  </node>
  <node id="446384227" version="5" timestamp="2009-08-26T10:00:41Z" uid="36809" user="pfoten_weg_!_" changeset="2265457" lat="48.0989267" lon="11.5268673">
    <tag k="amenity" v="wifi"/>
    <tag k="internet_access" v="wlan"/>
    <tag k="internet_access:operator" v="FON"/>
    <tag k="man_made" v="beacon"/>
    <tag k="name" v="FON_24_7_Free"/>
    <tag k="ref" v="Boschetsriederstr 93,81379 Muc,UT0,K1,wookie2k"/>
    <tag k="seamark" v="beacon"/>
    <tag k="source" v="survey"/>
  </node>
  <node id="446384231" version="1" timestamp="2009-07-23T21:40:41Z" uid="36809" user="pfoten_weg_!_" changeset="1920147" lat="48.0988577" lon="11.5269371"/>
  <node id="446385894" version="2" timestamp="2009-08-08T17:35:27Z" uid="99207" user="Lar Kiesel" changeset="2077957" lat="34.016625" lon="-81.468216"/>
  <node id="446387692" version="2" timestamp="2009-08-11T20:36:08Z" uid="99207" user="Lar Kiesel" changeset="2112856" lat="33.982985" lon="-81.441648"/>
  <node id="446387816" version="2" timestamp="2009-08-12T14:58:09Z" uid="99207" user="Lar Kiesel" changeset="2119684" lat="34.01027" lon="-81.400586"/>
  <node id="446387824" version="2" timestamp="2009-08-12T14:58:09Z" uid="99207" user="Lar Kiesel" changeset="2119684" lat="34.010622" lon="-81.401774"/>
  <node id="446388745" version="2" timestamp="2009-08-11T20:36:08Z" uid="99207" user="Lar Kiesel" changeset="2112856" lat="33.974584" lon="-81.441489"/>
</osm>
