<?xml version='1.0' encoding='UTF-8'?>
<osm version="0.6" generator="libosmium/2.20.0">
  <node id="448710007" version="2" timestamp="2009-08-25T09:35:19Z" uid="18775" user="drlizau" changeset="2254250" lat="42.813333" lon="21.134722">
    <tag k="name" v="Majance"/>
    <tag k="name_full_nd" v="Majance"/>
    <tag k="name_generic" v=""/>
    <tag k="name_short" v=""/>
    <tag k="name_sort" v="MAJANCE"/>
    <tag k="place" v="hamlet"/>
  </node>
  <node id="448710008" version="4" timestamp="2009-08-25T09:18:37Z" uid="18775" user="drlizau" changeset="2254105" lat="42.735" lon="20.791389">
    <tag k="geonameid" v="832109"/>
    <tag k="gnadmin" v="00"/>
    <tag k="gnadmin2" v="Kosovo"/>
    <tag k="gnfeature" v="H"/>
    <tag k="gnfeaturec" v="STM"/>
    <tag k="name" v="Mala Reka"/>
    <tag k="name2" v="Mala Reka"/>
    <tag k="name_full_nd" v="Mala Reka"/>
    <tag k="name_generic" v="Reka"/>
    <tag k="name_sort" v="MALAREKA"/>
    <tag k="natural" v="spring"/>
  </node>
  <node id="448710034" version="2" timestamp="2009-08-25T09:18:36Z" uid="18775" user="drlizau" changeset="2254105" lat="42.724444" lon="20.786111">
    <tag k="elevation" v=""/>
    <tag k="name" v="Barjak"/>
    <tag k="name_full_nd" v="Barjak"/>
    <tag k="name_generic" v=""/>
    <tag k="name_short" v=""/>
    <tag k="name_sort" v="BARJAK"/>
    <tag k="place" v="hamlet"/>
  </node>
  <node id="448710058" version="2" timestamp="2009-08-25T09:35:21Z" uid="18775" user="drlizau" changeset="2254250" lat="42.741667" lon="21.143056">
    <tag k="name" v="Lebane"/>
    <tag k="name_full_nd" v="Lebane"/>
    <tag k="name_generic" v=""/>
    <tag k="name_short" v=""/>
    <tag k="name_sort" v="LEBANE"/>
    <tag k="place" v="hamlet"/>
  </node>
  <node id="448710204" version="2" timestamp="2009-08-25T09:35:11Z" uid="18775" user="drlizau" changeset="2254250" lat="42.74" lon="21.120556">
    <tag k="name" v="Prugovce"/>
    <tag k="name_full_nd" v="Prugovce"/>
    <tag k="name_generic" v=""/>
    <tag k="name_short" v=""/>
    <tag k="name_sort" v="PRUGOVCE"/>
    <tag k="place" v="hamlet"/>
  </node>
  <node id="448710208" version="2" timestamp="2009-08-25T09:35:10Z" uid="18775" user="drlizau" changeset="2254250" lat="42.74" lon="21.120556">
    <tag k="name" v="Prugoc"/>
    <tag k="name_full_nd" v="Prugoc"/>
    <tag k="name_generic" v=""/>
    <tag k="name_short" v=""/>
    <tag k="name_sort" v="PRUGOC"/>
    <tag k="place" v="hamlet"/>
  </node>
  <node id="448710269" version="2" timestamp="2009-08-25T09:37:06Z" uid="18775" user="drlizau" changeset="2254250" lat="42.665833" lon="21.029444">
    <tag k="name" v="Hade"/>
    <tag k="name_full_nd" v="Hade"/>
    <tag k="name_generic" v=""/>
    <tag k="name_short" v=""/>
    <tag k="name_sort" v="HADE"/>
    <tag k="place" v="hamlet"/>
  </node>
  <node id="448710280" version="2" timestamp="2009-08-25T09:35:13Z" uid="18775" user="drlizau" changeset="2254250" lat="42.813056" lon="21.17">
    <tag k="name" v="Шаковица"/>
    <tag k="name_full_nd" v="Шаковица"/>
    <tag k="name_generic" v=""/>
    <tag k="name_short" v=""/>
    <tag k="name_sort" v="ШАКОВИЦА"/>
    <tag k="place" v="hamlet"/>
  </node>
  <node id="448710368" version="2" timestamp="2009-08-25T09:35:12Z" uid="18775" user="drlizau" changeset="2254250" lat="42.765556" lon="20.895">
    <tag k="name" v="Dubovce"/>
    <tag k="name_full_nd" v="Dubovce"/>
    <tag k="name_generic" v=""/>
    <tag k="name_short" v=""/>
    <tag k="name_sort" v="DUBOVCE"/>
    <tag k="place" v="hamlet"/>
  </node>
  <node id="448710372" version="2" timestamp="2009-08-25T09:35:12Z" uid="18775" user="drlizau" changeset="2254250" lat="42.892222" lon="21.021389">
    <tag k="name" v="Skromna"/>
    <tag k="name_full_nd" v="Skromna"/>
    <tag k="name_generic" v=""/>
    <tag k="name_short" v=""/>
    <tag k="name_sort" v="SKROMNA"/>
    <tag k="place" v="hamlet"/>
  </node>
  <node id="448710398" version="2" timestamp="2009-08-25T09:35:12Z" uid="18775" user="drlizau" changeset="2254250" lat="42.758889" lon="20.979722">
    <tag k="name" v="Druvar"/>
    <tag k="name_full_nd" v="Druvar"/>
    <tag k="name_generic" v=""/>
    <tag k="name_short" v=""/>
    <tag k="name_sort" v="DRUVAR"/>
    <tag k="place" v="hamlet"/>
  </node>
  <node id="448710401" version="2" timestamp="2009-08-25T09:35:13Z" uid="18775" user="drlizau" changeset="2254250" lat="42.688889" lon="21.010556">
    <tag k="name" v="Sibovac"/>
    <tag k="name_full_nd" v="Sibovac"/>
    <tag k="name_generic" v=""/>
    <tag k="name_short" v=""/>
    <tag k="name_sort" v="SIBOVAC"/>
    <tag k="place" v="hamlet"/>
  </node>
  <node id="448710466" version="2" timestamp="2009-08-25T09:35:13Z" uid="18775" user="drlizau" changeset="2254250" lat="42.705833" lon="20.938889">
    <tag k="name" v="Градица"/>
    <tag k="name_full_nd" v="Градица"/>
    <tag k="name_generic" v=""/>
    <tag k="name_short" v=""/>
    <tag k="name_sort" v="ГРАДИЦА"/>
    <tag k="place" v="hamlet"/>
  </node>
  <node id="448710708" version="2" timestamp="2009-08-25T09:17:58Z" uid="18775" user="drlizau" changeset="2254105" lat="42.8475" lon="20.788889">
    <tag k="elevation" v=""/>
    <tag k="name" v="Gradevac"/>
    <tag k="name:sr" v="Gradevac"/>
    <tag k="name_full_nd" v="Gradevac"/>
    <tag k="name_full_nd:sr" v="Gradevac"/>
    <tag k="name_generic" v=""/>
    <tag k="name_short" v=""/>
    <tag k="name_sort" v="GRADEVAC"/>
    <tag k="name_sort:sr" v="GRADEVAC"/>
    <tag k="place" v="hamlet"/>
  </node>
  <node id="448710708" version="3" timestamp="2009-08-25T09:35:31Z" uid="18775" user="drlizau" changeset="2254250" lat="42.8475" lon="20.788889">
    <tag k="name" v="Gradevac"/>
    <tag k="name:sr" v="Gradevac"/>
    <tag k="name_full_nd" v="Gradevac"/>
    <tag k="name_full_nd:sr" v="Gradevac"/>
    <tag k="name_generic" v=""/>
    <tag k="name_short" v=""/>
    <tag k="name_sort" v="GRADEVAC"/>
    <tag k="name_sort:sr" v="GRADEVAC"/>
    <tag k="place" v="hamlet"/>
  </node>
  <node id="448710722" version="2" timestamp="2009-08-25T09:35:32Z" uid="18775" user="drlizau" changeset="2254250" lat="42.9" lon="21.2">
    <tag k="name" v="Подујево"/>
    <tag k="name_full_nd" v="Подујево"/>
    <tag k="name_generic" v=""/>
    <tag k="name_short" v=""/>
    <tag k="name_sort" v="ПОДУЈЕВО"/>
    <tag k="place" v="hamlet"/>
  </node>
  <node id="448710724" version="2" timestamp="2009-08-25T09:35:32Z" uid="18775" user="drlizau" changeset="2254250" lat="42.863889" lon="20.831667">
    <tag k="name" v="Zabari i Epërm"/>
    <tag k="name_full_nd" v="Zabari i Epërm"/>
    <tag k="name_generic" v=""/>
    <tag k="name_short" v=""/>
    <tag k="name_sort" v="ZABARIIEPERM"/>
    <tag k="place" v="hamlet"/>
  </node>
  <node id="448710773" version="2" timestamp="2009-08-25T09:35:32Z" uid="18775" user="drlizau" changeset="2254250" lat="42.9075" lon="20.883333">
    <tag k="name" v="Lisi"/>
    <tag k="name_full_nd" v="Lisi"/>
    <tag k="name_generic" v=""/>
    <tag k="name_short" v=""/>
    <tag k="name_sort" v="LISI"/>
    <tag k="place" v="hamlet"/>
  </node>
  <node id="448710786" version="2" timestamp="2009-08-25T09:17:57Z" uid="18775" user="drlizau" changeset="2254105" lat="42.841111" lon="21.183889">
    <tag k="el" v=""/>
    <tag k="elevation" v=""/>
    <tag k="name" v="Donja Penduha"/>
    <tag k="name:sr" v="Donja Penduha"/>
    <tag k="name_full_nd" v="Donja Penduha"/>
    <tag k="name_full_nd:sr" v="Donja Penduha"/>
    <tag k="name_generic" v=""/>
    <tag k="name_generic:sr" v=""/>
    <tag k="name_short" v=""/>
    <tag k="name_short:sr" v=""/>
    <tag k="name_sort" v="DONJAPENDUHA"/>
    <tag k="name_sort:sr" v="DONJAPENDUHA"/>
    <tag k="place" v="hamlet"/>
  </node>
  <node id="448710786" version="3" timestamp="2009-08-25T09:35:29Z" uid="18775" user="drlizau" changeset="2254250" lat="42.841111" lon="21.183889">
    <tag k="el" v=""/>
    <tag k="name" v="Donja Penduha"/>
    <tag k="name:sr" v="Donja Penduha"/>
    <tag k="name_full_nd" v="Donja Penduha"/>
    <tag k="name_full_nd:sr" v="Donja Penduha"/>
    <tag k="name_generic" v=""/>
    <tag k="name_generic:sr" v=""/>
    <tag k="name_short" v=""/>
    <tag k="name_short:sr" v=""/>
    <tag k="name_sort" v="DONJAPENDUHA"/>
    <tag k="name_sort:sr" v="DONJAPENDUHA"/>
    <tag k="place" v="hamlet"/>
  </node>
  <node id="448710787" version="2" timestamp="2009-08-25T09:35:29Z" uid="18775" user="drlizau" changeset="2254250" lat="42.871389" lon="20.841111">
    <tag k="name" v="Donje Žabare"/>
    <tag k="name_full_nd" v="Donje Žabare"/>
    <tag k="name_generic" v=""/>
    <tag k="name_short" v=""/>
    <tag k="name_sort" v="DONJEZABARE"/>
    <tag k="place" v="hamlet"/>
  </node>
  <node id="448710788" version="2" timestamp="2009-08-25T09:35:29Z" uid="18775" user="drlizau" changeset="2254250" lat="42.871389" lon="20.841111">
    <tag k="name" v="Zabari i Ultë"/>
    <tag k="name_full_nd" v="Zabari i Ultë"/>
    <tag k="name_generic" v=""/>
    <tag k="name_short" v=""/>
    <tag k="name_sort" v="ZABARIIULTE"/>
    <tag k="place" v="hamlet"/>
  </node>
  <node id="448710789" version="2" timestamp="2009-08-25T09:35:29Z" uid="18775" user="drlizau" changeset="2254250" lat="42.872778" lon="20.902222">
    <tag k="name" v="Kçiq i Vogël"/>
    <tag k="name_full_nd" v="Kçiq i Vogël"/>
    <tag k="name_generic" v=""/>
    <tag k="name_short" v=""/>
    <tag k="name_sort" v="KCIQIVOGEL"/>
    <tag k="place" v="hamlet"/>
  </node>
  <node id="448710791" version="2" timestamp="2009-08-25T09:35:29Z" uid="18775" user="drlizau" changeset="2254250" lat="42.9075" lon="20.883333">
    <tag k="name" v="Лисица"/>
    <tag k="name_full_nd" v="Лисица"/>
    <tag k="name_generic" v=""/>
    <tag k="name_short" v=""/>
    <tag k="name_sort" v="ЛИСИЦА"/>
    <tag k="place" v="hamlet"/>
  </node>
  <node id="448710813" version="2" timestamp="2009-08-25T09:35:30Z" uid="18775" user="drlizau" changeset="2254250" lat="42.868056" lon="21.178889">
    <tag k="name" v="Главник"/>
    <tag k="name_full_nd" v="Главник"/>
    <tag k="name_generic" v=""/>
    <tag k="name_short" v=""/>
    <tag k="name_sort" v="ГЛАВНИК"/>
    <tag k="place" v="hamlet"/>
  </node>
  <node id="448710814" version="2" timestamp="2009-08-25T09:35:29Z" uid="18775" user="drlizau" changeset="2254250" lat="42.868056" lon="21.178889">
    <tag k="name" v="Vendenisi"/>
    <tag k="name_full_nd" v="Vendenisi"/>
    <tag k="name_generic" v=""/>
    <tag k="name_short" v=""/>
    <tag k="name_sort" v="VENDENISI"/>
    <tag k="place" v="hamlet"/>
  </node>
  <node id="448710830" version="2" timestamp="2009-08-25T09:35:27Z" uid="18775" user="drlizau" changeset="2254250" lat="42.868056" lon="21.178889">
    <tag k="name" v="Gllamniku"/>
    <tag k="name_full_nd" v="Gllamniku"/>
    <tag k="name_generic" v=""/>
    <tag k="name_short" v=""/>
    <tag k="name_sort" v="GLLAMNIKU"/>
    <tag k="place" v="hamlet"/>
  </node>
  <node id="448710906" version="2" timestamp="2009-08-25T09:18:15Z" uid="18775" user="drlizau" changeset="2254105" lat="42.65" lon="21.0825">
    <tag k="elevation" v=""/>
    <tag k="name" v="Novo Selo"/>
    <tag k="name_full_nd" v="Novo Selo"/>
    <tag k="name_generic" v=""/>
    <tag k="name_short" v=""/>
    <tag k="name_sort" v="NOVOSELO"/>
    <tag k="place" v="hamlet"/>
  </node>
  <node id="448711007" version="2" timestamp="2009-08-25T09:35:39Z" uid="18775" user="drlizau" changeset="2254250" lat="42.712222" lon="20.834722">
    <tag k="name" v="Polac i Ri"/>
    <tag k="name_full_nd" v="Polac i Ri"/>
    <tag k="name_generic" v=""/>
    <tag k="name_short" v=""/>
    <tag k="name_sort" v="POLACIRI"/>
    <tag k="place" v="hamlet"/>
  </node>
  <node id="448711008" version="2" timestamp="2009-08-25T09:35:38Z" uid="18775" user="drlizau" changeset="2254250" lat="42.712222" lon="20.834722">
    <tag k="name" v="Poljance"/>
    <tag k="name_full_nd" v="Poljance"/>
    <tag k="name_generic" v=""/>
    <tag k="name_short" v=""/>
    <tag k="name_sort" v="POLJANCE"/>
    <tag k="place" v="hamlet"/>
  </node>
  <node id="448711009" version="2" timestamp="2009-08-25T09:35:38Z" uid="18775" user="drlizau" changeset="2254250" lat="42.729444" lon="20.832778">
    <tag k="name" v="Polac i Vjeter"/>
    <tag k="name_full_nd" v="Polac i Vjeter"/>
    <tag k="name_generic" v=""/>
    <tag k="name_short" v=""/>
    <tag k="name_sort" v="POLACIVJETER"/>
    <tag k="place" v="hamlet"/>
  </node>
  <node id="448711013" version="2" timestamp="2009-08-25T09:35:38Z" uid="18775" user="drlizau" changeset="2254250" lat="42.785" lon="21">
    <tag k="name" v="Пестово"/>
    <tag k="name_full_nd" v="Пестово"/>
    <tag k="name_generic" v=""/>
    <tag k="name_short" v=""/>
    <tag k="name_sort" v="ПЕСТОВО"/>
    <tag k="place" v="hamlet"/>
  </node>
  <node id="448711014" version="2" timestamp="2009-08-25T09:35:38Z" uid="18775" user="drlizau" changeset="2254250" lat="42.804444" lon="21.005833">
    <tag k="name" v="Sfaracaku i Poshtëm"/>
    <tag k="name_full_nd" v="Sfaracaku i Poshtëm"/>
    <tag k="name_generic" v=""/>
    <tag k="name_short" v=""/>
    <tag k="name_sort" v="SFARACAKUIPOSHTEM"/>
    <tag k="place" v="hamlet"/>
  </node>
  <node id="448711015" version="2" timestamp="2009-08-25T09:35:38Z" uid="18775" user="drlizau" changeset="2254250" lat="42.804444" lon="21.005833">
    <tag k="name" v="Доњи Сврачак"/>
    <tag k="name_full_nd" v="Доњи Сврачак"/>
    <tag k="name_generic" v=""/>
    <tag k="name_short" v=""/>
    <tag k="name_sort" v="ДОЊИСВРАЧАК"/>
    <tag k="place" v="hamlet"/>
  </node>
  <node id="448711016" version="2" timestamp="2009-08-25T09:35:38Z" uid="18775" user="drlizau" changeset="2254250" lat="42.874444" lon="21.051667">
    <tag k="name" v="Sllakovc"/>
    <tag k="name_full_nd" v="Sllakovc"/>
    <tag k="name_generic" v=""/>
    <tag k="name_short" v=""/>
    <tag k="name_sort" v="SLLAKOVC"/>
    <tag k="place" v="hamlet"/>
  </node>
  <node id="448711017" version="2" timestamp="2009-08-25T09:35:38Z" uid="18775" user="drlizau" changeset="2254250" lat="42.874444" lon="21.051667">
    <tag k="name" v="Sllakofc"/>
    <tag k="name_full_nd" v="Sllakofc"/>
    <tag k="name_generic" v=""/>
    <tag k="name_short" v=""/>
    <tag k="name_sort" v="SLLAKOFC"/>
    <tag k="place" v="hamlet"/>
  </node>
  <node id="448711022" version="2" timestamp="2009-08-25T09:35:38Z" uid="18775" user="drlizau" changeset="2254250" lat="42.758611" lon="21.042778">
    <tag k="name" v="Stanovci i Epërm"/>
    <tag k="name_full_nd" v="Stanovci i Epërm"/>
    <tag k="name_generic" v=""/>
    <tag k="name_short" v=""/>
    <tag k="name_sort" v="STANOVCIIEPERM"/>
    <tag k="place" v="hamlet"/>
  </node>
  <node id="448711024" version="2" timestamp="2009-08-25T09:35:37Z" uid="18775" user="drlizau" changeset="2254250" lat="42.847778" lon="21.031667">
    <tag k="name" v="Studime e Epërme"/>
    <tag k="name_full_nd" v="Studime e Epërme"/>
    <tag k="name_generic" v=""/>
    <tag k="name_short" v=""/>
    <tag k="name_sort" v="STUDIMEEEPERME"/>
    <tag k="place" v="hamlet"/>
  </node>
  <node id="448711030" version="2" timestamp="2009-08-25T09:35:37Z" uid="18775" user="drlizau" changeset="2254250" lat="42.771389" lon="20.931944">
    <tag k="name" v="Kollo"/>
    <tag k="name_full_nd" v="Kollo"/>
    <tag k="name_generic" v=""/>
    <tag k="name_short" v=""/>
    <tag k="name_sort" v="KOLLO"/>
    <tag k="place" v="hamlet"/>
  </node>
  <node id="448711034" version="2" timestamp="2009-08-25T09:35:37Z" uid="18775" user="drlizau" changeset="2254250" lat="42.73" lon="20.905833">
    <tag k="name" v="Kožica"/>
    <tag k="name_full_nd" v="Kožica"/>
    <tag k="name_generic" v=""/>
    <tag k="name_short" v=""/>
    <tag k="name_sort" v="KOZICA"/>
    <tag k="place" v="hamlet"/>
  </node>
  <node id="448711036" version="2" timestamp="2009-08-25T09:35:37Z" uid="18775" user="drlizau" changeset="2254250" lat="42.801111" lon="20.743056">
    <tag k="name" v="Kotore"/>
    <tag k="name_full_nd" v="Kotore"/>
    <tag k="name_generic" v=""/>
    <tag k="name_short" v=""/>
    <tag k="name_sort" v="KOTORE"/>
    <tag k="place" v="hamlet"/>
  </node>
  <node id="448711041" version="2" timestamp="2009-08-25T09:35:35Z" uid="18775" user="drlizau" changeset="2254250" lat="42.725" lon="20.928056">
    <tag k="name" v="Krajmirovc"/>
    <tag k="name_full_nd" v="Krajmirovc"/>
    <tag k="name_generic" v=""/>
    <tag k="name_short" v=""/>
    <tag k="name_sort" v="KRAJMIROVC"/>
    <tag k="place" v="hamlet"/>
  </node>
  <node id="448711044" version="2" timestamp="2009-08-25T09:35:35Z" uid="18775" user="drlizau" changeset="2254250" lat="42.7675" lon="20.843611">
    <tag k="name" v="Mikušnicë"/>
    <tag k="name_full_nd" v="Mikušnicë"/>
    <tag k="name_generic" v=""/>
    <tag k="name_short" v=""/>
    <tag k="name_sort" v="MIKUSNICE"/>
    <tag k="place" v="hamlet"/>
  </node>
  <node id="448711045" version="2" timestamp="2009-08-25T09:35:35Z" uid="18775" user="drlizau" changeset="2254250" lat="42.702778" lon="20.803611">
    <tag k="name" v="Marinë"/>
    <tag k="name_full_nd" v="Marinë"/>
    <tag k="name_generic" v=""/>
    <tag k="name_short" v=""/>
    <tag k="name_sort" v="MARINE"/>
    <tag k="place" v="hamlet"/>
  </node>
  <node id="448711070" version="2" timestamp="2009-08-25T09:35:35Z" uid="18775" user="drlizau" changeset="2254250" lat="42.715833" lon="20.893611">
    <tag k="name" v="Terez"/>
    <tag k="name_full_nd" v="Terez"/>
    <tag k="name_generic" v=""/>
    <tag k="name_short" v=""/>
    <tag k="name_sort" v="TEREZ"/>
    <tag k="place" v="hamlet"/>
  </node>
  <node id="448711077" version="2" timestamp="2009-08-25T09:35:34Z" uid="18775" user="drlizau" changeset="2254250" lat="42.760833" lon="20.790278">
    <tag k="name" v="Klinë e Poshtme"/>
    <tag k="name_full_nd" v="Klinë e Poshtme"/>
    <tag k="name_generic" v=""/>
    <tag k="name_short" v=""/>
    <tag k="name_sort" v="KLINEEPOSHTME"/>
    <tag k="place" v="hamlet"/>
  </node>
  <node id="448711079" version="2" timestamp="2009-08-25T09:35:34Z" uid="18775" user="drlizau" changeset="2254250" lat="42.715833" lon="20.893611">
    <tag k="name" v="Ćirez"/>
    <tag k="name_full_nd" v="Ćirez"/>
    <tag k="name_generic" v=""/>
    <tag k="name_short" v=""/>
    <tag k="name_sort" v="CIREZ"/>
    <tag k="place" v="hamlet"/>
  </node>
  <node id="448711081" version="2" timestamp="2009-08-25T09:35:34Z" uid="18775" user="drlizau" changeset="2254250" lat="42.693889" lon="20.776944">
    <tag k="name" v="Резала"/>
    <tag k="name_full_nd" v="Резала"/>
    <tag k="name_generic" v=""/>
    <tag k="name_short" v=""/>
    <tag k="name_sort" v="РЕЗАЛА"/>
    <tag k="place" v="hamlet"/>
  </node>
  <node id="448711082" version="2" timestamp="2009-08-25T09:35:34Z" uid="18775" user="drlizau" changeset="2254250" lat="42.733333" lon="20.733333">
    <tag k="name" v="Rakitnicë"/>
    <tag k="name_full_nd" v="Rakitnicë"/>
    <tag k="name_generic" v=""/>
    <tag k="name_short" v=""/>
    <tag k="name_sort" v="RAKITNICE"/>
    <tag k="place" v="hamlet"/>
  </node>
  <node id="448711089" version="2" timestamp="2009-08-25T09:35:33Z" uid="18775" user="drlizau" changeset="2254250" lat="42.803056" lon="20.928889">
    <tag k="name" v="Букош"/>
    <tag k="name_full_nd" v="Букош"/>
    <tag k="name_generic" v=""/>
    <tag k="name_short" v=""/>
    <tag k="name_sort" v="БУКОШ"/>
    <tag k="place" v="hamlet"/>
  </node>
  <node id="448711093" version="2" timestamp="2009-08-25T09:35:33Z" uid="18775" user="drlizau" changeset="2254250" lat="42.784722" lon="20.779167">
    <tag k="name" v="Klina e Mesme"/>
    <tag k="name_full_nd" v="Klina e Mesme"/>
    <tag k="name_generic" v=""/>
    <tag k="name_short" v=""/>
    <tag k="name_sort" v="KLINAEMESME"/>
    <tag k="place" v="hamlet"/>
  </node>
  <node id="448711099" version="2" timestamp="2009-08-25T09:35:33Z" uid="18775" user="drlizau" changeset="2254250" lat="42.729167" lon="21.093056">
    <tag k="name" v="Raskovo"/>
    <tag k="name_full_nd" v="Raskovo"/>
    <tag k="name_generic" v=""/>
    <tag k="name_short" v=""/>
    <tag k="name_sort" v="RASKOVO"/>
    <tag k="place" v="hamlet"/>
  </node>
  <node id="448711102" version="2" timestamp="2009-08-25T09:35:33Z" uid="18775" user="drlizau" changeset="2254250" lat="42.844722" lon="20.946389">
    <tag k="name" v="Dobërllukë"/>
    <tag k="name_full_nd" v="Dobërllukë"/>
    <tag k="name_generic" v=""/>
    <tag k="name_short" v=""/>
    <tag k="name_sort" v="DOBERLLUKE"/>
    <tag k="place" v="hamlet"/>
  </node>
  <node id="448711104" version="2" timestamp="2009-08-25T09:35:36Z" uid="18775" user="drlizau" changeset="2254250" lat="42.816667" lon="20.9275">
    <tag k="name" v="Дољак"/>
    <tag k="name_full_nd" v="Дољак"/>
    <tag k="name_generic" v=""/>
    <tag k="name_short" v=""/>
    <tag k="name_sort" v="ДОЉАК"/>
    <tag k="place" v="hamlet"/>
  </node>
  <node id="448711133" version="2" timestamp="2009-08-25T09:35:36Z" uid="18775" user="drlizau" changeset="2254250" lat="42.745556" lon="21.058333">
    <tag k="name" v="Gracë"/>
    <tag k="name_full_nd" v="Gracë"/>
    <tag k="name_generic" v=""/>
    <tag k="name_short" v=""/>
    <tag k="name_sort" v="GRACE"/>
    <tag k="place" v="hamlet"/>
  </node>
  <node id="448711180" version="2" timestamp="2009-08-25T09:37:07Z" uid="18775" user="drlizau" changeset="2254250" lat="42.668889" lon="21.0825">
    <tag k="name" v="Kryshec"/>
    <tag k="name_full_nd" v="Kryshec"/>
    <tag k="name_generic" v=""/>
    <tag k="name_short" v=""/>
    <tag k="name_sort" v="KRYSHEC"/>
    <tag k="place" v="hamlet"/>
  </node>
  <node id="448711181" version="2" timestamp="2009-08-25T09:37:07Z" uid="18775" user="drlizau" changeset="2254250" lat="42.668889" lon="21.0825">
    <tag k="name" v="Kruševac"/>
    <tag k="name_full_nd" v="Kruševac"/>
    <tag k="name_generic" v=""/>
    <tag k="name_short" v=""/>
    <tag k="name_sort" v="KRUSEVAC"/>
    <tag k="place" v="hamlet"/>
  </node>
  <node id="448711183" version="2" timestamp="2009-08-25T09:37:07Z" uid="18775" user="drlizau" changeset="2254250" lat="42.668889" lon="21.0825">
    <tag k="name" v="Kryshevc"/>
    <tag k="name_full_nd" v="Kryshevc"/>
    <tag k="name_generic" v=""/>
    <tag k="name_short" v=""/>
    <tag k="name_sort" v="KRYSHEVC"/>
    <tag k="place" v="hamlet"/>
  </node>
  <node id="448711184" version="2" timestamp="2009-08-25T09:35:22Z" uid="18775" user="drlizau" changeset="2254250" lat="42.707222" lon="20.861111">
    <tag k="name" v="Дошевац"/>
    <tag k="name_full_nd" v="Дошевац"/>
    <tag k="name_generic" v=""/>
    <tag k="name_short" v=""/>
    <tag k="name_sort" v="ДОШЕВАЦ"/>
    <tag k="place" v="hamlet"/>
  </node>
  <node id="448711185" version="2" timestamp="2009-08-25T09:35:22Z" uid="18775" user="drlizau" changeset="2254250" lat="42.707222" lon="20.861111">
    <tag k="name" v="Daševci"/>
    <tag k="name_full_nd" v="Daševci"/>
    <tag k="name_generic" v=""/>
    <tag k="name_short" v=""/>
    <tag k="name_sort" v="DASEVCI"/>
    <tag k="place" v="hamlet"/>
  </node>
  <node id="448711197" version="2" timestamp="2009-07-27T07:53:01Z" uid="136042" user="Gent" changeset="1952658" lat="42.645278" lon="21.193333">
    <tag k="elevation" v=""/>
    <tag k="name" v="Matiqan"/>
    <tag k="name_full_nd" v="Matiqan"/>
    <tag k="name_generic" v=""/>
    <tag k="name_short" v=""/>
    <tag k="name_sort" v="MATIQAN"/>
    <tag k="place" v="hamlet"/>
  </node>
  <node id="448711302" version="2" timestamp="2009-08-25T09:35:22Z" uid="18775" user="drlizau" changeset="2254250" lat="42.743333" lon="21.078889">
    <tag k="name" v="Djabin Most"/>
    <tag k="name_full_nd" v="Djabin Most"/>
    <tag k="name_generic" v=""/>
    <tag k="name_short" v=""/>
    <tag k="name_sort" v="DJABINMOST"/>
    <tag k="place" v="hamlet"/>
  </node>
  <node id="448711473" version="2" timestamp="2009-08-25T09:35:24Z" uid="18775" user="drlizau" changeset="2254250" lat="42.823611" lon="21.003611">
    <tag k="name" v="Studime e Poshtëme"/>
    <tag k="name_full_nd" v="Studime e Poshtëme"/>
    <tag k="name_generic" v=""/>
    <tag k="name_short" v=""/>
    <tag k="name_sort" v="STUDIMEEPOSHTEME"/>
    <tag k="place" v="hamlet"/>
  </node>
  <node id="448711482" version="2" timestamp="2009-08-25T09:35:25Z" uid="18775" user="drlizau" changeset="2254250" lat="42.823056" lon="20.9675">
    <tag k="name" v="Вучитрн"/>
    <tag k="name_full_nd" v="Вучитрн"/>
    <tag k="name_generic" v=""/>
    <tag k="name_short" v=""/>
    <tag k="name_sort" v="ВУЧИТРН"/>
    <tag k="place" v="hamlet"/>
  </node>
  <node id="448711483" version="2" timestamp="2009-08-25T09:35:26Z" uid="18775" user="drlizau" changeset="2254250" lat="42.823056" lon="20.9675">
    <tag k="name" v="Vučitrn"/>
    <tag k="name_full_nd" v="Vučitrn"/>
    <tag k="name_generic" v=""/>
    <tag k="name_short" v=""/>
    <tag k="name_sort" v="VUCITRN"/>
    <tag k="place" v="hamlet"/>
  </node>
  <node id="448711510" version="2" timestamp="2009-08-25T09:35:26Z" uid="18775" user="drlizau" changeset="2254250" lat="42.811667" lon="21.200278">
    <tag k="name" v="Bellopoja"/>
    <tag k="name_full_nd" v="Bellopoja"/>
    <tag k="name_generic" v=""/>
    <tag k="name_short" v=""/>
    <tag k="name_sort" v="BELLOPOJA"/>
    <tag k="place" v="hamlet"/>
  </node>
  <node id="448711551" version="2" timestamp="2009-08-25T09:35:26Z" uid="18775" user="drlizau" changeset="2254250" lat="42.821944" lon="21.168611">
    <tag k="name" v="Llabuca"/>
    <tag k="name_full_nd" v="Llabuca"/>
    <tag k="name_generic" v=""/>
    <tag k="name_short" v=""/>
    <tag k="name_sort" v="LLABUCA"/>
    <tag k="place" v="hamlet"/>
  </node>
  <node id="448711617" version="2" timestamp="2009-08-25T09:35:23Z" uid="18775" user="drlizau" changeset="2254250" lat="42.928611" lon="21.029167">
    <tag k="name" v="Vesekovce"/>
    <tag k="name_full_nd" v="Vesekovce"/>
    <tag k="name_generic" v=""/>
    <tag k="name_short" v=""/>
    <tag k="name_sort" v="VESEKOVCE"/>
    <tag k="place" v="hamlet"/>
  </node>
  <node id="448711619" version="2" timestamp="2009-08-25T09:35:23Z" uid="18775" user="drlizau" changeset="2254250" lat="42.928611" lon="21.029167">
    <tag k="name" v="Vesekofc"/>
    <tag k="name_full_nd" v="Vesekofc"/>
    <tag k="name_generic" v=""/>
    <tag k="name_short" v=""/>
    <tag k="name_sort" v="VESEKOFC"/>
    <tag k="place" v="hamlet"/>
  </node>
  <node id="448711665" version="2" timestamp="2009-08-25T09:35:24Z" uid="18775" user="drlizau" changeset="2254250" lat="42.886111" lon="20.885833">
    <tag k="name" v="Supkovc"/>
    <tag k="name_full_nd" v="Supkovc"/>
    <tag k="name_generic" v=""/>
    <tag k="name_short" v=""/>
    <tag k="name_sort" v="SUPKOVC"/>
    <tag k="place" v="hamlet"/>
  </node>
  <node id="448711666" version="2" timestamp="2009-08-25T09:35:24Z" uid="18775" user="drlizau" changeset="2254250" lat="42.842778" lon="21.2">
    <tag k="name" v="Donji Sibovac"/>
    <tag k="name_full_nd" v="Donji Sibovac"/>
    <tag k="name_generic" v=""/>
    <tag k="name_short" v=""/>
    <tag k="name_sort" v="DONJISIBOVAC"/>
    <tag k="place" v="hamlet"/>
  </node>
  <node id="448711675" version="2" timestamp="2009-08-25T09:17:57Z" uid="18775" user="drlizau" changeset="2254105" lat="42.789722" lon="20.768056">
    <tag k="elevation" v=""/>
    <tag k="name" v="Berance Mahala"/>
    <tag k="name:sr" v="Berance Mahala"/>
    <tag k="name_full_nd" v="Berance Mahala"/>
    <tag k="name_full_nd:sr" v="Berance Mahala"/>
    <tag k="name_generic" v=""/>
    <tag k="name_short" v=""/>
    <tag k="name_sort" v="BERANCEMAHALA"/>
    <tag k="name_sort:sr" v="BERANCEMAHALA"/>
    <tag k="place" v="hamlet"/>
  </node>
  <node id="448711675" version="3" timestamp="2009-08-25T09:35:23Z" uid="18775" user="drlizau" changeset="2254250" lat="42.789722" lon="20.768056">
    <tag k="name" v="Berance Mahala"/>
    <tag k="name:sr" v="Berance Mahala"/>
    <tag k="name_full_nd" v="Berance Mahala"/>
    <tag k="name_full_nd:sr" v="Berance Mahala"/>
    <tag k="name_generic" v=""/>
    <tag k="name_short" v=""/>
    <tag k="name_sort" v="BERANCEMAHALA"/>
    <tag k="name_sort:sr" v="BERANCEMAHALA"/>
    <tag k="place" v="hamlet"/>
  </node>
  <node id="448711680" version="2" timestamp="2009-08-25T09:35:51Z" uid="18775" user="drlizau" changeset="2254250" lat="42.744722" lon="21.106389">
    <tag k="name" v="Дреновац"/>
    <tag k="name_full_nd" v="Дреновац"/>
    <tag k="name_generic" v=""/>
    <tag k="name_short" v=""/>
    <tag k="name_sort" v="ДРЕНОВАЦ"/>
    <tag k="place" v="hamlet"/>
  </node>
  <node id="448711747" version="2" timestamp="2009-08-25T09:18:01Z" uid="18775" user="drlizau" changeset="2254105" lat="42.799167" lon="21.158333">
    <tag k="elevation" v=""/>
    <tag k="name" v="Stanica Donje Ljupče"/>
    <tag k="name:sr" v="Stanica Donje Ljupče"/>
    <tag k="name_full_nd" v="Stanica Donje Ljupče"/>
    <tag k="name_full_nd:sr" v="Stanica Donje Ljupče"/>
    <tag k="name_generic" v="Stanica"/>
    <tag k="name_generic:sr" v="Stanica"/>
    <tag k="name_short" v=""/>
    <tag k="name_sort" v="STANICADONJELJUPCE"/>
    <tag k="name_sort:sr" v="STANICADONJELJUPCE"/>
    <tag k="place" v="hamlet"/>
  </node>
  <node id="448711747" version="3" timestamp="2009-08-25T09:35:49Z" uid="18775" user="drlizau" changeset="2254250" lat="42.799167" lon="21.158333">
    <tag k="name" v="Stanica Donje Ljupče"/>
    <tag k="name:sr" v="Stanica Donje Ljupče"/>
    <tag k="name_full_nd" v="Stanica Donje Ljupče"/>
    <tag k="name_full_nd:sr" v="Stanica Donje Ljupče"/>
    <tag k="name_generic" v="Stanica"/>
    <tag k="name_generic:sr" v="Stanica"/>
    <tag k="name_short" v=""/>
    <tag k="name_sort" v="STANICADONJELJUPCE"/>
    <tag k="name_sort:sr" v="STANICADONJELJUPCE"/>
    <tag k="place" v="hamlet"/>
  </node>
  <node id="448711759" version="2" timestamp="2009-08-25T09:35:48Z" uid="18775" user="drlizau" changeset="2254250" lat="42.787778" lon="21.171111">
    <tag k="name" v="Tenezhdoll"/>
    <tag k="name_full_nd" v="Tenezhdoll"/>
    <tag k="name_generic" v=""/>
    <tag k="name_short" v=""/>
    <tag k="name_sort" v="TENEZHDOLL"/>
    <tag k="place" v="hamlet"/>
  </node>
  <node id="448711762" version="2" timestamp="2009-08-25T09:18:02Z" uid="18775" user="drlizau" changeset="2254105" lat="42.723333" lon="20.721111">
    <tag k="elevation" v=""/>
    <tag k="name" v="Krst Brdo"/>
    <tag k="name:sr" v="Krst Brdo"/>
    <tag k="name_full_nd" v="Krst Brdo"/>
    <tag k="name_full_nd:sr" v="Krst Brdo"/>
    <tag k="name_generic" v=""/>
    <tag k="name_short" v=""/>
    <tag k="name_sort" v="KRSTBRDO"/>
    <tag k="name_sort:sr" v="KRSTBRDO"/>
    <tag k="place" v="hamlet"/>
  </node>
  <node id="448711762" version="3" timestamp="2009-08-25T09:35:49Z" uid="18775" user="drlizau" changeset="2254250" lat="42.723333" lon="20.721111">
    <tag k="name" v="Krst Brdo"/>
    <tag k="name:sr" v="Krst Brdo"/>
    <tag k="name_full_nd" v="Krst Brdo"/>
    <tag k="name_full_nd:sr" v="Krst Brdo"/>
    <tag k="name_generic" v=""/>
    <tag k="name_short" v=""/>
    <tag k="name_sort" v="KRSTBRDO"/>
    <tag k="name_sort:sr" v="KRSTBRDO"/>
    <tag k="place" v="hamlet"/>
  </node>
  <node id="448711777" version="5" timestamp="2010-02-20T07:32:21Z" uid="18775" user="drlizau" changeset="3920866" lat="42.4500057" lon="20.5333252">
    <tag k="geonameid" v="832435"/>
    <tag k="gnadmin" v="00"/>
    <tag k="gnadmin2" v="Kosovo"/>
    <tag k="gnfeature" v="P"/>
    <tag k="gnfeaturec" v="PPL"/>
    <tag k="name" v="Saros"/>
    <tag k="name2" v="Saros"/>
    <tag k="name_full_nd" v="Saros"/>
    <tag k="name_sort" v="SAROS"/>
    <tag k="place" v="village"/>
  </node>
  <node id="448711792" version="2" timestamp="2009-08-25T09:35:48Z" uid="18775" user="drlizau" changeset="2254250" lat="42.801667" lon="21.201111">
    <tag k="name" v="Tërrnava"/>
    <tag k="name_full_nd" v="Tërrnava"/>
    <tag k="name_generic" v=""/>
    <tag k="name_short" v=""/>
    <tag k="name_sort" v="TERRNAVA"/>
    <tag k="place" v="hamlet"/>
  </node>
  <node id="448711843" version="2" timestamp="2009-08-25T09:35:47Z" uid="18775" user="drlizau" changeset="2254250" lat="42.788333" lon="20.967778">
    <tag k="name" v="Vrnica"/>
    <tag k="name_full_nd" v="Vrnica"/>
    <tag k="name_generic" v=""/>
    <tag k="name_short" v=""/>
    <tag k="name_sort" v="VRNICA"/>
    <tag k="place" v="hamlet"/>
  </node>
  <node id="448711846" version="2" timestamp="2009-08-25T09:35:47Z" uid="18775" user="drlizau" changeset="2254250" lat="42.756111" lon="21.025">
    <tag k="name" v="Lumëmadh"/>
    <tag k="name_full_nd" v="Lumëmadh"/>
    <tag k="name_generic" v=""/>
    <tag k="name_short" v=""/>
    <tag k="name_sort" v="LUMEMADH"/>
    <tag k="place" v="hamlet"/>
  </node>
  <node id="448711850" version="2" timestamp="2009-08-25T09:35:47Z" uid="18775" user="drlizau" changeset="2254250" lat="42.89" lon="20.993889">
    <tag k="name" v="Shlivovicë"/>
    <tag k="name_full_nd" v="Shlivovicë"/>
    <tag k="name_generic" v=""/>
    <tag k="name_short" v=""/>
    <tag k="name_sort" v="SHLIVOVICE"/>
    <tag k="place" v="hamlet"/>
  </node>
  <node id="448711874" version="2" timestamp="2009-08-25T09:18:01Z" uid="18775" user="drlizau" changeset="2254105" lat="42.778333" lon="20.748333">
    <tag k="elevation" v=""/>
    <tag k="name" v="Košutan Mahala"/>
    <tag k="name:sr" v="Košutan Mahala"/>
    <tag k="name_full_nd" v="Košutan Mahala"/>
    <tag k="name_full_nd:sr" v="Košutan Mahala"/>
    <tag k="name_generic" v=""/>
    <tag k="name_short" v=""/>
    <tag k="name_sort" v="KOSUTANMAHALA"/>
    <tag k="name_sort:sr" v="KOSUTANMAHALA"/>
    <tag k="place" v="hamlet"/>
  </node>
  <node id="448711874" version="3" timestamp="2009-08-25T09:35:45Z" uid="18775" user="drlizau" changeset="2254250" lat="42.778333" lon="20.748333">
    <tag k="name" v="Košutan Mahala"/>
    <tag k="name:sr" v="Košutan Mahala"/>
    <tag k="name_full_nd" v="Košutan Mahala"/>
    <tag k="name_full_nd:sr" v="Košutan Mahala"/>
    <tag k="name_generic" v=""/>
    <tag k="name_short" v=""/>
    <tag k="name_sort" v="KOSUTANMAHALA"/>
    <tag k="name_sort:sr" v="KOSUTANMAHALA"/>
    <tag k="place" v="hamlet"/>
  </node>
  <node id="448711877" version="2" timestamp="2009-08-25T09:35:46Z" uid="18775" user="drlizau" changeset="2254250" lat="42.753611" lon="20.890556">
    <tag k="name" v="Beqiq"/>
    <tag k="name_full_nd" v="Beqiq"/>
    <tag k="name_generic" v=""/>
    <tag k="name_short" v=""/>
    <tag k="name_sort" v="BEQIQ"/>
    <tag k="place" v="hamlet"/>
  </node>
  <node id="448711878" version="2" timestamp="2009-08-25T09:35:45Z" uid="18775" user="drlizau" changeset="2254250" lat="42.859722" lon="20.9975">
    <tag k="name" v="Miroče"/>
    <tag k="name_full_nd" v="Miroče"/>
    <tag k="name_generic" v=""/>
    <tag k="name_short" v=""/>
    <tag k="name_sort" v="MIROCE"/>
    <tag k="place" v="hamlet"/>
  </node>
  <node id="448711886" version="2" timestamp="2009-08-25T09:35:46Z" uid="18775" user="drlizau" changeset="2254250" lat="42.8" lon="20.983333">
    <tag k="name" v="Opština Vučitrn"/>
    <tag k="name_full_nd" v="Opština Vučitrn"/>
    <tag k="name_generic" v="Opština"/>
    <tag k="name_short" v="Vučitrn"/>
    <tag k="name_sort" v="OPSTINAVUCITRN"/>
    <tag k="place" v="hamlet"/>
  </node>
  <node id="448711887" version="2" timestamp="2009-08-25T09:35:46Z" uid="18775" user="drlizau" changeset="2254250" lat="42.8" lon="20.983333">
    <tag k="name" v="Komuna e Vushtrrisë"/>
    <tag k="name_full_nd" v="Komuna e Vushtrrisë"/>
    <tag k="name_generic" v="Komuna"/>
    <tag k="name_short" v="Vushtrri"/>
    <tag k="name_sort" v="KOMUNAEVUSHTRRISE"/>
    <tag k="place" v="hamlet"/>
  </node>
  <node id="448712042" version="2" timestamp="2009-08-25T09:35:52Z" uid="18775" user="drlizau" changeset="2254250" lat="42.749167" lon="20.820278">
    <tag k="name" v="Доње Преказе"/>
    <tag k="name_full_nd" v="Доње Преказе"/>
    <tag k="name_generic" v=""/>
    <tag k="name_short" v=""/>
    <tag k="name_sort" v="ДОЊЕПРЕКАЗЕ"/>
    <tag k="place" v="hamlet"/>
  </node>
  <node id="448712044" version="2" timestamp="2009-08-25T09:35:52Z" uid="18775" user="drlizau" changeset="2254250" lat="42.749167" lon="20.820278">
    <tag k="name" v="Prekazi i Poshtëm"/>
    <tag k="name_full_nd" v="Prekazi i Poshtëm"/>
    <tag k="name_generic" v=""/>
    <tag k="name_short" v=""/>
    <tag k="name_sort" v="PREKAZIIPOSHTEM"/>
    <tag k="place" v="hamlet"/>
  </node>
  <node id="448712052" version="2" timestamp="2009-08-25T09:35:52Z" uid="18775" user="drlizau" changeset="2254250" lat="42.910556" lon="21.193056">
    <tag k="name" v="Podjevë"/>
    <tag k="name_full_nd" v="Podjevë"/>
    <tag k="name_generic" v=""/>
    <tag k="name_short" v=""/>
    <tag k="name_sort" v="PODJEVE"/>
    <tag k="place" v="hamlet"/>
  </node>
  <node id="448712217" version="2" timestamp="2009-08-25T09:18:35Z" uid="18775" user="drlizau" changeset="2254105" lat="42.862222" lon="20.7525">
    <tag k="elevation" v=""/>
    <tag k="name" v="Kodra Roges"/>
    <tag k="name_full_nd" v="Kodra Roges"/>
    <tag k="name_generic" v="Kodra"/>
    <tag k="name_short" v=""/>
    <tag k="name_sort" v="KODRAROGES"/>
    <tag k="place" v="hamlet"/>
  </node>
  <node id="448712341" version="2" timestamp="2009-08-25T09:35:40Z" uid="18775" user="drlizau" changeset="2254250" lat="42.739167" lon="20.890278">
    <tag k="name" v="Prellovc"/>
    <tag k="name_full_nd" v="Prellovc"/>
    <tag k="name_generic" v=""/>
    <tag k="name_short" v=""/>
    <tag k="name_sort" v="PRELLOVC"/>
    <tag k="place" v="hamlet"/>
  </node>
  <node id="448712429" version="2" timestamp="2009-08-25T09:35:39Z" uid="18775" user="drlizau" changeset="2254250" lat="42.806111" lon="20.903889">
    <tag k="name" v="Jezerc"/>
    <tag k="name_full_nd" v="Jezerc"/>
    <tag k="name_generic" v=""/>
    <tag k="name_short" v=""/>
    <tag k="name_sort" v="JEZERC"/>
    <tag k="place" v="hamlet"/>
  </node>
  <node id="448712430" version="2" timestamp="2009-08-25T09:35:39Z" uid="18775" user="drlizau" changeset="2254250" lat="42.806111" lon="20.903889">
    <tag k="name" v="Liqej"/>
    <tag k="name_full_nd" v="Liqej"/>
    <tag k="name_generic" v=""/>
    <tag k="name_short" v=""/>
    <tag k="name_sort" v="LIQEJ"/>
    <tag k="place" v="hamlet"/>
  </node>
  <node id="448712432" version="8" timestamp="2009-08-25T09:17:59Z" uid="18775" user="drlizau" changeset="2254105" lat="42.697778" lon="20.99">
    <tag k="altname" v="Zeli Voda,Zhilivode,Zhilivodë,Zilivoda,Želi Voda,Žilivoda"/>
    <tag k="geonameid" v="783898"/>
    <tag k="gnadmin" v="00"/>
    <tag k="gnadmin2" v="Kosovo"/>
    <tag k="gnfeature" v="P"/>
    <tag k="gnfeaturec" v="PPL"/>
    <tag k="name" v="Zhilivodë"/>
    <tag k="name2" v="Žiljivoda"/>
    <tag k="name:sr" v="Žiljivoda"/>
    <tag k="name_full_nd" v="Zhilivodë"/>
    <tag k="name_full_nd:sr" v="Žiljivoda"/>
    <tag k="name_sort" v="ZELIVODA"/>
    <tag k="name_sort:sr" v="ZILJIVODA"/>
    <tag k="place" v="hamlet"/>
  </node>
  <node id="448712433" version="3" timestamp="2009-08-25T09:35:39Z" uid="18775" user="drlizau" changeset="2254250" lat="42.841944" lon="20.914722">
    <tag k="altname" v="Stanica Pantina"/>
    <tag k="el" v=""/>
    <tag k="geonameid" v="829487"/>
    <tag k="gnadmin" v="00"/>
    <tag k="gnadmin2" v="Kosovo"/>
    <tag k="gnfeature" v="S"/>
    <tag k="gnfeaturec" v="RSTN"/>
    <tag k="name" v="Stanica Pantina"/>
    <tag k="name2" v="Železnička Stanica Pantina"/>
    <tag k="name:sr" v="Železnička Stanica Pantina"/>
    <tag k="name_full_nd" v="Stanica Pantina"/>
    <tag k="name_full_nd:sr" v="Železnička Stanica Pantina"/>
    <tag k="name_generic" v="Železnička Stanica"/>
    <tag k="name_generic:sr" v="Železnička Stanica"/>
    <tag k="name_short" v="Pantina"/>
    <tag k="name_short:sr" v="Pantina"/>
    <tag k="name_sort" v="STANICAPANTINA"/>
    <tag k="name_sort:sr" v="ZELEZNICKASTANICAPANTINA"/>
    <tag k="place" v="hamlet"/>
    <tag k="railway" v="station"/>
  </node>
  <node id="448712463" version="2" timestamp="2009-08-25T09:35:43Z" uid="18775" user="drlizau" changeset="2254250" lat="42.903611" lon="20.735833">
    <tag k="name" v="Donje Varage"/>
    <tag k="name_full_nd" v="Donje Varage"/>
    <tag k="name_generic" v=""/>
    <tag k="name_short" v=""/>
    <tag k="name_sort" v="DONJEVARAGE"/>
    <tag k="place" v="hamlet"/>
  </node>
  <node id="448712468" version="2" timestamp="2009-08-25T09:35:42Z" uid="18775" user="drlizau" changeset="2254250" lat="42.896111" lon="20.767778">
    <tag k="name" v="Зупче"/>
    <tag k="name_full_nd" v="Зупче"/>
    <tag k="name_generic" v=""/>
    <tag k="name_short" v=""/>
    <tag k="name_sort" v="ЗУПЧЕ"/>
    <tag k="place" v="hamlet"/>
  </node>
  <node id="448712469" version="2" timestamp="2009-08-25T09:35:42Z" uid="18775" user="drlizau" changeset="2254250" lat="42.896111" lon="20.767778">
    <tag k="name" v="Zupče"/>
    <tag k="name_full_nd" v="Zupče"/>
    <tag k="name_generic" v=""/>
    <tag k="name_short" v=""/>
    <tag k="name_sort" v="ZUPCE"/>
    <tag k="place" v="hamlet"/>
  </node>
  <node id="448712471" version="2" timestamp="2009-08-25T09:18:01Z" uid="18775" user="drlizau" changeset="2254105" lat="42.915833" lon="20.783333">
    <tag k="elevation" v=""/>
    <tag k="name" v="Vidgrica"/>
    <tag k="name:sr" v="Vidgrica"/>
    <tag k="name_full_nd" v="Vidgrica"/>
    <tag k="name_full_nd:sr" v="Vidgrica"/>
    <tag k="name_generic" v=""/>
    <tag k="name_short" v=""/>
    <tag k="name_sort" v="VIDGRICA"/>
    <tag k="name_sort:sr" v="VIDGRICA"/>
    <tag k="place" v="hamlet"/>
  </node>
  <node id="448712471" version="3" timestamp="2009-08-25T09:35:43Z" uid="18775" user="drlizau" changeset="2254250" lat="42.915833" lon="20.783333">
    <tag k="name" v="Vidgrica"/>
    <tag k="name:sr" v="Vidgrica"/>
    <tag k="name_full_nd" v="Vidgrica"/>
    <tag k="name_full_nd:sr" v="Vidgrica"/>
    <tag k="name_generic" v=""/>
    <tag k="name_short" v=""/>
    <tag k="name_sort" v="VIDGRICA"/>
    <tag k="name_sort:sr" v="VIDGRICA"/>
    <tag k="place" v="hamlet"/>
  </node>
  <node id="448712487" version="3" timestamp="2009-08-25T09:35:44Z" uid="18775" user="drlizau" changeset="2254250" lat="42.928056" lon="20.745278">
    <tag k="altname" v="Padinski Potok"/>
    <tag k="el" v=""/>
    <tag k="geonameid" v="831946"/>
    <tag k="gnadmin" v="00"/>
    <tag k="gnadmin2" v="Kosovo"/>
    <tag k="gnfeature" v="H"/>
    <tag k="gnfeaturec" v="STM"/>
    <tag k="name" v="Kosovica"/>
    <tag k="name2" v="Kosovica"/>
    <tag k="name:sr" v="Kosovica"/>
    <tag k="name_full_nd" v="Kosovica"/>
    <tag k="name_full_nd:sr" v="Kosovica"/>
    <tag k="name_generic" v=""/>
    <tag k="name_generic:sr" v=""/>
    <tag k="name_short" v=""/>
    <tag k="name_short:sr" v=""/>
    <tag k="name_sort" v="KOSOVICA"/>
    <tag k="name_sort:sr" v="KOSOVICA"/>
    <tag k="natural" v="spring"/>
  </node>
  <node id="448712642" version="2" timestamp="2009-10-02T20:47:48Z" uid="86259" user="hasse_osm_korinthenkacker" changeset="2717407" lat="48.0629715" lon="11.5199131">
    <tag k="addr:housenumber" v="4"/>
    <tag k="addr:street" v="Metzstraße"/>
  </node>
  <node id="448712650" version="2" timestamp="2009-10-02T20:47:48Z" uid="86259" user="hasse_osm_korinthenkacker" changeset="2717407" lat="48.062982" lon="11.5197143">
    <tag k="addr:housenumber" v="6"/>
    <tag k="addr:street" v="Metzstraße"/>
  </node>
  <node id="448712658" version="2" timestamp="2009-10-02T20:47:48Z" uid="86259" user="hasse_osm_korinthenkacker" changeset="2717407" lat="48.0630031" lon="11.5193175">
    <tag k="addr:housenumber" v="8"/>
    <tag k="addr:street" v="Metzstraße"/>
  </node>
  <node id="448712667" version="2" timestamp="2009-10-02T20:47:51Z" uid="86259" user="hasse_osm_korinthenkacker" changeset="2717407" lat="48.063055" lon="11.5183406">
    <tag k="addr:housenumber" v="16"/>
    <tag k="addr:street" v="Metzstraße"/>
  </node>
  <node id="448712673" version="2" timestamp="2009-10-02T20:47:51Z" uid="86259" user="hasse_osm_korinthenkacker" changeset="2717407" lat="48.0630713" lon="11.5180335">
    <tag k="addr:housenumber" v="18a"/>
    <tag k="addr:street" v="Metzstraße"/>
  </node>
  <node id="448712681" version="2" timestamp="2009-10-02T20:47:52Z" uid="86259" user="hasse_osm_korinthenkacker" changeset="2717407" lat="48.0631352" lon="11.5168305">
    <tag k="addr:housenumber" v="20"/>
    <tag k="addr:street" v="Metzstraße"/>
  </node>
  <node id="448712688" version="2" timestamp="2009-10-02T20:47:52Z" uid="86259" user="hasse_osm_korinthenkacker" changeset="2717407" lat="48.0630839" lon="11.5177956">
    <tag k="addr:housenumber" v="18"/>
    <tag k="addr:street" v="Metzstraße"/>
  </node>
  <node id="448712695" version="2" timestamp="2009-10-02T20:47:52Z" uid="86259" user="hasse_osm_korinthenkacker" changeset="2717407" lat="48.0631487" lon="11.5165761">
    <tag k="addr:housenumber" v="22"/>
    <tag k="addr:street" v="Metzstraße"/>
  </node>
  <node id="448712700" version="2" timestamp="2009-08-25T09:18:00Z" uid="18775" user="drlizau" changeset="2254105" lat="42.761667" lon="20.731389">
    <tag k="elevation" v=""/>
    <tag k="name" v="Kodra Ðidovce"/>
    <tag k="name:sr" v="Kodra Ðidovce"/>
    <tag k="name_full_nd" v="Kodra Ðidovce"/>
    <tag k="name_full_nd:sr" v="Kodra Ðidovce"/>
    <tag k="name_generic" v="Kodra"/>
    <tag k="name_generic:sr" v="Kodra"/>
    <tag k="name_short" v=""/>
    <tag k="name_sort" v="KODRADIDOVCE"/>
    <tag k="name_sort:sr" v="KODRADIDOVCE"/>
    <tag k="place" v="hamlet"/>
  </node>
  <node id="448712700" version="3" timestamp="2009-08-25T09:35:41Z" uid="18775" user="drlizau" changeset="2254250" lat="42.761667" lon="20.731389">
    <tag k="name" v="Kodra Ðidovce"/>
    <tag k="name:sr" v="Kodra Ðidovce"/>
    <tag k="name_full_nd" v="Kodra Ðidovce"/>
    <tag k="name_full_nd:sr" v="Kodra Ðidovce"/>
    <tag k="name_generic" v="Kodra"/>
    <tag k="name_generic:sr" v="Kodra"/>
    <tag k="name_short" v=""/>
    <tag k="name_sort" v="KODRADIDOVCE"/>
    <tag k="name_sort:sr" v="KODRADIDOVCE"/>
    <tag k="place" v="hamlet"/>
  </node>
  <node id="448712701" version="2" timestamp="2009-10-02T20:47:52Z" uid="86259" user="hasse_osm_korinthenkacker" changeset="2717407" lat="48.0631653" lon="11.5162635">
    <tag k="addr:housenumber" v="24"/>
    <tag k="addr:street" v="Metzstraße"/>
  </node>
  <node id="448712706" version="2" timestamp="2009-10-02T20:47:52Z" uid="86259" user="hasse_osm_korinthenkacker" changeset="2717407" lat="48.0628149" lon="11.5165002">
    <tag k="addr:housenumber" v="13"/>
    <tag k="addr:street" v="Metzstraße"/>
  </node>
  <node id="448712711" version="2" timestamp="2009-10-02T20:47:52Z" uid="86259" user="hasse_osm_korinthenkacker" changeset="2717407" lat="48.0628039" lon="11.5166916">
    <tag k="addr:housenumber" v="11"/>
    <tag k="addr:street" v="Metzstraße"/>
  </node>
  <node id="448712716" version="2" timestamp="2009-10-02T20:47:52Z" uid="86259" user="hasse_osm_korinthenkacker" changeset="2717407" lat="48.0628413" lon="11.5160417">
    <tag k="addr:housenumber" v="15"/>
    <tag k="addr:street" v="Metzstraße"/>
  </node>
  <node id="448712722" version="2" timestamp="2009-10-02T20:47:52Z" uid="86259" user="hasse_osm_korinthenkacker" changeset="2717407" lat="48.0627352" lon="11.5178895">
    <tag k="addr:housenumber" v="9"/>
    <tag k="addr:street" v="Metzstraße"/>
  </node>
  <node id="448712727" version="2" timestamp="2009-10-02T20:47:52Z" uid="86259" user="hasse_osm_korinthenkacker" changeset="2717407" lat="48.0626716" lon="11.5189969">
    <tag k="addr:housenumber" v="7"/>
    <tag k="addr:street" v="Metzstraße"/>
  </node>
  <node id="448712734" version="2" timestamp="2009-10-02T20:47:52Z" uid="86259" user="hasse_osm_korinthenkacker" changeset="2717407" lat="48.0626656" lon="11.5191307">
    <tag k="addr:housenumber" v="5a"/>
    <tag k="addr:street" v="Metzstraße"/>
  </node>
  <node id="448712735" version="2" timestamp="2009-10-02T20:47:48Z" uid="86259" user="hasse_osm_korinthenkacker" changeset="2717407" lat="48.0626596" lon="11.5192644">
    <tag k="addr:housenumber" v="5"/>
    <tag k="addr:street" v="Metzstraße"/>
  </node>
  <node id="448712737" version="2" timestamp="2009-10-02T20:47:48Z" uid="86259" user="hasse_osm_korinthenkacker" changeset="2717407" lat="48.0626537" lon="11.5193982">
    <tag k="addr:housenumber" v="3"/>
    <tag k="addr:street" v="Metzstraße"/>
  </node>
  <node id="448712741" version="2" timestamp="2009-10-02T20:47:48Z" uid="86259" user="hasse_osm_korinthenkacker" changeset="2717407" lat="48.0626314" lon="11.519898">
    <tag k="addr:housenumber" v="1"/>
    <tag k="addr:street" v="Metzstraße"/>
  </node>
  <node id="448712744" version="2" timestamp="2009-10-02T20:47:48Z" uid="86259" user="hasse_osm_korinthenkacker" changeset="2717407" lat="48.0626123" lon="11.5203263">
    <tag k="addr:housenumber" v="31a"/>
    <tag k="addr:street" v="Münchner Straße"/>
  </node>
  <node id="448712749" version="2" timestamp="2009-10-02T20:47:48Z" uid="86259" user="hasse_osm_korinthenkacker" changeset="2717407" lat="48.0626053" lon="11.520483">
    <tag k="addr:housenumber" v="31"/>
    <tag k="addr:street" v="Münchner Straße"/>
  </node>
  <node id="448712752" version="2" timestamp="2009-08-25T09:36:05Z" uid="18775" user="drlizau" changeset="2254250" lat="42.684167" lon="20.883611">
    <tag k="name" v="Grabljak"/>
    <tag k="name_full_nd" v="Grabljak"/>
    <tag k="name_generic" v=""/>
    <tag k="name_short" v=""/>
    <tag k="name_sort" v="GRABLJAK"/>
    <tag k="place" v="hamlet"/>
  </node>
  <node id="448712755" version="2" timestamp="2009-10-02T20:47:48Z" uid="86259" user="hasse_osm_korinthenkacker" changeset="2717407" lat="48.0625215" lon="11.5205001">
    <tag k="addr:housenumber" v="29"/>
    <tag k="addr:street" v="Münchner Straße"/>
  </node>
  <node id="448712759" version="2" timestamp="2009-10-02T20:47:49Z" uid="86259" user="hasse_osm_korinthenkacker" changeset="2717407" lat="48.0621366" lon="11.5206027">
    <tag k="addr:housenumber" v="25"/>
    <tag k="addr:street" v="Münchner Straße"/>
  </node>
  <node id="448712769" version="2" timestamp="2009-10-02T20:47:49Z" uid="86259" user="hasse_osm_korinthenkacker" changeset="2717407" lat="48.0623318" lon="11.5205507">
    <tag k="addr:housenumber" v="27"/>
    <tag k="addr:street" v="Münchner Straße"/>
  </node>
  <node id="448712777" version="2" timestamp="2009-10-02T20:47:50Z" uid="86259" user="hasse_osm_korinthenkacker" changeset="2717407" lat="48.06195" lon="11.5204716">
    <tag k="addr:housenumber" v="2"/>
    <tag k="addr:street" v="Mozartstraße"/>
  </node>
  <node id="448712783" version="2" timestamp="2009-10-02T20:47:50Z" uid="86259" user="hasse_osm_korinthenkacker" changeset="2717407" lat="48.0619465" lon="11.5202685">
    <tag k="addr:housenumber" v="4"/>
    <tag k="addr:street" v="Mozartstraße"/>
  </node>
  <node id="448712789" version="2" timestamp="2009-10-02T20:47:50Z" uid="86259" user="hasse_osm_korinthenkacker" changeset="2717407" lat="48.0619423" lon="11.5200269">
    <tag k="addr:housenumber" v="6"/>
    <tag k="addr:street" v="Mozartstraße"/>
  </node>
  <node id="448712793" version="2" timestamp="2009-10-02T20:47:50Z" uid="86259" user="hasse_osm_korinthenkacker" changeset="2717407" lat="48.0619925" lon="11.5196778">
    <tag k="addr:housenumber" v="8"/>
    <tag k="addr:street" v="Mozartstraße"/>
  </node>
  <node id="448712800" version="2" timestamp="2009-10-02T20:47:50Z" uid="86259" user="hasse_osm_korinthenkacker" changeset="2717407" lat="48.0620197" lon="11.5194886">
    <tag k="addr:housenumber" v="10"/>
    <tag k="addr:street" v="Mozartstraße"/>
  </node>
  <node id="448712811" version="2" timestamp="2009-10-02T20:47:50Z" uid="86259" user="hasse_osm_korinthenkacker" changeset="2717407" lat="48.0620444" lon="11.5193166">
    <tag k="addr:housenumber" v="12"/>
    <tag k="addr:street" v="Mozartstraße"/>
  </node>
  <node id="448712818" version="2" timestamp="2009-10-02T20:47:53Z" uid="86259" user="hasse_osm_korinthenkacker" changeset="2717407" lat="48.0618471" lon="11.5187157">
    <tag k="addr:housenumber" v="15"/>
    <tag k="addr:street" v="Mozartstraße"/>
  </node>
  <node id="448712825" version="2" timestamp="2009-10-02T20:47:52Z" uid="86259" user="hasse_osm_korinthenkacker" changeset="2717407" lat="48.0618016" lon="11.5189865">
    <tag k="addr:housenumber" v="14"/>
    <tag k="addr:street" v="Mozartstraße"/>
  </node>
  <node id="448712831" version="2" timestamp="2009-10-02T20:47:50Z" uid="86259" user="hasse_osm_korinthenkacker" changeset="2717407" lat="48.0617694" lon="11.5191783">
    <tag k="addr:housenumber" v="11"/>
    <tag k="addr:street" v="Mozartstraße"/>
  </node>
  <node id="448712836" version="2" timestamp="2009-10-02T20:47:50Z" uid="86259" user="hasse_osm_korinthenkacker" changeset="2717407" lat="48.0617208" lon="11.5194677">
    <tag k="addr:housenumber" v="9"/>
    <tag k="addr:street" v="Mozartstraße"/>
  </node>
  <node id="448712842" version="2" timestamp="2009-10-02T20:47:51Z" uid="86259" user="hasse_osm_korinthenkacker" changeset="2717407" lat="48.061668" lon="11.5197818">
    <tag k="addr:housenumber" v="7b"/>
    <tag k="addr:street" v="Mozartstraße"/>
  </node>
  <node id="448712843" version="2" timestamp="2009-08-25T09:18:06Z" uid="18775" user="drlizau" changeset="2254105" lat="42.689167" lon="20.917778">
    <tag k="el" v=""/>
    <tag k="elevation" v=""/>
    <tag k="name" v="Gladno"/>
    <tag k="name:sr" v="Makreš"/>
    <tag k="name_full_nd" v="Gladno"/>
    <tag k="name_full_nd:sr" v="Makreš"/>
    <tag k="name_generic" v=""/>
    <tag k="name_generic:sr" v=""/>
    <tag k="name_short" v=""/>
    <tag k="name_short:sr" v=""/>
    <tag k="name_sort" v="GLADNO"/>
    <tag k="name_sort:sr" v="MAKRES"/>
    <tag k="place" v="hamlet"/>
  </node>
  <node id="448712843" version="3" timestamp="2009-08-25T09:36:06Z" uid="18775" user="drlizau" changeset="2254250" lat="42.689167" lon="20.917778">
    <tag k="el" v=""/>
    <tag k="name" v="Gladno"/>
    <tag k="name:sr" v="Makreš"/>
    <tag k="name_full_nd" v="Gladno"/>
    <tag k="name_full_nd:sr" v="Makreš"/>
    <tag k="name_generic" v=""/>
    <tag k="name_generic:sr" v=""/>
    <tag k="name_short" v=""/>
    <tag k="name_short:sr" v=""/>
    <tag k="name_sort" v="GLADNO"/>
    <tag k="name_sort:sr" v="MAKRES"/>
    <tag k="place" v="hamlet"/>
  </node>
  <node id="448712844" version="2" timestamp="2009-10-02T20:47:51Z" uid="86259" user="hasse_osm_korinthenkacker" changeset="2717407" lat="48.0616653" lon="11.5200939">
    <tag k="addr:housenumber" v="7a"/>
    <tag k="addr:street" v="Mozartstraße"/>
  </node>
  <node id="448712847" version="2" timestamp="2009-10-02T20:47:51Z" uid="86259" user="hasse_osm_korinthenkacker" changeset="2717407" lat="48.0616632" lon="11.5203393">
    <tag k="addr:housenumber" v="7"/>
    <tag k="addr:street" v="Mozartstraße"/>
  </node>
  <node id="448712851" version="2" timestamp="2009-10-02T20:47:50Z" uid="86259" user="hasse_osm_korinthenkacker" changeset="2717407" lat="48.0616604" lon="11.5206597">
    <tag k="addr:housenumber" v="5"/>
    <tag k="addr:street" v="Mozartstraße"/>
  </node>
  <node id="448712853" version="2" timestamp="2009-08-25T09:18:05Z" uid="18775" user="drlizau" changeset="2254105" lat="42.923611" lon="20.940278">
    <tag k="elevation" v=""/>
    <tag k="name" v="Rasa"/>
    <tag k="name:sr" v="Rasa"/>
    <tag k="name_full_nd" v="Rasa"/>
    <tag k="name_full_nd:sr" v="Rasa"/>
    <tag k="name_generic" v=""/>
    <tag k="name_short" v=""/>
    <tag k="name_sort" v="RASA"/>
    <tag k="name_sort:sr" v="RASA"/>
    <tag k="place" v="hamlet"/>
  </node>
  <node id="448712853" version="3" timestamp="2009-08-25T09:36:06Z" uid="18775" user="drlizau" changeset="2254250" lat="42.923611" lon="20.940278">
    <tag k="name" v="Rasa"/>
    <tag k="name:sr" v="Rasa"/>
    <tag k="name_full_nd" v="Rasa"/>
    <tag k="name_full_nd:sr" v="Rasa"/>
    <tag k="name_generic" v=""/>
    <tag k="name_short" v=""/>
    <tag k="name_sort" v="RASA"/>
    <tag k="name_sort:sr" v="RASA"/>
    <tag k="place" v="hamlet"/>
  </node>
  <node id="448712856" version="2" timestamp="2009-10-02T20:47:50Z" uid="86259" user="hasse_osm_korinthenkacker" changeset="2717407" lat="48.0615423" lon="11.5210303">
    <tag k="addr:housenumber" v="23"/>
    <tag k="addr:street" v="Münchner Straße"/>
  </node>
  <node id="448712863" version="2" timestamp="2009-10-02T20:47:50Z" uid="86259" user="hasse_osm_korinthenkacker" changeset="2717407" lat="48.0613175" lon="11.5212697">
    <tag k="addr:housenumber" v="19"/>
    <tag k="addr:street" v="Münchner Straße"/>
  </node>
  <node id="448712869" version="2" timestamp="2009-10-02T20:47:50Z" uid="86259" user="hasse_osm_korinthenkacker" changeset="2717407" lat="48.061438" lon="11.5211413">
    <tag k="addr:housenumber" v="21"/>
    <tag k="addr:street" v="Münchner Straße"/>
  </node>
  <node id="448712871" version="3" timestamp="2009-08-25T18:57:03Z" uid="36809" user="pfoten_weg_!_" changeset="2260316" lat="48.0616147" lon="11.5216345">
    <tag k="amenity" v="post_box"/>
    <tag k="collection_times" v="Mo-Fr 16:15;Sa 10:15"/>
    <tag k="operator" v="Deutsche Post"/>
  </node>
  <node id="448712881" version="2" timestamp="2009-10-02T20:47:50Z" uid="86259" user="hasse_osm_korinthenkacker" changeset="2717407" lat="48.0614013" lon="11.5218854">
    <tag k="addr:housenumber" v="26"/>
    <tag k="addr:street" v="Münchner Straße"/>
  </node>
  <node id="448712884" version="2" timestamp="2009-10-02T20:47:49Z" uid="86259" user="hasse_osm_korinthenkacker" changeset="2717407" lat="48.0613824" lon="11.5222421">
    <tag k="addr:housenumber" v="2"/>
    <tag k="addr:street" v="Wiesenweg"/>
  </node>
  <node id="448712890" version="2" timestamp="2009-10-02T20:47:49Z" uid="86259" user="hasse_osm_korinthenkacker" changeset="2717407" lat="48.061355" lon="11.5227599">
    <tag k="addr:housenumber" v="4"/>
    <tag k="addr:street" v="Wiesenweg"/>
  </node>
  <node id="448712895" version="2" timestamp="2009-10-02T20:47:49Z" uid="86259" user="hasse_osm_korinthenkacker" changeset="2717407" lat="48.0613472" lon="11.5229077">
    <tag k="addr:housenumber" v="6"/>
    <tag k="addr:street" v="Wiesenweg"/>
  </node>
  <node id="448712901" version="2" timestamp="2009-10-02T20:47:49Z" uid="86259" user="hasse_osm_korinthenkacker" changeset="2717407" lat="48.0613289" lon="11.5232536">
    <tag k="addr:housenumber" v="8"/>
    <tag k="addr:street" v="Wiesenweg"/>
  </node>
  <node id="448712906" version="2" timestamp="2009-10-02T20:47:45Z" uid="86259" user="hasse_osm_korinthenkacker" changeset="2717407" lat="48.0624948" lon="11.5231225">
    <tag k="addr:housenumber" v="39"/>
    <tag k="addr:street" v="Wiesenweg"/>
  </node>
  <node id="448712912" version="2" timestamp="2009-10-02T20:47:45Z" uid="86259" user="hasse_osm_korinthenkacker" changeset="2717407" lat="48.0626472" lon="11.5231567">
    <tag k="addr:housenumber" v="41"/>
    <tag k="addr:street" v="Wiesenweg"/>
  </node>
  <node id="448712926" version="2" timestamp="2009-10-02T20:47:49Z" uid="86259" user="hasse_osm_korinthenkacker" changeset="2717407" lat="48.0616794" lon="11.5223757">
    <tag k="addr:housenumber" v="5"/>
    <tag k="addr:street" v="Wiesenweg"/>
  </node>
  <node id="448712940" version="2" timestamp="2009-08-25T09:36:10Z" uid="18775" user="drlizau" changeset="2254250" lat="42.914722" lon="21.093611">
    <tag k="name" v="Kodra Golme"/>
    <tag k="name_full_nd" v="Kodra Golme"/>
    <tag k="name_generic" v=""/>
    <tag k="name_short" v=""/>
    <tag k="name_sort" v="KODRAGOLME"/>
    <tag k="place" v="hamlet"/>
  </node>
  <node id="448713093" version="2" timestamp="2009-08-25T09:36:02Z" uid="18775" user="drlizau" changeset="2254250" lat="42.698333" lon="20.85">
    <tag k="name" v="Shtutica"/>
    <tag k="name_full_nd" v="Shtutica"/>
    <tag k="name_generic" v=""/>
    <tag k="name_short" v=""/>
    <tag k="name_sort" v="SHTUTICA"/>
    <tag k="place" v="hamlet"/>
  </node>
  <node id="448713171" version="2" timestamp="2009-08-25T09:36:03Z" uid="18775" user="drlizau" changeset="2254250" lat="42.813333" lon="21.134722">
    <tag k="name" v="Majasi"/>
    <tag k="name_full_nd" v="Majasi"/>
    <tag k="name_generic" v=""/>
    <tag k="name_short" v=""/>
    <tag k="name_sort" v="MAJASI"/>
    <tag k="place" v="hamlet"/>
  </node>
  <node id="448713332" version="4" timestamp="2009-08-25T09:18:03Z" uid="18775" user="drlizau" changeset="2254105" lat="42.719444" lon="20.769444">
    <tag k="altname" v="Manastir Planina"/>
    <tag k="geonameid" v="832090"/>
    <tag k="gnadmin" v="00"/>
    <tag k="gnadmin2" v="Kosovo"/>
    <tag k="gnfeature" v="T"/>
    <tag k="gnfeaturec" v="MT"/>
    <tag k="name" v="Gradina"/>
    <tag k="name2" v="Gradina"/>
    <tag k="name:sr" v="Gradina"/>
    <tag k="name_full_nd" v="Gradina"/>
    <tag k="name_full_nd:sr" v="Gradina"/>
    <tag k="name_sort" v="GRADINA"/>
    <tag k="name_sort:sr" v="GRADINA"/>
    <tag k="natural" v="peak"/>
  </node>
  <node id="448713336" version="3" timestamp="2009-08-25T09:35:58Z" uid="18775" user="drlizau" changeset="2254250" lat="42.728611" lon="20.7825">
    <tag k="geonameid" v="832095"/>
    <tag k="gnadmin" v="00"/>
    <tag k="gnadmin2" v="Kosovo"/>
    <tag k="gnfeature" v="L"/>
    <tag k="gnfeaturec" v="LCTY"/>
    <tag k="name" v="Devicka Suma"/>
    <tag k="name2" v="Devička Šuma"/>
    <tag k="name:sr" v="Devička Šuma"/>
    <tag k="name_full_nd" v="Devička Šuma"/>
    <tag k="name_full_nd:sr" v="Devička Šuma"/>
    <tag k="name_generic" v=""/>
    <tag k="name_short" v=""/>
    <tag k="name_sort" v="DEVICKASUMA"/>
    <tag k="name_sort:sr" v="DEVICKASUMA"/>
    <tag k="place" v="hamlet"/>
    <tag k="pop" v="0"/>
  </node>
  <node id="448713497" version="2" timestamp="2009-08-25T09:35:54Z" uid="18775" user="drlizau" changeset="2254250" lat="42.8525" lon="21.190833">
    <tag k="name" v="Sibovci i Epërm"/>
    <tag k="name_full_nd" v="Sibovci i Epërm"/>
    <tag k="name_generic" v=""/>
    <tag k="name_short" v=""/>
    <tag k="name_sort" v="SIBOVCIIEPERM"/>
    <tag k="place" v="hamlet"/>
  </node>
  <node id="448713542" version="2" timestamp="2009-08-25T09:35:55Z" uid="18775" user="drlizau" changeset="2254250" lat="42.8525" lon="21.190833">
    <tag k="name" v="Sibolci i Epërm"/>
    <tag k="name_full_nd" v="Sibolci i Epërm"/>
    <tag k="name_generic" v=""/>
    <tag k="name_short" v=""/>
    <tag k="name_sort" v="SIBOLCIIEPERM"/>
    <tag k="place" v="hamlet"/>
  </node>
  <node id="448713546" version="2" timestamp="2009-08-25T09:35:55Z" uid="18775" user="drlizau" changeset="2254250" lat="42.8525" lon="21.190833">
    <tag k="name" v="Vindeni i Epërm"/>
    <tag k="name_full_nd" v="Vindeni i Epërm"/>
    <tag k="name_generic" v=""/>
    <tag k="name_short" v=""/>
    <tag k="name_sort" v="VINDENIIEPERM"/>
    <tag k="place" v="hamlet"/>
  </node>
  <node id="448713695" version="2" timestamp="2009-08-25T09:18:03Z" uid="18775" user="drlizau" changeset="2254105" lat="42.82" lon="21.074444">
    <tag k="elevation" v=""/>
    <tag k="name" v="Kodra Gumur"/>
    <tag k="name:sr" v="Kodra Gumur"/>
    <tag k="name_full_nd" v="Kodra Gumur"/>
    <tag k="name_full_nd:sr" v="Kodra Gumur"/>
    <tag k="name_generic" v="Kodra"/>
    <tag k="name_generic:sr" v="Kodra"/>
    <tag k="name_short" v=""/>
    <tag k="name_sort" v="KODRAGUMUR"/>
    <tag k="name_sort:sr" v="KODRAGUMUR"/>
    <tag k="place" v="hamlet"/>
  </node>
  <node id="448713695" version="3" timestamp="2009-08-25T09:35:57Z" uid="18775" user="drlizau" changeset="2254250" lat="42.82" lon="21.074444">
    <tag k="name" v="Kodra Gumur"/>
    <tag k="name:sr" v="Kodra Gumur"/>
    <tag k="name_full_nd" v="Kodra Gumur"/>
    <tag k="name_full_nd:sr" v="Kodra Gumur"/>
    <tag k="name_generic" v="Kodra"/>
    <tag k="name_generic:sr" v="Kodra"/>
    <tag k="name_short" v=""/>
    <tag k="name_sort" v="KODRAGUMUR"/>
    <tag k="name_sort:sr" v="KODRAGUMUR"/>
    <tag k="place" v="hamlet"/>
  </node>
  <node id="448713776" version="2" timestamp="2009-08-25T09:18:27Z" uid="18775" user="drlizau" changeset="2254105" lat="42.706944" lon="20.741667">
    <tag k="elevation" v=""/>
    <tag k="name" v="Buten"/>
    <tag k="name_full_nd" v="Buten"/>
    <tag k="name_generic" v=""/>
    <tag k="name_short" v=""/>
    <tag k="name_sort" v="BUTEN"/>
    <tag k="place" v="hamlet"/>
  </node>
  <node id="448713777" version="4" timestamp="2009-08-25T09:18:27Z" uid="18775" user="drlizau" changeset="2254105" lat="42.712778" lon="20.744722">
    <tag k="altname" v="Rakisnicki Potok,Rakišnički Potok"/>
    <tag k="geonameid" v="832082"/>
    <tag k="gnadmin" v="00"/>
    <tag k="gnadmin2" v="Kosovo"/>
    <tag k="gnfeature" v="H"/>
    <tag k="gnfeaturec" v="STM"/>
    <tag k="name" v="Rakitnicki Potok"/>
    <tag k="name2" v="Rakitnički Potok"/>
    <tag k="name_full_nd" v="Rakitnički Potok"/>
    <tag k="name_generic" v="Potok"/>
    <tag k="name_sort" v="RAKISNICKIPOTOK"/>
    <tag k="natural" v="spring"/>
  </node>
  <node id="448713928" version="2" timestamp="2009-08-25T09:18:08Z" uid="18775" user="drlizau" changeset="2254105" lat="42.695833" lon="20.950556">
    <tag k="elevation" v=""/>
    <tag k="name" v="Bardići"/>
    <tag k="name:sr" v="Bardići"/>
    <tag k="name_full_nd" v="Bardići"/>
    <tag k="name_full_nd:sr" v="Bardići"/>
    <tag k="name_generic" v=""/>
    <tag k="name_short" v=""/>
    <tag k="name_sort" v="BARDICI"/>
    <tag k="name_sort:sr" v="BARDICI"/>
    <tag k="place" v="hamlet"/>
  </node>
  <node id="448713928" version="3" timestamp="2009-08-25T09:36:26Z" uid="18775" user="drlizau" changeset="2254250" lat="42.695833" lon="20.950556">
    <tag k="name" v="Bardići"/>
    <tag k="name:sr" v="Bardići"/>
    <tag k="name_full_nd" v="Bardići"/>
    <tag k="name_full_nd:sr" v="Bardići"/>
    <tag k="name_generic" v=""/>
    <tag k="name_short" v=""/>
    <tag k="name_sort" v="BARDICI"/>
    <tag k="name_sort:sr" v="BARDICI"/>
    <tag k="place" v="hamlet"/>
  </node>
  <node id="448713934" version="2" timestamp="2009-08-25T09:36:26Z" uid="18775" user="drlizau" changeset="2254250" lat="42.705833" lon="20.938889">
    <tag k="name" v="Dodonë"/>
    <tag k="name_full_nd" v="Dodonë"/>
    <tag k="name_generic" v=""/>
    <tag k="name_short" v=""/>
    <tag k="name_sort" v="DODONE"/>
    <tag k="place" v="hamlet"/>
  </node>
  <node id="448714013" version="2" timestamp="2009-08-25T09:36:22Z" uid="18775" user="drlizau" changeset="2254250" lat="42.723333" lon="21.105556">
    <tag k="name" v="Bakšija"/>
    <tag k="name_full_nd" v="Bakšija"/>
    <tag k="name_generic" v=""/>
    <tag k="name_short" v=""/>
    <tag k="name_sort" v="BAKSIJA"/>
    <tag k="place" v="hamlet"/>
  </node>
  <node id="448714015" version="2" timestamp="2009-08-25T09:36:22Z" uid="18775" user="drlizau" changeset="2254250" lat="42.9166667" lon="20.8833333">
    <tag k="name" v="Opština Titova Mitrovica"/>
    <tag k="name_full_nd" v="Opština Titova Mitrovica"/>
    <tag k="name_generic" v=""/>
    <tag k="name_short" v=""/>
    <tag k="name_sort" v="OPSTINATITOVAMITROVICA"/>
    <tag k="place" v="hamlet"/>
  </node>
  <node id="448714018" version="2" timestamp="2009-08-25T09:36:23Z" uid="18775" user="drlizau" changeset="2254250" lat="42.9166667" lon="20.8833333">
    <tag k="name" v="Mitrovica"/>
    <tag k="name_full_nd" v="Mitrovica"/>
    <tag k="name_generic" v=""/>
    <tag k="name_short" v=""/>
    <tag k="name_sort" v="MITROVICA"/>
    <tag k="place" v="hamlet"/>
  </node>
  <node id="448714022" version="2" timestamp="2009-08-25T09:36:23Z" uid="18775" user="drlizau" changeset="2254250" lat="42.873611" lon="20.813056">
    <tag k="name" v="Donje Vinarce"/>
    <tag k="name_full_nd" v="Donje Vinarce"/>
    <tag k="name_generic" v=""/>
    <tag k="name_short" v=""/>
    <tag k="name_sort" v="DONJEVINARCE"/>
    <tag k="place" v="hamlet"/>
  </node>
  <node id="448714023" version="2" timestamp="2009-08-25T09:36:23Z" uid="18775" user="drlizau" changeset="2254250" lat="42.873611" lon="20.813056">
    <tag k="name" v="Доње Винарце"/>
    <tag k="name_full_nd" v="Доње Винарце"/>
    <tag k="name_generic" v=""/>
    <tag k="name_short" v=""/>
    <tag k="name_sort" v="ДОЊЕВИНАРЦЕ"/>
    <tag k="place" v="hamlet"/>
  </node>
  <node id="448714025" version="2" timestamp="2009-08-25T09:36:22Z" uid="18775" user="drlizau" changeset="2254250" lat="42.922222" lon="20.898333">
    <tag k="name" v="Prvi Tunel"/>
    <tag k="name_full_nd" v="Prvi Tunel"/>
    <tag k="name_generic" v=""/>
    <tag k="name_short" v=""/>
    <tag k="name_sort" v="PRVITUNEL"/>
    <tag k="place" v="hamlet"/>
  </node>
  <node id="448714030" version="2" timestamp="2009-08-25T09:36:22Z" uid="18775" user="drlizau" changeset="2254250" lat="42.913889" lon="20.9725">
    <tag k="name" v="Trstena"/>
    <tag k="name_full_nd" v="Trstena"/>
    <tag k="name_generic" v=""/>
    <tag k="name_short" v=""/>
    <tag k="name_sort" v="TRSTENA"/>
    <tag k="place" v="hamlet"/>
  </node>
  <node id="448714031" version="2" timestamp="2009-08-25T09:36:22Z" uid="18775" user="drlizau" changeset="2254250" lat="42.876667" lon="21.189722">
    <tag k="name" v="Sekiraç"/>
    <tag k="name_full_nd" v="Sekiraç"/>
    <tag k="name_generic" v=""/>
    <tag k="name_short" v=""/>
    <tag k="name_sort" v="SEKIRAC"/>
    <tag k="place" v="hamlet"/>
  </node>
  <node id="448714033" version="2" timestamp="2009-08-25T09:36:23Z" uid="18775" user="drlizau" changeset="2254250" lat="42.913889" lon="21.170556">
    <tag k="name" v="Abrangjë"/>
    <tag k="name_full_nd" v="Abrangjë"/>
    <tag k="name_generic" v=""/>
    <tag k="name_short" v=""/>
    <tag k="name_sort" v="ABRANGJE"/>
    <tag k="place" v="hamlet"/>
  </node>
  <node id="448714034" version="2" timestamp="2009-08-25T09:36:23Z" uid="18775" user="drlizau" changeset="2254250" lat="42.913889" lon="21.170556">
    <tag k="name" v="Kastrat"/>
    <tag k="name_full_nd" v="Kastrat"/>
    <tag k="name_generic" v=""/>
    <tag k="name_short" v=""/>
    <tag k="name_sort" v="KASTRAT"/>
    <tag k="place" v="hamlet"/>
  </node>
  <node id="448714132" version="2" timestamp="2009-08-25T09:36:24Z" uid="18775" user="drlizau" changeset="2254250" lat="42.9075" lon="20.883333">
    <tag k="name" v="Lisica"/>
    <tag k="name_full_nd" v="Lisica"/>
    <tag k="name_generic" v=""/>
    <tag k="name_short" v=""/>
    <tag k="name_sort" v="LISICA"/>
    <tag k="place" v="hamlet"/>
  </node>
  <node id="448714154" version="2" timestamp="2009-08-25T09:36:24Z" uid="18775" user="drlizau" changeset="2254250" lat="42.8525" lon="20.829167">
    <tag k="name" v="Lushtë"/>
    <tag k="name_full_nd" v="Lushtë"/>
    <tag k="name_generic" v=""/>
    <tag k="name_short" v=""/>
    <tag k="name_sort" v="LUSHTE"/>
    <tag k="place" v="hamlet"/>
  </node>
  <node id="448714167" version="2" timestamp="2009-08-25T09:36:24Z" uid="18775" user="drlizau" changeset="2254250" lat="42.7925" lon="21.114167">
    <tag k="name" v="Kozaricë"/>
    <tag k="name_full_nd" v="Kozaricë"/>
    <tag k="name_generic" v=""/>
    <tag k="name_short" v=""/>
    <tag k="name_sort" v="KOZARICE"/>
    <tag k="place" v="hamlet"/>
  </node>
  <node id="448714193" version="2" timestamp="2009-08-25T09:36:23Z" uid="18775" user="drlizau" changeset="2254250" lat="42.917778" lon="20.918611">
    <tag k="name" v="Kutlloc"/>
    <tag k="name_full_nd" v="Kutlloc"/>
    <tag k="name_generic" v=""/>
    <tag k="name_short" v=""/>
    <tag k="name_sort" v="KUTLLOC"/>
    <tag k="place" v="hamlet"/>
  </node>
  <node id="448714195" version="2" timestamp="2009-08-25T09:18:07Z" uid="18775" user="drlizau" changeset="2254105" lat="42.914444" lon="20.922222">
    <tag k="elevation" v=""/>
    <tag k="name" v="Strana"/>
    <tag k="name:sr" v="Strana"/>
    <tag k="name_full_nd" v="Strana"/>
    <tag k="name_full_nd:sr" v="Strana"/>
    <tag k="name_generic" v=""/>
    <tag k="name_short" v=""/>
    <tag k="name_sort" v="STRANA"/>
    <tag k="name_sort:sr" v="STRANA"/>
    <tag k="place" v="hamlet"/>
  </node>
  <node id="448714195" version="3" timestamp="2009-08-25T09:36:23Z" uid="18775" user="drlizau" changeset="2254250" lat="42.914444" lon="20.922222">
    <tag k="name" v="Strana"/>
    <tag k="name:sr" v="Strana"/>
    <tag k="name_full_nd" v="Strana"/>
    <tag k="name_full_nd:sr" v="Strana"/>
    <tag k="name_generic" v=""/>
    <tag k="name_short" v=""/>
    <tag k="name_sort" v="STRANA"/>
    <tag k="name_sort:sr" v="STRANA"/>
    <tag k="place" v="hamlet"/>
  </node>
  <node id="448714202" version="2" timestamp="2009-08-25T09:36:24Z" uid="18775" user="drlizau" changeset="2254250" lat="42.767222" lon="21.198333">
    <tag k="name" v="Риманиште"/>
    <tag k="name_full_nd" v="Риманиште"/>
    <tag k="name_generic" v=""/>
    <tag k="name_short" v=""/>
    <tag k="name_sort" v="РИМАНИШТЕ"/>
    <tag k="place" v="hamlet"/>
  </node>
  <node id="448714222" version="2" timestamp="2009-08-25T09:36:24Z" uid="18775" user="drlizau" changeset="2254250" lat="42.863889" lon="20.831667">
    <tag k="name" v="Zhabar i Epërm"/>
    <tag k="name_full_nd" v="Zhabar i Epërm"/>
    <tag k="name_generic" v=""/>
    <tag k="name_short" v=""/>
    <tag k="name_sort" v="ZHABARIEPERM"/>
    <tag k="place" v="hamlet"/>
  </node>
  <node id="448714229" version="2" timestamp="2009-08-25T09:18:07Z" uid="18775" user="drlizau" changeset="2254105" lat="42.8525" lon="21.132778">
    <tag k="elevation" v=""/>
    <tag k="name" v="Borica"/>
    <tag k="name:sr" v="Borica"/>
    <tag k="name_full_nd" v="Borica"/>
    <tag k="name_full_nd:sr" v="Borica"/>
    <tag k="name_generic" v=""/>
    <tag k="name_short" v=""/>
    <tag k="name_sort" v="BORICA"/>
    <tag k="name_sort:sr" v="BORICA"/>
    <tag k="place" v="hamlet"/>
  </node>
  <node id="448714229" version="3" timestamp="2009-08-25T09:36:24Z" uid="18775" user="drlizau" changeset="2254250" lat="42.8525" lon="21.132778">
    <tag k="name" v="Borica"/>
    <tag k="name:sr" v="Borica"/>
    <tag k="name_full_nd" v="Borica"/>
    <tag k="name_full_nd:sr" v="Borica"/>
    <tag k="name_generic" v=""/>
    <tag k="name_short" v=""/>
    <tag k="name_sort" v="BORICA"/>
    <tag k="name_sort:sr" v="BORICA"/>
    <tag k="place" v="hamlet"/>
  </node>
  <node id="448714259" version="2" timestamp="2009-08-25T09:36:16Z" uid="18775" user="drlizau" changeset="2254250" lat="42.827222" lon="20.814722">
    <tag k="name" v="Gradevtsi"/>
    <tag k="name_full_nd" v="Gradevtsi"/>
    <tag k="name_generic" v=""/>
    <tag k="name_short" v=""/>
    <tag k="name_sort" v="GRADEVTSI"/>
    <tag k="place" v="hamlet"/>
  </node>
  <node id="448714347" version="2" timestamp="2009-08-25T09:36:15Z" uid="18775" user="drlizau" changeset="2254250" lat="42.793889" lon="21.150833">
    <tag k="name" v="Donje Ljupče"/>
    <tag k="name_full_nd" v="Donje Ljupče"/>
    <tag k="name_generic" v=""/>
    <tag k="name_short" v=""/>
    <tag k="name_sort" v="DONJELJUPCE"/>
    <tag k="place" v="hamlet"/>
  </node>
  <node id="448714348" version="2" timestamp="2009-08-25T09:36:15Z" uid="18775" user="drlizau" changeset="2254250" lat="42.793889" lon="21.150833">
    <tag k="name" v="Lupçi i Poshtëm"/>
    <tag k="name_full_nd" v="Lupçi i Poshtëm"/>
    <tag k="name_generic" v=""/>
    <tag k="name_short" v=""/>
    <tag k="name_sort" v="LUPCIIPOSHTEM"/>
    <tag k="place" v="hamlet"/>
  </node>
  <node id="448714349" version="2" timestamp="2009-08-25T09:36:15Z" uid="18775" user="drlizau" changeset="2254250" lat="42.765556" lon="20.895">
    <tag k="name" v="Дубовац"/>
    <tag k="name_full_nd" v="Дубовац"/>
    <tag k="name_generic" v=""/>
    <tag k="name_short" v=""/>
    <tag k="name_sort" v="ДУБОВАЦ"/>
    <tag k="place" v="hamlet"/>
  </node>
  <node id="448714354" version="2" timestamp="2009-08-25T09:36:15Z" uid="18775" user="drlizau" changeset="2254250" lat="42.698056" lon="20.7425">
    <tag k="name" v="Tušilja"/>
    <tag k="name_full_nd" v="Tušilja"/>
    <tag k="name_generic" v=""/>
    <tag k="name_short" v=""/>
    <tag k="name_sort" v="TUSILJA"/>
    <tag k="place" v="hamlet"/>
  </node>
  <node id="448714409" version="2" timestamp="2009-08-25T09:36:21Z" uid="18775" user="drlizau" changeset="2254250" lat="42.813056" lon="21.17">
    <tag k="name" v="Shejkovicë"/>
    <tag k="name_full_nd" v="Shejkovicë"/>
    <tag k="name_generic" v=""/>
    <tag k="name_short" v=""/>
    <tag k="name_sort" v="SHEJKOVICE"/>
    <tag k="place" v="hamlet"/>
  </node>
  <node id="448714411" version="2" timestamp="2009-08-25T09:36:21Z" uid="18775" user="drlizau" changeset="2254250" lat="42.813056" lon="21.17">
    <tag k="name" v="Shakovicë"/>
    <tag k="name_full_nd" v="Shakovicë"/>
    <tag k="name_generic" v=""/>
    <tag k="name_short" v=""/>
    <tag k="name_sort" v="SHAKOVICE"/>
    <tag k="place" v="hamlet"/>
  </node>
  <node id="448714413" version="2" timestamp="2009-08-25T09:36:21Z" uid="18775" user="drlizau" changeset="2254250" lat="42.819444" lon="21.158056">
    <tag k="name" v="Bajëllap"/>
    <tag k="name_full_nd" v="Bajëllap"/>
    <tag k="name_generic" v=""/>
    <tag k="name_short" v=""/>
    <tag k="name_sort" v="BAJELLAP"/>
    <tag k="place" v="hamlet"/>
  </node>
  <node id="448714419" version="2" timestamp="2009-08-25T09:36:20Z" uid="18775" user="drlizau" changeset="2254250" lat="42.776667" lon="21.083333">
    <tag k="name" v="Breznicë"/>
    <tag k="name_full_nd" v="Breznicë"/>
    <tag k="name_generic" v=""/>
    <tag k="name_short" v=""/>
    <tag k="name_sort" v="BREZNICE"/>
    <tag k="place" v="hamlet"/>
  </node>
  <node id="448714422" version="2" timestamp="2009-08-25T09:36:21Z" uid="18775" user="drlizau" changeset="2254250" lat="42.688889" lon="21.010556">
    <tag k="name" v="Sibovc"/>
    <tag k="name_full_nd" v="Sibovc"/>
    <tag k="name_generic" v=""/>
    <tag k="name_short" v=""/>
    <tag k="name_sort" v="SIBOVC"/>
    <tag k="place" v="hamlet"/>
  </node>
  <node id="448714446" version="2" timestamp="2009-08-25T09:36:20Z" uid="18775" user="drlizau" changeset="2254250" lat="42.693889" lon="20.776944">
    <tag k="name" v="Rrezallë"/>
    <tag k="name_full_nd" v="Rrezallë"/>
    <tag k="name_generic" v=""/>
    <tag k="name_short" v=""/>
    <tag k="name_sort" v="RREZALLE"/>
    <tag k="place" v="hamlet"/>
  </node>
  <node id="448714450" version="2" timestamp="2009-08-25T09:36:19Z" uid="18775" user="drlizau" changeset="2254250" lat="42.854167" lon="20.791944">
    <tag k="name" v="Коприва"/>
    <tag k="name_full_nd" v="Коприва"/>
    <tag k="name_generic" v=""/>
    <tag k="name_short" v=""/>
    <tag k="name_sort" v="КОПРИВА"/>
    <tag k="place" v="hamlet"/>
  </node>
  <node id="448714451" version="2" timestamp="2009-08-25T09:36:19Z" uid="18775" user="drlizau" changeset="2254250" lat="42.810278" lon="21.096111">
    <tag k="name" v="Горња Дубница"/>
    <tag k="name_full_nd" v="Горња Дубница"/>
    <tag k="name_generic" v=""/>
    <tag k="name_short" v=""/>
    <tag k="name_sort" v="ГОРЊАДУБНИЦА"/>
    <tag k="place" v="hamlet"/>
  </node>
  <node id="448714452" version="2" timestamp="2009-08-25T09:36:18Z" uid="18775" user="drlizau" changeset="2254250" lat="42.833056" lon="20.986667">
    <tag k="name" v="Novo Selo Begovo"/>
    <tag k="name_full_nd" v="Novo Selo Begovo"/>
    <tag k="name_generic" v=""/>
    <tag k="name_short" v=""/>
    <tag k="name_sort" v="NOVOSELOBEGOVO"/>
    <tag k="place" v="hamlet"/>
  </node>
  <node id="448714453" version="2" timestamp="2009-08-25T09:36:19Z" uid="18775" user="drlizau" changeset="2254250" lat="42.833056" lon="20.986667">
    <tag k="name" v="Novo-Sello"/>
    <tag k="name_full_nd" v="Novo-Sello"/>
    <tag k="name_generic" v=""/>
    <tag k="name_short" v=""/>
    <tag k="name_sort" v="NOVOSELLO"/>
    <tag k="place" v="hamlet"/>
  </node>
  <node id="448714454" version="2" timestamp="2009-08-25T09:36:18Z" uid="18775" user="drlizau" changeset="2254250" lat="42.833056" lon="20.986667">
    <tag k="name" v="Begovo"/>
    <tag k="name_full_nd" v="Begovo"/>
    <tag k="name_generic" v=""/>
    <tag k="name_short" v=""/>
    <tag k="name_sort" v="BEGOVO"/>
    <tag k="place" v="hamlet"/>
  </node>
  <node id="448714477" version="2" timestamp="2009-08-25T09:36:18Z" uid="18775" user="drlizau" changeset="2254250" lat="42.715833" lon="20.893611">
    <tag k="name" v="Qirez"/>
    <tag k="name_full_nd" v="Qirez"/>
    <tag k="name_generic" v=""/>
    <tag k="name_short" v=""/>
    <tag k="name_sort" v="QIREZ"/>
    <tag k="place" v="hamlet"/>
  </node>
  <node id="448714484" version="2" timestamp="2009-08-25T09:36:17Z" uid="18775" user="drlizau" changeset="2254250" lat="42.801111" lon="20.743056">
    <tag k="name" v="Kotor"/>
    <tag k="name_full_nd" v="Kotor"/>
    <tag k="name_generic" v=""/>
    <tag k="name_short" v=""/>
    <tag k="name_sort" v="KOTOR"/>
    <tag k="place" v="hamlet"/>
  </node>
  <node id="448714485" version="2" timestamp="2009-08-25T09:36:17Z" uid="18775" user="drlizau" changeset="2254250" lat="42.915278" lon="21.036111">
    <tag k="name" v="Курилово"/>
    <tag k="name_full_nd" v="Курилово"/>
    <tag k="name_generic" v=""/>
    <tag k="name_short" v=""/>
    <tag k="name_sort" v="КУРИЛОВО"/>
    <tag k="place" v="hamlet"/>
  </node>
  <node id="448714486" version="2" timestamp="2009-08-25T09:36:17Z" uid="18775" user="drlizau" changeset="2254250" lat="42.801111" lon="20.743056">
    <tag k="name" v="Kotorr"/>
    <tag k="name_full_nd" v="Kotorr"/>
    <tag k="name_generic" v=""/>
    <tag k="name_short" v=""/>
    <tag k="name_sort" v="KOTORR"/>
    <tag k="place" v="hamlet"/>
  </node>
  <node id="448714487" version="2" timestamp="2009-08-25T09:36:17Z" uid="18775" user="drlizau" changeset="2254250" lat="42.801111" lon="20.743056">
    <tag k="name" v="Которе"/>
    <tag k="name_full_nd" v="Которе"/>
    <tag k="name_generic" v=""/>
    <tag k="name_short" v=""/>
    <tag k="name_sort" v="КОТОРЕ"/>
    <tag k="place" v="hamlet"/>
  </node>
  <node id="448714488" version="2" timestamp="2009-08-25T09:36:18Z" uid="18775" user="drlizau" changeset="2254250" lat="42.760833" lon="20.790278">
    <tag k="name" v="Donja Klina"/>
    <tag k="name_full_nd" v="Donja Klina"/>
    <tag k="name_generic" v=""/>
    <tag k="name_short" v=""/>
    <tag k="name_sort" v="DONJAKLINA"/>
    <tag k="place" v="hamlet"/>
  </node>
  <node id="448714491" version="2" timestamp="2009-08-25T09:36:18Z" uid="18775" user="drlizau" changeset="2254250" lat="42.817222" lon="20.866667">
    <tag k="name" v="Hercegovë"/>
    <tag k="name_full_nd" v="Hercegovë"/>
    <tag k="name_generic" v=""/>
    <tag k="name_short" v=""/>
    <tag k="name_sort" v="HERCEGOVE"/>
    <tag k="place" v="hamlet"/>
  </node>
  <node id="448714501" version="2" timestamp="2009-08-25T09:36:13Z" uid="18775" user="drlizau" changeset="2254250" lat="42.702778" lon="20.803611">
    <tag k="name" v="Marina"/>
    <tag k="name_full_nd" v="Marina"/>
    <tag k="name_generic" v=""/>
    <tag k="name_short" v=""/>
    <tag k="name_sort" v="MARINA"/>
    <tag k="place" v="hamlet"/>
  </node>
  <node id="448714503" version="2" timestamp="2009-08-25T09:36:13Z" uid="18775" user="drlizau" changeset="2254250" lat="42.807778" lon="20.773056">
    <tag k="name" v="Kuçicë"/>
    <tag k="name_full_nd" v="Kuçicë"/>
    <tag k="name_generic" v=""/>
    <tag k="name_short" v=""/>
    <tag k="name_sort" v="KUCICE"/>
    <tag k="place" v="hamlet"/>
  </node>
  <node id="448714505" version="2" timestamp="2009-08-25T09:36:12Z" uid="18775" user="drlizau" changeset="2254250" lat="42.721389" lon="20.808889">
    <tag k="name" v="Kruševci"/>
    <tag k="name_full_nd" v="Kruševci"/>
    <tag k="name_generic" v=""/>
    <tag k="name_short" v=""/>
    <tag k="name_sort" v="KRUSEVCI"/>
    <tag k="place" v="hamlet"/>
  </node>
  <node id="448714520" version="2" timestamp="2009-08-25T09:36:13Z" uid="18775" user="drlizau" changeset="2254250" lat="42.807778" lon="20.773056">
    <tag k="name" v="Kućica"/>
    <tag k="name_full_nd" v="Kućica"/>
    <tag k="name_generic" v=""/>
    <tag k="name_short" v=""/>
    <tag k="name_sort" v="KUCICA"/>
    <tag k="place" v="hamlet"/>
  </node>
  <node id="448714527" version="2" timestamp="2009-08-25T09:36:13Z" uid="18775" user="drlizau" changeset="2254250" lat="42.758333" lon="21">
    <tag k="name" v="Čifči Mijalić"/>
    <tag k="name_full_nd" v="Čifči Mijalić"/>
    <tag k="name_generic" v=""/>
    <tag k="name_short" v=""/>
    <tag k="name_sort" v="CIFCIMIJALIC"/>
    <tag k="place" v="hamlet"/>
  </node>
  <node id="448714529" version="2" timestamp="2009-08-25T09:36:12Z" uid="18775" user="drlizau" changeset="2254250" lat="42.799167" lon="20.991667">
    <tag k="name" v="Nerakovce"/>
    <tag k="name_full_nd" v="Nerakovce"/>
    <tag k="name_generic" v=""/>
    <tag k="name_short" v=""/>
    <tag k="name_sort" v="NERAKOVCE"/>
    <tag k="place" v="hamlet"/>
  </node>
  <node id="448714531" version="2" timestamp="2009-08-25T09:36:12Z" uid="18775" user="drlizau" changeset="2254250" lat="42.729444" lon="20.832778">
    <tag k="name" v="Staro Poljance"/>
    <tag k="name_full_nd" v="Staro Poljance"/>
    <tag k="name_generic" v=""/>
    <tag k="name_short" v=""/>
    <tag k="name_sort" v="STAROPOLJANCE"/>
    <tag k="place" v="hamlet"/>
  </node>
  <node id="448714535" version="2" timestamp="2009-08-25T09:36:12Z" uid="18775" user="drlizau" changeset="2254250" lat="42.789167" lon="20.953889">
    <tag k="name" v="Novolan"/>
    <tag k="name_full_nd" v="Novolan"/>
    <tag k="name_generic" v=""/>
    <tag k="name_short" v=""/>
    <tag k="name_sort" v="NOVOLAN"/>
    <tag k="place" v="hamlet"/>
  </node>
  <node id="448714536" version="2" timestamp="2009-08-25T09:36:12Z" uid="18775" user="drlizau" changeset="2254250" lat="42.775278" lon="20.968889">
    <tag k="name" v="Resnik"/>
    <tag k="name_full_nd" v="Resnik"/>
    <tag k="name_generic" v=""/>
    <tag k="name_short" v=""/>
    <tag k="name_sort" v="RESNIK"/>
    <tag k="place" v="hamlet"/>
  </node>
  <node id="448714537" version="2" timestamp="2009-08-25T09:36:12Z" uid="18775" user="drlizau" changeset="2254250" lat="42.775278" lon="20.968889">
    <tag k="name" v="Resnik"/>
    <tag k="name_full_nd" v="Resnik"/>
    <tag k="name_generic" v=""/>
    <tag k="name_short" v=""/>
    <tag k="name_sort" v="RESNIK"/>
    <tag k="place" v="hamlet"/>
  </node>
  <node id="448714538" version="2" timestamp="2009-08-25T09:36:11Z" uid="18775" user="drlizau" changeset="2254250" lat="42.826111" lon="20.931944">
    <tag k="name" v="Штитарица"/>
    <tag k="name_full_nd" v="Штитарица"/>
    <tag k="name_generic" v=""/>
    <tag k="name_short" v=""/>
    <tag k="name_sort" v="ШТИТАРИЦА"/>
    <tag k="place" v="hamlet"/>
  </node>
  <node id="448714539" version="2" timestamp="2009-08-25T09:36:11Z" uid="18775" user="drlizau" changeset="2254250" lat="42.799167" lon="20.991667">
    <tag k="name" v="Nedakovac"/>
    <tag k="name_full_nd" v="Nedakovac"/>
    <tag k="name_generic" v=""/>
    <tag k="name_short" v=""/>
    <tag k="name_sort" v="NEDAKOVAC"/>
    <tag k="place" v="hamlet"/>
  </node>
  <node id="448714579" version="2" timestamp="2009-08-25T09:36:11Z" uid="18775" user="drlizau" changeset="2254250" lat="42.737778" lon="20.823333">
    <tag k="name" v="Poljance"/>
    <tag k="name_full_nd" v="Poljance"/>
    <tag k="name_generic" v=""/>
    <tag k="name_short" v=""/>
    <tag k="name_sort" v="POLJANCE"/>
    <tag k="place" v="hamlet"/>
  </node>
  <node id="448714588" version="2" timestamp="2009-08-25T09:37:06Z" uid="18775" user="drlizau" changeset="2254250" lat="42.668889" lon="21.0825">
    <tag k="name" v="Krushevcë"/>
    <tag k="name_full_nd" v="Krushevcë"/>
    <tag k="name_generic" v=""/>
    <tag k="name_short" v=""/>
    <tag k="name_sort" v="KRUSHEVCE"/>
    <tag k="place" v="hamlet"/>
  </node>
  <node id="448714591" version="2" timestamp="2009-08-25T09:37:06Z" uid="18775" user="drlizau" changeset="2254250" lat="42.668889" lon="21.0825">
    <tag k="name" v="Крушевац"/>
    <tag k="name_full_nd" v="Крушевац"/>
    <tag k="name_generic" v=""/>
    <tag k="name_short" v=""/>
    <tag k="name_sort" v="КРУШЕВАЦ"/>
    <tag k="place" v="hamlet"/>
  </node>
  <node id="448714592" version="2" timestamp="2009-08-25T09:36:11Z" uid="18775" user="drlizau" changeset="2254250" lat="42.745556" lon="21.058333">
    <tag k="name" v="Grecë"/>
    <tag k="name_full_nd" v="Grecë"/>
    <tag k="name_generic" v=""/>
    <tag k="name_short" v=""/>
    <tag k="name_sort" v="GRECE"/>
    <tag k="place" v="hamlet"/>
  </node>
  <node id="448714602" version="2" timestamp="2009-08-25T09:36:11Z" uid="18775" user="drlizau" changeset="2254250" lat="42.823333" lon="21.0475">
    <tag k="name" v="Samodraža"/>
    <tag k="name_full_nd" v="Samodraža"/>
    <tag k="name_generic" v=""/>
    <tag k="name_short" v=""/>
    <tag k="name_sort" v="SAMODRAZA"/>
    <tag k="place" v="hamlet"/>
  </node>
  <node id="448714607" version="2" timestamp="2009-08-25T09:36:10Z" uid="18775" user="drlizau" changeset="2254250" lat="42.854167" lon="21.169444">
    <tag k="name" v="Urëza"/>
    <tag k="name_full_nd" v="Urëza"/>
    <tag k="name_generic" v=""/>
    <tag k="name_short" v=""/>
    <tag k="name_sort" v="UREZA"/>
    <tag k="place" v="hamlet"/>
  </node>
  <node id="448714637" version="2" timestamp="2009-08-25T09:36:14Z" uid="18775" user="drlizau" changeset="2254250" lat="42.858611" lon="20.953889">
    <tag k="name" v="Banjska"/>
    <tag k="name_full_nd" v="Banjska"/>
    <tag k="name_generic" v=""/>
    <tag k="name_short" v=""/>
    <tag k="name_sort" v="BANJSKA"/>
    <tag k="place" v="hamlet"/>
  </node>
  <node id="448714953" version="2" timestamp="2009-08-25T09:36:47Z" uid="18775" user="drlizau" changeset="2254250" lat="42.874167" lon="20.723611">
    <tag k="name" v="Stërnac i Epërm"/>
    <tag k="name_full_nd" v="Stërnac i Epërm"/>
    <tag k="name_generic" v=""/>
    <tag k="name_short" v=""/>
    <tag k="name_sort" v="STERNACIEPERM"/>
    <tag k="place" v="hamlet"/>
  </node>
  <node id="448714954" version="2" timestamp="2009-08-25T09:36:47Z" uid="18775" user="drlizau" changeset="2254250" lat="42.874167" lon="20.723611">
    <tag k="name" v="Горњи Стрмац"/>
    <tag k="name_full_nd" v="Горњи Стрмац"/>
    <tag k="name_generic" v=""/>
    <tag k="name_short" v=""/>
    <tag k="name_sort" v="ГОРЊИСТРМАЦ"/>
    <tag k="place" v="hamlet"/>
  </node>
  <node id="448715046" version="3" timestamp="2009-08-25T09:36:41Z" uid="18775" user="drlizau" changeset="2254250" lat="42.883889" lon="20.824444">
    <tag k="altname" v="Gusavci,Gusevac,Gutavci,Gušavci,Guševac"/>
    <tag k="el" v=""/>
    <tag k="geonameid" v="830322"/>
    <tag k="gnadmin" v="00"/>
    <tag k="gnadmin2" v="Kosovo"/>
    <tag k="gnadmin3" v=""/>
    <tag k="gnadmin4" v=""/>
    <tag k="gnfeature" v="P"/>
    <tag k="gnfeaturec" v="PPL"/>
    <tag k="name" v="Gusavac"/>
    <tag k="name2" v="Gušavac"/>
    <tag k="name:sr" v="Gušavac"/>
    <tag k="name_full_nd" v="Gushac"/>
    <tag k="name_full_nd:sr" v="Gušavac"/>
    <tag k="name_generic" v=""/>
    <tag k="name_generic:sr" v=""/>
    <tag k="name_short" v=""/>
    <tag k="name_short:sr" v=""/>
    <tag k="name_sort" v="GUSAVAC"/>
    <tag k="name_sort:sr" v="GUSAVAC"/>
    <tag k="place" v="village"/>
    <tag k="pop" v="0"/>
  </node>
  <node id="448715067" version="2" timestamp="2009-08-25T09:36:41Z" uid="18775" user="drlizau" changeset="2254250" lat="42.831944" lon="20.732778">
    <tag k="name" v="Krligati"/>
    <tag k="name_full_nd" v="Krligati"/>
    <tag k="name_generic" v=""/>
    <tag k="name_short" v=""/>
    <tag k="name_sort" v="KRLIGATI"/>
    <tag k="place" v="hamlet"/>
  </node>
  <node id="448715072" version="2" timestamp="2009-08-25T09:36:43Z" uid="18775" user="drlizau" changeset="2254250" lat="42.842778" lon="21.2">
    <tag k="name" v="Sibolci i Poshtëm"/>
    <tag k="name_full_nd" v="Sibolci i Poshtëm"/>
    <tag k="name_generic" v=""/>
    <tag k="name_short" v=""/>
    <tag k="name_sort" v="SIBOLCIIPOSHTEM"/>
    <tag k="place" v="hamlet"/>
  </node>
  <node id="448715073" version="2" timestamp="2009-08-25T09:36:43Z" uid="18775" user="drlizau" changeset="2254250" lat="42.928611" lon="21.029167">
    <tag k="name" v="Весековце"/>
    <tag k="name_full_nd" v="Весековце"/>
    <tag k="name_generic" v=""/>
    <tag k="name_short" v=""/>
    <tag k="name_sort" v="ВЕСЕКОВЦЕ"/>
    <tag k="place" v="hamlet"/>
  </node>
  <node id="448715075" version="2" timestamp="2009-08-25T09:36:43Z" uid="18775" user="drlizau" changeset="2254250" lat="42.928611" lon="21.029167">
    <tag k="name" v="Vesekovc"/>
    <tag k="name_full_nd" v="Vesekovc"/>
    <tag k="name_generic" v=""/>
    <tag k="name_short" v=""/>
    <tag k="name_sort" v="VESEKOVC"/>
    <tag k="place" v="hamlet"/>
  </node>
  <node id="448715093" version="2" timestamp="2009-08-25T09:36:42Z" uid="18775" user="drlizau" changeset="2254250" lat="42.842778" lon="21.2">
    <tag k="name" v="Siboc i Poshtëm"/>
    <tag k="name_full_nd" v="Siboc i Poshtëm"/>
    <tag k="name_generic" v=""/>
    <tag k="name_short" v=""/>
    <tag k="name_sort" v="SIBOCIPOSHTEM"/>
    <tag k="place" v="hamlet"/>
  </node>
  <node id="448715097" version="2" timestamp="2009-08-25T09:36:42Z" uid="18775" user="drlizau" changeset="2254250" lat="42.785" lon="21.020278">
    <tag k="name" v="Ново Село Мађунско"/>
    <tag k="name_full_nd" v="Ново Село Мађунско"/>
    <tag k="name_generic" v=""/>
    <tag k="name_short" v=""/>
    <tag k="name_sort" v="НОВОСЕЛОМАЂУНСКО"/>
    <tag k="place" v="hamlet"/>
  </node>
  <node id="448715125" version="2" timestamp="2009-08-25T09:36:44Z" uid="18775" user="drlizau" changeset="2254250" lat="42.821944" lon="21.168611">
    <tag k="name" v="Llabucë"/>
    <tag k="name_full_nd" v="Llabucë"/>
    <tag k="name_generic" v=""/>
    <tag k="name_short" v=""/>
    <tag k="name_sort" v="LLABUCE"/>
    <tag k="place" v="hamlet"/>
  </node>
  <node id="448715131" version="2" timestamp="2009-08-25T09:36:44Z" uid="18775" user="drlizau" changeset="2254250" lat="42.823611" lon="21.1875">
    <tag k="name" v="Llugë"/>
    <tag k="name_full_nd" v="Llugë"/>
    <tag k="name_generic" v=""/>
    <tag k="name_short" v=""/>
    <tag k="name_sort" v="LLUGE"/>
    <tag k="place" v="hamlet"/>
  </node>
  <node id="448715144" version="2" timestamp="2009-08-25T09:36:38Z" uid="18775" user="drlizau" changeset="2254250" lat="42.823611" lon="21.1875">
    <tag k="name" v="Lug"/>
    <tag k="name_full_nd" v="Lug"/>
    <tag k="name_generic" v=""/>
    <tag k="name_short" v=""/>
    <tag k="name_sort" v="LUG"/>
    <tag k="place" v="hamlet"/>
  </node>
  <node id="448715151" version="2" timestamp="2009-08-25T09:36:38Z" uid="18775" user="drlizau" changeset="2254250" lat="42.878056" lon="21.086667">
    <tag k="name" v="Popovë"/>
    <tag k="name_full_nd" v="Popovë"/>
    <tag k="name_generic" v=""/>
    <tag k="name_short" v=""/>
    <tag k="name_sort" v="POPOVE"/>
    <tag k="place" v="hamlet"/>
  </node>
  <node id="448715172" version="2" timestamp="2009-08-25T09:36:38Z" uid="18775" user="drlizau" changeset="2254250" lat="42.854167" lon="21.094444">
    <tag k="name" v="Gurishtë"/>
    <tag k="name_full_nd" v="Gurishtë"/>
    <tag k="name_generic" v=""/>
    <tag k="name_short" v=""/>
    <tag k="name_sort" v="GURISHTE"/>
    <tag k="place" v="hamlet"/>
  </node>
  <node id="448715230" version="2" timestamp="2009-08-25T09:36:38Z" uid="18775" user="drlizau" changeset="2254250" lat="42.811667" lon="21.200278">
    <tag k="name" v="Dardhishta"/>
    <tag k="name_full_nd" v="Dardhishta"/>
    <tag k="name_generic" v=""/>
    <tag k="name_short" v=""/>
    <tag k="name_sort" v="DARDHISHTA"/>
    <tag k="place" v="hamlet"/>
  </node>
  <node id="448715338" version="2" timestamp="2009-08-25T09:36:37Z" uid="18775" user="drlizau" changeset="2254250" lat="42.903889" lon="20.900833">
    <tag k="name" v="Река"/>
    <tag k="name_full_nd" v="Река"/>
    <tag k="name_generic" v=""/>
    <tag k="name_short" v=""/>
    <tag k="name_sort" v="РЕКА"/>
    <tag k="place" v="hamlet"/>
  </node>
  <node id="448715381" version="2" timestamp="2009-08-25T09:36:37Z" uid="18775" user="drlizau" changeset="2254250" lat="42.796111" lon="21.029722">
    <tag k="name" v="Вићанце"/>
    <tag k="name_full_nd" v="Вићанце"/>
    <tag k="name_generic" v=""/>
    <tag k="name_short" v=""/>
    <tag k="name_sort" v="ВИЋАНЦЕ"/>
    <tag k="place" v="hamlet"/>
  </node>
  <node id="448715391" version="2" timestamp="2009-08-25T09:36:37Z" uid="18775" user="drlizau" changeset="2254250" lat="42.831667" lon="21.081389">
    <tag k="name" v="Zagorje"/>
    <tag k="name_full_nd" v="Zagorje"/>
    <tag k="name_generic" v=""/>
    <tag k="name_short" v=""/>
    <tag k="name_sort" v="ZAGORJE"/>
    <tag k="place" v="hamlet"/>
  </node>
  <node id="448715425" version="2" timestamp="2009-08-25T09:36:33Z" uid="18775" user="drlizau" changeset="2254250" lat="42.713611" lon="20.980278">
    <tag k="name" v="Streoce"/>
    <tag k="name_full_nd" v="Streoce"/>
    <tag k="name_generic" v=""/>
    <tag k="name_short" v=""/>
    <tag k="name_sort" v="STREOCE"/>
    <tag k="place" v="hamlet"/>
  </node>
  <node id="448715429" version="2" timestamp="2009-08-25T09:36:33Z" uid="18775" user="drlizau" changeset="2254250" lat="42.847778" lon="21.031667">
    <tag k="name" v="Горња Судимља"/>
    <tag k="name_full_nd" v="Горња Судимља"/>
    <tag k="name_generic" v=""/>
    <tag k="name_short" v=""/>
    <tag k="name_sort" v="ГОРЊАСУДИМЉА"/>
    <tag k="place" v="hamlet"/>
  </node>
  <node id="448715435" version="2" timestamp="2009-08-25T09:36:33Z" uid="18775" user="drlizau" changeset="2254250" lat="42.823611" lon="21.003611">
    <tag k="name" v="Доња Судимља"/>
    <tag k="name_full_nd" v="Доња Судимља"/>
    <tag k="name_generic" v=""/>
    <tag k="name_short" v=""/>
    <tag k="name_sort" v="ДОЊАСУДИМЉА"/>
    <tag k="place" v="hamlet"/>
  </node>
  <node id="448715444" version="2" timestamp="2009-08-25T09:36:33Z" uid="18775" user="drlizau" changeset="2254250" lat="42.758611" lon="21.042778">
    <tag k="name" v="Stanovc i Epërm"/>
    <tag k="name_full_nd" v="Stanovc i Epërm"/>
    <tag k="name_generic" v=""/>
    <tag k="name_short" v=""/>
    <tag k="name_sort" v="STANOVCIEPERM"/>
    <tag k="place" v="hamlet"/>
  </node>
  <node id="448715449" version="2" timestamp="2009-08-25T09:36:33Z" uid="18775" user="drlizau" changeset="2254250" lat="42.713611" lon="20.980278">
    <tag k="name" v="Stronce"/>
    <tag k="name_full_nd" v="Stronce"/>
    <tag k="name_generic" v=""/>
    <tag k="name_short" v=""/>
    <tag k="name_sort" v="STRONCE"/>
    <tag k="place" v="hamlet"/>
  </node>
  <node id="448715454" version="2" timestamp="2009-08-25T09:18:09Z" uid="18775" user="drlizau" changeset="2254105" lat="42.687778" lon="20.771944">
    <tag k="elevation" v=""/>
    <tag k="name" v="Varga Mahala"/>
    <tag k="name:sr" v="Varga Mahala"/>
    <tag k="name_full_nd" v="Varga Mahala"/>
    <tag k="name_full_nd:sr" v="Varga Mahala"/>
    <tag k="name_generic" v=""/>
    <tag k="name_short" v=""/>
    <tag k="name_sort" v="VARGAMAHALA"/>
    <tag k="name_sort:sr" v="VARGAMAHALA"/>
    <tag k="place" v="hamlet"/>
  </node>
  <node id="448715454" version="3" timestamp="2009-08-25T09:36:33Z" uid="18775" user="drlizau" changeset="2254250" lat="42.687778" lon="20.771944">
    <tag k="name" v="Varga Mahala"/>
    <tag k="name:sr" v="Varga Mahala"/>
    <tag k="name_full_nd" v="Varga Mahala"/>
    <tag k="name_full_nd:sr" v="Varga Mahala"/>
    <tag k="name_generic" v=""/>
    <tag k="name_short" v=""/>
    <tag k="name_sort" v="VARGAMAHALA"/>
    <tag k="name_sort:sr" v="VARGAMAHALA"/>
    <tag k="place" v="hamlet"/>
  </node>
  <node id="448715469" version="2" timestamp="2009-08-25T09:36:34Z" uid="18775" user="drlizau" changeset="2254250" lat="42.867222" lon="21.068333">
    <tag k="name" v="Куновик"/>
    <tag k="name_full_nd" v="Куновик"/>
    <tag k="name_generic" v=""/>
    <tag k="name_short" v=""/>
    <tag k="name_sort" v="КУНОВИК"/>
    <tag k="place" v="hamlet"/>
  </node>
  <node id="448715483" version="2" timestamp="2009-08-25T09:18:10Z" uid="18775" user="drlizau" changeset="2254105" lat="42.897222" lon="21.043611">
    <tag k="elevation" v=""/>
    <tag k="name" v="Bačka"/>
    <tag k="name:sr" v="Bačka"/>
    <tag k="name_full_nd" v="Bačka"/>
    <tag k="name_full_nd:sr" v="Bačka"/>
    <tag k="name_generic" v=""/>
    <tag k="name_short" v=""/>
    <tag k="name_sort" v="BACKA"/>
    <tag k="name_sort:sr" v="BACKA"/>
    <tag k="place" v="hamlet"/>
  </node>
  <node id="448715483" version="3" timestamp="2009-08-25T09:36:35Z" uid="18775" user="drlizau" changeset="2254250" lat="42.897222" lon="21.043611">
    <tag k="name" v="Bačka"/>
    <tag k="name:sr" v="Bačka"/>
    <tag k="name_full_nd" v="Bačka"/>
    <tag k="name_full_nd:sr" v="Bačka"/>
    <tag k="name_generic" v=""/>
    <tag k="name_short" v=""/>
    <tag k="name_sort" v="BACKA"/>
    <tag k="name_sort:sr" v="BACKA"/>
    <tag k="place" v="hamlet"/>
  </node>
  <node id="448715601" version="2" timestamp="2009-08-25T09:36:32Z" uid="18775" user="drlizau" changeset="2254250" lat="42.783333" lon="20.920278">
    <tag k="name" v="Brusnik"/>
    <tag k="name_full_nd" v="Brusnik"/>
    <tag k="name_generic" v=""/>
    <tag k="name_short" v=""/>
    <tag k="name_sort" v="BRUSNIK"/>
    <tag k="place" v="hamlet"/>
  </node>
  <node id="448715606" version="2" timestamp="2009-08-25T09:18:09Z" uid="18775" user="drlizau" changeset="2254105" lat="42.739167" lon="20.777778">
    <tag k="elevation" v=""/>
    <tag k="name" v="Recaj Mahala"/>
    <tag k="name:sr" v="Recaj Mahala"/>
    <tag k="name_full_nd" v="Recaj Mahala"/>
    <tag k="name_full_nd:sr" v="Recaj Mahala"/>
    <tag k="name_generic" v=""/>
    <tag k="name_short" v=""/>
    <tag k="name_sort" v="RECAJMAHALA"/>
    <tag k="name_sort:sr" v="RECAJMAHALA"/>
    <tag k="place" v="hamlet"/>
  </node>
  <node id="448715606" version="3" timestamp="2009-08-25T09:36:32Z" uid="18775" user="drlizau" changeset="2254250" lat="42.739167" lon="20.777778">
    <tag k="name" v="Recaj Mahala"/>
    <tag k="name:sr" v="Recaj Mahala"/>
    <tag k="name_full_nd" v="Recaj Mahala"/>
    <tag k="name_full_nd:sr" v="Recaj Mahala"/>
    <tag k="name_generic" v=""/>
    <tag k="name_short" v=""/>
    <tag k="name_sort" v="RECAJMAHALA"/>
    <tag k="name_sort:sr" v="RECAJMAHALA"/>
    <tag k="place" v="hamlet"/>
  </node>
  <node id="448715630" version="2" timestamp="2009-08-25T09:36:32Z" uid="18775" user="drlizau" changeset="2254250" lat="42.866111" lon="21.030556">
    <tag k="name" v="Скочна"/>
    <tag k="name_full_nd" v="Скочна"/>
    <tag k="name_generic" v=""/>
    <tag k="name_short" v=""/>
    <tag k="name_sort" v="СКОЧНА"/>
    <tag k="place" v="hamlet"/>
  </node>
  <node id="448715636" version="2" timestamp="2009-08-25T09:36:31Z" uid="18775" user="drlizau" changeset="2254250" lat="42.866111" lon="21.030556">
    <tag k="name" v="Skoçnë"/>
    <tag k="name_full_nd" v="Skoçnë"/>
    <tag k="name_generic" v=""/>
    <tag k="name_short" v=""/>
    <tag k="name_sort" v="SKOCNE"/>
    <tag k="place" v="hamlet"/>
  </node>
  <node id="448715640" version="2" timestamp="2009-08-25T09:36:32Z" uid="18775" user="drlizau" changeset="2254250" lat="42.756111" lon="21.025">
    <tag k="name" v="Lumadh"/>
    <tag k="name_full_nd" v="Lumadh"/>
    <tag k="name_generic" v=""/>
    <tag k="name_short" v=""/>
    <tag k="name_sort" v="LUMADH"/>
    <tag k="place" v="hamlet"/>
  </node>
  <node id="448715650" version="2" timestamp="2009-08-25T09:36:29Z" uid="18775" user="drlizau" changeset="2254250" lat="42.788333" lon="20.967778">
    <tag k="name" v="Врница"/>
    <tag k="name_full_nd" v="Врница"/>
    <tag k="name_generic" v=""/>
    <tag k="name_short" v=""/>
    <tag k="name_sort" v="ВРНИЦА"/>
    <tag k="place" v="hamlet"/>
  </node>
  <node id="448715693" version="2" timestamp="2009-08-25T09:36:28Z" uid="18775" user="drlizau" changeset="2254250" lat="42.8" lon="20.983333">
    <tag k="name" v="Вучитрн"/>
    <tag k="name_full_nd" v="Вучитрн"/>
    <tag k="name_generic" v=""/>
    <tag k="name_short" v=""/>
    <tag k="name_sort" v="ВУЧИТРН"/>
    <tag k="place" v="hamlet"/>
  </node>
  <node id="448715698" version="2" timestamp="2009-08-25T09:36:28Z" uid="18775" user="drlizau" changeset="2254250" lat="42.753611" lon="20.890556">
    <tag k="name" v="Бечић"/>
    <tag k="name_full_nd" v="Бечић"/>
    <tag k="name_generic" v=""/>
    <tag k="name_short" v=""/>
    <tag k="name_sort" v="БЕЧИЋ"/>
    <tag k="place" v="hamlet"/>
  </node>
  <node id="448715709" version="2" timestamp="2009-08-25T09:36:28Z" uid="18775" user="drlizau" changeset="2254250" lat="42.8" lon="20.983333">
    <tag k="name" v="Vushtrri"/>
    <tag k="name_full_nd" v="Vushtrri"/>
    <tag k="name_generic" v=""/>
    <tag k="name_short" v=""/>
    <tag k="name_sort" v="VUSHTRRI"/>
    <tag k="place" v="hamlet"/>
  </node>
  <node id="448715828" version="2" timestamp="2009-08-25T09:37:06Z" uid="18775" user="drlizau" changeset="2254250" lat="42.801667" lon="21.201111">
    <tag k="name" v="Trnava"/>
    <tag k="name_full_nd" v="Trnava"/>
    <tag k="name_generic" v=""/>
    <tag k="name_short" v=""/>
    <tag k="name_sort" v="TRNAVA"/>
    <tag k="place" v="hamlet"/>
  </node>
  <node id="448715833" version="2" timestamp="2009-08-25T09:37:06Z" uid="18775" user="drlizau" changeset="2254250" lat="42.801667" lon="21.201111">
    <tag k="name" v="Shpat"/>
    <tag k="name_full_nd" v="Shpat"/>
    <tag k="name_generic" v=""/>
    <tag k="name_short" v=""/>
    <tag k="name_sort" v="SHPAT"/>
    <tag k="place" v="hamlet"/>
  </node>
  <node id="448715876" version="2" timestamp="2009-08-25T09:37:05Z" uid="18775" user="drlizau" changeset="2254250" lat="42.746667" lon="20.788611">
    <tag k="name" v="Србица"/>
    <tag k="name_full_nd" v="Србица"/>
    <tag k="name_generic" v=""/>
    <tag k="name_short" v=""/>
    <tag k="name_sort" v="СРБИЦА"/>
    <tag k="place" v="hamlet"/>
  </node>
  <node id="448716004" version="2" timestamp="2009-08-25T09:37:03Z" uid="18775" user="drlizau" changeset="2254250" lat="42.896944" lon="21.139722">
    <tag k="name" v="Llapashtica e Epërme"/>
    <tag k="name_full_nd" v="Llapashtica e Epërme"/>
    <tag k="name_generic" v=""/>
    <tag k="name_short" v=""/>
    <tag k="name_sort" v="LLAPASHTICAEEPERME"/>
    <tag k="place" v="hamlet"/>
  </node>
  <node id="448716082" version="2" timestamp="2009-08-25T09:37:01Z" uid="18775" user="drlizau" changeset="2254250" lat="42.730833" lon="21.145">
    <tag k="name" v="Trudë"/>
    <tag k="name_full_nd" v="Trudë"/>
    <tag k="name_generic" v=""/>
    <tag k="name_short" v=""/>
    <tag k="name_sort" v="TRUDE"/>
    <tag k="place" v="hamlet"/>
  </node>
  <node id="448716094" version="2" timestamp="2009-08-25T09:37:00Z" uid="18775" user="drlizau" changeset="2254250" lat="42.755" lon="21.119167">
    <tag k="name" v="Barilevë"/>
    <tag k="name_full_nd" v="Barilevë"/>
    <tag k="name_generic" v=""/>
    <tag k="name_short" v=""/>
    <tag k="name_sort" v="BARILEVE"/>
    <tag k="place" v="hamlet"/>
  </node>
  <node id="448716153" version="2" timestamp="2009-08-25T09:36:59Z" uid="18775" user="drlizau" changeset="2254250" lat="42.766944" lon="21.152778">
    <tag k="name" v="Врани До"/>
    <tag k="name_full_nd" v="Врани До"/>
    <tag k="name_generic" v=""/>
    <tag k="name_short" v=""/>
    <tag k="name_sort" v="ВРАНИДО"/>
    <tag k="place" v="hamlet"/>
  </node>
  <node id="448716197" version="2" timestamp="2009-08-25T09:36:58Z" uid="18775" user="drlizau" changeset="2254250" lat="42.744722" lon="21.106389">
    <tag k="name" v="Drenoc"/>
    <tag k="name_full_nd" v="Drenoc"/>
    <tag k="name_generic" v=""/>
    <tag k="name_short" v=""/>
    <tag k="name_sort" v="DRENOC"/>
    <tag k="place" v="hamlet"/>
  </node>
  <node id="448716375" version="2" timestamp="2009-08-25T09:18:18Z" uid="18775" user="drlizau" changeset="2254105" lat="42.723889" lon="20.824167">
    <tag k="elevation" v=""/>
    <tag k="name" v="Grudić Mahala"/>
    <tag k="name_full_nd" v="Grudić Mahala"/>
    <tag k="name_generic" v=""/>
    <tag k="name_short" v=""/>
    <tag k="name_sort" v="GRUDICMAHALA"/>
    <tag k="place" v="hamlet"/>
  </node>
  <node id="448716418" version="2" timestamp="2009-08-25T09:36:53Z" uid="18775" user="drlizau" changeset="2254250" lat="42.744722" lon="21.106389">
    <tag k="name" v="Drenovac"/>
    <tag k="name_full_nd" v="Drenovac"/>
    <tag k="name_generic" v=""/>
    <tag k="name_short" v=""/>
    <tag k="name_sort" v="DRENOVAC"/>
    <tag k="place" v="hamlet"/>
  </node>
  <node id="448716459" version="1" timestamp="2009-07-26T21:11:56Z" uid="66036" user="h4v" changeset="1949881" lat="52.2386024" lon="19.3655551"/>
  <node id="448716459" version="2" timestamp="2009-07-28T10:09:06Z" uid="66036" user="h4v" changeset="1963574" lat="52.2387534" lon="19.3655378"/>
  <node id="448716459" version="3" timestamp="2009-10-17T20:03:44Z" uid="20587" user="balrog-kun" changeset="2877850" lat="52.2387534" lon="19.3655378"/>
  <node id="448716475" version="1" timestamp="2009-07-26T21:11:56Z" uid="66036" user="h4v" changeset="1949881" lat="52.2403611" lon="19.3614083"/>
  <node id="448716476" version="1" timestamp="2009-07-26T21:11:56Z" uid="66036" user="h4v" changeset="1949881" lat="52.2378772" lon="19.3645176"/>
  <node id="448716476" version="2" timestamp="2009-08-01T20:46:44Z" uid="66036" user="h4v" changeset="2008019" lat="52.2378772" lon="19.3645176"/>
  <node id="448716479" version="1" timestamp="2009-07-26T21:11:56Z" uid="66036" user="h4v" changeset="1949881" lat="52.2378255" lon="19.3646394"/>
  <node id="448716479" version="2" timestamp="2009-08-01T20:46:44Z" uid="66036" user="h4v" changeset="2008019" lat="52.2378255" lon="19.3646394"/>
  <node id="448716487" version="1" timestamp="2009-07-26T21:11:57Z" uid="66036" user="h4v" changeset="1949881" lat="52.2358807" lon="19.3624683"/>
  <node id="448716487" version="2" timestamp="2009-07-27T21:11:47Z" uid="66036" user="h4v" changeset="1959955" lat="52.2347469" lon="19.3614857"/>
  <node id="448716487" version="3" timestamp="2009-07-28T10:09:06Z" uid="66036" user="h4v" changeset="1963574" lat="52.2346822" lon="19.3612916"/>
  <node id="448716487" version="4" timestamp="2009-08-01T20:46:44Z" uid="66036" user="h4v" changeset="2008019" lat="52.2346822" lon="19.3612916"/>
  <node id="448716491" version="1" timestamp="2009-07-26T21:11:57Z" uid="66036" user="h4v" changeset="1949881" lat="52.2398593" lon="19.3669773"/>
  <node id="448716491" version="2" timestamp="2009-10-17T20:03:44Z" uid="20587" user="balrog-kun" changeset="2877850" lat="52.2398593" lon="19.3669773"/>
  <node id="448716494" version="1" timestamp="2009-07-26T21:11:57Z" uid="66036" user="h4v" changeset="1949881" lat="52.2415168" lon="19.3627318"/>
  <node id="448716494" version="2" timestamp="2009-08-06T15:46:54Z" uid="66036" user="h4v" changeset="2057376" lat="52.2415486" lon="19.3627751"/>
  <node id="448716495" version="1" timestamp="2009-07-26T21:11:57Z" uid="66036" user="h4v" changeset="1949881" lat="52.2438573" lon="19.3570058"/>
  <node id="448716495" version="2" timestamp="2009-08-01T20:46:44Z" uid="66036" user="h4v" changeset="2008019" lat="52.2438573" lon="19.3570058"/>
  <node id="448716499" version="1" timestamp="2009-07-26T21:11:57Z" uid="66036" user="h4v" changeset="1949881" lat="52.2385902" lon="19.3701832"/>
  <node id="448716499" version="2" timestamp="2009-08-02T21:32:11Z" uid="66036" user="h4v" changeset="2020073" lat="52.2385389" lon="19.3701134"/>
  <node id="448716502" version="1" timestamp="2009-07-26T21:11:57Z" uid="66036" user="h4v" changeset="1949881" lat="52.2375336" lon="19.3742821"/>
  <node id="448716502" version="2" timestamp="2009-08-02T21:32:11Z" uid="66036" user="h4v" changeset="2020073" lat="52.2370549" lon="19.3739331"/>
  <node id="448716502" version="3" timestamp="2009-08-07T19:46:19Z" uid="66036" user="h4v" changeset="2069677" lat="52.2369773" lon="19.3738887"/>
  <node id="448716505" version="2" timestamp="2009-08-25T09:36:53Z" uid="18775" user="drlizau" changeset="2254250" lat="42.910556" lon="21.193056">
    <tag k="name" v="Besianë"/>
    <tag k="name_full_nd" v="Besianë"/>
    <tag k="name_generic" v=""/>
    <tag k="name_short" v=""/>
    <tag k="name_sort" v="BESIANE"/>
    <tag k="place" v="hamlet"/>
  </node>
  <node id="448716506" version="1" timestamp="2009-07-26T21:11:57Z" uid="66036" user="h4v" changeset="1949881" lat="52.2370288" lon="19.3767548"/>
  <node id="448716506" version="2" timestamp="2009-08-01T20:46:35Z" uid="66036" user="h4v" changeset="2008019" lat="52.2373564" lon="19.3750168"/>
  <node id="448716506" version="3" timestamp="2009-08-02T08:06:30Z" uid="66036" user="h4v" changeset="2010853" lat="52.2370929" lon="19.3759508"/>
  <node id="448716506" version="4" timestamp="2009-08-02T21:32:11Z" uid="66036" user="h4v" changeset="2020073" lat="52.23658" lon="19.3752668"/>
  <node id="448716506" version="5" timestamp="2009-08-07T19:46:19Z" uid="66036" user="h4v" changeset="2069677" lat="52.2364441" lon="19.3751654"/>
  <node id="448716506" version="6" timestamp="2009-08-11T20:25:00Z" uid="66036" user="h4v" changeset="2112742" lat="52.2363896" lon="19.3752544"/>
  <node id="448716511" version="1" timestamp="2009-07-26T21:11:57Z" uid="66036" user="h4v" changeset="1949881" lat="52.2369858" lon="19.3633724">
    <tag k="amenity" v="pub"/>
    <tag k="name" v="Boryna"/>
  </node>
  <node id="448716512" version="2" timestamp="2009-08-25T09:18:19Z" uid="18775" user="drlizau" changeset="2254105" lat="42.781944" lon="21.126111">
    <tag k="elevation" v=""/>
    <tag k="name" v="Podadžid Mahala"/>
    <tag k="name_full_nd" v="Podadžid Mahala"/>
    <tag k="name_generic" v=""/>
    <tag k="name_short" v=""/>
    <tag k="name_sort" v="PODADZIDMAHALA"/>
    <tag k="place" v="hamlet"/>
  </node>
  <node id="448716514" version="1" timestamp="2009-07-26T21:11:57Z" uid="66036" user="h4v" changeset="1949881" lat="52.2395155" lon="19.3634023"/>
  <node id="448716514" version="2" timestamp="2009-08-01T20:46:35Z" uid="66036" user="h4v" changeset="2008019" lat="52.239369" lon="19.363879"/>
  <node id="448716517" version="2" timestamp="2009-08-25T09:36:52Z" uid="18775" user="drlizau" changeset="2254250" lat="42.749167" lon="20.820278">
    <tag k="name" v="Donje Prekaze"/>
    <tag k="name_full_nd" v="Donje Prekaze"/>
    <tag k="name_generic" v=""/>
    <tag k="name_short" v=""/>
    <tag k="name_sort" v="DONJEPREKAZE"/>
    <tag k="place" v="hamlet"/>
  </node>
  <node id="448716530" version="2" timestamp="2009-08-25T09:36:52Z" uid="18775" user="drlizau" changeset="2254250" lat="42.910556" lon="21.193056">
    <tag k="name" v="Podujeva"/>
    <tag k="name_full_nd" v="Podujeva"/>
    <tag k="name_generic" v=""/>
    <tag k="name_short" v=""/>
    <tag k="name_sort" v="PODUJEVA"/>
    <tag k="place" v="hamlet"/>
  </node>
  <node id="448717007" version="3" timestamp="2009-08-25T09:17:45Z" uid="18775" user="drlizau" changeset="2254105" lat="42.763056" lon="21.133333">
    <tag k="el" v=""/>
    <tag k="name" v="Boriljevačka Čuka"/>
    <tag k="name:sr" v="Bariljevška Čuka"/>
    <tag k="name_full_nd" v="Boriljevačka Čuka"/>
    <tag k="name_full_nd:sr" v="Bariljevška Čuka"/>
    <tag k="name_generic" v="Čuka"/>
    <tag k="name_generic:sr" v="Čuka"/>
    <tag k="name_short:sr" v=""/>
    <tag k="name_sort" v="BORILJEVACKACUKA"/>
    <tag k="name_sort:sr" v="BARILJEVSKACUKA"/>
    <tag k="place" v="hamlet"/>
  </node>
  <node id="448717074" version="3" timestamp="2009-08-25T09:17:46Z" uid="18775" user="drlizau" changeset="2254105" lat="42.859167" lon="20.817222">
    <tag k="elevation" v=""/>
    <tag k="name" v="Grmova"/>
    <tag k="name:sr" v="Grmova"/>
    <tag k="name_full_nd" v="Grmova"/>
    <tag k="name_full_nd:sr" v="Grmova"/>
    <tag k="name_generic" v=""/>
    <tag k="name_short" v=""/>
    <tag k="name_sort" v="GRMOVA"/>
    <tag k="name_sort:sr" v="GRMOVA"/>
    <tag k="place" v="hamlet"/>
  </node>
  <node id="448717074" version="4" timestamp="2009-08-25T09:34:54Z" uid="18775" user="drlizau" changeset="2254250" lat="42.859167" lon="20.817222">
    <tag k="name" v="Grmova"/>
    <tag k="name:sr" v="Grmova"/>
    <tag k="name_full_nd" v="Grmova"/>
    <tag k="name_full_nd:sr" v="Grmova"/>
    <tag k="name_generic" v=""/>
    <tag k="name_short" v=""/>
    <tag k="name_sort" v="GRMOVA"/>
    <tag k="name_sort:sr" v="GRMOVA"/>
    <tag k="place" v="hamlet"/>
  </node>
  <node id="448717083" version="3" timestamp="2009-08-25T09:17:47Z" uid="18775" user="drlizau" changeset="2254105" lat="42.799444" lon="20.975833">
    <tag k="el" v=""/>
    <tag k="name" v="Bruznik Reka"/>
    <tag k="name:sr" v="Brosovačka Reka"/>
    <tag k="name_full_nd" v="Bruznik Reka"/>
    <tag k="name_full_nd:sr" v="Brosovačka Reka"/>
    <tag k="name_generic" v="Reka"/>
    <tag k="name_generic:sr" v="Reka"/>
    <tag k="name_short:sr" v=""/>
    <tag k="name_sort" v="BRUZNIKREKA"/>
    <tag k="name_sort:sr" v="BROSOVACKAREKA"/>
    <tag k="place" v="hamlet"/>
  </node>
  <node id="448717088" version="3" timestamp="2009-08-25T09:17:46Z" uid="18775" user="drlizau" changeset="2254105" lat="42.916389" lon="20.9375">
    <tag k="name" v="Kozji Rog"/>
    <tag k="name:sr" v="Kozji Rog"/>
    <tag k="name_full_nd" v="Kozji Rog"/>
    <tag k="name_full_nd:sr" v="Kozji Rog"/>
    <tag k="name_sort" v="KOZJIROG"/>
    <tag k="name_sort:sr" v="KOZJIROG"/>
    <tag k="place" v="hamlet"/>
  </node>
  <node id="448717092" version="5" timestamp="2009-08-25T09:17:46Z" uid="18775" user="drlizau" changeset="2254105" lat="42.744722" lon="20.769722">
    <tag k="geonameid" v="832137"/>
    <tag k="gnadmin" v="00"/>
    <tag k="gnadmin2" v="Kosovo"/>
    <tag k="gnfeature" v="T"/>
    <tag k="gnfeaturec" v="SPUR"/>
    <tag k="name" v="Deluga"/>
    <tag k="name2" v="Deluga"/>
    <tag k="name:sr" v="Deluga"/>
    <tag k="name_full_nd" v="Deluga"/>
    <tag k="name_full_nd:sr" v="Deluga"/>
    <tag k="name_sort" v="DELUGA"/>
    <tag k="name_sort:sr" v="DELUGA"/>
    <tag k="natural" v="peak"/>
  </node>
  <node id="448717165" version="5" timestamp="2009-08-25T09:17:45Z" uid="18775" user="drlizau" changeset="2254105" lat="42.797778" lon="20.766111">
    <tag k="altname" v="Macka,Mačka"/>
    <tag k="geonameid" v="831874"/>
    <tag k="gnadmin" v="00"/>
    <tag k="gnadmin2" v="Kosovo"/>
    <tag k="gnfeature" v="T"/>
    <tag k="gnfeaturec" v="MT"/>
    <tag k="name" v="Mačka"/>
    <tag k="name2" v="Mečka"/>
    <tag k="name:sr" v="Mečka"/>
    <tag k="name_full_nd" v="Mačka"/>
    <tag k="name_full_nd:sr" v="Mečka"/>
    <tag k="name_sort" v="MACKA"/>
    <tag k="name_sort:sr" v="MECKA"/>
    <tag k="natural" v="peak"/>
  </node>
  <node id="448717195" version="4" timestamp="2009-08-25T09:07:05Z" uid="18775" user="drlizau" changeset="2254017" lat="42.901944" lon="20.964722">
    <tag k="geonameid" v="831831"/>
    <tag k="gnadmin" v="00"/>
    <tag k="gnadmin2" v="Kosovo"/>
    <tag k="gnfeature" v="T"/>
    <tag k="gnfeaturec" v="MT"/>
    <tag k="name" v="Stremenica"/>
    <tag k="name2" v="Stremenica"/>
    <tag k="name:sr" v="Stremenica"/>
    <tag k="name_full_nd" v="Stremenica"/>
    <tag k="name_full_nd:sr" v="Stremenica"/>
    <tag k="name_sort" v="STREMENICA"/>
    <tag k="name_sort:sr" v="STREMENICA"/>
    <tag k="natural" v="peak"/>
  </node>
  <node id="448717239" version="3" timestamp="2009-08-25T09:07:05Z" uid="18775" user="drlizau" changeset="2254017" lat="42.909167" lon="21.068889">
    <tag k="name" v="Koriz"/>
    <tag k="name:sr" v="Koriz"/>
    <tag k="name_full_nd" v="Koriz"/>
    <tag k="name_full_nd:sr" v="Koriz"/>
    <tag k="name_sort" v="KORIZ"/>
    <tag k="name_sort:sr" v="KORIZ"/>
    <tag k="place" v="hamlet"/>
  </node>
  <node id="448717242" version="3" timestamp="2009-08-25T09:17:48Z" uid="18775" user="drlizau" changeset="2254105" lat="42.893333" lon="21.043889">
    <tag k="name" v="Orlovo Brdo"/>
    <tag k="name:sr" v="Orlovo Brdo"/>
    <tag k="name_full_nd" v="Orlovo Brdo"/>
    <tag k="name_full_nd:sr" v="Orlovo Brdo"/>
    <tag k="name_generic" v="Brdo"/>
    <tag k="name_generic:sr" v="Brdo"/>
    <tag k="name_sort" v="ORLOVOBRDO"/>
    <tag k="name_sort:sr" v="ORLOVOBRDO"/>
    <tag k="place" v="hamlet"/>
  </node>
  <node id="448717344" version="2" timestamp="2009-08-25T09:35:01Z" uid="18775" user="drlizau" changeset="2254250" lat="42.813333" lon="21.134722">
    <tag k="name" v="Majac"/>
    <tag k="name_full_nd" v="Majac"/>
    <tag k="name_generic" v=""/>
    <tag k="name_short" v=""/>
    <tag k="name_sort" v="MAJAC"/>
    <tag k="place" v="hamlet"/>
  </node>
  <node id="448717361" version="2" timestamp="2009-08-25T09:35:00Z" uid="18775" user="drlizau" changeset="2254250" lat="42.813333" lon="21.134722">
    <tag k="name" v="Majas"/>
    <tag k="name_full_nd" v="Majas"/>
    <tag k="name_generic" v=""/>
    <tag k="name_short" v=""/>
    <tag k="name_sort" v="MAJAS"/>
    <tag k="place" v="hamlet"/>
  </node>
  <node id="448717377" version="2" timestamp="2009-08-25T09:34:57Z" uid="18775" user="drlizau" changeset="2254250" lat="42.855833" lon="21.145833">
    <tag k="name" v="Буринце"/>
    <tag k="name_full_nd" v="Буринце"/>
    <tag k="name_generic" v=""/>
    <tag k="name_short" v=""/>
    <tag k="name_sort" v="БУРИНЦЕ"/>
    <tag k="place" v="hamlet"/>
  </node>
  <node id="448717408" version="2" timestamp="2009-08-25T09:34:59Z" uid="18775" user="drlizau" changeset="2254250" lat="42.741667" lon="21.143056">
    <tag k="name" v="Lebanë"/>
    <tag k="name_full_nd" v="Lebanë"/>
    <tag k="name_generic" v=""/>
    <tag k="name_short" v=""/>
    <tag k="name_sort" v="LEBANE"/>
    <tag k="place" v="hamlet"/>
  </node>
  <node id="448717559" version="2" timestamp="2009-08-25T09:17:49Z" uid="18775" user="drlizau" changeset="2254105" lat="42.760833" lon="20.718889">
    <tag k="elevation" v=""/>
    <tag k="name" v="Žutovac"/>
    <tag k="name:sr" v="Žutovac"/>
    <tag k="name_full_nd" v="Žutovac"/>
    <tag k="name_full_nd:sr" v="Žutovac"/>
    <tag k="name_generic" v=""/>
    <tag k="name_short" v=""/>
    <tag k="name_sort" v="ZUTOVAC"/>
    <tag k="name_sort:sr" v="ZUTOVAC"/>
    <tag k="place" v="hamlet"/>
  </node>
  <node id="448717559" version="3" timestamp="2009-08-25T09:35:03Z" uid="18775" user="drlizau" changeset="2254250" lat="42.760833" lon="20.718889">
    <tag k="name" v="Žutovac"/>
    <tag k="name:sr" v="Žutovac"/>
    <tag k="name_full_nd" v="Žutovac"/>
    <tag k="name_full_nd:sr" v="Žutovac"/>
    <tag k="name_generic" v=""/>
    <tag k="name_short" v=""/>
    <tag k="name_sort" v="ZUTOVAC"/>
    <tag k="name_sort:sr" v="ZUTOVAC"/>
    <tag k="place" v="hamlet"/>
  </node>
  <node id="448717857" version="2" timestamp="2009-08-25T09:17:52Z" uid="18775" user="drlizau" changeset="2254105" lat="42.921389" lon="20.734722">
    <tag k="elevation" v=""/>
    <tag k="name" v="Klopotnik"/>
    <tag k="name:sr" v="Klopotnik"/>
    <tag k="name_full_nd" v="Klopotnik"/>
    <tag k="name_full_nd:sr" v="Klopotnik"/>
    <tag k="name_generic" v=""/>
    <tag k="name_short" v=""/>
    <tag k="name_sort" v="KLOPOTNIK"/>
    <tag k="name_sort:sr" v="KLOPOTNIK"/>
    <tag k="place" v="hamlet"/>
  </node>
  <node id="448717857" version="3" timestamp="2009-08-25T09:35:10Z" uid="18775" user="drlizau" changeset="2254250" lat="42.921389" lon="20.734722">
    <tag k="name" v="Klopotnik"/>
    <tag k="name:sr" v="Klopotnik"/>
    <tag k="name_full_nd" v="Klopotnik"/>
    <tag k="name_full_nd:sr" v="Klopotnik"/>
    <tag k="name_generic" v=""/>
    <tag k="name_short" v=""/>
    <tag k="name_sort" v="KLOPOTNIK"/>
    <tag k="name_sort:sr" v="KLOPOTNIK"/>
    <tag k="place" v="hamlet"/>
  </node>
  <node id="448718707" version="2" timestamp="2009-08-25T09:35:21Z" uid="18775" user="drlizau" changeset="2254250" lat="42.928056" lon="21.165833">
    <tag k="name" v="Perani"/>
    <tag k="name_full_nd" v="Perani"/>
    <tag k="name_generic" v=""/>
    <tag k="name_short" v=""/>
    <tag k="name_sort" v="PERANI"/>
    <tag k="place" v="hamlet"/>
  </node>
  <node id="448718710" version="2" timestamp="2009-08-25T09:35:21Z" uid="18775" user="drlizau" changeset="2254250" lat="42.928056" lon="21.165833">
    <tag k="name" v="Lkenasi"/>
    <tag k="name_full_nd" v="Lkenasi"/>
    <tag k="name_generic" v=""/>
    <tag k="name_short" v=""/>
    <tag k="name_sort" v="LKENASI"/>
    <tag k="place" v="hamlet"/>
  </node>
  <node id="448719104" version="2" timestamp="2009-08-25T09:35:27Z" uid="18775" user="drlizau" changeset="2254250" lat="42.705833" lon="20.938889">
    <tag k="name" v="Gradica"/>
    <tag k="name_full_nd" v="Gradica"/>
    <tag k="name_generic" v=""/>
    <tag k="name_short" v=""/>
    <tag k="name_sort" v="GRADICA"/>
    <tag k="place" v="hamlet"/>
  </node>
  <node id="448719127" version="3" timestamp="2009-08-25T09:18:15Z" uid="18775" user="drlizau" changeset="2254105" lat="42.639444" lon="21.096111">
    <tag k="name" v="Fushë Kosovë"/>
    <tag k="name_full_nd" v="Fushë Kosovë"/>
    <tag k="name_sort" v="FUSHEKOSOVA"/>
    <tag k="place" v="hamlet"/>
  </node>
  <node id="448719281" version="8" timestamp="2009-08-25T09:18:35Z" uid="18775" user="drlizau" changeset="2254105" lat="42.702222" lon="20.909167">
    <tag k="geonameid" v="832125"/>
    <tag k="gnadmin" v="00"/>
    <tag k="gnadmin2" v="Kosovo"/>
    <tag k="gnfeature" v="P"/>
    <tag k="gnfeaturec" v="PPL"/>
    <tag k="name" v="Ukovic"/>
    <tag k="name2" v="Uković"/>
    <tag k="name:sr" v="Uković"/>
    <tag k="name_full_nd" v="Uković"/>
    <tag k="name_full_nd:sr" v="Uković"/>
    <tag k="name_sort" v="UKOVIC"/>
    <tag k="name_sort:sr" v="UKOVIC"/>
    <tag k="place" v="village"/>
  </node>
  <node id="448719401" version="2" timestamp="2009-07-27T07:53:01Z" uid="136042" user="Gent" changeset="1952658" lat="42.645278" lon="21.193333">
    <tag k="elevation" v=""/>
    <tag k="name" v="Матичане"/>
    <tag k="name_full_nd" v="Матичане"/>
    <tag k="name_generic" v=""/>
    <tag k="name_short" v=""/>
    <tag k="name_sort" v="МАТИЧАНЕ"/>
    <tag k="place" v="hamlet"/>
  </node>
  <node id="448719413" version="2" timestamp="2009-08-25T09:35:33Z" uid="18775" user="drlizau" changeset="2254250" lat="42.686944" lon="21.070278">
    <tag k="name" v="Obiliq"/>
    <tag k="name_full_nd" v="Obiliq"/>
    <tag k="name_generic" v=""/>
    <tag k="name_short" v=""/>
    <tag k="name_sort" v="OBILIQ"/>
    <tag k="place" v="hamlet"/>
  </node>
  <node id="448719427" version="2" timestamp="2009-08-25T09:35:31Z" uid="18775" user="drlizau" changeset="2254250" lat="42.686944" lon="21.070278">
    <tag k="name" v="Obilić"/>
    <tag k="name_full_nd" v="Obilić"/>
    <tag k="name_generic" v=""/>
    <tag k="name_short" v=""/>
    <tag k="name_sort" v="OBILIC"/>
    <tag k="place" v="hamlet"/>
  </node>
  <node id="448719453" version="2" timestamp="2009-08-25T09:35:31Z" uid="18775" user="drlizau" changeset="2254250" lat="42.854167" lon="21.169444">
    <tag k="name" v="Konushevc"/>
    <tag k="name_full_nd" v="Konushevc"/>
    <tag k="name_generic" v=""/>
    <tag k="name_short" v=""/>
    <tag k="name_sort" v="KONUSHEVC"/>
    <tag k="place" v="hamlet"/>
  </node>
  <node id="448719455" version="2" timestamp="2009-08-25T09:35:31Z" uid="18775" user="drlizau" changeset="2254250" lat="42.854167" lon="21.169444">
    <tag k="name" v="Urëz"/>
    <tag k="name_full_nd" v="Urëz"/>
    <tag k="name_generic" v=""/>
    <tag k="name_short" v=""/>
    <tag k="name_sort" v="UREZ"/>
    <tag k="place" v="hamlet"/>
  </node>
  <node id="448719457" version="2" timestamp="2009-08-25T09:35:31Z" uid="18775" user="drlizau" changeset="2254250" lat="42.854167" lon="21.169444">
    <tag k="name" v="Kunushevc"/>
    <tag k="name_full_nd" v="Kunushevc"/>
    <tag k="name_generic" v=""/>
    <tag k="name_short" v=""/>
    <tag k="name_sort" v="KUNUSHEVC"/>
    <tag k="place" v="hamlet"/>
  </node>
  <node id="448719476" version="2" timestamp="2009-08-25T09:35:31Z" uid="18775" user="drlizau" changeset="2254250" lat="42.823333" lon="21.0475">
    <tag k="name" v="Samadregjë"/>
    <tag k="name_full_nd" v="Samadregjë"/>
    <tag k="name_generic" v=""/>
    <tag k="name_short" v=""/>
    <tag k="name_sort" v="SAMADREGJE"/>
    <tag k="place" v="hamlet"/>
  </node>
  <node id="448719553" version="2" timestamp="2009-08-25T09:35:27Z" uid="18775" user="drlizau" changeset="2254250" lat="42.715833" lon="20.893611">
    <tag k="name" v="Çirez"/>
    <tag k="name_full_nd" v="Çirez"/>
    <tag k="name_generic" v=""/>
    <tag k="name_short" v=""/>
    <tag k="name_sort" v="CIREZ"/>
    <tag k="place" v="hamlet"/>
  </node>
  <node id="448719566" version="2" timestamp="2009-08-25T09:35:27Z" uid="18775" user="drlizau" changeset="2254250" lat="42.847778" lon="21.053889">
    <tag k="name" v="Ceceli"/>
    <tag k="name_full_nd" v="Ceceli"/>
    <tag k="name_generic" v=""/>
    <tag k="name_short" v=""/>
    <tag k="name_sort" v="CECELI"/>
    <tag k="place" v="hamlet"/>
  </node>
  <node id="448719571" version="2" timestamp="2009-08-25T09:35:28Z" uid="18775" user="drlizau" changeset="2254250" lat="42.809722" lon="20.889722">
    <tag k="name" v="Balince"/>
    <tag k="name_full_nd" v="Balince"/>
    <tag k="name_generic" v=""/>
    <tag k="name_short" v=""/>
    <tag k="name_sort" v="BALINCE"/>
    <tag k="place" v="hamlet"/>
  </node>
  <node id="448719575" version="2" timestamp="2009-08-25T09:35:28Z" uid="18775" user="drlizau" changeset="2254250" lat="42.800833" lon="21.075278">
    <tag k="name" v="Dumnicë e Llugës"/>
    <tag k="name_full_nd" v="Dumnicë e Llugës"/>
    <tag k="name_generic" v=""/>
    <tag k="name_short" v=""/>
    <tag k="name_sort" v="DUMNICEELLUGES"/>
    <tag k="place" v="hamlet"/>
  </node>
  <node id="448719579" version="2" timestamp="2009-08-25T09:35:28Z" uid="18775" user="drlizau" changeset="2254250" lat="42.810278" lon="21.096111">
    <tag k="name" v="Gornja Dubnica"/>
    <tag k="name_full_nd" v="Gornja Dubnica"/>
    <tag k="name_generic" v=""/>
    <tag k="name_short" v=""/>
    <tag k="name_sort" v="GORNJADUBNICA"/>
    <tag k="place" v="hamlet"/>
  </node>
  <node id="448719587" version="2" timestamp="2009-08-25T09:35:29Z" uid="18775" user="drlizau" changeset="2254250" lat="42.854167" lon="20.791944">
    <tag k="name" v="Koprivë"/>
    <tag k="name_full_nd" v="Koprivë"/>
    <tag k="name_generic" v=""/>
    <tag k="name_short" v=""/>
    <tag k="name_sort" v="KOPRIVE"/>
    <tag k="place" v="hamlet"/>
  </node>
  <node id="448719597" version="2" timestamp="2009-08-25T09:35:28Z" uid="18775" user="drlizau" changeset="2254250" lat="42.809722" lon="20.799722">
    <tag k="name" v="Trnavce"/>
    <tag k="name_full_nd" v="Trnavce"/>
    <tag k="name_generic" v=""/>
    <tag k="name_short" v=""/>
    <tag k="name_sort" v="TRNAVCE"/>
    <tag k="place" v="hamlet"/>
  </node>
  <node id="448719752" version="2" timestamp="2009-08-25T09:35:35Z" uid="18775" user="drlizau" changeset="2254250" lat="42.689722" lon="20.83">
    <tag k="name" v="Poluzhë"/>
    <tag k="name_full_nd" v="Poluzhë"/>
    <tag k="name_generic" v=""/>
    <tag k="name_short" v=""/>
    <tag k="name_sort" v="POLUZHE"/>
    <tag k="place" v="hamlet"/>
  </node>
  <node id="448719820" version="2" timestamp="2009-08-25T09:35:34Z" uid="18775" user="drlizau" changeset="2254250" lat="42.698333" lon="20.85">
    <tag k="name" v="Sukë"/>
    <tag k="name_full_nd" v="Sukë"/>
    <tag k="name_generic" v=""/>
    <tag k="name_short" v=""/>
    <tag k="name_sort" v="SUKE"/>
    <tag k="place" v="hamlet"/>
  </node>
  <node id="448719824" version="2" timestamp="2009-08-25T09:35:33Z" uid="18775" user="drlizau" changeset="2254250" lat="42.698333" lon="20.85">
    <tag k="name" v="Štutica"/>
    <tag k="name_full_nd" v="Štutica"/>
    <tag k="name_generic" v=""/>
    <tag k="name_short" v=""/>
    <tag k="name_sort" v="STUTICA"/>
    <tag k="place" v="hamlet"/>
  </node>
</osm>
