<?xml version='1.0' encoding='UTF-8'?>
<osm version="0.6" generator="libosmium/2.20.0">
  <node id="448706435" version="2" timestamp="2009-08-25T09:36:01Z" uid="18775" user="drlizau" changeset="2254250" lat="42.74" lon="21.120556">
    <tag k="name" v="Prugovac"/>
    <tag k="name_full_nd" v="Prugovac"/>
    <tag k="name_generic" v=""/>
    <tag k="name_short" v=""/>
    <tag k="name_sort" v="PRUGOVAC"/>
    <tag k="place" v="hamlet"/>
  </node>
  <node id="448706499" version="4" timestamp="2009-08-25T09:18:32Z" uid="18775" user="drlizau" changeset="2254105" lat="42.870556" lon="20.922222">
    <tag k="altname" v="Kciq i Madh,Kçiq i Madh,Velike Kicice,Velike Kičiće,Veliko Kicice,Veliko Kičiće"/>
    <tag k="geonameid" v="784580"/>
    <tag k="gnadmin" v="00"/>
    <tag k="gnadmin2" v="Kosovo"/>
    <tag k="gnfeature" v="P"/>
    <tag k="gnfeaturec" v="PPL"/>
    <tag k="name" v="Kçiq i Madhm"/>
    <tag k="name2" v="Veliki Kičić"/>
    <tag k="name_full_nd" v="Kçiq i Madh"/>
    <tag k="name_sort" v="KCIQIIMADH"/>
    <tag k="place" v="village"/>
    <tag k="pop" v="0"/>
  </node>
  <node id="448706514" version="7" timestamp="2009-08-25T09:18:05Z" uid="18775" user="drlizau" changeset="2254105" lat="42.686944" lon="21.066944">
    <tag k="geonameid" v="832777"/>
    <tag k="gnadmin" v="00"/>
    <tag k="gnadmin2" v="Kosovo"/>
    <tag k="gnfeature" v="S"/>
    <tag k="gnfeaturec" v="RSTN"/>
    <tag k="name" v="Stanica Obilic"/>
    <tag k="name2" v="Stanica Obilić"/>
    <tag k="name:sr" v="Stanica Obilić"/>
    <tag k="name_full_nd" v="Stanica Obilić"/>
    <tag k="name_full_nd:sr" v="Stanica Obilić"/>
    <tag k="name_generic" v="Stanica"/>
    <tag k="name_generic:sr" v="Stanica"/>
    <tag k="name_sort" v="STANICAOBILIC"/>
    <tag k="name_sort:sr" v="STANICAOBILIC"/>
    <tag k="railway" v="station"/>
  </node>
  <node id="448706554" version="2" timestamp="2009-08-25T09:36:01Z" uid="18775" user="drlizau" changeset="2254250" lat="42.827222" lon="20.814722">
    <tag k="name" v="Gradevci"/>
    <tag k="name_full_nd" v="Gradevci"/>
    <tag k="name_generic" v=""/>
    <tag k="name_short" v=""/>
    <tag k="name_sort" v="GRADEVCI"/>
    <tag k="place" v="hamlet"/>
  </node>
  <node id="448706617" version="2" timestamp="2009-08-25T09:36:54Z" uid="18775" user="drlizau" changeset="2254250" lat="42.863889" lon="20.831667">
    <tag k="name" v="Горње Жабаре"/>
    <tag k="name_full_nd" v="Горње Жабаре"/>
    <tag k="name_generic" v=""/>
    <tag k="name_short" v=""/>
    <tag k="name_sort" v="ГОРЊЕЖАБАРЕ"/>
    <tag k="place" v="hamlet"/>
  </node>
  <node id="448706635" version="2" timestamp="2009-08-25T09:36:52Z" uid="18775" user="drlizau" changeset="2254250" lat="42.9" lon="21.2">
    <tag k="name" v="Општина Подујево"/>
    <tag k="name_full_nd" v="Општина Подујево"/>
    <tag k="name_generic" v="Општина"/>
    <tag k="name_short" v="Подујево"/>
    <tag k="name_sort" v="ОПШТИНАПОДУЈЕВО"/>
    <tag k="place" v="hamlet"/>
  </node>
  <node id="448706637" version="2" timestamp="2009-08-25T09:36:52Z" uid="18775" user="drlizau" changeset="2254250" lat="42.9" lon="21.2">
    <tag k="name" v="Podujevës"/>
    <tag k="name_full_nd" v="Podujevës"/>
    <tag k="name_generic" v=""/>
    <tag k="name_short" v=""/>
    <tag k="name_sort" v="PODUJEVES"/>
    <tag k="place" v="hamlet"/>
  </node>
  <node id="448706638" version="2" timestamp="2009-08-25T09:36:52Z" uid="18775" user="drlizau" changeset="2254250" lat="42.9" lon="21.2">
    <tag k="name" v="Podujevë"/>
    <tag k="name_full_nd" v="Podujevë"/>
    <tag k="name_generic" v=""/>
    <tag k="name_short" v=""/>
    <tag k="name_sort" v="PODUJEVE"/>
    <tag k="place" v="hamlet"/>
  </node>
  <node id="448706640" version="4" timestamp="2009-08-25T09:18:19Z" uid="18775" user="drlizau" changeset="2254105" lat="42.851111" lon="20.889722">
    <tag k="altname" v="Frasher,Frashër"/>
    <tag k="geonameid" v="785180"/>
    <tag k="gnadmin" v="00"/>
    <tag k="gnadmin2" v="Kosovo"/>
    <tag k="gnfeature" v="P"/>
    <tag k="gnfeaturec" v="PPL"/>
    <tag k="name" v="Frashër"/>
    <tag k="name2" v="Svinjare"/>
    <tag k="name_full_nd" v="Frashër"/>
    <tag k="name_sort" v="FRASHER"/>
    <tag k="place" v="village"/>
    <tag k="pop" v="0"/>
  </node>
  <node id="448706663" version="7" timestamp="2009-08-25T09:18:11Z" uid="18775" user="drlizau" changeset="2254105" lat="42.672778" lon="21.076389">
    <tag k="geonameid" v="832775"/>
    <tag k="gnadmin" v="00"/>
    <tag k="gnadmin2" v="Kosovo"/>
    <tag k="gnfeature" v="S"/>
    <tag k="gnfeaturec" v="RSTN"/>
    <tag k="name" v="Stanica Dobro Selo"/>
    <tag k="name2" v="Stanica Dobro Selo"/>
    <tag k="name:sr" v="Stanica Dobro Selo"/>
    <tag k="name_full_nd" v="Stanica Dobro Selo"/>
    <tag k="name_full_nd:sr" v="Stanica Dobro Selo"/>
    <tag k="name_generic" v="Stanica"/>
    <tag k="name_generic:sr" v="Stanica"/>
    <tag k="name_sort" v="STANICADOBROSELO"/>
    <tag k="name_sort:sr" v="STANICADOBROSELO"/>
    <tag k="railway" v="station"/>
  </node>
  <node id="448706665" version="2" timestamp="2009-08-25T09:36:53Z" uid="18775" user="drlizau" changeset="2254250" lat="42.913889" lon="20.9725">
    <tag k="name" v="Трстена"/>
    <tag k="name_full_nd" v="Трстена"/>
    <tag k="name_generic" v=""/>
    <tag k="name_short" v=""/>
    <tag k="name_sort" v="ТРСТЕНА"/>
    <tag k="place" v="hamlet"/>
  </node>
  <node id="448706666" version="2" timestamp="2009-08-25T09:36:53Z" uid="18775" user="drlizau" changeset="2254250" lat="42.9166667" lon="20.8833333">
    <tag k="name" v="Komuna e Mitrovicës"/>
    <tag k="name_full_nd" v="Komuna e Mitrovicës"/>
    <tag k="name_generic" v="Komuna"/>
    <tag k="name_short" v="Mitrovicë"/>
    <tag k="name_sort" v="KOMUNAEMITROVICES"/>
    <tag k="place" v="hamlet"/>
  </node>
  <node id="448706682" version="2" timestamp="2009-08-25T09:36:53Z" uid="18775" user="drlizau" changeset="2254250" lat="42.871389" lon="20.841111">
    <tag k="name" v="Zhabari i Ultë"/>
    <tag k="name_full_nd" v="Zhabari i Ultë"/>
    <tag k="name_generic" v=""/>
    <tag k="name_short" v=""/>
    <tag k="name_sort" v="ZHABARIIULTE"/>
    <tag k="place" v="hamlet"/>
  </node>
  <node id="448706956" version="2" timestamp="2009-08-25T09:18:19Z" uid="18775" user="drlizau" changeset="2254105" lat="42.690833" lon="20.932778">
    <tag k="elevation" v=""/>
    <tag k="name" v="Fazlovići"/>
    <tag k="name_full_nd" v="Fazlovići"/>
    <tag k="name_generic" v=""/>
    <tag k="name_short" v=""/>
    <tag k="name_sort" v="FAZLOVICI"/>
    <tag k="place" v="hamlet"/>
  </node>
  <node id="448706964" version="2" timestamp="2009-08-25T09:07:06Z" uid="18775" user="drlizau" changeset="2254017" lat="42.686667" lon="20.851111">
    <tag k="elevation" v=""/>
    <tag k="name" v="Fuša Mahala"/>
    <tag k="name_full_nd" v="Fuša Mahala"/>
    <tag k="name_generic" v=""/>
    <tag k="name_short" v=""/>
    <tag k="name_sort" v="FUSAMAHALA"/>
    <tag k="place" v="hamlet"/>
  </node>
  <node id="448707169" version="2" timestamp="2009-08-25T09:37:01Z" uid="18775" user="drlizau" changeset="2254250" lat="42.686944" lon="21.070278">
    <tag k="name" v="Обилић"/>
    <tag k="name_full_nd" v="Обилић"/>
    <tag k="name_generic" v=""/>
    <tag k="name_short" v=""/>
    <tag k="name_sort" v="ОБИЛИЋ"/>
    <tag k="place" v="hamlet"/>
  </node>
  <node id="448707172" version="2" timestamp="2009-08-25T09:37:02Z" uid="18775" user="drlizau" changeset="2254250" lat="42.686944" lon="21.070278">
    <tag k="name" v="Kastriot"/>
    <tag k="name_full_nd" v="Kastriot"/>
    <tag k="name_generic" v=""/>
    <tag k="name_short" v=""/>
    <tag k="name_sort" v="KASTRIOT"/>
    <tag k="place" v="hamlet"/>
  </node>
  <node id="448707174" version="2" timestamp="2009-08-25T09:37:02Z" uid="18775" user="drlizau" changeset="2254250" lat="42.686944" lon="21.070278">
    <tag k="name" v="Gllaboder"/>
    <tag k="name_full_nd" v="Gllaboder"/>
    <tag k="name_generic" v=""/>
    <tag k="name_short" v=""/>
    <tag k="name_sort" v="GLLABODER"/>
    <tag k="place" v="hamlet"/>
  </node>
  <node id="448707181" version="2" timestamp="2009-08-25T09:37:02Z" uid="18775" user="drlizau" changeset="2254250" lat="42.868056" lon="21.178889">
    <tag k="name" v="Vendenis"/>
    <tag k="name_full_nd" v="Vendenis"/>
    <tag k="name_generic" v=""/>
    <tag k="name_short" v=""/>
    <tag k="name_sort" v="VENDENIS"/>
    <tag k="place" v="hamlet"/>
  </node>
  <node id="448707324" version="2" timestamp="2009-08-25T09:37:04Z" uid="18775" user="drlizau" changeset="2254250" lat="42.707222" lon="20.861111">
    <tag k="name" v="Dashefc"/>
    <tag k="name_full_nd" v="Dashefc"/>
    <tag k="name_generic" v=""/>
    <tag k="name_short" v=""/>
    <tag k="name_sort" v="DASHEFC"/>
    <tag k="place" v="hamlet"/>
  </node>
  <node id="448707338" version="2" timestamp="2009-08-25T09:36:58Z" uid="18775" user="drlizau" changeset="2254250" lat="42.854167" lon="21.169444">
    <tag k="name" v="Kunusheci"/>
    <tag k="name_full_nd" v="Kunusheci"/>
    <tag k="name_generic" v=""/>
    <tag k="name_short" v=""/>
    <tag k="name_sort" v="KUNUSHECI"/>
    <tag k="place" v="hamlet"/>
  </node>
  <node id="448707339" version="3" timestamp="2009-08-25T09:36:58Z" uid="18775" user="drlizau" changeset="2254250" lat="42.915278" lon="20.991944">
    <tag k="altname" v="Gumnishte,Gumnishtë,Guvniste,Guvnište"/>
    <tag k="el" v=""/>
    <tag k="geonameid" v="790092"/>
    <tag k="gnadmin" v="00"/>
    <tag k="gnadmin2" v="Kosovo"/>
    <tag k="gnadmin3" v=""/>
    <tag k="gnadmin4" v=""/>
    <tag k="gnfeature" v="P"/>
    <tag k="gnfeaturec" v="PPL"/>
    <tag k="name" v="Gumnishtë"/>
    <tag k="name2" v="Gumnište"/>
    <tag k="name:sq" v="Gumnishtë"/>
    <tag k="name:sr" v="Gumnište"/>
    <tag k="name_full_nd" v="Gumnishtë"/>
    <tag k="name_full_nd:sq" v="Gumnishtë"/>
    <tag k="name_full_nd:sr" v="Gumnište"/>
    <tag k="name_generic" v=""/>
    <tag k="name_generic:sq" v=""/>
    <tag k="name_generic:sr" v=""/>
    <tag k="name_short" v=""/>
    <tag k="name_short:sq" v=""/>
    <tag k="name_short:sr" v=""/>
    <tag k="name_sort" v="GUMNISHTE"/>
    <tag k="name_sort:sq" v="GUMNISHTE"/>
    <tag k="name_sort:sr" v="GUMNISTE"/>
    <tag k="place" v="village"/>
    <tag k="pop" v="0"/>
  </node>
  <node id="448707347" version="2" timestamp="2009-08-25T09:36:57Z" uid="18775" user="drlizau" changeset="2254250" lat="42.913333" lon="21.011667">
    <tag k="name" v="Boshlan"/>
    <tag k="name_full_nd" v="Boshlan"/>
    <tag k="name_generic" v=""/>
    <tag k="name_short" v=""/>
    <tag k="name_sort" v="BOSHLAN"/>
    <tag k="place" v="hamlet"/>
  </node>
  <node id="448707349" version="2" timestamp="2009-08-25T09:36:57Z" uid="18775" user="drlizau" changeset="2254250" lat="42.913333" lon="21.011667">
    <tag k="name" v="Bošljane"/>
    <tag k="name_full_nd" v="Bošljane"/>
    <tag k="name_generic" v=""/>
    <tag k="name_short" v=""/>
    <tag k="name_sort" v="BOSLJANE"/>
    <tag k="place" v="hamlet"/>
  </node>
  <node id="448707353" version="2" timestamp="2009-08-25T09:36:58Z" uid="18775" user="drlizau" changeset="2254250" lat="42.800833" lon="21.075278">
    <tag k="name" v="Lluga"/>
    <tag k="name_full_nd" v="Lluga"/>
    <tag k="name_generic" v=""/>
    <tag k="name_short" v=""/>
    <tag k="name_sort" v="LLUGA"/>
    <tag k="place" v="hamlet"/>
  </node>
  <node id="448707359" version="3" timestamp="2009-08-25T09:36:57Z" uid="18775" user="drlizau" changeset="2254250" lat="42.874444" lon="20.786111">
    <tag k="altname" v="Koshtove,Koshtovë"/>
    <tag k="el" v=""/>
    <tag k="geonameid" v="789195"/>
    <tag k="gnadmin" v="00"/>
    <tag k="gnadmin2" v="Kosovo"/>
    <tag k="gnadmin3" v=""/>
    <tag k="gnadmin4" v=""/>
    <tag k="gnfeature" v="P"/>
    <tag k="gnfeaturec" v="PPL"/>
    <tag k="name" v="Koshtovë"/>
    <tag k="name2" v="Košutovo"/>
    <tag k="name:sq" v="Koshtovë"/>
    <tag k="name:sr" v="Košutovo"/>
    <tag k="name_full_nd" v="Koshtovë"/>
    <tag k="name_full_nd:sq" v="Koshtovë"/>
    <tag k="name_full_nd:sr" v="Košutovo"/>
    <tag k="name_generic" v=""/>
    <tag k="name_generic:sq" v=""/>
    <tag k="name_generic:sr" v=""/>
    <tag k="name_short" v=""/>
    <tag k="name_short:sq" v=""/>
    <tag k="name_short:sr" v=""/>
    <tag k="name_sort" v="KOSHTOVE"/>
    <tag k="name_sort:sq" v="KOSHTOVE"/>
    <tag k="name_sort:sr" v="KOSUTOVO"/>
    <tag k="place" v="village"/>
    <tag k="pop" v="0"/>
  </node>
  <node id="448707363" version="2" timestamp="2009-08-25T09:36:56Z" uid="18775" user="drlizau" changeset="2254250" lat="42.803056" lon="20.928889">
    <tag k="name" v="Bukosh"/>
    <tag k="name_full_nd" v="Bukosh"/>
    <tag k="name_generic" v=""/>
    <tag k="name_short" v=""/>
    <tag k="name_sort" v="BUKOSH"/>
    <tag k="place" v="hamlet"/>
  </node>
  <node id="448707365" version="2" timestamp="2009-08-25T09:36:56Z" uid="18775" user="drlizau" changeset="2254250" lat="42.803056" lon="20.928889">
    <tag k="name" v="Bukoš"/>
    <tag k="name_full_nd" v="Bukoš"/>
    <tag k="name_generic" v=""/>
    <tag k="name_short" v=""/>
    <tag k="name_sort" v="BUKOS"/>
    <tag k="place" v="hamlet"/>
  </node>
  <node id="448707367" version="2" timestamp="2009-08-25T09:36:56Z" uid="18775" user="drlizau" changeset="2254250" lat="42.809722" lon="20.799722">
    <tag k="name" v="Трнавце"/>
    <tag k="name_full_nd" v="Трнавце"/>
    <tag k="name_generic" v=""/>
    <tag k="name_short" v=""/>
    <tag k="name_sort" v="ТРНАВЦЕ"/>
    <tag k="place" v="hamlet"/>
  </node>
  <node id="448707373" version="2" timestamp="2009-08-25T09:36:56Z" uid="18775" user="drlizau" changeset="2254250" lat="42.733333" lon="20.733333">
    <tag k="name" v="Rakitnica"/>
    <tag k="name_full_nd" v="Rakitnica"/>
    <tag k="name_generic" v=""/>
    <tag k="name_short" v=""/>
    <tag k="name_sort" v="RAKITNICA"/>
    <tag k="place" v="hamlet"/>
  </node>
  <node id="448707382" version="2" timestamp="2009-08-25T09:36:56Z" uid="18775" user="drlizau" changeset="2254250" lat="42.833056" lon="20.986667">
    <tag k="name" v="Ново Село Бегово"/>
    <tag k="name_full_nd" v="Ново Село Бегово"/>
    <tag k="name_generic" v=""/>
    <tag k="name_short" v=""/>
    <tag k="name_sort" v="НОВОСЕЛОБЕГОВО"/>
    <tag k="place" v="hamlet"/>
  </node>
  <node id="448707386" version="2" timestamp="2009-08-25T09:36:56Z" uid="18775" user="drlizau" changeset="2254250" lat="42.784722" lon="20.779167">
    <tag k="name" v="Klinë e Mesme"/>
    <tag k="name_full_nd" v="Klinë e Mesme"/>
    <tag k="name_generic" v=""/>
    <tag k="name_short" v=""/>
    <tag k="name_sort" v="KLINEEMESME"/>
    <tag k="place" v="hamlet"/>
  </node>
  <node id="448707475" version="2" timestamp="2009-08-25T09:37:01Z" uid="18775" user="drlizau" changeset="2254250" lat="42.789167" lon="20.953889">
    <tag k="name" v="Navalan"/>
    <tag k="name_full_nd" v="Navalan"/>
    <tag k="name_generic" v=""/>
    <tag k="name_short" v=""/>
    <tag k="name_sort" v="NAVALAN"/>
    <tag k="place" v="hamlet"/>
  </node>
  <node id="448707477" version="2" timestamp="2009-08-25T09:37:01Z" uid="18775" user="drlizau" changeset="2254250" lat="42.789167" lon="20.953889">
    <tag k="name" v="Невољане"/>
    <tag k="name_full_nd" v="Невољане"/>
    <tag k="name_generic" v=""/>
    <tag k="name_short" v=""/>
    <tag k="name_sort" v="НЕВОЉАНЕ"/>
    <tag k="place" v="hamlet"/>
  </node>
  <node id="448707482" version="2" timestamp="2009-08-25T09:37:00Z" uid="18775" user="drlizau" changeset="2254250" lat="42.775278" lon="20.968889">
    <tag k="name" v="Ресник"/>
    <tag k="name_full_nd" v="Ресник"/>
    <tag k="name_generic" v=""/>
    <tag k="name_short" v=""/>
    <tag k="name_sort" v="РЕСНИК"/>
    <tag k="place" v="hamlet"/>
  </node>
  <node id="448707485" version="2" timestamp="2009-08-25T09:37:00Z" uid="18775" user="drlizau" changeset="2254250" lat="42.826111" lon="20.931944">
    <tag k="name" v="Shtitatricë"/>
    <tag k="name_full_nd" v="Shtitatricë"/>
    <tag k="name_generic" v=""/>
    <tag k="name_short" v=""/>
    <tag k="name_sort" v="SHTITATRICE"/>
    <tag k="place" v="hamlet"/>
  </node>
  <node id="448707488" version="2" timestamp="2009-08-25T09:37:00Z" uid="18775" user="drlizau" changeset="2254250" lat="42.874444" lon="21.051667">
    <tag k="name" v="Sllakovce"/>
    <tag k="name_full_nd" v="Sllakovce"/>
    <tag k="name_generic" v=""/>
    <tag k="name_short" v=""/>
    <tag k="name_sort" v="SLLAKOVCE"/>
    <tag k="place" v="hamlet"/>
  </node>
  <node id="448707491" version="2" timestamp="2009-08-25T09:37:00Z" uid="18775" user="drlizau" changeset="2254250" lat="42.874444" lon="21.051667">
    <tag k="name" v="Слаковце"/>
    <tag k="name_full_nd" v="Слаковце"/>
    <tag k="name_generic" v=""/>
    <tag k="name_short" v=""/>
    <tag k="name_sort" v="СЛАКОВЦЕ"/>
    <tag k="place" v="hamlet"/>
  </node>
  <node id="448707493" version="2" timestamp="2009-08-25T09:37:00Z" uid="18775" user="drlizau" changeset="2254250" lat="42.874444" lon="21.051667">
    <tag k="name" v="Slakovce"/>
    <tag k="name_full_nd" v="Slakovce"/>
    <tag k="name_generic" v=""/>
    <tag k="name_short" v=""/>
    <tag k="name_sort" v="SLAKOVCE"/>
    <tag k="place" v="hamlet"/>
  </node>
  <node id="448707496" version="2" timestamp="2009-08-25T09:37:00Z" uid="18775" user="drlizau" changeset="2254250" lat="42.915278" lon="21.036111">
    <tag k="name" v="Kurillovë"/>
    <tag k="name_full_nd" v="Kurillovë"/>
    <tag k="name_generic" v=""/>
    <tag k="name_short" v=""/>
    <tag k="name_sort" v="KURILLOVE"/>
    <tag k="place" v="hamlet"/>
  </node>
  <node id="448707498" version="2" timestamp="2009-08-25T09:37:00Z" uid="18775" user="drlizau" changeset="2254250" lat="42.73" lon="20.905833">
    <tag k="name" v="Kozhicë"/>
    <tag k="name_full_nd" v="Kozhicë"/>
    <tag k="name_generic" v=""/>
    <tag k="name_short" v=""/>
    <tag k="name_sort" v="KOZHICE"/>
    <tag k="place" v="hamlet"/>
  </node>
  <node id="448707502" version="2" timestamp="2009-08-25T09:36:59Z" uid="18775" user="drlizau" changeset="2254250" lat="42.712222" lon="20.834722">
    <tag k="name" v="Ново Пољанце"/>
    <tag k="name_full_nd" v="Ново Пољанце"/>
    <tag k="name_generic" v=""/>
    <tag k="name_short" v=""/>
    <tag k="name_sort" v="НОВОПОЉАНЦЕ"/>
    <tag k="place" v="hamlet"/>
  </node>
  <node id="448707533" version="2" timestamp="2009-08-25T09:36:59Z" uid="18775" user="drlizau" changeset="2254250" lat="42.760833" lon="20.790278">
    <tag k="name" v="Доња Клина"/>
    <tag k="name_full_nd" v="Доња Клина"/>
    <tag k="name_generic" v=""/>
    <tag k="name_short" v=""/>
    <tag k="name_sort" v="ДОЊАКЛИНА"/>
    <tag k="place" v="hamlet"/>
  </node>
  <node id="448707642" version="2" timestamp="2009-08-25T09:36:34Z" uid="18775" user="drlizau" changeset="2254250" lat="42.780278" lon="21.046667">
    <tag k="name" v="Dumnica e Ultë"/>
    <tag k="name_full_nd" v="Dumnica e Ultë"/>
    <tag k="name_generic" v=""/>
    <tag k="name_short" v=""/>
    <tag k="name_sort" v="DUMNICAEULTE"/>
    <tag k="place" v="hamlet"/>
  </node>
  <node id="448707651" version="2" timestamp="2009-08-25T09:36:34Z" uid="18775" user="drlizau" changeset="2254250" lat="42.796111" lon="21.029722">
    <tag k="name" v="Виљанце"/>
    <tag k="name_full_nd" v="Виљанце"/>
    <tag k="name_generic" v=""/>
    <tag k="name_short" v=""/>
    <tag k="name_sort" v="ВИЉАНЦЕ"/>
    <tag k="place" v="hamlet"/>
  </node>
  <node id="448707678" version="2" timestamp="2009-08-25T09:36:34Z" uid="18775" user="drlizau" changeset="2254250" lat="42.790833" lon="20.903611">
    <tag k="name" v="Taraxhë"/>
    <tag k="name_full_nd" v="Taraxhë"/>
    <tag k="name_generic" v=""/>
    <tag k="name_short" v=""/>
    <tag k="name_sort" v="TARAXHE"/>
    <tag k="place" v="hamlet"/>
  </node>
  <node id="448707681" version="2" timestamp="2009-08-25T09:36:35Z" uid="18775" user="drlizau" changeset="2254250" lat="42.713611" lon="20.980278">
    <tag k="name" v="Strovce"/>
    <tag k="name_full_nd" v="Strovce"/>
    <tag k="name_generic" v=""/>
    <tag k="name_short" v=""/>
    <tag k="name_sort" v="STROVCE"/>
    <tag k="place" v="hamlet"/>
  </node>
  <node id="448707683" version="2" timestamp="2009-08-25T09:36:35Z" uid="18775" user="drlizau" changeset="2254250" lat="42.713611" lon="20.980278">
    <tag k="name" v="Strovc"/>
    <tag k="name_full_nd" v="Strovc"/>
    <tag k="name_generic" v=""/>
    <tag k="name_short" v=""/>
    <tag k="name_sort" v="STROVC"/>
    <tag k="place" v="hamlet"/>
  </node>
  <node id="448707685" version="2" timestamp="2009-08-25T09:36:35Z" uid="18775" user="drlizau" changeset="2254250" lat="42.713611" lon="20.980278">
    <tag k="name" v="Strofc"/>
    <tag k="name_full_nd" v="Strofc"/>
    <tag k="name_generic" v=""/>
    <tag k="name_short" v=""/>
    <tag k="name_sort" v="STROFC"/>
    <tag k="place" v="hamlet"/>
  </node>
  <node id="448707688" version="2" timestamp="2009-08-25T09:36:35Z" uid="18775" user="drlizau" changeset="2254250" lat="42.713611" lon="20.980278">
    <tag k="name" v="Стровце"/>
    <tag k="name_full_nd" v="Стровце"/>
    <tag k="name_generic" v=""/>
    <tag k="name_short" v=""/>
    <tag k="name_sort" v="СТРОВЦЕ"/>
    <tag k="place" v="hamlet"/>
  </node>
  <node id="448707694" version="2" timestamp="2009-08-25T09:36:34Z" uid="18775" user="drlizau" changeset="2254250" lat="42.758611" lon="21.042778">
    <tag k="name" v="Statofc i Epërm"/>
    <tag k="name_full_nd" v="Statofc i Epërm"/>
    <tag k="name_generic" v=""/>
    <tag k="name_short" v=""/>
    <tag k="name_sort" v="STATOFCIEPERM"/>
    <tag k="place" v="hamlet"/>
  </node>
  <node id="448707834" version="2" timestamp="2009-08-25T09:36:37Z" uid="18775" user="drlizau" changeset="2254250" lat="42.741667" lon="20.761111">
    <tag k="name" v="Lauša"/>
    <tag k="name_full_nd" v="Lauša"/>
    <tag k="name_generic" v=""/>
    <tag k="name_short" v=""/>
    <tag k="name_sort" v="LAUSA"/>
    <tag k="place" v="hamlet"/>
  </node>
  <node id="448707837" version="2" timestamp="2009-08-25T09:36:37Z" uid="18775" user="drlizau" changeset="2254250" lat="42.741667" lon="20.761111">
    <tag k="name" v="Llaushë"/>
    <tag k="name_full_nd" v="Llaushë"/>
    <tag k="name_generic" v=""/>
    <tag k="name_short" v=""/>
    <tag k="name_sort" v="LLAUSHE"/>
    <tag k="place" v="hamlet"/>
  </node>
  <node id="448707881" version="2" timestamp="2009-08-25T09:36:29Z" uid="18775" user="drlizau" changeset="2254250" lat="42.8875" lon="21.173333">
    <tag k="name" v="Llapashticë e Poshtme"/>
    <tag k="name_full_nd" v="Llapashticë e Poshtme"/>
    <tag k="name_generic" v=""/>
    <tag k="name_short" v=""/>
    <tag k="name_sort" v="LLAPASHTICEEPOSHTME"/>
    <tag k="place" v="hamlet"/>
  </node>
  <node id="448707925" version="2" timestamp="2009-08-25T09:36:29Z" uid="18775" user="drlizau" changeset="2254250" lat="42.785" lon="21.020278">
    <tag k="name" v="Novosellë e Magjunit"/>
    <tag k="name_full_nd" v="Novosellë e Magjunit"/>
    <tag k="name_generic" v=""/>
    <tag k="name_short" v=""/>
    <tag k="name_sort" v="NOVOSELLEEMAGJUNIT"/>
    <tag k="place" v="hamlet"/>
  </node>
  <node id="448708075" version="2" timestamp="2009-08-25T09:36:32Z" uid="18775" user="drlizau" changeset="2254250" lat="42.842778" lon="21.2">
    <tag k="name" v="Siboci i Poshtëm"/>
    <tag k="name_full_nd" v="Siboci i Poshtëm"/>
    <tag k="name_generic" v=""/>
    <tag k="name_short" v=""/>
    <tag k="name_sort" v="SIBOCIIPOSHTEM"/>
    <tag k="place" v="hamlet"/>
  </node>
  <node id="448708136" version="2" timestamp="2009-08-25T09:36:46Z" uid="18775" user="drlizau" changeset="2254250" lat="42.9175" lon="21.123056">
    <tag k="name" v="Katunishtë"/>
    <tag k="name_full_nd" v="Katunishtë"/>
    <tag k="name_generic" v=""/>
    <tag k="name_short" v=""/>
    <tag k="name_sort" v="KATUNISHTE"/>
    <tag k="place" v="hamlet"/>
  </node>
  <node id="448708157" version="2" timestamp="2009-08-25T09:36:46Z" uid="18775" user="drlizau" changeset="2254250" lat="42.833611" lon="21.1575">
    <tag k="name" v="Godišnjak"/>
    <tag k="name_full_nd" v="Godišnjak"/>
    <tag k="name_generic" v=""/>
    <tag k="name_short" v=""/>
    <tag k="name_sort" v="GODISNJAK"/>
    <tag k="place" v="hamlet"/>
  </node>
  <node id="448708202" version="3" timestamp="2009-08-25T09:36:46Z" uid="18775" user="drlizau" changeset="2254250" lat="42.926944" lon="20.810556">
    <tag k="KADASTRA" v="Zveçan"/>
    <tag k="altname" v="Dolan,Doljani"/>
    <tag k="el" v=""/>
    <tag k="geonameid" v="791377"/>
    <tag k="gnadmin" v="00"/>
    <tag k="gnadmin2" v="Kosovo"/>
    <tag k="gnadmin3" v=""/>
    <tag k="gnadmin4" v=""/>
    <tag k="gnfeature" v="P"/>
    <tag k="gnfeaturec" v="PPL"/>
    <tag k="name" v="Dolan"/>
    <tag k="name2" v="Doljane"/>
    <tag k="name:sq" v="Dolan"/>
    <tag k="name:sr" v="Doljane"/>
    <tag k="name_full_nd" v="Dolan"/>
    <tag k="name_full_nd:sq" v="Dolan"/>
    <tag k="name_full_nd:sr" v="Doljane"/>
    <tag k="name_generic" v=""/>
    <tag k="name_generic:sq" v=""/>
    <tag k="name_generic:sr" v=""/>
    <tag k="name_short" v=""/>
    <tag k="name_short:sq" v=""/>
    <tag k="name_short:sr" v=""/>
    <tag k="name_sort" v="DOLAN"/>
    <tag k="name_sort:sq" v="DOLAN"/>
    <tag k="name_sort:sr" v="DOLJANE"/>
    <tag k="place" v="village"/>
    <tag k="pop" v="0"/>
  </node>
  <node id="448708255" version="2" timestamp="2009-08-25T09:36:48Z" uid="18775" user="drlizau" changeset="2254250" lat="42.831944" lon="20.732778">
    <tag k="name" v="Kërligatë"/>
    <tag k="name_full_nd" v="Kërligatë"/>
    <tag k="name_generic" v=""/>
    <tag k="name_short" v=""/>
    <tag k="name_sort" v="KERLIGATE"/>
    <tag k="place" v="hamlet"/>
  </node>
  <node id="448708257" version="2" timestamp="2009-08-25T09:36:47Z" uid="18775" user="drlizau" changeset="2254250" lat="42.831944" lon="20.732778">
    <tag k="name" v="Krljigate"/>
    <tag k="name_full_nd" v="Krljigate"/>
    <tag k="name_generic" v=""/>
    <tag k="name_short" v=""/>
    <tag k="name_sort" v="KRLJIGATE"/>
    <tag k="place" v="hamlet"/>
  </node>
  <node id="448708649" version="2" timestamp="2009-08-25T09:34:58Z" uid="18775" user="drlizau" changeset="2254250" lat="42.910556" lon="21.193056">
    <tag k="name" v="Podujevë"/>
    <tag k="name_full_nd" v="Podujevë"/>
    <tag k="name_generic" v=""/>
    <tag k="name_short" v=""/>
    <tag k="name_sort" v="PODUJEVE"/>
    <tag k="place" v="hamlet"/>
  </node>
  <node id="448708790" version="2" timestamp="2009-08-25T09:35:02Z" uid="18775" user="drlizau" changeset="2254250" lat="42.842778" lon="21.151667">
    <tag k="name" v="Penduh"/>
    <tag k="name_full_nd" v="Penduh"/>
    <tag k="name_generic" v=""/>
    <tag k="name_short" v=""/>
    <tag k="name_sort" v="PENDUH"/>
    <tag k="place" v="hamlet"/>
  </node>
  <node id="448708822" version="2" timestamp="2009-08-25T09:17:49Z" uid="18775" user="drlizau" changeset="2254105" lat="42.686667" lon="20.780556">
    <tag k="elevation" v=""/>
    <tag k="name" v="Kodres Mahala"/>
    <tag k="name:sr" v="Kodres Mahala"/>
    <tag k="name_full_nd" v="Kodres Mahala"/>
    <tag k="name_full_nd:sr" v="Kodres Mahala"/>
    <tag k="name_generic" v=""/>
    <tag k="name_short" v=""/>
    <tag k="name_sort" v="KODRESMAHALA"/>
    <tag k="name_sort:sr" v="KODRESMAHALA"/>
    <tag k="place" v="hamlet"/>
  </node>
  <node id="448708822" version="3" timestamp="2009-08-25T09:35:04Z" uid="18775" user="drlizau" changeset="2254250" lat="42.686667" lon="20.780556">
    <tag k="name" v="Kodres Mahala"/>
    <tag k="name:sr" v="Kodres Mahala"/>
    <tag k="name_full_nd" v="Kodres Mahala"/>
    <tag k="name_full_nd:sr" v="Kodres Mahala"/>
    <tag k="name_generic" v=""/>
    <tag k="name_short" v=""/>
    <tag k="name_sort" v="KODRESMAHALA"/>
    <tag k="name_sort:sr" v="KODRESMAHALA"/>
    <tag k="place" v="hamlet"/>
  </node>
  <node id="448708825" version="3" timestamp="2009-08-25T09:35:04Z" uid="18775" user="drlizau" changeset="2254250" lat="43.051667" lon="20.810556">
    <tag k="altname" v="Socanica,Sočanica,Stanica Socanica,Stanica Sočanica"/>
    <tag k="el" v=""/>
    <tag k="geonameid" v="830994"/>
    <tag k="gnadmin" v="00"/>
    <tag k="gnadmin2" v="Kosovo"/>
    <tag k="gnfeature" v="S"/>
    <tag k="gnfeaturec" v="RSTN"/>
    <tag k="name" v="Sočanica"/>
    <tag k="name2" v="Železnička Stanica Sočanica"/>
    <tag k="name:sr" v="Železnička Stanica Sočanica"/>
    <tag k="name_full_nd" v="Sočanica"/>
    <tag k="name_full_nd:sr" v="Železnička Stanica Sočanica"/>
    <tag k="name_generic" v="Železnička Stanica"/>
    <tag k="name_generic:sr" v="Železnička Stanica"/>
    <tag k="name_short" v="Sočanica"/>
    <tag k="name_short:sr" v="Sočanica"/>
    <tag k="name_sort" v="SOCANICA"/>
    <tag k="name_sort:sr" v="ZELEZNICKASTANICASOCANICA"/>
    <tag k="place" v="hamlet"/>
    <tag k="pop" v="0"/>
    <tag k="railway" v="station"/>
  </node>
  <node id="448708833" version="8" timestamp="2009-08-25T08:02:06Z" uid="18775" user="drlizau" changeset="2253357" lat="42.658056" lon="21.149444">
    <tag k="geonameid" v="832770"/>
    <tag k="gnadmin" v="00"/>
    <tag k="gnadmin2" v="Kosovo"/>
    <tag k="gnfeature" v="S"/>
    <tag k="gnfeaturec" v="RSTN"/>
    <tag k="name" v="Stanica Pristina"/>
    <tag k="name:en:alt" v="Stanica Priština"/>
    <tag k="name_full_nd" v="Stanica Priština"/>
    <tag k="name_generic" v="Stanica"/>
    <tag k="name_sort" v="STANICAPRISTINA"/>
    <tag k="railway" v="station"/>
  </node>
  <node id="448708833" version="9" timestamp="2009-12-11T14:48:39Z" uid="136042" user="Gent" changeset="3349436" lat="42.658056" lon="21.149444">
    <tag k="geonameid" v="832770"/>
    <tag k="gnadmin" v="00"/>
    <tag k="gnadmin2" v="Kosovo"/>
    <tag k="gnfeature" v="S"/>
    <tag k="gnfeaturec" v="RSTN"/>
    <tag k="name" v="Prishtina Railway"/>
    <tag k="name:en:alt" v="Prishtina Railway"/>
    <tag k="name_full_nd" v="Prishtina Railway"/>
    <tag k="name_generic" v="Prishtina Railway"/>
    <tag k="name_sort" v="Prishtina Railway"/>
    <tag k="railway" v="Prishtina Railway"/>
  </node>
  <node id="448708869" version="2" timestamp="2009-08-25T09:35:06Z" uid="18775" user="drlizau" changeset="2254250" lat="42.755" lon="21.119167">
    <tag k="name" v="Бариљево"/>
    <tag k="name_full_nd" v="Бариљево"/>
    <tag k="name_generic" v=""/>
    <tag k="name_short" v=""/>
    <tag k="name_sort" v="БАРИЉЕВО"/>
    <tag k="place" v="hamlet"/>
  </node>
  <node id="448708878" version="2" timestamp="2009-08-25T09:35:06Z" uid="18775" user="drlizau" changeset="2254250" lat="42.713611" lon="21.149722">
    <tag k="name" v="Gornja Brnjica"/>
    <tag k="name_full_nd" v="Gornja Brnjica"/>
    <tag k="name_generic" v=""/>
    <tag k="name_short" v=""/>
    <tag k="name_sort" v="GORNJABRNJICA"/>
    <tag k="place" v="hamlet"/>
  </node>
  <node id="448708913" version="2" timestamp="2009-08-25T09:35:05Z" uid="18775" user="drlizau" changeset="2254250" lat="42.8" lon="20.983333">
    <tag k="name" v="Vučitrn"/>
    <tag k="name_full_nd" v="Vučitrn"/>
    <tag k="name_generic" v=""/>
    <tag k="name_short" v=""/>
    <tag k="name_sort" v="VUCITRN"/>
    <tag k="place" v="hamlet"/>
  </node>
  <node id="448708919" version="2" timestamp="2009-08-25T09:35:05Z" uid="18775" user="drlizau" changeset="2254250" lat="42.788333" lon="20.967778">
    <tag k="name" v="Vërnicë"/>
    <tag k="name_full_nd" v="Vërnicë"/>
    <tag k="name_generic" v=""/>
    <tag k="name_short" v=""/>
    <tag k="name_sort" v="VERNICE"/>
    <tag k="place" v="hamlet"/>
  </node>
  <node id="448708925" version="2" timestamp="2009-08-25T09:35:06Z" uid="18775" user="drlizau" changeset="2254250" lat="42.866111" lon="21.030556">
    <tag k="name" v="Skočina"/>
    <tag k="name_full_nd" v="Skočina"/>
    <tag k="name_generic" v=""/>
    <tag k="name_short" v=""/>
    <tag k="name_sort" v="SKOCINA"/>
    <tag k="place" v="hamlet"/>
  </node>
  <node id="448708931" version="2" timestamp="2009-08-25T09:17:50Z" uid="18775" user="drlizau" changeset="2254105" lat="42.731111" lon="20.855278">
    <tag k="elevation" v=""/>
    <tag k="name" v="Kraljica"/>
    <tag k="name:sr" v="Kraljica"/>
    <tag k="name_full_nd" v="Kraljica"/>
    <tag k="name_full_nd:sr" v="Kraljica"/>
    <tag k="name_generic" v=""/>
    <tag k="name_short" v=""/>
    <tag k="name_sort" v="KRALJICA"/>
    <tag k="name_sort:sr" v="KRALJICA"/>
    <tag k="place" v="hamlet"/>
  </node>
  <node id="448708931" version="3" timestamp="2009-08-25T09:35:07Z" uid="18775" user="drlizau" changeset="2254250" lat="42.731111" lon="20.855278">
    <tag k="name" v="Kraljica"/>
    <tag k="name:sr" v="Kraljica"/>
    <tag k="name_full_nd" v="Kraljica"/>
    <tag k="name_full_nd:sr" v="Kraljica"/>
    <tag k="name_generic" v=""/>
    <tag k="name_short" v=""/>
    <tag k="name_sort" v="KRALJICA"/>
    <tag k="name_sort:sr" v="KRALJICA"/>
    <tag k="place" v="hamlet"/>
  </node>
  <node id="448708935" version="2" timestamp="2009-08-25T09:35:07Z" uid="18775" user="drlizau" changeset="2254250" lat="42.866111" lon="21.030556">
    <tag k="name" v="Skocan"/>
    <tag k="name_full_nd" v="Skocan"/>
    <tag k="name_generic" v=""/>
    <tag k="name_short" v=""/>
    <tag k="name_sort" v="SKOCAN"/>
    <tag k="place" v="hamlet"/>
  </node>
  <node id="448708949" version="2" timestamp="2009-08-25T09:17:51Z" uid="18775" user="drlizau" changeset="2254105" lat="42.71" lon="20.751667">
    <tag k="elevation" v=""/>
    <tag k="name" v="Ludović"/>
    <tag k="name:sr" v="Ludović"/>
    <tag k="name_full_nd" v="Ludović"/>
    <tag k="name_full_nd:sr" v="Ludović"/>
    <tag k="name_generic" v=""/>
    <tag k="name_short" v=""/>
    <tag k="name_sort" v="LUDOVIC"/>
    <tag k="name_sort:sr" v="LUDOVIC"/>
    <tag k="place" v="hamlet"/>
  </node>
  <node id="448708949" version="3" timestamp="2009-08-25T09:35:07Z" uid="18775" user="drlizau" changeset="2254250" lat="42.71" lon="20.751667">
    <tag k="name" v="Ludović"/>
    <tag k="name:sr" v="Ludović"/>
    <tag k="name_full_nd" v="Ludović"/>
    <tag k="name_full_nd:sr" v="Ludović"/>
    <tag k="name_generic" v=""/>
    <tag k="name_short" v=""/>
    <tag k="name_sort" v="LUDOVIC"/>
    <tag k="name_sort:sr" v="LUDOVIC"/>
    <tag k="place" v="hamlet"/>
  </node>
  <node id="448708953" version="2" timestamp="2009-08-25T09:17:51Z" uid="18775" user="drlizau" changeset="2254105" lat="42.716944" lon="20.731667">
    <tag k="elevation" v=""/>
    <tag k="name" v="Raponja Rakitnica"/>
    <tag k="name:sr" v="Raponja Rakitnica"/>
    <tag k="name_full_nd" v="Raponja Rakitnica"/>
    <tag k="name_full_nd:sr" v="Raponja Rakitnica"/>
    <tag k="name_generic" v=""/>
    <tag k="name_short" v=""/>
    <tag k="name_sort" v="RAPONJARAKITNICA"/>
    <tag k="name_sort:sr" v="RAPONJARAKITNICA"/>
    <tag k="place" v="hamlet"/>
  </node>
  <node id="448708953" version="3" timestamp="2009-08-25T09:35:07Z" uid="18775" user="drlizau" changeset="2254250" lat="42.716944" lon="20.731667">
    <tag k="name" v="Raponja Rakitnica"/>
    <tag k="name:sr" v="Raponja Rakitnica"/>
    <tag k="name_full_nd" v="Raponja Rakitnica"/>
    <tag k="name_full_nd:sr" v="Raponja Rakitnica"/>
    <tag k="name_generic" v=""/>
    <tag k="name_short" v=""/>
    <tag k="name_sort" v="RAPONJARAKITNICA"/>
    <tag k="name_sort:sr" v="RAPONJARAKITNICA"/>
    <tag k="place" v="hamlet"/>
  </node>
  <node id="448708995" version="2" timestamp="2009-08-25T09:35:08Z" uid="18775" user="drlizau" changeset="2254250" lat="42.787778" lon="21.171111">
    <tag k="name" v="Teneshdoll"/>
    <tag k="name_full_nd" v="Teneshdoll"/>
    <tag k="name_generic" v=""/>
    <tag k="name_short" v=""/>
    <tag k="name_sort" v="TENESHDOLL"/>
    <tag k="place" v="hamlet"/>
  </node>
  <node id="448708998" version="2" timestamp="2009-08-25T09:35:08Z" uid="18775" user="drlizau" changeset="2254250" lat="42.842778" lon="21.151667">
    <tag k="name" v="Penduha"/>
    <tag k="name_full_nd" v="Penduha"/>
    <tag k="name_generic" v=""/>
    <tag k="name_short" v=""/>
    <tag k="name_sort" v="PENDUHA"/>
    <tag k="place" v="hamlet"/>
  </node>
  <node id="448709000" version="2" timestamp="2009-08-25T09:35:08Z" uid="18775" user="drlizau" changeset="2254250" lat="42.842778" lon="21.151667">
    <tag k="name" v="Penuha"/>
    <tag k="name_full_nd" v="Penuha"/>
    <tag k="name_generic" v=""/>
    <tag k="name_short" v=""/>
    <tag k="name_sort" v="PENUHA"/>
    <tag k="place" v="hamlet"/>
  </node>
  <node id="448709036" version="2" timestamp="2009-08-25T09:35:08Z" uid="18775" user="drlizau" changeset="2254250" lat="42.905833" lon="20.749167">
    <tag k="name" v="Prelez"/>
    <tag k="name_full_nd" v="Prelez"/>
    <tag k="name_generic" v=""/>
    <tag k="name_short" v=""/>
    <tag k="name_sort" v="PRELEZ"/>
    <tag k="place" v="hamlet"/>
  </node>
  <node id="448709070" version="7" timestamp="2009-08-25T09:17:52Z" uid="18775" user="drlizau" changeset="2254105" lat="42.734167" lon="21.025556">
    <tag k="geonameid" v="832780"/>
    <tag k="gnadmin" v="00"/>
    <tag k="gnadmin2" v="Kosovo"/>
    <tag k="gnfeature" v="S"/>
    <tag k="gnfeaturec" v="RSTN"/>
    <tag k="name" v="Stanica Priluzje"/>
    <tag k="name2" v="Stanica Prilužje"/>
    <tag k="name:sr" v="Stanica Prilužje"/>
    <tag k="name_full_nd" v="Stanica Prilužje"/>
    <tag k="name_full_nd:sr" v="Stanica Prilužje"/>
    <tag k="name_generic" v="Stanica"/>
    <tag k="name_generic:sr" v="Stanica"/>
    <tag k="name_sort" v="STANICAPRILUZJE"/>
    <tag k="name_sort:sr" v="STANICAPRILUZJE"/>
    <tag k="railway" v="station"/>
  </node>
  <node id="448709090" version="2" timestamp="2009-08-25T09:35:09Z" uid="18775" user="drlizau" changeset="2254250" lat="42.859722" lon="20.9975">
    <tag k="name" v="Мироче"/>
    <tag k="name_full_nd" v="Мироче"/>
    <tag k="name_generic" v=""/>
    <tag k="name_short" v=""/>
    <tag k="name_sort" v="МИРОЧЕ"/>
    <tag k="place" v="hamlet"/>
  </node>
  <node id="448709092" version="2" timestamp="2009-08-25T09:17:51Z" uid="18775" user="drlizau" changeset="2254105" lat="42.713333" lon="20.903333">
    <tag k="elevation" v=""/>
    <tag k="name" v="Haljtović"/>
    <tag k="name:sr" v="Haljtović"/>
    <tag k="name_full_nd" v="Haljtović"/>
    <tag k="name_full_nd:sr" v="Haljtović"/>
    <tag k="name_generic" v=""/>
    <tag k="name_short" v=""/>
    <tag k="name_sort" v="HALJTOVIC"/>
    <tag k="name_sort:sr" v="HALJTOVIC"/>
    <tag k="place" v="hamlet"/>
  </node>
  <node id="448709092" version="3" timestamp="2009-08-25T09:35:09Z" uid="18775" user="drlizau" changeset="2254250" lat="42.713333" lon="20.903333">
    <tag k="name" v="Haljtović"/>
    <tag k="name:sr" v="Haljtović"/>
    <tag k="name_full_nd" v="Haljtović"/>
    <tag k="name_full_nd:sr" v="Haljtović"/>
    <tag k="name_generic" v=""/>
    <tag k="name_short" v=""/>
    <tag k="name_sort" v="HALJTOVIC"/>
    <tag k="name_sort:sr" v="HALJTOVIC"/>
    <tag k="place" v="hamlet"/>
  </node>
  <node id="448709271" version="2" timestamp="2009-08-25T09:17:45Z" uid="18775" user="drlizau" changeset="2254105" lat="42.778333" lon="20.788056">
    <tag k="elevation" v=""/>
    <tag k="name" v="Klinsko Polje"/>
    <tag k="name:sr" v="Klinsko Polje"/>
    <tag k="name_full_nd" v="Klinsko Polje"/>
    <tag k="name_full_nd:sr" v="Klinsko Polje"/>
    <tag k="name_generic" v=""/>
    <tag k="name_short" v=""/>
    <tag k="name_sort" v="KLINSKOPOLJE"/>
    <tag k="name_sort:sr" v="KLINSKOPOLJE"/>
    <tag k="place" v="hamlet"/>
  </node>
  <node id="448709271" version="3" timestamp="2009-08-25T09:34:49Z" uid="18775" user="drlizau" changeset="2254250" lat="42.778333" lon="20.788056">
    <tag k="name" v="Klinsko Polje"/>
    <tag k="name:sr" v="Klinsko Polje"/>
    <tag k="name_full_nd" v="Klinsko Polje"/>
    <tag k="name_full_nd:sr" v="Klinsko Polje"/>
    <tag k="name_generic" v=""/>
    <tag k="name_short" v=""/>
    <tag k="name_sort" v="KLINSKOPOLJE"/>
    <tag k="name_sort:sr" v="KLINSKOPOLJE"/>
    <tag k="place" v="hamlet"/>
  </node>
  <node id="448709301" version="2" timestamp="2009-08-25T09:34:50Z" uid="18775" user="drlizau" changeset="2254250" lat="42.883333" lon="20.866667">
    <tag k="name" v="Kosovska Mitrovica"/>
    <tag k="name_full_nd" v="Kosovska Mitrovica"/>
    <tag k="name_generic" v=""/>
    <tag k="name_short" v=""/>
    <tag k="name_sort" v="KOSOVSKAMITROVICA"/>
    <tag k="place" v="hamlet"/>
  </node>
  <node id="448709303" version="2" timestamp="2009-08-25T09:34:51Z" uid="18775" user="drlizau" changeset="2254250" lat="42.883333" lon="20.866667">
    <tag k="name" v="Митровица"/>
    <tag k="name_full_nd" v="Митровица"/>
    <tag k="name_generic" v=""/>
    <tag k="name_short" v=""/>
    <tag k="name_sort" v="МИТРОВИЦА"/>
    <tag k="place" v="hamlet"/>
  </node>
  <node id="448709307" version="2" timestamp="2009-08-25T09:34:50Z" uid="18775" user="drlizau" changeset="2254250" lat="42.883333" lon="20.866667">
    <tag k="name" v="Mitrovica"/>
    <tag k="name_full_nd" v="Mitrovica"/>
    <tag k="name_generic" v=""/>
    <tag k="name_short" v=""/>
    <tag k="name_sort" v="MITROVICA"/>
    <tag k="place" v="hamlet"/>
  </node>
  <node id="448709346" version="2" timestamp="2009-08-25T09:34:53Z" uid="18775" user="drlizau" changeset="2254250" lat="42.8525" lon="21.190833">
    <tag k="name" v="Горњи Сибовац"/>
    <tag k="name_full_nd" v="Горњи Сибовац"/>
    <tag k="name_generic" v=""/>
    <tag k="name_short" v=""/>
    <tag k="name_sort" v="ГОРЊИСИБОВАЦ"/>
    <tag k="place" v="hamlet"/>
  </node>
  <node id="448709357" version="2" timestamp="2009-08-25T09:34:53Z" uid="18775" user="drlizau" changeset="2254250" lat="42.928056" lon="21.165833">
    <tag k="name" v="Peran"/>
    <tag k="name_full_nd" v="Peran"/>
    <tag k="name_generic" v=""/>
    <tag k="name_short" v=""/>
    <tag k="name_sort" v="PERAN"/>
    <tag k="place" v="hamlet"/>
  </node>
  <node id="448709610" version="2" timestamp="2009-08-25T09:17:48Z" uid="18775" user="drlizau" changeset="2254105" lat="42.818611" lon="20.846111">
    <tag k="elevation" v=""/>
    <tag k="name" v="Koleno"/>
    <tag k="name:sr" v="Koleno"/>
    <tag k="name_full_nd" v="Koleno"/>
    <tag k="name_full_nd:sr" v="Koleno"/>
    <tag k="name_generic" v=""/>
    <tag k="name_short" v=""/>
    <tag k="name_sort" v="KOLENO"/>
    <tag k="name_sort:sr" v="KOLENO"/>
    <tag k="place" v="hamlet"/>
  </node>
  <node id="448709610" version="3" timestamp="2009-08-25T09:34:57Z" uid="18775" user="drlizau" changeset="2254250" lat="42.818611" lon="20.846111">
    <tag k="name" v="Koleno"/>
    <tag k="name:sr" v="Koleno"/>
    <tag k="name_full_nd" v="Koleno"/>
    <tag k="name_full_nd:sr" v="Koleno"/>
    <tag k="name_generic" v=""/>
    <tag k="name_short" v=""/>
    <tag k="name_sort" v="KOLENO"/>
    <tag k="name_sort:sr" v="KOLENO"/>
    <tag k="place" v="hamlet"/>
  </node>
  <node id="448709672" version="2" timestamp="2009-08-25T09:18:38Z" uid="18775" user="drlizau" changeset="2254105" lat="42.814722" lon="21.116111">
    <tag k="elevation" v=""/>
    <tag k="name" v="Grdeč"/>
    <tag k="name_full_nd" v="Grdeč"/>
    <tag k="name_generic" v=""/>
    <tag k="name_short" v=""/>
    <tag k="name_sort" v="GRDEC"/>
    <tag k="place" v="hamlet"/>
  </node>
  <node id="448709674" version="2" timestamp="2009-08-25T09:18:38Z" uid="18775" user="drlizau" changeset="2254105" lat="42.789444" lon="21.128611">
    <tag k="elevation" v=""/>
    <tag k="name" v="Mašala"/>
    <tag k="name_full_nd" v="Mašala"/>
    <tag k="name_generic" v=""/>
    <tag k="name_short" v=""/>
    <tag k="name_sort" v="MASALA"/>
    <tag k="place" v="hamlet"/>
  </node>
  <node id="448709677" version="2" timestamp="2009-08-25T09:35:17Z" uid="18775" user="drlizau" changeset="2254250" lat="42.783333" lon="21.166667">
    <tag k="name" v="Kačandolska Reka"/>
    <tag k="name_full_nd" v="Kačandolska Reka"/>
    <tag k="name_generic" v=""/>
    <tag k="name_short" v=""/>
    <tag k="name_sort" v="KACANDOLSKAREKA"/>
    <tag k="place" v="hamlet"/>
  </node>
  <node id="448709680" version="2" timestamp="2009-08-25T09:18:38Z" uid="18775" user="drlizau" changeset="2254105" lat="42.819167" lon="20.956667">
    <tag k="elevation" v=""/>
    <tag k="name" v="Trstena"/>
    <tag k="name_full_nd" v="Trstena"/>
    <tag k="name_generic" v=""/>
    <tag k="name_short" v=""/>
    <tag k="name_sort" v="TRSTENA"/>
    <tag k="place" v="hamlet"/>
  </node>
  <node id="448709681" version="2" timestamp="2009-08-25T09:18:38Z" uid="18775" user="drlizau" changeset="2254105" lat="42.826111" lon="20.951111">
    <tag k="elevation" v=""/>
    <tag k="name" v="Prodanće"/>
    <tag k="name_full_nd" v="Prodanće"/>
    <tag k="name_generic" v=""/>
    <tag k="name_short" v=""/>
    <tag k="name_sort" v="PRODANCE"/>
    <tag k="place" v="hamlet"/>
  </node>
  <node id="448709686" version="2" timestamp="2009-08-25T09:17:56Z" uid="18775" user="drlizau" changeset="2254105" lat="42.9275" lon="20.958611">
    <tag k="el" v=""/>
    <tag k="elevation" v=""/>
    <tag k="name" v="Džidoma"/>
    <tag k="name:sr" v="Ðidova"/>
    <tag k="name_full_nd" v="Džidoma"/>
    <tag k="name_full_nd:sr" v="Ðidova"/>
    <tag k="name_generic" v=""/>
    <tag k="name_generic:sr" v=""/>
    <tag k="name_short" v=""/>
    <tag k="name_short:sr" v=""/>
    <tag k="name_sort" v="DZIDOMA"/>
    <tag k="name_sort:sr" v="DIDOVA"/>
    <tag k="place" v="hamlet"/>
  </node>
  <node id="448709686" version="3" timestamp="2009-08-25T09:35:17Z" uid="18775" user="drlizau" changeset="2254250" lat="42.9275" lon="20.958611">
    <tag k="el" v=""/>
    <tag k="name" v="Džidoma"/>
    <tag k="name:sr" v="Ðidova"/>
    <tag k="name_full_nd" v="Džidoma"/>
    <tag k="name_full_nd:sr" v="Ðidova"/>
    <tag k="name_generic" v=""/>
    <tag k="name_generic:sr" v=""/>
    <tag k="name_short" v=""/>
    <tag k="name_short:sr" v=""/>
    <tag k="name_sort" v="DZIDOMA"/>
    <tag k="name_sort:sr" v="DIDOVA"/>
    <tag k="place" v="hamlet"/>
  </node>
  <node id="448709695" version="2" timestamp="2009-08-25T09:35:17Z" uid="18775" user="drlizau" changeset="2254250" lat="42.914722" lon="21.093611">
    <tag k="name" v="Kodra Golma"/>
    <tag k="name_full_nd" v="Kodra Golma"/>
    <tag k="name_generic" v=""/>
    <tag k="name_short" v=""/>
    <tag k="name_sort" v="KODRAGOLMA"/>
    <tag k="place" v="hamlet"/>
  </node>
  <node id="448709697" version="2" timestamp="2009-08-25T09:35:17Z" uid="18775" user="drlizau" changeset="2254250" lat="42.914722" lon="21.093611">
    <tag k="name" v="Kodra e Golme"/>
    <tag k="name_full_nd" v="Kodra e Golme"/>
    <tag k="name_generic" v="Kodra"/>
    <tag k="name_short" v=""/>
    <tag k="name_sort" v="KODRAEGOLME"/>
    <tag k="place" v="hamlet"/>
  </node>
  <node id="448709699" version="2" timestamp="2009-08-25T09:18:38Z" uid="18775" user="drlizau" changeset="2254105" lat="42.895556" lon="21.0975">
    <tag k="elevation" v=""/>
    <tag k="name" v="Suka"/>
    <tag k="name_full_nd" v="Suka"/>
    <tag k="name_generic" v=""/>
    <tag k="name_short" v=""/>
    <tag k="name_sort" v="SUKA"/>
    <tag k="place" v="hamlet"/>
  </node>
  <node id="448709701" version="2" timestamp="2009-08-25T09:18:38Z" uid="18775" user="drlizau" changeset="2254105" lat="42.7425" lon="20.853611">
    <tag k="elevation" v=""/>
    <tag k="name" v="Kraljica"/>
    <tag k="name_full_nd" v="Kraljica"/>
    <tag k="name_generic" v=""/>
    <tag k="name_short" v=""/>
    <tag k="name_sort" v="KRALJICA"/>
    <tag k="place" v="hamlet"/>
  </node>
  <node id="448709710" version="2" timestamp="2009-08-25T09:35:17Z" uid="18775" user="drlizau" changeset="2254250" lat="42.75" lon="20.925278">
    <tag k="name" v="Čičanica"/>
    <tag k="name_full_nd" v="Čičanica"/>
    <tag k="name_generic" v=""/>
    <tag k="name_short" v=""/>
    <tag k="name_sort" v="CICANICA"/>
    <tag k="place" v="hamlet"/>
  </node>
  <node id="448709711" version="2" timestamp="2009-08-25T09:35:16Z" uid="18775" user="drlizau" changeset="2254250" lat="42.75" lon="20.925278">
    <tag k="name" v="Čičavica"/>
    <tag k="name_full_nd" v="Čičavica"/>
    <tag k="name_generic" v=""/>
    <tag k="name_short" v=""/>
    <tag k="name_sort" v="CICAVICA"/>
    <tag k="place" v="hamlet"/>
  </node>
  <node id="448709759" version="2" timestamp="2009-08-25T09:18:38Z" uid="18775" user="drlizau" changeset="2254105" lat="42.8675" lon="21.010556">
    <tag k="elevation" v=""/>
    <tag k="name" v="Bila"/>
    <tag k="name_full_nd" v="Bila"/>
    <tag k="name_generic" v=""/>
    <tag k="name_short" v=""/>
    <tag k="name_sort" v="BILA"/>
    <tag k="place" v="hamlet"/>
  </node>
  <node id="448709760" version="2" timestamp="2009-08-25T09:18:37Z" uid="18775" user="drlizau" changeset="2254105" lat="42.883889" lon="20.728611">
    <tag k="elevation" v=""/>
    <tag k="name" v="Nikolina Njiva"/>
    <tag k="name_full_nd" v="Nikolina Njiva"/>
    <tag k="name_generic" v=""/>
    <tag k="name_short" v=""/>
    <tag k="name_sort" v="NIKOLINANJIVA"/>
    <tag k="place" v="hamlet"/>
  </node>
  <node id="448709764" version="2" timestamp="2009-08-25T09:18:37Z" uid="18775" user="drlizau" changeset="2254105" lat="42.886667" lon="21.010278">
    <tag k="elevation" v=""/>
    <tag k="name" v="Crni Breg"/>
    <tag k="name_full_nd" v="Crni Breg"/>
    <tag k="name_generic" v="Breg"/>
    <tag k="name_short" v=""/>
    <tag k="name_sort" v="CRNIBREG"/>
    <tag k="place" v="hamlet"/>
  </node>
  <node id="448709775" version="2" timestamp="2009-08-25T09:18:37Z" uid="18775" user="drlizau" changeset="2254105" lat="42.784167" lon="20.991389">
    <tag k="elevation" v=""/>
    <tag k="name" v="Šolje Potok"/>
    <tag k="name_full_nd" v="Šolje Potok"/>
    <tag k="name_generic" v="Potok"/>
    <tag k="name_short" v=""/>
    <tag k="name_sort" v="SOLJEPOTOK"/>
    <tag k="place" v="hamlet"/>
  </node>
  <node id="448709782" version="2" timestamp="2009-08-25T09:18:37Z" uid="18775" user="drlizau" changeset="2254105" lat="42.728333" lon="20.725">
    <tag k="elevation" v=""/>
    <tag k="name" v="Raponja"/>
    <tag k="name_full_nd" v="Raponja"/>
    <tag k="name_generic" v=""/>
    <tag k="name_short" v=""/>
    <tag k="name_sort" v="RAPONJA"/>
    <tag k="place" v="hamlet"/>
  </node>
  <node id="448709784" version="2" timestamp="2009-08-25T09:18:37Z" uid="18775" user="drlizau" changeset="2254105" lat="42.859167" lon="20.817222">
    <tag k="elevation" v=""/>
    <tag k="name" v="Grmova"/>
    <tag k="name_full_nd" v="Grmova"/>
    <tag k="name_generic" v=""/>
    <tag k="name_short" v=""/>
    <tag k="name_sort" v="GRMOVA"/>
    <tag k="place" v="hamlet"/>
  </node>
  <node id="448709822" version="2" timestamp="2009-08-25T09:18:38Z" uid="18775" user="drlizau" changeset="2254105" lat="42.687778" lon="20.740556">
    <tag k="elevation" v=""/>
    <tag k="name" v="Likovački Potok"/>
    <tag k="name_full_nd" v="Likovački Potok"/>
    <tag k="name_generic" v="Potok"/>
    <tag k="name_short" v=""/>
    <tag k="name_sort" v="LIKOVACKIPOTOK"/>
    <tag k="place" v="hamlet"/>
  </node>
  <node id="448709889" version="2" timestamp="2009-08-25T09:35:21Z" uid="18775" user="drlizau" changeset="2254250" lat="42.793889" lon="21.150833">
    <tag k="name" v="Lupç i Poshtëm"/>
    <tag k="name_full_nd" v="Lupç i Poshtëm"/>
    <tag k="name_generic" v=""/>
    <tag k="name_short" v=""/>
    <tag k="name_sort" v="LUPCIPOSHTEM"/>
    <tag k="place" v="hamlet"/>
  </node>
  <node id="448709903" version="2" timestamp="2009-08-25T09:35:20Z" uid="18775" user="drlizau" changeset="2254250" lat="42.698333" lon="20.85">
    <tag k="name" v="Штутица"/>
    <tag k="name_full_nd" v="Штутица"/>
    <tag k="name_generic" v=""/>
    <tag k="name_short" v=""/>
    <tag k="name_sort" v="ШТУТИЦА"/>
    <tag k="place" v="hamlet"/>
  </node>
  <node id="448709929" version="4" timestamp="2009-08-25T09:18:36Z" uid="18775" user="drlizau" changeset="2254105" lat="42.691389" lon="20.861667">
    <tag k="geonameid" v="832113"/>
    <tag k="gnadmin" v="00"/>
    <tag k="gnadmin2" v="Kosovo"/>
    <tag k="gnfeature" v="T"/>
    <tag k="gnfeaturec" v="HLL"/>
    <tag k="name" v="Gurina"/>
    <tag k="name2" v="Gurina"/>
    <tag k="name_full_nd" v="Gurina"/>
    <tag k="name_sort" v="GURINA"/>
    <tag k="natural" v="peak"/>
  </node>
  <node id="448709935" version="2" timestamp="2009-08-25T09:35:20Z" uid="18775" user="drlizau" changeset="2254250" lat="42.684167" lon="20.883611">
    <tag k="name" v="Grablja"/>
    <tag k="name_full_nd" v="Grablja"/>
    <tag k="name_generic" v=""/>
    <tag k="name_short" v=""/>
    <tag k="name_sort" v="GRABLJA"/>
    <tag k="place" v="hamlet"/>
  </node>
  <node id="448709949" version="2" timestamp="2009-08-25T09:18:36Z" uid="18775" user="drlizau" changeset="2254105" lat="42.821944" lon="20.721667">
    <tag k="elevation" v=""/>
    <tag k="name" v="Lazovi"/>
    <tag k="name_full_nd" v="Lazovi"/>
    <tag k="name_generic" v=""/>
    <tag k="name_short" v=""/>
    <tag k="name_sort" v="LAZOVI"/>
    <tag k="place" v="hamlet"/>
  </node>
</osm>
