<?xml version='1.0' encoding='UTF-8'?>
<osm version="0.6" generator="libosmium/2.20.0">
  <node id="449201307" version="2" timestamp="2009-12-24T04:33:09Z" uid="6975" user="ulfl" changeset="3439940" lat="51.4567412" lon="0.0225921">
    <tag k="historic" v="memorial"/>
    <tag k="note" v="WWI&amp;WWII"/>
  </node>
  <node id="449201376" version="1" timestamp="2009-07-27T18:06:03Z" uid="43863" user="Rundling" changeset="1958168" lat="52.964371" lon="10.5595771"/>
  <node id="449205124" version="2" timestamp="2009-08-03T16:43:20Z" uid="142575" user="dalailama" changeset="2027377" lat="54.646375" lon="8.3279573">
    <tag k="amenity" v="nightclub"/>
    <tag k="name" v="Kniepsandhalle"/>
  </node>
  <node id="449206403" version="2" timestamp="2009-07-30T09:09:16Z" uid="142575" user="dalailama" changeset="1983071" lat="54.6274797" lon="8.3844032">
    <tag k="amenity" v="bus_station"/>
    <tag k="name" v="Köns Übergang"/>
  </node>
  <node id="449207313" version="2" timestamp="2009-07-30T09:09:13Z" uid="142575" user="dalailama" changeset="1983071" lat="54.6269062" lon="8.3899126">
    <tag k="addr:housenumber" v="55"/>
    <tag k="amenity" v="place_of_worship"/>
    <tag k="name" v="Wittdüner Kappelle"/>
  </node>
</osm>
