<?xml version='1.0' encoding='UTF-8'?>
<osm version="0.6" generator="libosmium/2.20.0">
  <node id="449960722" version="1" timestamp="2009-07-28T14:25:35Z" uid="115477" user="wowik" changeset="1965587" lat="55.9927284" lon="37.2526994">
    <tag k="highway" v="bus_stop"/>
    <tag k="name" v="МЖК"/>
  </node>
  <node id="449960752" version="1" timestamp="2009-07-28T14:25:36Z" uid="115477" user="wowik" changeset="1965587" lat="55.9973702" lon="37.2382798">
    <tag k="highway" v="bus_stop"/>
    <tag k="name" v="Московский проспект"/>
  </node>
  <node id="449960752" version="2" timestamp="2010-01-12T12:31:32Z" uid="115477" user="wowik" changeset="3602714" lat="55.9973702" lon="37.2382799">
    <tag k="highway" v="bus_stop"/>
    <tag k="name" v="Московский проспект"/>
    <tag k="shelter" v="yes"/>
  </node>
  <node id="449960779" version="1" timestamp="2009-07-28T14:25:36Z" uid="115477" user="wowik" changeset="1965587" lat="55.9908082" lon="37.2238603">
    <tag k="highway" v="bus_stop"/>
    <tag k="name" v="Дворей Культуры"/>
  </node>
  <node id="449960779" version="2" timestamp="2009-07-29T12:10:15Z" uid="115477" user="wowik" changeset="1975017" lat="55.9914099" lon="37.2241992">
    <tag k="highway" v="bus_stop"/>
    <tag k="name" v="Дворей Культуры"/>
  </node>
  <node id="449960779" version="3" timestamp="2010-01-12T13:04:09Z" uid="115477" user="wowik" changeset="3602714" lat="55.9914024" lon="37.2241884">
    <tag k="highway" v="bus_stop"/>
    <tag k="name" v="Дворец Культуры"/>
    <tag k="shelter" v="yes"/>
  </node>
  <node id="449960779" version="4" timestamp="2010-01-14T11:15:38Z" uid="115477" user="wowik" changeset="3615974" lat="55.9914066" lon="37.2242628">
    <tag k="highway" v="bus_stop"/>
    <tag k="name" v="Дворец Культуры"/>
    <tag k="shelter" v="yes"/>
  </node>
  <node id="449960807" version="1" timestamp="2009-07-28T14:25:36Z" uid="115477" user="wowik" changeset="1965587" lat="55.9892959" lon="37.2260661">
    <tag k="highway" v="bus_stop"/>
    <tag k="name" v="магазин &quot;Бриллиант&quot;"/>
  </node>
  <node id="449960807" version="2" timestamp="2009-07-29T12:10:15Z" uid="115477" user="wowik" changeset="1975017" lat="55.9889423" lon="37.225624">
    <tag k="highway" v="bus_stop"/>
    <tag k="name" v="магазин &quot;Бриллиант&quot;"/>
  </node>
  <node id="449960807" version="3" timestamp="2010-01-12T13:04:08Z" uid="115477" user="wowik" changeset="3602714" lat="55.9889422" lon="37.225624">
    <tag k="highway" v="bus_stop"/>
    <tag k="name" v="магазин &quot;Бриллиант&quot;"/>
    <tag k="shelter" v="yes"/>
  </node>
  <node id="449960807" version="4" timestamp="2010-05-06T08:17:19Z" uid="115477" user="wowik" changeset="4619331" lat="55.9889378" lon="37.2256089">
    <tag k="highway" v="bus_stop"/>
    <tag k="name" v="магазин &quot;Бриллиант&quot;"/>
    <tag k="shelter" v="yes"/>
  </node>
  <node id="449960807" version="5" timestamp="2010-05-06T08:30:36Z" uid="115477" user="wowik" changeset="4619331" lat="55.9888717" lon="37.2262955">
    <tag k="highway" v="bus_stop"/>
    <tag k="name" v="магазин &quot;Бриллиант&quot;"/>
    <tag k="shelter" v="yes"/>
  </node>
  <node id="449960818" version="1" timestamp="2009-07-28T14:25:37Z" uid="115477" user="wowik" changeset="1965587" lat="55.9996837" lon="37.2099042">
    <tag k="highway" v="bus_stop"/>
    <tag k="name" v="магазин &quot;Детский мир&quot;"/>
  </node>
  <node id="449960818" version="2" timestamp="2010-01-14T11:15:39Z" uid="115477" user="wowik" changeset="3615974" lat="55.9996837" lon="37.2099043">
    <tag k="highway" v="bus_stop"/>
    <tag k="name" v="магазин &quot;Детский мир&quot;"/>
    <tag k="shelter" v="yes"/>
  </node>
  <node id="449960818" version="3" timestamp="2010-11-09T13:47:06Z" uid="115477" user="wowik" changeset="6327211" lat="55.999781" lon="37.2098386">
    <tag k="highway" v="bus_stop"/>
    <tag k="name" v="магазин &quot;Детский мир&quot;"/>
    <tag k="shelter" v="yes"/>
  </node>
  <node id="449960831" version="1" timestamp="2009-07-28T14:25:37Z" uid="115477" user="wowik" changeset="1965587" lat="56.0083269" lon="37.1980682">
    <tag k="highway" v="bus_stop"/>
    <tag k="name" v="магазин &quot;Березка&quot;"/>
  </node>
  <node id="449960831" version="4" timestamp="2010-11-09T14:32:40Z" uid="115477" user="wowik" changeset="6327211" lat="56.0084962" lon="37.1977872">
    <tag k="highway" v="bus_stop"/>
    <tag k="name" v="магазин &quot;Березка&quot;"/>
  </node>
  <node id="449960831" version="5" timestamp="2011-01-30T20:17:23Z" uid="115477" user="wowik" changeset="7139077" lat="56.0081971" lon="37.1986726">
    <tag k="highway" v="bus_stop"/>
    <tag k="name" v="магазин &quot;Березка&quot;"/>
  </node>
  <node id="449960831" version="6" timestamp="2011-06-06T10:19:49Z" uid="115477" user="wowik" changeset="8358580" lat="56.0084223" lon="37.1978491">
    <tag k="highway" v="bus_stop"/>
    <tag k="name" v="магазин &quot;Березка&quot;"/>
  </node>
  <node id="449960839" version="1" timestamp="2009-07-28T14:25:37Z" uid="115477" user="wowik" changeset="1965587" lat="56.0113115" lon="37.1920171">
    <tag k="highway" v="bus_stop"/>
    <tag k="name" v="Автокомбинат"/>
  </node>
  <node id="449960839" version="2" timestamp="2011-01-31T11:23:10Z" uid="115477" user="wowik" changeset="7144038" lat="56.0111505" lon="37.1920215">
    <tag k="highway" v="bus_stop"/>
    <tag k="name" v="Автокомбинат"/>
  </node>
  <node id="449960847" version="1" timestamp="2009-07-28T14:25:37Z" uid="115477" user="wowik" changeset="1965587" lat="56.013389" lon="37.189528">
    <tag k="highway" v="bus_stop"/>
    <tag k="name" v="Северная"/>
  </node>
  <node id="449960862" version="1" timestamp="2009-07-28T14:25:37Z" uid="115477" user="wowik" changeset="1965587" lat="56.0167714" lon="37.1944547">
    <tag k="highway" v="bus_stop"/>
    <tag k="name" v="41 км"/>
  </node>
  <node id="449960862" version="2" timestamp="2009-07-28T14:27:34Z" uid="115477" user="wowik" changeset="1965587" lat="56.0167522" lon="37.1943002">
    <tag k="highway" v="bus_stop"/>
    <tag k="name" v="41 км"/>
  </node>
  <node id="449960862" version="3" timestamp="2010-02-16T15:49:22Z" uid="115477" user="wowik" changeset="3893235" lat="56.0166632" lon="37.1942588">
    <tag k="highway" v="bus_stop"/>
    <tag k="name" v="41 км"/>
  </node>
  <node id="449960862" version="4" timestamp="2010-11-09T09:58:35Z" uid="115477" user="wowik" changeset="6325744" lat="56.0166485" lon="37.1943327">
    <tag k="highway" v="bus_stop"/>
    <tag k="name" v="41 км"/>
  </node>
  <node id="449960885" version="1" timestamp="2009-07-28T14:25:38Z" uid="115477" user="wowik" changeset="1965587" lat="56.0100159" lon="37.2004028">
    <tag k="highway" v="bus_stop"/>
    <tag k="name" v="з-д &quot;Элион&quot;"/>
  </node>
  <node id="449960897" version="1" timestamp="2009-07-28T14:25:38Z" uid="115477" user="wowik" changeset="1965587" lat="56.0112779" lon="37.2043939">
    <tag k="highway" v="bus_stop"/>
  </node>
  <node id="449960897" version="2" timestamp="2009-07-30T16:45:04Z" uid="115477" user="wowik" changeset="1986706" lat="56.0113908" lon="37.2042165">
    <tag k="highway" v="bus_stop"/>
  </node>
  <node id="449960904" version="1" timestamp="2009-07-28T14:25:38Z" uid="115477" user="wowik" changeset="1965587" lat="56.0194099" lon="37.1947551">
    <tag k="highway" v="bus_stop"/>
  </node>
  <node id="449960911" version="1" timestamp="2009-07-28T14:25:38Z" uid="115477" user="wowik" changeset="1965587" lat="56.0234538" lon="37.1838718">
    <tag k="highway" v="bus_stop"/>
    <tag k="name" v="Кооперативные дома"/>
  </node>
  <node id="449960911" version="2" timestamp="2010-02-18T10:07:09Z" uid="115477" user="wowik" changeset="3907593" lat="56.0234299" lon="37.1840603">
    <tag k="highway" v="bus_stop"/>
    <tag k="name" v="Кооперативные дома"/>
  </node>
</osm>
