<?xml version='1.0' encoding='UTF-8'?>
<osm version="0.6" generator="libosmium/2.20.0">
  <node id="453122361" version="1" timestamp="2009-08-01T13:06:36Z" uid="36809" user="pfoten_weg_!_" changeset="2003602" lat="48.0823011" lon="11.4854878">
    <tag k="amenity" v="fuel"/>
    <tag k="discovered_by" v="RambaZamba"/>
    <tag k="name" v="Süd-Treibstoff"/>
    <tag k="operator" v="Süd-Treibstoff"/>
    <tag k="source" v="survey"/>
  </node>
  <node id="453122361" version="3" timestamp="2009-08-25T23:48:36Z" uid="36809" user="pfoten_weg_!_" changeset="2262648" lat="48.0823011" lon="11.4854878">
    <tag k="amenity" v="fuel"/>
    <tag k="name" v="Süd-Treibstoff"/>
    <tag k="operator" v="Süd-Treibstoff"/>
    <tag k="source" v="survey"/>
  </node>
  <node id="453122361" version="4" timestamp="2009-08-26T00:52:30Z" uid="36809" user="pfoten_weg_!_" changeset="2262879" lat="48.0823011" lon="11.4854878">
    <tag k="amenity" v="fuel"/>
    <tag k="name" v="Süd-Treibstoff"/>
    <tag k="operator" v="Süd-Treibstoff"/>
    <tag k="source" v="survey"/>
  </node>
  <node id="453122361" version="5" timestamp="2009-10-02T17:38:16Z" uid="86259" user="hasse_osm_korinthenkacker" changeset="2715119" lat="48.0823011" lon="11.4854878">
    <tag k="amenity" v="fuel"/>
    <tag k="name" v="Süd-Treibstoff"/>
    <tag k="operator" v="Süd-Treibstoff"/>
  </node>
  <node id="453122364" version="1" timestamp="2009-08-01T13:06:36Z" uid="36809" user="pfoten_weg_!_" changeset="2003602" lat="48.0822043" lon="11.4854324"/>
  <node id="453122366" version="1" timestamp="2009-08-01T13:06:36Z" uid="36809" user="pfoten_weg_!_" changeset="2003602" lat="48.0822243" lon="11.4854887"/>
  <node id="453122369" version="1" timestamp="2009-08-01T13:06:36Z" uid="36809" user="pfoten_weg_!_" changeset="2003602" lat="48.082378" lon="11.4854869"/>
  <node id="453122371" version="1" timestamp="2009-08-01T13:06:36Z" uid="36809" user="pfoten_weg_!_" changeset="2003602" lat="48.0823909" lon="11.4854298"/>
</osm>
