<?xml version='1.0' encoding='UTF-8'?>
<osm version="0.6" generator="libosmium/2.20.0">
  <node id="454662981" version="2" timestamp="2010-07-26T06:02:33Z" uid="74617" user="JohnSmith" changeset="5318361" lat="-25.4868733" lon="152.6639531">
    <tag k="amenity" v="fuel"/>
  </node>
  <node id="454664950" version="2" timestamp="2009-08-28T21:43:13Z" uid="49111" user="Markus B" changeset="2295714" lat="49.5217231" lon="11.3192134"/>
  <node id="454664951" version="2" timestamp="2009-08-28T21:43:13Z" uid="49111" user="Markus B" changeset="2295714" lat="49.5224307" lon="11.3195346"/>
  <node id="454668347" version="1" timestamp="2009-08-02T22:46:32Z" uid="20587" user="balrog-kun" changeset="2020388" lat="52.3829723" lon="16.8873749">
    <tag k="addr:city" v="Poznań"/>
    <tag k="addr:housenumber" v="7"/>
    <tag k="addr:street" v="Daleka"/>
    <tag k="source" v="http://ump.waw.pl/ retrieved 15:05:23 06/30/09 (UMP-Poznan/src/POZNAN.ulice.txt)"/>
  </node>
  <node id="454668349" version="1" timestamp="2009-08-02T22:46:32Z" uid="20587" user="balrog-kun" changeset="2020388" lat="52.3847112" lon="16.8884543">
    <tag k="addr:city" v="Poznań"/>
    <tag k="addr:housenumber" v="157"/>
    <tag k="addr:street" v="Głogowska"/>
    <tag k="source" v="http://ump.waw.pl/ retrieved 15:05:23 06/30/09 (UMP-Poznan/src/POZNAN.ulice.txt)"/>
  </node>
  <node id="454668350" version="1" timestamp="2009-08-02T22:46:33Z" uid="20587" user="balrog-kun" changeset="2020388" lat="52.3930905" lon="16.8868661">
    <tag k="addr:city" v="Poznań"/>
    <tag k="addr:housenumber" v="1"/>
    <tag k="addr:street" v="Hetmańska"/>
    <tag k="source" v="http://ump.waw.pl/ retrieved 15:05:23 06/30/09 (UMP-Poznan/src/POZNAN.ulice.txt)"/>
  </node>
  <node id="454668351" version="1" timestamp="2009-08-02T22:46:33Z" uid="20587" user="balrog-kun" changeset="2020388" lat="52.3909009" lon="16.8927014">
    <tag k="addr:city" v="Poznań"/>
    <tag k="addr:housenumber" v="43"/>
    <tag k="addr:street" v="Hetmańska"/>
    <tag k="source" v="http://ump.waw.pl/ retrieved 15:05:23 06/30/09 (UMP-Poznan/src/POZNAN.ulice.txt)"/>
  </node>
  <node id="454668352" version="1" timestamp="2009-08-02T22:46:33Z" uid="20587" user="balrog-kun" changeset="2020388" lat="52.3897011" lon="16.8904608">
    <tag k="addr:city" v="Poznań"/>
    <tag k="addr:housenumber" v="11"/>
    <tag k="addr:street" v="Nehringa"/>
    <tag k="source" v="http://ump.waw.pl/ retrieved 15:05:23 06/30/09 (UMP-Poznan/src/POZNAN.ulice.txt)"/>
  </node>
  <node id="454668353" version="1" timestamp="2009-08-02T22:46:33Z" uid="20587" user="balrog-kun" changeset="2020388" lat="52.3925342" lon="16.8887873">
    <tag k="addr:city" v="Poznań"/>
    <tag k="addr:housenumber" v="11"/>
    <tag k="addr:street" v="Szymborska"/>
    <tag k="source" v="http://ump.waw.pl/ retrieved 15:05:23 06/30/09 (UMP-Poznan/src/POZNAN.ulice.txt)"/>
  </node>
  <node id="454668354" version="1" timestamp="2009-08-02T22:46:33Z" uid="20587" user="balrog-kun" changeset="2020388" lat="52.3881235" lon="16.8860006">
    <tag k="addr:city" v="Poznań"/>
    <tag k="addr:housenumber" v="28"/>
    <tag k="addr:street" v="Macieja Palacza"/>
    <tag k="source" v="http://ump.waw.pl/ retrieved 15:05:23 06/30/09 (UMP-Poznan/src/POZNAN.ulice.txt)"/>
  </node>
  <node id="454668355" version="1" timestamp="2009-08-02T22:46:33Z" uid="20587" user="balrog-kun" changeset="2020388" lat="52.387848" lon="16.8875191">
    <tag k="addr:city" v="Poznań"/>
    <tag k="addr:housenumber" v="20"/>
    <tag k="addr:street" v="Macieja Palacza"/>
    <tag k="source" v="http://ump.waw.pl/ retrieved 15:05:23 06/30/09 (UMP-Poznan/src/POZNAN.ulice.txt)"/>
  </node>
  <node id="454668356" version="1" timestamp="2009-08-02T22:46:33Z" uid="20587" user="balrog-kun" changeset="2020388" lat="52.3865978" lon="16.8899213">
    <tag k="addr:city" v="Poznań"/>
    <tag k="addr:housenumber" v="150"/>
    <tag k="addr:street" v="Głogowska"/>
    <tag k="source" v="http://ump.waw.pl/ retrieved 15:05:23 06/30/09 (UMP-Poznan/src/POZNAN.ulice.txt)"/>
  </node>
  <node id="454668358" version="1" timestamp="2009-08-02T22:46:33Z" uid="20587" user="balrog-kun" changeset="2020388" lat="52.3857192" lon="16.8836714">
    <tag k="addr:city" v="Poznań"/>
    <tag k="addr:housenumber" v="93"/>
    <tag k="addr:street" v="Kazimierza Jarochowskiego"/>
    <tag k="source" v="http://ump.waw.pl/ retrieved 15:05:23 06/30/09 (UMP-Poznan/src/POZNAN.ulice.txt)"/>
  </node>
  <node id="454668359" version="1" timestamp="2009-08-02T22:46:33Z" uid="20587" user="balrog-kun" changeset="2020388" lat="52.3843113" lon="16.8830528">
    <tag k="addr:city" v="Poznań"/>
    <tag k="addr:housenumber" v="10"/>
    <tag k="addr:street" v="Księdza Piotra Ściegiennego"/>
    <tag k="source" v="http://ump.waw.pl/ retrieved 15:05:23 06/30/09 (UMP-Poznan/src/POZNAN.ulice.txt)"/>
  </node>
  <node id="454668360" version="1" timestamp="2009-08-02T22:46:33Z" uid="20587" user="balrog-kun" changeset="2020388" lat="52.384517" lon="16.8797203">
    <tag k="addr:city" v="Poznań"/>
    <tag k="addr:housenumber" v="24"/>
    <tag k="addr:street" v="Logi"/>
    <tag k="source" v="http://ump.waw.pl/ retrieved 15:05:23 06/30/09 (UMP-Poznan/src/POZNAN.ulice.txt)"/>
  </node>
  <node id="454668361" version="1" timestamp="2009-08-02T22:46:33Z" uid="20587" user="balrog-kun" changeset="2020388" lat="52.3835026" lon="16.8854996">
    <tag k="addr:city" v="Poznań"/>
    <tag k="addr:housenumber" v="184"/>
    <tag k="addr:street" v="Głogowska"/>
    <tag k="source" v="http://ump.waw.pl/ retrieved 15:05:23 06/30/09 (UMP-Poznan/src/POZNAN.ulice.txt)"/>
  </node>
  <node id="454668362" version="1" timestamp="2009-08-02T22:46:33Z" uid="20587" user="balrog-kun" changeset="2020388" lat="52.3879479" lon="16.8896943">
    <tag k="addr:city" v="Poznań"/>
    <tag k="addr:housenumber" v="64"/>
    <tag k="addr:street" v="Jana Kasprzaka"/>
    <tag k="source" v="http://ump.waw.pl/ retrieved 15:05:23 06/30/09 (UMP-Poznan/src/POZNAN.ulice.txt)"/>
  </node>
  <node id="454668363" version="1" timestamp="2009-08-02T22:46:33Z" uid="20587" user="balrog-kun" changeset="2020388" lat="52.3806745" lon="16.8839046">
    <tag k="addr:city" v="Poznań"/>
    <tag k="addr:housenumber" v="27"/>
    <tag k="addr:street" v="Antoniego Andrzejewskiego"/>
    <tag k="source" v="http://ump.waw.pl/ retrieved 15:05:23 06/30/09 (UMP-Poznan/src/POZNAN.ulice.txt)"/>
  </node>
  <node id="454668364" version="1" timestamp="2009-08-02T22:46:33Z" uid="20587" user="balrog-kun" changeset="2020388" lat="52.3820089" lon="16.8855147">
    <tag k="addr:city" v="Poznań"/>
    <tag k="addr:housenumber" v="10"/>
    <tag k="addr:street" v="Antoniego Andrzejewskiego"/>
    <tag k="source" v="http://ump.waw.pl/ retrieved 15:05:23 06/30/09 (UMP-Poznan/src/POZNAN.ulice.txt)"/>
  </node>
  <node id="454668366" version="1" timestamp="2009-08-02T22:46:33Z" uid="20587" user="balrog-kun" changeset="2020388" lat="52.3906844" lon="16.891931">
    <tag k="addr:city" v="Poznań"/>
    <tag k="addr:housenumber" v="36"/>
    <tag k="addr:street" v="Hetmańska"/>
    <tag k="source" v="http://ump.waw.pl/ retrieved 15:05:23 06/30/09 (UMP-Poznan/src/POZNAN.ulice.txt)"/>
  </node>
  <node id="454668367" version="1" timestamp="2009-08-02T22:46:33Z" uid="20587" user="balrog-kun" changeset="2020388" lat="52.3905991" lon="16.8868236">
    <tag k="addr:city" v="Poznań"/>
    <tag k="addr:housenumber" v="15"/>
    <tag k="addr:street" v="Józefa Rogalińskiego"/>
    <tag k="source" v="http://ump.waw.pl/ retrieved 15:05:23 06/30/09 (UMP-Poznan/src/POZNAN.ulice.txt)"/>
  </node>
  <node id="454668368" version="1" timestamp="2009-08-02T22:46:33Z" uid="20587" user="balrog-kun" changeset="2020388" lat="52.3852432" lon="16.8875737">
    <tag k="addr:city" v="Poznań"/>
    <tag k="addr:housenumber" v="7"/>
    <tag k="addr:street" v="Górczyńska"/>
    <tag k="source" v="http://ump.waw.pl/ retrieved 15:05:23 06/30/09 (UMP-Poznan/src/POZNAN.ulice.txt)"/>
  </node>
  <node id="454668369" version="1" timestamp="2009-08-02T22:46:33Z" uid="20587" user="balrog-kun" changeset="2020388" lat="52.3868456" lon="16.8933535">
    <tag k="addr:city" v="Poznań"/>
    <tag k="addr:housenumber" v="15"/>
    <tag k="addr:street" v="Jakuba Krauthofera"/>
    <tag k="source" v="http://ump.waw.pl/ retrieved 15:05:23 06/30/09 (UMP-Poznan/src/POZNAN.ulice.txt)"/>
  </node>
  <node id="454668370" version="1" timestamp="2009-08-02T22:46:34Z" uid="20587" user="balrog-kun" changeset="2020388" lat="52.3880648" lon="16.8862755">
    <tag k="addr:city" v="Poznań"/>
    <tag k="addr:housenumber" v="24"/>
    <tag k="addr:street" v="Macieja Palacza"/>
    <tag k="source" v="http://ump.waw.pl/ retrieved 15:05:23 06/30/09 (UMP-Poznan/src/POZNAN.ulice.txt)"/>
  </node>
  <node id="454668371" version="1" timestamp="2009-08-02T22:46:34Z" uid="20587" user="balrog-kun" changeset="2020388" lat="52.3834155" lon="16.8793113">
    <tag k="addr:city" v="Poznań"/>
    <tag k="addr:housenumber" v="1"/>
    <tag k="addr:street" v="Częstochowska"/>
    <tag k="source" v="http://ump.waw.pl/ retrieved 15:05:23 06/30/09 (UMP-Poznan/src/POZNAN.ulice.txt)"/>
  </node>
  <node id="454668372" version="1" timestamp="2009-08-02T22:46:34Z" uid="20587" user="balrog-kun" changeset="2020388" lat="52.3890495" lon="16.8908599">
    <tag k="addr:city" v="Poznań"/>
    <tag k="addr:housenumber" v="50"/>
    <tag k="addr:street" v="Jana Kasprzaka"/>
    <tag k="source" v="http://ump.waw.pl/ retrieved 15:05:23 06/30/09 (UMP-Poznan/src/POZNAN.ulice.txt)"/>
  </node>
  <node id="454668373" version="1" timestamp="2009-08-02T22:46:34Z" uid="20587" user="balrog-kun" changeset="2020388" lat="52.3822255" lon="16.8753475">
    <tag k="addr:city" v="Poznań"/>
    <tag k="addr:housenumber" v="32"/>
    <tag k="addr:street" v="Słowicza"/>
    <tag k="source" v="http://ump.waw.pl/ retrieved 15:05:23 06/30/09 (UMP-Poznan/src/POZNAN.ulice.txt)"/>
  </node>
  <node id="454668375" version="1" timestamp="2009-08-02T22:46:34Z" uid="20587" user="balrog-kun" changeset="2020388" lat="52.3861733" lon="16.8871943">
    <tag k="addr:city" v="Poznań"/>
    <tag k="addr:housenumber" v="11"/>
    <tag k="addr:street" v="Kosynierska"/>
    <tag k="source" v="http://ump.waw.pl/ retrieved 15:05:23 06/30/09 (UMP-Poznan/src/POZNAN.ulice.txt)"/>
  </node>
  <node id="454668376" version="1" timestamp="2009-08-02T22:46:34Z" uid="20587" user="balrog-kun" changeset="2020388" lat="52.3855282" lon="16.8895667">
    <tag k="addr:city" v="Poznań"/>
    <tag k="addr:housenumber" v="151"/>
    <tag k="addr:street" v="Głogowska"/>
    <tag k="source" v="http://ump.waw.pl/ retrieved 15:05:23 06/30/09 (UMP-Poznan/src/POZNAN.ulice.txt)"/>
  </node>
  <node id="454668377" version="1" timestamp="2009-08-02T22:46:34Z" uid="20587" user="balrog-kun" changeset="2020388" lat="52.3839368" lon="16.8765199">
    <tag k="addr:city" v="Poznań"/>
    <tag k="addr:housenumber" v="40"/>
    <tag k="addr:street" v="Księdza Augustyna Kordeckiego"/>
    <tag k="source" v="http://ump.waw.pl/ retrieved 15:05:23 06/30/09 (UMP-Poznan/src/POZNAN.ulice.txt)"/>
  </node>
  <node id="454668378" version="1" timestamp="2009-08-02T22:46:34Z" uid="20587" user="balrog-kun" changeset="2020388" lat="52.3866609" lon="16.8820767">
    <tag k="addr:city" v="Poznań"/>
    <tag k="addr:housenumber" v="3"/>
    <tag k="addr:street" v="Księdza Augustyna Kordeckiego"/>
    <tag k="source" v="http://ump.waw.pl/ retrieved 15:05:23 06/30/09 (UMP-Poznan/src/POZNAN.ulice.txt)"/>
  </node>
  <node id="454668379" version="1" timestamp="2009-08-02T22:46:34Z" uid="20587" user="balrog-kun" changeset="2020388" lat="52.3877404" lon="16.8821438">
    <tag k="addr:city" v="Poznań"/>
    <tag k="addr:housenumber" v="2"/>
    <tag k="addr:street" v="Księdza Augustyna Kordeckiego"/>
    <tag k="source" v="http://ump.waw.pl/ retrieved 15:05:23 06/30/09 (UMP-Poznan/src/POZNAN.ulice.txt)"/>
  </node>
  <node id="454668380" version="1" timestamp="2009-08-02T22:46:34Z" uid="20587" user="balrog-kun" changeset="2020388" lat="52.3875924" lon="16.8920208">
    <tag k="addr:city" v="Poznań"/>
    <tag k="addr:housenumber" v="137"/>
    <tag k="addr:street" v="Głogowska"/>
    <tag k="source" v="http://ump.waw.pl/ retrieved 15:05:23 06/30/09 (UMP-Poznan/src/POZNAN.ulice.txt)"/>
  </node>
  <node id="454668381" version="1" timestamp="2009-08-02T22:46:34Z" uid="20587" user="balrog-kun" changeset="2020388" lat="52.3916192" lon="16.8934671">
    <tag k="addr:city" v="Poznań"/>
    <tag k="addr:housenumber" v="12"/>
    <tag k="addr:street" v="Józefa Chociszewskiego"/>
    <tag k="source" v="http://ump.waw.pl/ retrieved 15:05:23 06/30/09 (UMP-Poznan/src/POZNAN.ulice.txt)"/>
  </node>
  <node id="454668382" version="1" timestamp="2009-08-02T22:46:34Z" uid="20587" user="balrog-kun" changeset="2020388" lat="52.3843242" lon="16.8866612">
    <tag k="addr:city" v="Poznań"/>
    <tag k="addr:housenumber" v="3"/>
    <tag k="addr:street" v="Sielska"/>
    <tag k="source" v="http://ump.waw.pl/ retrieved 15:05:23 06/30/09 (UMP-Poznan/src/POZNAN.ulice.txt)"/>
  </node>
  <node id="454668384" version="1" timestamp="2009-08-02T22:46:34Z" uid="20587" user="balrog-kun" changeset="2020388" lat="52.3818456" lon="16.8873195">
    <tag k="addr:city" v="Poznań"/>
    <tag k="addr:housenumber" v="19"/>
    <tag k="addr:street" v="Krzywa"/>
    <tag k="source" v="http://ump.waw.pl/ retrieved 15:05:23 06/30/09 (UMP-Poznan/src/POZNAN.ulice.txt)"/>
  </node>
  <node id="454668385" version="1" timestamp="2009-08-02T22:46:34Z" uid="20587" user="balrog-kun" changeset="2020388" lat="52.3853141" lon="16.889333">
    <tag k="addr:city" v="Poznań"/>
    <tag k="addr:housenumber" v="153"/>
    <tag k="addr:street" v="Głogowska"/>
    <tag k="source" v="http://ump.waw.pl/ retrieved 15:05:23 06/30/09 (UMP-Poznan/src/POZNAN.ulice.txt)"/>
  </node>
  <node id="454668386" version="1" timestamp="2009-08-02T22:46:34Z" uid="20587" user="balrog-kun" changeset="2020388" lat="52.3907213" lon="16.8861603">
    <tag k="addr:city" v="Poznań"/>
    <tag k="addr:housenumber" v="30"/>
    <tag k="addr:street" v="Błażeja Winklera"/>
    <tag k="source" v="http://ump.waw.pl/ retrieved 15:05:23 06/30/09 (UMP-Poznan/src/POZNAN.ulice.txt)"/>
  </node>
  <node id="454668387" version="1" timestamp="2009-08-02T22:46:34Z" uid="20587" user="balrog-kun" changeset="2020388" lat="52.3843503" lon="16.891547">
    <tag k="addr:city" v="Poznań"/>
    <tag k="addr:housenumber" v="18"/>
    <tag k="addr:street" v="Górki"/>
    <tag k="source" v="http://ump.waw.pl/ retrieved 15:05:23 06/30/09 (UMP-Poznan/src/POZNAN.ulice.txt)"/>
  </node>
  <node id="454668388" version="1" timestamp="2009-08-02T22:46:34Z" uid="20587" user="balrog-kun" changeset="2020388" lat="52.3927951" lon="16.8892133">
    <tag k="addr:city" v="Poznań"/>
    <tag k="addr:housenumber" v="35"/>
    <tag k="addr:street" v="Józefa Chociszewskiego"/>
    <tag k="source" v="http://ump.waw.pl/ retrieved 15:05:23 06/30/09 (UMP-Poznan/src/POZNAN.ulice.txt)"/>
  </node>
  <node id="454668389" version="1" timestamp="2009-08-02T22:46:35Z" uid="20587" user="balrog-kun" changeset="2020388" lat="52.3833598" lon="16.8931105">
    <tag k="addr:city" v="Poznań"/>
    <tag k="addr:housenumber" v="121"/>
    <tag k="addr:street" v="Romana Dmowskiego"/>
    <tag k="source" v="http://ump.waw.pl/ retrieved 15:05:23 06/30/09 (UMP-Poznan/src/POZNAN.ulice.txt)"/>
  </node>
  <node id="454668390" version="1" timestamp="2009-08-02T22:46:35Z" uid="20587" user="balrog-kun" changeset="2020388" lat="52.3868137" lon="16.8828471">
    <tag k="addr:city" v="Poznań"/>
    <tag k="addr:housenumber" v="44"/>
    <tag k="addr:street" v="Sielska"/>
    <tag k="source" v="http://ump.waw.pl/ retrieved 15:05:23 06/30/09 (UMP-Poznan/src/POZNAN.ulice.txt)"/>
  </node>
  <node id="454668391" version="1" timestamp="2009-08-02T22:46:35Z" uid="20587" user="balrog-kun" changeset="2020388" lat="52.3883251" lon="16.8852504">
    <tag k="addr:city" v="Poznań"/>
    <tag k="addr:housenumber" v="30"/>
    <tag k="addr:street" v="Macieja Palacza"/>
    <tag k="source" v="http://ump.waw.pl/ retrieved 15:05:23 06/30/09 (UMP-Poznan/src/POZNAN.ulice.txt)"/>
  </node>
  <node id="454668393" version="1" timestamp="2009-08-02T22:46:35Z" uid="20587" user="balrog-kun" changeset="2020388" lat="52.3878152" lon="16.8833209">
    <tag k="addr:city" v="Poznań"/>
    <tag k="addr:housenumber" v="46"/>
    <tag k="addr:street" v="Górczyńska"/>
    <tag k="source" v="http://ump.waw.pl/ retrieved 15:05:23 06/30/09 (UMP-Poznan/src/POZNAN.ulice.txt)"/>
  </node>
  <node id="454668394" version="1" timestamp="2009-08-02T22:46:35Z" uid="20587" user="balrog-kun" changeset="2020388" lat="52.3873996" lon="16.8918121">
    <tag k="addr:city" v="Poznań"/>
    <tag k="addr:housenumber" v="141"/>
    <tag k="addr:street" v="Głogowska"/>
    <tag k="source" v="http://ump.waw.pl/ retrieved 15:05:23 06/30/09 (UMP-Poznan/src/POZNAN.ulice.txt)"/>
  </node>
  <node id="454668395" version="1" timestamp="2009-08-02T22:46:35Z" uid="20587" user="balrog-kun" changeset="2020388" lat="52.385581" lon="16.8795436">
    <tag k="addr:city" v="Poznań"/>
    <tag k="addr:housenumber" v="18"/>
    <tag k="addr:street" v="Księdza Augustyna Kordeckiego"/>
    <tag k="source" v="http://ump.waw.pl/ retrieved 15:05:23 06/30/09 (UMP-Poznan/src/POZNAN.ulice.txt)"/>
  </node>
  <node id="454668396" version="1" timestamp="2009-08-02T22:46:35Z" uid="20587" user="balrog-kun" changeset="2020388" lat="52.3853545" lon="16.8828294">
    <tag k="addr:city" v="Poznań"/>
    <tag k="addr:housenumber" v="105"/>
    <tag k="addr:street" v="Kazimierza Jarochowskiego"/>
    <tag k="source" v="http://ump.waw.pl/ retrieved 15:05:23 06/30/09 (UMP-Poznan/src/POZNAN.ulice.txt)"/>
  </node>
  <node id="454668397" version="1" timestamp="2009-08-02T22:46:35Z" uid="20587" user="balrog-kun" changeset="2020388" lat="52.3875047" lon="16.8878941">
    <tag k="addr:city" v="Poznań"/>
    <tag k="addr:housenumber" v="15"/>
    <tag k="addr:street" v="Macieja Palacza"/>
    <tag k="source" v="http://ump.waw.pl/ retrieved 15:05:23 06/30/09 (UMP-Poznan/src/POZNAN.ulice.txt)"/>
  </node>
  <node id="454668398" version="1" timestamp="2009-08-02T22:46:35Z" uid="20587" user="balrog-kun" changeset="2020388" lat="52.3850644" lon="16.8879795">
    <tag k="addr:city" v="Poznań"/>
    <tag k="addr:housenumber" v="166"/>
    <tag k="addr:street" v="Głogowska"/>
    <tag k="source" v="http://ump.waw.pl/ retrieved 15:05:23 06/30/09 (UMP-Poznan/src/POZNAN.ulice.txt)"/>
  </node>
  <node id="454668399" version="1" timestamp="2009-08-02T22:46:35Z" uid="20587" user="balrog-kun" changeset="2020388" lat="52.3925884" lon="16.8882364">
    <tag k="addr:city" v="Poznań"/>
    <tag k="addr:housenumber" v="11"/>
    <tag k="addr:street" v="Hetmańska"/>
    <tag k="source" v="http://ump.waw.pl/ retrieved 15:05:23 06/30/09 (UMP-Poznan/src/POZNAN.ulice.txt)"/>
  </node>
  <node id="454668401" version="1" timestamp="2009-08-02T22:46:36Z" uid="20587" user="balrog-kun" changeset="2020388" lat="52.3863114" lon="16.8881586">
    <tag k="addr:city" v="Poznań"/>
    <tag k="addr:housenumber" v="8"/>
    <tag k="addr:street" v="Kosynierska"/>
    <tag k="source" v="http://ump.waw.pl/ retrieved 15:05:23 06/30/09 (UMP-Poznan/src/POZNAN.ulice.txt)"/>
  </node>
  <node id="454668402" version="1" timestamp="2009-08-02T22:46:36Z" uid="20587" user="balrog-kun" changeset="2020388" lat="52.3857478" lon="16.8865884">
    <tag k="addr:city" v="Poznań"/>
    <tag k="addr:housenumber" v="15"/>
    <tag k="addr:street" v="Górczyńska"/>
    <tag k="source" v="http://ump.waw.pl/ retrieved 15:05:23 06/30/09 (UMP-Poznan/src/POZNAN.ulice.txt)"/>
  </node>
  <node id="454668403" version="1" timestamp="2009-08-02T22:46:36Z" uid="20587" user="balrog-kun" changeset="2020388" lat="52.3806768" lon="16.8763657">
    <tag k="addr:city" v="Poznań"/>
    <tag k="addr:housenumber" v="1"/>
    <tag k="addr:street" v="Węglowa"/>
    <tag k="source" v="http://ump.waw.pl/ retrieved 15:05:23 06/30/09 (UMP-Poznan/src/POZNAN.ulice.txt)"/>
  </node>
  <node id="454668404" version="1" timestamp="2009-08-02T22:46:36Z" uid="20587" user="balrog-kun" changeset="2020388" lat="52.3857435" lon="16.8847257">
    <tag k="addr:city" v="Poznań"/>
    <tag k="addr:housenumber" v="26"/>
    <tag k="addr:street" v="Sielska"/>
    <tag k="source" v="http://ump.waw.pl/ retrieved 15:05:23 06/30/09 (UMP-Poznan/src/POZNAN.ulice.txt)"/>
  </node>
  <node id="454668405" version="1" timestamp="2009-08-02T22:46:36Z" uid="20587" user="balrog-kun" changeset="2020388" lat="52.3833856" lon="16.8887603">
    <tag k="addr:city" v="Poznań"/>
    <tag k="addr:housenumber" v="16"/>
    <tag k="addr:street" v="Bosa"/>
    <tag k="source" v="http://ump.waw.pl/ retrieved 15:05:23 06/30/09 (UMP-Poznan/src/POZNAN.ulice.txt)"/>
  </node>
  <node id="454668407" version="1" timestamp="2009-08-02T22:46:36Z" uid="20587" user="balrog-kun" changeset="2020388" lat="52.3830422" lon="16.8919546">
    <tag k="addr:city" v="Poznań"/>
    <tag k="addr:housenumber" v="30"/>
    <tag k="addr:street" v="Stanisława Knapowskiego"/>
    <tag k="source" v="http://ump.waw.pl/ retrieved 15:05:23 06/30/09 (UMP-Poznan/src/POZNAN.ulice.txt)"/>
  </node>
  <node id="454668408" version="1" timestamp="2009-08-02T22:46:36Z" uid="20587" user="balrog-kun" changeset="2020388" lat="52.3919728" lon="16.8884644">
    <tag k="addr:city" v="Poznań"/>
    <tag k="addr:housenumber" v="16"/>
    <tag k="addr:street" v="Hetmańska"/>
    <tag k="source" v="http://ump.waw.pl/ retrieved 15:05:23 06/30/09 (UMP-Poznan/src/POZNAN.ulice.txt)"/>
  </node>
  <node id="454668409" version="1" timestamp="2009-08-02T22:46:36Z" uid="20587" user="balrog-kun" changeset="2020388" lat="52.3849503" lon="16.8899841">
    <tag k="addr:city" v="Poznań"/>
    <tag k="addr:housenumber" v="6"/>
    <tag k="addr:street" v="Górki"/>
    <tag k="source" v="http://ump.waw.pl/ retrieved 15:05:23 06/30/09 (UMP-Poznan/src/POZNAN.ulice.txt)"/>
  </node>
  <node id="454668410" version="1" timestamp="2009-08-02T22:46:36Z" uid="20587" user="balrog-kun" changeset="2020388" lat="52.3865962" lon="16.8943169">
    <tag k="addr:city" v="Poznań"/>
    <tag k="addr:housenumber" v="25"/>
    <tag k="addr:street" v="Jakuba Krauthofera"/>
    <tag k="source" v="http://ump.waw.pl/ retrieved 15:05:23 06/30/09 (UMP-Poznan/src/POZNAN.ulice.txt)"/>
  </node>
  <node id="454668411" version="1" timestamp="2009-08-02T22:46:36Z" uid="20587" user="balrog-kun" changeset="2020388" lat="52.3833213" lon="16.886512">
    <tag k="addr:city" v="Poznań"/>
    <tag k="addr:housenumber" v="3"/>
    <tag k="addr:street" v="Daleka"/>
    <tag k="source" v="http://ump.waw.pl/ retrieved 15:05:23 06/30/09 (UMP-Poznan/src/POZNAN.ulice.txt)"/>
  </node>
  <node id="454668412" version="1" timestamp="2009-08-02T22:46:36Z" uid="20587" user="balrog-kun" changeset="2020388" lat="52.3894043" lon="16.891143">
    <tag k="addr:city" v="Poznań"/>
    <tag k="addr:housenumber" v="8"/>
    <tag k="addr:street" v="Błażeja Winklera"/>
    <tag k="source" v="http://ump.waw.pl/ retrieved 15:05:23 06/30/09 (UMP-Poznan/src/POZNAN.ulice.txt)"/>
  </node>
  <node id="454668413" version="1" timestamp="2009-08-02T22:46:36Z" uid="20587" user="balrog-kun" changeset="2020388" lat="52.3821656" lon="16.8920462">
    <tag k="addr:city" v="Poznań"/>
    <tag k="addr:housenumber" v="131"/>
    <tag k="addr:street" v="Romana Dmowskiego"/>
    <tag k="source" v="http://ump.waw.pl/ retrieved 15:05:23 06/30/09 (UMP-Poznan/src/POZNAN.ulice.txt)"/>
  </node>
  <node id="454668415" version="1" timestamp="2009-08-02T22:46:36Z" uid="20587" user="balrog-kun" changeset="2020388" lat="52.3899012" lon="16.8893768">
    <tag k="addr:city" v="Poznań"/>
    <tag k="addr:housenumber" v="18"/>
    <tag k="addr:street" v="Błażeja Winklera"/>
    <tag k="source" v="http://ump.waw.pl/ retrieved 15:05:23 06/30/09 (UMP-Poznan/src/POZNAN.ulice.txt)"/>
  </node>
  <node id="454668416" version="1" timestamp="2009-08-02T22:46:36Z" uid="20587" user="balrog-kun" changeset="2020388" lat="52.3896382" lon="16.8888668">
    <tag k="addr:city" v="Poznań"/>
    <tag k="addr:housenumber" v="60"/>
    <tag k="addr:street" v="Kazimierza Jarochowskiego"/>
    <tag k="source" v="http://ump.waw.pl/ retrieved 15:05:23 06/30/09 (UMP-Poznan/src/POZNAN.ulice.txt)"/>
  </node>
  <node id="454668417" version="1" timestamp="2009-08-02T22:46:36Z" uid="20587" user="balrog-kun" changeset="2020388" lat="52.3911276" lon="16.8907155">
    <tag k="addr:city" v="Poznań"/>
    <tag k="addr:housenumber" v="28"/>
    <tag k="addr:street" v="Hetmańska"/>
    <tag k="source" v="http://ump.waw.pl/ retrieved 15:05:23 06/30/09 (UMP-Poznan/src/POZNAN.ulice.txt)"/>
  </node>
  <node id="454668418" version="1" timestamp="2009-08-02T22:46:37Z" uid="20587" user="balrog-kun" changeset="2020388" lat="52.3830815" lon="16.8894346">
    <tag k="addr:city" v="Poznań"/>
    <tag k="addr:housenumber" v="18"/>
    <tag k="addr:street" v="Bosa"/>
    <tag k="source" v="http://ump.waw.pl/ retrieved 15:05:23 06/30/09 (UMP-Poznan/src/POZNAN.ulice.txt)"/>
  </node>
  <node id="454668419" version="1" timestamp="2009-08-02T22:46:37Z" uid="20587" user="balrog-kun" changeset="2020388" lat="52.3810516" lon="16.8758429">
    <tag k="addr:city" v="Poznań"/>
    <tag k="addr:housenumber" v="3"/>
    <tag k="addr:street" v="Węglowa"/>
    <tag k="source" v="http://ump.waw.pl/ retrieved 15:05:23 06/30/09 (UMP-Poznan/src/POZNAN.ulice.txt)"/>
  </node>
  <node id="454668420" version="1" timestamp="2009-08-02T22:46:37Z" uid="20587" user="balrog-kun" changeset="2020388" lat="52.3865045" lon="16.8949879">
    <tag k="addr:city" v="Poznań"/>
    <tag k="addr:housenumber" v="27"/>
    <tag k="addr:street" v="Jakuba Krauthofera"/>
    <tag k="source" v="http://ump.waw.pl/ retrieved 15:05:23 06/30/09 (UMP-Poznan/src/POZNAN.ulice.txt)"/>
  </node>
  <node id="454668421" version="1" timestamp="2009-08-02T22:46:37Z" uid="20587" user="balrog-kun" changeset="2020388" lat="52.3905483" lon="16.8855613">
    <tag k="addr:city" v="Poznań"/>
    <tag k="addr:housenumber" v="27"/>
    <tag k="addr:street" v="Błażeja Winklera"/>
    <tag k="source" v="http://ump.waw.pl/ retrieved 15:05:23 06/30/09 (UMP-Poznan/src/POZNAN.ulice.txt)"/>
  </node>
  <node id="454668422" version="1" timestamp="2009-08-02T22:46:37Z" uid="20587" user="balrog-kun" changeset="2020388" lat="52.3861" lon="16.8814024">
    <tag k="addr:city" v="Poznań"/>
    <tag k="addr:housenumber" v="2"/>
    <tag k="addr:street" v="Księdza Piotra Skargi"/>
    <tag k="source" v="http://ump.waw.pl/ retrieved 15:05:23 06/30/09 (UMP-Poznan/src/POZNAN.ulice.txt)"/>
  </node>
  <node id="454668424" version="1" timestamp="2009-08-02T22:46:37Z" uid="20587" user="balrog-kun" changeset="2020388" lat="52.3892402" lon="16.8936383">
    <tag k="addr:city" v="Poznań"/>
    <tag k="addr:housenumber" v="125"/>
    <tag k="addr:street" v="Głogowska"/>
    <tag k="source" v="http://ump.waw.pl/ retrieved 15:05:23 06/30/09 (UMP-Poznan/src/POZNAN.ulice.txt)"/>
  </node>
  <node id="454668425" version="1" timestamp="2009-08-02T22:46:37Z" uid="20587" user="balrog-kun" changeset="2020388" lat="52.3832923" lon="16.8896363">
    <tag k="addr:city" v="Poznań"/>
    <tag k="addr:housenumber" v="17"/>
    <tag k="addr:street" v="Bosa"/>
    <tag k="source" v="http://ump.waw.pl/ retrieved 15:05:23 06/30/09 (UMP-Poznan/src/POZNAN.ulice.txt)"/>
  </node>
  <node id="454668426" version="1" timestamp="2009-08-02T22:46:37Z" uid="20587" user="balrog-kun" changeset="2020388" lat="52.3829318" lon="16.8853756">
    <tag k="addr:city" v="Poznań"/>
    <tag k="addr:housenumber" v="177"/>
    <tag k="addr:street" v="Głogowska"/>
    <tag k="source" v="http://ump.waw.pl/ retrieved 15:05:23 06/30/09 (UMP-Poznan/src/POZNAN.ulice.txt)"/>
  </node>
  <node id="454668427" version="1" timestamp="2009-08-02T22:46:37Z" uid="20587" user="balrog-kun" changeset="2020388" lat="52.3864063" lon="16.8806377">
    <tag k="addr:city" v="Poznań"/>
    <tag k="addr:housenumber" v="12"/>
    <tag k="addr:street" v="Księdza Augustyna Kordeckiego"/>
    <tag k="source" v="http://ump.waw.pl/ retrieved 15:05:23 06/30/09 (UMP-Poznan/src/POZNAN.ulice.txt)"/>
  </node>
  <node id="454668429" version="1" timestamp="2009-08-02T22:46:37Z" uid="20587" user="balrog-kun" changeset="2020388" lat="52.3935347" lon="16.8870323">
    <tag k="addr:city" v="Poznań"/>
    <tag k="addr:housenumber" v="47"/>
    <tag k="addr:street" v="Józefa Chociszewskiego"/>
    <tag k="source" v="http://ump.waw.pl/ retrieved 15:05:23 06/30/09 (UMP-Poznan/src/POZNAN.ulice.txt)"/>
  </node>
  <node id="454668431" version="1" timestamp="2009-08-02T22:46:37Z" uid="20587" user="balrog-kun" changeset="2020388" lat="52.3889825" lon="16.8923458">
    <tag k="addr:city" v="Poznań"/>
    <tag k="addr:housenumber" v="2"/>
    <tag k="addr:street" v="Błażeja Winklera"/>
    <tag k="source" v="http://ump.waw.pl/ retrieved 15:05:23 06/30/09 (UMP-Poznan/src/POZNAN.ulice.txt)"/>
  </node>
  <node id="454668433" version="1" timestamp="2009-08-02T22:46:37Z" uid="20587" user="balrog-kun" changeset="2020388" lat="52.3820821" lon="16.8865255">
    <tag k="addr:city" v="Poznań"/>
    <tag k="addr:housenumber" v="7"/>
    <tag k="addr:street" v="Antoniego Andrzejewskiego"/>
    <tag k="source" v="http://ump.waw.pl/ retrieved 15:05:23 06/30/09 (UMP-Poznan/src/POZNAN.ulice.txt)"/>
  </node>
  <node id="454668435" version="1" timestamp="2009-08-02T22:46:37Z" uid="20587" user="balrog-kun" changeset="2020388" lat="52.3815667" lon="16.8864164">
    <tag k="addr:city" v="Poznań"/>
    <tag k="addr:housenumber" v="12"/>
    <tag k="addr:street" v="Krzywa"/>
    <tag k="source" v="http://ump.waw.pl/ retrieved 15:05:23 06/30/09 (UMP-Poznan/src/POZNAN.ulice.txt)"/>
  </node>
  <node id="454668437" version="1" timestamp="2009-08-02T22:46:37Z" uid="20587" user="balrog-kun" changeset="2020388" lat="52.3855345" lon="16.8885981">
    <tag k="addr:city" v="Poznań"/>
    <tag k="addr:housenumber" v="160"/>
    <tag k="addr:street" v="Głogowska"/>
    <tag k="source" v="http://ump.waw.pl/ retrieved 15:05:23 06/30/09 (UMP-Poznan/src/POZNAN.ulice.txt)"/>
  </node>
  <node id="454668438" version="1" timestamp="2009-08-02T22:46:37Z" uid="20587" user="balrog-kun" changeset="2020388" lat="52.3849892" lon="16.8804453">
    <tag k="addr:city" v="Poznań"/>
    <tag k="addr:housenumber" v="18"/>
    <tag k="addr:street" v="Logi"/>
    <tag k="source" v="http://ump.waw.pl/ retrieved 15:05:23 06/30/09 (UMP-Poznan/src/POZNAN.ulice.txt)"/>
  </node>
  <node id="454668439" version="1" timestamp="2009-08-02T22:46:37Z" uid="20587" user="balrog-kun" changeset="2020388" lat="52.3824856" lon="16.8922162">
    <tag k="addr:city" v="Poznań"/>
    <tag k="addr:housenumber" v="129"/>
    <tag k="addr:street" v="Romana Dmowskiego"/>
    <tag k="source" v="http://ump.waw.pl/ retrieved 15:05:23 06/30/09 (UMP-Poznan/src/POZNAN.ulice.txt)"/>
  </node>
  <node id="454668440" version="1" timestamp="2009-08-02T22:46:37Z" uid="20587" user="balrog-kun" changeset="2020388" lat="52.3831388" lon="16.8795528">
    <tag k="addr:city" v="Poznań"/>
    <tag k="addr:housenumber" v="2"/>
    <tag k="addr:street" v="Częstochowska"/>
    <tag k="source" v="http://ump.waw.pl/ retrieved 15:05:23 06/30/09 (UMP-Poznan/src/POZNAN.ulice.txt)"/>
  </node>
  <node id="454668441" version="1" timestamp="2009-08-02T22:46:37Z" uid="20587" user="balrog-kun" changeset="2020388" lat="52.3849949" lon="16.888905">
    <tag k="addr:city" v="Poznań"/>
    <tag k="addr:housenumber" v="155"/>
    <tag k="addr:street" v="Głogowska"/>
    <tag k="source" v="http://ump.waw.pl/ retrieved 15:05:23 06/30/09 (UMP-Poznan/src/POZNAN.ulice.txt)"/>
  </node>
  <node id="454668442" version="1" timestamp="2009-08-02T22:46:37Z" uid="20587" user="balrog-kun" changeset="2020388" lat="52.3869814" lon="16.8880988">
    <tag k="addr:city" v="Poznań"/>
    <tag k="addr:housenumber" v="6"/>
    <tag k="addr:street" v="Kuźnicza"/>
    <tag k="source" v="http://ump.waw.pl/ retrieved 15:05:23 06/30/09 (UMP-Poznan/src/POZNAN.ulice.txt)"/>
  </node>
  <node id="454668443" version="1" timestamp="2009-08-02T22:46:38Z" uid="20587" user="balrog-kun" changeset="2020388" lat="52.3813857" lon="16.8869909">
    <tag k="addr:city" v="Poznań"/>
    <tag k="addr:housenumber" v="14"/>
    <tag k="addr:street" v="Krzywa"/>
    <tag k="source" v="http://ump.waw.pl/ retrieved 15:05:23 06/30/09 (UMP-Poznan/src/POZNAN.ulice.txt)"/>
  </node>
  <node id="454668444" version="1" timestamp="2009-08-02T22:46:38Z" uid="20587" user="balrog-kun" changeset="2020388" lat="52.3858038" lon="16.8799321">
    <tag k="addr:city" v="Poznań"/>
    <tag k="addr:housenumber" v="16"/>
    <tag k="addr:street" v="Księdza Augustyna Kordeckiego"/>
    <tag k="source" v="http://ump.waw.pl/ retrieved 15:05:23 06/30/09 (UMP-Poznan/src/POZNAN.ulice.txt)"/>
  </node>
  <node id="454668445" version="1" timestamp="2009-08-02T22:46:38Z" uid="20587" user="balrog-kun" changeset="2020388" lat="52.3866591" lon="16.8848858">
    <tag k="addr:city" v="Poznań"/>
    <tag k="addr:housenumber" v="31"/>
    <tag k="addr:street" v="Górczyńska"/>
    <tag k="source" v="http://ump.waw.pl/ retrieved 15:05:23 06/30/09 (UMP-Poznan/src/POZNAN.ulice.txt)"/>
  </node>
  <node id="454668447" version="1" timestamp="2009-08-02T22:46:38Z" uid="20587" user="balrog-kun" changeset="2020388" lat="52.3931609" lon="16.8891052">
    <tag k="addr:city" v="Poznań"/>
    <tag k="addr:housenumber" v="40"/>
    <tag k="addr:street" v="Józefa Chociszewskiego"/>
    <tag k="source" v="http://ump.waw.pl/ retrieved 15:05:23 06/30/09 (UMP-Poznan/src/POZNAN.ulice.txt)"/>
  </node>
  <node id="454668448" version="1" timestamp="2009-08-02T22:46:38Z" uid="20587" user="balrog-kun" changeset="2020388" lat="52.3899131" lon="16.8934559">
    <tag k="addr:city" v="Poznań"/>
    <tag k="addr:housenumber" v="114"/>
    <tag k="addr:street" v="Głogowska"/>
    <tag k="source" v="http://ump.waw.pl/ retrieved 15:05:23 06/30/09 (UMP-Poznan/src/POZNAN.ulice.txt)"/>
  </node>
  <node id="454668449" version="1" timestamp="2009-08-02T22:46:38Z" uid="20587" user="balrog-kun" changeset="2020388" lat="52.3844915" lon="16.8927522">
    <tag k="addr:city" v="Poznań"/>
    <tag k="addr:housenumber" v="17"/>
    <tag k="addr:street" v="Górki"/>
    <tag k="source" v="http://ump.waw.pl/ retrieved 15:05:23 06/30/09 (UMP-Poznan/src/POZNAN.ulice.txt)"/>
  </node>
  <node id="454668450" version="1" timestamp="2009-08-02T22:46:38Z" uid="20587" user="balrog-kun" changeset="2020388" lat="52.3861588" lon="16.8822071">
    <tag k="addr:city" v="Poznań"/>
    <tag k="addr:housenumber" v="11"/>
    <tag k="addr:street" v="Księdza Piotra Skargi"/>
    <tag k="source" v="http://ump.waw.pl/ retrieved 15:05:23 06/30/09 (UMP-Poznan/src/POZNAN.ulice.txt)"/>
  </node>
  <node id="454668451" version="1" timestamp="2009-08-02T22:46:38Z" uid="20587" user="balrog-kun" changeset="2020388" lat="52.3933621" lon="16.8885105">
    <tag k="addr:city" v="Poznań"/>
    <tag k="addr:housenumber" v="42"/>
    <tag k="addr:street" v="Józefa Chociszewskiego"/>
    <tag k="source" v="http://ump.waw.pl/ retrieved 15:05:23 06/30/09 (UMP-Poznan/src/POZNAN.ulice.txt)"/>
  </node>
  <node id="454668452" version="1" timestamp="2009-08-02T22:46:38Z" uid="20587" user="balrog-kun" changeset="2020388" lat="52.3914089" lon="16.8932639">
    <tag k="addr:city" v="Poznań"/>
    <tag k="addr:housenumber" v="7"/>
    <tag k="addr:street" v="Józefa Chociszewskiego"/>
    <tag k="source" v="http://ump.waw.pl/ retrieved 15:05:23 06/30/09 (UMP-Poznan/src/POZNAN.ulice.txt)"/>
  </node>
  <node id="454668453" version="1" timestamp="2009-08-02T22:46:38Z" uid="20587" user="balrog-kun" changeset="2020388" lat="52.3839144" lon="16.8884097">
    <tag k="addr:city" v="Poznań"/>
    <tag k="addr:housenumber" v="7"/>
    <tag k="addr:street" v="Bosa"/>
    <tag k="source" v="http://ump.waw.pl/ retrieved 15:05:23 06/30/09 (UMP-Poznan/src/POZNAN.ulice.txt)"/>
  </node>
  <node id="454668454" version="1" timestamp="2009-08-02T22:46:38Z" uid="20587" user="balrog-kun" changeset="2020388" lat="52.381929" lon="16.8801818">
    <tag k="addr:city" v="Poznań"/>
    <tag k="addr:housenumber" v="9"/>
    <tag k="addr:street" v="Albańska"/>
    <tag k="source" v="http://ump.waw.pl/ retrieved 15:05:23 06/30/09 (UMP-Poznan/src/POZNAN.ulice.txt)"/>
  </node>
  <node id="454668455" version="1" timestamp="2009-08-02T22:46:38Z" uid="20587" user="balrog-kun" changeset="2020388" lat="52.3864281" lon="16.8835816">
    <tag k="addr:city" v="Poznań"/>
    <tag k="addr:housenumber" v="36"/>
    <tag k="addr:street" v="Sielska"/>
    <tag k="source" v="http://ump.waw.pl/ retrieved 15:05:23 06/30/09 (UMP-Poznan/src/POZNAN.ulice.txt)"/>
  </node>
  <node id="454668456" version="1" timestamp="2009-08-02T22:46:38Z" uid="20587" user="balrog-kun" changeset="2020388" lat="52.3873749" lon="16.8820679">
    <tag k="addr:city" v="Poznań"/>
    <tag k="addr:housenumber" v="4"/>
    <tag k="addr:street" v="Księdza Augustyna Kordeckiego"/>
    <tag k="source" v="http://ump.waw.pl/ retrieved 15:05:23 06/30/09 (UMP-Poznan/src/POZNAN.ulice.txt)"/>
  </node>
  <node id="454668458" version="1" timestamp="2009-08-02T22:46:38Z" uid="20587" user="balrog-kun" changeset="2020388" lat="52.3891833" lon="16.8909729">
    <tag k="addr:city" v="Poznań"/>
    <tag k="addr:housenumber" v="5"/>
    <tag k="addr:street" v="Błażeja Winklera"/>
    <tag k="source" v="http://ump.waw.pl/ retrieved 15:05:23 06/30/09 (UMP-Poznan/src/POZNAN.ulice.txt)"/>
  </node>
  <node id="454668459" version="1" timestamp="2009-08-02T22:46:38Z" uid="20587" user="balrog-kun" changeset="2020388" lat="52.3858324" lon="16.8889186">
    <tag k="addr:city" v="Poznań"/>
    <tag k="addr:housenumber" v="4"/>
    <tag k="addr:street" v="Kosynierska"/>
    <tag k="source" v="http://ump.waw.pl/ retrieved 15:05:23 06/30/09 (UMP-Poznan/src/POZNAN.ulice.txt)"/>
  </node>
  <node id="454668460" version="1" timestamp="2009-08-02T22:46:38Z" uid="20587" user="balrog-kun" changeset="2020388" lat="52.3864537" lon="16.8931402">
    <tag k="addr:city" v="Poznań"/>
    <tag k="addr:housenumber" v="14"/>
    <tag k="addr:street" v="Jakuba Krauthofera"/>
    <tag k="source" v="http://ump.waw.pl/ retrieved 15:05:23 06/30/09 (UMP-Poznan/src/POZNAN.ulice.txt)"/>
  </node>
  <node id="454668461" version="1" timestamp="2009-08-02T22:46:38Z" uid="20587" user="balrog-kun" changeset="2020388" lat="52.3907989" lon="16.8913192">
    <tag k="addr:city" v="Poznań"/>
    <tag k="addr:housenumber" v="2"/>
    <tag k="addr:street" v="Nehringa"/>
    <tag k="source" v="http://ump.waw.pl/ retrieved 15:05:23 06/30/09 (UMP-Poznan/src/POZNAN.ulice.txt)"/>
  </node>
  <node id="454668462" version="1" timestamp="2009-08-02T22:46:38Z" uid="20587" user="balrog-kun" changeset="2020388" lat="52.3815841" lon="16.891855">
    <tag k="addr:city" v="Poznań"/>
    <tag k="addr:housenumber" v="139"/>
    <tag k="addr:street" v="Romana Dmowskiego"/>
    <tag k="source" v="http://ump.waw.pl/ retrieved 15:05:23 06/30/09 (UMP-Poznan/src/POZNAN.ulice.txt)"/>
  </node>
  <node id="454668463" version="1" timestamp="2009-08-02T22:46:38Z" uid="20587" user="balrog-kun" changeset="2020388" lat="52.3840334" lon="16.8824017">
    <tag k="addr:city" v="Poznań"/>
    <tag k="addr:housenumber" v="20"/>
    <tag k="addr:street" v="Ostrobramska"/>
    <tag k="source" v="http://ump.waw.pl/ retrieved 15:05:23 06/30/09 (UMP-Poznan/src/POZNAN.ulice.txt)"/>
  </node>
  <node id="454668465" version="1" timestamp="2009-08-02T22:46:39Z" uid="20587" user="balrog-kun" changeset="2020388" lat="52.3938046" lon="16.8872036">
    <tag k="addr:city" v="Poznań"/>
    <tag k="addr:housenumber" v="54"/>
    <tag k="addr:street" v="Józefa Chociszewskiego"/>
    <tag k="source" v="http://ump.waw.pl/ retrieved 15:05:23 06/30/09 (UMP-Poznan/src/POZNAN.ulice.txt)"/>
  </node>
  <node id="454668466" version="1" timestamp="2009-08-02T22:46:39Z" uid="20587" user="balrog-kun" changeset="2020388" lat="52.3886453" lon="16.8904322">
    <tag k="addr:city" v="Poznań"/>
    <tag k="addr:housenumber" v="54"/>
    <tag k="addr:street" v="Jana Kasprzaka"/>
    <tag k="source" v="http://ump.waw.pl/ retrieved 15:05:23 06/30/09 (UMP-Poznan/src/POZNAN.ulice.txt)"/>
  </node>
  <node id="454668467" version="1" timestamp="2009-08-02T22:46:39Z" uid="20587" user="balrog-kun" changeset="2020388" lat="52.3915208" lon="16.8929529">
    <tag k="addr:city" v="Poznań"/>
    <tag k="addr:housenumber" v="9"/>
    <tag k="addr:street" v="Józefa Chociszewskiego"/>
    <tag k="source" v="http://ump.waw.pl/ retrieved 15:05:23 06/30/09 (UMP-Poznan/src/POZNAN.ulice.txt)"/>
  </node>
  <node id="454668468" version="1" timestamp="2009-08-02T22:46:39Z" uid="20587" user="balrog-kun" changeset="2020388" lat="52.3852386" lon="16.8953739">
    <tag k="addr:city" v="Poznań"/>
    <tag k="addr:housenumber" v="85"/>
    <tag k="addr:street" v="Romana Dmowskiego"/>
    <tag k="source" v="http://ump.waw.pl/ retrieved 15:05:23 06/30/09 (UMP-Poznan/src/POZNAN.ulice.txt)"/>
  </node>
  <node id="454668469" version="1" timestamp="2009-08-02T22:46:39Z" uid="20587" user="balrog-kun" changeset="2020388" lat="52.3843253" lon="16.8799679">
    <tag k="addr:city" v="Poznań"/>
    <tag k="addr:housenumber" v="23"/>
    <tag k="addr:street" v="Logi"/>
    <tag k="source" v="http://ump.waw.pl/ retrieved 15:05:23 06/30/09 (UMP-Poznan/src/POZNAN.ulice.txt)"/>
  </node>
  <node id="454668470" version="1" timestamp="2009-08-02T22:46:39Z" uid="20587" user="balrog-kun" changeset="2020388" lat="52.3841076" lon="16.8921597">
    <tag k="addr:city" v="Poznań"/>
    <tag k="addr:housenumber" v="20"/>
    <tag k="addr:street" v="Górki"/>
    <tag k="source" v="http://ump.waw.pl/ retrieved 15:05:23 06/30/09 (UMP-Poznan/src/POZNAN.ulice.txt)"/>
  </node>
  <node id="454668472" version="1" timestamp="2009-08-02T22:46:39Z" uid="20587" user="balrog-kun" changeset="2020388" lat="52.3913783" lon="16.8941568">
    <tag k="addr:city" v="Poznań"/>
    <tag k="addr:housenumber" v="6"/>
    <tag k="addr:street" v="Józefa Chociszewskiego"/>
    <tag k="source" v="http://ump.waw.pl/ retrieved 15:05:23 06/30/09 (UMP-Poznan/src/POZNAN.ulice.txt)"/>
  </node>
  <node id="454668473" version="1" timestamp="2009-08-02T22:46:39Z" uid="20587" user="balrog-kun" changeset="2020388" lat="52.3826872" lon="16.8819093">
    <tag k="addr:city" v="Poznań"/>
    <tag k="addr:housenumber" v="20"/>
    <tag k="addr:street" v="Zgoda"/>
    <tag k="source" v="http://ump.waw.pl/ retrieved 15:05:23 06/30/09 (UMP-Poznan/src/POZNAN.ulice.txt)"/>
  </node>
  <node id="454668474" version="1" timestamp="2009-08-02T22:46:39Z" uid="20587" user="balrog-kun" changeset="2020388" lat="52.3889575" lon="16.8916542">
    <tag k="addr:city" v="Poznań"/>
    <tag k="addr:housenumber" v="3"/>
    <tag k="addr:street" v="Błażeja Winklera"/>
    <tag k="source" v="http://ump.waw.pl/ retrieved 15:05:23 06/30/09 (UMP-Poznan/src/POZNAN.ulice.txt)"/>
  </node>
  <node id="454668475" version="1" timestamp="2009-08-02T22:46:39Z" uid="20587" user="balrog-kun" changeset="2020388" lat="52.3843122" lon="16.887874">
    <tag k="addr:city" v="Poznań"/>
    <tag k="addr:housenumber" v="159"/>
    <tag k="addr:street" v="Głogowska"/>
    <tag k="source" v="http://ump.waw.pl/ retrieved 15:05:23 06/30/09 (UMP-Poznan/src/POZNAN.ulice.txt)"/>
  </node>
  <node id="454668476" version="1" timestamp="2009-08-02T22:46:40Z" uid="20587" user="balrog-kun" changeset="2020388" lat="52.3813473" lon="16.8864338">
    <tag k="addr:city" v="Poznań"/>
    <tag k="addr:housenumber" v="4"/>
    <tag k="addr:street" v="Metalowa"/>
    <tag k="source" v="http://ump.waw.pl/ retrieved 15:05:23 06/30/09 (UMP-Poznan/src/POZNAN.ulice.txt)"/>
  </node>
  <node id="454668477" version="1" timestamp="2009-08-02T22:46:40Z" uid="20587" user="balrog-kun" changeset="2020388" lat="52.3866426" lon="16.8811192">
    <tag k="addr:city" v="Poznań"/>
    <tag k="addr:housenumber" v="10"/>
    <tag k="addr:street" v="Księdza Augustyna Kordeckiego"/>
    <tag k="source" v="http://ump.waw.pl/ retrieved 15:05:23 06/30/09 (UMP-Poznan/src/POZNAN.ulice.txt)"/>
  </node>
  <node id="454668478" version="1" timestamp="2009-08-02T22:46:40Z" uid="20587" user="balrog-kun" changeset="2020388" lat="52.3847483" lon="16.889248">
    <tag k="addr:city" v="Poznań"/>
    <tag k="addr:housenumber" v="5"/>
    <tag k="addr:street" v="Stanisława Knapowskiego"/>
    <tag k="source" v="http://ump.waw.pl/ retrieved 15:05:23 06/30/09 (UMP-Poznan/src/POZNAN.ulice.txt)"/>
  </node>
  <node id="454668479" version="1" timestamp="2009-08-02T22:46:40Z" uid="20587" user="balrog-kun" changeset="2020388" lat="52.3859856" lon="16.889142">
    <tag k="addr:city" v="Poznań"/>
    <tag k="addr:housenumber" v="158"/>
    <tag k="addr:street" v="Głogowska"/>
    <tag k="source" v="http://ump.waw.pl/ retrieved 15:05:23 06/30/09 (UMP-Poznan/src/POZNAN.ulice.txt)"/>
  </node>
  <node id="454668481" version="1" timestamp="2009-08-02T22:46:40Z" uid="20587" user="balrog-kun" changeset="2020388" lat="52.3874922" lon="16.8892949">
    <tag k="addr:city" v="Poznań"/>
    <tag k="addr:housenumber" v="5"/>
    <tag k="addr:street" v="Macieja Palacza"/>
    <tag k="source" v="http://ump.waw.pl/ retrieved 15:05:23 06/30/09 (UMP-Poznan/src/POZNAN.ulice.txt)"/>
  </node>
  <node id="454668482" version="1" timestamp="2009-08-02T22:46:40Z" uid="20587" user="balrog-kun" changeset="2020388" lat="52.3894616" lon="16.8914635">
    <tag k="addr:city" v="Poznań"/>
    <tag k="addr:housenumber" v="48"/>
    <tag k="addr:street" v="Jana Kasprzaka"/>
    <tag k="source" v="http://ump.waw.pl/ retrieved 15:05:23 06/30/09 (UMP-Poznan/src/POZNAN.ulice.txt)"/>
  </node>
  <node id="454668483" version="1" timestamp="2009-08-02T22:46:40Z" uid="20587" user="balrog-kun" changeset="2020388" lat="52.3808825" lon="16.8862244">
    <tag k="addr:city" v="Poznań"/>
    <tag k="addr:housenumber" v="1"/>
    <tag k="addr:street" v="Metalowa"/>
    <tag k="source" v="http://ump.waw.pl/ retrieved 15:05:23 06/30/09 (UMP-Poznan/src/POZNAN.ulice.txt)"/>
  </node>
  <node id="454668484" version="1" timestamp="2009-08-02T22:46:40Z" uid="20587" user="balrog-kun" changeset="2020388" lat="52.3849075" lon="16.8877647">
    <tag k="addr:city" v="Poznań"/>
    <tag k="addr:housenumber" v="168"/>
    <tag k="addr:street" v="Głogowska"/>
    <tag k="source" v="http://ump.waw.pl/ retrieved 15:05:23 06/30/09 (UMP-Poznan/src/POZNAN.ulice.txt)"/>
  </node>
  <node id="454668485" version="1" timestamp="2009-08-02T22:46:40Z" uid="20587" user="balrog-kun" changeset="2020388" lat="52.3852998" lon="16.8883202">
    <tag k="addr:city" v="Poznań"/>
    <tag k="addr:housenumber" v="164"/>
    <tag k="addr:street" v="Głogowska"/>
    <tag k="source" v="http://ump.waw.pl/ retrieved 15:05:23 06/30/09 (UMP-Poznan/src/POZNAN.ulice.txt)"/>
  </node>
  <node id="454668486" version="1" timestamp="2009-08-02T22:46:40Z" uid="20587" user="balrog-kun" changeset="2020388" lat="52.3910989" lon="16.8904679">
    <tag k="addr:city" v="Poznań"/>
    <tag k="addr:housenumber" v="50"/>
    <tag k="addr:street" v="Kazimierza Jarochowskiego"/>
    <tag k="source" v="http://ump.waw.pl/ retrieved 15:05:23 06/30/09 (UMP-Poznan/src/POZNAN.ulice.txt)"/>
  </node>
  <node id="454668487" version="1" timestamp="2009-08-02T22:46:40Z" uid="20587" user="balrog-kun" changeset="2020388" lat="52.3837348" lon="16.8881388">
    <tag k="addr:city" v="Poznań"/>
    <tag k="addr:housenumber" v="6"/>
    <tag k="addr:street" v="Bosa"/>
    <tag k="source" v="http://ump.waw.pl/ retrieved 15:05:23 06/30/09 (UMP-Poznan/src/POZNAN.ulice.txt)"/>
  </node>
  <node id="454668489" version="1" timestamp="2009-08-02T22:46:40Z" uid="20587" user="balrog-kun" changeset="2020388" lat="52.3852494" lon="16.8788724">
    <tag k="addr:city" v="Poznań"/>
    <tag k="addr:housenumber" v="22"/>
    <tag k="addr:street" v="Księdza Augustyna Kordeckiego"/>
    <tag k="source" v="http://ump.waw.pl/ retrieved 15:05:23 06/30/09 (UMP-Poznan/src/POZNAN.ulice.txt)"/>
  </node>
  <node id="454668490" version="1" timestamp="2009-08-02T22:46:40Z" uid="20587" user="balrog-kun" changeset="2020388" lat="52.3809247" lon="16.8834806">
    <tag k="addr:city" v="Poznań"/>
    <tag k="addr:housenumber" v="28"/>
    <tag k="addr:street" v="Antoniego Andrzejewskiego"/>
    <tag k="source" v="http://ump.waw.pl/ retrieved 15:05:23 06/30/09 (UMP-Poznan/src/POZNAN.ulice.txt)"/>
  </node>
  <node id="454668491" version="1" timestamp="2009-08-02T22:46:40Z" uid="20587" user="balrog-kun" changeset="2020388" lat="52.3901178" lon="16.8943401"/>
  <node id="454668492" version="1" timestamp="2009-08-02T22:46:40Z" uid="20587" user="balrog-kun" changeset="2020388" lat="52.3842876" lon="16.8846018">
    <tag k="addr:city" v="Poznań"/>
    <tag k="addr:housenumber" v="12"/>
    <tag k="addr:street" v="Widok"/>
    <tag k="source" v="http://ump.waw.pl/ retrieved 15:05:23 06/30/09 (UMP-Poznan/src/POZNAN.ulice.txt)"/>
  </node>
  <node id="454668493" version="1" timestamp="2009-08-02T22:46:40Z" uid="20587" user="balrog-kun" changeset="2020388" lat="52.3823644" lon="16.8852403">
    <tag k="addr:city" v="Poznań"/>
    <tag k="addr:housenumber" v="179"/>
    <tag k="addr:street" v="Głogowska"/>
    <tag k="source" v="http://ump.waw.pl/ retrieved 15:05:23 06/30/09 (UMP-Poznan/src/POZNAN.ulice.txt)"/>
  </node>
  <node id="454668494" version="1" timestamp="2009-08-02T22:46:40Z" uid="20587" user="balrog-kun" changeset="2020388" lat="52.3878203" lon="16.8892636">
    <tag k="addr:city" v="Poznań"/>
    <tag k="addr:housenumber" v="8"/>
    <tag k="addr:street" v="Macieja Palacza"/>
    <tag k="source" v="http://ump.waw.pl/ retrieved 15:05:23 06/30/09 (UMP-Poznan/src/POZNAN.ulice.txt)"/>
  </node>
  <node id="454668495" version="1" timestamp="2009-08-02T22:46:41Z" uid="20587" user="balrog-kun" changeset="2020388" lat="52.3892597" lon="16.887744">
    <tag k="addr:city" v="Poznań"/>
    <tag k="addr:housenumber" v="61"/>
    <tag k="addr:street" v="Kazimierza Jarochowskiego"/>
    <tag k="source" v="http://ump.waw.pl/ retrieved 15:05:23 06/30/09 (UMP-Poznan/src/POZNAN.ulice.txt)"/>
  </node>
  <node id="454668496" version="1" timestamp="2009-08-02T22:46:41Z" uid="20587" user="balrog-kun" changeset="2020388" lat="52.3818879" lon="16.8919679">
    <tag k="addr:city" v="Poznań"/>
    <tag k="addr:housenumber" v="133"/>
    <tag k="addr:street" v="Romana Dmowskiego"/>
    <tag k="source" v="http://ump.waw.pl/ retrieved 15:05:23 06/30/09 (UMP-Poznan/src/POZNAN.ulice.txt)"/>
  </node>
  <node id="454668498" version="1" timestamp="2009-08-02T22:46:41Z" uid="20587" user="balrog-kun" changeset="2020388" lat="52.3884555" lon="16.8929407">
    <tag k="addr:city" v="Poznań"/>
    <tag k="addr:housenumber" v="131"/>
    <tag k="addr:street" v="Głogowska"/>
    <tag k="source" v="http://ump.waw.pl/ retrieved 15:05:23 06/30/09 (UMP-Poznan/src/POZNAN.ulice.txt)"/>
  </node>
  <node id="454668499" version="1" timestamp="2009-08-02T22:46:41Z" uid="20587" user="balrog-kun" changeset="2020388" lat="52.3853698" lon="16.8904117">
    <tag k="addr:city" v="Poznań"/>
    <tag k="addr:housenumber" v="5"/>
    <tag k="addr:street" v="Górki"/>
    <tag k="source" v="http://ump.waw.pl/ retrieved 15:05:23 06/30/09 (UMP-Poznan/src/POZNAN.ulice.txt)"/>
  </node>
  <node id="454668500" version="1" timestamp="2009-08-02T22:46:41Z" uid="20587" user="balrog-kun" changeset="2020388" lat="52.3811187" lon="16.8789443">
    <tag k="addr:city" v="Poznań"/>
    <tag k="addr:housenumber" v="42"/>
    <tag k="addr:street" v="Zgoda"/>
    <tag k="source" v="http://ump.waw.pl/ retrieved 15:05:23 06/30/09 (UMP-Poznan/src/POZNAN.ulice.txt)"/>
  </node>
  <node id="454668501" version="1" timestamp="2009-08-02T22:46:41Z" uid="20587" user="balrog-kun" changeset="2020388" lat="52.3837537" lon="16.8935414">
    <tag k="addr:city" v="Poznań"/>
    <tag k="addr:housenumber" v="109"/>
    <tag k="addr:street" v="Romana Dmowskiego"/>
    <tag k="source" v="http://ump.waw.pl/ retrieved 15:05:23 06/30/09 (UMP-Poznan/src/POZNAN.ulice.txt)"/>
  </node>
  <node id="454668502" version="1" timestamp="2009-08-02T22:46:41Z" uid="20587" user="balrog-kun" changeset="2020388" lat="52.3826578" lon="16.8923489">
    <tag k="addr:city" v="Poznań"/>
    <tag k="addr:housenumber" v="127"/>
    <tag k="addr:street" v="Romana Dmowskiego"/>
    <tag k="source" v="http://ump.waw.pl/ retrieved 15:05:23 06/30/09 (UMP-Poznan/src/POZNAN.ulice.txt)"/>
  </node>
  <node id="454668503" version="1" timestamp="2009-08-02T22:46:41Z" uid="20587" user="balrog-kun" changeset="2020388" lat="52.3859469" lon="16.8900752">
    <tag k="addr:city" v="Poznań"/>
    <tag k="addr:housenumber" v="147"/>
    <tag k="addr:street" v="Głogowska"/>
    <tag k="source" v="http://ump.waw.pl/ retrieved 15:05:23 06/30/09 (UMP-Poznan/src/POZNAN.ulice.txt)"/>
  </node>
  <node id="454668504" version="1" timestamp="2009-08-02T22:46:41Z" uid="20587" user="balrog-kun" changeset="2020388" lat="52.3863702" lon="16.8818673">
    <tag k="addr:city" v="Poznań"/>
    <tag k="addr:housenumber" v="1"/>
    <tag k="addr:street" v="Księdza Piotra Skargi"/>
    <tag k="source" v="http://ump.waw.pl/ retrieved 15:05:23 06/30/09 (UMP-Poznan/src/POZNAN.ulice.txt)"/>
  </node>
  <node id="454668505" version="1" timestamp="2009-08-02T22:46:41Z" uid="20587" user="balrog-kun" changeset="2020388" lat="52.3847153" lon="16.8815874">
    <tag k="addr:city" v="Poznań"/>
    <tag k="addr:housenumber" v="15"/>
    <tag k="addr:street" v="Księdza Piotra Ściegiennego"/>
    <tag k="source" v="http://ump.waw.pl/ retrieved 15:05:23 06/30/09 (UMP-Poznan/src/POZNAN.ulice.txt)"/>
  </node>
  <node id="454668507" version="1" timestamp="2009-08-02T22:46:41Z" uid="20587" user="balrog-kun" changeset="2020388" lat="52.3827182" lon="16.8800245">
    <tag k="addr:city" v="Poznań"/>
    <tag k="addr:housenumber" v="34"/>
    <tag k="addr:street" v="Ostrobramska"/>
    <tag k="source" v="http://ump.waw.pl/ retrieved 15:05:23 06/30/09 (UMP-Poznan/src/POZNAN.ulice.txt)"/>
  </node>
  <node id="454668508" version="1" timestamp="2009-08-02T22:46:41Z" uid="20587" user="balrog-kun" changeset="2020388" lat="52.3871452" lon="16.8850524">
    <tag k="addr:city" v="Poznań"/>
    <tag k="addr:housenumber" v="40"/>
    <tag k="addr:street" v="Górczyńska"/>
    <tag k="source" v="http://ump.waw.pl/ retrieved 15:05:23 06/30/09 (UMP-Poznan/src/POZNAN.ulice.txt)"/>
  </node>
  <node id="454668509" version="1" timestamp="2009-08-02T22:46:41Z" uid="20587" user="balrog-kun" changeset="2020388" lat="52.3917208" lon="16.8891528">
    <tag k="addr:city" v="Poznań"/>
    <tag k="addr:housenumber" v="18"/>
    <tag k="addr:street" v="Hetmańska"/>
    <tag k="source" v="http://ump.waw.pl/ retrieved 15:05:23 06/30/09 (UMP-Poznan/src/POZNAN.ulice.txt)"/>
  </node>
  <node id="454668510" version="1" timestamp="2009-08-02T22:46:41Z" uid="20587" user="balrog-kun" changeset="2020388" lat="52.3846947" lon="16.8801126"/>
  <node id="454668511" version="1" timestamp="2009-08-02T22:46:41Z" uid="20587" user="balrog-kun" changeset="2020388" lat="52.384502" lon="16.8897048">
    <tag k="addr:city" v="Poznań"/>
    <tag k="addr:housenumber" v="7"/>
    <tag k="addr:street" v="Stanisława Knapowskiego"/>
    <tag k="source" v="http://ump.waw.pl/ retrieved 15:05:23 06/30/09 (UMP-Poznan/src/POZNAN.ulice.txt)"/>
  </node>
  <node id="454668512" version="1" timestamp="2009-08-02T22:46:41Z" uid="20587" user="balrog-kun" changeset="2020388" lat="52.3829736" lon="16.8766706">
    <tag k="addr:city" v="Poznań"/>
    <tag k="addr:housenumber" v="18"/>
    <tag k="addr:street" v="Słowicza"/>
    <tag k="source" v="http://ump.waw.pl/ retrieved 15:05:23 06/30/09 (UMP-Poznan/src/POZNAN.ulice.txt)"/>
  </node>
  <node id="454668513" version="1" timestamp="2009-08-02T22:46:41Z" uid="20587" user="balrog-kun" changeset="2020388" lat="52.3888656" lon="16.8906652">
    <tag k="addr:city" v="Poznań"/>
    <tag k="addr:housenumber" v="52"/>
    <tag k="addr:street" v="Jana Kasprzaka"/>
    <tag k="source" v="http://ump.waw.pl/ retrieved 15:05:23 06/30/09 (UMP-Poznan/src/POZNAN.ulice.txt)"/>
  </node>
  <node id="454668514" version="1" timestamp="2009-08-02T22:46:42Z" uid="20587" user="balrog-kun" changeset="2020388" lat="52.3907419" lon="16.886411">
    <tag k="addr:city" v="Poznań"/>
    <tag k="addr:housenumber" v="16"/>
    <tag k="addr:street" v="Józefa Rogalińskiego"/>
    <tag k="source" v="http://ump.waw.pl/ retrieved 15:05:23 06/30/09 (UMP-Poznan/src/POZNAN.ulice.txt)"/>
  </node>
  <node id="454668515" version="1" timestamp="2009-08-02T22:46:42Z" uid="20587" user="balrog-kun" changeset="2020388" lat="52.3896237" lon="16.889413">
    <tag k="addr:city" v="Poznań"/>
    <tag k="addr:housenumber" v="9"/>
    <tag k="addr:street" v="Błażeja Winklera"/>
    <tag k="source" v="http://ump.waw.pl/ retrieved 15:05:23 06/30/09 (UMP-Poznan/src/POZNAN.ulice.txt)"/>
  </node>
  <node id="454668516" version="1" timestamp="2009-08-02T22:46:42Z" uid="20587" user="balrog-kun" changeset="2020388" lat="52.3839316" lon="16.8840005">
    <tag k="addr:city" v="Poznań"/>
    <tag k="addr:housenumber" v="14"/>
    <tag k="addr:street" v="Widok"/>
    <tag k="source" v="http://ump.waw.pl/ retrieved 15:05:23 06/30/09 (UMP-Poznan/src/POZNAN.ulice.txt)"/>
  </node>
  <node id="454668518" version="1" timestamp="2009-08-02T22:46:42Z" uid="20587" user="balrog-kun" changeset="2020388" lat="52.3811773" lon="16.8897265">
    <tag k="addr:city" v="Poznań"/>
    <tag k="addr:housenumber" v="33"/>
    <tag k="addr:street" v="Krzywa"/>
    <tag k="source" v="http://ump.waw.pl/ retrieved 15:05:23 06/30/09 (UMP-Poznan/src/POZNAN.ulice.txt)"/>
  </node>
  <node id="454668519" version="1" timestamp="2009-08-02T22:46:42Z" uid="20587" user="balrog-kun" changeset="2020388" lat="52.3865896" lon="16.880229">
    <tag k="addr:city" v="Poznań"/>
    <tag k="addr:housenumber" v="32"/>
    <tag k="addr:street" v="Księdza Piotra Ściegiennego"/>
    <tag k="source" v="http://ump.waw.pl/ retrieved 15:05:23 06/30/09 (UMP-Poznan/src/POZNAN.ulice.txt)"/>
  </node>
  <node id="454668520" version="1" timestamp="2009-08-02T22:46:42Z" uid="20587" user="balrog-kun" changeset="2020388" lat="52.38323" lon="16.8922103">
    <tag k="addr:city" v="Poznań"/>
    <tag k="addr:housenumber" v="27"/>
    <tag k="addr:street" v="Stanisława Knapowskiego"/>
    <tag k="source" v="http://ump.waw.pl/ retrieved 15:05:23 06/30/09 (UMP-Poznan/src/POZNAN.ulice.txt)"/>
  </node>
  <node id="454668521" version="1" timestamp="2009-08-02T22:46:42Z" uid="20587" user="balrog-kun" changeset="2020388" lat="52.3807482" lon="16.8774685">
    <tag k="addr:city" v="Poznań"/>
    <tag k="addr:housenumber" v="47"/>
    <tag k="addr:street" v="Ostrobramska"/>
    <tag k="source" v="http://ump.waw.pl/ retrieved 15:05:23 06/30/09 (UMP-Poznan/src/POZNAN.ulice.txt)"/>
  </node>
  <node id="454668522" version="1" timestamp="2009-08-02T22:46:42Z" uid="20587" user="balrog-kun" changeset="2020388" lat="52.3895867" lon="16.8905071">
    <tag k="addr:city" v="Poznań"/>
    <tag k="addr:housenumber" v="12"/>
    <tag k="addr:street" v="Błażeja Winklera"/>
    <tag k="source" v="http://ump.waw.pl/ retrieved 15:05:23 06/30/09 (UMP-Poznan/src/POZNAN.ulice.txt)"/>
  </node>
  <node id="454668523" version="1" timestamp="2009-08-02T22:46:42Z" uid="20587" user="balrog-kun" changeset="2020388" lat="52.3879509" lon="16.8923863">
    <tag k="addr:city" v="Poznań"/>
    <tag k="addr:housenumber" v="135"/>
    <tag k="addr:street" v="Głogowska"/>
    <tag k="source" v="http://ump.waw.pl/ retrieved 15:05:23 06/30/09 (UMP-Poznan/src/POZNAN.ulice.txt)"/>
  </node>
  <node id="454668524" version="1" timestamp="2009-08-02T22:46:42Z" uid="20587" user="balrog-kun" changeset="2020388" lat="52.3813316" lon="16.8888363">
    <tag k="addr:city" v="Poznań"/>
    <tag k="addr:housenumber" v="31"/>
    <tag k="addr:street" v="Krzywa"/>
    <tag k="source" v="http://ump.waw.pl/ retrieved 15:05:23 06/30/09 (UMP-Poznan/src/POZNAN.ulice.txt)"/>
  </node>
  <node id="454668525" version="1" timestamp="2009-08-02T22:46:42Z" uid="20587" user="balrog-kun" changeset="2020388" lat="52.3823599" lon="16.8740177">
    <tag k="addr:city" v="Poznań"/>
    <tag k="addr:housenumber" v="11"/>
    <tag k="addr:street" v="Węglowa"/>
    <tag k="source" v="http://ump.waw.pl/ retrieved 15:05:23 06/30/09 (UMP-Poznan/src/POZNAN.ulice.txt)"/>
  </node>
  <node id="454668527" version="1" timestamp="2009-08-02T22:46:43Z" uid="20587" user="balrog-kun" changeset="2020388" lat="52.3905466" lon="16.8923264">
    <tag k="addr:city" v="Poznań"/>
    <tag k="addr:housenumber" v="40"/>
    <tag k="addr:street" v="Hetmańska"/>
    <tag k="source" v="http://ump.waw.pl/ retrieved 15:05:23 06/30/09 (UMP-Poznan/src/POZNAN.ulice.txt)"/>
  </node>
  <node id="454668528" version="1" timestamp="2009-08-02T22:46:43Z" uid="20587" user="balrog-kun" changeset="2020388" lat="52.3817954" lon="16.8906548">
    <tag k="addr:city" v="Poznań"/>
    <tag k="addr:housenumber" v="33"/>
    <tag k="addr:street" v="Daleka"/>
    <tag k="source" v="http://ump.waw.pl/ retrieved 15:05:23 06/30/09 (UMP-Poznan/src/POZNAN.ulice.txt)"/>
  </node>
  <node id="454668530" version="1" timestamp="2009-08-02T22:46:43Z" uid="20587" user="balrog-kun" changeset="2020388" lat="52.3921774" lon="16.8918667">
    <tag k="addr:city" v="Poznań"/>
    <tag k="addr:housenumber" v="22"/>
    <tag k="addr:street" v="Józefa Chociszewskiego"/>
    <tag k="source" v="http://ump.waw.pl/ retrieved 15:05:23 06/30/09 (UMP-Poznan/src/POZNAN.ulice.txt)"/>
  </node>
  <node id="454668531" version="1" timestamp="2009-08-02T22:46:43Z" uid="20587" user="balrog-kun" changeset="2020388" lat="52.3861742" lon="16.8829143">
    <tag k="addr:city" v="Poznań"/>
    <tag k="addr:housenumber" v="45"/>
    <tag k="addr:street" v="Sielska"/>
    <tag k="source" v="http://ump.waw.pl/ retrieved 15:05:23 06/30/09 (UMP-Poznan/src/POZNAN.ulice.txt)"/>
  </node>
  <node id="454668532" version="1" timestamp="2009-08-02T22:46:43Z" uid="20587" user="balrog-kun" changeset="2020388" lat="52.3845184" lon="16.8942958">
    <tag k="addr:city" v="Poznań"/>
    <tag k="addr:housenumber" v="95"/>
    <tag k="addr:street" v="Romana Dmowskiego"/>
    <tag k="source" v="http://ump.waw.pl/ retrieved 15:05:23 06/30/09 (UMP-Poznan/src/POZNAN.ulice.txt)"/>
  </node>
  <node id="454668533" version="1" timestamp="2009-08-02T22:46:43Z" uid="20587" user="balrog-kun" changeset="2020388" lat="52.3844662" lon="16.8794025">
    <tag k="addr:city" v="Poznań"/>
    <tag k="addr:housenumber" v="24"/>
    <tag k="addr:street" v="Albańska"/>
    <tag k="source" v="http://ump.waw.pl/ retrieved 15:05:23 06/30/09 (UMP-Poznan/src/POZNAN.ulice.txt)"/>
  </node>
  <node id="454668534" version="1" timestamp="2009-08-02T22:46:43Z" uid="20587" user="balrog-kun" changeset="2020388" lat="52.3846551" lon="16.8852225">
    <tag k="addr:city" v="Poznań"/>
    <tag k="addr:housenumber" v="10"/>
    <tag k="addr:street" v="Widok"/>
    <tag k="source" v="http://ump.waw.pl/ retrieved 15:05:23 06/30/09 (UMP-Poznan/src/POZNAN.ulice.txt)"/>
  </node>
  <node id="454668535" version="1" timestamp="2009-08-02T22:46:43Z" uid="20587" user="balrog-kun" changeset="2020388" lat="52.3917626" lon="16.8922633">
    <tag k="addr:city" v="Poznań"/>
    <tag k="addr:housenumber" v="11"/>
    <tag k="addr:street" v="Józefa Chociszewskiego"/>
    <tag k="source" v="http://ump.waw.pl/ retrieved 15:05:23 06/30/09 (UMP-Poznan/src/POZNAN.ulice.txt)"/>
  </node>
  <node id="454668536" version="1" timestamp="2009-08-02T22:46:43Z" uid="20587" user="balrog-kun" changeset="2020388" lat="52.3910386" lon="16.8856732">
    <tag k="addr:city" v="Poznań"/>
    <tag k="addr:housenumber" v="17"/>
    <tag k="addr:street" v="Krzysztofa Arciszewskiego"/>
    <tag k="source" v="http://ump.waw.pl/ retrieved 15:05:23 06/30/09 (UMP-Poznan/src/POZNAN.ulice.txt)"/>
  </node>
  <node id="454668538" version="1" timestamp="2009-08-02T22:46:43Z" uid="20587" user="balrog-kun" changeset="2020388" lat="52.3900576" lon="16.8870874">
    <tag k="addr:city" v="Poznań"/>
    <tag k="addr:housenumber" v="20"/>
    <tag k="addr:street" v="Biedrzyckiego"/>
    <tag k="source" v="http://ump.waw.pl/ retrieved 15:05:23 06/30/09 (UMP-Poznan/src/POZNAN.ulice.txt)"/>
  </node>
  <node id="454668539" version="1" timestamp="2009-08-02T22:46:43Z" uid="20587" user="balrog-kun" changeset="2020388" lat="52.3897914" lon="16.8897772">
    <tag k="addr:city" v="Poznań"/>
    <tag k="addr:housenumber" v="14"/>
    <tag k="addr:street" v="Błażeja Winklera"/>
    <tag k="source" v="http://ump.waw.pl/ retrieved 15:05:23 06/30/09 (UMP-Poznan/src/POZNAN.ulice.txt)"/>
  </node>
  <node id="454668540" version="1" timestamp="2009-08-02T22:46:43Z" uid="20587" user="balrog-kun" changeset="2020388" lat="52.3850271" lon="16.8794644">
    <tag k="addr:city" v="Poznań"/>
    <tag k="addr:housenumber" v="30"/>
    <tag k="addr:street" v="Albańska"/>
    <tag k="source" v="http://ump.waw.pl/ retrieved 15:05:23 06/30/09 (UMP-Poznan/src/POZNAN.ulice.txt)"/>
  </node>
  <node id="454668541" version="1" timestamp="2009-08-02T22:46:43Z" uid="20587" user="balrog-kun" changeset="2020388" lat="52.3904439" lon="16.8860048">
    <tag k="addr:city" v="Poznań"/>
    <tag k="addr:housenumber" v="23"/>
    <tag k="addr:street" v="Błażeja Winklera"/>
    <tag k="source" v="http://ump.waw.pl/ retrieved 15:05:23 06/30/09 (UMP-Poznan/src/POZNAN.ulice.txt)"/>
  </node>
  <node id="454668542" version="1" timestamp="2009-08-02T22:46:43Z" uid="20587" user="balrog-kun" changeset="2020388" lat="52.3946207" lon="16.8848575">
    <tag k="addr:city" v="Poznań"/>
    <tag k="addr:housenumber" v="56"/>
    <tag k="addr:street" v="Józefa Chociszewskiego"/>
    <tag k="source" v="http://ump.waw.pl/ retrieved 15:05:23 06/30/09 (UMP-Poznan/src/POZNAN.ulice.txt)"/>
  </node>
  <node id="454668543" version="1" timestamp="2009-08-02T22:46:44Z" uid="20587" user="balrog-kun" changeset="2020388" lat="52.3820138" lon="16.8796754">
    <tag k="addr:city" v="Poznań"/>
    <tag k="addr:housenumber" v="25"/>
    <tag k="addr:street" v="Ostrobramska"/>
    <tag k="source" v="http://ump.waw.pl/ retrieved 15:05:23 06/30/09 (UMP-Poznan/src/POZNAN.ulice.txt)"/>
  </node>
  <node id="454668544" version="1" timestamp="2009-08-02T22:46:44Z" uid="20587" user="balrog-kun" changeset="2020388" lat="52.3831055" lon="16.8856912">
    <tag k="addr:city" v="Poznań"/>
    <tag k="addr:housenumber" v="175"/>
    <tag k="addr:street" v="Głogowska"/>
    <tag k="source" v="http://ump.waw.pl/ retrieved 15:05:23 06/30/09 (UMP-Poznan/src/POZNAN.ulice.txt)"/>
  </node>
  <node id="454668545" version="1" timestamp="2009-08-02T22:46:44Z" uid="20587" user="balrog-kun" changeset="2020388" lat="52.3901532" lon="16.8867193">
    <tag k="addr:city" v="Poznań"/>
    <tag k="addr:housenumber" v="21"/>
    <tag k="addr:street" v="Biedrzyckiego"/>
    <tag k="source" v="http://ump.waw.pl/ retrieved 15:05:23 06/30/09 (UMP-Poznan/src/POZNAN.ulice.txt)"/>
  </node>
  <node id="454668547" version="1" timestamp="2009-08-02T22:46:44Z" uid="20587" user="balrog-kun" changeset="2020388" lat="52.3836445" lon="16.8792742">
    <tag k="addr:city" v="Poznań"/>
    <tag k="addr:housenumber" v="18"/>
    <tag k="addr:street" v="Albańska"/>
    <tag k="source" v="http://ump.waw.pl/ retrieved 15:05:23 06/30/09 (UMP-Poznan/src/POZNAN.ulice.txt)"/>
  </node>
  <node id="454668548" version="1" timestamp="2009-08-02T22:46:44Z" uid="20587" user="balrog-kun" changeset="2020388" lat="52.3828185" lon="16.8909654">
    <tag k="addr:city" v="Poznań"/>
    <tag k="addr:housenumber" v="27"/>
    <tag k="addr:street" v="Bosa"/>
    <tag k="source" v="http://ump.waw.pl/ retrieved 15:05:23 06/30/09 (UMP-Poznan/src/POZNAN.ulice.txt)"/>
  </node>
  <node id="454668549" version="1" timestamp="2009-08-02T22:46:44Z" uid="20587" user="balrog-kun" changeset="2020388" lat="52.3824006" lon="16.8870961">
    <tag k="addr:city" v="Poznań"/>
    <tag k="addr:housenumber" v="3"/>
    <tag k="addr:street" v="Antoniego Andrzejewskiego"/>
    <tag k="source" v="http://ump.waw.pl/ retrieved 15:05:23 06/30/09 (UMP-Poznan/src/POZNAN.ulice.txt)"/>
  </node>
  <node id="454668550" version="1" timestamp="2009-08-02T22:46:44Z" uid="20587" user="balrog-kun" changeset="2020388" lat="52.3880962" lon="16.8825489">
    <tag k="addr:city" v="Poznań"/>
    <tag k="addr:housenumber" v="48"/>
    <tag k="addr:street" v="Górczyńska"/>
    <tag k="source" v="http://ump.waw.pl/ retrieved 15:05:23 06/30/09 (UMP-Poznan/src/POZNAN.ulice.txt)"/>
  </node>
  <node id="454668551" version="1" timestamp="2009-08-02T22:46:44Z" uid="20587" user="balrog-kun" changeset="2020388" lat="52.3814075" lon="16.8903537">
    <tag k="addr:city" v="Poznań"/>
    <tag k="addr:housenumber" v="30"/>
    <tag k="addr:street" v="Daleka"/>
    <tag k="source" v="http://ump.waw.pl/ retrieved 15:05:23 06/30/09 (UMP-Poznan/src/POZNAN.ulice.txt)"/>
  </node>
  <node id="454668552" version="1" timestamp="2009-08-02T22:46:44Z" uid="20587" user="balrog-kun" changeset="2020388" lat="52.3917746" lon="16.8904488">
    <tag k="addr:city" v="Poznań"/>
    <tag k="addr:housenumber" v="27"/>
    <tag k="addr:street" v="Hetmańska"/>
    <tag k="source" v="http://ump.waw.pl/ retrieved 15:05:23 06/30/09 (UMP-Poznan/src/POZNAN.ulice.txt)"/>
  </node>
  <node id="454668553" version="1" timestamp="2009-08-02T22:46:44Z" uid="20587" user="balrog-kun" changeset="2020388" lat="52.3891086" lon="16.8882866">
    <tag k="addr:city" v="Poznań"/>
    <tag k="addr:housenumber" v="62"/>
    <tag k="addr:street" v="Kazimierza Jarochowskiego"/>
    <tag k="source" v="http://ump.waw.pl/ retrieved 15:05:23 06/30/09 (UMP-Poznan/src/POZNAN.ulice.txt)"/>
  </node>
  <node id="454668554" version="1" timestamp="2009-08-02T22:46:44Z" uid="20587" user="balrog-kun" changeset="2020388" lat="52.3840184" lon="16.8851755">
    <tag k="addr:city" v="Poznań"/>
    <tag k="addr:housenumber" v="13"/>
    <tag k="addr:street" v="Widok"/>
    <tag k="source" v="http://ump.waw.pl/ retrieved 15:05:23 06/30/09 (UMP-Poznan/src/POZNAN.ulice.txt)"/>
  </node>
  <node id="454668556" version="1" timestamp="2009-08-02T22:46:44Z" uid="20587" user="balrog-kun" changeset="2020388" lat="52.3856473" lon="16.8957185">
    <tag k="addr:city" v="Poznań"/>
    <tag k="addr:housenumber" v="81"/>
    <tag k="addr:street" v="Romana Dmowskiego"/>
    <tag k="source" v="http://ump.waw.pl/ retrieved 15:05:23 06/30/09 (UMP-Poznan/src/POZNAN.ulice.txt)"/>
  </node>
  <node id="454668557" version="1" timestamp="2009-08-02T22:46:44Z" uid="20587" user="balrog-kun" changeset="2020388" lat="52.381743" lon="16.885839">
    <tag k="addr:city" v="Poznań"/>
    <tag k="addr:housenumber" v="11"/>
    <tag k="addr:street" v="Antoniego Andrzejewskiego"/>
    <tag k="source" v="http://ump.waw.pl/ retrieved 15:05:23 06/30/09 (UMP-Poznan/src/POZNAN.ulice.txt)"/>
  </node>
  <node id="454668558" version="1" timestamp="2009-08-02T22:46:44Z" uid="20587" user="balrog-kun" changeset="2020388" lat="52.3919644" lon="16.8916716">
    <tag k="addr:city" v="Poznań"/>
    <tag k="addr:housenumber" v="19"/>
    <tag k="addr:street" v="Józefa Chociszewskiego"/>
    <tag k="source" v="http://ump.waw.pl/ retrieved 15:05:23 06/30/09 (UMP-Poznan/src/POZNAN.ulice.txt)"/>
  </node>
  <node id="454668559" version="1" timestamp="2009-08-02T22:46:44Z" uid="20587" user="balrog-kun" changeset="2020388" lat="52.3844441" lon="16.881239">
    <tag k="addr:city" v="Poznań"/>
    <tag k="addr:housenumber" v="11"/>
    <tag k="addr:street" v="Częstochowska"/>
    <tag k="source" v="http://ump.waw.pl/ retrieved 15:05:23 06/30/09 (UMP-Poznan/src/POZNAN.ulice.txt)"/>
  </node>
  <node id="454668560" version="1" timestamp="2009-08-02T22:46:44Z" uid="20587" user="balrog-kun" changeset="2020388" lat="52.3883224" lon="16.8854426">
    <tag k="addr:city" v="Poznań"/>
    <tag k="addr:housenumber" v="1"/>
    <tag k="addr:street" v="Biedrzyckiego"/>
    <tag k="source" v="http://ump.waw.pl/ retrieved 15:05:23 06/30/09 (UMP-Poznan/src/POZNAN.ulice.txt)"/>
  </node>
  <node id="454668561" version="1" timestamp="2009-08-02T22:46:44Z" uid="20587" user="balrog-kun" changeset="2020388" lat="52.3827075" lon="16.8866378">
    <tag k="addr:city" v="Poznań"/>
    <tag k="addr:housenumber" v="6"/>
    <tag k="addr:street" v="Daleka"/>
    <tag k="source" v="http://ump.waw.pl/ retrieved 15:05:23 06/30/09 (UMP-Poznan/src/POZNAN.ulice.txt)"/>
  </node>
  <node id="454668562" version="1" timestamp="2009-08-02T22:46:44Z" uid="20587" user="balrog-kun" changeset="2020388" lat="52.3845872" lon="16.8871094">
    <tag k="addr:city" v="Poznań"/>
    <tag k="addr:housenumber" v="4"/>
    <tag k="addr:street" v="Sielska"/>
    <tag k="source" v="http://ump.waw.pl/ retrieved 15:05:23 06/30/09 (UMP-Poznan/src/POZNAN.ulice.txt)"/>
  </node>
  <node id="454668563" version="1" timestamp="2009-08-02T22:46:45Z" uid="20587" user="balrog-kun" changeset="2020388" lat="52.3911852" lon="16.8947273">
    <tag k="addr:city" v="Poznań"/>
    <tag k="addr:housenumber" v="2"/>
    <tag k="addr:street" v="Józefa Chociszewskiego"/>
    <tag k="source" v="http://ump.waw.pl/ retrieved 15:05:23 06/30/09 (UMP-Poznan/src/POZNAN.ulice.txt)"/>
  </node>
  <node id="454668565" version="1" timestamp="2009-08-02T22:46:45Z" uid="20587" user="balrog-kun" changeset="2020388" lat="52.384659" lon="16.8826031">
    <tag k="addr:city" v="Poznań"/>
    <tag k="addr:housenumber" v="14"/>
    <tag k="addr:street" v="Księdza Piotra Ściegiennego"/>
    <tag k="source" v="http://ump.waw.pl/ retrieved 15:05:23 06/30/09 (UMP-Poznan/src/POZNAN.ulice.txt)"/>
  </node>
  <node id="454668566" version="1" timestamp="2009-08-02T22:46:45Z" uid="20587" user="balrog-kun" changeset="2020388" lat="52.3926935" lon="16.8879405">
    <tag k="addr:city" v="Poznań"/>
    <tag k="addr:housenumber" v="9"/>
    <tag k="addr:street" v="Hetmańska"/>
    <tag k="source" v="http://ump.waw.pl/ retrieved 15:05:23 06/30/09 (UMP-Poznan/src/POZNAN.ulice.txt)"/>
  </node>
  <node id="454668567" version="1" timestamp="2009-08-02T22:46:45Z" uid="20587" user="balrog-kun" changeset="2020388" lat="52.3894584" lon="16.8844667">
    <tag k="addr:city" v="Poznań"/>
    <tag k="addr:housenumber" v="33"/>
    <tag k="addr:street" v="Krzysztofa Arciszewskiego"/>
    <tag k="source" v="http://ump.waw.pl/ retrieved 15:05:23 06/30/09 (UMP-Poznan/src/POZNAN.ulice.txt)"/>
  </node>
  <node id="454668568" version="1" timestamp="2009-08-02T22:46:45Z" uid="20587" user="balrog-kun" changeset="2020388" lat="52.3898636" lon="16.8884849">
    <tag k="addr:city" v="Poznań"/>
    <tag k="addr:housenumber" v="15"/>
    <tag k="addr:street" v="Błażeja Winklera"/>
    <tag k="source" v="http://ump.waw.pl/ retrieved 15:05:23 06/30/09 (UMP-Poznan/src/POZNAN.ulice.txt)"/>
  </node>
  <node id="454668569" version="1" timestamp="2009-08-02T22:46:45Z" uid="20587" user="balrog-kun" changeset="2020388" lat="52.3917752" lon="16.8885666">
    <tag k="addr:city" v="Poznań"/>
    <tag k="addr:housenumber" v="2"/>
    <tag k="addr:street" v="Wojciecha Cybulskiego"/>
    <tag k="source" v="http://ump.waw.pl/ retrieved 15:05:23 06/30/09 (UMP-Poznan/src/POZNAN.ulice.txt)"/>
  </node>
  <node id="454668570" version="1" timestamp="2009-08-02T22:46:45Z" uid="20587" user="balrog-kun" changeset="2020388" lat="52.3839148" lon="16.8926696">
    <tag k="addr:city" v="Poznań"/>
    <tag k="addr:housenumber" v="26"/>
    <tag k="addr:street" v="Górki"/>
    <tag k="source" v="http://ump.waw.pl/ retrieved 15:05:23 06/30/09 (UMP-Poznan/src/POZNAN.ulice.txt)"/>
  </node>
  <node id="454668571" version="1" timestamp="2009-08-02T22:46:45Z" uid="20587" user="balrog-kun" changeset="2020388" lat="52.3875025" lon="16.8841707">
    <tag k="addr:city" v="Poznań"/>
    <tag k="addr:housenumber" v="42"/>
    <tag k="addr:street" v="Górczyńska"/>
    <tag k="source" v="http://ump.waw.pl/ retrieved 15:05:23 06/30/09 (UMP-Poznan/src/POZNAN.ulice.txt)"/>
  </node>
  <node id="454668572" version="1" timestamp="2009-08-02T22:46:45Z" uid="20587" user="balrog-kun" changeset="2020388" lat="52.3835477" lon="16.8844175">
    <tag k="addr:city" v="Poznań"/>
    <tag k="addr:housenumber" v="17"/>
    <tag k="addr:street" v="Widok"/>
    <tag k="source" v="http://ump.waw.pl/ retrieved 15:05:23 06/30/09 (UMP-Poznan/src/POZNAN.ulice.txt)"/>
  </node>
  <node id="454668574" version="1" timestamp="2009-08-02T22:46:45Z" uid="20587" user="balrog-kun" changeset="2020388" lat="52.3849564" lon="16.8821287">
    <tag k="addr:city" v="Poznań"/>
    <tag k="addr:housenumber" v="18"/>
    <tag k="addr:street" v="Księdza Piotra Ściegiennego"/>
    <tag k="source" v="http://ump.waw.pl/ retrieved 15:05:23 06/30/09 (UMP-Poznan/src/POZNAN.ulice.txt)"/>
  </node>
  <node id="454668576" version="1" timestamp="2009-08-02T22:46:45Z" uid="20587" user="balrog-kun" changeset="2020388" lat="52.3869826" lon="16.8928578">
    <tag k="addr:city" v="Poznań"/>
    <tag k="addr:housenumber" v="13"/>
    <tag k="addr:street" v="Jakuba Krauthofera"/>
    <tag k="source" v="http://ump.waw.pl/ retrieved 15:05:23 06/30/09 (UMP-Poznan/src/POZNAN.ulice.txt)"/>
  </node>
  <node id="454668577" version="1" timestamp="2009-08-02T22:46:45Z" uid="20587" user="balrog-kun" changeset="2020388" lat="52.3910967" lon="16.8931575">
    <tag k="addr:city" v="Poznań"/>
    <tag k="addr:housenumber" v="34"/>
    <tag k="addr:street" v="Jana Kasprzaka"/>
    <tag k="source" v="http://ump.waw.pl/ retrieved 15:05:23 06/30/09 (UMP-Poznan/src/POZNAN.ulice.txt)"/>
  </node>
  <node id="454668578" version="1" timestamp="2009-08-02T22:46:45Z" uid="20587" user="balrog-kun" changeset="2020388" lat="52.3817828" lon="16.8801464">
    <tag k="addr:city" v="Poznań"/>
    <tag k="addr:housenumber" v="30"/>
    <tag k="addr:street" v="Zgoda"/>
    <tag k="source" v="http://ump.waw.pl/ retrieved 15:05:23 06/30/09 (UMP-Poznan/src/POZNAN.ulice.txt)"/>
  </node>
  <node id="454668579" version="1" timestamp="2009-08-02T22:46:45Z" uid="20587" user="balrog-kun" changeset="2020388" lat="52.3859583" lon="16.8833083">
    <tag k="addr:city" v="Poznań"/>
    <tag k="addr:housenumber" v="43"/>
    <tag k="addr:street" v="Sielska"/>
    <tag k="source" v="http://ump.waw.pl/ retrieved 15:05:23 06/30/09 (UMP-Poznan/src/POZNAN.ulice.txt)"/>
  </node>
  <node id="454668581" version="1" timestamp="2009-08-02T22:46:45Z" uid="20587" user="balrog-kun" changeset="2020388" lat="52.3826077" lon="16.8907637">
    <tag k="addr:city" v="Poznań"/>
    <tag k="addr:housenumber" v="28"/>
    <tag k="addr:street" v="Bosa"/>
    <tag k="source" v="http://ump.waw.pl/ retrieved 15:05:23 06/30/09 (UMP-Poznan/src/POZNAN.ulice.txt)"/>
  </node>
  <node id="454668582" version="1" timestamp="2009-08-02T22:46:45Z" uid="20587" user="balrog-kun" changeset="2020388" lat="52.3835652" lon="16.8890312">
    <tag k="addr:city" v="Poznań"/>
    <tag k="addr:housenumber" v="15"/>
    <tag k="addr:street" v="Bosa"/>
    <tag k="source" v="http://ump.waw.pl/ retrieved 15:05:23 06/30/09 (UMP-Poznan/src/POZNAN.ulice.txt)"/>
  </node>
  <node id="454668583" version="1" timestamp="2009-08-02T22:46:45Z" uid="20587" user="balrog-kun" changeset="2020388" lat="52.3903982" lon="16.8924278">
    <tag k="addr:city" v="Poznań"/>
    <tag k="addr:housenumber" v="40"/>
    <tag k="addr:street" v="Jana Kasprzaka"/>
    <tag k="source" v="http://ump.waw.pl/ retrieved 15:05:23 06/30/09 (UMP-Poznan/src/POZNAN.ulice.txt)"/>
  </node>
  <node id="454668585" version="1" timestamp="2009-08-02T22:46:46Z" uid="20587" user="balrog-kun" changeset="2020388" lat="52.3842678" lon="16.8901654">
    <tag k="addr:city" v="Poznań"/>
    <tag k="addr:housenumber" v="9"/>
    <tag k="addr:street" v="Stanisława Knapowskiego"/>
    <tag k="source" v="http://ump.waw.pl/ retrieved 15:05:23 06/30/09 (UMP-Poznan/src/POZNAN.ulice.txt)"/>
  </node>
  <node id="454668586" version="1" timestamp="2009-08-02T22:46:46Z" uid="20587" user="balrog-kun" changeset="2020388" lat="52.3888889" lon="16.8880437">
    <tag k="addr:city" v="Poznań"/>
    <tag k="addr:housenumber" v="66"/>
    <tag k="addr:street" v="Kazimierza Jarochowskiego"/>
    <tag k="source" v="http://ump.waw.pl/ retrieved 15:05:23 06/30/09 (UMP-Poznan/src/POZNAN.ulice.txt)"/>
  </node>
  <node id="454668588" version="1" timestamp="2009-08-02T22:46:46Z" uid="20587" user="balrog-kun" changeset="2020388" lat="52.3854804" lon="16.8842775">
    <tag k="addr:city" v="Poznań"/>
    <tag k="addr:housenumber" v="27"/>
    <tag k="addr:street" v="Sielska"/>
    <tag k="source" v="http://ump.waw.pl/ retrieved 15:05:23 06/30/09 (UMP-Poznan/src/POZNAN.ulice.txt)"/>
  </node>
  <node id="454668589" version="1" timestamp="2009-08-02T22:46:46Z" uid="20587" user="balrog-kun" changeset="2020388" lat="52.3865442" lon="16.8955337">
    <tag k="addr:city" v="Poznań"/>
    <tag k="addr:housenumber" v="35"/>
    <tag k="addr:street" v="Jakuba Krauthofera"/>
    <tag k="source" v="http://ump.waw.pl/ retrieved 15:05:23 06/30/09 (UMP-Poznan/src/POZNAN.ulice.txt)"/>
  </node>
  <node id="454668592" version="1" timestamp="2009-08-02T22:46:46Z" uid="20587" user="balrog-kun" changeset="2020388" lat="52.3922013" lon="16.8909732">
    <tag k="addr:city" v="Poznań"/>
    <tag k="addr:housenumber" v="21"/>
    <tag k="addr:street" v="Józefa Chociszewskiego"/>
    <tag k="source" v="http://ump.waw.pl/ retrieved 15:05:23 06/30/09 (UMP-Poznan/src/POZNAN.ulice.txt)"/>
  </node>
  <node id="454668593" version="1" timestamp="2009-08-02T22:46:46Z" uid="20587" user="balrog-kun" changeset="2020388" lat="52.3899885" lon="16.8879517">
    <tag k="addr:city" v="Poznań"/>
    <tag k="addr:housenumber" v="19"/>
    <tag k="addr:street" v="Błażeja Winklera"/>
    <tag k="source" v="http://ump.waw.pl/ retrieved 15:05:23 06/30/09 (UMP-Poznan/src/POZNAN.ulice.txt)"/>
  </node>
  <node id="454668594" version="1" timestamp="2009-08-02T22:46:46Z" uid="20587" user="balrog-kun" changeset="2020388" lat="52.3871099" lon="16.8905565">
    <tag k="addr:city" v="Poznań"/>
    <tag k="addr:housenumber" v="142"/>
    <tag k="addr:street" v="Głogowska"/>
    <tag k="source" v="http://ump.waw.pl/ retrieved 15:05:23 06/30/09 (UMP-Poznan/src/POZNAN.ulice.txt)"/>
  </node>
  <node id="454668595" version="1" timestamp="2009-08-02T22:46:46Z" uid="20587" user="balrog-kun" changeset="2020388" lat="52.386289" lon="16.8855029">
    <tag k="addr:city" v="Poznań"/>
    <tag k="addr:housenumber" v="29"/>
    <tag k="addr:street" v="Górczyńska"/>
    <tag k="source" v="http://ump.waw.pl/ retrieved 15:05:23 06/30/09 (UMP-Poznan/src/POZNAN.ulice.txt)"/>
  </node>
  <node id="454668596" version="1" timestamp="2009-08-02T22:46:46Z" uid="20587" user="balrog-kun" changeset="2020388" lat="52.3859596" lon="16.8877102">
    <tag k="addr:city" v="Poznań"/>
    <tag k="addr:housenumber" v="5"/>
    <tag k="addr:street" v="Kosynierska"/>
    <tag k="source" v="http://ump.waw.pl/ retrieved 15:05:23 06/30/09 (UMP-Poznan/src/POZNAN.ulice.txt)"/>
  </node>
  <node id="454668598" version="1" timestamp="2009-08-02T22:46:47Z" uid="20587" user="balrog-kun" changeset="2020388" lat="52.3904626" lon="16.8876269">
    <tag k="addr:city" v="Poznań"/>
    <tag k="addr:housenumber" v="16"/>
    <tag k="addr:street" v="Wojciecha Cybulskiego"/>
    <tag k="source" v="http://ump.waw.pl/ retrieved 15:05:23 06/30/09 (UMP-Poznan/src/POZNAN.ulice.txt)"/>
  </node>
  <node id="454668600" version="1" timestamp="2009-08-02T22:46:47Z" uid="20587" user="balrog-kun" changeset="2020388" lat="52.3900828" lon="16.8935355">
    <tag k="addr:city" v="Poznań"/>
    <tag k="addr:housenumber" v="46"/>
    <tag k="addr:street" v="Hetmańska"/>
    <tag k="source" v="http://ump.waw.pl/ retrieved 15:05:23 06/30/09 (UMP-Poznan/src/POZNAN.ulice.txt)"/>
  </node>
  <node id="454668602" version="1" timestamp="2009-08-02T22:46:47Z" uid="20587" user="balrog-kun" changeset="2020388" lat="52.3836954" lon="16.8768888">
    <tag k="addr:city" v="Poznań"/>
    <tag k="addr:housenumber" v="41"/>
    <tag k="addr:street" v="Księdza Augustyna Kordeckiego"/>
    <tag k="source" v="http://ump.waw.pl/ retrieved 15:05:23 06/30/09 (UMP-Poznan/src/POZNAN.ulice.txt)"/>
  </node>
  <node id="454668603" version="1" timestamp="2009-08-02T22:46:47Z" uid="20587" user="balrog-kun" changeset="2020388" lat="52.392075" lon="16.8877796">
    <tag k="addr:city" v="Poznań"/>
    <tag k="addr:housenumber" v="1"/>
    <tag k="addr:street" v="Józefa Rogalińskiego"/>
    <tag k="source" v="http://ump.waw.pl/ retrieved 15:05:23 06/30/09 (UMP-Poznan/src/POZNAN.ulice.txt)"/>
  </node>
  <node id="454668605" version="1" timestamp="2009-08-02T22:46:47Z" uid="20587" user="balrog-kun" changeset="2020388" lat="52.392904" lon="16.8885517">
    <tag k="addr:city" v="Poznań"/>
    <tag k="addr:housenumber" v="10"/>
    <tag k="addr:street" v="Szymborska"/>
    <tag k="source" v="http://ump.waw.pl/ retrieved 15:05:23 06/30/09 (UMP-Poznan/src/POZNAN.ulice.txt)"/>
  </node>
  <node id="454668606" version="1" timestamp="2009-08-02T22:46:47Z" uid="20587" user="balrog-kun" changeset="2020388" lat="52.3824316" lon="16.8874749">
    <tag k="addr:city" v="Poznań"/>
    <tag k="addr:housenumber" v="8"/>
    <tag k="addr:street" v="Daleka"/>
    <tag k="source" v="http://ump.waw.pl/ retrieved 15:05:23 06/30/09 (UMP-Poznan/src/POZNAN.ulice.txt)"/>
  </node>
  <node id="454668607" version="1" timestamp="2009-08-02T22:46:47Z" uid="20587" user="balrog-kun" changeset="2020388" lat="52.3906517" lon="16.8916383">
    <tag k="addr:city" v="Poznań"/>
    <tag k="addr:housenumber" v="3"/>
    <tag k="addr:street" v="Nehringa"/>
    <tag k="source" v="http://ump.waw.pl/ retrieved 15:05:23 06/30/09 (UMP-Poznan/src/POZNAN.ulice.txt)"/>
  </node>
  <node id="454668609" version="1" timestamp="2009-08-02T22:46:47Z" uid="20587" user="balrog-kun" changeset="2020388" lat="52.3842213" lon="16.8868472">
    <tag k="addr:city" v="Poznań"/>
    <tag k="addr:housenumber" v="172"/>
    <tag k="addr:street" v="Głogowska"/>
    <tag k="source" v="http://ump.waw.pl/ retrieved 15:05:23 06/30/09 (UMP-Poznan/src/POZNAN.ulice.txt)"/>
  </node>
  <node id="454668611" version="1" timestamp="2009-08-02T22:46:47Z" uid="20587" user="balrog-kun" changeset="2020388" lat="52.3872635" lon="16.8918162">
    <tag k="addr:city" v="Poznań"/>
    <tag k="addr:housenumber" v="3"/>
    <tag k="addr:street" v="Jakuba Krauthofera"/>
    <tag k="source" v="http://ump.waw.pl/ retrieved 15:05:23 06/30/09 (UMP-Poznan/src/POZNAN.ulice.txt)"/>
  </node>
  <node id="454668612" version="1" timestamp="2009-08-02T22:46:47Z" uid="20587" user="balrog-kun" changeset="2020388" lat="52.3902164" lon="16.8880951">
    <tag k="addr:city" v="Poznań"/>
    <tag k="addr:housenumber" v="26"/>
    <tag k="addr:street" v="Błażeja Winklera"/>
    <tag k="source" v="http://ump.waw.pl/ retrieved 15:05:23 06/30/09 (UMP-Poznan/src/POZNAN.ulice.txt)"/>
  </node>
  <node id="454668614" version="1" timestamp="2009-08-02T22:46:47Z" uid="20587" user="balrog-kun" changeset="2020388" lat="52.3828969" lon="16.8925773">
    <tag k="addr:city" v="Poznań"/>
    <tag k="addr:housenumber" v="123"/>
    <tag k="addr:street" v="Romana Dmowskiego"/>
    <tag k="source" v="http://ump.waw.pl/ retrieved 15:05:23 06/30/09 (UMP-Poznan/src/POZNAN.ulice.txt)"/>
  </node>
  <node id="454668615" version="1" timestamp="2009-08-02T22:46:47Z" uid="20587" user="balrog-kun" changeset="2020388" lat="52.3817765" lon="16.8860968">
    <tag k="addr:city" v="Poznań"/>
    <tag k="addr:housenumber" v="10"/>
    <tag k="addr:street" v="Krzywa"/>
    <tag k="source" v="http://ump.waw.pl/ retrieved 15:05:23 06/30/09 (UMP-Poznan/src/POZNAN.ulice.txt)"/>
  </node>
  <node id="454668616" version="1" timestamp="2009-08-02T22:46:47Z" uid="20587" user="balrog-kun" changeset="2020388" lat="52.3924645" lon="16.8912363">
    <tag k="addr:city" v="Poznań"/>
    <tag k="addr:housenumber" v="24"/>
    <tag k="addr:street" v="Józefa Chociszewskiego"/>
    <tag k="source" v="http://ump.waw.pl/ retrieved 15:05:23 06/30/09 (UMP-Poznan/src/POZNAN.ulice.txt)"/>
  </node>
  <node id="454668617" version="1" timestamp="2009-08-02T22:46:47Z" uid="20587" user="balrog-kun" changeset="2020388" lat="52.3829297" lon="16.8794996">
    <tag k="addr:city" v="Poznań"/>
    <tag k="addr:housenumber" v="16"/>
    <tag k="addr:street" v="Albańska"/>
    <tag k="source" v="http://ump.waw.pl/ retrieved 15:05:23 06/30/09 (UMP-Poznan/src/POZNAN.ulice.txt)"/>
  </node>
  <node id="454668618" version="1" timestamp="2009-08-02T22:46:47Z" uid="20587" user="balrog-kun" changeset="2020388" lat="52.3870642" lon="16.8818774">
    <tag k="addr:city" v="Poznań"/>
    <tag k="addr:housenumber" v="6"/>
    <tag k="addr:street" v="Księdza Augustyna Kordeckiego"/>
    <tag k="source" v="http://ump.waw.pl/ retrieved 15:05:23 06/30/09 (UMP-Poznan/src/POZNAN.ulice.txt)"/>
  </node>
  <node id="454668619" version="1" timestamp="2009-08-02T22:46:47Z" uid="20587" user="balrog-kun" changeset="2020388" lat="52.3878284" lon="16.8879571">
    <tag k="addr:city" v="Poznań"/>
    <tag k="addr:housenumber" v="18"/>
    <tag k="addr:street" v="Macieja Palacza"/>
    <tag k="source" v="http://ump.waw.pl/ retrieved 15:05:23 06/30/09 (UMP-Poznan/src/POZNAN.ulice.txt)"/>
  </node>
  <node id="454668620" version="1" timestamp="2009-08-02T22:46:47Z" uid="20587" user="balrog-kun" changeset="2020388" lat="52.3840974" lon="16.8793272">
    <tag k="addr:city" v="Poznań"/>
    <tag k="addr:housenumber" v="22"/>
    <tag k="addr:street" v="Albańska"/>
    <tag k="source" v="http://ump.waw.pl/ retrieved 15:05:23 06/30/09 (UMP-Poznan/src/POZNAN.ulice.txt)"/>
  </node>
  <node id="454668623" version="1" timestamp="2009-08-02T22:46:48Z" uid="20587" user="balrog-kun" changeset="2020388" lat="52.3857984" lon="16.8880529">
    <tag k="addr:city" v="Poznań"/>
    <tag k="addr:housenumber" v="5"/>
    <tag k="addr:street" v="Kosynierska"/>
    <tag k="source" v="http://ump.waw.pl/ retrieved 15:05:23 06/30/09 (UMP-Poznan/src/POZNAN.ulice.txt)"/>
  </node>
  <node id="454668624" version="1" timestamp="2009-08-02T22:46:48Z" uid="20587" user="balrog-kun" changeset="2020388" lat="52.3828292" lon="16.8821646">
    <tag k="addr:city" v="Poznań"/>
    <tag k="addr:housenumber" v="18"/>
    <tag k="addr:street" v="Zgoda"/>
    <tag k="source" v="http://ump.waw.pl/ retrieved 15:05:23 06/30/09 (UMP-Poznan/src/POZNAN.ulice.txt)"/>
  </node>
  <node id="454668625" version="1" timestamp="2009-08-02T22:46:48Z" uid="20587" user="balrog-kun" changeset="2020388" lat="52.3842082" lon="16.8769966">
    <tag k="addr:city" v="Poznań"/>
    <tag k="addr:housenumber" v="38"/>
    <tag k="addr:street" v="Księdza Augustyna Kordeckiego"/>
    <tag k="source" v="http://ump.waw.pl/ retrieved 15:05:23 06/30/09 (UMP-Poznan/src/POZNAN.ulice.txt)"/>
  </node>
  <node id="454668627" version="1" timestamp="2009-08-02T22:46:48Z" uid="20587" user="balrog-kun" changeset="2020388" lat="52.389773" lon="16.8942049">
    <tag k="addr:city" v="Poznań"/>
    <tag k="addr:housenumber" v="123"/>
    <tag k="addr:street" v="Głogowska"/>
    <tag k="source" v="http://ump.waw.pl/ retrieved 15:05:23 06/30/09 (UMP-Poznan/src/POZNAN.ulice.txt)"/>
  </node>
  <node id="454668628" version="1" timestamp="2009-08-02T22:46:48Z" uid="20587" user="balrog-kun" changeset="2020388" lat="52.3860599" lon="16.8884724">
    <tag k="addr:city" v="Poznań"/>
    <tag k="addr:housenumber" v="6"/>
    <tag k="addr:street" v="Kosynierska"/>
    <tag k="source" v="http://ump.waw.pl/ retrieved 15:05:23 06/30/09 (UMP-Poznan/src/POZNAN.ulice.txt)"/>
  </node>
  <node id="454668629" version="1" timestamp="2009-08-02T22:46:48Z" uid="20587" user="balrog-kun" changeset="2020388" lat="52.3821178" lon="16.8798922">
    <tag k="addr:city" v="Poznań"/>
    <tag k="addr:housenumber" v="13"/>
    <tag k="addr:street" v="Albańska"/>
    <tag k="source" v="http://ump.waw.pl/ retrieved 15:05:23 06/30/09 (UMP-Poznan/src/POZNAN.ulice.txt)"/>
  </node>
  <node id="454668631" version="1" timestamp="2009-08-02T22:46:48Z" uid="20587" user="balrog-kun" changeset="2020388" lat="52.3898483" lon="16.8901417">
    <tag k="addr:city" v="Poznań"/>
    <tag k="addr:housenumber" v="10"/>
    <tag k="addr:street" v="Nehringa"/>
    <tag k="source" v="http://ump.waw.pl/ retrieved 15:05:23 06/30/09 (UMP-Poznan/src/POZNAN.ulice.txt)"/>
  </node>
  <node id="454668632" version="1" timestamp="2009-08-02T22:46:48Z" uid="20587" user="balrog-kun" changeset="2020388" lat="52.3916774" lon="16.8889331">
    <tag k="addr:city" v="Poznań"/>
    <tag k="addr:housenumber" v="3"/>
    <tag k="addr:street" v="Wojciecha Cybulskiego"/>
    <tag k="source" v="http://ump.waw.pl/ retrieved 15:05:23 06/30/09 (UMP-Poznan/src/POZNAN.ulice.txt)"/>
  </node>
  <node id="454668633" version="1" timestamp="2009-08-02T22:46:48Z" uid="20587" user="balrog-kun" changeset="2020388" lat="52.3846065" lon="16.8873527">
    <tag k="addr:city" v="Poznań"/>
    <tag k="addr:housenumber" v="170"/>
    <tag k="addr:street" v="Głogowska"/>
    <tag k="source" v="http://ump.waw.pl/ retrieved 15:05:23 06/30/09 (UMP-Poznan/src/POZNAN.ulice.txt)"/>
  </node>
  <node id="454668635" version="1" timestamp="2009-08-02T22:46:48Z" uid="20587" user="balrog-kun" changeset="2020388" lat="52.3893318" lon="16.8918022">
    <tag k="addr:city" v="Poznań"/>
    <tag k="addr:housenumber" v="51"/>
    <tag k="addr:street" v="Jana Kasprzaka"/>
    <tag k="source" v="http://ump.waw.pl/ retrieved 15:05:23 06/30/09 (UMP-Poznan/src/POZNAN.ulice.txt)"/>
  </node>
  <node id="454668636" version="1" timestamp="2009-08-02T22:46:48Z" uid="20587" user="balrog-kun" changeset="2020388" lat="52.3833207" lon="16.8819649">
    <tag k="addr:city" v="Poznań"/>
    <tag k="addr:housenumber" v="11"/>
    <tag k="addr:street" v="Ostrobramska"/>
    <tag k="source" v="http://ump.waw.pl/ retrieved 15:05:23 06/30/09 (UMP-Poznan/src/POZNAN.ulice.txt)"/>
  </node>
  <node id="454668637" version="1" timestamp="2009-08-02T22:46:48Z" uid="20587" user="balrog-kun" changeset="2020388" lat="52.3912328" lon="16.8901334">
    <tag k="addr:city" v="Poznań"/>
    <tag k="addr:housenumber" v="43"/>
    <tag k="addr:street" v="Kazimierza Jarochowskiego"/>
    <tag k="source" v="http://ump.waw.pl/ retrieved 15:05:23 06/30/09 (UMP-Poznan/src/POZNAN.ulice.txt)"/>
  </node>
  <node id="454668638" version="1" timestamp="2009-08-02T22:46:48Z" uid="20587" user="balrog-kun" changeset="2020388" lat="52.3862232" lon="16.883959">
    <tag k="addr:city" v="Poznań"/>
    <tag k="addr:housenumber" v="34"/>
    <tag k="addr:street" v="Sielska"/>
    <tag k="source" v="http://ump.waw.pl/ retrieved 15:05:23 06/30/09 (UMP-Poznan/src/POZNAN.ulice.txt)"/>
  </node>
  <node id="454668640" version="1" timestamp="2009-08-02T22:46:48Z" uid="20587" user="balrog-kun" changeset="2020388" lat="52.3828195" lon="16.887776">
    <tag k="addr:city" v="Poznań"/>
    <tag k="addr:housenumber" v="11"/>
    <tag k="addr:street" v="Daleka"/>
    <tag k="source" v="http://ump.waw.pl/ retrieved 15:05:23 06/30/09 (UMP-Poznan/src/POZNAN.ulice.txt)"/>
  </node>
  <node id="454668641" version="1" timestamp="2009-08-02T22:46:48Z" uid="20587" user="balrog-kun" changeset="2020388" lat="52.3839649" lon="16.8872708">
    <tag k="addr:city" v="Poznań"/>
    <tag k="addr:housenumber" v="163"/>
    <tag k="addr:street" v="Głogowska"/>
    <tag k="source" v="http://ump.waw.pl/ retrieved 15:05:23 06/30/09 (UMP-Poznan/src/POZNAN.ulice.txt)"/>
  </node>
  <node id="454668643" version="1" timestamp="2009-08-02T22:46:48Z" uid="20587" user="balrog-kun" changeset="2020388" lat="52.3884828" lon="16.8847235">
    <tag k="addr:city" v="Poznań"/>
    <tag k="addr:housenumber" v="38"/>
    <tag k="addr:street" v="Macieja Palacza"/>
    <tag k="source" v="http://ump.waw.pl/ retrieved 15:05:23 06/30/09 (UMP-Poznan/src/POZNAN.ulice.txt)"/>
  </node>
  <node id="454668647" version="1" timestamp="2009-08-02T22:46:48Z" uid="20587" user="balrog-kun" changeset="2020388" lat="52.3891132" lon="16.8925379">
    <tag k="addr:city" v="Poznań"/>
    <tag k="addr:housenumber" v="128"/>
    <tag k="addr:street" v="Głogowska"/>
    <tag k="source" v="http://ump.waw.pl/ retrieved 15:05:23 06/30/09 (UMP-Poznan/src/POZNAN.ulice.txt)"/>
  </node>
  <node id="454668649" version="1" timestamp="2009-08-02T22:46:48Z" uid="20587" user="balrog-kun" changeset="2020388" lat="52.3908256" lon="16.8857168">
    <tag k="addr:city" v="Poznań"/>
    <tag k="addr:housenumber" v="36"/>
    <tag k="addr:street" v="Błażeja Winklera"/>
    <tag k="source" v="http://ump.waw.pl/ retrieved 15:05:23 06/30/09 (UMP-Poznan/src/POZNAN.ulice.txt)"/>
  </node>
  <node id="454668650" version="1" timestamp="2009-08-02T22:46:49Z" uid="20587" user="balrog-kun" changeset="2020388" lat="52.3829817" lon="16.8824387">
    <tag k="addr:city" v="Poznań"/>
    <tag k="addr:housenumber" v="16"/>
    <tag k="addr:street" v="Zgoda"/>
    <tag k="source" v="http://ump.waw.pl/ retrieved 15:05:23 06/30/09 (UMP-Poznan/src/POZNAN.ulice.txt)"/>
  </node>
  <node id="454668651" version="1" timestamp="2009-08-02T22:46:49Z" uid="20587" user="balrog-kun" changeset="2020388" lat="52.391389" lon="16.8900739">
    <tag k="addr:city" v="Poznań"/>
    <tag k="addr:housenumber" v="26"/>
    <tag k="addr:street" v="Hetmańska"/>
    <tag k="source" v="http://ump.waw.pl/ retrieved 15:05:23 06/30/09 (UMP-Poznan/src/POZNAN.ulice.txt)"/>
  </node>
  <node id="454668652" version="1" timestamp="2009-08-02T22:46:49Z" uid="20587" user="balrog-kun" changeset="2020388" lat="52.3901462" lon="16.8872825">
    <tag k="addr:city" v="Poznań"/>
    <tag k="addr:housenumber" v="21"/>
    <tag k="addr:street" v="Błażeja Winklera"/>
    <tag k="source" v="http://ump.waw.pl/ retrieved 15:05:23 06/30/09 (UMP-Poznan/src/POZNAN.ulice.txt)"/>
  </node>
  <node id="454668653" version="1" timestamp="2009-08-02T22:46:49Z" uid="20587" user="balrog-kun" changeset="2020388" lat="52.3909332" lon="16.8912339">
    <tag k="addr:city" v="Poznań"/>
    <tag k="addr:housenumber" v="34"/>
    <tag k="addr:street" v="Hetmańska"/>
    <tag k="source" v="http://ump.waw.pl/ retrieved 15:05:23 06/30/09 (UMP-Poznan/src/POZNAN.ulice.txt)"/>
  </node>
  <node id="454668654" version="1" timestamp="2009-08-02T22:46:49Z" uid="20587" user="balrog-kun" changeset="2020388" lat="52.3902684" lon="16.8927665">
    <tag k="addr:city" v="Poznań"/>
    <tag k="addr:housenumber" v="41"/>
    <tag k="addr:street" v="Jana Kasprzaka"/>
    <tag k="source" v="http://ump.waw.pl/ retrieved 15:05:23 06/30/09 (UMP-Poznan/src/POZNAN.ulice.txt)"/>
  </node>
  <node id="454668655" version="1" timestamp="2009-08-02T22:46:49Z" uid="20587" user="balrog-kun" changeset="2020388" lat="52.3890274" lon="16.8874874">
    <tag k="addr:city" v="Poznań"/>
    <tag k="addr:housenumber" v="63"/>
    <tag k="addr:street" v="Kazimierza Jarochowskiego"/>
    <tag k="source" v="http://ump.waw.pl/ retrieved 15:05:23 06/30/09 (UMP-Poznan/src/POZNAN.ulice.txt)"/>
  </node>
  <node id="454668656" version="1" timestamp="2009-08-02T22:46:49Z" uid="20587" user="balrog-kun" changeset="2020388" lat="52.3900272" lon="16.8893166">
    <tag k="addr:city" v="Poznań"/>
    <tag k="addr:housenumber" v="58"/>
    <tag k="addr:street" v="Kazimierza Jarochowskiego"/>
    <tag k="source" v="http://ump.waw.pl/ retrieved 15:05:23 06/30/09 (UMP-Poznan/src/POZNAN.ulice.txt)"/>
  </node>
  <node id="454668657" version="1" timestamp="2009-08-02T22:46:49Z" uid="20587" user="balrog-kun" changeset="2020388" lat="52.3880582" lon="16.8871283">
    <tag k="addr:city" v="Poznań"/>
    <tag k="addr:housenumber" v="72"/>
    <tag k="addr:street" v="Kazimierza Jarochowskiego"/>
    <tag k="source" v="http://ump.waw.pl/ retrieved 15:05:23 06/30/09 (UMP-Poznan/src/POZNAN.ulice.txt)"/>
  </node>
  <node id="454668659" version="1" timestamp="2009-08-02T22:46:49Z" uid="20587" user="balrog-kun" changeset="2020388" lat="52.3855757" lon="16.8869453">
    <tag k="addr:city" v="Poznań"/>
    <tag k="addr:housenumber" v="13"/>
    <tag k="addr:street" v="Górczyńska"/>
    <tag k="source" v="http://ump.waw.pl/ retrieved 15:05:23 06/30/09 (UMP-Poznan/src/POZNAN.ulice.txt)"/>
  </node>
  <node id="454668660" version="1" timestamp="2009-08-02T22:46:49Z" uid="20587" user="balrog-kun" changeset="2020388" lat="52.38315" lon="16.8825996">
    <tag k="addr:city" v="Poznań"/>
    <tag k="addr:housenumber" v="3"/>
    <tag k="addr:street" v="plac Zbawiciela"/>
    <tag k="source" v="http://ump.waw.pl/ retrieved 15:05:23 06/30/09 (UMP-Poznan/src/POZNAN.ulice.txt)"/>
  </node>
  <node id="454668661" version="1" timestamp="2009-08-02T22:46:49Z" uid="20587" user="balrog-kun" changeset="2020388" lat="52.3874146" lon="16.8899347">
    <tag k="addr:city" v="Poznań"/>
    <tag k="addr:housenumber" v="3"/>
    <tag k="addr:street" v="Macieja Palacza"/>
    <tag k="source" v="http://ump.waw.pl/ retrieved 15:05:23 06/30/09 (UMP-Poznan/src/POZNAN.ulice.txt)"/>
  </node>
  <node id="454668662" version="1" timestamp="2009-08-02T22:46:49Z" uid="20587" user="balrog-kun" changeset="2020388" lat="52.3839007" lon="16.8836009">
    <tag k="addr:city" v="Poznań"/>
    <tag k="addr:housenumber" v="4"/>
    <tag k="addr:street" v="Księdza Piotra Ściegiennego"/>
    <tag k="source" v="http://ump.waw.pl/ retrieved 15:05:23 06/30/09 (UMP-Poznan/src/POZNAN.ulice.txt)"/>
  </node>
  <node id="454668663" version="1" timestamp="2009-08-02T22:46:49Z" uid="20587" user="balrog-kun" changeset="2020388" lat="52.3818062" lon="16.8747902">
    <tag k="addr:city" v="Poznań"/>
    <tag k="addr:housenumber" v="9"/>
    <tag k="addr:street" v="Węglowa"/>
    <tag k="source" v="http://ump.waw.pl/ retrieved 15:05:23 06/30/09 (UMP-Poznan/src/POZNAN.ulice.txt)"/>
  </node>
  <node id="454668664" version="1" timestamp="2009-08-02T22:46:49Z" uid="20587" user="balrog-kun" changeset="2020388" lat="52.391498" lon="16.8910858">
    <tag k="addr:city" v="Poznań"/>
    <tag k="addr:housenumber" v="29"/>
    <tag k="addr:street" v="Hetmańska"/>
    <tag k="source" v="http://ump.waw.pl/ retrieved 15:05:23 06/30/09 (UMP-Poznan/src/POZNAN.ulice.txt)"/>
  </node>
  <node id="454668666" version="1" timestamp="2009-08-02T22:46:50Z" uid="20587" user="balrog-kun" changeset="2020388" lat="52.3923431" lon="16.888875">
    <tag k="addr:city" v="Poznań"/>
    <tag k="addr:housenumber" v="13"/>
    <tag k="addr:street" v="Hetmańska"/>
    <tag k="source" v="http://ump.waw.pl/ retrieved 15:05:23 06/30/09 (UMP-Poznan/src/POZNAN.ulice.txt)"/>
  </node>
  <node id="454668667" version="1" timestamp="2009-08-02T22:46:50Z" uid="20587" user="balrog-kun" changeset="2020388" lat="52.3814946" lon="16.8796034">
    <tag k="addr:city" v="Poznań"/>
    <tag k="addr:housenumber" v="36"/>
    <tag k="addr:street" v="Zgoda"/>
    <tag k="source" v="http://ump.waw.pl/ retrieved 15:05:23 06/30/09 (UMP-Poznan/src/POZNAN.ulice.txt)"/>
  </node>
  <node id="454668668" version="1" timestamp="2009-08-02T22:46:50Z" uid="20587" user="balrog-kun" changeset="2020388" lat="52.3919756" lon="16.8924584">
    <tag k="addr:city" v="Poznań"/>
    <tag k="addr:housenumber" v="16"/>
    <tag k="addr:street" v="Józefa Chociszewskiego"/>
    <tag k="source" v="http://ump.waw.pl/ retrieved 15:05:23 06/30/09 (UMP-Poznan/src/POZNAN.ulice.txt)"/>
  </node>
  <node id="454668670" version="1" timestamp="2009-08-02T22:46:50Z" uid="20587" user="balrog-kun" changeset="2020388" lat="52.3806214" lon="16.8777985">
    <tag k="addr:city" v="Poznań"/>
    <tag k="addr:housenumber" v="48"/>
    <tag k="addr:street" v="Zgoda"/>
    <tag k="source" v="http://ump.waw.pl/ retrieved 15:05:23 06/30/09 (UMP-Poznan/src/POZNAN.ulice.txt)"/>
  </node>
  <node id="454668671" version="1" timestamp="2009-08-02T22:46:50Z" uid="20587" user="balrog-kun" changeset="2020388" lat="52.3862044" lon="16.8941037">
    <tag k="addr:city" v="Poznań"/>
    <tag k="addr:housenumber" v="20"/>
    <tag k="addr:street" v="Jakuba Krauthofera"/>
    <tag k="source" v="http://ump.waw.pl/ retrieved 15:05:23 06/30/09 (UMP-Poznan/src/POZNAN.ulice.txt)"/>
  </node>
  <node id="454668672" version="1" timestamp="2009-08-02T22:46:50Z" uid="20587" user="balrog-kun" changeset="2020388" lat="52.3820744" lon="16.88075">
    <tag k="addr:city" v="Poznań"/>
    <tag k="addr:housenumber" v="8"/>
    <tag k="addr:street" v="Albańska"/>
    <tag k="source" v="http://ump.waw.pl/ retrieved 15:05:23 06/30/09 (UMP-Poznan/src/POZNAN.ulice.txt)"/>
  </node>
  <node id="454668673" version="1" timestamp="2009-08-02T22:46:50Z" uid="20587" user="balrog-kun" changeset="2020388" lat="52.3893657" lon="16.890337">
    <tag k="addr:city" v="Poznań"/>
    <tag k="addr:housenumber" v="7"/>
    <tag k="addr:street" v="Błażeja Winklera"/>
    <tag k="source" v="http://ump.waw.pl/ retrieved 15:05:23 06/30/09 (UMP-Poznan/src/POZNAN.ulice.txt)"/>
  </node>
  <node id="454668674" version="1" timestamp="2009-08-02T22:46:50Z" uid="20587" user="balrog-kun" changeset="2020388" lat="52.3917311" lon="16.8931561">
    <tag k="addr:city" v="Poznań"/>
    <tag k="addr:housenumber" v="14"/>
    <tag k="addr:street" v="Józefa Chociszewskiego"/>
    <tag k="source" v="http://ump.waw.pl/ retrieved 15:05:23 06/30/09 (UMP-Poznan/src/POZNAN.ulice.txt)"/>
  </node>
  <node id="454668675" version="1" timestamp="2009-08-02T22:46:50Z" uid="20587" user="balrog-kun" changeset="2020388" lat="52.3833753" lon="16.8862198">
    <tag k="addr:city" v="Poznań"/>
    <tag k="addr:housenumber" v="173"/>
    <tag k="addr:street" v="Głogowska"/>
    <tag k="source" v="http://ump.waw.pl/ retrieved 15:05:23 06/30/09 (UMP-Poznan/src/POZNAN.ulice.txt)"/>
  </node>
  <node id="454668676" version="1" timestamp="2009-08-02T22:46:50Z" uid="20587" user="balrog-kun" changeset="2020388" lat="52.3926718" lon="16.8865354">
    <tag k="addr:city" v="Poznań"/>
    <tag k="addr:housenumber" v="2"/>
    <tag k="addr:street" v="Hetmańska"/>
    <tag k="source" v="http://ump.waw.pl/ retrieved 15:05:23 06/30/09 (UMP-Poznan/src/POZNAN.ulice.txt)"/>
  </node>
  <node id="454668677" version="1" timestamp="2009-08-02T22:46:50Z" uid="20587" user="balrog-kun" changeset="2020388" lat="52.3900915" lon="16.8886283">
    <tag k="addr:city" v="Poznań"/>
    <tag k="addr:housenumber" v="20"/>
    <tag k="addr:street" v="Błażeja Winklera"/>
    <tag k="source" v="http://ump.waw.pl/ retrieved 15:05:23 06/30/09 (UMP-Poznan/src/POZNAN.ulice.txt)"/>
  </node>
  <node id="454668679" version="1" timestamp="2009-08-02T22:46:50Z" uid="20587" user="balrog-kun" changeset="2020388" lat="52.3844575" lon="16.8802982"/>
  <node id="454668680" version="1" timestamp="2009-08-02T22:46:51Z" uid="20587" user="balrog-kun" changeset="2020388" lat="52.3854154" lon="16.8805995">
    <tag k="addr:city" v="Poznań"/>
    <tag k="addr:housenumber" v="27"/>
    <tag k="addr:street" v="Księdza Piotra Ściegiennego"/>
    <tag k="source" v="http://ump.waw.pl/ retrieved 15:05:23 06/30/09 (UMP-Poznan/src/POZNAN.ulice.txt)"/>
  </node>
  <node id="454668681" version="1" timestamp="2009-08-02T22:46:51Z" uid="20587" user="balrog-kun" changeset="2020388" lat="52.390624" lon="16.8942575">
    <tag k="addr:city" v="Poznań"/>
    <tag k="addr:housenumber" v="112"/>
    <tag k="addr:street" v="Głogowska"/>
    <tag k="source" v="http://ump.waw.pl/ retrieved 15:05:23 06/30/09 (UMP-Poznan/src/POZNAN.ulice.txt)"/>
  </node>
  <node id="454668682" version="1" timestamp="2009-08-02T22:46:51Z" uid="20587" user="balrog-kun" changeset="2020388" lat="52.3902772" lon="16.8930171">
    <tag k="addr:city" v="Poznań"/>
    <tag k="addr:housenumber" v="42"/>
    <tag k="addr:street" v="Hetmańska"/>
    <tag k="source" v="http://ump.waw.pl/ retrieved 15:05:23 06/30/09 (UMP-Poznan/src/POZNAN.ulice.txt)"/>
  </node>
  <node id="454668683" version="1" timestamp="2009-08-02T22:46:51Z" uid="20587" user="balrog-kun" changeset="2020388" lat="52.387095" lon="16.8830253">
    <tag k="addr:city" v="Poznań"/>
    <tag k="addr:housenumber" v="1"/>
    <tag k="addr:street" v="Księdza Augustyna Kordeckiego"/>
    <tag k="source" v="http://ump.waw.pl/ retrieved 15:05:23 06/30/09 (UMP-Poznan/src/POZNAN.ulice.txt)"/>
  </node>
  <node id="454668684" version="1" timestamp="2009-08-02T22:46:51Z" uid="20587" user="balrog-kun" changeset="2020388" lat="52.3811298" lon="16.8828704">
    <tag k="addr:city" v="Poznań"/>
    <tag k="addr:housenumber" v="197"/>
    <tag k="addr:street" v="Głogowska"/>
    <tag k="source" v="http://ump.waw.pl/ retrieved 15:05:23 06/30/09 (UMP-Poznan/src/POZNAN.ulice.txt)"/>
  </node>
  <node id="454668685" version="1" timestamp="2009-08-02T22:46:51Z" uid="20587" user="balrog-kun" changeset="2020388" lat="52.3860918" lon="16.8960027">
    <tag k="addr:city" v="Poznań"/>
    <tag k="addr:housenumber" v="79"/>
    <tag k="addr:street" v="Romana Dmowskiego"/>
    <tag k="source" v="http://ump.waw.pl/ retrieved 15:05:23 06/30/09 (UMP-Poznan/src/POZNAN.ulice.txt)"/>
  </node>
  <node id="454668686" version="1" timestamp="2009-08-02T22:46:51Z" uid="20587" user="balrog-kun" changeset="2020388" lat="52.3903648" lon="16.8879934">
    <tag k="addr:city" v="Poznań"/>
    <tag k="addr:housenumber" v="15"/>
    <tag k="addr:street" v="Wojciecha Cybulskiego"/>
    <tag k="source" v="http://ump.waw.pl/ retrieved 15:05:23 06/30/09 (UMP-Poznan/src/POZNAN.ulice.txt)"/>
  </node>
  <node id="454668687" version="1" timestamp="2009-08-02T22:46:51Z" uid="20587" user="balrog-kun" changeset="2020388" lat="52.3843577" lon="16.8818865">
    <tag k="addr:city" v="Poznań"/>
    <tag k="addr:housenumber" v="16"/>
    <tag k="addr:street" v="Częstochowska"/>
    <tag k="source" v="http://ump.waw.pl/ retrieved 15:05:23 06/30/09 (UMP-Poznan/src/POZNAN.ulice.txt)"/>
  </node>
  <node id="454668688" version="1" timestamp="2009-08-02T22:46:51Z" uid="20587" user="balrog-kun" changeset="2020388" lat="52.393032" lon="16.8885132">
    <tag k="addr:city" v="Poznań"/>
    <tag k="addr:housenumber" v="37"/>
    <tag k="addr:street" v="Józefa Chociszewskiego"/>
    <tag k="source" v="http://ump.waw.pl/ retrieved 15:05:23 06/30/09 (UMP-Poznan/src/POZNAN.ulice.txt)"/>
  </node>
  <node id="454668690" version="1" timestamp="2009-08-02T22:46:51Z" uid="20587" user="balrog-kun" changeset="2020388" lat="52.3863413" lon="16.8895986">
    <tag k="addr:city" v="Poznań"/>
    <tag k="addr:housenumber" v="152"/>
    <tag k="addr:street" v="Głogowska"/>
    <tag k="source" v="http://ump.waw.pl/ retrieved 15:05:23 06/30/09 (UMP-Poznan/src/POZNAN.ulice.txt)"/>
  </node>
  <node id="454668691" version="1" timestamp="2009-08-02T22:46:51Z" uid="20587" user="balrog-kun" changeset="2020388" lat="52.3807677" lon="16.8854573">
    <tag k="addr:city" v="Poznań"/>
    <tag k="addr:housenumber" v="12"/>
    <tag k="addr:street" v="Metalowa"/>
    <tag k="source" v="http://ump.waw.pl/ retrieved 15:05:23 06/30/09 (UMP-Poznan/src/POZNAN.ulice.txt)"/>
  </node>
  <node id="454668692" version="1" timestamp="2009-08-02T22:46:51Z" uid="20587" user="balrog-kun" changeset="2020388" lat="52.3901611" lon="16.8889821">
    <tag k="addr:city" v="Poznań"/>
    <tag k="addr:housenumber" v="51"/>
    <tag k="addr:street" v="Kazimierza Jarochowskiego"/>
    <tag k="source" v="http://ump.waw.pl/ retrieved 15:05:23 06/30/09 (UMP-Poznan/src/POZNAN.ulice.txt)"/>
  </node>
  <node id="454668693" version="1" timestamp="2009-08-02T22:46:51Z" uid="20587" user="balrog-kun" changeset="2020388" lat="52.3897671" lon="16.8883169">
    <tag k="addr:city" v="Poznań"/>
    <tag k="addr:housenumber" v="53"/>
    <tag k="addr:street" v="Kazimierza Jarochowskiego"/>
    <tag k="source" v="http://ump.waw.pl/ retrieved 15:05:23 06/30/09 (UMP-Poznan/src/POZNAN.ulice.txt)"/>
  </node>
  <node id="454668694" version="1" timestamp="2009-08-02T22:46:51Z" uid="20587" user="balrog-kun" changeset="2020388" lat="52.3840314" lon="16.8937926">
    <tag k="addr:city" v="Poznań"/>
    <tag k="addr:housenumber" v="105"/>
    <tag k="addr:street" v="Romana Dmowskiego"/>
    <tag k="source" v="http://ump.waw.pl/ retrieved 15:05:23 06/30/09 (UMP-Poznan/src/POZNAN.ulice.txt)"/>
  </node>
  <node id="454668695" version="1" timestamp="2009-08-02T22:46:51Z" uid="20587" user="balrog-kun" changeset="2020388" lat="52.3855672" lon="16.8878916">
    <tag k="addr:city" v="Poznań"/>
    <tag k="addr:housenumber" v="6"/>
    <tag k="addr:street" v="Górczyńska"/>
    <tag k="source" v="http://ump.waw.pl/ retrieved 15:05:23 06/30/09 (UMP-Poznan/src/POZNAN.ulice.txt)"/>
  </node>
  <node id="454668696" version="1" timestamp="2009-08-02T22:46:51Z" uid="20587" user="balrog-kun" changeset="2020388" lat="52.3825741" lon="16.8748704">
    <tag k="addr:city" v="Poznań"/>
    <tag k="addr:housenumber" v="61"/>
    <tag k="addr:street" v="Księdza Augustyna Kordeckiego"/>
    <tag k="source" v="http://ump.waw.pl/ retrieved 15:05:23 06/30/09 (UMP-Poznan/src/POZNAN.ulice.txt)"/>
  </node>
  <node id="454668697" version="1" timestamp="2009-08-02T22:46:51Z" uid="20587" user="balrog-kun" changeset="2020388" lat="52.3906711" lon="16.885045">
    <tag k="addr:city" v="Poznań"/>
    <tag k="addr:housenumber" v="23"/>
    <tag k="addr:street" v="Krzysztofa Arciszewskiego"/>
    <tag k="source" v="http://ump.waw.pl/ retrieved 15:05:23 06/30/09 (UMP-Poznan/src/POZNAN.ulice.txt)"/>
  </node>
  <node id="454668698" version="1" timestamp="2009-08-02T22:46:51Z" uid="20587" user="balrog-kun" changeset="2020388" lat="52.3856447" lon="16.8883294">
    <tag k="addr:city" v="Poznań"/>
    <tag k="addr:housenumber" v="3"/>
    <tag k="addr:street" v="Kosynierska"/>
    <tag k="source" v="http://ump.waw.pl/ retrieved 15:05:23 06/30/09 (UMP-Poznan/src/POZNAN.ulice.txt)"/>
  </node>
  <node id="454668699" version="1" timestamp="2009-08-02T22:46:51Z" uid="20587" user="balrog-kun" changeset="2020388" lat="52.3920617" lon="16.8910253">
    <tag k="addr:city" v="Poznań"/>
    <tag k="addr:housenumber" v="39"/>
    <tag k="addr:street" v="Kazimierza Jarochowskiego"/>
    <tag k="source" v="http://ump.waw.pl/ retrieved 15:05:23 06/30/09 (UMP-Poznan/src/POZNAN.ulice.txt)"/>
  </node>
  <node id="454668700" version="1" timestamp="2009-08-02T22:46:52Z" uid="20587" user="balrog-kun" changeset="2020388" lat="52.3822519" lon="16.8811269">
    <tag k="addr:city" v="Poznań"/>
    <tag k="addr:housenumber" v="28"/>
    <tag k="addr:street" v="Zgoda"/>
    <tag k="source" v="http://ump.waw.pl/ retrieved 15:05:23 06/30/09 (UMP-Poznan/src/POZNAN.ulice.txt)"/>
  </node>
  <node id="454668702" version="1" timestamp="2009-08-02T22:46:52Z" uid="20587" user="balrog-kun" changeset="2020388" lat="52.3833739" lon="16.8822884">
    <tag k="addr:city" v="Poznań"/>
    <tag k="addr:housenumber" v="5"/>
    <tag k="addr:street" v="plac Zbawiciela"/>
    <tag k="source" v="http://ump.waw.pl/ retrieved 15:05:23 06/30/09 (UMP-Poznan/src/POZNAN.ulice.txt)"/>
  </node>
  <node id="454668703" version="1" timestamp="2009-08-02T22:46:52Z" uid="20587" user="balrog-kun" changeset="2020388" lat="52.3927471" lon="16.8889609">
    <tag k="addr:city" v="Poznań"/>
    <tag k="addr:housenumber" v="7"/>
    <tag k="addr:street" v="Szymborska"/>
    <tag k="source" v="http://ump.waw.pl/ retrieved 15:05:23 06/30/09 (UMP-Poznan/src/POZNAN.ulice.txt)"/>
  </node>
  <node id="454668704" version="1" timestamp="2009-08-02T22:46:52Z" uid="20587" user="balrog-kun" changeset="2020388" lat="52.392691" lon="16.8883781">
    <tag k="addr:city" v="Poznań"/>
    <tag k="addr:housenumber" v="12"/>
    <tag k="addr:street" v="Szymborska"/>
    <tag k="source" v="http://ump.waw.pl/ retrieved 15:05:23 06/30/09 (UMP-Poznan/src/POZNAN.ulice.txt)"/>
  </node>
  <node id="454668705" version="1" timestamp="2009-08-02T22:46:52Z" uid="20587" user="balrog-kun" changeset="2020388" lat="52.3919604" lon="16.8860996">
    <tag k="addr:city" v="Poznań"/>
    <tag k="addr:housenumber" v="3"/>
    <tag k="addr:street" v="Krzysztofa Arciszewskiego"/>
    <tag k="source" v="http://ump.waw.pl/ retrieved 15:05:23 06/30/09 (UMP-Poznan/src/POZNAN.ulice.txt)"/>
  </node>
  <node id="454668706" version="1" timestamp="2009-08-02T22:46:52Z" uid="20587" user="balrog-kun" changeset="2020388" lat="52.3863693" lon="16.8825582">
    <tag k="addr:city" v="Poznań"/>
    <tag k="addr:housenumber" v="47"/>
    <tag k="addr:street" v="Sielska"/>
    <tag k="source" v="http://ump.waw.pl/ retrieved 15:05:23 06/30/09 (UMP-Poznan/src/POZNAN.ulice.txt)"/>
  </node>
  <node id="454668708" version="1" timestamp="2009-08-02T22:46:52Z" uid="20587" user="balrog-kun" changeset="2020388" lat="52.3860937" lon="16.8841976">
    <tag k="addr:city" v="Poznań"/>
    <tag k="addr:housenumber" v="32"/>
    <tag k="addr:street" v="Sielska"/>
    <tag k="source" v="http://ump.waw.pl/ retrieved 15:05:23 06/30/09 (UMP-Poznan/src/POZNAN.ulice.txt)"/>
  </node>
  <node id="454668709" version="1" timestamp="2009-08-02T22:46:52Z" uid="20587" user="balrog-kun" changeset="2020388" lat="52.3830189" lon="16.885905">
    <tag k="addr:city" v="Poznań"/>
    <tag k="addr:housenumber" v="2"/>
    <tag k="addr:street" v="Daleka"/>
    <tag k="source" v="http://ump.waw.pl/ retrieved 15:05:23 06/30/09 (UMP-Poznan/src/POZNAN.ulice.txt)"/>
  </node>
  <node id="454668710" version="1" timestamp="2009-08-02T22:46:52Z" uid="20587" user="balrog-kun" changeset="2020388" lat="52.3882268" lon="16.8858107">
    <tag k="addr:city" v="Poznań"/>
    <tag k="addr:housenumber" v="2"/>
    <tag k="addr:street" v="Biedrzyckiego"/>
    <tag k="source" v="http://ump.waw.pl/ retrieved 15:05:23 06/30/09 (UMP-Poznan/src/POZNAN.ulice.txt)"/>
  </node>
  <node id="454668711" version="1" timestamp="2009-08-02T22:46:52Z" uid="20587" user="balrog-kun" changeset="2020388" lat="52.3879262" lon="16.8871539">
    <tag k="addr:city" v="Poznań"/>
    <tag k="addr:housenumber" v="22"/>
    <tag k="addr:street" v="Macieja Palacza"/>
    <tag k="source" v="http://ump.waw.pl/ retrieved 15:05:23 06/30/09 (UMP-Poznan/src/POZNAN.ulice.txt)"/>
  </node>
  <node id="454668712" version="1" timestamp="2009-08-02T22:46:52Z" uid="20587" user="balrog-kun" changeset="2020388" lat="52.3881569" lon="16.8865068">
    <tag k="addr:city" v="Poznań"/>
    <tag k="addr:housenumber" v="77"/>
    <tag k="addr:street" v="Kazimierza Jarochowskiego"/>
    <tag k="source" v="http://ump.waw.pl/ retrieved 15:05:23 06/30/09 (UMP-Poznan/src/POZNAN.ulice.txt)"/>
  </node>
  <node id="454668713" version="1" timestamp="2009-08-02T22:46:52Z" uid="20587" user="balrog-kun" changeset="2020388" lat="52.3922179" lon="16.887367">
    <tag k="addr:city" v="Poznań"/>
    <tag k="addr:housenumber" v="2"/>
    <tag k="addr:street" v="Józefa Rogalińskiego"/>
    <tag k="source" v="http://ump.waw.pl/ retrieved 15:05:23 06/30/09 (UMP-Poznan/src/POZNAN.ulice.txt)"/>
  </node>
  <node id="454668714" version="1" timestamp="2009-08-02T22:46:52Z" uid="20587" user="balrog-kun" changeset="2020388" lat="52.3824502" lon="16.8804124">
    <tag k="addr:city" v="Poznań"/>
    <tag k="addr:housenumber" v="23"/>
    <tag k="addr:street" v="Ostrobramska"/>
    <tag k="source" v="http://ump.waw.pl/ retrieved 15:05:23 06/30/09 (UMP-Poznan/src/POZNAN.ulice.txt)"/>
  </node>
  <node id="454668715" version="1" timestamp="2009-08-02T22:46:52Z" uid="20587" user="balrog-kun" changeset="2020388" lat="52.3871691" lon="16.8835539">
    <tag k="addr:city" v="Poznań"/>
    <tag k="addr:housenumber" v="41"/>
    <tag k="addr:street" v="Górczyńska"/>
    <tag k="source" v="http://ump.waw.pl/ retrieved 15:05:23 06/30/09 (UMP-Poznan/src/POZNAN.ulice.txt)"/>
  </node>
  <node id="454668717" version="1" timestamp="2009-08-02T22:46:52Z" uid="20587" user="balrog-kun" changeset="2020388" lat="52.3847621" lon="16.8807161">
    <tag k="addr:city" v="Poznań"/>
    <tag k="addr:housenumber" v="13"/>
    <tag k="addr:street" v="Logi"/>
    <tag k="source" v="http://ump.waw.pl/ retrieved 15:05:23 06/30/09 (UMP-Poznan/src/POZNAN.ulice.txt)"/>
  </node>
  <node id="454668718" version="1" timestamp="2009-08-02T22:46:53Z" uid="20587" user="balrog-kun" changeset="2020388" lat="52.3921687" lon="16.8879375">
    <tag k="addr:city" v="Poznań"/>
    <tag k="addr:housenumber" v="10"/>
    <tag k="addr:street" v="Hetmańska"/>
    <tag k="source" v="http://ump.waw.pl/ retrieved 15:05:23 06/30/09 (UMP-Poznan/src/POZNAN.ulice.txt)"/>
  </node>
  <node id="454668719" version="1" timestamp="2009-08-02T22:46:53Z" uid="20587" user="balrog-kun" changeset="2020388" lat="52.3864737" lon="16.8875186">
    <tag k="addr:city" v="Poznań"/>
    <tag k="addr:housenumber" v="18"/>
    <tag k="addr:street" v="Kuźnicza"/>
    <tag k="source" v="http://ump.waw.pl/ retrieved 15:05:23 06/30/09 (UMP-Poznan/src/POZNAN.ulice.txt)"/>
  </node>
  <node id="454668720" version="1" timestamp="2009-08-02T22:46:53Z" uid="20587" user="balrog-kun" changeset="2020388" lat="52.3868242" lon="16.8814574">
    <tag k="addr:city" v="Poznań"/>
    <tag k="addr:housenumber" v="8"/>
    <tag k="addr:street" v="Księdza Augustyna Kordeckiego"/>
    <tag k="source" v="http://ump.waw.pl/ retrieved 15:05:23 06/30/09 (UMP-Poznan/src/POZNAN.ulice.txt)"/>
  </node>
  <node id="454668721" version="1" timestamp="2009-08-02T22:46:53Z" uid="20587" user="balrog-kun" changeset="2020388" lat="52.3894471" lon="16.8839319">
    <tag k="addr:city" v="Poznań"/>
    <tag k="addr:housenumber" v="35"/>
    <tag k="addr:street" v="Krzysztofa Arciszewskiego"/>
    <tag k="source" v="http://ump.waw.pl/ retrieved 15:05:23 06/30/09 (UMP-Poznan/src/POZNAN.ulice.txt)"/>
  </node>
  <node id="454668722" version="1" timestamp="2009-08-02T22:46:53Z" uid="20587" user="balrog-kun" changeset="2020388" lat="52.3822545" lon="16.8804336">
    <tag k="addr:city" v="Poznań"/>
    <tag k="addr:housenumber" v="10"/>
    <tag k="addr:street" v="Albańska"/>
    <tag k="source" v="http://ump.waw.pl/ retrieved 15:05:23 06/30/09 (UMP-Poznan/src/POZNAN.ulice.txt)"/>
  </node>
  <node id="454668723" version="1" timestamp="2009-08-02T22:46:53Z" uid="20587" user="balrog-kun" changeset="2020388" lat="52.3858413" lon="16.8874354">
    <tag k="addr:city" v="Poznań"/>
    <tag k="addr:housenumber" v="14"/>
    <tag k="addr:street" v="Górczyńska"/>
    <tag k="source" v="http://ump.waw.pl/ retrieved 15:05:23 06/30/09 (UMP-Poznan/src/POZNAN.ulice.txt)"/>
  </node>
  <node id="454668724" version="1" timestamp="2009-08-02T22:46:53Z" uid="20587" user="balrog-kun" changeset="2020388" lat="52.3860682" lon="16.8950035">
    <tag k="addr:city" v="Poznań"/>
    <tag k="addr:housenumber" v="22"/>
    <tag k="addr:street" v="Jakuba Krauthofera"/>
    <tag k="source" v="http://ump.waw.pl/ retrieved 15:05:23 06/30/09 (UMP-Poznan/src/POZNAN.ulice.txt)"/>
  </node>
  <node id="454668725" version="1" timestamp="2009-08-02T22:46:53Z" uid="20587" user="balrog-kun" changeset="2020388" lat="52.38408" lon="16.8899097">
    <tag k="addr:city" v="Poznań"/>
    <tag k="addr:housenumber" v="10"/>
    <tag k="addr:street" v="Stanisława Knapowskiego"/>
    <tag k="source" v="http://ump.waw.pl/ retrieved 15:05:23 06/30/09 (UMP-Poznan/src/POZNAN.ulice.txt)"/>
  </node>
  <node id="454668728" version="1" timestamp="2009-08-02T22:46:53Z" uid="20587" user="balrog-kun" changeset="2020388" lat="52.3887575" lon="16.8921405">
    <tag k="addr:city" v="Poznań"/>
    <tag k="addr:housenumber" v="1"/>
    <tag k="addr:street" v="Błażeja Winklera"/>
    <tag k="source" v="http://ump.waw.pl/ retrieved 15:05:23 06/30/09 (UMP-Poznan/src/POZNAN.ulice.txt)"/>
  </node>
  <node id="454668729" version="1" timestamp="2009-08-02T22:46:53Z" uid="20587" user="balrog-kun" changeset="2020388" lat="52.3807351" lon="16.8782589">
    <tag k="addr:city" v="Poznań"/>
    <tag k="addr:housenumber" v="46"/>
    <tag k="addr:street" v="Zgoda"/>
    <tag k="source" v="http://ump.waw.pl/ retrieved 15:05:23 06/30/09 (UMP-Poznan/src/POZNAN.ulice.txt)"/>
  </node>
  <node id="454668730" version="1" timestamp="2009-08-02T22:46:54Z" uid="20587" user="balrog-kun" changeset="2020388" lat="52.3917897" lon="16.8907086">
    <tag k="addr:city" v="Poznań"/>
    <tag k="addr:housenumber" v="41"/>
    <tag k="addr:street" v="Kazimierza Jarochowskiego"/>
    <tag k="source" v="http://ump.waw.pl/ retrieved 15:05:23 06/30/09 (UMP-Poznan/src/POZNAN.ulice.txt)"/>
  </node>
  <node id="454668731" version="1" timestamp="2009-08-02T22:46:54Z" uid="20587" user="balrog-kun" changeset="2020388" lat="52.3891754" lon="16.8919059">
    <tag k="addr:city" v="Poznań"/>
    <tag k="addr:housenumber" v="4"/>
    <tag k="addr:street" v="Błażeja Winklera"/>
    <tag k="source" v="http://ump.waw.pl/ retrieved 15:05:23 06/30/09 (UMP-Poznan/src/POZNAN.ulice.txt)"/>
  </node>
  <node id="454668732" version="1" timestamp="2009-08-02T22:46:54Z" uid="20587" user="balrog-kun" changeset="2020388" lat="52.385873" lon="16.8808641">
    <tag k="addr:city" v="Poznań"/>
    <tag k="addr:housenumber" v="30"/>
    <tag k="addr:street" v="Księdza Piotra Ściegiennego"/>
    <tag k="source" v="http://ump.waw.pl/ retrieved 15:05:23 06/30/09 (UMP-Poznan/src/POZNAN.ulice.txt)"/>
  </node>
  <node id="454668733" version="1" timestamp="2009-08-02T22:46:54Z" uid="20587" user="balrog-kun" changeset="2020388" lat="52.3924171" lon="16.8872537">
    <tag k="addr:city" v="Poznań"/>
    <tag k="addr:housenumber" v="8"/>
    <tag k="addr:street" v="Hetmańska"/>
    <tag k="source" v="http://ump.waw.pl/ retrieved 15:05:23 06/30/09 (UMP-Poznan/src/POZNAN.ulice.txt)"/>
  </node>
  <node id="454668734" version="1" timestamp="2009-08-02T22:46:54Z" uid="20587" user="balrog-kun" changeset="2020388" lat="52.3854043" lon="16.8824197">
    <tag k="addr:city" v="Poznań"/>
    <tag k="addr:housenumber" v="14"/>
    <tag k="addr:street" v="Księdza Piotra Skargi"/>
    <tag k="source" v="http://ump.waw.pl/ retrieved 15:05:23 06/30/09 (UMP-Poznan/src/POZNAN.ulice.txt)"/>
  </node>
  <node id="454668736" version="1" timestamp="2009-08-02T22:46:54Z" uid="20587" user="balrog-kun" changeset="2020388" lat="52.3828155" lon="16.8745015">
    <tag k="addr:city" v="Poznań"/>
    <tag k="addr:housenumber" v="60"/>
    <tag k="addr:street" v="Księdza Augustyna Kordeckiego"/>
    <tag k="source" v="http://ump.waw.pl/ retrieved 15:05:23 06/30/09 (UMP-Poznan/src/POZNAN.ulice.txt)"/>
  </node>
  <node id="454668872" version="2" timestamp="2009-08-03T23:54:50Z" uid="4467" user="Rosscoe" changeset="2031131" lat="-43.5839261" lon="172.7063225"/>
</osm>
