<?xml version='1.0' encoding='UTF-8'?>
<osm version="0.6" generator="libosmium/2.20.0">
  <node id="455611892" version="1" timestamp="2009-08-03T20:37:23Z" uid="151899" user="Bikeman2000" changeset="2030109" lat="51.2377438" lon="6.7342534">
    <tag k="name" v="Schlecker"/>
    <tag k="shop" v="supermarket"/>
  </node>
  <node id="455611892" version="2" timestamp="2009-08-03T20:38:22Z" uid="151899" user="Bikeman2000" changeset="2030109" lat="51.2379373" lon="6.7334895">
    <tag k="name" v="Schlecker"/>
    <tag k="shop" v="supermarket"/>
  </node>
  <node id="455614770" version="1" timestamp="2009-08-03T20:39:54Z" uid="151899" user="Bikeman2000" changeset="2030109" lat="51.2366153" lon="6.739223">
    <tag k="amenity" v="restaurant"/>
    <tag k="name" v="Gaststätte Amani"/>
  </node>
  <node id="455614770" version="2" timestamp="2011-01-01T12:02:37Z" uid="151899" user="Bikeman2000" changeset="6827183" lat="51.2366486" lon="6.7392186">
    <tag k="amenity" v="restaurant"/>
    <tag k="name" v="Gaststätte Amani"/>
  </node>
  <node id="455615303" version="1" timestamp="2009-08-03T20:40:23Z" uid="151899" user="Bikeman2000" changeset="2030109" lat="51.2367658" lon="6.739695">
    <tag k="name" v="Bäckerei Christophel"/>
    <tag k="shop" v="convenience"/>
  </node>
  <node id="455615303" version="2" timestamp="2009-08-03T20:41:44Z" uid="151899" user="Bikeman2000" changeset="2030109" lat="51.2367658" lon="6.739695">
    <tag k="name" v="Bäckerei Christophel"/>
    <tag k="shop" v="convenience"/>
  </node>
  <node id="455615303" version="3" timestamp="2011-01-01T12:02:38Z" uid="151899" user="Bikeman2000" changeset="6827183" lat="51.2368034" lon="6.739687">
    <tag k="name" v="Bäckerei Christophel"/>
    <tag k="shop" v="convenience"/>
  </node>
  <node id="455617021" version="1" timestamp="2009-08-03T20:42:01Z" uid="151899" user="Bikeman2000" changeset="2030109" lat="51.2366906" lon="6.7394719">
    <tag k="name" v="Kiosk"/>
    <tag k="shop" v="convenience"/>
  </node>
  <node id="455617021" version="2" timestamp="2011-01-01T12:02:38Z" uid="151899" user="Bikeman2000" changeset="6827183" lat="51.2367262" lon="6.7394657">
    <tag k="name" v="Kiosk"/>
    <tag k="shop" v="convenience"/>
  </node>
  <node id="455618034" version="1" timestamp="2009-08-03T20:43:01Z" uid="151899" user="Bikeman2000" changeset="2030109" lat="51.2380663" lon="6.7337212">
    <tag k="name" v="Bäckerei Oehme"/>
    <tag k="shop" v="convenience"/>
  </node>
  <node id="455619016" version="2" timestamp="2009-12-24T04:24:37Z" uid="6975" user="ulfl" changeset="3439902" lat="40.6660847" lon="-73.7845569">
    <tag k="tourism" v="hotel"/>
  </node>
  <node id="455619143" version="1" timestamp="2009-08-03T20:44:09Z" uid="151899" user="Bikeman2000" changeset="2030109" lat="51.2409895" lon="6.7277474">
    <tag k="shop" v="supermarket"/>
  </node>
</osm>
