<?xml version='1.0' encoding='UTF-8'?>
<osm version="0.6" generator="libosmium/2.20.0">
  <node id="455634198" version="1" timestamp="2009-08-03T21:00:49Z" uid="151899" user="Bikeman2000" changeset="2030372" lat="51.2279135" lon="6.7896038">
    <tag k="amenity" v="cafe"/>
    <tag k="name" v="Starbucks"/>
  </node>
  <node id="455634202" version="1" timestamp="2009-08-03T21:00:50Z" uid="151899" user="Bikeman2000" changeset="2030372" lat="51.2265267" lon="6.7934919">
    <tag k="amenity" v="telephone"/>
  </node>
  <node id="455634202" version="2" timestamp="2010-11-13T13:17:10Z" uid="151899" user="Bikeman2000" changeset="6358090" lat="51.2265457" lon="6.7934787">
    <tag k="amenity" v="telephone"/>
  </node>
  <node id="455634206" version="1" timestamp="2009-08-03T21:00:50Z" uid="151899" user="Bikeman2000" changeset="2030372" lat="51.2223985" lon="6.7878357">
    <tag k="amenity" v=""/>
    <tag k="name" v="Lucky Bike"/>
    <tag k="operator" v="(type chain here)"/>
    <tag k="shop" v="bicycle"/>
  </node>
</osm>
