<?xml version='1.0' encoding='UTF-8'?>
<osm version="0.6" generator="libosmium/2.20.0">
  <node id="457280381" version="2" timestamp="2010-05-23T08:52:01Z" uid="4467" user="Rosscoe" changeset="4781017" lat="-32.012072" lon="115.883949"/>
  <node id="457280382" version="2" timestamp="2010-05-23T08:52:37Z" uid="4467" user="Rosscoe" changeset="4781017" lat="-32.0120034" lon="115.883965"/>
  <node id="457280383" version="2" timestamp="2010-05-23T08:53:57Z" uid="4467" user="Rosscoe" changeset="4781017" lat="-32.0119644" lon="115.8839739"/>
  <node id="457280384" version="2" timestamp="2010-05-23T08:53:13Z" uid="4467" user="Rosscoe" changeset="4781017" lat="-32.011875" lon="115.8839441"/>
  <node id="457280387" version="2" timestamp="2010-05-23T08:51:24Z" uid="4467" user="Rosscoe" changeset="4781017" lat="-32.0120405" lon="115.8842938"/>
  <node id="457280388" version="2" timestamp="2010-05-23T08:50:57Z" uid="4467" user="Rosscoe" changeset="4781017" lat="-32.012107" lon="115.8842844"/>
  <node id="457280406" version="2" timestamp="2010-05-23T08:50:28Z" uid="4467" user="Rosscoe" changeset="4781017" lat="-32.0121317" lon="115.884513"/>
  <node id="457281516" version="1" timestamp="2009-08-06T00:42:29Z" uid="20587" user="balrog-kun" changeset="2051553" lat="52.2485262" lon="21.0132291"/>
  <node id="457281517" version="1" timestamp="2009-08-06T00:42:29Z" uid="20587" user="balrog-kun" changeset="2051553" lat="52.2484097" lon="21.013244">
    <tag k="addr:housenumber" v="13"/>
    <tag k="addr:street" v="Świętojańska"/>
  </node>
  <node id="457281518" version="1" timestamp="2009-08-06T00:42:29Z" uid="20587" user="balrog-kun" changeset="2051553" lat="52.2485351" lon="21.0130707">
    <tag k="addr:housenumber" v="15"/>
    <tag k="addr:street" v="Świętojańska"/>
  </node>
  <node id="457281519" version="1" timestamp="2009-08-06T00:42:29Z" uid="20587" user="balrog-kun" changeset="2051553" lat="52.2486774" lon="21.0128423">
    <tag k="addr:housenumber" v="17"/>
    <tag k="addr:street" v="Świętojańska"/>
  </node>
  <node id="457281520" version="1" timestamp="2009-08-06T00:42:29Z" uid="20587" user="balrog-kun" changeset="2051553" lat="52.2488076" lon="21.0126454">
    <tag k="addr:housenumber" v="19"/>
    <tag k="addr:street" v="Świętojańska"/>
  </node>
  <node id="457281521" version="1" timestamp="2009-08-06T00:42:29Z" uid="20587" user="balrog-kun" changeset="2051553" lat="52.2481807" lon="21.0126454">
    <tag k="amenity" v="place_of_worship"/>
    <tag k="denomination" v="catholic"/>
    <tag k="religion" v="christian"/>
  </node>
  <node id="457281521" version="3" timestamp="2010-06-04T12:06:29Z" uid="20587" user="balrog-kun" changeset="4900606" lat="52.2481807" lon="21.0126455">
    <tag k="amenity" v="place_of_worship"/>
    <tag k="denomination" v="catholic"/>
    <tag k="name" v="Kościół świętego Marcina"/>
    <tag k="religion" v="christian"/>
  </node>
  <node id="457281522" version="1" timestamp="2009-08-06T00:42:29Z" uid="20587" user="balrog-kun" changeset="2051553" lat="52.2486171" lon="21.0128856">
    <tag k="amenity" v="atm"/>
  </node>
  <node id="457281522" version="2" timestamp="2010-10-04T18:17:58Z" uid="20587" user="balrog-kun" changeset="5956007" lat="52.2486171" lon="21.0128856">
    <tag k="addr:city" v="Warszawa"/>
    <tag k="addr:housenumber" v="17"/>
    <tag k="addr:street" v="Świętojańska"/>
    <tag k="amenity" v="atm"/>
    <tag k="atm_ref" v="8709"/>
    <tag k="millennium:date" v="2009-05-21 17:13:02"/>
    <tag k="millennium:network" v="Cash4You"/>
    <tag k="millennium:ref" v="19565"/>
    <tag k="millennium:subtype" v="Euronet"/>
    <tag k="name" v="Bankomat Cash4You"/>
    <tag k="operator" v="Euronet Sp. z o.o."/>
  </node>
  <node id="457281523" version="1" timestamp="2009-08-06T00:42:29Z" uid="20587" user="balrog-kun" changeset="2051553" lat="52.2484025" lon="21.0127872">
    <tag k="addr:housenumber" v="8/10"/>
    <tag k="addr:street" v="Piwna"/>
  </node>
  <node id="457281524" version="1" timestamp="2009-08-06T00:42:30Z" uid="20587" user="balrog-kun" changeset="2051553" lat="52.2484893" lon="21.0126257">
    <tag k="addr:housenumber" v="12/14"/>
    <tag k="addr:street" v="Piwna"/>
  </node>
  <node id="457281525" version="1" timestamp="2009-08-06T00:42:30Z" uid="20587" user="balrog-kun" changeset="2051553" lat="52.2486648" lon="21.0123989">
    <tag k="addr:housenumber" v="16/18"/>
    <tag k="addr:street" v="Piwna"/>
  </node>
  <node id="457281526" version="1" timestamp="2009-08-06T00:42:30Z" uid="20587" user="balrog-kun" changeset="2051553" lat="52.2488693" lon="21.0120933">
    <tag k="amenity" v="arts_centre"/>
    <tag k="name" v="Galeria Zapiecek"/>
  </node>
  <node id="457281527" version="1" timestamp="2009-08-06T00:42:30Z" uid="20587" user="balrog-kun" changeset="2051553" lat="52.2492685" lon="21.0110253">
    <tag k="name" v="Delikatesy Tyskie"/>
    <tag k="shop" v="convenience"/>
  </node>
  <node id="457281528" version="1" timestamp="2009-08-06T00:42:30Z" uid="20587" user="balrog-kun" changeset="2051553" lat="52.2489985" lon="21.0112301">
    <tag k="amenity" v="museum"/>
    <tag k="name" v="Muzeum Farmacji"/>
  </node>
  <node id="457281528" version="2" timestamp="2009-12-24T04:35:57Z" uid="6975" user="ulfl" changeset="3439951" lat="52.2489985" lon="21.0112301">
    <tag k="name" v="Muzeum Farmacji"/>
    <tag k="tourism" v="museum"/>
  </node>
  <node id="457281529" version="1" timestamp="2009-08-06T00:42:30Z" uid="20587" user="balrog-kun" changeset="2051553" lat="52.2487362" lon="21.0123516">
    <tag k="amenity" v="public_building"/>
    <tag k="name" v="Dom Ksiazki"/>
  </node>
  <node id="457281530" version="1" timestamp="2009-08-06T00:42:30Z" uid="20587" user="balrog-kun" changeset="2051553" lat="52.2504644" lon="21.0112269">
    <tag k="addr:housenumber" v="7"/>
    <tag k="addr:street" v="Krzywe Kolo"/>
  </node>
  <node id="457281531" version="1" timestamp="2009-08-06T00:42:30Z" uid="20587" user="balrog-kun" changeset="2051553" lat="52.2505161" lon="21.0111087"/>
  <node id="457281532" version="1" timestamp="2009-08-06T00:42:30Z" uid="20587" user="balrog-kun" changeset="2051553" lat="52.2506966" lon="21.0108072"/>
  <node id="457281533" version="1" timestamp="2009-08-06T00:42:30Z" uid="20587" user="balrog-kun" changeset="2051553" lat="52.2504972" lon="21.0093808">
    <tag k="amenity" v="place_of_worship"/>
    <tag k="denomination" v="catholic"/>
    <tag k="religion" v="christian"/>
  </node>
  <node id="457281533" version="2" timestamp="2009-08-09T21:43:09Z" uid="20587" user="balrog-kun" changeset="2091425" lat="52.2505106" lon="21.0092609">
    <tag k="addr:housenumber" v="1"/>
    <tag k="addr:street" v="Freta"/>
    <tag k="amenity" v="place_of_worship"/>
    <tag k="denomination" v="catholic"/>
    <tag k="name" v="Kosciol Rektorski Ojcow Paulinow pod wezwaniem Swietego Ducha"/>
    <tag k="religion" v="christian"/>
  </node>
  <node id="457281533" version="3" timestamp="2009-08-09T22:45:45Z" uid="20587" user="balrog-kun" changeset="2091788" lat="52.2505106" lon="21.0092609">
    <tag k="addr:housenumber" v="1"/>
    <tag k="addr:street" v="Freta"/>
    <tag k="amenity" v="place_of_worship"/>
    <tag k="denomination" v="catholic"/>
    <tag k="name" v="Kościół Rektorski Ojców Paulinów pod wezwaniem Swietego Ducha"/>
    <tag k="religion" v="christian"/>
  </node>
  <node id="457281533" version="4" timestamp="2009-08-09T23:13:45Z" uid="20587" user="balrog-kun" changeset="2091910" lat="52.2505106" lon="21.0092609">
    <tag k="addr:housenumber" v="1"/>
    <tag k="addr:street" v="Freta"/>
    <tag k="amenity" v="place_of_worship"/>
    <tag k="denomination" v="catholic"/>
    <tag k="name" v="Kościół Rektorski Ojców Paulinów pod wezwaniem Świętego Ducha"/>
    <tag k="religion" v="christian"/>
  </node>
  <node id="457281534" version="1" timestamp="2009-08-06T00:42:30Z" uid="20587" user="balrog-kun" changeset="2051553" lat="52.2504046" lon="21.0111324">
    <tag k="addr:housenumber" v="5"/>
    <tag k="addr:street" v="Krzywe Kolo"/>
  </node>
  <node id="457281535" version="1" timestamp="2009-08-06T00:42:30Z" uid="20587" user="balrog-kun" changeset="2051553" lat="52.2504258" lon="21.0112899">
    <tag k="amenity" v="public_building"/>
    <tag k="name" v="Archiwum Panstwowe Miasta Stolecznego Warszawy"/>
  </node>
  <node id="457281536" version="1" timestamp="2009-08-06T00:42:30Z" uid="20587" user="balrog-kun" changeset="2051553" lat="52.2508289" lon="21.012213">
    <tag k="addr:housenumber" v="37"/>
    <tag k="addr:street" v="Brzozowa"/>
    <tag k="amenity" v="bar"/>
    <tag k="name" v="Usta Mariana"/>
  </node>
  <node id="457281537" version="1" timestamp="2009-08-06T00:42:30Z" uid="20587" user="balrog-kun" changeset="2051553" lat="52.2505569" lon="21.012317">
    <tag k="barrier" v="gate"/>
  </node>
  <node id="457281538" version="1" timestamp="2009-08-06T00:42:30Z" uid="20587" user="balrog-kun" changeset="2051553" lat="52.2504547" lon="21.0124556">
    <tag k="barrier" v="gate"/>
  </node>
  <node id="457281539" version="1" timestamp="2009-08-06T00:42:30Z" uid="20587" user="balrog-kun" changeset="2051553" lat="52.2497179" lon="21.0141537">
    <tag k="historic" v="monument"/>
    <tag k="tourism" v="artwork"/>
  </node>
  <node id="457281540" version="1" timestamp="2009-08-06T00:42:30Z" uid="20587" user="balrog-kun" changeset="2051553" lat="52.2496813" lon="21.0142293">
    <tag k="natural" v="tree"/>
  </node>
  <node id="457281541" version="1" timestamp="2009-08-06T00:42:30Z" uid="20587" user="balrog-kun" changeset="2051553" lat="52.2495945" lon="21.0137914">
    <tag k="amenity" v="public_building"/>
    <tag k="name" v="Stoleczne Centrum Edukacji Kulturalnej"/>
  </node>
  <node id="457281542" version="1" timestamp="2009-08-06T00:42:30Z" uid="20587" user="balrog-kun" changeset="2051553" lat="52.2492608" lon="21.0137945">
    <tag k="historic" v="memorial"/>
    <tag k="name" v="Pamięci Batalionu Boncza"/>
  </node>
  <node id="457281543" version="1" timestamp="2009-08-06T00:42:30Z" uid="20587" user="balrog-kun" changeset="2051553" lat="52.2492261" lon="21.0139993">
    <tag k="man_made" v="bell"/>
    <tag k="tourism" v="attraction"/>
  </node>
  <node id="457281544" version="1" timestamp="2009-08-06T00:42:30Z" uid="20587" user="balrog-kun" changeset="2051553" lat="52.2495975" lon="21.0141933"/>
  <node id="457281545" version="1" timestamp="2009-08-06T00:42:30Z" uid="20587" user="balrog-kun" changeset="2051553" lat="52.2493053" lon="21.0135348"/>
  <node id="457281546" version="1" timestamp="2009-08-06T00:42:30Z" uid="20587" user="balrog-kun" changeset="2051553" lat="52.2496003" lon="21.0134228">
    <tag k="amenity" v="arts_centre"/>
    <tag k="name" v="Galeria Abakus"/>
  </node>
  <node id="457281547" version="1" timestamp="2009-08-06T00:42:31Z" uid="20587" user="balrog-kun" changeset="2051553" lat="52.2493071" lon="21.0133251">
    <tag k="amenity" v="public_building"/>
    <tag k="name" v="Urząd Miasta"/>
  </node>
  <node id="457281548" version="1" timestamp="2009-08-06T00:42:31Z" uid="20587" user="balrog-kun" changeset="2051553" lat="52.2492493" lon="21.0133251">
    <tag k="amenity" v="police"/>
    <tag k="name" v="Wydzial Prewencji Komendy Rejonowej Policji Warszawa I"/>
  </node>
  <node id="457281549" version="1" timestamp="2009-08-06T00:42:31Z" uid="20587" user="balrog-kun" changeset="2051553" lat="52.2492975" lon="21.0132589">
    <tag k="amenity" v="public_building"/>
    <tag k="name" v="Zarząd Terenow Publicznych"/>
  </node>
  <node id="457281550" version="1" timestamp="2009-08-06T00:42:31Z" uid="20587" user="balrog-kun" changeset="2051553" lat="52.2494016" lon="21.0134795">
    <tag k="amenity" v="telephone"/>
  </node>
  <node id="457281551" version="1" timestamp="2009-08-06T00:42:31Z" uid="20587" user="balrog-kun" changeset="2051553" lat="52.2483581" lon="21.0140119">
    <tag k="amenity" v="toilets"/>
  </node>
  <node id="457281552" version="1" timestamp="2009-08-06T00:42:31Z" uid="20587" user="balrog-kun" changeset="2051553" lat="52.2483716" lon="21.0140623">
    <tag k="amenity" v="police"/>
    <tag k="name" v="Straz Miejska"/>
  </node>
  <node id="457281553" version="1" timestamp="2009-08-06T00:42:31Z" uid="20587" user="balrog-kun" changeset="2051553" lat="52.2484044" lon="21.0141285">
    <tag k="amenity" v="public_building"/>
    <tag k="name" v="Stoleczne Biuro Turystyki"/>
  </node>
  <node id="457281554" version="1" timestamp="2009-08-06T00:42:31Z" uid="20587" user="balrog-kun" changeset="2051553" lat="52.2476139" lon="21.01315"/>
  <node id="457281555" version="1" timestamp="2009-08-06T00:42:31Z" uid="20587" user="balrog-kun" changeset="2051553" lat="52.2476695" lon="21.0129912"/>
  <node id="457281556" version="1" timestamp="2009-08-06T00:42:31Z" uid="20587" user="balrog-kun" changeset="2051553" lat="52.2476466" lon="21.0130566">
    <tag k="barrier" v="gate"/>
  </node>
  <node id="457281557" version="1" timestamp="2009-08-06T00:42:31Z" uid="20587" user="balrog-kun" changeset="2051553" lat="52.247575" lon="21.0130321">
    <tag k="name" v="Kwiaciarnia Zamkowa"/>
    <tag k="shop" v="florist"/>
    <tag k="url" v="www.kwiaciarniazamkowa.pl"/>
  </node>
  <node id="457281558" version="1" timestamp="2009-08-06T00:42:31Z" uid="20587" user="balrog-kun" changeset="2051553" lat="52.2482694" lon="21.0109402">
    <tag k="historic" v="monument"/>
    <tag k="name" v="Jan Kiliński"/>
  </node>
  <node id="457281559" version="1" timestamp="2009-08-06T00:42:31Z" uid="20587" user="balrog-kun" changeset="2051553" lat="52.2483234" lon="21.0107543">
    <tag k="name" v="Muzeum Rzemiosl Artystycznych i Precyzyjnych"/>
    <tag k="tourism" v="museum"/>
  </node>
  <node id="457281560" version="1" timestamp="2009-08-06T00:42:31Z" uid="20587" user="balrog-kun" changeset="2051553" lat="52.2484122" lon="21.0106882">
    <tag k="amenity" v="cafe"/>
    <tag k="name" v="Pod Zegarem"/>
    <tag k="note" v="Under construction"/>
  </node>
  <node id="457281561" version="1" timestamp="2009-08-06T00:42:31Z" uid="20587" user="balrog-kun" changeset="2051553" lat="52.249174" lon="21.0098848">
    <tag k="amenity" v="fast_food"/>
    <tag k="cuisine" v="kebab"/>
  </node>
  <node id="457281562" version="1" timestamp="2009-08-06T00:42:31Z" uid="20587" user="balrog-kun" changeset="2051553" lat="52.2491007" lon="21.0092295">
    <tag k="amenity" v="cafe"/>
    <tag k="name" v="Marcinek"/>
  </node>
</osm>
