<?xml version='1.0' encoding='UTF-8'?>
<osm version="0.6" generator="libosmium/2.20.0">
  <node id="458450001" version="1" timestamp="2009-08-07T20:29:32Z" uid="20587" user="balrog-kun" changeset="2070092" lat="52.406254" lon="16.9382551">
    <tag k="addr:city" v="Poznań"/>
    <tag k="addr:housenumber" v="31"/>
    <tag k="addr:street" v="Mostowa"/>
    <tag k="source" v="http://ump.waw.pl/ retrieved 15:05:23 06/30/09 (UMP-Poznan/src/POZNAN.ulice.txt)"/>
  </node>
  <node id="458450003" version="1" timestamp="2009-08-07T20:29:33Z" uid="20587" user="balrog-kun" changeset="2070092" lat="52.4034954" lon="16.9235916">
    <tag k="addr:city" v="Poznań"/>
    <tag k="addr:housenumber" v="5"/>
    <tag k="addr:street" v="Franciszka Ratajczaka"/>
    <tag k="source" v="http://ump.waw.pl/ retrieved 15:05:23 06/30/09 (UMP-Poznan/src/POZNAN.ulice.txt)"/>
  </node>
  <node id="458450005" version="1" timestamp="2009-08-07T20:29:33Z" uid="20587" user="balrog-kun" changeset="2070092" lat="52.408251" lon="16.9494454">
    <tag k="addr:city" v="Poznań"/>
    <tag k="addr:housenumber" v="10"/>
    <tag k="addr:street" v="Zagórze"/>
    <tag k="source" v="http://ump.waw.pl/ retrieved 15:05:23 06/30/09 (UMP-Poznan/src/POZNAN.ulice.txt)"/>
  </node>
  <node id="458450008" version="1" timestamp="2009-08-07T20:29:33Z" uid="20587" user="balrog-kun" changeset="2070092" lat="52.4066341" lon="16.9221749">
    <tag k="addr:city" v="Poznań"/>
    <tag k="addr:housenumber" v="10"/>
    <tag k="addr:street" v="Garncarska"/>
    <tag k="source" v="http://ump.waw.pl/ retrieved 15:05:23 06/30/09 (UMP-Poznan/src/POZNAN.ulice.txt)"/>
  </node>
  <node id="458450012" version="1" timestamp="2009-08-07T20:29:33Z" uid="20587" user="balrog-kun" changeset="2070092" lat="52.4009597" lon="16.9356434">
    <tag k="addr:city" v="Poznań"/>
    <tag k="addr:housenumber" v="2"/>
    <tag k="addr:street" v="Krakowska"/>
    <tag k="source" v="http://ump.waw.pl/ retrieved 15:05:23 06/30/09 (UMP-Poznan/src/POZNAN.ulice.txt)"/>
  </node>
  <node id="458450014" version="1" timestamp="2009-08-07T20:29:33Z" uid="20587" user="balrog-kun" changeset="2070092" lat="52.4114988" lon="16.9333311">
    <tag k="addr:city" v="Poznań"/>
    <tag k="addr:housenumber" v="31"/>
    <tag k="addr:street" v="Święty Wojciech"/>
    <tag k="source" v="http://ump.waw.pl/ retrieved 15:05:23 06/30/09 (UMP-Poznan/src/POZNAN.ulice.txt)"/>
  </node>
  <node id="458450015" version="1" timestamp="2009-08-07T20:29:33Z" uid="20587" user="balrog-kun" changeset="2070092" lat="52.4043505" lon="16.9328157">
    <tag k="addr:city" v="Poznań"/>
    <tag k="addr:housenumber" v="6"/>
    <tag k="addr:street" v="Strzelecka"/>
    <tag k="source" v="http://ump.waw.pl/ retrieved 15:05:23 06/30/09 (UMP-Poznan/src/POZNAN.ulice.txt)"/>
  </node>
  <node id="458450019" version="1" timestamp="2009-08-07T20:29:33Z" uid="20587" user="balrog-kun" changeset="2070092" lat="52.4040069" lon="16.9405231">
    <tag k="addr:city" v="Poznań"/>
    <tag k="addr:housenumber" v="1"/>
    <tag k="addr:street" v="Wierzbowa"/>
    <tag k="source" v="http://ump.waw.pl/ retrieved 15:05:23 06/30/09 (UMP-Poznan/src/POZNAN.ulice.txt)"/>
  </node>
  <node id="458450020" version="1" timestamp="2009-08-07T20:29:33Z" uid="20587" user="balrog-kun" changeset="2070092" lat="52.4201019" lon="16.9430071">
    <tag k="addr:city" v="Poznań"/>
    <tag k="addr:housenumber" v="83"/>
    <tag k="addr:street" v="Na Stoku"/>
    <tag k="source" v="http://ump.waw.pl/ retrieved 15:05:23 06/30/09 (UMP-Poznan/src/POZNAN.ulice.txt)"/>
  </node>
  <node id="458450023" version="1" timestamp="2009-08-07T20:29:33Z" uid="20587" user="balrog-kun" changeset="2070092" lat="52.4087866" lon="16.9252588">
    <tag k="addr:city" v="Poznań"/>
    <tag k="addr:housenumber" v="45"/>
    <tag k="addr:street" v="3 Maja"/>
    <tag k="source" v="http://ump.waw.pl/ retrieved 15:05:23 06/30/09 (UMP-Poznan/src/POZNAN.ulice.txt)"/>
  </node>
  <node id="458450026" version="1" timestamp="2009-08-07T20:29:33Z" uid="20587" user="balrog-kun" changeset="2070092" lat="52.4075875" lon="16.9199098">
    <tag k="addr:city" v="Poznań"/>
    <tag k="addr:housenumber" v="78"/>
    <tag k="addr:street" v="Tadeusza Kościuszki"/>
    <tag k="source" v="http://ump.waw.pl/ retrieved 15:05:23 06/30/09 (UMP-Poznan/src/POZNAN.ulice.txt)"/>
  </node>
  <node id="458450029" version="1" timestamp="2009-08-07T20:29:33Z" uid="20587" user="balrog-kun" changeset="2070092" lat="52.4146535" lon="16.9434236">
    <tag k="addr:city" v="Poznań"/>
    <tag k="addr:housenumber" v="2"/>
    <tag k="addr:street" v="Panny Marii"/>
    <tag k="source" v="http://ump.waw.pl/ retrieved 15:05:23 06/30/09 (UMP-Poznan/src/POZNAN.ulice.txt)"/>
  </node>
  <node id="458450040" version="1" timestamp="2009-08-07T20:29:34Z" uid="20587" user="balrog-kun" changeset="2070092" lat="52.4096798" lon="16.9189086">
    <tag k="addr:city" v="Poznań"/>
    <tag k="addr:housenumber" v="10"/>
    <tag k="addr:street" v="Aleksandra Fredry"/>
    <tag k="source" v="http://ump.waw.pl/ retrieved 15:05:23 06/30/09 (UMP-Poznan/src/POZNAN.ulice.txt)"/>
  </node>
  <node id="458450040" version="2" timestamp="2009-12-06T23:06:02Z" uid="20587" user="balrog-kun" changeset="3311402" lat="52.4096798" lon="16.9189086">
    <tag k="addr:city" v="Poznań"/>
    <tag k="addr:housenumber" v="10"/>
    <tag k="addr:street" v="Aleksandra Fredry"/>
    <tag k="source" v="http://ump.waw.pl/ retrieved 15:05:23 06/30/09 (UMP-Poznan/src/POZNAN.ulice.txt)"/>
  </node>
  <node id="458450041" version="1" timestamp="2009-08-07T20:29:34Z" uid="20587" user="balrog-kun" changeset="2070092" lat="52.4029651" lon="16.934006">
    <tag k="addr:city" v="Poznań"/>
    <tag k="addr:housenumber" v="23"/>
    <tag k="addr:street" v="Strzelecka"/>
    <tag k="source" v="http://ump.waw.pl/ retrieved 15:05:23 06/30/09 (UMP-Poznan/src/POZNAN.ulice.txt)"/>
  </node>
  <node id="458450044" version="1" timestamp="2009-08-07T20:29:34Z" uid="20587" user="balrog-kun" changeset="2070092" lat="52.4022947" lon="16.93272">
    <tag k="addr:city" v="Poznań"/>
    <tag k="addr:housenumber" v="7"/>
    <tag k="addr:street" v="Mikołaja Kopernika"/>
    <tag k="source" v="http://ump.waw.pl/ retrieved 15:05:23 06/30/09 (UMP-Poznan/src/POZNAN.ulice.txt)"/>
  </node>
  <node id="458450048" version="1" timestamp="2009-08-07T20:29:34Z" uid="20587" user="balrog-kun" changeset="2070092" lat="52.4045369" lon="16.9367537">
    <tag k="addr:city" v="Poznań"/>
    <tag k="addr:housenumber" v="4"/>
    <tag k="addr:street" v="Plac Bernardyński"/>
    <tag k="source" v="http://ump.waw.pl/ retrieved 15:05:23 06/30/09 (UMP-Poznan/src/POZNAN.ulice.txt)"/>
  </node>
  <node id="458450049" version="1" timestamp="2009-08-07T20:29:34Z" uid="20587" user="balrog-kun" changeset="2070092" lat="52.4046759" lon="16.9363736">
    <tag k="addr:city" v="Poznań"/>
    <tag k="addr:housenumber" v="7"/>
    <tag k="addr:street" v="Za Bramką"/>
    <tag k="source" v="http://ump.waw.pl/ retrieved 15:05:23 06/30/09 (UMP-Poznan/src/POZNAN.ulice.txt)"/>
  </node>
  <node id="458450053" version="1" timestamp="2009-08-07T20:29:34Z" uid="20587" user="balrog-kun" changeset="2070092" lat="52.4120324" lon="16.926642">
    <tag k="addr:city" v="Poznań"/>
    <tag k="addr:housenumber" v="11"/>
    <tag k="addr:street" v="Solna"/>
    <tag k="source" v="http://ump.waw.pl/ retrieved 15:05:23 06/30/09 (UMP-Poznan/src/POZNAN.ulice.txt)"/>
  </node>
  <node id="458450056" version="1" timestamp="2009-08-07T20:29:34Z" uid="20587" user="balrog-kun" changeset="2070092" lat="52.4067971" lon="16.9406306">
    <tag k="addr:city" v="Poznań"/>
    <tag k="addr:housenumber" v="3"/>
    <tag k="addr:street" v="Łazienna"/>
    <tag k="source" v="http://ump.waw.pl/ retrieved 15:05:23 06/30/09 (UMP-Poznan/src/POZNAN.ulice.txt)"/>
  </node>
  <node id="458450057" version="1" timestamp="2009-08-07T20:29:34Z" uid="20587" user="balrog-kun" changeset="2070092" lat="52.4060301" lon="16.9210123">
    <tag k="addr:city" v="Poznań"/>
    <tag k="addr:housenumber" v="7"/>
    <tag k="addr:street" v="Garncarska"/>
    <tag k="source" v="http://ump.waw.pl/ retrieved 15:05:23 06/30/09 (UMP-Poznan/src/POZNAN.ulice.txt)"/>
  </node>
  <node id="458450060" version="1" timestamp="2009-08-07T20:29:34Z" uid="20587" user="balrog-kun" changeset="2070092" lat="52.4026447" lon="16.9224904">
    <tag k="addr:city" v="Poznań"/>
    <tag k="addr:housenumber" v="57"/>
    <tag k="addr:street" v="Tadeusza Kościuszki"/>
    <tag k="source" v="http://ump.waw.pl/ retrieved 15:05:23 06/30/09 (UMP-Poznan/src/POZNAN.ulice.txt)"/>
  </node>
  <node id="458450063" version="1" timestamp="2009-08-07T20:29:34Z" uid="20587" user="balrog-kun" changeset="2070092" lat="52.4103504" lon="16.9469969">
    <tag k="addr:city" v="Poznań"/>
    <tag k="addr:housenumber" v="6"/>
    <tag k="addr:street" v="Ostrów Tumski"/>
    <tag k="source" v="http://ump.waw.pl/ retrieved 15:05:23 06/30/09 (UMP-Poznan/src/POZNAN.ulice.txt)"/>
  </node>
  <node id="458450066" version="1" timestamp="2009-08-07T20:29:34Z" uid="20587" user="balrog-kun" changeset="2070092" lat="52.4079539" lon="16.9217187">
    <tag k="addr:city" v="Poznań"/>
    <tag k="addr:housenumber" v="10"/>
    <tag k="addr:street" v="Gwarna"/>
    <tag k="source" v="http://ump.waw.pl/ retrieved 15:05:23 06/30/09 (UMP-Poznan/src/POZNAN.ulice.txt)"/>
  </node>
  <node id="458450066" version="2" timestamp="2009-12-08T23:39:39Z" uid="123700" user="Mala" changeset="3330111" lat="52.4080099" lon="16.9217285">
    <tag k="addr:city" v="Poznań"/>
    <tag k="addr:housenumber" v="10"/>
    <tag k="addr:street" v="Gwarna"/>
    <tag k="source" v="http://ump.waw.pl/ retrieved 15:05:23 06/30/09 (UMP-Poznan/src/POZNAN.ulice.txt)"/>
  </node>
  <node id="458450068" version="1" timestamp="2009-08-07T20:29:34Z" uid="20587" user="balrog-kun" changeset="2070092" lat="52.4027584" lon="16.9331127">
    <tag k="addr:city" v="Poznań"/>
    <tag k="addr:housenumber" v="10"/>
    <tag k="addr:street" v="Mikołaja Kopernika"/>
    <tag k="source" v="http://ump.waw.pl/ retrieved 15:05:23 06/30/09 (UMP-Poznan/src/POZNAN.ulice.txt)"/>
  </node>
  <node id="458450070" version="1" timestamp="2009-08-07T20:29:34Z" uid="20587" user="balrog-kun" changeset="2070092" lat="52.4151069" lon="16.9235555">
    <tag k="addr:city" v="Poznań"/>
    <tag k="addr:housenumber" v="1"/>
    <tag k="addr:street" v="Cicha"/>
    <tag k="source" v="http://ump.waw.pl/ retrieved 15:05:23 06/30/09 (UMP-Poznan/src/POZNAN.ulice.txt)"/>
  </node>
  <node id="458450072" version="1" timestamp="2009-08-07T20:29:34Z" uid="20587" user="balrog-kun" changeset="2070092" lat="52.4060581" lon="16.9294107">
    <tag k="addr:city" v="Poznań"/>
    <tag k="addr:housenumber" v="10"/>
    <tag k="addr:street" v="Święty Marcin"/>
    <tag k="source" v="http://ump.waw.pl/ retrieved 15:05:23 06/30/09 (UMP-Poznan/src/POZNAN.ulice.txt)"/>
  </node>
  <node id="458450074" version="1" timestamp="2009-08-07T20:29:34Z" uid="20587" user="balrog-kun" changeset="2070092" lat="52.412612" lon="16.9225291">
    <tag k="addr:city" v="Poznań"/>
    <tag k="addr:housenumber" v="114"/>
    <tag k="addr:street" v="Tadeusza Kościuszki"/>
    <tag k="source" v="http://ump.waw.pl/ retrieved 15:05:23 06/30/09 (UMP-Poznan/src/POZNAN.ulice.txt)"/>
  </node>
  <node id="458450088" version="1" timestamp="2009-08-07T20:29:35Z" uid="20587" user="balrog-kun" changeset="2070092" lat="52.4069599" lon="16.9291924">
    <tag k="addr:city" v="Poznań"/>
    <tag k="addr:housenumber" v="13"/>
    <tag k="addr:street" v="Aleja Karola Marcinkowskiego"/>
    <tag k="source" v="http://ump.waw.pl/ retrieved 15:05:23 06/30/09 (UMP-Poznan/src/POZNAN.ulice.txt)"/>
  </node>
  <node id="458450093" version="1" timestamp="2009-08-07T20:29:35Z" uid="20587" user="balrog-kun" changeset="2070092" lat="52.4049732" lon="16.9281426">
    <tag k="addr:city" v="Poznań"/>
    <tag k="addr:housenumber" v="1"/>
    <tag k="addr:street" v="Piekary"/>
    <tag k="source" v="http://ump.waw.pl/ retrieved 15:05:23 06/30/09 (UMP-Poznan/src/POZNAN.ulice.txt)"/>
  </node>
  <node id="458450096" version="1" timestamp="2009-08-07T20:29:35Z" uid="20587" user="balrog-kun" changeset="2070092" lat="52.4060084" lon="16.9254373">
    <tag k="addr:city" v="Poznań"/>
    <tag k="addr:housenumber" v="34"/>
    <tag k="addr:street" v="Franciszka Ratajczaka"/>
    <tag k="source" v="http://ump.waw.pl/ retrieved 15:05:23 06/30/09 (UMP-Poznan/src/POZNAN.ulice.txt)"/>
  </node>
  <node id="458450097" version="1" timestamp="2009-08-07T20:29:35Z" uid="20587" user="balrog-kun" changeset="2070092" lat="52.4071471" lon="16.9233381">
    <tag k="addr:city" v="Poznań"/>
    <tag k="addr:housenumber" v="5"/>
    <tag k="addr:street" v="Kantaka"/>
    <tag k="source" v="http://ump.waw.pl/ retrieved 15:05:23 06/30/09 (UMP-Poznan/src/POZNAN.ulice.txt)"/>
  </node>
  <node id="458450100" version="1" timestamp="2009-08-07T20:29:35Z" uid="20587" user="balrog-kun" changeset="2070092" lat="52.4002955" lon="16.9309667">
    <tag k="addr:city" v="Poznań"/>
    <tag k="addr:housenumber" v="23"/>
    <tag k="addr:street" v="Krakowska"/>
    <tag k="source" v="http://ump.waw.pl/ retrieved 15:05:23 06/30/09 (UMP-Poznan/src/POZNAN.ulice.txt)"/>
  </node>
  <node id="458450103" version="1" timestamp="2009-08-07T20:29:35Z" uid="20587" user="balrog-kun" changeset="2070092" lat="52.4086651" lon="16.9201032">
    <tag k="addr:city" v="Poznań"/>
    <tag k="addr:housenumber" v="86"/>
    <tag k="addr:street" v="Tadeusza Kościuszki"/>
    <tag k="source" v="http://ump.waw.pl/ retrieved 15:05:23 06/30/09 (UMP-Poznan/src/POZNAN.ulice.txt)"/>
  </node>
  <node id="458450107" version="1" timestamp="2009-08-07T20:29:35Z" uid="20587" user="balrog-kun" changeset="2070092" lat="52.4127867" lon="16.9357499">
    <tag k="addr:city" v="Poznań"/>
    <tag k="addr:housenumber" v="7"/>
    <tag k="addr:street" v="Grochowe Łąki"/>
    <tag k="source" v="http://ump.waw.pl/ retrieved 15:05:23 06/30/09 (UMP-Poznan/src/POZNAN.ulice.txt)"/>
  </node>
  <node id="458450111" version="1" timestamp="2009-08-07T20:29:35Z" uid="20587" user="balrog-kun" changeset="2070092" lat="52.4073155" lon="16.9475045">
    <tag k="addr:city" v="Poznań"/>
    <tag k="addr:housenumber" v="15"/>
    <tag k="addr:street" v="Wieżowa"/>
    <tag k="source" v="http://ump.waw.pl/ retrieved 15:05:23 06/30/09 (UMP-Poznan/src/POZNAN.ulice.txt)"/>
  </node>
  <node id="458450114" version="1" timestamp="2009-08-07T20:29:36Z" uid="20587" user="balrog-kun" changeset="2070092" lat="52.4086114" lon="16.9474568">
    <tag k="addr:city" v="Poznań"/>
    <tag k="addr:housenumber" v="17"/>
    <tag k="addr:street" v="Zagórze"/>
    <tag k="source" v="http://ump.waw.pl/ retrieved 15:05:23 06/30/09 (UMP-Poznan/src/POZNAN.ulice.txt)"/>
  </node>
  <node id="458450119" version="1" timestamp="2009-08-07T20:29:36Z" uid="20587" user="balrog-kun" changeset="2070092" lat="52.406338" lon="16.9200072">
    <tag k="addr:city" v="Poznań"/>
    <tag k="addr:housenumber" v="72"/>
    <tag k="addr:street" v="Tadeusza Kościuszki"/>
    <tag k="source" v="http://ump.waw.pl/ retrieved 15:05:23 06/30/09 (UMP-Poznan/src/POZNAN.ulice.txt)"/>
  </node>
  <node id="458450123" version="1" timestamp="2009-08-07T20:29:36Z" uid="20587" user="balrog-kun" changeset="2070092" lat="52.4083941" lon="16.9213469">
    <tag k="addr:city" v="Poznań"/>
    <tag k="addr:housenumber" v="13"/>
    <tag k="addr:street" v="Gwarna"/>
    <tag k="source" v="http://ump.waw.pl/ retrieved 15:05:23 06/30/09 (UMP-Poznan/src/POZNAN.ulice.txt)"/>
  </node>
  <node id="458450123" version="2" timestamp="2009-12-08T23:39:39Z" uid="123700" user="Mala" changeset="3330111" lat="52.4082782" lon="16.9212879">
    <tag k="addr:city" v="Poznań"/>
    <tag k="addr:housenumber" v="13"/>
    <tag k="addr:street" v="Gwarna"/>
    <tag k="name" v="Księgarnia imienia Adama Mickiewicza"/>
    <tag k="shop" v="books"/>
    <tag k="source" v="http://ump.waw.pl/ retrieved 15:05:23 06/30/09 (UMP-Poznan/src/POZNAN.ulice.txt)"/>
  </node>
  <node id="458450127" version="1" timestamp="2009-08-07T20:29:36Z" uid="20587" user="balrog-kun" changeset="2070092" lat="52.414068" lon="16.9191409">
    <tag k="addr:city" v="Poznań"/>
    <tag k="addr:housenumber" v="1"/>
    <tag k="addr:street" v="Fryderyka Chopina"/>
    <tag k="source" v="http://ump.waw.pl/ retrieved 15:05:23 06/30/09 (UMP-Poznan/src/POZNAN.ulice.txt)"/>
  </node>
  <node id="458450130" version="1" timestamp="2009-08-07T20:29:36Z" uid="20587" user="balrog-kun" changeset="2070092" lat="52.4075768" lon="16.9249673">
    <tag k="addr:city" v="Poznań"/>
    <tag k="addr:housenumber" v="39"/>
    <tag k="addr:street" v="Franciszka Ratajczaka"/>
    <tag k="source" v="http://ump.waw.pl/ retrieved 15:05:23 06/30/09 (UMP-Poznan/src/POZNAN.ulice.txt)"/>
  </node>
  <node id="458450134" version="1" timestamp="2009-08-07T20:29:36Z" uid="20587" user="balrog-kun" changeset="2070092" lat="52.4045808" lon="16.9377075">
    <tag k="addr:city" v="Poznań"/>
    <tag k="addr:housenumber" v="26"/>
    <tag k="addr:street" v="Garbary"/>
    <tag k="source" v="http://ump.waw.pl/ retrieved 15:05:23 06/30/09 (UMP-Poznan/src/POZNAN.ulice.txt)"/>
  </node>
  <node id="458450148" version="1" timestamp="2009-08-07T20:29:36Z" uid="20587" user="balrog-kun" changeset="2070092" lat="52.4056682" lon="16.9271067">
    <tag k="addr:city" v="Poznań"/>
    <tag k="addr:housenumber" v="26"/>
    <tag k="addr:street" v="Piekary"/>
    <tag k="source" v="http://ump.waw.pl/ retrieved 15:05:23 06/30/09 (UMP-Poznan/src/POZNAN.ulice.txt)"/>
  </node>
  <node id="458450149" version="1" timestamp="2009-08-07T20:29:36Z" uid="20587" user="balrog-kun" changeset="2070092" lat="52.4075737" lon="16.9484139">
    <tag k="addr:city" v="Poznań"/>
    <tag k="addr:housenumber" v="7"/>
    <tag k="addr:street" v="Nowe Zagórze"/>
    <tag k="source" v="http://ump.waw.pl/ retrieved 15:05:23 06/30/09 (UMP-Poznan/src/POZNAN.ulice.txt)"/>
  </node>
  <node id="458450152" version="1" timestamp="2009-08-07T20:29:36Z" uid="20587" user="balrog-kun" changeset="2070092" lat="52.4110925" lon="16.9232491">
    <tag k="addr:city" v="Poznań"/>
    <tag k="addr:housenumber" v="1"/>
    <tag k="addr:street" v="Działyńskich"/>
    <tag k="source" v="http://ump.waw.pl/ retrieved 15:05:23 06/30/09 (UMP-Poznan/src/POZNAN.ulice.txt)"/>
  </node>
  <node id="458450156" version="1" timestamp="2009-08-07T20:29:37Z" uid="20587" user="balrog-kun" changeset="2070092" lat="52.4102121" lon="16.9264345">
    <tag k="addr:city" v="Poznań"/>
    <tag k="addr:housenumber" v="11"/>
    <tag k="addr:street" v="23 Lutego"/>
    <tag k="source" v="http://ump.waw.pl/ retrieved 15:05:23 06/30/09 (UMP-Poznan/src/POZNAN.ulice.txt)"/>
  </node>
  <node id="458450158" version="1" timestamp="2009-08-07T20:29:37Z" uid="20587" user="balrog-kun" changeset="2070092" lat="52.407672" lon="16.91634">
    <tag k="addr:city" v="Poznań"/>
    <tag k="addr:housenumber" v="1"/>
    <tag k="addr:street" v="Henryka Wieniawskiego"/>
    <tag k="source" v="http://ump.waw.pl/ retrieved 15:05:23 06/30/09 (UMP-Poznan/src/POZNAN.ulice.txt)"/>
  </node>
  <node id="458450162" version="1" timestamp="2009-08-07T20:29:37Z" uid="20587" user="balrog-kun" changeset="2070092" lat="52.4094259" lon="16.9430636">
    <tag k="addr:city" v="Poznań"/>
    <tag k="addr:housenumber" v="23"/>
    <tag k="addr:street" v="Chwaliszewo"/>
    <tag k="source" v="http://ump.waw.pl/ retrieved 15:05:23 06/30/09 (UMP-Poznan/src/POZNAN.ulice.txt)"/>
  </node>
  <node id="458450167" version="1" timestamp="2009-08-07T20:29:37Z" uid="20587" user="balrog-kun" changeset="2070092" lat="52.4073402" lon="16.9207487">
    <tag k="addr:city" v="Poznań"/>
    <tag k="addr:housenumber" v="66"/>
    <tag k="addr:street" v="Święty Marcin"/>
    <tag k="source" v="http://ump.waw.pl/ retrieved 15:05:23 06/30/09 (UMP-Poznan/src/POZNAN.ulice.txt)"/>
  </node>
  <node id="458450169" version="1" timestamp="2009-08-07T20:29:37Z" uid="20587" user="balrog-kun" changeset="2070092" lat="52.4125777" lon="16.9165452">
    <tag k="addr:city" v="Poznań"/>
    <tag k="addr:housenumber" v="20"/>
    <tag k="addr:street" v="Zygmunta Noskowskiego"/>
    <tag k="source" v="http://ump.waw.pl/ retrieved 15:05:23 06/30/09 (UMP-Poznan/src/POZNAN.ulice.txt)"/>
  </node>
  <node id="458450171" version="1" timestamp="2009-08-07T20:29:37Z" uid="20587" user="balrog-kun" changeset="2070092" lat="52.4158215" lon="16.9269826">
    <tag k="addr:city" v="Poznań"/>
    <tag k="addr:housenumber" v="55"/>
    <tag k="addr:street" v="Aleja Niepodległości"/>
    <tag k="source" v="http://ump.waw.pl/ retrieved 15:05:23 06/30/09 (UMP-Poznan/src/POZNAN.ulice.txt)"/>
  </node>
  <node id="458450173" version="1" timestamp="2009-08-07T20:29:37Z" uid="20587" user="balrog-kun" changeset="2070092" lat="52.4039816" lon="16.9330075">
    <tag k="addr:city" v="Poznań"/>
    <tag k="addr:housenumber" v="15"/>
    <tag k="addr:street" v="Długa"/>
    <tag k="source" v="http://ump.waw.pl/ retrieved 15:05:23 06/30/09 (UMP-Poznan/src/POZNAN.ulice.txt)"/>
  </node>
  <node id="458450177" version="1" timestamp="2009-08-07T20:29:37Z" uid="20587" user="balrog-kun" changeset="2070092" lat="52.4075349" lon="16.9294857">
    <tag k="addr:city" v="Poznań"/>
    <tag k="addr:housenumber" v="11"/>
    <tag k="addr:street" v="Aleja Karola Marcinkowskiego"/>
    <tag k="source" v="http://ump.waw.pl/ retrieved 15:05:23 06/30/09 (UMP-Poznan/src/POZNAN.ulice.txt)"/>
  </node>
  <node id="458450179" version="1" timestamp="2009-08-07T20:29:37Z" uid="20587" user="balrog-kun" changeset="2070092" lat="52.4113043" lon="16.9273881">
    <tag k="addr:city" v="Poznań"/>
    <tag k="addr:housenumber" v="1"/>
    <tag k="addr:street" v="Młyńska"/>
    <tag k="source" v="http://ump.waw.pl/ retrieved 15:05:23 06/30/09 (UMP-Poznan/src/POZNAN.ulice.txt)"/>
  </node>
  <node id="458450181" version="1" timestamp="2009-08-07T20:29:37Z" uid="20587" user="balrog-kun" changeset="2070092" lat="52.4065574" lon="16.9169021">
    <tag k="addr:city" v="Poznań"/>
    <tag k="addr:housenumber" v="53"/>
    <tag k="addr:street" v="Towarowa"/>
    <tag k="source" v="http://ump.waw.pl/ retrieved 15:05:23 06/30/09 (UMP-Poznan/src/POZNAN.ulice.txt)"/>
  </node>
  <node id="458450183" version="1" timestamp="2009-08-07T20:29:37Z" uid="20587" user="balrog-kun" changeset="2070092" lat="52.4122324" lon="16.9325456">
    <tag k="addr:city" v="Poznań"/>
    <tag k="addr:housenumber" v="27"/>
    <tag k="addr:street" v="Święty Wojciech"/>
    <tag k="source" v="http://ump.waw.pl/ retrieved 15:05:23 06/30/09 (UMP-Poznan/src/POZNAN.ulice.txt)"/>
  </node>
  <node id="458450190" version="1" timestamp="2009-08-07T20:29:38Z" uid="20587" user="balrog-kun" changeset="2070092" lat="52.4028316" lon="16.9324245">
    <tag k="addr:city" v="Poznań"/>
    <tag k="addr:housenumber" v="4"/>
    <tag k="addr:street" v="Mikołaja Kopernika"/>
    <tag k="source" v="http://ump.waw.pl/ retrieved 15:05:23 06/30/09 (UMP-Poznan/src/POZNAN.ulice.txt)"/>
  </node>
  <node id="458450193" version="1" timestamp="2009-08-07T20:29:38Z" uid="20587" user="balrog-kun" changeset="2070092" lat="52.4075385" lon="16.9283077">
    <tag k="addr:city" v="Poznań"/>
    <tag k="addr:housenumber" v="1"/>
    <tag k="addr:street" v="Plac Wolności"/>
    <tag k="source" v="http://ump.waw.pl/ retrieved 15:05:23 06/30/09 (UMP-Poznan/src/POZNAN.ulice.txt)"/>
  </node>
  <node id="458450196" version="1" timestamp="2009-08-07T20:29:38Z" uid="20587" user="balrog-kun" changeset="2070092" lat="52.411088" lon="16.9482902">
    <tag k="addr:city" v="Poznań"/>
    <tag k="addr:housenumber" v="3"/>
    <tag k="addr:street" v="Ostrów Tumski"/>
    <tag k="source" v="http://ump.waw.pl/ retrieved 15:05:23 06/30/09 (UMP-Poznan/src/POZNAN.ulice.txt)"/>
  </node>
  <node id="458450196" version="2" timestamp="2010-02-15T14:40:25Z" uid="123700" user="Mala" changeset="3883707" lat="52.4110496" lon="16.9481433">
    <tag k="addr:city" v="Poznań"/>
    <tag k="addr:housenumber" v="3"/>
    <tag k="addr:street" v="Ostrów Tumski"/>
    <tag k="source" v="http://ump.waw.pl/ retrieved 15:05:23 06/30/09 (UMP-Poznan/src/POZNAN.ulice.txt)"/>
  </node>
  <node id="458450199" version="1" timestamp="2009-08-07T20:29:38Z" uid="20587" user="balrog-kun" changeset="2070092" lat="52.4055924" lon="16.9206713">
    <tag k="addr:city" v="Poznań"/>
    <tag k="addr:housenumber" v="10"/>
    <tag k="addr:street" v="Stanisława Taczaka"/>
    <tag k="source" v="http://ump.waw.pl/ retrieved 15:05:23 06/30/09 (UMP-Poznan/src/POZNAN.ulice.txt)"/>
  </node>
  <node id="458450201" version="1" timestamp="2009-08-07T20:29:38Z" uid="20587" user="balrog-kun" changeset="2070092" lat="52.4081083" lon="16.9296843">
    <tag k="addr:city" v="Poznań"/>
    <tag k="addr:housenumber" v="9"/>
    <tag k="addr:street" v="Aleja Karola Marcinkowskiego"/>
    <tag k="source" v="http://ump.waw.pl/ retrieved 15:05:23 06/30/09 (UMP-Poznan/src/POZNAN.ulice.txt)"/>
  </node>
  <node id="458450202" version="1" timestamp="2009-08-07T20:29:38Z" uid="20587" user="balrog-kun" changeset="2070092" lat="52.4070437" lon="16.9179185">
    <tag k="addr:city" v="Poznań"/>
    <tag k="addr:housenumber" v="81"/>
    <tag k="addr:street" v="Święty Marcin"/>
    <tag k="source" v="http://ump.waw.pl/ retrieved 15:05:23 06/30/09 (UMP-Poznan/src/POZNAN.ulice.txt)"/>
  </node>
  <node id="458450205" version="1" timestamp="2009-08-07T20:29:38Z" uid="20587" user="balrog-kun" changeset="2070092" lat="52.403464" lon="16.9160477">
    <tag k="addr:city" v="Poznań"/>
    <tag k="addr:housenumber" v="35"/>
    <tag k="addr:street" v="Towarowa"/>
    <tag k="source" v="http://ump.waw.pl/ retrieved 15:05:23 06/30/09 (UMP-Poznan/src/POZNAN.ulice.txt)"/>
  </node>
  <node id="458450209" version="1" timestamp="2009-08-07T20:29:38Z" uid="20587" user="balrog-kun" changeset="2070092" lat="52.4144425" lon="16.9207655">
    <tag k="addr:city" v="Poznań"/>
    <tag k="addr:housenumber" v="54"/>
    <tag k="addr:street" v="Feliksa Nowowiejskiego"/>
    <tag k="source" v="http://ump.waw.pl/ retrieved 15:05:23 06/30/09 (UMP-Poznan/src/POZNAN.ulice.txt)"/>
  </node>
  <node id="458450210" version="1" timestamp="2009-08-07T20:29:38Z" uid="20587" user="balrog-kun" changeset="2070092" lat="52.4020858" lon="16.939261">
    <tag k="addr:city" v="Poznań"/>
    <tag k="addr:housenumber" v="20"/>
    <tag k="addr:street" v="Kazimierza Wielkiego"/>
    <tag k="source" v="http://ump.waw.pl/ retrieved 15:05:23 06/30/09 (UMP-Poznan/src/POZNAN.ulice.txt)"/>
  </node>
  <node id="458450213" version="1" timestamp="2009-08-07T20:29:38Z" uid="20587" user="balrog-kun" changeset="2070092" lat="52.4092929" lon="16.9205984">
    <tag k="addr:city" v="Poznań"/>
    <tag k="addr:housenumber" v="11"/>
    <tag k="addr:street" v="Aleksandra Fredry"/>
    <tag k="source" v="http://ump.waw.pl/ retrieved 15:05:23 06/30/09 (UMP-Poznan/src/POZNAN.ulice.txt)"/>
  </node>
  <node id="458450213" version="2" timestamp="2009-12-08T22:29:11Z" uid="123700" user="Mala" changeset="3328988" lat="52.4092604" lon="16.9206711">
    <tag k="addr:city" v="Poznań"/>
    <tag k="addr:housenumber" v="11"/>
    <tag k="addr:street" v="Aleksandra Fredry"/>
    <tag k="source" v="http://ump.waw.pl/ retrieved 15:05:23 06/30/09 (UMP-Poznan/src/POZNAN.ulice.txt)"/>
  </node>
  <node id="458450215" version="1" timestamp="2009-08-07T20:29:38Z" uid="20587" user="balrog-kun" changeset="2070092" lat="52.4067967" lon="16.9400915">
    <tag k="addr:city" v="Poznań"/>
    <tag k="addr:housenumber" v="1"/>
    <tag k="addr:street" v="Łazienna"/>
    <tag k="source" v="http://ump.waw.pl/ retrieved 15:05:23 06/30/09 (UMP-Poznan/src/POZNAN.ulice.txt)"/>
  </node>
  <node id="458450218" version="1" timestamp="2009-08-07T20:29:38Z" uid="20587" user="balrog-kun" changeset="2070092" lat="52.4130303" lon="16.9229554">
    <tag k="addr:city" v="Poznań"/>
    <tag k="addr:housenumber" v="114"/>
    <tag k="addr:street" v="Tadeusza Kościuszki"/>
    <tag k="source" v="http://ump.waw.pl/ retrieved 15:05:23 06/30/09 (UMP-Poznan/src/POZNAN.ulice.txt)"/>
  </node>
  <node id="458450220" version="1" timestamp="2009-08-07T20:29:39Z" uid="20587" user="balrog-kun" changeset="2070092" lat="52.4129474" lon="16.9195382">
    <tag k="addr:city" v="Poznań"/>
    <tag k="addr:housenumber" v="5"/>
    <tag k="addr:street" v="Fryderyka Chopina"/>
    <tag k="source" v="http://ump.waw.pl/ retrieved 15:05:23 06/30/09 (UMP-Poznan/src/POZNAN.ulice.txt)"/>
  </node>
  <node id="458450223" version="1" timestamp="2009-08-07T20:29:39Z" uid="20587" user="balrog-kun" changeset="2070092" lat="52.4023786" lon="16.9297903">
    <tag k="addr:city" v="Poznań"/>
    <tag k="addr:housenumber" v="14"/>
    <tag k="addr:street" v="Kwiatowa"/>
    <tag k="source" v="http://ump.waw.pl/ retrieved 15:05:23 06/30/09 (UMP-Poznan/src/POZNAN.ulice.txt)"/>
  </node>
  <node id="458450226" version="1" timestamp="2009-08-07T20:29:39Z" uid="20587" user="balrog-kun" changeset="2070092" lat="52.4154362" lon="16.9232989">
    <tag k="addr:city" v="Poznań"/>
    <tag k="addr:housenumber" v="4"/>
    <tag k="addr:street" v="Cicha"/>
    <tag k="source" v="http://ump.waw.pl/ retrieved 15:05:23 06/30/09 (UMP-Poznan/src/POZNAN.ulice.txt)"/>
  </node>
  <node id="458450233" version="1" timestamp="2009-08-07T20:29:39Z" uid="20587" user="balrog-kun" changeset="2070092" lat="52.4068563" lon="16.9474936">
    <tag k="addr:city" v="Poznań"/>
    <tag k="addr:housenumber" v="41"/>
    <tag k="addr:street" v="Wieżowa"/>
    <tag k="source" v="http://ump.waw.pl/ retrieved 15:05:23 06/30/09 (UMP-Poznan/src/POZNAN.ulice.txt)"/>
  </node>
  <node id="458450235" version="1" timestamp="2009-08-07T20:29:39Z" uid="20587" user="balrog-kun" changeset="2070092" lat="52.4078315" lon="16.9236535">
    <tag k="addr:city" v="Poznań"/>
    <tag k="addr:housenumber" v="11"/>
    <tag k="addr:street" v="27 Grudnia"/>
    <tag k="source" v="http://ump.waw.pl/ retrieved 15:05:23 06/30/09 (UMP-Poznan/src/POZNAN.ulice.txt)"/>
  </node>
  <node id="458450237" version="1" timestamp="2009-08-07T20:29:39Z" uid="20587" user="balrog-kun" changeset="2070092" lat="52.409941" lon="16.9231091">
    <tag k="addr:city" v="Poznań"/>
    <tag k="addr:housenumber" v="4"/>
    <tag k="addr:street" v="Plac Cyryla Ratajskiego"/>
    <tag k="source" v="http://ump.waw.pl/ retrieved 15:05:23 06/30/09 (UMP-Poznan/src/POZNAN.ulice.txt)"/>
  </node>
  <node id="458450237" version="2" timestamp="2009-12-06T23:05:56Z" uid="20587" user="balrog-kun" changeset="3311402" lat="52.4098252" lon="16.9230168">
    <tag k="addr:city" v="Poznań"/>
    <tag k="addr:housenumber" v="4"/>
    <tag k="addr:street" v="Plac Cyryla Ratajskiego"/>
    <tag k="source" v="http://ump.waw.pl/ retrieved 15:05:23 06/30/09 (UMP-Poznan/src/POZNAN.ulice.txt)"/>
  </node>
  <node id="458450241" version="1" timestamp="2009-08-07T20:29:39Z" uid="20587" user="balrog-kun" changeset="2070092" lat="52.4151" lon="16.9198438">
    <tag k="addr:city" v="Poznań"/>
    <tag k="addr:housenumber" v="60"/>
    <tag k="addr:street" v="Feliksa Nowowiejskiego"/>
    <tag k="source" v="http://ump.waw.pl/ retrieved 15:05:23 06/30/09 (UMP-Poznan/src/POZNAN.ulice.txt)"/>
  </node>
  <node id="458450244" version="1" timestamp="2009-08-07T20:29:39Z" uid="20587" user="balrog-kun" changeset="2070092" lat="52.4104779" lon="16.9272153">
    <tag k="addr:city" v="Poznań"/>
    <tag k="addr:housenumber" v="14"/>
    <tag k="addr:street" v="Feliksa Nowowiejskiego"/>
    <tag k="source" v="http://ump.waw.pl/ retrieved 15:05:23 06/30/09 (UMP-Poznan/src/POZNAN.ulice.txt)"/>
  </node>
  <node id="458450248" version="1" timestamp="2009-08-07T20:29:39Z" uid="20587" user="balrog-kun" changeset="2070092" lat="52.4068455" lon="16.9249506">
    <tag k="addr:city" v="Poznań"/>
    <tag k="addr:housenumber" v="29"/>
    <tag k="addr:street" v="Franciszka Ratajczaka"/>
    <tag k="source" v="http://ump.waw.pl/ retrieved 15:05:23 06/30/09 (UMP-Poznan/src/POZNAN.ulice.txt)"/>
  </node>
  <node id="458450249" version="1" timestamp="2009-08-07T20:29:39Z" uid="20587" user="balrog-kun" changeset="2070092" lat="52.4127595" lon="16.9170446">
    <tag k="addr:city" v="Poznań"/>
    <tag k="addr:housenumber" v="29"/>
    <tag k="addr:street" v="Libelta"/>
    <tag k="source" v="http://ump.waw.pl/ retrieved 15:05:23 06/30/09 (UMP-Poznan/src/POZNAN.ulice.txt)"/>
  </node>
  <node id="458450250" version="1" timestamp="2009-08-07T20:29:40Z" uid="20587" user="balrog-kun" changeset="2070092" lat="52.4046974" lon="16.9145016">
    <tag k="addr:city" v="Poznań"/>
    <tag k="addr:housenumber" v="2"/>
    <tag k="addr:street" v="Składowa"/>
    <tag k="source" v="http://ump.waw.pl/ retrieved 15:05:23 06/30/09 (UMP-Poznan/src/POZNAN.ulice.txt)"/>
  </node>
  <node id="458450252" version="1" timestamp="2009-08-07T20:29:40Z" uid="20587" user="balrog-kun" changeset="2070092" lat="52.4054104" lon="16.9359008">
    <tag k="addr:city" v="Poznań"/>
    <tag k="addr:housenumber" v="12"/>
    <tag k="addr:street" v="Za Bramką"/>
    <tag k="source" v="http://ump.waw.pl/ retrieved 15:05:23 06/30/09 (UMP-Poznan/src/POZNAN.ulice.txt)"/>
  </node>
  <node id="458450254" version="1" timestamp="2009-08-07T20:29:40Z" uid="20587" user="balrog-kun" changeset="2070092" lat="52.4114897" lon="16.921686">
    <tag k="addr:city" v="Poznań"/>
    <tag k="addr:housenumber" v="20"/>
    <tag k="addr:street" v="Libelta"/>
    <tag k="source" v="http://ump.waw.pl/ retrieved 15:05:23 06/30/09 (UMP-Poznan/src/POZNAN.ulice.txt)"/>
  </node>
  <node id="458450257" version="1" timestamp="2009-08-07T20:29:40Z" uid="20587" user="balrog-kun" changeset="2070092" lat="52.4043217" lon="16.9223415">
    <tag k="addr:city" v="Poznań"/>
    <tag k="addr:housenumber" v="14"/>
    <tag k="addr:street" v="Powstańców Wielkopolskich"/>
    <tag k="source" v="http://ump.waw.pl/ retrieved 15:05:23 06/30/09 (UMP-Poznan/src/POZNAN.ulice.txt)"/>
  </node>
  <node id="458450259" version="1" timestamp="2009-08-07T20:29:40Z" uid="20587" user="balrog-kun" changeset="2070092" lat="52.4022218" lon="16.9311372">
    <tag k="addr:city" v="Poznań"/>
    <tag k="addr:housenumber" v="4"/>
    <tag k="addr:street" v="Kwiatowa"/>
    <tag k="source" v="http://ump.waw.pl/ retrieved 15:05:23 06/30/09 (UMP-Poznan/src/POZNAN.ulice.txt)"/>
  </node>
  <node id="458450262" version="1" timestamp="2009-08-07T20:29:40Z" uid="20587" user="balrog-kun" changeset="2070092" lat="52.4123637" lon="16.9254671">
    <tag k="addr:city" v="Poznań"/>
    <tag k="addr:housenumber" v="15"/>
    <tag k="addr:street" v="Solna"/>
    <tag k="source" v="http://ump.waw.pl/ retrieved 15:05:23 06/30/09 (UMP-Poznan/src/POZNAN.ulice.txt)"/>
  </node>
  <node id="458450265" version="1" timestamp="2009-08-07T20:29:40Z" uid="20587" user="balrog-kun" changeset="2070092" lat="52.4040569" lon="16.9143014">
    <tag k="addr:city" v="Poznań"/>
    <tag k="addr:housenumber" v="12"/>
    <tag k="addr:street" v="Składowa"/>
    <tag k="source" v="http://ump.waw.pl/ retrieved 15:05:23 06/30/09 (UMP-Poznan/src/POZNAN.ulice.txt)"/>
  </node>
  <node id="458450269" version="1" timestamp="2009-08-07T20:29:40Z" uid="20587" user="balrog-kun" changeset="2070092" lat="52.4016496" lon="16.9393309">
    <tag k="addr:city" v="Poznań"/>
    <tag k="addr:housenumber" v="15"/>
    <tag k="addr:street" v="Kazimierza Wielkiego"/>
    <tag k="source" v="http://ump.waw.pl/ retrieved 15:05:23 06/30/09 (UMP-Poznan/src/POZNAN.ulice.txt)"/>
  </node>
  <node id="458450271" version="1" timestamp="2009-08-07T20:29:40Z" uid="20587" user="balrog-kun" changeset="2070092" lat="52.4145765" lon="16.9395977">
    <tag k="addr:city" v="Poznań"/>
    <tag k="addr:housenumber" v="112"/>
    <tag k="addr:street" v="Garbary"/>
    <tag k="source" v="http://ump.waw.pl/ retrieved 15:05:23 06/30/09 (UMP-Poznan/src/POZNAN.ulice.txt)"/>
  </node>
  <node id="458450274" version="1" timestamp="2009-08-07T20:29:40Z" uid="20587" user="balrog-kun" changeset="2070092" lat="52.4125509" lon="16.9159484">
    <tag k="addr:city" v="Poznań"/>
    <tag k="addr:housenumber" v="13"/>
    <tag k="addr:street" v="Zygmunta Noskowskiego"/>
    <tag k="source" v="http://ump.waw.pl/ retrieved 15:05:23 06/30/09 (UMP-Poznan/src/POZNAN.ulice.txt)"/>
  </node>
  <node id="458450277" version="1" timestamp="2009-08-07T20:29:40Z" uid="20587" user="balrog-kun" changeset="2070092" lat="52.4144485" lon="16.9335094">
    <tag k="addr:city" v="Poznań"/>
    <tag k="addr:housenumber" v="1"/>
    <tag k="addr:street" v="Księcia Józefa"/>
    <tag k="source" v="http://ump.waw.pl/ retrieved 15:05:23 06/30/09 (UMP-Poznan/src/POZNAN.ulice.txt)"/>
  </node>
  <node id="458450280" version="1" timestamp="2009-08-07T20:29:41Z" uid="20587" user="balrog-kun" changeset="2070092" lat="52.402534" lon="16.9306095">
    <tag k="addr:city" v="Poznań"/>
    <tag k="addr:housenumber" v="4"/>
    <tag k="addr:street" v="Kwiatowa"/>
    <tag k="source" v="http://ump.waw.pl/ retrieved 15:05:23 06/30/09 (UMP-Poznan/src/POZNAN.ulice.txt)"/>
  </node>
  <node id="458450282" version="1" timestamp="2009-08-07T20:29:41Z" uid="20587" user="balrog-kun" changeset="2070092" lat="52.4145934" lon="16.9195871">
    <tag k="addr:city" v="Poznań"/>
    <tag k="addr:housenumber" v="57"/>
    <tag k="addr:street" v="Feliksa Nowowiejskiego"/>
    <tag k="source" v="http://ump.waw.pl/ retrieved 15:05:23 06/30/09 (UMP-Poznan/src/POZNAN.ulice.txt)"/>
  </node>
  <node id="458450285" version="1" timestamp="2009-08-07T20:29:41Z" uid="20587" user="balrog-kun" changeset="2070092" lat="52.4044474" lon="16.9334102">
    <tag k="addr:city" v="Poznań"/>
    <tag k="addr:housenumber" v="13"/>
    <tag k="addr:street" v="Strzelecka"/>
    <tag k="source" v="http://ump.waw.pl/ retrieved 15:05:23 06/30/09 (UMP-Poznan/src/POZNAN.ulice.txt)"/>
  </node>
  <node id="458450289" version="1" timestamp="2009-08-07T20:29:41Z" uid="20587" user="balrog-kun" changeset="2070092" lat="52.4074102" lon="16.9476291">
    <tag k="addr:city" v="Poznań"/>
    <tag k="addr:housenumber" v="2"/>
    <tag k="addr:street" v="Nowe Zagórze"/>
    <tag k="source" v="http://ump.waw.pl/ retrieved 15:05:23 06/30/09 (UMP-Poznan/src/POZNAN.ulice.txt)"/>
  </node>
  <node id="458450292" version="1" timestamp="2009-08-07T20:29:41Z" uid="20587" user="balrog-kun" changeset="2070092" lat="52.4014677" lon="16.9344106">
    <tag k="addr:city" v="Poznań"/>
    <tag k="addr:housenumber" v="32"/>
    <tag k="addr:street" v="Strzelecka"/>
    <tag k="source" v="http://ump.waw.pl/ retrieved 15:05:23 06/30/09 (UMP-Poznan/src/POZNAN.ulice.txt)"/>
  </node>
  <node id="458450295" version="1" timestamp="2009-08-07T20:29:41Z" uid="20587" user="balrog-kun" changeset="2070092" lat="52.4110486" lon="16.9257776">
    <tag k="addr:city" v="Poznań"/>
    <tag k="addr:housenumber" v="19"/>
    <tag k="addr:street" v="Feliksa Nowowiejskiego"/>
    <tag k="source" v="http://ump.waw.pl/ retrieved 15:05:23 06/30/09 (UMP-Poznan/src/POZNAN.ulice.txt)"/>
  </node>
  <node id="458450298" version="1" timestamp="2009-08-07T20:29:41Z" uid="20587" user="balrog-kun" changeset="2070092" lat="52.413234" lon="16.9452885">
    <tag k="addr:city" v="Poznań"/>
    <tag k="addr:housenumber" v="1"/>
    <tag k="addr:street" v="Panny Marii"/>
    <tag k="source" v="http://ump.waw.pl/ retrieved 15:05:23 06/30/09 (UMP-Poznan/src/POZNAN.ulice.txt)"/>
  </node>
  <node id="458450298" version="2" timestamp="2010-02-15T14:40:25Z" uid="123700" user="Mala" changeset="3883707" lat="52.4131521" lon="16.9454508">
    <tag k="addr:city" v="Poznań"/>
    <tag k="addr:housenumber" v="1"/>
    <tag k="addr:street" v="Panny Marii"/>
    <tag k="source" v="http://ump.waw.pl/ retrieved 15:05:23 06/30/09 (UMP-Poznan/src/POZNAN.ulice.txt)"/>
  </node>
  <node id="458450301" version="1" timestamp="2009-08-07T20:29:41Z" uid="20587" user="balrog-kun" changeset="2070092" lat="52.4041026" lon="16.9139084">
    <tag k="addr:city" v="Poznań"/>
    <tag k="addr:housenumber" v="11"/>
    <tag k="addr:street" v="Składowa"/>
    <tag k="source" v="http://ump.waw.pl/ retrieved 15:05:23 06/30/09 (UMP-Poznan/src/POZNAN.ulice.txt)"/>
  </node>
  <node id="458450304" version="1" timestamp="2009-08-07T20:29:41Z" uid="20587" user="balrog-kun" changeset="2070092" lat="52.411303" lon="16.9374983">
    <tag k="addr:city" v="Poznań"/>
    <tag k="addr:housenumber" v="9"/>
    <tag k="addr:street" v="Małe Garbary"/>
    <tag k="source" v="http://ump.waw.pl/ retrieved 15:05:23 06/30/09 (UMP-Poznan/src/POZNAN.ulice.txt)"/>
  </node>
  <node id="458450307" version="1" timestamp="2009-08-07T20:29:41Z" uid="20587" user="balrog-kun" changeset="2070092" lat="52.4115478" lon="16.9325841">
    <tag k="addr:city" v="Poznań"/>
    <tag k="addr:housenumber" v="1"/>
    <tag k="addr:street" v="Święty Wojciech"/>
    <tag k="source" v="http://ump.waw.pl/ retrieved 15:05:23 06/30/09 (UMP-Poznan/src/POZNAN.ulice.txt)"/>
  </node>
  <node id="458450316" version="1" timestamp="2009-08-07T20:29:41Z" uid="20587" user="balrog-kun" changeset="2070092" lat="52.4123928" lon="16.9241229">
    <tag k="addr:city" v="Poznań"/>
    <tag k="addr:housenumber" v="30"/>
    <tag k="addr:street" v="Feliksa Nowowiejskiego"/>
    <tag k="source" v="http://ump.waw.pl/ retrieved 15:05:23 06/30/09 (UMP-Poznan/src/POZNAN.ulice.txt)"/>
  </node>
  <node id="458450319" version="1" timestamp="2009-08-07T20:29:42Z" uid="20587" user="balrog-kun" changeset="2070092" lat="52.4070236" lon="16.9283874">
    <tag k="addr:city" v="Poznań"/>
    <tag k="addr:housenumber" v="20"/>
    <tag k="addr:street" v="Aleja Karola Marcinkowskiego"/>
    <tag k="source" v="http://ump.waw.pl/ retrieved 15:05:23 06/30/09 (UMP-Poznan/src/POZNAN.ulice.txt)"/>
  </node>
  <node id="458450322" version="1" timestamp="2009-08-07T20:29:42Z" uid="20587" user="balrog-kun" changeset="2070092" lat="52.4035075" lon="16.9371486">
    <tag k="addr:city" v="Poznań"/>
    <tag k="addr:housenumber" v="20"/>
    <tag k="addr:street" v="Garbary"/>
    <tag k="source" v="http://ump.waw.pl/ retrieved 15:05:23 06/30/09 (UMP-Poznan/src/POZNAN.ulice.txt)"/>
  </node>
  <node id="458450325" version="1" timestamp="2009-08-07T20:29:42Z" uid="20587" user="balrog-kun" changeset="2070092" lat="52.4038967" lon="16.9288727">
    <tag k="addr:city" v="Poznań"/>
    <tag k="addr:housenumber" v="19"/>
    <tag k="addr:street" v="Ogrodowa"/>
    <tag k="source" v="http://ump.waw.pl/ retrieved 15:05:23 06/30/09 (UMP-Poznan/src/POZNAN.ulice.txt)"/>
  </node>
  <node id="458450330" version="1" timestamp="2009-08-07T20:29:42Z" uid="20587" user="balrog-kun" changeset="2070092" lat="52.4044049" lon="16.921642">
    <tag k="addr:city" v="Poznań"/>
    <tag k="addr:housenumber" v="16"/>
    <tag k="addr:street" v="Powstańców Wielkopolskich"/>
    <tag k="source" v="http://ump.waw.pl/ retrieved 15:05:23 06/30/09 (UMP-Poznan/src/POZNAN.ulice.txt)"/>
  </node>
  <node id="458450332" version="1" timestamp="2009-08-07T20:29:42Z" uid="20587" user="balrog-kun" changeset="2070092" lat="52.4077981" lon="16.9229588">
    <tag k="addr:city" v="Poznań"/>
    <tag k="addr:housenumber" v="10"/>
    <tag k="addr:street" v="Kantaka"/>
    <tag k="source" v="http://ump.waw.pl/ retrieved 15:05:23 06/30/09 (UMP-Poznan/src/POZNAN.ulice.txt)"/>
  </node>
  <node id="458450333" version="1" timestamp="2009-08-07T20:29:42Z" uid="20587" user="balrog-kun" changeset="2070092" lat="52.413177" lon="16.9161243">
    <tag k="addr:city" v="Poznań"/>
    <tag k="addr:housenumber" v="35"/>
    <tag k="addr:street" v="Libelta"/>
    <tag k="source" v="http://ump.waw.pl/ retrieved 15:05:23 06/30/09 (UMP-Poznan/src/POZNAN.ulice.txt)"/>
  </node>
  <node id="458450335" version="1" timestamp="2009-08-07T20:29:42Z" uid="20587" user="balrog-kun" changeset="2070092" lat="52.4135871" lon="16.9468262">
    <tag k="addr:city" v="Poznań"/>
    <tag k="addr:housenumber" v="4"/>
    <tag k="addr:street" v="Jana Lubrańskiego"/>
    <tag k="source" v="http://ump.waw.pl/ retrieved 15:05:23 06/30/09 (UMP-Poznan/src/POZNAN.ulice.txt)"/>
  </node>
  <node id="458450338" version="1" timestamp="2009-08-07T20:29:42Z" uid="20587" user="balrog-kun" changeset="2070092" lat="52.4148311" lon="16.9203676">
    <tag k="addr:city" v="Poznań"/>
    <tag k="addr:housenumber" v="16"/>
    <tag k="addr:street" v="Sporna"/>
    <tag k="source" v="http://ump.waw.pl/ retrieved 15:05:23 06/30/09 (UMP-Poznan/src/POZNAN.ulice.txt)"/>
  </node>
  <node id="458450340" version="1" timestamp="2009-08-07T20:29:42Z" uid="20587" user="balrog-kun" changeset="2070092" lat="52.4147421" lon="16.9183009">
    <tag k="addr:city" v="Poznań"/>
    <tag k="addr:housenumber" v="21"/>
    <tag k="addr:street" v="Zygmunta Noskowskiego"/>
    <tag k="source" v="http://ump.waw.pl/ retrieved 15:05:23 06/30/09 (UMP-Poznan/src/POZNAN.ulice.txt)"/>
  </node>
  <node id="458450343" version="1" timestamp="2009-08-07T20:29:42Z" uid="20587" user="balrog-kun" changeset="2070092" lat="52.4100792" lon="16.9288187">
    <tag k="addr:city" v="Poznań"/>
    <tag k="addr:housenumber" v="24"/>
    <tag k="addr:street" v="23 Lutego"/>
    <tag k="source" v="http://ump.waw.pl/ retrieved 15:05:23 06/30/09 (UMP-Poznan/src/POZNAN.ulice.txt)"/>
  </node>
  <node id="458450347" version="1" timestamp="2009-08-07T20:29:42Z" uid="20587" user="balrog-kun" changeset="2070092" lat="52.4058898" lon="16.9215761">
    <tag k="addr:city" v="Poznań"/>
    <tag k="addr:housenumber" v="6"/>
    <tag k="addr:street" v="Garncarska"/>
    <tag k="source" v="http://ump.waw.pl/ retrieved 15:05:23 06/30/09 (UMP-Poznan/src/POZNAN.ulice.txt)"/>
  </node>
  <node id="458450348" version="1" timestamp="2009-08-07T20:29:42Z" uid="20587" user="balrog-kun" changeset="2070092" lat="52.4035208" lon="16.9331084">
    <tag k="addr:city" v="Poznań"/>
    <tag k="addr:housenumber" v="36"/>
    <tag k="addr:street" v="Rybaki"/>
    <tag k="source" v="http://ump.waw.pl/ retrieved 15:05:23 06/30/09 (UMP-Poznan/src/POZNAN.ulice.txt)"/>
  </node>
  <node id="458450349" version="1" timestamp="2009-08-07T20:29:42Z" uid="20587" user="balrog-kun" changeset="2070092" lat="52.4127651" lon="16.9314166">
    <tag k="addr:city" v="Poznań"/>
    <tag k="addr:housenumber" v="10"/>
    <tag k="addr:street" v="Święty Wojciech"/>
    <tag k="source" v="http://ump.waw.pl/ retrieved 15:05:23 06/30/09 (UMP-Poznan/src/POZNAN.ulice.txt)"/>
  </node>
  <node id="458450352" version="1" timestamp="2009-08-07T20:29:42Z" uid="20587" user="balrog-kun" changeset="2070092" lat="52.4014963" lon="16.9320569">
    <tag k="addr:city" v="Poznań"/>
    <tag k="addr:housenumber" v="4"/>
    <tag k="addr:street" v="Łąkowa"/>
    <tag k="source" v="http://ump.waw.pl/ retrieved 15:05:23 06/30/09 (UMP-Poznan/src/POZNAN.ulice.txt)"/>
  </node>
  <node id="458450360" version="1" timestamp="2009-08-07T20:29:43Z" uid="20587" user="balrog-kun" changeset="2070092" lat="52.4020947" lon="16.9302839">
    <tag k="addr:city" v="Poznań"/>
    <tag k="addr:housenumber" v="30"/>
    <tag k="addr:street" v="Rybaki"/>
    <tag k="source" v="http://ump.waw.pl/ retrieved 15:05:23 06/30/09 (UMP-Poznan/src/POZNAN.ulice.txt)"/>
  </node>
  <node id="458450363" version="1" timestamp="2009-08-07T20:29:43Z" uid="20587" user="balrog-kun" changeset="2070092" lat="52.4036967" lon="16.9294948">
    <tag k="addr:city" v="Poznań"/>
    <tag k="addr:housenumber" v="3"/>
    <tag k="addr:street" v="Ogrodowa"/>
    <tag k="source" v="http://ump.waw.pl/ retrieved 15:05:23 06/30/09 (UMP-Poznan/src/POZNAN.ulice.txt)"/>
  </node>
  <node id="458450365" version="1" timestamp="2009-08-07T20:29:43Z" uid="20587" user="balrog-kun" changeset="2070092" lat="52.4052722" lon="16.9251392">
    <tag k="addr:city" v="Poznań"/>
    <tag k="addr:housenumber" v="20"/>
    <tag k="addr:street" v="Franciszka Ratajczaka"/>
    <tag k="source" v="http://ump.waw.pl/ retrieved 15:05:23 06/30/09 (UMP-Poznan/src/POZNAN.ulice.txt)"/>
  </node>
  <node id="458450369" version="1" timestamp="2009-08-07T20:29:43Z" uid="20587" user="balrog-kun" changeset="2070092" lat="52.4074943" lon="16.9487789">
    <tag k="addr:city" v="Poznań"/>
    <tag k="addr:housenumber" v="9"/>
    <tag k="addr:street" v="Nowe Zagórze"/>
    <tag k="source" v="http://ump.waw.pl/ retrieved 15:05:23 06/30/09 (UMP-Poznan/src/POZNAN.ulice.txt)"/>
  </node>
  <node id="458450372" version="1" timestamp="2009-08-07T20:29:43Z" uid="20587" user="balrog-kun" changeset="2070092" lat="52.4112786" lon="16.9262483">
    <tag k="addr:city" v="Poznań"/>
    <tag k="addr:housenumber" v="20"/>
    <tag k="addr:street" v="Feliksa Nowowiejskiego"/>
    <tag k="source" v="http://ump.waw.pl/ retrieved 15:05:23 06/30/09 (UMP-Poznan/src/POZNAN.ulice.txt)"/>
  </node>
  <node id="458450374" version="1" timestamp="2009-08-07T20:29:43Z" uid="20587" user="balrog-kun" changeset="2070092" lat="52.4059729" lon="16.9203647">
    <tag k="addr:city" v="Poznań"/>
    <tag k="addr:housenumber" v="11"/>
    <tag k="addr:street" v="Stanisława Taczaka"/>
    <tag k="source" v="http://ump.waw.pl/ retrieved 15:05:23 06/30/09 (UMP-Poznan/src/POZNAN.ulice.txt)"/>
  </node>
  <node id="458450377" version="1" timestamp="2009-08-07T20:29:43Z" uid="20587" user="balrog-kun" changeset="2070092" lat="52.4097908" lon="16.9252278">
    <tag k="addr:city" v="Poznań"/>
    <tag k="addr:housenumber" v="2"/>
    <tag k="addr:street" v="23 Lutego"/>
    <tag k="source" v="http://ump.waw.pl/ retrieved 15:05:23 06/30/09 (UMP-Poznan/src/POZNAN.ulice.txt)"/>
  </node>
  <node id="458450380" version="1" timestamp="2009-08-07T20:29:43Z" uid="20587" user="balrog-kun" changeset="2070092" lat="52.4158974" lon="16.9235438">
    <tag k="addr:city" v="Poznań"/>
    <tag k="addr:housenumber" v="14"/>
    <tag k="addr:street" v="Cicha"/>
    <tag k="source" v="http://ump.waw.pl/ retrieved 15:05:23 06/30/09 (UMP-Poznan/src/POZNAN.ulice.txt)"/>
  </node>
  <node id="458450382" version="1" timestamp="2009-08-07T20:29:43Z" uid="20587" user="balrog-kun" changeset="2070092" lat="52.4117493" lon="16.9473781">
    <tag k="addr:city" v="Poznań"/>
    <tag k="addr:housenumber" v="13"/>
    <tag k="addr:street" v="Ostrów Tumski"/>
    <tag k="source" v="http://ump.waw.pl/ retrieved 15:05:23 06/30/09 (UMP-Poznan/src/POZNAN.ulice.txt)"/>
  </node>
  <node id="458450382" version="2" timestamp="2010-02-15T14:40:25Z" uid="123700" user="Mala" changeset="3883707" lat="52.4117152" lon="16.9472941">
    <tag k="addr:city" v="Poznań"/>
    <tag k="addr:housenumber" v="13"/>
    <tag k="addr:street" v="Ostrów Tumski"/>
    <tag k="source" v="http://ump.waw.pl/ retrieved 15:05:23 06/30/09 (UMP-Poznan/src/POZNAN.ulice.txt)"/>
  </node>
  <node id="458450386" version="1" timestamp="2009-08-07T20:29:43Z" uid="20587" user="balrog-kun" changeset="2070092" lat="52.4102323" lon="16.9201324">
    <tag k="addr:city" v="Poznań"/>
    <tag k="addr:housenumber" v="95"/>
    <tag k="addr:street" v="Tadeusza Kościuszki"/>
    <tag k="source" v="http://ump.waw.pl/ retrieved 15:05:23 06/30/09 (UMP-Poznan/src/POZNAN.ulice.txt)"/>
  </node>
  <node id="458450387" version="1" timestamp="2009-08-07T20:29:43Z" uid="20587" user="balrog-kun" changeset="2070092" lat="52.4155611" lon="16.9317423">
    <tag k="addr:city" v="Poznań"/>
    <tag k="addr:housenumber" v="10"/>
    <tag k="addr:street" v="Generała Tadeusza Kutrzeby"/>
    <tag k="source" v="http://ump.waw.pl/ retrieved 15:05:23 06/30/09 (UMP-Poznan/src/POZNAN.ulice.txt)"/>
  </node>
  <node id="458450389" version="1" timestamp="2009-08-07T20:29:43Z" uid="20587" user="balrog-kun" changeset="2070092" lat="52.4132415" lon="16.9158906">
    <tag k="addr:city" v="Poznań"/>
    <tag k="addr:housenumber" v="37"/>
    <tag k="addr:street" v="Libelta"/>
    <tag k="source" v="http://ump.waw.pl/ retrieved 15:05:23 06/30/09 (UMP-Poznan/src/POZNAN.ulice.txt)"/>
  </node>
</osm>
