<?xml version='1.0' encoding='UTF-8'?>
<osm version="0.6" generator="libosmium/2.20.0">
  <node id="461078631" version="6" timestamp="2009-08-26T00:22:36Z" uid="36809" user="pfoten_weg_!_" changeset="2262648" lat="48.0795739" lon="11.5126909">
    <tag k="amenity" v="pharmacy"/>
    <tag k="name" v="Geigenberger Apotheke"/>
    <tag k="opening_hours" v="Mo-Fr 8:30-12:30,14:30-18:00"/>
    <tag k="source" v="local_knowledge"/>
  </node>
  <node id="461078631" version="7" timestamp="2009-08-26T01:23:41Z" uid="36809" user="pfoten_weg_!_" changeset="2262879" lat="48.0795739" lon="11.5126909">
    <tag k="amenity" v="pharmacy"/>
    <tag k="name" v="Geigenberger Apotheke"/>
    <tag k="opening_hours" v="Mo-Fr 8:30-12:30,14:30-18:00"/>
    <tag k="source" v="local_knowledge"/>
  </node>
  <node id="461078631" version="8" timestamp="2009-10-03T17:38:41Z" uid="179968" user="Ich_hasse_doitsche_OSM-Korinthenkacker" changeset="2727120" lat="48.0795739" lon="11.5126909">
    <tag k="amenity" v="pharmacy"/>
    <tag k="name" v="Geigenberger Apotheke"/>
    <tag k="opening_hours" v="Mo-Fr 8:30-12:30,14:30-18:00"/>
  </node>
  <node id="461078631" version="9" timestamp="2009-10-03T20:58:54Z" uid="179968" user="Ich_hasse_doitsche_OSM-Korinthenkacker" changeset="2729559" lat="48.0795739" lon="11.5126909">
    <tag k="amenity" v="pharmacy"/>
    <tag k="name" v="Geigenberger Apotheke"/>
    <tag k="opening_hours" v="Mo-Fr 8:30-12:30,14:30-18:00"/>
  </node>
</osm>
