<?xml version='1.0' encoding='UTF-8'?>
<osm version="0.6" generator="libosmium/2.20.0">
  <node id="461166128" version="1" timestamp="2009-08-10T19:50:26Z" uid="123700" user="Mala" changeset="2102161" lat="52.2396106" lon="21.063024">
    <tag k="shop" v="greengrocer"/>
  </node>
  <node id="461166128" version="2" timestamp="2011-02-14T15:25:58Z" uid="20587" user="balrog-kun" changeset="7286624" lat="52.2396268" lon="21.0630902">
    <tag k="building" v="kiosk"/>
    <tag k="shop" v="greengrocer"/>
  </node>
  <node id="461166130" version="1" timestamp="2009-08-10T19:50:26Z" uid="123700" user="Mala" changeset="2102161" lat="52.2394305" lon="21.0631847">
    <tag k="amenity" v="fast_food"/>
    <tag k="name" v="Cafe Bar Alpejski"/>
  </node>
  <node id="461166131" version="1" timestamp="2009-08-10T19:50:26Z" uid="123700" user="Mala" changeset="2102161" lat="52.2393738" lon="21.0632173">
    <tag k="name" v="Sklep spożywczy &quot;Alpejski&quot;"/>
    <tag k="shop" v="convenience"/>
  </node>
  <node id="461166142" version="1" timestamp="2009-08-10T19:50:27Z" uid="123700" user="Mala" changeset="2102161" lat="52.2392354" lon="21.0633017">
    <tag k="name" v="Delikatesy Mini Europa"/>
    <tag k="note" v="24h"/>
    <tag k="shop" v="supermarket"/>
  </node>
  <node id="461166144" version="1" timestamp="2009-08-10T19:50:27Z" uid="123700" user="Mala" changeset="2102161" lat="52.2388669" lon="21.0629049">
    <tag k="addr:housenumber" v="14"/>
    <tag k="addr:postcode" v="03-913"/>
    <tag k="addr:street" v="Angorska"/>
    <tag k="amenity" v="library"/>
    <tag k="name" v="Biblioteka Publiczna"/>
  </node>
  <node id="461166147" version="1" timestamp="2009-08-10T19:50:27Z" uid="123700" user="Mala" changeset="2102161" lat="52.2367324" lon="21.0632963">
    <tag k="amenity" v="restaurant"/>
    <tag k="cuisine" v="asian"/>
    <tag k="name" v="Orientalne Smaki"/>
  </node>
  <node id="461166147" version="2" timestamp="2009-08-17T19:41:15Z" uid="20587" user="balrog-kun" changeset="2182444" lat="52.2367651" lon="21.0633441">
    <tag k="amenity" v="restaurant"/>
    <tag k="cuisine" v="asian"/>
    <tag k="name" v="Orientalne Smaki"/>
  </node>
  <node id="461166149" version="1" timestamp="2009-08-10T19:50:27Z" uid="123700" user="Mala" changeset="2102161" lat="52.2364969" lon="21.0635346">
    <tag k="addr:housenumber" v="68"/>
    <tag k="addr:street" v="Walecznych"/>
    <tag k="amenity" v="restaurant"/>
    <tag k="name" v="Restauracja Pikanteria"/>
  </node>
  <node id="461166151" version="1" timestamp="2009-08-10T19:50:27Z" uid="123700" user="Mala" changeset="2102161" lat="52.2321558" lon="21.0608337">
    <tag k="shop" v="florist"/>
  </node>
  <node id="461166151" version="2" timestamp="2009-08-17T19:41:15Z" uid="20587" user="balrog-kun" changeset="2182444" lat="52.2321435" lon="21.0606528">
    <tag k="shop" v="florist"/>
  </node>
  <node id="461166153" version="1" timestamp="2009-08-10T19:50:27Z" uid="123700" user="Mala" changeset="2102161" lat="52.2327369" lon="21.0638332">
    <tag k="addr:housenumber" v="40"/>
    <tag k="addr:street" v="Zwycięzców"/>
    <tag k="name" v="Alma Market"/>
    <tag k="shop" v="supermarket"/>
  </node>
  <node id="461166153" version="2" timestamp="2009-08-17T19:41:15Z" uid="20587" user="balrog-kun" changeset="2182444" lat="52.2325974" lon="21.0633777">
    <tag k="addr:housenumber" v="40"/>
    <tag k="addr:street" v="Zwycięzców"/>
    <tag k="name" v="Alma Market"/>
    <tag k="shop" v="supermarket"/>
  </node>
  <node id="461166156" version="1" timestamp="2009-08-10T19:50:28Z" uid="123700" user="Mala" changeset="2102161" lat="52.2318957" lon="21.0594178">
    <tag k="addr:housenumber" v="32"/>
    <tag k="addr:street" v="Zwycięzców"/>
    <tag k="name" v="Kopernik Toruńskie Pierniki"/>
    <tag k="shop" v="confectionery"/>
  </node>
  <node id="461166159" version="1" timestamp="2009-08-10T19:50:28Z" uid="123700" user="Mala" changeset="2102161" lat="52.2319445" lon="21.0596199">
    <tag k="addr:housenumber" v="34"/>
    <tag k="name" v="Piekarnia Oskroba"/>
    <tag k="shop" v="bakery"/>
  </node>
  <node id="461166163" version="1" timestamp="2009-08-10T19:50:28Z" uid="123700" user="Mala" changeset="2102161" lat="52.231837" lon="21.0590615">
    <tag k="addr:housenumber" v="32"/>
    <tag k="addr:street" v="Zwycięzców"/>
    <tag k="amenity" v="doctors"/>
    <tag k="name" v="Laboratorium Techniki Dentystycznej LABDENT"/>
  </node>
  <node id="461166167" version="1" timestamp="2009-08-10T19:50:28Z" uid="123700" user="Mala" changeset="2102161" lat="52.2317621" lon="21.0586785">
    <tag k="name" v="Video Club"/>
    <tag k="shop" v="video"/>
  </node>
  <node id="461166167" version="2" timestamp="2011-03-03T16:47:26Z" uid="20587" user="balrog-kun" changeset="7447317" lat="52.2317621" lon="21.0586785">
    <tag k="addr:housenumber" v="32"/>
    <tag k="addr:street" v="Zwycięzców"/>
    <tag k="name" v="Video Club"/>
    <tag k="shop" v="video;video_rental"/>
  </node>
  <node id="461166170" version="1" timestamp="2009-08-10T19:50:28Z" uid="123700" user="Mala" changeset="2102161" lat="52.2318142" lon="21.0589126">
    <tag k="addr:housenumber" v="32"/>
    <tag k="addr:street" v="Zwycięzców"/>
    <tag k="amenity" v="bank"/>
    <tag k="atm" v="yes"/>
    <tag k="name" v="Invest-Bank"/>
    <tag k="operator" v="Invest-Bank S.A."/>
  </node>
  <node id="461166173" version="1" timestamp="2009-08-10T19:50:28Z" uid="123700" user="Mala" changeset="2102161" lat="52.2317139" lon="21.0582599">
    <tag k="addr:housenumber" v="30"/>
    <tag k="addr:street" v="Zwycięzców"/>
    <tag k="amenity" v="restaurant"/>
    <tag k="name" v="Pizza Hut"/>
    <tag k="operator" v="Pizza Hut"/>
  </node>
  <node id="461166173" version="2" timestamp="2009-08-17T19:41:15Z" uid="20587" user="balrog-kun" changeset="2182444" lat="52.2317192" lon="21.0583757">
    <tag k="addr:housenumber" v="30"/>
    <tag k="addr:street" v="Zwycięzców"/>
    <tag k="amenity" v="restaurant"/>
    <tag k="cuisine" v="pizza"/>
    <tag k="name" v="Pizza Hut"/>
    <tag k="operator" v="Pizza Hut"/>
  </node>
  <node id="461166174" version="1" timestamp="2009-08-10T19:50:28Z" uid="123700" user="Mala" changeset="2102161" lat="52.2316618" lon="21.0580259">
    <tag k="amenity" v="bank"/>
    <tag k="atm" v="yes"/>
    <tag k="name" v="Bank PKO S.A."/>
    <tag k="operator" v="PKO S.A."/>
  </node>
  <node id="461166176" version="1" timestamp="2009-08-10T19:50:28Z" uid="123700" user="Mala" changeset="2102161" lat="52.2316227" lon="21.0578716">
    <tag k="name" v="Beauty Secret"/>
    <tag k="shop" v="beauty_shop"/>
  </node>
  <node id="461166180" version="1" timestamp="2009-08-10T19:50:28Z" uid="123700" user="Mala" changeset="2102161" lat="52.2315575" lon="21.0577759">
    <tag k="name" v="Kwiaciarnia Maui"/>
    <tag k="shop" v="florist"/>
  </node>
  <node id="461166183" version="1" timestamp="2009-08-10T19:50:29Z" uid="123700" user="Mala" changeset="2102161" lat="52.2314859" lon="21.0577174">
    <tag k="shop" v="travel_agency"/>
  </node>
  <node id="461166185" version="1" timestamp="2009-08-10T19:50:29Z" uid="123700" user="Mala" changeset="2102161" lat="52.231424" lon="21.0576908">
    <tag k="amenity" v="post_office"/>
    <tag k="name" v="DHL service point"/>
    <tag k="operator" v="DHL"/>
  </node>
  <node id="461166188" version="1" timestamp="2009-08-10T19:50:29Z" uid="123700" user="Mala" changeset="2102161" lat="52.2312416" lon="21.0549306">
    <tag k="addr:housenumber" v="22"/>
    <tag k="addr:street" v="Zwycięzców"/>
    <tag k="name" v="Sklep Węgierski &quot;Papryka&quot;"/>
    <tag k="shop" v="convenience"/>
  </node>
  <node id="461166191" version="1" timestamp="2009-08-10T19:50:29Z" uid="123700" user="Mala" changeset="2102161" lat="52.2311406" lon="21.0545317">
    <tag k="addr:housenumber" v="32"/>
    <tag k="addr:street" v="Zakopiańska"/>
    <tag k="amenity" v="restaurant"/>
    <tag k="cuisine" v="italian"/>
    <tag k="name" v="Pizzeria na Winklu"/>
  </node>
  <node id="461166191" version="2" timestamp="2009-08-17T19:41:15Z" uid="20587" user="balrog-kun" changeset="2182444" lat="52.2311272" lon="21.0545427">
    <tag k="addr:housenumber" v="32"/>
    <tag k="addr:street" v="Zakopiańska"/>
    <tag k="amenity" v="restaurant"/>
    <tag k="cuisine" v="italian"/>
    <tag k="name" v="Pizzeria na Winklu"/>
  </node>
  <node id="461166194" version="1" timestamp="2009-08-10T19:50:29Z" uid="123700" user="Mala" changeset="2102161" lat="52.2324435" lon="21.0548934">
    <tag k="addr:housenumber" v="11"/>
    <tag k="addr:street" v="Francuska"/>
    <tag k="amenity" v="restaurant"/>
    <tag k="name" v="Restauracja Dom Polski"/>
  </node>
  <node id="461166194" version="2" timestamp="2009-08-17T20:15:45Z" uid="20587" user="balrog-kun" changeset="2182877" lat="52.2324653" lon="21.0549483">
    <tag k="addr:housenumber" v="11"/>
    <tag k="addr:street" v="Francuska"/>
    <tag k="amenity" v="restaurant"/>
    <tag k="name" v="Restauracja Dom Polski"/>
  </node>
  <node id="461166197" version="1" timestamp="2009-08-10T19:50:29Z" uid="123700" user="Mala" changeset="2102161" lat="52.231981" lon="21.0552337">
    <tag k="addr:housenumber" v="3a"/>
    <tag k="addr:street" v="Francuska"/>
    <tag k="amenity" v="restaurant"/>
    <tag k="name" v="LiTi Kuchnia Azjatycka"/>
    <tag k="phone" v="+48226162048"/>
  </node>
  <node id="461166199" version="1" timestamp="2009-08-10T19:50:29Z" uid="123700" user="Mala" changeset="2102161" lat="52.2326081" lon="21.0548285">
    <tag k="amenity" v="telephone"/>
  </node>
  <node id="461166199" version="2" timestamp="2009-08-17T20:15:45Z" uid="20587" user="balrog-kun" changeset="2182877" lat="52.2326568" lon="21.0549904">
    <tag k="amenity" v="telephone"/>
  </node>
  <node id="461166201" version="1" timestamp="2009-08-10T19:50:29Z" uid="123700" user="Mala" changeset="2102161" lat="52.233128" lon="21.0546162">
    <tag k="historic" v="monument"/>
    <tag k="name" v="Pomnik Agnieszki Osieckiej"/>
    <tag k="tourism" v="artwork"/>
  </node>
  <node id="461166201" version="2" timestamp="2009-08-17T20:15:45Z" uid="20587" user="balrog-kun" changeset="2182877" lat="52.2331112" lon="21.0546608">
    <tag k="historic" v="monument"/>
    <tag k="name" v="Pomnik Agnieszki Osieckiej"/>
    <tag k="tourism" v="artwork"/>
  </node>
  <node id="461166203" version="1" timestamp="2009-08-10T19:50:29Z" uid="123700" user="Mala" changeset="2102161" lat="52.2333678" lon="21.0543694">
    <tag k="name" v="Księgarnia &quot;Eureka&quot;"/>
    <tag k="shop" v="books"/>
  </node>
  <node id="461166203" version="2" timestamp="2010-10-04T18:22:14Z" uid="20587" user="balrog-kun" changeset="5956007" lat="52.2334052" lon="21.0543533">
    <tag k="name" v="Księgarnia &quot;Eureka&quot;"/>
    <tag k="shop" v="books"/>
  </node>
  <node id="461166204" version="1" timestamp="2009-08-10T19:50:29Z" uid="123700" user="Mala" changeset="2102161" lat="52.2334225" lon="21.0543439">
    <tag k="name" v="Kwiaciarnia Rezeda"/>
    <tag k="shop" v="florist"/>
  </node>
  <node id="461166204" version="2" timestamp="2010-10-04T18:22:28Z" uid="20587" user="balrog-kun" changeset="5956007" lat="52.2334599" lon="21.0543278">
    <tag k="name" v="Kwiaciarnia Rezeda"/>
    <tag k="shop" v="florist"/>
  </node>
  <node id="461166206" version="1" timestamp="2009-08-10T19:50:30Z" uid="123700" user="Mala" changeset="2102161" lat="52.2334798" lon="21.0543141">
    <tag k="name" v="Galeria Wypieków Piotr Lubaszka"/>
    <tag k="shop" v="bakery"/>
  </node>
  <node id="461166206" version="2" timestamp="2010-10-04T18:21:22Z" uid="20587" user="balrog-kun" changeset="5956007" lat="52.2335172" lon="21.054298">
    <tag k="name" v="Galeria Wypieków Piotr Lubaszka"/>
    <tag k="shop" v="bakery"/>
  </node>
  <node id="461166207" version="1" timestamp="2009-08-10T19:50:30Z" uid="123700" user="Mala" changeset="2102161" lat="52.2335267" lon="21.0542801">
    <tag k="name" v="Chez les garçons"/>
    <tag k="shop" v="convenience"/>
  </node>
  <node id="461166207" version="2" timestamp="2010-10-04T18:17:37Z" uid="20587" user="balrog-kun" changeset="5956007" lat="52.2335641" lon="21.054264">
    <tag k="name" v="Chez les garçons"/>
    <tag k="shop" v="convenience"/>
  </node>
  <node id="461166209" version="1" timestamp="2009-08-10T19:50:30Z" uid="123700" user="Mala" changeset="2102161" lat="52.2345455" lon="21.0536376">
    <tag k="addr:housenumber" v="27"/>
    <tag k="addr:street" v="Francuska"/>
    <tag k="name" v="Le Salon"/>
    <tag k="shop" v="hairdresser"/>
  </node>
  <node id="461166212" version="1" timestamp="2009-08-10T19:50:30Z" uid="123700" user="Mala" changeset="2102161" lat="52.2346107" lon="21.0535993">
    <tag k="shop" v="convenience"/>
  </node>
  <node id="461166212" version="2" timestamp="2009-08-17T19:41:14Z" uid="20587" user="balrog-kun" changeset="2182444" lat="52.2346485" lon="21.0535856">
    <tag k="shop" v="convenience"/>
  </node>
  <node id="461166213" version="1" timestamp="2009-08-10T19:50:30Z" uid="123700" user="Mala" changeset="2102161" lat="52.2345322" lon="21.0536746">
    <tag k="amenity" v="post_box"/>
  </node>
  <node id="461166213" version="2" timestamp="2009-08-17T19:41:14Z" uid="20587" user="balrog-kun" changeset="2182444" lat="52.234549" lon="21.0538187">
    <tag k="amenity" v="post_box"/>
  </node>
  <node id="461166215" version="1" timestamp="2009-08-10T19:50:30Z" uid="123700" user="Mala" changeset="2102161" lat="52.2349597" lon="21.0531263">
    <tag k="shop" v="florist"/>
  </node>
  <node id="461166217" version="1" timestamp="2009-08-10T19:50:30Z" uid="123700" user="Mala" changeset="2102161" lat="52.2350233" lon="21.053365">
    <tag k="name" v="Biuro Podróży TUI"/>
    <tag k="operator" v="TUI"/>
    <tag k="shop" v="travel_agency"/>
  </node>
  <node id="461166221" version="1" timestamp="2009-08-10T19:50:30Z" uid="123700" user="Mala" changeset="2102161" lat="52.2351396" lon="21.0532999">
    <tag k="amenity" v="cafe"/>
    <tag k="cuisine" v="senegalese"/>
    <tag k="name" v="Cafe Baobab"/>
  </node>
  <node id="461166223" version="1" timestamp="2009-08-10T19:50:30Z" uid="123700" user="Mala" changeset="2102161" lat="52.2351728" lon="21.0532561">
    <tag k="amenity" v="fast_food"/>
    <tag k="cuisine" v="kebab"/>
  </node>
  <node id="461166227" version="1" timestamp="2009-08-10T19:50:30Z" uid="123700" user="Mala" changeset="2102161" lat="52.2352126" lon="21.0532598">
    <tag k="name" v="Piekarnia Wawerska"/>
    <tag k="shop" v="bakery"/>
  </node>
  <node id="461166230" version="1" timestamp="2009-08-10T19:50:30Z" uid="123700" user="Mala" changeset="2102161" lat="52.2353734" lon="21.0530883">
    <tag k="addr:housenumber" v="33"/>
    <tag k="addr:street" v="Francuska"/>
    <tag k="amenity" v="restaurant"/>
    <tag k="cuisine" v="italian"/>
    <tag k="name" v="Pizzeria Renesans"/>
  </node>
  <node id="461166230" version="2" timestamp="2009-08-17T20:15:45Z" uid="20587" user="balrog-kun" changeset="2182877" lat="52.2353734" lon="21.0530883">
    <tag k="addr:housenumber" v="33"/>
    <tag k="addr:street" v="Francuska"/>
    <tag k="amenity" v="restaurant"/>
    <tag k="cuisine" v="pizza"/>
    <tag k="name" v="Pizzeria Renesans"/>
  </node>
  <node id="461166234" version="1" timestamp="2009-08-10T19:50:30Z" uid="123700" user="Mala" changeset="2102161" lat="52.2361849" lon="21.052628">
    <tag k="addr:housenumber" v="41"/>
    <tag k="addr:street" v="Francuska"/>
    <tag k="amenity" v="fast_food"/>
    <tag k="cuisine" v="kebab;pizza"/>
    <tag k="name" v="Fenicja"/>
  </node>
  <node id="461166238" version="1" timestamp="2009-08-10T19:50:31Z" uid="123700" user="Mala" changeset="2102161" lat="52.2363119" lon="21.052527">
    <tag k="amenity" v="bank"/>
    <tag k="atm" v="yes"/>
    <tag k="name" v="Polbank"/>
    <tag k="operator" v="Polbank EFG"/>
  </node>
  <node id="461166242" version="1" timestamp="2009-08-10T19:50:31Z" uid="123700" user="Mala" changeset="2102161" lat="52.2367027" lon="21.0518622">
    <tag k="addr:housenumber" v="15a"/>
    <tag k="addr:street" v="Lipska"/>
    <tag k="name" v="Delikatesy Paula"/>
    <tag k="shop" v="supermarket"/>
  </node>
  <node id="461168441" version="2" timestamp="2009-09-01T20:56:49Z" uid="36809" user="pfoten_weg_!_" changeset="2343001" lat="47.8066082" lon="11.8264257">
    <tag k="addr:city" v="Miesbach"/>
    <tag k="addr:country" v="DE"/>
    <tag k="addr:housenumber" v="79"/>
    <tag k="addr:postcode" v="83714"/>
    <tag k="addr:street" v="Wallenburg"/>
  </node>
  <node id="461168441" version="3" timestamp="2009-10-19T17:58:50Z" uid="36809" user="pfoten_weg_!_" changeset="2896685" lat="47.8066082" lon="11.8264257">
    <tag k="addr:city" v="Miesbach"/>
    <tag k="addr:country" v="DE"/>
    <tag k="addr:housenumber" v="79"/>
    <tag k="addr:postcode" v="83714"/>
    <tag k="addr:street" v="Wallenburg"/>
  </node>
  <node id="461168447" version="2" timestamp="2009-09-01T20:56:49Z" uid="36809" user="pfoten_weg_!_" changeset="2343001" lat="47.8064064" lon="11.82749">
    <tag k="addr:city" v="Miesbach"/>
    <tag k="addr:country" v="DE"/>
    <tag k="addr:housenumber" v="82"/>
    <tag k="addr:postcode" v="83714"/>
    <tag k="addr:street" v="Wallenburg"/>
  </node>
  <node id="461168447" version="3" timestamp="2009-10-19T17:58:48Z" uid="36809" user="pfoten_weg_!_" changeset="2896685" lat="47.8064064" lon="11.82749">
    <tag k="addr:city" v="Miesbach"/>
    <tag k="addr:country" v="DE"/>
    <tag k="addr:housenumber" v="82"/>
    <tag k="addr:postcode" v="83714"/>
    <tag k="addr:street" v="Wallenburg"/>
  </node>
  <node id="461168454" version="2" timestamp="2009-09-01T20:56:52Z" uid="36809" user="pfoten_weg_!_" changeset="2343001" lat="47.8057608" lon="11.8283312">
    <tag k="addr:city" v="Miesbach"/>
    <tag k="addr:country" v="DE"/>
    <tag k="addr:housenumber" v="81"/>
    <tag k="addr:postcode" v="83714"/>
    <tag k="addr:street" v="Wallenburg"/>
  </node>
</osm>
