<?xml version='1.0' encoding='UTF-8'?>
<osm version="0.6" generator="libosmium/2.20.0">
  <node id="462271135" version="5" timestamp="2011-04-05T23:02:55Z" uid="6269" user="Mueck" changeset="7780144" lat="49.0134078" lon="8.4243132"/>
  <node id="462271236" version="4" timestamp="2011-04-05T23:02:55Z" uid="6269" user="Mueck" changeset="7780144" lat="49.0126504" lon="8.4243617"/>
  <node id="462271679" version="6" timestamp="2011-04-05T23:02:56Z" uid="6269" user="Mueck" changeset="7780144" lat="49.0125911" lon="8.4244946"/>
  <node id="462271714" version="5" timestamp="2011-02-04T00:38:00Z" uid="6269" user="Mueck" changeset="7179414" lat="49.0097247" lon="8.4191292">
    <tag k="highway" v="traffic_signals"/>
  </node>
  <node id="462274202" version="2" timestamp="2009-08-19T00:59:24Z" uid="36809" user="pfoten_weg_!_" changeset="2196309" lat="48.082202" lon="11.503292">
    <tag k="name" v="Fahrrad-Hobby"/>
    <tag k="shop" v="bicycle"/>
    <tag k="source" v="local_knowledge"/>
  </node>
  <node id="462275495" version="5" timestamp="2009-10-13T23:05:54Z" uid="36809" user="pfoten_weg_!_" changeset="2841175" lat="48.0907431" lon="11.5210319">
    <tag k="addr:housenumber" v="116"/>
    <tag k="addr:street" v="Aidenbachstraße"/>
    <tag k="name" v="Radldiscount"/>
    <tag k="opening_hours" v="Mo-Fr 9:00-12:00,13:00-18:00; Sa 10:00-14:00"/>
    <tag k="shop" v="bicycle"/>
    <tag k="url" v="http://www.radldiscount.de/"/>
  </node>
  <node id="462275495" version="6" timestamp="2010-05-08T20:52:49Z" uid="36809" user="pfoten_weg_!_" changeset="4642954" lat="48.0907431" lon="11.5210319">
    <tag k="addr:housenumber" v="116"/>
    <tag k="addr:street" v="Aidenbachstraße"/>
    <tag k="name" v="Radldiscount"/>
    <tag k="opening_hours" v="Mo-Fr 9:00-12:00,13:00-18:00; Sa 10:00-14:00"/>
    <tag k="shop" v="bicycle"/>
    <tag k="url" v="http://www.radldiscount.de/"/>
  </node>
  <node id="462275784" version="3" timestamp="2011-02-25T15:43:42Z" uid="115477" user="wowik" changeset="7391537" lat="55.8464922" lon="37.3567434">
    <tag k="addr:housenumber" v="31"/>
    <tag k="addr:street" v="Митинская улица"/>
    <tag k="shop" v="supermarket"/>
  </node>
</osm>
