<?xml version='1.0' encoding='UTF-8'?>
<osm version="0.6" generator="libosmium/2.20.0">
  <node id="462741344" version="2" timestamp="2010-06-01T18:46:50Z" uid="10712" user="Kraeml" changeset="4877258" lat="59.3186909" lon="11.9047548">
    <tag k="name" v="Bookshandel"/>
    <tag k="shop" v="supermarket"/>
  </node>
  <node id="462744252" version="2" timestamp="2010-06-01T06:34:20Z" uid="10712" user="Kraeml" changeset="4872052" lat="59.3260333" lon="11.8935706"/>
  <node id="462746968" version="3" timestamp="2010-07-29T09:38:07Z" uid="74617" user="JohnSmith" changeset="5344848" lat="48.7640789" lon="8.9877233">
    <tag k="amenity" v="emergency_phone"/>
    <tag k="emergency" v="phone"/>
    <tag k="operator" v="Volksbank"/>
  </node>
  <node id="462747413" version="3" timestamp="2009-09-30T23:36:21Z" uid="86259" user="hasse_osm_korinthenkacker" changeset="2694823" lat="48.1134815" lon="11.5136659">
    <tag k="highway" v="bus_stop"/>
    <tag k="name" v="EttalstraÃŸe"/>
  </node>
  <node id="462748195" version="2" timestamp="2010-05-16T00:02:22Z" uid="74617" user="JohnSmith" changeset="4711569" lat="-33.3822372" lon="151.3700606">
    <tag k="name" v="Lisarow Railway Station"/>
    <tag k="railway" v="station"/>
  </node>
</osm>
