<?xml version='1.0' encoding='UTF-8'?>
<osm version="0.6" generator="libosmium/2.20.0">
  <node id="46441363" version="5" timestamp="2010-09-17T20:15:17Z" uid="33382" user="de_muur" changeset="5806927" lat="53.107337" lon="9.1978654">
    <tag k="TMC:cid_58:tabcd_1:Class" v="Point"/>
    <tag k="TMC:cid_58:tabcd_1:Direction" v="positive"/>
    <tag k="TMC:cid_58:tabcd_1:LCLversion" v="8.00"/>
    <tag k="TMC:cid_58:tabcd_1:LocationCode" v="10122"/>
    <tag k="TMC:cid_58:tabcd_1:NextLocationCode" v="54414"/>
    <tag k="TMC:cid_58:tabcd_1:PrevLocationCode" v="10121"/>
    <tag k="highway" v="motorway_junction"/>
    <tag k="name" v="Stuckenbostel"/>
    <tag k="ref" v="50"/>
  </node>
  <node id="46441363" version="7" timestamp="2010-10-01T08:25:45Z" uid="33382" user="de_muur" changeset="5925864" lat="53.1072741" lon="9.1978045">
    <tag k="TMC:cid_58:tabcd_1:Class" v="Point"/>
    <tag k="TMC:cid_58:tabcd_1:Direction" v="positive"/>
    <tag k="TMC:cid_58:tabcd_1:LCLversion" v="8.00"/>
    <tag k="TMC:cid_58:tabcd_1:LocationCode" v="10122"/>
    <tag k="TMC:cid_58:tabcd_1:NextLocationCode" v="54414"/>
    <tag k="TMC:cid_58:tabcd_1:PrevLocationCode" v="10121"/>
    <tag k="highway" v="motorway_junction"/>
    <tag k="name" v="Stuckenbostel"/>
    <tag k="ref" v="50"/>
  </node>
  <node id="46441379" version="4" timestamp="2010-11-03T16:05:39Z" uid="33382" user="de_muur" changeset="6277282" lat="53.1093669" lon="9.201465"/>
</osm>
