<?xml version='1.0' encoding='UTF-8'?>
<osm version="0.6" generator="libosmium/2.20.0">
  <node id="465841080" version="1" timestamp="2009-08-14T17:14:28Z" uid="115477" user="wowik" changeset="2145473" lat="56.0461153" lon="37.1046083"/>
  <node id="465842433" version="1" timestamp="2009-08-14T17:14:43Z" uid="110593" user="esetzer" changeset="2145476" lat="39.6770981" lon="-111.8403216">
    <tag k="amenity" v="fuel"/>
    <tag k="created_by" v="Merkaartor 0.11"/>
    <tag k="name" v="Chevron"/>
  </node>
  <node id="465842492" version="1" timestamp="2009-08-14T17:14:44Z" uid="110593" user="esetzer" changeset="2145476" lat="39.6783567" lon="-111.8408226">
    <tag k="amenity" v="fuel"/>
    <tag k="created_by" v="Merkaartor 0.11"/>
    <tag k="name" v="Texaco"/>
  </node>
  <node id="465842548" version="1" timestamp="2009-08-14T17:14:44Z" uid="110593" user="esetzer" changeset="2145476" lat="39.677869" lon="-111.8400354">
    <tag k="amenity" v="fast_food"/>
    <tag k="created_by" v="Merkaartor 0.11"/>
    <tag k="cuisine" v="sandwich"/>
    <tag k="name" v="Subway"/>
  </node>
</osm>
