<?xml version='1.0' encoding='UTF-8'?>
<osm version="0.6" generator="libosmium/2.20.0">
  <node id="469991750" version="1" timestamp="2009-08-17T19:56:39Z" uid="36809" user="pfoten_weg_!_" changeset="2182657" lat="46.495873" lon="11.4646711">
    <tag k="discovered_by" v="RambaZamba"/>
    <tag k="is_in:city:de" v="Völs am Schlern"/>
    <tag k="is_in:city:it" v="Fiè allo Sciliar"/>
    <tag k="ist_in" v="Aica di Sotto"/>
    <tag k="name" v="Prackfolerhof"/>
    <tag k="source" v="survey"/>
    <tag k="tourism" v="chalet"/>
  </node>
  <node id="469991750" version="2" timestamp="2009-08-17T23:05:15Z" uid="36809" user="pfoten_weg_!_" changeset="2184278" lat="46.4958882" lon="11.4646491">
    <tag k="discovered_by" v="RambaZamba"/>
    <tag k="is_in:city:de" v="Völs am Schlern"/>
    <tag k="is_in:city:it" v="Fiè allo Sciliar"/>
    <tag k="ist_in" v="Aica di Sotto"/>
    <tag k="name" v="Prackfolerhof"/>
    <tag k="source" v="survey"/>
    <tag k="tourism" v="chalet"/>
  </node>
  <node id="469991750" version="3" timestamp="2009-08-17T23:38:12Z" uid="36809" user="pfoten_weg_!_" changeset="2184390" lat="46.4958882" lon="11.4646491">
    <tag k="building" v="yes"/>
    <tag k="discovered_by" v="RambaZamba"/>
    <tag k="is_in:city:de" v="Völs am Schlern"/>
    <tag k="is_in:city:it" v="Fiè allo Sciliar"/>
    <tag k="ist_in" v="Aica di Sotto"/>
    <tag k="name" v="Prackfolerhof"/>
    <tag k="source" v="survey"/>
    <tag k="tourism" v="chalet"/>
  </node>
  <node id="469991750" version="4" timestamp="2009-08-17T23:40:22Z" uid="36809" user="pfoten_weg_!_" changeset="2184395" lat="46.4958882" lon="11.4646491">
    <tag k="building" v="yes"/>
    <tag k="discovered_by" v="RambaZamba"/>
    <tag k="is_in:city:de" v="Völs am Schlern"/>
    <tag k="is_in:city:it" v="Fiè allo Sciliar"/>
    <tag k="ist_in" v="Aica di Sotto"/>
    <tag k="name" v="Prackfolerhof"/>
    <tag k="source" v="survey"/>
    <tag k="tourism" v="chalet"/>
  </node>
  <node id="469992831" version="4" timestamp="2009-08-21T21:05:02Z" uid="123700" user="Mala" changeset="2228713" lat="50.0535326" lon="19.9400707">
    <tag k="addr:housenumber" v="4"/>
    <tag k="addr:street" v="Stradomska"/>
    <tag k="amenity" v="place_of_worship"/>
    <tag k="denomination" v="catholic"/>
    <tag k="name" v="Kościół Nawrócenia Świętego Pawła (Kościół Ojców Misjonarzy)"/>
    <tag k="religion" v="christian"/>
    <tag k="wikipedia" v="pl:Kościół Nawrócenia św. Pawła w Krakowie"/>
  </node>
  <node id="469999807" version="2" timestamp="2010-02-16T14:57:14Z" uid="74027" user="katzlbt" changeset="3892705" lat="47.1121735" lon="11.3331887"/>
  <node id="469999817" version="2" timestamp="2010-02-16T14:57:14Z" uid="74027" user="katzlbt" changeset="3892705" lat="47.110965" lon="11.3348838"/>
  <node id="469999820" version="2" timestamp="2010-02-16T14:57:13Z" uid="74027" user="katzlbt" changeset="3892705" lat="47.1106218" lon="11.3351682"/>
  <node id="469999821" version="2" timestamp="2010-02-16T14:57:13Z" uid="74027" user="katzlbt" changeset="3892705" lat="47.1101764" lon="11.3355007"/>
  <node id="469999822" version="2" timestamp="2010-02-16T14:57:13Z" uid="74027" user="katzlbt" changeset="3892705" lat="47.1098113" lon="11.3356885"/>
  <node id="469999823" version="2" timestamp="2010-02-16T14:57:13Z" uid="74027" user="katzlbt" changeset="3892705" lat="47.1093768" lon="11.3358387"/>
  <node id="469999906" version="2" timestamp="2010-01-04T22:38:15Z" uid="74027" user="katzlbt" changeset="3541731" lat="47.0969499" lon="11.3367617"/>
</osm>
