<?xml version='1.0' encoding='UTF-8'?>
<osm version="0.6" generator="libosmium/2.20.0">
  <node id="470000030" version="4" timestamp="2009-12-21T09:21:16Z" uid="74027" user="katzlbt" changeset="3418724" lat="47.0748074" lon="11.3273082">
    <tag k="amenity" v="restaurant"/>
    <tag k="ele" v="1560"/>
    <tag k="name" v="Pinnisalm"/>
  </node>
  <node id="470000210" version="2" timestamp="2009-08-21T17:37:46Z" uid="123700" user="Mala" changeset="2226534" lat="50.0574911" lon="19.9437497">
    <tag k="amenity" v="theatre"/>
    <tag k="name" v="Teatr Kameralny"/>
  </node>
  <node id="470000587" version="2" timestamp="2009-09-09T12:40:15Z" uid="123700" user="Mala" changeset="2424887" lat="50.0630629" lon="19.9383467">
    <tag k="amenity" v="cinema"/>
    <tag k="name" v="Kino Sztuka"/>
  </node>
  <node id="470001030" version="2" timestamp="2009-08-20T16:57:35Z" uid="123700" user="Mala" changeset="2214490" lat="50.0640256" lon="19.9429665">
    <tag k="amenity" v="theatre"/>
    <tag k="name" v="Teatr imienia Juliusza Słowackiego"/>
    <tag k="name:en" v="Juliusz Słowacki Theatre"/>
    <tag k="wikipedia" v="Juliusz Słowacki Theatre"/>
    <tag k="wikipedia:pl" v="Teatr im. Juliusza Słowackiego w Krakowie"/>
  </node>
  <node id="470001030" version="3" timestamp="2009-08-20T20:50:19Z" uid="123700" user="Mala" changeset="2217150" lat="50.0640256" lon="19.9429665">
    <tag k="amenity" v="theatre"/>
    <tag k="name" v="Teatr imienia Juliusza Słowackiego"/>
    <tag k="name:en" v="Juliusz Słowacki Theatre"/>
    <tag k="wikipedia" v="pl:Teatr im. Juliusza Słowackiego w Krakowie"/>
  </node>
  <node id="470001328" version="2" timestamp="2009-08-21T17:37:46Z" uid="123700" user="Mala" changeset="2226534" lat="50.0576779" lon="19.9430523">
    <tag k="amenity" v="parking"/>
  </node>
  <node id="470002596" version="2" timestamp="2009-08-21T16:27:54Z" uid="123700" user="Mala" changeset="2225907" lat="50.0588797" lon="19.9328517">
    <tag k="addr:housenumber" v="1"/>
    <tag k="addr:street" v="Zwierzyniecka"/>
    <tag k="amenity" v="theatre"/>
    <tag k="name" v="Filharmonia Krakowska"/>
    <tag k="wikipedia" v="pl:Filharmonia Krakowska"/>
  </node>
  <node id="470003551" version="1" timestamp="2009-08-17T20:15:42Z" uid="20587" user="balrog-kun" changeset="2182877" lat="52.2305736" lon="21.05367"/>
  <node id="470003552" version="1" timestamp="2009-08-17T20:15:42Z" uid="20587" user="balrog-kun" changeset="2182877" lat="52.2321999" lon="21.0557597">
    <tag k="name" v="Portobello"/>
    <tag k="shop" v="souvenirs"/>
  </node>
  <node id="470003553" version="1" timestamp="2009-08-17T20:15:42Z" uid="20587" user="balrog-kun" changeset="2182877" lat="52.2325579" lon="21.0554606">
    <tag k="amenity" v="atm"/>
  </node>
  <node id="470003554" version="1" timestamp="2009-08-17T20:15:42Z" uid="20587" user="balrog-kun" changeset="2182877" lat="52.2327091" lon="21.055381">
    <tag k="amenity" v="cafe"/>
    <tag k="name" v="Ganders Herbaciarnia"/>
    <tag k="shop" v="tearoom"/>
  </node>
  <node id="470003555" version="1" timestamp="2009-08-17T20:15:42Z" uid="20587" user="balrog-kun" changeset="2182877" lat="52.2330805" lon="21.055167">
    <tag k="name" v="SELECT"/>
    <tag k="shop" v="supermarket"/>
  </node>
  <node id="470003556" version="1" timestamp="2009-08-17T20:15:42Z" uid="20587" user="balrog-kun" changeset="2182877" lat="52.2331965" lon="21.0554057">
    <tag k="name" v="La Cave de Bacchus"/>
    <tag k="shop" v="beverages"/>
  </node>
  <node id="470003557" version="1" timestamp="2009-08-17T20:15:42Z" uid="20587" user="balrog-kun" changeset="2182877" lat="52.2315111" lon="21.0560478">
    <tag k="historic" v="monument"/>
    <tag k="name" v="Pomnik Stefana Żeromskiego"/>
  </node>
  <node id="470003558" version="1" timestamp="2009-08-17T20:15:42Z" uid="20587" user="balrog-kun" changeset="2182877" lat="52.2333135" lon="21.0549155">
    <tag k="shop" v="kiosk"/>
  </node>
  <node id="470003559" version="1" timestamp="2009-08-17T20:15:42Z" uid="20587" user="balrog-kun" changeset="2182877" lat="52.2335438" lon="21.0548963">
    <tag k="shop" v="optician"/>
  </node>
  <node id="470003560" version="1" timestamp="2009-08-17T20:15:42Z" uid="20587" user="balrog-kun" changeset="2182877" lat="52.2332386" lon="21.0549823">
    <tag k="highway" v="crossing"/>
  </node>
  <node id="470003561" version="1" timestamp="2009-08-17T20:15:42Z" uid="20587" user="balrog-kun" changeset="2182877" lat="52.2332942" lon="21.0547608">
    <tag k="highway" v="crossing"/>
  </node>
  <node id="470003562" version="1" timestamp="2009-08-17T20:15:42Z" uid="20587" user="balrog-kun" changeset="2182877" lat="52.2331974" lon="21.0546712">
    <tag k="highway" v="crossing"/>
  </node>
  <node id="470003563" version="1" timestamp="2009-08-17T20:15:42Z" uid="20587" user="balrog-kun" changeset="2182877" lat="52.2343378" lon="21.0544362">
    <tag k="amenity" v="restaurant"/>
    <tag k="name" v="Rendez-Vous"/>
  </node>
  <node id="470003564" version="1" timestamp="2009-08-17T20:15:42Z" uid="20587" user="balrog-kun" changeset="2182877" lat="52.2341597" lon="21.0545377">
    <tag k="shop" v="florist"/>
  </node>
  <node id="470003565" version="1" timestamp="2009-08-17T20:15:42Z" uid="20587" user="balrog-kun" changeset="2182877" lat="52.2349272" lon="21.0513544">
    <tag k="amenity" v="restaurant"/>
    <tag k="cuisine" v="sushi"/>
    <tag k="name" v="Gugo Sushi"/>
  </node>
  <node id="470003566" version="1" timestamp="2009-08-17T20:15:42Z" uid="20587" user="balrog-kun" changeset="2182877" lat="52.2348585" lon="21.0533982">
    <tag k="amenity" v="taxi"/>
  </node>
  <node id="470003567" version="1" timestamp="2009-08-17T20:15:42Z" uid="20587" user="balrog-kun" changeset="2182877" lat="52.2351126" lon="21.0539882">
    <tag k="name" v="Afrykańska Nieruchomości"/>
    <tag k="shop" v="realestate"/>
  </node>
  <node id="470003568" version="1" timestamp="2009-08-17T20:15:43Z" uid="20587" user="balrog-kun" changeset="2182877" lat="52.2380265" lon="21.053017">
    <tag k="amenity" v="bank"/>
    <tag k="name" v="Lucas Bank"/>
    <tag k="operator" v="Lucas Bank"/>
  </node>
  <node id="470003569" version="1" timestamp="2009-08-17T20:15:43Z" uid="20587" user="balrog-kun" changeset="2182877" lat="52.2375749" lon="21.0527049">
    <tag k="amenity" v="bank"/>
    <tag k="name" v="Finance Bank"/>
  </node>
  <node id="470003569" version="2" timestamp="2009-11-12T18:11:24Z" uid="20587" user="balrog-kun" changeset="3100206" lat="52.2375749" lon="21.0527049">
    <tag k="amenity" v="bank"/>
    <tag k="name" v="Finamo"/>
    <tag k="operator" v="Finance Bank"/>
  </node>
  <node id="470003570" version="1" timestamp="2009-08-17T20:15:43Z" uid="20587" user="balrog-kun" changeset="2182877" lat="52.2372637" lon="21.0519712">
    <tag k="amenity" v="bank"/>
    <tag k="name" v="BGŻ"/>
  </node>
  <node id="470003571" version="1" timestamp="2009-08-17T20:15:43Z" uid="20587" user="balrog-kun" changeset="2182877" lat="52.2369343" lon="21.0520864">
    <tag k="amenity" v="bank"/>
    <tag k="name" v="BPH"/>
  </node>
  <node id="470003572" version="1" timestamp="2009-08-17T20:15:43Z" uid="20587" user="balrog-kun" changeset="2182877" lat="52.2368772" lon="21.0525968">
    <tag k="amenity" v="taxi"/>
  </node>
  <node id="470003574" version="1" timestamp="2009-08-17T20:15:43Z" uid="20587" user="balrog-kun" changeset="2182877" lat="52.2367005" lon="21.0529933">
    <tag k="amenity" v="cafe"/>
    <tag k="name" v="Verne Cafe"/>
  </node>
  <node id="470003577" version="1" timestamp="2009-08-17T20:15:44Z" uid="20587" user="balrog-kun" changeset="2182877" lat="52.2365088" lon="21.0530933">
    <tag k="amenity" v="cafe"/>
    <tag k="name" v="&quot;Lodziarnia&quot;"/>
    <tag k="shop" v="icecream"/>
  </node>
  <node id="470003579" version="1" timestamp="2009-08-17T20:15:44Z" uid="20587" user="balrog-kun" changeset="2182877" lat="52.2363384" lon="21.0531905">
    <tag k="name" v="Dyspensa"/>
    <tag k="shop" v="beverages"/>
  </node>
  <node id="470003582" version="1" timestamp="2009-08-17T20:15:44Z" uid="20587" user="balrog-kun" changeset="2182877" lat="52.235845" lon="21.0535387">
    <tag k="amenity" v="bar"/>
    <tag k="name" v="Pub Na Francuskiej"/>
  </node>
  <node id="470008283" version="3" timestamp="2011-04-26T21:17:20Z" uid="9581" user="Lobelt" changeset="7979909" lat="49.8634889" lon="7.3449181"/>
</osm>
