<?xml version='1.0' encoding='UTF-8'?>
<osm version="0.6" generator="libosmium/2.20.0">
  <node id="470676340" version="3" timestamp="2009-10-02T17:07:33Z" uid="86259" user="hasse_osm_korinthenkacker" changeset="2715119" lat="47.9066113" lon="11.4252525">
    <tag k="power" v="tower"/>
    <tag k="ref" v="1863"/>
    <tag k="source_ref" v="extrapolation"/>
  </node>
  <node id="470676340" version="4" timestamp="2009-10-02T18:16:39Z" uid="86259" user="hasse_osm_korinthenkacker" changeset="2715119" lat="47.9066113" lon="11.4252525">
    <tag k="power" v="tower"/>
    <tag k="ref" v="1863"/>
    <tag k="source_ref" v="extrapolation"/>
  </node>
  <node id="470676340" version="5" timestamp="2009-10-02T18:20:11Z" uid="86259" user="hasse_osm_korinthenkacker" changeset="2715119" lat="47.9066113" lon="11.4252525">
    <tag k="power" v="tower"/>
    <tag k="ref" v="1863"/>
    <tag k="source_ref" v="extrapolation"/>
  </node>
  <node id="470676340" version="6" timestamp="2009-10-02T18:32:04Z" uid="86259" user="hasse_osm_korinthenkacker" changeset="2715119" lat="47.9066113" lon="11.4252525">
    <tag k="power" v="tower"/>
    <tag k="ref" v="1863"/>
    <tag k="source_ref" v="extrapolation"/>
  </node>
  <node id="470676340" version="7" timestamp="2009-10-02T18:37:57Z" uid="86259" user="hasse_osm_korinthenkacker" changeset="2716042" lat="47.9066113" lon="11.4252525">
    <tag k="power" v="tower"/>
    <tag k="ref" v="1863"/>
    <tag k="source_ref" v="extrapolation"/>
  </node>
  <node id="470676340" version="8" timestamp="2009-10-02T18:39:52Z" uid="86259" user="hasse_osm_korinthenkacker" changeset="2716042" lat="47.9066113" lon="11.4252525">
    <tag k="power" v="tower"/>
    <tag k="ref" v="1863"/>
    <tag k="source_ref" v="extrapolation"/>
  </node>
  <node id="470676340" version="9" timestamp="2009-10-02T18:44:03Z" uid="86259" user="hasse_osm_korinthenkacker" changeset="2716042" lat="47.9066113" lon="11.4252525">
    <tag k="power" v="tower"/>
    <tag k="ref" v="1863"/>
    <tag k="source_ref" v="extrapolation"/>
  </node>
  <node id="470676540" version="2" timestamp="2009-10-02T17:07:49Z" uid="86259" user="hasse_osm_korinthenkacker" changeset="2715119" lat="47.89176" lon="11.4362079">
    <tag k="power" v="tower"/>
    <tag k="ref" v="1856"/>
  </node>
  <node id="470676540" version="3" timestamp="2009-10-02T18:17:19Z" uid="86259" user="hasse_osm_korinthenkacker" changeset="2715119" lat="47.89176" lon="11.4362079">
    <tag k="power" v="tower"/>
    <tag k="ref" v="1856"/>
  </node>
  <node id="470676540" version="4" timestamp="2009-10-02T18:20:39Z" uid="86259" user="hasse_osm_korinthenkacker" changeset="2715119" lat="47.89176" lon="11.4362079">
    <tag k="power" v="tower"/>
    <tag k="ref" v="1856"/>
  </node>
  <node id="470676554" version="2" timestamp="2009-10-02T17:07:49Z" uid="86259" user="hasse_osm_korinthenkacker" changeset="2715119" lat="47.8993288" lon="11.4277391">
    <tag k="power" v="tower"/>
    <tag k="ref" v="1860"/>
  </node>
  <node id="470676554" version="3" timestamp="2009-10-02T18:17:19Z" uid="86259" user="hasse_osm_korinthenkacker" changeset="2715119" lat="47.8993288" lon="11.4277391">
    <tag k="power" v="tower"/>
    <tag k="ref" v="1860"/>
  </node>
  <node id="470676554" version="4" timestamp="2009-10-02T18:20:39Z" uid="86259" user="hasse_osm_korinthenkacker" changeset="2715119" lat="47.8993288" lon="11.4277391">
    <tag k="power" v="tower"/>
    <tag k="ref" v="1860"/>
  </node>
  <node id="470676582" version="2" timestamp="2009-10-02T17:07:48Z" uid="86259" user="hasse_osm_korinthenkacker" changeset="2715119" lat="47.8954872" lon="11.4320381">
    <tag k="power" v="tower"/>
    <tag k="ref" v="1858"/>
  </node>
  <node id="470676582" version="3" timestamp="2009-10-02T18:17:18Z" uid="86259" user="hasse_osm_korinthenkacker" changeset="2715119" lat="47.8954872" lon="11.4320381">
    <tag k="power" v="tower"/>
    <tag k="ref" v="1858"/>
  </node>
  <node id="470676582" version="4" timestamp="2009-10-02T18:20:38Z" uid="86259" user="hasse_osm_korinthenkacker" changeset="2715119" lat="47.8954872" lon="11.4320381">
    <tag k="power" v="tower"/>
    <tag k="ref" v="1858"/>
  </node>
  <node id="470676587" version="2" timestamp="2009-10-02T17:07:49Z" uid="86259" user="hasse_osm_korinthenkacker" changeset="2715119" lat="47.8935604" lon="11.4341835">
    <tag k="power" v="tower"/>
    <tag k="ref" v="1857"/>
  </node>
  <node id="470676587" version="3" timestamp="2009-10-02T18:17:18Z" uid="86259" user="hasse_osm_korinthenkacker" changeset="2715119" lat="47.8935604" lon="11.4341835">
    <tag k="power" v="tower"/>
    <tag k="ref" v="1857"/>
  </node>
  <node id="470676587" version="4" timestamp="2009-10-02T18:20:38Z" uid="86259" user="hasse_osm_korinthenkacker" changeset="2715119" lat="47.8935604" lon="11.4341835">
    <tag k="power" v="tower"/>
    <tag k="ref" v="1857"/>
  </node>
  <node id="470676594" version="2" timestamp="2009-10-02T17:07:48Z" uid="86259" user="hasse_osm_korinthenkacker" changeset="2715119" lat="47.897729" lon="11.4295031">
    <tag k="power" v="tower"/>
    <tag k="ref" v="1859"/>
  </node>
  <node id="470676594" version="3" timestamp="2009-10-02T18:17:17Z" uid="86259" user="hasse_osm_korinthenkacker" changeset="2715119" lat="47.897729" lon="11.4295031">
    <tag k="power" v="tower"/>
    <tag k="ref" v="1859"/>
  </node>
  <node id="470676594" version="4" timestamp="2009-10-02T18:20:37Z" uid="86259" user="hasse_osm_korinthenkacker" changeset="2715119" lat="47.897729" lon="11.4295031">
    <tag k="power" v="tower"/>
    <tag k="ref" v="1859"/>
  </node>
  <node id="470676606" version="2" timestamp="2009-11-06T11:05:56Z" uid="36809" user="pfoten_weg_!_" changeset="3047170" lat="47.8923391" lon="11.4361603">
    <tag k="power" v="tower"/>
    <tag k="ref" v="A6"/>
  </node>
  <node id="470676614" version="2" timestamp="2009-11-06T11:05:53Z" uid="36809" user="pfoten_weg_!_" changeset="3047170" lat="47.8907837" lon="11.4353282">
    <tag k="power" v="tower"/>
    <tag k="ref" v="A7"/>
  </node>
  <node id="470676655" version="2" timestamp="2009-10-02T17:07:32Z" uid="86259" user="hasse_osm_korinthenkacker" changeset="2715119" lat="47.9028594" lon="11.4242812">
    <tag k="power" v="tower"/>
    <tag k="ref" v="1862"/>
  </node>
  <node id="470676655" version="3" timestamp="2009-10-02T18:16:37Z" uid="86259" user="hasse_osm_korinthenkacker" changeset="2715119" lat="47.9028594" lon="11.4242812">
    <tag k="power" v="tower"/>
    <tag k="ref" v="1862"/>
  </node>
  <node id="470676655" version="4" timestamp="2009-10-02T18:20:08Z" uid="86259" user="hasse_osm_korinthenkacker" changeset="2715119" lat="47.9028594" lon="11.4242812">
    <tag k="power" v="tower"/>
    <tag k="ref" v="1862"/>
  </node>
  <node id="470676655" version="5" timestamp="2009-10-02T18:32:03Z" uid="86259" user="hasse_osm_korinthenkacker" changeset="2715119" lat="47.9028594" lon="11.4242812">
    <tag k="power" v="tower"/>
    <tag k="ref" v="1862"/>
  </node>
  <node id="470676655" version="6" timestamp="2009-10-02T18:37:55Z" uid="86259" user="hasse_osm_korinthenkacker" changeset="2716042" lat="47.9028594" lon="11.4242812">
    <tag k="power" v="tower"/>
    <tag k="ref" v="1862"/>
  </node>
  <node id="470676655" version="7" timestamp="2009-10-02T18:39:50Z" uid="86259" user="hasse_osm_korinthenkacker" changeset="2716042" lat="47.9028594" lon="11.4242812">
    <tag k="power" v="tower"/>
    <tag k="ref" v="1862"/>
  </node>
  <node id="470676655" version="8" timestamp="2009-10-02T18:44:02Z" uid="86259" user="hasse_osm_korinthenkacker" changeset="2716042" lat="47.9028594" lon="11.4242812">
    <tag k="power" v="tower"/>
    <tag k="ref" v="1862"/>
  </node>
</osm>
