<?xml version='1.0' encoding='UTF-8'?>
<osm version="0.6" generator="libosmium/2.20.0">
  <node id="471590069" version="2" timestamp="2011-04-16T23:59:32Z" uid="7617" user="Franc" changeset="7883169" lat="-33.7053025" lon="150.320479"/>
  <node id="471590070" version="2" timestamp="2011-04-16T23:58:56Z" uid="7617" user="Franc" changeset="7883169" lat="-33.7055815" lon="150.3201842"/>
  <node id="471590071" version="2" timestamp="2011-04-16T23:58:50Z" uid="7617" user="Franc" changeset="7883169" lat="-33.7056877" lon="150.319053"/>
  <node id="471590072" version="2" timestamp="2010-03-26T21:44:16Z" uid="30201" user="rrankin" changeset="4242252" lat="-33.7057055" lon="150.3186133"/>
  <node id="471590073" version="2" timestamp="2010-03-26T21:44:16Z" uid="30201" user="rrankin" changeset="4242252" lat="-33.7057053" lon="150.3182571"/>
  <node id="471590074" version="2" timestamp="2010-03-26T21:44:16Z" uid="30201" user="rrankin" changeset="4242252" lat="-33.7056388" lon="150.3181621"/>
  <node id="471590074" version="3" timestamp="2011-04-16T23:59:35Z" uid="7617" user="Franc" changeset="7883169" lat="-33.7056533" lon="150.3181854"/>
  <node id="471590075" version="2" timestamp="2010-03-26T21:44:17Z" uid="30201" user="rrankin" changeset="4242252" lat="-33.7038037" lon="150.320839"/>
  <node id="471590102" version="1" timestamp="2009-08-20T18:44:51Z" uid="110593" user="esetzer" changeset="2215667" lat="40.7258022" lon="-111.9249113">
    <tag k="created_by" v="Merkaartor 0.11"/>
  </node>
  <node id="471590103" version="1" timestamp="2009-08-20T18:44:51Z" uid="110593" user="esetzer" changeset="2215667" lat="40.7258022" lon="-111.925475">
    <tag k="created_by" v="Merkaartor 0.11"/>
  </node>
  <node id="471590104" version="1" timestamp="2009-08-20T18:44:52Z" uid="110593" user="esetzer" changeset="2215667" lat="40.7251835" lon="-111.9248335">
    <tag k="created_by" v="Merkaartor 0.11"/>
  </node>
  <node id="471590105" version="1" timestamp="2009-08-20T18:44:53Z" uid="110593" user="esetzer" changeset="2215667" lat="40.7258154" lon="-111.9233105">
    <tag k="created_by" v="Merkaartor 0.11"/>
  </node>
  <node id="471590109" version="1" timestamp="2009-08-20T18:44:54Z" uid="110593" user="esetzer" changeset="2215667" lat="40.7254913" lon="-111.9233105">
    <tag k="created_by" v="Merkaartor 0.11"/>
  </node>
  <node id="471590111" version="1" timestamp="2009-08-20T18:44:54Z" uid="110593" user="esetzer" changeset="2215667" lat="40.725506" lon="-111.9240103">
    <tag k="created_by" v="Merkaartor 0.11"/>
  </node>
  <node id="471590112" version="1" timestamp="2009-08-20T18:44:55Z" uid="110593" user="esetzer" changeset="2215667" lat="40.7248872" lon="-111.9239909">
    <tag k="created_by" v="Merkaartor 0.11"/>
  </node>
  <node id="471590114" version="1" timestamp="2009-08-20T18:44:56Z" uid="110593" user="esetzer" changeset="2215667" lat="40.7247841" lon="-111.9243214">
    <tag k="created_by" v="Merkaartor 0.11"/>
  </node>
  <node id="471590115" version="1" timestamp="2009-08-20T18:44:57Z" uid="110593" user="esetzer" changeset="2215667" lat="40.7248725" lon="-111.9233299">
    <tag k="created_by" v="Merkaartor 0.11"/>
  </node>
  <node id="471590475" version="5" timestamp="2010-04-11T04:48:25Z" uid="20587" user="balrog-kun" changeset="4389130" lat="52.5634566" lon="14.8056831">
    <tag k="is_in" v="Gorzów Wielkopolski"/>
    <tag k="name" v="Słońsk"/>
    <tag k="name:de" v="Slonsk (ehem. Sonnenburg)"/>
    <tag k="name:en" v="Slonsk"/>
    <tag k="old_name" v="Sonnenburg"/>
    <tag k="place" v="village"/>
  </node>
  <node id="471590475" version="6" timestamp="2010-04-27T03:59:49Z" uid="30632" user="antblant" changeset="4537857" lat="52.5634566" lon="14.8056831">
    <tag k="is_in" v="Gorzów Wielkopolski"/>
    <tag k="name" v="Słońsk"/>
    <tag k="name:de" v="Slonsk (ehem. Sonnenburg)"/>
    <tag k="name:en" v="Slonsk"/>
    <tag k="old_name" v="Sonnenburg"/>
    <tag k="place" v="village"/>
    <tag k="teryt:simc" v="0187062"/>
  </node>
  <node id="471590849" version="3" timestamp="2009-12-24T03:52:00Z" uid="6975" user="ulfl" changeset="3439797" lat="47.9858408" lon="8.8039895">
    <tag k="highway" v="bus_stop"/>
    <tag k="name" v="Schulzentrum B14"/>
  </node>
  <node id="471590851" version="3" timestamp="2009-12-24T03:52:00Z" uid="6975" user="ulfl" changeset="3439797" lat="47.9861159" lon="8.8036399">
    <tag k="highway" v="bus_stop"/>
    <tag k="name" v="Schulzentrum B14"/>
  </node>
  <node id="471591325" version="1" timestamp="2009-08-20T18:49:34Z" uid="110593" user="esetzer" changeset="2215724" lat="40.7274359" lon="-111.9165259">
    <tag k="created_by" v="Merkaartor 0.11"/>
  </node>
  <node id="471591333" version="1" timestamp="2009-08-20T18:49:35Z" uid="110593" user="esetzer" changeset="2215724" lat="40.7274507" lon="-111.9140182">
    <tag k="created_by" v="Merkaartor 0.11"/>
  </node>
  <node id="471591337" version="1" timestamp="2009-08-20T18:49:35Z" uid="110593" user="esetzer" changeset="2215724" lat="40.7265373" lon="-111.9140376">
    <tag k="created_by" v="Merkaartor 0.11"/>
  </node>
  <node id="471591345" version="1" timestamp="2009-08-20T18:49:38Z" uid="110593" user="esetzer" changeset="2215724" lat="40.7268908" lon="-111.9160983">
    <tag k="amenity" v="fuel"/>
    <tag k="created_by" v="Merkaartor 0.11"/>
  </node>
  <node id="471591346" version="1" timestamp="2009-08-20T18:49:38Z" uid="110593" user="esetzer" changeset="2215724" lat="40.7262721" lon="-111.9161177">
    <tag k="amenity" v="fuel"/>
    <tag k="created_by" v="Merkaartor 0.11"/>
  </node>
  <node id="471591347" version="1" timestamp="2009-08-20T18:49:39Z" uid="110593" user="esetzer" changeset="2215724" lat="40.7264341" lon="-111.914893">
    <tag k="amenity" v="restaurant"/>
    <tag k="created_by" v="Merkaartor 0.11"/>
  </node>
  <node id="471591420" version="2" timestamp="2010-03-30T11:59:12Z" uid="7617" user="Franc" changeset="4275975" lat="-33.7115481" lon="150.337921">
    <tag k="man_made" v="water_tower"/>
  </node>
  <node id="471591421" version="2" timestamp="2010-03-30T11:59:13Z" uid="7617" user="Franc" changeset="4275975" lat="-33.7114019" lon="150.3376505">
    <tag k="man_made" v="water_tower"/>
  </node>
  <node id="471591516" version="2" timestamp="2009-09-30T16:12:14Z" uid="36809" user="pfoten_weg_!_" changeset="2690373" lat="47.8416451" lon="11.2077315">
    <tag k="power" v="tower"/>
    <tag k="ref" v="182"/>
  </node>
  <node id="471591524" version="2" timestamp="2009-09-30T16:12:14Z" uid="36809" user="pfoten_weg_!_" changeset="2690373" lat="47.8425396" lon="11.2079659">
    <tag k="power" v="tower"/>
    <tag k="ref" v="75"/>
  </node>
  <node id="471591528" version="2" timestamp="2009-09-30T16:12:18Z" uid="36809" user="pfoten_weg_!_" changeset="2690373" lat="47.8502472" lon="11.213542">
    <tag k="power" v="tower"/>
    <tag k="ref" v="188"/>
  </node>
  <node id="471591534" version="2" timestamp="2009-09-30T16:12:16Z" uid="36809" user="pfoten_weg_!_" changeset="2690373" lat="47.8459003" lon="11.2105905">
    <tag k="power" v="tower"/>
    <tag k="ref" v="185"/>
  </node>
  <node id="471591539" version="2" timestamp="2009-09-30T16:12:17Z" uid="36809" user="pfoten_weg_!_" changeset="2690373" lat="47.8473107" lon="11.2115887">
    <tag k="power" v="tower"/>
    <tag k="ref" v="186"/>
  </node>
  <node id="471591543" version="2" timestamp="2009-09-30T16:12:18Z" uid="36809" user="pfoten_weg_!_" changeset="2690373" lat="47.8487597" lon="11.2125725">
    <tag k="power" v="tower"/>
    <tag k="ref" v="187"/>
  </node>
  <node id="471591551" version="2" timestamp="2009-09-30T16:11:59Z" uid="36809" user="pfoten_weg_!_" changeset="2690373" lat="47.8347081" lon="11.2030667">
    <tag k="power" v="tower"/>
    <tag k="ref" v="177"/>
  </node>
  <node id="471591558" version="2" timestamp="2009-09-30T16:12:00Z" uid="36809" user="pfoten_weg_!_" changeset="2690373" lat="47.8374786" lon="11.2049127">
    <tag k="power" v="tower"/>
    <tag k="ref" v="179"/>
  </node>
  <node id="471591561" version="2" timestamp="2009-09-30T16:12:00Z" uid="36809" user="pfoten_weg_!_" changeset="2690373" lat="47.838177" lon="11.2050288">
    <tag k="power" v="tower"/>
    <tag k="ref" v="73"/>
  </node>
  <node id="471591569" version="2" timestamp="2009-09-30T16:12:01Z" uid="36809" user="pfoten_weg_!_" changeset="2690373" lat="47.8388383" lon="11.2058388">
    <tag k="power" v="tower"/>
    <tag k="ref" v="180"/>
  </node>
  <node id="471591588" version="2" timestamp="2009-09-30T16:12:14Z" uid="36809" user="pfoten_weg_!_" changeset="2690373" lat="47.8402417" lon="11.2067851">
    <tag k="power" v="tower"/>
    <tag k="ref" v="181"/>
  </node>
  <node id="471591594" version="2" timestamp="2009-09-30T16:12:14Z" uid="36809" user="pfoten_weg_!_" changeset="2690373" lat="47.8403877" lon="11.2064868">
    <tag k="power" v="tower"/>
    <tag k="ref" v="74"/>
  </node>
  <node id="471591598" version="2" timestamp="2009-09-30T16:12:15Z" uid="36809" user="pfoten_weg_!_" changeset="2690373" lat="47.8430086" lon="11.2086583">
    <tag k="power" v="tower"/>
    <tag k="ref" v="183"/>
  </node>
  <node id="471591614" version="2" timestamp="2009-09-30T16:13:11Z" uid="36809" user="pfoten_weg_!_" changeset="2690373" lat="47.8615088" lon="11.22111">
    <tag k="power" v="tower"/>
    <tag k="ref" v="195"/>
  </node>
  <node id="471591640" version="2" timestamp="2009-09-30T16:13:10Z" uid="36809" user="pfoten_weg_!_" changeset="2690373" lat="47.859478" lon="11.2197425">
    <tag k="power" v="tower"/>
    <tag k="ref" v="194"/>
  </node>
  <node id="471591644" version="2" timestamp="2009-09-30T16:12:20Z" uid="36809" user="pfoten_weg_!_" changeset="2690373" lat="47.8517858" lon="11.2145754">
    <tag k="power" v="tower"/>
    <tag k="ref" v="189"/>
  </node>
  <node id="471591652" version="2" timestamp="2009-09-30T16:12:20Z" uid="36809" user="pfoten_weg_!_" changeset="2690373" lat="47.8533243" lon="11.2156088">
    <tag k="power" v="tower"/>
    <tag k="ref" v="190"/>
  </node>
  <node id="471591661" version="2" timestamp="2009-09-30T16:12:20Z" uid="36809" user="pfoten_weg_!_" changeset="2690373" lat="47.8548628" lon="11.2166422">
    <tag k="power" v="tower"/>
    <tag k="ref" v="191"/>
  </node>
  <node id="471591670" version="2" timestamp="2009-09-30T16:12:21Z" uid="36809" user="pfoten_weg_!_" changeset="2690373" lat="47.8564012" lon="11.2176756">
    <tag k="power" v="tower"/>
    <tag k="ref" v="192"/>
  </node>
  <node id="471591673" version="2" timestamp="2009-09-30T16:13:10Z" uid="36809" user="pfoten_weg_!_" changeset="2690373" lat="47.8579396" lon="11.2187091">
    <tag k="power" v="tower"/>
    <tag k="ref" v="193"/>
  </node>
  <node id="471592753" version="1" timestamp="2009-08-20T18:52:50Z" uid="110593" user="esetzer" changeset="2215769" lat="40.7130325" lon="-111.903327">
    <tag k="amenity" v="studio"/>
    <tag k="created_by" v="Merkaartor 0.11"/>
    <tag k="name" v="KUPX"/>
  </node>
  <node id="471593885" version="1" timestamp="2009-08-20T18:56:30Z" uid="99207" user="Lar Kiesel" changeset="2215818" lat="34.0172448" lon="-81.4101603">
    <tag k="addr:city" v="Gilbert, SC"/>
    <tag k="addr:housenumber" v="2600"/>
    <tag k="addr:postcode" v="29054"/>
    <tag k="addr:street" v="Highway 378"/>
    <tag k="name" v="Quick Stop"/>
    <tag k="shop" v="convenience"/>
  </node>
  <node id="471593885" version="2" timestamp="2010-04-25T14:48:45Z" uid="99207" user="Lar Kiesel" changeset="4522225" lat="34.0172449" lon="-81.4101603">
    <tag k="addr:city" v="Gilbert, SC"/>
    <tag k="addr:housenumber" v="2600"/>
    <tag k="addr:postcode" v="29054"/>
    <tag k="addr:street" v="Highway 378"/>
    <tag k="name" v="Quick Stop"/>
    <tag k="phone" v="803-892-6581"/>
    <tag k="shop" v="convenience"/>
  </node>
  <node id="471593885" version="3" timestamp="2011-03-07T01:06:12Z" uid="99207" user="Lar Kiesel" changeset="7480230" lat="34.0172113" lon="-81.4101395">
    <tag k="addr:city" v="Gilbert, SC"/>
    <tag k="addr:housenumber" v="2600"/>
    <tag k="addr:postcode" v="29054"/>
    <tag k="addr:street" v="Highway 378"/>
    <tag k="amenity" v="fuel"/>
    <tag k="brand" v="Mobil"/>
    <tag k="name" v="Quick Stop"/>
    <tag k="phone" v="803-892-6581"/>
    <tag k="shop" v="convenience"/>
  </node>
  <node id="471593885" version="4" timestamp="2011-03-07T01:14:20Z" uid="99207" user="Lar Kiesel" changeset="7480260" lat="34.0172006" lon="-81.4101108">
    <tag k="addr:city" v="Gilbert, SC"/>
    <tag k="addr:housenumber" v="2600"/>
    <tag k="addr:postcode" v="29054"/>
    <tag k="addr:street" v="Highway 378"/>
    <tag k="amenity" v="fuel"/>
    <tag k="brand" v="Mobil"/>
    <tag k="name" v="Mobil"/>
    <tag k="operator" v="Quick Stop"/>
    <tag k="phone" v="803-892-6581"/>
    <tag k="shop" v="convenience"/>
  </node>
  <node id="471593886" version="1" timestamp="2009-08-20T18:56:30Z" uid="99207" user="Lar Kiesel" changeset="2215818" lat="34.0168464" lon="-81.4095853">
    <tag k="addr:city" v="Gilbert, SC"/>
    <tag k="addr:housenumber" v="2568"/>
    <tag k="addr:postcode" v="29054"/>
    <tag k="addr:street" v="Highway 378"/>
    <tag k="name" v="BP Station"/>
    <tag k="shop" v="convenience"/>
  </node>
  <node id="471593886" version="2" timestamp="2011-03-07T01:06:10Z" uid="99207" user="Lar Kiesel" changeset="7480230" lat="34.01682" lon="-81.4095709">
    <tag k="addr:city" v="Gilbert, SC"/>
    <tag k="addr:housenumber" v="2568"/>
    <tag k="addr:postcode" v="29054"/>
    <tag k="addr:street" v="Highway 378"/>
    <tag k="amenity" v="fuel"/>
    <tag k="brand" v="BP"/>
    <tag k="name" v="BP Station"/>
    <tag k="shop" v="convenience"/>
  </node>
  <node id="471593887" version="1" timestamp="2009-08-20T18:56:31Z" uid="99207" user="Lar Kiesel" changeset="2215818" lat="34.0177499" lon="-81.4104436"/>
  <node id="471593888" version="1" timestamp="2009-08-20T18:56:31Z" uid="99207" user="Lar Kiesel" changeset="2215818" lat="34.0170029" lon="-81.4108384"/>
  <node id="471593888" version="2" timestamp="2010-04-25T14:48:46Z" uid="99207" user="Lar Kiesel" changeset="4522225" lat="34.0169747" lon="-81.41086"/>
  <node id="471593889" version="1" timestamp="2009-08-20T18:56:31Z" uid="99207" user="Lar Kiesel" changeset="2215818" lat="34.0163555" lon="-81.4092248"/>
  <node id="471593889" version="2" timestamp="2010-04-25T14:48:46Z" uid="99207" user="Lar Kiesel" changeset="4522225" lat="34.0163255" lon="-81.4092346"/>
  <node id="471593890" version="1" timestamp="2009-08-20T18:56:31Z" uid="99207" user="Lar Kiesel" changeset="2215818" lat="34.0172092" lon="-81.4088729"/>
  <node id="471594984" version="1" timestamp="2009-08-20T18:59:30Z" uid="110593" user="esetzer" changeset="2215856" lat="40.6597205" lon="-111.902168">
    <tag k="amenity" v="college"/>
    <tag k="created_by" v="Merkaartor 0.11"/>
    <tag k="name" v="Stevens-Henager College"/>
  </node>
  <node id="471596657" version="5" timestamp="2010-01-27T13:29:31Z" uid="115477" user="wowik" changeset="3728002" lat="55.5718991" lon="39.545772">
    <tag k="amenity" v="fuel"/>
    <tag k="highway" v="services"/>
    <tag k="name" v="АЗС"/>
  </node>
  <node id="471596658" version="4" timestamp="2010-01-27T13:30:12Z" uid="115477" user="wowik" changeset="3728007" lat="55.5687495" lon="39.5453595">
    <tag k="amenity" v="fuel"/>
    <tag k="highway" v="services"/>
    <tag k="name" v="АЗС"/>
  </node>
  <node id="471596659" version="3" timestamp="2010-01-27T13:31:50Z" uid="115477" user="wowik" changeset="3728019" lat="55.5753555" lon="39.5119335">
    <tag k="amenity" v="fuel"/>
    <tag k="highway" v="services"/>
    <tag k="name" v="АЗС"/>
  </node>
  <node id="471596782" version="1" timestamp="2009-08-20T19:03:29Z" uid="99207" user="Lar Kiesel" changeset="2215818" lat="34.0268272" lon="-81.4656155">
    <tag k="addr:city" v="Leesville, SC"/>
    <tag k="addr:housenumber" v="3860"/>
    <tag k="addr:postcode" v="29070"/>
    <tag k="addr:street" v="Highway 378"/>
    <tag k="name" v="378 Food Mart"/>
    <tag k="shop" v="convenience"/>
  </node>
  <node id="471596782" version="2" timestamp="2009-09-01T23:05:24Z" uid="99207" user="Lar Kiesel" changeset="2343835" lat="34.0268232" lon="-81.4656145">
    <tag k="addr:city" v="Leesville, SC"/>
    <tag k="addr:housenumber" v="3860"/>
    <tag k="addr:postcode" v="29070"/>
    <tag k="addr:street" v="Highway 378"/>
    <tag k="name" v="378 Food Mart"/>
    <tag k="phone" v="803-532-7207"/>
    <tag k="shop" v="convenience"/>
  </node>
  <node id="471596782" version="3" timestamp="2011-03-07T01:06:12Z" uid="99207" user="Lar Kiesel" changeset="7480230" lat="34.0267883" lon="-81.4656398">
    <tag k="addr:city" v="Leesville, SC"/>
    <tag k="addr:housenumber" v="3860"/>
    <tag k="addr:postcode" v="29070"/>
    <tag k="addr:street" v="Highway 378"/>
    <tag k="amenity" v="fuel"/>
    <tag k="brand" v="Phillips 66"/>
    <tag k="fuel:diesel" v="yes"/>
    <tag k="name" v="Palemetto C-Store #2"/>
    <tag k="phone" v="803-532-7207"/>
    <tag k="shop" v="convenience"/>
  </node>
  <node id="471596782" version="4" timestamp="2011-03-07T01:14:19Z" uid="99207" user="Lar Kiesel" changeset="7480260" lat="34.0267642" lon="-81.4656486">
    <tag k="addr:city" v="Leesville, SC"/>
    <tag k="addr:housenumber" v="3860"/>
    <tag k="addr:postcode" v="29070"/>
    <tag k="addr:street" v="Highway 378"/>
    <tag k="amenity" v="fuel"/>
    <tag k="brand" v="Phillips 66"/>
    <tag k="fuel:diesel" v="yes"/>
    <tag k="name" v="Phillips 66"/>
    <tag k="operator" v="Palemetto C-Store #2"/>
    <tag k="phone" v="803-532-7207"/>
    <tag k="shop" v="convenience"/>
  </node>
  <node id="471596988" version="1" timestamp="2009-08-20T19:05:05Z" uid="110593" user="esetzer" changeset="2215925" lat="40.6306259" lon="-111.890658">
    <tag k="created_by" v="Merkaartor 0.11"/>
  </node>
  <node id="471596989" version="1" timestamp="2009-08-20T19:05:07Z" uid="110593" user="esetzer" changeset="2215925" lat="40.6281958" lon="-111.8901919">
    <tag k="created_by" v="Merkaartor 0.11"/>
    <tag k="shop" v="car_repair"/>
  </node>
  <node id="471596990" version="1" timestamp="2009-08-20T19:05:08Z" uid="110593" user="esetzer" changeset="2215925" lat="40.6278311" lon="-111.8902211">
    <tag k="created_by" v="Merkaartor 0.11"/>
    <tag k="shop" v="car_repair"/>
  </node>
  <node id="471597572" version="1" timestamp="2009-08-20T19:06:40Z" uid="110593" user="esetzer" changeset="2215939" lat="40.6292121" lon="-111.8892859">
    <tag k="created_by" v="Merkaartor 0.11"/>
  </node>
  <node id="471597573" version="1" timestamp="2009-08-20T19:06:40Z" uid="110593" user="esetzer" changeset="2215939" lat="40.6292075" lon="-111.8897097">
    <tag k="created_by" v="Merkaartor 0.11"/>
  </node>
  <node id="471597575" version="1" timestamp="2009-08-20T19:06:41Z" uid="110593" user="esetzer" changeset="2215939" lat="40.6283498" lon="-111.889765">
    <tag k="created_by" v="Merkaartor 0.11"/>
  </node>
  <node id="471598454" version="2" timestamp="2010-09-08T19:12:02Z" uid="9581" user="Lobelt" changeset="5726960" lat="49.4618697" lon="8.620142"/>
  <node id="471599202" version="1" timestamp="2009-08-20T19:10:48Z" uid="110593" user="esetzer" changeset="2215997" lat="40.620709" lon="-111.8905824">
    <tag k="created_by" v="Merkaartor 0.11"/>
  </node>
  <node id="471599214" version="1" timestamp="2009-08-20T19:10:49Z" uid="110593" user="esetzer" changeset="2215997" lat="40.6193078" lon="-111.8906486">
    <tag k="created_by" v="Merkaartor 0.11"/>
  </node>
  <node id="471599221" version="1" timestamp="2009-08-20T19:10:50Z" uid="110593" user="esetzer" changeset="2215997" lat="40.6193279" lon="-111.8935268">
    <tag k="created_by" v="Merkaartor 0.11"/>
  </node>
  <node id="471599231" version="1" timestamp="2009-08-20T19:10:50Z" uid="110593" user="esetzer" changeset="2215997" lat="40.6204629" lon="-111.8935467">
    <tag k="created_by" v="Merkaartor 0.11"/>
  </node>
  <node id="471599237" version="1" timestamp="2009-08-20T19:10:51Z" uid="110593" user="esetzer" changeset="2215997" lat="40.6205232" lon="-111.8917734">
    <tag k="created_by" v="Merkaartor 0.11"/>
  </node>
  <node id="471599389" version="1" timestamp="2009-08-20T19:11:07Z" uid="23543" user="jkjk" changeset="2216006" lat="50.0692141" lon="14.4368046"/>
  <node id="471599390" version="1" timestamp="2009-08-20T19:11:07Z" uid="23543" user="jkjk" changeset="2216006" lat="50.0695604" lon="14.4369449"/>
  <node id="471599391" version="1" timestamp="2009-08-20T19:11:07Z" uid="23543" user="jkjk" changeset="2216006" lat="50.0792352" lon="14.4333868"/>
  <node id="471599392" version="1" timestamp="2009-08-20T19:11:07Z" uid="23543" user="jkjk" changeset="2216006" lat="50.0780277" lon="14.4331654"/>
  <node id="471599393" version="1" timestamp="2009-08-20T19:11:07Z" uid="23543" user="jkjk" changeset="2216006" lat="50.0786024" lon="14.4330626"/>
  <node id="471599394" version="1" timestamp="2009-08-20T19:11:07Z" uid="23543" user="jkjk" changeset="2216006" lat="50.0774439" lon="14.4332315"/>
  <node id="471599395" version="1" timestamp="2009-08-20T19:11:07Z" uid="23543" user="jkjk" changeset="2216006" lat="50.0767947" lon="14.4334199"/>
  <node id="471599396" version="1" timestamp="2009-08-20T19:11:07Z" uid="23543" user="jkjk" changeset="2216006" lat="50.0760594" lon="14.4338296"/>
  <node id="471599397" version="1" timestamp="2009-08-20T19:11:07Z" uid="23543" user="jkjk" changeset="2216006" lat="50.0708663" lon="14.436626"/>
  <node id="471599398" version="1" timestamp="2009-08-20T19:11:07Z" uid="23543" user="jkjk" changeset="2216006" lat="50.0719212" lon="14.4362358"/>
  <node id="471599399" version="1" timestamp="2009-08-20T19:11:07Z" uid="23543" user="jkjk" changeset="2216006" lat="50.0732021" lon="14.4357218"/>
  <node id="471599400" version="1" timestamp="2009-08-20T19:11:07Z" uid="23543" user="jkjk" changeset="2216006" lat="50.0742758" lon="14.4351513"/>
  <node id="471599401" version="1" timestamp="2009-08-20T19:11:07Z" uid="23543" user="jkjk" changeset="2216006" lat="50.0709659" lon="14.4368628"/>
  <node id="471599402" version="1" timestamp="2009-08-20T19:11:07Z" uid="23543" user="jkjk" changeset="2216006" lat="50.0721983" lon="14.4368036"/>
  <node id="471599403" version="1" timestamp="2009-08-20T19:11:07Z" uid="23543" user="jkjk" changeset="2216006" lat="50.0732155" lon="14.4366314"/>
  <node id="471599404" version="1" timestamp="2009-08-20T19:11:07Z" uid="23543" user="jkjk" changeset="2216006" lat="50.0740174" lon="14.4363999"/>
  <node id="471599405" version="1" timestamp="2009-08-20T19:11:07Z" uid="23543" user="jkjk" changeset="2216006" lat="50.0744184" lon="14.4361039"/>
  <node id="471599406" version="1" timestamp="2009-08-20T19:11:07Z" uid="23543" user="jkjk" changeset="2216006" lat="50.0752445" lon="14.4350572"/>
  <node id="471599844" version="3" timestamp="2009-09-12T02:31:06Z" uid="36809" user="pfoten_weg_!_" changeset="2453290" lat="46.5668536" lon="11.5600159"/>
</osm>
