<?xml version='1.0' encoding='UTF-8'?>
<osm version="0.6" generator="libosmium/2.20.0">
  <node id="472950113" version="1" timestamp="2009-08-24T14:55:44Z" uid="66036" user="h4v" changeset="2245319" lat="51.9833429" lon="20.2171774">
    <tag k="amenity" v="place_of_worship"/>
    <tag k="denomination" v="catholic"/>
    <tag k="name" v="Kościół św. Józefa"/>
    <tag k="religion" v="christian"/>
  </node>
  <node id="472950115" version="1" timestamp="2009-08-24T14:55:44Z" uid="66036" user="h4v" changeset="2245319" lat="51.9771362" lon="20.2217763">
    <tag k="name" v="Warzywniak"/>
    <tag k="shop" v="convenience"/>
  </node>
  <node id="472950115" version="2" timestamp="2010-08-08T20:43:10Z" uid="66036" user="h4v" changeset="5437790" lat="51.9771362" lon="20.2217763">
    <tag k="name" v="Tik-tak"/>
    <tag k="shop" v="convenience"/>
  </node>
  <node id="472950117" version="1" timestamp="2009-08-24T14:55:44Z" uid="66036" user="h4v" changeset="2245319" lat="51.9822965" lon="20.2181727">
    <tag k="name" v="Delikatesy"/>
    <tag k="shop" v="convenience"/>
  </node>
  <node id="472950119" version="1" timestamp="2009-08-24T14:55:44Z" uid="66036" user="h4v" changeset="2245319" lat="51.976879" lon="20.221929">
    <tag k="name" v="Ruch"/>
    <tag k="shop" v="kiosk"/>
  </node>
  <node id="472950121" version="1" timestamp="2009-08-24T14:55:44Z" uid="66036" user="h4v" changeset="2245319" lat="51.983109" lon="20.2163403">
    <tag k="shop" v="florist"/>
  </node>
  <node id="472950123" version="1" timestamp="2009-08-24T14:55:44Z" uid="66036" user="h4v" changeset="2245319" lat="51.972031" lon="20.2252181">
    <tag k="name" v="Podlewski"/>
    <tag k="shop" v="bakery"/>
  </node>
  <node id="472950124" version="1" timestamp="2009-08-24T14:55:44Z" uid="66036" user="h4v" changeset="2245319" lat="51.9827979" lon="20.2145431">
    <tag k="name" v="Żabka"/>
    <tag k="shop" v="supermarket"/>
  </node>
  <node id="472950126" version="1" timestamp="2009-08-24T14:55:45Z" uid="66036" user="h4v" changeset="2245319" lat="51.9834129" lon="20.2129764">
    <tag k="name" v="Biedronka"/>
    <tag k="shop" v="supermarket"/>
  </node>
  <node id="472950126" version="2" timestamp="2009-09-22T21:22:07Z" uid="66036" user="h4v" changeset="2577190" lat="51.9830943" lon="20.2129071">
    <tag k="name" v="Biedronka"/>
    <tag k="shop" v="supermarket"/>
  </node>
</osm>
