<?xml version='1.0' encoding='UTF-8'?>
<osm version="0.6" generator="libosmium/2.20.0">
  <node id="473491210" version="2" timestamp="2010-02-14T20:48:06Z" uid="23543" user="jkjk" changeset="3878348" lat="48.3965399" lon="18.4027122"/>
  <node id="473491264" version="2" timestamp="2010-02-14T20:48:06Z" uid="23543" user="jkjk" changeset="3878348" lat="48.3976981" lon="18.391776"/>
  <node id="473491265" version="2" timestamp="2010-02-14T20:48:08Z" uid="23543" user="jkjk" changeset="3878348" lat="48.3983159" lon="18.3946395"/>
  <node id="473498009" version="2" timestamp="2009-09-27T04:23:53Z" uid="4467" user="Rosscoe" changeset="2647997" lat="-32.275609" lon="148.5824555">
    <tag k="name" v="Taronga Western Plains Zoo"/>
    <tag k="note" v="sign includes word &apos;Taronga&apos;"/>
    <tag k="source" v="survey"/>
    <tag k="tourism" v="zoo"/>
  </node>
  <node id="473498009" version="3" timestamp="2010-06-11T21:42:39Z" uid="18775" user="drlizau" changeset="4966346" lat="-32.275609" lon="148.582456">
    <tag k="name" v="Taronga Western Plains Zoo"/>
    <tag k="note" v="sign includes word &apos;Taronga&apos;"/>
    <tag k="opening_hours" v="365 Days/Year"/>
    <tag k="source" v="survey"/>
    <tag k="tourism" v="zoo"/>
  </node>
</osm>
