<?xml version='1.0' encoding='UTF-8'?>
<osm version="0.6" generator="libosmium/2.20.0">
  <node id="473532476" version="2" timestamp="2011-04-01T14:54:01Z" uid="4467" user="Rosscoe" changeset="7736102" lat="-32.2446785" lon="148.5813818">
    <tag k="highway" v="turning_circle"/>
    <tag k="source" v="survey"/>
    <tag k="survey" v="GPS"/>
  </node>
  <node id="473536402" version="2" timestamp="2011-04-01T14:54:32Z" uid="4467" user="Rosscoe" changeset="7736102" lat="-32.2484968" lon="148.5834589">
    <tag k="highway" v="turning_circle"/>
    <tag k="source" v="survey"/>
    <tag k="survey" v="GPS"/>
  </node>
  <node id="473536853" version="2" timestamp="2011-04-01T14:54:27Z" uid="4467" user="Rosscoe" changeset="7736102" lat="-32.2459706" lon="148.58321">
    <tag k="highway" v="turning_circle"/>
    <tag k="source" v="survey"/>
    <tag k="survey" v="GPS"/>
  </node>
  <node id="473538474" version="1" timestamp="2009-08-25T13:15:18Z" uid="123700" user="Mala" changeset="2256316" lat="50.0642099" lon="19.9410389">
    <tag k="addr:city" v="Kraków@Kraków I Stare Miasto"/>
    <tag k="addr:housenumber" v="45"/>
    <tag k="addr:street" v="Floriańska"/>
    <tag k="source" v="http://ump.waw.pl/ retrieved 02:01:37 08/25/09 (UMP-Krakow/src/KRAKOW_I_STAREMIASTO.ulice.txt)"/>
  </node>
  <node id="473538476" version="1" timestamp="2009-08-25T13:15:18Z" uid="123700" user="Mala" changeset="2256316" lat="50.0641585" lon="19.9394625">
    <tag k="addr:city" v="Kraków@Kraków I Stare Miasto"/>
    <tag k="addr:housenumber" v="11"/>
    <tag k="addr:street" v="Świętego Jana"/>
    <tag k="source" v="http://ump.waw.pl/ retrieved 02:01:37 08/25/09 (UMP-Krakow/src/KRAKOW_I_STAREMIASTO.ulice.txt)"/>
  </node>
  <node id="473538478" version="1" timestamp="2009-08-25T13:15:18Z" uid="123700" user="Mala" changeset="2256316" lat="50.062391" lon="19.9356813">
    <tag k="addr:city" v="Kraków@Kraków I Stare Miasto"/>
    <tag k="addr:housenumber" v="3"/>
    <tag k="addr:street" v="Szewska"/>
    <tag k="source" v="http://ump.waw.pl/ retrieved 02:01:37 08/25/09 (UMP-Krakow/src/KRAKOW_I_STAREMIASTO.ulice.txt)"/>
  </node>
  <node id="473538480" version="1" timestamp="2009-08-25T13:15:18Z" uid="123700" user="Mala" changeset="2256316" lat="50.0635974" lon="19.9401911">
    <tag k="addr:city" v="Kraków@Kraków I Stare Miasto"/>
    <tag k="addr:housenumber" v="26"/>
    <tag k="addr:street" v="Floriańska"/>
    <tag k="source" v="http://ump.waw.pl/ retrieved 02:01:37 08/25/09 (UMP-Krakow/src/KRAKOW_I_STAREMIASTO.ulice.txt)"/>
  </node>
  <node id="473538482" version="1" timestamp="2009-08-25T13:15:18Z" uid="123700" user="Mala" changeset="2256316" lat="50.0635077" lon="19.9401201">
    <tag k="addr:city" v="Kraków@Kraków I Stare Miasto"/>
    <tag k="addr:housenumber" v="24"/>
    <tag k="addr:street" v="Floriańska"/>
    <tag k="source" v="http://ump.waw.pl/ retrieved 02:01:37 08/25/09 (UMP-Krakow/src/KRAKOW_I_STAREMIASTO.ulice.txt)"/>
  </node>
  <node id="473538484" version="1" timestamp="2009-08-25T13:15:18Z" uid="123700" user="Mala" changeset="2256316" lat="50.0646789" lon="19.9397837">
    <tag k="addr:city" v="Kraków@Kraków I Stare Miasto"/>
    <tag k="addr:housenumber" v="19"/>
    <tag k="addr:street" v="Świętego Jana"/>
    <tag k="source" v="http://ump.waw.pl/ retrieved 02:01:37 08/25/09 (UMP-Krakow/src/KRAKOW_I_STAREMIASTO.ulice.txt)"/>
  </node>
  <node id="473538486" version="1" timestamp="2009-08-25T13:15:18Z" uid="123700" user="Mala" changeset="2256316" lat="50.0603411" lon="19.941014">
    <tag k="addr:city" v="Kraków@Kraków I Stare Miasto"/>
    <tag k="addr:housenumber" v="15"/>
    <tag k="addr:street" v="Sienna"/>
    <tag k="source" v="http://ump.waw.pl/ retrieved 02:01:37 08/25/09 (UMP-Krakow/src/KRAKOW_I_STAREMIASTO.ulice.txt)"/>
  </node>
  <node id="473538487" version="1" timestamp="2009-08-25T13:15:19Z" uid="123700" user="Mala" changeset="2256316" lat="50.0628071" lon="19.9381325">
    <tag k="addr:city" v="Kraków@Kraków I Stare Miasto"/>
    <tag k="addr:housenumber" v="2"/>
    <tag k="addr:street" v="Świętego Jana"/>
    <tag k="source" v="http://ump.waw.pl/ retrieved 02:01:37 08/25/09 (UMP-Krakow/src/KRAKOW_I_STAREMIASTO.ulice.txt)"/>
  </node>
  <node id="473538487" version="2" timestamp="2009-09-09T12:40:16Z" uid="123700" user="Mala" changeset="2424887" lat="50.0628192" lon="19.938091">
    <tag k="addr:city" v="Kraków@Kraków I Stare Miasto"/>
    <tag k="addr:housenumber" v="2"/>
    <tag k="addr:street" v="Świętego Jana"/>
    <tag k="source" v="http://ump.waw.pl/ retrieved 02:01:37 08/25/09 (UMP-Krakow/src/KRAKOW_I_STAREMIASTO.ulice.txt)"/>
  </node>
  <node id="473538488" version="1" timestamp="2009-08-25T13:15:19Z" uid="123700" user="Mala" changeset="2256316" lat="50.0621085" lon="19.9426836">
    <tag k="addr:city" v="Kraków@Kraków I Stare Miasto"/>
    <tag k="addr:housenumber" v="30"/>
    <tag k="addr:street" v="Świętego Tomasza"/>
    <tag k="source" v="http://ump.waw.pl/ retrieved 02:01:37 08/25/09 (UMP-Krakow/src/KRAKOW_I_STAREMIASTO.ulice.txt)"/>
  </node>
  <node id="473538489" version="1" timestamp="2009-08-25T13:15:19Z" uid="123700" user="Mala" changeset="2256316" lat="50.0588646" lon="19.9367075">
    <tag k="addr:city" v="Kraków"/>
    <tag k="amenity" v="parking"/>
    <tag k="name" v="Płatny Strzeżony"/>
    <tag k="source" v="http://ump.waw.pl/ retrieved 02:01:37 08/25/09 (UMP-Krakow/src/KRAKOW.paliwo.pnt-converted.txt)"/>
  </node>
  <node id="473538490" version="1" timestamp="2009-08-25T13:15:19Z" uid="123700" user="Mala" changeset="2256316" lat="50.0642875" lon="19.9376943">
    <tag k="addr:city" v="Kraków@Kraków I Stare Miasto"/>
    <tag k="addr:housenumber" v="22"/>
    <tag k="addr:street" v="Sławkowska"/>
    <tag k="source" v="http://ump.waw.pl/ retrieved 02:01:37 08/25/09 (UMP-Krakow/src/KRAKOW_I_STAREMIASTO.ulice.txt)"/>
  </node>
  <node id="473538490" version="2" timestamp="2009-09-09T12:40:16Z" uid="123700" user="Mala" changeset="2424887" lat="50.0643309" lon="19.9377281">
    <tag k="addr:city" v="Kraków@Kraków I Stare Miasto"/>
    <tag k="addr:housenumber" v="22"/>
    <tag k="addr:street" v="Sławkowska"/>
    <tag k="source" v="http://ump.waw.pl/ retrieved 02:01:37 08/25/09 (UMP-Krakow/src/KRAKOW_I_STAREMIASTO.ulice.txt)"/>
  </node>
  <node id="473538491" version="1" timestamp="2009-08-25T13:15:19Z" uid="123700" user="Mala" changeset="2256316" lat="50.0622894" lon="19.9353884">
    <tag k="addr:city" v="Kraków@Kraków I Stare Miasto"/>
    <tag k="addr:housenumber" v="4"/>
    <tag k="addr:street" v="Szewska"/>
    <tag k="source" v="http://ump.waw.pl/ retrieved 02:01:37 08/25/09 (UMP-Krakow/src/KRAKOW_I_STAREMIASTO.ulice.txt)"/>
  </node>
  <node id="473538492" version="1" timestamp="2009-08-25T13:15:19Z" uid="123700" user="Mala" changeset="2256316" lat="50.0629336" lon="19.9400785">
    <tag k="addr:city" v="Kraków@Kraków I Stare Miasto"/>
    <tag k="addr:housenumber" v="17"/>
    <tag k="addr:street" v="Floriańska"/>
    <tag k="source" v="http://ump.waw.pl/ retrieved 02:01:37 08/25/09 (UMP-Krakow/src/KRAKOW_I_STAREMIASTO.ulice.txt)"/>
  </node>
  <node id="473538493" version="1" timestamp="2009-08-25T13:15:19Z" uid="123700" user="Mala" changeset="2256316" lat="50.0638424" lon="19.9404098">
    <tag k="addr:city" v="Kraków@Kraków I Stare Miasto"/>
    <tag k="addr:housenumber" v="28"/>
    <tag k="addr:street" v="Floriańska"/>
    <tag k="source" v="http://ump.waw.pl/ retrieved 02:01:37 08/25/09 (UMP-Krakow/src/KRAKOW_I_STAREMIASTO.ulice.txt)"/>
  </node>
  <node id="473538494" version="1" timestamp="2009-08-25T13:15:19Z" uid="123700" user="Mala" changeset="2256316" lat="50.0596235" lon="19.9386895">
    <tag k="addr:city" v="Kraków@Kraków I Stare Miasto"/>
    <tag k="addr:housenumber" v="15"/>
    <tag k="addr:street" v="Stolarska"/>
    <tag k="source" v="http://ump.waw.pl/ retrieved 02:01:37 08/25/09 (UMP-Krakow/src/KRAKOW_I_STAREMIASTO.ulice.txt)"/>
  </node>
  <node id="473538495" version="1" timestamp="2009-08-25T13:15:19Z" uid="123700" user="Mala" changeset="2256316" lat="50.0626176" lon="19.9394212">
    <tag k="addr:city" v="Kraków@Kraków I Stare Miasto"/>
    <tag k="addr:housenumber" v="4"/>
    <tag k="addr:street" v="Floriańska"/>
    <tag k="source" v="http://ump.waw.pl/ retrieved 02:01:37 08/25/09 (UMP-Krakow/src/KRAKOW_I_STAREMIASTO.ulice.txt)"/>
  </node>
  <node id="473538496" version="1" timestamp="2009-08-25T13:15:19Z" uid="123700" user="Mala" changeset="2256316" lat="50.0630491" lon="19.9416516">
    <tag k="addr:city" v="Kraków@Kraków I Stare Miasto"/>
    <tag k="addr:housenumber" v="17"/>
    <tag k="addr:street" v="Szpitalna"/>
    <tag k="source" v="http://ump.waw.pl/ retrieved 02:01:37 08/25/09 (UMP-Krakow/src/KRAKOW_I_STAREMIASTO.ulice.txt)"/>
  </node>
  <node id="473538497" version="1" timestamp="2009-08-25T13:15:19Z" uid="123700" user="Mala" changeset="2256316" lat="50.0614941" lon="19.9350562">
    <tag k="addr:city" v="Kraków"/>
    <tag k="addr:housenumber" v="4"/>
    <tag k="addr:street" v="Świętej Anny"/>
    <tag k="amenity" v="car_rental"/>
    <tag k="name" v="Wypożyczalnia Rowerów"/>
    <tag k="note" v="weryfikacja"/>
    <tag k="source" v="http://ump.waw.pl/ retrieved 02:01:37 08/25/09 (UMP-Krakow/src/KRAKOW.transport.pnt-converted.txt)"/>
  </node>
  <node id="473538498" version="1" timestamp="2009-08-25T13:15:19Z" uid="123700" user="Mala" changeset="2256316" lat="50.0644391" lon="19.9411998">
    <tag k="addr:city" v="Kraków@Kraków I Stare Miasto"/>
    <tag k="addr:housenumber" v="49"/>
    <tag k="addr:street" v="Floriańska"/>
    <tag k="source" v="http://ump.waw.pl/ retrieved 02:01:37 08/25/09 (UMP-Krakow/src/KRAKOW_I_STAREMIASTO.ulice.txt)"/>
  </node>
  <node id="473538499" version="1" timestamp="2009-08-25T13:15:20Z" uid="123700" user="Mala" changeset="2256316" lat="50.0618457" lon="19.9429499">
    <tag k="addr:city" v="Kraków@Kraków I Stare Miasto"/>
    <tag k="addr:housenumber" v="39"/>
    <tag k="addr:street" v="Świętego Tomasza"/>
    <tag k="source" v="http://ump.waw.pl/ retrieved 02:01:37 08/25/09 (UMP-Krakow/src/KRAKOW_I_STAREMIASTO.ulice.txt)"/>
  </node>
  <node id="473538500" version="1" timestamp="2009-08-25T13:15:20Z" uid="123700" user="Mala" changeset="2256316" lat="50.0607232" lon="19.939777">
    <tag k="addr:city" v="Kraków@Kraków I Stare Miasto"/>
    <tag k="addr:housenumber" v="7"/>
    <tag k="addr:street" v="Sienna"/>
    <tag k="source" v="http://ump.waw.pl/ retrieved 02:01:37 08/25/09 (UMP-Krakow/src/KRAKOW_I_STAREMIASTO.ulice.txt)"/>
  </node>
  <node id="473538501" version="1" timestamp="2009-08-25T13:15:20Z" uid="123700" user="Mala" changeset="2256316" lat="50.0646813" lon="19.941496">
    <tag k="addr:city" v="Kraków@Kraków I Stare Miasto"/>
    <tag k="addr:housenumber" v="19"/>
    <tag k="addr:street" v="Pijarska"/>
    <tag k="source" v="http://ump.waw.pl/ retrieved 02:01:37 08/25/09 (UMP-Krakow/src/KRAKOW_I_STAREMIASTO.ulice.txt)"/>
  </node>
  <node id="473538502" version="1" timestamp="2009-08-25T13:15:20Z" uid="123700" user="Mala" changeset="2256316" lat="50.0636597" lon="19.9406528">
    <tag k="addr:city" v="Kraków@Kraków I Stare Miasto"/>
    <tag k="addr:housenumber" v="35"/>
    <tag k="addr:street" v="Floriańska"/>
    <tag k="source" v="http://ump.waw.pl/ retrieved 02:01:37 08/25/09 (UMP-Krakow/src/KRAKOW_I_STAREMIASTO.ulice.txt)"/>
  </node>
  <node id="473538503" version="1" timestamp="2009-08-25T13:15:20Z" uid="123700" user="Mala" changeset="2256316" lat="50.0629687" lon="19.9385614">
    <tag k="addr:city" v="Kraków@Kraków I Stare Miasto"/>
    <tag k="addr:housenumber" v="3"/>
    <tag k="addr:street" v="Świętego Jana"/>
    <tag k="source" v="http://ump.waw.pl/ retrieved 02:01:37 08/25/09 (UMP-Krakow/src/KRAKOW_I_STAREMIASTO.ulice.txt)"/>
  </node>
  <node id="473538503" version="2" timestamp="2009-09-09T12:40:16Z" uid="123700" user="Mala" changeset="2424887" lat="50.0629614" lon="19.9385992">
    <tag k="addr:city" v="Kraków@Kraków I Stare Miasto"/>
    <tag k="addr:housenumber" v="3"/>
    <tag k="addr:street" v="Świętego Jana"/>
    <tag k="source" v="http://ump.waw.pl/ retrieved 02:01:37 08/25/09 (UMP-Krakow/src/KRAKOW_I_STAREMIASTO.ulice.txt)"/>
  </node>
  <node id="473538504" version="1" timestamp="2009-08-25T13:15:20Z" uid="123700" user="Mala" changeset="2256316" lat="50.0600641" lon="19.9345705">
    <tag k="addr:city" v="Kraków@Kraków I Stare Miasto"/>
    <tag k="addr:housenumber" v="12"/>
    <tag k="addr:street" v="Wiślna"/>
    <tag k="source" v="http://ump.waw.pl/ retrieved 02:01:37 08/25/09 (UMP-Krakow/src/KRAKOW_I_STAREMIASTO.ulice.txt)"/>
  </node>
  <node id="473538505" version="1" timestamp="2009-08-25T13:15:20Z" uid="123700" user="Mala" changeset="2256316" lat="50.063079" lon="19.93398">
    <tag k="addr:city" v="Kraków@Kraków I Stare Miasto"/>
    <tag k="addr:housenumber" v="21"/>
    <tag k="addr:street" v="Szewska"/>
    <tag k="source" v="http://ump.waw.pl/ retrieved 02:01:37 08/25/09 (UMP-Krakow/src/KRAKOW_I_STAREMIASTO.ulice.txt)"/>
  </node>
  <node id="473538507" version="1" timestamp="2009-08-25T13:15:21Z" uid="123700" user="Mala" changeset="2256316" lat="50.06409" lon="19.9405755">
    <tag k="addr:city" v="Kraków@Kraków I Stare Miasto"/>
    <tag k="addr:housenumber" v="32"/>
    <tag k="addr:street" v="Floriańska"/>
    <tag k="source" v="http://ump.waw.pl/ retrieved 02:01:37 08/25/09 (UMP-Krakow/src/KRAKOW_I_STAREMIASTO.ulice.txt)"/>
  </node>
  <node id="473538509" version="1" timestamp="2009-08-25T13:15:21Z" uid="123700" user="Mala" changeset="2256316" lat="50.0622846" lon="19.9423724">
    <tag k="addr:city" v="Kraków@Kraków I Stare Miasto"/>
    <tag k="addr:housenumber" v="14"/>
    <tag k="addr:street" v="Świetego Krzyża"/>
    <tag k="source" v="http://ump.waw.pl/ retrieved 02:01:37 08/25/09 (UMP-Krakow/src/KRAKOW_I_STAREMIASTO.ulice.txt)"/>
  </node>
  <node id="473538509" version="2" timestamp="2009-08-27T21:48:50Z" uid="123700" user="Mala" changeset="2283903" lat="50.0622846" lon="19.9423724">
    <tag k="addr:city" v="Kraków@Kraków I Stare Miasto"/>
    <tag k="addr:housenumber" v="14"/>
    <tag k="addr:street" v="Świętego Krzyża"/>
    <tag k="source" v="http://ump.waw.pl/ retrieved 02:01:37 08/25/09 (UMP-Krakow/src/KRAKOW_I_STAREMIASTO.ulice.txt)"/>
  </node>
  <node id="473538511" version="1" timestamp="2009-08-25T13:15:21Z" uid="123700" user="Mala" changeset="2256316" lat="50.0624081" lon="19.9345929">
    <tag k="addr:city" v="Kraków@Kraków I Stare Miasto"/>
    <tag k="addr:housenumber" v="7"/>
    <tag k="addr:street" v="Jagiellońska"/>
    <tag k="source" v="http://ump.waw.pl/ retrieved 02:01:37 08/25/09 (UMP-Krakow/src/KRAKOW_I_STAREMIASTO.ulice.txt)"/>
  </node>
  <node id="473538511" version="2" timestamp="2009-08-27T21:48:50Z" uid="123700" user="Mala" changeset="2283903" lat="50.0624613" lon="19.9346409">
    <tag k="addr:city" v="Kraków@Kraków I Stare Miasto"/>
    <tag k="addr:housenumber" v="7"/>
    <tag k="addr:street" v="Jagiellońska"/>
    <tag k="source" v="http://ump.waw.pl/ retrieved 02:01:37 08/25/09 (UMP-Krakow/src/KRAKOW_I_STAREMIASTO.ulice.txt)"/>
  </node>
  <node id="473538513" version="1" timestamp="2009-08-25T13:15:21Z" uid="123700" user="Mala" changeset="2256316" lat="50.0634565" lon="19.9351034">
    <tag k="addr:city" v="Kraków@Kraków I Stare Miasto"/>
    <tag k="addr:housenumber" v="1"/>
    <tag k="addr:street" v="plac Szczepański"/>
    <tag k="source" v="http://ump.waw.pl/ retrieved 02:01:37 08/25/09 (UMP-Krakow/src/KRAKOW_I_STAREMIASTO.ulice.txt)"/>
  </node>
  <node id="473538513" version="2" timestamp="2009-08-27T21:48:50Z" uid="123700" user="Mala" changeset="2283903" lat="50.0634518" lon="19.9350992">
    <tag k="addr:city" v="Kraków@Kraków I Stare Miasto"/>
    <tag k="addr:housenumber" v="1"/>
    <tag k="addr:street" v="plac Szczepański"/>
    <tag k="source" v="http://ump.waw.pl/ retrieved 02:01:37 08/25/09 (UMP-Krakow/src/KRAKOW_I_STAREMIASTO.ulice.txt)"/>
  </node>
  <node id="473538514" version="1" timestamp="2009-08-25T13:15:21Z" uid="123700" user="Mala" changeset="2256316" lat="50.0632969" lon="19.9329413">
    <tag k="addr:city" v="Kraków@Kraków I Stare Miasto"/>
    <tag k="addr:housenumber" v="26"/>
    <tag k="addr:street" v="Szewska"/>
    <tag k="source" v="http://ump.waw.pl/ retrieved 02:01:37 08/25/09 (UMP-Krakow/src/KRAKOW_I_STAREMIASTO.ulice.txt)"/>
  </node>
  <node id="473538517" version="1" timestamp="2009-08-25T13:15:21Z" uid="123700" user="Mala" changeset="2256316" lat="50.05961" lon="19.93879">
    <tag k="addr:city" v="Kraków"/>
    <tag k="addr:housenumber" v="15"/>
    <tag k="addr:street" v="STOLARSKA"/>
    <tag k="amenity" v="townhall"/>
    <tag k="name" v="Konsulat Francji"/>
    <tag k="phone" v="+48124245300"/>
    <tag k="source" v="http://ump.waw.pl/ retrieved 02:01:37 08/25/09 (UMP-Krakow/src/KRAKOW.dorozlozenia.pnt-converted.txt)"/>
  </node>
  <node id="473538519" version="1" timestamp="2009-08-25T13:15:21Z" uid="123700" user="Mala" changeset="2256316" lat="50.0642559" lon="19.9391583">
    <tag k="addr:city" v="Kraków@Kraków I Stare Miasto"/>
    <tag k="addr:housenumber" v="20"/>
    <tag k="addr:street" v="Świętego Jana"/>
    <tag k="source" v="http://ump.waw.pl/ retrieved 02:01:37 08/25/09 (UMP-Krakow/src/KRAKOW_I_STAREMIASTO.ulice.txt)"/>
  </node>
  <node id="473538521" version="1" timestamp="2009-08-25T13:15:21Z" uid="123700" user="Mala" changeset="2256316" lat="50.0629192" lon="19.939216">
    <tag k="addr:city" v="Kraków@Kraków I Stare Miasto"/>
    <tag k="addr:housenumber" v="17"/>
    <tag k="addr:street" v="Świętego Tomasza"/>
    <tag k="source" v="http://ump.waw.pl/ retrieved 02:01:37 08/25/09 (UMP-Krakow/src/KRAKOW_I_STAREMIASTO.ulice.txt)"/>
  </node>
  <node id="473538523" version="1" timestamp="2009-08-25T13:15:21Z" uid="123700" user="Mala" changeset="2256316" lat="50.0631934" lon="19.9398714">
    <tag k="addr:city" v="Kraków@Kraków I Stare Miasto"/>
    <tag k="addr:housenumber" v="18"/>
    <tag k="addr:street" v="Floriańska"/>
    <tag k="source" v="http://ump.waw.pl/ retrieved 02:01:37 08/25/09 (UMP-Krakow/src/KRAKOW_I_STAREMIASTO.ulice.txt)"/>
  </node>
  <node id="473538525" version="1" timestamp="2009-08-25T13:15:21Z" uid="123700" user="Mala" changeset="2256316" lat="50.0646193" lon="19.9393944">
    <tag k="addr:city" v="Kraków@Kraków I Stare Miasto"/>
    <tag k="addr:housenumber" v="30"/>
    <tag k="addr:street" v="Świętego Jana"/>
    <tag k="source" v="http://ump.waw.pl/ retrieved 02:01:37 08/25/09 (UMP-Krakow/src/KRAKOW_I_STAREMIASTO.ulice.txt)"/>
  </node>
  <node id="473538527" version="1" timestamp="2009-08-25T13:15:21Z" uid="123700" user="Mala" changeset="2256316" lat="50.0605098" lon="19.9412166">
    <tag k="addr:city" v="Kraków@Kraków I Stare Miasto"/>
    <tag k="addr:housenumber" v="16"/>
    <tag k="addr:street" v="Sienna"/>
    <tag k="source" v="http://ump.waw.pl/ retrieved 02:01:37 08/25/09 (UMP-Krakow/src/KRAKOW_I_STAREMIASTO.ulice.txt)"/>
  </node>
  <node id="473538528" version="1" timestamp="2009-08-25T13:15:21Z" uid="123700" user="Mala" changeset="2256316" lat="50.0613548" lon="19.935239">
    <tag k="addr:city" v="Kraków@Kraków I Stare Miasto"/>
    <tag k="addr:housenumber" v="2"/>
    <tag k="addr:street" v="Świętej Anny"/>
    <tag k="source" v="http://ump.waw.pl/ retrieved 02:01:37 08/25/09 (UMP-Krakow/src/KRAKOW_I_STAREMIASTO.ulice.txt)"/>
  </node>
  <node id="473538530" version="1" timestamp="2009-08-25T13:15:22Z" uid="123700" user="Mala" changeset="2256316" lat="50.0633785" lon="19.9384236">
    <tag k="addr:city" v="Kraków@Kraków I Stare Miasto"/>
    <tag k="addr:housenumber" v="14"/>
    <tag k="addr:street" v="Świętego Tomasza"/>
    <tag k="source" v="http://ump.waw.pl/ retrieved 02:01:37 08/25/09 (UMP-Krakow/src/KRAKOW_I_STAREMIASTO.ulice.txt)"/>
  </node>
  <node id="473538532" version="1" timestamp="2009-08-25T13:15:22Z" uid="123700" user="Mala" changeset="2256316" lat="50.0638321" lon="19.9407738">
    <tag k="addr:city" v="Kraków@Kraków I Stare Miasto"/>
    <tag k="addr:housenumber" v="39"/>
    <tag k="addr:street" v="Floriańska"/>
    <tag k="source" v="http://ump.waw.pl/ retrieved 02:01:37 08/25/09 (UMP-Krakow/src/KRAKOW_I_STAREMIASTO.ulice.txt)"/>
  </node>
  <node id="473538534" version="1" timestamp="2009-08-25T13:15:22Z" uid="123700" user="Mala" changeset="2256316" lat="50.0609002" lon="19.9404796">
    <tag k="addr:city" v="Kraków@Kraków I Stare Miasto"/>
    <tag k="addr:housenumber" v="7"/>
    <tag k="addr:street" v="rynek Mały"/>
    <tag k="source" v="http://ump.waw.pl/ retrieved 02:01:37 08/25/09 (UMP-Krakow/src/KRAKOW_I_STAREMIASTO.ulice.txt)"/>
  </node>
  <node id="473538536" version="1" timestamp="2009-08-25T13:15:22Z" uid="123700" user="Mala" changeset="2256316" lat="50.0609078" lon="19.9392004">
    <tag k="addr:city" v="Kraków@Kraków I Stare Miasto"/>
    <tag k="addr:housenumber" v="3"/>
    <tag k="addr:street" v="Sienna"/>
    <tag k="source" v="http://ump.waw.pl/ retrieved 02:01:37 08/25/09 (UMP-Krakow/src/KRAKOW_I_STAREMIASTO.ulice.txt)"/>
  </node>
  <node id="473538538" version="1" timestamp="2009-08-25T13:15:22Z" uid="123700" user="Mala" changeset="2256316" lat="50.0625511" lon="19.9352715">
    <tag k="addr:city" v="Kraków@Kraków I Stare Miasto"/>
    <tag k="addr:housenumber" v="7"/>
    <tag k="addr:street" v="Szewska"/>
    <tag k="source" v="http://ump.waw.pl/ retrieved 02:01:37 08/25/09 (UMP-Krakow/src/KRAKOW_I_STAREMIASTO.ulice.txt)"/>
  </node>
  <node id="473538539" version="1" timestamp="2009-08-25T13:15:22Z" uid="123700" user="Mala" changeset="2256316" lat="50.0647621" lon="19.942182">
    <tag k="addr:city" v="Kraków"/>
    <tag k="name" v="Baszta Pasamoników"/>
    <tag k="source" v="http://ump.waw.pl/ retrieved 02:01:37 08/25/09 (UMP-Krakow/src/KRAKOW.zabytki.pnt-converted.txt)"/>
    <tag k="tourism" v="museum"/>
  </node>
  <node id="473538541" version="1" timestamp="2009-08-25T13:15:22Z" uid="123700" user="Mala" changeset="2256316" lat="50.062331" lon="19.9406864">
    <tag k="addr:city" v="Kraków@Kraków I Stare Miasto"/>
    <tag k="addr:housenumber" v="12"/>
    <tag k="addr:street" v="Szpitalna"/>
    <tag k="source" v="http://ump.waw.pl/ retrieved 02:01:37 08/25/09 (UMP-Krakow/src/KRAKOW_I_STAREMIASTO.ulice.txt)"/>
  </node>
  <node id="473538543" version="1" timestamp="2009-08-25T13:15:22Z" uid="123700" user="Mala" changeset="2256316" lat="50.0631492" lon="19.9434148">
    <tag k="addr:city" v="Kraków@Kraków I Stare Miasto"/>
    <tag k="addr:housenumber" v="23"/>
    <tag k="addr:street" v="Świetego Krzyża"/>
    <tag k="source" v="http://ump.waw.pl/ retrieved 02:01:37 08/25/09 (UMP-Krakow/src/KRAKOW_I_STAREMIASTO.ulice.txt)"/>
  </node>
  <node id="473538543" version="2" timestamp="2009-08-27T21:48:50Z" uid="123700" user="Mala" changeset="2283903" lat="50.0631492" lon="19.9434148">
    <tag k="addr:city" v="Kraków@Kraków I Stare Miasto"/>
    <tag k="addr:housenumber" v="23"/>
    <tag k="addr:street" v="Świętego Krzyża"/>
    <tag k="source" v="http://ump.waw.pl/ retrieved 02:01:37 08/25/09 (UMP-Krakow/src/KRAKOW_I_STAREMIASTO.ulice.txt)"/>
  </node>
  <node id="473538545" version="1" timestamp="2009-08-25T13:15:22Z" uid="123700" user="Mala" changeset="2256316" lat="50.0612065" lon="19.9415279">
    <tag k="addr:city" v="Kraków@Kraków I Stare Miasto"/>
    <tag k="addr:housenumber" v="5"/>
    <tag k="addr:street" v="Mikołajska"/>
    <tag k="source" v="http://ump.waw.pl/ retrieved 02:01:37 08/25/09 (UMP-Krakow/src/KRAKOW_I_STAREMIASTO.ulice.txt)"/>
  </node>
  <node id="473538548" version="1" timestamp="2009-08-25T13:15:22Z" uid="123700" user="Mala" changeset="2256316" lat="50.064762" lon="19.9394871">
    <tag k="addr:city" v="Kraków@Kraków I Stare Miasto"/>
    <tag k="addr:housenumber" v="32"/>
    <tag k="addr:street" v="Świętego Jana"/>
    <tag k="source" v="http://ump.waw.pl/ retrieved 02:01:37 08/25/09 (UMP-Krakow/src/KRAKOW_I_STAREMIASTO.ulice.txt)"/>
  </node>
  <node id="473538549" version="1" timestamp="2009-08-25T13:15:22Z" uid="123700" user="Mala" changeset="2256316" lat="50.0607485" lon="19.9404353">
    <tag k="addr:city" v="Kraków@Kraków I Stare Miasto"/>
    <tag k="addr:housenumber" v="10"/>
    <tag k="addr:street" v="Sienna"/>
    <tag k="source" v="http://ump.waw.pl/ retrieved 02:01:37 08/25/09 (UMP-Krakow/src/KRAKOW_I_STAREMIASTO.ulice.txt)"/>
  </node>
  <node id="473538552" version="1" timestamp="2009-08-25T13:15:22Z" uid="123700" user="Mala" changeset="2256316" lat="50.0613339" lon="19.9427161">
    <tag k="addr:city" v="Kraków@Kraków I Stare Miasto"/>
    <tag k="addr:housenumber" v="15"/>
    <tag k="addr:street" v="Mikołajska"/>
    <tag k="source" v="http://ump.waw.pl/ retrieved 02:01:37 08/25/09 (UMP-Krakow/src/KRAKOW_I_STAREMIASTO.ulice.txt)"/>
  </node>
  <node id="473538554" version="1" timestamp="2009-08-25T13:15:23Z" uid="123700" user="Mala" changeset="2256316" lat="50.0628071" lon="19.941095">
    <tag k="addr:city" v="Kraków@Kraków I Stare Miasto"/>
    <tag k="addr:housenumber" v="22"/>
    <tag k="addr:street" v="Szpitalna"/>
    <tag k="source" v="http://ump.waw.pl/ retrieved 02:01:37 08/25/09 (UMP-Krakow/src/KRAKOW_I_STAREMIASTO.ulice.txt)"/>
  </node>
  <node id="473538556" version="1" timestamp="2009-08-25T13:15:23Z" uid="123700" user="Mala" changeset="2256316" lat="50.0593072" lon="19.9379966">
    <tag k="addr:city" v="Kraków@Kraków I Stare Miasto"/>
    <tag k="addr:housenumber" v="22"/>
    <tag k="addr:street" v="Grodzka"/>
    <tag k="source" v="http://ump.waw.pl/ retrieved 02:01:37 08/25/09 (UMP-Krakow/src/KRAKOW_I_STAREMIASTO.ulice.txt)"/>
  </node>
  <node id="473538557" version="1" timestamp="2009-08-25T13:15:23Z" uid="123700" user="Mala" changeset="2256316" lat="50.060113" lon="19.9358567">
    <tag k="addr:city" v="Kraków@Kraków I Stare Miasto"/>
    <tag k="addr:housenumber" v="2"/>
    <tag k="addr:street" v="Gołębia"/>
    <tag k="source" v="http://ump.waw.pl/ retrieved 02:01:37 08/25/09 (UMP-Krakow/src/KRAKOW_I_STAREMIASTO.ulice.txt)"/>
  </node>
  <node id="473538558" version="1" timestamp="2009-08-25T13:15:23Z" uid="123700" user="Mala" changeset="2256316" lat="50.0615623" lon="19.9422457">
    <tag k="addr:city" v="Kraków@Kraków I Stare Miasto"/>
    <tag k="addr:housenumber" v="9"/>
    <tag k="addr:street" v="Świetego Krzyża"/>
    <tag k="source" v="http://ump.waw.pl/ retrieved 02:01:37 08/25/09 (UMP-Krakow/src/KRAKOW_I_STAREMIASTO.ulice.txt)"/>
  </node>
  <node id="473538558" version="2" timestamp="2009-08-27T21:48:50Z" uid="123700" user="Mala" changeset="2283903" lat="50.0615623" lon="19.9422457">
    <tag k="addr:city" v="Kraków@Kraków I Stare Miasto"/>
    <tag k="addr:housenumber" v="9"/>
    <tag k="addr:street" v="Świętego Krzyża"/>
    <tag k="source" v="http://ump.waw.pl/ retrieved 02:01:37 08/25/09 (UMP-Krakow/src/KRAKOW_I_STAREMIASTO.ulice.txt)"/>
  </node>
  <node id="473538563" version="1" timestamp="2009-08-25T13:15:23Z" uid="123700" user="Mala" changeset="2256316" lat="50.0639472" lon="19.9388306">
    <tag k="addr:city" v="Kraków@Kraków I Stare Miasto"/>
    <tag k="addr:housenumber" v="15"/>
    <tag k="addr:street" v="Świętego Marka"/>
    <tag k="source" v="http://ump.waw.pl/ retrieved 02:01:37 08/25/09 (UMP-Krakow/src/KRAKOW_I_STAREMIASTO.ulice.txt)"/>
  </node>
  <node id="473538565" version="1" timestamp="2009-08-25T13:15:23Z" uid="123700" user="Mala" changeset="2256316" lat="50.0614412" lon="19.93501">
    <tag k="addr:city" v="Kraków@Kraków I Stare Miasto"/>
    <tag k="addr:housenumber" v="4"/>
    <tag k="addr:street" v="Świętej Anny"/>
    <tag k="source" v="http://ump.waw.pl/ retrieved 02:01:37 08/25/09 (UMP-Krakow/src/KRAKOW_I_STAREMIASTO.ulice.txt)"/>
  </node>
  <node id="473538567" version="1" timestamp="2009-08-25T13:15:23Z" uid="123700" user="Mala" changeset="2256316" lat="50.0638316" lon="19.9402136">
    <tag k="addr:city" v="Kraków@Kraków I Stare Miasto"/>
    <tag k="addr:housenumber" v="18"/>
    <tag k="addr:street" v="Świętego Marka"/>
    <tag k="source" v="http://ump.waw.pl/ retrieved 02:01:37 08/25/09 (UMP-Krakow/src/KRAKOW_I_STAREMIASTO.ulice.txt)"/>
  </node>
  <node id="473538569" version="1" timestamp="2009-08-25T13:15:23Z" uid="123700" user="Mala" changeset="2256316" lat="50.0649175" lon="19.9370701">
    <tag k="addr:city" v="Kraków@Kraków I Stare Miasto"/>
    <tag k="addr:housenumber" v="6"/>
    <tag k="addr:street" v="Świętego Marka"/>
    <tag k="source" v="http://ump.waw.pl/ retrieved 02:01:37 08/25/09 (UMP-Krakow/src/KRAKOW_I_STAREMIASTO.ulice.txt)"/>
  </node>
  <node id="473538571" version="1" timestamp="2009-08-25T13:15:24Z" uid="123700" user="Mala" changeset="2256316" lat="50.0605704" lon="19.9364224">
    <tag k="addr:city" v="Kraków@Kraków I Stare Miasto"/>
    <tag k="addr:housenumber" v="2"/>
    <tag k="addr:street" v="Bracka"/>
    <tag k="source" v="http://ump.waw.pl/ retrieved 02:01:37 08/25/09 (UMP-Krakow/src/KRAKOW_I_STAREMIASTO.ulice.txt)"/>
  </node>
  <node id="473538573" version="1" timestamp="2009-08-25T13:15:24Z" uid="123700" user="Mala" changeset="2256316" lat="50.0626289" lon="19.9350724">
    <tag k="addr:city" v="Kraków@Kraków I Stare Miasto"/>
    <tag k="addr:housenumber" v="9"/>
    <tag k="addr:street" v="Szewska"/>
    <tag k="source" v="http://ump.waw.pl/ retrieved 02:01:37 08/25/09 (UMP-Krakow/src/KRAKOW_I_STAREMIASTO.ulice.txt)"/>
  </node>
  <node id="473538575" version="1" timestamp="2009-08-25T13:15:24Z" uid="123700" user="Mala" changeset="2256316" lat="50.06532" lon="19.94162">
    <tag k="addr:city" v="Kraków"/>
    <tag k="castle_type" v="fortress"/>
    <tag k="historic" v="castle"/>
    <tag k="name" v="Barbakan"/>
    <tag k="source" v="http://ump.waw.pl/ retrieved 02:01:37 08/25/09 (UMP-Krakow/src/KRAKOW.zabytki.pnt-converted.txt)"/>
  </node>
  <node id="473538577" version="1" timestamp="2009-08-25T13:15:24Z" uid="123700" user="Mala" changeset="2256316" lat="50.0597823" lon="19.9360895">
    <tag k="addr:city" v="Kraków@Kraków I Stare Miasto"/>
    <tag k="addr:housenumber" v="17"/>
    <tag k="addr:street" v="Bracka"/>
    <tag k="source" v="http://ump.waw.pl/ retrieved 02:01:37 08/25/09 (UMP-Krakow/src/KRAKOW_I_STAREMIASTO.ulice.txt)"/>
  </node>
  <node id="473538579" version="1" timestamp="2009-08-25T13:15:24Z" uid="123700" user="Mala" changeset="2256316" lat="50.06026" lon="19.93914">
    <tag k="addr:city" v="Kraków"/>
    <tag k="addr:housenumber" v="7"/>
    <tag k="addr:street" v="STOLARSKA"/>
    <tag k="amenity" v="townhall"/>
    <tag k="name" v="Konsulat Niemiec"/>
    <tag k="phone" v="+48124243000"/>
    <tag k="source" v="http://ump.waw.pl/ retrieved 02:01:37 08/25/09 (UMP-Krakow/src/KRAKOW.dorozlozenia.pnt-converted.txt)"/>
  </node>
  <node id="473538581" version="1" timestamp="2009-08-25T13:15:24Z" uid="123700" user="Mala" changeset="2256316" lat="50.0630007" lon="19.9341806">
    <tag k="addr:city" v="Kraków@Kraków I Stare Miasto"/>
    <tag k="addr:housenumber" v="19"/>
    <tag k="addr:street" v="Szewska"/>
    <tag k="source" v="http://ump.waw.pl/ retrieved 02:01:37 08/25/09 (UMP-Krakow/src/KRAKOW_I_STAREMIASTO.ulice.txt)"/>
  </node>
  <node id="473538583" version="1" timestamp="2009-08-25T13:15:24Z" uid="123700" user="Mala" changeset="2256316" lat="50.0638949" lon="19.9374">
    <tag k="addr:city" v="Kraków@Kraków I Stare Miasto"/>
    <tag k="addr:housenumber" v="14"/>
    <tag k="addr:street" v="Sławkowska"/>
    <tag k="source" v="http://ump.waw.pl/ retrieved 02:01:37 08/25/09 (UMP-Krakow/src/KRAKOW_I_STAREMIASTO.ulice.txt)"/>
  </node>
  <node id="473538583" version="2" timestamp="2009-09-09T12:40:17Z" uid="123700" user="Mala" changeset="2424887" lat="50.0640013" lon="19.9374804">
    <tag k="addr:city" v="Kraków@Kraków I Stare Miasto"/>
    <tag k="addr:housenumber" v="14"/>
    <tag k="addr:street" v="Sławkowska"/>
    <tag k="source" v="http://ump.waw.pl/ retrieved 02:01:37 08/25/09 (UMP-Krakow/src/KRAKOW_I_STAREMIASTO.ulice.txt)"/>
  </node>
  <node id="473538585" version="1" timestamp="2009-08-25T13:15:24Z" uid="123700" user="Mala" changeset="2256316" lat="50.065157" lon="19.938883">
    <tag k="addr:city" v="Kraków@Kraków I Stare Miasto"/>
    <tag k="addr:housenumber" v="11"/>
    <tag k="addr:street" v="Pijarska"/>
    <tag k="source" v="http://ump.waw.pl/ retrieved 02:01:37 08/25/09 (UMP-Krakow/src/KRAKOW_I_STAREMIASTO.ulice.txt)"/>
  </node>
  <node id="473538585" version="2" timestamp="2009-09-09T12:40:17Z" uid="123700" user="Mala" changeset="2424887" lat="50.0648901" lon="19.9392949">
    <tag k="addr:city" v="Kraków@Kraków I Stare Miasto"/>
    <tag k="addr:housenumber" v="11"/>
    <tag k="addr:street" v="Pijarska"/>
    <tag k="source" v="http://ump.waw.pl/ retrieved 02:01:37 08/25/09 (UMP-Krakow/src/KRAKOW_I_STAREMIASTO.ulice.txt)"/>
  </node>
  <node id="473538587" version="1" timestamp="2009-08-25T13:15:24Z" uid="123700" user="Mala" changeset="2256316" lat="50.0610386" lon="19.9340272">
    <tag k="addr:city" v="Kraków@Kraków I Stare Miasto"/>
    <tag k="addr:housenumber" v="9"/>
    <tag k="addr:street" v="Gołębia"/>
    <tag k="source" v="http://ump.waw.pl/ retrieved 02:01:37 08/25/09 (UMP-Krakow/src/KRAKOW_I_STAREMIASTO.ulice.txt)"/>
  </node>
  <node id="473538589" version="1" timestamp="2009-08-25T13:15:24Z" uid="123700" user="Mala" changeset="2256316" lat="50.0602548" lon="19.9390353">
    <tag k="addr:city" v="Kraków@Kraków I Stare Miasto"/>
    <tag k="addr:housenumber" v="7"/>
    <tag k="addr:street" v="Stolarska"/>
    <tag k="source" v="http://ump.waw.pl/ retrieved 02:01:37 08/25/09 (UMP-Krakow/src/KRAKOW_I_STAREMIASTO.ulice.txt)"/>
  </node>
  <node id="473538592" version="1" timestamp="2009-08-25T13:15:24Z" uid="123700" user="Mala" changeset="2256316" lat="50.0605336" lon="19.9348512">
    <tag k="addr:city" v="Kraków@Kraków I Stare Miasto"/>
    <tag k="addr:housenumber" v="6"/>
    <tag k="addr:street" v="Wiślna"/>
    <tag k="source" v="http://ump.waw.pl/ retrieved 02:01:37 08/25/09 (UMP-Krakow/src/KRAKOW_I_STAREMIASTO.ulice.txt)"/>
  </node>
  <node id="473538593" version="1" timestamp="2009-08-25T13:15:24Z" uid="123700" user="Mala" changeset="2256316" lat="50.0643341" lon="19.9357591">
    <tag k="addr:city" v="Kraków@Kraków I Stare Miasto"/>
    <tag k="addr:housenumber" v="1"/>
    <tag k="addr:street" v="Reformacka"/>
    <tag k="source" v="http://ump.waw.pl/ retrieved 02:01:37 08/25/09 (UMP-Krakow/src/KRAKOW_I_STAREMIASTO.ulice.txt)"/>
  </node>
  <node id="473538595" version="1" timestamp="2009-08-25T13:15:24Z" uid="123700" user="Mala" changeset="2256316" lat="50.0601426" lon="19.936388">
    <tag k="addr:city" v="Kraków@Kraków I Stare Miasto"/>
    <tag k="addr:housenumber" v="8"/>
    <tag k="addr:street" v="Bracka"/>
    <tag k="source" v="http://ump.waw.pl/ retrieved 02:01:37 08/25/09 (UMP-Krakow/src/KRAKOW_I_STAREMIASTO.ulice.txt)"/>
  </node>
  <node id="473538597" version="1" timestamp="2009-08-25T13:15:25Z" uid="123700" user="Mala" changeset="2256316" lat="50.06013" lon="19.93907">
    <tag k="addr:city" v="Kraków"/>
    <tag k="addr:housenumber" v="9"/>
    <tag k="addr:street" v="STOLARSKA"/>
    <tag k="amenity" v="townhall"/>
    <tag k="name" v="Konsulat Stanów Zjednoczonych"/>
    <tag k="phone" v="+48124245100"/>
    <tag k="source" v="http://ump.waw.pl/ retrieved 02:01:37 08/25/09 (UMP-Krakow/src/KRAKOW.dorozlozenia.pnt-converted.txt)"/>
  </node>
  <node id="473538599" version="1" timestamp="2009-08-25T13:15:25Z" uid="123700" user="Mala" changeset="2256316" lat="50.0622012" lon="19.9343949">
    <tag k="addr:city" v="Kraków@Kraków I Stare Miasto"/>
    <tag k="addr:housenumber" v="9"/>
    <tag k="addr:street" v="Jagiellońska"/>
    <tag k="source" v="http://ump.waw.pl/ retrieved 02:01:37 08/25/09 (UMP-Krakow/src/KRAKOW_I_STAREMIASTO.ulice.txt)"/>
  </node>
  <node id="473538599" version="2" timestamp="2009-08-27T21:48:51Z" uid="123700" user="Mala" changeset="2283903" lat="50.0622544" lon="19.9344429">
    <tag k="addr:city" v="Kraków@Kraków I Stare Miasto"/>
    <tag k="addr:housenumber" v="9"/>
    <tag k="addr:street" v="Jagiellońska"/>
    <tag k="source" v="http://ump.waw.pl/ retrieved 02:01:37 08/25/09 (UMP-Krakow/src/KRAKOW_I_STAREMIASTO.ulice.txt)"/>
  </node>
  <node id="473538601" version="1" timestamp="2009-08-25T13:15:25Z" uid="123700" user="Mala" changeset="2256316" lat="50.0626597" lon="19.9401046">
    <tag k="addr:city" v="Kraków@Kraków I Stare Miasto"/>
    <tag k="addr:housenumber" v="21"/>
    <tag k="addr:street" v="Świętego Tomasza"/>
    <tag k="source" v="http://ump.waw.pl/ retrieved 02:01:37 08/25/09 (UMP-Krakow/src/KRAKOW_I_STAREMIASTO.ulice.txt)"/>
  </node>
  <node id="473538603" version="1" timestamp="2009-08-25T13:15:25Z" uid="123700" user="Mala" changeset="2256316" lat="50.063418" lon="19.9400491">
    <tag k="addr:city" v="Kraków@Kraków I Stare Miasto"/>
    <tag k="addr:housenumber" v="22"/>
    <tag k="addr:street" v="Floriańska"/>
    <tag k="source" v="http://ump.waw.pl/ retrieved 02:01:37 08/25/09 (UMP-Krakow/src/KRAKOW_I_STAREMIASTO.ulice.txt)"/>
  </node>
  <node id="473538605" version="1" timestamp="2009-08-25T13:15:25Z" uid="123700" user="Mala" changeset="2256316" lat="50.0621706" lon="19.942741">
    <tag k="addr:city" v="Kraków@Kraków I Stare Miasto"/>
    <tag k="addr:housenumber" v="15"/>
    <tag k="addr:street" v="Świetego Krzyża"/>
    <tag k="source" v="http://ump.waw.pl/ retrieved 02:01:37 08/25/09 (UMP-Krakow/src/KRAKOW_I_STAREMIASTO.ulice.txt)"/>
  </node>
  <node id="473538605" version="2" timestamp="2009-08-27T21:48:51Z" uid="123700" user="Mala" changeset="2283903" lat="50.0621706" lon="19.942741">
    <tag k="addr:city" v="Kraków@Kraków I Stare Miasto"/>
    <tag k="addr:housenumber" v="15"/>
    <tag k="addr:street" v="Świętego Krzyża"/>
    <tag k="source" v="http://ump.waw.pl/ retrieved 02:01:37 08/25/09 (UMP-Krakow/src/KRAKOW_I_STAREMIASTO.ulice.txt)"/>
  </node>
  <node id="473538607" version="1" timestamp="2009-08-25T13:15:25Z" uid="123700" user="Mala" changeset="2256316" lat="50.0622871" lon="19.9421856">
    <tag k="addr:city" v="Kraków@Kraków I Stare Miasto"/>
    <tag k="addr:housenumber" v="28"/>
    <tag k="addr:street" v="Świętego Tomasza"/>
    <tag k="source" v="http://ump.waw.pl/ retrieved 02:01:37 08/25/09 (UMP-Krakow/src/KRAKOW_I_STAREMIASTO.ulice.txt)"/>
  </node>
  <node id="473538609" version="1" timestamp="2009-08-25T13:15:25Z" uid="123700" user="Mala" changeset="2256316" lat="50.0627744" lon="19.9384196">
    <tag k="addr:city" v="Kraków@Kraków I Stare Miasto"/>
    <tag k="addr:housenumber" v="1"/>
    <tag k="addr:street" v="Świętego Jana"/>
    <tag k="source" v="http://ump.waw.pl/ retrieved 02:01:37 08/25/09 (UMP-Krakow/src/KRAKOW_I_STAREMIASTO.ulice.txt)"/>
  </node>
  <node id="473538609" version="2" timestamp="2009-09-09T12:40:17Z" uid="123700" user="Mala" changeset="2424887" lat="50.0627671" lon="19.9384574">
    <tag k="addr:city" v="Kraków@Kraków I Stare Miasto"/>
    <tag k="addr:housenumber" v="1"/>
    <tag k="addr:street" v="Świętego Jana"/>
    <tag k="source" v="http://ump.waw.pl/ retrieved 02:01:37 08/25/09 (UMP-Krakow/src/KRAKOW_I_STAREMIASTO.ulice.txt)"/>
  </node>
  <node id="473538611" version="1" timestamp="2009-08-25T13:15:25Z" uid="123700" user="Mala" changeset="2256316" lat="50.0643245" lon="19.937626">
    <tag k="addr:city" v="Kraków@Kraków I Stare Miasto"/>
    <tag k="addr:housenumber" v="11"/>
    <tag k="addr:street" v="Świętego Marka"/>
    <tag k="source" v="http://ump.waw.pl/ retrieved 02:01:37 08/25/09 (UMP-Krakow/src/KRAKOW_I_STAREMIASTO.ulice.txt)"/>
  </node>
  <node id="473538613" version="1" timestamp="2009-08-25T13:15:25Z" uid="123700" user="Mala" changeset="2256316" lat="50.0647525" lon="19.9410045">
    <tag k="addr:city" v="Kraków@Kraków I Stare Miasto"/>
    <tag k="addr:housenumber" v="17"/>
    <tag k="addr:street" v="Pijarska"/>
    <tag k="source" v="http://ump.waw.pl/ retrieved 02:01:37 08/25/09 (UMP-Krakow/src/KRAKOW_I_STAREMIASTO.ulice.txt)"/>
  </node>
  <node id="473538615" version="1" timestamp="2009-08-25T13:15:25Z" uid="123700" user="Mala" changeset="2256316" lat="50.0616447" lon="19.9403172">
    <tag k="addr:city" v="Kraków@Kraków I Stare Miasto"/>
    <tag k="addr:housenumber" v="5"/>
    <tag k="addr:street" v="plac Mariacki"/>
    <tag k="source" v="http://ump.waw.pl/ retrieved 02:01:37 08/25/09 (UMP-Krakow/src/KRAKOW_I_STAREMIASTO.ulice.txt)"/>
  </node>
  <node id="473538617" version="1" timestamp="2009-08-25T13:15:25Z" uid="123700" user="Mala" changeset="2256316" lat="50.0617986" lon="19.9346113">
    <tag k="addr:city" v="Kraków@Kraków I Stare Miasto"/>
    <tag k="addr:housenumber" v="3"/>
    <tag k="addr:street" v="Świetej Anny"/>
    <tag k="source" v="http://ump.waw.pl/ retrieved 02:01:37 08/25/09 (UMP-Krakow/src/KRAKOW_I_STAREMIASTO.ulice.txt)"/>
  </node>
  <node id="473538617" version="2" timestamp="2009-08-27T21:48:51Z" uid="123700" user="Mala" changeset="2283903" lat="50.0617986" lon="19.9346113">
    <tag k="addr:city" v="Kraków@Kraków I Stare Miasto"/>
    <tag k="addr:housenumber" v="3"/>
    <tag k="addr:street" v="Świętej Anny"/>
    <tag k="source" v="http://ump.waw.pl/ retrieved 02:01:37 08/25/09 (UMP-Krakow/src/KRAKOW_I_STAREMIASTO.ulice.txt)"/>
  </node>
  <node id="473538617" version="3" timestamp="2009-09-07T17:37:59Z" uid="123700" user="Mala" changeset="2405083" lat="50.0617757" lon="19.9346715">
    <tag k="addr:city" v="Kraków@Kraków I Stare Miasto"/>
    <tag k="addr:housenumber" v="3"/>
    <tag k="addr:street" v="Świętej Anny"/>
    <tag k="source" v="http://ump.waw.pl/ retrieved 02:01:37 08/25/09 (UMP-Krakow/src/KRAKOW_I_STAREMIASTO.ulice.txt)"/>
  </node>
  <node id="473538620" version="1" timestamp="2009-08-25T13:15:25Z" uid="123700" user="Mala" changeset="2256316" lat="50.060126" lon="19.9360845">
    <tag k="addr:city" v="Kraków@Kraków I Stare Miasto"/>
    <tag k="addr:housenumber" v="9"/>
    <tag k="addr:street" v="Bracka"/>
    <tag k="source" v="http://ump.waw.pl/ retrieved 02:01:37 08/25/09 (UMP-Krakow/src/KRAKOW_I_STAREMIASTO.ulice.txt)"/>
  </node>
  <node id="473538622" version="1" timestamp="2009-08-25T13:15:25Z" uid="123700" user="Mala" changeset="2256316" lat="50.0588222" lon="19.9371224">
    <tag k="addr:city" v="Kraków"/>
    <tag k="addr:housenumber" v="3"/>
    <tag k="addr:street" v="plac Wszystkich Świętych"/>
    <tag k="amenity" v="public_building"/>
    <tag k="name" v="Urząd Miasta Krakowa"/>
    <tag k="phone" v="+48 12 616 12 00"/>
    <tag k="source" v="http://ump.waw.pl/ retrieved 02:01:37 08/25/09 (UMP-Krakow/src/KRAKOW.dorozlozenia.pnt-converted.txt)"/>
  </node>
  <node id="473538624" version="1" timestamp="2009-08-25T13:15:25Z" uid="123700" user="Mala" changeset="2256316" lat="50.0632197" lon="19.9428899">
    <tag k="addr:city" v="Kraków@Kraków I Stare Miasto"/>
    <tag k="addr:housenumber" v="5"/>
    <tag k="addr:street" v="plac Świętego Ducha"/>
    <tag k="source" v="http://ump.waw.pl/ retrieved 02:01:37 08/25/09 (UMP-Krakow/src/KRAKOW_I_STAREMIASTO.ulice.txt)"/>
  </node>
  <node id="473538626" version="1" timestamp="2009-08-25T13:15:26Z" uid="123700" user="Mala" changeset="2256316" lat="50.0630473" lon="19.9413161">
    <tag k="addr:city" v="Kraków@Kraków I Stare Miasto"/>
    <tag k="addr:housenumber" v="26"/>
    <tag k="addr:street" v="Szpitalna"/>
    <tag k="source" v="http://ump.waw.pl/ retrieved 02:01:37 08/25/09 (UMP-Krakow/src/KRAKOW_I_STAREMIASTO.ulice.txt)"/>
  </node>
  <node id="473538634" version="1" timestamp="2009-08-25T13:15:26Z" uid="123700" user="Mala" changeset="2256316" lat="50.060739" lon="19.9349506">
    <tag k="addr:city" v="Kraków@Kraków I Stare Miasto"/>
    <tag k="addr:housenumber" v="5"/>
    <tag k="addr:street" v="Gołębia"/>
    <tag k="source" v="http://ump.waw.pl/ retrieved 02:01:37 08/25/09 (UMP-Krakow/src/KRAKOW_I_STAREMIASTO.ulice.txt)"/>
  </node>
  <node id="473538636" version="1" timestamp="2009-08-25T13:15:26Z" uid="123700" user="Mala" changeset="2256316" lat="50.0628384" lon="19.9394839">
    <tag k="addr:city" v="Kraków@Kraków I Stare Miasto"/>
    <tag k="addr:housenumber" v="19"/>
    <tag k="addr:street" v="Świętego Tomasza"/>
    <tag k="source" v="http://ump.waw.pl/ retrieved 02:01:37 08/25/09 (UMP-Krakow/src/KRAKOW_I_STAREMIASTO.ulice.txt)"/>
  </node>
  <node id="473538638" version="1" timestamp="2009-08-25T13:15:26Z" uid="123700" user="Mala" changeset="2256316" lat="50.0631799" lon="19.9384037">
    <tag k="addr:city" v="Kraków@Kraków I Stare Miasto"/>
    <tag k="addr:housenumber" v="6"/>
    <tag k="addr:street" v="Świętego Jana"/>
    <tag k="source" v="http://ump.waw.pl/ retrieved 02:01:37 08/25/09 (UMP-Krakow/src/KRAKOW_I_STAREMIASTO.ulice.txt)"/>
  </node>
  <node id="473538638" version="2" timestamp="2009-09-09T12:40:17Z" uid="123700" user="Mala" changeset="2424887" lat="50.063192" lon="19.9383622">
    <tag k="addr:city" v="Kraków@Kraków I Stare Miasto"/>
    <tag k="addr:housenumber" v="6"/>
    <tag k="addr:street" v="Świętego Jana"/>
    <tag k="source" v="http://ump.waw.pl/ retrieved 02:01:37 08/25/09 (UMP-Krakow/src/KRAKOW_I_STAREMIASTO.ulice.txt)"/>
  </node>
  <node id="473538640" version="1" timestamp="2009-08-25T13:15:26Z" uid="123700" user="Mala" changeset="2256316" lat="50.0645951" lon="19.9413093">
    <tag k="addr:city" v="Kraków@Kraków I Stare Miasto"/>
    <tag k="addr:housenumber" v="53"/>
    <tag k="addr:street" v="Floriańska"/>
    <tag k="source" v="http://ump.waw.pl/ retrieved 02:01:37 08/25/09 (UMP-Krakow/src/KRAKOW_I_STAREMIASTO.ulice.txt)"/>
  </node>
  <node id="473538642" version="1" timestamp="2009-08-25T13:15:26Z" uid="123700" user="Mala" changeset="2256316" lat="50.060036" lon="19.9378849">
    <tag k="addr:city" v="Kraków@Kraków I Stare Miasto"/>
    <tag k="addr:housenumber" v="2"/>
    <tag k="addr:street" v="Grodzka"/>
    <tag k="source" v="http://ump.waw.pl/ retrieved 02:01:37 08/25/09 (UMP-Krakow/src/KRAKOW_I_STAREMIASTO.ulice.txt)"/>
  </node>
  <node id="473538644" version="1" timestamp="2009-08-25T13:15:26Z" uid="123700" user="Mala" changeset="2256316" lat="50.0628809" lon="19.9402511">
    <tag k="addr:city" v="Kraków@Kraków I Stare Miasto"/>
    <tag k="addr:housenumber" v="18"/>
    <tag k="addr:street" v="Świętego Tomasza"/>
    <tag k="source" v="http://ump.waw.pl/ retrieved 02:01:37 08/25/09 (UMP-Krakow/src/KRAKOW_I_STAREMIASTO.ulice.txt)"/>
  </node>
  <node id="473538646" version="1" timestamp="2009-08-25T13:15:26Z" uid="123700" user="Mala" changeset="2256316" lat="50.0615666" lon="19.9412981">
    <tag k="addr:city" v="Kraków@Kraków I Stare Miasto"/>
    <tag k="addr:housenumber" v="12"/>
    <tag k="addr:street" v="Mikołajska"/>
    <tag k="source" v="http://ump.waw.pl/ retrieved 02:01:37 08/25/09 (UMP-Krakow/src/KRAKOW_I_STAREMIASTO.ulice.txt)"/>
  </node>
  <node id="473538648" version="1" timestamp="2009-08-25T13:15:27Z" uid="123700" user="Mala" changeset="2256316" lat="50.0644517" lon="19.9423167">
    <tag k="addr:city" v="Kraków@Kraków I Stare Miasto"/>
    <tag k="addr:housenumber" v="40"/>
    <tag k="addr:street" v="Szpitalna"/>
    <tag k="source" v="http://ump.waw.pl/ retrieved 02:01:37 08/25/09 (UMP-Krakow/src/KRAKOW_I_STAREMIASTO.ulice.txt)"/>
  </node>
  <node id="473538649" version="1" timestamp="2009-08-25T13:15:27Z" uid="123700" user="Mala" changeset="2256316" lat="50.0605468" lon="19.9395989">
    <tag k="addr:city" v="Kraków@Kraków I Stare Miasto"/>
    <tag k="addr:housenumber" v="8"/>
    <tag k="addr:street" v="Stolarska"/>
    <tag k="source" v="http://ump.waw.pl/ retrieved 02:01:37 08/25/09 (UMP-Krakow/src/KRAKOW_I_STAREMIASTO.ulice.txt)"/>
  </node>
  <node id="473538651" version="1" timestamp="2009-08-25T13:15:27Z" uid="123700" user="Mala" changeset="2256316" lat="50.0647653" lon="19.940355">
    <tag k="addr:city" v="Kraków@Kraków I Stare Miasto"/>
    <tag k="addr:housenumber" v="15"/>
    <tag k="addr:street" v="Pijarska"/>
    <tag k="source" v="http://ump.waw.pl/ retrieved 02:01:37 08/25/09 (UMP-Krakow/src/KRAKOW_I_STAREMIASTO.ulice.txt)"/>
  </node>
  <node id="473538654" version="1" timestamp="2009-08-25T13:15:27Z" uid="123700" user="Mala" changeset="2256316" lat="50.0612236" lon="19.9419836">
    <tag k="addr:city" v="Kraków@Kraków I Stare Miasto"/>
    <tag k="addr:housenumber" v="7"/>
    <tag k="addr:street" v="Mikołajska"/>
    <tag k="source" v="http://ump.waw.pl/ retrieved 02:01:37 08/25/09 (UMP-Krakow/src/KRAKOW_I_STAREMIASTO.ulice.txt)"/>
  </node>
  <node id="473538656" version="1" timestamp="2009-08-25T13:15:27Z" uid="123700" user="Mala" changeset="2256316" lat="50.063607" lon="19.9399858">
    <tag k="addr:city" v="Kraków@Kraków I Stare Miasto"/>
    <tag k="addr:housenumber" v="19"/>
    <tag k="addr:street" v="Świętego Marka"/>
    <tag k="source" v="http://ump.waw.pl/ retrieved 02:01:37 08/25/09 (UMP-Krakow/src/KRAKOW_I_STAREMIASTO.ulice.txt)"/>
  </node>
  <node id="473538658" version="1" timestamp="2009-08-25T13:15:27Z" uid="123700" user="Mala" changeset="2256316" lat="50.0608604" lon="19.9347921">
    <tag k="addr:city" v="Kraków@Kraków I Stare Miasto"/>
    <tag k="addr:housenumber" v="7"/>
    <tag k="addr:street" v="Wiślna"/>
    <tag k="source" v="http://ump.waw.pl/ retrieved 02:01:37 08/25/09 (UMP-Krakow/src/KRAKOW_I_STAREMIASTO.ulice.txt)"/>
  </node>
  <node id="473538660" version="1" timestamp="2009-08-25T13:15:27Z" uid="123700" user="Mala" changeset="2256316" lat="50.0623146" lon="19.9348036">
    <tag k="addr:city" v="Kraków@Kraków I Stare Miasto"/>
    <tag k="addr:housenumber" v="8"/>
    <tag k="addr:street" v="Jagiellońska"/>
    <tag k="source" v="http://ump.waw.pl/ retrieved 02:01:37 08/25/09 (UMP-Krakow/src/KRAKOW_I_STAREMIASTO.ulice.txt)"/>
  </node>
  <node id="473538661" version="1" timestamp="2009-08-25T13:15:27Z" uid="123700" user="Mala" changeset="2256316" lat="50.0609607" lon="19.9351011">
    <tag k="addr:city" v="Kraków@Kraków I Stare Miasto"/>
    <tag k="addr:housenumber" v="2"/>
    <tag k="addr:street" v="Wiślna"/>
    <tag k="source" v="http://ump.waw.pl/ retrieved 02:01:37 08/25/09 (UMP-Krakow/src/KRAKOW_I_STAREMIASTO.ulice.txt)"/>
  </node>
  <node id="473538663" version="1" timestamp="2009-08-25T13:15:27Z" uid="123700" user="Mala" changeset="2256316" lat="50.0633869" lon="19.9331847">
    <tag k="addr:city" v="Kraków@Kraków I Stare Miasto"/>
    <tag k="addr:housenumber" v="27"/>
    <tag k="addr:street" v="Szewska"/>
    <tag k="source" v="http://ump.waw.pl/ retrieved 02:01:37 08/25/09 (UMP-Krakow/src/KRAKOW_I_STAREMIASTO.ulice.txt)"/>
  </node>
  <node id="473538663" version="2" timestamp="2009-09-07T17:37:59Z" uid="123700" user="Mala" changeset="2405083" lat="50.0634664" lon="19.9331122">
    <tag k="addr:city" v="Kraków@Kraków I Stare Miasto"/>
    <tag k="addr:housenumber" v="27"/>
    <tag k="addr:street" v="Szewska"/>
    <tag k="source" v="http://ump.waw.pl/ retrieved 02:01:37 08/25/09 (UMP-Krakow/src/KRAKOW_I_STAREMIASTO.ulice.txt)"/>
  </node>
  <node id="473538666" version="1" timestamp="2009-08-25T13:15:27Z" uid="123700" user="Mala" changeset="2256316" lat="50.0634404" lon="19.9414376">
    <tag k="addr:city" v="Kraków@Kraków I Stare Miasto"/>
    <tag k="addr:housenumber" v="22"/>
    <tag k="addr:street" v="Świętego Marka"/>
    <tag k="source" v="http://ump.waw.pl/ retrieved 02:01:37 08/25/09 (UMP-Krakow/src/KRAKOW_I_STAREMIASTO.ulice.txt)"/>
  </node>
  <node id="473538668" version="1" timestamp="2009-08-25T13:15:27Z" uid="123700" user="Mala" changeset="2256316" lat="50.0606092" lon="19.9346176">
    <tag k="addr:city" v="Kraków@Kraków I Stare Miasto"/>
    <tag k="addr:housenumber" v="9"/>
    <tag k="addr:street" v="Wiślna"/>
    <tag k="source" v="http://ump.waw.pl/ retrieved 02:01:37 08/25/09 (UMP-Krakow/src/KRAKOW_I_STAREMIASTO.ulice.txt)"/>
  </node>
  <node id="473538670" version="1" timestamp="2009-08-25T13:15:27Z" uid="123700" user="Mala" changeset="2256316" lat="50.0625405" lon="19.9436467">
    <tag k="addr:city" v="Kraków@Kraków I Stare Miasto"/>
    <tag k="addr:housenumber" v="37"/>
    <tag k="addr:street" v="Świętego Marka"/>
    <tag k="source" v="http://ump.waw.pl/ retrieved 02:01:37 08/25/09 (UMP-Krakow/src/KRAKOW_I_STAREMIASTO.ulice.txt)"/>
  </node>
  <node id="473538672" version="1" timestamp="2009-08-25T13:15:27Z" uid="123700" user="Mala" changeset="2256316" lat="50.0617717" lon="19.940621">
    <tag k="addr:city" v="Kraków@Kraków I Stare Miasto"/>
    <tag k="addr:housenumber" v="2"/>
    <tag k="addr:street" v="Mikołajska"/>
    <tag k="source" v="http://ump.waw.pl/ retrieved 02:01:37 08/25/09 (UMP-Krakow/src/KRAKOW_I_STAREMIASTO.ulice.txt)"/>
  </node>
  <node id="473538674" version="1" timestamp="2009-08-25T13:15:28Z" uid="123700" user="Mala" changeset="2256316" lat="50.0626329" lon="19.9431019">
    <tag k="addr:city" v="Kraków@Kraków I Stare Miasto"/>
    <tag k="addr:housenumber" v="19"/>
    <tag k="addr:street" v="Świetego Krzyża"/>
    <tag k="source" v="http://ump.waw.pl/ retrieved 02:01:37 08/25/09 (UMP-Krakow/src/KRAKOW_I_STAREMIASTO.ulice.txt)"/>
  </node>
  <node id="473538674" version="2" timestamp="2009-08-27T21:48:51Z" uid="123700" user="Mala" changeset="2283903" lat="50.0626329" lon="19.9431019">
    <tag k="addr:city" v="Kraków@Kraków I Stare Miasto"/>
    <tag k="addr:housenumber" v="19"/>
    <tag k="addr:street" v="Świętego Krzyża"/>
    <tag k="source" v="http://ump.waw.pl/ retrieved 02:01:37 08/25/09 (UMP-Krakow/src/KRAKOW_I_STAREMIASTO.ulice.txt)"/>
  </node>
  <node id="473538676" version="1" timestamp="2009-08-25T13:15:28Z" uid="123700" user="Mala" changeset="2256316" lat="50.0621338" lon="19.9395274">
    <tag k="addr:city" v="Kraków@Kraków I Stare Miasto"/>
    <tag k="addr:housenumber" v="1"/>
    <tag k="addr:street" v="Floriańska"/>
    <tag k="source" v="http://ump.waw.pl/ retrieved 02:01:37 08/25/09 (UMP-Krakow/src/KRAKOW_I_STAREMIASTO.ulice.txt)"/>
  </node>
  <node id="473538678" version="1" timestamp="2009-08-25T13:15:28Z" uid="123700" user="Mala" changeset="2256316" lat="50.0620177" lon="19.9421343">
    <tag k="addr:city" v="Kraków@Kraków I Stare Miasto"/>
    <tag k="addr:housenumber" v="12"/>
    <tag k="addr:street" v="Świetego Krzyża"/>
    <tag k="source" v="http://ump.waw.pl/ retrieved 02:01:37 08/25/09 (UMP-Krakow/src/KRAKOW_I_STAREMIASTO.ulice.txt)"/>
  </node>
  <node id="473538678" version="2" timestamp="2009-08-27T21:48:51Z" uid="123700" user="Mala" changeset="2283903" lat="50.0620177" lon="19.9421343">
    <tag k="addr:city" v="Kraków@Kraków I Stare Miasto"/>
    <tag k="addr:housenumber" v="12"/>
    <tag k="addr:street" v="Świętego Krzyża"/>
    <tag k="source" v="http://ump.waw.pl/ retrieved 02:01:37 08/25/09 (UMP-Krakow/src/KRAKOW_I_STAREMIASTO.ulice.txt)"/>
  </node>
  <node id="473538679" version="1" timestamp="2009-08-25T13:15:28Z" uid="123700" user="Mala" changeset="2256316" lat="50.0599568" lon="19.9363845">
    <tag k="addr:city" v="Kraków@Kraków I Stare Miasto"/>
    <tag k="addr:housenumber" v="10"/>
    <tag k="addr:street" v="Bracka"/>
    <tag k="source" v="http://ump.waw.pl/ retrieved 02:01:37 08/25/09 (UMP-Krakow/src/KRAKOW_I_STAREMIASTO.ulice.txt)"/>
  </node>
  <node id="473538681" version="1" timestamp="2009-08-25T13:15:28Z" uid="123700" user="Mala" changeset="2256316" lat="50.0644173" lon="19.9360129">
    <tag k="addr:city" v="Kraków@Kraków I Stare Miasto"/>
    <tag k="addr:housenumber" v="3"/>
    <tag k="addr:street" v="Reformacka"/>
    <tag k="source" v="http://ump.waw.pl/ retrieved 02:01:37 08/25/09 (UMP-Krakow/src/KRAKOW_I_STAREMIASTO.ulice.txt)"/>
  </node>
  <node id="473538684" version="1" timestamp="2009-08-25T13:15:28Z" uid="123700" user="Mala" changeset="2256316" lat="50.06128" lon="19.9393004">
    <tag k="addr:city" v="Kraków@Kraków I Stare Miasto"/>
    <tag k="addr:housenumber" v="9"/>
    <tag k="addr:street" v="plac Mariacki"/>
    <tag k="source" v="http://ump.waw.pl/ retrieved 02:01:37 08/25/09 (UMP-Krakow/src/KRAKOW_I_STAREMIASTO.ulice.txt)"/>
  </node>
  <node id="473538686" version="1" timestamp="2009-08-25T13:15:28Z" uid="123700" user="Mala" changeset="2256316" lat="50.0609642" lon="19.9396869">
    <tag k="addr:city" v="Kraków@Kraków I Stare Miasto"/>
    <tag k="addr:housenumber" v="6"/>
    <tag k="addr:street" v="Sienna"/>
    <tag k="source" v="http://ump.waw.pl/ retrieved 02:01:37 08/25/09 (UMP-Krakow/src/KRAKOW_I_STAREMIASTO.ulice.txt)"/>
  </node>
  <node id="473538688" version="1" timestamp="2009-08-25T13:15:28Z" uid="123700" user="Mala" changeset="2256316" lat="50.0592302" lon="19.9376524">
    <tag k="addr:city" v="Kraków@Kraków I Stare Miasto"/>
    <tag k="addr:housenumber" v="17"/>
    <tag k="addr:street" v="Grodzka"/>
    <tag k="source" v="http://ump.waw.pl/ retrieved 02:01:37 08/25/09 (UMP-Krakow/src/KRAKOW_I_STAREMIASTO.ulice.txt)"/>
  </node>
  <node id="473538689" version="1" timestamp="2009-08-25T13:15:28Z" uid="123700" user="Mala" changeset="2256316" lat="50.0640843" lon="19.937542">
    <tag k="addr:city" v="Kraków@Kraków I Stare Miasto"/>
    <tag k="addr:housenumber" v="16"/>
    <tag k="addr:street" v="Sławkowska"/>
    <tag k="source" v="http://ump.waw.pl/ retrieved 02:01:37 08/25/09 (UMP-Krakow/src/KRAKOW_I_STAREMIASTO.ulice.txt)"/>
  </node>
  <node id="473538689" version="2" timestamp="2009-09-09T12:40:17Z" uid="123700" user="Mala" changeset="2424887" lat="50.0641366" lon="19.9375821">
    <tag k="addr:city" v="Kraków@Kraków I Stare Miasto"/>
    <tag k="addr:housenumber" v="16"/>
    <tag k="addr:street" v="Sławkowska"/>
    <tag k="source" v="http://ump.waw.pl/ retrieved 02:01:37 08/25/09 (UMP-Krakow/src/KRAKOW_I_STAREMIASTO.ulice.txt)"/>
  </node>
  <node id="473538691" version="1" timestamp="2009-08-25T13:15:28Z" uid="123700" user="Mala" changeset="2256316" lat="50.0636349" lon="19.9408005">
    <tag k="addr:city" v="Kraków@Kraków I Stare Miasto"/>
    <tag k="addr:housenumber" v="20"/>
    <tag k="addr:street" v="Świętego Marka"/>
    <tag k="source" v="http://ump.waw.pl/ retrieved 02:01:37 08/25/09 (UMP-Krakow/src/KRAKOW_I_STAREMIASTO.ulice.txt)"/>
  </node>
  <node id="473538693" version="1" timestamp="2009-08-25T13:15:28Z" uid="123700" user="Mala" changeset="2256316" lat="50.0643152" lon="19.9391968">
    <tag k="addr:city" v="Kraków@Kraków I Stare Miasto"/>
    <tag k="addr:housenumber" v="22"/>
    <tag k="addr:street" v="Świętego Jana"/>
    <tag k="source" v="http://ump.waw.pl/ retrieved 02:01:37 08/25/09 (UMP-Krakow/src/KRAKOW_I_STAREMIASTO.ulice.txt)"/>
  </node>
  <node id="473538695" version="1" timestamp="2009-08-25T13:15:28Z" uid="123700" user="Mala" changeset="2256316" lat="50.0606348" lon="19.9416818">
    <tag k="addr:city" v="Kraków@Kraków I Stare Miasto"/>
    <tag k="addr:housenumber" v="1"/>
    <tag k="addr:street" v="Świetego Krzyża"/>
    <tag k="source" v="http://ump.waw.pl/ retrieved 02:01:37 08/25/09 (UMP-Krakow/src/KRAKOW_I_STAREMIASTO.ulice.txt)"/>
  </node>
  <node id="473538695" version="2" timestamp="2009-08-27T21:48:51Z" uid="123700" user="Mala" changeset="2283903" lat="50.0606348" lon="19.9416818">
    <tag k="addr:city" v="Kraków@Kraków I Stare Miasto"/>
    <tag k="addr:housenumber" v="1"/>
    <tag k="addr:street" v="Świętego Krzyża"/>
    <tag k="source" v="http://ump.waw.pl/ retrieved 02:01:37 08/25/09 (UMP-Krakow/src/KRAKOW_I_STAREMIASTO.ulice.txt)"/>
  </node>
  <node id="473538702" version="1" timestamp="2009-08-25T13:15:29Z" uid="123700" user="Mala" changeset="2256316" lat="50.062023" lon="19.9396697">
    <tag k="addr:city" v="Kraków@Kraków I Stare Miasto"/>
    <tag k="addr:housenumber" v="1"/>
    <tag k="addr:street" v="plac Mariacki"/>
    <tag k="source" v="http://ump.waw.pl/ retrieved 02:01:37 08/25/09 (UMP-Krakow/src/KRAKOW_I_STAREMIASTO.ulice.txt)"/>
  </node>
  <node id="473538702" version="2" timestamp="2009-08-28T12:13:25Z" uid="123700" user="Mala" changeset="2289476" lat="50.0620961" lon="19.939415">
    <tag k="addr:city" v="Kraków@Kraków I Stare Miasto"/>
    <tag k="addr:housenumber" v="1"/>
    <tag k="addr:street" v="plac Mariacki"/>
    <tag k="source" v="http://ump.waw.pl/ retrieved 02:01:37 08/25/09 (UMP-Krakow/src/KRAKOW_I_STAREMIASTO.ulice.txt)"/>
  </node>
  <node id="473538704" version="1" timestamp="2009-08-25T13:15:29Z" uid="123700" user="Mala" changeset="2256316" lat="50.0617406" lon="19.9347636">
    <tag k="addr:city" v="Kraków@Kraków I Stare Miasto"/>
    <tag k="addr:housenumber" v="1"/>
    <tag k="addr:street" v="Świetej Anny"/>
    <tag k="source" v="http://ump.waw.pl/ retrieved 02:01:37 08/25/09 (UMP-Krakow/src/KRAKOW_I_STAREMIASTO.ulice.txt)"/>
  </node>
  <node id="473538704" version="2" timestamp="2009-08-27T21:48:50Z" uid="123700" user="Mala" changeset="2283903" lat="50.0617406" lon="19.9347636">
    <tag k="addr:city" v="Kraków@Kraków I Stare Miasto"/>
    <tag k="addr:housenumber" v="1"/>
    <tag k="addr:street" v="Świętej Anny"/>
    <tag k="source" v="http://ump.waw.pl/ retrieved 02:01:37 08/25/09 (UMP-Krakow/src/KRAKOW_I_STAREMIASTO.ulice.txt)"/>
  </node>
  <node id="473538706" version="1" timestamp="2009-08-25T13:15:29Z" uid="123700" user="Mala" changeset="2256316" lat="50.0637746" lon="19.9394209">
    <tag k="addr:city" v="Kraków@Kraków I Stare Miasto"/>
    <tag k="addr:housenumber" v="17"/>
    <tag k="addr:street" v="Świętego Marka"/>
    <tag k="source" v="http://ump.waw.pl/ retrieved 02:01:37 08/25/09 (UMP-Krakow/src/KRAKOW_I_STAREMIASTO.ulice.txt)"/>
  </node>
  <node id="473538708" version="1" timestamp="2009-08-25T13:15:29Z" uid="123700" user="Mala" changeset="2256316" lat="50.0632012" lon="19.9330549">
    <tag k="addr:city" v="Kraków@Kraków I Stare Miasto"/>
    <tag k="addr:housenumber" v="24"/>
    <tag k="addr:street" v="Szewska"/>
    <tag k="source" v="http://ump.waw.pl/ retrieved 02:01:37 08/25/09 (UMP-Krakow/src/KRAKOW_I_STAREMIASTO.ulice.txt)"/>
  </node>
  <node id="473538711" version="1" timestamp="2009-08-25T13:15:29Z" uid="123700" user="Mala" changeset="2256316" lat="50.0642321" lon="19.9395079">
    <tag k="addr:city" v="Kraków@Kraków I Stare Miasto"/>
    <tag k="addr:housenumber" v="13"/>
    <tag k="addr:street" v="Świętego Jana"/>
    <tag k="source" v="http://ump.waw.pl/ retrieved 02:01:37 08/25/09 (UMP-Krakow/src/KRAKOW_I_STAREMIASTO.ulice.txt)"/>
  </node>
  <node id="473538713" version="1" timestamp="2009-08-25T13:15:29Z" uid="123700" user="Mala" changeset="2256316" lat="50.0620936" lon="19.9342919">
    <tag k="addr:city" v="Kraków@Kraków I Stare Miasto"/>
    <tag k="addr:housenumber" v="11"/>
    <tag k="addr:street" v="Jagiellońska"/>
    <tag k="source" v="http://ump.waw.pl/ retrieved 02:01:37 08/25/09 (UMP-Krakow/src/KRAKOW_I_STAREMIASTO.ulice.txt)"/>
  </node>
  <node id="473538713" version="2" timestamp="2009-08-27T21:48:51Z" uid="123700" user="Mala" changeset="2283903" lat="50.0621468" lon="19.9343399">
    <tag k="addr:city" v="Kraków@Kraków I Stare Miasto"/>
    <tag k="addr:housenumber" v="11"/>
    <tag k="addr:street" v="Jagiellońska"/>
    <tag k="source" v="http://ump.waw.pl/ retrieved 02:01:37 08/25/09 (UMP-Krakow/src/KRAKOW_I_STAREMIASTO.ulice.txt)"/>
  </node>
  <node id="473538715" version="1" timestamp="2009-08-25T13:15:30Z" uid="123700" user="Mala" changeset="2256316" lat="50.0623077" lon="19.9411899">
    <tag k="addr:city" v="Kraków@Kraków I Stare Miasto"/>
    <tag k="addr:housenumber" v="25"/>
    <tag k="addr:street" v="Świętego Tomasza"/>
    <tag k="source" v="http://ump.waw.pl/ retrieved 02:01:37 08/25/09 (UMP-Krakow/src/KRAKOW_I_STAREMIASTO.ulice.txt)"/>
  </node>
  <node id="473538717" version="1" timestamp="2009-08-25T13:15:30Z" uid="123700" user="Mala" changeset="2256316" lat="50.0627626" lon="19.942751">
    <tag k="addr:city" v="Kraków@Kraków I Stare Miasto"/>
    <tag k="addr:housenumber" v="16"/>
    <tag k="addr:street" v="Świetego Krzyża"/>
    <tag k="source" v="http://ump.waw.pl/ retrieved 02:01:37 08/25/09 (UMP-Krakow/src/KRAKOW_I_STAREMIASTO.ulice.txt)"/>
  </node>
  <node id="473538717" version="2" timestamp="2009-08-27T21:48:51Z" uid="123700" user="Mala" changeset="2283903" lat="50.0627626" lon="19.942751">
    <tag k="addr:city" v="Kraków@Kraków I Stare Miasto"/>
    <tag k="addr:housenumber" v="16"/>
    <tag k="addr:street" v="Świętego Krzyża"/>
    <tag k="source" v="http://ump.waw.pl/ retrieved 02:01:37 08/25/09 (UMP-Krakow/src/KRAKOW_I_STAREMIASTO.ulice.txt)"/>
  </node>
  <node id="473538719" version="1" timestamp="2009-08-25T13:15:30Z" uid="123700" user="Mala" changeset="2256316" lat="50.06044" lon="19.94097">
    <tag k="addr:city" v="Kraków"/>
    <tag k="addr:housenumber" v="15"/>
    <tag k="addr:street" v="Sienna"/>
    <tag k="amenity" v="atm"/>
    <tag k="name" v="PKO BP"/>
    <tag k="source" v="http://ump.waw.pl/ retrieved 02:01:37 08/25/09 (UMP-Krakow/src/KRAKOW.bankomaty.pnt-converted.txt)"/>
  </node>
  <node id="473538722" version="1" timestamp="2009-08-25T13:15:30Z" uid="123700" user="Mala" changeset="2256316" lat="50.0638122" lon="19.9363843">
    <tag k="addr:city" v="Kraków@Kraków I Stare Miasto"/>
    <tag k="addr:housenumber" v="1"/>
    <tag k="addr:street" v="Świętego Tomasza"/>
    <tag k="source" v="http://ump.waw.pl/ retrieved 02:01:37 08/25/09 (UMP-Krakow/src/KRAKOW_I_STAREMIASTO.ulice.txt)"/>
  </node>
  <node id="473538724" version="1" timestamp="2009-08-25T13:15:30Z" uid="123700" user="Mala" changeset="2256316" lat="50.0628971" lon="19.9353741">
    <tag k="addr:city" v="Kraków@Kraków I Stare Miasto"/>
    <tag k="addr:housenumber" v="6"/>
    <tag k="addr:street" v="Jagiellońska"/>
    <tag k="source" v="http://ump.waw.pl/ retrieved 02:01:37 08/25/09 (UMP-Krakow/src/KRAKOW_I_STAREMIASTO.ulice.txt)"/>
  </node>
  <node id="473538724" version="2" timestamp="2009-08-27T21:48:50Z" uid="123700" user="Mala" changeset="2283903" lat="50.0629519" lon="19.9354336">
    <tag k="addr:city" v="Kraków@Kraków I Stare Miasto"/>
    <tag k="addr:housenumber" v="6"/>
    <tag k="addr:street" v="Jagiellońska"/>
    <tag k="source" v="http://ump.waw.pl/ retrieved 02:01:37 08/25/09 (UMP-Krakow/src/KRAKOW_I_STAREMIASTO.ulice.txt)"/>
  </node>
  <node id="473538724" version="3" timestamp="2009-08-28T12:13:25Z" uid="123700" user="Mala" changeset="2289476" lat="50.062936" lon="19.9354833">
    <tag k="addr:city" v="Kraków@Kraków I Stare Miasto"/>
    <tag k="addr:housenumber" v="6"/>
    <tag k="addr:street" v="Jagiellońska"/>
    <tag k="source" v="http://ump.waw.pl/ retrieved 02:01:37 08/25/09 (UMP-Krakow/src/KRAKOW_I_STAREMIASTO.ulice.txt)"/>
  </node>
  <node id="473538726" version="1" timestamp="2009-08-25T13:15:30Z" uid="123700" user="Mala" changeset="2256316" lat="50.06405" lon="19.942028">
    <tag k="addr:city" v="Kraków@Kraków I Stare Miasto"/>
    <tag k="addr:housenumber" v="34"/>
    <tag k="addr:street" v="Szpitalna"/>
    <tag k="source" v="http://ump.waw.pl/ retrieved 02:01:37 08/25/09 (UMP-Krakow/src/KRAKOW_I_STAREMIASTO.ulice.txt)"/>
  </node>
  <node id="473538728" version="1" timestamp="2009-08-25T13:15:30Z" uid="123700" user="Mala" changeset="2256316" lat="50.0639947" lon="19.9378257">
    <tag k="addr:city" v="Kraków@Kraków I Stare Miasto"/>
    <tag k="addr:housenumber" v="13"/>
    <tag k="addr:street" v="Sławkowska"/>
    <tag k="source" v="http://ump.waw.pl/ retrieved 02:01:37 08/25/09 (UMP-Krakow/src/KRAKOW_I_STAREMIASTO.ulice.txt)"/>
  </node>
  <node id="473538728" version="2" timestamp="2009-09-09T12:40:17Z" uid="123700" user="Mala" changeset="2424887" lat="50.0640838" lon="19.9378754">
    <tag k="addr:city" v="Kraków@Kraków I Stare Miasto"/>
    <tag k="addr:housenumber" v="13"/>
    <tag k="addr:street" v="Sławkowska"/>
    <tag k="source" v="http://ump.waw.pl/ retrieved 02:01:37 08/25/09 (UMP-Krakow/src/KRAKOW_I_STAREMIASTO.ulice.txt)"/>
  </node>
  <node id="473538730" version="1" timestamp="2009-08-25T13:15:30Z" uid="123700" user="Mala" changeset="2256316" lat="50.0632491" lon="19.940319">
    <tag k="addr:city" v="Kraków@Kraków I Stare Miasto"/>
    <tag k="addr:housenumber" v="25"/>
    <tag k="addr:street" v="Floriańska"/>
    <tag k="source" v="http://ump.waw.pl/ retrieved 02:01:37 08/25/09 (UMP-Krakow/src/KRAKOW_I_STAREMIASTO.ulice.txt)"/>
  </node>
  <node id="473538730" version="2" timestamp="2009-09-09T12:40:16Z" uid="123700" user="Mala" changeset="2424887" lat="50.0631885" lon="19.9402718">
    <tag k="addr:city" v="Kraków@Kraków I Stare Miasto"/>
    <tag k="addr:housenumber" v="23"/>
    <tag k="addr:street" v="Floriańska"/>
    <tag k="source" v="http://ump.waw.pl/ retrieved 02:01:37 08/25/09 (UMP-Krakow/src/KRAKOW_I_STAREMIASTO.ulice.txt)"/>
  </node>
  <node id="473538732" version="1" timestamp="2009-08-25T13:15:30Z" uid="123700" user="Mala" changeset="2256316" lat="50.0626173" lon="19.9409515">
    <tag k="addr:city" v="Kraków@Kraków I Stare Miasto"/>
    <tag k="addr:housenumber" v="16"/>
    <tag k="addr:street" v="Szpitalna"/>
    <tag k="source" v="http://ump.waw.pl/ retrieved 02:01:37 08/25/09 (UMP-Krakow/src/KRAKOW_I_STAREMIASTO.ulice.txt)"/>
  </node>
  <node id="473538734" version="1" timestamp="2009-08-25T13:15:30Z" uid="123700" user="Mala" changeset="2256316" lat="50.0627394" lon="19.9399787">
    <tag k="addr:city" v="Kraków@Kraków I Stare Miasto"/>
    <tag k="addr:housenumber" v="15"/>
    <tag k="addr:street" v="Floriańska"/>
    <tag k="source" v="http://ump.waw.pl/ retrieved 02:01:37 08/25/09 (UMP-Krakow/src/KRAKOW_I_STAREMIASTO.ulice.txt)"/>
  </node>
  <node id="473538735" version="1" timestamp="2009-08-25T13:15:30Z" uid="123700" user="Mala" changeset="2256316" lat="50.0589414" lon="19.9376641">
    <tag k="addr:city" v="Kraków"/>
    <tag k="addr:street" v="plac Wszystkich Świętych"/>
    <tag k="amenity" v="car_rental"/>
    <tag k="name" v="BikeOne - automatyczna wypożyczalnia rowerów"/>
    <tag k="phone" v="+48609901111"/>
    <tag k="source" v="http://ump.waw.pl/ retrieved 02:01:37 08/25/09 (UMP-Krakow/src/KRAKOW.transport.pnt-converted.txt)"/>
  </node>
  <node id="473538738" version="1" timestamp="2009-08-25T13:15:30Z" uid="123700" user="Mala" changeset="2256316" lat="50.0598083" lon="19.9387907">
    <tag k="addr:city" v="Kraków@Kraków I Stare Miasto"/>
    <tag k="addr:housenumber" v="13"/>
    <tag k="addr:street" v="Stolarska"/>
    <tag k="source" v="http://ump.waw.pl/ retrieved 02:01:37 08/25/09 (UMP-Krakow/src/KRAKOW_I_STAREMIASTO.ulice.txt)"/>
  </node>
  <node id="473538740" version="1" timestamp="2009-08-25T13:15:31Z" uid="123700" user="Mala" changeset="2256316" lat="50.0614153" lon="19.9401517">
    <tag k="addr:city" v="Kraków@Kraków I Stare Miasto"/>
    <tag k="addr:housenumber" v="6"/>
    <tag k="addr:street" v="plac Mariacki"/>
    <tag k="source" v="http://ump.waw.pl/ retrieved 02:01:37 08/25/09 (UMP-Krakow/src/KRAKOW_I_STAREMIASTO.ulice.txt)"/>
  </node>
  <node id="473538742" version="1" timestamp="2009-08-25T13:15:31Z" uid="123700" user="Mala" changeset="2256316" lat="50.0619095" lon="19.9424971">
    <tag k="addr:city" v="Kraków@Kraków I Stare Miasto"/>
    <tag k="addr:housenumber" v="13"/>
    <tag k="addr:street" v="Świetego Krzyża"/>
    <tag k="source" v="http://ump.waw.pl/ retrieved 02:01:37 08/25/09 (UMP-Krakow/src/KRAKOW_I_STAREMIASTO.ulice.txt)"/>
  </node>
  <node id="473538742" version="2" timestamp="2009-08-27T21:48:50Z" uid="123700" user="Mala" changeset="2283903" lat="50.0619095" lon="19.9424971">
    <tag k="addr:city" v="Kraków@Kraków I Stare Miasto"/>
    <tag k="addr:housenumber" v="13"/>
    <tag k="addr:street" v="Świętego Krzyża"/>
    <tag k="source" v="http://ump.waw.pl/ retrieved 02:01:37 08/25/09 (UMP-Krakow/src/KRAKOW_I_STAREMIASTO.ulice.txt)"/>
  </node>
  <node id="473538744" version="1" timestamp="2009-08-25T13:15:31Z" uid="123700" user="Mala" changeset="2256316" lat="50.0604263" lon="19.9360833">
    <tag k="addr:city" v="Kraków@Kraków I Stare Miasto"/>
    <tag k="addr:housenumber" v="7"/>
    <tag k="addr:street" v="Bracka"/>
    <tag k="source" v="http://ump.waw.pl/ retrieved 02:01:37 08/25/09 (UMP-Krakow/src/KRAKOW_I_STAREMIASTO.ulice.txt)"/>
  </node>
  <node id="473538746" version="1" timestamp="2009-08-25T13:15:31Z" uid="123700" user="Mala" changeset="2256316" lat="50.0632855" lon="19.9411732">
    <tag k="addr:city" v="Kraków@Kraków I Stare Miasto"/>
    <tag k="addr:housenumber" v="23"/>
    <tag k="addr:street" v="Świętego Marka"/>
    <tag k="source" v="http://ump.waw.pl/ retrieved 02:01:37 08/25/09 (UMP-Krakow/src/KRAKOW_I_STAREMIASTO.ulice.txt)"/>
  </node>
  <node id="473538748" version="1" timestamp="2009-08-25T13:15:31Z" uid="123700" user="Mala" changeset="2256316" lat="50.0630915" lon="19.9371518">
    <tag k="addr:city" v="Kraków@Kraków I Stare Miasto"/>
    <tag k="addr:housenumber" v="1"/>
    <tag k="addr:street" v="Sławkowska"/>
    <tag k="source" v="http://ump.waw.pl/ retrieved 02:01:37 08/25/09 (UMP-Krakow/src/KRAKOW_I_STAREMIASTO.ulice.txt)"/>
  </node>
  <node id="473538748" version="2" timestamp="2009-09-09T12:40:16Z" uid="123700" user="Mala" changeset="2424887" lat="50.0630479" lon="19.937114">
    <tag k="addr:city" v="Kraków@Kraków I Stare Miasto"/>
    <tag k="addr:housenumber" v="1"/>
    <tag k="addr:street" v="Sławkowska"/>
    <tag k="source" v="http://ump.waw.pl/ retrieved 02:01:37 08/25/09 (UMP-Krakow/src/KRAKOW_I_STAREMIASTO.ulice.txt)"/>
  </node>
  <node id="473538749" version="1" timestamp="2009-08-25T13:15:31Z" uid="123700" user="Mala" changeset="2256316" lat="50.0622976" lon="19.9391712">
    <tag k="addr:city" v="Kraków@Kraków I Stare Miasto"/>
    <tag k="addr:housenumber" v="2"/>
    <tag k="addr:street" v="Floriańska"/>
    <tag k="source" v="http://ump.waw.pl/ retrieved 02:01:37 08/25/09 (UMP-Krakow/src/KRAKOW_I_STAREMIASTO.ulice.txt)"/>
  </node>
  <node id="473538751" version="1" timestamp="2009-08-25T13:15:31Z" uid="123700" user="Mala" changeset="2256316" lat="50.0593299" lon="19.9386596">
    <tag k="addr:city" v="Kraków@Kraków I Stare Miasto"/>
    <tag k="addr:housenumber" v="2"/>
    <tag k="addr:street" v="plac Dominikański"/>
    <tag k="source" v="http://ump.waw.pl/ retrieved 02:01:37 08/25/09 (UMP-Krakow/src/KRAKOW_I_STAREMIASTO.ulice.txt)"/>
  </node>
  <node id="473538753" version="1" timestamp="2009-08-25T13:15:31Z" uid="123700" user="Mala" changeset="2256316" lat="50.063755" lon="19.9372952">
    <tag k="addr:city" v="Kraków@Kraków I Stare Miasto"/>
    <tag k="addr:housenumber" v="10"/>
    <tag k="addr:street" v="Sławkowska"/>
    <tag k="source" v="http://ump.waw.pl/ retrieved 02:01:37 08/25/09 (UMP-Krakow/src/KRAKOW_I_STAREMIASTO.ulice.txt)"/>
  </node>
  <node id="473538755" version="1" timestamp="2009-08-25T13:15:31Z" uid="123700" user="Mala" changeset="2256316" lat="50.0626171" lon="19.9394209">
    <tag k="addr:city" v="Kraków@Kraków I Stare Miasto"/>
    <tag k="addr:housenumber" v="6"/>
    <tag k="addr:street" v="Floriańska"/>
    <tag k="source" v="http://ump.waw.pl/ retrieved 02:01:37 08/25/09 (UMP-Krakow/src/KRAKOW_I_STAREMIASTO.ulice.txt)"/>
  </node>
  <node id="473538757" version="1" timestamp="2009-08-25T13:15:31Z" uid="123700" user="Mala" changeset="2256316" lat="50.0608352" lon="19.934663">
    <tag k="addr:city" v="Kraków@Kraków I Stare Miasto"/>
    <tag k="addr:housenumber" v="7"/>
    <tag k="addr:street" v="Gołębia"/>
    <tag k="source" v="http://ump.waw.pl/ retrieved 02:01:37 08/25/09 (UMP-Krakow/src/KRAKOW_I_STAREMIASTO.ulice.txt)"/>
  </node>
  <node id="473538759" version="1" timestamp="2009-08-25T13:15:31Z" uid="123700" user="Mala" changeset="2256316" lat="50.061793" lon="19.9431061">
    <tag k="addr:city" v="Kraków@Kraków I Stare Miasto"/>
    <tag k="addr:housenumber" v="43"/>
    <tag k="addr:street" v="Świętego Tomasza"/>
    <tag k="source" v="http://ump.waw.pl/ retrieved 02:01:37 08/25/09 (UMP-Krakow/src/KRAKOW_I_STAREMIASTO.ulice.txt)"/>
  </node>
  <node id="473538760" version="1" timestamp="2009-08-25T13:15:31Z" uid="123700" user="Mala" changeset="2256316" lat="50.0604256" lon="19.9350019">
    <tag k="addr:city" v="Kraków@Kraków I Stare Miasto"/>
    <tag k="addr:housenumber" v="10"/>
    <tag k="addr:street" v="Gołębia"/>
    <tag k="source" v="http://ump.waw.pl/ retrieved 02:01:37 08/25/09 (UMP-Krakow/src/KRAKOW_I_STAREMIASTO.ulice.txt)"/>
  </node>
  <node id="473538762" version="1" timestamp="2009-08-25T13:15:31Z" uid="123700" user="Mala" changeset="2256316" lat="50.059798" lon="19.9363812">
    <tag k="addr:city" v="Kraków@Kraków I Stare Miasto"/>
    <tag k="addr:housenumber" v="12"/>
    <tag k="addr:street" v="Bracka"/>
    <tag k="source" v="http://ump.waw.pl/ retrieved 02:01:37 08/25/09 (UMP-Krakow/src/KRAKOW_I_STAREMIASTO.ulice.txt)"/>
  </node>
  <node id="473538764" version="1" timestamp="2009-08-25T13:15:31Z" uid="123700" user="Mala" changeset="2256316" lat="50.0621461" lon="19.9332228">
    <tag k="addr:city" v="Kraków@Kraków I Stare Miasto"/>
    <tag k="addr:housenumber" v="10"/>
    <tag k="addr:street" v="Świetej Anny"/>
    <tag k="source" v="http://ump.waw.pl/ retrieved 02:01:37 08/25/09 (UMP-Krakow/src/KRAKOW_I_STAREMIASTO.ulice.txt)"/>
  </node>
  <node id="473538764" version="2" timestamp="2009-08-27T21:48:51Z" uid="123700" user="Mala" changeset="2283903" lat="50.0621461" lon="19.9332228">
    <tag k="addr:city" v="Kraków@Kraków I Stare Miasto"/>
    <tag k="addr:housenumber" v="10"/>
    <tag k="addr:street" v="Świętej Anny"/>
    <tag k="source" v="http://ump.waw.pl/ retrieved 02:01:37 08/25/09 (UMP-Krakow/src/KRAKOW_I_STAREMIASTO.ulice.txt)"/>
  </node>
  <node id="473538766" version="1" timestamp="2009-08-25T13:15:31Z" uid="123700" user="Mala" changeset="2256316" lat="50.0624906" lon="19.9406263">
    <tag k="addr:city" v="Kraków@Kraków I Stare Miasto"/>
    <tag k="addr:housenumber" v="23"/>
    <tag k="addr:street" v="Świętego Tomasza"/>
    <tag k="source" v="http://ump.waw.pl/ retrieved 02:01:37 08/25/09 (UMP-Krakow/src/KRAKOW_I_STAREMIASTO.ulice.txt)"/>
  </node>
  <node id="473538767" version="1" timestamp="2009-08-25T13:15:32Z" uid="123700" user="Mala" changeset="2256316" lat="50.061984" lon="19.9341871">
    <tag k="addr:city" v="Kraków@Kraków I Stare Miasto"/>
    <tag k="addr:housenumber" v="13"/>
    <tag k="addr:street" v="Jagiellońska"/>
    <tag k="source" v="http://ump.waw.pl/ retrieved 02:01:37 08/25/09 (UMP-Krakow/src/KRAKOW_I_STAREMIASTO.ulice.txt)"/>
  </node>
  <node id="473538767" version="2" timestamp="2009-08-27T21:48:51Z" uid="123700" user="Mala" changeset="2283903" lat="50.0620372" lon="19.9342351">
    <tag k="addr:city" v="Kraków@Kraków I Stare Miasto"/>
    <tag k="addr:housenumber" v="13"/>
    <tag k="addr:street" v="Jagiellońska"/>
    <tag k="source" v="http://ump.waw.pl/ retrieved 02:01:37 08/25/09 (UMP-Krakow/src/KRAKOW_I_STAREMIASTO.ulice.txt)"/>
  </node>
  <node id="473538768" version="1" timestamp="2009-08-25T13:15:32Z" uid="123700" user="Mala" changeset="2256316" lat="50.0650366" lon="19.9406255">
    <tag k="addr:city" v="Kraków"/>
    <tag k="name" v="Baszta Stolarska"/>
    <tag k="source" v="http://ump.waw.pl/ retrieved 02:01:37 08/25/09 (UMP-Krakow/src/KRAKOW.zabytki.pnt-converted.txt)"/>
    <tag k="tourism" v="museum"/>
  </node>
  <node id="473538769" version="1" timestamp="2009-08-25T13:15:32Z" uid="123700" user="Mala" changeset="2256316" lat="50.0631127" lon="19.9431755">
    <tag k="addr:city" v="Kraków@Kraków I Stare Miasto"/>
    <tag k="addr:housenumber" v="3"/>
    <tag k="addr:street" v="plac Świętego Ducha"/>
    <tag k="source" v="http://ump.waw.pl/ retrieved 02:01:37 08/25/09 (UMP-Krakow/src/KRAKOW_I_STAREMIASTO.ulice.txt)"/>
  </node>
  <node id="473538770" version="1" timestamp="2009-08-25T13:15:32Z" uid="123700" user="Mala" changeset="2256316" lat="50.0646992" lon="19.9383002">
    <tag k="addr:city" v="Kraków@Kraków I Stare Miasto"/>
    <tag k="addr:housenumber" v="17"/>
    <tag k="addr:street" v="Sławkowska"/>
    <tag k="source" v="http://ump.waw.pl/ retrieved 02:01:37 08/25/09 (UMP-Krakow/src/KRAKOW_I_STAREMIASTO.ulice.txt)"/>
  </node>
  <node id="473538770" version="2" timestamp="2009-09-09T12:40:17Z" uid="123700" user="Mala" changeset="2424887" lat="50.064835" lon="19.938412">
    <tag k="addr:city" v="Kraków@Kraków I Stare Miasto"/>
    <tag k="addr:housenumber" v="17"/>
    <tag k="addr:street" v="Sławkowska"/>
    <tag k="source" v="http://ump.waw.pl/ retrieved 02:01:37 08/25/09 (UMP-Krakow/src/KRAKOW_I_STAREMIASTO.ulice.txt)"/>
  </node>
  <node id="473538771" version="1" timestamp="2009-08-25T13:15:32Z" uid="123700" user="Mala" changeset="2256316" lat="50.0634943" lon="19.9416288">
    <tag k="addr:city" v="Kraków@Kraków I Stare Miasto"/>
    <tag k="addr:housenumber" v="30"/>
    <tag k="addr:street" v="Szpitalna"/>
    <tag k="source" v="http://ump.waw.pl/ retrieved 02:01:37 08/25/09 (UMP-Krakow/src/KRAKOW_I_STAREMIASTO.ulice.txt)"/>
  </node>
  <node id="473538772" version="1" timestamp="2009-08-25T13:15:32Z" uid="123700" user="Mala" changeset="2256316" lat="50.0643474" lon="19.9411355">
    <tag k="addr:city" v="Kraków@Kraków I Stare Miasto"/>
    <tag k="addr:housenumber" v="47"/>
    <tag k="addr:street" v="Floriańska"/>
    <tag k="source" v="http://ump.waw.pl/ retrieved 02:01:37 08/25/09 (UMP-Krakow/src/KRAKOW_I_STAREMIASTO.ulice.txt)"/>
  </node>
  <node id="473538773" version="1" timestamp="2009-08-25T13:15:32Z" uid="123700" user="Mala" changeset="2256316" lat="50.0603784" lon="19.939103">
    <tag k="addr:city" v="Kraków@Kraków I Stare Miasto"/>
    <tag k="addr:housenumber" v="5"/>
    <tag k="addr:street" v="Stolarska"/>
    <tag k="source" v="http://ump.waw.pl/ retrieved 02:01:37 08/25/09 (UMP-Krakow/src/KRAKOW_I_STAREMIASTO.ulice.txt)"/>
  </node>
  <node id="473538774" version="1" timestamp="2009-08-25T13:15:32Z" uid="123700" user="Mala" changeset="2256316" lat="50.0620776" lon="19.9334057">
    <tag k="addr:city" v="Kraków@Kraków I Stare Miasto"/>
    <tag k="addr:housenumber" v="8"/>
    <tag k="addr:street" v="Świetej Anny"/>
    <tag k="source" v="http://ump.waw.pl/ retrieved 02:01:37 08/25/09 (UMP-Krakow/src/KRAKOW_I_STAREMIASTO.ulice.txt)"/>
  </node>
  <node id="473538774" version="2" timestamp="2009-08-27T21:48:51Z" uid="123700" user="Mala" changeset="2283903" lat="50.0620776" lon="19.9334057">
    <tag k="addr:city" v="Kraków@Kraków I Stare Miasto"/>
    <tag k="addr:housenumber" v="8"/>
    <tag k="addr:street" v="Świętej Anny"/>
    <tag k="source" v="http://ump.waw.pl/ retrieved 02:01:37 08/25/09 (UMP-Krakow/src/KRAKOW_I_STAREMIASTO.ulice.txt)"/>
  </node>
  <node id="473538775" version="1" timestamp="2009-08-25T13:15:32Z" uid="123700" user="Mala" changeset="2256316" lat="50.0634054" lon="19.9407983">
    <tag k="addr:city" v="Kraków@Kraków I Stare Miasto"/>
    <tag k="addr:housenumber" v="21"/>
    <tag k="addr:street" v="Świętego Marka"/>
    <tag k="source" v="http://ump.waw.pl/ retrieved 02:01:37 08/25/09 (UMP-Krakow/src/KRAKOW_I_STAREMIASTO.ulice.txt)"/>
  </node>
  <node id="473538776" version="1" timestamp="2009-08-25T13:15:33Z" uid="123700" user="Mala" changeset="2256316" lat="50.0626307" lon="19.943377">
    <tag k="addr:city" v="Kraków@Kraków I Stare Miasto"/>
    <tag k="addr:housenumber" v="35"/>
    <tag k="addr:street" v="Świętego Marka"/>
    <tag k="source" v="http://ump.waw.pl/ retrieved 02:01:37 08/25/09 (UMP-Krakow/src/KRAKOW_I_STAREMIASTO.ulice.txt)"/>
  </node>
  <node id="473538777" version="1" timestamp="2009-08-25T13:15:33Z" uid="123700" user="Mala" changeset="2256316" lat="50.0634264" lon="19.9404574">
    <tag k="addr:city" v="Kraków@Kraków I Stare Miasto"/>
    <tag k="addr:housenumber" v="29"/>
    <tag k="addr:street" v="Floriańska"/>
    <tag k="source" v="http://ump.waw.pl/ retrieved 02:01:37 08/25/09 (UMP-Krakow/src/KRAKOW_I_STAREMIASTO.ulice.txt)"/>
  </node>
  <node id="473538777" version="2" timestamp="2009-09-09T12:40:17Z" uid="123700" user="Mala" changeset="2424887" lat="50.0634269" lon="19.9404559">
    <tag k="addr:city" v="Kraków@Kraków I Stare Miasto"/>
    <tag k="addr:housenumber" v="29"/>
    <tag k="addr:street" v="Floriańska"/>
    <tag k="source" v="http://ump.waw.pl/ retrieved 02:01:37 08/25/09 (UMP-Krakow/src/KRAKOW_I_STAREMIASTO.ulice.txt)"/>
  </node>
  <node id="473538778" version="1" timestamp="2009-08-25T13:15:33Z" uid="123700" user="Mala" changeset="2256316" lat="50.0627017" lon="19.9431647">
    <tag k="addr:city" v="Kraków@Kraków I Stare Miasto"/>
    <tag k="addr:housenumber" v="33"/>
    <tag k="addr:street" v="Świętego Marka"/>
    <tag k="source" v="http://ump.waw.pl/ retrieved 02:01:37 08/25/09 (UMP-Krakow/src/KRAKOW_I_STAREMIASTO.ulice.txt)"/>
  </node>
  <node id="473538779" version="1" timestamp="2009-08-25T13:15:33Z" uid="123700" user="Mala" changeset="2256316" lat="50.05497" lon="19.9380894">
    <tag k="addr:city" v="Kraków"/>
    <tag k="name" v="Dąb 750-lecia"/>
    <tag k="natural" v="tree"/>
    <tag k="source" v="http://ump.waw.pl/ retrieved 02:01:37 08/25/09 (UMP-Krakow/src/KRAKOW.zabytki.pnt-converted.txt)"/>
  </node>
  <node id="473538780" version="1" timestamp="2009-08-25T13:15:33Z" uid="123700" user="Mala" changeset="2256316" lat="50.062151" lon="19.9337128">
    <tag k="addr:city" v="Kraków-Stare Miasto"/>
    <tag k="addr:housenumber" v="11"/>
    <tag k="addr:street" v="Świętej Anny"/>
  </node>
  <node id="473538780" version="2" timestamp="2009-08-27T21:48:51Z" uid="123700" user="Mala" changeset="2283903" lat="50.0621776" lon="19.9336018">
    <tag k="addr:city" v="Kraków-Stare Miasto"/>
    <tag k="addr:housenumber" v="11"/>
    <tag k="addr:street" v="Świętej Anny"/>
  </node>
  <node id="473538781" version="1" timestamp="2009-08-25T13:15:33Z" uid="123700" user="Mala" changeset="2256316" lat="50.060367" lon="19.9363611">
    <tag k="addr:city" v="Kraków"/>
    <tag k="addr:housenumber" v="4"/>
    <tag k="addr:postcode" v="31-005"/>
    <tag k="addr:street" v="Bracka"/>
    <tag k="name" v="Hostel Mama&apos;s"/>
    <tag k="phone" v="+48124295940"/>
    <tag k="source" v="http://ump.waw.pl/ retrieved 02:01:37 08/25/09 (UMP-Krakow/src/KRAKOW.hotele.pnt-converted.txt)"/>
    <tag k="tourism" v="hotel"/>
  </node>
  <node id="473538782" version="1" timestamp="2009-08-25T13:15:33Z" uid="123700" user="Mala" changeset="2256316" lat="50.0536478" lon="19.9337552">
    <tag k="addr:city" v="Kraków"/>
    <tag k="man_made" v="tower"/>
    <tag k="name" v="Baszta Złodziejska"/>
    <tag k="source" v="http://ump.waw.pl/ retrieved 02:01:37 08/25/09 (UMP-Krakow/src/KRAKOW.zabytki.pnt-converted.txt)"/>
  </node>
  <node id="473538783" version="1" timestamp="2009-08-25T13:15:33Z" uid="123700" user="Mala" changeset="2256316" lat="50.06447" lon="19.94342">
    <tag k="addr:city" v="Kraków"/>
    <tag k="name" v="Informacja Turystyczna"/>
    <tag k="source" v="http://ump.waw.pl/ retrieved 02:01:37 08/25/09 (UMP-Krakow/src/KRAKOW.dorozlozenia.pnt-converted.txt)"/>
    <tag k="tourism" v="information"/>
  </node>
  <node id="473538784" version="1" timestamp="2009-08-25T13:15:33Z" uid="123700" user="Mala" changeset="2256316" lat="50.0640311" lon="19.9393838">
    <tag k="addr:city" v="Kraków@Kraków I Stare Miasto"/>
    <tag k="addr:housenumber" v="7"/>
    <tag k="addr:street" v="Świętego Jana"/>
    <tag k="source" v="http://ump.waw.pl/ retrieved 02:01:37 08/25/09 (UMP-Krakow/src/KRAKOW_I_STAREMIASTO.ulice.txt)"/>
  </node>
  <node id="473538785" version="1" timestamp="2009-08-25T13:15:33Z" uid="123700" user="Mala" changeset="2256316" lat="50.0618256" lon="19.9407785">
    <tag k="addr:city" v="Kraków@Kraków I Stare Miasto"/>
    <tag k="addr:housenumber" v="1"/>
    <tag k="addr:street" v="Szpitalna"/>
    <tag k="source" v="http://ump.waw.pl/ retrieved 02:01:37 08/25/09 (UMP-Krakow/src/KRAKOW_I_STAREMIASTO.ulice.txt)"/>
  </node>
  <node id="473538786" version="1" timestamp="2009-08-25T13:15:33Z" uid="123700" user="Mala" changeset="2256316" lat="50.0613198" lon="19.9422274">
    <tag k="addr:city" v="Kraków@Kraków I Stare Miasto"/>
    <tag k="addr:housenumber" v="13"/>
    <tag k="addr:street" v="Mikołajska"/>
    <tag k="source" v="http://ump.waw.pl/ retrieved 02:01:37 08/25/09 (UMP-Krakow/src/KRAKOW_I_STAREMIASTO.ulice.txt)"/>
  </node>
  <node id="473538788" version="1" timestamp="2009-08-25T13:15:33Z" uid="123700" user="Mala" changeset="2256316" lat="50.0646307" lon="19.9418816"/>
  <node id="473538789" version="1" timestamp="2009-08-25T13:15:33Z" uid="123700" user="Mala" changeset="2256316" lat="50.0628021" lon="19.9426058">
    <tag k="addr:city" v="Kraków@Kraków I Stare Miasto"/>
    <tag k="addr:housenumber" v="31"/>
    <tag k="addr:street" v="Świętego Marka"/>
    <tag k="source" v="http://ump.waw.pl/ retrieved 02:01:37 08/25/09 (UMP-Krakow/src/KRAKOW_I_STAREMIASTO.ulice.txt)"/>
  </node>
  <node id="473538791" version="1" timestamp="2009-08-25T13:15:34Z" uid="123700" user="Mala" changeset="2256316" lat="50.0641185" lon="19.9409748">
    <tag k="addr:city" v="Kraków@Kraków I Stare Miasto"/>
    <tag k="addr:housenumber" v="43"/>
    <tag k="addr:street" v="Floriańska"/>
    <tag k="source" v="http://ump.waw.pl/ retrieved 02:01:37 08/25/09 (UMP-Krakow/src/KRAKOW_I_STAREMIASTO.ulice.txt)"/>
  </node>
  <node id="473538792" version="1" timestamp="2009-08-25T13:15:34Z" uid="123700" user="Mala" changeset="2256316" lat="50.0622549" lon="19.9410934">
    <tag k="addr:city" v="Kraków@Kraków I Stare Miasto"/>
    <tag k="addr:housenumber" v="9"/>
    <tag k="addr:street" v="Szpitalna"/>
    <tag k="source" v="http://ump.waw.pl/ retrieved 02:01:37 08/25/09 (UMP-Krakow/src/KRAKOW_I_STAREMIASTO.ulice.txt)"/>
  </node>
  <node id="473538794" version="1" timestamp="2009-08-25T13:15:34Z" uid="123700" user="Mala" changeset="2256316" lat="50.063486" lon="19.9405032">
    <tag k="addr:city" v="Kraków@Kraków I Stare Miasto"/>
    <tag k="addr:housenumber" v="31"/>
    <tag k="addr:street" v="Floriańska"/>
    <tag k="source" v="http://ump.waw.pl/ retrieved 02:01:37 08/25/09 (UMP-Krakow/src/KRAKOW_I_STAREMIASTO.ulice.txt)"/>
  </node>
  <node id="473538794" version="2" timestamp="2009-09-09T12:40:17Z" uid="123700" user="Mala" changeset="2424887" lat="50.0635145" lon="19.9405206">
    <tag k="addr:city" v="Kraków@Kraków I Stare Miasto"/>
    <tag k="addr:housenumber" v="31"/>
    <tag k="addr:street" v="Floriańska"/>
    <tag k="source" v="http://ump.waw.pl/ retrieved 02:01:37 08/25/09 (UMP-Krakow/src/KRAKOW_I_STAREMIASTO.ulice.txt)"/>
  </node>
  <node id="473538796" version="1" timestamp="2009-08-25T13:15:34Z" uid="123700" user="Mala" changeset="2256316" lat="50.0625767" lon="19.9346097">
    <tag k="addr:city" v="Kraków@Kraków I Stare Miasto"/>
    <tag k="addr:housenumber" v="10"/>
    <tag k="addr:street" v="Szewska"/>
    <tag k="source" v="http://ump.waw.pl/ retrieved 02:01:37 08/25/09 (UMP-Krakow/src/KRAKOW_I_STAREMIASTO.ulice.txt)"/>
  </node>
  <node id="473538797" version="1" timestamp="2009-08-25T13:15:34Z" uid="123700" user="Mala" changeset="2256316" lat="50.0641125" lon="19.9390651">
    <tag k="addr:city" v="Kraków@Kraków I Stare Miasto"/>
    <tag k="addr:housenumber" v="12"/>
    <tag k="addr:street" v="Świętego Jana"/>
    <tag k="source" v="http://ump.waw.pl/ retrieved 02:01:37 08/25/09 (UMP-Krakow/src/KRAKOW_I_STAREMIASTO.ulice.txt)"/>
  </node>
  <node id="473538799" version="1" timestamp="2009-08-25T13:15:34Z" uid="123700" user="Mala" changeset="2256316" lat="50.062671" lon="19.9413847">
    <tag k="addr:city" v="Kraków@Kraków I Stare Miasto"/>
    <tag k="addr:housenumber" v="15"/>
    <tag k="addr:street" v="Szpitalna"/>
    <tag k="source" v="http://ump.waw.pl/ retrieved 02:01:37 08/25/09 (UMP-Krakow/src/KRAKOW_I_STAREMIASTO.ulice.txt)"/>
  </node>
  <node id="473538801" version="1" timestamp="2009-08-25T13:15:34Z" uid="123700" user="Mala" changeset="2256316" lat="50.0602613" lon="19.9354512">
    <tag k="addr:city" v="Kraków@Kraków I Stare Miasto"/>
    <tag k="addr:housenumber" v="4"/>
    <tag k="addr:street" v="Gołębia"/>
    <tag k="source" v="http://ump.waw.pl/ retrieved 02:01:37 08/25/09 (UMP-Krakow/src/KRAKOW_I_STAREMIASTO.ulice.txt)"/>
  </node>
  <node id="473538803" version="1" timestamp="2009-08-25T13:15:34Z" uid="123700" user="Mala" changeset="2256316" lat="50.0628778" lon="19.9338186">
    <tag k="addr:city" v="Kraków@Kraków I Stare Miasto"/>
    <tag k="addr:housenumber" v="20"/>
    <tag k="addr:street" v="Szewska"/>
    <tag k="source" v="http://ump.waw.pl/ retrieved 02:01:37 08/25/09 (UMP-Krakow/src/KRAKOW_I_STAREMIASTO.ulice.txt)"/>
  </node>
  <node id="473538803" version="2" timestamp="2009-09-07T17:37:59Z" uid="123700" user="Mala" changeset="2405083" lat="50.062903" lon="19.9337461">
    <tag k="addr:city" v="Kraków@Kraków I Stare Miasto"/>
    <tag k="addr:housenumber" v="20"/>
    <tag k="addr:street" v="Szewska"/>
    <tag k="source" v="http://ump.waw.pl/ retrieved 02:01:37 08/25/09 (UMP-Krakow/src/KRAKOW_I_STAREMIASTO.ulice.txt)"/>
  </node>
  <node id="473538805" version="1" timestamp="2009-08-25T13:15:34Z" uid="123700" user="Mala" changeset="2256316" lat="50.0591318" lon="19.9381024">
    <tag k="addr:city" v="Kraków@Kraków I Stare Miasto"/>
    <tag k="addr:housenumber" v="5"/>
    <tag k="addr:street" v="plac Dominikański"/>
    <tag k="source" v="http://ump.waw.pl/ retrieved 02:01:37 08/25/09 (UMP-Krakow/src/KRAKOW_I_STAREMIASTO.ulice.txt)"/>
  </node>
  <node id="473538806" version="1" timestamp="2009-08-25T13:15:34Z" uid="123700" user="Mala" changeset="2256316" lat="50.0635561" lon="19.9371153">
    <tag k="addr:city" v="Kraków@Kraków I Stare Miasto"/>
    <tag k="addr:housenumber" v="9"/>
    <tag k="addr:street" v="Świętego Tomasza"/>
    <tag k="source" v="http://ump.waw.pl/ retrieved 02:01:37 08/25/09 (UMP-Krakow/src/KRAKOW_I_STAREMIASTO.ulice.txt)"/>
  </node>
  <node id="473538815" version="1" timestamp="2009-08-25T13:15:35Z" uid="123700" user="Mala" changeset="2256316" lat="50.0615651" lon="19.9346815">
    <tag k="addr:city" v="Kraków@Kraków I Stare Miasto"/>
    <tag k="addr:housenumber" v="6"/>
    <tag k="addr:street" v="Świętej Anny"/>
    <tag k="source" v="http://ump.waw.pl/ retrieved 02:01:37 08/25/09 (UMP-Krakow/src/KRAKOW_I_STAREMIASTO.ulice.txt)"/>
  </node>
  <node id="473538817" version="1" timestamp="2009-08-25T13:15:35Z" uid="123700" user="Mala" changeset="2256316" lat="50.0614999" lon="19.9430843">
    <tag k="addr:city" v="Kraków@Kraków I Stare Miasto"/>
    <tag k="addr:housenumber" v="32"/>
    <tag k="addr:street" v="Mikołajska"/>
    <tag k="source" v="http://ump.waw.pl/ retrieved 02:01:37 08/25/09 (UMP-Krakow/src/KRAKOW_I_STAREMIASTO.ulice.txt)"/>
  </node>
  <node id="473538820" version="1" timestamp="2009-08-25T13:15:35Z" uid="123700" user="Mala" changeset="2256316" lat="50.0633153" lon="19.9369757">
    <tag k="addr:city" v="Kraków@Kraków I Stare Miasto"/>
    <tag k="addr:housenumber" v="4"/>
    <tag k="addr:street" v="Sławkowska"/>
    <tag k="source" v="http://ump.waw.pl/ retrieved 02:01:37 08/25/09 (UMP-Krakow/src/KRAKOW_I_STAREMIASTO.ulice.txt)"/>
  </node>
  <node id="473538820" version="2" timestamp="2009-09-09T12:40:18Z" uid="123700" user="Mala" changeset="2424887" lat="50.0632474" lon="19.9369568">
    <tag k="addr:city" v="Kraków"/>
    <tag k="addr:housenumber" v="4"/>
    <tag k="addr:street" v="Sławkowska"/>
    <tag k="amenity" v="cafe"/>
    <tag k="name" v="DeCafencja"/>
  </node>
  <node id="473538822" version="1" timestamp="2009-08-25T13:15:35Z" uid="123700" user="Mala" changeset="2256316" lat="50.060023" lon="19.9360868">
    <tag k="addr:city" v="Kraków@Kraków I Stare Miasto"/>
    <tag k="addr:housenumber" v="11"/>
    <tag k="addr:street" v="Bracka"/>
    <tag k="source" v="http://ump.waw.pl/ retrieved 02:01:37 08/25/09 (UMP-Krakow/src/KRAKOW_I_STAREMIASTO.ulice.txt)"/>
  </node>
  <node id="473538825" version="1" timestamp="2009-08-25T13:15:35Z" uid="123700" user="Mala" changeset="2256316" lat="50.0605978" lon="19.940183">
    <tag k="addr:city" v="Kraków@Kraków I Stare Miasto"/>
    <tag k="addr:housenumber" v="9"/>
    <tag k="addr:street" v="Sienna"/>
    <tag k="source" v="http://ump.waw.pl/ retrieved 02:01:37 08/25/09 (UMP-Krakow/src/KRAKOW_I_STAREMIASTO.ulice.txt)"/>
  </node>
  <node id="473538828" version="1" timestamp="2009-08-25T13:15:35Z" uid="123700" user="Mala" changeset="2256316" lat="50.0619761" lon="19.9425638">
    <tag k="addr:city" v="Kraków@Kraków I Stare Miasto"/>
    <tag k="addr:housenumber" v="37"/>
    <tag k="addr:street" v="Świętego Tomasza"/>
    <tag k="source" v="http://ump.waw.pl/ retrieved 02:01:37 08/25/09 (UMP-Krakow/src/KRAKOW_I_STAREMIASTO.ulice.txt)"/>
  </node>
  <node id="473538830" version="1" timestamp="2009-08-25T13:15:35Z" uid="123700" user="Mala" changeset="2256316" lat="50.0620067" lon="19.9340993">
    <tag k="addr:city" v="Kraków@Kraków I Stare Miasto"/>
    <tag k="addr:housenumber" v="9"/>
    <tag k="addr:street" v="Świetej Anny"/>
    <tag k="source" v="http://ump.waw.pl/ retrieved 02:01:37 08/25/09 (UMP-Krakow/src/KRAKOW_I_STAREMIASTO.ulice.txt)"/>
  </node>
  <node id="473538830" version="2" timestamp="2009-08-27T21:48:52Z" uid="123700" user="Mala" changeset="2283903" lat="50.0620333" lon="19.9339883">
    <tag k="addr:city" v="Kraków@Kraków I Stare Miasto"/>
    <tag k="addr:housenumber" v="9"/>
    <tag k="addr:street" v="Świętej Anny"/>
    <tag k="source" v="http://ump.waw.pl/ retrieved 02:01:37 08/25/09 (UMP-Krakow/src/KRAKOW_I_STAREMIASTO.ulice.txt)"/>
  </node>
  <node id="473538834" version="1" timestamp="2009-08-25T13:15:35Z" uid="123700" user="Mala" changeset="2256316" lat="50.061153" lon="19.9390858">
    <tag k="addr:city" v="Kraków@Kraków I Stare Miasto"/>
    <tag k="addr:housenumber" v="4"/>
    <tag k="addr:street" v="Sienna"/>
    <tag k="source" v="http://ump.waw.pl/ retrieved 02:01:37 08/25/09 (UMP-Krakow/src/KRAKOW_I_STAREMIASTO.ulice.txt)"/>
  </node>
  <node id="473538836" version="1" timestamp="2009-08-25T13:15:35Z" uid="123700" user="Mala" changeset="2256316" lat="50.0624272" lon="19.939746">
    <tag k="addr:city" v="Kraków@Kraków I Stare Miasto"/>
    <tag k="addr:housenumber" v="11"/>
    <tag k="addr:street" v="Floriańska"/>
    <tag k="source" v="http://ump.waw.pl/ retrieved 02:01:37 08/25/09 (UMP-Krakow/src/KRAKOW_I_STAREMIASTO.ulice.txt)"/>
  </node>
  <node id="473538836" version="2" timestamp="2009-09-09T12:40:18Z" uid="123700" user="Mala" changeset="2424887" lat="50.0625994" lon="19.9398744">
    <tag k="addr:city" v="Kraków@Kraków I Stare Miasto"/>
    <tag k="addr:housenumber" v="11"/>
    <tag k="addr:street" v="Floriańska"/>
    <tag k="source" v="http://ump.waw.pl/ retrieved 02:01:37 08/25/09 (UMP-Krakow/src/KRAKOW_I_STAREMIASTO.ulice.txt)"/>
  </node>
  <node id="473538839" version="1" timestamp="2009-08-25T13:15:35Z" uid="123700" user="Mala" changeset="2256316" lat="50.0640268" lon="19.9364398">
    <tag k="addr:city" v="Kraków@Kraków I Stare Miasto"/>
    <tag k="addr:housenumber" v="2"/>
    <tag k="addr:street" v="Świętego Tomasza"/>
    <tag k="source" v="http://ump.waw.pl/ retrieved 02:01:37 08/25/09 (UMP-Krakow/src/KRAKOW_I_STAREMIASTO.ulice.txt)"/>
  </node>
  <node id="473538842" version="1" timestamp="2009-08-25T13:15:35Z" uid="123700" user="Mala" changeset="2256316" lat="50.0636089" lon="19.9346729">
    <tag k="addr:city" v="Kraków@Kraków I Stare Miasto"/>
    <tag k="addr:housenumber" v="3"/>
    <tag k="addr:street" v="plac Szczepański"/>
    <tag k="source" v="http://ump.waw.pl/ retrieved 02:01:37 08/25/09 (UMP-Krakow/src/KRAKOW_I_STAREMIASTO.ulice.txt)"/>
  </node>
  <node id="473538842" version="2" timestamp="2009-08-27T21:48:52Z" uid="123700" user="Mala" changeset="2283903" lat="50.0636136" lon="19.9346771">
    <tag k="addr:city" v="Kraków@Kraków I Stare Miasto"/>
    <tag k="addr:housenumber" v="3"/>
    <tag k="addr:street" v="plac Szczepański"/>
    <tag k="source" v="http://ump.waw.pl/ retrieved 02:01:37 08/25/09 (UMP-Krakow/src/KRAKOW_I_STAREMIASTO.ulice.txt)"/>
  </node>
  <node id="473538844" version="1" timestamp="2009-08-25T13:15:36Z" uid="123700" user="Mala" changeset="2256316" lat="50.0607563" lon="19.9363333">
    <tag k="addr:city" v="Kraków@Kraków I Stare Miasto"/>
    <tag k="addr:housenumber" v="1"/>
    <tag k="addr:street" v="Bracka"/>
    <tag k="source" v="http://ump.waw.pl/ retrieved 02:01:37 08/25/09 (UMP-Krakow/src/KRAKOW_I_STAREMIASTO.ulice.txt)"/>
  </node>
  <node id="473538847" version="1" timestamp="2009-08-25T13:15:36Z" uid="123700" user="Mala" changeset="2256316" lat="50.0642412" lon="19.939282">
    <tag k="addr:city" v="Kraków"/>
    <tag k="addr:housenumber" v="17"/>
    <tag k="addr:street" v="Sławkowska"/>
    <tag k="amenity" v="hospital"/>
    <tag k="name" v="Centrum Badań Mikrobiologicznych"/>
    <tag k="phone" v="+48124217836"/>
    <tag k="source" v="http://ump.waw.pl/ retrieved 02:01:37 08/25/09 (UMP-Krakow/src/KRAKOW.szpitale.pnt-converted.txt)"/>
  </node>
  <node id="473538847" version="2" timestamp="2009-09-09T12:40:18Z" uid="123700" user="Mala" changeset="2424887" lat="50.064088" lon="19.9391189">
    <tag k="addr:city" v="Kraków"/>
    <tag k="addr:housenumber" v="17"/>
    <tag k="addr:street" v="Sławkowska"/>
    <tag k="amenity" v="hospital"/>
    <tag k="name" v="Centrum Badań Mikrobiologicznych"/>
    <tag k="phone" v="+48124217836"/>
    <tag k="source" v="http://ump.waw.pl/ retrieved 02:01:37 08/25/09 (UMP-Krakow/src/KRAKOW.szpitale.pnt-converted.txt)"/>
  </node>
  <node id="473538850" version="1" timestamp="2009-08-25T13:15:36Z" uid="123700" user="Mala" changeset="2256316" lat="50.0611597" lon="19.9419356">
    <tag k="addr:city" v="Kraków@Kraków I Stare Miasto"/>
    <tag k="addr:housenumber" v="7"/>
    <tag k="addr:street" v="Świetego Krzyża"/>
    <tag k="source" v="http://ump.waw.pl/ retrieved 02:01:37 08/25/09 (UMP-Krakow/src/KRAKOW_I_STAREMIASTO.ulice.txt)"/>
  </node>
  <node id="473538850" version="2" timestamp="2009-08-27T21:48:51Z" uid="123700" user="Mala" changeset="2283903" lat="50.0611597" lon="19.9419356">
    <tag k="addr:city" v="Kraków@Kraków I Stare Miasto"/>
    <tag k="addr:housenumber" v="7"/>
    <tag k="addr:street" v="Świętego Krzyża"/>
    <tag k="source" v="http://ump.waw.pl/ retrieved 02:01:37 08/25/09 (UMP-Krakow/src/KRAKOW_I_STAREMIASTO.ulice.txt)"/>
  </node>
  <node id="473538852" version="1" timestamp="2009-08-25T13:15:36Z" uid="123700" user="Mala" changeset="2256316" lat="50.0591574" lon="19.9386958">
    <tag k="addr:city" v="Kraków@Kraków I Stare Miasto"/>
    <tag k="addr:housenumber" v="4"/>
    <tag k="addr:street" v="plac Dominikański"/>
    <tag k="source" v="http://ump.waw.pl/ retrieved 02:01:37 08/25/09 (UMP-Krakow/src/KRAKOW_I_STAREMIASTO.ulice.txt)"/>
  </node>
  <node id="473538854" version="1" timestamp="2009-08-25T13:15:36Z" uid="123700" user="Mala" changeset="2256316" lat="50.0634015" lon="19.9375988">
    <tag k="addr:city" v="Kraków@Kraków I Stare Miasto"/>
    <tag k="addr:housenumber" v="11"/>
    <tag k="addr:street" v="Świętego Tomasza"/>
    <tag k="source" v="http://ump.waw.pl/ retrieved 02:01:37 08/25/09 (UMP-Krakow/src/KRAKOW_I_STAREMIASTO.ulice.txt)"/>
  </node>
  <node id="473538856" version="1" timestamp="2009-08-25T13:15:36Z" uid="123700" user="Mala" changeset="2256316" lat="50.06173" lon="19.93814">
    <tag k="addr:city" v="Kraków"/>
    <tag k="addr:street" v="Rynek Główny"/>
    <tag k="name" v="Kwiaciarki Krakowskie"/>
    <tag k="shop" v="florist"/>
    <tag k="source" v="http://ump.waw.pl/ retrieved 02:01:37 08/25/09 (UMP-Krakow/src/KRAKOW.atrakcje.pnt-converted.txt)"/>
    <tag k="tourism" v="attraction"/>
  </node>
  <node id="473538858" version="1" timestamp="2009-08-25T13:15:36Z" uid="123700" user="Mala" changeset="2256316" lat="50.0528254" lon="19.9350532">
    <tag k="addr:city" v="Kraków"/>
    <tag k="man_made" v="tower"/>
    <tag k="name" v="Baszta Sandomierska"/>
    <tag k="source" v="http://ump.waw.pl/ retrieved 02:01:37 08/25/09 (UMP-Krakow/src/KRAKOW.zabytki.pnt-converted.txt)"/>
  </node>
  <node id="473538860" version="1" timestamp="2009-08-25T13:15:36Z" uid="123700" user="Mala" changeset="2256316" lat="50.0628062" lon="19.9340067">
    <tag k="addr:city" v="Kraków@Kraków I Stare Miasto"/>
    <tag k="addr:housenumber" v="18"/>
    <tag k="addr:street" v="Szewska"/>
    <tag k="source" v="http://ump.waw.pl/ retrieved 02:01:37 08/25/09 (UMP-Krakow/src/KRAKOW_I_STAREMIASTO.ulice.txt)"/>
  </node>
  <node id="473538860" version="2" timestamp="2009-09-07T17:38:00Z" uid="123700" user="Mala" changeset="2405083" lat="50.0628443" lon="19.9339015">
    <tag k="addr:city" v="Kraków@Kraków I Stare Miasto"/>
    <tag k="addr:housenumber" v="18"/>
    <tag k="addr:street" v="Szewska"/>
    <tag k="source" v="http://ump.waw.pl/ retrieved 02:01:37 08/25/09 (UMP-Krakow/src/KRAKOW_I_STAREMIASTO.ulice.txt)"/>
  </node>
  <node id="473538862" version="1" timestamp="2009-08-25T13:15:36Z" uid="123700" user="Mala" changeset="2256316" lat="50.0629092" lon="19.9432248">
    <tag k="addr:city" v="Kraków@Kraków I Stare Miasto"/>
    <tag k="addr:housenumber" v="21"/>
    <tag k="addr:street" v="Świetego Krzyża"/>
    <tag k="source" v="http://ump.waw.pl/ retrieved 02:01:37 08/25/09 (UMP-Krakow/src/KRAKOW_I_STAREMIASTO.ulice.txt)"/>
  </node>
  <node id="473538862" version="2" timestamp="2009-08-27T21:48:51Z" uid="123700" user="Mala" changeset="2283903" lat="50.0629092" lon="19.9432248">
    <tag k="addr:city" v="Kraków@Kraków I Stare Miasto"/>
    <tag k="addr:housenumber" v="21"/>
    <tag k="addr:street" v="Świętego Krzyża"/>
    <tag k="source" v="http://ump.waw.pl/ retrieved 02:01:37 08/25/09 (UMP-Krakow/src/KRAKOW_I_STAREMIASTO.ulice.txt)"/>
  </node>
  <node id="473538863" version="1" timestamp="2009-08-25T13:15:36Z" uid="123700" user="Mala" changeset="2256316" lat="50.0630387" lon="19.9418328">
    <tag k="addr:city" v="Kraków@Kraków I Stare Miasto"/>
    <tag k="addr:housenumber" v="25"/>
    <tag k="addr:street" v="Świętego Marka"/>
    <tag k="source" v="http://ump.waw.pl/ retrieved 02:01:37 08/25/09 (UMP-Krakow/src/KRAKOW_I_STAREMIASTO.ulice.txt)"/>
  </node>
  <node id="473538865" version="1" timestamp="2009-08-25T13:15:36Z" uid="123700" user="Mala" changeset="2256316" lat="50.0644437" lon="19.9396385">
    <tag k="addr:city" v="Kraków@Kraków I Stare Miasto"/>
    <tag k="addr:housenumber" v="17"/>
    <tag k="addr:street" v="Świętego Jana"/>
    <tag k="source" v="http://ump.waw.pl/ retrieved 02:01:37 08/25/09 (UMP-Krakow/src/KRAKOW_I_STAREMIASTO.ulice.txt)"/>
  </node>
  <node id="473538867" version="1" timestamp="2009-08-25T13:15:36Z" uid="123700" user="Mala" changeset="2256316" lat="50.0612759" lon="19.9430292">
    <tag k="addr:city" v="Kraków@Kraków I Stare Miasto"/>
    <tag k="addr:housenumber" v="19"/>
    <tag k="addr:street" v="Mikołajska"/>
    <tag k="source" v="http://ump.waw.pl/ retrieved 02:01:37 08/25/09 (UMP-Krakow/src/KRAKOW_I_STAREMIASTO.ulice.txt)"/>
  </node>
  <node id="473538869" version="1" timestamp="2009-08-25T13:15:36Z" uid="123700" user="Mala" changeset="2256316" lat="50.0640907" lon="19.9362404">
    <tag k="addr:city" v="Kraków@Kraków I Stare Miasto"/>
    <tag k="addr:housenumber" v="7"/>
    <tag k="addr:street" v="plac Szczepański"/>
    <tag k="source" v="http://ump.waw.pl/ retrieved 02:01:37 08/25/09 (UMP-Krakow/src/KRAKOW_I_STAREMIASTO.ulice.txt)"/>
  </node>
  <node id="473538871" version="1" timestamp="2009-08-25T13:15:37Z" uid="123700" user="Mala" changeset="2256316" lat="50.0599591" lon="19.9375407">
    <tag k="addr:city" v="Kraków@Kraków I Stare Miasto"/>
    <tag k="addr:housenumber" v="3"/>
    <tag k="addr:street" v="Grodzka"/>
    <tag k="source" v="http://ump.waw.pl/ retrieved 02:01:37 08/25/09 (UMP-Krakow/src/KRAKOW_I_STAREMIASTO.ulice.txt)"/>
  </node>
  <node id="473538873" version="1" timestamp="2009-08-25T13:15:37Z" uid="123700" user="Mala" changeset="2256316" lat="50.061605" lon="19.9411714">
    <tag k="addr:city" v="Kraków@Kraków I Stare Miasto"/>
    <tag k="addr:housenumber" v="8"/>
    <tag k="addr:street" v="Mikołajska"/>
    <tag k="source" v="http://ump.waw.pl/ retrieved 02:01:37 08/25/09 (UMP-Krakow/src/KRAKOW_I_STAREMIASTO.ulice.txt)"/>
  </node>
  <node id="473538874" version="1" timestamp="2009-08-25T13:15:37Z" uid="123700" user="Mala" changeset="2256316" lat="50.0630171" lon="19.9429952">
    <tag k="addr:city" v="Kraków@Kraków I Stare Miasto"/>
    <tag k="addr:housenumber" v="18"/>
    <tag k="addr:street" v="Świetego Krzyża"/>
    <tag k="source" v="http://ump.waw.pl/ retrieved 02:01:37 08/25/09 (UMP-Krakow/src/KRAKOW_I_STAREMIASTO.ulice.txt)"/>
  </node>
  <node id="473538874" version="2" timestamp="2009-08-27T21:48:52Z" uid="123700" user="Mala" changeset="2283903" lat="50.0630171" lon="19.9429952">
    <tag k="addr:city" v="Kraków@Kraków I Stare Miasto"/>
    <tag k="addr:housenumber" v="18"/>
    <tag k="addr:street" v="Świętego Krzyża"/>
    <tag k="source" v="http://ump.waw.pl/ retrieved 02:01:37 08/25/09 (UMP-Krakow/src/KRAKOW_I_STAREMIASTO.ulice.txt)"/>
  </node>
  <node id="473538876" version="1" timestamp="2009-08-25T13:15:37Z" uid="123700" user="Mala" changeset="2256316" lat="50.0619592" lon="19.9404066">
    <tag k="addr:city" v="Kraków@Kraków I Stare Miasto"/>
    <tag k="addr:housenumber" v="4"/>
    <tag k="addr:street" v="Szpitalna"/>
    <tag k="source" v="http://ump.waw.pl/ retrieved 02:01:37 08/25/09 (UMP-Krakow/src/KRAKOW_I_STAREMIASTO.ulice.txt)"/>
  </node>
  <node id="473538878" version="1" timestamp="2009-08-25T13:15:37Z" uid="123700" user="Mala" changeset="2256316" lat="50.0610736" lon="19.9399056">
    <tag k="addr:city" v="Kraków@Kraków I Stare Miasto"/>
    <tag k="addr:housenumber" v="8"/>
    <tag k="addr:street" v="rynek Mały"/>
    <tag k="source" v="http://ump.waw.pl/ retrieved 02:01:37 08/25/09 (UMP-Krakow/src/KRAKOW_I_STAREMIASTO.ulice.txt)"/>
  </node>
  <node id="473538880" version="1" timestamp="2009-08-25T13:15:37Z" uid="123700" user="Mala" changeset="2256316" lat="50.0631055" lon="19.9386613">
    <tag k="addr:city" v="Kraków@Kraków I Stare Miasto"/>
    <tag k="addr:housenumber" v="5"/>
    <tag k="addr:street" v="Świętego Jana"/>
    <tag k="source" v="http://ump.waw.pl/ retrieved 02:01:37 08/25/09 (UMP-Krakow/src/KRAKOW_I_STAREMIASTO.ulice.txt)"/>
  </node>
  <node id="473538880" version="2" timestamp="2009-09-09T12:40:18Z" uid="123700" user="Mala" changeset="2424887" lat="50.0630982" lon="19.9386991">
    <tag k="addr:city" v="Kraków@Kraków I Stare Miasto"/>
    <tag k="addr:housenumber" v="5"/>
    <tag k="addr:street" v="Świętego Jana"/>
    <tag k="source" v="http://ump.waw.pl/ retrieved 02:01:37 08/25/09 (UMP-Krakow/src/KRAKOW_I_STAREMIASTO.ulice.txt)"/>
  </node>
  <node id="473538882" version="1" timestamp="2009-08-25T13:15:37Z" uid="123700" user="Mala" changeset="2256316" lat="50.0642844" lon="19.9421964">
    <tag k="addr:city" v="Kraków@Kraków I Stare Miasto"/>
    <tag k="addr:housenumber" v="38"/>
    <tag k="addr:street" v="Szpitalna"/>
    <tag k="source" v="http://ump.waw.pl/ retrieved 02:01:37 08/25/09 (UMP-Krakow/src/KRAKOW_I_STAREMIASTO.ulice.txt)"/>
  </node>
  <node id="473538884" version="1" timestamp="2009-08-25T13:15:37Z" uid="123700" user="Mala" changeset="2256316" lat="50.0618952" lon="19.9343576">
    <tag k="addr:city" v="Kraków@Kraków I Stare Miasto"/>
    <tag k="addr:housenumber" v="7"/>
    <tag k="addr:street" v="Świetej Anny"/>
    <tag k="source" v="http://ump.waw.pl/ retrieved 02:01:37 08/25/09 (UMP-Krakow/src/KRAKOW_I_STAREMIASTO.ulice.txt)"/>
  </node>
  <node id="473538884" version="2" timestamp="2009-08-27T21:48:52Z" uid="123700" user="Mala" changeset="2283903" lat="50.0618952" lon="19.9343576">
    <tag k="addr:city" v="Kraków@Kraków I Stare Miasto"/>
    <tag k="addr:housenumber" v="7"/>
    <tag k="addr:street" v="Świętej Anny"/>
    <tag k="source" v="http://ump.waw.pl/ retrieved 02:01:37 08/25/09 (UMP-Krakow/src/KRAKOW_I_STAREMIASTO.ulice.txt)"/>
  </node>
  <node id="473538890" version="1" timestamp="2009-08-25T13:15:37Z" uid="123700" user="Mala" changeset="2256316" lat="50.0620679" lon="19.9420176">
    <tag k="addr:city" v="Kraków@Kraków I Stare Miasto"/>
    <tag k="addr:housenumber" v="33"/>
    <tag k="addr:street" v="Świętego Tomasza"/>
    <tag k="source" v="http://ump.waw.pl/ retrieved 02:01:37 08/25/09 (UMP-Krakow/src/KRAKOW_I_STAREMIASTO.ulice.txt)"/>
  </node>
  <node id="473538892" version="1" timestamp="2009-08-25T13:15:38Z" uid="123700" user="Mala" changeset="2256316" lat="50.0616706" lon="19.9418829">
    <tag k="addr:city" v="Kraków@Kraków I Stare Miasto"/>
    <tag k="addr:housenumber" v="8"/>
    <tag k="addr:street" v="Świetego Krzyża"/>
    <tag k="source" v="http://ump.waw.pl/ retrieved 02:01:37 08/25/09 (UMP-Krakow/src/KRAKOW_I_STAREMIASTO.ulice.txt)"/>
  </node>
  <node id="473538892" version="2" timestamp="2009-08-27T21:48:52Z" uid="123700" user="Mala" changeset="2283903" lat="50.0616706" lon="19.9418829">
    <tag k="addr:city" v="Kraków@Kraków I Stare Miasto"/>
    <tag k="addr:housenumber" v="8"/>
    <tag k="addr:street" v="Świętego Krzyża"/>
    <tag k="source" v="http://ump.waw.pl/ retrieved 02:01:37 08/25/09 (UMP-Krakow/src/KRAKOW_I_STAREMIASTO.ulice.txt)"/>
  </node>
  <node id="473538894" version="1" timestamp="2009-08-25T13:15:38Z" uid="123700" user="Mala" changeset="2256316" lat="50.0614785" lon="19.9427874">
    <tag k="addr:city" v="Kraków"/>
    <tag k="addr:housenumber" v="28"/>
    <tag k="addr:postcode" v="31-027"/>
    <tag k="addr:street" v="Mikołajska"/>
    <tag k="name" v="Wit Stwosz ***"/>
    <tag k="phone" v="+48124296026"/>
    <tag k="source" v="http://ump.waw.pl/ retrieved 02:01:37 08/25/09 (UMP-Krakow/src/KRAKOW.hotele.pnt-converted.txt)"/>
    <tag k="tourism" v="hotel"/>
  </node>
  <node id="473538896" version="1" timestamp="2009-08-25T13:15:38Z" uid="123700" user="Mala" changeset="2256316" lat="50.0637911" lon="19.9371708">
    <tag k="addr:city" v="Kraków@Kraków I Stare Miasto"/>
    <tag k="addr:housenumber" v="10"/>
    <tag k="addr:street" v="Świętego Tomasza"/>
    <tag k="source" v="http://ump.waw.pl/ retrieved 02:01:37 08/25/09 (UMP-Krakow/src/KRAKOW_I_STAREMIASTO.ulice.txt)"/>
  </node>
  <node id="473538899" version="1" timestamp="2009-08-25T13:15:38Z" uid="123700" user="Mala" changeset="2256316" lat="50.0644999" lon="19.9422212">
    <tag k="addr:city" v="Kraków@Kraków I Stare Miasto"/>
    <tag k="addr:housenumber" v="23"/>
    <tag k="addr:street" v="Pijarska"/>
    <tag k="source" v="http://ump.waw.pl/ retrieved 02:01:37 08/25/09 (UMP-Krakow/src/KRAKOW_I_STAREMIASTO.ulice.txt)"/>
  </node>
  <node id="473538901" version="1" timestamp="2009-08-25T13:15:38Z" uid="123700" user="Mala" changeset="2256316" lat="50.0615325" lon="19.9414106">
    <tag k="addr:city" v="Kraków@Kraków I Stare Miasto"/>
    <tag k="addr:housenumber" v="14"/>
    <tag k="addr:street" v="Mikołajska"/>
    <tag k="source" v="http://ump.waw.pl/ retrieved 02:01:37 08/25/09 (UMP-Krakow/src/KRAKOW_I_STAREMIASTO.ulice.txt)"/>
  </node>
  <node id="473538903" version="1" timestamp="2009-08-25T13:15:38Z" uid="123700" user="Mala" changeset="2256316" lat="50.0646177" lon="19.9366986">
    <tag k="addr:city" v="Kraków@Kraków I Stare Miasto"/>
    <tag k="addr:housenumber" v="5"/>
    <tag k="addr:street" v="Świętego Marka"/>
    <tag k="source" v="http://ump.waw.pl/ retrieved 02:01:37 08/25/09 (UMP-Krakow/src/KRAKOW_I_STAREMIASTO.ulice.txt)"/>
  </node>
  <node id="473538905" version="1" timestamp="2009-08-25T13:15:38Z" uid="123700" user="Mala" changeset="2256316" lat="50.0642675" lon="19.9356783">
    <tag k="addr:city" v="Kraków@Kraków I Stare Miasto"/>
    <tag k="addr:housenumber" v="5"/>
    <tag k="addr:street" v="plac Szczepański"/>
    <tag k="source" v="http://ump.waw.pl/ retrieved 02:01:37 08/25/09 (UMP-Krakow/src/KRAKOW_I_STAREMIASTO.ulice.txt)"/>
  </node>
  <node id="473538906" version="1" timestamp="2009-08-25T13:15:38Z" uid="123700" user="Mala" changeset="2256316" lat="50.0627365" lon="19.9341899">
    <tag k="addr:city" v="Kraków@Kraków I Stare Miasto"/>
    <tag k="addr:housenumber" v="14"/>
    <tag k="addr:street" v="Szewska"/>
    <tag k="source" v="http://ump.waw.pl/ retrieved 02:01:37 08/25/09 (UMP-Krakow/src/KRAKOW_I_STAREMIASTO.ulice.txt)"/>
  </node>
  <node id="473538906" version="2" timestamp="2009-09-07T17:38:00Z" uid="123700" user="Mala" changeset="2405083" lat="50.062686" lon="19.9343204">
    <tag k="addr:city" v="Kraków@Kraków I Stare Miasto"/>
    <tag k="addr:housenumber" v="14"/>
    <tag k="addr:street" v="Szewska"/>
    <tag k="source" v="http://ump.waw.pl/ retrieved 02:01:37 08/25/09 (UMP-Krakow/src/KRAKOW_I_STAREMIASTO.ulice.txt)"/>
  </node>
  <node id="473538908" version="1" timestamp="2009-08-25T13:15:38Z" uid="123700" user="Mala" changeset="2256316" lat="50.0618601" lon="19.9402131">
    <tag k="addr:city" v="Kraków-Stare Miasto"/>
    <tag k="addr:housenumber" v="4"/>
    <tag k="addr:street" v="Plac Mariacki"/>
  </node>
  <node id="473538910" version="1" timestamp="2009-08-25T13:15:38Z" uid="123700" user="Mala" changeset="2256316" lat="50.0604888" lon="19.9405357">
    <tag k="addr:city" v="Kraków@Kraków I Stare Miasto"/>
    <tag k="addr:housenumber" v="11"/>
    <tag k="addr:street" v="Sienna"/>
    <tag k="source" v="http://ump.waw.pl/ retrieved 02:01:37 08/25/09 (UMP-Krakow/src/KRAKOW_I_STAREMIASTO.ulice.txt)"/>
  </node>
  <node id="473538912" version="1" timestamp="2009-08-25T13:15:38Z" uid="123700" user="Mala" changeset="2256316" lat="50.0602736" lon="19.9363929">
    <tag k="addr:city" v="Kraków@Kraków I Stare Miasto"/>
    <tag k="addr:housenumber" v="6"/>
    <tag k="addr:street" v="Bracka"/>
    <tag k="source" v="http://ump.waw.pl/ retrieved 02:01:37 08/25/09 (UMP-Krakow/src/KRAKOW_I_STAREMIASTO.ulice.txt)"/>
  </node>
  <node id="473538914" version="1" timestamp="2009-08-25T13:15:38Z" uid="123700" user="Mala" changeset="2256316" lat="50.0630426" lon="19.939752">
    <tag k="addr:city" v="Kraków@Kraków I Stare Miasto"/>
    <tag k="addr:housenumber" v="14"/>
    <tag k="addr:street" v="Floriańska"/>
    <tag k="source" v="http://ump.waw.pl/ retrieved 02:01:37 08/25/09 (UMP-Krakow/src/KRAKOW_I_STAREMIASTO.ulice.txt)"/>
  </node>
  <node id="473538917" version="1" timestamp="2009-08-25T13:15:38Z" uid="123700" user="Mala" changeset="2256316" lat="50.0646857" lon="19.9409931">
    <tag k="addr:city" v="Kraków@Kraków I Stare Miasto"/>
    <tag k="addr:housenumber" v="44"/>
    <tag k="addr:street" v="Floriańska"/>
    <tag k="source" v="http://ump.waw.pl/ retrieved 02:01:37 08/25/09 (UMP-Krakow/src/KRAKOW_I_STAREMIASTO.ulice.txt)"/>
  </node>
  <node id="473538919" version="1" timestamp="2009-08-25T13:15:38Z" uid="123700" user="Mala" changeset="2256316" lat="50.0637836" lon="19.9376799">
    <tag k="addr:city" v="Kraków@Kraków I Stare Miasto"/>
    <tag k="addr:housenumber" v="9"/>
    <tag k="addr:street" v="Sławkowska"/>
    <tag k="source" v="http://ump.waw.pl/ retrieved 02:01:37 08/25/09 (UMP-Krakow/src/KRAKOW_I_STAREMIASTO.ulice.txt)"/>
  </node>
  <node id="473538919" version="2" timestamp="2009-09-09T12:40:18Z" uid="123700" user="Mala" changeset="2424887" lat="50.0636612" lon="19.9375857">
    <tag k="addr:city" v="Kraków@Kraków I Stare Miasto"/>
    <tag k="addr:housenumber" v="9"/>
    <tag k="addr:street" v="Sławkowska"/>
    <tag k="source" v="http://ump.waw.pl/ retrieved 02:01:37 08/25/09 (UMP-Krakow/src/KRAKOW_I_STAREMIASTO.ulice.txt)"/>
  </node>
  <node id="473538922" version="1" timestamp="2009-08-25T13:15:39Z" uid="123700" user="Mala" changeset="2256316" lat="50.0607047" lon="19.9344902">
    <tag k="addr:city" v="Kraków@Kraków I Stare Miasto"/>
    <tag k="addr:housenumber" v="14"/>
    <tag k="addr:street" v="Gołębia"/>
    <tag k="source" v="http://ump.waw.pl/ retrieved 02:01:37 08/25/09 (UMP-Krakow/src/KRAKOW_I_STAREMIASTO.ulice.txt)"/>
  </node>
  <node id="473538925" version="1" timestamp="2009-08-25T13:15:39Z" uid="123700" user="Mala" changeset="2256316" lat="50.0636481" lon="19.9368528">
    <tag k="addr:city" v="Kraków@Kraków I Stare Miasto"/>
    <tag k="addr:housenumber" v="7"/>
    <tag k="addr:street" v="Świętego Tomasza"/>
    <tag k="source" v="http://ump.waw.pl/ retrieved 02:01:37 08/25/09 (UMP-Krakow/src/KRAKOW_I_STAREMIASTO.ulice.txt)"/>
  </node>
  <node id="473538928" version="1" timestamp="2009-08-25T13:15:39Z" uid="123700" user="Mala" changeset="2256316" lat="50.0646056" lon="19.9379121">
    <tag k="addr:city" v="Kraków@Kraków I Stare Miasto"/>
    <tag k="addr:housenumber" v="24"/>
    <tag k="addr:street" v="Sławkowska"/>
    <tag k="source" v="http://ump.waw.pl/ retrieved 02:01:37 08/25/09 (UMP-Krakow/src/KRAKOW_I_STAREMIASTO.ulice.txt)"/>
  </node>
  <node id="473538928" version="2" timestamp="2009-09-09T12:40:18Z" uid="123700" user="Mala" changeset="2424887" lat="50.0646095" lon="19.9378819">
    <tag k="addr:city" v="Kraków@Kraków I Stare Miasto"/>
    <tag k="addr:housenumber" v="24"/>
    <tag k="addr:street" v="Sławkowska"/>
    <tag k="source" v="http://ump.waw.pl/ retrieved 02:01:37 08/25/09 (UMP-Krakow/src/KRAKOW_I_STAREMIASTO.ulice.txt)"/>
  </node>
  <node id="473538930" version="1" timestamp="2009-08-25T13:15:39Z" uid="123700" user="Mala" changeset="2256316" lat="50.0622171" lon="19.9330334">
    <tag k="addr:city" v="Kraków@Kraków I Stare Miasto"/>
    <tag k="addr:housenumber" v="12"/>
    <tag k="addr:street" v="Świetej Anny"/>
    <tag k="source" v="http://ump.waw.pl/ retrieved 02:01:37 08/25/09 (UMP-Krakow/src/KRAKOW_I_STAREMIASTO.ulice.txt)"/>
  </node>
  <node id="473538930" version="2" timestamp="2009-08-27T21:48:52Z" uid="123700" user="Mala" changeset="2283903" lat="50.0622171" lon="19.9330334">
    <tag k="addr:city" v="Kraków@Kraków I Stare Miasto"/>
    <tag k="addr:housenumber" v="12"/>
    <tag k="addr:street" v="Świętej Anny"/>
    <tag k="source" v="http://ump.waw.pl/ retrieved 02:01:37 08/25/09 (UMP-Krakow/src/KRAKOW_I_STAREMIASTO.ulice.txt)"/>
  </node>
  <node id="473538933" version="1" timestamp="2009-08-25T13:15:39Z" uid="123700" user="Mala" changeset="2256316" lat="50.0631112" lon="19.93952">
    <tag k="addr:city" v="Kraków@Kraków I Stare Miasto"/>
    <tag k="addr:housenumber" v="16"/>
    <tag k="addr:street" v="Świętego Tomasza"/>
    <tag k="source" v="http://ump.waw.pl/ retrieved 02:01:37 08/25/09 (UMP-Krakow/src/KRAKOW_I_STAREMIASTO.ulice.txt)"/>
  </node>
  <node id="473538936" version="1" timestamp="2009-08-25T13:15:39Z" uid="123700" user="Mala" changeset="2256316" lat="50.0643707" lon="19.9392328">
    <tag k="addr:city" v="Kraków@Kraków I Stare Miasto"/>
    <tag k="addr:housenumber" v="24"/>
    <tag k="addr:street" v="Świętego Jana"/>
    <tag k="source" v="http://ump.waw.pl/ retrieved 02:01:37 08/25/09 (UMP-Krakow/src/KRAKOW_I_STAREMIASTO.ulice.txt)"/>
  </node>
  <node id="473538939" version="1" timestamp="2009-08-25T13:15:39Z" uid="123700" user="Mala" changeset="2256316" lat="50.0630612" lon="19.9333949">
    <tag k="addr:city" v="Kraków@Kraków I Stare Miasto"/>
    <tag k="addr:housenumber" v="22"/>
    <tag k="addr:street" v="Szewska"/>
    <tag k="source" v="http://ump.waw.pl/ retrieved 02:01:37 08/25/09 (UMP-Krakow/src/KRAKOW_I_STAREMIASTO.ulice.txt)"/>
  </node>
  <node id="473538941" version="1" timestamp="2009-08-25T13:15:39Z" uid="123700" user="Mala" changeset="2256316" lat="50.0638392" lon="19.9362322">
    <tag k="addr:city" v="Kraków@Kraków I Stare Miasto"/>
    <tag k="addr:housenumber" v="8"/>
    <tag k="addr:street" v="plac Szczepański"/>
    <tag k="source" v="http://ump.waw.pl/ retrieved 02:01:37 08/25/09 (UMP-Krakow/src/KRAKOW_I_STAREMIASTO.ulice.txt)"/>
  </node>
  <node id="473538941" version="2" timestamp="2009-08-27T21:48:52Z" uid="123700" user="Mala" changeset="2283903" lat="50.0637212" lon="19.9361775">
    <tag k="addr:city" v="Kraków@Kraków I Stare Miasto"/>
    <tag k="addr:housenumber" v="8"/>
    <tag k="addr:street" v="plac Szczepański"/>
    <tag k="source" v="http://ump.waw.pl/ retrieved 02:01:37 08/25/09 (UMP-Krakow/src/KRAKOW_I_STAREMIASTO.ulice.txt)"/>
  </node>
  <node id="473538943" version="1" timestamp="2009-08-25T13:15:39Z" uid="123700" user="Mala" changeset="2256316" lat="50.0623735" lon="19.9419032">
    <tag k="addr:city" v="Kraków@Kraków I Stare Miasto"/>
    <tag k="addr:housenumber" v="24"/>
    <tag k="addr:street" v="Świętego Tomasza"/>
    <tag k="source" v="http://ump.waw.pl/ retrieved 02:01:37 08/25/09 (UMP-Krakow/src/KRAKOW_I_STAREMIASTO.ulice.txt)"/>
  </node>
  <node id="473538945" version="1" timestamp="2009-08-25T13:15:39Z" uid="123700" user="Mala" changeset="2256316" lat="50.0632165" lon="19.9414394">
    <tag k="addr:city" v="Kraków@Kraków I Stare Miasto"/>
    <tag k="addr:housenumber" v="28"/>
    <tag k="addr:street" v="Szpitalna"/>
    <tag k="source" v="http://ump.waw.pl/ retrieved 02:01:37 08/25/09 (UMP-Krakow/src/KRAKOW_I_STAREMIASTO.ulice.txt)"/>
  </node>
  <node id="473538948" version="1" timestamp="2009-08-25T13:15:39Z" uid="123700" user="Mala" changeset="2256316" lat="50.0626777" lon="19.9437527">
    <tag k="addr:city" v="Kraków@Kraków I Stare Miasto"/>
    <tag k="addr:housenumber" v="-1"/>
    <tag k="addr:street" v="Świętego Marka"/>
    <tag k="source" v="http://ump.waw.pl/ retrieved 02:01:37 08/25/09 (UMP-Krakow/src/KRAKOW_I_STAREMIASTO.ulice.txt)"/>
  </node>
  <node id="473538950" version="1" timestamp="2009-08-25T13:15:39Z" uid="123700" user="Mala" changeset="2256316" lat="50.064489" lon="19.9393097">
    <tag k="addr:city" v="Kraków@Kraków I Stare Miasto"/>
    <tag k="addr:housenumber" v="28"/>
    <tag k="addr:street" v="Świętego Jana"/>
    <tag k="source" v="http://ump.waw.pl/ retrieved 02:01:37 08/25/09 (UMP-Krakow/src/KRAKOW_I_STAREMIASTO.ulice.txt)"/>
  </node>
  <node id="473538952" version="1" timestamp="2009-08-25T13:15:39Z" uid="123700" user="Mala" changeset="2256316" lat="50.0633701" lon="19.940414">
    <tag k="addr:city" v="Kraków@Kraków I Stare Miasto"/>
    <tag k="addr:housenumber" v="27"/>
    <tag k="addr:street" v="Floriańska"/>
    <tag k="source" v="http://ump.waw.pl/ retrieved 02:01:37 08/25/09 (UMP-Krakow/src/KRAKOW_I_STAREMIASTO.ulice.txt)"/>
  </node>
  <node id="473538954" version="1" timestamp="2009-08-25T13:15:39Z" uid="123700" user="Mala" changeset="2256316" lat="50.0615309" lon="19.9423115">
    <tag k="addr:city" v="Kraków@Kraków I Stare Miasto"/>
    <tag k="addr:housenumber" v="26"/>
    <tag k="addr:street" v="Mikołajska"/>
    <tag k="source" v="http://ump.waw.pl/ retrieved 02:01:37 08/25/09 (UMP-Krakow/src/KRAKOW_I_STAREMIASTO.ulice.txt)"/>
  </node>
  <node id="473538956" version="1" timestamp="2009-08-25T13:15:40Z" uid="123700" user="Mala" changeset="2256316" lat="50.0619267" lon="19.9432268">
    <tag k="addr:city" v="Kraków@Kraków I Stare Miasto"/>
    <tag k="addr:housenumber" v="34"/>
    <tag k="addr:street" v="Świętego Tomasza"/>
    <tag k="source" v="http://ump.waw.pl/ retrieved 02:01:37 08/25/09 (UMP-Krakow/src/KRAKOW_I_STAREMIASTO.ulice.txt)"/>
  </node>
  <node id="473538958" version="1" timestamp="2009-08-25T13:15:40Z" uid="123700" user="Mala" changeset="2256316" lat="50.0628431" lon="19.9432472">
    <tag k="addr:city" v="Kraków@Kraków I Stare Miasto"/>
    <tag k="addr:housenumber" v="34"/>
    <tag k="addr:street" v="Świętego Marka"/>
    <tag k="source" v="http://ump.waw.pl/ retrieved 02:01:37 08/25/09 (UMP-Krakow/src/KRAKOW_I_STAREMIASTO.ulice.txt)"/>
  </node>
  <node id="473538960" version="1" timestamp="2009-08-25T13:15:40Z" uid="123700" user="Mala" changeset="2256316" lat="50.0616654" lon="19.9409719">
    <tag k="addr:city" v="Kraków@Kraków I Stare Miasto"/>
    <tag k="addr:housenumber" v="6"/>
    <tag k="addr:street" v="Mikołajska"/>
    <tag k="source" v="http://ump.waw.pl/ retrieved 02:01:37 08/25/09 (UMP-Krakow/src/KRAKOW_I_STAREMIASTO.ulice.txt)"/>
  </node>
  <node id="473538972" version="1" timestamp="2009-08-25T13:15:40Z" uid="123700" user="Mala" changeset="2256316" lat="50.0649639" lon="19.9384802">
    <tag k="addr:city" v="Kraków@Kraków I Stare Miasto"/>
    <tag k="addr:housenumber" v="19"/>
    <tag k="addr:street" v="Sławkowska"/>
    <tag k="source" v="http://ump.waw.pl/ retrieved 02:01:37 08/25/09 (UMP-Krakow/src/KRAKOW_I_STAREMIASTO.ulice.txt)"/>
  </node>
  <node id="473538972" version="2" timestamp="2009-09-09T12:40:18Z" uid="123700" user="Mala" changeset="2424887" lat="50.0650997" lon="19.938592">
    <tag k="addr:city" v="Kraków@Kraków I Stare Miasto"/>
    <tag k="addr:housenumber" v="19"/>
    <tag k="addr:street" v="Sławkowska"/>
    <tag k="source" v="http://ump.waw.pl/ retrieved 02:01:37 08/25/09 (UMP-Krakow/src/KRAKOW_I_STAREMIASTO.ulice.txt)"/>
  </node>
  <node id="473538974" version="1" timestamp="2009-08-25T13:15:40Z" uid="123700" user="Mala" changeset="2256316" lat="50.0602855" lon="19.9360865">
    <tag k="addr:city" v="Kraków@Kraków I Stare Miasto"/>
    <tag k="addr:housenumber" v="1"/>
    <tag k="addr:street" v="Gołębia"/>
    <tag k="source" v="http://ump.waw.pl/ retrieved 02:01:37 08/25/09 (UMP-Krakow/src/KRAKOW_I_STAREMIASTO.ulice.txt)"/>
  </node>
  <node id="473538977" version="1" timestamp="2009-08-25T13:15:40Z" uid="123700" user="Mala" changeset="2256316" lat="50.0592976" lon="19.9381241">
    <tag k="addr:city" v="Kraków@Kraków I Stare Miasto"/>
    <tag k="addr:housenumber" v="1"/>
    <tag k="addr:street" v="plac Dominikański"/>
    <tag k="source" v="http://ump.waw.pl/ retrieved 02:01:37 08/25/09 (UMP-Krakow/src/KRAKOW_I_STAREMIASTO.ulice.txt)"/>
  </node>
  <node id="473538979" version="1" timestamp="2009-08-25T13:15:40Z" uid="123700" user="Mala" changeset="2256316" lat="50.0646475" lon="19.9373301">
    <tag k="addr:city" v="Kraków@Kraków I Stare Miasto"/>
    <tag k="addr:housenumber" v="8"/>
    <tag k="addr:street" v="Świętego Marka"/>
    <tag k="source" v="http://ump.waw.pl/ retrieved 02:01:37 08/25/09 (UMP-Krakow/src/KRAKOW_I_STAREMIASTO.ulice.txt)"/>
  </node>
  <node id="473538980" version="1" timestamp="2009-08-25T13:15:41Z" uid="123700" user="Mala" changeset="2256316" lat="50.062748" lon="19.9348288">
    <tag k="addr:city" v="Kraków@Kraków I Stare Miasto"/>
    <tag k="addr:housenumber" v="13"/>
    <tag k="addr:street" v="Szewska"/>
    <tag k="source" v="http://ump.waw.pl/ retrieved 02:01:37 08/25/09 (UMP-Krakow/src/KRAKOW_I_STAREMIASTO.ulice.txt)"/>
  </node>
  <node id="473538982" version="1" timestamp="2009-08-25T13:15:41Z" uid="123700" user="Mala" changeset="2256316" lat="50.0618498" lon="19.9403243">
    <tag k="addr:city" v="Kraków@Kraków I Stare Miasto"/>
    <tag k="addr:housenumber" v="2"/>
    <tag k="addr:street" v="Szpitalna"/>
    <tag k="source" v="http://ump.waw.pl/ retrieved 02:01:37 08/25/09 (UMP-Krakow/src/KRAKOW_I_STAREMIASTO.ulice.txt)"/>
  </node>
  <node id="473538984" version="1" timestamp="2009-08-25T13:15:41Z" uid="123700" user="Mala" changeset="2256316" lat="50.0606743" lon="19.9397134">
    <tag k="addr:city" v="Kraków@Kraków I Stare Miasto"/>
    <tag k="addr:housenumber" v="6"/>
    <tag k="addr:street" v="Stolarska"/>
    <tag k="source" v="http://ump.waw.pl/ retrieved 02:01:37 08/25/09 (UMP-Krakow/src/KRAKOW_I_STAREMIASTO.ulice.txt)"/>
  </node>
  <node id="473538986" version="1" timestamp="2009-08-25T13:15:41Z" uid="123700" user="Mala" changeset="2256316" lat="50.0624494" lon="19.9349684">
    <tag k="addr:city" v="Kraków@Kraków I Stare Miasto"/>
    <tag k="addr:housenumber" v="8"/>
    <tag k="addr:street" v="Szewska"/>
    <tag k="source" v="http://ump.waw.pl/ retrieved 02:01:37 08/25/09 (UMP-Krakow/src/KRAKOW_I_STAREMIASTO.ulice.txt)"/>
  </node>
  <node id="473538988" version="1" timestamp="2009-08-25T13:15:41Z" uid="123700" user="Mala" changeset="2256316" lat="50.0648703" lon="19.9380921">
    <tag k="addr:city" v="Kraków@Kraków I Stare Miasto"/>
    <tag k="addr:housenumber" v="22"/>
    <tag k="addr:street" v="Sławkowska"/>
    <tag k="source" v="http://ump.waw.pl/ retrieved 02:01:37 08/25/09 (UMP-Krakow/src/KRAKOW_I_STAREMIASTO.ulice.txt)"/>
  </node>
  <node id="473538988" version="2" timestamp="2009-09-09T12:40:18Z" uid="123700" user="Mala" changeset="2424887" lat="50.0648742" lon="19.9380619">
    <tag k="addr:city" v="Kraków@Kraków I Stare Miasto"/>
    <tag k="addr:housenumber" v="22"/>
    <tag k="addr:street" v="Sławkowska"/>
    <tag k="source" v="http://ump.waw.pl/ retrieved 02:01:37 08/25/09 (UMP-Krakow/src/KRAKOW_I_STAREMIASTO.ulice.txt)"/>
  </node>
  <node id="473538990" version="1" timestamp="2009-08-25T13:15:41Z" uid="123700" user="Mala" changeset="2256316" lat="50.0644588" lon="19.9372012">
    <tag k="addr:city" v="Kraków@Kraków I Stare Miasto"/>
    <tag k="addr:housenumber" v="9"/>
    <tag k="addr:street" v="Świętego Marka"/>
    <tag k="source" v="http://ump.waw.pl/ retrieved 02:01:37 08/25/09 (UMP-Krakow/src/KRAKOW_I_STAREMIASTO.ulice.txt)"/>
  </node>
  <node id="473538992" version="1" timestamp="2009-08-25T13:15:41Z" uid="123700" user="Mala" changeset="2256316" lat="50.0623479" lon="19.942882">
    <tag k="addr:city" v="Kraków@Kraków I Stare Miasto"/>
    <tag k="addr:housenumber" v="17"/>
    <tag k="addr:street" v="Świetego Krzyża"/>
    <tag k="source" v="http://ump.waw.pl/ retrieved 02:01:37 08/25/09 (UMP-Krakow/src/KRAKOW_I_STAREMIASTO.ulice.txt)"/>
  </node>
  <node id="473538992" version="2" timestamp="2009-08-27T21:48:51Z" uid="123700" user="Mala" changeset="2283903" lat="50.0623479" lon="19.942882">
    <tag k="addr:city" v="Kraków@Kraków I Stare Miasto"/>
    <tag k="addr:housenumber" v="17"/>
    <tag k="addr:street" v="Świętego Krzyża"/>
    <tag k="source" v="http://ump.waw.pl/ retrieved 02:01:37 08/25/09 (UMP-Krakow/src/KRAKOW_I_STAREMIASTO.ulice.txt)"/>
  </node>
  <node id="473538994" version="1" timestamp="2009-08-25T13:15:41Z" uid="123700" user="Mala" changeset="2256316" lat="50.0629758" lon="19.9351561">
    <tag k="addr:city" v="Kraków@Kraków I Stare Miasto"/>
    <tag k="addr:housenumber" v="5"/>
    <tag k="addr:street" v="Jagiellońska"/>
    <tag k="source" v="http://ump.waw.pl/ retrieved 02:01:37 08/25/09 (UMP-Krakow/src/KRAKOW_I_STAREMIASTO.ulice.txt)"/>
  </node>
  <node id="473538994" version="2" timestamp="2009-08-27T21:48:51Z" uid="123700" user="Mala" changeset="2283903" lat="50.0629326" lon="19.9350992">
    <tag k="addr:city" v="Kraków@Kraków I Stare Miasto"/>
    <tag k="addr:housenumber" v="5"/>
    <tag k="addr:street" v="Jagiellońska"/>
    <tag k="source" v="http://ump.waw.pl/ retrieved 02:01:37 08/25/09 (UMP-Krakow/src/KRAKOW_I_STAREMIASTO.ulice.txt)"/>
  </node>
  <node id="473538994" version="3" timestamp="2009-08-28T12:13:25Z" uid="123700" user="Mala" changeset="2289476" lat="50.0629525" lon="19.9350577">
    <tag k="addr:city" v="Kraków@Kraków I Stare Miasto"/>
    <tag k="addr:housenumber" v="5"/>
    <tag k="addr:street" v="Jagiellońska"/>
    <tag k="source" v="http://ump.waw.pl/ retrieved 02:01:37 08/25/09 (UMP-Krakow/src/KRAKOW_I_STAREMIASTO.ulice.txt)"/>
  </node>
  <node id="473538995" version="1" timestamp="2009-08-25T13:15:41Z" uid="123700" user="Mala" changeset="2256316" lat="50.0647766" lon="19.9407281"/>
  <node id="473538997" version="1" timestamp="2009-08-25T13:15:41Z" uid="123700" user="Mala" changeset="2256316" lat="50.065227" lon="19.938623">
    <tag k="addr:city" v="Kraków@Kraków I Stare Miasto"/>
    <tag k="addr:housenumber" v="9"/>
    <tag k="addr:street" v="Pijarska"/>
    <tag k="source" v="http://ump.waw.pl/ retrieved 02:01:37 08/25/09 (UMP-Krakow/src/KRAKOW_I_STAREMIASTO.ulice.txt)"/>
  </node>
  <node id="473538999" version="1" timestamp="2009-08-25T13:15:41Z" uid="123700" user="Mala" changeset="2256316" lat="50.0607322" lon="19.9394295">
    <tag k="addr:city" v="Kraków@Kraków I Stare Miasto"/>
    <tag k="addr:housenumber" v="1"/>
    <tag k="addr:street" v="Stolarska"/>
    <tag k="source" v="http://ump.waw.pl/ retrieved 02:01:37 08/25/09 (UMP-Krakow/src/KRAKOW_I_STAREMIASTO.ulice.txt)"/>
  </node>
  <node id="473539000" version="1" timestamp="2009-08-25T13:15:41Z" uid="123700" user="Mala" changeset="2256316" lat="50.0645936" lon="19.9365785">
    <tag k="addr:city" v="Kraków@Kraków I Stare Miasto"/>
    <tag k="addr:housenumber" v="7"/>
    <tag k="addr:street" v="Reformacka"/>
    <tag k="source" v="http://ump.waw.pl/ retrieved 02:01:37 08/25/09 (UMP-Krakow/src/KRAKOW_I_STAREMIASTO.ulice.txt)"/>
  </node>
  <node id="473539002" version="1" timestamp="2009-08-25T13:15:41Z" uid="123700" user="Mala" changeset="2256316" lat="50.0625309" lon="19.941389">
    <tag k="addr:city" v="Kraków@Kraków I Stare Miasto"/>
    <tag k="addr:housenumber" v="22"/>
    <tag k="addr:street" v="Świętego Tomasza"/>
    <tag k="source" v="http://ump.waw.pl/ retrieved 02:01:37 08/25/09 (UMP-Krakow/src/KRAKOW_I_STAREMIASTO.ulice.txt)"/>
  </node>
  <node id="473539004" version="1" timestamp="2009-08-25T13:15:41Z" uid="123700" user="Mala" changeset="2256316" lat="50.0652275" lon="19.9401382">
    <tag k="addr:city" v="Kraków"/>
    <tag k="name" v="Baszta Ciesielska"/>
    <tag k="source" v="http://ump.waw.pl/ retrieved 02:01:37 08/25/09 (UMP-Krakow/src/KRAKOW.zabytki.pnt-converted.txt)"/>
    <tag k="tourism" v="museum"/>
  </node>
  <node id="473539006" version="1" timestamp="2009-08-25T13:15:41Z" uid="123700" user="Mala" changeset="2256316" lat="50.0605622" lon="19.9392495">
    <tag k="addr:city" v="Kraków@Kraków I Stare Miasto"/>
    <tag k="addr:housenumber" v="3"/>
    <tag k="addr:street" v="Stolarska"/>
    <tag k="source" v="http://ump.waw.pl/ retrieved 02:01:37 08/25/09 (UMP-Krakow/src/KRAKOW_I_STAREMIASTO.ulice.txt)"/>
  </node>
  <node id="473539007" version="1" timestamp="2009-08-25T13:15:42Z" uid="123700" user="Mala" changeset="2256316" lat="50.0632469" lon="19.9335247">
    <tag k="addr:city" v="Kraków@Kraków I Stare Miasto"/>
    <tag k="addr:housenumber" v="25"/>
    <tag k="addr:street" v="Szewska"/>
    <tag k="source" v="http://ump.waw.pl/ retrieved 02:01:37 08/25/09 (UMP-Krakow/src/KRAKOW_I_STAREMIASTO.ulice.txt)"/>
  </node>
  <node id="473539007" version="2" timestamp="2009-09-07T17:38:00Z" uid="123700" user="Mala" changeset="2405083" lat="50.0633264" lon="19.9333313">
    <tag k="addr:city" v="Kraków@Kraków I Stare Miasto"/>
    <tag k="addr:housenumber" v="25"/>
    <tag k="addr:street" v="Szewska"/>
    <tag k="source" v="http://ump.waw.pl/ retrieved 02:01:37 08/25/09 (UMP-Krakow/src/KRAKOW_I_STAREMIASTO.ulice.txt)"/>
  </node>
  <node id="473539009" version="1" timestamp="2009-08-25T13:15:42Z" uid="123700" user="Mala" changeset="2256316" lat="50.0647152" lon="19.9413936">
    <tag k="addr:city" v="Kraków@Kraków I Stare Miasto"/>
    <tag k="addr:housenumber" v="57"/>
    <tag k="addr:street" v="Floriańska"/>
    <tag k="source" v="http://ump.waw.pl/ retrieved 02:01:37 08/25/09 (UMP-Krakow/src/KRAKOW_I_STAREMIASTO.ulice.txt)"/>
  </node>
  <node id="473539011" version="1" timestamp="2009-08-25T13:15:42Z" uid="123700" user="Mala" changeset="2256316" lat="50.0619526" lon="19.9344758">
    <tag k="addr:city" v="Kraków@Kraków I Stare Miasto"/>
    <tag k="addr:housenumber" v="12"/>
    <tag k="addr:street" v="Jagiellońska"/>
    <tag k="source" v="http://ump.waw.pl/ retrieved 02:01:37 08/25/09 (UMP-Krakow/src/KRAKOW_I_STAREMIASTO.ulice.txt)"/>
  </node>
  <node id="473539013" version="1" timestamp="2009-08-25T13:15:42Z" uid="123700" user="Mala" changeset="2256316" lat="50.0642016" lon="19.9379687">
    <tag k="addr:city" v="Kraków@Kraków I Stare Miasto"/>
    <tag k="addr:housenumber" v="15"/>
    <tag k="addr:street" v="Sławkowska"/>
    <tag k="source" v="http://ump.waw.pl/ retrieved 02:01:37 08/25/09 (UMP-Krakow/src/KRAKOW_I_STAREMIASTO.ulice.txt)"/>
  </node>
  <node id="473539013" version="2" timestamp="2009-09-09T12:40:18Z" uid="123700" user="Mala" changeset="2424887" lat="50.0642585" lon="19.9379963">
    <tag k="addr:city" v="Kraków@Kraków I Stare Miasto"/>
    <tag k="addr:housenumber" v="15"/>
    <tag k="addr:street" v="Sławkowska"/>
    <tag k="source" v="http://ump.waw.pl/ retrieved 02:01:37 08/25/09 (UMP-Krakow/src/KRAKOW_I_STAREMIASTO.ulice.txt)"/>
  </node>
  <node id="473539015" version="1" timestamp="2009-08-25T13:15:42Z" uid="123700" user="Mala" changeset="2256316" lat="50.0615" lon="19.94214">
    <tag k="addr:city" v="Kraków"/>
    <tag k="addr:housenumber" v="20"/>
    <tag k="addr:postcode" v="31-027"/>
    <tag k="addr:street" v="Mikołajska"/>
    <tag k="name" v="Amadeus ****"/>
    <tag k="phone" v="+48124296070"/>
    <tag k="source" v="http://ump.waw.pl/ retrieved 02:01:37 08/25/09 (UMP-Krakow/src/KRAKOW.hotele.pnt-converted.txt)"/>
    <tag k="tourism" v="hotel"/>
  </node>
  <node id="473539015" version="2" timestamp="2009-09-09T12:40:18Z" uid="123700" user="Mala" changeset="2424887" lat="50.0615" lon="19.94214">
    <tag k="addr:city" v="Kraków"/>
    <tag k="addr:housenumber" v="20"/>
    <tag k="addr:postcode" v="31-027"/>
    <tag k="addr:street" v="Mikołajska"/>
    <tag k="name" v="Amadeus"/>
    <tag k="phone" v="+48124296070"/>
    <tag k="rating" v="****"/>
    <tag k="source" v="http://ump.waw.pl/ retrieved 02:01:37 08/25/09 (UMP-Krakow/src/KRAKOW.hotele.pnt-converted.txt)"/>
    <tag k="tourism" v="hotel"/>
  </node>
  <node id="473539018" version="1" timestamp="2009-08-25T13:15:42Z" uid="123700" user="Mala" changeset="2256316" lat="50.0633615" lon="19.9373618">
    <tag k="addr:city" v="Kraków@Kraków I Stare Miasto"/>
    <tag k="addr:housenumber" v="3"/>
    <tag k="addr:street" v="Sławkowska"/>
    <tag k="source" v="http://ump.waw.pl/ retrieved 02:01:37 08/25/09 (UMP-Krakow/src/KRAKOW_I_STAREMIASTO.ulice.txt)"/>
  </node>
  <node id="473539019" version="1" timestamp="2009-08-25T13:15:42Z" uid="123700" user="Mala" changeset="2256316" lat="50.0609493" lon="19.9337418">
    <tag k="addr:city" v="Kraków@Kraków I Stare Miasto"/>
    <tag k="addr:housenumber" v="18"/>
    <tag k="addr:street" v="Gołębia"/>
    <tag k="source" v="http://ump.waw.pl/ retrieved 02:01:37 08/25/09 (UMP-Krakow/src/KRAKOW_I_STAREMIASTO.ulice.txt)"/>
  </node>
  <node id="473539021" version="1" timestamp="2009-08-25T13:15:42Z" uid="123700" user="Mala" changeset="2256316" lat="50.0608179" lon="19.9394864">
    <tag k="addr:city" v="Kraków@Kraków I Stare Miasto"/>
    <tag k="addr:housenumber" v="5"/>
    <tag k="addr:street" v="Sienna"/>
    <tag k="source" v="http://ump.waw.pl/ retrieved 02:01:37 08/25/09 (UMP-Krakow/src/KRAKOW_I_STAREMIASTO.ulice.txt)"/>
  </node>
  <node id="473539023" version="1" timestamp="2009-08-25T13:15:42Z" uid="123700" user="Mala" changeset="2256316" lat="50.0629271" lon="19.9396609">
    <tag k="addr:city" v="Kraków@Kraków I Stare Miasto"/>
    <tag k="addr:housenumber" v="12"/>
    <tag k="addr:street" v="Floriańska"/>
    <tag k="source" v="http://ump.waw.pl/ retrieved 02:01:37 08/25/09 (UMP-Krakow/src/KRAKOW_I_STAREMIASTO.ulice.txt)"/>
  </node>
  <node id="473539025" version="1" timestamp="2009-08-25T13:15:42Z" uid="123700" user="Mala" changeset="2256316" lat="50.0629528" lon="19.9391472">
    <tag k="addr:city" v="Kraków@Kraków I Stare Miasto"/>
    <tag k="addr:housenumber" v="15"/>
    <tag k="addr:street" v="Świętego Tomasza"/>
    <tag k="source" v="http://ump.waw.pl/ retrieved 02:01:37 08/25/09 (UMP-Krakow/src/KRAKOW_I_STAREMIASTO.ulice.txt)"/>
  </node>
  <node id="473539028" version="1" timestamp="2009-08-25T13:15:42Z" uid="123700" user="Mala" changeset="2256316" lat="50.0639599" lon="19.936646">
    <tag k="addr:city" v="Kraków@Kraków I Stare Miasto"/>
    <tag k="addr:housenumber" v="4"/>
    <tag k="addr:street" v="Świętego Tomasza"/>
    <tag k="source" v="http://ump.waw.pl/ retrieved 02:01:37 08/25/09 (UMP-Krakow/src/KRAKOW_I_STAREMIASTO.ulice.txt)"/>
  </node>
  <node id="473539030" version="1" timestamp="2009-08-25T13:15:42Z" uid="123700" user="Mala" changeset="2256316" lat="50.0610094" lon="19.938877">
    <tag k="addr:city" v="Kraków@Kraków I Stare Miasto"/>
    <tag k="addr:housenumber" v="1"/>
    <tag k="addr:street" v="Sienna"/>
    <tag k="source" v="http://ump.waw.pl/ retrieved 02:01:37 08/25/09 (UMP-Krakow/src/KRAKOW_I_STAREMIASTO.ulice.txt)"/>
  </node>
  <node id="473539032" version="1" timestamp="2009-08-25T13:15:43Z" uid="123700" user="Mala" changeset="2256316" lat="50.0629103" lon="19.9344125">
    <tag k="addr:city" v="Kraków@Kraków I Stare Miasto"/>
    <tag k="addr:housenumber" v="17"/>
    <tag k="addr:street" v="Szewska"/>
    <tag k="source" v="http://ump.waw.pl/ retrieved 02:01:37 08/25/09 (UMP-Krakow/src/KRAKOW_I_STAREMIASTO.ulice.txt)"/>
  </node>
  <node id="473539034" version="1" timestamp="2009-08-25T13:15:43Z" uid="123700" user="Mala" changeset="2256316" lat="50.0634657" lon="19.9385698">
    <tag k="addr:city" v="Kraków@Kraków I Stare Miasto"/>
    <tag k="addr:housenumber" v="8"/>
    <tag k="addr:street" v="Świętego Jana"/>
    <tag k="source" v="http://ump.waw.pl/ retrieved 02:01:37 08/25/09 (UMP-Krakow/src/KRAKOW_I_STAREMIASTO.ulice.txt)"/>
  </node>
  <node id="473539041" version="1" timestamp="2009-08-25T13:15:43Z" uid="123700" user="Mala" changeset="2256316" lat="50.0641349" lon="19.9375799">
    <tag k="addr:city" v="Kraków@Kraków I Stare Miasto"/>
    <tag k="addr:housenumber" v="20"/>
    <tag k="addr:street" v="Sławkowska"/>
    <tag k="source" v="http://ump.waw.pl/ retrieved 02:01:37 08/25/09 (UMP-Krakow/src/KRAKOW_I_STAREMIASTO.ulice.txt)"/>
  </node>
  <node id="473539041" version="2" timestamp="2009-09-09T12:40:18Z" uid="123700" user="Mala" changeset="2424887" lat="50.0642463" lon="19.9376645">
    <tag k="addr:city" v="Kraków@Kraków I Stare Miasto"/>
    <tag k="addr:housenumber" v="20"/>
    <tag k="addr:street" v="Sławkowska"/>
    <tag k="source" v="http://ump.waw.pl/ retrieved 02:01:37 08/25/09 (UMP-Krakow/src/KRAKOW_I_STAREMIASTO.ulice.txt)"/>
  </node>
  <node id="473539043" version="1" timestamp="2009-08-25T13:15:43Z" uid="123700" user="Mala" changeset="2256316" lat="50.0604522" lon="19.939514">
    <tag k="addr:city" v="Kraków@Kraków I Stare Miasto"/>
    <tag k="addr:housenumber" v="10"/>
    <tag k="addr:street" v="Stolarska"/>
    <tag k="source" v="http://ump.waw.pl/ retrieved 02:01:37 08/25/09 (UMP-Krakow/src/KRAKOW_I_STAREMIASTO.ulice.txt)"/>
  </node>
  <node id="473539045" version="1" timestamp="2009-08-25T13:15:43Z" uid="123700" user="Mala" changeset="2256316" lat="50.0613431" lon="19.9396368">
    <tag k="addr:city" v="Kraków@Kraków I Stare Miasto"/>
    <tag k="addr:housenumber" v="7"/>
    <tag k="addr:street" v="plac Mariacki"/>
    <tag k="source" v="http://ump.waw.pl/ retrieved 02:01:37 08/25/09 (UMP-Krakow/src/KRAKOW_I_STAREMIASTO.ulice.txt)"/>
  </node>
</osm>
