<?xml version='1.0' encoding='UTF-8'?>
<osm version="0.6" generator="libosmium/2.20.0">
  <node id="479911410" version="1" timestamp="2009-09-01T12:13:13Z" uid="55964" user="Evan Sebire" changeset="2336913" lat="46.5328282" lon="7.6026284">
    <tag k="name" v="Chalenegg"/>
    <tag k="place" v="locality"/>
  </node>
  <node id="479911414" version="1" timestamp="2009-09-01T12:13:13Z" uid="55964" user="Evan Sebire" changeset="2336913" lat="46.5393793" lon="7.6042208">
    <tag k="name" v="Ahorni"/>
    <tag k="place" v="locality"/>
  </node>
  <node id="479911422" version="1" timestamp="2009-09-01T12:13:13Z" uid="55964" user="Evan Sebire" changeset="2336913" lat="46.5468284" lon="7.6065238">
    <tag k="name" v="H端delegg"/>
    <tag k="place" v="locality"/>
  </node>
  <node id="479911425" version="1" timestamp="2009-09-01T12:13:14Z" uid="55964" user="Evan Sebire" changeset="2336913" lat="46.4992777" lon="7.579271">
    <tag k="name" v="Lischa"/>
    <tag k="place" v="locality"/>
  </node>
  <node id="479911431" version="1" timestamp="2009-09-01T12:13:14Z" uid="55964" user="Evan Sebire" changeset="2336913" lat="46.495995" lon="7.5743496">
    <tag k="name" v="Moosweid"/>
    <tag k="place" v="locality"/>
  </node>
  <node id="479911434" version="1" timestamp="2009-09-01T12:13:14Z" uid="55964" user="Evan Sebire" changeset="2336913" lat="46.4964592" lon="7.579633">
    <tag k="name" v="Challeweid"/>
    <tag k="place" v="locality"/>
  </node>
  <node id="479911438" version="1" timestamp="2009-09-01T12:13:14Z" uid="55964" user="Evan Sebire" changeset="2336913" lat="46.4966987" lon="7.5718925"/>
  <node id="479911441" version="1" timestamp="2009-09-01T12:13:14Z" uid="55964" user="Evan Sebire" changeset="2336913" lat="46.4966438" lon="7.5721201"/>
  <node id="479911447" version="1" timestamp="2009-09-01T12:13:15Z" uid="55964" user="Evan Sebire" changeset="2336913" lat="46.4967711" lon="7.5720713"/>
  <node id="479911495" version="1" timestamp="2009-09-01T12:13:19Z" uid="55964" user="Evan Sebire" changeset="2336913" lat="46.5859852" lon="7.634759">
    <tag k="name" v="Oberfeld"/>
    <tag k="place" v="locality"/>
  </node>
  <node id="479911499" version="1" timestamp="2009-09-01T12:13:20Z" uid="55964" user="Evan Sebire" changeset="2336913" lat="46.590825" lon="7.6417568">
    <tag k="name" v="Oberdorf"/>
    <tag k="place" v="locality"/>
  </node>
  <node id="479911510" version="1" timestamp="2009-09-01T12:13:20Z" uid="55964" user="Evan Sebire" changeset="2336913" lat="46.5927759" lon="7.6636822">
    <tag k="name" v="Inner-Schwandi"/>
    <tag k="place" v="locality"/>
  </node>
  <node id="479911518" version="1" timestamp="2009-09-01T12:13:20Z" uid="55964" user="Evan Sebire" changeset="2336913" lat="46.6002033" lon="7.6666388">
    <tag k="name" v="Usser-Schwandi"/>
    <tag k="place" v="locality"/>
  </node>
  <node id="479911526" version="1" timestamp="2009-09-01T12:13:21Z" uid="55964" user="Evan Sebire" changeset="2336913" lat="46.5758602" lon="7.6519371">
    <tag k="name" v="Tellenburg"/>
    <tag k="place" v="locality"/>
  </node>
  <node id="479911532" version="1" timestamp="2009-09-01T12:13:21Z" uid="55964" user="Evan Sebire" changeset="2336913" lat="46.5802375" lon="7.651572">
    <tag k="name" v="Tellenfeld"/>
    <tag k="place" v="locality"/>
  </node>
  <node id="479911535" version="1" timestamp="2009-09-01T12:13:21Z" uid="55964" user="Evan Sebire" changeset="2336913" lat="46.5748221" lon="7.6534894">
    <tag k="name" v="Rybr端gg"/>
    <tag k="place" v="locality"/>
  </node>
  <node id="479911541" version="1" timestamp="2009-09-01T12:13:22Z" uid="55964" user="Evan Sebire" changeset="2336913" lat="46.57456" lon="7.6603844">
    <tag k="name" v="Hasli"/>
    <tag k="place" v="locality"/>
  </node>
  <node id="479911548" version="1" timestamp="2009-09-01T12:13:22Z" uid="55964" user="Evan Sebire" changeset="2336913" lat="46.5823335" lon="7.6573326">
    <tag k="name" v="Kanderbr端ck"/>
    <tag k="place" v="locality"/>
  </node>
  <node id="479911549" version="1" timestamp="2009-09-01T12:13:22Z" uid="55964" user="Evan Sebire" changeset="2336913" lat="46.5711087" lon="7.6503557">
    <tag k="name" v="Adelrain"/>
    <tag k="place" v="locality"/>
  </node>
  <node id="479911555" version="1" timestamp="2009-09-01T12:13:22Z" uid="55964" user="Evan Sebire" changeset="2336913" lat="46.5652705" lon="7.652555">
    <tag k="name" v="Zrydsbr端gg"/>
    <tag k="place" v="locality"/>
  </node>
  <node id="479911601" version="1" timestamp="2009-09-01T12:13:25Z" uid="55964" user="Evan Sebire" changeset="2336913" lat="46.5694094" lon="7.654138">
    <tag k="name" v="Achere"/>
    <tag k="place" v="locality"/>
  </node>
  <node id="479911604" version="1" timestamp="2009-09-01T12:13:25Z" uid="55964" user="Evan Sebire" changeset="2336913" lat="46.6075854" lon="7.6618906">
    <tag k="name" v="Wengi"/>
    <tag k="place" v="locality"/>
  </node>
  <node id="479911608" version="1" timestamp="2009-09-01T12:13:25Z" uid="55964" user="Evan Sebire" changeset="2336913" lat="46.6188901" lon="7.6807627">
    <tag k="name" v="Reudlen"/>
    <tag k="place" v="hamlet"/>
  </node>
</osm>
