<?xml version='1.0' encoding='UTF-8'?>
<osm version="0.6" generator="libosmium/2.20.0">
  <node id="48062331" version="2" timestamp="2009-07-11T11:28:50Z" uid="142575" user="dalailama" changeset="1796153" lat="54.6306716" lon="8.3807263">
    <tag k="amenity" v="restaurant"/>
    <tag k="created_by" v="JOSM"/>
    <tag k="name" v="Seefohrerhus"/>
  </node>
  <node id="48062331" version="3" timestamp="2009-07-30T15:25:42Z" uid="142575" user="dalailama" changeset="1986047" lat="54.6307828" lon="8.3805658">
    <tag k="amenity" v="restaurant"/>
    <tag k="created_by" v="JOSM"/>
    <tag k="name" v="Seefohrerhus"/>
  </node>
  <node id="48063284" version="2" timestamp="2009-08-03T16:43:19Z" uid="142575" user="dalailama" changeset="2027377" lat="54.6317415" lon="8.3811551">
    <tag k="created_by" v="JOSM"/>
    <tag k="leisure" v="marina"/>
    <tag k="name" v="Seezeichenhafen"/>
  </node>
  <node id="48069957" version="3" timestamp="2008-10-03T11:27:00Z" uid="4667" user="MapZ" changeset="45327" lat="49.3113416" lon="8.5567505">
    <tag k="created_by" v="JOSM"/>
  </node>
  <node id="48069968" version="2" timestamp="2008-10-03T11:26:59Z" uid="4667" user="MapZ" changeset="45327" lat="49.3111585" lon="8.5570047">
    <tag k="created_by" v="JOSM"/>
  </node>
  <node id="48069977" version="2" timestamp="2008-10-03T11:27:00Z" uid="4667" user="MapZ" changeset="45327" lat="49.3111824" lon="8.5567617">
    <tag k="created_by" v="JOSM"/>
  </node>
</osm>
