<?xml version='1.0' encoding='UTF-8'?>
<osm version="0.6" generator="libosmium/2.20.0">
  <node id="482729133" version="1" timestamp="2009-09-03T19:11:28Z" uid="20587" user="balrog-kun" changeset="2363396" lat="51.32756" lon="22.43543">
    <tag k="name" v="Wygoda"/>
    <tag k="place" v="village"/>
    <tag k="source" v="http://ump.waw.pl/ retrieved 23:59:15 08/30/09 (UMP-Lublin/src/cities-Lublin.pnt-converted.txt)"/>
  </node>
  <node id="482729133" version="2" timestamp="2009-09-03T19:39:15Z" uid="20587" user="balrog-kun" changeset="2363702" lat="51.32756" lon="22.43543">
    <tag k="addr:postcode" v="24-170"/>
    <tag k="is_in" v="gmina Kurów, powiat puławski, województwo lubelskie, Poland"/>
    <tag k="is_in:county" v="powiat puławski"/>
    <tag k="is_in:municipality" v="gmina Kurów"/>
    <tag k="is_in:province" v="województwo lubelskie"/>
    <tag k="name" v="Wygoda"/>
    <tag k="place" v="village"/>
    <tag k="source" v="http://ump.waw.pl/ retrieved 23:59:15 08/30/09 (UMP-Lublin/src/cities-Lublin.pnt-converted.txt)"/>
    <tag k="teryt:simc" v="0384526"/>
    <tag k="wikipedia" v="Wygoda, Puławy County"/>
  </node>
  <node id="482729133" version="3" timestamp="2010-04-11T04:50:23Z" uid="20587" user="balrog-kun" changeset="4389130" lat="51.32756" lon="22.43543">
    <tag k="addr:postcode" v="24-170"/>
    <tag k="is_in" v="gmina Kurów, powiat puławski, województwo lubelskie, Poland"/>
    <tag k="is_in:county" v="powiat puławski"/>
    <tag k="is_in:municipality" v="gmina Kurów"/>
    <tag k="is_in:province" v="województwo lubelskie"/>
    <tag k="name" v="Wygoda"/>
    <tag k="place" v="village"/>
    <tag k="source" v="http://ump.waw.pl/ retrieved 23:59:15 08/30/09 (UMP-Lublin/src/cities-Lublin.pnt-converted.txt)"/>
    <tag k="teryt:simc" v="0384526"/>
    <tag k="wikipedia" v="Wygoda, Puławy County"/>
  </node>
  <node id="482729134" version="1" timestamp="2009-09-03T19:11:28Z" uid="20587" user="balrog-kun" changeset="2363396" lat="51.3169" lon="21.9736">
    <tag k="addr:city" v="Kazimierz Dolny"/>
    <tag k="name" v="Wąwóz Niezabitowskich"/>
    <tag k="natural" v="valley"/>
    <tag k="place" v="locality"/>
    <tag k="source" v="http://ump.waw.pl/ retrieved 23:59:15 08/30/09 (UMP-Lublin/src/POI-Lublin.pnt-converted.txt)"/>
  </node>
  <node id="482729135" version="1" timestamp="2009-09-03T19:11:28Z" uid="20587" user="balrog-kun" changeset="2363396" lat="51.32632" lon="22.15978">
    <tag k="name" v="Stara Wieś"/>
    <tag k="place" v="village"/>
    <tag k="source" v="http://ump.waw.pl/ retrieved 23:59:15 08/30/09 (UMP-Lublin/src/cities-Lublin.pnt-converted.txt)"/>
  </node>
  <node id="482729135" version="2" timestamp="2009-09-03T19:39:10Z" uid="20587" user="balrog-kun" changeset="2363702" lat="51.32632" lon="22.15978">
    <tag k="is_in" v="gmina Końskowola, powiat puławski, województwo lubelskie, Poland"/>
    <tag k="is_in:county" v="powiat puławski"/>
    <tag k="is_in:municipality" v="gmina Końskowola"/>
    <tag k="is_in:province" v="województwo lubelskie"/>
    <tag k="name" v="Stara Wieś"/>
    <tag k="place" v="village"/>
    <tag k="population" v="497"/>
    <tag k="source" v="http://ump.waw.pl/ retrieved 23:59:15 08/30/09 (UMP-Lublin/src/cities-Lublin.pnt-converted.txt)"/>
    <tag k="source:population" v="wikipedia"/>
    <tag k="wikipedia" v="Stara Wieś, Puławy County"/>
  </node>
  <node id="482729135" version="3" timestamp="2010-04-11T04:50:23Z" uid="20587" user="balrog-kun" changeset="4389130" lat="51.32632" lon="22.15978">
    <tag k="is_in" v="gmina Końskowola, powiat puławski, województwo lubelskie, Poland"/>
    <tag k="is_in:county" v="powiat puławski"/>
    <tag k="is_in:municipality" v="gmina Końskowola"/>
    <tag k="is_in:province" v="województwo lubelskie"/>
    <tag k="name" v="Stara Wieś"/>
    <tag k="place" v="village"/>
    <tag k="population" v="497"/>
    <tag k="source" v="http://ump.waw.pl/ retrieved 23:59:15 08/30/09 (UMP-Lublin/src/cities-Lublin.pnt-converted.txt)"/>
    <tag k="source:population" v="wikipedia"/>
    <tag k="wikipedia" v="Stara Wieś, Puławy County"/>
  </node>
  <node id="482729136" version="1" timestamp="2009-09-03T19:11:29Z" uid="20587" user="balrog-kun" changeset="2363396" lat="51.19522" lon="22.21401">
    <tag k="name" v="Chmielnik Kolonia"/>
    <tag k="place" v="village"/>
    <tag k="source" v="http://ump.waw.pl/ retrieved 23:59:15 08/30/09 (UMP-Lublin/src/cities-Lublin.pnt-converted.txt)"/>
  </node>
  <node id="482729136" version="2" timestamp="2009-09-03T19:39:08Z" uid="20587" user="balrog-kun" changeset="2363702" lat="51.19522" lon="22.21401">
    <tag k="is_in" v="gmina Bełżyce, powiat lubelski, województwo lubelskie, Poland"/>
    <tag k="is_in:county" v="powiat lubelski"/>
    <tag k="is_in:municipality" v="gmina Bełżyce"/>
    <tag k="is_in:province" v="województwo lubelskie"/>
    <tag k="name" v="Chmielnik Kolonia"/>
    <tag k="place" v="village"/>
    <tag k="source" v="http://ump.waw.pl/ retrieved 23:59:15 08/30/09 (UMP-Lublin/src/cities-Lublin.pnt-converted.txt)"/>
    <tag k="wikipedia" v="Chmielnik-Kolonia"/>
  </node>
  <node id="482729136" version="3" timestamp="2010-04-11T04:50:23Z" uid="20587" user="balrog-kun" changeset="4389130" lat="51.19522" lon="22.21401">
    <tag k="is_in" v="gmina Bełżyce, powiat lubelski, województwo lubelskie, Poland"/>
    <tag k="is_in:county" v="powiat lubelski"/>
    <tag k="is_in:municipality" v="gmina Bełżyce"/>
    <tag k="is_in:province" v="województwo lubelskie"/>
    <tag k="name" v="Chmielnik Kolonia"/>
    <tag k="place" v="village"/>
    <tag k="source" v="http://ump.waw.pl/ retrieved 23:59:15 08/30/09 (UMP-Lublin/src/cities-Lublin.pnt-converted.txt)"/>
    <tag k="wikipedia" v="Chmielnik-Kolonia"/>
  </node>
  <node id="482729137" version="1" timestamp="2009-09-03T19:11:29Z" uid="20587" user="balrog-kun" changeset="2363396" lat="51.32672" lon="22.14766">
    <tag k="name" v="Łopatki"/>
    <tag k="place" v="village"/>
    <tag k="source" v="http://ump.waw.pl/ retrieved 23:59:15 08/30/09 (UMP-Lublin/src/cities-Lublin.pnt-converted.txt)"/>
  </node>
  <node id="482729137" version="2" timestamp="2009-09-03T19:39:12Z" uid="20587" user="balrog-kun" changeset="2363702" lat="51.32672" lon="22.14766">
    <tag k="is_in" v="gmina Wąwolnica, powiat puławski, województwo lubelskie, Poland"/>
    <tag k="is_in:county" v="powiat puławski"/>
    <tag k="is_in:municipality" v="gmina Wąwolnica"/>
    <tag k="is_in:province" v="województwo lubelskie"/>
    <tag k="name" v="Łopatki"/>
    <tag k="place" v="village"/>
    <tag k="population" v="450"/>
    <tag k="source" v="http://ump.waw.pl/ retrieved 23:59:15 08/30/09 (UMP-Lublin/src/cities-Lublin.pnt-converted.txt)"/>
    <tag k="source:population" v="wikipedia"/>
    <tag k="wikipedia" v="Łopatki, Lublin Voivodeship"/>
  </node>
  <node id="482729137" version="3" timestamp="2010-04-11T04:50:23Z" uid="20587" user="balrog-kun" changeset="4389130" lat="51.32672" lon="22.14766">
    <tag k="is_in" v="gmina Wąwolnica, powiat puławski, województwo lubelskie, Poland"/>
    <tag k="is_in:county" v="powiat puławski"/>
    <tag k="is_in:municipality" v="gmina Wąwolnica"/>
    <tag k="is_in:province" v="województwo lubelskie"/>
    <tag k="name" v="Łopatki"/>
    <tag k="place" v="village"/>
    <tag k="population" v="450"/>
    <tag k="source" v="http://ump.waw.pl/ retrieved 23:59:15 08/30/09 (UMP-Lublin/src/cities-Lublin.pnt-converted.txt)"/>
    <tag k="source:population" v="wikipedia"/>
    <tag k="wikipedia" v="Łopatki, Lublin Voivodeship"/>
  </node>
  <node id="482729138" version="1" timestamp="2009-09-03T19:11:29Z" uid="20587" user="balrog-kun" changeset="2363396" lat="51.32327" lon="21.8907">
    <tag k="name" v="Janowiec"/>
    <tag k="place" v="village"/>
    <tag k="source" v="http://ump.waw.pl/ retrieved 23:59:15 08/30/09 (UMP-Lublin/src/cities-Lublin.pnt-converted.txt)"/>
  </node>
  <node id="482729138" version="2" timestamp="2009-09-03T19:39:10Z" uid="20587" user="balrog-kun" changeset="2363702" lat="51.32327" lon="21.8907">
    <tag k="addr:postcode" v="24-123"/>
    <tag k="is_in" v="gmina Janowiec, powiat puławski, województwo lubelskie, Poland"/>
    <tag k="is_in:county" v="powiat puławski"/>
    <tag k="is_in:municipality" v="gmina Janowiec"/>
    <tag k="is_in:province" v="województwo lubelskie"/>
    <tag k="name" v="Janowiec"/>
    <tag k="place" v="village"/>
    <tag k="population" v="1000"/>
    <tag k="source" v="http://ump.waw.pl/ retrieved 23:59:15 08/30/09 (UMP-Lublin/src/cities-Lublin.pnt-converted.txt)"/>
    <tag k="source:population" v="wikipedia"/>
    <tag k="wikipedia" v="Janowiec"/>
  </node>
  <node id="482729138" version="3" timestamp="2010-04-11T04:50:24Z" uid="20587" user="balrog-kun" changeset="4389130" lat="51.32327" lon="21.8907">
    <tag k="addr:postcode" v="24-123"/>
    <tag k="is_in" v="gmina Janowiec, powiat puławski, województwo lubelskie, Poland"/>
    <tag k="is_in:county" v="powiat puławski"/>
    <tag k="is_in:municipality" v="gmina Janowiec"/>
    <tag k="is_in:province" v="województwo lubelskie"/>
    <tag k="name" v="Janowiec"/>
    <tag k="place" v="village"/>
    <tag k="population" v="1000"/>
    <tag k="source" v="http://ump.waw.pl/ retrieved 23:59:15 08/30/09 (UMP-Lublin/src/cities-Lublin.pnt-converted.txt)"/>
    <tag k="source:population" v="wikipedia"/>
    <tag k="wikipedia" v="Janowiec"/>
  </node>
  <node id="482729139" version="1" timestamp="2009-09-03T19:11:29Z" uid="20587" user="balrog-kun" changeset="2363396" lat="51.24822" lon="21.83181">
    <tag k="name" v="Machów"/>
    <tag k="place" v="village"/>
    <tag k="source" v="http://ump.waw.pl/ retrieved 23:59:15 08/30/09 (UMP-Lublin/src/cities-Lublin.pnt-converted.txt)"/>
  </node>
  <node id="482729139" version="2" timestamp="2009-09-03T19:39:08Z" uid="20587" user="balrog-kun" changeset="2363702" lat="51.24822" lon="21.83181">
    <tag k="is_in" v="gmina Wilków, powiat opolski, województwo lubelskie, Poland"/>
    <tag k="is_in:county" v="powiat opolski"/>
    <tag k="is_in:municipality" v="gmina Wilków"/>
    <tag k="is_in:province" v="województwo lubelskie"/>
    <tag k="name" v="Machów"/>
    <tag k="place" v="village"/>
    <tag k="source" v="http://ump.waw.pl/ retrieved 23:59:15 08/30/09 (UMP-Lublin/src/cities-Lublin.pnt-converted.txt)"/>
    <tag k="wikipedia" v="Machów, Lublin Voivodeship"/>
  </node>
  <node id="482729139" version="3" timestamp="2010-04-11T04:50:24Z" uid="20587" user="balrog-kun" changeset="4389130" lat="51.24822" lon="21.83181">
    <tag k="is_in" v="gmina Wilków, powiat opolski, województwo lubelskie, Poland"/>
    <tag k="is_in:county" v="powiat opolski"/>
    <tag k="is_in:municipality" v="gmina Wilków"/>
    <tag k="is_in:province" v="województwo lubelskie"/>
    <tag k="name" v="Machów"/>
    <tag k="place" v="village"/>
    <tag k="source" v="http://ump.waw.pl/ retrieved 23:59:15 08/30/09 (UMP-Lublin/src/cities-Lublin.pnt-converted.txt)"/>
    <tag k="wikipedia" v="Machów, Lublin Voivodeship"/>
  </node>
  <node id="482729139" version="4" timestamp="2010-04-27T03:56:35Z" uid="30632" user="antblant" changeset="4537843" lat="51.24822" lon="21.83181">
    <tag k="is_in" v="gmina Wilków, powiat opolski, województwo lubelskie, Poland"/>
    <tag k="is_in:county" v="powiat opolski"/>
    <tag k="is_in:municipality" v="gmina Wilków"/>
    <tag k="is_in:province" v="województwo lubelskie"/>
    <tag k="name" v="Machów"/>
    <tag k="place" v="village"/>
    <tag k="source" v="http://ump.waw.pl/ retrieved 23:59:15 08/30/09 (UMP-Lublin/src/cities-Lublin.pnt-converted.txt)"/>
    <tag k="teryt:simc" v="0393442"/>
    <tag k="wikipedia" v="Machów, Lublin Voivodeship"/>
  </node>
  <node id="482729140" version="1" timestamp="2009-09-03T19:11:29Z" uid="20587" user="balrog-kun" changeset="2363396" lat="51.32379" lon="22.61939">
    <tag k="name" v="Ludwinów"/>
    <tag k="place" v="village"/>
    <tag k="source" v="http://ump.waw.pl/ retrieved 23:59:15 08/30/09 (UMP-Lublin/src/cities-Lublin.pnt-converted.txt)"/>
  </node>
  <node id="482729140" version="2" timestamp="2009-09-03T19:39:12Z" uid="20587" user="balrog-kun" changeset="2363702" lat="51.32379" lon="22.61939">
    <tag k="is_in" v="gmina Niemce, powiat lubelski, województwo lubelskie, Poland"/>
    <tag k="is_in:county" v="powiat lubelski"/>
    <tag k="is_in:municipality" v="gmina Niemce"/>
    <tag k="is_in:province" v="województwo lubelskie"/>
    <tag k="name" v="Ludwinów"/>
    <tag k="place" v="village"/>
    <tag k="source" v="http://ump.waw.pl/ retrieved 23:59:15 08/30/09 (UMP-Lublin/src/cities-Lublin.pnt-converted.txt)"/>
    <tag k="wikipedia" v="Ludwinów, Gmina Niemce"/>
  </node>
  <node id="482729140" version="3" timestamp="2010-04-11T04:50:24Z" uid="20587" user="balrog-kun" changeset="4389130" lat="51.32379" lon="22.61939">
    <tag k="is_in" v="gmina Niemce, powiat lubelski, województwo lubelskie, Poland"/>
    <tag k="is_in:county" v="powiat lubelski"/>
    <tag k="is_in:municipality" v="gmina Niemce"/>
    <tag k="is_in:province" v="województwo lubelskie"/>
    <tag k="name" v="Ludwinów"/>
    <tag k="place" v="village"/>
    <tag k="source" v="http://ump.waw.pl/ retrieved 23:59:15 08/30/09 (UMP-Lublin/src/cities-Lublin.pnt-converted.txt)"/>
    <tag k="wikipedia" v="Ludwinów, Gmina Niemce"/>
  </node>
  <node id="482729141" version="1" timestamp="2009-09-03T19:11:29Z" uid="20587" user="balrog-kun" changeset="2363396" lat="51.31805" lon="21.938">
    <tag k="addr:city" v="Kazimierz Dolny"/>
    <tag k="name" v="Wąwóz Głębocznica"/>
    <tag k="natural" v="valley"/>
    <tag k="place" v="locality"/>
    <tag k="source" v="http://ump.waw.pl/ retrieved 23:59:15 08/30/09 (UMP-Lublin/src/POI-Lublin.pnt-converted.txt)"/>
  </node>
  <node id="482729142" version="1" timestamp="2009-09-03T19:11:29Z" uid="20587" user="balrog-kun" changeset="2363396" lat="51.3215" lon="21.9803">
    <tag k="addr:city" v="Kazimierz Dolny"/>
    <tag k="name" v="Korzeniowy Dół"/>
    <tag k="natural" v="valley"/>
    <tag k="place" v="locality"/>
    <tag k="source" v="http://ump.waw.pl/ retrieved 23:59:15 08/30/09 (UMP-Lublin/src/POI-Lublin.pnt-converted.txt)"/>
  </node>
  <node id="482729143" version="1" timestamp="2009-09-03T19:11:29Z" uid="20587" user="balrog-kun" changeset="2363396" lat="51.31379" lon="21.99152">
    <tag k="name" v="Wylągi"/>
    <tag k="place" v="village"/>
    <tag k="source" v="http://ump.waw.pl/ retrieved 23:59:15 08/30/09 (UMP-Lublin/src/cities-Lublin.pnt-converted.txt)"/>
  </node>
  <node id="482729143" version="2" timestamp="2010-04-11T04:50:24Z" uid="20587" user="balrog-kun" changeset="4389130" lat="51.31379" lon="21.99152">
    <tag k="name" v="Wylągi"/>
    <tag k="place" v="village"/>
    <tag k="source" v="http://ump.waw.pl/ retrieved 23:59:15 08/30/09 (UMP-Lublin/src/cities-Lublin.pnt-converted.txt)"/>
  </node>
  <node id="482729144" version="1" timestamp="2009-09-03T19:11:29Z" uid="20587" user="balrog-kun" changeset="2363396" lat="51.27976" lon="22.10205">
    <tag k="name" v="Huta"/>
    <tag k="place" v="village"/>
    <tag k="source" v="http://ump.waw.pl/ retrieved 23:59:15 08/30/09 (UMP-Lublin/src/cities-Lublin.pnt-converted.txt)"/>
  </node>
  <node id="482729144" version="2" timestamp="2009-09-03T19:39:13Z" uid="20587" user="balrog-kun" changeset="2363702" lat="51.27976" lon="22.10205">
    <tag k="is_in" v="gmina Wąwolnica, powiat puławski, województwo lubelskie, Poland"/>
    <tag k="is_in:county" v="powiat puławski"/>
    <tag k="is_in:municipality" v="gmina Wąwolnica"/>
    <tag k="is_in:province" v="województwo lubelskie"/>
    <tag k="name" v="Huta"/>
    <tag k="place" v="village"/>
    <tag k="source" v="http://ump.waw.pl/ retrieved 23:59:15 08/30/09 (UMP-Lublin/src/cities-Lublin.pnt-converted.txt)"/>
    <tag k="wikipedia" v="pl:Huta (gmina Wąwolnica)"/>
  </node>
  <node id="482729144" version="3" timestamp="2010-04-11T04:50:24Z" uid="20587" user="balrog-kun" changeset="4389130" lat="51.27976" lon="22.10205">
    <tag k="is_in" v="gmina Wąwolnica, powiat puławski, województwo lubelskie, Poland"/>
    <tag k="is_in:county" v="powiat puławski"/>
    <tag k="is_in:municipality" v="gmina Wąwolnica"/>
    <tag k="is_in:province" v="województwo lubelskie"/>
    <tag k="name" v="Huta"/>
    <tag k="place" v="village"/>
    <tag k="source" v="http://ump.waw.pl/ retrieved 23:59:15 08/30/09 (UMP-Lublin/src/cities-Lublin.pnt-converted.txt)"/>
    <tag k="wikipedia" v="pl:Huta (gmina Wąwolnica)"/>
  </node>
  <node id="482729145" version="1" timestamp="2009-09-03T19:11:29Z" uid="20587" user="balrog-kun" changeset="2363396" lat="51.25366" lon="22.35769">
    <tag k="name" v="Skubicha"/>
    <tag k="place" v="village"/>
    <tag k="source" v="http://ump.waw.pl/ retrieved 23:59:15 08/30/09 (UMP-Lublin/src/cities-Lublin.pnt-converted.txt)"/>
  </node>
  <node id="482729145" version="2" timestamp="2010-04-11T04:50:24Z" uid="20587" user="balrog-kun" changeset="4389130" lat="51.25366" lon="22.35769">
    <tag k="name" v="Skubicha"/>
    <tag k="place" v="village"/>
    <tag k="source" v="http://ump.waw.pl/ retrieved 23:59:15 08/30/09 (UMP-Lublin/src/cities-Lublin.pnt-converted.txt)"/>
  </node>
  <node id="482729146" version="1" timestamp="2009-09-03T19:11:30Z" uid="20587" user="balrog-kun" changeset="2363396" lat="51.20346" lon="22.11818">
    <tag k="name" v="Kraczewice"/>
    <tag k="place" v="village"/>
    <tag k="source" v="http://ump.waw.pl/ retrieved 23:59:15 08/30/09 (UMP-Lublin/src/cities-Lublin.pnt-converted.txt)"/>
  </node>
  <node id="482729146" version="2" timestamp="2010-04-11T04:50:24Z" uid="20587" user="balrog-kun" changeset="4389130" lat="51.20346" lon="22.11818">
    <tag k="name" v="Kraczewice"/>
    <tag k="place" v="village"/>
    <tag k="source" v="http://ump.waw.pl/ retrieved 23:59:15 08/30/09 (UMP-Lublin/src/cities-Lublin.pnt-converted.txt)"/>
  </node>
  <node id="482729147" version="1" timestamp="2009-09-03T19:11:30Z" uid="20587" user="balrog-kun" changeset="2363396" lat="51.27058" lon="22.41593">
    <tag k="name" v="Płouszowice"/>
    <tag k="place" v="village"/>
    <tag k="source" v="http://ump.waw.pl/ retrieved 23:59:15 08/30/09 (UMP-Lublin/src/cities-Lublin.pnt-converted.txt)"/>
  </node>
  <node id="482729147" version="2" timestamp="2009-09-03T19:39:05Z" uid="20587" user="balrog-kun" changeset="2363702" lat="51.27058" lon="22.41593">
    <tag k="is_in" v="gmina Jastków, powiat lubelski, województwo lubelskie, Poland"/>
    <tag k="is_in:county" v="powiat lubelski"/>
    <tag k="is_in:municipality" v="gmina Jastków"/>
    <tag k="is_in:province" v="województwo lubelskie"/>
    <tag k="name" v="Płouszowice"/>
    <tag k="place" v="village"/>
    <tag k="source" v="http://ump.waw.pl/ retrieved 23:59:15 08/30/09 (UMP-Lublin/src/cities-Lublin.pnt-converted.txt)"/>
    <tag k="wikipedia" v="Płouszowice"/>
  </node>
  <node id="482729147" version="3" timestamp="2010-04-11T04:50:25Z" uid="20587" user="balrog-kun" changeset="4389130" lat="51.27058" lon="22.41593">
    <tag k="is_in" v="gmina Jastków, powiat lubelski, województwo lubelskie, Poland"/>
    <tag k="is_in:county" v="powiat lubelski"/>
    <tag k="is_in:municipality" v="gmina Jastków"/>
    <tag k="is_in:province" v="województwo lubelskie"/>
    <tag k="name" v="Płouszowice"/>
    <tag k="place" v="village"/>
    <tag k="source" v="http://ump.waw.pl/ retrieved 23:59:15 08/30/09 (UMP-Lublin/src/cities-Lublin.pnt-converted.txt)"/>
    <tag k="wikipedia" v="Płouszowice"/>
  </node>
  <node id="482729147" version="4" timestamp="2010-04-27T04:11:09Z" uid="30632" user="antblant" changeset="4537882" lat="51.27058" lon="22.41593">
    <tag k="is_in" v="gmina Jastków, powiat lubelski, województwo lubelskie, Poland"/>
    <tag k="is_in:county" v="powiat lubelski"/>
    <tag k="is_in:municipality" v="gmina Jastków"/>
    <tag k="is_in:province" v="województwo lubelskie"/>
    <tag k="name" v="Płouszowice"/>
    <tag k="place" v="village"/>
    <tag k="source" v="http://ump.waw.pl/ retrieved 23:59:15 08/30/09 (UMP-Lublin/src/cities-Lublin.pnt-converted.txt)"/>
    <tag k="teryt:simc" v="0381657"/>
    <tag k="wikipedia" v="Płouszowice"/>
  </node>
  <node id="482729148" version="1" timestamp="2009-09-03T19:11:30Z" uid="20587" user="balrog-kun" changeset="2363396" lat="51.33059" lon="21.91622">
    <tag k="name" v="Oblasy Księże"/>
    <tag k="place" v="village"/>
    <tag k="source" v="http://ump.waw.pl/ retrieved 23:59:15 08/30/09 (UMP-Lublin/src/cities-Lublin.pnt-converted.txt)"/>
  </node>
  <node id="482729148" version="2" timestamp="2010-04-11T04:50:25Z" uid="20587" user="balrog-kun" changeset="4389130" lat="51.33059" lon="21.91622">
    <tag k="name" v="Oblasy Księże"/>
    <tag k="place" v="village"/>
    <tag k="source" v="http://ump.waw.pl/ retrieved 23:59:15 08/30/09 (UMP-Lublin/src/cities-Lublin.pnt-converted.txt)"/>
  </node>
  <node id="482729149" version="1" timestamp="2009-09-03T19:11:30Z" uid="20587" user="balrog-kun" changeset="2363396" lat="51.27489" lon="21.98197">
    <tag k="name" v="Mieczysławka"/>
    <tag k="place" v="village"/>
    <tag k="source" v="http://ump.waw.pl/ retrieved 23:59:15 08/30/09 (UMP-Lublin/src/cities-Lublin.pnt-converted.txt)"/>
  </node>
  <node id="482729149" version="2" timestamp="2009-09-03T19:39:13Z" uid="20587" user="balrog-kun" changeset="2363702" lat="51.27489" lon="21.98197">
    <tag k="is_in" v="gmina Karczmiska, powiat opolski, województwo lubelskie, Poland"/>
    <tag k="is_in:county" v="powiat opolski"/>
    <tag k="is_in:municipality" v="gmina Karczmiska"/>
    <tag k="is_in:province" v="województwo lubelskie"/>
    <tag k="name" v="Mieczysławka"/>
    <tag k="place" v="village"/>
    <tag k="source" v="http://ump.waw.pl/ retrieved 23:59:15 08/30/09 (UMP-Lublin/src/cities-Lublin.pnt-converted.txt)"/>
    <tag k="wikipedia" v="Mieczysławka, Opole Lubelskie County"/>
  </node>
  <node id="482729149" version="3" timestamp="2010-04-11T04:50:25Z" uid="20587" user="balrog-kun" changeset="4389130" lat="51.27489" lon="21.98197">
    <tag k="is_in" v="gmina Karczmiska, powiat opolski, województwo lubelskie, Poland"/>
    <tag k="is_in:county" v="powiat opolski"/>
    <tag k="is_in:municipality" v="gmina Karczmiska"/>
    <tag k="is_in:province" v="województwo lubelskie"/>
    <tag k="name" v="Mieczysławka"/>
    <tag k="place" v="village"/>
    <tag k="source" v="http://ump.waw.pl/ retrieved 23:59:15 08/30/09 (UMP-Lublin/src/cities-Lublin.pnt-converted.txt)"/>
    <tag k="wikipedia" v="Mieczysławka, Opole Lubelskie County"/>
  </node>
  <node id="482729150" version="1" timestamp="2009-09-03T19:11:30Z" uid="20587" user="balrog-kun" changeset="2363396" lat="51.18989" lon="22.19234">
    <tag k="name" v="Kierz"/>
    <tag k="place" v="village"/>
    <tag k="source" v="http://ump.waw.pl/ retrieved 23:59:15 08/30/09 (UMP-Lublin/src/cities-Lublin.pnt-converted.txt)"/>
  </node>
  <node id="482729150" version="2" timestamp="2009-09-03T19:39:14Z" uid="20587" user="balrog-kun" changeset="2363702" lat="51.18989" lon="22.19234">
    <tag k="is_in" v="gmina Bełżyce, powiat lubelski, województwo lubelskie, Poland"/>
    <tag k="is_in:county" v="powiat lubelski"/>
    <tag k="is_in:municipality" v="gmina Bełżyce"/>
    <tag k="is_in:province" v="województwo lubelskie"/>
    <tag k="name" v="Kierz"/>
    <tag k="place" v="village"/>
    <tag k="source" v="http://ump.waw.pl/ retrieved 23:59:15 08/30/09 (UMP-Lublin/src/cities-Lublin.pnt-converted.txt)"/>
    <tag k="wikipedia" v="Kierz, Lublin Voivodeship"/>
  </node>
  <node id="482729150" version="3" timestamp="2010-04-11T04:50:25Z" uid="20587" user="balrog-kun" changeset="4389130" lat="51.18989" lon="22.19234">
    <tag k="is_in" v="gmina Bełżyce, powiat lubelski, województwo lubelskie, Poland"/>
    <tag k="is_in:county" v="powiat lubelski"/>
    <tag k="is_in:municipality" v="gmina Bełżyce"/>
    <tag k="is_in:province" v="województwo lubelskie"/>
    <tag k="name" v="Kierz"/>
    <tag k="place" v="village"/>
    <tag k="source" v="http://ump.waw.pl/ retrieved 23:59:15 08/30/09 (UMP-Lublin/src/cities-Lublin.pnt-converted.txt)"/>
    <tag k="wikipedia" v="Kierz, Lublin Voivodeship"/>
  </node>
  <node id="482729151" version="1" timestamp="2009-09-03T19:11:30Z" uid="20587" user="balrog-kun" changeset="2363396" lat="51.25418" lon="21.85547">
    <tag k="name" v="Wilków Kolonia"/>
    <tag k="place" v="village"/>
    <tag k="source" v="http://ump.waw.pl/ retrieved 23:59:15 08/30/09 (UMP-Lublin/src/cities-Lublin.pnt-converted.txt)"/>
  </node>
  <node id="482729151" version="2" timestamp="2009-09-03T19:39:06Z" uid="20587" user="balrog-kun" changeset="2363702" lat="51.25418" lon="21.85547">
    <tag k="is_in" v="gmina Wilków, powiat opolski, województwo lubelskie, Poland"/>
    <tag k="is_in:county" v="powiat opolski"/>
    <tag k="is_in:municipality" v="gmina Wilków"/>
    <tag k="is_in:province" v="województwo lubelskie"/>
    <tag k="name" v="Wilków Kolonia"/>
    <tag k="place" v="village"/>
    <tag k="source" v="http://ump.waw.pl/ retrieved 23:59:15 08/30/09 (UMP-Lublin/src/cities-Lublin.pnt-converted.txt)"/>
    <tag k="wikipedia" v="Wilków-Kolonia"/>
  </node>
  <node id="482729151" version="3" timestamp="2010-04-11T04:50:25Z" uid="20587" user="balrog-kun" changeset="4389130" lat="51.25418" lon="21.85547">
    <tag k="is_in" v="gmina Wilków, powiat opolski, województwo lubelskie, Poland"/>
    <tag k="is_in:county" v="powiat opolski"/>
    <tag k="is_in:municipality" v="gmina Wilków"/>
    <tag k="is_in:province" v="województwo lubelskie"/>
    <tag k="name" v="Wilków Kolonia"/>
    <tag k="place" v="village"/>
    <tag k="source" v="http://ump.waw.pl/ retrieved 23:59:15 08/30/09 (UMP-Lublin/src/cities-Lublin.pnt-converted.txt)"/>
    <tag k="wikipedia" v="Wilków-Kolonia"/>
  </node>
  <node id="482729152" version="1" timestamp="2009-09-03T19:11:30Z" uid="20587" user="balrog-kun" changeset="2363396" lat="51.32865" lon="21.95921">
    <tag k="addr:city" v="Kazimierz Dolny"/>
    <tag k="name" v="Norowy Dół"/>
    <tag k="natural" v="valley"/>
    <tag k="place" v="locality"/>
    <tag k="source" v="http://ump.waw.pl/ retrieved 23:59:15 08/30/09 (UMP-Lublin/src/POI-Lublin.pnt-converted.txt)"/>
  </node>
  <node id="482729153" version="1" timestamp="2009-09-03T19:11:30Z" uid="20587" user="balrog-kun" changeset="2363396" lat="51.16843" lon="21.84025">
    <tag k="name" v="Głodno"/>
    <tag k="place" v="village"/>
    <tag k="source" v="http://ump.waw.pl/ retrieved 23:59:15 08/30/09 (UMP-Lublin/src/cities-Lublin.pnt-converted.txt)"/>
  </node>
  <node id="482729153" version="2" timestamp="2009-09-03T19:39:09Z" uid="20587" user="balrog-kun" changeset="2363702" lat="51.16843" lon="21.84025">
    <tag k="is_in" v="gmina Łaziska, powiat opolski, województwo lubelskie, Poland"/>
    <tag k="is_in:county" v="powiat opolski"/>
    <tag k="is_in:municipality" v="gmina Łaziska"/>
    <tag k="is_in:province" v="województwo lubelskie"/>
    <tag k="name" v="Głodno"/>
    <tag k="place" v="village"/>
    <tag k="source" v="http://ump.waw.pl/ retrieved 23:59:15 08/30/09 (UMP-Lublin/src/cities-Lublin.pnt-converted.txt)"/>
    <tag k="wikipedia" v="pl:Głodno (województwo lubelskie)"/>
  </node>
  <node id="482729153" version="3" timestamp="2010-04-11T04:50:25Z" uid="20587" user="balrog-kun" changeset="4389130" lat="51.16843" lon="21.84025">
    <tag k="is_in" v="gmina Łaziska, powiat opolski, województwo lubelskie, Poland"/>
    <tag k="is_in:county" v="powiat opolski"/>
    <tag k="is_in:municipality" v="gmina Łaziska"/>
    <tag k="is_in:province" v="województwo lubelskie"/>
    <tag k="name" v="Głodno"/>
    <tag k="place" v="village"/>
    <tag k="source" v="http://ump.waw.pl/ retrieved 23:59:15 08/30/09 (UMP-Lublin/src/cities-Lublin.pnt-converted.txt)"/>
    <tag k="wikipedia" v="pl:Głodno (województwo lubelskie)"/>
  </node>
  <node id="482729154" version="1" timestamp="2009-09-03T19:11:30Z" uid="20587" user="balrog-kun" changeset="2363396" lat="51.30815" lon="22.04048">
    <tag k="name" v="Rzeczyca"/>
    <tag k="place" v="village"/>
    <tag k="source" v="http://ump.waw.pl/ retrieved 23:59:15 08/30/09 (UMP-Lublin/src/cities-Lublin.pnt-converted.txt)"/>
  </node>
  <node id="482729154" version="2" timestamp="2009-09-03T19:39:11Z" uid="20587" user="balrog-kun" changeset="2363702" lat="51.30815" lon="22.04048">
    <tag k="is_in" v="gmina Kazimierz Dolny, powiat puławski, województwo lubelskie, Poland"/>
    <tag k="is_in:county" v="powiat puławski"/>
    <tag k="is_in:municipality" v="gmina Kazimierz Dolny"/>
    <tag k="is_in:province" v="województwo lubelskie"/>
    <tag k="name" v="Rzeczyca"/>
    <tag k="place" v="village"/>
    <tag k="population" v="460"/>
    <tag k="source" v="http://ump.waw.pl/ retrieved 23:59:15 08/30/09 (UMP-Lublin/src/cities-Lublin.pnt-converted.txt)"/>
    <tag k="source:population" v="wikipedia"/>
    <tag k="wikipedia" v="Rzeczyca, Puławy County"/>
  </node>
  <node id="482729154" version="3" timestamp="2010-04-11T04:50:25Z" uid="20587" user="balrog-kun" changeset="4389130" lat="51.30815" lon="22.04048">
    <tag k="is_in" v="gmina Kazimierz Dolny, powiat puławski, województwo lubelskie, Poland"/>
    <tag k="is_in:county" v="powiat puławski"/>
    <tag k="is_in:municipality" v="gmina Kazimierz Dolny"/>
    <tag k="is_in:province" v="województwo lubelskie"/>
    <tag k="name" v="Rzeczyca"/>
    <tag k="place" v="village"/>
    <tag k="population" v="460"/>
    <tag k="source" v="http://ump.waw.pl/ retrieved 23:59:15 08/30/09 (UMP-Lublin/src/cities-Lublin.pnt-converted.txt)"/>
    <tag k="source:population" v="wikipedia"/>
    <tag k="wikipedia" v="Rzeczyca, Puławy County"/>
  </node>
  <node id="482729155" version="1" timestamp="2009-09-03T19:11:30Z" uid="20587" user="balrog-kun" changeset="2363396" lat="51.32435" lon="21.98072">
    <tag k="name" v="Góry"/>
    <tag k="place" v="village"/>
    <tag k="source" v="http://ump.waw.pl/ retrieved 23:59:15 08/30/09 (UMP-Lublin/src/cities-Lublin.pnt-converted.txt)"/>
  </node>
  <node id="482729155" version="2" timestamp="2009-09-03T19:39:08Z" uid="20587" user="balrog-kun" changeset="2363702" lat="51.32435" lon="21.98072">
    <tag k="is_in" v="gmina Markuszów, powiat puławski, województwo lubelskie, Poland"/>
    <tag k="is_in:county" v="powiat puławski"/>
    <tag k="is_in:municipality" v="gmina Markuszów"/>
    <tag k="is_in:province" v="województwo lubelskie"/>
    <tag k="name" v="Góry"/>
    <tag k="place" v="village"/>
    <tag k="population" v="350"/>
    <tag k="source" v="http://ump.waw.pl/ retrieved 23:59:15 08/30/09 (UMP-Lublin/src/cities-Lublin.pnt-converted.txt)"/>
    <tag k="source:population" v="wikipedia"/>
    <tag k="wikipedia" v="Góry, Puławy County"/>
  </node>
  <node id="482729155" version="3" timestamp="2010-04-11T04:50:25Z" uid="20587" user="balrog-kun" changeset="4389130" lat="51.32435" lon="21.98072">
    <tag k="is_in" v="gmina Markuszów, powiat puławski, województwo lubelskie, Poland"/>
    <tag k="is_in:county" v="powiat puławski"/>
    <tag k="is_in:municipality" v="gmina Markuszów"/>
    <tag k="is_in:province" v="województwo lubelskie"/>
    <tag k="name" v="Góry"/>
    <tag k="place" v="village"/>
    <tag k="population" v="350"/>
    <tag k="source" v="http://ump.waw.pl/ retrieved 23:59:15 08/30/09 (UMP-Lublin/src/cities-Lublin.pnt-converted.txt)"/>
    <tag k="source:population" v="wikipedia"/>
    <tag k="wikipedia" v="Góry, Puławy County"/>
  </node>
  <node id="482729156" version="1" timestamp="2009-09-03T19:11:30Z" uid="20587" user="balrog-kun" changeset="2363396" lat="51.17359" lon="22.34829">
    <tag k="name" v="Babin"/>
    <tag k="place" v="village"/>
    <tag k="source" v="http://ump.waw.pl/ retrieved 23:59:15 08/30/09 (UMP-Lublin/src/cities-Lublin.pnt-converted.txt)"/>
  </node>
  <node id="482729156" version="2" timestamp="2009-09-03T19:39:13Z" uid="20587" user="balrog-kun" changeset="2363702" lat="51.17359" lon="22.34829">
    <tag k="addr:postcode" v="24-200"/>
    <tag k="is_in" v="gmina Bełżyce, powiat lubelski, województwo lubelskie, Poland"/>
    <tag k="is_in:county" v="powiat lubelski"/>
    <tag k="is_in:municipality" v="gmina Bełżyce"/>
    <tag k="is_in:province" v="województwo lubelskie"/>
    <tag k="name" v="Babin"/>
    <tag k="place" v="village"/>
    <tag k="population" v="830"/>
    <tag k="source" v="http://ump.waw.pl/ retrieved 23:59:15 08/30/09 (UMP-Lublin/src/cities-Lublin.pnt-converted.txt)"/>
    <tag k="source:population" v="wikipedia"/>
    <tag k="wikipedia" v="Babin, Lublin Voivodeship"/>
  </node>
  <node id="482729156" version="3" timestamp="2010-04-11T04:50:25Z" uid="20587" user="balrog-kun" changeset="4389130" lat="51.17359" lon="22.34829">
    <tag k="addr:postcode" v="24-200"/>
    <tag k="is_in" v="gmina Bełżyce, powiat lubelski, województwo lubelskie, Poland"/>
    <tag k="is_in:county" v="powiat lubelski"/>
    <tag k="is_in:municipality" v="gmina Bełżyce"/>
    <tag k="is_in:province" v="województwo lubelskie"/>
    <tag k="name" v="Babin"/>
    <tag k="place" v="village"/>
    <tag k="population" v="830"/>
    <tag k="source" v="http://ump.waw.pl/ retrieved 23:59:15 08/30/09 (UMP-Lublin/src/cities-Lublin.pnt-converted.txt)"/>
    <tag k="source:population" v="wikipedia"/>
    <tag k="wikipedia" v="Babin, Lublin Voivodeship"/>
  </node>
  <node id="482729157" version="1" timestamp="2009-09-03T19:11:30Z" uid="20587" user="balrog-kun" changeset="2363396" lat="51.31401" lon="21.9261">
    <tag k="addr:city" v="Kazimierz Dolny"/>
    <tag k="name" v="Wąwóz Granicznik"/>
    <tag k="natural" v="valley"/>
    <tag k="place" v="locality"/>
    <tag k="source" v="http://ump.waw.pl/ retrieved 23:59:15 08/30/09 (UMP-Lublin/src/POI-Lublin.pnt-converted.txt)"/>
  </node>
  <node id="482729158" version="1" timestamp="2009-09-03T19:11:31Z" uid="20587" user="balrog-kun" changeset="2363396" lat="51.1738" lon="22.32817">
    <tag k="name" v="Jaroszewice"/>
    <tag k="place" v="village"/>
    <tag k="source" v="http://ump.waw.pl/ retrieved 23:59:15 08/30/09 (UMP-Lublin/src/cities-Lublin.pnt-converted.txt)"/>
  </node>
  <node id="482729158" version="2" timestamp="2009-09-03T19:39:08Z" uid="20587" user="balrog-kun" changeset="2363702" lat="51.1738" lon="22.32817">
    <tag k="addr:postcode" v="24-200"/>
    <tag k="is_in" v="gmina Bełżyce, powiat lubelski, województwo lubelskie, Poland"/>
    <tag k="is_in:county" v="powiat lubelski"/>
    <tag k="is_in:municipality" v="gmina Bełżyce"/>
    <tag k="is_in:province" v="województwo lubelskie"/>
    <tag k="name" v="Jaroszewice"/>
    <tag k="place" v="village"/>
    <tag k="population" v="390"/>
    <tag k="source" v="http://ump.waw.pl/ retrieved 23:59:15 08/30/09 (UMP-Lublin/src/cities-Lublin.pnt-converted.txt)"/>
    <tag k="source:population" v="wikipedia"/>
    <tag k="teryt:simc" v="0378589"/>
    <tag k="wikipedia" v="Jaroszewice"/>
  </node>
  <node id="482729158" version="3" timestamp="2010-04-11T04:50:25Z" uid="20587" user="balrog-kun" changeset="4389130" lat="51.1738" lon="22.32817">
    <tag k="addr:postcode" v="24-200"/>
    <tag k="is_in" v="gmina Bełżyce, powiat lubelski, województwo lubelskie, Poland"/>
    <tag k="is_in:county" v="powiat lubelski"/>
    <tag k="is_in:municipality" v="gmina Bełżyce"/>
    <tag k="is_in:province" v="województwo lubelskie"/>
    <tag k="name" v="Jaroszewice"/>
    <tag k="place" v="village"/>
    <tag k="population" v="390"/>
    <tag k="source" v="http://ump.waw.pl/ retrieved 23:59:15 08/30/09 (UMP-Lublin/src/cities-Lublin.pnt-converted.txt)"/>
    <tag k="source:population" v="wikipedia"/>
    <tag k="teryt:simc" v="0378589"/>
    <tag k="wikipedia" v="Jaroszewice"/>
  </node>
  <node id="482729159" version="1" timestamp="2009-09-03T19:11:31Z" uid="20587" user="balrog-kun" changeset="2363396" lat="51.32522" lon="22.19027">
    <tag k="name" v="Drzewce"/>
    <tag k="place" v="village"/>
    <tag k="source" v="http://ump.waw.pl/ retrieved 23:59:15 08/30/09 (UMP-Lublin/src/cities-Lublin.pnt-converted.txt)"/>
  </node>
  <node id="482729159" version="2" timestamp="2009-09-03T19:39:14Z" uid="20587" user="balrog-kun" changeset="2363702" lat="51.32522" lon="22.19027">
    <tag k="addr:postcode" v="24-150"/>
    <tag k="is_in" v="gmina Nałęczów, powiat puławski, województwo lubelskie, Poland"/>
    <tag k="is_in:county" v="powiat puławski"/>
    <tag k="is_in:municipality" v="gmina Nałęczów"/>
    <tag k="is_in:province" v="województwo lubelskie"/>
    <tag k="name" v="Drzewce"/>
    <tag k="place" v="village"/>
    <tag k="population" v="600"/>
    <tag k="source" v="http://ump.waw.pl/ retrieved 23:59:15 08/30/09 (UMP-Lublin/src/cities-Lublin.pnt-converted.txt)"/>
    <tag k="source:population" v="wikipedia"/>
    <tag k="wikipedia" v="Drzewce, Lublin Voivodeship"/>
  </node>
  <node id="482729159" version="3" timestamp="2010-04-11T04:50:25Z" uid="20587" user="balrog-kun" changeset="4389130" lat="51.32522" lon="22.19027">
    <tag k="addr:postcode" v="24-150"/>
    <tag k="is_in" v="gmina Nałęczów, powiat puławski, województwo lubelskie, Poland"/>
    <tag k="is_in:county" v="powiat puławski"/>
    <tag k="is_in:municipality" v="gmina Nałęczów"/>
    <tag k="is_in:province" v="województwo lubelskie"/>
    <tag k="name" v="Drzewce"/>
    <tag k="place" v="village"/>
    <tag k="population" v="600"/>
    <tag k="source" v="http://ump.waw.pl/ retrieved 23:59:15 08/30/09 (UMP-Lublin/src/cities-Lublin.pnt-converted.txt)"/>
    <tag k="source:population" v="wikipedia"/>
    <tag k="wikipedia" v="Drzewce, Lublin Voivodeship"/>
  </node>
  <node id="482729160" version="1" timestamp="2009-09-03T19:11:31Z" uid="20587" user="balrog-kun" changeset="2363396" lat="51.24332" lon="22.32349">
    <tag k="name" v="Motycz Leśny"/>
    <tag k="place" v="village"/>
    <tag k="source" v="http://ump.waw.pl/ retrieved 23:59:15 08/30/09 (UMP-Lublin/src/cities-Lublin.pnt-converted.txt)"/>
  </node>
  <node id="482729160" version="2" timestamp="2009-09-03T19:39:06Z" uid="20587" user="balrog-kun" changeset="2363702" lat="51.24332" lon="22.32349">
    <tag k="is_in" v="gmina Konopnica, powiat lubelski, województwo lubelskie, Poland"/>
    <tag k="is_in:county" v="powiat lubelski"/>
    <tag k="is_in:municipality" v="gmina Konopnica"/>
    <tag k="is_in:province" v="województwo lubelskie"/>
    <tag k="name" v="Motycz Leśny"/>
    <tag k="place" v="village"/>
    <tag k="source" v="http://ump.waw.pl/ retrieved 23:59:15 08/30/09 (UMP-Lublin/src/cities-Lublin.pnt-converted.txt)"/>
    <tag k="wikipedia" v="Motycz Leśny"/>
  </node>
  <node id="482729160" version="3" timestamp="2010-04-11T04:50:25Z" uid="20587" user="balrog-kun" changeset="4389130" lat="51.24332" lon="22.32349">
    <tag k="is_in" v="gmina Konopnica, powiat lubelski, województwo lubelskie, Poland"/>
    <tag k="is_in:county" v="powiat lubelski"/>
    <tag k="is_in:municipality" v="gmina Konopnica"/>
    <tag k="is_in:province" v="województwo lubelskie"/>
    <tag k="name" v="Motycz Leśny"/>
    <tag k="place" v="village"/>
    <tag k="source" v="http://ump.waw.pl/ retrieved 23:59:15 08/30/09 (UMP-Lublin/src/cities-Lublin.pnt-converted.txt)"/>
    <tag k="wikipedia" v="Motycz Leśny"/>
  </node>
  <node id="482729160" version="4" timestamp="2010-04-27T04:12:20Z" uid="30632" user="antblant" changeset="4537887" lat="51.24332" lon="22.32349">
    <tag k="is_in" v="gmina Konopnica, powiat lubelski, województwo lubelskie, Poland"/>
    <tag k="is_in:county" v="powiat lubelski"/>
    <tag k="is_in:municipality" v="gmina Konopnica"/>
    <tag k="is_in:province" v="województwo lubelskie"/>
    <tag k="name" v="Motycz Leśny"/>
    <tag k="place" v="village"/>
    <tag k="source" v="http://ump.waw.pl/ retrieved 23:59:15 08/30/09 (UMP-Lublin/src/cities-Lublin.pnt-converted.txt)"/>
    <tag k="teryt:simc" v="0383484"/>
    <tag k="wikipedia" v="Motycz Leśny"/>
  </node>
  <node id="482729161" version="1" timestamp="2009-09-03T19:11:31Z" uid="20587" user="balrog-kun" changeset="2363396" lat="51.27053" lon="21.86824">
    <tag k="name" v="Zastów Karczmiski"/>
    <tag k="place" v="village"/>
    <tag k="source" v="http://ump.waw.pl/ retrieved 23:59:15 08/30/09 (UMP-Lublin/src/cities-Lublin.pnt-converted.txt)"/>
  </node>
  <node id="482729161" version="2" timestamp="2009-09-03T19:39:13Z" uid="20587" user="balrog-kun" changeset="2363702" lat="51.27053" lon="21.86824">
    <tag k="is_in" v="gmina Wilków, powiat opolski, województwo lubelskie, Poland"/>
    <tag k="is_in:county" v="powiat opolski"/>
    <tag k="is_in:municipality" v="gmina Wilków"/>
    <tag k="is_in:province" v="województwo lubelskie"/>
    <tag k="name" v="Zastów Karczmiski"/>
    <tag k="place" v="village"/>
    <tag k="source" v="http://ump.waw.pl/ retrieved 23:59:15 08/30/09 (UMP-Lublin/src/cities-Lublin.pnt-converted.txt)"/>
    <tag k="wikipedia" v="Zastów Karczmiski"/>
  </node>
  <node id="482729161" version="3" timestamp="2010-04-11T04:50:26Z" uid="20587" user="balrog-kun" changeset="4389130" lat="51.27053" lon="21.86824">
    <tag k="is_in" v="gmina Wilków, powiat opolski, województwo lubelskie, Poland"/>
    <tag k="is_in:county" v="powiat opolski"/>
    <tag k="is_in:municipality" v="gmina Wilków"/>
    <tag k="is_in:province" v="województwo lubelskie"/>
    <tag k="name" v="Zastów Karczmiski"/>
    <tag k="place" v="village"/>
    <tag k="source" v="http://ump.waw.pl/ retrieved 23:59:15 08/30/09 (UMP-Lublin/src/cities-Lublin.pnt-converted.txt)"/>
    <tag k="wikipedia" v="Zastów Karczmiski"/>
  </node>
  <node id="482729161" version="4" timestamp="2010-04-27T04:12:21Z" uid="30632" user="antblant" changeset="4537887" lat="51.27053" lon="21.86824">
    <tag k="is_in" v="gmina Wilków, powiat opolski, województwo lubelskie, Poland"/>
    <tag k="is_in:county" v="powiat opolski"/>
    <tag k="is_in:municipality" v="gmina Wilków"/>
    <tag k="is_in:province" v="województwo lubelskie"/>
    <tag k="name" v="Zastów Karczmiski"/>
    <tag k="place" v="village"/>
    <tag k="source" v="http://ump.waw.pl/ retrieved 23:59:15 08/30/09 (UMP-Lublin/src/cities-Lublin.pnt-converted.txt)"/>
    <tag k="teryt:simc" v="0393608"/>
    <tag k="wikipedia" v="Zastów Karczmiski"/>
  </node>
  <node id="482729162" version="1" timestamp="2009-09-03T19:11:31Z" uid="20587" user="balrog-kun" changeset="2363396" lat="51.2839" lon="22.12929">
    <tag k="name" v="Kębło"/>
    <tag k="place" v="village"/>
    <tag k="source" v="http://ump.waw.pl/ retrieved 23:59:15 08/30/09 (UMP-Lublin/src/cities-Lublin.pnt-converted.txt)"/>
  </node>
  <node id="482729162" version="2" timestamp="2009-09-03T19:39:11Z" uid="20587" user="balrog-kun" changeset="2363702" lat="51.2839" lon="22.12929">
    <tag k="is_in" v="gmina Wąwolnica, powiat puławski, województwo lubelskie, Poland"/>
    <tag k="is_in:county" v="powiat puławski"/>
    <tag k="is_in:municipality" v="gmina Wąwolnica"/>
    <tag k="is_in:province" v="województwo lubelskie"/>
    <tag k="name" v="Kębło"/>
    <tag k="place" v="village"/>
    <tag k="source" v="http://ump.waw.pl/ retrieved 23:59:15 08/30/09 (UMP-Lublin/src/cities-Lublin.pnt-converted.txt)"/>
    <tag k="wikipedia" v="Kębło"/>
  </node>
  <node id="482729162" version="3" timestamp="2010-04-11T04:50:26Z" uid="20587" user="balrog-kun" changeset="4389130" lat="51.2839" lon="22.12929">
    <tag k="is_in" v="gmina Wąwolnica, powiat puławski, województwo lubelskie, Poland"/>
    <tag k="is_in:county" v="powiat puławski"/>
    <tag k="is_in:municipality" v="gmina Wąwolnica"/>
    <tag k="is_in:province" v="województwo lubelskie"/>
    <tag k="name" v="Kębło"/>
    <tag k="place" v="village"/>
    <tag k="source" v="http://ump.waw.pl/ retrieved 23:59:15 08/30/09 (UMP-Lublin/src/cities-Lublin.pnt-converted.txt)"/>
    <tag k="wikipedia" v="Kębło"/>
  </node>
  <node id="482729162" version="4" timestamp="2010-04-27T04:12:21Z" uid="30632" user="antblant" changeset="4537887" lat="51.2839" lon="22.12929">
    <tag k="is_in" v="gmina Wąwolnica, powiat puławski, województwo lubelskie, Poland"/>
    <tag k="is_in:county" v="powiat puławski"/>
    <tag k="is_in:municipality" v="gmina Wąwolnica"/>
    <tag k="is_in:province" v="województwo lubelskie"/>
    <tag k="name" v="Kębło"/>
    <tag k="place" v="village"/>
    <tag k="source" v="http://ump.waw.pl/ retrieved 23:59:15 08/30/09 (UMP-Lublin/src/cities-Lublin.pnt-converted.txt)"/>
    <tag k="teryt:simc" v="0393034"/>
    <tag k="wikipedia" v="Kębło"/>
  </node>
  <node id="482729163" version="1" timestamp="2009-09-03T19:11:31Z" uid="20587" user="balrog-kun" changeset="2363396" lat="51.21449" lon="22.03915">
    <tag k="name" v="Wolica Kolonia"/>
    <tag k="place" v="village"/>
    <tag k="source" v="http://ump.waw.pl/ retrieved 23:59:15 08/30/09 (UMP-Lublin/src/cities-Lublin.pnt-converted.txt)"/>
  </node>
  <node id="482729163" version="2" timestamp="2009-09-03T19:39:11Z" uid="20587" user="balrog-kun" changeset="2363702" lat="51.21449" lon="22.03915">
    <tag k="is_in" v="gmina Karczmiska, powiat opolski, województwo lubelskie, Poland"/>
    <tag k="is_in:county" v="powiat opolski"/>
    <tag k="is_in:municipality" v="gmina Karczmiska"/>
    <tag k="is_in:province" v="województwo lubelskie"/>
    <tag k="name" v="Wolica Kolonia"/>
    <tag k="place" v="village"/>
    <tag k="population" v="240"/>
    <tag k="source" v="http://ump.waw.pl/ retrieved 23:59:15 08/30/09 (UMP-Lublin/src/cities-Lublin.pnt-converted.txt)"/>
    <tag k="source:population" v="wikipedia"/>
    <tag k="wikipedia" v="Wolica-Kolonia"/>
  </node>
  <node id="482729163" version="3" timestamp="2010-04-11T04:50:26Z" uid="20587" user="balrog-kun" changeset="4389130" lat="51.21449" lon="22.03915">
    <tag k="is_in" v="gmina Karczmiska, powiat opolski, województwo lubelskie, Poland"/>
    <tag k="is_in:county" v="powiat opolski"/>
    <tag k="is_in:municipality" v="gmina Karczmiska"/>
    <tag k="is_in:province" v="województwo lubelskie"/>
    <tag k="name" v="Wolica Kolonia"/>
    <tag k="place" v="village"/>
    <tag k="population" v="240"/>
    <tag k="source" v="http://ump.waw.pl/ retrieved 23:59:15 08/30/09 (UMP-Lublin/src/cities-Lublin.pnt-converted.txt)"/>
    <tag k="source:population" v="wikipedia"/>
    <tag k="wikipedia" v="Wolica-Kolonia"/>
  </node>
  <node id="482729164" version="1" timestamp="2009-09-03T19:11:31Z" uid="20587" user="balrog-kun" changeset="2363396" lat="51.28405" lon="22.175">
    <tag k="name" v="Łąki"/>
    <tag k="place" v="village"/>
    <tag k="source" v="http://ump.waw.pl/ retrieved 23:59:15 08/30/09 (UMP-Lublin/src/cities-Lublin.pnt-converted.txt)"/>
  </node>
  <node id="482729164" version="2" timestamp="2009-09-03T19:39:08Z" uid="20587" user="balrog-kun" changeset="2363702" lat="51.28405" lon="22.175">
    <tag k="is_in" v="gmina Wąwolnica, powiat puławski, województwo lubelskie, Poland"/>
    <tag k="is_in:county" v="powiat puławski"/>
    <tag k="is_in:municipality" v="gmina Wąwolnica"/>
    <tag k="is_in:province" v="województwo lubelskie"/>
    <tag k="name" v="Łąki"/>
    <tag k="place" v="village"/>
    <tag k="source" v="http://ump.waw.pl/ retrieved 23:59:15 08/30/09 (UMP-Lublin/src/cities-Lublin.pnt-converted.txt)"/>
    <tag k="wikipedia" v="Łąki, Lublin Voivodeship"/>
  </node>
  <node id="482729164" version="3" timestamp="2010-04-11T04:50:26Z" uid="20587" user="balrog-kun" changeset="4389130" lat="51.28405" lon="22.175">
    <tag k="is_in" v="gmina Wąwolnica, powiat puławski, województwo lubelskie, Poland"/>
    <tag k="is_in:county" v="powiat puławski"/>
    <tag k="is_in:municipality" v="gmina Wąwolnica"/>
    <tag k="is_in:province" v="województwo lubelskie"/>
    <tag k="name" v="Łąki"/>
    <tag k="place" v="village"/>
    <tag k="source" v="http://ump.waw.pl/ retrieved 23:59:15 08/30/09 (UMP-Lublin/src/cities-Lublin.pnt-converted.txt)"/>
    <tag k="wikipedia" v="Łąki, Lublin Voivodeship"/>
  </node>
  <node id="482729165" version="1" timestamp="2009-09-03T19:11:32Z" uid="20587" user="balrog-kun" changeset="2363396" lat="51.31469" lon="22.3513">
    <tag k="name" v="Wysokie"/>
    <tag k="place" v="village"/>
    <tag k="source" v="http://ump.waw.pl/ retrieved 23:59:15 08/30/09 (UMP-Lublin/src/cities-Lublin.pnt-converted.txt)"/>
  </node>
  <node id="482729165" version="2" timestamp="2009-09-03T19:39:06Z" uid="20587" user="balrog-kun" changeset="2363702" lat="51.31469" lon="22.3513">
    <tag k="is_in" v="gmina Jastków, powiat lubelski, województwo lubelskie, Poland"/>
    <tag k="is_in:county" v="powiat lubelski"/>
    <tag k="is_in:municipality" v="gmina Jastków"/>
    <tag k="is_in:province" v="województwo lubelskie"/>
    <tag k="name" v="Wysokie"/>
    <tag k="place" v="village"/>
    <tag k="source" v="http://ump.waw.pl/ retrieved 23:59:15 08/30/09 (UMP-Lublin/src/cities-Lublin.pnt-converted.txt)"/>
    <tag k="wikipedia" v="Wysokie, Gmina Jastków"/>
  </node>
  <node id="482729165" version="3" timestamp="2010-04-11T04:50:26Z" uid="20587" user="balrog-kun" changeset="4389130" lat="51.31469" lon="22.3513">
    <tag k="is_in" v="gmina Jastków, powiat lubelski, województwo lubelskie, Poland"/>
    <tag k="is_in:county" v="powiat lubelski"/>
    <tag k="is_in:municipality" v="gmina Jastków"/>
    <tag k="is_in:province" v="województwo lubelskie"/>
    <tag k="name" v="Wysokie"/>
    <tag k="place" v="village"/>
    <tag k="source" v="http://ump.waw.pl/ retrieved 23:59:15 08/30/09 (UMP-Lublin/src/cities-Lublin.pnt-converted.txt)"/>
    <tag k="wikipedia" v="Wysokie, Gmina Jastków"/>
  </node>
  <node id="482729166" version="1" timestamp="2009-09-03T19:11:32Z" uid="20587" user="balrog-kun" changeset="2363396" lat="51.21659" lon="22.06259">
    <tag k="name" v="Kowala Druga"/>
    <tag k="place" v="village"/>
    <tag k="source" v="http://ump.waw.pl/ retrieved 23:59:15 08/30/09 (UMP-Lublin/src/cities-Lublin.pnt-converted.txt)"/>
  </node>
  <node id="482729166" version="2" timestamp="2009-09-03T19:39:13Z" uid="20587" user="balrog-kun" changeset="2363702" lat="51.21659" lon="22.06259">
    <tag k="is_in" v="gmina Poniatowa, powiat opolski, województwo lubelskie, Poland"/>
    <tag k="is_in:county" v="powiat opolski"/>
    <tag k="is_in:municipality" v="gmina Poniatowa"/>
    <tag k="is_in:province" v="województwo lubelskie"/>
    <tag k="name" v="Kowala Druga"/>
    <tag k="place" v="village"/>
    <tag k="population" v="620"/>
    <tag k="source" v="http://ump.waw.pl/ retrieved 23:59:15 08/30/09 (UMP-Lublin/src/cities-Lublin.pnt-converted.txt)"/>
    <tag k="source:population" v="wikipedia"/>
    <tag k="wikipedia" v="Kowala Druga"/>
  </node>
  <node id="482729166" version="3" timestamp="2010-04-11T04:50:26Z" uid="20587" user="balrog-kun" changeset="4389130" lat="51.21659" lon="22.06259">
    <tag k="is_in" v="gmina Poniatowa, powiat opolski, województwo lubelskie, Poland"/>
    <tag k="is_in:county" v="powiat opolski"/>
    <tag k="is_in:municipality" v="gmina Poniatowa"/>
    <tag k="is_in:province" v="województwo lubelskie"/>
    <tag k="name" v="Kowala Druga"/>
    <tag k="place" v="village"/>
    <tag k="population" v="620"/>
    <tag k="source" v="http://ump.waw.pl/ retrieved 23:59:15 08/30/09 (UMP-Lublin/src/cities-Lublin.pnt-converted.txt)"/>
    <tag k="source:population" v="wikipedia"/>
    <tag k="wikipedia" v="Kowala Druga"/>
  </node>
  <node id="482729166" version="4" timestamp="2010-04-27T04:12:20Z" uid="30632" user="antblant" changeset="4537887" lat="51.21659" lon="22.06259">
    <tag k="is_in" v="gmina Poniatowa, powiat opolski, województwo lubelskie, Poland"/>
    <tag k="is_in:county" v="powiat opolski"/>
    <tag k="is_in:municipality" v="gmina Poniatowa"/>
    <tag k="is_in:province" v="województwo lubelskie"/>
    <tag k="name" v="Kowala Druga"/>
    <tag k="place" v="village"/>
    <tag k="population" v="620"/>
    <tag k="source" v="http://ump.waw.pl/ retrieved 23:59:15 08/30/09 (UMP-Lublin/src/cities-Lublin.pnt-converted.txt)"/>
    <tag k="source:population" v="wikipedia"/>
    <tag k="teryt:simc" v="0389512"/>
    <tag k="wikipedia" v="Kowala Druga"/>
  </node>
  <node id="482729167" version="1" timestamp="2009-09-03T19:11:32Z" uid="20587" user="balrog-kun" changeset="2363396" lat="51.31859" lon="21.9472">
    <tag k="addr:city" v="Kazimierz Dolny"/>
    <tag k="name" v="Wąwóz Małachowskiego"/>
    <tag k="natural" v="valley"/>
    <tag k="place" v="locality"/>
    <tag k="source" v="http://ump.waw.pl/ retrieved 23:59:15 08/30/09 (UMP-Lublin/src/POI-Lublin.pnt-converted.txt)"/>
  </node>
  <node id="482729168" version="1" timestamp="2009-09-03T19:11:32Z" uid="20587" user="balrog-kun" changeset="2363396" lat="51.20547" lon="21.92338">
    <tag k="name" v="Młyny"/>
    <tag k="place" v="village"/>
    <tag k="source" v="http://ump.waw.pl/ retrieved 23:59:15 08/30/09 (UMP-Lublin/src/cities-Lublin.pnt-converted.txt)"/>
  </node>
  <node id="482729168" version="2" timestamp="2010-04-11T04:50:26Z" uid="20587" user="balrog-kun" changeset="4389130" lat="51.20547" lon="21.92338">
    <tag k="name" v="Młyny"/>
    <tag k="place" v="village"/>
    <tag k="source" v="http://ump.waw.pl/ retrieved 23:59:15 08/30/09 (UMP-Lublin/src/cities-Lublin.pnt-converted.txt)"/>
  </node>
  <node id="482729169" version="1" timestamp="2009-09-03T19:11:32Z" uid="20587" user="balrog-kun" changeset="2363396" lat="51.30476" lon="21.97521">
    <tag k="name" v="Jeziorszczyzna"/>
    <tag k="place" v="village"/>
    <tag k="source" v="http://ump.waw.pl/ retrieved 23:59:15 08/30/09 (UMP-Lublin/src/cities-Lublin.pnt-converted.txt)"/>
  </node>
  <node id="482729169" version="2" timestamp="2010-04-11T04:50:26Z" uid="20587" user="balrog-kun" changeset="4389130" lat="51.30476" lon="21.97521">
    <tag k="name" v="Jeziorszczyzna"/>
    <tag k="place" v="village"/>
    <tag k="source" v="http://ump.waw.pl/ retrieved 23:59:15 08/30/09 (UMP-Lublin/src/cities-Lublin.pnt-converted.txt)"/>
  </node>
  <node id="482729170" version="1" timestamp="2009-09-03T19:11:32Z" uid="20587" user="balrog-kun" changeset="2363396" lat="51.31203" lon="22.52502">
    <tag k="name" v="Jakubowice"/>
    <tag k="place" v="village"/>
    <tag k="source" v="http://ump.waw.pl/ retrieved 23:59:15 08/30/09 (UMP-Lublin/src/cities-Lublin.pnt-converted.txt)"/>
  </node>
  <node id="482729170" version="2" timestamp="2010-04-11T04:50:26Z" uid="20587" user="balrog-kun" changeset="4389130" lat="51.31203" lon="22.52502">
    <tag k="name" v="Jakubowice"/>
    <tag k="place" v="village"/>
    <tag k="source" v="http://ump.waw.pl/ retrieved 23:59:15 08/30/09 (UMP-Lublin/src/cities-Lublin.pnt-converted.txt)"/>
  </node>
  <node id="482729171" version="1" timestamp="2009-09-03T19:11:32Z" uid="20587" user="balrog-kun" changeset="2363396" lat="51.3228" lon="22.32104">
    <tag k="name" v="Ługów"/>
    <tag k="place" v="village"/>
    <tag k="source" v="http://ump.waw.pl/ retrieved 23:59:15 08/30/09 (UMP-Lublin/src/cities-Lublin.pnt-converted.txt)"/>
  </node>
  <node id="482729171" version="2" timestamp="2009-09-03T19:39:09Z" uid="20587" user="balrog-kun" changeset="2363702" lat="51.3228" lon="22.32104">
    <tag k="is_in" v="gmina Jastków, powiat lubelski, województwo lubelskie, Poland"/>
    <tag k="is_in:county" v="powiat lubelski"/>
    <tag k="is_in:municipality" v="gmina Jastków"/>
    <tag k="is_in:province" v="województwo lubelskie"/>
    <tag k="name" v="Ługów"/>
    <tag k="place" v="village"/>
    <tag k="source" v="http://ump.waw.pl/ retrieved 23:59:15 08/30/09 (UMP-Lublin/src/cities-Lublin.pnt-converted.txt)"/>
    <tag k="wikipedia" v="Ługów, Lublin Voivodeship"/>
  </node>
  <node id="482729171" version="3" timestamp="2010-04-11T04:50:26Z" uid="20587" user="balrog-kun" changeset="4389130" lat="51.3228" lon="22.32104">
    <tag k="is_in" v="gmina Jastków, powiat lubelski, województwo lubelskie, Poland"/>
    <tag k="is_in:county" v="powiat lubelski"/>
    <tag k="is_in:municipality" v="gmina Jastków"/>
    <tag k="is_in:province" v="województwo lubelskie"/>
    <tag k="name" v="Ługów"/>
    <tag k="place" v="village"/>
    <tag k="source" v="http://ump.waw.pl/ retrieved 23:59:15 08/30/09 (UMP-Lublin/src/cities-Lublin.pnt-converted.txt)"/>
    <tag k="wikipedia" v="Ługów, Lublin Voivodeship"/>
  </node>
  <node id="482729172" version="1" timestamp="2009-09-03T19:11:32Z" uid="20587" user="balrog-kun" changeset="2363396" lat="51.24302" lon="22.17891">
    <tag k="name" v="Łubki"/>
    <tag k="place" v="village"/>
    <tag k="source" v="http://ump.waw.pl/ retrieved 23:59:15 08/30/09 (UMP-Lublin/src/cities-Lublin.pnt-converted.txt)"/>
  </node>
  <node id="482729172" version="2" timestamp="2009-09-03T19:39:06Z" uid="20587" user="balrog-kun" changeset="2363702" lat="51.24302" lon="22.17891">
    <tag k="is_in" v="gmina Wojciechów, powiat lubelski, województwo lubelskie, Poland"/>
    <tag k="is_in:county" v="powiat lubelski"/>
    <tag k="is_in:municipality" v="gmina Wojciechów"/>
    <tag k="is_in:province" v="województwo lubelskie"/>
    <tag k="name" v="Łubki"/>
    <tag k="place" v="village"/>
    <tag k="source" v="http://ump.waw.pl/ retrieved 23:59:15 08/30/09 (UMP-Lublin/src/cities-Lublin.pnt-converted.txt)"/>
    <tag k="wikipedia" v="Łubki, Lublin Voivodeship"/>
  </node>
  <node id="482729172" version="3" timestamp="2010-04-11T04:50:26Z" uid="20587" user="balrog-kun" changeset="4389130" lat="51.24302" lon="22.17891">
    <tag k="is_in" v="gmina Wojciechów, powiat lubelski, województwo lubelskie, Poland"/>
    <tag k="is_in:county" v="powiat lubelski"/>
    <tag k="is_in:municipality" v="gmina Wojciechów"/>
    <tag k="is_in:province" v="województwo lubelskie"/>
    <tag k="name" v="Łubki"/>
    <tag k="place" v="village"/>
    <tag k="source" v="http://ump.waw.pl/ retrieved 23:59:15 08/30/09 (UMP-Lublin/src/cities-Lublin.pnt-converted.txt)"/>
    <tag k="wikipedia" v="Łubki, Lublin Voivodeship"/>
  </node>
  <node id="482729173" version="1" timestamp="2009-09-03T19:11:32Z" uid="20587" user="balrog-kun" changeset="2363396" lat="51.20207" lon="22.00434">
    <tag k="name" v="Głusko Małe"/>
    <tag k="place" v="village"/>
    <tag k="source" v="http://ump.waw.pl/ retrieved 23:59:15 08/30/09 (UMP-Lublin/src/cities-Lublin.pnt-converted.txt)"/>
  </node>
  <node id="482729173" version="2" timestamp="2009-09-03T19:39:11Z" uid="20587" user="balrog-kun" changeset="2363702" lat="51.20207" lon="22.00434">
    <tag k="is_in" v="gmina Karczmiska, powiat opolski, województwo lubelskie, Poland"/>
    <tag k="is_in:county" v="powiat opolski"/>
    <tag k="is_in:municipality" v="gmina Karczmiska"/>
    <tag k="is_in:province" v="województwo lubelskie"/>
    <tag k="name" v="Głusko Małe"/>
    <tag k="place" v="village"/>
    <tag k="source" v="http://ump.waw.pl/ retrieved 23:59:15 08/30/09 (UMP-Lublin/src/cities-Lublin.pnt-converted.txt)"/>
    <tag k="wikipedia" v="pl:Głusko Małe"/>
  </node>
  <node id="482729173" version="3" timestamp="2010-04-11T04:50:26Z" uid="20587" user="balrog-kun" changeset="4389130" lat="51.20207" lon="22.00434">
    <tag k="is_in" v="gmina Karczmiska, powiat opolski, województwo lubelskie, Poland"/>
    <tag k="is_in:county" v="powiat opolski"/>
    <tag k="is_in:municipality" v="gmina Karczmiska"/>
    <tag k="is_in:province" v="województwo lubelskie"/>
    <tag k="name" v="Głusko Małe"/>
    <tag k="place" v="village"/>
    <tag k="source" v="http://ump.waw.pl/ retrieved 23:59:15 08/30/09 (UMP-Lublin/src/cities-Lublin.pnt-converted.txt)"/>
    <tag k="wikipedia" v="pl:Głusko Małe"/>
  </node>
  <node id="482729173" version="4" timestamp="2010-04-27T04:15:19Z" uid="30632" user="antblant" changeset="4537896" lat="51.20207" lon="22.00434">
    <tag k="is_in" v="gmina Karczmiska, powiat opolski, województwo lubelskie, Poland"/>
    <tag k="is_in:county" v="powiat opolski"/>
    <tag k="is_in:municipality" v="gmina Karczmiska"/>
    <tag k="is_in:province" v="województwo lubelskie"/>
    <tag k="name" v="Głusko Małe"/>
    <tag k="place" v="village"/>
    <tag k="source" v="http://ump.waw.pl/ retrieved 23:59:15 08/30/09 (UMP-Lublin/src/cities-Lublin.pnt-converted.txt)"/>
    <tag k="teryt:simc" v="0382792"/>
    <tag k="wikipedia" v="pl:Głusko Małe"/>
  </node>
  <node id="482729174" version="1" timestamp="2009-09-03T19:11:32Z" uid="20587" user="balrog-kun" changeset="2363396" lat="51.28421" lon="21.93645">
    <tag k="name" v="Dąbrówka"/>
    <tag k="place" v="village"/>
    <tag k="source" v="http://ump.waw.pl/ retrieved 23:59:15 08/30/09 (UMP-Lublin/src/cities-Lublin.pnt-converted.txt)"/>
  </node>
  <node id="482729174" version="2" timestamp="2010-04-11T04:50:26Z" uid="20587" user="balrog-kun" changeset="4389130" lat="51.28421" lon="21.93645">
    <tag k="name" v="Dąbrówka"/>
    <tag k="place" v="village"/>
    <tag k="source" v="http://ump.waw.pl/ retrieved 23:59:15 08/30/09 (UMP-Lublin/src/cities-Lublin.pnt-converted.txt)"/>
  </node>
  <node id="482729175" version="1" timestamp="2009-09-03T19:11:32Z" uid="20587" user="balrog-kun" changeset="2363396" lat="51.26568" lon="22.42196">
    <tag k="name" v="Płouszowice Kolonia"/>
    <tag k="place" v="village"/>
    <tag k="source" v="http://ump.waw.pl/ retrieved 23:59:15 08/30/09 (UMP-Lublin/src/cities-Lublin.pnt-converted.txt)"/>
  </node>
  <node id="482729175" version="2" timestamp="2009-09-03T19:39:09Z" uid="20587" user="balrog-kun" changeset="2363702" lat="51.26568" lon="22.42196">
    <tag k="is_in" v="gmina Jastków, powiat lubelski, województwo lubelskie, Poland"/>
    <tag k="is_in:county" v="powiat lubelski"/>
    <tag k="is_in:municipality" v="gmina Jastków"/>
    <tag k="is_in:province" v="województwo lubelskie"/>
    <tag k="name" v="Płouszowice Kolonia"/>
    <tag k="place" v="village"/>
    <tag k="source" v="http://ump.waw.pl/ retrieved 23:59:15 08/30/09 (UMP-Lublin/src/cities-Lublin.pnt-converted.txt)"/>
    <tag k="wikipedia" v="Płouszowice-Kolonia"/>
  </node>
  <node id="482729175" version="3" timestamp="2010-04-11T04:50:27Z" uid="20587" user="balrog-kun" changeset="4389130" lat="51.26568" lon="22.42196">
    <tag k="is_in" v="gmina Jastków, powiat lubelski, województwo lubelskie, Poland"/>
    <tag k="is_in:county" v="powiat lubelski"/>
    <tag k="is_in:municipality" v="gmina Jastków"/>
    <tag k="is_in:province" v="województwo lubelskie"/>
    <tag k="name" v="Płouszowice Kolonia"/>
    <tag k="place" v="village"/>
    <tag k="source" v="http://ump.waw.pl/ retrieved 23:59:15 08/30/09 (UMP-Lublin/src/cities-Lublin.pnt-converted.txt)"/>
    <tag k="wikipedia" v="Płouszowice-Kolonia"/>
  </node>
  <node id="482729176" version="1" timestamp="2009-09-03T19:11:33Z" uid="20587" user="balrog-kun" changeset="2363396" lat="51.22053" lon="22.255">
    <tag k="name" v="Stasin"/>
    <tag k="place" v="village"/>
    <tag k="source" v="http://ump.waw.pl/ retrieved 23:59:15 08/30/09 (UMP-Lublin/src/cities-Lublin.pnt-converted.txt)"/>
  </node>
  <node id="482729176" version="2" timestamp="2009-09-03T19:39:06Z" uid="20587" user="balrog-kun" changeset="2363702" lat="51.22053" lon="22.255">
    <tag k="is_in" v="gmina Wojciechów, powiat lubelski, województwo lubelskie, Poland"/>
    <tag k="is_in:county" v="powiat lubelski"/>
    <tag k="is_in:municipality" v="gmina Wojciechów"/>
    <tag k="is_in:province" v="województwo lubelskie"/>
    <tag k="name" v="Stasin"/>
    <tag k="place" v="village"/>
    <tag k="source" v="http://ump.waw.pl/ retrieved 23:59:15 08/30/09 (UMP-Lublin/src/cities-Lublin.pnt-converted.txt)"/>
    <tag k="wikipedia" v="Stasin, Gmina Wojciechów"/>
  </node>
  <node id="482729176" version="3" timestamp="2010-04-11T04:50:27Z" uid="20587" user="balrog-kun" changeset="4389130" lat="51.22053" lon="22.255">
    <tag k="is_in" v="gmina Wojciechów, powiat lubelski, województwo lubelskie, Poland"/>
    <tag k="is_in:county" v="powiat lubelski"/>
    <tag k="is_in:municipality" v="gmina Wojciechów"/>
    <tag k="is_in:province" v="województwo lubelskie"/>
    <tag k="name" v="Stasin"/>
    <tag k="place" v="village"/>
    <tag k="source" v="http://ump.waw.pl/ retrieved 23:59:15 08/30/09 (UMP-Lublin/src/cities-Lublin.pnt-converted.txt)"/>
    <tag k="wikipedia" v="Stasin, Gmina Wojciechów"/>
  </node>
  <node id="482729177" version="1" timestamp="2009-09-03T19:11:33Z" uid="20587" user="balrog-kun" changeset="2363396" lat="51.22396" lon="21.80578">
    <tag k="name" v="Chałupki"/>
    <tag k="place" v="village"/>
    <tag k="source" v="http://ump.waw.pl/ retrieved 23:59:15 08/30/09 (UMP-Lublin/src/cities-Lublin.pnt-converted.txt)"/>
  </node>
  <node id="482729177" version="2" timestamp="2010-04-11T04:50:27Z" uid="20587" user="balrog-kun" changeset="4389130" lat="51.22396" lon="21.80578">
    <tag k="name" v="Chałupki"/>
    <tag k="place" v="village"/>
    <tag k="source" v="http://ump.waw.pl/ retrieved 23:59:15 08/30/09 (UMP-Lublin/src/cities-Lublin.pnt-converted.txt)"/>
  </node>
  <node id="482729178" version="1" timestamp="2009-09-03T19:11:33Z" uid="20587" user="balrog-kun" changeset="2363396" lat="51.18908" lon="22.3113">
    <tag k="name" v="Zosin"/>
    <tag k="place" v="village"/>
    <tag k="source" v="http://ump.waw.pl/ retrieved 23:59:15 08/30/09 (UMP-Lublin/src/cities-Lublin.pnt-converted.txt)"/>
  </node>
  <node id="482729178" version="2" timestamp="2009-09-03T19:39:11Z" uid="20587" user="balrog-kun" changeset="2363702" lat="51.18908" lon="22.3113">
    <tag k="addr:postcode" v="24-200"/>
    <tag k="is_in" v="gmina Bełżyce, powiat lubelski, województwo lubelskie, Poland"/>
    <tag k="is_in:county" v="powiat lubelski"/>
    <tag k="is_in:municipality" v="gmina Bełżyce"/>
    <tag k="is_in:province" v="województwo lubelskie"/>
    <tag k="name" v="Zosin"/>
    <tag k="place" v="village"/>
    <tag k="source" v="http://ump.waw.pl/ retrieved 23:59:15 08/30/09 (UMP-Lublin/src/cities-Lublin.pnt-converted.txt)"/>
    <tag k="wikipedia" v="Zosin, Lublin County"/>
  </node>
  <node id="482729178" version="3" timestamp="2010-04-11T04:50:27Z" uid="20587" user="balrog-kun" changeset="4389130" lat="51.18908" lon="22.3113">
    <tag k="addr:postcode" v="24-200"/>
    <tag k="is_in" v="gmina Bełżyce, powiat lubelski, województwo lubelskie, Poland"/>
    <tag k="is_in:county" v="powiat lubelski"/>
    <tag k="is_in:municipality" v="gmina Bełżyce"/>
    <tag k="is_in:province" v="województwo lubelskie"/>
    <tag k="name" v="Zosin"/>
    <tag k="place" v="village"/>
    <tag k="source" v="http://ump.waw.pl/ retrieved 23:59:15 08/30/09 (UMP-Lublin/src/cities-Lublin.pnt-converted.txt)"/>
    <tag k="wikipedia" v="Zosin, Lublin County"/>
  </node>
  <node id="482729179" version="1" timestamp="2009-09-03T19:11:33Z" uid="20587" user="balrog-kun" changeset="2363396" lat="51.31273" lon="21.84997">
    <tag k="name" v="Janowice"/>
    <tag k="place" v="village"/>
    <tag k="source" v="http://ump.waw.pl/ retrieved 23:59:15 08/30/09 (UMP-Lublin/src/cities-Lublin.pnt-converted.txt)"/>
  </node>
  <node id="482729179" version="2" timestamp="2009-09-03T19:39:11Z" uid="20587" user="balrog-kun" changeset="2363702" lat="51.31273" lon="21.84997">
    <tag k="is_in" v="gmina Janowiec, powiat puławski, województwo lubelskie, Poland"/>
    <tag k="is_in:county" v="powiat puławski"/>
    <tag k="is_in:municipality" v="gmina Janowiec"/>
    <tag k="is_in:province" v="województwo lubelskie"/>
    <tag k="name" v="Janowice"/>
    <tag k="place" v="village"/>
    <tag k="source" v="http://ump.waw.pl/ retrieved 23:59:15 08/30/09 (UMP-Lublin/src/cities-Lublin.pnt-converted.txt)"/>
    <tag k="wikipedia" v="Janowice, Puławy County"/>
  </node>
  <node id="482729179" version="3" timestamp="2010-04-11T04:50:27Z" uid="20587" user="balrog-kun" changeset="4389130" lat="51.31273" lon="21.84997">
    <tag k="is_in" v="gmina Janowiec, powiat puławski, województwo lubelskie, Poland"/>
    <tag k="is_in:county" v="powiat puławski"/>
    <tag k="is_in:municipality" v="gmina Janowiec"/>
    <tag k="is_in:province" v="województwo lubelskie"/>
    <tag k="name" v="Janowice"/>
    <tag k="place" v="village"/>
    <tag k="source" v="http://ump.waw.pl/ retrieved 23:59:15 08/30/09 (UMP-Lublin/src/cities-Lublin.pnt-converted.txt)"/>
    <tag k="wikipedia" v="Janowice, Puławy County"/>
  </node>
  <node id="482729180" version="1" timestamp="2009-09-03T19:11:33Z" uid="20587" user="balrog-kun" changeset="2363396" lat="51.23955" lon="22.28349">
    <tag k="name" v="Palikije I"/>
    <tag k="place" v="village"/>
    <tag k="source" v="http://ump.waw.pl/ retrieved 23:59:15 08/30/09 (UMP-Lublin/src/cities-Lublin.pnt-converted.txt)"/>
  </node>
  <node id="482729180" version="2" timestamp="2010-04-11T04:50:27Z" uid="20587" user="balrog-kun" changeset="4389130" lat="51.23955" lon="22.28349">
    <tag k="alt_name" v="Palikije I"/>
    <tag k="name" v="Palikije Pierwsze"/>
    <tag k="place" v="village"/>
    <tag k="source" v="http://ump.waw.pl/ retrieved 23:59:15 08/30/09 (UMP-Lublin/src/cities-Lublin.pnt-converted.txt)"/>
  </node>
  <node id="482729180" version="3" timestamp="2010-04-27T03:59:14Z" uid="30632" user="antblant" changeset="4537857" lat="51.23955" lon="22.28349">
    <tag k="alt_name" v="Palikije I"/>
    <tag k="name" v="Palikije Pierwsze"/>
    <tag k="place" v="village"/>
    <tag k="source" v="http://ump.waw.pl/ retrieved 23:59:15 08/30/09 (UMP-Lublin/src/cities-Lublin.pnt-converted.txt)"/>
    <tag k="teryt:simc" v="0393761"/>
  </node>
  <node id="482729181" version="1" timestamp="2009-09-03T19:11:33Z" uid="20587" user="balrog-kun" changeset="2363396" lat="51.19968" lon="22.18698">
    <tag k="name" v="Chmielnik"/>
    <tag k="place" v="village"/>
    <tag k="source" v="http://ump.waw.pl/ retrieved 23:59:15 08/30/09 (UMP-Lublin/src/cities-Lublin.pnt-converted.txt)"/>
  </node>
  <node id="482729181" version="2" timestamp="2009-09-03T19:39:13Z" uid="20587" user="balrog-kun" changeset="2363702" lat="51.19968" lon="22.18698">
    <tag k="is_in" v="gmina Bełżyce, powiat lubelski, województwo lubelskie, Poland"/>
    <tag k="is_in:county" v="powiat lubelski"/>
    <tag k="is_in:municipality" v="gmina Bełżyce"/>
    <tag k="is_in:province" v="województwo lubelskie"/>
    <tag k="name" v="Chmielnik"/>
    <tag k="place" v="village"/>
    <tag k="source" v="http://ump.waw.pl/ retrieved 23:59:15 08/30/09 (UMP-Lublin/src/cities-Lublin.pnt-converted.txt)"/>
    <tag k="wikipedia" v="Chmielnik, Lublin Voivodeship"/>
  </node>
  <node id="482729181" version="3" timestamp="2010-04-11T04:50:27Z" uid="20587" user="balrog-kun" changeset="4389130" lat="51.19968" lon="22.18698">
    <tag k="is_in" v="gmina Bełżyce, powiat lubelski, województwo lubelskie, Poland"/>
    <tag k="is_in:county" v="powiat lubelski"/>
    <tag k="is_in:municipality" v="gmina Bełżyce"/>
    <tag k="is_in:province" v="województwo lubelskie"/>
    <tag k="name" v="Chmielnik"/>
    <tag k="place" v="village"/>
    <tag k="source" v="http://ump.waw.pl/ retrieved 23:59:15 08/30/09 (UMP-Lublin/src/cities-Lublin.pnt-converted.txt)"/>
    <tag k="wikipedia" v="Chmielnik, Lublin Voivodeship"/>
  </node>
  <node id="482729182" version="1" timestamp="2009-09-03T19:11:33Z" uid="20587" user="balrog-kun" changeset="2363396" lat="51.30499" lon="22.21736">
    <tag k="name" v="Strzelce"/>
    <tag k="place" v="village"/>
    <tag k="source" v="http://ump.waw.pl/ retrieved 23:59:15 08/30/09 (UMP-Lublin/src/cities-Lublin.pnt-converted.txt)"/>
  </node>
  <node id="482729182" version="2" timestamp="2009-09-03T19:39:09Z" uid="20587" user="balrog-kun" changeset="2363702" lat="51.30499" lon="22.21736">
    <tag k="is_in" v="gmina Nałęczów, powiat puławski, województwo lubelskie, Poland"/>
    <tag k="is_in:county" v="powiat puławski"/>
    <tag k="is_in:municipality" v="gmina Nałęczów"/>
    <tag k="is_in:province" v="województwo lubelskie"/>
    <tag k="name" v="Strzelce"/>
    <tag k="place" v="village"/>
    <tag k="source" v="http://ump.waw.pl/ retrieved 23:59:15 08/30/09 (UMP-Lublin/src/cities-Lublin.pnt-converted.txt)"/>
    <tag k="wikipedia" v="Strzelce, Puławy County"/>
  </node>
  <node id="482729182" version="3" timestamp="2010-04-11T04:50:27Z" uid="20587" user="balrog-kun" changeset="4389130" lat="51.30499" lon="22.21736">
    <tag k="is_in" v="gmina Nałęczów, powiat puławski, województwo lubelskie, Poland"/>
    <tag k="is_in:county" v="powiat puławski"/>
    <tag k="is_in:municipality" v="gmina Nałęczów"/>
    <tag k="is_in:province" v="województwo lubelskie"/>
    <tag k="name" v="Strzelce"/>
    <tag k="place" v="village"/>
    <tag k="source" v="http://ump.waw.pl/ retrieved 23:59:15 08/30/09 (UMP-Lublin/src/cities-Lublin.pnt-converted.txt)"/>
    <tag k="wikipedia" v="Strzelce, Puławy County"/>
  </node>
  <node id="482729183" version="1" timestamp="2009-09-03T19:11:33Z" uid="20587" user="balrog-kun" changeset="2363396" lat="51.18878" lon="22.01682">
    <tag k="name" v="Rozalin"/>
    <tag k="place" v="village"/>
    <tag k="source" v="http://ump.waw.pl/ retrieved 23:59:15 08/30/09 (UMP-Lublin/src/cities-Lublin.pnt-converted.txt)"/>
  </node>
  <node id="482729183" version="2" timestamp="2009-09-03T19:39:11Z" uid="20587" user="balrog-kun" changeset="2363702" lat="51.18878" lon="22.01682">
    <tag k="is_in" v="gmina Opole Lubelskie, powiat opolski, województwo lubelskie, Poland"/>
    <tag k="is_in:county" v="powiat opolski"/>
    <tag k="is_in:municipality" v="gmina Opole Lubelskie"/>
    <tag k="is_in:province" v="województwo lubelskie"/>
    <tag k="name" v="Rozalin"/>
    <tag k="place" v="village"/>
    <tag k="source" v="http://ump.waw.pl/ retrieved 23:59:15 08/30/09 (UMP-Lublin/src/cities-Lublin.pnt-converted.txt)"/>
    <tag k="wikipedia" v="Rozalin, Lublin Voivodeship"/>
  </node>
  <node id="482729183" version="3" timestamp="2010-04-11T04:50:27Z" uid="20587" user="balrog-kun" changeset="4389130" lat="51.18878" lon="22.01682">
    <tag k="is_in" v="gmina Opole Lubelskie, powiat opolski, województwo lubelskie, Poland"/>
    <tag k="is_in:county" v="powiat opolski"/>
    <tag k="is_in:municipality" v="gmina Opole Lubelskie"/>
    <tag k="is_in:province" v="województwo lubelskie"/>
    <tag k="name" v="Rozalin"/>
    <tag k="place" v="village"/>
    <tag k="source" v="http://ump.waw.pl/ retrieved 23:59:15 08/30/09 (UMP-Lublin/src/cities-Lublin.pnt-converted.txt)"/>
    <tag k="wikipedia" v="Rozalin, Lublin Voivodeship"/>
  </node>
  <node id="482729184" version="1" timestamp="2009-09-03T19:11:34Z" uid="20587" user="balrog-kun" changeset="2363396" lat="51.18116" lon="21.87406">
    <tag k="name" v="Niedźwiada"/>
    <tag k="place" v="village"/>
    <tag k="source" v="http://ump.waw.pl/ retrieved 23:59:15 08/30/09 (UMP-Lublin/src/cities-Lublin.pnt-converted.txt)"/>
  </node>
  <node id="482729184" version="2" timestamp="2010-04-11T04:50:27Z" uid="20587" user="balrog-kun" changeset="4389130" lat="51.18116" lon="21.87406">
    <tag k="name" v="Niedźwiada"/>
    <tag k="place" v="village"/>
    <tag k="source" v="http://ump.waw.pl/ retrieved 23:59:15 08/30/09 (UMP-Lublin/src/cities-Lublin.pnt-converted.txt)"/>
  </node>
  <node id="482729185" version="1" timestamp="2009-09-03T19:11:34Z" uid="20587" user="balrog-kun" changeset="2363396" lat="51.2913" lon="22.11303">
    <tag k="name" v="Stanisławka"/>
    <tag k="place" v="village"/>
    <tag k="source" v="http://ump.waw.pl/ retrieved 23:59:15 08/30/09 (UMP-Lublin/src/cities-Lublin.pnt-converted.txt)"/>
  </node>
  <node id="482729185" version="2" timestamp="2009-09-03T19:39:14Z" uid="20587" user="balrog-kun" changeset="2363702" lat="51.2913" lon="22.11303">
    <tag k="is_in" v="gmina Wąwolnica, powiat puławski, województwo lubelskie, Poland"/>
    <tag k="is_in:county" v="powiat puławski"/>
    <tag k="is_in:municipality" v="gmina Wąwolnica"/>
    <tag k="is_in:province" v="województwo lubelskie"/>
    <tag k="name" v="Stanisławka"/>
    <tag k="place" v="village"/>
    <tag k="source" v="http://ump.waw.pl/ retrieved 23:59:15 08/30/09 (UMP-Lublin/src/cities-Lublin.pnt-converted.txt)"/>
    <tag k="wikipedia" v="Stanisławka, Puławy County"/>
  </node>
  <node id="482729185" version="3" timestamp="2010-04-11T04:50:27Z" uid="20587" user="balrog-kun" changeset="4389130" lat="51.2913" lon="22.11303">
    <tag k="is_in" v="gmina Wąwolnica, powiat puławski, województwo lubelskie, Poland"/>
    <tag k="is_in:county" v="powiat puławski"/>
    <tag k="is_in:municipality" v="gmina Wąwolnica"/>
    <tag k="is_in:province" v="województwo lubelskie"/>
    <tag k="name" v="Stanisławka"/>
    <tag k="place" v="village"/>
    <tag k="source" v="http://ump.waw.pl/ retrieved 23:59:15 08/30/09 (UMP-Lublin/src/cities-Lublin.pnt-converted.txt)"/>
    <tag k="wikipedia" v="Stanisławka, Puławy County"/>
  </node>
  <node id="482729186" version="1" timestamp="2009-09-03T19:11:34Z" uid="20587" user="balrog-kun" changeset="2363396" lat="51.30437" lon="22.19036">
    <tag k="name" v="Chruszczów Kolonia"/>
    <tag k="place" v="village"/>
    <tag k="source" v="http://ump.waw.pl/ retrieved 23:59:15 08/30/09 (UMP-Lublin/src/cities-Lublin.pnt-converted.txt)"/>
  </node>
  <node id="482729186" version="2" timestamp="2009-09-03T19:39:06Z" uid="20587" user="balrog-kun" changeset="2363702" lat="51.30437" lon="22.19036">
    <tag k="is_in" v="gmina Nałęczów, powiat puławski, województwo lubelskie, Poland"/>
    <tag k="is_in:county" v="powiat puławski"/>
    <tag k="is_in:municipality" v="gmina Nałęczów"/>
    <tag k="is_in:province" v="województwo lubelskie"/>
    <tag k="name" v="Chruszczów Kolonia"/>
    <tag k="place" v="village"/>
    <tag k="source" v="http://ump.waw.pl/ retrieved 23:59:15 08/30/09 (UMP-Lublin/src/cities-Lublin.pnt-converted.txt)"/>
    <tag k="wikipedia" v="Chruszczów-Kolonia"/>
  </node>
  <node id="482729186" version="3" timestamp="2010-04-11T04:50:27Z" uid="20587" user="balrog-kun" changeset="4389130" lat="51.30437" lon="22.19036">
    <tag k="is_in" v="gmina Nałęczów, powiat puławski, województwo lubelskie, Poland"/>
    <tag k="is_in:county" v="powiat puławski"/>
    <tag k="is_in:municipality" v="gmina Nałęczów"/>
    <tag k="is_in:province" v="województwo lubelskie"/>
    <tag k="name" v="Chruszczów Kolonia"/>
    <tag k="place" v="village"/>
    <tag k="source" v="http://ump.waw.pl/ retrieved 23:59:15 08/30/09 (UMP-Lublin/src/cities-Lublin.pnt-converted.txt)"/>
    <tag k="wikipedia" v="Chruszczów-Kolonia"/>
  </node>
  <node id="482729187" version="1" timestamp="2009-09-03T19:11:34Z" uid="20587" user="balrog-kun" changeset="2363396" lat="51.30229" lon="22.43803">
    <tag k="name" v="Panieńszczyzna"/>
    <tag k="place" v="village"/>
    <tag k="source" v="http://ump.waw.pl/ retrieved 23:59:15 08/30/09 (UMP-Lublin/src/cities-Lublin.pnt-converted.txt)"/>
  </node>
  <node id="482729187" version="2" timestamp="2009-09-03T19:39:12Z" uid="20587" user="balrog-kun" changeset="2363702" lat="51.30229" lon="22.43803">
    <tag k="is_in" v="gmina Jastków, powiat lubelski, województwo lubelskie, Poland"/>
    <tag k="is_in:county" v="powiat lubelski"/>
    <tag k="is_in:municipality" v="gmina Jastków"/>
    <tag k="is_in:province" v="województwo lubelskie"/>
    <tag k="name" v="Panieńszczyzna"/>
    <tag k="place" v="village"/>
    <tag k="source" v="http://ump.waw.pl/ retrieved 23:59:15 08/30/09 (UMP-Lublin/src/cities-Lublin.pnt-converted.txt)"/>
    <tag k="wikipedia" v="Panieńszczyzna"/>
  </node>
  <node id="482729187" version="3" timestamp="2009-10-18T03:50:18Z" uid="20587" user="balrog-kun" changeset="2879555" lat="51.3031574" lon="22.4384496">
    <tag k="is_in" v="gmina Jastków, powiat lubelski, województwo lubelskie, Poland"/>
    <tag k="is_in:county" v="powiat lubelski"/>
    <tag k="is_in:municipality" v="gmina Jastków"/>
    <tag k="is_in:province" v="województwo lubelskie"/>
    <tag k="name" v="Panieńszczyzna"/>
    <tag k="note" v="GNS: Panieńszyzna"/>
    <tag k="place" v="village"/>
    <tag k="source" v="http://ump.waw.pl/ retrieved 23:59:15 08/30/09 (UMP-Lublin/src/cities-Lublin.pnt-converted.txt)"/>
    <tag k="wikipedia" v="Panieńszczyzna"/>
  </node>
  <node id="482729187" version="4" timestamp="2010-04-11T04:50:28Z" uid="20587" user="balrog-kun" changeset="4389130" lat="51.3028972" lon="22.4383237">
    <tag k="is_in" v="gmina Jastków, powiat lubelski, województwo lubelskie, Poland"/>
    <tag k="is_in:county" v="powiat lubelski"/>
    <tag k="is_in:municipality" v="gmina Jastków"/>
    <tag k="is_in:province" v="województwo lubelskie"/>
    <tag k="name" v="Panieńszczyzna"/>
    <tag k="note" v="GNS: Panieńszyzna"/>
    <tag k="place" v="village"/>
    <tag k="source" v="http://ump.waw.pl/ retrieved 23:59:15 08/30/09 (UMP-Lublin/src/cities-Lublin.pnt-converted.txt)"/>
    <tag k="wikipedia" v="Panieńszczyzna"/>
  </node>
  <node id="482729187" version="5" timestamp="2010-04-27T04:05:49Z" uid="30632" user="antblant" changeset="4537871" lat="51.3028972" lon="22.4383237">
    <tag k="is_in" v="gmina Jastków, powiat lubelski, województwo lubelskie, Poland"/>
    <tag k="is_in:county" v="powiat lubelski"/>
    <tag k="is_in:municipality" v="gmina Jastków"/>
    <tag k="is_in:province" v="województwo lubelskie"/>
    <tag k="name" v="Panieńszczyzna"/>
    <tag k="note" v="GNS: Panieńszyzna"/>
    <tag k="place" v="village"/>
    <tag k="source" v="http://ump.waw.pl/ retrieved 23:59:15 08/30/09 (UMP-Lublin/src/cities-Lublin.pnt-converted.txt)"/>
    <tag k="teryt:simc" v="0381605"/>
    <tag k="wikipedia" v="Panieńszczyzna"/>
  </node>
  <node id="482729188" version="1" timestamp="2009-09-03T19:11:34Z" uid="20587" user="balrog-kun" changeset="2363396" lat="51.33203" lon="22.55549">
    <tag k="name" v="Polko"/>
    <tag k="place" v="village"/>
    <tag k="source" v="http://ump.waw.pl/ retrieved 23:59:15 08/30/09 (UMP-Lublin/src/cities-Lublin.pnt-converted.txt)"/>
  </node>
  <node id="482729188" version="2" timestamp="2009-09-03T19:39:07Z" uid="20587" user="balrog-kun" changeset="2363702" lat="51.33203" lon="22.55549">
    <tag k="is_in" v="gmina Niemce, powiat lubelski, województwo lubelskie, Poland"/>
    <tag k="is_in:county" v="powiat lubelski"/>
    <tag k="is_in:municipality" v="gmina Niemce"/>
    <tag k="is_in:province" v="województwo lubelskie"/>
    <tag k="name" v="Polko"/>
    <tag k="place" v="village"/>
    <tag k="source" v="http://ump.waw.pl/ retrieved 23:59:15 08/30/09 (UMP-Lublin/src/cities-Lublin.pnt-converted.txt)"/>
    <tag k="wikipedia" v="Pólko, Lublin County"/>
  </node>
  <node id="482729188" version="3" timestamp="2010-04-11T04:50:28Z" uid="20587" user="balrog-kun" changeset="4389130" lat="51.33203" lon="22.55549">
    <tag k="is_in" v="gmina Niemce, powiat lubelski, województwo lubelskie, Poland"/>
    <tag k="is_in:county" v="powiat lubelski"/>
    <tag k="is_in:municipality" v="gmina Niemce"/>
    <tag k="is_in:province" v="województwo lubelskie"/>
    <tag k="name" v="Polko"/>
    <tag k="place" v="village"/>
    <tag k="source" v="http://ump.waw.pl/ retrieved 23:59:15 08/30/09 (UMP-Lublin/src/cities-Lublin.pnt-converted.txt)"/>
    <tag k="wikipedia" v="Pólko, Lublin County"/>
  </node>
  <node id="482729189" version="1" timestamp="2009-09-03T19:11:34Z" uid="20587" user="balrog-kun" changeset="2363396" lat="51.331" lon="22.35718">
    <tag k="name" v="Bogucin"/>
    <tag k="place" v="village"/>
    <tag k="source" v="http://ump.waw.pl/ retrieved 23:59:15 08/30/09 (UMP-Lublin/src/cities-Lublin.pnt-converted.txt)"/>
  </node>
  <node id="482729189" version="2" timestamp="2009-09-03T19:39:09Z" uid="20587" user="balrog-kun" changeset="2363702" lat="51.331" lon="22.35718">
    <tag k="addr:postcode" v="21-080"/>
    <tag k="is_in" v="gmina Garbów, powiat lubelski, województwo lubelskie, Poland"/>
    <tag k="is_in:county" v="powiat lubelski"/>
    <tag k="is_in:municipality" v="gmina Garbów"/>
    <tag k="is_in:province" v="województwo lubelskie"/>
    <tag k="name" v="Bogucin"/>
    <tag k="place" v="village"/>
    <tag k="population" v="983"/>
    <tag k="source" v="http://ump.waw.pl/ retrieved 23:59:15 08/30/09 (UMP-Lublin/src/cities-Lublin.pnt-converted.txt)"/>
    <tag k="source:population" v="wikipedia"/>
    <tag k="wikipedia" v="Bogucin, Lublin Voivodeship"/>
  </node>
  <node id="482729189" version="3" timestamp="2010-04-11T04:50:28Z" uid="20587" user="balrog-kun" changeset="4389130" lat="51.331" lon="22.35718">
    <tag k="addr:postcode" v="21-080"/>
    <tag k="is_in" v="gmina Garbów, powiat lubelski, województwo lubelskie, Poland"/>
    <tag k="is_in:county" v="powiat lubelski"/>
    <tag k="is_in:municipality" v="gmina Garbów"/>
    <tag k="is_in:province" v="województwo lubelskie"/>
    <tag k="name" v="Bogucin"/>
    <tag k="place" v="village"/>
    <tag k="population" v="983"/>
    <tag k="source" v="http://ump.waw.pl/ retrieved 23:59:15 08/30/09 (UMP-Lublin/src/cities-Lublin.pnt-converted.txt)"/>
    <tag k="source:population" v="wikipedia"/>
    <tag k="wikipedia" v="Bogucin, Lublin Voivodeship"/>
  </node>
  <node id="482729190" version="1" timestamp="2009-09-03T19:11:34Z" uid="20587" user="balrog-kun" changeset="2363396" lat="51.29793" lon="21.84069">
    <tag k="name" v="Brzeście Stare"/>
    <tag k="place" v="village"/>
    <tag k="source" v="http://ump.waw.pl/ retrieved 23:59:15 08/30/09 (UMP-Lublin/src/cities-Lublin.pnt-converted.txt)"/>
  </node>
  <node id="482729190" version="2" timestamp="2010-04-11T04:50:28Z" uid="20587" user="balrog-kun" changeset="4389130" lat="51.29793" lon="21.84069">
    <tag k="name" v="Brzeście Stare"/>
    <tag k="place" v="village"/>
    <tag k="source" v="http://ump.waw.pl/ retrieved 23:59:15 08/30/09 (UMP-Lublin/src/cities-Lublin.pnt-converted.txt)"/>
  </node>
  <node id="482729191" version="1" timestamp="2009-09-03T19:11:34Z" uid="20587" user="balrog-kun" changeset="2363396" lat="51.29742" lon="21.96163">
    <tag k="name" v="Cholewianka"/>
    <tag k="place" v="village"/>
    <tag k="source" v="http://ump.waw.pl/ retrieved 23:59:15 08/30/09 (UMP-Lublin/src/cities-Lublin.pnt-converted.txt)"/>
  </node>
  <node id="482729191" version="2" timestamp="2010-04-11T04:50:28Z" uid="20587" user="balrog-kun" changeset="4389130" lat="51.29742" lon="21.96163">
    <tag k="name" v="Cholewianka"/>
    <tag k="place" v="village"/>
    <tag k="source" v="http://ump.waw.pl/ retrieved 23:59:15 08/30/09 (UMP-Lublin/src/cities-Lublin.pnt-converted.txt)"/>
  </node>
  <node id="482729192" version="1" timestamp="2009-09-03T19:11:34Z" uid="20587" user="balrog-kun" changeset="2363396" lat="51.21298" lon="22.48077">
    <tag k="name" v="Stasin"/>
    <tag k="place" v="village"/>
    <tag k="source" v="http://ump.waw.pl/ retrieved 23:59:15 08/30/09 (UMP-Lublin/src/cities-Lublin.pnt-converted.txt)"/>
  </node>
  <node id="482729192" version="2" timestamp="2009-09-03T19:39:10Z" uid="20587" user="balrog-kun" changeset="2363702" lat="51.21298" lon="22.48077">
    <tag k="is_in" v="gmina Konopnica, powiat lubelski, województwo lubelskie, Poland"/>
    <tag k="is_in:county" v="powiat lubelski"/>
    <tag k="is_in:municipality" v="gmina Konopnica"/>
    <tag k="is_in:province" v="województwo lubelskie"/>
    <tag k="name" v="Stasin"/>
    <tag k="place" v="village"/>
    <tag k="source" v="http://ump.waw.pl/ retrieved 23:59:15 08/30/09 (UMP-Lublin/src/cities-Lublin.pnt-converted.txt)"/>
    <tag k="wikipedia" v="Stasin, Gmina Konopnica"/>
  </node>
  <node id="482729192" version="3" timestamp="2010-04-11T04:50:28Z" uid="20587" user="balrog-kun" changeset="4389130" lat="51.21298" lon="22.48077">
    <tag k="is_in" v="gmina Konopnica, powiat lubelski, województwo lubelskie, Poland"/>
    <tag k="is_in:county" v="powiat lubelski"/>
    <tag k="is_in:municipality" v="gmina Konopnica"/>
    <tag k="is_in:province" v="województwo lubelskie"/>
    <tag k="name" v="Stasin"/>
    <tag k="place" v="village"/>
    <tag k="source" v="http://ump.waw.pl/ retrieved 23:59:15 08/30/09 (UMP-Lublin/src/cities-Lublin.pnt-converted.txt)"/>
    <tag k="wikipedia" v="Stasin, Gmina Konopnica"/>
  </node>
  <node id="482729193" version="1" timestamp="2009-09-03T19:11:34Z" uid="20587" user="balrog-kun" changeset="2363396" lat="51.31877" lon="21.96991">
    <tag k="name" v="Doły"/>
    <tag k="place" v="village"/>
    <tag k="source" v="http://ump.waw.pl/ retrieved 23:59:15 08/30/09 (UMP-Lublin/src/cities-Lublin.pnt-converted.txt)"/>
  </node>
  <node id="482729193" version="2" timestamp="2010-04-11T04:50:28Z" uid="20587" user="balrog-kun" changeset="4389130" lat="51.31877" lon="21.96991">
    <tag k="name" v="Doły"/>
    <tag k="place" v="village"/>
    <tag k="source" v="http://ump.waw.pl/ retrieved 23:59:15 08/30/09 (UMP-Lublin/src/cities-Lublin.pnt-converted.txt)"/>
  </node>
  <node id="482729194" version="1" timestamp="2009-09-03T19:11:34Z" uid="20587" user="balrog-kun" changeset="2363396" lat="51.18255" lon="22.14698">
    <tag k="name" v="Poniatowa Wieś"/>
    <tag k="place" v="village"/>
    <tag k="source" v="http://ump.waw.pl/ retrieved 23:59:15 08/30/09 (UMP-Lublin/src/cities-Lublin.pnt-converted.txt)"/>
  </node>
  <node id="482729194" version="2" timestamp="2009-09-03T19:39:06Z" uid="20587" user="balrog-kun" changeset="2363702" lat="51.18255" lon="22.14698">
    <tag k="addr:postcode" v="24-320"/>
    <tag k="is_in" v="gmina Poniatowa, powiat opolski, województwo lubelskie, Poland"/>
    <tag k="is_in:county" v="powiat opolski"/>
    <tag k="is_in:municipality" v="gmina Poniatowa"/>
    <tag k="is_in:province" v="województwo lubelskie"/>
    <tag k="name" v="Poniatowa Wieś"/>
    <tag k="place" v="village"/>
    <tag k="population" v="550"/>
    <tag k="source" v="http://ump.waw.pl/ retrieved 23:59:15 08/30/09 (UMP-Lublin/src/cities-Lublin.pnt-converted.txt)"/>
    <tag k="source:population" v="wikipedia"/>
    <tag k="wikipedia" v="Poniatowa-Wieś"/>
  </node>
  <node id="482729194" version="3" timestamp="2010-04-11T04:50:28Z" uid="20587" user="balrog-kun" changeset="4389130" lat="51.18255" lon="22.14698">
    <tag k="addr:postcode" v="24-320"/>
    <tag k="is_in" v="gmina Poniatowa, powiat opolski, województwo lubelskie, Poland"/>
    <tag k="is_in:county" v="powiat opolski"/>
    <tag k="is_in:municipality" v="gmina Poniatowa"/>
    <tag k="is_in:province" v="województwo lubelskie"/>
    <tag k="name" v="Poniatowa Wieś"/>
    <tag k="place" v="village"/>
    <tag k="population" v="550"/>
    <tag k="source" v="http://ump.waw.pl/ retrieved 23:59:15 08/30/09 (UMP-Lublin/src/cities-Lublin.pnt-converted.txt)"/>
    <tag k="source:population" v="wikipedia"/>
    <tag k="wikipedia" v="Poniatowa-Wieś"/>
  </node>
  <node id="482729195" version="1" timestamp="2009-09-03T19:11:34Z" uid="20587" user="balrog-kun" changeset="2363396" lat="51.29222" lon="21.88883">
    <tag k="name" v="Podgórz"/>
    <tag k="place" v="village"/>
    <tag k="source" v="http://ump.waw.pl/ retrieved 23:59:15 08/30/09 (UMP-Lublin/src/cities-Lublin.pnt-converted.txt)"/>
  </node>
  <node id="482729195" version="2" timestamp="2009-09-03T19:39:14Z" uid="20587" user="balrog-kun" changeset="2363702" lat="51.29222" lon="21.88883">
    <tag k="is_in" v="gmina Wilków, powiat opolski, województwo lubelskie, Poland"/>
    <tag k="is_in:county" v="powiat opolski"/>
    <tag k="is_in:municipality" v="gmina Wilków"/>
    <tag k="is_in:province" v="województwo lubelskie"/>
    <tag k="name" v="Podgórz"/>
    <tag k="place" v="village"/>
    <tag k="source" v="http://ump.waw.pl/ retrieved 23:59:15 08/30/09 (UMP-Lublin/src/cities-Lublin.pnt-converted.txt)"/>
    <tag k="wikipedia" v="Podgórz, Lublin Voivodeship"/>
  </node>
  <node id="482729195" version="3" timestamp="2010-04-11T04:50:28Z" uid="20587" user="balrog-kun" changeset="4389130" lat="51.29222" lon="21.88883">
    <tag k="is_in" v="gmina Wilków, powiat opolski, województwo lubelskie, Poland"/>
    <tag k="is_in:county" v="powiat opolski"/>
    <tag k="is_in:municipality" v="gmina Wilków"/>
    <tag k="is_in:province" v="województwo lubelskie"/>
    <tag k="name" v="Podgórz"/>
    <tag k="place" v="village"/>
    <tag k="source" v="http://ump.waw.pl/ retrieved 23:59:15 08/30/09 (UMP-Lublin/src/cities-Lublin.pnt-converted.txt)"/>
    <tag k="wikipedia" v="Podgórz, Lublin Voivodeship"/>
  </node>
  <node id="482729196" version="1" timestamp="2009-09-03T19:11:35Z" uid="20587" user="balrog-kun" changeset="2363396" lat="51.28525" lon="21.96193">
    <tag k="name" v="Uciąż Kolonia"/>
    <tag k="place" v="village"/>
    <tag k="source" v="http://ump.waw.pl/ retrieved 23:59:15 08/30/09 (UMP-Lublin/src/cities-Lublin.pnt-converted.txt)"/>
  </node>
  <node id="482729196" version="2" timestamp="2010-04-11T04:50:28Z" uid="20587" user="balrog-kun" changeset="4389130" lat="51.28525" lon="21.96193">
    <tag k="name" v="Uciąż Kolonia"/>
    <tag k="place" v="village"/>
    <tag k="source" v="http://ump.waw.pl/ retrieved 23:59:15 08/30/09 (UMP-Lublin/src/cities-Lublin.pnt-converted.txt)"/>
  </node>
  <node id="482729197" version="1" timestamp="2009-09-03T19:11:35Z" uid="20587" user="balrog-kun" changeset="2363396" lat="51.23888" lon="21.84461">
    <tag k="name" v="Brzozowa"/>
    <tag k="place" v="village"/>
    <tag k="source" v="http://ump.waw.pl/ retrieved 23:59:15 08/30/09 (UMP-Lublin/src/cities-Lublin.pnt-converted.txt)"/>
  </node>
  <node id="482729197" version="2" timestamp="2009-09-03T19:52:58Z" uid="20587" user="balrog-kun" changeset="2363858" lat="51.23888" lon="21.84461">
    <tag k="is_in" v="gmina Wilków, powiat opolski, województwo lubelskie, Poland"/>
    <tag k="is_in:county" v="powiat opolski"/>
    <tag k="is_in:municipality" v="gmina Wilków"/>
    <tag k="is_in:province" v="województwo lubelskie"/>
    <tag k="name" v="Brzozowa"/>
    <tag k="place" v="village"/>
    <tag k="source" v="http://ump.waw.pl/ retrieved 23:59:15 08/30/09 (UMP-Lublin/src/cities-Lublin.pnt-converted.txt)"/>
    <tag k="source:population" v="wikipedia"/>
    <tag k="wikipedia" v="pl:Brzozowa (województwo lubelskie)"/>
  </node>
  <node id="482729197" version="3" timestamp="2010-04-11T04:50:28Z" uid="20587" user="balrog-kun" changeset="4389130" lat="51.23888" lon="21.84461">
    <tag k="is_in" v="gmina Wilków, powiat opolski, województwo lubelskie, Poland"/>
    <tag k="is_in:county" v="powiat opolski"/>
    <tag k="is_in:municipality" v="gmina Wilków"/>
    <tag k="is_in:province" v="województwo lubelskie"/>
    <tag k="name" v="Brzozowa"/>
    <tag k="place" v="village"/>
    <tag k="source" v="http://ump.waw.pl/ retrieved 23:59:15 08/30/09 (UMP-Lublin/src/cities-Lublin.pnt-converted.txt)"/>
    <tag k="source:population" v="wikipedia"/>
    <tag k="wikipedia" v="pl:Brzozowa (województwo lubelskie)"/>
  </node>
  <node id="482729198" version="1" timestamp="2009-09-03T19:11:35Z" uid="20587" user="balrog-kun" changeset="2363396" lat="51.16724" lon="22.14921">
    <tag k="name" v="Wronów"/>
    <tag k="place" v="village"/>
    <tag k="source" v="http://ump.waw.pl/ retrieved 23:59:15 08/30/09 (UMP-Lublin/src/cities-Lublin.pnt-converted.txt)"/>
  </node>
  <node id="482729198" version="2" timestamp="2009-09-03T19:39:10Z" uid="20587" user="balrog-kun" changeset="2363702" lat="51.16724" lon="22.14921">
    <tag k="is_in" v="gmina Bełżyce, powiat lubelski, województwo lubelskie, Poland"/>
    <tag k="is_in:county" v="powiat lubelski"/>
    <tag k="is_in:municipality" v="gmina Bełżyce"/>
    <tag k="is_in:province" v="województwo lubelskie"/>
    <tag k="name" v="Wronów"/>
    <tag k="place" v="village"/>
    <tag k="source" v="http://ump.waw.pl/ retrieved 23:59:15 08/30/09 (UMP-Lublin/src/cities-Lublin.pnt-converted.txt)"/>
    <tag k="wikipedia" v="Wronów, Lublin County"/>
  </node>
  <node id="482729198" version="3" timestamp="2010-04-11T04:50:28Z" uid="20587" user="balrog-kun" changeset="4389130" lat="51.16724" lon="22.14921">
    <tag k="is_in" v="gmina Bełżyce, powiat lubelski, województwo lubelskie, Poland"/>
    <tag k="is_in:county" v="powiat lubelski"/>
    <tag k="is_in:municipality" v="gmina Bełżyce"/>
    <tag k="is_in:province" v="województwo lubelskie"/>
    <tag k="name" v="Wronów"/>
    <tag k="place" v="village"/>
    <tag k="source" v="http://ump.waw.pl/ retrieved 23:59:15 08/30/09 (UMP-Lublin/src/cities-Lublin.pnt-converted.txt)"/>
    <tag k="wikipedia" v="Wronów, Lublin County"/>
  </node>
  <node id="482729199" version="1" timestamp="2009-09-03T19:11:35Z" uid="20587" user="balrog-kun" changeset="2363396" lat="51.24753" lon="21.85545">
    <tag k="name" v="Kóty"/>
    <tag k="place" v="village"/>
    <tag k="source" v="http://ump.waw.pl/ retrieved 23:59:15 08/30/09 (UMP-Lublin/src/cities-Lublin.pnt-converted.txt)"/>
  </node>
  <node id="482729199" version="2" timestamp="2010-04-11T04:50:28Z" uid="20587" user="balrog-kun" changeset="4389130" lat="51.24753" lon="21.85545">
    <tag k="name" v="Kóty"/>
    <tag k="place" v="village"/>
    <tag k="source" v="http://ump.waw.pl/ retrieved 23:59:15 08/30/09 (UMP-Lublin/src/cities-Lublin.pnt-converted.txt)"/>
  </node>
  <node id="482729200" version="1" timestamp="2009-09-03T19:11:35Z" uid="20587" user="balrog-kun" changeset="2363396" lat="51.3289" lon="21.90534">
    <tag k="name" v="Oblasy Książe"/>
    <tag k="place" v="village"/>
    <tag k="source" v="http://ump.waw.pl/ retrieved 23:59:15 08/30/09 (UMP-Lublin/src/cities-Lublin.pnt-converted.txt)"/>
  </node>
  <node id="482729200" version="2" timestamp="2010-04-11T04:50:28Z" uid="20587" user="balrog-kun" changeset="4389130" lat="51.3289" lon="21.90534">
    <tag k="name" v="Oblasy Książe"/>
    <tag k="place" v="village"/>
    <tag k="source" v="http://ump.waw.pl/ retrieved 23:59:15 08/30/09 (UMP-Lublin/src/cities-Lublin.pnt-converted.txt)"/>
  </node>
  <node id="482729201" version="1" timestamp="2009-09-03T19:11:35Z" uid="20587" user="balrog-kun" changeset="2363396" lat="51.20998" lon="22.20067">
    <tag k="name" v="Góra"/>
    <tag k="place" v="village"/>
    <tag k="source" v="http://ump.waw.pl/ retrieved 23:59:15 08/30/09 (UMP-Lublin/src/cities-Lublin.pnt-converted.txt)"/>
  </node>
  <node id="482729201" version="2" timestamp="2009-09-03T19:39:07Z" uid="20587" user="balrog-kun" changeset="2363702" lat="51.20998" lon="22.20067">
    <tag k="is_in" v="gmina Wojciechów, powiat lubelski, województwo lubelskie, Poland"/>
    <tag k="is_in:county" v="powiat lubelski"/>
    <tag k="is_in:municipality" v="gmina Wojciechów"/>
    <tag k="is_in:province" v="województwo lubelskie"/>
    <tag k="name" v="Góra"/>
    <tag k="place" v="village"/>
    <tag k="source" v="http://ump.waw.pl/ retrieved 23:59:15 08/30/09 (UMP-Lublin/src/cities-Lublin.pnt-converted.txt)"/>
    <tag k="wikipedia" v="pl:Góra (województwo lubelskie)"/>
  </node>
  <node id="482729201" version="3" timestamp="2010-04-11T04:50:29Z" uid="20587" user="balrog-kun" changeset="4389130" lat="51.20998" lon="22.20067">
    <tag k="is_in" v="gmina Wojciechów, powiat lubelski, województwo lubelskie, Poland"/>
    <tag k="is_in:county" v="powiat lubelski"/>
    <tag k="is_in:municipality" v="gmina Wojciechów"/>
    <tag k="is_in:province" v="województwo lubelskie"/>
    <tag k="name" v="Góra"/>
    <tag k="place" v="village"/>
    <tag k="source" v="http://ump.waw.pl/ retrieved 23:59:15 08/30/09 (UMP-Lublin/src/cities-Lublin.pnt-converted.txt)"/>
    <tag k="wikipedia" v="pl:Góra (województwo lubelskie)"/>
  </node>
  <node id="482729202" version="1" timestamp="2009-09-03T19:11:35Z" uid="20587" user="balrog-kun" changeset="2363396" lat="51.23819" lon="21.89206">
    <tag k="name" v="Szczekarków Kolonia"/>
    <tag k="place" v="village"/>
    <tag k="source" v="http://ump.waw.pl/ retrieved 23:59:15 08/30/09 (UMP-Lublin/src/cities-Lublin.pnt-converted.txt)"/>
  </node>
  <node id="482729202" version="2" timestamp="2009-09-03T19:39:15Z" uid="20587" user="balrog-kun" changeset="2363702" lat="51.23819" lon="21.89206">
    <tag k="is_in" v="gmina Wilków, powiat opolski, województwo lubelskie, Poland"/>
    <tag k="is_in:county" v="powiat opolski"/>
    <tag k="is_in:municipality" v="gmina Wilków"/>
    <tag k="is_in:province" v="województwo lubelskie"/>
    <tag k="name" v="Szczekarków Kolonia"/>
    <tag k="place" v="village"/>
    <tag k="source" v="http://ump.waw.pl/ retrieved 23:59:15 08/30/09 (UMP-Lublin/src/cities-Lublin.pnt-converted.txt)"/>
    <tag k="wikipedia" v="Szczekarków-Kolonia"/>
  </node>
  <node id="482729202" version="3" timestamp="2010-04-11T04:50:29Z" uid="20587" user="balrog-kun" changeset="4389130" lat="51.23819" lon="21.89206">
    <tag k="is_in" v="gmina Wilków, powiat opolski, województwo lubelskie, Poland"/>
    <tag k="is_in:county" v="powiat opolski"/>
    <tag k="is_in:municipality" v="gmina Wilków"/>
    <tag k="is_in:province" v="województwo lubelskie"/>
    <tag k="name" v="Szczekarków Kolonia"/>
    <tag k="place" v="village"/>
    <tag k="source" v="http://ump.waw.pl/ retrieved 23:59:15 08/30/09 (UMP-Lublin/src/cities-Lublin.pnt-converted.txt)"/>
    <tag k="wikipedia" v="Szczekarków-Kolonia"/>
  </node>
  <node id="482729203" version="1" timestamp="2009-09-03T19:11:35Z" uid="20587" user="balrog-kun" changeset="2363396" lat="51.28947" lon="22.41473">
    <tag k="name" v="Stawki"/>
    <tag k="place" v="village"/>
    <tag k="source" v="http://ump.waw.pl/ retrieved 23:59:15 08/30/09 (UMP-Lublin/src/cities-Lublin.pnt-converted.txt)"/>
  </node>
  <node id="482729203" version="2" timestamp="2009-09-03T19:39:12Z" uid="20587" user="balrog-kun" changeset="2363702" lat="51.28947" lon="22.41473">
    <tag k="is_in" v="gmina Potok Wielki, powiat janowski, województwo lubelskie, Poland"/>
    <tag k="is_in:county" v="powiat janowski"/>
    <tag k="is_in:municipality" v="gmina Potok Wielki"/>
    <tag k="is_in:province" v="województwo lubelskie"/>
    <tag k="name" v="Stawki"/>
    <tag k="place" v="village"/>
    <tag k="source" v="http://ump.waw.pl/ retrieved 23:59:15 08/30/09 (UMP-Lublin/src/cities-Lublin.pnt-converted.txt)"/>
    <tag k="wikipedia" v="Stawki, Janów Lubelski County"/>
  </node>
  <node id="482729203" version="3" timestamp="2010-04-11T04:50:29Z" uid="20587" user="balrog-kun" changeset="4389130" lat="51.28947" lon="22.41473">
    <tag k="is_in" v="gmina Potok Wielki, powiat janowski, województwo lubelskie, Poland"/>
    <tag k="is_in:county" v="powiat janowski"/>
    <tag k="is_in:municipality" v="gmina Potok Wielki"/>
    <tag k="is_in:province" v="województwo lubelskie"/>
    <tag k="name" v="Stawki"/>
    <tag k="place" v="village"/>
    <tag k="source" v="http://ump.waw.pl/ retrieved 23:59:15 08/30/09 (UMP-Lublin/src/cities-Lublin.pnt-converted.txt)"/>
    <tag k="wikipedia" v="Stawki, Janów Lubelski County"/>
  </node>
  <node id="482729204" version="1" timestamp="2009-09-03T19:11:35Z" uid="20587" user="balrog-kun" changeset="2363396" lat="51.20949" lon="21.84477">
    <tag k="name" v="Kolonia Wrzelów"/>
    <tag k="place" v="village"/>
    <tag k="source" v="http://ump.waw.pl/ retrieved 23:59:15 08/30/09 (UMP-Lublin/src/cities-Lublin.pnt-converted.txt)"/>
  </node>
  <node id="482729204" version="2" timestamp="2009-09-03T19:39:08Z" uid="20587" user="balrog-kun" changeset="2363702" lat="51.20949" lon="21.84477">
    <tag k="is_in" v="gmina Wilków, powiat opolski, województwo lubelskie, Poland"/>
    <tag k="is_in:county" v="powiat opolski"/>
    <tag k="is_in:municipality" v="gmina Wilków"/>
    <tag k="is_in:province" v="województwo lubelskie"/>
    <tag k="name" v="Kolonia Wrzelów"/>
    <tag k="place" v="village"/>
    <tag k="source" v="http://ump.waw.pl/ retrieved 23:59:15 08/30/09 (UMP-Lublin/src/cities-Lublin.pnt-converted.txt)"/>
    <tag k="wikipedia" v="Kolonia Wrzelów"/>
  </node>
  <node id="482729204" version="3" timestamp="2010-04-11T04:50:29Z" uid="20587" user="balrog-kun" changeset="4389130" lat="51.20949" lon="21.84477">
    <tag k="is_in" v="gmina Wilków, powiat opolski, województwo lubelskie, Poland"/>
    <tag k="is_in:county" v="powiat opolski"/>
    <tag k="is_in:municipality" v="gmina Wilków"/>
    <tag k="is_in:province" v="województwo lubelskie"/>
    <tag k="name" v="Kolonia Wrzelów"/>
    <tag k="place" v="village"/>
    <tag k="source" v="http://ump.waw.pl/ retrieved 23:59:15 08/30/09 (UMP-Lublin/src/cities-Lublin.pnt-converted.txt)"/>
    <tag k="wikipedia" v="Kolonia Wrzelów"/>
  </node>
  <node id="482729204" version="4" timestamp="2010-04-27T04:17:14Z" uid="30632" user="antblant" changeset="4537905" lat="51.20949" lon="21.84477">
    <tag k="is_in" v="gmina Wilków, powiat opolski, województwo lubelskie, Poland"/>
    <tag k="is_in:county" v="powiat opolski"/>
    <tag k="is_in:municipality" v="gmina Wilków"/>
    <tag k="is_in:province" v="województwo lubelskie"/>
    <tag k="name" v="Kolonia Wrzelów"/>
    <tag k="place" v="village"/>
    <tag k="source" v="http://ump.waw.pl/ retrieved 23:59:15 08/30/09 (UMP-Lublin/src/cities-Lublin.pnt-converted.txt)"/>
    <tag k="teryt:simc" v="0393413"/>
    <tag k="wikipedia" v="Kolonia Wrzelów"/>
  </node>
  <node id="482729205" version="1" timestamp="2009-09-03T19:11:35Z" uid="20587" user="balrog-kun" changeset="2363396" lat="51.20118" lon="22.65978">
    <tag k="name" v="Kalinówka"/>
    <tag k="place" v="village"/>
    <tag k="source" v="http://ump.waw.pl/ retrieved 23:59:15 08/30/09 (UMP-Lublin/src/cities-Lublin.pnt-converted.txt)"/>
  </node>
  <node id="482729205" version="2" timestamp="2009-09-03T19:39:10Z" uid="20587" user="balrog-kun" changeset="2363702" lat="51.20118" lon="22.65978">
    <tag k="is_in" v="gmina Głusk, powiat lubelski, województwo lubelskie, Poland"/>
    <tag k="is_in:county" v="powiat lubelski"/>
    <tag k="is_in:municipality" v="gmina Głusk"/>
    <tag k="is_in:province" v="województwo lubelskie"/>
    <tag k="name" v="Kalinówka"/>
    <tag k="place" v="village"/>
    <tag k="source" v="http://ump.waw.pl/ retrieved 23:59:15 08/30/09 (UMP-Lublin/src/cities-Lublin.pnt-converted.txt)"/>
    <tag k="wikipedia" v="Kalinówka, Lublin County"/>
  </node>
  <node id="482729205" version="3" timestamp="2010-04-11T04:50:29Z" uid="20587" user="balrog-kun" changeset="4389130" lat="51.20118" lon="22.65978">
    <tag k="is_in" v="gmina Głusk, powiat lubelski, województwo lubelskie, Poland"/>
    <tag k="is_in:county" v="powiat lubelski"/>
    <tag k="is_in:municipality" v="gmina Głusk"/>
    <tag k="is_in:province" v="województwo lubelskie"/>
    <tag k="name" v="Kalinówka"/>
    <tag k="place" v="village"/>
    <tag k="source" v="http://ump.waw.pl/ retrieved 23:59:15 08/30/09 (UMP-Lublin/src/cities-Lublin.pnt-converted.txt)"/>
    <tag k="wikipedia" v="Kalinówka, Lublin County"/>
  </node>
  <node id="482729206" version="1" timestamp="2009-09-03T19:11:36Z" uid="20587" user="balrog-kun" changeset="2363396" lat="51.24014" lon="22.0074">
    <tag k="name" v="Karczmiska II"/>
    <tag k="place" v="village"/>
    <tag k="source" v="http://ump.waw.pl/ retrieved 23:59:15 08/30/09 (UMP-Lublin/src/cities-Lublin.pnt-converted.txt)"/>
  </node>
  <node id="482729206" version="2" timestamp="2010-04-11T04:50:29Z" uid="20587" user="balrog-kun" changeset="4389130" lat="51.24014" lon="22.0074">
    <tag k="alt_name" v="Karczmiska II"/>
    <tag k="name" v="Karczmiska Drugie"/>
    <tag k="place" v="village"/>
    <tag k="source" v="http://ump.waw.pl/ retrieved 23:59:15 08/30/09 (UMP-Lublin/src/cities-Lublin.pnt-converted.txt)"/>
  </node>
  <node id="482729206" version="3" timestamp="2010-04-27T04:17:14Z" uid="30632" user="antblant" changeset="4537905" lat="51.24014" lon="22.0074">
    <tag k="alt_name" v="Karczmiska II"/>
    <tag k="name" v="Karczmiska Drugie"/>
    <tag k="place" v="village"/>
    <tag k="source" v="http://ump.waw.pl/ retrieved 23:59:15 08/30/09 (UMP-Lublin/src/cities-Lublin.pnt-converted.txt)"/>
    <tag k="teryt:simc" v="0382852"/>
  </node>
  <node id="482729207" version="1" timestamp="2009-09-03T19:11:36Z" uid="20587" user="balrog-kun" changeset="2363396" lat="51.23132" lon="21.98374">
    <tag k="name" v="Karczmiska I"/>
    <tag k="place" v="village"/>
    <tag k="source" v="http://ump.waw.pl/ retrieved 23:59:15 08/30/09 (UMP-Lublin/src/cities-Lublin.pnt-converted.txt)"/>
  </node>
  <node id="482729207" version="2" timestamp="2010-04-11T04:50:29Z" uid="20587" user="balrog-kun" changeset="4389130" lat="51.23132" lon="21.98374">
    <tag k="alt_name" v="Karczmiska I"/>
    <tag k="name" v="Karczmiska Pierwsze"/>
    <tag k="place" v="village"/>
    <tag k="source" v="http://ump.waw.pl/ retrieved 23:59:15 08/30/09 (UMP-Lublin/src/cities-Lublin.pnt-converted.txt)"/>
  </node>
  <node id="482729207" version="3" timestamp="2010-04-27T04:17:14Z" uid="30632" user="antblant" changeset="4537905" lat="51.23132" lon="21.98374">
    <tag k="alt_name" v="Karczmiska I"/>
    <tag k="name" v="Karczmiska Pierwsze"/>
    <tag k="place" v="village"/>
    <tag k="source" v="http://ump.waw.pl/ retrieved 23:59:15 08/30/09 (UMP-Lublin/src/cities-Lublin.pnt-converted.txt)"/>
    <tag k="teryt:simc" v="0382830"/>
  </node>
  <node id="482729208" version="1" timestamp="2009-09-03T19:11:36Z" uid="20587" user="balrog-kun" changeset="2363396" lat="51.32796" lon="22.11288">
    <tag k="name" v="Karmanowice Kolonia"/>
    <tag k="place" v="village"/>
    <tag k="source" v="http://ump.waw.pl/ retrieved 23:59:15 08/30/09 (UMP-Lublin/src/cities-Lublin.pnt-converted.txt)"/>
  </node>
  <node id="482729208" version="2" timestamp="2010-04-11T04:50:29Z" uid="20587" user="balrog-kun" changeset="4389130" lat="51.32796" lon="22.11288">
    <tag k="name" v="Karmanowice Kolonia"/>
    <tag k="place" v="village"/>
    <tag k="source" v="http://ump.waw.pl/ retrieved 23:59:15 08/30/09 (UMP-Lublin/src/cities-Lublin.pnt-converted.txt)"/>
  </node>
  <node id="482729209" version="1" timestamp="2009-09-03T19:11:36Z" uid="20587" user="balrog-kun" changeset="2363396" lat="51.19519" lon="21.87734">
    <tag k="name" v="Trzciniec"/>
    <tag k="place" v="village"/>
    <tag k="source" v="http://ump.waw.pl/ retrieved 23:59:15 08/30/09 (UMP-Lublin/src/cities-Lublin.pnt-converted.txt)"/>
  </node>
  <node id="482729209" version="2" timestamp="2009-09-03T19:39:15Z" uid="20587" user="balrog-kun" changeset="2363702" lat="51.19519" lon="21.87734">
    <tag k="addr:postcode" v="24-350"/>
    <tag k="is_in" v="gmina Chodel, powiat opolski, województwo lubelskie, Poland"/>
    <tag k="is_in:county" v="powiat opolski"/>
    <tag k="is_in:municipality" v="gmina Chodel"/>
    <tag k="is_in:province" v="województwo lubelskie"/>
    <tag k="name" v="Trzciniec"/>
    <tag k="place" v="village"/>
    <tag k="source" v="http://ump.waw.pl/ retrieved 23:59:15 08/30/09 (UMP-Lublin/src/cities-Lublin.pnt-converted.txt)"/>
    <tag k="wikipedia" v="Trzciniec, Gmina Chodel"/>
  </node>
  <node id="482729209" version="3" timestamp="2010-04-11T04:50:29Z" uid="20587" user="balrog-kun" changeset="4389130" lat="51.19519" lon="21.87734">
    <tag k="addr:postcode" v="24-350"/>
    <tag k="is_in" v="gmina Chodel, powiat opolski, województwo lubelskie, Poland"/>
    <tag k="is_in:county" v="powiat opolski"/>
    <tag k="is_in:municipality" v="gmina Chodel"/>
    <tag k="is_in:province" v="województwo lubelskie"/>
    <tag k="name" v="Trzciniec"/>
    <tag k="place" v="village"/>
    <tag k="source" v="http://ump.waw.pl/ retrieved 23:59:15 08/30/09 (UMP-Lublin/src/cities-Lublin.pnt-converted.txt)"/>
    <tag k="wikipedia" v="Trzciniec, Gmina Chodel"/>
  </node>
  <node id="482729210" version="1" timestamp="2009-09-03T19:11:36Z" uid="20587" user="balrog-kun" changeset="2363396" lat="51.26936" lon="21.89988">
    <tag k="name" v="Dobre"/>
    <tag k="place" v="village"/>
    <tag k="source" v="http://ump.waw.pl/ retrieved 23:59:15 08/30/09 (UMP-Lublin/src/cities-Lublin.pnt-converted.txt)"/>
  </node>
  <node id="482729210" version="2" timestamp="2009-09-03T19:39:10Z" uid="20587" user="balrog-kun" changeset="2363702" lat="51.26936" lon="21.89988">
    <tag k="is_in" v="gmina Wilków, powiat opolski, województwo lubelskie, Poland"/>
    <tag k="is_in:county" v="powiat opolski"/>
    <tag k="is_in:municipality" v="gmina Wilków"/>
    <tag k="is_in:province" v="województwo lubelskie"/>
    <tag k="name" v="Dobre"/>
    <tag k="place" v="village"/>
    <tag k="source" v="http://ump.waw.pl/ retrieved 23:59:15 08/30/09 (UMP-Lublin/src/cities-Lublin.pnt-converted.txt)"/>
    <tag k="wikipedia" v="Dobre, Lublin Voivodeship"/>
  </node>
  <node id="482729210" version="3" timestamp="2010-04-11T04:50:29Z" uid="20587" user="balrog-kun" changeset="4389130" lat="51.26936" lon="21.89988">
    <tag k="is_in" v="gmina Wilków, powiat opolski, województwo lubelskie, Poland"/>
    <tag k="is_in:county" v="powiat opolski"/>
    <tag k="is_in:municipality" v="gmina Wilków"/>
    <tag k="is_in:province" v="województwo lubelskie"/>
    <tag k="name" v="Dobre"/>
    <tag k="place" v="village"/>
    <tag k="source" v="http://ump.waw.pl/ retrieved 23:59:15 08/30/09 (UMP-Lublin/src/cities-Lublin.pnt-converted.txt)"/>
    <tag k="wikipedia" v="Dobre, Lublin Voivodeship"/>
  </node>
  <node id="482729211" version="1" timestamp="2009-09-03T19:11:36Z" uid="20587" user="balrog-kun" changeset="2363396" lat="51.28504" lon="22.67514">
    <tag k="addr:postcode" v="20-258"/>
    <tag k="name" v="Turka"/>
    <tag k="place" v="village"/>
    <tag k="source" v="http://ump.waw.pl/ retrieved 23:59:15 08/30/09 (UMP-Lublin/src/cities-Lublin.pnt-converted.txt)"/>
  </node>
  <node id="482729211" version="2" timestamp="2009-09-03T19:39:12Z" uid="20587" user="balrog-kun" changeset="2363702" lat="51.28504" lon="22.67514">
    <tag k="addr:postcode" v="20-258"/>
    <tag k="is_in" v="gmina Wólka, powiat lubelski, województwo lubelskie, Poland"/>
    <tag k="is_in:county" v="powiat lubelski"/>
    <tag k="is_in:municipality" v="gmina Wólka"/>
    <tag k="is_in:province" v="województwo lubelskie"/>
    <tag k="name" v="Turka"/>
    <tag k="place" v="village"/>
    <tag k="population" v="2640"/>
    <tag k="source" v="http://ump.waw.pl/ retrieved 23:59:15 08/30/09 (UMP-Lublin/src/cities-Lublin.pnt-converted.txt)"/>
    <tag k="source:population" v="wikipedia"/>
    <tag k="wikipedia" v="Turka, Lublin County"/>
  </node>
  <node id="482729211" version="4" timestamp="2010-04-11T04:50:29Z" uid="20587" user="balrog-kun" changeset="4389130" lat="51.2863627" lon="22.676111">
    <tag k="addr:postcode" v="20-258"/>
    <tag k="is_in" v="gmina Wólka, powiat lubelski, województwo lubelskie, Poland"/>
    <tag k="is_in:county" v="powiat lubelski"/>
    <tag k="is_in:municipality" v="gmina Wólka"/>
    <tag k="is_in:province" v="województwo lubelskie"/>
    <tag k="name" v="Turka"/>
    <tag k="place" v="village"/>
    <tag k="population" v="2640"/>
    <tag k="source" v="http://ump.waw.pl/ retrieved 23:59:15 08/30/09 (UMP-Lublin/src/cities-Lublin.pnt-converted.txt)"/>
    <tag k="source:population" v="wikipedia"/>
    <tag k="wikipedia" v="Turka, Lublin County"/>
  </node>
  <node id="482729211" version="5" timestamp="2010-04-11T13:15:42Z" uid="20587" user="balrog-kun" changeset="4392352" lat="51.2869295" lon="22.6765272">
    <tag k="addr:postcode" v="20-258"/>
    <tag k="is_in" v="gmina Wólka, powiat lubelski, województwo lubelskie, Poland"/>
    <tag k="is_in:county" v="powiat lubelski"/>
    <tag k="is_in:municipality" v="gmina Wólka"/>
    <tag k="is_in:province" v="województwo lubelskie"/>
    <tag k="name" v="Turka"/>
    <tag k="place" v="village"/>
    <tag k="population" v="2640"/>
    <tag k="source" v="http://ump.waw.pl/ retrieved 23:59:15 08/30/09 (UMP-Lublin/src/cities-Lublin.pnt-converted.txt)"/>
    <tag k="source:population" v="wikipedia"/>
    <tag k="wikipedia" v="Turka, Lublin County"/>
  </node>
  <node id="482729212" version="1" timestamp="2009-09-03T19:11:36Z" uid="20587" user="balrog-kun" changeset="2363396" lat="51.17114" lon="22.67994">
    <tag k="name" v="Kliny"/>
    <tag k="place" v="village"/>
    <tag k="source" v="http://ump.waw.pl/ retrieved 23:59:15 08/30/09 (UMP-Lublin/src/cities-Lublin.pnt-converted.txt)"/>
  </node>
  <node id="482729212" version="2" timestamp="2009-09-03T19:39:10Z" uid="20587" user="balrog-kun" changeset="2363702" lat="51.17114" lon="22.67994">
    <tag k="is_in" v="gmina Głusk, powiat lubelski, województwo lubelskie, Poland"/>
    <tag k="is_in:county" v="powiat lubelski"/>
    <tag k="is_in:municipality" v="gmina Głusk"/>
    <tag k="is_in:province" v="województwo lubelskie"/>
    <tag k="name" v="Kliny"/>
    <tag k="place" v="village"/>
    <tag k="source" v="http://ump.waw.pl/ retrieved 23:59:15 08/30/09 (UMP-Lublin/src/cities-Lublin.pnt-converted.txt)"/>
    <tag k="wikipedia" v="Kliny, Lublin Voivodeship"/>
  </node>
  <node id="482729212" version="3" timestamp="2010-04-11T04:50:29Z" uid="20587" user="balrog-kun" changeset="4389130" lat="51.17114" lon="22.67994">
    <tag k="is_in" v="gmina Głusk, powiat lubelski, województwo lubelskie, Poland"/>
    <tag k="is_in:county" v="powiat lubelski"/>
    <tag k="is_in:municipality" v="gmina Głusk"/>
    <tag k="is_in:province" v="województwo lubelskie"/>
    <tag k="name" v="Kliny"/>
    <tag k="place" v="village"/>
    <tag k="source" v="http://ump.waw.pl/ retrieved 23:59:15 08/30/09 (UMP-Lublin/src/cities-Lublin.pnt-converted.txt)"/>
    <tag k="wikipedia" v="Kliny, Lublin Voivodeship"/>
  </node>
  <node id="482729213" version="1" timestamp="2009-09-03T19:11:36Z" uid="20587" user="balrog-kun" changeset="2363396" lat="51.28186" lon="22.60484">
    <tag k="name" v="Rudnik"/>
    <tag k="place" v="village"/>
    <tag k="source" v="http://ump.waw.pl/ retrieved 23:59:15 08/30/09 (UMP-Lublin/src/cities-Lublin.pnt-converted.txt)"/>
  </node>
  <node id="482729213" version="2" timestamp="2009-09-03T19:39:07Z" uid="20587" user="balrog-kun" changeset="2363702" lat="51.28186" lon="22.60484">
    <tag k="is_in" v="gmina Wólka, powiat lubelski, województwo lubelskie, Poland"/>
    <tag k="is_in:county" v="powiat lubelski"/>
    <tag k="is_in:municipality" v="gmina Wólka"/>
    <tag k="is_in:province" v="województwo lubelskie"/>
    <tag k="name" v="Rudnik"/>
    <tag k="place" v="village"/>
    <tag k="source" v="http://ump.waw.pl/ retrieved 23:59:15 08/30/09 (UMP-Lublin/src/cities-Lublin.pnt-converted.txt)"/>
    <tag k="wikipedia" v="Rudnik, Lublin County"/>
  </node>
  <node id="482729213" version="4" timestamp="2010-04-11T04:50:30Z" uid="20587" user="balrog-kun" changeset="4389130" lat="51.2833413" lon="22.599398">
    <tag k="is_in" v="gmina Wólka, powiat lubelski, województwo lubelskie, Poland"/>
    <tag k="is_in:county" v="powiat lubelski"/>
    <tag k="is_in:municipality" v="gmina Wólka"/>
    <tag k="is_in:province" v="województwo lubelskie"/>
    <tag k="name" v="Rudnik"/>
    <tag k="place" v="village"/>
    <tag k="source" v="http://ump.waw.pl/ retrieved 23:59:15 08/30/09 (UMP-Lublin/src/cities-Lublin.pnt-converted.txt)"/>
    <tag k="wikipedia" v="Rudnik, Lublin County"/>
  </node>
  <node id="482729213" version="5" timestamp="2010-04-11T13:15:42Z" uid="20587" user="balrog-kun" changeset="4392352" lat="51.2839762" lon="22.5970657">
    <tag k="is_in" v="gmina Wólka, powiat lubelski, województwo lubelskie, Poland"/>
    <tag k="is_in:county" v="powiat lubelski"/>
    <tag k="is_in:municipality" v="gmina Wólka"/>
    <tag k="is_in:province" v="województwo lubelskie"/>
    <tag k="name" v="Rudnik"/>
    <tag k="place" v="village"/>
    <tag k="source" v="http://ump.waw.pl/ retrieved 23:59:15 08/30/09 (UMP-Lublin/src/cities-Lublin.pnt-converted.txt)"/>
    <tag k="wikipedia" v="Rudnik, Lublin County"/>
  </node>
  <node id="482729214" version="1" timestamp="2009-09-03T19:11:36Z" uid="20587" user="balrog-kun" changeset="2363396" lat="51.29774" lon="22.06632">
    <tag k="name" v="Grabówki"/>
    <tag k="place" v="village"/>
    <tag k="source" v="http://ump.waw.pl/ retrieved 23:59:15 08/30/09 (UMP-Lublin/src/cities-Lublin.pnt-converted.txt)"/>
  </node>
  <node id="482729214" version="2" timestamp="2009-09-03T19:39:07Z" uid="20587" user="balrog-kun" changeset="2363702" lat="51.29774" lon="22.06632">
    <tag k="is_in" v="gmina Wąwolnica, powiat puławski, województwo lubelskie, Poland"/>
    <tag k="is_in:county" v="powiat puławski"/>
    <tag k="is_in:municipality" v="gmina Wąwolnica"/>
    <tag k="is_in:province" v="województwo lubelskie"/>
    <tag k="name" v="Grabówki"/>
    <tag k="place" v="village"/>
    <tag k="source" v="http://ump.waw.pl/ retrieved 23:59:15 08/30/09 (UMP-Lublin/src/cities-Lublin.pnt-converted.txt)"/>
    <tag k="wikipedia" v="pl:Grabówki (województwo lubelskie)"/>
  </node>
  <node id="482729214" version="3" timestamp="2010-04-11T04:50:30Z" uid="20587" user="balrog-kun" changeset="4389130" lat="51.29774" lon="22.06632">
    <tag k="is_in" v="gmina Wąwolnica, powiat puławski, województwo lubelskie, Poland"/>
    <tag k="is_in:county" v="powiat puławski"/>
    <tag k="is_in:municipality" v="gmina Wąwolnica"/>
    <tag k="is_in:province" v="województwo lubelskie"/>
    <tag k="name" v="Grabówki"/>
    <tag k="place" v="village"/>
    <tag k="source" v="http://ump.waw.pl/ retrieved 23:59:15 08/30/09 (UMP-Lublin/src/cities-Lublin.pnt-converted.txt)"/>
    <tag k="wikipedia" v="pl:Grabówki (województwo lubelskie)"/>
  </node>
  <node id="482729215" version="1" timestamp="2009-09-03T19:11:36Z" uid="20587" user="balrog-kun" changeset="2363396" lat="51.30838" lon="22.37774">
    <tag k="name" v="Sługocin"/>
    <tag k="place" v="village"/>
    <tag k="source" v="http://ump.waw.pl/ retrieved 23:59:15 08/30/09 (UMP-Lublin/src/cities-Lublin.pnt-converted.txt)"/>
  </node>
  <node id="482729215" version="2" timestamp="2009-09-03T19:39:10Z" uid="20587" user="balrog-kun" changeset="2363702" lat="51.30838" lon="22.37774">
    <tag k="is_in" v="gmina Jastków, powiat lubelski, województwo lubelskie, Poland"/>
    <tag k="is_in:county" v="powiat lubelski"/>
    <tag k="is_in:municipality" v="gmina Jastków"/>
    <tag k="is_in:province" v="województwo lubelskie"/>
    <tag k="name" v="Sługocin"/>
    <tag k="place" v="village"/>
    <tag k="source" v="http://ump.waw.pl/ retrieved 23:59:15 08/30/09 (UMP-Lublin/src/cities-Lublin.pnt-converted.txt)"/>
    <tag k="wikipedia" v="Sługocin, Lublin Voivodeship"/>
  </node>
  <node id="482729215" version="3" timestamp="2010-04-11T04:50:30Z" uid="20587" user="balrog-kun" changeset="4389130" lat="51.30838" lon="22.37774">
    <tag k="is_in" v="gmina Jastków, powiat lubelski, województwo lubelskie, Poland"/>
    <tag k="is_in:county" v="powiat lubelski"/>
    <tag k="is_in:municipality" v="gmina Jastków"/>
    <tag k="is_in:province" v="województwo lubelskie"/>
    <tag k="name" v="Sługocin"/>
    <tag k="place" v="village"/>
    <tag k="source" v="http://ump.waw.pl/ retrieved 23:59:15 08/30/09 (UMP-Lublin/src/cities-Lublin.pnt-converted.txt)"/>
    <tag k="wikipedia" v="Sługocin, Lublin Voivodeship"/>
  </node>
  <node id="482729216" version="1" timestamp="2009-09-03T19:11:36Z" uid="20587" user="balrog-kun" changeset="2363396" lat="51.31666" lon="21.79683">
    <tag k="name" v="Rudki"/>
    <tag k="place" v="village"/>
    <tag k="source" v="http://ump.waw.pl/ retrieved 23:59:15 08/30/09 (UMP-Lublin/src/cities-Lublin.pnt-converted.txt)"/>
  </node>
  <node id="482729216" version="2" timestamp="2009-09-03T19:43:36Z" uid="20587" user="balrog-kun" changeset="2363761" lat="51.31666" lon="21.79683">
    <tag k="is_in" v="gmina Przyłęk, powiat zwoleński, województwo mazowieckie, Poland"/>
    <tag k="is_in:county" v="powiat zwoleński"/>
    <tag k="is_in:municipality" v="gmina Przyłęk"/>
    <tag k="is_in:province" v="województwo mazowieckie"/>
    <tag k="name" v="Rudki"/>
    <tag k="place" v="village"/>
    <tag k="source" v="http://ump.waw.pl/ retrieved 23:59:15 08/30/09 (UMP-Lublin/src/cities-Lublin.pnt-converted.txt)"/>
    <tag k="wikipedia" v="Rudki, Zwoleń County"/>
  </node>
  <node id="482729216" version="3" timestamp="2010-04-11T04:50:30Z" uid="20587" user="balrog-kun" changeset="4389130" lat="51.31666" lon="21.79683">
    <tag k="is_in" v="gmina Przyłęk, powiat zwoleński, województwo mazowieckie, Poland"/>
    <tag k="is_in:county" v="powiat zwoleński"/>
    <tag k="is_in:municipality" v="gmina Przyłęk"/>
    <tag k="is_in:province" v="województwo mazowieckie"/>
    <tag k="name" v="Rudki"/>
    <tag k="place" v="village"/>
    <tag k="source" v="http://ump.waw.pl/ retrieved 23:59:15 08/30/09 (UMP-Lublin/src/cities-Lublin.pnt-converted.txt)"/>
    <tag k="wikipedia" v="Rudki, Zwoleń County"/>
  </node>
  <node id="482729218" version="1" timestamp="2009-09-03T19:11:36Z" uid="20587" user="balrog-kun" changeset="2363396" lat="51.21479" lon="22.42632">
    <tag k="name" v="Marynin"/>
    <tag k="place" v="village"/>
    <tag k="source" v="http://ump.waw.pl/ retrieved 23:59:15 08/30/09 (UMP-Lublin/src/cities-Lublin.pnt-converted.txt)"/>
  </node>
  <node id="482729218" version="2" timestamp="2009-09-03T19:39:14Z" uid="20587" user="balrog-kun" changeset="2363702" lat="51.21479" lon="22.42632">
    <tag k="is_in" v="gmina Konopnica, powiat lubelski, województwo lubelskie, Poland"/>
    <tag k="is_in:county" v="powiat lubelski"/>
    <tag k="is_in:municipality" v="gmina Konopnica"/>
    <tag k="is_in:province" v="województwo lubelskie"/>
    <tag k="name" v="Marynin"/>
    <tag k="place" v="village"/>
    <tag k="source" v="http://ump.waw.pl/ retrieved 23:59:15 08/30/09 (UMP-Lublin/src/cities-Lublin.pnt-converted.txt)"/>
    <tag k="wikipedia" v="Marynin, Lublin County"/>
  </node>
  <node id="482729218" version="3" timestamp="2010-04-11T04:50:30Z" uid="20587" user="balrog-kun" changeset="4389130" lat="51.21479" lon="22.42632">
    <tag k="is_in" v="gmina Konopnica, powiat lubelski, województwo lubelskie, Poland"/>
    <tag k="is_in:county" v="powiat lubelski"/>
    <tag k="is_in:municipality" v="gmina Konopnica"/>
    <tag k="is_in:province" v="województwo lubelskie"/>
    <tag k="name" v="Marynin"/>
    <tag k="place" v="village"/>
    <tag k="source" v="http://ump.waw.pl/ retrieved 23:59:15 08/30/09 (UMP-Lublin/src/cities-Lublin.pnt-converted.txt)"/>
    <tag k="wikipedia" v="Marynin, Lublin County"/>
  </node>
  <node id="482729219" version="1" timestamp="2009-09-03T19:11:37Z" uid="20587" user="balrog-kun" changeset="2363396" lat="51.23311" lon="22.30414">
    <tag k="name" v="Palikije II"/>
    <tag k="place" v="village"/>
    <tag k="source" v="http://ump.waw.pl/ retrieved 23:59:15 08/30/09 (UMP-Lublin/src/cities-Lublin.pnt-converted.txt)"/>
  </node>
  <node id="482729219" version="2" timestamp="2009-09-03T19:39:05Z" uid="20587" user="balrog-kun" changeset="2363702" lat="51.23311" lon="22.30414">
    <tag k="is_in" v="gmina Wojciechów, powiat lubelski, województwo lubelskie, Poland"/>
    <tag k="is_in:county" v="powiat lubelski"/>
    <tag k="is_in:municipality" v="gmina Wojciechów"/>
    <tag k="is_in:province" v="województwo lubelskie"/>
    <tag k="name" v="Palikije II"/>
    <tag k="place" v="village"/>
    <tag k="source" v="http://ump.waw.pl/ retrieved 23:59:15 08/30/09 (UMP-Lublin/src/cities-Lublin.pnt-converted.txt)"/>
    <tag k="wikipedia" v="Palikije Drugie"/>
  </node>
  <node id="482729219" version="3" timestamp="2010-04-11T04:50:30Z" uid="20587" user="balrog-kun" changeset="4389130" lat="51.23311" lon="22.30414">
    <tag k="alt_name" v="Palikije II"/>
    <tag k="is_in" v="gmina Wojciechów, powiat lubelski, województwo lubelskie, Poland"/>
    <tag k="is_in:county" v="powiat lubelski"/>
    <tag k="is_in:municipality" v="gmina Wojciechów"/>
    <tag k="is_in:province" v="województwo lubelskie"/>
    <tag k="name" v="Palikije Drugie"/>
    <tag k="place" v="village"/>
    <tag k="source" v="http://ump.waw.pl/ retrieved 23:59:15 08/30/09 (UMP-Lublin/src/cities-Lublin.pnt-converted.txt)"/>
    <tag k="wikipedia" v="Palikije Drugie"/>
  </node>
  <node id="482729219" version="4" timestamp="2010-04-27T04:04:32Z" uid="30632" user="antblant" changeset="4537867" lat="51.23311" lon="22.30414">
    <tag k="alt_name" v="Palikije II"/>
    <tag k="is_in" v="gmina Wojciechów, powiat lubelski, województwo lubelskie, Poland"/>
    <tag k="is_in:county" v="powiat lubelski"/>
    <tag k="is_in:municipality" v="gmina Wojciechów"/>
    <tag k="is_in:province" v="województwo lubelskie"/>
    <tag k="name" v="Palikije Drugie"/>
    <tag k="place" v="village"/>
    <tag k="source" v="http://ump.waw.pl/ retrieved 23:59:15 08/30/09 (UMP-Lublin/src/cities-Lublin.pnt-converted.txt)"/>
    <tag k="teryt:simc" v="0393778"/>
    <tag k="wikipedia" v="Palikije Drugie"/>
  </node>
  <node id="482729221" version="1" timestamp="2009-09-03T19:11:37Z" uid="20587" user="balrog-kun" changeset="2363396" lat="51.21056" lon="22.03394">
    <tag k="name" v="Wolica"/>
    <tag k="place" v="village"/>
    <tag k="source" v="http://ump.waw.pl/ retrieved 23:59:15 08/30/09 (UMP-Lublin/src/cities-Lublin.pnt-converted.txt)"/>
  </node>
  <node id="482729221" version="2" timestamp="2009-09-03T19:39:05Z" uid="20587" user="balrog-kun" changeset="2363702" lat="51.21056" lon="22.03394">
    <tag k="is_in" v="gmina Karczmiska, powiat opolski, województwo lubelskie, Poland"/>
    <tag k="is_in:county" v="powiat opolski"/>
    <tag k="is_in:municipality" v="gmina Karczmiska"/>
    <tag k="is_in:province" v="województwo lubelskie"/>
    <tag k="name" v="Wolica"/>
    <tag k="place" v="village"/>
    <tag k="population" v="240"/>
    <tag k="source" v="http://ump.waw.pl/ retrieved 23:59:15 08/30/09 (UMP-Lublin/src/cities-Lublin.pnt-converted.txt)"/>
    <tag k="source:population" v="wikipedia"/>
    <tag k="wikipedia" v="Wolica, Opole Lubelskie County"/>
  </node>
  <node id="482729221" version="3" timestamp="2010-04-11T04:50:30Z" uid="20587" user="balrog-kun" changeset="4389130" lat="51.21056" lon="22.03394">
    <tag k="is_in" v="gmina Karczmiska, powiat opolski, województwo lubelskie, Poland"/>
    <tag k="is_in:county" v="powiat opolski"/>
    <tag k="is_in:municipality" v="gmina Karczmiska"/>
    <tag k="is_in:province" v="województwo lubelskie"/>
    <tag k="name" v="Wolica"/>
    <tag k="place" v="village"/>
    <tag k="population" v="240"/>
    <tag k="source" v="http://ump.waw.pl/ retrieved 23:59:15 08/30/09 (UMP-Lublin/src/cities-Lublin.pnt-converted.txt)"/>
    <tag k="source:population" v="wikipedia"/>
    <tag k="wikipedia" v="Wolica, Opole Lubelskie County"/>
  </node>
  <node id="482729224" version="1" timestamp="2009-09-03T19:11:37Z" uid="20587" user="balrog-kun" changeset="2363396" lat="51.27225" lon="22.31443">
    <tag k="name" v="Miłocin"/>
    <tag k="place" v="village"/>
    <tag k="source" v="http://ump.waw.pl/ retrieved 23:59:15 08/30/09 (UMP-Lublin/src/cities-Lublin.pnt-converted.txt)"/>
  </node>
  <node id="482729224" version="2" timestamp="2009-09-03T19:39:12Z" uid="20587" user="balrog-kun" changeset="2363702" lat="51.27225" lon="22.31443">
    <tag k="is_in" v="gmina Wojciechów, powiat lubelski, województwo lubelskie, Poland"/>
    <tag k="is_in:county" v="powiat lubelski"/>
    <tag k="is_in:municipality" v="gmina Wojciechów"/>
    <tag k="is_in:province" v="województwo lubelskie"/>
    <tag k="name" v="Miłocin"/>
    <tag k="place" v="village"/>
    <tag k="source" v="http://ump.waw.pl/ retrieved 23:59:15 08/30/09 (UMP-Lublin/src/cities-Lublin.pnt-converted.txt)"/>
    <tag k="wikipedia" v="Miłocin, Gmina Wojciechów"/>
  </node>
  <node id="482729224" version="3" timestamp="2010-04-11T04:50:31Z" uid="20587" user="balrog-kun" changeset="4389130" lat="51.27225" lon="22.31443">
    <tag k="is_in" v="gmina Wojciechów, powiat lubelski, województwo lubelskie, Poland"/>
    <tag k="is_in:county" v="powiat lubelski"/>
    <tag k="is_in:municipality" v="gmina Wojciechów"/>
    <tag k="is_in:province" v="województwo lubelskie"/>
    <tag k="name" v="Miłocin"/>
    <tag k="place" v="village"/>
    <tag k="source" v="http://ump.waw.pl/ retrieved 23:59:15 08/30/09 (UMP-Lublin/src/cities-Lublin.pnt-converted.txt)"/>
    <tag k="wikipedia" v="Miłocin, Gmina Wojciechów"/>
  </node>
  <node id="482729225" version="1" timestamp="2009-09-03T19:11:37Z" uid="20587" user="balrog-kun" changeset="2363396" lat="51.26392" lon="22.2283">
    <tag k="name" v="Nowy Gaj"/>
    <tag k="place" v="village"/>
    <tag k="source" v="http://ump.waw.pl/ retrieved 23:59:15 08/30/09 (UMP-Lublin/src/cities-Lublin.pnt-converted.txt)"/>
  </node>
  <node id="482729225" version="2" timestamp="2009-09-03T19:39:13Z" uid="20587" user="balrog-kun" changeset="2363702" lat="51.26392" lon="22.2283">
    <tag k="addr:postcode" v="24-204"/>
    <tag k="is_in" v="gmina Wojciechów, powiat lubelski, województwo lubelskie, Poland"/>
    <tag k="is_in:county" v="powiat lubelski"/>
    <tag k="is_in:municipality" v="gmina Wojciechów"/>
    <tag k="is_in:province" v="województwo lubelskie"/>
    <tag k="name" v="Nowy Gaj"/>
    <tag k="place" v="village"/>
    <tag k="population" v="60"/>
    <tag k="source" v="http://ump.waw.pl/ retrieved 23:59:15 08/30/09 (UMP-Lublin/src/cities-Lublin.pnt-converted.txt)"/>
    <tag k="source:population" v="wikipedia"/>
    <tag k="wikipedia" v="Nowy Gaj, Lublin Voivodeship"/>
  </node>
  <node id="482729225" version="3" timestamp="2010-04-11T04:50:31Z" uid="20587" user="balrog-kun" changeset="4389130" lat="51.26392" lon="22.2283">
    <tag k="addr:postcode" v="24-204"/>
    <tag k="is_in" v="gmina Wojciechów, powiat lubelski, województwo lubelskie, Poland"/>
    <tag k="is_in:county" v="powiat lubelski"/>
    <tag k="is_in:municipality" v="gmina Wojciechów"/>
    <tag k="is_in:province" v="województwo lubelskie"/>
    <tag k="name" v="Nowy Gaj"/>
    <tag k="place" v="village"/>
    <tag k="population" v="60"/>
    <tag k="source" v="http://ump.waw.pl/ retrieved 23:59:15 08/30/09 (UMP-Lublin/src/cities-Lublin.pnt-converted.txt)"/>
    <tag k="source:population" v="wikipedia"/>
    <tag k="wikipedia" v="Nowy Gaj, Lublin Voivodeship"/>
  </node>
  <node id="482729226" version="1" timestamp="2009-09-03T19:11:37Z" uid="20587" user="balrog-kun" changeset="2363396" lat="51.21195" lon="22.33362">
    <tag k="name" v="Wojcieszyn"/>
    <tag k="place" v="village"/>
    <tag k="source" v="http://ump.waw.pl/ retrieved 23:59:15 08/30/09 (UMP-Lublin/src/cities-Lublin.pnt-converted.txt)"/>
  </node>
  <node id="482729226" version="2" timestamp="2009-09-03T19:39:11Z" uid="20587" user="balrog-kun" changeset="2363702" lat="51.21195" lon="22.33362">
    <tag k="addr:postcode" v="24-200"/>
    <tag k="is_in" v="gmina Bełżyce, powiat lubelski, województwo lubelskie, Poland"/>
    <tag k="is_in:county" v="powiat lubelski"/>
    <tag k="is_in:municipality" v="gmina Bełżyce"/>
    <tag k="is_in:province" v="województwo lubelskie"/>
    <tag k="name" v="Wojcieszyn"/>
    <tag k="place" v="village"/>
    <tag k="source" v="http://ump.waw.pl/ retrieved 23:59:15 08/30/09 (UMP-Lublin/src/cities-Lublin.pnt-converted.txt)"/>
    <tag k="wikipedia" v="Wojcieszyn, Lublin Voivodeship"/>
  </node>
  <node id="482729226" version="3" timestamp="2010-04-11T04:50:31Z" uid="20587" user="balrog-kun" changeset="4389130" lat="51.21195" lon="22.33362">
    <tag k="addr:postcode" v="24-200"/>
    <tag k="is_in" v="gmina Bełżyce, powiat lubelski, województwo lubelskie, Poland"/>
    <tag k="is_in:county" v="powiat lubelski"/>
    <tag k="is_in:municipality" v="gmina Bełżyce"/>
    <tag k="is_in:province" v="województwo lubelskie"/>
    <tag k="name" v="Wojcieszyn"/>
    <tag k="place" v="village"/>
    <tag k="source" v="http://ump.waw.pl/ retrieved 23:59:15 08/30/09 (UMP-Lublin/src/cities-Lublin.pnt-converted.txt)"/>
    <tag k="wikipedia" v="Wojcieszyn, Lublin Voivodeship"/>
  </node>
  <node id="482729227" version="1" timestamp="2009-09-03T19:11:37Z" uid="20587" user="balrog-kun" changeset="2363396" lat="51.2724" lon="22.08038">
    <tag k="name" v="Zaborze"/>
    <tag k="place" v="village"/>
    <tag k="source" v="http://ump.waw.pl/ retrieved 23:59:15 08/30/09 (UMP-Lublin/src/cities-Lublin.pnt-converted.txt)"/>
  </node>
  <node id="482729227" version="2" timestamp="2009-09-03T19:39:08Z" uid="20587" user="balrog-kun" changeset="2363702" lat="51.2724" lon="22.08038">
    <tag k="is_in" v="gmina Karczmiska, powiat opolski, województwo lubelskie, Poland"/>
    <tag k="is_in:county" v="powiat opolski"/>
    <tag k="is_in:municipality" v="gmina Karczmiska"/>
    <tag k="is_in:province" v="województwo lubelskie"/>
    <tag k="name" v="Zaborze"/>
    <tag k="place" v="village"/>
    <tag k="source" v="http://ump.waw.pl/ retrieved 23:59:15 08/30/09 (UMP-Lublin/src/cities-Lublin.pnt-converted.txt)"/>
    <tag k="wikipedia" v="Zaborze, Lublin Voivodeship"/>
  </node>
  <node id="482729227" version="3" timestamp="2010-04-11T04:50:31Z" uid="20587" user="balrog-kun" changeset="4389130" lat="51.2724" lon="22.08038">
    <tag k="is_in" v="gmina Karczmiska, powiat opolski, województwo lubelskie, Poland"/>
    <tag k="is_in:county" v="powiat opolski"/>
    <tag k="is_in:municipality" v="gmina Karczmiska"/>
    <tag k="is_in:province" v="województwo lubelskie"/>
    <tag k="name" v="Zaborze"/>
    <tag k="place" v="village"/>
    <tag k="source" v="http://ump.waw.pl/ retrieved 23:59:15 08/30/09 (UMP-Lublin/src/cities-Lublin.pnt-converted.txt)"/>
    <tag k="wikipedia" v="Zaborze, Lublin Voivodeship"/>
  </node>
  <node id="482729228" version="1" timestamp="2009-09-03T19:11:37Z" uid="20587" user="balrog-kun" changeset="2363396" lat="51.26015" lon="21.87229">
    <tag k="name" v="Wilków"/>
    <tag k="place" v="village"/>
    <tag k="source" v="http://ump.waw.pl/ retrieved 23:59:15 08/30/09 (UMP-Lublin/src/cities-Lublin.pnt-converted.txt)"/>
  </node>
  <node id="482729228" version="2" timestamp="2009-09-03T19:39:05Z" uid="20587" user="balrog-kun" changeset="2363702" lat="51.26015" lon="21.87229">
    <tag k="addr:postcode" v="24-313"/>
    <tag k="is_in" v="gmina Wilków, powiat opolski, województwo lubelskie, Poland"/>
    <tag k="is_in:county" v="powiat opolski"/>
    <tag k="is_in:municipality" v="gmina Wilków"/>
    <tag k="is_in:province" v="województwo lubelskie"/>
    <tag k="name" v="Wilków"/>
    <tag k="place" v="village"/>
    <tag k="population" v="208"/>
    <tag k="source" v="http://ump.waw.pl/ retrieved 23:59:15 08/30/09 (UMP-Lublin/src/cities-Lublin.pnt-converted.txt)"/>
    <tag k="source:population" v="wikipedia"/>
    <tag k="wikipedia" v="Wilków, Opole Lubelskie County"/>
  </node>
  <node id="482729228" version="3" timestamp="2010-04-11T04:50:31Z" uid="20587" user="balrog-kun" changeset="4389130" lat="51.26015" lon="21.87229">
    <tag k="addr:postcode" v="24-313"/>
    <tag k="is_in" v="gmina Wilków, powiat opolski, województwo lubelskie, Poland"/>
    <tag k="is_in:county" v="powiat opolski"/>
    <tag k="is_in:municipality" v="gmina Wilków"/>
    <tag k="is_in:province" v="województwo lubelskie"/>
    <tag k="name" v="Wilków"/>
    <tag k="place" v="village"/>
    <tag k="population" v="208"/>
    <tag k="source" v="http://ump.waw.pl/ retrieved 23:59:15 08/30/09 (UMP-Lublin/src/cities-Lublin.pnt-converted.txt)"/>
    <tag k="source:population" v="wikipedia"/>
    <tag k="wikipedia" v="Wilków, Opole Lubelskie County"/>
  </node>
  <node id="482729236" version="1" timestamp="2009-09-03T19:11:38Z" uid="20587" user="balrog-kun" changeset="2363396" lat="51.2536" lon="22.04345">
    <tag k="name" v="Karczmiska II Kolonia"/>
    <tag k="place" v="village"/>
    <tag k="source" v="http://ump.waw.pl/ retrieved 23:59:15 08/30/09 (UMP-Lublin/src/cities-Lublin.pnt-converted.txt)"/>
  </node>
  <node id="482729236" version="2" timestamp="2010-04-11T04:50:31Z" uid="20587" user="balrog-kun" changeset="4389130" lat="51.2536" lon="22.04345">
    <tag k="alt_name" v="Karczmiska II Kolonia"/>
    <tag k="name" v="Karczmiska Drugie Kolonia"/>
    <tag k="place" v="village"/>
    <tag k="source" v="http://ump.waw.pl/ retrieved 23:59:15 08/30/09 (UMP-Lublin/src/cities-Lublin.pnt-converted.txt)"/>
  </node>
  <node id="482729238" version="1" timestamp="2009-09-03T19:11:38Z" uid="20587" user="balrog-kun" changeset="2363396" lat="51.29332" lon="22.49477">
    <tag k="name" v="Natalin"/>
    <tag k="place" v="village"/>
    <tag k="source" v="http://ump.waw.pl/ retrieved 23:59:15 08/30/09 (UMP-Lublin/src/cities-Lublin.pnt-converted.txt)"/>
  </node>
  <node id="482729238" version="2" timestamp="2009-09-03T19:39:13Z" uid="20587" user="balrog-kun" changeset="2363702" lat="51.29332" lon="22.49477">
    <tag k="addr:postcode" v="21-002"/>
    <tag k="is_in" v="gmina Jastków, powiat lubelski, województwo lubelskie, Poland"/>
    <tag k="is_in:county" v="powiat lubelski"/>
    <tag k="is_in:municipality" v="gmina Jastków"/>
    <tag k="is_in:province" v="województwo lubelskie"/>
    <tag k="name" v="Natalin"/>
    <tag k="place" v="village"/>
    <tag k="source" v="http://ump.waw.pl/ retrieved 23:59:15 08/30/09 (UMP-Lublin/src/cities-Lublin.pnt-converted.txt)"/>
    <tag k="wikipedia" v="Natalin, Lublin County"/>
  </node>
  <node id="482729238" version="3" timestamp="2010-04-11T04:50:31Z" uid="20587" user="balrog-kun" changeset="4389130" lat="51.29332" lon="22.49477">
    <tag k="addr:postcode" v="21-002"/>
    <tag k="is_in" v="gmina Jastków, powiat lubelski, województwo lubelskie, Poland"/>
    <tag k="is_in:county" v="powiat lubelski"/>
    <tag k="is_in:municipality" v="gmina Jastków"/>
    <tag k="is_in:province" v="województwo lubelskie"/>
    <tag k="name" v="Natalin"/>
    <tag k="place" v="village"/>
    <tag k="source" v="http://ump.waw.pl/ retrieved 23:59:15 08/30/09 (UMP-Lublin/src/cities-Lublin.pnt-converted.txt)"/>
    <tag k="wikipedia" v="Natalin, Lublin County"/>
  </node>
  <node id="482729241" version="1" timestamp="2009-09-03T19:11:38Z" uid="20587" user="balrog-kun" changeset="2363396" lat="51.20976" lon="21.83021">
    <tag k="name" v="Grabowiec"/>
    <tag k="place" v="village"/>
    <tag k="source" v="http://ump.waw.pl/ retrieved 23:59:15 08/30/09 (UMP-Lublin/src/cities-Lublin.pnt-converted.txt)"/>
  </node>
  <node id="482729241" version="2" timestamp="2009-09-03T19:39:05Z" uid="20587" user="balrog-kun" changeset="2363702" lat="51.20976" lon="21.83021">
    <tag k="is_in" v="gmina Łaziska, powiat opolski, województwo lubelskie, Poland"/>
    <tag k="is_in:county" v="powiat opolski"/>
    <tag k="is_in:municipality" v="gmina Łaziska"/>
    <tag k="is_in:province" v="województwo lubelskie"/>
    <tag k="name" v="Grabowiec"/>
    <tag k="place" v="village"/>
    <tag k="source" v="http://ump.waw.pl/ retrieved 23:59:15 08/30/09 (UMP-Lublin/src/cities-Lublin.pnt-converted.txt)"/>
    <tag k="wikipedia" v="pl:Grabowiec (powiat opolski)"/>
  </node>
  <node id="482729241" version="3" timestamp="2010-04-11T04:50:31Z" uid="20587" user="balrog-kun" changeset="4389130" lat="51.20976" lon="21.83021">
    <tag k="is_in" v="gmina Łaziska, powiat opolski, województwo lubelskie, Poland"/>
    <tag k="is_in:county" v="powiat opolski"/>
    <tag k="is_in:municipality" v="gmina Łaziska"/>
    <tag k="is_in:province" v="województwo lubelskie"/>
    <tag k="name" v="Grabowiec"/>
    <tag k="place" v="village"/>
    <tag k="source" v="http://ump.waw.pl/ retrieved 23:59:15 08/30/09 (UMP-Lublin/src/cities-Lublin.pnt-converted.txt)"/>
    <tag k="wikipedia" v="pl:Grabowiec (powiat opolski)"/>
  </node>
  <node id="482729242" version="1" timestamp="2009-09-03T19:11:38Z" uid="20587" user="balrog-kun" changeset="2363396" lat="51.26697" lon="22.63587">
    <tag k="name" v="Wolka"/>
    <tag k="place" v="village"/>
    <tag k="source" v="http://ump.waw.pl/ retrieved 23:59:15 08/30/09 (UMP-Lublin/src/cities-Lublin.pnt-converted.txt)"/>
  </node>
  <node id="482729242" version="2" timestamp="2009-09-03T19:39:11Z" uid="20587" user="balrog-kun" changeset="2363702" lat="51.26697" lon="22.63587">
    <tag k="addr:postcode" v="20-258"/>
    <tag k="is_in" v="gmina Wólka, powiat lubelski, województwo lubelskie, Poland"/>
    <tag k="is_in:county" v="powiat lubelski"/>
    <tag k="is_in:municipality" v="gmina Wólka"/>
    <tag k="is_in:province" v="województwo lubelskie"/>
    <tag k="name" v="Wolka"/>
    <tag k="place" v="village"/>
    <tag k="source" v="http://ump.waw.pl/ retrieved 23:59:15 08/30/09 (UMP-Lublin/src/cities-Lublin.pnt-converted.txt)"/>
    <tag k="wikipedia" v="Wólka, Lublin County"/>
  </node>
  <node id="482729242" version="4" timestamp="2010-04-11T04:50:31Z" uid="20587" user="balrog-kun" changeset="4389130" lat="51.264745" lon="22.6367199">
    <tag k="addr:postcode" v="20-258"/>
    <tag k="is_in" v="gmina Wólka, powiat lubelski, województwo lubelskie, Poland"/>
    <tag k="is_in:county" v="powiat lubelski"/>
    <tag k="is_in:municipality" v="gmina Wólka"/>
    <tag k="is_in:province" v="województwo lubelskie"/>
    <tag k="name" v="Wólka"/>
    <tag k="place" v="village"/>
    <tag k="source" v="http://ump.waw.pl/ retrieved 23:59:15 08/30/09 (UMP-Lublin/src/cities-Lublin.pnt-converted.txt)"/>
    <tag k="wikipedia" v="Wólka, Lublin County"/>
  </node>
  <node id="482729242" version="5" timestamp="2010-04-11T13:15:42Z" uid="20587" user="balrog-kun" changeset="4392352" lat="51.2637914" lon="22.6370841">
    <tag k="addr:postcode" v="20-258"/>
    <tag k="is_in" v="gmina Wólka, powiat lubelski, województwo lubelskie, Poland"/>
    <tag k="is_in:county" v="powiat lubelski"/>
    <tag k="is_in:municipality" v="gmina Wólka"/>
    <tag k="is_in:province" v="województwo lubelskie"/>
    <tag k="name" v="Wólka"/>
    <tag k="place" v="village"/>
    <tag k="source" v="http://ump.waw.pl/ retrieved 23:59:15 08/30/09 (UMP-Lublin/src/cities-Lublin.pnt-converted.txt)"/>
    <tag k="wikipedia" v="Wólka, Lublin County"/>
  </node>
  <node id="482729243" version="1" timestamp="2009-09-03T19:11:38Z" uid="20587" user="balrog-kun" changeset="2363396" lat="51.24901" lon="21.91958">
    <tag k="name" v="Wólka Polanowska"/>
    <tag k="place" v="village"/>
    <tag k="source" v="http://ump.waw.pl/ retrieved 23:59:15 08/30/09 (UMP-Lublin/src/cities-Lublin.pnt-converted.txt)"/>
  </node>
  <node id="482729243" version="2" timestamp="2009-09-03T19:39:13Z" uid="20587" user="balrog-kun" changeset="2363702" lat="51.24901" lon="21.91958">
    <tag k="is_in" v="gmina Wilków, powiat opolski, województwo lubelskie, Poland"/>
    <tag k="is_in:county" v="powiat opolski"/>
    <tag k="is_in:municipality" v="gmina Wilków"/>
    <tag k="is_in:province" v="województwo lubelskie"/>
    <tag k="name" v="Wólka Polanowska"/>
    <tag k="place" v="village"/>
    <tag k="source" v="http://ump.waw.pl/ retrieved 23:59:15 08/30/09 (UMP-Lublin/src/cities-Lublin.pnt-converted.txt)"/>
    <tag k="wikipedia" v="Wólka Polanowska"/>
  </node>
  <node id="482729243" version="3" timestamp="2010-04-11T04:50:31Z" uid="20587" user="balrog-kun" changeset="4389130" lat="51.24901" lon="21.91958">
    <tag k="is_in" v="gmina Wilków, powiat opolski, województwo lubelskie, Poland"/>
    <tag k="is_in:county" v="powiat opolski"/>
    <tag k="is_in:municipality" v="gmina Wilków"/>
    <tag k="is_in:province" v="województwo lubelskie"/>
    <tag k="name" v="Wólka Polanowska"/>
    <tag k="place" v="village"/>
    <tag k="source" v="http://ump.waw.pl/ retrieved 23:59:15 08/30/09 (UMP-Lublin/src/cities-Lublin.pnt-converted.txt)"/>
    <tag k="wikipedia" v="Wólka Polanowska"/>
  </node>
  <node id="482729243" version="4" timestamp="2010-04-27T04:18:52Z" uid="30632" user="antblant" changeset="4537909" lat="51.24901" lon="21.91958">
    <tag k="is_in" v="gmina Wilków, powiat opolski, województwo lubelskie, Poland"/>
    <tag k="is_in:county" v="powiat opolski"/>
    <tag k="is_in:municipality" v="gmina Wilków"/>
    <tag k="is_in:province" v="województwo lubelskie"/>
    <tag k="name" v="Wólka Polanowska"/>
    <tag k="place" v="village"/>
    <tag k="source" v="http://ump.waw.pl/ retrieved 23:59:15 08/30/09 (UMP-Lublin/src/cities-Lublin.pnt-converted.txt)"/>
    <tag k="teryt:simc" v="0393577"/>
    <tag k="wikipedia" v="Wólka Polanowska"/>
  </node>
  <node id="482729245" version="1" timestamp="2009-09-03T19:11:38Z" uid="20587" user="balrog-kun" changeset="2363396" lat="51.21936" lon="22.07593">
    <tag k="name" v="Kowala Pierwsza"/>
    <tag k="place" v="village"/>
    <tag k="source" v="http://ump.waw.pl/ retrieved 23:59:15 08/30/09 (UMP-Lublin/src/cities-Lublin.pnt-converted.txt)"/>
  </node>
  <node id="482729245" version="2" timestamp="2009-09-03T19:39:08Z" uid="20587" user="balrog-kun" changeset="2363702" lat="51.21936" lon="22.07593">
    <tag k="addr:postcode" v="24-320"/>
    <tag k="is_in" v="gmina Poniatowa, powiat opolski, województwo lubelskie, Poland"/>
    <tag k="is_in:county" v="powiat opolski"/>
    <tag k="is_in:municipality" v="gmina Poniatowa"/>
    <tag k="is_in:province" v="województwo lubelskie"/>
    <tag k="name" v="Kowala Pierwsza"/>
    <tag k="place" v="village"/>
    <tag k="source" v="http://ump.waw.pl/ retrieved 23:59:15 08/30/09 (UMP-Lublin/src/cities-Lublin.pnt-converted.txt)"/>
    <tag k="wikipedia" v="Kowala Pierwsza"/>
  </node>
  <node id="482729245" version="3" timestamp="2010-04-11T04:50:31Z" uid="20587" user="balrog-kun" changeset="4389130" lat="51.21936" lon="22.07593">
    <tag k="addr:postcode" v="24-320"/>
    <tag k="is_in" v="gmina Poniatowa, powiat opolski, województwo lubelskie, Poland"/>
    <tag k="is_in:county" v="powiat opolski"/>
    <tag k="is_in:municipality" v="gmina Poniatowa"/>
    <tag k="is_in:province" v="województwo lubelskie"/>
    <tag k="name" v="Kowala Pierwsza"/>
    <tag k="place" v="village"/>
    <tag k="source" v="http://ump.waw.pl/ retrieved 23:59:15 08/30/09 (UMP-Lublin/src/cities-Lublin.pnt-converted.txt)"/>
    <tag k="wikipedia" v="Kowala Pierwsza"/>
  </node>
  <node id="482729245" version="4" timestamp="2010-04-27T04:18:52Z" uid="30632" user="antblant" changeset="4537909" lat="51.21936" lon="22.07593">
    <tag k="addr:postcode" v="24-320"/>
    <tag k="is_in" v="gmina Poniatowa, powiat opolski, województwo lubelskie, Poland"/>
    <tag k="is_in:county" v="powiat opolski"/>
    <tag k="is_in:municipality" v="gmina Poniatowa"/>
    <tag k="is_in:province" v="województwo lubelskie"/>
    <tag k="name" v="Kowala Pierwsza"/>
    <tag k="place" v="village"/>
    <tag k="source" v="http://ump.waw.pl/ retrieved 23:59:15 08/30/09 (UMP-Lublin/src/cities-Lublin.pnt-converted.txt)"/>
    <tag k="teryt:simc" v="0389529"/>
    <tag k="wikipedia" v="Kowala Pierwsza"/>
  </node>
  <node id="482729248" version="1" timestamp="2009-09-03T19:11:38Z" uid="20587" user="balrog-kun" changeset="2363396" lat="51.21096" lon="21.98348">
    <tag k="name" v="Górki"/>
    <tag k="place" v="village"/>
    <tag k="source" v="http://ump.waw.pl/ retrieved 23:59:15 08/30/09 (UMP-Lublin/src/cities-Lublin.pnt-converted.txt)"/>
  </node>
  <node id="482729248" version="2" timestamp="2009-09-03T19:39:07Z" uid="20587" user="balrog-kun" changeset="2363702" lat="51.21096" lon="21.98348">
    <tag k="is_in" v="gmina Karczmiska, powiat opolski, województwo lubelskie, Poland"/>
    <tag k="is_in:county" v="powiat opolski"/>
    <tag k="is_in:municipality" v="gmina Karczmiska"/>
    <tag k="is_in:province" v="województwo lubelskie"/>
    <tag k="name" v="Górki"/>
    <tag k="place" v="village"/>
    <tag k="source" v="http://ump.waw.pl/ retrieved 23:59:15 08/30/09 (UMP-Lublin/src/cities-Lublin.pnt-converted.txt)"/>
    <tag k="wikipedia" v="pl:Górki (gmina Karczmiska)"/>
  </node>
  <node id="482729248" version="3" timestamp="2010-04-11T04:50:32Z" uid="20587" user="balrog-kun" changeset="4389130" lat="51.21096" lon="21.98348">
    <tag k="is_in" v="gmina Karczmiska, powiat opolski, województwo lubelskie, Poland"/>
    <tag k="is_in:county" v="powiat opolski"/>
    <tag k="is_in:municipality" v="gmina Karczmiska"/>
    <tag k="is_in:province" v="województwo lubelskie"/>
    <tag k="name" v="Górki"/>
    <tag k="place" v="village"/>
    <tag k="source" v="http://ump.waw.pl/ retrieved 23:59:15 08/30/09 (UMP-Lublin/src/cities-Lublin.pnt-converted.txt)"/>
    <tag k="wikipedia" v="pl:Górki (gmina Karczmiska)"/>
  </node>
  <node id="482729249" version="1" timestamp="2009-09-03T19:11:38Z" uid="20587" user="balrog-kun" changeset="2363396" lat="51.32237" lon="22.23448">
    <tag k="name" v="Piotrowice"/>
    <tag k="place" v="village"/>
    <tag k="source" v="http://ump.waw.pl/ retrieved 23:59:15 08/30/09 (UMP-Lublin/src/cities-Lublin.pnt-converted.txt)"/>
  </node>
  <node id="482729249" version="2" timestamp="2009-09-03T19:39:12Z" uid="20587" user="balrog-kun" changeset="2363702" lat="51.32237" lon="22.23448">
    <tag k="addr:postcode" v="23-107"/>
    <tag k="is_in" v="gmina Strzyżewice, powiat lubelski, województwo lubelskie, Poland"/>
    <tag k="is_in:county" v="powiat lubelski"/>
    <tag k="is_in:municipality" v="gmina Strzyżewice"/>
    <tag k="is_in:province" v="województwo lubelskie"/>
    <tag k="name" v="Piotrowice"/>
    <tag k="place" v="village"/>
    <tag k="population" v="1093"/>
    <tag k="source" v="http://ump.waw.pl/ retrieved 23:59:15 08/30/09 (UMP-Lublin/src/cities-Lublin.pnt-converted.txt)"/>
    <tag k="source:population" v="wikipedia"/>
    <tag k="wikipedia" v="Piotrowice, Lublin County"/>
  </node>
  <node id="482729249" version="3" timestamp="2010-04-11T04:50:32Z" uid="20587" user="balrog-kun" changeset="4389130" lat="51.32237" lon="22.23448">
    <tag k="addr:postcode" v="23-107"/>
    <tag k="is_in" v="gmina Strzyżewice, powiat lubelski, województwo lubelskie, Poland"/>
    <tag k="is_in:county" v="powiat lubelski"/>
    <tag k="is_in:municipality" v="gmina Strzyżewice"/>
    <tag k="is_in:province" v="województwo lubelskie"/>
    <tag k="name" v="Piotrowice"/>
    <tag k="place" v="village"/>
    <tag k="population" v="1093"/>
    <tag k="source" v="http://ump.waw.pl/ retrieved 23:59:15 08/30/09 (UMP-Lublin/src/cities-Lublin.pnt-converted.txt)"/>
    <tag k="source:population" v="wikipedia"/>
    <tag k="wikipedia" v="Piotrowice, Lublin County"/>
  </node>
  <node id="482729250" version="1" timestamp="2009-09-03T19:11:38Z" uid="20587" user="balrog-kun" changeset="2363396" lat="51.31269" lon="21.91733">
    <tag k="name" v="Albrechtówka"/>
    <tag k="place" v="village"/>
    <tag k="source" v="http://ump.waw.pl/ retrieved 23:59:15 08/30/09 (UMP-Lublin/src/cities-Lublin.pnt-converted.txt)"/>
  </node>
  <node id="482729250" version="2" timestamp="2010-04-11T04:50:32Z" uid="20587" user="balrog-kun" changeset="4389130" lat="51.31269" lon="21.91733">
    <tag k="name" v="Albrechtówka"/>
    <tag k="place" v="village"/>
    <tag k="source" v="http://ump.waw.pl/ retrieved 23:59:15 08/30/09 (UMP-Lublin/src/cities-Lublin.pnt-converted.txt)"/>
  </node>
  <node id="482729251" version="1" timestamp="2009-09-03T19:11:38Z" uid="20587" user="balrog-kun" changeset="2363396" lat="51.2362" lon="21.83763">
    <tag k="name" v="Szkuciska"/>
    <tag k="place" v="village"/>
    <tag k="source" v="http://ump.waw.pl/ retrieved 23:59:15 08/30/09 (UMP-Lublin/src/cities-Lublin.pnt-converted.txt)"/>
  </node>
  <node id="482729251" version="2" timestamp="2009-09-03T19:39:08Z" uid="20587" user="balrog-kun" changeset="2363702" lat="51.2362" lon="21.83763">
    <tag k="addr:postcode" v="24-313"/>
    <tag k="is_in" v="gmina Wilków, powiat opolski, województwo lubelskie, Poland"/>
    <tag k="is_in:county" v="powiat opolski"/>
    <tag k="is_in:municipality" v="gmina Wilków"/>
    <tag k="is_in:province" v="województwo lubelskie"/>
    <tag k="name" v="Szkuciska"/>
    <tag k="place" v="village"/>
    <tag k="population" v="36"/>
    <tag k="source" v="http://ump.waw.pl/ retrieved 23:59:15 08/30/09 (UMP-Lublin/src/cities-Lublin.pnt-converted.txt)"/>
    <tag k="source:population" v="wikipedia"/>
    <tag k="wikipedia" v="Szkuciska"/>
  </node>
  <node id="482729251" version="3" timestamp="2010-04-11T04:50:32Z" uid="20587" user="balrog-kun" changeset="4389130" lat="51.2362" lon="21.83763">
    <tag k="addr:postcode" v="24-313"/>
    <tag k="is_in" v="gmina Wilków, powiat opolski, województwo lubelskie, Poland"/>
    <tag k="is_in:county" v="powiat opolski"/>
    <tag k="is_in:municipality" v="gmina Wilków"/>
    <tag k="is_in:province" v="województwo lubelskie"/>
    <tag k="name" v="Szkuciska"/>
    <tag k="place" v="village"/>
    <tag k="population" v="36"/>
    <tag k="source" v="http://ump.waw.pl/ retrieved 23:59:15 08/30/09 (UMP-Lublin/src/cities-Lublin.pnt-converted.txt)"/>
    <tag k="source:population" v="wikipedia"/>
    <tag k="wikipedia" v="Szkuciska"/>
  </node>
  <node id="482729251" version="4" timestamp="2010-04-27T04:09:19Z" uid="30632" user="antblant" changeset="4537879" lat="51.2362" lon="21.83763">
    <tag k="addr:postcode" v="24-313"/>
    <tag k="is_in" v="gmina Wilków, powiat opolski, województwo lubelskie, Poland"/>
    <tag k="is_in:county" v="powiat opolski"/>
    <tag k="is_in:municipality" v="gmina Wilków"/>
    <tag k="is_in:province" v="województwo lubelskie"/>
    <tag k="name" v="Szkuciska"/>
    <tag k="place" v="village"/>
    <tag k="population" v="36"/>
    <tag k="source" v="http://ump.waw.pl/ retrieved 23:59:15 08/30/09 (UMP-Lublin/src/cities-Lublin.pnt-converted.txt)"/>
    <tag k="source:population" v="wikipedia"/>
    <tag k="teryt:simc" v="0393531"/>
    <tag k="wikipedia" v="Szkuciska"/>
  </node>
  <node id="482729252" version="1" timestamp="2009-09-03T19:11:38Z" uid="20587" user="balrog-kun" changeset="2363396" lat="51.19886" lon="22.36782">
    <tag k="name" v="Pawlin"/>
    <tag k="place" v="village"/>
    <tag k="source" v="http://ump.waw.pl/ retrieved 23:59:15 08/30/09 (UMP-Lublin/src/cities-Lublin.pnt-converted.txt)"/>
  </node>
  <node id="482729252" version="2" timestamp="2009-09-03T19:39:08Z" uid="20587" user="balrog-kun" changeset="2363702" lat="51.19886" lon="22.36782">
    <tag k="addr:postcode" v="21-030"/>
    <tag k="is_in" v="gmina Konopnica, powiat lubelski, województwo lubelskie, Poland"/>
    <tag k="is_in:county" v="powiat lubelski"/>
    <tag k="is_in:municipality" v="gmina Konopnica"/>
    <tag k="is_in:province" v="województwo lubelskie"/>
    <tag k="name" v="Pawlin"/>
    <tag k="place" v="village"/>
    <tag k="population" v="232"/>
    <tag k="source" v="http://ump.waw.pl/ retrieved 23:59:15 08/30/09 (UMP-Lublin/src/cities-Lublin.pnt-converted.txt)"/>
    <tag k="source:population" v="wikipedia"/>
    <tag k="wikipedia" v="Pawlin"/>
  </node>
  <node id="482729252" version="3" timestamp="2010-04-11T04:50:32Z" uid="20587" user="balrog-kun" changeset="4389130" lat="51.19886" lon="22.36782">
    <tag k="addr:postcode" v="21-030"/>
    <tag k="is_in" v="gmina Konopnica, powiat lubelski, województwo lubelskie, Poland"/>
    <tag k="is_in:county" v="powiat lubelski"/>
    <tag k="is_in:municipality" v="gmina Konopnica"/>
    <tag k="is_in:province" v="województwo lubelskie"/>
    <tag k="name" v="Pawlin"/>
    <tag k="place" v="village"/>
    <tag k="population" v="232"/>
    <tag k="source" v="http://ump.waw.pl/ retrieved 23:59:15 08/30/09 (UMP-Lublin/src/cities-Lublin.pnt-converted.txt)"/>
    <tag k="source:population" v="wikipedia"/>
    <tag k="wikipedia" v="Pawlin"/>
  </node>
  <node id="482729252" version="4" timestamp="2010-04-27T04:09:18Z" uid="30632" user="antblant" changeset="4537879" lat="51.19886" lon="22.36782">
    <tag k="addr:postcode" v="21-030"/>
    <tag k="is_in" v="gmina Konopnica, powiat lubelski, województwo lubelskie, Poland"/>
    <tag k="is_in:county" v="powiat lubelski"/>
    <tag k="is_in:municipality" v="gmina Konopnica"/>
    <tag k="is_in:province" v="województwo lubelskie"/>
    <tag k="name" v="Pawlin"/>
    <tag k="place" v="village"/>
    <tag k="population" v="232"/>
    <tag k="source" v="http://ump.waw.pl/ retrieved 23:59:15 08/30/09 (UMP-Lublin/src/cities-Lublin.pnt-converted.txt)"/>
    <tag k="source:population" v="wikipedia"/>
    <tag k="teryt:simc" v="0383490"/>
    <tag k="wikipedia" v="Pawlin"/>
  </node>
  <node id="482729253" version="1" timestamp="2009-09-03T19:11:38Z" uid="20587" user="balrog-kun" changeset="2363396" lat="51.27049" lon="22.46133">
    <tag k="name" v="Dąbrowica"/>
    <tag k="place" v="village"/>
    <tag k="source" v="http://ump.waw.pl/ retrieved 23:59:15 08/30/09 (UMP-Lublin/src/cities-Lublin.pnt-converted.txt)"/>
  </node>
  <node id="482729253" version="2" timestamp="2009-09-03T19:39:09Z" uid="20587" user="balrog-kun" changeset="2363702" lat="51.27049" lon="22.46133">
    <tag k="addr:postcode" v="21-008"/>
    <tag k="is_in" v="gmina Jastków, powiat lubelski, województwo lubelskie, Poland"/>
    <tag k="is_in:county" v="powiat lubelski"/>
    <tag k="is_in:municipality" v="gmina Jastków"/>
    <tag k="is_in:province" v="województwo lubelskie"/>
    <tag k="name" v="Dąbrowica"/>
    <tag k="place" v="village"/>
    <tag k="population" v="1095"/>
    <tag k="source" v="http://ump.waw.pl/ retrieved 23:59:15 08/30/09 (UMP-Lublin/src/cities-Lublin.pnt-converted.txt)"/>
    <tag k="source:population" v="wikipedia"/>
    <tag k="wikipedia" v="Dąbrowica, Lublin County"/>
  </node>
  <node id="482729253" version="3" timestamp="2010-04-11T04:50:32Z" uid="20587" user="balrog-kun" changeset="4389130" lat="51.27049" lon="22.46133">
    <tag k="addr:postcode" v="21-008"/>
    <tag k="is_in" v="gmina Jastków, powiat lubelski, województwo lubelskie, Poland"/>
    <tag k="is_in:county" v="powiat lubelski"/>
    <tag k="is_in:municipality" v="gmina Jastków"/>
    <tag k="is_in:province" v="województwo lubelskie"/>
    <tag k="name" v="Dąbrowica"/>
    <tag k="place" v="village"/>
    <tag k="population" v="1095"/>
    <tag k="source" v="http://ump.waw.pl/ retrieved 23:59:15 08/30/09 (UMP-Lublin/src/cities-Lublin.pnt-converted.txt)"/>
    <tag k="source:population" v="wikipedia"/>
    <tag k="wikipedia" v="Dąbrowica, Lublin County"/>
  </node>
  <node id="482729254" version="1" timestamp="2009-09-03T19:11:38Z" uid="20587" user="balrog-kun" changeset="2363396" lat="51.25993" lon="21.95652">
    <tag k="name" v="Rogów"/>
    <tag k="place" v="village"/>
    <tag k="source" v="http://ump.waw.pl/ retrieved 23:59:15 08/30/09 (UMP-Lublin/src/cities-Lublin.pnt-converted.txt)"/>
  </node>
  <node id="482729254" version="2" timestamp="2009-09-03T19:39:06Z" uid="20587" user="balrog-kun" changeset="2363702" lat="51.25993" lon="21.95652">
    <tag k="is_in" v="gmina Wilków, powiat opolski, województwo lubelskie, Poland"/>
    <tag k="is_in:county" v="powiat opolski"/>
    <tag k="is_in:municipality" v="gmina Wilków"/>
    <tag k="is_in:province" v="województwo lubelskie"/>
    <tag k="name" v="Rogów"/>
    <tag k="place" v="village"/>
    <tag k="source" v="http://ump.waw.pl/ retrieved 23:59:15 08/30/09 (UMP-Lublin/src/cities-Lublin.pnt-converted.txt)"/>
    <tag k="wikipedia" v="Rogów, Opole Lubelskie County"/>
  </node>
  <node id="482729254" version="3" timestamp="2010-04-11T04:50:32Z" uid="20587" user="balrog-kun" changeset="4389130" lat="51.25993" lon="21.95652">
    <tag k="is_in" v="gmina Wilków, powiat opolski, województwo lubelskie, Poland"/>
    <tag k="is_in:county" v="powiat opolski"/>
    <tag k="is_in:municipality" v="gmina Wilków"/>
    <tag k="is_in:province" v="województwo lubelskie"/>
    <tag k="name" v="Rogów"/>
    <tag k="place" v="village"/>
    <tag k="source" v="http://ump.waw.pl/ retrieved 23:59:15 08/30/09 (UMP-Lublin/src/cities-Lublin.pnt-converted.txt)"/>
    <tag k="wikipedia" v="Rogów, Opole Lubelskie County"/>
  </node>
  <node id="482729255" version="1" timestamp="2009-09-03T19:11:39Z" uid="20587" user="balrog-kun" changeset="2363396" lat="51.22359" lon="21.85273">
    <tag k="name" v="Rybaki"/>
    <tag k="place" v="village"/>
    <tag k="source" v="http://ump.waw.pl/ retrieved 23:59:15 08/30/09 (UMP-Lublin/src/cities-Lublin.pnt-converted.txt)"/>
  </node>
  <node id="482729255" version="2" timestamp="2009-09-03T19:39:11Z" uid="20587" user="balrog-kun" changeset="2363702" lat="51.22359" lon="21.85273">
    <tag k="is_in" v="gmina Wilków, powiat opolski, województwo lubelskie, Poland"/>
    <tag k="is_in:county" v="powiat opolski"/>
    <tag k="is_in:municipality" v="gmina Wilków"/>
    <tag k="is_in:province" v="województwo lubelskie"/>
    <tag k="name" v="Rybaki"/>
    <tag k="place" v="village"/>
    <tag k="source" v="http://ump.waw.pl/ retrieved 23:59:15 08/30/09 (UMP-Lublin/src/cities-Lublin.pnt-converted.txt)"/>
    <tag k="wikipedia" v="Rybaki, Opole Lubelskie County"/>
  </node>
  <node id="482729255" version="3" timestamp="2010-04-11T04:50:32Z" uid="20587" user="balrog-kun" changeset="4389130" lat="51.22359" lon="21.85273">
    <tag k="is_in" v="gmina Wilków, powiat opolski, województwo lubelskie, Poland"/>
    <tag k="is_in:county" v="powiat opolski"/>
    <tag k="is_in:municipality" v="gmina Wilków"/>
    <tag k="is_in:province" v="województwo lubelskie"/>
    <tag k="name" v="Rybaki"/>
    <tag k="place" v="village"/>
    <tag k="source" v="http://ump.waw.pl/ retrieved 23:59:15 08/30/09 (UMP-Lublin/src/cities-Lublin.pnt-converted.txt)"/>
    <tag k="wikipedia" v="Rybaki, Opole Lubelskie County"/>
  </node>
  <node id="482729257" version="1" timestamp="2009-09-03T19:11:39Z" uid="20587" user="balrog-kun" changeset="2363396" lat="51.31205" lon="22.10267">
    <tag k="name" v="Zawada"/>
    <tag k="place" v="village"/>
    <tag k="source" v="http://ump.waw.pl/ retrieved 23:59:15 08/30/09 (UMP-Lublin/src/cities-Lublin.pnt-converted.txt)"/>
  </node>
  <node id="482729257" version="2" timestamp="2009-09-03T19:39:13Z" uid="20587" user="balrog-kun" changeset="2363702" lat="51.31205" lon="22.10267">
    <tag k="is_in" v="gmina Wąwolnica, powiat puławski, województwo lubelskie, Poland"/>
    <tag k="is_in:county" v="powiat puławski"/>
    <tag k="is_in:municipality" v="gmina Wąwolnica"/>
    <tag k="is_in:province" v="województwo lubelskie"/>
    <tag k="name" v="Zawada"/>
    <tag k="place" v="village"/>
    <tag k="source" v="http://ump.waw.pl/ retrieved 23:59:15 08/30/09 (UMP-Lublin/src/cities-Lublin.pnt-converted.txt)"/>
    <tag k="wikipedia" v="Zawada, Puławy County"/>
  </node>
  <node id="482729257" version="3" timestamp="2010-04-11T04:50:32Z" uid="20587" user="balrog-kun" changeset="4389130" lat="51.31205" lon="22.10267">
    <tag k="is_in" v="gmina Wąwolnica, powiat puławski, województwo lubelskie, Poland"/>
    <tag k="is_in:county" v="powiat puławski"/>
    <tag k="is_in:municipality" v="gmina Wąwolnica"/>
    <tag k="is_in:province" v="województwo lubelskie"/>
    <tag k="name" v="Zawada"/>
    <tag k="place" v="village"/>
    <tag k="source" v="http://ump.waw.pl/ retrieved 23:59:15 08/30/09 (UMP-Lublin/src/cities-Lublin.pnt-converted.txt)"/>
    <tag k="wikipedia" v="Zawada, Puławy County"/>
  </node>
  <node id="482729259" version="1" timestamp="2009-09-03T19:11:39Z" uid="20587" user="balrog-kun" changeset="2363396" lat="51.26544" lon="21.98186">
    <tag k="name" v="Jaworce"/>
    <tag k="place" v="village"/>
    <tag k="source" v="http://ump.waw.pl/ retrieved 23:59:15 08/30/09 (UMP-Lublin/src/cities-Lublin.pnt-converted.txt)"/>
  </node>
  <node id="482729259" version="2" timestamp="2010-04-11T04:50:32Z" uid="20587" user="balrog-kun" changeset="4389130" lat="51.26544" lon="21.98186">
    <tag k="name" v="Jaworce"/>
    <tag k="place" v="village"/>
    <tag k="source" v="http://ump.waw.pl/ retrieved 23:59:15 08/30/09 (UMP-Lublin/src/cities-Lublin.pnt-converted.txt)"/>
  </node>
  <node id="482729259" version="3" timestamp="2010-04-27T04:06:11Z" uid="30632" user="antblant" changeset="4537871" lat="51.26544" lon="21.98186">
    <tag k="name" v="Jaworce"/>
    <tag k="place" v="village"/>
    <tag k="source" v="http://ump.waw.pl/ retrieved 23:59:15 08/30/09 (UMP-Lublin/src/cities-Lublin.pnt-converted.txt)"/>
    <tag k="teryt:simc" v="0382817"/>
  </node>
  <node id="482729262" version="1" timestamp="2009-09-03T19:11:39Z" uid="20587" user="balrog-kun" changeset="2363396" lat="51.2948" lon="22.15779">
    <tag k="name" v="Zarzeka"/>
    <tag k="place" v="village"/>
    <tag k="source" v="http://ump.waw.pl/ retrieved 23:59:15 08/30/09 (UMP-Lublin/src/cities-Lublin.pnt-converted.txt)"/>
  </node>
  <node id="482729262" version="2" timestamp="2009-09-03T19:39:14Z" uid="20587" user="balrog-kun" changeset="2363702" lat="51.2948" lon="22.15779">
    <tag k="addr:postcode" v="24-160"/>
    <tag k="is_in" v="gmina Wąwolnica, powiat puławski, województwo lubelskie, Poland"/>
    <tag k="is_in:county" v="powiat puławski"/>
    <tag k="is_in:municipality" v="gmina Wąwolnica"/>
    <tag k="is_in:province" v="województwo lubelskie"/>
    <tag k="name" v="Zarzeka"/>
    <tag k="place" v="village"/>
    <tag k="source" v="http://ump.waw.pl/ retrieved 23:59:15 08/30/09 (UMP-Lublin/src/cities-Lublin.pnt-converted.txt)"/>
    <tag k="wikipedia" v="Zarzeka"/>
  </node>
  <node id="482729262" version="3" timestamp="2010-04-11T04:50:32Z" uid="20587" user="balrog-kun" changeset="4389130" lat="51.2948" lon="22.15779">
    <tag k="addr:postcode" v="24-160"/>
    <tag k="is_in" v="gmina Wąwolnica, powiat puławski, województwo lubelskie, Poland"/>
    <tag k="is_in:county" v="powiat puławski"/>
    <tag k="is_in:municipality" v="gmina Wąwolnica"/>
    <tag k="is_in:province" v="województwo lubelskie"/>
    <tag k="name" v="Zarzeka"/>
    <tag k="place" v="village"/>
    <tag k="source" v="http://ump.waw.pl/ retrieved 23:59:15 08/30/09 (UMP-Lublin/src/cities-Lublin.pnt-converted.txt)"/>
    <tag k="wikipedia" v="Zarzeka"/>
  </node>
  <node id="482729264" version="1" timestamp="2009-09-03T19:11:39Z" uid="20587" user="balrog-kun" changeset="2363396" lat="51.28249" lon="22.43395">
    <tag k="name" v="Kopanina"/>
    <tag k="place" v="village"/>
    <tag k="source" v="http://ump.waw.pl/ retrieved 23:59:15 08/30/09 (UMP-Lublin/src/cities-Lublin.pnt-converted.txt)"/>
  </node>
  <node id="482729264" version="2" timestamp="2010-04-11T04:50:32Z" uid="20587" user="balrog-kun" changeset="4389130" lat="51.28249" lon="22.43395">
    <tag k="name" v="Kopanina"/>
    <tag k="place" v="village"/>
    <tag k="source" v="http://ump.waw.pl/ retrieved 23:59:15 08/30/09 (UMP-Lublin/src/cities-Lublin.pnt-converted.txt)"/>
  </node>
  <node id="482729266" version="1" timestamp="2009-09-03T19:11:39Z" uid="20587" user="balrog-kun" changeset="2363396" lat="51.25984" lon="22.50225">
    <tag k="name" v="Wola Sławińska"/>
    <tag k="place" v="village"/>
    <tag k="source" v="http://ump.waw.pl/ retrieved 23:59:15 08/30/09 (UMP-Lublin/src/cities-Lublin.pnt-converted.txt)"/>
  </node>
  <node id="482729266" version="2" timestamp="2010-04-11T04:50:32Z" uid="20587" user="balrog-kun" changeset="4389130" lat="51.25984" lon="22.50225">
    <tag k="name" v="Wola Sławińska"/>
    <tag k="place" v="village"/>
    <tag k="source" v="http://ump.waw.pl/ retrieved 23:59:15 08/30/09 (UMP-Lublin/src/cities-Lublin.pnt-converted.txt)"/>
  </node>
  <node id="482729268" version="1" timestamp="2009-09-03T19:11:39Z" uid="20587" user="balrog-kun" changeset="2363396" lat="51.26482" lon="22.1384">
    <tag k="name" v="Wąwolnica Kolonia"/>
    <tag k="place" v="village"/>
    <tag k="source" v="http://ump.waw.pl/ retrieved 23:59:15 08/30/09 (UMP-Lublin/src/cities-Lublin.pnt-converted.txt)"/>
  </node>
  <node id="482729268" version="2" timestamp="2010-04-11T04:50:33Z" uid="20587" user="balrog-kun" changeset="4389130" lat="51.26482" lon="22.1384">
    <tag k="name" v="Wąwolnica Kolonia"/>
    <tag k="place" v="village"/>
    <tag k="source" v="http://ump.waw.pl/ retrieved 23:59:15 08/30/09 (UMP-Lublin/src/cities-Lublin.pnt-converted.txt)"/>
  </node>
  <node id="482729270" version="1" timestamp="2009-09-03T19:11:39Z" uid="20587" user="balrog-kun" changeset="2363396" lat="51.25553" lon="21.87845">
    <tag k="name" v="Urządków"/>
    <tag k="place" v="village"/>
    <tag k="source" v="http://ump.waw.pl/ retrieved 23:59:15 08/30/09 (UMP-Lublin/src/cities-Lublin.pnt-converted.txt)"/>
  </node>
  <node id="482729270" version="2" timestamp="2009-09-03T19:39:07Z" uid="20587" user="balrog-kun" changeset="2363702" lat="51.25553" lon="21.87845">
    <tag k="is_in" v="gmina Wilków, powiat opolski, województwo lubelskie, Poland"/>
    <tag k="is_in:county" v="powiat opolski"/>
    <tag k="is_in:municipality" v="gmina Wilków"/>
    <tag k="is_in:province" v="województwo lubelskie"/>
    <tag k="name" v="Urządków"/>
    <tag k="place" v="village"/>
    <tag k="source" v="http://ump.waw.pl/ retrieved 23:59:15 08/30/09 (UMP-Lublin/src/cities-Lublin.pnt-converted.txt)"/>
    <tag k="wikipedia" v="Urządków"/>
  </node>
  <node id="482729270" version="3" timestamp="2010-04-11T04:50:33Z" uid="20587" user="balrog-kun" changeset="4389130" lat="51.25553" lon="21.87845">
    <tag k="is_in" v="gmina Wilków, powiat opolski, województwo lubelskie, Poland"/>
    <tag k="is_in:county" v="powiat opolski"/>
    <tag k="is_in:municipality" v="gmina Wilków"/>
    <tag k="is_in:province" v="województwo lubelskie"/>
    <tag k="name" v="Urządków"/>
    <tag k="place" v="village"/>
    <tag k="source" v="http://ump.waw.pl/ retrieved 23:59:15 08/30/09 (UMP-Lublin/src/cities-Lublin.pnt-converted.txt)"/>
    <tag k="wikipedia" v="Urządków"/>
  </node>
  <node id="482729270" version="4" timestamp="2010-04-27T04:07:38Z" uid="30632" user="antblant" changeset="4537875" lat="51.25553" lon="21.87845">
    <tag k="is_in" v="gmina Wilków, powiat opolski, województwo lubelskie, Poland"/>
    <tag k="is_in:county" v="powiat opolski"/>
    <tag k="is_in:municipality" v="gmina Wilków"/>
    <tag k="is_in:province" v="województwo lubelskie"/>
    <tag k="name" v="Urządków"/>
    <tag k="place" v="village"/>
    <tag k="source" v="http://ump.waw.pl/ retrieved 23:59:15 08/30/09 (UMP-Lublin/src/cities-Lublin.pnt-converted.txt)"/>
    <tag k="teryt:simc" v="0393548"/>
    <tag k="wikipedia" v="Urządków"/>
  </node>
  <node id="482729271" version="1" timestamp="2009-09-03T19:11:39Z" uid="20587" user="balrog-kun" changeset="2363396" lat="51.31435" lon="21.92881">
    <tag k="addr:city" v="Kazimierz Dolny"/>
    <tag k="name" v="Wąwóz Za Dębem"/>
    <tag k="natural" v="valley"/>
    <tag k="place" v="locality"/>
    <tag k="source" v="http://ump.waw.pl/ retrieved 23:59:15 08/30/09 (UMP-Lublin/src/POI-Lublin.pnt-converted.txt)"/>
  </node>
  <node id="482729276" version="1" timestamp="2009-09-03T19:11:39Z" uid="20587" user="balrog-kun" changeset="2363396" lat="51.17874" lon="22.22148">
    <tag k="name" v="Zagórze"/>
    <tag k="place" v="village"/>
    <tag k="source" v="http://ump.waw.pl/ retrieved 23:59:15 08/30/09 (UMP-Lublin/src/cities-Lublin.pnt-converted.txt)"/>
  </node>
  <node id="482729276" version="2" timestamp="2009-09-03T19:39:14Z" uid="20587" user="balrog-kun" changeset="2363702" lat="51.17874" lon="22.22148">
    <tag k="addr:postcode" v="24-200"/>
    <tag k="is_in" v="gmina Bełżyce, powiat lubelski, województwo lubelskie, Poland"/>
    <tag k="is_in:county" v="powiat lubelski"/>
    <tag k="is_in:municipality" v="gmina Bełżyce"/>
    <tag k="is_in:province" v="województwo lubelskie"/>
    <tag k="name" v="Zagórze"/>
    <tag k="place" v="village"/>
    <tag k="source" v="http://ump.waw.pl/ retrieved 23:59:15 08/30/09 (UMP-Lublin/src/cities-Lublin.pnt-converted.txt)"/>
    <tag k="wikipedia" v="Zagórze, Lublin County"/>
  </node>
  <node id="482729276" version="3" timestamp="2010-04-11T04:50:33Z" uid="20587" user="balrog-kun" changeset="4389130" lat="51.17874" lon="22.22148">
    <tag k="addr:postcode" v="24-200"/>
    <tag k="is_in" v="gmina Bełżyce, powiat lubelski, województwo lubelskie, Poland"/>
    <tag k="is_in:county" v="powiat lubelski"/>
    <tag k="is_in:municipality" v="gmina Bełżyce"/>
    <tag k="is_in:province" v="województwo lubelskie"/>
    <tag k="name" v="Zagórze"/>
    <tag k="place" v="village"/>
    <tag k="source" v="http://ump.waw.pl/ retrieved 23:59:15 08/30/09 (UMP-Lublin/src/cities-Lublin.pnt-converted.txt)"/>
    <tag k="wikipedia" v="Zagórze, Lublin County"/>
  </node>
  <node id="482729277" version="1" timestamp="2009-09-03T19:11:40Z" uid="20587" user="balrog-kun" changeset="2363396" lat="51.32396" lon="22.43069">
    <tag k="name" v="Piotrawin"/>
    <tag k="place" v="village"/>
    <tag k="source" v="http://ump.waw.pl/ retrieved 23:59:15 08/30/09 (UMP-Lublin/src/cities-Lublin.pnt-converted.txt)"/>
  </node>
  <node id="482729277" version="2" timestamp="2009-09-03T19:39:07Z" uid="20587" user="balrog-kun" changeset="2363702" lat="51.32396" lon="22.43069">
    <tag k="is_in" v="gmina Jastków, powiat lubelski, województwo lubelskie, Poland"/>
    <tag k="is_in:county" v="powiat lubelski"/>
    <tag k="is_in:municipality" v="gmina Jastków"/>
    <tag k="is_in:province" v="województwo lubelskie"/>
    <tag k="name" v="Piotrawin"/>
    <tag k="place" v="village"/>
    <tag k="source" v="http://ump.waw.pl/ retrieved 23:59:15 08/30/09 (UMP-Lublin/src/cities-Lublin.pnt-converted.txt)"/>
    <tag k="wikipedia" v="Piotrawin, Lublin County"/>
  </node>
  <node id="482729277" version="3" timestamp="2009-10-18T03:54:51Z" uid="20587" user="balrog-kun" changeset="2879564" lat="51.32396" lon="22.43069">
    <tag k="is_in" v="gmina Jastków, powiat lubelski, województwo lubelskie, Poland"/>
    <tag k="is_in:county" v="powiat lubelski"/>
    <tag k="is_in:municipality" v="gmina Jastków"/>
    <tag k="is_in:province" v="województwo lubelskie"/>
    <tag k="name" v="Piotrawin"/>
    <tag k="place" v="village"/>
    <tag k="source" v="http://ump.waw.pl/ retrieved 23:59:15 08/30/09 (UMP-Lublin/src/cities-Lublin.pnt-converted.txt)"/>
    <tag k="wikipedia" v="Piotrawin, Lublin County"/>
  </node>
  <node id="482729279" version="1" timestamp="2009-09-03T19:11:40Z" uid="20587" user="balrog-kun" changeset="2363396" lat="51.23248" lon="21.83258">
    <tag k="name" v="Majdany"/>
    <tag k="place" v="village"/>
    <tag k="source" v="http://ump.waw.pl/ retrieved 23:59:15 08/30/09 (UMP-Lublin/src/cities-Lublin.pnt-converted.txt)"/>
  </node>
  <node id="482729279" version="2" timestamp="2009-09-03T19:39:10Z" uid="20587" user="balrog-kun" changeset="2363702" lat="51.23248" lon="21.83258">
    <tag k="is_in" v="gmina Wilków, powiat opolski, województwo lubelskie, Poland"/>
    <tag k="is_in:county" v="powiat opolski"/>
    <tag k="is_in:municipality" v="gmina Wilków"/>
    <tag k="is_in:province" v="województwo lubelskie"/>
    <tag k="name" v="Majdany"/>
    <tag k="place" v="village"/>
    <tag k="population" v="120"/>
    <tag k="source" v="http://ump.waw.pl/ retrieved 23:59:15 08/30/09 (UMP-Lublin/src/cities-Lublin.pnt-converted.txt)"/>
    <tag k="source:population" v="wikipedia"/>
    <tag k="wikipedia" v="Majdany, Lublin Voivodeship"/>
  </node>
  <node id="482729279" version="3" timestamp="2010-04-11T04:50:33Z" uid="20587" user="balrog-kun" changeset="4389130" lat="51.23248" lon="21.83258">
    <tag k="is_in" v="gmina Wilków, powiat opolski, województwo lubelskie, Poland"/>
    <tag k="is_in:county" v="powiat opolski"/>
    <tag k="is_in:municipality" v="gmina Wilków"/>
    <tag k="is_in:province" v="województwo lubelskie"/>
    <tag k="name" v="Majdany"/>
    <tag k="place" v="village"/>
    <tag k="population" v="120"/>
    <tag k="source" v="http://ump.waw.pl/ retrieved 23:59:15 08/30/09 (UMP-Lublin/src/cities-Lublin.pnt-converted.txt)"/>
    <tag k="source:population" v="wikipedia"/>
    <tag k="wikipedia" v="Majdany, Lublin Voivodeship"/>
  </node>
  <node id="482729996" version="1" timestamp="2009-09-03T19:14:38Z" uid="64977" user="CLoeser" changeset="2363433" lat="53.8922912" lon="9.5364619">
    <tag k="name" v="Münsterdorfer Geestinsel"/>
    <tag k="place" v="region"/>
  </node>
  <node id="482729996" version="2" timestamp="2009-12-03T17:58:49Z" uid="64977" user="CLoeser" changeset="3282654" lat="53.8922912" lon="9.5364619">
    <tag k="name" v="Münsterdorfer Geestinsel"/>
    <tag k="place" v="region"/>
  </node>
</osm>
