<?xml version='1.0' encoding='UTF-8'?>
<osm version="0.6" generator="libosmium/2.20.0">
  <node id="500897980" version="1" timestamp="2009-09-18T20:18:19Z" uid="20587" user="balrog-kun" changeset="2528237" lat="51.7630871" lon="19.5444705">
    <tag k="name" v="Łódź-Widzew"/>
    <tag k="operator" v="PKP"/>
    <tag k="railway" v="station"/>
    <tag k="wikipedia" v="pl:Łódź Widzew"/>
  </node>
  <node id="500897981" version="1" timestamp="2009-09-18T20:18:19Z" uid="20587" user="balrog-kun" changeset="2528237" lat="52.1401232" lon="19.8858055">
    <tag k="name" v="Niedźwiada Łowicka"/>
    <tag k="operator" v="PKP"/>
    <tag k="railway" v="halt"/>
    <tag k="wikipedia" v="pl:Niedźwiada Łowicka"/>
  </node>
  <node id="500897982" version="1" timestamp="2009-09-18T20:18:19Z" uid="20587" user="balrog-kun" changeset="2528237" lat="52.1576883" lon="19.7928667">
    <tag k="name" v="Jackowice"/>
    <tag k="operator" v="PKP"/>
    <tag k="railway" v="station"/>
    <tag k="wikipedia" v="pl:Jackowice (stacja kolejowa)"/>
  </node>
</osm>
