<?xml version='1.0' encoding='UTF-8'?>
<osm version="0.6" generator="libosmium/2.20.0">
  <node id="506992719" version="2" timestamp="2009-11-02T11:13:53Z" uid="4467" user="Rosscoe" changeset="3015357" lat="-41.0416813" lon="145.3702697"/>
  <node id="506993798" version="2" timestamp="2009-12-24T04:41:01Z" uid="6975" user="ulfl" changeset="3439966" lat="51.6342335" lon="8.6885024">
    <tag k="tourism" v="picnic_site"/>
  </node>
  <node id="506995622" version="2" timestamp="2010-01-19T09:22:31Z" uid="115477" user="wowik" changeset="3657083" lat="55.9829002" lon="37.2872408">
    <tag k="highway" v="bus_stop"/>
    <tag k="name" v="полигон МАДИ"/>
    <tag k="shelter" v="yes"/>
  </node>
  <node id="506995622" version="4" timestamp="2011-01-29T19:04:22Z" uid="115477" user="wowik" changeset="7125926" lat="55.9828917" lon="37.2872054">
    <tag k="highway" v="bus_stop"/>
    <tag k="name" v="Санаторий им. Артема"/>
    <tag k="shelter" v="yes"/>
  </node>
  <node id="506995622" version="5" timestamp="2011-03-28T16:58:24Z" uid="115477" user="wowik" changeset="7697837" lat="55.9829605" lon="37.2871655">
    <tag k="highway" v="bus_stop"/>
    <tag k="name" v="Санаторий им. Артема"/>
    <tag k="shelter" v="yes"/>
  </node>
</osm>
