<?xml version='1.0' encoding='UTF-8'?>
<osm version="0.6" generator="libosmium/2.20.0">
  <node id="508400097" version="1" timestamp="2009-09-26T12:12:33Z" uid="4667" user="MapZ" changeset="2640700" lat="49.5931275" lon="11.0085893">
    <tag k="addr:city" v="Erlangen"/>
    <tag k="addr:housenumber" v="31"/>
    <tag k="addr:street" v="Schuhstraße"/>
    <tag k="name" v="Bayrischer Hof"/>
    <tag k="tourism" v="hotel"/>
  </node>
  <node id="508400097" version="2" timestamp="2009-10-05T16:47:23Z" uid="4667" user="MapZ" changeset="2752256" lat="49.5931474" lon="11.0086845">
    <tag k="addr:city" v="Erlangen"/>
    <tag k="addr:housenumber" v="31"/>
    <tag k="addr:street" v="Schuhstraße"/>
    <tag k="name" v="Bayrischer Hof"/>
    <tag k="tourism" v="hotel"/>
  </node>
  <node id="508400100" version="1" timestamp="2009-09-26T12:12:33Z" uid="4667" user="MapZ" changeset="2640700" lat="49.5949843" lon="11.0079939">
    <tag k="amenity" v="biergarten"/>
    <tag k="name" v="Kitzmann"/>
  </node>
  <node id="508401169" version="4" timestamp="2011-05-09T15:11:25Z" uid="43967" user="railsnail" changeset="8093689" lat="47.0069874" lon="11.5064893"/>
  <node id="508404942" version="1" timestamp="2009-09-26T12:18:57Z" uid="4667" user="MapZ" changeset="2640737" lat="27.9659405" lon="-15.5929451">
    <tag k="name" v="Gran Canaria"/>
    <tag k="place" v="island"/>
  </node>
  <node id="508407590" version="2" timestamp="2010-02-17T17:00:13Z" uid="49111" user="Markus B" changeset="3902329" lat="49.6564111" lon="11.4200493"/>
  <node id="508409153" version="3" timestamp="2010-06-05T17:25:52Z" uid="171838" user="argrath" changeset="4910657" lat="35.6960429" lon="139.775006">
    <tag k="amenity" v="fast_food"/>
    <tag k="name" v="マクドナルド"/>
  </node>
</osm>
