<?xml version='1.0' encoding='UTF-8'?>
<osm version="0.6" generator="libosmium/2.20.0">
  <node id="508570973" version="1" timestamp="2009-09-26T14:53:09Z" uid="30632" user="antblant" changeset="2642156" lat="53.4291033" lon="14.5495371">
    <tag k="amenity" v="fast_food"/>
    <tag k="cuisine" v="fish"/>
    <tag k="name" v="Rybarex"/>
  </node>
  <node id="508570975" version="1" timestamp="2009-09-26T14:53:10Z" uid="30632" user="antblant" changeset="2642156" lat="53.4289317" lon="14.5507629">
    <tag k="name" v="Żabka"/>
    <tag k="opening_hours" v="06:00-23:00"/>
    <tag k="shop" v="convenience"/>
  </node>
  <node id="508570975" version="2" timestamp="2010-01-25T19:30:52Z" uid="30632" user="antblant" changeset="3713721" lat="53.4289317" lon="14.5508001">
    <tag k="name" v="Żabka"/>
    <tag k="opening_hours" v="06:00-23:00"/>
    <tag k="shop" v="convenience"/>
  </node>
  <node id="508570977" version="1" timestamp="2009-09-26T14:53:10Z" uid="30632" user="antblant" changeset="2642156" lat="53.4305101" lon="14.5477018">
    <tag k="amenity" v="bank"/>
    <tag k="atm" v="yes"/>
    <tag k="name" v="ING"/>
  </node>
  <node id="508570977" version="2" timestamp="2009-10-31T19:28:30Z" uid="30632" user="antblant" changeset="3000362" lat="53.4305101" lon="14.5477018">
    <tag k="amenity" v="bank"/>
    <tag k="atm" v="yes"/>
    <tag k="name" v="ING"/>
    <tag k="operator" v="ING"/>
  </node>
  <node id="508570979" version="1" timestamp="2009-09-26T14:53:10Z" uid="30632" user="antblant" changeset="2642156" lat="53.4305839" lon="14.5470789">
    <tag k="amenity" v="bank"/>
    <tag k="atm" v="yes"/>
    <tag k="name" v="BZ WBK"/>
  </node>
  <node id="508570979" version="2" timestamp="2009-10-31T19:28:31Z" uid="30632" user="antblant" changeset="3000362" lat="53.4305839" lon="14.5470789">
    <tag k="amenity" v="bank"/>
    <tag k="atm" v="yes"/>
    <tag k="name" v="BZ WBK"/>
    <tag k="operator" v="BZ WBK"/>
  </node>
  <node id="508570979" version="3" timestamp="2010-01-25T17:41:40Z" uid="30632" user="antblant" changeset="3712736" lat="53.4305738" lon="14.5470315">
    <tag k="amenity" v="bank"/>
    <tag k="atm" v="yes"/>
    <tag k="name" v="BZ WBK"/>
    <tag k="operator" v="BZ WBK"/>
  </node>
  <node id="508570979" version="4" timestamp="2010-11-11T21:23:38Z" uid="30632" user="antblant" changeset="6347134" lat="53.4305539" lon="14.5470623">
    <tag k="amenity" v="bank"/>
    <tag k="atm" v="yes"/>
    <tag k="name" v="BZ WBK"/>
    <tag k="operator" v="BZ WBK"/>
  </node>
  <node id="508570982" version="1" timestamp="2009-09-26T14:53:10Z" uid="30632" user="antblant" changeset="2642156" lat="53.4299295" lon="14.5475076">
    <tag k="name" v="Żabka"/>
    <tag k="opening_hours" v="06:00-23:00"/>
    <tag k="shop" v="convenience"/>
  </node>
  <node id="508570983" version="1" timestamp="2009-09-26T14:53:10Z" uid="30632" user="antblant" changeset="2642156" lat="53.4297459" lon="14.5474038">
    <tag k="name" v="Księgarnia Językowa Educatio"/>
    <tag k="shop" v="books"/>
  </node>
  <node id="508570985" version="1" timestamp="2009-09-26T14:53:10Z" uid="30632" user="antblant" changeset="2642156" lat="53.4296661" lon="14.5467741">
    <tag k="name" v="Economicus"/>
    <tag k="shop" v="books"/>
  </node>
  <node id="508570986" version="1" timestamp="2009-09-26T14:53:10Z" uid="30632" user="antblant" changeset="2642156" lat="53.4294027" lon="14.5473971">
    <tag k="amenity" v="bank"/>
    <tag k="atm" v="yes"/>
    <tag k="name" v="Pekao SA"/>
  </node>
  <node id="508570986" version="2" timestamp="2009-10-31T19:28:30Z" uid="30632" user="antblant" changeset="3000362" lat="53.4294027" lon="14.5473971">
    <tag k="amenity" v="bank"/>
    <tag k="atm" v="yes"/>
    <tag k="name" v="Pekao SA"/>
    <tag k="operator" v="PEKAO"/>
  </node>
  <node id="508570989" version="1" timestamp="2009-09-26T14:53:10Z" uid="30632" user="antblant" changeset="2642156" lat="53.4306618" lon="14.5470019">
    <tag k="amenity" v="bicycle_parking"/>
    <tag k="capacity" v="4"/>
  </node>
  <node id="508570991" version="1" timestamp="2009-09-26T14:53:10Z" uid="30632" user="antblant" changeset="2642156" lat="53.4307695" lon="14.5477387">
    <tag k="name" v="Świat Książki"/>
    <tag k="shop" v="books"/>
    <tag k="website" v="http://www.swiatksiazki.pl/"/>
  </node>
  <node id="508570992" version="1" timestamp="2009-09-26T14:53:10Z" uid="30632" user="antblant" changeset="2642156" lat="53.4307635" lon="14.5476683">
    <tag k="amenity" v="telephone"/>
  </node>
  <node id="508570995" version="1" timestamp="2009-09-26T14:53:10Z" uid="30632" user="antblant" changeset="2642156" lat="53.4308823" lon="14.5477845">
    <tag k="addr:housenumber" v="8"/>
  </node>
  <node id="508570998" version="1" timestamp="2009-09-26T14:53:10Z" uid="30632" user="antblant" changeset="2642156" lat="53.4311665" lon="14.5478999">
    <tag k="amenity" v="restaurant"/>
    <tag k="cuisine" v="vegetarian"/>
    <tag k="name" v="Amar"/>
  </node>
  <node id="508570999" version="1" timestamp="2009-09-26T14:53:11Z" uid="30632" user="antblant" changeset="2642156" lat="53.4312045" lon="14.547809">
    <tag k="amenity" v="bicycle_parking"/>
    <tag k="capacity" v="2"/>
  </node>
  <node id="508571001" version="1" timestamp="2009-09-26T14:53:11Z" uid="30632" user="antblant" changeset="2642156" lat="53.4309497" lon="14.5478118">
    <tag k="name" v="Omnibus"/>
    <tag k="shop" v="books"/>
    <tag k="website" v="http://ksiegarnia.eomnibus.pl/"/>
  </node>
  <node id="508571002" version="1" timestamp="2009-09-26T14:53:11Z" uid="30632" user="antblant" changeset="2642156" lat="53.4308203" lon="14.5477593">
    <tag k="name" v="Księgarnia Językowa"/>
    <tag k="shop" v="books"/>
    <tag k="website" v="http://www.polanglo.pl"/>
  </node>
  <node id="508571004" version="1" timestamp="2009-09-26T14:53:11Z" uid="30632" user="antblant" changeset="2642156" lat="53.4312272" lon="14.5479246">
    <tag k="addr:housenumber" v="9a"/>
  </node>
  <node id="508571006" version="1" timestamp="2009-09-26T14:53:11Z" uid="30632" user="antblant" changeset="2642156" lat="53.4313077" lon="14.5479572">
    <tag k="addr:housenumber" v="10"/>
  </node>
  <node id="508571007" version="1" timestamp="2009-09-26T14:53:11Z" uid="30632" user="antblant" changeset="2642156" lat="53.4310997" lon="14.5478728">
    <tag k="addr:housenumber" v="9"/>
  </node>
  <node id="508571009" version="1" timestamp="2009-09-26T14:53:11Z" uid="30632" user="antblant" changeset="2642156" lat="53.4313598" lon="14.5479784">
    <tag k="amenity" v="bank"/>
    <tag k="atm" v="yes"/>
    <tag k="name" v="Pekao SA"/>
  </node>
  <node id="508571009" version="2" timestamp="2009-10-31T19:28:31Z" uid="30632" user="antblant" changeset="3000362" lat="53.4313598" lon="14.5479784">
    <tag k="amenity" v="bank"/>
    <tag k="atm" v="yes"/>
    <tag k="name" v="Pekao SA"/>
    <tag k="operator" v="PEKAO"/>
  </node>
  <node id="508571010" version="1" timestamp="2009-09-26T14:53:11Z" uid="30632" user="antblant" changeset="2642156" lat="53.4314351" lon="14.548009">
    <tag k="addr:housenumber" v="11"/>
  </node>
  <node id="508571013" version="1" timestamp="2009-09-26T14:53:11Z" uid="30632" user="antblant" changeset="2642156" lat="53.4315941" lon="14.5480735">
    <tag k="amenity" v="bar"/>
    <tag k="name" v="Barrel Whisky Bar"/>
    <tag k="website" v="http://www.whisky-bar.pl/"/>
  </node>
  <node id="508571015" version="1" timestamp="2009-09-26T14:53:11Z" uid="30632" user="antblant" changeset="2642156" lat="53.4316496" lon="14.5480961">
    <tag k="addr:housenumber" v="12"/>
  </node>
  <node id="508571016" version="1" timestamp="2009-09-26T14:53:11Z" uid="30632" user="antblant" changeset="2642156" lat="53.4318251" lon="14.5481674">
    <tag k="name" v="Macsimum"/>
    <tag k="shop" v="computer"/>
    <tag k="website" v="http://www.macsimum.com.pl/"/>
  </node>
  <node id="508571018" version="1" timestamp="2009-09-26T14:53:11Z" uid="30632" user="antblant" changeset="2642156" lat="53.4316981" lon="14.5481158">
    <tag k="name" v="Extreme House"/>
    <tag k="shop" v="skateshop"/>
  </node>
  <node id="508571019" version="1" timestamp="2009-09-26T14:53:11Z" uid="30632" user="antblant" changeset="2642156" lat="53.429235" lon="14.5525982">
    <tag k="amenity" v="bureau_de_change"/>
    <tag k="opening_hours" v="24/7"/>
  </node>
  <node id="508571019" version="2" timestamp="2009-11-07T12:19:04Z" uid="30632" user="antblant" changeset="3055198" lat="53.429235" lon="14.5525982">
    <tag k="amenity" v="bureau_de_change"/>
    <tag k="opening_hours" v="24/7"/>
    <tag k="operator" v="Western Union"/>
  </node>
  <node id="508571021" version="1" timestamp="2009-09-26T14:53:11Z" uid="30632" user="antblant" changeset="2642156" lat="53.4279041" lon="14.5559574">
    <tag k="name" v="Riff"/>
    <tag k="shop" v="musical_instruments"/>
    <tag k="website" v="http://www.riff.net.pl/"/>
  </node>
  <node id="508571021" version="2" timestamp="2010-03-25T08:51:25Z" uid="20587" user="balrog-kun" changeset="4227478" lat="53.4278725" lon="14.5559668">
    <tag k="name" v="Riff"/>
    <tag k="shop" v="musical_instruments"/>
    <tag k="website" v="http://www.riff.net.pl/"/>
  </node>
  <node id="508571023" version="1" timestamp="2009-09-26T14:53:11Z" uid="30632" user="antblant" changeset="2642156" lat="53.4284867" lon="14.5559808">
    <tag k="amenity" v="bicycle_parking"/>
  </node>
  <node id="508571024" version="1" timestamp="2009-09-26T14:53:11Z" uid="30632" user="antblant" changeset="2642156" lat="53.4299135" lon="14.5534623">
    <tag k="name" v="Małe Zoo"/>
    <tag k="shop" v="zoo"/>
  </node>
  <node id="508571024" version="4" timestamp="2010-11-11T21:18:53Z" uid="30632" user="antblant" changeset="6347094" lat="53.429906" lon="14.5534046">
    <tag k="name" v="Małe Zoo"/>
    <tag k="shop" v="pet"/>
  </node>
  <node id="508571027" version="1" timestamp="2009-09-26T14:53:12Z" uid="30632" user="antblant" changeset="2642156" lat="53.4302946" lon="14.5536633">
    <tag k="shop" v="florist"/>
  </node>
  <node id="508571027" version="2" timestamp="2010-11-11T21:18:57Z" uid="30632" user="antblant" changeset="6347094" lat="53.430308" lon="14.5536006">
    <tag k="shop" v="florist"/>
  </node>
  <node id="508571029" version="1" timestamp="2009-09-26T14:53:12Z" uid="30632" user="antblant" changeset="2642156" lat="53.4304343" lon="14.5537336">
    <tag k="amenity" v="pharmacy"/>
  </node>
  <node id="508571029" version="2" timestamp="2009-10-31T19:24:53Z" uid="30632" user="antblant" changeset="3000362" lat="53.4304343" lon="14.5537336">
    <tag k="amenity" v="pharmacy"/>
    <tag k="operator" v="Cefarm"/>
  </node>
  <node id="508571029" version="3" timestamp="2010-11-11T21:18:57Z" uid="30632" user="antblant" changeset="6347094" lat="53.4304672" lon="14.5536709">
    <tag k="amenity" v="pharmacy"/>
    <tag k="operator" v="Cefarm"/>
  </node>
  <node id="508571030" version="1" timestamp="2009-09-26T14:53:12Z" uid="30632" user="antblant" changeset="2642156" lat="53.4310808" lon="14.5521294">
    <tag k="amenity" v="recycling"/>
  </node>
  <node id="508571032" version="1" timestamp="2009-09-26T14:53:12Z" uid="30632" user="antblant" changeset="2642156" lat="53.4311646" lon="14.5540752">
    <tag k="name" v="LOT"/>
    <tag k="shop" v="plane_tickets"/>
    <tag k="website" v="http://www.lot.com/"/>
  </node>
  <node id="508571032" version="2" timestamp="2009-11-07T12:19:05Z" uid="30632" user="antblant" changeset="3055198" lat="53.4311826" lon="14.5540149">
    <tag k="name" v="LOT"/>
    <tag k="shop" v="plane_tickets"/>
    <tag k="website" v="http://www.lot.com/"/>
  </node>
  <node id="508571033" version="1" timestamp="2009-09-26T14:53:12Z" uid="30632" user="antblant" changeset="2642156" lat="53.4291951" lon="14.5539546">
    <tag k="name" v="Vistula"/>
  </node>
  <node id="508571033" version="2" timestamp="2009-10-26T17:45:50Z" uid="30632" user="antblant" changeset="2958261" lat="53.4291951" lon="14.5539546">
    <tag k="name" v="Vistula"/>
    <tag k="shop" v="suits"/>
  </node>
  <node id="508571035" version="1" timestamp="2009-09-26T14:53:12Z" uid="30632" user="antblant" changeset="2642156" lat="53.4333486" lon="14.5498245"/>
  <node id="508571036" version="1" timestamp="2009-09-26T14:53:12Z" uid="30632" user="antblant" changeset="2642156" lat="53.4329056" lon="14.5501895"/>
  <node id="508571038" version="1" timestamp="2009-09-26T14:53:12Z" uid="30632" user="antblant" changeset="2642156" lat="53.4331996" lon="14.5510638"/>
  <node id="508571038" version="2" timestamp="2010-03-28T21:15:40Z" uid="20587" user="balrog-kun" changeset="4262159" lat="53.4331996" lon="14.5510638"/>
  <node id="508571039" version="1" timestamp="2009-09-26T14:53:12Z" uid="30632" user="antblant" changeset="2642156" lat="53.4337368" lon="14.5493019"/>
  <node id="508571039" version="2" timestamp="2010-03-28T21:15:40Z" uid="20587" user="balrog-kun" changeset="4262159" lat="53.4337368" lon="14.5493019"/>
  <node id="508571042" version="1" timestamp="2009-09-26T14:53:12Z" uid="30632" user="antblant" changeset="2642156" lat="53.4336799" lon="14.5493527"/>
  <node id="508571042" version="2" timestamp="2010-03-28T21:15:40Z" uid="20587" user="balrog-kun" changeset="4262159" lat="53.4336799" lon="14.5493527"/>
  <node id="508571043" version="1" timestamp="2009-09-26T14:53:12Z" uid="30632" user="antblant" changeset="2642156" lat="53.4337337" lon="14.5510369"/>
  <node id="508571045" version="1" timestamp="2009-09-26T14:53:12Z" uid="30632" user="antblant" changeset="2642156" lat="53.4335796" lon="14.5507158"/>
  <node id="508571045" version="2" timestamp="2010-03-28T21:15:42Z" uid="20587" user="balrog-kun" changeset="4262159" lat="53.4335796" lon="14.5507158"/>
  <node id="508571046" version="1" timestamp="2009-09-26T14:53:12Z" uid="30632" user="antblant" changeset="2642156" lat="53.4332636" lon="14.5512607"/>
  <node id="508571046" version="2" timestamp="2010-03-28T21:15:40Z" uid="20587" user="balrog-kun" changeset="4262159" lat="53.4332636" lon="14.5512607"/>
  <node id="508571048" version="1" timestamp="2009-09-26T14:53:12Z" uid="30632" user="antblant" changeset="2642156" lat="53.4336436" lon="14.5509127"/>
  <node id="508571048" version="2" timestamp="2010-03-28T21:15:42Z" uid="20587" user="balrog-kun" changeset="4262159" lat="53.4336436" lon="14.5509127"/>
  <node id="508571049" version="1" timestamp="2009-09-26T14:53:12Z" uid="30632" user="antblant" changeset="2642156" lat="53.4332947" lon="14.5514455"/>
  <node id="508571050" version="1" timestamp="2009-09-26T14:53:12Z" uid="30632" user="antblant" changeset="2642156" lat="53.432274" lon="14.5540116">
    <tag k="amenity" v="pharmacy"/>
  </node>
  <node id="508571052" version="1" timestamp="2009-09-26T14:53:12Z" uid="30632" user="antblant" changeset="2642156" lat="53.432258" lon="14.5536197">
    <tag k="amenity" v="toilets"/>
    <tag k="opening_hours" v="Mo-Fr 10:00-18:00"/>
  </node>
  <node id="508571052" version="2" timestamp="2011-05-17T23:10:51Z" uid="30632" user="antblant" changeset="8177099" lat="53.4322653" lon="14.5536128">
    <tag k="amenity" v="toilets"/>
    <tag k="opening_hours" v="Mo-Fr 10:00-18:00"/>
  </node>
  <node id="508571053" version="1" timestamp="2009-09-26T14:53:13Z" uid="30632" user="antblant" changeset="2642156" lat="53.4341447" lon="14.552477">
    <tag k="amenity" v="toilets"/>
  </node>
  <node id="508571055" version="1" timestamp="2009-09-26T14:53:13Z" uid="30632" user="antblant" changeset="2642156" lat="53.4334512" lon="14.5536331">
    <tag k="amenity" v="pharmacy"/>
    <tag k="name" v="Apteka Morska"/>
  </node>
  <node id="508571058" version="1" timestamp="2009-09-26T14:53:13Z" uid="30632" user="antblant" changeset="2642156" lat="53.4338383" lon="14.5535226">
    <tag k="name" v="Społem"/>
    <tag k="shop" v="supermarket"/>
  </node>
  <node id="508571059" version="1" timestamp="2009-09-26T14:53:13Z" uid="30632" user="antblant" changeset="2642156" lat="53.4366347" lon="14.5520115">
    <tag k="amenity" v="post_box"/>
  </node>
  <node id="508571059" version="2" timestamp="2010-03-28T21:14:20Z" uid="20587" user="balrog-kun" changeset="4262159" lat="53.4366406" lon="14.5520042">
    <tag k="amenity" v="post_box"/>
  </node>
  <node id="508571061" version="1" timestamp="2009-09-26T14:53:13Z" uid="30632" user="antblant" changeset="2642156" lat="53.4278262" lon="14.5597519">
    <tag k="amenity" v="pub"/>
    <tag k="name" v="Piwnica Kany"/>
    <tag k="website" v="http://www.kana.art.pl/onas_piwnica.html"/>
  </node>
  <node id="508571061" version="2" timestamp="2011-04-02T18:13:22Z" uid="30632" user="antblant" changeset="7746191" lat="53.4278737" lon="14.5596086">
    <tag k="amenity" v="pub"/>
    <tag k="name" v="Piwnica Kany"/>
    <tag k="website" v="http://www.kana.art.pl/onas_piwnica.html"/>
  </node>
</osm>
