<?xml version='1.0' encoding='UTF-8'?>
<osm version="0.6" generator="libosmium/2.20.0">
  <node id="510792800" version="2" timestamp="2010-01-30T07:15:21Z" uid="99207" user="Lar Kiesel" changeset="3748583" lat="33.2865473" lon="-80.513075">
    <tag k="highway" v="motorway_junction"/>
    <tag k="name" v="US 15; Santee"/>
    <tag k="ref" v="172B"/>
  </node>
  <node id="510792831" version="2" timestamp="2010-01-30T07:15:21Z" uid="99207" user="Lar Kiesel" changeset="3748583" lat="33.2871775" lon="-80.5135306">
    <tag k="highway" v="motorway_junction"/>
    <tag k="name" v="US 15; St. George"/>
    <tag k="ref" v="172A"/>
  </node>
  <node id="510792852" version="2" timestamp="2010-01-30T07:15:20Z" uid="99207" user="Lar Kiesel" changeset="3748583" lat="33.2887942" lon="-80.5175287">
    <tag k="highway" v="motorway_junction"/>
    <tag k="name" v="US 15; St. George"/>
    <tag k="ref" v="172A"/>
  </node>
  <node id="510793093" version="2" timestamp="2010-01-30T07:15:21Z" uid="99207" user="Lar Kiesel" changeset="3748583" lat="33.2854023" lon="-80.5100086">
    <tag k="highway" v="motorway_junction"/>
    <tag k="name" v="US 15; Santee"/>
    <tag k="ref" v="172B"/>
  </node>
  <node id="510795965" version="1" timestamp="2009-09-27T16:26:33Z" uid="59758" user="rendle" changeset="2654726" lat="51.009007" lon="4.0089118">
    <tag k="amenity" v="recycling"/>
    <tag k="recycling:clothes" v="yes"/>
  </node>
  <node id="510795965" version="2" timestamp="2009-12-06T16:17:42Z" uid="59758" user="rendle" changeset="3306672" lat="51.0089614" lon="4.0089364">
    <tag k="amenity" v="recycling"/>
    <tag k="recycling:clothes" v="yes"/>
  </node>
  <node id="510797453" version="4" timestamp="2010-03-07T15:09:05Z" uid="58091" user="Andreas M" changeset="4061818" lat="48.2221343" lon="16.3446108">
    <tag k="barrier" v="gate"/>
    <tag k="bicycle" v="no"/>
    <tag k="foot" v="no"/>
  </node>
  <node id="510797456" version="4" timestamp="2010-03-07T15:09:17Z" uid="58091" user="Andreas M" changeset="4061818" lat="48.2221323" lon="16.3446102">
    <tag k="barrier" v="gate"/>
    <tag k="bicycle" v="no"/>
    <tag k="foot" v="no"/>
  </node>
</osm>
