<?xml version='1.0' encoding='UTF-8'?>
<osm version="0.6" generator="libosmium/2.20.0">
  <node id="513252552" version="1" timestamp="2009-09-29T09:58:46Z" uid="115477" user="wowik" changeset="2675052" lat="55.9740339" lon="37.3128718">
    <tag k="amenity" v="police"/>
    <tag k="name" v="Стационарный пост ДПС (4 отдел)"/>
  </node>
  <node id="513252552" version="2" timestamp="2010-01-19T10:38:20Z" uid="115477" user="wowik" changeset="3657433" lat="55.973886" lon="37.3129543">
    <tag k="amenity" v="police"/>
    <tag k="name" v="Стационарный пост ДПС (4 отдел)"/>
  </node>
  <node id="513252552" version="3" timestamp="2010-01-19T10:38:41Z" uid="115477" user="wowik" changeset="3657433" lat="55.9740241" lon="37.3128256">
    <tag k="amenity" v="police"/>
    <tag k="name" v="Стационарный пост ДПС (4 отдел)"/>
  </node>
  <node id="513252552" version="4" timestamp="2010-01-19T10:39:15Z" uid="115477" user="wowik" changeset="3657433" lat="55.9740241" lon="37.3128256">
    <tag k="amenity" v="police"/>
    <tag k="name" v="Стационарный пост ДПС (4 отдел)"/>
  </node>
</osm>
