<?xml version='1.0' encoding='UTF-8'?>
<osm version="0.6" generator="libosmium/2.20.0">
  <node id="514676969" version="1" timestamp="2009-09-30T16:08:30Z" uid="66036" user="h4v" changeset="2690394" lat="51.779816" lon="19.4239281">
    <tag k="amenity" v="parking"/>
  </node>
  <node id="514676982" version="1" timestamp="2009-09-30T16:08:31Z" uid="66036" user="h4v" changeset="2690394" lat="51.777943" lon="19.4237733">
    <tag k="amenity" v="parking"/>
  </node>
  <node id="514676991" version="1" timestamp="2009-09-30T16:08:31Z" uid="66036" user="h4v" changeset="2690394" lat="51.7770013" lon="19.4240379">
    <tag k="name" v="Stokrotka"/>
    <tag k="shop" v="supermarket"/>
  </node>
  <node id="514677001" version="1" timestamp="2009-09-30T16:08:32Z" uid="66036" user="h4v" changeset="2690394" lat="51.7768354" lon="19.4259378">
    <tag k="amenity" v="dentists"/>
    <tag k="name" v=""/>
  </node>
  <node id="514677001" version="3" timestamp="2010-06-03T11:11:31Z" uid="66036" user="h4v" changeset="4891528" lat="51.776838" lon="19.4259368">
    <tag k="amenity" v="dentist"/>
  </node>
  <node id="514677001" version="4" timestamp="2011-03-02T17:35:58Z" uid="66036" user="h4v" changeset="7439531" lat="51.776838" lon="19.4259368">
    <tag k="amenity" v="dentist"/>
    <tag k="name" v="Uni-Dentus"/>
  </node>
  <node id="514677001" version="5" timestamp="2011-03-04T14:25:00Z" uid="66036" user="h4v" changeset="7454786" lat="51.7768996" lon="19.4259676">
    <tag k="amenity" v="dentist"/>
    <tag k="name" v="Uni-Dentus"/>
  </node>
  <node id="514677001" version="6" timestamp="2011-04-08T23:34:09Z" uid="66036" user="h4v" changeset="7809084" lat="51.776947" lon="19.4257935">
    <tag k="amenity" v="dentist"/>
    <tag k="name" v="Uni-Dentus"/>
  </node>
</osm>
