<?xml version='1.0' encoding='UTF-8'?>
<osm version="0.6" generator="libosmium/2.20.0">
  <node id="51543779" version="4" timestamp="2008-08-15T00:11:09Z" uid="6975" user="ulfl" changeset="264731" lat="48.1527895" lon="17.1647021">
    <tag k="amenity" v="place_of_worship"/>
    <tag k="denomination" v="catholic"/>
    <tag k="name" v="Kostol sv. Vincenta de Paul"/>
    <tag k="religion" v="christian"/>
  </node>
  <node id="51548317" version="2" timestamp="2008-05-16T21:38:34Z" uid="36809" user="pfoten_weg_!_" changeset="463459" lat="48.084527" lon="11.494524">
    <tag k="created_by" v="Potlatch 0.9a"/>
    <tag k="is_in" v="München"/>
    <tag k="name" v="Forstenried"/>
    <tag k="place" v="suburb"/>
  </node>
  <node id="51548317" version="3" timestamp="2008-05-16T21:43:57Z" uid="36809" user="pfoten_weg_!_" changeset="463459" lat="48.0844468" lon="11.4945669">
    <tag k="created_by" v="Potlatch 0.9a"/>
    <tag k="is_in" v="München"/>
    <tag k="name" v="Forstenried"/>
    <tag k="place" v="suburb"/>
  </node>
  <node id="51548317" version="4" timestamp="2008-06-02T20:11:36Z" uid="36809" user="pfoten_weg_!_" changeset="21247" lat="48.0846475" lon="11.4945627">
    <tag k="created_by" v="Potlatch 0.9c"/>
    <tag k="is_in" v="München"/>
    <tag k="name" v="Forstenried"/>
    <tag k="place" v="suburb"/>
  </node>
  <node id="51548317" version="5" timestamp="2008-07-16T23:06:29Z" uid="36809" user="pfoten_weg_!_" changeset="511277" lat="48.0846475" lon="11.4945627">
    <tag k="created_by" v="RambaZamba"/>
    <tag k="is_in" v="München"/>
    <tag k="name" v="Forstenried"/>
    <tag k="place" v="suburb"/>
  </node>
  <node id="51548317" version="6" timestamp="2008-09-13T12:37:28Z" uid="36809" user="pfoten_weg_!_" changeset="620497" lat="48.0846476" lon="11.4945632">
    <tag k="created_by" v="RambaZamba"/>
    <tag k="is_in" v="München"/>
    <tag k="name" v="Forstenried"/>
    <tag k="place" v="suburb"/>
  </node>
  <node id="51548317" version="7" timestamp="2008-09-20T03:49:55Z" uid="36809" user="pfoten_weg_!_" changeset="670006" lat="48.0846476" lon="11.4945633">
    <tag k="created_by" v="RambaZamba"/>
    <tag k="is_in" v="München"/>
    <tag k="name" v="Forstenried"/>
    <tag k="place" v="suburb"/>
  </node>
  <node id="51548317" version="8" timestamp="2008-10-01T01:18:54Z" uid="36809" user="pfoten_weg_!_" changeset="5644" lat="48.0846476" lon="11.4945633">
    <tag k="created_by" v="RambaZamba"/>
    <tag k="is_in" v="München"/>
    <tag k="name" v="Forstenried"/>
    <tag k="place" v="suburb"/>
  </node>
  <node id="51548317" version="11" timestamp="2009-04-22T18:14:46Z" uid="36809" user="pfoten_weg_!_" changeset="903669" lat="48.0846476" lon="11.4945633">
    <tag k="created_by" v="RambaZamba"/>
    <tag k="is_in" v="Thalkirchen-Obersendling-Forstenried-Fürstenried-Solln,München,Bayern,Bundesrepublik Deutschland,Europe"/>
    <tag k="name" v="Forstenried"/>
    <tag k="place" v="suburb"/>
    <tag k="source" v="survey"/>
  </node>
  <node id="51548317" version="12" timestamp="2009-07-13T22:46:42Z" uid="36809" user="pfoten_weg_!_" changeset="1822511" lat="48.0846496" lon="11.4945354">
    <tag k="is_in" v="Thalkirchen-Obersendling-Forstenried-Fürstenried-Solln,München,Bayern,Bundesrepublik Deutschland,Europe"/>
    <tag k="name" v="Forstenried"/>
    <tag k="place" v="suburb"/>
    <tag k="source" v="survey"/>
  </node>
  <node id="51548317" version="13" timestamp="2009-07-26T03:19:51Z" uid="36809" user="pfoten_weg_!_" changeset="1940223" lat="48.0846496" lon="11.4945354">
    <tag k="is_in" v="Thalkirchen-Obersendling-Forstenried-Fürstenried-Solln,München,Bayern,Bundesrepublik Deutschland,Europe"/>
    <tag k="name" v="Forstenried"/>
    <tag k="place" v="suburb"/>
    <tag k="source" v="survey"/>
  </node>
</osm>
