<?xml version='1.0' encoding='UTF-8'?>
<osm version="0.6" generator="libosmium/2.20.0">
  <node id="517700660" version="1" timestamp="2009-10-02T14:26:26Z" uid="115477" user="wowik" changeset="2713273" lat="55.9643855" lon="37.2047218">
    <tag k="name" v="Новомалино"/>
    <tag k="place" v="village"/>
  </node>
  <node id="517700660" version="3" timestamp="2010-11-15T11:24:19Z" uid="115477" user="wowik" changeset="6376577" lat="55.9689338" lon="37.1984697">
    <tag k="addr:country" v="RU"/>
    <tag k="addr:postcode" v="124681"/>
    <tag k="addr:region" v="Москва город"/>
    <tag k="cladr:code" v="7700000002300"/>
    <tag k="cladr:name" v="Новомалино"/>
    <tag k="cladr:suffix" v="Поселок"/>
    <tag k="name" v="Новомалино"/>
    <tag k="place" v="village"/>
  </node>
  <node id="517700660" version="4" timestamp="2010-11-15T11:26:56Z" uid="115477" user="wowik" changeset="6376593" lat="55.9689338" lon="37.1984696">
    <tag k="addr:city" v="Зеленоград"/>
    <tag k="addr:country" v="RU"/>
    <tag k="addr:postcode" v="124681"/>
    <tag k="addr:region" v="Москва город"/>
    <tag k="cladr:code" v="7700000002300"/>
    <tag k="cladr:name" v="Новомалино"/>
    <tag k="cladr:suffix" v="Поселок"/>
    <tag k="name" v="Новомалино"/>
    <tag k="place" v="village"/>
  </node>
  <node id="517700660" version="5" timestamp="2010-11-15T11:27:30Z" uid="115477" user="wowik" changeset="6376593" lat="55.9700129" lon="37.1956607">
    <tag k="addr:city" v="Зеленоград"/>
    <tag k="addr:country" v="RU"/>
    <tag k="addr:postcode" v="124681"/>
    <tag k="addr:region" v="Москва город"/>
    <tag k="cladr:code" v="7700000002300"/>
    <tag k="cladr:name" v="Новомалино"/>
    <tag k="cladr:suffix" v="Поселок"/>
    <tag k="name" v="Новомалино"/>
    <tag k="place" v="village"/>
  </node>
  <node id="517700660" version="6" timestamp="2010-11-26T11:50:10Z" uid="115477" user="wowik" changeset="6461395" lat="55.9708155" lon="37.1934786">
    <tag k="addr:city" v="Зеленоград"/>
    <tag k="addr:country" v="RU"/>
    <tag k="addr:postcode" v="124681"/>
    <tag k="addr:region" v="Москва город"/>
    <tag k="cladr:code" v="7700000002300"/>
    <tag k="cladr:name" v="Новомалино"/>
    <tag k="cladr:suffix" v="Поселок"/>
    <tag k="name" v="Новомалино"/>
    <tag k="place" v="village"/>
  </node>
  <node id="517700846" version="2" timestamp="2009-11-09T18:44:35Z" uid="171838" user="argrath" changeset="3076161" lat="34.6915306" lon="135.5007616"/>
  <node id="517700846" version="3" timestamp="2009-11-10T12:36:19Z" uid="171838" user="argrath" changeset="3081736" lat="34.6914832" lon="135.500768"/>
  <node id="517700848" version="2" timestamp="2009-11-10T13:21:12Z" uid="171838" user="argrath" changeset="3081981" lat="34.6915079" lon="135.5002019"/>
  <node id="517700851" version="2" timestamp="2009-11-10T13:21:13Z" uid="171838" user="argrath" changeset="3081981" lat="34.691516" lon="135.4997649"/>
  <node id="517700853" version="2" timestamp="2009-11-10T13:21:13Z" uid="171838" user="argrath" changeset="3081981" lat="34.6915242" lon="135.4996259"/>
  <node id="517700869" version="2" timestamp="2009-11-02T06:05:59Z" uid="171838" user="argrath" changeset="3013822" lat="34.6925667" lon="135.4997477">
    <tag k="source" v="MLIT Japan"/>
    <tag k="source:ja" v="国土画像情報（オルソ化空中写真）国土交通省"/>
  </node>
  <node id="517700876" version="2" timestamp="2009-11-09T19:15:27Z" uid="171838" user="argrath" changeset="3076488" lat="34.6906286" lon="135.496267"/>
  <node id="517700880" version="2" timestamp="2009-11-10T13:21:16Z" uid="171838" user="argrath" changeset="3081981" lat="34.6906793" lon="135.4977787"/>
  <node id="517700882" version="2" timestamp="2009-11-10T13:21:15Z" uid="171838" user="argrath" changeset="3081981" lat="34.6907039" lon="135.4986724"/>
  <node id="517700890" version="2" timestamp="2009-11-10T13:21:11Z" uid="171838" user="argrath" changeset="3081981" lat="34.6906793" lon="135.4996259"/>
  <node id="517700891" version="2" timestamp="2009-11-10T13:21:11Z" uid="171838" user="argrath" changeset="3081981" lat="34.6906875" lon="135.5000827"/>
  <node id="517700892" version="2" timestamp="2009-11-09T18:44:38Z" uid="171838" user="argrath" changeset="3076161" lat="34.6906926" lon="135.5007612"/>
  <node id="517700900" version="2" timestamp="2009-11-10T13:21:24Z" uid="171838" user="argrath" changeset="3081981" lat="34.6903075" lon="135.4978019"/>
  <node id="517700903" version="2" timestamp="2009-11-02T06:06:00Z" uid="171838" user="argrath" changeset="3013822" lat="34.6923849" lon="135.4975892">
    <tag k="source" v="MLIT Japan"/>
    <tag k="source:ja" v="国土画像情報（オルソ化空中写真）国土交通省"/>
  </node>
  <node id="517700919" version="2" timestamp="2009-11-02T06:06:00Z" uid="171838" user="argrath" changeset="3013822" lat="34.6924795" lon="135.4987169">
    <tag k="source" v="MLIT Japan"/>
    <tag k="source:ja" v="国土画像情報（オルソ化空中写真）国土交通省"/>
  </node>
  <node id="517700922" version="2" timestamp="2009-11-10T13:21:15Z" uid="171838" user="argrath" changeset="3081981" lat="34.6902937" lon="135.4986724"/>
  <node id="517700972" version="2" timestamp="2009-11-09T18:44:31Z" uid="171838" user="argrath" changeset="3076161" lat="34.6852122" lon="135.5005481"/>
  <node id="517701017" version="2" timestamp="2009-11-10T16:33:25Z" uid="171838" user="argrath" changeset="3083227" lat="34.6852497" lon="135.4997334"/>
  <node id="517701032" version="2" timestamp="2009-11-10T13:21:24Z" uid="171838" user="argrath" changeset="3081981" lat="34.6883995" lon="135.499604"/>
</osm>
