<?xml version='1.0' encoding='UTF-8'?>
<osm version="0.6" generator="libosmium/2.20.0">
  <node id="518091926" version="1" timestamp="2009-10-02T20:30:09Z" uid="86259" user="hasse_osm_korinthenkacker" changeset="2717343" lat="47.9016361" lon="11.7330294">
    <tag k="addr:city" v="Holzkirchen"/>
    <tag k="addr:country" v="DE"/>
    <tag k="addr:housenumber" v="18"/>
    <tag k="addr:postcode" v="83607"/>
    <tag k="addr:street" v="Sollacher Straße"/>
  </node>
  <node id="518091927" version="1" timestamp="2009-10-02T20:30:09Z" uid="86259" user="hasse_osm_korinthenkacker" changeset="2717343" lat="47.9026431" lon="11.7317076">
    <tag k="addr:city" v="Holzkirchen"/>
    <tag k="addr:country" v="DE"/>
    <tag k="addr:housenumber" v="2"/>
    <tag k="addr:postcode" v="83607"/>
    <tag k="addr:street" v="Fellach"/>
  </node>
  <node id="518091928" version="1" timestamp="2009-10-02T20:30:09Z" uid="86259" user="hasse_osm_korinthenkacker" changeset="2717343" lat="47.9026201" lon="11.7319565">
    <tag k="addr:city" v="Holzkirchen"/>
    <tag k="addr:country" v="DE"/>
    <tag k="addr:housenumber" v="4"/>
    <tag k="addr:postcode" v="83607"/>
    <tag k="addr:street" v="Fellach"/>
  </node>
  <node id="518091930" version="1" timestamp="2009-10-02T20:30:09Z" uid="86259" user="hasse_osm_korinthenkacker" changeset="2717343" lat="47.9030229" lon="11.7315188">
    <tag k="addr:city" v="Holzkirchen"/>
    <tag k="addr:country" v="DE"/>
    <tag k="addr:housenumber" v="3"/>
    <tag k="addr:postcode" v="83607"/>
    <tag k="addr:street" v="Fellach"/>
  </node>
  <node id="518091931" version="1" timestamp="2009-10-02T20:30:09Z" uid="86259" user="hasse_osm_korinthenkacker" changeset="2717343" lat="47.9022576" lon="11.7333641">
    <tag k="addr:city" v="Holzkirchen"/>
    <tag k="addr:country" v="DE"/>
    <tag k="addr:housenumber" v="12"/>
    <tag k="addr:postcode" v="83607"/>
    <tag k="addr:street" v="Sollacher Straße"/>
  </node>
  <node id="518091932" version="1" timestamp="2009-10-02T20:30:09Z" uid="86259" user="hasse_osm_korinthenkacker" changeset="2717343" lat="47.9022231" lon="11.7327204">
    <tag k="addr:city" v="Holzkirchen"/>
    <tag k="addr:country" v="DE"/>
    <tag k="addr:housenumber" v="10"/>
    <tag k="addr:postcode" v="83607"/>
    <tag k="addr:street" v="Sollacher Straße"/>
  </node>
  <node id="518091934" version="1" timestamp="2009-10-02T20:30:09Z" uid="86259" user="hasse_osm_korinthenkacker" changeset="2717343" lat="47.9020907" lon="11.7333126">
    <tag k="addr:city" v="Holzkirchen"/>
    <tag k="addr:country" v="DE"/>
    <tag k="addr:housenumber" v="12a"/>
    <tag k="addr:postcode" v="83607"/>
    <tag k="addr:street" v="Sollacher Straße"/>
  </node>
  <node id="518091936" version="1" timestamp="2009-10-02T20:30:09Z" uid="86259" user="hasse_osm_korinthenkacker" changeset="2717343" lat="47.9024417" lon="11.7328577">
    <tag k="addr:city" v="Holzkirchen"/>
    <tag k="addr:country" v="DE"/>
    <tag k="addr:housenumber" v="8a"/>
    <tag k="addr:postcode" v="83607"/>
    <tag k="addr:street" v="Sollacher Straße"/>
  </node>
  <node id="518091939" version="1" timestamp="2009-10-02T20:30:10Z" uid="86259" user="hasse_osm_korinthenkacker" changeset="2717343" lat="47.9024935" lon="11.7329779">
    <tag k="addr:city" v="Holzkirchen"/>
    <tag k="addr:country" v="DE"/>
    <tag k="addr:housenumber" v="8"/>
    <tag k="addr:postcode" v="83607"/>
    <tag k="addr:street" v="Sollacher Straße"/>
  </node>
  <node id="518091941" version="1" timestamp="2009-10-02T20:30:10Z" uid="86259" user="hasse_osm_korinthenkacker" changeset="2717343" lat="47.9027122" lon="11.7328148">
    <tag k="addr:city" v="Holzkirchen"/>
    <tag k="addr:country" v="DE"/>
    <tag k="addr:housenumber" v="6"/>
    <tag k="addr:postcode" v="83607"/>
    <tag k="addr:street" v="Sollacher Straße"/>
  </node>
  <node id="518091944" version="1" timestamp="2009-10-02T20:30:10Z" uid="86259" user="hasse_osm_korinthenkacker" changeset="2717343" lat="47.9029538" lon="11.7326002">
    <tag k="addr:city" v="Holzkirchen"/>
    <tag k="addr:country" v="DE"/>
    <tag k="addr:housenumber" v="2"/>
    <tag k="addr:postcode" v="83607"/>
    <tag k="addr:street" v="Sollacher Straße"/>
  </node>
  <node id="518091947" version="1" timestamp="2009-10-02T20:30:10Z" uid="86259" user="hasse_osm_korinthenkacker" changeset="2717343" lat="47.9028503" lon="11.732686">
    <tag k="addr:city" v="Holzkirchen"/>
    <tag k="addr:country" v="DE"/>
    <tag k="addr:housenumber" v="4"/>
    <tag k="addr:postcode" v="83607"/>
    <tag k="addr:street" v="Sollacher Straße"/>
  </node>
  <node id="518091950" version="1" timestamp="2009-10-02T20:30:10Z" uid="86259" user="hasse_osm_korinthenkacker" changeset="2717343" lat="47.9030862" lon="11.7330551">
    <tag k="addr:city" v="Holzkirchen"/>
    <tag k="addr:country" v="DE"/>
    <tag k="addr:housenumber" v="1"/>
    <tag k="addr:postcode" v="83607"/>
    <tag k="addr:street" v="Sollacher Straße"/>
  </node>
  <node id="518091953" version="1" timestamp="2009-10-02T20:30:10Z" uid="86259" user="hasse_osm_korinthenkacker" changeset="2717343" lat="47.9034947" lon="11.7317505">
    <tag k="addr:city" v="Holzkirchen"/>
    <tag k="addr:country" v="DE"/>
    <tag k="addr:housenumber" v="5"/>
    <tag k="addr:postcode" v="83607"/>
    <tag k="addr:street" v="Fellach"/>
  </node>
  <node id="518091956" version="1" timestamp="2009-10-02T20:30:10Z" uid="86259" user="hasse_osm_korinthenkacker" changeset="2717343" lat="47.9033624" lon="11.7325487">
    <tag k="addr:city" v="Holzkirchen"/>
    <tag k="addr:country" v="DE"/>
    <tag k="addr:housenumber" v="7"/>
    <tag k="addr:postcode" v="83607"/>
    <tag k="addr:street" v="Fellach"/>
  </node>
  <node id="518091959" version="1" timestamp="2009-10-02T20:30:10Z" uid="86259" user="hasse_osm_korinthenkacker" changeset="2717343" lat="47.9036846" lon="11.7326346">
    <tag k="addr:city" v="Holzkirchen"/>
    <tag k="addr:country" v="DE"/>
    <tag k="addr:housenumber" v="9"/>
    <tag k="addr:postcode" v="83607"/>
    <tag k="addr:street" v="Fellach"/>
  </node>
  <node id="518091962" version="1" timestamp="2009-10-02T20:30:10Z" uid="86259" user="hasse_osm_korinthenkacker" changeset="2717343" lat="47.9035235" lon="11.7330809">
    <tag k="addr:city" v="Holzkirchen"/>
    <tag k="addr:country" v="DE"/>
    <tag k="addr:housenumber" v="1"/>
    <tag k="addr:postcode" v="83607"/>
    <tag k="addr:street" v="Meßnerstraßl"/>
  </node>
  <node id="518091963" version="1" timestamp="2009-10-02T20:30:10Z" uid="86259" user="hasse_osm_korinthenkacker" changeset="2717343" lat="47.9018318" lon="11.733407">
    <tag k="addr:city" v="Holzkirchen"/>
    <tag k="addr:country" v="DE"/>
    <tag k="addr:housenumber" v="16"/>
    <tag k="addr:postcode" v="83607"/>
    <tag k="addr:street" v="Sollacher Straße"/>
  </node>
  <node id="518091964" version="1" timestamp="2009-10-02T20:30:10Z" uid="86259" user="hasse_osm_korinthenkacker" changeset="2717343" lat="47.9024072" lon="11.7337246">
    <tag k="addr:city" v="Holzkirchen"/>
    <tag k="addr:country" v="DE"/>
    <tag k="addr:housenumber" v="9"/>
    <tag k="addr:postcode" v="83607"/>
    <tag k="addr:street" v="Sollacher Straße"/>
  </node>
  <node id="518091965" version="1" timestamp="2009-10-02T20:30:10Z" uid="86259" user="hasse_osm_korinthenkacker" changeset="2717343" lat="47.9019699" lon="11.7336817">
    <tag k="addr:city" v="Holzkirchen"/>
    <tag k="addr:country" v="DE"/>
    <tag k="addr:housenumber" v="14"/>
    <tag k="addr:postcode" v="83607"/>
    <tag k="addr:street" v="Sollacher Straße"/>
  </node>
  <node id="518091967" version="1" timestamp="2009-10-02T20:30:10Z" uid="86259" user="hasse_osm_korinthenkacker" changeset="2717343" lat="47.9021943" lon="11.7339478">
    <tag k="addr:city" v="Holzkirchen"/>
    <tag k="addr:country" v="DE"/>
    <tag k="addr:housenumber" v="13"/>
    <tag k="addr:postcode" v="83607"/>
    <tag k="addr:street" v="Sollacher Straße"/>
  </node>
  <node id="518091970" version="1" timestamp="2009-10-02T20:30:10Z" uid="86259" user="hasse_osm_korinthenkacker" changeset="2717343" lat="47.9031149" lon="11.733407">
    <tag k="addr:city" v="Holzkirchen"/>
    <tag k="addr:country" v="DE"/>
    <tag k="addr:housenumber" v="2"/>
    <tag k="addr:postcode" v="83607"/>
    <tag k="addr:street" v="Meßnerstraßl"/>
  </node>
  <node id="518091972" version="1" timestamp="2009-10-02T20:30:10Z" uid="86259" user="hasse_osm_korinthenkacker" changeset="2717343" lat="47.9026316" lon="11.7337418">
    <tag k="addr:city" v="Holzkirchen"/>
    <tag k="addr:country" v="DE"/>
    <tag k="addr:housenumber" v="7"/>
    <tag k="addr:postcode" v="83607"/>
    <tag k="addr:street" v="Sollacher Straße"/>
  </node>
  <node id="518091993" version="1" timestamp="2009-10-02T20:30:11Z" uid="86259" user="hasse_osm_korinthenkacker" changeset="2717343" lat="47.9027755" lon="11.733407">
    <tag k="addr:city" v="Holzkirchen"/>
    <tag k="addr:country" v="DE"/>
    <tag k="addr:housenumber" v="3"/>
    <tag k="addr:postcode" v="83607"/>
    <tag k="addr:street" v="Sollacher Straße"/>
  </node>
  <node id="518091994" version="1" timestamp="2009-10-02T20:30:11Z" uid="86259" user="hasse_osm_korinthenkacker" changeset="2717343" lat="47.902459" lon="11.7338448">
    <tag k="addr:city" v="Holzkirchen"/>
    <tag k="addr:country" v="DE"/>
    <tag k="addr:housenumber" v="11"/>
    <tag k="addr:postcode" v="83607"/>
    <tag k="addr:street" v="Sollacher Straße"/>
  </node>
  <node id="518091995" version="1" timestamp="2009-10-02T20:30:11Z" uid="86259" user="hasse_osm_korinthenkacker" changeset="2717343" lat="47.9025741" lon="11.7335615">
    <tag k="addr:city" v="Holzkirchen"/>
    <tag k="addr:country" v="DE"/>
    <tag k="addr:housenumber" v="5"/>
    <tag k="addr:postcode" v="83607"/>
    <tag k="addr:street" v="Sollacher Straße"/>
  </node>
  <node id="518091996" version="1" timestamp="2009-10-02T20:30:11Z" uid="86259" user="hasse_osm_korinthenkacker" changeset="2717343" lat="47.9033854" lon="11.7337074">
    <tag k="addr:city" v="Holzkirchen"/>
    <tag k="addr:country" v="DE"/>
    <tag k="addr:housenumber" v="6"/>
    <tag k="addr:postcode" v="83607"/>
    <tag k="addr:street" v="Meßnerstraßl"/>
  </node>
  <node id="518091999" version="1" timestamp="2009-10-02T20:30:12Z" uid="86259" user="hasse_osm_korinthenkacker" changeset="2717343" lat="47.9035235" lon="11.7335873">
    <tag k="addr:city" v="Holzkirchen"/>
    <tag k="addr:country" v="DE"/>
    <tag k="addr:housenumber" v="4"/>
    <tag k="addr:postcode" v="83607"/>
    <tag k="addr:street" v="Meßnerstraßl"/>
  </node>
  <node id="518092001" version="1" timestamp="2009-10-02T20:30:12Z" uid="86259" user="hasse_osm_korinthenkacker" changeset="2717343" lat="47.9116821" lon="11.7341766">
    <tag k="addr:city" v="Nehaider"/>
    <tag k="addr:country" v="DE"/>
    <tag k="addr:housenumber" v="1"/>
    <tag k="addr:postcode" v="83607"/>
    <tag k="addr:street" v="Nehaider"/>
  </node>
  <node id="518092003" version="1" timestamp="2009-10-02T20:30:12Z" uid="86259" user="hasse_osm_korinthenkacker" changeset="2717343" lat="47.9115037" lon="11.7338161">
    <tag k="addr:city" v="Nehaider"/>
    <tag k="addr:country" v="DE"/>
    <tag k="addr:housenumber" v="2"/>
    <tag k="addr:postcode" v="83607"/>
    <tag k="addr:street" v="Nehaider"/>
  </node>
</osm>
