<?xml version='1.0' encoding='UTF-8'?>
<osm version="0.6" generator="libosmium/2.20.0">
  <node id="518554067" version="1" timestamp="2009-10-03T09:23:10Z" uid="12188" user="Babis" changeset="2721148" lat="37.9390574" lon="23.7411067"/>
  <node id="518554067" version="2" timestamp="2009-10-03T09:23:30Z" uid="12188" user="Babis" changeset="2721148" lat="37.9390574" lon="23.7411067"/>
  <node id="518554068" version="1" timestamp="2009-10-03T09:23:10Z" uid="12188" user="Babis" changeset="2721148" lat="37.9407497" lon="23.7405145"/>
  <node id="518554068" version="2" timestamp="2009-10-03T09:23:30Z" uid="12188" user="Babis" changeset="2721148" lat="37.9407497" lon="23.7405145"/>
  <node id="518554069" version="1" timestamp="2009-10-03T09:23:10Z" uid="12188" user="Babis" changeset="2721148" lat="37.9464016" lon="23.7391412"/>
  <node id="518554069" version="2" timestamp="2009-10-03T09:23:30Z" uid="12188" user="Babis" changeset="2721148" lat="37.9464016" lon="23.7391412"/>
  <node id="518554070" version="1" timestamp="2009-10-03T09:23:11Z" uid="12188" user="Babis" changeset="2721148" lat="37.948669" lon="23.7385146"/>
  <node id="518554070" version="2" timestamp="2009-10-03T09:23:31Z" uid="12188" user="Babis" changeset="2721148" lat="37.948669" lon="23.7385146"/>
  <node id="518554071" version="1" timestamp="2009-10-03T09:23:11Z" uid="12188" user="Babis" changeset="2721148" lat="37.9505979" lon="23.7377765"/>
  <node id="518554071" version="2" timestamp="2009-10-03T09:23:30Z" uid="12188" user="Babis" changeset="2721148" lat="37.9505979" lon="23.7377765"/>
  <node id="518554791" version="1" timestamp="2009-10-03T09:23:48Z" uid="18775" user="drlizau" changeset="2721288" lat="-34.4533258" lon="147.5271259"/>
  <node id="518554793" version="1" timestamp="2009-10-03T09:23:49Z" uid="18775" user="drlizau" changeset="2721288" lat="-34.4529754" lon="147.5283659"/>
  <node id="518554796" version="1" timestamp="2009-10-03T09:23:49Z" uid="18775" user="drlizau" changeset="2721288" lat="-34.4546131" lon="147.5290467"/>
  <node id="518554798" version="1" timestamp="2009-10-03T09:23:49Z" uid="18775" user="drlizau" changeset="2721288" lat="-34.4549636" lon="147.5278066"/>
  <node id="518554800" version="1" timestamp="2009-10-03T09:23:49Z" uid="18775" user="drlizau" changeset="2721288" lat="-34.4466509" lon="147.5340719">
    <tag k="leisure" v="picnic_table"/>
  </node>
  <node id="518554800" version="2" timestamp="2010-04-22T06:23:33Z" uid="4467" user="Rosscoe" changeset="4492775" lat="-34.4466509" lon="147.534072">
    <tag k="tourism" v="picnic_site"/>
  </node>
  <node id="518554803" version="1" timestamp="2009-10-03T09:23:49Z" uid="18775" user="drlizau" changeset="2721288" lat="-34.4463525" lon="147.5336801">
    <tag k="name" v="Dales Camera Centre"/>
    <tag k="shop" v="photography"/>
  </node>
  <node id="518554806" version="1" timestamp="2009-10-03T09:23:49Z" uid="18775" user="drlizau" changeset="2721288" lat="-34.4462074" lon="147.5336092">
    <tag k="amenity" v="cafe"/>
    <tag k="name" v="Wilper&apos;s Pantry"/>
  </node>
  <node id="518554807" version="1" timestamp="2009-10-03T09:23:49Z" uid="18775" user="drlizau" changeset="2721288" lat="-34.4459103" lon="147.5334566">
    <tag k="amenity" v="fuel"/>
    <tag k="operator" v="Shell"/>
  </node>
  <node id="518554807" version="2" timestamp="2010-02-06T11:10:54Z" uid="18775" user="drlizau" changeset="3804076" lat="-34.4459103" lon="147.533457">
    <tag k="amenity" v="fuel"/>
    <tag k="fuel:discount" v="coles"/>
    <tag k="name" v="Coles Express Temora"/>
    <tag k="operator" v="Shell"/>
    <tag k="source:location" v="survey"/>
  </node>
  <node id="518554808" version="1" timestamp="2009-10-03T09:23:49Z" uid="18775" user="drlizau" changeset="2721288" lat="-34.4455963" lon="147.5333844">
    <tag k="name" v="St Vincent de Paul Society"/>
    <tag k="shop" v="op_shop"/>
  </node>
  <node id="518554809" version="1" timestamp="2009-10-03T09:23:49Z" uid="18775" user="drlizau" changeset="2721288" lat="-34.4454772" lon="147.533303">
    <tag k="operator" v="Beaurepaires"/>
    <tag k="shop" v="car_repair"/>
  </node>
  <node id="518554810" version="1" timestamp="2009-10-03T09:23:49Z" uid="18775" user="drlizau" changeset="2721288" lat="-34.4452966" lon="147.5332328">
    <tag k="amenity" v="restaurant"/>
    <tag k="cuisine" v="chinese"/>
    <tag k="name" v="Hong Kong Chinese Restaurant"/>
  </node>
  <node id="518554812" version="1" timestamp="2009-10-03T09:23:49Z" uid="18775" user="drlizau" changeset="2721288" lat="-34.4452521" lon="147.5332053">
    <tag k="name" v="Lisa&apos;s Hair on Hoskins"/>
    <tag k="shop" v="hairdresser"/>
  </node>
  <node id="518554814" version="1" timestamp="2009-10-03T09:23:49Z" uid="18775" user="drlizau" changeset="2721288" lat="-34.4452184" lon="147.5331768">
    <tag k="name" v="Radiance Body &amp; Beauty"/>
    <tag k="shop" v="beautician"/>
  </node>
  <node id="518554815" version="1" timestamp="2009-10-03T09:23:49Z" uid="18775" user="drlizau" changeset="2721288" lat="-34.4450474" lon="147.5330672">
    <tag k="name" v="Irvine Signs"/>
    <tag k="shop" v="signwriter"/>
  </node>
  <node id="518554815" version="2" timestamp="2010-07-27T06:14:15Z" uid="18775" user="drlizau" changeset="5326444" lat="-34.445116" lon="147.5330897">
    <tag k="name" v="Irvine Signs"/>
    <tag k="shop" v="signwriter"/>
  </node>
  <node id="518554816" version="1" timestamp="2009-10-03T09:23:49Z" uid="18775" user="drlizau" changeset="2721288" lat="-34.4445402" lon="147.5329257">
    <tag k="name" v="South West Ford"/>
    <tag k="operator" v="Ford"/>
    <tag k="shop" v="car"/>
  </node>
  <node id="518554817" version="1" timestamp="2009-10-03T09:23:49Z" uid="18775" user="drlizau" changeset="2721288" lat="-34.4450905" lon="147.5328398">
    <tag k="amenity" v="pub"/>
    <tag k="name" v="Railway Hotel"/>
  </node>
  <node id="518554817" version="2" timestamp="2010-07-27T06:14:17Z" uid="18775" user="drlizau" changeset="5326444" lat="-34.4451369" lon="147.5328398">
    <tag k="amenity" v="pub"/>
    <tag k="name" v="Railway Hotel"/>
  </node>
  <node id="518554818" version="1" timestamp="2009-10-03T09:23:49Z" uid="18775" user="drlizau" changeset="2721288" lat="-34.4451974" lon="147.5328863">
    <tag k="name" v="Dan&apos;s Giftware"/>
    <tag k="shop" v="gift_shop"/>
  </node>
  <node id="518554818" version="2" timestamp="2009-10-03T10:02:14Z" uid="18775" user="drlizau" changeset="2721612" lat="-34.4451974" lon="147.5328863">
    <tag k="name" v="Dan&apos;s Giftware"/>
    <tag k="shop" v="gift"/>
  </node>
  <node id="518554820" version="1" timestamp="2009-10-03T09:23:50Z" uid="18775" user="drlizau" changeset="2721288" lat="-34.445308" lon="147.5329361">
    <tag k="name" v="W.D. Coghlan"/>
    <tag k="shop" v="real_estate"/>
  </node>
  <node id="518554820" version="2" timestamp="2010-07-30T07:30:42Z" uid="4467" user="Rosscoe" changeset="5352230" lat="-34.445308" lon="147.5329361">
    <tag k="name" v="W.D. Coghlan"/>
    <tag k="office" v="estate_agent"/>
  </node>
  <node id="518554821" version="1" timestamp="2009-10-03T09:23:50Z" uid="18775" user="drlizau" changeset="2721288" lat="-34.4455078" lon="147.5330117">
    <tag k="shop" v="garden_centre"/>
  </node>
  <node id="518554822" version="1" timestamp="2009-10-03T09:23:50Z" uid="18775" user="drlizau" changeset="2721288" lat="-34.445588" lon="147.5330416">
    <tag k="name" v="Repco"/>
    <tag k="shop" v="car_repair"/>
  </node>
  <node id="518554824" version="1" timestamp="2009-10-03T09:23:50Z" uid="18775" user="drlizau" changeset="2721288" lat="-34.4456475" lon="147.5330843">
    <tag k="name" v="Scott&apos;s of Temora"/>
    <tag k="shop" v="clothing"/>
  </node>
  <node id="518554824" version="2" timestamp="2009-10-03T10:02:14Z" uid="18775" user="drlizau" changeset="2721612" lat="-34.4456475" lon="147.5330843">
    <tag k="name" v="Scott&apos;s of Temora"/>
    <tag k="shop" v="clothes"/>
  </node>
  <node id="518554827" version="1" timestamp="2009-10-03T09:23:50Z" uid="18775" user="drlizau" changeset="2721288" lat="-34.4457361" lon="147.5331244">
    <tag k="name" v="Millers Workwear and Embroidery"/>
    <tag k="shop" v="clothing"/>
  </node>
  <node id="518554827" version="2" timestamp="2009-10-03T10:02:14Z" uid="18775" user="drlizau" changeset="2721612" lat="-34.4457361" lon="147.5331244">
    <tag k="name" v="Millers Workwear and Embroidery"/>
    <tag k="shop" v="clothes"/>
  </node>
  <node id="518554829" version="1" timestamp="2009-10-03T09:23:50Z" uid="18775" user="drlizau" changeset="2721288" lat="-34.4457752" lon="147.5331441">
    <tag k="name" v="Walkers Wonder Mart"/>
    <tag k="shop" v="second_hand"/>
  </node>
  <node id="518554831" version="1" timestamp="2009-10-03T09:23:50Z" uid="18775" user="drlizau" changeset="2721288" lat="-34.4458292" lon="147.5331708">
    <tag k="name" v="Moment in Time"/>
    <tag k="shop" v="photography"/>
  </node>
  <node id="518554834" version="1" timestamp="2009-10-03T09:23:50Z" uid="18775" user="drlizau" changeset="2721288" lat="-34.4458721" lon="147.533179">
    <tag k="name" v="Temora French Hot Bread"/>
    <tag k="shop" v="bakery"/>
  </node>
  <node id="518554836" version="1" timestamp="2009-10-03T09:23:50Z" uid="18775" user="drlizau" changeset="2721288" lat="-34.4459581" lon="147.5332197">
    <tag k="name" v="new wave unisex hair salon"/>
    <tag k="shop" v="hairdresser"/>
  </node>
  <node id="518554838" version="1" timestamp="2009-10-03T09:23:50Z" uid="18775" user="drlizau" changeset="2721288" lat="-34.4460009" lon="147.5332308">
    <tag k="name" v="The Open Door Bookshop"/>
    <tag k="shop" v="books"/>
  </node>
  <node id="518554840" version="1" timestamp="2009-10-03T09:23:50Z" uid="18775" user="drlizau" changeset="2721288" lat="-34.4460404" lon="147.5332484">
    <tag k="amenity" v="chiropractor"/>
    <tag k="name" v="Riverina Family Chiropractic"/>
  </node>
  <node id="518554842" version="1" timestamp="2009-10-03T09:23:50Z" uid="18775" user="drlizau" changeset="2721288" lat="-34.4461267" lon="147.5332763">
    <tag k="name" v="Rosemon Angel Haven"/>
    <tag k="shop" v="gift_shop"/>
  </node>
  <node id="518554842" version="2" timestamp="2009-10-03T10:02:14Z" uid="18775" user="drlizau" changeset="2721612" lat="-34.4461267" lon="147.5332763">
    <tag k="name" v="Rosemon Angel Haven"/>
    <tag k="shop" v="gift"/>
  </node>
  <node id="518554845" version="1" timestamp="2009-10-03T09:23:50Z" uid="18775" user="drlizau" changeset="2721288" lat="-34.4462122" lon="147.5333265">
    <tag k="amenity" v="restaurant"/>
    <tag k="name" v="Zest B.Y.O."/>
  </node>
  <node id="518554848" version="1" timestamp="2009-10-03T09:23:50Z" uid="18775" user="drlizau" changeset="2721288" lat="-34.4463349" lon="147.5333902">
    <tag k="name" v="Temora Floor Coverings"/>
    <tag k="shop" v="carpet"/>
  </node>
  <node id="518554850" version="1" timestamp="2009-10-03T09:23:50Z" uid="18775" user="drlizau" changeset="2721288" lat="-34.4463472" lon="147.533395">
    <tag k="name" v="176 Hoskins St"/>
    <tag k="shop" v="clothing"/>
  </node>
  <node id="518554850" version="2" timestamp="2009-10-03T10:02:14Z" uid="18775" user="drlizau" changeset="2721612" lat="-34.4463472" lon="147.533395">
    <tag k="name" v="176 Hoskins St"/>
    <tag k="shop" v="clothes"/>
  </node>
  <node id="518554853" version="1" timestamp="2009-10-03T09:23:50Z" uid="18775" user="drlizau" changeset="2721288" lat="-34.4463621" lon="147.5334038">
    <tag k="name" v="Whites Shoex"/>
    <tag k="shop" v="shoes"/>
  </node>
  <node id="518554855" version="1" timestamp="2009-10-03T09:23:50Z" uid="18775" user="drlizau" changeset="2721288" lat="-34.4464392" lon="147.5334234">
    <tag k="name" v="Farrell Goode"/>
    <tag k="shop" v="solicitor"/>
  </node>
  <node id="518554857" version="1" timestamp="2009-10-03T09:23:50Z" uid="18775" user="drlizau" changeset="2721288" lat="-34.4464569" lon="147.5334296">
    <tag k="name" v="Temora&apos;s Own Arts and Crafts"/>
    <tag k="shop" v="craft_shop"/>
  </node>
  <node id="518554857" version="2" timestamp="2009-10-03T10:02:14Z" uid="18775" user="drlizau" changeset="2721612" lat="-34.4464569" lon="147.5334296">
    <tag k="name" v="Temora&apos;s Own Arts and Crafts"/>
    <tag k="shop" v="arts_craft"/>
  </node>
  <node id="518554860" version="1" timestamp="2009-10-03T09:23:51Z" uid="18775" user="drlizau" changeset="2721288" lat="-34.4464729" lon="147.5334376">
    <tag k="name" v="Gersbach Firman"/>
    <tag k="shop" v="real_estate"/>
  </node>
  <node id="518554860" version="2" timestamp="2010-07-30T07:30:44Z" uid="4467" user="Rosscoe" changeset="5352230" lat="-34.4464729" lon="147.5334376">
    <tag k="name" v="Gersbach Firman"/>
    <tag k="office" v="estate_agent"/>
  </node>
  <node id="518554862" version="1" timestamp="2009-10-03T09:23:51Z" uid="18775" user="drlizau" changeset="2721288" lat="-34.4464913" lon="147.5334453">
    <tag k="amenity" v="cafe"/>
    <tag k="name" v="White Rose Cafe"/>
  </node>
</osm>
