<?xml version='1.0' encoding='UTF-8'?>
<osm version="0.6" generator="libosmium/2.20.0">
  <node id="518603576" version="1" timestamp="2009-10-03T10:02:12Z" uid="18775" user="drlizau" changeset="2721612" lat="-34.4465117" lon="147.5334565">
    <tag k="shop" v="carpet"/>
  </node>
  <node id="518603577" version="1" timestamp="2009-10-03T10:02:12Z" uid="18775" user="drlizau" changeset="2721612" lat="-34.446704" lon="147.5335206">
    <tag k="amenity" v="bank"/>
    <tag k="atm" v="yes"/>
    <tag k="name" v="Westpac"/>
  </node>
  <node id="518603578" version="1" timestamp="2009-10-03T10:02:12Z" uid="18775" user="drlizau" changeset="2721612" lat="-34.4472069" lon="147.5320408">
    <tag k="amenity" v="pub"/>
    <tag k="name" v="Temora Ex-Services Memorial Club"/>
  </node>
  <node id="518603579" version="1" timestamp="2009-10-03T10:02:12Z" uid="18775" user="drlizau" changeset="2721612" lat="-34.4475174" lon="147.5321548">
    <tag k="name" v="Goldtera Motor Inn"/>
    <tag k="tourism" v="motel"/>
  </node>
  <node id="518603580" version="1" timestamp="2009-10-03T10:02:12Z" uid="18775" user="drlizau" changeset="2721612" lat="-34.4469751" lon="147.533633">
    <tag k="name" v="Sadie Michael Salon"/>
    <tag k="shop" v="clothes"/>
  </node>
  <node id="518603581" version="1" timestamp="2009-10-03T10:02:12Z" uid="18775" user="drlizau" changeset="2721612" lat="-34.4468546" lon="147.533457">
    <tag k="amenity" v="bench"/>
    <tag k="backrest" v="yes"/>
  </node>
  <node id="518603582" version="1" timestamp="2009-10-03T10:02:12Z" uid="18775" user="drlizau" changeset="2721612" lat="-34.4470304" lon="147.5336548">
    <tag k="name" v="Lynchs Sports Store"/>
    <tag k="shop" v="sports"/>
  </node>
  <node id="518603583" version="1" timestamp="2009-10-03T10:02:12Z" uid="18775" user="drlizau" changeset="2721612" lat="-34.44707" lon="147.5336668">
    <tag k="name" v="Temora Travel"/>
    <tag k="shop" v="travel_agency"/>
  </node>
  <node id="518603585" version="1" timestamp="2009-10-03T10:02:12Z" uid="18775" user="drlizau" changeset="2721612" lat="-34.4470887" lon="147.5336742">
    <tag k="amenity" v="bank"/>
    <tag k="atm" v="no"/>
    <tag k="name" v="NAB"/>
  </node>
  <node id="518603586" version="1" timestamp="2009-10-03T10:02:12Z" uid="18775" user="drlizau" changeset="2721612" lat="-34.4471661" lon="147.5336984">
    <tag k="name" v="M.F. Brennan Real Estate"/>
    <tag k="shop" v="real_estate"/>
  </node>
  <node id="518603586" version="2" timestamp="2010-07-30T07:30:43Z" uid="4467" user="Rosscoe" changeset="5352230" lat="-34.4471661" lon="147.5336984">
    <tag k="name" v="M.F. Brennan Real Estate"/>
    <tag k="office" v="estate_agent"/>
  </node>
  <node id="518603587" version="1" timestamp="2009-10-03T10:02:12Z" uid="18775" user="drlizau" changeset="2721612" lat="-34.4472367" lon="147.5337434">
    <tag k="amenity" v="pharmacy"/>
    <tag k="dispensing" v="yes"/>
    <tag k="name" v="Temora Capital Chemist"/>
  </node>
  <node id="518603588" version="1" timestamp="2009-10-03T10:02:12Z" uid="18775" user="drlizau" changeset="2721612" lat="-34.4445102" lon="147.5344401"/>
  <node id="518603589" version="1" timestamp="2009-10-03T10:02:12Z" uid="18775" user="drlizau" changeset="2721612" lat="-34.4442472" lon="147.5353831"/>
  <node id="518603590" version="1" timestamp="2009-10-03T10:02:12Z" uid="18775" user="drlizau" changeset="2721612" lat="-34.4447832" lon="147.5356029"/>
  <node id="518603591" version="1" timestamp="2009-10-03T10:02:12Z" uid="18775" user="drlizau" changeset="2721612" lat="-34.4450462" lon="147.5346599"/>
  <node id="518603592" version="1" timestamp="2009-10-03T10:02:12Z" uid="18775" user="drlizau" changeset="2721612" lat="-34.4434758" lon="147.538433"/>
  <node id="518603593" version="1" timestamp="2009-10-03T10:02:13Z" uid="18775" user="drlizau" changeset="2721612" lat="-34.4432136" lon="147.5393335"/>
  <node id="518603594" version="1" timestamp="2009-10-03T10:02:13Z" uid="18775" user="drlizau" changeset="2721612" lat="-34.4449315" lon="147.5394151">
    <tag k="amenity" v="place_of_worship"/>
    <tag k="denomination" v="lutheran"/>
    <tag k="name" v="Trinity Lutheran Church"/>
    <tag k="religion" v="christian"/>
  </node>
  <node id="518603595" version="1" timestamp="2009-10-03T10:02:13Z" uid="18775" user="drlizau" changeset="2721612" lat="-34.4480583" lon="147.5539768">
    <tag k="leisure" v="picnic_table"/>
  </node>
  <node id="518603595" version="2" timestamp="2009-11-29T05:24:34Z" uid="18775" user="drlizau" changeset="3242375" lat="-34.4480583" lon="147.5539768">
    <tag k="tourism" v="picnic_site"/>
  </node>
  <node id="518605258" version="1" timestamp="2009-10-03T10:08:46Z" uid="33382" user="de_muur" changeset="2721676" lat="53.0286619" lon="8.9714654">
    <tag k="addr:city" v="Achim"/>
    <tag k="addr:country" v="DE"/>
    <tag k="addr:housenumber" v="43"/>
    <tag k="addr:postcode" v="28832"/>
    <tag k="addr:street" v="Uphuser Heerstraße"/>
    <tag k="name" v="Garde"/>
    <tag k="shop" v="bakery"/>
  </node>
  <node id="518605258" version="2" timestamp="2009-10-03T15:01:15Z" uid="33382" user="de_muur" changeset="2724999" lat="53.0286619" lon="8.9714654">
    <tag k="addr:city" v="Achim"/>
    <tag k="addr:country" v="DE"/>
    <tag k="addr:housenumber" v="43"/>
    <tag k="addr:phone" v="0420281903"/>
    <tag k="addr:postcode" v="28832"/>
    <tag k="addr:street" v="Uphuser Heerstraße"/>
    <tag k="name" v="Garde"/>
    <tag k="shop" v="bakery"/>
  </node>
</osm>
