<?xml version='1.0' encoding='UTF-8'?>
<osm version="0.6" generator="libosmium/2.20.0">
  <node id="519241793" version="2" timestamp="2009-11-04T18:58:03Z" uid="9581" user="Lobelt" changeset="3035225" lat="49.5362368" lon="8.6627172"/>
  <node id="519241793" version="4" timestamp="2010-09-08T18:55:06Z" uid="9581" user="Lobelt" changeset="5726799" lat="49.5363669" lon="8.6626532"/>
  <node id="519241795" version="2" timestamp="2010-09-08T18:55:02Z" uid="9581" user="Lobelt" changeset="5726799" lat="49.537219" lon="8.6614812"/>
  <node id="519241797" version="2" timestamp="2009-12-14T19:45:05Z" uid="9581" user="Lobelt" changeset="3374487" lat="49.5384444" lon="8.6607779"/>
  <node id="519241799" version="2" timestamp="2009-12-14T19:45:05Z" uid="9581" user="Lobelt" changeset="3374487" lat="49.5383281" lon="8.6612398"/>
  <node id="519241803" version="3" timestamp="2010-09-08T18:55:08Z" uid="9581" user="Lobelt" changeset="5726799" lat="49.5375627" lon="8.6633917"/>
  <node id="519244550" version="1" timestamp="2009-10-03T18:54:07Z" uid="20587" user="balrog-kun" changeset="2728127" lat="52.2458425" lon="21.0711581">
    <tag k="addr:housenumber" v="281"/>
    <tag k="addr:street" v="Grochowska"/>
    <tag k="amenity" v="fast_food"/>
    <tag k="cuisine" v="asian"/>
    <tag k="name" v="Bar Orientalny"/>
    <tag k="old_name" v="Kugiel"/>
  </node>
  <node id="519244550" version="2" timestamp="2009-11-23T17:33:30Z" uid="20587" user="balrog-kun" changeset="3197568" lat="52.2458425" lon="21.0711581">
    <tag k="addr:housenumber" v="281"/>
    <tag k="addr:street" v="Grochowska"/>
    <tag k="amenity" v="fast_food"/>
    <tag k="cuisine" v="asian"/>
    <tag k="name" v="Ha Duong Xinh"/>
    <tag k="old_name" v="Kugiel"/>
  </node>
  <node id="519244550" version="3" timestamp="2009-11-27T13:44:27Z" uid="20587" user="balrog-kun" changeset="3228126" lat="52.2457876" lon="21.0711207">
    <tag k="addr:housenumber" v="281"/>
    <tag k="addr:street" v="Grochowska"/>
    <tag k="amenity" v="fast_food"/>
    <tag k="cuisine" v="asian"/>
    <tag k="name" v="Ha Duong Xinh"/>
    <tag k="old_name" v="Kugiel"/>
  </node>
  <node id="519244550" version="4" timestamp="2010-01-14T14:06:29Z" uid="20587" user="balrog-kun" changeset="3617185" lat="52.2457876" lon="21.0711207">
    <tag k="addr:housenumber" v="281"/>
    <tag k="addr:street" v="Grochowska"/>
    <tag k="amenity" v="fast_food"/>
    <tag k="cuisine" v="asian"/>
    <tag k="name" v="Hai Duong Xanh"/>
    <tag k="old_name" v="Kugiel"/>
  </node>
  <node id="519244550" version="5" timestamp="2010-07-31T02:37:38Z" uid="20587" user="balrog-kun" changeset="5359588" lat="52.2457876" lon="21.0711207">
    <tag k="addr:housenumber" v="281"/>
    <tag k="addr:street" v="Grochowska"/>
    <tag k="amenity" v="fast_food"/>
    <tag k="cuisine" v="asian"/>
    <tag k="name" v="Au Lac"/>
    <tag k="old_name" v="Kugiel;Hai Duong Xanh"/>
  </node>
  <node id="519244554" version="1" timestamp="2009-10-03T18:54:07Z" uid="20587" user="balrog-kun" changeset="2728127" lat="52.2449003" lon="21.0916194">
    <tag k="amenity" v="fast_food"/>
    <tag k="cuisine" v="kebab"/>
    <tag k="name" v="Baku Grill Bar"/>
  </node>
  <node id="519244554" version="2" timestamp="2010-11-06T21:48:46Z" uid="20587" user="balrog-kun" changeset="6306791" lat="52.2449003" lon="21.0916194">
    <tag k="amenity" v="fast_food"/>
    <tag k="cuisine" v="kebab"/>
    <tag k="name" v="Marrakech Kebab"/>
    <tag k="old_name" v="Baku Grill Bar"/>
  </node>
  <node id="519244557" version="1" timestamp="2009-10-03T18:54:07Z" uid="20587" user="balrog-kun" changeset="2728127" lat="52.2492307" lon="21.0519487">
    <tag k="shop" v="gym"/>
  </node>
  <node id="519244559" version="1" timestamp="2009-10-03T18:54:07Z" uid="20587" user="balrog-kun" changeset="2728127" lat="52.2488693" lon="21.051869">
    <tag k="name" v="NTT System Ltd."/>
    <tag k="shop" v="computer"/>
  </node>
  <node id="519244562" version="1" timestamp="2009-10-03T18:54:07Z" uid="20587" user="balrog-kun" changeset="2728127" lat="52.246519" lon="21.0677551">
    <tag k="shop" v="computer"/>
  </node>
  <node id="519248696" version="1" timestamp="2009-10-03T18:56:57Z" uid="20587" user="balrog-kun" changeset="2728163" lat="52.2487726" lon="21.0514978">
    <tag k="traffic_calming" v="hump"/>
  </node>
  <node id="519248698" version="1" timestamp="2009-10-03T18:56:57Z" uid="20587" user="balrog-kun" changeset="2728163" lat="52.2492468" lon="21.0506654">
    <tag k="traffic_calming" v="hump"/>
  </node>
  <node id="519248701" version="1" timestamp="2009-10-03T18:56:57Z" uid="20587" user="balrog-kun" changeset="2728163" lat="52.2487766" lon="21.0532618">
    <tag k="traffic_calming" v="bump"/>
  </node>
  <node id="519248703" version="1" timestamp="2009-10-03T18:56:58Z" uid="20587" user="balrog-kun" changeset="2728163" lat="52.2490884" lon="21.0544841">
    <tag k="traffic_calming" v="bump"/>
  </node>
  <node id="519248705" version="1" timestamp="2009-10-03T18:56:58Z" uid="20587" user="balrog-kun" changeset="2728163" lat="52.2493867" lon="21.0555941">
    <tag k="traffic_calming" v="bump"/>
  </node>
</osm>
