<?xml version='1.0' encoding='UTF-8'?>
<osm version="0.6" generator="libosmium/2.20.0">
  <node id="519401028" version="2" timestamp="2010-08-08T13:07:45Z" uid="9581" user="Lobelt" changeset="5432906" lat="35.1861982" lon="-0.6598483"/>
  <node id="519401030" version="2" timestamp="2010-08-08T13:08:04Z" uid="9581" user="Lobelt" changeset="5432906" lat="35.1859615" lon="-0.6597114"/>
  <node id="519402963" version="1" timestamp="2009-10-03T20:58:41Z" uid="179968" user="Ich_hasse_doitsche_OSM-Korinthenkacker" changeset="2729559" lat="-55.8033402" lon="-66.80759"/>
  <node id="519402966" version="1" timestamp="2009-10-03T20:58:41Z" uid="179968" user="Ich_hasse_doitsche_OSM-Korinthenkacker" changeset="2729559" lat="-55.8034402" lon="-66.8062199"/>
  <node id="519402968" version="1" timestamp="2009-10-03T20:58:41Z" uid="179968" user="Ich_hasse_doitsche_OSM-Korinthenkacker" changeset="2729559" lat="-55.8028" lon="-66.80626"/>
  <node id="519402969" version="1" timestamp="2009-10-03T20:58:41Z" uid="179968" user="Ich_hasse_doitsche_OSM-Korinthenkacker" changeset="2729559" lat="-55.8028201" lon="-66.80762"/>
  <node id="519402970" version="1" timestamp="2009-10-03T20:58:41Z" uid="179968" user="Ich_hasse_doitsche_OSM-Korinthenkacker" changeset="2729559" lat="81.525993" lon="-91.4561215"/>
  <node id="519402972" version="1" timestamp="2009-10-03T20:58:41Z" uid="179968" user="Ich_hasse_doitsche_OSM-Korinthenkacker" changeset="2729559" lat="81.5363126" lon="-91.4495523"/>
  <node id="519402974" version="1" timestamp="2009-10-03T20:58:41Z" uid="179968" user="Ich_hasse_doitsche_OSM-Korinthenkacker" changeset="2729559" lat="81.5324442" lon="-91.4634207"/>
  <node id="519402977" version="1" timestamp="2009-10-03T20:58:42Z" uid="179968" user="Ich_hasse_doitsche_OSM-Korinthenkacker" changeset="2729559" lat="81.5308319" lon="-91.425465"/>
  <node id="519402980" version="1" timestamp="2009-10-03T20:58:42Z" uid="179968" user="Ich_hasse_doitsche_OSM-Korinthenkacker" changeset="2729559" lat="-84.30762" lon="179.0168698"/>
  <node id="519403012" version="1" timestamp="2009-10-03T20:58:42Z" uid="179968" user="Ich_hasse_doitsche_OSM-Korinthenkacker" changeset="2729559" lat="48.0761464" lon="11.5188691">
    <tag k="barrier" v="bollard"/>
    <tag k="bicycle" v="yes"/>
    <tag k="foot" v="yes"/>
    <tag k="name" v="Poller"/>
  </node>
  <node id="519403017" version="1" timestamp="2009-10-03T20:58:43Z" uid="179968" user="Ich_hasse_doitsche_OSM-Korinthenkacker" changeset="2729559" lat="48.0755669" lon="11.520266">
    <tag k="addr:city" v="München"/>
    <tag k="addr:country" v="DE"/>
    <tag k="addr:housename" v="Hort"/>
    <tag k="addr:housenumber" v="8"/>
    <tag k="addr:postcode" v="81479"/>
    <tag k="addr:street" v="Konrad-Witz-Straße"/>
    <tag k="building" v="yes"/>
    <tag k="name" v="8"/>
  </node>
  <node id="519403027" version="1" timestamp="2009-10-03T20:58:43Z" uid="179968" user="Ich_hasse_doitsche_OSM-Korinthenkacker" changeset="2729559" lat="48.0761225" lon="11.5194984">
    <tag k="addr:city" v="München"/>
    <tag k="addr:country" v="DE"/>
    <tag k="addr:housenumber" v="41"/>
    <tag k="addr:postcode" v="81479"/>
    <tag k="addr:street" v="Herterichstraße"/>
    <tag k="amenity" v="school"/>
    <tag k="name" v="Grundschule"/>
  </node>
  <node id="519403031" version="1" timestamp="2009-10-03T20:58:43Z" uid="179968" user="Ich_hasse_doitsche_OSM-Korinthenkacker" changeset="2729559" lat="48.0776248" lon="11.5133104">
    <tag k="leisure" v="pitch"/>
    <tag k="sport" v="table_tennis"/>
  </node>
  <node id="519403039" version="1" timestamp="2009-10-03T20:58:43Z" uid="179968" user="Ich_hasse_doitsche_OSM-Korinthenkacker" changeset="2729559" lat="48.080015" lon="11.5102647">
    <tag k="leisure" v="playground"/>
  </node>
  <node id="519403039" version="2" timestamp="2009-10-13T22:40:58Z" uid="36809" user="pfoten_weg_!_" changeset="2841133" lat="48.080015" lon="11.5102647">
    <tag k="leisure" v="playground"/>
  </node>
  <node id="519403044" version="1" timestamp="2009-10-03T20:58:43Z" uid="179968" user="Ich_hasse_doitsche_OSM-Korinthenkacker" changeset="2729559" lat="48.0801" lon="11.5113912">
    <tag k="amenity" v="recycling"/>
    <tag k="recycling:cans" v="yes"/>
    <tag k="recycling:glass" v="yes"/>
    <tag k="recycling:plastic" v="yes"/>
  </node>
  <node id="519403047" version="1" timestamp="2009-10-03T20:58:43Z" uid="179968" user="Ich_hasse_doitsche_OSM-Korinthenkacker" changeset="2729559" lat="48.0802815" lon="11.5112521">
    <tag k="addr:city" v="München"/>
    <tag k="addr:country" v="DE"/>
    <tag k="addr:housename" v="Wohngebäude"/>
    <tag k="addr:housenumber" v="69 71"/>
    <tag k="addr:postcode" v="81477"/>
    <tag k="addr:street" v="Weltistraße"/>
    <tag k="name" v="69 71"/>
  </node>
  <node id="519403047" version="3" timestamp="2010-05-08T20:58:38Z" uid="36809" user="pfoten_weg_!_" changeset="4643009" lat="48.0802816" lon="11.511252">
    <tag k="addr:city" v="München"/>
    <tag k="addr:country" v="DE"/>
    <tag k="addr:housenumber" v="69, 71"/>
    <tag k="addr:postcode" v="81477"/>
    <tag k="addr:street" v="Weltistraße"/>
  </node>
  <node id="519403051" version="1" timestamp="2009-10-03T20:58:43Z" uid="179968" user="Ich_hasse_doitsche_OSM-Korinthenkacker" changeset="2729559" lat="48.0801531" lon="11.5119628">
    <tag k="amenity" v="post_box"/>
    <tag k="name" v="Deutsche Post Briefkasten"/>
    <tag k="operator" v="Deutsche Post"/>
  </node>
  <node id="519403051" version="2" timestamp="2009-10-13T22:49:36Z" uid="36809" user="pfoten_weg_!_" changeset="2841156" lat="48.0801531" lon="11.5119628">
    <tag k="amenity" v="post_box"/>
    <tag k="name" v="Deutsche Post Briefkasten"/>
    <tag k="operator" v="Deutsche Post"/>
  </node>
  <node id="519403055" version="1" timestamp="2009-10-03T20:58:43Z" uid="179968" user="Ich_hasse_doitsche_OSM-Korinthenkacker" changeset="2729559" lat="48.0789416" lon="11.5126766">
    <tag k="highway" v="bus_stop"/>
    <tag k="name" v="Plattlinger Straße"/>
    <tag k="operator" v="MVV"/>
    <tag k="route_ref" v="133"/>
    <tag k="shelter" v="no"/>
    <tag k="towards" v="Forstenrieder Allee"/>
  </node>
  <node id="519403055" version="2" timestamp="2009-11-03T00:34:49Z" uid="36809" user="pfoten_weg_!_" changeset="3021430" lat="48.0789416" lon="11.5126766">
    <tag k="highway" v="bus_stop"/>
    <tag k="name" v="Plattlinger Straße"/>
    <tag k="operator" v="MVV"/>
    <tag k="route_ref" v="133"/>
    <tag k="shelter" v="no"/>
    <tag k="towards" v="Forstenrieder Allee"/>
  </node>
  <node id="519403060" version="1" timestamp="2009-10-03T20:58:43Z" uid="179968" user="Ich_hasse_doitsche_OSM-Korinthenkacker" changeset="2729559" lat="48.0795953" lon="11.5129427">
    <tag k="leisure" v="playground"/>
  </node>
  <node id="519403060" version="2" timestamp="2009-10-13T22:49:34Z" uid="36809" user="pfoten_weg_!_" changeset="2841156" lat="48.0795953" lon="11.5129427">
    <tag k="leisure" v="playground"/>
  </node>
  <node id="519403063" version="1" timestamp="2009-10-03T20:58:43Z" uid="179968" user="Ich_hasse_doitsche_OSM-Korinthenkacker" changeset="2729559" lat="48.079574" lon="11.5126909">
    <tag k="amenity" v="pharmacy"/>
    <tag k="name" v="Geigenberger Apotheke"/>
    <tag k="opening_hours" v="Mo-Fr 8:30-12:30,14:30-18:00"/>
  </node>
  <node id="519403063" version="2" timestamp="2009-10-13T22:49:34Z" uid="36809" user="pfoten_weg_!_" changeset="2841156" lat="48.079574" lon="11.5126909">
    <tag k="amenity" v="pharmacy"/>
    <tag k="name" v="Geigenberger Apotheke"/>
    <tag k="opening_hours" v="Mo-Fr 8:30-12:30,14:30-18:00"/>
  </node>
  <node id="519403066" version="1" timestamp="2009-10-03T20:58:44Z" uid="179968" user="Ich_hasse_doitsche_OSM-Korinthenkacker" changeset="2729559" lat="48.07941" lon="11.5133748">
    <tag k="access" v="yes"/>
    <tag k="barrier" v="bollard"/>
    <tag k="bicycle" v="no"/>
    <tag k="foot" v="yes"/>
  </node>
  <node id="519403066" version="2" timestamp="2009-10-13T22:49:33Z" uid="36809" user="pfoten_weg_!_" changeset="2841156" lat="48.07941" lon="11.5133748">
    <tag k="access" v="yes"/>
    <tag k="barrier" v="bollard"/>
    <tag k="bicycle" v="no"/>
    <tag k="foot" v="yes"/>
  </node>
  <node id="519403070" version="1" timestamp="2009-10-03T20:58:44Z" uid="179968" user="Ich_hasse_doitsche_OSM-Korinthenkacker" changeset="2729559" lat="48.0797862" lon="11.5123586">
    <tag k="access" v="permissive"/>
    <tag k="amenity" v="parking"/>
    <tag k="capacity" v="28"/>
  </node>
  <node id="519403070" version="2" timestamp="2009-10-13T22:49:32Z" uid="36809" user="pfoten_weg_!_" changeset="2841156" lat="48.0797862" lon="11.5123586">
    <tag k="access" v="permissive"/>
    <tag k="amenity" v="parking"/>
    <tag k="capacity" v="28"/>
  </node>
  <node id="519403074" version="1" timestamp="2009-10-03T20:58:44Z" uid="179968" user="Ich_hasse_doitsche_OSM-Korinthenkacker" changeset="2729559" lat="48.0798856" lon="11.5127544">
    <tag k="name" v="Gebrauchtmöbel &quot;Der Geheimtipp&quot;"/>
    <tag k="opening_hours" v="Mo-Fr 10:00-18:30; Sa 10:00-15:00"/>
    <tag k="shop" v="furniture"/>
    <tag k="url" v="http://www.gebrauchtmoebel51.de/"/>
  </node>
  <node id="519403074" version="2" timestamp="2009-10-13T22:49:31Z" uid="36809" user="pfoten_weg_!_" changeset="2841156" lat="48.0798856" lon="11.5127544">
    <tag k="name" v="Gebrauchtmöbel &quot;Der Geheimtipp&quot;"/>
    <tag k="opening_hours" v="Mo-Fr 10:00-18:30; Sa 10:00-15:00"/>
    <tag k="shop" v="furniture"/>
    <tag k="url" v="http://www.gebrauchtmoebel51.de/"/>
  </node>
  <node id="519403080" version="1" timestamp="2009-10-03T20:58:44Z" uid="179968" user="Ich_hasse_doitsche_OSM-Korinthenkacker" changeset="2729559" lat="48.0797565" lon="11.5126992">
    <tag k="name" v="Friseursalon Piroschka"/>
    <tag k="opening_hours" v="Mi-Fr 8:00-19:00"/>
    <tag k="shop" v="hairdresser"/>
  </node>
  <node id="519403080" version="2" timestamp="2009-10-13T22:49:32Z" uid="36809" user="pfoten_weg_!_" changeset="2841156" lat="48.0797565" lon="11.5126992">
    <tag k="name" v="Friseursalon Piroschka"/>
    <tag k="opening_hours" v="Mi-Fr 8:00-19:00"/>
    <tag k="shop" v="hairdresser"/>
  </node>
  <node id="519403082" version="1" timestamp="2009-10-03T20:58:44Z" uid="179968" user="Ich_hasse_doitsche_OSM-Korinthenkacker" changeset="2729559" lat="48.0855571" lon="11.5116073">
    <tag k="amenity" v="post_box"/>
    <tag k="collection_times" v="Mo-Fr 16:30,17:15; Sa 10:00; Su 08:30"/>
    <tag k="operator" v="Deutsche Post"/>
  </node>
  <node id="519403086" version="1" timestamp="2009-10-03T20:58:44Z" uid="179968" user="Ich_hasse_doitsche_OSM-Korinthenkacker" changeset="2729559" lat="48.0764099" lon="11.5191483">
    <tag k="highway" v="bus_stop"/>
    <tag k="name" v="Bus 134 Stridbeckstraße"/>
    <tag k="ref" v="Stridbeckstraße"/>
  </node>
  <node id="519403089" version="1" timestamp="2009-10-03T20:58:44Z" uid="179968" user="Ich_hasse_doitsche_OSM-Korinthenkacker" changeset="2729559" lat="48.0762661" lon="11.5185752">
    <tag k="crossing" v="traffic_signals"/>
    <tag k="highway" v="traffic_signals"/>
  </node>
  <node id="519403093" version="1" timestamp="2009-10-03T20:58:44Z" uid="179968" user="Ich_hasse_doitsche_OSM-Korinthenkacker" changeset="2729559" lat="48.0763807" lon="11.5188904">
    <tag k="crossing" v="traffic_signals"/>
    <tag k="highway" v="traffic_signals"/>
  </node>
  <node id="519403097" version="1" timestamp="2009-10-03T20:58:44Z" uid="179968" user="Ich_hasse_doitsche_OSM-Korinthenkacker" changeset="2729559" lat="48.0764424" lon="11.5186579">
    <tag k="crossing" v="traffic_signals"/>
    <tag k="highway" v="traffic_signals"/>
  </node>
  <node id="519403100" version="1" timestamp="2009-10-03T20:58:44Z" uid="179968" user="Ich_hasse_doitsche_OSM-Korinthenkacker" changeset="2729559" lat="48.0761869" lon="11.5188355">
    <tag k="crossing" v="traffic_signals"/>
    <tag k="highway" v="traffic_signals"/>
  </node>
  <node id="519403104" version="1" timestamp="2009-10-03T20:58:44Z" uid="179968" user="Ich_hasse_doitsche_OSM-Korinthenkacker" changeset="2729559" lat="48.07626" lon="11.5189646">
    <tag k="amenity" v="bicycle_parking"/>
    <tag k="capacity" v="10"/>
    <tag k="name" v="P"/>
  </node>
  <node id="519403106" version="1" timestamp="2009-10-03T20:58:44Z" uid="179968" user="Ich_hasse_doitsche_OSM-Korinthenkacker" changeset="2729559" lat="48.0772282" lon="11.5189863">
    <tag k="name" v="Tengelmann"/>
    <tag k="shop" v="supermarket"/>
  </node>
  <node id="519403107" version="1" timestamp="2009-10-03T20:58:44Z" uid="179968" user="Ich_hasse_doitsche_OSM-Korinthenkacker" changeset="2729559" lat="48.0770732" lon="11.5186063">
    <tag k="amenity" v="post_box"/>
    <tag k="collection_times" v="Mo-Fr 16:00,17:00; Sa 10:45"/>
    <tag k="operator" v="Deutsche Post"/>
  </node>
  <node id="519403110" version="1" timestamp="2009-10-03T20:58:44Z" uid="179968" user="Ich_hasse_doitsche_OSM-Korinthenkacker" changeset="2729559" lat="48.0779996" lon="11.5181023">
    <tag k="addr:city" v="München"/>
    <tag k="addr:country" v="DE"/>
    <tag k="addr:housenumber" v="4"/>
    <tag k="addr:postcode" v="81479"/>
    <tag k="addr:street" v="Festingstraße"/>
    <tag k="amenity" v="cafe"/>
    <tag k="name" v="Reis"/>
    <tag k="shop" v="bakery"/>
  </node>
  <node id="519403110" version="2" timestamp="2010-05-08T20:58:41Z" uid="36809" user="pfoten_weg_!_" changeset="4643009" lat="48.0779996" lon="11.5181023">
    <tag k="addr:city" v="München"/>
    <tag k="addr:country" v="DE"/>
    <tag k="addr:housenumber" v="4"/>
    <tag k="addr:postcode" v="81479"/>
    <tag k="addr:street" v="Festingstraße"/>
    <tag k="amenity" v="cafe"/>
    <tag k="name" v="Reis"/>
    <tag k="shop" v="bakery"/>
  </node>
  <node id="519403114" version="1" timestamp="2009-10-03T20:58:45Z" uid="179968" user="Ich_hasse_doitsche_OSM-Korinthenkacker" changeset="2729559" lat="48.0805758" lon="11.5165856">
    <tag k="amenity" v="telephone"/>
  </node>
  <node id="519403116" version="1" timestamp="2009-10-03T20:58:45Z" uid="179968" user="Ich_hasse_doitsche_OSM-Korinthenkacker" changeset="2729559" lat="48.0805785" lon="11.51669">
    <tag k="amenity" v="pharmacy"/>
    <tag k="name" v="Johannes Apotheke"/>
    <tag k="operator" v="(unknown)"/>
  </node>
  <node id="519403119" version="1" timestamp="2009-10-03T20:58:45Z" uid="179968" user="Ich_hasse_doitsche_OSM-Korinthenkacker" changeset="2729559" lat="48.0762779" lon="11.5196805">
    <tag k="highway" v="bus_stop"/>
    <tag k="name" v="Bus 134 Stridbeckstraße"/>
    <tag k="ref" v="Stridbeckstraße"/>
  </node>
  <node id="519407316" version="1" timestamp="2009-10-03T21:02:06Z" uid="20587" user="balrog-kun" changeset="2729596" lat="50.3958277" lon="18.9026863"/>
  <node id="519407319" version="1" timestamp="2009-10-03T21:02:06Z" uid="20587" user="balrog-kun" changeset="2729596" lat="50.3960454" lon="18.9036137"/>
  <node id="519407535" version="2" timestamp="2010-08-10T22:07:18Z" uid="9581" user="Lobelt" changeset="5458246" lat="36.0625107" lon="4.7246651"/>
  <node id="519407537" version="2" timestamp="2010-08-10T22:06:48Z" uid="9581" user="Lobelt" changeset="5458246" lat="36.0621982" lon="4.7249734"/>
  <node id="519407618" version="2" timestamp="2010-08-10T22:07:17Z" uid="9581" user="Lobelt" changeset="5458246" lat="36.0492644" lon="4.7762964"/>
  <node id="519407620" version="2" timestamp="2010-08-10T22:06:44Z" uid="9581" user="Lobelt" changeset="5458246" lat="36.049328" lon="4.7767932"/>
  <node id="519408842" version="4" timestamp="2011-01-09T01:14:47Z" uid="49111" user="Markus B" changeset="6911133" lat="36.6882256" lon="23.05494"/>
</osm>
