<?xml version='1.0' encoding='UTF-8'?>
<osm version="0.6" generator="libosmium/2.20.0">
  <node id="520150539" version="1" timestamp="2009-10-04T14:13:16Z" uid="59758" user="rendle" changeset="2737067" lat="51.1631621" lon="4.1384892">
    <tag k="amenity" v="pharmacy"/>
    <tag k="name" v="De lindeboom"/>
  </node>
  <node id="520152022" version="1" timestamp="2009-10-04T14:14:28Z" uid="59758" user="rendle" changeset="2737067" lat="51.1620479" lon="4.1392445">
    <tag k="amenity" v="bank"/>
    <tag k="name" v="Dexia"/>
    <tag k="operator" v="Dexia"/>
  </node>
  <node id="520152669" version="1" timestamp="2009-10-04T14:15:00Z" uid="59758" user="rendle" changeset="2737067" lat="51.1617195" lon="4.1421799">
    <tag k="amenity" v="bank"/>
    <tag k="name" v="Centea"/>
    <tag k="operator" v="Centea"/>
  </node>
  <node id="520153727" version="3" timestamp="2011-02-25T11:48:40Z" uid="115477" user="wowik" changeset="7389703" lat="55.8509765" lon="37.3524258"/>
  <node id="520153747" version="3" timestamp="2011-02-25T11:48:29Z" uid="115477" user="wowik" changeset="7389703" lat="55.8509838" lon="37.3526481"/>
  <node id="520153756" version="3" timestamp="2011-02-25T11:48:43Z" uid="115477" user="wowik" changeset="7389703" lat="55.8511231" lon="37.3526613"/>
  <node id="520153765" version="3" timestamp="2011-02-25T11:48:09Z" uid="115477" user="wowik" changeset="7389703" lat="55.8511149" lon="37.3524114"/>
  <node id="520153910" version="1" timestamp="2009-10-04T14:15:53Z" uid="59758" user="rendle" changeset="2737067" lat="51.1615634" lon="4.1422829">
    <tag k="amenity" v="restaurant"/>
    <tag k="name" v="Giardino"/>
  </node>
  <node id="520154468" version="1" timestamp="2009-10-04T14:16:24Z" uid="59758" user="rendle" changeset="2737067" lat="51.1618056" lon="4.1423945">
    <tag k="amenity" v="fast_food"/>
    <tag k="name" v="Ata"/>
  </node>
  <node id="520155390" version="1" timestamp="2009-10-04T14:17:10Z" uid="59758" user="rendle" changeset="2737067" lat="51.1641309" lon="4.1426863">
    <tag k="amenity" v="pub"/>
    <tag k="name" v="Sinte Marie"/>
  </node>
  <node id="520155390" version="2" timestamp="2010-04-13T19:04:13Z" uid="59758" user="rendle" changeset="4416700" lat="51.1639993" lon="4.1427426">
    <tag k="amenity" v="pub"/>
    <tag k="name" v="Sinte Marie"/>
  </node>
  <node id="520155390" version="3" timestamp="2010-04-13T19:04:34Z" uid="59758" user="rendle" changeset="4416702" lat="51.1639926" lon="4.1427426">
    <tag k="amenity" v="pub"/>
    <tag k="name" v="Sinte Marie"/>
  </node>
  <node id="520155586" version="2" timestamp="2010-05-16T12:24:38Z" uid="242497" user="cvl" changeset="4716432" lat="-31.8259085" lon="115.7830101"/>
  <node id="520156664" version="1" timestamp="2009-10-04T14:17:53Z" uid="59758" user="rendle" changeset="2737067" lat="51.1650513" lon="4.1424116">
    <tag k="amenity" v="bar"/>
    <tag k="name" v="Havana"/>
  </node>
  <node id="520158326" version="1" timestamp="2009-10-04T14:18:55Z" uid="59758" user="rendle" changeset="2737067" lat="51.1644377" lon="4.1420855">
    <tag k="amenity" v="place_of_worship"/>
    <tag k="denomination" v="catholic"/>
    <tag k="name" v="Sint Nicolaas"/>
    <tag k="religion" v="christian"/>
  </node>
  <node id="520158326" version="2" timestamp="2009-12-23T21:05:54Z" uid="59758" user="rendle" changeset="3437768" lat="51.1644377" lon="4.1420855">
    <tag k="amenity" v="place_of_worship"/>
    <tag k="denomination" v="catholic"/>
    <tag k="name" v="Sint Nicolaas"/>
    <tag k="religion" v="christian"/>
  </node>
</osm>
