<?xml version='1.0' encoding='UTF-8'?>
<osm version="0.6" generator="libosmium/2.20.0">
  <node id="523910947" version="1" timestamp="2009-10-07T09:33:41Z" uid="115477" user="wowik" changeset="2769441" lat="56.1246974" lon="37.4593611">
    <tag k="addr:country" v="RU"/>
    <tag k="addr:district" v="Дмитровский район"/>
    <tag k="addr:postcode" v="141870"/>
    <tag k="addr:region" v="Московская область"/>
    <tag k="cladr:code" v="5000500048200"/>
    <tag k="cladr:name" v="Белый Раст"/>
    <tag k="cladr:suffix" v="Станция"/>
    <tag k="name" v="ст. Белый Раст"/>
    <tag k="place" v="village"/>
  </node>
  <node id="523910947" version="2" timestamp="2009-10-07T09:36:17Z" uid="115477" user="wowik" changeset="2769441" lat="56.1267066" lon="37.4612493">
    <tag k="addr:country" v="RU"/>
    <tag k="addr:district" v="Дмитровский район"/>
    <tag k="addr:postcode" v="141870"/>
    <tag k="addr:region" v="Московская область"/>
    <tag k="cladr:code" v="5000500048200"/>
    <tag k="cladr:name" v="Белый Раст"/>
    <tag k="cladr:suffix" v="Станция"/>
    <tag k="name" v="ст. Белый Раст"/>
    <tag k="place" v="village"/>
  </node>
  <node id="523917720" version="1" timestamp="2009-10-07T09:41:45Z" uid="115477" user="wowik" changeset="2769441" lat="56.1396208" lon="37.4083776">
    <tag k="addr:country" v="RU"/>
    <tag k="addr:district" v="Дмитровский район"/>
    <tag k="addr:postcode" v="141870"/>
    <tag k="addr:region" v="Московская область"/>
    <tag k="cladr:code" v="5000500049300"/>
    <tag k="cladr:name" v="Зараменье"/>
    <tag k="cladr:suffix" v="Деревня"/>
    <tag k="name" v="Зараменье"/>
    <tag k="place" v="hamlet"/>
  </node>
  <node id="523917725" version="1" timestamp="2009-10-07T09:41:46Z" uid="115477" user="wowik" changeset="2769441" lat="56.1584582" lon="37.4214239">
    <tag k="addr:country" v="RU"/>
    <tag k="addr:district" v="Дмитровский район"/>
    <tag k="addr:postcode" v="141870"/>
    <tag k="addr:region" v="Московская область"/>
    <tag k="cladr:code" v="5000500022300"/>
    <tag k="cladr:name" v="Лупаново"/>
    <tag k="cladr:suffix" v="Деревня"/>
    <tag k="name" v="Лупаново"/>
    <tag k="place" v="hamlet"/>
  </node>
  <node id="523917737" version="1" timestamp="2009-10-07T09:41:46Z" uid="115477" user="wowik" changeset="2769441" lat="56.1354162" lon="37.4046007"/>
  <node id="523917737" version="3" timestamp="2010-03-02T10:40:45Z" uid="115477" user="wowik" changeset="4015671" lat="56.135508" lon="37.407043"/>
  <node id="523917739" version="1" timestamp="2009-10-07T09:41:46Z" uid="115477" user="wowik" changeset="2769441" lat="56.1357168" lon="37.4152512"/>
  <node id="523917739" version="2" timestamp="2010-03-02T10:40:53Z" uid="115477" user="wowik" changeset="4015671" lat="56.1357112" lon="37.413652"/>
  <node id="523917758" version="1" timestamp="2009-10-07T09:41:48Z" uid="115477" user="wowik" changeset="2769441" lat="56.1318728" lon="37.402627"/>
  <node id="523917758" version="3" timestamp="2010-03-02T10:40:45Z" uid="115477" user="wowik" changeset="4015671" lat="56.1311793" lon="37.4036956"/>
  <node id="523917758" version="4" timestamp="2010-03-02T10:43:57Z" uid="115477" user="wowik" changeset="4015671" lat="56.130988" lon="37.4037814"/>
  <node id="523917766" version="1" timestamp="2009-10-07T09:41:48Z" uid="115477" user="wowik" changeset="2769441" lat="56.1391426" lon="37.4070043"/>
  <node id="523917766" version="2" timestamp="2010-03-02T10:40:50Z" uid="115477" user="wowik" changeset="4015671" lat="56.1389992" lon="37.4074722"/>
  <node id="523917769" version="1" timestamp="2009-10-07T09:41:48Z" uid="115477" user="wowik" changeset="2769441" lat="56.1407686" lon="37.4128408"/>
  <node id="523917769" version="3" timestamp="2010-03-02T10:40:50Z" uid="115477" user="wowik" changeset="4015671" lat="56.1410914" lon="37.4126435">
    <tag k="addr:country" v="RU"/>
    <tag k="addr:district" v="Дмитровский район"/>
    <tag k="addr:postcode" v="141870"/>
    <tag k="addr:region" v="Московская область"/>
    <tag k="cladr:code" v="5000500049300"/>
    <tag k="cladr:name" v="Зараменье"/>
    <tag k="cladr:suffix" v="Деревня"/>
    <tag k="name" v="Зараменье"/>
    <tag k="place" v="hamlet"/>
  </node>
  <node id="523917772" version="1" timestamp="2009-10-07T09:41:49Z" uid="115477" user="wowik" changeset="2769441" lat="56.156833" lon="37.4015112"/>
  <node id="523917772" version="2" timestamp="2010-03-02T10:40:52Z" uid="115477" user="wowik" changeset="4015671" lat="56.1566897" lon="37.4020648"/>
  <node id="523917773" version="1" timestamp="2009-10-07T09:41:49Z" uid="115477" user="wowik" changeset="2769441" lat="56.1540605" lon="37.4054594"/>
  <node id="523917774" version="1" timestamp="2009-10-07T09:41:49Z" uid="115477" user="wowik" changeset="2769441" lat="56.1526263" lon="37.4068327"/>
  <node id="523917774" version="2" timestamp="2010-03-02T10:40:52Z" uid="115477" user="wowik" changeset="4015671" lat="56.1526383" lon="37.4064851"/>
  <node id="523917776" version="1" timestamp="2009-10-07T09:41:49Z" uid="115477" user="wowik" changeset="2769441" lat="56.1467935" lon="37.4104376"/>
  <node id="523917776" version="2" timestamp="2010-03-02T10:40:53Z" uid="115477" user="wowik" changeset="4015671" lat="56.1441757" lon="37.4113345"/>
  <node id="523917781" version="1" timestamp="2009-10-07T09:41:49Z" uid="115477" user="wowik" changeset="2769441" lat="56.1425857" lon="37.4123259"/>
  <node id="523917781" version="2" timestamp="2010-03-02T10:40:53Z" uid="115477" user="wowik" changeset="4015671" lat="56.1424543" lon="37.4117208"/>
  <node id="523917783" version="1" timestamp="2009-10-07T09:41:50Z" uid="115477" user="wowik" changeset="2769441" lat="56.1378035" lon="37.4147291"/>
  <node id="523917783" version="2" timestamp="2010-03-02T10:40:53Z" uid="115477" user="wowik" changeset="4015671" lat="56.1396568" lon="37.4134803"/>
</osm>
