<?xml version='1.0' encoding='UTF-8'?>
<osm version="0.6" generator="libosmium/2.20.0">
  <node id="525500229" version="2" timestamp="2010-01-12T08:51:42Z" uid="23543" user="jkjk" changeset="3601498" lat="50.0303442" lon="14.487793">
    <tag k="highway" v="bus_stop"/>
    <tag k="name" v="Petýrkova"/>
  </node>
  <node id="525502161" version="1" timestamp="2009-10-08T11:27:03Z" uid="115477" user="wowik" changeset="2781654" lat="56.1235944" lon="37.0126937">
    <tag k="addr:country" v="RU"/>
    <tag k="addr:district" v="Солнечногорский район"/>
    <tag k="addr:postcode" v="141595"/>
    <tag k="addr:region" v="Московская область"/>
    <tag k="cladr:code" v="5003300002800"/>
    <tag k="cladr:name" v="Глазово"/>
    <tag k="cladr:suffix" v="Деревня"/>
    <tag k="name" v="Глазово"/>
    <tag k="name:en" v="Glazovo"/>
    <tag k="place" v="hamlet"/>
  </node>
  <node id="525502161" version="2" timestamp="2009-10-08T11:51:42Z" uid="115477" user="wowik" changeset="2781988" lat="56.1269488" lon="37.0122146">
    <tag k="addr:country" v="RU"/>
    <tag k="addr:district" v="Солнечногорский район"/>
    <tag k="addr:postcode" v="141595"/>
    <tag k="addr:region" v="Московская область"/>
    <tag k="cladr:code" v="5003300002800"/>
    <tag k="cladr:name" v="Глазово"/>
    <tag k="cladr:suffix" v="Деревня"/>
    <tag k="name" v="Глазово"/>
    <tag k="name:en" v="Glazovo"/>
    <tag k="place" v="hamlet"/>
  </node>
</osm>
