<?xml version='1.0' encoding='UTF-8'?>
<osm version="0.6" generator="libosmium/2.20.0">
  <node id="529050282" version="2" timestamp="2010-02-17T22:27:13Z" uid="34428" user="usm78-gis" changeset="3905231" lat="60.772438" lon="28.9254358"/>
  <node id="529050889" version="1" timestamp="2009-10-11T19:31:34Z" uid="20587" user="balrog-kun" changeset="2819322" lat="50.9604397" lon="18.9320684">
    <tag k="name" v="Mokra Częstochowska"/>
    <tag k="railway" v="station"/>
    <tag k="wikipedia" v="pl:Mokra Częstochowska"/>
  </node>
  <node id="529050893" version="1" timestamp="2009-10-11T19:31:34Z" uid="20587" user="balrog-kun" changeset="2819322" lat="51.1177588" lon="18.9130779">
    <tag k="name" v="Działoszyn"/>
    <tag k="railway" v="station"/>
    <tag k="wikipedia" v="pl:Działoszyn (stacja kolejowa)"/>
  </node>
  <node id="529050896" version="1" timestamp="2009-10-11T19:31:34Z" uid="20587" user="balrog-kun" changeset="2819322" lat="51.2089511" lon="18.9416321">
    <tag k="name" v="Chorzew Siemkowice"/>
    <tag k="railway" v="station"/>
    <tag k="wikipedia" v="pl:Chorzew Siemkowice"/>
  </node>
  <node id="529050901" version="1" timestamp="2009-10-11T19:31:34Z" uid="20587" user="balrog-kun" changeset="2819322" lat="51.2651553" lon="18.9631607">
    <tag k="name" v="Huta"/>
    <tag k="railway" v="halt"/>
    <tag k="wikipedia" v="pl:Huta (przystanek kolejowy)"/>
  </node>
  <node id="529050909" version="1" timestamp="2009-10-11T19:31:34Z" uid="20587" user="balrog-kun" changeset="2819322" lat="51.3165496" lon="18.9694698">
    <tag k="name" v="Rusiec Łódzki"/>
    <tag k="railway" v="station"/>
    <tag k="wikipedia" v="pl:Rusiec Łódzki"/>
  </node>
  <node id="529050917" version="1" timestamp="2009-10-11T19:31:35Z" uid="20587" user="balrog-kun" changeset="2819322" lat="51.4051198" lon="18.983055">
    <tag k="name" v="Chociw Łaski"/>
    <tag k="old_name" v="Widawa"/>
    <tag k="railway" v="station"/>
    <tag k="wikipedia" v="pl:Chociw Łaski"/>
  </node>
  <node id="529050925" version="1" timestamp="2009-10-11T19:31:35Z" uid="20587" user="balrog-kun" changeset="2819322" lat="51.6788903" lon="18.9615079">
    <tag k="name" v="Szadek"/>
    <tag k="railway" v="station"/>
    <tag k="wikipedia" v="pl:Szadek (stacja kolejowa)"/>
  </node>
  <node id="529050933" version="1" timestamp="2009-10-11T19:31:35Z" uid="20587" user="balrog-kun" changeset="2819322" lat="51.7739101" lon="18.9192058">
    <tag k="name" v="Otok"/>
    <tag k="railway" v="station"/>
    <tag k="wikipedia" v="pl:Otok (stacja kolejowa)"/>
  </node>
  <node id="529050940" version="1" timestamp="2009-10-11T19:31:35Z" uid="20587" user="balrog-kun" changeset="2819322" lat="51.8772478" lon="18.9253572">
    <tag k="is_in" v="gmina Poddębice, powiat poddębicki, województwo łódzkie, Poland"/>
    <tag k="is_in:country" v="Poland"/>
    <tag k="is_in:county" v="powiat poddębicki"/>
    <tag k="is_in:municipality" v="gmina Poddębice"/>
    <tag k="is_in:province" v="województwo łódzkie"/>
    <tag k="name" v="Stacja Poddębice"/>
    <tag k="place" v="hamlet"/>
    <tag k="source" v="wikipedia"/>
    <tag k="wikipedia" v="pl:Stacja Poddębice"/>
  </node>
  <node id="529050940" version="2" timestamp="2010-04-27T04:17:09Z" uid="30632" user="antblant" changeset="4537905" lat="51.8772478" lon="18.9253572">
    <tag k="is_in" v="gmina Poddębice, powiat poddębicki, województwo łódzkie, Poland"/>
    <tag k="is_in:country" v="Poland"/>
    <tag k="is_in:county" v="powiat poddębicki"/>
    <tag k="is_in:municipality" v="gmina Poddębice"/>
    <tag k="is_in:province" v="województwo łódzkie"/>
    <tag k="name" v="Stacja Poddębice"/>
    <tag k="place" v="hamlet"/>
    <tag k="source" v="wikipedia"/>
    <tag k="teryt:simc" v="0711178"/>
    <tag k="wikipedia" v="pl:Stacja Poddębice"/>
  </node>
  <node id="529050953" version="2" timestamp="2011-01-17T22:12:39Z" uid="9581" user="Lobelt" changeset="7005161" lat="49.4931803" lon="8.4838898"/>
  <node id="529050986" version="1" timestamp="2009-10-11T19:31:36Z" uid="20587" user="balrog-kun" changeset="2819322" lat="51.9687576" lon="18.9439423">
    <tag k="name" v="Kłudna"/>
    <tag k="railway" v="station"/>
    <tag k="wikipedia" v="pl:Kłudna"/>
  </node>
  <node id="529050991" version="1" timestamp="2009-10-11T19:31:36Z" uid="20587" user="balrog-kun" changeset="2819322" lat="51.4911761" lon="19.021633">
    <tag k="name" v="Siedlce Łaskie"/>
    <tag k="note" v="TODO"/>
    <tag k="railway" v="station"/>
    <tag k="wikipedia" v="pl:Siedlce Łaskie"/>
  </node>
  <node id="529050998" version="1" timestamp="2009-10-11T19:31:36Z" uid="20587" user="balrog-kun" changeset="2819322" lat="51.4957067" lon="19.0246558">
    <tag k="name" v="Kozuby"/>
    <tag k="railway" v="station"/>
    <tag k="wikipedia" v="pl:Kozuby (stacja kolejowa)"/>
  </node>
  <node id="529051004" version="1" timestamp="2009-10-11T19:31:36Z" uid="20587" user="balrog-kun" changeset="2819322" lat="51.5347713" lon="19.0295699">
    <tag k="name" v="Kustrzyce"/>
    <tag k="railway" v="halt"/>
    <tag k="wikipedia" v="pl:Kustrzyce (przystanek kolejowy)"/>
  </node>
  <node id="529051013" version="1" timestamp="2009-10-11T19:31:36Z" uid="20587" user="balrog-kun" changeset="2819322" lat="51.5902962" lon="18.9931278">
    <tag k="name" v="Zduńska Wola Karsznice"/>
    <tag k="old_name" v="Karsznice;Karschnitz"/>
    <tag k="railway" v="station"/>
    <tag k="wikipedia" v="pl:Zduńska Wola Karsznice"/>
  </node>
  <node id="529051019" version="1" timestamp="2009-10-11T19:31:36Z" uid="20587" user="balrog-kun" changeset="2819322" lat="52.195273" lon="18.8125528">
    <tag k="name" v="Ponętów"/>
    <tag k="railway" v="station"/>
    <tag k="wikipedia" v="pl:Ponętów"/>
  </node>
  <node id="529052060" version="2" timestamp="2009-10-29T18:13:02Z" uid="36809" user="pfoten_weg_!_" changeset="2983254" lat="52.110535" lon="8.8131864"/>
  <node id="529053933" version="2" timestamp="2009-10-24T12:15:15Z" uid="58091" user="Andreas M" changeset="2937109" lat="48.2044606" lon="16.3452943">
    <tag k="addr:city" v="Wien"/>
    <tag k="addr:country" v="AT"/>
    <tag k="addr:housenumber" v="72"/>
    <tag k="addr:postcode" v="1070"/>
    <tag k="addr:street" v="Zieglergasse"/>
    <tag k="name" v="Bipa"/>
    <tag k="shop" v="supermarket"/>
  </node>
</osm>
