<?xml version='1.0' encoding='UTF-8'?>
<osm version="0.6" generator="libosmium/2.20.0">
  <node id="531692102" version="1" timestamp="2009-10-15T13:20:27Z" uid="186548" user="fojhtirf" changeset="2854800" lat="52.4427886" lon="8.3459342">
    <tag k="amenity" v="post_box"/>
    <tag k="name" v="Wilma Behrens"/>
  </node>
  <node id="531692102" version="2" timestamp="2009-10-25T12:56:15Z" uid="186548" user="fojhtirf" changeset="2945938" lat="52.4428279" lon="8.3458504">
    <tag k="amenity" v="post_box"/>
    <tag k="name" v="Wilma Behrens"/>
  </node>
  <node id="531694425" version="1" timestamp="2009-10-15T13:21:44Z" uid="186548" user="fojhtirf" changeset="2854813" lat="52.4430271" lon="8.3456102">
    <tag k="amenity" v="Restaurant"/>
    <tag k="name" v="Bar, Kneipe"/>
  </node>
  <node id="531694425" version="2" timestamp="2009-10-25T12:56:15Z" uid="186548" user="fojhtirf" changeset="2945938" lat="52.4430365" lon="8.3455476">
    <tag k="amenity" v="Restaurant"/>
    <tag k="name" v="Fahrenholt"/>
  </node>
</osm>
