<?xml version='1.0' encoding='UTF-8'?>
<osm version="0.6" generator="libosmium/2.20.0">
  <node id="533903963" version="2" timestamp="2010-07-29T09:05:28Z" uid="74617" user="JohnSmith" changeset="5344848" lat="52.2397705" lon="10.5422053">
    <tag k="amenity" v="emergency_phone"/>
    <tag k="emergency" v="phone"/>
    <tag k="operator" v="Autobahnmeisterei"/>
  </node>
  <node id="533903966" version="2" timestamp="2010-07-29T09:26:23Z" uid="74617" user="JohnSmith" changeset="5344848" lat="52.2450553" lon="10.5568533">
    <tag k="amenity" v="emergency_phone"/>
    <tag k="emergency" v="phone"/>
    <tag k="operator" v="Autobahnmeisterei"/>
  </node>
  <node id="533903969" version="2" timestamp="2010-07-29T09:38:47Z" uid="74617" user="JohnSmith" changeset="5344848" lat="52.2504109" lon="10.5687924">
    <tag k="amenity" v="emergency_phone"/>
    <tag k="emergency" v="phone"/>
    <tag k="operator" v="Autobahnmeisterei"/>
  </node>
  <node id="533903972" version="2" timestamp="2010-07-29T09:15:39Z" uid="74617" user="JohnSmith" changeset="5344848" lat="52.24715" lon="10.5980697">
    <tag k="amenity" v="emergency_phone"/>
    <tag k="emergency" v="phone"/>
    <tag k="operator" v="Autobahnmeisterei"/>
  </node>
  <node id="533903974" version="2" timestamp="2010-07-29T08:59:01Z" uid="74617" user="JohnSmith" changeset="5344848" lat="52.2510224" lon="10.6324138">
    <tag k="amenity" v="emergency_phone"/>
    <tag k="emergency" v="phone"/>
    <tag k="operator" v="Autobahnmeisterei"/>
  </node>
  <node id="533903978" version="2" timestamp="2010-07-29T09:27:40Z" uid="74617" user="JohnSmith" changeset="5344848" lat="52.2598148" lon="10.6807542">
    <tag k="amenity" v="emergency_phone"/>
    <tag k="emergency" v="phone"/>
    <tag k="operator" v="Autobahnmeisterei"/>
  </node>
  <node id="533903981" version="2" timestamp="2010-07-29T09:30:07Z" uid="74617" user="JohnSmith" changeset="5344848" lat="52.2684584" lon="10.6982909">
    <tag k="amenity" v="emergency_phone"/>
    <tag k="emergency" v="phone"/>
    <tag k="operator" v="Autobahnmeisterei"/>
  </node>
  <node id="533903983" version="2" timestamp="2010-07-29T09:18:03Z" uid="74617" user="JohnSmith" changeset="5344848" lat="52.2828919" lon="10.7118728">
    <tag k="amenity" v="emergency_phone"/>
    <tag k="emergency" v="phone"/>
    <tag k="operator" v="Autobahnmeisterei"/>
  </node>
  <node id="533903986" version="2" timestamp="2010-07-29T09:38:23Z" uid="74617" user="JohnSmith" changeset="5344848" lat="52.2978187" lon="10.7217251">
    <tag k="amenity" v="emergency_phone"/>
    <tag k="emergency" v="phone"/>
    <tag k="operator" v="Autobahnmeisterei"/>
  </node>
  <node id="533903989" version="2" timestamp="2010-07-29T09:41:13Z" uid="74617" user="JohnSmith" changeset="5344848" lat="52.3204817" lon="10.732326">
    <tag k="amenity" v="emergency_phone"/>
    <tag k="emergency" v="phone"/>
    <tag k="operator" v="Autobahnmeisterei"/>
  </node>
  <node id="533903991" version="2" timestamp="2010-07-29T09:27:23Z" uid="74617" user="JohnSmith" changeset="5344848" lat="52.3340278" lon="10.7340487">
    <tag k="amenity" v="emergency_phone"/>
    <tag k="emergency" v="phone"/>
    <tag k="operator" v="Autobahnmeisterei"/>
  </node>
  <node id="533903993" version="2" timestamp="2010-07-29T09:24:39Z" uid="74617" user="JohnSmith" changeset="5344848" lat="52.3513514" lon="10.7282686">
    <tag k="amenity" v="emergency_phone"/>
    <tag k="emergency" v="phone"/>
    <tag k="operator" v="Autobahnmeisterei"/>
  </node>
  <node id="533903994" version="2" timestamp="2010-07-29T09:01:37Z" uid="74617" user="JohnSmith" changeset="5344848" lat="52.3656093" lon="10.7233751">
    <tag k="amenity" v="emergency_phone"/>
    <tag k="emergency" v="phone"/>
    <tag k="operator" v="Autobahnmeisterei"/>
  </node>
  <node id="533903996" version="2" timestamp="2010-07-29T08:58:19Z" uid="74617" user="JohnSmith" changeset="5344848" lat="52.3868387" lon="10.7346646">
    <tag k="amenity" v="emergency_phone"/>
    <tag k="emergency" v="phone"/>
    <tag k="operator" v="Autobahnmeisterei"/>
  </node>
  <node id="533903997" version="2" timestamp="2010-07-29T09:06:42Z" uid="74617" user="JohnSmith" changeset="5344848" lat="52.3986801" lon="10.7350818">
    <tag k="amenity" v="emergency_phone"/>
    <tag k="emergency" v="phone"/>
    <tag k="operator" v="Autobahnmeisterei"/>
  </node>
  <node id="533903998" version="2" timestamp="2010-07-29T09:29:47Z" uid="74617" user="JohnSmith" changeset="5344848" lat="52.4145324" lon="10.7364092">
    <tag k="amenity" v="emergency_phone"/>
    <tag k="emergency" v="phone"/>
    <tag k="operator" v="Autobahnmeisterei"/>
  </node>
  <node id="533903999" version="2" timestamp="2010-07-29T09:37:59Z" uid="74617" user="JohnSmith" changeset="5344848" lat="52.4218293" lon="10.7377946">
    <tag k="amenity" v="emergency_phone"/>
    <tag k="emergency" v="phone"/>
    <tag k="operator" v="Autobahnmeisterei"/>
  </node>
  <node id="533904001" version="2" timestamp="2010-07-29T09:25:39Z" uid="74617" user="JohnSmith" changeset="5344848" lat="52.4340317" lon="10.7373803">
    <tag k="amenity" v="emergency_phone"/>
    <tag k="emergency" v="phone"/>
    <tag k="operator" v="Autobahnmeisterei"/>
  </node>
  <node id="533904002" version="2" timestamp="2010-07-29T09:03:15Z" uid="74617" user="JohnSmith" changeset="5344848" lat="52.4629959" lon="10.7386902">
    <tag k="amenity" v="emergency_phone"/>
    <tag k="emergency" v="phone"/>
    <tag k="operator" v="Autobahnmeisterei"/>
  </node>
  <node id="533904006" version="3" timestamp="2010-04-11T04:52:18Z" uid="20587" user="balrog-kun" changeset="4389130" lat="50.2031359" lon="18.2769183">
    <tag k="addr:postcode" v="47-420"/>
    <tag k="name" v="Budziska"/>
    <tag k="place" v="village"/>
  </node>
  <node id="533904008" version="2" timestamp="2010-04-11T04:52:18Z" uid="20587" user="balrog-kun" changeset="4389130" lat="50.194297" lon="18.2855177">
    <tag k="name" v="Siedliska"/>
    <tag k="place" v="village"/>
  </node>
  <node id="533904388" version="4" timestamp="2010-11-01T18:10:55Z" uid="9581" user="Lobelt" changeset="6258691" lat="50.7407173" lon="9.2651971"/>
  <node id="533905320" version="2" timestamp="2010-05-26T19:19:13Z" uid="9581" user="Lobelt" changeset="4815990" lat="49.4487867" lon="8.4937644">
    <tag k="addr:city" v="Mannheim"/>
    <tag k="addr:country" v="DE"/>
    <tag k="addr:housenumber" v="1"/>
    <tag k="addr:postcode" v="68199"/>
    <tag k="addr:state" v="Baden-Württemberg"/>
    <tag k="addr:street" v="Plattstraße"/>
  </node>
  <node id="533905321" version="2" timestamp="2010-05-26T19:19:11Z" uid="9581" user="Lobelt" changeset="4815990" lat="49.4491859" lon="8.4929969">
    <tag k="addr:city" v="Mannheim"/>
    <tag k="addr:country" v="DE"/>
    <tag k="addr:housenumber" v="20"/>
    <tag k="addr:postcode" v="68199"/>
    <tag k="addr:state" v="Baden-Württemberg"/>
    <tag k="addr:street" v="Plattstraße"/>
  </node>
  <node id="533905322" version="2" timestamp="2010-05-26T19:19:13Z" uid="9581" user="Lobelt" changeset="4815990" lat="49.4490268" lon="8.4927898">
    <tag k="addr:city" v="Mannheim"/>
    <tag k="addr:country" v="DE"/>
    <tag k="addr:housenumber" v="13"/>
    <tag k="addr:postcode" v="68199"/>
    <tag k="addr:state" v="Baden-Württemberg"/>
    <tag k="addr:street" v="Plattstraße"/>
  </node>
  <node id="533905323" version="2" timestamp="2010-05-26T19:19:14Z" uid="9581" user="Lobelt" changeset="4815990" lat="49.4489363" lon="8.4940191">
    <tag k="addr:city" v="Mannheim"/>
    <tag k="addr:country" v="DE"/>
    <tag k="addr:housenumber" v="2"/>
    <tag k="addr:postcode" v="68199"/>
    <tag k="addr:state" v="Baden-Württemberg"/>
    <tag k="addr:street" v="Plattstraße"/>
  </node>
  <node id="533905326" version="2" timestamp="2010-03-02T18:37:42Z" uid="9581" user="Lobelt" changeset="4019082" lat="49.4503983" lon="8.4941102">
    <tag k="addr:city" v="Mannheim"/>
    <tag k="addr:country" v="DE"/>
    <tag k="addr:housenumber" v="4"/>
    <tag k="addr:postcode" v="68199"/>
    <tag k="addr:state" v="Baden-Württemberg"/>
    <tag k="addr:street" v="Kleine Straße"/>
  </node>
  <node id="533905327" version="2" timestamp="2010-03-02T18:37:42Z" uid="9581" user="Lobelt" changeset="4019082" lat="49.450267" lon="8.4941179">
    <tag k="addr:city" v="Mannheim"/>
    <tag k="addr:country" v="DE"/>
    <tag k="addr:housenumber" v="3"/>
    <tag k="addr:postcode" v="68199"/>
    <tag k="addr:state" v="Baden-Württemberg"/>
    <tag k="addr:street" v="Kleine Straße"/>
  </node>
  <node id="533905916" version="2" timestamp="2010-07-29T09:24:26Z" uid="74617" user="JohnSmith" changeset="5344848" lat="53.5128203" lon="8.0529024">
    <tag k="amenity" v="emergency_phone"/>
    <tag k="emergency" v="phone"/>
    <tag k="name" v="SOS-Notruftelefon"/>
    <tag k="operator" v="Björn-Steiger-Stiftung"/>
  </node>
</osm>
