<?xml version='1.0' encoding='UTF-8'?>
<osm version="0.6" generator="libosmium/2.20.0">
  <node id="534762112" version="3" timestamp="2009-11-28T01:38:03Z" uid="9581" user="Lobelt" changeset="3233137" lat="50.9225629" lon="10.5255094"/>
  <node id="534763563" version="1" timestamp="2009-10-18T15:32:15Z" uid="186548" user="fojhtirf" changeset="2884992" lat="52.4446874" lon="8.3417454">
    <tag k="highway" v="mini_roundabout"/>
  </node>
  <node id="534763563" version="2" timestamp="2009-10-18T15:35:03Z" uid="186548" user="fojhtirf" changeset="2885024" lat="52.4446874" lon="8.3417454">
    <tag k="highway" v="turning_circle"/>
  </node>
  <node id="534763563" version="3" timestamp="2009-10-25T12:56:19Z" uid="186548" user="fojhtirf" changeset="2945938" lat="52.4446874" lon="8.3417454">
    <tag k="highway" v="turning_circle"/>
  </node>
  <node id="534763725" version="2" timestamp="2010-05-01T16:11:13Z" uid="151899" user="Bikeman2000" changeset="4576616" lat="51.2460602" lon="6.7363357"/>
  <node id="534763729" version="2" timestamp="2010-05-01T16:11:13Z" uid="151899" user="Bikeman2000" changeset="4576616" lat="51.2459978" lon="6.7362605"/>
  <node id="534768198" version="2" timestamp="2011-04-05T22:43:54Z" uid="6269" user="Mueck" changeset="7780144" lat="49.0116712" lon="8.4319354">
    <tag k="addr:city" v="Karlsruhe"/>
    <tag k="addr:country" v="DE"/>
    <tag k="addr:housenumber" v="25"/>
    <tag k="addr:postcode" v="76131"/>
    <tag k="addr:street" v="Tullastraße"/>
  </node>
  <node id="534768202" version="2" timestamp="2011-04-05T22:43:54Z" uid="6269" user="Mueck" changeset="7780144" lat="49.0117951" lon="8.431912">
    <tag k="addr:city" v="Karlsruhe"/>
    <tag k="addr:country" v="DE"/>
    <tag k="addr:housenumber" v="29"/>
    <tag k="addr:postcode" v="76131"/>
    <tag k="addr:street" v="Tullastraße"/>
  </node>
  <node id="534768291" version="3" timestamp="2011-04-05T22:43:55Z" uid="6269" user="Mueck" changeset="7780144" lat="49.0128499" lon="8.4340587">
    <tag k="addr:city" v="Karlsruhe"/>
    <tag k="addr:country" v="DE"/>
    <tag k="addr:housenumber" v="11"/>
    <tag k="addr:postcode" v="76131"/>
    <tag k="addr:street" v="Seiterichstraße"/>
  </node>
</osm>
