<?xml version='1.0' encoding='UTF-8'?>
<osm version="0.6" generator="libosmium/2.20.0">
  <node id="535141682" version="3" timestamp="2010-08-06T21:34:28Z" uid="137033" user="lubomir" changeset="5420750" lat="48.3734379" lon="17.748012">
    <tag k="is_in" v="DolnÃ© Zelenice"/>
    <tag k="man_made" v="tower"/>
    <tag k="tower:type" v="communication"/>
  </node>
  <node id="535144204" version="3" timestamp="2010-04-11T04:52:20Z" uid="20587" user="balrog-kun" changeset="4389130" lat="50.12549" lon="19.81339">
    <tag k="name" v="Kulka"/>
    <tag k="place" v="village"/>
  </node>
  <node id="535144204" version="4" timestamp="2010-04-11T13:16:09Z" uid="20587" user="balrog-kun" changeset="4392352" lat="50.12549" lon="19.81339">
    <tag k="name" v="Kulka"/>
    <tag k="place" v="village"/>
  </node>
  <node id="535144204" version="5" timestamp="2010-04-27T03:57:56Z" uid="30632" user="antblant" changeset="4537850" lat="50.12549" lon="19.81339">
    <tag k="name" v="Kulka"/>
    <tag k="place" v="village"/>
    <tag k="teryt:simc" v="0473394"/>
  </node>
  <node id="535144258" version="2" timestamp="2010-04-11T04:52:20Z" uid="20587" user="balrog-kun" changeset="4389130" lat="50.13431" lon="19.79936">
    <tag k="name" v="Krzewiny"/>
    <tag k="place" v="village"/>
    <tag k="source" v="http://ump.waw.pl/ retrieved 01:24:13 09/02/09 (UMP-Krakow/src/cities-Krakow.pnt-converted.txt)"/>
  </node>
  <node id="535144258" version="3" timestamp="2010-04-11T13:16:09Z" uid="20587" user="balrog-kun" changeset="4392352" lat="50.13431" lon="19.79936">
    <tag k="name" v="Krzewiny"/>
    <tag k="place" v="village"/>
    <tag k="source" v="http://ump.waw.pl/ retrieved 01:24:13 09/02/09 (UMP-Krakow/src/cities-Krakow.pnt-converted.txt)"/>
  </node>
  <node id="535144270" version="2" timestamp="2010-04-11T04:52:20Z" uid="20587" user="balrog-kun" changeset="4389130" lat="50.13516" lon="19.80646">
    <tag k="name" v="Siedliski"/>
    <tag k="place" v="village"/>
    <tag k="source" v="http://ump.waw.pl/ retrieved 01:24:13 09/02/09 (UMP-Krakow/src/cities-Krakow.pnt-converted.txt)"/>
  </node>
  <node id="535144270" version="3" timestamp="2010-04-11T13:16:10Z" uid="20587" user="balrog-kun" changeset="4392352" lat="50.13516" lon="19.80646">
    <tag k="name" v="Siedliski"/>
    <tag k="place" v="village"/>
    <tag k="source" v="http://ump.waw.pl/ retrieved 01:24:13 09/02/09 (UMP-Krakow/src/cities-Krakow.pnt-converted.txt)"/>
  </node>
  <node id="535144473" version="3" timestamp="2010-04-11T04:52:20Z" uid="20587" user="balrog-kun" changeset="4389130" lat="50.13151" lon="19.81929">
    <tag k="name" v="Jeziorko"/>
    <tag k="place" v="hamlet"/>
  </node>
  <node id="535144473" version="4" timestamp="2010-04-11T13:16:10Z" uid="20587" user="balrog-kun" changeset="4392352" lat="50.13151" lon="19.81929">
    <tag k="name" v="Jeziorko"/>
    <tag k="place" v="hamlet"/>
  </node>
  <node id="535148929" version="3" timestamp="2010-04-11T04:52:20Z" uid="20587" user="balrog-kun" changeset="4389130" lat="50.12819" lon="19.82582">
    <tag k="name" v="Brzezie"/>
    <tag k="place" v="village"/>
  </node>
  <node id="535148929" version="4" timestamp="2010-04-11T13:16:10Z" uid="20587" user="balrog-kun" changeset="4392352" lat="50.12819" lon="19.82582">
    <tag k="name" v="Brzezie"/>
    <tag k="place" v="village"/>
  </node>
  <node id="535149189" version="3" timestamp="2010-04-11T04:52:20Z" uid="20587" user="balrog-kun" changeset="4389130" lat="50.13377" lon="19.82125">
    <tag k="name" v="Pod Ujazdem"/>
    <tag k="place" v="hamlet"/>
  </node>
  <node id="535149189" version="4" timestamp="2010-04-11T13:16:10Z" uid="20587" user="balrog-kun" changeset="4392352" lat="50.13377" lon="19.82125">
    <tag k="name" v="Pod Ujazdem"/>
    <tag k="place" v="hamlet"/>
  </node>
  <node id="535149459" version="3" timestamp="2010-04-11T04:52:20Z" uid="20587" user="balrog-kun" changeset="4389130" lat="50.13478" lon="19.82489">
    <tag k="name" v="Glinik"/>
    <tag k="place" v="hamlet"/>
  </node>
  <node id="535149459" version="4" timestamp="2010-04-11T13:16:10Z" uid="20587" user="balrog-kun" changeset="4392352" lat="50.13478" lon="19.82489">
    <tag k="name" v="Glinik"/>
    <tag k="place" v="hamlet"/>
  </node>
  <node id="535149599" version="3" timestamp="2010-04-11T04:52:21Z" uid="20587" user="balrog-kun" changeset="4389130" lat="50.13849" lon="19.8214">
    <tag k="name" v="Kolonia"/>
    <tag k="place" v="hamlet"/>
  </node>
  <node id="535149599" version="4" timestamp="2010-04-11T13:16:11Z" uid="20587" user="balrog-kun" changeset="4392352" lat="50.13849" lon="19.8214">
    <tag k="name" v="Kolonia"/>
    <tag k="place" v="hamlet"/>
  </node>
  <node id="535149823" version="3" timestamp="2010-04-11T04:52:21Z" uid="20587" user="balrog-kun" changeset="4389130" lat="50.13162" lon="19.83253">
    <tag k="name" v="Podbrzezie"/>
    <tag k="place" v="village"/>
  </node>
  <node id="535149823" version="4" timestamp="2010-04-11T13:16:11Z" uid="20587" user="balrog-kun" changeset="4392352" lat="50.13162" lon="19.83253">
    <tag k="name" v="Podbrzezie"/>
    <tag k="place" v="village"/>
  </node>
</osm>
