<?xml version='1.0' encoding='UTF-8'?>
<osm version="0.6" generator="libosmium/2.20.0">
  <node id="536035291" version="1" timestamp="2009-10-19T22:08:14Z" uid="36809" user="pfoten_weg_!_" changeset="2899019" lat="47.7459065" lon="11.760422">
    <tag k="name" v="Ostin"/>
    <tag k="place" v="village"/>
  </node>
  <node id="536035349" version="1" timestamp="2009-10-19T22:08:16Z" uid="36809" user="pfoten_weg_!_" changeset="2899019" lat="47.745958" lon="11.7604743"/>
  <node id="536035379" version="1" timestamp="2009-10-19T22:08:17Z" uid="36809" user="pfoten_weg_!_" changeset="2899019" lat="47.7461462" lon="11.7636714"/>
  <node id="536035505" version="1" timestamp="2009-10-19T22:08:18Z" uid="36809" user="pfoten_weg_!_" changeset="2899019" lat="47.7478057" lon="11.7631326"/>
  <node id="536035533" version="1" timestamp="2009-10-19T22:08:19Z" uid="36809" user="pfoten_weg_!_" changeset="2899019" lat="47.7475212" lon="11.7631887"/>
  <node id="536035562" version="1" timestamp="2009-10-19T22:08:19Z" uid="36809" user="pfoten_weg_!_" changeset="2899019" lat="47.7490299" lon="11.7621972"/>
  <node id="536035586" version="1" timestamp="2009-10-19T22:08:20Z" uid="36809" user="pfoten_weg_!_" changeset="2899019" lat="47.7490731" lon="11.762167"/>
  <node id="536035618" version="1" timestamp="2009-10-19T22:08:20Z" uid="36809" user="pfoten_weg_!_" changeset="2899019" lat="47.7479591" lon="11.7628941">
    <tag k="addr:city" v="Ostin"/>
    <tag k="addr:country" v="DE"/>
    <tag k="addr:housenumber" v="25"/>
    <tag k="addr:postcode" v="83703"/>
    <tag k="addr:street" v="Georg-Stöger-Straße"/>
  </node>
  <node id="536035655" version="1" timestamp="2009-10-19T22:08:21Z" uid="36809" user="pfoten_weg_!_" changeset="2899019" lat="47.7480745" lon="11.7627266">
    <tag k="addr:city" v="Ostin"/>
    <tag k="addr:country" v="DE"/>
    <tag k="addr:housenumber" v="25a"/>
    <tag k="addr:postcode" v="83703"/>
    <tag k="addr:street" v="Georg-Stöger-Straße"/>
  </node>
  <node id="536035677" version="1" timestamp="2009-10-19T22:08:21Z" uid="36809" user="pfoten_weg_!_" changeset="2899019" lat="47.7482442" lon="11.7626769">
    <tag k="addr:city" v="Ostin"/>
    <tag k="addr:country" v="DE"/>
    <tag k="addr:housenumber" v="27"/>
    <tag k="addr:postcode" v="83703"/>
    <tag k="addr:street" v="Georg-Stöger-Straße"/>
  </node>
  <node id="536035699" version="1" timestamp="2009-10-19T22:08:22Z" uid="36809" user="pfoten_weg_!_" changeset="2899019" lat="47.7482454" lon="11.7628438"/>
  <node id="536035720" version="1" timestamp="2009-10-19T22:08:22Z" uid="36809" user="pfoten_weg_!_" changeset="2899019" lat="47.7480483" lon="11.7627907"/>
  <node id="536035740" version="1" timestamp="2009-10-19T22:08:23Z" uid="36809" user="pfoten_weg_!_" changeset="2899019" lat="47.7484479" lon="11.7627063">
    <tag k="addr:city" v="Ostin"/>
    <tag k="addr:country" v="DE"/>
    <tag k="addr:housenumber" v="29"/>
    <tag k="addr:postcode" v="83703"/>
    <tag k="addr:street" v="Georg-Stöger-Straße"/>
  </node>
  <node id="536035767" version="1" timestamp="2009-10-19T22:08:23Z" uid="36809" user="pfoten_weg_!_" changeset="2899019" lat="47.7484265" lon="11.7628395"/>
  <node id="536035789" version="1" timestamp="2009-10-19T22:08:23Z" uid="36809" user="pfoten_weg_!_" changeset="2899019" lat="47.7480235" lon="11.7629642"/>
  <node id="536035806" version="1" timestamp="2009-10-19T22:08:24Z" uid="36809" user="pfoten_weg_!_" changeset="2899019" lat="47.748055" lon="11.7633127"/>
  <node id="536035823" version="1" timestamp="2009-10-19T22:08:24Z" uid="36809" user="pfoten_weg_!_" changeset="2899019" lat="47.7480439" lon="11.7629518"/>
  <node id="536035841" version="1" timestamp="2009-10-19T22:08:24Z" uid="36809" user="pfoten_weg_!_" changeset="2899019" lat="47.7481335" lon="11.7630815">
    <tag k="addr:city" v="Ostin"/>
    <tag k="addr:country" v="DE"/>
    <tag k="addr:housenumber" v="16"/>
    <tag k="addr:postcode" v="83703"/>
    <tag k="addr:street" v="Georg-Stöger-Straße"/>
  </node>
  <node id="536035860" version="1" timestamp="2009-10-19T22:08:24Z" uid="36809" user="pfoten_weg_!_" changeset="2899019" lat="47.7486377" lon="11.762943"/>
  <node id="536035876" version="1" timestamp="2009-10-19T22:08:25Z" uid="36809" user="pfoten_weg_!_" changeset="2899019" lat="47.7487194" lon="11.7628285">
    <tag k="addr:city" v="Ostin"/>
    <tag k="addr:country" v="DE"/>
    <tag k="addr:housenumber" v="31"/>
    <tag k="addr:postcode" v="83703"/>
    <tag k="addr:street" v="Georg-Stöger-Straße"/>
  </node>
  <node id="536035900" version="1" timestamp="2009-10-19T22:08:25Z" uid="36809" user="pfoten_weg_!_" changeset="2899019" lat="47.748844" lon="11.7625338">
    <tag k="addr:city" v="Ostin"/>
    <tag k="addr:country" v="DE"/>
    <tag k="addr:housenumber" v="17"/>
    <tag k="addr:postcode" v="83703"/>
    <tag k="addr:street" v="Ostiner Höhe"/>
  </node>
  <node id="536035923" version="1" timestamp="2009-10-19T22:08:26Z" uid="36809" user="pfoten_weg_!_" changeset="2899019" lat="47.749266" lon="11.7625408"/>
  <node id="536035942" version="1" timestamp="2009-10-19T22:08:26Z" uid="36809" user="pfoten_weg_!_" changeset="2899019" lat="47.7492886" lon="11.762249"/>
  <node id="536035966" version="1" timestamp="2009-10-19T22:08:26Z" uid="36809" user="pfoten_weg_!_" changeset="2899019" lat="47.7487747" lon="11.7635294">
    <tag k="addr:city" v="Ostin"/>
    <tag k="addr:country" v="DE"/>
    <tag k="addr:housenumber" v="20"/>
    <tag k="addr:postcode" v="83703"/>
    <tag k="addr:street" v="Georg-Stöger-Straße"/>
  </node>
  <node id="536036001" version="1" timestamp="2009-10-19T22:08:27Z" uid="36809" user="pfoten_weg_!_" changeset="2899019" lat="47.7487286" lon="11.7632204">
    <tag k="addr:city" v="Ostin"/>
    <tag k="addr:country" v="DE"/>
    <tag k="addr:housenumber" v="18"/>
    <tag k="addr:postcode" v="83703"/>
    <tag k="addr:street" v="Georg-Stöger-Straße"/>
  </node>
  <node id="536036033" version="1" timestamp="2009-10-19T22:08:27Z" uid="36809" user="pfoten_weg_!_" changeset="2899019" lat="47.7488661" lon="11.7631369"/>
  <node id="536036056" version="1" timestamp="2009-10-19T22:08:28Z" uid="36809" user="pfoten_weg_!_" changeset="2899019" lat="47.7490298" lon="11.7635624">
    <tag k="addr:city" v="Ostin"/>
    <tag k="addr:country" v="DE"/>
    <tag k="addr:housenumber" v="35"/>
    <tag k="addr:postcode" v="83703"/>
    <tag k="addr:street" v="Georg-Stöger-Straße"/>
  </node>
  <node id="536036098" version="1" timestamp="2009-10-19T22:08:28Z" uid="36809" user="pfoten_weg_!_" changeset="2899019" lat="47.7492122" lon="11.7634173"/>
  <node id="536036121" version="1" timestamp="2009-10-19T22:08:29Z" uid="36809" user="pfoten_weg_!_" changeset="2899019" lat="47.7492183" lon="11.7635224">
    <tag k="addr:city" v="Ostin"/>
    <tag k="addr:country" v="DE"/>
    <tag k="addr:housenumber" v="2"/>
    <tag k="addr:postcode" v="83703"/>
    <tag k="addr:street" v="Ostiner Höhe"/>
  </node>
  <node id="536036147" version="1" timestamp="2009-10-19T22:08:29Z" uid="36809" user="pfoten_weg_!_" changeset="2899019" lat="47.7490806" lon="11.7630316">
    <tag k="addr:city" v="Ostin"/>
    <tag k="addr:country" v="DE"/>
    <tag k="addr:housenumber" v="1"/>
    <tag k="addr:postcode" v="83703"/>
    <tag k="addr:street" v="Ostiner Höhe"/>
  </node>
  <node id="536036197" version="1" timestamp="2009-10-19T22:08:30Z" uid="36809" user="pfoten_weg_!_" changeset="2899019" lat="47.7493274" lon="11.7634344"/>
  <node id="536036222" version="1" timestamp="2009-10-19T22:08:30Z" uid="36809" user="pfoten_weg_!_" changeset="2899019" lat="47.7466117" lon="11.7636327"/>
  <node id="536036259" version="1" timestamp="2009-10-19T22:08:31Z" uid="36809" user="pfoten_weg_!_" changeset="2899019" lat="47.7481927" lon="11.7636661"/>
  <node id="536036278" version="1" timestamp="2009-10-19T22:08:31Z" uid="36809" user="pfoten_weg_!_" changeset="2899019" lat="47.7482844" lon="11.7646481"/>
  <node id="536036306" version="1" timestamp="2009-10-19T22:08:32Z" uid="36809" user="pfoten_weg_!_" changeset="2899019" lat="47.748367" lon="11.7648821"/>
  <node id="536036332" version="1" timestamp="2009-10-19T22:08:32Z" uid="36809" user="pfoten_weg_!_" changeset="2899019" lat="47.7483843" lon="11.7638345">
    <tag k="addr:city" v="Ostin"/>
    <tag k="addr:country" v="DE"/>
    <tag k="addr:housenumber" v="9"/>
    <tag k="addr:postcode" v="83703"/>
    <tag k="addr:street" v="Bgm.-Feichner-Straße"/>
  </node>
  <node id="536036395" version="1" timestamp="2009-10-19T22:08:33Z" uid="36809" user="pfoten_weg_!_" changeset="2899019" lat="47.748075" lon="11.7638787">
    <tag k="addr:city" v="Ostin"/>
    <tag k="addr:country" v="DE"/>
    <tag k="addr:housenumber" v="4"/>
    <tag k="addr:postcode" v="83703"/>
    <tag k="addr:street" v="Bgm.-Feichner-Straße"/>
  </node>
  <node id="536036422" version="1" timestamp="2009-10-19T22:08:34Z" uid="36809" user="pfoten_weg_!_" changeset="2899019" lat="47.7488151" lon="11.7638127">
    <tag k="addr:city" v="Ostin"/>
    <tag k="addr:country" v="DE"/>
    <tag k="addr:housenumber" v="22"/>
    <tag k="addr:postcode" v="83703"/>
    <tag k="addr:street" v="Georg-Stöger-Straße"/>
  </node>
  <node id="536036452" version="1" timestamp="2009-10-19T22:08:34Z" uid="36809" user="pfoten_weg_!_" changeset="2899019" lat="47.7490457" lon="11.7638637">
    <tag k="addr:city" v="Ostin"/>
    <tag k="addr:country" v="DE"/>
    <tag k="addr:housenumber" v="37"/>
    <tag k="addr:postcode" v="83703"/>
    <tag k="addr:street" v="Georg-Stöger-Straße"/>
  </node>
  <node id="536036488" version="1" timestamp="2009-10-19T22:08:35Z" uid="36809" user="pfoten_weg_!_" changeset="2899019" lat="47.7488845" lon="11.7642237"/>
  <node id="536036505" version="1" timestamp="2009-10-19T22:08:35Z" uid="36809" user="pfoten_weg_!_" changeset="2899019" lat="47.7490423" lon="11.7642254">
    <tag k="addr:city" v="Gmund"/>
    <tag k="addr:country" v="DE"/>
    <tag k="addr:housenumber" v="41"/>
    <tag k="addr:postcode" v="83703"/>
    <tag k="addr:street" v="Georg-Stöger-Straße"/>
  </node>
  <node id="536036536" version="1" timestamp="2009-10-19T22:08:36Z" uid="36809" user="pfoten_weg_!_" changeset="2899019" lat="47.7490539" lon="11.764043">
    <tag k="addr:city" v="Gmund"/>
    <tag k="addr:country" v="DE"/>
    <tag k="addr:housenumber" v="39"/>
    <tag k="addr:postcode" v="83703"/>
    <tag k="addr:street" v="Georg-Stöger-Straße"/>
  </node>
  <node id="536036569" version="1" timestamp="2009-10-19T22:08:36Z" uid="36809" user="pfoten_weg_!_" changeset="2899019" lat="47.7488005" lon="11.7640386">
    <tag k="addr:city" v="Gmund"/>
    <tag k="addr:country" v="DE"/>
    <tag k="addr:housenumber" v="24"/>
    <tag k="addr:postcode" v="83703"/>
    <tag k="addr:street" v="Georg-Stöger-Straße"/>
  </node>
  <node id="536036596" version="1" timestamp="2009-10-19T22:08:37Z" uid="36809" user="pfoten_weg_!_" changeset="2899019" lat="47.748786" lon="11.7642138">
    <tag k="addr:city" v="Gmund"/>
    <tag k="addr:country" v="DE"/>
    <tag k="addr:housenumber" v="26"/>
    <tag k="addr:postcode" v="83703"/>
    <tag k="addr:street" v="Georg-Stöger-Straße"/>
  </node>
  <node id="536036620" version="1" timestamp="2009-10-19T22:08:37Z" uid="36809" user="pfoten_weg_!_" changeset="2899019" lat="47.7485322" lon="11.7651987"/>
  <node id="536036639" version="1" timestamp="2009-10-19T22:08:37Z" uid="36809" user="pfoten_weg_!_" changeset="2899019" lat="47.74878" lon="11.7652584"/>
  <node id="536036657" version="1" timestamp="2009-10-19T22:08:38Z" uid="36809" user="pfoten_weg_!_" changeset="2899019" lat="47.7495203" lon="11.7634778">
    <tag k="addr:city" v="Ostin"/>
    <tag k="addr:country" v="DE"/>
    <tag k="addr:housenumber" v="3"/>
    <tag k="addr:postcode" v="83703"/>
    <tag k="addr:street" v="Ostiner Höhe"/>
  </node>
  <node id="536036675" version="1" timestamp="2009-10-19T22:08:38Z" uid="36809" user="pfoten_weg_!_" changeset="2899019" lat="47.7494007" lon="11.7622921"/>
  <node id="536036692" version="1" timestamp="2009-10-19T22:08:38Z" uid="36809" user="pfoten_weg_!_" changeset="2899019" lat="47.7494136" lon="11.7633826"/>
  <node id="536036711" version="1" timestamp="2009-10-19T22:08:39Z" uid="36809" user="pfoten_weg_!_" changeset="2899019" lat="47.7494481" lon="11.762818"/>
  <node id="536036729" version="1" timestamp="2009-10-19T22:08:39Z" uid="36809" user="pfoten_weg_!_" changeset="2899019" lat="47.7494438" lon="11.7632619"/>
  <node id="536036743" version="1" timestamp="2009-10-19T22:08:39Z" uid="36809" user="pfoten_weg_!_" changeset="2899019" lat="47.7494308" lon="11.7623352"/>
  <node id="536036764" version="1" timestamp="2009-10-19T22:08:40Z" uid="36809" user="pfoten_weg_!_" changeset="2899019" lat="47.7494351" lon="11.7624343"/>
  <node id="536036782" version="1" timestamp="2009-10-19T22:08:40Z" uid="36809" user="pfoten_weg_!_" changeset="2899019" lat="47.7544144" lon="11.7845603">
    <tag k="name" v="Eck"/>
    <tag k="place" v="suburb"/>
  </node>
  <node id="536036801" version="1" timestamp="2009-10-19T22:08:40Z" uid="36809" user="pfoten_weg_!_" changeset="2899019" lat="47.7534391" lon="11.8274579"/>
  <node id="536036825" version="1" timestamp="2009-10-19T22:08:41Z" uid="36809" user="pfoten_weg_!_" changeset="2899019" lat="47.7534391" lon="11.8318782"/>
  <node id="536036849" version="1" timestamp="2009-10-19T22:08:41Z" uid="36809" user="pfoten_weg_!_" changeset="2899019" lat="47.7529775" lon="11.832067"/>
  <node id="536036870" version="1" timestamp="2009-10-19T22:08:41Z" uid="36809" user="pfoten_weg_!_" changeset="2899019" lat="47.7539954" lon="11.8317201"/>
  <node id="536036885" version="1" timestamp="2009-10-19T22:08:42Z" uid="36809" user="pfoten_weg_!_" changeset="2899019" lat="47.7542355" lon="11.8316894"/>
  <node id="536036899" version="1" timestamp="2009-10-19T22:08:42Z" uid="36809" user="pfoten_weg_!_" changeset="2899019" lat="47.7517368" lon="11.8323245"/>
  <node id="536036916" version="1" timestamp="2009-10-19T22:08:42Z" uid="36809" user="pfoten_weg_!_" changeset="2899019" lat="47.7523889" lon="11.8323932"/>
  <node id="536036932" version="1" timestamp="2009-10-19T22:08:43Z" uid="36809" user="pfoten_weg_!_" changeset="2899019" lat="47.7525851" lon="11.8323073"/>
</osm>
