<?xml version='1.0' encoding='UTF-8'?>
<osm version="0.6" generator="libosmium/2.20.0">
  <node id="538151665" version="2" timestamp="2010-04-20T03:32:41Z" uid="74617" user="JohnSmith" changeset="4474037" lat="-36.7786468" lon="144.2983233"/>
  <node id="538151667" version="2" timestamp="2010-04-27T02:28:05Z" uid="74617" user="JohnSmith" changeset="4537635" lat="-36.7761472" lon="144.2951093"/>
  <node id="538154060" version="2" timestamp="2010-01-22T19:01:55Z" uid="9581" user="Lobelt" changeset="3685990" lat="50.8900352" lon="10.2884143"/>
  <node id="538154246" version="3" timestamp="2011-03-23T11:01:52Z" uid="4467" user="Rosscoe" changeset="7645288" lat="-12.4444724" lon="130.8411738"/>
  <node id="538158006" version="2" timestamp="2010-07-28T20:10:00Z" uid="74617" user="JohnSmith" changeset="5339329" lat="43.6908663" lon="-79.3859032">
    <tag k="colour" v="yellow"/>
    <tag k="emergency" v="fire_hydrant"/>
    <tag k="note" v="between"/>
  </node>
  <node id="538158006" version="3" timestamp="2010-07-30T17:42:38Z" uid="74617" user="JohnSmith" changeset="5356742" lat="43.6908663" lon="-79.3859032">
    <tag k="amenity" v="fire_hydrant"/>
    <tag k="colour" v="yellow"/>
    <tag k="emergency" v="fire_hydrant"/>
    <tag k="note" v="between"/>
  </node>
  <node id="538158013" version="2" timestamp="2010-07-28T20:13:24Z" uid="74617" user="JohnSmith" changeset="5339329" lat="43.6934461" lon="-79.3847556">
    <tag k="emergency" v="fire_hydrant"/>
  </node>
  <node id="538158013" version="3" timestamp="2010-07-30T17:48:21Z" uid="74617" user="JohnSmith" changeset="5356742" lat="43.6934461" lon="-79.3847556">
    <tag k="amenity" v="fire_hydrant"/>
    <tag k="emergency" v="fire_hydrant"/>
  </node>
  <node id="538158149" version="5" timestamp="2011-03-21T22:50:02Z" uid="6269" user="Mueck" changeset="7632655" lat="49.0076539" lon="8.414626">
    <tag k="addr:city" v="Karlsruhe"/>
    <tag k="addr:country" v="DE"/>
    <tag k="addr:housenumber" v="40"/>
    <tag k="addr:postcode" v="76131"/>
    <tag k="addr:street" v="Kapellenstraße"/>
    <tag k="amenity" v="pub"/>
    <tag k="cuisine" v="irish"/>
    <tag k="name" v="Bray Head Irish Pub"/>
    <tag k="website" v="http://www.brayhead.de/"/>
    <tag k="wheelchair" v="no"/>
  </node>
  <node id="538158150" version="3" timestamp="2011-03-21T22:50:04Z" uid="6269" user="Mueck" changeset="7632655" lat="49.0079048" lon="8.4150439">
    <tag k="addr:city" v="Karlsruhe"/>
    <tag k="addr:country" v="DE"/>
    <tag k="addr:housenumber" v="28"/>
    <tag k="addr:postcode" v="76131"/>
    <tag k="addr:street" v="Kapellenstraße"/>
    <tag k="amenity" v="pub"/>
    <tag k="name" v="Ritchy&apos;s Inn"/>
    <tag k="wheelchair" v="no"/>
  </node>
</osm>
