<?xml version='1.0' encoding='UTF-8'?>
<osm version="0.6" generator="libosmium/2.20.0">
  <node id="539660901" version="6" timestamp="2009-12-06T00:08:33Z" uid="74027" user="katzlbt" changeset="3299683" lat="46.9985812" lon="11.4072178">
    <tag k="amenity" v="alm"/>
    <tag k="name" v="Oberreinsalm"/>
  </node>
  <node id="539660901" version="7" timestamp="2009-12-06T00:16:04Z" uid="74027" user="katzlbt" changeset="3299683" lat="46.9985702" lon="11.4071159">
    <tag k="amenity" v="alm"/>
    <tag k="name" v="Oberreinsalm"/>
  </node>
  <node id="539660912" version="3" timestamp="2010-01-24T19:33:01Z" uid="74027" user="katzlbt" changeset="3704848" lat="46.9543854" lon="11.4598901">
    <tag k="ele" v="1299"/>
    <tag k="name" v="Dachs"/>
    <tag k="name:de" v="Dachs"/>
    <tag k="name:it" v="Tasso"/>
    <tag k="place" v="hamlet"/>
  </node>
  <node id="539667983" version="5" timestamp="2010-02-08T15:24:21Z" uid="58091" user="Andreas M" changeset="3824141" lat="48.2796578" lon="16.5105427">
    <tag k="highway" v="motorway_junction"/>
    <tag k="name" v="Angerner StraÃŸe"/>
    <tag k="ref" v="7"/>
  </node>
</osm>
