<?xml version='1.0' encoding='UTF-8'?>
<osm version="0.6" generator="libosmium/2.20.0">
  <node id="544221769" version="2" timestamp="2010-09-22T12:10:31Z" uid="115477" user="wowik" changeset="5844970" lat="54.9202067" lon="22.0820469">
    <tag k="name" v="Лунино"/>
    <tag k="place" v="hamlet"/>
  </node>
  <node id="544225101" version="2" timestamp="2010-05-12T15:00:30Z" uid="58091" user="Andreas M" changeset="4677879" lat="48.1998569" lon="16.374949"/>
  <node id="544225126" version="2" timestamp="2010-05-12T15:00:31Z" uid="58091" user="Andreas M" changeset="4677879" lat="48.2004171" lon="16.376828"/>
  <node id="544225499" version="3" timestamp="2010-04-05T03:05:22Z" uid="4467" user="Rosscoe" changeset="4328970" lat="-36.9762211" lon="144.2509683"/>
  <node id="544225597" version="4" timestamp="2010-09-22T12:11:08Z" uid="115477" user="wowik" changeset="5844970" lat="54.9108037" lon="21.9732558">
    <tag k="addr:country" v="RU"/>
    <tag k="addr:district" v="Неманский район"/>
    <tag k="addr:postcode" v="238725"/>
    <tag k="addr:region" v="Калининградская область"/>
    <tag k="cladr:code" v="3900800004200"/>
    <tag k="cladr:name" v="Рудаково"/>
    <tag k="cladr:suffix" v="Поселок"/>
    <tag k="name" v="Рудаково"/>
    <tag k="name:de" v="Buddecken"/>
    <tag k="place" v="hamlet"/>
  </node>
  <node id="544229966" version="2" timestamp="2010-04-11T04:52:47Z" uid="20587" user="balrog-kun" changeset="4389130" lat="49.6061444" lon="20.7819209">
    <tag k="name" v="Mystkow"/>
    <tag k="place" v="village"/>
  </node>
</osm>
