<?xml version='1.0' encoding='UTF-8'?>
<osm version="0.6" generator="libosmium/2.20.0">
  <node id="546357719" version="2" timestamp="2010-04-11T04:52:47Z" uid="20587" user="balrog-kun" changeset="4389130" lat="52.9826301" lon="14.5430214">
    <tag k="name" v="Kamienny Jaz"/>
    <tag k="place" v="village"/>
  </node>
  <node id="546357719" version="3" timestamp="2010-04-27T04:09:10Z" uid="30632" user="antblant" changeset="4537879" lat="52.9826301" lon="14.5430214">
    <tag k="name" v="Kamienny Jaz"/>
    <tag k="place" v="village"/>
    <tag k="teryt:simc" v="0773720"/>
  </node>
  <node id="546357786" version="2" timestamp="2010-04-11T04:52:47Z" uid="20587" user="balrog-kun" changeset="4389130" lat="53.0072515" lon="14.5201243">
    <tag k="name" v="Strzelczyn"/>
    <tag k="place" v="village"/>
  </node>
  <node id="546357786" version="3" timestamp="2010-04-27T03:59:40Z" uid="30632" user="antblant" changeset="4537857" lat="53.0072515" lon="14.5201243">
    <tag k="name" v="Strzelczyn"/>
    <tag k="place" v="village"/>
    <tag k="teryt:simc" v="0773995"/>
  </node>
</osm>
