<?xml version='1.0' encoding='UTF-8'?>
<osm version="0.6" generator="libosmium/2.20.0">
  <node id="548673521" version="2" timestamp="2009-11-11T08:44:27Z" uid="20587" user="balrog-kun" changeset="3088189" lat="50.5653538" lon="18.8887836">
    <tag k="is_in" v="Silesia"/>
    <tag k="name" v="Kalety"/>
    <tag k="railway" v="station"/>
  </node>
  <node id="548674018" version="2" timestamp="2009-11-11T08:44:27Z" uid="20587" user="balrog-kun" changeset="3088189" lat="50.5619613" lon="18.8831852">
    <tag k="amenity" v="police"/>
    <tag k="name" v="Kalety"/>
  </node>
  <node id="548674544" version="2" timestamp="2009-11-11T08:44:26Z" uid="20587" user="balrog-kun" changeset="3088189" lat="50.5641967" lon="18.8799408">
    <tag k="amenity" v="fire_station"/>
  </node>
  <node id="548679045" version="1" timestamp="2009-10-31T14:14:30Z" uid="99207" user="Lar Kiesel" changeset="2997680" lat="33.9055135" lon="-81.2342633">
    <tag k="addr:city" v="Lexington, SC"/>
    <tag k="addr:housenumber" v="5643"/>
    <tag k="addr:postcode" v="29073"/>
    <tag k="addr:street" v="Platt Springs Road"/>
    <tag k="amenity" v="school"/>
    <tag k="name" v="White Knoll High School"/>
    <tag k="phone" v="803-821-5200"/>
  </node>
  <node id="548679045" version="2" timestamp="2009-12-02T03:44:31Z" uid="99207" user="Lar Kiesel" changeset="3269250" lat="33.9055136" lon="-81.2342634">
    <tag k="addr:city" v="Lexington, SC"/>
    <tag k="addr:housenumber" v="5643"/>
    <tag k="addr:postcode" v="29073"/>
    <tag k="addr:state" v="SC"/>
    <tag k="addr:street" v="Platt Springs Road"/>
    <tag k="amenity" v="school"/>
    <tag k="name" v="White Knoll High School"/>
    <tag k="phone" v="803-821-5200"/>
  </node>
  <node id="548679064" version="1" timestamp="2009-10-31T14:14:31Z" uid="99207" user="Lar Kiesel" changeset="2997680" lat="33.8952193" lon="-81.258768">
    <tag k="addr:city" v="Lexington, SC"/>
    <tag k="addr:housenumber" v="6180"/>
    <tag k="addr:postcode" v="29073"/>
    <tag k="addr:street" v="Platt Springs Road"/>
    <tag k="amenity" v="school"/>
    <tag k="name" v="Carolina Springs Middle School"/>
    <tag k="phone" v="803-821-3703"/>
  </node>
  <node id="548679064" version="2" timestamp="2009-12-02T03:44:30Z" uid="99207" user="Lar Kiesel" changeset="3269250" lat="33.8952194" lon="-81.2587681">
    <tag k="addr:city" v="Lexington, SC"/>
    <tag k="addr:housenumber" v="6180"/>
    <tag k="addr:postcode" v="29073"/>
    <tag k="addr:state" v="SC"/>
    <tag k="addr:street" v="Platt Springs Road"/>
    <tag k="amenity" v="school"/>
    <tag k="name" v="Carolina Springs Middle School"/>
    <tag k="phone" v="803-821-3703"/>
  </node>
  <node id="548679086" version="1" timestamp="2009-10-31T14:14:31Z" uid="99207" user="Lar Kiesel" changeset="2997680" lat="33.8889211" lon="-81.2655743">
    <tag k="addr:city" v="Lexington, SC"/>
    <tag k="addr:housenumber" v="6340"/>
    <tag k="addr:postcode" v="29073"/>
    <tag k="addr:street" v="Platt Springs Road"/>
    <tag k="amenity" v="school"/>
    <tag k="name" v="Carolina Springs Elementary School"/>
    <tag k="phone" v="803-821-5100"/>
  </node>
</osm>
