<?xml version='1.0' encoding='UTF-8'?>
<osm version="0.6" generator="libosmium/2.20.0">
  <node id="549260272" version="2" timestamp="2010-07-29T09:41:56Z" uid="74617" user="JohnSmith" changeset="5344848" lat="51.9148724" lon="0.8735022">
    <tag k="amenity" v="emergency_phone"/>
    <tag k="emergency" v="phone"/>
  </node>
  <node id="549260274" version="2" timestamp="2010-07-29T09:28:02Z" uid="74617" user="JohnSmith" changeset="5344848" lat="51.8968464" lon="0.8578193">
    <tag k="amenity" v="emergency_phone"/>
    <tag k="emergency" v="phone"/>
  </node>
  <node id="549260275" version="2" timestamp="2010-07-29T09:34:49Z" uid="74617" user="JohnSmith" changeset="5344848" lat="51.8971401" lon="0.8596345">
    <tag k="amenity" v="emergency_phone"/>
    <tag k="emergency" v="phone"/>
  </node>
  <node id="549260277" version="2" timestamp="2010-07-29T09:30:34Z" uid="74617" user="JohnSmith" changeset="5344848" lat="51.9175186" lon="0.8764429">
    <tag k="amenity" v="emergency_phone"/>
    <tag k="emergency" v="phone"/>
  </node>
  <node id="549261004" version="6" timestamp="2010-07-26T02:02:11Z" uid="20587" user="balrog-kun" changeset="5317852" lat="53.1349781" lon="17.9919169">
    <tag k="name" v="Bydgoszcz Główna"/>
    <tag k="name:de" v="Bromberg Hauptbanhoff"/>
    <tag k="old_name" v="Bromberg Hauptbanhoff"/>
    <tag k="railway" v="station"/>
    <tag k="ref" v="14"/>
    <tag k="wikipedia" v="pl:Bydgoszcz Główna"/>
  </node>
  <node id="549266989" version="2" timestamp="2010-11-10T18:36:10Z" uid="16922" user="amai" changeset="6338039" lat="13.9694545" lon="100.6407582"/>
</osm>
