<?xml version='1.0' encoding='UTF-8'?>
<osm version="0.6" generator="libosmium/2.20.0">
  <node id="550480207" version="2" timestamp="2010-04-11T04:52:48Z" uid="20587" user="balrog-kun" changeset="4389130" lat="49.87106" lon="19.35067">
    <tag k="name" v="Kuwik"/>
    <tag k="place" v="village"/>
    <tag k="source" v="http://ump.waw.pl/ retrieved 01:24:13 09/02/09 (UMP-Krakow/src/cities-Krakow.pnt-converted.txt)"/>
  </node>
  <node id="550480207" version="3" timestamp="2010-04-11T13:16:34Z" uid="20587" user="balrog-kun" changeset="4392352" lat="49.87106" lon="19.35067">
    <tag k="name" v="Kuwik"/>
    <tag k="place" v="village"/>
    <tag k="source" v="http://ump.waw.pl/ retrieved 01:24:13 09/02/09 (UMP-Krakow/src/cities-Krakow.pnt-converted.txt)"/>
  </node>
  <node id="550480393" version="2" timestamp="2010-04-11T04:52:48Z" uid="20587" user="balrog-kun" changeset="4389130" lat="49.87422" lon="19.35446">
    <tag k="name" v="Bania"/>
    <tag k="place" v="village"/>
    <tag k="source" v="http://ump.waw.pl/ retrieved 01:24:13 09/02/09 (UMP-Krakow/src/cities-Krakow.pnt-converted.txt)"/>
  </node>
  <node id="550480393" version="3" timestamp="2010-04-11T13:16:34Z" uid="20587" user="balrog-kun" changeset="4392352" lat="49.87422" lon="19.35446">
    <tag k="name" v="Bania"/>
    <tag k="place" v="village"/>
    <tag k="source" v="http://ump.waw.pl/ retrieved 01:24:13 09/02/09 (UMP-Krakow/src/cities-Krakow.pnt-converted.txt)"/>
  </node>
  <node id="550480393" version="4" timestamp="2010-04-27T04:07:57Z" uid="30632" user="antblant" changeset="4537875" lat="49.87422" lon="19.35446">
    <tag k="name" v="Bania"/>
    <tag k="place" v="village"/>
    <tag k="source" v="http://ump.waw.pl/ retrieved 01:24:13 09/02/09 (UMP-Krakow/src/cities-Krakow.pnt-converted.txt)"/>
    <tag k="teryt:simc" v="0269570"/>
  </node>
  <node id="550480463" version="2" timestamp="2010-03-14T13:46:03Z" uid="30632" user="antblant" changeset="4124568" lat="49.86666" lon="19.37937">
    <tag k="source" v="http://ump.waw.pl/"/>
  </node>
  <node id="550481125" version="2" timestamp="2010-03-14T13:46:09Z" uid="30632" user="antblant" changeset="4124568" lat="49.86666" lon="19.38133"/>
  <node id="550481620" version="2" timestamp="2010-04-11T04:52:48Z" uid="20587" user="balrog-kun" changeset="4389130" lat="49.87402" lon="19.40361">
    <tag k="name" v="Korcza"/>
    <tag k="place" v="village"/>
    <tag k="source" v="http://ump.waw.pl/ retrieved 01:24:13 09/02/09 (UMP-Krakow/src/cities-Krakow.pnt-converted.txt)"/>
  </node>
  <node id="550481620" version="3" timestamp="2010-04-11T13:16:34Z" uid="20587" user="balrog-kun" changeset="4392352" lat="49.87402" lon="19.40361">
    <tag k="name" v="Korcza"/>
    <tag k="place" v="village"/>
    <tag k="source" v="http://ump.waw.pl/ retrieved 01:24:13 09/02/09 (UMP-Krakow/src/cities-Krakow.pnt-converted.txt)"/>
  </node>
  <node id="550482293" version="2" timestamp="2010-04-11T04:52:48Z" uid="20587" user="balrog-kun" changeset="4389130" lat="49.89082" lon="19.35726">
    <tag k="name" v="Wieprz"/>
    <tag k="place" v="village"/>
    <tag k="source" v="http://ump.waw.pl/ retrieved 01:24:13 09/02/09 (UMP-Krakow/src/cities-Krakow.pnt-converted.txt)"/>
  </node>
  <node id="550482293" version="3" timestamp="2010-04-11T13:16:34Z" uid="20587" user="balrog-kun" changeset="4392352" lat="49.89082" lon="19.35726">
    <tag k="name" v="Wieprz"/>
    <tag k="place" v="village"/>
    <tag k="source" v="http://ump.waw.pl/ retrieved 01:24:13 09/02/09 (UMP-Krakow/src/cities-Krakow.pnt-converted.txt)"/>
  </node>
  <node id="550487610" version="2" timestamp="2010-04-11T04:52:48Z" uid="20587" user="balrog-kun" changeset="4389130" lat="49.9121118" lon="19.4158377">
    <tag k="name" v="Frydrychowice"/>
    <tag k="place" v="village"/>
    <tag k="source" v="http://ump.waw.pl/ retrieved 01:24:13 09/02/09 (UMP-Krakow/src/cities-Krakow.pnt-converted.txt)"/>
  </node>
  <node id="550487610" version="3" timestamp="2010-04-11T13:16:34Z" uid="20587" user="balrog-kun" changeset="4392352" lat="49.9116412" lon="19.416021">
    <tag k="name" v="Frydrychowice"/>
    <tag k="place" v="village"/>
    <tag k="source" v="http://ump.waw.pl/ retrieved 01:24:13 09/02/09 (UMP-Krakow/src/cities-Krakow.pnt-converted.txt)"/>
  </node>
  <node id="550487610" version="4" timestamp="2010-04-27T04:20:17Z" uid="30632" user="antblant" changeset="4537912" lat="49.9116412" lon="19.416021">
    <tag k="name" v="Frydrychowice"/>
    <tag k="place" v="village"/>
    <tag k="source" v="http://ump.waw.pl/ retrieved 01:24:13 09/02/09 (UMP-Krakow/src/cities-Krakow.pnt-converted.txt)"/>
    <tag k="teryt:simc" v="0075311"/>
  </node>
  <node id="550488374" version="2" timestamp="2010-04-11T04:52:48Z" uid="20587" user="balrog-kun" changeset="4389130" lat="49.8743" lon="19.45344">
    <tag k="name" v="Chocznia"/>
    <tag k="place" v="town"/>
    <tag k="source" v="http://ump.waw.pl/ retrieved 01:24:13 09/02/09 (UMP-Krakow/src/cities-Krakow.pnt-converted.txt)"/>
  </node>
  <node id="550488374" version="3" timestamp="2010-04-11T13:16:35Z" uid="20587" user="balrog-kun" changeset="4392352" lat="49.8743" lon="19.45344">
    <tag k="name" v="Chocznia"/>
    <tag k="place" v="town"/>
    <tag k="source" v="http://ump.waw.pl/ retrieved 01:24:13 09/02/09 (UMP-Krakow/src/cities-Krakow.pnt-converted.txt)"/>
  </node>
  <node id="550488374" version="4" timestamp="2010-04-27T03:56:29Z" uid="30632" user="antblant" changeset="4537843" lat="49.8743" lon="19.45344">
    <tag k="name" v="Chocznia"/>
    <tag k="place" v="town"/>
    <tag k="source" v="http://ump.waw.pl/ retrieved 01:24:13 09/02/09 (UMP-Krakow/src/cities-Krakow.pnt-converted.txt)"/>
    <tag k="teryt:simc" v="0073944"/>
  </node>
</osm>
