<?xml version='1.0' encoding='UTF-8'?>
<osm version="0.6" generator="libosmium/2.20.0">
  <node id="555042338" version="3" timestamp="2009-11-06T02:00:55Z" uid="36809" user="pfoten_weg_!_" changeset="3045160" lat="47.7559651" lon="11.2779415">
    <tag k="name" v="Schwarzenbach"/>
    <tag k="place" v="hamlet"/>
  </node>
  <node id="555042339" version="3" timestamp="2009-11-06T01:55:38Z" uid="36809" user="pfoten_weg_!_" changeset="3045160" lat="47.7564737" lon="11.2669204">
    <tag k="name" v="Weidwies"/>
    <tag k="place" v="hamlet"/>
  </node>
  <node id="555042382" version="3" timestamp="2009-11-06T02:03:32Z" uid="36809" user="pfoten_weg_!_" changeset="3045160" lat="47.7609735" lon="11.2789346">
    <tag k="name" v="Untersiffelhofen"/>
    <tag k="place" v="hamlet"/>
  </node>
  <node id="555042408" version="3" timestamp="2009-11-06T02:36:13Z" uid="36809" user="pfoten_weg_!_" changeset="3045160" lat="47.7715817" lon="11.2719907">
    <tag k="ele" v="680"/>
    <tag k="name" v="Schillersberg"/>
    <tag k="place" v="hamlet"/>
  </node>
</osm>
