<?xml version='1.0' encoding='UTF-8'?>
<osm version="0.6" generator="libosmium/2.20.0">
  <node id="556441454" version="1" timestamp="2009-11-05T13:53:27Z" uid="74027" user="katzlbt" changeset="3040543" lat="47.0261036" lon="11.4622233">
    <tag k="amenity" v="place_of_worship"/>
    <tag k="name" v="Kirche Vinaders"/>
    <tag k="religion" v="catholic"/>
  </node>
  <node id="556441454" version="3" timestamp="2009-12-27T13:35:22Z" uid="74027" user="katzlbt" changeset="3462688" lat="47.0260734" lon="11.4619722">
    <tag k="amenity" v="place_of_worship"/>
    <tag k="denomination" v="catholic"/>
    <tag k="name" v="Kirche Vinaders"/>
    <tag k="religion" v="christian"/>
  </node>
  <node id="556441469" version="1" timestamp="2009-11-05T13:53:27Z" uid="74027" user="katzlbt" changeset="3040543" lat="47.0257233" lon="11.4624808">
    <tag k="amenity" v="parking"/>
  </node>
  <node id="556441469" version="2" timestamp="2009-12-27T13:35:23Z" uid="74027" user="katzlbt" changeset="3462688" lat="47.0256419" lon="11.4622404">
    <tag k="amenity" v="parking"/>
    <tag k="name" v="Sattelbergalm"/>
  </node>
</osm>
