<?xml version='1.0' encoding='UTF-8'?>
<osm version="0.6" generator="libosmium/2.20.0">
  <node id="559822769" version="1" timestamp="2009-11-08T23:32:57Z" uid="30632" user="antblant" changeset="3069772" lat="53.4354982" lon="14.5436813"/>
  <node id="559822769" version="2" timestamp="2010-03-22T19:36:44Z" uid="20587" user="balrog-kun" changeset="4205915" lat="53.4354352" lon="14.5436123"/>
  <node id="559822770" version="1" timestamp="2009-11-08T23:32:57Z" uid="30632" user="antblant" changeset="3069772" lat="53.4358321" lon="14.5513781">
    <tag k="highway" v="crossing"/>
  </node>
  <node id="559822771" version="1" timestamp="2009-11-08T23:32:57Z" uid="30632" user="antblant" changeset="3069772" lat="53.4360156" lon="14.5513576"/>
  <node id="559822771" version="2" timestamp="2010-03-28T21:14:19Z" uid="20587" user="balrog-kun" changeset="4262159" lat="53.4359772" lon="14.5513798"/>
  <node id="559822772" version="1" timestamp="2009-11-08T23:32:57Z" uid="30632" user="antblant" changeset="3069772" lat="53.435856" lon="14.551179"/>
  <node id="559822772" version="2" timestamp="2010-03-28T21:14:19Z" uid="20587" user="balrog-kun" changeset="4262159" lat="53.4358229" lon="14.5512145"/>
  <node id="559822773" version="1" timestamp="2009-11-08T23:32:57Z" uid="30632" user="antblant" changeset="3069772" lat="53.4366457" lon="14.5492464"/>
  <node id="559822773" version="2" timestamp="2010-03-28T21:14:20Z" uid="20587" user="balrog-kun" changeset="4262159" lat="53.4366404" lon="14.5492264"/>
  <node id="559822774" version="1" timestamp="2009-11-08T23:32:57Z" uid="30632" user="antblant" changeset="3069772" lat="53.4368121" lon="14.5511773"/>
  <node id="559822774" version="2" timestamp="2010-03-28T21:14:20Z" uid="20587" user="balrog-kun" changeset="4262159" lat="53.4368117" lon="14.5511949"/>
  <node id="559822775" version="1" timestamp="2009-11-08T23:32:57Z" uid="30632" user="antblant" changeset="3069772" lat="53.4364532" lon="14.5494968"/>
  <node id="559822775" version="2" timestamp="2010-03-28T21:14:20Z" uid="20587" user="balrog-kun" changeset="4262159" lat="53.436387" lon="14.5495168"/>
  <node id="559822776" version="1" timestamp="2009-11-08T23:32:57Z" uid="30632" user="antblant" changeset="3069772" lat="53.4366629" lon="14.5494457"/>
  <node id="559822777" version="1" timestamp="2009-11-08T23:32:57Z" uid="30632" user="antblant" changeset="3069772" lat="53.4364462" lon="14.5491853"/>
  <node id="559822778" version="1" timestamp="2009-11-08T23:32:57Z" uid="30632" user="antblant" changeset="3069772" lat="53.4357319" lon="14.5517509">
    <tag k="addr:housenumber" v="1"/>
    <tag k="addr:street" v="Unisławy"/>
  </node>
  <node id="559822778" version="2" timestamp="2010-03-28T21:15:45Z" uid="20587" user="balrog-kun" changeset="4262159" lat="53.4357319" lon="14.5517509">
    <tag k="addr:housenumber" v="1"/>
    <tag k="addr:street" v="Unisławy"/>
  </node>
  <node id="559822779" version="1" timestamp="2009-11-08T23:32:58Z" uid="30632" user="antblant" changeset="3069772" lat="53.4358802" lon="14.5517126">
    <tag k="addr:housenumber" v="2"/>
    <tag k="addr:street" v="Unisławy"/>
  </node>
  <node id="559822779" version="2" timestamp="2010-03-28T21:15:45Z" uid="20587" user="balrog-kun" changeset="4262159" lat="53.4358802" lon="14.5517126">
    <tag k="addr:housenumber" v="2"/>
    <tag k="addr:street" v="Unisławy"/>
  </node>
  <node id="559822780" version="1" timestamp="2009-11-08T23:32:58Z" uid="30632" user="antblant" changeset="3069772" lat="53.4360253" lon="14.5516751">
    <tag k="addr:housenumber" v="3"/>
    <tag k="addr:street" v="Unisławy"/>
  </node>
  <node id="559822780" version="2" timestamp="2010-03-28T21:15:45Z" uid="20587" user="balrog-kun" changeset="4262159" lat="53.4360253" lon="14.5516751">
    <tag k="addr:housenumber" v="3"/>
    <tag k="addr:street" v="Unisławy"/>
  </node>
  <node id="559822781" version="1" timestamp="2009-11-08T23:32:58Z" uid="30632" user="antblant" changeset="3069772" lat="53.4355634" lon="14.5526937">
    <tag k="addr:housenumber" v="53"/>
    <tag k="addr:street" v="Aleja Wyzwolenia"/>
    <tag k="source" v="gis.um.szczecin.pl"/>
  </node>
  <node id="559822781" version="2" timestamp="2010-03-28T21:15:45Z" uid="20587" user="balrog-kun" changeset="4262159" lat="53.4355634" lon="14.5526937">
    <tag k="addr:housenumber" v="53"/>
    <tag k="addr:street" v="Aleja Wyzwolenia"/>
    <tag k="source" v="gis.um.szczecin.pl"/>
  </node>
  <node id="559822782" version="1" timestamp="2009-11-08T23:32:58Z" uid="30632" user="antblant" changeset="3069772" lat="53.4355427" lon="14.5524506">
    <tag k="addr:housenumber" v="55"/>
    <tag k="addr:street" v="Aleja Wyzwolenia"/>
    <tag k="source" v="gis.um.szczecin.pl"/>
  </node>
  <node id="559822782" version="2" timestamp="2010-03-28T21:15:45Z" uid="20587" user="balrog-kun" changeset="4262159" lat="53.4355427" lon="14.5524506">
    <tag k="addr:housenumber" v="55"/>
    <tag k="addr:street" v="Aleja Wyzwolenia"/>
    <tag k="source" v="gis.um.szczecin.pl"/>
  </node>
  <node id="559822783" version="1" timestamp="2009-11-08T23:32:58Z" uid="30632" user="antblant" changeset="3069772" lat="53.4359077" lon="14.5525523">
    <tag k="addr:housenumber" v="61"/>
    <tag k="addr:street" v="Aleja Wyzwolenia"/>
    <tag k="source" v="gis.um.szczecin.pl"/>
  </node>
  <node id="559822783" version="2" timestamp="2010-03-28T21:15:45Z" uid="20587" user="balrog-kun" changeset="4262159" lat="53.4359077" lon="14.5525523">
    <tag k="addr:housenumber" v="61"/>
    <tag k="addr:street" v="Aleja Wyzwolenia"/>
    <tag k="source" v="gis.um.szczecin.pl"/>
  </node>
  <node id="559822784" version="1" timestamp="2009-11-08T23:32:58Z" uid="30632" user="antblant" changeset="3069772" lat="53.4358871" lon="14.5523091">
    <tag k="addr:housenumber" v="63"/>
    <tag k="addr:street" v="Aleja Wyzwolenia"/>
    <tag k="source" v="gis.um.szczecin.pl"/>
  </node>
  <node id="559822784" version="2" timestamp="2010-03-28T21:15:45Z" uid="20587" user="balrog-kun" changeset="4262159" lat="53.4358871" lon="14.5523091">
    <tag k="addr:housenumber" v="63"/>
    <tag k="addr:street" v="Aleja Wyzwolenia"/>
    <tag k="source" v="gis.um.szczecin.pl"/>
  </node>
  <node id="559822785" version="1" timestamp="2009-11-08T23:32:58Z" uid="30632" user="antblant" changeset="3069772" lat="53.4355988" lon="14.5531105">
    <tag k="addr:housenumber" v="49"/>
    <tag k="addr:street" v="Aleja Wyzwolenia"/>
    <tag k="source" v="gis.um.szczecin.pl"/>
  </node>
  <node id="559822785" version="2" timestamp="2010-03-28T21:15:45Z" uid="20587" user="balrog-kun" changeset="4262159" lat="53.4355988" lon="14.5531105">
    <tag k="addr:housenumber" v="49"/>
    <tag k="addr:street" v="Aleja Wyzwolenia"/>
    <tag k="source" v="gis.um.szczecin.pl"/>
  </node>
  <node id="559822786" version="1" timestamp="2009-11-08T23:32:58Z" uid="30632" user="antblant" changeset="3069772" lat="53.4355827" lon="14.5529216">
    <tag k="addr:housenumber" v="51"/>
    <tag k="addr:street" v="Aleja Wyzwolenia"/>
    <tag k="source" v="gis.um.szczecin.pl"/>
  </node>
  <node id="559822786" version="2" timestamp="2010-03-28T21:15:45Z" uid="20587" user="balrog-kun" changeset="4262159" lat="53.4355827" lon="14.5529216">
    <tag k="addr:housenumber" v="51"/>
    <tag k="addr:street" v="Aleja Wyzwolenia"/>
    <tag k="source" v="gis.um.szczecin.pl"/>
  </node>
  <node id="559822787" version="1" timestamp="2009-11-08T23:32:58Z" uid="30632" user="antblant" changeset="3069772" lat="53.4359271" lon="14.5527802">
    <tag k="addr:housenumber" v="59"/>
    <tag k="addr:street" v="Aleja Wyzwolenia"/>
    <tag k="source" v="gis.um.szczecin.pl"/>
  </node>
  <node id="559822787" version="2" timestamp="2010-03-28T21:15:46Z" uid="20587" user="balrog-kun" changeset="4262159" lat="53.4359271" lon="14.5527802">
    <tag k="addr:housenumber" v="59"/>
    <tag k="addr:street" v="Aleja Wyzwolenia"/>
    <tag k="source" v="gis.um.szczecin.pl"/>
  </node>
  <node id="559822788" version="1" timestamp="2009-11-08T23:32:58Z" uid="30632" user="antblant" changeset="3069772" lat="53.4359432" lon="14.5529691">
    <tag k="addr:housenumber" v="57"/>
    <tag k="addr:street" v="Aleja Wyzwolenia"/>
    <tag k="source" v="gis.um.szczecin.pl"/>
  </node>
  <node id="559822788" version="2" timestamp="2010-03-28T21:15:46Z" uid="20587" user="balrog-kun" changeset="4262159" lat="53.4359432" lon="14.5529691">
    <tag k="addr:housenumber" v="57"/>
    <tag k="addr:street" v="Aleja Wyzwolenia"/>
    <tag k="source" v="gis.um.szczecin.pl"/>
  </node>
  <node id="559822789" version="1" timestamp="2009-11-08T23:32:59Z" uid="30632" user="antblant" changeset="3069772" lat="53.4366039" lon="14.5526428">
    <tag k="amenity" v="pub"/>
    <tag k="name" v="Tabu"/>
  </node>
  <node id="559822790" version="1" timestamp="2009-11-08T23:32:59Z" uid="30632" user="antblant" changeset="3069772" lat="53.4361757" lon="14.5516363">
    <tag k="addr:housenumber" v="4"/>
    <tag k="addr:street" v="Unisławy"/>
  </node>
  <node id="559822790" version="2" timestamp="2010-03-28T21:15:46Z" uid="20587" user="balrog-kun" changeset="4262159" lat="53.4361757" lon="14.5516363">
    <tag k="addr:housenumber" v="4"/>
    <tag k="addr:street" v="Unisławy"/>
  </node>
  <node id="559822791" version="1" timestamp="2009-11-08T23:32:59Z" uid="30632" user="antblant" changeset="3069772" lat="53.4363236" lon="14.5515981">
    <tag k="addr:housenumber" v="5"/>
    <tag k="addr:street" v="Unisławy"/>
  </node>
  <node id="559822791" version="2" timestamp="2010-03-28T21:15:46Z" uid="20587" user="balrog-kun" changeset="4262159" lat="53.4363236" lon="14.5515981">
    <tag k="addr:housenumber" v="5"/>
    <tag k="addr:street" v="Unisławy"/>
  </node>
  <node id="559822792" version="1" timestamp="2009-11-08T23:32:59Z" uid="30632" user="antblant" changeset="3069772" lat="53.4365004" lon="14.5515524">
    <tag k="addr:housenumber" v="6"/>
    <tag k="addr:street" v="Unisławy"/>
  </node>
  <node id="559822792" version="2" timestamp="2010-03-28T21:15:46Z" uid="20587" user="balrog-kun" changeset="4262159" lat="53.4365004" lon="14.5515524">
    <tag k="addr:housenumber" v="6"/>
    <tag k="addr:street" v="Unisławy"/>
  </node>
  <node id="559822793" version="1" timestamp="2009-11-08T23:32:59Z" uid="30632" user="antblant" changeset="3069772" lat="53.4362671" lon="14.5526908">
    <tag k="addr:housenumber" v="67"/>
    <tag k="addr:street" v="Aleja Wyzwolenia"/>
    <tag k="source" v="gis.um.szczecin.pl"/>
  </node>
  <node id="559822793" version="2" timestamp="2010-03-28T21:15:47Z" uid="20587" user="balrog-kun" changeset="4262159" lat="53.4362671" lon="14.5526908">
    <tag k="addr:housenumber" v="67"/>
    <tag k="addr:street" v="Aleja Wyzwolenia"/>
    <tag k="source" v="gis.um.szczecin.pl"/>
  </node>
  <node id="559822794" version="1" timestamp="2009-11-08T23:32:59Z" uid="30632" user="antblant" changeset="3069772" lat="53.4362477" lon="14.552463">
    <tag k="addr:housenumber" v="69"/>
    <tag k="addr:street" v="Aleja Wyzwolenia"/>
    <tag k="source" v="gis.um.szczecin.pl"/>
  </node>
  <node id="559822794" version="2" timestamp="2010-03-28T21:15:47Z" uid="20587" user="balrog-kun" changeset="4262159" lat="53.4362477" lon="14.552463">
    <tag k="addr:housenumber" v="69"/>
    <tag k="addr:street" v="Aleja Wyzwolenia"/>
    <tag k="source" v="gis.um.szczecin.pl"/>
  </node>
  <node id="559822795" version="1" timestamp="2009-11-08T23:32:59Z" uid="30632" user="antblant" changeset="3069772" lat="53.436227" lon="14.5522198">
    <tag k="addr:housenumber" v="71"/>
    <tag k="addr:street" v="Aleja Wyzwolenia"/>
    <tag k="source" v="gis.um.szczecin.pl"/>
  </node>
  <node id="559822795" version="2" timestamp="2010-03-28T21:15:47Z" uid="20587" user="balrog-kun" changeset="4262159" lat="53.436227" lon="14.5522198">
    <tag k="addr:housenumber" v="71"/>
    <tag k="addr:street" v="Aleja Wyzwolenia"/>
    <tag k="source" v="gis.um.szczecin.pl"/>
  </node>
  <node id="559822796" version="1" timestamp="2009-11-08T23:32:59Z" uid="30632" user="antblant" changeset="3069772" lat="53.4362832" lon="14.5528798">
    <tag k="addr:housenumber" v="65"/>
    <tag k="addr:street" v="Aleja Wyzwolenia"/>
    <tag k="source" v="gis.um.szczecin.pl"/>
  </node>
  <node id="559822796" version="2" timestamp="2010-03-28T21:15:47Z" uid="20587" user="balrog-kun" changeset="4262159" lat="53.4362832" lon="14.5528798">
    <tag k="addr:housenumber" v="65"/>
    <tag k="addr:street" v="Aleja Wyzwolenia"/>
    <tag k="source" v="gis.um.szczecin.pl"/>
  </node>
  <node id="559822797" version="1" timestamp="2009-11-08T23:32:59Z" uid="30632" user="antblant" changeset="3069772" lat="53.4364512" lon="14.5535688"/>
  <node id="559822797" version="2" timestamp="2010-11-10T22:22:07Z" uid="30632" user="antblant" changeset="6340208" lat="53.4364512" lon="14.5535688"/>
  <node id="559822798" version="1" timestamp="2009-11-08T23:32:59Z" uid="30632" user="antblant" changeset="3069772" lat="53.4363932" lon="14.5539936"/>
  <node id="559822799" version="1" timestamp="2009-11-08T23:32:59Z" uid="30632" user="antblant" changeset="3069772" lat="53.4365891" lon="14.5539727">
    <tag k="amenity" v="telephone"/>
  </node>
  <node id="559822800" version="1" timestamp="2009-11-08T23:32:59Z" uid="30632" user="antblant" changeset="3069772" lat="53.436802" lon="14.5539132">
    <tag k="amenity" v="fast_food"/>
    <tag k="name" v="Szaszłykarnia"/>
  </node>
  <node id="559822801" version="1" timestamp="2009-11-08T23:32:59Z" uid="30632" user="antblant" changeset="3069772" lat="53.43657" lon="14.5535252"/>
  <node id="559822802" version="1" timestamp="2009-11-08T23:32:59Z" uid="30632" user="antblant" changeset="3069772" lat="53.4364714" lon="14.5537946"/>
  <node id="559822803" version="1" timestamp="2009-11-08T23:32:59Z" uid="30632" user="antblant" changeset="3069772" lat="53.4369289" lon="14.5538228"/>
  <node id="559822804" version="1" timestamp="2009-11-08T23:32:59Z" uid="30632" user="antblant" changeset="3069772" lat="53.4368477" lon="14.5537547">
    <tag k="barrier" v="gate"/>
  </node>
  <node id="559822805" version="1" timestamp="2009-11-08T23:32:59Z" uid="30632" user="antblant" changeset="3069772" lat="53.437074" lon="14.5534561">
    <tag k="barrier" v="gate"/>
  </node>
  <node id="559822806" version="1" timestamp="2009-11-08T23:32:59Z" uid="30632" user="antblant" changeset="3069772" lat="53.435587" lon="14.554593">
    <tag k="addr:housenumber" v="30/1"/>
    <tag k="addr:street" v="Wyzwolenia"/>
    <tag k="amenity" v="dentist"/>
    <tag k="website" v="http://wawdent.com/"/>
  </node>
  <node id="559822807" version="1" timestamp="2009-11-08T23:32:59Z" uid="30632" user="antblant" changeset="3069772" lat="53.4355338" lon="14.5544888">
    <tag k="amenity" v="bank"/>
    <tag k="name" v="GE Money Bank"/>
    <tag k="opening_hours" v="Mo-Fr 09:00-19:00 Sa 09:00-14:00"/>
    <tag k="operator" v="GE Money"/>
  </node>
  <node id="559822808" version="1" timestamp="2009-11-08T23:33:00Z" uid="30632" user="antblant" changeset="3069772" lat="53.4356165" lon="14.554468">
    <tag k="name" v="Bkf Tenzi"/>
    <tag k="opening_hours" v="Mo-Fr 08:00-18:00 Sa 10:00-15:00"/>
    <tag k="shop" v="clean"/>
    <tag k="website" v="http://www.bkf.pl/"/>
  </node>
  <node id="559822809" version="1" timestamp="2009-11-08T23:33:00Z" uid="30632" user="antblant" changeset="3069772" lat="53.4357488" lon="14.5544348">
    <tag k="amenity" v="bank"/>
    <tag k="name" v="Alior Bank"/>
    <tag k="opening_hours" v="Mo-Fr 09:00-18:00"/>
    <tag k="operator" v="Alior Bank"/>
  </node>
  <node id="559822810" version="1" timestamp="2009-11-08T23:33:00Z" uid="30632" user="antblant" changeset="3069772" lat="53.4358281" lon="14.5544148">
    <tag k="amenity" v="atm"/>
    <tag k="name" v="Euronet"/>
    <tag k="operator" v="Euronet"/>
  </node>
  <node id="559822811" version="1" timestamp="2009-11-08T23:33:00Z" uid="30632" user="antblant" changeset="3069772" lat="53.4359348" lon="14.554388">
    <tag k="name" v="Zaczarowana Szafa"/>
    <tag k="opening_hours" v="Mo-Fr 10:00-18:00 Sa 10:00-14:00"/>
    <tag k="shop" v="jewelry"/>
  </node>
  <node id="559822812" version="1" timestamp="2009-11-08T23:33:00Z" uid="30632" user="antblant" changeset="3069772" lat="53.4360275" lon="14.5543647">
    <tag k="name" v="Everbest Nieruchomości"/>
    <tag k="website" v="everbest.info"/>
  </node>
  <node id="559822812" version="2" timestamp="2010-03-28T21:14:20Z" uid="20587" user="balrog-kun" changeset="4262159" lat="53.4360275" lon="14.5543647">
    <tag k="name" v="Everbest Nieruchomości"/>
    <tag k="shop" v="real_estate"/>
    <tag k="website" v="everbest.info"/>
  </node>
  <node id="559822813" version="1" timestamp="2009-11-08T23:33:00Z" uid="30632" user="antblant" changeset="3069772" lat="53.4361117" lon="14.5543436">
    <tag k="name" v="Talent"/>
    <tag k="shop" v="art_supplies"/>
    <tag k="website" v="http://talent.szczecin.pl"/>
  </node>
  <node id="559822814" version="1" timestamp="2009-11-08T23:33:00Z" uid="30632" user="antblant" changeset="3069772" lat="53.4354886" lon="14.5542119"/>
  <node id="559822815" version="1" timestamp="2009-11-08T23:33:00Z" uid="30632" user="antblant" changeset="3069772" lat="53.4361891" lon="14.5543241">
    <tag k="name" v="Eliza"/>
    <tag k="opening_hours" v="Mo-Fr 08:00-20:00 Sa 08:00-14:00"/>
    <tag k="shop" v="hairdresser"/>
  </node>
  <node id="559822816" version="1" timestamp="2009-11-08T23:33:00Z" uid="30632" user="antblant" changeset="3069772" lat="53.4362842" lon="14.5543002">
    <tag k="name" v="Lwowska"/>
    <tag k="opening_hours" v="Mo-Sa 07:00-19:00"/>
    <tag k="shop" v="bakery"/>
  </node>
  <node id="559822817" version="1" timestamp="2009-11-08T23:33:01Z" uid="30632" user="antblant" changeset="3069772" lat="53.4363913" lon="14.5542733">
    <tag k="name" v="Puma"/>
    <tag k="opening_hours" v="Mo-Fr 10:00-18:00 Sa 10:00-14:00"/>
    <tag k="shop" v="sports"/>
    <tag k="sports" v="swimming"/>
  </node>
  <node id="559822818" version="1" timestamp="2009-11-08T23:33:01Z" uid="30632" user="antblant" changeset="3069772" lat="53.4364698" lon="14.5542536">
    <tag k="name" v="To &amp; Owo"/>
    <tag k="shop" v="convenience"/>
  </node>
  <node id="559822819" version="1" timestamp="2009-11-08T23:33:01Z" uid="30632" user="antblant" changeset="3069772" lat="53.4365525" lon="14.5542328">
    <tag k="name" v="Inblu"/>
    <tag k="opening_hours" v="Mo-Fr 10:00-18:00 Sa 10:00-14:00"/>
    <tag k="shop" v="shoes"/>
  </node>
  <node id="559822820" version="1" timestamp="2009-11-08T23:33:01Z" uid="30632" user="antblant" changeset="3069772" lat="53.4366394" lon="14.5542109">
    <tag k="name" v="Majorka"/>
    <tag k="shop" v="solarium"/>
  </node>
  <node id="559822821" version="1" timestamp="2009-11-08T23:33:01Z" uid="30632" user="antblant" changeset="3069772" lat="53.4380152" lon="14.5477417"/>
  <node id="559822821" version="2" timestamp="2010-11-07T22:20:56Z" uid="30632" user="antblant" changeset="6316727" lat="53.4380152" lon="14.5477417"/>
  <node id="559822822" version="1" timestamp="2009-11-08T23:33:01Z" uid="30632" user="antblant" changeset="3069772" lat="53.438476" lon="14.5476388"/>
  <node id="559822822" version="2" timestamp="2010-11-07T22:20:55Z" uid="30632" user="antblant" changeset="6316727" lat="53.438476" lon="14.5476388"/>
  <node id="559822823" version="1" timestamp="2009-11-08T23:33:01Z" uid="30632" user="antblant" changeset="3069772" lat="53.4381756" lon="14.5497668"/>
  <node id="559822823" version="2" timestamp="2010-11-07T22:20:55Z" uid="30632" user="antblant" changeset="6316727" lat="53.4381756" lon="14.5497668"/>
  <node id="559822824" version="1" timestamp="2009-11-08T23:33:01Z" uid="30632" user="antblant" changeset="3069772" lat="53.4386364" lon="14.5496639"/>
  <node id="559822824" version="2" timestamp="2010-11-07T22:20:55Z" uid="30632" user="antblant" changeset="6316727" lat="53.4386364" lon="14.5496639"/>
  <node id="559822825" version="1" timestamp="2009-11-08T23:33:01Z" uid="30632" user="antblant" changeset="3069772" lat="53.4378249" lon="14.5489601"/>
  <node id="559822825" version="2" timestamp="2010-03-28T21:14:24Z" uid="20587" user="balrog-kun" changeset="4262159" lat="53.4378601" lon="14.5489289"/>
  <node id="559822826" version="1" timestamp="2009-11-08T23:33:01Z" uid="30632" user="antblant" changeset="3069772" lat="53.4379913" lon="14.5508909"/>
  <node id="559822826" version="2" timestamp="2010-03-28T21:14:24Z" uid="20587" user="balrog-kun" changeset="4262159" lat="53.4380421" lon="14.550882"/>
  <node id="559822827" version="1" timestamp="2009-11-08T23:33:01Z" uid="30632" user="antblant" changeset="3069772" lat="53.4379087" lon="14.5488328"/>
  <node id="559825677" version="2" timestamp="2010-06-13T02:43:26Z" uid="4467" user="Rosscoe" changeset="4975305" lat="-31.8240994" lon="116.0171058"/>
  <node id="559825680" version="2" timestamp="2010-06-13T02:44:01Z" uid="4467" user="Rosscoe" changeset="4975305" lat="-31.829162" lon="116.0166728"/>
  <node id="559825683" version="2" timestamp="2010-06-13T02:44:09Z" uid="4467" user="Rosscoe" changeset="4975305" lat="-31.8312911" lon="116.0164828"/>
  <node id="559825683" version="3" timestamp="2010-07-15T12:58:04Z" uid="4467" user="Rosscoe" changeset="5226594" lat="-31.8312911" lon="116.0164828"/>
  <node id="559826761" version="2" timestamp="2010-04-05T12:17:33Z" uid="7617" user="Franc" changeset="4332416" lat="-34.0524228" lon="150.7517703"/>
  <node id="559826762" version="2" timestamp="2010-04-17T06:54:49Z" uid="30201" user="rrankin" changeset="4444865" lat="-34.0521727" lon="150.7523224"/>
  <node id="559826763" version="2" timestamp="2010-02-14T05:54:25Z" uid="7617" user="Franc" changeset="3870566" lat="-34.0494306" lon="150.7602237">
    <tag k="amenity" v="fuel"/>
    <tag k="name" v="Coles Express"/>
  </node>
</osm>
