<?xml version='1.0' encoding='UTF-8'?>
<osm version="0.6" generator="libosmium/2.20.0">
  <node id="564730973" version="1" timestamp="2009-11-15T14:40:09Z" uid="33382" user="de_muur" changeset="3122269" lat="53.0048759" lon="9.0387026"/>
  <node id="564730978" version="1" timestamp="2009-11-15T14:40:09Z" uid="33382" user="de_muur" changeset="3122269" lat="52.9992741" lon="9.0503682">
    <tag k="amenity" v="fire_station"/>
  </node>
  <node id="564730982" version="1" timestamp="2009-11-15T14:40:09Z" uid="33382" user="de_muur" changeset="3122269" lat="53.0053726" lon="9.0461342">
    <tag k="amenity" v="fuel"/>
    <tag k="name" v="Esso"/>
  </node>
  <node id="564730982" version="2" timestamp="2011-01-11T19:03:21Z" uid="33382" user="de_muur" changeset="6940141" lat="53.0052755" lon="9.0459594">
    <tag k="amenity" v="fuel"/>
    <tag k="name" v="Esso"/>
  </node>
  <node id="564730987" version="1" timestamp="2009-11-15T14:40:09Z" uid="33382" user="de_muur" changeset="3122269" lat="53.0053917" lon="9.0462932"/>
  <node id="564730991" version="1" timestamp="2009-11-15T14:40:09Z" uid="33382" user="de_muur" changeset="3122269" lat="53.0082914" lon="9.0423763">
    <tag k="addr:city" v="Achim"/>
    <tag k="addr:country" v="DE"/>
    <tag k="addr:housenumber" v="92"/>
    <tag k="addr:phone" v="042024900"/>
    <tag k="addr:postcode" v="28832"/>
    <tag k="addr:street" v="Obernstraße"/>
    <tag k="amenity" v="pharmacy"/>
    <tag k="dispensing" v="yes"/>
    <tag k="name" v="Hansa-Apotheke"/>
  </node>
  <node id="564730991" version="3" timestamp="2010-06-20T17:27:45Z" uid="33382" user="de_muur" changeset="5035126" lat="53.0083484" lon="9.0423725">
    <tag k="addr:city" v="Achim"/>
    <tag k="addr:country" v="DE"/>
    <tag k="addr:housenumber" v="92"/>
    <tag k="addr:postcode" v="28832"/>
    <tag k="addr:street" v="Obernstraße"/>
    <tag k="amenity" v="pharmacy"/>
    <tag k="dispensing" v="yes"/>
    <tag k="name" v="Hansa-Apotheke"/>
    <tag k="phone" v="042024900"/>
  </node>
  <node id="564731001" version="1" timestamp="2009-11-15T14:40:10Z" uid="33382" user="de_muur" changeset="3122269" lat="53.0046016" lon="9.048635">
    <tag k="traffic_sign" v="city_limit"/>
  </node>
  <node id="564731001" version="2" timestamp="2010-06-20T17:27:45Z" uid="33382" user="de_muur" changeset="5035126" lat="53.0047981" lon="9.0477453">
    <tag k="traffic_sign" v="city_limit"/>
  </node>
  <node id="564731005" version="1" timestamp="2009-11-15T14:40:10Z" uid="33382" user="de_muur" changeset="3122269" lat="53.0128669" lon="9.0341693">
    <tag k="addr:city" v="Achim"/>
    <tag k="addr:country" v="DE"/>
    <tag k="addr:housenumber" v="22"/>
    <tag k="addr:phone" v="042028016"/>
    <tag k="addr:postcode" v="28832"/>
    <tag k="addr:street" v="Obernstraße"/>
    <tag k="amenity" v="pharmacy"/>
    <tag k="dispensing" v="yes"/>
    <tag k="name" v="Rats-Apotheke"/>
  </node>
  <node id="564731052" version="1" timestamp="2009-11-15T14:40:10Z" uid="33382" user="de_muur" changeset="3122269" lat="53.0118667" lon="9.0361184">
    <tag k="addr:city" v="Achim"/>
    <tag k="addr:country" v="DE"/>
    <tag k="addr:housenumber" v="47"/>
    <tag k="addr:phone" v="0420261133"/>
    <tag k="addr:postcode" v="28832"/>
    <tag k="addr:street" v="Obernstraße"/>
    <tag k="amenity" v="pharmacy"/>
    <tag k="dispensing" v="yes"/>
    <tag k="name" v="Paulsberg-Apotheke am Markt"/>
  </node>
  <node id="564731059" version="1" timestamp="2009-11-15T14:40:10Z" uid="33382" user="de_muur" changeset="3122269" lat="53.0102473" lon="9.0391675">
    <tag k="addr:city" v="Achim"/>
    <tag k="addr:country" v="DE"/>
    <tag k="addr:housenumber" v="58"/>
    <tag k="addr:phone" v="042023616"/>
    <tag k="addr:postcode" v="28832"/>
    <tag k="addr:street" v="Obernstraße"/>
    <tag k="amenity" v="pharmacy"/>
    <tag k="dispensing" v="yes"/>
    <tag k="name" v="Sonnen-Apotheke"/>
  </node>
  <node id="564731064" version="1" timestamp="2009-11-15T14:40:11Z" uid="33382" user="de_muur" changeset="3122269" lat="53.0043465" lon="9.0530969">
    <tag k="addr:city" v="Achim"/>
    <tag k="addr:country" v="DE"/>
    <tag k="addr:housenumber" v="5"/>
    <tag k="addr:phone" v="04202955595"/>
    <tag k="addr:postcode" v="28832"/>
    <tag k="addr:street" v="Uesener Feldstraße"/>
    <tag k="amenity" v="pharmacy"/>
    <tag k="dispensing" v="yes"/>
    <tag k="name" v="Apotheke im Hufeisen"/>
  </node>
  <node id="564731071" version="1" timestamp="2009-11-15T14:40:11Z" uid="33382" user="de_muur" changeset="3122269" lat="53.0090309" lon="9.0581916">
    <tag k="traffic_sign" v="city_limit"/>
  </node>
  <node id="564733518" version="4" timestamp="2011-01-04T10:42:57Z" uid="6269" user="Mueck" changeset="6859092" lat="53.5981714" lon="8.6145919"/>
  <node id="564733526" version="2" timestamp="2011-01-04T10:42:58Z" uid="6269" user="Mueck" changeset="6859092" lat="53.6017295" lon="8.6144592"/>
  <node id="564733533" version="3" timestamp="2011-01-04T21:47:29Z" uid="6269" user="Mueck" changeset="6866319" lat="53.5995774" lon="8.6239659"/>
  <node id="564733553" version="4" timestamp="2011-01-04T12:03:09Z" uid="6269" user="Mueck" changeset="6859806" lat="53.6027003" lon="8.6201286"/>
  <node id="564736006" version="1" timestamp="2009-11-15T14:51:30Z" uid="33382" user="de_muur" changeset="3122269" lat="52.9964123" lon="9.1177316">
    <tag k="addr:city" v="Achim"/>
    <tag k="addr:country" v="DE"/>
    <tag k="addr:housenumber" v="12"/>
    <tag k="addr:phone" v="0423594141"/>
    <tag k="addr:postcode" v="27299"/>
    <tag k="addr:street" v="Obernstraße"/>
    <tag k="amenity" v="pharmacy"/>
    <tag k="dispensing" v="yes"/>
    <tag k="name" v="Schloß-Apotheke"/>
  </node>
  <node id="564736008" version="1" timestamp="2009-11-15T14:51:30Z" uid="33382" user="de_muur" changeset="3122269" lat="52.9939368" lon="9.1199744"/>
  <node id="564736010" version="1" timestamp="2009-11-15T14:51:30Z" uid="33382" user="de_muur" changeset="3122269" lat="52.9941787" lon="9.1230848"/>
  <node id="564736011" version="1" timestamp="2009-11-15T14:51:30Z" uid="33382" user="de_muur" changeset="3122269" lat="52.99401" lon="9.1209151">
    <tag k="traffic_sign" v="city_limit"/>
  </node>
  <node id="564736012" version="1" timestamp="2009-11-15T14:51:30Z" uid="33382" user="de_muur" changeset="3122269" lat="52.9940689" lon="9.1240689">
    <tag k="amenity" v="veterinary"/>
  </node>
  <node id="564736013" version="1" timestamp="2009-11-15T14:51:30Z" uid="33382" user="de_muur" changeset="3122269" lat="52.9984081" lon="9.1184131">
    <tag k="man_made" v="windmill"/>
  </node>
  <node id="564736015" version="1" timestamp="2009-11-15T14:51:30Z" uid="33382" user="de_muur" changeset="3122269" lat="53.0006922" lon="9.1215013"/>
  <node id="564736016" version="1" timestamp="2009-11-15T14:51:30Z" uid="33382" user="de_muur" changeset="3122269" lat="53.0015058" lon="9.1220964">
    <tag k="traffic_sign" v="city_limit"/>
  </node>
  <node id="564736017" version="1" timestamp="2009-11-15T14:51:30Z" uid="33382" user="de_muur" changeset="3122269" lat="53.0011917" lon="9.122796"/>
  <node id="564736018" version="1" timestamp="2009-11-15T14:51:30Z" uid="33382" user="de_muur" changeset="3122269" lat="53.0009772" lon="9.1225595"/>
  <node id="564736020" version="1" timestamp="2009-11-15T14:51:30Z" uid="33382" user="de_muur" changeset="3122269" lat="53.0008419" lon="9.1221278"/>
  <node id="564736722" version="2" timestamp="2010-07-28T20:08:17Z" uid="74617" user="JohnSmith" changeset="5339329" lat="60.205771" lon="24.9571598">
    <tag k="diameter" v="125"/>
    <tag k="emergency" v="fire_hydrant"/>
    <tag k="location" v="underground"/>
  </node>
  <node id="564736722" version="3" timestamp="2010-07-30T17:44:27Z" uid="74617" user="JohnSmith" changeset="5356742" lat="60.205771" lon="24.9571598">
    <tag k="amenity" v="fire_hydrant"/>
    <tag k="diameter" v="125"/>
    <tag k="emergency" v="fire_hydrant"/>
    <tag k="location" v="underground"/>
  </node>
  <node id="564737914" version="3" timestamp="2010-07-28T21:01:56Z" uid="74617" user="JohnSmith" changeset="5342181" lat="48.2697349" lon="14.2816767">
    <tag k="emergency" v="ambulance_station"/>
    <tag k="name" v="ASB Dienststelle Meggauerstraße"/>
    <tag k="operator" v="Arbeiter-Samariterbund Gruppe Linz"/>
    <tag k="phone" v="+43-732-2124"/>
  </node>
  <node id="564737918" version="3" timestamp="2010-07-28T21:02:00Z" uid="74617" user="JohnSmith" changeset="5342181" lat="48.2754571" lon="14.3139799">
    <tag k="emergency" v="ambulance_station"/>
    <tag k="name" v="ASB Dienststelle Wiener Straße"/>
    <tag k="operator" v="Arbeiter-Samariterbund Gruppe Linz"/>
    <tag k="phone" v="+43-732-2124"/>
  </node>
  <node id="564738457" version="1" timestamp="2009-11-15T15:01:15Z" uid="33382" user="de_muur" changeset="3122269" lat="52.99207" lon="9.1334018">
    <tag k="traffic_sign" v="city_limit"/>
  </node>
  <node id="564738458" version="1" timestamp="2009-11-15T15:01:15Z" uid="33382" user="de_muur" changeset="3122269" lat="52.9886421" lon="9.142239">
    <tag k="amenity" v="fuel"/>
  </node>
  <node id="564738459" version="1" timestamp="2009-11-15T15:01:15Z" uid="33382" user="de_muur" changeset="3122269" lat="52.9882563" lon="9.1431835">
    <tag k="traffic_sign" v="city_limit"/>
  </node>
</osm>
