<?xml version='1.0' encoding='UTF-8'?>
<osm version="0.6" generator="libosmium/2.20.0">
  <node id="564741630" version="2" timestamp="2011-01-15T00:42:23Z" uid="6269" user="Mueck" changeset="6972995" lat="53.585068" lon="8.6278565"/>
  <node id="564742216" version="1" timestamp="2009-11-15T15:11:07Z" uid="33382" user="de_muur" changeset="3122269" lat="52.9809841" lon="9.1625565">
    <tag k="traffic_sign" v="city_limit"/>
  </node>
  <node id="564742217" version="1" timestamp="2009-11-15T15:11:08Z" uid="33382" user="de_muur" changeset="3122269" lat="52.979396" lon="9.1698005">
    <tag k="addr:city" v="Daverden"/>
    <tag k="addr:country" v="DE"/>
    <tag k="addr:housenumber" v="72"/>
    <tag k="addr:phone" v="042321589"/>
    <tag k="addr:postcode" v="27299"/>
    <tag k="addr:street" v="Hauptstraße"/>
    <tag k="amenity" v="pharmacy"/>
    <tag k="dispensing" v="yes"/>
    <tag k="name" v="Paracelsus-Apotheke"/>
  </node>
  <node id="564742218" version="1" timestamp="2009-11-15T15:11:08Z" uid="33382" user="de_muur" changeset="3122269" lat="52.9768652" lon="9.1836892">
    <tag k="traffic_sign" v="city_limit"/>
  </node>
  <node id="564742219" version="1" timestamp="2009-11-15T15:11:08Z" uid="33382" user="de_muur" changeset="3122269" lat="52.9769881" lon="9.1843935">
    <tag k="amenity" v="townhall"/>
  </node>
  <node id="564742220" version="1" timestamp="2009-11-15T15:11:08Z" uid="33382" user="de_muur" changeset="3122269" lat="52.9842491" lon="9.179806">
    <tag k="traffic_sign" v="city_limit"/>
  </node>
  <node id="564742221" version="1" timestamp="2009-11-15T15:11:08Z" uid="33382" user="de_muur" changeset="3122269" lat="52.9767508" lon="9.1867904">
    <tag k="addr:city" v="Langwedel"/>
    <tag k="addr:country" v="DE"/>
    <tag k="addr:housenumber" v="8"/>
    <tag k="addr:phone" v="0423293250"/>
    <tag k="addr:postcode" v="2????"/>
    <tag k="addr:street" v="Große Straße"/>
    <tag k="amenity" v="pharmacy"/>
    <tag k="dispensing" v="yes"/>
    <tag k="name" v="Burg-Apotheke"/>
  </node>
  <node id="564743193" version="2" timestamp="2010-07-28T21:02:02Z" uid="74617" user="JohnSmith" changeset="5342181" lat="48.3047235" lon="14.2987381">
    <tag k="emergency" v="ambulance_station"/>
    <tag k="name" v="RK Einsatzzentrum Linz"/>
    <tag k="operator" v="Österreichisches Rotes Kreuz"/>
    <tag k="phone" v="+43-144"/>
  </node>
  <node id="564743502" version="1" timestamp="2009-11-15T15:16:04Z" uid="33382" user="de_muur" changeset="3122269" lat="52.9752189" lon="9.1944133"/>
  <node id="564743504" version="1" timestamp="2009-11-15T15:16:04Z" uid="33382" user="de_muur" changeset="3122269" lat="52.9754634" lon="9.1929352">
    <tag k="shop" v="bicycle"/>
  </node>
  <node id="564748080" version="1" timestamp="2009-11-15T15:19:33Z" uid="33382" user="de_muur" changeset="3122269" lat="52.9697273" lon="9.2305044"/>
  <node id="564748082" version="1" timestamp="2009-11-15T15:19:33Z" uid="33382" user="de_muur" changeset="3122269" lat="52.9697479" lon="9.2316137"/>
  <node id="564748083" version="1" timestamp="2009-11-15T15:19:33Z" uid="33382" user="de_muur" changeset="3122269" lat="52.972698" lon="9.2345161">
    <tag k="traffic_sign" v="city_limit"/>
  </node>
  <node id="564748083" version="2" timestamp="2011-03-27T15:48:46Z" uid="33382" user="de_muur" changeset="7687532" lat="52.972698" lon="9.2345161"/>
</osm>
