<?xml version='1.0' encoding='UTF-8'?>
<osm version="0.6" generator="libosmium/2.20.0">
  <node id="564721918" version="3" timestamp="2010-12-19T03:07:50Z" uid="6269" user="Mueck" changeset="6702383" lat="53.5221333" lon="8.5906082"/>
  <node id="564724992" version="2" timestamp="2010-06-29T19:01:48Z" uid="74617" user="JohnSmith" changeset="5108182" lat="54.3536095" lon="9.2301646">
    <tag k="fixme" v="sport=football is ambiguous, see http://wiki.osm.org/wiki/Football for more details"/>
    <tag k="leisure" v="sports_centre"/>
    <tag k="sport" v="football"/>
  </node>
  <node id="564725617" version="3" timestamp="2010-05-25T06:56:51Z" uid="18775" user="drlizau" changeset="4800726" lat="52.4368627" lon="-1.9290929">
    <tag k="addr:housenumber" v="84"/>
    <tag k="addr:street" v="Raddlebarn Road"/>
    <tag k="name" v="S. Pabari &amp; Co."/>
    <tag k="note" v="Certified Accountants"/>
    <tag k="office" v="accountant"/>
  </node>
  <node id="564725626" version="3" timestamp="2010-05-25T06:56:52Z" uid="18775" user="drlizau" changeset="4800726" lat="52.4371643" lon="-1.9290797">
    <tag k="addr:housenumber" v="31"/>
    <tag k="addr:street" v="Raddlebarn Road"/>
    <tag k="name" v="John Wilson &amp; Co."/>
    <tag k="note" v="property_layers"/>
    <tag k="office" v="company"/>
  </node>
</osm>
