<?xml version='1.0' encoding='UTF-8'?>
<osm version="0.6" generator="libosmium/2.20.0">
  <node id="568346019" version="2" timestamp="2010-07-28T20:02:57Z" uid="74617" user="JohnSmith" changeset="5339329" lat="60.1932711" lon="24.9667409">
    <tag k="diameter" v="200"/>
    <tag k="emergency" v="fire_hydrant"/>
    <tag k="location" v="underground"/>
  </node>
  <node id="568346019" version="3" timestamp="2010-07-30T17:48:42Z" uid="74617" user="JohnSmith" changeset="5356742" lat="60.1932711" lon="24.9667409">
    <tag k="amenity" v="fire_hydrant"/>
    <tag k="diameter" v="200"/>
    <tag k="emergency" v="fire_hydrant"/>
    <tag k="location" v="underground"/>
  </node>
  <node id="568346477" version="2" timestamp="2010-03-23T18:32:59Z" uid="9581" user="Lobelt" changeset="4214690" lat="49.4159951" lon="8.7408547">
    <tag k="addr:city" v="Heidelberg"/>
    <tag k="addr:country" v="DE"/>
    <tag k="addr:housenumber" v="118"/>
    <tag k="addr:postcode" v="69118"/>
    <tag k="addr:street" v="Schlierbacher Landstraße"/>
  </node>
  <node id="568346478" version="2" timestamp="2010-03-23T18:32:59Z" uid="9581" user="Lobelt" changeset="4214690" lat="49.416054" lon="8.7406699">
    <tag k="addr:city" v="Heidelberg"/>
    <tag k="addr:country" v="DE"/>
    <tag k="addr:housenumber" v="116"/>
    <tag k="addr:postcode" v="69118"/>
    <tag k="addr:street" v="Schlierbacher Landstraße"/>
  </node>
  <node id="568346479" version="2" timestamp="2010-03-23T18:32:59Z" uid="9581" user="Lobelt" changeset="4214690" lat="49.4160957" lon="8.7404768">
    <tag k="addr:city" v="Heidelberg"/>
    <tag k="addr:country" v="DE"/>
    <tag k="addr:housenumber" v="112"/>
    <tag k="addr:postcode" v="69118"/>
    <tag k="addr:street" v="Schlierbacher Landstraße"/>
  </node>
  <node id="568346480" version="2" timestamp="2010-03-23T18:32:59Z" uid="9581" user="Lobelt" changeset="4214690" lat="49.4161135" lon="8.7403507">
    <tag k="addr:city" v="Heidelberg"/>
    <tag k="addr:country" v="DE"/>
    <tag k="addr:housenumber" v="110"/>
    <tag k="addr:postcode" v="69118"/>
    <tag k="addr:street" v="Schlierbacher Landstraße"/>
  </node>
  <node id="568346481" version="2" timestamp="2010-03-23T18:32:59Z" uid="9581" user="Lobelt" changeset="4214690" lat="49.4161723" lon="8.7401723">
    <tag k="addr:city" v="Heidelberg"/>
    <tag k="addr:country" v="DE"/>
    <tag k="addr:housenumber" v="108"/>
    <tag k="addr:postcode" v="69118"/>
    <tag k="addr:street" v="Schlierbacher Landstraße"/>
  </node>
  <node id="568346482" version="2" timestamp="2010-03-23T18:32:59Z" uid="9581" user="Lobelt" changeset="4214690" lat="49.416188" lon="8.7399594">
    <tag k="addr:city" v="Heidelberg"/>
    <tag k="addr:country" v="DE"/>
    <tag k="addr:housenumber" v="106"/>
    <tag k="addr:postcode" v="69118"/>
    <tag k="addr:street" v="Schlierbacher Landstraße"/>
  </node>
  <node id="568346483" version="2" timestamp="2010-03-06T20:40:39Z" uid="9581" user="Lobelt" changeset="4054568" lat="49.4156666" lon="8.7413403"/>
  <node id="568346484" version="2" timestamp="2010-03-06T20:40:39Z" uid="9581" user="Lobelt" changeset="4054568" lat="49.4156288" lon="8.7415244"/>
  <node id="568346489" version="2" timestamp="2010-03-23T18:32:59Z" uid="9581" user="Lobelt" changeset="4214690" lat="49.4159575" lon="8.7410264">
    <tag k="addr:city" v="Heidelberg"/>
    <tag k="addr:country" v="DE"/>
    <tag k="addr:housenumber" v="120"/>
    <tag k="addr:postcode" v="69118"/>
    <tag k="addr:street" v="Schlierbacher Landstraße"/>
  </node>
  <node id="568346901" version="3" timestamp="2010-07-28T20:12:35Z" uid="74617" user="JohnSmith" changeset="5339329" lat="60.1950708" lon="24.9666454">
    <tag k="diameter" v="200"/>
    <tag k="emergency" v="fire_hydrant"/>
    <tag k="location" v="underground"/>
  </node>
  <node id="568346901" version="4" timestamp="2010-07-30T17:47:34Z" uid="74617" user="JohnSmith" changeset="5356742" lat="60.1950708" lon="24.9666454">
    <tag k="amenity" v="fire_hydrant"/>
    <tag k="diameter" v="200"/>
    <tag k="emergency" v="fire_hydrant"/>
    <tag k="location" v="underground"/>
  </node>
</osm>
