<?xml version='1.0' encoding='UTF-8'?>
<osm version="0.6" generator="libosmium/2.20.0">
  <node id="568545168" version="1" timestamp="2009-11-22T18:23:39Z" uid="6975" user="ulfl" changeset="3189135" lat="49.666424" lon="11.4868192">
    <tag k="highway" v="bus_stop"/>
    <tag k="name" v="Bernheck"/>
    <tag k="shelter" v="yes"/>
  </node>
  <node id="568545169" version="1" timestamp="2009-11-22T18:23:39Z" uid="6975" user="ulfl" changeset="3189135" lat="49.6659881" lon="11.4866315">
    <tag k="name" v="Transformatorenstation HauptstraÃŸe"/>
    <tag k="operator" v="EVO"/>
    <tag k="power" v="sub_station"/>
  </node>
  <node id="568545170" version="1" timestamp="2009-11-22T18:23:39Z" uid="6975" user="ulfl" changeset="3189135" lat="49.6659759" lon="11.4864135">
    <tag k="name" v="Veldensteiner Forst"/>
    <tag k="tourism" v="hotel"/>
  </node>
  <node id="568545171" version="1" timestamp="2009-11-22T18:23:39Z" uid="6975" user="ulfl" changeset="3189135" lat="49.6665027" lon="11.4867102">
    <tag k="highway" v="bus_stop"/>
    <tag k="name" v="Bernheck"/>
  </node>
</osm>
