<?xml version='1.0' encoding='UTF-8'?>
<osm version="0.6" generator="libosmium/2.20.0">
  <node id="569513847" version="1" timestamp="2009-11-23T17:56:04Z" uid="88880" user="firsttimelinux" changeset="3197736" lat="47.4592514" lon="10.2727524">
    <tag k="amenity" v="restaurant"/>
    <tag k="name" v="MÃ¼nchner Kindl"/>
  </node>
  <node id="569513851" version="1" timestamp="2009-11-23T17:56:04Z" uid="88880" user="firsttimelinux" changeset="3197736" lat="47.4584049" lon="10.2701619">
    <tag k="amenity" v="restaurant"/>
    <tag k="name" v="Da Vinci"/>
  </node>
  <node id="569513853" version="1" timestamp="2009-11-23T17:56:04Z" uid="88880" user="firsttimelinux" changeset="3197736" lat="47.4606455" lon="10.2722332">
    <tag k="amenity" v="restaurant"/>
    <tag k="name" v="Gungelstube"/>
  </node>
  <node id="569515756" version="1" timestamp="2009-11-23T17:57:17Z" uid="88880" user="firsttimelinux" changeset="3197745" lat="47.4593587" lon="10.2727976">
    <tag k="amenity" v="restaurant"/>
    <tag k="name" v="Gasthaus Kreuz"/>
  </node>
</osm>
