<?xml version='1.0' encoding='UTF-8'?>
<osm version="0.6" generator="libosmium/2.20.0">
  <node id="572273626" version="2" timestamp="2010-07-29T09:16:25Z" uid="74617" user="JohnSmith" changeset="5344848" lat="52.6136098" lon="1.213415">
    <tag k="amenity" v="emergency_phone"/>
    <tag k="emergency" v="phone"/>
    <tag k="fee" v="no"/>
    <tag k="operator" v="Highways Agency"/>
    <tag k="ref" v="233B"/>
  </node>
  <node id="572273646" version="2" timestamp="2010-07-29T09:26:51Z" uid="74617" user="JohnSmith" changeset="5344848" lat="52.6182229" lon="1.2088848">
    <tag k="amenity" v="emergency_phone"/>
    <tag k="emergency" v="phone"/>
    <tag k="fee" v="no"/>
    <tag k="operator" v="Highways Agency"/>
    <tag k="ref" v="233A"/>
  </node>
  <node id="572273648" version="2" timestamp="2010-07-29T09:24:06Z" uid="74617" user="JohnSmith" changeset="5344848" lat="52.6364759" lon="1.1960063">
    <tag k="amenity" v="emergency_phone"/>
    <tag k="emergency" v="phone"/>
    <tag k="fee" v="no"/>
    <tag k="operator" v="Highways Agency"/>
    <tag k="ref" v="229A"/>
  </node>
  <node id="572273657" version="2" timestamp="2010-07-29T09:40:24Z" uid="74617" user="JohnSmith" changeset="5344848" lat="52.6426527" lon="1.1915856">
    <tag k="amenity" v="emergency_phone"/>
    <tag k="emergency" v="phone"/>
    <tag k="fee" v="no"/>
    <tag k="operator" v="Highways Agency"/>
    <tag k="ref" v="229B"/>
  </node>
</osm>
