<?xml version='1.0' encoding='UTF-8'?>
<osm version="0.6" generator="libosmium/2.20.0">
  <node id="577430007" version="2" timestamp="2010-04-11T04:53:32Z" uid="20587" user="balrog-kun" changeset="4389130" lat="50.13785" lon="20.82464">
    <tag k="name" v="Wielka Droga"/>
    <tag k="place" v="village"/>
    <tag k="source" v="http://ump.waw.pl/ retrieved 11:18:52 11/17/09 (UMP-Tarnow/src/cities-Tarnow.pnt-converted.txt)"/>
  </node>
  <node id="577430007" version="3" timestamp="2010-04-11T13:17:14Z" uid="20587" user="balrog-kun" changeset="4392352" lat="50.13785" lon="20.82464">
    <tag k="name" v="Wielka Droga"/>
    <tag k="place" v="village"/>
    <tag k="source" v="http://ump.waw.pl/ retrieved 11:18:52 11/17/09 (UMP-Tarnow/src/cities-Tarnow.pnt-converted.txt)"/>
  </node>
  <node id="577430158" version="2" timestamp="2010-04-11T04:53:32Z" uid="20587" user="balrog-kun" changeset="4389130" lat="50.16846" lon="20.7715">
    <tag k="name" v="Miechowice Małe"/>
    <tag k="place" v="village"/>
    <tag k="source" v="http://ump.waw.pl/ retrieved 11:18:52 11/17/09 (UMP-Tarnow/src/cities-Tarnow.pnt-converted.txt)"/>
  </node>
  <node id="577430158" version="3" timestamp="2010-04-11T13:17:14Z" uid="20587" user="balrog-kun" changeset="4392352" lat="50.16846" lon="20.7715">
    <tag k="name" v="Miechowice Małe"/>
    <tag k="place" v="village"/>
    <tag k="source" v="http://ump.waw.pl/ retrieved 11:18:52 11/17/09 (UMP-Tarnow/src/cities-Tarnow.pnt-converted.txt)"/>
  </node>
  <node id="577430158" version="4" timestamp="2010-04-27T04:15:41Z" uid="30632" user="antblant" changeset="4537896" lat="50.16846" lon="20.7715">
    <tag k="name" v="Miechowice Małe"/>
    <tag k="place" v="village"/>
    <tag k="source" v="http://ump.waw.pl/ retrieved 11:18:52 11/17/09 (UMP-Tarnow/src/cities-Tarnow.pnt-converted.txt)"/>
    <tag k="teryt:simc" v="0835673"/>
  </node>
  <node id="577430175" version="2" timestamp="2010-04-11T04:53:32Z" uid="20587" user="balrog-kun" changeset="4389130" lat="50.17911" lon="20.77905">
    <tag k="name" v="Sikorzyce"/>
    <tag k="place" v="village"/>
    <tag k="source" v="http://ump.waw.pl/ retrieved 11:18:52 11/17/09 (UMP-Tarnow/src/cities-Tarnow.pnt-converted.txt)"/>
  </node>
  <node id="577430175" version="3" timestamp="2010-04-11T13:17:14Z" uid="20587" user="balrog-kun" changeset="4392352" lat="50.17911" lon="20.77905">
    <tag k="name" v="Sikorzyce"/>
    <tag k="place" v="village"/>
    <tag k="source" v="http://ump.waw.pl/ retrieved 11:18:52 11/17/09 (UMP-Tarnow/src/cities-Tarnow.pnt-converted.txt)"/>
  </node>
  <node id="577430211" version="2" timestamp="2010-04-11T04:53:32Z" uid="20587" user="balrog-kun" changeset="4389130" lat="50.15808" lon="20.803">
    <tag k="name" v="Przybysławice"/>
    <tag k="place" v="village"/>
    <tag k="source" v="http://ump.waw.pl/ retrieved 11:18:52 11/17/09 (UMP-Tarnow/src/cities-Tarnow.pnt-converted.txt)"/>
  </node>
  <node id="577430211" version="3" timestamp="2010-04-11T13:17:14Z" uid="20587" user="balrog-kun" changeset="4392352" lat="50.15808" lon="20.803">
    <tag k="name" v="Przybysławice"/>
    <tag k="place" v="village"/>
    <tag k="source" v="http://ump.waw.pl/ retrieved 11:18:52 11/17/09 (UMP-Tarnow/src/cities-Tarnow.pnt-converted.txt)"/>
  </node>
  <node id="577430246" version="2" timestamp="2010-04-11T04:53:33Z" uid="20587" user="balrog-kun" changeset="4389130" lat="50.1454246" lon="20.8229064">
    <tag k="name" v="Marcinkowice"/>
    <tag k="place" v="village"/>
    <tag k="source" v="http://ump.waw.pl/ retrieved 11:18:52 11/17/09 (UMP-Tarnow/src/cities-Tarnow.pnt-converted.txt)"/>
  </node>
  <node id="577430246" version="3" timestamp="2010-04-11T13:17:14Z" uid="20587" user="balrog-kun" changeset="4392352" lat="50.1464294" lon="20.8219105">
    <tag k="name" v="Marcinkowice"/>
    <tag k="place" v="village"/>
    <tag k="source" v="http://ump.waw.pl/ retrieved 11:18:52 11/17/09 (UMP-Tarnow/src/cities-Tarnow.pnt-converted.txt)"/>
  </node>
  <node id="577430363" version="2" timestamp="2010-04-11T04:53:33Z" uid="20587" user="balrog-kun" changeset="4389130" lat="50.17894" lon="20.8157">
    <tag k="name" v="Otfinów"/>
    <tag k="place" v="village"/>
    <tag k="source" v="http://ump.waw.pl/ retrieved 11:18:52 11/17/09 (UMP-Tarnow/src/cities-Tarnow.pnt-converted.txt)"/>
  </node>
  <node id="577430363" version="3" timestamp="2010-04-11T13:17:14Z" uid="20587" user="balrog-kun" changeset="4392352" lat="50.17894" lon="20.8157">
    <tag k="name" v="Otfinów"/>
    <tag k="place" v="village"/>
    <tag k="source" v="http://ump.waw.pl/ retrieved 11:18:52 11/17/09 (UMP-Tarnow/src/cities-Tarnow.pnt-converted.txt)"/>
  </node>
  <node id="577430363" version="4" timestamp="2010-04-27T04:01:21Z" uid="30632" user="antblant" changeset="4537859" lat="50.17894" lon="20.8157">
    <tag k="name" v="Otfinów"/>
    <tag k="place" v="village"/>
    <tag k="source" v="http://ump.waw.pl/ retrieved 11:18:52 11/17/09 (UMP-Tarnow/src/cities-Tarnow.pnt-converted.txt)"/>
    <tag k="teryt:simc" v="0838097"/>
  </node>
  <node id="577430400" version="2" timestamp="2010-04-11T04:53:33Z" uid="20587" user="balrog-kun" changeset="4389130" lat="50.11887" lon="20.83707">
    <tag k="name" v="Kępa"/>
    <tag k="place" v="village"/>
    <tag k="source" v="http://ump.waw.pl/ retrieved 11:18:52 11/17/09 (UMP-Tarnow/src/cities-Tarnow.pnt-converted.txt)"/>
  </node>
  <node id="577430400" version="3" timestamp="2010-04-11T13:17:14Z" uid="20587" user="balrog-kun" changeset="4392352" lat="50.11887" lon="20.83707">
    <tag k="name" v="Kępa"/>
    <tag k="place" v="village"/>
    <tag k="source" v="http://ump.waw.pl/ retrieved 11:18:52 11/17/09 (UMP-Tarnow/src/cities-Tarnow.pnt-converted.txt)"/>
  </node>
  <node id="577430415" version="2" timestamp="2010-04-11T04:53:33Z" uid="20587" user="balrog-kun" changeset="4389130" lat="50.09959" lon="20.87381">
    <tag k="name" v="Glów"/>
    <tag k="place" v="village"/>
    <tag k="source" v="http://ump.waw.pl/ retrieved 11:18:52 11/17/09 (UMP-Tarnow/src/cities-Tarnow.pnt-converted.txt)"/>
  </node>
  <node id="577430415" version="3" timestamp="2010-04-11T13:17:14Z" uid="20587" user="balrog-kun" changeset="4392352" lat="50.09959" lon="20.87381">
    <tag k="name" v="Glów"/>
    <tag k="place" v="village"/>
    <tag k="source" v="http://ump.waw.pl/ retrieved 11:18:52 11/17/09 (UMP-Tarnow/src/cities-Tarnow.pnt-converted.txt)"/>
  </node>
  <node id="577430415" version="4" timestamp="2010-04-27T04:02:37Z" uid="30632" user="antblant" changeset="4537862" lat="50.09959" lon="20.87381">
    <tag k="name" v="Glów"/>
    <tag k="place" v="village"/>
    <tag k="source" v="http://ump.waw.pl/ retrieved 11:18:52 11/17/09 (UMP-Tarnow/src/cities-Tarnow.pnt-converted.txt)"/>
    <tag k="teryt:simc" v="0827857"/>
  </node>
  <node id="577430519" version="2" timestamp="2010-04-11T04:53:33Z" uid="20587" user="balrog-kun" changeset="4389130" lat="50.13496" lon="20.83141">
    <tag k="name" v="Zdrochec"/>
    <tag k="place" v="village"/>
    <tag k="source" v="http://ump.waw.pl/ retrieved 11:18:52 11/17/09 (UMP-Tarnow/src/cities-Tarnow.pnt-converted.txt)"/>
  </node>
  <node id="577430519" version="3" timestamp="2010-04-11T13:17:14Z" uid="20587" user="balrog-kun" changeset="4392352" lat="50.13496" lon="20.83141">
    <tag k="name" v="Zdrochec"/>
    <tag k="place" v="village"/>
    <tag k="source" v="http://ump.waw.pl/ retrieved 11:18:52 11/17/09 (UMP-Tarnow/src/cities-Tarnow.pnt-converted.txt)"/>
  </node>
  <node id="577430519" version="4" timestamp="2010-04-27T03:57:41Z" uid="30632" user="antblant" changeset="4537850" lat="50.13496" lon="20.83141">
    <tag k="name" v="Zdrochec"/>
    <tag k="place" v="village"/>
    <tag k="source" v="http://ump.waw.pl/ retrieved 11:18:52 11/17/09 (UMP-Tarnow/src/cities-Tarnow.pnt-converted.txt)"/>
    <tag k="teryt:simc" v="0828070"/>
  </node>
  <node id="577430588" version="2" timestamp="2010-04-11T04:53:33Z" uid="20587" user="balrog-kun" changeset="4389130" lat="50.1213579" lon="20.8613577">
    <tag k="name" v="Biskupice Radłowskie"/>
    <tag k="place" v="village"/>
    <tag k="source" v="http://ump.waw.pl/ retrieved 11:18:52 11/17/09 (UMP-Tarnow/src/cities-Tarnow.pnt-converted.txt)"/>
  </node>
  <node id="577430588" version="3" timestamp="2010-04-11T13:17:14Z" uid="20587" user="balrog-kun" changeset="4392352" lat="50.1207785" lon="20.8618153">
    <tag k="name" v="Biskupice Radłowskie"/>
    <tag k="place" v="village"/>
    <tag k="source" v="http://ump.waw.pl/ retrieved 11:18:52 11/17/09 (UMP-Tarnow/src/cities-Tarnow.pnt-converted.txt)"/>
  </node>
  <node id="577430588" version="4" timestamp="2010-04-27T04:14:13Z" uid="30632" user="antblant" changeset="4537892" lat="50.1207785" lon="20.8618153">
    <tag k="name" v="Biskupice Radłowskie"/>
    <tag k="place" v="village"/>
    <tag k="source" v="http://ump.waw.pl/ retrieved 11:18:52 11/17/09 (UMP-Tarnow/src/cities-Tarnow.pnt-converted.txt)"/>
    <tag k="teryt:simc" v="0827828"/>
  </node>
  <node id="577430907" version="2" timestamp="2010-04-11T04:53:33Z" uid="20587" user="balrog-kun" changeset="4389130" lat="50.1082647" lon="20.8924903">
    <tag k="name" v="Niedomice"/>
    <tag k="place" v="town"/>
    <tag k="source" v="http://ump.waw.pl/ retrieved 11:18:52 11/17/09 (UMP-Tarnow/src/cities-Tarnow.pnt-converted.txt)"/>
  </node>
  <node id="577430907" version="3" timestamp="2010-04-11T13:17:14Z" uid="20587" user="balrog-kun" changeset="4392352" lat="50.1088282" lon="20.8935061">
    <tag k="name" v="Niedomice"/>
    <tag k="place" v="town"/>
    <tag k="source" v="http://ump.waw.pl/ retrieved 11:18:52 11/17/09 (UMP-Tarnow/src/cities-Tarnow.pnt-converted.txt)"/>
  </node>
  <node id="577430907" version="4" timestamp="2010-04-27T04:20:16Z" uid="30632" user="antblant" changeset="4537912" lat="50.1088282" lon="20.8935061">
    <tag k="name" v="Niedomice"/>
    <tag k="place" v="town"/>
    <tag k="source" v="http://ump.waw.pl/ retrieved 11:18:52 11/17/09 (UMP-Tarnow/src/cities-Tarnow.pnt-converted.txt)"/>
    <tag k="teryt:simc" v="0838000"/>
  </node>
  <node id="577431392" version="2" timestamp="2010-04-11T04:53:33Z" uid="20587" user="balrog-kun" changeset="4389130" lat="50.15903" lon="20.85415">
    <tag k="name" v="Nieciecza"/>
    <tag k="place" v="village"/>
    <tag k="source" v="http://ump.waw.pl/ retrieved 11:18:52 11/17/09 (UMP-Tarnow/src/cities-Tarnow.pnt-converted.txt)"/>
  </node>
  <node id="577431392" version="3" timestamp="2010-04-11T13:17:14Z" uid="20587" user="balrog-kun" changeset="4392352" lat="50.15903" lon="20.85415">
    <tag k="name" v="Nieciecza"/>
    <tag k="place" v="village"/>
    <tag k="source" v="http://ump.waw.pl/ retrieved 11:18:52 11/17/09 (UMP-Tarnow/src/cities-Tarnow.pnt-converted.txt)"/>
  </node>
  <node id="577431392" version="4" timestamp="2010-04-27T04:15:40Z" uid="30632" user="antblant" changeset="4537896" lat="50.15903" lon="20.85415">
    <tag k="name" v="Nieciecza"/>
    <tag k="place" v="village"/>
    <tag k="source" v="http://ump.waw.pl/ retrieved 11:18:52 11/17/09 (UMP-Tarnow/src/cities-Tarnow.pnt-converted.txt)"/>
    <tag k="teryt:simc" v="0837985"/>
  </node>
  <node id="577431600" version="2" timestamp="2010-04-11T04:53:33Z" uid="20587" user="balrog-kun" changeset="4389130" lat="50.18499" lon="20.8596">
    <tag k="name" v="Gorzyce"/>
    <tag k="place" v="village"/>
    <tag k="source" v="http://ump.waw.pl/ retrieved 11:18:52 11/17/09 (UMP-Tarnow/src/cities-Tarnow.pnt-converted.txt)"/>
  </node>
  <node id="577431600" version="3" timestamp="2010-04-11T13:17:14Z" uid="20587" user="balrog-kun" changeset="4392352" lat="50.18499" lon="20.8596">
    <tag k="name" v="Gorzyce"/>
    <tag k="place" v="village"/>
    <tag k="source" v="http://ump.waw.pl/ retrieved 11:18:52 11/17/09 (UMP-Tarnow/src/cities-Tarnow.pnt-converted.txt)"/>
  </node>
  <node id="577431843" version="2" timestamp="2010-04-11T04:53:33Z" uid="20587" user="balrog-kun" changeset="4389130" lat="50.15135" lon="20.91401">
    <tag k="name" v="Odporyszów"/>
    <tag k="place" v="village"/>
    <tag k="source" v="http://ump.waw.pl/ retrieved 11:18:52 11/17/09 (UMP-Tarnow/src/cities-Tarnow.pnt-converted.txt)"/>
  </node>
  <node id="577431843" version="3" timestamp="2010-04-11T13:17:14Z" uid="20587" user="balrog-kun" changeset="4392352" lat="50.15135" lon="20.91401">
    <tag k="name" v="Odporyszów"/>
    <tag k="place" v="village"/>
    <tag k="source" v="http://ump.waw.pl/ retrieved 11:18:52 11/17/09 (UMP-Tarnow/src/cities-Tarnow.pnt-converted.txt)"/>
  </node>
  <node id="577431843" version="4" timestamp="2010-04-27T04:04:33Z" uid="30632" user="antblant" changeset="4537867" lat="50.15135" lon="20.91401">
    <tag k="name" v="Odporyszów"/>
    <tag k="place" v="village"/>
    <tag k="source" v="http://ump.waw.pl/ retrieved 11:18:52 11/17/09 (UMP-Tarnow/src/cities-Tarnow.pnt-converted.txt)"/>
    <tag k="teryt:simc" v="0838039"/>
  </node>
  <node id="577432083" version="2" timestamp="2010-04-11T04:53:33Z" uid="20587" user="balrog-kun" changeset="4389130" lat="50.18069" lon="20.88956">
    <tag k="name" v="Wielopole Moszczynskie"/>
    <tag k="place" v="village"/>
    <tag k="source" v="http://ump.waw.pl/ retrieved 11:18:52 11/17/09 (UMP-Tarnow/src/cities-Tarnow.pnt-converted.txt)"/>
  </node>
  <node id="577432083" version="3" timestamp="2010-04-11T13:17:14Z" uid="20587" user="balrog-kun" changeset="4392352" lat="50.18069" lon="20.88956">
    <tag k="name" v="Wielopole Moszczynskie"/>
    <tag k="place" v="village"/>
    <tag k="source" v="http://ump.waw.pl/ retrieved 11:18:52 11/17/09 (UMP-Tarnow/src/cities-Tarnow.pnt-converted.txt)"/>
  </node>
  <node id="577432400" version="2" timestamp="2010-04-11T04:53:33Z" uid="20587" user="balrog-kun" changeset="4389130" lat="50.1733" lon="20.9018">
    <tag k="name" v="Borek"/>
    <tag k="place" v="village"/>
    <tag k="source" v="http://ump.waw.pl/ retrieved 11:18:52 11/17/09 (UMP-Tarnow/src/cities-Tarnow.pnt-converted.txt)"/>
  </node>
  <node id="577432400" version="3" timestamp="2010-04-11T13:17:14Z" uid="20587" user="balrog-kun" changeset="4392352" lat="50.1733" lon="20.9018">
    <tag k="name" v="Borek"/>
    <tag k="place" v="village"/>
    <tag k="source" v="http://ump.waw.pl/ retrieved 11:18:52 11/17/09 (UMP-Tarnow/src/cities-Tarnow.pnt-converted.txt)"/>
  </node>
  <node id="577432673" version="2" timestamp="2010-04-11T04:53:33Z" uid="20587" user="balrog-kun" changeset="4389130" lat="50.1819" lon="20.90767">
    <tag k="name" v="Wielopole"/>
    <tag k="place" v="village"/>
    <tag k="source" v="http://ump.waw.pl/ retrieved 11:18:52 11/17/09 (UMP-Tarnow/src/cities-Tarnow.pnt-converted.txt)"/>
  </node>
  <node id="577432673" version="3" timestamp="2010-04-11T13:17:15Z" uid="20587" user="balrog-kun" changeset="4392352" lat="50.1819" lon="20.90767">
    <tag k="name" v="Wielopole"/>
    <tag k="place" v="village"/>
    <tag k="source" v="http://ump.waw.pl/ retrieved 11:18:52 11/17/09 (UMP-Tarnow/src/cities-Tarnow.pnt-converted.txt)"/>
  </node>
  <node id="577432757" version="2" timestamp="2010-04-11T04:53:33Z" uid="20587" user="balrog-kun" changeset="4389130" lat="50.1898" lon="20.74396">
    <tag k="name" v="Miechowice Wielkie"/>
    <tag k="place" v="village"/>
    <tag k="source" v="http://ump.waw.pl/ retrieved 11:18:52 11/17/09 (UMP-Tarnow/src/cities-Tarnow.pnt-converted.txt)"/>
  </node>
  <node id="577432757" version="3" timestamp="2010-04-11T13:17:15Z" uid="20587" user="balrog-kun" changeset="4392352" lat="50.1898" lon="20.74396">
    <tag k="name" v="Miechowice Wielkie"/>
    <tag k="place" v="village"/>
    <tag k="source" v="http://ump.waw.pl/ retrieved 11:18:52 11/17/09 (UMP-Tarnow/src/cities-Tarnow.pnt-converted.txt)"/>
  </node>
  <node id="577432757" version="4" timestamp="2010-04-27T04:11:06Z" uid="30632" user="antblant" changeset="4537882" lat="50.1898" lon="20.74396">
    <tag k="name" v="Miechowice Wielkie"/>
    <tag k="place" v="village"/>
    <tag k="source" v="http://ump.waw.pl/ retrieved 11:18:52 11/17/09 (UMP-Tarnow/src/cities-Tarnow.pnt-converted.txt)"/>
    <tag k="teryt:simc" v="0835680"/>
  </node>
  <node id="577432923" version="2" timestamp="2010-04-11T04:53:33Z" uid="20587" user="balrog-kun" changeset="4389130" lat="50.18645" lon="20.77244">
    <tag k="name" v="Wietrzychowice"/>
    <tag k="place" v="village"/>
    <tag k="source" v="http://ump.waw.pl/ retrieved 11:18:52 11/17/09 (UMP-Tarnow/src/cities-Tarnow.pnt-converted.txt)"/>
  </node>
  <node id="577432923" version="3" timestamp="2010-04-11T13:17:15Z" uid="20587" user="balrog-kun" changeset="4392352" lat="50.18645" lon="20.77244">
    <tag k="name" v="Wietrzychowice"/>
    <tag k="place" v="village"/>
    <tag k="source" v="http://ump.waw.pl/ retrieved 11:18:52 11/17/09 (UMP-Tarnow/src/cities-Tarnow.pnt-converted.txt)"/>
  </node>
  <node id="577433084" version="2" timestamp="2010-04-11T04:53:33Z" uid="20587" user="balrog-kun" changeset="4389130" lat="50.20198" lon="20.77373">
    <tag k="name" v="Siedliszowice"/>
    <tag k="place" v="village"/>
    <tag k="source" v="http://ump.waw.pl/ retrieved 11:18:52 11/17/09 (UMP-Tarnow/src/cities-Tarnow.pnt-converted.txt)"/>
  </node>
  <node id="577433084" version="3" timestamp="2010-04-11T13:17:15Z" uid="20587" user="balrog-kun" changeset="4392352" lat="50.20198" lon="20.77373">
    <tag k="name" v="Siedliszowice"/>
    <tag k="place" v="village"/>
    <tag k="source" v="http://ump.waw.pl/ retrieved 11:18:52 11/17/09 (UMP-Tarnow/src/cities-Tarnow.pnt-converted.txt)"/>
  </node>
  <node id="577433172" version="2" timestamp="2010-04-11T04:53:34Z" uid="20587" user="balrog-kun" changeset="4389130" lat="50.21769" lon="20.76292">
    <tag k="name" v="Bieniaszowice"/>
    <tag k="place" v="village"/>
    <tag k="source" v="http://ump.waw.pl/ retrieved 11:18:52 11/17/09 (UMP-Tarnow/src/cities-Tarnow.pnt-converted.txt)"/>
  </node>
  <node id="577433172" version="3" timestamp="2010-04-11T13:17:15Z" uid="20587" user="balrog-kun" changeset="4392352" lat="50.21769" lon="20.76292">
    <tag k="name" v="Bieniaszowice"/>
    <tag k="place" v="village"/>
    <tag k="source" v="http://ump.waw.pl/ retrieved 11:18:52 11/17/09 (UMP-Tarnow/src/cities-Tarnow.pnt-converted.txt)"/>
  </node>
  <node id="577433172" version="4" timestamp="2010-04-27T04:03:59Z" uid="30632" user="antblant" changeset="4537867" lat="50.21769" lon="20.76292">
    <tag k="name" v="Bieniaszowice"/>
    <tag k="place" v="village"/>
    <tag k="source" v="http://ump.waw.pl/ retrieved 11:18:52 11/17/09 (UMP-Tarnow/src/cities-Tarnow.pnt-converted.txt)"/>
    <tag k="teryt:simc" v="0820022"/>
  </node>
  <node id="577433220" version="2" timestamp="2010-04-11T04:53:34Z" uid="20587" user="balrog-kun" changeset="4389130" lat="50.22202" lon="20.74283">
    <tag k="name" v="Pałuszyce"/>
    <tag k="place" v="village"/>
    <tag k="source" v="http://ump.waw.pl/ retrieved 11:18:52 11/17/09 (UMP-Tarnow/src/cities-Tarnow.pnt-converted.txt)"/>
  </node>
  <node id="577433220" version="3" timestamp="2010-04-11T13:17:15Z" uid="20587" user="balrog-kun" changeset="4392352" lat="50.22202" lon="20.74283">
    <tag k="name" v="Pałuszyce"/>
    <tag k="place" v="village"/>
    <tag k="source" v="http://ump.waw.pl/ retrieved 11:18:52 11/17/09 (UMP-Tarnow/src/cities-Tarnow.pnt-converted.txt)"/>
  </node>
  <node id="577433220" version="4" timestamp="2010-04-27T04:06:00Z" uid="30632" user="antblant" changeset="4537871" lat="50.22202" lon="20.74283">
    <tag k="name" v="Pałuszyce"/>
    <tag k="place" v="village"/>
    <tag k="source" v="http://ump.waw.pl/ retrieved 11:18:52 11/17/09 (UMP-Tarnow/src/cities-Tarnow.pnt-converted.txt)"/>
    <tag k="teryt:simc" v="0835710"/>
  </node>
  <node id="577433663" version="2" timestamp="2010-04-11T04:53:34Z" uid="20587" user="balrog-kun" changeset="4389130" lat="50.22623" lon="20.81896">
    <tag k="name" v="Żelichow"/>
    <tag k="place" v="village"/>
    <tag k="source" v="http://ump.waw.pl/ retrieved 11:18:52 11/17/09 (UMP-Tarnow/src/cities-Tarnow.pnt-converted.txt)"/>
  </node>
  <node id="577433663" version="3" timestamp="2010-04-11T13:17:15Z" uid="20587" user="balrog-kun" changeset="4392352" lat="50.22623" lon="20.81896">
    <tag k="name" v="Żelichow"/>
    <tag k="place" v="village"/>
    <tag k="source" v="http://ump.waw.pl/ retrieved 11:18:52 11/17/09 (UMP-Tarnow/src/cities-Tarnow.pnt-converted.txt)"/>
  </node>
  <node id="577433777" version="2" timestamp="2010-04-11T04:53:34Z" uid="20587" user="balrog-kun" changeset="4389130" lat="50.24031" lon="20.74618">
    <tag k="name" v="Ujście Jezuickie"/>
    <tag k="place" v="village"/>
    <tag k="source" v="http://ump.waw.pl/ retrieved 11:18:52 11/17/09 (UMP-Tarnow/src/cities-Tarnow.pnt-converted.txt)"/>
  </node>
  <node id="577433777" version="3" timestamp="2010-04-11T13:17:15Z" uid="20587" user="balrog-kun" changeset="4392352" lat="50.24031" lon="20.74618">
    <tag k="name" v="Ujście Jezuickie"/>
    <tag k="place" v="village"/>
    <tag k="source" v="http://ump.waw.pl/ retrieved 11:18:52 11/17/09 (UMP-Tarnow/src/cities-Tarnow.pnt-converted.txt)"/>
  </node>
  <node id="577433777" version="4" timestamp="2010-04-27T03:56:40Z" uid="30632" user="antblant" changeset="4537843" lat="50.24031" lon="20.74618">
    <tag k="name" v="Ujście Jezuickie"/>
    <tag k="place" v="village"/>
    <tag k="source" v="http://ump.waw.pl/ retrieved 11:18:52 11/17/09 (UMP-Tarnow/src/cities-Tarnow.pnt-converted.txt)"/>
    <tag k="teryt:simc" v="0820223"/>
  </node>
  <node id="577433888" version="2" timestamp="2010-04-11T04:53:34Z" uid="20587" user="balrog-kun" changeset="4389130" lat="50.24327" lon="20.77734">
    <tag k="name" v="Greboszów"/>
    <tag k="place" v="village"/>
    <tag k="source" v="http://ump.waw.pl/ retrieved 11:18:52 11/17/09 (UMP-Tarnow/src/cities-Tarnow.pnt-converted.txt)"/>
  </node>
  <node id="577433888" version="3" timestamp="2010-04-11T13:17:15Z" uid="20587" user="balrog-kun" changeset="4392352" lat="50.24327" lon="20.77734">
    <tag k="name" v="Greboszów"/>
    <tag k="place" v="village"/>
    <tag k="source" v="http://ump.waw.pl/ retrieved 11:18:52 11/17/09 (UMP-Tarnow/src/cities-Tarnow.pnt-converted.txt)"/>
  </node>
  <node id="577434001" version="2" timestamp="2010-04-11T04:53:34Z" uid="20587" user="balrog-kun" changeset="4389130" lat="50.26275" lon="20.77583">
    <tag k="name" v="Karsy"/>
    <tag k="place" v="village"/>
    <tag k="source" v="http://ump.waw.pl/ retrieved 11:18:52 11/17/09 (UMP-Tarnow/src/cities-Tarnow.pnt-converted.txt)"/>
  </node>
  <node id="577434001" version="3" timestamp="2010-04-11T13:17:15Z" uid="20587" user="balrog-kun" changeset="4392352" lat="50.26275" lon="20.77583">
    <tag k="name" v="Karsy"/>
    <tag k="place" v="village"/>
    <tag k="source" v="http://ump.waw.pl/ retrieved 11:18:52 11/17/09 (UMP-Tarnow/src/cities-Tarnow.pnt-converted.txt)"/>
  </node>
  <node id="577434015" version="2" timestamp="2010-04-11T04:53:34Z" uid="20587" user="balrog-kun" changeset="4389130" lat="50.2297" lon="20.78639">
    <tag k="name" v="Lubiczko"/>
    <tag k="place" v="village"/>
    <tag k="source" v="http://ump.waw.pl/ retrieved 11:18:52 11/17/09 (UMP-Tarnow/src/cities-Tarnow.pnt-converted.txt)"/>
  </node>
  <node id="577434015" version="3" timestamp="2010-04-11T13:17:15Z" uid="20587" user="balrog-kun" changeset="4392352" lat="50.2297" lon="20.78639">
    <tag k="name" v="Lubiczko"/>
    <tag k="place" v="village"/>
    <tag k="source" v="http://ump.waw.pl/ retrieved 11:18:52 11/17/09 (UMP-Tarnow/src/cities-Tarnow.pnt-converted.txt)"/>
  </node>
  <node id="577434015" version="4" timestamp="2010-04-27T04:09:28Z" uid="30632" user="antblant" changeset="4537879" lat="50.2297" lon="20.78639">
    <tag k="name" v="Lubiczko"/>
    <tag k="place" v="village"/>
    <tag k="source" v="http://ump.waw.pl/ retrieved 11:18:52 11/17/09 (UMP-Tarnow/src/cities-Tarnow.pnt-converted.txt)"/>
    <tag k="teryt:simc" v="0820200"/>
  </node>
  <node id="577434083" version="2" timestamp="2010-04-11T04:53:34Z" uid="20587" user="balrog-kun" changeset="4389130" lat="50.23799" lon="20.81858">
    <tag k="name" v="Wola Żelichowska"/>
    <tag k="place" v="village"/>
    <tag k="source" v="http://ump.waw.pl/ retrieved 11:18:52 11/17/09 (UMP-Tarnow/src/cities-Tarnow.pnt-converted.txt)"/>
  </node>
  <node id="577434083" version="3" timestamp="2010-04-11T13:17:16Z" uid="20587" user="balrog-kun" changeset="4392352" lat="50.23799" lon="20.81858">
    <tag k="name" v="Wola Żelichowska"/>
    <tag k="place" v="village"/>
    <tag k="source" v="http://ump.waw.pl/ retrieved 11:18:52 11/17/09 (UMP-Tarnow/src/cities-Tarnow.pnt-converted.txt)"/>
  </node>
  <node id="577434083" version="4" timestamp="2010-04-27T04:18:23Z" uid="30632" user="antblant" changeset="4537909" lat="50.23799" lon="20.81858">
    <tag k="name" v="Wola Żelichowska"/>
    <tag k="place" v="village"/>
    <tag k="source" v="http://ump.waw.pl/ retrieved 11:18:52 11/17/09 (UMP-Tarnow/src/cities-Tarnow.pnt-converted.txt)"/>
    <tag k="teryt:simc" v="0820298"/>
  </node>
  <node id="577434181" version="2" timestamp="2010-04-11T04:53:34Z" uid="20587" user="balrog-kun" changeset="4389130" lat="50.25679" lon="20.79146">
    <tag k="name" v="Wola Greboszowska"/>
    <tag k="place" v="village"/>
    <tag k="source" v="http://ump.waw.pl/ retrieved 11:18:52 11/17/09 (UMP-Tarnow/src/cities-Tarnow.pnt-converted.txt)"/>
  </node>
  <node id="577434181" version="3" timestamp="2010-04-11T13:17:16Z" uid="20587" user="balrog-kun" changeset="4392352" lat="50.25679" lon="20.79146">
    <tag k="name" v="Wola Greboszowska"/>
    <tag k="place" v="village"/>
    <tag k="source" v="http://ump.waw.pl/ retrieved 11:18:52 11/17/09 (UMP-Tarnow/src/cities-Tarnow.pnt-converted.txt)"/>
  </node>
  <node id="577434452" version="2" timestamp="2010-04-11T04:53:34Z" uid="20587" user="balrog-kun" changeset="4389130" lat="50.2032691" lon="20.8714827">
    <tag k="name" v="Dąbrówka Gorzycka"/>
    <tag k="place" v="village"/>
    <tag k="source" v="http://ump.waw.pl/ retrieved 11:18:52 11/17/09 (UMP-Tarnow/src/cities-Tarnow.pnt-converted.txt)"/>
  </node>
  <node id="577434452" version="3" timestamp="2010-04-11T13:17:16Z" uid="20587" user="balrog-kun" changeset="4392352" lat="50.2043487" lon="20.8715782">
    <tag k="name" v="Dąbrówka Gorzycka"/>
    <tag k="place" v="village"/>
    <tag k="source" v="http://ump.waw.pl/ retrieved 11:18:52 11/17/09 (UMP-Tarnow/src/cities-Tarnow.pnt-converted.txt)"/>
  </node>
  <node id="577434452" version="4" timestamp="2010-04-27T04:13:38Z" uid="30632" user="antblant" changeset="4537892" lat="50.2043487" lon="20.8715782">
    <tag k="name" v="Dąbrówka Gorzycka"/>
    <tag k="place" v="village"/>
    <tag k="source" v="http://ump.waw.pl/ retrieved 11:18:52 11/17/09 (UMP-Tarnow/src/cities-Tarnow.pnt-converted.txt)"/>
    <tag k="teryt:simc" v="0825284"/>
  </node>
  <node id="577434462" version="2" timestamp="2010-04-11T04:53:34Z" uid="20587" user="balrog-kun" changeset="4389130" lat="50.21293" lon="20.83424">
    <tag k="name" v="Klyz"/>
    <tag k="place" v="village"/>
    <tag k="source" v="http://ump.waw.pl/ retrieved 11:18:52 11/17/09 (UMP-Tarnow/src/cities-Tarnow.pnt-converted.txt)"/>
  </node>
  <node id="577434462" version="3" timestamp="2010-04-11T13:17:16Z" uid="20587" user="balrog-kun" changeset="4392352" lat="50.21293" lon="20.83424">
    <tag k="name" v="Klyz"/>
    <tag k="place" v="village"/>
    <tag k="source" v="http://ump.waw.pl/ retrieved 11:18:52 11/17/09 (UMP-Tarnow/src/cities-Tarnow.pnt-converted.txt)"/>
  </node>
  <node id="577434604" version="2" timestamp="2010-04-11T04:53:34Z" uid="20587" user="balrog-kun" changeset="4389130" lat="50.20919" lon="20.86334">
    <tag k="name" v="Pilcza Żelichowska"/>
    <tag k="place" v="village"/>
    <tag k="source" v="http://ump.waw.pl/ retrieved 11:18:52 11/17/09 (UMP-Tarnow/src/cities-Tarnow.pnt-converted.txt)"/>
  </node>
  <node id="577434604" version="3" timestamp="2010-04-11T13:17:16Z" uid="20587" user="balrog-kun" changeset="4392352" lat="50.20919" lon="20.86334">
    <tag k="name" v="Pilcza Żelichowska"/>
    <tag k="place" v="village"/>
    <tag k="source" v="http://ump.waw.pl/ retrieved 11:18:52 11/17/09 (UMP-Tarnow/src/cities-Tarnow.pnt-converted.txt)"/>
  </node>
  <node id="577434604" version="4" timestamp="2010-04-27T04:10:40Z" uid="30632" user="antblant" changeset="4537882" lat="50.20919" lon="20.86334">
    <tag k="name" v="Pilcza Żelichowska"/>
    <tag k="place" v="village"/>
    <tag k="source" v="http://ump.waw.pl/ retrieved 11:18:52 11/17/09 (UMP-Tarnow/src/cities-Tarnow.pnt-converted.txt)"/>
    <tag k="teryt:simc" v="0825485"/>
  </node>
  <node id="577434641" version="2" timestamp="2010-04-11T04:53:34Z" uid="20587" user="balrog-kun" changeset="4389130" lat="50.22406" lon="20.85221">
    <tag k="name" v="Niwka"/>
    <tag k="place" v="village"/>
    <tag k="source" v="http://ump.waw.pl/ retrieved 11:18:52 11/17/09 (UMP-Tarnow/src/cities-Tarnow.pnt-converted.txt)"/>
  </node>
  <node id="577434641" version="3" timestamp="2010-04-11T13:17:16Z" uid="20587" user="balrog-kun" changeset="4392352" lat="50.22406" lon="20.85221">
    <tag k="name" v="Niwka"/>
    <tag k="place" v="village"/>
    <tag k="source" v="http://ump.waw.pl/ retrieved 11:18:52 11/17/09 (UMP-Tarnow/src/cities-Tarnow.pnt-converted.txt)"/>
  </node>
  <node id="577434918" version="2" timestamp="2010-04-11T04:53:34Z" uid="20587" user="balrog-kun" changeset="4389130" lat="50.20474" lon="20.89979">
    <tag k="name" v="Adamierz"/>
    <tag k="place" v="village"/>
    <tag k="source" v="http://ump.waw.pl/ retrieved 11:18:52 11/17/09 (UMP-Tarnow/src/cities-Tarnow.pnt-converted.txt)"/>
  </node>
  <node id="577434918" version="3" timestamp="2010-04-11T13:17:16Z" uid="20587" user="balrog-kun" changeset="4392352" lat="50.20474" lon="20.89979">
    <tag k="name" v="Adamierz"/>
    <tag k="place" v="village"/>
    <tag k="source" v="http://ump.waw.pl/ retrieved 11:18:52 11/17/09 (UMP-Tarnow/src/cities-Tarnow.pnt-converted.txt)"/>
  </node>
  <node id="577435238" version="2" timestamp="2010-04-11T04:53:34Z" uid="20587" user="balrog-kun" changeset="4389130" lat="50.24863" lon="20.85128">
    <tag k="name" v="Podlipie"/>
    <tag k="place" v="village"/>
    <tag k="source" v="http://ump.waw.pl/ retrieved 11:18:52 11/17/09 (UMP-Tarnow/src/cities-Tarnow.pnt-converted.txt)"/>
  </node>
  <node id="577435238" version="3" timestamp="2010-04-11T13:17:16Z" uid="20587" user="balrog-kun" changeset="4392352" lat="50.24863" lon="20.85128">
    <tag k="name" v="Podlipie"/>
    <tag k="place" v="village"/>
    <tag k="source" v="http://ump.waw.pl/ retrieved 11:18:52 11/17/09 (UMP-Tarnow/src/cities-Tarnow.pnt-converted.txt)"/>
  </node>
  <node id="577435292" version="2" timestamp="2010-04-11T04:53:34Z" uid="20587" user="balrog-kun" changeset="4389130" lat="50.23159" lon="20.86673">
    <tag k="name" v="Zalipie"/>
    <tag k="place" v="village"/>
    <tag k="source" v="http://ump.waw.pl/ retrieved 11:18:52 11/17/09 (UMP-Tarnow/src/cities-Tarnow.pnt-converted.txt)"/>
  </node>
  <node id="577435292" version="3" timestamp="2010-04-11T13:17:16Z" uid="20587" user="balrog-kun" changeset="4392352" lat="50.23159" lon="20.86673">
    <tag k="name" v="Zalipie"/>
    <tag k="place" v="village"/>
    <tag k="source" v="http://ump.waw.pl/ retrieved 11:18:52 11/17/09 (UMP-Tarnow/src/cities-Tarnow.pnt-converted.txt)"/>
  </node>
  <node id="577435406" version="2" timestamp="2010-04-11T04:53:34Z" uid="20587" user="balrog-kun" changeset="4389130" lat="50.26974" lon="20.85523">
    <tag k="name" v="Samocice"/>
    <tag k="place" v="village"/>
    <tag k="source" v="http://ump.waw.pl/ retrieved 11:18:52 11/17/09 (UMP-Tarnow/src/cities-Tarnow.pnt-converted.txt)"/>
  </node>
  <node id="577435406" version="3" timestamp="2010-04-11T13:17:16Z" uid="20587" user="balrog-kun" changeset="4392352" lat="50.26974" lon="20.85523">
    <tag k="name" v="Samocice"/>
    <tag k="place" v="village"/>
    <tag k="source" v="http://ump.waw.pl/ retrieved 11:18:52 11/17/09 (UMP-Tarnow/src/cities-Tarnow.pnt-converted.txt)"/>
  </node>
  <node id="577435406" version="4" timestamp="2010-04-27T04:00:56Z" uid="30632" user="antblant" changeset="4537859" lat="50.26974" lon="20.85523">
    <tag k="name" v="Samocice"/>
    <tag k="place" v="village"/>
    <tag k="source" v="http://ump.waw.pl/ retrieved 11:18:52 11/17/09 (UMP-Tarnow/src/cities-Tarnow.pnt-converted.txt)"/>
    <tag k="teryt:simc" v="0813252"/>
  </node>
  <node id="577435450" version="2" timestamp="2010-04-11T04:53:35Z" uid="20587" user="balrog-kun" changeset="4389130" lat="50.24623" lon="20.89299">
    <tag k="name" v="Kuzie"/>
    <tag k="place" v="village"/>
    <tag k="source" v="http://ump.waw.pl/ retrieved 11:18:52 11/17/09 (UMP-Tarnow/src/cities-Tarnow.pnt-converted.txt)"/>
  </node>
  <node id="577435450" version="3" timestamp="2010-04-11T13:17:16Z" uid="20587" user="balrog-kun" changeset="4392352" lat="50.24623" lon="20.89299">
    <tag k="name" v="Kuzie"/>
    <tag k="place" v="village"/>
    <tag k="source" v="http://ump.waw.pl/ retrieved 11:18:52 11/17/09 (UMP-Tarnow/src/cities-Tarnow.pnt-converted.txt)"/>
  </node>
  <node id="577435467" version="2" timestamp="2010-04-11T04:53:35Z" uid="20587" user="balrog-kun" changeset="4389130" lat="50.22988" lon="20.90612">
    <tag k="name" v="Cwikow"/>
    <tag k="place" v="village"/>
    <tag k="source" v="http://ump.waw.pl/ retrieved 11:18:52 11/17/09 (UMP-Tarnow/src/cities-Tarnow.pnt-converted.txt)"/>
  </node>
  <node id="577435467" version="3" timestamp="2010-04-11T13:17:16Z" uid="20587" user="balrog-kun" changeset="4392352" lat="50.22988" lon="20.90612">
    <tag k="name" v="Cwikow"/>
    <tag k="place" v="village"/>
    <tag k="source" v="http://ump.waw.pl/ retrieved 11:18:52 11/17/09 (UMP-Tarnow/src/cities-Tarnow.pnt-converted.txt)"/>
  </node>
  <node id="577435655" version="2" timestamp="2010-04-11T04:53:35Z" uid="20587" user="balrog-kun" changeset="4389130" lat="50.25623" lon="20.90128">
    <tag k="name" v="Swiebodzin"/>
    <tag k="place" v="village"/>
    <tag k="source" v="http://ump.waw.pl/ retrieved 11:18:52 11/17/09 (UMP-Tarnow/src/cities-Tarnow.pnt-converted.txt)"/>
  </node>
  <node id="577435655" version="3" timestamp="2010-04-11T13:17:16Z" uid="20587" user="balrog-kun" changeset="4392352" lat="50.25623" lon="20.90128">
    <tag k="name" v="Swiebodzin"/>
    <tag k="place" v="village"/>
    <tag k="source" v="http://ump.waw.pl/ retrieved 11:18:52 11/17/09 (UMP-Tarnow/src/cities-Tarnow.pnt-converted.txt)"/>
  </node>
  <node id="577435750" version="2" timestamp="2010-04-11T04:53:35Z" uid="20587" user="balrog-kun" changeset="4389130" lat="50.09966" lon="20.93363">
    <tag k="name" v="Zaszkole"/>
    <tag k="place" v="village"/>
    <tag k="source" v="http://ump.waw.pl/ retrieved 11:18:52 11/17/09 (UMP-Tarnow/src/cities-Tarnow.pnt-converted.txt)"/>
  </node>
  <node id="577435750" version="3" timestamp="2010-04-11T13:17:16Z" uid="20587" user="balrog-kun" changeset="4392352" lat="50.09966" lon="20.93363">
    <tag k="name" v="Zaszkole"/>
    <tag k="place" v="village"/>
    <tag k="source" v="http://ump.waw.pl/ retrieved 11:18:52 11/17/09 (UMP-Tarnow/src/cities-Tarnow.pnt-converted.txt)"/>
  </node>
  <node id="577435775" version="2" timestamp="2010-04-11T04:53:35Z" uid="20587" user="balrog-kun" changeset="4389130" lat="50.11922" lon="20.9187">
    <tag k="name" v="Pogwizdów"/>
    <tag k="place" v="village"/>
    <tag k="source" v="http://ump.waw.pl/ retrieved 11:18:52 11/17/09 (UMP-Tarnow/src/cities-Tarnow.pnt-converted.txt)"/>
  </node>
  <node id="577435775" version="3" timestamp="2010-04-11T13:17:16Z" uid="20587" user="balrog-kun" changeset="4392352" lat="50.11922" lon="20.9187">
    <tag k="name" v="Pogwizdów"/>
    <tag k="place" v="village"/>
    <tag k="source" v="http://ump.waw.pl/ retrieved 11:18:52 11/17/09 (UMP-Tarnow/src/cities-Tarnow.pnt-converted.txt)"/>
  </node>
  <node id="577435845" version="2" timestamp="2010-04-11T04:53:35Z" uid="20587" user="balrog-kun" changeset="4389130" lat="50.13515" lon="20.93064">
    <tag k="name" v="Sieradza"/>
    <tag k="place" v="town"/>
    <tag k="source" v="http://ump.waw.pl/ retrieved 11:18:52 11/17/09 (UMP-Tarnow/src/cities-Tarnow.pnt-converted.txt)"/>
  </node>
  <node id="577435845" version="3" timestamp="2010-04-11T13:17:17Z" uid="20587" user="balrog-kun" changeset="4392352" lat="50.13515" lon="20.93064">
    <tag k="name" v="Sieradza"/>
    <tag k="place" v="town"/>
    <tag k="source" v="http://ump.waw.pl/ retrieved 11:18:52 11/17/09 (UMP-Tarnow/src/cities-Tarnow.pnt-converted.txt)"/>
  </node>
  <node id="577435845" version="4" timestamp="2010-04-27T03:56:09Z" uid="30632" user="antblant" changeset="4537843" lat="50.13515" lon="20.93064">
    <tag k="name" v="Sieradza"/>
    <tag k="place" v="town"/>
    <tag k="source" v="http://ump.waw.pl/ retrieved 11:18:52 11/17/09 (UMP-Tarnow/src/cities-Tarnow.pnt-converted.txt)"/>
    <tag k="teryt:simc" v="0838335"/>
  </node>
  <node id="577435924" version="2" timestamp="2011-02-06T04:01:38Z" uid="4467" user="Rosscoe" changeset="7199770" lat="-37.8537624" lon="144.9790185"/>
  <node id="577435930" version="2" timestamp="2011-02-06T04:02:01Z" uid="4467" user="Rosscoe" changeset="7199770" lat="-37.8539894" lon="144.9789313"/>
  <node id="577435934" version="2" timestamp="2011-02-06T04:01:47Z" uid="4467" user="Rosscoe" changeset="7199770" lat="-37.8542165" lon="144.9789173"/>
  <node id="577436014" version="2" timestamp="2011-03-12T05:09:33Z" uid="4467" user="Rosscoe" changeset="7529689" lat="-37.8491968" lon="144.9764956"/>
  <node id="577436060" version="2" timestamp="2010-04-11T04:53:35Z" uid="20587" user="balrog-kun" changeset="4389130" lat="50.1025603" lon="20.9946682">
    <tag k="name" v="Kobierzyn"/>
    <tag k="place" v="village"/>
    <tag k="source" v="http://ump.waw.pl/ retrieved 11:18:52 11/17/09 (UMP-Tarnow/src/cities-Tarnow.pnt-converted.txt)"/>
  </node>
  <node id="577436060" version="3" timestamp="2010-04-11T13:17:17Z" uid="20587" user="balrog-kun" changeset="4392352" lat="50.1024576" lon="20.9953317">
    <tag k="name" v="Kobierzyn"/>
    <tag k="place" v="village"/>
    <tag k="source" v="http://ump.waw.pl/ retrieved 11:18:52 11/17/09 (UMP-Tarnow/src/cities-Tarnow.pnt-converted.txt)"/>
  </node>
  <node id="577436060" version="4" timestamp="2010-04-27T04:09:38Z" uid="30632" user="antblant" changeset="4537879" lat="50.1024576" lon="20.9953317">
    <tag k="name" v="Kobierzyn"/>
    <tag k="place" v="village"/>
    <tag k="source" v="http://ump.waw.pl/ retrieved 11:18:52 11/17/09 (UMP-Tarnow/src/cities-Tarnow.pnt-converted.txt)"/>
    <tag k="teryt:simc" v="0822357"/>
  </node>
  <node id="577436098" version="2" timestamp="2010-04-27T03:56:15Z" uid="30632" user="antblant" changeset="4537843" lat="50.1241445" lon="20.9666884">
    <tag k="name" v="Laskówka Chorąska"/>
    <tag k="place" v="village"/>
    <tag k="source" v="http://ump.waw.pl/ retrieved 11:18:52 11/17/09 (UMP-Tarnow/src/cities-Tarnow.pnt-converted.txt)"/>
    <tag k="teryt:simc" v="0817557"/>
  </node>
  <node id="577436199" version="2" timestamp="2010-04-27T04:01:01Z" uid="30632" user="antblant" changeset="4537859" lat="50.1339223" lon="20.9852659">
    <tag k="name" v="Żelazówka"/>
    <tag k="place" v="village"/>
    <tag k="source" v="http://ump.waw.pl/ retrieved 11:18:52 11/17/09 (UMP-Tarnow/src/cities-Tarnow.pnt-converted.txt)"/>
    <tag k="teryt:simc" v="0817847"/>
  </node>
  <node id="577436331" version="2" timestamp="2010-04-11T04:53:35Z" uid="20587" user="balrog-kun" changeset="4389130" lat="50.1430587" lon="20.9449682">
    <tag k="name" v="Fiuk"/>
    <tag k="place" v="village"/>
    <tag k="source" v="http://ump.waw.pl/ retrieved 11:18:52 11/17/09 (UMP-Tarnow/src/cities-Tarnow.pnt-converted.txt)"/>
  </node>
  <node id="577436331" version="3" timestamp="2010-04-11T13:17:17Z" uid="20587" user="balrog-kun" changeset="4392352" lat="50.1433153" lon="20.9441789">
    <tag k="name" v="Fiuk"/>
    <tag k="place" v="village"/>
    <tag k="source" v="http://ump.waw.pl/ retrieved 11:18:52 11/17/09 (UMP-Tarnow/src/cities-Tarnow.pnt-converted.txt)"/>
  </node>
  <node id="577436448" version="2" timestamp="2010-04-11T04:53:35Z" uid="20587" user="balrog-kun" changeset="4389130" lat="50.1689551" lon="20.9384587">
    <tag k="name" v="Oleśnica"/>
    <tag k="place" v="village"/>
    <tag k="source" v="http://ump.waw.pl/ retrieved 11:18:52 11/17/09 (UMP-Tarnow/src/cities-Tarnow.pnt-converted.txt)"/>
  </node>
  <node id="577436448" version="3" timestamp="2010-04-11T13:17:17Z" uid="20587" user="balrog-kun" changeset="4392352" lat="50.1688159" lon="20.9363881">
    <tag k="name" v="Oleśnica"/>
    <tag k="place" v="village"/>
    <tag k="source" v="http://ump.waw.pl/ retrieved 11:18:52 11/17/09 (UMP-Tarnow/src/cities-Tarnow.pnt-converted.txt)"/>
  </node>
  <node id="577437504" version="2" timestamp="2010-04-11T04:53:35Z" uid="20587" user="balrog-kun" changeset="4389130" lat="50.1137995" lon="21.0170151">
    <tag k="name" v="Breń"/>
    <tag k="place" v="village"/>
    <tag k="source" v="http://ump.waw.pl/ retrieved 11:18:52 11/17/09 (UMP-Tarnow/src/cities-Tarnow.pnt-converted.txt)"/>
  </node>
  <node id="577437504" version="3" timestamp="2010-04-11T13:17:17Z" uid="20587" user="balrog-kun" changeset="4392352" lat="50.1160278" lon="21.0163144">
    <tag k="name" v="Breń"/>
    <tag k="place" v="village"/>
    <tag k="source" v="http://ump.waw.pl/ retrieved 11:18:52 11/17/09 (UMP-Tarnow/src/cities-Tarnow.pnt-converted.txt)"/>
  </node>
  <node id="577437683" version="2" timestamp="2010-04-11T04:53:35Z" uid="20587" user="balrog-kun" changeset="4389130" lat="50.1377952" lon="21.0079277">
    <tag k="name" v="Brnik"/>
    <tag k="place" v="village"/>
    <tag k="source" v="http://ump.waw.pl/ retrieved 11:18:52 11/17/09 (UMP-Tarnow/src/cities-Tarnow.pnt-converted.txt)"/>
  </node>
  <node id="577437683" version="3" timestamp="2010-04-11T13:17:17Z" uid="20587" user="balrog-kun" changeset="4392352" lat="50.1380931" lon="21.0082995">
    <tag k="name" v="Brnik"/>
    <tag k="place" v="village"/>
    <tag k="source" v="http://ump.waw.pl/ retrieved 11:18:52 11/17/09 (UMP-Tarnow/src/cities-Tarnow.pnt-converted.txt)"/>
  </node>
  <node id="577437683" version="4" timestamp="2010-04-27T03:59:12Z" uid="30632" user="antblant" changeset="4537857" lat="50.1380931" lon="21.0082995">
    <tag k="name" v="Brnik"/>
    <tag k="place" v="village"/>
    <tag k="source" v="http://ump.waw.pl/ retrieved 11:18:52 11/17/09 (UMP-Tarnow/src/cities-Tarnow.pnt-converted.txt)"/>
    <tag k="teryt:simc" v="0817400"/>
  </node>
  <node id="577437777" version="2" timestamp="2010-04-11T04:53:35Z" uid="20587" user="balrog-kun" changeset="4389130" lat="50.1403144" lon="21.0487544">
    <tag k="name" v="Szarwark"/>
    <tag k="place" v="village"/>
    <tag k="source" v="http://ump.waw.pl/ retrieved 11:18:52 11/17/09 (UMP-Tarnow/src/cities-Tarnow.pnt-converted.txt)"/>
  </node>
  <node id="577437777" version="3" timestamp="2010-04-11T13:17:17Z" uid="20587" user="balrog-kun" changeset="4392352" lat="50.1408863" lon="21.0492234">
    <tag k="name" v="Szarwark"/>
    <tag k="place" v="village"/>
    <tag k="source" v="http://ump.waw.pl/ retrieved 11:18:52 11/17/09 (UMP-Tarnow/src/cities-Tarnow.pnt-converted.txt)"/>
  </node>
  <node id="577437777" version="4" timestamp="2010-04-27T04:07:44Z" uid="30632" user="antblant" changeset="4537875" lat="50.1408863" lon="21.0492234">
    <tag k="name" v="Szarwark"/>
    <tag k="place" v="village"/>
    <tag k="source" v="http://ump.waw.pl/ retrieved 11:18:52 11/17/09 (UMP-Tarnow/src/cities-Tarnow.pnt-converted.txt)"/>
    <tag k="teryt:simc" v="0817818"/>
  </node>
  <node id="577437806" version="2" timestamp="2010-04-11T04:53:35Z" uid="20587" user="balrog-kun" changeset="4389130" lat="50.1171975" lon="21.0546464">
    <tag k="name" v="Lipiny"/>
    <tag k="place" v="village"/>
    <tag k="source" v="http://ump.waw.pl/ retrieved 11:18:52 11/17/09 (UMP-Tarnow/src/cities-Tarnow.pnt-converted.txt)"/>
  </node>
  <node id="577437806" version="3" timestamp="2010-04-11T13:17:17Z" uid="20587" user="balrog-kun" changeset="4392352" lat="50.1175736" lon="21.0557077">
    <tag k="name" v="Lipiny"/>
    <tag k="place" v="village"/>
    <tag k="source" v="http://ump.waw.pl/ retrieved 11:18:52 11/17/09 (UMP-Tarnow/src/cities-Tarnow.pnt-converted.txt)"/>
  </node>
  <node id="577438520" version="2" timestamp="2010-04-11T04:53:35Z" uid="20587" user="balrog-kun" changeset="4389130" lat="50.1717461" lon="21.061758">
    <tag k="name" v="Nieczajna Górna"/>
    <tag k="place" v="town"/>
    <tag k="source" v="http://ump.waw.pl/ retrieved 11:18:52 11/17/09 (UMP-Tarnow/src/cities-Tarnow.pnt-converted.txt)"/>
  </node>
  <node id="577438520" version="3" timestamp="2010-04-11T13:17:17Z" uid="20587" user="balrog-kun" changeset="4392352" lat="50.1701159" lon="21.0637885">
    <tag k="name" v="Nieczajna Górna"/>
    <tag k="place" v="town"/>
    <tag k="source" v="http://ump.waw.pl/ retrieved 11:18:52 11/17/09 (UMP-Tarnow/src/cities-Tarnow.pnt-converted.txt)"/>
  </node>
  <node id="577438520" version="4" timestamp="2010-04-27T04:02:51Z" uid="30632" user="antblant" changeset="4537862" lat="50.1701159" lon="21.0637885">
    <tag k="name" v="Nieczajna Górna"/>
    <tag k="place" v="town"/>
    <tag k="source" v="http://ump.waw.pl/ retrieved 11:18:52 11/17/09 (UMP-Tarnow/src/cities-Tarnow.pnt-converted.txt)"/>
    <tag k="teryt:simc" v="0817652"/>
  </node>
  <node id="577438595" version="3" timestamp="2010-04-11T04:53:35Z" uid="20587" user="balrog-kun" changeset="4389130" lat="50.20121" lon="20.9278">
    <tag k="name" v="Olesno"/>
    <tag k="place" v="village"/>
    <tag k="source" v="http://ump.waw.pl/ retrieved 11:18:52 11/17/09 (UMP-Tarnow/src/cities-Tarnow.pnt-converted.txt)"/>
  </node>
  <node id="577438785" version="2" timestamp="2010-04-11T04:53:35Z" uid="20587" user="balrog-kun" changeset="4389130" lat="50.201" lon="20.9526">
    <tag k="name" v="Swarzow"/>
    <tag k="place" v="village"/>
    <tag k="source" v="http://ump.waw.pl/ retrieved 11:18:52 11/17/09 (UMP-Tarnow/src/cities-Tarnow.pnt-converted.txt)"/>
  </node>
  <node id="577438785" version="3" timestamp="2010-04-11T13:17:17Z" uid="20587" user="balrog-kun" changeset="4392352" lat="50.201" lon="20.9526">
    <tag k="name" v="Swarzow"/>
    <tag k="place" v="village"/>
    <tag k="source" v="http://ump.waw.pl/ retrieved 11:18:52 11/17/09 (UMP-Tarnow/src/cities-Tarnow.pnt-converted.txt)"/>
  </node>
  <node id="577438914" version="2" timestamp="2010-04-11T04:53:36Z" uid="20587" user="balrog-kun" changeset="4389130" lat="50.2140329" lon="20.9497691">
    <tag k="name" v="Podborze"/>
    <tag k="place" v="village"/>
    <tag k="source" v="http://ump.waw.pl/ retrieved 11:18:52 11/17/09 (UMP-Tarnow/src/cities-Tarnow.pnt-converted.txt)"/>
  </node>
  <node id="577438914" version="3" timestamp="2010-04-11T13:17:17Z" uid="20587" user="balrog-kun" changeset="4392352" lat="50.214767" lon="20.9469358">
    <tag k="name" v="Podborze"/>
    <tag k="place" v="village"/>
    <tag k="source" v="http://ump.waw.pl/ retrieved 11:18:52 11/17/09 (UMP-Tarnow/src/cities-Tarnow.pnt-converted.txt)"/>
  </node>
  <node id="577439088" version="3" timestamp="2010-04-11T04:53:36Z" uid="20587" user="balrog-kun" changeset="4389130" lat="50.2285" lon="21.0049199">
    <tag k="name" v="Smęgorzów"/>
    <tag k="place" v="village"/>
    <tag k="source" v="http://ump.waw.pl/ retrieved 11:18:52 11/17/09 (UMP-Tarnow/src/cities-Tarnow.pnt-converted.txt)"/>
  </node>
  <node id="577439088" version="4" timestamp="2010-04-27T03:59:17Z" uid="30632" user="antblant" changeset="4537857" lat="50.2285" lon="21.0049199">
    <tag k="name" v="Smęgorzów"/>
    <tag k="place" v="village"/>
    <tag k="source" v="http://ump.waw.pl/ retrieved 11:18:52 11/17/09 (UMP-Tarnow/src/cities-Tarnow.pnt-converted.txt)"/>
    <tag k="teryt:simc" v="0817698"/>
  </node>
  <node id="577439194" version="2" timestamp="2010-04-11T04:53:36Z" uid="20587" user="balrog-kun" changeset="4389130" lat="50.2366451" lon="20.9473248">
    <tag k="name" v="Dąbrówki Breńskie"/>
    <tag k="place" v="village"/>
    <tag k="source" v="http://ump.waw.pl/ retrieved 11:18:52 11/17/09 (UMP-Tarnow/src/cities-Tarnow.pnt-converted.txt)"/>
  </node>
  <node id="577439194" version="3" timestamp="2010-04-11T13:17:17Z" uid="20587" user="balrog-kun" changeset="4392352" lat="50.2368787" lon="20.9476183">
    <tag k="name" v="Dąbrówki Breńskie"/>
    <tag k="place" v="village"/>
    <tag k="source" v="http://ump.waw.pl/ retrieved 11:18:52 11/17/09 (UMP-Tarnow/src/cities-Tarnow.pnt-converted.txt)"/>
  </node>
  <node id="577439194" version="4" timestamp="2010-04-27T04:13:54Z" uid="30632" user="antblant" changeset="4537892" lat="50.2368787" lon="20.9476183">
    <tag k="name" v="Dąbrówki Breńskie"/>
    <tag k="place" v="village"/>
    <tag k="source" v="http://ump.waw.pl/ retrieved 11:18:52 11/17/09 (UMP-Tarnow/src/cities-Tarnow.pnt-converted.txt)"/>
    <tag k="teryt:simc" v="0825315"/>
  </node>
  <node id="577439223" version="2" timestamp="2010-04-11T04:53:36Z" uid="20587" user="balrog-kun" changeset="4389130" lat="50.25829" lon="20.93745">
    <tag k="name" v="Grady"/>
    <tag k="place" v="village"/>
    <tag k="source" v="http://ump.waw.pl/ retrieved 11:18:52 11/17/09 (UMP-Tarnow/src/cities-Tarnow.pnt-converted.txt)"/>
  </node>
  <node id="577439223" version="3" timestamp="2010-04-11T13:17:17Z" uid="20587" user="balrog-kun" changeset="4392352" lat="50.25829" lon="20.93745">
    <tag k="name" v="Grady"/>
    <tag k="place" v="village"/>
    <tag k="source" v="http://ump.waw.pl/ retrieved 11:18:52 11/17/09 (UMP-Tarnow/src/cities-Tarnow.pnt-converted.txt)"/>
  </node>
  <node id="577439248" version="2" timestamp="2010-04-11T04:53:36Z" uid="20587" user="balrog-kun" changeset="4389130" lat="50.25674" lon="20.95904">
    <tag k="name" v="Wólka Grądzka"/>
    <tag k="place" v="village"/>
    <tag k="source" v="http://ump.waw.pl/ retrieved 11:18:52 11/17/09 (UMP-Tarnow/src/cities-Tarnow.pnt-converted.txt)"/>
  </node>
  <node id="577439248" version="3" timestamp="2010-04-11T13:17:17Z" uid="20587" user="balrog-kun" changeset="4392352" lat="50.25674" lon="20.95904">
    <tag k="name" v="Wólka Grądzka"/>
    <tag k="place" v="village"/>
    <tag k="source" v="http://ump.waw.pl/ retrieved 11:18:52 11/17/09 (UMP-Tarnow/src/cities-Tarnow.pnt-converted.txt)"/>
  </node>
  <node id="577439248" version="4" timestamp="2010-04-27T04:18:31Z" uid="30632" user="antblant" changeset="4537909" lat="50.25674" lon="20.95904">
    <tag k="name" v="Wólka Grądzka"/>
    <tag k="place" v="village"/>
    <tag k="source" v="http://ump.waw.pl/ retrieved 11:18:52 11/17/09 (UMP-Tarnow/src/cities-Tarnow.pnt-converted.txt)"/>
    <tag k="teryt:simc" v="0824385"/>
  </node>
  <node id="577439458" version="2" timestamp="2010-04-11T04:53:36Z" uid="20587" user="balrog-kun" changeset="4389130" lat="50.19241" lon="21.00964">
    <tag k="name" v="Gruszów Mały"/>
    <tag k="place" v="village"/>
    <tag k="source" v="http://ump.waw.pl/ retrieved 11:18:52 11/17/09 (UMP-Tarnow/src/cities-Tarnow.pnt-converted.txt)"/>
  </node>
  <node id="577439458" version="3" timestamp="2010-04-11T13:17:17Z" uid="20587" user="balrog-kun" changeset="4392352" lat="50.19241" lon="21.00964">
    <tag k="name" v="Gruszów Mały"/>
    <tag k="place" v="village"/>
    <tag k="source" v="http://ump.waw.pl/ retrieved 11:18:52 11/17/09 (UMP-Tarnow/src/cities-Tarnow.pnt-converted.txt)"/>
  </node>
  <node id="577439458" version="4" timestamp="2010-04-27T03:56:28Z" uid="30632" user="antblant" changeset="4537843" lat="50.19241" lon="21.00964">
    <tag k="name" v="Gruszów Mały"/>
    <tag k="place" v="village"/>
    <tag k="source" v="http://ump.waw.pl/ retrieved 11:18:52 11/17/09 (UMP-Tarnow/src/cities-Tarnow.pnt-converted.txt)"/>
    <tag k="teryt:simc" v="0817451"/>
  </node>
  <node id="577439502" version="2" timestamp="2010-04-11T04:53:36Z" uid="20587" user="balrog-kun" changeset="4389130" lat="50.1933818" lon="21.0338489">
    <tag k="name" v="Gruszów Wielki"/>
    <tag k="place" v="village"/>
    <tag k="source" v="http://ump.waw.pl/ retrieved 11:18:52 11/17/09 (UMP-Tarnow/src/cities-Tarnow.pnt-converted.txt)"/>
  </node>
  <node id="577439502" version="3" timestamp="2010-04-11T13:17:17Z" uid="20587" user="balrog-kun" changeset="4392352" lat="50.1910383" lon="21.0289584">
    <tag k="name" v="Gruszów Wielki"/>
    <tag k="place" v="village"/>
    <tag k="source" v="http://ump.waw.pl/ retrieved 11:18:52 11/17/09 (UMP-Tarnow/src/cities-Tarnow.pnt-converted.txt)"/>
  </node>
  <node id="577439502" version="4" timestamp="2010-04-27T04:05:54Z" uid="30632" user="antblant" changeset="4537871" lat="50.1910383" lon="21.0289584">
    <tag k="name" v="Gruszów Wielki"/>
    <tag k="place" v="village"/>
    <tag k="source" v="http://ump.waw.pl/ retrieved 11:18:52 11/17/09 (UMP-Tarnow/src/cities-Tarnow.pnt-converted.txt)"/>
    <tag k="teryt:simc" v="0817497"/>
  </node>
  <node id="577439674" version="2" timestamp="2010-04-11T04:53:36Z" uid="20587" user="balrog-kun" changeset="4389130" lat="50.1924879" lon="21.0530212">
    <tag k="name" v="Nieczajna Dolna"/>
    <tag k="place" v="village"/>
    <tag k="source" v="http://ump.waw.pl/ retrieved 11:18:52 11/17/09 (UMP-Tarnow/src/cities-Tarnow.pnt-converted.txt)"/>
  </node>
  <node id="577439674" version="3" timestamp="2010-04-11T13:17:17Z" uid="20587" user="balrog-kun" changeset="4392352" lat="50.1937513" lon="21.053536">
    <tag k="name" v="Nieczajna Dolna"/>
    <tag k="place" v="village"/>
    <tag k="source" v="http://ump.waw.pl/ retrieved 11:18:52 11/17/09 (UMP-Tarnow/src/cities-Tarnow.pnt-converted.txt)"/>
  </node>
  <node id="577439674" version="4" timestamp="2010-04-27T03:58:06Z" uid="30632" user="antblant" changeset="4537850" lat="50.1937513" lon="21.053536">
    <tag k="name" v="Nieczajna Dolna"/>
    <tag k="place" v="village"/>
    <tag k="source" v="http://ump.waw.pl/ retrieved 11:18:52 11/17/09 (UMP-Tarnow/src/cities-Tarnow.pnt-converted.txt)"/>
    <tag k="teryt:simc" v="0817623"/>
  </node>
  <node id="577439813" version="2" timestamp="2010-04-11T04:53:36Z" uid="20587" user="balrog-kun" changeset="4389130" lat="50.22917" lon="21.09007">
    <tag k="name" v="Trzydniaki"/>
    <tag k="place" v="village"/>
    <tag k="source" v="http://ump.waw.pl/ retrieved 11:18:52 11/17/09 (UMP-Tarnow/src/cities-Tarnow.pnt-converted.txt)"/>
  </node>
  <node id="577439813" version="3" timestamp="2010-04-11T13:17:17Z" uid="20587" user="balrog-kun" changeset="4392352" lat="50.22917" lon="21.09007">
    <tag k="name" v="Trzydniaki"/>
    <tag k="place" v="village"/>
    <tag k="source" v="http://ump.waw.pl/ retrieved 11:18:52 11/17/09 (UMP-Tarnow/src/cities-Tarnow.pnt-converted.txt)"/>
  </node>
  <node id="577439912" version="2" timestamp="2010-04-11T04:53:36Z" uid="20587" user="balrog-kun" changeset="4389130" lat="50.26631" lon="21.01792">
    <tag k="name" v="Wola Mędrzechowska"/>
    <tag k="place" v="village"/>
    <tag k="source" v="http://ump.waw.pl/ retrieved 11:18:52 11/17/09 (UMP-Tarnow/src/cities-Tarnow.pnt-converted.txt)"/>
  </node>
  <node id="577439912" version="3" timestamp="2010-04-11T13:17:18Z" uid="20587" user="balrog-kun" changeset="4392352" lat="50.26631" lon="21.01792">
    <tag k="name" v="Wola Mędrzechowska"/>
    <tag k="place" v="village"/>
    <tag k="source" v="http://ump.waw.pl/ retrieved 11:18:52 11/17/09 (UMP-Tarnow/src/cities-Tarnow.pnt-converted.txt)"/>
  </node>
  <node id="577439912" version="4" timestamp="2010-04-27T04:17:14Z" uid="30632" user="antblant" changeset="4537905" lat="50.26631" lon="21.01792">
    <tag k="name" v="Wola Mędrzechowska"/>
    <tag k="place" v="village"/>
    <tag k="source" v="http://ump.waw.pl/ retrieved 11:18:52 11/17/09 (UMP-Tarnow/src/cities-Tarnow.pnt-converted.txt)"/>
    <tag k="teryt:simc" v="0824296"/>
  </node>
  <node id="577439944" version="2" timestamp="2010-04-11T04:53:36Z" uid="20587" user="balrog-kun" changeset="4389130" lat="50.254" lon="21.04058">
    <tag k="name" v="Radwan"/>
    <tag k="place" v="village"/>
    <tag k="source" v="http://ump.waw.pl/ retrieved 11:18:52 11/17/09 (UMP-Tarnow/src/cities-Tarnow.pnt-converted.txt)"/>
  </node>
  <node id="577439944" version="3" timestamp="2010-04-11T13:17:18Z" uid="20587" user="balrog-kun" changeset="4392352" lat="50.254" lon="21.04058">
    <tag k="name" v="Radwan"/>
    <tag k="place" v="village"/>
    <tag k="source" v="http://ump.waw.pl/ retrieved 11:18:52 11/17/09 (UMP-Tarnow/src/cities-Tarnow.pnt-converted.txt)"/>
  </node>
  <node id="577439966" version="2" timestamp="2010-04-11T04:53:36Z" uid="20587" user="balrog-kun" changeset="4389130" lat="50.2290103" lon="21.0591534">
    <tag k="name" v="Sutkow"/>
    <tag k="place" v="village"/>
    <tag k="source" v="http://ump.waw.pl/ retrieved 11:18:52 11/17/09 (UMP-Tarnow/src/cities-Tarnow.pnt-converted.txt)"/>
  </node>
  <node id="577439966" version="3" timestamp="2010-04-11T13:17:18Z" uid="20587" user="balrog-kun" changeset="4392352" lat="50.2330904" lon="21.0576805">
    <tag k="name" v="Sutkow"/>
    <tag k="place" v="village"/>
    <tag k="source" v="http://ump.waw.pl/ retrieved 11:18:52 11/17/09 (UMP-Tarnow/src/cities-Tarnow.pnt-converted.txt)"/>
  </node>
</osm>
