<?xml version='1.0' encoding='UTF-8'?>
<osm version="0.6" generator="libosmium/2.20.0">
  <node id="581910044" version="2" timestamp="2010-04-11T04:53:44Z" uid="20587" user="balrog-kun" changeset="4389130" lat="49.92937" lon="20.78065">
    <tag k="name" v="Grabno"/>
    <tag k="place" v="village"/>
    <tag k="source" v="http://ump.waw.pl/ retrieved 11:18:52 11/17/09 (UMP-Tarnow/src/cities-Tarnow.pnt-converted.txt)"/>
  </node>
  <node id="581910044" version="3" timestamp="2010-04-11T13:17:27Z" uid="20587" user="balrog-kun" changeset="4392352" lat="49.92937" lon="20.78065">
    <tag k="name" v="Grabno"/>
    <tag k="place" v="village"/>
    <tag k="source" v="http://ump.waw.pl/ retrieved 11:18:52 11/17/09 (UMP-Tarnow/src/cities-Tarnow.pnt-converted.txt)"/>
  </node>
  <node id="581910353" version="2" timestamp="2010-04-11T04:53:44Z" uid="20587" user="balrog-kun" changeset="4389130" lat="49.9433" lon="20.80203">
    <tag k="name" v="Rudka"/>
    <tag k="place" v="village"/>
    <tag k="source" v="http://ump.waw.pl/ retrieved 11:18:52 11/17/09 (UMP-Tarnow/src/cities-Tarnow.pnt-converted.txt)"/>
  </node>
  <node id="581910353" version="3" timestamp="2010-04-11T13:17:27Z" uid="20587" user="balrog-kun" changeset="4392352" lat="49.9433" lon="20.80203">
    <tag k="name" v="Rudka"/>
    <tag k="place" v="village"/>
    <tag k="source" v="http://ump.waw.pl/ retrieved 11:18:52 11/17/09 (UMP-Tarnow/src/cities-Tarnow.pnt-converted.txt)"/>
  </node>
  <node id="581910404" version="2" timestamp="2010-04-11T04:53:44Z" uid="20587" user="balrog-kun" changeset="4389130" lat="49.9356" lon="20.82312">
    <tag k="name" v="Wielka Wieś"/>
    <tag k="place" v="village"/>
    <tag k="source" v="http://ump.waw.pl/ retrieved 11:18:52 11/17/09 (UMP-Tarnow/src/cities-Tarnow.pnt-converted.txt)"/>
  </node>
  <node id="581910404" version="3" timestamp="2010-04-11T13:17:27Z" uid="20587" user="balrog-kun" changeset="4392352" lat="49.9356" lon="20.82312">
    <tag k="name" v="Wielka Wieś"/>
    <tag k="place" v="village"/>
    <tag k="source" v="http://ump.waw.pl/ retrieved 11:18:52 11/17/09 (UMP-Tarnow/src/cities-Tarnow.pnt-converted.txt)"/>
  </node>
  <node id="581910562" version="2" timestamp="2010-04-11T04:53:44Z" uid="20587" user="balrog-kun" changeset="4389130" lat="49.95766" lon="20.80431">
    <tag k="name" v="Ratnawy"/>
    <tag k="place" v="village"/>
    <tag k="source" v="http://ump.waw.pl/ retrieved 11:18:52 11/17/09 (UMP-Tarnow/src/cities-Tarnow.pnt-converted.txt)"/>
  </node>
  <node id="581910562" version="3" timestamp="2010-04-11T13:17:27Z" uid="20587" user="balrog-kun" changeset="4392352" lat="49.95766" lon="20.80431">
    <tag k="name" v="Ratnawy"/>
    <tag k="place" v="village"/>
    <tag k="source" v="http://ump.waw.pl/ retrieved 11:18:52 11/17/09 (UMP-Tarnow/src/cities-Tarnow.pnt-converted.txt)"/>
  </node>
  <node id="581910600" version="2" timestamp="2010-04-11T04:53:44Z" uid="20587" user="balrog-kun" changeset="4389130" lat="49.945" lon="20.81248">
    <tag k="name" v="Więckowice"/>
    <tag k="place" v="village"/>
    <tag k="source" v="http://ump.waw.pl/ retrieved 11:18:52 11/17/09 (UMP-Tarnow/src/cities-Tarnow.pnt-converted.txt)"/>
  </node>
  <node id="581910600" version="3" timestamp="2010-04-11T13:17:27Z" uid="20587" user="balrog-kun" changeset="4392352" lat="49.945" lon="20.81248">
    <tag k="name" v="Więckowice"/>
    <tag k="place" v="village"/>
    <tag k="source" v="http://ump.waw.pl/ retrieved 11:18:52 11/17/09 (UMP-Tarnow/src/cities-Tarnow.pnt-converted.txt)"/>
  </node>
  <node id="581910809" version="2" timestamp="2010-04-11T04:53:44Z" uid="20587" user="balrog-kun" changeset="4389130" lat="49.98451" lon="20.75249">
    <tag k="name" v="Perła"/>
    <tag k="place" v="village"/>
    <tag k="source" v="http://ump.waw.pl/ retrieved 11:18:52 11/17/09 (UMP-Tarnow/src/cities-Tarnow.pnt-converted.txt)"/>
  </node>
  <node id="581910809" version="3" timestamp="2010-04-11T13:17:27Z" uid="20587" user="balrog-kun" changeset="4392352" lat="49.98451" lon="20.75249">
    <tag k="name" v="Perła"/>
    <tag k="place" v="village"/>
    <tag k="source" v="http://ump.waw.pl/ retrieved 11:18:52 11/17/09 (UMP-Tarnow/src/cities-Tarnow.pnt-converted.txt)"/>
  </node>
  <node id="581910809" version="4" timestamp="2010-04-27T03:56:21Z" uid="30632" user="antblant" changeset="4537843" lat="49.98451" lon="20.75249">
    <tag k="name" v="Perła"/>
    <tag k="place" v="village"/>
    <tag k="source" v="http://ump.waw.pl/ retrieved 11:18:52 11/17/09 (UMP-Tarnow/src/cities-Tarnow.pnt-converted.txt)"/>
    <tag k="teryt:simc" v="0819355"/>
  </node>
  <node id="581910899" version="2" timestamp="2010-04-11T04:53:44Z" uid="20587" user="balrog-kun" changeset="4389130" lat="49.96968" lon="20.77154">
    <tag k="name" v="Łopoń"/>
    <tag k="place" v="village"/>
    <tag k="source" v="http://ump.waw.pl/ retrieved 11:18:52 11/17/09 (UMP-Tarnow/src/cities-Tarnow.pnt-converted.txt)"/>
  </node>
  <node id="581910899" version="3" timestamp="2010-04-11T13:17:27Z" uid="20587" user="balrog-kun" changeset="4392352" lat="49.96968" lon="20.77154">
    <tag k="name" v="Łopoń"/>
    <tag k="place" v="village"/>
    <tag k="source" v="http://ump.waw.pl/ retrieved 11:18:52 11/17/09 (UMP-Tarnow/src/cities-Tarnow.pnt-converted.txt)"/>
  </node>
  <node id="581910899" version="4" timestamp="2010-04-27T04:13:47Z" uid="30632" user="antblant" changeset="4537892" lat="49.96968" lon="20.77154">
    <tag k="name" v="Łopoń"/>
    <tag k="place" v="village"/>
    <tag k="source" v="http://ump.waw.pl/ retrieved 11:18:52 11/17/09 (UMP-Tarnow/src/cities-Tarnow.pnt-converted.txt)"/>
    <tag k="teryt:simc" v="0835934"/>
  </node>
  <node id="581911029" version="2" timestamp="2010-04-11T04:53:44Z" uid="20587" user="balrog-kun" changeset="4389130" lat="49.9985078" lon="20.7481583">
    <tag k="name" v="Biadoliny Szlacheckie"/>
    <tag k="place" v="village"/>
    <tag k="source" v="http://ump.waw.pl/ retrieved 11:18:52 11/17/09 (UMP-Tarnow/src/cities-Tarnow.pnt-converted.txt)"/>
  </node>
  <node id="581911029" version="3" timestamp="2010-04-11T13:17:27Z" uid="20587" user="balrog-kun" changeset="4392352" lat="49.9964455" lon="20.7526276">
    <tag k="name" v="Biadoliny Szlacheckie"/>
    <tag k="place" v="village"/>
    <tag k="source" v="http://ump.waw.pl/ retrieved 11:18:52 11/17/09 (UMP-Tarnow/src/cities-Tarnow.pnt-converted.txt)"/>
  </node>
  <node id="581911029" version="4" timestamp="2010-04-27T04:10:43Z" uid="30632" user="antblant" changeset="4537882" lat="49.9964455" lon="20.7526276">
    <tag k="name" v="Biadoliny Szlacheckie"/>
    <tag k="place" v="village"/>
    <tag k="source" v="http://ump.waw.pl/ retrieved 11:18:52 11/17/09 (UMP-Tarnow/src/cities-Tarnow.pnt-converted.txt)"/>
    <tag k="teryt:simc" v="0818829"/>
  </node>
  <node id="581911340" version="2" timestamp="2010-04-11T04:53:44Z" uid="20587" user="balrog-kun" changeset="4389130" lat="49.93617" lon="20.84027">
    <tag k="name" v="Zawodzie"/>
    <tag k="place" v="village"/>
    <tag k="source" v="http://ump.waw.pl/ retrieved 11:18:52 11/17/09 (UMP-Tarnow/src/cities-Tarnow.pnt-converted.txt)"/>
  </node>
  <node id="581911340" version="3" timestamp="2010-04-11T13:17:27Z" uid="20587" user="balrog-kun" changeset="4392352" lat="49.93617" lon="20.84027">
    <tag k="name" v="Zawodzie"/>
    <tag k="place" v="village"/>
    <tag k="source" v="http://ump.waw.pl/ retrieved 11:18:52 11/17/09 (UMP-Tarnow/src/cities-Tarnow.pnt-converted.txt)"/>
  </node>
  <node id="581911375" version="2" timestamp="2010-04-11T04:53:45Z" uid="20587" user="balrog-kun" changeset="4389130" lat="49.92252" lon="20.85334">
    <tag k="name" v="Dąbrówka Szczepanowska"/>
    <tag k="place" v="village"/>
    <tag k="source" v="http://ump.waw.pl/ retrieved 11:18:52 11/17/09 (UMP-Tarnow/src/cities-Tarnow.pnt-converted.txt)"/>
  </node>
  <node id="581911375" version="3" timestamp="2010-04-11T13:17:27Z" uid="20587" user="balrog-kun" changeset="4392352" lat="49.92252" lon="20.85334">
    <tag k="name" v="Dąbrówka Szczepanowska"/>
    <tag k="place" v="village"/>
    <tag k="source" v="http://ump.waw.pl/ retrieved 11:18:52 11/17/09 (UMP-Tarnow/src/cities-Tarnow.pnt-converted.txt)"/>
  </node>
  <node id="581911375" version="4" timestamp="2010-04-27T04:01:26Z" uid="30632" user="antblant" changeset="4537859" lat="49.92252" lon="20.85334">
    <tag k="name" v="Dąbrówka Szczepanowska"/>
    <tag k="place" v="village"/>
    <tag k="source" v="http://ump.waw.pl/ retrieved 11:18:52 11/17/09 (UMP-Tarnow/src/cities-Tarnow.pnt-converted.txt)"/>
    <tag k="teryt:simc" v="0826600"/>
  </node>
  <node id="581911484" version="2" timestamp="2010-04-11T04:53:45Z" uid="20587" user="balrog-kun" changeset="4389130" lat="49.93912" lon="20.87081">
    <tag k="name" v="Nakle"/>
    <tag k="place" v="village"/>
    <tag k="source" v="http://ump.waw.pl/ retrieved 11:18:52 11/17/09 (UMP-Tarnow/src/cities-Tarnow.pnt-converted.txt)"/>
  </node>
  <node id="581911484" version="3" timestamp="2010-04-11T13:17:27Z" uid="20587" user="balrog-kun" changeset="4392352" lat="49.93912" lon="20.87081">
    <tag k="name" v="Nakle"/>
    <tag k="place" v="village"/>
    <tag k="source" v="http://ump.waw.pl/ retrieved 11:18:52 11/17/09 (UMP-Tarnow/src/cities-Tarnow.pnt-converted.txt)"/>
  </node>
  <node id="581911791" version="2" timestamp="2010-04-11T04:53:45Z" uid="20587" user="balrog-kun" changeset="4389130" lat="49.9631" lon="20.86498">
    <tag k="name" v="Łukanowice"/>
    <tag k="place" v="village"/>
    <tag k="source" v="http://ump.waw.pl/ retrieved 11:18:52 11/17/09 (UMP-Tarnow/src/cities-Tarnow.pnt-converted.txt)"/>
  </node>
  <node id="581911791" version="3" timestamp="2010-04-11T13:17:27Z" uid="20587" user="balrog-kun" changeset="4392352" lat="49.9631" lon="20.86498">
    <tag k="name" v="Łukanowice"/>
    <tag k="place" v="village"/>
    <tag k="source" v="http://ump.waw.pl/ retrieved 11:18:52 11/17/09 (UMP-Tarnow/src/cities-Tarnow.pnt-converted.txt)"/>
  </node>
  <node id="581911791" version="4" timestamp="2010-04-27T04:17:15Z" uid="30632" user="antblant" changeset="4537905" lat="49.9631" lon="20.86498">
    <tag k="name" v="Łukanowice"/>
    <tag k="place" v="village"/>
    <tag k="source" v="http://ump.waw.pl/ retrieved 11:18:52 11/17/09 (UMP-Tarnow/src/cities-Tarnow.pnt-converted.txt)"/>
    <tag k="teryt:simc" v="0835992"/>
  </node>
  <node id="581912176" version="2" timestamp="2010-04-11T04:53:45Z" uid="20587" user="balrog-kun" changeset="4389130" lat="49.97254" lon="20.83466">
    <tag k="name" v="Dębina Zakrzowska"/>
    <tag k="place" v="village"/>
    <tag k="source" v="http://ump.waw.pl/ retrieved 11:18:52 11/17/09 (UMP-Tarnow/src/cities-Tarnow.pnt-converted.txt)"/>
  </node>
  <node id="581912176" version="3" timestamp="2010-04-11T13:17:27Z" uid="20587" user="balrog-kun" changeset="4392352" lat="49.97254" lon="20.83466">
    <tag k="name" v="Dębina Zakrzowska"/>
    <tag k="place" v="village"/>
    <tag k="source" v="http://ump.waw.pl/ retrieved 11:18:52 11/17/09 (UMP-Tarnow/src/cities-Tarnow.pnt-converted.txt)"/>
  </node>
  <node id="581912176" version="4" timestamp="2010-04-27T04:01:01Z" uid="30632" user="antblant" changeset="4537859" lat="49.97254" lon="20.83466">
    <tag k="name" v="Dębina Zakrzowska"/>
    <tag k="place" v="village"/>
    <tag k="source" v="http://ump.waw.pl/ retrieved 11:18:52 11/17/09 (UMP-Tarnow/src/cities-Tarnow.pnt-converted.txt)"/>
    <tag k="teryt:simc" v="0835874"/>
  </node>
  <node id="581912338" version="2" timestamp="2010-04-11T04:53:45Z" uid="20587" user="balrog-kun" changeset="4389130" lat="49.97885" lon="20.83947">
    <tag k="name" v="Dębina Łętowska"/>
    <tag k="place" v="village"/>
    <tag k="source" v="http://ump.waw.pl/ retrieved 11:18:52 11/17/09 (UMP-Tarnow/src/cities-Tarnow.pnt-converted.txt)"/>
  </node>
  <node id="581912338" version="3" timestamp="2010-04-11T13:17:28Z" uid="20587" user="balrog-kun" changeset="4392352" lat="49.97885" lon="20.83947">
    <tag k="name" v="Dębina Łętowska"/>
    <tag k="place" v="village"/>
    <tag k="source" v="http://ump.waw.pl/ retrieved 11:18:52 11/17/09 (UMP-Tarnow/src/cities-Tarnow.pnt-converted.txt)"/>
  </node>
  <node id="581912338" version="4" timestamp="2010-04-27T04:11:03Z" uid="30632" user="antblant" changeset="4537882" lat="49.97885" lon="20.83947">
    <tag k="name" v="Dębina Łętowska"/>
    <tag k="place" v="village"/>
    <tag k="source" v="http://ump.waw.pl/ retrieved 11:18:52 11/17/09 (UMP-Tarnow/src/cities-Tarnow.pnt-converted.txt)"/>
    <tag k="teryt:simc" v="0835868"/>
  </node>
  <node id="581912499" version="2" timestamp="2010-04-11T04:53:45Z" uid="20587" user="balrog-kun" changeset="4389130" lat="49.982" lon="20.86857">
    <tag k="name" v="Mikołajowice"/>
    <tag k="place" v="village"/>
    <tag k="source" v="http://ump.waw.pl/ retrieved 11:18:52 11/17/09 (UMP-Tarnow/src/cities-Tarnow.pnt-converted.txt)"/>
  </node>
  <node id="581912499" version="3" timestamp="2010-04-11T13:17:28Z" uid="20587" user="balrog-kun" changeset="4392352" lat="49.982" lon="20.86857">
    <tag k="name" v="Mikołajowice"/>
    <tag k="place" v="village"/>
    <tag k="source" v="http://ump.waw.pl/ retrieved 11:18:52 11/17/09 (UMP-Tarnow/src/cities-Tarnow.pnt-converted.txt)"/>
  </node>
  <node id="581912533" version="2" timestamp="2010-04-11T04:53:45Z" uid="20587" user="balrog-kun" changeset="4389130" lat="49.99378" lon="20.84029">
    <tag k="name" v="Łętowice"/>
    <tag k="place" v="village"/>
    <tag k="source" v="http://ump.waw.pl/ retrieved 11:18:52 11/17/09 (UMP-Tarnow/src/cities-Tarnow.pnt-converted.txt)"/>
  </node>
  <node id="581912533" version="3" timestamp="2010-04-11T13:17:28Z" uid="20587" user="balrog-kun" changeset="4392352" lat="49.99378" lon="20.84029">
    <tag k="name" v="Łętowice"/>
    <tag k="place" v="village"/>
    <tag k="source" v="http://ump.waw.pl/ retrieved 11:18:52 11/17/09 (UMP-Tarnow/src/cities-Tarnow.pnt-converted.txt)"/>
  </node>
  <node id="581912900" version="2" timestamp="2010-04-11T04:53:45Z" uid="20587" user="balrog-kun" changeset="4389130" lat="49.99647" lon="20.88082">
    <tag k="name" v="Sieciechowice"/>
    <tag k="place" v="village"/>
    <tag k="source" v="http://ump.waw.pl/ retrieved 11:18:52 11/17/09 (UMP-Tarnow/src/cities-Tarnow.pnt-converted.txt)"/>
  </node>
  <node id="581912900" version="3" timestamp="2010-04-11T13:17:28Z" uid="20587" user="balrog-kun" changeset="4392352" lat="49.99647" lon="20.88082">
    <tag k="name" v="Sieciechowice"/>
    <tag k="place" v="village"/>
    <tag k="source" v="http://ump.waw.pl/ retrieved 11:18:52 11/17/09 (UMP-Tarnow/src/cities-Tarnow.pnt-converted.txt)"/>
  </node>
  <node id="581913008" version="2" timestamp="2010-04-11T04:53:45Z" uid="20587" user="balrog-kun" changeset="4389130" lat="50.0211788" lon="20.756813">
    <tag k="name" v="Biedacz"/>
    <tag k="place" v="hamlet"/>
    <tag k="source" v="http://ump.waw.pl/ retrieved 11:18:52 11/17/09 (UMP-Tarnow/src/cities-Tarnow.pnt-converted.txt)"/>
  </node>
  <node id="581913008" version="3" timestamp="2010-04-11T13:17:28Z" uid="20587" user="balrog-kun" changeset="4392352" lat="50.0200597" lon="20.7566728">
    <tag k="name" v="Biedacz"/>
    <tag k="place" v="hamlet"/>
    <tag k="source" v="http://ump.waw.pl/ retrieved 11:18:52 11/17/09 (UMP-Tarnow/src/cities-Tarnow.pnt-converted.txt)"/>
  </node>
  <node id="581913179" version="2" timestamp="2010-04-11T04:53:45Z" uid="20587" user="balrog-kun" changeset="4389130" lat="50.02746" lon="20.85994">
    <tag k="name" v="Wola"/>
    <tag k="place" v="village"/>
    <tag k="source" v="http://ump.waw.pl/ retrieved 11:18:52 11/17/09 (UMP-Tarnow/src/cities-Tarnow.pnt-converted.txt)"/>
  </node>
  <node id="581913179" version="3" timestamp="2010-04-11T13:17:28Z" uid="20587" user="balrog-kun" changeset="4392352" lat="50.02746" lon="20.85994">
    <tag k="name" v="Wola"/>
    <tag k="place" v="village"/>
    <tag k="source" v="http://ump.waw.pl/ retrieved 11:18:52 11/17/09 (UMP-Tarnow/src/cities-Tarnow.pnt-converted.txt)"/>
  </node>
  <node id="581913392" version="2" timestamp="2010-04-11T04:53:45Z" uid="20587" user="balrog-kun" changeset="4389130" lat="50.0153" lon="20.88216">
    <tag k="name" v="Ostrów"/>
    <tag k="place" v="village"/>
    <tag k="source" v="http://ump.waw.pl/ retrieved 11:18:52 11/17/09 (UMP-Tarnow/src/cities-Tarnow.pnt-converted.txt)"/>
  </node>
  <node id="581913392" version="3" timestamp="2010-04-11T13:17:28Z" uid="20587" user="balrog-kun" changeset="4392352" lat="50.0153" lon="20.88216">
    <tag k="name" v="Ostrów"/>
    <tag k="place" v="village"/>
    <tag k="source" v="http://ump.waw.pl/ retrieved 11:18:52 11/17/09 (UMP-Tarnow/src/cities-Tarnow.pnt-converted.txt)"/>
  </node>
  <node id="581913600" version="2" timestamp="2010-04-11T04:53:45Z" uid="20587" user="balrog-kun" changeset="4389130" lat="50.0635568" lon="20.9156142">
    <tag k="name" v="Bobrowniki Wielkie"/>
    <tag k="place" v="village"/>
  </node>
  <node id="581913600" version="3" timestamp="2010-04-11T13:17:28Z" uid="20587" user="balrog-kun" changeset="4392352" lat="50.0630797" lon="20.915766">
    <tag k="name" v="Bobrowniki Wielkie"/>
    <tag k="place" v="village"/>
  </node>
  <node id="581913600" version="4" timestamp="2010-04-27T04:13:34Z" uid="30632" user="antblant" changeset="4537892" lat="50.0630797" lon="20.915766">
    <tag k="name" v="Bobrowniki Wielkie"/>
    <tag k="place" v="village"/>
    <tag k="teryt:simc" v="0837614"/>
  </node>
  <node id="581918159" version="2" timestamp="2010-02-03T01:15:07Z" uid="30201" user="rrankin" changeset="3780262" lat="-33.8072646" lon="151.0859618"/>
</osm>
