<?xml version='1.0' encoding='UTF-8'?>
<osm version="0.6" generator="libosmium/2.20.0">
  <node id="581900681" version="3" timestamp="2010-04-11T04:53:43Z" uid="20587" user="balrog-kun" changeset="4389130" lat="49.9183445" lon="20.8797848">
    <tag k="name" v="Lubcza"/>
    <tag k="place" v="hamlet"/>
    <tag k="source" v="http://ump.waw.pl/ retrieved 11:18:52 11/17/09 (UMP-Tarnow/src/cities-Tarnow.pnt-converted.txt)"/>
  </node>
  <node id="581900681" version="4" timestamp="2010-04-11T13:17:25Z" uid="20587" user="balrog-kun" changeset="4392352" lat="49.9183293" lon="20.879444">
    <tag k="name" v="Lubcza"/>
    <tag k="place" v="hamlet"/>
    <tag k="source" v="http://ump.waw.pl/ retrieved 11:18:52 11/17/09 (UMP-Tarnow/src/cities-Tarnow.pnt-converted.txt)"/>
  </node>
  <node id="581901797" version="3" timestamp="2010-04-11T04:53:43Z" uid="20587" user="balrog-kun" changeset="4389130" lat="49.99002" lon="20.51615">
    <tag k="name" v="Rzezawa"/>
    <tag k="place" v="village"/>
    <tag k="source" v="http://ump.waw.pl/ retrieved 11:18:52 11/17/09 (UMP-Tarnow/src/cities-Tarnow.pnt-converted.txt)"/>
  </node>
  <node id="581901797" version="4" timestamp="2010-04-27T04:20:28Z" uid="30632" user="antblant" changeset="4537912" lat="49.99002" lon="20.51615">
    <tag k="name" v="Rzezawa"/>
    <tag k="place" v="village"/>
    <tag k="source" v="http://ump.waw.pl/ retrieved 11:18:52 11/17/09 (UMP-Tarnow/src/cities-Tarnow.pnt-converted.txt)"/>
    <tag k="teryt:simc" v="0830240"/>
  </node>
  <node id="581902107" version="2" timestamp="2010-04-11T04:53:43Z" uid="20587" user="balrog-kun" changeset="4389130" lat="49.9924443" lon="20.5443205">
    <tag k="name" v="Jodłówka"/>
    <tag k="note" v="this is not duplicated, or is duplicated in PRNG"/>
    <tag k="place" v="village"/>
    <tag k="source" v="http://ump.waw.pl/ retrieved 11:18:52 11/17/09 (UMP-Tarnow/src/cities-Tarnow.pnt-converted.txt)"/>
  </node>
  <node id="581902107" version="3" timestamp="2010-04-11T13:17:25Z" uid="20587" user="balrog-kun" changeset="4392352" lat="49.9917175" lon="20.5417879">
    <tag k="name" v="Jodłówka"/>
    <tag k="note" v="this is not duplicated, or is duplicated in PRNG"/>
    <tag k="place" v="village"/>
    <tag k="source" v="http://ump.waw.pl/ retrieved 11:18:52 11/17/09 (UMP-Tarnow/src/cities-Tarnow.pnt-converted.txt)"/>
  </node>
  <node id="581902458" version="2" timestamp="2010-04-11T04:53:43Z" uid="20587" user="balrog-kun" changeset="4389130" lat="50.03719" lon="20.55323">
    <tag k="name" v="Dąbrówka"/>
    <tag k="place" v="village"/>
    <tag k="source" v="http://ump.waw.pl/ retrieved 11:18:52 11/17/09 (UMP-Tarnow/src/cities-Tarnow.pnt-converted.txt)"/>
  </node>
  <node id="581902458" version="3" timestamp="2010-04-11T13:17:26Z" uid="20587" user="balrog-kun" changeset="4392352" lat="50.03719" lon="20.55323">
    <tag k="name" v="Dąbrówka"/>
    <tag k="place" v="village"/>
    <tag k="source" v="http://ump.waw.pl/ retrieved 11:18:52 11/17/09 (UMP-Tarnow/src/cities-Tarnow.pnt-converted.txt)"/>
  </node>
  <node id="581903562" version="2" timestamp="2010-04-11T04:53:43Z" uid="20587" user="balrog-kun" changeset="4389130" lat="49.9321378" lon="20.6303442">
    <tag k="name" v="Łazy"/>
    <tag k="place" v="village"/>
    <tag k="source" v="http://ump.waw.pl/ retrieved 11:18:52 11/17/09 (UMP-Tarnow/src/cities-Tarnow.pnt-converted.txt)"/>
  </node>
  <node id="581903562" version="3" timestamp="2010-04-11T13:17:26Z" uid="20587" user="balrog-kun" changeset="4392352" lat="49.9327325" lon="20.6321288">
    <tag k="name" v="Łazy"/>
    <tag k="place" v="village"/>
    <tag k="source" v="http://ump.waw.pl/ retrieved 11:18:52 11/17/09 (UMP-Tarnow/src/cities-Tarnow.pnt-converted.txt)"/>
  </node>
  <node id="581903632" version="2" timestamp="2010-04-11T04:53:43Z" uid="20587" user="balrog-kun" changeset="4389130" lat="49.93555" lon="20.63303">
    <tag k="name" v="Kamieniec"/>
    <tag k="place" v="village"/>
    <tag k="source" v="http://ump.waw.pl/ retrieved 11:18:52 11/17/09 (UMP-Tarnow/src/cities-Tarnow.pnt-converted.txt)"/>
  </node>
  <node id="581903632" version="3" timestamp="2010-04-11T13:17:26Z" uid="20587" user="balrog-kun" changeset="4392352" lat="49.93555" lon="20.63303">
    <tag k="name" v="Kamieniec"/>
    <tag k="place" v="village"/>
    <tag k="source" v="http://ump.waw.pl/ retrieved 11:18:52 11/17/09 (UMP-Tarnow/src/cities-Tarnow.pnt-converted.txt)"/>
  </node>
  <node id="581904154" version="3" timestamp="2010-04-11T04:53:43Z" uid="20587" user="balrog-kun" changeset="4389130" lat="49.9637706" lon="20.6470449">
    <tag k="name" v="Jadowniki"/>
    <tag k="place" v="village"/>
    <tag k="source" v="http://ump.waw.pl/ retrieved 11:18:52 11/17/09 (UMP-Tarnow/src/cities-Tarnow.pnt-converted.txt)"/>
  </node>
  <node id="581905225" version="2" timestamp="2010-04-11T04:53:43Z" uid="20587" user="balrog-kun" changeset="4389130" lat="50.00368" lon="20.60676">
    <tag k="name" v="Grądy"/>
    <tag k="place" v="village"/>
    <tag k="source" v="http://ump.waw.pl/ retrieved 11:18:52 11/17/09 (UMP-Tarnow/src/cities-Tarnow.pnt-converted.txt)"/>
  </node>
  <node id="581905225" version="3" timestamp="2010-04-11T13:17:26Z" uid="20587" user="balrog-kun" changeset="4392352" lat="50.00368" lon="20.60676">
    <tag k="name" v="Grądy"/>
    <tag k="place" v="village"/>
    <tag k="source" v="http://ump.waw.pl/ retrieved 11:18:52 11/17/09 (UMP-Tarnow/src/cities-Tarnow.pnt-converted.txt)"/>
  </node>
  <node id="581906825" version="2" timestamp="2010-04-11T04:53:43Z" uid="20587" user="balrog-kun" changeset="4389130" lat="49.92497" lon="20.68015">
    <tag k="name" v="Doły"/>
    <tag k="place" v="village"/>
    <tag k="source" v="http://ump.waw.pl/ retrieved 11:18:52 11/17/09 (UMP-Tarnow/src/cities-Tarnow.pnt-converted.txt)"/>
  </node>
  <node id="581906825" version="3" timestamp="2010-04-11T13:17:26Z" uid="20587" user="balrog-kun" changeset="4392352" lat="49.92497" lon="20.68015">
    <tag k="name" v="Doły"/>
    <tag k="place" v="village"/>
    <tag k="source" v="http://ump.waw.pl/ retrieved 11:18:52 11/17/09 (UMP-Tarnow/src/cities-Tarnow.pnt-converted.txt)"/>
  </node>
  <node id="581906927" version="2" timestamp="2010-04-11T04:53:43Z" uid="20587" user="balrog-kun" changeset="4389130" lat="49.92911" lon="20.69517">
    <tag k="name" v="Godów"/>
    <tag k="place" v="village"/>
    <tag k="source" v="http://ump.waw.pl/ retrieved 11:18:52 11/17/09 (UMP-Tarnow/src/cities-Tarnow.pnt-converted.txt)"/>
  </node>
  <node id="581906927" version="3" timestamp="2010-04-11T13:17:26Z" uid="20587" user="balrog-kun" changeset="4392352" lat="49.92911" lon="20.69517">
    <tag k="name" v="Godów"/>
    <tag k="place" v="village"/>
    <tag k="source" v="http://ump.waw.pl/ retrieved 11:18:52 11/17/09 (UMP-Tarnow/src/cities-Tarnow.pnt-converted.txt)"/>
  </node>
  <node id="581907017" version="2" timestamp="2010-04-11T04:53:43Z" uid="20587" user="balrog-kun" changeset="4389130" lat="49.94108" lon="20.68882">
    <tag k="name" v="Porąbka Uszewska"/>
    <tag k="place" v="town"/>
    <tag k="source" v="http://ump.waw.pl/ retrieved 11:18:52 11/17/09 (UMP-Tarnow/src/cities-Tarnow.pnt-converted.txt)"/>
  </node>
  <node id="581907017" version="3" timestamp="2010-04-11T13:17:26Z" uid="20587" user="balrog-kun" changeset="4392352" lat="49.94108" lon="20.68882">
    <tag k="name" v="Porąbka Uszewska"/>
    <tag k="place" v="town"/>
    <tag k="source" v="http://ump.waw.pl/ retrieved 11:18:52 11/17/09 (UMP-Tarnow/src/cities-Tarnow.pnt-converted.txt)"/>
  </node>
  <node id="581907017" version="4" timestamp="2010-04-27T04:00:49Z" uid="30632" user="antblant" changeset="4537859" lat="49.94108" lon="20.68882">
    <tag k="name" v="Porąbka Uszewska"/>
    <tag k="place" v="town"/>
    <tag k="source" v="http://ump.waw.pl/ retrieved 11:18:52 11/17/09 (UMP-Tarnow/src/cities-Tarnow.pnt-converted.txt)"/>
    <tag k="teryt:simc" v="0819378"/>
  </node>
  <node id="581907250" version="2" timestamp="2010-04-11T04:53:43Z" uid="20587" user="balrog-kun" changeset="4389130" lat="49.96006" lon="20.67745">
    <tag k="name" v="Jastew"/>
    <tag k="place" v="village"/>
    <tag k="source" v="http://ump.waw.pl/ retrieved 11:18:52 11/17/09 (UMP-Tarnow/src/cities-Tarnow.pnt-converted.txt)"/>
  </node>
  <node id="581907250" version="3" timestamp="2010-04-11T13:17:26Z" uid="20587" user="balrog-kun" changeset="4392352" lat="49.96006" lon="20.67745">
    <tag k="name" v="Jastew"/>
    <tag k="place" v="village"/>
    <tag k="source" v="http://ump.waw.pl/ retrieved 11:18:52 11/17/09 (UMP-Tarnow/src/cities-Tarnow.pnt-converted.txt)"/>
  </node>
  <node id="581907250" version="4" timestamp="2010-04-27T04:12:26Z" uid="30632" user="antblant" changeset="4537887" lat="49.96006" lon="20.67745">
    <tag k="name" v="Jastew"/>
    <tag k="place" v="village"/>
    <tag k="source" v="http://ump.waw.pl/ retrieved 11:18:52 11/17/09 (UMP-Tarnow/src/cities-Tarnow.pnt-converted.txt)"/>
    <tag k="teryt:simc" v="0818953"/>
  </node>
  <node id="581907561" version="2" timestamp="2010-04-11T04:53:43Z" uid="20587" user="balrog-kun" changeset="4389130" lat="49.93154" lon="20.73571">
    <tag k="name" v="Łysa Góra"/>
    <tag k="place" v="town"/>
    <tag k="source" v="http://ump.waw.pl/ retrieved 11:18:52 11/17/09 (UMP-Tarnow/src/cities-Tarnow.pnt-converted.txt)"/>
  </node>
  <node id="581907561" version="3" timestamp="2010-04-11T13:17:26Z" uid="20587" user="balrog-kun" changeset="4392352" lat="49.93154" lon="20.73571">
    <tag k="name" v="Łysa Góra"/>
    <tag k="place" v="town"/>
    <tag k="source" v="http://ump.waw.pl/ retrieved 11:18:52 11/17/09 (UMP-Tarnow/src/cities-Tarnow.pnt-converted.txt)"/>
  </node>
  <node id="581907738" version="3" timestamp="2010-04-11T04:53:44Z" uid="20587" user="balrog-kun" changeset="4389130" lat="49.9613601" lon="20.71686">
    <tag k="name" v="Dębno"/>
    <tag k="place" v="village"/>
    <tag k="source" v="http://ump.waw.pl/ retrieved 11:18:52 11/17/09 (UMP-Tarnow/src/cities-Tarnow.pnt-converted.txt)"/>
  </node>
  <node id="581907965" version="2" timestamp="2010-04-11T04:53:44Z" uid="20587" user="balrog-kun" changeset="4389130" lat="49.9855" lon="20.68792">
    <tag k="name" v="Maszkienice"/>
    <tag k="place" v="town"/>
    <tag k="source" v="http://ump.waw.pl/ retrieved 11:18:52 11/17/09 (UMP-Tarnow/src/cities-Tarnow.pnt-converted.txt)"/>
  </node>
  <node id="581907965" version="3" timestamp="2010-04-11T13:17:26Z" uid="20587" user="balrog-kun" changeset="4392352" lat="49.9855" lon="20.68792">
    <tag k="name" v="Maszkienice"/>
    <tag k="place" v="town"/>
    <tag k="source" v="http://ump.waw.pl/ retrieved 11:18:52 11/17/09 (UMP-Tarnow/src/cities-Tarnow.pnt-converted.txt)"/>
  </node>
  <node id="581907965" version="4" timestamp="2010-04-27T04:10:53Z" uid="30632" user="antblant" changeset="4537882" lat="49.9855" lon="20.68792">
    <tag k="name" v="Maszkienice"/>
    <tag k="place" v="town"/>
    <tag k="source" v="http://ump.waw.pl/ retrieved 11:18:52 11/17/09 (UMP-Tarnow/src/cities-Tarnow.pnt-converted.txt)"/>
    <tag k="teryt:simc" v="0819237"/>
  </node>
  <node id="581908150" version="2" timestamp="2010-04-11T04:53:44Z" uid="20587" user="balrog-kun" changeset="4389130" lat="49.99538" lon="20.67905">
    <tag k="name" v="Sterkowiec"/>
    <tag k="place" v="village"/>
    <tag k="source" v="http://ump.waw.pl/ retrieved 11:18:52 11/17/09 (UMP-Tarnow/src/cities-Tarnow.pnt-converted.txt)"/>
  </node>
  <node id="581908150" version="3" timestamp="2010-04-11T13:17:26Z" uid="20587" user="balrog-kun" changeset="4392352" lat="49.99538" lon="20.67905">
    <tag k="name" v="Sterkowiec"/>
    <tag k="place" v="village"/>
    <tag k="source" v="http://ump.waw.pl/ retrieved 11:18:52 11/17/09 (UMP-Tarnow/src/cities-Tarnow.pnt-converted.txt)"/>
  </node>
  <node id="581908150" version="4" timestamp="2010-04-27T04:16:59Z" uid="30632" user="antblant" changeset="4537905" lat="49.99538" lon="20.67905">
    <tag k="name" v="Sterkowiec"/>
    <tag k="place" v="village"/>
    <tag k="source" v="http://ump.waw.pl/ retrieved 11:18:52 11/17/09 (UMP-Tarnow/src/cities-Tarnow.pnt-converted.txt)"/>
    <tag k="teryt:simc" v="0814375"/>
  </node>
  <node id="581908416" version="2" timestamp="2010-04-11T04:53:44Z" uid="20587" user="balrog-kun" changeset="4389130" lat="49.9916722" lon="20.7022415">
    <tag k="name" v="Podlesie"/>
    <tag k="place" v="hamlet"/>
  </node>
  <node id="581908416" version="3" timestamp="2010-04-11T13:17:26Z" uid="20587" user="balrog-kun" changeset="4392352" lat="49.9923889" lon="20.7020493">
    <tag k="name" v="Podlesie"/>
    <tag k="place" v="hamlet"/>
  </node>
  <node id="581908680" version="2" timestamp="2010-04-11T04:53:44Z" uid="20587" user="balrog-kun" changeset="4389130" lat="50.01018" lon="20.59975">
    <tag k="name" v="Kosiarnia"/>
    <tag k="place" v="village"/>
    <tag k="source" v="http://ump.waw.pl/ retrieved 11:18:52 11/17/09 (UMP-Tarnow/src/cities-Tarnow.pnt-converted.txt)"/>
  </node>
  <node id="581908680" version="3" timestamp="2010-04-11T13:17:27Z" uid="20587" user="balrog-kun" changeset="4392352" lat="50.01018" lon="20.59975">
    <tag k="name" v="Kosiarnia"/>
    <tag k="place" v="village"/>
    <tag k="source" v="http://ump.waw.pl/ retrieved 11:18:52 11/17/09 (UMP-Tarnow/src/cities-Tarnow.pnt-converted.txt)"/>
  </node>
  <node id="581908794" version="2" timestamp="2010-04-11T04:53:44Z" uid="20587" user="balrog-kun" changeset="4389130" lat="50.0330208" lon="20.5971262">
    <tag k="name" v="Bucze"/>
    <tag k="place" v="village"/>
    <tag k="source" v="http://ump.waw.pl/ retrieved 11:18:52 11/17/09 (UMP-Tarnow/src/cities-Tarnow.pnt-converted.txt)"/>
  </node>
  <node id="581908794" version="3" timestamp="2010-04-11T13:17:27Z" uid="20587" user="balrog-kun" changeset="4392352" lat="50.0327469" lon="20.5959031">
    <tag k="name" v="Bucze"/>
    <tag k="place" v="village"/>
    <tag k="source" v="http://ump.waw.pl/ retrieved 11:18:52 11/17/09 (UMP-Tarnow/src/cities-Tarnow.pnt-converted.txt)"/>
  </node>
  <node id="581908958" version="2" timestamp="2010-04-11T04:53:44Z" uid="20587" user="balrog-kun" changeset="4389130" lat="50.03054" lon="20.64146">
    <tag k="name" v="Buczyna"/>
    <tag k="place" v="village"/>
    <tag k="source" v="http://ump.waw.pl/ retrieved 11:18:52 11/17/09 (UMP-Tarnow/src/cities-Tarnow.pnt-converted.txt)"/>
  </node>
  <node id="581908958" version="3" timestamp="2010-04-11T13:17:27Z" uid="20587" user="balrog-kun" changeset="4392352" lat="50.03054" lon="20.64146">
    <tag k="name" v="Buczyna"/>
    <tag k="place" v="village"/>
    <tag k="source" v="http://ump.waw.pl/ retrieved 11:18:52 11/17/09 (UMP-Tarnow/src/cities-Tarnow.pnt-converted.txt)"/>
  </node>
  <node id="581909251" version="2" timestamp="2010-04-11T04:53:44Z" uid="20587" user="balrog-kun" changeset="4389130" lat="50.0181582" lon="20.6897731">
    <tag k="name" v="Łęki"/>
    <tag k="place" v="village"/>
    <tag k="source" v="http://ump.waw.pl/ retrieved 11:18:52 11/17/09 (UMP-Tarnow/src/cities-Tarnow.pnt-converted.txt)"/>
  </node>
  <node id="581909251" version="3" timestamp="2010-04-11T13:17:27Z" uid="20587" user="balrog-kun" changeset="4392352" lat="50.0167046" lon="20.6910344">
    <tag k="name" v="Łęki"/>
    <tag k="place" v="village"/>
    <tag k="source" v="http://ump.waw.pl/ retrieved 11:18:52 11/17/09 (UMP-Tarnow/src/cities-Tarnow.pnt-converted.txt)"/>
  </node>
  <node id="581909525" version="2" timestamp="2011-04-11T12:32:21Z" uid="7617" user="Franc" changeset="7832593" lat="-33.7919743" lon="150.9969929"/>
  <node id="581909686" version="2" timestamp="2011-04-11T12:32:07Z" uid="7617" user="Franc" changeset="7832593" lat="-33.7920754" lon="150.9970327"/>
</osm>
