<?xml version='1.0' encoding='UTF-8'?>
<osm version="0.6" generator="libosmium/2.20.0">
  <node id="582532594" version="2" timestamp="2010-07-28T20:10:59Z" uid="74617" user="JohnSmith" changeset="5339329" lat="60.2161561" lon="24.9682816">
    <tag k="emergency" v="fire_hydrant"/>
    <tag k="location" v="underground"/>
  </node>
  <node id="582532594" version="3" timestamp="2010-07-30T17:38:31Z" uid="74617" user="JohnSmith" changeset="5356742" lat="60.2161561" lon="24.9682816">
    <tag k="amenity" v="fire_hydrant"/>
    <tag k="emergency" v="fire_hydrant"/>
    <tag k="location" v="underground"/>
  </node>
  <node id="582535727" version="2" timestamp="2010-11-02T16:31:47Z" uid="115477" user="wowik" changeset="6269217" lat="54.1097255" lon="24.4877411">
    <tag k="name" v="Zervynos"/>
    <tag k="name:run" v="Зярвинос"/>
    <tag k="railway" v="station"/>
  </node>
  <node id="582535727" version="3" timestamp="2010-11-09T12:03:54Z" uid="115477" user="wowik" changeset="6327462" lat="54.1097255" lon="24.4877411">
    <tag k="name" v="Zervynos"/>
    <tag k="name:ru" v="Зярвинос"/>
    <tag k="railway" v="station"/>
  </node>
  <node id="582538641" version="2" timestamp="2010-05-19T13:50:24Z" uid="115477" user="wowik" changeset="4748314" lat="56.0393568" lon="36.8012718"/>
  <node id="582538645" version="2" timestamp="2010-05-19T13:50:24Z" uid="115477" user="wowik" changeset="4748314" lat="56.036384" lon="36.8037179"/>
</osm>
