<?xml version='1.0' encoding='UTF-8'?>
<osm version="0.6" generator="libosmium/2.20.0">
  <node id="583050338" version="2" timestamp="2010-04-11T04:53:48Z" uid="20587" user="balrog-kun" changeset="4389130" lat="49.9239676" lon="21.0074126">
    <tag k="name" v="Piotrkowice"/>
    <tag k="place" v="village"/>
    <tag k="source" v="http://ump.waw.pl/ retrieved 11:18:52 11/17/09 (UMP-Tarnow/src/cities-Tarnow.pnt-converted.txt)"/>
  </node>
  <node id="583050338" version="3" timestamp="2010-04-11T13:17:29Z" uid="20587" user="balrog-kun" changeset="4392352" lat="49.9242751" lon="21.0045465">
    <tag k="name" v="Piotrkowice"/>
    <tag k="place" v="village"/>
    <tag k="source" v="http://ump.waw.pl/ retrieved 11:18:52 11/17/09 (UMP-Tarnow/src/cities-Tarnow.pnt-converted.txt)"/>
  </node>
  <node id="583050436" version="2" timestamp="2010-04-11T04:53:48Z" uid="20587" user="balrog-kun" changeset="4389130" lat="49.95684" lon="20.96352">
    <tag k="name" v="Świebodzin"/>
    <tag k="place" v="village"/>
    <tag k="source" v="http://ump.waw.pl/ retrieved 11:18:52 11/17/09 (UMP-Tarnow/src/cities-Tarnow.pnt-converted.txt)"/>
  </node>
  <node id="583050436" version="3" timestamp="2010-04-11T13:17:29Z" uid="20587" user="balrog-kun" changeset="4392352" lat="49.95684" lon="20.96352">
    <tag k="name" v="Świebodzin"/>
    <tag k="place" v="village"/>
    <tag k="source" v="http://ump.waw.pl/ retrieved 11:18:52 11/17/09 (UMP-Tarnow/src/cities-Tarnow.pnt-converted.txt)"/>
  </node>
  <node id="583050550" version="2" timestamp="2010-04-11T04:53:48Z" uid="20587" user="balrog-kun" changeset="4389130" lat="49.95676" lon="21.00032">
    <tag k="name" v="Poręba Radlna"/>
    <tag k="place" v="village"/>
    <tag k="source" v="http://ump.waw.pl/ retrieved 11:18:52 11/17/09 (UMP-Tarnow/src/cities-Tarnow.pnt-converted.txt)"/>
  </node>
  <node id="583050550" version="3" timestamp="2010-04-11T13:17:29Z" uid="20587" user="balrog-kun" changeset="4392352" lat="49.95676" lon="21.00032">
    <tag k="name" v="Poręba Radlna"/>
    <tag k="place" v="village"/>
    <tag k="source" v="http://ump.waw.pl/ retrieved 11:18:52 11/17/09 (UMP-Tarnow/src/cities-Tarnow.pnt-converted.txt)"/>
  </node>
  <node id="583050550" version="4" timestamp="2010-04-27T04:05:57Z" uid="30632" user="antblant" changeset="4537871" lat="49.95676" lon="21.00032">
    <tag k="name" v="Poręba Radlna"/>
    <tag k="place" v="village"/>
    <tag k="source" v="http://ump.waw.pl/ retrieved 11:18:52 11/17/09 (UMP-Tarnow/src/cities-Tarnow.pnt-converted.txt)"/>
    <tag k="teryt:simc" v="0832976"/>
  </node>
  <node id="583051256" version="2" timestamp="2010-04-11T04:53:48Z" uid="20587" user="balrog-kun" changeset="4389130" lat="49.9509071" lon="21.0338005">
    <tag k="name" v="Łękawka"/>
    <tag k="place" v="village"/>
    <tag k="source" v="http://ump.waw.pl/ retrieved 11:18:52 11/17/09 (UMP-Tarnow/src/cities-Tarnow.pnt-converted.txt)"/>
  </node>
  <node id="583051256" version="3" timestamp="2010-04-11T13:17:29Z" uid="20587" user="balrog-kun" changeset="4392352" lat="49.9485616" lon="21.0315378">
    <tag k="name" v="Łękawka"/>
    <tag k="place" v="village"/>
    <tag k="source" v="http://ump.waw.pl/ retrieved 11:18:52 11/17/09 (UMP-Tarnow/src/cities-Tarnow.pnt-converted.txt)"/>
  </node>
  <node id="583051256" version="4" timestamp="2010-04-27T04:01:27Z" uid="30632" user="antblant" changeset="4537859" lat="49.9485616" lon="21.0315378">
    <tag k="name" v="Łękawka"/>
    <tag k="place" v="village"/>
    <tag k="source" v="http://ump.waw.pl/ retrieved 11:18:52 11/17/09 (UMP-Tarnow/src/cities-Tarnow.pnt-converted.txt)"/>
    <tag k="teryt:simc" v="0832918"/>
  </node>
  <node id="583051418" version="2" timestamp="2010-04-11T04:53:48Z" uid="20587" user="balrog-kun" changeset="4389130" lat="49.92445" lon="21.06998">
    <tag k="name" v="Karwodrza"/>
    <tag k="place" v="village"/>
    <tag k="source" v="http://ump.waw.pl/ retrieved 11:18:52 11/17/09 (UMP-Tarnow/src/cities-Tarnow.pnt-converted.txt)"/>
  </node>
  <node id="583051418" version="3" timestamp="2010-04-11T13:17:30Z" uid="20587" user="balrog-kun" changeset="4392352" lat="49.92445" lon="21.06998">
    <tag k="name" v="Karwodrza"/>
    <tag k="place" v="village"/>
    <tag k="source" v="http://ump.waw.pl/ retrieved 11:18:52 11/17/09 (UMP-Tarnow/src/cities-Tarnow.pnt-converted.txt)"/>
  </node>
  <node id="583051418" version="4" timestamp="2010-04-27T04:07:42Z" uid="30632" user="antblant" changeset="4537875" lat="49.92445" lon="21.06998">
    <tag k="name" v="Karwodrza"/>
    <tag k="place" v="village"/>
    <tag k="source" v="http://ump.waw.pl/ retrieved 11:18:52 11/17/09 (UMP-Tarnow/src/cities-Tarnow.pnt-converted.txt)"/>
    <tag k="teryt:simc" v="0834099"/>
  </node>
  <node id="583051436" version="2" timestamp="2010-04-11T04:53:48Z" uid="20587" user="balrog-kun" changeset="4389130" lat="49.93272" lon="21.07388">
    <tag k="name" v="Góra"/>
    <tag k="place" v="village"/>
    <tag k="source" v="http://ump.waw.pl/ retrieved 11:18:52 11/17/09 (UMP-Tarnow/src/cities-Tarnow.pnt-converted.txt)"/>
  </node>
  <node id="583051436" version="3" timestamp="2010-04-11T13:17:30Z" uid="20587" user="balrog-kun" changeset="4392352" lat="49.93272" lon="21.07388">
    <tag k="name" v="Góra"/>
    <tag k="place" v="village"/>
    <tag k="source" v="http://ump.waw.pl/ retrieved 11:18:52 11/17/09 (UMP-Tarnow/src/cities-Tarnow.pnt-converted.txt)"/>
  </node>
  <node id="583051520" version="3" timestamp="2011-03-19T04:59:12Z" uid="4467" user="Rosscoe" changeset="7601400" lat="-37.7177367" lon="144.8097642"/>
  <node id="583052101" version="2" timestamp="2010-04-11T04:53:48Z" uid="20587" user="balrog-kun" changeset="4389130" lat="49.8673682" lon="21.1758493">
    <tag k="name" v="Liciąż Wielka"/>
    <tag k="place" v="village"/>
    <tag k="source" v="http://ump.waw.pl/ retrieved 11:18:52 11/17/09 (UMP-Tarnow/src/cities-Tarnow.pnt-converted.txt)"/>
  </node>
  <node id="583052101" version="3" timestamp="2010-04-11T13:17:30Z" uid="20587" user="balrog-kun" changeset="4392352" lat="49.8662274" lon="21.1755919">
    <tag k="name" v="Liciąż Wielka"/>
    <tag k="place" v="village"/>
    <tag k="source" v="http://ump.waw.pl/ retrieved 11:18:52 11/17/09 (UMP-Tarnow/src/cities-Tarnow.pnt-converted.txt)"/>
  </node>
  <node id="583052440" version="2" timestamp="2010-04-11T04:53:48Z" uid="20587" user="balrog-kun" changeset="4389130" lat="49.8891407" lon="21.0995526">
    <tag k="name" v="Bistuszowa"/>
    <tag k="place" v="village"/>
    <tag k="source" v="http://ump.waw.pl/ retrieved 11:18:52 11/17/09 (UMP-Tarnow/src/cities-Tarnow.pnt-converted.txt)"/>
  </node>
  <node id="583052440" version="3" timestamp="2010-04-11T13:17:30Z" uid="20587" user="balrog-kun" changeset="4392352" lat="49.8910482" lon="21.100518">
    <tag k="name" v="Bistuszowa"/>
    <tag k="place" v="village"/>
    <tag k="source" v="http://ump.waw.pl/ retrieved 11:18:52 11/17/09 (UMP-Tarnow/src/cities-Tarnow.pnt-converted.txt)"/>
  </node>
  <node id="583052440" version="4" timestamp="2010-04-27T03:58:00Z" uid="30632" user="antblant" changeset="4537850" lat="49.8910482" lon="21.100518">
    <tag k="name" v="Bistuszowa"/>
    <tag k="place" v="village"/>
    <tag k="source" v="http://ump.waw.pl/ retrieved 11:18:52 11/17/09 (UMP-Tarnow/src/cities-Tarnow.pnt-converted.txt)"/>
    <tag k="teryt:simc" v="0828785"/>
  </node>
  <node id="583052856" version="2" timestamp="2010-04-11T04:53:49Z" uid="20587" user="balrog-kun" changeset="4389130" lat="49.9188532" lon="21.1048717">
    <tag k="name" v="Podlesie"/>
    <tag k="place" v="hamlet"/>
    <tag k="source" v="http://ump.waw.pl/ retrieved 11:18:52 11/17/09 (UMP-Tarnow/src/cities-Tarnow.pnt-converted.txt)"/>
  </node>
  <node id="583052856" version="3" timestamp="2010-04-11T13:17:30Z" uid="20587" user="balrog-kun" changeset="4392352" lat="49.9178431" lon="21.1052538">
    <tag k="name" v="Podlesie"/>
    <tag k="place" v="hamlet"/>
    <tag k="source" v="http://ump.waw.pl/ retrieved 11:18:52 11/17/09 (UMP-Tarnow/src/cities-Tarnow.pnt-converted.txt)"/>
  </node>
  <node id="583053050" version="2" timestamp="2010-04-11T04:53:49Z" uid="20587" user="balrog-kun" changeset="4389130" lat="49.8795872" lon="21.1379305">
    <tag k="name" v="Ryglice"/>
    <tag k="place" v="town"/>
    <tag k="source" v="http://ump.waw.pl/ retrieved 11:18:52 11/17/09 (UMP-Tarnow/src/cities-Tarnow.pnt-converted.txt)"/>
  </node>
  <node id="583053050" version="3" timestamp="2010-04-11T13:17:30Z" uid="20587" user="balrog-kun" changeset="4392352" lat="49.8787888" lon="21.1381236">
    <tag k="name" v="Ryglice"/>
    <tag k="place" v="town"/>
    <tag k="source" v="http://ump.waw.pl/ retrieved 11:18:52 11/17/09 (UMP-Tarnow/src/cities-Tarnow.pnt-converted.txt)"/>
  </node>
  <node id="583053050" version="4" timestamp="2010-04-27T04:19:54Z" uid="30632" user="antblant" changeset="4537912" lat="49.8787888" lon="21.1381236">
    <tag k="name" v="Ryglice"/>
    <tag k="place" v="town"/>
    <tag k="source" v="http://ump.waw.pl/ retrieved 11:18:52 11/17/09 (UMP-Tarnow/src/cities-Tarnow.pnt-converted.txt)"/>
    <tag k="teryt:simc" v="0829098"/>
  </node>
  <node id="583055624" version="3" timestamp="2011-03-19T04:59:14Z" uid="4467" user="Rosscoe" changeset="7601400" lat="-37.7210566" lon="144.8140337"/>
  <node id="583055629" version="2" timestamp="2011-03-19T04:59:20Z" uid="4467" user="Rosscoe" changeset="7601400" lat="-37.7209371" lon="144.8135778"/>
  <node id="583055633" version="3" timestamp="2011-03-19T04:59:15Z" uid="4467" user="Rosscoe" changeset="7601400" lat="-37.7211549" lon="144.8141601"/>
  <node id="583055635" version="3" timestamp="2011-03-19T04:58:58Z" uid="4467" user="Rosscoe" changeset="7601400" lat="-37.721295" lon="144.8143304"/>
  <node id="583055637" version="3" timestamp="2011-03-19T04:59:16Z" uid="4467" user="Rosscoe" changeset="7601400" lat="-37.721733" lon="144.8146098"/>
  <node id="583055643" version="3" timestamp="2011-03-19T04:59:21Z" uid="4467" user="Rosscoe" changeset="7601400" lat="-37.7223512" lon="144.8147782"/>
  <node id="583055647" version="3" timestamp="2011-03-19T04:58:56Z" uid="4467" user="Rosscoe" changeset="7601400" lat="-37.7233088" lon="144.8149145"/>
  <node id="583055649" version="3" timestamp="2011-03-19T04:59:19Z" uid="4467" user="Rosscoe" changeset="7601400" lat="-37.7238571" lon="144.8148912"/>
  <node id="583055650" version="3" timestamp="2011-03-19T04:58:57Z" uid="4467" user="Rosscoe" changeset="7601400" lat="-37.7241418" lon="144.8149325"/>
  <node id="583055651" version="3" timestamp="2011-03-19T04:59:07Z" uid="4467" user="Rosscoe" changeset="7601400" lat="-37.7243553" lon="144.815037"/>
  <node id="583055657" version="3" timestamp="2011-03-19T04:59:14Z" uid="4467" user="Rosscoe" changeset="7601400" lat="-37.725027" lon="144.8153946"/>
  <node id="583055661" version="4" timestamp="2011-03-19T04:59:16Z" uid="4467" user="Rosscoe" changeset="7601400" lat="-37.7255171" lon="144.8156292"/>
  <node id="583055663" version="4" timestamp="2011-03-19T04:59:00Z" uid="4467" user="Rosscoe" changeset="7601400" lat="-37.7257526" lon="144.8156681"/>
  <node id="583055665" version="4" timestamp="2011-03-19T04:59:08Z" uid="4467" user="Rosscoe" changeset="7601400" lat="-37.7259796" lon="144.8156832"/>
  <node id="583055667" version="3" timestamp="2011-03-19T04:59:21Z" uid="4467" user="Rosscoe" changeset="7601400" lat="-37.7262274" lon="144.8156151"/>
  <node id="583055668" version="3" timestamp="2011-03-19T04:59:01Z" uid="4467" user="Rosscoe" changeset="7601400" lat="-37.7265699" lon="144.8153765"/>
  <node id="583055670" version="3" timestamp="2011-03-19T04:59:19Z" uid="4467" user="Rosscoe" changeset="7601400" lat="-37.7267901" lon="144.8152308"/>
  <node id="583055673" version="3" timestamp="2011-03-19T04:58:59Z" uid="4467" user="Rosscoe" changeset="7601400" lat="-37.727102" lon="144.814978"/>
  <node id="583055674" version="3" timestamp="2011-03-19T04:59:12Z" uid="4467" user="Rosscoe" changeset="7601400" lat="-37.7276644" lon="144.8142121"/>
  <node id="583057783" version="2" timestamp="2010-04-11T04:53:49Z" uid="20587" user="balrog-kun" changeset="4389130" lat="49.8991081" lon="21.1587096">
    <tag k="name" v="Bukowina"/>
    <tag k="place" v="hamlet"/>
    <tag k="source" v="http://ump.waw.pl/ retrieved 11:18:52 11/17/09 (UMP-Tarnow/src/cities-Tarnow.pnt-converted.txt)"/>
  </node>
  <node id="583057783" version="3" timestamp="2010-04-11T13:17:30Z" uid="20587" user="balrog-kun" changeset="4392352" lat="49.8994501" lon="21.1604151">
    <tag k="name" v="Bukowina"/>
    <tag k="place" v="hamlet"/>
    <tag k="source" v="http://ump.waw.pl/ retrieved 11:18:52 11/17/09 (UMP-Tarnow/src/cities-Tarnow.pnt-converted.txt)"/>
  </node>
  <node id="583058181" version="2" timestamp="2010-04-11T04:53:49Z" uid="20587" user="balrog-kun" changeset="4389130" lat="49.87139" lon="21.24">
    <tag k="name" v="Gilowa"/>
    <tag k="place" v="village"/>
    <tag k="source" v="http://ump.waw.pl/ retrieved 11:18:52 11/17/09 (UMP-Tarnow/src/cities-Tarnow.pnt-converted.txt)"/>
  </node>
  <node id="583058181" version="3" timestamp="2010-04-11T13:17:30Z" uid="20587" user="balrog-kun" changeset="4392352" lat="49.87139" lon="21.24">
    <tag k="name" v="Gilowa"/>
    <tag k="place" v="village"/>
    <tag k="source" v="http://ump.waw.pl/ retrieved 11:18:52 11/17/09 (UMP-Tarnow/src/cities-Tarnow.pnt-converted.txt)"/>
  </node>
  <node id="583058232" version="2" timestamp="2010-04-11T04:53:49Z" uid="20587" user="balrog-kun" changeset="4389130" lat="49.884199" lon="21.1859509">
    <tag k="name" v="Joniny"/>
    <tag k="place" v="village"/>
    <tag k="source" v="http://ump.waw.pl/ retrieved 11:18:52 11/17/09 (UMP-Tarnow/src/cities-Tarnow.pnt-converted.txt)"/>
  </node>
  <node id="583058232" version="3" timestamp="2010-04-11T13:17:30Z" uid="20587" user="balrog-kun" changeset="4392352" lat="49.8844685" lon="21.1871898">
    <tag k="name" v="Joniny"/>
    <tag k="place" v="village"/>
    <tag k="source" v="http://ump.waw.pl/ retrieved 11:18:52 11/17/09 (UMP-Tarnow/src/cities-Tarnow.pnt-converted.txt)"/>
  </node>
  <node id="583058232" version="4" timestamp="2010-04-27T03:59:15Z" uid="30632" user="antblant" changeset="4537857" lat="49.8844685" lon="21.1871898">
    <tag k="name" v="Joniny"/>
    <tag k="place" v="village"/>
    <tag k="source" v="http://ump.waw.pl/ retrieved 11:18:52 11/17/09 (UMP-Tarnow/src/cities-Tarnow.pnt-converted.txt)"/>
    <tag k="teryt:simc" v="0828816"/>
  </node>
  <node id="583058327" version="2" timestamp="2010-04-11T04:53:49Z" uid="20587" user="balrog-kun" changeset="4389130" lat="49.88149" lon="21.20876">
    <tag k="name" v="Kowalowa"/>
    <tag k="place" v="village"/>
    <tag k="source" v="http://ump.waw.pl/ retrieved 11:18:52 11/17/09 (UMP-Tarnow/src/cities-Tarnow.pnt-converted.txt)"/>
  </node>
  <node id="583058327" version="3" timestamp="2010-04-11T13:17:30Z" uid="20587" user="balrog-kun" changeset="4392352" lat="49.88149" lon="21.20876">
    <tag k="name" v="Kowalowa"/>
    <tag k="place" v="village"/>
    <tag k="source" v="http://ump.waw.pl/ retrieved 11:18:52 11/17/09 (UMP-Tarnow/src/cities-Tarnow.pnt-converted.txt)"/>
  </node>
  <node id="583058619" version="2" timestamp="2010-04-11T04:53:49Z" uid="20587" user="balrog-kun" changeset="4389130" lat="49.90612" lon="21.21919">
    <tag k="name" v="Nagórze"/>
    <tag k="place" v="village"/>
    <tag k="source" v="http://ump.waw.pl/ retrieved 11:18:52 11/17/09 (UMP-Tarnow/src/cities-Tarnow.pnt-converted.txt)"/>
  </node>
  <node id="583058619" version="3" timestamp="2010-04-11T13:17:30Z" uid="20587" user="balrog-kun" changeset="4392352" lat="49.90612" lon="21.21919">
    <tag k="name" v="Nagórze"/>
    <tag k="place" v="village"/>
    <tag k="source" v="http://ump.waw.pl/ retrieved 11:18:52 11/17/09 (UMP-Tarnow/src/cities-Tarnow.pnt-converted.txt)"/>
  </node>
  <node id="583058619" version="4" timestamp="2010-04-27T03:57:53Z" uid="30632" user="antblant" changeset="4537850" lat="49.90612" lon="21.21919">
    <tag k="name" v="Nagórze"/>
    <tag k="place" v="village"/>
    <tag k="source" v="http://ump.waw.pl/ retrieved 11:18:52 11/17/09 (UMP-Tarnow/src/cities-Tarnow.pnt-converted.txt)"/>
    <tag k="teryt:simc" v="0190851"/>
  </node>
  <node id="583059233" version="2" timestamp="2010-04-11T04:53:49Z" uid="20587" user="balrog-kun" changeset="4389130" lat="49.9059099" lon="21.2652344">
    <tag k="name" v="Lubcza"/>
    <tag k="place" v="village"/>
    <tag k="source" v="http://ump.waw.pl/ retrieved 11:18:52 11/17/09 (UMP-Tarnow/src/cities-Tarnow.pnt-converted.txt)"/>
  </node>
  <node id="583059233" version="3" timestamp="2010-04-11T13:17:30Z" uid="20587" user="balrog-kun" changeset="4392352" lat="49.9054855" lon="21.2658192">
    <tag k="name" v="Lubcza"/>
    <tag k="place" v="village"/>
    <tag k="source" v="http://ump.waw.pl/ retrieved 11:18:52 11/17/09 (UMP-Tarnow/src/cities-Tarnow.pnt-converted.txt)"/>
  </node>
  <node id="583059466" version="2" timestamp="2010-04-11T04:53:49Z" uid="20587" user="balrog-kun" changeset="4389130" lat="49.8772393" lon="21.3070865">
    <tag k="name" v="Jodłowa"/>
    <tag k="place" v="village"/>
    <tag k="source" v="http://ump.waw.pl/ retrieved 11:18:52 11/17/09 (UMP-Tarnow/src/cities-Tarnow.pnt-converted.txt)"/>
  </node>
  <node id="583059466" version="3" timestamp="2010-04-11T13:17:30Z" uid="20587" user="balrog-kun" changeset="4392352" lat="49.8769261" lon="21.3052679">
    <tag k="name" v="Jodłowa"/>
    <tag k="place" v="village"/>
    <tag k="source" v="http://ump.waw.pl/ retrieved 11:18:52 11/17/09 (UMP-Tarnow/src/cities-Tarnow.pnt-converted.txt)"/>
  </node>
  <node id="583059466" version="4" timestamp="2010-04-27T04:20:03Z" uid="30632" user="antblant" changeset="4537912" lat="49.8769261" lon="21.3052679">
    <tag k="name" v="Jodłowa"/>
    <tag k="place" v="village"/>
    <tag k="source" v="http://ump.waw.pl/ retrieved 11:18:52 11/17/09 (UMP-Tarnow/src/cities-Tarnow.pnt-converted.txt)"/>
    <tag k="teryt:simc" v="0821530"/>
  </node>
  <node id="583059797" version="2" timestamp="2010-04-11T04:53:49Z" uid="20587" user="balrog-kun" changeset="4389130" lat="49.9050602" lon="21.2948741">
    <tag k="name" v="Dzwonowa"/>
    <tag k="place" v="village"/>
    <tag k="source" v="http://ump.waw.pl/ retrieved 11:18:52 11/17/09 (UMP-Tarnow/src/cities-Tarnow.pnt-converted.txt)"/>
  </node>
  <node id="583059797" version="3" timestamp="2010-04-11T13:17:30Z" uid="20587" user="balrog-kun" changeset="4392352" lat="49.9051845" lon="21.2964059">
    <tag k="name" v="Dzwonowa"/>
    <tag k="place" v="village"/>
    <tag k="source" v="http://ump.waw.pl/ retrieved 11:18:52 11/17/09 (UMP-Tarnow/src/cities-Tarnow.pnt-converted.txt)"/>
  </node>
  <node id="583059797" version="4" timestamp="2010-04-27T04:14:08Z" uid="30632" user="antblant" changeset="4537892" lat="49.9051845" lon="21.2964059">
    <tag k="name" v="Dzwonowa"/>
    <tag k="place" v="village"/>
    <tag k="source" v="http://ump.waw.pl/ retrieved 11:18:52 11/17/09 (UMP-Tarnow/src/cities-Tarnow.pnt-converted.txt)"/>
    <tag k="teryt:simc" v="0821501"/>
  </node>
  <node id="583059962" version="2" timestamp="2010-04-11T04:53:49Z" uid="20587" user="balrog-kun" changeset="4389130" lat="49.9205881" lon="21.317219">
    <tag k="name" v="Dęborzyn"/>
    <tag k="place" v="village"/>
    <tag k="source" v="http://ump.waw.pl/ retrieved 11:18:52 11/17/09 (UMP-Tarnow/src/cities-Tarnow.pnt-converted.txt)"/>
  </node>
  <node id="583059962" version="3" timestamp="2010-04-11T13:17:31Z" uid="20587" user="balrog-kun" changeset="4392352" lat="49.9207373" lon="21.3168457">
    <tag k="name" v="Dęborzyn"/>
    <tag k="place" v="village"/>
    <tag k="source" v="http://ump.waw.pl/ retrieved 11:18:52 11/17/09 (UMP-Tarnow/src/cities-Tarnow.pnt-converted.txt)"/>
  </node>
  <node id="583059962" version="4" timestamp="2010-04-27T04:11:00Z" uid="30632" user="antblant" changeset="4537882" lat="49.9207373" lon="21.3168457">
    <tag k="name" v="Dęborzyn"/>
    <tag k="place" v="village"/>
    <tag k="source" v="http://ump.waw.pl/ retrieved 11:18:52 11/17/09 (UMP-Tarnow/src/cities-Tarnow.pnt-converted.txt)"/>
    <tag k="teryt:simc" v="0821398"/>
  </node>
  <node id="583059983" version="2" timestamp="2010-04-11T04:53:49Z" uid="20587" user="balrog-kun" changeset="4389130" lat="49.9361043" lon="21.1153102">
    <tag k="name" v="Stawiska"/>
    <tag k="place" v="hamlet"/>
    <tag k="source" v="http://ump.waw.pl/ retrieved 11:18:52 11/17/09 (UMP-Tarnow/src/cities-Tarnow.pnt-converted.txt)"/>
  </node>
  <node id="583059983" version="3" timestamp="2010-04-11T13:17:31Z" uid="20587" user="balrog-kun" changeset="4392352" lat="49.9363762" lon="21.1132788">
    <tag k="name" v="Stawiska"/>
    <tag k="place" v="hamlet"/>
    <tag k="source" v="http://ump.waw.pl/ retrieved 11:18:52 11/17/09 (UMP-Tarnow/src/cities-Tarnow.pnt-converted.txt)"/>
  </node>
</osm>
