<?xml version='1.0' encoding='UTF-8'?>
<osm version="0.6" generator="libosmium/2.20.0">
  <node id="583402289" version="4" timestamp="2010-07-17T03:27:35Z" uid="4467" user="Rosscoe" changeset="5239066" lat="-38.0979715" lon="145.1550855"/>
  <node id="583405091" version="1" timestamp="2009-12-08T22:28:54Z" uid="123700" user="Mala" changeset="3328988" lat="52.4126952" lon="16.9044567">
    <tag k="amenity" v="pharmacy"/>
    <tag k="name" v="Apteka Serce Jeżyc"/>
  </node>
  <node id="583405092" version="1" timestamp="2009-12-08T22:28:54Z" uid="123700" user="Mala" changeset="3328988" lat="52.4126301" lon="16.9045178">
    <tag k="name" v="Cukiernia Elite"/>
    <tag k="shop" v="confectionery"/>
  </node>
  <node id="583405093" version="1" timestamp="2009-12-08T22:28:54Z" uid="123700" user="Mala" changeset="3328988" lat="52.4128816" lon="16.9038067">
    <tag k="shop" v="cobbler"/>
  </node>
  <node id="583405094" version="1" timestamp="2009-12-08T22:28:54Z" uid="123700" user="Mala" changeset="3328988" lat="52.4128166" lon="16.9038517">
    <tag k="amenity" v="bank"/>
    <tag k="name" v="CityBank Handlowy"/>
    <tag k="operator" v="CityBank Handlowy"/>
  </node>
  <node id="583405095" version="1" timestamp="2009-12-08T22:28:54Z" uid="123700" user="Mala" changeset="3328988" lat="52.4127462" lon="16.9039675">
    <tag k="amenity" v="bank"/>
    <tag k="atm" v="yes"/>
    <tag k="name" v="WBK"/>
    <tag k="operator" v="WBK"/>
  </node>
  <node id="583405095" version="2" timestamp="2010-10-05T01:35:43Z" uid="20587" user="balrog-kun" changeset="5958352" lat="52.4127864" lon="16.9040237">
    <tag k="amenity" v="bank"/>
    <tag k="atm" v="yes"/>
    <tag k="name" v="BZ WBK"/>
    <tag k="operator" v="WBK"/>
  </node>
  <node id="583405096" version="1" timestamp="2009-12-08T22:28:54Z" uid="123700" user="Mala" changeset="3328988" lat="52.4127615" lon="16.9041261">
    <tag k="shop" v="photo"/>
  </node>
  <node id="583405097" version="1" timestamp="2009-12-08T22:28:54Z" uid="123700" user="Mala" changeset="3328988" lat="52.412694" lon="16.9042147">
    <tag k="amenity" v="bank"/>
    <tag k="name" v="AIG Bank"/>
    <tag k="operator" v="AIG Bank Polska SA"/>
  </node>
  <node id="583405098" version="1" timestamp="2009-12-08T22:28:54Z" uid="123700" user="Mala" changeset="3328988" lat="52.41265" lon="16.9046821">
    <tag k="shop" v="newsagent"/>
  </node>
  <node id="583405099" version="1" timestamp="2009-12-08T22:28:55Z" uid="123700" user="Mala" changeset="3328988" lat="52.4124724" lon="16.904526">
    <tag k="shop" v="kiosk"/>
  </node>
  <node id="583405100" version="1" timestamp="2009-12-08T22:28:55Z" uid="123700" user="Mala" changeset="3328988" lat="52.4125789" lon="16.9047609">
    <tag k="amenity" v="bank"/>
    <tag k="name" v="DB Kredyt"/>
    <tag k="operator" v="Deutsche Bank"/>
  </node>
  <node id="583405101" version="1" timestamp="2009-12-08T22:28:55Z" uid="123700" user="Mala" changeset="3328988" lat="52.4125994" lon="16.9049343">
    <tag k="name" v="Hildebrand"/>
    <tag k="shop" v="confectionery"/>
  </node>
  <node id="583405102" version="1" timestamp="2009-12-08T22:28:55Z" uid="123700" user="Mala" changeset="3328988" lat="52.4125467" lon="16.9051966">
    <tag k="shop" v="mobile_telephony"/>
  </node>
  <node id="583405103" version="1" timestamp="2009-12-08T22:28:55Z" uid="123700" user="Mala" changeset="3328988" lat="52.4123118" lon="16.9062378">
    <tag k="amenity" v="bank"/>
    <tag k="atm" v="yes"/>
    <tag k="name" v="Nordea Bank"/>
    <tag k="operator" v="Nordea Bank Polska SA"/>
  </node>
  <node id="583405104" version="1" timestamp="2009-12-08T22:28:55Z" uid="123700" user="Mala" changeset="3328988" lat="52.4122324" lon="16.9063131">
    <tag k="amenity" v="bank"/>
    <tag k="atm" v="yes"/>
    <tag k="name" v="BNP Paribas"/>
    <tag k="operator" v="BNP Paribas"/>
  </node>
  <node id="583405105" version="1" timestamp="2009-12-08T22:28:55Z" uid="123700" user="Mala" changeset="3328988" lat="52.4121844" lon="16.9065229">
    <tag k="name" v="TP Orange"/>
    <tag k="shop" v="mobile_telephony"/>
  </node>
  <node id="583405106" version="1" timestamp="2009-12-08T22:28:55Z" uid="123700" user="Mala" changeset="3328988" lat="52.4122656" lon="16.9064462">
    <tag k="shop" v="stationery"/>
  </node>
  <node id="583405107" version="1" timestamp="2009-12-08T22:28:55Z" uid="123700" user="Mala" changeset="3328988" lat="52.4124686" lon="16.9052841">
    <tag k="name" v="Skutery Centrum"/>
    <tag k="shop" v="motorcycle"/>
  </node>
  <node id="583405108" version="1" timestamp="2009-12-08T22:28:55Z" uid="123700" user="Mala" changeset="3328988" lat="52.4124655" lon="16.9055452">
    <tag k="amenity" v="bureau_de_change"/>
    <tag k="name" v="A2"/>
  </node>
  <node id="583405109" version="1" timestamp="2009-12-08T22:28:55Z" uid="123700" user="Mala" changeset="3328988" lat="52.4123905" lon="16.905622">
    <tag k="shop" v="hairdresser"/>
  </node>
  <node id="583405110" version="1" timestamp="2009-12-08T22:28:55Z" uid="123700" user="Mala" changeset="3328988" lat="52.4123965" lon="16.905856">
    <tag k="name" v="Piekarnia Pod Strzechą"/>
    <tag k="operator" v="Piekpol"/>
    <tag k="shop" v="bakery"/>
  </node>
  <node id="583405111" version="1" timestamp="2009-12-08T22:28:56Z" uid="123700" user="Mala" changeset="3328988" lat="52.4122994" lon="16.9060204">
    <tag k="shop" v="hairdresser"/>
  </node>
  <node id="583405112" version="1" timestamp="2009-12-08T22:28:56Z" uid="123700" user="Mala" changeset="3328988" lat="52.4121907" lon="16.9067994">
    <tag k="amenity" v="fast_food"/>
    <tag k="name" v="Bar Mleczny &quot;Jeżycki&quot;"/>
  </node>
  <node id="583405113" version="1" timestamp="2009-12-08T22:28:56Z" uid="123700" user="Mala" changeset="3328988" lat="52.4120939" lon="16.9069222">
    <tag k="name" v="Jeżyk"/>
    <tag k="shop" v="supermarket"/>
  </node>
  <node id="583405114" version="1" timestamp="2009-12-08T22:28:56Z" uid="123700" user="Mala" changeset="3328988" lat="52.4120872" lon="16.9072505">
    <tag k="amenity" v="bank"/>
    <tag k="name" v="neoBank"/>
  </node>
  <node id="583405115" version="1" timestamp="2009-12-08T22:28:56Z" uid="123700" user="Mala" changeset="3328988" lat="52.4119898" lon="16.9073708">
    <tag k="name" v="Arc Tours"/>
    <tag k="shop" v="travel_agency"/>
  </node>
  <node id="583405116" version="1" timestamp="2009-12-08T22:28:56Z" uid="123700" user="Mala" changeset="3328988" lat="52.4120212" lon="16.9075385">
    <tag k="name" v="Księgarnia Nowela"/>
    <tag k="shop" v="books"/>
  </node>
  <node id="583405117" version="1" timestamp="2009-12-08T22:28:56Z" uid="123700" user="Mala" changeset="3328988" lat="52.4119146" lon="16.9076946">
    <tag k="shop" v="sexshop"/>
  </node>
  <node id="583405118" version="1" timestamp="2009-12-08T22:28:56Z" uid="123700" user="Mala" changeset="3328988" lat="52.411949" lon="16.9078533">
    <tag k="shop" v="optician"/>
  </node>
  <node id="583405119" version="1" timestamp="2009-12-08T22:28:56Z" uid="123700" user="Mala" changeset="3328988" lat="52.4102583" lon="16.9131804">
    <tag k="highway" v="crossing"/>
  </node>
  <node id="583405120" version="1" timestamp="2009-12-08T22:28:56Z" uid="123700" user="Mala" changeset="3328988" lat="52.4102343" lon="16.9133512">
    <tag k="highway" v="crossing"/>
  </node>
  <node id="583405121" version="1" timestamp="2009-12-08T22:28:56Z" uid="123700" user="Mala" changeset="3328988" lat="52.4101976" lon="16.9135439">
    <tag k="highway" v="crossing"/>
  </node>
  <node id="583405122" version="1" timestamp="2009-12-08T22:28:56Z" uid="123700" user="Mala" changeset="3328988" lat="52.4101749" lon="16.9136693">
    <tag k="highway" v="crossing"/>
  </node>
  <node id="583405123" version="1" timestamp="2009-12-08T22:28:56Z" uid="123700" user="Mala" changeset="3328988" lat="52.4100328" lon="16.916146">
    <tag k="highway" v="crossing"/>
  </node>
  <node id="583405124" version="1" timestamp="2009-12-08T22:28:57Z" uid="123700" user="Mala" changeset="3328988" lat="52.4098998" lon="16.9162869">
    <tag k="highway" v="crossing"/>
  </node>
  <node id="583405125" version="1" timestamp="2009-12-08T22:28:57Z" uid="123700" user="Mala" changeset="3328988" lat="52.4100622" lon="16.9164088">
    <tag k="highway" v="crossing"/>
  </node>
  <node id="583405126" version="1" timestamp="2009-12-08T22:28:57Z" uid="123700" user="Mala" changeset="3328988" lat="52.409488" lon="16.9181576">
    <tag k="highway" v="crossing"/>
  </node>
  <node id="583405127" version="1" timestamp="2009-12-08T22:28:57Z" uid="123700" user="Mala" changeset="3328988" lat="52.4095577" lon="16.9183301">
    <tag k="highway" v="crossing"/>
  </node>
  <node id="583405128" version="1" timestamp="2009-12-08T22:28:57Z" uid="123700" user="Mala" changeset="3328988" lat="52.4095354" lon="16.9189151"/>
  <node id="583405129" version="1" timestamp="2009-12-08T22:28:57Z" uid="123700" user="Mala" changeset="3328988" lat="52.4095648" lon="16.9188611"/>
  <node id="583405130" version="1" timestamp="2009-12-08T22:28:57Z" uid="123700" user="Mala" changeset="3328988" lat="52.4095641" lon="16.9185368">
    <tag k="shop" v="kiosk"/>
  </node>
  <node id="583405131" version="1" timestamp="2009-12-08T22:28:57Z" uid="123700" user="Mala" changeset="3328988" lat="52.4096691" lon="16.9182283">
    <tag k="highway" v="crossing"/>
  </node>
  <node id="583405132" version="1" timestamp="2009-12-08T22:28:57Z" uid="123700" user="Mala" changeset="3328988" lat="52.4096378" lon="16.9179504">
    <tag k="highway" v="crossing"/>
  </node>
  <node id="583405133" version="1" timestamp="2009-12-08T22:28:57Z" uid="123700" user="Mala" changeset="3328988" lat="52.409734" lon="16.9184632">
    <tag k="name" v="Poznańska Księgarnia Akademicka"/>
    <tag k="shop" v="books"/>
  </node>
  <node id="583405134" version="1" timestamp="2009-12-08T22:28:57Z" uid="123700" user="Mala" changeset="3328988" lat="52.4097007" lon="16.9183607"/>
  <node id="583405135" version="1" timestamp="2009-12-08T22:28:57Z" uid="123700" user="Mala" changeset="3328988" lat="52.4096007" lon="16.9188481"/>
  <node id="583405135" version="2" timestamp="2010-07-01T16:07:37Z" uid="20587" user="balrog-kun" changeset="5121713" lat="52.4096047" lon="16.9188502"/>
  <node id="583405136" version="1" timestamp="2009-12-08T22:28:57Z" uid="123700" user="Mala" changeset="3328988" lat="52.409794" lon="16.9186974"/>
  <node id="583405136" version="2" timestamp="2010-07-01T16:07:38Z" uid="20587" user="balrog-kun" changeset="5121713" lat="52.4097926" lon="16.9186985"/>
  <node id="583405137" version="1" timestamp="2009-12-08T22:28:57Z" uid="123700" user="Mala" changeset="3328988" lat="52.4100629" lon="16.9188645"/>
  <node id="583405137" version="2" timestamp="2010-07-01T16:07:38Z" uid="20587" user="balrog-kun" changeset="5121713" lat="52.4100587" lon="16.9188612"/>
  <node id="583405138" version="1" timestamp="2009-12-08T22:28:57Z" uid="123700" user="Mala" changeset="3328988" lat="52.4099479" lon="16.9187821"/>
  <node id="583405138" version="2" timestamp="2010-07-01T16:07:38Z" uid="20587" user="balrog-kun" changeset="5121713" lat="52.4099472" lon="16.9187799"/>
  <node id="583405139" version="1" timestamp="2009-12-08T22:28:57Z" uid="123700" user="Mala" changeset="3328988" lat="52.4116459" lon="16.9089741">
    <tag k="name" v="Bławatek"/>
    <tag k="shop" v="textiles"/>
  </node>
  <node id="583405140" version="1" timestamp="2009-12-08T22:28:58Z" uid="123700" user="Mala" changeset="3328988" lat="52.4116081" lon="16.9091596">
    <tag k="name" v="Maciuś"/>
    <tag k="note" v="kids"/>
    <tag k="shop" v="clothes"/>
  </node>
  <node id="583405141" version="1" timestamp="2009-12-08T22:28:58Z" uid="123700" user="Mala" changeset="3328988" lat="52.4116389" lon="16.9093403">
    <tag k="shop" v="bakery"/>
  </node>
  <node id="583405142" version="1" timestamp="2009-12-08T22:28:58Z" uid="123700" user="Mala" changeset="3328988" lat="52.4115554" lon="16.9094052">
    <tag k="shop" v="kitchenware"/>
  </node>
  <node id="583405143" version="1" timestamp="2009-12-08T22:28:58Z" uid="123700" user="Mala" changeset="3328988" lat="52.4115529" lon="16.9097041">
    <tag k="amenity" v="bank"/>
    <tag k="name" v="mBank"/>
    <tag k="operator" v="mBank"/>
  </node>
  <node id="583405144" version="1" timestamp="2009-12-08T22:28:58Z" uid="123700" user="Mala" changeset="3328988" lat="52.4115173" lon="16.9093352">
    <tag k="highway" v="crossing"/>
  </node>
  <node id="583405145" version="1" timestamp="2009-12-08T22:28:58Z" uid="123700" user="Mala" changeset="3328988" lat="52.4115254" lon="16.910257">
    <tag k="name" v="Lotto"/>
    <tag k="shop" v="lottery"/>
  </node>
  <node id="583405146" version="1" timestamp="2009-12-08T22:28:58Z" uid="123700" user="Mala" changeset="3328988" lat="52.4114805" lon="16.9100154">
    <tag k="amenity" v="recycling"/>
  </node>
  <node id="583405147" version="1" timestamp="2009-12-08T22:28:58Z" uid="123700" user="Mala" changeset="3328988" lat="52.4113814" lon="16.9105075">
    <tag k="amenity" v="school"/>
    <tag k="name" v="Cosinus"/>
  </node>
  <node id="583405148" version="1" timestamp="2009-12-08T22:28:58Z" uid="123700" user="Mala" changeset="3328988" lat="52.4117552" lon="16.9084386">
    <tag k="name" v="Street Club"/>
    <tag k="shop" v="slot_machine"/>
  </node>
  <node id="583405149" version="1" timestamp="2009-12-08T22:28:58Z" uid="123700" user="Mala" changeset="3328988" lat="52.4117827" lon="16.9086762">
    <tag k="amenity" v="lombard_banking"/>
  </node>
  <node id="583405150" version="1" timestamp="2009-12-08T22:28:58Z" uid="123700" user="Mala" changeset="3328988" lat="52.4117013" lon="16.9087027">
    <tag k="amenity" v="bureau_de_change"/>
  </node>
  <node id="583405151" version="1" timestamp="2009-12-08T22:28:58Z" uid="123700" user="Mala" changeset="3328988" lat="52.4117332" lon="16.9088976">
    <tag k="amenity" v="bank"/>
    <tag k="atm" v="yes"/>
    <tag k="name" v="Kredyt Bank"/>
    <tag k="operator" v="Kredyt Bank"/>
  </node>
  <node id="583405152" version="1" timestamp="2009-12-08T22:28:58Z" uid="123700" user="Mala" changeset="3328988" lat="52.4116845" lon="16.9091154">
    <tag k="note" v="jeans"/>
    <tag k="shop" v="clothes"/>
  </node>
  <node id="583405153" version="1" timestamp="2009-12-08T22:28:59Z" uid="123700" user="Mala" changeset="3328988" lat="52.4112281" lon="16.9112686">
    <tag k="amenity" v="bank"/>
    <tag k="name" v="Allianz Bank"/>
    <tag k="operator" v="Allianz Bank"/>
  </node>
  <node id="583405154" version="1" timestamp="2009-12-08T22:28:59Z" uid="123700" user="Mala" changeset="3328988" lat="52.4111472" lon="16.911062">
    <tag k="highway" v="crossing"/>
  </node>
  <node id="583405155" version="1" timestamp="2009-12-08T22:28:59Z" uid="123700" user="Mala" changeset="3328988" lat="52.4114376" lon="16.9107249">
    <tag k="note" v="cheap flights"/>
    <tag k="shop" v="flight_tickets"/>
  </node>
  <node id="583405156" version="1" timestamp="2009-12-08T22:28:59Z" uid="123700" user="Mala" changeset="3328988" lat="52.4114055" lon="16.9108959">
    <tag k="amenity" v="bank"/>
    <tag k="name" v="PKO BP"/>
    <tag k="operator" v="PKO BP"/>
  </node>
  <node id="583405157" version="1" timestamp="2009-12-08T22:28:59Z" uid="123700" user="Mala" changeset="3328988" lat="52.4114205" lon="16.9110843">
    <tag k="shop" v="florist"/>
  </node>
  <node id="583405158" version="1" timestamp="2009-12-08T22:28:59Z" uid="123700" user="Mala" changeset="3328988" lat="52.4110608" lon="16.9117191">
    <tag k="amenity" v="bank"/>
    <tag k="atm" v="yes"/>
    <tag k="name" v="Raiffeisen Bank"/>
    <tag k="operator" v="Raiffeisen Bank"/>
  </node>
  <node id="583405159" version="1" timestamp="2009-12-08T22:28:59Z" uid="123700" user="Mala" changeset="3328988" lat="52.4110794" lon="16.9119368">
    <tag k="amenity" v="bank"/>
    <tag k="name" v="SKOK Stefczyka"/>
  </node>
  <node id="583405160" version="1" timestamp="2009-12-08T22:28:59Z" uid="123700" user="Mala" changeset="3328988" lat="52.4110442" lon="16.9115219">
    <tag k="highway" v="crossing"/>
  </node>
  <node id="583405161" version="1" timestamp="2009-12-08T22:28:59Z" uid="123700" user="Mala" changeset="3328988" lat="52.4111982" lon="16.9122834">
    <tag k="amenity" v="post_office"/>
    <tag k="name" v="DHL servicepoint"/>
  </node>
  <node id="583405162" version="1" timestamp="2009-12-08T22:28:59Z" uid="123700" user="Mala" changeset="3328988" lat="52.4108653" lon="16.9125896">
    <tag k="name" v="Modus"/>
    <tag k="shop" v="clothes"/>
  </node>
  <node id="583405163" version="1" timestamp="2009-12-08T22:28:59Z" uid="123700" user="Mala" changeset="3328988" lat="52.4109097" lon="16.912721">
    <tag k="name" v="Baccara"/>
    <tag k="shop" v="clothes"/>
  </node>
  <node id="583405164" version="1" timestamp="2009-12-08T22:28:59Z" uid="123700" user="Mala" changeset="3328988" lat="52.4108158" lon="16.91281">
    <tag k="name" v="TOTU"/>
    <tag k="shop" v="convenience"/>
  </node>
  <node id="583405165" version="1" timestamp="2009-12-08T22:28:59Z" uid="123700" user="Mala" changeset="3328988" lat="52.4105596" lon="16.9129565">
    <tag k="highway" v="crossing"/>
  </node>
  <node id="583405166" version="1" timestamp="2009-12-08T22:28:59Z" uid="123700" user="Mala" changeset="3328988" lat="52.4105844" lon="16.9128736">
    <tag k="highway" v="traffic_signals"/>
  </node>
  <node id="583405167" version="1" timestamp="2009-12-08T22:28:59Z" uid="123700" user="Mala" changeset="3328988" lat="52.410704" lon="16.9130341">
    <tag k="highway" v="crossing"/>
  </node>
  <node id="583405168" version="1" timestamp="2009-12-08T22:29:00Z" uid="123700" user="Mala" changeset="3328988" lat="52.4106381" lon="16.9130014">
    <tag k="highway" v="crossing"/>
  </node>
  <node id="583405169" version="1" timestamp="2009-12-08T22:29:00Z" uid="123700" user="Mala" changeset="3328988" lat="52.4107907" lon="16.9129219">
    <tag k="amenity" v="atm"/>
    <tag k="name" v="BGŻ"/>
  </node>
  <node id="583405170" version="1" timestamp="2009-12-08T22:29:00Z" uid="123700" user="Mala" changeset="3328988" lat="52.4107734" lon="16.9129986">
    <tag k="amenity" v="atm"/>
    <tag k="name" v="PKO BP"/>
  </node>
  <node id="583405171" version="1" timestamp="2009-12-08T22:29:00Z" uid="123700" user="Mala" changeset="3328988" lat="52.4107448" lon="16.9131263">
    <tag k="name" v="ERA Sklep"/>
    <tag k="shop" v="mobile_telephony"/>
  </node>
  <node id="583405171" version="2" timestamp="2009-12-08T23:39:38Z" uid="123700" user="Mala" changeset="3330111" lat="52.4107448" lon="16.9131263">
    <tag k="name" v="Nokia"/>
    <tag k="shop" v="mobile_telephony"/>
  </node>
  <node id="583405172" version="1" timestamp="2009-12-08T22:29:00Z" uid="123700" user="Mala" changeset="3328988" lat="52.4107887" lon="16.9132803">
    <tag k="name" v="Plus GSM"/>
    <tag k="shop" v="mobile_telephony"/>
  </node>
  <node id="583405173" version="1" timestamp="2009-12-08T22:29:00Z" uid="123700" user="Mala" changeset="3328988" lat="52.4109969" lon="16.9120034">
    <tag k="name" v="TUI"/>
    <tag k="shop" v="travel_agency"/>
  </node>
  <node id="583405174" version="1" timestamp="2009-12-08T22:29:00Z" uid="123700" user="Mala" changeset="3328988" lat="52.4110365" lon="16.9121349">
    <tag k="amenity" v="bank"/>
    <tag k="atm" v="yes"/>
    <tag k="name" v="Polbank"/>
    <tag k="operator" v="Polbank"/>
  </node>
  <node id="583405175" version="1" timestamp="2009-12-08T22:29:00Z" uid="123700" user="Mala" changeset="3328988" lat="52.4109443" lon="16.9122378">
    <tag k="amenity" v="restaurant"/>
    <tag k="name" v="Zapadnia"/>
  </node>
  <node id="583405175" version="2" timestamp="2010-02-13T21:49:17Z" uid="123700" user="Mala" changeset="3868798" lat="52.4109443" lon="16.9122378">
    <tag k="amenity" v="restaurant"/>
    <tag k="name" v="Kuchnia Chrisa"/>
  </node>
  <node id="583405176" version="1" timestamp="2009-12-08T22:29:00Z" uid="123700" user="Mala" changeset="3328988" lat="52.4112506" lon="16.9122965">
    <tag k="name" v="Księgarnia Arsenał"/>
    <tag k="shop" v="books"/>
  </node>
  <node id="583405177" version="1" timestamp="2009-12-08T22:29:00Z" uid="123700" user="Mala" changeset="3328988" lat="52.4104839" lon="16.9138141">
    <tag k="highway" v="crossing"/>
  </node>
  <node id="583405178" version="1" timestamp="2009-12-08T22:29:00Z" uid="123700" user="Mala" changeset="3328988" lat="52.4102802" lon="16.9186761"/>
  <node id="583405178" version="2" timestamp="2010-07-01T16:07:38Z" uid="20587" user="balrog-kun" changeset="5121713" lat="52.4102838" lon="16.9186678"/>
  <node id="583405179" version="1" timestamp="2009-12-08T22:29:01Z" uid="123700" user="Mala" changeset="3328988" lat="52.4074414" lon="16.922932">
    <tag k="amenity" v="restaurant"/>
    <tag k="cuisine" v="fish"/>
    <tag k="name" v="Złota Rybka"/>
  </node>
  <node id="583405180" version="1" timestamp="2009-12-08T22:29:01Z" uid="123700" user="Mala" changeset="3328988" lat="52.406989" lon="16.9229644">
    <tag k="highway" v="crossing"/>
  </node>
  <node id="583405181" version="1" timestamp="2009-12-08T22:29:01Z" uid="123700" user="Mala" changeset="3328988" lat="52.4081099" lon="16.9214779">
    <tag k="highway" v="crossing"/>
  </node>
  <node id="583405182" version="1" timestamp="2009-12-08T22:29:01Z" uid="123700" user="Mala" changeset="3328988" lat="52.4081128" lon="16.9216112">
    <tag k="amenity" v="bank"/>
    <tag k="name" v="Lukas Bank"/>
    <tag k="operator" v="Lukas Bank"/>
  </node>
  <node id="583405183" version="1" timestamp="2009-12-08T22:29:01Z" uid="123700" user="Mala" changeset="3328988" lat="52.4088908" lon="16.9209414"/>
  <node id="583405184" version="1" timestamp="2009-12-08T22:29:01Z" uid="123700" user="Mala" changeset="3328988" lat="52.4085579" lon="16.9216438"/>
  <node id="583405185" version="1" timestamp="2009-12-08T22:29:01Z" uid="123700" user="Mala" changeset="3328988" lat="52.4087389" lon="16.9213298"/>
  <node id="583405186" version="1" timestamp="2009-12-08T22:29:01Z" uid="123700" user="Mala" changeset="3328988" lat="52.4088499" lon="16.9214717"/>
  <node id="583405187" version="1" timestamp="2009-12-08T22:29:01Z" uid="123700" user="Mala" changeset="3328988" lat="52.4087328" lon="16.9216763"/>
  <node id="583405188" version="1" timestamp="2009-12-08T22:29:01Z" uid="123700" user="Mala" changeset="3328988" lat="52.4088222" lon="16.921318">
    <tag k="amenity" v="cafe"/>
    <tag k="name" v="Kawiarnia W-Z"/>
  </node>
  <node id="583405189" version="1" timestamp="2009-12-08T22:29:01Z" uid="123700" user="Mala" changeset="3328988" lat="52.4087622" lon="16.9214556">
    <tag k="amenity" v="arts_centre"/>
    <tag k="name" v="Pracownia Portret"/>
  </node>
  <node id="583405190" version="1" timestamp="2009-12-08T22:29:01Z" uid="123700" user="Mala" changeset="3328988" lat="52.4087222" lon="16.9215408">
    <tag k="amenity" v="bank"/>
    <tag k="atm" v="yes"/>
    <tag k="name" v="WBK"/>
    <tag k="operator" v="WBK"/>
  </node>
  <node id="583405191" version="1" timestamp="2009-12-08T22:29:01Z" uid="123700" user="Mala" changeset="3328988" lat="52.4086743" lon="16.9216325">
    <tag k="amenity" v="school"/>
    <tag k="name" v="Zespół Szkół Komunikacyjnych imienia Hipolita Cegielskiego"/>
  </node>
  <node id="583405192" version="1" timestamp="2009-12-08T22:29:01Z" uid="123700" user="Mala" changeset="3328988" lat="52.4086043" lon="16.9216358">
    <tag k="amenity" v="fast_food"/>
    <tag k="name" v="Picanto"/>
  </node>
  <node id="583405192" version="2" timestamp="2010-07-01T16:07:38Z" uid="20587" user="balrog-kun" changeset="5121713" lat="52.4086043" lon="16.9216358">
    <tag k="amenity" v="fast_food"/>
    <tag k="cuisine" v="hotdog"/>
    <tag k="name" v="Picanto"/>
  </node>
  <node id="583405193" version="1" timestamp="2009-12-08T22:29:01Z" uid="123700" user="Mala" changeset="3328988" lat="52.4085671" lon="16.9215001">
    <tag k="highway" v="crossing"/>
  </node>
  <node id="583405194" version="1" timestamp="2009-12-08T22:29:01Z" uid="123700" user="Mala" changeset="3328988" lat="52.4095118" lon="16.9190125"/>
  <node id="583405195" version="1" timestamp="2009-12-08T22:29:01Z" uid="123700" user="Mala" changeset="3328988" lat="52.4095158" lon="16.9190651"/>
  <node id="583405196" version="1" timestamp="2009-12-08T22:29:01Z" uid="123700" user="Mala" changeset="3328988" lat="52.4095308" lon="16.9191307"/>
  <node id="583405197" version="1" timestamp="2009-12-08T22:29:01Z" uid="123700" user="Mala" changeset="3328988" lat="52.409543" lon="16.9191461"/>
  <node id="583405197" version="2" timestamp="2010-07-01T16:07:38Z" uid="20587" user="balrog-kun" changeset="5121713" lat="52.4095464" lon="16.9191479"/>
  <node id="583405198" version="1" timestamp="2009-12-08T22:29:01Z" uid="123700" user="Mala" changeset="3328988" lat="52.4091635" lon="16.9198984">
    <tag k="highway" v="crossing"/>
  </node>
  <node id="583405199" version="1" timestamp="2009-12-08T22:29:01Z" uid="123700" user="Mala" changeset="3328988" lat="52.4091688" lon="16.9201116">
    <tag k="highway" v="crossing"/>
  </node>
  <node id="583405200" version="1" timestamp="2009-12-08T22:29:02Z" uid="123700" user="Mala" changeset="3328988" lat="52.4092929" lon="16.9196938">
    <tag k="highway" v="crossing"/>
  </node>
  <node id="583405201" version="1" timestamp="2009-12-08T22:29:02Z" uid="123700" user="Mala" changeset="3328988" lat="52.4093264" lon="16.9199483">
    <tag k="highway" v="crossing"/>
  </node>
  <node id="583405202" version="1" timestamp="2009-12-08T22:29:02Z" uid="123700" user="Mala" changeset="3328988" lat="52.4094358" lon="16.9197122"/>
  <node id="583405203" version="1" timestamp="2009-12-08T22:29:02Z" uid="123700" user="Mala" changeset="3328988" lat="52.4093742" lon="16.9197425">
    <tag k="shop" v="kiosk"/>
  </node>
  <node id="583405204" version="1" timestamp="2009-12-08T22:29:02Z" uid="123700" user="Mala" changeset="3328988" lat="52.4093882" lon="16.919831">
    <tag k="shop" v="florist"/>
  </node>
  <node id="583405205" version="1" timestamp="2009-12-08T22:29:02Z" uid="123700" user="Mala" changeset="3328988" lat="52.4094642" lon="16.9201282"/>
  <node id="583405206" version="1" timestamp="2009-12-08T22:29:02Z" uid="123700" user="Mala" changeset="3328988" lat="52.4093124" lon="16.9203235">
    <tag k="historic" v="monument"/>
  </node>
  <node id="583405207" version="1" timestamp="2009-12-08T22:29:02Z" uid="123700" user="Mala" changeset="3328988" lat="52.409742" lon="16.9189509"/>
  <node id="583405207" version="2" timestamp="2010-07-01T16:07:38Z" uid="20587" user="balrog-kun" changeset="5121713" lat="52.4097427" lon="16.9189531"/>
  <node id="583405208" version="1" timestamp="2009-12-08T22:29:02Z" uid="123700" user="Mala" changeset="3328988" lat="52.4096754" lon="16.9192376"/>
  <node id="583405208" version="2" timestamp="2010-07-01T16:07:38Z" uid="20587" user="balrog-kun" changeset="5121713" lat="52.4096739" lon="16.9192384"/>
  <node id="583405209" version="1" timestamp="2009-12-08T22:29:02Z" uid="123700" user="Mala" changeset="3328988" lat="52.4098959" lon="16.9190356"/>
  <node id="583405209" version="2" timestamp="2010-07-01T16:07:38Z" uid="20587" user="balrog-kun" changeset="5121713" lat="52.4098973" lon="16.9190345"/>
  <node id="583405210" version="1" timestamp="2009-12-08T22:29:02Z" uid="123700" user="Mala" changeset="3328988" lat="52.4098316" lon="16.919323"/>
  <node id="583405210" version="2" timestamp="2010-07-01T16:07:38Z" uid="20587" user="balrog-kun" changeset="5121713" lat="52.4098305" lon="16.9193209"/>
  <node id="583405211" version="1" timestamp="2009-12-08T22:29:02Z" uid="123700" user="Mala" changeset="3328988" lat="52.4096231" lon="16.9194912"/>
  <node id="583405211" version="2" timestamp="2010-07-01T16:07:38Z" uid="20587" user="balrog-kun" changeset="5121713" lat="52.4096242" lon="16.9194924"/>
  <node id="583405213" version="1" timestamp="2009-12-08T22:29:02Z" uid="123700" user="Mala" changeset="3328988" lat="52.409908" lon="16.9196057"/>
  <node id="583405213" version="2" timestamp="2010-07-01T16:07:38Z" uid="20587" user="balrog-kun" changeset="5121713" lat="52.4099129" lon="16.9196053"/>
  <node id="583405214" version="1" timestamp="2009-12-08T22:29:02Z" uid="123700" user="Mala" changeset="3328988" lat="52.4097792" lon="16.9195748"/>
  <node id="583405214" version="2" timestamp="2010-07-01T16:07:38Z" uid="20587" user="balrog-kun" changeset="5121713" lat="52.4097807" lon="16.9195749"/>
  <node id="583405215" version="1" timestamp="2009-12-08T22:29:02Z" uid="123700" user="Mala" changeset="3328988" lat="52.4102303" lon="16.9189505"/>
  <node id="583405215" version="2" timestamp="2010-07-01T16:07:38Z" uid="20587" user="balrog-kun" changeset="5121713" lat="52.4102283" lon="16.9189506"/>
  <node id="583405216" version="1" timestamp="2009-12-08T22:29:02Z" uid="123700" user="Mala" changeset="3328988" lat="52.410205" lon="16.9194085"/>
  <node id="583405217" version="1" timestamp="2009-12-08T22:29:02Z" uid="123700" user="Mala" changeset="3328988" lat="52.4102704" lon="16.9191979"/>
  <node id="583405218" version="1" timestamp="2009-12-08T22:29:02Z" uid="123700" user="Mala" changeset="3328988" lat="52.4096724" lon="16.920161"/>
  <node id="583405219" version="1" timestamp="2009-12-08T22:29:02Z" uid="123700" user="Mala" changeset="3328988" lat="52.4100204" lon="16.9200276"/>
  <node id="583405219" version="2" timestamp="2010-07-01T16:07:38Z" uid="20587" user="balrog-kun" changeset="5121713" lat="52.410024" lon="16.920022"/>
  <node id="583405220" version="1" timestamp="2009-12-08T22:29:02Z" uid="123700" user="Mala" changeset="3328988" lat="52.4100904" lon="16.9196958"/>
  <node id="583405220" version="2" timestamp="2010-07-01T16:07:38Z" uid="20587" user="balrog-kun" changeset="5121713" lat="52.4100876" lon="16.9196973"/>
  <node id="583405221" version="1" timestamp="2009-12-08T22:29:03Z" uid="123700" user="Mala" changeset="3328988" lat="52.4101485" lon="16.9196689"/>
  <node id="583405222" version="1" timestamp="2009-12-08T22:29:03Z" uid="123700" user="Mala" changeset="3328988" lat="52.4094604" lon="16.9207151"/>
  <node id="583405223" version="1" timestamp="2009-12-08T22:29:03Z" uid="123700" user="Mala" changeset="3328988" lat="52.4091733" lon="16.9204186"/>
  <node id="583405224" version="1" timestamp="2009-12-08T22:29:03Z" uid="123700" user="Mala" changeset="3328988" lat="52.4090935" lon="16.9206264"/>
  <node id="583405225" version="1" timestamp="2009-12-08T22:29:03Z" uid="123700" user="Mala" changeset="3328988" lat="52.4093805" lon="16.9209229"/>
  <node id="583405226" version="1" timestamp="2009-12-08T22:29:03Z" uid="123700" user="Mala" changeset="3328988" lat="52.4091874" lon="16.9205834">
    <tag k="amenity" v="place_of_worship"/>
    <tag k="denomination" v="catholic"/>
    <tag k="religion" v="christian"/>
  </node>
  <node id="583405227" version="1" timestamp="2009-12-08T22:29:03Z" uid="123700" user="Mala" changeset="3328988" lat="52.4094426" lon="16.9204962"/>
  <node id="583405228" version="1" timestamp="2009-12-08T22:29:03Z" uid="123700" user="Mala" changeset="3328988" lat="52.409564" lon="16.9205154"/>
  <node id="583405229" version="1" timestamp="2009-12-08T22:29:03Z" uid="123700" user="Mala" changeset="3328988" lat="52.409575" lon="16.9203276"/>
  <node id="583405230" version="1" timestamp="2009-12-08T22:29:03Z" uid="123700" user="Mala" changeset="3328988" lat="52.4091631" lon="16.921252"/>
  <node id="583405231" version="1" timestamp="2009-12-08T22:29:03Z" uid="123700" user="Mala" changeset="3328988" lat="52.408935" lon="16.9212656"/>
  <node id="583405233" version="1" timestamp="2009-12-08T22:29:03Z" uid="123700" user="Mala" changeset="3328988" lat="52.4090848" lon="16.9214365"/>
  <node id="583405234" version="1" timestamp="2009-12-08T22:29:03Z" uid="123700" user="Mala" changeset="3328988" lat="52.4089261" lon="16.9211214">
    <tag k="addr:housenumber" v="12"/>
    <tag k="addr:street" v="Fredry"/>
    <tag k="amenity" v="restaurant"/>
    <tag k="name" v="W-Z Strefa Tańca"/>
  </node>
  <node id="583405238" version="1" timestamp="2009-12-08T22:29:03Z" uid="123700" user="Mala" changeset="3328988" lat="52.4096619" lon="16.9203413"/>
  <node id="583405239" version="1" timestamp="2009-12-08T22:29:04Z" uid="123700" user="Mala" changeset="3328988" lat="52.408161" lon="16.92219">
    <tag k="highway" v="crossing"/>
  </node>
  <node id="583405241" version="1" timestamp="2009-12-08T22:29:04Z" uid="123700" user="Mala" changeset="3328988" lat="52.4082089" lon="16.9221924">
    <tag k="highway" v="crossing"/>
  </node>
  <node id="583405242" version="1" timestamp="2009-12-08T22:29:04Z" uid="123700" user="Mala" changeset="3328988" lat="52.4081565" lon="16.9217238">
    <tag k="name" v="Paris Optique"/>
    <tag k="shop" v="optician"/>
  </node>
  <node id="583405244" version="1" timestamp="2009-12-08T22:29:04Z" uid="123700" user="Mala" changeset="3328988" lat="52.4081034" lon="16.9218006">
    <tag k="shop" v="optician"/>
  </node>
  <node id="583405246" version="1" timestamp="2009-12-08T22:29:04Z" uid="123700" user="Mala" changeset="3328988" lat="52.4081378" lon="16.9219081">
    <tag k="name" v="Remar"/>
    <tag k="shop" v="shoes"/>
  </node>
  <node id="583405247" version="1" timestamp="2009-12-08T22:29:04Z" uid="123700" user="Mala" changeset="3328988" lat="52.4080784" lon="16.9220514">
    <tag k="amenity" v="language_school"/>
    <tag k="name" v="EMPiK School"/>
  </node>
  <node id="583405251" version="1" timestamp="2009-12-08T22:29:04Z" uid="123700" user="Mala" changeset="3328988" lat="52.4080585" lon="16.9222482">
    <tag k="amenity" v="fast_food"/>
    <tag k="name" v="McDonald&apos;s"/>
  </node>
  <node id="583405253" version="1" timestamp="2009-12-08T22:29:04Z" uid="123700" user="Mala" changeset="3328988" lat="52.4076631" lon="16.9230036">
    <tag k="shop" v="antiquieties"/>
  </node>
  <node id="583405254" version="1" timestamp="2009-12-08T22:29:04Z" uid="123700" user="Mala" changeset="3328988" lat="52.4075569" lon="16.9229678">
    <tag k="amenity" v="restaurant"/>
    <tag k="cuisine" v="local"/>
    <tag k="name" v="Chłopskie Jadło"/>
  </node>
  <node id="583405257" version="1" timestamp="2009-12-08T22:29:04Z" uid="123700" user="Mala" changeset="3328988" lat="52.4080266" lon="16.9225637">
    <tag k="amenity" v="bank"/>
    <tag k="atm" v="yes"/>
    <tag k="name" v="Nordea Bank"/>
    <tag k="operator" v="Nordea Bank Polska SA"/>
  </node>
  <node id="583405259" version="1" timestamp="2009-12-08T22:29:04Z" uid="123700" user="Mala" changeset="3328988" lat="52.4087582" lon="16.9219518"/>
  <node id="583405260" version="1" timestamp="2009-12-08T22:29:04Z" uid="123700" user="Mala" changeset="3328988" lat="52.4088302" lon="16.9218261"/>
  <node id="583405262" version="1" timestamp="2009-12-08T22:29:04Z" uid="123700" user="Mala" changeset="3328988" lat="52.4088297" lon="16.9218991">
    <tag k="amenity" v="cafe"/>
    <tag k="name" v="Piwnica Artystyczna Pod Semaforem"/>
  </node>
  <node id="583405264" version="1" timestamp="2009-12-08T22:29:05Z" uid="123700" user="Mala" changeset="3328988" lat="52.4088105" lon="16.9220354">
    <tag k="amenity" v="pub"/>
    <tag k="name" v="Brooklyn Bridge Club"/>
  </node>
  <node id="583405266" version="1" timestamp="2009-12-08T22:29:05Z" uid="123700" user="Mala" changeset="3328988" lat="52.4088772" lon="16.9221665">
    <tag k="shop" v="jewellery"/>
  </node>
  <node id="583405268" version="1" timestamp="2009-12-08T22:29:05Z" uid="123700" user="Mala" changeset="3328988" lat="52.4089352" lon="16.9222772">
    <tag k="shop" v="hairdresser"/>
  </node>
  <node id="583405271" version="1" timestamp="2009-12-08T22:29:05Z" uid="123700" user="Mala" changeset="3328988" lat="52.4086968" lon="16.9224456">
    <tag k="shop" v="travel_agency"/>
  </node>
  <node id="583405273" version="1" timestamp="2009-12-08T22:29:05Z" uid="123700" user="Mala" changeset="3328988" lat="52.4088685" lon="16.922804">
    <tag k="name" v="EXIM Tours"/>
    <tag k="shop" v="travel_agency"/>
  </node>
  <node id="583405275" version="1" timestamp="2009-12-08T22:29:05Z" uid="123700" user="Mala" changeset="3328988" lat="52.4079175" lon="16.9233039">
    <tag k="highway" v="crossing"/>
  </node>
  <node id="583405276" version="1" timestamp="2009-12-08T22:29:05Z" uid="123700" user="Mala" changeset="3328988" lat="52.4079691" lon="16.9231316">
    <tag k="name" v="Kasia"/>
    <tag k="operator" v="Społem"/>
    <tag k="shop" v="delicatessen"/>
  </node>
  <node id="583405276" version="2" timestamp="2010-07-30T09:00:17Z" uid="74617" user="JohnSmith" changeset="5352774" lat="52.4079691" lon="16.9231316">
    <tag k="name" v="Kasia"/>
    <tag k="operator" v="Społem"/>
    <tag k="shop" v="deli"/>
  </node>
  <node id="583405278" version="1" timestamp="2009-12-08T22:29:05Z" uid="123700" user="Mala" changeset="3328988" lat="52.4079348" lon="16.9234285">
    <tag k="amenity" v="bank"/>
    <tag k="name" v="Alior Bank"/>
    <tag k="operator" v="Alior Bank"/>
  </node>
  <node id="583405280" version="1" timestamp="2009-12-08T22:29:05Z" uid="123700" user="Mala" changeset="3328988" lat="52.4079067" lon="16.9238176">
    <tag k="amenity" v="bureau_de_change"/>
  </node>
  <node id="583405282" version="1" timestamp="2009-12-08T22:29:05Z" uid="123700" user="Mala" changeset="3328988" lat="52.4078911" lon="16.9239968">
    <tag k="amenity" v="bank"/>
    <tag k="name" v="ING"/>
    <tag k="operator" v="ING"/>
  </node>
  <node id="583405284" version="1" timestamp="2009-12-08T22:29:05Z" uid="123700" user="Mala" changeset="3328988" lat="52.407738" lon="16.9241503">
    <tag k="amenity" v="language_school"/>
    <tag k="name" v="Centrum Języka Włoskiego Dante Alighieri"/>
  </node>
  <node id="583405290" version="1" timestamp="2009-12-08T22:29:06Z" uid="123700" user="Mala" changeset="3328988" lat="52.4078567" lon="16.9243756">
    <tag k="name" v="Bianca"/>
    <tag k="shop" v="clothes"/>
  </node>
  <node id="583405291" version="1" timestamp="2009-12-08T22:29:06Z" uid="123700" user="Mala" changeset="3328988" lat="52.4089904" lon="16.9223827">
    <tag k="amenity" v="cafe"/>
    <tag k="name" v="Kawiarnia Rarytas Wiedeński"/>
  </node>
  <node id="583405294" version="1" timestamp="2009-12-08T22:29:06Z" uid="123700" user="Mala" changeset="3328988" lat="52.4090499" lon="16.9224843">
    <tag k="amenity" v="kindergarten"/>
    <tag k="name" v="Przedszkole numer 31"/>
  </node>
  <node id="583405297" version="1" timestamp="2009-12-08T22:29:06Z" uid="123700" user="Mala" changeset="3328988" lat="52.4091207" lon="16.9226232">
    <tag k="amenity" v="public_building"/>
    <tag k="name" v="Urząd Miasta Poznania-Wydział Zdrowia i Spraw Społecznych"/>
  </node>
  <node id="583405299" version="1" timestamp="2009-12-08T22:29:06Z" uid="123700" user="Mala" changeset="3328988" lat="52.4091958" lon="16.9227549">
    <tag k="name" v="Ewa-Dekor"/>
    <tag k="shop" v="sweetshop"/>
  </node>
  <node id="583405302" version="1" timestamp="2009-12-08T22:29:06Z" uid="123700" user="Mala" changeset="3328988" lat="52.4093889" lon="16.9226552">
    <tag k="amenity" v="cafe"/>
    <tag k="name" v="U Przyjaciół"/>
  </node>
  <node id="583405304" version="1" timestamp="2009-12-08T22:29:06Z" uid="123700" user="Mala" changeset="3328988" lat="52.4089934" lon="16.9229985">
    <tag k="name" v="Ceramika Bolesławiecka"/>
    <tag k="shop" v="dishware"/>
  </node>
  <node id="583405306" version="1" timestamp="2009-12-08T22:29:06Z" uid="123700" user="Mala" changeset="3328988" lat="52.4089966" lon="16.9231879">
    <tag k="amenity" v="language_school"/>
    <tag k="name" v="Felberg School of English"/>
  </node>
  <node id="583405308" version="1" timestamp="2009-12-08T22:29:06Z" uid="123700" user="Mala" changeset="3328988" lat="52.409237" lon="16.92349">
    <tag k="amenity" v="bank"/>
    <tag k="name" v="Polsba SGB Consulting"/>
  </node>
  <node id="583405309" version="1" timestamp="2009-12-08T22:29:06Z" uid="123700" user="Mala" changeset="3328988" lat="52.4091652" lon="16.9233517">
    <tag k="amenity" v="atm"/>
    <tag k="name" v="GBW SA"/>
  </node>
  <node id="583405310" version="1" timestamp="2009-12-08T22:29:06Z" uid="123700" user="Mala" changeset="3328988" lat="52.409476" lon="16.9233866">
    <tag k="shop" v="travel_agency"/>
  </node>
  <node id="583405313" version="1" timestamp="2009-12-08T22:29:06Z" uid="123700" user="Mala" changeset="3328988" lat="52.4093924" lon="16.9235502">
    <tag k="highway" v="crossing"/>
  </node>
  <node id="583405315" version="1" timestamp="2009-12-08T22:29:06Z" uid="123700" user="Mala" changeset="3328988" lat="52.4095266" lon="16.923634">
    <tag k="highway" v="crossing"/>
  </node>
  <node id="583405317" version="1" timestamp="2009-12-08T22:29:06Z" uid="123700" user="Mala" changeset="3328988" lat="52.4095608" lon="16.9234645">
    <tag k="amenity" v="pharmacy"/>
    <tag k="name" v="Apteka Nowomiejska"/>
  </node>
  <node id="583405319" version="1" timestamp="2009-12-08T22:29:06Z" uid="123700" user="Mala" changeset="3328988" lat="52.4093494" lon="16.9236845">
    <tag k="amenity" v="bank"/>
    <tag k="name" v="GBW SA"/>
    <tag k="operator" v="GBW SA"/>
  </node>
  <node id="583405322" version="1" timestamp="2009-12-08T22:29:06Z" uid="123700" user="Mala" changeset="3328988" lat="52.4096571" lon="16.922483">
    <tag k="amenity" v="library"/>
    <tag k="name" v="Towarzystwo Przyjaciół Nauki"/>
  </node>
  <node id="583405324" version="1" timestamp="2009-12-08T22:29:06Z" uid="123700" user="Mala" changeset="3328988" lat="52.4092964" lon="16.9243654">
    <tag k="amenity" v="cafe"/>
    <tag k="name" v="Cukiernia Kandulski"/>
  </node>
  <node id="583405326" version="1" timestamp="2009-12-08T22:29:07Z" uid="123700" user="Mala" changeset="3328988" lat="52.4096747" lon="16.9233498">
    <tag k="shop" v="photo"/>
  </node>
  <node id="583405327" version="1" timestamp="2009-12-08T22:29:07Z" uid="123700" user="Mala" changeset="3328988" lat="52.4099225" lon="16.9233662">
    <tag k="name" v="Madame Sans-Gene"/>
    <tag k="shop" v="laundry"/>
  </node>
  <node id="583405328" version="1" timestamp="2009-12-08T22:29:07Z" uid="123700" user="Mala" changeset="3328988" lat="52.4099265" lon="16.9234808">
    <tag k="shop" v="optician"/>
  </node>
  <node id="583405330" version="1" timestamp="2009-12-08T22:29:07Z" uid="123700" user="Mala" changeset="3328988" lat="52.4097066" lon="16.9243052">
    <tag k="highway" v="crossing"/>
  </node>
  <node id="583405331" version="1" timestamp="2009-12-08T22:29:07Z" uid="123700" user="Mala" changeset="3328988" lat="52.4096653" lon="16.9243015">
    <tag k="shop" v="kiosk"/>
  </node>
  <node id="583405333" version="1" timestamp="2009-12-08T22:29:07Z" uid="123700" user="Mala" changeset="3328988" lat="52.4101034" lon="16.9237993">
    <tag k="highway" v="crossing"/>
  </node>
  <node id="583405336" version="1" timestamp="2009-12-08T22:29:07Z" uid="123700" user="Mala" changeset="3328988" lat="52.4100824" lon="16.9239264">
    <tag k="amenity" v="public_building"/>
    <tag k="name" v="Izba Skarbowa"/>
  </node>
  <node id="583405338" version="1" timestamp="2009-12-08T22:29:07Z" uid="123700" user="Mala" changeset="3328988" lat="52.4101624" lon="16.9239821">
    <tag k="amenity" v="fast_food"/>
    <tag k="name" v="Bistro Picasso"/>
  </node>
  <node id="583405345" version="1" timestamp="2009-12-08T22:29:07Z" uid="123700" user="Mala" changeset="3328988" lat="52.4101564" lon="16.9241459">
    <tag k="name" v="Delikatesy Unipoz"/>
    <tag k="note" v="open 24h"/>
    <tag k="shop" v="delicatessen"/>
  </node>
  <node id="583405345" version="2" timestamp="2010-07-30T09:00:14Z" uid="74617" user="JohnSmith" changeset="5352774" lat="52.4101564" lon="16.9241459">
    <tag k="name" v="Delikatesy Unipoz"/>
    <tag k="note" v="open 24h"/>
    <tag k="shop" v="deli"/>
  </node>
  <node id="583405346" version="1" timestamp="2009-12-08T22:29:07Z" uid="123700" user="Mala" changeset="3328988" lat="52.4101484" lon="16.9242934">
    <tag k="shop" v="dry_cleaning"/>
  </node>
  <node id="583405348" version="1" timestamp="2009-12-08T22:29:07Z" uid="123700" user="Mala" changeset="3328988" lat="52.4101284" lon="16.9244343">
    <tag k="amenity" v="fast_food"/>
    <tag k="name" v="Pod Koziołkami"/>
  </node>
  <node id="583405351" version="1" timestamp="2009-12-08T22:29:07Z" uid="123700" user="Mala" changeset="3328988" lat="52.4077037" lon="16.9244677">
    <tag k="amenity" v="fast_food"/>
    <tag k="cuisine" v="chicken"/>
    <tag k="name" v="Bistro FRIKO"/>
  </node>
  <node id="583405353" version="1" timestamp="2009-12-08T22:29:07Z" uid="123700" user="Mala" changeset="3328988" lat="52.4078348" lon="16.9246111">
    <tag k="amenity" v="bank"/>
    <tag k="name" v="Open Finance"/>
    <tag k="operator" v="Open Finance"/>
  </node>
  <node id="583405356" version="1" timestamp="2009-12-08T22:29:07Z" uid="123700" user="Mala" changeset="3328988" lat="52.4078067" lon="16.9248978">
    <tag k="amenity" v="cafe"/>
    <tag k="name" v="Gazeta Cafe"/>
  </node>
  <node id="583405359" version="1" timestamp="2009-12-08T22:29:08Z" uid="123700" user="Mala" changeset="3328988" lat="52.4077974" lon="16.9250769">
    <tag k="amenity" v="bank"/>
    <tag k="name" v="Polbank"/>
    <tag k="operator" v="Polbank"/>
  </node>
  <node id="583405360" version="1" timestamp="2009-12-08T22:29:08Z" uid="123700" user="Mala" changeset="3328988" lat="52.4079293" lon="16.9247348">
    <tag k="highway" v="crossing"/>
  </node>
  <node id="583405361" version="1" timestamp="2009-12-08T22:29:08Z" uid="123700" user="Mala" changeset="3328988" lat="52.4079862" lon="16.9247496">
    <tag k="highway" v="crossing"/>
  </node>
  <node id="583405363" version="1" timestamp="2009-12-08T22:29:08Z" uid="123700" user="Mala" changeset="3328988" lat="52.4077911" lon="16.9253317">
    <tag k="highway" v="crossing"/>
  </node>
  <node id="583405365" version="1" timestamp="2009-12-08T22:29:08Z" uid="123700" user="Mala" changeset="3328988" lat="52.4077443" lon="16.9251998">
    <tag k="amenity" v="bank"/>
    <tag k="name" v="Raiffeisen Bank"/>
    <tag k="operator" v="Raiffeisen Bank"/>
  </node>
  <node id="583405368" version="1" timestamp="2009-12-08T22:29:08Z" uid="123700" user="Mala" changeset="3328988" lat="52.4093292" lon="16.9245083">
    <tag k="highway" v="crossing"/>
  </node>
  <node id="583405370" version="1" timestamp="2009-12-08T22:29:08Z" uid="123700" user="Mala" changeset="3328988" lat="52.4098584" lon="16.9249977">
    <tag k="amenity" v="bank"/>
    <tag k="name" v="Allianz Bank"/>
    <tag k="operator" v="Allianz Bank"/>
  </node>
  <node id="583405374" version="1" timestamp="2009-12-08T22:29:08Z" uid="123700" user="Mala" changeset="3328988" lat="52.4097062" lon="16.9250543">
    <tag k="shop" v="butcher"/>
  </node>
  <node id="583405376" version="1" timestamp="2009-12-08T22:29:08Z" uid="123700" user="Mala" changeset="3328988" lat="52.4101125" lon="16.9246011">
    <tag k="highway" v="crossing"/>
  </node>
  <node id="583405378" version="1" timestamp="2009-12-08T22:29:08Z" uid="123700" user="Mala" changeset="3328988" lat="52.4099394" lon="16.9249442">
    <tag k="highway" v="crossing"/>
  </node>
  <node id="583405379" version="1" timestamp="2009-12-08T22:29:08Z" uid="123700" user="Mala" changeset="3328988" lat="52.4101009" lon="16.9245251">
    <tag k="amenity" v="bicycle_parking"/>
  </node>
  <node id="583405381" version="1" timestamp="2009-12-08T22:29:08Z" uid="123700" user="Mala" changeset="3328988" lat="52.4100895" lon="16.9266992">
    <tag k="highway" v="crossing"/>
  </node>
  <node id="583405382" version="1" timestamp="2009-12-08T22:29:08Z" uid="123700" user="Mala" changeset="3328988" lat="52.4099395" lon="16.9268606">
    <tag k="highway" v="crossing"/>
  </node>
  <node id="583405384" version="1" timestamp="2009-12-08T22:29:08Z" uid="123700" user="Mala" changeset="3328988" lat="52.4107608" lon="16.9192455"/>
  <node id="583405386" version="1" timestamp="2009-12-08T22:29:08Z" uid="123700" user="Mala" changeset="3328988" lat="52.4107172" lon="16.9194464"/>
  <node id="583405388" version="1" timestamp="2009-12-08T22:29:08Z" uid="123700" user="Mala" changeset="3328988" lat="52.4105417" lon="16.9193442"/>
  <node id="583405390" version="1" timestamp="2009-12-08T22:29:08Z" uid="123700" user="Mala" changeset="3328988" lat="52.4104898" lon="16.9195841"/>
  <node id="583405392" version="1" timestamp="2009-12-08T22:29:09Z" uid="123700" user="Mala" changeset="3328988" lat="52.4108321" lon="16.9197834"/>
  <node id="583405394" version="1" timestamp="2009-12-08T22:29:09Z" uid="123700" user="Mala" changeset="3328988" lat="52.4107776" lon="16.9200352"/>
  <node id="583405397" version="1" timestamp="2009-12-08T22:29:09Z" uid="123700" user="Mala" changeset="3328988" lat="52.4103805" lon="16.9195107"/>
  <node id="583405399" version="1" timestamp="2009-12-08T22:29:09Z" uid="123700" user="Mala" changeset="3328988" lat="52.4104283" lon="16.9192899"/>
  <node id="583405404" version="1" timestamp="2009-12-08T22:29:09Z" uid="123700" user="Mala" changeset="3328988" lat="52.4103162" lon="16.9189866"/>
  <node id="583405813" version="3" timestamp="2010-06-14T21:30:36Z" uid="151899" user="Bikeman2000" changeset="4991781" lat="51.2230782" lon="6.7746938"/>
  <node id="583405936" version="2" timestamp="2010-06-15T17:33:08Z" uid="151899" user="Bikeman2000" changeset="4993451" lat="51.2240716" lon="6.7743943"/>
  <node id="583405941" version="2" timestamp="2010-06-15T17:33:09Z" uid="151899" user="Bikeman2000" changeset="4993451" lat="51.2242027" lon="6.7743963"/>
  <node id="583405948" version="2" timestamp="2010-06-15T17:33:11Z" uid="151899" user="Bikeman2000" changeset="4993451" lat="51.2243613" lon="6.7744001"/>
  <node id="583405950" version="2" timestamp="2010-06-15T17:33:08Z" uid="151899" user="Bikeman2000" changeset="4993451" lat="51.2242747" lon="6.7743985"/>
  <node id="583405954" version="2" timestamp="2010-06-15T17:33:07Z" uid="151899" user="Bikeman2000" changeset="4993451" lat="51.2240697" lon="6.7746537"/>
  <node id="583405977" version="2" timestamp="2010-06-15T17:33:10Z" uid="151899" user="Bikeman2000" changeset="4993451" lat="51.2240668" lon="6.7749631"/>
  <node id="583405988" version="2" timestamp="2010-06-15T17:33:10Z" uid="151899" user="Bikeman2000" changeset="4993451" lat="51.2240285" lon="6.7749622"/>
  <node id="583405991" version="2" timestamp="2010-06-15T17:33:10Z" uid="151899" user="Bikeman2000" changeset="4993451" lat="51.2240275" lon="6.7750795"/>
  <node id="583405994" version="2" timestamp="2010-06-15T17:33:09Z" uid="151899" user="Bikeman2000" changeset="4993451" lat="51.2242655" lon="6.7745307"/>
  <node id="583405997" version="2" timestamp="2010-06-15T17:33:09Z" uid="151899" user="Bikeman2000" changeset="4993451" lat="51.2242651" lon="6.7745815"/>
  <node id="583406001" version="2" timestamp="2010-06-15T17:33:07Z" uid="151899" user="Bikeman2000" changeset="4993451" lat="51.2242143" lon="6.7745805"/>
  <node id="583406003" version="2" timestamp="2010-06-15T17:33:08Z" uid="151899" user="Bikeman2000" changeset="4993451" lat="51.2242143" lon="6.7745941"/>
  <node id="583406005" version="2" timestamp="2010-06-15T17:33:09Z" uid="151899" user="Bikeman2000" changeset="4993451" lat="51.2242012" lon="6.7745938"/>
  <node id="583406008" version="2" timestamp="2010-06-15T17:33:09Z" uid="151899" user="Bikeman2000" changeset="4993451" lat="51.224201" lon="6.7746209"/>
  <node id="583406011" version="2" timestamp="2010-06-15T17:33:09Z" uid="151899" user="Bikeman2000" changeset="4993451" lat="51.2241448" lon="6.7746554"/>
  <node id="583406014" version="2" timestamp="2010-06-15T17:33:09Z" uid="151899" user="Bikeman2000" changeset="4993451" lat="51.2241448" lon="6.7746637"/>
  <node id="583406018" version="2" timestamp="2010-06-15T17:33:09Z" uid="151899" user="Bikeman2000" changeset="4993451" lat="51.2242007" lon="6.774665"/>
  <node id="583406021" version="2" timestamp="2010-06-15T17:33:08Z" uid="151899" user="Bikeman2000" changeset="4993451" lat="51.2242003" lon="6.7747226"/>
  <node id="583406023" version="2" timestamp="2010-06-15T17:33:09Z" uid="151899" user="Bikeman2000" changeset="4993451" lat="51.22436" lon="6.7745983"/>
  <node id="583406025" version="2" timestamp="2010-06-15T17:33:10Z" uid="151899" user="Bikeman2000" changeset="4993451" lat="51.2242738" lon="6.7745308"/>
  <node id="583406026" version="2" timestamp="2010-06-15T17:33:09Z" uid="151899" user="Bikeman2000" changeset="4993451" lat="51.2242808" lon="6.7746223"/>
  <node id="583406028" version="2" timestamp="2010-06-15T17:33:10Z" uid="151899" user="Bikeman2000" changeset="4993451" lat="51.224281" lon="6.7745968"/>
  <node id="583406029" version="2" timestamp="2010-06-15T17:33:09Z" uid="151899" user="Bikeman2000" changeset="4993451" lat="51.2243591" lon="6.7747255"/>
  <node id="583406043" version="2" timestamp="2010-06-15T17:33:08Z" uid="151899" user="Bikeman2000" changeset="4993451" lat="51.2242257" lon="6.7750837"/>
  <node id="583406046" version="2" timestamp="2010-06-15T17:33:08Z" uid="151899" user="Bikeman2000" changeset="4993451" lat="51.22412" lon="6.7750817"/>
  <node id="583406048" version="2" timestamp="2010-06-15T17:33:09Z" uid="151899" user="Bikeman2000" changeset="4993451" lat="51.2241985" lon="6.7749778"/>
  <node id="583406052" version="2" timestamp="2010-06-15T17:33:07Z" uid="151899" user="Bikeman2000" changeset="4993451" lat="51.2241978" lon="6.7750832"/>
  <node id="583406067" version="2" timestamp="2010-06-15T17:33:09Z" uid="151899" user="Bikeman2000" changeset="4993451" lat="51.2243573" lon="6.7749807"/>
  <node id="583406115" version="2" timestamp="2010-06-15T17:33:08Z" uid="151899" user="Bikeman2000" changeset="4993451" lat="51.2242249" lon="6.7751984"/>
  <node id="583406129" version="2" timestamp="2010-06-15T17:33:08Z" uid="151899" user="Bikeman2000" changeset="4993451" lat="51.2243556" lon="6.7752165"/>
  <node id="583406130" version="2" timestamp="2010-06-15T17:33:10Z" uid="151899" user="Bikeman2000" changeset="4993451" lat="51.2242775" lon="6.7752151"/>
  <node id="583406133" version="2" timestamp="2010-06-15T17:33:10Z" uid="151899" user="Bikeman2000" changeset="4993451" lat="51.2242777" lon="6.7751993"/>
  <node id="583406838" version="1" timestamp="2009-12-08T22:33:34Z" uid="30201" user="rrankin" changeset="3329077" lat="-33.882019" lon="151.1039787"/>
  <node id="583406839" version="1" timestamp="2009-12-08T22:33:34Z" uid="30201" user="rrankin" changeset="3329077" lat="-33.8820124" lon="151.1038885"/>
  <node id="583406840" version="1" timestamp="2009-12-08T22:33:34Z" uid="30201" user="rrankin" changeset="3329077" lat="-33.8819089" lon="151.103915"/>
  <node id="583406841" version="1" timestamp="2009-12-08T22:33:34Z" uid="30201" user="rrankin" changeset="3329077" lat="-33.8819089" lon="151.1040768"/>
  <node id="583406842" version="1" timestamp="2009-12-08T22:33:34Z" uid="30201" user="rrankin" changeset="3329077" lat="-33.8819727" lon="151.1040741"/>
  <node id="583406843" version="1" timestamp="2009-12-08T22:33:34Z" uid="30201" user="rrankin" changeset="3329077" lat="-33.8822677" lon="151.1038373">
    <tag k="leisure" v="bbq"/>
  </node>
  <node id="583406843" version="2" timestamp="2009-12-16T05:08:26Z" uid="30201" user="rrankin" changeset="3384509" lat="-33.8822677" lon="151.1038373">
    <tag k="amenity" v="bbq"/>
  </node>
  <node id="583406844" version="1" timestamp="2009-12-08T22:33:34Z" uid="30201" user="rrankin" changeset="3329077" lat="-33.8816104" lon="151.104155">
    <tag k="leisure" v="playground"/>
  </node>
  <node id="583408426" version="2" timestamp="2009-12-12T03:50:37Z" uid="4467" user="Rosscoe" changeset="3353588" lat="-37.7183181" lon="144.901397"/>
  <node id="583408445" version="2" timestamp="2009-12-12T03:46:07Z" uid="4467" user="Rosscoe" changeset="3353584" lat="-37.7154423" lon="144.9007664"/>
  <node id="583408447" version="2" timestamp="2009-12-12T03:46:06Z" uid="4467" user="Rosscoe" changeset="3353584" lat="-37.7157467" lon="144.9003895"/>
  <node id="583408449" version="2" timestamp="2009-12-12T03:46:06Z" uid="4467" user="Rosscoe" changeset="3353584" lat="-37.7157609" lon="144.900744"/>
  <node id="583408454" version="2" timestamp="2009-12-12T03:46:07Z" uid="4467" user="Rosscoe" changeset="3353584" lat="-37.7154319" lon="144.900592"/>
  <node id="583408468" version="2" timestamp="2009-12-12T03:46:07Z" uid="4467" user="Rosscoe" changeset="3353584" lat="-37.7144567" lon="144.8999082"/>
  <node id="583408470" version="2" timestamp="2009-12-12T03:46:07Z" uid="4467" user="Rosscoe" changeset="3353584" lat="-37.7145569" lon="144.899772"/>
  <node id="583408471" version="2" timestamp="2009-12-12T03:46:07Z" uid="4467" user="Rosscoe" changeset="3353584" lat="-37.7144294" lon="144.8998195"/>
  <node id="583408472" version="2" timestamp="2009-12-12T03:46:07Z" uid="4467" user="Rosscoe" changeset="3353584" lat="-37.714473" lon="144.8999373"/>
  <node id="583408474" version="2" timestamp="2009-12-12T03:46:08Z" uid="4467" user="Rosscoe" changeset="3353584" lat="-37.7142822" lon="144.9012079"/>
  <node id="583408477" version="2" timestamp="2009-12-12T03:46:08Z" uid="4467" user="Rosscoe" changeset="3353584" lat="-37.7145266" lon="144.900595"/>
  <node id="583409984" version="3" timestamp="2010-05-01T20:00:16Z" uid="279514" user="Cheaterkenner" changeset="4578856" lat="51.938888" lon="7.653138">
    <tag k="addr:street" v="Albersloher Weg"/>
    <tag k="highway" v="bus_stop"/>
    <tag k="name" v="Willy-Brandt-Weg"/>
    <tag k="shelter" v="yes"/>
  </node>
  <node id="583409987" version="3" timestamp="2010-05-01T20:00:17Z" uid="279514" user="Cheaterkenner" changeset="4578856" lat="51.9348098" lon="7.6592517">
    <tag k="addr:street" v="Albersloher Weg"/>
    <tag k="highway" v="bus_stop"/>
    <tag k="name" v="Heumannsweg"/>
    <tag k="shelter" v="yes"/>
  </node>
  <node id="583409991" version="3" timestamp="2010-05-01T20:00:15Z" uid="279514" user="Cheaterkenner" changeset="4578856" lat="51.9383484" lon="7.6536334">
    <tag k="addr:street" v="Albersloher Weg"/>
    <tag k="highway" v="bus_stop"/>
    <tag k="name" v="Willy-Brandt-Weg"/>
    <tag k="shelter" v="yes"/>
  </node>
</osm>
