<?xml version='1.0' encoding='UTF-8'?>
<osm version="0.6" generator="libosmium/2.20.0">
  <node id="587590021" version="2" timestamp="2010-04-11T04:54:04Z" uid="20587" user="balrog-kun" changeset="4389130" lat="53.26571" lon="19.15865">
    <tag k="name" v="Niezywiec"/>
    <tag k="place" v="village"/>
    <tag k="source" v="http://ump.waw.pl/ retrieved 11:19:07 11/17/09 (UMP-Torun/src/cities-Torun.pnt-converted.txt)"/>
  </node>
  <node id="587590021" version="3" timestamp="2010-04-11T13:17:54Z" uid="20587" user="balrog-kun" changeset="4392352" lat="53.26571" lon="19.15865">
    <tag k="name" v="Niezywiec"/>
    <tag k="place" v="village"/>
    <tag k="source" v="http://ump.waw.pl/ retrieved 11:19:07 11/17/09 (UMP-Torun/src/cities-Torun.pnt-converted.txt)"/>
  </node>
  <node id="587590344" version="2" timestamp="2010-04-11T04:54:04Z" uid="20587" user="balrog-kun" changeset="4389130" lat="53.30575" lon="19.08557">
    <tag k="name" v="Piwnice"/>
    <tag k="place" v="village"/>
    <tag k="source" v="http://ump.waw.pl/ retrieved 11:19:07 11/17/09 (UMP-Torun/src/cities-Torun.pnt-converted.txt)"/>
  </node>
  <node id="587590344" version="3" timestamp="2010-04-11T13:17:54Z" uid="20587" user="balrog-kun" changeset="4392352" lat="53.30575" lon="19.08557">
    <tag k="name" v="Piwnice"/>
    <tag k="place" v="village"/>
    <tag k="source" v="http://ump.waw.pl/ retrieved 11:19:07 11/17/09 (UMP-Torun/src/cities-Torun.pnt-converted.txt)"/>
  </node>
  <node id="587590365" version="2" timestamp="2010-04-11T04:54:04Z" uid="20587" user="balrog-kun" changeset="4389130" lat="53.33836" lon="19.07699">
    <tag k="name" v="Lopatki Nowe"/>
    <tag k="place" v="village"/>
    <tag k="source" v="http://ump.waw.pl/ retrieved 11:19:07 11/17/09 (UMP-Torun/src/cities-Torun.pnt-converted.txt)"/>
  </node>
  <node id="587590365" version="3" timestamp="2010-04-11T13:17:54Z" uid="20587" user="balrog-kun" changeset="4392352" lat="53.33836" lon="19.07699">
    <tag k="name" v="Lopatki Nowe"/>
    <tag k="place" v="village"/>
    <tag k="source" v="http://ump.waw.pl/ retrieved 11:19:07 11/17/09 (UMP-Torun/src/cities-Torun.pnt-converted.txt)"/>
  </node>
  <node id="587590393" version="2" timestamp="2010-04-11T04:54:04Z" uid="20587" user="balrog-kun" changeset="4389130" lat="53.32836" lon="19.10565">
    <tag k="name" v="Brudzawki"/>
    <tag k="place" v="village"/>
    <tag k="source" v="http://ump.waw.pl/ retrieved 11:19:07 11/17/09 (UMP-Torun/src/cities-Torun.pnt-converted.txt)"/>
  </node>
  <node id="587590393" version="3" timestamp="2010-04-11T13:17:54Z" uid="20587" user="balrog-kun" changeset="4392352" lat="53.32836" lon="19.10565">
    <tag k="name" v="Brudzawki"/>
    <tag k="place" v="village"/>
    <tag k="source" v="http://ump.waw.pl/ retrieved 11:19:07 11/17/09 (UMP-Torun/src/cities-Torun.pnt-converted.txt)"/>
  </node>
  <node id="587590393" version="4" timestamp="2010-04-27T04:04:26Z" uid="30632" user="antblant" changeset="4537867" lat="53.32836" lon="19.10565">
    <tag k="name" v="Brudzawki"/>
    <tag k="place" v="village"/>
    <tag k="source" v="http://ump.waw.pl/ retrieved 11:19:07 11/17/09 (UMP-Torun/src/cities-Torun.pnt-converted.txt)"/>
    <tag k="teryt:simc" v="0845460"/>
  </node>
  <node id="587590532" version="2" timestamp="2010-04-11T04:54:04Z" uid="20587" user="balrog-kun" changeset="4389130" lat="53.30734" lon="19.15295">
    <tag k="name" v="Brudzawy"/>
    <tag k="place" v="village"/>
    <tag k="source" v="http://ump.waw.pl/ retrieved 11:19:07 11/17/09 (UMP-Torun/src/cities-Torun.pnt-converted.txt)"/>
  </node>
  <node id="587590532" version="3" timestamp="2010-04-11T13:17:54Z" uid="20587" user="balrog-kun" changeset="4392352" lat="53.30734" lon="19.15295">
    <tag k="name" v="Brudzawy"/>
    <tag k="place" v="village"/>
    <tag k="source" v="http://ump.waw.pl/ retrieved 11:19:07 11/17/09 (UMP-Torun/src/cities-Torun.pnt-converted.txt)"/>
  </node>
  <node id="587590532" version="4" timestamp="2010-04-27T04:18:53Z" uid="30632" user="antblant" changeset="4537909" lat="53.30734" lon="19.15295">
    <tag k="name" v="Brudzawy"/>
    <tag k="place" v="village"/>
    <tag k="source" v="http://ump.waw.pl/ retrieved 11:19:07 11/17/09 (UMP-Torun/src/cities-Torun.pnt-converted.txt)"/>
    <tag k="teryt:simc" v="0840639"/>
  </node>
  <node id="587590808" version="2" timestamp="2010-04-11T04:54:04Z" uid="20587" user="balrog-kun" changeset="4389130" lat="53.3494001" lon="19.1429176">
    <tag k="name" v="Bukowiec"/>
    <tag k="place" v="village"/>
    <tag k="source" v="http://ump.waw.pl/ retrieved 11:19:07 11/17/09 (UMP-Torun/src/cities-Torun.pnt-converted.txt)"/>
  </node>
  <node id="587590808" version="3" timestamp="2010-04-11T13:17:54Z" uid="20587" user="balrog-kun" changeset="4392352" lat="53.3490701" lon="19.1431437">
    <tag k="name" v="Bukowiec"/>
    <tag k="place" v="village"/>
    <tag k="source" v="http://ump.waw.pl/ retrieved 11:19:07 11/17/09 (UMP-Torun/src/cities-Torun.pnt-converted.txt)"/>
  </node>
  <node id="587590865" version="2" timestamp="2010-04-11T04:54:05Z" uid="20587" user="balrog-kun" changeset="4389130" lat="53.35338" lon="18.99189">
    <tag k="name" v="Szczuplinki"/>
    <tag k="place" v="village"/>
    <tag k="source" v="http://ump.waw.pl/ retrieved 11:19:07 11/17/09 (UMP-Torun/src/cities-Torun.pnt-converted.txt)"/>
  </node>
  <node id="587590865" version="3" timestamp="2010-04-11T13:17:54Z" uid="20587" user="balrog-kun" changeset="4392352" lat="53.35338" lon="18.99189">
    <tag k="name" v="Szczuplinki"/>
    <tag k="place" v="village"/>
    <tag k="source" v="http://ump.waw.pl/ retrieved 11:19:07 11/17/09 (UMP-Torun/src/cities-Torun.pnt-converted.txt)"/>
  </node>
  <node id="587590865" version="4" timestamp="2010-04-27T04:13:56Z" uid="30632" user="antblant" changeset="4537892" lat="53.35338" lon="18.99189">
    <tag k="name" v="Szczuplinki"/>
    <tag k="place" v="village"/>
    <tag k="source" v="http://ump.waw.pl/ retrieved 11:19:07 11/17/09 (UMP-Torun/src/cities-Torun.pnt-converted.txt)"/>
    <tag k="teryt:simc" v="0845513"/>
  </node>
  <node id="587590930" version="2" timestamp="2010-04-11T04:54:05Z" uid="20587" user="balrog-kun" changeset="4389130" lat="53.37768" lon="18.99854">
    <tag k="name" v="Golebiewo"/>
    <tag k="place" v="village"/>
    <tag k="source" v="http://ump.waw.pl/ retrieved 11:19:07 11/17/09 (UMP-Torun/src/cities-Torun.pnt-converted.txt)"/>
  </node>
  <node id="587590930" version="3" timestamp="2010-04-11T13:17:54Z" uid="20587" user="balrog-kun" changeset="4392352" lat="53.37768" lon="18.99854">
    <tag k="name" v="Golebiewo"/>
    <tag k="place" v="village"/>
    <tag k="source" v="http://ump.waw.pl/ retrieved 11:19:07 11/17/09 (UMP-Torun/src/cities-Torun.pnt-converted.txt)"/>
  </node>
  <node id="587590938" version="2" timestamp="2010-04-11T04:54:05Z" uid="20587" user="balrog-kun" changeset="4389130" lat="53.39282" lon="18.98755">
    <tag k="name" v="Golebiewko"/>
    <tag k="place" v="village"/>
    <tag k="source" v="http://ump.waw.pl/ retrieved 11:19:07 11/17/09 (UMP-Torun/src/cities-Torun.pnt-converted.txt)"/>
  </node>
  <node id="587590938" version="3" timestamp="2010-04-11T13:17:54Z" uid="20587" user="balrog-kun" changeset="4392352" lat="53.39282" lon="18.98755">
    <tag k="name" v="Golebiewko"/>
    <tag k="place" v="village"/>
    <tag k="source" v="http://ump.waw.pl/ retrieved 11:19:07 11/17/09 (UMP-Torun/src/cities-Torun.pnt-converted.txt)"/>
  </node>
  <node id="587590960" version="2" timestamp="2010-04-11T04:54:05Z" uid="20587" user="balrog-kun" changeset="4389130" lat="53.35261" lon="19.04214">
    <tag k="name" v="Lopatki Polskie"/>
    <tag k="place" v="village"/>
    <tag k="source" v="http://ump.waw.pl/ retrieved 11:19:07 11/17/09 (UMP-Torun/src/cities-Torun.pnt-converted.txt)"/>
  </node>
  <node id="587590960" version="3" timestamp="2010-04-11T13:17:54Z" uid="20587" user="balrog-kun" changeset="4392352" lat="53.35261" lon="19.04214">
    <tag k="name" v="Lopatki Polskie"/>
    <tag k="place" v="village"/>
    <tag k="source" v="http://ump.waw.pl/ retrieved 11:19:07 11/17/09 (UMP-Torun/src/cities-Torun.pnt-converted.txt)"/>
  </node>
  <node id="587590979" version="2" timestamp="2010-04-11T04:54:05Z" uid="20587" user="balrog-kun" changeset="4389130" lat="53.36317" lon="19.03677">
    <tag k="name" v="Blizinka"/>
    <tag k="place" v="village"/>
    <tag k="source" v="http://ump.waw.pl/ retrieved 11:19:07 11/17/09 (UMP-Torun/src/cities-Torun.pnt-converted.txt)"/>
  </node>
  <node id="587590979" version="3" timestamp="2010-04-11T13:17:54Z" uid="20587" user="balrog-kun" changeset="4392352" lat="53.36317" lon="19.03677">
    <tag k="name" v="Blizinka"/>
    <tag k="place" v="village"/>
    <tag k="source" v="http://ump.waw.pl/ retrieved 11:19:07 11/17/09 (UMP-Torun/src/cities-Torun.pnt-converted.txt)"/>
  </node>
  <node id="587591003" version="2" timestamp="2010-04-11T04:54:05Z" uid="20587" user="balrog-kun" changeset="4389130" lat="53.38102" lon="19.03206">
    <tag k="name" v="Rywałd Królewski"/>
    <tag k="place" v="village"/>
    <tag k="source" v="http://ump.waw.pl/ retrieved 11:19:07 11/17/09 (UMP-Torun/src/cities-Torun.pnt-converted.txt)"/>
  </node>
  <node id="587591003" version="3" timestamp="2010-04-11T13:17:55Z" uid="20587" user="balrog-kun" changeset="4392352" lat="53.38102" lon="19.03206">
    <tag k="name" v="Rywałd Królewski"/>
    <tag k="place" v="village"/>
    <tag k="source" v="http://ump.waw.pl/ retrieved 11:19:07 11/17/09 (UMP-Torun/src/cities-Torun.pnt-converted.txt)"/>
  </node>
  <node id="587591028" version="2" timestamp="2010-04-11T04:54:05Z" uid="20587" user="balrog-kun" changeset="4389130" lat="53.39072" lon="19.04004">
    <tag k="name" v="Stara Ruda"/>
    <tag k="place" v="village"/>
    <tag k="source" v="http://ump.waw.pl/ retrieved 11:19:07 11/17/09 (UMP-Torun/src/cities-Torun.pnt-converted.txt)"/>
  </node>
  <node id="587591028" version="3" timestamp="2010-04-11T13:17:55Z" uid="20587" user="balrog-kun" changeset="4392352" lat="53.39072" lon="19.04004">
    <tag k="name" v="Stara Ruda"/>
    <tag k="place" v="village"/>
    <tag k="source" v="http://ump.waw.pl/ retrieved 11:19:07 11/17/09 (UMP-Torun/src/cities-Torun.pnt-converted.txt)"/>
  </node>
  <node id="587591192" version="2" timestamp="2010-04-11T04:54:05Z" uid="20587" user="balrog-kun" changeset="4389130" lat="53.42007" lon="19.00236">
    <tag k="name" v="Boguszewo"/>
    <tag k="place" v="village"/>
    <tag k="source" v="http://ump.waw.pl/ retrieved 11:19:07 11/17/09 (UMP-Torun/src/cities-Torun.pnt-converted.txt)"/>
  </node>
  <node id="587591192" version="3" timestamp="2010-04-11T13:17:55Z" uid="20587" user="balrog-kun" changeset="4392352" lat="53.42007" lon="19.00236">
    <tag k="name" v="Boguszewo"/>
    <tag k="place" v="village"/>
    <tag k="source" v="http://ump.waw.pl/ retrieved 11:19:07 11/17/09 (UMP-Torun/src/cities-Torun.pnt-converted.txt)"/>
  </node>
  <node id="587591350" version="2" timestamp="2010-04-11T04:54:05Z" uid="20587" user="balrog-kun" changeset="4389130" lat="53.40823" lon="19.0403">
    <tag k="name" v="Bursztynowo"/>
    <tag k="place" v="village"/>
    <tag k="source" v="http://ump.waw.pl/ retrieved 11:19:07 11/17/09 (UMP-Torun/src/cities-Torun.pnt-converted.txt)"/>
  </node>
  <node id="587591350" version="3" timestamp="2010-04-11T13:17:55Z" uid="20587" user="balrog-kun" changeset="4392352" lat="53.40823" lon="19.0403">
    <tag k="name" v="Bursztynowo"/>
    <tag k="place" v="village"/>
    <tag k="source" v="http://ump.waw.pl/ retrieved 11:19:07 11/17/09 (UMP-Torun/src/cities-Torun.pnt-converted.txt)"/>
  </node>
  <node id="587591406" version="2" timestamp="2010-04-11T04:54:05Z" uid="20587" user="balrog-kun" changeset="4389130" lat="53.42471" lon="19.04326">
    <tag k="name" v="Linowo"/>
    <tag k="place" v="village"/>
    <tag k="source" v="http://ump.waw.pl/ retrieved 11:19:07 11/17/09 (UMP-Torun/src/cities-Torun.pnt-converted.txt)"/>
  </node>
  <node id="587591406" version="3" timestamp="2010-04-11T13:17:55Z" uid="20587" user="balrog-kun" changeset="4392352" lat="53.42471" lon="19.04326">
    <tag k="name" v="Linowo"/>
    <tag k="place" v="village"/>
    <tag k="source" v="http://ump.waw.pl/ retrieved 11:19:07 11/17/09 (UMP-Torun/src/cities-Torun.pnt-converted.txt)"/>
  </node>
  <node id="587591458" version="2" timestamp="2010-04-11T04:54:05Z" uid="20587" user="balrog-kun" changeset="4389130" lat="53.36489" lon="19.10832">
    <tag k="name" v="Budziszewo"/>
    <tag k="place" v="village"/>
    <tag k="source" v="http://ump.waw.pl/ retrieved 11:19:07 11/17/09 (UMP-Torun/src/cities-Torun.pnt-converted.txt)"/>
  </node>
  <node id="587591458" version="3" timestamp="2010-04-11T13:17:55Z" uid="20587" user="balrog-kun" changeset="4392352" lat="53.36489" lon="19.10832">
    <tag k="name" v="Budziszewo"/>
    <tag k="place" v="village"/>
    <tag k="source" v="http://ump.waw.pl/ retrieved 11:19:07 11/17/09 (UMP-Torun/src/cities-Torun.pnt-converted.txt)"/>
  </node>
  <node id="587591466" version="2" timestamp="2010-04-11T04:54:05Z" uid="20587" user="balrog-kun" changeset="4389130" lat="53.38093" lon="19.07759">
    <tag k="name" v="Blizno"/>
    <tag k="place" v="village"/>
    <tag k="source" v="http://ump.waw.pl/ retrieved 11:19:07 11/17/09 (UMP-Torun/src/cities-Torun.pnt-converted.txt)"/>
  </node>
  <node id="587591466" version="3" timestamp="2010-04-11T13:17:55Z" uid="20587" user="balrog-kun" changeset="4392352" lat="53.38093" lon="19.07759">
    <tag k="name" v="Blizno"/>
    <tag k="place" v="village"/>
    <tag k="source" v="http://ump.waw.pl/ retrieved 11:19:07 11/17/09 (UMP-Torun/src/cities-Torun.pnt-converted.txt)"/>
  </node>
  <node id="587591585" version="2" timestamp="2010-04-11T04:54:05Z" uid="20587" user="balrog-kun" changeset="4389130" lat="53.37154" lon="19.15934">
    <tag k="name" v="Jaguszewice"/>
    <tag k="place" v="village"/>
    <tag k="source" v="http://ump.waw.pl/ retrieved 11:19:07 11/17/09 (UMP-Torun/src/cities-Torun.pnt-converted.txt)"/>
  </node>
  <node id="587591585" version="3" timestamp="2010-04-11T13:17:55Z" uid="20587" user="balrog-kun" changeset="4392352" lat="53.37154" lon="19.15934">
    <tag k="name" v="Jaguszewice"/>
    <tag k="place" v="village"/>
    <tag k="source" v="http://ump.waw.pl/ retrieved 11:19:07 11/17/09 (UMP-Torun/src/cities-Torun.pnt-converted.txt)"/>
  </node>
  <node id="587591585" version="4" timestamp="2010-04-27T04:13:40Z" uid="30632" user="antblant" changeset="4537892" lat="53.37154" lon="19.15934">
    <tag k="name" v="Jaguszewice"/>
    <tag k="place" v="village"/>
    <tag k="source" v="http://ump.waw.pl/ retrieved 11:19:07 11/17/09 (UMP-Torun/src/cities-Torun.pnt-converted.txt)"/>
    <tag k="teryt:simc" v="0844809"/>
  </node>
  <node id="587591613" version="2" timestamp="2010-04-11T04:54:05Z" uid="20587" user="balrog-kun" changeset="4389130" lat="53.38592" lon="19.13552">
    <tag k="name" v="Jabłonowo Zamek"/>
    <tag k="place" v="village"/>
    <tag k="source" v="http://ump.waw.pl/ retrieved 11:19:07 11/17/09 (UMP-Torun/src/cities-Torun.pnt-converted.txt)"/>
  </node>
  <node id="587591613" version="3" timestamp="2010-04-11T13:17:55Z" uid="20587" user="balrog-kun" changeset="4392352" lat="53.38592" lon="19.13552">
    <tag k="name" v="Jabłonowo Zamek"/>
    <tag k="place" v="village"/>
    <tag k="source" v="http://ump.waw.pl/ retrieved 11:19:07 11/17/09 (UMP-Torun/src/cities-Torun.pnt-converted.txt)"/>
  </node>
  <node id="587591693" version="3" timestamp="2010-04-11T04:54:05Z" uid="20587" user="balrog-kun" changeset="4389130" lat="53.3875001" lon="19.1517899">
    <tag k="name" v="Jabłonowo Pomorskie"/>
    <tag k="place" v="town"/>
    <tag k="source" v="http://ump.waw.pl/ retrieved 11:19:07 11/17/09 (UMP-Torun/src/cities-Torun.pnt-converted.txt)"/>
  </node>
  <node id="587591693" version="4" timestamp="2010-04-27T04:01:10Z" uid="30632" user="antblant" changeset="4537859" lat="53.3875001" lon="19.1517899">
    <tag k="name" v="Jabłonowo Pomorskie"/>
    <tag k="place" v="town"/>
    <tag k="source" v="http://ump.waw.pl/ retrieved 11:19:07 11/17/09 (UMP-Torun/src/cities-Torun.pnt-converted.txt)"/>
    <tag k="teryt:simc" v="0983474"/>
  </node>
  <node id="587591707" version="2" timestamp="2010-04-11T04:54:05Z" uid="20587" user="balrog-kun" changeset="4389130" lat="53.40652" lon="19.08192">
    <tag k="name" v="Białobłoty"/>
    <tag k="place" v="village"/>
    <tag k="source" v="http://ump.waw.pl/ retrieved 11:19:07 11/17/09 (UMP-Torun/src/cities-Torun.pnt-converted.txt)"/>
  </node>
  <node id="587591707" version="3" timestamp="2010-04-11T13:17:55Z" uid="20587" user="balrog-kun" changeset="4392352" lat="53.40652" lon="19.08192">
    <tag k="name" v="Białobłoty"/>
    <tag k="place" v="village"/>
    <tag k="source" v="http://ump.waw.pl/ retrieved 11:19:07 11/17/09 (UMP-Torun/src/cities-Torun.pnt-converted.txt)"/>
  </node>
  <node id="587591740" version="2" timestamp="2010-04-11T04:54:05Z" uid="20587" user="balrog-kun" changeset="4389130" lat="53.41188" lon="19.11046">
    <tag k="name" v="Nowy Mlyn PGR"/>
    <tag k="place" v="village"/>
    <tag k="source" v="http://ump.waw.pl/ retrieved 11:19:07 11/17/09 (UMP-Torun/src/cities-Torun.pnt-converted.txt)"/>
  </node>
  <node id="587591740" version="3" timestamp="2010-04-11T13:17:55Z" uid="20587" user="balrog-kun" changeset="4392352" lat="53.41188" lon="19.11046">
    <tag k="name" v="Nowy Mlyn PGR"/>
    <tag k="place" v="village"/>
    <tag k="source" v="http://ump.waw.pl/ retrieved 11:19:07 11/17/09 (UMP-Torun/src/cities-Torun.pnt-converted.txt)"/>
  </node>
  <node id="587591749" version="2" timestamp="2010-04-11T04:54:05Z" uid="20587" user="balrog-kun" changeset="4389130" lat="53.42205" lon="19.08287">
    <tag k="name" v="Głodowo"/>
    <tag k="place" v="village"/>
    <tag k="source" v="http://ump.waw.pl/ retrieved 11:19:07 11/17/09 (UMP-Torun/src/cities-Torun.pnt-converted.txt)"/>
  </node>
  <node id="587591749" version="3" timestamp="2010-04-11T13:17:55Z" uid="20587" user="balrog-kun" changeset="4392352" lat="53.42205" lon="19.08287">
    <tag k="name" v="Głodowo"/>
    <tag k="place" v="village"/>
    <tag k="source" v="http://ump.waw.pl/ retrieved 11:19:07 11/17/09 (UMP-Torun/src/cities-Torun.pnt-converted.txt)"/>
  </node>
  <node id="587591766" version="2" timestamp="2010-04-11T04:54:06Z" uid="20587" user="balrog-kun" changeset="4389130" lat="53.4351691" lon="19.0742592">
    <tag k="name" v="Rychnowo"/>
    <tag k="place" v="village"/>
    <tag k="source" v="http://ump.waw.pl/ retrieved 11:19:07 11/17/09 (UMP-Torun/src/cities-Torun.pnt-converted.txt)"/>
  </node>
  <node id="587591766" version="3" timestamp="2010-04-11T13:17:55Z" uid="20587" user="balrog-kun" changeset="4392352" lat="53.4347401" lon="19.0736031">
    <tag k="name" v="Rychnowo"/>
    <tag k="place" v="village"/>
    <tag k="source" v="http://ump.waw.pl/ retrieved 11:19:07 11/17/09 (UMP-Torun/src/cities-Torun.pnt-converted.txt)"/>
  </node>
  <node id="587592239" version="2" timestamp="2010-04-11T04:54:06Z" uid="20587" user="balrog-kun" changeset="4389130" lat="53.43359" lon="19.15741">
    <tag k="name" v="Adamowo"/>
    <tag k="place" v="village"/>
    <tag k="source" v="http://ump.waw.pl/ retrieved 11:19:07 11/17/09 (UMP-Torun/src/cities-Torun.pnt-converted.txt)"/>
  </node>
  <node id="587592239" version="3" timestamp="2010-04-11T13:17:55Z" uid="20587" user="balrog-kun" changeset="4392352" lat="53.43359" lon="19.15741">
    <tag k="name" v="Adamowo"/>
    <tag k="place" v="village"/>
    <tag k="source" v="http://ump.waw.pl/ retrieved 11:19:07 11/17/09 (UMP-Torun/src/cities-Torun.pnt-converted.txt)"/>
  </node>
  <node id="587592903" version="2" timestamp="2010-04-11T04:54:06Z" uid="20587" user="balrog-kun" changeset="4389130" lat="53.36785" lon="19.18895">
    <tag k="name" v="Kamień"/>
    <tag k="place" v="village"/>
    <tag k="source" v="http://ump.waw.pl/ retrieved 11:19:07 11/17/09 (UMP-Torun/src/cities-Torun.pnt-converted.txt)"/>
  </node>
  <node id="587592903" version="3" timestamp="2010-04-11T13:17:55Z" uid="20587" user="balrog-kun" changeset="4392352" lat="53.36785" lon="19.18895">
    <tag k="name" v="Kamień"/>
    <tag k="place" v="village"/>
    <tag k="source" v="http://ump.waw.pl/ retrieved 11:19:07 11/17/09 (UMP-Torun/src/cities-Torun.pnt-converted.txt)"/>
  </node>
  <node id="587593090" version="2" timestamp="2010-04-11T04:54:06Z" uid="20587" user="balrog-kun" changeset="4389130" lat="53.41651" lon="19.17964">
    <tag k="name" v="Buk Pomorski"/>
    <tag k="place" v="village"/>
    <tag k="source" v="http://ump.waw.pl/ retrieved 11:19:07 11/17/09 (UMP-Torun/src/cities-Torun.pnt-converted.txt)"/>
  </node>
  <node id="587593090" version="3" timestamp="2010-04-11T13:17:55Z" uid="20587" user="balrog-kun" changeset="4392352" lat="53.41651" lon="19.17964">
    <tag k="name" v="Buk Pomorski"/>
    <tag k="place" v="village"/>
    <tag k="source" v="http://ump.waw.pl/ retrieved 11:19:07 11/17/09 (UMP-Torun/src/cities-Torun.pnt-converted.txt)"/>
  </node>
  <node id="587593090" version="4" timestamp="2010-04-27T04:05:47Z" uid="30632" user="antblant" changeset="4537871" lat="53.41651" lon="19.17964">
    <tag k="name" v="Buk Pomorski"/>
    <tag k="place" v="village"/>
    <tag k="source" v="http://ump.waw.pl/ retrieved 11:19:07 11/17/09 (UMP-Torun/src/cities-Torun.pnt-converted.txt)"/>
    <tag k="teryt:simc" v="0844749"/>
  </node>
  <node id="587593412" version="2" timestamp="2010-04-11T04:54:06Z" uid="20587" user="balrog-kun" changeset="4389130" lat="53.4567389" lon="18.529576">
    <tag k="name" v="Czapelki"/>
    <tag k="place" v="village"/>
    <tag k="source" v="http://ump.waw.pl/ retrieved 11:19:07 11/17/09 (UMP-Torun/src/cities-Torun.pnt-converted.txt)"/>
  </node>
  <node id="587593412" version="3" timestamp="2010-04-11T13:17:56Z" uid="20587" user="balrog-kun" changeset="4392352" lat="53.4554227" lon="18.5291585">
    <tag k="name" v="Czapelki"/>
    <tag k="place" v="village"/>
    <tag k="source" v="http://ump.waw.pl/ retrieved 11:19:07 11/17/09 (UMP-Torun/src/cities-Torun.pnt-converted.txt)"/>
  </node>
  <node id="587593471" version="2" timestamp="2010-04-11T04:54:06Z" uid="20587" user="balrog-kun" changeset="4389130" lat="53.47389" lon="18.51604">
    <tag k="name" v="Białe"/>
    <tag k="place" v="village"/>
    <tag k="source" v="http://ump.waw.pl/ retrieved 11:19:07 11/17/09 (UMP-Torun/src/cities-Torun.pnt-converted.txt)"/>
  </node>
  <node id="587593471" version="3" timestamp="2010-04-11T13:17:56Z" uid="20587" user="balrog-kun" changeset="4392352" lat="53.47389" lon="18.51604">
    <tag k="name" v="Białe"/>
    <tag k="place" v="village"/>
    <tag k="source" v="http://ump.waw.pl/ retrieved 11:19:07 11/17/09 (UMP-Torun/src/cities-Torun.pnt-converted.txt)"/>
  </node>
  <node id="587593568" version="2" timestamp="2010-04-11T04:54:06Z" uid="20587" user="balrog-kun" changeset="4389130" lat="53.47616" lon="18.53606">
    <tag k="name" v="Cegielnia"/>
    <tag k="place" v="village"/>
    <tag k="source" v="http://ump.waw.pl/ retrieved 11:19:07 11/17/09 (UMP-Torun/src/cities-Torun.pnt-converted.txt)"/>
  </node>
  <node id="587593568" version="3" timestamp="2010-04-11T13:17:56Z" uid="20587" user="balrog-kun" changeset="4392352" lat="53.47616" lon="18.53606">
    <tag k="name" v="Cegielnia"/>
    <tag k="place" v="village"/>
    <tag k="source" v="http://ump.waw.pl/ retrieved 11:19:07 11/17/09 (UMP-Torun/src/cities-Torun.pnt-converted.txt)"/>
  </node>
  <node id="587593598" version="2" timestamp="2010-03-12T06:53:04Z" uid="30632" user="antblant" changeset="4103844" lat="53.49206" lon="18.50089">
    <tag k="source" v="http://ump.waw.pl/ retrieved 11:19:07 11/17/09 (UMP-Torun/src/TORUN.woda.txt)"/>
  </node>
  <node id="587593600" version="2" timestamp="2010-03-12T06:53:04Z" uid="30632" user="antblant" changeset="4103844" lat="53.49582" lon="18.49048"/>
  <node id="587593601" version="2" timestamp="2010-03-12T06:53:04Z" uid="30632" user="antblant" changeset="4103844" lat="53.49698" lon="18.4878"/>
  <node id="587593602" version="2" timestamp="2010-03-12T06:53:04Z" uid="30632" user="antblant" changeset="4103844" lat="53.49799" lon="18.49156"/>
  <node id="587593607" version="2" timestamp="2010-03-18T23:13:31Z" uid="30632" user="antblant" changeset="4166443" lat="53.50001" lon="18.49345"/>
  <node id="587593616" version="2" timestamp="2010-03-12T06:53:04Z" uid="30632" user="antblant" changeset="4103844" lat="53.48381" lon="18.50413"/>
  <node id="587593617" version="2" timestamp="2010-03-12T06:53:04Z" uid="30632" user="antblant" changeset="4103844" lat="53.4822" lon="18.50467"/>
  <node id="587593618" version="2" timestamp="2010-03-12T06:53:05Z" uid="30632" user="antblant" changeset="4103844" lat="53.4861" lon="18.50572"/>
  <node id="587593620" version="2" timestamp="2010-03-12T06:53:05Z" uid="30632" user="antblant" changeset="4103844" lat="53.48588" lon="18.50776"/>
  <node id="587593621" version="2" timestamp="2010-03-12T06:53:05Z" uid="30632" user="antblant" changeset="4103844" lat="53.48816" lon="18.50188"/>
  <node id="587593624" version="2" timestamp="2010-03-12T06:53:05Z" uid="30632" user="antblant" changeset="4103844" lat="53.48831" lon="18.50647"/>
  <node id="587593651" version="2" timestamp="2010-04-11T04:54:06Z" uid="20587" user="balrog-kun" changeset="4389130" lat="53.4878117" lon="18.5196944">
    <tag k="name" v="Ostrów"/>
    <tag k="place" v="hamlet"/>
    <tag k="source" v="http://ump.waw.pl/ retrieved 11:19:07 11/17/09 (UMP-Torun/src/cities-Torun.pnt-converted.txt)"/>
  </node>
  <node id="587593651" version="3" timestamp="2010-04-11T13:17:56Z" uid="20587" user="balrog-kun" changeset="4392352" lat="53.4878295" lon="18.5205706">
    <tag k="name" v="Ostrów"/>
    <tag k="place" v="hamlet"/>
    <tag k="source" v="http://ump.waw.pl/ retrieved 11:19:07 11/17/09 (UMP-Torun/src/cities-Torun.pnt-converted.txt)"/>
  </node>
  <node id="587593652" version="2" timestamp="2010-03-12T06:53:05Z" uid="30632" user="antblant" changeset="4103844" lat="53.49288" lon="18.50134">
    <tag k="source" v="http://ump.waw.pl/ retrieved 11:19:07 11/17/09 (UMP-Torun/src/TORUN.woda.txt)"/>
  </node>
  <node id="587593655" version="2" timestamp="2010-03-12T06:53:05Z" uid="30632" user="antblant" changeset="4103844" lat="53.49316" lon="18.50323">
    <tag k="source" v="http://ump.waw.pl/ retrieved 11:19:07 11/17/09 (UMP-Torun/src/TORUN.woda.txt)"/>
  </node>
  <node id="587593657" version="2" timestamp="2010-03-12T06:53:05Z" uid="30632" user="antblant" changeset="4103844" lat="53.49271" lon="18.50158">
    <tag k="source" v="http://ump.waw.pl/ retrieved 11:19:07 11/17/09 (UMP-Torun/src/TORUN.woda.txt)"/>
  </node>
  <node id="587593658" version="2" timestamp="2010-03-12T06:53:05Z" uid="30632" user="antblant" changeset="4103844" lat="53.49297" lon="18.5043">
    <tag k="source" v="http://ump.waw.pl/ retrieved 11:19:07 11/17/09 (UMP-Torun/src/TORUN.teren.txt)"/>
  </node>
  <node id="587593659" version="2" timestamp="2010-03-12T06:53:05Z" uid="30632" user="antblant" changeset="4103844" lat="53.49361" lon="18.50437">
    <tag k="source" v="http://ump.waw.pl/ retrieved 11:19:07 11/17/09 (UMP-Torun/src/TORUN.teren.txt)"/>
  </node>
  <node id="587593660" version="2" timestamp="2010-03-12T06:53:05Z" uid="30632" user="antblant" changeset="4103844" lat="53.49346" lon="18.50287">
    <tag k="source" v="http://ump.waw.pl/ retrieved 11:19:07 11/17/09 (UMP-Torun/src/TORUN.teren.txt)"/>
  </node>
  <node id="587593661" version="2" timestamp="2010-03-12T06:53:05Z" uid="30632" user="antblant" changeset="4103844" lat="53.4937" lon="18.50641">
    <tag k="source" v="http://ump.waw.pl/ retrieved 11:19:07 11/17/09 (UMP-Torun/src/TORUN.teren.txt)"/>
  </node>
  <node id="587593662" version="2" timestamp="2010-03-12T06:53:05Z" uid="30632" user="antblant" changeset="4103844" lat="53.49402" lon="18.5058">
    <tag k="source" v="http://ump.waw.pl/ retrieved 11:19:07 11/17/09 (UMP-Torun/src/TORUN.teren.txt)"/>
  </node>
  <node id="587593663" version="2" timestamp="2010-03-12T06:53:05Z" uid="30632" user="antblant" changeset="4103844" lat="53.49346" lon="18.50158">
    <tag k="source" v="http://ump.waw.pl/ retrieved 11:19:07 11/17/09 (UMP-Torun/src/TORUN.teren.txt)"/>
  </node>
  <node id="587593732" version="2" timestamp="2010-04-11T04:54:06Z" uid="20587" user="balrog-kun" changeset="4389130" lat="53.49666" lon="18.53381">
    <tag k="name" v="Przyspa"/>
    <tag k="place" v="village"/>
    <tag k="source" v="http://ump.waw.pl/ retrieved 11:19:07 11/17/09 (UMP-Torun/src/cities-Torun.pnt-converted.txt)"/>
  </node>
  <node id="587593732" version="3" timestamp="2010-04-11T13:17:56Z" uid="20587" user="balrog-kun" changeset="4392352" lat="53.49666" lon="18.53381">
    <tag k="name" v="Przyspa"/>
    <tag k="place" v="village"/>
    <tag k="source" v="http://ump.waw.pl/ retrieved 11:19:07 11/17/09 (UMP-Torun/src/cities-Torun.pnt-converted.txt)"/>
  </node>
  <node id="587593902" version="4" timestamp="2010-04-27T04:09:33Z" uid="30632" user="antblant" changeset="4537879" lat="53.4354777" lon="18.5933103">
    <tag k="name" v="Wiąskie Piaski"/>
    <tag k="place" v="village"/>
    <tag k="source" v="http://ump.waw.pl/ retrieved 11:19:07 11/17/09 (UMP-Torun/src/cities-Torun.pnt-converted.txt)"/>
    <tag k="teryt:simc" v="0084853"/>
  </node>
  <node id="587594073" version="2" timestamp="2010-04-11T04:54:06Z" uid="20587" user="balrog-kun" changeset="4389130" lat="53.4640172" lon="18.5890846">
    <tag k="name" v="Święte"/>
    <tag k="place" v="village"/>
    <tag k="source" v="http://ump.waw.pl/ retrieved 11:19:07 11/17/09 (UMP-Torun/src/cities-Torun.pnt-converted.txt)"/>
  </node>
  <node id="587594073" version="3" timestamp="2010-04-11T13:17:56Z" uid="20587" user="balrog-kun" changeset="4392352" lat="53.4636688" lon="18.5886451">
    <tag k="name" v="Święte"/>
    <tag k="place" v="village"/>
    <tag k="source" v="http://ump.waw.pl/ retrieved 11:19:07 11/17/09 (UMP-Torun/src/cities-Torun.pnt-converted.txt)"/>
  </node>
  <node id="587594753" version="2" timestamp="2010-04-11T04:54:06Z" uid="20587" user="balrog-kun" changeset="4389130" lat="53.4880728" lon="18.5652879">
    <tag k="name" v="Wilcze Błota"/>
    <tag k="place" v="hamlet"/>
    <tag k="source" v="http://ump.waw.pl/ retrieved 11:19:07 11/17/09 (UMP-Torun/src/cities-Torun.pnt-converted.txt)"/>
  </node>
  <node id="587594753" version="3" timestamp="2010-04-11T13:17:56Z" uid="20587" user="balrog-kun" changeset="4392352" lat="53.4863168" lon="18.5494256">
    <tag k="name" v="Wilcze Błota"/>
    <tag k="place" v="hamlet"/>
    <tag k="source" v="http://ump.waw.pl/ retrieved 11:19:07 11/17/09 (UMP-Torun/src/cities-Torun.pnt-converted.txt)"/>
  </node>
  <node id="587594753" version="4" timestamp="2010-04-27T04:18:48Z" uid="30632" user="antblant" changeset="4537909" lat="53.4863168" lon="18.5494256">
    <tag k="name" v="Wilcze Błota"/>
    <tag k="place" v="hamlet"/>
    <tag k="source" v="http://ump.waw.pl/ retrieved 11:19:07 11/17/09 (UMP-Torun/src/cities-Torun.pnt-converted.txt)"/>
    <tag k="teryt:simc" v="0166781"/>
  </node>
  <node id="587595026" version="5" timestamp="2010-04-11T04:54:06Z" uid="20587" user="balrog-kun" changeset="4389130" lat="53.490941" lon="18.6038696">
    <tag k="name" v="Mniszek"/>
    <tag k="place" v="village"/>
    <tag k="source" v="http://ump.waw.pl/ retrieved 11:19:07 11/17/09 (UMP-Torun/src/cities-Torun.pnt-converted.txt)"/>
  </node>
  <node id="587595026" version="6" timestamp="2010-04-11T13:17:56Z" uid="20587" user="balrog-kun" changeset="4392352" lat="53.49584" lon="18.6009209">
    <tag k="name" v="Mniszek"/>
    <tag k="place" v="village"/>
    <tag k="source" v="http://ump.waw.pl/ retrieved 11:19:07 11/17/09 (UMP-Torun/src/cities-Torun.pnt-converted.txt)"/>
  </node>
  <node id="587595132" version="4" timestamp="2010-04-11T04:54:06Z" uid="20587" user="balrog-kun" changeset="4389130" lat="53.4359222" lon="18.6322227">
    <tag k="name" v="Wielkie Stwolno"/>
    <tag k="place" v="village"/>
    <tag k="source" v="http://ump.waw.pl/ retrieved 11:19:07 11/17/09 (UMP-Torun/src/cities-Torun.pnt-converted.txt)"/>
  </node>
  <node id="587595132" version="5" timestamp="2010-04-11T13:17:56Z" uid="20587" user="balrog-kun" changeset="4392352" lat="53.4343632" lon="18.6252553">
    <tag k="name" v="Wielkie Stwolno"/>
    <tag k="place" v="village"/>
    <tag k="source" v="http://ump.waw.pl/ retrieved 11:19:07 11/17/09 (UMP-Torun/src/cities-Torun.pnt-converted.txt)"/>
  </node>
  <node id="587595132" version="6" timestamp="2010-04-27T04:20:10Z" uid="30632" user="antblant" changeset="4537912" lat="53.4343632" lon="18.6252553">
    <tag k="name" v="Wielkie Stwolno"/>
    <tag k="place" v="village"/>
    <tag k="source" v="http://ump.waw.pl/ retrieved 11:19:07 11/17/09 (UMP-Torun/src/cities-Torun.pnt-converted.txt)"/>
    <tag k="teryt:simc" v="0084830"/>
  </node>
  <node id="587595144" version="4" timestamp="2010-04-11T04:54:06Z" uid="20587" user="balrog-kun" changeset="4389130" lat="53.4411718" lon="18.6473961">
    <tag k="name" v="Dziewięć Włók"/>
    <tag k="place" v="hamlet"/>
    <tag k="source" v="http://ump.waw.pl/ retrieved 11:19:07 11/17/09 (UMP-Torun/src/cities-Torun.pnt-converted.txt)"/>
  </node>
  <node id="587595144" version="5" timestamp="2010-04-11T13:17:56Z" uid="20587" user="balrog-kun" changeset="4392352" lat="53.4408919" lon="18.6448317">
    <tag k="name" v="Dziewięć Włók"/>
    <tag k="place" v="hamlet"/>
    <tag k="source" v="http://ump.waw.pl/ retrieved 11:19:07 11/17/09 (UMP-Torun/src/cities-Torun.pnt-converted.txt)"/>
  </node>
  <node id="587595144" version="6" timestamp="2010-04-27T04:12:07Z" uid="30632" user="antblant" changeset="4537887" lat="53.4408919" lon="18.6448317">
    <tag k="name" v="Dziewięć Włók"/>
    <tag k="place" v="hamlet"/>
    <tag k="source" v="http://ump.waw.pl/ retrieved 11:19:07 11/17/09 (UMP-Torun/src/cities-Torun.pnt-converted.txt)"/>
    <tag k="teryt:simc" v="0169130"/>
  </node>
  <node id="587595335" version="2" timestamp="2010-04-11T04:54:06Z" uid="20587" user="balrog-kun" changeset="4389130" lat="53.4681" lon="18.64985">
    <tag k="name" v="Nowe Marzy"/>
    <tag k="place" v="village"/>
    <tag k="source" v="http://ump.waw.pl/ retrieved 11:19:07 11/17/09 (UMP-Torun/src/cities-Torun.pnt-converted.txt)"/>
  </node>
  <node id="587595335" version="3" timestamp="2010-04-11T13:17:56Z" uid="20587" user="balrog-kun" changeset="4392352" lat="53.4681" lon="18.64985">
    <tag k="name" v="Nowe Marzy"/>
    <tag k="place" v="village"/>
    <tag k="source" v="http://ump.waw.pl/ retrieved 11:19:07 11/17/09 (UMP-Torun/src/cities-Torun.pnt-converted.txt)"/>
  </node>
  <node id="587595335" version="4" timestamp="2010-04-27T04:09:39Z" uid="30632" user="antblant" changeset="4537879" lat="53.4681" lon="18.64985">
    <tag k="name" v="Nowe Marzy"/>
    <tag k="place" v="village"/>
    <tag k="source" v="http://ump.waw.pl/ retrieved 11:19:07 11/17/09 (UMP-Torun/src/cities-Torun.pnt-converted.txt)"/>
    <tag k="teryt:simc" v="0084787"/>
  </node>
  <node id="587595591" version="2" timestamp="2010-04-11T11:55:55Z" uid="20587" user="balrog-kun" changeset="4392352" lat="53.45059" lon="18.68354">
    <tag k="name" v="Stwolno Polskie"/>
    <tag k="place" v="village"/>
    <tag k="source" v="http://ump.waw.pl/ retrieved 11:19:07 11/17/09 (UMP-Torun/src/cities-Torun.pnt-converted.txt)"/>
  </node>
  <node id="587595811" version="3" timestamp="2010-04-16T19:58:06Z" uid="30632" user="antblant" changeset="4441975" lat="53.442" lon="18.71208">
    <tag k="name" v="Rządz PGR"/>
    <tag k="place" v="village"/>
    <tag k="source" v="http://ump.waw.pl/ retrieved 11:19:07 11/17/09 (UMP-Torun/src/cities-Torun.pnt-converted.txt)"/>
  </node>
  <node id="587595925" version="3" timestamp="2010-04-11T11:55:56Z" uid="20587" user="balrog-kun" changeset="4392352" lat="53.45252" lon="18.71654">
    <tag k="name" v="Os. Rządz"/>
    <tag k="place" v="suburb"/>
  </node>
  <node id="587596027" version="2" timestamp="2010-04-11T04:54:06Z" uid="20587" user="balrog-kun" changeset="4389130" lat="53.46265" lon="18.68959">
    <tag k="name" v="Bratwin"/>
    <tag k="place" v="village"/>
    <tag k="source" v="http://ump.waw.pl/ retrieved 11:19:07 11/17/09 (UMP-Torun/src/cities-Torun.pnt-converted.txt)"/>
  </node>
  <node id="587596027" version="3" timestamp="2010-04-11T13:17:56Z" uid="20587" user="balrog-kun" changeset="4392352" lat="53.46265" lon="18.68959">
    <tag k="name" v="Bratwin"/>
    <tag k="place" v="village"/>
    <tag k="source" v="http://ump.waw.pl/ retrieved 11:19:07 11/17/09 (UMP-Torun/src/cities-Torun.pnt-converted.txt)"/>
  </node>
  <node id="587596027" version="4" timestamp="2010-04-27T04:07:40Z" uid="30632" user="antblant" changeset="4537875" lat="53.46265" lon="18.68959">
    <tag k="name" v="Bratwin"/>
    <tag k="place" v="village"/>
    <tag k="source" v="http://ump.waw.pl/ retrieved 11:19:07 11/17/09 (UMP-Torun/src/cities-Torun.pnt-converted.txt)"/>
    <tag k="teryt:simc" v="0084646"/>
  </node>
  <node id="587596529" version="2" timestamp="2010-04-11T04:54:07Z" uid="20587" user="balrog-kun" changeset="4389130" lat="53.4977193" lon="18.6799656">
    <tag k="name" v="Dolna Grupa"/>
    <tag k="place" v="village"/>
    <tag k="source" v="http://ump.waw.pl/ retrieved 11:19:07 11/17/09 (UMP-Torun/src/cities-Torun.pnt-converted.txt)"/>
  </node>
  <node id="587596529" version="3" timestamp="2010-04-11T13:17:56Z" uid="20587" user="balrog-kun" changeset="4392352" lat="53.497779" lon="18.679668">
    <tag k="name" v="Dolna Grupa"/>
    <tag k="place" v="village"/>
    <tag k="source" v="http://ump.waw.pl/ retrieved 11:19:07 11/17/09 (UMP-Torun/src/cities-Torun.pnt-converted.txt)"/>
  </node>
  <node id="587596529" version="4" timestamp="2010-04-27T03:59:14Z" uid="30632" user="antblant" changeset="4537857" lat="53.497779" lon="18.679668">
    <tag k="name" v="Dolna Grupa"/>
    <tag k="place" v="village"/>
    <tag k="source" v="http://ump.waw.pl/ retrieved 11:19:07 11/17/09 (UMP-Torun/src/cities-Torun.pnt-converted.txt)"/>
    <tag k="teryt:simc" v="0084669"/>
  </node>
  <node id="587596573" version="2" timestamp="2010-04-11T04:54:07Z" uid="20587" user="balrog-kun" changeset="4389130" lat="53.49057" lon="18.71045">
    <tag k="name" v="Dragacz"/>
    <tag k="place" v="village"/>
    <tag k="source" v="http://ump.waw.pl/ retrieved 11:19:07 11/17/09 (UMP-Torun/src/cities-Torun.pnt-converted.txt)"/>
  </node>
  <node id="587596573" version="3" timestamp="2010-04-11T13:17:57Z" uid="20587" user="balrog-kun" changeset="4392352" lat="53.49057" lon="18.71045">
    <tag k="name" v="Dragacz"/>
    <tag k="place" v="village"/>
    <tag k="source" v="http://ump.waw.pl/ retrieved 11:19:07 11/17/09 (UMP-Torun/src/cities-Torun.pnt-converted.txt)"/>
  </node>
  <node id="587596573" version="4" timestamp="2010-04-27T04:09:31Z" uid="30632" user="antblant" changeset="4537879" lat="53.49057" lon="18.71045">
    <tag k="name" v="Dragacz"/>
    <tag k="place" v="village"/>
    <tag k="source" v="http://ump.waw.pl/ retrieved 11:19:07 11/17/09 (UMP-Torun/src/cities-Torun.pnt-converted.txt)"/>
    <tag k="teryt:simc" v="0084681"/>
  </node>
  <node id="587597396" version="2" timestamp="2010-04-11T04:54:07Z" uid="20587" user="balrog-kun" changeset="4389130" lat="53.43967" lon="18.75394">
    <tag k="name" v="Rudnik"/>
    <tag k="place" v="village"/>
    <tag k="source" v="http://ump.waw.pl/ retrieved 11:19:07 11/17/09 (UMP-Torun/src/cities-Torun.pnt-converted.txt)"/>
  </node>
  <node id="587597396" version="3" timestamp="2010-04-11T13:17:57Z" uid="20587" user="balrog-kun" changeset="4392352" lat="53.43967" lon="18.75394">
    <tag k="name" v="Rudnik"/>
    <tag k="place" v="village"/>
    <tag k="source" v="http://ump.waw.pl/ retrieved 11:19:07 11/17/09 (UMP-Torun/src/cities-Torun.pnt-converted.txt)"/>
  </node>
  <node id="587597742" version="2" timestamp="2010-04-11T04:54:07Z" uid="20587" user="balrog-kun" changeset="4389130" lat="53.46196" lon="18.73229">
    <tag k="name" v="Os. Strzemiecin"/>
    <tag k="place" v="village"/>
    <tag k="source" v="http://ump.waw.pl/ retrieved 11:19:07 11/17/09 (UMP-Torun/src/cities-Torun.pnt-converted.txt)"/>
  </node>
  <node id="587597742" version="3" timestamp="2010-04-11T13:17:57Z" uid="20587" user="balrog-kun" changeset="4392352" lat="53.46196" lon="18.73229">
    <tag k="name" v="Os. Strzemiecin"/>
    <tag k="place" v="village"/>
    <tag k="source" v="http://ump.waw.pl/ retrieved 11:19:07 11/17/09 (UMP-Torun/src/cities-Torun.pnt-converted.txt)"/>
  </node>
  <node id="587597742" version="4" timestamp="2010-10-02T20:13:22Z" uid="20587" user="balrog-kun" changeset="5939419" lat="53.46196" lon="18.73229">
    <tag k="name" v="Osiedle Strzemiecin"/>
    <tag k="place" v="village"/>
    <tag k="source" v="http://ump.waw.pl/ retrieved 11:19:07 11/17/09 (UMP-Torun/src/cities-Torun.pnt-converted.txt)"/>
  </node>
  <node id="587599638" version="2" timestamp="2010-04-11T04:54:07Z" uid="20587" user="balrog-kun" changeset="4389130" lat="53.44138" lon="18.77639">
    <tag k="name" v="Leśniczówka Miłolas"/>
    <tag k="place" v="village"/>
    <tag k="source" v="http://ump.waw.pl/ retrieved 11:19:07 11/17/09 (UMP-Torun/src/cities-Torun.pnt-converted.txt)"/>
  </node>
  <node id="587599638" version="3" timestamp="2010-04-11T13:17:57Z" uid="20587" user="balrog-kun" changeset="4392352" lat="53.44138" lon="18.77639">
    <tag k="name" v="Leśniczówka Miłolas"/>
    <tag k="place" v="village"/>
    <tag k="source" v="http://ump.waw.pl/ retrieved 11:19:07 11/17/09 (UMP-Torun/src/cities-Torun.pnt-converted.txt)"/>
  </node>
</osm>
