<?xml version='1.0' encoding='UTF-8'?>
<osm version="0.6" generator="libosmium/2.20.0">
  <node id="588000216" version="1" timestamp="2009-12-12T19:47:08Z" uid="33382" user="de_muur" changeset="3358239" lat="53.0389352" lon="8.9324468">
    <tag k="amenity" v="signpost"/>
    <tag k="direction_east" v="Achim 7,6km; Mahndorf 0,9km"/>
    <tag k="direction_west" v="Centrum 11,4km; Hemelingen 4,7km; Arbergen 1,3km"/>
    <tag k="network" v="lcn"/>
    <tag k="operator" v="GeoInformation Bremen"/>
  </node>
  <node id="588000216" version="2" timestamp="2010-01-09T13:38:08Z" uid="33382" user="de_muur" changeset="3577695" lat="53.0389352" lon="8.9324468">
    <tag k="direction_east" v="Achim 7.6km; Mahndorf 0.9km"/>
    <tag k="direction_west" v="Centrum 11.4km; Hemelingen 4.7km; Arbergen 1.3km"/>
    <tag k="information" v="guidepost"/>
    <tag k="network" v="lcn"/>
    <tag k="operator" v="GeoInformation Bremen"/>
    <tag k="route" v="bicycle"/>
    <tag k="tourism" v="information"/>
  </node>
  <node id="588000220" version="1" timestamp="2009-12-12T19:47:09Z" uid="33382" user="de_muur" changeset="3358239" lat="53.0389057" lon="8.9325811">
    <tag k="amenity" v="signpost"/>
    <tag k="direction_north" v="Vahr 7,6km"/>
    <tag k="direction_west" v="Centrum 11,4km; Hemelingen 4,7km; Arbergen 1,3km"/>
    <tag k="network" v="lcn"/>
    <tag k="operator" v="GeoInformation Bremen"/>
  </node>
  <node id="588000220" version="2" timestamp="2010-01-09T13:38:08Z" uid="33382" user="de_muur" changeset="3577695" lat="53.0389057" lon="8.9325811">
    <tag k="direction_north" v="Vahr 7.6km"/>
    <tag k="direction_west" v="Centrum 11.4km; Hemelingen 4.7km; Arbergen 1.3km"/>
    <tag k="information" v="guidepost"/>
    <tag k="network" v="lcn"/>
    <tag k="operator" v="GeoInformation Bremen"/>
    <tag k="route" v="bicycle"/>
    <tag k="tourism" v="information"/>
  </node>
  <node id="588000223" version="1" timestamp="2009-12-12T19:47:09Z" uid="33382" user="de_muur" changeset="3358239" lat="53.0388436" lon="8.9324158">
    <tag k="amenity" v="signpost"/>
    <tag k="direction_east" v="Achim 7,6km; Mahndorf 0,9km"/>
    <tag k="direction_north" v="Vahr 7,6km"/>
    <tag k="network" v="lcn"/>
    <tag k="operator" v="GeoInformation Bremen"/>
  </node>
  <node id="588000223" version="2" timestamp="2010-01-09T13:38:08Z" uid="33382" user="de_muur" changeset="3577695" lat="53.0388436" lon="8.9324158">
    <tag k="direction_east" v="Achim 7.6km; Mahndorf 0.9km"/>
    <tag k="direction_north" v="Vahr 7.6km"/>
    <tag k="information" v="guidepost"/>
    <tag k="network" v="lcn"/>
    <tag k="operator" v="GeoInformation Bremen"/>
    <tag k="route" v="bicycle"/>
    <tag k="tourism" v="information"/>
  </node>
</osm>
