<?xml version='1.0' encoding='UTF-8'?>
<osm version="0.6" generator="libosmium/2.20.0">
  <node id="589701473" version="2" timestamp="2010-04-11T04:54:11Z" uid="20587" user="balrog-kun" changeset="4389130" lat="52.96796" lon="18.01925">
    <tag k="name" v="Jakubowo"/>
    <tag k="place" v="village"/>
    <tag k="source" v="http://ump.waw.pl/ retrieved 11:19:07 11/17/09 (UMP-Torun/src/cities-Torun.pnt-converted.txt)"/>
  </node>
  <node id="589701473" version="3" timestamp="2010-04-11T13:18:02Z" uid="20587" user="balrog-kun" changeset="4392352" lat="52.96796" lon="18.01925">
    <tag k="name" v="Jakubowo"/>
    <tag k="place" v="village"/>
    <tag k="source" v="http://ump.waw.pl/ retrieved 11:19:07 11/17/09 (UMP-Torun/src/cities-Torun.pnt-converted.txt)"/>
  </node>
  <node id="589702112" version="2" timestamp="2010-04-11T04:54:11Z" uid="20587" user="balrog-kun" changeset="4389130" lat="52.97993" lon="18.02693">
    <tag k="name" v="Januszkowo"/>
    <tag k="place" v="village"/>
    <tag k="source" v="http://ump.waw.pl/ retrieved 11:19:07 11/17/09 (UMP-Torun/src/cities-Torun.pnt-converted.txt)"/>
  </node>
  <node id="589702112" version="3" timestamp="2010-04-11T13:18:02Z" uid="20587" user="balrog-kun" changeset="4392352" lat="52.97993" lon="18.02693">
    <tag k="name" v="Januszkowo"/>
    <tag k="place" v="village"/>
    <tag k="source" v="http://ump.waw.pl/ retrieved 11:19:07 11/17/09 (UMP-Torun/src/cities-Torun.pnt-converted.txt)"/>
  </node>
  <node id="589702336" version="2" timestamp="2010-04-11T04:54:11Z" uid="20587" user="balrog-kun" changeset="4389130" lat="52.98414" lon="18.03723">
    <tag k="name" v="Kolankowo"/>
    <tag k="place" v="village"/>
    <tag k="source" v="http://ump.waw.pl/ retrieved 11:19:07 11/17/09 (UMP-Torun/src/cities-Torun.pnt-converted.txt)"/>
  </node>
  <node id="589702336" version="3" timestamp="2010-04-11T13:18:03Z" uid="20587" user="balrog-kun" changeset="4392352" lat="52.98414" lon="18.03723">
    <tag k="name" v="Kolankowo"/>
    <tag k="place" v="village"/>
    <tag k="source" v="http://ump.waw.pl/ retrieved 11:19:07 11/17/09 (UMP-Torun/src/cities-Torun.pnt-converted.txt)"/>
  </node>
  <node id="589703144" version="2" timestamp="2010-04-11T04:54:11Z" uid="20587" user="balrog-kun" changeset="4389130" lat="52.99689" lon="18.04238">
    <tag k="name" v="Chmielniki"/>
    <tag k="place" v="village"/>
    <tag k="source" v="http://ump.waw.pl/ retrieved 11:19:07 11/17/09 (UMP-Torun/src/cities-Torun.pnt-converted.txt)"/>
  </node>
  <node id="589703144" version="3" timestamp="2010-04-11T13:18:03Z" uid="20587" user="balrog-kun" changeset="4392352" lat="52.99689" lon="18.04238">
    <tag k="name" v="Chmielniki"/>
    <tag k="place" v="village"/>
    <tag k="source" v="http://ump.waw.pl/ retrieved 11:19:07 11/17/09 (UMP-Torun/src/cities-Torun.pnt-converted.txt)"/>
  </node>
  <node id="589704255" version="2" timestamp="2010-04-11T04:54:11Z" uid="20587" user="balrog-kun" changeset="4389130" lat="52.97032" lon="18.09092">
    <tag k="name" v="Nowa Wieś Wielka"/>
    <tag k="place" v="village"/>
    <tag k="source" v="http://ump.waw.pl/ retrieved 11:19:07 11/17/09 (UMP-Torun/src/cities-Torun.pnt-converted.txt)"/>
  </node>
  <node id="589704255" version="3" timestamp="2010-04-11T13:18:03Z" uid="20587" user="balrog-kun" changeset="4392352" lat="52.97032" lon="18.09092">
    <tag k="name" v="Nowa Wieś Wielka"/>
    <tag k="place" v="village"/>
    <tag k="source" v="http://ump.waw.pl/ retrieved 11:19:07 11/17/09 (UMP-Torun/src/cities-Torun.pnt-converted.txt)"/>
  </node>
  <node id="589706334" version="2" timestamp="2010-04-11T04:54:11Z" uid="20587" user="balrog-kun" changeset="4389130" lat="52.99414" lon="18.09172">
    <tag k="name" v="Dobromierz"/>
    <tag k="place" v="village"/>
    <tag k="source" v="http://ump.waw.pl/ retrieved 11:19:07 11/17/09 (UMP-Torun/src/cities-Torun.pnt-converted.txt)"/>
  </node>
  <node id="589706334" version="3" timestamp="2010-04-11T13:18:03Z" uid="20587" user="balrog-kun" changeset="4392352" lat="52.99414" lon="18.09172">
    <tag k="name" v="Dobromierz"/>
    <tag k="place" v="village"/>
    <tag k="source" v="http://ump.waw.pl/ retrieved 11:19:07 11/17/09 (UMP-Torun/src/cities-Torun.pnt-converted.txt)"/>
  </node>
  <node id="589707264" version="2" timestamp="2010-04-11T04:54:11Z" uid="20587" user="balrog-kun" changeset="4389130" lat="53.03173" lon="17.96657">
    <tag k="name" v="Olimpin"/>
    <tag k="place" v="village"/>
    <tag k="source" v="http://ump.waw.pl/ retrieved 11:19:07 11/17/09 (UMP-Torun/src/cities-Torun.pnt-converted.txt)"/>
  </node>
  <node id="589707264" version="3" timestamp="2010-04-11T13:18:03Z" uid="20587" user="balrog-kun" changeset="4392352" lat="53.03173" lon="17.96657">
    <tag k="name" v="Olimpin"/>
    <tag k="place" v="village"/>
    <tag k="source" v="http://ump.waw.pl/ retrieved 11:19:07 11/17/09 (UMP-Torun/src/cities-Torun.pnt-converted.txt)"/>
  </node>
  <node id="589707264" version="4" timestamp="2010-04-27T04:02:31Z" uid="30632" user="antblant" changeset="4537862" lat="53.03173" lon="17.96657">
    <tag k="name" v="Olimpin"/>
    <tag k="place" v="village"/>
    <tag k="source" v="http://ump.waw.pl/ retrieved 11:19:07 11/17/09 (UMP-Torun/src/cities-Torun.pnt-converted.txt)"/>
    <tag k="teryt:simc" v="0092806"/>
  </node>
  <node id="589708019" version="2" timestamp="2010-04-11T04:54:12Z" uid="20587" user="balrog-kun" changeset="4389130" lat="53.01504" lon="17.99513">
    <tag k="name" v="Kobylarnia"/>
    <tag k="place" v="village"/>
    <tag k="source" v="http://ump.waw.pl/ retrieved 11:19:07 11/17/09 (UMP-Torun/src/cities-Torun.pnt-converted.txt)"/>
  </node>
  <node id="589708019" version="3" timestamp="2010-04-11T13:18:03Z" uid="20587" user="balrog-kun" changeset="4392352" lat="53.01504" lon="17.99513">
    <tag k="name" v="Kobylarnia"/>
    <tag k="place" v="village"/>
    <tag k="source" v="http://ump.waw.pl/ retrieved 11:19:07 11/17/09 (UMP-Torun/src/cities-Torun.pnt-converted.txt)"/>
  </node>
</osm>
