<?xml version='1.0' encoding='UTF-8'?>
<osm version="0.6" generator="libosmium/2.20.0">
  <node id="589840160" version="3" timestamp="2010-07-26T02:03:18Z" uid="20587" user="balrog-kun" changeset="5317852" lat="53.1319192" lon="18.0542229">
    <tag k="addr:city" v="Bydgoszcz"/>
    <tag k="name" v="Bydgoszcz Bielawy"/>
    <tag k="old_name" v="Bleichfelde;Bielawki"/>
    <tag k="operator" v="PKP"/>
    <tag k="railway" v="halt"/>
    <tag k="ref" v="5071"/>
    <tag k="source" v="http://ump.waw.pl/ retrieved 11:19:07 11/17/09 (UMP-Torun/src/POI-BYDGOSZCZ.punkty.pnt-converted.txt)"/>
    <tag k="wikipedia" v="pl:Bydgoszcz Bielawy"/>
  </node>
  <node id="589848719" version="2" timestamp="2010-02-22T18:45:52Z" uid="20587" user="balrog-kun" changeset="3946176" lat="53.16235" lon="18.0688">
    <tag k="addr:city" v="Bydgoszcz"/>
    <tag k="name" v="GÃ³ra Zamkowa"/>
    <tag k="natural" v="peak"/>
    <tag k="source" v="http://ump.waw.pl/ retrieved 11:19:07 11/17/09 (UMP-Torun/src/POI-Torun.pnt-converted.txt)"/>
  </node>
</osm>
