<?xml version='1.0' encoding='UTF-8'?>
<osm version="0.6" generator="libosmium/2.20.0">
  <node id="589902035" version="4" timestamp="2010-03-15T20:27:31Z" uid="30632" user="antblant" changeset="4138246" lat="53.26532" lon="18.10594"/>
  <node id="589902036" version="4" timestamp="2010-03-15T20:27:31Z" uid="30632" user="antblant" changeset="4138246" lat="53.26828" lon="18.10856"/>
  <node id="589902037" version="4" timestamp="2010-03-15T20:27:31Z" uid="30632" user="antblant" changeset="4138246" lat="53.26519" lon="18.10551"/>
  <node id="589902038" version="4" timestamp="2010-03-15T20:27:31Z" uid="30632" user="antblant" changeset="4138246" lat="53.27459" lon="18.11247"/>
  <node id="589902040" version="4" timestamp="2010-03-15T20:27:31Z" uid="30632" user="antblant" changeset="4138246" lat="53.27253" lon="18.11148"/>
  <node id="589902041" version="4" timestamp="2010-03-15T20:27:31Z" uid="30632" user="antblant" changeset="4138246" lat="53.26961" lon="18.10959"/>
  <node id="589902042" version="4" timestamp="2010-03-15T20:27:31Z" uid="30632" user="antblant" changeset="4138246" lat="53.26931" lon="18.10938"/>
  <node id="589902044" version="4" timestamp="2010-03-15T20:27:31Z" uid="30632" user="antblant" changeset="4138246" lat="53.27682" lon="18.11418"/>
  <node id="589902045" version="4" timestamp="2010-03-15T20:26:03Z" uid="30632" user="antblant" changeset="4138227" lat="53.29082" lon="18.10757"/>
  <node id="589902046" version="4" timestamp="2010-03-15T20:26:04Z" uid="30632" user="antblant" changeset="4138227" lat="53.29201" lon="18.10907"/>
  <node id="589902047" version="4" timestamp="2010-03-15T20:26:03Z" uid="30632" user="antblant" changeset="4138227" lat="53.28897" lon="18.10693"/>
  <node id="589902048" version="4" timestamp="2010-03-15T20:26:04Z" uid="30632" user="antblant" changeset="4138227" lat="53.29141" lon="18.10822"/>
  <node id="589902049" version="4" timestamp="2010-03-15T20:26:03Z" uid="30632" user="antblant" changeset="4138227" lat="53.28845" lon="18.10646"/>
  <node id="589902050" version="4" timestamp="2010-03-15T20:26:04Z" uid="30632" user="antblant" changeset="4138227" lat="53.29026" lon="18.10723"/>
  <node id="589902051" version="4" timestamp="2010-03-15T20:26:04Z" uid="30632" user="antblant" changeset="4138227" lat="53.29382" lon="18.11032"/>
  <node id="589902052" version="4" timestamp="2010-03-15T20:26:04Z" uid="30632" user="antblant" changeset="4138227" lat="53.2933" lon="18.10942"/>
  <node id="589902053" version="4" timestamp="2010-03-15T20:26:04Z" uid="30632" user="antblant" changeset="4138227" lat="53.29172" lon="18.10873"/>
  <node id="589902261" version="2" timestamp="2010-04-11T04:54:16Z" uid="20587" user="balrog-kun" changeset="4389130" lat="52.96539" lon="18.30473">
    <tag k="name" v="Osiek Wielki"/>
    <tag k="place" v="village"/>
    <tag k="source" v="http://ump.waw.pl/ retrieved 11:19:07 11/17/09 (UMP-Torun/src/cities-Torun.pnt-converted.txt)"/>
  </node>
  <node id="589902261" version="3" timestamp="2010-04-11T13:18:10Z" uid="20587" user="balrog-kun" changeset="4392352" lat="52.96539" lon="18.30473">
    <tag k="name" v="Osiek Wielki"/>
    <tag k="place" v="village"/>
    <tag k="source" v="http://ump.waw.pl/ retrieved 11:19:07 11/17/09 (UMP-Torun/src/cities-Torun.pnt-converted.txt)"/>
  </node>
  <node id="589902430" version="2" timestamp="2010-04-11T04:54:16Z" uid="20587" user="balrog-kun" changeset="4389130" lat="52.96741" lon="18.3397">
    <tag k="name" v="Glinno Wielkie"/>
    <tag k="place" v="village"/>
    <tag k="source" v="http://ump.waw.pl/ retrieved 11:19:07 11/17/09 (UMP-Torun/src/cities-Torun.pnt-converted.txt)"/>
  </node>
  <node id="589902430" version="3" timestamp="2010-04-11T13:18:10Z" uid="20587" user="balrog-kun" changeset="4392352" lat="52.96741" lon="18.3397">
    <tag k="name" v="Glinno Wielkie"/>
    <tag k="place" v="village"/>
    <tag k="source" v="http://ump.waw.pl/ retrieved 11:19:07 11/17/09 (UMP-Torun/src/cities-Torun.pnt-converted.txt)"/>
  </node>
  <node id="589902430" version="4" timestamp="2010-04-27T03:56:08Z" uid="30632" user="antblant" changeset="4537843" lat="52.96741" lon="18.3397">
    <tag k="name" v="Glinno Wielkie"/>
    <tag k="place" v="village"/>
    <tag k="source" v="http://ump.waw.pl/ retrieved 11:19:07 11/17/09 (UMP-Torun/src/cities-Torun.pnt-converted.txt)"/>
    <tag k="teryt:simc" v="0094484"/>
  </node>
  <node id="589902464" version="2" timestamp="2010-04-11T04:54:17Z" uid="20587" user="balrog-kun" changeset="4389130" lat="52.97453" lon="18.35052">
    <tag k="name" v="Brod Kamienny"/>
    <tag k="place" v="village"/>
    <tag k="source" v="http://ump.waw.pl/ retrieved 11:19:07 11/17/09 (UMP-Torun/src/cities-Torun.pnt-converted.txt)"/>
  </node>
  <node id="589902464" version="3" timestamp="2010-04-11T13:18:10Z" uid="20587" user="balrog-kun" changeset="4392352" lat="52.97453" lon="18.35052">
    <tag k="name" v="Brod Kamienny"/>
    <tag k="place" v="village"/>
    <tag k="source" v="http://ump.waw.pl/ retrieved 11:19:07 11/17/09 (UMP-Torun/src/cities-Torun.pnt-converted.txt)"/>
  </node>
  <node id="589902471" version="2" timestamp="2010-04-11T04:54:17Z" uid="20587" user="balrog-kun" changeset="4389130" lat="52.98431" lon="18.33288">
    <tag k="name" v="Osieczek"/>
    <tag k="place" v="village"/>
    <tag k="source" v="http://ump.waw.pl/ retrieved 11:19:07 11/17/09 (UMP-Torun/src/cities-Torun.pnt-converted.txt)"/>
  </node>
  <node id="589902471" version="3" timestamp="2010-04-11T13:18:11Z" uid="20587" user="balrog-kun" changeset="4392352" lat="52.98431" lon="18.33288">
    <tag k="name" v="Osieczek"/>
    <tag k="place" v="village"/>
    <tag k="source" v="http://ump.waw.pl/ retrieved 11:19:07 11/17/09 (UMP-Torun/src/cities-Torun.pnt-converted.txt)"/>
  </node>
  <node id="589902556" version="2" timestamp="2010-02-22T18:07:18Z" uid="20587" user="balrog-kun" changeset="3945817" lat="52.99148" lon="18.34168">
    <tag k="source" v="http://ump.waw.pl/ retrieved 11:19:07 11/17/09 (UMP-Torun/src/TORUN.zielone.txt)"/>
  </node>
  <node id="589902970" version="5" timestamp="2010-07-26T02:03:25Z" uid="20587" user="balrog-kun" changeset="5317852" lat="53.0496626" lon="18.3242365">
    <tag k="addr:city" v="Przylubie"/>
    <tag k="name" v="Przylubie"/>
    <tag k="operator" v="PKP"/>
    <tag k="railway" v="station"/>
    <tag k="ref" v="5503"/>
    <tag k="source" v="http://ump.waw.pl/ retrieved 11:19:07 11/17/09 (UMP-Torun/src/POI-BYDGOSZCZ.punkty.pnt-converted.txt)"/>
    <tag k="wikipedia" v="pl:Przyłubie (przystanek kolejowy)"/>
  </node>
  <node id="589903709" version="2" timestamp="2010-04-11T04:54:17Z" uid="20587" user="balrog-kun" changeset="4389130" lat="53.08456" lon="18.35794">
    <tag k="name" v="Pędzewo"/>
    <tag k="place" v="village"/>
    <tag k="source" v="http://ump.waw.pl/ retrieved 11:19:07 11/17/09 (UMP-Torun/src/cities-Torun.pnt-converted.txt)"/>
  </node>
  <node id="589903709" version="3" timestamp="2010-04-11T13:18:11Z" uid="20587" user="balrog-kun" changeset="4392352" lat="53.08456" lon="18.35794">
    <tag k="name" v="Pędzewo"/>
    <tag k="place" v="village"/>
    <tag k="source" v="http://ump.waw.pl/ retrieved 11:19:07 11/17/09 (UMP-Torun/src/cities-Torun.pnt-converted.txt)"/>
  </node>
  <node id="589903709" version="4" timestamp="2010-04-16T20:29:22Z" uid="30632" user="antblant" changeset="4442270" lat="53.08456" lon="18.35794">
    <tag k="name" v="Pędzewo"/>
    <tag k="place" v="village"/>
    <tag k="source" v="http://ump.waw.pl/ retrieved 11:19:07 11/17/09 (UMP-Torun/src/cities-Torun.pnt-converted.txt)"/>
  </node>
  <node id="589904452" version="2" timestamp="2010-04-11T04:54:17Z" uid="20587" user="balrog-kun" changeset="4389130" lat="53.10018" lon="18.29099">
    <tag k="name" v="Toporzysko"/>
    <tag k="place" v="village"/>
    <tag k="source" v="http://ump.waw.pl/ retrieved 11:19:07 11/17/09 (UMP-Torun/src/cities-Torun.pnt-converted.txt)"/>
  </node>
  <node id="589904452" version="3" timestamp="2010-04-11T13:18:11Z" uid="20587" user="balrog-kun" changeset="4392352" lat="53.10018" lon="18.29099">
    <tag k="name" v="Toporzysko"/>
    <tag k="place" v="village"/>
    <tag k="source" v="http://ump.waw.pl/ retrieved 11:19:07 11/17/09 (UMP-Torun/src/cities-Torun.pnt-converted.txt)"/>
  </node>
  <node id="589904452" version="4" timestamp="2010-04-16T20:29:22Z" uid="30632" user="antblant" changeset="4442270" lat="53.10018" lon="18.29099">
    <tag k="name" v="Toporzysko"/>
    <tag k="place" v="village"/>
    <tag k="source" v="http://ump.waw.pl/ retrieved 11:19:07 11/17/09 (UMP-Torun/src/cities-Torun.pnt-converted.txt)"/>
  </node>
  <node id="589905472" version="2" timestamp="2010-04-11T04:54:17Z" uid="20587" user="balrog-kun" changeset="4389130" lat="53.09585" lon="18.32627">
    <tag k="name" v="Zławieś Wielka"/>
    <tag k="place" v="village"/>
    <tag k="source" v="http://ump.waw.pl/ retrieved 11:19:07 11/17/09 (UMP-Torun/src/cities-Torun.pnt-converted.txt)"/>
  </node>
  <node id="589905472" version="3" timestamp="2010-04-11T13:18:11Z" uid="20587" user="balrog-kun" changeset="4392352" lat="53.09585" lon="18.32627">
    <tag k="name" v="Zławieś Wielka"/>
    <tag k="place" v="village"/>
    <tag k="source" v="http://ump.waw.pl/ retrieved 11:19:07 11/17/09 (UMP-Torun/src/cities-Torun.pnt-converted.txt)"/>
  </node>
  <node id="589905472" version="4" timestamp="2010-04-27T03:59:15Z" uid="30632" user="antblant" changeset="4537857" lat="53.09585" lon="18.32627">
    <tag k="name" v="Zławieś Wielka"/>
    <tag k="place" v="village"/>
    <tag k="source" v="http://ump.waw.pl/ retrieved 11:19:07 11/17/09 (UMP-Torun/src/cities-Torun.pnt-converted.txt)"/>
    <tag k="teryt:simc" v="0851212"/>
  </node>
  <node id="589905472" version="5" timestamp="2010-05-21T10:35:45Z" uid="30632" user="antblant" changeset="4764502" lat="53.09585" lon="18.32627">
    <tag k="name" v="Zławieś Wielka"/>
    <tag k="place" v="village"/>
    <tag k="source" v="http://ump.waw.pl/ retrieved 11:19:07 11/17/09 (UMP-Torun/src/cities-Torun.pnt-converted.txt)"/>
    <tag k="teryt:simc" v="0851212"/>
  </node>
  <node id="589906012" version="2" timestamp="2010-04-11T04:54:17Z" uid="20587" user="balrog-kun" changeset="4389130" lat="53.1004" lon="18.35618">
    <tag k="name" v="Gutowo"/>
    <tag k="place" v="village"/>
    <tag k="source" v="http://ump.waw.pl/ retrieved 11:19:07 11/17/09 (UMP-Torun/src/cities-Torun.pnt-converted.txt)"/>
  </node>
  <node id="589906012" version="3" timestamp="2010-04-11T13:18:11Z" uid="20587" user="balrog-kun" changeset="4392352" lat="53.1004" lon="18.35618">
    <tag k="name" v="Gutowo"/>
    <tag k="place" v="village"/>
    <tag k="source" v="http://ump.waw.pl/ retrieved 11:19:07 11/17/09 (UMP-Torun/src/cities-Torun.pnt-converted.txt)"/>
  </node>
  <node id="589906201" version="2" timestamp="2010-04-11T04:54:17Z" uid="20587" user="balrog-kun" changeset="4389130" lat="53.12546" lon="18.32936">
    <tag k="name" v="Skludzewo"/>
    <tag k="place" v="village"/>
    <tag k="source" v="http://ump.waw.pl/ retrieved 11:19:07 11/17/09 (UMP-Torun/src/cities-Torun.pnt-converted.txt)"/>
  </node>
  <node id="589906201" version="3" timestamp="2010-04-11T13:18:11Z" uid="20587" user="balrog-kun" changeset="4392352" lat="53.12546" lon="18.32936">
    <tag k="name" v="Skludzewo"/>
    <tag k="place" v="village"/>
    <tag k="source" v="http://ump.waw.pl/ retrieved 11:19:07 11/17/09 (UMP-Torun/src/cities-Torun.pnt-converted.txt)"/>
  </node>
  <node id="589906392" version="2" timestamp="2010-04-11T04:54:17Z" uid="20587" user="balrog-kun" changeset="4389130" lat="53.1131" lon="18.35116">
    <tag k="name" v="Zławieś Mała"/>
    <tag k="place" v="village"/>
    <tag k="source" v="http://ump.waw.pl/ retrieved 11:19:07 11/17/09 (UMP-Torun/src/cities-Torun.pnt-converted.txt)"/>
  </node>
  <node id="589906392" version="3" timestamp="2010-04-11T13:18:11Z" uid="20587" user="balrog-kun" changeset="4392352" lat="53.1131" lon="18.35116">
    <tag k="name" v="Zławieś Mała"/>
    <tag k="place" v="village"/>
    <tag k="source" v="http://ump.waw.pl/ retrieved 11:19:07 11/17/09 (UMP-Torun/src/cities-Torun.pnt-converted.txt)"/>
  </node>
  <node id="589906392" version="4" timestamp="2010-04-16T20:29:22Z" uid="30632" user="antblant" changeset="4442270" lat="53.1131" lon="18.35116">
    <tag k="name" v="Zławieś Mała"/>
    <tag k="place" v="village"/>
    <tag k="source" v="http://ump.waw.pl/ retrieved 11:19:07 11/17/09 (UMP-Torun/src/cities-Torun.pnt-converted.txt)"/>
  </node>
  <node id="589906583" version="2" timestamp="2010-04-11T04:54:17Z" uid="20587" user="balrog-kun" changeset="4389130" lat="53.12945" lon="18.36455">
    <tag k="name" v="Rzeczkowo"/>
    <tag k="place" v="village"/>
    <tag k="source" v="http://ump.waw.pl/ retrieved 11:19:07 11/17/09 (UMP-Torun/src/cities-Torun.pnt-converted.txt)"/>
  </node>
  <node id="589906583" version="3" timestamp="2010-04-11T13:18:11Z" uid="20587" user="balrog-kun" changeset="4392352" lat="53.12945" lon="18.36455">
    <tag k="name" v="Rzeczkowo"/>
    <tag k="place" v="village"/>
    <tag k="source" v="http://ump.waw.pl/ retrieved 11:19:07 11/17/09 (UMP-Torun/src/cities-Torun.pnt-converted.txt)"/>
  </node>
  <node id="589906583" version="4" timestamp="2010-04-16T20:29:22Z" uid="30632" user="antblant" changeset="4442270" lat="53.12945" lon="18.36455">
    <tag k="name" v="Rzeczkowo"/>
    <tag k="place" v="village"/>
    <tag k="source" v="http://ump.waw.pl/ retrieved 11:19:07 11/17/09 (UMP-Torun/src/cities-Torun.pnt-converted.txt)"/>
  </node>
  <node id="589906689" version="4" timestamp="2010-04-27T03:59:19Z" uid="30632" user="antblant" changeset="4537857" lat="53.1459887" lon="18.2948644">
    <tag k="name" v="Bolumin"/>
    <tag k="place" v="village"/>
    <tag k="source" v="http://ump.waw.pl/ retrieved 11:19:07 11/17/09 (UMP-Torun/src/cities-Torun.pnt-converted.txt)"/>
    <tag k="teryt:simc" v="0084089"/>
  </node>
  <node id="589906924" version="2" timestamp="2010-04-11T04:54:17Z" uid="20587" user="balrog-kun" changeset="4389130" lat="53.16164" lon="18.30086">
    <tag k="name" v="Bolminek"/>
    <tag k="place" v="village"/>
    <tag k="source" v="http://ump.waw.pl/ retrieved 11:19:07 11/17/09 (UMP-Torun/src/cities-Torun.pnt-converted.txt)"/>
  </node>
  <node id="589906924" version="3" timestamp="2010-04-11T13:18:12Z" uid="20587" user="balrog-kun" changeset="4392352" lat="53.16164" lon="18.30086">
    <tag k="name" v="Bolminek"/>
    <tag k="place" v="village"/>
    <tag k="source" v="http://ump.waw.pl/ retrieved 11:19:07 11/17/09 (UMP-Torun/src/cities-Torun.pnt-converted.txt)"/>
  </node>
  <node id="589907474" version="2" timestamp="2010-04-11T04:54:17Z" uid="20587" user="balrog-kun" changeset="4389130" lat="53.15288" lon="18.32764">
    <tag k="name" v="Gierkowo"/>
    <tag k="place" v="village"/>
    <tag k="source" v="http://ump.waw.pl/ retrieved 11:19:07 11/17/09 (UMP-Torun/src/cities-Torun.pnt-converted.txt)"/>
  </node>
  <node id="589907474" version="3" timestamp="2010-04-11T13:18:12Z" uid="20587" user="balrog-kun" changeset="4392352" lat="53.15288" lon="18.32764">
    <tag k="name" v="Gierkowo"/>
    <tag k="place" v="village"/>
    <tag k="source" v="http://ump.waw.pl/ retrieved 11:19:07 11/17/09 (UMP-Torun/src/cities-Torun.pnt-converted.txt)"/>
  </node>
  <node id="589907672" version="2" timestamp="2010-04-11T04:54:17Z" uid="20587" user="balrog-kun" changeset="4389130" lat="53.15503" lon="18.3612">
    <tag k="name" v="Cichoradz"/>
    <tag k="place" v="village"/>
    <tag k="source" v="http://ump.waw.pl/ retrieved 11:19:07 11/17/09 (UMP-Torun/src/cities-Torun.pnt-converted.txt)"/>
  </node>
  <node id="589907672" version="3" timestamp="2010-04-11T13:18:12Z" uid="20587" user="balrog-kun" changeset="4392352" lat="53.15503" lon="18.3612">
    <tag k="name" v="Cichoradz"/>
    <tag k="place" v="village"/>
    <tag k="source" v="http://ump.waw.pl/ retrieved 11:19:07 11/17/09 (UMP-Torun/src/cities-Torun.pnt-converted.txt)"/>
  </node>
  <node id="589907672" version="4" timestamp="2010-04-27T03:59:37Z" uid="30632" user="antblant" changeset="4537857" lat="53.15503" lon="18.3612">
    <tag k="name" v="Cichoradz"/>
    <tag k="place" v="village"/>
    <tag k="source" v="http://ump.waw.pl/ retrieved 11:19:07 11/17/09 (UMP-Torun/src/cities-Torun.pnt-converted.txt)"/>
    <tag k="teryt:simc" v="0850939"/>
  </node>
  <node id="589908538" version="2" timestamp="2010-04-11T04:54:18Z" uid="20587" user="balrog-kun" changeset="4389130" lat="53.2049" lon="18.31288">
    <tag k="name" v="Gzin Górny"/>
    <tag k="place" v="village"/>
    <tag k="source" v="http://ump.waw.pl/ retrieved 11:19:07 11/17/09 (UMP-Torun/src/cities-Torun.pnt-converted.txt)"/>
  </node>
  <node id="589908538" version="3" timestamp="2010-04-11T13:18:12Z" uid="20587" user="balrog-kun" changeset="4392352" lat="53.2049" lon="18.31288">
    <tag k="name" v="Gzin Górny"/>
    <tag k="place" v="village"/>
    <tag k="source" v="http://ump.waw.pl/ retrieved 11:19:07 11/17/09 (UMP-Torun/src/cities-Torun.pnt-converted.txt)"/>
  </node>
  <node id="589908648" version="2" timestamp="2010-04-11T04:54:18Z" uid="20587" user="balrog-kun" changeset="4389130" lat="53.19374" lon="18.32803">
    <tag k="name" v="Gzin"/>
    <tag k="place" v="village"/>
    <tag k="source" v="http://ump.waw.pl/ retrieved 11:19:07 11/17/09 (UMP-Torun/src/cities-Torun.pnt-converted.txt)"/>
  </node>
  <node id="589908648" version="3" timestamp="2010-04-11T13:18:12Z" uid="20587" user="balrog-kun" changeset="4392352" lat="53.19374" lon="18.32803">
    <tag k="name" v="Gzin"/>
    <tag k="place" v="village"/>
    <tag k="source" v="http://ump.waw.pl/ retrieved 11:19:07 11/17/09 (UMP-Torun/src/cities-Torun.pnt-converted.txt)"/>
  </node>
  <node id="589908648" version="4" timestamp="2010-04-27T04:16:57Z" uid="30632" user="antblant" changeset="4537905" lat="53.19374" lon="18.32803">
    <tag k="name" v="Gzin"/>
    <tag k="place" v="village"/>
    <tag k="source" v="http://ump.waw.pl/ retrieved 11:19:07 11/17/09 (UMP-Torun/src/cities-Torun.pnt-converted.txt)"/>
    <tag k="teryt:simc" v="0084161"/>
  </node>
  <node id="589908686" version="2" timestamp="2010-04-11T04:54:18Z" uid="20587" user="balrog-kun" changeset="4389130" lat="53.18619" lon="18.34095">
    <tag k="name" v="Otowice"/>
    <tag k="place" v="village"/>
    <tag k="source" v="http://ump.waw.pl/ retrieved 11:19:07 11/17/09 (UMP-Torun/src/cities-Torun.pnt-converted.txt)"/>
  </node>
  <node id="589908686" version="3" timestamp="2010-04-11T13:18:12Z" uid="20587" user="balrog-kun" changeset="4392352" lat="53.18619" lon="18.34095">
    <tag k="name" v="Otowice"/>
    <tag k="place" v="village"/>
    <tag k="source" v="http://ump.waw.pl/ retrieved 11:19:07 11/17/09 (UMP-Torun/src/cities-Torun.pnt-converted.txt)"/>
  </node>
  <node id="589908686" version="4" timestamp="2010-04-27T04:04:23Z" uid="30632" user="antblant" changeset="4537867" lat="53.18619" lon="18.34095">
    <tag k="name" v="Otowice"/>
    <tag k="place" v="village"/>
    <tag k="source" v="http://ump.waw.pl/ retrieved 11:19:07 11/17/09 (UMP-Torun/src/cities-Torun.pnt-converted.txt)"/>
    <tag k="teryt:simc" v="0084267"/>
  </node>
  <node id="589909039" version="4" timestamp="2010-04-11T04:54:18Z" uid="20587" user="balrog-kun" changeset="4389130" lat="53.2236926" lon="18.3511355">
    <tag k="name" v="Bruki Unislawskie"/>
    <tag k="place" v="village"/>
    <tag k="source" v="http://ump.waw.pl/ retrieved 11:19:07 11/17/09 (UMP-Torun/src/cities-Torun.pnt-converted.txt)"/>
  </node>
  <node id="589909039" version="5" timestamp="2010-04-11T13:18:12Z" uid="20587" user="balrog-kun" changeset="4392352" lat="53.2262309" lon="18.3596578">
    <tag k="name" v="Bruki Unislawskie"/>
    <tag k="place" v="village"/>
    <tag k="source" v="http://ump.waw.pl/ retrieved 11:19:07 11/17/09 (UMP-Torun/src/cities-Torun.pnt-converted.txt)"/>
  </node>
  <node id="589909065" version="2" timestamp="2010-04-11T04:54:18Z" uid="20587" user="balrog-kun" changeset="4389130" lat="53.20039" lon="18.36742">
    <tag k="name" v="Raciniewo"/>
    <tag k="place" v="village"/>
    <tag k="source" v="http://ump.waw.pl/ retrieved 11:19:07 11/17/09 (UMP-Torun/src/cities-Torun.pnt-converted.txt)"/>
  </node>
  <node id="589909065" version="3" timestamp="2010-04-11T13:18:12Z" uid="20587" user="balrog-kun" changeset="4392352" lat="53.20039" lon="18.36742">
    <tag k="name" v="Raciniewo"/>
    <tag k="place" v="village"/>
    <tag k="source" v="http://ump.waw.pl/ retrieved 11:19:07 11/17/09 (UMP-Torun/src/cities-Torun.pnt-converted.txt)"/>
  </node>
  <node id="589909098" version="2" timestamp="2010-04-11T04:54:18Z" uid="20587" user="balrog-kun" changeset="4389130" lat="53.22764" lon="18.28597">
    <tag k="name" v="Borki"/>
    <tag k="place" v="village"/>
    <tag k="source" v="http://ump.waw.pl/ retrieved 11:19:07 11/17/09 (UMP-Torun/src/cities-Torun.pnt-converted.txt)"/>
  </node>
  <node id="589909098" version="3" timestamp="2010-04-11T13:18:12Z" uid="20587" user="balrog-kun" changeset="4392352" lat="53.22764" lon="18.28597">
    <tag k="name" v="Borki"/>
    <tag k="place" v="village"/>
    <tag k="source" v="http://ump.waw.pl/ retrieved 11:19:07 11/17/09 (UMP-Torun/src/cities-Torun.pnt-converted.txt)"/>
  </node>
  <node id="589909098" version="4" timestamp="2010-04-16T19:58:05Z" uid="30632" user="antblant" changeset="4441975" lat="53.22764" lon="18.28597">
    <tag k="name" v="Borki"/>
    <tag k="place" v="village"/>
    <tag k="source" v="http://ump.waw.pl/ retrieved 11:19:07 11/17/09 (UMP-Torun/src/cities-Torun.pnt-converted.txt)"/>
  </node>
  <node id="589909159" version="2" timestamp="2010-04-11T04:54:18Z" uid="20587" user="balrog-kun" changeset="4389130" lat="53.23352" lon="18.34365">
    <tag k="name" v="Błoto"/>
    <tag k="place" v="village"/>
    <tag k="source" v="http://ump.waw.pl/ retrieved 11:19:07 11/17/09 (UMP-Torun/src/cities-Torun.pnt-converted.txt)"/>
  </node>
  <node id="589909159" version="3" timestamp="2010-04-11T13:18:12Z" uid="20587" user="balrog-kun" changeset="4392352" lat="53.23352" lon="18.34365">
    <tag k="name" v="Błoto"/>
    <tag k="place" v="village"/>
    <tag k="source" v="http://ump.waw.pl/ retrieved 11:19:07 11/17/09 (UMP-Torun/src/cities-Torun.pnt-converted.txt)"/>
  </node>
</osm>
