<?xml version='1.0' encoding='UTF-8'?>
<osm version="0.6" generator="libosmium/2.20.0">
  <node id="590693417" version="1" timestamp="2009-12-14T19:26:51Z" uid="85955" user="Gerd Höweler" changeset="3374324" lat="52.0703878" lon="8.606265">
    <tag k="addr:housenumber" v="46"/>
    <tag k="addr:postcode" v="33729"/>
    <tag k="addr:street" v="Braker Straße"/>
  </node>
  <node id="590693421" version="1" timestamp="2009-12-14T19:26:51Z" uid="85955" user="Gerd Höweler" changeset="3374324" lat="52.0709995" lon="8.60605">
    <tag k="addr:housenumber" v="12"/>
    <tag k="addr:postcode" v="33729"/>
    <tag k="addr:street" v="Stedefreunder Straße"/>
  </node>
  <node id="590693424" version="1" timestamp="2009-12-14T19:26:51Z" uid="85955" user="Gerd Höweler" changeset="3374324" lat="52.0708469" lon="8.6060063">
    <tag k="addr:housenumber" v="6"/>
    <tag k="addr:postcode" v="33729"/>
    <tag k="addr:street" v="Stedefreunder Straße"/>
  </node>
  <node id="590693426" version="1" timestamp="2009-12-14T19:26:51Z" uid="85955" user="Gerd Höweler" changeset="3374324" lat="52.0704261" lon="8.6061525">
    <tag k="addr:housenumber" v="46a"/>
    <tag k="addr:postcode" v="33729"/>
    <tag k="addr:street" v="Braker Straße"/>
  </node>
  <node id="590693429" version="1" timestamp="2009-12-14T19:26:51Z" uid="85955" user="Gerd Höweler" changeset="3374324" lat="52.0706601" lon="8.6059118">
    <tag k="addr:housenumber" v="4"/>
    <tag k="addr:postcode" v="33729"/>
    <tag k="addr:street" v="Stedefreunder Straße"/>
  </node>
  <node id="590693431" version="1" timestamp="2009-12-14T19:26:51Z" uid="85955" user="Gerd Höweler" changeset="3374324" lat="52.0712357" lon="8.6061763">
    <tag k="addr:housenumber" v="14"/>
    <tag k="addr:postcode" v="33729"/>
    <tag k="addr:street" v="Stedefreunder Straße"/>
  </node>
  <node id="590693434" version="1" timestamp="2009-12-14T19:26:51Z" uid="85955" user="Gerd Höweler" changeset="3374324" lat="52.0714836" lon="8.6073866">
    <tag k="addr:housenumber" v="1"/>
    <tag k="addr:postcode" v="33729"/>
    <tag k="addr:street" v="Wehrstraße"/>
  </node>
  <node id="590693436" version="1" timestamp="2009-12-14T19:26:51Z" uid="85955" user="Gerd Höweler" changeset="3374324" lat="52.0712247" lon="8.6070608">
    <tag k="addr:housenumber" v="6"/>
    <tag k="addr:postcode" v="33729"/>
    <tag k="addr:street" v="Wehrstraße"/>
  </node>
  <node id="590693437" version="1" timestamp="2009-12-14T19:26:52Z" uid="85955" user="Gerd Höweler" changeset="3374324" lat="52.0736725" lon="8.6072922">
    <tag k="addr:housenumber" v="36"/>
    <tag k="addr:postcode" v="33729"/>
    <tag k="addr:street" v="Stedefreunder Straße"/>
  </node>
  <node id="590693438" version="1" timestamp="2009-12-14T19:26:52Z" uid="85955" user="Gerd Höweler" changeset="3374324" lat="52.073166" lon="8.607215">
    <tag k="addr:housenumber" v="34"/>
    <tag k="addr:postcode" v="33729"/>
    <tag k="addr:street" v="Stedefreunder Straße"/>
  </node>
  <node id="590693439" version="1" timestamp="2009-12-14T19:26:52Z" uid="85955" user="Gerd Höweler" changeset="3374324" lat="52.0730029" lon="8.6069317">
    <tag k="addr:housenumber" v="32"/>
    <tag k="addr:postcode" v="33729"/>
    <tag k="addr:street" v="Stedefreunder Straße"/>
  </node>
  <node id="590693440" version="1" timestamp="2009-12-14T19:26:52Z" uid="85955" user="Gerd Höweler" changeset="3374324" lat="52.0726853" lon="8.6068287">
    <tag k="addr:housenumber" v="26"/>
    <tag k="addr:postcode" v="33729"/>
    <tag k="addr:street" v="Stedefreunder Straße"/>
  </node>
  <node id="590693441" version="1" timestamp="2009-12-14T19:26:52Z" uid="85955" user="Gerd Höweler" changeset="3374324" lat="52.0726166" lon="8.6070605">
    <tag k="addr:housenumber" v="28"/>
    <tag k="addr:postcode" v="33729"/>
    <tag k="addr:street" v="Stedefreunder Straße"/>
  </node>
  <node id="590693442" version="1" timestamp="2009-12-14T19:26:52Z" uid="85955" user="Gerd Höweler" changeset="3374324" lat="52.0725995" lon="8.6073351">
    <tag k="addr:housenumber" v="30"/>
    <tag k="addr:postcode" v="33729"/>
    <tag k="addr:street" v="Stedefreunder Straße"/>
  </node>
  <node id="590693443" version="1" timestamp="2009-12-14T19:26:52Z" uid="85955" user="Gerd Höweler" changeset="3374324" lat="52.075063" lon="8.6061248">
    <tag k="addr:housenumber" v="59f"/>
    <tag k="addr:postcode" v="33729"/>
    <tag k="addr:street" v="Stedefreunder Straße"/>
  </node>
  <node id="590693444" version="1" timestamp="2009-12-14T19:26:52Z" uid="85955" user="Gerd Höweler" changeset="3374324" lat="52.0744364" lon="8.6075154">
    <tag k="addr:housenumber" v="54"/>
    <tag k="addr:postcode" v="33729"/>
    <tag k="addr:street" v="Stedefreunder Straße"/>
  </node>
  <node id="590693445" version="1" timestamp="2009-12-14T19:26:52Z" uid="85955" user="Gerd Höweler" changeset="3374324" lat="52.0744793" lon="8.6070433">
    <tag k="addr:housenumber" v="53"/>
    <tag k="addr:postcode" v="33729"/>
    <tag k="addr:street" v="Stedefreunder Straße"/>
  </node>
  <node id="590693446" version="1" timestamp="2009-12-14T19:26:52Z" uid="85955" user="Gerd Höweler" changeset="3374324" lat="52.0739643" lon="8.6073781">
    <tag k="addr:housenumber" v="38"/>
    <tag k="addr:postcode" v="33729"/>
    <tag k="addr:street" v="Stedefreunder Straße"/>
  </node>
  <node id="590693447" version="1" timestamp="2009-12-14T19:26:52Z" uid="85955" user="Gerd Höweler" changeset="3374324" lat="52.0746596" lon="8.6075497">
    <tag k="addr:housenumber" v="56"/>
    <tag k="addr:postcode" v="33729"/>
    <tag k="addr:street" v="Stedefreunder Straße"/>
  </node>
  <node id="590693451" version="1" timestamp="2009-12-14T19:26:52Z" uid="85955" user="Gerd Höweler" changeset="3374324" lat="52.074857" lon="8.6075497">
    <tag k="addr:housenumber" v="58"/>
    <tag k="addr:postcode" v="33729"/>
    <tag k="addr:street" v="Stedefreunder Straße"/>
  </node>
  <node id="590693453" version="1" timestamp="2009-12-14T19:26:53Z" uid="85955" user="Gerd Höweler" changeset="3374324" lat="52.0747884" lon="8.6070347">
    <tag k="addr:housenumber" v="55"/>
    <tag k="addr:postcode" v="33729"/>
    <tag k="addr:street" v="Stedefreunder Straße"/>
  </node>
  <node id="590693455" version="1" timestamp="2009-12-14T19:26:53Z" uid="85955" user="Gerd Höweler" changeset="3374324" lat="52.0749858" lon="8.6070347">
    <tag k="addr:housenumber" v="57"/>
    <tag k="addr:postcode" v="33729"/>
    <tag k="addr:street" v="Stedefreunder Straße"/>
  </node>
  <node id="590693457" version="1" timestamp="2009-12-14T19:26:53Z" uid="85955" user="Gerd Höweler" changeset="3374324" lat="52.0750287" lon="8.6067514">
    <tag k="addr:housenumber" v="59a"/>
    <tag k="addr:postcode" v="33729"/>
    <tag k="addr:street" v="Stedefreunder Straße"/>
  </node>
</osm>
