<?xml version='1.0' encoding='UTF-8'?>
<osm version="0.6" generator="libosmium/2.20.0">
  <node id="592204035" version="3" timestamp="2010-07-28T21:02:57Z" uid="74617" user="JohnSmith" changeset="5342181" lat="50.4300035" lon="6.4330129">
    <tag k="emergency" v="ambulance_station"/>
    <tag k="name" v="Rettungswache Rescheid"/>
    <tag k="network" v="Kreis Euskirchen"/>
    <tag k="note" v="FIXME: genaue Position unbekannt"/>
    <tag k="operator" v="Kreis Euskirchen"/>
    <tag k="ref" v="12"/>
  </node>
  <node id="592204038" version="4" timestamp="2010-07-28T21:02:58Z" uid="74617" user="JohnSmith" changeset="5342181" lat="50.5284048" lon="6.481795">
    <tag k="emergency" v="ambulance_station"/>
    <tag k="name" v="Rettungswache Schleiden"/>
    <tag k="network" v="Kreis Euskirchen"/>
    <tag k="operator" v="Kreis Euskirchen"/>
    <tag k="ref" v="9"/>
  </node>
  <node id="592204041" version="3" timestamp="2010-07-28T21:02:57Z" uid="74617" user="JohnSmith" changeset="5342181" lat="50.5929864" lon="6.6524734">
    <tag k="emergency" v="ambulance_station"/>
    <tag k="name" v="Rettungswache Mechernich"/>
    <tag k="network" v="Kreis Euskirchen"/>
    <tag k="operator" v="Kreis Euskirchen"/>
    <tag k="ref" v="7"/>
  </node>
  <node id="592204043" version="3" timestamp="2010-07-28T21:03:08Z" uid="74617" user="JohnSmith" changeset="5342181" lat="50.472429" lon="6.711058">
    <tag k="emergency" v="ambulance_station"/>
    <tag k="name" v="Rettungswache Tondorf"/>
    <tag k="network" v="Kreis Euskirchen"/>
    <tag k="operator" v="Kreis Euskirchen"/>
    <tag k="ref" v="8"/>
  </node>
  <node id="592204044" version="3" timestamp="2010-07-28T21:02:57Z" uid="74617" user="JohnSmith" changeset="5342181" lat="50.5579868" lon="6.7656784">
    <tag k="emergency" v="ambulance_station"/>
    <tag k="name" v="Rettungswache Bad Münstereifel"/>
    <tag k="network" v="Kreis Euskirchen"/>
    <tag k="operator" v="Kreis Euskirchen"/>
    <tag k="ref" v="1"/>
  </node>
  <node id="592204045" version="2" timestamp="2010-07-28T21:03:02Z" uid="74617" user="JohnSmith" changeset="5342181" lat="50.697836" lon="6.665069">
    <tag k="emergency" v="ambulance_station"/>
    <tag k="name" v="Rettungswache Zülpich"/>
    <tag k="network" v="Kreis Euskirchen"/>
    <tag k="note" v="FIXME: Position geschätzt"/>
    <tag k="operator" v="Kreis Euskirchen"/>
    <tag k="ref" v="11"/>
  </node>
  <node id="592204046" version="3" timestamp="2010-07-28T21:03:08Z" uid="74617" user="JohnSmith" changeset="5342181" lat="50.66926" lon="6.78266">
    <tag k="emergency" v="ambulance_station"/>
    <tag k="name" v="Rettungswache Euskirchen"/>
    <tag k="network" v="Kreis Euskirchen"/>
    <tag k="operator" v="Kreis Euskirchen"/>
    <tag k="ref" v="4"/>
  </node>
  <node id="592204058" version="2" timestamp="2010-07-28T21:03:07Z" uid="74617" user="JohnSmith" changeset="5342181" lat="50.731232" lon="6.828313">
    <tag k="emergency" v="ambulance_station"/>
    <tag k="name" v="Rettungswache Vernich"/>
    <tag k="network" v="Kreis Euskirchen"/>
    <tag k="operator" v="Kreis Euskirchen"/>
    <tag k="ref" v="10"/>
  </node>
</osm>
