<?xml version='1.0' encoding='UTF-8'?>
<osm version="0.6" generator="libosmium/2.20.0">
  <node id="600261882" version="4" timestamp="2010-08-12T12:28:55Z" uid="10712" user="Kraeml" changeset="5472766" lat="49.4610211" lon="11.0852569">
    <tag k="addr:city" v="Nürnberg"/>
    <tag k="addr:country" v="DE"/>
    <tag k="addr:housenumber" v="83"/>
    <tag k="addr:postcode" v="90409"/>
    <tag k="addr:street" v="Pirckheimerstraße"/>
    <tag k="amenity" v="restaurant"/>
    <tag k="cuisine" v="greek"/>
    <tag k="name" v="Stathu Zourlantoni Bavaria Stuben"/>
    <tag k="opening_hours" v="We-Mo 11:00-14:30 17:00-23:00"/>
    <tag k="phone" v="+49 911 554555"/>
    <tag k="smoking" v="no"/>
  </node>
  <node id="600261882" version="5" timestamp="2010-08-12T12:46:21Z" uid="10712" user="Kraeml" changeset="5472902" lat="49.4610211" lon="11.0852569">
    <tag k="addr:city" v="Nürnberg"/>
    <tag k="addr:country" v="DE"/>
    <tag k="addr:housenumber" v="83"/>
    <tag k="addr:postcode" v="90409"/>
    <tag k="addr:street" v="Pirckheimerstraße"/>
    <tag k="amenity" v="restaurant"/>
    <tag k="cuisine" v="greek"/>
    <tag k="name" v="Stathu Zourlantoni Bavaria Stuben"/>
    <tag k="opening_hours" v="We-Mo 11:00-14:30 17:00-23:00"/>
    <tag k="phone" v="+49 911 554555"/>
    <tag k="smoking" v="no"/>
    <tag k="wheelchair" v="no"/>
  </node>
  <node id="600267562" version="2" timestamp="2011-01-27T01:51:16Z" uid="4467" user="Rosscoe" changeset="7099791" lat="-31.9444781" lon="115.8452326"/>
  <node id="600267661" version="2" timestamp="2010-07-17T09:06:56Z" uid="4467" user="Rosscoe" changeset="5240660" lat="-31.9477818" lon="115.848883"/>
  <node id="600267662" version="2" timestamp="2010-07-17T09:07:02Z" uid="4467" user="Rosscoe" changeset="5240660" lat="-31.9477741" lon="115.8488481"/>
  <node id="600267666" version="2" timestamp="2010-07-17T09:04:37Z" uid="4467" user="Rosscoe" changeset="5240660" lat="-31.9476683" lon="115.8494415"/>
  <node id="600267669" version="2" timestamp="2010-07-17T09:04:52Z" uid="4467" user="Rosscoe" changeset="5240660" lat="-31.9475048" lon="115.8489905"/>
  <node id="600267711" version="2" timestamp="2011-01-27T01:51:16Z" uid="4467" user="Rosscoe" changeset="7099791" lat="-31.9449062" lon="115.8464358"/>
  <node id="600267750" version="2" timestamp="2010-07-17T13:13:36Z" uid="4467" user="Rosscoe" changeset="5242458" lat="-31.9443264" lon="115.8510798"/>
  <node id="600267752" version="2" timestamp="2010-07-17T13:13:32Z" uid="4467" user="Rosscoe" changeset="5242458" lat="-31.9444294" lon="115.851109"/>
  <node id="600267767" version="2" timestamp="2010-07-17T13:13:54Z" uid="4467" user="Rosscoe" changeset="5242458" lat="-31.942178" lon="115.8519952"/>
</osm>
