<?xml version='1.0' encoding='UTF-8'?>
<osm version="0.6" generator="libosmium/2.20.0">
  <node id="601512190" version="2" timestamp="2010-04-03T20:17:59Z" uid="17602" user="B10xyz" changeset="4315800" lat="45.4249997" lon="12.3265287"/>
  <node id="601512191" version="2" timestamp="2010-04-03T20:17:59Z" uid="17602" user="B10xyz" changeset="4315800" lat="45.4250784" lon="12.3264794"/>
  <node id="601512192" version="2" timestamp="2010-04-03T20:17:59Z" uid="17602" user="B10xyz" changeset="4315800" lat="45.4251935" lon="12.3264423"/>
  <node id="601512193" version="2" timestamp="2010-04-03T20:17:59Z" uid="17602" user="B10xyz" changeset="4315800" lat="45.4250393" lon="12.326366"/>
  <node id="601513162" version="1" timestamp="2009-12-30T16:52:46Z" uid="59758" user="rendle" changeset="3491517" lat="51.0253488" lon="4.101697">
    <tag k="highway" v="bus_stop"/>
    <tag k="name" v="Brusselsestraat"/>
  </node>
  <node id="601513893" version="2" timestamp="2010-07-26T07:10:12Z" uid="4467" user="Rosscoe" changeset="5318600" lat="-34.9449373" lon="138.5122784"/>
  <node id="601513902" version="2" timestamp="2010-07-26T07:10:49Z" uid="4467" user="Rosscoe" changeset="5318600" lat="-34.9448903" lon="138.5131371"/>
  <node id="601513908" version="2" timestamp="2010-07-26T07:09:28Z" uid="4467" user="Rosscoe" changeset="5318600" lat="-34.9448742" lon="138.5134595"/>
  <node id="601514184" version="2" timestamp="2010-07-26T07:10:14Z" uid="4467" user="Rosscoe" changeset="5318600" lat="-34.9451032" lon="138.5088948"/>
  <node id="601514332" version="1" timestamp="2009-12-30T16:56:58Z" uid="59758" user="rendle" changeset="3491517" lat="51.0234544" lon="4.1004509"/>
  <node id="601514333" version="1" timestamp="2009-12-30T16:56:58Z" uid="59758" user="rendle" changeset="3491517" lat="51.0236906" lon="4.1015855"/>
  <node id="601514334" version="1" timestamp="2009-12-30T16:56:58Z" uid="59758" user="rendle" changeset="3491517" lat="51.0234797" lon="4.1015157"/>
  <node id="601514335" version="1" timestamp="2009-12-30T16:56:58Z" uid="59758" user="rendle" changeset="3491517" lat="51.0233465" lon="4.1009846"/>
  <node id="601514336" version="1" timestamp="2009-12-30T16:56:59Z" uid="59758" user="rendle" changeset="3491517" lat="51.0233903" lon="4.1006896"/>
  <node id="601514519" version="1" timestamp="2009-12-30T16:57:54Z" uid="59758" user="rendle" changeset="3491517" lat="51.0238163" lon="4.1015566">
    <tag k="amenity" v="fast_food"/>
    <tag k="name" v="De venkel"/>
  </node>
  <node id="601514526" version="1" timestamp="2009-12-30T16:58:08Z" uid="59758" user="rendle" changeset="3491517" lat="51.024033" lon="4.101508"/>
  <node id="601514925" version="1" timestamp="2009-12-30T17:01:27Z" uid="59758" user="rendle" changeset="3491517" lat="51.0235042" lon="4.1003799">
    <tag k="amenity" v="restaurant"/>
    <tag k="name" v="The Green House"/>
  </node>
  <node id="601516251" version="2" timestamp="2010-07-28T21:01:58Z" uid="74617" user="JohnSmith" changeset="5342181" lat="47.5403116" lon="-1.8870922">
    <tag k="emergency" v="ambulance_station"/>
    <tag k="name" v="Ambulances de l&apos;Ouest"/>
  </node>
  <node id="601516367" version="2" timestamp="2010-07-28T20:01:41Z" uid="74617" user="JohnSmith" changeset="5339329" lat="47.8940764" lon="1.8112094">
    <tag k="emergency" v="fire_hydrant"/>
    <tag k="ref" v="128"/>
  </node>
  <node id="601516367" version="3" timestamp="2010-07-30T17:43:51Z" uid="74617" user="JohnSmith" changeset="5356742" lat="47.8940764" lon="1.8112094">
    <tag k="amenity" v="fire_hydrant"/>
    <tag k="emergency" v="fire_hydrant"/>
    <tag k="ref" v="128"/>
  </node>
  <node id="601516375" version="2" timestamp="2010-07-28T20:03:03Z" uid="74617" user="JohnSmith" changeset="5339329" lat="47.8909509" lon="1.8135776">
    <tag k="emergency" v="fire_hydrant"/>
  </node>
  <node id="601516375" version="3" timestamp="2010-07-30T17:44:54Z" uid="74617" user="JohnSmith" changeset="5356742" lat="47.8909509" lon="1.8135776">
    <tag k="amenity" v="fire_hydrant"/>
    <tag k="emergency" v="fire_hydrant"/>
  </node>
  <node id="601516379" version="2" timestamp="2010-07-28T20:10:27Z" uid="74617" user="JohnSmith" changeset="5339329" lat="47.8892378" lon="1.8144292">
    <tag k="emergency" v="fire_hydrant"/>
  </node>
  <node id="601516379" version="3" timestamp="2010-07-30T17:39:25Z" uid="74617" user="JohnSmith" changeset="5356742" lat="47.8892378" lon="1.8144292">
    <tag k="amenity" v="fire_hydrant"/>
    <tag k="emergency" v="fire_hydrant"/>
  </node>
  <node id="601516388" version="2" timestamp="2010-07-28T20:09:42Z" uid="74617" user="JohnSmith" changeset="5339329" lat="47.8900114" lon="1.8166681">
    <tag k="emergency" v="fire_hydrant"/>
    <tag k="ref" v="87"/>
  </node>
  <node id="601516388" version="3" timestamp="2010-07-30T17:39:43Z" uid="74617" user="JohnSmith" changeset="5356742" lat="47.8900114" lon="1.8166681">
    <tag k="amenity" v="fire_hydrant"/>
    <tag k="emergency" v="fire_hydrant"/>
    <tag k="ref" v="87"/>
  </node>
  <node id="601516396" version="2" timestamp="2010-07-28T20:10:48Z" uid="74617" user="JohnSmith" changeset="5339329" lat="47.8904811" lon="1.8174373">
    <tag k="emergency" v="fire_hydrant"/>
    <tag k="ref" v="91"/>
  </node>
  <node id="601516396" version="3" timestamp="2010-07-30T17:41:10Z" uid="74617" user="JohnSmith" changeset="5356742" lat="47.8904811" lon="1.8174373">
    <tag k="amenity" v="fire_hydrant"/>
    <tag k="emergency" v="fire_hydrant"/>
    <tag k="ref" v="91"/>
  </node>
  <node id="601516419" version="2" timestamp="2010-07-28T20:09:30Z" uid="74617" user="JohnSmith" changeset="5339329" lat="47.8920468" lon="1.8161599">
    <tag k="emergency" v="fire_hydrant"/>
    <tag k="ref" v="86"/>
  </node>
  <node id="601516419" version="3" timestamp="2010-07-30T17:45:18Z" uid="74617" user="JohnSmith" changeset="5356742" lat="47.8920468" lon="1.8161599">
    <tag k="amenity" v="fire_hydrant"/>
    <tag k="emergency" v="fire_hydrant"/>
    <tag k="ref" v="86"/>
  </node>
  <node id="601516429" version="2" timestamp="2010-07-28T20:01:30Z" uid="74617" user="JohnSmith" changeset="5339329" lat="47.8944139" lon="1.8146489">
    <tag k="emergency" v="fire_hydrant"/>
    <tag k="ref" v="85"/>
  </node>
  <node id="601516429" version="3" timestamp="2010-07-30T17:38:14Z" uid="74617" user="JohnSmith" changeset="5356742" lat="47.8944139" lon="1.8146489">
    <tag k="amenity" v="fire_hydrant"/>
    <tag k="emergency" v="fire_hydrant"/>
    <tag k="ref" v="85"/>
  </node>
  <node id="601516438" version="2" timestamp="2010-07-28T20:12:49Z" uid="74617" user="JohnSmith" changeset="5339329" lat="47.8965138" lon="1.8141544">
    <tag k="emergency" v="fire_hydrant"/>
    <tag k="ref" v="84"/>
  </node>
  <node id="601516438" version="3" timestamp="2010-07-30T17:46:41Z" uid="74617" user="JohnSmith" changeset="5356742" lat="47.8965138" lon="1.8141544">
    <tag k="amenity" v="fire_hydrant"/>
    <tag k="emergency" v="fire_hydrant"/>
    <tag k="ref" v="84"/>
  </node>
  <node id="601516448" version="2" timestamp="2010-07-28T20:06:52Z" uid="74617" user="JohnSmith" changeset="5339329" lat="47.895519" lon="1.8105282">
    <tag k="emergency" v="fire_hydrant"/>
    <tag k="ref" v="163"/>
  </node>
  <node id="601516448" version="3" timestamp="2010-07-30T17:42:49Z" uid="74617" user="JohnSmith" changeset="5356742" lat="47.895519" lon="1.8105282">
    <tag k="amenity" v="fire_hydrant"/>
    <tag k="emergency" v="fire_hydrant"/>
    <tag k="ref" v="163"/>
  </node>
  <node id="601516451" version="2" timestamp="2010-07-28T20:02:31Z" uid="74617" user="JohnSmith" changeset="5339329" lat="47.8966519" lon="1.8181927">
    <tag k="emergency" v="fire_hydrant"/>
    <tag k="ref" v="84"/>
  </node>
  <node id="601516451" version="3" timestamp="2010-07-30T17:40:52Z" uid="74617" user="JohnSmith" changeset="5356742" lat="47.8966519" lon="1.8181927">
    <tag k="amenity" v="fire_hydrant"/>
    <tag k="emergency" v="fire_hydrant"/>
    <tag k="ref" v="84"/>
  </node>
  <node id="601516458" version="2" timestamp="2010-07-28T20:10:39Z" uid="74617" user="JohnSmith" changeset="5339329" lat="47.8935204" lon="1.8195938">
    <tag k="emergency" v="fire_hydrant"/>
    <tag k="ref" v="109"/>
  </node>
  <node id="601516458" version="3" timestamp="2010-07-30T17:46:14Z" uid="74617" user="JohnSmith" changeset="5356742" lat="47.8935204" lon="1.8195938">
    <tag k="amenity" v="fire_hydrant"/>
    <tag k="emergency" v="fire_hydrant"/>
    <tag k="ref" v="109"/>
  </node>
  <node id="601516465" version="2" timestamp="2010-07-28T20:02:05Z" uid="74617" user="JohnSmith" changeset="5339329" lat="47.8950309" lon="1.8228629">
    <tag k="emergency" v="fire_hydrant"/>
    <tag k="ref" v="122"/>
  </node>
  <node id="601516465" version="3" timestamp="2010-07-30T17:40:26Z" uid="74617" user="JohnSmith" changeset="5356742" lat="47.8950309" lon="1.8228629">
    <tag k="amenity" v="fire_hydrant"/>
    <tag k="emergency" v="fire_hydrant"/>
    <tag k="ref" v="122"/>
  </node>
  <node id="601516488" version="2" timestamp="2010-07-28T20:05:55Z" uid="74617" user="JohnSmith" changeset="5339329" lat="47.89341" lon="1.8247722">
    <tag k="emergency" v="fire_hydrant"/>
    <tag k="ref" v="81"/>
  </node>
  <node id="601516488" version="3" timestamp="2010-07-30T17:45:48Z" uid="74617" user="JohnSmith" changeset="5356742" lat="47.89341" lon="1.8247722">
    <tag k="amenity" v="fire_hydrant"/>
    <tag k="emergency" v="fire_hydrant"/>
    <tag k="ref" v="81"/>
  </node>
  <node id="601516490" version="2" timestamp="2010-07-28T20:08:46Z" uid="74617" user="JohnSmith" changeset="5339329" lat="47.8934284" lon="1.8269287">
    <tag k="emergency" v="fire_hydrant"/>
  </node>
  <node id="601516490" version="3" timestamp="2010-07-30T17:48:49Z" uid="74617" user="JohnSmith" changeset="5356742" lat="47.8934284" lon="1.8269287">
    <tag k="amenity" v="fire_hydrant"/>
    <tag k="emergency" v="fire_hydrant"/>
  </node>
  <node id="601516498" version="2" timestamp="2010-07-28T20:09:45Z" uid="74617" user="JohnSmith" changeset="5339329" lat="47.8923232" lon="1.8270112">
    <tag k="emergency" v="fire_hydrant"/>
    <tag k="ref" v="67"/>
  </node>
  <node id="601516498" version="3" timestamp="2010-07-30T17:49:45Z" uid="74617" user="JohnSmith" changeset="5356742" lat="47.8923232" lon="1.8270112">
    <tag k="amenity" v="fire_hydrant"/>
    <tag k="emergency" v="fire_hydrant"/>
    <tag k="ref" v="67"/>
  </node>
  <node id="601516505" version="2" timestamp="2010-07-28T20:13:06Z" uid="74617" user="JohnSmith" changeset="5339329" lat="47.8909969" lon="1.8255276">
    <tag k="emergency" v="fire_hydrant"/>
  </node>
  <node id="601516505" version="3" timestamp="2010-07-30T17:43:48Z" uid="74617" user="JohnSmith" changeset="5356742" lat="47.8909969" lon="1.8255276">
    <tag k="amenity" v="fire_hydrant"/>
    <tag k="emergency" v="fire_hydrant"/>
  </node>
  <node id="601516516" version="2" timestamp="2010-07-28T20:03:12Z" uid="74617" user="JohnSmith" changeset="5339329" lat="47.8903614" lon="1.8264067">
    <tag k="emergency" v="fire_hydrant"/>
    <tag k="ref" v="139"/>
  </node>
  <node id="601516516" version="3" timestamp="2010-07-30T17:46:23Z" uid="74617" user="JohnSmith" changeset="5356742" lat="47.8903614" lon="1.8264067">
    <tag k="amenity" v="fire_hydrant"/>
    <tag k="emergency" v="fire_hydrant"/>
    <tag k="ref" v="139"/>
  </node>
  <node id="601516526" version="2" timestamp="2010-07-28T20:06:41Z" uid="74617" user="JohnSmith" changeset="5339329" lat="47.8891917" lon="1.8234535">
    <tag k="emergency" v="fire_hydrant"/>
    <tag k="ref" v="156"/>
  </node>
  <node id="601516526" version="3" timestamp="2010-07-30T17:38:18Z" uid="74617" user="JohnSmith" changeset="5356742" lat="47.8891917" lon="1.8234535">
    <tag k="amenity" v="fire_hydrant"/>
    <tag k="emergency" v="fire_hydrant"/>
    <tag k="ref" v="156"/>
  </node>
  <node id="601516530" version="2" timestamp="2010-07-28T20:02:50Z" uid="74617" user="JohnSmith" changeset="5339329" lat="47.8858024" lon="1.8187559">
    <tag k="emergency" v="fire_hydrant"/>
    <tag k="ref" v="69"/>
  </node>
  <node id="601516530" version="3" timestamp="2010-07-30T17:45:04Z" uid="74617" user="JohnSmith" changeset="5356742" lat="47.8858024" lon="1.8187559">
    <tag k="amenity" v="fire_hydrant"/>
    <tag k="emergency" v="fire_hydrant"/>
    <tag k="ref" v="69"/>
  </node>
  <node id="601516540" version="2" timestamp="2010-07-28T20:06:21Z" uid="74617" user="JohnSmith" changeset="5339329" lat="47.8874878" lon="1.8174235">
    <tag k="emergency" v="fire_hydrant"/>
    <tag k="ref" v="70"/>
  </node>
  <node id="601516540" version="3" timestamp="2010-07-30T17:50:00Z" uid="74617" user="JohnSmith" changeset="5356742" lat="47.8874878" lon="1.8174235">
    <tag k="amenity" v="fire_hydrant"/>
    <tag k="emergency" v="fire_hydrant"/>
    <tag k="ref" v="70"/>
  </node>
  <node id="601516549" version="2" timestamp="2010-07-28T20:01:54Z" uid="74617" user="JohnSmith" changeset="5339329" lat="47.8861892" lon="1.8210498">
    <tag k="emergency" v="fire_hydrant"/>
    <tag k="ref" v="164"/>
  </node>
  <node id="601516549" version="3" timestamp="2010-07-30T17:40:47Z" uid="74617" user="JohnSmith" changeset="5356742" lat="47.8861892" lon="1.8210498">
    <tag k="amenity" v="fire_hydrant"/>
    <tag k="emergency" v="fire_hydrant"/>
    <tag k="ref" v="164"/>
  </node>
  <node id="601516562" version="2" timestamp="2010-07-28T20:08:54Z" uid="74617" user="JohnSmith" changeset="5339329" lat="47.8860695" lon="1.8233299">
    <tag k="emergency" v="fire_hydrant"/>
    <tag k="ref" v="161"/>
  </node>
  <node id="601516562" version="3" timestamp="2010-07-30T17:43:52Z" uid="74617" user="JohnSmith" changeset="5356742" lat="47.8860695" lon="1.8233299">
    <tag k="amenity" v="fire_hydrant"/>
    <tag k="emergency" v="fire_hydrant"/>
    <tag k="ref" v="161"/>
  </node>
  <node id="601516565" version="2" timestamp="2010-07-28T20:04:32Z" uid="74617" user="JohnSmith" changeset="5339329" lat="47.8878378" lon="1.8212421">
    <tag k="emergency" v="fire_hydrant"/>
    <tag k="ref" v="162"/>
  </node>
  <node id="601516565" version="3" timestamp="2010-07-30T17:43:08Z" uid="74617" user="JohnSmith" changeset="5356742" lat="47.8878378" lon="1.8212421">
    <tag k="amenity" v="fire_hydrant"/>
    <tag k="emergency" v="fire_hydrant"/>
    <tag k="ref" v="162"/>
  </node>
  <node id="601516575" version="2" timestamp="2010-07-28T20:08:00Z" uid="74617" user="JohnSmith" changeset="5339329" lat="47.8878746" lon="1.8197311">
    <tag k="emergency" v="fire_hydrant"/>
    <tag k="ref" v="165"/>
  </node>
  <node id="601516575" version="3" timestamp="2010-07-30T17:46:33Z" uid="74617" user="JohnSmith" changeset="5356742" lat="47.8878746" lon="1.8197311">
    <tag k="amenity" v="fire_hydrant"/>
    <tag k="emergency" v="fire_hydrant"/>
    <tag k="ref" v="165"/>
  </node>
  <node id="601516587" version="2" timestamp="2010-07-28T20:05:12Z" uid="74617" user="JohnSmith" changeset="5339329" lat="47.8884272" lon="1.8232064">
    <tag k="emergency" v="fire_hydrant"/>
    <tag k="ref" v="72"/>
  </node>
  <node id="601516587" version="3" timestamp="2010-07-30T17:45:07Z" uid="74617" user="JohnSmith" changeset="5356742" lat="47.8884272" lon="1.8232064">
    <tag k="amenity" v="fire_hydrant"/>
    <tag k="emergency" v="fire_hydrant"/>
    <tag k="ref" v="72"/>
  </node>
  <node id="601516597" version="2" timestamp="2010-07-28T20:08:57Z" uid="74617" user="JohnSmith" changeset="5339329" lat="47.8868984" lon="1.8244563">
    <tag k="emergency" v="fire_hydrant"/>
    <tag k="ref" v="74"/>
  </node>
  <node id="601516597" version="3" timestamp="2010-07-30T17:50:05Z" uid="74617" user="JohnSmith" changeset="5356742" lat="47.8868984" lon="1.8244563">
    <tag k="amenity" v="fire_hydrant"/>
    <tag k="emergency" v="fire_hydrant"/>
    <tag k="ref" v="74"/>
  </node>
  <node id="601516604" version="2" timestamp="2010-07-28T20:05:30Z" uid="74617" user="JohnSmith" changeset="5339329" lat="47.8870457" lon="1.8273271">
    <tag k="emergency" v="fire_hydrant"/>
    <tag k="ref" v="40"/>
  </node>
  <node id="601516604" version="3" timestamp="2010-07-30T17:44:12Z" uid="74617" user="JohnSmith" changeset="5356742" lat="47.8870457" lon="1.8273271">
    <tag k="amenity" v="fire_hydrant"/>
    <tag k="emergency" v="fire_hydrant"/>
    <tag k="ref" v="40"/>
  </node>
  <node id="601516608" version="2" timestamp="2010-07-28T20:06:16Z" uid="74617" user="JohnSmith" changeset="5339329" lat="47.8861616" lon="1.827904">
    <tag k="emergency" v="fire_hydrant"/>
    <tag k="ref" v="15"/>
  </node>
  <node id="601516608" version="3" timestamp="2010-07-30T17:48:08Z" uid="74617" user="JohnSmith" changeset="5356742" lat="47.8861616" lon="1.827904">
    <tag k="amenity" v="fire_hydrant"/>
    <tag k="emergency" v="fire_hydrant"/>
    <tag k="ref" v="15"/>
  </node>
  <node id="601516615" version="2" timestamp="2010-07-28T20:07:04Z" uid="74617" user="JohnSmith" changeset="5339329" lat="47.8866866" lon="1.829305">
    <tag k="emergency" v="fire_hydrant"/>
    <tag k="ref" v="14"/>
  </node>
  <node id="601516615" version="3" timestamp="2010-07-30T17:40:57Z" uid="74617" user="JohnSmith" changeset="5356742" lat="47.8866866" lon="1.829305">
    <tag k="amenity" v="fire_hydrant"/>
    <tag k="emergency" v="fire_hydrant"/>
    <tag k="ref" v="14"/>
  </node>
  <node id="601516624" version="2" timestamp="2010-07-28T20:08:47Z" uid="74617" user="JohnSmith" changeset="5339329" lat="47.8888694" lon="1.8284397">
    <tag k="emergency" v="fire_hydrant"/>
    <tag k="ref" v="134"/>
  </node>
  <node id="601516624" version="3" timestamp="2010-07-30T17:38:14Z" uid="74617" user="JohnSmith" changeset="5356742" lat="47.8888694" lon="1.8284397">
    <tag k="amenity" v="fire_hydrant"/>
    <tag k="emergency" v="fire_hydrant"/>
    <tag k="ref" v="134"/>
  </node>
  <node id="601516632" version="2" timestamp="2010-07-28T20:09:46Z" uid="74617" user="JohnSmith" changeset="5339329" lat="47.8894588" lon="1.8297033">
    <tag k="emergency" v="fire_hydrant"/>
    <tag k="ref" v="68"/>
  </node>
  <node id="601516632" version="3" timestamp="2010-07-30T17:39:35Z" uid="74617" user="JohnSmith" changeset="5356742" lat="47.8894588" lon="1.8297033">
    <tag k="amenity" v="fire_hydrant"/>
    <tag k="emergency" v="fire_hydrant"/>
    <tag k="ref" v="68"/>
  </node>
  <node id="601516640" version="2" timestamp="2010-07-28T20:10:51Z" uid="74617" user="JohnSmith" changeset="5339329" lat="47.8906837" lon="1.828316">
    <tag k="emergency" v="fire_hydrant"/>
  </node>
  <node id="601516640" version="3" timestamp="2010-07-30T17:43:30Z" uid="74617" user="JohnSmith" changeset="5356742" lat="47.8906837" lon="1.828316">
    <tag k="amenity" v="fire_hydrant"/>
    <tag k="emergency" v="fire_hydrant"/>
  </node>
  <node id="601516647" version="2" timestamp="2010-07-28T20:11:42Z" uid="74617" user="JohnSmith" changeset="5339329" lat="47.8913653" lon="1.8293599">
    <tag k="emergency" v="fire_hydrant"/>
    <tag k="ref" v="65"/>
  </node>
  <node id="601516647" version="3" timestamp="2010-07-30T17:48:00Z" uid="74617" user="JohnSmith" changeset="5356742" lat="47.8913653" lon="1.8293599">
    <tag k="amenity" v="fire_hydrant"/>
    <tag k="emergency" v="fire_hydrant"/>
    <tag k="ref" v="65"/>
  </node>
  <node id="601516658" version="2" timestamp="2010-07-28T20:04:27Z" uid="74617" user="JohnSmith" changeset="5339329" lat="47.8925626" lon="1.831283">
    <tag k="emergency" v="fire_hydrant"/>
    <tag k="ref" v="72"/>
  </node>
  <node id="601516658" version="3" timestamp="2010-07-30T17:48:35Z" uid="74617" user="JohnSmith" changeset="5356742" lat="47.8925626" lon="1.831283">
    <tag k="amenity" v="fire_hydrant"/>
    <tag k="emergency" v="fire_hydrant"/>
    <tag k="ref" v="72"/>
  </node>
  <node id="601516668" version="2" timestamp="2010-07-28T20:07:54Z" uid="74617" user="JohnSmith" changeset="5339329" lat="47.8936862" lon="1.8303078">
    <tag k="emergency" v="fire_hydrant"/>
    <tag k="ref" v="71"/>
  </node>
  <node id="601516668" version="3" timestamp="2010-07-30T17:41:36Z" uid="74617" user="JohnSmith" changeset="5356742" lat="47.8936862" lon="1.8303078">
    <tag k="amenity" v="fire_hydrant"/>
    <tag k="emergency" v="fire_hydrant"/>
    <tag k="ref" v="71"/>
  </node>
  <node id="601516678" version="2" timestamp="2010-07-28T20:05:09Z" uid="74617" user="JohnSmith" changeset="5339329" lat="47.8926915" lon="1.828055">
    <tag k="emergency" v="fire_hydrant"/>
    <tag k="ref" v="73"/>
  </node>
  <node id="601516678" version="3" timestamp="2010-07-30T17:43:01Z" uid="74617" user="JohnSmith" changeset="5356742" lat="47.8926915" lon="1.828055">
    <tag k="amenity" v="fire_hydrant"/>
    <tag k="emergency" v="fire_hydrant"/>
    <tag k="ref" v="73"/>
  </node>
  <node id="601516682" version="2" timestamp="2010-07-28T20:12:53Z" uid="74617" user="JohnSmith" changeset="5339329" lat="47.8922587" lon="1.8342224">
    <tag k="emergency" v="fire_hydrant"/>
    <tag k="ref" v="63"/>
  </node>
  <node id="601516682" version="3" timestamp="2010-07-30T17:49:26Z" uid="74617" user="JohnSmith" changeset="5356742" lat="47.8922587" lon="1.8342224">
    <tag k="amenity" v="fire_hydrant"/>
    <tag k="emergency" v="fire_hydrant"/>
    <tag k="ref" v="63"/>
  </node>
  <node id="601516692" version="2" timestamp="2010-07-28T20:04:54Z" uid="74617" user="JohnSmith" changeset="5339329" lat="47.892056" lon="1.8347444">
    <tag k="emergency" v="fire_hydrant"/>
    <tag k="ref" v="158"/>
  </node>
  <node id="601516692" version="3" timestamp="2010-07-30T17:42:41Z" uid="74617" user="JohnSmith" changeset="5356742" lat="47.892056" lon="1.8347444">
    <tag k="amenity" v="fire_hydrant"/>
    <tag k="emergency" v="fire_hydrant"/>
    <tag k="ref" v="158"/>
  </node>
  <node id="601516699" version="2" timestamp="2010-07-28T20:07:42Z" uid="74617" user="JohnSmith" changeset="5339329" lat="47.8907311" lon="1.836696">
    <tag k="emergency" v="fire_hydrant"/>
    <tag k="ref" v="119"/>
  </node>
  <node id="601516699" version="3" timestamp="2010-07-30T17:46:51Z" uid="74617" user="JohnSmith" changeset="5356742" lat="47.8907311" lon="1.836696">
    <tag k="amenity" v="fire_hydrant"/>
    <tag k="emergency" v="fire_hydrant"/>
    <tag k="ref" v="119"/>
  </node>
  <node id="601516711" version="2" timestamp="2010-07-28T20:02:37Z" uid="74617" user="JohnSmith" changeset="5339329" lat="47.8904751" lon="1.8210812">
    <tag k="emergency" v="fire_hydrant"/>
  </node>
  <node id="601516711" version="3" timestamp="2010-07-30T17:45:22Z" uid="74617" user="JohnSmith" changeset="5356742" lat="47.8904751" lon="1.8210812">
    <tag k="amenity" v="fire_hydrant"/>
    <tag k="emergency" v="fire_hydrant"/>
  </node>
  <node id="601516725" version="2" timestamp="2010-07-28T20:02:08Z" uid="74617" user="JohnSmith" changeset="5339329" lat="47.8931441" lon="1.8402625">
    <tag k="emergency" v="fire_hydrant"/>
    <tag k="ref" v="57"/>
  </node>
  <node id="601516725" version="3" timestamp="2010-07-30T17:45:05Z" uid="74617" user="JohnSmith" changeset="5356742" lat="47.8931441" lon="1.8402625">
    <tag k="amenity" v="fire_hydrant"/>
    <tag k="emergency" v="fire_hydrant"/>
    <tag k="ref" v="57"/>
  </node>
  <node id="601516729" version="2" timestamp="2010-07-28T20:09:42Z" uid="74617" user="JohnSmith" changeset="5339329" lat="47.8924305" lon="1.8406524">
    <tag k="emergency" v="fire_hydrant"/>
    <tag k="ref" v="59"/>
  </node>
  <node id="601516729" version="3" timestamp="2010-07-30T17:39:40Z" uid="74617" user="JohnSmith" changeset="5356742" lat="47.8924305" lon="1.8406524">
    <tag k="amenity" v="fire_hydrant"/>
    <tag k="emergency" v="fire_hydrant"/>
    <tag k="ref" v="59"/>
  </node>
  <node id="601516738" version="2" timestamp="2010-07-28T20:02:18Z" uid="74617" user="JohnSmith" changeset="5339329" lat="47.8914767" lon="1.8416112">
    <tag k="emergency" v="fire_hydrant"/>
    <tag k="ref" v="101"/>
  </node>
  <node id="601516738" version="3" timestamp="2010-07-30T17:45:34Z" uid="74617" user="JohnSmith" changeset="5356742" lat="47.8914767" lon="1.8416112">
    <tag k="amenity" v="fire_hydrant"/>
    <tag k="emergency" v="fire_hydrant"/>
    <tag k="ref" v="101"/>
  </node>
  <node id="601516747" version="2" timestamp="2010-07-28T20:07:53Z" uid="74617" user="JohnSmith" changeset="5339329" lat="47.8927414" lon="1.8423066">
    <tag k="emergency" v="fire_hydrant"/>
    <tag k="ref" v="60"/>
  </node>
  <node id="601516747" version="3" timestamp="2010-07-30T17:42:24Z" uid="74617" user="JohnSmith" changeset="5356742" lat="47.8927414" lon="1.8423066">
    <tag k="amenity" v="fire_hydrant"/>
    <tag k="emergency" v="fire_hydrant"/>
    <tag k="ref" v="60"/>
  </node>
  <node id="601516755" version="2" timestamp="2010-07-28T20:09:08Z" uid="74617" user="JohnSmith" changeset="5339329" lat="47.8938082" lon="1.8421591">
    <tag k="emergency" v="fire_hydrant"/>
    <tag k="ref" v="58"/>
  </node>
  <node id="601516755" version="3" timestamp="2010-07-30T17:43:33Z" uid="74617" user="JohnSmith" changeset="5356742" lat="47.8938082" lon="1.8421591">
    <tag k="amenity" v="fire_hydrant"/>
    <tag k="emergency" v="fire_hydrant"/>
    <tag k="ref" v="58"/>
  </node>
  <node id="601516764" version="2" timestamp="2010-07-28T20:08:27Z" uid="74617" user="JohnSmith" changeset="5339329" lat="47.8933701" lon="1.8387452">
    <tag k="emergency" v="fire_hydrant"/>
    <tag k="ref" v="62"/>
  </node>
  <node id="601516764" version="3" timestamp="2010-07-30T17:41:20Z" uid="74617" user="JohnSmith" changeset="5356742" lat="47.8933701" lon="1.8387452">
    <tag k="amenity" v="fire_hydrant"/>
    <tag k="emergency" v="fire_hydrant"/>
    <tag k="ref" v="62"/>
  </node>
  <node id="601516768" version="2" timestamp="2010-07-28T20:04:29Z" uid="74617" user="JohnSmith" changeset="5339329" lat="47.8941614" lon="1.8385661">
    <tag k="emergency" v="fire_hydrant"/>
    <tag k="ref" v="61"/>
  </node>
  <node id="601516768" version="3" timestamp="2010-07-30T17:50:07Z" uid="74617" user="JohnSmith" changeset="5356742" lat="47.8941614" lon="1.8385661">
    <tag k="amenity" v="fire_hydrant"/>
    <tag k="emergency" v="fire_hydrant"/>
    <tag k="ref" v="61"/>
  </node>
  <node id="601516774" version="2" timestamp="2010-07-28T20:12:10Z" uid="74617" user="JohnSmith" changeset="5339329" lat="47.8955603" lon="1.8377127">
    <tag k="emergency" v="fire_hydrant"/>
    <tag k="ref" v="103"/>
  </node>
  <node id="601516774" version="3" timestamp="2010-07-30T17:47:23Z" uid="74617" user="JohnSmith" changeset="5356742" lat="47.8955603" lon="1.8377127">
    <tag k="amenity" v="fire_hydrant"/>
    <tag k="emergency" v="fire_hydrant"/>
    <tag k="ref" v="103"/>
  </node>
  <node id="601516782" version="2" timestamp="2010-07-28T20:01:29Z" uid="74617" user="JohnSmith" changeset="5339329" lat="47.8973194" lon="1.8343726">
    <tag k="FIXME" v="approximate_place"/>
    <tag k="emergency" v="fire_hydrant"/>
    <tag k="ref" v="123"/>
  </node>
  <node id="601516782" version="3" timestamp="2010-07-30T17:48:54Z" uid="74617" user="JohnSmith" changeset="5356742" lat="47.8973194" lon="1.8343726">
    <tag k="FIXME" v="approximate_place"/>
    <tag k="amenity" v="fire_hydrant"/>
    <tag k="emergency" v="fire_hydrant"/>
    <tag k="ref" v="123"/>
  </node>
  <node id="601516790" version="2" timestamp="2010-07-28T20:02:54Z" uid="74617" user="JohnSmith" changeset="5339329" lat="47.8980613" lon="1.8383132">
    <tag k="emergency" v="fire_hydrant"/>
    <tag k="ref" v="75"/>
  </node>
  <node id="601516790" version="3" timestamp="2010-07-30T17:49:51Z" uid="74617" user="JohnSmith" changeset="5356742" lat="47.8980613" lon="1.8383132">
    <tag k="amenity" v="fire_hydrant"/>
    <tag k="emergency" v="fire_hydrant"/>
    <tag k="ref" v="75"/>
  </node>
  <node id="601516803" version="2" timestamp="2010-07-28T20:13:02Z" uid="74617" user="JohnSmith" changeset="5339329" lat="47.8978705" lon="1.8296522">
    <tag k="emergency" v="fire_hydrant"/>
  </node>
  <node id="601516803" version="3" timestamp="2010-07-30T17:46:37Z" uid="74617" user="JohnSmith" changeset="5356742" lat="47.8978705" lon="1.8296522">
    <tag k="amenity" v="fire_hydrant"/>
    <tag k="emergency" v="fire_hydrant"/>
  </node>
  <node id="601516806" version="2" timestamp="2010-07-28T20:01:43Z" uid="74617" user="JohnSmith" changeset="5339329" lat="47.8974608" lon="1.8265439">
    <tag k="emergency" v="fire_hydrant"/>
  </node>
  <node id="601516806" version="3" timestamp="2010-07-30T17:45:57Z" uid="74617" user="JohnSmith" changeset="5356742" lat="47.8974608" lon="1.8265439">
    <tag k="amenity" v="fire_hydrant"/>
    <tag k="emergency" v="fire_hydrant"/>
  </node>
  <node id="601516811" version="2" timestamp="2010-07-28T20:02:13Z" uid="74617" user="JohnSmith" changeset="5339329" lat="47.8974043" lon="1.8237834">
    <tag k="emergency" v="fire_hydrant"/>
    <tag k="ref" v="79"/>
  </node>
  <node id="601516811" version="3" timestamp="2010-07-30T17:48:09Z" uid="74617" user="JohnSmith" changeset="5356742" lat="47.8974043" lon="1.8237834">
    <tag k="amenity" v="fire_hydrant"/>
    <tag k="emergency" v="fire_hydrant"/>
    <tag k="ref" v="79"/>
  </node>
  <node id="601516834" version="2" timestamp="2010-07-28T20:13:07Z" uid="74617" user="JohnSmith" changeset="5339329" lat="47.8967048" lon="1.8211176">
    <tag k="emergency" v="fire_hydrant"/>
    <tag k="ref" v="80"/>
  </node>
  <node id="601516834" version="3" timestamp="2010-07-30T17:46:33Z" uid="74617" user="JohnSmith" changeset="5356742" lat="47.8967048" lon="1.8211176">
    <tag k="amenity" v="fire_hydrant"/>
    <tag k="emergency" v="fire_hydrant"/>
    <tag k="ref" v="80"/>
  </node>
  <node id="601516845" version="2" timestamp="2010-07-28T20:09:26Z" uid="74617" user="JohnSmith" changeset="5339329" lat="47.8979482" lon="1.8184202">
    <tag k="FIXME" v="approximate_place"/>
    <tag k="emergency" v="fire_hydrant"/>
    <tag k="ref" v="82"/>
  </node>
  <node id="601516845" version="3" timestamp="2010-07-30T17:47:00Z" uid="74617" user="JohnSmith" changeset="5356742" lat="47.8979482" lon="1.8184202">
    <tag k="FIXME" v="approximate_place"/>
    <tag k="amenity" v="fire_hydrant"/>
    <tag k="emergency" v="fire_hydrant"/>
    <tag k="ref" v="82"/>
  </node>
  <node id="601516852" version="2" timestamp="2010-07-28T20:06:01Z" uid="74617" user="JohnSmith" changeset="5339329" lat="47.8992623" lon="1.8165342">
    <tag k="emergency" v="fire_hydrant"/>
    <tag k="ref" v="83"/>
  </node>
  <node id="601516852" version="3" timestamp="2010-07-30T17:41:19Z" uid="74617" user="JohnSmith" changeset="5356742" lat="47.8992623" lon="1.8165342">
    <tag k="amenity" v="fire_hydrant"/>
    <tag k="emergency" v="fire_hydrant"/>
    <tag k="ref" v="83"/>
  </node>
  <node id="601516860" version="3" timestamp="2010-07-28T20:07:13Z" uid="74617" user="JohnSmith" changeset="5339329" lat="47.8999107" lon="1.8145754">
    <tag k="emergency" v="fire_hydrant"/>
    <tag k="ref" v="96"/>
  </node>
  <node id="601516860" version="4" timestamp="2010-07-30T17:42:28Z" uid="74617" user="JohnSmith" changeset="5356742" lat="47.8999107" lon="1.8145754">
    <tag k="amenity" v="fire_hydrant"/>
    <tag k="emergency" v="fire_hydrant"/>
    <tag k="ref" v="96"/>
  </node>
  <node id="601516867" version="2" timestamp="2010-07-28T20:03:48Z" uid="74617" user="JohnSmith" changeset="5339329" lat="47.8906289" lon="1.8434129">
    <tag k="emergency" v="fire_hydrant"/>
    <tag k="ref" v="37"/>
  </node>
  <node id="601516867" version="3" timestamp="2010-07-30T17:44:32Z" uid="74617" user="JohnSmith" changeset="5356742" lat="47.8906289" lon="1.8434129">
    <tag k="amenity" v="fire_hydrant"/>
    <tag k="emergency" v="fire_hydrant"/>
    <tag k="ref" v="37"/>
  </node>
  <node id="601516872" version="2" timestamp="2010-07-28T20:09:15Z" uid="74617" user="JohnSmith" changeset="5339329" lat="47.8883187" lon="1.8418325">
    <tag k="emergency" v="fire_hydrant"/>
    <tag k="ref" v="38"/>
  </node>
  <node id="601516872" version="3" timestamp="2010-07-30T17:47:19Z" uid="74617" user="JohnSmith" changeset="5356742" lat="47.8883187" lon="1.8418325">
    <tag k="amenity" v="fire_hydrant"/>
    <tag k="emergency" v="fire_hydrant"/>
    <tag k="ref" v="38"/>
  </node>
  <node id="601516879" version="2" timestamp="2010-07-28T20:09:55Z" uid="74617" user="JohnSmith" changeset="5339329" lat="47.8874285" lon="1.8417271">
    <tag k="emergency" v="fire_hydrant"/>
    <tag k="ref" v="33"/>
  </node>
  <node id="601516879" version="3" timestamp="2010-07-30T17:40:11Z" uid="74617" user="JohnSmith" changeset="5356742" lat="47.8874285" lon="1.8417271">
    <tag k="amenity" v="fire_hydrant"/>
    <tag k="emergency" v="fire_hydrant"/>
    <tag k="ref" v="33"/>
  </node>
  <node id="601516883" version="2" timestamp="2010-07-28T20:05:50Z" uid="74617" user="JohnSmith" changeset="5339329" lat="47.885528" lon="1.8360584">
    <tag k="emergency" v="fire_hydrant"/>
    <tag k="ref" v="29"/>
  </node>
  <node id="601516883" version="3" timestamp="2010-07-30T17:46:27Z" uid="74617" user="JohnSmith" changeset="5356742" lat="47.885528" lon="1.8360584">
    <tag k="amenity" v="fire_hydrant"/>
    <tag k="emergency" v="fire_hydrant"/>
    <tag k="ref" v="29"/>
  </node>
  <node id="601516891" version="2" timestamp="2010-07-28T20:06:57Z" uid="74617" user="JohnSmith" changeset="5339329" lat="47.8871459" lon="1.8336561">
    <tag k="emergency" v="fire_hydrant"/>
    <tag k="ref" v="28"/>
  </node>
  <node id="601516891" version="3" timestamp="2010-07-30T17:47:50Z" uid="74617" user="JohnSmith" changeset="5356742" lat="47.8871459" lon="1.8336561">
    <tag k="amenity" v="fire_hydrant"/>
    <tag k="emergency" v="fire_hydrant"/>
    <tag k="ref" v="28"/>
  </node>
  <node id="601519162" version="1" timestamp="2009-12-30T17:12:59Z" uid="59758" user="rendle" changeset="3491517" lat="51.023484" lon="4.1002745">
    <tag k="amenity" v="fast_food"/>
  </node>
  <node id="601519412" version="1" timestamp="2009-12-30T17:13:18Z" uid="59758" user="rendle" changeset="3491517" lat="51.0235278" lon="4.1005163">
    <tag k="amenity" v="pub"/>
    <tag k="name" v="Top Tien"/>
  </node>
  <node id="601519498" version="1" timestamp="2009-12-30T17:13:33Z" uid="59758" user="rendle" changeset="3491517" lat="51.0235599" lon="4.1006665">
    <tag k="amenity" v="pub"/>
    <tag k="name" v="Escapade"/>
  </node>
  <node id="601519597" version="1" timestamp="2009-12-30T17:13:57Z" uid="59758" user="rendle" changeset="3491517" lat="51.0235903" lon="4.1008221">
    <tag k="amenity" v="pub"/>
    <tag k="name" v="P2B"/>
  </node>
  <node id="601519702" version="1" timestamp="2009-12-30T17:14:25Z" uid="59758" user="rendle" changeset="3491517" lat="51.0236324" lon="4.101042">
    <tag k="amenity" v="pub"/>
    <tag k="name" v="Chill in"/>
  </node>
</osm>
