<?xml version='1.0' encoding='UTF-8'?>
<osm version="0.6" generator="libosmium/2.20.0">
  <node id="60230110" version="1" timestamp="2007-09-30T16:57:47Z" uid="8619" user="cetest" changeset="542011" lat="51.9818166" lon="4.3554632">
    <tag k="created_by" v="JOSM"/>
  </node>
  <node id="60230110" version="2" timestamp="2007-10-28T12:49:07Z" uid="8619" user="cetest" changeset="342204" lat="51.981807" lon="4.3554068">
    <tag k="created_by" v="JOSM"/>
  </node>
  <node id="60230110" version="3" timestamp="2008-08-08T07:13:45Z" uid="8619" user="cetest" changeset="140115" lat="51.9818192" lon="4.3555618">
    <tag k="created_by" v="JOSM"/>
  </node>
  <node id="60231664" version="3" timestamp="2009-05-21T16:44:18Z" uid="9581" user="Lobelt" changeset="1278293" lat="49.4808144" lon="8.275148">
    <tag k="created_by" v="JOSM"/>
  </node>
  <node id="60231666" version="3" timestamp="2009-05-21T16:44:18Z" uid="9581" user="Lobelt" changeset="1278293" lat="49.4808117" lon="8.2750182">
    <tag k="created_by" v="JOSM"/>
  </node>
  <node id="60231668" version="3" timestamp="2009-05-21T16:44:18Z" uid="9581" user="Lobelt" changeset="1278293" lat="49.4807412" lon="8.2748784">
    <tag k="created_by" v="JOSM"/>
  </node>
  <node id="60231670" version="3" timestamp="2009-05-21T16:44:18Z" uid="9581" user="Lobelt" changeset="1278293" lat="49.4805122" lon="8.2749809">
    <tag k="created_by" v="JOSM"/>
  </node>
  <node id="60231671" version="3" timestamp="2009-05-21T16:44:18Z" uid="9581" user="Lobelt" changeset="1278293" lat="49.4804958" lon="8.2751027">
    <tag k="created_by" v="JOSM"/>
  </node>
  <node id="60231672" version="3" timestamp="2009-05-21T16:44:18Z" uid="9581" user="Lobelt" changeset="1278293" lat="49.480556" lon="8.2752847">
    <tag k="created_by" v="JOSM"/>
  </node>
  <node id="60231673" version="3" timestamp="2009-05-21T16:44:18Z" uid="9581" user="Lobelt" changeset="1278293" lat="49.4806137" lon="8.2753303">
    <tag k="created_by" v="JOSM"/>
  </node>
  <node id="60231674" version="3" timestamp="2009-05-21T16:44:18Z" uid="9581" user="Lobelt" changeset="1278293" lat="49.4805154" lon="8.27521">
    <tag k="created_by" v="JOSM"/>
  </node>
  <node id="60231684" version="5" timestamp="2009-05-21T16:44:19Z" uid="9581" user="Lobelt" changeset="1278293" lat="49.4786464" lon="8.277734">
    <tag k="barrier" v="bollard"/>
    <tag k="created_by" v="JOSM"/>
  </node>
  <node id="60231692" version="4" timestamp="2010-04-19T18:45:22Z" uid="9581" user="Lobelt" changeset="4470814" lat="49.4776607" lon="8.2981601"/>
  <node id="60231696" version="3" timestamp="2010-04-19T18:45:21Z" uid="9581" user="Lobelt" changeset="4470814" lat="49.4797196" lon="8.2911716"/>
  <node id="60231697" version="3" timestamp="2010-04-19T18:45:20Z" uid="9581" user="Lobelt" changeset="4470814" lat="49.479619" lon="8.2904574"/>
  <node id="60231700" version="4" timestamp="2010-04-19T18:45:17Z" uid="9581" user="Lobelt" changeset="4470814" lat="49.4763861" lon="8.2891091"/>
  <node id="60231702" version="4" timestamp="2010-04-19T18:45:17Z" uid="9581" user="Lobelt" changeset="4470814" lat="49.4764325" lon="8.2887834"/>
  <node id="60231703" version="3" timestamp="2010-04-19T18:45:16Z" uid="9581" user="Lobelt" changeset="4470814" lat="49.476557" lon="8.2874439"/>
  <node id="60231704" version="4" timestamp="2010-04-19T18:45:16Z" uid="9581" user="Lobelt" changeset="4470814" lat="49.4765496" lon="8.2860171"/>
  <node id="60231705" version="4" timestamp="2010-04-19T18:45:17Z" uid="9581" user="Lobelt" changeset="4470814" lat="49.4775009" lon="8.2858278"/>
  <node id="60231706" version="4" timestamp="2010-04-19T18:45:17Z" uid="9581" user="Lobelt" changeset="4470814" lat="49.4773936" lon="8.2845034"/>
  <node id="60231707" version="2" timestamp="2009-05-21T16:44:19Z" uid="9581" user="Lobelt" changeset="1278293" lat="49.4811264" lon="8.2792307">
    <tag k="created_by" v="JOSM"/>
  </node>
  <node id="60231709" version="2" timestamp="2009-05-21T16:44:19Z" uid="9581" user="Lobelt" changeset="1278293" lat="49.4817592" lon="8.2792356">
    <tag k="created_by" v="JOSM"/>
  </node>
  <node id="60231711" version="2" timestamp="2009-05-21T16:44:19Z" uid="9581" user="Lobelt" changeset="1278293" lat="49.4818876" lon="8.2804979">
    <tag k="created_by" v="JOSM"/>
  </node>
  <node id="60231715" version="3" timestamp="2010-04-19T18:45:13Z" uid="9581" user="Lobelt" changeset="4470814" lat="49.4816437" lon="8.2777479"/>
  <node id="60231720" version="2" timestamp="2009-05-21T16:44:19Z" uid="9581" user="Lobelt" changeset="1278293" lat="49.482204" lon="8.2774663">
    <tag k="created_by" v="JOSM"/>
  </node>
  <node id="60231721" version="3" timestamp="2010-04-19T18:45:15Z" uid="9581" user="Lobelt" changeset="4470814" lat="49.4820617" lon="8.2830712"/>
  <node id="60231723" version="3" timestamp="2010-04-19T18:45:15Z" uid="9581" user="Lobelt" changeset="4470814" lat="49.4820513" lon="8.2828047"/>
  <node id="60231735" version="2" timestamp="2009-05-21T16:44:19Z" uid="9581" user="Lobelt" changeset="1278293" lat="49.4850011" lon="8.281819">
    <tag k="created_by" v="JOSM"/>
  </node>
  <node id="60231738" version="2" timestamp="2009-05-21T16:44:19Z" uid="9581" user="Lobelt" changeset="1278293" lat="49.4850349" lon="8.2819159">
    <tag k="created_by" v="JOSM"/>
  </node>
  <node id="60231740" version="2" timestamp="2009-05-21T16:44:19Z" uid="9581" user="Lobelt" changeset="1278293" lat="49.4851649" lon="8.2818389">
    <tag k="created_by" v="JOSM"/>
  </node>
  <node id="60231741" version="2" timestamp="2009-05-21T16:44:19Z" uid="9581" user="Lobelt" changeset="1278293" lat="49.4851464" lon="8.2817295">
    <tag k="created_by" v="JOSM"/>
  </node>
  <node id="60231743" version="2" timestamp="2009-05-21T16:44:19Z" uid="9581" user="Lobelt" changeset="1278293" lat="49.4850787" lon="8.2816857">
    <tag k="created_by" v="JOSM"/>
  </node>
  <node id="60232034" version="5" timestamp="2009-10-17T23:57:37Z" uid="36809" user="pfoten_weg_!_" changeset="2879001" lat="47.7497595" lon="11.3719207"/>
  <node id="60232034" version="7" timestamp="2009-11-08T03:05:01Z" uid="36809" user="pfoten_weg_!_" changeset="3060646" lat="47.7497279" lon="11.3719312"/>
  <node id="60232035" version="6" timestamp="2009-10-17T23:57:38Z" uid="36809" user="pfoten_weg_!_" changeset="2879001" lat="47.7502236" lon="11.3724765"/>
  <node id="60232035" version="8" timestamp="2009-11-08T03:05:03Z" uid="36809" user="pfoten_weg_!_" changeset="3060646" lat="47.7502095" lon="11.3725288"/>
  <node id="60232037" version="10" timestamp="2009-11-08T03:05:03Z" uid="36809" user="pfoten_weg_!_" changeset="3060646" lat="47.7507171" lon="11.373213"/>
  <node id="60232038" version="6" timestamp="2009-11-08T03:05:09Z" uid="36809" user="pfoten_weg_!_" changeset="3060646" lat="47.7515696" lon="11.3742207"/>
  <node id="60232040" version="6" timestamp="2009-10-17T23:58:28Z" uid="36809" user="pfoten_weg_!_" changeset="2879001" lat="47.7523702" lon="11.3752255"/>
  <node id="60232041" version="3" timestamp="2009-10-22T21:51:29Z" uid="36809" user="pfoten_weg_!_" changeset="2925817" lat="47.7530404" lon="11.3759957"/>
  <node id="60232041" version="5" timestamp="2009-11-08T03:05:48Z" uid="36809" user="pfoten_weg_!_" changeset="3060646" lat="47.7530348" lon="11.3760292"/>
  <node id="60232044" version="9" timestamp="2009-11-08T03:05:07Z" uid="36809" user="pfoten_weg_!_" changeset="3060646" lat="47.7501004" lon="11.3742121"/>
  <node id="60232046" version="6" timestamp="2009-10-17T23:58:14Z" uid="36809" user="pfoten_weg_!_" changeset="2879001" lat="47.7541931" lon="11.3718913"/>
  <node id="60232046" version="8" timestamp="2009-11-08T03:05:41Z" uid="36809" user="pfoten_weg_!_" changeset="3060646" lat="47.7541903" lon="11.3719499"/>
  <node id="60232049" version="7" timestamp="2009-11-08T03:04:11Z" uid="36809" user="pfoten_weg_!_" changeset="3060646" lat="47.7522593" lon="11.3692483"/>
  <node id="60232050" version="4" timestamp="2009-11-08T03:04:11Z" uid="36809" user="pfoten_weg_!_" changeset="3060646" lat="47.753234" lon="11.3704526"/>
  <node id="60232053" version="6" timestamp="2009-11-06T03:07:32Z" uid="36809" user="pfoten_weg_!_" changeset="3045160" lat="47.7543342" lon="11.3721342"/>
  <node id="60232055" version="5" timestamp="2009-11-06T03:07:33Z" uid="36809" user="pfoten_weg_!_" changeset="3045160" lat="47.7550738" lon="11.3719645"/>
  <node id="60232055" version="7" timestamp="2009-11-08T03:05:50Z" uid="36809" user="pfoten_weg_!_" changeset="3060646" lat="47.7550597" lon="11.3720105"/>
  <node id="60232658" version="7" timestamp="2009-07-26T01:48:39Z" uid="123700" user="Mala" changeset="1939972" lat="50.7475539" lon="3.6020675">
    <tag k="is_in" v="Oost-Vlaanderen, Belgium, Europe"/>
    <tag k="name" v="Ronse"/>
    <tag k="name:fr" v="Renaix"/>
    <tag k="openGeoDB:auto_update" v="population"/>
    <tag k="openGeoDB:is_in" v="Oudenaarde,Oudenaarde,Oost-Vlaanderen,Oost-Vlaanderen,Vlaanderen,Vlaanderen,Belgique,Belgique,Europe"/>
    <tag k="openGeoDB:is_in_loc_id" v="657"/>
    <tag k="openGeoDB:layer" v="6"/>
    <tag k="openGeoDB:loc_id" v="34430"/>
    <tag k="openGeoDB:name" v="Ronse,Ronse"/>
    <tag k="openGeoDB:postal_codes" v="9600"/>
    <tag k="openGeoDB:sort_name" v="RONSE"/>
    <tag k="openGeoDB:type" v="100600000"/>
    <tag k="openGeoDB:version" v="0.2.6.11 / 2007-12-04 / http://fa-technik.adfc.de/code/opengeodb/dump/"/>
    <tag k="opengeodb:lat" v="50.7475539"/>
    <tag k="opengeodb:lon" v="3.6020675"/>
    <tag k="place" v="town"/>
    <tag k="postal_code" v="9600"/>
    <tag k="wikipedia" v="Ronse"/>
  </node>
  <node id="60233297" version="2" timestamp="2009-12-09T22:59:51Z" uid="200463" user="harmagedon" changeset="3337772" lat="47.7695634" lon="8.7017872">
    <tag k="name" v="Schlatt am Randen"/>
    <tag k="place" v="village"/>
  </node>
  <node id="60234657" version="15" timestamp="2009-07-26T01:48:38Z" uid="123700" user="Mala" changeset="1939972" lat="50.7809539" lon="5.4648372">
    <tag k="is_in" v="Limburg, Belgium, Europe"/>
    <tag k="is_in:continent" v="Europe"/>
    <tag k="is_in:country" v="Belgium"/>
    <tag k="name" v="Tongeren"/>
    <tag k="name:fr" v="Tongres"/>
    <tag k="openGeoDB:auto_update" v="population"/>
    <tag k="openGeoDB:is_in" v="Tongeren,Tongeren,Tongeren,Tongeren,Limburg,Limburg,Vlaanderen,Vlaanderen,Belgique,Belgique,Europe"/>
    <tag k="openGeoDB:is_in_loc_id" v="35244"/>
    <tag k="openGeoDB:layer" v="7"/>
    <tag k="openGeoDB:loc_id" v="34782"/>
    <tag k="openGeoDB:name" v="Tongeren,Tongeren"/>
    <tag k="openGeoDB:postal_codes" v="3700"/>
    <tag k="openGeoDB:sort_name" v="TONGEREN"/>
    <tag k="openGeoDB:type" v="100600000"/>
    <tag k="openGeoDB:version" v="0.2.6.11 / 2007-12-04 / http://fa-technik.adfc.de/code/opengeodb/dump/"/>
    <tag k="opengeodb:lat" v="50.7805539"/>
    <tag k="opengeodb:lon" v="5.4632618"/>
    <tag k="place" v="town"/>
    <tag k="population" v="30000"/>
    <tag k="postal_code" v="3700"/>
    <tag k="wikipedia" v="Tongeren"/>
  </node>
  <node id="60235371" version="5" timestamp="2009-07-26T01:48:45Z" uid="123700" user="Mala" changeset="1939972" lat="50.8443893" lon="3.6048418">
    <tag k="is_in" v="Oost-Vlaanderen, Belgium, Europe"/>
    <tag k="name" v="Oudenaarde"/>
    <tag k="name:fr" v="Audenarde"/>
    <tag k="openGeoDB:auto_update" v="population"/>
    <tag k="openGeoDB:is_in" v="Oudenaarde,Oudenaarde,Oudenaarde,Oudenaarde,Oost-Vlaanderen,Oost-Vlaanderen,Vlaanderen,Vlaanderen,Belgique,Belgique,Europe"/>
    <tag k="openGeoDB:is_in_loc_id" v="35301"/>
    <tag k="openGeoDB:layer" v="7"/>
    <tag k="openGeoDB:loc_id" v="34235"/>
    <tag k="openGeoDB:name" v="Oudenaarde,Oudenaarde"/>
    <tag k="openGeoDB:postal_codes" v="9700"/>
    <tag k="openGeoDB:sort_name" v="OUDENAARDE"/>
    <tag k="openGeoDB:type" v="100600000"/>
    <tag k="openGeoDB:version" v="0.2.6.11 / 2007-12-04 / http://fa-technik.adfc.de/code/opengeodb/dump/"/>
    <tag k="opengeodb:lat" v="50.8443893"/>
    <tag k="opengeodb:lon" v="3.6048418"/>
    <tag k="place" v="town"/>
    <tag k="postal_code" v="9700"/>
    <tag k="wikipedia" v="Oudenaarde"/>
  </node>
  <node id="60235988" version="4" timestamp="2008-10-16T11:14:16Z" uid="49111" user="Markus B" changeset="369248" lat="49.4849323" lon="11.1929836"/>
  <node id="60235990" version="4" timestamp="2008-10-16T11:14:17Z" uid="49111" user="Markus B" changeset="369248" lat="49.4830022" lon="11.1950551"/>
  <node id="60235992" version="4" timestamp="2008-10-16T11:14:17Z" uid="49111" user="Markus B" changeset="369248" lat="49.4827531" lon="11.195699"/>
  <node id="60235996" version="4" timestamp="2008-10-16T11:14:17Z" uid="49111" user="Markus B" changeset="369248" lat="49.4815317" lon="11.1912223"/>
  <node id="60236001" version="4" timestamp="2008-10-16T11:14:16Z" uid="49111" user="Markus B" changeset="369248" lat="49.4878286" lon="11.201265"/>
  <node id="60236003" version="4" timestamp="2008-10-16T11:14:16Z" uid="49111" user="Markus B" changeset="369248" lat="49.4867906" lon="11.1994891"/>
  <node id="60236004" version="5" timestamp="2008-10-16T11:14:16Z" uid="49111" user="Markus B" changeset="369248" lat="49.486829" lon="11.2015254"/>
  <node id="60236006" version="5" timestamp="2008-10-16T11:14:16Z" uid="49111" user="Markus B" changeset="369248" lat="49.4881851" lon="11.2086067"/>
  <node id="60236008" version="5" timestamp="2008-10-16T11:14:16Z" uid="49111" user="Markus B" changeset="369248" lat="49.4857931" lon="11.2100057"/>
  <node id="60236010" version="4" timestamp="2008-10-16T11:14:14Z" uid="49111" user="Markus B" changeset="369248" lat="49.4927494" lon="11.2293467"/>
  <node id="60237633" version="1" timestamp="2007-10-02T16:52:04Z" uid="13367" user="nubok" changeset="23035" lat="61.4806618" lon="23.510644"/>
  <node id="60237699" version="6" timestamp="2010-10-08T16:16:08Z" uid="115477" user="wowik" changeset="5986870" lat="54.9567428" lon="20.47495">
    <tag k="addr:country" v="RU"/>
    <tag k="addr:district" v="Зеленоградский район"/>
    <tag k="addr:postcode" v="238530"/>
    <tag k="addr:region" v="Калининградская область"/>
    <tag k="cladr:code" v="3900600100000"/>
    <tag k="cladr:name" v="Зеленоградск"/>
    <tag k="cladr:suffix" v="Город"/>
    <tag k="name" v="Зеленоградск"/>
    <tag k="name:de" v="Selenogradsk"/>
    <tag k="name:lt" v="Zelenogradskas"/>
    <tag k="name:pl" v="Krańc"/>
    <tag k="name:sl" v="Zelenogradsk"/>
    <tag k="old_name" v="Кранц"/>
    <tag k="old_name:de" v="Cranz"/>
    <tag k="old_name:lt" v="Krantas"/>
    <tag k="place" v="town"/>
  </node>
  <node id="60237699" version="7" timestamp="2010-10-08T16:16:55Z" uid="115477" user="wowik" changeset="5986870" lat="54.9567428" lon="20.47495">
    <tag k="addr:country" v="RU"/>
    <tag k="addr:district" v="Зеленоградский район"/>
    <tag k="addr:postcode" v="238530"/>
    <tag k="addr:region" v="Калининградская область"/>
    <tag k="cladr:code" v="3900600100000"/>
    <tag k="cladr:name" v="Зеленоградск"/>
    <tag k="cladr:suffix" v="Город"/>
    <tag k="name" v="Зеленоградск"/>
    <tag k="name:de" v="Selenogradsk"/>
    <tag k="name:lt" v="Zelenogradskas"/>
    <tag k="name:sl" v="Zelenogradsk"/>
    <tag k="old_name" v="Кранц"/>
    <tag k="old_name:de" v="Cranz"/>
    <tag k="old_name:lt" v="Krantas"/>
    <tag k="old_name:pl" v="Krańc"/>
    <tag k="place" v="town"/>
  </node>
  <node id="60237699" version="8" timestamp="2010-10-08T16:17:42Z" uid="115477" user="wowik" changeset="5986870" lat="54.9567428" lon="20.47495">
    <tag k="addr:country" v="RU"/>
    <tag k="addr:district" v="Зеленоградский район"/>
    <tag k="addr:postcode" v="238530"/>
    <tag k="addr:region" v="Калининградская область"/>
    <tag k="cladr:code" v="3900600100000"/>
    <tag k="cladr:name" v="Зеленоградск"/>
    <tag k="cladr:suffix" v="Город"/>
    <tag k="name" v="Зеленоградск"/>
    <tag k="name:de" v="Selenogradsk"/>
    <tag k="name:lt" v="Zelenogradskas"/>
    <tag k="name:pl" v="Zielenogradsk"/>
    <tag k="name:sl" v="Zelenogradsk"/>
    <tag k="old_name" v="Кранц"/>
    <tag k="old_name:de" v="Cranz"/>
    <tag k="old_name:lt" v="Krantas"/>
    <tag k="old_name:pl" v="Krańc"/>
    <tag k="place" v="town"/>
  </node>
  <node id="60237860" version="1" timestamp="2007-10-02T16:52:04Z" uid="13367" user="nubok" changeset="23035" lat="61.4781455" lon="23.5095368">
    <tag k="highway" v="mini_roundabout"/>
  </node>
  <node id="60237889" version="6" timestamp="2010-10-08T09:32:27Z" uid="115477" user="wowik" changeset="5984413" lat="54.671171" lon="20.1290524">
    <tag k="addr:country" v="RU"/>
    <tag k="addr:postcode" v="238340"/>
    <tag k="addr:region" v="Калининградская область"/>
    <tag k="cladr:code" v="3900000600000"/>
    <tag k="cladr:name" v="Светлый"/>
    <tag k="cladr:suffix" v="Город"/>
    <tag k="name" v="Светлый"/>
    <tag k="name:de" v="Swjetly"/>
    <tag k="name:sl" v="Svetli"/>
    <tag k="old_name" v="Циммербуде"/>
    <tag k="old_name:de" v="Zimmerbude"/>
    <tag k="place" v="town"/>
  </node>
  <node id="60237889" version="7" timestamp="2010-10-08T09:32:59Z" uid="115477" user="wowik" changeset="5984413" lat="54.6731717" lon="20.1311576">
    <tag k="addr:country" v="RU"/>
    <tag k="addr:postcode" v="238340"/>
    <tag k="addr:region" v="Калининградская область"/>
    <tag k="cladr:code" v="3900000600000"/>
    <tag k="cladr:name" v="Светлый"/>
    <tag k="cladr:suffix" v="Город"/>
    <tag k="name" v="Светлый"/>
    <tag k="name:de" v="Swjetly"/>
    <tag k="name:sl" v="Svetli"/>
    <tag k="old_name" v="Циммербуде"/>
    <tag k="old_name:de" v="Zimmerbude"/>
    <tag k="place" v="town"/>
  </node>
  <node id="60237984" version="6" timestamp="2010-10-08T11:01:55Z" uid="115477" user="wowik" changeset="5985020" lat="54.8691199" lon="19.9409114">
    <tag k="addr:city" v="Светлогорск город"/>
    <tag k="addr:country" v="RU"/>
    <tag k="addr:postcode" v="238580"/>
    <tag k="addr:region" v="Калининградская область"/>
    <tag k="cladr:code" v="3900000500700"/>
    <tag k="cladr:name" v="Янтарный"/>
    <tag k="cladr:suffix" v="Поселок городского типа"/>
    <tag k="name" v="Янтарный"/>
    <tag k="name:de" v="Jantarny"/>
    <tag k="name:sl" v="Jantarni"/>
    <tag k="old_name" v="Пальмникен"/>
    <tag k="old_name:de" v="Palmnicken"/>
    <tag k="place" v="village"/>
  </node>
  <node id="60237984" version="7" timestamp="2010-10-08T11:05:08Z" uid="115477" user="wowik" changeset="5985020" lat="54.8691199" lon="19.9409114">
    <tag k="addr:city" v="Светлогорск город"/>
    <tag k="addr:country" v="RU"/>
    <tag k="addr:postcode" v="238580"/>
    <tag k="addr:region" v="Калининградская область"/>
    <tag k="cladr:code" v="3900000500700"/>
    <tag k="cladr:name" v="Янтарный"/>
    <tag k="cladr:suffix" v="Поселок городского типа"/>
    <tag k="name" v="Янтарный"/>
    <tag k="name:de" v="Jantarny"/>
    <tag k="name:lt" v="Jantarnas"/>
    <tag k="name:sl" v="Jantarni"/>
    <tag k="old_name" v="Пальмникен"/>
    <tag k="old_name:de" v="Palmnicken"/>
    <tag k="place" v="village"/>
  </node>
  <node id="60237984" version="8" timestamp="2010-10-08T11:16:42Z" uid="115477" user="wowik" changeset="5985020" lat="54.8691199" lon="19.9409114">
    <tag k="addr:city" v="Светлогорск город"/>
    <tag k="addr:country" v="RU"/>
    <tag k="addr:postcode" v="238580"/>
    <tag k="addr:region" v="Калининградская область"/>
    <tag k="cladr:code" v="3900000500700"/>
    <tag k="cladr:name" v="Янтарный"/>
    <tag k="cladr:suffix" v="Поселок городского типа"/>
    <tag k="name" v="Янтарный"/>
    <tag k="name:de" v="Jantarny"/>
    <tag k="name:lt" v="Jantarnas"/>
    <tag k="name:sl" v="Jantarni"/>
    <tag k="old_name" v="Пальмникен"/>
    <tag k="old_name:de" v="Palmnicken"/>
    <tag k="old_name:lt" v="Palmininkai "/>
    <tag k="old_name:pl" v="Palmniki"/>
    <tag k="place" v="village"/>
    <tag k="wikipedia:de" v="Jantarny"/>
  </node>
  <node id="60238036" version="7" timestamp="2010-10-07T18:10:29Z" uid="115477" user="wowik" changeset="5979121" lat="54.4638794" lon="19.9419423">
    <tag k="addr:country" v="RU"/>
    <tag k="addr:district" v="Багратионовский район"/>
    <tag k="addr:postcode" v="238450"/>
    <tag k="addr:region" v="Калининградская область"/>
    <tag k="cladr:code" v="3900200300000"/>
    <tag k="cladr:name" v="Мамоново"/>
    <tag k="cladr:suffix" v="Город"/>
    <tag k="int_name" v="Mamonovo"/>
    <tag k="is_in" v="Kaliningrad, Northwest, Russia"/>
    <tag k="name" v="Мамоново"/>
    <tag k="name:de" v="Mamonowo"/>
    <tag k="name:lt" v="Mamonovas"/>
    <tag k="name:pl" v="Mamonowo"/>
    <tag k="name:sl" v="Mamonovo"/>
    <tag k="old_name" v="Хайлигенбайль"/>
    <tag k="old_name:de" v="Heiligenbeil"/>
    <tag k="old_name:lt" v="Sventapilis"/>
    <tag k="old_name:pl" v="Swietomiejsce"/>
    <tag k="place" v="town"/>
    <tag k="population" v="7393"/>
  </node>
  <node id="60238149" version="2" timestamp="2009-12-06T23:29:37Z" uid="200463" user="harmagedon" changeset="3311555" lat="48.5588791" lon="13.410669"/>
  <node id="60238150" version="2" timestamp="2009-12-06T23:29:38Z" uid="200463" user="harmagedon" changeset="3311555" lat="48.5592058" lon="13.4109039"/>
  <node id="60238151" version="2" timestamp="2009-12-06T23:29:55Z" uid="200463" user="harmagedon" changeset="3311555" lat="48.5596013" lon="13.4099698"/>
  <node id="60238152" version="2" timestamp="2009-12-06T23:29:38Z" uid="200463" user="harmagedon" changeset="3311555" lat="48.5592803" lon="13.4097634"/>
  <node id="60238408" version="2" timestamp="2009-11-06T14:46:48Z" uid="36809" user="pfoten_weg_!_" changeset="3048388" lat="55.0384703" lon="22.0296869">
    <tag k="name" v="Неман"/>
    <tag k="place" v="town"/>
  </node>
  <node id="60238479" version="6" timestamp="2010-10-08T17:51:58Z" uid="115477" user="wowik" changeset="5987894" lat="55.1537934" lon="20.8538079">
    <tag k="addr:country" v="RU"/>
    <tag k="addr:district" v="Зеленоградский район"/>
    <tag k="addr:postcode" v="238535"/>
    <tag k="addr:region" v="Калининградская область"/>
    <tag k="cladr:code" v="3900600001400"/>
    <tag k="cladr:name" v="Рыбачий"/>
    <tag k="cladr:suffix" v="Поселок"/>
    <tag k="int_name" v="Rybachiy"/>
    <tag k="is_in" v="Kaliningrad Oblast"/>
    <tag k="name" v="Рыбачий"/>
    <tag k="name:de" v="Rybatschi"/>
    <tag k="name:en" v="Rybachy"/>
    <tag k="name:lt" v="Rasyte"/>
    <tag k="name:pl" v="Rozyty"/>
    <tag k="name:ru" v="Рыбачий"/>
    <tag k="old_name" v="Росситтен"/>
    <tag k="old_name:de" v="Rossitten"/>
    <tag k="place" v="village"/>
    <tag k="population" v="960"/>
    <tag k="wikipedia:de" v="Rybatschi"/>
    <tag k="wikipedia:en" v="Rybachy"/>
  </node>
  <node id="60238585" version="6" timestamp="2010-11-01T12:06:40Z" uid="115477" user="wowik" changeset="6253979" lat="54.8604263" lon="21.1071789">
    <tag k="addr:country" v="RU"/>
    <tag k="addr:district" v="Полесский район"/>
    <tag k="addr:postcode" v="238630"/>
    <tag k="addr:region" v="Калининградская область"/>
    <tag k="cladr:code" v="3901100100000"/>
    <tag k="cladr:name" v="Полесск"/>
    <tag k="cladr:suffix" v="Город"/>
    <tag k="name" v="Полесск"/>
    <tag k="name:de" v="Polessk"/>
    <tag k="name:lt" v="Labguva"/>
    <tag k="name:pl" v="Labiawa"/>
    <tag k="name:ru" v="Полесск"/>
    <tag k="name:sl" v="Polessk"/>
    <tag k="old_name" v="Лабиау"/>
    <tag k="old_name:de" v="Labiau"/>
    <tag k="old_name:ru" v="Лабиау"/>
    <tag k="place" v="town"/>
  </node>
  <node id="60238680" version="1" timestamp="2007-09-30T19:28:01Z" uid="13367" user="nubok" changeset="542886" lat="52.2144193" lon="11.0207568"/>
  <node id="60238682" version="1" timestamp="2007-09-30T19:34:02Z" uid="13367" user="nubok" changeset="542886" lat="52.2144084" lon="11.0212351"/>
  <node id="60238796" version="16" timestamp="2009-10-17T23:57:34Z" uid="36809" user="pfoten_weg_!_" changeset="2879001" lat="47.7474509" lon="11.3748465"/>
  <node id="60238796" version="18" timestamp="2009-11-08T03:04:57Z" uid="36809" user="pfoten_weg_!_" changeset="3060646" lat="47.7473982" lon="11.3748726"/>
  <node id="60238797" version="7" timestamp="2009-11-08T03:04:58Z" uid="36809" user="pfoten_weg_!_" changeset="3060646" lat="47.7473735" lon="11.3740508"/>
  <node id="60238801" version="7" timestamp="2009-11-08T03:04:21Z" uid="36809" user="pfoten_weg_!_" changeset="3060646" lat="47.7569694" lon="11.3661937"/>
  <node id="60238802" version="13" timestamp="2009-11-08T03:04:34Z" uid="36809" user="pfoten_weg_!_" changeset="3060646" lat="47.7565301" lon="11.3682055"/>
  <node id="60238804" version="12" timestamp="2009-11-08T03:04:21Z" uid="36809" user="pfoten_weg_!_" changeset="3060646" lat="47.7565796" lon="11.3661722"/>
  <node id="60238805" version="3" timestamp="2009-10-22T21:51:45Z" uid="36809" user="pfoten_weg_!_" changeset="2925817" lat="47.7633481" lon="11.3685406"/>
  <node id="60238807" version="3" timestamp="2009-10-22T21:50:55Z" uid="36809" user="pfoten_weg_!_" changeset="2925817" lat="47.7584944" lon="11.3595212"/>
  <node id="60238810" version="4" timestamp="2009-11-08T03:04:01Z" uid="36809" user="pfoten_weg_!_" changeset="3060646" lat="47.7572463" lon="11.3645456"/>
  <node id="60238811" version="8" timestamp="2009-11-06T03:09:00Z" uid="36809" user="pfoten_weg_!_" changeset="3045160" lat="47.7608773" lon="11.3678296"/>
  <node id="60238812" version="8" timestamp="2009-11-06T03:08:28Z" uid="36809" user="pfoten_weg_!_" changeset="3045160" lat="47.7628925" lon="11.3648427"/>
  <node id="60238813" version="4" timestamp="2009-11-08T03:04:00Z" uid="36809" user="pfoten_weg_!_" changeset="3060646" lat="47.756727" lon="11.365011"/>
  <node id="60238815" version="2" timestamp="2009-10-22T21:51:18Z" uid="36809" user="pfoten_weg_!_" changeset="2925817" lat="47.7567592" lon="11.3642445"/>
  <node id="60238815" version="4" timestamp="2009-11-08T03:03:57Z" uid="36809" user="pfoten_weg_!_" changeset="3060646" lat="47.7567412" lon="11.364211"/>
  <node id="60238816" version="6" timestamp="2009-11-08T03:03:54Z" uid="36809" user="pfoten_weg_!_" changeset="3060646" lat="47.7568125" lon="11.3631226"/>
  <node id="60238817" version="4" timestamp="2009-10-22T21:51:39Z" uid="36809" user="pfoten_weg_!_" changeset="2925817" lat="47.7582256" lon="11.3650993"/>
  <node id="60238817" version="6" timestamp="2009-11-08T03:07:32Z" uid="36809" user="pfoten_weg_!_" changeset="3060646" lat="47.7581536" lon="11.3651227"/>
  <node id="60238819" version="6" timestamp="2009-11-06T03:08:40Z" uid="36809" user="pfoten_weg_!_" changeset="3045160" lat="47.7589759" lon="11.365708"/>
  <node id="60238819" version="8" timestamp="2009-11-08T03:07:51Z" uid="36809" user="pfoten_weg_!_" changeset="3060646" lat="47.7589826" lon="11.3657582"/>
  <node id="60238821" version="5" timestamp="2009-11-08T03:07:50Z" uid="36809" user="pfoten_weg_!_" changeset="3060646" lat="47.7596239" lon="11.3661994"/>
  <node id="60238822" version="2" timestamp="2009-10-22T21:51:43Z" uid="36809" user="pfoten_weg_!_" changeset="2925817" lat="47.7601086" lon="11.3666636"/>
  <node id="60238822" version="4" timestamp="2009-11-08T03:07:51Z" uid="36809" user="pfoten_weg_!_" changeset="3060646" lat="47.7600114" lon="11.3666288"/>
  <node id="60238823" version="7" timestamp="2009-11-08T03:08:48Z" uid="36809" user="pfoten_weg_!_" changeset="3060646" lat="47.7603829" lon="11.3671489"/>
  <node id="60238824" version="4" timestamp="2009-11-06T03:08:39Z" uid="36809" user="pfoten_weg_!_" changeset="3045160" lat="47.7581832" lon="11.3656267"/>
  <node id="60238824" version="6" timestamp="2009-11-08T03:07:39Z" uid="36809" user="pfoten_weg_!_" changeset="3060646" lat="47.758145" lon="11.3656468"/>
  <node id="60238825" version="4" timestamp="2009-11-06T03:08:37Z" uid="36809" user="pfoten_weg_!_" changeset="3045160" lat="47.7582535" lon="11.3659955"/>
  <node id="60238825" version="6" timestamp="2009-11-08T03:07:38Z" uid="36809" user="pfoten_weg_!_" changeset="3060646" lat="47.7582018" lon="11.3659319"/>
  <node id="60238827" version="4" timestamp="2009-11-06T03:08:38Z" uid="36809" user="pfoten_weg_!_" changeset="3045160" lat="47.7584134" lon="11.3662447"/>
  <node id="60238828" version="6" timestamp="2009-11-08T03:07:51Z" uid="36809" user="pfoten_weg_!_" changeset="3060646" lat="47.7592646" lon="11.3672021"/>
  <node id="60238831" version="5" timestamp="2009-11-08T03:07:52Z" uid="36809" user="pfoten_weg_!_" changeset="3060646" lat="47.7599438" lon="11.3675982"/>
  <node id="60238837" version="6" timestamp="2009-11-08T03:03:01Z" uid="36809" user="pfoten_weg_!_" changeset="3060646" lat="47.7570336" lon="11.3591196"/>
  <node id="60238843" version="4" timestamp="2009-10-22T21:50:49Z" uid="36809" user="pfoten_weg_!_" changeset="2925817" lat="47.7571342" lon="11.3533869"/>
  <node id="60238844" version="4" timestamp="2009-10-22T21:50:49Z" uid="36809" user="pfoten_weg_!_" changeset="2925817" lat="47.7575218" lon="11.3536117"/>
  <node id="60238846" version="4" timestamp="2009-10-22T21:50:52Z" uid="36809" user="pfoten_weg_!_" changeset="2925817" lat="47.7583252" lon="11.3541471"/>
  <node id="60238847" version="3" timestamp="2009-10-22T21:50:54Z" uid="36809" user="pfoten_weg_!_" changeset="2925817" lat="47.758346" lon="11.3548035"/>
  <node id="60238849" version="2" timestamp="2009-10-22T21:50:52Z" uid="36809" user="pfoten_weg_!_" changeset="2925817" lat="47.7585553" lon="11.3532952"/>
  <node id="60238850" version="4" timestamp="2009-10-22T21:50:52Z" uid="36809" user="pfoten_weg_!_" changeset="2925817" lat="47.7587033" lon="11.3529603"/>
  <node id="60238851" version="2" timestamp="2009-10-22T21:50:52Z" uid="36809" user="pfoten_weg_!_" changeset="2925817" lat="47.7593155" lon="11.3530639"/>
  <node id="60238852" version="2" timestamp="2009-10-22T21:50:53Z" uid="36809" user="pfoten_weg_!_" changeset="2925817" lat="47.7602904" lon="11.3532456"/>
  <node id="60238853" version="2" timestamp="2009-10-22T21:50:53Z" uid="36809" user="pfoten_weg_!_" changeset="2925817" lat="47.7597616" lon="11.353163"/>
  <node id="60238858" version="4" timestamp="2009-10-22T21:51:02Z" uid="36809" user="pfoten_weg_!_" changeset="2925817" lat="47.7617465" lon="11.3590991"/>
  <node id="60238860" version="2" timestamp="2009-10-22T21:51:40Z" uid="36809" user="pfoten_weg_!_" changeset="2925817" lat="47.7616785" lon="11.3612931"/>
  <node id="60238861" version="4" timestamp="2009-10-22T21:51:41Z" uid="36809" user="pfoten_weg_!_" changeset="2925817" lat="47.7614217" lon="11.3628743"/>
  <node id="60238865" version="9" timestamp="2009-11-08T03:07:36Z" uid="36809" user="pfoten_weg_!_" changeset="3060646" lat="47.76131" lon="11.3642613"/>
  <node id="60238866" version="3" timestamp="2009-11-06T03:08:29Z" uid="36809" user="pfoten_weg_!_" changeset="3045160" lat="47.761812" lon="11.364992"/>
  <node id="60238869" version="13" timestamp="2009-11-06T03:08:21Z" uid="36809" user="pfoten_weg_!_" changeset="3045160" lat="47.7592203" lon="11.3629"/>
  <node id="60238869" version="15" timestamp="2009-11-08T03:07:35Z" uid="36809" user="pfoten_weg_!_" changeset="3060646" lat="47.759227" lon="11.3629301"/>
  <node id="60238870" version="4" timestamp="2009-11-08T03:07:30Z" uid="36809" user="pfoten_weg_!_" changeset="3060646" lat="47.758788" lon="11.3627953"/>
  <node id="60238871" version="5" timestamp="2009-11-08T03:07:29Z" uid="36809" user="pfoten_weg_!_" changeset="3060646" lat="47.7582342" lon="11.3628286"/>
  <node id="60238876" version="9" timestamp="2009-11-06T03:08:32Z" uid="36809" user="pfoten_weg_!_" changeset="3045160" lat="47.7621036" lon="11.3631788"/>
  <node id="60238891" version="3" timestamp="2010-08-13T16:43:16Z" uid="115477" user="wowik" changeset="5483643" lat="54.6136552" lon="20.2533349">
    <tag k="name" v="Ушаково"/>
    <tag k="name:de" v="Brandenburg"/>
    <tag k="place" v="hamlet"/>
  </node>
  <node id="60238891" version="4" timestamp="2010-10-06T09:49:07Z" uid="115477" user="wowik" changeset="5967502" lat="54.6124783" lon="20.2487191">
    <tag k="name" v="Ушаково"/>
    <tag k="name:de" v="Brandenburg"/>
    <tag k="place" v="hamlet"/>
  </node>
  <node id="60238891" version="5" timestamp="2010-10-06T10:17:58Z" uid="115477" user="wowik" changeset="5967502" lat="54.6104585" lon="20.2420883">
    <tag k="name" v="Ушаково"/>
    <tag k="name:de" v="Brandenburg"/>
    <tag k="place" v="hamlet"/>
  </node>
  <node id="60238929" version="4" timestamp="2009-11-06T03:08:28Z" uid="36809" user="pfoten_weg_!_" changeset="3045160" lat="47.7626344" lon="11.3644835"/>
  <node id="60238948" version="2" timestamp="2009-10-22T21:50:53Z" uid="36809" user="pfoten_weg_!_" changeset="2925817" lat="47.7610671" lon="11.3539892"/>
  <node id="60238954" version="3" timestamp="2009-10-22T21:51:40Z" uid="36809" user="pfoten_weg_!_" changeset="2925817" lat="47.7583528" lon="11.3643593"/>
  <node id="60238954" version="5" timestamp="2009-11-08T03:07:33Z" uid="36809" user="pfoten_weg_!_" changeset="3060646" lat="47.7583326" lon="11.3643459"/>
  <node id="60238956" version="18" timestamp="2009-11-06T03:08:16Z" uid="36809" user="pfoten_weg_!_" changeset="3045160" lat="47.7589173" lon="11.364043"/>
  <node id="60238956" version="20" timestamp="2009-11-08T03:07:34Z" uid="36809" user="pfoten_weg_!_" changeset="3060646" lat="47.7589465" lon="11.3640129"/>
  <node id="60238958" version="11" timestamp="2009-11-06T03:08:21Z" uid="36809" user="pfoten_weg_!_" changeset="3045160" lat="47.7593244" lon="11.3647248"/>
  <node id="60238958" version="13" timestamp="2009-11-08T03:07:34Z" uid="36809" user="pfoten_weg_!_" changeset="3060646" lat="47.7593334" lon="11.3648754"/>
  <node id="60238959" version="12" timestamp="2009-11-08T03:07:34Z" uid="36809" user="pfoten_weg_!_" changeset="3060646" lat="47.7599708" lon="11.3650503"/>
  <node id="60238960" version="6" timestamp="2009-11-06T03:08:17Z" uid="36809" user="pfoten_weg_!_" changeset="3045160" lat="47.7591173" lon="11.3651974"/>
  <node id="60238960" version="8" timestamp="2009-11-08T03:07:33Z" uid="36809" user="pfoten_weg_!_" changeset="3060646" lat="47.7591555" lon="11.3652744"/>
  <node id="60238962" version="10" timestamp="2009-11-06T03:08:18Z" uid="36809" user="pfoten_weg_!_" changeset="3045160" lat="47.7589988" lon="11.3633718"/>
  <node id="60238962" version="12" timestamp="2009-11-08T03:07:34Z" uid="36809" user="pfoten_weg_!_" changeset="3060646" lat="47.7590213" lon="11.3633885"/>
  <node id="60238963" version="3" timestamp="2009-10-22T21:51:39Z" uid="36809" user="pfoten_weg_!_" changeset="2925817" lat="47.7582874" lon="11.36486"/>
  <node id="60238963" version="5" timestamp="2009-11-08T03:07:32Z" uid="36809" user="pfoten_weg_!_" changeset="3060646" lat="47.7582402" lon="11.3648132"/>
  <node id="60238969" version="3" timestamp="2009-10-22T21:50:59Z" uid="36809" user="pfoten_weg_!_" changeset="2925817" lat="47.7606805" lon="11.3586189"/>
  <node id="60238971" version="3" timestamp="2009-10-22T21:50:56Z" uid="36809" user="pfoten_weg_!_" changeset="2925817" lat="47.7601302" lon="11.3588817"/>
  <node id="60238972" version="3" timestamp="2009-10-22T21:50:56Z" uid="36809" user="pfoten_weg_!_" changeset="2925817" lat="47.7601869" lon="11.3578814"/>
  <node id="60238975" version="4" timestamp="2009-10-22T21:50:56Z" uid="36809" user="pfoten_weg_!_" changeset="2925817" lat="47.7589605" lon="11.3596143"/>
  <node id="60238976" version="3" timestamp="2009-10-22T21:51:38Z" uid="36809" user="pfoten_weg_!_" changeset="2925817" lat="47.759248" lon="11.3603261"/>
  <node id="60238977" version="2" timestamp="2009-10-22T21:51:38Z" uid="36809" user="pfoten_weg_!_" changeset="2925817" lat="47.7601187" lon="11.3599073"/>
  <node id="60238979" version="4" timestamp="2009-10-22T21:50:59Z" uid="36809" user="pfoten_weg_!_" changeset="2925817" lat="47.7612357" lon="11.3593279"/>
  <node id="60238980" version="3" timestamp="2009-10-22T21:51:40Z" uid="36809" user="pfoten_weg_!_" changeset="2925817" lat="47.7608179" lon="11.3605284"/>
  <node id="60238981" version="8" timestamp="2009-11-06T03:08:11Z" uid="36809" user="pfoten_weg_!_" changeset="3045160" lat="47.7596923" lon="11.3617183"/>
  <node id="60238982" version="5" timestamp="2009-11-06T03:07:57Z" uid="36809" user="pfoten_weg_!_" changeset="3045160" lat="47.7594029" lon="11.3609748"/>
  <node id="60238983" version="3" timestamp="2009-10-22T21:51:40Z" uid="36809" user="pfoten_weg_!_" changeset="2925817" lat="47.7605139" lon="11.3607086"/>
  <node id="60238984" version="4" timestamp="2009-10-22T21:51:39Z" uid="36809" user="pfoten_weg_!_" changeset="2925817" lat="47.760204" lon="11.361599"/>
  <node id="60238986" version="6" timestamp="2009-11-06T03:08:03Z" uid="36809" user="pfoten_weg_!_" changeset="3045160" lat="47.7594624" lon="11.3622953"/>
  <node id="60239372" version="4" timestamp="2009-12-09T13:26:47Z" uid="64977" user="CLoeser" changeset="3333576" lat="54.0064653" lon="9.222386">
    <tag k="is_in" v="Dithmarschen,Schleswig-Holstein,Bundesrepublik Deutschland,Europe"/>
    <tag k="name" v="Brickeln"/>
    <tag k="openGeoDB:auto_update" v="population,is_in"/>
    <tag k="openGeoDB:combination_of_public_administration" v="Amt Burg-Süderhastedt"/>
    <tag k="openGeoDB:community_identification_number" v="01051010"/>
    <tag k="openGeoDB:is_in" v="Dithmarschen,Schleswig-Holstein,Bundesrepublik Deutschland,Europe"/>
    <tag k="openGeoDB:is_in_loc_id" v="258"/>
    <tag k="openGeoDB:layer" v="6"/>
    <tag k="openGeoDB:license_plate_code" v="HEI"/>
    <tag k="openGeoDB:loc_id" v="14965"/>
    <tag k="openGeoDB:name" v="Brickeln"/>
    <tag k="openGeoDB:population" v="212"/>
    <tag k="openGeoDB:postal_codes" v="25712"/>
    <tag k="openGeoDB:sort_name" v="BRICKELN"/>
    <tag k="openGeoDB:telephone_area_code" v="04825"/>
    <tag k="openGeoDB:type" v="Gemeinde"/>
    <tag k="openGeoDB:version" v="0.2.6.11 / 2007-12-04 / http://fa-technik.adfc.de/code/opengeodb/dump/"/>
    <tag k="opengeodb:lat" v="54.0077353"/>
    <tag k="opengeodb:lon" v="9.2222589"/>
    <tag k="place" v="hamlet"/>
    <tag k="population" v="212"/>
  </node>
</osm>
