<?xml version='1.0' encoding='UTF-8'?>
<osm version="0.6" generator="libosmium/2.20.0">
  <node id="610313917" version="1" timestamp="2010-01-09T13:57:50Z" uid="33382" user="de_muur" changeset="3577868" lat="53.039442" lon="8.9107092">
    <tag k="direction_northeast" v="Osterholz 5.2km"/>
    <tag k="direction_southeast" v="Achim 9.2km; Mahndorf 2.5km"/>
    <tag k="information" v="guidepost"/>
    <tag k="network" v="lcn"/>
    <tag k="operator" v="GeoInformation Bremen"/>
    <tag k="route" v="bicycle"/>
    <tag k="tourism" v="information"/>
  </node>
  <node id="610313917" version="2" timestamp="2010-01-16T16:26:27Z" uid="33382" user="de_muur" changeset="3632997" lat="53.039442" lon="8.9107092">
    <tag k="direction_east" v="Achim 9.2km; Mahndorf 2.5km"/>
    <tag k="direction_north" v="Osterholz 5.2km"/>
    <tag k="information" v="guidepost"/>
    <tag k="network" v="lcn"/>
    <tag k="operator" v="GeoInformation Bremen"/>
    <tag k="route" v="bicycle"/>
    <tag k="tourism" v="information"/>
  </node>
  <node id="610313918" version="1" timestamp="2010-01-09T13:57:50Z" uid="33382" user="de_muur" changeset="3577868" lat="53.0394336" lon="8.9109967">
    <tag k="direction_northeast" v="Osterholz 5.2km"/>
    <tag k="direction_northwest" v="Centrum 9.8km; Hemelingen 3.1km"/>
    <tag k="information" v="guidepost"/>
    <tag k="network" v="lcn"/>
    <tag k="operator" v="GeoInformation Bremen"/>
    <tag k="route" v="bicycle"/>
    <tag k="tourism" v="information"/>
  </node>
  <node id="610313918" version="2" timestamp="2010-01-16T16:26:27Z" uid="33382" user="de_muur" changeset="3632997" lat="53.0394336" lon="8.9109967">
    <tag k="direction_north" v="Osterholz 5.2km"/>
    <tag k="direction_west" v="Centrum 9.8km; Hemelingen 3.1km"/>
    <tag k="information" v="guidepost"/>
    <tag k="network" v="lcn"/>
    <tag k="operator" v="GeoInformation Bremen"/>
    <tag k="route" v="bicycle"/>
    <tag k="tourism" v="information"/>
  </node>
  <node id="610313920" version="1" timestamp="2010-01-09T13:57:50Z" uid="33382" user="de_muur" changeset="3577868" lat="53.0395123" lon="8.9108777">
    <tag k="direction_northwest" v="Centrum 9.8km; Hemelingen 3.1km"/>
    <tag k="direction_southeast" v="Achim 9.2km; Mahndorf 2.5km"/>
    <tag k="information" v="guidepost"/>
    <tag k="network" v="lcn"/>
    <tag k="operator" v="GeoInformation Bremen"/>
    <tag k="route" v="bicycle"/>
    <tag k="tourism" v="information"/>
  </node>
  <node id="610313920" version="2" timestamp="2010-01-16T16:26:27Z" uid="33382" user="de_muur" changeset="3632997" lat="53.0395123" lon="8.9108777">
    <tag k="direction_east" v="Achim 9.2km; Mahndorf 2.5km"/>
    <tag k="direction_west" v="Centrum 9.8km; Hemelingen 3.1km"/>
    <tag k="information" v="guidepost"/>
    <tag k="network" v="lcn"/>
    <tag k="operator" v="GeoInformation Bremen"/>
    <tag k="route" v="bicycle"/>
    <tag k="tourism" v="information"/>
  </node>
  <node id="610317466" version="1" timestamp="2010-01-09T14:09:57Z" uid="33382" user="de_muur" changeset="3577964" lat="53.0447454" lon="8.9087733">
    <tag k="amenity" v="pub"/>
    <tag k="name" v="Harzlerle 11"/>
  </node>
  <node id="610317466" version="2" timestamp="2010-01-21T15:59:52Z" uid="33382" user="de_muur" changeset="3675778" lat="53.0447454" lon="8.9087733">
    <tag k="amenity" v="pub"/>
    <tag k="name" v="Harzlerle 11"/>
  </node>
  <node id="610317468" version="1" timestamp="2010-01-09T14:09:57Z" uid="33382" user="de_muur" changeset="3577964" lat="53.0446408" lon="8.9111732">
    <tag k="shop" v="beverages"/>
  </node>
</osm>
