<?xml version='1.0' encoding='UTF-8'?>
<osm version="0.6" generator="libosmium/2.20.0">
  <node id="612442278" version="1" timestamp="2010-01-12T18:31:49Z" uid="115477" user="wowik" changeset="3604898" lat="55.985323" lon="37.2149922">
    <tag k="historic" v="monument"/>
    <tag k="name" v="памятник Ленину"/>
  </node>
  <node id="612442278" version="2" timestamp="2011-01-27T17:04:56Z" uid="115477" user="wowik" changeset="7105390" lat="55.985323" lon="37.2149922">
    <tag k="historic" v="monument"/>
    <tag k="name" v="тут был памятник Ленину"/>
  </node>
  <node id="612442278" version="3" timestamp="2011-01-27T19:27:05Z" uid="115477" user="wowik" changeset="7106689" lat="55.9852062" lon="37.2148374">
    <tag k="historic" v="monument"/>
    <tag k="name" v="тут был памятник Ленину"/>
  </node>
  <node id="612442278" version="4" timestamp="2011-01-28T12:49:00Z" uid="115477" user="wowik" changeset="7112607" lat="55.9851408" lon="37.2148232">
    <tag k="historic" v="monument"/>
    <tag k="name" v="тут был памятник Ленину"/>
  </node>
</osm>
