<?xml version='1.0' encoding='UTF-8'?>
<osm version="0.6" generator="libosmium/2.20.0">
  <node id="613350816" version="4" timestamp="2010-04-15T07:51:49Z" uid="30632" user="antblant" changeset="4428732" lat="54.1297294" lon="22.4963435">
    <tag k="is_in" v="gmina Olecko, powiat olecki, województwo warmińsko-mazurskie, Poland"/>
    <tag k="is_in:county" v="powiat olecki"/>
    <tag k="is_in:municipality" v="gmina Olecko"/>
    <tag k="is_in:province" v="województwo warmińsko-mazurskie"/>
    <tag k="name" v="Biała Olecka"/>
    <tag k="place" v="village"/>
    <tag k="source" v="http://ump.waw.pl/ retrieved 10:45:09 12/08/09 (UMP-Suwalki/src/cities-Suwalki.pnt-converted.txt)"/>
    <tag k="wikipedia" v="Biała Olecka"/>
  </node>
  <node id="613350816" version="5" timestamp="2010-04-27T03:56:02Z" uid="30632" user="antblant" changeset="4537843" lat="54.1297294" lon="22.4963435">
    <tag k="is_in" v="gmina Olecko, powiat olecki, województwo warmińsko-mazurskie, Poland"/>
    <tag k="is_in:county" v="powiat olecki"/>
    <tag k="is_in:municipality" v="gmina Olecko"/>
    <tag k="is_in:province" v="województwo warmińsko-mazurskie"/>
    <tag k="name" v="Biała Olecka"/>
    <tag k="place" v="village"/>
    <tag k="source" v="http://ump.waw.pl/ retrieved 10:45:09 12/08/09 (UMP-Suwalki/src/cities-Suwalki.pnt-converted.txt)"/>
    <tag k="teryt:simc" v="0763264"/>
    <tag k="wikipedia" v="Biała Olecka"/>
  </node>
  <node id="613351047" version="4" timestamp="2010-04-11T11:54:28Z" uid="20587" user="balrog-kun" changeset="4392352" lat="54.11264" lon="22.51073">
    <tag k="is_in" v="gmina Olecko, powiat olecki, województwo warmińsko-mazurskie, Poland"/>
    <tag k="is_in:country" v="Poland"/>
    <tag k="is_in:county" v="powiat olecki"/>
    <tag k="is_in:municipality" v="gmina Olecko"/>
    <tag k="is_in:province" v="województwo warmińsko-mazurskie"/>
    <tag k="name" v="Judziki"/>
    <tag k="place" v="village"/>
    <tag k="source" v="http://ump.waw.pl/ retrieved 10:45:09 12/08/09 (UMP-Suwalki/src/cities-Suwalki.pnt-converted.txt)"/>
    <tag k="teryt:rm" v="01"/>
    <tag k="teryt:simc" v="0763442"/>
    <tag k="teryt:stan_na" v="2009-01-01"/>
    <tag k="teryt:terc" v="2813045"/>
    <tag k="teryt:updated_by" v="teryt2osm combine.py v. 43"/>
    <tag k="wikipedia" v="Judziki, Olecko County"/>
  </node>
  <node id="613351198" version="2" timestamp="2010-04-11T11:54:28Z" uid="20587" user="balrog-kun" changeset="4392352" lat="54.13453" lon="22.52626">
    <tag k="name" v="Blaskie Pole"/>
    <tag k="place" v="village"/>
    <tag k="source" v="http://ump.waw.pl/ retrieved 10:45:09 12/08/09 (UMP-Suwalki/src/cities-Suwalki.pnt-converted.txt)"/>
  </node>
  <node id="613351416" version="4" timestamp="2010-04-11T11:54:29Z" uid="20587" user="balrog-kun" changeset="4392352" lat="54.1243" lon="22.58664">
    <tag k="is_in" v="gmina Olecko, powiat olecki, województwo warmińsko-mazurskie, Poland"/>
    <tag k="is_in:country" v="Poland"/>
    <tag k="is_in:county" v="powiat olecki"/>
    <tag k="is_in:municipality" v="gmina Olecko"/>
    <tag k="is_in:province" v="województwo warmińsko-mazurskie"/>
    <tag k="name" v="Plewki"/>
    <tag k="place" v="village"/>
    <tag k="source" v="http://ump.waw.pl/ retrieved 10:45:09 12/08/09 (UMP-Suwalki/src/cities-Suwalki.pnt-converted.txt)"/>
    <tag k="teryt:rm" v="01"/>
    <tag k="teryt:simc" v="0763577"/>
    <tag k="teryt:stan_na" v="2009-01-01"/>
    <tag k="teryt:terc" v="2813045"/>
    <tag k="wikipedia" v="Plewki, Warmian-Masurian Voivodeship"/>
  </node>
  <node id="613351587" version="4" timestamp="2010-04-11T11:54:29Z" uid="20587" user="balrog-kun" changeset="4392352" lat="54.08012" lon="22.59057">
    <tag k="is_in" v="gmina Olecko, powiat olecki, województwo warmińsko-mazurskie, Poland"/>
    <tag k="is_in:country" v="Poland"/>
    <tag k="is_in:county" v="powiat olecki"/>
    <tag k="is_in:municipality" v="gmina Olecko"/>
    <tag k="is_in:province" v="województwo warmińsko-mazurskie"/>
    <tag k="name" v="Szczecinki"/>
    <tag k="place" v="village"/>
    <tag k="source" v="http://ump.waw.pl/ retrieved 10:45:09 12/08/09 (UMP-Suwalki/src/cities-Suwalki.pnt-converted.txt)"/>
    <tag k="teryt:rm" v="01"/>
    <tag k="teryt:simc" v="0763620"/>
    <tag k="teryt:stan_na" v="2009-01-01"/>
    <tag k="teryt:terc" v="2813045"/>
    <tag k="teryt:updated_by" v="teryt2osm combine.py v. 43"/>
    <tag k="wikipedia" v="Szczecinki"/>
  </node>
  <node id="613351588" version="4" timestamp="2010-04-11T11:54:29Z" uid="20587" user="balrog-kun" changeset="4392352" lat="54.08327" lon="22.60314">
    <tag k="is_in" v="gmina Bakałarzewo, powiat suwalski, województwo podlaskie, Poland"/>
    <tag k="is_in:country" v="Poland"/>
    <tag k="is_in:county" v="powiat suwalski"/>
    <tag k="is_in:municipality" v="gmina Bakałarzewo"/>
    <tag k="is_in:province" v="województwo podlaskie"/>
    <tag k="name" v="Nowa Wieś"/>
    <tag k="place" v="village"/>
    <tag k="population" v="101"/>
    <tag k="source" v="http://ump.waw.pl/ retrieved 10:45:09 12/08/09 (UMP-Suwalki/src/cities-Suwalki.pnt-converted.txt)"/>
    <tag k="source:population" v="wikipedia"/>
    <tag k="teryt:rm" v="01"/>
    <tag k="teryt:simc" v="0753389"/>
    <tag k="teryt:stan_na" v="2009-01-01"/>
    <tag k="teryt:terc" v="2012012"/>
    <tag k="wikipedia" v="Nowa Wieś, Gmina Bakałarzewo"/>
  </node>
  <node id="613351660" version="4" timestamp="2010-04-11T11:54:29Z" uid="20587" user="balrog-kun" changeset="4392352" lat="54.06792" lon="22.63949">
    <tag k="is_in" v="gmina Bakałarzewo, powiat suwalski, województwo podlaskie, Poland"/>
    <tag k="is_in:country" v="Poland"/>
    <tag k="is_in:county" v="powiat suwalski"/>
    <tag k="is_in:municipality" v="gmina Bakałarzewo"/>
    <tag k="is_in:province" v="województwo podlaskie"/>
    <tag k="name" v="Sadłowina"/>
    <tag k="place" v="village"/>
    <tag k="population" v="79"/>
    <tag k="source" v="http://ump.waw.pl/ retrieved 10:45:09 12/08/09 (UMP-Suwalki/src/cities-Suwalki.pnt-converted.txt)"/>
    <tag k="source:population" v="wikipedia"/>
    <tag k="teryt:rm" v="01"/>
    <tag k="teryt:simc" v="0753432"/>
    <tag k="teryt:stan_na" v="2009-01-01"/>
    <tag k="teryt:terc" v="2012012"/>
    <tag k="wikipedia" v="Sadłowina"/>
  </node>
  <node id="613351879" version="4" timestamp="2010-04-11T11:54:30Z" uid="20587" user="balrog-kun" changeset="4392352" lat="54.09346" lon="22.65221">
    <tag k="addr:postcode" v="16-423"/>
    <tag k="is_in" v="gmina Bakałarzewo, powiat suwalski, województwo podlaskie, Poland"/>
    <tag k="is_in:country" v="Poland"/>
    <tag k="is_in:county" v="powiat suwalski"/>
    <tag k="is_in:municipality" v="gmina Bakałarzewo"/>
    <tag k="is_in:province" v="województwo podlaskie"/>
    <tag k="name" v="Bakałarzewo"/>
    <tag k="place" v="village"/>
    <tag k="population" v="890"/>
    <tag k="source" v="http://ump.waw.pl/ retrieved 10:45:09 12/08/09 (UMP-Suwalki/src/cities-Suwalki.pnt-converted.txt)"/>
    <tag k="source:population" v="wikipedia"/>
    <tag k="teryt:rm" v="01"/>
    <tag k="teryt:simc" v="0753231"/>
    <tag k="teryt:stan_na" v="2009-01-01"/>
    <tag k="teryt:terc" v="2012012"/>
    <tag k="wikipedia" v="Bakałarzewo"/>
  </node>
  <node id="613352040" version="4" timestamp="2010-04-11T11:54:30Z" uid="20587" user="balrog-kun" changeset="4392352" lat="54.10114" lon="22.62611">
    <tag k="is_in" v="gmina Olecko, powiat olecki, województwo warmińsko-mazurskie, Poland"/>
    <tag k="is_in:country" v="Poland"/>
    <tag k="is_in:county" v="powiat olecki"/>
    <tag k="is_in:municipality" v="gmina Olecko"/>
    <tag k="is_in:province" v="województwo warmińsko-mazurskie"/>
    <tag k="name" v="Borawskie"/>
    <tag k="place" v="village"/>
    <tag k="source" v="http://ump.waw.pl/ retrieved 10:45:09 12/08/09 (UMP-Suwalki/src/cities-Suwalki.pnt-converted.txt)"/>
    <tag k="teryt:rm" v="01"/>
    <tag k="teryt:simc" v="0763270"/>
    <tag k="teryt:stan_na" v="2009-01-01"/>
    <tag k="teryt:terc" v="2813045"/>
    <tag k="wikipedia" v="Borawskie, Warmian-Masurian Voivodeship"/>
  </node>
  <node id="613352579" version="1" timestamp="2010-01-14T08:23:20Z" uid="27600" user="Islanit" changeset="3615335" lat="53.5128134" lon="10.1009848"/>
  <node id="613352581" version="1" timestamp="2010-01-14T08:23:20Z" uid="27600" user="Islanit" changeset="3615335" lat="53.5122392" lon="10.1000622"/>
  <node id="613352582" version="1" timestamp="2010-01-14T08:23:20Z" uid="27600" user="Islanit" changeset="3615335" lat="53.5107718" lon="10.1018646"/>
  <node id="613352584" version="1" timestamp="2010-01-14T08:23:20Z" uid="27600" user="Islanit" changeset="3615335" lat="53.5077985" lon="10.1079586"/>
  <node id="613352585" version="1" timestamp="2010-01-14T08:23:20Z" uid="27600" user="Islanit" changeset="3615335" lat="53.506114" lon="10.1128938"/>
  <node id="613352587" version="1" timestamp="2010-01-14T08:23:21Z" uid="27600" user="Islanit" changeset="3615335" lat="53.5065862" lon="10.1136234"/>
  <node id="613352716" version="4" timestamp="2010-04-11T11:54:30Z" uid="20587" user="balrog-kun" changeset="4392352" lat="54.0779" lon="22.836">
    <tag k="is_in" v="gmina Suwałki, powiat suwalski, województwo podlaskie, Poland"/>
    <tag k="is_in:country" v="Poland"/>
    <tag k="is_in:county" v="powiat suwalski"/>
    <tag k="is_in:municipality" v="gmina Suwałki"/>
    <tag k="is_in:province" v="województwo podlaskie"/>
    <tag k="name" v="Wychodne"/>
    <tag k="place" v="village"/>
    <tag k="source" v="http://ump.waw.pl/ retrieved 10:45:09 12/08/09 (UMP-Suwalki/src/cities-Suwalki.pnt-converted.txt)"/>
    <tag k="teryt:rm" v="01"/>
    <tag k="teryt:simc" v="0769261"/>
    <tag k="teryt:stan_na" v="2009-01-01"/>
    <tag k="teryt:terc" v="2012072"/>
    <tag k="teryt:updated_by" v="teryt2osm combine.py v. 43"/>
    <tag k="wikipedia" v="Wychodne"/>
  </node>
  <node id="613352717" version="4" timestamp="2010-04-11T11:54:30Z" uid="20587" user="balrog-kun" changeset="4392352" lat="54.0882" lon="22.84363">
    <tag k="is_in" v="gmina Suwałki, powiat suwalski, województwo podlaskie, Poland"/>
    <tag k="is_in:country" v="Poland"/>
    <tag k="is_in:county" v="powiat suwalski"/>
    <tag k="is_in:municipality" v="gmina Suwałki"/>
    <tag k="is_in:province" v="województwo podlaskie"/>
    <tag k="name" v="Kuków"/>
    <tag k="place" v="village"/>
    <tag k="source" v="http://ump.waw.pl/ retrieved 10:45:09 12/08/09 (UMP-Suwalki/src/cities-Suwalki.pnt-converted.txt)"/>
    <tag k="teryt:rm" v="01"/>
    <tag k="teryt:simc" v="0768882"/>
    <tag k="teryt:stan_na" v="2009-01-01"/>
    <tag k="teryt:terc" v="2012072"/>
    <tag k="wikipedia" v="Kuków, Podlaskie Voivodeship"/>
  </node>
  <node id="613352718" version="4" timestamp="2010-04-11T11:54:30Z" uid="20587" user="balrog-kun" changeset="4392352" lat="54.10692" lon="22.80901">
    <tag k="is_in" v="gmina Suwałki, powiat suwalski, województwo podlaskie, Poland"/>
    <tag k="is_in:country" v="Poland"/>
    <tag k="is_in:county" v="powiat suwalski"/>
    <tag k="is_in:municipality" v="gmina Suwałki"/>
    <tag k="is_in:province" v="województwo podlaskie"/>
    <tag k="name" v="Korkliny"/>
    <tag k="place" v="village"/>
    <tag k="population" v="100"/>
    <tag k="source" v="http://ump.waw.pl/ retrieved 10:45:09 12/08/09 (UMP-Suwalki/src/cities-Suwalki.pnt-converted.txt)"/>
    <tag k="source:population" v="wikipedia"/>
    <tag k="teryt:rm" v="01"/>
    <tag k="teryt:simc" v="0768853"/>
    <tag k="teryt:stan_na" v="2009-01-01"/>
    <tag k="teryt:terc" v="2012072"/>
    <tag k="wikipedia" v="Korkliny"/>
  </node>
  <node id="613352719" version="2" timestamp="2010-04-11T11:54:30Z" uid="20587" user="balrog-kun" changeset="4392352" lat="54.12322" lon="22.8305">
    <tag k="name" v="Kuków-Folwark"/>
    <tag k="place" v="village"/>
    <tag k="source" v="http://ump.waw.pl/ retrieved 10:45:09 12/08/09 (UMP-Suwalki/src/cities-Suwalki.pnt-converted.txt)"/>
  </node>
  <node id="613352719" version="3" timestamp="2010-04-27T04:14:18Z" uid="30632" user="antblant" changeset="4537892" lat="54.12322" lon="22.8305">
    <tag k="name" v="Kuków-Folwark"/>
    <tag k="place" v="village"/>
    <tag k="source" v="http://ump.waw.pl/ retrieved 10:45:09 12/08/09 (UMP-Suwalki/src/cities-Suwalki.pnt-converted.txt)"/>
    <tag k="teryt:simc" v="0768899"/>
  </node>
  <node id="613352908" version="2" timestamp="2010-01-16T11:53:36Z" uid="8619" user="cetest" changeset="3630729" lat="18.5394073" lon="-72.3235855"/>
  <node id="613352908" version="3" timestamp="2010-01-16T12:46:55Z" uid="8619" user="cetest" changeset="3631064" lat="18.5395012" lon="-72.3235514"/>
  <node id="613352909" version="2" timestamp="2010-01-16T11:53:37Z" uid="8619" user="cetest" changeset="3630729" lat="18.5400191" lon="-72.3233432"/>
  <node id="613352910" version="2" timestamp="2010-01-16T12:46:56Z" uid="8619" user="cetest" changeset="3631064" lat="18.5415657" lon="-72.3226188"/>
  <node id="613352911" version="2" timestamp="2010-01-16T12:46:56Z" uid="8619" user="cetest" changeset="3631064" lat="18.5401653" lon="-72.323044"/>
  <node id="613352912" version="2" timestamp="2010-01-16T12:46:56Z" uid="8619" user="cetest" changeset="3631064" lat="18.5400385" lon="-72.3231523"/>
  <node id="613352913" version="2" timestamp="2010-01-16T12:46:56Z" uid="8619" user="cetest" changeset="3631064" lat="18.5401482" lon="-72.3234835"/>
  <node id="613352914" version="2" timestamp="2010-01-16T12:46:56Z" uid="8619" user="cetest" changeset="3631064" lat="18.5403002" lon="-72.3234796"/>
  <node id="613352915" version="2" timestamp="2010-01-16T12:46:56Z" uid="8619" user="cetest" changeset="3631064" lat="18.5417535" lon="-72.3230109"/>
  <node id="613352916" version="2" timestamp="2010-01-16T12:46:56Z" uid="8619" user="cetest" changeset="3631064" lat="18.5418542" lon="-72.3228338"/>
  <node id="613352917" version="2" timestamp="2010-01-16T12:46:56Z" uid="8619" user="cetest" changeset="3631064" lat="18.5418154" lon="-72.3226544"/>
  <node id="613352918" version="2" timestamp="2010-01-16T12:46:56Z" uid="8619" user="cetest" changeset="3631064" lat="18.5417192" lon="-72.322593"/>
  <node id="613352982" version="2" timestamp="2010-03-18T05:51:43Z" uid="30632" user="antblant" changeset="4158744" lat="54.15163" lon="22.54223">
    <tag k="source" v="http://ump.waw.pl/ retrieved 10:45:09 12/08/09 (UMP-Suwalki/src/SUWALKI.zielone.txt)"/>
  </node>
  <node id="613353458" version="3" timestamp="2010-04-11T11:54:30Z" uid="20587" user="balrog-kun" changeset="4392352" lat="54.16329" lon="22.57267">
    <tag k="is_in" v="gmina Filipów, powiat suwalski, województwo podlaskie, Poland"/>
    <tag k="is_in:country" v="Poland"/>
    <tag k="is_in:county" v="powiat suwalski"/>
    <tag k="is_in:municipality" v="gmina Filipów"/>
    <tag k="is_in:province" v="województwo podlaskie"/>
    <tag k="name" v="Mieruniszki"/>
    <tag k="place" v="village"/>
    <tag k="population" v="170"/>
    <tag k="source" v="http://ump.waw.pl/ retrieved 10:45:09 12/08/09 (UMP-Suwalki/src/cities-Suwalki.pnt-converted.txt)"/>
    <tag k="source:population" v="wikipedia"/>
    <tag k="teryt:rm" v="01"/>
    <tag k="teryt:simc" v="0757163"/>
    <tag k="teryt:stan_na" v="2009-01-01"/>
    <tag k="teryt:terc" v="2012022"/>
    <tag k="wikipedia" v="Mieruniszki"/>
  </node>
  <node id="613353705" version="2" timestamp="2010-03-21T02:06:16Z" uid="9719" user="dvaey" changeset="4186842" lat="-27.465182" lon="153.1021607"/>
  <node id="613353706" version="2" timestamp="2010-03-21T02:06:15Z" uid="9719" user="dvaey" changeset="4186842" lat="-27.4650302" lon="153.1022546"/>
  <node id="613353707" version="2" timestamp="2010-03-21T02:06:16Z" uid="9719" user="dvaey" changeset="4186842" lat="-27.465041" lon="153.1021795"/>
  <node id="613353709" version="2" timestamp="2010-03-21T02:06:15Z" uid="9719" user="dvaey" changeset="4186842" lat="-27.4648309" lon="153.1022217"/>
  <node id="613353710" version="2" timestamp="2010-03-21T02:06:15Z" uid="9719" user="dvaey" changeset="4186842" lat="-27.4647744" lon="153.1021614"/>
  <node id="613353711" version="2" timestamp="2010-03-21T02:06:15Z" uid="9719" user="dvaey" changeset="4186842" lat="-27.4648387" lon="153.1021714"/>
  <node id="613353788" version="3" timestamp="2010-04-11T11:54:31Z" uid="20587" user="balrog-kun" changeset="4392352" lat="54.17928" lon="22.62055">
    <tag k="is_in" v="gmina Filipów, powiat suwalski, województwo podlaskie, Poland"/>
    <tag k="is_in:country" v="Poland"/>
    <tag k="is_in:county" v="powiat suwalski"/>
    <tag k="is_in:municipality" v="gmina Filipów"/>
    <tag k="is_in:province" v="województwo podlaskie"/>
    <tag k="name" v="Filipów"/>
    <tag k="place" v="town"/>
    <tag k="population" v="2234"/>
    <tag k="source" v="http://ump.waw.pl/ retrieved 10:45:09 12/08/09 (UMP-Suwalki/src/cities-Suwalki.pnt-converted.txt)"/>
    <tag k="source:population" v="wikipedia"/>
    <tag k="teryt:rm" v="01"/>
    <tag k="teryt:simc" v="0757074"/>
    <tag k="teryt:stan_na" v="2009-01-01"/>
    <tag k="teryt:terc" v="2012022"/>
    <tag k="wikipedia" v="Filipów, Podlaskie Voivodeship"/>
  </node>
  <node id="613353808" version="3" timestamp="2010-04-11T11:54:31Z" uid="20587" user="balrog-kun" changeset="4392352" lat="54.14495" lon="22.68113">
    <tag k="addr:postcode" v="16-424"/>
    <tag k="is_in" v="gmina Filipów, powiat suwalski, województwo podlaskie, Poland"/>
    <tag k="is_in:county" v="powiat suwalski"/>
    <tag k="is_in:municipality" v="gmina Filipów"/>
    <tag k="is_in:province" v="województwo podlaskie"/>
    <tag k="name" v="Zusno"/>
    <tag k="place" v="village"/>
    <tag k="source" v="http://ump.waw.pl/ retrieved 10:45:09 12/08/09 (UMP-Suwalki/src/cities-Suwalki.pnt-converted.txt)"/>
    <tag k="wikipedia" v="Zusno"/>
  </node>
  <node id="613353808" version="4" timestamp="2010-04-27T04:17:15Z" uid="30632" user="antblant" changeset="4537905" lat="54.14495" lon="22.68113">
    <tag k="addr:postcode" v="16-424"/>
    <tag k="is_in" v="gmina Filipów, powiat suwalski, województwo podlaskie, Poland"/>
    <tag k="is_in:county" v="powiat suwalski"/>
    <tag k="is_in:municipality" v="gmina Filipów"/>
    <tag k="is_in:province" v="województwo podlaskie"/>
    <tag k="name" v="Zusno"/>
    <tag k="place" v="village"/>
    <tag k="source" v="http://ump.waw.pl/ retrieved 10:45:09 12/08/09 (UMP-Suwalki/src/cities-Suwalki.pnt-converted.txt)"/>
    <tag k="teryt:simc" v="0757306"/>
    <tag k="wikipedia" v="Zusno"/>
  </node>
  <node id="613353841" version="3" timestamp="2010-04-11T11:54:31Z" uid="20587" user="balrog-kun" changeset="4392352" lat="54.16602" lon="22.68087">
    <tag k="is_in" v="gmina Filipów, powiat suwalski, województwo podlaskie, Poland"/>
    <tag k="is_in:county" v="powiat suwalski"/>
    <tag k="is_in:municipality" v="gmina Filipów"/>
    <tag k="is_in:province" v="województwo podlaskie"/>
    <tag k="name" v="Olszanka"/>
    <tag k="place" v="village"/>
    <tag k="source" v="http://ump.waw.pl/ retrieved 10:45:09 12/08/09 (UMP-Suwalki/src/cities-Suwalki.pnt-converted.txt)"/>
    <tag k="wikipedia" v="Olszanka, Gmina Filipów"/>
  </node>
  <node id="613353842" version="2" timestamp="2010-04-11T11:54:31Z" uid="20587" user="balrog-kun" changeset="4392352" lat="54.16308" lon="22.70003">
    <tag k="name" v="Dębszczyzna Nowa"/>
    <tag k="place" v="village"/>
    <tag k="source" v="http://ump.waw.pl/ retrieved 10:45:09 12/08/09 (UMP-Suwalki/src/cities-Suwalki.pnt-converted.txt)"/>
  </node>
  <node id="613353854" version="2" timestamp="2010-04-11T11:54:31Z" uid="20587" user="balrog-kun" changeset="4392352" lat="54.16179" lon="22.72832">
    <tag k="name" v="Dębszczyzna Stara"/>
    <tag k="place" v="village"/>
    <tag k="source" v="http://ump.waw.pl/ retrieved 10:45:09 12/08/09 (UMP-Suwalki/src/cities-Suwalki.pnt-converted.txt)"/>
  </node>
  <node id="613354046" version="3" timestamp="2010-04-11T11:54:31Z" uid="20587" user="balrog-kun" changeset="4392352" lat="54.14495" lon="22.84507">
    <tag k="is_in" v="gmina Suwałki, powiat suwalski, województwo podlaskie, Poland"/>
    <tag k="is_in:country" v="Poland"/>
    <tag k="is_in:county" v="powiat suwalski"/>
    <tag k="is_in:municipality" v="gmina Suwałki"/>
    <tag k="is_in:province" v="województwo podlaskie"/>
    <tag k="name" v="Osowa"/>
    <tag k="place" v="village"/>
    <tag k="source" v="http://ump.waw.pl/ retrieved 10:45:09 12/08/09 (UMP-Suwalki/src/cities-Suwalki.pnt-converted.txt)"/>
    <tag k="teryt:rm" v="01"/>
    <tag k="teryt:simc" v="0769077"/>
    <tag k="teryt:stan_na" v="2009-01-01"/>
    <tag k="teryt:terc" v="2012072"/>
    <tag k="wikipedia" v="Osowa, Podlaskie Voivodeship"/>
  </node>
  <node id="613354446" version="2" timestamp="2010-01-14T15:09:31Z" uid="23543" user="jkjk" changeset="3617595" lat="18.6359361" lon="-72.2325618"/>
  <node id="613354519" version="9" timestamp="2011-03-09T05:32:09Z" uid="4467" user="Rosscoe" changeset="7500734" lat="-37.8376326" lon="144.9434299">
    <tag k="amenity" v="fast_food"/>
    <tag k="name" v="Shi Shi Asian Food"/>
  </node>
  <node id="613354748" version="6" timestamp="2011-03-09T05:32:18Z" uid="4467" user="Rosscoe" changeset="7500734" lat="-37.8376375" lon="144.9434249">
    <tag k="name" v="Elegant Slax"/>
    <tag k="shop" v="clothes"/>
  </node>
  <node id="613355043" version="12" timestamp="2011-03-09T05:32:07Z" uid="4467" user="Rosscoe" changeset="7500734" lat="-37.8376421" lon="144.9434209">
    <tag k="amenity" v="cafe"/>
    <tag k="name" v="Eurodore - Provedor, Kitchen, Cellar"/>
  </node>
  <node id="613355219" version="9" timestamp="2011-03-09T05:32:10Z" uid="4467" user="Rosscoe" changeset="7500734" lat="-37.8376348" lon="144.9434279">
    <tag k="FIXME" v="in middle of road! should it be on east side?"/>
    <tag k="amenity" v="cafe"/>
    <tag k="name" v="The Port Bake House"/>
  </node>
  <node id="613355469" version="9" timestamp="2011-03-09T05:32:09Z" uid="4467" user="Rosscoe" changeset="7500734" lat="-37.8376401" lon="144.9434229">
    <tag k="name" v="The Freedom  Machine"/>
    <tag k="shop" v="bicycle"/>
  </node>
  <node id="613355615" version="2" timestamp="2010-07-28T20:08:59Z" uid="74617" user="JohnSmith" changeset="5339329" lat="48.2176466" lon="16.3897179">
    <tag k="emergency" v="fire_hydrant"/>
  </node>
  <node id="613355615" version="3" timestamp="2010-07-30T17:46:50Z" uid="74617" user="JohnSmith" changeset="5356742" lat="48.2176466" lon="16.3897179">
    <tag k="amenity" v="fire_hydrant"/>
    <tag k="emergency" v="fire_hydrant"/>
  </node>
  <node id="613355882" version="9" timestamp="2011-03-09T05:32:24Z" uid="4467" user="Rosscoe" changeset="7500734" lat="-37.8376443" lon="144.9434199">
    <tag k="amenity" v="cafe"/>
    <tag k="name" v="Readings Books &amp; Music"/>
  </node>
</osm>
