<?xml version='1.0' encoding='UTF-8'?>
<osm version="0.6" generator="libosmium/2.20.0">
  <node id="620493453" version="2" timestamp="2010-07-30T07:30:38Z" uid="4467" user="Rosscoe" changeset="5352230" lat="-37.8805922" lon="145.164406">
    <tag k="name" v="Ray White Real Estate"/>
    <tag k="office" v="estate_agent"/>
    <tag k="website" v="http://www.raywhite.com.au/"/>
  </node>
  <node id="620493471" version="2" timestamp="2010-07-30T07:30:50Z" uid="4467" user="Rosscoe" changeset="5352230" lat="-37.8805785" lon="145.1643283">
    <tag k="name" v="First National Real Estate - Waverley City"/>
    <tag k="office" v="estate_agent"/>
    <tag k="website" v="http://www.waverleycity.com.au/"/>
  </node>
  <node id="620493485" version="2" timestamp="2010-07-30T07:30:46Z" uid="4467" user="Rosscoe" changeset="5352230" lat="-37.8802027" lon="145.1633278">
    <tag k="name" v="Judd White Real Estate"/>
    <tag k="office" v="estate_agent"/>
    <tag k="website" v="http://www.juddwhite.com.au/"/>
  </node>
  <node id="620493505" version="2" timestamp="2010-07-30T05:10:37Z" uid="4467" user="Rosscoe" changeset="5351735" lat="-37.8804292" lon="145.1639943">
    <tag k="amenity" v="pharmacy"/>
    <tag k="dispensing" v="yes"/>
    <tag k="name" v="National Pharmacies"/>
  </node>
  <node id="620499179" version="2" timestamp="2010-07-30T07:30:49Z" uid="4467" user="Rosscoe" changeset="5352230" lat="-37.8806197" lon="145.1645455">
    <tag k="name" v="Harcourts Real Estate"/>
    <tag k="office" v="estate_agent"/>
    <tag k="website" v="http://www.harcourts.com.au/"/>
  </node>
  <node id="620499184" version="2" timestamp="2010-07-30T05:21:22Z" uid="4467" user="Rosscoe" changeset="5351769" lat="-37.8806727" lon="145.164807">
    <tag k="name" v="M &amp; H Waverley Dry Cleaners"/>
    <tag k="shop" v="dry_cleaning"/>
  </node>
</osm>
