<?xml version='1.0' encoding='UTF-8'?>
<osm version="0.6" generator="libosmium/2.20.0">
  <node id="62050008" version="7" timestamp="2010-06-20T08:22:21Z" uid="9719" user="dvaey" changeset="5030397" lat="-35.3392896" lon="149.0874955"/>
  <node id="62050010" version="7" timestamp="2010-06-20T08:22:21Z" uid="9719" user="dvaey" changeset="5030397" lat="-35.3385988" lon="149.0872756"/>
  <node id="62054879" version="9" timestamp="2010-07-06T08:46:14Z" uid="4467" user="Rosscoe" changeset="5148386" lat="-35.3509691" lon="149.085329">
    <tag k="BP:address" v="166 Melrose Dr, Phillip ACT 2606"/>
    <tag k="BP:location_id" v="2222"/>
    <tag k="addr:city" v="Phillip"/>
    <tag k="addr:country" v="AU"/>
    <tag k="addr:housenumber" v="166"/>
    <tag k="addr:postcode" v="2606"/>
    <tag k="addr:state" v="ACT"/>
    <tag k="addr:street" v="Melrose Drive"/>
    <tag k="amenity" v="fuel"/>
    <tag k="amenity:atm" v="yes"/>
    <tag k="amenity:carwash" v="no"/>
    <tag k="amenity:cleango" v="no"/>
    <tag k="amenity:eftpos" v="yes"/>
    <tag k="amenity:express" v="yes"/>
    <tag k="amenity:restaurant" v="no"/>
    <tag k="amenity:superwash" v="no"/>
    <tag k="amenity:toilets" v="yes"/>
    <tag k="amenity:truck_stop" v="no"/>
    <tag k="fixme" v="not_reviewed"/>
    <tag k="fuel:GTL_diesel" v="no"/>
    <tag k="fuel:diesel" v="yes"/>
    <tag k="fuel:e10" v="yes"/>
    <tag k="fuel:lpg" v="yes"/>
    <tag k="fuel:octane_91" v="yes"/>
    <tag k="fuel:octane_95" v="no"/>
    <tag k="fuel:octane_98" v="yes"/>
    <tag k="name" v="BP Express Phillip"/>
    <tag k="opening_hours" v="24/7"/>
    <tag k="operator" v="BP"/>
    <tag k="phone" v="+61-2-6281-2633"/>
    <tag k="rent:lpg_bottles" v="yes"/>
    <tag k="rent:trailers" v="yes"/>
    <tag k="source" v="bp.com"/>
  </node>
  <node id="62056275" version="2" timestamp="2008-03-30T00:58:50Z" uid="16922" user="amai" changeset="424425" lat="49.9228201" lon="8.8912306">
    <tag k="created_by" v="JOSM"/>
    <tag k="railway" v="level_crossing"/>
  </node>
  <node id="62056279" version="2" timestamp="2008-03-30T00:57:56Z" uid="16922" user="amai" changeset="424425" lat="49.9213269" lon="8.8913502">
    <tag k="created_by" v="JOSM"/>
    <tag k="highway" v="traffic_signals"/>
  </node>
  <node id="62056362" version="7" timestamp="2008-11-16T17:40:59Z" uid="16922" user="amai" changeset="755946" lat="49.8657211" lon="8.9304647"/>
  <node id="62056362" version="8" timestamp="2008-11-16T20:55:57Z" uid="16922" user="amai" changeset="756841" lat="49.8657211" lon="8.9304647"/>
  <node id="62056912" version="5" timestamp="2010-04-26T19:07:26Z" uid="9581" user="Lobelt" changeset="4534890" lat="49.7191078" lon="9.2272566"/>
  <node id="62057218" version="9" timestamp="2010-01-08T21:44:18Z" uid="9581" user="Lobelt" changeset="3573936" lat="49.7867755" lon="9.0485681"/>
  <node id="62057237" version="9" timestamp="2010-01-08T21:44:18Z" uid="9581" user="Lobelt" changeset="3573936" lat="49.7855522" lon="9.0484988"/>
  <node id="62057242" version="9" timestamp="2010-01-08T21:44:18Z" uid="9581" user="Lobelt" changeset="3573936" lat="49.7841122" lon="9.0493592"/>
  <node id="62057245" version="8" timestamp="2010-01-08T21:44:18Z" uid="9581" user="Lobelt" changeset="3573936" lat="49.7833452" lon="9.0496585"/>
  <node id="62057251" version="8" timestamp="2010-01-08T21:44:18Z" uid="9581" user="Lobelt" changeset="3573936" lat="49.7820223" lon="9.0507076"/>
  <node id="62057255" version="7" timestamp="2010-01-08T21:44:18Z" uid="9581" user="Lobelt" changeset="3573936" lat="49.7815954" lon="9.0509599"/>
  <node id="62057256" version="8" timestamp="2010-01-08T21:44:18Z" uid="9581" user="Lobelt" changeset="3573936" lat="49.7810555" lon="9.0510022"/>
  <node id="62057259" version="7" timestamp="2010-01-08T21:44:14Z" uid="9581" user="Lobelt" changeset="3573936" lat="49.7774636" lon="9.0506712"/>
  <node id="62057264" version="7" timestamp="2010-01-08T21:44:14Z" uid="9581" user="Lobelt" changeset="3573936" lat="49.7768595" lon="9.0507954"/>
  <node id="62057269" version="7" timestamp="2010-01-08T21:44:14Z" uid="9581" user="Lobelt" changeset="3573936" lat="49.7757556" lon="9.0519118"/>
</osm>
