<?xml version='1.0' encoding='UTF-8'?>
<osm version="0.6" generator="libosmium/2.20.0">
  <node id="621760141" version="3" timestamp="2010-07-22T09:11:13Z" uid="74617" user="JohnSmith" changeset="5285326" lat="-35.1460864" lon="147.3797676">
    <tag k="amenity" v="telephone"/>
    <tag k="name" v="Telstra payphone"/>
  </node>
  <node id="621761476" version="2" timestamp="2010-07-28T22:37:46Z" uid="74617" user="JohnSmith" changeset="5342542" lat="-35.1433813" lon="147.3808413">
    <tag k="amenity" v="school"/>
    <tag k="name" v="Kooringal High School"/>
  </node>
  <node id="621764767" version="3" timestamp="2010-07-22T09:11:14Z" uid="74617" user="JohnSmith" changeset="5285326" lat="-35.1462451" lon="147.3799092">
    <tag k="name" v="Ziegler Avenue Store"/>
    <tag k="shop" v="convenience"/>
  </node>
  <node id="621766109" version="2" timestamp="2010-07-23T04:45:16Z" uid="74617" user="JohnSmith" changeset="5292471" lat="-35.1454529" lon="147.3741178">
    <tag k="amenity" v="telephone"/>
    <tag k="name" v="Telstra payphone"/>
  </node>
  <node id="621768164" version="2" timestamp="2010-07-28T20:09:54Z" uid="74617" user="JohnSmith" changeset="5339329" lat="60.2160061" lon="24.9512553">
    <tag k="diameter" v="150"/>
    <tag k="emergency" v="fire_hydrant"/>
    <tag k="location" v="underground"/>
  </node>
  <node id="621768164" version="3" timestamp="2010-07-30T17:41:52Z" uid="74617" user="JohnSmith" changeset="5356742" lat="60.2160061" lon="24.9512553">
    <tag k="amenity" v="fire_hydrant"/>
    <tag k="diameter" v="150"/>
    <tag k="emergency" v="fire_hydrant"/>
    <tag k="location" v="underground"/>
  </node>
  <node id="621768263" version="2" timestamp="2011-04-17T10:58:31Z" uid="7617" user="Franc" changeset="7885236" lat="-35.1356421" lon="147.3764297">
    <tag k="amenity" v="telephone"/>
    <tag k="name" v="Telstra payphone"/>
  </node>
  <node id="621768886" version="2" timestamp="2010-07-28T22:37:47Z" uid="74617" user="JohnSmith" changeset="5342542" lat="-35.1363276" lon="147.376809">
    <tag k="amenity" v="school"/>
    <tag k="name" v="Sturt Public School"/>
  </node>
</osm>
