<?xml version='1.0' encoding='UTF-8'?>
<osm version="0.6" generator="libosmium/2.20.0">
  <node id="62505581" version="12" timestamp="2009-07-22T18:42:32Z" uid="20587" user="balrog-kun" changeset="1907934" lat="45.4666211" lon="9.1906166">
    <tag k="gfoss_id" v="1844"/>
    <tag k="is_in" v="Milano, Lombardia, Italy"/>
    <tag k="is_in:continent" v="Europe"/>
    <tag k="loc_name" v="Milán"/>
    <tag k="name" v="Milano"/>
    <tag k="name:de" v="Mailand"/>
    <tag k="name:en" v="Milan"/>
    <tag k="name:es" v="Milán"/>
    <tag k="name:fi" v="Milano"/>
    <tag k="name:fr" v="Milan"/>
    <tag k="name:he" v="מילנו"/>
    <tag k="name:hu" v="Milánó"/>
    <tag k="name:it" v="Milano"/>
    <tag k="name:la" v="Mediolanum"/>
    <tag k="name:nl" v="Milaan"/>
    <tag k="name:pl" v="Mediolan"/>
    <tag k="name:pt" v="Milão"/>
    <tag k="name:ru" v="Милан"/>
    <tag k="name:za" v="Milaan"/>
    <tag k="place" v="city"/>
    <tag k="population" v="1256211"/>
    <tag k="source" v="geodati.gfoss.it"/>
    <tag k="wikipedia" v="Milan"/>
  </node>
  <node id="62505587" version="3" timestamp="2009-07-25T22:01:28Z" uid="123700" user="Mala" changeset="1939174" lat="45.697981" lon="9.668953">
    <tag k="gfoss_id" v="1950"/>
    <tag k="is_in" v="Bergamo, Lombardia, Italy"/>
    <tag k="is_in:continent" v="Europe"/>
    <tag k="name" v="Bergamo"/>
    <tag k="name:es" v="Bérgamo"/>
    <tag k="name:pt" v="Bérgamo"/>
    <tag k="place" v="city"/>
    <tag k="population" v="113143"/>
    <tag k="source" v="geodati.gfoss.it"/>
  </node>
  <node id="62505592" version="6" timestamp="2009-07-25T22:01:27Z" uid="123700" user="Mala" changeset="1939174" lat="45.8104263" lon="9.0856221">
    <tag k="gfoss_id" v="1550"/>
    <tag k="is_in" v="Como, Lombardia, Italy"/>
    <tag k="is_in:continent" v="Europe"/>
    <tag k="name" v="Como"/>
    <tag k="name:fr" v="Côme"/>
    <tag k="place" v="city"/>
    <tag k="population" v="78680"/>
    <tag k="source" v="geodati.gfoss.it"/>
    <tag k="wikipedia" v="Como"/>
  </node>
  <node id="62505595" version="4" timestamp="2009-07-25T22:01:23Z" uid="123700" user="Mala" changeset="1939174" lat="45.1361716" lon="10.0279691">
    <tag k="gfoss_id" v="2602"/>
    <tag k="is_in" v="Cremona, Lombardia, Italy"/>
    <tag k="is_in:continent" v="Europe"/>
    <tag k="name" v="Cremona"/>
    <tag k="name:fr" v="Crémone"/>
    <tag k="place" v="city"/>
    <tag k="population" v="70887"/>
    <tag k="postal_code" v="26100"/>
    <tag k="source" v="geodati.gfoss.it"/>
    <tag k="wikipedia" v="Cremona"/>
  </node>
  <node id="62505610" version="5" timestamp="2009-07-22T18:51:32Z" uid="20587" user="balrog-kun" changeset="1908051" lat="45.1607439" lon="10.7954342">
    <tag k="gfoss_id" v="2711"/>
    <tag k="is_in" v="Mantova, Lombardia, Italy"/>
    <tag k="is_in:continent" v="Europe"/>
    <tag k="name" v="Mantova"/>
    <tag k="name:ar" v="مانتوفا"/>
    <tag k="name:en" v="Mantua"/>
    <tag k="name:es" v="Mantua"/>
    <tag k="name:fr" v="Mantoue"/>
    <tag k="name:la" v="Mantua"/>
    <tag k="name:nl" v="Mantua"/>
    <tag k="name:pl" v="Mantua"/>
    <tag k="name:ru" v="Мантуя"/>
    <tag k="place" v="city"/>
    <tag k="population" v="47790"/>
    <tag k="source" v="geodati.gfoss.it"/>
    <tag k="wikipedia" v="Mantua"/>
  </node>
  <node id="62505612" version="6" timestamp="2009-07-25T15:08:21Z" uid="123700" user="Mala" changeset="1935220" lat="45.1860042" lon="9.1546376">
    <tag k="gfoss_id" v="2486"/>
    <tag k="is_in" v="Pavia, Lombardia, Italy"/>
    <tag k="is_in:continent" v="Europe"/>
    <tag k="name" v="Pavia"/>
    <tag k="name:es" v="Pavía"/>
    <tag k="name:fr" v="Pavie"/>
    <tag k="name:pl" v="Pawia"/>
    <tag k="place" v="city"/>
    <tag k="population" v="71214"/>
    <tag k="source" v="geodati.gfoss.it"/>
    <tag k="wikipedia" v="Pavia"/>
  </node>
  <node id="62505628" version="4" timestamp="2009-07-25T22:01:27Z" uid="123700" user="Mala" changeset="1939174" lat="45.8185641" lon="8.8237491">
    <tag k="gfoss_id" v="1489"/>
    <tag k="is_in" v="Varese, Lombardia, Italy"/>
    <tag k="is_in:continent" v="Europe"/>
    <tag k="name" v="Varese"/>
    <tag k="name:fr" v="Varèse"/>
    <tag k="place" v="city"/>
    <tag k="population" v="80511"/>
    <tag k="source" v="geodati.gfoss.it"/>
    <tag k="wikipedia" v="Varese"/>
  </node>
</osm>
