<?xml version='1.0' encoding='UTF-8'?>
<osm version="0.6" generator="libosmium/2.20.0">
  <node id="626135981" version="3" timestamp="2011-02-01T20:29:26Z" uid="115477" user="wowik" changeset="7158878" lat="57.7609392" lon="37.4296638">
    <tag k="addr:country" v="RU"/>
    <tag k="addr:district" v="Сонковский район"/>
    <tag k="addr:postcode" v="171457"/>
    <tag k="addr:region" v="Тверская область"/>
    <tag k="cladr:code" v="6903000013400"/>
    <tag k="cladr:name" v="Пуршево"/>
    <tag k="cladr:suffix" v="Деревня"/>
    <tag k="name" v="Пуршево"/>
    <tag k="place" v="hamlet"/>
  </node>
  <node id="626135988" version="2" timestamp="2011-02-01T20:29:20Z" uid="115477" user="wowik" changeset="7158878" lat="57.7453634" lon="37.4513313">
    <tag k="name" v="Василевo"/>
    <tag k="place" v="hamlet"/>
  </node>
  <node id="626135995" version="2" timestamp="2011-02-01T20:29:24Z" uid="115477" user="wowik" changeset="7158878" lat="57.7457737" lon="37.5501467">
    <tag k="name" v="Фоминская"/>
    <tag k="place" v="hamlet"/>
  </node>
</osm>
