<?xml version='1.0' encoding='UTF-8'?>
<osm version="0.6" generator="libosmium/2.20.0">
  <node id="63253652" version="4" timestamp="2008-08-14T22:23:08Z" uid="6975" user="ulfl" changeset="264731" lat="52.4986196" lon="13.2984875">
    <tag k="amenity" v="restaurant"/>
    <tag k="cuisine" v="greek"/>
    <tag k="name" v="Ach!NikO!Ach!"/>
    <tag k="wlan" v="yes"/>
  </node>
  <node id="63253659" version="3" timestamp="2008-08-14T22:23:08Z" uid="6975" user="ulfl" changeset="264731" lat="52.4986642" lon="13.2987637">
    <tag k="amenity" v="restaurant"/>
    <tag k="cuisine" v="greek"/>
    <tag k="name" v="Taverna Makis"/>
  </node>
  <node id="63255076" version="2" timestamp="2008-02-16T20:18:05Z" uid="6975" user="ulfl" changeset="141861" lat="46.7133593" lon="-92.1041826">
    <tag k="highway" v="traffic_signals"/>
  </node>
  <node id="63255083" version="2" timestamp="2008-02-16T20:18:06Z" uid="6975" user="ulfl" changeset="141861" lat="46.706188" lon="-92.1039986">
    <tag k="highway" v="traffic_signals"/>
  </node>
</osm>
