<?xml version='1.0' encoding='UTF-8'?>
<osm version="0.6" generator="libosmium/2.20.0">
  <node id="633190677" version="2" timestamp="2010-04-11T11:54:38Z" uid="20587" user="balrog-kun" changeset="4392352" lat="52.7675" lon="16.2979475">
    <tag k="is_in" v="Polska"/>
    <tag k="name" v="Rzecin"/>
    <tag k="place" v="hamlet"/>
  </node>
  <node id="633190677" version="3" timestamp="2010-04-27T04:11:03Z" uid="30632" user="antblant" changeset="4537882" lat="52.7675" lon="16.2979475">
    <tag k="is_in" v="Polska"/>
    <tag k="name" v="Rzecin"/>
    <tag k="place" v="hamlet"/>
    <tag k="teryt:simc" v="0533140"/>
  </node>
  <node id="633190830" version="2" timestamp="2010-04-11T11:54:38Z" uid="20587" user="balrog-kun" changeset="4392352" lat="52.8212126" lon="16.2493843">
    <tag k="is_in" v="Polska"/>
    <tag k="name" v="Mężyk"/>
    <tag k="name:en" v="Mezyk"/>
    <tag k="place" v="hamlet"/>
  </node>
  <node id="633190830" version="3" timestamp="2010-04-27T03:59:33Z" uid="30632" user="antblant" changeset="4537857" lat="52.8212126" lon="16.2493843">
    <tag k="is_in" v="Polska"/>
    <tag k="name" v="Mężyk"/>
    <tag k="name:en" v="Mezyk"/>
    <tag k="place" v="hamlet"/>
    <tag k="teryt:simc" v="0532553"/>
  </node>
  <node id="633191315" version="2" timestamp="2010-07-26T02:03:04Z" uid="20587" user="balrog-kun" changeset="5317852" lat="52.7551919" lon="16.9171037"/>
  <node id="633191316" version="2" timestamp="2010-07-26T02:03:17Z" uid="20587" user="balrog-kun" changeset="5317852" lat="52.7525762" lon="16.9235357"/>
  <node id="633191317" version="2" timestamp="2010-07-26T02:02:00Z" uid="20587" user="balrog-kun" changeset="5317852" lat="52.7496426" lon="16.9310484"/>
  <node id="633191374" version="2" timestamp="2010-04-11T11:54:38Z" uid="20587" user="balrog-kun" changeset="4392352" lat="52.7958821" lon="16.8704534">
    <tag k="is_in" v="Polska"/>
    <tag k="name" v="Ninino"/>
    <tag k="place" v="village"/>
  </node>
  <node id="633191374" version="3" timestamp="2010-04-27T04:09:30Z" uid="30632" user="antblant" changeset="4537879" lat="52.7958821" lon="16.8704534">
    <tag k="is_in" v="Polska"/>
    <tag k="name" v="Ninino"/>
    <tag k="place" v="village"/>
    <tag k="teryt:simc" v="0529404"/>
  </node>
  <node id="633191424" version="2" timestamp="2011-03-29T12:11:33Z" uid="4467" user="Rosscoe" changeset="7706227" lat="-38.064857" lon="144.3723735"/>
  <node id="633191425" version="2" timestamp="2010-04-11T11:54:38Z" uid="20587" user="balrog-kun" changeset="4392352" lat="52.7900974" lon="16.831243">
    <tag k="is_in" v="Polska"/>
    <tag k="name" v="Gorzewo"/>
    <tag k="place" v="village"/>
  </node>
  <node id="633191452" version="2" timestamp="2011-03-29T12:11:33Z" uid="4467" user="Rosscoe" changeset="7706227" lat="-38.0648188" lon="144.3723685"/>
  <node id="633191464" version="2" timestamp="2011-03-29T12:11:37Z" uid="4467" user="Rosscoe" changeset="7706227" lat="-38.0647068" lon="144.3727107"/>
  <node id="633191468" version="2" timestamp="2011-03-29T12:11:34Z" uid="4467" user="Rosscoe" changeset="7706227" lat="-38.0644624" lon="144.37253"/>
  <node id="633191474" version="2" timestamp="2011-03-29T12:11:37Z" uid="4467" user="Rosscoe" changeset="7706227" lat="-38.0645186" lon="144.3725507"/>
  <node id="633191482" version="2" timestamp="2011-03-29T12:11:34Z" uid="4467" user="Rosscoe" changeset="7706227" lat="-38.064822" lon="144.3726948"/>
  <node id="633191484" version="2" timestamp="2011-03-29T12:11:32Z" uid="4467" user="Rosscoe" changeset="7706227" lat="-38.0647121" lon="144.3727563">
    <tag k="highway" v="turning_circle"/>
  </node>
  <node id="633191503" version="2" timestamp="2011-03-29T12:11:34Z" uid="4467" user="Rosscoe" changeset="7706227" lat="-38.0647669" lon="144.3730823"/>
  <node id="633191518" version="2" timestamp="2011-03-29T12:11:37Z" uid="4467" user="Rosscoe" changeset="7706227" lat="-38.0644563" lon="144.3728165"/>
  <node id="633191542" version="3" timestamp="2010-04-11T11:54:38Z" uid="20587" user="balrog-kun" changeset="4392352" lat="52.8125184" lon="16.8325798">
    <tag k="is_in" v="Polska"/>
    <tag k="name" v="Ryczywół"/>
    <tag k="name:en" v="Ryczywol"/>
    <tag k="place" v="village"/>
  </node>
  <node id="633191553" version="2" timestamp="2010-04-11T11:54:38Z" uid="20587" user="balrog-kun" changeset="4392352" lat="52.8206034" lon="16.8610301">
    <tag k="is_in" v="Polska"/>
    <tag k="name" v="Zawady"/>
    <tag k="place" v="village"/>
  </node>
  <node id="633192091" version="2" timestamp="2010-04-11T11:54:38Z" uid="20587" user="balrog-kun" changeset="4392352" lat="52.8362519" lon="16.7406004">
    <tag k="is_in" v="Polska"/>
    <tag k="name" v="Piotrowo"/>
    <tag k="place" v="village"/>
  </node>
  <node id="633192272" version="2" timestamp="2010-04-11T11:54:38Z" uid="20587" user="balrog-kun" changeset="4392352" lat="52.8515381" lon="16.7490085">
    <tag k="is_in" v="Polska"/>
    <tag k="name" v="Radom"/>
    <tag k="place" v="village"/>
  </node>
  <node id="633192525" version="3" timestamp="2010-04-11T11:54:38Z" uid="20587" user="balrog-kun" changeset="4392352" lat="52.8206604" lon="16.7263835">
    <tag k="is_in" v="Polska"/>
    <tag k="name" v="Połajewko"/>
    <tag k="name:en" v="Polajewko"/>
    <tag k="place" v="village"/>
  </node>
  <node id="633192525" version="4" timestamp="2010-04-27T04:11:03Z" uid="30632" user="antblant" changeset="4537882" lat="52.8206604" lon="16.7263835">
    <tag k="is_in" v="Polska"/>
    <tag k="name" v="Połajewko"/>
    <tag k="name:en" v="Polajewko"/>
    <tag k="place" v="village"/>
    <tag k="teryt:simc" v="0528801"/>
  </node>
  <node id="633192794" version="2" timestamp="2010-04-11T11:54:38Z" uid="20587" user="balrog-kun" changeset="4392352" lat="52.8433333" lon="16.7054463">
    <tag k="is_in" v="Polska"/>
    <tag k="name" v="Przybychowo"/>
    <tag k="place" v="village"/>
  </node>
  <node id="633192794" version="3" timestamp="2010-04-27T04:06:11Z" uid="30632" user="antblant" changeset="4537871" lat="52.8433333" lon="16.7054463">
    <tag k="is_in" v="Polska"/>
    <tag k="name" v="Przybychowo"/>
    <tag k="place" v="village"/>
    <tag k="teryt:simc" v="0528818"/>
  </node>
  <node id="633193218" version="2" timestamp="2010-04-11T11:54:38Z" uid="20587" user="balrog-kun" changeset="4392352" lat="52.8098404" lon="16.6833579">
    <tag k="is_in" v="Polska"/>
    <tag k="name" v="Krosinek"/>
    <tag k="place" v="village"/>
  </node>
  <node id="633193218" version="3" timestamp="2010-04-27T04:07:16Z" uid="30632" user="antblant" changeset="4537875" lat="52.8098404" lon="16.6833579">
    <tag k="is_in" v="Polska"/>
    <tag k="name" v="Krosinek"/>
    <tag k="place" v="village"/>
    <tag k="teryt:simc" v="0528741"/>
  </node>
  <node id="633193245" version="2" timestamp="2010-04-11T11:54:39Z" uid="20587" user="balrog-kun" changeset="4392352" lat="52.791482" lon="16.6716343">
    <tag k="is_in" v="Polska"/>
    <tag k="name" v="Krosin"/>
    <tag k="place" v="village"/>
  </node>
  <node id="633193245" version="3" timestamp="2010-04-27T04:01:25Z" uid="30632" user="antblant" changeset="4537859" lat="52.791482" lon="16.6716343">
    <tag k="is_in" v="Polska"/>
    <tag k="name" v="Krosin"/>
    <tag k="place" v="village"/>
    <tag k="teryt:simc" v="0528706"/>
  </node>
  <node id="633193458" version="2" timestamp="2010-04-11T11:54:39Z" uid="20587" user="balrog-kun" changeset="4392352" lat="52.8088749" lon="16.635142">
    <tag k="is_in" v="Polska"/>
    <tag k="name" v="Młynkowo"/>
    <tag k="name:en" v="Mlynkowo"/>
    <tag k="place" v="village"/>
  </node>
  <node id="633194583" version="2" timestamp="2010-04-11T11:54:39Z" uid="20587" user="balrog-kun" changeset="4392352" lat="52.7265563" lon="16.9115683">
    <tag k="is_in" v="Polska"/>
    <tag k="name" v="Wełna"/>
    <tag k="name:en" v="Welna"/>
    <tag k="place" v="village"/>
  </node>
  <node id="633199200" version="2" timestamp="2010-04-11T11:54:39Z" uid="20587" user="balrog-kun" changeset="4392352" lat="52.7996544" lon="16.7341614">
    <tag k="is_in" v="Polska"/>
    <tag k="name" v="Połajewo"/>
    <tag k="name:en" v="Polajewo"/>
    <tag k="place" v="village"/>
  </node>
  <node id="633199955" version="2" timestamp="2010-04-11T11:54:39Z" uid="20587" user="balrog-kun" changeset="4392352" lat="52.8678707" lon="16.6813217">
    <tag k="is_in" v="Polska"/>
    <tag k="name" v="Huta"/>
    <tag k="place" v="village"/>
  </node>
</osm>
