<?xml version='1.0' encoding='UTF-8'?>
<osm version="0.6" generator="libosmium/2.20.0">
  <node id="635944429" version="2" timestamp="2010-07-01T17:34:22Z" uid="49111" user="Markus B" changeset="5122260" lat="49.45138" lon="11.0695166">
    <tag k="addr:city" v="Nürnberg"/>
    <tag k="addr:country" v="DE"/>
    <tag k="addr:housenumber" v="38"/>
    <tag k="addr:postcode" v="90402"/>
    <tag k="addr:street" v="Karl-Grillenberger-Straße"/>
    <tag k="amenity" v="bar"/>
    <tag k="name" v="Prinzenbar"/>
    <tag k="opening_hours" v="19:00-04:00"/>
    <tag k="smoking" v="no"/>
    <tag k="smoking:outside" v="yes"/>
  </node>
  <node id="635944429" version="3" timestamp="2010-07-01T19:46:02Z" uid="49111" user="Markus B" changeset="5123185" lat="49.45138" lon="11.0695166">
    <tag k="addr:city" v="Nürnberg"/>
    <tag k="addr:country" v="DE"/>
    <tag k="addr:housenumber" v="36"/>
    <tag k="addr:postcode" v="90402"/>
    <tag k="addr:street" v="Karl-Grillenberger-Straße"/>
    <tag k="amenity" v="bar"/>
    <tag k="name" v="Prinzenbar"/>
    <tag k="opening_hours" v="19:00-04:00"/>
    <tag k="smoking" v="no"/>
    <tag k="smoking:outside" v="yes"/>
    <tag k="website" v="http://prinzenbar.de"/>
  </node>
</osm>
