<?xml version='1.0' encoding='UTF-8'?>
<osm version="0.6" generator="libosmium/2.20.0">
  <node id="636120322" version="2" timestamp="2010-04-11T11:54:49Z" uid="20587" user="balrog-kun" changeset="4392352" lat="49.45753" lon="21.53782">
    <tag k="name" v="Huta Polańska"/>
    <tag k="place" v="village"/>
    <tag k="source" v="http://ump.waw.pl/ retrieved 15:56:07 01/18/10 (UMP-NowySacz/src/cities-NowySacz.pnt-converted.txt)"/>
  </node>
  <node id="636120322" version="3" timestamp="2010-04-11T13:18:36Z" uid="20587" user="balrog-kun" changeset="4392352" lat="49.45753" lon="21.53782">
    <tag k="name" v="Huta Polańska"/>
    <tag k="place" v="village"/>
    <tag k="source" v="http://ump.waw.pl/ retrieved 15:56:07 01/18/10 (UMP-NowySacz/src/cities-NowySacz.pnt-converted.txt)"/>
  </node>
  <node id="636120322" version="4" timestamp="2010-04-27T04:01:10Z" uid="30632" user="antblant" changeset="4537859" lat="49.45753" lon="21.53782">
    <tag k="name" v="Huta Polańska"/>
    <tag k="place" v="village"/>
    <tag k="source" v="http://ump.waw.pl/ retrieved 15:56:07 01/18/10 (UMP-NowySacz/src/cities-NowySacz.pnt-converted.txt)"/>
    <tag k="teryt:simc" v="0355520"/>
  </node>
  <node id="636120892" version="2" timestamp="2010-04-22T22:31:58Z" uid="30632" user="antblant" changeset="4499640" lat="49.5171006" lon="21.4463049">
    <tag k="name" v="Świątkowa Mała"/>
    <tag k="place" v="village"/>
    <tag k="source" v="http://ump.waw.pl/ retrieved 15:56:07 01/18/10 (UMP-NowySacz/src/cities-NowySacz.pnt-converted.txt)"/>
  </node>
  <node id="636120892" version="3" timestamp="2010-04-27T03:56:03Z" uid="30632" user="antblant" changeset="4537843" lat="49.5171006" lon="21.4463049">
    <tag k="name" v="Świątkowa Mała"/>
    <tag k="place" v="village"/>
    <tag k="source" v="http://ump.waw.pl/ retrieved 15:56:07 01/18/10 (UMP-NowySacz/src/cities-NowySacz.pnt-converted.txt)"/>
    <tag k="teryt:simc" v="0355536"/>
  </node>
  <node id="636121024" version="3" timestamp="2010-04-11T11:54:49Z" uid="20587" user="balrog-kun" changeset="4392352" lat="49.5176947" lon="21.4857837">
    <tag k="name" v="Kotań"/>
    <tag k="place" v="village"/>
    <tag k="source" v="http://ump.waw.pl/ retrieved 15:56:07 01/18/10 (UMP-NowySacz/src/cities-NowySacz.pnt-converted.txt)"/>
  </node>
  <node id="636121024" version="4" timestamp="2010-04-11T13:18:36Z" uid="20587" user="balrog-kun" changeset="4392352" lat="49.5156096" lon="21.4909838">
    <tag k="name" v="Kotań"/>
    <tag k="place" v="village"/>
    <tag k="source" v="http://ump.waw.pl/ retrieved 15:56:07 01/18/10 (UMP-NowySacz/src/cities-NowySacz.pnt-converted.txt)"/>
  </node>
  <node id="636121024" version="5" timestamp="2010-04-27T04:12:13Z" uid="30632" user="antblant" changeset="4537887" lat="49.5156096" lon="21.4909838">
    <tag k="name" v="Kotań"/>
    <tag k="place" v="village"/>
    <tag k="source" v="http://ump.waw.pl/ retrieved 15:56:07 01/18/10 (UMP-NowySacz/src/cities-NowySacz.pnt-converted.txt)"/>
    <tag k="teryt:simc" v="0355341"/>
  </node>
  <node id="636121468" version="2" timestamp="2010-04-11T11:54:49Z" uid="20587" user="balrog-kun" changeset="4392352" lat="49.51112" lon="21.50424">
    <tag k="name" v="Krempna"/>
    <tag k="place" v="village"/>
    <tag k="source" v="http://ump.waw.pl/ retrieved 15:56:07 01/18/10 (UMP-NowySacz/src/cities-NowySacz.pnt-converted.txt)"/>
  </node>
  <node id="636121468" version="3" timestamp="2010-04-11T13:18:36Z" uid="20587" user="balrog-kun" changeset="4392352" lat="49.51112" lon="21.50424">
    <tag k="name" v="Krempna"/>
    <tag k="place" v="village"/>
    <tag k="source" v="http://ump.waw.pl/ retrieved 15:56:07 01/18/10 (UMP-NowySacz/src/cities-NowySacz.pnt-converted.txt)"/>
  </node>
  <node id="636121468" version="4" timestamp="2010-04-27T04:07:50Z" uid="30632" user="antblant" changeset="4537875" lat="49.51112" lon="21.50424">
    <tag k="name" v="Krempna"/>
    <tag k="place" v="village"/>
    <tag k="source" v="http://ump.waw.pl/ retrieved 15:56:07 01/18/10 (UMP-NowySacz/src/cities-NowySacz.pnt-converted.txt)"/>
    <tag k="teryt:simc" v="0355358"/>
  </node>
</osm>
