<?xml version='1.0' encoding='UTF-8'?>
<osm version="0.6" generator="libosmium/2.20.0">
  <node id="63621589" version="10" timestamp="2009-07-22T18:51:32Z" uid="20587" user="balrog-kun" changeset="1908051" lat="45.0716862" lon="7.6731473">
    <tag k="gfoss_id" v="272"/>
    <tag k="is_in" v="Torino, Piemonte, Italy"/>
    <tag k="is_in:continent" v="Europe"/>
    <tag k="name" v="Torino"/>
    <tag k="name:en" v="Turin"/>
    <tag k="name:pl" v="Turyn"/>
    <tag k="place" v="city"/>
    <tag k="population" v="865263"/>
    <tag k="source" v="geodati.gfoss.it"/>
    <tag k="wikipedia" v="Turin"/>
  </node>
  <node id="63621589" version="11" timestamp="2009-07-25T22:01:29Z" uid="123700" user="Mala" changeset="1939174" lat="45.0716862" lon="7.6731473">
    <tag k="gfoss_id" v="272"/>
    <tag k="is_in" v="Torino, Piemonte, Italy"/>
    <tag k="is_in:continent" v="Europe"/>
    <tag k="name" v="Torino"/>
    <tag k="name:en" v="Turin"/>
    <tag k="name:es" v="Turín"/>
    <tag k="name:fi" v="Torino"/>
    <tag k="name:fr" v="Turin"/>
    <tag k="name:pl" v="Turyn"/>
    <tag k="name:pt" v="Turim"/>
    <tag k="place" v="city"/>
    <tag k="population" v="865263"/>
    <tag k="source" v="geodati.gfoss.it"/>
    <tag k="wikipedia" v="Turin"/>
  </node>
  <node id="63621589" version="16" timestamp="2010-10-23T17:24:37Z" uid="16922" user="amai" changeset="6148866" lat="45.0716863" lon="7.6731471">
    <tag k="ele" v="239"/>
    <tag k="gfoss_id" v="272"/>
    <tag k="is_in" v="Torino, Piemonte, Italy"/>
    <tag k="is_in:continent" v="Europe"/>
    <tag k="name" v="Torino"/>
    <tag k="name:cs" v="Turín"/>
    <tag k="name:de" v="Turin"/>
    <tag k="name:en" v="Turin"/>
    <tag k="name:es" v="Turín"/>
    <tag k="name:eu" v="Turin"/>
    <tag k="name:fi" v="Torino"/>
    <tag k="name:fr" v="Turin"/>
    <tag k="name:pl" v="Turyn"/>
    <tag k="name:pt" v="Turim"/>
    <tag k="name:ru" v="Турин"/>
    <tag k="name:sk" v="Turín"/>
    <tag k="place" v="city"/>
    <tag k="population" v="865263"/>
    <tag k="source" v="geodati.gfoss.it"/>
    <tag k="wikipedia" v="Turin"/>
  </node>
  <node id="63621601" version="8" timestamp="2009-07-22T18:42:33Z" uid="20587" user="balrog-kun" changeset="1907934" lat="44.9124486" lon="8.6189347">
    <tag k="gfoss_id" v="860"/>
    <tag k="is_in" v="Alessandria, Piemonte, Italy"/>
    <tag k="is_in:continent" v="Europe"/>
    <tag k="name" v="Alessandria"/>
    <tag k="name:pms" v="Lissandria"/>
    <tag k="place" v="city"/>
    <tag k="population" v="85438"/>
    <tag k="source" v="geodati.gfoss.it"/>
    <tag k="wikipedia" v="Alessandria"/>
  </node>
  <node id="63621601" version="9" timestamp="2009-07-25T15:08:21Z" uid="123700" user="Mala" changeset="1935220" lat="44.9124486" lon="8.6189347">
    <tag k="gfoss_id" v="860"/>
    <tag k="is_in" v="Alessandria, Piemonte, Italy"/>
    <tag k="is_in:continent" v="Europe"/>
    <tag k="name" v="Alessandria"/>
    <tag k="name:fr" v="Alexandrie"/>
    <tag k="name:pms" v="Lissandria"/>
    <tag k="name:pt" v="Alexandria"/>
    <tag k="place" v="city"/>
    <tag k="population" v="85438"/>
    <tag k="source" v="geodati.gfoss.it"/>
    <tag k="wikipedia" v="Alessandria"/>
  </node>
  <node id="63621639" version="3" timestamp="2009-07-25T22:01:26Z" uid="123700" user="Mala" changeset="1939174" lat="45.440565" lon="8.616835">
    <tag k="gfoss_id" v="459"/>
    <tag k="is_in" v="Novara, Piemonte, Italy"/>
    <tag k="is_in:continent" v="Europe"/>
    <tag k="name" v="Novara"/>
    <tag k="name:fr" v="Novare"/>
    <tag k="place" v="city"/>
    <tag k="population" v="100910"/>
    <tag k="source" v="geodati.gfoss.it"/>
    <tag k="wikipedia" v="Novara"/>
  </node>
  <node id="63623289" version="2" timestamp="2010-03-16T15:18:22Z" uid="23543" user="jkjk" changeset="4144051" lat="26.0636399" lon="119.3198501"/>
  <node id="63623707" version="2" timestamp="2010-03-16T15:18:28Z" uid="23543" user="jkjk" changeset="4144051" lat="26.0877499" lon="119.3125499"/>
  <node id="63625299" version="2" timestamp="2008-05-19T21:34:56Z" uid="38659" user="plasticpony" changeset="489542" lat="45.590161" lon="8.0385135">
    <tag k="created_by" v="JOSM"/>
    <tag k="gfoss_id" v="7734"/>
    <tag k="is_in" v="Biella, Piemonte, Italy"/>
    <tag k="name" v="Pralungo"/>
    <tag k="place" v="village"/>
    <tag k="population" v="2743"/>
    <tag k="source" v="geodati.gfoss.it"/>
  </node>
  <node id="63625672" version="4" timestamp="2009-11-29T22:21:09Z" uid="200463" user="harmagedon" changeset="3251061" lat="48.5234509" lon="13.3187321">
    <tag k="is_in" v="Passau,Niederbayern,Bayern,Bundesrepublik Deutschland,Europe"/>
    <tag k="name" v="Fürstenzell"/>
    <tag k="openGeoDB:auto_update" v="population,is_in"/>
    <tag k="openGeoDB:community_identification_number" v="09275122"/>
    <tag k="openGeoDB:is_in" v="Passau,Niederbayern,Bayern,Bundesrepublik Deutschland,Europe"/>
    <tag k="openGeoDB:is_in_loc_id" v="415"/>
    <tag k="openGeoDB:layer" v="6"/>
    <tag k="openGeoDB:license_plate_code" v="PA"/>
    <tag k="openGeoDB:loc_id" v="16764"/>
    <tag k="openGeoDB:name" v="Fürstenzell"/>
    <tag k="openGeoDB:population" v="7812"/>
    <tag k="openGeoDB:postal_codes" v="94081"/>
    <tag k="openGeoDB:sort_name" v="FUERSTENZELL"/>
    <tag k="openGeoDB:telephone_area_code" v="08502"/>
    <tag k="openGeoDB:type" v="Markt"/>
    <tag k="openGeoDB:version" v="0.2.6.11 / 2007-12-04 / http://fa-technik.adfc.de/code/opengeodb/dump/"/>
    <tag k="opengeodb:lat" v="48.5234509"/>
    <tag k="opengeodb:lon" v="13.3187321"/>
    <tag k="place" v="village"/>
    <tag k="population" v="7812"/>
  </node>
  <node id="63628816" version="3" timestamp="2009-12-06T23:30:31Z" uid="200463" user="harmagedon" changeset="3311555" lat="48.5195852" lon="13.4974316">
    <tag k="is_in" v="Schardenberg,Schärding,Oberösterreich,Österreich,Europe"/>
    <tag k="name" v="Schardenberg"/>
    <tag k="openGeoDB:auto_update" v="population,is_in"/>
    <tag k="openGeoDB:community_identification_number" v="4142312"/>
    <tag k="openGeoDB:is_in" v="Schardenberg,Schärding,Oberösterreich,Österreich,Europe"/>
    <tag k="openGeoDB:is_in_loc_id" v="72294"/>
    <tag k="openGeoDB:layer" v="7"/>
    <tag k="openGeoDB:loc_id" v="30098"/>
    <tag k="openGeoDB:name" v="Schardenberg"/>
    <tag k="openGeoDB:population" v="687"/>
    <tag k="openGeoDB:postal_codes" v="4784"/>
    <tag k="openGeoDB:sort_name" v="SCHARDENBERG"/>
    <tag k="openGeoDB:type" v="Ort"/>
    <tag k="openGeoDB:version" v="0.2.6.11 / 2007-12-04 / http://fa-technik.adfc.de/code/opengeodb/dump/"/>
    <tag k="opengeodb:lat" v="48.5195852"/>
    <tag k="opengeodb:lon" v="13.4974316"/>
    <tag k="place" v="village"/>
    <tag k="population" v="687"/>
  </node>
</osm>
