<?xml version='1.0' encoding='UTF-8'?>
<osm version="0.6" generator="libosmium/2.20.0">
  <node id="642470298" version="2" timestamp="2010-04-27T04:18:48Z" uid="30632" user="antblant" changeset="4537909" lat="50.6062727" lon="20.2647377">
    <tag k="name" v="Diament"/>
    <tag k="place" v="village"/>
    <tag k="teryt:simc" v="0240170"/>
  </node>
  <node id="642470318" version="2" timestamp="2010-04-27T04:10:47Z" uid="30632" user="antblant" changeset="4537882" lat="50.6563907" lon="20.2038951">
    <tag k="name" v="Cierno-Zaszosie"/>
    <tag k="place" v="village"/>
    <tag k="teryt:simc" v="0240158"/>
  </node>
  <node id="642470324" version="2" timestamp="2010-04-27T03:57:52Z" uid="30632" user="antblant" changeset="4537850" lat="50.6373041" lon="20.2247545">
    <tag k="name" v="Prząsław Mały"/>
    <tag k="place" v="village"/>
    <tag k="teryt:simc" v="0240780"/>
  </node>
  <node id="642470329" version="2" timestamp="2010-04-27T03:57:52Z" uid="30632" user="antblant" changeset="4537850" lat="50.6469172" lon="20.2361501">
    <tag k="name" v="Kurliki"/>
    <tag k="place" v="village"/>
    <tag k="teryt:simc" v="0240773"/>
  </node>
  <node id="642470332" version="2" timestamp="2010-04-27T04:11:10Z" uid="30632" user="antblant" changeset="4537882" lat="50.6416636" lon="20.2523933">
    <tag k="name" v="Książe-Skroniów"/>
    <tag k="place" v="village"/>
    <tag k="teryt:simc" v="0240299"/>
  </node>
  <node id="642470335" version="2" timestamp="2010-04-27T04:11:10Z" uid="30632" user="antblant" changeset="4537882" lat="50.6616973" lon="20.2149785">
    <tag k="name" v="Cierno-Kamieniec"/>
    <tag k="place" v="village"/>
    <tag k="teryt:simc" v="0240164"/>
  </node>
  <node id="642470364" version="2" timestamp="2010-04-27T03:59:33Z" uid="30632" user="antblant" changeset="4537857" lat="50.6652266" lon="20.4412079">
    <tag k="name" v="Nowe Kotlice"/>
    <tag k="place" v="village"/>
    <tag k="teryt:simc" v="0270567"/>
  </node>
  <node id="642470367" version="2" timestamp="2010-04-27T03:59:33Z" uid="30632" user="antblant" changeset="4537857" lat="50.6538655" lon="20.4667502">
    <tag k="name" v="Stare Kotlice"/>
    <tag k="place" v="village"/>
    <tag k="teryt:simc" v="0270716"/>
  </node>
  <node id="642470370" version="2" timestamp="2010-04-27T04:13:35Z" uid="30632" user="antblant" changeset="4537892" lat="50.6762162" lon="20.4011391">
    <tag k="name" v="Brus"/>
    <tag k="place" v="village"/>
    <tag k="teryt:simc" v="0240000"/>
  </node>
</osm>
