<?xml version='1.0' encoding='UTF-8'?>
<osm version="0.6" generator="libosmium/2.20.0">
  <node id="65211231" version="4" timestamp="2010-05-02T15:01:30Z" uid="151899" user="Bikeman2000" changeset="4585845" lat="51.2781292" lon="6.7702311"/>
  <node id="65211644" version="1" timestamp="2007-10-11T21:29:17Z" uid="4667" user="MapZ" changeset="122267" lat="49.5046087" lon="8.6041477">
    <tag k="created_by" v="JOSM"/>
    <tag k="name" v="EDEKA"/>
    <tag k="shop" v="supermarket"/>
  </node>
  <node id="65211644" version="2" timestamp="2007-10-16T22:38:34Z" uid="4667" user="MapZ" changeset="223456" lat="49.5046087" lon="8.6041477">
    <tag k="created_by" v="MapZ"/>
    <tag k="name" v="EDEKA"/>
    <tag k="shop" v="supermarket"/>
  </node>
  <node id="65211645" version="1" timestamp="2007-10-11T21:29:17Z" uid="4667" user="MapZ" changeset="122267" lat="49.4978729" lon="8.6589148">
    <tag k="amenity" v="pharmacy"/>
    <tag k="created_by" v="JOSM"/>
  </node>
  <node id="65211645" version="2" timestamp="2008-07-19T14:30:49Z" uid="4667" user="MapZ" changeset="539737" lat="49.4978729" lon="8.6589148">
    <tag k="amenity" v="pharmacy"/>
    <tag k="created_by" v="JOSM"/>
    <tag k="postal_code" v="69469"/>
  </node>
  <node id="65211645" version="3" timestamp="2008-07-19T14:41:50Z" uid="4667" user="MapZ" changeset="539737" lat="49.4978729" lon="8.6589148">
    <tag k="amenity" v="pharmacy"/>
    <tag k="created_by" v="JOSM"/>
    <tag k="postal_code" v="69493"/>
  </node>
  <node id="65211645" version="5" timestamp="2009-02-16T20:11:09Z" uid="4667" user="MapZ" changeset="485707" lat="49.4978729" lon="8.6589148">
    <tag k="addr:city" v="Hirschberg-Leutershausen"/>
    <tag k="addr:housenumber" v="12"/>
    <tag k="addr:postcode" v="69493"/>
    <tag k="addr:street" v="Fenchelstraße"/>
    <tag k="amenity" v="pharmacy"/>
    <tag k="created_by" v="JOSM"/>
    <tag k="name" v="Hirschberg-Apotheke"/>
    <tag k="postal_code" v="69493"/>
  </node>
  <node id="65211645" version="6" timestamp="2010-05-01T18:15:45Z" uid="9581" user="Lobelt" changeset="4577895" lat="49.4975595" lon="8.6610144"/>
  <node id="65211645" version="7" timestamp="2010-05-30T14:05:37Z" uid="9581" user="Lobelt" changeset="4852350" lat="49.4975304" lon="8.6611242"/>
  <node id="65211649" version="1" timestamp="2007-10-11T21:29:17Z" uid="4667" user="MapZ" changeset="122267" lat="49.4989936" lon="8.6623252">
    <tag k="amenity" v="pharmacy"/>
    <tag k="created_by" v="JOSM"/>
  </node>
  <node id="65211649" version="2" timestamp="2008-05-04T15:31:29Z" uid="4667" user="MapZ" changeset="332246" lat="49.499378" lon="8.6624855">
    <tag k="amenity" v="pharmacy"/>
    <tag k="created_by" v="JOSM"/>
  </node>
  <node id="65211649" version="3" timestamp="2008-07-19T14:30:11Z" uid="4667" user="MapZ" changeset="539737" lat="49.499378" lon="8.6624855">
    <tag k="amenity" v="pharmacy"/>
    <tag k="created_by" v="JOSM"/>
    <tag k="postal_code" v="69469"/>
  </node>
  <node id="65211649" version="4" timestamp="2008-07-19T14:41:24Z" uid="4667" user="MapZ" changeset="539737" lat="49.499378" lon="8.6624855">
    <tag k="amenity" v="pharmacy"/>
    <tag k="created_by" v="JOSM"/>
    <tag k="postal_code" v="69493"/>
  </node>
  <node id="65211649" version="5" timestamp="2009-02-16T20:11:09Z" uid="4667" user="MapZ" changeset="485707" lat="49.499378" lon="8.6624855">
    <tag k="addr:city" v="Hirschberg-Leutershausen"/>
    <tag k="addr:housenumber" v="15"/>
    <tag k="addr:postcode" v="69493"/>
    <tag k="addr:street" v="Hauptstraße"/>
    <tag k="amenity" v="pharmacy"/>
    <tag k="created_by" v="JOSM"/>
    <tag k="name" v="Löwen-Apotheke"/>
    <tag k="postal_code" v="69493"/>
  </node>
  <node id="65211649" version="6" timestamp="2009-02-19T20:45:14Z" uid="4667" user="MapZ" changeset="558735" lat="49.4993696" lon="8.6624362">
    <tag k="addr:city" v="Hirschberg-Leutershausen"/>
    <tag k="addr:housenumber" v="15"/>
    <tag k="addr:postcode" v="69493"/>
    <tag k="addr:street" v="Hauptstraße"/>
    <tag k="amenity" v="pharmacy"/>
    <tag k="created_by" v="JOSM"/>
    <tag k="name" v="Löwen-Apotheke"/>
    <tag k="postal_code" v="69493"/>
  </node>
  <node id="65212286" version="4" timestamp="2010-05-02T15:01:30Z" uid="151899" user="Bikeman2000" changeset="4585845" lat="51.2781099" lon="6.7703384"/>
  <node id="65215933" version="1" timestamp="2007-10-11T21:33:00Z" uid="4667" user="MapZ" changeset="122267" lat="49.5000151" lon="8.6606902">
    <tag k="amenity" v="fire_station"/>
    <tag k="created_by" v="JOSM"/>
  </node>
  <node id="65215933" version="2" timestamp="2008-07-19T14:31:21Z" uid="4667" user="MapZ" changeset="539737" lat="49.5000151" lon="8.6606902">
    <tag k="amenity" v="fire_station"/>
    <tag k="created_by" v="JOSM"/>
    <tag k="postal_code" v="69469"/>
  </node>
  <node id="65215933" version="3" timestamp="2008-07-19T14:42:37Z" uid="4667" user="MapZ" changeset="539737" lat="49.5000151" lon="8.6606902">
    <tag k="amenity" v="fire_station"/>
    <tag k="created_by" v="JOSM"/>
    <tag k="postal_code" v="69493"/>
  </node>
  <node id="65215933" version="4" timestamp="2010-04-11T20:41:50Z" uid="9581" user="Lobelt" changeset="4398821" lat="49.499999" lon="8.6608226">
    <tag k="amenity" v="fire_station"/>
    <tag k="postal_code" v="69493"/>
  </node>
  <node id="65215941" version="1" timestamp="2007-10-11T21:33:01Z" uid="4667" user="MapZ" changeset="122267" lat="49.511712" lon="8.6601804">
    <tag k="amenity" v="bank"/>
    <tag k="created_by" v="JOSM"/>
    <tag k="name" v="Volksbank"/>
  </node>
  <node id="65215941" version="2" timestamp="2008-07-19T14:31:21Z" uid="4667" user="MapZ" changeset="539737" lat="49.511712" lon="8.6601804">
    <tag k="amenity" v="bank"/>
    <tag k="created_by" v="JOSM"/>
    <tag k="name" v="Volksbank"/>
    <tag k="postal_code" v="69469"/>
  </node>
  <node id="65215941" version="3" timestamp="2008-07-19T14:42:35Z" uid="4667" user="MapZ" changeset="539737" lat="49.511712" lon="8.6601804">
    <tag k="amenity" v="bank"/>
    <tag k="created_by" v="JOSM"/>
    <tag k="name" v="Volksbank"/>
    <tag k="postal_code" v="69493"/>
  </node>
  <node id="65215941" version="5" timestamp="2010-02-07T13:27:28Z" uid="9581" user="Lobelt" changeset="3814109" lat="49.5117522" lon="8.6600856">
    <tag k="amenity" v="bank"/>
    <tag k="name" v="Volksbank"/>
  </node>
  <node id="65215947" version="1" timestamp="2007-10-11T21:33:01Z" uid="4667" user="MapZ" changeset="122267" lat="49.5115748" lon="8.6602861">
    <tag k="amenity" v="bank"/>
    <tag k="created_by" v="JOSM"/>
    <tag k="name" v="Sparkasse"/>
  </node>
  <node id="65215947" version="2" timestamp="2008-07-19T14:31:21Z" uid="4667" user="MapZ" changeset="539737" lat="49.5115748" lon="8.6602861">
    <tag k="amenity" v="bank"/>
    <tag k="created_by" v="JOSM"/>
    <tag k="name" v="Sparkasse"/>
    <tag k="postal_code" v="69469"/>
  </node>
  <node id="65215947" version="3" timestamp="2008-07-19T14:42:36Z" uid="4667" user="MapZ" changeset="539737" lat="49.5115748" lon="8.6602861">
    <tag k="amenity" v="bank"/>
    <tag k="created_by" v="JOSM"/>
    <tag k="name" v="Sparkasse"/>
    <tag k="postal_code" v="69493"/>
  </node>
  <node id="65215947" version="5" timestamp="2010-02-07T13:27:28Z" uid="9581" user="Lobelt" changeset="3814109" lat="49.5115322" lon="8.6601585">
    <tag k="amenity" v="bank"/>
    <tag k="name" v="Sparkasse"/>
  </node>
  <node id="65216120" version="6" timestamp="2010-05-02T15:01:20Z" uid="151899" user="Bikeman2000" changeset="4585845" lat="51.2792072" lon="6.7690094"/>
  <node id="65218751" version="1" timestamp="2007-10-11T21:35:08Z" uid="4667" user="MapZ" changeset="122267" lat="49.5068333" lon="8.6376037">
    <tag k="amenity" v="fast_food"/>
    <tag k="created_by" v="JOSM"/>
    <tag k="name" v="McDonald&apos;s"/>
  </node>
  <node id="65218751" version="3" timestamp="2008-07-19T14:42:59Z" uid="4667" user="MapZ" changeset="539737" lat="49.5068382" lon="8.6376">
    <tag k="amenity" v="fast_food"/>
    <tag k="created_by" v="Potlatch 0.5c"/>
    <tag k="name" v="McDonald&apos;s"/>
    <tag k="postal_code" v="69493"/>
  </node>
  <node id="65218751" version="5" timestamp="2010-03-05T20:07:49Z" uid="9581" user="Lobelt" changeset="4044097" lat="49.5067627" lon="8.6379111">
    <tag k="addr:postcode" v="69493"/>
    <tag k="amenity" v="fast_food"/>
    <tag k="name" v="McDonald&apos;s"/>
  </node>
</osm>
