<?xml version='1.0' encoding='UTF-8'?>
<osm version="0.6" generator="libosmium/2.20.0">
  <node id="655282718" version="2" timestamp="2010-11-26T18:33:19Z" uid="115477" user="wowik" changeset="6463696" lat="57.0518521" lon="37.3558551">
    <tag k="name" v="Понизорье"/>
    <tag k="place" v="hamlet"/>
  </node>
  <node id="655282725" version="3" timestamp="2010-11-26T18:33:17Z" uid="115477" user="wowik" changeset="6463696" lat="57.0510202" lon="37.3700522">
    <tag k="name" v="Шиблино"/>
    <tag k="place" v="hamlet"/>
  </node>
  <node id="655282731" version="3" timestamp="2010-11-26T18:33:15Z" uid="115477" user="wowik" changeset="6463696" lat="57.0534859" lon="37.3869258">
    <tag k="addr:city" v="Устиновское сельское поселение"/>
    <tag k="addr:country" v="RU"/>
    <tag k="addr:district" v="Кимрский район"/>
    <tag k="addr:postcode" v="171514"/>
    <tag k="addr:region" v="Тверская область"/>
    <tag k="cladr:code" v="6901401801900"/>
    <tag k="cladr:name" v="Реутово"/>
    <tag k="cladr:suffix" v="Деревня"/>
    <tag k="name" v="Реутово"/>
    <tag k="place" v="hamlet"/>
  </node>
  <node id="655282737" version="3" timestamp="2010-07-12T15:57:18Z" uid="115477" user="wowik" changeset="5200192" lat="57.1434427" lon="37.3432894">
    <tag k="name" v="Неклюдово"/>
    <tag k="place" v="village"/>
  </node>
  <node id="655284764" version="4" timestamp="2010-07-19T15:02:15Z" uid="115477" user="wowik" changeset="5261881" lat="57.2087145" lon="37.4038033">
    <tag k="addr:city" v="Неклюдовское сельское поселение"/>
    <tag k="addr:country" v="RU"/>
    <tag k="addr:district" v="Кимрский район"/>
    <tag k="addr:postcode" v="171515"/>
    <tag k="addr:region" v="Тверская область"/>
    <tag k="cladr:code" v="6901401500800"/>
    <tag k="cladr:name" v="Подосеново"/>
    <tag k="cladr:suffix" v="Деревня"/>
    <tag k="name" v="Подосеново"/>
    <tag k="place" v="village"/>
  </node>
  <node id="655284764" version="5" timestamp="2010-07-19T16:22:18Z" uid="115477" user="wowik" changeset="5262625" lat="57.2087145" lon="37.4038033">
    <tag k="addr:city" v="Неклюдовское сельское поселение"/>
    <tag k="addr:country" v="RU"/>
    <tag k="addr:district" v="Кимрский район"/>
    <tag k="addr:postcode" v="171515"/>
    <tag k="addr:region" v="Тверская область"/>
    <tag k="cladr:code" v="6901401500800"/>
    <tag k="cladr:name" v="Подосеново"/>
    <tag k="cladr:suffix" v="Деревня"/>
    <tag k="name" v="Подосеново"/>
    <tag k="place" v="hamlet"/>
  </node>
  <node id="655284768" version="3" timestamp="2010-07-19T16:36:41Z" uid="115477" user="wowik" changeset="5262761" lat="57.1803304" lon="37.3774843">
    <tag k="addr:city" v="Неклюдовское сельское поселение"/>
    <tag k="addr:country" v="RU"/>
    <tag k="addr:district" v="Кимрский район"/>
    <tag k="addr:postcode" v="171515"/>
    <tag k="addr:region" v="Тверская область"/>
    <tag k="cladr:code" v="6901401500600"/>
    <tag k="cladr:name" v="Норбужье"/>
    <tag k="cladr:suffix" v="Деревня"/>
    <tag k="name" v="Норбужье"/>
    <tag k="place" v="hamlet"/>
  </node>
  <node id="655284773" version="2" timestamp="2010-07-12T15:57:16Z" uid="115477" user="wowik" changeset="5200192" lat="57.1705005" lon="37.394936">
    <tag k="name" v="Назарово"/>
    <tag k="place" v="hamlet"/>
  </node>
  <node id="655284776" version="2" timestamp="2010-07-19T15:02:16Z" uid="115477" user="wowik" changeset="5261881" lat="57.1705598" lon="37.4198847">
    <tag k="name" v="Слободка"/>
    <tag k="old_name" v="Ширинское"/>
    <tag k="place" v="hamlet"/>
  </node>
  <node id="655285976" version="2" timestamp="2010-07-12T15:57:18Z" uid="115477" user="wowik" changeset="5200192" lat="57.1467276" lon="37.3491603">
    <tag k="name" v="Ново-Ивановское"/>
    <tag k="place" v="village"/>
  </node>
  <node id="655285977" version="2" timestamp="2010-07-12T15:57:18Z" uid="115477" user="wowik" changeset="5200192" lat="57.1237354" lon="37.1907084">
    <tag k="name" v="Спирово"/>
    <tag k="place" v="village"/>
  </node>
  <node id="655285977" version="3" timestamp="2010-12-06T10:44:11Z" uid="115477" user="wowik" changeset="6561515" lat="57.1237355" lon="37.1907083">
    <tag k="name" v="Спирово"/>
    <tag k="place" v="hamlet"/>
  </node>
  <node id="655287675" version="2" timestamp="2010-12-06T10:29:20Z" uid="115477" user="wowik" changeset="6561331" lat="56.9866743" lon="37.08669">
    <tag k="name" v="Молостово"/>
    <tag k="place" v="hamlet"/>
  </node>
  <node id="655287686" version="3" timestamp="2010-12-06T10:42:58Z" uid="115477" user="wowik" changeset="6561508" lat="56.9860196" lon="37.074502">
    <tag k="addr:city" v="Маловасилевское сельское поселение"/>
    <tag k="addr:country" v="RU"/>
    <tag k="addr:district" v="Кимрский район"/>
    <tag k="addr:postcode" v="171524"/>
    <tag k="addr:region" v="Тверская область"/>
    <tag k="cladr:code" v="6901401900200"/>
    <tag k="cladr:name" v="Желково"/>
    <tag k="cladr:suffix" v="Деревня"/>
    <tag k="name" v="Желково"/>
    <tag k="place" v="hamlet"/>
  </node>
  <node id="655287977" version="1" timestamp="2010-02-27T16:57:02Z" uid="6269" user="Mueck" changeset="3990243" lat="48.9936477" lon="8.4811823"/>
  <node id="655288457" version="2" timestamp="2010-12-06T10:32:33Z" uid="115477" user="wowik" changeset="6561376" lat="56.9636595" lon="37.0520144">
    <tag k="name" v="Тресково"/>
    <tag k="place" v="hamlet"/>
  </node>
  <node id="655288458" version="2" timestamp="2010-12-06T10:42:43Z" uid="115477" user="wowik" changeset="6561499" lat="56.9649697" lon="37.0254068">
    <tag k="name" v="Иваново"/>
    <tag k="place" v="hamlet"/>
  </node>
</osm>
