<?xml version='1.0' encoding='UTF-8'?>
<osm version="0.6" generator="libosmium/2.20.0">
  <node id="655517844" version="2" timestamp="2010-05-01T09:47:18Z" uid="74617" user="JohnSmith" changeset="4572288" lat="-35.9669594" lon="144.3693754"/>
  <node id="655517845" version="1" timestamp="2010-02-28T02:09:31Z" uid="23543" user="jkjk" changeset="3994325" lat="49.9783489" lon="14.4990945">
    <tag k="highway" v="bus_stop"/>
    <tag k="name" v="Vestec, Šátalka"/>
  </node>
  <node id="655517846" version="1" timestamp="2010-02-28T02:09:31Z" uid="23543" user="jkjk" changeset="3994325" lat="49.9846224" lon="14.4951858"/>
  <node id="655517847" version="1" timestamp="2010-02-28T02:09:31Z" uid="23543" user="jkjk" changeset="3994325" lat="49.9856176" lon="14.4940522">
    <tag k="highway" v="bus_stop"/>
    <tag k="name" v="Vestec, Safina"/>
  </node>
  <node id="655517848" version="1" timestamp="2010-02-28T02:09:31Z" uid="23543" user="jkjk" changeset="3994325" lat="49.9949511" lon="14.4874718">
    <tag k="highway" v="bus_stop"/>
    <tag k="name" v="U Studánky"/>
  </node>
  <node id="655517849" version="1" timestamp="2010-02-28T02:09:31Z" uid="23543" user="jkjk" changeset="3994325" lat="49.952078" lon="14.5377475">
    <tag k="highway" v="bus_stop"/>
    <tag k="name" v="Jesenice, Horní Jirčany"/>
  </node>
  <node id="655517853" version="1" timestamp="2010-02-28T02:09:31Z" uid="23543" user="jkjk" changeset="3994325" lat="49.9523619" lon="14.5373563">
    <tag k="highway" v="bus_stop"/>
    <tag k="name" v="Jesenice, Horní Jirčany"/>
  </node>
  <node id="655517856" version="1" timestamp="2010-02-28T02:09:31Z" uid="23543" user="jkjk" changeset="3994325" lat="49.970572" lon="14.5071829">
    <tag k="highway" v="bus_stop"/>
    <tag k="name" v="Jesenice, bytovky"/>
  </node>
  <node id="655517859" version="1" timestamp="2010-02-28T02:09:31Z" uid="23543" user="jkjk" changeset="3994325" lat="49.9680975" lon="14.5132867">
    <tag k="highway" v="bus_stop"/>
    <tag k="name" v="Jesenice"/>
  </node>
  <node id="655517862" version="1" timestamp="2010-02-28T02:09:31Z" uid="23543" user="jkjk" changeset="3994325" lat="50.020843" lon="14.4632919">
    <tag k="highway" v="bus_stop"/>
    <tag k="name" v="IKEM"/>
  </node>
  <node id="655517865" version="1" timestamp="2010-02-28T02:09:31Z" uid="23543" user="jkjk" changeset="3994325" lat="50.0225161" lon="14.4614012">
    <tag k="highway" v="bus_stop"/>
    <tag k="name" v="IKEM"/>
  </node>
</osm>
