<?xml version='1.0' encoding='UTF-8'?>
<osm version="0.6" generator="libosmium/2.20.0">
  <node id="656670113" version="2" timestamp="2010-07-28T20:02:25Z" uid="74617" user="JohnSmith" changeset="5339329" lat="45.4177795" lon="4.393056">
    <tag k="emergency" v="fire_hydrant"/>
    <tag k="ref" v="817"/>
  </node>
  <node id="656670113" version="3" timestamp="2010-07-30T17:49:33Z" uid="74617" user="JohnSmith" changeset="5356742" lat="45.4177795" lon="4.393056">
    <tag k="amenity" v="fire_hydrant"/>
    <tag k="emergency" v="fire_hydrant"/>
    <tag k="ref" v="817"/>
  </node>
  <node id="656671999" version="3" timestamp="2010-04-23T14:51:20Z" uid="115477" user="wowik" changeset="4504189" lat="57.0014954" lon="37.0827997">
    <tag k="addr:city" v="Маловасилевское сельское поселение"/>
    <tag k="addr:country" v="RU"/>
    <tag k="addr:district" v="Кимрский район"/>
    <tag k="addr:postcode" v="171524"/>
    <tag k="addr:region" v="Тверская область"/>
    <tag k="cladr:code" v="6901401900300"/>
    <tag k="cladr:name" v="Троице-Кочки"/>
    <tag k="cladr:suffix" v="Деревня"/>
    <tag k="name" v="Троице-Кочки"/>
    <tag k="place" v="hamlet"/>
  </node>
  <node id="656672926" version="2" timestamp="2010-04-23T14:51:19Z" uid="115477" user="wowik" changeset="4504189" lat="57.0183665" lon="37.0935286">
    <tag k="name" v="Плосково"/>
    <tag k="place" v="hamlet"/>
  </node>
  <node id="656672991" version="2" timestamp="2010-04-23T14:51:40Z" uid="115477" user="wowik" changeset="4504189" lat="57.0167311" lon="37.1582449"/>
  <node id="656673034" version="2" timestamp="2010-04-23T14:51:20Z" uid="115477" user="wowik" changeset="4504189" lat="57.0021498" lon="37.1794451">
    <tag k="name" v="Большое Огрызлово"/>
    <tag k="place" v="hamlet"/>
  </node>
  <node id="656673209" version="2" timestamp="2010-04-23T14:51:19Z" uid="115477" user="wowik" changeset="4504189" lat="57.0456898" lon="37.1101797">
    <tag k="name" v="Покровское"/>
    <tag k="place" v="hamlet"/>
  </node>
  <node id="656673225" version="2" timestamp="2010-04-23T14:51:54Z" uid="115477" user="wowik" changeset="4504189" lat="57.0425381" lon="37.137903"/>
  <node id="656673237" version="2" timestamp="2010-04-23T14:51:54Z" uid="115477" user="wowik" changeset="4504189" lat="57.042935" lon="37.1357573"/>
  <node id="656673255" version="2" timestamp="2010-04-23T14:51:54Z" uid="115477" user="wowik" changeset="4504189" lat="57.0445459" lon="37.1327961"/>
  <node id="656673263" version="2" timestamp="2010-04-23T14:51:54Z" uid="115477" user="wowik" changeset="4504189" lat="57.0446626" lon="37.1280325"/>
  <node id="656673296" version="2" timestamp="2010-04-23T14:51:54Z" uid="115477" user="wowik" changeset="4504189" lat="57.0522957" lon="37.1071757"/>
  <node id="656673304" version="2" timestamp="2010-04-23T14:51:55Z" uid="115477" user="wowik" changeset="4504189" lat="57.0525758" lon="37.1043862"/>
  <node id="656673558" version="3" timestamp="2010-07-12T15:57:19Z" uid="115477" user="wowik" changeset="5200192" lat="57.1223132" lon="37.2092553">
    <tag k="addr:city" v="Неклюдовское сельское поселение"/>
    <tag k="addr:country" v="RU"/>
    <tag k="addr:district" v="Кимрский район"/>
    <tag k="addr:postcode" v="171516"/>
    <tag k="addr:region" v="Тверская область"/>
    <tag k="cladr:code" v="6901401502000"/>
    <tag k="cladr:name" v="Набережная"/>
    <tag k="cladr:suffix" v="Деревня"/>
    <tag k="name" v="Набережная"/>
    <tag k="old_name" v="Пупково"/>
    <tag k="place" v="hamlet"/>
  </node>
  <node id="656673859" version="2" timestamp="2010-04-23T13:18:50Z" uid="115477" user="wowik" changeset="4503301" lat="57.1415148" lon="37.0066295"/>
  <node id="656673978" version="2" timestamp="2010-04-23T13:18:50Z" uid="115477" user="wowik" changeset="4503301" lat="57.142027" lon="37.0075737"/>
  <node id="656673983" version="2" timestamp="2010-04-23T13:19:03Z" uid="115477" user="wowik" changeset="4503301" lat="57.1415613" lon="37.0415626"/>
  <node id="656674387" version="2" timestamp="2010-04-23T13:18:50Z" uid="115477" user="wowik" changeset="4503301" lat="57.1742382" lon="37.0509182"/>
  <node id="656674391" version="2" timestamp="2010-04-23T13:18:50Z" uid="115477" user="wowik" changeset="4503301" lat="57.177588" lon="37.0561538"/>
  <node id="656674930" version="2" timestamp="2010-04-23T13:18:50Z" uid="115477" user="wowik" changeset="4503301" lat="57.2484217" lon="37.0436225"/>
  <node id="656674933" version="2" timestamp="2010-04-23T12:45:24Z" uid="115477" user="wowik" changeset="4503301" lat="57.2117204" lon="37.1536575">
    <tag k="name" v="Слободка"/>
    <tag k="place" v="hamlet"/>
  </node>
  <node id="656674933" version="3" timestamp="2010-04-23T12:56:27Z" uid="115477" user="wowik" changeset="4503301" lat="57.2110697" lon="37.1548162">
    <tag k="name" v="Слободка"/>
    <tag k="place" v="hamlet"/>
  </node>
  <node id="656674934" version="2" timestamp="2010-04-23T12:45:24Z" uid="115477" user="wowik" changeset="4503301" lat="57.1854961" lon="37.12705">
    <tag k="name" v="Выпрегово"/>
    <tag k="place" v="hamlet"/>
  </node>
  <node id="656675077" version="2" timestamp="2010-11-25T15:01:39Z" uid="115477" user="wowik" changeset="6455127" lat="57.0498513" lon="37.3392045"/>
  <node id="656675097" version="2" timestamp="2010-11-26T18:33:20Z" uid="115477" user="wowik" changeset="6463696" lat="57.0489305" lon="37.3378697"/>
  <node id="656675105" version="2" timestamp="2010-11-25T15:01:38Z" uid="115477" user="wowik" changeset="6455127" lat="57.0482454" lon="37.3378547"/>
  <node id="656675105" version="3" timestamp="2010-11-26T18:33:20Z" uid="115477" user="wowik" changeset="6463696" lat="57.0482834" lon="37.3376452"/>
  <node id="656675125" version="2" timestamp="2010-11-25T15:01:40Z" uid="115477" user="wowik" changeset="6455127" lat="57.0456709" lon="37.3392165"/>
  <node id="656675298" version="2" timestamp="2010-07-12T15:57:15Z" uid="115477" user="wowik" changeset="5200192" lat="57.0831509" lon="37.3221299">
    <tag k="name" v="Устиново"/>
    <tag k="place" v="hamlet"/>
  </node>
  <node id="656676027" version="2" timestamp="2010-07-12T15:57:20Z" uid="115477" user="wowik" changeset="5200192" lat="57.1486302" lon="37.2880058">
    <tag k="name" v="Керузино"/>
    <tag k="place" v="hamlet"/>
  </node>
  <node id="656676036" version="2" timestamp="2010-07-19T15:02:16Z" uid="115477" user="wowik" changeset="5261881" lat="57.1892325" lon="37.3812727">
    <tag k="name" v="Романово"/>
    <tag k="place" v="hamlet"/>
  </node>
  <node id="656676054" version="3" timestamp="2010-07-12T15:57:15Z" uid="115477" user="wowik" changeset="5200192" lat="57.186104" lon="37.3972405">
    <tag k="addr:city" v="Барыковское сельское поселение"/>
    <tag k="addr:country" v="RU"/>
    <tag k="addr:district" v="Кашинский район"/>
    <tag k="addr:postcode" v="171615"/>
    <tag k="addr:region" v="Тверская область"/>
    <tag k="cladr:code" v="6901200203500"/>
    <tag k="cladr:name" v="Апарниково"/>
    <tag k="cladr:suffix" v="Деревня"/>
    <tag k="name" v="Апарниково"/>
    <tag k="place" v="hamlet"/>
  </node>
  <node id="656676054" version="4" timestamp="2010-07-19T15:02:16Z" uid="115477" user="wowik" changeset="5261881" lat="57.1870232" lon="37.3936753">
    <tag k="addr:city" v="Барыковское сельское поселение"/>
    <tag k="addr:country" v="RU"/>
    <tag k="addr:district" v="Кашинский район"/>
    <tag k="addr:postcode" v="171615"/>
    <tag k="addr:region" v="Тверская область"/>
    <tag k="cladr:code" v="6901200203500"/>
    <tag k="cladr:name" v="Апарниково"/>
    <tag k="cladr:suffix" v="Деревня"/>
    <tag k="name" v="Апарниково"/>
    <tag k="place" v="hamlet"/>
  </node>
  <node id="656676078" version="3" timestamp="2010-07-12T15:57:17Z" uid="115477" user="wowik" changeset="5200192" lat="57.2101996" lon="37.4289192">
    <tag k="name" v="Малечкино"/>
    <tag k="place" v="hamlet"/>
  </node>
  <node id="656676078" version="4" timestamp="2010-07-19T15:02:15Z" uid="115477" user="wowik" changeset="5261881" lat="57.210876" lon="37.4271492">
    <tag k="name" v="Малечкино"/>
    <tag k="place" v="hamlet"/>
  </node>
  <node id="656676098" version="3" timestamp="2010-07-19T15:02:15Z" uid="115477" user="wowik" changeset="5261881" lat="57.2291387" lon="37.4245743">
    <tag k="name" v="Ченцы"/>
    <tag k="place" v="hamlet"/>
  </node>
  <node id="656677447" version="1" timestamp="2010-02-28T21:23:04Z" uid="137033" user="lubomir" changeset="4003386" lat="38.2096229" lon="-0.5137863"/>
  <node id="656677449" version="1" timestamp="2010-02-28T21:23:04Z" uid="137033" user="lubomir" changeset="4003386" lat="38.2094359" lon="-0.513844"/>
  <node id="656677450" version="1" timestamp="2010-02-28T21:23:04Z" uid="137033" user="lubomir" changeset="4003386" lat="38.2093861" lon="-0.5135823"/>
  <node id="656677451" version="1" timestamp="2010-02-28T21:23:04Z" uid="137033" user="lubomir" changeset="4003386" lat="38.2095731" lon="-0.5135246"/>
</osm>
