<?xml version='1.0' encoding='UTF-8'?>
<osm version="0.6" generator="libosmium/2.20.0">
  <node id="661462090" version="1" timestamp="2010-03-06T21:02:17Z" uid="20587" user="balrog-kun" changeset="4054764" lat="52.3068779" lon="4.7646293">
    <tag k="amenity" v="bureau_du_change"/>
    <tag k="name" v="GWK Travelex"/>
  </node>
  <node id="661462142" version="1" timestamp="2010-03-06T21:02:18Z" uid="20587" user="balrog-kun" changeset="4054764" lat="52.3070323" lon="4.7645572">
    <tag k="shop" v="duty_free;toys"/>
  </node>
  <node id="661462144" version="1" timestamp="2010-03-06T21:02:18Z" uid="20587" user="balrog-kun" changeset="4054764" lat="52.3068018" lon="4.7647907">
    <tag k="amenity" v="fast_food"/>
    <tag k="name" v="Grab &amp; Fly"/>
  </node>
  <node id="661462147" version="1" timestamp="2010-03-06T21:02:19Z" uid="20587" user="balrog-kun" changeset="4054764" lat="52.3068779" lon="4.7650144">
    <tag k="amenity" v="cafe"/>
    <tag k="name" v="Cafe Chocolat"/>
  </node>
  <node id="661462160" version="1" timestamp="2010-03-06T21:02:19Z" uid="20587" user="balrog-kun" changeset="4054764" lat="52.306939" lon="4.7651154">
    <tag k="amenity" v="restaurant"/>
    <tag k="cuisine" v="japanese"/>
    <tag k="name" v="Bubbles"/>
  </node>
  <node id="661462164" version="1" timestamp="2010-03-06T21:02:19Z" uid="20587" user="balrog-kun" changeset="4054764" lat="52.3070245" lon="4.7651451">
    <tag k="amenity" v="bar"/>
    <tag k="name" v="Wine Bar"/>
  </node>
  <node id="661462168" version="1" timestamp="2010-03-06T21:02:19Z" uid="20587" user="balrog-kun" changeset="4054764" lat="52.3069554" lon="4.7646341">
    <tag k="shop" v="duty_free"/>
  </node>
</osm>
