<?xml version='1.0' encoding='UTF-8'?>
<osm version="0.6" generator="libosmium/2.20.0">
  <node id="663491360" version="2" timestamp="2010-04-22T06:54:56Z" uid="4467" user="Rosscoe" changeset="4492916" lat="-33.3510021" lon="150.102573">
    <tag k="building" v="yes"/>
    <tag k="headframe" v="no"/>
    <tag k="man_made" v="mineshaft"/>
    <tag k="name" v="Angus Place Colliery"/>
    <tag k="resource" v="coal"/>
  </node>
  <node id="663492464" version="2" timestamp="2010-03-23T05:06:04Z" uid="18775" user="drlizau" changeset="4209094" lat="-35.8968246" lon="144.5171128"/>
  <node id="663492515" version="2" timestamp="2010-03-23T05:06:05Z" uid="18775" user="drlizau" changeset="4209094" lat="-35.8751991" lon="144.5207616"/>
  <node id="663492566" version="2" timestamp="2010-03-23T05:06:07Z" uid="18775" user="drlizau" changeset="4209094" lat="-35.8758023" lon="144.5249444"/>
  <node id="663492567" version="2" timestamp="2010-03-23T05:06:06Z" uid="18775" user="drlizau" changeset="4209094" lat="-35.8782384" lon="144.5280267"/>
  <node id="663492568" version="2" timestamp="2011-05-23T11:42:34Z" uid="18775" user="drlizau" changeset="8225508" lat="-35.8824868" lon="144.5371978"/>
  <node id="663492569" version="2" timestamp="2010-03-23T05:06:09Z" uid="18775" user="drlizau" changeset="4209094" lat="-35.8803899" lon="144.5439421"/>
  <node id="663497790" version="4" timestamp="2010-08-25T13:27:10Z" uid="4467" user="Rosscoe" changeset="5589809" lat="-37.815581" lon="144.9735992"/>
  <node id="663497999" version="1" timestamp="2010-03-10T02:39:42Z" uid="20587" user="balrog-kun" changeset="4086058" lat="45.5102113" lon="-122.6942128">
    <tag k="amenity" v="post_box"/>
    <tag k="operator" v="United States Mail Service"/>
  </node>
  <node id="663498000" version="1" timestamp="2010-03-10T02:39:42Z" uid="20587" user="balrog-kun" changeset="4086058" lat="45.5123807" lon="-122.6920471"/>
  <node id="663498001" version="1" timestamp="2010-03-10T02:39:42Z" uid="20587" user="balrog-kun" changeset="4086058" lat="45.5126456" lon="-122.6883732"/>
  <node id="663498002" version="1" timestamp="2010-03-10T02:39:42Z" uid="20587" user="balrog-kun" changeset="4086058" lat="45.514093" lon="-122.6879833">
    <tag k="leisure" v="playground"/>
  </node>
  <node id="663498003" version="1" timestamp="2010-03-10T02:39:42Z" uid="20587" user="balrog-kun" changeset="4086058" lat="45.5148359" lon="-122.6874289">
    <tag k="name" v="Red Hook"/>
    <tag k="shop" v="convenience"/>
  </node>
  <node id="663498004" version="1" timestamp="2010-03-10T02:39:42Z" uid="20587" user="balrog-kun" changeset="4086058" lat="45.514667" lon="-122.6872079">
    <tag k="amenity" v="post_box"/>
    <tag k="operator" v="United States Mail Service"/>
  </node>
  <node id="663498005" version="1" timestamp="2010-03-10T02:39:43Z" uid="20587" user="balrog-kun" changeset="4086058" lat="45.5143922" lon="-122.6878092">
    <tag k="amenity" v="school"/>
    <tag k="name" v="Helen Gordon Child Development Centre"/>
  </node>
  <node id="663498006" version="1" timestamp="2010-03-10T02:39:43Z" uid="20587" user="balrog-kun" changeset="4086058" lat="45.5143426" lon="-122.6855038">
    <tag k="addr:state" v="OR"/>
    <tag k="amenity" v="school"/>
    <tag k="denomination" v="mormon"/>
    <tag k="ele" v="45"/>
    <tag k="gnis:county_id" v="051"/>
    <tag k="gnis:created" v="11/26/2008"/>
    <tag k="gnis:feature_id" v="2508788"/>
    <tag k="name" v="Church of Jesus Christ of Latter Day Saints Institute of Religion"/>
    <tag k="religion" v="christian"/>
  </node>
  <node id="663498007" version="1" timestamp="2010-03-10T02:39:43Z" uid="20587" user="balrog-kun" changeset="4086058" lat="45.5159068" lon="-122.6869161">
    <tag k="highway" v="bus_stop"/>
  </node>
  <node id="663498008" version="1" timestamp="2010-03-10T02:39:43Z" uid="20587" user="balrog-kun" changeset="4086058" lat="45.5159623" lon="-122.6867349">
    <tag k="amenity" v="post_box"/>
    <tag k="operator" v="United States Mail Service"/>
  </node>
  <node id="663498009" version="1" timestamp="2010-03-10T02:39:43Z" uid="20587" user="balrog-kun" changeset="4086058" lat="45.5168018" lon="-122.6864866">
    <tag k="amenity" v="cafe"/>
    <tag k="name" v="West Cafe"/>
    <tag k="url" v="http://www.westcafepdx.com/"/>
  </node>
  <node id="663498010" version="1" timestamp="2010-03-10T02:39:43Z" uid="20587" user="balrog-kun" changeset="4086058" lat="45.5166946" lon="-122.6862946">
    <tag k="amenity" v="post_box"/>
    <tag k="operator" v="United States Mail Service"/>
  </node>
  <node id="663498011" version="1" timestamp="2010-03-10T02:39:43Z" uid="20587" user="balrog-kun" changeset="4086058" lat="45.5173285" lon="-122.6859709">
    <tag k="amenity" v="post_box"/>
    <tag k="operator" v="United States Mail Service"/>
  </node>
  <node id="663498012" version="1" timestamp="2010-03-10T02:39:43Z" uid="20587" user="balrog-kun" changeset="4086058" lat="45.5172505" lon="-122.686284">
    <tag k="amenity" v="restaurant"/>
    <tag k="cuisine" v="grill"/>
    <tag k="name" v="Brazil Grill"/>
  </node>
  <node id="663498013" version="1" timestamp="2010-03-10T02:39:43Z" uid="20587" user="balrog-kun" changeset="4086058" lat="45.5174157" lon="-122.6862004">
    <tag k="amenity" v="place_of_worship"/>
    <tag k="name" v="Church of Scientology"/>
    <tag k="religion" v="scientologist"/>
  </node>
  <node id="663498014" version="1" timestamp="2010-03-10T02:39:43Z" uid="20587" user="balrog-kun" changeset="4086058" lat="45.5193156" lon="-122.6848592">
    <tag k="amenity" v="telephone"/>
  </node>
  <node id="663498015" version="1" timestamp="2010-03-10T02:39:43Z" uid="20587" user="balrog-kun" changeset="4086058" lat="45.520547" lon="-122.6851105">
    <tag k="name" v="Three Lions Bakery"/>
    <tag k="shop" v="bakery"/>
  </node>
  <node id="663498015" version="2" timestamp="2010-03-10T08:39:50Z" uid="20587" user="balrog-kun" changeset="4087085" lat="45.5203476" lon="-122.6840486">
    <tag k="name" v="Three Lions Bakery"/>
    <tag k="shop" v="bakery"/>
  </node>
  <node id="663498016" version="1" timestamp="2010-03-10T02:39:43Z" uid="20587" user="balrog-kun" changeset="4086058" lat="45.5199829" lon="-122.6824307">
    <tag k="amenity" v="restaurant"/>
    <tag k="cuisine" v="lebanese"/>
    <tag k="name" v="Habibi"/>
  </node>
  <node id="663498017" version="1" timestamp="2010-03-10T02:39:43Z" uid="20587" user="balrog-kun" changeset="4086058" lat="45.5200941" lon="-122.6828482">
    <tag k="amenity" v="restaurant"/>
    <tag k="cuisine" v="indian"/>
    <tag k="name" v="Indian House"/>
  </node>
  <node id="663498018" version="1" timestamp="2010-03-10T02:39:43Z" uid="20587" user="balrog-kun" changeset="4086058" lat="45.5200375" lon="-122.6826366">
    <tag k="amenity" v="restaurant"/>
    <tag k="cuisine" v="persian"/>
    <tag k="name" v="Persian House"/>
  </node>
  <node id="663498019" version="1" timestamp="2010-03-10T02:39:43Z" uid="20587" user="balrog-kun" changeset="4086058" lat="45.5194202" lon="-122.6811843">
    <tag k="amenity" v="restaurant"/>
    <tag k="cuisine" v="japanese"/>
    <tag k="name" v="Bushgarden"/>
  </node>
  <node id="663498019" version="2" timestamp="2010-03-10T08:39:50Z" uid="20587" user="balrog-kun" changeset="4087085" lat="45.5194892" lon="-122.6813409">
    <tag k="amenity" v="restaurant"/>
    <tag k="cuisine" v="japanese"/>
    <tag k="name" v="Bushgarden"/>
  </node>
</osm>
