<?xml version='1.0' encoding='UTF-8'?>
<osm version="0.6" generator="libosmium/2.20.0">
  <node id="66501714" version="2" timestamp="2011-01-15T06:35:36Z" uid="4467" user="Rosscoe" changeset="6973859" lat="-32.0719724" lon="115.8150361"/>
  <node id="66502648" version="6" timestamp="2009-07-22T18:42:31Z" uid="20587" user="balrog-kun" changeset="1907934" lat="45.6353191" lon="13.8032372">
    <tag k="gfoss_id" v="3839"/>
    <tag k="is_in" v="Trieste, Friuli-Venezia Giulia, Italy"/>
    <tag k="is_in:continent" v="Europe"/>
    <tag k="name" v="Trieste"/>
    <tag k="name:en" v="Triest"/>
    <tag k="name:hr" v="Trst"/>
    <tag k="name:hu" v="Trieszt"/>
    <tag k="name:pl" v="Triest"/>
    <tag k="name:ru" v="Триест"/>
    <tag k="name:sl" v="Trst"/>
    <tag k="place" v="city"/>
    <tag k="population" v="211184"/>
    <tag k="source" v="geodati.gfoss.it"/>
    <tag k="wikipedia" v="Trieste"/>
  </node>
  <node id="66502654" version="7" timestamp="2009-07-25T15:08:21Z" uid="123700" user="Mala" changeset="1935220" lat="45.9412541" lon="13.6184546">
    <tag k="gfoss_id" v="3815"/>
    <tag k="is_in" v="Gorizia, Friuli-Venezia Giulia, Italy"/>
    <tag k="is_in:continent" v="Europe"/>
    <tag k="loc_name" v="Gurisa"/>
    <tag k="name" v="Gorizia"/>
    <tag k="name:de" v="Görz"/>
    <tag k="name:fur" v="Gurize"/>
    <tag k="name:pl" v="Gorycja"/>
    <tag k="place" v="city"/>
    <tag k="population" v="35667"/>
    <tag k="source" v="geodati.gfoss.it"/>
    <tag k="wikipedia" v="Gorizia"/>
  </node>
  <node id="66506193" version="3" timestamp="2009-07-23T00:18:52Z" uid="23543" user="jkjk" changeset="1910325" lat="50.0112771" lon="14.5064931"/>
  <node id="66509467" version="3" timestamp="2008-06-07T07:48:56Z" uid="27600" user="Islanit" changeset="80637" lat="53.4789907" lon="9.9272438"/>
</osm>
