<?xml version='1.0' encoding='UTF-8'?>
<osm version="0.6" generator="libosmium/2.20.0">
  <node id="665673101" version="2" timestamp="2010-04-11T11:55:03Z" uid="20587" user="balrog-kun" changeset="4392352" lat="49.65729" lon="20.78841">
    <tag k="name" v="Koniuszowa"/>
    <tag k="place" v="village"/>
    <tag k="source" v="http://ump.waw.pl/ retrieved 15:56:07 01/18/10 (UMP-NowySacz/src/cities-NowySacz.pnt-converted.txt)"/>
  </node>
  <node id="665673101" version="3" timestamp="2010-04-11T13:18:45Z" uid="20587" user="balrog-kun" changeset="4392352" lat="49.65729" lon="20.78841">
    <tag k="name" v="Koniuszowa"/>
    <tag k="place" v="village"/>
    <tag k="source" v="http://ump.waw.pl/ retrieved 15:56:07 01/18/10 (UMP-NowySacz/src/cities-NowySacz.pnt-converted.txt)"/>
  </node>
  <node id="665673101" version="4" timestamp="2010-04-27T04:00:50Z" uid="30632" user="antblant" changeset="4537859" lat="49.65729" lon="20.78841">
    <tag k="name" v="Koniuszowa"/>
    <tag k="place" v="village"/>
    <tag k="source" v="http://ump.waw.pl/ retrieved 15:56:07 01/18/10 (UMP-NowySacz/src/cities-NowySacz.pnt-converted.txt)"/>
    <tag k="teryt:simc" v="0435809"/>
  </node>
  <node id="665673161" version="2" timestamp="2010-04-11T11:55:03Z" uid="20587" user="balrog-kun" changeset="4392352" lat="49.65536" lon="20.82639">
    <tag k="name" v="Mogilno"/>
    <tag k="place" v="village"/>
    <tag k="source" v="http://ump.waw.pl/ retrieved 15:56:07 01/18/10 (UMP-NowySacz/src/cities-NowySacz.pnt-converted.txt)"/>
  </node>
  <node id="665673161" version="3" timestamp="2010-04-11T13:18:45Z" uid="20587" user="balrog-kun" changeset="4392352" lat="49.65536" lon="20.82639">
    <tag k="name" v="Mogilno"/>
    <tag k="place" v="village"/>
    <tag k="source" v="http://ump.waw.pl/ retrieved 15:56:07 01/18/10 (UMP-NowySacz/src/cities-NowySacz.pnt-converted.txt)"/>
  </node>
  <node id="665673360" version="2" timestamp="2010-04-11T11:55:03Z" uid="20587" user="balrog-kun" changeset="4392352" lat="49.65344" lon="20.88523">
    <tag k="name" v="Krużlowa Niżna"/>
    <tag k="place" v="village"/>
    <tag k="source" v="http://ump.waw.pl/ retrieved 15:56:07 01/18/10 (UMP-NowySacz/src/cities-NowySacz.pnt-converted.txt)"/>
  </node>
  <node id="665673360" version="3" timestamp="2010-04-11T13:18:45Z" uid="20587" user="balrog-kun" changeset="4392352" lat="49.65344" lon="20.88523">
    <tag k="name" v="Krużlowa Niżna"/>
    <tag k="place" v="village"/>
    <tag k="source" v="http://ump.waw.pl/ retrieved 15:56:07 01/18/10 (UMP-NowySacz/src/cities-NowySacz.pnt-converted.txt)"/>
  </node>
  <node id="665673360" version="4" timestamp="2010-04-27T04:09:34Z" uid="30632" user="antblant" changeset="4537879" lat="49.65344" lon="20.88523">
    <tag k="name" v="Krużlowa Niżna"/>
    <tag k="place" v="village"/>
    <tag k="source" v="http://ump.waw.pl/ retrieved 15:56:07 01/18/10 (UMP-NowySacz/src/cities-NowySacz.pnt-converted.txt)"/>
    <tag k="teryt:simc" v="0427900"/>
  </node>
  <node id="665673592" version="1" timestamp="2010-03-14T01:40:00Z" uid="30201" user="rrankin" changeset="4120653" lat="-34.0259142" lon="151.0075385"/>
  <node id="665673593" version="1" timestamp="2010-03-14T01:40:00Z" uid="30201" user="rrankin" changeset="4120653" lat="-34.0235404" lon="151.0078396">
    <tag k="highway" v="traffic_signals"/>
  </node>
  <node id="665673594" version="1" timestamp="2010-03-14T01:40:00Z" uid="30201" user="rrankin" changeset="4120653" lat="-34.0134602" lon="151.0097333"/>
  <node id="665673595" version="1" timestamp="2010-03-14T01:40:00Z" uid="30201" user="rrankin" changeset="4120653" lat="-34.0038183" lon="151.0157316"/>
  <node id="665673596" version="1" timestamp="2010-03-14T01:40:00Z" uid="30201" user="rrankin" changeset="4120653" lat="-34.0036542" lon="151.0159126"/>
  <node id="665673597" version="1" timestamp="2010-03-14T01:40:00Z" uid="30201" user="rrankin" changeset="4120653" lat="-34.0036013" lon="151.0159945"/>
  <node id="665673598" version="1" timestamp="2010-03-14T01:40:00Z" uid="30201" user="rrankin" changeset="4120653" lat="-34.0036225" lon="151.0160082"/>
  <node id="665673599" version="1" timestamp="2010-03-14T01:40:00Z" uid="30201" user="rrankin" changeset="4120653" lat="-34.0035906" lon="151.0160591"/>
  <node id="665673600" version="1" timestamp="2010-03-14T01:40:00Z" uid="30201" user="rrankin" changeset="4120653" lat="-34.0035329" lon="151.016094"/>
  <node id="665673601" version="1" timestamp="2010-03-14T01:40:00Z" uid="30201" user="rrankin" changeset="4120653" lat="-34.0035184" lon="151.0161458"/>
  <node id="665673602" version="1" timestamp="2010-03-14T01:40:01Z" uid="30201" user="rrankin" changeset="4120653" lat="-34.0036114" lon="151.0160791"/>
  <node id="665674070" version="2" timestamp="2010-04-11T11:55:03Z" uid="20587" user="balrog-kun" changeset="4392352" lat="49.67388" lon="20.77921">
    <tag k="name" v="Łęka"/>
    <tag k="place" v="village"/>
    <tag k="source" v="http://ump.waw.pl/ retrieved 15:56:07 01/18/10 (UMP-NowySacz/src/cities-NowySacz.pnt-converted.txt)"/>
  </node>
  <node id="665674070" version="3" timestamp="2010-04-11T13:18:45Z" uid="20587" user="balrog-kun" changeset="4392352" lat="49.67388" lon="20.77921">
    <tag k="name" v="Łęka"/>
    <tag k="place" v="village"/>
    <tag k="source" v="http://ump.waw.pl/ retrieved 15:56:07 01/18/10 (UMP-NowySacz/src/cities-NowySacz.pnt-converted.txt)"/>
  </node>
  <node id="665675054" version="2" timestamp="2010-04-11T11:55:03Z" uid="20587" user="balrog-kun" changeset="4392352" lat="49.67748" lon="20.82053">
    <tag k="name" v="Podtrzycierz"/>
    <tag k="place" v="village"/>
    <tag k="source" v="http://ump.waw.pl/ retrieved 15:56:07 01/18/10 (UMP-NowySacz/src/cities-NowySacz.pnt-converted.txt)"/>
  </node>
  <node id="665675054" version="3" timestamp="2010-04-11T13:18:45Z" uid="20587" user="balrog-kun" changeset="4392352" lat="49.67748" lon="20.82053">
    <tag k="name" v="Podtrzycierz"/>
    <tag k="place" v="village"/>
    <tag k="source" v="http://ump.waw.pl/ retrieved 15:56:07 01/18/10 (UMP-NowySacz/src/cities-NowySacz.pnt-converted.txt)"/>
  </node>
  <node id="665675193" version="2" timestamp="2010-04-11T11:55:03Z" uid="20587" user="balrog-kun" changeset="4392352" lat="49.68817" lon="20.82608">
    <tag k="name" v="Przylasek"/>
    <tag k="place" v="village"/>
    <tag k="source" v="http://ump.waw.pl/ retrieved 15:56:07 01/18/10 (UMP-NowySacz/src/cities-NowySacz.pnt-converted.txt)"/>
  </node>
  <node id="665675193" version="3" timestamp="2010-04-11T13:18:46Z" uid="20587" user="balrog-kun" changeset="4392352" lat="49.68817" lon="20.82608">
    <tag k="name" v="Przylasek"/>
    <tag k="place" v="village"/>
    <tag k="source" v="http://ump.waw.pl/ retrieved 15:56:07 01/18/10 (UMP-NowySacz/src/cities-NowySacz.pnt-converted.txt)"/>
  </node>
  <node id="665675193" version="4" timestamp="2010-04-27T04:00:59Z" uid="30632" user="antblant" changeset="4537859" lat="49.68817" lon="20.82608">
    <tag k="name" v="Przylasek"/>
    <tag k="place" v="village"/>
    <tag k="source" v="http://ump.waw.pl/ retrieved 15:56:07 01/18/10 (UMP-NowySacz/src/cities-NowySacz.pnt-converted.txt)"/>
    <tag k="teryt:simc" v="0192011"/>
  </node>
  <node id="665675224" version="2" timestamp="2010-04-11T11:55:04Z" uid="20587" user="balrog-kun" changeset="4392352" lat="49.6939286" lon="20.8133478">
    <tag k="name" v="Łyczana"/>
    <tag k="place" v="village"/>
    <tag k="source" v="http://ump.waw.pl/ retrieved 15:56:07 01/18/10 (UMP-NowySacz/src/cities-NowySacz.pnt-converted.txt)"/>
  </node>
  <node id="665675224" version="3" timestamp="2010-04-11T13:18:46Z" uid="20587" user="balrog-kun" changeset="4392352" lat="49.6942966" lon="20.8113583">
    <tag k="name" v="Łyczana"/>
    <tag k="place" v="village"/>
    <tag k="source" v="http://ump.waw.pl/ retrieved 15:56:07 01/18/10 (UMP-NowySacz/src/cities-NowySacz.pnt-converted.txt)"/>
  </node>
  <node id="665675224" version="4" timestamp="2010-04-27T04:10:40Z" uid="30632" user="antblant" changeset="4537882" lat="49.6942966" lon="20.8113583">
    <tag k="name" v="Łyczana"/>
    <tag k="place" v="village"/>
    <tag k="source" v="http://ump.waw.pl/ retrieved 15:56:07 01/18/10 (UMP-NowySacz/src/cities-NowySacz.pnt-converted.txt)"/>
    <tag k="teryt:simc" v="0436105"/>
  </node>
  <node id="665675377" version="2" timestamp="2010-04-11T11:55:04Z" uid="20587" user="balrog-kun" changeset="4392352" lat="49.7035849" lon="20.7812312">
    <tag k="name" v="Janczowa"/>
    <tag k="place" v="village"/>
    <tag k="source" v="http://ump.waw.pl/ retrieved 15:56:07 01/18/10 (UMP-NowySacz/src/cities-NowySacz.pnt-converted.txt)"/>
  </node>
  <node id="665675377" version="3" timestamp="2010-04-11T13:18:46Z" uid="20587" user="balrog-kun" changeset="4392352" lat="49.7031755" lon="20.7822303">
    <tag k="name" v="Janczowa"/>
    <tag k="place" v="village"/>
    <tag k="source" v="http://ump.waw.pl/ retrieved 15:56:07 01/18/10 (UMP-NowySacz/src/cities-NowySacz.pnt-converted.txt)"/>
  </node>
  <node id="665675377" version="4" timestamp="2010-04-27T04:17:13Z" uid="30632" user="antblant" changeset="4537905" lat="49.7031755" lon="20.7822303">
    <tag k="name" v="Janczowa"/>
    <tag k="place" v="village"/>
    <tag k="source" v="http://ump.waw.pl/ retrieved 15:56:07 01/18/10 (UMP-NowySacz/src/cities-NowySacz.pnt-converted.txt)"/>
    <tag k="teryt:simc" v="0435666"/>
  </node>
  <node id="665675382" version="2" timestamp="2010-04-11T11:55:04Z" uid="20587" user="balrog-kun" changeset="4392352" lat="49.7155072" lon="20.774415">
    <tag k="name" v="Miłkowa"/>
    <tag k="place" v="village"/>
    <tag k="source" v="http://ump.waw.pl/ retrieved 15:56:07 01/18/10 (UMP-NowySacz/src/cities-NowySacz.pnt-converted.txt)"/>
  </node>
  <node id="665675382" version="3" timestamp="2010-04-11T13:18:46Z" uid="20587" user="balrog-kun" changeset="4392352" lat="49.7131746" lon="20.7735643">
    <tag k="name" v="Miłkowa"/>
    <tag k="place" v="village"/>
    <tag k="source" v="http://ump.waw.pl/ retrieved 15:56:07 01/18/10 (UMP-NowySacz/src/cities-NowySacz.pnt-converted.txt)"/>
  </node>
  <node id="665675382" version="4" timestamp="2010-04-27T04:09:06Z" uid="30632" user="antblant" changeset="4537879" lat="49.7131746" lon="20.7735643">
    <tag k="name" v="Miłkowa"/>
    <tag k="place" v="village"/>
    <tag k="source" v="http://ump.waw.pl/ retrieved 15:56:07 01/18/10 (UMP-NowySacz/src/cities-NowySacz.pnt-converted.txt)"/>
    <tag k="teryt:simc" v="0436140"/>
  </node>
  <node id="665675546" version="2" timestamp="2010-04-11T11:55:04Z" uid="20587" user="balrog-kun" changeset="4392352" lat="49.7310465" lon="20.7733511">
    <tag k="name" v="Przydonica"/>
    <tag k="place" v="town"/>
    <tag k="source" v="http://ump.waw.pl/ retrieved 15:56:07 01/18/10 (UMP-NowySacz/src/cities-NowySacz.pnt-converted.txt)"/>
  </node>
  <node id="665675546" version="3" timestamp="2010-04-11T13:18:46Z" uid="20587" user="balrog-kun" changeset="4392352" lat="49.7296693" lon="20.7725159">
    <tag k="name" v="Przydonica"/>
    <tag k="place" v="town"/>
    <tag k="source" v="http://ump.waw.pl/ retrieved 15:56:07 01/18/10 (UMP-NowySacz/src/cities-NowySacz.pnt-converted.txt)"/>
  </node>
  <node id="665675546" version="4" timestamp="2010-04-27T04:05:49Z" uid="30632" user="antblant" changeset="4537871" lat="49.7296693" lon="20.7725159">
    <tag k="name" v="Przydonica"/>
    <tag k="place" v="town"/>
    <tag k="source" v="http://ump.waw.pl/ retrieved 15:56:07 01/18/10 (UMP-NowySacz/src/cities-NowySacz.pnt-converted.txt)"/>
    <tag k="teryt:simc" v="0426360"/>
  </node>
  <node id="665675714" version="2" timestamp="2010-04-11T11:55:04Z" uid="20587" user="balrog-kun" changeset="4392352" lat="49.71926" lon="20.82231">
    <tag k="name" v="Jasienna"/>
    <tag k="place" v="village"/>
    <tag k="source" v="http://ump.waw.pl/ retrieved 15:56:07 01/18/10 (UMP-NowySacz/src/cities-NowySacz.pnt-converted.txt)"/>
  </node>
  <node id="665675714" version="3" timestamp="2010-04-11T13:18:46Z" uid="20587" user="balrog-kun" changeset="4392352" lat="49.71926" lon="20.82231">
    <tag k="name" v="Jasienna"/>
    <tag k="place" v="village"/>
    <tag k="source" v="http://ump.waw.pl/ retrieved 15:56:07 01/18/10 (UMP-NowySacz/src/cities-NowySacz.pnt-converted.txt)"/>
  </node>
  <node id="665675714" version="4" timestamp="2010-04-27T04:17:04Z" uid="30632" user="antblant" changeset="4537905" lat="49.71926" lon="20.82231">
    <tag k="name" v="Jasienna"/>
    <tag k="place" v="village"/>
    <tag k="source" v="http://ump.waw.pl/ retrieved 15:56:07 01/18/10 (UMP-NowySacz/src/cities-NowySacz.pnt-converted.txt)"/>
    <tag k="teryt:simc" v="0435710"/>
  </node>
  <node id="665676056" version="2" timestamp="2010-04-11T11:55:04Z" uid="20587" user="balrog-kun" changeset="4392352" lat="49.67146" lon="20.83889">
    <tag k="name" v="Świegocin"/>
    <tag k="place" v="village"/>
    <tag k="source" v="http://ump.waw.pl/ retrieved 15:56:07 01/18/10 (UMP-NowySacz/src/cities-NowySacz.pnt-converted.txt)"/>
  </node>
  <node id="665676056" version="3" timestamp="2010-04-11T13:18:46Z" uid="20587" user="balrog-kun" changeset="4392352" lat="49.67146" lon="20.83889">
    <tag k="name" v="Świegocin"/>
    <tag k="place" v="village"/>
    <tag k="source" v="http://ump.waw.pl/ retrieved 15:56:07 01/18/10 (UMP-NowySacz/src/cities-NowySacz.pnt-converted.txt)"/>
  </node>
  <node id="665676204" version="2" timestamp="2010-04-11T11:55:04Z" uid="20587" user="balrog-kun" changeset="4392352" lat="49.67501" lon="20.85513">
    <tag k="name" v="Pogwizdów"/>
    <tag k="place" v="village"/>
    <tag k="source" v="http://ump.waw.pl/ retrieved 15:56:07 01/18/10 (UMP-NowySacz/src/cities-NowySacz.pnt-converted.txt)"/>
  </node>
  <node id="665676204" version="3" timestamp="2010-04-11T13:18:46Z" uid="20587" user="balrog-kun" changeset="4392352" lat="49.67501" lon="20.85513">
    <tag k="name" v="Pogwizdów"/>
    <tag k="place" v="village"/>
    <tag k="source" v="http://ump.waw.pl/ retrieved 15:56:07 01/18/10 (UMP-NowySacz/src/cities-NowySacz.pnt-converted.txt)"/>
  </node>
  <node id="665676585" version="2" timestamp="2010-04-11T11:55:04Z" uid="20587" user="balrog-kun" changeset="4392352" lat="49.69784" lon="20.83935">
    <tag k="name" v="Teluszowa"/>
    <tag k="place" v="village"/>
    <tag k="source" v="http://ump.waw.pl/ retrieved 15:56:07 01/18/10 (UMP-NowySacz/src/cities-NowySacz.pnt-converted.txt)"/>
  </node>
  <node id="665676585" version="3" timestamp="2010-04-11T13:18:46Z" uid="20587" user="balrog-kun" changeset="4392352" lat="49.69784" lon="20.83935">
    <tag k="name" v="Teluszowa"/>
    <tag k="place" v="village"/>
    <tag k="source" v="http://ump.waw.pl/ retrieved 15:56:07 01/18/10 (UMP-NowySacz/src/cities-NowySacz.pnt-converted.txt)"/>
  </node>
  <node id="665676670" version="2" timestamp="2010-04-11T11:55:04Z" uid="20587" user="balrog-kun" changeset="4392352" lat="49.6804611" lon="20.8639403">
    <tag k="name" v="Potoki"/>
    <tag k="place" v="hamlet"/>
    <tag k="source" v="http://ump.waw.pl/ retrieved 15:56:07 01/18/10 (UMP-NowySacz/src/cities-NowySacz.pnt-converted.txt)"/>
  </node>
  <node id="665676670" version="3" timestamp="2010-04-11T13:18:46Z" uid="20587" user="balrog-kun" changeset="4392352" lat="49.6805087" lon="20.8614675">
    <tag k="name" v="Potoki"/>
    <tag k="place" v="hamlet"/>
    <tag k="source" v="http://ump.waw.pl/ retrieved 15:56:07 01/18/10 (UMP-NowySacz/src/cities-NowySacz.pnt-converted.txt)"/>
  </node>
  <node id="665677034" version="2" timestamp="2010-04-11T11:55:04Z" uid="20587" user="balrog-kun" changeset="4392352" lat="49.6726" lon="20.88904">
    <tag k="name" v="Mosteczna"/>
    <tag k="place" v="village"/>
    <tag k="source" v="http://ump.waw.pl/ retrieved 15:56:07 01/18/10 (UMP-NowySacz/src/cities-NowySacz.pnt-converted.txt)"/>
  </node>
  <node id="665677034" version="3" timestamp="2010-04-11T13:18:46Z" uid="20587" user="balrog-kun" changeset="4392352" lat="49.6726" lon="20.88904">
    <tag k="name" v="Mosteczna"/>
    <tag k="place" v="village"/>
    <tag k="source" v="http://ump.waw.pl/ retrieved 15:56:07 01/18/10 (UMP-NowySacz/src/cities-NowySacz.pnt-converted.txt)"/>
  </node>
  <node id="665677057" version="2" timestamp="2010-04-11T11:55:04Z" uid="20587" user="balrog-kun" changeset="4392352" lat="49.66037" lon="20.89736">
    <tag k="name" v="Gromnik"/>
    <tag k="place" v="village"/>
    <tag k="source" v="http://ump.waw.pl/ retrieved 15:56:07 01/18/10 (UMP-NowySacz/src/cities-NowySacz.pnt-converted.txt)"/>
  </node>
  <node id="665677057" version="3" timestamp="2010-04-11T13:18:46Z" uid="20587" user="balrog-kun" changeset="4392352" lat="49.66037" lon="20.89736">
    <tag k="name" v="Gromnik"/>
    <tag k="place" v="village"/>
    <tag k="source" v="http://ump.waw.pl/ retrieved 15:56:07 01/18/10 (UMP-NowySacz/src/cities-NowySacz.pnt-converted.txt)"/>
  </node>
  <node id="665677299" version="2" timestamp="2010-04-11T11:55:04Z" uid="20587" user="balrog-kun" changeset="4392352" lat="49.6879756" lon="20.876651">
    <tag k="name" v="Sośnie"/>
    <tag k="place" v="hamlet"/>
    <tag k="source" v="http://ump.waw.pl/ retrieved 15:56:07 01/18/10 (UMP-NowySacz/src/cities-NowySacz.pnt-converted.txt)"/>
  </node>
  <node id="665677299" version="3" timestamp="2010-04-11T13:18:46Z" uid="20587" user="balrog-kun" changeset="4392352" lat="49.6872408" lon="20.8770928">
    <tag k="name" v="Sośnie"/>
    <tag k="place" v="hamlet"/>
    <tag k="source" v="http://ump.waw.pl/ retrieved 15:56:07 01/18/10 (UMP-NowySacz/src/cities-NowySacz.pnt-converted.txt)"/>
  </node>
  <node id="665677299" version="4" timestamp="2010-04-27T04:20:22Z" uid="30632" user="antblant" changeset="4537912" lat="49.6872408" lon="20.8770928">
    <tag k="name" v="Sośnie"/>
    <tag k="place" v="hamlet"/>
    <tag k="source" v="http://ump.waw.pl/ retrieved 15:56:07 01/18/10 (UMP-NowySacz/src/cities-NowySacz.pnt-converted.txt)"/>
    <tag k="teryt:simc" v="0209148"/>
  </node>
  <node id="665677449" version="2" timestamp="2010-04-11T11:55:04Z" uid="20587" user="balrog-kun" changeset="4392352" lat="49.6807" lon="20.90179">
    <tag k="name" v="Sikornik"/>
    <tag k="place" v="village"/>
    <tag k="source" v="http://ump.waw.pl/ retrieved 15:56:07 01/18/10 (UMP-NowySacz/src/cities-NowySacz.pnt-converted.txt)"/>
  </node>
  <node id="665677449" version="3" timestamp="2010-04-11T13:18:46Z" uid="20587" user="balrog-kun" changeset="4392352" lat="49.6807" lon="20.90179">
    <tag k="name" v="Sikornik"/>
    <tag k="place" v="village"/>
    <tag k="source" v="http://ump.waw.pl/ retrieved 15:56:07 01/18/10 (UMP-NowySacz/src/cities-NowySacz.pnt-converted.txt)"/>
  </node>
  <node id="665677449" version="4" timestamp="2010-04-27T04:10:55Z" uid="30632" user="antblant" changeset="4537882" lat="49.6807" lon="20.90179">
    <tag k="name" v="Sikornik"/>
    <tag k="place" v="village"/>
    <tag k="source" v="http://ump.waw.pl/ retrieved 15:56:07 01/18/10 (UMP-NowySacz/src/cities-NowySacz.pnt-converted.txt)"/>
    <tag k="teryt:simc" v="0707952"/>
  </node>
  <node id="665677466" version="2" timestamp="2010-04-11T11:55:04Z" uid="20587" user="balrog-kun" changeset="4392352" lat="49.68771" lon="20.89804">
    <tag k="name" v="Rzeki"/>
    <tag k="place" v="village"/>
    <tag k="source" v="http://ump.waw.pl/ retrieved 15:56:07 01/18/10 (UMP-NowySacz/src/cities-NowySacz.pnt-converted.txt)"/>
  </node>
  <node id="665677466" version="3" timestamp="2010-04-11T13:18:47Z" uid="20587" user="balrog-kun" changeset="4392352" lat="49.68771" lon="20.89804">
    <tag k="name" v="Rzeki"/>
    <tag k="place" v="village"/>
    <tag k="source" v="http://ump.waw.pl/ retrieved 15:56:07 01/18/10 (UMP-NowySacz/src/cities-NowySacz.pnt-converted.txt)"/>
  </node>
  <node id="665677707" version="2" timestamp="2010-04-11T11:55:05Z" uid="20587" user="balrog-kun" changeset="4392352" lat="49.7012981" lon="20.9085252">
    <tag k="name" v="Jankowa"/>
    <tag k="place" v="village"/>
    <tag k="source" v="http://ump.waw.pl/ retrieved 15:56:07 01/18/10 (UMP-NowySacz/src/cities-NowySacz.pnt-converted.txt)"/>
  </node>
  <node id="665677707" version="3" timestamp="2010-04-11T13:18:47Z" uid="20587" user="balrog-kun" changeset="4392352" lat="49.7005987" lon="20.910516">
    <tag k="name" v="Jankowa"/>
    <tag k="place" v="village"/>
    <tag k="source" v="http://ump.waw.pl/ retrieved 15:56:07 01/18/10 (UMP-NowySacz/src/cities-NowySacz.pnt-converted.txt)"/>
  </node>
  <node id="665677716" version="2" timestamp="2010-04-11T11:55:05Z" uid="20587" user="balrog-kun" changeset="4392352" lat="49.70641" lon="20.83796">
    <tag k="name" v="Poręby"/>
    <tag k="place" v="hamlet"/>
    <tag k="source" v="http://ump.waw.pl/ retrieved 15:56:07 01/18/10 (UMP-NowySacz/src/cities-NowySacz.pnt-converted.txt)"/>
  </node>
  <node id="665677716" version="3" timestamp="2010-04-11T13:18:47Z" uid="20587" user="balrog-kun" changeset="4392352" lat="49.70641" lon="20.83796">
    <tag k="name" v="Poręby"/>
    <tag k="place" v="hamlet"/>
    <tag k="source" v="http://ump.waw.pl/ retrieved 15:56:07 01/18/10 (UMP-NowySacz/src/cities-NowySacz.pnt-converted.txt)"/>
  </node>
  <node id="665677730" version="2" timestamp="2010-04-11T11:55:05Z" uid="20587" user="balrog-kun" changeset="4392352" lat="49.70224" lon="20.85407">
    <tag k="name" v="Jasionki"/>
    <tag k="place" v="hamlet"/>
    <tag k="source" v="http://ump.waw.pl/ retrieved 15:56:07 01/18/10 (UMP-NowySacz/src/cities-NowySacz.pnt-converted.txt)"/>
  </node>
  <node id="665677730" version="3" timestamp="2010-04-11T13:18:47Z" uid="20587" user="balrog-kun" changeset="4392352" lat="49.70224" lon="20.85407">
    <tag k="name" v="Jasionki"/>
    <tag k="place" v="hamlet"/>
    <tag k="source" v="http://ump.waw.pl/ retrieved 15:56:07 01/18/10 (UMP-NowySacz/src/cities-NowySacz.pnt-converted.txt)"/>
  </node>
  <node id="665677751" version="2" timestamp="2010-04-11T11:55:05Z" uid="20587" user="balrog-kun" changeset="4392352" lat="49.71088" lon="20.8631">
    <tag k="name" v="Lipnica Wielka"/>
    <tag k="place" v="village"/>
    <tag k="source" v="http://ump.waw.pl/ retrieved 15:56:07 01/18/10 (UMP-NowySacz/src/cities-NowySacz.pnt-converted.txt)"/>
  </node>
  <node id="665677751" version="3" timestamp="2010-04-11T13:18:47Z" uid="20587" user="balrog-kun" changeset="4392352" lat="49.71088" lon="20.8631">
    <tag k="name" v="Lipnica Wielka"/>
    <tag k="place" v="village"/>
    <tag k="source" v="http://ump.waw.pl/ retrieved 15:56:07 01/18/10 (UMP-NowySacz/src/cities-NowySacz.pnt-converted.txt)"/>
  </node>
  <node id="665678640" version="2" timestamp="2010-04-11T11:55:05Z" uid="20587" user="balrog-kun" changeset="4392352" lat="49.73222" lon="20.90721">
    <tag k="name" v="Brzana Górna"/>
    <tag k="place" v="hamlet"/>
    <tag k="source" v="http://ump.waw.pl/ retrieved 15:56:07 01/18/10 (UMP-NowySacz/src/cities-NowySacz.pnt-converted.txt)"/>
  </node>
  <node id="665678640" version="3" timestamp="2010-04-11T13:18:47Z" uid="20587" user="balrog-kun" changeset="4392352" lat="49.73222" lon="20.90721">
    <tag k="name" v="Brzana Górna"/>
    <tag k="place" v="hamlet"/>
    <tag k="source" v="http://ump.waw.pl/ retrieved 15:56:07 01/18/10 (UMP-NowySacz/src/cities-NowySacz.pnt-converted.txt)"/>
  </node>
  <node id="665678801" version="2" timestamp="2010-04-11T11:55:05Z" uid="20587" user="balrog-kun" changeset="4392352" lat="49.67334" lon="20.92032">
    <tag k="name" v="Równie"/>
    <tag k="place" v="village"/>
    <tag k="source" v="http://ump.waw.pl/ retrieved 15:56:07 01/18/10 (UMP-NowySacz/src/cities-NowySacz.pnt-converted.txt)"/>
  </node>
  <node id="665678801" version="3" timestamp="2010-04-11T13:18:47Z" uid="20587" user="balrog-kun" changeset="4392352" lat="49.67334" lon="20.92032">
    <tag k="name" v="Równie"/>
    <tag k="place" v="village"/>
    <tag k="source" v="http://ump.waw.pl/ retrieved 15:56:07 01/18/10 (UMP-NowySacz/src/cities-NowySacz.pnt-converted.txt)"/>
  </node>
  <node id="665679182" version="2" timestamp="2010-04-11T11:55:05Z" uid="20587" user="balrog-kun" changeset="4392352" lat="49.7167" lon="20.92301">
    <tag k="name" v="Brzana Dolna"/>
    <tag k="place" v="hamlet"/>
    <tag k="source" v="http://ump.waw.pl/ retrieved 15:56:07 01/18/10 (UMP-NowySacz/src/cities-NowySacz.pnt-converted.txt)"/>
  </node>
  <node id="665679182" version="3" timestamp="2010-04-11T13:18:47Z" uid="20587" user="balrog-kun" changeset="4392352" lat="49.7167" lon="20.92301">
    <tag k="name" v="Brzana Dolna"/>
    <tag k="place" v="hamlet"/>
    <tag k="source" v="http://ump.waw.pl/ retrieved 15:56:07 01/18/10 (UMP-NowySacz/src/cities-NowySacz.pnt-converted.txt)"/>
  </node>
</osm>
