<?xml version='1.0' encoding='UTF-8'?>
<osm version="0.6" generator="libosmium/2.20.0">
  <node id="66582614" version="3" timestamp="2010-01-30T01:56:07Z" uid="99207" user="Lar Kiesel" changeset="3748002" lat="32.388483" lon="-81.6570025"/>
  <node id="66582617" version="3" timestamp="2010-01-30T01:56:08Z" uid="99207" user="Lar Kiesel" changeset="3748002" lat="32.388314" lon="-81.657116"/>
  <node id="66583445" version="2" timestamp="2010-03-07T09:05:32Z" uid="9719" user="dvaey" changeset="4058367" lat="-35.3609143" lon="149.0826689"/>
  <node id="66583446" version="2" timestamp="2010-03-07T09:05:33Z" uid="9719" user="dvaey" changeset="4058367" lat="-35.3609909" lon="149.0825415"/>
  <node id="66583447" version="2" timestamp="2010-03-07T09:05:33Z" uid="9719" user="dvaey" changeset="4058367" lat="-35.3610478" lon="149.0823738"/>
  <node id="66586322" version="12" timestamp="2009-07-22T18:51:32Z" uid="20587" user="balrog-kun" changeset="1908051" lat="44.40726" lon="8.9338624">
    <tag k="gfoss_id" v="1282"/>
    <tag k="is_in" v="Genova, Liguria, Italy"/>
    <tag k="is_in:continent" v="Europe"/>
    <tag k="name" v="Genova"/>
    <tag k="name:en" v="Genoa"/>
    <tag k="name:es" v="Génova"/>
    <tag k="name:lij" v="Zena"/>
    <tag k="name:pl" v="Genua"/>
    <tag k="place" v="city"/>
    <tag k="population" v="610307"/>
    <tag k="source" v="geodati.gfoss.it"/>
    <tag k="wikipedia" v="Genoa"/>
  </node>
  <node id="66586322" version="13" timestamp="2009-07-25T15:08:21Z" uid="123700" user="Mala" changeset="1935220" lat="44.40726" lon="8.9338624">
    <tag k="gfoss_id" v="1282"/>
    <tag k="is_in" v="Genova, Liguria, Italy"/>
    <tag k="is_in:continent" v="Europe"/>
    <tag k="name" v="Genova"/>
    <tag k="name:en" v="Genoa"/>
    <tag k="name:es" v="Génova"/>
    <tag k="name:fr" v="Gênes"/>
    <tag k="name:lij" v="Zena"/>
    <tag k="name:pl" v="Genua"/>
    <tag k="name:pt" v="Génova"/>
    <tag k="place" v="city"/>
    <tag k="population" v="610307"/>
    <tag k="source" v="geodati.gfoss.it"/>
    <tag k="wikipedia" v="Genoa"/>
  </node>
  <node id="66586339" version="5" timestamp="2009-07-25T22:01:26Z" uid="123700" user="Mala" changeset="1939174" lat="44.3078623" lon="8.4806328">
    <tag k="gfoss_id" v="1244"/>
    <tag k="is_in" v="Savona, Liguria, Italy"/>
    <tag k="is_in:continent" v="Europe"/>
    <tag k="name" v="Savona"/>
    <tag k="name:fr" v="Savone"/>
    <tag k="place" v="city"/>
    <tag k="population" v="59907"/>
    <tag k="source" v="geodati.gfoss.it"/>
    <tag k="wikipedia" v="Savona"/>
  </node>
  <node id="66587444" version="3" timestamp="2010-01-30T01:14:32Z" uid="99207" user="Lar Kiesel" changeset="3747917" lat="32.239524" lon="-81.541868"/>
  <node id="66589676" version="3" timestamp="2009-12-30T13:22:17Z" uid="23543" user="jkjk" changeset="3489815" lat="50.0379316" lon="14.50109"/>
  <node id="66589736" version="3" timestamp="2009-12-30T13:22:18Z" uid="23543" user="jkjk" changeset="3489815" lat="50.0378902" lon="14.4991536">
    <tag k="highway" v="bus_stop"/>
    <tag k="name" v="Benkova"/>
  </node>
</osm>
