<?xml version='1.0' encoding='UTF-8'?>
<osm version="0.6" generator="libosmium/2.20.0">
  <node id="670402177" version="2" timestamp="2011-06-04T21:04:57Z" uid="30632" user="antblant" changeset="8343175" lat="51.7426165" lon="19.8158543">
    <tag k="amenity" v="cinema"/>
    <tag k="name" v="Odeon"/>
  </node>
  <node id="670407131" version="2" timestamp="2010-05-24T00:02:20Z" uid="4467" user="Rosscoe" changeset="4789129" lat="-31.7427465" lon="115.743175">
    <tag k="bench" v="yes"/>
    <tag k="highway" v="bus_stop"/>
    <tag k="ref" v="17859"/>
    <tag k="shelter" v="yes"/>
    <tag k="source" v="survey"/>
  </node>
  <node id="670407133" version="2" timestamp="2010-05-24T00:02:38Z" uid="4467" user="Rosscoe" changeset="4789129" lat="-31.7423593" lon="115.7426297">
    <tag k="bench" v="yes"/>
    <tag k="highway" v="bus_stop"/>
    <tag k="ref" v="17864"/>
    <tag k="shelter" v="yes"/>
    <tag k="source" v="survey"/>
  </node>
  <node id="670407169" version="2" timestamp="2010-05-24T00:02:31Z" uid="4467" user="Rosscoe" changeset="4789129" lat="-31.7424693" lon="115.7421512"/>
</osm>
