<?xml version='1.0' encoding='UTF-8'?>
<osm version="0.6" generator="libosmium/2.20.0">
  <node id="675630015" version="4" timestamp="2010-07-28T20:30:14Z" uid="74617" user="JohnSmith" changeset="5341853" lat="14.8268468" lon="120.9154786">
    <tag k="emergency" v="phone"/>
    <tag k="operator" v="Manila North Tollways Corporation"/>
    <tag k="phone" v="+63-2-35000"/>
  </node>
  <node id="675630015" version="5" timestamp="2010-07-29T08:19:44Z" uid="74617" user="JohnSmith" changeset="5344518" lat="14.8268468" lon="120.9154786">
    <tag k="amenity" v="emergency_phone"/>
    <tag k="emergency" v="phone"/>
    <tag k="operator" v="Manila North Tollways Corporation"/>
    <tag k="phone" v="+63-2-35000"/>
  </node>
  <node id="675630020" version="3" timestamp="2010-07-28T20:30:38Z" uid="74617" user="JohnSmith" changeset="5341853" lat="14.8264423" lon="120.9152856">
    <tag k="emergency" v="phone"/>
    <tag k="operator" v="Manila North Tollways Corporation"/>
    <tag k="phone" v="+63-2-35000"/>
  </node>
  <node id="675630020" version="4" timestamp="2010-07-29T08:19:17Z" uid="74617" user="JohnSmith" changeset="5344518" lat="14.8264423" lon="120.9152856">
    <tag k="amenity" v="emergency_phone"/>
    <tag k="emergency" v="phone"/>
    <tag k="operator" v="Manila North Tollways Corporation"/>
    <tag k="phone" v="+63-2-35000"/>
  </node>
  <node id="675630075" version="3" timestamp="2010-07-28T20:30:33Z" uid="74617" user="JohnSmith" changeset="5341853" lat="14.8346045" lon="120.9009303">
    <tag k="emergency" v="phone"/>
    <tag k="operator" v="Manila North Tollways Corporation"/>
    <tag k="phone" v="+63-2-35000"/>
  </node>
  <node id="675630075" version="4" timestamp="2010-07-29T08:19:54Z" uid="74617" user="JohnSmith" changeset="5344518" lat="14.8346045" lon="120.9009303">
    <tag k="amenity" v="emergency_phone"/>
    <tag k="emergency" v="phone"/>
    <tag k="operator" v="Manila North Tollways Corporation"/>
    <tag k="phone" v="+63-2-35000"/>
  </node>
  <node id="675630096" version="3" timestamp="2010-07-28T20:29:48Z" uid="74617" user="JohnSmith" changeset="5341853" lat="14.8342104" lon="120.9006944">
    <tag k="emergency" v="phone"/>
    <tag k="operator" v="Manila North Tollways Corporation"/>
    <tag k="phone" v="+63-2-35000"/>
  </node>
  <node id="675630096" version="4" timestamp="2010-07-29T08:20:31Z" uid="74617" user="JohnSmith" changeset="5344518" lat="14.8342104" lon="120.9006944">
    <tag k="amenity" v="emergency_phone"/>
    <tag k="emergency" v="phone"/>
    <tag k="operator" v="Manila North Tollways Corporation"/>
    <tag k="phone" v="+63-2-35000"/>
  </node>
  <node id="675631558" version="3" timestamp="2010-07-28T20:30:00Z" uid="74617" user="JohnSmith" changeset="5341853" lat="14.8442808" lon="120.8858886">
    <tag k="emergency" v="phone"/>
    <tag k="operator" v="Manila North Tollways Corporation"/>
    <tag k="phone" v="+63-2-35000"/>
  </node>
  <node id="675631558" version="4" timestamp="2010-07-29T08:17:46Z" uid="74617" user="JohnSmith" changeset="5344518" lat="14.8442808" lon="120.8858886">
    <tag k="amenity" v="emergency_phone"/>
    <tag k="emergency" v="phone"/>
    <tag k="operator" v="Manila North Tollways Corporation"/>
    <tag k="phone" v="+63-2-35000"/>
  </node>
  <node id="675631585" version="3" timestamp="2010-07-28T20:30:01Z" uid="74617" user="JohnSmith" changeset="5341853" lat="14.8437932" lon="120.8855131">
    <tag k="emergency" v="phone"/>
    <tag k="operator" v="Manila North Tollways Corporation"/>
    <tag k="phone" v="+63-2-35000"/>
  </node>
  <node id="675631585" version="4" timestamp="2010-07-29T08:18:04Z" uid="74617" user="JohnSmith" changeset="5344518" lat="14.8437932" lon="120.8855131">
    <tag k="amenity" v="emergency_phone"/>
    <tag k="emergency" v="phone"/>
    <tag k="operator" v="Manila North Tollways Corporation"/>
    <tag k="phone" v="+63-2-35000"/>
  </node>
  <node id="675631618" version="3" timestamp="2010-07-28T20:29:26Z" uid="74617" user="JohnSmith" changeset="5341853" lat="14.8557815" lon="120.8701494">
    <tag k="emergency" v="phone"/>
    <tag k="operator" v="Manila North Tollways Corporation"/>
    <tag k="phone" v="+63-2-35000"/>
  </node>
  <node id="675631618" version="4" timestamp="2010-07-29T08:17:55Z" uid="74617" user="JohnSmith" changeset="5344518" lat="14.8557815" lon="120.8701494">
    <tag k="amenity" v="emergency_phone"/>
    <tag k="emergency" v="phone"/>
    <tag k="operator" v="Manila North Tollways Corporation"/>
    <tag k="phone" v="+63-2-35000"/>
  </node>
  <node id="675631789" version="3" timestamp="2010-07-28T20:30:19Z" uid="74617" user="JohnSmith" changeset="5341853" lat="14.8554187" lon="120.8699992">
    <tag k="emergency" v="phone"/>
    <tag k="operator" v="Manila North Tollways Corporation"/>
    <tag k="phone" v="+63-2-35000"/>
  </node>
  <node id="675631789" version="4" timestamp="2010-07-29T08:18:00Z" uid="74617" user="JohnSmith" changeset="5344518" lat="14.8554187" lon="120.8699992">
    <tag k="amenity" v="emergency_phone"/>
    <tag k="emergency" v="phone"/>
    <tag k="operator" v="Manila North Tollways Corporation"/>
    <tag k="phone" v="+63-2-35000"/>
  </node>
  <node id="675632278" version="3" timestamp="2010-07-28T20:30:08Z" uid="74617" user="JohnSmith" changeset="5341853" lat="14.8655709" lon="120.8537021">
    <tag k="emergency" v="phone"/>
    <tag k="operator" v="Manila North Tollways Corporation"/>
    <tag k="phone" v="+63-2-35000"/>
  </node>
  <node id="675632278" version="4" timestamp="2010-07-29T08:19:49Z" uid="74617" user="JohnSmith" changeset="5344518" lat="14.8655709" lon="120.8537021">
    <tag k="amenity" v="emergency_phone"/>
    <tag k="emergency" v="phone"/>
    <tag k="operator" v="Manila North Tollways Corporation"/>
    <tag k="phone" v="+63-2-35000"/>
  </node>
  <node id="675632345" version="3" timestamp="2010-07-28T20:29:25Z" uid="74617" user="JohnSmith" changeset="5341853" lat="14.8659649" lon="120.8539809">
    <tag k="emergency" v="phone"/>
    <tag k="operator" v="Manila North Tollways Corporation"/>
    <tag k="phone" v="+63-2-35000"/>
  </node>
  <node id="675632345" version="4" timestamp="2010-07-29T08:19:50Z" uid="74617" user="JohnSmith" changeset="5344518" lat="14.8659649" lon="120.8539809">
    <tag k="amenity" v="emergency_phone"/>
    <tag k="emergency" v="phone"/>
    <tag k="operator" v="Manila North Tollways Corporation"/>
    <tag k="phone" v="+63-2-35000"/>
  </node>
  <node id="675632347" version="3" timestamp="2010-07-28T20:29:51Z" uid="74617" user="JohnSmith" changeset="5341853" lat="14.8770499" lon="120.8419004">
    <tag k="emergency" v="phone"/>
    <tag k="operator" v="Manila North Tollways Corporation"/>
    <tag k="phone" v="+63-2-35000"/>
  </node>
  <node id="675632347" version="4" timestamp="2010-07-29T08:20:21Z" uid="74617" user="JohnSmith" changeset="5344518" lat="14.8770499" lon="120.8419004">
    <tag k="amenity" v="emergency_phone"/>
    <tag k="emergency" v="phone"/>
    <tag k="operator" v="Manila North Tollways Corporation"/>
    <tag k="phone" v="+63-2-35000"/>
  </node>
  <node id="675632417" version="3" timestamp="2010-07-28T20:29:39Z" uid="74617" user="JohnSmith" changeset="5341853" lat="14.8768424" lon="120.8414605">
    <tag k="emergency" v="phone"/>
    <tag k="operator" v="Manila North Tollways Corporation"/>
    <tag k="phone" v="+63-2-35000"/>
  </node>
  <node id="675632417" version="4" timestamp="2010-07-29T08:18:16Z" uid="74617" user="JohnSmith" changeset="5344518" lat="14.8768424" lon="120.8414605">
    <tag k="amenity" v="emergency_phone"/>
    <tag k="emergency" v="phone"/>
    <tag k="operator" v="Manila North Tollways Corporation"/>
    <tag k="phone" v="+63-2-35000"/>
  </node>
  <node id="675632493" version="4" timestamp="2010-07-28T20:29:54Z" uid="74617" user="JohnSmith" changeset="5341853" lat="14.8920225" lon="120.8309033">
    <tag k="emergency" v="phone"/>
    <tag k="operator" v="Manila North Tollways Corporation"/>
    <tag k="phone" v="+63-2-35000"/>
  </node>
  <node id="675632493" version="5" timestamp="2010-07-29T08:19:16Z" uid="74617" user="JohnSmith" changeset="5344518" lat="14.8920225" lon="120.8309033">
    <tag k="amenity" v="emergency_phone"/>
    <tag k="emergency" v="phone"/>
    <tag k="operator" v="Manila North Tollways Corporation"/>
    <tag k="phone" v="+63-2-35000"/>
  </node>
  <node id="675632502" version="3" timestamp="2010-07-28T20:30:14Z" uid="74617" user="JohnSmith" changeset="5341853" lat="14.891867" lon="120.8305707">
    <tag k="emergency" v="phone"/>
    <tag k="operator" v="Manila North Tollways Corporation"/>
    <tag k="phone" v="+63-2-35000"/>
  </node>
  <node id="675632502" version="4" timestamp="2010-07-29T08:20:26Z" uid="74617" user="JohnSmith" changeset="5344518" lat="14.891867" lon="120.8305707">
    <tag k="amenity" v="emergency_phone"/>
    <tag k="emergency" v="phone"/>
    <tag k="operator" v="Manila North Tollways Corporation"/>
    <tag k="phone" v="+63-2-35000"/>
  </node>
  <node id="675632563" version="3" timestamp="2010-07-28T20:30:17Z" uid="74617" user="JohnSmith" changeset="5341853" lat="14.9041947" lon="120.8210541">
    <tag k="emergency" v="phone"/>
    <tag k="operator" v="Manila North Tollways Corporation"/>
    <tag k="phone" v="+63-2-35000"/>
  </node>
  <node id="675632563" version="4" timestamp="2010-07-29T08:18:20Z" uid="74617" user="JohnSmith" changeset="5344518" lat="14.9041947" lon="120.8210541">
    <tag k="amenity" v="emergency_phone"/>
    <tag k="emergency" v="phone"/>
    <tag k="operator" v="Manila North Tollways Corporation"/>
    <tag k="phone" v="+63-2-35000"/>
  </node>
  <node id="675632568" version="3" timestamp="2010-07-28T20:29:46Z" uid="74617" user="JohnSmith" changeset="5341853" lat="14.9039147" lon="120.8206251">
    <tag k="emergency" v="phone"/>
    <tag k="operator" v="Manila North Tollways Corporation"/>
    <tag k="phone" v="+63-2-35000"/>
  </node>
  <node id="675632568" version="4" timestamp="2010-07-29T08:18:35Z" uid="74617" user="JohnSmith" changeset="5344518" lat="14.9039147" lon="120.8206251">
    <tag k="amenity" v="emergency_phone"/>
    <tag k="emergency" v="phone"/>
    <tag k="operator" v="Manila North Tollways Corporation"/>
    <tag k="phone" v="+63-2-35000"/>
  </node>
  <node id="675633502" version="3" timestamp="2010-07-28T20:30:39Z" uid="74617" user="JohnSmith" changeset="5341853" lat="14.9183567" lon="120.8086517">
    <tag k="emergency" v="phone"/>
    <tag k="operator" v="Manila North Tollways Corporation"/>
    <tag k="phone" v="+63-2-35000"/>
  </node>
  <node id="675633502" version="4" timestamp="2010-07-29T08:18:54Z" uid="74617" user="JohnSmith" changeset="5344518" lat="14.9183567" lon="120.8086517">
    <tag k="amenity" v="emergency_phone"/>
    <tag k="emergency" v="phone"/>
    <tag k="operator" v="Manila North Tollways Corporation"/>
    <tag k="phone" v="+63-2-35000"/>
  </node>
  <node id="675633548" version="3" timestamp="2011-03-14T10:56:18Z" uid="115477" user="wowik" changeset="7555046" lat="55.8768613" lon="37.4499929">
    <tag k="amenity" v="restaurant"/>
    <tag k="name" v="IL Патио"/>
  </node>
  <node id="675633549" version="3" timestamp="2010-07-28T20:30:15Z" uid="74617" user="JohnSmith" changeset="5341853" lat="14.9180664" lon="120.8081795">
    <tag k="emergency" v="phone"/>
    <tag k="operator" v="Manila North Tollways Corporation"/>
    <tag k="phone" v="+63-2-35000"/>
  </node>
  <node id="675633549" version="4" timestamp="2010-07-29T08:18:52Z" uid="74617" user="JohnSmith" changeset="5344518" lat="14.9180664" lon="120.8081795">
    <tag k="amenity" v="emergency_phone"/>
    <tag k="emergency" v="phone"/>
    <tag k="operator" v="Manila North Tollways Corporation"/>
    <tag k="phone" v="+63-2-35000"/>
  </node>
  <node id="675633607" version="3" timestamp="2010-07-28T20:29:17Z" uid="74617" user="JohnSmith" changeset="5341853" lat="14.9321861" lon="120.7965818">
    <tag k="emergency" v="phone"/>
    <tag k="operator" v="Manila North Tollways Corporation"/>
    <tag k="phone" v="+63-2-35000"/>
  </node>
  <node id="675633607" version="4" timestamp="2010-07-29T08:20:24Z" uid="74617" user="JohnSmith" changeset="5344518" lat="14.9321861" lon="120.7965818">
    <tag k="amenity" v="emergency_phone"/>
    <tag k="emergency" v="phone"/>
    <tag k="operator" v="Manila North Tollways Corporation"/>
    <tag k="phone" v="+63-2-35000"/>
  </node>
  <node id="675633628" version="3" timestamp="2010-07-28T20:29:35Z" uid="74617" user="JohnSmith" changeset="5341853" lat="14.9318649" lon="120.7961632">
    <tag k="emergency" v="phone"/>
    <tag k="operator" v="Manila North Tollways Corporation"/>
    <tag k="phone" v="+63-2-35000"/>
  </node>
  <node id="675633628" version="4" timestamp="2010-07-29T08:17:42Z" uid="74617" user="JohnSmith" changeset="5344518" lat="14.9318649" lon="120.7961632">
    <tag k="amenity" v="emergency_phone"/>
    <tag k="emergency" v="phone"/>
    <tag k="operator" v="Manila North Tollways Corporation"/>
    <tag k="phone" v="+63-2-35000"/>
  </node>
  <node id="675633648" version="3" timestamp="2010-07-28T20:30:42Z" uid="74617" user="JohnSmith" changeset="5341853" lat="14.9458281" lon="120.7844904">
    <tag k="emergency" v="phone"/>
    <tag k="operator" v="Manila North Tollways Corporation"/>
    <tag k="phone" v="+63-2-35000"/>
  </node>
  <node id="675633648" version="4" timestamp="2010-07-29T08:18:05Z" uid="74617" user="JohnSmith" changeset="5344518" lat="14.9458281" lon="120.7844904">
    <tag k="amenity" v="emergency_phone"/>
    <tag k="emergency" v="phone"/>
    <tag k="operator" v="Manila North Tollways Corporation"/>
    <tag k="phone" v="+63-2-35000"/>
  </node>
  <node id="675633802" version="3" timestamp="2010-07-28T20:29:34Z" uid="74617" user="JohnSmith" changeset="5341853" lat="14.9456312" lon="120.7840934">
    <tag k="emergency" v="phone"/>
    <tag k="operator" v="Manila North Tollways Corporation"/>
    <tag k="phone" v="+63-2-35000"/>
  </node>
  <node id="675633802" version="4" timestamp="2010-07-29T08:19:56Z" uid="74617" user="JohnSmith" changeset="5344518" lat="14.9456312" lon="120.7840934">
    <tag k="amenity" v="emergency_phone"/>
    <tag k="emergency" v="phone"/>
    <tag k="operator" v="Manila North Tollways Corporation"/>
    <tag k="phone" v="+63-2-35000"/>
  </node>
  <node id="675633834" version="3" timestamp="2010-07-28T20:29:42Z" uid="74617" user="JohnSmith" changeset="5341853" lat="14.9588784" lon="120.773032">
    <tag k="emergency" v="phone"/>
    <tag k="operator" v="Manila North Tollways Corporation"/>
    <tag k="phone" v="+63-2-35000"/>
  </node>
  <node id="675633834" version="4" timestamp="2010-07-29T08:18:14Z" uid="74617" user="JohnSmith" changeset="5344518" lat="14.9588784" lon="120.773032">
    <tag k="amenity" v="emergency_phone"/>
    <tag k="emergency" v="phone"/>
    <tag k="operator" v="Manila North Tollways Corporation"/>
    <tag k="phone" v="+63-2-35000"/>
  </node>
  <node id="675633881" version="3" timestamp="2010-07-28T20:29:22Z" uid="74617" user="JohnSmith" changeset="5341853" lat="14.9586504" lon="120.7726565">
    <tag k="emergency" v="phone"/>
    <tag k="operator" v="Manila North Tollways Corporation"/>
    <tag k="phone" v="+63-2-35000"/>
  </node>
  <node id="675633881" version="4" timestamp="2010-07-29T08:17:51Z" uid="74617" user="JohnSmith" changeset="5344518" lat="14.9586504" lon="120.7726565">
    <tag k="amenity" v="emergency_phone"/>
    <tag k="emergency" v="phone"/>
    <tag k="operator" v="Manila North Tollways Corporation"/>
    <tag k="phone" v="+63-2-35000"/>
  </node>
  <node id="675634083" version="4" timestamp="2010-07-28T20:29:30Z" uid="74617" user="JohnSmith" changeset="5341853" lat="14.9729539" lon="120.7612623">
    <tag k="emergency" v="phone"/>
    <tag k="operator" v="Manila North Tollways Corporation"/>
    <tag k="phone" v="+63-2-35000"/>
  </node>
  <node id="675634083" version="5" timestamp="2010-07-29T08:19:08Z" uid="74617" user="JohnSmith" changeset="5344518" lat="14.9729539" lon="120.7612623">
    <tag k="amenity" v="emergency_phone"/>
    <tag k="emergency" v="phone"/>
    <tag k="operator" v="Manila North Tollways Corporation"/>
    <tag k="phone" v="+63-2-35000"/>
  </node>
  <node id="675634134" version="3" timestamp="2010-07-28T20:29:32Z" uid="74617" user="JohnSmith" changeset="5341853" lat="14.9727674" lon="120.7607689">
    <tag k="emergency" v="phone"/>
    <tag k="operator" v="Manila North Tollways Corporation"/>
    <tag k="phone" v="+63-2-35000"/>
  </node>
  <node id="675634134" version="4" timestamp="2010-07-29T08:18:37Z" uid="74617" user="JohnSmith" changeset="5344518" lat="14.9727674" lon="120.7607689">
    <tag k="amenity" v="emergency_phone"/>
    <tag k="emergency" v="phone"/>
    <tag k="operator" v="Manila North Tollways Corporation"/>
    <tag k="phone" v="+63-2-35000"/>
  </node>
  <node id="675634355" version="3" timestamp="2010-07-28T20:30:10Z" uid="74617" user="JohnSmith" changeset="5341853" lat="14.998698" lon="120.7452336">
    <tag k="emergency" v="phone"/>
    <tag k="operator" v="Manila North Tollways Corporation"/>
    <tag k="phone" v="+63-2-35000"/>
  </node>
  <node id="675634355" version="4" timestamp="2010-07-29T08:17:56Z" uid="74617" user="JohnSmith" changeset="5344518" lat="14.998698" lon="120.7452336">
    <tag k="amenity" v="emergency_phone"/>
    <tag k="emergency" v="phone"/>
    <tag k="operator" v="Manila North Tollways Corporation"/>
    <tag k="phone" v="+63-2-35000"/>
  </node>
  <node id="675634436" version="3" timestamp="2010-07-28T20:30:10Z" uid="74617" user="JohnSmith" changeset="5341853" lat="14.9985322" lon="120.7447399">
    <tag k="emergency" v="phone"/>
    <tag k="operator" v="Manila North Tollways Corporation"/>
    <tag k="phone" v="+63-2-35000"/>
  </node>
  <node id="675634436" version="4" timestamp="2010-07-29T08:18:24Z" uid="74617" user="JohnSmith" changeset="5344518" lat="14.9985322" lon="120.7447399">
    <tag k="amenity" v="emergency_phone"/>
    <tag k="emergency" v="phone"/>
    <tag k="operator" v="Manila North Tollways Corporation"/>
    <tag k="phone" v="+63-2-35000"/>
  </node>
  <node id="675634524" version="3" timestamp="2010-07-28T20:30:22Z" uid="74617" user="JohnSmith" changeset="5341853" lat="15.0128124" lon="120.7347622">
    <tag k="emergency" v="phone"/>
    <tag k="operator" v="Manila North Tollways Corporation"/>
    <tag k="phone" v="+63-2-35000"/>
  </node>
  <node id="675634524" version="4" timestamp="2010-07-29T08:17:26Z" uid="74617" user="JohnSmith" changeset="5344518" lat="15.0128124" lon="120.7347622">
    <tag k="amenity" v="emergency_phone"/>
    <tag k="emergency" v="phone"/>
    <tag k="operator" v="Manila North Tollways Corporation"/>
    <tag k="phone" v="+63-2-35000"/>
  </node>
  <node id="675634554" version="3" timestamp="2010-07-28T20:30:03Z" uid="74617" user="JohnSmith" changeset="5341853" lat="15.0125221" lon="120.7344189">
    <tag k="emergency" v="phone"/>
    <tag k="operator" v="Manila North Tollways Corporation"/>
    <tag k="phone" v="+63-2-35000"/>
  </node>
  <node id="675634554" version="4" timestamp="2010-07-29T08:20:40Z" uid="74617" user="JohnSmith" changeset="5344518" lat="15.0125221" lon="120.7344189">
    <tag k="amenity" v="emergency_phone"/>
    <tag k="emergency" v="phone"/>
    <tag k="operator" v="Manila North Tollways Corporation"/>
    <tag k="phone" v="+63-2-35000"/>
  </node>
  <node id="675634865" version="3" timestamp="2010-07-28T20:30:22Z" uid="74617" user="JohnSmith" changeset="5341853" lat="15.0259518" lon="120.7221451">
    <tag k="emergency" v="phone"/>
    <tag k="operator" v="Manila North Tollways Corporation"/>
    <tag k="phone" v="+63-2-35000"/>
  </node>
  <node id="675634865" version="4" timestamp="2010-07-29T08:20:41Z" uid="74617" user="JohnSmith" changeset="5344518" lat="15.0259518" lon="120.7221451">
    <tag k="amenity" v="emergency_phone"/>
    <tag k="emergency" v="phone"/>
    <tag k="operator" v="Manila North Tollways Corporation"/>
    <tag k="phone" v="+63-2-35000"/>
  </node>
  <node id="675635015" version="3" timestamp="2010-07-28T20:29:14Z" uid="74617" user="JohnSmith" changeset="5341853" lat="15.0255372" lon="120.7218447">
    <tag k="emergency" v="phone"/>
    <tag k="operator" v="Manila North Tollways Corporation"/>
    <tag k="phone" v="+63-2-35000"/>
  </node>
  <node id="675635015" version="4" timestamp="2010-07-29T08:19:09Z" uid="74617" user="JohnSmith" changeset="5344518" lat="15.0255372" lon="120.7218447">
    <tag k="amenity" v="emergency_phone"/>
    <tag k="emergency" v="phone"/>
    <tag k="operator" v="Manila North Tollways Corporation"/>
    <tag k="phone" v="+63-2-35000"/>
  </node>
  <node id="675635091" version="3" timestamp="2010-07-28T20:30:21Z" uid="74617" user="JohnSmith" changeset="5341853" lat="15.0386967" lon="120.7064059">
    <tag k="emergency" v="phone"/>
    <tag k="operator" v="Manila North Tollways Corporation"/>
    <tag k="phone" v="+63-2-35000"/>
  </node>
  <node id="675635091" version="4" timestamp="2010-07-29T08:20:23Z" uid="74617" user="JohnSmith" changeset="5344518" lat="15.0386967" lon="120.7064059">
    <tag k="amenity" v="emergency_phone"/>
    <tag k="emergency" v="phone"/>
    <tag k="operator" v="Manila North Tollways Corporation"/>
    <tag k="phone" v="+63-2-35000"/>
  </node>
  <node id="675635108" version="3" timestamp="2010-07-28T20:30:23Z" uid="74617" user="JohnSmith" changeset="5341853" lat="15.0383755" lon="120.7060626">
    <tag k="emergency" v="phone"/>
    <tag k="operator" v="Manila North Tollways Corporation"/>
    <tag k="phone" v="+63-2-35000"/>
  </node>
  <node id="675635108" version="4" timestamp="2010-07-29T08:18:43Z" uid="74617" user="JohnSmith" changeset="5344518" lat="15.0383755" lon="120.7060626">
    <tag k="amenity" v="emergency_phone"/>
    <tag k="emergency" v="phone"/>
    <tag k="operator" v="Manila North Tollways Corporation"/>
    <tag k="phone" v="+63-2-35000"/>
  </node>
  <node id="675635149" version="2" timestamp="2010-05-30T15:29:26Z" uid="9581" user="Lobelt" changeset="4853172" lat="49.5306035" lon="8.1933237"/>
  <node id="675635151" version="2" timestamp="2010-05-30T15:31:47Z" uid="9581" user="Lobelt" changeset="4853172" lat="49.5305005" lon="8.1917887"/>
  <node id="675636400" version="3" timestamp="2010-07-28T20:30:05Z" uid="74617" user="JohnSmith" changeset="5341853" lat="15.0490371" lon="120.6957522">
    <tag k="emergency" v="phone"/>
    <tag k="operator" v="Manila North Tollways Corporation"/>
    <tag k="phone" v="+63-2-35000"/>
  </node>
  <node id="675636400" version="4" timestamp="2010-07-29T08:20:38Z" uid="74617" user="JohnSmith" changeset="5344518" lat="15.0490371" lon="120.6957522">
    <tag k="amenity" v="emergency_phone"/>
    <tag k="emergency" v="phone"/>
    <tag k="operator" v="Manila North Tollways Corporation"/>
    <tag k="phone" v="+63-2-35000"/>
  </node>
  <node id="675636426" version="3" timestamp="2010-07-28T20:30:26Z" uid="74617" user="JohnSmith" changeset="5341853" lat="15.0487263" lon="120.6953445">
    <tag k="emergency" v="phone"/>
    <tag k="operator" v="Manila North Tollways Corporation"/>
    <tag k="phone" v="+63-2-35000"/>
  </node>
  <node id="675636426" version="4" timestamp="2010-07-29T08:19:31Z" uid="74617" user="JohnSmith" changeset="5344518" lat="15.0487263" lon="120.6953445">
    <tag k="amenity" v="emergency_phone"/>
    <tag k="emergency" v="phone"/>
    <tag k="operator" v="Manila North Tollways Corporation"/>
    <tag k="phone" v="+63-2-35000"/>
  </node>
  <node id="675636567" version="3" timestamp="2010-07-28T20:29:35Z" uid="74617" user="JohnSmith" changeset="5341853" lat="15.0616977" lon="120.6858387">
    <tag k="emergency" v="phone"/>
    <tag k="operator" v="Manila North Tollways Corporation"/>
    <tag k="phone" v="+63-2-35000"/>
  </node>
  <node id="675636567" version="4" timestamp="2010-07-29T08:18:00Z" uid="74617" user="JohnSmith" changeset="5344518" lat="15.0616977" lon="120.6858387">
    <tag k="amenity" v="emergency_phone"/>
    <tag k="emergency" v="phone"/>
    <tag k="operator" v="Manila North Tollways Corporation"/>
    <tag k="phone" v="+63-2-35000"/>
  </node>
  <node id="675636575" version="4" timestamp="2010-07-28T20:30:49Z" uid="74617" user="JohnSmith" changeset="5341853" lat="15.0615111" lon="120.6853236">
    <tag k="emergency" v="phone"/>
    <tag k="operator" v="Manila North Tollways Corporation"/>
    <tag k="phone" v="+63-2-35000"/>
  </node>
  <node id="675636575" version="5" timestamp="2010-07-29T08:20:22Z" uid="74617" user="JohnSmith" changeset="5344518" lat="15.0615111" lon="120.6853236">
    <tag k="amenity" v="emergency_phone"/>
    <tag k="emergency" v="phone"/>
    <tag k="operator" v="Manila North Tollways Corporation"/>
    <tag k="phone" v="+63-2-35000"/>
  </node>
  <node id="675636774" version="3" timestamp="2010-07-28T20:30:21Z" uid="74617" user="JohnSmith" changeset="5341853" lat="15.0771338" lon="120.6773415">
    <tag k="emergency" v="phone"/>
    <tag k="operator" v="Manila North Tollways Corporation"/>
    <tag k="phone" v="+63-2-35000"/>
  </node>
  <node id="675636774" version="4" timestamp="2010-07-29T08:19:41Z" uid="74617" user="JohnSmith" changeset="5344518" lat="15.0771338" lon="120.6773415">
    <tag k="amenity" v="emergency_phone"/>
    <tag k="emergency" v="phone"/>
    <tag k="operator" v="Manila North Tollways Corporation"/>
    <tag k="phone" v="+63-2-35000"/>
  </node>
  <node id="675636893" version="2" timestamp="2010-05-30T15:31:47Z" uid="9581" user="Lobelt" changeset="4853172" lat="49.5306584" lon="8.1936513"/>
  <node id="675637158" version="3" timestamp="2010-07-28T20:29:29Z" uid="74617" user="JohnSmith" changeset="5341853" lat="15.0770303" lon="120.6768049">
    <tag k="emergency" v="phone"/>
    <tag k="operator" v="Manila North Tollways Corporation"/>
    <tag k="phone" v="+63-2-35000"/>
  </node>
  <node id="675637158" version="4" timestamp="2010-07-29T08:20:15Z" uid="74617" user="JohnSmith" changeset="5344518" lat="15.0770303" lon="120.6768049">
    <tag k="amenity" v="emergency_phone"/>
    <tag k="emergency" v="phone"/>
    <tag k="operator" v="Manila North Tollways Corporation"/>
    <tag k="phone" v="+63-2-35000"/>
  </node>
  <node id="675637172" version="3" timestamp="2010-07-28T20:29:49Z" uid="74617" user="JohnSmith" changeset="5341853" lat="15.0931906" lon="120.670357">
    <tag k="emergency" v="phone"/>
    <tag k="operator" v="Manila North Tollways Corporation"/>
    <tag k="phone" v="+63-2-35000"/>
  </node>
  <node id="675637172" version="4" timestamp="2010-07-29T08:20:42Z" uid="74617" user="JohnSmith" changeset="5344518" lat="15.0931906" lon="120.670357">
    <tag k="amenity" v="emergency_phone"/>
    <tag k="emergency" v="phone"/>
    <tag k="operator" v="Manila North Tollways Corporation"/>
    <tag k="phone" v="+63-2-35000"/>
  </node>
  <node id="675637220" version="3" timestamp="2010-07-28T20:30:11Z" uid="74617" user="JohnSmith" changeset="5341853" lat="15.0930247" lon="120.6699599">
    <tag k="emergency" v="phone"/>
    <tag k="operator" v="Manila North Tollways Corporation"/>
    <tag k="phone" v="+63-2-35000"/>
  </node>
  <node id="675637220" version="4" timestamp="2010-07-29T08:19:03Z" uid="74617" user="JohnSmith" changeset="5344518" lat="15.0930247" lon="120.6699599">
    <tag k="amenity" v="emergency_phone"/>
    <tag k="emergency" v="phone"/>
    <tag k="operator" v="Manila North Tollways Corporation"/>
    <tag k="phone" v="+63-2-35000"/>
  </node>
  <node id="675638854" version="3" timestamp="2010-07-28T20:29:31Z" uid="74617" user="JohnSmith" changeset="5341853" lat="15.1129747" lon="120.6586733">
    <tag k="emergency" v="phone"/>
    <tag k="operator" v="Manila North Tollways Corporation"/>
    <tag k="phone" v="+63-2-35000"/>
  </node>
  <node id="675638854" version="4" timestamp="2010-07-29T08:17:59Z" uid="74617" user="JohnSmith" changeset="5344518" lat="15.1129747" lon="120.6586733">
    <tag k="amenity" v="emergency_phone"/>
    <tag k="emergency" v="phone"/>
    <tag k="operator" v="Manila North Tollways Corporation"/>
    <tag k="phone" v="+63-2-35000"/>
  </node>
  <node id="675639031" version="3" timestamp="2010-07-28T20:29:39Z" uid="74617" user="JohnSmith" changeset="5341853" lat="15.1127677" lon="120.6581583">
    <tag k="emergency" v="phone"/>
    <tag k="operator" v="Manila North Tollways Corporation"/>
    <tag k="phone" v="+63-2-35000"/>
  </node>
  <node id="675639031" version="4" timestamp="2010-07-29T08:17:50Z" uid="74617" user="JohnSmith" changeset="5344518" lat="15.1127677" lon="120.6581583">
    <tag k="amenity" v="emergency_phone"/>
    <tag k="emergency" v="phone"/>
    <tag k="operator" v="Manila North Tollways Corporation"/>
    <tag k="phone" v="+63-2-35000"/>
  </node>
</osm>
