<?xml version='1.0' encoding='UTF-8'?>
<osm version="0.6" generator="libosmium/2.20.0">
  <node id="68303301" version="1" timestamp="2007-10-13T09:25:11Z" uid="1066" user="pavel" changeset="142854" lat="50.15" lon="14.1">
    <tag k="created_by" v="readgov"/>
    <tag k="name" v="Kladno"/>
    <tag k="place" v="town"/>
    <tag k="source" v="http://earth-info.nga.mil/gns/html/"/>
  </node>
  <node id="68303301" version="3" timestamp="2008-09-29T23:42:39Z" uid="1066" user="pavel" changeset="720263" lat="50.1470191" lon="14.1027761">
    <tag k="is_in" v="Czech Republic, Europe"/>
    <tag k="name" v="Kladno"/>
    <tag k="place" v="town"/>
    <tag k="source" v="http://earth-info.nga.mil/gns/html/"/>
  </node>
  <node id="68303311" version="1" timestamp="2007-10-13T09:25:12Z" uid="1066" user="pavel" changeset="142854" lat="49.866667" lon="18.55">
    <tag k="created_by" v="readgov"/>
    <tag k="name" v="Karviná"/>
    <tag k="place" v="town"/>
    <tag k="source" v="http://earth-info.nga.mil/gns/html/"/>
  </node>
  <node id="68303311" version="2" timestamp="2008-09-30T11:45:05Z" uid="1066" user="pavel" changeset="720911" lat="49.866667" lon="18.55">
    <tag k="is_in" v="Czech Republic, Europe"/>
    <tag k="name" v="Karviná"/>
    <tag k="place" v="town"/>
    <tag k="source" v="http://earth-info.nga.mil/gns/html/"/>
  </node>
  <node id="68303328" version="1" timestamp="2007-10-13T09:25:14Z" uid="1066" user="pavel" changeset="142854" lat="50.633333" lon="13.833333">
    <tag k="created_by" v="readgov"/>
    <tag k="name" v="Teplice"/>
    <tag k="place" v="town"/>
    <tag k="source" v="http://earth-info.nga.mil/gns/html/"/>
  </node>
  <node id="68303328" version="2" timestamp="2008-09-30T11:40:04Z" uid="1066" user="pavel" changeset="720911" lat="50.633333" lon="13.833333">
    <tag k="is_in" v="Czech Republic, Europe"/>
    <tag k="name" v="Teplice"/>
    <tag k="place" v="town"/>
    <tag k="source" v="http://earth-info.nga.mil/gns/html/"/>
  </node>
  <node id="68303328" version="6" timestamp="2009-07-26T17:34:58Z" uid="123700" user="Mala" changeset="1947360" lat="50.6423357" lon="13.8273538">
    <tag k="is_in" v="Czech Republic, Europe"/>
    <tag k="is_in:continent" v="Europe"/>
    <tag k="is_in:country_code" v="cz"/>
    <tag k="name" v="Teplice"/>
    <tag k="name:de" v="Teplitz"/>
    <tag k="name:pl" v="Cieplice"/>
    <tag k="place" v="town"/>
    <tag k="source" v="http://earth-info.nga.mil/gns/html/"/>
    <tag k="wikipedia" v="Teplice"/>
  </node>
  <node id="68303353" version="1" timestamp="2007-10-13T09:25:15Z" uid="1066" user="pavel" changeset="142854" lat="50.783333" lon="14.216667">
    <tag k="created_by" v="readgov"/>
    <tag k="name" v="Děčín"/>
    <tag k="place" v="town"/>
    <tag k="source" v="http://earth-info.nga.mil/gns/html/"/>
  </node>
  <node id="68303353" version="4" timestamp="2008-09-30T10:51:15Z" uid="1066" user="pavel" changeset="720911" lat="50.7820493" lon="14.2168319">
    <tag k="is_in" v="Czech Republic, Europe"/>
    <tag k="name" v="Děčín"/>
    <tag k="name:de" v="Tetschen-Bodenbach"/>
    <tag k="place" v="town"/>
  </node>
  <node id="68303371" version="1" timestamp="2007-10-13T09:25:16Z" uid="1066" user="pavel" changeset="142854" lat="49.683333" lon="18.35">
    <tag k="created_by" v="readgov"/>
    <tag k="name" v="Frýdek-Místek"/>
    <tag k="place" v="town"/>
    <tag k="source" v="http://earth-info.nga.mil/gns/html/"/>
  </node>
  <node id="68303371" version="2" timestamp="2008-09-30T11:39:46Z" uid="1066" user="pavel" changeset="720911" lat="49.683333" lon="18.35">
    <tag k="is_in" v="Czech Republic, Europe"/>
    <tag k="name" v="Frýdek-Místek"/>
    <tag k="place" v="town"/>
    <tag k="source" v="http://earth-info.nga.mil/gns/html/"/>
  </node>
  <node id="68303387" version="1" timestamp="2007-10-13T09:25:17Z" uid="1066" user="pavel" changeset="142854" lat="49.8" lon="18.4">
    <tag k="created_by" v="readgov"/>
    <tag k="name" v="Havířov"/>
    <tag k="place" v="town"/>
    <tag k="source" v="http://earth-info.nga.mil/gns/html/"/>
  </node>
  <node id="68303387" version="3" timestamp="2008-09-30T11:33:21Z" uid="1066" user="pavel" changeset="720911" lat="49.7693325" lon="18.433862">
    <tag k="is_in" v="Czech Republic, Europe"/>
    <tag k="name" v="Havířov"/>
    <tag k="place" v="town"/>
    <tag k="source" v="http://earth-info.nga.mil/gns/html/"/>
  </node>
</osm>
