<?xml version='1.0' encoding='UTF-8'?>
<osm version="0.6" generator="libosmium/2.20.0">
  <node id="68345804" version="2" timestamp="2008-05-09T22:59:08Z" uid="36809" user="pfoten_weg_!_" changeset="380779" lat="48.1108322" lon="11.5177753">
    <tag k="created_by" v="JOSM"/>
  </node>
  <node id="68345804" version="3" timestamp="2008-05-21T13:35:08Z" uid="36809" user="pfoten_weg_!_" changeset="491596" lat="48.1108268" lon="11.5177973">
    <tag k="created_by" v="JOSM"/>
  </node>
  <node id="68345804" version="6" timestamp="2009-08-26T09:48:20Z" uid="36809" user="pfoten_weg_!_" changeset="2265457" lat="48.1108151" lon="11.5178002"/>
  <node id="68345811" version="6" timestamp="2008-05-21T13:35:08Z" uid="36809" user="pfoten_weg_!_" changeset="491596" lat="48.1104256" lon="11.5171536">
    <tag k="created_by" v="JOSM"/>
  </node>
  <node id="68345811" version="10" timestamp="2008-09-22T01:26:37Z" uid="36809" user="pfoten_weg_!_" changeset="678890" lat="48.1104256" lon="11.5171536">
    <tag k="created_by" v="JOSM"/>
    <tag k="highway" v="motorway_junction"/>
    <tag k="name" v="München-Sendling-Süd"/>
    <tag k="ref" v="1"/>
  </node>
  <node id="68345811" version="14" timestamp="2009-08-26T09:48:19Z" uid="36809" user="pfoten_weg_!_" changeset="2265457" lat="48.1104256" lon="11.5171536">
    <tag k="highway" v="motorway_junction"/>
    <tag k="ref" v="1"/>
  </node>
  <node id="68348750" version="1" timestamp="2007-10-13T10:05:19Z" uid="1066" user="pavel" changeset="142854" lat="50.666667" lon="14.033333">
    <tag k="created_by" v="readgov"/>
    <tag k="name" v="Ústí nad Labem"/>
    <tag k="place" v="town"/>
    <tag k="source" v="http://earth-info.nga.mil/gns/html/"/>
  </node>
  <node id="68348750" version="5" timestamp="2008-09-30T10:45:13Z" uid="1066" user="pavel" changeset="720911" lat="50.6666756" lon="14.0333236">
    <tag k="is_in" v="Czech Republic, Europe"/>
    <tag k="old_name" v="Aussig"/>
    <tag k="place" v="city"/>
    <tag k="source" v="http://earth-info.nga.mil/gns/html/"/>
  </node>
  <node id="68348790" version="1" timestamp="2007-10-13T10:05:20Z" uid="1066" user="pavel" changeset="142854" lat="48.983333" lon="14.466667">
    <tag k="created_by" v="readgov"/>
    <tag k="name" v="České Budějovice"/>
    <tag k="place" v="town"/>
    <tag k="source" v="http://earth-info.nga.mil/gns/html/"/>
  </node>
  <node id="68348790" version="8" timestamp="2009-07-26T17:35:00Z" uid="123700" user="Mala" changeset="1947360" lat="48.9746964" lon="14.4745471">
    <tag k="is_in" v="České Budějovice, South Bohemia, Czech Republic, EU"/>
    <tag k="is_in:continent" v="Europe"/>
    <tag k="name" v="České Budějovice"/>
    <tag k="name:bg" v="Ческе Будейовице"/>
    <tag k="name:de" v="Böhmisch Budweis"/>
    <tag k="name:el" v="Τσέσκε Μπουντεγιόβιτσε"/>
    <tag k="name:ja" v="チェスケー・ブジェヨヴィツェ"/>
    <tag k="name:la" v="Budvicium"/>
    <tag k="name:lv" v="Česke Budejovicai"/>
    <tag k="name:pl" v="Czeskie Budziejowice"/>
    <tag k="name:ru" v="Ческе-Будеёвице"/>
    <tag k="name:sr" v="Чешке Будјејовице"/>
    <tag k="name:uk" v="Чеське-Будєйовіце"/>
    <tag k="name:zh" v="捷克布杰约维采"/>
    <tag k="place" v="city"/>
    <tag k="population" v="95071"/>
    <tag k="source" v="http://earth-info.nga.mil/gns/html/"/>
    <tag k="wikipedia" v="České Budějovice"/>
  </node>
  <node id="68348810" version="1" timestamp="2007-10-13T10:05:21Z" uid="1066" user="pavel" changeset="142854" lat="50.027778" lon="15.775833">
    <tag k="created_by" v="readgov"/>
    <tag k="name" v="Pardubice"/>
    <tag k="place" v="town"/>
    <tag k="source" v="http://earth-info.nga.mil/gns/html/"/>
  </node>
  <node id="68348810" version="2" timestamp="2008-09-30T10:14:34Z" uid="1066" user="pavel" changeset="720911" lat="50.027778" lon="15.775833">
    <tag k="is_in" v="Czech Republic, Europe"/>
    <tag k="name" v="Pardubice"/>
    <tag k="place" v="town"/>
    <tag k="source" v="http://earth-info.nga.mil/gns/html/"/>
  </node>
  <node id="68348834" version="1" timestamp="2007-10-13T10:05:23Z" uid="1066" user="pavel" changeset="142854" lat="50.211667" lon="15.844167">
    <tag k="created_by" v="readgov"/>
    <tag k="name" v="Hradec Králové"/>
    <tag k="place" v="town"/>
    <tag k="source" v="http://earth-info.nga.mil/gns/html/"/>
  </node>
  <node id="68349682" version="3" timestamp="2007-10-13T19:09:50Z" uid="13367" user="nubok" changeset="146989" lat="59.6164569" lon="16.5486394">
    <tag k="created_by" v="JOSM"/>
  </node>
  <node id="68349682" version="4" timestamp="2007-10-13T19:10:08Z" uid="13367" user="nubok" changeset="146989" lat="59.6164569" lon="16.5486394">
    <tag k="created_by" v="JOSM"/>
  </node>
</osm>
