<?xml version='1.0' encoding='UTF-8'?>
<osm version="0.6" generator="libosmium/2.20.0">
  <node id="68374307" version="1" timestamp="2007-10-13T10:23:50Z" uid="1066" user="pavel" changeset="142854" lat="50.766667" lon="14.583333">
    <tag k="created_by" v="readgov"/>
    <tag k="name" v="Nový Bor"/>
    <tag k="place" v="town"/>
    <tag k="source" v="http://earth-info.nga.mil/gns/html/"/>
  </node>
  <node id="68374307" version="3" timestamp="2008-09-30T10:36:55Z" uid="1066" user="pavel" changeset="720911" lat="50.7616897" lon="14.556259">
    <tag k="is_in" v="Czech Republic, Europe"/>
    <tag k="name" v="Nový Bor"/>
    <tag k="place" v="town"/>
    <tag k="source" v="http://earth-info.nga.mil/gns/html/"/>
  </node>
  <node id="68374328" version="1" timestamp="2007-10-13T10:23:50Z" uid="1066" user="pavel" changeset="142854" lat="49.483333" lon="16.666667">
    <tag k="created_by" v="readgov"/>
    <tag k="name" v="Boskovice"/>
    <tag k="place" v="town"/>
    <tag k="source" v="http://earth-info.nga.mil/gns/html/"/>
  </node>
  <node id="68374328" version="2" timestamp="2008-09-30T10:07:13Z" uid="1066" user="pavel" changeset="720911" lat="49.483333" lon="16.666667">
    <tag k="is_in" v="Czech Republic, Europe"/>
    <tag k="name" v="Boskovice"/>
    <tag k="place" v="town"/>
    <tag k="source" v="http://earth-info.nga.mil/gns/html/"/>
  </node>
  <node id="68374360" version="1" timestamp="2007-10-13T10:23:51Z" uid="1066" user="pavel" changeset="142854" lat="49.566667" lon="16.083333">
    <tag k="created_by" v="readgov"/>
    <tag k="name" v="Nové Město na Moravě"/>
    <tag k="place" v="town"/>
    <tag k="source" v="http://earth-info.nga.mil/gns/html/"/>
  </node>
  <node id="68374360" version="3" timestamp="2008-09-30T10:25:52Z" uid="1066" user="pavel" changeset="720911" lat="49.5606497" lon="16.0744945">
    <tag k="is_in" v="Czech Republic, Europe"/>
    <tag k="name" v="Nové Město na Moravě"/>
    <tag k="place" v="town"/>
    <tag k="source" v="http://earth-info.nga.mil/gns/html/"/>
  </node>
  <node id="68374386" version="1" timestamp="2007-10-13T10:23:52Z" uid="1066" user="pavel" changeset="142854" lat="49.016667" lon="14">
    <tag k="created_by" v="readgov"/>
    <tag k="name" v="Prachatice"/>
    <tag k="place" v="town"/>
    <tag k="source" v="http://earth-info.nga.mil/gns/html/"/>
  </node>
  <node id="68374386" version="2" timestamp="2008-09-30T10:48:45Z" uid="1066" user="pavel" changeset="720911" lat="49.016667" lon="14">
    <tag k="is_in" v="Czech Republic, Europe"/>
    <tag k="name" v="Prachatice"/>
    <tag k="place" v="town"/>
    <tag k="source" v="http://earth-info.nga.mil/gns/html/"/>
  </node>
  <node id="68374403" version="1" timestamp="2007-10-13T10:23:53Z" uid="1066" user="pavel" changeset="142854" lat="49.95" lon="16.166667">
    <tag k="created_by" v="readgov"/>
    <tag k="name" v="Vysoké Mýto"/>
    <tag k="place" v="town"/>
    <tag k="source" v="http://earth-info.nga.mil/gns/html/"/>
  </node>
  <node id="68374403" version="2" timestamp="2008-09-30T10:24:06Z" uid="1066" user="pavel" changeset="720911" lat="49.95" lon="16.166667">
    <tag k="is_in" v="Czech Republic, Europe"/>
    <tag k="name" v="Vysoké Mýto"/>
    <tag k="place" v="town"/>
    <tag k="source" v="http://earth-info.nga.mil/gns/html/"/>
  </node>
  <node id="68374422" version="1" timestamp="2007-10-13T10:23:54Z" uid="1066" user="pavel" changeset="142854" lat="49.75" lon="16.666667">
    <tag k="created_by" v="readgov"/>
    <tag k="name" v="Moravská Třebová"/>
    <tag k="place" v="town"/>
    <tag k="source" v="http://earth-info.nga.mil/gns/html/"/>
  </node>
  <node id="68374422" version="4" timestamp="2008-09-30T10:34:00Z" uid="1066" user="pavel" changeset="720911" lat="49.7583295" lon="16.6634848">
    <tag k="is_in" v="Czech Republic, Europe"/>
    <tag k="name" v="Moravská Třebová"/>
    <tag k="place" v="town"/>
    <tag k="source" v="http://earth-info.nga.mil/gns/html/"/>
  </node>
  <node id="68374448" version="1" timestamp="2007-10-13T10:23:55Z" uid="1066" user="pavel" changeset="142854" lat="49.440278" lon="12.927222">
    <tag k="created_by" v="readgov"/>
    <tag k="name" v="Domažlice"/>
    <tag k="place" v="town"/>
    <tag k="source" v="http://earth-info.nga.mil/gns/html/"/>
  </node>
  <node id="68374474" version="1" timestamp="2007-10-13T10:23:56Z" uid="1066" user="pavel" changeset="142854" lat="49.983333" lon="14.65">
    <tag k="created_by" v="readgov"/>
    <tag k="name" v="Říčany"/>
    <tag k="place" v="town"/>
    <tag k="source" v="http://earth-info.nga.mil/gns/html/"/>
  </node>
  <node id="68374474" version="4" timestamp="2008-09-29T23:44:18Z" uid="1066" user="pavel" changeset="720263" lat="49.9958717" lon="14.662319">
    <tag k="is_in" v="Czech Republic, Europe"/>
    <tag k="name" v="Říčany"/>
    <tag k="place" v="town"/>
    <tag k="source" v="http://earth-info.nga.mil/gns/html/"/>
  </node>
  <node id="68374495" version="1" timestamp="2007-10-13T10:23:57Z" uid="1066" user="pavel" changeset="142854" lat="49.766667" lon="17.133333">
    <tag k="created_by" v="readgov"/>
    <tag k="name" v="Uničov"/>
    <tag k="place" v="town"/>
    <tag k="source" v="http://earth-info.nga.mil/gns/html/"/>
  </node>
  <node id="68374531" version="1" timestamp="2007-10-13T10:23:58Z" uid="1066" user="pavel" changeset="142854" lat="50.333333" lon="16.166667">
    <tag k="created_by" v="readgov"/>
    <tag k="name" v="Nové Město nad Metují"/>
    <tag k="place" v="town"/>
    <tag k="source" v="http://earth-info.nga.mil/gns/html/"/>
  </node>
  <node id="68374531" version="2" timestamp="2008-09-30T11:44:52Z" uid="1066" user="pavel" changeset="720911" lat="50.333333" lon="16.166667">
    <tag k="is_in" v="Czech Republic, Europe"/>
    <tag k="name" v="Nové Město nad Metují"/>
    <tag k="place" v="town"/>
    <tag k="source" v="http://earth-info.nga.mil/gns/html/"/>
  </node>
  <node id="68374546" version="1" timestamp="2007-10-13T10:23:59Z" uid="1066" user="pavel" changeset="142854" lat="49.55" lon="18.216667">
    <tag k="created_by" v="readgov"/>
    <tag k="name" v="Frenštát pod Radhoštěm"/>
    <tag k="place" v="town"/>
    <tag k="source" v="http://earth-info.nga.mil/gns/html/"/>
  </node>
  <node id="68374546" version="2" timestamp="2008-09-30T10:05:22Z" uid="1066" user="pavel" changeset="720911" lat="49.55" lon="18.216667">
    <tag k="is_in" v="Czech Republic, Europe"/>
    <tag k="name" v="Frenštát pod Radhoštěm"/>
    <tag k="place" v="town"/>
    <tag k="source" v="http://earth-info.nga.mil/gns/html/"/>
  </node>
  <node id="68374624" version="1" timestamp="2007-10-13T10:24:03Z" uid="1066" user="pavel" changeset="142854" lat="49.7" lon="14.9">
    <tag k="created_by" v="readgov"/>
    <tag k="name" v="Vlašim"/>
    <tag k="place" v="town"/>
    <tag k="source" v="http://earth-info.nga.mil/gns/html/"/>
  </node>
  <node id="68374624" version="3" timestamp="2008-09-30T00:02:00Z" uid="1066" user="pavel" changeset="720263" lat="49.7004212" lon="14.8992339">
    <tag k="is_in" v="Czech Republic, Europe"/>
    <tag k="name" v="Vlašim"/>
    <tag k="place" v="town"/>
    <tag k="source" v="http://earth-info.nga.mil/gns/html/"/>
  </node>
  <node id="68374670" version="1" timestamp="2007-10-13T10:24:04Z" uid="1066" user="pavel" changeset="142854" lat="49.333333" lon="17.583333">
    <tag k="created_by" v="readgov"/>
    <tag k="name" v="Holešov"/>
    <tag k="place" v="town"/>
    <tag k="source" v="http://earth-info.nga.mil/gns/html/"/>
  </node>
  <node id="68374670" version="2" timestamp="2008-09-30T11:34:06Z" uid="1066" user="pavel" changeset="720911" lat="49.333333" lon="17.583333">
    <tag k="is_in" v="Czech Republic, Europe"/>
    <tag k="name" v="Holešov"/>
    <tag k="place" v="town"/>
    <tag k="source" v="http://earth-info.nga.mil/gns/html/"/>
  </node>
  <node id="68374709" version="1" timestamp="2007-10-13T10:24:05Z" uid="1066" user="pavel" changeset="142854" lat="50.166667" lon="16.283333">
    <tag k="created_by" v="readgov"/>
    <tag k="name" v="Rychnov nad Kněžnou"/>
    <tag k="place" v="town"/>
    <tag k="source" v="http://earth-info.nga.mil/gns/html/"/>
  </node>
  <node id="68374709" version="2" timestamp="2008-09-30T10:04:25Z" uid="1066" user="pavel" changeset="720911" lat="50.166667" lon="16.283333">
    <tag k="is_in" v="Czech Republic, Europe"/>
    <tag k="name" v="Rychnov nad Kněžnou"/>
    <tag k="place" v="town"/>
    <tag k="source" v="http://earth-info.nga.mil/gns/html/"/>
  </node>
  <node id="68374735" version="1" timestamp="2007-10-13T10:24:06Z" uid="1066" user="pavel" changeset="142854" lat="50.95" lon="14.566667">
    <tag k="created_by" v="readgov"/>
    <tag k="name" v="Rumburk"/>
    <tag k="place" v="town"/>
    <tag k="source" v="http://earth-info.nga.mil/gns/html/"/>
  </node>
  <node id="68374735" version="3" timestamp="2008-09-30T11:47:19Z" uid="1066" user="pavel" changeset="720911" lat="50.9496705" lon="14.5520898">
    <tag k="is_in" v="Czech Republic, Europe"/>
    <tag k="name" v="Rumburk"/>
    <tag k="name:de" v="Rumburg"/>
    <tag k="place" v="town"/>
  </node>
  <node id="68374768" version="1" timestamp="2007-10-13T10:24:07Z" uid="1066" user="pavel" changeset="142854" lat="49.716667" lon="17.083333">
    <tag k="created_by" v="readgov"/>
    <tag k="name" v="Litovel"/>
    <tag k="place" v="town"/>
    <tag k="source" v="http://earth-info.nga.mil/gns/html/"/>
  </node>
  <node id="68374799" version="1" timestamp="2007-10-13T10:24:09Z" uid="1066" user="pavel" changeset="142854" lat="48.95" lon="17.4">
    <tag k="created_by" v="readgov"/>
    <tag k="name" v="Veselí nad Moravou"/>
    <tag k="place" v="town"/>
    <tag k="source" v="http://earth-info.nga.mil/gns/html/"/>
  </node>
  <node id="68374799" version="2" timestamp="2008-09-30T10:30:15Z" uid="1066" user="pavel" changeset="720911" lat="48.95" lon="17.4">
    <tag k="is_in" v="Czech Republic, Europe"/>
    <tag k="name" v="Veselí nad Moravou"/>
    <tag k="place" v="town"/>
    <tag k="source" v="http://earth-info.nga.mil/gns/html/"/>
  </node>
  <node id="68378281" version="3" timestamp="2010-02-26T03:29:11Z" uid="99207" user="Lar Kiesel" changeset="3977410" lat="33.715189" lon="-84.29941">
    <tag k="highway" v="motorway_junction"/>
    <tag k="name" v="Gresham Road; Flat Shoals Road"/>
    <tag k="ref" v="63"/>
  </node>
  <node id="68378391" version="3" timestamp="2010-02-26T03:29:22Z" uid="99207" user="Lar Kiesel" changeset="3977410" lat="33.714644" lon="-84.267354">
    <tag k="highway" v="motorway_junction"/>
    <tag k="name" v="GA 155; Candler Road"/>
    <tag k="ref" v="65"/>
  </node>
  <node id="68379052" version="3" timestamp="2010-02-26T03:29:25Z" uid="99207" user="Lar Kiesel" changeset="3977410" lat="33.7121415" lon="-84.2897899"/>
  <node id="68379054" version="3" timestamp="2010-02-26T03:29:25Z" uid="99207" user="Lar Kiesel" changeset="3977410" lat="33.7120433" lon="-84.2877782"/>
  <node id="68379056" version="3" timestamp="2010-02-26T03:29:25Z" uid="99207" user="Lar Kiesel" changeset="3977410" lat="33.712088" lon="-84.2862976"/>
  <node id="68379061" version="3" timestamp="2010-02-26T03:29:25Z" uid="99207" user="Lar Kiesel" changeset="3977410" lat="33.7121103" lon="-84.2856485"/>
  <node id="68379076" version="3" timestamp="2010-02-26T03:29:25Z" uid="99207" user="Lar Kiesel" changeset="3977410" lat="33.7123334" lon="-84.2785192"/>
  <node id="68379078" version="3" timestamp="2010-02-26T03:29:25Z" uid="99207" user="Lar Kiesel" changeset="3977410" lat="33.7124539" lon="-84.2774678"/>
  <node id="68379080" version="3" timestamp="2010-02-26T03:29:25Z" uid="99207" user="Lar Kiesel" changeset="3977410" lat="33.7124896" lon="-84.2771942"/>
  <node id="68379112" version="3" timestamp="2010-02-26T03:29:20Z" uid="99207" user="Lar Kiesel" changeset="3977410" lat="33.716213" lon="-84.257823">
    <tag k="highway" v="motorway_junction"/>
    <tag k="name" v="Columbia Drive"/>
    <tag k="ref" v="66"/>
  </node>
  <node id="68379135" version="3" timestamp="2010-02-26T03:29:25Z" uid="99207" user="Lar Kiesel" changeset="3977410" lat="33.7137568" lon="-84.2347134"/>
</osm>
