<?xml version='1.0' encoding='UTF-8'?>
<osm version="0.6" generator="libosmium/2.20.0">
  <node id="68501315" version="5" timestamp="2007-10-27T15:31:09Z" uid="13367" user="nubok" changeset="331291" lat="52.6715033" lon="8.2185553">
    <tag k="created_by" v="JOSM"/>
    <tag k="highway" v="unclassified"/>
    <tag k="name" v="Märschendorfer Straße"/>
  </node>
  <node id="68501318" version="3" timestamp="2007-10-27T15:31:09Z" uid="13367" user="nubok" changeset="331291" lat="52.671352" lon="8.218448">
    <tag k="created_by" v="JOSM"/>
    <tag k="highway" v="unclassified"/>
    <tag k="name" v="Märschendorfer Straße"/>
  </node>
  <node id="68501322" version="3" timestamp="2007-10-27T15:31:09Z" uid="13367" user="nubok" changeset="331291" lat="52.671057" lon="8.2182479">
    <tag k="created_by" v="JOSM"/>
    <tag k="highway" v="unclassified"/>
    <tag k="name" v="Brandstraße"/>
  </node>
  <node id="68501326" version="3" timestamp="2007-10-27T15:31:09Z" uid="13367" user="nubok" changeset="331291" lat="52.6704039" lon="8.2177352">
    <tag k="created_by" v="JOSM"/>
    <tag k="highway" v="unclassified"/>
    <tag k="name" v="Brandstraße"/>
  </node>
  <node id="68501328" version="3" timestamp="2007-10-27T15:31:09Z" uid="13367" user="nubok" changeset="331291" lat="52.6701124" lon="8.2174788">
    <tag k="created_by" v="JOSM"/>
    <tag k="highway" v="unclassified"/>
    <tag k="name" v="Brandstraße"/>
  </node>
  <node id="68501332" version="3" timestamp="2007-10-27T15:31:09Z" uid="13367" user="nubok" changeset="331291" lat="52.6699122" lon="8.2172998">
    <tag k="created_by" v="JOSM"/>
    <tag k="highway" v="unclassified"/>
    <tag k="name" v="Brandstraße"/>
  </node>
  <node id="68501335" version="3" timestamp="2007-10-27T15:31:09Z" uid="13367" user="nubok" changeset="331291" lat="52.6697086" lon="8.2171207">
    <tag k="created_by" v="JOSM"/>
    <tag k="highway" v="unclassified"/>
    <tag k="name" v="Brandstraße"/>
  </node>
  <node id="68501341" version="3" timestamp="2007-10-27T15:31:09Z" uid="13367" user="nubok" changeset="331291" lat="52.6695084" lon="8.2169451">
    <tag k="created_by" v="JOSM"/>
    <tag k="highway" v="unclassified"/>
    <tag k="name" v="Brandstraße"/>
  </node>
  <node id="68501342" version="3" timestamp="2007-10-27T15:31:09Z" uid="13367" user="nubok" changeset="331291" lat="52.668771" lon="8.2163165">
    <tag k="created_by" v="JOSM"/>
    <tag k="highway" v="unclassified"/>
    <tag k="name" v="Brandstraße"/>
  </node>
  <node id="68501347" version="3" timestamp="2007-10-27T15:31:09Z" uid="13367" user="nubok" changeset="331291" lat="52.6685603" lon="8.2161164">
    <tag k="created_by" v="JOSM"/>
    <tag k="highway" v="unclassified"/>
    <tag k="name" v="Brandstraße"/>
  </node>
  <node id="68501347" version="4" timestamp="2007-10-27T15:32:03Z" uid="13367" user="nubok" changeset="331291" lat="52.6685603" lon="8.2161164"/>
  <node id="68501347" version="5" timestamp="2007-10-27T15:32:05Z" uid="13367" user="nubok" changeset="331291" lat="52.6685603" lon="8.2161164">
    <tag k="created_by" v="JOSM"/>
    <tag k="highway" v="unclassified"/>
    <tag k="name" v="Brandstraße"/>
  </node>
  <node id="68501351" version="3" timestamp="2007-10-27T15:31:09Z" uid="13367" user="nubok" changeset="331291" lat="52.6682338" lon="8.2158285">
    <tag k="created_by" v="JOSM"/>
    <tag k="highway" v="unclassified"/>
    <tag k="name" v="Brandstraße"/>
  </node>
  <node id="68501357" version="3" timestamp="2007-10-27T15:31:09Z" uid="13367" user="nubok" changeset="331291" lat="52.6680125" lon="8.2156529">
    <tag k="created_by" v="JOSM"/>
    <tag k="highway" v="unclassified"/>
    <tag k="name" v="Brandstraße"/>
  </node>
  <node id="68501365" version="3" timestamp="2007-10-27T15:31:09Z" uid="13367" user="nubok" changeset="331291" lat="52.6672962" lon="8.2149927">
    <tag k="created_by" v="JOSM"/>
    <tag k="highway" v="unclassified"/>
    <tag k="name" v="Brandstraße"/>
  </node>
  <node id="68501367" version="3" timestamp="2007-10-27T15:31:09Z" uid="13367" user="nubok" changeset="331291" lat="52.6669802" lon="8.2147083">
    <tag k="created_by" v="JOSM"/>
    <tag k="highway" v="unclassified"/>
    <tag k="name" v="Brandstraße"/>
  </node>
  <node id="68501375" version="3" timestamp="2007-10-27T15:31:09Z" uid="13367" user="nubok" changeset="331291" lat="52.66678" lon="8.2145222">
    <tag k="created_by" v="JOSM"/>
    <tag k="highway" v="unclassified"/>
    <tag k="name" v="Brandstraße"/>
  </node>
  <node id="68501379" version="3" timestamp="2007-10-27T15:31:09Z" uid="13367" user="nubok" changeset="331291" lat="52.6663481" lon="8.2141465">
    <tag k="created_by" v="JOSM"/>
    <tag k="highway" v="unclassified"/>
    <tag k="name" v="Brandstraße"/>
  </node>
  <node id="68501385" version="3" timestamp="2007-10-27T15:31:09Z" uid="13367" user="nubok" changeset="331291" lat="52.6660286" lon="8.2138655">
    <tag k="created_by" v="JOSM"/>
    <tag k="highway" v="unclassified"/>
    <tag k="name" v="Brandstraße"/>
  </node>
  <node id="68501389" version="3" timestamp="2007-10-27T15:31:09Z" uid="13367" user="nubok" changeset="331291" lat="52.6658179" lon="8.2136864">
    <tag k="created_by" v="JOSM"/>
    <tag k="highway" v="unclassified"/>
    <tag k="name" v="Brandstraße"/>
  </node>
  <node id="68501395" version="3" timestamp="2007-10-27T15:31:09Z" uid="13367" user="nubok" changeset="331291" lat="52.6656072" lon="8.2135144">
    <tag k="created_by" v="JOSM"/>
    <tag k="highway" v="unclassified"/>
    <tag k="name" v="Brandstraße"/>
  </node>
  <node id="68501401" version="3" timestamp="2007-10-27T15:31:09Z" uid="13367" user="nubok" changeset="331291" lat="52.6654" lon="8.2133423">
    <tag k="created_by" v="JOSM"/>
    <tag k="highway" v="unclassified"/>
    <tag k="name" v="Brandstraße"/>
  </node>
  <node id="68501410" version="3" timestamp="2007-10-27T15:31:09Z" uid="13367" user="nubok" changeset="331291" lat="52.6651121" lon="8.2130825">
    <tag k="created_by" v="JOSM"/>
    <tag k="highway" v="unclassified"/>
    <tag k="name" v="Brandstraße"/>
  </node>
  <node id="68501419" version="3" timestamp="2007-10-27T15:31:09Z" uid="13367" user="nubok" changeset="331291" lat="52.6647504" lon="8.2127419">
    <tag k="created_by" v="JOSM"/>
    <tag k="highway" v="unclassified"/>
    <tag k="name" v="Brandstraße"/>
  </node>
  <node id="68501428" version="3" timestamp="2007-10-27T15:31:09Z" uid="13367" user="nubok" changeset="331291" lat="52.6644659" lon="8.2125417">
    <tag k="created_by" v="JOSM"/>
    <tag k="highway" v="unclassified"/>
    <tag k="name" v="Brandstraße"/>
  </node>
  <node id="68501439" version="3" timestamp="2007-10-27T15:31:09Z" uid="13367" user="nubok" changeset="331291" lat="52.6642623" lon="8.2123977">
    <tag k="created_by" v="JOSM"/>
    <tag k="highway" v="unclassified"/>
    <tag k="name" v="Brandstraße"/>
  </node>
  <node id="68501447" version="3" timestamp="2007-10-27T15:31:09Z" uid="13367" user="nubok" changeset="331291" lat="52.6639673" lon="8.2121625">
    <tag k="created_by" v="JOSM"/>
    <tag k="highway" v="unclassified"/>
    <tag k="name" v="Brandstraße"/>
  </node>
  <node id="68501455" version="3" timestamp="2007-10-27T15:31:09Z" uid="13367" user="nubok" changeset="331291" lat="52.6638725" lon="8.2120747">
    <tag k="created_by" v="JOSM"/>
    <tag k="highway" v="unclassified"/>
    <tag k="name" v="Brandstraße"/>
  </node>
  <node id="68501464" version="3" timestamp="2007-10-27T15:31:09Z" uid="13367" user="nubok" changeset="331291" lat="52.663433" lon="8.2117778">
    <tag k="created_by" v="JOSM"/>
    <tag k="highway" v="unclassified"/>
    <tag k="name" v="Brandstraße"/>
  </node>
  <node id="68501472" version="3" timestamp="2007-10-27T15:31:09Z" uid="13367" user="nubok" changeset="331291" lat="52.6627664" lon="8.211562">
    <tag k="created_by" v="JOSM"/>
    <tag k="highway" v="unclassified"/>
    <tag k="name" v="Brandstraße"/>
  </node>
  <node id="68501479" version="3" timestamp="2007-10-27T15:31:09Z" uid="13367" user="nubok" changeset="331291" lat="52.6626014" lon="8.2115374">
    <tag k="created_by" v="JOSM"/>
    <tag k="highway" v="unclassified"/>
    <tag k="name" v="Brandstraße"/>
  </node>
  <node id="68501485" version="3" timestamp="2007-10-27T15:31:09Z" uid="13367" user="nubok" changeset="331291" lat="52.6624188" lon="8.2115058">
    <tag k="created_by" v="JOSM"/>
    <tag k="highway" v="unclassified"/>
    <tag k="name" v="Brandstraße"/>
  </node>
  <node id="68501491" version="4" timestamp="2007-10-27T15:31:09Z" uid="13367" user="nubok" changeset="331291" lat="52.6623159" lon="8.2114932">
    <tag k="created_by" v="JOSM"/>
    <tag k="highway" v="unclassified"/>
    <tag k="name" v="Brandstraße"/>
  </node>
  <node id="68501491" version="5" timestamp="2007-10-27T15:31:09Z" uid="13367" user="nubok" changeset="331291" lat="52.6623159" lon="8.2114932">
    <tag k="created_by" v="JOSM"/>
    <tag k="highway" v="unclassified"/>
    <tag k="name" v="Brandstraße"/>
  </node>
  <node id="68501491" version="6" timestamp="2007-10-27T15:31:09Z" uid="13367" user="nubok" changeset="331291" lat="52.6623159" lon="8.2114932">
    <tag k="created_by" v="JOSM"/>
    <tag k="highway" v="unclassified"/>
    <tag k="name" v="Brandstraße"/>
  </node>
  <node id="68501496" version="6" timestamp="2007-10-27T15:31:09Z" uid="13367" user="nubok" changeset="331291" lat="52.6621203" lon="8.2114797">
    <tag k="created_by" v="JOSM"/>
    <tag k="highway" v="unclassified"/>
    <tag k="name" v="Dinklager Straße"/>
  </node>
  <node id="68501504" version="3" timestamp="2007-10-27T15:32:28Z" uid="13367" user="nubok" changeset="331291" lat="52.6622081" lon="8.2124329">
    <tag k="created_by" v="JOSM"/>
    <tag k="highway" v="unclassified"/>
    <tag k="name" v="Dinklager Straße"/>
  </node>
  <node id="68501512" version="3" timestamp="2007-10-27T15:32:28Z" uid="13367" user="nubok" changeset="331291" lat="52.6622467" lon="8.2127664">
    <tag k="created_by" v="JOSM"/>
    <tag k="highway" v="unclassified"/>
    <tag k="name" v="Dinklager Straße"/>
  </node>
  <node id="68501519" version="3" timestamp="2007-10-27T15:32:28Z" uid="13367" user="nubok" changeset="331291" lat="52.6622959" lon="8.2133142">
    <tag k="created_by" v="JOSM"/>
    <tag k="highway" v="unclassified"/>
    <tag k="name" v="Dinklager Straße"/>
  </node>
  <node id="68501524" version="3" timestamp="2007-10-27T15:32:28Z" uid="13367" user="nubok" changeset="331291" lat="52.6623204" lon="8.213704">
    <tag k="created_by" v="JOSM"/>
    <tag k="highway" v="unclassified"/>
    <tag k="name" v="Dinklager Straße"/>
  </node>
  <node id="68501539" version="3" timestamp="2007-10-27T15:32:28Z" uid="13367" user="nubok" changeset="331291" lat="52.6623556" lon="8.2141043">
    <tag k="created_by" v="JOSM"/>
    <tag k="highway" v="unclassified"/>
    <tag k="name" v="Dinklager Straße"/>
  </node>
  <node id="68501549" version="3" timestamp="2008-08-15T15:39:38Z" uid="13367" user="nubok" changeset="266089" lat="52.1662169" lon="11.6207402">
    <tag k="created_by" v="JOSM"/>
    <tag k="highway" v="traffic_signals"/>
  </node>
  <node id="68501551" version="3" timestamp="2007-10-27T15:32:28Z" uid="13367" user="nubok" changeset="331291" lat="52.6624258" lon="8.2150454">
    <tag k="created_by" v="JOSM"/>
    <tag k="highway" v="unclassified"/>
    <tag k="name" v="Dinklager Straße"/>
  </node>
  <node id="68501561" version="3" timestamp="2007-10-27T15:32:28Z" uid="13367" user="nubok" changeset="331291" lat="52.6624609" lon="8.215393">
    <tag k="created_by" v="JOSM"/>
    <tag k="highway" v="unclassified"/>
    <tag k="name" v="Dinklager Straße"/>
  </node>
  <node id="68501570" version="3" timestamp="2007-10-27T15:32:28Z" uid="13367" user="nubok" changeset="331291" lat="52.6625136" lon="8.2157477">
    <tag k="created_by" v="JOSM"/>
    <tag k="highway" v="unclassified"/>
    <tag k="name" v="Dinklager Straße"/>
  </node>
  <node id="68501575" version="3" timestamp="2007-10-27T15:32:28Z" uid="13367" user="nubok" changeset="331291" lat="52.6625873" lon="8.2162779">
    <tag k="created_by" v="JOSM"/>
    <tag k="highway" v="unclassified"/>
    <tag k="name" v="Dinklager Straße"/>
  </node>
  <node id="68501583" version="3" timestamp="2007-10-27T15:32:28Z" uid="13367" user="nubok" changeset="331291" lat="52.662784" lon="8.2173524">
    <tag k="created_by" v="JOSM"/>
    <tag k="highway" v="unclassified"/>
    <tag k="name" v="Dinklager Straße"/>
  </node>
  <node id="68501591" version="3" timestamp="2007-10-27T15:32:28Z" uid="13367" user="nubok" changeset="331291" lat="52.6628858" lon="8.2178967">
    <tag k="created_by" v="JOSM"/>
    <tag k="highway" v="unclassified"/>
    <tag k="name" v="Dinklager Straße"/>
  </node>
  <node id="68501596" version="3" timestamp="2007-10-27T15:32:28Z" uid="13367" user="nubok" changeset="331291" lat="52.662963" lon="8.2182689">
    <tag k="created_by" v="JOSM"/>
    <tag k="highway" v="unclassified"/>
    <tag k="name" v="Dinklager Straße"/>
  </node>
  <node id="68501604" version="3" timestamp="2007-10-27T15:32:28Z" uid="13367" user="nubok" changeset="331291" lat="52.6630262" lon="8.2186482">
    <tag k="created_by" v="JOSM"/>
    <tag k="highway" v="unclassified"/>
    <tag k="name" v="Dinklager Straße"/>
  </node>
  <node id="68501609" version="3" timestamp="2007-10-27T15:32:28Z" uid="13367" user="nubok" changeset="331291" lat="52.6633282" lon="8.2203758">
    <tag k="created_by" v="JOSM"/>
    <tag k="highway" v="unclassified"/>
    <tag k="name" v="Dinklager Straße"/>
  </node>
  <node id="68501615" version="3" timestamp="2007-10-27T15:32:28Z" uid="13367" user="nubok" changeset="331291" lat="52.6634301" lon="8.2209693">
    <tag k="created_by" v="JOSM"/>
    <tag k="highway" v="unclassified"/>
    <tag k="name" v="Dinklager Straße"/>
  </node>
  <node id="68501624" version="3" timestamp="2007-10-27T15:32:28Z" uid="13367" user="nubok" changeset="331291" lat="52.6634617" lon="8.2211554">
    <tag k="created_by" v="JOSM"/>
    <tag k="highway" v="unclassified"/>
    <tag k="name" v="Dinklager Straße"/>
  </node>
  <node id="68501629" version="3" timestamp="2007-10-27T15:32:28Z" uid="13367" user="nubok" changeset="331291" lat="52.663574" lon="8.2217453">
    <tag k="created_by" v="JOSM"/>
    <tag k="highway" v="unclassified"/>
    <tag k="name" v="Dinklager Straße"/>
  </node>
  <node id="68501636" version="3" timestamp="2007-10-27T15:32:28Z" uid="13367" user="nubok" changeset="331291" lat="52.6636337" lon="8.2221386">
    <tag k="created_by" v="JOSM"/>
    <tag k="highway" v="unclassified"/>
    <tag k="name" v="Dinklager Straße"/>
  </node>
  <node id="68501642" version="3" timestamp="2007-10-27T15:32:28Z" uid="13367" user="nubok" changeset="331291" lat="52.6638479" lon="8.2235045">
    <tag k="created_by" v="JOSM"/>
    <tag k="highway" v="unclassified"/>
    <tag k="name" v="Dinklager Straße"/>
  </node>
  <node id="68501646" version="3" timestamp="2007-10-27T15:32:28Z" uid="13367" user="nubok" changeset="331291" lat="52.6639111" lon="8.2238908">
    <tag k="created_by" v="JOSM"/>
    <tag k="highway" v="unclassified"/>
    <tag k="name" v="Dinklager Straße"/>
  </node>
  <node id="68501649" version="3" timestamp="2007-10-27T15:32:28Z" uid="13367" user="nubok" changeset="331291" lat="52.6639638" lon="8.2242841">
    <tag k="created_by" v="JOSM"/>
    <tag k="highway" v="unclassified"/>
    <tag k="name" v="Dinklager Straße"/>
  </node>
  <node id="68501651" version="3" timestamp="2007-10-27T15:32:28Z" uid="13367" user="nubok" changeset="331291" lat="52.6640656" lon="8.2248319">
    <tag k="created_by" v="JOSM"/>
    <tag k="highway" v="unclassified"/>
    <tag k="name" v="Dinklager Straße"/>
  </node>
  <node id="68505989" version="3" timestamp="2009-09-30T14:59:47Z" uid="36809" user="pfoten_weg_!_" changeset="2689341" lat="48.0003272" lon="11.1734553"/>
  <node id="68506003" version="2" timestamp="2009-09-30T14:59:42Z" uid="36809" user="pfoten_weg_!_" changeset="2689341" lat="48.0004721" lon="11.1740028"/>
  <node id="68506016" version="3" timestamp="2009-09-30T14:59:42Z" uid="36809" user="pfoten_weg_!_" changeset="2689341" lat="48.0004142" lon="11.1744481"/>
  <node id="68507505" version="4" timestamp="2009-07-25T22:01:29Z" uid="123700" user="Mala" changeset="1939174" lat="43.1121157" lon="12.3889035">
    <tag k="gfoss_id" v="4725"/>
    <tag k="is_in" v="Perugia, Umbria, Italy"/>
    <tag k="is_in:continent" v="Europe"/>
    <tag k="name" v="Perugia"/>
    <tag k="name:fr" v="Pérouse"/>
    <tag k="name:pt" v="Perúgia"/>
    <tag k="place" v="city"/>
    <tag k="population" v="149125"/>
    <tag k="source" v="geodati.gfoss.it"/>
    <tag k="wikipedia" v="Perugia"/>
  </node>
  <node id="68507678" version="3" timestamp="2009-07-22T18:42:32Z" uid="20587" user="balrog-kun" changeset="1907934" lat="43.0694689" lon="12.615679">
    <tag k="gfoss_id" v="4687"/>
    <tag k="is_in" v="Perugia, Umbria, Italy"/>
    <tag k="name" v="Assisi"/>
    <tag k="name:ar" v="أسيزي"/>
    <tag k="name:es" v="Asís"/>
    <tag k="name:la" v="Asisium"/>
    <tag k="name:pl" v="Asyż"/>
    <tag k="name:ru" v="Ассизи"/>
    <tag k="place" v="town"/>
    <tag k="population" v="25304"/>
    <tag k="source" v="geodati.gfoss.it"/>
    <tag k="wikipedia" v="Assisi"/>
  </node>
</osm>
