<?xml version='1.0' encoding='UTF-8'?>
<osm version="0.6" generator="libosmium/2.20.0">
  <node id="68561227" version="3" timestamp="2009-07-29T09:59:17Z" uid="74617" user="JohnSmith" changeset="1974003" lat="-25.9035892" lon="153.0897221">
    <tag k="name" v="Rainbow Beach"/>
    <tag k="place" v="town"/>
  </node>
  <node id="68563972" version="10" timestamp="2010-03-04T09:25:42Z" uid="6975" user="ulfl" changeset="4031155" lat="52.2651454" lon="8.050344">
    <tag k="name" v="Hotel Westermann"/>
    <tag k="stars" v="3"/>
    <tag k="tourism" v="hotel"/>
  </node>
  <node id="68563972" version="11" timestamp="2010-03-08T20:06:56Z" uid="6975" user="ulfl" changeset="4075290" lat="52.2651454" lon="8.050344">
    <tag k="addr:city" v="Osnabrück"/>
    <tag k="addr:country" v="D"/>
    <tag k="addr:housenumber" v="1"/>
    <tag k="addr:postcode" v="49080"/>
    <tag k="addr:street" v="Koksche Straße"/>
    <tag k="name" v="Hotel Westermann"/>
    <tag k="phone" v="0541 98114 0"/>
    <tag k="stars" v="3"/>
    <tag k="tourism" v="hotel"/>
    <tag k="url" v="www.westermann-hotel.de"/>
  </node>
  <node id="68566142" version="7" timestamp="2009-07-22T18:42:38Z" uid="20587" user="balrog-kun" changeset="1907934" lat="40.8489506" lon="14.2500837">
    <tag k="created_by" v="Potlatch 0.10f"/>
    <tag k="gfoss_id" v="5387"/>
    <tag k="is_in" v="Napoli, Campania, Italy"/>
    <tag k="is_in:continent" v="Europe"/>
    <tag k="name" v="Napoli"/>
    <tag k="name:de" v="Neapel"/>
    <tag k="name:en" v="Naples"/>
    <tag k="name:es" v="Nápoles"/>
    <tag k="name:hr" v="Napulj"/>
    <tag k="name:hu" v="Nápoly"/>
    <tag k="name:nl" v="Napels"/>
    <tag k="place" v="city"/>
    <tag k="population" v="1004500"/>
    <tag k="source" v="geodati.gfoss.it"/>
  </node>
  <node id="68566151" version="5" timestamp="2009-07-25T22:01:22Z" uid="123700" user="Mala" changeset="1939174" lat="41.1295586" lon="14.7824639">
    <tag k="gfoss_id" v="5268"/>
    <tag k="is_in" v="Benevento, Campania, Italy"/>
    <tag k="is_in:city" v="Benevento"/>
    <tag k="is_in:continent" v="Europe"/>
    <tag k="name" v="Benevento"/>
    <tag k="name:fr" v="Bénévent"/>
    <tag k="name:pl" v="Benewent"/>
    <tag k="place" v="city"/>
    <tag k="population" v="61791"/>
    <tag k="source" v="geodati.gfoss.it"/>
    <tag k="wikipedia" v="Benevento"/>
  </node>
  <node id="68566158" version="3" timestamp="2009-07-25T22:01:27Z" uid="123700" user="Mala" changeset="1939174" lat="41.083215" lon="14.334929">
    <tag k="gfoss_id" v="5178"/>
    <tag k="is_in" v="Caserta, Campania, Italy"/>
    <tag k="is_in:continent" v="Europe"/>
    <tag k="name" v="Caserta"/>
    <tag k="name:fr" v="Caserte"/>
    <tag k="place" v="city"/>
    <tag k="population" v="75208"/>
    <tag k="source" v="geodati.gfoss.it"/>
    <tag k="wikipedia" v="Caserta"/>
  </node>
  <node id="68566163" version="4" timestamp="2009-07-25T22:01:23Z" uid="123700" user="Mala" changeset="1939174" lat="40.6779286" lon="14.7660005">
    <tag k="gfoss_id" v="5665"/>
    <tag k="is_in" v="Salerno, Campania, Italy"/>
    <tag k="is_in:continent" v="Europe"/>
    <tag k="name" v="Salerno"/>
    <tag k="name:fr" v="Salerne"/>
    <tag k="place" v="city"/>
    <tag k="population" v="138188"/>
    <tag k="source" v="geodati.gfoss.it"/>
    <tag k="wikipedia" v="Salerno"/>
  </node>
</osm>
