<?xml version='1.0' encoding='UTF-8'?>
<osm version="0.6" generator="libosmium/2.20.0">
  <node id="685843187" version="4" timestamp="2010-07-25T05:53:16Z" uid="4467" user="Rosscoe" changeset="5308974" lat="-23.705313" lon="133.880397">
    <tag k="amenity" v="fuel"/>
    <tag k="check" v="yes"/>
    <tag k="name" v="Shell"/>
    <tag k="operator" v="Shell"/>
  </node>
  <node id="685847486" version="3" timestamp="2010-07-24T16:45:14Z" uid="74617" user="JohnSmith" changeset="5305380" lat="-35.1936414" lon="147.2455662">
    <tag k="amenity" v="fuel"/>
    <tag k="amenity:atm" v="no"/>
    <tag k="amenity:carwash" v="no"/>
    <tag k="amenity:eftpos" v="yes"/>
    <tag k="amenity:toilets" v="no"/>
    <tag k="amenity:truck_stop" v="no"/>
    <tag k="caltex:address" v="28 Morgan Street, Uranquinty NSW 2652"/>
    <tag k="caltex:starcash" v="no"/>
    <tag k="fuel:GTL_diesel" v="no"/>
    <tag k="fuel:biodiesel" v="no"/>
    <tag k="fuel:diesel" v="yes"/>
    <tag k="fuel:e10" v="no"/>
    <tag k="fuel:lpg" v="yes"/>
    <tag k="fuel:octane_91" v="yes"/>
    <tag k="fuel:octane_95" v="yes"/>
    <tag k="fuel:octane_98" v="no"/>
    <tag k="name" v="Caltex Uranquinty"/>
    <tag k="operator" v="Caltex"/>
    <tag k="phone" v="+61-2-69229659"/>
    <tag k="rent:lpg_bottles" v="no"/>
    <tag k="source" v="caltex.com.au"/>
  </node>
  <node id="685847731" version="3" timestamp="2010-07-24T19:20:54Z" uid="74617" user="JohnSmith" changeset="5306426" lat="-35.1159305" lon="147.3509058">
    <tag k="amenity" v="fuel"/>
    <tag k="check" v="no"/>
    <tag k="name" v="Shell"/>
    <tag k="operator" v="Shell"/>
  </node>
  <node id="685847735" version="3" timestamp="2010-07-23T04:19:53Z" uid="74617" user="JohnSmith" changeset="5292424" lat="-35.1173531" lon="147.3558465">
    <tag k="amenity" v="fuel"/>
    <tag k="amenity:atm" v="yes"/>
    <tag k="amenity:carwash" v="no"/>
    <tag k="amenity:eftpos" v="yes"/>
    <tag k="amenity:toilets" v="no"/>
    <tag k="amenity:truck_stop" v="no"/>
    <tag k="caltex:address" v="Docker St Cnr Edward St, Wagga Wagga NSW 2650"/>
    <tag k="caltex:starcash" v="yes"/>
    <tag k="check" v="no"/>
    <tag k="fuel:GTL_diesel" v="yes"/>
    <tag k="fuel:biodiesel" v="no"/>
    <tag k="fuel:diesel" v="no"/>
    <tag k="fuel:e10" v="no"/>
    <tag k="fuel:lpg" v="yes"/>
    <tag k="fuel:octane_91" v="yes"/>
    <tag k="fuel:octane_95" v="yes"/>
    <tag k="fuel:octane_98" v="yes"/>
    <tag k="name" v="Caltex Wagga Wagga"/>
    <tag k="operator" v="Caltex"/>
    <tag k="phone" v="+61-2-69251787"/>
    <tag k="rent:lpg_bottles" v="yes"/>
    <tag k="source" v="caltex.com.au"/>
  </node>
  <node id="685847739" version="4" timestamp="2010-07-28T22:59:23Z" uid="74617" user="JohnSmith" changeset="5342542" lat="-35.1184465" lon="147.3639615">
    <tag k="BP:address" v="172 Edwards St (Cnr Fox St), Wagga Wagga NSW 2650"/>
    <tag k="BP:location_id" v="3716"/>
    <tag k="amenity" v="fuel"/>
    <tag k="amenity:atm" v="no"/>
    <tag k="amenity:carwash" v="no"/>
    <tag k="amenity:cleango" v="no"/>
    <tag k="amenity:eftpos" v="yes"/>
    <tag k="amenity:express" v="no"/>
    <tag k="amenity:restaurant" v="no"/>
    <tag k="amenity:superwash" v="no"/>
    <tag k="amenity:toilets" v="yes"/>
    <tag k="amenity:truck_stop" v="no"/>
    <tag k="fuel:GTL_diesel" v="no"/>
    <tag k="fuel:diesel" v="yes"/>
    <tag k="fuel:e10" v="no"/>
    <tag k="fuel:lpg" v="yes"/>
    <tag k="fuel:octane_91" v="yes"/>
    <tag k="fuel:octane_95" v="yes"/>
    <tag k="fuel:octane_98" v="yes"/>
    <tag k="name" v="BP Wagga Wagga"/>
    <tag k="opening_hours" v="24/7"/>
    <tag k="operator" v="BP"/>
    <tag k="phone" v="+61-2-6921-1323"/>
    <tag k="rent:lpg_bottles" v="yes"/>
    <tag k="rent:trailers" v="no"/>
    <tag k="source" v="bp.com"/>
  </node>
  <node id="685848590" version="2" timestamp="2010-04-10T10:26:14Z" uid="7617" user="Franc" changeset="4381091" lat="-33.986584" lon="151.047852">
    <tag k="amenity" v="fuel"/>
    <tag k="check" v="no"/>
    <tag k="name" v="Caltex"/>
    <tag k="operator" v="Caltex"/>
  </node>
  <node id="685848624" version="2" timestamp="2010-04-10T07:26:08Z" uid="7617" user="Franc" changeset="4379738" lat="-33.948406" lon="151.070644">
    <tag k="amenity" v="fuel"/>
    <tag k="check" v="no"/>
    <tag k="name" v="Caltex"/>
    <tag k="operator" v="Caltex"/>
  </node>
  <node id="685848627" version="2" timestamp="2010-04-10T08:25:19Z" uid="7617" user="Franc" changeset="4380103" lat="-33.955849" lon="151.051548">
    <tag k="amenity" v="fuel"/>
    <tag k="check" v="no"/>
    <tag k="name" v="BP"/>
    <tag k="operator" v="BP"/>
  </node>
  <node id="685848635" version="2" timestamp="2010-04-10T10:26:16Z" uid="7617" user="Franc" changeset="4381091" lat="-33.931716" lon="151.059193">
    <tag k="amenity" v="fuel"/>
    <tag k="check" v="no"/>
    <tag k="name" v="Caltex"/>
    <tag k="operator" v="Caltex"/>
  </node>
  <node id="685848884" version="2" timestamp="2010-04-13T11:12:35Z" uid="7617" user="Franc" changeset="4412661" lat="-33.766945" lon="150.951415">
    <tag k="amenity" v="fuel"/>
    <tag k="check" v="no"/>
    <tag k="name" v="BP"/>
    <tag k="operator" v="BP"/>
  </node>
  <node id="685848889" version="2" timestamp="2010-04-13T11:12:35Z" uid="7617" user="Franc" changeset="4412661" lat="-33.769327" lon="150.941725">
    <tag k="amenity" v="fuel"/>
    <tag k="check" v="no"/>
    <tag k="name" v="BP"/>
    <tag k="operator" v="BP"/>
  </node>
  <node id="685849148" version="2" timestamp="2010-04-13T11:20:00Z" uid="7617" user="Franc" changeset="4412736" lat="-33.819264" lon="151.021899">
    <tag k="amenity" v="fuel"/>
    <tag k="check" v="no"/>
    <tag k="name" v="BP"/>
    <tag k="operator" v="BP"/>
  </node>
  <node id="685849505" version="2" timestamp="2010-04-08T11:41:16Z" uid="7617" user="Franc" changeset="4363391" lat="-33.916223" lon="151.172808">
    <tag k="amenity" v="fuel"/>
    <tag k="check" v="no"/>
    <tag k="name" v="BP"/>
    <tag k="operator" v="BP"/>
  </node>
  <node id="685849614" version="2" timestamp="2010-04-09T02:40:34Z" uid="30201" user="rrankin" changeset="4369382" lat="-33.881496" lon="151.196576">
    <tag k="amenity" v="fuel"/>
    <tag k="check" v="no"/>
    <tag k="name" v="Coles Express"/>
    <tag k="operator" v="Coles Express"/>
  </node>
</osm>
