<?xml version='1.0' encoding='UTF-8'?>
<osm version="0.6" generator="libosmium/2.20.0">
  <node id="688060202" version="2" timestamp="2010-04-11T11:55:50Z" uid="20587" user="balrog-kun" changeset="4392352" lat="49.69971" lon="20.46081">
    <tag k="name" v="Mordarka"/>
    <tag k="place" v="village"/>
    <tag k="source" v="http://ump.waw.pl/ retrieved 03:39:37 04/04/10 (UMP-NowySacz/src/cities-NowySacz.pnt-converted.txt)"/>
  </node>
  <node id="688060202" version="3" timestamp="2010-04-11T13:18:58Z" uid="20587" user="balrog-kun" changeset="4392352" lat="49.69971" lon="20.46081">
    <tag k="name" v="Mordarka"/>
    <tag k="place" v="village"/>
    <tag k="source" v="http://ump.waw.pl/ retrieved 03:39:37 04/04/10 (UMP-NowySacz/src/cities-NowySacz.pnt-converted.txt)"/>
  </node>
  <node id="688060202" version="4" timestamp="2010-04-27T04:18:32Z" uid="30632" user="antblant" changeset="4537909" lat="49.69971" lon="20.46081">
    <tag k="name" v="Mordarka"/>
    <tag k="place" v="village"/>
    <tag k="source" v="http://ump.waw.pl/ retrieved 03:39:37 04/04/10 (UMP-NowySacz/src/cities-NowySacz.pnt-converted.txt)"/>
    <tag k="teryt:simc" v="0439196"/>
  </node>
  <node id="688061174" version="2" timestamp="2010-04-27T04:20:24Z" uid="30632" user="antblant" changeset="4537912" lat="49.7440306" lon="20.5168818">
    <tag k="name" v="Krawczyki"/>
    <tag k="place" v="hamlet"/>
    <tag k="source" v="http://ump.waw.pl/ retrieved 03:39:37 04/04/10 (UMP-NowySacz/src/cities-NowySacz.pnt-converted.txt)"/>
    <tag k="teryt:simc" v="0470622"/>
  </node>
  <node id="688061179" version="2" timestamp="2010-04-11T11:55:50Z" uid="20587" user="balrog-kun" changeset="4392352" lat="49.7708007" lon="20.1949356">
    <tag k="name" v="Raciborzany"/>
    <tag k="place" v="village"/>
    <tag k="source" v="http://ump.waw.pl/ retrieved 03:39:37 04/04/10 (UMP-NowySacz/src/cities-NowySacz.pnt-converted.txt)"/>
  </node>
  <node id="688061179" version="3" timestamp="2010-04-11T13:18:58Z" uid="20587" user="balrog-kun" changeset="4392352" lat="49.7711182" lon="20.1963908">
    <tag k="name" v="Raciborzany"/>
    <tag k="place" v="village"/>
    <tag k="source" v="http://ump.waw.pl/ retrieved 03:39:37 04/04/10 (UMP-NowySacz/src/cities-NowySacz.pnt-converted.txt)"/>
  </node>
  <node id="688062865" version="2" timestamp="2010-04-11T11:55:50Z" uid="20587" user="balrog-kun" changeset="4392352" lat="49.72648" lon="20.21408">
    <tag k="name" v="Porąbka"/>
    <tag k="place" v="village"/>
    <tag k="source" v="http://ump.waw.pl/ retrieved 03:39:37 04/04/10 (UMP-NowySacz/src/cities-NowySacz.pnt-converted.txt)"/>
  </node>
  <node id="688062865" version="3" timestamp="2010-04-11T13:18:59Z" uid="20587" user="balrog-kun" changeset="4392352" lat="49.72648" lon="20.21408">
    <tag k="name" v="Porąbka"/>
    <tag k="place" v="village"/>
    <tag k="source" v="http://ump.waw.pl/ retrieved 03:39:37 04/04/10 (UMP-NowySacz/src/cities-NowySacz.pnt-converted.txt)"/>
  </node>
  <node id="688062870" version="2" timestamp="2010-04-11T11:55:50Z" uid="20587" user="balrog-kun" changeset="4392352" lat="49.81259" lon="20.2948">
    <tag k="name" v="Wola Tarnawska"/>
    <tag k="place" v="village"/>
    <tag k="source" v="http://ump.waw.pl/ retrieved 03:39:37 04/04/10 (UMP-NowySacz/src/cities-NowySacz.pnt-converted.txt)"/>
  </node>
  <node id="688062870" version="3" timestamp="2010-04-11T13:18:59Z" uid="20587" user="balrog-kun" changeset="4392352" lat="49.81259" lon="20.2948">
    <tag k="name" v="Wola Tarnawska"/>
    <tag k="place" v="village"/>
    <tag k="source" v="http://ump.waw.pl/ retrieved 03:39:37 04/04/10 (UMP-NowySacz/src/cities-NowySacz.pnt-converted.txt)"/>
  </node>
  <node id="688063971" version="2" timestamp="2010-04-11T11:55:50Z" uid="20587" user="balrog-kun" changeset="4392352" lat="49.8324559" lon="20.4302817">
    <tag k="name" v="Łąkta Górna"/>
    <tag k="place" v="village"/>
    <tag k="source" v="http://ump.waw.pl/ retrieved 03:39:37 04/04/10 (UMP-NowySacz/src/cities-NowySacz.pnt-converted.txt)"/>
  </node>
  <node id="688063971" version="3" timestamp="2010-04-11T13:18:59Z" uid="20587" user="balrog-kun" changeset="4392352" lat="49.8290941" lon="20.4276596">
    <tag k="name" v="Łąkta Górna"/>
    <tag k="place" v="village"/>
    <tag k="source" v="http://ump.waw.pl/ retrieved 03:39:37 04/04/10 (UMP-NowySacz/src/cities-NowySacz.pnt-converted.txt)"/>
  </node>
  <node id="688063971" version="4" timestamp="2010-04-27T04:09:27Z" uid="30632" user="antblant" changeset="4537879" lat="49.8290941" lon="20.4276596">
    <tag k="name" v="Łąkta Górna"/>
    <tag k="place" v="village"/>
    <tag k="source" v="http://ump.waw.pl/ retrieved 03:39:37 04/04/10 (UMP-NowySacz/src/cities-NowySacz.pnt-converted.txt)"/>
    <tag k="teryt:simc" v="0838973"/>
  </node>
  <node id="688063977" version="2" timestamp="2010-04-11T11:55:50Z" uid="20587" user="balrog-kun" changeset="4392352" lat="49.8366785" lon="20.25817">
    <tag k="name" v="Kępanów"/>
    <tag k="place" v="village"/>
    <tag k="source" v="http://ump.waw.pl/ retrieved 03:39:37 04/04/10 (UMP-NowySacz/src/cities-NowySacz.pnt-converted.txt)"/>
  </node>
  <node id="688063977" version="3" timestamp="2010-04-11T13:18:59Z" uid="20587" user="balrog-kun" changeset="4392352" lat="49.8352422" lon="20.2595971">
    <tag k="name" v="Kępanów"/>
    <tag k="place" v="village"/>
    <tag k="source" v="http://ump.waw.pl/ retrieved 03:39:37 04/04/10 (UMP-NowySacz/src/cities-NowySacz.pnt-converted.txt)"/>
  </node>
  <node id="688063977" version="4" timestamp="2010-04-27T04:09:26Z" uid="30632" user="antblant" changeset="4537879" lat="49.8352422" lon="20.2595971">
    <tag k="name" v="Kępanów"/>
    <tag k="place" v="village"/>
    <tag k="source" v="http://ump.waw.pl/ retrieved 03:39:37 04/04/10 (UMP-NowySacz/src/cities-NowySacz.pnt-converted.txt)"/>
    <tag k="teryt:simc" v="0823210"/>
  </node>
  <node id="688064477" version="2" timestamp="2010-04-11T11:55:50Z" uid="20587" user="balrog-kun" changeset="4392352" lat="49.77345" lon="20.65059">
    <tag k="name" v="Witowice Górne"/>
    <tag k="place" v="village"/>
    <tag k="source" v="http://ump.waw.pl/ retrieved 03:39:37 04/04/10 (UMP-NowySacz/src/cities-NowySacz.pnt-converted.txt)"/>
  </node>
  <node id="688064477" version="3" timestamp="2010-04-11T13:18:59Z" uid="20587" user="balrog-kun" changeset="4392352" lat="49.77345" lon="20.65059">
    <tag k="name" v="Witowice Górne"/>
    <tag k="place" v="village"/>
    <tag k="source" v="http://ump.waw.pl/ retrieved 03:39:37 04/04/10 (UMP-NowySacz/src/cities-NowySacz.pnt-converted.txt)"/>
  </node>
  <node id="688064477" version="4" timestamp="2010-04-27T04:01:10Z" uid="30632" user="antblant" changeset="4537859" lat="49.77345" lon="20.65059">
    <tag k="name" v="Witowice Górne"/>
    <tag k="place" v="village"/>
    <tag k="source" v="http://ump.waw.pl/ retrieved 03:39:37 04/04/10 (UMP-NowySacz/src/cities-NowySacz.pnt-converted.txt)"/>
    <tag k="teryt:simc" v="0448628"/>
  </node>
  <node id="688065614" version="2" timestamp="2010-04-11T11:55:50Z" uid="20587" user="balrog-kun" changeset="4392352" lat="49.7477067" lon="20.4914557">
    <tag k="name" v="Jaworzna"/>
    <tag k="place" v="village"/>
    <tag k="source" v="http://ump.waw.pl/ retrieved 03:39:37 04/04/10 (UMP-NowySacz/src/cities-NowySacz.pnt-converted.txt)"/>
  </node>
  <node id="688065614" version="3" timestamp="2010-04-11T13:18:59Z" uid="20587" user="balrog-kun" changeset="4392352" lat="49.7486182" lon="20.4901424">
    <tag k="name" v="Jaworzna"/>
    <tag k="place" v="village"/>
    <tag k="source" v="http://ump.waw.pl/ retrieved 03:39:37 04/04/10 (UMP-NowySacz/src/cities-NowySacz.pnt-converted.txt)"/>
  </node>
  <node id="688065614" version="4" timestamp="2010-04-27T04:14:06Z" uid="30632" user="antblant" changeset="4537892" lat="49.7486182" lon="20.4901424">
    <tag k="name" v="Jaworzna"/>
    <tag k="place" v="village"/>
    <tag k="source" v="http://ump.waw.pl/ retrieved 03:39:37 04/04/10 (UMP-NowySacz/src/cities-NowySacz.pnt-converted.txt)"/>
    <tag k="teryt:simc" v="0437317"/>
  </node>
  <node id="688065620" version="2" timestamp="2010-04-11T11:55:50Z" uid="20587" user="balrog-kun" changeset="4392352" lat="49.7742555" lon="20.2073754">
    <tag k="name" v="Janowice"/>
    <tag k="place" v="village"/>
    <tag k="source" v="http://ump.waw.pl/ retrieved 03:39:37 04/04/10 (UMP-NowySacz/src/cities-NowySacz.pnt-converted.txt)"/>
  </node>
  <node id="688065620" version="3" timestamp="2010-04-11T13:19:00Z" uid="20587" user="balrog-kun" changeset="4392352" lat="49.773195" lon="20.2089292">
    <tag k="name" v="Janowice"/>
    <tag k="place" v="village"/>
    <tag k="source" v="http://ump.waw.pl/ retrieved 03:39:37 04/04/10 (UMP-NowySacz/src/cities-NowySacz.pnt-converted.txt)"/>
  </node>
  <node id="688067376" version="2" timestamp="2010-04-11T11:55:50Z" uid="20587" user="balrog-kun" changeset="4392352" lat="49.7816538" lon="20.661925">
    <tag k="name" v="Witowice Dolne"/>
    <tag k="place" v="village"/>
    <tag k="source" v="http://ump.waw.pl/ retrieved 03:39:37 04/04/10 (UMP-NowySacz/src/cities-NowySacz.pnt-converted.txt)"/>
  </node>
  <node id="688067376" version="3" timestamp="2010-04-11T13:19:00Z" uid="20587" user="balrog-kun" changeset="4392352" lat="49.7803054" lon="20.6616785">
    <tag k="name" v="Witowice Dolne"/>
    <tag k="place" v="village"/>
    <tag k="source" v="http://ump.waw.pl/ retrieved 03:39:37 04/04/10 (UMP-NowySacz/src/cities-NowySacz.pnt-converted.txt)"/>
  </node>
  <node id="688067376" version="4" timestamp="2010-04-27T04:18:53Z" uid="30632" user="antblant" changeset="4537909" lat="49.7803054" lon="20.6616785">
    <tag k="name" v="Witowice Dolne"/>
    <tag k="place" v="village"/>
    <tag k="source" v="http://ump.waw.pl/ retrieved 03:39:37 04/04/10 (UMP-NowySacz/src/cities-NowySacz.pnt-converted.txt)"/>
    <tag k="teryt:simc" v="0448539"/>
  </node>
  <node id="688068568" version="2" timestamp="2010-04-11T11:55:50Z" uid="20587" user="balrog-kun" changeset="4392352" lat="49.7912926" lon="20.4441269">
    <tag k="name" v="Rozdziele"/>
    <tag k="place" v="village"/>
    <tag k="source" v="http://ump.waw.pl/ retrieved 03:39:37 04/04/10 (UMP-NowySacz/src/cities-NowySacz.pnt-converted.txt)"/>
  </node>
  <node id="688068568" version="3" timestamp="2010-04-11T13:19:00Z" uid="20587" user="balrog-kun" changeset="4392352" lat="49.7928151" lon="20.4439155">
    <tag k="name" v="Rozdziele"/>
    <tag k="place" v="village"/>
    <tag k="source" v="http://ump.waw.pl/ retrieved 03:39:37 04/04/10 (UMP-NowySacz/src/cities-NowySacz.pnt-converted.txt)"/>
  </node>
</osm>
