<?xml version='1.0' encoding='UTF-8'?>
<osm version="0.6" generator="libosmium/2.20.0">
  <node id="688080342" version="2" timestamp="2010-04-11T11:55:51Z" uid="20587" user="balrog-kun" changeset="4392352" lat="49.85894" lon="20.5274">
    <tag k="name" v="Lipnica Murowana"/>
    <tag k="place" v="village"/>
    <tag k="source" v="http://ump.waw.pl/ retrieved 03:39:37 04/04/10 (UMP-NowySacz/src/cities-NowySacz.pnt-converted.txt)"/>
  </node>
  <node id="688080342" version="3" timestamp="2010-04-11T13:19:02Z" uid="20587" user="balrog-kun" changeset="4392352" lat="49.85894" lon="20.5274">
    <tag k="name" v="Lipnica Murowana"/>
    <tag k="place" v="village"/>
    <tag k="source" v="http://ump.waw.pl/ retrieved 03:39:37 04/04/10 (UMP-NowySacz/src/cities-NowySacz.pnt-converted.txt)"/>
  </node>
  <node id="688080342" version="4" timestamp="2010-04-27T04:18:31Z" uid="30632" user="antblant" changeset="4537909" lat="49.85894" lon="20.5274">
    <tag k="name" v="Lipnica Murowana"/>
    <tag k="place" v="village"/>
    <tag k="source" v="http://ump.waw.pl/ retrieved 03:39:37 04/04/10 (UMP-NowySacz/src/cities-NowySacz.pnt-converted.txt)"/>
    <tag k="teryt:simc" v="0821978"/>
  </node>
  <node id="688081790" version="2" timestamp="2010-04-11T11:55:52Z" uid="20587" user="balrog-kun" changeset="4392352" lat="49.82367" lon="20.48846">
    <tag k="name" v="Rajbrot"/>
    <tag k="place" v="village"/>
    <tag k="source" v="http://ump.waw.pl/ retrieved 03:39:37 04/04/10 (UMP-NowySacz/src/cities-NowySacz.pnt-converted.txt)"/>
  </node>
  <node id="688081790" version="3" timestamp="2010-04-11T13:19:02Z" uid="20587" user="balrog-kun" changeset="4392352" lat="49.82367" lon="20.48846">
    <tag k="name" v="Rajbrot"/>
    <tag k="place" v="village"/>
    <tag k="source" v="http://ump.waw.pl/ retrieved 03:39:37 04/04/10 (UMP-NowySacz/src/cities-NowySacz.pnt-converted.txt)"/>
  </node>
  <node id="688081790" version="4" timestamp="2010-04-27T04:14:05Z" uid="30632" user="antblant" changeset="4537892" lat="49.82367" lon="20.48846">
    <tag k="name" v="Rajbrot"/>
    <tag k="place" v="village"/>
    <tag k="source" v="http://ump.waw.pl/ retrieved 03:39:37 04/04/10 (UMP-NowySacz/src/cities-NowySacz.pnt-converted.txt)"/>
    <tag k="teryt:simc" v="0822080"/>
  </node>
  <node id="688081795" version="3" timestamp="2010-04-11T11:55:52Z" uid="20587" user="balrog-kun" changeset="4392352" lat="49.752847" lon="20.3655498">
    <tag k="name" v="Bałażówka"/>
    <tag k="place" v="village"/>
    <tag k="source" v="http://ump.waw.pl/ retrieved 03:39:37 04/04/10 (UMP-NowySacz/src/cities-NowySacz.pnt-converted.txt)"/>
  </node>
  <node id="688081795" version="4" timestamp="2010-04-11T13:19:02Z" uid="20587" user="balrog-kun" changeset="4392352" lat="49.7533686" lon="20.3666211">
    <tag k="name" v="Bałażówka"/>
    <tag k="place" v="village"/>
    <tag k="source" v="http://ump.waw.pl/ retrieved 03:39:37 04/04/10 (UMP-NowySacz/src/cities-NowySacz.pnt-converted.txt)"/>
  </node>
  <node id="688081795" version="5" timestamp="2010-04-27T04:14:05Z" uid="30632" user="antblant" changeset="4537892" lat="49.7533686" lon="20.3666211">
    <tag k="name" v="Bałażówka"/>
    <tag k="place" v="village"/>
    <tag k="source" v="http://ump.waw.pl/ retrieved 03:39:37 04/04/10 (UMP-NowySacz/src/cities-NowySacz.pnt-converted.txt)"/>
    <tag k="teryt:simc" v="0438400"/>
  </node>
  <node id="688082220" version="2" timestamp="2011-02-27T16:07:24Z" uid="30632" user="antblant" changeset="7412248" lat="49.66636" lon="20.67756"/>
  <node id="688082866" version="2" timestamp="2010-04-11T11:55:52Z" uid="20587" user="balrog-kun" changeset="4392352" lat="49.8290999" lon="20.2728474">
    <tag k="name" v="Wola Grabska"/>
    <tag k="place" v="hamlet"/>
    <tag k="source" v="http://ump.waw.pl/ retrieved 03:39:37 04/04/10 (UMP-NowySacz/src/cities-NowySacz.pnt-converted.txt)"/>
  </node>
  <node id="688082866" version="3" timestamp="2010-04-11T13:19:02Z" uid="20587" user="balrog-kun" changeset="4392352" lat="49.8295455" lon="20.2737291">
    <tag k="name" v="Wola Grabska"/>
    <tag k="place" v="hamlet"/>
    <tag k="source" v="http://ump.waw.pl/ retrieved 03:39:37 04/04/10 (UMP-NowySacz/src/cities-NowySacz.pnt-converted.txt)"/>
  </node>
  <node id="688082866" version="4" timestamp="2010-04-27T04:05:35Z" uid="30632" user="antblant" changeset="4537871" lat="49.8295455" lon="20.2737291">
    <tag k="name" v="Wola Grabska"/>
    <tag k="place" v="hamlet"/>
    <tag k="source" v="http://ump.waw.pl/ retrieved 03:39:37 04/04/10 (UMP-NowySacz/src/cities-NowySacz.pnt-converted.txt)"/>
    <tag k="teryt:simc" v="0631692"/>
  </node>
  <node id="688083339" version="2" timestamp="2010-04-11T11:55:52Z" uid="20587" user="balrog-kun" changeset="4392352" lat="49.67884" lon="20.2608">
    <tag k="name" v="Chyszówki"/>
    <tag k="place" v="village"/>
    <tag k="source" v="http://ump.waw.pl/ retrieved 03:39:37 04/04/10 (UMP-NowySacz/src/cities-NowySacz.pnt-converted.txt)"/>
  </node>
  <node id="688083339" version="3" timestamp="2010-04-11T13:19:02Z" uid="20587" user="balrog-kun" changeset="4392352" lat="49.67884" lon="20.2608">
    <tag k="name" v="Chyszówki"/>
    <tag k="place" v="village"/>
    <tag k="source" v="http://ump.waw.pl/ retrieved 03:39:37 04/04/10 (UMP-NowySacz/src/cities-NowySacz.pnt-converted.txt)"/>
  </node>
  <node id="688083339" version="4" timestamp="2010-04-27T04:09:12Z" uid="30632" user="antblant" changeset="4537879" lat="49.67884" lon="20.2608">
    <tag k="name" v="Chyszówki"/>
    <tag k="place" v="village"/>
    <tag k="source" v="http://ump.waw.pl/ retrieved 03:39:37 04/04/10 (UMP-NowySacz/src/cities-NowySacz.pnt-converted.txt)"/>
    <tag k="teryt:simc" v="0422942"/>
  </node>
  <node id="688084352" version="2" timestamp="2010-04-11T11:55:52Z" uid="20587" user="balrog-kun" changeset="4392352" lat="49.78135" lon="20.50337">
    <tag k="name" v="Kamionka Mała"/>
    <tag k="place" v="village"/>
    <tag k="source" v="http://ump.waw.pl/ retrieved 03:39:37 04/04/10 (UMP-NowySacz/src/cities-NowySacz.pnt-converted.txt)"/>
  </node>
  <node id="688084352" version="3" timestamp="2010-04-11T13:19:02Z" uid="20587" user="balrog-kun" changeset="4392352" lat="49.78135" lon="20.50337">
    <tag k="name" v="Kamionka Mała"/>
    <tag k="place" v="village"/>
    <tag k="source" v="http://ump.waw.pl/ retrieved 03:39:37 04/04/10 (UMP-NowySacz/src/cities-NowySacz.pnt-converted.txt)"/>
  </node>
  <node id="688084354" version="2" timestamp="2010-04-11T11:55:52Z" uid="20587" user="balrog-kun" changeset="4392352" lat="49.8548" lon="20.1942">
    <tag k="name" v="Gruszów"/>
    <tag k="place" v="village"/>
    <tag k="source" v="http://ump.waw.pl/ retrieved 03:39:37 04/04/10 (UMP-NowySacz/src/cities-NowySacz.pnt-converted.txt)"/>
  </node>
  <node id="688084354" version="3" timestamp="2010-04-11T13:19:02Z" uid="20587" user="balrog-kun" changeset="4392352" lat="49.8548" lon="20.1942">
    <tag k="name" v="Gruszów"/>
    <tag k="place" v="village"/>
    <tag k="source" v="http://ump.waw.pl/ retrieved 03:39:37 04/04/10 (UMP-NowySacz/src/cities-NowySacz.pnt-converted.txt)"/>
  </node>
  <node id="688085859" version="2" timestamp="2010-04-11T11:55:52Z" uid="20587" user="balrog-kun" changeset="4392352" lat="49.76253" lon="20.57079">
    <tag k="name" v="Sechna"/>
    <tag k="place" v="village"/>
    <tag k="source" v="http://ump.waw.pl/ retrieved 03:39:37 04/04/10 (UMP-NowySacz/src/cities-NowySacz.pnt-converted.txt)"/>
  </node>
  <node id="688085859" version="3" timestamp="2010-04-11T13:19:03Z" uid="20587" user="balrog-kun" changeset="4392352" lat="49.76253" lon="20.57079">
    <tag k="name" v="Sechna"/>
    <tag k="place" v="village"/>
    <tag k="source" v="http://ump.waw.pl/ retrieved 03:39:37 04/04/10 (UMP-NowySacz/src/cities-NowySacz.pnt-converted.txt)"/>
  </node>
  <node id="688085859" version="4" timestamp="2010-04-27T04:07:11Z" uid="30632" user="antblant" changeset="4537875" lat="49.76253" lon="20.57079">
    <tag k="name" v="Sechna"/>
    <tag k="place" v="village"/>
    <tag k="source" v="http://ump.waw.pl/ retrieved 03:39:37 04/04/10 (UMP-NowySacz/src/cities-NowySacz.pnt-converted.txt)"/>
    <tag k="teryt:simc" v="0438044"/>
  </node>
  <node id="688085867" version="2" timestamp="2010-04-11T11:55:52Z" uid="20587" user="balrog-kun" changeset="4392352" lat="49.82083" lon="20.18802">
    <tag k="name" v="Zabrzegi"/>
    <tag k="place" v="village"/>
    <tag k="source" v="http://ump.waw.pl/ retrieved 03:39:37 04/04/10 (UMP-NowySacz/src/cities-NowySacz.pnt-converted.txt)"/>
  </node>
  <node id="688085867" version="3" timestamp="2010-04-11T13:19:03Z" uid="20587" user="balrog-kun" changeset="4392352" lat="49.82083" lon="20.18802">
    <tag k="name" v="Zabrzegi"/>
    <tag k="place" v="village"/>
    <tag k="source" v="http://ump.waw.pl/ retrieved 03:39:37 04/04/10 (UMP-NowySacz/src/cities-NowySacz.pnt-converted.txt)"/>
  </node>
  <node id="688086782" version="3" timestamp="2010-04-11T11:55:52Z" uid="20587" user="balrog-kun" changeset="4392352" lat="49.7187233" lon="20.249055">
    <tag k="name" v="Dobra"/>
    <tag k="place" v="village"/>
    <tag k="source" v="http://ump.waw.pl/ retrieved 03:39:37 04/04/10 (UMP-NowySacz/src/cities-NowySacz.pnt-converted.txt)"/>
  </node>
  <node id="688086782" version="4" timestamp="2010-04-11T13:19:03Z" uid="20587" user="balrog-kun" changeset="4392352" lat="49.718549" lon="20.2492929">
    <tag k="name" v="Dobra"/>
    <tag k="place" v="village"/>
    <tag k="source" v="http://ump.waw.pl/ retrieved 03:39:37 04/04/10 (UMP-NowySacz/src/cities-NowySacz.pnt-converted.txt)"/>
  </node>
  <node id="688087367" version="3" timestamp="2010-04-11T11:55:52Z" uid="20587" user="balrog-kun" changeset="4392352" lat="49.66872" lon="20.65182">
    <tag k="name" v="Marcinkowice"/>
    <tag k="place" v="village"/>
    <tag k="source" v="http://ump.waw.pl/ retrieved 03:39:37 04/04/10 (UMP-NowySacz/src/cities-NowySacz.pnt-converted.txt)"/>
  </node>
  <node id="688087367" version="4" timestamp="2010-04-11T13:19:03Z" uid="20587" user="balrog-kun" changeset="4392352" lat="49.66872" lon="20.65182">
    <tag k="name" v="Marcinkowice"/>
    <tag k="place" v="village"/>
    <tag k="source" v="http://ump.waw.pl/ retrieved 03:39:37 04/04/10 (UMP-NowySacz/src/cities-NowySacz.pnt-converted.txt)"/>
  </node>
  <node id="688088356" version="3" timestamp="2010-04-11T11:55:52Z" uid="20587" user="balrog-kun" changeset="4392352" lat="49.7506196" lon="20.3965874">
    <tag k="name" v="Młynne"/>
    <tag k="place" v="village"/>
    <tag k="source" v="http://ump.waw.pl/ retrieved 03:39:37 04/04/10 (UMP-NowySacz/src/cities-NowySacz.pnt-converted.txt)"/>
  </node>
  <node id="688088356" version="4" timestamp="2010-04-11T13:19:03Z" uid="20587" user="balrog-kun" changeset="4392352" lat="49.7499466" lon="20.3956649">
    <tag k="name" v="Młynne"/>
    <tag k="place" v="village"/>
    <tag k="source" v="http://ump.waw.pl/ retrieved 03:39:37 04/04/10 (UMP-NowySacz/src/cities-NowySacz.pnt-converted.txt)"/>
  </node>
  <node id="688088356" version="5" timestamp="2010-04-27T03:58:02Z" uid="30632" user="antblant" changeset="4537850" lat="49.7499466" lon="20.3956649">
    <tag k="name" v="Młynne"/>
    <tag k="place" v="village"/>
    <tag k="source" v="http://ump.waw.pl/ retrieved 03:39:37 04/04/10 (UMP-NowySacz/src/cities-NowySacz.pnt-converted.txt)"/>
    <tag k="teryt:simc" v="0438995"/>
  </node>
  <node id="688088361" version="2" timestamp="2010-04-11T11:55:53Z" uid="20587" user="balrog-kun" changeset="4392352" lat="49.77882" lon="20.4191">
    <tag k="name" v="Laskowa Górna"/>
    <tag k="place" v="village"/>
    <tag k="source" v="http://ump.waw.pl/ retrieved 03:39:37 04/04/10 (UMP-NowySacz/src/cities-NowySacz.pnt-converted.txt)"/>
  </node>
  <node id="688088361" version="3" timestamp="2010-04-11T13:19:03Z" uid="20587" user="balrog-kun" changeset="4392352" lat="49.77882" lon="20.4191">
    <tag k="name" v="Laskowa Górna"/>
    <tag k="place" v="village"/>
    <tag k="source" v="http://ump.waw.pl/ retrieved 03:39:37 04/04/10 (UMP-NowySacz/src/cities-NowySacz.pnt-converted.txt)"/>
  </node>
  <node id="688089299" version="3" timestamp="2010-04-11T11:55:53Z" uid="20587" user="balrog-kun" changeset="4392352" lat="49.8472067" lon="20.2843964">
    <tag k="name" v="Boczów"/>
    <tag k="place" v="village"/>
    <tag k="source" v="http://ump.waw.pl/ retrieved 03:39:37 04/04/10 (UMP-NowySacz/src/cities-NowySacz.pnt-converted.txt)"/>
  </node>
  <node id="688089299" version="4" timestamp="2010-04-11T13:19:03Z" uid="20587" user="balrog-kun" changeset="4392352" lat="49.8468496" lon="20.284052">
    <tag k="name" v="Boczów"/>
    <tag k="place" v="village"/>
    <tag k="source" v="http://ump.waw.pl/ retrieved 03:39:37 04/04/10 (UMP-NowySacz/src/cities-NowySacz.pnt-converted.txt)"/>
  </node>
  <node id="688089856" version="2" timestamp="2010-04-11T11:55:53Z" uid="20587" user="balrog-kun" changeset="4392352" lat="49.81246" lon="20.19198">
    <tag k="name" v="Krzesławice"/>
    <tag k="place" v="village"/>
    <tag k="source" v="http://ump.waw.pl/ retrieved 03:39:37 04/04/10 (UMP-NowySacz/src/cities-NowySacz.pnt-converted.txt)"/>
  </node>
  <node id="688089856" version="3" timestamp="2010-04-11T13:19:03Z" uid="20587" user="balrog-kun" changeset="4392352" lat="49.81246" lon="20.19198">
    <tag k="name" v="Krzesławice"/>
    <tag k="place" v="village"/>
    <tag k="source" v="http://ump.waw.pl/ retrieved 03:39:37 04/04/10 (UMP-NowySacz/src/cities-NowySacz.pnt-converted.txt)"/>
  </node>
  <node id="688089861" version="2" timestamp="2010-04-11T11:55:53Z" uid="20587" user="balrog-kun" changeset="4392352" lat="49.80371" lon="20.31606">
    <tag k="name" v="Stare Rybie"/>
    <tag k="place" v="village"/>
    <tag k="source" v="http://ump.waw.pl/ retrieved 03:39:37 04/04/10 (UMP-NowySacz/src/cities-NowySacz.pnt-converted.txt)"/>
  </node>
  <node id="688089861" version="3" timestamp="2010-04-11T13:19:04Z" uid="20587" user="balrog-kun" changeset="4392352" lat="49.80371" lon="20.31606">
    <tag k="name" v="Stare Rybie"/>
    <tag k="place" v="village"/>
    <tag k="source" v="http://ump.waw.pl/ retrieved 03:39:37 04/04/10 (UMP-NowySacz/src/cities-NowySacz.pnt-converted.txt)"/>
  </node>
  <node id="688089861" version="4" timestamp="2010-04-27T04:01:10Z" uid="30632" user="antblant" changeset="4537859" lat="49.80371" lon="20.31606">
    <tag k="name" v="Stare Rybie"/>
    <tag k="place" v="village"/>
    <tag k="source" v="http://ump.waw.pl/ retrieved 03:39:37 04/04/10 (UMP-NowySacz/src/cities-NowySacz.pnt-converted.txt)"/>
    <tag k="teryt:simc" v="0440621"/>
  </node>
</osm>
