<?xml version='1.0' encoding='UTF-8'?>
<osm version="0.6" generator="libosmium/2.20.0">
  <node id="688020545" version="1" timestamp="2010-04-07T23:18:29Z" uid="244897" user="M526244" changeset="4360083" lat="-28.8259429" lon="153.4152195">
    <tag k="amenity" v="post_box"/>
  </node>
  <node id="688023542" version="2" timestamp="2010-04-11T11:55:45Z" uid="20587" user="balrog-kun" changeset="4392352" lat="49.6908" lon="20.50235">
    <tag k="name" v="Pisarzowa"/>
    <tag k="place" v="village"/>
    <tag k="source" v="http://ump.waw.pl/ retrieved 03:39:37 04/04/10 (UMP-NowySacz/src/cities-NowySacz.pnt-converted.txt)"/>
  </node>
  <node id="688023542" version="3" timestamp="2010-04-11T13:18:51Z" uid="20587" user="balrog-kun" changeset="4392352" lat="49.6908" lon="20.50235">
    <tag k="name" v="Pisarzowa"/>
    <tag k="place" v="village"/>
    <tag k="source" v="http://ump.waw.pl/ retrieved 03:39:37 04/04/10 (UMP-NowySacz/src/cities-NowySacz.pnt-converted.txt)"/>
  </node>
  <node id="688023542" version="4" timestamp="2010-04-27T04:02:58Z" uid="30632" user="antblant" changeset="4537862" lat="49.6908" lon="20.50235">
    <tag k="name" v="Pisarzowa"/>
    <tag k="place" v="village"/>
    <tag k="source" v="http://ump.waw.pl/ retrieved 03:39:37 04/04/10 (UMP-NowySacz/src/cities-NowySacz.pnt-converted.txt)"/>
    <tag k="teryt:simc" v="0439530"/>
  </node>
  <node id="688023974" version="2" timestamp="2010-04-11T11:55:45Z" uid="20587" user="balrog-kun" changeset="4392352" lat="49.8237269" lon="20.3740146">
    <tag k="name" v="Kierlikówka"/>
    <tag k="place" v="village"/>
    <tag k="source" v="http://ump.waw.pl/ retrieved 03:39:37 04/04/10 (UMP-NowySacz/src/cities-NowySacz.pnt-converted.txt)"/>
  </node>
  <node id="688023974" version="3" timestamp="2010-04-11T13:18:52Z" uid="20587" user="balrog-kun" changeset="4392352" lat="49.8247455" lon="20.376108">
    <tag k="name" v="Kierlikówka"/>
    <tag k="place" v="village"/>
    <tag k="source" v="http://ump.waw.pl/ retrieved 03:39:37 04/04/10 (UMP-NowySacz/src/cities-NowySacz.pnt-converted.txt)"/>
  </node>
  <node id="688023974" version="4" timestamp="2010-04-27T04:04:29Z" uid="30632" user="antblant" changeset="4537867" lat="49.8247455" lon="20.376108">
    <tag k="name" v="Kierlikówka"/>
    <tag k="place" v="village"/>
    <tag k="source" v="http://ump.waw.pl/ retrieved 03:39:37 04/04/10 (UMP-NowySacz/src/cities-NowySacz.pnt-converted.txt)"/>
    <tag k="teryt:simc" v="0838737"/>
  </node>
  <node id="688024244" version="2" timestamp="2010-04-11T11:55:45Z" uid="20587" user="balrog-kun" changeset="4392352" lat="49.738993" lon="20.667325">
    <tag k="name" v="Rąbkowa"/>
    <tag k="place" v="village"/>
    <tag k="source" v="http://ump.waw.pl/ retrieved 03:39:37 04/04/10 (UMP-NowySacz/src/cities-NowySacz.pnt-converted.txt)"/>
  </node>
  <node id="688024244" version="3" timestamp="2010-04-11T13:18:52Z" uid="20587" user="balrog-kun" changeset="4392352" lat="49.73665" lon="20.66323">
    <tag k="name" v="Rąbkowa"/>
    <tag k="place" v="village"/>
    <tag k="source" v="http://ump.waw.pl/ retrieved 03:39:37 04/04/10 (UMP-NowySacz/src/cities-NowySacz.pnt-converted.txt)"/>
  </node>
  <node id="688024244" version="4" timestamp="2010-04-27T03:56:07Z" uid="30632" user="antblant" changeset="4537843" lat="49.73665" lon="20.66323">
    <tag k="name" v="Rąbkowa"/>
    <tag k="place" v="village"/>
    <tag k="source" v="http://ump.waw.pl/ retrieved 03:39:37 04/04/10 (UMP-NowySacz/src/cities-NowySacz.pnt-converted.txt)"/>
    <tag k="teryt:simc" v="0448054"/>
  </node>
  <node id="688024246" version="2" timestamp="2010-04-11T11:55:45Z" uid="20587" user="balrog-kun" changeset="4392352" lat="49.73965" lon="20.37018">
    <tag k="name" v="Koszary"/>
    <tag k="place" v="village"/>
    <tag k="source" v="http://ump.waw.pl/ retrieved 03:39:37 04/04/10 (UMP-NowySacz/src/cities-NowySacz.pnt-converted.txt)"/>
  </node>
  <node id="688024246" version="3" timestamp="2010-04-11T13:18:52Z" uid="20587" user="balrog-kun" changeset="4392352" lat="49.73965" lon="20.37018">
    <tag k="name" v="Koszary"/>
    <tag k="place" v="village"/>
    <tag k="source" v="http://ump.waw.pl/ retrieved 03:39:37 04/04/10 (UMP-NowySacz/src/cities-NowySacz.pnt-converted.txt)"/>
  </node>
  <node id="688024687" version="2" timestamp="2010-04-11T11:55:45Z" uid="20587" user="balrog-kun" changeset="4392352" lat="49.8420185" lon="20.271497">
    <tag k="name" v="Grabie"/>
    <tag k="place" v="village"/>
    <tag k="source" v="http://ump.waw.pl/ retrieved 03:39:37 04/04/10 (UMP-NowySacz/src/cities-NowySacz.pnt-converted.txt)"/>
  </node>
  <node id="688024687" version="3" timestamp="2010-04-11T13:18:52Z" uid="20587" user="balrog-kun" changeset="4392352" lat="49.8454893" lon="20.2707928">
    <tag k="name" v="Grabie"/>
    <tag k="place" v="village"/>
    <tag k="source" v="http://ump.waw.pl/ retrieved 03:39:37 04/04/10 (UMP-NowySacz/src/cities-NowySacz.pnt-converted.txt)"/>
  </node>
  <node id="688025396" version="4" timestamp="2010-04-11T11:55:45Z" uid="20587" user="balrog-kun" changeset="4392352" lat="49.8331432" lon="20.2077854">
    <tag k="name" v="Sawa"/>
    <tag k="place" v="village"/>
    <tag k="source" v="http://ump.waw.pl/ retrieved 03:39:37 04/04/10 (UMP-NowySacz/src/cities-NowySacz.pnt-converted.txt)"/>
  </node>
  <node id="688025396" version="5" timestamp="2010-04-11T13:18:52Z" uid="20587" user="balrog-kun" changeset="4392352" lat="49.8318374" lon="20.2075005">
    <tag k="name" v="Sawa"/>
    <tag k="place" v="village"/>
    <tag k="source" v="http://ump.waw.pl/ retrieved 03:39:37 04/04/10 (UMP-NowySacz/src/cities-NowySacz.pnt-converted.txt)"/>
  </node>
  <node id="688025396" version="6" timestamp="2010-04-27T04:06:02Z" uid="30632" user="antblant" changeset="4537871" lat="49.8318374" lon="20.2075005">
    <tag k="name" v="Sawa"/>
    <tag k="place" v="village"/>
    <tag k="source" v="http://ump.waw.pl/ retrieved 03:39:37 04/04/10 (UMP-NowySacz/src/cities-NowySacz.pnt-converted.txt)"/>
    <tag k="teryt:simc" v="0333173"/>
  </node>
  <node id="688025837" version="2" timestamp="2010-04-11T11:55:45Z" uid="20587" user="balrog-kun" changeset="4392352" lat="49.73637" lon="20.29038">
    <tag k="name" v="Podłopień"/>
    <tag k="place" v="village"/>
    <tag k="source" v="http://ump.waw.pl/ retrieved 03:39:37 04/04/10 (UMP-NowySacz/src/cities-NowySacz.pnt-converted.txt)"/>
  </node>
  <node id="688025837" version="3" timestamp="2010-04-11T13:18:53Z" uid="20587" user="balrog-kun" changeset="4392352" lat="49.73637" lon="20.29038">
    <tag k="name" v="Podłopień"/>
    <tag k="place" v="village"/>
    <tag k="source" v="http://ump.waw.pl/ retrieved 03:39:37 04/04/10 (UMP-NowySacz/src/cities-NowySacz.pnt-converted.txt)"/>
  </node>
  <node id="688025837" version="4" timestamp="2010-04-27T04:13:58Z" uid="30632" user="antblant" changeset="4537892" lat="49.73637" lon="20.29038">
    <tag k="name" v="Podłopień"/>
    <tag k="place" v="village"/>
    <tag k="source" v="http://ump.waw.pl/ retrieved 03:39:37 04/04/10 (UMP-NowySacz/src/cities-NowySacz.pnt-converted.txt)"/>
    <tag k="teryt:simc" v="0466709"/>
  </node>
  <node id="688026107" version="2" timestamp="2010-04-11T11:55:46Z" uid="20587" user="balrog-kun" changeset="4392352" lat="49.8538" lon="20.65816">
    <tag k="name" v="Tworkowa"/>
    <tag k="place" v="village"/>
    <tag k="source" v="http://ump.waw.pl/ retrieved 03:39:37 04/04/10 (UMP-NowySacz/src/cities-NowySacz.pnt-converted.txt)"/>
  </node>
  <node id="688026107" version="3" timestamp="2010-04-11T13:18:53Z" uid="20587" user="balrog-kun" changeset="4392352" lat="49.8538" lon="20.65816">
    <tag k="name" v="Tworkowa"/>
    <tag k="place" v="village"/>
    <tag k="source" v="http://ump.waw.pl/ retrieved 03:39:37 04/04/10 (UMP-NowySacz/src/cities-NowySacz.pnt-converted.txt)"/>
  </node>
  <node id="688026107" version="4" timestamp="2010-04-27T04:09:02Z" uid="30632" user="antblant" changeset="4537879" lat="49.8538" lon="20.65816">
    <tag k="name" v="Tworkowa"/>
    <tag k="place" v="village"/>
    <tag k="source" v="http://ump.waw.pl/ retrieved 03:39:37 04/04/10 (UMP-NowySacz/src/cities-NowySacz.pnt-converted.txt)"/>
    <tag k="teryt:simc" v="0817190"/>
  </node>
  <node id="688026537" version="2" timestamp="2010-04-11T11:55:46Z" uid="20587" user="balrog-kun" changeset="4392352" lat="49.77413" lon="20.52814">
    <tag k="name" v="Krosna"/>
    <tag k="place" v="village"/>
    <tag k="source" v="http://ump.waw.pl/ retrieved 03:39:37 04/04/10 (UMP-NowySacz/src/cities-NowySacz.pnt-converted.txt)"/>
  </node>
  <node id="688026537" version="3" timestamp="2010-04-11T13:18:53Z" uid="20587" user="balrog-kun" changeset="4392352" lat="49.77413" lon="20.52814">
    <tag k="name" v="Krosna"/>
    <tag k="place" v="village"/>
    <tag k="source" v="http://ump.waw.pl/ retrieved 03:39:37 04/04/10 (UMP-NowySacz/src/cities-NowySacz.pnt-converted.txt)"/>
  </node>
  <node id="688026537" version="4" timestamp="2010-04-27T03:57:53Z" uid="30632" user="antblant" changeset="4537850" lat="49.77413" lon="20.52814">
    <tag k="name" v="Krosna"/>
    <tag k="place" v="village"/>
    <tag k="source" v="http://ump.waw.pl/ retrieved 03:39:37 04/04/10 (UMP-NowySacz/src/cities-NowySacz.pnt-converted.txt)"/>
    <tag k="teryt:simc" v="0437642"/>
  </node>
  <node id="688026539" version="2" timestamp="2010-04-11T11:55:46Z" uid="20587" user="balrog-kun" changeset="4392352" lat="49.86248" lon="20.27334">
    <tag k="name" v="Wolica"/>
    <tag k="place" v="village"/>
    <tag k="source" v="http://ump.waw.pl/ retrieved 03:39:37 04/04/10 (UMP-NowySacz/src/cities-NowySacz.pnt-converted.txt)"/>
  </node>
  <node id="688026539" version="3" timestamp="2010-04-11T13:18:53Z" uid="20587" user="balrog-kun" changeset="4392352" lat="49.86248" lon="20.27334">
    <tag k="name" v="Wolica"/>
    <tag k="place" v="village"/>
    <tag k="source" v="http://ump.waw.pl/ retrieved 03:39:37 04/04/10 (UMP-NowySacz/src/cities-NowySacz.pnt-converted.txt)"/>
  </node>
  <node id="688027022" version="2" timestamp="2010-04-11T11:55:46Z" uid="20587" user="balrog-kun" changeset="4392352" lat="49.86479" lon="20.29144">
    <tag k="name" v="Łapanów"/>
    <tag k="place" v="village"/>
    <tag k="source" v="http://ump.waw.pl/ retrieved 03:39:37 04/04/10 (UMP-NowySacz/src/cities-NowySacz.pnt-converted.txt)"/>
  </node>
  <node id="688027022" version="3" timestamp="2010-04-11T13:18:53Z" uid="20587" user="balrog-kun" changeset="4392352" lat="49.86479" lon="20.29144">
    <tag k="name" v="Łapanów"/>
    <tag k="place" v="village"/>
    <tag k="source" v="http://ump.waw.pl/ retrieved 03:39:37 04/04/10 (UMP-NowySacz/src/cities-NowySacz.pnt-converted.txt)"/>
  </node>
  <node id="688027022" version="4" timestamp="2010-04-27T04:09:13Z" uid="30632" user="antblant" changeset="4537879" lat="49.86479" lon="20.29144">
    <tag k="name" v="Łapanów"/>
    <tag k="place" v="village"/>
    <tag k="source" v="http://ump.waw.pl/ retrieved 03:39:37 04/04/10 (UMP-NowySacz/src/cities-NowySacz.pnt-converted.txt)"/>
    <tag k="teryt:simc" v="0823440"/>
  </node>
  <node id="688027297" version="2" timestamp="2010-04-11T11:55:46Z" uid="20587" user="balrog-kun" changeset="4392352" lat="49.78409" lon="20.57915">
    <tag k="name" v="Dobrociesz"/>
    <tag k="place" v="village"/>
    <tag k="source" v="http://ump.waw.pl/ retrieved 03:39:37 04/04/10 (UMP-NowySacz/src/cities-NowySacz.pnt-converted.txt)"/>
  </node>
  <node id="688027297" version="3" timestamp="2010-04-11T13:18:53Z" uid="20587" user="balrog-kun" changeset="4392352" lat="49.78409" lon="20.57915">
    <tag k="name" v="Dobrociesz"/>
    <tag k="place" v="village"/>
    <tag k="source" v="http://ump.waw.pl/ retrieved 03:39:37 04/04/10 (UMP-NowySacz/src/cities-NowySacz.pnt-converted.txt)"/>
  </node>
  <node id="688027297" version="4" timestamp="2010-04-27T04:04:27Z" uid="30632" user="antblant" changeset="4537867" lat="49.78409" lon="20.57915">
    <tag k="name" v="Dobrociesz"/>
    <tag k="place" v="village"/>
    <tag k="source" v="http://ump.waw.pl/ retrieved 03:39:37 04/04/10 (UMP-NowySacz/src/cities-NowySacz.pnt-converted.txt)"/>
    <tag k="teryt:simc" v="0820832"/>
  </node>
  <node id="688027299" version="2" timestamp="2010-04-11T11:55:46Z" uid="20587" user="balrog-kun" changeset="4392352" lat="49.81377" lon="20.22555">
    <tag k="name" v="Krasne Lasocice"/>
    <tag k="place" v="village"/>
    <tag k="source" v="http://ump.waw.pl/ retrieved 03:39:37 04/04/10 (UMP-NowySacz/src/cities-NowySacz.pnt-converted.txt)"/>
  </node>
  <node id="688027299" version="3" timestamp="2010-04-11T13:18:54Z" uid="20587" user="balrog-kun" changeset="4392352" lat="49.81377" lon="20.22555">
    <tag k="name" v="Krasne Lasocice"/>
    <tag k="place" v="village"/>
    <tag k="source" v="http://ump.waw.pl/ retrieved 03:39:37 04/04/10 (UMP-NowySacz/src/cities-NowySacz.pnt-converted.txt)"/>
  </node>
  <node id="688027839" version="2" timestamp="2010-04-11T11:55:46Z" uid="20587" user="balrog-kun" changeset="4392352" lat="49.86079" lon="20.55606">
    <tag k="name" v="Lipnica Dolna"/>
    <tag k="place" v="village"/>
    <tag k="source" v="http://ump.waw.pl/ retrieved 03:39:37 04/04/10 (UMP-NowySacz/src/cities-NowySacz.pnt-converted.txt)"/>
  </node>
  <node id="688027839" version="3" timestamp="2010-04-11T13:18:54Z" uid="20587" user="balrog-kun" changeset="4392352" lat="49.86079" lon="20.55606">
    <tag k="name" v="Lipnica Dolna"/>
    <tag k="place" v="village"/>
    <tag k="source" v="http://ump.waw.pl/ retrieved 03:39:37 04/04/10 (UMP-NowySacz/src/cities-NowySacz.pnt-converted.txt)"/>
  </node>
  <node id="688027841" version="2" timestamp="2010-04-11T11:55:46Z" uid="20587" user="balrog-kun" changeset="4392352" lat="49.75568" lon="20.17912">
    <tag k="name" v="Skrzydlna"/>
    <tag k="place" v="village"/>
    <tag k="source" v="http://ump.waw.pl/ retrieved 03:39:37 04/04/10 (UMP-NowySacz/src/cities-NowySacz.pnt-converted.txt)"/>
  </node>
  <node id="688027841" version="3" timestamp="2010-04-11T13:18:54Z" uid="20587" user="balrog-kun" changeset="4392352" lat="49.75568" lon="20.17912">
    <tag k="name" v="Skrzydlna"/>
    <tag k="place" v="village"/>
    <tag k="source" v="http://ump.waw.pl/ retrieved 03:39:37 04/04/10 (UMP-NowySacz/src/cities-NowySacz.pnt-converted.txt)"/>
  </node>
  <node id="688027841" version="4" timestamp="2010-04-27T04:18:43Z" uid="30632" user="antblant" changeset="4537909" lat="49.75568" lon="20.17912">
    <tag k="name" v="Skrzydlna"/>
    <tag k="place" v="village"/>
    <tag k="source" v="http://ump.waw.pl/ retrieved 03:39:37 04/04/10 (UMP-NowySacz/src/cities-NowySacz.pnt-converted.txt)"/>
    <tag k="teryt:simc" v="0424639"/>
  </node>
  <node id="688028141" version="2" timestamp="2010-04-11T11:55:46Z" uid="20587" user="balrog-kun" changeset="4392352" lat="49.86662" lon="20.17944">
    <tag k="name" v="Kędzierzynka"/>
    <tag k="place" v="village"/>
    <tag k="source" v="http://ump.waw.pl/ retrieved 03:39:37 04/04/10 (UMP-NowySacz/src/cities-NowySacz.pnt-converted.txt)"/>
  </node>
  <node id="688028141" version="3" timestamp="2010-04-11T13:18:54Z" uid="20587" user="balrog-kun" changeset="4392352" lat="49.86662" lon="20.17944">
    <tag k="name" v="Kędzierzynka"/>
    <tag k="place" v="village"/>
    <tag k="source" v="http://ump.waw.pl/ retrieved 03:39:37 04/04/10 (UMP-NowySacz/src/cities-NowySacz.pnt-converted.txt)"/>
  </node>
  <node id="688028141" version="4" timestamp="2010-04-27T04:15:34Z" uid="30632" user="antblant" changeset="4537896" lat="49.86662" lon="20.17944">
    <tag k="name" v="Kędzierzynka"/>
    <tag k="place" v="village"/>
    <tag k="source" v="http://ump.waw.pl/ retrieved 03:39:37 04/04/10 (UMP-NowySacz/src/cities-NowySacz.pnt-converted.txt)"/>
    <tag k="teryt:simc" v="0316743"/>
  </node>
  <node id="688028583" version="2" timestamp="2010-04-11T11:55:46Z" uid="20587" user="balrog-kun" changeset="4392352" lat="49.8204" lon="20.21268">
    <tag k="name" v="Kwaszowice"/>
    <tag k="place" v="village"/>
    <tag k="source" v="http://ump.waw.pl/ retrieved 03:39:37 04/04/10 (UMP-NowySacz/src/cities-NowySacz.pnt-converted.txt)"/>
  </node>
  <node id="688028583" version="3" timestamp="2010-04-11T13:18:54Z" uid="20587" user="balrog-kun" changeset="4392352" lat="49.8204" lon="20.21268">
    <tag k="name" v="Kwaszowice"/>
    <tag k="place" v="village"/>
    <tag k="source" v="http://ump.waw.pl/ retrieved 03:39:37 04/04/10 (UMP-NowySacz/src/cities-NowySacz.pnt-converted.txt)"/>
  </node>
  <node id="688029014" version="3" timestamp="2010-04-11T11:55:46Z" uid="20587" user="balrog-kun" changeset="4392352" lat="49.7237236" lon="20.4062936">
    <tag k="name" v="Sowliny"/>
    <tag k="place" v="hamlet"/>
    <tag k="source" v="http://ump.waw.pl/ retrieved 03:39:37 04/04/10 (UMP-NowySacz/src/cities-NowySacz.pnt-converted.txt)"/>
  </node>
  <node id="688029014" version="4" timestamp="2010-04-11T13:18:54Z" uid="20587" user="balrog-kun" changeset="4392352" lat="49.723498" lon="20.4035651">
    <tag k="name" v="Sowliny"/>
    <tag k="place" v="hamlet"/>
    <tag k="source" v="http://ump.waw.pl/ retrieved 03:39:37 04/04/10 (UMP-NowySacz/src/cities-NowySacz.pnt-converted.txt)"/>
  </node>
  <node id="688029014" version="5" timestamp="2010-04-27T04:00:55Z" uid="30632" user="antblant" changeset="4537859" lat="49.723498" lon="20.4035651">
    <tag k="name" v="Sowliny"/>
    <tag k="place" v="hamlet"/>
    <tag k="source" v="http://ump.waw.pl/ retrieved 03:39:37 04/04/10 (UMP-NowySacz/src/cities-NowySacz.pnt-converted.txt)"/>
    <tag k="teryt:simc" v="0440265"/>
  </node>
  <node id="688029479" version="2" timestamp="2010-04-11T11:55:46Z" uid="20587" user="balrog-kun" changeset="4392352" lat="49.79433" lon="20.26621">
    <tag k="name" v="Sadek"/>
    <tag k="place" v="village"/>
    <tag k="source" v="http://ump.waw.pl/ retrieved 03:39:37 04/04/10 (UMP-NowySacz/src/cities-NowySacz.pnt-converted.txt)"/>
  </node>
  <node id="688029479" version="3" timestamp="2010-04-11T13:18:54Z" uid="20587" user="balrog-kun" changeset="4392352" lat="49.79433" lon="20.26621">
    <tag k="name" v="Sadek"/>
    <tag k="place" v="village"/>
    <tag k="source" v="http://ump.waw.pl/ retrieved 03:39:37 04/04/10 (UMP-NowySacz/src/cities-NowySacz.pnt-converted.txt)"/>
  </node>
</osm>
