<?xml version='1.0' encoding='UTF-8'?>
<osm version="0.6" generator="libosmium/2.20.0">
  <node id="698906184" version="5" timestamp="2011-03-17T12:04:51Z" uid="115477" user="wowik" changeset="7584637" lat="55.7389923" lon="37.5798847">
    <tag k="amenity" v="embassy"/>
    <tag k="country" v="CO"/>
    <tag k="name" v="посольство Колумбии"/>
    <tag k="name:en" v="Embassy of Colombia"/>
    <tag k="name:ru" v="посольство Колумбии"/>
  </node>
  <node id="698906189" version="4" timestamp="2011-03-17T12:04:52Z" uid="115477" user="wowik" changeset="7584637" lat="55.7401946" lon="37.5785483">
    <tag k="amenity" v="embassy"/>
    <tag k="country" v="BD"/>
    <tag k="name" v="посольство Бангладеш"/>
    <tag k="name:en" v="Embassy of Bangladesh"/>
  </node>
  <node id="698906193" version="5" timestamp="2011-03-17T12:04:50Z" uid="115477" user="wowik" changeset="7584637" lat="55.7395879" lon="37.5794715">
    <tag k="amenity" v="embassy"/>
    <tag k="country" v="ZW"/>
    <tag k="name" v="посольство Зимбабве"/>
    <tag k="name:en" v="Embassy of Zimbabwe"/>
    <tag k="name:ru" v="посольство Зимбабве"/>
  </node>
  <node id="698906195" version="5" timestamp="2011-03-17T12:04:52Z" uid="115477" user="wowik" changeset="7584637" lat="55.7402844" lon="37.582407">
    <tag k="amenity" v="embassy"/>
    <tag k="country" v="NP"/>
    <tag k="name" v="посольство Непала"/>
    <tag k="name:en" v="embassy of Nepal"/>
    <tag k="name:ru" v="посольство Непала"/>
  </node>
  <node id="698906200" version="5" timestamp="2011-03-17T12:04:53Z" uid="115477" user="wowik" changeset="7584637" lat="55.7398851" lon="37.5829452">
    <tag k="amenity" v="embassy"/>
    <tag k="country" v="YE"/>
    <tag k="name" v="посольство Йемена"/>
    <tag k="name:en" v="Embassy of Yemen"/>
    <tag k="name:ru" v="посольство Йемена"/>
  </node>
  <node id="698906202" version="4" timestamp="2011-03-17T12:04:54Z" uid="115477" user="wowik" changeset="7584637" lat="55.7403107" lon="37.5831877">
    <tag k="amenity" v="embassy"/>
    <tag k="country" v="SA"/>
    <tag k="name" v="посольство Саудовской Аравии"/>
    <tag k="name:en" v="Embassy of Saudi Arabia"/>
    <tag k="name:ru" v="посольство Саудовской Аравии"/>
  </node>
</osm>
