<?xml version='1.0' encoding='UTF-8'?>
<osm version="0.6" generator="libosmium/2.20.0">
  <node id="701441505" version="2" timestamp="2011-03-12T08:55:53Z" uid="33382" user="de_muur" changeset="7530777" lat="53.5403802" lon="10.6861962"/>
  <node id="701441508" version="2" timestamp="2011-03-12T08:56:14Z" uid="33382" user="de_muur" changeset="7530777" lat="53.5475499" lon="10.6820784"/>
  <node id="701441509" version="2" timestamp="2011-03-12T08:56:01Z" uid="33382" user="de_muur" changeset="7530777" lat="53.5465562" lon="10.6825395"/>
  <node id="701441510" version="2" timestamp="2011-03-12T08:55:49Z" uid="33382" user="de_muur" changeset="7530777" lat="53.546194" lon="10.6827171"/>
  <node id="701441516" version="2" timestamp="2011-03-12T09:32:09Z" uid="33382" user="de_muur" changeset="7531081" lat="53.5792682" lon="10.6740038"/>
  <node id="701441519" version="2" timestamp="2011-03-12T09:10:37Z" uid="33382" user="de_muur" changeset="7530918" lat="53.5884911" lon="10.6661358"/>
  <node id="701441519" version="3" timestamp="2011-03-12T09:32:10Z" uid="33382" user="de_muur" changeset="7531081" lat="53.5904371" lon="10.6662029"/>
  <node id="701441521" version="2" timestamp="2011-06-06T15:23:50Z" uid="33382" user="de_muur" changeset="8361267" lat="53.5826831" lon="10.6695708"/>
  <node id="701441522" version="2" timestamp="2011-06-06T15:23:30Z" uid="33382" user="de_muur" changeset="8361267" lat="53.5817897" lon="10.671054"/>
  <node id="701441524" version="2" timestamp="2011-03-12T09:10:39Z" uid="33382" user="de_muur" changeset="7530918" lat="53.580675" lon="10.6729024"/>
  <node id="701441527" version="2" timestamp="2011-03-12T09:10:39Z" uid="33382" user="de_muur" changeset="7530918" lat="53.5838522" lon="10.6679417"/>
  <node id="701441527" version="3" timestamp="2011-06-06T15:23:50Z" uid="33382" user="de_muur" changeset="8361267" lat="53.5835212" lon="10.6683894"/>
  <node id="701441534" version="2" timestamp="2011-06-06T17:53:42Z" uid="33382" user="de_muur" changeset="8362601" lat="53.6015257" lon="10.6658162"/>
  <node id="701443602" version="1" timestamp="2010-04-18T20:25:20Z" uid="115477" user="wowik" changeset="4462361" lat="57.4402058" lon="37.2236939">
    <tag k="name" v="Клепцово"/>
    <tag k="place" v="hamlet"/>
  </node>
  <node id="701443602" version="3" timestamp="2010-07-20T19:00:58Z" uid="115477" user="wowik" changeset="5273302" lat="57.4406758" lon="37.2231912">
    <tag k="addr:city" v="Уницкое сельское поселение"/>
    <tag k="addr:country" v="RU"/>
    <tag k="addr:district" v="Кашинский район"/>
    <tag k="addr:postcode" v="171631"/>
    <tag k="addr:region" v="Тверская область"/>
    <tag k="cladr:code" v="6901201700300"/>
    <tag k="cladr:name" v="Клепцово"/>
    <tag k="cladr:suffix" v="Деревня"/>
    <tag k="name" v="Клепцово"/>
    <tag k="place" v="hamlet"/>
  </node>
  <node id="701443603" version="1" timestamp="2010-04-18T20:25:20Z" uid="115477" user="wowik" changeset="4462361" lat="57.4307813" lon="37.1734829">
    <tag k="name" v="Савино"/>
    <tag k="place" v="hamlet"/>
  </node>
  <node id="701443603" version="2" timestamp="2010-07-20T17:44:58Z" uid="115477" user="wowik" changeset="5272712" lat="57.4319712" lon="37.1718251">
    <tag k="name" v="Савино"/>
    <tag k="place" v="hamlet"/>
  </node>
  <node id="701443603" version="3" timestamp="2010-07-21T12:18:06Z" uid="115477" user="wowik" changeset="5278442" lat="57.4319713" lon="37.171825">
    <tag k="name" v="Большое Савино"/>
    <tag k="old_name" v="Савино"/>
    <tag k="place" v="hamlet"/>
  </node>
  <node id="701443604" version="1" timestamp="2010-04-18T20:25:20Z" uid="115477" user="wowik" changeset="4462361" lat="57.450182" lon="37.2272988">
    <tag k="name" v="Гольнево"/>
    <tag k="place" v="hamlet"/>
  </node>
  <node id="701443604" version="3" timestamp="2010-07-20T17:23:13Z" uid="115477" user="wowik" changeset="5272539" lat="57.4508315" lon="37.228506">
    <tag k="addr:city" v="Уницкое сельское поселение"/>
    <tag k="addr:country" v="RU"/>
    <tag k="addr:district" v="Кашинский район"/>
    <tag k="addr:postcode" v="171631"/>
    <tag k="addr:region" v="Тверская область"/>
    <tag k="cladr:code" v="6901201700200"/>
    <tag k="cladr:name" v="Гольнево"/>
    <tag k="cladr:suffix" v="Деревня"/>
    <tag k="name" v="Гольнево"/>
    <tag k="place" v="hamlet"/>
  </node>
  <node id="701443604" version="4" timestamp="2010-07-20T18:06:19Z" uid="115477" user="wowik" changeset="5272865" lat="57.4503038" lon="37.2308449">
    <tag k="addr:city" v="Уницкое сельское поселение"/>
    <tag k="addr:country" v="RU"/>
    <tag k="addr:district" v="Кашинский район"/>
    <tag k="addr:postcode" v="171631"/>
    <tag k="addr:region" v="Тверская область"/>
    <tag k="cladr:code" v="6901201700200"/>
    <tag k="cladr:name" v="Гольнево"/>
    <tag k="cladr:suffix" v="Деревня"/>
    <tag k="name" v="Гольнево"/>
    <tag k="place" v="hamlet"/>
  </node>
  <node id="701443604" version="5" timestamp="2010-07-20T19:00:58Z" uid="115477" user="wowik" changeset="5273302" lat="57.4500746" lon="37.2317742">
    <tag k="addr:city" v="Уницкое сельское поселение"/>
    <tag k="addr:country" v="RU"/>
    <tag k="addr:district" v="Кашинский район"/>
    <tag k="addr:postcode" v="171631"/>
    <tag k="addr:region" v="Тверская область"/>
    <tag k="cladr:code" v="6901201700200"/>
    <tag k="cladr:name" v="Гольнево"/>
    <tag k="cladr:suffix" v="Деревня"/>
    <tag k="name" v="Гольнево"/>
    <tag k="place" v="hamlet"/>
  </node>
  <node id="701443607" version="1" timestamp="2010-04-18T20:25:20Z" uid="115477" user="wowik" changeset="4462361" lat="57.4553537" lon="37.2480698">
    <tag k="name" v="Уницы"/>
    <tag k="place" v="hamlet"/>
  </node>
  <node id="701443607" version="2" timestamp="2010-07-20T16:08:12Z" uid="115477" user="wowik" changeset="5271966" lat="57.4548859" lon="37.2496752">
    <tag k="name" v="Уницы"/>
    <tag k="place" v="hamlet"/>
  </node>
  <node id="701443607" version="3" timestamp="2010-07-20T17:23:13Z" uid="115477" user="wowik" changeset="5272539" lat="57.4575647" lon="37.2497506">
    <tag k="name" v="Уницы"/>
    <tag k="place" v="hamlet"/>
  </node>
  <node id="701443607" version="4" timestamp="2010-07-20T18:06:20Z" uid="115477" user="wowik" changeset="5272865" lat="57.4560224" lon="37.250656">
    <tag k="name" v="Уницы"/>
    <tag k="place" v="village"/>
  </node>
  <node id="701443609" version="1" timestamp="2010-04-18T20:25:20Z" uid="115477" user="wowik" changeset="4462361" lat="57.4560925" lon="37.2362252">
    <tag k="name" v="Уницкая горка"/>
    <tag k="place" v="hamlet"/>
  </node>
  <node id="701443609" version="3" timestamp="2010-07-20T17:23:07Z" uid="115477" user="wowik" changeset="5272539" lat="57.457716" lon="37.2344899">
    <tag k="addr:city" v="Уницкое сельское поселение"/>
    <tag k="addr:country" v="RU"/>
    <tag k="addr:district" v="Кашинский район"/>
    <tag k="addr:postcode" v="171631"/>
    <tag k="addr:region" v="Тверская область"/>
    <tag k="cladr:code" v="6901201700700"/>
    <tag k="cladr:name" v="Уницкая Горка"/>
    <tag k="cladr:suffix" v="Деревня"/>
    <tag k="name" v="Уницкая горка"/>
    <tag k="place" v="hamlet"/>
  </node>
  <node id="701443609" version="4" timestamp="2010-07-20T19:00:58Z" uid="115477" user="wowik" changeset="5273302" lat="57.4577166" lon="37.2352504">
    <tag k="addr:city" v="Уницкое сельское поселение"/>
    <tag k="addr:country" v="RU"/>
    <tag k="addr:district" v="Кашинский район"/>
    <tag k="addr:postcode" v="171631"/>
    <tag k="addr:region" v="Тверская область"/>
    <tag k="cladr:code" v="6901201700700"/>
    <tag k="cladr:name" v="Уницкая Горка"/>
    <tag k="cladr:suffix" v="Деревня"/>
    <tag k="name" v="Уницкая горка"/>
    <tag k="place" v="hamlet"/>
  </node>
  <node id="701443609" version="5" timestamp="2010-11-24T14:38:05Z" uid="115477" user="wowik" changeset="6446894" lat="57.4573115" lon="37.2357026">
    <tag k="addr:city" v="Уницкое сельское поселение"/>
    <tag k="addr:country" v="RU"/>
    <tag k="addr:district" v="Кашинский район"/>
    <tag k="addr:postcode" v="171631"/>
    <tag k="addr:region" v="Тверская область"/>
    <tag k="cladr:code" v="6901201700700"/>
    <tag k="cladr:name" v="Уницкая Горка"/>
    <tag k="cladr:suffix" v="Деревня"/>
    <tag k="name" v="Уницкая Горка"/>
    <tag k="place" v="hamlet"/>
  </node>
  <node id="701443615" version="1" timestamp="2010-04-18T20:25:21Z" uid="115477" user="wowik" changeset="4462361" lat="57.4024934" lon="37.2913285">
    <tag k="name" v="Кобылино"/>
    <tag k="place" v="hamlet"/>
  </node>
  <node id="701443615" version="2" timestamp="2010-07-20T18:59:22Z" uid="115477" user="wowik" changeset="5273302" lat="57.4024935" lon="37.2913284">
    <tag k="name" v="Кобылино"/>
    <tag k="place" v="hamlet"/>
    <tag k="source" v="Менге"/>
  </node>
  <node id="701443615" version="3" timestamp="2010-11-22T15:38:29Z" uid="115477" user="wowik" changeset="6432391" lat="57.4024935" lon="37.2913284">
    <tag k="name" v="Кобылино"/>
    <tag k="place" v="hamlet"/>
    <tag k="source" v="Менде"/>
  </node>
  <node id="701443615" version="4" timestamp="2010-11-22T16:15:13Z" uid="115477" user="wowik" changeset="6432391" lat="57.4024935" lon="37.2913284">
    <tag k="name" v="Кобылино"/>
    <tag k="place" v="locality"/>
    <tag k="source" v="Менде"/>
  </node>
  <node id="701443619" version="1" timestamp="2010-04-18T20:25:21Z" uid="115477" user="wowik" changeset="4462361" lat="57.4193209" lon="37.2655793">
    <tag k="name" v="Македоново"/>
    <tag k="place" v="hamlet"/>
  </node>
  <node id="701443619" version="3" timestamp="2010-07-20T19:00:59Z" uid="115477" user="wowik" changeset="5273302" lat="57.4186126" lon="37.266879">
    <tag k="addr:city" v="Уницкое сельское поселение"/>
    <tag k="addr:country" v="RU"/>
    <tag k="addr:district" v="Кашинский район"/>
    <tag k="addr:postcode" v="171631"/>
    <tag k="addr:region" v="Тверская область"/>
    <tag k="cladr:code" v="6901201700400"/>
    <tag k="cladr:name" v="Македоново"/>
    <tag k="cladr:suffix" v="Деревня"/>
    <tag k="name" v="Македоново"/>
    <tag k="place" v="hamlet"/>
  </node>
  <node id="701443623" version="1" timestamp="2010-04-18T20:25:22Z" uid="115477" user="wowik" changeset="4462361" lat="57.4189049" lon="37.2313328">
    <tag k="name" v="Сумино"/>
    <tag k="place" v="hamlet"/>
  </node>
  <node id="701443623" version="3" timestamp="2010-07-20T17:44:47Z" uid="115477" user="wowik" changeset="5272712" lat="57.4192096" lon="37.2299181">
    <tag k="addr:city" v="Уницкое сельское поселение"/>
    <tag k="addr:country" v="RU"/>
    <tag k="addr:district" v="Кашинский район"/>
    <tag k="addr:postcode" v="171631"/>
    <tag k="addr:region" v="Тверская область"/>
    <tag k="cladr:code" v="6901201700600"/>
    <tag k="cladr:name" v="Сумино"/>
    <tag k="cladr:suffix" v="Деревня"/>
    <tag k="name" v="Сумино"/>
    <tag k="place" v="hamlet"/>
  </node>
  <node id="701443625" version="1" timestamp="2010-04-18T20:25:22Z" uid="115477" user="wowik" changeset="4462361" lat="57.4258834" lon="37.2264405">
    <tag k="name" v="Свезево"/>
    <tag k="place" v="hamlet"/>
  </node>
  <node id="701443625" version="2" timestamp="2010-07-20T17:44:47Z" uid="115477" user="wowik" changeset="5272712" lat="57.4262388" lon="37.2259689">
    <tag k="name" v="Свезево"/>
    <tag k="place" v="hamlet"/>
  </node>
  <node id="701443625" version="3" timestamp="2010-07-20T19:00:57Z" uid="115477" user="wowik" changeset="5273302" lat="57.4266077" lon="37.2267102">
    <tag k="name" v="Свезево"/>
    <tag k="place" v="hamlet"/>
  </node>
  <node id="701443628" version="1" timestamp="2010-04-18T20:25:23Z" uid="115477" user="wowik" changeset="4462361" lat="57.386676" lon="37.1586342">
    <tag k="name" v="Батурово"/>
    <tag k="place" v="hamlet"/>
  </node>
  <node id="701443628" version="4" timestamp="2010-11-22T17:06:05Z" uid="115477" user="wowik" changeset="6432391" lat="57.392311" lon="37.1601698">
    <tag k="addr:city" v="Уницкое сельское поселение"/>
    <tag k="addr:country" v="RU"/>
    <tag k="addr:district" v="Кашинский район"/>
    <tag k="addr:postcode" v="171612"/>
    <tag k="addr:region" v="Тверская область"/>
    <tag k="cladr:code" v="6901201701000"/>
    <tag k="cladr:name" v="Батурово"/>
    <tag k="cladr:suffix" v="Деревня"/>
    <tag k="name" v="Батурово"/>
    <tag k="place" v="hamlet"/>
  </node>
  <node id="701443628" version="5" timestamp="2011-02-01T14:52:28Z" uid="115477" user="wowik" changeset="7155421" lat="57.3931314" lon="37.1609592">
    <tag k="addr:city" v="Уницкое сельское поселение"/>
    <tag k="addr:country" v="RU"/>
    <tag k="addr:district" v="Кашинский район"/>
    <tag k="addr:postcode" v="171612"/>
    <tag k="addr:region" v="Тверская область"/>
    <tag k="cladr:code" v="6901201701000"/>
    <tag k="cladr:name" v="Батурово"/>
    <tag k="cladr:suffix" v="Деревня"/>
    <tag k="name" v="Батурово"/>
    <tag k="place" v="hamlet"/>
  </node>
  <node id="701443629" version="1" timestamp="2010-04-18T20:25:23Z" uid="115477" user="wowik" changeset="4462361" lat="57.3753868" lon="37.2870369">
    <tag k="name" v="Дмитровка"/>
    <tag k="place" v="hamlet"/>
  </node>
  <node id="701443629" version="2" timestamp="2010-11-22T17:06:19Z" uid="115477" user="wowik" changeset="6432391" lat="57.3755845" lon="37.288032">
    <tag k="name" v="Дмитровка"/>
    <tag k="place" v="hamlet"/>
  </node>
  <node id="701443631" version="1" timestamp="2010-04-18T20:25:23Z" uid="115477" user="wowik" changeset="4462361" lat="57.3820497" lon="37.2968216">
    <tag k="name" v="Белино"/>
    <tag k="place" v="hamlet"/>
  </node>
  <node id="701443631" version="3" timestamp="2010-11-22T17:06:13Z" uid="115477" user="wowik" changeset="6432391" lat="57.3814498" lon="37.3040884">
    <tag k="addr:city" v="Давыдовское сельское поселение"/>
    <tag k="addr:country" v="RU"/>
    <tag k="addr:district" v="Кашинский район"/>
    <tag k="addr:postcode" v="171611"/>
    <tag k="addr:region" v="Тверская область"/>
    <tag k="cladr:code" v="6901200700100"/>
    <tag k="cladr:name" v="Белино"/>
    <tag k="cladr:suffix" v="Деревня"/>
    <tag k="name" v="Белино"/>
    <tag k="place" v="hamlet"/>
  </node>
  <node id="701443633" version="1" timestamp="2010-04-18T20:25:23Z" uid="115477" user="wowik" changeset="4462361" lat="57.3826974" lon="37.2782822">
    <tag k="name" v="Бельшово"/>
    <tag k="place" v="hamlet"/>
  </node>
  <node id="701443633" version="2" timestamp="2010-11-22T17:06:06Z" uid="115477" user="wowik" changeset="6432391" lat="57.3832973" lon="37.2781513">
    <tag k="name" v="Бельшово"/>
    <tag k="place" v="locality"/>
  </node>
  <node id="701443646" version="1" timestamp="2010-04-18T20:25:25Z" uid="115477" user="wowik" changeset="4462361" lat="57.3713145" lon="37.1618958">
    <tag k="name" v="Щелково"/>
    <tag k="place" v="hamlet"/>
  </node>
  <node id="701443646" version="2" timestamp="2010-11-22T17:06:07Z" uid="115477" user="wowik" changeset="6432391" lat="57.3738989" lon="37.1693705">
    <tag k="name" v="Щелково"/>
    <tag k="place" v="hamlet"/>
  </node>
  <node id="701443647" version="1" timestamp="2010-04-18T20:25:25Z" uid="115477" user="wowik" changeset="4462361" lat="57.3758496" lon="37.1735688">
    <tag k="name" v="Шатилова горка"/>
    <tag k="place" v="hamlet"/>
  </node>
  <node id="701443647" version="3" timestamp="2010-11-22T17:06:06Z" uid="115477" user="wowik" changeset="6432391" lat="57.3793714" lon="37.1776174">
    <tag k="name" v="Шатилова Горка"/>
    <tag k="place" v="locality"/>
  </node>
  <node id="701443650" version="1" timestamp="2010-04-18T20:25:25Z" uid="115477" user="wowik" changeset="4462361" lat="57.3804766" lon="37.18919">
    <tag k="name" v="Шуленово"/>
    <tag k="place" v="hamlet"/>
  </node>
  <node id="701443650" version="2" timestamp="2010-11-22T17:06:12Z" uid="115477" user="wowik" changeset="6432391" lat="57.3841984" lon="37.1996749">
    <tag k="name" v="Шуленово"/>
    <tag k="place" v="locality"/>
    <tag k="source" v="Менде"/>
  </node>
  <node id="701443652" version="1" timestamp="2010-04-18T20:25:26Z" uid="115477" user="wowik" changeset="4462361" lat="57.3790886" lon="37.1483345">
    <tag k="name" v="Братково"/>
    <tag k="place" v="hamlet"/>
  </node>
  <node id="701443652" version="2" timestamp="2010-11-22T17:06:11Z" uid="115477" user="wowik" changeset="6432391" lat="57.3818677" lon="37.1546356">
    <tag k="name" v="Братково"/>
    <tag k="place" v="hamlet"/>
  </node>
  <node id="701443652" version="3" timestamp="2011-01-14T17:44:14Z" uid="115477" user="wowik" changeset="6969443" lat="57.3824287" lon="37.15565">
    <tag k="name" v="Братково"/>
    <tag k="place" v="hamlet"/>
  </node>
  <node id="701443655" version="1" timestamp="2010-04-18T20:25:26Z" uid="115477" user="wowik" changeset="4462361" lat="57.4420996" lon="37.2196599"/>
  <node id="701443656" version="1" timestamp="2010-04-18T20:25:26Z" uid="115477" user="wowik" changeset="4462361" lat="57.4391895" lon="37.2285004"/>
  <node id="701443659" version="1" timestamp="2010-04-18T20:25:27Z" uid="115477" user="wowik" changeset="4462361" lat="57.4264379" lon="37.2269555"/>
  <node id="701443660" version="1" timestamp="2010-04-18T20:25:27Z" uid="115477" user="wowik" changeset="4462361" lat="57.426022" lon="37.2299595"/>
  <node id="701443661" version="1" timestamp="2010-04-18T20:25:27Z" uid="115477" user="wowik" changeset="4462361" lat="57.4262084" lon="37.2309139"/>
  <node id="701443663" version="1" timestamp="2010-04-18T20:25:27Z" uid="115477" user="wowik" changeset="4462361" lat="57.4100298" lon="37.2250672"/>
  <node id="701443665" version="1" timestamp="2010-04-18T20:25:28Z" uid="115477" user="wowik" changeset="4462361" lat="57.4123874" lon="37.226183"/>
  <node id="701443666" version="1" timestamp="2010-04-18T20:25:28Z" uid="115477" user="wowik" changeset="4462361" lat="57.4138667" lon="37.2264405"/>
  <node id="701443667" version="1" timestamp="2010-04-18T20:25:28Z" uid="115477" user="wowik" changeset="4462361" lat="57.4152072" lon="37.2267838"/>
  <node id="701443669" version="1" timestamp="2010-04-18T20:25:28Z" uid="115477" user="wowik" changeset="4462361" lat="57.365668" lon="37.2301312"/>
  <node id="701443669" version="2" timestamp="2010-04-23T15:25:57Z" uid="115477" user="wowik" changeset="4504434" lat="57.365668" lon="37.2301312"/>
  <node id="701443671" version="1" timestamp="2010-04-18T20:25:28Z" uid="115477" user="wowik" changeset="4462361" lat="57.3686765" lon="37.229702"/>
  <node id="701443671" version="2" timestamp="2010-04-23T15:25:57Z" uid="115477" user="wowik" changeset="4504434" lat="57.3686765" lon="37.229702"/>
  <node id="701443672" version="1" timestamp="2010-04-18T20:25:28Z" uid="115477" user="wowik" changeset="4462361" lat="57.3733044" lon="37.2340794"/>
  <node id="701443672" version="2" timestamp="2010-04-23T15:25:57Z" uid="115477" user="wowik" changeset="4504434" lat="57.3733044" lon="37.2340794"/>
  <node id="701443673" version="1" timestamp="2010-04-18T20:25:28Z" uid="115477" user="wowik" changeset="4462361" lat="57.3790423" lon="37.2303029"/>
  <node id="701443673" version="2" timestamp="2010-04-23T15:25:57Z" uid="115477" user="wowik" changeset="4504434" lat="57.3790423" lon="37.2303029"/>
  <node id="701443674" version="1" timestamp="2010-04-18T20:25:28Z" uid="115477" user="wowik" changeset="4462361" lat="57.3842241" lon="37.2285862"/>
  <node id="701443674" version="2" timestamp="2010-04-23T15:25:57Z" uid="115477" user="wowik" changeset="4504434" lat="57.3842241" lon="37.2285862"/>
  <node id="701443675" version="1" timestamp="2010-04-18T20:25:28Z" uid="115477" user="wowik" changeset="4462361" lat="57.3940306" lon="37.2328778"/>
  <node id="701443675" version="2" timestamp="2010-04-23T15:25:57Z" uid="115477" user="wowik" changeset="4504434" lat="57.3940306" lon="37.2328778"/>
  <node id="701443676" version="1" timestamp="2010-04-18T20:25:28Z" uid="115477" user="wowik" changeset="4462361" lat="57.3984241" lon="37.2351094"/>
  <node id="701443676" version="2" timestamp="2010-04-23T15:25:57Z" uid="115477" user="wowik" changeset="4504434" lat="57.3984241" lon="37.2351094"/>
  <node id="701443677" version="1" timestamp="2010-04-18T20:25:28Z" uid="115477" user="wowik" changeset="4462361" lat="57.4071634" lon="37.2375126"/>
  <node id="701443677" version="2" timestamp="2010-04-23T15:25:57Z" uid="115477" user="wowik" changeset="4504434" lat="57.4071634" lon="37.2375126"/>
  <node id="701443679" version="1" timestamp="2010-04-18T20:25:28Z" uid="115477" user="wowik" changeset="4462361" lat="57.4082267" lon="37.2369977"/>
  <node id="701443679" version="2" timestamp="2010-04-23T15:25:57Z" uid="115477" user="wowik" changeset="4504434" lat="57.4082267" lon="37.2369977"/>
  <node id="701443681" version="1" timestamp="2010-04-18T20:25:29Z" uid="115477" user="wowik" changeset="4462361" lat="57.4195058" lon="37.2685833"/>
  <node id="701443683" version="1" timestamp="2010-04-18T20:25:29Z" uid="115477" user="wowik" changeset="4462361" lat="57.4159006" lon="37.2660084"/>
  <node id="701443685" version="1" timestamp="2010-04-18T20:25:29Z" uid="115477" user="wowik" changeset="4462361" lat="57.4145601" lon="37.2642918"/>
  <node id="701443686" version="1" timestamp="2010-04-18T20:25:29Z" uid="115477" user="wowik" changeset="4462361" lat="57.4140054" lon="37.2633477"/>
  <node id="701443687" version="1" timestamp="2010-04-18T20:25:29Z" uid="115477" user="wowik" changeset="4462361" lat="57.4135893" lon="37.2612448"/>
  <node id="701443688" version="1" timestamp="2010-04-18T20:25:29Z" uid="115477" user="wowik" changeset="4462361" lat="57.4125261" lon="37.2607728"/>
  <node id="701443689" version="1" timestamp="2010-04-18T20:25:29Z" uid="115477" user="wowik" changeset="4462361" lat="57.4124337" lon="37.2587986"/>
  <node id="701443693" version="1" timestamp="2010-04-18T20:25:30Z" uid="115477" user="wowik" changeset="4462361" lat="57.4593244" lon="37.2545929"/>
  <node id="701443693" version="2" timestamp="2010-11-24T14:37:44Z" uid="115477" user="wowik" changeset="6446894" lat="57.4589051" lon="37.2541079"/>
  <node id="701443695" version="1" timestamp="2010-04-18T20:25:30Z" uid="115477" user="wowik" changeset="4462361" lat="57.4584934" lon="37.2503014"/>
  <node id="701443695" version="2" timestamp="2010-11-24T14:38:04Z" uid="115477" user="wowik" changeset="6446894" lat="57.4582884" lon="37.248985"/>
  <node id="701443696" version="1" timestamp="2010-04-18T20:25:30Z" uid="115477" user="wowik" changeset="4462361" lat="57.457847" lon="37.2466965"/>
  <node id="701443696" version="2" timestamp="2010-11-24T14:37:44Z" uid="115477" user="wowik" changeset="6446894" lat="57.45767" lon="37.2462115"/>
  <node id="701443697" version="1" timestamp="2010-04-18T20:25:30Z" uid="115477" user="wowik" changeset="4462361" lat="57.454615" lon="37.240345"/>
  <node id="701443697" version="2" timestamp="2010-11-24T14:37:59Z" uid="115477" user="wowik" changeset="6446894" lat="57.4545591" lon="37.240397"/>
  <node id="701443699" version="1" timestamp="2010-04-18T20:25:30Z" uid="115477" user="wowik" changeset="4462361" lat="57.4527679" lon="37.2384568"/>
  <node id="701443699" version="2" timestamp="2010-11-24T14:38:04Z" uid="115477" user="wowik" changeset="6446894" lat="57.4524622" lon="37.2378332"/>
  <node id="701443700" version="1" timestamp="2010-04-18T20:25:30Z" uid="115477" user="wowik" changeset="4462361" lat="57.4488889" lon="37.2353669"/>
  <node id="701443700" version="2" timestamp="2010-11-24T14:38:05Z" uid="115477" user="wowik" changeset="6446894" lat="57.4489635" lon="37.2352838"/>
  <node id="701443701" version="1" timestamp="2010-04-18T20:25:31Z" uid="115477" user="wowik" changeset="4462361" lat="57.4301345" lon="37.2288437"/>
  <node id="701443701" version="2" timestamp="2010-11-22T17:06:18Z" uid="115477" user="wowik" changeset="6432391" lat="57.4309239" lon="37.2284247"/>
  <node id="701443702" version="1" timestamp="2010-04-18T20:25:31Z" uid="115477" user="wowik" changeset="4462361" lat="57.4158081" lon="37.2363968"/>
  <node id="701443704" version="1" timestamp="2010-04-18T20:25:31Z" uid="115477" user="wowik" changeset="4462361" lat="57.4532297" lon="37.2607728"/>
  <node id="701443704" version="2" timestamp="2010-11-24T14:38:05Z" uid="115477" user="wowik" changeset="6446894" lat="57.4530404" lon="37.2607457"/>
  <node id="701443706" version="1" timestamp="2010-04-18T20:25:31Z" uid="115477" user="wowik" changeset="4462361" lat="57.4538762" lon="37.2508164"/>
  <node id="701443706" version="2" timestamp="2010-11-24T14:37:53Z" uid="115477" user="wowik" changeset="6446894" lat="57.4538315" lon="37.2507333"/>
  <node id="701443708" version="1" timestamp="2010-04-18T20:25:32Z" uid="115477" user="wowik" changeset="4462361" lat="57.4565542" lon="37.251503"/>
  <node id="701443708" version="2" timestamp="2010-11-24T14:38:04Z" uid="115477" user="wowik" changeset="6446894" lat="57.4565393" lon="37.2512951"/>
  <node id="701443711" version="1" timestamp="2010-04-18T20:25:32Z" uid="115477" user="wowik" changeset="4462361" lat="57.4571083" lon="37.2523613"/>
  <node id="701443714" version="1" timestamp="2010-04-18T20:25:32Z" uid="115477" user="wowik" changeset="4462361" lat="57.4607094" lon="37.2575112"/>
  <node id="701443716" version="1" timestamp="2010-04-18T20:25:32Z" uid="115477" user="wowik" changeset="4462361" lat="57.4655104" lon="37.2633477"/>
  <node id="701443718" version="1" timestamp="2010-04-18T20:25:32Z" uid="115477" user="wowik" changeset="4462361" lat="57.4671722" lon="37.2760506"/>
  <node id="701443720" version="1" timestamp="2010-04-18T20:25:32Z" uid="115477" user="wowik" changeset="4462361" lat="57.4650488" lon="37.2848053"/>
  <node id="701443726" version="1" timestamp="2010-04-18T20:25:33Z" uid="115477" user="wowik" changeset="4462361" lat="57.4644949" lon="37.295105"/>
  <node id="701444752" version="1" timestamp="2010-04-18T20:27:04Z" uid="115477" user="wowik" changeset="4462361" lat="57.348538" lon="37.3394795"/>
  <node id="701444753" version="1" timestamp="2010-04-18T20:27:04Z" uid="115477" user="wowik" changeset="4462361" lat="57.3476118" lon="37.3405953"/>
  <node id="701444755" version="1" timestamp="2010-04-18T20:27:04Z" uid="115477" user="wowik" changeset="4462361" lat="57.3471487" lon="37.3406811"/>
  <node id="701444756" version="1" timestamp="2010-04-18T20:27:05Z" uid="115477" user="wowik" changeset="4462361" lat="57.346593" lon="37.3395653"/>
  <node id="701444757" version="1" timestamp="2010-04-18T20:27:05Z" uid="115477" user="wowik" changeset="4462361" lat="57.345852" lon="37.3369046"/>
  <node id="701444758" version="1" timestamp="2010-04-18T20:27:05Z" uid="115477" user="wowik" changeset="4462361" lat="57.3455742" lon="37.3365612"/>
  <node id="701444759" version="1" timestamp="2010-04-18T20:27:05Z" uid="115477" user="wowik" changeset="4462361" lat="57.3446942" lon="37.3367329"/>
  <node id="701444760" version="1" timestamp="2010-04-18T20:27:05Z" uid="115477" user="wowik" changeset="4462361" lat="57.3438143" lon="37.3370762"/>
  <node id="701444761" version="1" timestamp="2010-04-18T20:27:05Z" uid="115477" user="wowik" changeset="4462361" lat="57.3433511" lon="37.3378487"/>
  <node id="701444763" version="1" timestamp="2010-04-18T20:27:05Z" uid="115477" user="wowik" changeset="4462361" lat="57.3430733" lon="37.338707"/>
  <node id="701444764" version="1" timestamp="2010-04-18T20:27:05Z" uid="115477" user="wowik" changeset="4462361" lat="57.3424248" lon="37.3393078"/>
  <node id="701444765" version="1" timestamp="2010-04-18T20:27:05Z" uid="115477" user="wowik" changeset="4462361" lat="57.3416375" lon="37.3406811"/>
  <node id="701444767" version="1" timestamp="2010-04-18T20:27:05Z" uid="115477" user="wowik" changeset="4462361" lat="57.341128" lon="37.3422261"/>
  <node id="701444769" version="1" timestamp="2010-04-18T20:27:05Z" uid="115477" user="wowik" changeset="4462361" lat="57.3400627" lon="37.3430844"/>
  <node id="701444770" version="1" timestamp="2010-04-18T20:27:05Z" uid="115477" user="wowik" changeset="4462361" lat="57.3393679" lon="37.3443718"/>
  <node id="701444771" version="1" timestamp="2010-04-18T20:27:05Z" uid="115477" user="wowik" changeset="4462361" lat="57.338812" lon="37.3461743"/>
  <node id="701444772" version="1" timestamp="2010-04-18T20:27:05Z" uid="115477" user="wowik" changeset="4462361" lat="57.3381636" lon="37.3464318"/>
  <node id="701444773" version="1" timestamp="2010-04-18T20:27:05Z" uid="115477" user="wowik" changeset="4462361" lat="57.3373761" lon="37.3475476"/>
  <node id="701444774" version="1" timestamp="2010-04-18T20:27:05Z" uid="115477" user="wowik" changeset="4462361" lat="57.3368665" lon="37.348835"/>
  <node id="701444775" version="1" timestamp="2010-04-18T20:27:05Z" uid="115477" user="wowik" changeset="4462361" lat="57.3365423" lon="37.3497792"/>
  <node id="701444776" version="1" timestamp="2010-04-18T20:27:05Z" uid="115477" user="wowik" changeset="4462361" lat="57.3352915" lon="37.3515816"/>
  <node id="701444779" version="1" timestamp="2010-04-18T20:27:06Z" uid="115477" user="wowik" changeset="4462361" lat="57.334365" lon="37.3529549"/>
  <node id="701444781" version="1" timestamp="2010-04-18T20:27:06Z" uid="115477" user="wowik" changeset="4462361" lat="57.3440922" lon="37.332613"/>
  <node id="701444782" version="1" timestamp="2010-04-18T20:27:06Z" uid="115477" user="wowik" changeset="4462361" lat="57.3440459" lon="37.3348446"/>
  <node id="701444783" version="1" timestamp="2010-04-18T20:27:06Z" uid="115477" user="wowik" changeset="4462361" lat="57.3440459" lon="37.3356171"/>
  <node id="701448046" version="1" timestamp="2010-04-18T20:31:18Z" uid="115477" user="wowik" changeset="4462697" lat="57.2725639" lon="37.3531847"/>
  <node id="701448048" version="1" timestamp="2010-04-18T20:31:18Z" uid="115477" user="wowik" changeset="4462697" lat="57.2729584" lon="37.3540859"/>
  <node id="701448049" version="1" timestamp="2010-04-18T20:31:19Z" uid="115477" user="wowik" changeset="4462697" lat="57.2737704" lon="37.3549013"/>
  <node id="701448050" version="1" timestamp="2010-04-18T20:31:19Z" uid="115477" user="wowik" changeset="4462697" lat="57.2743504" lon="37.3558454"/>
  <node id="701448051" version="1" timestamp="2010-04-18T20:31:19Z" uid="115477" user="wowik" changeset="4462697" lat="57.2780624" lon="37.3582487"/>
  <node id="701448053" version="1" timestamp="2010-04-18T20:31:19Z" uid="115477" user="wowik" changeset="4462697" lat="57.2785727" lon="37.3588495"/>
  <node id="701448054" version="1" timestamp="2010-04-18T20:31:19Z" uid="115477" user="wowik" changeset="4462697" lat="57.2777376" lon="37.3589353"/>
  <node id="701448057" version="1" timestamp="2010-04-18T20:31:19Z" uid="115477" user="wowik" changeset="4462697" lat="57.2715895" lon="37.3579483"/>
  <node id="701448058" version="1" timestamp="2010-04-18T20:31:19Z" uid="115477" user="wowik" changeset="4462697" lat="57.2729816" lon="37.3580341"/>
  <node id="701448060" version="1" timestamp="2010-04-18T20:31:20Z" uid="115477" user="wowik" changeset="4462697" lat="57.2763689" lon="37.3296241"/>
  <node id="701448061" version="1" timestamp="2010-04-18T20:31:20Z" uid="115477" user="wowik" changeset="4462697" lat="57.27442" lon="37.3333149"/>
  <node id="701448062" version="1" timestamp="2010-04-18T20:31:20Z" uid="115477" user="wowik" changeset="4462697" lat="57.273608" lon="37.3347311"/>
  <node id="701448063" version="1" timestamp="2010-04-18T20:31:20Z" uid="115477" user="wowik" changeset="4462697" lat="57.2735152" lon="37.3354177"/>
  <node id="701448065" version="1" timestamp="2010-04-18T20:31:20Z" uid="115477" user="wowik" changeset="4462697" lat="57.3067708" lon="37.3685054"/>
  <node id="701448067" version="1" timestamp="2010-04-18T20:31:20Z" uid="115477" user="wowik" changeset="4462697" lat="57.3050554" lon="37.3685054"/>
  <node id="701448068" version="1" timestamp="2010-04-18T20:31:20Z" uid="115477" user="wowik" changeset="4462697" lat="57.3042673" lon="37.3686771"/>
  <node id="701448069" version="1" timestamp="2010-04-18T20:31:20Z" uid="115477" user="wowik" changeset="4462697" lat="57.3035718" lon="37.3694496"/>
  <node id="701448082" version="1" timestamp="2010-04-18T20:31:21Z" uid="115477" user="wowik" changeset="4462697" lat="57.2759977" lon="37.3530559"/>
</osm>
