<?xml version='1.0' encoding='UTF-8'?>
<osm version="0.6" generator="libosmium/2.20.0">
  <node id="702747469" version="3" timestamp="2010-11-01T09:35:39Z" uid="34428" user="usm78-gis" changeset="6252780" lat="60.3769142" lon="28.975846">
    <tag k="addr:country" v="RU"/>
    <tag k="addr:district" v="Выборгский район"/>
    <tag k="addr:postcode" v="188840"/>
    <tag k="addr:region" v="Ленинградская область"/>
    <tag k="cladr:code" v="4700600010200"/>
    <tag k="cladr:name" v="Пионерское"/>
    <tag k="cladr:suffix" v="Поселок"/>
    <tag k="is_in" v="Ленинградская область"/>
    <tag k="name" v="Пионерское"/>
    <tag k="name:fi" v="Kuolemajärvi"/>
    <tag k="place" v="village"/>
  </node>
  <node id="702747479" version="3" timestamp="2010-11-01T09:36:07Z" uid="34428" user="usm78-gis" changeset="6252780" lat="60.3896083" lon="29.0059427">
    <tag k="addr:country" v="RU"/>
    <tag k="addr:district" v="Выборгский район"/>
    <tag k="addr:postcode" v="188840"/>
    <tag k="addr:region" v="Ленинградская область"/>
    <tag k="cladr:code" v="4700600009900"/>
    <tag k="cladr:name" v="Мамонтовка"/>
    <tag k="cladr:suffix" v="Поселок"/>
    <tag k="is_in" v="Ленинградская область"/>
    <tag k="name" v="Мамонтовка"/>
    <tag k="name:fi" v="Pihkala"/>
    <tag k="place" v="village"/>
  </node>
  <node id="702747483" version="3" timestamp="2010-11-01T09:35:56Z" uid="34428" user="usm78-gis" changeset="6252780" lat="60.3907591" lon="28.9383666">
    <tag k="addr:country" v="RU"/>
    <tag k="addr:district" v="Выборгский район"/>
    <tag k="addr:postcode" v="188840"/>
    <tag k="addr:region" v="Ленинградская область"/>
    <tag k="cladr:code" v="4700600010000"/>
    <tag k="cladr:name" v="Мысовое"/>
    <tag k="cladr:suffix" v="Поселок"/>
    <tag k="is_in" v="Ленинградская область"/>
    <tag k="name" v="Мысовое"/>
    <tag k="name:fi" v="Laasola"/>
    <tag k="place" v="village"/>
  </node>
  <node id="702747486" version="3" timestamp="2010-11-01T09:35:27Z" uid="34428" user="usm78-gis" changeset="6252780" lat="60.3615058" lon="28.7718666">
    <tag k="addr:country" v="RU"/>
    <tag k="addr:district" v="Выборгский район"/>
    <tag k="addr:region" v="Ленинградская область"/>
    <tag k="is_in" v="Ленинградская область"/>
    <tag k="name" v="Ермилово"/>
    <tag k="name:fi" v="Humaljoki"/>
    <tag k="place" v="village"/>
  </node>
  <node id="702747493" version="2" timestamp="2010-11-01T00:08:44Z" uid="34428" user="usm78-gis" changeset="6249816" lat="60.3792833" lon="28.9739795"/>
  <node id="702747494" version="3" timestamp="2010-11-01T09:35:54Z" uid="34428" user="usm78-gis" changeset="6252780" lat="60.47335" lon="28.9253139">
    <tag k="addr:country" v="RU"/>
    <tag k="addr:district" v="Выборгский район"/>
    <tag k="addr:postcode" v="188913"/>
    <tag k="addr:region" v="Ленинградская область"/>
    <tag k="cladr:code" v="4700600019400"/>
    <tag k="cladr:name" v="Дятлово"/>
    <tag k="cladr:suffix" v="Поселок"/>
    <tag k="is_in" v="Ленинградская область"/>
    <tag k="name" v="Дятлово"/>
    <tag k="name:fi" v="Karhula"/>
    <tag k="place" v="village"/>
  </node>
  <node id="702747498" version="3" timestamp="2010-11-01T09:35:42Z" uid="34428" user="usm78-gis" changeset="6252780" lat="60.3987523" lon="28.8594959">
    <tag k="addr:country" v="RU"/>
    <tag k="addr:district" v="Выборгский район"/>
    <tag k="addr:postcode" v="188911"/>
    <tag k="addr:region" v="Ленинградская область"/>
    <tag k="cladr:code" v="4700600007100"/>
    <tag k="cladr:name" v="Малышево"/>
    <tag k="cladr:suffix" v="Поселок"/>
    <tag k="is_in" v="Ленинградская область"/>
    <tag k="name" v="Малышево"/>
    <tag k="name:fi" v="Keskikylä"/>
    <tag k="place" v="village"/>
  </node>
</osm>
