<?xml version='1.0' encoding='UTF-8'?>
<osm version="0.6" generator="libosmium/2.20.0">
  <node id="705656562" version="1" timestamp="2010-04-24T23:49:25Z" uid="18775" user="drlizau" changeset="4517003" lat="-35.3417727" lon="143.5601371">
    <tag k="name" v="Medicare"/>
    <tag k="office" v="government"/>
  </node>
  <node id="705656566" version="1" timestamp="2010-04-24T23:49:25Z" uid="18775" user="drlizau" changeset="4517003" lat="-35.3422239" lon="143.5602753">
    <tag k="name" v="Carpet Court"/>
    <tag k="shop" v="carpets"/>
  </node>
  <node id="705656568" version="1" timestamp="2010-04-24T23:49:25Z" uid="18775" user="drlizau" changeset="4517003" lat="-35.3427862" lon="143.5604805">
    <tag k="name" v="L.J. Hooker"/>
    <tag k="office" v="real_estate"/>
  </node>
  <node id="705656568" version="2" timestamp="2010-05-25T06:44:32Z" uid="18775" user="drlizau" changeset="4800726" lat="-35.3427862" lon="143.5604805">
    <tag k="name" v="L.J. Hooker"/>
    <tag k="office" v="estate_agent"/>
  </node>
  <node id="705656572" version="1" timestamp="2010-04-24T23:49:25Z" uid="18775" user="drlizau" changeset="4517003" lat="-35.3421492" lon="143.5602549">
    <tag k="name" v="Debbie&apos;s Dreams and Dragons"/>
    <tag k="shop" v="gift"/>
  </node>
  <node id="705656574" version="1" timestamp="2010-04-24T23:49:25Z" uid="18775" user="drlizau" changeset="4517003" lat="-35.3419377" lon="143.5601759">
    <tag k="name" v="Warburton Optical"/>
    <tag k="shop" v="optician"/>
  </node>
  <node id="705656578" version="1" timestamp="2010-04-24T23:49:25Z" uid="18775" user="drlizau" changeset="4517003" lat="-35.341873" lon="143.5601571">
    <tag k="name" v="Peter Walsh M.P."/>
    <tag k="office" v="politician"/>
  </node>
  <node id="705656578" version="2" timestamp="2010-05-25T06:44:33Z" uid="18775" user="drlizau" changeset="4800726" lat="-35.341873" lon="143.5601571">
    <tag k="name" v="Peter Walsh M.P."/>
    <tag k="office" v="government"/>
  </node>
  <node id="705656581" version="1" timestamp="2010-04-24T23:49:25Z" uid="18775" user="drlizau" changeset="4517003" lat="-35.3424644" lon="143.5603626">
    <tag k="amenity" v="restaurant"/>
    <tag k="cuisine" v="chinese"/>
    <tag k="name" v="Kam&apos;s Chinese Restaurant"/>
  </node>
  <node id="705656581" version="2" timestamp="2010-04-25T02:23:37Z" uid="18775" user="drlizau" changeset="4517287" lat="-35.3424644" lon="143.5603626">
    <tag k="addr:housenumber" v="302"/>
    <tag k="amenity" v="restaurant"/>
    <tag k="cuisine" v="chinese"/>
    <tag k="name" v="Kam&apos;s Chinese Restaurant"/>
  </node>
  <node id="705656582" version="1" timestamp="2010-04-24T23:49:25Z" uid="18775" user="drlizau" changeset="4517003" lat="-35.342001" lon="143.5602001">
    <tag k="name" v="Swan Hill Hair and Beauty College"/>
    <tag k="shop" v="hairdresser"/>
  </node>
  <node id="705656583" version="1" timestamp="2010-04-24T23:49:26Z" uid="18775" user="drlizau" changeset="4517003" lat="-35.3418436" lon="143.5601516">
    <tag k="name" v="Pat &amp; Velia&apos;s"/>
    <tag k="shop" v="clothes"/>
  </node>
  <node id="705656584" version="1" timestamp="2010-04-24T23:49:26Z" uid="18775" user="drlizau" changeset="4517003" lat="-35.3423341" lon="143.5603083">
    <tag k="name" v="Mallee Sports Assembly"/>
    <tag k="office" v="quango"/>
  </node>
  <node id="705656585" version="1" timestamp="2010-04-24T23:49:26Z" uid="18775" user="drlizau" changeset="4517003" lat="-35.3415126" lon="143.5600735">
    <tag k="name" v="Harvey World Travel"/>
    <tag k="office" v="travel"/>
  </node>
  <node id="705656585" version="2" timestamp="2010-05-25T06:44:33Z" uid="18775" user="drlizau" changeset="4800726" lat="-35.3415126" lon="143.5600735">
    <tag k="name" v="Harvey World Travel"/>
    <tag k="office" v="travel_agent"/>
  </node>
  <node id="705656586" version="1" timestamp="2010-04-24T23:49:26Z" uid="18775" user="drlizau" changeset="4517003" lat="-35.3419078" lon="143.5601674">
    <tag k="name" v="Francis Florist"/>
    <tag k="shop" v="florist"/>
  </node>
  <node id="705656587" version="1" timestamp="2010-04-24T23:49:26Z" uid="18775" user="drlizau" changeset="4517003" lat="-35.3419587" lon="143.5601838">
    <tag k="name" v="Imoshun"/>
    <tag k="shop" v="hairdresser"/>
  </node>
  <node id="705656588" version="1" timestamp="2010-04-24T23:49:26Z" uid="18775" user="drlizau" changeset="4517003" lat="-35.3417486" lon="143.5601332">
    <tag k="amenity" v="cafe"/>
    <tag k="name" v="Debbie&apos;s Have a Chat Cafe"/>
  </node>
  <node id="705656589" version="1" timestamp="2010-04-24T23:49:26Z" uid="18775" user="drlizau" changeset="4517003" lat="-35.3462745" lon="143.561923">
    <tag k="amenity" v="restaurant"/>
    <tag k="name" v="Palms Restaurant"/>
  </node>
  <node id="705656589" version="2" timestamp="2010-04-25T02:24:38Z" uid="18775" user="drlizau" changeset="4517287" lat="-35.3462745" lon="143.561923">
    <tag k="addr:housenumber" v="405"/>
    <tag k="amenity" v="restaurant"/>
    <tag k="name" v="Palms Restaurant"/>
  </node>
  <node id="705656592" version="1" timestamp="2010-04-24T23:49:26Z" uid="18775" user="drlizau" changeset="4517003" lat="-35.3414963" lon="143.5600686">
    <tag k="name" v="Red Cross"/>
    <tag k="shop" v="charity"/>
  </node>
  <node id="705656594" version="1" timestamp="2010-04-24T23:49:26Z" uid="18775" user="drlizau" changeset="4517003" lat="-35.3416413" lon="143.5601061">
    <tag k="name" v="Pip&apos;s Top Knot"/>
    <tag k="shop" v="hairdresser"/>
  </node>
  <node id="705656595" version="1" timestamp="2010-04-24T23:49:26Z" uid="18775" user="drlizau" changeset="4517003" lat="-35.3420602" lon="143.5602323">
    <tag k="amenity" v="fast_food"/>
    <tag k="cuisine" v="noodles"/>
    <tag k="name" v="Noodle Cuisine"/>
  </node>
  <node id="705656596" version="1" timestamp="2010-04-24T23:49:26Z" uid="18775" user="drlizau" changeset="4517003" lat="-35.3423776" lon="143.5603313">
    <tag k="amenity" v="fast_food"/>
    <tag k="cuisine" v="pizza"/>
    <tag k="name" v="Domino&apos;s"/>
  </node>
</osm>
