<?xml version='1.0' encoding='UTF-8'?>
<osm version="0.6" generator="libosmium/2.20.0">
  <node id="70978800" version="10" timestamp="2009-07-25T15:08:20Z" uid="123700" user="Mala" changeset="1935220" lat="43.6170137" lon="13.5170982">
    <tag k="gfoss_id" v="4229"/>
    <tag k="is_in" v="Ancona, Marche, Italy"/>
    <tag k="is_in:continent" v="Europe"/>
    <tag k="name" v="Ancona"/>
    <tag k="name:fr" v="AncÃ´ne"/>
    <tag k="name:pl" v="Ankona"/>
    <tag k="place" v="city"/>
    <tag k="population" v="100507"/>
    <tag k="source" v="geodati.gfoss.it"/>
    <tag k="wikipedia" v="Ancona"/>
  </node>
  <node id="70979294" version="3" timestamp="2009-10-10T01:40:32Z" uid="99207" user="Lar Kiesel" changeset="2799432" lat="31.8298454" lon="-81.354951">
    <tag k="source" v="tiger_import_dch_v0.6_20070809"/>
    <tag k="tiger:county" v="Bryan, GA:Liberty, GA"/>
    <tag k="tiger:tlid" v="6088192:6091939:6330507:6353294"/>
    <tag k="tiger:upload_uuid" v="bulk_upload.pl-79472ab4-36cb-406a-b46b-f15c3fd9ebf1:bulk_upload.pl-859565c3-a552-42eb-a9a9-b2d6b2ff15e7"/>
  </node>
  <node id="70979680" version="3" timestamp="2009-10-10T01:40:33Z" uid="99207" user="Lar Kiesel" changeset="2799432" lat="31.8297068" lon="-81.3547106">
    <tag k="source" v="tiger_import_dch_v0.6_20070809"/>
    <tag k="tiger:county" v="Bryan, GA:Liberty, GA"/>
    <tag k="tiger:tlid" v="6087968:6088103:6330290"/>
    <tag k="tiger:upload_uuid" v="bulk_upload.pl-79472ab4-36cb-406a-b46b-f15c3fd9ebf1:bulk_upload.pl-859565c3-a552-42eb-a9a9-b2d6b2ff15e7"/>
  </node>
</osm>
