<?xml version='1.0' encoding='UTF-8'?>
<osm version="0.6" generator="libosmium/2.20.0">
  <node id="716841389" version="1" timestamp="2010-05-02T10:08:46Z" uid="18775" user="drlizau" changeset="4582678" lat="-33.8344682" lon="138.6120841">
    <tag k="amenity" v="townhall"/>
    <tag k="name" v="Clare &amp; Gilbert Valleys Council"/>
  </node>
  <node id="716841395" version="1" timestamp="2010-05-02T10:08:46Z" uid="18775" user="drlizau" changeset="4582678" lat="-33.8340812" lon="138.6124033">
    <tag k="name" v="Closet &amp; Robe"/>
    <tag k="shop" v="clothes"/>
  </node>
  <node id="716841396" version="1" timestamp="2010-05-02T10:08:46Z" uid="18775" user="drlizau" changeset="4582678" lat="-33.8339638" lon="138.6122653">
    <tag k="addr:housenumber" v="244"/>
    <tag k="amenity" v="pub"/>
    <tag k="name" v="Clare Hotel"/>
  </node>
  <node id="716841403" version="1" timestamp="2010-05-02T10:08:46Z" uid="18775" user="drlizau" changeset="4582678" lat="-33.8341226" lon="138.6122516">
    <tag k="name" v="Elders"/>
    <tag k="office" v="real_estate"/>
  </node>
  <node id="716841405" version="1" timestamp="2010-05-02T10:08:46Z" uid="18775" user="drlizau" changeset="4582678" lat="-33.8340448" lon="138.6123653">
    <tag k="addr:housenumber" v="240"/>
    <tag k="name" v="Toyworld"/>
    <tag k="shop" v="toys"/>
  </node>
  <node id="716841409" version="1" timestamp="2010-05-02T10:08:46Z" uid="18775" user="drlizau" changeset="4582678" lat="-33.8342548" lon="138.6125623">
    <tag k="name" v="Clewers of Clare"/>
    <tag k="shop" v="curtains"/>
  </node>
  <node id="716841411" version="1" timestamp="2010-05-02T10:08:46Z" uid="18775" user="drlizau" changeset="4582678" lat="-33.8336307" lon="138.6119376">
    <tag k="name" v="Foodland"/>
    <tag k="opening_hours" v="Mo-Su 08:00-20:00"/>
    <tag k="shop" v="supermarket"/>
  </node>
  <node id="716845617" version="2" timestamp="2010-07-28T21:03:13Z" uid="74617" user="JohnSmith" changeset="5342181" lat="51.5243547" lon="-0.1757379">
    <tag k="emergency" v="ambulance_station"/>
    <tag k="source" v="os_street_view"/>
  </node>
  <node id="716847958" version="1" timestamp="2010-05-02T10:14:56Z" uid="151899" user="Bikeman2000" changeset="4583087" lat="51.2541798" lon="6.8051709"/>
  <node id="716847961" version="1" timestamp="2010-05-02T10:14:56Z" uid="151899" user="Bikeman2000" changeset="4583087" lat="51.2540854" lon="6.8050575"/>
  <node id="716847963" version="1" timestamp="2010-05-02T10:14:56Z" uid="151899" user="Bikeman2000" changeset="4583087" lat="51.2540724" lon="6.8050354"/>
  <node id="716847965" version="1" timestamp="2010-05-02T10:14:56Z" uid="151899" user="Bikeman2000" changeset="4583087" lat="51.2540602" lon="6.8050092"/>
  <node id="716847967" version="1" timestamp="2010-05-02T10:14:56Z" uid="151899" user="Bikeman2000" changeset="4583087" lat="51.254051" lon="6.8049837"/>
  <node id="716847970" version="1" timestamp="2010-05-02T10:14:56Z" uid="151899" user="Bikeman2000" changeset="4583087" lat="51.2540439" lon="6.8049576"/>
  <node id="716847975" version="1" timestamp="2010-05-02T10:14:57Z" uid="151899" user="Bikeman2000" changeset="4583087" lat="51.2533151" lon="6.8034918"/>
  <node id="716847979" version="1" timestamp="2010-05-02T10:14:57Z" uid="151899" user="Bikeman2000" changeset="4583087" lat="51.2533721" lon="6.80348"/>
  <node id="716847981" version="1" timestamp="2010-05-02T10:14:57Z" uid="151899" user="Bikeman2000" changeset="4583087" lat="51.2534106" lon="6.803467"/>
  <node id="716847983" version="1" timestamp="2010-05-02T10:14:58Z" uid="151899" user="Bikeman2000" changeset="4583087" lat="51.2535059" lon="6.8034013"/>
  <node id="716847991" version="1" timestamp="2010-05-02T10:14:58Z" uid="151899" user="Bikeman2000" changeset="4583087" lat="51.2527375" lon="6.8024207"/>
  <node id="716847994" version="1" timestamp="2010-05-02T10:14:58Z" uid="151899" user="Bikeman2000" changeset="4583087" lat="51.2527324" lon="6.8024692"/>
  <node id="716847996" version="1" timestamp="2010-05-02T10:14:58Z" uid="151899" user="Bikeman2000" changeset="4583087" lat="51.2527315" lon="6.802492"/>
  <node id="716848001" version="1" timestamp="2010-05-02T10:14:59Z" uid="151899" user="Bikeman2000" changeset="4583087" lat="51.2527439" lon="6.8025917"/>
  <node id="716848003" version="1" timestamp="2010-05-02T10:14:59Z" uid="151899" user="Bikeman2000" changeset="4583087" lat="51.2529195" lon="6.8035398"/>
  <node id="716848006" version="1" timestamp="2010-05-02T10:14:59Z" uid="151899" user="Bikeman2000" changeset="4583087" lat="51.2529315" lon="6.8036374"/>
  <node id="716848008" version="1" timestamp="2010-05-02T10:14:59Z" uid="151899" user="Bikeman2000" changeset="4583087" lat="51.2530028" lon="6.8044275"/>
  <node id="716848010" version="1" timestamp="2010-05-02T10:14:59Z" uid="151899" user="Bikeman2000" changeset="4583087" lat="51.253006" lon="6.8044688"/>
  <node id="716848012" version="1" timestamp="2010-05-02T10:14:59Z" uid="151899" user="Bikeman2000" changeset="4583087" lat="51.2530119" lon="6.8044942"/>
  <node id="716848016" version="1" timestamp="2010-05-02T10:15:00Z" uid="151899" user="Bikeman2000" changeset="4583087" lat="51.2530421" lon="6.8045465"/>
  <node id="716848019" version="1" timestamp="2010-05-02T10:15:00Z" uid="151899" user="Bikeman2000" changeset="4583087" lat="51.2530663" lon="6.8045734"/>
  <node id="716848021" version="1" timestamp="2010-05-02T10:15:00Z" uid="151899" user="Bikeman2000" changeset="4583087" lat="51.2532842" lon="6.8047633"/>
  <node id="716848023" version="1" timestamp="2010-05-02T10:15:00Z" uid="151899" user="Bikeman2000" changeset="4583087" lat="51.2532939" lon="6.8047739"/>
  <node id="716848027" version="1" timestamp="2010-05-02T10:15:00Z" uid="151899" user="Bikeman2000" changeset="4583087" lat="51.253304" lon="6.8048034"/>
  <node id="716848029" version="1" timestamp="2010-05-02T10:15:00Z" uid="151899" user="Bikeman2000" changeset="4583087" lat="51.2533048" lon="6.8048295"/>
  <node id="716849213" version="1" timestamp="2010-05-02T10:16:13Z" uid="55964" user="Evan Sebire" changeset="4583106" lat="46.5811319" lon="7.654973">
    <tag k="addr:city" v="Frutigen"/>
    <tag k="addr:country" v="CH"/>
    <tag k="addr:housenumber" v="14"/>
    <tag k="addr:postcode" v="3714"/>
    <tag k="addr:street" v="Guggigässli"/>
    <tag k="source" v="survey"/>
  </node>
  <node id="716849224" version="1" timestamp="2010-05-02T10:16:14Z" uid="55964" user="Evan Sebire" changeset="4583106" lat="46.5811235" lon="7.6542565">
    <tag k="addr:city" v="Frutigen"/>
    <tag k="addr:country" v="CH"/>
    <tag k="addr:housenumber" v="28"/>
    <tag k="addr:postcode" v="3714"/>
    <tag k="addr:street" v="Tellenfeldgässli"/>
    <tag k="source" v="survey"/>
  </node>
  <node id="716849232" version="1" timestamp="2010-05-02T10:16:14Z" uid="55964" user="Evan Sebire" changeset="4583106" lat="46.581225" lon="7.6541984">
    <tag k="addr:city" v="Frutigen"/>
    <tag k="addr:country" v="CH"/>
    <tag k="addr:housenumber" v="9"/>
    <tag k="addr:postcode" v="3714"/>
    <tag k="addr:street" v="Tellenfeldgässli"/>
    <tag k="source" v="survey"/>
  </node>
  <node id="716849239" version="1" timestamp="2010-05-02T10:16:15Z" uid="55964" user="Evan Sebire" changeset="4583106" lat="46.5811035" lon="7.6540802">
    <tag k="addr:city" v="Frutigen"/>
    <tag k="addr:country" v="CH"/>
    <tag k="addr:housenumber" v="26"/>
    <tag k="addr:postcode" v="3714"/>
    <tag k="addr:street" v="Tellenfeldgässli"/>
    <tag k="source" v="survey"/>
  </node>
  <node id="716849249" version="1" timestamp="2010-05-02T10:16:15Z" uid="55964" user="Evan Sebire" changeset="4583106" lat="46.5811449" lon="7.6538458">
    <tag k="addr:city" v="Frutigen"/>
    <tag k="addr:country" v="CH"/>
    <tag k="addr:housenumber" v="7"/>
    <tag k="addr:postcode" v="3714"/>
    <tag k="addr:street" v="Tellenfeldgässli"/>
    <tag k="source" v="survey"/>
  </node>
  <node id="716849257" version="1" timestamp="2010-05-02T10:16:16Z" uid="55964" user="Evan Sebire" changeset="4583106" lat="46.5810086" lon="7.6537295">
    <tag k="addr:city" v="Frutigen"/>
    <tag k="addr:country" v="CH"/>
    <tag k="addr:housenumber" v="24"/>
    <tag k="addr:postcode" v="3714"/>
    <tag k="addr:street" v="Tellenfeldgässli"/>
    <tag k="source" v="survey"/>
  </node>
  <node id="716849261" version="1" timestamp="2010-05-02T10:16:16Z" uid="55964" user="Evan Sebire" changeset="4583106" lat="46.5809591" lon="7.6535435">
    <tag k="addr:city" v="Frutigen"/>
    <tag k="addr:country" v="CH"/>
    <tag k="addr:housenumber" v="22"/>
    <tag k="addr:postcode" v="3714"/>
    <tag k="addr:street" v="Tellenfeldgässli"/>
    <tag k="source" v="survey"/>
  </node>
  <node id="716849274" version="1" timestamp="2010-05-02T10:16:17Z" uid="55964" user="Evan Sebire" changeset="4583106" lat="46.5808976" lon="7.6533157">
    <tag k="addr:city" v="Frutigen"/>
    <tag k="addr:country" v="CH"/>
    <tag k="addr:housenumber" v="20"/>
    <tag k="addr:postcode" v="3714"/>
    <tag k="addr:street" v="Tellenfeldgässli"/>
    <tag k="source" v="survey"/>
  </node>
  <node id="716849285" version="1" timestamp="2010-05-02T10:16:17Z" uid="55964" user="Evan Sebire" changeset="4583106" lat="46.5809624" lon="7.65321">
    <tag k="addr:city" v="Frutigen"/>
    <tag k="addr:country" v="CH"/>
    <tag k="addr:housenumber" v="5"/>
    <tag k="addr:postcode" v="3714"/>
    <tag k="addr:street" v="Tellenfeldgässli"/>
    <tag k="source" v="survey"/>
  </node>
  <node id="716849292" version="1" timestamp="2010-05-02T10:16:18Z" uid="55964" user="Evan Sebire" changeset="4583106" lat="46.5807357" lon="7.652754">
    <tag k="addr:city" v="Frutigen"/>
    <tag k="addr:country" v="CH"/>
    <tag k="addr:housenumber" v="16"/>
    <tag k="addr:postcode" v="3714"/>
    <tag k="addr:street" v="Tellenfeldgässli"/>
    <tag k="source" v="survey"/>
  </node>
  <node id="716849299" version="1" timestamp="2010-05-02T10:16:18Z" uid="55964" user="Evan Sebire" changeset="4583106" lat="46.5806732" lon="7.6525291">
    <tag k="addr:city" v="Frutigen"/>
    <tag k="addr:country" v="CH"/>
    <tag k="addr:housenumber" v="14"/>
    <tag k="addr:postcode" v="3714"/>
    <tag k="addr:street" v="Tellenfeldgässli"/>
    <tag k="source" v="survey"/>
  </node>
  <node id="716849313" version="1" timestamp="2010-05-02T10:16:19Z" uid="55964" user="Evan Sebire" changeset="4583106" lat="46.5807286" lon="7.6517131">
    <tag k="addr:city" v="Frutigen"/>
    <tag k="addr:country" v="CH"/>
    <tag k="addr:housenumber" v="1"/>
    <tag k="addr:postcode" v="3714"/>
    <tag k="addr:street" v="Tellenfeldstrasse"/>
    <tag k="source" v="survey"/>
  </node>
  <node id="716849316" version="1" timestamp="2010-05-02T10:16:20Z" uid="55964" user="Evan Sebire" changeset="4583106" lat="46.5805651" lon="7.6516334">
    <tag k="addr:city" v="Frutigen"/>
    <tag k="addr:country" v="CH"/>
    <tag k="addr:housenumber" v="6"/>
    <tag k="addr:postcode" v="3714"/>
    <tag k="addr:street" v="Tellenfeldstrasse"/>
    <tag k="source" v="survey"/>
  </node>
  <node id="716849330" version="1" timestamp="2010-05-02T10:16:21Z" uid="55964" user="Evan Sebire" changeset="4583106" lat="46.5805504" lon="7.6518299">
    <tag k="addr:city" v="Frutigen"/>
    <tag k="addr:country" v="CH"/>
    <tag k="addr:housenumber" v="1"/>
    <tag k="addr:postcode" v="3714"/>
    <tag k="addr:street" v="Tellenfeldgässli"/>
    <tag k="source" v="survey"/>
  </node>
  <node id="716849348" version="1" timestamp="2010-05-02T10:16:22Z" uid="55964" user="Evan Sebire" changeset="4583106" lat="46.5819727" lon="7.6550229">
    <tag k="addr:city" v="Frutigen"/>
    <tag k="addr:country" v="CH"/>
    <tag k="addr:housenumber" v="19"/>
    <tag k="addr:postcode" v="3714"/>
    <tag k="addr:street" v="Guggigässli"/>
    <tag k="source" v="survey"/>
  </node>
  <node id="716849369" version="1" timestamp="2010-05-02T10:16:22Z" uid="55964" user="Evan Sebire" changeset="4583106" lat="46.5817339" lon="7.6555088">
    <tag k="addr:city" v="Frutigen"/>
    <tag k="addr:country" v="CH"/>
    <tag k="addr:housenumber" v="20"/>
    <tag k="addr:postcode" v="3714"/>
    <tag k="addr:street" v="Guggigässli"/>
    <tag k="source" v="survey"/>
  </node>
  <node id="716849377" version="1" timestamp="2010-05-02T10:16:23Z" uid="55964" user="Evan Sebire" changeset="4583106" lat="46.5818212" lon="7.6554451">
    <tag k="addr:city" v="Frutigen"/>
    <tag k="addr:country" v="CH"/>
    <tag k="addr:housenumber" v="17"/>
    <tag k="addr:postcode" v="3714"/>
    <tag k="addr:street" v="Guggigässli"/>
    <tag k="source" v="survey"/>
  </node>
  <node id="716849386" version="1" timestamp="2010-05-02T10:16:23Z" uid="55964" user="Evan Sebire" changeset="4583106" lat="46.581357" lon="7.6551661">
    <tag k="addr:city" v="Frutigen"/>
    <tag k="addr:country" v="CH"/>
    <tag k="addr:housenumber" v="18"/>
    <tag k="addr:postcode" v="3714"/>
    <tag k="addr:street" v="Guggigässli"/>
    <tag k="source" v="survey"/>
  </node>
  <node id="716849390" version="1" timestamp="2010-05-02T10:16:24Z" uid="55964" user="Evan Sebire" changeset="4583106" lat="46.5822014" lon="7.6563638">
    <tag k="addr:city" v="Frutigen"/>
    <tag k="addr:country" v="CH"/>
    <tag k="addr:housenumber" v="22"/>
    <tag k="addr:postcode" v="3714"/>
    <tag k="addr:street" v="Guggigässli"/>
    <tag k="source" v="survey"/>
  </node>
  <node id="716849401" version="1" timestamp="2010-05-02T10:16:25Z" uid="55964" user="Evan Sebire" changeset="4583106" lat="46.5824675" lon="7.6568091">
    <tag k="addr:city" v="Frutigen"/>
    <tag k="addr:country" v="CH"/>
    <tag k="addr:housenumber" v="24"/>
    <tag k="addr:postcode" v="3714"/>
    <tag k="addr:street" v="Guggigässli"/>
    <tag k="source" v="survey"/>
  </node>
  <node id="716849409" version="1" timestamp="2010-05-02T10:16:25Z" uid="55964" user="Evan Sebire" changeset="4583106" lat="46.5820232" lon="7.6557408">
    <tag k="addr:city" v="Frutigen"/>
    <tag k="addr:country" v="CH"/>
    <tag k="addr:housenumber" v="21"/>
    <tag k="addr:postcode" v="3714"/>
    <tag k="addr:street" v="Guggigässli"/>
    <tag k="source" v="survey"/>
  </node>
  <node id="716849419" version="1" timestamp="2010-05-02T10:16:26Z" uid="55964" user="Evan Sebire" changeset="4583106" lat="46.5832837" lon="7.6552704">
    <tag k="addr:city" v="Frutigen"/>
    <tag k="addr:country" v="CH"/>
    <tag k="addr:housenumber" v="3"/>
    <tag k="addr:postcode" v="3714"/>
    <tag k="addr:street" v="Isliweg"/>
    <tag k="source" v="survey"/>
  </node>
  <node id="716849440" version="1" timestamp="2010-05-02T10:16:26Z" uid="55964" user="Evan Sebire" changeset="4583106" lat="46.5832127" lon="7.6555435">
    <tag k="addr:city" v="Frutigen"/>
    <tag k="addr:country" v="CH"/>
    <tag k="addr:housenumber" v="5"/>
    <tag k="addr:postcode" v="3714"/>
    <tag k="addr:street" v="Isliweg"/>
    <tag k="source" v="survey"/>
  </node>
  <node id="716849486" version="1" timestamp="2010-05-02T10:16:28Z" uid="55964" user="Evan Sebire" changeset="4583106" lat="46.5830139" lon="7.6563">
    <tag k="addr:city" v="Frutigen"/>
    <tag k="addr:country" v="CH"/>
    <tag k="addr:housenumber" v="11"/>
    <tag k="addr:postcode" v="3714"/>
    <tag k="addr:street" v="Isliweg"/>
    <tag k="source" v="survey"/>
  </node>
  <node id="716849491" version="1" timestamp="2010-05-02T10:16:29Z" uid="55964" user="Evan Sebire" changeset="4583106" lat="46.582743" lon="7.6566755">
    <tag k="amenity" v="recycling"/>
  </node>
  <node id="716849511" version="1" timestamp="2010-05-02T10:16:30Z" uid="55964" user="Evan Sebire" changeset="4583106" lat="46.58437" lon="7.6501662">
    <tag k="addr:city" v="Frutigen"/>
    <tag k="addr:country" v="CH"/>
    <tag k="addr:housenumber" v="49"/>
    <tag k="addr:postcode" v="3714"/>
    <tag k="addr:street" v="Kanderstegstrasse"/>
    <tag k="amenity" v="place_of_worship"/>
    <tag k="name" v="Heilsarmee"/>
    <tag k="source" v="survey"/>
  </node>
  <node id="716849511" version="2" timestamp="2010-05-18T19:19:30Z" uid="55964" user="Evan Sebire" changeset="4741899" lat="46.58437" lon="7.6501662">
    <tag k="addr:city" v="Frutigen"/>
    <tag k="addr:country" v="CH"/>
    <tag k="addr:housenumber" v="49"/>
    <tag k="addr:postcode" v="3714"/>
    <tag k="addr:street" v="Kanderstegstrasse"/>
    <tag k="amenity" v="place_of_worship"/>
    <tag k="denomination" v="salvation_army"/>
    <tag k="name" v="Heilsarmee"/>
    <tag k="phone" v="+41 33 671 1261"/>
    <tag k="religion" v="christian"/>
    <tag k="source" v="survey"/>
    <tag k="url" v="http://www.heilsarmee.ch"/>
  </node>
  <node id="716849516" version="1" timestamp="2010-05-02T10:16:31Z" uid="55964" user="Evan Sebire" changeset="4583106" lat="46.5842656" lon="7.6497566">
    <tag k="addr:city" v="Frutigen"/>
    <tag k="addr:country" v="CH"/>
    <tag k="addr:housenumber" v="46"/>
    <tag k="addr:postcode" v="3714"/>
    <tag k="addr:street" v="Kanderstegstrasse"/>
    <tag k="name" v="Hilfiker"/>
    <tag k="shop" v="hifi"/>
    <tag k="source" v="survey"/>
  </node>
  <node id="716849519" version="1" timestamp="2010-05-02T10:16:31Z" uid="55964" user="Evan Sebire" changeset="4583106" lat="46.5845458" lon="7.6494595">
    <tag k="addr:city" v="Frutigen"/>
    <tag k="addr:country" v="CH"/>
    <tag k="addr:housenumber" v="45"/>
    <tag k="addr:postcode" v="3714"/>
    <tag k="addr:street" v="Kanderstegstrasse"/>
    <tag k="source" v="survey"/>
  </node>
  <node id="716849523" version="1" timestamp="2010-05-02T10:16:31Z" uid="55964" user="Evan Sebire" changeset="4583106" lat="46.584523" lon="7.6492087">
    <tag k="amenity" v="restaurant"/>
    <tag k="name" v="Tea Room Pony"/>
  </node>
  <node id="716849527" version="1" timestamp="2010-05-02T10:16:32Z" uid="55964" user="Evan Sebire" changeset="4583106" lat="46.5847288" lon="7.6492724">
    <tag k="addr:city" v="Frutigen"/>
    <tag k="addr:country" v="CH"/>
    <tag k="addr:housenumber" v="41"/>
    <tag k="addr:postcode" v="3714"/>
    <tag k="addr:street" v="Kanderstegstrasse"/>
    <tag k="source" v="survey"/>
  </node>
  <node id="716849532" version="1" timestamp="2010-05-02T10:16:32Z" uid="55964" user="Evan Sebire" changeset="4583106" lat="46.584751" lon="7.6489824">
    <tag k="addr:city" v="Frutigen"/>
    <tag k="addr:country" v="CH"/>
    <tag k="addr:housenumber" v="40"/>
    <tag k="addr:postcode" v="3714"/>
    <tag k="addr:street" v="Kanderstegstrasse"/>
    <tag k="source" v="survey"/>
  </node>
  <node id="716849536" version="1" timestamp="2010-05-02T10:16:32Z" uid="55964" user="Evan Sebire" changeset="4583106" lat="46.5851075" lon="7.6488171">
    <tag k="addr:city" v="Frutigen"/>
    <tag k="addr:country" v="CH"/>
    <tag k="addr:housenumber" v="37"/>
    <tag k="addr:postcode" v="3714"/>
    <tag k="addr:street" v="Kanderstegstrasse"/>
    <tag k="source" v="survey"/>
  </node>
  <node id="716849541" version="1" timestamp="2010-05-02T10:16:32Z" uid="55964" user="Evan Sebire" changeset="4583106" lat="46.585083" lon="7.6485711">
    <tag k="addr:city" v="Frutigen"/>
    <tag k="addr:country" v="CH"/>
    <tag k="addr:housenumber" v="36"/>
    <tag k="addr:postcode" v="3714"/>
    <tag k="addr:street" v="Kanderstegstrasse"/>
    <tag k="name" v="Schnidrig Informatik"/>
    <tag k="shop" v="computer"/>
    <tag k="source" v="survey"/>
  </node>
  <node id="716849546" version="1" timestamp="2010-05-02T10:16:33Z" uid="55964" user="Evan Sebire" changeset="4583106" lat="46.5851438" lon="7.6485072">
    <tag k="addr:city" v="Frutigen"/>
    <tag k="addr:country" v="CH"/>
    <tag k="addr:housenumber" v="34"/>
    <tag k="addr:postcode" v="3714"/>
    <tag k="addr:street" v="Kanderstegstrasse"/>
    <tag k="source" v="survey"/>
  </node>
  <node id="716849551" version="1" timestamp="2010-05-02T10:16:33Z" uid="55964" user="Evan Sebire" changeset="4583106" lat="46.5852731" lon="7.6486804">
    <tag k="addr:city" v="Frutigen"/>
    <tag k="addr:country" v="CH"/>
    <tag k="addr:housenumber" v="35"/>
    <tag k="addr:postcode" v="3714"/>
    <tag k="addr:street" v="Kanderstegstrasse"/>
    <tag k="source" v="survey"/>
  </node>
  <node id="716849558" version="1" timestamp="2010-05-02T10:16:33Z" uid="55964" user="Evan Sebire" changeset="4583106" lat="46.5852731" lon="7.6483508">
    <tag k="addr:city" v="Frutigen"/>
    <tag k="addr:country" v="CH"/>
    <tag k="addr:housenumber" v="32"/>
    <tag k="addr:postcode" v="3714"/>
    <tag k="addr:street" v="Kanderstegstrasse"/>
    <tag k="source" v="survey"/>
  </node>
  <node id="716849563" version="1" timestamp="2010-05-02T10:16:34Z" uid="55964" user="Evan Sebire" changeset="4583106" lat="46.585411" lon="7.6481765">
    <tag k="addr:city" v="Frutigen"/>
    <tag k="addr:country" v="CH"/>
    <tag k="addr:housenumber" v="30"/>
    <tag k="addr:postcode" v="3714"/>
    <tag k="addr:street" v="Kanderstegstrasse"/>
    <tag k="shop" v="florist"/>
    <tag k="source" v="survey"/>
  </node>
  <node id="716849566" version="1" timestamp="2010-05-02T10:16:34Z" uid="55964" user="Evan Sebire" changeset="4583106" lat="46.585819" lon="7.6479728">
    <tag k="addr:city" v="Frutigen"/>
    <tag k="addr:country" v="CH"/>
    <tag k="addr:housenumber" v="29"/>
    <tag k="addr:postcode" v="3714"/>
    <tag k="addr:street" v="Kanderstegstrasse"/>
    <tag k="name" v="Wandfluh"/>
    <tag k="shop" v="hardware"/>
    <tag k="source" v="survey"/>
  </node>
  <node id="716849567" version="1" timestamp="2010-05-02T10:16:35Z" uid="55964" user="Evan Sebire" changeset="4583106" lat="46.5856997" lon="7.6479929">
    <tag k="highway" v="crossing"/>
  </node>
</osm>
