<?xml version='1.0' encoding='UTF-8'?>
<osm version="0.6" generator="libosmium/2.20.0">
  <node id="728371597" version="2" timestamp="2010-07-24T05:55:32Z" uid="33382" user="de_muur" changeset="5300957" lat="53.4676253" lon="10.2870713"/>
  <node id="728371598" version="2" timestamp="2010-07-24T05:55:33Z" uid="33382" user="de_muur" changeset="5300957" lat="53.4678935" lon="10.2870284"/>
  <node id="728371600" version="2" timestamp="2010-07-24T05:55:33Z" uid="33382" user="de_muur" changeset="5300957" lat="53.4686216" lon="10.287243"/>
  <node id="728373442" version="1" timestamp="2010-05-10T12:09:47Z" uid="55964" user="Evan Sebire" changeset="4658612" lat="46.630005" lon="7.711843"/>
  <node id="728373443" version="1" timestamp="2010-05-10T12:09:47Z" uid="55964" user="Evan Sebire" changeset="4658612" lat="46.630178" lon="7.711547"/>
  <node id="728373444" version="1" timestamp="2010-05-10T12:09:48Z" uid="55964" user="Evan Sebire" changeset="4658612" lat="46.630263" lon="7.711451"/>
  <node id="728373445" version="1" timestamp="2010-05-10T12:09:49Z" uid="55964" user="Evan Sebire" changeset="4658612" lat="46.630463" lon="7.7110423"/>
  <node id="728373446" version="1" timestamp="2010-05-10T12:09:49Z" uid="55964" user="Evan Sebire" changeset="4658612" lat="46.6305137" lon="7.7110423"/>
  <node id="728373447" version="1" timestamp="2010-05-10T12:09:50Z" uid="55964" user="Evan Sebire" changeset="4658612" lat="46.6306309" lon="7.7107452"/>
  <node id="728373448" version="1" timestamp="2010-05-10T12:09:51Z" uid="55964" user="Evan Sebire" changeset="4658612" lat="46.6305137" lon="7.7111039">
    <tag k="addr:city" v="Faltschen"/>
    <tag k="addr:country" v="CH"/>
    <tag k="addr:housenumber" v="3"/>
    <tag k="addr:postcode" v="3713"/>
    <tag k="addr:street" v="Kreuzgasse"/>
    <tag k="source" v="survey"/>
  </node>
  <node id="728373449" version="1" timestamp="2010-05-10T12:09:52Z" uid="55964" user="Evan Sebire" changeset="4658612" lat="46.630698" lon="7.7105857"/>
  <node id="728373450" version="1" timestamp="2010-05-10T12:09:53Z" uid="55964" user="Evan Sebire" changeset="4658612" lat="46.630786" lon="7.7105204"/>
  <node id="728373453" version="1" timestamp="2010-05-10T12:09:53Z" uid="55964" user="Evan Sebire" changeset="4658612" lat="46.6308112" lon="7.7104878">
    <tag k="addr:city" v="Faltschen"/>
    <tag k="addr:country" v="CH"/>
    <tag k="addr:housenumber" v="4"/>
    <tag k="addr:postcode" v="3713"/>
    <tag k="addr:street" v="Kreuzgasse"/>
    <tag k="source" v="survey"/>
  </node>
  <node id="728373454" version="1" timestamp="2010-05-10T12:09:54Z" uid="55964" user="Evan Sebire" changeset="4658612" lat="46.630857" lon="7.709923"/>
  <node id="728373455" version="1" timestamp="2010-05-10T12:09:54Z" uid="55964" user="Evan Sebire" changeset="4658612" lat="46.63087" lon="7.709739"/>
  <node id="728373456" version="1" timestamp="2010-05-10T12:09:55Z" uid="55964" user="Evan Sebire" changeset="4658612" lat="46.630843" lon="7.709248"/>
  <node id="728373459" version="1" timestamp="2010-05-10T12:09:55Z" uid="55964" user="Evan Sebire" changeset="4658612" lat="46.630862" lon="7.708818"/>
  <node id="728373463" version="1" timestamp="2010-05-10T12:09:57Z" uid="55964" user="Evan Sebire" changeset="4658612" lat="46.6308121" lon="7.7092529">
    <tag k="amenity" v="bench"/>
    <tag k="source" v="survey"/>
  </node>
  <node id="728373479" version="1" timestamp="2010-05-10T12:09:59Z" uid="55964" user="Evan Sebire" changeset="4658612" lat="46.6313884" lon="7.7083189">
    <tag k="addr:city" v="Faltschen"/>
    <tag k="addr:country" v="CH"/>
    <tag k="addr:housenumber" v="83"/>
    <tag k="addr:postcode" v="3713"/>
    <tag k="addr:street" v="Faltschenstrasse"/>
    <tag k="source" v="survey"/>
  </node>
  <node id="728373480" version="1" timestamp="2010-05-10T12:10:00Z" uid="55964" user="Evan Sebire" changeset="4658612" lat="46.6315746" lon="7.7072423">
    <tag k="addr:city" v="Faltschen"/>
    <tag k="addr:country" v="CH"/>
    <tag k="addr:housenumber" v="75"/>
    <tag k="addr:postcode" v="3713"/>
    <tag k="addr:street" v="Faltschenstrasse"/>
    <tag k="source" v="survey"/>
  </node>
  <node id="728373487" version="1" timestamp="2010-05-10T12:10:01Z" uid="55964" user="Evan Sebire" changeset="4658612" lat="46.6310988" lon="7.7070977">
    <tag k="addr:city" v="Faltschen"/>
    <tag k="addr:country" v="CH"/>
    <tag k="addr:housenumber" v="74"/>
    <tag k="addr:postcode" v="3713"/>
    <tag k="addr:street" v="Faltschenstrasse"/>
    <tag k="source" v="survey"/>
  </node>
  <node id="728373492" version="1" timestamp="2010-05-10T12:10:02Z" uid="55964" user="Evan Sebire" changeset="4658612" lat="46.6306141" lon="7.7071106">
    <tag k="addr:city" v="Faltschen"/>
    <tag k="addr:country" v="CH"/>
    <tag k="addr:housenumber" v="72"/>
    <tag k="addr:postcode" v="3713"/>
    <tag k="addr:street" v="Faltschenstrasse"/>
    <tag k="source" v="survey"/>
  </node>
  <node id="728373508" version="1" timestamp="2010-05-10T12:10:03Z" uid="55964" user="Evan Sebire" changeset="4658612" lat="46.6305772" lon="7.706854">
    <tag k="addr:city" v="Faltschen"/>
    <tag k="addr:country" v="CH"/>
    <tag k="addr:housenumber" v="69"/>
    <tag k="addr:postcode" v="3713"/>
    <tag k="addr:street" v="Faltschenstrasse"/>
    <tag k="source" v="survey"/>
  </node>
  <node id="728373513" version="1" timestamp="2010-05-10T12:10:05Z" uid="55964" user="Evan Sebire" changeset="4658612" lat="46.6303508" lon="7.7069869">
    <tag k="addr:city" v="Faltschen"/>
    <tag k="addr:country" v="CH"/>
    <tag k="addr:housenumber" v="70"/>
    <tag k="addr:postcode" v="3713"/>
    <tag k="addr:street" v="Faltschenstrasse"/>
    <tag k="source" v="survey"/>
  </node>
  <node id="728373517" version="1" timestamp="2010-05-10T12:10:06Z" uid="55964" user="Evan Sebire" changeset="4658612" lat="46.6303295" lon="7.7057357">
    <tag k="addr:city" v="Faltschen"/>
    <tag k="addr:country" v="CH"/>
    <tag k="addr:housenumber" v="65"/>
    <tag k="addr:postcode" v="3713"/>
    <tag k="addr:street" v="Faltschenstrasse"/>
    <tag k="source" v="survey"/>
  </node>
  <node id="728374293" version="1" timestamp="2010-05-10T12:15:32Z" uid="55964" user="Evan Sebire" changeset="4658663" lat="46.6283261" lon="7.7038107">
    <tag k="amenity" v="bench"/>
    <tag k="source" v="survey"/>
  </node>
  <node id="728374294" version="1" timestamp="2010-05-10T12:15:32Z" uid="55964" user="Evan Sebire" changeset="4658663" lat="46.6283393" lon="7.703866">
    <tag k="amenity" v="bench"/>
    <tag k="source" v="survey"/>
  </node>
  <node id="728374308" version="1" timestamp="2010-05-10T12:15:37Z" uid="55964" user="Evan Sebire" changeset="4658663" lat="46.626528" lon="7.697538"/>
  <node id="728374309" version="1" timestamp="2010-05-10T12:15:37Z" uid="55964" user="Evan Sebire" changeset="4658663" lat="46.626434" lon="7.6972651"/>
  <node id="728374310" version="1" timestamp="2010-05-10T12:15:37Z" uid="55964" user="Evan Sebire" changeset="4658663" lat="46.626209" lon="7.69692"/>
  <node id="728378755" version="2" timestamp="2010-07-28T20:10:35Z" uid="74617" user="JohnSmith" changeset="5339329" lat="60.1748794" lon="24.9285546">
    <tag k="diameter" v="125"/>
    <tag k="emergency" v="fire_hydrant"/>
    <tag k="location" v="underground"/>
  </node>
  <node id="728378755" version="3" timestamp="2010-07-30T17:46:15Z" uid="74617" user="JohnSmith" changeset="5356742" lat="60.1748794" lon="24.9285546">
    <tag k="amenity" v="fire_hydrant"/>
    <tag k="diameter" v="125"/>
    <tag k="emergency" v="fire_hydrant"/>
    <tag k="location" v="underground"/>
  </node>
</osm>
