<?xml version='1.0' encoding='UTF-8'?>
<osm version="0.6" generator="libosmium/2.20.0">
  <node id="728411602" version="1" timestamp="2010-05-10T12:41:05Z" uid="4467" user="Rosscoe" changeset="4658853" lat="-37.6678762" lon="145.0085706"/>
  <node id="728411617" version="1" timestamp="2010-05-10T12:41:06Z" uid="4467" user="Rosscoe" changeset="4658853" lat="-37.6678704" lon="145.008474"/>
  <node id="728411638" version="1" timestamp="2010-05-10T12:41:06Z" uid="4467" user="Rosscoe" changeset="4658853" lat="-37.6679359" lon="145.0085535"/>
  <node id="728411659" version="1" timestamp="2010-05-10T12:41:07Z" uid="4467" user="Rosscoe" changeset="4658853" lat="-37.6678122" lon="145.0075193"/>
  <node id="728411683" version="1" timestamp="2010-05-10T12:41:08Z" uid="4467" user="Rosscoe" changeset="4658853" lat="-37.6678544" lon="145.0085335"/>
  <node id="728411712" version="1" timestamp="2010-05-10T12:41:09Z" uid="4467" user="Rosscoe" changeset="4658853" lat="-37.6678993" lon="145.00859"/>
  <node id="728411732" version="1" timestamp="2010-05-10T12:41:10Z" uid="4467" user="Rosscoe" changeset="4658853" lat="-37.6664018" lon="145.0106389"/>
  <node id="728411762" version="1" timestamp="2010-05-10T12:41:10Z" uid="4467" user="Rosscoe" changeset="4658853" lat="-37.6665095" lon="145.0106656"/>
  <node id="728411787" version="1" timestamp="2010-05-10T12:41:11Z" uid="4467" user="Rosscoe" changeset="4658853" lat="-37.6663558" lon="145.0079553">
    <tag k="traffic_calming" v="hump"/>
  </node>
  <node id="728411800" version="1" timestamp="2010-05-10T12:41:12Z" uid="4467" user="Rosscoe" changeset="4658853" lat="-37.6680036" lon="145.0096008">
    <tag k="source" v="nearmap"/>
    <tag k="traffic_calming" v="table"/>
  </node>
  <node id="728411930" version="1" timestamp="2010-05-10T12:41:17Z" uid="4467" user="Rosscoe" changeset="4658853" lat="-37.6678517" lon="145.0085017"/>
  <node id="728412025" version="1" timestamp="2010-05-10T12:41:18Z" uid="4467" user="Rosscoe" changeset="4658853" lat="-37.6680017" lon="145.010511"/>
  <node id="728412052" version="1" timestamp="2010-05-10T12:41:21Z" uid="4467" user="Rosscoe" changeset="4658853" lat="-37.6664446" lon="145.0106154"/>
  <node id="728412072" version="1" timestamp="2010-05-10T12:41:22Z" uid="4467" user="Rosscoe" changeset="4658853" lat="-37.6664965" lon="145.0107142"/>
  <node id="728412081" version="1" timestamp="2010-05-10T12:41:23Z" uid="4467" user="Rosscoe" changeset="4658853" lat="-37.6663903" lon="145.0106865"/>
  <node id="728412101" version="1" timestamp="2010-05-10T12:41:23Z" uid="4467" user="Rosscoe" changeset="4658853" lat="-37.6665683" lon="145.0107431"/>
  <node id="728412123" version="1" timestamp="2010-05-10T12:41:24Z" uid="4467" user="Rosscoe" changeset="4658853" lat="-37.6678217" lon="145.0076413">
    <tag k="source" v="nearmap"/>
    <tag k="traffic_calming" v="hump"/>
  </node>
  <node id="728412175" version="1" timestamp="2010-05-10T12:41:25Z" uid="4467" user="Rosscoe" changeset="4658853" lat="-37.6679247" lon="145.0085792"/>
  <node id="728412230" version="1" timestamp="2010-05-10T12:41:26Z" uid="4467" user="Rosscoe" changeset="4658853" lat="-37.6678945" lon="145.0084738"/>
  <node id="728412287" version="1" timestamp="2010-05-10T12:41:27Z" uid="4467" user="Rosscoe" changeset="4658853" lat="-37.6664819" lon="145.0106244"/>
  <node id="728412344" version="1" timestamp="2010-05-10T12:41:27Z" uid="4467" user="Rosscoe" changeset="4658853" lat="-37.6664567" lon="145.0107358"/>
  <node id="728412389" version="1" timestamp="2010-05-10T12:41:28Z" uid="4467" user="Rosscoe" changeset="4658853" lat="-37.6678026" lon="145.0074188"/>
  <node id="728412446" version="1" timestamp="2010-05-10T12:41:29Z" uid="4467" user="Rosscoe" changeset="4658853" lat="-37.6679279" lon="145.0085083"/>
  <node id="728412500" version="1" timestamp="2010-05-10T12:41:30Z" uid="4467" user="Rosscoe" changeset="4658853" lat="-37.6664132" lon="145.0107239"/>
  <node id="728415719" version="1" timestamp="2010-05-10T12:43:24Z" uid="55964" user="Evan Sebire" changeset="4658876" lat="46.6259473" lon="7.6954204"/>
  <node id="728415720" version="1" timestamp="2010-05-10T12:43:24Z" uid="55964" user="Evan Sebire" changeset="4658876" lat="46.6258882" lon="7.6954094"/>
  <node id="728415739" version="1" timestamp="2010-05-10T12:43:26Z" uid="55964" user="Evan Sebire" changeset="4658876" lat="46.6257983" lon="7.6924464"/>
  <node id="728415747" version="1" timestamp="2010-05-10T12:43:26Z" uid="55964" user="Evan Sebire" changeset="4658876" lat="46.6255784" lon="7.6923606"/>
  <node id="728415762" version="1" timestamp="2010-05-10T12:43:26Z" uid="55964" user="Evan Sebire" changeset="4658876" lat="46.6257745" lon="7.692441"/>
  <node id="728415772" version="1" timestamp="2010-05-10T12:43:27Z" uid="55964" user="Evan Sebire" changeset="4658876" lat="46.6256504" lon="7.6926644">
    <tag k="addr:city" v="Reichenbach"/>
    <tag k="addr:country" v="CH"/>
    <tag k="addr:housenumber" v="25"/>
    <tag k="addr:postcode" v="3713"/>
    <tag k="addr:street" v="Bahnhofstrasse"/>
    <tag k="amenity" v="bank"/>
    <tag k="name" v="Spar + Leihkasse Frutigen"/>
    <tag k="source" v="survey"/>
  </node>
  <node id="728415780" version="1" timestamp="2010-05-10T12:43:27Z" uid="55964" user="Evan Sebire" changeset="4658876" lat="46.6256815" lon="7.6920038">
    <tag k="addr:city" v="Reichenbach"/>
    <tag k="addr:country" v="CH"/>
    <tag k="addr:housenumber" v="21"/>
    <tag k="addr:postcode" v="3713"/>
    <tag k="addr:street" v="Bahnhofstrasse"/>
    <tag k="amenity" v="bank"/>
    <tag k="name" v="Reiffeisen"/>
    <tag k="source" v="survey"/>
  </node>
  <node id="728415799" version="1" timestamp="2010-05-10T12:43:28Z" uid="55964" user="Evan Sebire" changeset="4658876" lat="46.6255132" lon="7.6921494">
    <tag k="addr:city" v="Reichenbach"/>
    <tag k="addr:country" v="CH"/>
    <tag k="addr:housenumber" v="22"/>
    <tag k="addr:postcode" v="3713"/>
    <tag k="addr:street" v="Bahnhofstrasse"/>
    <tag k="amenity" v="pharmacy"/>
    <tag k="name" v="Drogerie von Kaenel"/>
    <tag k="source" v="survey"/>
  </node>
  <node id="728415815" version="1" timestamp="2010-05-10T12:43:28Z" uid="55964" user="Evan Sebire" changeset="4658876" lat="46.6255246" lon="7.6919049">
    <tag k="addr:city" v="Reichenbach"/>
    <tag k="addr:country" v="CH"/>
    <tag k="addr:housenumber" v="20"/>
    <tag k="addr:postcode" v="3713"/>
    <tag k="addr:street" v="Bahnhofstrasse"/>
    <tag k="source" v="survey"/>
  </node>
  <node id="728415822" version="1" timestamp="2010-05-10T12:43:29Z" uid="55964" user="Evan Sebire" changeset="4658876" lat="46.6256793" lon="7.6920308">
    <tag k="addr:city" v="Reichenbach"/>
    <tag k="addr:country" v="CH"/>
    <tag k="addr:housenumber" v="21"/>
    <tag k="addr:postcode" v="3713"/>
    <tag k="addr:street" v="Bahnhofstrasse"/>
    <tag k="amenity" v="atm"/>
    <tag k="operator" v="Reiffeisen"/>
    <tag k="source" v="survey"/>
  </node>
  <node id="728415832" version="1" timestamp="2010-05-10T12:43:30Z" uid="55964" user="Evan Sebire" changeset="4658876" lat="46.6257104" lon="7.6915085">
    <tag k="addr:city" v="Reichenbach"/>
    <tag k="addr:country" v="CH"/>
    <tag k="addr:housenumber" v="9"/>
    <tag k="addr:postcode" v="3713"/>
    <tag k="addr:street" v="Bahnhofstrasse"/>
    <tag k="source" v="survey"/>
  </node>
  <node id="728415833" version="1" timestamp="2010-05-10T12:43:30Z" uid="55964" user="Evan Sebire" changeset="4658876" lat="46.6255608" lon="7.6910012">
    <tag k="addr:city" v="Reichenbach"/>
    <tag k="addr:country" v="CH"/>
    <tag k="addr:postcode" v="3713"/>
    <tag k="addr:street" v="Bahnhofstrasse"/>
    <tag k="amenity" v="post_office"/>
    <tag k="source" v="survey"/>
  </node>
  <node id="728415847" version="1" timestamp="2010-05-10T12:43:31Z" uid="55964" user="Evan Sebire" changeset="4658876" lat="46.6257356" lon="7.690942">
    <tag k="addr:city" v="Reichenbach"/>
    <tag k="addr:country" v="CH"/>
    <tag k="addr:housenumber" v="5"/>
    <tag k="addr:postcode" v="3713"/>
    <tag k="addr:street" v="Bahnhofstrasse"/>
    <tag k="amenity" v="bar"/>
    <tag k="name" v="Finel Bar"/>
    <tag k="source" v="survey"/>
  </node>
  <node id="728415857" version="1" timestamp="2010-05-10T12:43:31Z" uid="55964" user="Evan Sebire" changeset="4658876" lat="46.6255802" lon="7.6907899">
    <tag k="addr:city" v="Reichenbach"/>
    <tag k="addr:country" v="CH"/>
    <tag k="addr:housenumber" v="6"/>
    <tag k="addr:postcode" v="3713"/>
    <tag k="addr:street" v="Bahnhofstrasse"/>
    <tag k="source" v="survey"/>
  </node>
  <node id="728415871" version="1" timestamp="2010-05-10T12:43:32Z" uid="55964" user="Evan Sebire" changeset="4658876" lat="46.6258447" lon="7.6947491"/>
  <node id="728415890" version="1" timestamp="2010-05-10T12:43:32Z" uid="55964" user="Evan Sebire" changeset="4658876" lat="46.6257276" lon="7.6947248">
    <tag k="addr:city" v="Reichenbach"/>
    <tag k="addr:country" v="CH"/>
    <tag k="addr:housenumber" v="3"/>
    <tag k="addr:postcode" v="3713"/>
    <tag k="source" v="survey"/>
  </node>
  <node id="728415895" version="1" timestamp="2010-05-10T12:43:32Z" uid="55964" user="Evan Sebire" changeset="4658876" lat="46.6258168" lon="7.6953184">
    <tag k="addr:city" v="Reichenbach"/>
    <tag k="addr:country" v="CH"/>
    <tag k="addr:housenumber" v="4"/>
    <tag k="addr:postcode" v="3713"/>
    <tag k="source" v="survey"/>
  </node>
  <node id="728415902" version="1" timestamp="2010-05-10T12:43:33Z" uid="55964" user="Evan Sebire" changeset="4658876" lat="46.6260652" lon="7.6924268"/>
  <node id="728415907" version="1" timestamp="2010-05-10T12:43:33Z" uid="55964" user="Evan Sebire" changeset="4658876" lat="46.625988" lon="7.6924245"/>
  <node id="728415936" version="1" timestamp="2010-05-10T12:43:34Z" uid="55964" user="Evan Sebire" changeset="4658876" lat="46.625077" lon="7.690475">
    <tag k="name" v="coop"/>
    <tag k="shop" v="supermarket"/>
  </node>
  <node id="728415942" version="1" timestamp="2010-05-10T12:43:34Z" uid="55964" user="Evan Sebire" changeset="4658876" lat="46.6264733" lon="7.6904923"/>
  <node id="728415943" version="1" timestamp="2010-05-10T12:43:35Z" uid="55964" user="Evan Sebire" changeset="4658876" lat="46.6263662" lon="7.6904571"/>
  <node id="728415994" version="1" timestamp="2010-05-10T12:43:37Z" uid="55964" user="Evan Sebire" changeset="4658876" lat="46.6265176" lon="7.6902148"/>
  <node id="728416003" version="1" timestamp="2010-05-10T12:43:38Z" uid="55964" user="Evan Sebire" changeset="4658876" lat="46.6264392" lon="7.6901906"/>
  <node id="728416065" version="1" timestamp="2010-05-10T12:43:39Z" uid="55964" user="Evan Sebire" changeset="4658876" lat="46.6265415" lon="7.6900122"/>
  <node id="728416075" version="1" timestamp="2010-05-10T12:43:39Z" uid="55964" user="Evan Sebire" changeset="4658876" lat="46.6264821" lon="7.6899803"/>
</osm>
