<?xml version='1.0' encoding='UTF-8'?>
<osm version="0.6" generator="libosmium/2.20.0">
  <node id="72959652" version="20" timestamp="2009-07-25T15:08:21Z" uid="123700" user="Mala" changeset="1935220" lat="41.8933821" lon="12.4829173">
    <tag k="capital" v="yes"/>
    <tag k="gfoss_id" v="5002"/>
    <tag k="is_in" v="Roma,Lazio,Italy,Europe"/>
    <tag k="is_in:continent" v="Europe"/>
    <tag k="name" v="Roma"/>
    <tag k="name:cs" v="Řím"/>
    <tag k="name:de" v="Rom"/>
    <tag k="name:en" v="Rome"/>
    <tag k="name:eu" v="Erroma"/>
    <tag k="name:fi" v="Rooma"/>
    <tag k="name:fr" v="Rome"/>
    <tag k="name:he" v="רומה"/>
    <tag k="name:hu" v="Róma"/>
    <tag k="name:lb" v="Roum"/>
    <tag k="name:lv" v="Roma"/>
    <tag k="name:pl" v="Rzym"/>
    <tag k="name:sl" v="Rim"/>
    <tag k="name:zh" v="罗马"/>
    <tag k="name:zh_py" v="Luoma"/>
    <tag k="name:zh_pyt" v="Luómǎ"/>
    <tag k="place" v="city"/>
    <tag k="population" v="2546804"/>
    <tag k="source" v="geodati.gfoss.it"/>
    <tag k="wikipedia" v="Rome"/>
  </node>
  <node id="72959715" version="4" timestamp="2009-07-25T22:01:25Z" uid="123700" user="Mala" changeset="1939174" lat="42.4164973" lon="12.1039439">
    <tag k="gfoss_id" v="4837"/>
    <tag k="is_in" v="Viterbo, Lazio, Italy"/>
    <tag k="is_in:continent" v="Europe"/>
    <tag k="name" v="Viterbo"/>
    <tag k="name:fr" v="Viterbe"/>
    <tag k="place" v="city"/>
    <tag k="population" v="59308"/>
    <tag k="source" v="geodati.gfoss.it"/>
    <tag k="wikipedia" v="Viterbo"/>
  </node>
</osm>
