<?xml version='1.0' encoding='UTF-8'?>
<osm version="0.6" generator="libosmium/2.20.0">
  <node id="732711215" version="1" timestamp="2010-05-13T18:58:26Z" uid="6269" user="Mueck" changeset="4688891" lat="48.9955129" lon="8.4177369"/>
  <node id="732711215" version="2" timestamp="2010-05-13T18:58:35Z" uid="6269" user="Mueck" changeset="4688891" lat="48.9955129" lon="8.4177369">
    <tag k="railway" v="buffer_stop"/>
  </node>
  <node id="732711215" version="3" timestamp="2011-03-03T15:12:05Z" uid="6269" user="Mueck" changeset="7445023" lat="48.9955209" lon="8.4177728">
    <tag k="railway" v="buffer_stop"/>
  </node>
  <node id="732711978" version="4" timestamp="2011-03-27T16:16:34Z" uid="9581" user="Lobelt" changeset="7687858" lat="49.5934645" lon="8.4822156">
    <tag k="addr:city" v="Lampertheim"/>
    <tag k="addr:country" v="DE"/>
    <tag k="addr:postcode" v="68623"/>
    <tag k="amenity" v="fuel"/>
    <tag k="fuel:cng" v="no"/>
    <tag k="fuel:lpg" v="yes"/>
    <tag k="name" v="Autohaus Klein"/>
    <tag k="source" v="http://www.gas-tankstellen.de"/>
  </node>
  <node id="732712215" version="3" timestamp="2010-07-21T21:27:22Z" uid="9581" user="Lobelt" changeset="5282637" lat="49.557791" lon="8.650464">
    <tag k="addr:city" v="Weinheim"/>
    <tag k="addr:postcode" v="69469"/>
    <tag k="amenity" v="fuel"/>
    <tag k="automated" v="yes"/>
    <tag k="fuel:cng" v="no"/>
    <tag k="fuel:lpg" v="yes"/>
    <tag k="name" v="Autohaus Ebert"/>
    <tag k="source" v="http://www.gas-tankstellen.de"/>
  </node>
  <node id="732712577" version="3" timestamp="2010-09-08T21:02:12Z" uid="6975" user="ulfl" changeset="5728143" lat="47.82823" lon="7.94533">
    <tag k="addr:city" v="Todtnau"/>
    <tag k="addr:country" v="DE"/>
    <tag k="addr:housenumber" v="17"/>
    <tag k="addr:postcode" v="79674"/>
    <tag k="addr:street" v="Schönauerstraße"/>
    <tag k="amenity" v="fuel"/>
    <tag k="fax" v="07671 762"/>
    <tag k="fuel:cng" v="no"/>
    <tag k="fuel:lpg" v="yes"/>
    <tag k="fuel:octane_95" v="yes"/>
    <tag k="name" v="Avia"/>
    <tag k="opening_hours" v="Mo-Sa 06:30-21:00; Su 08:00-21:00"/>
    <tag k="phone" v="07671 442"/>
    <tag k="source" v="http://www.gas-tankstellen.de"/>
  </node>
  <node id="732713016" version="1" timestamp="2010-05-13T18:59:52Z" uid="6269" user="Mueck" changeset="4688891" lat="48.9952577" lon="8.4166385"/>
  <node id="732713016" version="2" timestamp="2010-05-13T19:00:03Z" uid="6269" user="Mueck" changeset="4688891" lat="48.9952577" lon="8.4166385">
    <tag k="railway" v="buffer_stop"/>
  </node>
  <node id="732713016" version="3" timestamp="2011-03-03T15:12:04Z" uid="6269" user="Mueck" changeset="7445023" lat="48.9952089" lon="8.4164883">
    <tag k="railway" v="buffer_stop"/>
  </node>
  <node id="732713158" version="1" timestamp="2010-05-13T18:59:57Z" uid="6269" user="Mueck" changeset="4688891" lat="48.9952934" lon="8.4166192">
    <tag k="railway" v="buffer_stop"/>
  </node>
  <node id="732713158" version="2" timestamp="2011-03-03T15:12:03Z" uid="6269" user="Mueck" changeset="7445023" lat="48.9952423" lon="8.4164531">
    <tag k="railway" v="buffer_stop"/>
  </node>
  <node id="732714217" version="3" timestamp="2010-07-11T12:41:48Z" uid="33382" user="de_muur" changeset="5189989" lat="53.03306" lon="9.03194">
    <tag k="addr:city" v="Achim"/>
    <tag k="addr:postcode" v="28832"/>
    <tag k="amenity" v="fuel"/>
    <tag k="automated" v="yes"/>
    <tag k="fuel:cng" v="no"/>
    <tag k="fuel:lpg" v="yes"/>
    <tag k="name" v="MAS Micheel Auto-Service..."/>
    <tag k="opening_hours" v="Mo-Fr 07:00-18:00; Sa 09:00-12:00"/>
    <tag k="source" v="http://www.gas-tankstellen.de"/>
  </node>
  <node id="732715127" version="1" timestamp="2010-05-13T19:01:04Z" uid="6269" user="Mueck" changeset="4688891" lat="48.995361" lon="8.4162191">
    <tag k="railway" v="buffer_stop"/>
  </node>
  <node id="732715127" version="2" timestamp="2011-03-03T15:12:01Z" uid="6269" user="Mueck" changeset="7445023" lat="48.9953483" lon="8.4161805">
    <tag k="railway" v="buffer_stop"/>
  </node>
  <node id="732716451" version="3" timestamp="2011-01-04T12:56:29Z" uid="151899" user="Bikeman2000" changeset="6860244" lat="51.2398904" lon="6.7440603">
    <tag k="addr:city" v="Düsseldorf-Niederkassel"/>
    <tag k="addr:postcode" v="40547"/>
    <tag k="amenity" v="fuel"/>
    <tag k="fuel:cng" v="no"/>
    <tag k="fuel:lpg" v="yes"/>
    <tag k="name" v="Aral"/>
    <tag k="opening_hours" v="24/7"/>
    <tag k="source" v="http://www.gas-tankstellen.de"/>
  </node>
  <node id="732717445" version="3" timestamp="2010-06-08T10:28:44Z" uid="27600" user="Islanit" changeset="4936013" lat="53.4819719" lon="10.2084169">
    <tag k="addr:city" v="Hamburg-Bergedorf"/>
    <tag k="addr:postcode" v="21029"/>
    <tag k="amenity" v="fuel"/>
    <tag k="fuel:cng" v="yes"/>
    <tag k="fuel:lpg" v="no"/>
    <tag k="name" v="ARAL"/>
    <tag k="opening_hours" v="24/7"/>
    <tag k="source" v="http://www.gas-tankstellen.de"/>
  </node>
  <node id="732717445" version="4" timestamp="2010-06-08T10:28:58Z" uid="27600" user="Islanit" changeset="4936013" lat="53.4819719" lon="10.2084169">
    <tag k="addr:city" v="Hamburg-Bergedorf"/>
    <tag k="addr:postcode" v="21029"/>
    <tag k="addr:street" v="Curslacker Neuer Deich"/>
    <tag k="amenity" v="fuel"/>
    <tag k="fuel:cng" v="yes"/>
    <tag k="fuel:lpg" v="no"/>
    <tag k="name" v="ARAL"/>
    <tag k="opening_hours" v="24/7"/>
    <tag k="source" v="http://www.gas-tankstellen.de"/>
  </node>
</osm>
