<?xml version='1.0' encoding='UTF-8'?>
<osm version="0.6" generator="libosmium/2.20.0">
  <node id="736782908" version="1" timestamp="2010-05-16T18:31:29Z" uid="256927" user="Timo Müller" changeset="4720778" lat="49.3445726" lon="8.6710798">
    <tag k="addr:city" v="Leimen"/>
    <tag k="addr:country" v="DE"/>
    <tag k="addr:housenumber" v="1"/>
    <tag k="addr:postcode" v="69181"/>
    <tag k="addr:street" v="Karl-Theodor-Straße"/>
  </node>
  <node id="736782925" version="1" timestamp="2010-05-16T18:31:32Z" uid="256927" user="Timo Müller" changeset="4720778" lat="49.3429704" lon="8.6696898">
    <tag k="addr:city" v="Leimen"/>
    <tag k="addr:country" v="DE"/>
    <tag k="addr:housenumber" v="71"/>
    <tag k="addr:postcode" v="69181"/>
    <tag k="addr:street" v="Wittelsbacherallee"/>
  </node>
  <node id="736782933" version="1" timestamp="2010-05-16T18:31:32Z" uid="256927" user="Timo Müller" changeset="4720778" lat="49.3443157" lon="8.6696655"/>
  <node id="736782935" version="1" timestamp="2010-05-16T18:31:32Z" uid="256927" user="Timo Müller" changeset="4720778" lat="49.3457351" lon="8.6702191"/>
  <node id="736782937" version="1" timestamp="2010-05-16T18:31:32Z" uid="256927" user="Timo Müller" changeset="4720778" lat="49.343817" lon="8.6709689"/>
  <node id="736782940" version="1" timestamp="2010-05-16T18:31:32Z" uid="256927" user="Timo Müller" changeset="4720778" lat="49.3452952" lon="8.6702861"/>
  <node id="736782942" version="1" timestamp="2010-05-16T18:31:32Z" uid="256927" user="Timo Müller" changeset="4720778" lat="49.3442279" lon="8.6696549"/>
  <node id="736782945" version="1" timestamp="2010-05-16T18:31:32Z" uid="256927" user="Timo Müller" changeset="4720778" lat="49.3432564" lon="8.6710922">
    <tag k="addr:city" v="Leimen"/>
    <tag k="addr:country" v="DE"/>
    <tag k="addr:housenumber" v="35"/>
    <tag k="addr:postcode" v="69181"/>
    <tag k="addr:street" v="Hohenstauferallee"/>
  </node>
  <node id="736782945" version="2" timestamp="2010-05-21T18:18:19Z" uid="256927" user="Timo Müller" changeset="4768285" lat="49.3432564" lon="8.6710922">
    <tag k="addr:city" v="Leimen"/>
    <tag k="addr:country" v="DE"/>
    <tag k="addr:housenumber" v="16g"/>
    <tag k="addr:postcode" v="69181"/>
    <tag k="addr:street" v="Hohenstauferallee"/>
  </node>
  <node id="736782949" version="1" timestamp="2010-05-16T18:31:32Z" uid="256927" user="Timo Müller" changeset="4720778" lat="49.3451512" lon="8.6708481"/>
  <node id="736782952" version="1" timestamp="2010-05-16T18:31:32Z" uid="256927" user="Timo Müller" changeset="4720778" lat="49.3427241" lon="8.669984">
    <tag k="addr:city" v="Leimen"/>
    <tag k="addr:country" v="DE"/>
    <tag k="addr:housenumber" v="45a"/>
    <tag k="addr:postcode" v="69181"/>
    <tag k="addr:street" v="Hohenstauferallee"/>
  </node>
  <node id="736782957" version="1" timestamp="2010-05-16T18:31:32Z" uid="256927" user="Timo Müller" changeset="4720778" lat="49.3430472" lon="8.6701855"/>
  <node id="736782961" version="1" timestamp="2010-05-16T18:31:32Z" uid="256927" user="Timo Müller" changeset="4720778" lat="49.3438148" lon="8.6695734"/>
  <node id="736782967" version="1" timestamp="2010-05-16T18:31:32Z" uid="256927" user="Timo Müller" changeset="4720778" lat="49.3427241" lon="8.6702455">
    <tag k="addr:city" v="Leimen"/>
    <tag k="addr:country" v="DE"/>
    <tag k="addr:housenumber" v="43c"/>
    <tag k="addr:postcode" v="69181"/>
    <tag k="addr:street" v="Hohenstauferallee"/>
  </node>
  <node id="736782971" version="1" timestamp="2010-05-16T18:31:33Z" uid="256927" user="Timo Müller" changeset="4720778" lat="49.3443228" lon="8.6713677">
    <tag k="addr:city" v="Leimen"/>
    <tag k="addr:country" v="DE"/>
    <tag k="addr:housenumber" v="11"/>
    <tag k="addr:postcode" v="69181"/>
    <tag k="addr:street" v="Karl-Theodor-Straße"/>
  </node>
  <node id="736782975" version="1" timestamp="2010-05-16T18:31:33Z" uid="256927" user="Timo Müller" changeset="4720778" lat="49.345489" lon="8.6699966">
    <tag k="leisure" v="playground"/>
  </node>
  <node id="736782979" version="1" timestamp="2010-05-16T18:31:33Z" uid="256927" user="Timo Müller" changeset="4720778" lat="49.3443778" lon="8.6701591">
    <tag k="addr:city" v="Leimen"/>
    <tag k="addr:country" v="DE"/>
    <tag k="addr:housenumber" v="16"/>
    <tag k="addr:postcode" v="69181"/>
    <tag k="addr:street" v="Otto-Stumpf-Weg"/>
  </node>
  <node id="736782984" version="1" timestamp="2010-05-16T18:31:33Z" uid="256927" user="Timo Müller" changeset="4720778" lat="49.3429607" lon="8.6709366">
    <tag k="addr:city" v="Leimen"/>
    <tag k="addr:country" v="DE"/>
    <tag k="addr:housenumber" v="35"/>
    <tag k="addr:postcode" v="69181"/>
    <tag k="addr:street" v="Hohenstauferallee"/>
  </node>
  <node id="736782989" version="1" timestamp="2010-05-16T18:31:33Z" uid="256927" user="Timo Müller" changeset="4720778" lat="49.3446374" lon="8.6700978">
    <tag k="addr:city" v="Leimen"/>
    <tag k="addr:country" v="DE"/>
    <tag k="addr:housenumber" v="43"/>
    <tag k="addr:postcode" v="69181"/>
    <tag k="addr:street" v="Wittelsbacherallee"/>
  </node>
  <node id="736783006" version="1" timestamp="2010-05-16T18:31:33Z" uid="256927" user="Timo Müller" changeset="4720778" lat="49.3425279" lon="8.6704167">
    <tag k="addr:city" v="Leimen"/>
    <tag k="addr:country" v="DE"/>
    <tag k="addr:housenumber" v="43a"/>
    <tag k="addr:postcode" v="69181"/>
    <tag k="addr:street" v="Hohenstauferallee"/>
  </node>
  <node id="736783010" version="1" timestamp="2010-05-16T18:31:33Z" uid="256927" user="Timo Müller" changeset="4720778" lat="49.3436936" lon="8.6717796">
    <tag k="addr:city" v="Leimen"/>
    <tag k="addr:country" v="DE"/>
    <tag k="addr:housenumber" v="40"/>
    <tag k="addr:postcode" v="69181"/>
    <tag k="addr:street" v="Karl-Theodor-Straße"/>
  </node>
  <node id="736783014" version="1" timestamp="2010-05-16T18:31:33Z" uid="256927" user="Timo Müller" changeset="4720778" lat="49.3449567" lon="8.6704412"/>
  <node id="736783017" version="1" timestamp="2010-05-16T18:31:34Z" uid="256927" user="Timo Müller" changeset="4720778" lat="49.3450144" lon="8.6703628"/>
  <node id="736783020" version="1" timestamp="2010-05-16T18:31:34Z" uid="256927" user="Timo Müller" changeset="4720778" lat="49.3438155" lon="8.669544"/>
  <node id="736783022" version="1" timestamp="2010-05-16T18:31:34Z" uid="256927" user="Timo Müller" changeset="4720778" lat="49.3431039" lon="8.6712759">
    <tag k="addr:city" v="Leimen"/>
    <tag k="addr:country" v="DE"/>
    <tag k="addr:housenumber" v="29"/>
    <tag k="addr:postcode" v="69181"/>
    <tag k="addr:street" v="Hohenstauferallee"/>
  </node>
  <node id="736783026" version="1" timestamp="2010-05-16T18:31:34Z" uid="256927" user="Timo Müller" changeset="4720778" lat="49.3441207" lon="8.6715908">
    <tag k="addr:city" v="Leimen"/>
    <tag k="addr:country" v="DE"/>
    <tag k="addr:housenumber" v="17"/>
    <tag k="addr:postcode" v="69181"/>
    <tag k="addr:street" v="Karl-Theodor-Straße"/>
  </node>
  <node id="736783031" version="1" timestamp="2010-05-16T18:31:34Z" uid="256927" user="Timo Müller" changeset="4720778" lat="49.3436066" lon="8.670265">
    <tag k="addr:city" v="Leimen"/>
    <tag k="addr:country" v="DE"/>
    <tag k="addr:housenumber" v="4"/>
    <tag k="addr:postcode" v="69181"/>
    <tag k="addr:street" v="Barbarossastraße"/>
  </node>
  <node id="736783035" version="1" timestamp="2010-05-16T18:31:34Z" uid="256927" user="Timo Müller" changeset="4720778" lat="49.3433111" lon="8.6705986">
    <tag k="addr:city" v="Leimen"/>
    <tag k="addr:country" v="DE"/>
    <tag k="addr:housenumber" v="8a"/>
    <tag k="addr:postcode" v="69181"/>
    <tag k="addr:street" v="Barbarossastraße"/>
  </node>
  <node id="736783040" version="1" timestamp="2010-05-16T18:31:34Z" uid="256927" user="Timo Müller" changeset="4720778" lat="49.3435582" lon="8.6699434"/>
  <node id="736783042" version="1" timestamp="2010-05-16T18:31:34Z" uid="256927" user="Timo Müller" changeset="4720778" lat="49.3436531" lon="8.670779">
    <tag k="addr:city" v="Leimen"/>
    <tag k="addr:country" v="DE"/>
    <tag k="addr:housenumber" v="9"/>
    <tag k="addr:postcode" v="69181"/>
    <tag k="addr:street" v="Barbarossastraße"/>
  </node>
  <node id="736783047" version="1" timestamp="2010-05-16T18:31:34Z" uid="256927" user="Timo Müller" changeset="4720778" lat="49.3449292" lon="8.6698538">
    <tag k="addr:city" v="Leimen"/>
    <tag k="addr:country" v="DE"/>
    <tag k="addr:housenumber" v="4"/>
    <tag k="addr:postcode" v="69181"/>
    <tag k="addr:street" v="Karl-Theodor-Straße"/>
  </node>
  <node id="736783051" version="1" timestamp="2010-05-16T18:31:34Z" uid="256927" user="Timo Müller" changeset="4720778" lat="49.3446984" lon="8.6706069">
    <tag k="addr:city" v="Leimen"/>
    <tag k="addr:country" v="DE"/>
    <tag k="addr:housenumber" v="8"/>
    <tag k="addr:postcode" v="69181"/>
    <tag k="addr:street" v="Karl-Theodor-Straße"/>
  </node>
  <node id="736783056" version="1" timestamp="2010-05-16T18:31:34Z" uid="256927" user="Timo Müller" changeset="4720778" lat="49.3450151" lon="8.6703207"/>
  <node id="736783058" version="1" timestamp="2010-05-16T18:31:34Z" uid="256927" user="Timo Müller" changeset="4720778" lat="49.3435811" lon="8.6695179"/>
  <node id="736783061" version="1" timestamp="2010-05-16T18:31:34Z" uid="256927" user="Timo Müller" changeset="4720778" lat="49.3434374" lon="8.6704509">
    <tag k="addr:city" v="Leimen"/>
    <tag k="addr:country" v="DE"/>
    <tag k="addr:housenumber" v="6a"/>
    <tag k="addr:postcode" v="69181"/>
    <tag k="addr:street" v="Barbarossastraße"/>
  </node>
  <node id="736783065" version="1" timestamp="2010-05-16T18:31:34Z" uid="256927" user="Timo Müller" changeset="4720778" lat="49.3454306" lon="8.6704163">
    <tag k="addr:city" v="Leimen"/>
    <tag k="addr:country" v="DE"/>
    <tag k="addr:housenumber" v="33"/>
    <tag k="addr:postcode" v="69181"/>
    <tag k="addr:street" v="Wittelsbacherallee"/>
  </node>
  <node id="736783067" version="1" timestamp="2010-05-16T18:31:35Z" uid="256927" user="Timo Müller" changeset="4720778" lat="49.3437425" lon="8.6704587">
    <tag k="addr:city" v="Leimen"/>
    <tag k="addr:country" v="DE"/>
    <tag k="addr:housenumber" v="5"/>
    <tag k="addr:postcode" v="69181"/>
    <tag k="addr:street" v="Barbarossastraße"/>
  </node>
  <node id="736783071" version="1" timestamp="2010-05-16T18:31:35Z" uid="256927" user="Timo Müller" changeset="4720778" lat="49.3431211" lon="8.6708048">
    <tag k="addr:city" v="Leimen"/>
    <tag k="addr:country" v="DE"/>
    <tag k="addr:housenumber" v="10"/>
    <tag k="addr:postcode" v="69181"/>
    <tag k="addr:street" v="Barbarossastraße"/>
  </node>
  <node id="736783078" version="1" timestamp="2010-05-16T18:31:35Z" uid="256927" user="Timo Müller" changeset="4720778" lat="49.3433027" lon="8.6700788"/>
  <node id="736783080" version="1" timestamp="2010-05-16T18:31:35Z" uid="256927" user="Timo Müller" changeset="4720778" lat="49.3449215" lon="8.6701264">
    <tag k="addr:city" v="Leimen"/>
    <tag k="addr:country" v="DE"/>
    <tag k="addr:housenumber" v="2"/>
    <tag k="addr:postcode" v="69181"/>
    <tag k="addr:street" v="Karl-Theodor-Straße"/>
  </node>
  <node id="736783085" version="1" timestamp="2010-05-16T18:31:35Z" uid="256927" user="Timo Müller" changeset="4720778" lat="49.3437451" lon="8.6697584">
    <tag k="addr:city" v="Leimen"/>
    <tag k="addr:country" v="DE"/>
    <tag k="addr:housenumber" v="49"/>
    <tag k="addr:postcode" v="69181"/>
    <tag k="addr:street" v="Wittelsbacherallee"/>
  </node>
  <node id="736783089" version="1" timestamp="2010-05-16T18:31:35Z" uid="256927" user="Timo Müller" changeset="4720778" lat="49.3442675" lon="8.6711389">
    <tag k="addr:city" v="Leimen"/>
    <tag k="addr:country" v="DE"/>
    <tag k="addr:housenumber" v="22"/>
    <tag k="addr:postcode" v="69181"/>
    <tag k="addr:street" v="Karl-Theodor-Straße"/>
  </node>
  <node id="736783094" version="1" timestamp="2010-05-16T18:31:35Z" uid="256927" user="Timo Müller" changeset="4720778" lat="49.3439886" lon="8.6696449"/>
  <node id="736783096" version="1" timestamp="2010-05-16T18:31:35Z" uid="256927" user="Timo Müller" changeset="4720778" lat="49.3464305" lon="8.6708888">
    <tag k="addr:city" v="Leimen"/>
    <tag k="addr:country" v="DE"/>
    <tag k="addr:housenumber" v="23"/>
    <tag k="addr:postcode" v="69181"/>
    <tag k="addr:street" v="Wittelsbacherallee"/>
  </node>
  <node id="736783101" version="1" timestamp="2010-05-16T18:31:35Z" uid="256927" user="Timo Müller" changeset="4720778" lat="49.3446366" lon="8.6710279">
    <tag k="barrier" v="bollard"/>
    <tag k="bicycle" v="yes"/>
    <tag k="foot" v="yes"/>
  </node>
  <node id="736783103" version="1" timestamp="2010-05-16T18:31:35Z" uid="256927" user="Timo Müller" changeset="4720778" lat="49.3429538" lon="8.6701913">
    <tag k="addr:city" v="Leimen"/>
    <tag k="addr:country" v="DE"/>
    <tag k="addr:housenumber" v="81"/>
    <tag k="addr:postcode" v="69181"/>
    <tag k="addr:street" v="Wittelsbacherallee"/>
  </node>
  <node id="736783106" version="1" timestamp="2010-05-16T18:31:36Z" uid="256927" user="Timo Müller" changeset="4720778" lat="49.3456517" lon="8.6701759">
    <tag k="addr:city" v="Leimen"/>
    <tag k="addr:country" v="DE"/>
    <tag k="addr:housenumber" v="29"/>
    <tag k="addr:postcode" v="69181"/>
    <tag k="addr:street" v="Wittelsbacherallee"/>
  </node>
  <node id="736783133" version="1" timestamp="2010-05-16T18:31:36Z" uid="256927" user="Timo Müller" changeset="4720778" lat="49.3435839" lon="8.6704371"/>
  <node id="736783136" version="1" timestamp="2010-05-16T18:31:36Z" uid="256927" user="Timo Müller" changeset="4720778" lat="49.3456879" lon="8.6700775"/>
  <node id="736783140" version="1" timestamp="2010-05-16T18:31:36Z" uid="256927" user="Timo Müller" changeset="4720778" lat="49.3443215" lon="8.66969"/>
  <node id="736783142" version="1" timestamp="2010-05-16T18:31:36Z" uid="256927" user="Timo Müller" changeset="4720778" lat="49.3452552" lon="8.6699701">
    <tag k="addr:city" v="Leimen"/>
    <tag k="addr:country" v="DE"/>
    <tag k="addr:housenumber" v="39"/>
    <tag k="addr:postcode" v="69181"/>
    <tag k="addr:street" v="Wittelsbacherallee"/>
  </node>
  <node id="736783150" version="1" timestamp="2010-05-16T18:31:36Z" uid="256927" user="Timo Müller" changeset="4720778" lat="49.343465" lon="8.6715405">
    <tag k="addr:city" v="Leimen"/>
    <tag k="addr:country" v="DE"/>
    <tag k="addr:housenumber" v="35"/>
    <tag k="addr:postcode" v="69181"/>
    <tag k="addr:street" v="Hohenstauferallee"/>
  </node>
  <node id="736783150" version="2" timestamp="2010-05-21T18:18:19Z" uid="256927" user="Timo Müller" changeset="4768285" lat="49.343465" lon="8.6715405">
    <tag k="addr:city" v="Leimen"/>
    <tag k="addr:country" v="DE"/>
    <tag k="addr:housenumber" v="16"/>
    <tag k="addr:postcode" v="69181"/>
    <tag k="addr:street" v="Hohenstauferallee"/>
  </node>
  <node id="736783159" version="1" timestamp="2010-05-16T18:31:36Z" uid="256927" user="Timo Müller" changeset="4720778" lat="49.3432398" lon="8.6697203">
    <tag k="addr:city" v="Leimen"/>
    <tag k="addr:country" v="DE"/>
    <tag k="addr:housenumber" v="61"/>
    <tag k="addr:postcode" v="69181"/>
    <tag k="addr:street" v="Wittelsbacherallee"/>
  </node>
  <node id="736783168" version="1" timestamp="2010-05-16T18:31:37Z" uid="256927" user="Timo Müller" changeset="4720778" lat="49.3457042" lon="8.66994">
    <tag k="power" v="sub_station"/>
  </node>
  <node id="736783171" version="1" timestamp="2010-05-16T18:31:37Z" uid="256927" user="Timo Müller" changeset="4720778" lat="49.3427241" lon="8.6699093">
    <tag k="addr:city" v="Leimen"/>
    <tag k="addr:country" v="DE"/>
    <tag k="addr:housenumber" v="45b"/>
    <tag k="addr:postcode" v="69181"/>
    <tag k="addr:street" v="Hohenstauferallee"/>
  </node>
  <node id="736783175" version="1" timestamp="2010-05-16T18:31:37Z" uid="256927" user="Timo Müller" changeset="4720778" lat="49.3456135" lon="8.6698545"/>
  <node id="736783178" version="1" timestamp="2010-05-16T18:31:37Z" uid="256927" user="Timo Müller" changeset="4720778" lat="49.3427241" lon="8.6701646">
    <tag k="addr:city" v="Leimen"/>
    <tag k="addr:country" v="DE"/>
    <tag k="addr:housenumber" v="43d"/>
    <tag k="addr:postcode" v="69181"/>
    <tag k="addr:street" v="Hohenstauferallee"/>
  </node>
  <node id="736783182" version="1" timestamp="2010-05-16T18:31:37Z" uid="256927" user="Timo Müller" changeset="4720778" lat="49.3428011" lon="8.6703265"/>
  <node id="736783184" version="1" timestamp="2010-05-16T18:31:37Z" uid="256927" user="Timo Müller" changeset="4720778" lat="49.3439949" lon="8.6705607">
    <tag k="addr:city" v="Leimen"/>
    <tag k="addr:country" v="DE"/>
    <tag k="addr:housenumber" v="2"/>
    <tag k="addr:postcode" v="69181"/>
    <tag k="addr:street" v="Otto-Stumpf-Weg"/>
  </node>
  <node id="736783192" version="1" timestamp="2010-05-16T18:31:37Z" uid="256927" user="Timo Müller" changeset="4720778" lat="49.3427272" lon="8.6700743">
    <tag k="addr:city" v="Leimen"/>
    <tag k="addr:country" v="DE"/>
    <tag k="addr:housenumber" v="45"/>
    <tag k="addr:postcode" v="69181"/>
    <tag k="addr:street" v="Hohenstauferallee"/>
  </node>
  <node id="736783196" version="1" timestamp="2010-05-16T18:31:37Z" uid="256927" user="Timo Müller" changeset="4720778" lat="49.3446451" lon="8.6698633">
    <tag k="addr:city" v="Leimen"/>
    <tag k="addr:country" v="DE"/>
    <tag k="addr:housenumber" v="45"/>
    <tag k="addr:postcode" v="69181"/>
    <tag k="addr:street" v="Wittelsbacherallee"/>
  </node>
  <node id="736783202" version="1" timestamp="2010-05-16T18:31:37Z" uid="256927" user="Timo Müller" changeset="4720778" lat="49.3465253" lon="8.6710981">
    <tag k="addr:city" v="Leimen"/>
    <tag k="addr:country" v="DE"/>
    <tag k="addr:housenumber" v="19"/>
    <tag k="addr:postcode" v="69181"/>
    <tag k="addr:street" v="Wittelsbacherallee"/>
  </node>
  <node id="736783206" version="1" timestamp="2010-05-16T18:31:37Z" uid="256927" user="Timo Müller" changeset="4720778" lat="49.3427272" lon="8.6703171">
    <tag k="addr:city" v="Leimen"/>
    <tag k="addr:country" v="DE"/>
    <tag k="addr:housenumber" v="43b"/>
    <tag k="addr:postcode" v="69181"/>
    <tag k="addr:street" v="Hohenstauferallee"/>
  </node>
  <node id="736783210" version="1" timestamp="2010-05-16T18:31:37Z" uid="256927" user="Timo Müller" changeset="4720778" lat="49.3452438" lon="8.6702561">
    <tag k="addr:city" v="Leimen"/>
    <tag k="addr:country" v="DE"/>
    <tag k="addr:housenumber" v="41"/>
    <tag k="addr:postcode" v="69181"/>
    <tag k="addr:street" v="Wittelsbacherallee"/>
  </node>
  <node id="736783214" version="1" timestamp="2010-05-16T18:31:38Z" uid="256927" user="Timo Müller" changeset="4720778" lat="49.3440807" lon="8.6713467">
    <tag k="addr:city" v="Leimen"/>
    <tag k="addr:country" v="DE"/>
    <tag k="addr:housenumber" v="24"/>
    <tag k="addr:postcode" v="69181"/>
    <tag k="addr:street" v="Karl-Theodor-Straße"/>
  </node>
  <node id="736783218" version="1" timestamp="2010-05-16T18:31:38Z" uid="256927" user="Timo Müller" changeset="4720778" lat="49.3438938" lon="8.6703366">
    <tag k="addr:city" v="Leimen"/>
    <tag k="addr:country" v="DE"/>
    <tag k="addr:housenumber" v="1"/>
    <tag k="addr:postcode" v="69181"/>
    <tag k="addr:street" v="Otto-Stumpf-Weg"/>
  </node>
  <node id="736783222" version="1" timestamp="2010-05-16T18:31:38Z" uid="256927" user="Timo Müller" changeset="4720778" lat="49.3442627" lon="8.6699319">
    <tag k="addr:city" v="Leimen"/>
    <tag k="addr:country" v="DE"/>
    <tag k="addr:housenumber" v="13"/>
    <tag k="addr:postcode" v="69181"/>
    <tag k="addr:street" v="Otto-Stumpf-Weg"/>
  </node>
  <node id="736783225" version="1" timestamp="2010-05-16T18:31:38Z" uid="256927" user="Timo Müller" changeset="4720778" lat="49.343951" lon="8.6717719">
    <tag k="addr:city" v="Leimen"/>
    <tag k="addr:country" v="DE"/>
    <tag k="addr:housenumber" v="23"/>
    <tag k="addr:postcode" v="69181"/>
    <tag k="addr:street" v="Karl-Theodor-Straße"/>
  </node>
  <node id="736783228" version="1" timestamp="2010-05-16T18:31:38Z" uid="256927" user="Timo Müller" changeset="4720778" lat="49.3436734" lon="8.6702054">
    <tag k="addr:city" v="Leimen"/>
    <tag k="addr:country" v="DE"/>
    <tag k="addr:housenumber" v="2"/>
    <tag k="addr:postcode" v="69181"/>
    <tag k="addr:street" v="Barbarossastraße"/>
  </node>
  <node id="736783232" version="1" timestamp="2010-05-16T18:31:38Z" uid="256927" user="Timo Müller" changeset="4720778" lat="49.3438654" lon="8.6707604">
    <tag k="addr:city" v="Leimen"/>
    <tag k="addr:country" v="DE"/>
    <tag k="addr:housenumber" v="1"/>
    <tag k="addr:postcode" v="69181"/>
    <tag k="addr:street" v="Barbarossastraße"/>
  </node>
  <node id="736783236" version="1" timestamp="2010-05-16T18:31:38Z" uid="256927" user="Timo Müller" changeset="4720778" lat="49.3433731" lon="8.67052">
    <tag k="addr:city" v="Leimen"/>
    <tag k="addr:country" v="DE"/>
    <tag k="addr:housenumber" v="8"/>
    <tag k="addr:postcode" v="69181"/>
    <tag k="addr:street" v="Barbarossastraße"/>
  </node>
  <node id="736783238" version="1" timestamp="2010-05-16T18:31:38Z" uid="256927" user="Timo Müller" changeset="4720778" lat="49.343735" lon="8.6709354">
    <tag k="addr:city" v="Leimen"/>
    <tag k="addr:country" v="DE"/>
    <tag k="addr:housenumber" v="7"/>
    <tag k="addr:postcode" v="69181"/>
    <tag k="addr:street" v="Barbarossastraße"/>
  </node>
  <node id="736783241" version="1" timestamp="2010-05-16T18:31:38Z" uid="256927" user="Timo Müller" changeset="4720778" lat="49.3453897" lon="8.670752">
    <tag k="barrier" v="cycle_barrier"/>
  </node>
  <node id="736783243" version="1" timestamp="2010-05-16T18:31:38Z" uid="256927" user="Timo Müller" changeset="4720778" lat="49.3437756" lon="8.6719988">
    <tag k="addr:city" v="Leimen"/>
    <tag k="addr:country" v="DE"/>
    <tag k="addr:housenumber" v="31"/>
    <tag k="addr:postcode" v="69181"/>
    <tag k="addr:street" v="Karl-Theodor-Straße"/>
  </node>
  <node id="736783245" version="1" timestamp="2010-05-16T18:31:38Z" uid="256927" user="Timo Müller" changeset="4720778" lat="49.3427739" lon="8.670563">
    <tag k="addr:city" v="Leimen"/>
    <tag k="addr:country" v="DE"/>
    <tag k="addr:housenumber" v="41"/>
    <tag k="addr:postcode" v="69181"/>
    <tag k="addr:street" v="Hohenstauferallee"/>
  </node>
  <node id="736783260" version="1" timestamp="2010-05-16T18:31:39Z" uid="256927" user="Timo Müller" changeset="4720778" lat="49.3438099" lon="8.6697985"/>
  <node id="736783263" version="1" timestamp="2010-05-16T18:31:39Z" uid="256927" user="Timo Müller" changeset="4720778" lat="49.3433436" lon="8.6717678">
    <tag k="addr:city" v="Leimen"/>
    <tag k="addr:country" v="DE"/>
    <tag k="addr:housenumber" v="25"/>
    <tag k="addr:postcode" v="69181"/>
    <tag k="addr:street" v="Hohenstauferallee"/>
  </node>
  <node id="736783269" version="1" timestamp="2010-05-16T18:31:39Z" uid="256927" user="Timo Müller" changeset="4720778" lat="49.3441951" lon="8.6715126">
    <tag k="addr:city" v="Leimen"/>
    <tag k="addr:country" v="DE"/>
    <tag k="addr:housenumber" v="15"/>
    <tag k="addr:postcode" v="69181"/>
    <tag k="addr:street" v="Karl-Theodor-Straße"/>
  </node>
  <node id="736783275" version="1" timestamp="2010-05-16T18:31:39Z" uid="256927" user="Timo Müller" changeset="4720778" lat="49.3435089" lon="8.6703889">
    <tag k="addr:city" v="Leimen"/>
    <tag k="addr:country" v="DE"/>
    <tag k="addr:housenumber" v="6"/>
    <tag k="addr:postcode" v="69181"/>
    <tag k="addr:street" v="Barbarossastraße"/>
  </node>
  <node id="736783279" version="1" timestamp="2010-05-16T18:31:39Z" uid="256927" user="Timo Müller" changeset="4720778" lat="49.3427241" lon="8.6698159">
    <tag k="addr:city" v="Leimen"/>
    <tag k="addr:country" v="DE"/>
    <tag k="addr:housenumber" v="45c"/>
    <tag k="addr:postcode" v="69181"/>
    <tag k="addr:street" v="Hohenstauferallee"/>
  </node>
  <node id="736783284" version="1" timestamp="2010-05-16T18:31:40Z" uid="256927" user="Timo Müller" changeset="4720778" lat="49.3455393" lon="8.6702923">
    <tag k="addr:city" v="Leimen"/>
    <tag k="addr:country" v="DE"/>
    <tag k="addr:housenumber" v="31"/>
    <tag k="addr:postcode" v="69181"/>
    <tag k="addr:street" v="Wittelsbacherallee"/>
  </node>
  <node id="736783292" version="1" timestamp="2010-05-16T18:31:41Z" uid="256927" user="Timo Müller" changeset="4720778" lat="49.3438132" lon="8.6706226">
    <tag k="addr:city" v="Leimen"/>
    <tag k="addr:country" v="DE"/>
    <tag k="addr:housenumber" v="3"/>
    <tag k="addr:postcode" v="69181"/>
    <tag k="addr:street" v="Barbarossastraße"/>
  </node>
  <node id="736783296" version="1" timestamp="2010-05-16T18:31:41Z" uid="256927" user="Timo Müller" changeset="4720778" lat="49.3431943" lon="8.6707226">
    <tag k="addr:city" v="Leimen"/>
    <tag k="addr:country" v="DE"/>
    <tag k="addr:housenumber" v="10a"/>
    <tag k="addr:postcode" v="69181"/>
    <tag k="addr:street" v="Barbarossastraße"/>
  </node>
  <node id="736783301" version="1" timestamp="2010-05-16T18:31:41Z" uid="256927" user="Timo Müller" changeset="4720778" lat="49.3433387" lon="8.669499"/>
  <node id="736783303" version="1" timestamp="2010-05-16T18:31:41Z" uid="256927" user="Timo Müller" changeset="4720778" lat="49.3435898" lon="8.6706226">
    <tag k="addr:city" v="Leimen"/>
    <tag k="addr:country" v="DE"/>
    <tag k="addr:housenumber" v="11"/>
    <tag k="addr:postcode" v="69181"/>
    <tag k="addr:street" v="Barbarossastraße"/>
  </node>
  <node id="736783308" version="1" timestamp="2010-05-16T18:31:41Z" uid="256927" user="Timo Müller" changeset="4720778" lat="49.3451789" lon="8.6707042">
    <tag k="addr:city" v="Leimen"/>
    <tag k="addr:country" v="DE"/>
    <tag k="addr:housenumber" v="37"/>
    <tag k="addr:postcode" v="69181"/>
    <tag k="addr:street" v="Wittelsbacherallee"/>
  </node>
  <node id="736783313" version="1" timestamp="2010-05-16T18:31:41Z" uid="256927" user="Timo Müller" changeset="4720778" lat="49.3444391" lon="8.6709463">
    <tag k="addr:city" v="Leimen"/>
    <tag k="addr:country" v="DE"/>
    <tag k="addr:housenumber" v="12"/>
    <tag k="addr:postcode" v="69181"/>
    <tag k="addr:street" v="Karl-Theodor-Straße"/>
  </node>
  <node id="736783319" version="1" timestamp="2010-05-16T18:31:41Z" uid="256927" user="Timo Müller" changeset="4720778" lat="49.3445777" lon="8.6707734">
    <tag k="barrier" v="bollard"/>
    <tag k="bicycle" v="yes"/>
    <tag k="foot" v="yes"/>
  </node>
  <node id="736783323" version="1" timestamp="2010-05-16T18:31:41Z" uid="256927" user="Timo Müller" changeset="4720778" lat="49.3432188" lon="8.670073">
    <tag k="addr:city" v="Leimen"/>
    <tag k="addr:country" v="DE"/>
    <tag k="addr:housenumber" v="67"/>
    <tag k="addr:postcode" v="69181"/>
    <tag k="addr:street" v="Wittelsbacherallee"/>
  </node>
  <node id="736783329" version="1" timestamp="2010-05-16T18:31:41Z" uid="256927" user="Timo Müller" changeset="4720778" lat="49.3452743" lon="8.6706012">
    <tag k="addr:city" v="Leimen"/>
    <tag k="addr:country" v="DE"/>
    <tag k="addr:housenumber" v="35"/>
    <tag k="addr:postcode" v="69181"/>
    <tag k="addr:street" v="Wittelsbacherallee"/>
  </node>
  <node id="736783332" version="1" timestamp="2010-05-16T18:31:41Z" uid="256927" user="Timo Müller" changeset="4720778" lat="49.3430736" lon="8.6694784"/>
  <node id="736783334" version="1" timestamp="2010-05-16T18:31:41Z" uid="256927" user="Timo Müller" changeset="4720778" lat="49.3425006" lon="8.6704884"/>
  <node id="736783336" version="1" timestamp="2010-05-16T18:31:41Z" uid="256927" user="Timo Müller" changeset="4720778" lat="49.3448643" lon="8.6703896">
    <tag k="addr:city" v="Leimen"/>
    <tag k="addr:country" v="DE"/>
    <tag k="addr:housenumber" v="6"/>
    <tag k="addr:postcode" v="69181"/>
    <tag k="addr:street" v="Karl-Theodor-Straße"/>
  </node>
  <node id="736783343" version="1" timestamp="2010-05-16T18:31:41Z" uid="256927" user="Timo Müller" changeset="4720778" lat="49.3435708" lon="8.6721974">
    <tag k="addr:city" v="Leimen"/>
    <tag k="addr:country" v="DE"/>
    <tag k="addr:housenumber" v="21"/>
    <tag k="addr:postcode" v="69181"/>
    <tag k="addr:street" v="Hohenstauferallee"/>
  </node>
  <node id="736783347" version="1" timestamp="2010-05-16T18:31:41Z" uid="256927" user="Timo Müller" changeset="4720778" lat="49.343461" lon="8.6699205">
    <tag k="addr:city" v="Leimen"/>
    <tag k="addr:country" v="DE"/>
    <tag k="addr:housenumber" v="55"/>
    <tag k="addr:postcode" v="69181"/>
    <tag k="addr:street" v="Wittelsbacherallee"/>
  </node>
</osm>
