<?xml version='1.0' encoding='UTF-8'?>
<osm version="0.6" generator="libosmium/2.20.0">
  <node id="73690770" version="3" timestamp="2007-12-01T02:09:28Z" uid="6454" user="B10xxx" changeset="22961" lat="52.5037037" lon="13.3425299">
    <tag k="created_by" v="Potlatch 0.5d"/>
    <tag k="name" v="Hotel Air in Berlin"/>
    <tag k="tourism" v="hotel"/>
  </node>
  <node id="73690778" version="4" timestamp="2007-12-01T02:09:16Z" uid="6454" user="B10xxx" changeset="22961" lat="52.5041477" lon="13.3425728">
    <tag k="created_by" v="Potlatch 0.5d"/>
    <tag k="name" v="City Hotel Ansbach"/>
    <tag k="tourism" v="hotel"/>
  </node>
  <node id="73690838" version="2" timestamp="2007-12-04T23:13:06Z" uid="17602" user="B10xyz" changeset="79249" lat="52.508066" lon="13.348641">
    <tag k="amenity" v="embassy"/>
    <tag k="created_by" v="Potlatch 0.5d"/>
    <tag k="name" v="KOR"/>
  </node>
  <node id="73690847" version="2" timestamp="2007-12-01T02:12:07Z" uid="6454" user="B10xxx" changeset="22961" lat="52.5088757" lon="13.3504606">
    <tag k="amenity" v="embassy"/>
    <tag k="created_by" v="Potlatch 0.5d"/>
    <tag k="name" v="Nordische Botschaften (DNK, FIN, ISL, NOR, SWE)"/>
  </node>
  <node id="73690854" version="2" timestamp="2007-12-04T23:12:58Z" uid="17602" user="B10xyz" changeset="79249" lat="52.5082488" lon="13.3500744">
    <tag k="amenity" v="embassy"/>
    <tag k="created_by" v="Potlatch 0.5d"/>
    <tag k="name" v="SYR"/>
  </node>
  <node id="73690863" version="2" timestamp="2007-10-16T13:28:03Z" uid="6454" user="B10xxx" changeset="209069" lat="52.5094765" lon="13.3535934">
    <tag k="amenity" v="embassy"/>
    <tag k="created_by" v="Potlatch 0.4a"/>
    <tag k="name" v="SAU (under construction)"/>
  </node>
  <node id="73690863" version="4" timestamp="2007-12-01T02:12:11Z" uid="6454" user="B10xxx" changeset="22961" lat="52.5094817" lon="13.3535849">
    <tag k="amenity" v="embassy"/>
    <tag k="created_by" v="Potlatch 0.5d"/>
    <tag k="name" v="SAU (under construction)"/>
  </node>
  <node id="73690869" version="2" timestamp="2007-10-16T13:28:07Z" uid="6454" user="B10xxx" changeset="209069" lat="52.5095235" lon="13.3543573">
    <tag k="amenity" v="school"/>
    <tag k="created_by" v="Potlatch 0.4a"/>
    <tag k="name" v="Canesius-Colleg (Jesuitengymnasium)"/>
  </node>
  <node id="73690869" version="4" timestamp="2007-12-01T02:12:22Z" uid="6454" user="B10xxx" changeset="22961" lat="52.5095287" lon="13.3543487">
    <tag k="amenity" v="school"/>
    <tag k="created_by" v="Potlatch 0.5d"/>
    <tag k="name" v="Canisius-Kolleg (Jesuitengymnasium)"/>
  </node>
  <node id="73690875" version="2" timestamp="2007-10-16T13:28:10Z" uid="6454" user="B10xxx" changeset="209069" lat="52.509675" lon="13.3583914">
    <tag k="amenity" v="embassy"/>
    <tag k="created_by" v="Potlatch 0.4a"/>
    <tag k="name" v="JPN"/>
  </node>
  <node id="73690879" version="2" timestamp="2007-10-16T13:28:14Z" uid="6454" user="B10xxx" changeset="209069" lat="52.5097011" lon="13.3595587">
    <tag k="amenity" v="embassy"/>
    <tag k="created_by" v="Potlatch 0.4a"/>
    <tag k="name" v="ITA"/>
  </node>
  <node id="73690901" version="3" timestamp="2007-12-04T23:09:43Z" uid="17602" user="B10xyz" changeset="79249" lat="52.5069532" lon="13.360932">
    <tag k="amenity" v="public_building"/>
    <tag k="created_by" v="Potlatch 0.5d"/>
    <tag k="name" v="Bundesministerium der Verteidigung (Dienstsitz Berlin)"/>
  </node>
  <node id="73691018" version="2" timestamp="2007-10-16T13:28:19Z" uid="6454" user="B10xxx" changeset="209069" lat="52.5096332" lon="13.3618503">
    <tag k="amenity" v="embassy"/>
    <tag k="created_by" v="Potlatch 0.4a"/>
    <tag k="name" v="ZAF"/>
  </node>
  <node id="73691022" version="2" timestamp="2007-10-16T13:28:23Z" uid="6454" user="B10xxx" changeset="209069" lat="52.5096489" lon="13.3624683">
    <tag k="amenity" v="embassy"/>
    <tag k="created_by" v="Potlatch 0.4a"/>
    <tag k="name" v="IND"/>
  </node>
  <node id="73691034" version="2" timestamp="2007-10-16T13:28:37Z" uid="6454" user="B10xxx" changeset="209069" lat="52.5097899" lon="13.3639875">
    <tag k="amenity" v="embassy"/>
    <tag k="created_by" v="Potlatch 0.4a"/>
    <tag k="name" v="AUT"/>
  </node>
  <node id="73691034" version="3" timestamp="2007-10-16T13:30:19Z" uid="6454" user="B10xxx" changeset="209069" lat="52.5097899" lon="13.3639875">
    <tag k="amenity" v="embassy"/>
    <tag k="created_by" v="Potlatch 0.4a"/>
    <tag k="name" v="AUT"/>
  </node>
  <node id="73691063" version="2" timestamp="2007-12-04T23:06:38Z" uid="17602" user="B10xyz" changeset="79249" lat="52.5079093" lon="13.3674208">
    <tag k="amenity" v="place_of_worship"/>
    <tag k="created_by" v="Potlatch 0.5d"/>
    <tag k="denomination" v="christian/evangelical"/>
    <tag k="name" v="St.Matthäus-Kirche"/>
    <tag k="religion" v="christian"/>
  </node>
  <node id="73694586" version="3" timestamp="2008-05-04T03:46:29Z" uid="36809" user="pfoten_weg_!_" changeset="326538" lat="48.1121724" lon="11.5487946">
    <tag k="created_by" v="JOSM"/>
    <tag k="name" v="Brudermühlstraße"/>
    <tag k="railway" v="station"/>
  </node>
  <node id="73694586" version="4" timestamp="2008-08-21T23:16:27Z" uid="36809" user="pfoten_weg_!_" changeset="363581" lat="48.1121724" lon="11.5487946">
    <tag k="created_by" v="RambaZamba"/>
    <tag k="name" v="Brudermühlstraße"/>
    <tag k="railway" v="station"/>
  </node>
  <node id="73694586" version="5" timestamp="2008-09-13T12:37:57Z" uid="36809" user="pfoten_weg_!_" changeset="620497" lat="48.1121725" lon="11.5487951">
    <tag k="created_by" v="RambaZamba"/>
    <tag k="name" v="Brudermühlstraße"/>
    <tag k="railway" v="station"/>
  </node>
  <node id="73694586" version="6" timestamp="2008-09-20T03:50:30Z" uid="36809" user="pfoten_weg_!_" changeset="670006" lat="48.1121725" lon="11.5487952">
    <tag k="created_by" v="RambaZamba"/>
    <tag k="name" v="Brudermühlstraße"/>
    <tag k="railway" v="station"/>
  </node>
  <node id="73694586" version="7" timestamp="2008-10-01T01:19:26Z" uid="36809" user="pfoten_weg_!_" changeset="5644" lat="48.1121725" lon="11.5487952">
    <tag k="created_by" v="RambaZamba"/>
    <tag k="name" v="Brudermühlstraße"/>
    <tag k="railway" v="station"/>
  </node>
  <node id="73694586" version="8" timestamp="2009-02-15T13:01:51Z" uid="36809" user="pfoten_weg_!_" changeset="463903" lat="48.1121725" lon="11.5487952">
    <tag k="created_by" v="RambaZamba"/>
    <tag k="name" v="Brudermühlstraße"/>
    <tag k="railway" v="station"/>
    <tag k="source" v="survey"/>
  </node>
  <node id="73694586" version="10" timestamp="2009-06-08T13:38:25Z" uid="36809" user="pfoten_weg_!_" changeset="1458869" lat="48.1121725" lon="11.5487952">
    <tag k="created_by" v="RambaZamba"/>
    <tag k="name" v="Brudermühlstraße"/>
    <tag k="railway" v="station"/>
    <tag k="source" v="survey"/>
  </node>
  <node id="73694586" version="12" timestamp="2009-08-26T09:26:08Z" uid="36809" user="pfoten_weg_!_" changeset="2265170" lat="48.1121725" lon="11.5487952">
    <tag k="name" v="Brudermühlstraße"/>
    <tag k="railway" v="station"/>
    <tag k="source" v="survey"/>
  </node>
  <node id="73694586" version="13" timestamp="2009-10-02T17:49:37Z" uid="86259" user="hasse_osm_korinthenkacker" changeset="2715119" lat="48.1121725" lon="11.5487952">
    <tag k="name" v="Brudermühlstraße"/>
    <tag k="railway" v="station"/>
  </node>
  <node id="73694871" version="3" timestamp="2010-01-29T17:54:13Z" uid="99207" user="Lar Kiesel" changeset="3745043" lat="32.153962" lon="-82.905964"/>
  <node id="73696619" version="6" timestamp="2007-12-04T23:06:55Z" uid="17602" user="B10xyz" changeset="79249" lat="52.5074339" lon="13.3711286">
    <tag k="amenity" v="library"/>
    <tag k="created_by" v="Potlatch 0.5d"/>
    <tag k="layer" v="3"/>
    <tag k="name" v="Staatsbibliothek zu Berlin"/>
  </node>
  <node id="73697102" version="2" timestamp="2010-05-24T14:33:09Z" uid="6975" user="ulfl" changeset="4794025" lat="52.3895583" lon="7.9426834">
    <tag k="name" v="Achmer"/>
    <tag k="traffic_sign" v="city_limit"/>
  </node>
</osm>
