<?xml version='1.0' encoding='UTF-8'?>
<osm version="0.6" generator="libosmium/2.20.0">
  <node id="738602453" version="1" timestamp="2010-05-18T15:30:27Z" uid="55964" user="Evan Sebire" changeset="4739831" lat="46.5792114" lon="7.6381146"/>
  <node id="738602470" version="1" timestamp="2010-05-18T15:30:28Z" uid="55964" user="Evan Sebire" changeset="4739831" lat="46.5794301" lon="7.6377059"/>
  <node id="738602496" version="1" timestamp="2010-05-18T15:30:30Z" uid="55964" user="Evan Sebire" changeset="4739831" lat="46.5712288" lon="7.62436">
    <tag k="addr:city" v="Frutigen"/>
    <tag k="addr:country" v="CH"/>
    <tag k="addr:housenumber" v="202A"/>
    <tag k="addr:postcode" v="3714"/>
    <tag k="addr:street" v="Adelbodenstrasse"/>
    <tag k="source" v="survey"/>
  </node>
  <node id="738602568" version="1" timestamp="2010-05-18T15:30:33Z" uid="55964" user="Evan Sebire" changeset="4739831" lat="46.5720956" lon="7.6286158">
    <tag k="addr:city" v="Frutigen"/>
    <tag k="addr:country" v="CH"/>
    <tag k="addr:housenumber" v="2"/>
    <tag k="addr:postcode" v="3714"/>
  </node>
  <node id="738602610" version="1" timestamp="2010-05-18T15:30:35Z" uid="55964" user="Evan Sebire" changeset="4739831" lat="46.5849846" lon="7.6438825">
    <tag k="amenity" v="bench"/>
  </node>
  <node id="738602616" version="1" timestamp="2010-05-18T15:30:35Z" uid="55964" user="Evan Sebire" changeset="4739831" lat="46.5848501" lon="7.6437298">
    <tag k="amenity" v="bench"/>
  </node>
  <node id="738602625" version="1" timestamp="2010-05-18T15:30:35Z" uid="55964" user="Evan Sebire" changeset="4739831" lat="46.5850431" lon="7.6436258">
    <tag k="amenity" v="bench"/>
  </node>
  <node id="738602626" version="1" timestamp="2010-05-18T15:30:35Z" uid="55964" user="Evan Sebire" changeset="4739831" lat="46.5853504" lon="7.6443151">
    <tag k="addr:city" v="Frutigen"/>
    <tag k="addr:country" v="CH"/>
    <tag k="addr:housenumber" v="50"/>
    <tag k="addr:postcode" v="3714"/>
    <tag k="addr:street" v="Künzistegstrasse"/>
    <tag k="source" v="survey"/>
  </node>
  <node id="738602629" version="1" timestamp="2010-05-18T15:30:35Z" uid="55964" user="Evan Sebire" changeset="4739831" lat="46.5847292" lon="7.6441288">
    <tag k="addr:city" v="Frutigen"/>
    <tag k="addr:country" v="CH"/>
    <tag k="addr:housenumber" v="54"/>
    <tag k="addr:postcode" v="3714"/>
    <tag k="addr:street" v="Künzistegstrasse"/>
    <tag k="source" v="survey"/>
  </node>
  <node id="738602635" version="1" timestamp="2010-05-18T15:30:36Z" uid="55964" user="Evan Sebire" changeset="4739831" lat="46.5857112" lon="7.6450517">
    <tag k="addr:city" v="Frutigen"/>
    <tag k="addr:country" v="CH"/>
    <tag k="addr:housenumber" v="40"/>
    <tag k="addr:postcode" v="3714"/>
    <tag k="addr:street" v="Künzistegstrasse"/>
    <tag k="source" v="survey"/>
  </node>
  <node id="738602652" version="1" timestamp="2010-05-18T15:30:36Z" uid="55964" user="Evan Sebire" changeset="4739831" lat="46.5860827" lon="7.6453045">
    <tag k="addr:city" v="Frutigen"/>
    <tag k="addr:country" v="CH"/>
    <tag k="addr:housenumber" v="32"/>
    <tag k="addr:postcode" v="3714"/>
    <tag k="addr:street" v="Künzistegstrasse"/>
    <tag k="source" v="survey"/>
  </node>
  <node id="738602666" version="1" timestamp="2010-05-18T15:30:36Z" uid="55964" user="Evan Sebire" changeset="4739831" lat="46.5859964" lon="7.6452305">
    <tag k="addr:city" v="Frutigen"/>
    <tag k="addr:country" v="CH"/>
    <tag k="addr:housenumber" v="34"/>
    <tag k="addr:postcode" v="3714"/>
    <tag k="addr:street" v="Künzistegstrasse"/>
    <tag k="source" v="survey"/>
  </node>
  <node id="738602680" version="1" timestamp="2010-05-18T15:30:36Z" uid="55964" user="Evan Sebire" changeset="4739831" lat="46.585852" lon="7.6454807">
    <tag k="addr:city" v="Frutigen"/>
    <tag k="addr:country" v="CH"/>
    <tag k="addr:housenumber" v="36"/>
    <tag k="addr:postcode" v="3714"/>
    <tag k="addr:street" v="Künzistegstrasse"/>
    <tag k="source" v="survey"/>
  </node>
  <node id="738602693" version="1" timestamp="2010-05-18T15:30:37Z" uid="55964" user="Evan Sebire" changeset="4739831" lat="46.5858907" lon="7.6456262">
    <tag k="addr:city" v="Frutigen"/>
    <tag k="addr:country" v="CH"/>
    <tag k="addr:housenumber" v="30"/>
    <tag k="addr:postcode" v="3714"/>
    <tag k="addr:street" v="Künzistegstrasse"/>
    <tag k="source" v="survey"/>
  </node>
  <node id="738602705" version="1" timestamp="2010-05-18T15:30:37Z" uid="55964" user="Evan Sebire" changeset="4739831" lat="46.5852013" lon="7.6448937">
    <tag k="addr:city" v="Frutigen"/>
    <tag k="addr:country" v="CH"/>
    <tag k="addr:housenumber" v="46"/>
    <tag k="addr:postcode" v="3714"/>
    <tag k="addr:street" v="Künzistegstrasse"/>
    <tag k="name" v="Schmid AG Küchenbau"/>
    <tag k="phone" v="+41 33 671 3131"/>
    <tag k="source" v="survey"/>
    <tag k="url" v="http://www.schmidkuechen.ch"/>
  </node>
  <node id="738605478" version="2" timestamp="2010-06-05T08:00:25Z" uid="30632" user="antblant" changeset="4906765" lat="52.9867624" lon="18.6109204"/>
  <node id="738609929" version="1" timestamp="2010-05-18T15:35:21Z" uid="115477" user="wowik" changeset="4739878" lat="55.8715586" lon="37.3340047"/>
  <node id="738609937" version="1" timestamp="2010-05-18T15:35:21Z" uid="115477" user="wowik" changeset="4739878" lat="55.8693795" lon="37.3373306"/>
  <node id="738609939" version="1" timestamp="2010-05-18T15:35:22Z" uid="115477" user="wowik" changeset="4739878" lat="55.8696083" lon="37.3376632"/>
  <node id="738609942" version="1" timestamp="2010-05-18T15:35:22Z" uid="115477" user="wowik" changeset="4739878" lat="55.8702704" lon="37.3368371"/>
  <node id="738609945" version="1" timestamp="2010-05-18T15:35:22Z" uid="115477" user="wowik" changeset="4739878" lat="55.8708122" lon="37.3364616"/>
  <node id="738609948" version="1" timestamp="2010-05-18T15:35:22Z" uid="115477" user="wowik" changeset="4739878" lat="55.8711312" lon="37.3362256"/>
  <node id="738609950" version="1" timestamp="2010-05-18T15:35:22Z" uid="115477" user="wowik" changeset="4739878" lat="55.8715405" lon="37.3373092"/>
  <node id="738609955" version="1" timestamp="2010-05-18T15:35:22Z" uid="115477" user="wowik" changeset="4739878" lat="55.8719258" lon="37.3382426"/>
  <node id="738609959" version="1" timestamp="2010-05-18T15:35:22Z" uid="115477" user="wowik" changeset="4739878" lat="55.8722267" lon="37.3388971"/>
</osm>
