<?xml version='1.0' encoding='UTF-8'?>
<osm version="0.6" generator="libosmium/2.20.0">
  <node id="738874980" version="3" timestamp="2010-10-03T19:23:05Z" uid="9581" user="Lobelt" changeset="5947712" lat="49.5480398" lon="8.8317561">
    <tag k="amenity" v="shelter"/>
  </node>
  <node id="738876532" version="1" timestamp="2010-05-18T19:19:21Z" uid="55964" user="Evan Sebire" changeset="4741899" lat="46.586276" lon="7.649654">
    <tag k="addr:city" v="Frutigen"/>
    <tag k="addr:country" v="CH"/>
    <tag k="addr:housenumber" v="1"/>
    <tag k="addr:postcode" v="3714"/>
    <tag k="addr:street" v="Baumgartenstrasse"/>
    <tag k="amenity" v="doctors"/>
    <tag k="name" v="Rudolf Weber"/>
    <tag k="source" v="survey"/>
  </node>
  <node id="738876536" version="1" timestamp="2010-05-18T19:19:22Z" uid="55964" user="Evan Sebire" changeset="4741899" lat="46.5860377" lon="7.6497966">
    <tag k="addr:city" v="Frutigen"/>
    <tag k="addr:country" v="CH"/>
    <tag k="addr:housenumber" v="3"/>
    <tag k="addr:postcode" v="3714"/>
    <tag k="addr:street" v="Baumgartenstrasse"/>
    <tag k="source" v="survey"/>
  </node>
  <node id="738876539" version="1" timestamp="2010-05-18T19:19:23Z" uid="55964" user="Evan Sebire" changeset="4741899" lat="46.5857636" lon="7.6498815">
    <tag k="addr:city" v="Frutigen"/>
    <tag k="addr:country" v="CH"/>
    <tag k="addr:housenumber" v="5"/>
    <tag k="addr:postcode" v="3714"/>
    <tag k="addr:street" v="Baumgartenstrasse"/>
    <tag k="source" v="survey"/>
  </node>
  <node id="738876540" version="1" timestamp="2010-05-18T19:19:23Z" uid="55964" user="Evan Sebire" changeset="4741899" lat="46.5858789" lon="7.6497406">
    <tag k="addr:city" v="Frutigen"/>
    <tag k="addr:country" v="CH"/>
    <tag k="addr:housenumber" v="4"/>
    <tag k="addr:postcode" v="3714"/>
    <tag k="addr:street" v="Baumgartenstrasse"/>
    <tag k="source" v="survey"/>
  </node>
  <node id="738876542" version="1" timestamp="2010-05-18T19:19:24Z" uid="55964" user="Evan Sebire" changeset="4741899" lat="46.5857304" lon="7.6497587">
    <tag k="addr:city" v="Frutigen"/>
    <tag k="addr:country" v="CH"/>
    <tag k="addr:housenumber" v="6"/>
    <tag k="addr:postcode" v="3714"/>
    <tag k="addr:street" v="Baumgartenstrasse"/>
    <tag k="source" v="survey"/>
  </node>
  <node id="738876549" version="1" timestamp="2010-05-18T19:19:26Z" uid="55964" user="Evan Sebire" changeset="4741899" lat="46.5854416" lon="7.6497366">
    <tag k="addr:city" v="Frutigen"/>
    <tag k="addr:country" v="CH"/>
    <tag k="addr:housenumber" v="10"/>
    <tag k="addr:postcode" v="3714"/>
    <tag k="addr:street" v="Baumgartenstrasse"/>
    <tag k="amenity" v="place_of_worship"/>
    <tag k="denomination" v="new_apostolic"/>
    <tag k="name" v="Neuapostolische Kirche"/>
    <tag k="opening_hours" v="Su 9:30; Th 20:00"/>
    <tag k="phone" v="+41 33 654 6746"/>
    <tag k="religion" v="christian"/>
    <tag k="source" v="survey"/>
    <tag k="url" v="http://www.nak.ch"/>
  </node>
  <node id="738876553" version="1" timestamp="2010-05-18T19:19:27Z" uid="55964" user="Evan Sebire" changeset="4741899" lat="46.5853285" lon="7.6499104">
    <tag k="addr:city" v="Frutigen"/>
    <tag k="addr:country" v="CH"/>
    <tag k="addr:housenumber" v="9"/>
    <tag k="addr:postcode" v="3714"/>
    <tag k="addr:street" v="Baumgartenstrasse"/>
    <tag k="source" v="survey"/>
  </node>
  <node id="738876557" version="1" timestamp="2010-05-18T19:19:27Z" uid="55964" user="Evan Sebire" changeset="4741899" lat="46.5851704" lon="7.6499205">
    <tag k="addr:city" v="Frutigen"/>
    <tag k="addr:country" v="CH"/>
    <tag k="addr:housenumber" v="11"/>
    <tag k="addr:postcode" v="3714"/>
    <tag k="addr:street" v="Baumgartenstrasse"/>
    <tag k="source" v="survey"/>
  </node>
  <node id="738876560" version="1" timestamp="2010-05-18T19:19:28Z" uid="55964" user="Evan Sebire" changeset="4741899" lat="46.5850949" lon="7.6498191">
    <tag k="addr:city" v="Frutigen"/>
    <tag k="addr:country" v="CH"/>
    <tag k="addr:housenumber" v="14"/>
    <tag k="addr:postcode" v="3714"/>
    <tag k="addr:street" v="Baumgartenstrasse"/>
    <tag k="source" v="survey"/>
  </node>
  <node id="738876561" version="1" timestamp="2010-05-18T19:19:29Z" uid="55964" user="Evan Sebire" changeset="4741899" lat="46.5850081" lon="7.6499469">
    <tag k="addr:city" v="Frutigen"/>
    <tag k="addr:country" v="CH"/>
    <tag k="addr:housenumber" v="13"/>
    <tag k="addr:postcode" v="3714"/>
    <tag k="addr:street" v="Baumgartenstrasse"/>
    <tag k="source" v="survey"/>
  </node>
  <node id="738876564" version="1" timestamp="2010-05-18T19:19:29Z" uid="55964" user="Evan Sebire" changeset="4741899" lat="46.5848706" lon="7.6500714">
    <tag k="addr:city" v="Frutigen"/>
    <tag k="addr:country" v="CH"/>
    <tag k="addr:housenumber" v="15"/>
    <tag k="addr:postcode" v="3714"/>
    <tag k="addr:street" v="Baumgartenstrasse"/>
    <tag k="source" v="survey"/>
  </node>
  <node id="738877777" version="2" timestamp="2010-07-25T16:16:14Z" uid="33382" user="de_muur" changeset="5313410" lat="53.0966196" lon="9.1318894"/>
</osm>
