<?xml version='1.0' encoding='UTF-8'?>
<osm version="0.6" generator="libosmium/2.20.0">
  <node id="741332869" version="2" timestamp="2010-10-16T19:26:43Z" uid="20587" user="balrog-kun" changeset="6060671" lat="52.057426" lon="19.178463">
    <tag k="name" v="Osiedle 22 Lipca"/>
    <tag k="place" v="suburb"/>
  </node>
  <node id="741332907" version="2" timestamp="2010-10-16T19:37:47Z" uid="20587" user="balrog-kun" changeset="6060770" lat="52.0580461" lon="19.1891704">
    <tag k="name" v="Osiedle Medyk"/>
    <tag k="place" v="suburb"/>
  </node>
  <node id="741332924" version="2" timestamp="2010-10-16T19:37:48Z" uid="20587" user="balrog-kun" changeset="6060770" lat="52.060909" lon="19.1903935">
    <tag k="name" v="Osiedle Zachodnie"/>
    <tag k="place" v="suburb"/>
  </node>
  <node id="741333560" version="2" timestamp="2010-10-16T19:37:57Z" uid="20587" user="balrog-kun" changeset="6060770" lat="52.0613047" lon="19.19417">
    <tag k="name" v="Osiedle Marii Konopnickiej"/>
    <tag k="place" v="suburb"/>
  </node>
  <node id="741333976" version="2" timestamp="2010-10-16T19:37:49Z" uid="20587" user="balrog-kun" changeset="6060770" lat="52.0614103" lon="19.1971312">
    <tag k="addr:housenumber" v="Osiedle DominikaÅ„ska"/>
    <tag k="place" v="suburb"/>
  </node>
</osm>
