<?xml version='1.0' encoding='UTF-8'?>
<osm version="0.6" generator="libosmium/2.20.0">
  <node id="742682450" version="1" timestamp="2010-05-21T15:58:41Z" uid="256927" user="Timo Müller" changeset="4767287" lat="49.4085163" lon="8.68737">
    <tag k="addr:city" v="Heidelberg"/>
    <tag k="addr:country" v="DE"/>
    <tag k="addr:housenumber" v="46"/>
    <tag k="addr:street" v="Bergheimer Straße"/>
  </node>
  <node id="742682555" version="1" timestamp="2010-05-21T15:58:47Z" uid="256927" user="Timo Müller" changeset="4767287" lat="49.4077411" lon="8.684673">
    <tag k="addr:city" v="Heidelberg"/>
    <tag k="addr:country" v="DE"/>
    <tag k="addr:housenumber" v="81"/>
    <tag k="addr:street" v="Bergheimer Straße"/>
  </node>
  <node id="742682556" version="1" timestamp="2010-05-21T15:58:47Z" uid="256927" user="Timo Müller" changeset="4767287" lat="49.4077025" lon="8.6859083">
    <tag k="addr:city" v="Heidelberg"/>
    <tag k="addr:country" v="DE"/>
    <tag k="addr:housenumber" v="69a"/>
    <tag k="addr:street" v="Bergheimer Straße"/>
  </node>
  <node id="742682557" version="1" timestamp="2010-05-21T15:58:47Z" uid="256927" user="Timo Müller" changeset="4767287" lat="49.4088567" lon="8.6919329">
    <tag k="addr:city" v="Heidelberg"/>
    <tag k="addr:country" v="DE"/>
    <tag k="addr:housenumber" v="1b"/>
    <tag k="addr:street" v="Bergheimer Straße"/>
  </node>
  <node id="742682559" version="1" timestamp="2010-05-21T15:58:47Z" uid="256927" user="Timo Müller" changeset="4767287" lat="49.4081463" lon="8.6855132">
    <tag k="addr:housenumber" v="56a"/>
  </node>
  <node id="742682560" version="1" timestamp="2010-05-21T15:58:47Z" uid="256927" user="Timo Müller" changeset="4767287" lat="49.4075798" lon="8.6880721">
    <tag k="addr:city" v="Heidelberg"/>
    <tag k="addr:country" v="DE"/>
    <tag k="addr:housenumber" v="42"/>
    <tag k="addr:street" v="Poststraße"/>
  </node>
  <node id="742682561" version="1" timestamp="2010-05-21T15:58:48Z" uid="256927" user="Timo Müller" changeset="4767287" lat="49.408077" lon="8.6858661"/>
  <node id="742682562" version="1" timestamp="2010-05-21T15:58:48Z" uid="256927" user="Timo Müller" changeset="4767287" lat="49.4085407" lon="8.6850031"/>
  <node id="742682563" version="1" timestamp="2010-05-21T15:58:48Z" uid="256927" user="Timo Müller" changeset="4767287" lat="49.4089051" lon="8.6922069">
    <tag k="addr:city" v="Heidelberg"/>
    <tag k="addr:country" v="DE"/>
    <tag k="addr:housenumber" v="1"/>
    <tag k="addr:street" v="Bergheimer Straße"/>
  </node>
  <node id="742682564" version="1" timestamp="2010-05-21T15:58:48Z" uid="256927" user="Timo Müller" changeset="4767287" lat="49.4087036" lon="8.6909333">
    <tag k="addr:city" v="Heidelberg"/>
    <tag k="addr:country" v="DE"/>
    <tag k="addr:housenumber" v="13"/>
    <tag k="addr:street" v="Bergheimer Straße"/>
  </node>
  <node id="742682565" version="1" timestamp="2010-05-21T15:58:48Z" uid="256927" user="Timo Müller" changeset="4767287" lat="49.4081007" lon="8.6871812">
    <tag k="addr:city" v="Heidelberg"/>
    <tag k="addr:country" v="DE"/>
    <tag k="addr:housenumber" v="59"/>
    <tag k="addr:street" v="Bergheimer Straße"/>
  </node>
  <node id="742682566" version="1" timestamp="2010-05-21T15:58:48Z" uid="256927" user="Timo Müller" changeset="4767287" lat="49.4079099" lon="8.6879999">
    <tag k="addr:city" v="Heidelberg"/>
    <tag k="addr:country" v="DE"/>
    <tag k="addr:housenumber" v="46"/>
    <tag k="addr:street" v="Poststraße"/>
  </node>
  <node id="742682568" version="1" timestamp="2010-05-21T15:58:48Z" uid="256927" user="Timo Müller" changeset="4767287" lat="49.4085486" lon="8.6876246">
    <tag k="addr:city" v="Heidelberg"/>
    <tag k="addr:country" v="DE"/>
    <tag k="addr:housenumber" v="44"/>
    <tag k="addr:street" v="Bergheimer Straße"/>
  </node>
  <node id="742682569" version="1" timestamp="2010-05-21T15:58:48Z" uid="256927" user="Timo Müller" changeset="4767287" lat="49.4090514" lon="8.6917732">
    <tag k="addr:city" v="Heidelberg"/>
    <tag k="addr:country" v="DE"/>
    <tag k="addr:housenumber" v="10-12"/>
    <tag k="addr:street" v="Bergheimer Straße"/>
  </node>
  <node id="742682570" version="1" timestamp="2010-05-21T15:58:48Z" uid="256927" user="Timo Müller" changeset="4767287" lat="49.4082166" lon="8.6863449">
    <tag k="addr:city" v="Heidelberg"/>
    <tag k="addr:country" v="DE"/>
    <tag k="addr:housenumber" v="54"/>
    <tag k="addr:street" v="Bergheimer Straße"/>
  </node>
  <node id="742682571" version="1" timestamp="2010-05-21T15:58:48Z" uid="256927" user="Timo Müller" changeset="4767287" lat="49.40822" lon="8.6879904">
    <tag k="barrier" v="chain"/>
  </node>
  <node id="742682573" version="1" timestamp="2010-05-21T15:58:48Z" uid="256927" user="Timo Müller" changeset="4767287" lat="49.4088447" lon="8.6917637">
    <tag k="addr:city" v="Heidelberg"/>
    <tag k="addr:country" v="DE"/>
    <tag k="addr:housenumber" v="1a"/>
    <tag k="addr:street" v="Bergheimer Straße"/>
  </node>
  <node id="742682574" version="1" timestamp="2010-05-21T15:58:48Z" uid="256927" user="Timo Müller" changeset="4767287" lat="49.4089934" lon="8.6913703">
    <tag k="addr:city" v="Heidelberg"/>
    <tag k="addr:country" v="DE"/>
    <tag k="addr:housenumber" v="14"/>
    <tag k="addr:street" v="Bergheimer Straße"/>
  </node>
  <node id="742682575" version="1" timestamp="2010-05-21T15:58:48Z" uid="256927" user="Timo Müller" changeset="4767287" lat="49.4085757" lon="8.6901">
    <tag k="addr:city" v="Heidelberg"/>
    <tag k="addr:country" v="DE"/>
    <tag k="addr:housenumber" v="23"/>
    <tag k="addr:street" v="Bergheimer Straße"/>
  </node>
  <node id="742682577" version="1" timestamp="2010-05-21T15:58:48Z" uid="256927" user="Timo Müller" changeset="4767287" lat="49.4081827" lon="8.6861189">
    <tag k="addr:city" v="Heidelberg"/>
    <tag k="addr:country" v="DE"/>
    <tag k="addr:housenumber" v="56"/>
    <tag k="addr:street" v="Bergheimer Straße"/>
  </node>
  <node id="742682579" version="1" timestamp="2010-05-21T15:58:49Z" uid="256927" user="Timo Müller" changeset="4767287" lat="49.4082946" lon="8.6857845"/>
  <node id="742682580" version="1" timestamp="2010-05-21T15:58:49Z" uid="256927" user="Timo Müller" changeset="4767287" lat="49.408728" lon="8.6910548">
    <tag k="addr:city" v="Heidelberg"/>
    <tag k="addr:country" v="DE"/>
    <tag k="addr:housenumber" v="9-11"/>
    <tag k="addr:street" v="Bergheimer Straße"/>
  </node>
  <node id="742682582" version="1" timestamp="2010-05-21T15:58:49Z" uid="256927" user="Timo Müller" changeset="4767287" lat="49.4083752" lon="8.6850444"/>
  <node id="742682584" version="1" timestamp="2010-05-21T15:58:49Z" uid="256927" user="Timo Müller" changeset="4767287" lat="49.4087842" lon="8.6849689"/>
  <node id="742682585" version="1" timestamp="2010-05-21T15:58:49Z" uid="256927" user="Timo Müller" changeset="4767287" lat="49.4075236" lon="8.6881866">
    <tag k="barrier" v="chain"/>
  </node>
  <node id="742682586" version="1" timestamp="2010-05-21T15:58:49Z" uid="256927" user="Timo Müller" changeset="4767287" lat="49.4082681" lon="8.6866189">
    <tag k="addr:city" v="Heidelberg"/>
    <tag k="addr:country" v="DE"/>
    <tag k="addr:housenumber" v="52"/>
    <tag k="addr:street" v="Bergheimer Straße"/>
  </node>
  <node id="742682588" version="1" timestamp="2010-05-21T15:58:49Z" uid="256927" user="Timo Müller" changeset="4767287" lat="49.4077093" lon="8.6842022">
    <tag k="addr:city" v="Heidelberg"/>
    <tag k="addr:country" v="DE"/>
    <tag k="addr:housenumber" v="85"/>
    <tag k="addr:street" v="Bergheimer Straße"/>
  </node>
  <node id="742682588" version="2" timestamp="2010-05-24T17:38:38Z" uid="256927" user="Timo Müller" changeset="4796195" lat="49.4077093" lon="8.6842022">
    <tag k="addr:city" v="Heidelberg"/>
    <tag k="addr:country" v="DE"/>
    <tag k="addr:housenumber" v="85"/>
    <tag k="addr:street" v="Bergheimer Straße"/>
  </node>
  <node id="742682590" version="1" timestamp="2010-05-21T15:58:49Z" uid="256927" user="Timo Müller" changeset="4767287" lat="49.4080615" lon="8.6869522">
    <tag k="addr:city" v="Heidelberg"/>
    <tag k="addr:country" v="DE"/>
    <tag k="addr:housenumber" v="61"/>
    <tag k="addr:street" v="Bergheimer Straße"/>
  </node>
  <node id="742682592" version="1" timestamp="2010-05-21T15:58:49Z" uid="256927" user="Timo Müller" changeset="4767287" lat="49.4091159" lon="8.6920859">
    <tag k="addr:city" v="Heidelberg"/>
    <tag k="addr:country" v="DE"/>
    <tag k="addr:housenumber" v="8"/>
    <tag k="addr:street" v="Bergheimer Straße"/>
  </node>
  <node id="742682595" version="1" timestamp="2010-05-21T15:58:49Z" uid="256927" user="Timo Müller" changeset="4767287" lat="49.4087605" lon="8.6912393">
    <tag k="addr:city" v="Heidelberg"/>
    <tag k="addr:country" v="DE"/>
    <tag k="addr:housenumber" v="7"/>
    <tag k="addr:street" v="Bergheimer Straße"/>
  </node>
  <node id="742682597" version="1" timestamp="2010-05-21T15:58:49Z" uid="256927" user="Timo Müller" changeset="4767287" lat="49.4069765" lon="8.686366"/>
  <node id="742682599" version="1" timestamp="2010-05-21T15:58:49Z" uid="256927" user="Timo Müller" changeset="4767287" lat="49.4083967" lon="8.6889725">
    <tag k="addr:city" v="Heidelberg"/>
    <tag k="addr:country" v="DE"/>
    <tag k="addr:housenumber" v="39"/>
    <tag k="addr:street" v="Bergheimer Straße"/>
  </node>
  <node id="742682601" version="1" timestamp="2010-05-21T15:58:49Z" uid="256927" user="Timo Müller" changeset="4767287" lat="49.4087347" lon="8.685021"/>
</osm>
