<?xml version='1.0' encoding='UTF-8'?>
<osm version="0.6" generator="libosmium/2.20.0">
  <node id="745911527" version="2" timestamp="2011-02-08T11:20:57Z" uid="115477" user="wowik" changeset="7225520" lat="56.5496688" lon="37.5580033"/>
  <node id="745911548" version="2" timestamp="2011-02-07T17:46:31Z" uid="115477" user="wowik" changeset="7218565" lat="56.5511234" lon="37.5582384"/>
  <node id="745911572" version="2" timestamp="2011-02-07T17:46:28Z" uid="115477" user="wowik" changeset="7218565" lat="56.5505504" lon="37.5573288"/>
  <node id="745911601" version="2" timestamp="2011-02-08T11:20:52Z" uid="115477" user="wowik" changeset="7225520" lat="56.5497425" lon="37.557509"/>
  <node id="745911653" version="2" timestamp="2011-02-07T17:46:16Z" uid="115477" user="wowik" changeset="7218565" lat="56.54979" lon="37.5567526"/>
  <node id="745911674" version="2" timestamp="2011-02-07T17:46:32Z" uid="115477" user="wowik" changeset="7218565" lat="56.5482524" lon="37.5568924"/>
  <node id="745911803" version="2" timestamp="2011-02-08T11:21:03Z" uid="115477" user="wowik" changeset="7225520" lat="56.5494221" lon="37.5583958"/>
  <node id="745914899" version="2" timestamp="2010-07-29T09:32:10Z" uid="74617" user="JohnSmith" changeset="5344848" lat="51.8885712" lon="13.8396938">
    <tag k="amenity" v="emergency_phone"/>
    <tag k="emergency" v="phone"/>
    <tag k="operator" v="Autobahnmeisterei"/>
  </node>
  <node id="745914906" version="2" timestamp="2010-07-29T09:36:18Z" uid="74617" user="JohnSmith" changeset="5344848" lat="51.8657231" lon="13.9003879">
    <tag k="amenity" v="emergency_phone"/>
    <tag k="emergency" v="phone"/>
    <tag k="operator" v="Autobahnmeisterei"/>
  </node>
  <node id="745914929" version="2" timestamp="2010-07-29T09:06:38Z" uid="74617" user="JohnSmith" changeset="5344848" lat="51.8848057" lon="13.8583592">
    <tag k="amenity" v="emergency_phone"/>
    <tag k="emergency" v="phone"/>
    <tag k="operator" v="Autobahnmeisterei"/>
  </node>
  <node id="745914933" version="2" timestamp="2010-07-29T09:33:20Z" uid="74617" user="JohnSmith" changeset="5344848" lat="51.8767016" lon="13.8885811">
    <tag k="amenity" v="emergency_phone"/>
    <tag k="emergency" v="phone"/>
    <tag k="operator" v="Autobahnmeisterei"/>
  </node>
  <node id="745914938" version="2" timestamp="2010-07-29T09:40:51Z" uid="74617" user="JohnSmith" changeset="5344848" lat="51.8975514" lon="13.8163487">
    <tag k="amenity" v="emergency_phone"/>
    <tag k="emergency" v="phone"/>
    <tag k="operator" v="Autobahnmeisterei"/>
  </node>
  <node id="745914942" version="2" timestamp="2010-07-29T09:24:20Z" uid="74617" user="JohnSmith" changeset="5344848" lat="51.865626" lon="13.8999306">
    <tag k="amenity" v="emergency_phone"/>
    <tag k="emergency" v="phone"/>
    <tag k="operator" v="Autobahnmeisterei"/>
  </node>
  <node id="745914950" version="2" timestamp="2010-07-29T09:25:22Z" uid="74617" user="JohnSmith" changeset="5344848" lat="51.888853" lon="13.8398343">
    <tag k="amenity" v="emergency_phone"/>
    <tag k="emergency" v="phone"/>
    <tag k="operator" v="Autobahnmeisterei"/>
  </node>
  <node id="745914953" version="2" timestamp="2010-07-29T09:27:43Z" uid="74617" user="JohnSmith" changeset="5344848" lat="51.8845559" lon="13.8582902">
    <tag k="amenity" v="emergency_phone"/>
    <tag k="emergency" v="phone"/>
    <tag k="operator" v="Autobahnmeisterei"/>
  </node>
  <node id="745914956" version="2" timestamp="2010-07-29T09:02:09Z" uid="74617" user="JohnSmith" changeset="5344848" lat="51.9005921" lon="13.8112608">
    <tag k="amenity" v="emergency_phone"/>
    <tag k="emergency" v="phone"/>
    <tag k="operator" v="Autobahnmeisterei"/>
  </node>
  <node id="745914967" version="2" timestamp="2010-07-29T09:07:40Z" uid="74617" user="JohnSmith" changeset="5344848" lat="51.8764963" lon="13.8883844">
    <tag k="amenity" v="emergency_phone"/>
    <tag k="emergency" v="phone"/>
    <tag k="operator" v="Autobahnmeisterei"/>
  </node>
  <node id="745917171" version="1" timestamp="2010-05-22T20:36:40Z" uid="59758" user="rendle" changeset="4778126" lat="51.1779722" lon="4.1363958">
    <tag k="highway" v="bus_stop"/>
    <tag k="name" v="Spreeuwestraat"/>
  </node>
  <node id="745919205" version="2" timestamp="2010-07-29T09:15:24Z" uid="74617" user="JohnSmith" changeset="5344848" lat="51.9394504" lon="13.7632525">
    <tag k="amenity" v="emergency_phone"/>
    <tag k="emergency" v="phone"/>
    <tag k="operator" v="Autobahnmeisterei"/>
  </node>
  <node id="745919209" version="2" timestamp="2010-07-29T09:41:18Z" uid="74617" user="JohnSmith" changeset="5344848" lat="51.9856579" lon="13.7321376">
    <tag k="amenity" v="emergency_phone"/>
    <tag k="emergency" v="phone"/>
    <tag k="operator" v="Autobahnmeisterei"/>
  </node>
  <node id="745919214" version="2" timestamp="2010-07-29T09:01:45Z" uid="74617" user="JohnSmith" changeset="5344848" lat="51.9556758" lon="13.7666914">
    <tag k="amenity" v="emergency_phone"/>
    <tag k="emergency" v="phone"/>
    <tag k="operator" v="Autobahnmeisterei"/>
  </node>
  <node id="745919217" version="2" timestamp="2010-07-29T09:06:58Z" uid="74617" user="JohnSmith" changeset="5344848" lat="51.9394607" lon="13.7628505">
    <tag k="amenity" v="emergency_phone"/>
    <tag k="emergency" v="phone"/>
    <tag k="operator" v="Autobahnmeisterei"/>
  </node>
  <node id="745919221" version="2" timestamp="2010-07-29T09:33:34Z" uid="74617" user="JohnSmith" changeset="5344848" lat="51.9130356" lon="13.7916206">
    <tag k="amenity" v="emergency_phone"/>
    <tag k="emergency" v="phone"/>
    <tag k="operator" v="Autobahnmeisterei"/>
  </node>
  <node id="745919227" version="2" timestamp="2010-07-29T09:01:21Z" uid="74617" user="JohnSmith" changeset="5344848" lat="51.9769468" lon="13.7429914">
    <tag k="amenity" v="emergency_phone"/>
    <tag k="emergency" v="phone"/>
    <tag k="operator" v="Autobahnmeisterei"/>
  </node>
  <node id="745919230" version="2" timestamp="2010-07-29T09:24:27Z" uid="74617" user="JohnSmith" changeset="5344848" lat="51.9558541" lon="13.7672167">
    <tag k="amenity" v="emergency_phone"/>
    <tag k="emergency" v="phone"/>
    <tag k="operator" v="Autobahnmeisterei"/>
  </node>
  <node id="745919234" version="2" timestamp="2010-07-29T09:41:57Z" uid="74617" user="JohnSmith" changeset="5344848" lat="51.9119015" lon="13.7940835">
    <tag k="amenity" v="emergency_phone"/>
    <tag k="emergency" v="phone"/>
    <tag k="operator" v="Autobahnmeisterei"/>
  </node>
  <node id="745919237" version="2" timestamp="2010-07-29T08:59:14Z" uid="74617" user="JohnSmith" changeset="5344848" lat="51.994274" lon="13.725793">
    <tag k="amenity" v="emergency_phone"/>
    <tag k="emergency" v="phone"/>
    <tag k="operator" v="Autobahnmeisterei"/>
  </node>
  <node id="745919241" version="2" timestamp="2010-07-29T09:27:48Z" uid="74617" user="JohnSmith" changeset="5344848" lat="51.970618" lon="13.7545657">
    <tag k="amenity" v="emergency_phone"/>
    <tag k="emergency" v="phone"/>
    <tag k="operator" v="Autobahnmeisterei"/>
  </node>
  <node id="745919245" version="2" timestamp="2010-07-29T09:12:25Z" uid="74617" user="JohnSmith" changeset="5344848" lat="52.0020725" lon="13.7205564">
    <tag k="amenity" v="emergency_phone"/>
    <tag k="emergency" v="phone"/>
    <tag k="operator" v="Autobahnmeisterei"/>
  </node>
  <node id="745919248" version="2" timestamp="2010-07-29T09:30:16Z" uid="74617" user="JohnSmith" changeset="5344848" lat="51.9859261" lon="13.7326735">
    <tag k="amenity" v="emergency_phone"/>
    <tag k="emergency" v="phone"/>
    <tag k="operator" v="Autobahnmeisterei"/>
  </node>
  <node id="745919253" version="2" timestamp="2010-07-29T09:21:16Z" uid="74617" user="JohnSmith" changeset="5344848" lat="51.9703213" lon="13.754126">
    <tag k="amenity" v="emergency_phone"/>
    <tag k="emergency" v="phone"/>
    <tag k="operator" v="Autobahnmeisterei"/>
  </node>
  <node id="745919259" version="2" timestamp="2010-07-29T09:34:06Z" uid="74617" user="JohnSmith" changeset="5344848" lat="51.9943965" lon="13.7252579">
    <tag k="amenity" v="emergency_phone"/>
    <tag k="emergency" v="phone"/>
    <tag k="operator" v="Autobahnmeisterei"/>
  </node>
  <node id="745919262" version="2" timestamp="2010-07-29T09:11:59Z" uid="74617" user="JohnSmith" changeset="5344848" lat="51.9251056" lon="13.7746986">
    <tag k="amenity" v="emergency_phone"/>
    <tag k="emergency" v="phone"/>
    <tag k="operator" v="Autobahnmeisterei"/>
  </node>
  <node id="745919265" version="2" timestamp="2010-07-29T09:23:16Z" uid="74617" user="JohnSmith" changeset="5344848" lat="51.9248603" lon="13.774238">
    <tag k="amenity" v="emergency_phone"/>
    <tag k="emergency" v="phone"/>
    <tag k="operator" v="Autobahnmeisterei"/>
  </node>
  <node id="745919268" version="2" timestamp="2010-07-29T09:42:27Z" uid="74617" user="JohnSmith" changeset="5344848" lat="52.0022507" lon="13.7209959">
    <tag k="amenity" v="emergency_phone"/>
    <tag k="emergency" v="phone"/>
    <tag k="operator" v="Autobahnmeisterei"/>
  </node>
</osm>
