<?xml version='1.0' encoding='UTF-8'?>
<osm version="0.6" generator="libosmium/2.20.0">
  <node id="747233862" version="1" timestamp="2010-05-24T17:38:25Z" uid="256927" user="Timo Müller" changeset="4796195" lat="49.4069903" lon="8.6855596">
    <tag k="addr:city" v="Heidelberg"/>
    <tag k="addr:country" v="DE"/>
    <tag k="addr:housenumber" v="6"/>
    <tag k="addr:street" v="Alte Glockengießerei"/>
  </node>
  <node id="747233866" version="1" timestamp="2010-05-24T17:38:25Z" uid="256927" user="Timo Müller" changeset="4796195" lat="49.4056883" lon="8.6790063">
    <tag k="addr:city" v="Heidelberg"/>
    <tag k="addr:country" v="DE"/>
    <tag k="addr:housenumber" v="34"/>
    <tag k="addr:postcode" v="69115"/>
    <tag k="addr:street" v="Kirchstraße"/>
  </node>
  <node id="747233868" version="1" timestamp="2010-05-24T17:38:25Z" uid="256927" user="Timo Müller" changeset="4796195" lat="49.4080829" lon="8.6813982">
    <tag k="name" v="Hotel Qube"/>
    <tag k="stars" v="4"/>
    <tag k="tourism" v="hotel"/>
  </node>
  <node id="747233871" version="1" timestamp="2010-05-24T17:38:25Z" uid="256927" user="Timo Müller" changeset="4796195" lat="49.4064394" lon="8.6821912">
    <tag k="addr:city" v="Heidelberg"/>
    <tag k="addr:country" v="DE"/>
    <tag k="addr:housenumber" v="3"/>
    <tag k="addr:street" v="Alte Eppelheimer Straße"/>
  </node>
  <node id="747233873" version="1" timestamp="2010-05-24T17:38:25Z" uid="256927" user="Timo Müller" changeset="4796195" lat="49.4087049" lon="8.6818741">
    <tag k="addr:city" v="Heidelberg"/>
    <tag k="addr:country" v="DE"/>
    <tag k="addr:housenumber" v="7b"/>
    <tag k="addr:street" v="Vangerowstraße"/>
  </node>
  <node id="747233882" version="1" timestamp="2010-05-24T17:38:26Z" uid="256927" user="Timo Müller" changeset="4796195" lat="49.4077879" lon="8.6841666">
    <tag k="crossing" v="uncontrolled"/>
    <tag k="crossing_ref" v="zebra"/>
    <tag k="highway" v="crossing"/>
  </node>
  <node id="747233883" version="1" timestamp="2010-05-24T17:38:26Z" uid="256927" user="Timo Müller" changeset="4796195" lat="49.406939" lon="8.6834258">
    <tag k="addr:city" v="Heidelberg"/>
    <tag k="addr:country" v="DE"/>
    <tag k="addr:housenumber" v="8"/>
    <tag k="addr:street" v="Alte Eppelheimer Straße"/>
  </node>
  <node id="747233885" version="1" timestamp="2010-05-24T17:38:26Z" uid="256927" user="Timo Müller" changeset="4796195" lat="49.4061751" lon="8.6773333">
    <tag k="addr:city" v="Heidelberg"/>
    <tag k="addr:country" v="DE"/>
    <tag k="addr:housenumber" v="48"/>
    <tag k="addr:street" v="Alte Eppelheimer Straße"/>
  </node>
  <node id="747233887" version="1" timestamp="2010-05-24T17:38:26Z" uid="256927" user="Timo Müller" changeset="4796195" lat="49.4083475" lon="8.6810641">
    <tag k="addr:city" v="Heidelberg"/>
    <tag k="addr:country" v="DE"/>
    <tag k="addr:housenumber" v="4"/>
    <tag k="addr:street" v="Bluntschlistraße"/>
  </node>
  <node id="747233889" version="1" timestamp="2010-05-24T17:38:26Z" uid="256927" user="Timo Müller" changeset="4796195" lat="49.4072034" lon="8.6820719">
    <tag k="addr:city" v="Heidelberg"/>
    <tag k="addr:country" v="DE"/>
    <tag k="addr:housenumber" v="12/1"/>
    <tag k="addr:street" v="Alte Eppelheimer Straße"/>
  </node>
  <node id="747233891" version="1" timestamp="2010-05-24T17:38:26Z" uid="256927" user="Timo Müller" changeset="4796195" lat="49.4076986" lon="8.6813368">
    <tag k="addr:city" v="Heidelberg"/>
    <tag k="addr:country" v="DE"/>
    <tag k="addr:housenumber" v="103"/>
    <tag k="addr:street" v="Bergheimer Straße"/>
  </node>
  <node id="747233894" version="1" timestamp="2010-05-24T17:38:26Z" uid="256927" user="Timo Müller" changeset="4796195" lat="49.4068865" lon="8.6853341">
    <tag k="addr:city" v="Heidelberg"/>
    <tag k="addr:country" v="DE"/>
    <tag k="addr:housenumber" v="10"/>
    <tag k="addr:street" v="Alte Glockengießerei"/>
  </node>
  <node id="747233896" version="1" timestamp="2010-05-24T17:38:26Z" uid="256927" user="Timo Müller" changeset="4796195" lat="49.4066632" lon="8.6809674">
    <tag k="addr:city" v="Heidelberg"/>
    <tag k="addr:country" v="DE"/>
    <tag k="addr:housenumber" v="16"/>
    <tag k="addr:street" v="Bluntschlistraße"/>
  </node>
  <node id="747233899" version="1" timestamp="2010-05-24T17:38:27Z" uid="256927" user="Timo Müller" changeset="4796195" lat="49.408005" lon="8.6788464">
    <tag k="addr:city" v="Heidelberg"/>
    <tag k="addr:country" v="DE"/>
    <tag k="addr:housenumber" v="90"/>
    <tag k="addr:street" v="Bergheimer Straße"/>
  </node>
  <node id="747233901" version="1" timestamp="2010-05-24T17:38:27Z" uid="256927" user="Timo Müller" changeset="4796195" lat="49.4065716" lon="8.6813627">
    <tag k="addr:city" v="Heidelberg"/>
    <tag k="addr:country" v="DE"/>
    <tag k="addr:housenumber" v="22"/>
    <tag k="addr:street" v="Alte Eppelheimer Straße"/>
  </node>
  <node id="747233903" version="1" timestamp="2010-05-24T17:38:27Z" uid="256927" user="Timo Müller" changeset="4796195" lat="49.4077036" lon="8.6833395">
    <tag k="addr:city" v="Heidelberg"/>
    <tag k="addr:country" v="DE"/>
    <tag k="addr:housenumber" v="89/1"/>
    <tag k="addr:street" v="Bergheimer Straße"/>
  </node>
  <node id="747233905" version="1" timestamp="2010-05-24T17:38:27Z" uid="256927" user="Timo Müller" changeset="4796195" lat="49.4072665" lon="8.6844779">
    <tag k="addr:city" v="Heidelberg"/>
    <tag k="addr:country" v="DE"/>
    <tag k="addr:housenumber" v="3"/>
    <tag k="addr:street" v="Römerstraße"/>
  </node>
  <node id="747233907" version="1" timestamp="2010-05-24T17:38:27Z" uid="256927" user="Timo Müller" changeset="4796195" lat="49.4074065" lon="8.6840414">
    <tag k="addr:city" v="Heidelberg"/>
    <tag k="addr:country" v="DE"/>
    <tag k="addr:housenumber" v="2"/>
    <tag k="addr:street" v="Alte Eppelheimer Straße"/>
  </node>
  <node id="747233909" version="1" timestamp="2010-05-24T17:38:27Z" uid="256927" user="Timo Müller" changeset="4796195" lat="49.4080111" lon="8.6821831">
    <tag k="addr:city" v="Heidelberg"/>
    <tag k="addr:country" v="DE"/>
    <tag k="addr:housenumber" v="68"/>
    <tag k="addr:street" v="Bergheimer Straße"/>
  </node>
  <node id="747233911" version="1" timestamp="2010-05-24T17:38:27Z" uid="256927" user="Timo Müller" changeset="4796195" lat="49.4064878" lon="8.6804215">
    <tag k="addr:city" v="Heidelberg"/>
    <tag k="addr:country" v="DE"/>
    <tag k="addr:housenumber" v="24/1"/>
    <tag k="addr:street" v="Alte Eppelheimer Straße"/>
  </node>
  <node id="747233913" version="1" timestamp="2010-05-24T17:38:27Z" uid="256927" user="Timo Müller" changeset="4796195" lat="49.4086162" lon="8.6824986">
    <tag k="amenity" v="place_of_worship"/>
    <tag k="denomination" v="protestant"/>
    <tag k="name" v="Luther-Kirche"/>
    <tag k="religion" v="christian"/>
  </node>
  <node id="747233914" version="1" timestamp="2010-05-24T17:38:27Z" uid="256927" user="Timo Müller" changeset="4796195" lat="49.4070648" lon="8.682275">
    <tag k="addr:city" v="Heidelberg"/>
    <tag k="addr:country" v="DE"/>
    <tag k="addr:housenumber" v="12"/>
    <tag k="addr:street" v="Alte Eppelheimer Straße"/>
  </node>
  <node id="747233917" version="1" timestamp="2010-05-24T17:38:27Z" uid="256927" user="Timo Müller" changeset="4796195" lat="49.4076529" lon="8.6782653">
    <tag k="addr:city" v="Heidelberg"/>
    <tag k="addr:country" v="DE"/>
    <tag k="addr:housenumber" v="127/1"/>
    <tag k="addr:street" v="Bergheimer Straße"/>
  </node>
  <node id="747233918" version="1" timestamp="2010-05-24T17:38:27Z" uid="256927" user="Timo Müller" changeset="4796195" lat="49.4061719" lon="8.678929">
    <tag k="addr:city" v="Heidelberg"/>
    <tag k="addr:country" v="DE"/>
    <tag k="addr:housenumber" v="11"/>
    <tag k="addr:street" v="Alte Eppelheimer Straße"/>
  </node>
  <node id="747233920" version="1" timestamp="2010-05-24T17:38:27Z" uid="256927" user="Timo Müller" changeset="4796195" lat="49.4074893" lon="8.6810077">
    <tag k="addr:city" v="Heidelberg"/>
    <tag k="addr:country" v="DE"/>
    <tag k="addr:housenumber" v="8"/>
    <tag k="addr:street" v="Bluntschlistraße"/>
  </node>
  <node id="747233922" version="1" timestamp="2010-05-24T17:38:27Z" uid="256927" user="Timo Müller" changeset="4796195" lat="49.407284" lon="8.681785">
    <tag k="addr:city" v="Heidelberg"/>
    <tag k="addr:country" v="DE"/>
    <tag k="addr:housenumber" v="14/2"/>
    <tag k="addr:street" v="Alte Eppelheimer Straße"/>
  </node>
  <node id="747233924" version="1" timestamp="2010-05-24T17:38:27Z" uid="256927" user="Timo Müller" changeset="4796195" lat="49.4076945" lon="8.6828872">
    <tag k="addr:city" v="Heidelberg"/>
    <tag k="addr:country" v="DE"/>
    <tag k="addr:housenumber" v="91"/>
    <tag k="addr:street" v="Bergheimer Straße"/>
  </node>
  <node id="747233926" version="1" timestamp="2010-05-24T17:38:27Z" uid="256927" user="Timo Müller" changeset="4796195" lat="49.4068941" lon="8.684521">
    <tag k="addr:city" v="Heidelberg"/>
    <tag k="addr:country" v="DE"/>
    <tag k="addr:housenumber" v="6"/>
    <tag k="addr:street" v="Römerstraße"/>
  </node>
  <node id="747233928" version="1" timestamp="2010-05-24T17:38:28Z" uid="256927" user="Timo Müller" changeset="4796195" lat="49.4066753" lon="8.6812495">
    <tag k="addr:city" v="Heidelberg"/>
    <tag k="addr:country" v="DE"/>
    <tag k="addr:housenumber" v="31"/>
    <tag k="addr:street" v="Bluntschlistraße"/>
  </node>
  <node id="747233931" version="1" timestamp="2010-05-24T17:38:28Z" uid="256927" user="Timo Müller" changeset="4796195" lat="49.4080111" lon="8.6818165">
    <tag k="addr:city" v="Heidelberg"/>
    <tag k="addr:country" v="DE"/>
    <tag k="addr:housenumber" v="70-72"/>
    <tag k="addr:street" v="Bergheimer Straße"/>
  </node>
  <node id="747233933" version="1" timestamp="2010-05-24T17:38:28Z" uid="256927" user="Timo Müller" changeset="4796195" lat="49.4064974" lon="8.6806987">
    <tag k="addr:city" v="Heidelberg"/>
    <tag k="addr:country" v="DE"/>
    <tag k="addr:housenumber" v="24"/>
    <tag k="addr:street" v="Alte Eppelheimer Straße"/>
  </node>
  <node id="747233935" version="1" timestamp="2010-05-24T17:38:28Z" uid="256927" user="Timo Müller" changeset="4796195" lat="49.4076996" lon="8.6836143">
    <tag k="addr:city" v="Heidelberg"/>
    <tag k="addr:country" v="DE"/>
    <tag k="addr:housenumber" v="87b"/>
    <tag k="addr:street" v="Bergheimer Straße"/>
  </node>
  <node id="747233937" version="1" timestamp="2010-05-24T17:38:28Z" uid="256927" user="Timo Müller" changeset="4796195" lat="49.4079423" lon="8.6788971">
    <tag k="crossing" v="uncontrolled"/>
    <tag k="crossing_ref" v="zebra"/>
    <tag k="highway" v="crossing"/>
  </node>
  <node id="747233939" version="1" timestamp="2010-05-24T17:38:28Z" uid="256927" user="Timo Müller" changeset="4796195" lat="49.4066715" lon="8.6827392">
    <tag k="addr:city" v="Heidelberg"/>
    <tag k="addr:country" v="DE"/>
    <tag k="addr:housenumber" v="10"/>
    <tag k="addr:street" v="Alte Eppelheimer Straße"/>
  </node>
  <node id="747233940" version="1" timestamp="2010-05-24T17:38:28Z" uid="256927" user="Timo Müller" changeset="4796195" lat="49.4077341" lon="8.677157">
    <tag k="addr:city" v="Heidelberg"/>
    <tag k="addr:country" v="DE"/>
    <tag k="addr:housenumber" v="137"/>
    <tag k="addr:street" v="Bergheimer Straße"/>
  </node>
  <node id="747233942" version="1" timestamp="2010-05-24T17:38:28Z" uid="256927" user="Timo Müller" changeset="4796195" lat="49.4063556" lon="8.6790192">
    <tag k="addr:city" v="Heidelberg"/>
    <tag k="addr:country" v="DE"/>
    <tag k="addr:housenumber" v="22/11"/>
    <tag k="addr:postcode" v="69115"/>
    <tag k="addr:street" v="Kirchstraße"/>
  </node>
  <node id="747233944" version="1" timestamp="2010-05-24T17:38:28Z" uid="256927" user="Timo Müller" changeset="4796195" lat="49.4060139" lon="8.6773978">
    <tag k="addr:city" v="Heidelberg"/>
    <tag k="addr:country" v="DE"/>
    <tag k="addr:housenumber" v="25"/>
    <tag k="addr:street" v="Alte Eppelheimer Straße"/>
  </node>
  <node id="747233946" version="1" timestamp="2010-05-24T17:38:28Z" uid="256927" user="Timo Müller" changeset="4796195" lat="49.408686" lon="8.6783161">
    <tag k="addr:city" v="Heidelberg"/>
    <tag k="addr:country" v="DE"/>
    <tag k="addr:housenumber" v="13"/>
    <tag k="addr:street" v="Vangerowstraße"/>
  </node>
  <node id="747233948" version="1" timestamp="2010-05-24T17:38:28Z" uid="256927" user="Timo Müller" changeset="4796195" lat="49.4072388" lon="8.6823749">
    <tag k="addr:city" v="Heidelberg"/>
    <tag k="addr:country" v="DE"/>
    <tag k="addr:housenumber" v="12/2"/>
    <tag k="addr:street" v="Alte Eppelheimer Straße"/>
  </node>
  <node id="747233950" version="1" timestamp="2010-05-24T17:38:28Z" uid="256927" user="Timo Müller" changeset="4796195" lat="49.4077016" lon="8.6802467">
    <tag k="addr:city" v="Heidelberg"/>
    <tag k="addr:country" v="DE"/>
    <tag k="addr:housenumber" v="109a"/>
    <tag k="addr:street" v="Bergheimer Straße"/>
  </node>
  <node id="747233951" version="1" timestamp="2010-05-24T17:38:28Z" uid="256927" user="Timo Müller" changeset="4796195" lat="49.4066864" lon="8.6849237">
    <tag k="addr:city" v="Heidelberg"/>
    <tag k="addr:country" v="DE"/>
    <tag k="addr:housenumber" v="11/1"/>
    <tag k="addr:street" v="Alte Glockengießerei"/>
  </node>
  <node id="747233953" version="1" timestamp="2010-05-24T17:38:28Z" uid="256927" user="Timo Müller" changeset="4796195" lat="49.407457" lon="8.6812616">
    <tag k="addr:city" v="Heidelberg"/>
    <tag k="addr:country" v="DE"/>
    <tag k="addr:housenumber" v="9"/>
    <tag k="addr:street" v="Bluntschlistraße"/>
  </node>
  <node id="747233955" version="1" timestamp="2010-05-24T17:38:28Z" uid="256927" user="Timo Müller" changeset="4796195" lat="49.4069842" lon="8.6817721">
    <tag k="addr:city" v="Heidelberg"/>
    <tag k="addr:country" v="DE"/>
    <tag k="addr:housenumber" v="14"/>
    <tag k="addr:street" v="Alte Eppelheimer Straße"/>
  </node>
  <node id="747233957" version="1" timestamp="2010-05-24T17:38:29Z" uid="256927" user="Timo Müller" changeset="4796195" lat="49.4077077" lon="8.6834642">
    <tag k="addr:city" v="Heidelberg"/>
    <tag k="addr:country" v="DE"/>
    <tag k="addr:housenumber" v="89"/>
    <tag k="addr:street" v="Bergheimer Straße"/>
  </node>
  <node id="747233959" version="1" timestamp="2010-05-24T17:38:29Z" uid="256927" user="Timo Müller" changeset="4796195" lat="49.4075882" lon="8.6844678">
    <tag k="addr:city" v="Heidelberg"/>
    <tag k="addr:country" v="DE"/>
    <tag k="addr:housenumber" v="1"/>
    <tag k="addr:street" v="Römerstraße"/>
  </node>
  <node id="747233961" version="1" timestamp="2010-05-24T17:38:29Z" uid="256927" user="Timo Müller" changeset="4796195" lat="49.4058753" lon="8.6789967">
    <tag k="addr:city" v="Heidelberg"/>
    <tag k="addr:country" v="DE"/>
    <tag k="addr:housenumber" v="24"/>
    <tag k="addr:postcode" v="69115"/>
    <tag k="addr:street" v="Kirchstraße"/>
  </node>
  <node id="747233963" version="1" timestamp="2010-05-24T17:38:29Z" uid="256927" user="Timo Müller" changeset="4796195" lat="49.4063975" lon="8.6794125">
    <tag k="addr:city" v="Heidelberg"/>
    <tag k="addr:country" v="DE"/>
    <tag k="addr:housenumber" v="26"/>
    <tag k="addr:street" v="Alte Eppelheimer Straße"/>
  </node>
  <node id="747233965" version="1" timestamp="2010-05-24T17:38:29Z" uid="256927" user="Timo Müller" changeset="4796195" lat="49.4077077" lon="8.6840311">
    <tag k="addr:city" v="Heidelberg"/>
    <tag k="addr:country" v="DE"/>
    <tag k="addr:housenumber" v="85"/>
    <tag k="addr:street" v="Bergheimer Straße"/>
  </node>
  <node id="747233967" version="1" timestamp="2010-05-24T17:38:29Z" uid="256927" user="Timo Müller" changeset="4796195" lat="49.4078736" lon="8.6841613">
    <tag k="crossing" v="uncontrolled"/>
    <tag k="crossing_ref" v="zebra"/>
    <tag k="highway" v="crossing"/>
  </node>
  <node id="747233969" version="1" timestamp="2010-05-24T17:38:29Z" uid="256927" user="Timo Müller" changeset="4796195" lat="49.4077219" lon="8.6782653">
    <tag k="addr:city" v="Heidelberg"/>
    <tag k="addr:country" v="DE"/>
    <tag k="addr:housenumber" v="127"/>
    <tag k="addr:street" v="Bergheimer Straße"/>
  </node>
  <node id="747233970" version="1" timestamp="2010-05-24T17:38:29Z" uid="256927" user="Timo Müller" changeset="4796195" lat="49.4066661" lon="8.6846046">
    <tag k="addr:city" v="Heidelberg"/>
    <tag k="addr:country" v="DE"/>
    <tag k="addr:housenumber" v="11"/>
    <tag k="addr:street" v="Alte Glockengießerei"/>
  </node>
  <node id="747233972" version="1" timestamp="2010-05-24T17:38:29Z" uid="256927" user="Timo Müller" changeset="4796195" lat="49.4083878" lon="8.6812817">
    <tag k="addr:city" v="Heidelberg"/>
    <tag k="addr:country" v="DE"/>
    <tag k="addr:housenumber" v="3"/>
    <tag k="addr:street" v="Bluntschlistraße"/>
  </node>
  <node id="747233974" version="1" timestamp="2010-05-24T17:38:29Z" uid="256927" user="Timo Müller" changeset="4796195" lat="49.4071357" lon="8.6817721">
    <tag k="addr:city" v="Heidelberg"/>
    <tag k="addr:country" v="DE"/>
    <tag k="addr:housenumber" v="14/1"/>
    <tag k="addr:street" v="Alte Eppelheimer Straße"/>
  </node>
  <node id="747233975" version="1" timestamp="2010-05-24T17:38:29Z" uid="256927" user="Timo Müller" changeset="4796195" lat="49.4077057" lon="8.6812597">
    <tag k="addr:city" v="Heidelberg"/>
    <tag k="addr:country" v="DE"/>
    <tag k="addr:housenumber" v="105"/>
    <tag k="addr:street" v="Bergheimer Straße"/>
  </node>
  <node id="747233977" version="1" timestamp="2010-05-24T17:38:29Z" uid="256927" user="Timo Müller" changeset="4796195" lat="49.4069751" lon="8.6853772">
    <tag k="addr:city" v="Heidelberg"/>
    <tag k="addr:country" v="DE"/>
    <tag k="addr:housenumber" v="8"/>
    <tag k="addr:street" v="Alte Glockengießerei"/>
  </node>
  <node id="747233979" version="1" timestamp="2010-05-24T17:38:29Z" uid="256927" user="Timo Müller" changeset="4796195" lat="49.4065262" lon="8.6790454">
    <tag k="addr:city" v="Heidelberg"/>
    <tag k="addr:country" v="DE"/>
    <tag k="addr:housenumber" v="22"/>
    <tag k="addr:postcode" v="69115"/>
    <tag k="addr:street" v="Kirchstraße"/>
  </node>
  <node id="747233981" version="1" timestamp="2010-05-24T17:38:29Z" uid="256927" user="Timo Müller" changeset="4796195" lat="49.4065812" lon="8.6815046">
    <tag k="addr:city" v="Heidelberg"/>
    <tag k="addr:country" v="DE"/>
    <tag k="addr:housenumber" v="18a"/>
    <tag k="addr:street" v="Alte Eppelheimer Straße"/>
  </node>
  <node id="747233983" version="1" timestamp="2010-05-24T17:38:29Z" uid="256927" user="Timo Müller" changeset="4796195" lat="49.4077067" lon="8.6838272">
    <tag k="addr:city" v="Heidelberg"/>
    <tag k="addr:country" v="DE"/>
    <tag k="addr:housenumber" v="87a"/>
    <tag k="addr:street" v="Bergheimer Straße"/>
  </node>
  <node id="747233985" version="1" timestamp="2010-05-24T17:38:29Z" uid="256927" user="Timo Müller" changeset="4796195" lat="49.4087059" lon="8.679946"/>
  <node id="747233987" version="1" timestamp="2010-05-24T17:38:29Z" uid="256927" user="Timo Müller" changeset="4796195" lat="49.4078348" lon="8.6789075">
    <tag k="crossing" v="uncontrolled"/>
    <tag k="crossing_ref" v="zebra"/>
    <tag k="highway" v="crossing"/>
  </node>
  <node id="747233988" version="1" timestamp="2010-05-24T17:38:29Z" uid="256927" user="Timo Müller" changeset="4796195" lat="49.4055239" lon="8.6790128">
    <tag k="addr:city" v="Heidelberg"/>
    <tag k="addr:country" v="DE"/>
    <tag k="addr:housenumber" v="36"/>
    <tag k="addr:postcode" v="69115"/>
    <tag k="addr:street" v="Kirchstraße"/>
  </node>
  <node id="747233992" version="1" timestamp="2010-05-24T17:38:30Z" uid="256927" user="Timo Müller" changeset="4796195" lat="49.4075668" lon="8.6782623">
    <tag k="addr:housenumber" v="127/2"/>
  </node>
  <node id="747233993" version="1" timestamp="2010-05-24T17:38:30Z" uid="256927" user="Timo Müller" changeset="4796195" lat="49.4063298" lon="8.6787807">
    <tag k="addr:city" v="Heidelberg"/>
    <tag k="addr:country" v="DE"/>
    <tag k="addr:housenumber" v="30"/>
    <tag k="addr:street" v="Alte Eppelheimer Straße"/>
  </node>
  <node id="747233995" version="1" timestamp="2010-05-24T17:38:30Z" uid="256927" user="Timo Müller" changeset="4796195" lat="49.4086968" lon="8.6813503">
    <tag k="addr:city" v="Heidelberg"/>
    <tag k="addr:country" v="DE"/>
    <tag k="addr:housenumber" v="7a"/>
    <tag k="addr:street" v="Vangerowstraße"/>
  </node>
  <node id="747233997" version="1" timestamp="2010-05-24T17:38:30Z" uid="256927" user="Timo Müller" changeset="4796195" lat="49.4087021" lon="8.6774578">
    <tag k="addr:city" v="Heidelberg"/>
    <tag k="addr:country" v="DE"/>
    <tag k="addr:housenumber" v="25"/>
    <tag k="addr:street" v="Vangerowstraße"/>
  </node>
  <node id="747233999" version="1" timestamp="2010-05-24T17:38:30Z" uid="256927" user="Timo Müller" changeset="4796195" lat="49.4066231" lon="8.6821621">
    <tag k="addr:city" v="Heidelberg"/>
    <tag k="addr:country" v="DE"/>
    <tag k="addr:housenumber" v="16"/>
    <tag k="addr:street" v="Alte Eppelheimer Straße"/>
  </node>
  <node id="747234001" version="1" timestamp="2010-05-24T17:38:30Z" uid="256927" user="Timo Müller" changeset="4796195" lat="49.4077026" lon="8.6805073">
    <tag k="addr:city" v="Heidelberg"/>
    <tag k="addr:country" v="DE"/>
    <tag k="addr:housenumber" v="109"/>
    <tag k="addr:street" v="Bergheimer Straße"/>
  </node>
  <node id="747234003" version="1" timestamp="2010-05-24T17:38:30Z" uid="256927" user="Timo Müller" changeset="4796195" lat="49.4066889" lon="8.6851669">
    <tag k="addr:city" v="Heidelberg"/>
    <tag k="addr:country" v="DE"/>
    <tag k="addr:housenumber" v="9"/>
    <tag k="addr:street" v="Alte Glockengießerei"/>
  </node>
  <node id="747234005" version="1" timestamp="2010-05-24T17:38:30Z" uid="256927" user="Timo Müller" changeset="4796195" lat="49.4082427" lon="8.6810561">
    <tag k="addr:city" v="Heidelberg"/>
    <tag k="addr:country" v="DE"/>
    <tag k="addr:housenumber" v="6"/>
    <tag k="addr:street" v="Bluntschlistraße"/>
  </node>
  <node id="747234007" version="1" timestamp="2010-05-24T17:38:30Z" uid="256927" user="Timo Müller" changeset="4796195" lat="49.4065877" lon="8.6816367">
    <tag k="addr:city" v="Heidelberg"/>
    <tag k="addr:country" v="DE"/>
    <tag k="addr:housenumber" v="18"/>
    <tag k="addr:street" v="Alte Eppelheimer Straße"/>
  </node>
  <node id="747234009" version="1" timestamp="2010-05-24T17:38:30Z" uid="256927" user="Timo Müller" changeset="4796195" lat="49.4076874" lon="8.6814879">
    <tag k="addr:city" v="Heidelberg"/>
    <tag k="addr:country" v="DE"/>
    <tag k="addr:housenumber" v="101a"/>
    <tag k="addr:street" v="Bergheimer Straße"/>
  </node>
</osm>
