<?xml version='1.0' encoding='UTF-8'?>
<osm version="0.6" generator="libosmium/2.20.0">
  <node id="747581080" version="1" timestamp="2010-05-25T00:11:28Z" uid="18775" user="drlizau" changeset="4799704" lat="-34.7479683" lon="146.5528242">
    <tag k="name" v="Sunshine Dry Cleaners"/>
    <tag k="shop" v="laundry"/>
  </node>
  <node id="747581084" version="1" timestamp="2010-05-25T00:11:28Z" uid="18775" user="drlizau" changeset="4799704" lat="-34.7472091" lon="146.5529321">
    <tag k="addr:housenumber" v="142"/>
    <tag k="amenity" v="bank"/>
    <tag k="operator" v="NAB"/>
  </node>
  <node id="747581086" version="1" timestamp="2010-05-25T00:11:28Z" uid="18775" user="drlizau" changeset="4799704" lat="-34.7476894" lon="146.5528595">
    <tag k="name" v="Narrandera Gateway Motor Inn"/>
    <tag k="tourism" v="motel"/>
  </node>
  <node id="747581088" version="1" timestamp="2010-05-25T00:11:28Z" uid="18775" user="drlizau" changeset="4799704" lat="-34.748816" lon="146.5527883"/>
  <node id="747581089" version="1" timestamp="2010-05-25T00:11:28Z" uid="18775" user="drlizau" changeset="4799704" lat="-34.748697" lon="146.5527145">
    <tag k="name" v="Narrandera Local Aboriginal Land Council"/>
    <tag k="office" v="quango"/>
  </node>
  <node id="747581095" version="1" timestamp="2010-05-25T00:11:28Z" uid="18775" user="drlizau" changeset="4799704" lat="-34.7485274" lon="146.5527563">
    <tag k="amenity" v="fast_food"/>
    <tag k="cuisine" v="fish_and_chips"/>
    <tag k="name" v="Narrandera Fish &amp; Chips"/>
  </node>
  <node id="747581096" version="1" timestamp="2010-05-25T00:11:28Z" uid="18775" user="drlizau" changeset="4799704" lat="-34.7490907" lon="146.5550827"/>
  <node id="747581097" version="1" timestamp="2010-05-25T00:11:28Z" uid="18775" user="drlizau" changeset="4799704" lat="-34.7473539" lon="146.5529026">
    <tag k="name" v="Matthews &amp; Dangar"/>
    <tag k="office" v="lawyer"/>
    <tag k="opening_hours" v="Mo-Fr 09:00-13:00; 14:00-17:00"/>
  </node>
  <node id="747581098" version="1" timestamp="2010-05-25T00:11:28Z" uid="18775" user="drlizau" changeset="4799704" lat="-34.7492167" lon="146.5525567">
    <tag k="amenity" v="fast_food"/>
    <tag k="cuisine" v="aussie"/>
  </node>
  <node id="747581099" version="1" timestamp="2010-05-25T00:11:28Z" uid="18775" user="drlizau" changeset="4799704" lat="-34.7478155" lon="146.5528498">
    <tag k="amenity" v="restaurant"/>
    <tag k="name" v="4 Cedars Restaurant"/>
  </node>
  <node id="747581100" version="1" timestamp="2010-05-25T00:11:29Z" uid="18775" user="drlizau" changeset="4799704" lat="-34.7470206" lon="146.5528819">
    <tag k="name" v="Rivcow Environmental"/>
    <tag k="office" v="company"/>
  </node>
  <node id="747581100" version="2" timestamp="2010-05-25T01:01:25Z" uid="18775" user="drlizau" changeset="4799704" lat="-34.7470206" lon="146.5528819">
    <tag k="addr:housenumber" v="2"/>
    <tag k="name" v="Rivcow Environmental"/>
    <tag k="office" v="company"/>
  </node>
  <node id="747581101" version="1" timestamp="2010-05-25T00:11:29Z" uid="18775" user="drlizau" changeset="4799704" lat="-34.7484685" lon="146.5502775"/>
  <node id="747581102" version="1" timestamp="2010-05-25T00:11:29Z" uid="18775" user="drlizau" changeset="4799704" lat="-34.7479789" lon="146.5528202">
    <tag k="name" v="Sunshine Dry Cleaners"/>
    <tag k="shop" v="dry_cleaning"/>
  </node>
</osm>
