<?xml version='1.0' encoding='UTF-8'?>
<osm version="0.6" generator="libosmium/2.20.0">
  <node id="747620911" version="3" timestamp="2010-06-22T02:06:27Z" uid="20587" user="balrog-kun" changeset="5047946" lat="14.5784162" lon="121.0571498">
    <tag k="amenity" v="atm"/>
    <tag k="name" v="BPI"/>
  </node>
  <node id="747620912" version="3" timestamp="2010-06-22T02:06:28Z" uid="20587" user="balrog-kun" changeset="5047946" lat="14.5772429" lon="121.058625">
    <tag k="atm" v="yes"/>
    <tag k="branch" v="Shaw Blvd.-Escriva Drive"/>
    <tag k="name" v="BDO"/>
  </node>
  <node id="747620920" version="3" timestamp="2010-06-22T02:06:28Z" uid="20587" user="balrog-kun" changeset="5047946" lat="14.5762668" lon="121.0597408">
    <tag k="name" v="Honda Motorali"/>
    <tag k="shop" v="motorcycle"/>
  </node>
  <node id="747620924" version="3" timestamp="2010-06-22T02:06:27Z" uid="20587" user="balrog-kun" changeset="5047946" lat="14.5778615" lon="121.0577699">
    <tag k="amenity" v="fast_food"/>
    <tag k="cuisine" v="burger"/>
    <tag k="name" v="Burger Machine"/>
  </node>
  <node id="747620925" version="3" timestamp="2010-06-22T02:06:29Z" uid="20587" user="balrog-kun" changeset="5047946" lat="14.5761474" lon="121.059789">
    <tag k="amenity" v="fast_food"/>
    <tag k="cuisine" v="burger"/>
    <tag k="name" v="Burger Machine"/>
  </node>
  <node id="747620931" version="3" timestamp="2010-06-22T02:06:27Z" uid="20587" user="balrog-kun" changeset="5047946" lat="14.5778399" lon="121.0580456">
    <tag k="name" v="Little Tykes"/>
    <tag k="shop" v="toys"/>
  </node>
  <node id="747620934" version="3" timestamp="2010-06-22T02:06:29Z" uid="20587" user="balrog-kun" changeset="5047946" lat="14.5765338" lon="121.059282">
    <tag k="name" v="Japan Surplus"/>
    <tag k="shop" v="electronics"/>
  </node>
  <node id="747620938" version="3" timestamp="2010-06-22T02:06:29Z" uid="20587" user="balrog-kun" changeset="5047946" lat="14.5767445" lon="121.0592794">
    <tag k="amenity" v="college"/>
    <tag k="name" v="STI College"/>
  </node>
  <node id="747620941" version="3" timestamp="2010-06-22T02:06:26Z" uid="20587" user="balrog-kun" changeset="5047946" lat="14.5802437" lon="121.0591346">
    <tag k="amenity" v="bank"/>
    <tag k="atm" v="yes"/>
    <tag k="branch" v="San Miguel"/>
    <tag k="name" v="Security Bank"/>
  </node>
  <node id="747620952" version="3" timestamp="2010-06-22T02:06:29Z" uid="20587" user="balrog-kun" changeset="5047946" lat="14.5760851" lon="121.060009">
    <tag k="amenity" v="restaurant"/>
    <tag k="name" v="Tip-C Restobar"/>
  </node>
  <node id="747625950" version="4" timestamp="2010-06-22T02:06:26Z" uid="20587" user="balrog-kun" changeset="5047946" lat="14.5816795" lon="121.0580748">
    <tag k="amenity" v="bank"/>
    <tag k="atm" v="yes"/>
    <tag k="branch" v="San Miguel - Ortigas"/>
    <tag k="name" v="BDO"/>
  </node>
  <node id="747625995" version="3" timestamp="2010-06-22T02:06:26Z" uid="20587" user="balrog-kun" changeset="5047946" lat="14.5814926" lon="121.0580748">
    <tag k="amenity" v="bank"/>
    <tag k="atm" v="yes"/>
    <tag k="branch" v="San Miguel"/>
    <tag k="name" v="Bank of Commerce"/>
  </node>
  <node id="747626034" version="3" timestamp="2010-06-22T02:06:26Z" uid="20587" user="balrog-kun" changeset="5047946" lat="14.5818976" lon="121.0580748">
    <tag k="amenity" v="bank"/>
    <tag k="atm" v="yes"/>
    <tag k="branch" v="San Miguel"/>
    <tag k="name" v="UCPB"/>
  </node>
  <node id="747626236" version="3" timestamp="2010-06-22T02:06:27Z" uid="20587" user="balrog-kun" changeset="5047946" lat="14.5781388" lon="121.0574954">
    <tag k="amenity" v="cafe"/>
    <tag k="internet_access" v="terminal"/>
    <tag k="name" v="CyberGate Cafe"/>
    <tag k="opening_hours" v="24/7"/>
  </node>
  <node id="747629390" version="3" timestamp="2010-06-22T02:06:28Z" uid="20587" user="balrog-kun" changeset="5047946" lat="14.5772199" lon="121.0591584">
    <tag k="amenity" v="cafe"/>
    <tag k="name" v="Ya kun Kaya Toast"/>
  </node>
</osm>
