<?xml version='1.0' encoding='UTF-8'?>
<osm version="0.6" generator="libosmium/2.20.0">
  <node id="749881284" version="2" timestamp="2010-07-28T20:06:56Z" uid="74617" user="JohnSmith" changeset="5339329" lat="42.5041402" lon="9.0009728">
    <tag k="emergency" v="fire_hydrant"/>
  </node>
  <node id="749881284" version="3" timestamp="2010-07-30T17:43:49Z" uid="74617" user="JohnSmith" changeset="5356742" lat="42.5041402" lon="9.0009728">
    <tag k="amenity" v="fire_hydrant"/>
    <tag k="emergency" v="fire_hydrant"/>
  </node>
  <node id="749884758" version="1" timestamp="2010-05-26T19:36:32Z" uid="256927" user="Timo Müller" changeset="4816161" lat="49.3435164" lon="8.6722463">
    <tag k="addr:city" v="Leimen"/>
    <tag k="addr:country" v="DE"/>
    <tag k="addr:housenumber" v="58"/>
    <tag k="addr:postcode" v="69181"/>
    <tag k="addr:street" v="Goethestraße"/>
  </node>
  <node id="749884762" version="1" timestamp="2010-05-26T19:36:32Z" uid="256927" user="Timo Müller" changeset="4816161" lat="49.3412172" lon="8.6711697">
    <tag k="addr:city" v="Leimen"/>
    <tag k="addr:country" v="DE"/>
    <tag k="addr:housenumber" v="43"/>
    <tag k="addr:postcode" v="69181"/>
    <tag k="addr:street" v="Konrad-Adenauer-Straße"/>
  </node>
  <node id="749884762" version="2" timestamp="2010-05-27T13:08:47Z" uid="256927" user="Timo Müller" changeset="4821832" lat="49.3412172" lon="8.6711697">
    <tag k="addr:city" v="Leimen"/>
    <tag k="addr:country" v="DE"/>
    <tag k="addr:housenumber" v="43"/>
    <tag k="addr:postcode" v="69181"/>
    <tag k="addr:street" v="Konrad-Adenauer-Straße"/>
  </node>
  <node id="749884767" version="1" timestamp="2010-05-26T19:36:32Z" uid="256927" user="Timo Müller" changeset="4816161" lat="49.3422379" lon="8.671329">
    <tag k="addr:city" v="Leimen"/>
    <tag k="addr:country" v="DE"/>
    <tag k="addr:housenumber" v="15"/>
    <tag k="addr:postcode" v="69181"/>
    <tag k="addr:street" v="Nelly-Sachs-Weg"/>
  </node>
  <node id="749884767" version="2" timestamp="2010-05-27T13:08:46Z" uid="256927" user="Timo Müller" changeset="4821832" lat="49.3422379" lon="8.671329">
    <tag k="addr:city" v="Leimen"/>
    <tag k="addr:country" v="DE"/>
    <tag k="addr:housenumber" v="15"/>
    <tag k="addr:postcode" v="69181"/>
    <tag k="addr:street" v="Nelly-Sachs-Weg"/>
  </node>
  <node id="749884769" version="1" timestamp="2010-05-26T19:36:32Z" uid="256927" user="Timo Müller" changeset="4816161" lat="49.3421957" lon="8.6697963">
    <tag k="addr:city" v="Leimen"/>
    <tag k="addr:country" v="DE"/>
    <tag k="addr:housenumber" v="3"/>
    <tag k="addr:postcode" v="69181"/>
    <tag k="addr:street" v="Berta-Benz-Weg"/>
  </node>
  <node id="749884769" version="2" timestamp="2010-05-27T13:08:44Z" uid="256927" user="Timo Müller" changeset="4821832" lat="49.3421957" lon="8.6697963">
    <tag k="addr:city" v="Leimen"/>
    <tag k="addr:country" v="DE"/>
    <tag k="addr:housenumber" v="3"/>
    <tag k="addr:postcode" v="69181"/>
    <tag k="addr:street" v="Berta-Benz-Weg"/>
  </node>
  <node id="749884772" version="1" timestamp="2010-05-26T19:36:32Z" uid="256927" user="Timo Müller" changeset="4816161" lat="49.3426953" lon="8.6722288">
    <tag k="addr:city" v="Leimen"/>
    <tag k="addr:country" v="DE"/>
    <tag k="addr:housenumber" v="3"/>
    <tag k="addr:postcode" v="69181"/>
    <tag k="addr:street" v="Nelly-Sachs-Weg"/>
  </node>
  <node id="749884772" version="2" timestamp="2010-05-27T13:08:45Z" uid="256927" user="Timo Müller" changeset="4821832" lat="49.3426953" lon="8.6722288">
    <tag k="addr:city" v="Leimen"/>
    <tag k="addr:country" v="DE"/>
    <tag k="addr:housenumber" v="3"/>
    <tag k="addr:postcode" v="69181"/>
    <tag k="addr:street" v="Nelly-Sachs-Weg"/>
  </node>
  <node id="749884776" version="1" timestamp="2010-05-26T19:36:32Z" uid="256927" user="Timo Müller" changeset="4816161" lat="49.3431817" lon="8.6722561">
    <tag k="addr:city" v="Leimen"/>
    <tag k="addr:country" v="DE"/>
    <tag k="addr:housenumber" v="49"/>
    <tag k="addr:postcode" v="69181"/>
    <tag k="addr:street" v="Goethestraße"/>
  </node>
  <node id="749884776" version="2" timestamp="2010-05-27T13:08:46Z" uid="256927" user="Timo Müller" changeset="4821832" lat="49.3431817" lon="8.6722561">
    <tag k="addr:city" v="Leimen"/>
    <tag k="addr:country" v="DE"/>
    <tag k="addr:housenumber" v="49"/>
    <tag k="addr:postcode" v="69181"/>
    <tag k="addr:street" v="Goethestraße"/>
  </node>
  <node id="749884780" version="1" timestamp="2010-05-26T19:36:32Z" uid="256927" user="Timo Müller" changeset="4816161" lat="49.3417325" lon="8.672052">
    <tag k="addr:city" v="Leimen"/>
    <tag k="addr:country" v="DE"/>
    <tag k="addr:housenumber" v="23"/>
    <tag k="addr:postcode" v="69181"/>
    <tag k="addr:street" v="Konrad-Adenauer-Straße"/>
  </node>
  <node id="749884785" version="1" timestamp="2010-05-26T19:36:32Z" uid="256927" user="Timo Müller" changeset="4816161" lat="49.3428498" lon="8.6726253">
    <tag k="addr:city" v="Leimen"/>
    <tag k="addr:country" v="DE"/>
    <tag k="addr:housenumber" v="45"/>
    <tag k="addr:postcode" v="69181"/>
    <tag k="addr:street" v="Goethestraße"/>
  </node>
  <node id="749884792" version="1" timestamp="2010-05-26T19:36:32Z" uid="256927" user="Timo Müller" changeset="4816161" lat="49.3418284" lon="8.6722438">
    <tag k="addr:city" v="Leimen"/>
    <tag k="addr:country" v="DE"/>
    <tag k="addr:housenumber" v="19"/>
    <tag k="addr:postcode" v="69181"/>
    <tag k="addr:street" v="Konrad-Adenauer-Straße"/>
  </node>
  <node id="749884800" version="1" timestamp="2010-05-26T19:36:32Z" uid="256927" user="Timo Müller" changeset="4816161" lat="49.341799" lon="8.670865">
    <tag k="barrier" v="gate"/>
  </node>
  <node id="749884803" version="1" timestamp="2010-05-26T19:36:32Z" uid="256927" user="Timo Müller" changeset="4816161" lat="49.3430884" lon="8.6726832">
    <tag k="addr:city" v="Leimen"/>
    <tag k="addr:country" v="DE"/>
    <tag k="addr:housenumber" v="46"/>
    <tag k="addr:postcode" v="69181"/>
    <tag k="addr:street" v="Goethestraße"/>
  </node>
  <node id="749884803" version="2" timestamp="2010-05-27T13:08:45Z" uid="256927" user="Timo Müller" changeset="4821832" lat="49.3430884" lon="8.6726832">
    <tag k="addr:city" v="Leimen"/>
    <tag k="addr:country" v="DE"/>
    <tag k="addr:housenumber" v="46"/>
    <tag k="addr:postcode" v="69181"/>
    <tag k="addr:street" v="Goethestraße"/>
  </node>
  <node id="749884807" version="1" timestamp="2010-05-26T19:36:32Z" uid="256927" user="Timo Müller" changeset="4816161" lat="49.3428258" lon="8.6721265">
    <tag k="addr:city" v="Leimen"/>
    <tag k="addr:country" v="DE"/>
    <tag k="addr:housenumber" v="6"/>
    <tag k="addr:postcode" v="69181"/>
    <tag k="addr:street" v="Nelly-Sachs-Weg"/>
  </node>
  <node id="749884811" version="1" timestamp="2010-05-26T19:36:32Z" uid="256927" user="Timo Müller" changeset="4816161" lat="49.3425128" lon="8.6697625">
    <tag k="addr:city" v="Leimen"/>
    <tag k="addr:country" v="DE"/>
    <tag k="addr:housenumber" v="68"/>
    <tag k="addr:postcode" v="69181"/>
    <tag k="addr:street" v="Wittelsbacherallee"/>
  </node>
  <node id="749884814" version="1" timestamp="2010-05-26T19:36:32Z" uid="256927" user="Timo Müller" changeset="4816161" lat="49.3421722" lon="8.6705808"/>
  <node id="749884817" version="1" timestamp="2010-05-26T19:36:33Z" uid="256927" user="Timo Müller" changeset="4816161" lat="49.3434342" lon="8.6719603">
    <tag k="addr:city" v="Leimen"/>
    <tag k="addr:country" v="DE"/>
    <tag k="addr:housenumber" v="57"/>
    <tag k="addr:postcode" v="69181"/>
    <tag k="addr:street" v="Goethestraße"/>
  </node>
  <node id="749884817" version="2" timestamp="2010-05-27T13:08:45Z" uid="256927" user="Timo Müller" changeset="4821832" lat="49.3434342" lon="8.6719603">
    <tag k="addr:city" v="Leimen"/>
    <tag k="addr:country" v="DE"/>
    <tag k="addr:housenumber" v="57"/>
    <tag k="addr:postcode" v="69181"/>
    <tag k="addr:street" v="Goethestraße"/>
  </node>
  <node id="749884822" version="1" timestamp="2010-05-26T19:36:33Z" uid="256927" user="Timo Müller" changeset="4816161" lat="49.3430842" lon="8.6723486">
    <tag k="addr:city" v="Leimen"/>
    <tag k="addr:country" v="DE"/>
    <tag k="addr:housenumber" v="47/1"/>
    <tag k="addr:postcode" v="69181"/>
    <tag k="addr:street" v="Goethestraße"/>
  </node>
  <node id="749884828" version="1" timestamp="2010-05-26T19:36:33Z" uid="256927" user="Timo Müller" changeset="4816161" lat="49.3416775" lon="8.6714765">
    <tag k="addr:city" v="Leimen"/>
    <tag k="addr:country" v="DE"/>
    <tag k="addr:housenumber" v="22"/>
    <tag k="addr:postcode" v="69181"/>
    <tag k="addr:street" v="Konrad-Adenauer-Straße"/>
  </node>
  <node id="749884833" version="1" timestamp="2010-05-26T19:36:33Z" uid="256927" user="Timo Müller" changeset="4816161" lat="49.3429691" lon="8.6728064">
    <tag k="addr:city" v="Leimen"/>
    <tag k="addr:country" v="DE"/>
    <tag k="addr:housenumber" v="44"/>
    <tag k="addr:postcode" v="69181"/>
    <tag k="addr:street" v="Goethestraße"/>
  </node>
  <node id="749884838" version="1" timestamp="2010-05-26T19:36:33Z" uid="256927" user="Timo Müller" changeset="4816161" lat="49.3421296" lon="8.6706593"/>
  <node id="749884841" version="1" timestamp="2010-05-26T19:36:33Z" uid="256927" user="Timo Müller" changeset="4816161" lat="49.3422258" lon="8.670512">
    <tag k="addr:city" v="Leimen"/>
    <tag k="addr:country" v="DE"/>
    <tag k="addr:housenumber" v="19"/>
    <tag k="addr:postcode" v="69181"/>
    <tag k="addr:street" v="Berta-Benz-Weg"/>
  </node>
  <node id="749884841" version="2" timestamp="2010-05-27T13:08:46Z" uid="256927" user="Timo Müller" changeset="4821832" lat="49.3422258" lon="8.670512">
    <tag k="addr:city" v="Leimen"/>
    <tag k="addr:country" v="DE"/>
    <tag k="addr:housenumber" v="19"/>
    <tag k="addr:postcode" v="69181"/>
    <tag k="addr:street" v="Berta-Benz-Weg"/>
  </node>
  <node id="749884845" version="1" timestamp="2010-05-26T19:36:33Z" uid="256927" user="Timo Müller" changeset="4816161" lat="49.3434022" lon="8.6723516">
    <tag k="addr:city" v="Leimen"/>
    <tag k="addr:country" v="DE"/>
    <tag k="addr:housenumber" v="52"/>
    <tag k="addr:postcode" v="69181"/>
    <tag k="addr:street" v="Goethestraße"/>
  </node>
  <node id="749884845" version="2" timestamp="2010-05-27T13:08:46Z" uid="256927" user="Timo Müller" changeset="4821832" lat="49.3434022" lon="8.6723516">
    <tag k="addr:city" v="Leimen"/>
    <tag k="addr:country" v="DE"/>
    <tag k="addr:housenumber" v="52"/>
    <tag k="addr:postcode" v="69181"/>
    <tag k="addr:street" v="Goethestraße"/>
  </node>
  <node id="749884854" version="1" timestamp="2010-05-26T19:36:33Z" uid="256927" user="Timo Müller" changeset="4816161" lat="49.3423498" lon="8.671166">
    <tag k="addr:city" v="Leimen"/>
    <tag k="addr:country" v="DE"/>
    <tag k="addr:housenumber" v="16"/>
    <tag k="addr:postcode" v="69181"/>
    <tag k="addr:street" v="Nelly-Sachs-Weg"/>
  </node>
  <node id="749884857" version="1" timestamp="2010-05-26T19:36:33Z" uid="256927" user="Timo Müller" changeset="4816161" lat="49.3420663" lon="8.6723128">
    <tag k="addr:city" v="Leimen"/>
    <tag k="addr:country" v="DE"/>
    <tag k="addr:housenumber" v="10a"/>
    <tag k="addr:postcode" v="69181"/>
    <tag k="addr:street" v="Konrad-Adenauer-Straße"/>
  </node>
  <node id="749884860" version="1" timestamp="2010-05-26T19:36:33Z" uid="256927" user="Timo Müller" changeset="4816161" lat="49.3427108" lon="8.673098">
    <tag k="addr:city" v="Leimen"/>
    <tag k="addr:country" v="DE"/>
    <tag k="addr:housenumber" v="38"/>
    <tag k="addr:postcode" v="69181"/>
    <tag k="addr:street" v="Goethestraße"/>
  </node>
  <node id="749884864" version="1" timestamp="2010-05-26T19:36:33Z" uid="256927" user="Timo Müller" changeset="4816161" lat="49.3418205" lon="8.6709553"/>
  <node id="749884868" version="1" timestamp="2010-05-26T19:36:33Z" uid="256927" user="Timo Müller" changeset="4816161" lat="49.342212" lon="8.6726146">
    <tag k="addr:city" v="Leimen"/>
    <tag k="addr:country" v="DE"/>
    <tag k="addr:housenumber" v="8"/>
    <tag k="addr:postcode" v="69181"/>
    <tag k="addr:street" v="Konrad-Adenauer-Straße"/>
  </node>
  <node id="749884874" version="1" timestamp="2010-05-26T19:36:33Z" uid="256927" user="Timo Müller" changeset="4816161" lat="49.342432" lon="8.6734228">
    <tag k="addr:city" v="Leimen"/>
    <tag k="addr:country" v="DE"/>
    <tag k="addr:housenumber" v="32"/>
    <tag k="addr:postcode" v="69181"/>
    <tag k="addr:street" v="Goethestraße"/>
  </node>
  <node id="749884883" version="1" timestamp="2010-05-26T19:36:33Z" uid="256927" user="Timo Müller" changeset="4816161" lat="49.3423882" lon="8.6716775">
    <tag k="addr:city" v="Leimen"/>
    <tag k="addr:country" v="DE"/>
    <tag k="addr:housenumber" v="11"/>
    <tag k="addr:postcode" v="69181"/>
    <tag k="addr:street" v="Nelly-Sachs-Weg"/>
  </node>
  <node id="749884883" version="2" timestamp="2010-05-27T13:08:45Z" uid="256927" user="Timo Müller" changeset="4821832" lat="49.3423882" lon="8.6716775">
    <tag k="addr:city" v="Leimen"/>
    <tag k="addr:country" v="DE"/>
    <tag k="addr:housenumber" v="11"/>
    <tag k="addr:postcode" v="69181"/>
    <tag k="addr:street" v="Nelly-Sachs-Weg"/>
  </node>
  <node id="749884892" version="1" timestamp="2010-05-26T19:36:33Z" uid="256927" user="Timo Müller" changeset="4816161" lat="49.3419614" lon="8.6724918">
    <tag k="addr:city" v="Leimen"/>
    <tag k="addr:country" v="DE"/>
    <tag k="addr:housenumber" v="13"/>
    <tag k="addr:postcode" v="69181"/>
    <tag k="addr:street" v="Konrad-Adenauer-Straße"/>
  </node>
  <node id="749884897" version="1" timestamp="2010-05-26T19:36:33Z" uid="256927" user="Timo Müller" changeset="4816161" lat="49.3424933" lon="8.6718375">
    <tag k="addr:city" v="Leimen"/>
    <tag k="addr:country" v="DE"/>
    <tag k="addr:housenumber" v="9"/>
    <tag k="addr:postcode" v="69181"/>
    <tag k="addr:street" v="Nelly-Sachs-Weg"/>
  </node>
  <node id="749884897" version="2" timestamp="2010-05-27T13:08:47Z" uid="256927" user="Timo Müller" changeset="4821832" lat="49.3424933" lon="8.6718375">
    <tag k="addr:city" v="Leimen"/>
    <tag k="addr:country" v="DE"/>
    <tag k="addr:housenumber" v="9"/>
    <tag k="addr:postcode" v="69181"/>
    <tag k="addr:street" v="Nelly-Sachs-Weg"/>
  </node>
  <node id="749884904" version="1" timestamp="2010-05-26T19:36:34Z" uid="256927" user="Timo Müller" changeset="4816161" lat="49.3415931" lon="8.6713256">
    <tag k="addr:city" v="Leimen"/>
    <tag k="addr:country" v="DE"/>
    <tag k="addr:housenumber" v="24"/>
    <tag k="addr:postcode" v="69181"/>
    <tag k="addr:street" v="Konrad-Adenauer-Straße"/>
  </node>
  <node id="749884904" version="2" timestamp="2010-05-27T13:08:46Z" uid="256927" user="Timo Müller" changeset="4821832" lat="49.3415931" lon="8.6713256">
    <tag k="addr:city" v="Leimen"/>
    <tag k="addr:country" v="DE"/>
    <tag k="addr:housenumber" v="24"/>
    <tag k="addr:postcode" v="69181"/>
    <tag k="addr:street" v="Konrad-Adenauer-Straße"/>
  </node>
  <node id="749884909" version="1" timestamp="2010-05-26T19:36:34Z" uid="256927" user="Timo Müller" changeset="4816161" lat="49.3420845" lon="8.6710413">
    <tag k="addr:city" v="Leimen"/>
    <tag k="addr:country" v="DE"/>
    <tag k="addr:housenumber" v="19"/>
    <tag k="addr:postcode" v="69181"/>
    <tag k="addr:street" v="Nelly-Sachs-Weg"/>
  </node>
  <node id="749884909" version="2" timestamp="2010-05-27T13:08:44Z" uid="256927" user="Timo Müller" changeset="4821832" lat="49.3420845" lon="8.6710413">
    <tag k="addr:city" v="Leimen"/>
    <tag k="addr:country" v="DE"/>
    <tag k="addr:housenumber" v="19"/>
    <tag k="addr:postcode" v="69181"/>
    <tag k="addr:street" v="Nelly-Sachs-Weg"/>
  </node>
  <node id="749884914" version="1" timestamp="2010-05-26T19:36:34Z" uid="256927" user="Timo Müller" changeset="4816161" lat="49.3427542" lon="8.6723643">
    <tag k="addr:city" v="Leimen"/>
    <tag k="addr:country" v="DE"/>
    <tag k="addr:housenumber" v="3a"/>
    <tag k="addr:postcode" v="69181"/>
    <tag k="addr:street" v="Nelly-Sachs-Weg"/>
  </node>
  <node id="749884914" version="2" timestamp="2010-05-27T13:08:45Z" uid="256927" user="Timo Müller" changeset="4821832" lat="49.3427542" lon="8.6723643">
    <tag k="addr:city" v="Leimen"/>
    <tag k="addr:country" v="DE"/>
    <tag k="addr:housenumber" v="3a"/>
    <tag k="addr:postcode" v="69181"/>
    <tag k="addr:street" v="Nelly-Sachs-Weg"/>
  </node>
  <node id="749884918" version="1" timestamp="2010-05-26T19:36:34Z" uid="256927" user="Timo Müller" changeset="4816161" lat="49.3409895" lon="8.6703472">
    <tag k="addr:city" v="Leimen"/>
    <tag k="addr:country" v="DE"/>
    <tag k="addr:housenumber" v="10"/>
    <tag k="addr:postcode" v="69181"/>
    <tag k="addr:street" v="Fanny-Lewald-Weg"/>
  </node>
  <node id="749884924" version="1" timestamp="2010-05-26T19:36:34Z" uid="256927" user="Timo Müller" changeset="4816161" lat="49.3429998" lon="8.6724432">
    <tag k="addr:city" v="Leimen"/>
    <tag k="addr:country" v="DE"/>
    <tag k="addr:housenumber" v="47"/>
    <tag k="addr:postcode" v="69181"/>
    <tag k="addr:street" v="Goethestraße"/>
  </node>
  <node id="749884924" version="2" timestamp="2010-05-27T13:08:47Z" uid="256927" user="Timo Müller" changeset="4821832" lat="49.3429998" lon="8.6724432">
    <tag k="addr:city" v="Leimen"/>
    <tag k="addr:country" v="DE"/>
    <tag k="addr:housenumber" v="47"/>
    <tag k="addr:postcode" v="69181"/>
    <tag k="addr:street" v="Goethestraße"/>
  </node>
  <node id="749884931" version="1" timestamp="2010-05-26T19:36:34Z" uid="256927" user="Timo Müller" changeset="4816161" lat="49.3427977" lon="8.6730059">
    <tag k="addr:city" v="Leimen"/>
    <tag k="addr:country" v="DE"/>
    <tag k="addr:housenumber" v="40"/>
    <tag k="addr:postcode" v="69181"/>
    <tag k="addr:street" v="Goethestraße"/>
  </node>
  <node id="749884931" version="2" timestamp="2010-05-27T13:08:44Z" uid="256927" user="Timo Müller" changeset="4821832" lat="49.3427977" lon="8.6730059">
    <tag k="addr:city" v="Leimen"/>
    <tag k="addr:country" v="DE"/>
    <tag k="addr:housenumber" v="40"/>
    <tag k="addr:postcode" v="69181"/>
    <tag k="addr:street" v="Goethestraße"/>
  </node>
  <node id="749884939" version="1" timestamp="2010-05-26T19:36:34Z" uid="256927" user="Timo Müller" changeset="4816161" lat="49.3412273" lon="8.6709521">
    <tag k="addr:city" v="Leimen"/>
    <tag k="addr:country" v="DE"/>
    <tag k="addr:housenumber" v="49"/>
    <tag k="addr:postcode" v="69181"/>
    <tag k="addr:street" v="Konrad-Adenauer-Straße"/>
  </node>
  <node id="749884939" version="2" timestamp="2010-05-27T13:08:45Z" uid="256927" user="Timo Müller" changeset="4821832" lat="49.3412273" lon="8.6709521">
    <tag k="addr:city" v="Leimen"/>
    <tag k="addr:country" v="DE"/>
    <tag k="addr:housenumber" v="49"/>
    <tag k="addr:postcode" v="69181"/>
    <tag k="addr:street" v="Konrad-Adenauer-Straße"/>
  </node>
  <node id="749884942" version="1" timestamp="2010-05-26T19:36:34Z" uid="256927" user="Timo Müller" changeset="4816161" lat="49.3420326" lon="8.6697963">
    <tag k="addr:city" v="Leimen"/>
    <tag k="addr:country" v="DE"/>
    <tag k="addr:housenumber" v="41"/>
    <tag k="addr:postcode" v="69181"/>
    <tag k="addr:street" v="Berta-Benz-Weg"/>
  </node>
  <node id="749884945" version="1" timestamp="2010-05-26T19:36:34Z" uid="256927" user="Timo Müller" changeset="4816161" lat="49.3413897" lon="8.6713357">
    <tag k="addr:city" v="Leimen"/>
    <tag k="addr:country" v="DE"/>
    <tag k="addr:housenumber" v="41"/>
    <tag k="addr:postcode" v="69181"/>
    <tag k="addr:street" v="Konrad-Adenauer-Straße"/>
  </node>
  <node id="749884949" version="1" timestamp="2010-05-26T19:36:34Z" uid="256927" user="Timo Müller" changeset="4816161" lat="49.3409" lon="8.6705327">
    <tag k="addr:city" v="Leimen"/>
    <tag k="addr:country" v="DE"/>
    <tag k="addr:housenumber" v="3"/>
    <tag k="addr:postcode" v="69181"/>
    <tag k="addr:street" v="Fanny-Lewald-Weg"/>
  </node>
  <node id="749884952" version="1" timestamp="2010-05-26T19:36:34Z" uid="256927" user="Timo Müller" changeset="4816161" lat="49.3421421" lon="8.6707792"/>
  <node id="749884953" version="1" timestamp="2010-05-26T19:36:34Z" uid="256927" user="Timo Müller" changeset="4816161" lat="49.3421302" lon="8.672433">
    <tag k="addr:city" v="Leimen"/>
    <tag k="addr:country" v="DE"/>
    <tag k="addr:housenumber" v="10"/>
    <tag k="addr:postcode" v="69181"/>
    <tag k="addr:street" v="Konrad-Adenauer-Straße"/>
  </node>
  <node id="749884955" version="1" timestamp="2010-05-26T19:36:34Z" uid="256927" user="Timo Müller" changeset="4816161" lat="49.3421858" lon="8.6706562"/>
  <node id="749884957" version="1" timestamp="2010-05-26T19:36:34Z" uid="256927" user="Timo Müller" changeset="4816161" lat="49.3425317" lon="8.6733179">
    <tag k="addr:city" v="Leimen"/>
    <tag k="addr:country" v="DE"/>
    <tag k="addr:housenumber" v="30"/>
    <tag k="addr:postcode" v="69181"/>
    <tag k="addr:street" v="Goethestraße"/>
  </node>
  <node id="749884992" version="1" timestamp="2010-05-26T19:36:35Z" uid="256927" user="Timo Müller" changeset="4816161" lat="49.3412453" lon="8.6707552">
    <tag k="addr:city" v="Leimen"/>
    <tag k="addr:country" v="DE"/>
    <tag k="addr:housenumber" v="55"/>
    <tag k="addr:postcode" v="69181"/>
    <tag k="addr:street" v="Konrad-Adenauer-Straße"/>
    <tag k="name" v="McWeck"/>
    <tag k="shop" v="bakery"/>
  </node>
  <node id="749885001" version="1" timestamp="2010-05-26T19:36:35Z" uid="256927" user="Timo Müller" changeset="4816161" lat="49.3417909" lon="8.6708154"/>
  <node id="749885005" version="1" timestamp="2010-05-26T19:36:36Z" uid="256927" user="Timo Müller" changeset="4816161" lat="49.3424592" lon="8.6730618">
    <tag k="addr:city" v="Leimen"/>
    <tag k="addr:country" v="DE"/>
    <tag k="addr:housenumber" v="37"/>
    <tag k="addr:postcode" v="69181"/>
    <tag k="addr:street" v="Goethestraße"/>
  </node>
  <node id="749885011" version="1" timestamp="2010-05-26T19:36:36Z" uid="256927" user="Timo Müller" changeset="4816161" lat="49.3420404" lon="8.6701347">
    <tag k="addr:city" v="Leimen"/>
    <tag k="addr:country" v="DE"/>
    <tag k="addr:housenumber" v="10"/>
    <tag k="addr:postcode" v="69181"/>
    <tag k="addr:street" v="Berta-Benz-Weg"/>
  </node>
  <node id="749885021" version="1" timestamp="2010-05-26T19:36:36Z" uid="256927" user="Timo Müller" changeset="4816161" lat="49.3415039" lon="8.6711287">
    <tag k="barrier" v="cycle_barrier"/>
  </node>
  <node id="749885024" version="1" timestamp="2010-05-26T19:36:36Z" uid="256927" user="Timo Müller" changeset="4816161" lat="49.3424201" lon="8.6713418">
    <tag k="addr:city" v="Leimen"/>
    <tag k="addr:country" v="DE"/>
    <tag k="addr:housenumber" v="14"/>
    <tag k="addr:postcode" v="69181"/>
    <tag k="addr:street" v="Nelly-Sachs-Weg"/>
  </node>
  <node id="749885024" version="2" timestamp="2010-05-27T13:08:44Z" uid="256927" user="Timo Müller" changeset="4821832" lat="49.3424201" lon="8.6713418">
    <tag k="addr:city" v="Leimen"/>
    <tag k="addr:country" v="DE"/>
    <tag k="addr:housenumber" v="14"/>
    <tag k="addr:postcode" v="69181"/>
    <tag k="addr:street" v="Nelly-Sachs-Weg"/>
  </node>
  <node id="749885033" version="1" timestamp="2010-05-26T19:36:36Z" uid="256927" user="Timo Müller" changeset="4816161" lat="49.3412325" lon="8.6704753">
    <tag k="addr:city" v="Leimen"/>
    <tag k="addr:country" v="DE"/>
    <tag k="addr:housenumber" v="2"/>
    <tag k="addr:postcode" v="69181"/>
    <tag k="addr:street" v="Fanny-Lewald-Weg"/>
  </node>
  <node id="749885038" version="1" timestamp="2010-05-26T19:36:36Z" uid="256927" user="Timo Müller" changeset="4816161" lat="49.3422632" lon="8.6727399">
    <tag k="addr:city" v="Leimen"/>
    <tag k="addr:country" v="DE"/>
    <tag k="addr:housenumber" v="6"/>
    <tag k="addr:postcode" v="69181"/>
    <tag k="addr:street" v="Konrad-Adenauer-Straße"/>
  </node>
  <node id="749885038" version="2" timestamp="2010-05-27T13:08:46Z" uid="256927" user="Timo Müller" changeset="4821832" lat="49.3422632" lon="8.6727399">
    <tag k="addr:city" v="Leimen"/>
    <tag k="addr:country" v="DE"/>
    <tag k="addr:housenumber" v="6"/>
    <tag k="addr:postcode" v="69181"/>
    <tag k="addr:street" v="Konrad-Adenauer-Straße"/>
  </node>
</osm>
