<?xml version='1.0' encoding='UTF-8'?>
<osm version="0.6" generator="libosmium/2.20.0">
  <node id="75690052" version="9" timestamp="2009-12-07T00:08:47Z" uid="200463" user="harmagedon" changeset="3311752" lat="48.371445" lon="13.5773061">
    <tag k="is_in" v="Schärding"/>
    <tag k="name" v="Andorf"/>
    <tag k="openGeoDB:auto_update" v="population"/>
    <tag k="openGeoDB:community_identification_number" v="41402"/>
    <tag k="openGeoDB:is_in" v="Schärding,Oberösterreich,Österreich,Europe"/>
    <tag k="openGeoDB:is_in_loc_id" v="71868"/>
    <tag k="openGeoDB:layer" v="6"/>
    <tag k="openGeoDB:loc_id" v="71879"/>
    <tag k="openGeoDB:name" v="Andorf"/>
    <tag k="openGeoDB:population" v="4908"/>
    <tag k="openGeoDB:postal_codes" v="4770,4772"/>
    <tag k="openGeoDB:sort_name" v="ANDORF"/>
    <tag k="openGeoDB:type" v="Gemeinde"/>
    <tag k="openGeoDB:version" v="0.2.6.11 / 2007-12-04 / http://fa-technik.adfc.de/code/opengeodb/dump/"/>
    <tag k="opengeodb:lat" v="48.371445"/>
    <tag k="opengeodb:lon" v="13.5773061"/>
    <tag k="place" v="village"/>
    <tag k="population" v="4908"/>
  </node>
  <node id="75690052" version="10" timestamp="2009-12-07T11:57:53Z" uid="200463" user="harmagedon" changeset="3314630" lat="48.371445" lon="13.5773061">
    <tag k="is_in" v="Schärding"/>
    <tag k="name" v="Andorf"/>
    <tag k="openGeoDB:auto_update" v="population"/>
    <tag k="openGeoDB:community_identification_number" v="41402"/>
    <tag k="openGeoDB:is_in" v="Schärding,Oberösterreich,Österreich,Europe"/>
    <tag k="openGeoDB:is_in_loc_id" v="71868"/>
    <tag k="openGeoDB:layer" v="6"/>
    <tag k="openGeoDB:loc_id" v="71879"/>
    <tag k="openGeoDB:name" v="Andorf"/>
    <tag k="openGeoDB:population" v="4908"/>
    <tag k="openGeoDB:postal_codes" v="4770,4772"/>
    <tag k="openGeoDB:sort_name" v="ANDORF"/>
    <tag k="openGeoDB:type" v="Gemeinde"/>
    <tag k="openGeoDB:version" v="0.2.6.11 / 2007-12-04 / http://fa-technik.adfc.de/code/opengeodb/dump/"/>
    <tag k="opengeodb:lat" v="48.371445"/>
    <tag k="opengeodb:lon" v="13.5773061"/>
    <tag k="place" v="village"/>
    <tag k="population" v="4908"/>
  </node>
  <node id="75690602" version="2" timestamp="2009-12-07T00:08:47Z" uid="200463" user="harmagedon" changeset="3311752" lat="48.3716084" lon="13.5782088">
    <tag k="amenity" v="parking"/>
  </node>
  <node id="75690602" version="3" timestamp="2009-12-07T11:57:54Z" uid="200463" user="harmagedon" changeset="3314630" lat="48.3716084" lon="13.5782088">
    <tag k="amenity" v="parking"/>
  </node>
  <node id="75693443" version="3" timestamp="2009-09-27T23:44:33Z" uid="36809" user="pfoten_weg_!_" changeset="2659720" lat="47.8280437" lon="11.895798"/>
  <node id="75693444" version="3" timestamp="2009-09-27T23:44:33Z" uid="36809" user="pfoten_weg_!_" changeset="2659720" lat="47.8278648" lon="11.8958178"/>
  <node id="75693448" version="2" timestamp="2009-10-22T21:13:47Z" uid="36809" user="pfoten_weg_!_" changeset="2925600" lat="47.8440183" lon="11.8681384"/>
  <node id="75693451" version="2" timestamp="2009-10-22T21:13:47Z" uid="36809" user="pfoten_weg_!_" changeset="2925600" lat="47.8438802" lon="11.8679583"/>
  <node id="75693468" version="4" timestamp="2009-10-22T21:13:53Z" uid="36809" user="pfoten_weg_!_" changeset="2925600" lat="47.8487354" lon="11.8660777"/>
  <node id="75693479" version="3" timestamp="2009-10-22T21:25:47Z" uid="36809" user="pfoten_weg_!_" changeset="2925674" lat="47.8620204" lon="11.8425266"/>
  <node id="75693481" version="3" timestamp="2009-10-22T21:25:47Z" uid="36809" user="pfoten_weg_!_" changeset="2925674" lat="47.8618222" lon="11.8425182"/>
  <node id="75695931" version="11" timestamp="2009-07-23T11:58:39Z" uid="123700" user="Mala" changeset="1914917" lat="-26.5625198" lon="31.3991563">
    <tag k="country_code_iso3166_1_alpha_2" v="SZ"/>
    <tag k="is_in:continent" v="Africa"/>
    <tag k="name" v="Swaziland"/>
    <tag k="name:cy" v="Gwlad Swazi"/>
    <tag k="name:da" v="Swaziland"/>
    <tag k="name:de" v="Swasiland"/>
    <tag k="name:eo" v="Svazilando"/>
    <tag k="name:fi" v="Swazimaa"/>
    <tag k="name:hu" v="Szváziföld"/>
    <tag k="name:zh" v="斯威士兰"/>
    <tag k="name:zh_py" v="Siweishilan"/>
    <tag k="name:zh_pyt" v="Sīwēishìlán"/>
    <tag k="place" v="country"/>
  </node>
  <node id="75696386" version="3" timestamp="2009-09-27T23:44:32Z" uid="36809" user="pfoten_weg_!_" changeset="2659720" lat="47.8658176" lon="11.818235"/>
  <node id="75696389" version="3" timestamp="2009-09-27T23:44:33Z" uid="36809" user="pfoten_weg_!_" changeset="2659720" lat="47.8655794" lon="11.8182899"/>
  <node id="75699369" version="3" timestamp="2009-09-27T23:44:28Z" uid="36809" user="pfoten_weg_!_" changeset="2659720" lat="47.8652601" lon="11.7978507"/>
  <node id="75699370" version="3" timestamp="2009-09-27T23:44:29Z" uid="36809" user="pfoten_weg_!_" changeset="2659720" lat="47.8650174" lon="11.7978697"/>
  <node id="75699373" version="3" timestamp="2009-10-01T15:22:26Z" uid="86259" user="hasse_osm_korinthenkacker" changeset="2701530" lat="47.8660307" lon="11.7942761"/>
  <node id="75699374" version="3" timestamp="2009-10-01T15:22:25Z" uid="86259" user="hasse_osm_korinthenkacker" changeset="2701530" lat="47.8658006" lon="11.794265"/>
  <node id="75699378" version="4" timestamp="2009-10-01T15:22:23Z" uid="86259" user="hasse_osm_korinthenkacker" changeset="2701530" lat="47.8671983" lon="11.7909167"/>
  <node id="75699380" version="3" timestamp="2009-10-01T15:22:24Z" uid="86259" user="hasse_osm_korinthenkacker" changeset="2701530" lat="47.8669815" lon="11.7908703"/>
</osm>
