<?xml version='1.0' encoding='UTF-8'?>
<osm version="0.6" generator="libosmium/2.20.0">
  <node id="759005077" version="1" timestamp="2010-05-30T10:15:46Z" uid="18775" user="drlizau" changeset="4850149" lat="-34.1459633" lon="138.414785">
    <tag k="amenity" v="bank"/>
    <tag k="name" v="Westpac"/>
    <tag k="note" v="agency"/>
  </node>
  <node id="759005082" version="1" timestamp="2010-05-30T10:15:46Z" uid="18775" user="drlizau" changeset="4850149" lat="-34.1459506" lon="138.4145926">
    <tag k="name" v="Unbeatable Dry Cleaners"/>
    <tag k="note" v="agent"/>
    <tag k="shop" v="dry_cleaning"/>
  </node>
  <node id="759005086" version="1" timestamp="2010-05-30T10:15:46Z" uid="18775" user="drlizau" changeset="4850149" lat="-34.1461578" lon="138.4149901">
    <tag k="name" v="Brock Harcourts"/>
    <tag k="office" v="estate_agent"/>
  </node>
  <node id="759005089" version="1" timestamp="2010-05-30T10:15:46Z" uid="18775" user="drlizau" changeset="4850149" lat="-34.1459458" lon="138.4146816">
    <tag k="amenity" v="cafe"/>
    <tag k="name" v="Wendy&apos;s Cafe n Cakes"/>
  </node>
  <node id="759005092" version="1" timestamp="2010-05-30T10:15:46Z" uid="18775" user="drlizau" changeset="4850149" lat="-34.1459506" lon="138.4146109">
    <tag k="name" v="Tad&apos;s Menswear"/>
    <tag k="shop" v="clothes"/>
  </node>
</osm>
