<?xml version='1.0' encoding='UTF-8'?>
<osm version="0.6" generator="libosmium/2.20.0">
  <node id="762664499" version="1" timestamp="2010-06-02T19:56:02Z" uid="163746" user="anti_bot-nonsense" changeset="4887242" lat="47.9068621" lon="12.2993278">
    <tag k="amenity" v="restaurant"/>
    <tag k="name" v="Gasthof Weissbräu"/>
  </node>
  <node id="762664515" version="1" timestamp="2010-06-02T19:56:02Z" uid="163746" user="anti_bot-nonsense" changeset="4887242" lat="47.9120113" lon="12.2934484">
    <tag k="amenity" v="school"/>
    <tag k="name" v="Hauptschule"/>
  </node>
  <node id="762664530" version="1" timestamp="2010-06-02T19:56:03Z" uid="163746" user="anti_bot-nonsense" changeset="4887242" lat="47.9181666" lon="12.292927">
    <tag k="amenity" v="parking"/>
  </node>
  <node id="762664541" version="1" timestamp="2010-06-02T19:56:03Z" uid="163746" user="anti_bot-nonsense" changeset="4887242" lat="47.9117655" lon="12.2915338">
    <tag k="amenity" v="fire_station"/>
  </node>
  <node id="762664555" version="1" timestamp="2010-06-02T19:56:04Z" uid="163746" user="anti_bot-nonsense" changeset="4887242" lat="47.9183392" lon="12.2929335">
    <tag k="name" v="Penny"/>
    <tag k="shop" v="supermarket"/>
  </node>
  <node id="762664569" version="1" timestamp="2010-06-02T19:56:04Z" uid="163746" user="anti_bot-nonsense" changeset="4887242" lat="47.9049921" lon="12.3033426">
    <tag k="amenity" v="pharmacy"/>
    <tag k="name" v="St. Jokobsapotheke"/>
  </node>
  <node id="762664609" version="1" timestamp="2010-06-02T19:56:05Z" uid="163746" user="anti_bot-nonsense" changeset="4887242" lat="47.9177639" lon="12.2949011">
    <tag k="amenity" v="parking"/>
  </node>
  <node id="762664628" version="1" timestamp="2010-06-02T19:56:05Z" uid="163746" user="anti_bot-nonsense" changeset="4887242" lat="47.9004033" lon="12.2917619">
    <tag k="name" v="Kurfer Hof"/>
    <tag k="tourism" v="hotel"/>
  </node>
  <node id="762664643" version="1" timestamp="2010-06-02T19:56:06Z" uid="163746" user="anti_bot-nonsense" changeset="4887242" lat="47.9076388" lon="12.2982979">
    <tag k="amenity" v="school"/>
    <tag k="key" v="Grundschule"/>
  </node>
  <node id="762664664" version="1" timestamp="2010-06-02T19:56:07Z" uid="163746" user="anti_bot-nonsense" changeset="4887242" lat="47.9027165" lon="12.3032665">
    <tag k="amenity" v="restaurant"/>
    <tag k="name" v="Bauernwirt"/>
  </node>
  <node id="762664676" version="1" timestamp="2010-06-02T19:56:07Z" uid="163746" user="anti_bot-nonsense" changeset="4887242" lat="47.9094175" lon="12.2994967">
    <tag k="amenity" v="cinema"/>
  </node>
  <node id="762664697" version="1" timestamp="2010-06-02T19:56:08Z" uid="163746" user="anti_bot-nonsense" changeset="4887242" lat="47.9046181" lon="12.3025529">
    <tag k="amenity" v="taxi"/>
  </node>
  <node id="762664711" version="1" timestamp="2010-06-02T19:56:08Z" uid="163746" user="anti_bot-nonsense" changeset="4887242" lat="47.9061717" lon="12.2933562">
    <tag k="amenity" v="recycling"/>
    <tag k="name" v="Wertstoffhof"/>
  </node>
  <node id="762664724" version="1" timestamp="2010-06-02T19:56:08Z" uid="163746" user="anti_bot-nonsense" changeset="4887242" lat="47.905374" lon="12.3016994">
    <tag k="amenity" v="cafe"/>
    <tag k="name" v="Eisdiele"/>
  </node>
  <node id="762664734" version="1" timestamp="2010-06-02T19:56:09Z" uid="163746" user="anti_bot-nonsense" changeset="4887242" lat="47.9057247" lon="12.3015368">
    <tag k="amenity" v="restaurant"/>
    <tag k="name" v="Winkler"/>
  </node>
  <node id="762664740" version="1" timestamp="2010-06-02T19:56:09Z" uid="163746" user="anti_bot-nonsense" changeset="4887242" lat="47.9074374" lon="12.3015959">
    <tag k="amenity" v="pub"/>
    <tag k="name" v="Holzwurm"/>
  </node>
  <node id="762664754" version="1" timestamp="2010-06-02T19:56:09Z" uid="163746" user="anti_bot-nonsense" changeset="4887242" lat="47.8959867" lon="12.3107004">
    <tag k="name" v="EDEKA"/>
    <tag k="shop" v="supermarket"/>
  </node>
  <node id="762664771" version="1" timestamp="2010-06-02T19:56:10Z" uid="163746" user="anti_bot-nonsense" changeset="4887242" lat="47.9026474" lon="12.3051944">
    <tag k="name" v="EDEKA"/>
    <tag k="shop" v="supermarket"/>
  </node>
  <node id="762664792" version="1" timestamp="2010-06-02T19:56:10Z" uid="163746" user="anti_bot-nonsense" changeset="4887242" lat="47.9097675" lon="12.2976971">
    <tag k="amenity" v="restaurant"/>
    <tag k="name" v="Mediteran"/>
  </node>
  <node id="762664807" version="1" timestamp="2010-06-02T19:56:11Z" uid="163746" user="anti_bot-nonsense" changeset="4887242" lat="47.9011082" lon="12.2995424">
    <tag k="amenity" v="restaurant"/>
    <tag k="name" v="Cucina S"/>
  </node>
  <node id="762664807" version="2" timestamp="2010-06-02T22:52:35Z" uid="163746" user="anti_bot-nonsense" changeset="4888495" lat="47.9011082" lon="12.2995424">
    <tag k="addr:city" v="Bad Endorf"/>
    <tag k="addr:country" v="DE"/>
    <tag k="addr:housenumber" v="18"/>
    <tag k="addr:postcode" v="83093"/>
    <tag k="addr:state" v="Bayern"/>
    <tag k="addr:street" v="Ströbinger Straße"/>
    <tag k="amenity" v="restaurant"/>
    <tag k="contact:email" v="info@cucina-s.com"/>
    <tag k="contact:fax" v="+49 8053.200928"/>
    <tag k="contact:phone" v="+49 8053.200960"/>
    <tag k="contact:website" v="www.cucina-s.com"/>
    <tag k="name" v="Cucina S"/>
  </node>
  <node id="762664821" version="1" timestamp="2010-06-02T19:56:11Z" uid="163746" user="anti_bot-nonsense" changeset="4887242" lat="47.9049058" lon="12.3021173">
    <tag k="railway" v="station"/>
  </node>
  <node id="762664828" version="1" timestamp="2010-06-02T19:56:11Z" uid="163746" user="anti_bot-nonsense" changeset="4887242" lat="47.9166422" lon="12.2934849">
    <tag k="amenity" v="parking"/>
  </node>
  <node id="762664836" version="1" timestamp="2010-06-02T19:56:11Z" uid="163746" user="anti_bot-nonsense" changeset="4887242" lat="47.9175051" lon="12.2948089">
    <tag k="amenity" v="fast_food"/>
    <tag k="name" v="Grillalm Marcher"/>
  </node>
  <node id="762664850" version="1" timestamp="2010-06-02T19:56:12Z" uid="163746" user="anti_bot-nonsense" changeset="4887242" lat="47.9039708" lon="12.3043361">
    <tag k="name" v="REWE Supermarkt"/>
    <tag k="shop" v="supermarket"/>
  </node>
  <node id="762664862" version="1" timestamp="2010-06-02T19:56:12Z" uid="163746" user="anti_bot-nonsense" changeset="4887242" lat="47.9064018" lon="12.2996046">
    <tag k="amenity" v="cafe"/>
    <tag k="name" v="Goodies Cafe"/>
  </node>
  <node id="762664877" version="1" timestamp="2010-06-02T19:56:12Z" uid="163746" user="anti_bot-nonsense" changeset="4887242" lat="47.9168148" lon="12.2935772">
    <tag k="name" v="NETTO"/>
    <tag k="shop" v="supermarket"/>
  </node>
  <node id="762664892" version="1" timestamp="2010-06-02T19:56:13Z" uid="163746" user="anti_bot-nonsense" changeset="4887242" lat="47.9179365" lon="12.2950792">
    <tag k="name" v="Norma"/>
    <tag k="shop" v="supermarket"/>
  </node>
</osm>
