<?xml version='1.0' encoding='UTF-8'?>
<osm version="0.6" generator="libosmium/2.20.0">
  <node id="765351273" version="1" timestamp="2010-06-05T22:13:43Z" uid="256927" user="Timo Müller" changeset="4913038" lat="49.3463322" lon="8.6662805">
    <tag k="addr:city" v="Leimen"/>
    <tag k="addr:country" v="DE"/>
    <tag k="addr:housenumber" v="1"/>
    <tag k="addr:postcode" v="69181"/>
    <tag k="addr:street" v="Kurlandstraße"/>
  </node>
  <node id="765351274" version="1" timestamp="2010-06-05T22:13:43Z" uid="256927" user="Timo Müller" changeset="4913038" lat="49.3466066" lon="8.6680002"/>
  <node id="765351275" version="1" timestamp="2010-06-05T22:13:43Z" uid="256927" user="Timo Müller" changeset="4913038" lat="49.3494043" lon="8.6669362">
    <tag k="addr:city" v="Leimen"/>
    <tag k="addr:country" v="DE"/>
    <tag k="addr:housenumber" v="1"/>
    <tag k="addr:postcode" v="69181"/>
    <tag k="addr:street" v="Mannheimer Weg"/>
  </node>
  <node id="765351276" version="1" timestamp="2010-06-05T22:13:43Z" uid="256927" user="Timo Müller" changeset="4913038" lat="49.3498735" lon="8.6683732">
    <tag k="addr:city" v="Leimen"/>
    <tag k="addr:country" v="DE"/>
    <tag k="addr:housenumber" v="19"/>
    <tag k="addr:postcode" v="69181"/>
    <tag k="addr:street" v="Kurpfalzstraße"/>
  </node>
  <node id="765351277" version="1" timestamp="2010-06-05T22:13:43Z" uid="256927" user="Timo Müller" changeset="4913038" lat="49.3500288" lon="8.6689145">
    <tag k="addr:city" v="Leimen"/>
    <tag k="addr:country" v="DE"/>
    <tag k="addr:housenumber" v="1"/>
    <tag k="addr:postcode" v="69181"/>
    <tag k="addr:street" v="Siemensweg"/>
  </node>
  <node id="765351278" version="1" timestamp="2010-06-05T22:13:43Z" uid="256927" user="Timo Müller" changeset="4913038" lat="49.3454135" lon="8.6664715">
    <tag k="addr:city" v="Leimen"/>
    <tag k="addr:country" v="DE"/>
    <tag k="addr:housenumber" v="2"/>
    <tag k="addr:postcode" v="69181"/>
    <tag k="addr:street" v="Fasaneriestraße"/>
  </node>
  <node id="765351279" version="1" timestamp="2010-06-05T22:13:43Z" uid="256927" user="Timo Müller" changeset="4913038" lat="49.3451729" lon="8.6682034">
    <tag k="addr:city" v="Leimen"/>
    <tag k="addr:country" v="DE"/>
    <tag k="addr:housenumber" v="8"/>
    <tag k="addr:postcode" v="69181"/>
    <tag k="addr:street" v="Kurpfalzstraße"/>
  </node>
  <node id="765351280" version="1" timestamp="2010-06-05T22:13:43Z" uid="256927" user="Timo Müller" changeset="4913038" lat="49.3470694" lon="8.665997">
    <tag k="addr:city" v="Leimen"/>
    <tag k="addr:country" v="DE"/>
    <tag k="addr:housenumber" v="45"/>
    <tag k="addr:postcode" v="69181"/>
    <tag k="addr:street" v="Julius-Becker-Straße"/>
  </node>
  <node id="765351281" version="1" timestamp="2010-06-05T22:13:43Z" uid="256927" user="Timo Müller" changeset="4913038" lat="49.3502428" lon="8.6684485">
    <tag k="addr:city" v="Leimen"/>
    <tag k="addr:country" v="DE"/>
    <tag k="addr:housenumber" v="21"/>
    <tag k="addr:postcode" v="69181"/>
    <tag k="addr:street" v="Kurpfalzstraße"/>
  </node>
  <node id="765351282" version="1" timestamp="2010-06-05T22:13:43Z" uid="256927" user="Timo Müller" changeset="4913038" lat="49.3466705" lon="8.6654832">
    <tag k="addr:city" v="Leimen"/>
    <tag k="addr:country" v="DE"/>
    <tag k="addr:housenumber" v="8"/>
    <tag k="addr:postcode" v="69181"/>
    <tag k="addr:street" v="In der Etzwiese"/>
  </node>
  <node id="765351283" version="1" timestamp="2010-06-05T22:13:43Z" uid="256927" user="Timo Müller" changeset="4913038" lat="49.3505901" lon="8.6683774">
    <tag k="barrier" v="bollard"/>
  </node>
  <node id="765351284" version="1" timestamp="2010-06-05T22:13:43Z" uid="256927" user="Timo Müller" changeset="4913038" lat="49.3447644" lon="8.6668047">
    <tag k="addr:city" v="Leimen"/>
    <tag k="addr:country" v="DE"/>
    <tag k="addr:housenumber" v="40"/>
    <tag k="addr:postcode" v="69181"/>
    <tag k="addr:street" v="Julius-Becker-Straße"/>
  </node>
  <node id="765351285" version="1" timestamp="2010-06-05T22:13:43Z" uid="256927" user="Timo Müller" changeset="4913038" lat="49.3494963" lon="8.6665757">
    <tag k="addr:city" v="Leimen"/>
    <tag k="addr:country" v="DE"/>
    <tag k="addr:housenumber" v="65"/>
    <tag k="addr:postcode" v="69181"/>
    <tag k="addr:street" v="Julius-Becker-Straße"/>
  </node>
  <node id="765351286" version="1" timestamp="2010-06-05T22:13:44Z" uid="256927" user="Timo Müller" changeset="4913038" lat="49.3482039" lon="8.669559">
    <tag k="addr:city" v="Leimen"/>
    <tag k="addr:country" v="DE"/>
    <tag k="addr:housenumber" v="9"/>
    <tag k="addr:postcode" v="69181"/>
    <tag k="addr:street" v="Humboldweg"/>
  </node>
  <node id="765351287" version="1" timestamp="2010-06-05T22:13:44Z" uid="256927" user="Timo Müller" changeset="4913038" lat="49.3468252" lon="8.6651939">
    <tag k="addr:city" v="Leimen"/>
    <tag k="addr:country" v="DE"/>
    <tag k="addr:housenumber" v="33"/>
    <tag k="addr:postcode" v="69181"/>
    <tag k="addr:street" v="In der Etzwiese"/>
  </node>
  <node id="765351288" version="1" timestamp="2010-06-05T22:13:44Z" uid="256927" user="Timo Müller" changeset="4913038" lat="49.3490891" lon="8.6664524">
    <tag k="barrier" v="cycle_barrier"/>
  </node>
  <node id="765351289" version="1" timestamp="2010-06-05T22:13:44Z" uid="256927" user="Timo Müller" changeset="4913038" lat="49.3453234" lon="8.6665467">
    <tag k="addr:city" v="Leimen"/>
    <tag k="addr:country" v="DE"/>
    <tag k="addr:housenumber" v="44"/>
    <tag k="addr:postcode" v="69181"/>
    <tag k="addr:street" v="Julius-Becker-Straße"/>
  </node>
  <node id="765351290" version="1" timestamp="2010-06-05T22:13:44Z" uid="256927" user="Timo Müller" changeset="4913038" lat="49.3475546" lon="8.6706561">
    <tag k="power" v="sub_station"/>
  </node>
  <node id="765351291" version="1" timestamp="2010-06-05T22:13:44Z" uid="256927" user="Timo Müller" changeset="4913038" lat="49.344948" lon="8.6677603">
    <tag k="addr:city" v="Leimen"/>
    <tag k="addr:country" v="DE"/>
    <tag k="addr:housenumber" v="38"/>
    <tag k="addr:postcode" v="69181"/>
    <tag k="addr:street" v="Julius-Becker-Straße"/>
  </node>
  <node id="765351292" version="1" timestamp="2010-06-05T22:13:44Z" uid="256927" user="Timo Müller" changeset="4913038" lat="49.3494896" lon="8.6697929">
    <tag k="addr:city" v="Leimen"/>
    <tag k="addr:country" v="DE"/>
    <tag k="addr:housenumber" v="10"/>
    <tag k="addr:postcode" v="69181"/>
    <tag k="addr:street" v="Robert-Koch-Weg"/>
  </node>
  <node id="765351293" version="1" timestamp="2010-06-05T22:13:44Z" uid="256927" user="Timo Müller" changeset="4913038" lat="49.3469285" lon="8.6667544">
    <tag k="name" v="Umspannstation St. Ilgen Schlesierstraße"/>
    <tag k="operator" v="Badenwerk AG"/>
    <tag k="power" v="sub_station"/>
  </node>
  <node id="765351294" version="1" timestamp="2010-06-05T22:13:44Z" uid="256927" user="Timo Müller" changeset="4913038" lat="49.3490906" lon="8.6687599">
    <tag k="addr:city" v="Leimen"/>
    <tag k="addr:country" v="DE"/>
    <tag k="addr:housenumber" v="4"/>
    <tag k="addr:postcode" v="69181"/>
    <tag k="addr:street" v="Keplerweg"/>
  </node>
  <node id="765351295" version="1" timestamp="2010-06-05T22:13:44Z" uid="256927" user="Timo Müller" changeset="4913038" lat="49.3442145" lon="8.6687686">
    <tag k="addr:city" v="Leimen"/>
    <tag k="addr:country" v="DE"/>
    <tag k="addr:housenumber" v="36a"/>
    <tag k="addr:postcode" v="69181"/>
    <tag k="addr:street" v="Am Güterbahnhof"/>
  </node>
  <node id="765351296" version="1" timestamp="2010-06-05T22:13:44Z" uid="256927" user="Timo Müller" changeset="4913038" lat="49.3457313" lon="8.6663742">
    <tag k="addr:city" v="Leimen"/>
    <tag k="addr:country" v="DE"/>
    <tag k="addr:housenumber" v="46"/>
    <tag k="addr:postcode" v="69181"/>
    <tag k="addr:street" v="Julius-Becker-Straße"/>
  </node>
  <node id="765351297" version="1" timestamp="2010-06-05T22:13:44Z" uid="256927" user="Timo Müller" changeset="4913038" lat="49.3486695" lon="8.6668919">
    <tag k="addr:city" v="Leimen"/>
    <tag k="addr:country" v="DE"/>
    <tag k="addr:housenumber" v="48"/>
    <tag k="addr:postcode" v="69181"/>
    <tag k="addr:street" v="Julius-Becker-Straße"/>
  </node>
  <node id="765351298" version="1" timestamp="2010-06-05T22:13:44Z" uid="256927" user="Timo Müller" changeset="4913038" lat="49.3463306" lon="8.6691751">
    <tag k="addr:city" v="Leimen"/>
    <tag k="addr:country" v="DE"/>
    <tag k="addr:housenumber" v="27"/>
    <tag k="addr:postcode" v="69181"/>
    <tag k="addr:street" v="Fasaneriestraße"/>
  </node>
  <node id="765351299" version="1" timestamp="2010-06-05T22:13:44Z" uid="256927" user="Timo Müller" changeset="4913038" lat="49.3499489" lon="8.6689704"/>
  <node id="765351300" version="1" timestamp="2010-06-05T22:13:44Z" uid="256927" user="Timo Müller" changeset="4913038" lat="49.3482961" lon="8.6683967">
    <tag k="addr:city" v="Leimen"/>
    <tag k="addr:country" v="DE"/>
    <tag k="addr:housenumber" v="1"/>
    <tag k="addr:postcode" v="69181"/>
    <tag k="addr:street" v="Humboldweg"/>
  </node>
  <node id="765351301" version="1" timestamp="2010-06-05T22:13:44Z" uid="256927" user="Timo Müller" changeset="4913038" lat="49.3471012" lon="8.6668831"/>
  <node id="765351302" version="1" timestamp="2010-06-05T22:13:44Z" uid="256927" user="Timo Müller" changeset="4913038" lat="49.3445122" lon="8.6679595">
    <tag k="addr:city" v="Leimen"/>
    <tag k="addr:country" v="DE"/>
    <tag k="addr:housenumber" v="34"/>
    <tag k="addr:postcode" v="69181"/>
    <tag k="addr:street" v="Julius-Becker-Straße"/>
  </node>
  <node id="765351303" version="1" timestamp="2010-06-05T22:13:44Z" uid="256927" user="Timo Müller" changeset="4913038" lat="49.3453827" lon="8.6680695"/>
  <node id="765351304" version="1" timestamp="2010-06-05T22:13:45Z" uid="256927" user="Timo Müller" changeset="4913038" lat="49.3473813" lon="8.6693902">
    <tag k="addr:city" v="Leimen"/>
    <tag k="addr:country" v="DE"/>
    <tag k="addr:housenumber" v="9"/>
    <tag k="addr:postcode" v="69181"/>
    <tag k="addr:street" v="Bunsenweg"/>
  </node>
  <node id="765351305" version="1" timestamp="2010-06-05T22:13:45Z" uid="256927" user="Timo Müller" changeset="4913038" lat="49.3486072" lon="8.6684774">
    <tag k="addr:city" v="Leimen"/>
    <tag k="addr:country" v="DE"/>
    <tag k="addr:housenumber" v="2"/>
    <tag k="addr:postcode" v="69181"/>
    <tag k="addr:street" v="Otto-Hahn-Straße"/>
  </node>
  <node id="765351306" version="1" timestamp="2010-06-05T22:13:45Z" uid="256927" user="Timo Müller" changeset="4913038" lat="49.3476793" lon="8.6663289"/>
  <node id="765351307" version="1" timestamp="2010-06-05T22:13:45Z" uid="256927" user="Timo Müller" changeset="4913038" lat="49.3455342" lon="8.6680064">
    <tag k="name" v="Ortsnetz St. Ilgen Fasaneriestraße 10"/>
    <tag k="power" v="cable_distribution_cabinet"/>
  </node>
  <node id="765351308" version="1" timestamp="2010-06-05T22:13:45Z" uid="256927" user="Timo Müller" changeset="4913038" lat="49.3448422" lon="8.6681684">
    <tag k="addr:city" v="Leimen"/>
    <tag k="addr:country" v="DE"/>
    <tag k="addr:housenumber" v="2"/>
    <tag k="addr:postcode" v="69181"/>
    <tag k="addr:street" v="Kurpfalzstraße"/>
  </node>
  <node id="765351309" version="1" timestamp="2010-06-05T22:13:45Z" uid="256927" user="Timo Müller" changeset="4913038" lat="49.3456905" lon="8.6661136">
    <tag k="addr:city" v="Leimen"/>
    <tag k="addr:country" v="DE"/>
    <tag k="addr:housenumber" v="35"/>
    <tag k="addr:postcode" v="69181"/>
    <tag k="addr:street" v="Julius-Becker-Straße"/>
  </node>
  <node id="765351310" version="1" timestamp="2010-06-05T22:13:45Z" uid="256927" user="Timo Müller" changeset="4913038" lat="49.3474084" lon="8.6662878">
    <tag k="barrier" v="gate"/>
  </node>
  <node id="765351311" version="1" timestamp="2010-06-05T22:13:45Z" uid="256927" user="Timo Müller" changeset="4913038" lat="49.3448429" lon="8.665986">
    <tag k="addr:city" v="Leimen"/>
    <tag k="addr:country" v="DE"/>
    <tag k="addr:housenumber" v="5"/>
    <tag k="addr:postcode" v="69181"/>
    <tag k="addr:street" v="In der Etzwiese"/>
  </node>
  <node id="765351312" version="1" timestamp="2010-06-05T22:13:45Z" uid="256927" user="Timo Müller" changeset="4913038" lat="49.3450602" lon="8.6669959">
    <tag k="addr:city" v="Leimen"/>
    <tag k="addr:country" v="DE"/>
    <tag k="addr:housenumber" v="1"/>
    <tag k="addr:postcode" v="69181"/>
    <tag k="addr:street" v="Im Probsterwald"/>
  </node>
  <node id="765351313" version="1" timestamp="2010-06-05T22:13:45Z" uid="256927" user="Timo Müller" changeset="4913038" lat="49.3495138" lon="8.6677622">
    <tag k="addr:city" v="Leimen"/>
    <tag k="addr:country" v="DE"/>
    <tag k="addr:housenumber" v="7"/>
    <tag k="addr:postcode" v="69181"/>
    <tag k="addr:street" v="Mannheimer Weg"/>
  </node>
  <node id="765351314" version="1" timestamp="2010-06-05T22:13:45Z" uid="256927" user="Timo Müller" changeset="4913038" lat="49.3454874" lon="8.6689119">
    <tag k="addr:city" v="Leimen"/>
    <tag k="addr:country" v="DE"/>
    <tag k="addr:housenumber" v="2"/>
    <tag k="addr:postcode" v="69181"/>
    <tag k="addr:street" v="Bürgermeister-Heinrich-Braun-Weg"/>
  </node>
  <node id="765351315" version="1" timestamp="2010-06-05T22:13:45Z" uid="256927" user="Timo Müller" changeset="4913038" lat="49.3504607" lon="8.6690293">
    <tag k="addr:city" v="Leimen"/>
    <tag k="addr:country" v="DE"/>
    <tag k="addr:housenumber" v="11"/>
    <tag k="addr:postcode" v="69181"/>
    <tag k="addr:street" v="Siemensweg"/>
  </node>
  <node id="765351316" version="1" timestamp="2010-06-05T22:13:45Z" uid="256927" user="Timo Müller" changeset="4913038" lat="49.3454733" lon="8.6678497">
    <tag k="addr:city" v="Leimen"/>
    <tag k="addr:country" v="DE"/>
    <tag k="addr:housenumber" v="10"/>
    <tag k="addr:postcode" v="69181"/>
    <tag k="addr:street" v="Fasaneriestraße"/>
  </node>
  <node id="765351317" version="1" timestamp="2010-06-05T22:13:45Z" uid="256927" user="Timo Müller" changeset="4913038" lat="49.3481183" lon="8.6683951">
    <tag k="addr:city" v="Leimen"/>
    <tag k="addr:country" v="DE"/>
    <tag k="addr:housenumber" v="2"/>
    <tag k="addr:postcode" v="69181"/>
    <tag k="addr:street" v="Humboldweg"/>
  </node>
  <node id="765351318" version="1" timestamp="2010-06-05T22:13:45Z" uid="256927" user="Timo Müller" changeset="4913038" lat="49.3466093" lon="8.6686693"/>
  <node id="765351319" version="1" timestamp="2010-06-05T22:13:45Z" uid="256927" user="Timo Müller" changeset="4913038" lat="49.3462717" lon="8.6660067">
    <tag k="addr:city" v="Leimen"/>
    <tag k="addr:country" v="DE"/>
    <tag k="addr:housenumber" v="37"/>
    <tag k="addr:postcode" v="69181"/>
    <tag k="addr:street" v="Julius-Becker-Straße"/>
  </node>
  <node id="765351320" version="1" timestamp="2010-06-05T22:13:45Z" uid="256927" user="Timo Müller" changeset="4913038" lat="49.346274" lon="8.665482">
    <tag k="addr:city" v="Leimen"/>
    <tag k="addr:country" v="DE"/>
    <tag k="addr:housenumber" v="2"/>
    <tag k="addr:postcode" v="69181"/>
    <tag k="addr:street" v="In der Etzwiese"/>
  </node>
  <node id="765351321" version="1" timestamp="2010-06-05T22:13:45Z" uid="256927" user="Timo Müller" changeset="4913038" lat="49.3445702" lon="8.6686836">
    <tag k="addr:city" v="Leimen"/>
    <tag k="addr:country" v="DE"/>
    <tag k="addr:housenumber" v="18"/>
    <tag k="addr:postcode" v="69181"/>
    <tag k="addr:street" v="Am Güterbahnhof"/>
  </node>
  <node id="765351322" version="1" timestamp="2010-06-05T22:13:45Z" uid="256927" user="Timo Müller" changeset="4913038" lat="49.3493747" lon="8.6665417">
    <tag k="addr:city" v="Leimen"/>
    <tag k="addr:country" v="DE"/>
    <tag k="addr:housenumber" v="63"/>
    <tag k="addr:postcode" v="69181"/>
    <tag k="addr:street" v="Julius-Becker-Straße"/>
  </node>
  <node id="765351323" version="1" timestamp="2010-06-05T22:13:46Z" uid="256927" user="Timo Müller" changeset="4913038" lat="49.345287" lon="8.6656151">
    <tag k="addr:city" v="Leimen"/>
    <tag k="addr:country" v="DE"/>
    <tag k="addr:housenumber" v="11"/>
    <tag k="addr:postcode" v="69181"/>
    <tag k="addr:street" v="In der Etzwiese"/>
  </node>
  <node id="765351324" version="1" timestamp="2010-06-05T22:13:46Z" uid="256927" user="Timo Müller" changeset="4913038" lat="49.3500722" lon="8.6679996">
    <tag k="addr:city" v="Leimen"/>
    <tag k="addr:country" v="DE"/>
    <tag k="addr:housenumber" v="7"/>
    <tag k="addr:postcode" v="69181"/>
    <tag k="addr:street" v="Heidelberger Weg"/>
  </node>
  <node id="765351325" version="1" timestamp="2010-06-05T22:13:46Z" uid="256927" user="Timo Müller" changeset="4913038" lat="49.3482659" lon="8.6667591">
    <tag k="addr:city" v="Leimen"/>
    <tag k="addr:country" v="DE"/>
    <tag k="addr:housenumber" v="1"/>
    <tag k="addr:postcode" v="69181"/>
    <tag k="addr:street" v="Karlsruher Straße"/>
  </node>
  <node id="765351326" version="1" timestamp="2010-06-05T22:13:46Z" uid="256927" user="Timo Müller" changeset="4913038" lat="49.3460689" lon="8.6660466">
    <tag k="name" v="ON St. Ilgen Lilienthalstraße 1"/>
    <tag k="power" v="cable_distribution_cabinet"/>
  </node>
  <node id="765351327" version="1" timestamp="2010-06-05T22:13:46Z" uid="256927" user="Timo Müller" changeset="4913038" lat="49.3463292" lon="8.6692825"/>
  <node id="765351328" version="1" timestamp="2010-06-05T22:13:46Z" uid="256927" user="Timo Müller" changeset="4913038" lat="49.3450145" lon="8.6663743">
    <tag k="addr:city" v="Leimen"/>
    <tag k="addr:country" v="DE"/>
    <tag k="addr:housenumber" v="25"/>
    <tag k="addr:postcode" v="69181"/>
    <tag k="addr:street" v="Julius-Becker-Straße"/>
  </node>
  <node id="765351329" version="1" timestamp="2010-06-05T22:13:46Z" uid="256927" user="Timo Müller" changeset="4913038" lat="49.3490451" lon="8.6696463">
    <tag k="addr:city" v="Leimen"/>
    <tag k="addr:country" v="DE"/>
    <tag k="addr:housenumber" v="10"/>
    <tag k="addr:postcode" v="69181"/>
    <tag k="addr:street" v="Keplerweg"/>
    <tag k="name" v="Keplerweg"/>
  </node>
  <node id="765351330" version="1" timestamp="2010-06-05T22:13:46Z" uid="256927" user="Timo Müller" changeset="4913038" lat="49.3443039" lon="8.6681443">
    <tag k="addr:city" v="Leimen"/>
    <tag k="addr:country" v="DE"/>
    <tag k="addr:housenumber" v="20"/>
    <tag k="addr:postcode" v="69181"/>
    <tag k="addr:street" v="Am Güterbahnhof"/>
  </node>
  <node id="765351331" version="1" timestamp="2010-06-05T22:13:46Z" uid="256927" user="Timo Müller" changeset="4913038" lat="49.3466811" lon="8.6694981"/>
  <node id="765351332" version="1" timestamp="2010-06-05T22:13:46Z" uid="256927" user="Timo Müller" changeset="4913038" lat="49.3439862" lon="8.6680524"/>
  <node id="765351333" version="1" timestamp="2010-06-05T22:13:46Z" uid="256927" user="Timo Müller" changeset="4913038" lat="49.3444593" lon="8.6669759">
    <tag k="addr:city" v="Leimen"/>
    <tag k="addr:country" v="DE"/>
    <tag k="addr:housenumber" v="22"/>
    <tag k="addr:postcode" v="69181"/>
    <tag k="addr:street" v="Julius-Becker-Straße"/>
  </node>
  <node id="765351334" version="1" timestamp="2010-06-05T22:13:46Z" uid="256927" user="Timo Müller" changeset="4913038" lat="49.3469136" lon="8.6662948">
    <tag k="addr:city" v="Leimen"/>
    <tag k="addr:country" v="DE"/>
    <tag k="addr:housenumber" v="1"/>
    <tag k="addr:postcode" v="69181"/>
    <tag k="addr:street" v="Schlesierstraße"/>
  </node>
  <node id="765351335" version="1" timestamp="2010-06-05T22:13:46Z" uid="256927" user="Timo Müller" changeset="4913038" lat="49.3473665" lon="8.6682798">
    <tag k="addr:city" v="Leimen"/>
    <tag k="addr:country" v="DE"/>
    <tag k="addr:housenumber" v="2"/>
    <tag k="addr:postcode" v="69181"/>
    <tag k="addr:street" v="Bunsenweg"/>
  </node>
  <node id="765351336" version="1" timestamp="2010-06-05T22:13:46Z" uid="256927" user="Timo Müller" changeset="4913038" lat="49.3473155" lon="8.6680689"/>
  <node id="765351337" version="1" timestamp="2010-06-05T22:13:46Z" uid="256927" user="Timo Müller" changeset="4913038" lat="49.3451231" lon="8.6687999">
    <tag k="addr:city" v="Leimen"/>
    <tag k="addr:country" v="DE"/>
    <tag k="addr:housenumber" v="14"/>
    <tag k="addr:postcode" v="69181"/>
    <tag k="addr:street" v="Bürgermeister-Heinrich-Braun-Weg"/>
  </node>
  <node id="765351338" version="1" timestamp="2010-06-05T22:13:46Z" uid="256927" user="Timo Müller" changeset="4913038" lat="49.3456222" lon="8.6667492">
    <tag k="addr:city" v="Leimen"/>
    <tag k="addr:country" v="DE"/>
    <tag k="addr:housenumber" v="1"/>
    <tag k="addr:postcode" v="69181"/>
    <tag k="addr:street" v="Fasaneriestraße"/>
  </node>
  <node id="765351339" version="1" timestamp="2010-06-05T22:13:46Z" uid="256927" user="Timo Müller" changeset="4913038" lat="49.3487834" lon="8.6685235">
    <tag k="addr:city" v="Leimen"/>
    <tag k="addr:country" v="DE"/>
    <tag k="addr:housenumber" v="1"/>
    <tag k="addr:postcode" v="69181"/>
    <tag k="addr:street" v="Otto-Hahn-Straße"/>
  </node>
  <node id="765351340" version="1" timestamp="2010-06-05T22:13:46Z" uid="256927" user="Timo Müller" changeset="4913038" lat="49.3467981" lon="8.6656066">
    <tag k="addr:city" v="Leimen"/>
    <tag k="addr:country" v="DE"/>
    <tag k="addr:housenumber" v="10"/>
    <tag k="addr:postcode" v="69181"/>
    <tag k="addr:street" v="In der Etzwiese"/>
  </node>
  <node id="765351341" version="1" timestamp="2010-06-05T22:13:47Z" uid="256927" user="Timo Müller" changeset="4913038" lat="49.3445572" lon="8.6687995">
    <tag k="addr:city" v="Leimen"/>
    <tag k="addr:country" v="DE"/>
    <tag k="addr:housenumber" v="18a"/>
    <tag k="addr:postcode" v="69181"/>
    <tag k="addr:street" v="Am Güterbahnhof"/>
  </node>
  <node id="765351342" version="1" timestamp="2010-06-05T22:13:47Z" uid="256927" user="Timo Müller" changeset="4913038" lat="49.3446772" lon="8.6673619">
    <tag k="addr:city" v="Leimen"/>
    <tag k="addr:country" v="DE"/>
    <tag k="addr:housenumber" v="30"/>
    <tag k="addr:postcode" v="69181"/>
    <tag k="addr:street" v="Julius-Becker-Straße"/>
  </node>
  <node id="765351343" version="1" timestamp="2010-06-05T22:13:47Z" uid="256927" user="Timo Müller" changeset="4913038" lat="49.3497642" lon="8.6688949">
    <tag k="addr:city" v="Leimen"/>
    <tag k="addr:country" v="DE"/>
    <tag k="addr:housenumber" v="3"/>
    <tag k="addr:postcode" v="69181"/>
    <tag k="addr:street" v="Robert-Koch-Weg"/>
  </node>
  <node id="765351344" version="1" timestamp="2010-06-05T22:13:47Z" uid="256927" user="Timo Müller" changeset="4913038" lat="49.3464519" lon="8.6681801">
    <tag k="addr:city" v="Leimen"/>
    <tag k="addr:country" v="DE"/>
    <tag k="addr:housenumber" v="22"/>
    <tag k="addr:postcode" v="69181"/>
    <tag k="addr:street" v="Kurpfalzstraße"/>
  </node>
  <node id="765351345" version="1" timestamp="2010-06-05T22:13:47Z" uid="256927" user="Timo Müller" changeset="4913038" lat="49.3468715" lon="8.6668652"/>
  <node id="765351346" version="1" timestamp="2010-06-05T22:13:47Z" uid="256927" user="Timo Müller" changeset="4913038" lat="49.3500505" lon="8.6697306">
    <tag k="addr:city" v="Leimen"/>
    <tag k="addr:country" v="DE"/>
    <tag k="addr:housenumber" v="2"/>
    <tag k="addr:postcode" v="69181"/>
    <tag k="addr:street" v="Karl-Benz-Straße"/>
  </node>
  <node id="765351347" version="1" timestamp="2010-06-05T22:13:47Z" uid="256927" user="Timo Müller" changeset="4913038" lat="49.3442747" lon="8.6679627"/>
  <node id="765351348" version="1" timestamp="2010-06-05T22:13:47Z" uid="256927" user="Timo Müller" changeset="4913038" lat="49.3464363" lon="8.668542">
    <tag k="addr:city" v="Leimen"/>
    <tag k="addr:country" v="DE"/>
    <tag k="addr:housenumber" v="28"/>
    <tag k="addr:postcode" v="69181"/>
    <tag k="addr:street" v="Kurpfalzstraße"/>
    <tag k="fixme" v="Position nur geschätzt"/>
  </node>
  <node id="765351349" version="1" timestamp="2010-06-05T22:13:47Z" uid="256927" user="Timo Müller" changeset="4913038" lat="49.345776" lon="8.6685925">
    <tag k="addr:city" v="Leimen"/>
    <tag k="addr:country" v="DE"/>
    <tag k="addr:housenumber" v="13"/>
    <tag k="addr:postcode" v="69181"/>
    <tag k="addr:street" v="Fasaneriestraße"/>
  </node>
  <node id="765351350" version="1" timestamp="2010-06-05T22:13:47Z" uid="256927" user="Timo Müller" changeset="4913038" lat="49.344387" lon="8.6680913"/>
  <node id="765351351" version="1" timestamp="2010-06-05T22:13:47Z" uid="256927" user="Timo Müller" changeset="4913038" lat="49.3477997" lon="8.6673506">
    <tag k="addr:city" v="Leimen"/>
    <tag k="addr:country" v="DE"/>
    <tag k="addr:housenumber" v="6"/>
    <tag k="addr:postcode" v="69181"/>
    <tag k="addr:street" v="Karlsruher Straße"/>
  </node>
  <node id="765351352" version="1" timestamp="2010-06-05T22:13:47Z" uid="256927" user="Timo Müller" changeset="4913038" lat="49.3450579" lon="8.6675614"/>
  <node id="765351353" version="1" timestamp="2010-06-05T22:13:47Z" uid="256927" user="Timo Müller" changeset="4913038" lat="49.3460661" lon="8.6664318">
    <tag k="addr:city" v="Leimen"/>
    <tag k="addr:country" v="DE"/>
    <tag k="addr:housenumber" v="2"/>
    <tag k="addr:postcode" v="69181"/>
    <tag k="addr:street" v="Kurlandstraße"/>
  </node>
  <node id="765351354" version="1" timestamp="2010-06-05T22:13:47Z" uid="256927" user="Timo Müller" changeset="4913038" lat="49.3449256" lon="8.6658887">
    <tag k="addr:city" v="Leimen"/>
    <tag k="addr:country" v="DE"/>
    <tag k="addr:housenumber" v="5a"/>
    <tag k="addr:postcode" v="69181"/>
    <tag k="addr:street" v="In der Etzwiese"/>
  </node>
  <node id="765351355" version="1" timestamp="2010-06-05T22:13:47Z" uid="256927" user="Timo Müller" changeset="4913038" lat="49.3479767" lon="8.669531">
    <tag k="addr:city" v="Leimen"/>
    <tag k="addr:country" v="DE"/>
    <tag k="addr:housenumber" v="10"/>
    <tag k="addr:postcode" v="69181"/>
    <tag k="addr:street" v="Humboldweg"/>
  </node>
  <node id="765351356" version="1" timestamp="2010-06-05T22:13:47Z" uid="256927" user="Timo Müller" changeset="4913038" lat="49.3450484" lon="8.6681839">
    <tag k="addr:city" v="Leimen"/>
    <tag k="addr:country" v="DE"/>
    <tag k="addr:housenumber" v="6"/>
    <tag k="addr:postcode" v="69181"/>
    <tag k="addr:street" v="Kurpfalzstraße"/>
  </node>
  <node id="765351357" version="1" timestamp="2010-06-05T22:13:47Z" uid="256927" user="Timo Müller" changeset="4913038" lat="49.3438865" lon="8.6680653">
    <tag k="addr:city" v="Leimen"/>
    <tag k="addr:country" v="DE"/>
    <tag k="addr:housenumber" v="38"/>
    <tag k="addr:postcode" v="69181"/>
    <tag k="addr:street" v="Am Güterbahnhof"/>
  </node>
  <node id="765351358" version="1" timestamp="2010-06-05T22:13:47Z" uid="256927" user="Timo Müller" changeset="4913038" lat="49.3437596" lon="8.6687675"/>
  <node id="765351359" version="1" timestamp="2010-06-05T22:13:47Z" uid="256927" user="Timo Müller" changeset="4913038" lat="49.3485249" lon="8.6696331">
    <tag k="addr:city" v="Leimen"/>
    <tag k="addr:country" v="DE"/>
    <tag k="addr:housenumber" v="10"/>
    <tag k="addr:postcode" v="69181"/>
    <tag k="addr:street" v="Otto-Hahn-Straße"/>
  </node>
  <node id="765351360" version="1" timestamp="2010-06-05T22:13:47Z" uid="256927" user="Timo Müller" changeset="4913038" lat="49.3475261" lon="8.6680153"/>
  <node id="765351361" version="1" timestamp="2010-06-05T22:13:48Z" uid="256927" user="Timo Müller" changeset="4913038" lat="49.345165" lon="8.6689308"/>
  <node id="765351362" version="1" timestamp="2010-06-05T22:13:48Z" uid="256927" user="Timo Müller" changeset="4913038" lat="49.346313" lon="8.6678659">
    <tag k="addr:city" v="Leimen"/>
    <tag k="addr:country" v="DE"/>
    <tag k="addr:housenumber" v="13"/>
    <tag k="addr:postcode" v="69181"/>
    <tag k="addr:street" v="Kurlandstraße"/>
  </node>
  <node id="765351363" version="1" timestamp="2010-06-05T22:13:48Z" uid="256927" user="Timo Müller" changeset="4913038" lat="49.3492809" lon="8.668592">
    <tag k="addr:city" v="Leimen"/>
    <tag k="addr:country" v="DE"/>
    <tag k="addr:housenumber" v="1"/>
    <tag k="addr:postcode" v="69181"/>
    <tag k="addr:street" v="Keplerweg"/>
  </node>
  <node id="765351364" version="1" timestamp="2010-06-05T22:13:48Z" uid="256927" user="Timo Müller" changeset="4913038" lat="49.3468788" lon="8.6675514">
    <tag k="barrier" v="gate"/>
  </node>
  <node id="765351365" version="1" timestamp="2010-06-05T22:13:48Z" uid="256927" user="Timo Müller" changeset="4913038" lat="49.3485464" lon="8.668145">
    <tag k="addr:city" v="Leimen"/>
    <tag k="addr:country" v="DE"/>
    <tag k="addr:housenumber" v="55"/>
    <tag k="addr:postcode" v="69181"/>
    <tag k="addr:street" v="Kurpfalzstraße"/>
    <tag k="amenity" v="restaurant"/>
    <tag k="name" v="Gaststätte Pfalzstube"/>
  </node>
  <node id="765351366" version="1" timestamp="2010-06-05T22:13:48Z" uid="256927" user="Timo Müller" changeset="4913038" lat="49.3454647" lon="8.666151"/>
  <node id="765351367" version="1" timestamp="2010-06-05T22:13:48Z" uid="256927" user="Timo Müller" changeset="4913038" lat="49.3449806" lon="8.6670815"/>
  <node id="765351368" version="1" timestamp="2010-06-05T22:13:48Z" uid="256927" user="Timo Müller" changeset="4913038" lat="49.3455438" lon="8.6682108">
    <tag k="addr:city" v="Leimen"/>
    <tag k="addr:country" v="DE"/>
    <tag k="addr:housenumber" v="10a"/>
    <tag k="addr:postcode" v="69181"/>
    <tag k="addr:street" v="Fasaneriestraße"/>
  </node>
  <node id="765351369" version="1" timestamp="2010-06-05T22:13:48Z" uid="256927" user="Timo Müller" changeset="4913038" lat="49.3471577" lon="8.6693431">
    <tag k="addr:city" v="Leimen"/>
    <tag k="addr:country" v="DE"/>
    <tag k="addr:housenumber" v="10"/>
    <tag k="addr:postcode" v="69181"/>
    <tag k="addr:street" v="Bunsenweg"/>
  </node>
  <node id="765351370" version="1" timestamp="2010-06-05T22:13:48Z" uid="256927" user="Timo Müller" changeset="4913038" lat="49.3458068" lon="8.6688135">
    <tag k="leisure" v="playground"/>
  </node>
  <node id="765351371" version="1" timestamp="2010-06-05T22:13:48Z" uid="256927" user="Timo Müller" changeset="4913038" lat="49.3452887" lon="8.6681838">
    <tag k="addr:city" v="Leimen"/>
    <tag k="addr:country" v="DE"/>
    <tag k="addr:housenumber" v="2"/>
    <tag k="addr:postcode" v="69181"/>
    <tag k="addr:street" v="Bürgermeister-Kübler-Weg"/>
  </node>
  <node id="765351372" version="1" timestamp="2010-06-05T22:13:49Z" uid="256927" user="Timo Müller" changeset="4913038" lat="49.3504191" lon="8.669114"/>
  <node id="765351373" version="1" timestamp="2010-06-05T22:13:49Z" uid="256927" user="Timo Müller" changeset="4913038" lat="49.3450551" lon="8.666658">
    <tag k="addr:city" v="Leimen"/>
    <tag k="addr:country" v="DE"/>
    <tag k="addr:housenumber" v="40"/>
    <tag k="addr:postcode" v="69181"/>
    <tag k="addr:street" v="Julius-Becker-Straße"/>
  </node>
  <node id="765351374" version="1" timestamp="2010-06-05T22:13:49Z" uid="256927" user="Timo Müller" changeset="4913038" lat="49.3456886" lon="8.6679144">
    <tag k="addr:city" v="Leimen"/>
    <tag k="addr:country" v="DE"/>
    <tag k="addr:housenumber" v="11"/>
    <tag k="addr:postcode" v="69181"/>
    <tag k="addr:street" v="Fasaneriestraße"/>
  </node>
  <node id="765351375" version="1" timestamp="2010-06-05T22:13:49Z" uid="256927" user="Timo Müller" changeset="4913038" lat="49.3460156" lon="8.6652893">
    <tag k="addr:city" v="Leimen"/>
    <tag k="addr:country" v="DE"/>
    <tag k="addr:housenumber" v="19"/>
    <tag k="addr:postcode" v="69181"/>
    <tag k="addr:street" v="In der Etzwiese"/>
  </node>
  <node id="765351376" version="1" timestamp="2010-06-05T22:13:49Z" uid="256927" user="Timo Müller" changeset="4913038" lat="49.3467569" lon="8.668118"/>
  <node id="765351377" version="1" timestamp="2010-06-05T22:13:49Z" uid="256927" user="Timo Müller" changeset="4913038" lat="49.3447332" lon="8.667863">
    <tag k="addr:city" v="Leimen"/>
    <tag k="addr:country" v="DE"/>
    <tag k="addr:housenumber" v="36"/>
    <tag k="addr:postcode" v="69181"/>
    <tag k="addr:street" v="Julius-Becker-Straße"/>
  </node>
  <node id="765351378" version="1" timestamp="2010-06-05T22:13:49Z" uid="256927" user="Timo Müller" changeset="4913038" lat="49.3500308" lon="8.6694379">
    <tag k="addr:city" v="Leimen"/>
    <tag k="addr:country" v="DE"/>
    <tag k="addr:housenumber" v="1"/>
    <tag k="addr:postcode" v="69181"/>
    <tag k="addr:street" v="Karl-Benz-Straße"/>
  </node>
  <node id="765351379" version="1" timestamp="2010-06-05T22:13:49Z" uid="256927" user="Timo Müller" changeset="4913038" lat="49.3453798" lon="8.6687534"/>
  <node id="765351380" version="1" timestamp="2010-06-05T22:13:49Z" uid="256927" user="Timo Müller" changeset="4913038" lat="49.3487406" lon="8.6696265">
    <tag k="addr:city" v="Leimen"/>
    <tag k="addr:country" v="DE"/>
    <tag k="addr:housenumber" v="9"/>
    <tag k="addr:postcode" v="69181"/>
    <tag k="addr:street" v="Otto-Hahn-Straße"/>
  </node>
  <node id="765351381" version="1" timestamp="2010-06-05T22:13:49Z" uid="256927" user="Timo Müller" changeset="4913038" lat="49.3457383" lon="8.6682266">
    <tag k="addr:city" v="Leimen"/>
    <tag k="addr:country" v="DE"/>
    <tag k="addr:housenumber" v="12"/>
    <tag k="addr:postcode" v="69181"/>
    <tag k="addr:street" v="Kurpfalzstraße"/>
  </node>
  <node id="765351382" version="1" timestamp="2010-06-05T22:13:49Z" uid="256927" user="Timo Müller" changeset="4913038" lat="49.3467025" lon="8.6662806">
    <tag k="addr:city" v="Leimen"/>
    <tag k="addr:country" v="DE"/>
    <tag k="addr:housenumber" v="2"/>
    <tag k="addr:postcode" v="69181"/>
    <tag k="addr:street" v="Schlesierstraße"/>
  </node>
  <node id="765351383" version="1" timestamp="2010-06-05T22:13:49Z" uid="256927" user="Timo Müller" changeset="4913038" lat="49.3491812" lon="8.6669503">
    <tag k="addr:city" v="Leimen"/>
    <tag k="addr:country" v="DE"/>
    <tag k="addr:housenumber" v="2"/>
    <tag k="addr:postcode" v="69181"/>
    <tag k="addr:street" v="Mannheimer Weg"/>
  </node>
  <node id="765351384" version="1" timestamp="2010-06-05T22:13:49Z" uid="256927" user="Timo Müller" changeset="4913038" lat="49.3502951" lon="8.6697851">
    <tag k="addr:city" v="Leimen"/>
    <tag k="addr:country" v="DE"/>
    <tag k="addr:housenumber" v="10"/>
    <tag k="addr:postcode" v="69181"/>
    <tag k="addr:street" v="Karl-Benz-Straße"/>
  </node>
  <node id="765351385" version="1" timestamp="2010-06-05T22:13:49Z" uid="256927" user="Timo Müller" changeset="4913038" lat="49.3492776" lon="8.6696476">
    <tag k="addr:city" v="Leimen"/>
    <tag k="addr:country" v="DE"/>
    <tag k="addr:housenumber" v="9"/>
    <tag k="addr:postcode" v="69181"/>
    <tag k="addr:street" v="Keplerweg"/>
  </node>
  <node id="765351386" version="1" timestamp="2010-06-05T22:13:49Z" uid="256927" user="Timo Müller" changeset="4913038" lat="49.345032" lon="8.6657282">
    <tag k="name" v="Umspannstation St. Ilgen Etzwiese"/>
    <tag k="operator" v="Badenwerk AG"/>
    <tag k="power" v="sub_station"/>
  </node>
  <node id="765351387" version="1" timestamp="2010-06-05T22:13:49Z" uid="256927" user="Timo Müller" changeset="4913038" lat="49.3448702" lon="8.6672872">
    <tag k="addr:city" v="Leimen"/>
    <tag k="addr:country" v="DE"/>
    <tag k="addr:housenumber" v="28"/>
    <tag k="addr:postcode" v="69181"/>
    <tag k="addr:street" v="Julius-Becker-Straße"/>
  </node>
  <node id="765351388" version="1" timestamp="2010-06-05T22:13:49Z" uid="256927" user="Timo Müller" changeset="4913038" lat="49.3470219" lon="8.6656066">
    <tag k="addr:city" v="Leimen"/>
    <tag k="addr:country" v="DE"/>
    <tag k="addr:housenumber" v="37"/>
    <tag k="addr:postcode" v="69181"/>
    <tag k="addr:street" v="In der Etzwiese"/>
  </node>
  <node id="765351389" version="1" timestamp="2010-06-05T22:13:49Z" uid="256927" user="Timo Müller" changeset="4913038" lat="49.3481375" lon="8.6677357">
    <tag k="addr:city" v="Leimen"/>
    <tag k="addr:country" v="DE"/>
    <tag k="addr:housenumber" v="3"/>
    <tag k="addr:postcode" v="69181"/>
    <tag k="addr:street" v="Karlsruher Straße"/>
  </node>
  <node id="765351390" version="1" timestamp="2010-06-05T22:13:49Z" uid="256927" user="Timo Müller" changeset="4913038" lat="49.3477087" lon="8.6679068">
    <tag k="addr:city" v="Leimen"/>
    <tag k="addr:country" v="DE"/>
    <tag k="addr:housenumber" v="12"/>
    <tag k="addr:postcode" v="69181"/>
    <tag k="addr:street" v="Karlsruher Straße"/>
  </node>
  <node id="765351391" version="1" timestamp="2010-06-05T22:13:49Z" uid="256927" user="Timo Müller" changeset="4913038" lat="49.3497453" lon="8.6669406">
    <tag k="addr:city" v="Leimen"/>
    <tag k="addr:country" v="DE"/>
    <tag k="addr:housenumber" v="2"/>
    <tag k="addr:postcode" v="69181"/>
    <tag k="addr:street" v="Heidelberger Weg"/>
  </node>
  <node id="765351392" version="1" timestamp="2010-06-05T22:13:50Z" uid="256927" user="Timo Müller" changeset="4913038" lat="49.3442264" lon="8.6670512">
    <tag k="amenity" v="telephone"/>
    <tag k="operator" v="Deutsche Telekom"/>
  </node>
  <node id="765351393" version="1" timestamp="2010-06-05T22:13:50Z" uid="256927" user="Timo Müller" changeset="4913038" lat="49.3471043" lon="8.6662452"/>
  <node id="765351394" version="1" timestamp="2010-06-05T22:13:50Z" uid="256927" user="Timo Müller" changeset="4913038" lat="49.3460241" lon="8.6686911"/>
  <node id="765351395" version="1" timestamp="2010-06-05T22:13:50Z" uid="256927" user="Timo Müller" changeset="4913038" lat="49.346831" lon="8.6659532">
    <tag k="addr:city" v="Leimen"/>
    <tag k="addr:country" v="DE"/>
    <tag k="addr:housenumber" v="43"/>
    <tag k="addr:postcode" v="69181"/>
    <tag k="addr:street" v="Julius-Becker-Straße"/>
  </node>
  <node id="765351396" version="1" timestamp="2010-06-05T22:13:50Z" uid="256927" user="Timo Müller" changeset="4913038" lat="49.3460443" lon="8.6659471">
    <tag k="addr:city" v="Leimen"/>
    <tag k="addr:country" v="DE"/>
    <tag k="addr:housenumber" v="1"/>
    <tag k="addr:postcode" v="69181"/>
    <tag k="addr:street" v="Lindenthalstraße"/>
  </node>
  <node id="765351397" version="1" timestamp="2010-06-05T22:13:50Z" uid="256927" user="Timo Müller" changeset="4913038" lat="49.3448033" lon="8.6684291">
    <tag k="addr:city" v="Leimen"/>
    <tag k="addr:country" v="DE"/>
    <tag k="addr:housenumber" v="4"/>
    <tag k="addr:postcode" v="69181"/>
    <tag k="addr:street" v="Kurpfalzstraße"/>
  </node>
  <node id="765351398" version="1" timestamp="2010-06-05T22:13:50Z" uid="256927" user="Timo Müller" changeset="4913038" lat="49.3446466" lon="8.6681751">
    <tag k="addr:city" v="Leimen"/>
    <tag k="addr:country" v="DE"/>
    <tag k="addr:housenumber" v="2"/>
    <tag k="addr:postcode" v="69181"/>
    <tag k="addr:street" v="Am Güterbahnhof"/>
  </node>
  <node id="765351399" version="1" timestamp="2010-06-05T22:13:50Z" uid="256927" user="Timo Müller" changeset="4913038" lat="49.349572" lon="8.6686372">
    <tag k="addr:city" v="Leimen"/>
    <tag k="addr:country" v="DE"/>
    <tag k="addr:housenumber" v="2"/>
    <tag k="addr:postcode" v="69181"/>
    <tag k="addr:street" v="Robert-Koch-Weg"/>
  </node>
  <node id="765351400" version="1" timestamp="2010-06-05T22:13:50Z" uid="256927" user="Timo Müller" changeset="4913038" lat="49.3472867" lon="8.668199">
    <tag k="barrier" v="gate"/>
  </node>
  <node id="765351401" version="1" timestamp="2010-06-05T22:13:50Z" uid="256927" user="Timo Müller" changeset="4913038" lat="49.3460301" lon="8.6685457">
    <tag k="addr:city" v="Leimen"/>
    <tag k="addr:country" v="DE"/>
    <tag k="addr:housenumber" v="30"/>
    <tag k="addr:postcode" v="69181"/>
    <tag k="addr:street" v="Kurpfalzstraße"/>
    <tag k="fixme" v="Position nur geschätzt"/>
  </node>
  <node id="765351402" version="1" timestamp="2010-06-05T22:13:50Z" uid="256927" user="Timo Müller" changeset="4913038" lat="49.345588" lon="8.6685578">
    <tag k="addr:city" v="Leimen"/>
    <tag k="addr:country" v="DE"/>
    <tag k="addr:housenumber" v="10e"/>
    <tag k="addr:postcode" v="69181"/>
    <tag k="addr:street" v="Fasaneriestraße"/>
  </node>
  <node id="765351403" version="1" timestamp="2010-06-05T22:13:50Z" uid="256927" user="Timo Müller" changeset="4913038" lat="49.3460831" lon="8.6678021">
    <tag k="addr:city" v="Leimen"/>
    <tag k="addr:country" v="DE"/>
    <tag k="addr:housenumber" v="14"/>
    <tag k="addr:postcode" v="69181"/>
    <tag k="addr:street" v="Kurlandstraße"/>
  </node>
  <node id="765351404" version="1" timestamp="2010-06-05T22:13:50Z" uid="256927" user="Timo Müller" changeset="4913038" lat="49.3470317" lon="8.669577"/>
  <node id="765351405" version="1" timestamp="2010-06-05T22:13:50Z" uid="256927" user="Timo Müller" changeset="4913038" lat="49.3438765" lon="8.6687881"/>
  <node id="765351406" version="1" timestamp="2010-06-05T22:13:50Z" uid="256927" user="Timo Müller" changeset="4913038" lat="49.3505863" lon="8.6686257">
    <tag k="barrier" v="gate"/>
  </node>
  <node id="765351407" version="1" timestamp="2010-06-05T22:13:50Z" uid="256927" user="Timo Müller" changeset="4913038" lat="49.3445932" lon="8.666895">
    <tag k="addr:city" v="Leimen"/>
    <tag k="addr:country" v="DE"/>
    <tag k="addr:housenumber" v="24"/>
    <tag k="addr:postcode" v="69181"/>
    <tag k="addr:street" v="Julius-Becker-Straße"/>
  </node>
  <node id="765351408" version="1" timestamp="2010-06-05T22:13:50Z" uid="256927" user="Timo Müller" changeset="4913038" lat="49.3491959" lon="8.6682709">
    <tag k="addr:city" v="Leimen"/>
    <tag k="addr:country" v="DE"/>
    <tag k="addr:housenumber" v="9"/>
    <tag k="addr:postcode" v="69181"/>
    <tag k="addr:street" v="Kurpfalzstraße"/>
  </node>
  <node id="765351409" version="1" timestamp="2010-06-05T22:13:50Z" uid="256927" user="Timo Müller" changeset="4913038" lat="49.3460102" lon="8.6656601">
    <tag k="addr:city" v="Leimen"/>
    <tag k="addr:country" v="DE"/>
    <tag k="addr:housenumber" v="3"/>
    <tag k="addr:postcode" v="69181"/>
    <tag k="addr:street" v="Lindenthalstraße"/>
  </node>
  <node id="765351410" version="1" timestamp="2010-06-05T22:13:50Z" uid="256927" user="Timo Müller" changeset="4913038" lat="49.3469926" lon="8.6695274"/>
  <node id="765351411" version="1" timestamp="2010-06-05T22:13:50Z" uid="256927" user="Timo Müller" changeset="4913038" lat="49.3498731" lon="8.6679912">
    <tag k="addr:city" v="Leimen"/>
    <tag k="addr:country" v="DE"/>
    <tag k="addr:housenumber" v="8"/>
    <tag k="addr:postcode" v="69181"/>
    <tag k="addr:street" v="Heidelberger Weg"/>
  </node>
  <node id="765351412" version="1" timestamp="2010-06-05T22:13:50Z" uid="256927" user="Timo Müller" changeset="4913038" lat="49.3438151" lon="8.6686932">
    <tag k="addr:city" v="Leimen"/>
    <tag k="addr:country" v="DE"/>
    <tag k="addr:housenumber" v="56"/>
    <tag k="addr:postcode" v="69181"/>
    <tag k="addr:street" v="Am Güterbahnhof"/>
  </node>
  <node id="765351413" version="1" timestamp="2010-06-05T22:13:50Z" uid="256927" user="Timo Müller" changeset="4913038" lat="49.3473349" lon="8.6682064"/>
  <node id="765351414" version="1" timestamp="2010-06-05T22:13:50Z" uid="256927" user="Timo Müller" changeset="4913038" lat="49.3503265" lon="8.6695331">
    <tag k="addr:city" v="Leimen"/>
    <tag k="addr:country" v="DE"/>
    <tag k="addr:housenumber" v="9"/>
    <tag k="addr:postcode" v="69181"/>
    <tag k="addr:street" v="Karl-Benz-Straße"/>
  </node>
  <node id="765351415" version="1" timestamp="2010-06-05T22:13:51Z" uid="256927" user="Timo Müller" changeset="4913038" lat="49.3469966" lon="8.6662413">
    <tag k="addr:city" v="Leimen"/>
    <tag k="addr:country" v="DE"/>
    <tag k="addr:housenumber" v="1a"/>
    <tag k="addr:postcode" v="69181"/>
    <tag k="addr:street" v="Schlesierstraße"/>
  </node>
  <node id="765351416" version="1" timestamp="2010-06-05T22:13:51Z" uid="256927" user="Timo Müller" changeset="4913038" lat="49.3467048" lon="8.6677434">
    <tag k="addr:city" v="Leimen"/>
    <tag k="addr:country" v="DE"/>
    <tag k="addr:housenumber" v="14"/>
    <tag k="addr:postcode" v="69181"/>
    <tag k="addr:street" v="Schlesierstraße"/>
  </node>
  <node id="765351417" version="1" timestamp="2010-06-05T22:13:51Z" uid="256927" user="Timo Müller" changeset="4913038" lat="49.3442275" lon="8.6686527">
    <tag k="addr:city" v="Leimen"/>
    <tag k="addr:country" v="DE"/>
    <tag k="addr:housenumber" v="36"/>
    <tag k="addr:postcode" v="69181"/>
    <tag k="addr:street" v="Am Güterbahnhof"/>
  </node>
  <node id="765351418" version="1" timestamp="2010-06-05T22:13:51Z" uid="256927" user="Timo Müller" changeset="4913038" lat="49.3468829" lon="8.6679356"/>
  <node id="765351419" version="1" timestamp="2010-06-05T22:13:51Z" uid="256927" user="Timo Müller" changeset="4913038" lat="49.349235" lon="8.6678531">
    <tag k="addr:city" v="Leimen"/>
    <tag k="addr:country" v="DE"/>
    <tag k="addr:housenumber" v="10"/>
    <tag k="addr:postcode" v="69181"/>
    <tag k="addr:street" v="Mannheimer Weg"/>
  </node>
  <node id="765351420" version="1" timestamp="2010-06-05T22:13:51Z" uid="256927" user="Timo Müller" changeset="4913038" lat="49.3490755" lon="8.6685108">
    <tag k="addr:city" v="Leimen"/>
    <tag k="addr:country" v="DE"/>
    <tag k="addr:housenumber" v="32"/>
    <tag k="addr:postcode" v="69181"/>
    <tag k="addr:street" v="Kurpfalzstraße"/>
  </node>
  <node id="765351421" version="1" timestamp="2010-06-05T22:13:51Z" uid="256927" user="Timo Müller" changeset="4913038" lat="49.345551" lon="8.6687627"/>
  <node id="765351422" version="1" timestamp="2010-06-05T22:13:51Z" uid="256927" user="Timo Müller" changeset="4913038" lat="49.3442833" lon="8.6688602"/>
  <node id="765351423" version="1" timestamp="2010-06-05T22:13:51Z" uid="256927" user="Timo Müller" changeset="4913038" lat="49.3469197" lon="8.6664772">
    <tag k="addr:city" v="Leimen"/>
    <tag k="addr:country" v="DE"/>
    <tag k="addr:housenumber" v="3"/>
    <tag k="addr:postcode" v="69181"/>
    <tag k="addr:street" v="Schlesierstraße"/>
  </node>
  <node id="765351424" version="1" timestamp="2010-06-05T22:13:51Z" uid="256927" user="Timo Müller" changeset="4913038" lat="49.3451629" lon="8.6676962">
    <tag k="addr:city" v="Leimen"/>
    <tag k="addr:country" v="DE"/>
    <tag k="addr:housenumber" v="3"/>
    <tag k="addr:postcode" v="69181"/>
    <tag k="addr:street" v="Im Probsterwald"/>
  </node>
  <node id="765351425" version="1" timestamp="2010-06-05T22:13:51Z" uid="256927" user="Timo Müller" changeset="4913038" lat="49.3441948" lon="8.6674432"/>
  <node id="765351426" version="1" timestamp="2010-06-05T22:13:51Z" uid="256927" user="Timo Müller" changeset="4913038" lat="49.3458557" lon="8.6690682">
    <tag k="addr:city" v="Leimen"/>
    <tag k="addr:country" v="DE"/>
    <tag k="addr:housenumber" v="15"/>
    <tag k="addr:postcode" v="69181"/>
    <tag k="addr:street" v="Fasaneriestraße"/>
  </node>
  <node id="765351427" version="1" timestamp="2010-06-05T22:13:51Z" uid="256927" user="Timo Müller" changeset="4913038" lat="49.3470073" lon="8.6653343">
    <tag k="addr:city" v="Leimen"/>
    <tag k="addr:country" v="DE"/>
    <tag k="addr:housenumber" v="35"/>
    <tag k="addr:postcode" v="69181"/>
    <tag k="addr:street" v="In der Etzwiese"/>
  </node>
  <node id="765351428" version="1" timestamp="2010-06-05T22:13:51Z" uid="256927" user="Timo Müller" changeset="4913038" lat="49.3452831" lon="8.6687122">
    <tag k="addr:city" v="Leimen"/>
    <tag k="addr:country" v="DE"/>
    <tag k="addr:housenumber" v="18"/>
    <tag k="addr:postcode" v="69181"/>
    <tag k="addr:street" v="Bürgermeister-Kübler-Weg"/>
  </node>
  <node id="765351429" version="1" timestamp="2010-06-05T22:13:51Z" uid="256927" user="Timo Müller" changeset="4913038" lat="49.3497715" lon="8.6697661">
    <tag k="addr:city" v="Leimen"/>
    <tag k="addr:country" v="DE"/>
    <tag k="addr:housenumber" v="9"/>
    <tag k="addr:postcode" v="69181"/>
    <tag k="addr:street" v="Robert-Koch-Weg"/>
  </node>
  <node id="765351430" version="1" timestamp="2010-06-05T22:13:51Z" uid="256927" user="Timo Müller" changeset="4913038" lat="49.3456827" lon="8.6691878">
    <tag k="addr:city" v="Leimen"/>
    <tag k="addr:country" v="DE"/>
    <tag k="addr:housenumber" v="14"/>
    <tag k="addr:postcode" v="69181"/>
    <tag k="addr:street" v="Fasaneriestraße"/>
  </node>
  <node id="765351431" version="1" timestamp="2010-06-05T22:13:51Z" uid="256927" user="Timo Müller" changeset="4913038" lat="49.3475854" lon="8.6683155">
    <tag k="addr:city" v="Leimen"/>
    <tag k="addr:country" v="DE"/>
    <tag k="addr:housenumber" v="1"/>
    <tag k="addr:postcode" v="69181"/>
    <tag k="addr:street" v="Bunsenweg"/>
  </node>
  <node id="765351432" version="1" timestamp="2010-06-05T22:13:51Z" uid="256927" user="Timo Müller" changeset="4913038" lat="49.3444873" lon="8.6674397">
    <tag k="addr:city" v="Leimen"/>
    <tag k="addr:country" v="DE"/>
    <tag k="addr:housenumber" v="32"/>
    <tag k="addr:postcode" v="69181"/>
    <tag k="addr:street" v="Julius-Becker-Straße"/>
  </node>
  <node id="765351433" version="1" timestamp="2010-06-05T22:13:51Z" uid="256927" user="Timo Müller" changeset="4913038" lat="49.3461457" lon="8.6681839">
    <tag k="addr:city" v="Leimen"/>
    <tag k="addr:country" v="DE"/>
    <tag k="addr:housenumber" v="18"/>
    <tag k="addr:postcode" v="69181"/>
    <tag k="addr:street" v="Kurpfalzstraße"/>
  </node>
  <node id="765351434" version="1" timestamp="2010-06-05T22:13:52Z" uid="256927" user="Timo Müller" changeset="4913038" lat="49.3441285" lon="8.6670118"/>
  <node id="765351435" version="1" timestamp="2010-06-05T22:13:52Z" uid="256927" user="Timo Müller" changeset="4913038" lat="49.3456204" lon="8.6688026">
    <tag k="addr:city" v="Leimen"/>
    <tag k="addr:country" v="DE"/>
    <tag k="addr:housenumber" v="13"/>
    <tag k="addr:postcode" v="69181"/>
    <tag k="addr:street" v="Fasaneriestraße"/>
  </node>
  <node id="765351436" version="1" timestamp="2010-06-05T22:13:52Z" uid="256927" user="Timo Müller" changeset="4913038" lat="49.3499626" lon="8.6671152">
    <tag k="addr:city" v="Leimen"/>
    <tag k="addr:country" v="DE"/>
    <tag k="addr:housenumber" v="1"/>
    <tag k="addr:postcode" v="69181"/>
    <tag k="addr:street" v="Heidelberger Weg"/>
  </node>
  <node id="765351892" version="2" timestamp="2010-07-28T20:05:02Z" uid="74617" user="JohnSmith" changeset="5339329" lat="60.189851" lon="24.9752447">
    <tag k="diameter" v="200"/>
    <tag k="emergency" v="fire_hydrant"/>
    <tag k="location" v="underground"/>
  </node>
  <node id="765351892" version="3" timestamp="2010-07-30T17:38:20Z" uid="74617" user="JohnSmith" changeset="5356742" lat="60.189851" lon="24.9752447">
    <tag k="amenity" v="fire_hydrant"/>
    <tag k="diameter" v="200"/>
    <tag k="emergency" v="fire_hydrant"/>
    <tag k="location" v="underground"/>
  </node>
  <node id="765353451" version="2" timestamp="2010-10-10T18:59:14Z" uid="9581" user="Lobelt" changeset="6005367" lat="49.6000347" lon="8.7077567"/>
  <node id="765354014" version="2" timestamp="2010-10-10T18:58:54Z" uid="9581" user="Lobelt" changeset="6005367" lat="49.6008231" lon="8.7076014"/>
  <node id="765354242" version="2" timestamp="2010-10-10T18:59:17Z" uid="9581" user="Lobelt" changeset="6005367" lat="49.600734" lon="8.7076823"/>
  <node id="765354449" version="2" timestamp="2010-10-10T18:59:07Z" uid="9581" user="Lobelt" changeset="6005367" lat="49.6010273" lon="8.7075936"/>
  <node id="765354479" version="3" timestamp="2011-03-06T20:56:29Z" uid="9581" user="Lobelt" changeset="7478428" lat="49.6061172" lon="8.6888282">
    <tag k="material" v="metal"/>
    <tag k="note" v="Endmast, geht als Kabel weiter"/>
    <tag k="power" v="pole"/>
    <tag k="ref" v="9"/>
  </node>
  <node id="765354547" version="2" timestamp="2010-10-10T18:59:24Z" uid="9581" user="Lobelt" changeset="6005367" lat="49.5992269" lon="8.7087329"/>
</osm>
