<?xml version='1.0' encoding='UTF-8'?>
<osm version="0.6" generator="libosmium/2.20.0">
  <node id="767082167" version="1" timestamp="2010-06-08T08:46:13Z" uid="4467" user="Rosscoe" changeset="4935021" lat="-20.3549585" lon="148.583856">
    <tag k="addr:city" v="Strathdickie"/>
    <tag k="addr:country" v="AU"/>
    <tag k="addr:housenumber" v="114"/>
    <tag k="addr:postcode" v="4800"/>
    <tag k="addr:street" v="Camile Drive"/>
  </node>
  <node id="767082306" version="2" timestamp="2010-07-28T20:07:26Z" uid="74617" user="JohnSmith" changeset="5339329" lat="43.6047048" lon="1.5116023">
    <tag k="emergency" v="fire_hydrant"/>
    <tag k="source" v="local_knowledge"/>
  </node>
  <node id="767082306" version="3" timestamp="2010-07-30T17:42:51Z" uid="74617" user="JohnSmith" changeset="5356742" lat="43.6047048" lon="1.5116023">
    <tag k="amenity" v="fire_hydrant"/>
    <tag k="emergency" v="fire_hydrant"/>
    <tag k="source" v="local_knowledge"/>
  </node>
  <node id="767082848" version="2" timestamp="2010-07-28T20:09:33Z" uid="74617" user="JohnSmith" changeset="5339329" lat="43.5961817" lon="1.501324">
    <tag k="emergency" v="fire_hydrant"/>
    <tag k="source" v="local_knowledge"/>
  </node>
  <node id="767082848" version="3" timestamp="2010-07-30T17:45:46Z" uid="74617" user="JohnSmith" changeset="5356742" lat="43.5961817" lon="1.501324">
    <tag k="amenity" v="fire_hydrant"/>
    <tag k="emergency" v="fire_hydrant"/>
    <tag k="source" v="local_knowledge"/>
  </node>
  <node id="767083738" version="1" timestamp="2010-06-08T08:49:15Z" uid="6975" user="ulfl" changeset="4935358" lat="47.7771078" lon="7.9453629">
    <tag k="amenity" v="parking"/>
    <tag k="fee" v="no"/>
    <tag k="park_ride" v="no"/>
    <tag k="parking" v="surface"/>
  </node>
  <node id="767085479" version="1" timestamp="2010-06-08T08:57:24Z" uid="6975" user="ulfl" changeset="4935358" lat="47.7769316" lon="7.9452496">
    <tag k="amenity" v="shelter"/>
    <tag k="name" v="Tiergrüblehütte"/>
  </node>
  <node id="767087034" version="2" timestamp="2011-03-18T09:34:26Z" uid="49111" user="Markus B" changeset="7593312" lat="-43.9502389" lon="-176.5618225">
    <tag k="LINZ:point_size" v="6.0"/>
    <tag k="LINZ:size" v="4.1"/>
    <tag k="LINZ:source_version" v="V16"/>
    <tag k="LINZ:text_placement_justification" v="1.0"/>
    <tag k="LINZ:x_offset" v="0.5"/>
    <tag k="attribution" v="http://wiki.osm.org/wiki/Attribution#LINZ"/>
    <tag k="name" v="Fish factories"/>
    <tag k="source_ref" v="http://www.linz.govt.nz/topography/topo-maps/"/>
  </node>
</osm>
