<?xml version='1.0' encoding='UTF-8'?>
<osm version="0.6" generator="libosmium/2.20.0">
  <node id="767231568" version="2" timestamp="2011-03-03T20:45:44Z" uid="20587" user="balrog-kun" changeset="7449473" lat="51.7623834" lon="19.4576996">
    <tag k="amenity" v="pharmacy"/>
    <tag k="name" v="Apteka imienia Ludwika Zamenhofa"/>
  </node>
  <node id="767231707" version="2" timestamp="2011-03-18T11:06:35Z" uid="66036" user="h4v" changeset="7594036" lat="51.7637496" lon="19.4570754">
    <tag k="name" v="Urzad Miasta Łodzi"/>
    <tag k="office" v="government"/>
  </node>
  <node id="767232691" version="2" timestamp="2011-03-18T11:06:36Z" uid="66036" user="h4v" changeset="7594036" lat="51.7638691" lon="19.4565605">
    <tag k="name" v="Miejski Rzecznik Konsumentów"/>
    <tag k="office" v="government"/>
  </node>
  <node id="767234918" version="2" timestamp="2011-03-18T11:06:35Z" uid="66036" user="h4v" changeset="7594036" lat="51.7640417" lon="19.4567536">
    <tag k="name" v="Liga ochrony Przyrody"/>
    <tag k="office" v="ngo"/>
  </node>
  <node id="767236205" version="2" timestamp="2011-03-14T13:21:11Z" uid="66036" user="h4v" changeset="7556234" lat="51.7191457" lon="19.4790622">
    <tag k="name" v="Piekarnia"/>
    <tag k="shop" v="bakery"/>
  </node>
  <node id="767238075" version="2" timestamp="2011-03-18T11:06:34Z" uid="66036" user="h4v" changeset="7594036" lat="51.7635238" lon="19.4566034">
    <tag k="name" v="Łódzkie Towarzystwo opieki nad zwierzętami"/>
    <tag k="office" v="ngo"/>
  </node>
  <node id="767238209" version="2" timestamp="2011-03-14T13:21:14Z" uid="66036" user="h4v" changeset="7556234" lat="51.7203687" lon="19.4797167">
    <tag k="shop" v="hairdresser"/>
  </node>
  <node id="767239458" version="2" timestamp="2011-03-14T13:21:18Z" uid="66036" user="h4v" changeset="7556234" lat="51.7186738" lon="19.4879671">
    <tag k="name" v="Wypozyczalnia Video &quot;Libu&quot;"/>
    <tag k="shop" v="video"/>
  </node>
  <node id="767239557" version="2" timestamp="2011-04-13T21:23:44Z" uid="66036" user="h4v" changeset="7856170" lat="51.7631072" lon="19.4561852">
    <tag k="amenity" v="school"/>
    <tag k="name" v="Przedszkole Miejskie nr 5"/>
  </node>
</osm>
