<?xml version='1.0' encoding='UTF-8'?>
<osm version="0.6" generator="libosmium/2.20.0">
  <node id="767470119" version="1" timestamp="2010-06-08T19:47:25Z" uid="74617" user="JohnSmith" changeset="4940036" lat="-27.195335" lon="153.0293888">
    <tag k="name" v="Cornett&apos;s Super IGA"/>
    <tag k="opening_hours" v="Mo-Fr 08:00-21:00; Sa 08:00-17:00; Su 09:00-17:00"/>
    <tag k="operator" v="IGA"/>
    <tag k="phone" v="+61-7-3204-7462"/>
    <tag k="shop" v="supermarket"/>
  </node>
  <node id="767470119" version="2" timestamp="2010-06-08T20:17:11Z" uid="74617" user="JohnSmith" changeset="4940036" lat="-27.195194" lon="153.0292651">
    <tag k="name" v="Cornett&apos;s Super IGA"/>
    <tag k="opening_hours" v="Mo-Fr 08:00-21:00; Sa 08:00-17:00; Su 09:00-17:00"/>
    <tag k="operator" v="IGA"/>
    <tag k="phone" v="+61-7-3204-7462"/>
    <tag k="shop" v="supermarket"/>
  </node>
  <node id="767470123" version="1" timestamp="2010-06-08T19:47:25Z" uid="74617" user="JohnSmith" changeset="4940036" lat="-27.1938522" lon="153.0291371">
    <tag k="opening_hours" v="Mo-Fr 09:00-18:00; Sa,Su 09:00-17:00"/>
    <tag k="operator" v="Sam&apos;s Warehouse"/>
    <tag k="phone" v="+61-7-3293-1066"/>
    <tag k="shop" v="variety_store"/>
  </node>
  <node id="767470124" version="1" timestamp="2010-06-08T19:47:25Z" uid="74617" user="JohnSmith" changeset="4940036" lat="-27.1942914" lon="153.0286496">
    <tag k="opening_hours" v="Mo-Fr 08:00-21:00; Sa 08:00-17:00; Su 09:00-17:00"/>
    <tag k="operator" v="Woolworths"/>
    <tag k="shop" v="supermarket"/>
  </node>
  <node id="767470126" version="1" timestamp="2010-06-08T19:47:25Z" uid="74617" user="JohnSmith" changeset="4940036" lat="-27.1943306" lon="153.0291308">
    <tag k="name" v="Dave Knudsen Retravision"/>
    <tag k="opening_hours" v="Mo-We,Fr 09:00-17:30; Th 09:00-19:00; Sa 09:00-16:00"/>
    <tag k="phone" v="+61-7-3204-7222"/>
    <tag k="shop" v="electronics"/>
  </node>
  <node id="767472646" version="1" timestamp="2010-06-08T19:50:22Z" uid="74617" user="JohnSmith" changeset="4940036" lat="-27.1946915" lon="153.0290742">
    <tag k="amenity" v="post_office"/>
    <tag k="operator" v="Australia Post"/>
    <tag k="phone" v="+61-7-3203-1120"/>
  </node>
  <node id="767472654" version="2" timestamp="2010-10-08T19:41:35Z" uid="9581" user="Lobelt" changeset="5988823" lat="49.4026329" lon="9.2132809"/>
  <node id="767472772" version="3" timestamp="2010-10-08T19:41:37Z" uid="9581" user="Lobelt" changeset="5988823" lat="49.3992726" lon="9.2240176"/>
  <node id="767476183" version="3" timestamp="2010-10-08T19:40:53Z" uid="9581" user="Lobelt" changeset="5988823" lat="49.398979" lon="9.2258628"/>
  <node id="767478011" version="1" timestamp="2010-06-08T19:57:06Z" uid="74617" user="JohnSmith" changeset="4940036" lat="-27.1948972" lon="153.0291614">
    <tag k="amenity" v="atm"/>
    <tag k="operator" v="Bank of Queensland"/>
  </node>
  <node id="767478011" version="2" timestamp="2010-06-09T08:56:46Z" uid="74617" user="JohnSmith" changeset="4943499" lat="-27.1949076" lon="153.0291706">
    <tag k="amenity" v="atm"/>
    <tag k="operator" v="Bank of Queensland"/>
  </node>
  <node id="767478013" version="1" timestamp="2010-06-08T19:57:07Z" uid="74617" user="JohnSmith" changeset="4940036" lat="-27.1952822" lon="153.0284347">
    <tag k="addr:housenumber" v="681"/>
    <tag k="addr:street" v="Deception Bay Road"/>
    <tag k="operator" v="BWS"/>
    <tag k="phone" v="+61-7-3203-1342‎"/>
    <tag k="shop" v="alcohol"/>
  </node>
  <node id="767478013" version="2" timestamp="2010-06-09T09:24:13Z" uid="74617" user="JohnSmith" changeset="4943499" lat="-27.1952822" lon="153.028435">
    <tag k="addr:housenumber" v="681"/>
    <tag k="addr:street" v="Deception Bay Road"/>
    <tag k="opening_hours" v="09:00-22:00"/>
    <tag k="operator" v="BWS"/>
    <tag k="phone" v="+61-7-3203-1342‎"/>
    <tag k="shop" v="alcohol"/>
  </node>
  <node id="767478014" version="1" timestamp="2010-06-08T19:57:07Z" uid="74617" user="JohnSmith" changeset="4940036" lat="-27.1949657" lon="153.0291812">
    <tag k="amenity" v="bank"/>
    <tag k="operator" v="Bank of Queensland"/>
    <tag k="phone" v="+61-7-3204-2600"/>
  </node>
  <node id="767478016" version="1" timestamp="2010-06-08T19:57:07Z" uid="74617" user="JohnSmith" changeset="4940036" lat="-27.1951363" lon="153.0289421">
    <tag k="amenity" v="atm"/>
    <tag k="operator" v="Westpac"/>
  </node>
  <node id="767479585" version="1" timestamp="2010-06-08T20:02:59Z" uid="74617" user="JohnSmith" changeset="4940036" lat="-27.1944812" lon="153.0290879">
    <tag k="shop" v="ice_cream"/>
  </node>
</osm>
