<?xml version='1.0' encoding='UTF-8'?>
<osm version="0.6" generator="libosmium/2.20.0">
  <node id="772126913" version="2" timestamp="2010-07-19T20:05:58Z" uid="20587" user="balrog-kun" changeset="5264599" lat="41.9751871" lon="2.8108187"/>
  <node id="772129063" version="1" timestamp="2010-06-13T21:16:46Z" uid="55964" user="Evan Sebire" changeset="4983216" lat="46.4903944" lon="7.5577627"/>
  <node id="772129076" version="1" timestamp="2010-06-13T21:16:47Z" uid="55964" user="Evan Sebire" changeset="4983216" lat="46.4902811" lon="7.5575379">
    <tag k="addr:city" v="adelboden"/>
    <tag k="addr:country" v="ch"/>
    <tag k="addr:housenumber" v="27"/>
    <tag k="addr:postpost" v="3715"/>
    <tag k="addr:street" v="Zelgstrasse"/>
    <tag k="source" v="survey"/>
  </node>
  <node id="772129080" version="1" timestamp="2010-06-13T21:16:47Z" uid="55964" user="Evan Sebire" changeset="4983216" lat="46.4903012" lon="7.5577495">
    <tag k="addr:city" v="adelboden"/>
    <tag k="addr:country" v="ch"/>
    <tag k="addr:housenumber" v="25"/>
    <tag k="addr:postpost" v="3715"/>
    <tag k="addr:street" v="Zelgstrasse"/>
    <tag k="source" v="survey"/>
  </node>
  <node id="772129083" version="1" timestamp="2010-06-13T21:16:47Z" uid="55964" user="Evan Sebire" changeset="4983216" lat="46.4903579" lon="7.5579532">
    <tag k="addr:city" v="adelboden"/>
    <tag k="addr:country" v="ch"/>
    <tag k="addr:housenumber" v="23"/>
    <tag k="addr:postpost" v="3715"/>
    <tag k="addr:street" v="Zelgstrasse"/>
    <tag k="name" v="Arlette"/>
    <tag k="source" v="survey"/>
  </node>
  <node id="772129089" version="1" timestamp="2010-06-13T21:16:47Z" uid="55964" user="Evan Sebire" changeset="4983216" lat="46.4902811" lon="7.5575379">
    <tag k="addr:city" v="adelboden"/>
    <tag k="addr:country" v="ch"/>
    <tag k="addr:housenumber" v="27"/>
    <tag k="addr:postpost" v="3715"/>
    <tag k="addr:street" v="Zelgstrasse"/>
    <tag k="source" v="survey"/>
  </node>
  <node id="772129095" version="1" timestamp="2010-06-13T21:16:47Z" uid="55964" user="Evan Sebire" changeset="4983216" lat="46.4905131" lon="7.5581965">
    <tag k="addr:city" v="adelboden"/>
    <tag k="addr:country" v="ch"/>
    <tag k="addr:housenumber" v="21"/>
    <tag k="addr:postpost" v="3715"/>
    <tag k="addr:street" v="Zelgstrasse"/>
    <tag k="name" v="Siesta"/>
    <tag k="source" v="survey"/>
  </node>
  <node id="772129100" version="1" timestamp="2010-06-13T21:16:48Z" uid="55964" user="Evan Sebire" changeset="4983216" lat="46.4906173" lon="7.5583181">
    <tag k="addr:city" v="adelboden"/>
    <tag k="addr:country" v="ch"/>
    <tag k="addr:housenumber" v="19"/>
    <tag k="addr:postpost" v="3715"/>
    <tag k="addr:street" v="Zelgstrasse"/>
    <tag k="name" v="Cristallo"/>
    <tag k="source" v="survey"/>
  </node>
  <node id="772129107" version="1" timestamp="2010-06-13T21:16:48Z" uid="55964" user="Evan Sebire" changeset="4983216" lat="46.4907744" lon="7.5584768">
    <tag k="addr:city" v="adelboden"/>
    <tag k="addr:country" v="ch"/>
    <tag k="addr:housenumber" v="17"/>
    <tag k="addr:postpost" v="3715"/>
    <tag k="addr:street" v="Zelgstrasse"/>
    <tag k="source" v="survey"/>
  </node>
  <node id="772129113" version="1" timestamp="2010-06-13T21:16:48Z" uid="55964" user="Evan Sebire" changeset="4983216" lat="46.4914361" lon="7.5595467">
    <tag k="addr:city" v="adelboden"/>
    <tag k="addr:country" v="ch"/>
    <tag k="addr:housenumber" v="1"/>
    <tag k="addr:postpost" v="3715"/>
    <tag k="addr:street" v="Hubelstrasse"/>
    <tag k="source" v="survey"/>
  </node>
  <node id="772129119" version="1" timestamp="2010-06-13T21:16:48Z" uid="55964" user="Evan Sebire" changeset="4983216" lat="46.4913513" lon="7.5594944">
    <tag k="addr:city" v="adelboden"/>
    <tag k="addr:country" v="ch"/>
    <tag k="addr:housenumber" v="2"/>
    <tag k="addr:postpost" v="3715"/>
    <tag k="addr:street" v="Hubelstrasse"/>
    <tag k="source" v="survey"/>
  </node>
  <node id="772129122" version="1" timestamp="2010-06-13T21:16:48Z" uid="55964" user="Evan Sebire" changeset="4983216" lat="46.4911889" lon="7.5597515">
    <tag k="addr:city" v="adelboden"/>
    <tag k="addr:country" v="ch"/>
    <tag k="addr:housenumber" v="12"/>
    <tag k="addr:postpost" v="3715"/>
    <tag k="addr:street" v="Hubelstrasse"/>
    <tag k="name" v="Zgel-Schlupf"/>
    <tag k="source" v="survey"/>
  </node>
  <node id="772129126" version="1" timestamp="2010-06-13T21:16:48Z" uid="55964" user="Evan Sebire" changeset="4983216" lat="46.491216" lon="7.5598832">
    <tag k="addr:city" v="adelboden"/>
    <tag k="addr:country" v="ch"/>
    <tag k="addr:housenumber" v="3"/>
    <tag k="addr:postpost" v="3715"/>
    <tag k="addr:street" v="Hubelstrasse"/>
    <tag k="source" v="survey"/>
  </node>
  <node id="772129131" version="1" timestamp="2010-06-13T21:16:48Z" uid="55964" user="Evan Sebire" changeset="4983216" lat="46.4911219" lon="7.5600059">
    <tag k="addr:city" v="adelboden"/>
    <tag k="addr:country" v="ch"/>
    <tag k="addr:housenumber" v="5"/>
    <tag k="addr:postpost" v="3715"/>
    <tag k="addr:street" v="Hubelstrasse"/>
    <tag k="name" v="Chalet Iglu"/>
    <tag k="source" v="survey"/>
  </node>
  <node id="772129134" version="1" timestamp="2010-06-13T21:16:48Z" uid="55964" user="Evan Sebire" changeset="4983216" lat="46.4910257" lon="7.5599907">
    <tag k="addr:city" v="adelboden"/>
    <tag k="addr:country" v="ch"/>
    <tag k="addr:housenumber" v="20"/>
    <tag k="addr:postpost" v="3715"/>
    <tag k="addr:street" v="Hubelstrasse"/>
    <tag k="source" v="survey"/>
  </node>
  <node id="772129138" version="1" timestamp="2010-06-13T21:16:48Z" uid="55964" user="Evan Sebire" changeset="4983216" lat="46.4908674" lon="7.5602045">
    <tag k="addr:city" v="adelboden"/>
    <tag k="addr:country" v="ch"/>
    <tag k="addr:housenumber" v="28"/>
    <tag k="addr:postpost" v="3715"/>
    <tag k="addr:street" v="Hubelstrasse"/>
    <tag k="source" v="survey"/>
  </node>
  <node id="772129141" version="1" timestamp="2010-06-13T21:16:48Z" uid="55964" user="Evan Sebire" changeset="4983216" lat="46.4908449" lon="7.5604404">
    <tag k="addr:city" v="adelboden"/>
    <tag k="addr:country" v="ch"/>
    <tag k="addr:housenumber" v="9"/>
    <tag k="addr:postpost" v="3715"/>
    <tag k="addr:street" v="Hubelstrasse"/>
    <tag k="source" v="survey"/>
  </node>
  <node id="772129144" version="1" timestamp="2010-06-13T21:16:48Z" uid="55964" user="Evan Sebire" changeset="4983216" lat="46.4906689" lon="7.5604838">
    <tag k="addr:city" v="adelboden"/>
    <tag k="addr:country" v="ch"/>
    <tag k="addr:housenumber" v="32"/>
    <tag k="addr:postpost" v="3715"/>
    <tag k="addr:street" v="Hubelstrasse"/>
    <tag k="source" v="survey"/>
  </node>
  <node id="772129146" version="1" timestamp="2010-06-13T21:16:48Z" uid="55964" user="Evan Sebire" changeset="4983216" lat="46.490712" lon="7.5606438">
    <tag k="addr:city" v="adelboden"/>
    <tag k="addr:country" v="ch"/>
    <tag k="addr:housenumber" v="11"/>
    <tag k="addr:postpost" v="3715"/>
    <tag k="addr:street" v="Hubelstrasse"/>
    <tag k="source" v="survey"/>
  </node>
  <node id="772129147" version="1" timestamp="2010-06-13T21:16:48Z" uid="55964" user="Evan Sebire" changeset="4983216" lat="46.4905153" lon="7.5607388">
    <tag k="addr:city" v="adelboden"/>
    <tag k="addr:country" v="ch"/>
    <tag k="addr:housenumber" v="34"/>
    <tag k="addr:postpost" v="3715"/>
    <tag k="addr:street" v="Hubelstrasse"/>
    <tag k="source" v="survey"/>
  </node>
  <node id="772129148" version="1" timestamp="2010-06-13T21:16:49Z" uid="55964" user="Evan Sebire" changeset="4983216" lat="46.4904554" lon="7.5610181">
    <tag k="addr:city" v="adelboden"/>
    <tag k="addr:country" v="ch"/>
    <tag k="addr:housenumber" v="15"/>
    <tag k="addr:postpost" v="3715"/>
    <tag k="addr:street" v="Hubelstrasse"/>
    <tag k="source" v="survey"/>
  </node>
  <node id="772129151" version="1" timestamp="2010-06-13T21:16:49Z" uid="55964" user="Evan Sebire" changeset="4983216" lat="46.4902611" lon="7.5611224">
    <tag k="addr:city" v="adelboden"/>
    <tag k="addr:country" v="ch"/>
    <tag k="addr:housenumber" v="1"/>
    <tag k="addr:postpost" v="3715"/>
    <tag k="addr:street" v="LÃ¤rcheweg"/>
    <tag k="source" v="survey"/>
  </node>
  <node id="772129155" version="1" timestamp="2010-06-13T21:16:49Z" uid="55964" user="Evan Sebire" changeset="4983216" lat="46.4902399" lon="7.5610473"/>
  <node id="772129160" version="1" timestamp="2010-06-13T21:16:49Z" uid="55964" user="Evan Sebire" changeset="4983216" lat="46.4909894" lon="7.5587155">
    <tag k="addr:city" v="adelboden"/>
    <tag k="addr:country" v="ch"/>
    <tag k="addr:housenumber" v="15"/>
    <tag k="addr:postpost" v="3715"/>
    <tag k="addr:street" v="Zelgstrasse"/>
    <tag k="source" v="survey"/>
  </node>
  <node id="772129164" version="1" timestamp="2010-06-13T21:16:49Z" uid="55964" user="Evan Sebire" changeset="4983216" lat="46.4911263" lon="7.5588477">
    <tag k="addr:city" v="adelboden"/>
    <tag k="addr:country" v="ch"/>
    <tag k="addr:housenumber" v="13"/>
    <tag k="addr:postpost" v="3715"/>
    <tag k="addr:street" v="Zelgstrasse"/>
    <tag k="source" v="survey"/>
  </node>
  <node id="772129167" version="1" timestamp="2010-06-13T21:16:49Z" uid="55964" user="Evan Sebire" changeset="4983216" lat="46.491213" lon="7.5587519">
    <tag k="addr:city" v="adelboden"/>
    <tag k="addr:country" v="ch"/>
    <tag k="addr:housenumber" v="18"/>
    <tag k="addr:postpost" v="3715"/>
    <tag k="addr:street" v="Zelgstrasse"/>
    <tag k="source" v="survey"/>
  </node>
  <node id="772129169" version="1" timestamp="2010-06-13T21:16:49Z" uid="55964" user="Evan Sebire" changeset="4983216" lat="46.4912473" lon="7.5589831">
    <tag k="addr:city" v="adelboden"/>
    <tag k="addr:country" v="ch"/>
    <tag k="addr:housenumber" v="11"/>
    <tag k="addr:postpost" v="3715"/>
    <tag k="addr:street" v="Zelgstrasse"/>
    <tag k="source" v="survey"/>
  </node>
  <node id="772129170" version="1" timestamp="2010-06-13T21:16:49Z" uid="55964" user="Evan Sebire" changeset="4983216" lat="46.4914526" lon="7.559221">
    <tag k="addr:city" v="adelboden"/>
    <tag k="addr:country" v="ch"/>
    <tag k="addr:housenumber" v="9"/>
    <tag k="addr:postpost" v="3715"/>
    <tag k="addr:street" v="Zelgstrasse"/>
    <tag k="source" v="survey"/>
  </node>
  <node id="772129172" version="1" timestamp="2010-06-13T21:16:49Z" uid="55964" user="Evan Sebire" changeset="4983216" lat="46.4908429" lon="7.5573543">
    <tag k="addr:city" v="adelboden"/>
    <tag k="addr:country" v="ch"/>
    <tag k="addr:housenumber" v="34"/>
    <tag k="addr:postpost" v="3715"/>
    <tag k="addr:street" v="Zelgstrasse"/>
    <tag k="source" v="survey"/>
  </node>
  <node id="772129187" version="1" timestamp="2010-06-13T21:16:49Z" uid="55964" user="Evan Sebire" changeset="4983216" lat="46.4912224" lon="7.5570652">
    <tag k="amenity" v="pharmacy"/>
    <tag k="name" v="WildStrubel-Drogerie"/>
    <tag k="source" v="survey"/>
  </node>
  <node id="772129190" version="1" timestamp="2010-06-13T21:16:49Z" uid="55964" user="Evan Sebire" changeset="4983216" lat="46.4918677" lon="7.557871">
    <tag k="addr:city" v="adelboden"/>
    <tag k="addr:country" v="ch"/>
    <tag k="addr:housenumber" v="34"/>
    <tag k="addr:postpost" v="3715"/>
    <tag k="addr:street" v="Dorfstrasse"/>
    <tag k="source" v="survey"/>
  </node>
  <node id="772129196" version="1" timestamp="2010-06-13T21:16:50Z" uid="55964" user="Evan Sebire" changeset="4983216" lat="46.4919261" lon="7.5579417">
    <tag k="addr:city" v="adelboden"/>
    <tag k="addr:country" v="ch"/>
    <tag k="addr:housenumber" v="32"/>
    <tag k="addr:postpost" v="3715"/>
    <tag k="addr:street" v="Dorfstrasse"/>
    <tag k="source" v="survey"/>
  </node>
  <node id="772129199" version="1" timestamp="2010-06-13T21:16:50Z" uid="55964" user="Evan Sebire" changeset="4983216" lat="46.4920261" lon="7.5580896">
    <tag k="amenity" v="bank"/>
    <tag k="name" v="Spar+Leihkasse"/>
    <tag k="source" v="survey"/>
  </node>
  <node id="772129202" version="1" timestamp="2010-06-13T21:16:50Z" uid="55964" user="Evan Sebire" changeset="4983216" lat="46.4920222" lon="7.5582875">
    <tag k="amenity" v="bank;atm"/>
    <tag k="name" v="BEKB"/>
    <tag k="source" v="survey,guess"/>
  </node>
  <node id="772129204" version="1" timestamp="2010-06-13T21:16:50Z" uid="55964" user="Evan Sebire" changeset="4983216" lat="46.4907607" lon="7.557246"/>
  <node id="772129207" version="1" timestamp="2010-06-13T21:16:50Z" uid="55964" user="Evan Sebire" changeset="4983216" lat="46.4906668" lon="7.5573182"/>
  <node id="772129210" version="1" timestamp="2010-06-13T21:16:50Z" uid="55964" user="Evan Sebire" changeset="4983216" lat="46.4909019" lon="7.557334"/>
</osm>
