<?xml version='1.0' encoding='UTF-8'?>
<osm version="0.6" generator="libosmium/2.20.0">
  <node id="783955786" version="2" timestamp="2010-06-25T12:44:38Z" uid="20587" user="balrog-kun" changeset="5073405" lat="41.9788879" lon="2.8149256">
    <tag k="leisure" v="pitch"/>
    <tag k="name" v="Parc Central"/>
    <tag k="name:ca" v="Parc Central"/>
    <tag k="source" v="Ajuntament de Girona"/>
  </node>
  <node id="783955801" version="2" timestamp="2010-06-25T12:44:44Z" uid="20587" user="balrog-kun" changeset="5073405" lat="41.9698808" lon="2.8173229">
    <tag k="name" v="Sant Pau"/>
    <tag k="name:ca" v="Sant Pau"/>
    <tag k="source" v="Ajuntament de Girona"/>
    <tag k="sport" v="table_tennis"/>
  </node>
  <node id="783955810" version="2" timestamp="2010-06-25T12:44:44Z" uid="20587" user="balrog-kun" changeset="5073405" lat="41.9720973" lon="2.8416173">
    <tag k="name" v="Pavelló Vila-Roja"/>
    <tag k="name:ca" v="Pavelló Vila-Roja"/>
    <tag k="source" v="Ajuntament de Girona"/>
  </node>
  <node id="783955817" version="2" timestamp="2010-06-25T12:44:45Z" uid="20587" user="balrog-kun" changeset="5073405" lat="41.9928668" lon="2.8206819">
    <tag k="leisure" v="pitch"/>
    <tag k="name" v="Paratge Rissec"/>
    <tag k="name:ca" v="Paratge Rissec"/>
    <tag k="source" v="Ajuntament de Girona"/>
  </node>
  <node id="783955827" version="2" timestamp="2010-06-25T12:44:45Z" uid="20587" user="balrog-kun" changeset="5073405" lat="41.9611393" lon="2.8282528">
    <tag k="leisure" v="pitch"/>
    <tag k="name" v="Estadi Municipal de Montilivi"/>
    <tag k="name:ca" v="Estadi Municipal de Montilivi"/>
    <tag k="source" v="Ajuntament de Girona"/>
    <tag k="sport" v="soccer"/>
  </node>
  <node id="783955840" version="2" timestamp="2010-06-25T12:44:45Z" uid="20587" user="balrog-kun" changeset="5073405" lat="41.9942672" lon="2.8153014">
    <tag k="leisure" v="pitch"/>
    <tag k="name" v="Fontajau"/>
    <tag k="name:ca" v="Fontajau"/>
    <tag k="source" v="Ajuntament de Girona"/>
  </node>
  <node id="783955852" version="2" timestamp="2010-06-25T12:44:45Z" uid="20587" user="balrog-kun" changeset="5073405" lat="42.0058583" lon="2.8221356">
    <tag k="leisure" v="pitch"/>
    <tag k="name" v="Pont Major"/>
    <tag k="name:ca" v="Pont Major"/>
    <tag k="source" v="Ajuntament de Girona"/>
  </node>
  <node id="783955899" version="2" timestamp="2010-06-25T12:44:45Z" uid="20587" user="balrog-kun" changeset="5073405" lat="41.9714202" lon="2.8047108">
    <tag k="leisure" v="pitch"/>
    <tag k="name" v="Can Gibert"/>
    <tag k="name:ca" v="Can Gibert"/>
    <tag k="source" v="Ajuntament de Girona"/>
  </node>
  <node id="783955907" version="2" timestamp="2010-06-25T12:44:45Z" uid="20587" user="balrog-kun" changeset="5073405" lat="41.9721001" lon="2.8043892">
    <tag k="leisure" v="swimming_pool"/>
    <tag k="name" v="Piscina Santa Eugènia - Can Gibert"/>
    <tag k="name:ca" v="Piscina Santa Eugènia - Can Gibert"/>
    <tag k="source" v="Ajuntament de Girona"/>
    <tag k="sport" v="swimming"/>
  </node>
  <node id="783955913" version="2" timestamp="2010-06-25T12:44:45Z" uid="20587" user="balrog-kun" changeset="5073405" lat="41.9701495" lon="2.8048933">
    <tag k="leisure" v="pitch"/>
    <tag k="name" v="Camp de Futbol Can Gibert"/>
    <tag k="name:ca" v="Camp de Futbol Can Gibert"/>
    <tag k="source" v="Ajuntament de Girona"/>
    <tag k="sport" v="soccer"/>
  </node>
  <node id="783955925" version="2" timestamp="2010-06-25T12:44:46Z" uid="20587" user="balrog-kun" changeset="5073405" lat="41.9759708" lon="2.8241981">
    <tag k="leisure" v="pitch"/>
    <tag k="name" v="Carme"/>
    <tag k="name:ca" v="Carme"/>
    <tag k="source" v="Ajuntament de Girona"/>
  </node>
  <node id="783955935" version="2" timestamp="2010-06-25T12:44:46Z" uid="20587" user="balrog-kun" changeset="5073405" lat="41.9983785" lon="2.8031278">
    <tag k="leisure" v="pitch"/>
    <tag k="name" v="Camp de Futbol Germans Sàbat"/>
    <tag k="name:ca" v="Camp de Futbol Germans Sàbat"/>
    <tag k="source" v="Ajuntament de Girona"/>
    <tag k="sport" v="soccer"/>
  </node>
  <node id="783955945" version="2" timestamp="2010-06-25T12:44:46Z" uid="20587" user="balrog-kun" changeset="5073405" lat="41.9753243" lon="2.8113238">
    <tag k="name" v="Sant Narcís"/>
    <tag k="name:ca" v="Sant Narcís"/>
    <tag k="source" v="Ajuntament de Girona"/>
    <tag k="sport" v="table_tennis"/>
  </node>
  <node id="783955945" version="3" timestamp="2010-07-11T23:54:08Z" uid="20587" user="balrog-kun" changeset="5195140" lat="41.9754036" lon="2.8115024">
    <tag k="name" v="Sant Narcís"/>
    <tag k="name:ca" v="Sant Narcís"/>
    <tag k="source" v="Ajuntament de Girona"/>
    <tag k="sport" v="table_tennis"/>
  </node>
  <node id="783955945" version="4" timestamp="2010-07-19T20:05:39Z" uid="20587" user="balrog-kun" changeset="5264599" lat="41.9753712" lon="2.8109796">
    <tag k="name" v="Sant Narcís"/>
    <tag k="name:ca" v="Sant Narcís"/>
    <tag k="source" v="Ajuntament de Girona"/>
    <tag k="sport" v="table_tennis"/>
  </node>
  <node id="783955954" version="2" timestamp="2010-06-25T12:44:46Z" uid="20587" user="balrog-kun" changeset="5073405" lat="41.9568469" lon="2.8259546">
    <tag k="leisure" v="pitch"/>
    <tag k="name" v="Camp de Futbol Torres de Palau"/>
    <tag k="name:ca" v="Camp de Futbol Torres de Palau"/>
    <tag k="source" v="Ajuntament de Girona"/>
    <tag k="sport" v="soccer"/>
  </node>
  <node id="783955964" version="2" timestamp="2010-06-25T12:44:46Z" uid="20587" user="balrog-kun" changeset="5073405" lat="41.9876613" lon="2.8204061">
    <tag k="leisure" v="pitch"/>
    <tag k="name" v="La Devesa"/>
    <tag k="name:ca" v="La Devesa"/>
    <tag k="source" v="Ajuntament de Girona"/>
    <tag k="sport" v="boules"/>
  </node>
  <node id="783955972" version="2" timestamp="2010-06-25T12:44:46Z" uid="20587" user="balrog-kun" changeset="5073405" lat="41.9648325" lon="2.8189981">
    <tag k="leisure" v="swimming_pool"/>
    <tag k="name" v="Complex Esportiu Palau. Piscina."/>
    <tag k="name:ca" v="Complex Esportiu Palau. Piscina."/>
    <tag k="source" v="Ajuntament de Girona"/>
    <tag k="sport" v="swimming"/>
  </node>
  <node id="783955986" version="2" timestamp="2010-06-25T12:44:46Z" uid="20587" user="balrog-kun" changeset="5073405" lat="41.9862434" lon="2.8134562">
    <tag k="name" v="Devesa"/>
    <tag k="name:ca" v="Devesa"/>
    <tag k="source" v="Ajuntament de Girona"/>
    <tag k="sport" v="table_tennis"/>
  </node>
  <node id="783955993" version="2" timestamp="2010-06-25T12:44:46Z" uid="20587" user="balrog-kun" changeset="5073405" lat="41.9728342" lon="2.8066395">
    <tag k="name" v="Can Gibert del Pla"/>
    <tag k="name:ca" v="Can Gibert del Pla"/>
    <tag k="source" v="Ajuntament de Girona"/>
    <tag k="sport" v="table_tennis"/>
  </node>
  <node id="783956007" version="2" timestamp="2010-06-25T12:44:47Z" uid="20587" user="balrog-kun" changeset="5073405" lat="42.0238098" lon="2.8375834">
    <tag k="leisure" v="pitch"/>
    <tag k="name" v="Col·legi Campdorà"/>
    <tag k="name:ca" v="Col·legi Campdorà"/>
    <tag k="source" v="Ajuntament de Girona"/>
  </node>
  <node id="783956017" version="2" timestamp="2010-06-25T12:44:47Z" uid="20587" user="balrog-kun" changeset="5073405" lat="41.9946466" lon="2.8164383">
    <tag k="leisure" v="pitch"/>
    <tag k="name" v="Camp de Futbol Fontajau"/>
    <tag k="name:ca" v="Camp de Futbol Fontajau"/>
    <tag k="source" v="Ajuntament de Girona"/>
    <tag k="sport" v="soccer"/>
  </node>
  <node id="783956031" version="2" timestamp="2010-06-25T12:44:47Z" uid="20587" user="balrog-kun" changeset="5073405" lat="41.9663489" lon="2.8137368">
    <tag k="name" v="Girona 2"/>
    <tag k="name:ca" v="Girona 2"/>
    <tag k="source" v="Ajuntament de Girona"/>
    <tag k="sport" v="table_tennis"/>
  </node>
  <node id="783956038" version="2" timestamp="2010-06-25T12:44:47Z" uid="20587" user="balrog-kun" changeset="5073405" lat="41.9699099" lon="2.8170766">
    <tag k="leisure" v="pitch"/>
    <tag k="name" v="Sant Pau"/>
    <tag k="name:ca" v="Sant Pau"/>
    <tag k="source" v="Ajuntament de Girona"/>
  </node>
  <node id="783956045" version="2" timestamp="2010-06-25T12:44:47Z" uid="20587" user="balrog-kun" changeset="5073405" lat="41.9699015" lon="2.8443074">
    <tag k="leisure" v="pitch"/>
    <tag k="name" v="Vila-Roja"/>
    <tag k="name:ca" v="Vila-Roja"/>
    <tag k="source" v="Ajuntament de Girona"/>
  </node>
  <node id="783956056" version="2" timestamp="2010-06-25T12:44:47Z" uid="20587" user="balrog-kun" changeset="5073405" lat="41.9893438" lon="2.8305887">
    <tag k="leisure" v="pitch"/>
    <tag k="name" v="La Torrassa"/>
    <tag k="name:ca" v="La Torrassa"/>
    <tag k="source" v="Ajuntament de Girona"/>
  </node>
  <node id="783956063" version="2" timestamp="2010-06-25T12:44:47Z" uid="20587" user="balrog-kun" changeset="5073405" lat="41.9720605" lon="2.810811">
    <tag k="name" v="GEiEG-Pavelló Lluís Bachs"/>
    <tag k="name:ca" v="GEiEG-Pavelló Lluís Bachs"/>
    <tag k="source" v="Ajuntament de Girona"/>
  </node>
  <node id="783956071" version="2" timestamp="2010-06-25T12:44:47Z" uid="20587" user="balrog-kun" changeset="5073405" lat="41.9729333" lon="2.8294434">
    <tag k="leisure" v="pitch"/>
    <tag k="name" v="Pericot"/>
    <tag k="name:ca" v="Pericot"/>
    <tag k="source" v="Ajuntament de Girona"/>
  </node>
  <node id="783956080" version="2" timestamp="2010-06-25T12:44:47Z" uid="20587" user="balrog-kun" changeset="5073405" lat="42.0102966" lon="2.8227165">
    <tag k="leisure" v="pitch"/>
    <tag k="name" v="Pont Major"/>
    <tag k="name:ca" v="Pont Major"/>
    <tag k="source" v="Ajuntament de Girona"/>
    <tag k="sport" v="boules"/>
  </node>
  <node id="783956089" version="2" timestamp="2010-06-25T12:44:48Z" uid="20587" user="balrog-kun" changeset="5073405" lat="41.9712184" lon="2.8184512">
    <tag k="leisure" v="pitch"/>
    <tag k="name" v="Parc del Migdia"/>
    <tag k="name:ca" v="Parc del Migdia"/>
    <tag k="source" v="Ajuntament de Girona"/>
  </node>
  <node id="783956097" version="2" timestamp="2010-06-25T12:44:48Z" uid="20587" user="balrog-kun" changeset="5073405" lat="41.9948361" lon="2.8089896">
    <tag k="leisure" v="pitch"/>
    <tag k="name" v="Torre de Taialà"/>
    <tag k="name:ca" v="Torre de Taialà"/>
    <tag k="source" v="Ajuntament de Girona"/>
  </node>
  <node id="783956106" version="2" timestamp="2010-06-25T12:44:48Z" uid="20587" user="balrog-kun" changeset="5073405" lat="41.9499932" lon="2.8081596">
    <tag k="leisure" v="pitch"/>
    <tag k="name" v="Balears"/>
    <tag k="name:ca" v="Balears"/>
    <tag k="source" v="Ajuntament de Girona"/>
  </node>
  <node id="783956124" version="2" timestamp="2010-06-25T12:44:48Z" uid="20587" user="balrog-kun" changeset="5073405" lat="41.9565355" lon="2.8285749">
    <tag k="name" v="Instal·lacions Esportives GEiEG"/>
    <tag k="name:ca" v="Instal·lacions Esportives GEiEG"/>
    <tag k="source" v="Ajuntament de Girona"/>
  </node>
  <node id="783956132" version="2" timestamp="2010-06-25T12:44:48Z" uid="20587" user="balrog-kun" changeset="5073405" lat="41.9862315" lon="2.8126505">
    <tag k="name" v="Zona Esportiva Devesa. Frontó, Pistes de Tennis I Pàdel"/>
    <tag k="name:ca" v="Zona Esportiva Devesa. Frontó, Pistes de Tennis I Pàdel"/>
    <tag k="source" v="Ajuntament de Girona"/>
  </node>
  <node id="783956139" version="2" timestamp="2010-06-25T12:44:48Z" uid="20587" user="balrog-kun" changeset="5073405" lat="41.9703278" lon="2.8185439">
    <tag k="leisure" v="pitch"/>
    <tag k="name" v="Sant Pau"/>
    <tag k="name:ca" v="Sant Pau"/>
    <tag k="source" v="Ajuntament de Girona"/>
    <tag k="sport" v="boules"/>
  </node>
  <node id="783956146" version="2" timestamp="2010-06-25T12:44:48Z" uid="20587" user="balrog-kun" changeset="5073405" lat="41.9762357" lon="2.8029181">
    <tag k="name" v="Santa Eugènia"/>
    <tag k="name:ca" v="Santa Eugènia"/>
    <tag k="source" v="Ajuntament de Girona"/>
    <tag k="sport" v="table_tennis"/>
  </node>
  <node id="783956151" version="2" timestamp="2010-06-25T12:44:48Z" uid="20587" user="balrog-kun" changeset="5073405" lat="41.9607748" lon="2.8124887">
    <tag k="leisure" v="pitch"/>
    <tag k="name" v="Girona 2"/>
    <tag k="name:ca" v="Girona 2"/>
    <tag k="source" v="Ajuntament de Girona"/>
  </node>
  <node id="783956155" version="2" timestamp="2010-06-25T12:44:49Z" uid="20587" user="balrog-kun" changeset="5073405" lat="41.9951499" lon="2.8091274">
    <tag k="name" v="Torre de Taialà"/>
    <tag k="name:ca" v="Torre de Taialà"/>
    <tag k="source" v="Ajuntament de Girona"/>
    <tag k="sport" v="table_tennis"/>
  </node>
  <node id="783956163" version="2" timestamp="2010-06-25T12:44:49Z" uid="20587" user="balrog-kun" changeset="5073405" lat="41.985689" lon="2.8322307">
    <tag k="leisure" v="pitch"/>
    <tag k="name" v="Torre Gironella"/>
    <tag k="name:ca" v="Torre Gironella"/>
    <tag k="source" v="Ajuntament de Girona"/>
  </node>
  <node id="783956170" version="2" timestamp="2010-06-25T12:44:49Z" uid="20587" user="balrog-kun" changeset="5073405" lat="41.9915265" lon="2.8155052">
    <tag k="name" v="Fontajau"/>
    <tag k="name:ca" v="Fontajau"/>
    <tag k="source" v="Ajuntament de Girona"/>
    <tag k="sport" v="table_tennis"/>
  </node>
  <node id="783956176" version="2" timestamp="2010-06-25T12:44:49Z" uid="20587" user="balrog-kun" changeset="5073405" lat="41.9907361" lon="2.8104737">
    <tag k="name" v="Pavelló de Fontajau"/>
    <tag k="name:ca" v="Pavelló de Fontajau"/>
    <tag k="source" v="Ajuntament de Girona"/>
  </node>
  <node id="783956180" version="2" timestamp="2010-06-25T12:44:49Z" uid="20587" user="balrog-kun" changeset="5073405" lat="42.010542" lon="2.822146">
    <tag k="leisure" v="pitch"/>
    <tag k="name" v="Camp Futbol Pont Major"/>
    <tag k="name:ca" v="Camp Futbol Pont Major"/>
    <tag k="source" v="Ajuntament de Girona"/>
    <tag k="sport" v="soccer"/>
  </node>
  <node id="783956188" version="2" timestamp="2010-06-25T12:44:49Z" uid="20587" user="balrog-kun" changeset="5073405" lat="41.9912902" lon="2.817208">
    <tag k="leisure" v="pitch"/>
    <tag k="name" v="Fontajau"/>
    <tag k="name:ca" v="Fontajau"/>
    <tag k="source" v="Ajuntament de Girona"/>
    <tag k="sport" v="boules"/>
  </node>
  <node id="783956201" version="2" timestamp="2010-06-25T12:44:49Z" uid="20587" user="balrog-kun" changeset="5073405" lat="41.9764682" lon="2.803254">
    <tag k="leisure" v="pitch"/>
    <tag k="name" v="Santa Eugènia"/>
    <tag k="name:ca" v="Santa Eugènia"/>
    <tag k="source" v="Ajuntament de Girona"/>
    <tag k="sport" v="boules"/>
  </node>
  <node id="783956210" version="2" timestamp="2010-06-25T12:44:49Z" uid="20587" user="balrog-kun" changeset="5073405" lat="41.9700864" lon="2.8268376">
    <tag k="leisure" v="pitch"/>
    <tag k="name" v="Ciutat de Figueres"/>
    <tag k="name:ca" v="Ciutat de Figueres"/>
    <tag k="source" v="Ajuntament de Girona"/>
  </node>
  <node id="783956215" version="2" timestamp="2010-06-25T12:44:49Z" uid="20587" user="balrog-kun" changeset="5073405" lat="41.9711272" lon="2.8455396">
    <tag k="leisure" v="pitch"/>
    <tag k="name" v="Camp de Futbol Vila-Roja"/>
    <tag k="name:ca" v="Camp de Futbol Vila-Roja"/>
    <tag k="source" v="Ajuntament de Girona"/>
    <tag k="sport" v="soccer"/>
  </node>
  <node id="783956223" version="2" timestamp="2010-06-25T12:44:50Z" uid="20587" user="balrog-kun" changeset="5073405" lat="41.976486" lon="2.8264997">
    <tag k="leisure" v="pitch"/>
    <tag k="name" v="Vista Alegre"/>
    <tag k="name:ca" v="Vista Alegre"/>
    <tag k="source" v="Ajuntament de Girona"/>
  </node>
  <node id="783956229" version="2" timestamp="2010-06-25T12:44:50Z" uid="20587" user="balrog-kun" changeset="5073405" lat="41.9767681" lon="2.8261451">
    <tag k="name" v="Vista Alegre"/>
    <tag k="name:ca" v="Vista Alegre"/>
    <tag k="source" v="Ajuntament de Girona"/>
    <tag k="sport" v="table_tennis"/>
  </node>
  <node id="783956240" version="2" timestamp="2010-06-25T12:44:50Z" uid="20587" user="balrog-kun" changeset="5073405" lat="41.9520378" lon="2.8159412">
    <tag k="leisure" v="pitch"/>
    <tag k="name" v="Club Tennis Girona"/>
    <tag k="name:ca" v="Club Tennis Girona"/>
    <tag k="source" v="Ajuntament de Girona"/>
    <tag k="sport" v="tennis"/>
  </node>
  <node id="783956247" version="2" timestamp="2010-06-25T12:44:50Z" uid="20587" user="balrog-kun" changeset="5073405" lat="41.9643635" lon="2.8198319">
    <tag k="name" v="Complex Esportiu Palau. Pavelló."/>
    <tag k="name:ca" v="Complex Esportiu Palau. Pavelló."/>
    <tag k="source" v="Ajuntament de Girona"/>
  </node>
  <node id="783956256" version="2" timestamp="2010-06-25T12:44:50Z" uid="20587" user="balrog-kun" changeset="5073405" lat="41.9730453" lon="2.829035">
    <tag k="leisure" v="pitch"/>
    <tag k="name" v="Montilivi"/>
    <tag k="name:ca" v="Montilivi"/>
    <tag k="source" v="Ajuntament de Girona"/>
    <tag k="sport" v="boules"/>
  </node>
  <node id="783956269" version="2" timestamp="2010-06-25T12:44:50Z" uid="20587" user="balrog-kun" changeset="5073405" lat="42.0097749" lon="2.823654">
    <tag k="name" v="Pont Major"/>
    <tag k="name:ca" v="Pont Major"/>
    <tag k="source" v="Ajuntament de Girona"/>
    <tag k="sport" v="table_tennis"/>
  </node>
  <node id="783956280" version="2" timestamp="2010-06-25T12:44:50Z" uid="20587" user="balrog-kun" changeset="5073405" lat="41.994309" lon="2.8216982">
    <tag k="name" v="GEiEG Sant Ponç"/>
    <tag k="name:ca" v="GEiEG Sant Ponç"/>
    <tag k="source" v="Ajuntament de Girona"/>
  </node>
  <node id="783956285" version="2" timestamp="2010-06-25T12:44:50Z" uid="20587" user="balrog-kun" changeset="5073405" lat="41.9758671" lon="2.8080743">
    <tag k="name" v="Pavelló Santa Eugènia"/>
    <tag k="name:ca" v="Pavelló Santa Eugènia"/>
    <tag k="source" v="Ajuntament de Girona"/>
  </node>
  <node id="783956295" version="2" timestamp="2010-06-25T12:44:50Z" uid="20587" user="balrog-kun" changeset="5073405" lat="41.9732584" lon="2.8389333">
    <tag k="leisure" v="pitch"/>
    <tag k="name" v="Grup Sant Daniel"/>
    <tag k="name:ca" v="Grup Sant Daniel"/>
    <tag k="source" v="Ajuntament de Girona"/>
  </node>
  <node id="783956304" version="2" timestamp="2010-06-25T12:44:50Z" uid="20587" user="balrog-kun" changeset="5073405" lat="41.9729577" lon="2.8066857">
    <tag k="leisure" v="pitch"/>
    <tag k="name" v="Can Gibert"/>
    <tag k="name:ca" v="Can Gibert"/>
    <tag k="source" v="Ajuntament de Girona"/>
    <tag k="sport" v="boules"/>
  </node>
  <node id="783956315" version="2" timestamp="2010-06-25T12:44:50Z" uid="20587" user="balrog-kun" changeset="5073405" lat="41.9961403" lon="2.8032908">
    <tag k="leisure" v="pitch"/>
    <tag k="name" v="Taialà"/>
    <tag k="name:ca" v="Taialà"/>
    <tag k="source" v="Ajuntament de Girona"/>
    <tag k="sport" v="boules"/>
  </node>
  <node id="783956324" version="2" timestamp="2010-06-25T12:44:51Z" uid="20587" user="balrog-kun" changeset="5073405" lat="41.9833482" lon="2.8130333">
    <tag k="leisure" v="pitch"/>
    <tag k="name" v="Sant Salvador"/>
    <tag k="name:ca" v="Sant Salvador"/>
    <tag k="source" v="Ajuntament de Girona"/>
  </node>
  <node id="783956331" version="2" timestamp="2010-06-25T12:44:51Z" uid="20587" user="balrog-kun" changeset="5073405" lat="41.9947891" lon="2.8335053">
    <tag k="name" v="Montjuïc"/>
    <tag k="name:ca" v="Montjuïc"/>
    <tag k="source" v="Ajuntament de Girona"/>
    <tag k="sport" v="table_tennis"/>
  </node>
  <node id="783956339" version="2" timestamp="2010-06-25T12:44:51Z" uid="20587" user="balrog-kun" changeset="5073405" lat="41.9579038" lon="2.8216505">
    <tag k="leisure" v="pitch"/>
    <tag k="name" v="Jocs Olímpics"/>
    <tag k="name:ca" v="Jocs Olímpics"/>
    <tag k="source" v="Ajuntament de Girona"/>
  </node>
  <node id="783956348" version="2" timestamp="2010-06-25T12:44:51Z" uid="20587" user="balrog-kun" changeset="5073405" lat="41.9730745" lon="2.8387925">
    <tag k="leisure" v="pitch"/>
    <tag k="name" v="Grup Sant Daniel"/>
    <tag k="name:ca" v="Grup Sant Daniel"/>
    <tag k="source" v="Ajuntament de Girona"/>
    <tag k="sport" v="boules"/>
  </node>
  <node id="783956357" version="2" timestamp="2010-06-25T12:44:51Z" uid="20587" user="balrog-kun" changeset="5073405" lat="41.9946877" lon="2.8328935">
    <tag k="leisure" v="pitch"/>
    <tag k="name" v="Montjuïc"/>
    <tag k="name:ca" v="Montjuïc"/>
    <tag k="source" v="Ajuntament de Girona"/>
  </node>
  <node id="783956362" version="2" timestamp="2010-06-25T12:44:51Z" uid="20587" user="balrog-kun" changeset="5073405" lat="41.9950022" lon="2.8206927">
    <tag k="name" v="Sant Ponç"/>
    <tag k="name:ca" v="Sant Ponç"/>
    <tag k="source" v="Ajuntament de Girona"/>
    <tag k="sport" v="table_tennis"/>
  </node>
  <node id="783956372" version="2" timestamp="2010-06-25T12:44:51Z" uid="20587" user="balrog-kun" changeset="5073405" lat="41.9745745" lon="2.8441855">
    <tag k="leisure" v="pitch"/>
    <tag k="name" v="Font de La Pólvora"/>
    <tag k="name:ca" v="Font de La Pólvora"/>
    <tag k="source" v="Ajuntament de Girona"/>
  </node>
  <node id="783956380" version="2" timestamp="2010-06-25T12:44:51Z" uid="20587" user="balrog-kun" changeset="5073405" lat="41.9761552" lon="2.8240702">
    <tag k="name" v="Carme"/>
    <tag k="name:ca" v="Carme"/>
    <tag k="source" v="Ajuntament de Girona"/>
    <tag k="sport" v="table_tennis"/>
  </node>
  <node id="783956388" version="2" timestamp="2010-06-25T12:44:51Z" uid="20587" user="balrog-kun" changeset="5073405" lat="42.0099838" lon="2.8219508">
    <tag k="name" v="Pavelló Municipal de Pont Major"/>
    <tag k="name:ca" v="Pavelló Municipal de Pont Major"/>
    <tag k="source" v="Ajuntament de Girona"/>
  </node>
  <node id="783956398" version="2" timestamp="2010-06-25T12:44:52Z" uid="20587" user="balrog-kun" changeset="5073405" lat="41.9866088" lon="2.8139911">
    <tag k="leisure" v="swimming_pool"/>
    <tag k="name" v="Zona Esportiva Devesa. Piscines d&apos;Estiu."/>
    <tag k="name:ca" v="Zona Esportiva Devesa. Piscines d&apos;Estiu."/>
    <tag k="source" v="Ajuntament de Girona"/>
    <tag k="sport" v="swimming"/>
  </node>
  <node id="783957268" version="2" timestamp="2010-06-25T13:11:29Z" uid="20587" user="balrog-kun" changeset="5073589" lat="41.984117" lon="2.8212311">
    <tag k="amenity" v="school"/>
    <tag k="name" v="CEIP Eiximenis"/>
    <tag k="name:ca" v="CEIP Eiximenis"/>
    <tag k="source" v="Ajuntament de Girona"/>
    <tag k="source_ref" v="http://www.girona.cat/educacio/ome_centre_fitxa.php?id_centre=27"/>
  </node>
  <node id="783957279" version="2" timestamp="2010-06-25T13:11:29Z" uid="20587" user="balrog-kun" changeset="5073589" lat="41.991535" lon="2.8079676">
    <tag k="amenity" v="school"/>
    <tag k="name" v="CEIP de Domeny -nova-"/>
    <tag k="name:ca" v="CEIP de Domeny -nova-"/>
    <tag k="source" v="Ajuntament de Girona"/>
    <tag k="source_ref" v="http://www.girona.cat/-"/>
  </node>
  <node id="783957285" version="2" timestamp="2010-06-25T13:11:29Z" uid="20587" user="balrog-kun" changeset="5073589" lat="41.9942945" lon="2.8045561">
    <tag k="amenity" v="school"/>
    <tag k="name" v="CEIP Taialà"/>
    <tag k="name:ca" v="CEIP Taialà"/>
    <tag k="source" v="Ajuntament de Girona"/>
    <tag k="source_ref" v="http://www.girona.cat/educacio/ome_centre_fitxa.php?id_centre=5"/>
  </node>
  <node id="783957292" version="2" timestamp="2010-06-25T13:11:29Z" uid="20587" user="balrog-kun" changeset="5073589" lat="41.9860974" lon="2.8267212">
    <tag k="amenity" v="university"/>
    <tag k="name" v="Escola Universitària de Turisme"/>
    <tag k="name:ca" v="Escola Universitària de Turisme"/>
    <tag k="source" v="Ajuntament de Girona"/>
    <tag k="source_ref" v="http://www.girona.cat/web/index.php?id=684"/>
  </node>
  <node id="783957299" version="2" timestamp="2010-06-25T13:11:29Z" uid="20587" user="balrog-kun" changeset="5073589" lat="41.9714291" lon="2.8061401">
    <tag k="amenity" v="school"/>
    <tag k="name" v="CEIP Dalmau Carles"/>
    <tag k="name:ca" v="CEIP Dalmau Carles"/>
    <tag k="source" v="Ajuntament de Girona"/>
    <tag k="source_ref" v="http://www.girona.cat/educacio/ome_centre_fitxa.php?id_centre=12"/>
  </node>
  <node id="783957309" version="2" timestamp="2010-06-25T13:11:29Z" uid="20587" user="balrog-kun" changeset="5073589" lat="41.9696913" lon="2.8417886">
    <tag k="amenity" v="kindergarten"/>
    <tag k="name" v="Escola Sagrada Família"/>
    <tag k="name:ca" v="Escola Sagrada Família"/>
    <tag k="source" v="Ajuntament de Girona"/>
    <tag k="source_ref" v="http://www.girona.cat/educacio/ome_centre_fitxa.php?id_centre=34"/>
  </node>
  <node id="783957317" version="2" timestamp="2010-06-25T13:11:29Z" uid="20587" user="balrog-kun" changeset="5073589" lat="41.976963" lon="2.8222581">
    <tag k="amenity" v="public_building"/>
    <tag k="name" v="Centre Públic de Formació d&apos;Adults."/>
    <tag k="name:ca" v="Centre Públic de Formació d&apos;Adults."/>
    <tag k="source" v="Ajuntament de Girona"/>
    <tag k="source_ref" v="http://www.girona.cat/educacio/escoles_detalls.php?id_centre=37"/>
  </node>
  <node id="783957323" version="2" timestamp="2010-06-25T13:11:29Z" uid="20587" user="balrog-kun" changeset="5073589" lat="41.9951542" lon="2.8369477">
    <tag k="amenity" v="kindergarten"/>
    <tag k="name" v="Escola Bambini-Montjuïc"/>
    <tag k="name:ca" v="Escola Bambini-Montjuïc"/>
    <tag k="source" v="Ajuntament de Girona"/>
    <tag k="source_ref" v="http://www.girona.cat/educacio/ome_centre_fitxa.php?id_centre=54"/>
  </node>
  <node id="783957341" version="2" timestamp="2010-06-25T13:11:29Z" uid="20587" user="balrog-kun" changeset="5073589" lat="41.9714465" lon="2.8201518">
    <tag k="amenity" v="college"/>
    <tag k="name" v="IES Santiago Sobrequés"/>
    <tag k="name:ca" v="IES Santiago Sobrequés"/>
    <tag k="source" v="Ajuntament de Girona"/>
    <tag k="source_ref" v="http://www.girona.cat/educacio/ome_centre_fitxa.php?id_centre=24"/>
  </node>
  <node id="783957351" version="2" timestamp="2010-06-25T13:11:29Z" uid="20587" user="balrog-kun" changeset="5073589" lat="42.0111339" lon="2.825104">
    <tag k="amenity" v="school"/>
    <tag k="name" v="Escola Sagrat Cor de Jesús"/>
    <tag k="name:ca" v="Escola Sagrat Cor de Jesús"/>
    <tag k="source" v="Ajuntament de Girona"/>
    <tag k="source_ref" v="http://www.girona.cat/educacio/ome_centre_fitxa.php?id_centre=35"/>
  </node>
  <node id="783957359" version="2" timestamp="2010-06-25T13:11:29Z" uid="20587" user="balrog-kun" changeset="5073589" lat="41.9905392" lon="2.8274277">
    <tag k="amenity" v="kindergarten"/>
    <tag k="name" v="Llar Infantil Sant Ramon Nonat"/>
    <tag k="name:ca" v="Llar Infantil Sant Ramon Nonat"/>
    <tag k="source" v="Ajuntament de Girona"/>
    <tag k="source_ref" v="http://www.girona.cat/educacio/ome_centre_fitxa.php?id_centre=42"/>
  </node>
  <node id="783957366" version="2" timestamp="2010-06-25T13:11:30Z" uid="20587" user="balrog-kun" changeset="5073589" lat="41.9643766" lon="2.8260095">
    <tag k="amenity" v="school"/>
    <tag k="name" v="CEE Font de L&apos;Abella"/>
    <tag k="name:ca" v="CEE Font de L&apos;Abella"/>
    <tag k="source" v="Ajuntament de Girona"/>
    <tag k="source_ref" v="http://www.girona.cat/educacio/ome_centre_fitxa.php?id_centre=21"/>
  </node>
  <node id="783957393" version="2" timestamp="2010-06-25T13:11:30Z" uid="20587" user="balrog-kun" changeset="5073589" lat="41.9505138" lon="2.8163646">
    <tag k="amenity" v="kindergarten"/>
    <tag k="name" v="Escola Montessori Palau"/>
    <tag k="name:ca" v="Escola Montessori Palau"/>
    <tag k="source" v="Ajuntament de Girona"/>
    <tag k="source_ref" v="http://www.girona.cat/educacio/ome_centre_fitxa.php?id_centre=46"/>
  </node>
  <node id="783957404" version="2" timestamp="2010-06-25T13:11:30Z" uid="20587" user="balrog-kun" changeset="5073589" lat="41.9704482" lon="2.8205652">
    <tag k="amenity" v="school"/>
    <tag k="name" v="CEIP Migdia"/>
    <tag k="name:ca" v="CEIP Migdia"/>
    <tag k="source" v="Ajuntament de Girona"/>
    <tag k="source_ref" v="http://www.girona.cat/educacio/ome_centre_fitxa.php?id_centre=37"/>
  </node>
  <node id="783957414" version="2" timestamp="2010-06-25T13:11:30Z" uid="20587" user="balrog-kun" changeset="5073589" lat="41.9734889" lon="2.8154657">
    <tag k="amenity" v="school"/>
    <tag k="name" v="CEIP Cassià Costal"/>
    <tag k="name:ca" v="CEIP Cassià Costal"/>
    <tag k="source" v="Ajuntament de Girona"/>
    <tag k="source_ref" v="http://www.girona.cat/educacio/ome_centre_fitxa.php?id_centre=14"/>
  </node>
  <node id="783957422" version="2" timestamp="2010-06-25T13:11:30Z" uid="20587" user="balrog-kun" changeset="5073589" lat="41.9846969" lon="2.822188">
    <tag k="amenity" v="university"/>
    <tag k="name" v="UdG. El Mercadal"/>
    <tag k="name:ca" v="UdG. El Mercadal"/>
    <tag k="source" v="Ajuntament de Girona"/>
    <tag k="source_ref" v="http://www.girona.cat/web/index.php?id=684"/>
  </node>
  <node id="783957430" version="2" timestamp="2010-06-25T13:11:30Z" uid="20587" user="balrog-kun" changeset="5073589" lat="41.9703867" lon="2.8449552">
    <tag k="amenity" v="school"/>
    <tag k="name" v="CEIP Vila-Roja"/>
    <tag k="name:ca" v="CEIP Vila-Roja"/>
    <tag k="source" v="Ajuntament de Girona"/>
    <tag k="source_ref" v="http://www.girona.cat/educacio/ome_centre_fitxa.php?id_centre=19"/>
  </node>
  <node id="783957438" version="2" timestamp="2010-06-25T13:11:30Z" uid="20587" user="balrog-kun" changeset="5073589" lat="41.9816461" lon="2.8136784">
    <tag k="amenity" v="kindergarten"/>
    <tag k="name" v="Llar d&apos;Infants La Caseta dels Infants"/>
    <tag k="name:ca" v="Llar d&apos;Infants La Caseta dels Infants"/>
    <tag k="source" v="Ajuntament de Girona"/>
    <tag k="source_ref" v="http://www.girona.cat/educacio/ome_centre_fitxa.php?id_centre=44"/>
  </node>
  <node id="783957446" version="2" timestamp="2010-06-25T13:11:30Z" uid="20587" user="balrog-kun" changeset="5073589" lat="41.9562851" lon="2.8194779">
    <tag k="amenity" v="school"/>
    <tag k="name" v="Escola Les Alzines"/>
    <tag k="name:ca" v="Escola Les Alzines"/>
    <tag k="source" v="Ajuntament de Girona"/>
    <tag k="source_ref" v="http://www.girona.cat/educacio/ome_centre_fitxa.php?id_centre=31"/>
  </node>
  <node id="783957454" version="2" timestamp="2010-06-25T13:11:30Z" uid="20587" user="balrog-kun" changeset="5073589" lat="41.9850969" lon="2.8274579">
    <tag k="amenity" v="university"/>
    <tag k="name" v="Insitut de Ciències Religioses"/>
    <tag k="name:ca" v="Insitut de Ciències Religioses"/>
    <tag k="source" v="Ajuntament de Girona"/>
    <tag k="source_ref" v="http://www.girona.cat/web/index.php?id=684"/>
  </node>
  <node id="783957463" version="2" timestamp="2010-06-25T13:11:31Z" uid="20587" user="balrog-kun" changeset="5073589" lat="41.9866564" lon="2.8195452">
    <tag k="amenity" v="public_building"/>
    <tag k="name" v="Oficina Municipal d&apos; Escolarització (OME)"/>
    <tag k="name:ca" v="Oficina Municipal d&apos; Escolarització (OME)"/>
    <tag k="source" v="Ajuntament de Girona"/>
    <tag k="source_ref" v="http://www.girona.cat/educacio/ome_index.php"/>
  </node>
  <node id="783957476" version="2" timestamp="2010-06-25T13:11:31Z" uid="20587" user="balrog-kun" changeset="5073589" lat="41.9800976" lon="2.8191848">
    <tag k="amenity" v="school"/>
    <tag k="name" v="Escola Vedruna"/>
    <tag k="name:ca" v="Escola Vedruna"/>
    <tag k="source" v="Ajuntament de Girona"/>
    <tag k="source_ref" v="http://www.girona.cat/educacio/ome_centre_fitxa.php?id_centre=36"/>
  </node>
  <node id="783957485" version="2" timestamp="2010-06-25T13:11:31Z" uid="20587" user="balrog-kun" changeset="5073589" lat="41.9641587" lon="2.81387">
    <tag k="amenity" v="kindergarten"/>
    <tag k="name" v="Escola Bressol Garbí"/>
    <tag k="name:ca" v="Escola Bressol Garbí"/>
    <tag k="source" v="Ajuntament de Girona"/>
    <tag k="source_ref" v="http://www.girona.cat/educacio/ome_centre_fitxa.php?id_centre=63"/>
  </node>
  <node id="783957492" version="2" timestamp="2010-06-25T13:11:31Z" uid="20587" user="balrog-kun" changeset="5073589" lat="41.9840682" lon="2.8153062">
    <tag k="amenity" v="kindergarten"/>
    <tag k="name" v="Llar Infantil Pitti&apos;S."/>
    <tag k="name:ca" v="Llar Infantil Pitti&apos;S."/>
    <tag k="source" v="Ajuntament de Girona"/>
    <tag k="source_ref" v="http://www.girona.cat/educacio/ome_centre_fitxa.php?id_centre=48"/>
  </node>
  <node id="783957500" version="2" timestamp="2010-06-25T13:11:31Z" uid="20587" user="balrog-kun" changeset="5073589" lat="41.9730878" lon="2.8209932">
    <tag k="amenity" v="kindergarten"/>
    <tag k="name" v="Pipes. Escola Bressol"/>
    <tag k="name:ca" v="Pipes. Escola Bressol"/>
    <tag k="source" v="Ajuntament de Girona"/>
    <tag k="source_ref" v="http://www.girona.cat/educacio/ome_centre_fitxa.php?id_centre=57"/>
  </node>
  <node id="783957507" version="2" timestamp="2010-06-25T13:11:31Z" uid="20587" user="balrog-kun" changeset="5073589" lat="41.9564472" lon="2.8193401">
    <tag k="amenity" v="kindergarten"/>
    <tag k="name" v="Escola Les Alzines"/>
    <tag k="name:ca" v="Escola Les Alzines"/>
    <tag k="source" v="Ajuntament de Girona"/>
    <tag k="source_ref" v="http://www.girona.cat/educacio/ome_centre_fitxa.php?id_centre=31"/>
  </node>
  <node id="783957515" version="2" timestamp="2010-06-25T13:11:31Z" uid="20587" user="balrog-kun" changeset="5073589" lat="41.9950079" lon="2.836976">
    <tag k="amenity" v="school"/>
    <tag k="name" v="Escola Bambini-Montjuïc"/>
    <tag k="name:ca" v="Escola Bambini-Montjuïc"/>
    <tag k="source" v="Ajuntament de Girona"/>
    <tag k="source_ref" v="http://www.girona.cat/educacio/ome_centre_fitxa.php?id_centre=54"/>
  </node>
  <node id="783957522" version="2" timestamp="2010-06-25T13:11:31Z" uid="20587" user="balrog-kun" changeset="5073589" lat="41.9761499" lon="2.8163898">
    <tag k="amenity" v="school"/>
    <tag k="name" v="Escola Municipal de Música. Casa Ensesa"/>
    <tag k="name:ca" v="Escola Municipal de Música. Casa Ensesa"/>
    <tag k="source" v="Ajuntament de Girona"/>
    <tag k="source_ref" v="http://www.girona.cat/educacio/escoles_detalls.php?id_centre=37"/>
  </node>
  <node id="783957530" version="2" timestamp="2010-06-25T13:11:31Z" uid="20587" user="balrog-kun" changeset="5073589" lat="42.0109953" lon="2.8228079">
    <tag k="amenity" v="school"/>
    <tag k="name" v="CEIP Carme Auguet"/>
    <tag k="name:ca" v="CEIP Carme Auguet"/>
    <tag k="source" v="Ajuntament de Girona"/>
    <tag k="source_ref" v="http://www.girona.cat/educacio/ome_centre_fitxa.php?id_centre=4"/>
  </node>
  <node id="783957537" version="2" timestamp="2010-06-25T13:11:31Z" uid="20587" user="balrog-kun" changeset="5073589" lat="41.9712827" lon="2.8097979">
    <tag k="amenity" v="school"/>
    <tag k="name" v="CEIP Mare de Déu del Mont"/>
    <tag k="name:ca" v="CEIP Mare de Déu del Mont"/>
    <tag k="source" v="Ajuntament de Girona"/>
    <tag k="source_ref" v="http://www.girona.cat/educacio/ome_centre_fitxa.php?id_centre=13"/>
  </node>
  <node id="783957543" version="2" timestamp="2010-06-25T13:11:31Z" uid="20587" user="balrog-kun" changeset="5073589" lat="41.9683548" lon="2.8070617">
    <tag k="amenity" v="college"/>
    <tag k="name" v="IFP Agrària Bell-Lloc del Pla"/>
    <tag k="name:ca" v="IFP Agrària Bell-Lloc del Pla"/>
    <tag k="source" v="Ajuntament de Girona"/>
    <tag k="source_ref" v="http://www.girona.cat/educacio/ome_centre_fitxa.php?id_centre=28"/>
  </node>
  <node id="783957548" version="2" timestamp="2010-06-25T13:11:31Z" uid="20587" user="balrog-kun" changeset="5073589" lat="41.983732" lon="2.816992">
    <tag k="amenity" v="kindergarten"/>
    <tag k="name" v="Llar Infantil Sol Solet"/>
    <tag k="name:ca" v="Llar Infantil Sol Solet"/>
    <tag k="source" v="Ajuntament de Girona"/>
    <tag k="source_ref" v="http://www.girona.cat/educacio/ome_centre_fitxa.php?id_centre=51"/>
  </node>
  <node id="783957556" version="2" timestamp="2010-06-25T13:11:31Z" uid="20587" user="balrog-kun" changeset="5073589" lat="41.9819474" lon="2.8209591">
    <tag k="amenity" v="college"/>
    <tag k="name" v="Conservatori de Música Isaac Albéniz"/>
    <tag k="name:ca" v="Conservatori de Música Isaac Albéniz"/>
    <tag k="source" v="Ajuntament de Girona"/>
    <tag k="source_ref" v="http://www.girona.cat/educacio/escoles_detalls.php?id_centre=37"/>
  </node>
  <node id="783957565" version="2" timestamp="2010-06-25T13:11:31Z" uid="20587" user="balrog-kun" changeset="5073589" lat="41.9594687" lon="2.8141062">
    <tag k="amenity" v="school"/>
    <tag k="name" v="CEIP Pericot -provisional-"/>
    <tag k="name:ca" v="CEIP Pericot -provisional-"/>
    <tag k="source" v="Ajuntament de Girona"/>
    <tag k="source_ref" v="http://www.girona.cat/educacio/ome_centre_fitxa.php?id_centre=62"/>
  </node>
  <node id="783957574" version="2" timestamp="2010-06-25T13:11:31Z" uid="20587" user="balrog-kun" changeset="5073589" lat="41.9676774" lon="2.822738">
    <tag k="amenity" v="kindergarten"/>
    <tag k="name" v="Llar d&apos;Infants El Petit Lord"/>
    <tag k="name:ca" v="Llar d&apos;Infants El Petit Lord"/>
    <tag k="source" v="Ajuntament de Girona"/>
    <tag k="source_ref" v="http://www.girona.cat/educacio/ome_centre_fitxa.php?id_centre=55"/>
  </node>
  <node id="783957580" version="2" timestamp="2010-06-25T13:11:31Z" uid="20587" user="balrog-kun" changeset="5073589" lat="41.9622693" lon="2.8302095">
    <tag k="amenity" v="university"/>
    <tag k="name" v="UdG. Facultat de Dret"/>
    <tag k="name:ca" v="UdG. Facultat de Dret"/>
    <tag k="source" v="Ajuntament de Girona"/>
    <tag k="source_ref" v="http://www.girona.cat/web/index.php?id=684"/>
  </node>
  <node id="783957586" version="2" timestamp="2010-06-25T13:11:32Z" uid="20587" user="balrog-kun" changeset="5073589" lat="41.9726087" lon="2.8297316">
    <tag k="amenity" v="school"/>
    <tag k="name" v="CEIP Pericot"/>
    <tag k="name:ca" v="CEIP Pericot"/>
    <tag k="source" v="Ajuntament de Girona"/>
    <tag k="source_ref" v="http://www.girona.cat/-"/>
  </node>
  <node id="783957592" version="2" timestamp="2010-06-25T13:11:32Z" uid="20587" user="balrog-kun" changeset="5073589" lat="41.9692576" lon="2.8068522">
    <tag k="amenity" v="school"/>
    <tag k="name" v="Escola Bell-Lloc del Pla"/>
    <tag k="name:ca" v="Escola Bell-Lloc del Pla"/>
    <tag k="source" v="Ajuntament de Girona"/>
    <tag k="source_ref" v="http://www.girona.cat/educacio/ome_centre_fitxa.php?id_centre=28"/>
  </node>
  <node id="783957595" version="2" timestamp="2010-06-25T13:11:32Z" uid="20587" user="balrog-kun" changeset="5073589" lat="41.995932" lon="2.8035497">
    <tag k="amenity" v="kindergarten"/>
    <tag k="name" v="Escola Bressol Baldufa"/>
    <tag k="name:ca" v="Escola Bressol Baldufa"/>
    <tag k="source" v="Ajuntament de Girona"/>
    <tag k="source_ref" v="http://www.girona.cat/educacio/ome_centre_fitxa.php?id_centre=38"/>
  </node>
  <node id="783957604" version="2" timestamp="2010-06-25T13:11:32Z" uid="20587" user="balrog-kun" changeset="5073589" lat="41.974572" lon="2.8236072">
    <tag k="amenity" v="university"/>
    <tag k="name" v="Escola Universitaria d&apos;Infermeria"/>
    <tag k="name:ca" v="Escola Universitaria d&apos;Infermeria"/>
    <tag k="source" v="Ajuntament de Girona"/>
    <tag k="source_ref" v="http://www.girona.cat/web/index.php?id=684"/>
  </node>
  <node id="783957617" version="2" timestamp="2010-06-25T13:11:32Z" uid="20587" user="balrog-kun" changeset="5073589" lat="41.9714665" lon="2.8238569">
    <tag k="amenity" v="school"/>
    <tag k="name" v="CEIP Pla de Girona"/>
    <tag k="name:ca" v="CEIP Pla de Girona"/>
    <tag k="source" v="Ajuntament de Girona"/>
    <tag k="source_ref" v="http://www.girona.cat/educacio/ome_centre_fitxa.php?id_centre=16"/>
  </node>
  <node id="783957621" version="2" timestamp="2010-06-25T13:11:32Z" uid="20587" user="balrog-kun" changeset="5073589" lat="41.9807311" lon="2.810649">
    <tag k="name" v="Escola Maristes Girona"/>
    <tag k="name:ca" v="Escola Maristes Girona"/>
    <tag k="source" v="Ajuntament de Girona"/>
    <tag k="source_ref" v="http://www.girona.cat/educacio/ome_centre_fitxa.php?id_centre=32"/>
  </node>
  <node id="783957630" version="2" timestamp="2010-06-25T13:11:32Z" uid="20587" user="balrog-kun" changeset="5073589" lat="41.9721487" lon="2.8062014">
    <tag k="amenity" v="kindergarten"/>
    <tag k="name" v="Llar d&apos;Infants El Tarlà"/>
    <tag k="name:ca" v="Llar d&apos;Infants El Tarlà"/>
    <tag k="source" v="Ajuntament de Girona"/>
    <tag k="source_ref" v="http://www.girona.cat/educacio/ome_centre_fitxa.php?id_centre=40"/>
  </node>
  <node id="783957637" version="2" timestamp="2010-06-25T13:11:32Z" uid="20587" user="balrog-kun" changeset="5073589" lat="41.9737602" lon="2.8108242">
    <tag k="amenity" v="kindergarten"/>
    <tag k="name" v="Llar Infantil L&apos;Esquirol"/>
    <tag k="name:ca" v="Llar Infantil L&apos;Esquirol"/>
    <tag k="source" v="Ajuntament de Girona"/>
    <tag k="source_ref" v="http://www.girona.cat/educacio/ome_centre_fitxa.php?id_centre=56"/>
  </node>
  <node id="783957645" version="2" timestamp="2010-06-25T13:11:32Z" uid="20587" user="balrog-kun" changeset="5073589" lat="41.9704833" lon="2.8101555">
    <tag k="amenity" v="kindergarten"/>
    <tag k="name" v="Llar d&apos;Infants El Bolet"/>
    <tag k="name:ca" v="Llar d&apos;Infants El Bolet"/>
    <tag k="source" v="Ajuntament de Girona"/>
    <tag k="source_ref" v="http://www.girona.cat/educacio/ome_centre_fitxa.php?id_centre=58"/>
  </node>
  <node id="783957653" version="2" timestamp="2010-06-25T13:11:32Z" uid="20587" user="balrog-kun" changeset="5073589" lat="41.969799" lon="2.8230306">
    <tag k="amenity" v="kindergarten"/>
    <tag k="name" v="Llar d&apos;Infants Cel Blau"/>
    <tag k="name:ca" v="Llar d&apos;Infants Cel Blau"/>
    <tag k="source" v="Ajuntament de Girona"/>
    <tag k="source_ref" v="http://www.girona.cat/educacio/ome_centre_fitxa.php?id_centre=43"/>
  </node>
  <node id="783957663" version="2" timestamp="2010-06-25T13:11:32Z" uid="20587" user="balrog-kun" changeset="5073589" lat="41.9691607" lon="2.8067455">
    <tag k="amenity" v="kindergarten"/>
    <tag k="name" v="Escola Bell-Lloc del Pla"/>
    <tag k="name:ca" v="Escola Bell-Lloc del Pla"/>
    <tag k="source" v="Ajuntament de Girona"/>
    <tag k="source_ref" v="http://www.girona.cat/educacio/ome_centre_fitxa.php?id_centre=28"/>
  </node>
  <node id="783957668" version="2" timestamp="2010-06-25T13:11:32Z" uid="20587" user="balrog-kun" changeset="5073589" lat="41.964945" lon="2.8210905">
    <tag k="amenity" v="school"/>
    <tag k="name" v="CEE de Palau."/>
    <tag k="name:ca" v="CEE de Palau."/>
    <tag k="source" v="Ajuntament de Girona"/>
    <tag k="source_ref" v="http://www.girona.cat/educacio/ome_centre_fitxa.php?id_centre=20"/>
  </node>
  <node id="783957674" version="2" timestamp="2010-06-25T13:11:32Z" uid="20587" user="balrog-kun" changeset="5073589" lat="41.9787069" lon="2.8202503">
    <tag k="amenity" v="school"/>
    <tag k="name" v="CEIP Verd"/>
    <tag k="name:ca" v="CEIP Verd"/>
    <tag k="source" v="Ajuntament de Girona"/>
    <tag k="source_ref" v="http://www.girona.cat/educacio/ome_centre_fitxa.php?id_centre=8"/>
  </node>
  <node id="783957678" version="2" timestamp="2010-06-25T13:11:32Z" uid="20587" user="balrog-kun" changeset="5073589" lat="41.9692503" lon="2.8070048">
    <tag k="amenity" v="school"/>
    <tag k="name" v="Escola Bell-Lloc del Pla"/>
    <tag k="name:ca" v="Escola Bell-Lloc del Pla"/>
    <tag k="source" v="Ajuntament de Girona"/>
    <tag k="source_ref" v="http://www.girona.cat/educacio/ome_centre_fitxa.php?id_centre=28"/>
  </node>
  <node id="783957686" version="2" timestamp="2010-06-25T13:11:32Z" uid="20587" user="balrog-kun" changeset="5073589" lat="41.9591577" lon="2.8141636">
    <tag k="amenity" v="school"/>
    <tag k="name" v="CEIP Bosc de La Pabordia"/>
    <tag k="name:ca" v="CEIP Bosc de La Pabordia"/>
    <tag k="source" v="Ajuntament de Girona"/>
    <tag k="source_ref" v="http://www.girona.cat/educacio/ome_centre_fitxa.php?id_centre=64"/>
  </node>
  <node id="783957695" version="2" timestamp="2010-06-25T13:11:33Z" uid="20587" user="balrog-kun" changeset="5073589" lat="42.0043127" lon="2.8238835">
    <tag k="amenity" v="college"/>
    <tag k="name" v="IES Narcís Xifra Masmitjà"/>
    <tag k="name:ca" v="IES Narcís Xifra Masmitjà"/>
    <tag k="source" v="Ajuntament de Girona"/>
    <tag k="source_ref" v="http://www.girona.cat/educacio/ome_centre_fitxa.php?id_centre=23"/>
  </node>
  <node id="783957702" version="2" timestamp="2010-06-25T13:11:33Z" uid="20587" user="balrog-kun" changeset="5073589" lat="41.9781477" lon="2.8247159">
    <tag k="amenity" v="kindergarten"/>
    <tag k="name" v="Llar Infantil Sol Solet 2"/>
    <tag k="name:ca" v="Llar Infantil Sol Solet 2"/>
    <tag k="source" v="Ajuntament de Girona"/>
    <tag k="source_ref" v="http://www.girona.cat/educacio/ome_centre_fitxa.php?id_centre=51"/>
  </node>
  <node id="783957710" version="2" timestamp="2010-06-25T13:11:33Z" uid="20587" user="balrog-kun" changeset="5073589" lat="41.9696912" lon="2.8416802">
    <tag k="amenity" v="school"/>
    <tag k="name" v="Escola Sagrada Família"/>
    <tag k="name:ca" v="Escola Sagrada Família"/>
    <tag k="source" v="Ajuntament de Girona"/>
    <tag k="source_ref" v="http://www.girona.cat/educacio/ome_centre_fitxa.php?id_centre=34"/>
  </node>
  <node id="783957716" version="2" timestamp="2010-06-25T13:11:33Z" uid="20587" user="balrog-kun" changeset="5073589" lat="41.9647032" lon="2.8142073">
    <tag k="amenity" v="school"/>
    <tag k="name" v="CEIP Marta Mata"/>
    <tag k="name:ca" v="CEIP Marta Mata"/>
    <tag k="source" v="Ajuntament de Girona"/>
    <tag k="source_ref" v="http://www.girona.cat/educacio/ome_centre_fitxa.php?id_centre=17"/>
  </node>
  <node id="783957723" version="2" timestamp="2010-06-25T13:11:33Z" uid="20587" user="balrog-kun" changeset="5073589" lat="41.9561575" lon="2.8194606">
    <tag k="amenity" v="school"/>
    <tag k="name" v="Escola Les Alzines"/>
    <tag k="name:ca" v="Escola Les Alzines"/>
    <tag k="source" v="Ajuntament de Girona"/>
    <tag k="source_ref" v="http://www.girona.cat/educacio/ome_centre_fitxa.php?id_centre=31"/>
  </node>
  <node id="783957731" version="2" timestamp="2010-06-25T13:11:33Z" uid="20587" user="balrog-kun" changeset="5073589" lat="41.9772781" lon="2.8125071">
    <tag k="amenity" v="school"/>
    <tag k="name" v="Escola Pare Coll"/>
    <tag k="name:ca" v="Escola Pare Coll"/>
    <tag k="source" v="Ajuntament de Girona"/>
    <tag k="source_ref" v="http://www.girona.cat/educacio/ome_centre_fitxa.php?id_centre=33"/>
  </node>
  <node id="783957737" version="2" timestamp="2010-06-25T13:11:33Z" uid="20587" user="balrog-kun" changeset="5073589" lat="41.9787647" lon="2.8256246">
    <tag k="amenity" v="college"/>
    <tag k="name" v="IES Jaume Vicens Vives."/>
    <tag k="name:ca" v="IES Jaume Vicens Vives."/>
    <tag k="source" v="Ajuntament de Girona"/>
    <tag k="source_ref" v="http://www.girona.cat/educacio/ome_centre_fitxa.php?id_centre=2"/>
  </node>
  <node id="783957748" version="2" timestamp="2010-06-25T13:11:33Z" uid="20587" user="balrog-kun" changeset="5073589" lat="41.9771589" lon="2.8128578">
    <tag k="amenity" v="school"/>
    <tag k="name" v="Escola Pare Coll"/>
    <tag k="name:ca" v="Escola Pare Coll"/>
    <tag k="source" v="Ajuntament de Girona"/>
    <tag k="source_ref" v="http://www.girona.cat/educacio/ome_centre_fitxa.php?id_centre=33"/>
  </node>
  <node id="783957758" version="2" timestamp="2010-06-25T13:11:33Z" uid="20587" user="balrog-kun" changeset="5073589" lat="41.9805124" lon="2.8106555">
    <tag k="amenity" v="school"/>
    <tag k="name" v="Escola Maristes Girona"/>
    <tag k="name:ca" v="Escola Maristes Girona"/>
    <tag k="source" v="Ajuntament de Girona"/>
    <tag k="source_ref" v="http://www.girona.cat/educacio/ome_centre_fitxa.php?id_centre=32"/>
  </node>
  <node id="783957762" version="2" timestamp="2010-06-25T13:11:33Z" uid="20587" user="balrog-kun" changeset="5073589" lat="41.9853827" lon="2.8273732">
    <tag k="amenity" v="university"/>
    <tag k="name" v="UdG. Facultat d&apos;Educació i Psicologia"/>
    <tag k="name:ca" v="UdG. Facultat d&apos;Educació i Psicologia"/>
    <tag k="source" v="Ajuntament de Girona"/>
    <tag k="source_ref" v="http://www.girona.cat/web/index.php?id=684"/>
  </node>
  <node id="783957771" version="2" timestamp="2010-06-25T13:11:33Z" uid="20587" user="balrog-kun" changeset="5073589" lat="41.9506462" lon="2.8166022">
    <tag k="amenity" v="school"/>
    <tag k="name" v="Escola Montessori Palau"/>
    <tag k="name:ca" v="Escola Montessori Palau"/>
    <tag k="source" v="Ajuntament de Girona"/>
    <tag k="source_ref" v="http://www.girona.cat/educacio/ome_centre_fitxa.php?id_centre=46"/>
  </node>
  <node id="783957779" version="2" timestamp="2010-06-25T13:11:33Z" uid="20587" user="balrog-kun" changeset="5073589" lat="41.9802343" lon="2.8194727">
    <tag k="amenity" v="school"/>
    <tag k="name" v="Escola Vedruna"/>
    <tag k="name:ca" v="Escola Vedruna"/>
    <tag k="source" v="Ajuntament de Girona"/>
    <tag k="source_ref" v="http://www.girona.cat/educacio/ome_centre_fitxa.php?id_centre=36"/>
  </node>
  <node id="783957790" version="2" timestamp="2010-06-25T13:11:33Z" uid="20587" user="balrog-kun" changeset="5073589" lat="41.9816729" lon="2.8116961">
    <tag k="amenity" v="school"/>
    <tag k="name" v="Escola Oficial d&apos;Idiomes"/>
    <tag k="name:ca" v="Escola Oficial d&apos;Idiomes"/>
    <tag k="source" v="Ajuntament de Girona"/>
  </node>
  <node id="783957797" version="2" timestamp="2010-06-25T13:11:33Z" uid="20587" user="balrog-kun" changeset="5073589" lat="41.9764943" lon="2.8081772">
    <tag k="amenity" v="kindergarten"/>
    <tag k="name" v="Llar d&apos;Infants L&apos;Estel"/>
    <tag k="name:ca" v="Llar d&apos;Infants L&apos;Estel"/>
    <tag k="source" v="Ajuntament de Girona"/>
    <tag k="source_ref" v="http://www.girona.cat/educacio/ome_centre_fitxa.php?id_centre=59"/>
  </node>
  <node id="783957806" version="2" timestamp="2010-06-25T13:11:33Z" uid="20587" user="balrog-kun" changeset="5073589" lat="41.9770566" lon="2.8094904">
    <tag k="amenity" v="school"/>
    <tag k="name" v="CEIP Santa Eugènia"/>
    <tag k="name:ca" v="CEIP Santa Eugènia"/>
    <tag k="source" v="Ajuntament de Girona"/>
    <tag k="source_ref" v="http://www.girona.cat/educacio/ome_centre_fitxa.php?id_centre=10"/>
  </node>
  <node id="783957824" version="2" timestamp="2010-06-25T13:11:33Z" uid="20587" user="balrog-kun" changeset="5073589" lat="41.9940011" lon="2.8027798">
    <tag k="amenity" v="college"/>
    <tag k="name" v="IES Carles Rahola"/>
    <tag k="name:ca" v="IES Carles Rahola"/>
    <tag k="source" v="Ajuntament de Girona"/>
    <tag k="source_ref" v="http://www.girona.cat/educacio/ome_centre_fitxa.php?id_centre=22"/>
  </node>
  <node id="783957864" version="2" timestamp="2010-06-25T13:11:34Z" uid="20587" user="balrog-kun" changeset="5073589" lat="41.9764065" lon="2.8190185">
    <tag k="amenity" v="school"/>
    <tag k="name" v="Escola Dr. Masmitjà"/>
    <tag k="name:ca" v="Escola Dr. Masmitjà"/>
    <tag k="source" v="Ajuntament de Girona"/>
    <tag k="source_ref" v="http://www.girona.cat/educacio/ome_centre_fitxa.php?id_centre=29"/>
  </node>
  <node id="783957874" version="2" timestamp="2010-06-25T13:11:34Z" uid="20587" user="balrog-kun" changeset="5073589" lat="41.9641825" lon="2.8299993">
    <tag k="amenity" v="university"/>
    <tag k="name" v="UdG. Escola Politècnica Superior"/>
    <tag k="name:ca" v="UdG. Escola Politècnica Superior"/>
    <tag k="source" v="Ajuntament de Girona"/>
    <tag k="source_ref" v="http://www.girona.cat/web/index.php?id=684"/>
  </node>
  <node id="783957887" version="2" timestamp="2010-06-25T13:11:34Z" uid="20587" user="balrog-kun" changeset="5073589" lat="41.9810845" lon="2.8117253">
    <tag k="amenity" v="college"/>
    <tag k="name" v="IES Escola d&apos;Hostaleria i Serveis"/>
    <tag k="name:ca" v="IES Escola d&apos;Hostaleria i Serveis"/>
    <tag k="source" v="Ajuntament de Girona"/>
    <tag k="source_ref" v="http://www.girona.cat/educacio/ome_centre_fitxa.php?id_centre=26"/>
  </node>
  <node id="783957892" version="2" timestamp="2010-06-25T13:11:34Z" uid="20587" user="balrog-kun" changeset="5073589" lat="41.9797726" lon="2.8192243">
    <tag k="amenity" v="kindergarten"/>
    <tag k="name" v="Llar Infantil Teypi"/>
    <tag k="name:ca" v="Llar Infantil Teypi"/>
    <tag k="source" v="Ajuntament de Girona"/>
    <tag k="source_ref" v="http://www.girona.cat/educacio/ome_centre_fitxa.php?id_centre=53"/>
  </node>
  <node id="783957902" version="2" timestamp="2010-06-25T13:11:34Z" uid="20587" user="balrog-kun" changeset="5073589" lat="41.9851257" lon="2.8209961">
    <tag k="amenity" v="school"/>
    <tag k="name" v="CEIP Joan Bruguera"/>
    <tag k="name:ca" v="CEIP Joan Bruguera"/>
    <tag k="source" v="Ajuntament de Girona"/>
    <tag k="source_ref" v="http://www.girona.cat/educacio/ome_centre_fitxa.php?id_centre=7"/>
  </node>
  <node id="783957907" version="2" timestamp="2010-06-25T13:11:34Z" uid="20587" user="balrog-kun" changeset="5073589" lat="41.9913824" lon="2.8097072">
    <tag k="amenity" v="school"/>
    <tag k="name" v="CEIP de Domeny -provisional-"/>
    <tag k="name:ca" v="CEIP de Domeny -provisional-"/>
    <tag k="source" v="Ajuntament de Girona"/>
    <tag k="source_ref" v="http://www.girona.cat/educacio/ome_centre_fitxa.php?id_centre=61"/>
  </node>
  <node id="783957915" version="2" timestamp="2010-06-25T13:11:34Z" uid="20587" user="balrog-kun" changeset="5073589" lat="41.9708111" lon="2.8044198">
    <tag k="amenity" v="college"/>
    <tag k="name" v="IES Santa Eugènia"/>
    <tag k="name:ca" v="IES Santa Eugènia"/>
    <tag k="source" v="Ajuntament de Girona"/>
    <tag k="source_ref" v="http://www.girona.cat/educacio/ome_centre_fitxa.php?id_centre=3"/>
  </node>
  <node id="783957922" version="2" timestamp="2010-06-25T13:11:34Z" uid="20587" user="balrog-kun" changeset="5073589" lat="41.9616458" lon="2.8310795">
    <tag k="amenity" v="university"/>
    <tag k="name" v="UdG. Facultat Ciències Econòmiques i Empr."/>
    <tag k="name:ca" v="UdG. Facultat Ciències Econòmiques i Empr."/>
    <tag k="source" v="Ajuntament de Girona"/>
    <tag k="source_ref" v="http://www.girona.cat/web/index.php?id=684"/>
  </node>
  <node id="783957932" version="2" timestamp="2010-06-25T13:11:34Z" uid="20587" user="balrog-kun" changeset="5073589" lat="42.0107891" lon="2.8230913">
    <tag k="amenity" v="kindergarten"/>
    <tag k="name" v="Escola Bressol El Pont"/>
    <tag k="name:ca" v="Escola Bressol El Pont"/>
    <tag k="source" v="Ajuntament de Girona"/>
    <tag k="source_ref" v="http://www.girona.cat/educacio/ome_centre_fitxa.php?id_centre=37"/>
  </node>
  <node id="783957938" version="2" timestamp="2010-06-25T13:11:35Z" uid="20587" user="balrog-kun" changeset="5073589" lat="41.9754407" lon="2.8194779">
    <tag k="amenity" v="kindergarten"/>
    <tag k="name" v="Llar Infantil Monis"/>
    <tag k="name:ca" v="Llar Infantil Monis"/>
    <tag k="source" v="Ajuntament de Girona"/>
    <tag k="source_ref" v="http://www.girona.cat/educacio/ome_centre_fitxa.php?id_centre=45"/>
  </node>
  <node id="783957948" version="2" timestamp="2010-06-25T13:11:35Z" uid="20587" user="balrog-kun" changeset="5073589" lat="41.9907278" lon="2.8270651">
    <tag k="amenity" v="school"/>
    <tag k="name" v="CEIP Montjuïc"/>
    <tag k="name:ca" v="CEIP Montjuïc"/>
    <tag k="source" v="Ajuntament de Girona"/>
    <tag k="source_ref" v="http://www.girona.cat/educacio/ome_centre_fitxa.php?id_centre=6"/>
  </node>
  <node id="783957957" version="2" timestamp="2010-06-25T13:11:35Z" uid="20587" user="balrog-kun" changeset="5073589" lat="41.9775557" lon="2.8215273">
    <tag k="amenity" v="school"/>
    <tag k="name" v="Escola La Salle"/>
    <tag k="name:ca" v="Escola La Salle"/>
    <tag k="source" v="Ajuntament de Girona"/>
    <tag k="source_ref" v="http://www.girona.cat/educacio/ome_centre_fitxa.php?id_centre=30"/>
  </node>
  <node id="783957963" version="2" timestamp="2010-06-25T13:11:35Z" uid="20587" user="balrog-kun" changeset="5073589" lat="41.9728548" lon="2.8023705">
    <tag k="amenity" v="school"/>
    <tag k="name" v="CEIP Montfalgars"/>
    <tag k="name:ca" v="CEIP Montfalgars"/>
    <tag k="source" v="Ajuntament de Girona"/>
    <tag k="source_ref" v="http://www.girona.cat/educacio/ome_centre_fitxa.php?id_centre=11"/>
  </node>
  <node id="783957972" version="2" timestamp="2010-06-25T13:11:35Z" uid="20587" user="balrog-kun" changeset="5073589" lat="41.9713905" lon="2.8156029">
    <tag k="amenity" v="kindergarten"/>
    <tag k="name" v="Llar Infantil Petit Príncep."/>
    <tag k="name:ca" v="Llar Infantil Petit Príncep."/>
    <tag k="source" v="Ajuntament de Girona"/>
    <tag k="source_ref" v="http://www.girona.cat/educacio/ome_centre_fitxa.php?id_centre=47"/>
  </node>
  <node id="783957982" version="2" timestamp="2010-06-25T13:11:35Z" uid="20587" user="balrog-kun" changeset="5073589" lat="41.9753173" lon="2.8045356">
    <tag k="amenity" v="kindergarten"/>
    <tag k="name" v="Llar Infantil Infants 2"/>
    <tag k="name:ca" v="Llar Infantil Infants 2"/>
    <tag k="source" v="Ajuntament de Girona"/>
    <tag k="source_ref" v="http://www.girona.cat/educacio/ome_centre_fitxa.php?id_centre=60"/>
  </node>
  <node id="783957991" version="2" timestamp="2010-06-25T13:11:35Z" uid="20587" user="balrog-kun" changeset="5073589" lat="41.9710539" lon="2.810296">
    <tag k="amenity" v="kindergarten"/>
    <tag k="name" v="Escola Bressol El Tren"/>
    <tag k="name:ca" v="Escola Bressol El Tren"/>
    <tag k="source" v="Ajuntament de Girona"/>
    <tag k="source_ref" v="http://www.girona.cat/educacio/ome_centre_fitxa.php?id_centre=41"/>
  </node>
  <node id="783957999" version="2" timestamp="2010-06-25T13:11:35Z" uid="20587" user="balrog-kun" changeset="5073589" lat="41.9740864" lon="2.8427698">
    <tag k="amenity" v="kindergarten"/>
    <tag k="name" v="Escola Bressol Cavall Fort"/>
    <tag k="name:ca" v="Escola Bressol Cavall Fort"/>
    <tag k="source" v="Ajuntament de Girona"/>
    <tag k="source_ref" v="http://www.girona.cat/educacio/ome_centre_fitxa.php?id_centre=39"/>
  </node>
  <node id="783958007" version="2" timestamp="2010-06-25T13:11:35Z" uid="20587" user="balrog-kun" changeset="5073589" lat="41.9816174" lon="2.8253905">
    <tag k="amenity" v="school"/>
    <tag k="name" v="Escola Municipal d&apos;Art"/>
    <tag k="name:ca" v="Escola Municipal d&apos;Art"/>
    <tag k="source" v="Ajuntament de Girona"/>
    <tag k="source_ref" v="http://www.girona.cat/educacio/escoles_detalls.php?id_centre=37"/>
  </node>
  <node id="783958016" version="2" timestamp="2010-06-25T13:11:35Z" uid="20587" user="balrog-kun" changeset="5073589" lat="41.9785157" lon="2.8277376">
    <tag k="amenity" v="school"/>
    <tag k="name" v="CEIP Annexa-Joan Puigbert"/>
    <tag k="name:ca" v="CEIP Annexa-Joan Puigbert"/>
    <tag k="source" v="Ajuntament de Girona"/>
    <tag k="source_ref" v="http://www.girona.cat/educacio/ome_centre_fitxa.php?id_centre=9"/>
  </node>
  <node id="783958021" version="2" timestamp="2010-06-25T13:11:35Z" uid="20587" user="balrog-kun" changeset="5073589" lat="41.9845637" lon="2.8189091">
    <tag k="amenity" v="kindergarten"/>
    <tag k="name" v="Llar Infantil Querubí"/>
    <tag k="name:ca" v="Llar Infantil Querubí"/>
    <tag k="source" v="Ajuntament de Girona"/>
    <tag k="source_ref" v="http://www.girona.cat/educacio/ome_centre_fitxa.php?id_centre=49"/>
  </node>
  <node id="783958028" version="2" timestamp="2010-06-25T13:11:35Z" uid="20587" user="balrog-kun" changeset="5073589" lat="41.9741434" lon="2.8428704">
    <tag k="amenity" v="school"/>
    <tag k="name" v="CEIP Font de La Pòlvora"/>
    <tag k="name:ca" v="CEIP Font de La Pòlvora"/>
    <tag k="source" v="Ajuntament de Girona"/>
    <tag k="source_ref" v="http://www.girona.cat/educacio/ome_centre_fitxa.php?id_centre=18"/>
  </node>
  <node id="783958034" version="2" timestamp="2010-06-25T13:11:35Z" uid="20587" user="balrog-kun" changeset="5073589" lat="41.9644027" lon="2.8281494">
    <tag k="amenity" v="college"/>
    <tag k="name" v="IES Montilivi"/>
    <tag k="name:ca" v="IES Montilivi"/>
    <tag k="source" v="Ajuntament de Girona"/>
    <tag k="source_ref" v="http://www.girona.cat/educacio/ome_centre_fitxa.php?id_centre=25"/>
  </node>
  <node id="783958042" version="2" timestamp="2010-06-25T13:11:35Z" uid="20587" user="balrog-kun" changeset="5073589" lat="41.9624948" lon="2.8291199">
    <tag k="amenity" v="university"/>
    <tag k="name" v="UdG. Facultat de Ciències"/>
    <tag k="name:ca" v="UdG. Facultat de Ciències"/>
    <tag k="source" v="Ajuntament de Girona"/>
    <tag k="source_ref" v="http://www.girona.cat/web/index.php?id=684"/>
  </node>
  <node id="783958050" version="2" timestamp="2010-06-25T13:11:35Z" uid="20587" user="balrog-kun" changeset="5073589" lat="41.9506499" lon="2.8164914">
    <tag k="amenity" v="school"/>
    <tag k="name" v="Escola Montessori Palau"/>
    <tag k="name:ca" v="Escola Montessori Palau"/>
    <tag k="source" v="Ajuntament de Girona"/>
    <tag k="source_ref" v="http://www.girona.cat/educacio/ome_centre_fitxa.php?id_centre=46"/>
  </node>
  <node id="783958055" version="2" timestamp="2010-06-25T13:11:36Z" uid="20587" user="balrog-kun" changeset="5073589" lat="41.970793" lon="2.8221823">
    <tag k="amenity" v="kindergarten"/>
    <tag k="name" v="Llar d&apos;Infants Ralet Ralet"/>
    <tag k="name:ca" v="Llar d&apos;Infants Ralet Ralet"/>
    <tag k="source" v="Ajuntament de Girona"/>
    <tag k="source_ref" v="http://www.girona.cat/educacio/ome_centre_fitxa.php?id_centre=50"/>
  </node>
  <node id="783958875" version="2" timestamp="2010-06-25T13:23:41Z" uid="20587" user="balrog-kun" changeset="5073672" lat="41.9976859" lon="2.8199958">
    <tag k="amenity" v="library"/>
    <tag k="name" v="Biblioteca de L&apos;Hospital J. Trueta"/>
    <tag k="name:ca" v="Biblioteca de L&apos;Hospital J. Trueta"/>
    <tag k="source" v="Ajuntament de Girona"/>
  </node>
  <node id="783958887" version="2" timestamp="2010-06-25T13:23:41Z" uid="20587" user="balrog-kun" changeset="5073672" lat="41.986344" lon="2.8293661">
    <tag k="amenity" v="library"/>
    <tag k="name" v="Biblioteca de L&apos;Institut d&apos;Estudis Gironins"/>
    <tag k="name:ca" v="Biblioteca de L&apos;Institut d&apos;Estudis Gironins"/>
    <tag k="source" v="Ajuntament de Girona"/>
  </node>
  <node id="783958897" version="2" timestamp="2010-06-25T13:23:42Z" uid="20587" user="balrog-kun" changeset="5073672" lat="42.0122895" lon="2.8250049">
    <tag k="amenity" v="library"/>
    <tag k="name" v="Biblioteca Just M. Casero"/>
    <tag k="name:ca" v="Biblioteca Just M. Casero"/>
    <tag k="source" v="Ajuntament de Girona"/>
    <tag k="source_ref" v="http://www.bibliotequesgirona.org/"/>
  </node>
  <node id="783958906" version="2" timestamp="2010-06-25T13:23:42Z" uid="20587" user="balrog-kun" changeset="5073672" lat="41.9836193" lon="2.8259268">
    <tag k="amenity" v="library"/>
    <tag k="name" v="Biblioteca de L&apos;Arxiu Històric de Girona"/>
    <tag k="name:ca" v="Biblioteca de L&apos;Arxiu Històric de Girona"/>
    <tag k="source" v="Ajuntament de Girona"/>
  </node>
  <node id="783958913" version="2" timestamp="2010-06-25T13:23:42Z" uid="20587" user="balrog-kun" changeset="5073672" lat="41.9804119" lon="2.8181147">
    <tag k="amenity" v="public_building"/>
    <tag k="name" v="Caixafòrum Girona"/>
    <tag k="name:ca" v="Caixafòrum Girona"/>
    <tag k="source" v="Ajuntament de Girona"/>
  </node>
  <node id="783958927" version="2" timestamp="2010-06-25T13:23:42Z" uid="20587" user="balrog-kun" changeset="5073672" lat="41.9628254" lon="2.8300107">
    <tag k="amenity" v="library"/>
    <tag k="name" v="Biblioteca de La UdG. Campus Montilivi"/>
    <tag k="name:ca" v="Biblioteca de La UdG. Campus Montilivi"/>
    <tag k="source" v="Ajuntament de Girona"/>
    <tag k="source_ref" v="www.biblioteca.udg.edu"/>
  </node>
  <node id="783958933" version="2" timestamp="2010-06-25T13:23:42Z" uid="20587" user="balrog-kun" changeset="5073672" lat="41.9871398" lon="2.8255399">
    <tag k="name" v="Sala Rafael Masó. Col·legi d&apos;Arquitectes de Catalunya. Dem. Girona"/>
    <tag k="name:ca" v="Sala Rafael Masó. Col·legi d&apos;Arquitectes de Catalunya. Dem. Girona"/>
    <tag k="source" v="Ajuntament de Girona"/>
  </node>
  <node id="783958938" version="2" timestamp="2010-06-25T13:23:42Z" uid="20587" user="balrog-kun" changeset="5073672" lat="41.9860161" lon="2.825416">
    <tag k="amenity" v="community_centre"/>
    <tag k="name" v="Centre Bonastruc Ça Porta"/>
    <tag k="name:ca" v="Centre Bonastruc Ça Porta"/>
    <tag k="source" v="Ajuntament de Girona"/>
    <tag k="source_ref" v="http://www.ajuntament.gi/call/cat/index.php"/>
  </node>
  <node id="783958954" version="2" timestamp="2010-06-25T13:23:42Z" uid="20587" user="balrog-kun" changeset="5073672" lat="41.9817017" lon="2.8208563">
    <tag k="name" v="Sala d&apos;Exposicions Domènec Fita"/>
    <tag k="name:ca" v="Sala d&apos;Exposicions Domènec Fita"/>
    <tag k="source" v="Ajuntament de Girona"/>
    <tag k="source_ref" v="http://www.casadecultura.org/"/>
  </node>
  <node id="783958962" version="2" timestamp="2010-06-25T13:23:42Z" uid="20587" user="balrog-kun" changeset="5073672" lat="41.9890522" lon="2.8260757">
    <tag k="amenity" v="arts_centre"/>
    <tag k="name" v="Bòlit-Capella de Sant Nicolau"/>
    <tag k="name:ca" v="Bòlit-Capella de Sant Nicolau"/>
    <tag k="source" v="Ajuntament de Girona"/>
    <tag k="source_ref" v="www.bolit.cat"/>
  </node>
  <node id="783958980" version="2" timestamp="2010-06-25T13:23:42Z" uid="20587" user="balrog-kun" changeset="5073672" lat="41.9872775" lon="2.8230633">
    <tag k="amenity" v="library"/>
    <tag k="name" v="Biblioteca de L&apos;Il·lustre Col·legi d&apos;Advocats de Girona"/>
    <tag k="name:ca" v="Biblioteca de L&apos;Il·lustre Col·legi d&apos;Advocats de Girona"/>
    <tag k="source" v="Ajuntament de Girona"/>
    <tag k="source_ref" v="www.icag.cat"/>
  </node>
  <node id="783958993" version="2" timestamp="2010-06-25T13:23:42Z" uid="20587" user="balrog-kun" changeset="5073672" lat="41.9817772" lon="2.8254283">
    <tag k="amenity" v="auditorium"/>
    <tag k="name" v="Auditori de La Mercè"/>
    <tag k="name:ca" v="Auditori de La Mercè"/>
    <tag k="source" v="Ajuntament de Girona"/>
    <tag k="source_ref" v="http://www.ajuntament.gi/ccm/index.php"/>
  </node>
  <node id="783959004" version="2" timestamp="2010-06-25T13:23:42Z" uid="20587" user="balrog-kun" changeset="5073672" lat="41.9848342" lon="2.8316581">
    <tag k="amenity" v="library"/>
    <tag k="name" v="Punt de Lectura de Torre Gironella"/>
    <tag k="name:ca" v="Punt de Lectura de Torre Gironella"/>
    <tag k="source" v="Ajuntament de Girona"/>
    <tag k="source_ref" v="www.girona.cat/biblioteques"/>
  </node>
  <node id="783959020" version="2" timestamp="2010-06-25T13:23:42Z" uid="20587" user="balrog-kun" changeset="5073672" lat="41.9850117" lon="2.82665">
    <tag k="name" v="Museu Bíblic"/>
    <tag k="name:ca" v="Museu Bíblic"/>
    <tag k="source" v="Ajuntament de Girona"/>
    <tag k="tourism" v="museum"/>
  </node>
  <node id="783959028" version="2" timestamp="2010-06-25T13:23:42Z" uid="20587" user="balrog-kun" changeset="5073672" lat="41.9868296" lon="2.8199694">
    <tag k="name" v="Caseta de La Devesa"/>
    <tag k="name:ca" v="Caseta de La Devesa"/>
    <tag k="source" v="Ajuntament de Girona"/>
    <tag k="source_ref" v="www.girona.cat/caseta"/>
  </node>
  <node id="783959034" version="2" timestamp="2010-06-25T13:23:42Z" uid="20587" user="balrog-kun" changeset="5073672" lat="41.9729845" lon="2.8023504">
    <tag k="amenity" v="library"/>
    <tag k="name" v="Biblioteca Escolar Montfollet"/>
    <tag k="name:ca" v="Biblioteca Escolar Montfollet"/>
    <tag k="source" v="Ajuntament de Girona"/>
  </node>
  <node id="783959042" version="2" timestamp="2010-06-25T13:23:42Z" uid="20587" user="balrog-kun" changeset="5073672" lat="41.9793439" lon="2.8183866">
    <tag k="amenity" v="library"/>
    <tag k="name" v="Biblioteca del Col·legi d&apos;Enginyers Tècnics Industrials de Girona"/>
    <tag k="name:ca" v="Biblioteca del Col·legi d&apos;Enginyers Tècnics Industrials de Girona"/>
    <tag k="source" v="Ajuntament de Girona"/>
    <tag k="source_ref" v="www.cetig.cat"/>
  </node>
  <node id="783959050" version="2" timestamp="2010-06-25T13:23:42Z" uid="20587" user="balrog-kun" changeset="5073672" lat="41.9832205" lon="2.8237706">
    <tag k="amenity" v="arts_centre"/>
    <tag k="name" v="Bòlit-La Rambla &quot;Dadespai&quot;"/>
    <tag k="name:ca" v="Bòlit-La Rambla &quot;Dadespai&quot;"/>
    <tag k="source" v="Ajuntament de Girona"/>
    <tag k="source_ref" v="www.bolit.cat"/>
  </node>
  <node id="783959090" version="2" timestamp="2010-06-25T13:23:43Z" uid="20587" user="balrog-kun" changeset="5073672" lat="41.9869408" lon="2.8250162">
    <tag k="amenity" v="library"/>
    <tag k="name" v="Biblioteca de L&apos;Arxiu Municipal"/>
    <tag k="name:ca" v="Biblioteca de L&apos;Arxiu Municipal"/>
    <tag k="source" v="Ajuntament de Girona"/>
    <tag k="source_ref" v="http://www.ajuntament.gi/sgdap/cat/"/>
  </node>
  <node id="783959098" version="2" timestamp="2010-06-25T13:23:43Z" uid="20587" user="balrog-kun" changeset="5073672" lat="41.9823836" lon="2.8255587">
    <tag k="name" v="Centre Cívic Modern"/>
    <tag k="name:ca" v="Centre Cívic Modern"/>
    <tag k="source" v="Ajuntament de Girona"/>
  </node>
  <node id="783959106" version="2" timestamp="2010-06-25T13:23:43Z" uid="20587" user="balrog-kun" changeset="5073672" lat="41.9869196" lon="2.8263904">
    <tag k="name" v="Museu d&apos;Art"/>
    <tag k="name:ca" v="Museu d&apos;Art"/>
    <tag k="source" v="Ajuntament de Girona"/>
    <tag k="source_ref" v="http://www.museuart.com/"/>
    <tag k="tourism" v="museum"/>
  </node>
  <node id="783959114" version="2" timestamp="2010-06-25T13:23:43Z" uid="20587" user="balrog-kun" changeset="5073672" lat="41.9761071" lon="2.8163571">
    <tag k="name" v="Escola Municipal de Música"/>
    <tag k="name:ca" v="Escola Municipal de Música"/>
    <tag k="source" v="Ajuntament de Girona"/>
    <tag k="source_ref" v="www.girona.cat/EMM"/>
  </node>
  <node id="783959122" version="2" timestamp="2010-06-25T13:23:43Z" uid="20587" user="balrog-kun" changeset="5073672" lat="41.9809162" lon="2.8219413">
    <tag k="name" v="Museu d&apos;Art de Girona - Farmàcia de L&apos;Hospital Santa Caterina"/>
    <tag k="name:ca" v="Museu d&apos;Art de Girona - Farmàcia de L&apos;Hospital Santa Caterina"/>
    <tag k="source" v="Ajuntament de Girona"/>
    <tag k="source_ref" v="www.ddgi.es/museu"/>
    <tag k="tourism" v="museum"/>
  </node>
  <node id="783959133" version="2" timestamp="2010-06-25T13:23:43Z" uid="20587" user="balrog-kun" changeset="5073672" lat="41.9752195" lon="2.8023778">
    <tag k="amenity" v="library"/>
    <tag k="name" v="Biblioteca S. Allende"/>
    <tag k="name:ca" v="Biblioteca S. Allende"/>
    <tag k="source" v="Ajuntament de Girona"/>
    <tag k="source_ref" v="http://www.bibliotequesgirona.org/"/>
  </node>
  <node id="783959141" version="2" timestamp="2010-06-25T13:23:43Z" uid="20587" user="balrog-kun" changeset="5073672" lat="41.9816211" lon="2.821427">
    <tag k="amenity" v="library"/>
    <tag k="name" v="Biblioteca Pública de Girona"/>
    <tag k="name:ca" v="Biblioteca Pública de Girona"/>
    <tag k="source" v="Ajuntament de Girona"/>
    <tag k="source_ref" v="http://www.bibliotequesgirona.org/"/>
  </node>
  <node id="783959149" version="2" timestamp="2010-06-25T13:23:43Z" uid="20587" user="balrog-kun" changeset="5073672" lat="41.9817393" lon="2.821141">
    <tag k="amenity" v="auditorium"/>
    <tag k="name" v="Auditori Josep Viader"/>
    <tag k="name:ca" v="Auditori Josep Viader"/>
    <tag k="source" v="Ajuntament de Girona"/>
    <tag k="source_ref" v="http://www.casadecultura.org/"/>
  </node>
  <node id="783959157" version="2" timestamp="2010-06-25T13:23:44Z" uid="20587" user="balrog-kun" changeset="5073672" lat="41.9860426" lon="2.825409">
    <tag k="amenity" v="library"/>
    <tag k="name" v="Biblioteca Eliezer Eljanan Schalit"/>
    <tag k="name:ca" v="Biblioteca Eliezer Eljanan Schalit"/>
    <tag k="source" v="Ajuntament de Girona"/>
    <tag k="source_ref" v="http://www.ajuntament.gi/call/cat/index.php"/>
  </node>
  <node id="783959164" version="2" timestamp="2010-06-25T13:23:44Z" uid="20587" user="balrog-kun" changeset="5073672" lat="41.9710003" lon="2.8186457">
    <tag k="amenity" v="library"/>
    <tag k="name" v="Biblioteca Ernest Lluch"/>
    <tag k="name:ca" v="Biblioteca Ernest Lluch"/>
    <tag k="source" v="Ajuntament de Girona"/>
    <tag k="source_ref" v="http://www.bibliotequesgirona.org/"/>
  </node>
  <node id="783959171" version="2" timestamp="2010-06-25T13:23:44Z" uid="20587" user="balrog-kun" changeset="5073672" lat="41.9868745" lon="2.8251131">
    <tag k="name" v="Museu d&apos;Història de La Ciutat"/>
    <tag k="name:ca" v="Museu d&apos;Història de La Ciutat"/>
    <tag k="source" v="Ajuntament de Girona"/>
    <tag k="source_ref" v="http://www.ajuntament.gi/museu_ciutat/"/>
    <tag k="tourism" v="museum"/>
  </node>
  <node id="783959184" version="2" timestamp="2010-06-25T13:23:44Z" uid="20587" user="balrog-kun" changeset="5073672" lat="41.9745714" lon="2.8236634">
    <tag k="amenity" v="library"/>
    <tag k="name" v="Biblioteca de La UdG. Campus Emili Grahit"/>
    <tag k="name:ca" v="Biblioteca de La UdG. Campus Emili Grahit"/>
    <tag k="source" v="Ajuntament de Girona"/>
    <tag k="source_ref" v="www.biblioteca.udg.edu"/>
  </node>
  <node id="783959192" version="2" timestamp="2010-06-25T13:23:44Z" uid="20587" user="balrog-kun" changeset="5073672" lat="41.9871425" lon="2.8253859">
    <tag k="amenity" v="library"/>
    <tag k="name" v="Biblioteca del Col·legi d&apos;Arquitectes de Catalunya. Dem. Girona"/>
    <tag k="name:ca" v="Biblioteca del Col·legi d&apos;Arquitectes de Catalunya. Dem. Girona"/>
    <tag k="source" v="Ajuntament de Girona"/>
  </node>
  <node id="783959198" version="2" timestamp="2010-06-25T13:23:44Z" uid="20587" user="balrog-kun" changeset="5073672" lat="41.9829091" lon="2.8253438">
    <tag k="amenity" v="theatre"/>
    <tag k="name" v="Teatre Municipal"/>
    <tag k="name:ca" v="Teatre Municipal"/>
    <tag k="source" v="Ajuntament de Girona"/>
    <tag k="source_ref" v="http://www.ajuntament.gi/teatre/"/>
  </node>
  <node id="783959206" version="2" timestamp="2010-06-25T13:23:44Z" uid="20587" user="balrog-kun" changeset="5073672" lat="41.9856126" lon="2.8115767">
    <tag k="amenity" v="auditorium"/>
    <tag k="name" v="Auditori Palau de Congressos"/>
    <tag k="name:ca" v="Auditori Palau de Congressos"/>
    <tag k="source" v="Ajuntament de Girona"/>
    <tag k="source_ref" v="http://www.auditorigirona.org/"/>
  </node>
  <node id="783959214" version="2" timestamp="2010-06-25T13:23:44Z" uid="20587" user="balrog-kun" changeset="5073672" lat="41.9749457" lon="2.8116171">
    <tag k="amenity" v="theatre"/>
    <tag k="name" v="Teatre del Centre Cívic Sant Narcís"/>
    <tag k="name:ca" v="Teatre del Centre Cívic Sant Narcís"/>
    <tag k="source" v="Ajuntament de Girona"/>
    <tag k="source_ref" v="www.girona.cat/civics"/>
  </node>
  <node id="783959223" version="2" timestamp="2010-06-25T13:23:44Z" uid="20587" user="balrog-kun" changeset="5073672" lat="42.0002845" lon="2.824051">
    <tag k="amenity" v="library"/>
    <tag k="name" v="Biblioteca del Museu d&apos;Arqueologia de Catalunya i del Centre d&apos;Arqueologia"/>
    <tag k="name:ca" v="Biblioteca del Museu d&apos;Arqueologia de Catalunya i del Centre d&apos;Arqueologia"/>
    <tag k="source" v="Ajuntament de Girona"/>
    <tag k="source_ref" v="www.mac.cat"/>
  </node>
  <node id="783959230" version="2" timestamp="2010-06-25T13:23:44Z" uid="20587" user="balrog-kun" changeset="5073672" lat="41.9806288" lon="2.8152209">
    <tag k="amenity" v="library"/>
    <tag k="name" v="Biblioteca del Col·legi d&apos;Aparelladors i Arquitectes Tècnics de Girona"/>
    <tag k="name:ca" v="Biblioteca del Col·legi d&apos;Aparelladors i Arquitectes Tècnics de Girona"/>
    <tag k="source" v="Ajuntament de Girona"/>
    <tag k="source_ref" v="www.aparellador.cat"/>
  </node>
  <node id="783959238" version="2" timestamp="2010-06-25T13:23:44Z" uid="20587" user="balrog-kun" changeset="5073672" lat="41.9887376" lon="2.8265183">
    <tag k="name" v="Museu d&apos;Arqueologia de Catalunya"/>
    <tag k="name:ca" v="Museu d&apos;Arqueologia de Catalunya"/>
    <tag k="source" v="Ajuntament de Girona"/>
    <tag k="source_ref" v="http://www.mac.es"/>
    <tag k="tourism" v="museum"/>
  </node>
  <node id="783959246" version="2" timestamp="2010-06-25T13:23:44Z" uid="20587" user="balrog-kun" changeset="5073672" lat="41.9779678" lon="2.8067349">
    <tag k="name" v="La Marfà"/>
    <tag k="name:ca" v="La Marfà"/>
    <tag k="source" v="Ajuntament de Girona"/>
  </node>
  <node id="783959250" version="2" timestamp="2010-06-25T13:23:44Z" uid="20587" user="balrog-kun" changeset="5073672" lat="41.9936547" lon="2.8089638">
    <tag k="amenity" v="library"/>
    <tag k="name" v="Biblioteca Antònia Adroher"/>
    <tag k="name:ca" v="Biblioteca Antònia Adroher"/>
    <tag k="source" v="Ajuntament de Girona"/>
    <tag k="source_ref" v="http://www.bibliotequesgirona.org/"/>
  </node>
</osm>
