<?xml version='1.0' encoding='UTF-8'?>
<osm version="0.6" generator="libosmium/2.20.0">
  <node id="794300890" version="2" timestamp="2011-01-16T08:11:20Z" uid="4467" user="Rosscoe" changeset="6984764" lat="-23.3540248" lon="119.7463809"/>
  <node id="794305878" version="1" timestamp="2010-06-28T13:35:22Z" uid="57673" user="Olaf Jan Schmidt" changeset="5097659" lat="50.1958845" lon="6.6793898">
    <tag k="highway" v="bus_stop"/>
  </node>
  <node id="794305878" version="2" timestamp="2010-07-01T16:08:13Z" uid="57673" user="Olaf Jan Schmidt" changeset="5121721" lat="50.1958845" lon="6.6793898">
    <tag k="bench" v="no"/>
    <tag k="highway" v="bus_stop"/>
    <tag k="name" v="B端scheich In der Joch"/>
    <tag k="shelter" v="no"/>
    <tag k="tactile_paving" v="no"/>
  </node>
  <node id="794306046" version="1" timestamp="2010-06-28T13:35:27Z" uid="57673" user="Olaf Jan Schmidt" changeset="5097659" lat="50.1994433" lon="6.6735128">
    <tag k="bench" v="no"/>
    <tag k="highway" v="bus_stop"/>
    <tag k="name" v="B端scheich Kindergarten"/>
    <tag k="shelter" v="no"/>
    <tag k="tactile_paving" v="no"/>
  </node>
  <node id="794306052" version="1" timestamp="2010-06-28T13:35:27Z" uid="57673" user="Olaf Jan Schmidt" changeset="5097659" lat="50.1961997" lon="6.6703927"/>
  <node id="794306066" version="1" timestamp="2010-06-28T13:35:28Z" uid="57673" user="Olaf Jan Schmidt" changeset="5097659" lat="50.1966317" lon="6.6747638">
    <tag k="amenity" v="place_of_worship"/>
    <tag k="denomination" v="catholic"/>
    <tag k="name" v="Johanneskapelle"/>
    <tag k="religion" v="christian"/>
  </node>
  <node id="794306069" version="1" timestamp="2010-06-28T13:35:28Z" uid="57673" user="Olaf Jan Schmidt" changeset="5097659" lat="50.1973123" lon="6.6750969">
    <tag k="highway" v="bus_stop"/>
    <tag k="name" v="B端scheich Kirche"/>
    <tag k="shelter" v="yes"/>
    <tag k="tactile_paving" v="no"/>
  </node>
  <node id="794306071" version="1" timestamp="2010-06-28T13:35:28Z" uid="57673" user="Olaf Jan Schmidt" changeset="5097659" lat="50.196007" lon="6.6807933">
    <tag k="name" v="Waldblick"/>
    <tag k="tourism" v="guest_house"/>
  </node>
  <node id="794306077" version="1" timestamp="2010-06-28T13:35:28Z" uid="57673" user="Olaf Jan Schmidt" changeset="5097659" lat="50.2001357" lon="6.6745884"/>
  <node id="794306079" version="1" timestamp="2010-06-28T13:35:28Z" uid="57673" user="Olaf Jan Schmidt" changeset="5097659" lat="50.199501" lon="6.6737411">
    <tag k="amenity" v="kindergarten"/>
  </node>
  <node id="794306079" version="2" timestamp="2010-06-29T09:22:44Z" uid="57673" user="Olaf Jan Schmidt" changeset="5104330" lat="50.199501" lon="6.6737411">
    <tag k="amenity" v="kindergarten"/>
    <tag k="name" v="Kindergarten B端scheich"/>
  </node>
  <node id="794306081" version="1" timestamp="2010-06-28T13:35:28Z" uid="57673" user="Olaf Jan Schmidt" changeset="5097659" lat="50.1964307" lon="6.6746365">
    <tag k="amenity" v="restaurant"/>
    <tag k="name" v="Zum Ringwall"/>
    <tag k="tourism" v="guest_house"/>
  </node>
  <node id="794306083" version="1" timestamp="2010-06-28T13:35:28Z" uid="57673" user="Olaf Jan Schmidt" changeset="5097659" lat="50.1960345" lon="6.6747687">
    <tag k="name" v="Zur Post"/>
    <tag k="tourism" v="guest_house"/>
  </node>
</osm>
