<?xml version='1.0' encoding='UTF-8'?>
<osm version="0.6" generator="libosmium/2.20.0">
  <node id="79452392" version="4" timestamp="2009-07-26T01:48:38Z" uid="123700" user="Mala" changeset="1939972" lat="50.9308463" lon="4.4319672">
    <tag k="is_in" v="Vlaams-Brabant,Belgium,Europe"/>
    <tag k="name" v="Vilvoorde"/>
    <tag k="name:fr" v="Vilvorde"/>
    <tag k="openGeoDB:auto_update" v="population"/>
    <tag k="openGeoDB:is_in" v="Vilvoorde,Vilvoorde,Halle-Vilvoorde,Halle-Vilvoorde,Vlaams Brabant,Vlaams Brabant,Vlaanderen,Vlaanderen,Belgique,Belgique,Europe"/>
    <tag k="openGeoDB:is_in_loc_id" v="35342"/>
    <tag k="openGeoDB:layer" v="7"/>
    <tag k="openGeoDB:loc_id" v="34892"/>
    <tag k="openGeoDB:name" v="Vilvoorde,Vilvoorde"/>
    <tag k="openGeoDB:postal_codes" v="1800"/>
    <tag k="openGeoDB:sort_name" v="VILVOORDE"/>
    <tag k="openGeoDB:type" v="100600000"/>
    <tag k="openGeoDB:version" v="0.2.6.11 / 2007-12-04 / http://fa-technik.adfc.de/code/opengeodb/dump/"/>
    <tag k="opengeodb:lat" v="50.9308463"/>
    <tag k="opengeodb:lon" v="4.4319672"/>
    <tag k="place" v="town"/>
    <tag k="wikipedia" v="Vilvoorde"/>
  </node>
  <node id="79456746" version="3" timestamp="2008-09-29T22:44:50Z" uid="1066" user="pavel" changeset="720263" lat="50.135559" lon="14.163852">
    <tag k="is_in" v="Czech Republic, Europe"/>
    <tag k="name" v="Hřebeč"/>
    <tag k="place" v="village"/>
  </node>
</osm>
