<?xml version='1.0' encoding='UTF-8'?>
<osm version="0.6" generator="libosmium/2.20.0">
  <node id="796813304" version="1" timestamp="2010-06-30T11:28:00Z" uid="115477" user="wowik" changeset="5112742" lat="57.4295174" lon="37.6121606">
    <tag k="name" v="Устиново"/>
    <tag k="place" v="hamlet"/>
  </node>
  <node id="796813500" version="1" timestamp="2010-06-30T11:28:10Z" uid="115477" user="wowik" changeset="5112742" lat="57.5166411" lon="37.608014">
    <tag k="name" v="Фролово"/>
    <tag k="place" v="hamlet"/>
  </node>
  <node id="796813500" version="2" timestamp="2010-11-25T17:18:44Z" uid="115477" user="wowik" changeset="6455127" lat="57.5164889" lon="37.6076739">
    <tag k="name" v="Фролово"/>
    <tag k="place" v="hamlet"/>
  </node>
  <node id="796813502" version="1" timestamp="2010-06-30T11:28:10Z" uid="115477" user="wowik" changeset="5112742" lat="57.545289" lon="37.5823025">
    <tag k="name" v="Крюково"/>
    <tag k="place" v="locality"/>
  </node>
  <node id="796813502" version="2" timestamp="2010-11-25T13:07:53Z" uid="115477" user="wowik" changeset="6453611" lat="57.545289" lon="37.5823025">
    <tag k="name" v="Крюково"/>
    <tag k="place" v="locality"/>
    <tag k="source" v="Менде"/>
  </node>
  <node id="796813503" version="1" timestamp="2010-06-30T11:28:10Z" uid="115477" user="wowik" changeset="5112742" lat="57.4478812" lon="37.7037451">
    <tag k="name" v="Башмаково"/>
    <tag k="place" v="hamlet"/>
  </node>
  <node id="796813503" version="2" timestamp="2010-07-01T09:08:21Z" uid="115477" user="wowik" changeset="5118987" lat="57.447295" lon="37.7038652">
    <tag k="name" v="Башмаково"/>
    <tag k="place" v="hamlet"/>
  </node>
  <node id="796813504" version="1" timestamp="2010-06-30T11:28:10Z" uid="115477" user="wowik" changeset="5112742" lat="57.4602345" lon="37.666714">
    <tag k="name" v="Лубеньки"/>
    <tag k="place" v="hamlet"/>
  </node>
  <node id="796813504" version="2" timestamp="2010-07-01T09:01:41Z" uid="115477" user="wowik" changeset="5118987" lat="57.4602345" lon="37.6667139">
    <tag k="name" v="Лубеньки"/>
    <tag k="old_name" v="Лубенинково"/>
    <tag k="place" v="locality"/>
  </node>
  <node id="796813504" version="3" timestamp="2010-07-14T16:52:55Z" uid="115477" user="wowik" changeset="5219550" lat="57.4602345" lon="37.6667139">
    <tag k="name" v="Лубеньки"/>
    <tag k="old_name" v="Лубенинково"/>
    <tag k="place" v="locality"/>
  </node>
  <node id="796813505" version="1" timestamp="2010-06-30T11:28:10Z" uid="115477" user="wowik" changeset="5112742" lat="57.4459253" lon="37.7286347">
    <tag k="name" v="Маринино"/>
    <tag k="place" v="hamlet"/>
  </node>
  <node id="796813505" version="2" timestamp="2010-07-01T09:01:41Z" uid="115477" user="wowik" changeset="5118987" lat="57.4448472" lon="37.727254">
    <tag k="name" v="Маринино"/>
    <tag k="place" v="hamlet"/>
  </node>
  <node id="796813505" version="3" timestamp="2010-07-14T16:42:26Z" uid="115477" user="wowik" changeset="5219473" lat="57.444705" lon="37.7265275">
    <tag k="name" v="Маринино"/>
    <tag k="place" v="hamlet"/>
  </node>
  <node id="796813511" version="1" timestamp="2010-06-30T11:28:10Z" uid="115477" user="wowik" changeset="5112742" lat="57.4431048" lon="37.7436012">
    <tag k="name" v="Филипищево"/>
    <tag k="place" v="hamlet"/>
  </node>
  <node id="796813513" version="1" timestamp="2010-06-30T11:28:10Z" uid="115477" user="wowik" changeset="5112742" lat="57.4399442" lon="37.7619778">
    <tag k="name" v="Вячково"/>
    <tag k="place" v="hamlet"/>
  </node>
  <node id="796813515" version="1" timestamp="2010-06-30T11:28:10Z" uid="115477" user="wowik" changeset="5112742" lat="57.4577447" lon="37.7823429">
    <tag k="name" v="Вязовец"/>
    <tag k="place" v="hamlet"/>
  </node>
  <node id="796813515" version="2" timestamp="2011-02-01T14:26:27Z" uid="115477" user="wowik" changeset="7155196" lat="57.457692" lon="37.7812049">
    <tag k="name" v="Вязовец"/>
    <tag k="place" v="hamlet"/>
  </node>
  <node id="796813517" version="1" timestamp="2010-06-30T11:28:10Z" uid="115477" user="wowik" changeset="5112742" lat="57.467033" lon="37.7873205">
    <tag k="name" v="Усаткино"/>
    <tag k="place" v="hamlet"/>
  </node>
  <node id="796813517" version="2" timestamp="2010-07-14T16:52:54Z" uid="115477" user="wowik" changeset="5219550" lat="57.467033" lon="37.7873205">
    <tag k="name" v="Усаткино"/>
    <tag k="place" v="locality"/>
  </node>
  <node id="796813517" version="3" timestamp="2011-02-01T14:26:27Z" uid="115477" user="wowik" changeset="7155196" lat="57.467033" lon="37.7873205">
    <tag k="name" v="Усатиково"/>
    <tag k="place" v="hamlet"/>
  </node>
  <node id="796813519" version="1" timestamp="2010-06-30T11:28:10Z" uid="115477" user="wowik" changeset="5112742" lat="57.4793652" lon="37.7627685">
    <tag k="name" v="Костенево"/>
    <tag k="place" v="hamlet"/>
  </node>
  <node id="796813519" version="2" timestamp="2010-07-14T16:42:24Z" uid="115477" user="wowik" changeset="5219473" lat="57.4793652" lon="37.7627685">
    <tag k="name" v="Костенево"/>
    <tag k="place" v="locality"/>
  </node>
  <node id="796813520" version="1" timestamp="2010-06-30T11:28:10Z" uid="115477" user="wowik" changeset="5112742" lat="57.3676252" lon="37.8132365">
    <tag k="name" v="Лютово"/>
    <tag k="place" v="hamlet"/>
  </node>
  <node id="796813520" version="2" timestamp="2010-11-22T17:44:02Z" uid="115477" user="wowik" changeset="6432391" lat="57.3676252" lon="37.8132365">
    <tag k="name" v="Лютово"/>
    <tag k="place" v="locality"/>
    <tag k="source" v="Менlе"/>
  </node>
  <node id="796813520" version="3" timestamp="2010-11-22T18:01:06Z" uid="115477" user="wowik" changeset="6432391" lat="57.3676252" lon="37.8132365">
    <tag k="name" v="Лютово"/>
    <tag k="place" v="locality"/>
    <tag k="source" v="Менде"/>
  </node>
  <node id="796813522" version="1" timestamp="2010-06-30T11:28:11Z" uid="115477" user="wowik" changeset="5112742" lat="57.3354159" lon="37.8995542">
    <tag k="name" v="Ивайково"/>
    <tag k="place" v="hamlet"/>
  </node>
  <node id="796813524" version="1" timestamp="2010-06-30T11:28:11Z" uid="115477" user="wowik" changeset="5112742" lat="57.3425649" lon="37.9407444">
    <tag k="name" v="Лодыгино"/>
    <tag k="place" v="hamlet"/>
  </node>
  <node id="796813524" version="2" timestamp="2010-07-14T10:36:29Z" uid="115477" user="wowik" changeset="5215760" lat="57.3423599" lon="37.939858">
    <tag k="name" v="Лодыгино"/>
    <tag k="place" v="hamlet"/>
  </node>
  <node id="796813524" version="3" timestamp="2011-01-25T17:01:13Z" uid="115477" user="wowik" changeset="7085438" lat="57.34236" lon="37.9398579">
    <tag k="alt_name" v="Ладыгино"/>
    <tag k="name" v="Лодыгино"/>
    <tag k="place" v="hamlet"/>
  </node>
  <node id="796813526" version="1" timestamp="2010-06-30T11:28:11Z" uid="115477" user="wowik" changeset="5112742" lat="57.3467532" lon="37.9350523">
    <tag k="name" v="Костющино"/>
    <tag k="place" v="hamlet"/>
  </node>
  <node id="796813526" version="2" timestamp="2010-07-14T10:36:29Z" uid="115477" user="wowik" changeset="5215760" lat="57.3464354" lon="37.934279">
    <tag k="name" v="Костющино"/>
    <tag k="place" v="hamlet"/>
  </node>
  <node id="796813526" version="3" timestamp="2010-11-24T19:02:10Z" uid="115477" user="wowik" changeset="6446894" lat="57.3464354" lon="37.934279">
    <tag k="name" v="Костюшино"/>
    <tag k="place" v="hamlet"/>
  </node>
  <node id="796813528" version="1" timestamp="2010-06-30T11:28:11Z" uid="115477" user="wowik" changeset="5112742" lat="57.3605678" lon="37.9066866">
    <tag k="name" v="Клясово"/>
    <tag k="place" v="hamlet"/>
  </node>
  <node id="796813530" version="1" timestamp="2010-06-30T11:28:11Z" uid="115477" user="wowik" changeset="5112742" lat="57.4001874" lon="37.8428827">
    <tag k="name" v="Родионово"/>
    <tag k="place" v="hamlet"/>
  </node>
  <node id="796813530" version="2" timestamp="2010-06-30T11:38:29Z" uid="115477" user="wowik" changeset="5112785" lat="57.4001874" lon="37.8428828">
    <tag k="name" v="Родионово"/>
    <tag k="place" v="locality"/>
  </node>
  <node id="796813532" version="1" timestamp="2010-06-30T11:28:11Z" uid="115477" user="wowik" changeset="5112742" lat="57.4245906" lon="37.8379926">
    <tag k="name" v="Шахматово"/>
    <tag k="place" v="hamlet"/>
  </node>
  <node id="796813532" version="2" timestamp="2010-06-30T12:26:10Z" uid="115477" user="wowik" changeset="5112785" lat="57.4240859" lon="37.836157">
    <tag k="name" v="Шахматово"/>
    <tag k="place" v="locality"/>
  </node>
  <node id="796813534" version="1" timestamp="2010-06-30T11:28:11Z" uid="115477" user="wowik" changeset="5112742" lat="57.4546299" lon="37.8359789">
    <tag k="name" v="Щелково"/>
    <tag k="place" v="hamlet"/>
  </node>
  <node id="796813536" version="1" timestamp="2010-06-30T11:28:11Z" uid="115477" user="wowik" changeset="5112742" lat="57.446377" lon="37.8203351">
    <tag k="name" v="Лониснево"/>
    <tag k="place" v="hamlet"/>
  </node>
  <node id="796813536" version="2" timestamp="2010-06-30T12:26:11Z" uid="115477" user="wowik" changeset="5112785" lat="57.4454761" lon="37.8203642">
    <tag k="name" v="Пониснево"/>
    <tag k="place" v="hamlet"/>
  </node>
  <node id="796813538" version="1" timestamp="2010-06-30T11:28:11Z" uid="115477" user="wowik" changeset="5112742" lat="57.4384503" lon="37.808653">
    <tag k="name" v="Тураево"/>
    <tag k="place" v="hamlet"/>
  </node>
  <node id="796813538" version="2" timestamp="2010-11-25T15:57:15Z" uid="115477" user="wowik" changeset="6455127" lat="57.4384503" lon="37.808653">
    <tag k="name" v="Тураево"/>
    <tag k="place" v="locality"/>
  </node>
  <node id="796813540" version="1" timestamp="2010-06-30T11:28:11Z" uid="115477" user="wowik" changeset="5112742" lat="57.4596025" lon="37.8044881">
    <tag k="name" v="Вахромеево"/>
    <tag k="place" v="hamlet"/>
  </node>
  <node id="796813542" version="1" timestamp="2010-06-30T11:28:11Z" uid="115477" user="wowik" changeset="5112742" lat="57.4689996" lon="37.8102783">
    <tag k="name" v="Савашкино"/>
    <tag k="place" v="hamlet"/>
  </node>
  <node id="796813543" version="1" timestamp="2010-06-30T11:28:11Z" uid="115477" user="wowik" changeset="5112742" lat="57.4503124" lon="37.8543655">
    <tag k="name" v="Семеновское"/>
    <tag k="place" v="hamlet"/>
  </node>
  <node id="796813546" version="1" timestamp="2010-06-30T11:28:11Z" uid="115477" user="wowik" changeset="5112742" lat="57.4442998" lon="37.8571083">
    <tag k="name" v="Горки Семеновские"/>
    <tag k="place" v="hamlet"/>
  </node>
  <node id="796813555" version="1" timestamp="2010-06-30T11:28:11Z" uid="115477" user="wowik" changeset="5112742" lat="57.4434799" lon="37.8728537">
    <tag k="name" v="Фатьяново"/>
    <tag k="place" v="hamlet"/>
  </node>
  <node id="796813555" version="2" timestamp="2010-06-30T12:26:10Z" uid="115477" user="wowik" changeset="5112785" lat="57.4432361" lon="37.872678">
    <tag k="name" v="Фатьяново"/>
    <tag k="place" v="hamlet"/>
  </node>
  <node id="796813558" version="1" timestamp="2010-06-30T11:28:11Z" uid="115477" user="wowik" changeset="5112742" lat="57.4336388" lon="37.8905292">
    <tag k="name" v="Суслово"/>
    <tag k="place" v="hamlet"/>
  </node>
  <node id="796813558" version="2" timestamp="2010-06-30T12:00:27Z" uid="115477" user="wowik" changeset="5112785" lat="57.4328884" lon="37.8910028">
    <tag k="name" v="Суслово"/>
    <tag k="place" v="hamlet"/>
  </node>
  <node id="796813560" version="1" timestamp="2010-06-30T11:28:11Z" uid="115477" user="wowik" changeset="5112742" lat="57.417997" lon="37.8861611">
    <tag k="name" v="Родичево"/>
    <tag k="place" v="hamlet"/>
  </node>
  <node id="796813563" version="1" timestamp="2010-06-30T11:28:12Z" uid="115477" user="wowik" changeset="5112742" lat="57.4210056" lon="37.902516">
    <tag k="name" v="Ивашево"/>
    <tag k="place" v="hamlet"/>
  </node>
  <node id="796813566" version="1" timestamp="2010-06-30T11:28:12Z" uid="115477" user="wowik" changeset="5112742" lat="57.4245608" lon="37.9156203">
    <tag k="name" v="Федорково"/>
    <tag k="place" v="hamlet"/>
  </node>
  <node id="796813566" version="2" timestamp="2010-06-30T12:00:27Z" uid="115477" user="wowik" changeset="5112785" lat="57.4242708" lon="37.9146492">
    <tag k="name" v="Федорково"/>
    <tag k="place" v="hamlet"/>
  </node>
  <node id="796813569" version="1" timestamp="2010-06-30T11:28:12Z" uid="115477" user="wowik" changeset="5112742" lat="57.4317796" lon="37.9224264">
    <tag k="name" v="Иванищи"/>
    <tag k="place" v="hamlet"/>
  </node>
  <node id="796813569" version="2" timestamp="2010-06-30T12:00:27Z" uid="115477" user="wowik" changeset="5112785" lat="57.4312713" lon="37.9221594">
    <tag k="name" v="Иванищи"/>
    <tag k="place" v="hamlet"/>
  </node>
  <node id="796813573" version="1" timestamp="2010-06-30T11:28:12Z" uid="115477" user="wowik" changeset="5112742" lat="57.4075472" lon="37.9299436">
    <tag k="name" v="Нестерово"/>
    <tag k="place" v="hamlet"/>
  </node>
  <node id="796813576" version="1" timestamp="2010-06-30T11:28:12Z" uid="115477" user="wowik" changeset="5112742" lat="57.4144023" lon="37.9493509">
    <tag k="name" v="Шишкино"/>
    <tag k="place" v="hamlet"/>
  </node>
  <node id="796813576" version="2" timestamp="2010-06-30T12:00:28Z" uid="115477" user="wowik" changeset="5112785" lat="57.4140795" lon="37.9494106">
    <tag k="name" v="Шишкино"/>
    <tag k="place" v="hamlet"/>
  </node>
  <node id="796813577" version="1" timestamp="2010-06-30T11:28:12Z" uid="115477" user="wowik" changeset="5112742" lat="57.4054172" lon="37.9419705">
    <tag k="name" v="Хомутово"/>
    <tag k="place" v="hamlet"/>
  </node>
  <node id="796813579" version="1" timestamp="2010-06-30T11:28:12Z" uid="115477" user="wowik" changeset="5112742" lat="57.3954494" lon="37.9291308">
    <tag k="name" v="Сороконо"/>
    <tag k="place" v="hamlet"/>
  </node>
  <node id="796813581" version="1" timestamp="2010-06-30T11:28:12Z" uid="115477" user="wowik" changeset="5112742" lat="57.4402181" lon="37.9172158">
    <tag k="name" v="Заречье"/>
    <tag k="place" v="hamlet"/>
  </node>
  <node id="796813583" version="1" timestamp="2010-06-30T11:28:12Z" uid="115477" user="wowik" changeset="5112742" lat="57.4450098" lon="37.9044247">
    <tag k="name" v="Никиткино"/>
    <tag k="place" v="hamlet"/>
  </node>
  <node id="796813585" version="1" timestamp="2010-06-30T11:28:12Z" uid="115477" user="wowik" changeset="5112742" lat="57.4527534" lon="37.9036161">
    <tag k="name" v="Ларуново"/>
    <tag k="place" v="hamlet"/>
  </node>
  <node id="796813587" version="1" timestamp="2010-06-30T11:28:12Z" uid="115477" user="wowik" changeset="5112742" lat="57.4611043" lon="37.8943988">
    <tag k="name" v="Лягалово"/>
    <tag k="place" v="hamlet"/>
  </node>
  <node id="796813589" version="1" timestamp="2010-06-30T11:28:12Z" uid="115477" user="wowik" changeset="5112742" lat="57.465453" lon="37.8816239">
    <tag k="name" v="Карелино"/>
    <tag k="place" v="hamlet"/>
  </node>
  <node id="796813590" version="1" timestamp="2010-06-30T11:28:12Z" uid="115477" user="wowik" changeset="5112742" lat="57.4429333" lon="37.9274357">
    <tag k="name" v="плоски"/>
    <tag k="place" v="hamlet"/>
  </node>
  <node id="796813590" version="2" timestamp="2010-06-30T11:38:29Z" uid="115477" user="wowik" changeset="5112785" lat="57.4429332" lon="37.9274357">
    <tag k="name" v="Плоски"/>
    <tag k="place" v="hamlet"/>
  </node>
  <node id="796813592" version="1" timestamp="2010-06-30T11:28:12Z" uid="115477" user="wowik" changeset="5112742" lat="57.5017874" lon="37.6392237">
    <tag k="name" v="Трубино"/>
    <tag k="place" v="hamlet"/>
  </node>
  <node id="796813592" version="2" timestamp="2010-07-14T16:42:24Z" uid="115477" user="wowik" changeset="5219473" lat="57.5017874" lon="37.6383981">
    <tag k="name" v="Трубино"/>
    <tag k="place" v="hamlet"/>
  </node>
  <node id="796813592" version="3" timestamp="2010-11-25T13:07:57Z" uid="115477" user="wowik" changeset="6453611" lat="57.5023496" lon="37.6376805">
    <tag k="name" v="Трубино"/>
    <tag k="place" v="hamlet"/>
  </node>
  <node id="796813594" version="1" timestamp="2010-06-30T11:28:12Z" uid="115477" user="wowik" changeset="5112742" lat="57.4852762" lon="37.7000259">
    <tag k="name" v="Егорьевское"/>
    <tag k="place" v="hamlet"/>
  </node>
  <node id="796813594" version="2" timestamp="2010-11-25T13:08:03Z" uid="115477" user="wowik" changeset="6453611" lat="57.4849309" lon="37.6996463">
    <tag k="name" v="Егорьевское"/>
    <tag k="place" v="hamlet"/>
  </node>
  <node id="796813594" version="3" timestamp="2011-01-26T16:44:16Z" uid="115477" user="wowik" changeset="7094999" lat="57.4846989" lon="37.6992147">
    <tag k="name" v="Егорьевское"/>
    <tag k="place" v="hamlet"/>
  </node>
  <node id="796813596" version="1" timestamp="2010-06-30T11:28:12Z" uid="115477" user="wowik" changeset="5112742" lat="57.502135" lon="37.6988939">
    <tag k="name" v="Крохино"/>
    <tag k="place" v="hamlet"/>
  </node>
  <node id="796813596" version="2" timestamp="2010-07-14T16:42:24Z" uid="115477" user="wowik" changeset="5219473" lat="57.5012478" lon="37.6955914">
    <tag k="name" v="Крохино"/>
    <tag k="place" v="locality"/>
  </node>
  <node id="796813598" version="1" timestamp="2010-06-30T11:28:12Z" uid="115477" user="wowik" changeset="5112742" lat="57.5136014" lon="37.6943661">
    <tag k="name" v="Дуботолки"/>
    <tag k="place" v="hamlet"/>
  </node>
  <node id="796813598" version="2" timestamp="2010-07-14T16:42:25Z" uid="115477" user="wowik" changeset="5219473" lat="57.505175" lon="37.690981">
    <tag k="name" v="Дуботолки"/>
    <tag k="place" v="hamlet"/>
    <tag k="source" v="Менге"/>
  </node>
  <node id="796813598" version="3" timestamp="2010-11-25T13:07:54Z" uid="115477" user="wowik" changeset="6453611" lat="57.505175" lon="37.690981">
    <tag k="name" v="Дуботолки"/>
    <tag k="place" v="hamlet"/>
    <tag k="source" v="Менде"/>
  </node>
  <node id="796813604" version="1" timestamp="2010-06-30T11:28:12Z" uid="115477" user="wowik" changeset="5112742" lat="57.541297" lon="37.658952">
    <tag k="name" v="Шубино"/>
    <tag k="place" v="hamlet"/>
  </node>
  <node id="796813604" version="2" timestamp="2010-07-14T16:42:24Z" uid="115477" user="wowik" changeset="5219473" lat="57.5419063" lon="37.658952">
    <tag k="name" v="Шубино"/>
    <tag k="place" v="hamlet"/>
  </node>
  <node id="796813606" version="1" timestamp="2010-06-30T11:28:13Z" uid="115477" user="wowik" changeset="5112742" lat="57.534961" lon="37.6376066">
    <tag k="name" v="Кононово"/>
    <tag k="place" v="hamlet"/>
  </node>
  <node id="796813606" version="2" timestamp="2010-07-14T16:42:26Z" uid="115477" user="wowik" changeset="5219473" lat="57.534961" lon="37.6363682">
    <tag k="name" v="Кононово"/>
    <tag k="place" v="hamlet"/>
  </node>
  <node id="796813606" version="3" timestamp="2010-11-25T12:21:02Z" uid="115477" user="wowik" changeset="6453611" lat="57.5343418" lon="37.6330936">
    <tag k="name" v="Кононово"/>
    <tag k="place" v="hamlet"/>
  </node>
  <node id="796813608" version="1" timestamp="2010-06-30T11:28:13Z" uid="115477" user="wowik" changeset="5112742" lat="57.527148" lon="37.6497347">
    <tag k="name" v="Заворино"/>
    <tag k="place" v="hamlet"/>
  </node>
  <node id="796813608" version="2" timestamp="2010-11-25T12:21:02Z" uid="115477" user="wowik" changeset="6453611" lat="57.5273078" lon="37.6492137">
    <tag k="name" v="Заворино"/>
    <tag k="place" v="hamlet"/>
  </node>
  <node id="796813610" version="1" timestamp="2010-06-30T11:28:13Z" uid="115477" user="wowik" changeset="5112742" lat="57.5333985" lon="37.7042303">
    <tag k="name" v="Савелково"/>
    <tag k="place" v="hamlet"/>
  </node>
  <node id="796813610" version="2" timestamp="2010-11-25T11:32:30Z" uid="115477" user="wowik" changeset="6453611" lat="57.5329899" lon="37.7027771">
    <tag k="name" v="Савелково"/>
    <tag k="place" v="hamlet"/>
  </node>
  <node id="796813612" version="1" timestamp="2010-06-30T11:28:13Z" uid="115477" user="wowik" changeset="5112742" lat="57.5082161" lon="37.7857311">
    <tag k="name" v="Соломыслово"/>
    <tag k="place" v="hamlet"/>
  </node>
  <node id="796813614" version="1" timestamp="2010-06-30T11:28:13Z" uid="115477" user="wowik" changeset="5112742" lat="57.5269743" lon="37.7624451">
    <tag k="name" v="Шишкино"/>
    <tag k="place" v="hamlet"/>
  </node>
  <node id="796813614" version="2" timestamp="2010-11-25T11:32:32Z" uid="115477" user="wowik" changeset="6453611" lat="57.5270754" lon="37.7623644">
    <tag k="name" v="Шишкино"/>
    <tag k="place" v="hamlet"/>
  </node>
  <node id="796813616" version="1" timestamp="2010-06-30T11:28:13Z" uid="115477" user="wowik" changeset="5112742" lat="57.3413922" lon="37.9859709">
    <tag k="name" v="Скатерка"/>
    <tag k="place" v="hamlet"/>
  </node>
  <node id="796813616" version="2" timestamp="2010-07-12T13:15:55Z" uid="115477" user="wowik" changeset="5198326" lat="57.3414519" lon="37.985906">
    <tag k="name" v="Скатерка"/>
    <tag k="old_name" v="Скатертево"/>
    <tag k="place" v="hamlet"/>
  </node>
  <node id="796813619" version="1" timestamp="2010-06-30T11:28:13Z" uid="115477" user="wowik" changeset="5112742" lat="57.3563688" lon="37.9775578">
    <tag k="name" v="Ескино"/>
    <tag k="place" v="hamlet"/>
  </node>
  <node id="796813621" version="1" timestamp="2010-06-30T11:28:13Z" uid="115477" user="wowik" changeset="5112742" lat="57.3680935" lon="37.9932023">
    <tag k="name" v="Мосеевское"/>
    <tag k="place" v="hamlet"/>
  </node>
  <node id="796813622" version="1" timestamp="2010-06-30T11:28:13Z" uid="115477" user="wowik" changeset="5112742" lat="57.3782944" lon="37.9961131">
    <tag k="name" v="Ошалаево"/>
    <tag k="place" v="hamlet"/>
  </node>
</osm>
