<?xml version='1.0' encoding='UTF-8'?>
<osm version="0.6" generator="libosmium/2.20.0">
  <node id="797938413" version="1" timestamp="2010-07-01T08:46:29Z" uid="49111" user="Markus B" changeset="5118887" lat="49.4522077" lon="11.0806124"/>
  <node id="797938478" version="1" timestamp="2010-07-01T08:46:35Z" uid="49111" user="Markus B" changeset="5118887" lat="49.4522048" lon="11.0806801"/>
  <node id="797938479" version="1" timestamp="2010-07-01T08:46:35Z" uid="49111" user="Markus B" changeset="5118887" lat="49.4511475" lon="11.0811716">
    <tag k="addr:city" v="Nürnberg"/>
    <tag k="addr:country" v="DE"/>
    <tag k="addr:housenumber" v="17"/>
    <tag k="addr:postcode" v="90403"/>
    <tag k="addr:street" v="Peter-Vischer-Straße"/>
    <tag k="amenity" v="cafe"/>
    <tag k="name" v="Teestube Konkret"/>
    <tag k="note" v="alkoholfrei"/>
    <tag k="opening_hours" v="Fr-Sa 20:00-23:00"/>
    <tag k="phone" v="+49-911-203387"/>
    <tag k="smoking" v="no"/>
  </node>
  <node id="797938611" version="1" timestamp="2010-07-01T08:46:41Z" uid="49111" user="Markus B" changeset="5118887" lat="49.4518651" lon="11.0813714"/>
  <node id="797938612" version="1" timestamp="2010-07-01T08:46:41Z" uid="49111" user="Markus B" changeset="5118887" lat="49.4519089" lon="11.0814099">
    <tag k="addr:city" v="Nürnberg"/>
    <tag k="addr:country" v="DE"/>
    <tag k="addr:housenumber" v="2"/>
    <tag k="addr:postcode" v="90403"/>
    <tag k="addr:street" v="Peter-Vischer-Straße"/>
    <tag k="amenity" v="bar"/>
    <tag k="name" v="dierote Bar"/>
    <tag k="opening_hours" v="So-Do 19:00-02:00; Fr-Sa 19:00-03:00"/>
    <tag k="phone" v="+49-911-9928956"/>
    <tag k="smoking" v="yes"/>
    <tag k="website" v="http://dierotebar.net"/>
  </node>
  <node id="797938612" version="3" timestamp="2010-10-01T07:17:21Z" uid="49111" user="Markus B" changeset="5925467" lat="49.4518947" lon="11.0814578">
    <tag k="addr:city" v="Nürnberg"/>
    <tag k="addr:country" v="DE"/>
    <tag k="addr:housenumber" v="2"/>
    <tag k="addr:postcode" v="90403"/>
    <tag k="addr:street" v="Peter-Vischer-Straße"/>
    <tag k="amenity" v="bar"/>
    <tag k="name" v="dierote Bar"/>
    <tag k="opening_hours" v="So-Do 19:00-02:00; Fr-Sa 19:00-03:00"/>
    <tag k="phone" v="+49-911-9928956"/>
    <tag k="smoking" v="no"/>
    <tag k="website" v="http://dierotebar.net"/>
  </node>
  <node id="797938621" version="1" timestamp="2010-07-01T08:46:41Z" uid="49111" user="Markus B" changeset="5118887" lat="49.4519384" lon="11.0813618"/>
  <node id="797938623" version="1" timestamp="2010-07-01T08:46:41Z" uid="49111" user="Markus B" changeset="5118887" lat="49.451935" lon="11.0813908"/>
  <node id="797938625" version="1" timestamp="2010-07-01T08:46:41Z" uid="49111" user="Markus B" changeset="5118887" lat="49.4518685" lon="11.0813425"/>
  <node id="797938626" version="1" timestamp="2010-07-01T08:46:41Z" uid="49111" user="Markus B" changeset="5118887" lat="49.452073" lon="11.0812247"/>
  <node id="797938628" version="1" timestamp="2010-07-01T08:46:41Z" uid="49111" user="Markus B" changeset="5118887" lat="49.4521081" lon="11.081209"/>
  <node id="797938629" version="1" timestamp="2010-07-01T08:46:41Z" uid="49111" user="Markus B" changeset="5118887" lat="49.4521764" lon="11.0813299"/>
  <node id="797938630" version="1" timestamp="2010-07-01T08:46:41Z" uid="49111" user="Markus B" changeset="5118887" lat="49.4522087" lon="11.0812676"/>
  <node id="797938631" version="1" timestamp="2010-07-01T08:46:41Z" uid="49111" user="Markus B" changeset="5118887" lat="49.4520315" lon="11.0815142">
    <tag k="addr:city" v="Nürnberg"/>
    <tag k="addr:country" v="DE"/>
    <tag k="addr:housenumber" v="1"/>
    <tag k="addr:postcode" v="90403"/>
    <tag k="addr:street" v="Peter-Vischer-Straße"/>
    <tag k="amenity" v="restaurant"/>
    <tag k="name" v="Vischer&apos;s"/>
    <tag k="opening_hours" v="So-Do 19:00-02:00; Fr-Sa 19:00-03:00"/>
    <tag k="phone" v="+49-911-2110463"/>
    <tag k="smoking" v="no"/>
  </node>
  <node id="797938632" version="1" timestamp="2010-07-01T08:46:41Z" uid="49111" user="Markus B" changeset="5118887" lat="49.4520422" lon="11.0817564">
    <tag k="addr:city" v="Nürnberg"/>
    <tag k="addr:country" v="DE"/>
    <tag k="addr:housenumber" v="2"/>
    <tag k="addr:postcode" v="90403"/>
    <tag k="addr:street" v="Wespennest"/>
    <tag k="amenity" v="restaurant"/>
    <tag k="name" v="Zeit &amp; Raum"/>
    <tag k="opening_hours" v="Mo-So 09:00-02:00"/>
    <tag k="phone" v="+49-911-227408"/>
    <tag k="smoking" v="no"/>
    <tag k="smoking:outside" v="yes"/>
    <tag k="website" v="http://zeiti.net"/>
  </node>
  <node id="797938633" version="1" timestamp="2010-07-01T08:46:42Z" uid="49111" user="Markus B" changeset="5118887" lat="49.4521139" lon="11.0817225"/>
  <node id="797938634" version="1" timestamp="2010-07-01T08:46:42Z" uid="49111" user="Markus B" changeset="5118887" lat="49.4520733" lon="11.0817067"/>
  <node id="797938635" version="1" timestamp="2010-07-01T08:46:42Z" uid="49111" user="Markus B" changeset="5118887" lat="49.4520536" lon="11.0815564"/>
  <node id="797938636" version="1" timestamp="2010-07-01T08:46:42Z" uid="49111" user="Markus B" changeset="5118887" lat="49.4520794" lon="11.0815624"/>
  <node id="797938637" version="1" timestamp="2010-07-01T08:46:42Z" uid="49111" user="Markus B" changeset="5118887" lat="49.4520631" lon="11.0814594"/>
  <node id="797938638" version="1" timestamp="2010-07-01T08:46:42Z" uid="49111" user="Markus B" changeset="5118887" lat="49.4520889" lon="11.0814654"/>
  <node id="797938639" version="1" timestamp="2010-07-01T08:46:42Z" uid="49111" user="Markus B" changeset="5118887" lat="49.4521909" lon="11.0814592"/>
  <node id="797938640" version="1" timestamp="2010-07-01T08:46:42Z" uid="49111" user="Markus B" changeset="5118887" lat="49.452188" lon="11.0817512"/>
  <node id="797938641" version="1" timestamp="2010-07-01T08:46:42Z" uid="49111" user="Markus B" changeset="5118887" lat="49.4519442" lon="11.0819607">
    <tag k="amenity" v="cafe"/>
    <tag k="name" v="Bibliotheks-Cafe"/>
    <tag k="smoking" v="no"/>
    <tag k="smoking:outside" v="yes"/>
  </node>
  <node id="797938642" version="1" timestamp="2010-07-01T08:46:42Z" uid="49111" user="Markus B" changeset="5118887" lat="49.4519019" lon="11.0819698"/>
  <node id="797938643" version="1" timestamp="2010-07-01T08:46:42Z" uid="49111" user="Markus B" changeset="5118887" lat="49.451889" lon="11.0820454"/>
  <node id="797938644" version="1" timestamp="2010-07-01T08:46:42Z" uid="49111" user="Markus B" changeset="5118887" lat="49.4519633" lon="11.0820754"/>
  <node id="797938645" version="1" timestamp="2010-07-01T08:46:42Z" uid="49111" user="Markus B" changeset="5118887" lat="49.4519762" lon="11.0819998"/>
  <node id="797938646" version="1" timestamp="2010-07-01T08:46:42Z" uid="49111" user="Markus B" changeset="5118887" lat="49.4520513" lon="11.08184"/>
  <node id="797938647" version="1" timestamp="2010-07-01T08:46:42Z" uid="49111" user="Markus B" changeset="5118887" lat="49.4520919" lon="11.0818559"/>
  <node id="797938648" version="1" timestamp="2010-07-01T08:46:42Z" uid="49111" user="Markus B" changeset="5118887" lat="49.4521374" lon="11.0823707">
    <tag k="addr:city" v="Nürnberg"/>
    <tag k="addr:country" v="DE"/>
    <tag k="addr:housenumber" v="11"/>
    <tag k="addr:postcode" v="90403"/>
    <tag k="addr:street" v="Wespennest"/>
    <tag k="amenity" v="fast_food"/>
    <tag k="cuisine" v="thai"/>
    <tag k="name" v="Sina"/>
    <tag k="smoking" v="no"/>
  </node>
  <node id="797938649" version="1" timestamp="2010-07-01T08:46:42Z" uid="49111" user="Markus B" changeset="5118887" lat="49.4521472" lon="11.0827375"/>
  <node id="797938650" version="1" timestamp="2010-07-01T08:46:42Z" uid="49111" user="Markus B" changeset="5118887" lat="49.4522035" lon="11.082743"/>
  <node id="797938651" version="1" timestamp="2010-07-01T08:46:42Z" uid="49111" user="Markus B" changeset="5118887" lat="49.4521085" lon="11.0825876">
    <tag k="addr:city" v="Nürnberg"/>
    <tag k="addr:country" v="DE"/>
    <tag k="addr:housenumber" v="13"/>
    <tag k="addr:postcode" v="90403"/>
    <tag k="addr:street" v="Wespennest"/>
    <tag k="amenity" v="restaurant"/>
    <tag k="cuisine" v="spain"/>
    <tag k="name" v="Tapas Bar"/>
    <tag k="smoking" v="no"/>
  </node>
  <node id="797938652" version="1" timestamp="2010-07-01T08:46:42Z" uid="49111" user="Markus B" changeset="5118887" lat="49.4521386" lon="11.0829458"/>
  <node id="797938653" version="1" timestamp="2010-07-01T08:46:42Z" uid="49111" user="Markus B" changeset="5118887" lat="49.4521949" lon="11.0829512"/>
  <node id="797938654" version="1" timestamp="2010-07-01T08:46:42Z" uid="49111" user="Markus B" changeset="5118887" lat="49.452285" lon="11.0808114"/>
  <node id="797938656" version="1" timestamp="2010-07-01T08:46:42Z" uid="49111" user="Markus B" changeset="5118887" lat="49.4522228" lon="11.0806139"/>
  <node id="797938658" version="1" timestamp="2010-07-01T08:46:42Z" uid="49111" user="Markus B" changeset="5118887" lat="49.45222" lon="11.0806816"/>
  <node id="797938664" version="1" timestamp="2010-07-01T08:46:43Z" uid="49111" user="Markus B" changeset="5118887" lat="49.452275" lon="11.0813433"/>
  <node id="797938665" version="1" timestamp="2010-07-01T08:46:43Z" uid="49111" user="Markus B" changeset="5118887" lat="49.4522532" lon="11.0817602"/>
  <node id="797938667" version="1" timestamp="2010-07-01T08:46:43Z" uid="49111" user="Markus B" changeset="5118887" lat="49.4522124" lon="11.0812174"/>
  <node id="797938669" version="1" timestamp="2010-07-01T08:46:43Z" uid="49111" user="Markus B" changeset="5118887" lat="49.4522746" lon="11.0812283"/>
  <node id="797938670" version="1" timestamp="2010-07-01T08:46:43Z" uid="49111" user="Markus B" changeset="5118887" lat="49.4522709" lon="11.0812786"/>
  <node id="797938672" version="1" timestamp="2010-07-01T08:46:43Z" uid="49111" user="Markus B" changeset="5118887" lat="49.4522706" lon="11.0816263"/>
  <node id="797938674" version="1" timestamp="2010-07-01T08:46:43Z" uid="49111" user="Markus B" changeset="5118887" lat="49.4522379" lon="11.08162"/>
  <node id="797938676" version="1" timestamp="2010-07-01T08:46:43Z" uid="49111" user="Markus B" changeset="5118887" lat="49.4522301" lon="11.0817156"/>
  <node id="797938677" version="1" timestamp="2010-07-01T08:46:43Z" uid="49111" user="Markus B" changeset="5118887" lat="49.4522628" lon="11.081722"/>
</osm>
