<?xml version='1.0' encoding='UTF-8'?>
<osm version="0.6" generator="libosmium/2.20.0">
  <node id="798215641" version="1" timestamp="2010-07-01T11:28:38Z" uid="115477" user="wowik" changeset="5119749" lat="57.0347501" lon="37.8917158">
    <tag k="name" v="Романово"/>
    <tag k="place" v="hamlet"/>
  </node>
  <node id="798215643" version="1" timestamp="2010-07-01T11:28:38Z" uid="115477" user="wowik" changeset="5119749" lat="57.0367582" lon="37.921499">
    <tag k="name" v="Сандырево"/>
    <tag k="place" v="hamlet"/>
  </node>
  <node id="798215646" version="1" timestamp="2010-07-01T11:28:38Z" uid="115477" user="wowik" changeset="5119749" lat="57.0440428" lon="37.8969515">
    <tag k="name" v="Попово"/>
    <tag k="place" v="hamlet"/>
  </node>
  <node id="798215646" version="2" timestamp="2011-02-11T13:45:39Z" uid="115477" user="wowik" changeset="7255337" lat="57.0442005" lon="37.897045">
    <tag k="name" v="Попово"/>
    <tag k="place" v="hamlet"/>
  </node>
  <node id="798215649" version="1" timestamp="2010-07-01T11:28:38Z" uid="115477" user="wowik" changeset="5119749" lat="57.0212971" lon="37.9423559">
    <tag k="name" v="Выползово"/>
    <tag k="place" v="hamlet"/>
  </node>
  <node id="798215665" version="1" timestamp="2010-07-01T11:28:39Z" uid="115477" user="wowik" changeset="5119749" lat="57.0989579" lon="37.6521194">
    <tag k="name" v="Красная Горка"/>
    <tag k="place" v="hamlet"/>
  </node>
  <node id="798215671" version="1" timestamp="2010-07-01T11:28:39Z" uid="115477" user="wowik" changeset="5119749" lat="57.0111575" lon="37.851547">
    <tag k="name" v="Бунькино"/>
    <tag k="place" v="hamlet"/>
  </node>
  <node id="798215671" version="2" timestamp="2010-07-01T16:40:14Z" uid="115477" user="wowik" changeset="5121929" lat="57.0106208" lon="37.8514574">
    <tag k="name" v="Бунькино"/>
    <tag k="place" v="hamlet"/>
  </node>
  <node id="798215672" version="1" timestamp="2010-07-01T11:28:39Z" uid="115477" user="wowik" changeset="5119749" lat="57.0121856" lon="37.8843344">
    <tag k="name" v="Серговка"/>
    <tag k="place" v="hamlet"/>
  </node>
  <node id="798215698" version="1" timestamp="2010-07-01T11:28:41Z" uid="115477" user="wowik" changeset="5119749" lat="57.0945519" lon="37.6834905"/>
  <node id="798218539" version="1" timestamp="2010-07-01T11:31:36Z" uid="115477" user="wowik" changeset="5119749" lat="57.0396069" lon="37.9892195">
    <tag k="name" v="Ситьково"/>
    <tag k="place" v="locality"/>
  </node>
  <node id="798218539" version="2" timestamp="2010-07-01T14:50:12Z" uid="115477" user="wowik" changeset="5120859" lat="57.0303927" lon="37.9876936">
    <tag k="name" v="Ситьково"/>
    <tag k="place" v="hamlet"/>
  </node>
  <node id="798218539" version="3" timestamp="2010-07-01T16:40:15Z" uid="115477" user="wowik" changeset="5121929" lat="57.0297588" lon="37.9875144">
    <tag k="name" v="Ситьково"/>
    <tag k="place" v="hamlet"/>
  </node>
</osm>
