<?xml version='1.0' encoding='UTF-8'?>
<osm version="0.6" generator="libosmium/2.20.0">
  <node id="798553554" version="2" timestamp="2010-12-18T19:59:38Z" uid="6269" user="Mueck" changeset="6699235" lat="53.5498549" lon="8.5929529">
    <tag k="name" v="Autohaus Fritz Fischer KG"/>
    <tag k="shop" v="car_repair"/>
  </node>
  <node id="798556226" version="2" timestamp="2010-07-28T20:11:44Z" uid="74617" user="JohnSmith" changeset="5339329" lat="52.2287977" lon="14.6402764">
    <tag k="emergency" v="fire_hydrant"/>
    <tag k="name" v="Hydrant"/>
  </node>
  <node id="798556226" version="3" timestamp="2010-07-30T17:49:13Z" uid="74617" user="JohnSmith" changeset="5356742" lat="52.2287977" lon="14.6402764">
    <tag k="amenity" v="fire_hydrant"/>
    <tag k="emergency" v="fire_hydrant"/>
    <tag k="name" v="Hydrant"/>
  </node>
  <node id="798559799" version="1" timestamp="2010-07-01T15:43:11Z" uid="115477" user="wowik" changeset="5121554" lat="57.186203" lon="37.5989734">
    <tag k="name" v="Шильково"/>
    <tag k="place" v="hamlet"/>
  </node>
  <node id="798559799" version="2" timestamp="2010-07-01T17:18:45Z" uid="115477" user="wowik" changeset="5122142" lat="57.1868826" lon="37.5989734">
    <tag k="name" v="Шильково"/>
    <tag k="place" v="hamlet"/>
  </node>
  <node id="798559799" version="3" timestamp="2010-07-21T13:27:52Z" uid="115477" user="wowik" changeset="5278940" lat="57.1858102" lon="37.5990129">
    <tag k="name" v="Шильково"/>
    <tag k="place" v="hamlet"/>
  </node>
  <node id="798559799" version="4" timestamp="2010-07-21T13:30:37Z" uid="115477" user="wowik" changeset="5278962" lat="57.1858103" lon="37.5990128">
    <tag k="alt_name" v="Шилково"/>
    <tag k="name" v="Шильково"/>
    <tag k="place" v="hamlet"/>
  </node>
  <node id="798559799" version="5" timestamp="2010-07-21T13:44:15Z" uid="115477" user="wowik" changeset="5278940" lat="57.1854614" lon="37.5992704">
    <tag k="alt_name" v="Шилково"/>
    <tag k="name" v="Шильково"/>
    <tag k="place" v="hamlet"/>
  </node>
  <node id="798559799" version="6" timestamp="2010-11-19T14:46:18Z" uid="115477" user="wowik" changeset="6407610" lat="57.1854615" lon="37.5992703">
    <tag k="alt_name" v="Шильково"/>
    <tag k="name" v="Шилково"/>
    <tag k="place" v="hamlet"/>
  </node>
  <node id="798559918" version="1" timestamp="2010-07-01T15:43:20Z" uid="115477" user="wowik" changeset="5121554" lat="57.1835702" lon="37.6429336">
    <tag k="name" v="Митино"/>
    <tag k="place" v="hamlet"/>
  </node>
  <node id="798559920" version="1" timestamp="2010-07-01T15:43:20Z" uid="115477" user="wowik" changeset="5121554" lat="57.1939718" lon="37.6603518">
    <tag k="name" v="Мехтенеево"/>
    <tag k="place" v="hamlet"/>
  </node>
  <node id="798559920" version="2" timestamp="2010-11-19T14:43:16Z" uid="115477" user="wowik" changeset="6407587" lat="57.1939718" lon="37.6603517">
    <tag k="name" v="Мехтенево"/>
    <tag k="place" v="hamlet"/>
  </node>
  <node id="798559922" version="1" timestamp="2010-07-01T15:43:20Z" uid="115477" user="wowik" changeset="5121554" lat="57.1865241" lon="37.6566786">
    <tag k="name" v="Колбасино"/>
    <tag k="place" v="hamlet"/>
  </node>
  <node id="798559922" version="2" timestamp="2010-07-01T17:26:42Z" uid="115477" user="wowik" changeset="5122152" lat="57.18669" lon="37.6573044">
    <tag k="name" v="Колбасино"/>
    <tag k="place" v="hamlet"/>
  </node>
  <node id="798559924" version="1" timestamp="2010-07-01T15:43:21Z" uid="115477" user="wowik" changeset="5121554" lat="57.2156644" lon="37.6578635">
    <tag k="name" v="Иваново"/>
    <tag k="place" v="locality"/>
  </node>
  <node id="798559927" version="1" timestamp="2010-07-01T15:43:21Z" uid="115477" user="wowik" changeset="5121554" lat="57.214702" lon="37.6187614">
    <tag k="name" v="Рождествено"/>
    <tag k="place" v="hamlet"/>
  </node>
  <node id="798559927" version="2" timestamp="2010-11-24T10:55:54Z" uid="115477" user="wowik" changeset="6445809" lat="57.214702" lon="37.6187614">
    <tag k="name" v="Рождественно"/>
    <tag k="place" v="hamlet"/>
  </node>
  <node id="798559930" version="1" timestamp="2010-07-01T15:43:21Z" uid="115477" user="wowik" changeset="5121554" lat="57.2044988" lon="37.6258709">
    <tag k="name" v="Рудлево"/>
    <tag k="place" v="hamlet"/>
  </node>
  <node id="798559930" version="2" timestamp="2010-07-01T17:26:42Z" uid="115477" user="wowik" changeset="5122152" lat="57.2040349" lon="37.6262766">
    <tag k="name" v="Рудлево"/>
    <tag k="place" v="hamlet"/>
  </node>
  <node id="798559932" version="1" timestamp="2010-07-01T15:43:21Z" uid="115477" user="wowik" changeset="5121554" lat="57.1951273" lon="37.6364166">
    <tag k="name" v="Вощилово"/>
    <tag k="place" v="hamlet"/>
  </node>
  <node id="798559932" version="2" timestamp="2010-07-01T17:31:05Z" uid="115477" user="wowik" changeset="5122230" lat="57.1951273" lon="37.6381593">
    <tag k="name" v="Вощилово"/>
    <tag k="place" v="hamlet"/>
  </node>
  <node id="798559936" version="1" timestamp="2010-07-01T15:43:21Z" uid="115477" user="wowik" changeset="5121554" lat="57.2036003" lon="37.6659209">
    <tag k="name" v="Лисицино"/>
    <tag k="place" v="hamlet"/>
  </node>
  <node id="798559936" version="2" timestamp="2010-07-21T13:56:07Z" uid="115477" user="wowik" changeset="5278962" lat="57.2036003" lon="37.6659209">
    <tag k="name" v="Лисицино"/>
    <tag k="place" v="locality"/>
  </node>
  <node id="798559937" version="1" timestamp="2010-07-01T15:43:21Z" uid="115477" user="wowik" changeset="5121554" lat="57.2286225" lon="37.6426966">
    <tag k="name" v="Бакшеево"/>
    <tag k="place" v="hamlet"/>
  </node>
  <node id="798559938" version="1" timestamp="2010-07-01T15:43:21Z" uid="115477" user="wowik" changeset="5121554" lat="57.2209893" lon="37.6492136">
    <tag k="name" v="Рахманово"/>
    <tag k="place" v="hamlet"/>
  </node>
  <node id="798559940" version="1" timestamp="2010-07-01T15:43:22Z" uid="115477" user="wowik" changeset="5121554" lat="57.2212203" lon="37.6581953">
    <tag k="name" v="Степаново"/>
    <tag k="place" v="hamlet"/>
  </node>
  <node id="798559940" version="2" timestamp="2011-02-01T15:12:04Z" uid="115477" user="wowik" changeset="7155609" lat="57.2212394" lon="37.6576649">
    <tag k="name" v="Степаново"/>
    <tag k="place" v="hamlet"/>
  </node>
  <node id="798559943" version="1" timestamp="2010-07-01T15:43:22Z" uid="115477" user="wowik" changeset="5121554" lat="57.2308673" lon="37.678244">
    <tag k="name" v="Спицино"/>
    <tag k="place" v="hamlet"/>
  </node>
  <node id="798559943" version="2" timestamp="2010-07-01T17:31:05Z" uid="115477" user="wowik" changeset="5122230" lat="57.2299538" lon="37.6813259">
    <tag k="name" v="Спицино"/>
    <tag k="place" v="hamlet"/>
  </node>
  <node id="798559948" version="1" timestamp="2010-07-01T15:43:22Z" uid="115477" user="wowik" changeset="5121554" lat="57.2695198" lon="37.6601859">
    <tag k="name" v="Илькино"/>
    <tag k="place" v="hamlet"/>
  </node>
  <node id="798559953" version="1" timestamp="2010-07-01T15:43:22Z" uid="115477" user="wowik" changeset="5121554" lat="57.2911808" lon="37.6291412">
    <tag k="name" v="Вотолино"/>
    <tag k="place" v="hamlet"/>
  </node>
  <node id="798559956" version="1" timestamp="2010-07-01T15:43:22Z" uid="115477" user="wowik" changeset="5121554" lat="57.267854" lon="37.6947853">
    <tag k="name" v="Келарево"/>
    <tag k="place" v="hamlet"/>
  </node>
  <node id="798559956" version="2" timestamp="2011-02-07T19:30:17Z" uid="115477" user="wowik" changeset="7219811" lat="57.2676295" lon="37.6947853">
    <tag k="name" v="Келарево"/>
    <tag k="place" v="hamlet"/>
  </node>
  <node id="798559965" version="1" timestamp="2010-07-01T15:43:23Z" uid="115477" user="wowik" changeset="5121554" lat="57.2725308" lon="37.6941929">
    <tag k="name" v="Ратчино"/>
    <tag k="place" v="hamlet"/>
  </node>
  <node id="798559965" version="2" timestamp="2011-02-07T19:26:38Z" uid="115477" user="wowik" changeset="7219765" lat="57.2725485" lon="37.694488">
    <tag k="name" v="Ратчино"/>
    <tag k="place" v="hamlet"/>
  </node>
  <node id="798559968" version="1" timestamp="2010-07-01T15:43:23Z" uid="115477" user="wowik" changeset="5121554" lat="57.2173325" lon="37.7095256">
    <tag k="name" v="Домажино"/>
    <tag k="place" v="hamlet"/>
  </node>
  <node id="798559968" version="2" timestamp="2011-02-07T18:41:34Z" uid="115477" user="wowik" changeset="7219205" lat="57.2179783" lon="37.7089901">
    <tag k="name" v="Домажино"/>
    <tag k="place" v="hamlet"/>
  </node>
  <node id="798559976" version="1" timestamp="2010-07-01T15:43:23Z" uid="115477" user="wowik" changeset="5121554" lat="57.2563837" lon="37.7137439">
    <tag k="name" v="Кочеватово"/>
    <tag k="place" v="hamlet"/>
  </node>
  <node id="798559978" version="1" timestamp="2010-07-01T15:43:24Z" uid="115477" user="wowik" changeset="5121554" lat="57.2704807" lon="37.7056865">
    <tag k="name" v="Горки"/>
    <tag k="place" v="hamlet"/>
  </node>
  <node id="798559980" version="1" timestamp="2010-07-01T15:43:24Z" uid="115477" user="wowik" changeset="5121554" lat="57.3096677" lon="37.5221437">
    <tag k="name" v="Бекетово"/>
    <tag k="place" v="hamlet"/>
  </node>
  <node id="798559980" version="2" timestamp="2011-02-01T15:12:03Z" uid="115477" user="wowik" changeset="7155609" lat="57.3096677" lon="37.5221437">
    <tag k="name" v="Бекетово"/>
    <tag k="place" v="locality"/>
  </node>
  <node id="798559982" version="1" timestamp="2010-07-01T15:43:24Z" uid="115477" user="wowik" changeset="5121554" lat="57.3135713" lon="37.5377846">
    <tag k="name" v="Головино"/>
    <tag k="place" v="hamlet"/>
  </node>
  <node id="798559982" version="2" timestamp="2010-07-01T17:31:05Z" uid="115477" user="wowik" changeset="5122230" lat="57.3142679" lon="37.5430874">
    <tag k="name" v="Головино"/>
    <tag k="place" v="hamlet"/>
  </node>
  <node id="798559982" version="3" timestamp="2011-02-01T15:12:02Z" uid="115477" user="wowik" changeset="7155609" lat="57.3142679" lon="37.5430874">
    <tag k="name" v="Головино"/>
    <tag k="place" v="locality"/>
  </node>
</osm>
