<?xml version='1.0' encoding='UTF-8'?>
<osm version="0.6" generator="libosmium/2.20.0">
  <node id="798502950" version="1" timestamp="2010-07-01T14:29:30Z" uid="49111" user="Markus B" changeset="5121061" lat="49.4501114" lon="11.0823388">
    <tag k="addr:city" v="Nürnberg"/>
    <tag k="addr:country" v="DE"/>
    <tag k="addr:housenumber" v="29"/>
    <tag k="addr:postcode" v="90403"/>
    <tag k="addr:street" v="Lorenzer Straße"/>
    <tag k="amenity" v="fast_food"/>
    <tag k="name" v="Red Curry House"/>
    <tag k="smoking" v="no"/>
    <tag k="smoking:outside" v="yes"/>
  </node>
  <node id="798502955" version="1" timestamp="2010-07-01T14:29:30Z" uid="49111" user="Markus B" changeset="5121061" lat="49.4501354" lon="11.0822473">
    <tag k="addr:city" v="Nürnberg"/>
    <tag k="addr:country" v="DE"/>
    <tag k="addr:housenumber" v="27"/>
    <tag k="addr:postcode" v="90403"/>
    <tag k="addr:street" v="Lorenzer Straße"/>
    <tag k="amenity" v="fast_food"/>
    <tag k="name" v="Souptopia"/>
    <tag k="smoking" v="no"/>
    <tag k="smoking:outside" v="yes"/>
  </node>
  <node id="798502959" version="1" timestamp="2010-07-01T14:29:30Z" uid="49111" user="Markus B" changeset="5121061" lat="49.450399" lon="11.0811728">
    <tag k="addr:city" v="Nürnberg"/>
    <tag k="addr:country" v="DE"/>
    <tag k="addr:housenumber" v="7"/>
    <tag k="addr:postcode" v="90402"/>
    <tag k="addr:street" v="Lorenzer Straße"/>
    <tag k="amenity" v="cafe"/>
    <tag k="cuisine" v="ice_cream"/>
    <tag k="name" v="piccola Venezia"/>
    <tag k="phone" v="+49-911-2401615"/>
    <tag k="smoking" v="no"/>
    <tag k="smoking:outside" v="yes"/>
  </node>
  <node id="798502959" version="2" timestamp="2010-07-01T14:35:30Z" uid="49111" user="Markus B" changeset="5121110" lat="49.450399" lon="11.0811728">
    <tag k="addr:city" v="Nürnberg"/>
    <tag k="addr:country" v="DE"/>
    <tag k="addr:housenumber" v="7"/>
    <tag k="addr:postcode" v="90402"/>
    <tag k="addr:street" v="Lorenzer Straße"/>
    <tag k="amenity" v="cafe"/>
    <tag k="cuisine" v="ice_cream"/>
    <tag k="name" v="piccola Venezia"/>
    <tag k="phone" v="+49-911-2373671"/>
    <tag k="smoking" v="no"/>
    <tag k="smoking:outside" v="yes"/>
  </node>
  <node id="798502963" version="1" timestamp="2010-07-01T14:29:31Z" uid="49111" user="Markus B" changeset="5121061" lat="49.4503656" lon="11.0813375">
    <tag k="addr:city" v="Nürnberg"/>
    <tag k="addr:country" v="DE"/>
    <tag k="addr:housenumber" v="11"/>
    <tag k="addr:postcode" v="90403"/>
    <tag k="addr:street" v="Lorenzer Straße"/>
    <tag k="amenity" v="fast_food"/>
    <tag k="cuisine" v="china"/>
    <tag k="name" v="WOK"/>
    <tag k="phone" v="+49-911-2401615"/>
    <tag k="smoking" v="no"/>
    <tag k="smoking:outside" v="yes"/>
  </node>
  <node id="798502969" version="1" timestamp="2010-07-01T14:29:31Z" uid="49111" user="Markus B" changeset="5121061" lat="49.4502374" lon="11.0818501">
    <tag k="addr:city" v="Nürnberg"/>
    <tag k="addr:country" v="DE"/>
    <tag k="addr:housenumber" v="19"/>
    <tag k="addr:postcode" v="90403"/>
    <tag k="addr:street" v="Lorenzer Straße"/>
    <tag k="amenity" v="fast_food"/>
    <tag k="name" v="Pizza Pasta"/>
    <tag k="smoking" v="no"/>
    <tag k="smoking:outside" v="yes"/>
  </node>
  <node id="798502975" version="1" timestamp="2010-07-01T14:29:31Z" uid="49111" user="Markus B" changeset="5121061" lat="49.4502096" lon="11.0819631">
    <tag k="name" v="Feihl"/>
    <tag k="shop" v="bakery"/>
  </node>
  <node id="798502978" version="1" timestamp="2010-07-01T14:29:31Z" uid="49111" user="Markus B" changeset="5121061" lat="49.4501856" lon="11.082057">
    <tag k="addr:city" v="Nürnberg"/>
    <tag k="addr:country" v="DE"/>
    <tag k="addr:housenumber" v="23"/>
    <tag k="addr:postcode" v="90403"/>
    <tag k="addr:street" v="Lorenzer Straße"/>
    <tag k="amenity" v="fast_food"/>
    <tag k="name" v="Lunch Box"/>
    <tag k="smoking" v="no"/>
    <tag k="smoking:outside" v="yes"/>
  </node>
  <node id="798502984" version="1" timestamp="2010-07-01T14:29:31Z" uid="49111" user="Markus B" changeset="5121061" lat="49.4501593" lon="11.0821569">
    <tag k="addr:city" v="Nürnberg"/>
    <tag k="addr:country" v="DE"/>
    <tag k="addr:housenumber" v="25"/>
    <tag k="addr:postcode" v="90403"/>
    <tag k="addr:street" v="Lorenzer Straße"/>
    <tag k="amenity" v="fast_food"/>
    <tag k="cuisine" v="turkish"/>
    <tag k="name" v="Filiz"/>
    <tag k="phone" v="+49-911-2449985"/>
    <tag k="smoking" v="no"/>
    <tag k="smoking:outside" v="yes"/>
  </node>
  <node id="798502992" version="1" timestamp="2010-07-01T14:29:31Z" uid="49111" user="Markus B" changeset="5121061" lat="49.4500503" lon="11.0825588">
    <tag k="addr:city" v="Nürnberg"/>
    <tag k="addr:country" v="DE"/>
    <tag k="addr:housenumber" v="31"/>
    <tag k="addr:postcode" v="90403"/>
    <tag k="addr:street" v="Lorenzer Straße"/>
    <tag k="name" v="Teeladen"/>
    <tag k="shop" v="tee"/>
  </node>
</osm>
