<?xml version='1.0' encoding='UTF-8'?>
<osm version="0.6" generator="libosmium/2.20.0">
  <node id="798797054" version="1" timestamp="2010-07-01T19:46:01Z" uid="49111" user="Markus B" changeset="5123185" lat="49.4521878" lon="11.072246">
    <tag k="addr:city" v="Nürnberg"/>
    <tag k="addr:country" v="DE"/>
    <tag k="addr:housenumber" v="1-3"/>
    <tag k="addr:postcode" v="90403"/>
    <tag k="addr:street" v="Mühlgasse"/>
    <tag k="amenity" v="restaurant"/>
    <tag k="cuisine" v="mexican"/>
    <tag k="name" v="El Pancho"/>
    <tag k="opening_hours" v="18:00-24:00"/>
    <tag k="phone" v="+49-911-2448414"/>
    <tag k="smoking" v="no"/>
    <tag k="smoking:outside" v="yes"/>
    <tag k="website" v="http://el-pancho.info"/>
  </node>
  <node id="798797055" version="1" timestamp="2010-07-01T19:46:01Z" uid="49111" user="Markus B" changeset="5123185" lat="49.4523333" lon="11.0743236"/>
  <node id="798797056" version="1" timestamp="2010-07-01T19:46:01Z" uid="49111" user="Markus B" changeset="5123185" lat="49.4523378" lon="11.0743027">
    <tag k="addr:city" v="Nürnberg"/>
    <tag k="addr:country" v="DE"/>
    <tag k="addr:housenumber" v="2"/>
    <tag k="addr:postcode" v="90403"/>
    <tag k="addr:street" v="Obere Wörthstraße"/>
    <tag k="amenity" v="restaurant"/>
    <tag k="name" v="Das Karl&apos;s Brückla"/>
    <tag k="opening_hours" v="Mo-Do 11:30-22:00; Fr-Sa 11:30+"/>
    <tag k="phone" v="+49 -911-2373171"/>
    <tag k="smoking" v="yes"/>
    <tag k="website" v="http://karlsbrückla.de"/>
  </node>
  <node id="798797056" version="2" timestamp="2010-09-30T20:47:16Z" uid="49111" user="Markus B" changeset="5923459" lat="49.4523378" lon="11.0743027">
    <tag k="addr:city" v="Nürnberg"/>
    <tag k="addr:country" v="DE"/>
    <tag k="addr:housenumber" v="2"/>
    <tag k="addr:postcode" v="90403"/>
    <tag k="addr:street" v="Obere Wörthstraße"/>
    <tag k="amenity" v="restaurant"/>
    <tag k="cuisine" v="Fränkisch"/>
    <tag k="name" v="Das Karl&apos;s Brückla"/>
    <tag k="opening_hours" v="Mo-Do 11:30-22:00; Fr-Sa 11:30+"/>
    <tag k="phone" v="+49  911 2373171"/>
    <tag k="smoking" v="no"/>
    <tag k="website" v="http://karlsbrückla.de"/>
  </node>
  <node id="798797057" version="1" timestamp="2010-07-01T19:46:01Z" uid="49111" user="Markus B" changeset="5123185" lat="49.4521619" lon="11.0809016">
    <tag k="addr:city" v="Nürnberg"/>
    <tag k="addr:country" v="DE"/>
    <tag k="addr:housenumber" v="12"/>
    <tag k="addr:postcode" v="90402"/>
    <tag k="addr:street" v="Unterer Bergauer Platz"/>
    <tag k="amenity" v="restaurant"/>
    <tag k="name" v="Zum Föößla"/>
    <tag k="opening:hours" v="Di-So 17:00-23:00; Mo off"/>
    <tag k="phone" v="+49 -911-227495"/>
    <tag k="smoking" v="no"/>
    <tag k="smoking:outside" v="yes"/>
  </node>
  <node id="798797349" version="1" timestamp="2010-07-01T19:47:33Z" uid="6269" user="Mueck" changeset="5123151" lat="49.1462013" lon="8.486931"/>
  <node id="798797350" version="1" timestamp="2010-07-01T19:47:33Z" uid="6269" user="Mueck" changeset="5123151" lat="49.1463417" lon="8.4868773"/>
  <node id="798797351" version="1" timestamp="2010-07-01T19:47:34Z" uid="6269" user="Mueck" changeset="5123151" lat="49.1493874" lon="8.4876927"/>
  <node id="798797351" version="2" timestamp="2010-07-11T23:09:12Z" uid="6269" user="Mueck" changeset="5194970" lat="49.1493874" lon="8.4876927"/>
  <node id="798797352" version="1" timestamp="2010-07-01T19:47:34Z" uid="6269" user="Mueck" changeset="5123151" lat="49.1496962" lon="8.4877785"/>
  <node id="798797352" version="2" timestamp="2010-07-11T23:09:22Z" uid="6269" user="Mueck" changeset="5194970" lat="49.1496819" lon="8.487743"/>
  <node id="798797353" version="1" timestamp="2010-07-01T19:47:34Z" uid="6269" user="Mueck" changeset="5123151" lat="49.1529101" lon="8.4886261"/>
  <node id="798797353" version="2" timestamp="2010-07-11T23:10:25Z" uid="6269" user="Mueck" changeset="5194970" lat="49.1529134" lon="8.4885906"/>
  <node id="798797354" version="1" timestamp="2010-07-01T19:47:34Z" uid="6269" user="Mueck" changeset="5123151" lat="49.1533732" lon="8.4887763"/>
  <node id="798797354" version="2" timestamp="2010-07-01T19:48:32Z" uid="6269" user="Mueck" changeset="5123151" lat="49.1533732" lon="8.4887763">
    <tag k="FIXME" v="continue"/>
  </node>
  <node id="798797354" version="3" timestamp="2010-07-11T21:26:12Z" uid="6269" user="Mueck" changeset="5194343" lat="49.1533732" lon="8.4887763"/>
  <node id="798797354" version="4" timestamp="2010-07-11T23:10:25Z" uid="6269" user="Mueck" changeset="5194970" lat="49.1533905" lon="8.4887247"/>
  <node id="798797600" version="1" timestamp="2010-07-01T19:48:53Z" uid="6269" user="Mueck" changeset="5123151" lat="49.1592321" lon="8.4891733"/>
</osm>
