<?xml version='1.0' encoding='UTF-8'?>
<osm version="0.6" generator="libosmium/2.20.0">
  <node id="798819832" version="1" timestamp="2010-07-01T20:39:29Z" uid="49111" user="Markus B" changeset="5123579" lat="49.4514695" lon="11.0726382">
    <tag k="addr:city" v="Nürnberg"/>
    <tag k="addr:country" v="DE"/>
    <tag k="addr:housenumber" v="24"/>
    <tag k="addr:postcode" v="90403"/>
    <tag k="addr:street" v="Josephsplatz"/>
    <tag k="amenity" v="pharmacy"/>
    <tag k="dispensing" v="Central-Apotheke"/>
    <tag k="phone" v="+49 -911-224732"/>
  </node>
  <node id="798819833" version="1" timestamp="2010-07-01T20:39:29Z" uid="49111" user="Markus B" changeset="5123579" lat="49.4514873" lon="11.0727364">
    <tag k="addr:city" v="Nürnberg"/>
    <tag k="addr:country" v="DE"/>
    <tag k="addr:housenumber" v="22"/>
    <tag k="addr:postcode" v="90403"/>
    <tag k="addr:street" v="Josephsplatz"/>
    <tag k="amenity" v="fast_food"/>
    <tag k="cuisine" v="asian"/>
    <tag k="name" v="My Hao"/>
    <tag k="opening_hours" v="Mo-Fr 11:00-20:30; Sa 11:00-18:00"/>
    <tag k="phone" v="+49 -911-9928789"/>
  </node>
  <node id="798819833" version="2" timestamp="2010-07-03T19:01:35Z" uid="49111" user="Markus B" changeset="5127130" lat="49.4514873" lon="11.0727364">
    <tag k="addr:city" v="Nürnberg"/>
    <tag k="addr:country" v="DE"/>
    <tag k="addr:housenumber" v="22"/>
    <tag k="addr:postcode" v="90403"/>
    <tag k="addr:street" v="Josephsplatz"/>
    <tag k="amenity" v="fast_food"/>
    <tag k="cuisine" v="asian"/>
    <tag k="name" v="My Hao"/>
    <tag k="opening_hours" v="Mo-Fr 11:00-20:30; Sa 11:00-18:00"/>
    <tag k="phone" v="+49 -911-9928789"/>
    <tag k="smoking" v="no"/>
  </node>
  <node id="798819834" version="1" timestamp="2010-07-01T20:39:30Z" uid="49111" user="Markus B" changeset="5123579" lat="49.4526762" lon="11.0705971">
    <tag k="addr:city" v="Nürnberg"/>
    <tag k="addr:country" v="DE"/>
    <tag k="addr:housenumber" v="15"/>
    <tag k="addr:postcode" v="90420"/>
    <tag k="addr:street" v="Obere Kreuzgasse"/>
    <tag k="amenity" v="pub"/>
    <tag k="name" v="Bistro V8"/>
    <tag k="smoking" v="yes"/>
  </node>
  <node id="798819834" version="2" timestamp="2010-09-30T20:47:02Z" uid="49111" user="Markus B" changeset="5923459" lat="49.4526762" lon="11.0705971">
    <tag k="addr:city" v="Nürnberg"/>
    <tag k="addr:country" v="DE"/>
    <tag k="addr:housenumber" v="15"/>
    <tag k="addr:postcode" v="90420"/>
    <tag k="addr:street" v="Obere Kreuzgasse"/>
    <tag k="amenity" v="pub"/>
    <tag k="name" v="Bistro V8"/>
    <tag k="smoking" v="no"/>
  </node>
  <node id="798819835" version="1" timestamp="2010-07-01T20:39:30Z" uid="49111" user="Markus B" changeset="5123579" lat="49.4526549" lon="11.0724231"/>
  <node id="798819836" version="1" timestamp="2010-07-01T20:39:30Z" uid="49111" user="Markus B" changeset="5123579" lat="49.4526934" lon="11.0723415"/>
  <node id="798819837" version="1" timestamp="2010-07-01T20:39:30Z" uid="49111" user="Markus B" changeset="5123579" lat="49.4527044" lon="11.0724784"/>
  <node id="798819838" version="1" timestamp="2010-07-01T20:39:30Z" uid="49111" user="Markus B" changeset="5123579" lat="49.452743" lon="11.0723969"/>
  <node id="798819839" version="1" timestamp="2010-07-01T20:39:30Z" uid="49111" user="Markus B" changeset="5123579" lat="49.4523972" lon="11.0737177">
    <tag k="addr:city" v="Nürnberg"/>
    <tag k="addr:country" v="DE"/>
    <tag k="addr:housenumber" v="10"/>
    <tag k="addr:postcode" v="90403"/>
    <tag k="addr:street" v="Obere Wörthstraße"/>
    <tag k="amenity" v="cafe"/>
    <tag k="name" v="Violetta"/>
    <tag k="phone" v="+49 -911-23555599"/>
  </node>
  <node id="798819839" version="2" timestamp="2010-07-03T19:01:36Z" uid="49111" user="Markus B" changeset="5127130" lat="49.4523972" lon="11.0737177">
    <tag k="addr:city" v="Nürnberg"/>
    <tag k="addr:country" v="DE"/>
    <tag k="addr:housenumber" v="10"/>
    <tag k="addr:postcode" v="90403"/>
    <tag k="addr:street" v="Obere Wörthstraße"/>
    <tag k="amenity" v="cafe"/>
    <tag k="name" v="Violetta"/>
    <tag k="phone" v="+49 -911-23555599"/>
    <tag k="smoking" v="no"/>
    <tag k="smoking:outside" v="yes"/>
  </node>
  <node id="798819841" version="1" timestamp="2010-07-01T20:39:30Z" uid="49111" user="Markus B" changeset="5123579" lat="49.4523938" lon="11.0738046">
    <tag k="name" v="Blumenbinderei"/>
    <tag k="shop" v="florist"/>
  </node>
  <node id="798819842" version="1" timestamp="2010-07-01T20:39:30Z" uid="49111" user="Markus B" changeset="5123579" lat="49.4524674" lon="11.0737546">
    <tag k="addr:city" v="Nürnberg"/>
    <tag k="addr:country" v="DE"/>
    <tag k="addr:housenumber" v="7"/>
    <tag k="addr:postcode" v="90403"/>
    <tag k="addr:street" v="Untere Wörthstraße"/>
    <tag k="amenity" v="bar"/>
    <tag k="name" v="Die unauffindBAR"/>
    <tag k="phone" v="+49 -911-9329060"/>
  </node>
  <node id="798819842" version="2" timestamp="2010-07-03T19:01:36Z" uid="49111" user="Markus B" changeset="5127130" lat="49.4524674" lon="11.0737546">
    <tag k="addr:city" v="Nürnberg"/>
    <tag k="addr:country" v="DE"/>
    <tag k="addr:housenumber" v="7"/>
    <tag k="addr:postcode" v="90403"/>
    <tag k="addr:street" v="Untere Wörthstraße"/>
    <tag k="amenity" v="bar"/>
    <tag k="name" v="Die unauffindBAR"/>
    <tag k="phone" v="+49 -911-9329060"/>
    <tag k="smoking" v="yes"/>
  </node>
  <node id="798819843" version="1" timestamp="2010-07-01T20:39:30Z" uid="49111" user="Markus B" changeset="5123579" lat="49.452751" lon="11.0735934"/>
  <node id="798819844" version="1" timestamp="2010-07-01T20:39:30Z" uid="49111" user="Markus B" changeset="5123579" lat="49.4527277" lon="11.0736892"/>
  <node id="798819845" version="1" timestamp="2010-07-01T20:39:30Z" uid="49111" user="Markus B" changeset="5123579" lat="49.4527501" lon="11.073702"/>
  <node id="798819846" version="1" timestamp="2010-07-01T20:39:30Z" uid="49111" user="Markus B" changeset="5123579" lat="49.4527734" lon="11.0736062"/>
  <node id="798819847" version="1" timestamp="2010-07-01T20:39:30Z" uid="49111" user="Markus B" changeset="5123579" lat="49.4524259" lon="11.0743722"/>
  <node id="798819848" version="1" timestamp="2010-07-01T20:39:30Z" uid="49111" user="Markus B" changeset="5123579" lat="49.4523102" lon="11.0747885">
    <tag k="addr:city" v="Nürnberg"/>
    <tag k="addr:country" v="DE"/>
    <tag k="addr:housenumber" v="32"/>
    <tag k="addr:postcode" v="90403"/>
    <tag k="addr:street" v="Kaiserstraße"/>
    <tag k="amenity" v="cafe"/>
    <tag k="internet_access" v="wlan"/>
    <tag k="name" v="FIORENTINO"/>
    <tag k="opening:hours" v="Mo-Sa 0900-21:00"/>
    <tag k="phone" v="+49 -911-2388512"/>
  </node>
  <node id="798819848" version="3" timestamp="2010-09-30T20:47:07Z" uid="49111" user="Markus B" changeset="5923459" lat="49.4523102" lon="11.0747885">
    <tag k="addr:city" v="Nürnberg"/>
    <tag k="addr:country" v="DE"/>
    <tag k="addr:housenumber" v="32"/>
    <tag k="addr:postcode" v="90403"/>
    <tag k="addr:street" v="Kaiserstraße"/>
    <tag k="amenity" v="cafe"/>
    <tag k="internet_access" v="wlan"/>
    <tag k="name" v="FIORENTINO"/>
    <tag k="opening_hours" v="Mo-Sa 09:00-21:00"/>
    <tag k="phone" v="+49  911 2388512"/>
  </node>
  <node id="798819849" version="1" timestamp="2010-07-01T20:39:30Z" uid="49111" user="Markus B" changeset="5123579" lat="49.4523041" lon="11.0755062"/>
  <node id="798819850" version="1" timestamp="2010-07-01T20:39:31Z" uid="49111" user="Markus B" changeset="5123579" lat="49.4523295" lon="11.0754351">
    <tag k="addr:city" v="Nürnberg"/>
    <tag k="addr:country" v="DE"/>
    <tag k="addr:housenumber" v="22"/>
    <tag k="addr:postcode" v="90403"/>
    <tag k="addr:street" v="Kaiserstraße"/>
    <tag k="amenity" v="restaurant"/>
    <tag k="name" v="Lucas"/>
    <tag k="phone" v="+49 -911-227845"/>
    <tag k="smoking" v="no"/>
    <tag k="smoking:outside" v="yes"/>
    <tag k="website" v="http://cafe-lucas.de"/>
  </node>
  <node id="798819851" version="1" timestamp="2010-07-01T20:39:31Z" uid="49111" user="Markus B" changeset="5123579" lat="49.4524414" lon="11.075504"/>
  <node id="798819852" version="1" timestamp="2010-07-01T20:39:31Z" uid="49111" user="Markus B" changeset="5123579" lat="49.4523051" lon="11.0757051"/>
  <node id="798819853" version="1" timestamp="2010-07-01T20:39:31Z" uid="49111" user="Markus B" changeset="5123579" lat="49.4524794" lon="11.0757083"/>
</osm>
