<?xml version='1.0' encoding='UTF-8'?>
<osm version="0.6" generator="libosmium/2.20.0">
  <node id="800886834" version="2" timestamp="2010-12-19T21:41:34Z" uid="6269" user="Mueck" changeset="6711092" lat="53.4890519" lon="8.5973928">
    <tag k="shop" v="yes"/>
  </node>
  <node id="800886840" version="2" timestamp="2010-12-19T21:40:55Z" uid="6269" user="Mueck" changeset="6711092" lat="53.4892456" lon="8.5989474">
    <tag k="name" v="Dänisches Bettenlager"/>
    <tag k="shop" v="furniture"/>
  </node>
  <node id="800886846" version="2" timestamp="2010-12-19T21:40:56Z" uid="6269" user="Mueck" changeset="6711092" lat="53.4889102" lon="8.597263">
    <tag k="name" v="Deichmann"/>
    <tag k="shop" v="shoes"/>
  </node>
  <node id="800886851" version="2" timestamp="2010-12-19T21:40:55Z" uid="6269" user="Mueck" changeset="6711092" lat="53.4890835" lon="8.5983868">
    <tag k="name" v="Benning"/>
    <tag k="shop" v="electronics"/>
  </node>
  <node id="800886855" version="2" timestamp="2010-12-19T21:41:34Z" uid="6269" user="Mueck" changeset="6711092" lat="53.489007" lon="8.5972759">
    <tag k="shop" v="yes"/>
  </node>
  <node id="800886858" version="2" timestamp="2010-12-19T21:40:55Z" uid="6269" user="Mueck" changeset="6711092" lat="53.4888757" lon="8.5969169">
    <tag k="name" v="Orion"/>
    <tag k="note" v="Sexartikel"/>
    <tag k="shop" v="chemist"/>
  </node>
  <node id="800886864" version="2" timestamp="2010-12-19T21:41:01Z" uid="6269" user="Mueck" changeset="6711092" lat="53.4892341" lon="8.5994602">
    <tag k="name" v="Philip Thomas"/>
    <tag k="shop" v="hardware"/>
  </node>
  <node id="800886895" version="3" timestamp="2010-12-19T21:40:59Z" uid="6269" user="Mueck" changeset="6711092" lat="53.4902306" lon="8.5978166">
    <tag k="name" v="Decatlon"/>
    <tag k="shop" v="sports"/>
  </node>
  <node id="800886901" version="2" timestamp="2010-12-19T21:40:49Z" uid="6269" user="Mueck" changeset="6711092" lat="53.4891585" lon="8.5989592">
    <tag k="name" v="Möbel Jänicken"/>
    <tag k="shop" v="furniture"/>
  </node>
</osm>
