<?xml version='1.0' encoding='UTF-8'?>
<osm version="0.6" generator="libosmium/2.20.0">
  <node id="802412737" version="2" timestamp="2010-10-15T17:41:21Z" uid="9581" user="Lobelt" changeset="6050974" lat="49.4457054" lon="9.3362727"/>
  <node id="802412879" version="2" timestamp="2010-10-15T17:41:34Z" uid="9581" user="Lobelt" changeset="6050974" lat="49.4511873" lon="9.3345877"/>
  <node id="802412980" version="2" timestamp="2010-10-15T17:41:19Z" uid="9581" user="Lobelt" changeset="6050974" lat="49.4494448" lon="9.333494"/>
  <node id="802412983" version="2" timestamp="2010-10-15T17:41:21Z" uid="9581" user="Lobelt" changeset="6050974" lat="49.4489944" lon="9.3337357"/>
  <node id="802413013" version="2" timestamp="2010-10-15T17:41:21Z" uid="9581" user="Lobelt" changeset="6050974" lat="49.4493605" lon="9.334437"/>
  <node id="802413015" version="2" timestamp="2010-10-15T17:41:19Z" uid="9581" user="Lobelt" changeset="6050974" lat="49.4492649" lon="9.3346106"/>
  <node id="802413017" version="2" timestamp="2010-10-15T17:41:35Z" uid="9581" user="Lobelt" changeset="6050974" lat="49.4485267" lon="9.335164"/>
  <node id="802413019" version="2" timestamp="2010-10-15T17:41:25Z" uid="9581" user="Lobelt" changeset="6050974" lat="49.4483479" lon="9.3353488"/>
  <node id="802413028" version="2" timestamp="2010-10-15T17:41:35Z" uid="9581" user="Lobelt" changeset="6050974" lat="49.4491475" lon="9.3342413"/>
  <node id="802413082" version="2" timestamp="2010-10-15T17:41:22Z" uid="9581" user="Lobelt" changeset="6050974" lat="49.4480355" lon="9.3354626"/>
  <node id="802416162" version="4" timestamp="2010-07-14T18:13:36Z" uid="107674" user="GeoCounter" changeset="5220225" lat="51.467449" lon="6.9464742">
    <tag k="addr:city" v="Essen"/>
    <tag k="addr:postcode" v="45355"/>
    <tag k="addr:street" v="An St. Immakulata"/>
    <tag k="amenity" v="place_of_worship"/>
    <tag k="contact:website" v="http://www.cvjm-emotion.de"/>
    <tag k="denomination" v="evangelical"/>
    <tag k="name" v="St. Immakulata"/>
    <tag k="operator" v="CVJM e/motion e.V."/>
    <tag k="religion" v="christian"/>
    <tag k="service_times" v="Su 17:30+"/>
  </node>
  <node id="802416162" version="5" timestamp="2010-08-23T22:30:22Z" uid="107674" user="GeoCounter" changeset="5575994" lat="51.467449" lon="6.9464742">
    <tag k="addr:city" v="Essen"/>
    <tag k="addr:postcode" v="45355"/>
    <tag k="addr:street" v="An St. Immakulata"/>
    <tag k="amenity" v="place_of_worship"/>
    <tag k="contact:website" v="http://www.cvjm-emotion.de"/>
    <tag k="denomination" v="evangelical"/>
    <tag k="name" v="St. Immakulata"/>
    <tag k="operator" v="CVJM e/motion e.V."/>
    <tag k="religion" v="christian"/>
    <tag k="service_times" v="Su 17:30+"/>
  </node>
</osm>
