<?xml version='1.0' encoding='UTF-8'?>
<osm version="0.6" generator="libosmium/2.20.0">
  <node id="804081590" version="1" timestamp="2010-07-06T18:10:08Z" uid="107674" user="GeoCounter" changeset="5152764" lat="50.0492819" lon="8.7841738"/>
  <node id="804081594" version="1" timestamp="2010-07-06T18:10:09Z" uid="107674" user="GeoCounter" changeset="5152764" lat="50.0522578" lon="8.7914304"/>
  <node id="804081594" version="2" timestamp="2011-06-19T13:41:25Z" uid="107674" user="GeoCounter" changeset="8484127" lat="50.0522272" lon="8.7912974"/>
  <node id="804081597" version="1" timestamp="2010-07-06T18:10:09Z" uid="107674" user="GeoCounter" changeset="5152764" lat="50.0488179" lon="8.7848381"/>
  <node id="804081609" version="1" timestamp="2010-07-06T18:10:09Z" uid="107674" user="GeoCounter" changeset="5152764" lat="50.0592564" lon="8.8053808">
    <tag k="name" v="Bauder"/>
    <tag k="shop" v="bakery"/>
  </node>
  <node id="804081613" version="1" timestamp="2010-07-06T18:10:10Z" uid="107674" user="GeoCounter" changeset="5152764" lat="50.0487515" lon="8.784437"/>
  <node id="804081615" version="1" timestamp="2010-07-06T18:10:10Z" uid="107674" user="GeoCounter" changeset="5152764" lat="50.0594629" lon="8.8070689">
    <tag k="amenity" v="cafe"/>
    <tag k="name" v="Bauder"/>
  </node>
  <node id="804081615" version="2" timestamp="2010-11-14T01:19:39Z" uid="107674" user="GeoCounter" changeset="6363427" lat="50.0594629" lon="8.8070689">
    <tag k="amenity" v="cafe"/>
    <tag k="name" v="Bauder"/>
    <tag k="shop" v="bakery"/>
  </node>
  <node id="804081615" version="3" timestamp="2010-12-05T00:21:03Z" uid="107674" user="GeoCounter" changeset="6545840" lat="50.0594737" lon="8.8070098">
    <tag k="amenity" v="cafe"/>
    <tag k="name" v="Bauder"/>
    <tag k="shop" v="bakery"/>
  </node>
  <node id="804081616" version="1" timestamp="2010-07-06T18:10:10Z" uid="107674" user="GeoCounter" changeset="5152764" lat="50.0589548" lon="8.8040452">
    <tag k="name" v="Fahrrad Ott"/>
    <tag k="shop" v="bicycle"/>
  </node>
  <node id="804081616" version="2" timestamp="2010-07-09T15:28:36Z" uid="107674" user="GeoCounter" changeset="5174474" lat="50.0589548" lon="8.8040452">
    <tag k="addr:city" v="Heusenstamm"/>
    <tag k="addr:country" v="DE"/>
    <tag k="addr:housenumber" v="50"/>
    <tag k="addr:postcode" v="63150"/>
    <tag k="addr:street" v="Frankfurter Straße"/>
    <tag k="contact:phone" v="+49 6104 61891"/>
    <tag k="contact:website" v="http://www.fahrrad-ott.de/"/>
    <tag k="name" v="Fahrrad Ott"/>
    <tag k="opening_hours" v="Mo-Fr 09:00-12:30,14:30-18:30; Sa 09:00-13:00"/>
    <tag k="shop" v="bicycle"/>
  </node>
  <node id="804081616" version="3" timestamp="2010-12-10T18:56:04Z" uid="107674" user="GeoCounter" changeset="6608397" lat="50.0588393" lon="8.8041851">
    <tag k="addr:city" v="Heusenstamm"/>
    <tag k="addr:country" v="DE"/>
    <tag k="addr:housenumber" v="50"/>
    <tag k="addr:postcode" v="63150"/>
    <tag k="addr:street" v="Frankfurter Straße"/>
    <tag k="contact:phone" v="+49 6104 61891"/>
    <tag k="contact:website" v="http://www.fahrrad-ott.de/"/>
    <tag k="name" v="Fahrrad Ott"/>
    <tag k="opening_hours" v="Mo-Fr 09:00-12:30,14:30-18:30; Sa 09:00-13:00"/>
    <tag k="shop" v="bicycle"/>
  </node>
  <node id="804081619" version="1" timestamp="2010-07-06T18:10:10Z" uid="107674" user="GeoCounter" changeset="5152764" lat="50.0525165" lon="8.7911421">
    <tag k="barrier" v="cycle_barrier"/>
  </node>
  <node id="804081619" version="2" timestamp="2011-06-19T13:41:25Z" uid="107674" user="GeoCounter" changeset="8484127" lat="50.0525123" lon="8.7911305">
    <tag k="barrier" v="cycle_barrier"/>
  </node>
  <node id="804081623" version="1" timestamp="2010-07-06T18:10:11Z" uid="107674" user="GeoCounter" changeset="5152764" lat="50.0487743" lon="8.7844257">
    <tag k="barrier" v="bollard"/>
    <tag k="bicycle" v="yes"/>
    <tag k="foot" v="yes"/>
  </node>
  <node id="804081628" version="1" timestamp="2010-07-06T18:10:11Z" uid="107674" user="GeoCounter" changeset="5152764" lat="50.0487051" lon="8.7841377"/>
  <node id="804081633" version="1" timestamp="2010-07-06T18:10:11Z" uid="107674" user="GeoCounter" changeset="5152764" lat="50.0521531" lon="8.7879673">
    <tag k="leisure" v="playground"/>
  </node>
  <node id="804081643" version="1" timestamp="2010-07-06T18:10:11Z" uid="107674" user="GeoCounter" changeset="5152764" lat="50.0522898" lon="8.7913947">
    <tag k="barrier" v="cycle_barrier"/>
  </node>
  <node id="804081643" version="2" timestamp="2011-06-19T13:41:25Z" uid="107674" user="GeoCounter" changeset="8484127" lat="50.0522844" lon="8.7912639">
    <tag k="barrier" v="cycle_barrier"/>
  </node>
  <node id="804082271" version="1" timestamp="2010-07-06T18:10:36Z" uid="33382" user="de_muur" changeset="5152767" lat="53.576356" lon="10.5683908">
    <tag k="direction_northeast" v="Trittau 12km; Schretstaken 2.0km; Mölln 10km; Breitenfelde 5.8km"/>
    <tag k="direction_southwest" v="Elbe-Lübeck-Kanal 8.5km; Wotersen 6.0km; Schwarzenbek 10km; Elmenhorst 4.5km"/>
    <tag k="information" v="guidepost"/>
    <tag k="network" v="lcn"/>
    <tag k="operator" v="Kreis Herzogtum Lauenburg"/>
    <tag k="route" v="bicycle"/>
    <tag k="tourism" v="information"/>
  </node>
  <node id="804082274" version="1" timestamp="2010-07-06T18:10:37Z" uid="33382" user="de_muur" changeset="5152767" lat="53.5769481" lon="10.5684699">
    <tag k="direction_northeast" v="Mölln 10km; Breitenfelde 5.8km"/>
    <tag k="direction_southwest" v="Elbe-Lübeck-Kanal 8.5km; Wotersen 6.0km; Schwarzenbek 10km; Elmenhorst 4.5km"/>
    <tag k="direction_west" v="Trittau 12km; Schretstaken 2.0km"/>
    <tag k="information" v="guidepost"/>
    <tag k="network" v="lcn"/>
    <tag k="operator" v="Kreis Herzogtum Lauenburg"/>
    <tag k="route" v="bicycle"/>
    <tag k="tourism" v="information"/>
  </node>
  <node id="804083786" version="5" timestamp="2011-03-15T02:01:40Z" uid="66036" user="h4v" changeset="7562862" lat="51.8570771" lon="19.390623"/>
</osm>
