<?xml version='1.0' encoding='UTF-8'?>
<osm version="0.6" generator="libosmium/2.20.0">
  <node id="813677059" version="1" timestamp="2010-07-12T16:41:36Z" uid="115477" user="wowik" changeset="5200555" lat="57.2545019" lon="37.2886636">
    <tag k="name" v="Антюшино"/>
    <tag k="place" v="hamlet"/>
  </node>
  <node id="813677072" version="1" timestamp="2010-07-12T16:41:37Z" uid="115477" user="wowik" changeset="5200555" lat="57.26344" lon="37.2969267">
    <tag k="name" v="Ордынка"/>
    <tag k="place" v="hamlet"/>
  </node>
  <node id="813677077" version="1" timestamp="2010-07-12T16:41:37Z" uid="115477" user="wowik" changeset="5200555" lat="57.2643612" lon="37.4466851">
    <tag k="name" v="Лапшино"/>
    <tag k="place" v="hamlet"/>
  </node>
  <node id="813677077" version="2" timestamp="2010-07-19T16:11:19Z" uid="115477" user="wowik" changeset="5262509" lat="57.2643428" lon="37.4456634">
    <tag k="name" v="Лапшино"/>
    <tag k="place" v="hamlet"/>
  </node>
  <node id="813677082" version="1" timestamp="2010-07-12T16:41:37Z" uid="115477" user="wowik" changeset="5200555" lat="57.2925801" lon="37.0709637">
    <tag k="name" v="Калицино"/>
    <tag k="place" v="locality"/>
  </node>
  <node id="813677082" version="2" timestamp="2011-01-14T17:02:32Z" uid="115477" user="wowik" changeset="6969037" lat="57.2925801" lon="37.0709637">
    <tag k="name" v="Калицино"/>
    <tag k="place" v="hamlet"/>
  </node>
  <node id="813677082" version="3" timestamp="2011-01-26T16:45:24Z" uid="115477" user="wowik" changeset="7095143" lat="57.2925801" lon="37.0709637">
    <tag k="alt_name" v="Калицино"/>
    <tag k="name" v="Калицыно"/>
    <tag k="place" v="hamlet"/>
  </node>
  <node id="813677086" version="1" timestamp="2010-07-12T16:41:38Z" uid="115477" user="wowik" changeset="5200555" lat="57.2683626" lon="37.0604585">
    <tag k="name" v="Скорнево"/>
    <tag k="place" v="hamlet"/>
  </node>
  <node id="813677092" version="1" timestamp="2010-07-12T16:41:38Z" uid="115477" user="wowik" changeset="5200555" lat="57.3042739" lon="37.0375433">
    <tag k="name" v="Жилкино"/>
    <tag k="place" v="locality"/>
  </node>
  <node id="813677092" version="2" timestamp="2011-01-14T17:02:33Z" uid="115477" user="wowik" changeset="6969037" lat="57.3042739" lon="37.0375433">
    <tag k="name" v="Жилкино"/>
    <tag k="place" v="hamlet"/>
  </node>
  <node id="813677095" version="1" timestamp="2010-07-12T16:41:38Z" uid="115477" user="wowik" changeset="5200555" lat="57.2666783" lon="37.2253788">
    <tag k="name" v="Сусолиха"/>
    <tag k="place" v="hamlet"/>
  </node>
  <node id="813677107" version="1" timestamp="2010-07-12T16:41:39Z" uid="115477" user="wowik" changeset="5200555" lat="57.2848959" lon="37.2023333">
    <tag k="name" v="Отрубнево"/>
    <tag k="place" v="hamlet"/>
  </node>
  <node id="813677111" version="1" timestamp="2010-07-12T16:41:39Z" uid="115477" user="wowik" changeset="5200555" lat="57.2750075" lon="37.3330659">
    <tag k="name" v="Абрамьево"/>
    <tag k="place" v="locality"/>
  </node>
  <node id="813677116" version="1" timestamp="2010-07-12T16:41:39Z" uid="115477" user="wowik" changeset="5200555" lat="57.2567366" lon="37.4377809">
    <tag k="name" v="Лужки"/>
    <tag k="place" v="locality"/>
  </node>
  <node id="813677116" version="2" timestamp="2010-07-19T16:11:28Z" uid="115477" user="wowik" changeset="5262509" lat="57.2567069" lon="37.4369516">
    <tag k="name" v="Лужки"/>
    <tag k="place" v="locality"/>
  </node>
  <node id="813677116" version="3" timestamp="2011-02-01T15:30:39Z" uid="115477" user="wowik" changeset="7155778" lat="57.2567069" lon="37.4369516">
    <tag k="name" v="Лужки"/>
    <tag k="place" v="hamlet"/>
  </node>
</osm>
