<?xml version='1.0' encoding='UTF-8'?>
<osm version="0.6" generator="libosmium/2.20.0">
  <node id="813750766" version="1" timestamp="2010-07-12T17:37:16Z" uid="115477" user="wowik" changeset="5201006" lat="57.1874024" lon="38.0298997">
    <tag k="name" v="Красное"/>
    <tag k="place" v="hamlet"/>
  </node>
  <node id="813750775" version="1" timestamp="2010-07-12T17:37:16Z" uid="115477" user="wowik" changeset="5201006" lat="57.1888039" lon="38.0439777">
    <tag k="name" v="Федюлино"/>
    <tag k="place" v="hamlet"/>
  </node>
  <node id="813750778" version="1" timestamp="2010-07-12T17:37:16Z" uid="115477" user="wowik" changeset="5201006" lat="57.2027219" lon="37.9996044">
    <tag k="name" v="Фомино"/>
    <tag k="place" v="hamlet"/>
  </node>
  <node id="813750781" version="1" timestamp="2010-07-12T17:37:17Z" uid="115477" user="wowik" changeset="5201006" lat="57.1723487" lon="37.9987036">
    <tag k="name" v="Родионово"/>
    <tag k="place" v="hamlet"/>
  </node>
  <node id="813750784" version="1" timestamp="2010-07-12T17:37:17Z" uid="115477" user="wowik" changeset="5201006" lat="57.1839224" lon="38.0237929">
    <tag k="name" v="Пузарино"/>
    <tag k="place" v="hamlet"/>
  </node>
  <node id="813750795" version="1" timestamp="2010-07-12T17:37:17Z" uid="115477" user="wowik" changeset="5201006" lat="57.1703229" lon="38.0072446">
    <tag k="name" v="Нестерово"/>
    <tag k="place" v="hamlet"/>
  </node>
  <node id="813750799" version="1" timestamp="2010-07-12T17:37:17Z" uid="115477" user="wowik" changeset="5201006" lat="57.1844648" lon="38.0374719">
    <tag k="name" v="Рябцево"/>
    <tag k="place" v="hamlet"/>
  </node>
  <node id="813750804" version="1" timestamp="2010-07-12T17:37:17Z" uid="115477" user="wowik" changeset="5201006" lat="57.1889413" lon="38.0232591">
    <tag k="alt_name" v="Новоникольское"/>
    <tag k="name" v="Новое Никольское"/>
    <tag k="place" v="hamlet"/>
  </node>
  <node id="813750811" version="1" timestamp="2010-07-12T17:37:17Z" uid="115477" user="wowik" changeset="5201006" lat="57.1922857" lon="38.0473207">
    <tag k="name" v="Исаково"/>
    <tag k="place" v="hamlet"/>
  </node>
  <node id="813750815" version="1" timestamp="2010-07-12T17:37:18Z" uid="115477" user="wowik" changeset="5201006" lat="57.2120639" lon="38.0187083">
    <tag k="name" v="Пищулино"/>
    <tag k="place" v="hamlet"/>
  </node>
  <node id="813750830" version="1" timestamp="2010-07-12T17:37:18Z" uid="115477" user="wowik" changeset="5201006" lat="57.1825482" lon="38.0089795">
    <tag k="name" v="Скорятьево"/>
    <tag k="place" v="hamlet"/>
  </node>
</osm>
