<?xml version='1.0' encoding='UTF-8'?>
<osm version="0.6" generator="libosmium/2.20.0">
  <node id="817339528" version="1" timestamp="2010-07-14T15:05:48Z" uid="115477" user="wowik" changeset="5217641" lat="57.4984841" lon="37.4388091">
    <tag k="name" v="Погорелово"/>
    <tag k="place" v="hamlet"/>
    <tag k="source" v="Менге"/>
  </node>
  <node id="817339528" version="2" timestamp="2010-07-14T16:06:35Z" uid="115477" user="wowik" changeset="5218179" lat="57.4983891" lon="37.4365321">
    <tag k="name" v="Погорелово"/>
    <tag k="place" v="hamlet"/>
    <tag k="source" v="Менге"/>
  </node>
  <node id="817339528" version="3" timestamp="2010-11-22T15:39:17Z" uid="115477" user="wowik" changeset="6432391" lat="57.4983891" lon="37.4365321">
    <tag k="name" v="Погорелово"/>
    <tag k="place" v="hamlet"/>
    <tag k="source" v="Менде"/>
  </node>
  <node id="817339535" version="1" timestamp="2010-07-14T15:05:49Z" uid="115477" user="wowik" changeset="5217641" lat="57.4564903" lon="37.3875405">
    <tag k="name" v="Сысоево"/>
    <tag k="place" v="hamlet"/>
    <tag k="source" v="Менге"/>
  </node>
  <node id="817339535" version="2" timestamp="2010-11-22T12:56:13Z" uid="115477" user="wowik" changeset="6431243" lat="57.4564903" lon="37.3875405">
    <tag k="name" v="Сысоево"/>
    <tag k="place" v="hamlet"/>
    <tag k="source" v="Менде"/>
  </node>
  <node id="817339535" version="3" timestamp="2011-02-01T15:37:23Z" uid="115477" user="wowik" changeset="7155836" lat="57.4564903" lon="37.3875405">
    <tag k="name" v="Сысоево"/>
    <tag k="place" v="locality"/>
    <tag k="source" v="Менде"/>
  </node>
  <node id="817339536" version="1" timestamp="2010-07-14T15:05:49Z" uid="115477" user="wowik" changeset="5217641" lat="57.5335819" lon="37.482282"/>
  <node id="817339537" version="1" timestamp="2010-07-14T15:05:49Z" uid="115477" user="wowik" changeset="5217641" lat="57.5179115" lon="37.4959761"/>
  <node id="817339537" version="2" timestamp="2011-01-11T15:01:48Z" uid="115477" user="wowik" changeset="6937627" lat="57.5177302" lon="37.4960682"/>
  <node id="817339538" version="1" timestamp="2010-07-14T15:05:49Z" uid="115477" user="wowik" changeset="5217641" lat="57.424981" lon="37.495426">
    <tag k="name" v="Гришкино"/>
    <tag k="place" v="hamlet"/>
    <tag k="source" v="Менге"/>
  </node>
  <node id="817339538" version="2" timestamp="2010-11-22T15:38:57Z" uid="115477" user="wowik" changeset="6432391" lat="57.424981" lon="37.495426">
    <tag k="name" v="Гришкино"/>
    <tag k="place" v="hamlet"/>
    <tag k="source" v="Менде"/>
  </node>
  <node id="817339538" version="3" timestamp="2010-11-22T18:03:45Z" uid="115477" user="wowik" changeset="6432391" lat="57.4245746" lon="37.4943357">
    <tag k="name" v="Гришкино"/>
    <tag k="place" v="hamlet"/>
    <tag k="source" v="Менде"/>
  </node>
  <node id="817339538" version="4" timestamp="2011-02-01T15:12:03Z" uid="115477" user="wowik" changeset="7155609" lat="57.4245746" lon="37.4943357">
    <tag k="name" v="Гришкино"/>
    <tag k="place" v="locality"/>
    <tag k="source" v="Менде"/>
  </node>
  <node id="817339539" version="1" timestamp="2010-07-14T15:05:49Z" uid="115477" user="wowik" changeset="5217641" lat="57.5377166" lon="37.4704708"/>
  <node id="817339539" version="2" timestamp="2010-07-14T16:05:18Z" uid="115477" user="wowik" changeset="5218179" lat="57.538859" lon="37.4701348"/>
  <node id="817339539" version="3" timestamp="2011-01-11T15:01:58Z" uid="115477" user="wowik" changeset="6937627" lat="57.5386278" lon="37.4699288"/>
  <node id="817339542" version="1" timestamp="2010-07-14T15:05:49Z" uid="115477" user="wowik" changeset="5217641" lat="57.5279303" lon="37.4821108"/>
  <node id="817339543" version="1" timestamp="2010-07-14T15:05:50Z" uid="115477" user="wowik" changeset="5217641" lat="57.5100048" lon="37.4797999"/>
  <node id="817339543" version="2" timestamp="2010-07-20T16:19:46Z" uid="115477" user="wowik" changeset="5272069" lat="57.5100048" lon="37.4776772"/>
  <node id="817339543" version="3" timestamp="2011-01-11T15:01:37Z" uid="115477" user="wowik" changeset="6937627" lat="57.5094514" lon="37.4780804"/>
  <node id="817339545" version="1" timestamp="2010-07-14T15:05:50Z" uid="115477" user="wowik" changeset="5217641" lat="57.4123245" lon="37.4662302">
    <tag k="name" v="Малафеево"/>
    <tag k="place" v="hamlet"/>
    <tag k="source" v="Менге"/>
  </node>
  <node id="817339545" version="2" timestamp="2010-11-22T15:38:55Z" uid="115477" user="wowik" changeset="6432391" lat="57.4123245" lon="37.4662302">
    <tag k="name" v="Малафеево"/>
    <tag k="place" v="hamlet"/>
    <tag k="source" v="Менде"/>
  </node>
  <node id="817339553" version="1" timestamp="2010-07-14T15:05:50Z" uid="115477" user="wowik" changeset="5217641" lat="57.5318819" lon="37.4611417"/>
  <node id="817339553" version="2" timestamp="2011-01-11T15:01:33Z" uid="115477" user="wowik" changeset="6937627" lat="57.5320327" lon="37.4623778"/>
  <node id="817339559" version="1" timestamp="2010-07-14T15:05:50Z" uid="115477" user="wowik" changeset="5217641" lat="57.5136366" lon="37.4971743"/>
  <node id="817339559" version="2" timestamp="2011-01-11T15:01:39Z" uid="115477" user="wowik" changeset="6937627" lat="57.5141928" lon="37.4974275"/>
  <node id="817339562" version="1" timestamp="2010-07-14T15:05:50Z" uid="115477" user="wowik" changeset="5217641" lat="57.4896097" lon="37.5139924">
    <tag k="name" v="Ляхово"/>
    <tag k="place" v="hamlet"/>
    <tag k="source" v="Менге"/>
  </node>
  <node id="817339562" version="2" timestamp="2010-11-22T15:39:11Z" uid="115477" user="wowik" changeset="6432391" lat="57.4889235" lon="37.5139924">
    <tag k="name" v="Ляхово"/>
    <tag k="place" v="hamlet"/>
    <tag k="source" v="Менде"/>
  </node>
  <node id="817339562" version="3" timestamp="2011-01-26T16:44:07Z" uid="115477" user="wowik" changeset="7094999" lat="57.4884843" lon="37.5141466">
    <tag k="name" v="Ляхово"/>
    <tag k="place" v="hamlet"/>
    <tag k="source" v="Менде"/>
  </node>
  <node id="817339564" version="1" timestamp="2010-07-14T15:05:50Z" uid="115477" user="wowik" changeset="5217641" lat="57.5345926" lon="37.4620831"/>
  <node id="817339564" version="2" timestamp="2011-01-11T15:01:36Z" uid="115477" user="wowik" changeset="6937627" lat="57.5355678" lon="37.4637313"/>
  <node id="817339569" version="1" timestamp="2010-07-14T15:05:51Z" uid="115477" user="wowik" changeset="5217641" lat="57.5226914" lon="37.4854487"/>
  <node id="817339569" version="2" timestamp="2011-01-11T15:01:37Z" uid="115477" user="wowik" changeset="6937627" lat="57.5227377" lon="37.4857364"/>
  <node id="817339570" version="1" timestamp="2010-07-14T15:05:51Z" uid="115477" user="wowik" changeset="5217641" lat="57.503476" lon="37.4863902"/>
  <node id="817339570" version="2" timestamp="2010-07-20T16:19:48Z" uid="115477" user="wowik" changeset="5272069" lat="57.5024698" lon="37.4849186"/>
  <node id="817339570" version="3" timestamp="2010-11-22T15:39:01Z" uid="115477" user="wowik" changeset="6432391" lat="57.5026639" lon="37.4848154"/>
  <node id="817339571" version="1" timestamp="2010-07-14T15:05:51Z" uid="115477" user="wowik" changeset="5217641" lat="57.3952114" lon="37.470582">
    <tag k="name" v="Турылево"/>
    <tag k="place" v="hamlet"/>
    <tag k="source" v="Менге"/>
  </node>
  <node id="817339571" version="2" timestamp="2010-07-19T15:43:27Z" uid="115477" user="wowik" changeset="5262226" lat="57.3945024" lon="37.4703251">
    <tag k="name" v="Турлеево"/>
    <tag k="old_name" v="Турылево"/>
    <tag k="place" v="hamlet"/>
    <tag k="source" v="Менге"/>
  </node>
  <node id="817339571" version="3" timestamp="2010-11-22T15:38:56Z" uid="115477" user="wowik" changeset="6432391" lat="57.3945024" lon="37.4703251">
    <tag k="name" v="Турлеево"/>
    <tag k="old_name" v="Турылево"/>
    <tag k="place" v="hamlet"/>
    <tag k="source" v="Менде"/>
  </node>
  <node id="817339571" version="4" timestamp="2010-11-24T15:27:06Z" uid="115477" user="wowik" changeset="6446894" lat="57.3940121" lon="37.4710601">
    <tag k="name" v="Турлеево"/>
    <tag k="old_name" v="Турылево"/>
    <tag k="place" v="hamlet"/>
    <tag k="source" v="Менде"/>
  </node>
  <node id="817339571" version="5" timestamp="2011-01-14T17:44:12Z" uid="115477" user="wowik" changeset="6969443" lat="57.3948195" lon="37.4696242">
    <tag k="name" v="Турлеево"/>
    <tag k="old_name" v="Турылево"/>
    <tag k="place" v="hamlet"/>
    <tag k="source" v="Менде"/>
  </node>
  <node id="817339572" version="1" timestamp="2010-07-14T15:05:51Z" uid="115477" user="wowik" changeset="5217641" lat="57.5293088" lon="37.4736376"/>
  <node id="817339572" version="2" timestamp="2011-01-11T15:01:59Z" uid="115477" user="wowik" changeset="6937627" lat="57.5293402" lon="37.4722036"/>
  <node id="817339573" version="1" timestamp="2010-07-14T15:05:51Z" uid="115477" user="wowik" changeset="5217641" lat="57.406804" lon="37.5176642">
    <tag k="name" v="Пушкино"/>
    <tag k="place" v="hamlet"/>
    <tag k="source" v="Менге"/>
  </node>
  <node id="817339573" version="2" timestamp="2010-11-22T15:38:48Z" uid="115477" user="wowik" changeset="6432391" lat="57.406804" lon="37.5176642">
    <tag k="name" v="Пушкино"/>
    <tag k="place" v="hamlet"/>
    <tag k="source" v="Менде"/>
  </node>
  <node id="817339574" version="1" timestamp="2010-07-14T15:05:51Z" uid="115477" user="wowik" changeset="5217641" lat="57.5026464" lon="37.503929">
    <tag k="name" v="Поресье"/>
    <tag k="place" v="hamlet"/>
    <tag k="source" v="Менге"/>
  </node>
  <node id="817339574" version="2" timestamp="2010-07-14T16:05:16Z" uid="115477" user="wowik" changeset="5218179" lat="57.5027702" lon="37.4991456">
    <tag k="name" v="Поречье"/>
    <tag k="place" v="hamlet"/>
    <tag k="source" v="Менге"/>
  </node>
  <node id="817339574" version="3" timestamp="2010-11-22T15:38:34Z" uid="115477" user="wowik" changeset="6432391" lat="57.5027702" lon="37.4991456">
    <tag k="name" v="Поречье"/>
    <tag k="place" v="hamlet"/>
    <tag k="source" v="Менде"/>
  </node>
  <node id="817339574" version="4" timestamp="2011-02-01T18:08:39Z" uid="115477" user="wowik" changeset="7157304" lat="57.5030709" lon="37.4967559">
    <tag k="name" v="Поречье"/>
    <tag k="place" v="hamlet"/>
    <tag k="source" v="Менде"/>
  </node>
  <node id="817339576" version="1" timestamp="2010-07-14T15:05:51Z" uid="115477" user="wowik" changeset="5217641" lat="57.5452039" lon="37.4723537"/>
  <node id="817339576" version="2" timestamp="2011-01-11T15:01:34Z" uid="115477" user="wowik" changeset="6937627" lat="57.5443395" lon="37.4740393"/>
  <node id="817339577" version="1" timestamp="2010-07-14T15:05:51Z" uid="115477" user="wowik" changeset="5217641" lat="57.5185839" lon="37.4007456">
    <tag k="name" v="Архангельское"/>
    <tag k="old_name" v="Погост Архангельский (на черном ручье)"/>
    <tag k="place" v="hamlet"/>
    <tag k="source" v="Менге"/>
  </node>
  <node id="817339577" version="2" timestamp="2010-07-14T15:34:28Z" uid="115477" user="wowik" changeset="5217843" lat="57.5185839" lon="37.4007456">
    <tag k="name" v="Архангельское"/>
    <tag k="old_name" v="Погост Архангельский (на черном ручье)"/>
    <tag k="place" v="locality"/>
    <tag k="source" v="Менге"/>
  </node>
  <node id="817339577" version="3" timestamp="2010-11-22T15:38:59Z" uid="115477" user="wowik" changeset="6432391" lat="57.5185839" lon="37.4007456">
    <tag k="name" v="Архангельское"/>
    <tag k="old_name" v="Погост Архангельский (на черном ручье)"/>
    <tag k="place" v="locality"/>
    <tag k="source" v="Менде"/>
  </node>
  <node id="817339579" version="1" timestamp="2010-07-14T15:05:51Z" uid="115477" user="wowik" changeset="5217641" lat="57.5122115" lon="37.495377"/>
  <node id="817339579" version="2" timestamp="2011-01-11T15:01:48Z" uid="115477" user="wowik" changeset="6937627" lat="57.5124999" lon="37.4957145"/>
  <node id="817339580" version="1" timestamp="2010-07-14T15:05:51Z" uid="115477" user="wowik" changeset="5217641" lat="57.5072463" lon="37.4859623"/>
  <node id="817339582" version="1" timestamp="2010-07-14T15:05:51Z" uid="115477" user="wowik" changeset="5217641" lat="57.5128861" lon="37.5090128">
    <tag k="name" v="Забелино"/>
    <tag k="place" v="hamlet"/>
    <tag k="source" v="Менге"/>
  </node>
  <node id="817339582" version="2" timestamp="2010-07-14T16:05:15Z" uid="115477" user="wowik" changeset="5218179" lat="57.5129598" lon="37.5052396">
    <tag k="name" v="Забелино"/>
    <tag k="place" v="hamlet"/>
    <tag k="source" v="Менге"/>
  </node>
  <node id="817339582" version="3" timestamp="2010-11-22T15:39:15Z" uid="115477" user="wowik" changeset="6432391" lat="57.5129598" lon="37.5052396">
    <tag k="name" v="Забелино"/>
    <tag k="place" v="hamlet"/>
    <tag k="source" v="Менде"/>
  </node>
  <node id="817339582" version="4" timestamp="2011-01-26T16:43:59Z" uid="115477" user="wowik" changeset="7094999" lat="57.5128177" lon="37.5033033">
    <tag k="name" v="Забелино"/>
    <tag k="place" v="hamlet"/>
    <tag k="source" v="Менде"/>
  </node>
  <node id="817339586" version="1" timestamp="2010-07-14T15:05:52Z" uid="115477" user="wowik" changeset="5217641" lat="57.4100426" lon="37.5040385">
    <tag k="name" v="Молевка"/>
    <tag k="old_name" v="Молявка"/>
    <tag k="place" v="hamlet"/>
    <tag k="source" v="Менге"/>
  </node>
  <node id="817339586" version="2" timestamp="2010-11-22T15:38:30Z" uid="115477" user="wowik" changeset="6432391" lat="57.4100426" lon="37.5040385">
    <tag k="name" v="Молевка"/>
    <tag k="old_name" v="Молявка"/>
    <tag k="place" v="hamlet"/>
    <tag k="source" v="Менде"/>
  </node>
  <node id="817339588" version="1" timestamp="2010-07-14T15:05:52Z" uid="115477" user="wowik" changeset="5217641" lat="57.5421724" lon="37.4635381"/>
  <node id="817339588" version="2" timestamp="2011-01-11T15:01:37Z" uid="115477" user="wowik" changeset="6937627" lat="57.5413281" lon="37.4651301"/>
  <node id="817339589" version="1" timestamp="2010-07-14T15:05:52Z" uid="115477" user="wowik" changeset="5217641" lat="57.3988919" lon="37.4459033">
    <tag k="name" v="Бартенево"/>
    <tag k="place" v="hamlet"/>
    <tag k="source" v="Менге"/>
  </node>
  <node id="817339589" version="2" timestamp="2010-07-19T15:43:27Z" uid="115477" user="wowik" changeset="5262226" lat="57.3979941" lon="37.44552">
    <tag k="name" v="Бартенево"/>
    <tag k="place" v="hamlet"/>
    <tag k="source" v="Менге"/>
  </node>
  <node id="817339589" version="3" timestamp="2010-11-22T15:39:14Z" uid="115477" user="wowik" changeset="6432391" lat="57.3979941" lon="37.44552">
    <tag k="name" v="Бартенево"/>
    <tag k="place" v="hamlet"/>
    <tag k="source" v="Менде"/>
  </node>
  <node id="817339589" version="4" timestamp="2010-11-24T15:27:01Z" uid="115477" user="wowik" changeset="6446894" lat="57.3979941" lon="37.44552">
    <tag k="name" v="locality"/>
    <tag k="place" v="hamlet"/>
    <tag k="source" v="Менде"/>
  </node>
  <node id="817339589" version="5" timestamp="2010-11-24T17:50:58Z" uid="115477" user="wowik" changeset="6446894" lat="57.3979941" lon="37.44552">
    <tag k="name" v="Бартенево"/>
    <tag k="place" v="locality"/>
    <tag k="source" v="Менде"/>
  </node>
  <node id="817339592" version="1" timestamp="2010-07-14T15:05:52Z" uid="115477" user="wowik" changeset="5217641" lat="57.5139984" lon="37.4307372">
    <tag k="name" v="Деревенская"/>
    <tag k="place" v="hamlet"/>
    <tag k="source" v="Менге"/>
  </node>
  <node id="817339592" version="2" timestamp="2010-07-14T15:34:26Z" uid="115477" user="wowik" changeset="5217843" lat="57.5139984" lon="37.4307372">
    <tag k="name" v="Деревенское"/>
    <tag k="place" v="hamlet"/>
    <tag k="source" v="Менге"/>
  </node>
  <node id="817339592" version="3" timestamp="2010-11-22T15:38:35Z" uid="115477" user="wowik" changeset="6432391" lat="57.5139984" lon="37.4307372">
    <tag k="name" v="Деревенское"/>
    <tag k="place" v="hamlet"/>
    <tag k="source" v="Менде"/>
  </node>
  <node id="817339592" version="4" timestamp="2011-02-01T18:08:45Z" uid="115477" user="wowik" changeset="7157304" lat="57.5133879" lon="37.4317878">
    <tag k="name" v="Деревенское"/>
    <tag k="place" v="hamlet"/>
    <tag k="source" v="Менде"/>
  </node>
  <node id="817339594" version="1" timestamp="2010-07-14T15:05:52Z" uid="115477" user="wowik" changeset="5217641" lat="57.5099589" lon="37.4916111"/>
  <node id="817339594" version="2" timestamp="2011-01-11T15:01:39Z" uid="115477" user="wowik" changeset="6937627" lat="57.509691" lon="37.488719"/>
  <node id="817339603" version="1" timestamp="2010-07-14T15:05:53Z" uid="115477" user="wowik" changeset="5217641" lat="57.5108324" lon="37.4832234"/>
  <node id="817339603" version="2" timestamp="2010-07-20T16:19:46Z" uid="115477" user="wowik" changeset="5272069" lat="57.5103295" lon="37.4821535"/>
  <node id="817339603" version="3" timestamp="2011-01-11T15:01:58Z" uid="115477" user="wowik" changeset="6937627" lat="57.5101611" lon="37.4817503"/>
  <node id="817339604" version="1" timestamp="2010-07-14T15:05:53Z" uid="115477" user="wowik" changeset="5217641" lat="57.4205144" lon="37.4337866">
    <tag k="name" v="Морева"/>
    <tag k="place" v="hamlet"/>
    <tag k="source" v="Менге"/>
  </node>
  <node id="817339604" version="2" timestamp="2010-07-14T15:34:23Z" uid="115477" user="wowik" changeset="5217843" lat="57.4205144" lon="37.4337866">
    <tag k="name" v="Морево"/>
    <tag k="place" v="hamlet"/>
    <tag k="source" v="Менге"/>
  </node>
  <node id="817339604" version="3" timestamp="2010-11-22T15:39:02Z" uid="115477" user="wowik" changeset="6432391" lat="57.4205144" lon="37.4337866">
    <tag k="name" v="Морево"/>
    <tag k="place" v="hamlet"/>
    <tag k="source" v="Менде"/>
  </node>
  <node id="817339605" version="1" timestamp="2010-07-14T15:05:53Z" uid="115477" user="wowik" changeset="5217641" lat="57.5157511" lon="37.489129"/>
  <node id="817339606" version="1" timestamp="2010-07-14T15:05:53Z" uid="115477" user="wowik" changeset="5217641" lat="57.4788554" lon="37.4135172">
    <tag k="name" v="Кружково"/>
    <tag k="old_name" v="Дядюшкины кружки"/>
    <tag k="place" v="hamlet"/>
    <tag k="source" v="Менге"/>
  </node>
  <node id="817339606" version="2" timestamp="2010-11-22T15:38:39Z" uid="115477" user="wowik" changeset="6432391" lat="57.4788554" lon="37.4135172">
    <tag k="name" v="Кружково"/>
    <tag k="old_name" v="Дядюшкины кружки"/>
    <tag k="place" v="hamlet"/>
    <tag k="source" v="Менде"/>
  </node>
  <node id="817339607" version="1" timestamp="2010-07-14T15:05:53Z" uid="115477" user="wowik" changeset="5217641" lat="57.4047284" lon="37.4303873">
    <tag k="name" v="Кабардеево"/>
    <tag k="place" v="hamlet"/>
    <tag k="source" v="Менге"/>
  </node>
  <node id="817339607" version="2" timestamp="2010-07-19T15:43:27Z" uid="115477" user="wowik" changeset="5262226" lat="57.4047284" lon="37.4303873">
    <tag k="name" v="Кабардеево"/>
    <tag k="place" v="locality"/>
    <tag k="source" v="Менге"/>
  </node>
  <node id="817339607" version="3" timestamp="2010-11-22T15:38:31Z" uid="115477" user="wowik" changeset="6432391" lat="57.4047284" lon="37.4303873">
    <tag k="name" v="Кабардеево"/>
    <tag k="place" v="locality"/>
    <tag k="source" v="Менде"/>
  </node>
  <node id="817339612" version="1" timestamp="2010-07-14T15:05:53Z" uid="115477" user="wowik" changeset="5217641" lat="57.5331684" lon="37.4761196"/>
  <node id="817339612" version="2" timestamp="2011-01-11T15:01:48Z" uid="115477" user="wowik" changeset="6937627" lat="57.5334198" lon="37.4778614"/>
  <node id="817339614" version="1" timestamp="2010-07-14T15:05:54Z" uid="115477" user="wowik" changeset="5217641" lat="57.5177736" lon="37.4942643"/>
  <node id="817339616" version="1" timestamp="2010-07-14T15:05:54Z" uid="115477" user="wowik" changeset="5217641" lat="57.4331268" lon="37.4940951">
    <tag k="name" v="Лисицино"/>
    <tag k="place" v="hamlet"/>
    <tag k="source" v="Менге"/>
  </node>
  <node id="817339616" version="2" timestamp="2010-11-22T15:39:00Z" uid="115477" user="wowik" changeset="6432391" lat="57.4331268" lon="37.4940951">
    <tag k="name" v="Лисицино"/>
    <tag k="place" v="hamlet"/>
    <tag k="source" v="Менде"/>
  </node>
  <node id="817339616" version="3" timestamp="2010-11-22T18:03:45Z" uid="115477" user="wowik" changeset="6432391" lat="57.4331268" lon="37.4940951">
    <tag k="name" v="Лисицино"/>
    <tag k="place" v="locality"/>
    <tag k="source" v="Менде"/>
  </node>
  <node id="817339618" version="1" timestamp="2010-07-14T15:05:54Z" uid="115477" user="wowik" changeset="5217641" lat="57.540335" lon="37.4641372"/>
  <node id="817339618" version="2" timestamp="2011-01-11T15:01:40Z" uid="115477" user="wowik" changeset="6937627" lat="57.5403149" lon="37.4656917"/>
  <node id="817339620" version="1" timestamp="2010-07-14T15:05:54Z" uid="115477" user="wowik" changeset="5217641" lat="57.4387167" lon="37.3962971">
    <tag k="name" v="Шевелево"/>
    <tag k="place" v="hamlet"/>
    <tag k="source" v="Менге"/>
  </node>
  <node id="817339620" version="2" timestamp="2010-07-19T15:49:29Z" uid="115477" user="wowik" changeset="5262226" lat="57.4383674" lon="37.3954807">
    <tag k="name" v="Шевелево"/>
    <tag k="place" v="hamlet"/>
    <tag k="source" v="Менге"/>
  </node>
  <node id="817339620" version="3" timestamp="2010-11-22T15:38:31Z" uid="115477" user="wowik" changeset="6432391" lat="57.4383674" lon="37.3954807">
    <tag k="name" v="Шевелево"/>
    <tag k="place" v="hamlet"/>
    <tag k="source" v="Менде"/>
  </node>
  <node id="817339624" version="1" timestamp="2010-07-14T15:05:54Z" uid="115477" user="wowik" changeset="5217641" lat="57.4518598" lon="37.3791628">
    <tag k="name" v="Тулово"/>
    <tag k="place" v="hamlet"/>
    <tag k="source" v="Менге"/>
  </node>
  <node id="817339624" version="2" timestamp="2010-11-22T15:38:46Z" uid="115477" user="wowik" changeset="6432391" lat="57.4518598" lon="37.3791628">
    <tag k="name" v="Тулово"/>
    <tag k="place" v="hamlet"/>
    <tag k="source" v="Менде"/>
  </node>
  <node id="817339624" version="3" timestamp="2011-02-01T15:37:23Z" uid="115477" user="wowik" changeset="7155836" lat="57.4518598" lon="37.3791628">
    <tag k="name" v="Тулово"/>
    <tag k="place" v="locality"/>
    <tag k="source" v="Менде"/>
  </node>
  <node id="817339629" version="1" timestamp="2010-07-14T15:05:55Z" uid="115477" user="wowik" changeset="5217641" lat="57.5155673" lon="37.493494"/>
  <node id="817339629" version="2" timestamp="2011-01-11T15:01:46Z" uid="115477" user="wowik" changeset="6937627" lat="57.5155508" lon="37.4943148"/>
  <node id="817339631" version="1" timestamp="2010-07-14T15:05:55Z" uid="115477" user="wowik" changeset="5217641" lat="57.4138079" lon="37.4427267">
    <tag k="name" v="Клестово"/>
    <tag k="place" v="hamlet"/>
    <tag k="source" v="Менге"/>
  </node>
  <node id="817339631" version="2" timestamp="2010-11-22T15:38:57Z" uid="115477" user="wowik" changeset="6432391" lat="57.4138079" lon="37.4427267">
    <tag k="name" v="Клестово"/>
    <tag k="place" v="hamlet"/>
    <tag k="source" v="Менде"/>
  </node>
  <node id="817339631" version="3" timestamp="2011-01-14T17:44:11Z" uid="115477" user="wowik" changeset="6969443" lat="57.4134684" lon="37.4403699">
    <tag k="name" v="Клестово"/>
    <tag k="place" v="hamlet"/>
    <tag k="source" v="Менде"/>
  </node>
  <node id="817339634" version="1" timestamp="2010-07-14T15:05:55Z" uid="115477" user="wowik" changeset="5217641" lat="57.5301359" lon="37.485192"/>
  <node id="817339635" version="1" timestamp="2010-07-14T15:05:55Z" uid="115477" user="wowik" changeset="5217641" lat="57.5163487" lon="37.4977735"/>
  <node id="817339637" version="1" timestamp="2010-07-14T15:05:55Z" uid="115477" user="wowik" changeset="5217641" lat="57.4265133" lon="37.4715552">
    <tag k="name" v="Монаково"/>
    <tag k="place" v="hamlet"/>
    <tag k="source" v="Менге"/>
  </node>
  <node id="817339637" version="2" timestamp="2010-07-19T15:49:29Z" uid="115477" user="wowik" changeset="5262226" lat="57.4265133" lon="37.4715552">
    <tag k="name" v="Монаково"/>
    <tag k="place" v="locality"/>
    <tag k="source" v="Менге"/>
  </node>
  <node id="817339637" version="3" timestamp="2010-11-22T15:39:00Z" uid="115477" user="wowik" changeset="6432391" lat="57.4265133" lon="37.4715552">
    <tag k="name" v="Монаково"/>
    <tag k="place" v="locality"/>
    <tag k="source" v="Менде"/>
  </node>
  <node id="817339639" version="1" timestamp="2010-07-14T15:05:55Z" uid="115477" user="wowik" changeset="5217641" lat="57.5370154" lon="37.4657773"/>
  <node id="817339639" version="2" timestamp="2011-01-11T15:01:46Z" uid="115477" user="wowik" changeset="6937627" lat="57.5364122" lon="37.4657211"/>
  <node id="817339644" version="1" timestamp="2010-07-14T15:05:56Z" uid="115477" user="wowik" changeset="5217641" lat="57.5247595" lon="37.4852776"/>
  <node id="817339644" version="2" timestamp="2011-01-11T15:01:37Z" uid="115477" user="wowik" changeset="6937627" lat="57.5246411" lon="37.4856324"/>
  <node id="817339645" version="1" timestamp="2010-07-14T15:05:56Z" uid="115477" user="wowik" changeset="5217641" lat="57.5064647" lon="37.4815973"/>
  <node id="817339645" version="2" timestamp="2010-07-20T16:19:48Z" uid="115477" user="wowik" changeset="5272069" lat="57.5044047" lon="37.4816658"/>
  <node id="817339647" version="1" timestamp="2010-07-14T15:05:56Z" uid="115477" user="wowik" changeset="5217641" lat="57.5300899" lon="37.4637093"/>
  <node id="817339647" version="2" timestamp="2011-01-11T15:01:59Z" uid="115477" user="wowik" changeset="6937627" lat="57.5304016" lon="37.4661816"/>
  <node id="817339649" version="1" timestamp="2010-07-14T15:05:56Z" uid="115477" user="wowik" changeset="5217641" lat="57.4412749" lon="37.4232931">
    <tag k="name" v="Раково"/>
    <tag k="place" v="hamlet"/>
    <tag k="source" v="Менге"/>
  </node>
  <node id="817339649" version="2" timestamp="2010-11-22T15:38:57Z" uid="115477" user="wowik" changeset="6432391" lat="57.4412749" lon="37.4232931">
    <tag k="name" v="Раково"/>
    <tag k="place" v="hamlet"/>
    <tag k="source" v="Менде"/>
  </node>
  <node id="817339650" version="1" timestamp="2010-07-14T15:05:56Z" uid="115477" user="wowik" changeset="5217641" lat="57.4501437" lon="37.5237923">
    <tag k="name" v="Почапки"/>
    <tag k="place" v="hamlet"/>
    <tag k="source" v="Менге"/>
  </node>
  <node id="817339650" version="2" timestamp="2010-11-22T15:38:47Z" uid="115477" user="wowik" changeset="6432391" lat="57.4501437" lon="37.5237923">
    <tag k="name" v="Почапки"/>
    <tag k="place" v="hamlet"/>
    <tag k="source" v="Менде"/>
  </node>
  <node id="817339650" version="3" timestamp="2010-11-22T18:03:45Z" uid="115477" user="wowik" changeset="6432391" lat="57.4501437" lon="37.5230191">
    <tag k="name" v="Почапки"/>
    <tag k="place" v="locality"/>
    <tag k="source" v="Менде"/>
  </node>
  <node id="817339651" version="1" timestamp="2010-07-14T15:05:57Z" uid="115477" user="wowik" changeset="5217641" lat="57.5481892" lon="37.4736376"/>
  <node id="817339651" version="2" timestamp="2011-01-11T15:01:36Z" uid="115477" user="wowik" changeset="6937627" lat="57.5490736" lon="37.4749674"/>
  <node id="817339654" version="1" timestamp="2010-07-14T15:05:57Z" uid="115477" user="wowik" changeset="5217641" lat="57.5208531" lon="37.4863902"/>
  <node id="817339654" version="2" timestamp="2011-01-11T15:01:58Z" uid="115477" user="wowik" changeset="6937627" lat="57.5210282" lon="37.4868217"/>
  <node id="817339655" version="1" timestamp="2010-07-14T15:05:57Z" uid="115477" user="wowik" changeset="5217641" lat="57.5021884" lon="37.490584"/>
  <node id="817339655" version="2" timestamp="2010-11-22T15:39:10Z" uid="115477" user="wowik" changeset="6432391" lat="57.50156" lon="37.4912205"/>
  <node id="817339657" version="1" timestamp="2010-07-14T15:05:57Z" uid="115477" user="wowik" changeset="5217641" lat="57.4936529" lon="37.5549401">
    <tag k="name" v="Кишкино"/>
    <tag k="place" v="hamlet"/>
    <tag k="source" v="Менге"/>
  </node>
  <node id="817339657" version="2" timestamp="2010-07-14T16:05:18Z" uid="115477" user="wowik" changeset="5218179" lat="57.4940768" lon="37.5558368">
    <tag k="name" v="Кишкино"/>
    <tag k="place" v="locality"/>
    <tag k="source" v="Менге"/>
  </node>
  <node id="817339657" version="3" timestamp="2010-11-23T15:42:52Z" uid="115477" user="wowik" changeset="6440035" lat="57.4940768" lon="37.5558368">
    <tag k="name" v="Кишкино"/>
    <tag k="place" v="locality"/>
    <tag k="source" v="Менде"/>
  </node>
  <node id="817339657" version="4" timestamp="2010-11-25T12:34:07Z" uid="115477" user="wowik" changeset="6453611" lat="57.4940768" lon="37.5558368">
    <tag k="name" v="Кишкино"/>
    <tag k="place" v="locality"/>
    <tag k="source" v="Менде"/>
  </node>
  <node id="817339659" version="1" timestamp="2010-07-14T15:05:57Z" uid="115477" user="wowik" changeset="5217641" lat="57.5304116" lon="37.4748358"/>
  <node id="817339659" version="2" timestamp="2011-01-11T15:01:41Z" uid="115477" user="wowik" changeset="6937627" lat="57.5304418" lon="37.4751542"/>
  <node id="817339661" version="1" timestamp="2010-07-14T15:05:57Z" uid="115477" user="wowik" changeset="5217641" lat="57.5429074" lon="37.4673896"/>
  <node id="817339661" version="2" timestamp="2011-01-11T15:01:47Z" uid="115477" user="wowik" changeset="6937627" lat="57.5420731" lon="37.4666404"/>
  <node id="817339663" version="1" timestamp="2010-07-14T15:05:57Z" uid="115477" user="wowik" changeset="5217641" lat="57.5196243" lon="37.4244232">
    <tag k="name" v="Курова"/>
    <tag k="place" v="hamlet"/>
    <tag k="source" v="Менге"/>
  </node>
  <node id="817339663" version="2" timestamp="2010-07-14T15:34:29Z" uid="115477" user="wowik" changeset="5217843" lat="57.5196243" lon="37.4244232">
    <tag k="name" v="Курова"/>
    <tag k="place" v="locality"/>
    <tag k="source" v="Менге"/>
  </node>
  <node id="817339663" version="3" timestamp="2010-11-22T15:39:01Z" uid="115477" user="wowik" changeset="6432391" lat="57.5196243" lon="37.4244232">
    <tag k="name" v="Курова"/>
    <tag k="place" v="locality"/>
    <tag k="source" v="Менде"/>
  </node>
  <node id="817339669" version="1" timestamp="2010-07-14T15:05:57Z" uid="115477" user="wowik" changeset="5217641" lat="57.5115219" lon="37.4930661"/>
  <node id="817339669" version="2" timestamp="2011-01-11T15:01:40Z" uid="115477" user="wowik" changeset="6937627" lat="57.5116249" lon="37.4925905"/>
  <node id="817339671" version="1" timestamp="2010-07-14T15:05:57Z" uid="115477" user="wowik" changeset="5217641" lat="57.5088095" lon="37.484764"/>
  <node id="817339671" version="2" timestamp="2010-07-20T16:19:48Z" uid="115477" user="wowik" changeset="5272069" lat="57.5074445" lon="37.4831591"/>
  <node id="817339672" version="1" timestamp="2010-07-14T15:05:57Z" uid="115477" user="wowik" changeset="5217641" lat="57.4285786" lon="37.4238313">
    <tag k="name" v="Малыгино"/>
    <tag k="place" v="hamlet"/>
    <tag k="source" v="Менге"/>
  </node>
  <node id="817339672" version="2" timestamp="2010-11-22T15:39:15Z" uid="115477" user="wowik" changeset="6432391" lat="57.4285786" lon="37.4238313">
    <tag k="name" v="Малыгино"/>
    <tag k="place" v="hamlet"/>
    <tag k="source" v="Менде"/>
  </node>
  <node id="817339674" version="1" timestamp="2010-07-14T15:05:58Z" uid="115477" user="wowik" changeset="5217641" lat="57.5177736" lon="37.4870749"/>
  <node id="817339674" version="2" timestamp="2011-01-11T15:01:36Z" uid="115477" user="wowik" changeset="6937627" lat="57.516996" lon="37.4873626"/>
  <node id="817339675" version="1" timestamp="2010-07-14T15:05:58Z" uid="115477" user="wowik" changeset="5217641" lat="57.3964679" lon="37.4190946">
    <tag k="name" v="Володино"/>
    <tag k="place" v="hamlet"/>
    <tag k="source" v="Менге"/>
  </node>
  <node id="817339675" version="2" timestamp="2010-11-22T15:38:58Z" uid="115477" user="wowik" changeset="6432391" lat="57.3964679" lon="37.4190946">
    <tag k="name" v="Володино"/>
    <tag k="place" v="hamlet"/>
    <tag k="source" v="Менде"/>
  </node>
  <node id="817339675" version="3" timestamp="2010-11-22T18:01:05Z" uid="115477" user="wowik" changeset="6432391" lat="57.3964679" lon="37.4190946">
    <tag k="name" v="Володино"/>
    <tag k="place" v="locality"/>
    <tag k="source" v="Менде"/>
  </node>
  <node id="817339676" version="1" timestamp="2010-07-14T15:05:58Z" uid="115477" user="wowik" changeset="5217641" lat="57.5319278" lon="37.4722681"/>
  <node id="817339676" version="2" timestamp="2011-01-11T15:01:38Z" uid="115477" user="wowik" changeset="6937627" lat="57.5325512" lon="37.4757517"/>
  <node id="817339677" version="1" timestamp="2010-07-14T15:05:58Z" uid="115477" user="wowik" changeset="5217641" lat="57.507752" lon="37.4885299"/>
  <node id="817339677" version="2" timestamp="2011-01-11T15:01:58Z" uid="115477" user="wowik" changeset="6937627" lat="57.5081517" lon="37.4878318"/>
  <node id="817339681" version="1" timestamp="2010-07-14T15:05:58Z" uid="115477" user="wowik" changeset="5217641" lat="57.5113381" lon="37.4805702"/>
  <node id="817339681" version="2" timestamp="2010-07-20T16:19:46Z" uid="115477" user="wowik" changeset="5272069" lat="57.5113381" lon="37.47968"/>
  <node id="817339682" version="1" timestamp="2010-07-14T15:05:58Z" uid="115477" user="wowik" changeset="5217641" lat="57.4252469" lon="37.4426657">
    <tag k="name" v="Кожино"/>
    <tag k="place" v="hamlet"/>
    <tag k="source" v="Менге"/>
  </node>
  <node id="817339682" version="2" timestamp="2010-11-22T15:38:56Z" uid="115477" user="wowik" changeset="6432391" lat="57.4252469" lon="37.4426657">
    <tag k="name" v="Кожино"/>
    <tag k="place" v="hamlet"/>
    <tag k="source" v="Менде"/>
  </node>
  <node id="817339682" version="3" timestamp="2011-01-14T17:44:14Z" uid="115477" user="wowik" changeset="6969443" lat="57.4247646" lon="37.4422178">
    <tag k="name" v="Кожино"/>
    <tag k="place" v="hamlet"/>
    <tag k="source" v="Менде"/>
  </node>
  <node id="817339684" version="1" timestamp="2010-07-14T15:05:59Z" uid="115477" user="wowik" changeset="5217641" lat="57.5150157" lon="37.4929805"/>
</osm>
