<?xml version='1.0' encoding='UTF-8'?>
<osm version="0.6" generator="libosmium/2.20.0">
  <node id="81817989" version="2" timestamp="2008-07-31T23:46:58Z" uid="36809" user="pfoten_weg_!_" changeset="4171" lat="52.4412894" lon="12.8123444">
    <tag k="created_by" v="RambaZamba"/>
  </node>
  <node id="81817989" version="9" timestamp="2009-09-25T16:57:19Z" uid="36809" user="pfoten_weg_!_" changeset="2623140" lat="52.4412894" lon="12.8123444">
    <tag k="power" v="tower"/>
    <tag k="ref" v="337"/>
  </node>
  <node id="81817991" version="4" timestamp="2009-09-25T16:57:18Z" uid="36809" user="pfoten_weg_!_" changeset="2623140" lat="52.4542943" lon="12.8229187">
    <tag k="power" v="tower"/>
    <tag k="ref" v="342"/>
  </node>
  <node id="81817992" version="4" timestamp="2009-09-25T16:57:18Z" uid="36809" user="pfoten_weg_!_" changeset="2623140" lat="52.4565747" lon="12.8248585">
    <tag k="power" v="tower"/>
    <tag k="ref" v="343"/>
  </node>
  <node id="81817993" version="4" timestamp="2009-09-25T16:57:17Z" uid="36809" user="pfoten_weg_!_" changeset="2623140" lat="52.4593623" lon="12.8255623">
    <tag k="power" v="tower"/>
    <tag k="ref" v="344"/>
  </node>
  <node id="81817995" version="4" timestamp="2009-09-25T16:57:17Z" uid="36809" user="pfoten_weg_!_" changeset="2623140" lat="52.4621863" lon="12.8262918">
    <tag k="power" v="tower"/>
    <tag k="ref" v="345"/>
  </node>
  <node id="81817996" version="4" timestamp="2009-09-25T16:57:17Z" uid="36809" user="pfoten_weg_!_" changeset="2623140" lat="52.4652194" lon="12.8270987">
    <tag k="power" v="tower"/>
    <tag k="ref" v="346"/>
  </node>
  <node id="81817997" version="4" timestamp="2009-09-25T16:57:16Z" uid="36809" user="pfoten_weg_!_" changeset="2623140" lat="52.4679855" lon="12.8276737">
    <tag k="power" v="tower"/>
    <tag k="ref" v="347"/>
  </node>
  <node id="81817999" version="4" timestamp="2009-09-25T16:57:16Z" uid="36809" user="pfoten_weg_!_" changeset="2623140" lat="52.4709188" lon="12.8284462">
    <tag k="power" v="tower"/>
    <tag k="ref" v="348"/>
  </node>
  <node id="81818000" version="4" timestamp="2009-09-25T16:56:29Z" uid="36809" user="pfoten_weg_!_" changeset="2623140" lat="52.4733918" lon="12.8290728">
    <tag k="power" v="tower"/>
    <tag k="ref" v="349"/>
  </node>
  <node id="81818002" version="4" timestamp="2009-09-25T16:56:30Z" uid="36809" user="pfoten_weg_!_" changeset="2623140" lat="52.4765913" lon="12.8299311">
    <tag k="power" v="tower"/>
    <tag k="ref" v="350"/>
  </node>
  <node id="81818003" version="4" timestamp="2009-09-25T16:56:29Z" uid="36809" user="pfoten_weg_!_" changeset="2623140" lat="52.4797436" lon="12.830755">
    <tag k="power" v="tower"/>
    <tag k="ref" v="351"/>
  </node>
  <node id="81818004" version="4" timestamp="2009-09-25T16:56:28Z" uid="36809" user="pfoten_weg_!_" changeset="2623140" lat="52.4822475" lon="12.8313129">
    <tag k="power" v="tower"/>
    <tag k="ref" v="352"/>
  </node>
  <node id="81818005" version="4" timestamp="2009-09-25T16:56:28Z" uid="36809" user="pfoten_weg_!_" changeset="2623140" lat="52.4849551" lon="12.8319996">
    <tag k="power" v="tower"/>
    <tag k="ref" v="353"/>
  </node>
  <node id="81818006" version="4" timestamp="2009-09-25T16:56:29Z" uid="36809" user="pfoten_weg_!_" changeset="2623140" lat="52.4871189" lon="12.8348663">
    <tag k="power" v="tower"/>
    <tag k="ref" v="354"/>
  </node>
  <node id="81818008" version="4" timestamp="2009-09-25T16:56:27Z" uid="36809" user="pfoten_weg_!_" changeset="2623140" lat="52.4893558" lon="12.8376043">
    <tag k="power" v="tower"/>
    <tag k="ref" v="355"/>
  </node>
  <node id="81818009" version="4" timestamp="2009-09-25T16:56:28Z" uid="36809" user="pfoten_weg_!_" changeset="2623140" lat="52.4919794" lon="12.8412006">
    <tag k="power" v="tower"/>
    <tag k="ref" v="356"/>
  </node>
  <node id="81818011" version="4" timestamp="2009-09-25T16:56:27Z" uid="36809" user="pfoten_weg_!_" changeset="2623140" lat="52.4944251" lon="12.8440159">
    <tag k="power" v="tower"/>
    <tag k="ref" v="357"/>
  </node>
  <node id="81818012" version="4" timestamp="2009-09-25T16:56:26Z" uid="36809" user="pfoten_weg_!_" changeset="2623140" lat="52.4969438" lon="12.8471058">
    <tag k="power" v="tower"/>
    <tag k="ref" v="358"/>
  </node>
  <node id="81818013" version="4" timestamp="2009-09-25T16:56:26Z" uid="36809" user="pfoten_weg_!_" changeset="2623140" lat="52.4990496" lon="12.8498867">
    <tag k="power" v="tower"/>
    <tag k="ref" v="359"/>
  </node>
  <node id="81818015" version="4" timestamp="2009-09-25T16:56:25Z" uid="36809" user="pfoten_weg_!_" changeset="2623140" lat="52.5011135" lon="12.8524616">
    <tag k="power" v="tower"/>
    <tag k="ref" v="360"/>
  </node>
  <node id="81818016" version="4" timestamp="2009-09-25T16:56:24Z" uid="36809" user="pfoten_weg_!_" changeset="2623140" lat="52.5034646" lon="12.8555172">
    <tag k="power" v="tower"/>
    <tag k="ref" v="361"/>
  </node>
  <node id="81818017" version="4" timestamp="2009-09-25T16:56:24Z" uid="36809" user="pfoten_weg_!_" changeset="2623140" lat="52.5057895" lon="12.8584698">
    <tag k="power" v="tower"/>
    <tag k="ref" v="362"/>
  </node>
  <node id="81818018" version="4" timestamp="2009-09-25T16:56:24Z" uid="36809" user="pfoten_weg_!_" changeset="2623140" lat="52.5079576" lon="12.8611563">
    <tag k="power" v="tower"/>
    <tag k="ref" v="363"/>
  </node>
  <node id="81818019" version="4" timestamp="2009-09-25T16:56:36Z" uid="36809" user="pfoten_weg_!_" changeset="2623140" lat="52.5104128" lon="12.8642033">
    <tag k="power" v="tower"/>
    <tag k="ref" v="364"/>
  </node>
  <node id="81818020" version="4" timestamp="2009-09-25T16:56:36Z" uid="36809" user="pfoten_weg_!_" changeset="2623140" lat="52.5128784" lon="12.8674648">
    <tag k="power" v="tower"/>
    <tag k="ref" v="365"/>
  </node>
  <node id="81818021" version="4" timestamp="2009-09-25T16:56:35Z" uid="36809" user="pfoten_weg_!_" changeset="2623140" lat="52.5154013" lon="12.8705977">
    <tag k="power" v="tower"/>
    <tag k="ref" v="366"/>
  </node>
  <node id="81818024" version="4" timestamp="2009-09-25T16:56:33Z" uid="36809" user="pfoten_weg_!_" changeset="2623140" lat="52.5178195" lon="12.8736876">
    <tag k="power" v="tower"/>
    <tag k="ref" v="367"/>
  </node>
  <node id="81818025" version="4" timestamp="2009-09-25T16:56:32Z" uid="36809" user="pfoten_weg_!_" changeset="2623140" lat="52.5199191" lon="12.8772066">
    <tag k="power" v="tower"/>
    <tag k="ref" v="368"/>
  </node>
  <node id="81818026" version="4" timestamp="2009-09-25T16:56:34Z" uid="36809" user="pfoten_weg_!_" changeset="2623140" lat="52.5221752" lon="12.8808544">
    <tag k="power" v="tower"/>
    <tag k="ref" v="369"/>
  </node>
  <node id="81818027" version="4" timestamp="2009-09-25T16:56:33Z" uid="36809" user="pfoten_weg_!_" changeset="2623140" lat="52.524473" lon="12.8844421">
    <tag k="power" v="tower"/>
    <tag k="ref" v="370"/>
  </node>
  <node id="81818028" version="4" timestamp="2009-09-25T16:56:35Z" uid="36809" user="pfoten_weg_!_" changeset="2623140" lat="52.5266036" lon="12.8878925">
    <tag k="power" v="tower"/>
    <tag k="ref" v="371"/>
  </node>
  <node id="81818029" version="4" timestamp="2009-09-25T16:56:35Z" uid="36809" user="pfoten_weg_!_" changeset="2623140" lat="52.5287184" lon="12.8912571">
    <tag k="power" v="tower"/>
    <tag k="ref" v="372"/>
  </node>
  <node id="81818030" version="4" timestamp="2009-09-25T16:56:32Z" uid="36809" user="pfoten_weg_!_" changeset="2623140" lat="52.5309115" lon="12.894862">
    <tag k="power" v="tower"/>
    <tag k="ref" v="373"/>
  </node>
  <node id="81818031" version="4" timestamp="2009-09-25T16:56:32Z" uid="36809" user="pfoten_weg_!_" changeset="2623140" lat="52.5331044" lon="12.8985184">
    <tag k="power" v="tower"/>
    <tag k="ref" v="374"/>
  </node>
  <node id="81818032" version="4" timestamp="2009-09-25T16:56:31Z" uid="36809" user="pfoten_weg_!_" changeset="2623140" lat="52.5353233" lon="12.9022091">
    <tag k="power" v="tower"/>
    <tag k="ref" v="375"/>
  </node>
  <node id="81818033" version="4" timestamp="2009-09-25T16:56:31Z" uid="36809" user="pfoten_weg_!_" changeset="2623140" lat="52.5374533" lon="12.9056166">
    <tag k="power" v="tower"/>
    <tag k="ref" v="376"/>
  </node>
</osm>
