<?xml version='1.0' encoding='UTF-8'?>
<osm version="0.6" generator="libosmium/2.20.0">
  <node id="824833595" version="1" timestamp="2010-07-19T17:52:02Z" uid="115477" user="wowik" changeset="5263458" lat="57.5636225" lon="37.4128253">
    <tag k="name" v="Трясцино"/>
    <tag k="place" v="hamlet"/>
    <tag k="source" v="Менге"/>
  </node>
  <node id="824833595" version="2" timestamp="2010-11-22T15:38:48Z" uid="115477" user="wowik" changeset="6432391" lat="57.5636225" lon="37.4128253">
    <tag k="name" v="Трясцино"/>
    <tag k="place" v="hamlet"/>
    <tag k="source" v="Менде"/>
  </node>
  <node id="824833609" version="1" timestamp="2010-07-19T17:52:02Z" uid="115477" user="wowik" changeset="5263458" lat="57.5691465" lon="37.4074179">
    <tag k="name" v="Вакорино"/>
    <tag k="place" v="hamlet"/>
    <tag k="source" v="Менге"/>
  </node>
  <node id="824833609" version="2" timestamp="2010-11-22T15:38:34Z" uid="115477" user="wowik" changeset="6432391" lat="57.5691465" lon="37.4074179">
    <tag k="name" v="Вакорино"/>
    <tag k="place" v="hamlet"/>
    <tag k="source" v="Менде"/>
  </node>
  <node id="824833617" version="1" timestamp="2010-07-19T17:52:02Z" uid="115477" user="wowik" changeset="5263458" lat="57.56841" lon="37.4359996">
    <tag k="name" v="Березовец"/>
    <tag k="old_name" v="Ново Покровское"/>
    <tag k="place" v="hamlet"/>
    <tag k="source" v="Менге"/>
  </node>
  <node id="824833617" version="2" timestamp="2010-11-22T15:39:16Z" uid="115477" user="wowik" changeset="6432391" lat="57.56841" lon="37.4359996">
    <tag k="name" v="Березовец"/>
    <tag k="old_name" v="Ново Покровское"/>
    <tag k="place" v="hamlet"/>
    <tag k="source" v="Менде"/>
  </node>
  <node id="824836948" version="1" timestamp="2010-07-19T17:55:51Z" uid="115477" user="wowik" changeset="5263458" lat="57.5790415" lon="37.3801238">
    <tag k="name" v="Кошелево"/>
    <tag k="place" v="hamlet"/>
    <tag k="source" v="Менге"/>
  </node>
  <node id="824836948" version="2" timestamp="2010-11-22T15:38:59Z" uid="115477" user="wowik" changeset="6432391" lat="57.5790415" lon="37.3801238">
    <tag k="name" v="Кошелево"/>
    <tag k="place" v="hamlet"/>
    <tag k="source" v="Менде"/>
  </node>
  <node id="824836948" version="3" timestamp="2011-02-07T15:24:03Z" uid="115477" user="wowik" changeset="7217198" lat="57.5800153" lon="37.3788998">
    <tag k="name" v="Кошелево"/>
    <tag k="place" v="hamlet"/>
    <tag k="source" v="Менде"/>
  </node>
  <node id="824836949" version="1" timestamp="2010-07-19T17:55:51Z" uid="115477" user="wowik" changeset="5263458" lat="57.5657862" lon="37.3690516">
    <tag k="name" v="Коченово"/>
    <tag k="place" v="hamlet"/>
    <tag k="source" v="Менге"/>
  </node>
  <node id="824836949" version="2" timestamp="2010-11-22T15:38:54Z" uid="115477" user="wowik" changeset="6432391" lat="57.5657862" lon="37.3690516">
    <tag k="name" v="Коченово"/>
    <tag k="place" v="hamlet"/>
    <tag k="source" v="Менде"/>
  </node>
  <node id="824837160" version="2" timestamp="2010-07-28T20:30:33Z" uid="74617" user="JohnSmith" changeset="5341853" lat="46.0758944" lon="-122.2080423">
    <tag k="emergency" v="phone"/>
    <tag k="source" v="local_knowledge"/>
  </node>
  <node id="824837160" version="3" timestamp="2010-07-29T08:19:11Z" uid="74617" user="JohnSmith" changeset="5344518" lat="46.0758944" lon="-122.2080423">
    <tag k="amenity" v="emergency_phone"/>
    <tag k="emergency" v="phone"/>
    <tag k="source" v="local_knowledge"/>
  </node>
</osm>
