<?xml version='1.0' encoding='UTF-8'?>
<osm version="0.6" generator="libosmium/2.20.0">
  <node id="834370136" version="1" timestamp="2010-07-26T18:30:05Z" uid="59758" user="rendle" changeset="5323208" lat="51.1008089" lon="3.9997356">
    <tag k="addr:housenumber" v="79"/>
    <tag k="amenity" v="restaurant"/>
    <tag k="cuisine" v="greek"/>
    <tag k="name" v="Athene"/>
  </node>
  <node id="834371964" version="1" timestamp="2010-07-26T18:31:10Z" uid="59758" user="rendle" changeset="5323208" lat="51.0973931" lon="4.0062879">
    <tag k="amenity" v="bank"/>
    <tag k="name" v="KBC"/>
    <tag k="operator" v="KBC"/>
  </node>
  <node id="834373610" version="1" timestamp="2010-07-26T18:31:54Z" uid="59758" user="rendle" changeset="5323208" lat="51.0976423" lon="4.0067844">
    <tag k="amenity" v="restaurant"/>
    <tag k="name" v="De markies"/>
  </node>
  <node id="834373610" version="2" timestamp="2010-08-13T18:08:17Z" uid="59758" user="rendle" changeset="5484290" lat="51.0978894" lon="4.0071306">
    <tag k="amenity" v="restaurant"/>
    <tag k="name" v="De markies"/>
  </node>
  <node id="834374037" version="1" timestamp="2010-07-26T18:32:04Z" uid="59758" user="rendle" changeset="5323208" lat="51.1029513" lon="4.0004622">
    <tag k="addr:housenumber" v="136"/>
  </node>
  <node id="834377598" version="1" timestamp="2010-07-26T18:33:31Z" uid="59758" user="rendle" changeset="5323208" lat="51.1023416" lon="3.9944546">
    <tag k="addr:housenumber" v="1"/>
    <tag k="amenity" v="pharmacy"/>
  </node>
  <node id="834377598" version="2" timestamp="2010-07-31T08:57:08Z" uid="59758" user="rendle" changeset="5360847" lat="51.1023558" lon="3.9943911">
    <tag k="addr:housenumber" v="1"/>
    <tag k="amenity" v="pharmacy"/>
  </node>
  <node id="834378832" version="1" timestamp="2010-07-26T18:33:56Z" uid="59758" user="rendle" changeset="5323208" lat="51.1022877" lon="3.9940745">
    <tag k="addr:housenumber" v="2"/>
    <tag k="amenity" v="fast_food"/>
    <tag k="name" v="Pitza"/>
  </node>
  <node id="834378832" version="2" timestamp="2010-07-31T08:57:04Z" uid="59758" user="rendle" changeset="5360847" lat="51.1022918" lon="3.9940102">
    <tag k="addr:housenumber" v="2"/>
    <tag k="amenity" v="fast_food"/>
    <tag k="name" v="Pitza"/>
  </node>
</osm>
