<?xml version='1.0' encoding='UTF-8'?>
<osm version="0.6" generator="libosmium/2.20.0">
  <node id="838574990" version="1" timestamp="2010-07-30T11:16:30Z" uid="18775" user="drlizau" changeset="5353796" lat="-32.72008" lon="148.1889423">
    <tag k="amenity" v="fuel"/>
    <tag k="fuel:octane_91" v="yes"/>
    <tag k="name" v="Koala Petroleum"/>
    <tag k="operator" v="Koala Petroleum"/>
  </node>
  <node id="838574995" version="1" timestamp="2010-07-30T11:16:30Z" uid="18775" user="drlizau" changeset="5353796" lat="-32.7267352" lon="148.1916579">
    <tag k="amenity" v="fuel"/>
    <tag k="fuel:diesel" v="yes"/>
    <tag k="fuel:octane_91" v="yes"/>
    <tag k="name" v="APS Discount Fuel"/>
    <tag k="operator" v="APS Fuel"/>
    <tag k="shop" v="kiosk"/>
  </node>
  <node id="838574997" version="1" timestamp="2010-07-30T11:16:30Z" uid="18775" user="drlizau" changeset="5353796" lat="-32.7238538" lon="148.1906392">
    <tag k="name" v="Open Cut Gallery"/>
    <tag k="shop" v="art"/>
    <tag k="tourism" v="information"/>
  </node>
  <node id="838575006" version="1" timestamp="2010-07-30T11:16:31Z" uid="18775" user="drlizau" changeset="5353796" lat="-32.7245805" lon="148.190823">
    <tag k="government" v="Centrelink Agency"/>
    <tag k="office" v="government"/>
  </node>
  <node id="838575010" version="1" timestamp="2010-07-30T11:16:31Z" uid="18775" user="drlizau" changeset="5353796" lat="-32.7247242" lon="148.1909084">
    <tag k="name" v="Peak Hill Newsagency"/>
    <tag k="shop" v="newsagent"/>
  </node>
  <node id="838575012" version="1" timestamp="2010-07-30T11:16:31Z" uid="18775" user="drlizau" changeset="5353796" lat="-32.7230884" lon="148.1903145">
    <tag k="amenity" v="public_building"/>
    <tag k="name" v="A.I.F. Memorial School of Arts"/>
  </node>
  <node id="838575016" version="1" timestamp="2010-07-30T11:16:31Z" uid="18775" user="drlizau" changeset="5353796" lat="-32.7256176" lon="148.1912204">
    <tag k="highway" v="bus_stop"/>
  </node>
  <node id="838575021" version="1" timestamp="2010-07-30T11:16:31Z" uid="18775" user="drlizau" changeset="5353796" lat="-32.7255218" lon="148.191192">
    <tag k="amenity" v="toilets"/>
  </node>
</osm>
