<?xml version='1.0' encoding='UTF-8'?>
<osm version="0.6" generator="libosmium/2.20.0">
  <node id="84540160" version="6" timestamp="2008-07-05T17:46:56Z" uid="6975" user="ulfl" changeset="398437" lat="43.4149834" lon="-79.9688473">
    <tag k="landuse" v="Golf Club"/>
    <tag k="leisure" v="golf_course"/>
    <tag k="name" v="Carlisle Golf and Country Club"/>
    <tag k="sport" v="golf"/>
  </node>
  <node id="84540160" version="7" timestamp="2008-07-05T18:17:35Z" uid="6975" user="ulfl" changeset="398437" lat="43.4149834" lon="-79.9688473">
    <tag k="leisure" v="golf_course"/>
    <tag k="name" v="Carlisle Golf and Country Club"/>
    <tag k="sport" v="golf"/>
  </node>
  <node id="84540161" version="6" timestamp="2008-07-05T17:46:56Z" uid="6975" user="ulfl" changeset="398437" lat="43.4062168" lon="-79.9641867">
    <tag k="landuse" v="Golf Club"/>
    <tag k="leisure" v="golf_course"/>
    <tag k="name" v="Carlisle Golf and Country Club"/>
    <tag k="sport" v="golf"/>
  </node>
  <node id="84540161" version="7" timestamp="2008-07-05T18:17:35Z" uid="6975" user="ulfl" changeset="398437" lat="43.4062168" lon="-79.9641867">
    <tag k="leisure" v="golf_course"/>
    <tag k="name" v="Carlisle Golf and Country Club"/>
    <tag k="sport" v="golf"/>
  </node>
  <node id="84540778" version="6" timestamp="2008-07-03T18:22:47Z" uid="6975" user="ulfl" changeset="379368" lat="48.2009075" lon="16.3922841">
    <tag k="amenity" v="bank"/>
    <tag k="atm" v="yes"/>
    <tag k="name" v="Bank Austria"/>
  </node>
  <node id="84540786" version="5" timestamp="2008-07-05T17:46:59Z" uid="6975" user="ulfl" changeset="398437" lat="43.413805" lon="-79.9684869">
    <tag k="landuse" v="Golf Club"/>
    <tag k="leisure" v="golf_course"/>
    <tag k="name" v="Carlisle Golf and Country Club"/>
    <tag k="sport" v="golf"/>
  </node>
  <node id="84540786" version="6" timestamp="2008-07-05T18:17:36Z" uid="6975" user="ulfl" changeset="398437" lat="43.413805" lon="-79.9684869">
    <tag k="leisure" v="golf_course"/>
    <tag k="name" v="Carlisle Golf and Country Club"/>
    <tag k="sport" v="golf"/>
  </node>
  <node id="84540787" version="5" timestamp="2008-07-05T17:46:59Z" uid="6975" user="ulfl" changeset="398437" lat="43.4080001" lon="-79.9629851">
    <tag k="landuse" v="Golf Club"/>
    <tag k="leisure" v="golf_course"/>
    <tag k="name" v="Carlisle Golf and Country Club"/>
    <tag k="sport" v="golf"/>
  </node>
  <node id="84540787" version="6" timestamp="2008-07-05T18:17:36Z" uid="6975" user="ulfl" changeset="398437" lat="43.4080001" lon="-79.9629851">
    <tag k="leisure" v="golf_course"/>
    <tag k="name" v="Carlisle Golf and Country Club"/>
    <tag k="sport" v="golf"/>
  </node>
  <node id="84540788" version="5" timestamp="2008-07-05T17:46:59Z" uid="6975" user="ulfl" changeset="398437" lat="43.4092472" lon="-79.9618436">
    <tag k="landuse" v="Golf Club"/>
    <tag k="leisure" v="golf_course"/>
    <tag k="name" v="Carlisle Golf and Country Club"/>
    <tag k="sport" v="golf"/>
  </node>
  <node id="84540788" version="6" timestamp="2008-07-05T18:17:36Z" uid="6975" user="ulfl" changeset="398437" lat="43.4092472" lon="-79.9618436">
    <tag k="leisure" v="golf_course"/>
    <tag k="name" v="Carlisle Golf and Country Club"/>
    <tag k="sport" v="golf"/>
  </node>
  <node id="84540789" version="5" timestamp="2008-07-05T17:46:59Z" uid="6975" user="ulfl" changeset="398437" lat="43.4111177" lon="-79.9588223">
    <tag k="landuse" v="Golf Club"/>
    <tag k="leisure" v="golf_course"/>
    <tag k="name" v="Carlisle Golf and Country Club"/>
    <tag k="sport" v="golf"/>
  </node>
  <node id="84540789" version="6" timestamp="2008-07-05T18:17:36Z" uid="6975" user="ulfl" changeset="398437" lat="43.4111177" lon="-79.9588223">
    <tag k="leisure" v="golf_course"/>
    <tag k="name" v="Carlisle Golf and Country Club"/>
    <tag k="sport" v="golf"/>
  </node>
  <node id="84540790" version="5" timestamp="2008-07-05T17:46:59Z" uid="6975" user="ulfl" changeset="398437" lat="43.4135743" lon="-79.9567624">
    <tag k="landuse" v="Golf Club"/>
    <tag k="leisure" v="golf_course"/>
    <tag k="name" v="Carlisle Golf and Country Club"/>
    <tag k="sport" v="golf"/>
  </node>
  <node id="84540790" version="6" timestamp="2008-07-05T18:17:36Z" uid="6975" user="ulfl" changeset="398437" lat="43.4135743" lon="-79.9567624">
    <tag k="leisure" v="golf_course"/>
    <tag k="name" v="Carlisle Golf and Country Club"/>
    <tag k="sport" v="golf"/>
  </node>
  <node id="84540791" version="5" timestamp="2008-07-05T17:46:58Z" uid="6975" user="ulfl" changeset="398437" lat="43.41686" lon="-79.9613629">
    <tag k="landuse" v="Golf Club"/>
    <tag k="leisure" v="golf_course"/>
    <tag k="name" v="Carlisle Golf and Country Club"/>
    <tag k="sport" v="golf"/>
  </node>
  <node id="84540791" version="6" timestamp="2008-07-05T18:17:35Z" uid="6975" user="ulfl" changeset="398437" lat="43.41686" lon="-79.9613629">
    <tag k="leisure" v="golf_course"/>
    <tag k="name" v="Carlisle Golf and Country Club"/>
    <tag k="sport" v="golf"/>
  </node>
  <node id="84540792" version="5" timestamp="2008-07-05T17:46:58Z" uid="6975" user="ulfl" changeset="398437" lat="43.4148337" lon="-79.9640237">
    <tag k="landuse" v="Golf Club"/>
    <tag k="leisure" v="golf_course"/>
    <tag k="name" v="Carlisle Golf and Country Club"/>
    <tag k="sport" v="golf"/>
  </node>
  <node id="84540792" version="6" timestamp="2008-07-05T18:17:35Z" uid="6975" user="ulfl" changeset="398437" lat="43.4148337" lon="-79.9640237">
    <tag k="leisure" v="golf_course"/>
    <tag k="name" v="Carlisle Golf and Country Club"/>
    <tag k="sport" v="golf"/>
  </node>
  <node id="84540962" version="10" timestamp="2008-07-05T17:47:01Z" uid="6975" user="ulfl" changeset="398437" lat="43.4158188" lon="-79.9734307">
    <tag k="landuse" v="Golf Club"/>
    <tag k="leisure" v="golf_course"/>
    <tag k="name" v="Carlisle Golf and Country Club"/>
    <tag k="sport" v="golf"/>
  </node>
  <node id="84540962" version="11" timestamp="2008-07-05T18:17:38Z" uid="6975" user="ulfl" changeset="398437" lat="43.4158188" lon="-79.9734307">
    <tag k="leisure" v="golf_course"/>
    <tag k="name" v="Carlisle Golf and Country Club"/>
    <tag k="sport" v="golf"/>
  </node>
  <node id="84540964" version="7" timestamp="2008-07-05T17:47:01Z" uid="6975" user="ulfl" changeset="398437" lat="43.4138861" lon="-79.9707699">
    <tag k="landuse" v="Golf Club"/>
    <tag k="leisure" v="golf_course"/>
    <tag k="name" v="Carlisle Golf and Country Club"/>
    <tag k="sport" v="golf"/>
  </node>
  <node id="84540964" version="8" timestamp="2008-07-05T18:17:38Z" uid="6975" user="ulfl" changeset="398437" lat="43.4138861" lon="-79.9707699">
    <tag k="leisure" v="golf_course"/>
    <tag k="name" v="Carlisle Golf and Country Club"/>
    <tag k="sport" v="golf"/>
  </node>
  <node id="84540965" version="7" timestamp="2008-07-05T17:47:01Z" uid="6975" user="ulfl" changeset="398437" lat="43.4170782" lon="-79.9717828">
    <tag k="landuse" v="Golf Club"/>
    <tag k="leisure" v="golf_course"/>
    <tag k="name" v="Carlisle Golf and Country Club"/>
    <tag k="sport" v="golf"/>
  </node>
  <node id="84540965" version="8" timestamp="2008-07-05T18:17:38Z" uid="6975" user="ulfl" changeset="398437" lat="43.4170782" lon="-79.9717828">
    <tag k="leisure" v="golf_course"/>
    <tag k="name" v="Carlisle Golf and Country Club"/>
    <tag k="sport" v="golf"/>
  </node>
  <node id="84540966" version="7" timestamp="2008-07-05T17:47:01Z" uid="6975" user="ulfl" changeset="398437" lat="43.4168163" lon="-79.9722977">
    <tag k="landuse" v="Golf Club"/>
    <tag k="leisure" v="golf_course"/>
    <tag k="name" v="Carlisle Golf and Country Club"/>
    <tag k="sport" v="golf"/>
  </node>
  <node id="84540966" version="8" timestamp="2008-07-05T18:17:38Z" uid="6975" user="ulfl" changeset="398437" lat="43.4168163" lon="-79.9722977">
    <tag k="leisure" v="golf_course"/>
    <tag k="name" v="Carlisle Golf and Country Club"/>
    <tag k="sport" v="golf"/>
  </node>
  <node id="84541001" version="7" timestamp="2008-07-03T18:22:50Z" uid="6975" user="ulfl" changeset="379368" lat="48.2017849" lon="16.3911331">
    <tag k="amenity" v="bank"/>
    <tag k="atm" v="yes"/>
    <tag k="name" v="Bawag"/>
  </node>
  <node id="84542068" version="2" timestamp="2007-11-19T20:21:17Z" uid="8328" user="benpre" changeset="568748" lat="48.7264117" lon="8.9845324"/>
  <node id="84542515" version="5" timestamp="2008-07-05T17:46:57Z" uid="6975" user="ulfl" changeset="398437" lat="43.413618" lon="-79.9687958">
    <tag k="landuse" v="Golf Club"/>
    <tag k="leisure" v="golf_course"/>
    <tag k="name" v="Carlisle Golf and Country Club"/>
    <tag k="sport" v="golf"/>
  </node>
  <node id="84542515" version="6" timestamp="2008-07-05T18:17:37Z" uid="6975" user="ulfl" changeset="398437" lat="43.413618" lon="-79.9687958">
    <tag k="leisure" v="golf_course"/>
    <tag k="name" v="Carlisle Golf and Country Club"/>
    <tag k="sport" v="golf"/>
  </node>
  <node id="84542516" version="5" timestamp="2008-07-05T17:46:56Z" uid="6975" user="ulfl" changeset="398437" lat="43.4146654" lon="-79.9692078">
    <tag k="landuse" v="Golf Club"/>
    <tag k="leisure" v="golf_course"/>
    <tag k="name" v="Carlisle Golf and Country Club"/>
    <tag k="sport" v="golf"/>
  </node>
  <node id="84542516" version="6" timestamp="2008-07-05T18:17:37Z" uid="6975" user="ulfl" changeset="398437" lat="43.4146654" lon="-79.9692078">
    <tag k="leisure" v="golf_course"/>
    <tag k="name" v="Carlisle Golf and Country Club"/>
    <tag k="sport" v="golf"/>
  </node>
  <node id="84542517" version="5" timestamp="2008-07-05T17:46:55Z" uid="6975" user="ulfl" changeset="398437" lat="43.4153512" lon="-79.9693108">
    <tag k="landuse" v="Golf Club"/>
    <tag k="leisure" v="golf_course"/>
    <tag k="name" v="Carlisle Golf and Country Club"/>
    <tag k="sport" v="golf"/>
  </node>
  <node id="84542517" version="6" timestamp="2008-07-05T18:17:37Z" uid="6975" user="ulfl" changeset="398437" lat="43.4153512" lon="-79.9693108">
    <tag k="leisure" v="golf_course"/>
    <tag k="name" v="Carlisle Golf and Country Club"/>
    <tag k="sport" v="golf"/>
  </node>
  <node id="84542518" version="5" timestamp="2008-07-05T17:46:56Z" uid="6975" user="ulfl" changeset="398437" lat="43.4162989" lon="-79.9693108">
    <tag k="landuse" v="Golf Club"/>
    <tag k="leisure" v="golf_course"/>
    <tag k="name" v="Carlisle Golf and Country Club"/>
    <tag k="sport" v="golf"/>
  </node>
  <node id="84542518" version="6" timestamp="2008-07-05T18:17:37Z" uid="6975" user="ulfl" changeset="398437" lat="43.4162989" lon="-79.9693108">
    <tag k="leisure" v="golf_course"/>
    <tag k="name" v="Carlisle Golf and Country Club"/>
    <tag k="sport" v="golf"/>
  </node>
  <node id="84542519" version="5" timestamp="2008-07-05T17:46:56Z" uid="6975" user="ulfl" changeset="398437" lat="43.4162116" lon="-79.9701691">
    <tag k="landuse" v="Golf Club"/>
    <tag k="leisure" v="golf_course"/>
    <tag k="name" v="Carlisle Golf and Country Club"/>
    <tag k="sport" v="golf"/>
  </node>
  <node id="84542519" version="6" timestamp="2008-07-05T18:17:37Z" uid="6975" user="ulfl" changeset="398437" lat="43.4162116" lon="-79.9701691">
    <tag k="leisure" v="golf_course"/>
    <tag k="name" v="Carlisle Golf and Country Club"/>
    <tag k="sport" v="golf"/>
  </node>
  <node id="84542520" version="5" timestamp="2008-07-05T17:46:57Z" uid="6975" user="ulfl" changeset="398437" lat="43.4163924" lon="-79.9713965">
    <tag k="landuse" v="Golf Club"/>
    <tag k="leisure" v="golf_course"/>
    <tag k="name" v="Carlisle Golf and Country Club"/>
    <tag k="sport" v="golf"/>
  </node>
  <node id="84542520" version="6" timestamp="2008-07-05T18:17:38Z" uid="6975" user="ulfl" changeset="398437" lat="43.4163924" lon="-79.9713965">
    <tag k="leisure" v="golf_course"/>
    <tag k="name" v="Carlisle Golf and Country Club"/>
    <tag k="sport" v="golf"/>
  </node>
  <node id="84542521" version="5" timestamp="2008-07-05T17:46:57Z" uid="6975" user="ulfl" changeset="398437" lat="43.4171717" lon="-79.9714995">
    <tag k="landuse" v="Golf Club"/>
    <tag k="leisure" v="golf_course"/>
    <tag k="name" v="Carlisle Golf and Country Club"/>
    <tag k="sport" v="golf"/>
  </node>
  <node id="84542521" version="6" timestamp="2008-07-05T18:17:38Z" uid="6975" user="ulfl" changeset="398437" lat="43.4171717" lon="-79.9714995">
    <tag k="leisure" v="golf_course"/>
    <tag k="name" v="Carlisle Golf and Country Club"/>
    <tag k="sport" v="golf"/>
  </node>
  <node id="84546043" version="4" timestamp="2009-01-02T14:36:06Z" uid="58091" user="Andreas M" changeset="708469" lat="48.2110939" lon="16.3870703"/>
  <node id="84546985" version="3" timestamp="2008-12-08T11:43:34Z" uid="58091" user="Andreas M" changeset="255397" lat="48.2110452" lon="16.3869377"/>
  <node id="84546986" version="2" timestamp="2009-01-02T14:36:09Z" uid="58091" user="Andreas M" changeset="708469" lat="48.2095875" lon="16.3869208"/>
  <node id="84546986" version="3" timestamp="2009-01-02T18:13:39Z" uid="58091" user="Andreas M" changeset="709307" lat="48.2095875" lon="16.3869208"/>
  <node id="84546988" version="2" timestamp="2009-01-02T18:13:39Z" uid="58091" user="Andreas M" changeset="709307" lat="48.208495" lon="16.386804"/>
  <node id="84546989" version="2" timestamp="2009-01-02T18:13:39Z" uid="58091" user="Andreas M" changeset="709307" lat="48.2081918" lon="16.3867611"/>
  <node id="84546990" version="4" timestamp="2009-01-02T18:13:30Z" uid="58091" user="Andreas M" changeset="709307" lat="48.2074606" lon="16.3867441">
    <tag k="name" v="Marxergasse"/>
    <tag k="railway" v="tram_stop"/>
  </node>
  <node id="84546991" version="2" timestamp="2009-01-02T18:13:40Z" uid="58091" user="Andreas M" changeset="709307" lat="48.2072995" lon="16.3867354"/>
  <node id="84546992" version="2" timestamp="2009-01-02T18:26:49Z" uid="58091" user="Andreas M" changeset="709307" lat="48.2064815" lon="16.3861689"/>
  <node id="84546994" version="7" timestamp="2009-01-02T18:26:41Z" uid="58091" user="Andreas M" changeset="709307" lat="48.2058426" lon="16.3856678">
    <tag k="name" v="Landstraße-Wien Mitte"/>
    <tag k="railway" v="tram_stop"/>
  </node>
  <node id="84546995" version="2" timestamp="2009-01-02T18:26:49Z" uid="58091" user="Andreas M" changeset="709307" lat="48.2047997" lon="16.384993"/>
  <node id="84546996" version="2" timestamp="2009-01-02T18:26:49Z" uid="58091" user="Andreas M" changeset="709307" lat="48.2046167" lon="16.3848557"/>
  <node id="84546997" version="2" timestamp="2009-01-02T18:26:49Z" uid="58091" user="Andreas M" changeset="709307" lat="48.2045023" lon="16.384787"/>
  <node id="84546998" version="2" timestamp="2009-01-02T18:26:49Z" uid="58091" user="Andreas M" changeset="709307" lat="48.2043993" lon="16.3847269"/>
  <node id="84546999" version="2" timestamp="2009-01-02T18:26:49Z" uid="58091" user="Andreas M" changeset="709307" lat="48.2038502" lon="16.3856196"/>
  <node id="84547000" version="2" timestamp="2009-01-02T18:26:50Z" uid="58091" user="Andreas M" changeset="709307" lat="48.2035756" lon="16.3864435"/>
  <node id="84547001" version="2" timestamp="2009-01-02T18:26:50Z" uid="58091" user="Andreas M" changeset="709307" lat="48.2034097" lon="16.3867697"/>
  <node id="84547002" version="2" timestamp="2009-01-02T18:26:50Z" uid="58091" user="Andreas M" changeset="709307" lat="48.2030378" lon="16.3871302"/>
  <node id="84547003" version="2" timestamp="2009-01-02T18:26:50Z" uid="58091" user="Andreas M" changeset="709307" lat="48.2026488" lon="16.3872504"/>
  <node id="84547004" version="4" timestamp="2009-01-02T18:26:50Z" uid="58091" user="Andreas M" changeset="709307" lat="48.2019338" lon="16.3873877">
    <tag k="name" v="Sechskrügelgasse"/>
    <tag k="railway" v="tram_stop"/>
  </node>
  <node id="84547005" version="2" timestamp="2009-01-02T18:26:50Z" uid="58091" user="Andreas M" changeset="709307" lat="48.2015676" lon="16.3873534"/>
  <node id="84547006" version="2" timestamp="2009-01-02T18:26:50Z" uid="58091" user="Andreas M" changeset="709307" lat="48.2007496" lon="16.3874735"/>
  <node id="84547007" version="2" timestamp="2009-01-02T18:26:51Z" uid="58091" user="Andreas M" changeset="709307" lat="48.1997255" lon="16.3875851"/>
  <node id="84547008" version="5" timestamp="2009-01-02T18:26:41Z" uid="58091" user="Andreas M" changeset="709307" lat="48.198992" lon="16.3874209">
    <tag k="name" v="Ungargasse/Neulinggasse"/>
    <tag k="railway" v="tram_stop"/>
  </node>
  <node id="84547009" version="2" timestamp="2009-01-02T18:26:48Z" uid="58091" user="Andreas M" changeset="709307" lat="48.1975115" lon="16.3873705"/>
  <node id="84547010" version="2" timestamp="2009-01-02T18:26:48Z" uid="58091" user="Andreas M" changeset="709307" lat="48.1970023" lon="16.3872675"/>
  <node id="84547011" version="2" timestamp="2009-01-02T18:26:48Z" uid="58091" user="Andreas M" changeset="709307" lat="48.1959954" lon="16.3868555"/>
  <node id="84547012" version="2" timestamp="2009-01-02T18:26:48Z" uid="58091" user="Andreas M" changeset="709307" lat="48.1952115" lon="16.3867611"/>
  <node id="84547162" version="2" timestamp="2007-11-19T20:21:16Z" uid="8328" user="benpre" changeset="568748" lat="48.7282518" lon="8.9854593"/>
  <node id="84548052" version="3" timestamp="2009-08-24T15:12:51Z" uid="74617" user="JohnSmith" changeset="2245510" lat="-26.3474056" lon="153.0649806"/>
  <node id="84548124" version="3" timestamp="2008-08-12T23:34:44Z" uid="6975" user="ulfl" changeset="223340" lat="48.0916029" lon="8.5548737">
    <tag k="created_by" v="JOSM"/>
  </node>
  <node id="84548126" version="3" timestamp="2008-08-12T23:34:44Z" uid="6975" user="ulfl" changeset="223340" lat="48.0915022" lon="8.5553732">
    <tag k="created_by" v="JOSM"/>
  </node>
  <node id="84548128" version="3" timestamp="2008-08-12T23:34:45Z" uid="6975" user="ulfl" changeset="223340" lat="48.0913931" lon="8.5556025">
    <tag k="created_by" v="JOSM"/>
  </node>
  <node id="84548129" version="3" timestamp="2008-08-12T23:34:45Z" uid="6975" user="ulfl" changeset="223340" lat="48.091248" lon="8.555875">
    <tag k="created_by" v="JOSM"/>
  </node>
  <node id="84548131" version="3" timestamp="2008-08-12T23:34:45Z" uid="6975" user="ulfl" changeset="223340" lat="48.0911072" lon="8.556139">
    <tag k="created_by" v="JOSM"/>
  </node>
  <node id="84548133" version="3" timestamp="2008-08-12T23:34:45Z" uid="6975" user="ulfl" changeset="223340" lat="48.0908803" lon="8.5563109">
    <tag k="created_by" v="JOSM"/>
  </node>
  <node id="84548135" version="3" timestamp="2008-08-12T23:34:46Z" uid="6975" user="ulfl" changeset="223340" lat="48.0906379" lon="8.5564528">
    <tag k="created_by" v="JOSM"/>
  </node>
  <node id="84548138" version="2" timestamp="2008-08-12T23:34:44Z" uid="6975" user="ulfl" changeset="223340" lat="48.0903845" lon="8.556536">
    <tag k="created_by" v="JOSM"/>
  </node>
  <node id="84548140" version="2" timestamp="2008-08-12T23:34:45Z" uid="6975" user="ulfl" changeset="223340" lat="48.0903435" lon="8.556667">
    <tag k="created_by" v="JOSM"/>
  </node>
  <node id="84548143" version="2" timestamp="2008-08-12T23:34:45Z" uid="6975" user="ulfl" changeset="223340" lat="48.0903026" lon="8.5568307">
    <tag k="created_by" v="JOSM"/>
  </node>
  <node id="84548145" version="2" timestamp="2008-08-12T23:34:46Z" uid="6975" user="ulfl" changeset="223340" lat="48.0902289" lon="8.5570599">
    <tag k="created_by" v="JOSM"/>
  </node>
  <node id="84548149" version="2" timestamp="2008-08-12T23:34:46Z" uid="6975" user="ulfl" changeset="223340" lat="48.0901717" lon="8.5573382">
    <tag k="created_by" v="JOSM"/>
  </node>
  <node id="84548151" version="2" timestamp="2008-08-12T23:34:46Z" uid="6975" user="ulfl" changeset="223340" lat="48.0901062" lon="8.5574937">
    <tag k="created_by" v="JOSM"/>
  </node>
  <node id="84548154" version="2" timestamp="2008-08-12T23:34:46Z" uid="6975" user="ulfl" changeset="223340" lat="48.0900571" lon="8.557772">
    <tag k="created_by" v="JOSM"/>
  </node>
  <node id="84548157" version="3" timestamp="2008-08-12T23:34:46Z" uid="6975" user="ulfl" changeset="223340" lat="48.0899694" lon="8.5580143">
    <tag k="created_by" v="JOSM"/>
  </node>
  <node id="84548160" version="3" timestamp="2008-08-12T23:34:44Z" uid="6975" user="ulfl" changeset="223340" lat="48.089881" lon="8.5582516">
    <tag k="created_by" v="JOSM"/>
  </node>
  <node id="84548162" version="3" timestamp="2008-08-12T23:34:44Z" uid="6975" user="ulfl" changeset="223340" lat="48.0897901" lon="8.5585045">
    <tag k="created_by" v="JOSM"/>
  </node>
  <node id="84548163" version="3" timestamp="2008-08-12T23:34:44Z" uid="6975" user="ulfl" changeset="223340" lat="48.0897286" lon="8.5586648">
    <tag k="created_by" v="JOSM"/>
  </node>
</osm>
