<?xml version='1.0' encoding='UTF-8'?>
<osm version="0.6" generator="libosmium/2.20.0">
  <node id="846326323" version="1" timestamp="2010-08-04T20:51:18Z" uid="6975" user="ulfl" changeset="5403157" lat="49.4386287" lon="11.084589">
    <tag k="addr:city" v="Nürnberg"/>
    <tag k="addr:housenumber" v="20"/>
    <tag k="addr:street" v="Kopernikusstraße"/>
    <tag k="shop" v="asia"/>
  </node>
  <node id="846326323" version="2" timestamp="2010-08-29T16:19:41Z" uid="6975" user="ulfl" changeset="5627643" lat="49.4386287" lon="11.084589">
    <tag k="addr:city" v="Nürnberg"/>
    <tag k="addr:housenumber" v="20"/>
    <tag k="addr:street" v="Kopernikusstraße"/>
    <tag k="name" v="Asia Giang"/>
    <tag k="shop" v="asia"/>
  </node>
  <node id="846326327" version="1" timestamp="2010-08-04T20:51:18Z" uid="6975" user="ulfl" changeset="5403157" lat="49.4380408" lon="11.0843961">
    <tag k="addr:city" v="Nürnberg"/>
    <tag k="addr:housenumber" v="50"/>
    <tag k="addr:street" v="Bulmannstraße"/>
  </node>
  <node id="846326330" version="1" timestamp="2010-08-04T20:51:19Z" uid="6975" user="ulfl" changeset="5403157" lat="49.4384055" lon="11.0861299">
    <tag k="addr:city" v="Nürnberg"/>
    <tag k="addr:housenumber" v="13"/>
    <tag k="addr:street" v="Anne-Frank-Straße"/>
  </node>
  <node id="846326335" version="1" timestamp="2010-08-04T20:51:19Z" uid="6975" user="ulfl" changeset="5403157" lat="49.4390236" lon="11.0859488">
    <tag k="addr:city" v="Nürnberg"/>
    <tag k="addr:housenumber" v="72"/>
    <tag k="addr:street" v="Hummelsteiner Weg"/>
  </node>
  <node id="846326339" version="1" timestamp="2010-08-04T20:51:19Z" uid="6975" user="ulfl" changeset="5403157" lat="49.4382079" lon="11.0864033">
    <tag k="addr:city" v="Nürnberg"/>
    <tag k="addr:housenumber" v="16"/>
    <tag k="addr:street" v="Anne-Frank-Straße"/>
  </node>
  <node id="846326345" version="1" timestamp="2010-08-04T20:51:19Z" uid="6975" user="ulfl" changeset="5403157" lat="49.4384447" lon="11.0841896">
    <tag k="addr:city" v="Nürnberg"/>
    <tag k="addr:housenumber" v="46"/>
    <tag k="addr:street" v="Bulmannstraße"/>
  </node>
  <node id="846326348" version="1" timestamp="2010-08-04T20:51:19Z" uid="6975" user="ulfl" changeset="5403157" lat="49.438871" lon="11.0844185">
    <tag k="addr:city" v="Nürnberg"/>
    <tag k="addr:housenumber" v="47"/>
    <tag k="addr:street" v="Bulmannstraße"/>
  </node>
  <node id="846326360" version="1" timestamp="2010-08-04T20:51:19Z" uid="6975" user="ulfl" changeset="5403157" lat="49.4392121" lon="11.0838261">
    <tag k="addr:city" v="Nürnberg"/>
    <tag k="addr:housenumber" v="38"/>
    <tag k="addr:street" v="Bulmannstraße"/>
  </node>
  <node id="846326367" version="1" timestamp="2010-08-04T20:51:19Z" uid="6975" user="ulfl" changeset="5403157" lat="49.4390236" lon="11.0858635">
    <tag k="addr:city" v="Nürnberg"/>
    <tag k="addr:housenumber" v="30"/>
    <tag k="addr:street" v="Kopernikusstraße"/>
  </node>
  <node id="846326374" version="1" timestamp="2010-08-04T20:51:19Z" uid="6975" user="ulfl" changeset="5403157" lat="49.4390828" lon="11.0843262">
    <tag k="shop" v="computer"/>
  </node>
  <node id="846326374" version="2" timestamp="2010-08-25T19:12:09Z" uid="6975" user="ulfl" changeset="5592723" lat="49.4390828" lon="11.0843262">
    <tag k="name" v="com.help"/>
    <tag k="shop" v="computer"/>
  </node>
  <node id="846326377" version="1" timestamp="2010-08-04T20:51:19Z" uid="6975" user="ulfl" changeset="5403157" lat="49.4383113" lon="11.0868398">
    <tag k="addr:city" v="Nürnberg"/>
    <tag k="addr:housenumber" v="20"/>
    <tag k="addr:street" v="Anne-Frank-Straße"/>
  </node>
  <node id="846326381" version="1" timestamp="2010-08-04T20:51:19Z" uid="6975" user="ulfl" changeset="5403157" lat="49.4386445" lon="11.0868927">
    <tag k="addr:city" v="Nürnberg"/>
    <tag k="addr:housenumber" v="19"/>
    <tag k="addr:street" v="Anne-Frank-Straße"/>
  </node>
  <node id="846326384" version="1" timestamp="2010-08-04T20:51:19Z" uid="6975" user="ulfl" changeset="5403157" lat="49.4381068" lon="11.0848386">
    <tag k="addr:city" v="Nürnberg"/>
    <tag k="addr:housenumber" v="1"/>
    <tag k="addr:street" v="Anne-Frank-Straße"/>
  </node>
  <node id="846326390" version="1" timestamp="2010-08-04T20:51:19Z" uid="6975" user="ulfl" changeset="5403157" lat="49.4388536" lon="11.0876119">
    <tag k="addr:city" v="Nürnberg"/>
    <tag k="addr:housenumber" v="25"/>
    <tag k="addr:street" v="Anne-Frank-Straße"/>
  </node>
  <node id="846326402" version="1" timestamp="2010-08-04T20:51:20Z" uid="6975" user="ulfl" changeset="5403157" lat="49.4388216" lon="11.0839922">
    <tag k="addr:city" v="Nürnberg"/>
    <tag k="addr:housenumber" v="44"/>
    <tag k="addr:street" v="Bulmannstraße"/>
  </node>
  <node id="846326402" version="2" timestamp="2010-08-29T16:19:41Z" uid="6975" user="ulfl" changeset="5627643" lat="49.4387587" lon="11.0840091">
    <tag k="addr:city" v="Nürnberg"/>
    <tag k="addr:housenumber" v="44"/>
    <tag k="addr:street" v="Bulmannstraße"/>
  </node>
  <node id="846326406" version="1" timestamp="2010-08-04T20:51:20Z" uid="6975" user="ulfl" changeset="5403157" lat="49.4379023" lon="11.0850614">
    <tag k="addr:city" v="Nürnberg"/>
    <tag k="addr:housenumber" v="2"/>
    <tag k="addr:street" v="Anne-Frank-Straße"/>
  </node>
  <node id="846326406" version="2" timestamp="2010-08-29T16:19:42Z" uid="6975" user="ulfl" changeset="5627643" lat="49.4378781" lon="11.0849719">
    <tag k="addr:city" v="Nürnberg"/>
    <tag k="addr:housenumber" v="2"/>
    <tag k="addr:street" v="Anne-Frank-Straße"/>
  </node>
  <node id="846326412" version="1" timestamp="2010-08-04T20:51:20Z" uid="6975" user="ulfl" changeset="5403157" lat="49.4389064" lon="11.0877934">
    <tag k="addr:city" v="Nürnberg"/>
    <tag k="addr:housenumber" v="27"/>
    <tag k="addr:street" v="Anne-Frank-Straße"/>
  </node>
  <node id="846326416" version="1" timestamp="2010-08-04T20:51:20Z" uid="6975" user="ulfl" changeset="5403157" lat="49.4386697" lon="11.0880967">
    <tag k="addr:city" v="Nürnberg"/>
    <tag k="addr:housenumber" v="32"/>
    <tag k="addr:street" v="Anne-Frank-Straße"/>
  </node>
</osm>
