<?xml version='1.0' encoding='UTF-8'?>
<osm version="0.6" generator="libosmium/2.20.0">
  <node id="849674702" version="4" timestamp="2010-11-13T10:45:55Z" uid="115477" user="wowik" changeset="6356871" lat="55.9700049" lon="37.1463402">
    <tag k="addr:city" v="Зеленоград"/>
    <tag k="addr:street" v="16-й Микрорайон"/>
    <tag k="name" v="Автосервис, 16-й Микрорайон"/>
    <tag k="shop" v="car_repair"/>
  </node>
  <node id="849674702" version="5" timestamp="2011-01-12T16:30:53Z" uid="115477" user="wowik" changeset="6948828" lat="55.9700049" lon="37.1463402">
    <tag k="addr:city" v="Зеленоград"/>
    <tag k="addr:street" v="16-й Микрорайон"/>
    <tag k="is_in" v="Russia"/>
    <tag k="name" v="Автосервис, 16-й Микрорайон"/>
    <tag k="shop" v="car_repair"/>
  </node>
  <node id="849676820" version="3" timestamp="2011-03-14T11:16:54Z" uid="115477" user="wowik" changeset="7555220" lat="55.9848503" lon="37.1430787">
    <tag k="addr:city" v="Анреевка"/>
    <tag k="addr:housenumber" v="33"/>
    <tag k="name" v="Автосервис &quot;Алан-Z&quot;"/>
    <tag k="shop" v="car_repair"/>
  </node>
</osm>
