<?xml version='1.0' encoding='UTF-8'?>
<osm version="0.6" generator="libosmium/2.20.0">
  <node id="854667948" version="1" timestamp="2010-08-11T14:18:29Z" uid="115477" user="wowik" changeset="5463052" lat="54.940654" lon="20.1629096">
    <tag k="amenity" v="place_of_worship"/>
    <tag k="denomination" v="orthodox"/>
    <tag k="name" v="еркви Преподобного Серафима Саровского"/>
    <tag k="religion" v="christian"/>
  </node>
  <node id="854667948" version="2" timestamp="2010-08-11T14:18:42Z" uid="115477" user="wowik" changeset="5463052" lat="54.940654" lon="20.1629096">
    <tag k="amenity" v="place_of_worship"/>
    <tag k="denomination" v="orthodox"/>
    <tag k="name" v="церковь Преподобного Серафима Саровского"/>
    <tag k="religion" v="christian"/>
  </node>
  <node id="854667948" version="3" timestamp="2010-08-12T16:28:10Z" uid="115477" user="wowik" changeset="5474456" lat="54.9406828" lon="20.162521">
    <tag k="amenity" v="place_of_worship"/>
    <tag k="denomination" v="orthodox"/>
    <tag k="name" v="церковь Преподобного Серафима Саровского"/>
    <tag k="religion" v="christian"/>
  </node>
  <node id="854667948" version="4" timestamp="2010-09-15T08:46:35Z" uid="115477" user="wowik" changeset="5784864" lat="54.9406828" lon="20.1625209">
    <tag k="amenity" v="place_of_worship"/>
    <tag k="denomination" v="orthodox"/>
    <tag k="name" v="Церковь Преподобного Серафима Саровского"/>
    <tag k="religion" v="christian"/>
  </node>
</osm>
