<?xml version='1.0' encoding='UTF-8'?>
<osm version="0.6" generator="libosmium/2.20.0">
  <node id="856544316" version="1" timestamp="2010-08-12T11:08:27Z" uid="4467" user="Rosscoe" changeset="5472135" lat="-26.1828611" lon="152.0702368">
    <tag k="amenity" v="public_building"/>
    <tag k="name" v="Hall of Memory"/>
    <tag k="source" v="survey"/>
  </node>
  <node id="856544332" version="1" timestamp="2010-08-12T11:08:28Z" uid="4467" user="Rosscoe" changeset="5472135" lat="-26.1809048" lon="152.0679842">
    <tag k="female" v="yes"/>
    <tag k="male" v="yes"/>
    <tag k="name" v="Goomeri Emporium"/>
    <tag k="shop" v="clothes"/>
    <tag k="source" v="survey"/>
  </node>
  <node id="856544332" version="2" timestamp="2011-03-01T04:07:47Z" uid="4467" user="Rosscoe" changeset="7426493" lat="-26.1808837" lon="152.0679037">
    <tag k="female" v="yes"/>
    <tag k="male" v="yes"/>
    <tag k="name" v="Goomeri Emporium"/>
    <tag k="shop" v="clothes"/>
    <tag k="source" v="survey"/>
  </node>
  <node id="856544350" version="1" timestamp="2010-08-12T11:08:29Z" uid="4467" user="Rosscoe" changeset="5472135" lat="-26.1802996" lon="152.0679386">
    <tag k="shop" v="car_repair"/>
    <tag k="source" v="survey"/>
  </node>
  <node id="856544360" version="1" timestamp="2010-08-12T11:08:30Z" uid="4467" user="Rosscoe" changeset="5472135" lat="-26.1823078" lon="152.0685152">
    <tag k="amenity" v="post_office"/>
    <tag k="name" v="Goomeri Post Office"/>
    <tag k="operator" v="Austpost"/>
    <tag k="source" v="survey"/>
  </node>
  <node id="856544360" version="2" timestamp="2011-03-01T04:07:34Z" uid="4467" user="Rosscoe" changeset="7426493" lat="-26.182345" lon="152.0685262">
    <tag k="amenity" v="post_office"/>
    <tag k="name" v="Goomeri Post Office"/>
    <tag k="operator" v="Austpost"/>
    <tag k="source" v="survey"/>
  </node>
  <node id="856544375" version="1" timestamp="2010-08-12T11:08:31Z" uid="4467" user="Rosscoe" changeset="5472135" lat="-26.1826779" lon="152.0684125">
    <tag k="historic" v="memorial"/>
    <tag k="name" v="Town Clock"/>
  </node>
  <node id="856544663" version="2" timestamp="2010-08-12T12:14:31Z" uid="10712" user="Kraeml" changeset="5472678" lat="49.4613557" lon="11.0898827">
    <tag k="addr:city" v="Nürnberg"/>
    <tag k="addr:country" v="DE"/>
    <tag k="addr:housenumber" v="21"/>
    <tag k="addr:postcode" v="90409"/>
    <tag k="addr:street" v="Wurzelbauerstrasse"/>
    <tag k="amenity" v="restaurant"/>
    <tag k="cuisine" v="thai"/>
    <tag k="name" v="Chang"/>
    <tag k="opening_hours" v="Mo-Fr 11:30-14:30 17:30-23:00; Sa 16:00-23:00;So 11:30-23:00"/>
    <tag k="phone" v="+49 911 120 31 71"/>
  </node>
  <node id="856544663" version="3" timestamp="2010-08-12T12:28:57Z" uid="10712" user="Kraeml" changeset="5472766" lat="49.4613557" lon="11.0898827">
    <tag k="addr:city" v="Nürnberg"/>
    <tag k="addr:country" v="DE"/>
    <tag k="addr:housenumber" v="21"/>
    <tag k="addr:postcode" v="90409"/>
    <tag k="addr:street" v="Wurzelbauerstraße"/>
    <tag k="amenity" v="restaurant"/>
    <tag k="cuisine" v="thai"/>
    <tag k="name" v="Chang"/>
    <tag k="opening_hours" v="Mo-Fr 11:30-14:30 17:30-23:00; Sa 16:00-23:00;So 11:30-23:00"/>
    <tag k="phone" v="+49 911 120 31 71"/>
    <tag k="smoking" v="no"/>
  </node>
  <node id="856544703" version="2" timestamp="2010-08-12T12:28:56Z" uid="10712" user="Kraeml" changeset="5472766" lat="49.4612763" lon="11.0890301">
    <tag k="addr:city" v="Nürnberg"/>
    <tag k="addr:country" v="DE"/>
    <tag k="addr:housenumber" v="112"/>
    <tag k="addr:postcode" v="90409"/>
    <tag k="addr:street" v="Pirckheimerstraße"/>
    <tag k="amenity" v="cafe"/>
    <tag k="cuisine" v="ice_cream"/>
    <tag k="name" v="Piccolo Palladio"/>
    <tag k="opening_hours" v="Mo-So 10-10"/>
    <tag k="phone" v="+49 911 520 91 17"/>
  </node>
</osm>
