<?xml version='1.0' encoding='UTF-8'?>
<osm version="0.6" generator="libosmium/2.20.0">
  <node id="860029033" version="2" timestamp="2010-10-17T12:57:47Z" uid="96874" user="Quedel" changeset="6066735" lat="51.7919551" lon="11.1563299"/>
  <node id="860029036" version="2" timestamp="2010-10-17T12:57:36Z" uid="96874" user="Quedel" changeset="6066735" lat="51.7918698" lon="11.1568292">
    <tag k="addr:city" v="Quedlinburg"/>
    <tag k="addr:country" v="DE"/>
    <tag k="addr:housenumber" v="2"/>
    <tag k="addr:postcode" v="06484"/>
    <tag k="addr:street" v="Birkenstraße"/>
  </node>
  <node id="860029050" version="3" timestamp="2010-10-17T12:57:48Z" uid="96874" user="Quedel" changeset="6066735" lat="51.7922858" lon="11.1575284"/>
  <node id="860029060" version="2" timestamp="2010-10-17T12:57:42Z" uid="96874" user="Quedel" changeset="6066735" lat="51.7918666" lon="11.1566144">
    <tag k="addr:city" v="Quedlinburg"/>
    <tag k="addr:country" v="DE"/>
    <tag k="addr:housenumber" v="3"/>
    <tag k="addr:postcode" v="06484"/>
    <tag k="addr:street" v="Birkenstraße"/>
  </node>
  <node id="860029070" version="2" timestamp="2010-10-17T12:57:32Z" uid="96874" user="Quedel" changeset="6066735" lat="51.792271" lon="11.1556595">
    <tag k="addr:city" v="Quedlinburg"/>
    <tag k="addr:country" v="DE"/>
    <tag k="addr:housenumber" v="12"/>
    <tag k="addr:postcode" v="06484"/>
    <tag k="addr:street" v="Birkenstraße"/>
  </node>
  <node id="860029077" version="3" timestamp="2010-10-17T12:57:50Z" uid="96874" user="Quedel" changeset="6066735" lat="51.7919835" lon="11.1574712"/>
  <node id="860029083" version="2" timestamp="2010-10-17T12:57:33Z" uid="96874" user="Quedel" changeset="6066735" lat="51.7918603" lon="11.1564287">
    <tag k="addr:city" v="Quedlinburg"/>
    <tag k="addr:country" v="DE"/>
    <tag k="addr:housenumber" v="4"/>
    <tag k="addr:postcode" v="06484"/>
    <tag k="addr:street" v="Birkenstraße"/>
  </node>
  <node id="860029091" version="2" timestamp="2010-10-17T12:57:36Z" uid="96874" user="Quedel" changeset="6066735" lat="51.7923775" lon="11.1556569">
    <tag k="addr:city" v="Quedlinburg"/>
    <tag k="addr:country" v="DE"/>
    <tag k="addr:housenumber" v="13"/>
    <tag k="addr:postcode" v="06484"/>
    <tag k="addr:street" v="Birkenstraße"/>
  </node>
  <node id="860029097" version="2" timestamp="2010-10-17T12:57:33Z" uid="96874" user="Quedel" changeset="6066735" lat="51.7921351" lon="11.1556771">
    <tag k="addr:city" v="Quedlinburg"/>
    <tag k="addr:country" v="DE"/>
    <tag k="addr:housenumber" v="11"/>
    <tag k="addr:postcode" v="06484"/>
    <tag k="addr:street" v="Birkenstraße"/>
  </node>
  <node id="860029109" version="3" timestamp="2010-10-17T12:57:48Z" uid="96874" user="Quedel" changeset="6066735" lat="51.7919769" lon="11.1575626"/>
  <node id="860029114" version="2" timestamp="2010-10-17T12:57:35Z" uid="96874" user="Quedel" changeset="6066735" lat="51.7919688" lon="11.157112"/>
  <node id="860029115" version="2" timestamp="2010-10-17T12:57:51Z" uid="96874" user="Quedel" changeset="6066735" lat="51.7927624" lon="11.1555944">
    <tag k="addr:city" v="Quedlinburg"/>
    <tag k="addr:country" v="DE"/>
    <tag k="addr:housenumber" v="16"/>
    <tag k="addr:postcode" v="06484"/>
    <tag k="addr:street" v="Birkenstraße"/>
  </node>
  <node id="860029136" version="2" timestamp="2010-10-17T12:57:50Z" uid="96874" user="Quedel" changeset="6066735" lat="51.7918733" lon="11.1571136"/>
  <node id="860029147" version="2" timestamp="2010-10-17T12:57:37Z" uid="96874" user="Quedel" changeset="6066735" lat="51.7918595" lon="11.1563315"/>
  <node id="860029157" version="2" timestamp="2010-10-14T16:10:33Z" uid="96874" user="Quedel" changeset="6040209" lat="51.7914281" lon="11.1563835">
    <tag k="addr:city" v="Quedlinburg"/>
    <tag k="addr:country" v="DE"/>
    <tag k="addr:housenumber" v="5"/>
    <tag k="addr:postcode" v="06484"/>
    <tag k="addr:street" v="Birkenstraße"/>
  </node>
  <node id="860029189" version="3" timestamp="2010-10-17T12:57:43Z" uid="96874" user="Quedel" changeset="6066735" lat="51.7922792" lon="11.1576197"/>
  <node id="860029193" version="2" timestamp="2010-10-14T16:10:31Z" uid="96874" user="Quedel" changeset="6040209" lat="51.7914241" lon="11.1562125">
    <tag k="addr:city" v="Quedlinburg"/>
    <tag k="addr:country" v="DE"/>
    <tag k="addr:housenumber" v="6"/>
    <tag k="addr:postcode" v="06484"/>
    <tag k="addr:street" v="Birkenstraße"/>
  </node>
  <node id="860029210" version="3" timestamp="2010-10-17T12:57:38Z" uid="96874" user="Quedel" changeset="6066735" lat="51.7920343" lon="11.1575728">
    <tag k="addr:city" v="Quedlinburg"/>
    <tag k="addr:country" v="DE"/>
    <tag k="addr:housenumber" v="4"/>
    <tag k="addr:postcode" v="06484"/>
    <tag k="addr:street" v="Gartenstraße"/>
  </node>
  <node id="860029210" version="4" timestamp="2010-10-17T20:19:30Z" uid="96874" user="Quedel" changeset="6070824" lat="51.7920343" lon="11.1575722">
    <tag k="addr:city" v="Quedlinburg"/>
    <tag k="addr:country" v="DE"/>
    <tag k="addr:housenumber" v="4"/>
    <tag k="addr:postcode" v="06484"/>
    <tag k="addr:street" v="Gartenstraße"/>
  </node>
  <node id="860029218" version="2" timestamp="2010-10-17T12:57:42Z" uid="96874" user="Quedel" changeset="6066735" lat="51.7926403" lon="11.1556307">
    <tag k="addr:city" v="Quedlinburg"/>
    <tag k="addr:country" v="DE"/>
    <tag k="addr:housenumber" v="15"/>
    <tag k="addr:postcode" v="06484"/>
    <tag k="addr:street" v="Birkenstraße"/>
  </node>
  <node id="860029241" version="2" timestamp="2010-10-14T16:10:33Z" uid="96874" user="Quedel" changeset="6040209" lat="51.7914201" lon="11.1560431">
    <tag k="addr:city" v="Quedlinburg"/>
    <tag k="addr:country" v="DE"/>
    <tag k="addr:housenumber" v="7"/>
    <tag k="addr:postcode" v="06484"/>
    <tag k="addr:street" v="Birkenstraße"/>
  </node>
  <node id="860029246" version="3" timestamp="2010-10-17T12:57:47Z" uid="96874" user="Quedel" changeset="6066735" lat="51.7921701" lon="11.1575961">
    <tag k="addr:city" v="Quedlinburg"/>
    <tag k="addr:country" v="DE"/>
    <tag k="addr:housenumber" v="5"/>
    <tag k="addr:postcode" v="06484"/>
    <tag k="addr:street" v="Gartenstraße"/>
  </node>
  <node id="860029246" version="4" timestamp="2010-10-17T20:19:30Z" uid="96874" user="Quedel" changeset="6070824" lat="51.7921706" lon="11.1575987">
    <tag k="addr:city" v="Quedlinburg"/>
    <tag k="addr:country" v="DE"/>
    <tag k="addr:housenumber" v="5"/>
    <tag k="addr:postcode" v="06484"/>
    <tag k="addr:street" v="Gartenstraße"/>
  </node>
  <node id="860029247" version="2" timestamp="2010-10-17T12:57:42Z" uid="96874" user="Quedel" changeset="6066735" lat="51.7924999" lon="11.1556454">
    <tag k="addr:city" v="Quedlinburg"/>
    <tag k="addr:country" v="DE"/>
    <tag k="addr:housenumber" v="14"/>
    <tag k="addr:postcode" v="06484"/>
    <tag k="addr:street" v="Birkenstraße"/>
  </node>
  <node id="860029271" version="2" timestamp="2010-10-14T16:10:32Z" uid="96874" user="Quedel" changeset="6040209" lat="51.7914176" lon="11.1558557">
    <tag k="addr:city" v="Quedlinburg"/>
    <tag k="addr:country" v="DE"/>
    <tag k="addr:housenumber" v="8"/>
    <tag k="addr:postcode" v="06484"/>
    <tag k="addr:street" v="Birkenstraße"/>
  </node>
  <node id="860029279" version="2" timestamp="2010-10-17T12:57:49Z" uid="96874" user="Quedel" changeset="6066735" lat="51.7918683" lon="11.1557002">
    <tag k="addr:city" v="Quedlinburg"/>
    <tag k="addr:country" v="DE"/>
    <tag k="addr:housenumber" v="9"/>
    <tag k="addr:postcode" v="06484"/>
    <tag k="addr:street" v="Birkenstraße"/>
  </node>
  <node id="860029302" version="2" timestamp="2010-10-17T12:57:46Z" uid="96874" user="Quedel" changeset="6066735" lat="51.7918732" lon="11.1570171">
    <tag k="addr:city" v="Quedlinburg"/>
    <tag k="addr:country" v="DE"/>
    <tag k="addr:housenumber" v="1"/>
    <tag k="addr:postcode" v="06484"/>
    <tag k="addr:street" v="Birkenstraße"/>
  </node>
  <node id="860029305" version="2" timestamp="2010-10-17T12:57:32Z" uid="96874" user="Quedel" changeset="6066735" lat="51.7919901" lon="11.1556918">
    <tag k="addr:city" v="Quedlinburg"/>
    <tag k="addr:country" v="DE"/>
    <tag k="addr:housenumber" v="10"/>
    <tag k="addr:postcode" v="06484"/>
    <tag k="addr:street" v="Birkenstraße"/>
  </node>
</osm>
