<?xml version='1.0' encoding='UTF-8'?>
<osm version="0.6" generator="libosmium/2.20.0">
  <node id="860710870" version="1" timestamp="2010-08-15T01:33:40Z" uid="7617" user="Franc" changeset="5495910" lat="-33.923805" lon="151.143997">
    <tag k="name" v="66"/>
    <tag k="note" v="66"/>
  </node>
  <node id="860710870" version="2" timestamp="2010-08-15T02:15:18Z" uid="7617" user="Franc" changeset="5495957" lat="-33.923805" lon="151.143997">
    <tag k="name" v="66"/>
    <tag k="note" v="66"/>
  </node>
  <node id="860710871" version="1" timestamp="2010-08-15T01:33:41Z" uid="7617" user="Franc" changeset="5495910" lat="-33.920498" lon="151.142395">
    <tag k="name" v="388"/>
    <tag k="note" v="388"/>
  </node>
  <node id="860710871" version="2" timestamp="2010-08-15T02:15:18Z" uid="7617" user="Franc" changeset="5495957" lat="-33.920498" lon="151.142395">
    <tag k="name" v="388"/>
    <tag k="note" v="388"/>
  </node>
  <node id="860710872" version="1" timestamp="2010-08-15T01:33:41Z" uid="7617" user="Franc" changeset="5495910" lat="-33.921005" lon="151.142639">
    <tag k="name" v="3"/>
    <tag k="note" v="3"/>
  </node>
  <node id="860710872" version="2" timestamp="2010-08-15T02:15:18Z" uid="7617" user="Franc" changeset="5495957" lat="-33.921005" lon="151.142639">
    <tag k="name" v="3"/>
    <tag k="note" v="3"/>
  </node>
  <node id="860710873" version="1" timestamp="2010-08-15T01:33:41Z" uid="7617" user="Franc" changeset="5495910" lat="-33.920853" lon="151.142334">
    <tag k="name" v="11"/>
    <tag k="note" v="11"/>
  </node>
  <node id="860710873" version="2" timestamp="2010-08-15T02:15:18Z" uid="7617" user="Franc" changeset="5495957" lat="-33.920853" lon="151.142334">
    <tag k="name" v="11"/>
    <tag k="note" v="11"/>
  </node>
  <node id="860710874" version="1" timestamp="2010-08-15T01:33:41Z" uid="7617" user="Franc" changeset="5495910" lat="-33.920776" lon="151.142166">
    <tag k="name" v="15"/>
    <tag k="note" v="15"/>
  </node>
  <node id="860710874" version="2" timestamp="2010-08-15T02:15:12Z" uid="7617" user="Franc" changeset="5495957" lat="-33.9208288" lon="151.1421626">
    <tag k="addr:housenumber" v="15"/>
    <tag k="addr:street" v="Wharf Street"/>
    <tag k="source" v="survey"/>
  </node>
  <node id="860710875" version="1" timestamp="2010-08-15T01:33:41Z" uid="7617" user="Franc" changeset="5495910" lat="-33.920956" lon="151.142563">
    <tag k="name" v="5"/>
    <tag k="note" v="5"/>
  </node>
  <node id="860710875" version="2" timestamp="2010-08-15T02:15:18Z" uid="7617" user="Franc" changeset="5495957" lat="-33.920956" lon="151.142563">
    <tag k="name" v="5"/>
    <tag k="note" v="5"/>
  </node>
  <node id="860710876" version="1" timestamp="2010-08-15T01:33:41Z" uid="7617" user="Franc" changeset="5495910" lat="-33.920315" lon="151.142181">
    <tag k="name" v="379"/>
    <tag k="note" v="379"/>
  </node>
  <node id="860710876" version="2" timestamp="2010-08-15T02:15:12Z" uid="7617" user="Franc" changeset="5495957" lat="-33.9203081" lon="151.1421774">
    <tag k="addr:housenumber" v="379"/>
    <tag k="addr:street" v="Livingstone Road"/>
    <tag k="source" v="survey"/>
  </node>
  <node id="860710876" version="3" timestamp="2010-11-20T01:26:48Z" uid="7617" user="Franc" changeset="6411501" lat="-33.920322" lon="151.1422127">
    <tag k="addr:housenumber" v="379"/>
    <tag k="addr:street" v="Livingstone Road"/>
    <tag k="source" v="survey"/>
  </node>
  <node id="860710877" version="1" timestamp="2010-08-15T01:33:41Z" uid="7617" user="Franc" changeset="5495910" lat="-33.923683" lon="151.145416">
    <tag k="name" v="45"/>
    <tag k="note" v="45"/>
  </node>
  <node id="860710877" version="2" timestamp="2010-08-15T02:15:18Z" uid="7617" user="Franc" changeset="5495957" lat="-33.923683" lon="151.145416">
    <tag k="name" v="45"/>
    <tag k="note" v="45"/>
  </node>
  <node id="860710878" version="1" timestamp="2010-08-15T01:33:41Z" uid="7617" user="Franc" changeset="5495910" lat="-33.924248" lon="151.148132">
    <tag k="name" v="10"/>
    <tag k="note" v="10"/>
  </node>
  <node id="860710878" version="2" timestamp="2010-08-15T02:15:18Z" uid="7617" user="Franc" changeset="5495957" lat="-33.924248" lon="151.148132">
    <tag k="name" v="10"/>
    <tag k="note" v="10"/>
  </node>
  <node id="860710879" version="1" timestamp="2010-08-15T01:33:41Z" uid="7617" user="Franc" changeset="5495910" lat="-33.924232" lon="151.1483">
    <tag k="name" v="8"/>
    <tag k="note" v="8"/>
  </node>
  <node id="860710879" version="2" timestamp="2010-08-15T02:15:18Z" uid="7617" user="Franc" changeset="5495957" lat="-33.924232" lon="151.1483">
    <tag k="name" v="8"/>
    <tag k="note" v="8"/>
  </node>
  <node id="860710880" version="1" timestamp="2010-08-15T01:33:41Z" uid="7617" user="Franc" changeset="5495910" lat="-33.923645" lon="151.148697">
    <tag k="name" v="1"/>
    <tag k="note" v="1"/>
  </node>
  <node id="860710880" version="2" timestamp="2010-08-15T02:15:18Z" uid="7617" user="Franc" changeset="5495957" lat="-33.923645" lon="151.148697">
    <tag k="name" v="1"/>
    <tag k="note" v="1"/>
  </node>
  <node id="860710881" version="1" timestamp="2010-08-15T01:33:41Z" uid="7617" user="Franc" changeset="5495910" lat="-33.923756" lon="151.148758">
    <tag k="name" v="1a"/>
    <tag k="note" v="Dway"/>
  </node>
  <node id="860710881" version="2" timestamp="2010-08-15T02:15:12Z" uid="7617" user="Franc" changeset="5495957" lat="-33.923756" lon="151.148758">
    <tag k="addr:housenumber" v="1a"/>
    <tag k="addr:street" v="Pine Avenue"/>
    <tag k="source" v="survey"/>
  </node>
  <node id="860710882" version="1" timestamp="2010-08-15T01:33:41Z" uid="7617" user="Franc" changeset="5495910" lat="-33.92366" lon="151.145752">
    <tag k="name" v="43"/>
    <tag k="note" v="43"/>
  </node>
  <node id="860710882" version="2" timestamp="2010-08-15T02:15:18Z" uid="7617" user="Franc" changeset="5495957" lat="-33.92366" lon="151.145752">
    <tag k="name" v="43"/>
    <tag k="note" v="43"/>
  </node>
  <node id="860710883" version="1" timestamp="2010-08-15T01:33:41Z" uid="7617" user="Franc" changeset="5495910" lat="-33.920815" lon="151.14888">
    <tag k="name" v="43"/>
    <tag k="note" v="43"/>
  </node>
  <node id="860710883" version="2" timestamp="2010-08-15T02:15:19Z" uid="7617" user="Franc" changeset="5495957" lat="-33.920815" lon="151.14888">
    <tag k="name" v="43"/>
    <tag k="note" v="43"/>
  </node>
  <node id="860710884" version="1" timestamp="2010-08-15T01:33:41Z" uid="7617" user="Franc" changeset="5495910" lat="-33.921051" lon="151.148895">
    <tag k="name" v="66"/>
    <tag k="note" v="66"/>
  </node>
  <node id="860710884" version="2" timestamp="2010-08-15T02:15:18Z" uid="7617" user="Franc" changeset="5495957" lat="-33.921051" lon="151.148895">
    <tag k="name" v="66"/>
    <tag k="note" v="66"/>
  </node>
  <node id="860710885" version="1" timestamp="2010-08-15T01:33:42Z" uid="7617" user="Franc" changeset="5495910" lat="-33.920933" lon="151.149048">
    <tag k="name" v="47"/>
    <tag k="note" v="47"/>
  </node>
  <node id="860710885" version="2" timestamp="2010-08-15T02:15:12Z" uid="7617" user="Franc" changeset="5495957" lat="-33.920933" lon="151.149048">
    <tag k="addr:housenumber" v="47"/>
    <tag k="addr:street" v="Thornley Street"/>
    <tag k="source" v="survey"/>
  </node>
  <node id="860710886" version="1" timestamp="2010-08-15T01:33:42Z" uid="7617" user="Franc" changeset="5495910" lat="-33.921188" lon="151.149048">
    <tag k="name" v="66a"/>
    <tag k="note" v="64a"/>
  </node>
  <node id="860710886" version="2" timestamp="2010-08-15T02:15:19Z" uid="7617" user="Franc" changeset="5495957" lat="-33.921188" lon="151.149048">
    <tag k="name" v="66a"/>
    <tag k="note" v="64a"/>
  </node>
  <node id="860710887" version="1" timestamp="2010-08-15T01:33:42Z" uid="7617" user="Franc" changeset="5495910" lat="-33.919983" lon="151.146927">
    <tag k="name" v="24"/>
    <tag k="note" v="24"/>
  </node>
  <node id="860710887" version="2" timestamp="2010-08-15T02:15:19Z" uid="7617" user="Franc" changeset="5495957" lat="-33.919983" lon="151.146927">
    <tag k="name" v="24"/>
    <tag k="note" v="24"/>
  </node>
  <node id="860710888" version="1" timestamp="2010-08-15T01:33:42Z" uid="7617" user="Franc" changeset="5495910" lat="-33.917404" lon="151.148651">
    <tag k="name" v="2 Cary"/>
    <tag k="note" v="2"/>
  </node>
  <node id="860710888" version="2" timestamp="2010-08-15T02:15:14Z" uid="7617" user="Franc" changeset="5495957" lat="-33.9174008" lon="151.1486807">
    <tag k="addr:housenumber" v="2"/>
    <tag k="addr:street" v="Cary Street"/>
  </node>
  <node id="860710888" version="3" timestamp="2011-05-29T08:22:58Z" uid="7617" user="Franc" changeset="8278388" lat="-33.9173955" lon="151.1486835">
    <tag k="addr:housenumber" v="2"/>
    <tag k="addr:street" v="Cary Street"/>
  </node>
  <node id="860710889" version="1" timestamp="2010-08-15T01:33:42Z" uid="7617" user="Franc" changeset="5495910" lat="-33.917435" lon="151.149231">
    <tag k="name" v="1a"/>
    <tag k="note" v="1a"/>
  </node>
  <node id="860710889" version="2" timestamp="2010-08-15T02:15:19Z" uid="7617" user="Franc" changeset="5495957" lat="-33.917435" lon="151.149231">
    <tag k="name" v="1a"/>
    <tag k="note" v="1a"/>
  </node>
  <node id="860710890" version="1" timestamp="2010-08-15T01:33:42Z" uid="7617" user="Franc" changeset="5495910" lat="-33.919914" lon="151.14682">
    <tag k="name" v="22"/>
    <tag k="note" v="22"/>
  </node>
  <node id="860710890" version="2" timestamp="2010-08-15T02:15:19Z" uid="7617" user="Franc" changeset="5495957" lat="-33.919914" lon="151.14682">
    <tag k="name" v="22"/>
    <tag k="note" v="22"/>
  </node>
  <node id="860710891" version="1" timestamp="2010-08-15T01:33:42Z" uid="7617" user="Franc" changeset="5495910" lat="-33.917164" lon="151.148544">
    <tag k="name" v="436"/>
    <tag k="note" v="436"/>
  </node>
  <node id="860710891" version="2" timestamp="2010-08-15T02:15:14Z" uid="7617" user="Franc" changeset="5495957" lat="-33.9171683" lon="151.1485582">
    <tag k="addr:housenumber" v="436"/>
    <tag k="addr:street" v="Illawarra Road"/>
    <tag k="source" v="survey"/>
  </node>
  <node id="860710892" version="1" timestamp="2010-08-15T01:33:42Z" uid="7617" user="Franc" changeset="5495910" lat="-33.919533" lon="151.144226">
    <tag k="name" v="17"/>
    <tag k="note" v="17"/>
  </node>
  <node id="860710892" version="2" timestamp="2010-08-15T02:15:12Z" uid="7617" user="Franc" changeset="5495957" lat="-33.9195401" lon="151.1442236">
    <tag k="addr:housenumber" v="17"/>
    <tag k="addr:street" v="Wallace Street"/>
    <tag k="source" v="survey"/>
  </node>
  <node id="860710893" version="1" timestamp="2010-08-15T01:33:42Z" uid="7617" user="Franc" changeset="5495910" lat="-33.919563" lon="151.143738">
    <tag k="name" v="12"/>
    <tag k="note" v="12"/>
  </node>
  <node id="860710893" version="2" timestamp="2010-08-15T02:15:19Z" uid="7617" user="Franc" changeset="5495957" lat="-33.919563" lon="151.143738">
    <tag k="name" v="12"/>
    <tag k="note" v="12"/>
  </node>
  <node id="860710894" version="1" timestamp="2010-08-15T01:33:42Z" uid="7617" user="Franc" changeset="5495910" lat="-33.919762" lon="151.146973">
    <tag k="name" v="3"/>
    <tag k="note" v="3"/>
  </node>
  <node id="860710894" version="2" timestamp="2010-08-15T02:15:19Z" uid="7617" user="Franc" changeset="5495957" lat="-33.919762" lon="151.146973">
    <tag k="name" v="3"/>
    <tag k="note" v="3"/>
  </node>
  <node id="860710895" version="1" timestamp="2010-08-15T01:33:42Z" uid="7617" user="Franc" changeset="5495910" lat="-33.91935" lon="151.143372">
    <tag k="name" v="2"/>
    <tag k="note" v="2"/>
  </node>
  <node id="860710895" version="2" timestamp="2010-08-15T02:15:19Z" uid="7617" user="Franc" changeset="5495957" lat="-33.91935" lon="151.143372">
    <tag k="name" v="2"/>
    <tag k="note" v="2"/>
  </node>
  <node id="860710896" version="1" timestamp="2010-08-15T01:33:42Z" uid="7617" user="Franc" changeset="5495910" lat="-33.919975" lon="151.144501">
    <tag k="name" v="520"/>
    <tag k="note" v="520"/>
  </node>
  <node id="860710896" version="2" timestamp="2010-08-15T02:15:12Z" uid="7617" user="Franc" changeset="5495957" lat="-33.9199885" lon="151.1445096">
    <tag k="addr:housenumber" v="520"/>
    <tag k="addr:street" v="Illawarra Road"/>
    <tag k="source" v="survey"/>
  </node>
  <node id="860710896" version="3" timestamp="2011-04-02T01:32:39Z" uid="7617" user="Franc" changeset="7740669" lat="-33.9199833" lon="151.1445138">
    <tag k="addr:housenumber" v="520"/>
    <tag k="addr:street" v="Illawarra Road"/>
    <tag k="source" v="survey"/>
  </node>
  <node id="860710897" version="1" timestamp="2010-08-15T01:33:42Z" uid="7617" user="Franc" changeset="5495910" lat="-33.919846" lon="151.146683">
    <tag k="name" v="18"/>
    <tag k="note" v="18"/>
  </node>
  <node id="860710897" version="2" timestamp="2010-08-15T02:15:19Z" uid="7617" user="Franc" changeset="5495957" lat="-33.919846" lon="151.146683">
    <tag k="name" v="18"/>
    <tag k="note" v="18"/>
  </node>
  <node id="860710898" version="1" timestamp="2010-08-15T01:33:42Z" uid="7617" user="Franc" changeset="5495910" lat="-33.921825" lon="151.152802">
    <tag k="name" v="100"/>
    <tag k="note" v="100"/>
  </node>
  <node id="860710898" version="2" timestamp="2010-08-15T02:15:20Z" uid="7617" user="Franc" changeset="5495957" lat="-33.921825" lon="151.152802">
    <tag k="name" v="100"/>
    <tag k="note" v="100"/>
  </node>
  <node id="860710899" version="1" timestamp="2010-08-15T01:33:42Z" uid="7617" user="Franc" changeset="5495910" lat="-33.920902" lon="151.152893">
    <tag k="name" v="94"/>
    <tag k="note" v="94"/>
  </node>
  <node id="860710899" version="2" timestamp="2010-08-15T02:15:20Z" uid="7617" user="Franc" changeset="5495957" lat="-33.920902" lon="151.152893">
    <tag k="name" v="94"/>
    <tag k="note" v="94"/>
  </node>
  <node id="860710900" version="1" timestamp="2010-08-15T01:33:43Z" uid="7617" user="Franc" changeset="5495910" lat="-33.92131" lon="151.150711">
    <tag k="name" v="21"/>
    <tag k="note" v="21"/>
  </node>
  <node id="860710900" version="2" timestamp="2010-08-15T02:15:14Z" uid="7617" user="Franc" changeset="5495957" lat="-33.9213319" lon="151.1507487">
    <tag k="addr:housenumber" v="21"/>
    <tag k="addr:street" v="McGowan Avenue"/>
    <tag k="source" v="survey"/>
  </node>
  <node id="860710901" version="1" timestamp="2010-08-15T01:33:43Z" uid="7617" user="Franc" changeset="5495910" lat="-33.921227" lon="151.153427">
    <tag k="name" v="102"/>
    <tag k="note" v="102"/>
  </node>
  <node id="860710901" version="2" timestamp="2010-08-15T02:15:20Z" uid="7617" user="Franc" changeset="5495957" lat="-33.921227" lon="151.153427">
    <tag k="name" v="102"/>
    <tag k="note" v="102"/>
  </node>
  <node id="860710902" version="1" timestamp="2010-08-15T01:33:43Z" uid="7617" user="Franc" changeset="5495910" lat="-33.921909" lon="151.152664">
    <tag k="name" v="98"/>
    <tag k="note" v="98"/>
  </node>
  <node id="860710902" version="2" timestamp="2010-08-15T02:15:20Z" uid="7617" user="Franc" changeset="5495957" lat="-33.921909" lon="151.152664">
    <tag k="name" v="98"/>
    <tag k="note" v="98"/>
  </node>
  <node id="860710903" version="1" timestamp="2010-08-15T01:33:43Z" uid="7617" user="Franc" changeset="5495910" lat="-33.921394" lon="151.150879">
    <tag k="name" v="22"/>
    <tag k="note" v="22"/>
  </node>
  <node id="860710903" version="2" timestamp="2010-08-15T02:15:19Z" uid="7617" user="Franc" changeset="5495957" lat="-33.921394" lon="151.150879">
    <tag k="name" v="22"/>
    <tag k="note" v="22"/>
  </node>
  <node id="860710904" version="1" timestamp="2010-08-15T01:33:43Z" uid="7617" user="Franc" changeset="5495910" lat="-33.920444" lon="151.152634">
    <tag k="name" v="77"/>
    <tag k="note" v="77"/>
  </node>
  <node id="860710904" version="2" timestamp="2010-08-15T02:15:20Z" uid="7617" user="Franc" changeset="5495957" lat="-33.920444" lon="151.152634">
    <tag k="name" v="77"/>
    <tag k="note" v="77"/>
  </node>
  <node id="860710905" version="1" timestamp="2010-08-15T01:33:43Z" uid="7617" user="Franc" changeset="5495910" lat="-33.920387" lon="151.152496">
    <tag k="name" v="75"/>
    <tag k="note" v="75"/>
  </node>
  <node id="860710905" version="2" timestamp="2010-08-15T02:15:20Z" uid="7617" user="Franc" changeset="5495957" lat="-33.920387" lon="151.152496">
    <tag k="name" v="75"/>
    <tag k="note" v="75"/>
  </node>
  <node id="860710906" version="1" timestamp="2010-08-15T01:33:43Z" uid="7617" user="Franc" changeset="5495910" lat="-33.921146" lon="151.153275">
    <tag k="name" v="98"/>
    <tag k="note" v="98"/>
  </node>
  <node id="860710906" version="2" timestamp="2010-08-15T02:15:15Z" uid="7617" user="Franc" changeset="5495957" lat="-33.9211164" lon="151.1533019">
    <tag k="addr:housenumber" v="98"/>
    <tag k="addr:street" v="Premier Street"/>
    <tag k="source" v="survey"/>
  </node>
  <node id="860710907" version="1" timestamp="2010-08-15T01:33:43Z" uid="7617" user="Franc" changeset="5495910" lat="-33.920418" lon="151.151459">
    <tag k="name" v="1"/>
    <tag k="note" v="1"/>
  </node>
  <node id="860710907" version="2" timestamp="2010-08-15T02:15:20Z" uid="7617" user="Franc" changeset="5495957" lat="-33.920418" lon="151.151459">
    <tag k="name" v="1"/>
    <tag k="note" v="1"/>
  </node>
  <node id="860710908" version="1" timestamp="2010-08-15T01:33:43Z" uid="7617" user="Franc" changeset="5495910" lat="-33.920322" lon="151.152374">
    <tag k="name" v="73"/>
    <tag k="note" v="73"/>
  </node>
  <node id="860710908" version="2" timestamp="2010-08-15T02:15:20Z" uid="7617" user="Franc" changeset="5495957" lat="-33.920322" lon="151.152374">
    <tag k="name" v="73"/>
    <tag k="note" v="73"/>
  </node>
  <node id="860710909" version="1" timestamp="2010-08-15T01:33:43Z" uid="7617" user="Franc" changeset="5495910" lat="-33.921185" lon="151.153366">
    <tag k="name" v="100"/>
    <tag k="note" v="100"/>
  </node>
  <node id="860710909" version="2" timestamp="2010-08-15T02:15:20Z" uid="7617" user="Franc" changeset="5495957" lat="-33.921185" lon="151.153366">
    <tag k="name" v="100"/>
    <tag k="note" v="100"/>
  </node>
  <node id="860710910" version="1" timestamp="2010-08-15T01:33:43Z" uid="7617" user="Franc" changeset="5495910" lat="-33.918053" lon="151.155365">
    <tag k="name" v="16"/>
    <tag k="note" v="16"/>
  </node>
  <node id="860710910" version="2" timestamp="2010-08-15T02:15:17Z" uid="7617" user="Franc" changeset="5495957" lat="-33.9180336" lon="151.155404">
    <tag k="addr:housenumber" v="16"/>
    <tag k="addr:street" v="Ruby Street"/>
    <tag k="source" v="survey"/>
  </node>
  <node id="860710910" version="3" timestamp="2011-02-27T13:34:23Z" uid="7617" user="Franc" changeset="7410705" lat="-33.918017" lon="151.1553944">
    <tag k="addr:housenumber" v="16"/>
    <tag k="addr:street" v="Ruby Street"/>
    <tag k="source" v="survey"/>
  </node>
  <node id="860710911" version="1" timestamp="2010-08-15T01:33:43Z" uid="7617" user="Franc" changeset="5495910" lat="-33.918015" lon="151.155273">
    <tag k="name" v="18&amp;20"/>
    <tag k="note" v="18&amp;amp;20"/>
  </node>
  <node id="860710911" version="2" timestamp="2010-08-15T02:15:20Z" uid="7617" user="Franc" changeset="5495957" lat="-33.918015" lon="151.155273">
    <tag k="name" v="18&amp;20"/>
    <tag k="note" v="18&amp;amp;20"/>
  </node>
  <node id="860710912" version="1" timestamp="2010-08-15T01:33:43Z" uid="7617" user="Franc" changeset="5495910" lat="-33.917122" lon="151.154221">
    <tag k="name" v="25"/>
    <tag k="note" v="25"/>
  </node>
  <node id="860710912" version="2" timestamp="2010-08-15T02:15:21Z" uid="7617" user="Franc" changeset="5495957" lat="-33.917122" lon="151.154221">
    <tag k="name" v="25"/>
    <tag k="note" v="25"/>
  </node>
  <node id="860710913" version="1" timestamp="2010-08-15T01:33:43Z" uid="7617" user="Franc" changeset="5495910" lat="-33.918011" lon="151.155823">
    <tag k="name" v="7"/>
    <tag k="note" v="7"/>
  </node>
  <node id="860710913" version="2" timestamp="2010-08-15T02:15:21Z" uid="7617" user="Franc" changeset="5495957" lat="-33.918011" lon="151.155823">
    <tag k="name" v="7"/>
    <tag k="note" v="7"/>
  </node>
  <node id="860710914" version="1" timestamp="2010-08-15T01:33:43Z" uid="7617" user="Franc" changeset="5495910" lat="-33.918106" lon="151.155991">
    <tag k="name" v="3"/>
    <tag k="note" v="3"/>
  </node>
  <node id="860710914" version="2" timestamp="2010-08-15T02:15:21Z" uid="7617" user="Franc" changeset="5495957" lat="-33.918106" lon="151.155991">
    <tag k="name" v="3"/>
    <tag k="note" v="3"/>
  </node>
  <node id="860710915" version="1" timestamp="2010-08-15T01:33:43Z" uid="7617" user="Franc" changeset="5495910" lat="-33.9207482" lon="151.166211">
    <tag k="addr:housenumber" v="2"/>
    <tag k="addr:street" v="Samuel Street"/>
    <tag k="source" v="survey"/>
  </node>
  <node id="860710916" version="1" timestamp="2010-08-15T01:33:44Z" uid="7617" user="Franc" changeset="5495910" lat="-33.920596" lon="151.1660435">
    <tag k="addr:housenumber" v="2a"/>
    <tag k="addr:street" v="Samuel Street"/>
    <tag k="source" v="survey"/>
  </node>
  <node id="860710917" version="1" timestamp="2010-08-15T01:33:44Z" uid="7617" user="Franc" changeset="5495910" lat="-33.9204744" lon="151.1658943">
    <tag k="addr:housenumber" v="6"/>
    <tag k="addr:street" v="Samuel Street"/>
    <tag k="source" v="survey"/>
  </node>
  <node id="860710918" version="1" timestamp="2010-08-15T01:33:44Z" uid="7617" user="Franc" changeset="5495910" lat="-33.920523" lon="151.1659556">
    <tag k="addr:housenumber" v="4"/>
    <tag k="addr:street" v="Samuel Street"/>
    <tag k="source" v="extrapolation"/>
  </node>
  <node id="860710919" version="1" timestamp="2010-08-15T01:33:44Z" uid="7617" user="Franc" changeset="5495910" lat="-33.9204913" lon="151.1672466">
    <tag k="addr:housenumber" v="10"/>
    <tag k="addr:street" v="Terry Street"/>
    <tag k="source" v="survey"/>
  </node>
  <node id="860710920" version="1" timestamp="2010-08-15T01:33:44Z" uid="7617" user="Franc" changeset="5495910" lat="-33.9196299" lon="151.165381">
    <tag k="addr:housenumber" v="51"/>
    <tag k="addr:street" v="Samuel Street"/>
    <tag k="source" v="survey"/>
  </node>
  <node id="860710921" version="1" timestamp="2010-08-15T01:33:44Z" uid="7617" user="Franc" changeset="5495910" lat="-33.9190779" lon="151.1661343">
    <tag k="addr:housenumber" v="55"/>
    <tag k="addr:street" v="Terry Street"/>
    <tag k="source" v="survey"/>
  </node>
  <node id="860710922" version="1" timestamp="2010-08-15T01:33:44Z" uid="7617" user="Franc" changeset="5495910" lat="-33.9192099" lon="151.1659433">
    <tag k="addr:housenumber" v="62"/>
    <tag k="addr:street" v="Terry Street"/>
    <tag k="source" v="survey"/>
  </node>
  <node id="860710923" version="1" timestamp="2010-08-15T01:33:44Z" uid="7617" user="Franc" changeset="5495910" lat="-33.9183149" lon="151.1640494">
    <tag k="addr:housenumber" v="115"/>
    <tag k="addr:street" v="Samuel Street"/>
    <tag k="source" v="survey"/>
  </node>
  <node id="860710924" version="1" timestamp="2010-08-15T01:33:44Z" uid="7617" user="Franc" changeset="5495910" lat="-33.9186728" lon="151.1641168">
    <tag k="addr:housenumber" v="86"/>
    <tag k="addr:street" v="Samuel Street"/>
    <tag k="source" v="survey"/>
  </node>
  <node id="860710925" version="1" timestamp="2010-08-15T01:33:44Z" uid="7617" user="Franc" changeset="5495910" lat="-33.9177657" lon="151.1647912">
    <tag k="addr:housenumber" v="127"/>
    <tag k="addr:street" v="Terry Street"/>
    <tag k="source" v="survey"/>
  </node>
  <node id="860710926" version="1" timestamp="2010-08-15T01:33:44Z" uid="7617" user="Franc" changeset="5495910" lat="-33.9179198" lon="151.164634">
    <tag k="addr:housenumber" v="122"/>
    <tag k="addr:street" v="Terry Street"/>
    <tag k="source" v="survey"/>
  </node>
  <node id="860710927" version="1" timestamp="2010-08-15T01:33:45Z" uid="7617" user="Franc" changeset="5495910" lat="-33.9178837" lon="151.1645935">
    <tag k="addr:housenumber" v="124"/>
    <tag k="addr:street" v="Terry Street"/>
    <tag k="source" v="survey"/>
  </node>
  <node id="860710928" version="1" timestamp="2010-08-15T01:33:45Z" uid="7617" user="Franc" changeset="5495910" lat="-33.9184662" lon="151.1662025"/>
  <node id="860710929" version="1" timestamp="2010-08-15T01:33:45Z" uid="7617" user="Franc" changeset="5495910" lat="-33.916885" lon="151.165665">
    <tag k="addr:housenumber" v="63"/>
    <tag k="addr:street" v="Unwins Bridge Road"/>
  </node>
  <node id="860710929" version="2" timestamp="2011-04-02T01:32:38Z" uid="7617" user="Franc" changeset="7740669" lat="-33.9169176" lon="151.1657028">
    <tag k="addr:housenumber" v="63"/>
    <tag k="addr:street" v="Unwins Bridge Road"/>
    <tag k="source" v="survey"/>
  </node>
  <node id="860710930" version="1" timestamp="2010-08-15T01:33:45Z" uid="7617" user="Franc" changeset="5495910" lat="-33.9173088" lon="151.1662638">
    <tag k="addr:housenumber" v="99"/>
    <tag k="addr:street" v="Park Road"/>
    <tag k="source" v="survey"/>
  </node>
  <node id="860710930" version="2" timestamp="2010-12-28T02:13:16Z" uid="7617" user="Franc" changeset="6784321" lat="-33.9173817" lon="151.1663354">
    <tag k="addr:housenumber" v="95"/>
    <tag k="addr:street" v="Park Road"/>
    <tag k="source" v="survey"/>
  </node>
  <node id="860710931" version="1" timestamp="2010-08-15T01:33:45Z" uid="7617" user="Franc" changeset="5495910" lat="-33.9202622" lon="151.1672972">
    <tag k="addr:housenumber" v="5"/>
    <tag k="addr:street" v="Terry Street"/>
    <tag k="source" v="survey"/>
  </node>
  <node id="860710932" version="1" timestamp="2010-08-15T01:33:45Z" uid="7617" user="Franc" changeset="5495910" lat="-33.9182392" lon="151.1669499">
    <tag k="addr:housenumber" v="56"/>
    <tag k="addr:street" v="Park Road"/>
    <tag k="source" v="survey"/>
  </node>
  <node id="860710932" version="2" timestamp="2010-12-28T02:13:26Z" uid="7617" user="Franc" changeset="6784321" lat="-33.9182361" lon="151.1669602">
    <tag k="addr:housenumber" v="56"/>
    <tag k="addr:street" v="Park Road"/>
    <tag k="source" v="survey"/>
  </node>
  <node id="860710933" version="1" timestamp="2010-08-15T01:33:45Z" uid="7617" user="Franc" changeset="5495910" lat="-33.9181474" lon="151.1671007">
    <tag k="addr:housenumber" v="57"/>
    <tag k="addr:street" v="Park Road"/>
    <tag k="source" v="survey"/>
  </node>
  <node id="860710934" version="1" timestamp="2010-08-15T01:33:45Z" uid="7617" user="Franc" changeset="5495910" lat="-33.9189881" lon="151.1692313">
    <tag k="addr:housenumber" v="463"/>
    <tag k="addr:street" v="Princes Highway"/>
  </node>
  <node id="860710934" version="2" timestamp="2011-05-06T10:28:55Z" uid="7617" user="Franc" changeset="8064166" lat="-33.918978" lon="151.1692374">
    <tag k="addr:housenumber" v="463"/>
    <tag k="addr:street" v="Princes Highway"/>
  </node>
  <node id="860711186" version="1" timestamp="2010-08-15T01:41:39Z" uid="74617" user="JohnSmith" changeset="5495926" lat="-26.4152406" lon="152.8982394"/>
  <node id="860711187" version="1" timestamp="2010-08-15T01:41:39Z" uid="74617" user="JohnSmith" changeset="5495926" lat="-26.4153692" lon="152.8978238"/>
  <node id="860711188" version="1" timestamp="2010-08-15T01:41:39Z" uid="74617" user="JohnSmith" changeset="5495926" lat="-26.4153184" lon="152.8981109"/>
  <node id="860711189" version="1" timestamp="2010-08-15T01:41:39Z" uid="74617" user="JohnSmith" changeset="5495926" lat="-26.4164688" lon="152.8985"/>
  <node id="860711190" version="1" timestamp="2010-08-15T01:41:39Z" uid="74617" user="JohnSmith" changeset="5495926" lat="-26.4151479" lon="152.8983195"/>
  <node id="860711191" version="1" timestamp="2010-08-15T01:41:39Z" uid="74617" user="JohnSmith" changeset="5495926" lat="-26.415315" lon="152.8979182"/>
  <node id="860711434" version="1" timestamp="2010-08-15T01:46:11Z" uid="74617" user="JohnSmith" changeset="5495933" lat="-26.4222007" lon="152.9075129"/>
  <node id="860711435" version="1" timestamp="2010-08-15T01:46:11Z" uid="74617" user="JohnSmith" changeset="5495933" lat="-26.4221971" lon="152.907604"/>
  <node id="860711436" version="1" timestamp="2010-08-15T01:46:12Z" uid="74617" user="JohnSmith" changeset="5495933" lat="-26.4223938" lon="152.9075773"/>
  <node id="860711437" version="1" timestamp="2010-08-15T01:46:12Z" uid="74617" user="JohnSmith" changeset="5495933" lat="-26.4222716" lon="152.9076246"/>
  <node id="860711438" version="1" timestamp="2010-08-15T01:46:12Z" uid="74617" user="JohnSmith" changeset="5495933" lat="-26.4222369" lon="152.9076309"/>
  <node id="860711439" version="1" timestamp="2010-08-15T01:46:12Z" uid="74617" user="JohnSmith" changeset="5495933" lat="-26.422305" lon="152.9075287"/>
  <node id="860711440" version="1" timestamp="2010-08-15T01:46:12Z" uid="74617" user="JohnSmith" changeset="5495933" lat="-26.4223121" lon="152.9075604"/>
  <node id="860711441" version="1" timestamp="2010-08-15T01:46:12Z" uid="74617" user="JohnSmith" changeset="5495933" lat="-26.4221851" lon="152.9075573"/>
  <node id="860711442" version="1" timestamp="2010-08-15T01:46:12Z" uid="74617" user="JohnSmith" changeset="5495933" lat="-26.4223003" lon="152.907717"/>
  <node id="860711443" version="1" timestamp="2010-08-15T01:46:12Z" uid="74617" user="JohnSmith" changeset="5495933" lat="-26.4223028" lon="152.9076008"/>
  <node id="860711444" version="1" timestamp="2010-08-15T01:46:12Z" uid="74617" user="JohnSmith" changeset="5495933" lat="-26.4222468" lon="152.907482"/>
  <node id="860712662" version="1" timestamp="2010-08-15T02:15:06Z" uid="7617" user="Franc" changeset="5495957" lat="-33.9238148" lon="151.1440015">
    <tag k="addr:housenumber" v="66"/>
    <tag k="addr:street" v="Undercliffe Road"/>
    <tag k="source" v="survey"/>
  </node>
  <node id="860712663" version="1" timestamp="2010-08-15T02:15:06Z" uid="7617" user="Franc" changeset="5495957" lat="-33.9210588" lon="151.142608">
    <tag k="addr:housenumber" v="3"/>
    <tag k="addr:street" v="Wharf Street"/>
    <tag k="source" v="survey"/>
  </node>
  <node id="860712664" version="1" timestamp="2010-08-15T02:15:06Z" uid="7617" user="Franc" changeset="5495957" lat="-33.9210219" lon="151.1425366">
    <tag k="addr:housenumber" v="5"/>
    <tag k="addr:street" v="Wharf Street"/>
    <tag k="source" v="survey"/>
  </node>
  <node id="860712665" version="1" timestamp="2010-08-15T02:15:06Z" uid="7617" user="Franc" changeset="5495957" lat="-33.9209837" lon="151.1424625">
    <tag k="addr:housenumber" v="7"/>
    <tag k="addr:street" v="Wharf Street"/>
    <tag k="source" v="extrapolation"/>
  </node>
  <node id="860712666" version="1" timestamp="2010-08-15T02:15:07Z" uid="7617" user="Franc" changeset="5495957" lat="-33.9209436" lon="151.1423849">
    <tag k="addr:housenumber" v="9"/>
    <tag k="addr:street" v="Wharf Street"/>
    <tag k="source" v="survey"/>
  </node>
  <node id="860712667" version="1" timestamp="2010-08-15T02:15:07Z" uid="7617" user="Franc" changeset="5495957" lat="-33.9209044" lon="151.1423089">
    <tag k="addr:housenumber" v="11"/>
    <tag k="addr:street" v="Wharf Street"/>
    <tag k="source" v="survey"/>
  </node>
  <node id="860712668" version="1" timestamp="2010-08-15T02:15:07Z" uid="7617" user="Franc" changeset="5495957" lat="-33.9208688" lon="151.14224">
    <tag k="addr:housenumber" v="13"/>
    <tag k="addr:street" v="Wharf Street"/>
    <tag k="source" v="survey"/>
  </node>
  <node id="860712669" version="1" timestamp="2010-08-15T02:15:07Z" uid="7617" user="Franc" changeset="5495957" lat="-33.920488" lon="151.1423746">
    <tag k="addr:housenumber" v="388"/>
    <tag k="addr:street" v="Livingstone Road"/>
    <tag k="source" v="survey"/>
  </node>
  <node id="860712670" version="1" timestamp="2010-08-15T02:15:07Z" uid="7617" user="Franc" changeset="5495957" lat="-33.9203859" lon="151.1421403">
    <tag k="addr:housenumber" v="381"/>
    <tag k="addr:street" v="Livingstone Road"/>
    <tag k="source" v="extrapolation"/>
  </node>
  <node id="860712670" version="2" timestamp="2010-11-20T01:26:52Z" uid="7617" user="Franc" changeset="6411501" lat="-33.9203998" lon="151.1421756">
    <tag k="addr:housenumber" v="381"/>
    <tag k="addr:street" v="Livingstone Road"/>
    <tag k="source" v="extrapolation"/>
  </node>
  <node id="860712671" version="1" timestamp="2010-08-15T02:15:07Z" uid="7617" user="Franc" changeset="5495957" lat="-33.9238969" lon="151.1448001"/>
  <node id="860712672" version="1" timestamp="2010-08-15T02:15:07Z" uid="7617" user="Franc" changeset="5495957" lat="-33.9238988" lon="151.1453984"/>
  <node id="860712673" version="1" timestamp="2010-08-15T02:15:07Z" uid="7617" user="Franc" changeset="5495957" lat="-33.9238721" lon="151.1460727"/>
  <node id="860712674" version="1" timestamp="2010-08-15T02:15:07Z" uid="7617" user="Franc" changeset="5495957" lat="-33.9242432" lon="151.1480912">
    <tag k="addr:housenumber" v="10"/>
    <tag k="addr:street" v="Undercliffe Road"/>
    <tag k="source" v="survey"/>
  </node>
  <node id="860712675" version="1" timestamp="2010-08-15T02:15:07Z" uid="7617" user="Franc" changeset="5495957" lat="-33.9242404" lon="151.1483295">
    <tag k="addr:housenumber" v="8"/>
    <tag k="addr:street" v="Undercliffe Road"/>
    <tag k="source" v="survey"/>
  </node>
  <node id="860712676" version="1" timestamp="2010-08-15T02:15:07Z" uid="7617" user="Franc" changeset="5495957" lat="-33.9242483" lon="151.1475088"/>
  <node id="860712677" version="1" timestamp="2010-08-15T02:15:07Z" uid="7617" user="Franc" changeset="5495957" lat="-33.9236489" lon="151.1487179">
    <tag k="addr:housenumber" v="1"/>
    <tag k="addr:street" v="Pine Avenue"/>
    <tag k="source" v="survey"/>
  </node>
  <node id="860712678" version="1" timestamp="2010-08-15T02:15:07Z" uid="7617" user="Franc" changeset="5495957" lat="-33.9210522" lon="151.1488677">
    <tag k="addr:housenumber" v="66"/>
    <tag k="addr:street" v="Thornley Street"/>
    <tag k="source" v="survey"/>
  </node>
  <node id="860712679" version="1" timestamp="2010-08-15T02:15:07Z" uid="7617" user="Franc" changeset="5495957" lat="-33.9211635" lon="151.149044">
    <tag k="addr:housenumber" v="66a"/>
    <tag k="addr:street" v="Thornley Street"/>
    <tag k="source" v="survey"/>
  </node>
  <node id="860712680" version="1" timestamp="2010-08-15T02:15:08Z" uid="7617" user="Franc" changeset="5495957" lat="-33.9208395" lon="151.1488727">
    <tag k="addr:housenumber" v="43"/>
    <tag k="addr:street" v="Thornley Street"/>
    <tag k="source" v="survey"/>
  </node>
  <node id="860712681" version="1" timestamp="2010-08-15T02:15:08Z" uid="7617" user="Franc" changeset="5495957" lat="-33.920891" lon="151.1489749">
    <tag k="addr:housenumber" v="45"/>
    <tag k="addr:street" v="Thornley Street"/>
    <tag k="source" v="extrapolation"/>
  </node>
  <node id="860712682" version="1" timestamp="2010-08-15T02:15:08Z" uid="7617" user="Franc" changeset="5495957" lat="-33.9193459" lon="151.1433911">
    <tag k="addr:housenumber" v="2"/>
    <tag k="addr:street" v="Wallace Street"/>
    <tag k="source" v="survey"/>
  </node>
  <node id="860712683" version="1" timestamp="2010-08-15T02:15:08Z" uid="7617" user="Franc" changeset="5495957" lat="-33.9195478" lon="151.143792">
    <tag k="addr:housenumber" v="12"/>
    <tag k="addr:street" v="Wallace Street"/>
    <tag k="source" v="survey"/>
  </node>
  <node id="860712684" version="1" timestamp="2010-08-15T02:15:08Z" uid="7617" user="Franc" changeset="5495957" lat="-33.9199874" lon="151.1469383">
    <tag k="addr:housenumber" v="24"/>
    <tag k="addr:street" v="Thornley Street"/>
    <tag k="source" v="survey"/>
  </node>
  <node id="860712685" version="1" timestamp="2010-08-15T02:15:08Z" uid="7617" user="Franc" changeset="5495957" lat="-33.9198387" lon="151.1466792">
    <tag k="addr:housenumber" v="18"/>
    <tag k="addr:street" v="Thornley Street"/>
    <tag k="source" v="survey"/>
  </node>
  <node id="860712686" version="1" timestamp="2010-08-15T02:15:08Z" uid="7617" user="Franc" changeset="5495957" lat="-33.9199246" lon="151.1468298">
    <tag k="addr:housenumber" v="22"/>
    <tag k="addr:street" v="Thornley Street"/>
    <tag k="source" v="survey"/>
  </node>
  <node id="860712687" version="1" timestamp="2010-08-15T02:15:08Z" uid="7617" user="Franc" changeset="5495957" lat="-33.9174608" lon="151.149218">
    <tag k="addr:housenumber" v="1a"/>
    <tag k="addr:street" v="Cary Street"/>
  </node>
  <node id="860712688" version="1" timestamp="2010-08-15T02:15:08Z" uid="7617" user="Franc" changeset="5495957" lat="-33.9218934" lon="151.1526367">
    <tag k="addr:housenumber" v="98"/>
    <tag k="addr:street" v="Thornley Street"/>
    <tag k="source" v="survey"/>
  </node>
  <node id="860712689" version="1" timestamp="2010-08-15T02:15:08Z" uid="7617" user="Franc" changeset="5495957" lat="-33.9213936" lon="151.1508714">
    <tag k="addr:housenumber" v="22"/>
    <tag k="addr:street" v="McGowan Avenue"/>
    <tag k="source" v="survey"/>
  </node>
  <node id="860712689" version="2" timestamp="2011-04-24T00:32:59Z" uid="7617" user="Franc" changeset="7948668" lat="-33.9213816" lon="151.1508625">
    <tag k="addr:housenumber" v="22"/>
    <tag k="addr:street" v="McGowan Avenue"/>
    <tag k="source" v="survey"/>
  </node>
  <node id="860712690" version="1" timestamp="2010-08-15T02:15:08Z" uid="7617" user="Franc" changeset="5495957" lat="-33.9212551" lon="151.1508111">
    <tag k="addr:housenumber" v="19"/>
    <tag k="addr:street" v="McGowan Avenue"/>
    <tag k="source" v="exrapolation"/>
  </node>
  <node id="860712690" version="2" timestamp="2011-05-29T08:31:44Z" uid="7617" user="Franc" changeset="8278454" lat="-33.9212551" lon="151.1508111">
    <tag k="addr:housenumber" v="19"/>
    <tag k="addr:street" v="McGowan Avenue"/>
    <tag k="source" v="extrapolation"/>
  </node>
  <node id="860712691" version="1" timestamp="2010-08-15T02:15:09Z" uid="7617" user="Franc" changeset="5495957" lat="-33.921161" lon="151.1508876">
    <tag k="addr:housenumber" v="17"/>
    <tag k="addr:street" v="McGowan Avenue"/>
    <tag k="source" v="survey"/>
  </node>
  <node id="860712692" version="1" timestamp="2010-08-15T02:15:09Z" uid="7617" user="Franc" changeset="5495957" lat="-33.9210726" lon="151.1509594">
    <tag k="addr:housenumber" v="15"/>
    <tag k="addr:street" v="McGowan Avenue"/>
    <tag k="source" v="survey"/>
  </node>
  <node id="860712693" version="1" timestamp="2010-08-15T02:15:09Z" uid="7617" user="Franc" changeset="5495957" lat="-33.9209827" lon="151.1510325">
    <tag k="addr:housenumber" v="13"/>
    <tag k="addr:street" v="McGowan Avenue"/>
    <tag k="source" v="survey"/>
  </node>
  <node id="860712694" version="1" timestamp="2010-08-15T02:15:09Z" uid="7617" user="Franc" changeset="5495957" lat="-33.9208932" lon="151.1511052">
    <tag k="addr:housenumber" v="11"/>
    <tag k="addr:street" v="McGowan Avenue"/>
    <tag k="source" v="survey"/>
  </node>
  <node id="860712695" version="1" timestamp="2010-08-15T02:15:09Z" uid="7617" user="Franc" changeset="5495957" lat="-33.9208005" lon="151.1511806">
    <tag k="addr:housenumber" v="9"/>
    <tag k="addr:street" v="McGowan Avenue"/>
    <tag k="source" v="survey"/>
  </node>
  <node id="860712696" version="1" timestamp="2010-08-15T02:15:09Z" uid="7617" user="Franc" changeset="5495957" lat="-33.9207077" lon="151.151256">
    <tag k="addr:housenumber" v="7"/>
    <tag k="addr:street" v="McGowan Avenue"/>
    <tag k="source" v="survey"/>
  </node>
  <node id="860712697" version="1" timestamp="2010-08-15T02:15:09Z" uid="7617" user="Franc" changeset="5495957" lat="-33.9204323" lon="151.1514798">
    <tag k="addr:housenumber" v="1"/>
    <tag k="addr:street" v="McGowan Avenue"/>
    <tag k="source" v="survey"/>
  </node>
  <node id="860712698" version="1" timestamp="2010-08-15T02:15:09Z" uid="7617" user="Franc" changeset="5495957" lat="-33.9206232" lon="151.1513247">
    <tag k="addr:housenumber" v="5"/>
    <tag k="addr:street" v="McGowan Avenue"/>
    <tag k="source" v="survey"/>
  </node>
  <node id="860712699" version="1" timestamp="2010-08-15T02:15:09Z" uid="7617" user="Franc" changeset="5495957" lat="-33.9205287" lon="151.1514015">
    <tag k="addr:housenumber" v="3"/>
    <tag k="addr:street" v="McGowan Avenue"/>
    <tag k="source" v="survey"/>
  </node>
  <node id="860712700" version="1" timestamp="2010-08-15T02:15:09Z" uid="7617" user="Franc" changeset="5495957" lat="-33.9204979" lon="151.1526237">
    <tag k="addr:housenumber" v="77"/>
    <tag k="addr:street" v="Premier Street"/>
    <tag k="source" v="survey"/>
  </node>
  <node id="860712701" version="1" timestamp="2010-08-15T02:15:09Z" uid="7617" user="Franc" changeset="5495957" lat="-33.9204204" lon="151.152487">
    <tag k="addr:housenumber" v="75"/>
    <tag k="addr:street" v="Premier Street"/>
    <tag k="source" v="survey"/>
  </node>
  <node id="860712702" version="1" timestamp="2010-08-15T02:15:10Z" uid="7617" user="Franc" changeset="5495957" lat="-33.9203633" lon="151.152368">
    <tag k="addr:housenumber" v="73"/>
    <tag k="addr:street" v="Premier Street"/>
    <tag k="source" v="survey"/>
  </node>
  <node id="860712703" version="1" timestamp="2010-08-15T02:15:10Z" uid="7617" user="Franc" changeset="5495957" lat="-33.9218047" lon="151.1527594">
    <tag k="addr:housenumber" v="100"/>
    <tag k="addr:street" v="Thornley Street"/>
    <tag k="source" v="survey"/>
  </node>
  <node id="860712703" version="2" timestamp="2011-05-21T03:36:13Z" uid="7617" user="Franc" changeset="8203609" lat="-33.9218073" lon="151.152771">
    <tag k="addr:housenumber" v="100"/>
    <tag k="addr:street" v="Thornley Street"/>
    <tag k="source" v="survey"/>
  </node>
  <node id="860712704" version="1" timestamp="2010-08-15T02:15:10Z" uid="7617" user="Franc" changeset="5495957" lat="-33.9211644" lon="151.1533888">
    <tag k="addr:housenumber" v="100"/>
    <tag k="addr:street" v="Premier Street"/>
    <tag k="source" v="survey"/>
  </node>
  <node id="860712705" version="1" timestamp="2010-08-15T02:15:10Z" uid="7617" user="Franc" changeset="5495957" lat="-33.9211929" lon="151.153452">
    <tag k="addr:housenumber" v="102"/>
    <tag k="addr:street" v="Premier Street"/>
    <tag k="source" v="survey"/>
  </node>
  <node id="860712706" version="1" timestamp="2010-08-15T02:15:10Z" uid="7617" user="Franc" changeset="5495957" lat="-33.920903" lon="151.1529037">
    <tag k="addr:housenumber" v="94"/>
    <tag k="addr:street" v="Premier Street"/>
  </node>
  <node id="860712707" version="1" timestamp="2010-08-15T02:15:10Z" uid="7617" user="Franc" changeset="5495957" lat="-33.9179849" lon="151.15533">
    <tag k="addr:housenumber" v="18"/>
    <tag k="addr:street" v="Ruby Street"/>
    <tag k="source" v="survey"/>
  </node>
  <node id="860712707" version="2" timestamp="2011-02-27T13:34:14Z" uid="7617" user="Franc" changeset="7410705" lat="-33.9179755" lon="151.1553248">
    <tag k="addr:housenumber" v="18"/>
    <tag k="addr:street" v="Ruby Street"/>
    <tag k="source" v="survey"/>
  </node>
  <node id="860712708" version="1" timestamp="2010-08-15T02:15:10Z" uid="7617" user="Franc" changeset="5495957" lat="-33.9179526" lon="151.1552746">
    <tag k="addr:housenumber" v="20"/>
    <tag k="addr:street" v="Ruby Street"/>
    <tag k="source" v="survey"/>
  </node>
  <node id="860712709" version="1" timestamp="2010-08-15T02:15:10Z" uid="7617" user="Franc" changeset="5495957" lat="-33.9174008" lon="151.1546512"/>
  <node id="860712709" version="2" timestamp="2011-02-27T13:34:37Z" uid="7617" user="Franc" changeset="7410705" lat="-33.9174008" lon="151.1546512"/>
  <node id="860712710" version="1" timestamp="2010-08-15T02:15:10Z" uid="7617" user="Franc" changeset="5495957" lat="-33.9172664" lon="151.1543451"/>
  <node id="860712710" version="2" timestamp="2011-02-27T13:34:39Z" uid="7617" user="Franc" changeset="7410705" lat="-33.9172664" lon="151.1543451"/>
  <node id="860712711" version="1" timestamp="2010-08-15T02:15:10Z" uid="7617" user="Franc" changeset="5495957" lat="-33.9171802" lon="151.1542014">
    <tag k="addr:housenumber" v="25"/>
    <tag k="addr:street" v="Ruby Street"/>
    <tag k="source" v="survey"/>
  </node>
  <node id="860712711" version="2" timestamp="2011-02-27T13:33:59Z" uid="7617" user="Franc" changeset="7410705" lat="-33.917152" lon="151.1542206">
    <tag k="addr:housenumber" v="25"/>
    <tag k="addr:street" v="Ruby Street"/>
    <tag k="source" v="survey"/>
  </node>
  <node id="860712712" version="1" timestamp="2010-08-15T02:15:10Z" uid="7617" user="Franc" changeset="5495957" lat="-33.918037" lon="151.1558037">
    <tag k="addr:housenumber" v="7"/>
    <tag k="addr:street" v="Ruby Street"/>
    <tag k="source" v="survey"/>
  </node>
  <node id="860712712" version="2" timestamp="2011-02-27T13:33:58Z" uid="7617" user="Franc" changeset="7410705" lat="-33.9180211" lon="151.1558037">
    <tag k="addr:housenumber" v="7"/>
    <tag k="addr:street" v="Ruby Street"/>
    <tag k="source" v="survey"/>
  </node>
  <node id="860712713" version="1" timestamp="2010-08-15T02:15:10Z" uid="7617" user="Franc" changeset="5495957" lat="-33.9181289" lon="151.155971">
    <tag k="addr:housenumber" v="3"/>
    <tag k="addr:street" v="Ruby Street"/>
    <tag k="source" v="survey"/>
  </node>
  <node id="860712713" version="2" timestamp="2011-02-27T13:34:17Z" uid="7617" user="Franc" changeset="7410705" lat="-33.9181173" lon="151.1559701">
    <tag k="addr:housenumber" v="3"/>
    <tag k="addr:street" v="Ruby Street"/>
    <tag k="source" v="survey"/>
  </node>
  <node id="860712714" version="1" timestamp="2010-08-15T02:15:11Z" uid="7617" user="Franc" changeset="5495957" lat="-33.918072" lon="151.1558747">
    <tag k="addr:housenumber" v="5"/>
    <tag k="addr:street" v="Ruby Street"/>
    <tag k="source" v="survey"/>
  </node>
  <node id="860712714" version="2" timestamp="2011-02-27T13:34:25Z" uid="7617" user="Franc" changeset="7410705" lat="-33.9180641" lon="151.1558738">
    <tag k="addr:housenumber" v="5"/>
    <tag k="addr:street" v="Ruby Street"/>
    <tag k="source" v="survey"/>
  </node>
</osm>
