<?xml version='1.0' encoding='UTF-8'?>
<osm version="0.6" generator="libosmium/2.20.0">
  <node id="860860424" version="1" timestamp="2010-08-15T07:06:23Z" uid="4467" user="Rosscoe" changeset="5496517" lat="-21.0883397" lon="149.0513535"/>
  <node id="860860434" version="1" timestamp="2010-08-15T07:06:24Z" uid="4467" user="Rosscoe" changeset="5496517" lat="-21.0909437" lon="149.0521273"/>
  <node id="860860450" version="1" timestamp="2010-08-15T07:06:25Z" uid="4467" user="Rosscoe" changeset="5496517" lat="-21.0881037" lon="149.051273"/>
  <node id="860860462" version="1" timestamp="2010-08-15T07:06:26Z" uid="4467" user="Rosscoe" changeset="5496517" lat="-21.0876682" lon="149.0510516"/>
  <node id="860860478" version="1" timestamp="2010-08-15T07:06:27Z" uid="4467" user="Rosscoe" changeset="5496517" lat="-21.0861249" lon="149.0500712"/>
  <node id="860860499" version="1" timestamp="2010-08-15T07:06:29Z" uid="4467" user="Rosscoe" changeset="5496517" lat="-21.0894082" lon="149.0515291"/>
  <node id="860860527" version="1" timestamp="2010-08-15T07:06:31Z" uid="4467" user="Rosscoe" changeset="5496517" lat="-21.0911423" lon="149.0522781"/>
  <node id="860860541" version="1" timestamp="2010-08-15T07:06:32Z" uid="4467" user="Rosscoe" changeset="5496517" lat="-21.0896754" lon="149.0515822"/>
  <node id="860860551" version="1" timestamp="2010-08-15T07:06:33Z" uid="4467" user="Rosscoe" changeset="5496517" lat="-21.0886251" lon="149.0514193"/>
  <node id="860860565" version="1" timestamp="2010-08-15T07:06:34Z" uid="4467" user="Rosscoe" changeset="5496517" lat="-21.0910524" lon="149.0522191"/>
  <node id="860860575" version="1" timestamp="2010-08-15T07:06:34Z" uid="4467" user="Rosscoe" changeset="5496517" lat="-21.0908004" lon="149.0520261"/>
  <node id="860860587" version="1" timestamp="2010-08-15T07:06:35Z" uid="4467" user="Rosscoe" changeset="5496517" lat="-21.0878786" lon="149.0511742"/>
  <node id="860860599" version="1" timestamp="2010-08-15T07:06:36Z" uid="4467" user="Rosscoe" changeset="5496517" lat="-21.0862851" lon="149.050133"/>
  <node id="860860609" version="1" timestamp="2010-08-15T07:06:37Z" uid="4467" user="Rosscoe" changeset="5496517" lat="-21.0864519" lon="149.0502305"/>
  <node id="860860620" version="1" timestamp="2010-08-15T07:06:38Z" uid="4467" user="Rosscoe" changeset="5496517" lat="-21.0912294" lon="149.0523306"/>
  <node id="860860620" version="2" timestamp="2010-08-15T07:11:16Z" uid="4467" user="Rosscoe" changeset="5496535" lat="-21.0912294" lon="149.0523306">
    <tag k="fixme" v="continues"/>
  </node>
  <node id="860860620" version="3" timestamp="2010-08-18T10:06:06Z" uid="4467" user="Rosscoe" changeset="5525153" lat="-21.0928644" lon="149.0529971"/>
  <node id="860860634" version="1" timestamp="2010-08-15T07:06:39Z" uid="4467" user="Rosscoe" changeset="5496517" lat="-21.088788" lon="149.0514468"/>
  <node id="860862435" version="1" timestamp="2010-08-15T07:08:24Z" uid="33382" user="de_muur" changeset="5496523" lat="53.0487578" lon="8.8582663">
    <tag k="direction_northeast" v="Weserstadion 4.1km; Hemelingen 4.0km; Hastedt 3.0km"/>
    <tag k="direction_northwest" v="Centrum 6.1km; Huckelriede 2.9km"/>
    <tag k="direction_southeast" v="Arsten 2.2km; Kattenturm 3.8km"/>
    <tag k="information" v="guidepost"/>
    <tag k="network" v="lcn"/>
    <tag k="operator" v="GeoInformation Bremen"/>
    <tag k="route" v="bicycle"/>
    <tag k="tourism" v="information"/>
  </node>
  <node id="860863747" version="2" timestamp="2010-11-10T11:48:16Z" uid="33382" user="de_muur" changeset="6335295" lat="53.3967889" lon="10.5409774"/>
  <node id="860867281" version="1" timestamp="2010-08-15T07:10:59Z" uid="4467" user="Rosscoe" changeset="5496535" lat="-21.084355" lon="149.0530776"/>
  <node id="860867299" version="1" timestamp="2010-08-15T07:10:59Z" uid="4467" user="Rosscoe" changeset="5496535" lat="-21.0825016" lon="149.0604402"/>
  <node id="860867309" version="1" timestamp="2010-08-15T07:11:00Z" uid="4467" user="Rosscoe" changeset="5496535" lat="-21.0843752" lon="149.0533832"/>
  <node id="860867318" version="1" timestamp="2010-08-15T07:11:01Z" uid="4467" user="Rosscoe" changeset="5496535" lat="-21.0825986" lon="149.0598291"/>
  <node id="860867339" version="1" timestamp="2010-08-15T07:11:02Z" uid="4467" user="Rosscoe" changeset="5496535" lat="-21.0828602" lon="149.0588301"/>
  <node id="860867365" version="1" timestamp="2010-08-15T07:11:03Z" uid="4467" user="Rosscoe" changeset="5496535" lat="-21.0842233" lon="149.0542998"/>
  <node id="860867409" version="1" timestamp="2010-08-15T07:11:04Z" uid="4467" user="Rosscoe" changeset="5496535" lat="-21.0842873" lon="149.0540602"/>
  <node id="860867448" version="1" timestamp="2010-08-15T07:11:04Z" uid="4467" user="Rosscoe" changeset="5496535" lat="-21.0843624" lon="149.0535625"/>
  <node id="860867489" version="1" timestamp="2010-08-15T07:11:05Z" uid="4467" user="Rosscoe" changeset="5496535" lat="-21.0825437" lon="149.0601401"/>
  <node id="860867514" version="1" timestamp="2010-08-15T07:11:06Z" uid="4467" user="Rosscoe" changeset="5496535" lat="-21.0827779" lon="149.0591137"/>
  <node id="860867537" version="1" timestamp="2010-08-15T07:11:07Z" uid="4467" user="Rosscoe" changeset="5496535" lat="-21.0823333" lon="149.0617301">
    <tag k="fixme" v="continues"/>
  </node>
  <node id="860867537" version="2" timestamp="2010-08-15T07:21:01Z" uid="4467" user="Rosscoe" changeset="5496574" lat="-21.0823333" lon="149.0617301">
    <tag k="fixme" v="continues"/>
  </node>
  <node id="860867559" version="1" timestamp="2010-08-15T07:11:08Z" uid="4467" user="Rosscoe" changeset="5496535" lat="-21.0826626" lon="149.0595254"/>
  <node id="860867596" version="1" timestamp="2010-08-15T07:11:09Z" uid="4467" user="Rosscoe" changeset="5496535" lat="-21.0833634" lon="149.057134"/>
  <node id="860867643" version="1" timestamp="2010-08-15T07:11:11Z" uid="4467" user="Rosscoe" changeset="5496535" lat="-21.0843349" lon="149.0538095"/>
  <node id="860869100" version="1" timestamp="2010-08-15T07:12:07Z" uid="7617" user="Franc" changeset="5496539" lat="-33.9198973" lon="151.1412535">
    <tag k="addr:housenumber" v="112"/>
    <tag k="addr:street" v="Beauchamp Street"/>
    <tag k="source" v="survey"/>
  </node>
  <node id="860869103" version="1" timestamp="2010-08-15T07:12:07Z" uid="7617" user="Franc" changeset="5496539" lat="-33.9177435" lon="151.1428486"/>
  <node id="860869103" version="2" timestamp="2011-02-27T13:34:38Z" uid="7617" user="Franc" changeset="7410705" lat="-33.9177435" lon="151.1428486"/>
  <node id="860869109" version="1" timestamp="2010-08-15T07:12:07Z" uid="7617" user="Franc" changeset="5496539" lat="-33.918021" lon="151.1423861">
    <tag k="addr:housenumber" v="93"/>
    <tag k="addr:street" v="Beauchamp Street"/>
    <tag k="source" v="survey"/>
  </node>
  <node id="860869111" version="1" timestamp="2010-08-15T07:12:07Z" uid="7617" user="Franc" changeset="5496539" lat="-33.9176904" lon="151.1426346"/>
  <node id="860869111" version="2" timestamp="2011-02-27T13:34:42Z" uid="7617" user="Franc" changeset="7410705" lat="-33.9176904" lon="151.1426346"/>
  <node id="860869114" version="1" timestamp="2010-08-15T07:12:07Z" uid="7617" user="Franc" changeset="5496539" lat="-33.91502" lon="151.1403875">
    <tag k="addr:housenumber" v="36"/>
    <tag k="addr:street" v="Riverside Crescent"/>
    <tag k="source" v="survey"/>
  </node>
  <node id="860869118" version="1" timestamp="2010-08-15T07:12:07Z" uid="7617" user="Franc" changeset="5496539" lat="-33.9148365" lon="151.140354"/>
  <node id="860869120" version="1" timestamp="2010-08-15T07:12:07Z" uid="7617" user="Franc" changeset="5496539" lat="-33.9171042" lon="151.1429382">
    <tag k="addr:housenumber" v="38"/>
    <tag k="addr:street" v="Beauchamp Street"/>
    <tag k="source" v="survey"/>
  </node>
  <node id="860869125" version="1" timestamp="2010-08-15T07:12:08Z" uid="7617" user="Franc" changeset="5496539" lat="-33.9171699" lon="151.1429289">
    <tag k="addr:housenumber" v="40"/>
    <tag k="addr:street" v="Beauchamp Street"/>
    <tag k="source" v="survey"/>
  </node>
  <node id="860869125" version="2" timestamp="2011-02-27T13:34:24Z" uid="7617" user="Franc" changeset="7410705" lat="-33.9171512" lon="151.1429289">
    <tag k="addr:housenumber" v="40"/>
    <tag k="addr:street" v="Beauchamp Street"/>
    <tag k="source" v="survey"/>
  </node>
  <node id="860869128" version="1" timestamp="2010-08-15T07:12:08Z" uid="7617" user="Franc" changeset="5496539" lat="-33.9170473" lon="151.1427143">
    <tag k="addr:housenumber" v="75"/>
    <tag k="addr:street" v="Beauchamp Street"/>
    <tag k="source" v="survey"/>
  </node>
  <node id="860869131" version="1" timestamp="2010-08-15T07:12:08Z" uid="7617" user="Franc" changeset="5496539" lat="-33.9169559" lon="151.142722"/>
  <node id="860869131" version="2" timestamp="2011-02-27T13:34:28Z" uid="7617" user="Franc" changeset="7410705" lat="-33.9169263" lon="151.1427145">
    <tag k="addr:housenumber" v="73"/>
    <tag k="addr:street" v="Beauchamp Street"/>
  </node>
  <node id="860869133" version="1" timestamp="2010-08-15T07:12:08Z" uid="7617" user="Franc" changeset="5496539" lat="-33.9162211" lon="151.142426">
    <tag k="addr:housenumber" v="63"/>
    <tag k="addr:street" v="Beauchamp Street"/>
    <tag k="source" v="survey"/>
  </node>
  <node id="860869141" version="1" timestamp="2010-08-15T07:12:08Z" uid="7617" user="Franc" changeset="5496539" lat="-33.914852" lon="151.142639">
    <tag k="name" v="41"/>
    <tag k="note" v="41"/>
  </node>
  <node id="860869141" version="2" timestamp="2010-08-15T08:45:14Z" uid="7617" user="Franc" changeset="5497113" lat="-33.914852" lon="151.142639">
    <tag k="name" v="41"/>
    <tag k="note" v="41"/>
  </node>
  <node id="860869144" version="1" timestamp="2010-08-15T07:12:08Z" uid="7617" user="Franc" changeset="5496539" lat="-33.915192" lon="151.142502">
    <tag k="name" v="45"/>
    <tag k="note" v="45"/>
  </node>
  <node id="860869144" version="2" timestamp="2010-08-15T08:45:14Z" uid="7617" user="Franc" changeset="5497113" lat="-33.915192" lon="151.142502">
    <tag k="name" v="45"/>
    <tag k="note" v="45"/>
  </node>
  <node id="860869146" version="1" timestamp="2010-08-15T07:12:08Z" uid="7617" user="Franc" changeset="5496539" lat="-33.9150322" lon="151.1428212">
    <tag k="addr:housenumber" v="22"/>
    <tag k="addr:street" v="Beauchamp Street"/>
    <tag k="source" v="survey"/>
  </node>
  <node id="860869150" version="1" timestamp="2010-08-15T07:12:08Z" uid="7617" user="Franc" changeset="5496539" lat="-33.9149077" lon="151.1428733">
    <tag k="addr:housenumber" v="20"/>
    <tag k="addr:street" v="Beauchamp Street"/>
    <tag k="source" v="survey"/>
  </node>
  <node id="860869150" version="2" timestamp="2011-02-27T17:07:41Z" uid="7617" user="Franc" changeset="7412905" lat="-33.9148988" lon="151.1428733">
    <tag k="addr:housenumber" v="20"/>
    <tag k="addr:street" v="Beauchamp Street"/>
    <tag k="source" v="survey"/>
  </node>
  <node id="860869157" version="1" timestamp="2010-08-15T07:12:08Z" uid="7617" user="Franc" changeset="5496539" lat="-33.9149141" lon="151.1418735">
    <tag k="addr:housenumber" v="3"/>
    <tag k="addr:street" v="Riverside Crescent"/>
    <tag k="source" v="survey"/>
  </node>
  <node id="860869159" version="1" timestamp="2010-08-15T07:12:08Z" uid="7617" user="Franc" changeset="5496539" lat="-33.9151286" lon="151.1420351">
    <tag k="addr:housenumber" v="2"/>
    <tag k="addr:street" v="Riverside Crescent"/>
    <tag k="source" v="survey"/>
  </node>
  <node id="860869161" version="1" timestamp="2010-08-15T07:12:09Z" uid="7617" user="Franc" changeset="5496539" lat="-33.913422" lon="151.132446">
    <tag k="name" v="5"/>
    <tag k="note" v="5"/>
  </node>
  <node id="860869161" version="2" timestamp="2010-08-15T08:45:17Z" uid="7617" user="Franc" changeset="5497113" lat="-33.913422" lon="151.132446">
    <tag k="name" v="5"/>
    <tag k="note" v="5"/>
  </node>
  <node id="860869164" version="1" timestamp="2010-08-15T07:12:09Z" uid="7617" user="Franc" changeset="5496539" lat="-33.914078" lon="151.130096">
    <tag k="name" v="2 Smith"/>
    <tag k="note" v="2"/>
  </node>
  <node id="860869164" version="2" timestamp="2010-08-15T08:45:15Z" uid="7617" user="Franc" changeset="5497113" lat="-33.914078" lon="151.130096">
    <tag k="name" v="2 Smith"/>
    <tag k="note" v="2"/>
  </node>
  <node id="860869167" version="1" timestamp="2010-08-15T07:12:09Z" uid="7617" user="Franc" changeset="5496539" lat="-33.91415" lon="151.129776">
    <tag k="name" v="1"/>
    <tag k="note" v="1"/>
  </node>
  <node id="860869167" version="2" timestamp="2010-08-15T08:44:55Z" uid="7617" user="Franc" changeset="5497113" lat="-33.9141677" lon="151.1298244">
    <tag k="addr:housenumber" v="1"/>
    <tag k="addr:street" v="Smith Street"/>
    <tag k="source" v="survey"/>
  </node>
  <node id="860869175" version="1" timestamp="2010-08-15T07:12:09Z" uid="7617" user="Franc" changeset="5496539" lat="-33.914188" lon="151.130646">
    <tag k="name" v="60"/>
    <tag k="note" v="60"/>
  </node>
  <node id="860869175" version="2" timestamp="2010-08-15T08:45:15Z" uid="7617" user="Franc" changeset="5497113" lat="-33.914188" lon="151.130646">
    <tag k="name" v="60"/>
    <tag k="note" v="60"/>
  </node>
  <node id="860869176" version="1" timestamp="2010-08-15T07:12:09Z" uid="7617" user="Franc" changeset="5496539" lat="-33.913296" lon="151.130386">
    <tag k="name" v="16-20"/>
    <tag k="note" v="16-20"/>
  </node>
  <node id="860869176" version="2" timestamp="2010-08-15T08:44:55Z" uid="7617" user="Franc" changeset="5497113" lat="-33.9132606" lon="151.1303686">
    <tag k="addr:housenumber" v="16-20"/>
    <tag k="addr:street" v="Smith Street"/>
    <tag k="source" v="survey"/>
  </node>
  <node id="860869177" version="1" timestamp="2010-08-15T07:12:09Z" uid="7617" user="Franc" changeset="5496539" lat="-33.913204" lon="151.133118">
    <tag k="name" v="32"/>
    <tag k="note" v="32"/>
  </node>
  <node id="860869177" version="2" timestamp="2010-08-15T08:44:58Z" uid="7617" user="Franc" changeset="5497113" lat="-33.913212" lon="151.1331664">
    <tag k="addr:housenumber" v="32"/>
    <tag k="addr:street" v="Tennant Parada"/>
    <tag k="source" v="survey"/>
  </node>
  <node id="860869178" version="1" timestamp="2010-08-15T07:12:09Z" uid="7617" user="Franc" changeset="5496539" lat="-33.913105" lon="151.130203">
    <tag k="name" v="21"/>
    <tag k="note" v="21"/>
  </node>
  <node id="860869178" version="2" timestamp="2010-08-15T08:45:16Z" uid="7617" user="Franc" changeset="5497113" lat="-33.913105" lon="151.130203">
    <tag k="name" v="21"/>
    <tag k="note" v="21"/>
  </node>
  <node id="860869188" version="1" timestamp="2010-08-15T07:12:09Z" uid="7617" user="Franc" changeset="5496539" lat="-33.913322" lon="151.132614">
    <tag k="name" v="3"/>
    <tag k="note" v="3"/>
  </node>
  <node id="860869188" version="2" timestamp="2010-08-15T08:44:57Z" uid="7617" user="Franc" changeset="5497113" lat="-33.9134563" lon="151.132587">
    <tag k="addr:housenumber" v="3"/>
    <tag k="addr:street" v="Burnett Street"/>
    <tag k="source" v="survey"/>
  </node>
  <node id="860869192" version="1" timestamp="2010-08-15T07:12:09Z" uid="7617" user="Franc" changeset="5496539" lat="-33.913727" lon="151.130249">
    <tag k="name" v="10"/>
    <tag k="note" v="10"/>
  </node>
  <node id="860869192" version="2" timestamp="2010-08-15T08:45:16Z" uid="7617" user="Franc" changeset="5497113" lat="-33.913727" lon="151.130249">
    <tag k="name" v="10"/>
    <tag k="note" v="10"/>
  </node>
  <node id="860869194" version="1" timestamp="2010-08-15T07:12:09Z" uid="7617" user="Franc" changeset="5496539" lat="-33.913624" lon="151.132004">
    <tag k="name" v="4"/>
    <tag k="note" v="4"/>
  </node>
  <node id="860869194" version="2" timestamp="2010-08-15T08:45:16Z" uid="7617" user="Franc" changeset="5497113" lat="-33.913624" lon="151.132004">
    <tag k="name" v="4"/>
    <tag k="note" v="4"/>
  </node>
  <node id="860869195" version="1" timestamp="2010-08-15T07:12:09Z" uid="7617" user="Franc" changeset="5496539" lat="-33.913647" lon="151.132141">
    <tag k="name" v="2"/>
    <tag k="note" v="2"/>
  </node>
  <node id="860869195" version="2" timestamp="2010-08-15T08:45:17Z" uid="7617" user="Franc" changeset="5497113" lat="-33.913647" lon="151.132141">
    <tag k="name" v="2"/>
    <tag k="note" v="2"/>
  </node>
  <node id="860869197" version="1" timestamp="2010-08-15T07:12:09Z" uid="7617" user="Franc" changeset="5496539" lat="-33.912254" lon="151.138077">
    <tag k="name" v="2"/>
    <tag k="note" v="2"/>
  </node>
  <node id="860869197" version="2" timestamp="2010-08-15T08:45:00Z" uid="7617" user="Franc" changeset="5497113" lat="-33.9122099" lon="151.138099">
    <tag k="addr:housenumber" v="2"/>
    <tag k="addr:street" v="Tennyson Street"/>
    <tag k="source" v="survey"/>
  </node>
  <node id="860869205" version="1" timestamp="2010-08-15T07:12:10Z" uid="7617" user="Franc" changeset="5496539" lat="-33.9133423" lon="151.1386395"/>
  <node id="860869207" version="1" timestamp="2010-08-15T07:12:10Z" uid="7617" user="Franc" changeset="5496539" lat="-33.911812" lon="151.134995">
    <tag k="name" v="61"/>
    <tag k="note" v="61"/>
  </node>
  <node id="860869207" version="2" timestamp="2010-08-15T08:45:17Z" uid="7617" user="Franc" changeset="5497113" lat="-33.911812" lon="151.134995">
    <tag k="name" v="61"/>
    <tag k="note" v="61"/>
  </node>
  <node id="860869209" version="1" timestamp="2010-08-15T07:12:10Z" uid="7617" user="Franc" changeset="5496539" lat="-33.9109" lon="151.134949">
    <tag k="name" v="28"/>
    <tag k="note" v="28"/>
  </node>
  <node id="860869209" version="2" timestamp="2010-08-15T08:45:00Z" uid="7617" user="Franc" changeset="5497113" lat="-33.9108691" lon="151.134945">
    <tag k="addr:housenumber" v="28"/>
    <tag k="addr:street" v="Ness Avenue"/>
    <tag k="source" v="survey"/>
  </node>
  <node id="860869211" version="1" timestamp="2010-08-15T07:12:10Z" uid="7617" user="Franc" changeset="5496539" lat="-33.910904" lon="151.135086">
    <tag k="name" v="26"/>
    <tag k="note" v="26"/>
  </node>
  <node id="860869211" version="2" timestamp="2010-08-15T08:45:18Z" uid="7617" user="Franc" changeset="5497113" lat="-33.910904" lon="151.135086">
    <tag k="name" v="26"/>
    <tag k="note" v="26"/>
  </node>
  <node id="860869212" version="1" timestamp="2010-08-15T07:12:10Z" uid="7617" user="Franc" changeset="5496539" lat="-33.909584" lon="151.134567">
    <tag k="name" v="66"/>
    <tag k="note" v="66"/>
  </node>
  <node id="860869212" version="2" timestamp="2010-08-15T08:45:18Z" uid="7617" user="Franc" changeset="5497113" lat="-33.909584" lon="151.134567">
    <tag k="name" v="66"/>
    <tag k="note" v="66"/>
  </node>
  <node id="860869223" version="1" timestamp="2010-08-15T07:12:10Z" uid="7617" user="Franc" changeset="5496539" lat="-33.910656" lon="151.135071">
    <tag k="name" v="41"/>
    <tag k="note" v="41"/>
  </node>
  <node id="860869223" version="2" timestamp="2010-08-15T08:45:19Z" uid="7617" user="Franc" changeset="5497113" lat="-33.910656" lon="151.135071">
    <tag k="name" v="41"/>
    <tag k="note" v="41"/>
  </node>
  <node id="860869226" version="1" timestamp="2010-08-15T07:12:10Z" uid="7617" user="Franc" changeset="5496539" lat="-33.910648" lon="151.135193">
    <tag k="name" v="39"/>
    <tag k="note" v="39"/>
  </node>
  <node id="860869226" version="2" timestamp="2010-08-15T08:45:19Z" uid="7617" user="Franc" changeset="5497113" lat="-33.910648" lon="151.135193">
    <tag k="name" v="39"/>
    <tag k="note" v="39"/>
  </node>
  <node id="860869229" version="1" timestamp="2010-08-15T07:12:10Z" uid="7617" user="Franc" changeset="5496539" lat="-33.909828" lon="151.134583">
    <tag k="name" v="70"/>
    <tag k="note" v="70"/>
  </node>
  <node id="860869229" version="2" timestamp="2010-08-15T08:45:18Z" uid="7617" user="Franc" changeset="5497113" lat="-33.909828" lon="151.134583">
    <tag k="name" v="70"/>
    <tag k="note" v="70"/>
  </node>
  <node id="860869230" version="1" timestamp="2010-08-15T07:12:10Z" uid="7617" user="Franc" changeset="5496539" lat="-33.910694" lon="151.136658">
    <tag k="name" v="15"/>
    <tag k="note" v="15"/>
  </node>
  <node id="860869230" version="2" timestamp="2010-08-15T08:45:20Z" uid="7617" user="Franc" changeset="5497113" lat="-33.910694" lon="151.136658">
    <tag k="name" v="15"/>
    <tag k="note" v="15"/>
  </node>
  <node id="860869237" version="1" timestamp="2010-08-15T07:12:10Z" uid="7617" user="Franc" changeset="5496539" lat="-33.910969" lon="151.136505">
    <tag k="name" v="4"/>
    <tag k="note" v="4"/>
  </node>
  <node id="860869237" version="2" timestamp="2010-08-15T08:45:22Z" uid="7617" user="Franc" changeset="5497113" lat="-33.910969" lon="151.136505">
    <tag k="name" v="4"/>
    <tag k="note" v="4"/>
  </node>
  <node id="860869241" version="1" timestamp="2010-08-15T07:12:10Z" uid="7617" user="Franc" changeset="5496539" lat="-33.910961" lon="151.136612">
    <tag k="name" v="2"/>
    <tag k="note" v="2"/>
  </node>
  <node id="860869241" version="2" timestamp="2010-08-15T08:45:22Z" uid="7617" user="Franc" changeset="5497113" lat="-33.910961" lon="151.136612">
    <tag k="name" v="2"/>
    <tag k="note" v="2"/>
  </node>
  <node id="860869244" version="1" timestamp="2010-08-15T07:12:10Z" uid="7617" user="Franc" changeset="5496539" lat="-33.910706" lon="151.136765">
    <tag k="name" v="13"/>
    <tag k="note" v="13"/>
  </node>
  <node id="860869244" version="2" timestamp="2010-08-15T08:45:20Z" uid="7617" user="Franc" changeset="5497113" lat="-33.910706" lon="151.136765">
    <tag k="name" v="13"/>
    <tag k="note" v="13"/>
  </node>
  <node id="860869246" version="1" timestamp="2010-08-15T07:12:11Z" uid="7617" user="Franc" changeset="5496539" lat="-33.910927" lon="151.136398">
    <tag k="name" v="6"/>
    <tag k="note" v="6"/>
  </node>
  <node id="860869246" version="2" timestamp="2010-08-15T08:45:21Z" uid="7617" user="Franc" changeset="5497113" lat="-33.910927" lon="151.136398">
    <tag k="name" v="6"/>
    <tag k="note" v="6"/>
  </node>
  <node id="860869247" version="1" timestamp="2010-08-15T07:12:11Z" uid="7617" user="Franc" changeset="5496539" lat="-33.910934" lon="151.136276">
    <tag k="name" v="8"/>
    <tag k="note" v="8"/>
  </node>
  <node id="860869247" version="2" timestamp="2010-08-15T08:45:21Z" uid="7617" user="Franc" changeset="5497113" lat="-33.910934" lon="151.136276">
    <tag k="name" v="8"/>
    <tag k="note" v="8"/>
  </node>
  <node id="860869255" version="1" timestamp="2010-08-15T07:12:11Z" uid="7617" user="Franc" changeset="5496539" lat="-33.911869" lon="151.137207">
    <tag k="name" v="Plygrnd"/>
    <tag k="note" v="Plygrnd"/>
  </node>
  <node id="860869255" version="2" timestamp="2010-08-15T08:45:20Z" uid="7617" user="Franc" changeset="5497113" lat="-33.911869" lon="151.137207">
    <tag k="name" v="Plygrnd"/>
    <tag k="note" v="Plygrnd"/>
  </node>
  <node id="860869257" version="1" timestamp="2010-08-15T07:12:11Z" uid="7617" user="Franc" changeset="5496539" lat="-33.911926" lon="151.138031">
    <tag k="name" v="3"/>
    <tag k="note" v="3"/>
  </node>
  <node id="860869257" version="2" timestamp="2010-08-15T08:45:22Z" uid="7617" user="Franc" changeset="5497113" lat="-33.911926" lon="151.138031">
    <tag k="name" v="3"/>
    <tag k="note" v="3"/>
  </node>
  <node id="860869259" version="1" timestamp="2010-08-15T07:12:11Z" uid="7617" user="Franc" changeset="5496539" lat="-33.911358" lon="151.136917">
    <tag k="name" v="23"/>
    <tag k="note" v="23"/>
  </node>
  <node id="860869259" version="2" timestamp="2010-08-15T08:45:22Z" uid="7617" user="Franc" changeset="5497113" lat="-33.911358" lon="151.136917">
    <tag k="name" v="23"/>
    <tag k="note" v="23"/>
  </node>
  <node id="860869262" version="1" timestamp="2010-08-15T07:12:11Z" uid="7617" user="Franc" changeset="5496539" lat="-33.911526" lon="151.136612">
    <tag k="name" v="24"/>
    <tag k="note" v="24"/>
  </node>
  <node id="860869262" version="2" timestamp="2010-08-15T08:45:19Z" uid="7617" user="Franc" changeset="5497113" lat="-33.911526" lon="151.136612">
    <tag k="name" v="24"/>
    <tag k="note" v="24"/>
  </node>
  <node id="860869268" version="1" timestamp="2010-08-15T07:12:11Z" uid="7617" user="Franc" changeset="5496539" lat="-33.910133" lon="151.137848">
    <tag k="name" v="106"/>
    <tag k="note" v="106"/>
  </node>
  <node id="860869268" version="2" timestamp="2010-08-15T08:45:02Z" uid="7617" user="Franc" changeset="5497113" lat="-33.9101177" lon="151.137841">
    <tag k="addr:housenumber" v="106"/>
    <tag k="addr:street" v="Ewart Street"/>
    <tag k="source" v="survey"/>
  </node>
  <node id="860869272" version="1" timestamp="2010-08-15T07:12:11Z" uid="7617" user="Franc" changeset="5496539" lat="-33.910252" lon="151.13736">
    <tag k="name" v="1"/>
    <tag k="note" v="1"/>
  </node>
  <node id="860869272" version="2" timestamp="2010-08-15T08:45:23Z" uid="7617" user="Franc" changeset="5497113" lat="-33.910252" lon="151.13736">
    <tag k="name" v="1"/>
    <tag k="note" v="1"/>
  </node>
  <node id="860869276" version="1" timestamp="2010-08-15T07:12:11Z" uid="7617" user="Franc" changeset="5496539" lat="-33.908749" lon="151.134521">
    <tag k="name" v="62"/>
    <tag k="note" v="62"/>
  </node>
  <node id="860869276" version="2" timestamp="2010-08-15T08:45:24Z" uid="7617" user="Franc" changeset="5497113" lat="-33.908749" lon="151.134521">
    <tag k="name" v="62"/>
    <tag k="note" v="62"/>
  </node>
  <node id="860869278" version="1" timestamp="2010-08-15T07:12:11Z" uid="7617" user="Franc" changeset="5496539" lat="-33.908043" lon="151.137573">
    <tag k="name" v="50"/>
    <tag k="note" v="50"/>
  </node>
  <node id="860869278" version="2" timestamp="2010-08-15T08:45:25Z" uid="7617" user="Franc" changeset="5497113" lat="-33.908043" lon="151.137573">
    <tag k="name" v="50"/>
    <tag k="note" v="50"/>
  </node>
  <node id="860869281" version="1" timestamp="2010-08-15T07:12:11Z" uid="7617" user="Franc" changeset="5496539" lat="-33.909031" lon="151.134552">
    <tag k="name" v="64"/>
    <tag k="note" v="64"/>
  </node>
  <node id="860869281" version="2" timestamp="2010-08-15T08:45:24Z" uid="7617" user="Franc" changeset="5497113" lat="-33.909031" lon="151.134552">
    <tag k="name" v="64"/>
    <tag k="note" v="64"/>
  </node>
  <node id="860869285" version="1" timestamp="2010-08-15T07:12:12Z" uid="7617" user="Franc" changeset="5496539" lat="-33.908611" lon="151.137497">
    <tag k="name" v="56"/>
    <tag k="note" v="56"/>
  </node>
  <node id="860869285" version="2" timestamp="2010-08-15T08:45:25Z" uid="7617" user="Franc" changeset="5497113" lat="-33.908611" lon="151.137497">
    <tag k="name" v="56"/>
    <tag k="note" v="56"/>
  </node>
  <node id="860869288" version="1" timestamp="2010-08-15T07:12:12Z" uid="7617" user="Franc" changeset="5496539" lat="-33.907494" lon="151.13765">
    <tag k="name" v="40"/>
    <tag k="note" v="40"/>
  </node>
  <node id="860869288" version="2" timestamp="2010-08-15T08:45:26Z" uid="7617" user="Franc" changeset="5497113" lat="-33.907494" lon="151.13765">
    <tag k="name" v="40"/>
    <tag k="note" v="40"/>
  </node>
  <node id="860869290" version="1" timestamp="2010-08-15T07:12:12Z" uid="7617" user="Franc" changeset="5496539" lat="-33.907356" lon="151.138779">
    <tag k="name" v="64"/>
    <tag k="note" v="64"/>
  </node>
  <node id="860869290" version="2" timestamp="2010-08-15T08:45:03Z" uid="7617" user="Franc" changeset="5497113" lat="-33.9073583" lon="151.1387871">
    <tag k="addr:housenumber" v="64"/>
    <tag k="addr:street" v="Hercules Street"/>
    <tag k="source" v="survey"/>
  </node>
  <node id="860869293" version="1" timestamp="2010-08-15T07:12:12Z" uid="7617" user="Franc" changeset="5496539" lat="-33.90765" lon="151.137589">
    <tag k="name" v="42-44"/>
    <tag k="note" v="42-44"/>
  </node>
  <node id="860869293" version="2" timestamp="2010-08-15T08:45:26Z" uid="7617" user="Franc" changeset="5497113" lat="-33.90765" lon="151.137589">
    <tag k="name" v="42-44"/>
    <tag k="note" v="42-44"/>
  </node>
  <node id="860869297" version="1" timestamp="2010-08-15T07:12:12Z" uid="7617" user="Franc" changeset="5496539" lat="-33.908962" lon="151.137222">
    <tag k="name" v="4"/>
    <tag k="note" v="4"/>
  </node>
  <node id="860869297" version="2" timestamp="2010-08-15T08:45:25Z" uid="7617" user="Franc" changeset="5497113" lat="-33.908962" lon="151.137222">
    <tag k="name" v="4"/>
    <tag k="note" v="4"/>
  </node>
  <node id="860869302" version="1" timestamp="2010-08-15T07:12:12Z" uid="7617" user="Franc" changeset="5496539" lat="-33.90715" lon="151.13797">
    <tag k="name" v="37"/>
    <tag k="note" v="37"/>
  </node>
  <node id="860869302" version="2" timestamp="2010-08-15T08:45:25Z" uid="7617" user="Franc" changeset="5497113" lat="-33.90715" lon="151.13797">
    <tag k="name" v="37"/>
    <tag k="note" v="37"/>
  </node>
  <node id="860869304" version="1" timestamp="2010-08-15T07:12:12Z" uid="7617" user="Franc" changeset="5496539" lat="-33.908951" lon="151.137375">
    <tag k="name" v="2"/>
    <tag k="note" v="2"/>
  </node>
  <node id="860869304" version="2" timestamp="2010-08-15T08:45:02Z" uid="7617" user="Franc" changeset="5497113" lat="-33.908989" lon="151.137368">
    <tag k="addr:housenumber" v="2"/>
    <tag k="addr:street" v="The Parade"/>
    <tag k="source" v="survey"/>
  </node>
  <node id="860869307" version="1" timestamp="2010-08-15T07:12:12Z" uid="7617" user="Franc" changeset="5496539" lat="-33.908855" lon="151.137802">
    <tag k="name" v="73"/>
    <tag k="note" v="73"/>
  </node>
  <node id="860869307" version="2" timestamp="2010-08-15T08:45:03Z" uid="7617" user="Franc" changeset="5497113" lat="-33.9088594" lon="151.1377932">
    <tag k="addr:housenumber" v="73"/>
    <tag k="addr:street" v="Terrace Road"/>
    <tag k="source" v="survey"/>
  </node>
  <node id="860869310" version="1" timestamp="2010-08-15T07:12:12Z" uid="7617" user="Franc" changeset="5496539" lat="-33.906013" lon="151.134293">
    <tag k="name" v="8"/>
    <tag k="note" v="8"/>
  </node>
  <node id="860869310" version="2" timestamp="2010-08-15T08:45:04Z" uid="7617" user="Franc" changeset="5497113" lat="-33.9060378" lon="151.1343242">
    <tag k="addr:housenumber" v="8"/>
    <tag k="addr:street" v="Garnet Street"/>
    <tag k="source" v="survey"/>
  </node>
  <node id="860869319" version="1" timestamp="2010-08-15T07:12:12Z" uid="7617" user="Franc" changeset="5496539" lat="-33.90596" lon="151.138123">
    <tag k="name" v="11"/>
    <tag k="note" v="11"/>
  </node>
  <node id="860869319" version="2" timestamp="2010-08-15T08:45:28Z" uid="7617" user="Franc" changeset="5497113" lat="-33.90596" lon="151.138123">
    <tag k="name" v="11"/>
    <tag k="note" v="11"/>
  </node>
  <node id="860869321" version="1" timestamp="2010-08-15T07:12:12Z" uid="7617" user="Franc" changeset="5496539" lat="-33.906071" lon="151.134293">
    <tag k="name" v="10"/>
    <tag k="note" v="10"/>
  </node>
  <node id="860869321" version="2" timestamp="2010-08-15T08:45:26Z" uid="7617" user="Franc" changeset="5497113" lat="-33.906071" lon="151.134293">
    <tag k="name" v="10"/>
    <tag k="note" v="10"/>
  </node>
  <node id="860869322" version="1" timestamp="2010-08-15T07:12:13Z" uid="7617" user="Franc" changeset="5496539" lat="-33.905273" lon="151.138184">
    <tag k="name" v="1-9"/>
    <tag k="note" v="1-9"/>
  </node>
  <node id="860869322" version="2" timestamp="2010-08-15T08:45:29Z" uid="7617" user="Franc" changeset="5497113" lat="-33.905273" lon="151.138184">
    <tag k="name" v="1-9"/>
    <tag k="note" v="1-9"/>
  </node>
  <node id="860869324" version="1" timestamp="2010-08-15T07:12:13Z" uid="7617" user="Franc" changeset="5496539" lat="-33.906143" lon="151.134277">
    <tag k="name" v="12"/>
    <tag k="note" v="12"/>
  </node>
  <node id="860869324" version="2" timestamp="2010-08-15T08:45:27Z" uid="7617" user="Franc" changeset="5497113" lat="-33.906143" lon="151.134277">
    <tag k="name" v="12"/>
    <tag k="note" v="12"/>
  </node>
  <node id="860869328" version="1" timestamp="2010-08-15T07:12:13Z" uid="7617" user="Franc" changeset="5496539" lat="-33.906063" lon="151.138092">
    <tag k="name" v="13"/>
    <tag k="note" v="13"/>
  </node>
  <node id="860869328" version="2" timestamp="2010-08-15T08:45:28Z" uid="7617" user="Franc" changeset="5497113" lat="-33.906063" lon="151.138092">
    <tag k="name" v="13"/>
    <tag k="note" v="13"/>
  </node>
  <node id="860869334" version="1" timestamp="2010-08-15T07:12:13Z" uid="7617" user="Franc" changeset="5496539" lat="-33.906277" lon="151.137711">
    <tag k="name" v="12"/>
    <tag k="note" v="12"/>
  </node>
  <node id="860869334" version="2" timestamp="2010-08-15T08:45:28Z" uid="7617" user="Franc" changeset="5497113" lat="-33.906277" lon="151.137711">
    <tag k="name" v="12"/>
    <tag k="note" v="12"/>
  </node>
  <node id="860869336" version="1" timestamp="2010-08-15T07:12:13Z" uid="7617" user="Franc" changeset="5496539" lat="-33.9143469" lon="151.1394769">
    <tag k="addr:housenumber" v="39"/>
    <tag k="addr:street" v="Riverside Crescent"/>
    <tag k="source" v="survey"/>
  </node>
  <node id="860869338" version="1" timestamp="2010-08-15T07:12:13Z" uid="7617" user="Franc" changeset="5496539" lat="-33.9141729" lon="151.1393371">
    <tag k="addr:housenumber" v="45"/>
    <tag k="addr:street" v="Riverside Crescent"/>
    <tag k="source" v="survey"/>
  </node>
  <node id="860869341" version="1" timestamp="2010-08-15T07:12:13Z" uid="7617" user="Franc" changeset="5496539" lat="-33.9145701" lon="151.139689">
    <tag k="addr:housenumber" v="37"/>
    <tag k="addr:street" v="Riverside Crescent"/>
    <tag k="source" v="survey"/>
  </node>
  <node id="860869353" version="1" timestamp="2010-08-15T07:12:13Z" uid="7617" user="Franc" changeset="5496539" lat="-33.9146179" lon="151.1398032">
    <tag k="addr:housenumber" v="35"/>
    <tag k="addr:street" v="Riverside Crescent"/>
    <tag k="source" v="survey"/>
  </node>
  <node id="860869355" version="1" timestamp="2010-08-15T07:12:13Z" uid="7617" user="Franc" changeset="5496539" lat="-33.9146433" lon="151.1398598">
    <tag k="addr:housenumber" v="33"/>
    <tag k="addr:street" v="Riverside Crescent"/>
    <tag k="source" v="survey"/>
  </node>
  <node id="860869356" version="1" timestamp="2010-08-15T07:12:13Z" uid="7617" user="Franc" changeset="5496539" lat="-33.9146959" lon="151.1400066">
    <tag k="addr:housenumber" v="29"/>
    <tag k="addr:street" v="Riverside Crescent"/>
    <tag k="source" v="survey"/>
  </node>
  <node id="860869358" version="1" timestamp="2010-08-15T07:12:13Z" uid="7617" user="Franc" changeset="5496539" lat="-33.9144248" lon="151.1401402"/>
  <node id="860869367" version="1" timestamp="2010-08-15T07:12:14Z" uid="7617" user="Franc" changeset="5496539" lat="-33.9143951" lon="151.1400248"/>
  <node id="860869369" version="1" timestamp="2010-08-15T07:12:14Z" uid="7617" user="Franc" changeset="5496539" lat="-33.9138384" lon="151.1393981">
    <tag k="addr:housenumber" v="12"/>
    <tag k="addr:street" v="Dibble Avenue"/>
    <tag k="source" v="survey"/>
  </node>
  <node id="860869371" version="1" timestamp="2010-08-15T07:12:14Z" uid="7617" user="Franc" changeset="5496539" lat="-33.9138953" lon="151.1391341">
    <tag k="addr:housenumber" v="47"/>
    <tag k="addr:street" v="Riverside Crescent"/>
    <tag k="source" v="survey"/>
  </node>
  <node id="860869373" version="1" timestamp="2010-08-15T07:12:14Z" uid="7617" user="Franc" changeset="5496539" lat="-33.9134832" lon="151.1395837">
    <tag k="addr:housenumber" v="2"/>
    <tag k="addr:street" v="Pilgrim Avenue"/>
    <tag k="source" v="survey"/>
  </node>
  <node id="860869382" version="1" timestamp="2010-08-15T07:12:14Z" uid="7617" user="Franc" changeset="5496539" lat="-33.9134389" lon="151.1393595">
    <tag k="addr:housenumber" v="10"/>
    <tag k="addr:street" v="Pilgrim Avenue"/>
    <tag k="source" v="survey"/>
  </node>
  <node id="860869386" version="1" timestamp="2010-08-15T07:12:14Z" uid="7617" user="Franc" changeset="5496539" lat="-33.9136102" lon="151.1395422">
    <tag k="addr:housenumber" v="10"/>
    <tag k="addr:street" v="Dibble Avenue"/>
    <tag k="source" v="survey"/>
  </node>
  <node id="860869387" version="1" timestamp="2010-08-15T07:12:14Z" uid="7617" user="Franc" changeset="5496539" lat="-33.9140865" lon="151.1398105">
    <tag k="amenity" v="bench"/>
  </node>
  <node id="860869389" version="1" timestamp="2010-08-15T07:12:14Z" uid="7617" user="Franc" changeset="5496539" lat="-33.9137716" lon="151.1397379">
    <tag k="addr:housenumber" v="13"/>
    <tag k="addr:street" v="Dibble Avenue"/>
    <tag k="source" v="exrapolation"/>
  </node>
  <node id="860869389" version="2" timestamp="2011-05-29T08:33:03Z" uid="7617" user="Franc" changeset="8278454" lat="-33.9137716" lon="151.1397379">
    <tag k="addr:housenumber" v="13"/>
    <tag k="addr:street" v="Dibble Avenue"/>
    <tag k="source" v="extrapolation"/>
  </node>
  <node id="860869391" version="1" timestamp="2010-08-15T07:12:14Z" uid="7617" user="Franc" changeset="5496539" lat="-33.9135425" lon="151.1396552">
    <tag k="addr:housenumber" v="1"/>
    <tag k="addr:street" v="Pilgrim Avenue"/>
    <tag k="source" v="survey"/>
  </node>
  <node id="860869401" version="1" timestamp="2010-08-15T07:12:14Z" uid="7617" user="Franc" changeset="5496539" lat="-33.9136476" lon="151.1398814">
    <tag k="addr:housenumber" v="11"/>
    <tag k="addr:street" v="Dibble Avenue"/>
    <tag k="source" v="survey"/>
  </node>
  <node id="860869404" version="1" timestamp="2010-08-15T07:12:14Z" uid="7617" user="Franc" changeset="5496539" lat="-33.9134645" lon="151.1401222">
    <tag k="addr:housenumber" v="7"/>
    <tag k="addr:street" v="Dibble Avenue"/>
    <tag k="source" v="survey"/>
  </node>
  <node id="860869406" version="1" timestamp="2010-08-15T07:12:15Z" uid="7617" user="Franc" changeset="5496539" lat="-33.9135718" lon="151.1399965">
    <tag k="addr:housenumber" v="9"/>
    <tag k="addr:street" v="Dibble Avenue"/>
    <tag k="source" v="exrapolation"/>
  </node>
  <node id="860869406" version="2" timestamp="2011-05-29T08:31:51Z" uid="7617" user="Franc" changeset="8278454" lat="-33.9135718" lon="151.1399965">
    <tag k="addr:housenumber" v="9"/>
    <tag k="addr:street" v="Dibble Avenue"/>
    <tag k="source" v="extrapolation"/>
  </node>
  <node id="860869412" version="1" timestamp="2010-08-15T07:12:15Z" uid="7617" user="Franc" changeset="5496539" lat="-33.9144571" lon="151.140374"/>
  <node id="860869414" version="1" timestamp="2010-08-15T07:12:15Z" uid="7617" user="Franc" changeset="5496539" lat="-33.9141956" lon="151.1407947"/>
  <node id="860869416" version="1" timestamp="2010-08-15T07:12:15Z" uid="7617" user="Franc" changeset="5496539" lat="-33.9138263" lon="151.1403757"/>
  <node id="860869418" version="1" timestamp="2010-08-15T07:12:15Z" uid="7617" user="Franc" changeset="5496539" lat="-33.913555" lon="151.141571">
    <tag k="name" v="34"/>
    <tag k="note" v="34"/>
  </node>
  <node id="860869418" version="2" timestamp="2010-08-15T08:45:29Z" uid="7617" user="Franc" changeset="5497113" lat="-33.913555" lon="151.141571">
    <tag k="name" v="34"/>
    <tag k="note" v="34"/>
  </node>
  <node id="860869421" version="1" timestamp="2010-08-15T07:12:15Z" uid="7617" user="Franc" changeset="5496539" lat="-33.9132125" lon="151.1393856">
    <tag k="addr:housenumber" v="8"/>
    <tag k="addr:street" v="Pilgrim Avenue"/>
    <tag k="source" v="survey"/>
  </node>
  <node id="860869424" version="1" timestamp="2010-08-15T07:12:15Z" uid="7617" user="Franc" changeset="5496539" lat="-33.9132677" lon="151.1395125">
    <tag k="addr:housenumber" v="3"/>
    <tag k="addr:street" v="Pilgrim Avenue"/>
    <tag k="source" v="exrapolation"/>
  </node>
  <node id="860869424" version="2" timestamp="2011-05-29T08:32:06Z" uid="7617" user="Franc" changeset="8278454" lat="-33.9132677" lon="151.1395125">
    <tag k="addr:housenumber" v="3"/>
    <tag k="addr:street" v="Pilgrim Avenue"/>
    <tag k="source" v="extrapolation"/>
  </node>
  <node id="860869430" version="1" timestamp="2010-08-15T07:12:15Z" uid="7617" user="Franc" changeset="5496539" lat="-33.9130915" lon="151.1394948">
    <tag k="addr:housenumber" v="7"/>
    <tag k="addr:street" v="Pilgrim Avenue"/>
    <tag k="source" v="exrapolation"/>
  </node>
  <node id="860869430" version="2" timestamp="2011-05-29T08:31:54Z" uid="7617" user="Franc" changeset="8278454" lat="-33.9130915" lon="151.1394948">
    <tag k="addr:housenumber" v="7"/>
    <tag k="addr:street" v="Pilgrim Avenue"/>
    <tag k="source" v="extrapolation"/>
  </node>
  <node id="860869433" version="1" timestamp="2010-08-15T07:12:15Z" uid="7617" user="Franc" changeset="5496539" lat="-33.9133179" lon="151.1393287">
    <tag k="addr:housenumber" v="9"/>
    <tag k="addr:street" v="Pilgrim Avenue"/>
    <tag k="source" v="exrapolation"/>
  </node>
  <node id="860869433" version="2" timestamp="2011-05-29T08:32:00Z" uid="7617" user="Franc" changeset="8278454" lat="-33.9133179" lon="151.1393287">
    <tag k="addr:housenumber" v="9"/>
    <tag k="addr:street" v="Pilgrim Avenue"/>
    <tag k="source" v="extrapolation"/>
  </node>
  <node id="860869436" version="1" timestamp="2010-08-15T07:12:15Z" uid="7617" user="Franc" changeset="5496539" lat="-33.9131161" lon="151.1397557">
    <tag k="addr:housenumber" v="4"/>
    <tag k="addr:street" v="Pilgrim Avenue"/>
    <tag k="source" v="survey"/>
  </node>
  <node id="860869441" version="1" timestamp="2010-08-15T07:12:15Z" uid="7617" user="Franc" changeset="5496539" lat="-33.9131919" lon="151.1402527">
    <tag k="addr:housenumber" v="4"/>
    <tag k="addr:street" v="Dibble Avenue"/>
    <tag k="source" v="exrapolation"/>
  </node>
  <node id="860869441" version="2" timestamp="2011-05-29T08:32:57Z" uid="7617" user="Franc" changeset="8278454" lat="-33.9131919" lon="151.1402527">
    <tag k="addr:housenumber" v="4"/>
    <tag k="addr:street" v="Dibble Avenue"/>
    <tag k="source" v="extrapolation"/>
  </node>
  <node id="860869445" version="1" timestamp="2010-08-15T07:12:16Z" uid="7617" user="Franc" changeset="5496539" lat="-33.9132805" lon="151.14014">
    <tag k="addr:housenumber" v="6"/>
    <tag k="addr:street" v="Dibble Avenue"/>
    <tag k="source" v="exrapolation"/>
  </node>
  <node id="860869445" version="2" timestamp="2011-05-29T08:32:36Z" uid="7617" user="Franc" changeset="8278454" lat="-33.9132805" lon="151.14014">
    <tag k="addr:housenumber" v="6"/>
    <tag k="addr:street" v="Dibble Avenue"/>
    <tag k="source" v="extrapolation"/>
  </node>
  <node id="860869448" version="1" timestamp="2010-08-15T07:12:16Z" uid="7617" user="Franc" changeset="5496539" lat="-33.9133818" lon="151.1400048">
    <tag k="addr:housenumber" v="8"/>
    <tag k="addr:street" v="Dibble Avenue"/>
    <tag k="source" v="exrapolation"/>
  </node>
  <node id="860869448" version="2" timestamp="2011-05-29T08:32:39Z" uid="7617" user="Franc" changeset="8278454" lat="-33.9133818" lon="151.1400048">
    <tag k="addr:housenumber" v="8"/>
    <tag k="addr:street" v="Dibble Avenue"/>
    <tag k="source" v="extrapolation"/>
  </node>
  <node id="860869452" version="1" timestamp="2010-08-15T07:12:16Z" uid="7617" user="Franc" changeset="5496539" lat="-33.913371" lon="151.1402491">
    <tag k="addr:housenumber" v="5"/>
    <tag k="addr:street" v="Dibble Avenue"/>
    <tag k="source" v="exrapolation"/>
  </node>
  <node id="860869452" version="2" timestamp="2011-05-29T08:32:19Z" uid="7617" user="Franc" changeset="8278454" lat="-33.913371" lon="151.1402491">
    <tag k="addr:housenumber" v="5"/>
    <tag k="addr:street" v="Dibble Avenue"/>
    <tag k="source" v="extrapolation"/>
  </node>
  <node id="860869458" version="1" timestamp="2010-08-15T07:12:16Z" uid="7617" user="Franc" changeset="5496539" lat="-33.9130442" lon="151.139726">
    <tag k="addr:housenumber" v="5"/>
    <tag k="addr:street" v="Pilgrim Avenue"/>
    <tag k="source" v="survey"/>
  </node>
  <node id="860869459" version="1" timestamp="2010-08-15T07:12:16Z" uid="7617" user="Franc" changeset="5496539" lat="-33.9130009" lon="151.1396418">
    <tag k="addr:housenumber" v="6"/>
    <tag k="addr:street" v="Pilgrim Avenue"/>
    <tag k="source" v="survey"/>
  </node>
  <node id="860869461" version="1" timestamp="2010-08-15T07:12:16Z" uid="7617" user="Franc" changeset="5496539" lat="-33.9132795" lon="151.1403677">
    <tag k="addr:housenumber" v="3"/>
    <tag k="addr:street" v="Dibble Avenue"/>
    <tag k="source" v="survey"/>
  </node>
  <node id="860869464" version="1" timestamp="2010-08-15T07:12:16Z" uid="7617" user="Franc" changeset="5496539" lat="-33.913181" lon="151.1405018">
    <tag k="addr:housenumber" v="1"/>
    <tag k="addr:street" v="Dibble Avenue"/>
    <tag k="source" v="survey"/>
  </node>
  <node id="860869474" version="1" timestamp="2010-08-15T07:12:16Z" uid="7617" user="Franc" changeset="5496539" lat="-33.9130855" lon="151.1404055">
    <tag k="addr:housenumber" v="2"/>
    <tag k="addr:street" v="Dibble Avenue"/>
    <tag k="source" v="survey"/>
  </node>
  <node id="860869476" version="1" timestamp="2010-08-15T07:12:16Z" uid="7617" user="Franc" changeset="5496539" lat="-33.912724" lon="151.140976">
    <tag k="name" v="43"/>
    <tag k="note" v="43"/>
  </node>
  <node id="860869476" version="2" timestamp="2010-08-15T08:45:29Z" uid="7617" user="Franc" changeset="5497113" lat="-33.912724" lon="151.140976">
    <tag k="name" v="43"/>
    <tag k="note" v="43"/>
  </node>
  <node id="860869478" version="1" timestamp="2010-08-15T07:12:16Z" uid="7617" user="Franc" changeset="5496539" lat="-33.914219" lon="151.142685">
    <tag k="name" v="11"/>
    <tag k="note" v="11"/>
  </node>
  <node id="860869478" version="2" timestamp="2010-08-15T08:45:31Z" uid="7617" user="Franc" changeset="5497113" lat="-33.914219" lon="151.142685">
    <tag k="name" v="11"/>
    <tag k="note" v="11"/>
  </node>
  <node id="860869480" version="1" timestamp="2010-08-15T07:12:16Z" uid="7617" user="Franc" changeset="5496539" lat="-33.914268" lon="151.142776">
    <tag k="name" v="7&amp;9"/>
    <tag k="note" v="7&amp;amp;9"/>
  </node>
  <node id="860869480" version="2" timestamp="2010-08-15T08:45:31Z" uid="7617" user="Franc" changeset="5497113" lat="-33.914268" lon="151.142776">
    <tag k="name" v="7&amp;9"/>
    <tag k="note" v="7&amp;amp;9"/>
  </node>
  <node id="860869488" version="1" timestamp="2010-08-15T07:12:17Z" uid="7617" user="Franc" changeset="5496539" lat="-33.914375" lon="151.142868">
    <tag k="name" v="5"/>
    <tag k="note" v="5"/>
  </node>
  <node id="860869488" version="2" timestamp="2010-08-15T08:45:30Z" uid="7617" user="Franc" changeset="5497113" lat="-33.914375" lon="151.142868">
    <tag k="name" v="5"/>
    <tag k="note" v="5"/>
  </node>
  <node id="860869490" version="1" timestamp="2010-08-15T07:12:17Z" uid="7617" user="Franc" changeset="5496539" lat="-33.914448" lon="151.142914">
    <tag k="name" v="3"/>
    <tag k="note" v="3"/>
  </node>
  <node id="860869490" version="2" timestamp="2010-08-15T08:45:30Z" uid="7617" user="Franc" changeset="5497113" lat="-33.914448" lon="151.142914">
    <tag k="name" v="3"/>
    <tag k="note" v="3"/>
  </node>
  <node id="860869492" version="1" timestamp="2010-08-15T07:12:17Z" uid="7617" user="Franc" changeset="5496539" lat="-33.913635" lon="151.141663">
    <tag k="name" v="32"/>
    <tag k="note" v="32"/>
  </node>
  <node id="860869492" version="2" timestamp="2010-08-15T08:45:29Z" uid="7617" user="Franc" changeset="5497113" lat="-33.913635" lon="151.141663">
    <tag k="name" v="32"/>
    <tag k="note" v="32"/>
  </node>
  <node id="860869494" version="1" timestamp="2010-08-15T07:12:17Z" uid="7617" user="Franc" changeset="5496539" lat="-33.913548" lon="151.142654">
    <tag k="name" v="23&amp;25"/>
    <tag k="note" v="23&amp;amp;25"/>
  </node>
  <node id="860869494" version="2" timestamp="2010-08-15T08:45:32Z" uid="7617" user="Franc" changeset="5497113" lat="-33.913548" lon="151.142654">
    <tag k="name" v="23&amp;25"/>
    <tag k="note" v="23&amp;amp;25"/>
  </node>
  <node id="860869496" version="1" timestamp="2010-08-15T07:12:17Z" uid="7617" user="Franc" changeset="5496539" lat="-33.913727" lon="151.142822">
    <tag k="name" v="24"/>
    <tag k="note" v="24"/>
  </node>
  <node id="860869496" version="2" timestamp="2010-08-15T08:45:32Z" uid="7617" user="Franc" changeset="5497113" lat="-33.913727" lon="151.142822">
    <tag k="name" v="24"/>
    <tag k="note" v="24"/>
  </node>
  <node id="860869507" version="1" timestamp="2010-08-15T07:12:17Z" uid="7617" user="Franc" changeset="5496539" lat="-33.91362" lon="151.141983">
    <tag k="name" v="27"/>
    <tag k="note" v="27"/>
  </node>
  <node id="860869507" version="2" timestamp="2010-08-15T08:45:31Z" uid="7617" user="Franc" changeset="5497113" lat="-33.91362" lon="151.141983">
    <tag k="name" v="27"/>
    <tag k="note" v="27"/>
  </node>
  <node id="860869509" version="1" timestamp="2010-08-15T07:12:17Z" uid="7617" user="Franc" changeset="5496539" lat="-33.914013" lon="151.142426">
    <tag k="name" v="19"/>
    <tag k="note" v="19"/>
  </node>
  <node id="860869509" version="2" timestamp="2010-08-15T08:45:32Z" uid="7617" user="Franc" changeset="5497113" lat="-33.914013" lon="151.142426">
    <tag k="name" v="19"/>
    <tag k="note" v="19"/>
  </node>
  <node id="860869511" version="1" timestamp="2010-08-15T07:12:17Z" uid="7617" user="Franc" changeset="5496539" lat="-33.91267" lon="151.142914">
    <tag k="name" v="3"/>
    <tag k="note" v="3"/>
  </node>
  <node id="860869511" version="2" timestamp="2010-08-15T08:45:33Z" uid="7617" user="Franc" changeset="5497113" lat="-33.91267" lon="151.142914">
    <tag k="name" v="3"/>
    <tag k="note" v="3"/>
  </node>
  <node id="860869512" version="1" timestamp="2010-08-15T07:12:17Z" uid="7617" user="Franc" changeset="5496539" lat="-33.912422" lon="151.142654">
    <tag k="name" v="9"/>
    <tag k="note" v="9"/>
  </node>
  <node id="860869512" version="2" timestamp="2010-08-15T08:45:34Z" uid="7617" user="Franc" changeset="5497113" lat="-33.912422" lon="151.142654">
    <tag k="name" v="9"/>
    <tag k="note" v="9"/>
  </node>
  <node id="860869519" version="1" timestamp="2010-08-15T07:12:17Z" uid="7617" user="Franc" changeset="5496539" lat="-33.912586" lon="151.142456">
    <tag k="name" v="16"/>
    <tag k="note" v="16"/>
  </node>
  <node id="860869519" version="2" timestamp="2010-08-15T08:45:34Z" uid="7617" user="Franc" changeset="5497113" lat="-33.912586" lon="151.142456">
    <tag k="name" v="16"/>
    <tag k="note" v="16"/>
  </node>
  <node id="860869522" version="1" timestamp="2010-08-15T07:12:17Z" uid="7617" user="Franc" changeset="5496539" lat="-33.913174" lon="151.143204">
    <tag k="name" v="11"/>
    <tag k="note" v="11"/>
  </node>
  <node id="860869522" version="2" timestamp="2010-08-15T08:45:35Z" uid="7617" user="Franc" changeset="5497113" lat="-33.913174" lon="151.143204">
    <tag k="name" v="11"/>
    <tag k="note" v="11"/>
  </node>
  <node id="860869524" version="1" timestamp="2010-08-15T07:12:18Z" uid="7617" user="Franc" changeset="5496539" lat="-33.912766" lon="151.14296">
    <tag k="name" v="1"/>
    <tag k="note" v="1"/>
  </node>
  <node id="860869524" version="2" timestamp="2010-08-15T08:45:34Z" uid="7617" user="Franc" changeset="5497113" lat="-33.912766" lon="151.14296">
    <tag k="name" v="1"/>
    <tag k="note" v="1"/>
  </node>
  <node id="860869528" version="1" timestamp="2010-08-15T07:12:18Z" uid="7617" user="Franc" changeset="5496539" lat="-33.913177" lon="151.142136">
    <tag k="name" v="2"/>
    <tag k="note" v="2"/>
  </node>
  <node id="860869528" version="2" timestamp="2010-08-15T08:45:07Z" uid="7617" user="Franc" changeset="5497113" lat="-33.9132053" lon="151.1421592">
    <tag k="addr:housenumber" v="2"/>
    <tag k="addr:street" v="Wicks Avenue"/>
    <tag k="source" v="survey"/>
  </node>
  <node id="860869530" version="1" timestamp="2010-08-15T07:12:18Z" uid="7617" user="Franc" changeset="5496539" lat="-33.913109" lon="151.142654">
    <tag k="name" v="1a"/>
    <tag k="note" v="1a"/>
  </node>
  <node id="860869530" version="2" timestamp="2010-08-15T08:45:32Z" uid="7617" user="Franc" changeset="5497113" lat="-33.913109" lon="151.142654">
    <tag k="name" v="1a"/>
    <tag k="note" v="1a"/>
  </node>
  <node id="860869534" version="1" timestamp="2010-08-15T07:12:18Z" uid="7617" user="Franc" changeset="5496539" lat="-33.91283" lon="151.143661">
    <tag k="name" v="5"/>
    <tag k="note" v="5"/>
  </node>
  <node id="860869534" version="2" timestamp="2010-08-15T08:45:35Z" uid="7617" user="Franc" changeset="5497113" lat="-33.91283" lon="151.143661">
    <tag k="name" v="5"/>
    <tag k="note" v="5"/>
  </node>
  <node id="860869536" version="1" timestamp="2010-08-15T07:12:18Z" uid="7617" user="Franc" changeset="5496539" lat="-33.912991" lon="151.14238">
    <tag k="name" v="8"/>
    <tag k="note" v="8"/>
  </node>
  <node id="860869536" version="2" timestamp="2010-08-15T08:45:33Z" uid="7617" user="Franc" changeset="5497113" lat="-33.912991" lon="151.14238">
    <tag k="name" v="8"/>
    <tag k="note" v="8"/>
  </node>
  <node id="860869539" version="1" timestamp="2010-08-15T07:12:18Z" uid="7617" user="Franc" changeset="5496539" lat="-33.912743" lon="151.143814">
    <tag k="name" v="3"/>
    <tag k="note" v="3"/>
  </node>
  <node id="860869539" version="2" timestamp="2010-08-15T08:45:08Z" uid="7617" user="Franc" changeset="5497113" lat="-33.912743" lon="151.143814">
    <tag k="addr:housenumber" v="3"/>
    <tag k="addr:street" v="Osgood Avenue"/>
    <tag k="source" v="survey"/>
  </node>
  <node id="860869542" version="1" timestamp="2010-08-15T07:12:18Z" uid="7617" user="Franc" changeset="5496539" lat="-33.912739" lon="151.142624">
    <tag k="name" v="12"/>
    <tag k="note" v="12"/>
  </node>
  <node id="860869542" version="2" timestamp="2010-08-15T08:45:33Z" uid="7617" user="Franc" changeset="5497113" lat="-33.912739" lon="151.142624">
    <tag k="name" v="12"/>
    <tag k="note" v="12"/>
  </node>
  <node id="860869545" version="1" timestamp="2010-08-15T07:12:18Z" uid="7617" user="Franc" changeset="5496539" lat="-33.912941" lon="151.144012">
    <tag k="name" v="4"/>
    <tag k="note" v="4"/>
  </node>
  <node id="860869545" version="2" timestamp="2010-08-15T08:45:36Z" uid="7617" user="Franc" changeset="5497113" lat="-33.912941" lon="151.144012">
    <tag k="name" v="4"/>
    <tag k="note" v="4"/>
  </node>
  <node id="860869554" version="1" timestamp="2010-08-15T07:12:18Z" uid="7617" user="Franc" changeset="5496539" lat="-33.912861" lon="151.142593">
    <tag k="name" v="10"/>
    <tag k="note" v="10"/>
  </node>
  <node id="860869554" version="2" timestamp="2010-08-15T08:45:33Z" uid="7617" user="Franc" changeset="5497113" lat="-33.912861" lon="151.142593">
    <tag k="name" v="10"/>
    <tag k="note" v="10"/>
  </node>
  <node id="860869557" version="1" timestamp="2010-08-15T07:12:18Z" uid="7617" user="Franc" changeset="5496539" lat="-33.912846" lon="151.144119">
    <tag k="name" v="2"/>
    <tag k="note" v="2"/>
  </node>
  <node id="860869557" version="2" timestamp="2010-08-15T08:45:35Z" uid="7617" user="Franc" changeset="5497113" lat="-33.912846" lon="151.144119">
    <tag k="name" v="2"/>
    <tag k="note" v="2"/>
  </node>
  <node id="860869560" version="1" timestamp="2010-08-15T07:12:19Z" uid="7617" user="Franc" changeset="5496539" lat="-33.910725" lon="151.139114">
    <tag k="name" v="71"/>
    <tag k="note" v="71"/>
  </node>
  <node id="860869560" version="2" timestamp="2010-08-15T08:45:36Z" uid="7617" user="Franc" changeset="5497113" lat="-33.910725" lon="151.139114">
    <tag k="name" v="71"/>
    <tag k="note" v="71"/>
  </node>
  <node id="860869562" version="1" timestamp="2010-08-15T07:12:19Z" uid="7617" user="Franc" changeset="5496539" lat="-33.91098" lon="151.138992">
    <tag k="name" v="84"/>
    <tag k="note" v="84"/>
  </node>
  <node id="860869562" version="2" timestamp="2010-08-15T08:45:36Z" uid="7617" user="Franc" changeset="5497113" lat="-33.91098" lon="151.138992">
    <tag k="name" v="84"/>
    <tag k="note" v="84"/>
  </node>
</osm>
