<?xml version='1.0' encoding='UTF-8'?>
<osm version="0.6" generator="libosmium/2.20.0">
  <node id="861152304" version="2" timestamp="2011-02-22T19:15:58Z" uid="20587" user="balrog-kun" changeset="7366074" lat="52.4895641" lon="20.9231035"/>
  <node id="861155509" version="2" timestamp="2011-05-09T17:36:47Z" uid="30632" user="antblant" changeset="8094849" lat="52.1110365" lon="16.702269">
    <tag k="name" v="Oborzyska Stare"/>
    <tag k="railway" v="station"/>
    <tag k="wikipedia" v="pl:Oborzyska_Stare"/>
  </node>
  <node id="861155518" version="2" timestamp="2011-05-09T17:36:44Z" uid="30632" user="antblant" changeset="8094849" lat="52.184104" lon="16.799526">
    <tag k="name" v="Iłowiec"/>
    <tag k="railway" v="halt"/>
    <tag k="wikipedia" v="pl:Iłowiec_(stacja_kolejowa)"/>
  </node>
  <node id="861155551" version="2" timestamp="2011-05-09T17:36:44Z" uid="30632" user="antblant" changeset="8094849" lat="52.1393224" lon="16.7527656">
    <tag k="name" v="Czempiń"/>
    <tag k="railway" v="station"/>
    <tag k="wikipedia" v="pl:Czempiń_(stacja_kolejowa)"/>
  </node>
  <node id="861155555" version="2" timestamp="2011-05-09T17:36:49Z" uid="30632" user="antblant" changeset="8094849" lat="52.2099534" lon="16.8233759">
    <tag k="name" v="Drużyna Poznańska"/>
    <tag k="railway" v="halt"/>
    <tag k="wikipedia" v="pl:Drużyna_Poznańska"/>
  </node>
</osm>
