<?xml version='1.0' encoding='UTF-8'?>
<osm version="0.6" generator="libosmium/2.20.0">
  <node id="865859032" version="2" timestamp="2011-03-30T14:33:36Z" uid="4467" user="Rosscoe" changeset="7716708" lat="-32.3458903" lon="115.7615205">
    <tag k="amenity" v="fuel"/>
    <tag k="amenity:atm" v="no"/>
    <tag k="amenity:carwash" v="no"/>
    <tag k="amenity:eftpos" v="no"/>
    <tag k="amenity:toilets" v="no"/>
    <tag k="amenity:truck_stop" v="no"/>
    <tag k="caltex:address" v="202 Warnbro Sound Ave, Warnbro WA 6169"/>
    <tag k="caltex:starcash" v="no"/>
    <tag k="fuel:GTL_diesel" v="no"/>
    <tag k="fuel:biodiesel" v="no"/>
    <tag k="fuel:diesel" v="yes"/>
    <tag k="fuel:discount" v="woolworths"/>
    <tag k="fuel:e10" v="no"/>
    <tag k="fuel:lpg" v="yes"/>
    <tag k="fuel:octane_91" v="yes"/>
    <tag k="fuel:octane_95" v="yes"/>
    <tag k="fuel:octane_98" v="yes"/>
    <tag k="name" v="Woolworths Petrol Warnbro"/>
    <tag k="operator" v="Caltex"/>
    <tag k="phone" v="+61-8-95941902"/>
    <tag k="rent:lpg_bottles" v="no"/>
    <tag k="source" v="caltex.com.au"/>
  </node>
</osm>
