<?xml version='1.0' encoding='UTF-8'?>
<osm version="0.6" generator="libosmium/2.20.0">
  <node id="86940603" version="8" timestamp="2008-09-19T17:52:15Z" uid="65847" user="LKK" changeset="666457" lat="50.2211038" lon="8.2672852">
    <tag k="created_by" v="JOSM"/>
  </node>
  <node id="86940608" version="2" timestamp="2008-09-19T17:52:17Z" uid="65847" user="LKK" changeset="666457" lat="50.2209636" lon="8.2668508">
    <tag k="created_by" v="JOSM"/>
  </node>
  <node id="86940613" version="3" timestamp="2008-09-19T17:52:14Z" uid="65847" user="LKK" changeset="666457" lat="50.2209036" lon="8.2667623">
    <tag k="created_by" v="JOSM"/>
  </node>
  <node id="86941423" version="2" timestamp="2008-08-15T00:02:16Z" uid="6975" user="ulfl" changeset="264731" lat="52.3211864" lon="1.595034">
    <tag k="amenity" v="place_of_worship"/>
    <tag k="denomination" v="church_of_england"/>
    <tag k="religion" v="christian"/>
  </node>
  <node id="86942834" version="2" timestamp="2008-09-19T17:52:19Z" uid="65847" user="LKK" changeset="666457" lat="50.2207851" lon="8.2668462">
    <tag k="created_by" v="JOSM"/>
  </node>
  <node id="86942837" version="2" timestamp="2008-09-19T17:52:18Z" uid="65847" user="LKK" changeset="666457" lat="50.2205724" lon="8.2669942">
    <tag k="created_by" v="JOSM"/>
  </node>
  <node id="86946518" version="3" timestamp="2008-09-30T00:03:51Z" uid="1066" user="pavel" changeset="720263" lat="50.1377234" lon="13.9231673">
    <tag k="is_in" v="Czech Republic, Europe"/>
    <tag k="name" v="Rynholec"/>
    <tag k="place" v="village"/>
    <tag k="source" v="geonames.org,cs.wikipedia.org,nga.mil"/>
  </node>
  <node id="86946519" version="2" timestamp="2008-09-30T09:57:19Z" uid="1066" user="pavel" changeset="720911" lat="49.6638356" lon="16.3030407">
    <tag k="is_in" v="Czech Republic, Europe"/>
    <tag k="name" v="Jedlová"/>
    <tag k="place" v="village"/>
    <tag k="source" v="geonames.org,cs.wikipedia.org,nga.mil"/>
  </node>
  <node id="86946521" version="2" timestamp="2008-09-30T11:42:35Z" uid="1066" user="pavel" changeset="720911" lat="48.8129348" lon="16.0112767">
    <tag k="is_in" v="Czech Republic, Europe"/>
    <tag k="name" v="Havraníky"/>
    <tag k="place" v="village"/>
    <tag k="source" v="geonames.org,cs.wikipedia.org,nga.mil"/>
  </node>
  <node id="86946521" version="4" timestamp="2010-09-14T22:39:02Z" uid="23543" user="jkjk" changeset="5782962" lat="48.8112239" lon="16.0084449">
    <tag k="is_in" v="Czech Republic, Europe"/>
    <tag k="is_in:continent" v="Europe"/>
    <tag k="is_in:country_code" v="cz"/>
    <tag k="name" v="Havraníky"/>
    <tag k="place" v="village"/>
    <tag k="source" v="geonames.org,cs.wikipedia.org,nga.mil"/>
  </node>
  <node id="86946524" version="2" timestamp="2008-09-30T10:39:00Z" uid="1066" user="pavel" changeset="720911" lat="49.1041163" lon="14.014359">
    <tag k="is_in" v="Czech Republic, Europe"/>
    <tag k="name" v="Dub"/>
    <tag k="place" v="town"/>
    <tag k="source" v="geonames.org,cs.wikipedia.org,nga.mil"/>
  </node>
  <node id="86946527" version="2" timestamp="2008-09-30T11:43:12Z" uid="1066" user="pavel" changeset="720911" lat="49.8899087" lon="17.9428713">
    <tag k="is_in" v="Czech Republic, Europe"/>
    <tag k="name" v="Raduň"/>
    <tag k="place" v="village"/>
    <tag k="source" v="geonames.org,cs.wikipedia.org,nga.mil"/>
  </node>
  <node id="86946528" version="2" timestamp="2008-09-30T11:41:29Z" uid="1066" user="pavel" changeset="720911" lat="50.443246" lon="13.269069">
    <tag k="is_in" v="Czech Republic, Europe"/>
    <tag k="name" v="Místo"/>
    <tag k="place" v="village"/>
    <tag k="source" v="geonames.org,cs.wikipedia.org,nga.mil"/>
  </node>
  <node id="86946531" version="2" timestamp="2008-09-30T10:48:42Z" uid="1066" user="pavel" changeset="720911" lat="49.9147866" lon="13.5764966">
    <tag k="is_in" v="Czech Republic, Europe"/>
    <tag k="name" v="Bujesily"/>
    <tag k="place" v="village"/>
    <tag k="source" v="geonames.org,cs.wikipedia.org,nga.mil"/>
  </node>
  <node id="86946535" version="2" timestamp="2008-09-30T10:49:45Z" uid="1066" user="pavel" changeset="720911" lat="50.00633" lon="13.4278936">
    <tag k="is_in" v="Czech Republic, Europe"/>
    <tag k="name" v="Sedlec"/>
    <tag k="place" v="village"/>
    <tag k="source" v="geonames.org,cs.wikipedia.org,nga.mil"/>
  </node>
  <node id="86946539" version="2" timestamp="2008-09-30T00:01:04Z" uid="1066" user="pavel" changeset="720263" lat="50.4919591" lon="13.7547076">
    <tag k="is_in" v="Czech Republic, Europe"/>
    <tag k="name" v="Lužice"/>
    <tag k="place" v="village"/>
    <tag k="source" v="geonames.org,cs.wikipedia.org,nga.mil"/>
  </node>
  <node id="86946543" version="2" timestamp="2008-09-30T00:07:24Z" uid="1066" user="pavel" changeset="720263" lat="50.1915906" lon="14.3239966">
    <tag k="is_in" v="Czech Republic, Europe"/>
    <tag k="name" v="Tursko"/>
    <tag k="place" v="village"/>
    <tag k="source" v="geonames.org,cs.wikipedia.org,nga.mil"/>
  </node>
  <node id="86946546" version="2" timestamp="2008-09-30T11:34:02Z" uid="1066" user="pavel" changeset="720911" lat="49.5883003" lon="13.0735581">
    <tag k="is_in" v="Czech Republic, Europe"/>
    <tag k="name" v="Kvíčovice"/>
    <tag k="place" v="village"/>
    <tag k="source" v="geonames.org,cs.wikipedia.org,nga.mil"/>
  </node>
  <node id="86946547" version="2" timestamp="2008-09-30T10:32:28Z" uid="1066" user="pavel" changeset="720911" lat="49.2331889" lon="16.1342711">
    <tag k="is_in" v="Czech Republic, Europe"/>
    <tag k="name" v="Naloučany"/>
    <tag k="place" v="village"/>
    <tag k="source" v="geonames.org,cs.wikipedia.org,nga.mil"/>
  </node>
  <node id="86946548" version="2" timestamp="2008-09-30T11:44:18Z" uid="1066" user="pavel" changeset="720911" lat="49.1521911" lon="18.0343811">
    <tag k="is_in" v="Czech Republic, Europe"/>
    <tag k="name" v="Poteč"/>
    <tag k="place" v="village"/>
    <tag k="source" v="geonames.org,cs.wikipedia.org,nga.mil"/>
  </node>
  <node id="86946549" version="2" timestamp="2008-09-29T23:18:09Z" uid="1066" user="pavel" changeset="720263" lat="49.9871234" lon="15.350246">
    <tag k="is_in" v="Czech Republic, Europe"/>
    <tag k="name" v="Svatý Mikuláš"/>
    <tag k="place" v="village"/>
    <tag k="source" v="geonames.org,cs.wikipedia.org,nga.mil"/>
  </node>
  <node id="86946550" version="2" timestamp="2008-09-29T22:56:08Z" uid="1066" user="pavel" changeset="720263" lat="49.4909243" lon="15.3634882">
    <tag k="is_in" v="Czech Republic, Europe"/>
    <tag k="name" v="Staré Bříště"/>
    <tag k="place" v="village"/>
    <tag k="source" v="geonames.org,cs.wikipedia.org,nga.mil"/>
  </node>
  <node id="86946551" version="2" timestamp="2008-09-30T00:18:46Z" uid="1066" user="pavel" changeset="720263" lat="50.4994444" lon="14.9177779">
    <tag k="is_in" v="Czech Republic, Europe"/>
    <tag k="name" v="Nová Ves u Bakova"/>
    <tag k="place" v="village"/>
    <tag k="source" v="geonames.org,cs.wikipedia.org,nga.mil"/>
  </node>
  <node id="86946552" version="2" timestamp="2008-09-29T23:52:10Z" uid="1066" user="pavel" changeset="720263" lat="49.3599407" lon="15.2081591">
    <tag k="is_in" v="Czech Republic, Europe"/>
    <tag k="name" v="Čelistná"/>
    <tag k="place" v="village"/>
    <tag k="source" v="geonames.org,cs.wikipedia.org,nga.mil"/>
  </node>
  <node id="86946553" version="2" timestamp="2008-09-30T10:23:07Z" uid="1066" user="pavel" changeset="720911" lat="49.2470805" lon="16.6724849">
    <tag k="is_in" v="Czech Republic, Europe"/>
    <tag k="name" v="Bílovice nad Svitavou"/>
    <tag k="place" v="village"/>
    <tag k="source" v="geonames.org,cs.wikipedia.org,nga.mil"/>
  </node>
  <node id="86946578" version="2" timestamp="2008-09-30T10:32:44Z" uid="1066" user="pavel" changeset="720911" lat="49.4668057" lon="17.2329165">
    <tag k="is_in" v="Czech Republic, Europe"/>
    <tag k="name" v="Biskupice"/>
    <tag k="place" v="village"/>
    <tag k="source" v="geonames.org,cs.wikipedia.org,nga.mil"/>
  </node>
  <node id="86946579" version="2" timestamp="2008-09-30T11:13:18Z" uid="1066" user="pavel" changeset="720911" lat="49.2007229" lon="13.8358476">
    <tag k="is_in" v="Czech Republic, Europe"/>
    <tag k="name" v="Úlehle"/>
    <tag k="place" v="village"/>
    <tag k="source" v="geonames.org,cs.wikipedia.org,nga.mil"/>
  </node>
  <node id="86946615" version="2" timestamp="2008-09-29T23:01:48Z" uid="1066" user="pavel" changeset="720263" lat="49.979525" lon="15.2067803">
    <tag k="is_in" v="Czech Republic, Europe"/>
    <tag k="name" v="Červené Pečky"/>
    <tag k="place" v="town"/>
    <tag k="source" v="geonames.org,cs.wikipedia.org,nga.mil"/>
  </node>
  <node id="86946618" version="2" timestamp="2008-09-29T23:34:55Z" uid="1066" user="pavel" changeset="720263" lat="50.3293903" lon="15.5830174">
    <tag k="is_in" v="Czech Republic, Europe"/>
    <tag k="name" v="Sukorady"/>
    <tag k="place" v="village"/>
    <tag k="source" v="geonames.org,cs.wikipedia.org,nga.mil"/>
  </node>
  <node id="86946663" version="2" timestamp="2008-09-30T10:27:31Z" uid="1066" user="pavel" changeset="720911" lat="49.7716159" lon="16.027954">
    <tag k="is_in" v="Czech Republic, Europe"/>
    <tag k="name" v="Krouna"/>
    <tag k="place" v="village"/>
    <tag k="source" v="geonames.org,cs.wikipedia.org,nga.mil"/>
  </node>
  <node id="86946668" version="2" timestamp="2008-09-30T10:31:57Z" uid="1066" user="pavel" changeset="720911" lat="49.2542459" lon="14.6385028">
    <tag k="is_in" v="Czech Republic, Europe"/>
    <tag k="name" v="Vlastiboř"/>
    <tag k="place" v="village"/>
    <tag k="source" v="geonames.org,cs.wikipedia.org,nga.mil"/>
  </node>
  <node id="86946670" version="2" timestamp="2008-09-30T10:20:14Z" uid="1066" user="pavel" changeset="720911" lat="50.2658729" lon="15.686105">
    <tag k="is_in" v="Czech Republic, Europe"/>
    <tag k="name" v="Třesovice"/>
    <tag k="place" v="village"/>
    <tag k="source" v="geonames.org,cs.wikipedia.org,nga.mil"/>
  </node>
  <node id="86946673" version="2" timestamp="2008-09-30T10:48:33Z" uid="1066" user="pavel" changeset="720911" lat="50.6870621" lon="14.5381264">
    <tag k="is_in" v="Czech Republic, Europe"/>
    <tag k="name" v="Česká Lípa"/>
    <tag k="place" v="town"/>
    <tag k="source" v="geonames.org,cs.wikipedia.org,nga.mil"/>
  </node>
  <node id="86946673" version="4" timestamp="2009-07-26T17:34:59Z" uid="123700" user="Mala" changeset="1947360" lat="50.6870621" lon="14.5381264">
    <tag k="is_in" v="Czech Republic, Europe"/>
    <tag k="is_in:continent" v="Europe"/>
    <tag k="is_in:country_code" v="cz"/>
    <tag k="name" v="Česká Lípa"/>
    <tag k="name:de" v="Böhmisch Leipa"/>
    <tag k="name:pl" v="Czeska Lipa"/>
    <tag k="place" v="town"/>
    <tag k="source" v="geonames.org,cs.wikipedia.org,nga.mil"/>
    <tag k="wikipedia" v="Česká Lípa"/>
  </node>
  <node id="86946677" version="2" timestamp="2008-09-29T23:35:29Z" uid="1066" user="pavel" changeset="720263" lat="50.2409521" lon="14.3090806">
    <tag k="is_in" v="Czech Republic, Europe"/>
    <tag k="name" v="Kralupy nad Vltavou"/>
    <tag k="place" v="town"/>
    <tag k="source" v="geonames.org,cs.wikipedia.org,nga.mil"/>
  </node>
  <node id="86946679" version="2" timestamp="2008-09-30T10:33:23Z" uid="1066" user="pavel" changeset="720911" lat="49.4984066" lon="17.6137753">
    <tag k="is_in" v="Czech Republic, Europe"/>
    <tag k="name" v="Lhota"/>
    <tag k="place" v="village"/>
    <tag k="source" v="geonames.org,cs.wikipedia.org,nga.mil"/>
  </node>
  <node id="86946681" version="2" timestamp="2008-09-30T10:22:40Z" uid="1066" user="pavel" changeset="720911" lat="49.5682997" lon="16.3395388">
    <tag k="is_in" v="Czech Republic, Europe"/>
    <tag k="name" v="Věstín"/>
    <tag k="place" v="village"/>
    <tag k="source" v="geonames.org,cs.wikipedia.org,nga.mil"/>
  </node>
  <node id="86946684" version="2" timestamp="2008-09-29T22:54:21Z" uid="1066" user="pavel" changeset="720263" lat="49.9020388" lon="13.8831702">
    <tag k="is_in" v="Czech Republic, Europe"/>
    <tag k="name" v="Březová"/>
    <tag k="place" v="village"/>
    <tag k="source" v="geonames.org,cs.wikipedia.org,nga.mil"/>
  </node>
  <node id="86946687" version="2" timestamp="2008-09-30T10:14:15Z" uid="1066" user="pavel" changeset="720911" lat="49.3357857" lon="15.90113">
    <tag k="is_in" v="Czech Republic, Europe"/>
    <tag k="name" v="Horní Radslavice"/>
    <tag k="place" v="village"/>
    <tag k="source" v="geonames.org,cs.wikipedia.org,nga.mil"/>
  </node>
  <node id="86946690" version="2" timestamp="2008-09-29T23:34:57Z" uid="1066" user="pavel" changeset="720263" lat="49.7452988" lon="13.6850217">
    <tag k="is_in" v="Czech Republic, Europe"/>
    <tag k="name" v="Hůrky"/>
    <tag k="place" v="village"/>
    <tag k="source" v="geonames.org,cs.wikipedia.org,nga.mil"/>
  </node>
  <node id="86946693" version="3" timestamp="2008-09-30T10:27:23Z" uid="1066" user="pavel" changeset="720911" lat="49.9889936" lon="16.3122326">
    <tag k="is_in" v="Czech Republic, Europe"/>
    <tag k="name" v="Sudislav nad Orlicí"/>
    <tag k="place" v="village"/>
    <tag k="source" v="geonames.org,cs.wikipedia.org,nga.mil"/>
  </node>
  <node id="86946696" version="2" timestamp="2008-09-30T10:34:15Z" uid="1066" user="pavel" changeset="720911" lat="49.781504" lon="17.8210587">
    <tag k="is_in" v="Czech Republic, Europe"/>
    <tag k="name" v="Větřkovice"/>
    <tag k="place" v="village"/>
    <tag k="source" v="geonames.org,cs.wikipedia.org,nga.mil"/>
  </node>
  <node id="86946699" version="2" timestamp="2008-09-30T10:26:00Z" uid="1066" user="pavel" changeset="720911" lat="49.3113726" lon="16.4119522">
    <tag k="is_in" v="Czech Republic, Europe"/>
    <tag k="name" v="Heroltice"/>
    <tag k="place" v="village"/>
    <tag k="source" v="geonames.org,cs.wikipedia.org,nga.mil"/>
  </node>
  <node id="86946759" version="2" timestamp="2008-09-30T10:38:33Z" uid="1066" user="pavel" changeset="720911" lat="49.2510845" lon="14.5493154">
    <tag k="is_in" v="Czech Republic, Europe"/>
    <tag k="name" v="Hodětín"/>
    <tag k="place" v="village"/>
    <tag k="source" v="geonames.org,cs.wikipedia.org,nga.mil"/>
  </node>
  <node id="86946762" version="2" timestamp="2008-09-30T11:48:07Z" uid="1066" user="pavel" changeset="720911" lat="48.8838865" lon="17.3956484">
    <tag k="is_in" v="Czech Republic, Europe"/>
    <tag k="name" v="Kněždub"/>
    <tag k="place" v="village"/>
    <tag k="source" v="geonames.org,cs.wikipedia.org,nga.mil"/>
  </node>
  <node id="86946811" version="2" timestamp="2008-09-29T23:16:00Z" uid="1066" user="pavel" changeset="720263" lat="49.7462137" lon="14.0201404">
    <tag k="is_in" v="Czech Republic, Europe"/>
    <tag k="name" v="Hluboš"/>
    <tag k="place" v="village"/>
    <tag k="source" v="geonames.org,cs.wikipedia.org,nga.mil"/>
  </node>
  <node id="86946814" version="2" timestamp="2008-09-30T10:47:54Z" uid="1066" user="pavel" changeset="720911" lat="49.1595192" lon="14.0600585">
    <tag k="is_in" v="Czech Republic, Europe"/>
    <tag k="name" v="Bílsko"/>
    <tag k="place" v="village"/>
    <tag k="source" v="geonames.org,cs.wikipedia.org,nga.mil"/>
  </node>
  <node id="86946819" version="3" timestamp="2008-09-29T23:26:10Z" uid="1066" user="pavel" changeset="720263" lat="50.4297668" lon="14.5023661">
    <tag k="is_in" v="Czech Republic, Europe"/>
    <tag k="name" v="Dolní Zimoř"/>
    <tag k="place" v="village"/>
    <tag k="source" v="geonames.org,cs.wikipedia.org,nga.mil"/>
  </node>
  <node id="86946820" version="2" timestamp="2008-09-30T11:38:05Z" uid="1066" user="pavel" changeset="720911" lat="50.7050681" lon="15.4320174">
    <tag k="is_in" v="Czech Republic, Europe"/>
    <tag k="name" v="Jablonec nad Jizerou"/>
    <tag k="place" v="town"/>
    <tag k="source" v="geonames.org,cs.wikipedia.org,nga.mil"/>
  </node>
  <node id="86946822" version="2" timestamp="2008-09-30T11:44:19Z" uid="1066" user="pavel" changeset="720911" lat="50.3250668" lon="16.1216059">
    <tag k="is_in" v="Czech Republic, Europe"/>
    <tag k="name" v="Vršovka"/>
    <tag k="place" v="village"/>
    <tag k="source" v="geonames.org,cs.wikipedia.org,nga.mil"/>
  </node>
  <node id="86946825" version="2" timestamp="2008-09-30T00:12:42Z" uid="1066" user="pavel" changeset="720263" lat="50.0351387" lon="13.8809721">
    <tag k="is_in" v="Czech Republic, Europe"/>
    <tag k="name" v="Křivoklát"/>
    <tag k="place" v="town"/>
    <tag k="source" v="geonames.org,cs.wikipedia.org,nga.mil"/>
  </node>
  <node id="86946827" version="2" timestamp="2008-09-30T11:46:08Z" uid="1066" user="pavel" changeset="720911" lat="50.6747693" lon="15.9736573">
    <tag k="is_in" v="Czech Republic, Europe"/>
    <tag k="name" v="Královec"/>
    <tag k="place" v="village"/>
    <tag k="source" v="geonames.org,cs.wikipedia.org,nga.mil"/>
  </node>
  <node id="86946828" version="2" timestamp="2008-09-30T10:24:59Z" uid="1066" user="pavel" changeset="720911" lat="49.9170365" lon="15.6828776">
    <tag k="is_in" v="Czech Republic, Europe"/>
    <tag k="name" v="Úherčice"/>
    <tag k="place" v="village"/>
    <tag k="source" v="geonames.org,cs.wikipedia.org,nga.mil"/>
  </node>
  <node id="86946829" version="3" timestamp="2008-09-30T10:39:10Z" uid="1066" user="pavel" changeset="720911" lat="48.8820547" lon="15.9660014">
    <tag k="is_in" v="Czech Republic, Europe"/>
    <tag k="name" v="Citonice"/>
    <tag k="place" v="village"/>
    <tag k="source" v="geonames.org,cs.wikipedia.org,nga.mil"/>
    <tag k="source:position" v="UHUL:ortofoto"/>
  </node>
  <node id="86946832" version="2" timestamp="2008-09-30T10:23:52Z" uid="1066" user="pavel" changeset="720911" lat="49.3648613" lon="17.1481944">
    <tag k="is_in" v="Czech Republic, Europe"/>
    <tag k="name" v="Dobromilice"/>
    <tag k="place" v="village"/>
    <tag k="source" v="geonames.org,cs.wikipedia.org,nga.mil"/>
  </node>
  <node id="86946833" version="3" timestamp="2008-09-29T23:08:31Z" uid="1066" user="pavel" changeset="720263" lat="49.7916529" lon="15.349297">
    <tag k="is_in" v="Czech Republic, Europe"/>
    <tag k="name" v="Čejkovice"/>
    <tag k="place" v="village"/>
    <tag k="source" v="geonames.org,cs.wikipedia.org,nga.mil"/>
  </node>
  <node id="86946836" version="2" timestamp="2008-09-30T10:22:16Z" uid="1066" user="pavel" changeset="720911" lat="49.1375018" lon="15.7926533">
    <tag k="is_in" v="Czech Republic, Europe"/>
    <tag k="name" v="Loukovice"/>
    <tag k="place" v="village"/>
    <tag k="source" v="geonames.org,cs.wikipedia.org,nga.mil"/>
  </node>
  <node id="86946839" version="2" timestamp="2008-09-29T23:51:03Z" uid="1066" user="pavel" changeset="720263" lat="50.4908139" lon="15.3970013">
    <tag k="is_in" v="Czech Republic, Europe"/>
    <tag k="name" v="Bradlecká Lhota"/>
    <tag k="place" v="village"/>
    <tag k="source" v="geonames.org,cs.wikipedia.org,nga.mil"/>
  </node>
  <node id="86946841" version="2" timestamp="2008-09-30T10:04:20Z" uid="1066" user="pavel" changeset="720911" lat="49.5880962" lon="16.4253656">
    <tag k="is_in" v="Czech Republic, Europe"/>
    <tag k="name" v="Kněževes"/>
    <tag k="place" v="village"/>
    <tag k="source" v="geonames.org,cs.wikipedia.org,nga.mil"/>
  </node>
  <node id="86946842" version="2" timestamp="2008-09-30T00:10:42Z" uid="1066" user="pavel" changeset="720263" lat="50.0353471" lon="13.6487316">
    <tag k="is_in" v="Czech Republic, Europe"/>
    <tag k="name" v="Krakov"/>
    <tag k="place" v="village"/>
    <tag k="source" v="geonames.org,cs.wikipedia.org,nga.mil"/>
  </node>
  <node id="86946845" version="2" timestamp="2008-09-29T23:43:48Z" uid="1066" user="pavel" changeset="720263" lat="49.5082115" lon="15.4766982">
    <tag k="is_in" v="Czech Republic, Europe"/>
    <tag k="name" v="Skorkov"/>
    <tag k="place" v="village"/>
    <tag k="source" v="geonames.org,cs.wikipedia.org,nga.mil"/>
  </node>
  <node id="86946848" version="2" timestamp="2008-09-29T23:58:12Z" uid="1066" user="pavel" changeset="720263" lat="49.4198153" lon="15.5046253">
    <tag k="is_in" v="Czech Republic, Europe"/>
    <tag k="name" v="Vyskytná nad Jihlavou"/>
    <tag k="place" v="village"/>
    <tag k="source" v="geonames.org,cs.wikipedia.org,nga.mil"/>
  </node>
  <node id="86946851" version="2" timestamp="2008-09-30T10:33:57Z" uid="1066" user="pavel" changeset="720911" lat="50.2307574" lon="16.0013161">
    <tag k="is_in" v="Czech Republic, Europe"/>
    <tag k="name" v="Jeníkovice"/>
    <tag k="place" v="village"/>
    <tag k="source" v="geonames.org,cs.wikipedia.org,nga.mil"/>
  </node>
  <node id="86946855" version="2" timestamp="2008-09-30T11:48:13Z" uid="1066" user="pavel" changeset="720911" lat="50.0523503" lon="17.5460136">
    <tag k="is_in" v="Czech Republic, Europe"/>
    <tag k="name" v="Čaková"/>
    <tag k="place" v="village"/>
    <tag k="source" v="geonames.org,cs.wikipedia.org,nga.mil"/>
  </node>
  <node id="86946857" version="2" timestamp="2008-09-30T10:14:21Z" uid="1066" user="pavel" changeset="720911" lat="49.1392875" lon="15.563047">
    <tag k="is_in" v="Czech Republic, Europe"/>
    <tag k="name" v="Nová Říše"/>
    <tag k="place" v="village"/>
    <tag k="source" v="geonames.org,cs.wikipedia.org,nga.mil"/>
  </node>
  <node id="86946859" version="2" timestamp="2008-09-30T10:16:58Z" uid="1066" user="pavel" changeset="720911" lat="49.4505697" lon="16.0934317">
    <tag k="is_in" v="Czech Republic, Europe"/>
    <tag k="name" v="Bobrůvka"/>
    <tag k="place" v="village"/>
    <tag k="source" v="geonames.org,cs.wikipedia.org,nga.mil"/>
  </node>
  <node id="86946887" version="2" timestamp="2008-09-29T23:20:24Z" uid="1066" user="pavel" changeset="720263" lat="50.296711" lon="15.0727995">
    <tag k="is_in" v="Czech Republic, Europe"/>
    <tag k="name" v="Mcely"/>
    <tag k="place" v="village"/>
    <tag k="source" v="geonames.org,cs.wikipedia.org,nga.mil"/>
  </node>
  <node id="86946890" version="2" timestamp="2008-09-30T10:48:53Z" uid="1066" user="pavel" changeset="720911" lat="49.8491168" lon="13.4414245">
    <tag k="is_in" v="Czech Republic, Europe"/>
    <tag k="name" v="Hromnice"/>
    <tag k="place" v="village"/>
    <tag k="source" v="geonames.org,cs.wikipedia.org,nga.mil"/>
  </node>
  <node id="86946893" version="2" timestamp="2008-09-30T10:12:28Z" uid="1066" user="pavel" changeset="720911" lat="49.3248528" lon="16.1246795">
    <tag k="is_in" v="Czech Republic, Europe"/>
    <tag k="name" v="Ruda"/>
    <tag k="place" v="village"/>
    <tag k="source" v="geonames.org,cs.wikipedia.org,nga.mil"/>
  </node>
  <node id="86946895" version="2" timestamp="2008-09-30T10:28:53Z" uid="1066" user="pavel" changeset="720911" lat="49.196881" lon="16.7527615">
    <tag k="is_in" v="Czech Republic, Europe"/>
    <tag k="name" v="Velatice"/>
    <tag k="place" v="village"/>
    <tag k="source" v="geonames.org,cs.wikipedia.org,nga.mil"/>
  </node>
  <node id="86946896" version="2" timestamp="2008-09-29T23:25:56Z" uid="1066" user="pavel" changeset="720263" lat="49.4675002" lon="13.8324998">
    <tag k="is_in" v="Czech Republic, Europe"/>
    <tag k="name" v="Kocelovice"/>
    <tag k="place" v="village"/>
    <tag k="source" v="geonames.org,cs.wikipedia.org,nga.mil"/>
  </node>
  <node id="86946898" version="2" timestamp="2008-09-30T00:22:10Z" uid="1066" user="pavel" changeset="720263" lat="50.0170131" lon="14.868983">
    <tag k="is_in" v="Czech Republic, Europe"/>
    <tag k="name" v="Krupá"/>
    <tag k="place" v="village"/>
    <tag k="source" v="geonames.org,cs.wikipedia.org,nga.mil"/>
  </node>
  <node id="86946900" version="2" timestamp="2008-09-30T11:42:13Z" uid="1066" user="pavel" changeset="720911" lat="48.8314091" lon="14.4645918">
    <tag k="is_in" v="Czech Republic, Europe"/>
    <tag k="name" v="Velešín"/>
    <tag k="place" v="town"/>
    <tag k="source" v="geonames.org,cs.wikipedia.org,nga.mil"/>
  </node>
  <node id="86946901" version="2" timestamp="2008-09-29T22:58:35Z" uid="1066" user="pavel" changeset="720263" lat="50.5684724" lon="13.8161113">
    <tag k="is_in" v="Czech Republic, Europe"/>
    <tag k="name" v="Světec"/>
    <tag k="place" v="village"/>
    <tag k="source" v="geonames.org,cs.wikipedia.org,nga.mil"/>
  </node>
  <node id="86946902" version="2" timestamp="2008-09-30T10:31:38Z" uid="1066" user="pavel" changeset="720911" lat="49.3966667" lon="16.1849998">
    <tag k="is_in" v="Czech Republic, Europe"/>
    <tag k="name" v="Nová Ves"/>
    <tag k="place" v="village"/>
    <tag k="source" v="geonames.org,cs.wikipedia.org,nga.mil"/>
  </node>
  <node id="86946903" version="2" timestamp="2008-09-29T23:47:16Z" uid="1066" user="pavel" changeset="720263" lat="50.4648855" lon="13.9966304">
    <tag k="is_in" v="Czech Republic, Europe"/>
    <tag k="name" v="Chodovlice"/>
    <tag k="place" v="village"/>
    <tag k="source" v="geonames.org,cs.wikipedia.org,nga.mil"/>
  </node>
  <node id="86946906" version="2" timestamp="2008-09-30T10:50:59Z" uid="1066" user="pavel" changeset="720911" lat="49.5105067" lon="13.4313898">
    <tag k="is_in" v="Czech Republic, Europe"/>
    <tag k="name" v="Skašov"/>
    <tag k="place" v="village"/>
    <tag k="source" v="geonames.org,cs.wikipedia.org,nga.mil"/>
  </node>
  <node id="86946908" version="2" timestamp="2008-09-30T10:30:06Z" uid="1066" user="pavel" changeset="720911" lat="49.564009" lon="18.1077605">
    <tag k="is_in" v="Czech Republic, Europe"/>
    <tag k="name" v="Ženklava"/>
    <tag k="place" v="village"/>
    <tag k="source" v="geonames.org,cs.wikipedia.org,nga.mil"/>
  </node>
  <node id="86946911" version="2" timestamp="2008-09-30T10:01:46Z" uid="1066" user="pavel" changeset="720911" lat="50.1697315" lon="16.2035956">
    <tag k="is_in" v="Czech Republic, Europe"/>
    <tag k="name" v="Třebešov"/>
    <tag k="place" v="village"/>
    <tag k="source" v="geonames.org,cs.wikipedia.org,nga.mil"/>
  </node>
  <node id="86946962" version="2" timestamp="2008-09-30T00:14:44Z" uid="1066" user="pavel" changeset="720263" lat="50.1815276" lon="13.9151391">
    <tag k="is_in" v="Czech Republic, Europe"/>
    <tag k="name" v="Mšecké Žehrovice"/>
    <tag k="place" v="village"/>
    <tag k="source" v="geonames.org,cs.wikipedia.org,nga.mil"/>
  </node>
  <node id="86946965" version="2" timestamp="2008-09-30T10:07:38Z" uid="1066" user="pavel" changeset="720911" lat="49.2609731" lon="15.0448967">
    <tag k="is_in" v="Czech Republic, Europe"/>
    <tag k="name" v="Dívčí Kopy"/>
    <tag k="place" v="village"/>
    <tag k="source" v="geonames.org,cs.wikipedia.org,nga.mil"/>
  </node>
  <node id="86946969" version="2" timestamp="2008-09-29T22:47:22Z" uid="1066" user="pavel" changeset="720263" lat="50.0690911" lon="15.2745109">
    <tag k="is_in" v="Czech Republic, Europe"/>
    <tag k="name" v="Býchory"/>
    <tag k="place" v="village"/>
    <tag k="source" v="geonames.org,cs.wikipedia.org,nga.mil"/>
  </node>
  <node id="86946972" version="3" timestamp="2009-05-01T12:54:45Z" uid="20587" user="balrog-kun" changeset="1036200" lat="50.4421481" lon="16.9138621">
    <tag k="created_by" v="create_osm_pr.pl/1"/>
    <tag k="name" v="Bílá Voda"/>
    <tag k="place" v="village"/>
    <tag k="source" v="geonames.org,cs.wikipedia.org,nga.mil"/>
    <tag k="wikipedia" v="pl:Bílá Voda"/>
  </node>
  <node id="86946975" version="2" timestamp="2008-09-30T10:30:54Z" uid="1066" user="pavel" changeset="720911" lat="49.5319443" lon="16.7486111">
    <tag k="is_in" v="Czech Republic, Europe"/>
    <tag k="name" v="Kořenec"/>
    <tag k="place" v="village"/>
    <tag k="source" v="geonames.org,cs.wikipedia.org,nga.mil"/>
  </node>
  <node id="86946978" version="2" timestamp="2008-09-29T22:44:57Z" uid="1066" user="pavel" changeset="720263" lat="50.3734508" lon="15.5487713">
    <tag k="is_in" v="Czech Republic, Europe"/>
    <tag k="name" v="Ostroměř"/>
    <tag k="place" v="village"/>
    <tag k="source" v="geonames.org,cs.wikipedia.org,nga.mil"/>
  </node>
  <node id="86946980" version="2" timestamp="2008-09-30T10:23:38Z" uid="1066" user="pavel" changeset="720911" lat="49.101768" lon="16.7151222">
    <tag k="is_in" v="Czech Republic, Europe"/>
    <tag k="name" v="Telnice"/>
    <tag k="place" v="village"/>
    <tag k="source" v="geonames.org,cs.wikipedia.org,nga.mil"/>
  </node>
  <node id="86946984" version="3" timestamp="2008-09-29T23:52:04Z" uid="1066" user="pavel" changeset="720263" lat="49.8282042" lon="14.0867704">
    <tag k="is_in" v="Czech Republic, Europe"/>
    <tag k="name" v="Velký Chlumec"/>
    <tag k="place" v="village"/>
    <tag k="source" v="geonames.org,cs.wikipedia.org,nga.mil"/>
  </node>
  <node id="86946987" version="2" timestamp="2008-09-30T11:41:48Z" uid="1066" user="pavel" changeset="720911" lat="49.0485698" lon="17.8792858">
    <tag k="is_in" v="Czech Republic, Europe"/>
    <tag k="name" v="Hostětín"/>
    <tag k="place" v="village"/>
    <tag k="source" v="geonames.org,cs.wikipedia.org,nga.mil"/>
  </node>
  <node id="86946991" version="2" timestamp="2008-09-29T22:50:33Z" uid="1066" user="pavel" changeset="720263" lat="49.5157226" lon="13.9175273">
    <tag k="is_in" v="Czech Republic, Europe"/>
    <tag k="name" v="Koupě"/>
    <tag k="place" v="village"/>
    <tag k="source" v="geonames.org,cs.wikipedia.org,nga.mil"/>
  </node>
  <node id="86946994" version="2" timestamp="2008-09-30T10:12:48Z" uid="1066" user="pavel" changeset="720911" lat="49.4532392" lon="15.9820763">
    <tag k="is_in" v="Czech Republic, Europe"/>
    <tag k="name" v="Kněževes"/>
    <tag k="place" v="village"/>
    <tag k="source" v="geonames.org,cs.wikipedia.org,nga.mil"/>
  </node>
  <node id="86946997" version="2" timestamp="2008-09-30T10:23:36Z" uid="1066" user="pavel" changeset="720911" lat="49.4662502" lon="16.2329165">
    <tag k="is_in" v="Czech Republic, Europe"/>
    <tag k="name" v="Milasín"/>
    <tag k="place" v="village"/>
    <tag k="source" v="geonames.org,cs.wikipedia.org,nga.mil"/>
  </node>
  <node id="86947000" version="2" timestamp="2008-09-30T10:33:36Z" uid="1066" user="pavel" changeset="720911" lat="49.4495833" lon="15.9163891">
    <tag k="is_in" v="Czech Republic, Europe"/>
    <tag k="name" v="Pavlov"/>
    <tag k="place" v="village"/>
    <tag k="source" v="geonames.org,cs.wikipedia.org,nga.mil"/>
  </node>
  <node id="86947003" version="2" timestamp="2008-09-29T23:47:45Z" uid="1066" user="pavel" changeset="720263" lat="49.6148195" lon="14.79935">
    <tag k="is_in" v="Czech Republic, Europe"/>
    <tag k="name" v="Bořkovice"/>
    <tag k="place" v="village"/>
    <tag k="source" v="geonames.org,cs.wikipedia.org,nga.mil"/>
  </node>
  <node id="86947006" version="2" timestamp="2008-09-30T11:43:33Z" uid="1066" user="pavel" changeset="720911" lat="50.8314471" lon="15.0010877">
    <tag k="is_in" v="Czech Republic, Europe"/>
    <tag k="name" v="Nová Ves"/>
    <tag k="place" v="village"/>
    <tag k="source" v="geonames.org,cs.wikipedia.org,nga.mil"/>
  </node>
  <node id="86947008" version="2" timestamp="2008-09-30T10:37:13Z" uid="1066" user="pavel" changeset="720911" lat="49.0135057" lon="14.2325165">
    <tag k="is_in" v="Czech Republic, Europe"/>
    <tag k="name" v="Chvalovice"/>
    <tag k="place" v="village"/>
    <tag k="source" v="geonames.org,cs.wikipedia.org,nga.mil"/>
  </node>
  <node id="86947011" version="2" timestamp="2008-09-30T10:09:40Z" uid="1066" user="pavel" changeset="720911" lat="49.8798609" lon="15.7665279">
    <tag k="is_in" v="Czech Republic, Europe"/>
    <tag k="name" v="Licibořice"/>
    <tag k="place" v="village"/>
    <tag k="source" v="geonames.org,cs.wikipedia.org,nga.mil"/>
  </node>
  <node id="86947013" version="2" timestamp="2008-06-10T22:46:48Z" uid="1066" user="pavel" changeset="126586" lat="49.8" lon="14.55">
    <tag k="created_by" v="create_osm_pr.pl/1"/>
    <tag k="name" v="Soběšovice"/>
    <tag k="note" v="??? nikde okolo zadna vesnice neni??"/>
    <tag k="place" v="village"/>
    <tag k="source" v="geonames.org,cs.wikipedia.org,nga.mil"/>
  </node>
  <node id="86947013" version="3" timestamp="2008-06-12T17:01:20Z" uid="1066" user="pavel" changeset="141156" lat="49.7959257" lon="14.5454418">
    <tag k="created_by" v="create_osm_pr.pl/1"/>
    <tag k="name" v="Soběšovice"/>
    <tag k="place" v="village"/>
    <tag k="source" v="geonames.org,cs.wikipedia.org,nga.mil"/>
  </node>
  <node id="86947013" version="4" timestamp="2008-09-30T00:21:12Z" uid="1066" user="pavel" changeset="720263" lat="49.7959257" lon="14.5454418">
    <tag k="is_in" v="Czech Republic, Europe"/>
    <tag k="name" v="Soběšovice"/>
    <tag k="place" v="village"/>
    <tag k="source" v="geonames.org,cs.wikipedia.org,nga.mil"/>
  </node>
  <node id="86947016" version="5" timestamp="2008-09-29T22:58:19Z" uid="1066" user="pavel" changeset="720263" lat="50.4232771" lon="14.6000473">
    <tag k="is_in" v="Czech Republic, Europe"/>
    <tag k="name" v="Kanina"/>
    <tag k="place" v="village"/>
    <tag k="source" v="geonames.org,cs.wikipedia.org,nga.mil"/>
  </node>
  <node id="86947020" version="2" timestamp="2008-09-30T10:18:17Z" uid="1066" user="pavel" changeset="720911" lat="49.5032264" lon="16.5169432">
    <tag k="is_in" v="Czech Republic, Europe"/>
    <tag k="name" v="Kunštát"/>
    <tag k="place" v="town"/>
    <tag k="source" v="geonames.org,cs.wikipedia.org,nga.mil"/>
  </node>
  <node id="86947025" version="2" timestamp="2008-09-29T22:45:48Z" uid="1066" user="pavel" changeset="720263" lat="49.8488376" lon="14.295436">
    <tag k="is_in" v="Czech Republic, Europe"/>
    <tag k="name" v="Zahořany"/>
    <tag k="place" v="village"/>
    <tag k="source" v="geonames.org,cs.wikipedia.org,nga.mil"/>
  </node>
  <node id="86947028" version="2" timestamp="2008-09-29T23:30:05Z" uid="1066" user="pavel" changeset="720263" lat="50.3700481" lon="14.2673553">
    <tag k="is_in" v="Czech Republic, Europe"/>
    <tag k="name" v="Vražkov"/>
    <tag k="place" v="village"/>
    <tag k="source" v="geonames.org,cs.wikipedia.org,nga.mil"/>
  </node>
  <node id="86947032" version="2" timestamp="2008-09-30T11:42:07Z" uid="1066" user="pavel" changeset="720911" lat="49.0513223" lon="15.8082106">
    <tag k="is_in" v="Czech Republic, Europe"/>
    <tag k="name" v="Moravské Budějovice"/>
    <tag k="place" v="town"/>
    <tag k="source" v="geonames.org,cs.wikipedia.org,nga.mil"/>
  </node>
  <node id="86947036" version="2" timestamp="2008-09-30T10:26:34Z" uid="1066" user="pavel" changeset="720911" lat="50.2564941" lon="15.7606094">
    <tag k="is_in" v="Czech Republic, Europe"/>
    <tag k="name" v="Všestary"/>
    <tag k="place" v="village"/>
    <tag k="source" v="geonames.org,cs.wikipedia.org,nga.mil"/>
  </node>
  <node id="86947040" version="2" timestamp="2008-09-30T10:27:49Z" uid="1066" user="pavel" changeset="720911" lat="49.0465142" lon="17.2136289">
    <tag k="is_in" v="Czech Republic, Europe"/>
    <tag k="name" v="Labuty"/>
    <tag k="place" v="village"/>
    <tag k="source" v="geonames.org,cs.wikipedia.org,nga.mil"/>
  </node>
  <node id="86947041" version="2" timestamp="2008-09-30T10:20:58Z" uid="1066" user="pavel" changeset="720911" lat="49.1724924" lon="16.326517">
    <tag k="is_in" v="Czech Republic, Europe"/>
    <tag k="name" v="Zakřany"/>
    <tag k="place" v="village"/>
    <tag k="source" v="geonames.org,cs.wikipedia.org,nga.mil"/>
  </node>
  <node id="86947053" version="3" timestamp="2008-08-14T20:18:46Z" uid="6975" user="ulfl" changeset="264731" lat="51.3716416" lon="-0.1915714">
    <tag k="is_in" v="Sutton, Greater London, UK"/>
    <tag k="name" v="Benhilton"/>
    <tag k="place" v="hamlet"/>
    <tag k="source" v="Assumed from church/school names, local knowledge"/>
  </node>
  <node id="86947058" version="2" timestamp="2008-09-30T11:42:12Z" uid="1066" user="pavel" changeset="720911" lat="48.9811157" lon="15.58964">
    <tag k="is_in" v="Czech Republic, Europe"/>
    <tag k="name" v="Radotice"/>
    <tag k="place" v="village"/>
    <tag k="source" v="geonames.org,cs.wikipedia.org,nga.mil"/>
  </node>
  <node id="86947060" version="2" timestamp="2008-09-30T11:45:27Z" uid="1066" user="pavel" changeset="720911" lat="50.0009032" lon="18.0860535">
    <tag k="is_in" v="Czech Republic, Europe"/>
    <tag k="name" v="Strahovice"/>
    <tag k="place" v="village"/>
    <tag k="source" v="geonames.org,cs.wikipedia.org,nga.mil"/>
  </node>
  <node id="86947061" version="2" timestamp="2008-09-30T11:42:37Z" uid="1066" user="pavel" changeset="720911" lat="50.7109453" lon="15.0740454">
    <tag k="is_in" v="Czech Republic, Europe"/>
    <tag k="name" v="Dlouhý Most"/>
    <tag k="place" v="village"/>
    <tag k="source" v="geonames.org,cs.wikipedia.org,nga.mil"/>
  </node>
  <node id="86947062" version="2" timestamp="2008-09-30T10:11:16Z" uid="1066" user="pavel" changeset="720911" lat="49.0501739" lon="16.9487876">
    <tag k="is_in" v="Czech Republic, Europe"/>
    <tag k="name" v="Uhřice"/>
    <tag k="place" v="village"/>
    <tag k="source" v="geonames.org,cs.wikipedia.org,nga.mil"/>
  </node>
  <node id="86947064" version="2" timestamp="2008-09-30T00:08:58Z" uid="1066" user="pavel" changeset="720263" lat="50.166925" lon="15.1575614">
    <tag k="is_in" v="Czech Republic, Europe"/>
    <tag k="name" v="Pátek"/>
    <tag k="place" v="village"/>
    <tag k="source" v="geonames.org,cs.wikipedia.org,nga.mil"/>
  </node>
  <node id="86947065" version="2" timestamp="2008-09-29T23:38:56Z" uid="1066" user="pavel" changeset="720263" lat="50.1527154" lon="15.5008644">
    <tag k="is_in" v="Czech Republic, Europe"/>
    <tag k="name" v="Písek"/>
    <tag k="place" v="village"/>
    <tag k="source" v="geonames.org,cs.wikipedia.org,nga.mil"/>
  </node>
  <node id="86947066" version="2" timestamp="2008-09-30T11:41:09Z" uid="1066" user="pavel" changeset="720911" lat="49.1348356" lon="17.8127042">
    <tag k="is_in" v="Czech Republic, Europe"/>
    <tag k="name" v="Dolní Lhota"/>
    <tag k="place" v="village"/>
    <tag k="source" v="geonames.org,cs.wikipedia.org,nga.mil"/>
  </node>
  <node id="86947067" version="2" timestamp="2008-09-29T23:20:58Z" uid="1066" user="pavel" changeset="720263" lat="49.4503149" lon="14.2162709">
    <tag k="is_in" v="Czech Republic, Europe"/>
    <tag k="name" v="Jickovice"/>
    <tag k="place" v="village"/>
    <tag k="source" v="geonames.org,cs.wikipedia.org,nga.mil"/>
  </node>
  <node id="86947068" version="2" timestamp="2008-09-29T22:59:24Z" uid="1066" user="pavel" changeset="720263" lat="50.0051036" lon="14.1526361">
    <tag k="is_in" v="Czech Republic, Europe"/>
    <tag k="name" v="Chrustenice"/>
    <tag k="place" v="village"/>
    <tag k="source" v="geonames.org,cs.wikipedia.org,nga.mil"/>
  </node>
  <node id="86947069" version="2" timestamp="2008-09-30T10:31:44Z" uid="1066" user="pavel" changeset="720911" lat="49.8205302" lon="17.6916797">
    <tag k="is_in" v="Czech Republic, Europe"/>
    <tag k="name" v="Staré Těchanovice"/>
    <tag k="place" v="village"/>
    <tag k="source" v="geonames.org,cs.wikipedia.org,nga.mil"/>
  </node>
  <node id="86947071" version="3" timestamp="2008-09-29T23:27:27Z" uid="1066" user="pavel" changeset="720263" lat="50.2108551" lon="13.9823171">
    <tag k="is_in" v="Czech Republic, Europe"/>
    <tag k="name" v="Malíkovice"/>
    <tag k="place" v="village"/>
    <tag k="source" v="geonames.org,cs.wikipedia.org,nga.mil"/>
  </node>
  <node id="86947072" version="2" timestamp="2008-09-30T10:38:30Z" uid="1066" user="pavel" changeset="720911" lat="48.8866443" lon="16.1570176">
    <tag k="is_in" v="Czech Republic, Europe"/>
    <tag k="name" v="Těšetice"/>
    <tag k="place" v="village"/>
    <tag k="source" v="geonames.org,cs.wikipedia.org,nga.mil"/>
  </node>
  <node id="86947085" version="3" timestamp="2008-09-29T23:19:33Z" uid="1066" user="pavel" changeset="720263" lat="49.681187" lon="14.2165175">
    <tag k="is_in" v="Czech Republic, Europe"/>
    <tag k="name" v="Obory"/>
    <tag k="place" v="village"/>
    <tag k="source" v="geonames.org,cs.wikipedia.org,nga.mil"/>
  </node>
  <node id="86947086" version="2" timestamp="2008-09-30T11:39:23Z" uid="1066" user="pavel" changeset="720911" lat="50.7275" lon="15.449861">
    <tag k="is_in" v="Czech Republic, Europe"/>
    <tag k="name" v="Rokytnice nad Jizerou"/>
    <tag k="place" v="town"/>
    <tag k="source" v="geonames.org,cs.wikipedia.org,nga.mil"/>
  </node>
  <node id="86947087" version="2" timestamp="2008-09-30T00:22:28Z" uid="1066" user="pavel" changeset="720263" lat="49.880635" lon="13.9180929">
    <tag k="is_in" v="Czech Republic, Europe"/>
    <tag k="name" v="Chlustina"/>
    <tag k="place" v="village"/>
    <tag k="source" v="geonames.org,cs.wikipedia.org,nga.mil"/>
  </node>
  <node id="86947088" version="4" timestamp="2008-09-30T11:13:37Z" uid="1066" user="pavel" changeset="720911" lat="49.0235564" lon="13.4975371">
    <tag k="is_in" v="Czech Republic, Europe"/>
    <tag k="name" v="Modrava"/>
    <tag k="place" v="village"/>
    <tag k="source" v="geonames.org,cs.wikipedia.org,nga.mil"/>
  </node>
  <node id="86947089" version="2" timestamp="2008-09-29T23:24:25Z" uid="1066" user="pavel" changeset="720263" lat="50.1337539" lon="14.6618768">
    <tag k="is_in" v="Czech Republic, Europe"/>
    <tag k="name" v="Zeleneč"/>
    <tag k="place" v="village"/>
    <tag k="source" v="geonames.org,cs.wikipedia.org,nga.mil"/>
  </node>
  <node id="86947090" version="2" timestamp="2008-09-30T10:38:05Z" uid="1066" user="pavel" changeset="720911" lat="49.071136" lon="14.0083474">
    <tag k="is_in" v="Czech Republic, Europe"/>
    <tag k="name" v="Budkov"/>
    <tag k="place" v="village"/>
    <tag k="source" v="geonames.org,cs.wikipedia.org,nga.mil"/>
  </node>
  <node id="86947091" version="5" timestamp="2008-09-30T11:45:34Z" uid="1066" user="pavel" changeset="720911" lat="50.8550997" lon="14.2659655">
    <tag k="is_in" v="Czech Republic, Europe"/>
    <tag k="name" v="Janov"/>
    <tag k="old_name" v="Jonsdorf"/>
    <tag k="place" v="village"/>
    <tag k="source" v="geonames.org,cs.wikipedia.org,nga.mil"/>
  </node>
  <node id="86947092" version="2" timestamp="2008-09-30T11:42:52Z" uid="1066" user="pavel" changeset="720911" lat="50.8022529" lon="14.3650566">
    <tag k="is_in" v="Czech Republic, Europe"/>
    <tag k="name" v="Janská"/>
    <tag k="place" v="village"/>
    <tag k="source" v="geonames.org,cs.wikipedia.org,nga.mil"/>
  </node>
  <node id="86947093" version="2" timestamp="2008-09-30T11:39:42Z" uid="1066" user="pavel" changeset="720911" lat="50.164201" lon="16.9486705">
    <tag k="is_in" v="Czech Republic, Europe"/>
    <tag k="name" v="Staré Město"/>
    <tag k="place" v="town"/>
    <tag k="source" v="geonames.org,cs.wikipedia.org,nga.mil"/>
  </node>
  <node id="86947110" version="2" timestamp="2008-09-29T23:13:57Z" uid="1066" user="pavel" changeset="720263" lat="49.2962268" lon="14.469466">
    <tag k="is_in" v="Czech Republic, Europe"/>
    <tag k="name" v="Bechyně"/>
    <tag k="place" v="town"/>
    <tag k="source" v="geonames.org,cs.wikipedia.org,nga.mil"/>
  </node>
  <node id="86947113" version="2" timestamp="2008-09-30T10:25:23Z" uid="1066" user="pavel" changeset="720911" lat="50.0026386" lon="16.2850006">
    <tag k="is_in" v="Czech Republic, Europe"/>
    <tag k="name" v="Brandýs nad Orlicí"/>
    <tag k="place" v="town"/>
    <tag k="source" v="geonames.org,cs.wikipedia.org,nga.mil"/>
  </node>
  <node id="86947121" version="2" timestamp="2008-09-30T10:33:49Z" uid="1066" user="pavel" changeset="720911" lat="49.3544451" lon="16.2760771">
    <tag k="is_in" v="Czech Republic, Europe"/>
    <tag k="name" v="Lubné"/>
    <tag k="place" v="village"/>
    <tag k="source" v="geonames.org,cs.wikipedia.org,nga.mil"/>
  </node>
  <node id="86947127" version="3" timestamp="2008-09-30T10:39:09Z" uid="1066" user="pavel" changeset="720911" lat="48.8782652" lon="14.5442585">
    <tag k="is_in" v="Czech Republic, Europe"/>
    <tag k="name" v="Komařice"/>
    <tag k="place" v="village"/>
    <tag k="source" v="geonames.org,cs.wikipedia.org,nga.mil"/>
  </node>
  <node id="86947142" version="2" timestamp="2008-09-30T00:04:43Z" uid="1066" user="pavel" changeset="720263" lat="49.9827521" lon="14.1959983">
    <tag k="is_in" v="Czech Republic, Europe"/>
    <tag k="name" v="Lužce"/>
    <tag k="place" v="village"/>
    <tag k="source" v="geonames.org,cs.wikipedia.org,nga.mil"/>
  </node>
  <node id="86947143" version="2" timestamp="2008-09-30T10:25:38Z" uid="1066" user="pavel" changeset="720911" lat="49.991924" lon="15.8742905">
    <tag k="is_in" v="Czech Republic, Europe"/>
    <tag k="name" v="Úhřetická Lhota"/>
    <tag k="place" v="village"/>
    <tag k="source" v="geonames.org,cs.wikipedia.org,nga.mil"/>
  </node>
  <node id="86947146" version="2" timestamp="2008-09-30T11:43:49Z" uid="1066" user="pavel" changeset="720911" lat="49.2535396" lon="17.5451111">
    <tag k="is_in" v="Czech Republic, Europe"/>
    <tag k="name" v="Machová"/>
    <tag k="place" v="village"/>
    <tag k="source" v="geonames.org,cs.wikipedia.org,nga.mil"/>
  </node>
  <node id="86947147" version="2" timestamp="2008-09-30T10:31:53Z" uid="1066" user="pavel" changeset="720911" lat="49.0051097" lon="17.1738414">
    <tag k="is_in" v="Czech Republic, Europe"/>
    <tag k="name" v="Kelčany"/>
    <tag k="place" v="village"/>
    <tag k="source" v="geonames.org,cs.wikipedia.org,nga.mil"/>
  </node>
  <node id="86947151" version="2" timestamp="2008-09-30T10:33:26Z" uid="1066" user="pavel" changeset="720911" lat="49.1420603" lon="17.21426">
    <tag k="is_in" v="Czech Republic, Europe"/>
    <tag k="name" v="Střílky"/>
    <tag k="place" v="village"/>
    <tag k="source" v="geonames.org,cs.wikipedia.org,nga.mil"/>
  </node>
  <node id="86947153" version="2" timestamp="2008-09-30T11:39:57Z" uid="1066" user="pavel" changeset="720911" lat="50.4186822" lon="13.1694325">
    <tag k="is_in" v="Czech Republic, Europe"/>
    <tag k="name" v="Domašín"/>
    <tag k="place" v="village"/>
    <tag k="source" v="geonames.org,cs.wikipedia.org,nga.mil"/>
  </node>
  <node id="86947156" version="2" timestamp="2008-09-29T23:34:03Z" uid="1066" user="pavel" changeset="720263" lat="49.4505556" lon="13.8811109">
    <tag k="is_in" v="Czech Republic, Europe"/>
    <tag k="name" v="Bezdědovice"/>
    <tag k="place" v="village"/>
    <tag k="source" v="geonames.org,cs.wikipedia.org,nga.mil"/>
  </node>
  <node id="86947160" version="3" timestamp="2008-09-30T11:43:32Z" uid="1066" user="pavel" changeset="720911" lat="49.5388034" lon="13.022739">
    <tag k="is_in" v="Czech Republic, Europe"/>
    <tag k="name" v="Křenovy"/>
    <tag k="place" v="village"/>
    <tag k="source" v="geonames.org,cs.wikipedia.org,nga.mil"/>
  </node>
  <node id="86947162" version="2" timestamp="2008-09-30T11:47:43Z" uid="1066" user="pavel" changeset="720911" lat="50.4622751" lon="16.1892374">
    <tag k="is_in" v="Czech Republic, Europe"/>
    <tag k="name" v="Velké Poříčí"/>
    <tag k="place" v="town"/>
    <tag k="source" v="geonames.org,cs.wikipedia.org,nga.mil"/>
  </node>
  <node id="86947166" version="2" timestamp="2008-09-29T23:32:56Z" uid="1066" user="pavel" changeset="720263" lat="49.3021915" lon="14.7176176">
    <tag k="is_in" v="Czech Republic, Europe"/>
    <tag k="name" v="Roudná"/>
    <tag k="place" v="village"/>
    <tag k="source" v="geonames.org,cs.wikipedia.org,nga.mil"/>
  </node>
  <node id="86947171" version="2" timestamp="2008-09-30T00:21:44Z" uid="1066" user="pavel" changeset="720263" lat="50.3093959" lon="14.500881">
    <tag k="is_in" v="Czech Republic, Europe"/>
    <tag k="name" v="Kly"/>
    <tag k="place" v="village"/>
    <tag k="source" v="geonames.org,cs.wikipedia.org,nga.mil"/>
  </node>
  <node id="86947173" version="2" timestamp="2008-09-30T10:18:47Z" uid="1066" user="pavel" changeset="720911" lat="50.1690172" lon="16.3496336">
    <tag k="is_in" v="Czech Republic, Europe"/>
    <tag k="name" v="Javornice"/>
    <tag k="place" v="village"/>
    <tag k="source" v="geonames.org,cs.wikipedia.org,nga.mil"/>
  </node>
  <node id="86947176" version="2" timestamp="2008-09-30T10:39:14Z" uid="1066" user="pavel" changeset="720911" lat="50.1465175" lon="12.8534215">
    <tag k="is_in" v="Czech Republic, Europe"/>
    <tag k="name" v="Teplička"/>
    <tag k="place" v="village"/>
    <tag k="source" v="geonames.org,cs.wikipedia.org,nga.mil"/>
  </node>
  <node id="86947178" version="3" timestamp="2008-09-30T00:07:51Z" uid="1066" user="pavel" changeset="720263" lat="49.9475204" lon="14.5647008">
    <tag k="is_in" v="Czech Republic, Europe"/>
    <tag k="name" v="Radějovice"/>
    <tag k="place" v="village"/>
    <tag k="source" v="geonames.org,cs.wikipedia.org,nga.mil"/>
  </node>
  <node id="86947179" version="2" timestamp="2008-09-30T10:25:11Z" uid="1066" user="pavel" changeset="720911" lat="49.3640216" lon="16.767298">
    <tag k="is_in" v="Czech Republic, Europe"/>
    <tag k="name" v="Krasová"/>
    <tag k="place" v="village"/>
    <tag k="source" v="geonames.org,cs.wikipedia.org,nga.mil"/>
  </node>
  <node id="86947181" version="2" timestamp="2008-09-29T22:40:54Z" uid="1066" user="pavel" changeset="720263" lat="49.8206519" lon="13.8602318">
    <tag k="is_in" v="Czech Republic, Europe"/>
    <tag k="name" v="Osek"/>
    <tag k="place" v="village"/>
    <tag k="source" v="geonames.org,cs.wikipedia.org,nga.mil"/>
  </node>
  <node id="86947182" version="2" timestamp="2008-09-30T10:12:18Z" uid="1066" user="pavel" changeset="720911" lat="49.9159724" lon="16.0180557">
    <tag k="is_in" v="Czech Republic, Europe"/>
    <tag k="name" v="Lozice"/>
    <tag k="place" v="village"/>
    <tag k="source" v="geonames.org,cs.wikipedia.org,nga.mil"/>
  </node>
  <node id="86947183" version="2" timestamp="2008-09-30T10:24:08Z" uid="1066" user="pavel" changeset="720911" lat="49.6636501" lon="15.6015178">
    <tag k="is_in" v="Czech Republic, Europe"/>
    <tag k="name" v="Dolní Krupá"/>
    <tag k="place" v="village"/>
    <tag k="source" v="geonames.org,cs.wikipedia.org,nga.mil"/>
  </node>
  <node id="86947184" version="2" timestamp="2008-09-30T10:51:55Z" uid="1066" user="pavel" changeset="720911" lat="50.3285845" lon="13.5451088">
    <tag k="is_in" v="Czech Republic, Europe"/>
    <tag k="name" v="Žatec"/>
    <tag k="place" v="town"/>
    <tag k="source" v="geonames.org,cs.wikipedia.org,nga.mil"/>
  </node>
  <node id="86947185" version="3" timestamp="2008-09-30T10:08:17Z" uid="1066" user="pavel" changeset="720911" lat="49.4441201" lon="15.7708447">
    <tag k="is_in" v="Czech Republic, Europe"/>
    <tag k="name" v="Zhoř"/>
    <tag k="place" v="village"/>
    <tag k="source" v="geonames.org,cs.wikipedia.org,nga.mil"/>
  </node>
  <node id="86947214" version="2" timestamp="2008-09-30T10:29:26Z" uid="1066" user="pavel" changeset="720911" lat="49.4099591" lon="17.5479768">
    <tag k="is_in" v="Czech Republic, Europe"/>
    <tag k="name" v="Líšná"/>
    <tag k="place" v="village"/>
    <tag k="source" v="geonames.org,cs.wikipedia.org,nga.mil"/>
  </node>
  <node id="86947217" version="2" timestamp="2008-09-30T11:44:49Z" uid="1066" user="pavel" changeset="720911" lat="49.1813895" lon="17.9583738">
    <tag k="is_in" v="Czech Republic, Europe"/>
    <tag k="name" v="Drnovice"/>
    <tag k="place" v="village"/>
    <tag k="source" v="geonames.org,cs.wikipedia.org,nga.mil"/>
  </node>
  <node id="86947220" version="2" timestamp="2008-09-30T10:20:35Z" uid="1066" user="pavel" changeset="720911" lat="49.0612192" lon="17.2498409">
    <tag k="is_in" v="Czech Republic, Europe"/>
    <tag k="name" v="Osvětimany"/>
    <tag k="place" v="town"/>
    <tag k="source" v="geonames.org,cs.wikipedia.org,nga.mil"/>
  </node>
  <node id="86947223" version="2" timestamp="2008-09-30T10:13:45Z" uid="1066" user="pavel" changeset="720911" lat="49.4437924" lon="17.96432">
    <tag k="is_in" v="Czech Republic, Europe"/>
    <tag k="name" v="Jarcová"/>
    <tag k="place" v="village"/>
    <tag k="source" v="geonames.org,cs.wikipedia.org,nga.mil"/>
  </node>
  <node id="86947269" version="2" timestamp="2008-09-30T09:59:50Z" uid="1066" user="pavel" changeset="720911" lat="49.6511111" lon="16.5154168">
    <tag k="is_in" v="Czech Republic, Europe"/>
    <tag k="name" v="Březová nad Svitavou"/>
    <tag k="place" v="town"/>
    <tag k="source" v="geonames.org,cs.wikipedia.org,nga.mil"/>
  </node>
  <node id="86947273" version="3" timestamp="2008-09-29T22:42:26Z" uid="1066" user="pavel" changeset="720263" lat="50.4045663" lon="15.2753529">
    <tag k="is_in" v="Czech Republic, Europe"/>
    <tag k="name" v="Střevač"/>
    <tag k="place" v="village"/>
    <tag k="source" v="geonames.org,cs.wikipedia.org,nga.mil"/>
  </node>
  <node id="86947277" version="2" timestamp="2008-09-30T10:27:19Z" uid="1066" user="pavel" changeset="720911" lat="49.3005509" lon="17.3420527">
    <tag k="is_in" v="Czech Republic, Europe"/>
    <tag k="name" v="Lutopecny"/>
    <tag k="place" v="village"/>
    <tag k="source" v="geonames.org,cs.wikipedia.org,nga.mil"/>
  </node>
  <node id="86947293" version="2" timestamp="2008-09-30T10:43:43Z" uid="1066" user="pavel" changeset="720911" lat="49.1113749" lon="14.0598833">
    <tag k="is_in" v="Czech Republic, Europe"/>
    <tag k="name" v="Hájek"/>
    <tag k="place" v="village"/>
    <tag k="source" v="geonames.org,cs.wikipedia.org,nga.mil"/>
  </node>
  <node id="86947327" version="3" timestamp="2008-09-29T23:22:16Z" uid="1066" user="pavel" changeset="720263" lat="50.2273898" lon="13.793287">
    <tag k="is_in" v="Czech Republic, Europe"/>
    <tag k="name" v="Pochvalov"/>
    <tag k="place" v="village"/>
    <tag k="source" v="geonames.org,cs.wikipedia.org,nga.mil"/>
  </node>
  <node id="86947329" version="2" timestamp="2008-09-30T11:44:09Z" uid="1066" user="pavel" changeset="720911" lat="49.9122346" lon="18.1558379">
    <tag k="is_in" v="Czech Republic, Europe"/>
    <tag k="name" v="Kozmice"/>
    <tag k="place" v="village"/>
    <tag k="source" v="geonames.org,cs.wikipedia.org,nga.mil"/>
  </node>
  <node id="86947332" version="2" timestamp="2008-09-29T23:44:02Z" uid="1066" user="pavel" changeset="720263" lat="49.3859496" lon="14.2926059">
    <tag k="is_in" v="Czech Republic, Europe"/>
    <tag k="name" v="Jetětice"/>
    <tag k="place" v="village"/>
    <tag k="source" v="geonames.org,cs.wikipedia.org,nga.mil"/>
  </node>
  <node id="86947360" version="2" timestamp="2008-09-30T10:32:43Z" uid="1066" user="pavel" changeset="720911" lat="49.8717509" lon="17.4185063">
    <tag k="is_in" v="Czech Republic, Europe"/>
    <tag k="name" v="Lomnice"/>
    <tag k="place" v="village"/>
    <tag k="source" v="geonames.org,cs.wikipedia.org,nga.mil"/>
  </node>
  <node id="86947377" version="2" timestamp="2008-09-30T10:31:59Z" uid="1066" user="pavel" changeset="720911" lat="49.4248005" lon="16.2557992">
    <tag k="is_in" v="Czech Republic, Europe"/>
    <tag k="name" v="Moravecké Pavlovice"/>
    <tag k="place" v="village"/>
    <tag k="source" v="geonames.org,cs.wikipedia.org,nga.mil"/>
  </node>
  <node id="86947378" version="2" timestamp="2008-09-30T10:39:31Z" uid="1066" user="pavel" changeset="720911" lat="49.1552501" lon="13.8975637">
    <tag k="is_in" v="Czech Republic, Europe"/>
    <tag k="name" v="Nišovice"/>
    <tag k="place" v="village"/>
    <tag k="source" v="geonames.org,cs.wikipedia.org,nga.mil"/>
  </node>
  <node id="86947379" version="2" timestamp="2008-09-30T10:25:32Z" uid="1066" user="pavel" changeset="720911" lat="49.9224939" lon="15.649796">
    <tag k="is_in" v="Czech Republic, Europe"/>
    <tag k="name" v="Kostelec u Heřmanova Městce"/>
    <tag k="place" v="village"/>
    <tag k="source" v="geonames.org,cs.wikipedia.org,nga.mil"/>
  </node>
  <node id="86947380" version="2" timestamp="2008-09-30T00:04:21Z" uid="1066" user="pavel" changeset="720263" lat="49.5363987" lon="14.8770924">
    <tag k="is_in" v="Czech Republic, Europe"/>
    <tag k="name" v="Smilovy Hory"/>
    <tag k="place" v="village"/>
    <tag k="source" v="geonames.org,cs.wikipedia.org,nga.mil"/>
  </node>
  <node id="86947381" version="2" timestamp="2008-09-29T22:50:29Z" uid="1066" user="pavel" changeset="720263" lat="49.5156961" lon="15.4511304">
    <tag k="is_in" v="Czech Republic, Europe"/>
    <tag k="name" v="Slavníč"/>
    <tag k="place" v="village"/>
    <tag k="source" v="geonames.org,cs.wikipedia.org,nga.mil"/>
  </node>
  <node id="86947382" version="2" timestamp="2008-09-30T11:39:57Z" uid="1066" user="pavel" changeset="720911" lat="50.818748" lon="14.2654203">
    <tag k="is_in" v="Czech Republic, Europe"/>
    <tag k="name" v="Bynovec"/>
    <tag k="place" v="village"/>
    <tag k="source" v="geonames.org,cs.wikipedia.org,nga.mil"/>
  </node>
  <node id="86947386" version="3" timestamp="2008-09-29T23:25:52Z" uid="1066" user="pavel" changeset="720263" lat="49.7366089" lon="14.2298391">
    <tag k="is_in" v="Czech Republic, Europe"/>
    <tag k="name" v="Drhovy"/>
    <tag k="place" v="village"/>
    <tag k="source" v="geonames.org,cs.wikipedia.org,nga.mil"/>
  </node>
  <node id="86947391" version="2" timestamp="2008-09-30T11:12:34Z" uid="1066" user="pavel" changeset="720911" lat="49.2177155" lon="13.8631323">
    <tag k="is_in" v="Czech Republic, Europe"/>
    <tag k="name" v="Libětice"/>
    <tag k="place" v="village"/>
    <tag k="source" v="geonames.org,cs.wikipedia.org,nga.mil"/>
  </node>
  <node id="86947394" version="2" timestamp="2008-09-29T22:51:27Z" uid="1066" user="pavel" changeset="720263" lat="49.7149117" lon="15.5205224">
    <tag k="is_in" v="Czech Republic, Europe"/>
    <tag k="name" v="Kámen"/>
    <tag k="place" v="village"/>
    <tag k="source" v="geonames.org,cs.wikipedia.org,nga.mil"/>
  </node>
  <node id="86947398" version="2" timestamp="2008-09-30T09:58:05Z" uid="1066" user="pavel" changeset="720911" lat="49.4432719" lon="17.5032411">
    <tag k="is_in" v="Czech Republic, Europe"/>
    <tag k="name" v="Želatovice"/>
    <tag k="place" v="village"/>
    <tag k="source" v="geonames.org,cs.wikipedia.org,nga.mil"/>
  </node>
  <node id="86947433" version="2" timestamp="2008-09-30T10:40:05Z" uid="1066" user="pavel" changeset="720911" lat="50.2361109" lon="12.9822221">
    <tag k="is_in" v="Czech Republic, Europe"/>
    <tag k="name" v="Šemnice"/>
    <tag k="place" v="village"/>
    <tag k="source" v="geonames.org,cs.wikipedia.org,nga.mil"/>
  </node>
  <node id="86947436" version="2" timestamp="2008-09-29T23:53:09Z" uid="1066" user="pavel" changeset="720263" lat="49.4389044" lon="14.1425917">
    <tag k="is_in" v="Czech Republic, Europe"/>
    <tag k="name" v="Varvažov"/>
    <tag k="place" v="village"/>
    <tag k="source" v="geonames.org,cs.wikipedia.org,nga.mil"/>
  </node>
  <node id="86947440" version="3" timestamp="2008-09-30T10:28:08Z" uid="1066" user="pavel" changeset="720911" lat="49.4776046" lon="16.2383831">
    <tag k="is_in" v="Czech Republic, Europe"/>
    <tag k="name" v="Rožná"/>
    <tag k="place" v="village"/>
    <tag k="source" v="geonames.org,cs.wikipedia.org,nga.mil"/>
  </node>
  <node id="86947465" version="2" timestamp="2008-09-30T10:32:41Z" uid="1066" user="pavel" changeset="720911" lat="49.1683" lon="16.4508645">
    <tag k="is_in" v="Czech Republic, Europe"/>
    <tag k="name" v="Omice"/>
    <tag k="place" v="village"/>
    <tag k="source" v="geonames.org,cs.wikipedia.org,nga.mil"/>
  </node>
  <node id="86947519" version="3" timestamp="2008-09-30T10:38:43Z" uid="1066" user="pavel" changeset="720911" lat="49.1882203" lon="14.139687">
    <tag k="is_in" v="Czech Republic, Europe"/>
    <tag k="name" v="Pohorovice"/>
    <tag k="place" v="village"/>
    <tag k="source" v="geonames.org,cs.wikipedia.org,nga.mil"/>
  </node>
  <node id="86947526" version="2" timestamp="2008-09-29T22:55:15Z" uid="1066" user="pavel" changeset="720263" lat="49.9214174" lon="14.0669033">
    <tag k="is_in" v="Czech Republic, Europe"/>
    <tag k="name" v="Koněprusy"/>
    <tag k="place" v="village"/>
    <tag k="source" v="geonames.org,cs.wikipedia.org,nga.mil"/>
  </node>
  <node id="86947530" version="2" timestamp="2008-09-30T10:38:09Z" uid="1066" user="pavel" changeset="720911" lat="49.1327223" lon="13.9747868">
    <tag k="is_in" v="Czech Republic, Europe"/>
    <tag k="name" v="Bohunice"/>
    <tag k="place" v="village"/>
    <tag k="source" v="geonames.org,cs.wikipedia.org,nga.mil"/>
  </node>
  <node id="86947535" version="2" timestamp="2008-09-30T11:33:32Z" uid="1066" user="pavel" changeset="720911" lat="50.4478653" lon="13.3583697">
    <tag k="is_in" v="Czech Republic, Europe"/>
    <tag k="name" v="Černovice"/>
    <tag k="place" v="village"/>
    <tag k="source" v="geonames.org,cs.wikipedia.org,nga.mil"/>
  </node>
  <node id="86947537" version="2" timestamp="2008-09-30T10:24:49Z" uid="1066" user="pavel" changeset="720911" lat="49.1828261" lon="16.3856018">
    <tag k="is_in" v="Czech Republic, Europe"/>
    <tag k="name" v="Rosice"/>
    <tag k="place" v="town"/>
    <tag k="source" v="geonames.org,cs.wikipedia.org,nga.mil"/>
  </node>
  <node id="86947543" version="2" timestamp="2008-09-30T11:35:51Z" uid="1066" user="pavel" changeset="720911" lat="49.6984722" lon="18.4333332">
    <tag k="is_in" v="Czech Republic, Europe"/>
    <tag k="name" v="Pazderna"/>
    <tag k="place" v="village"/>
    <tag k="source" v="geonames.org,cs.wikipedia.org,nga.mil"/>
  </node>
  <node id="86947547" version="3" timestamp="2008-09-29T23:04:03Z" uid="1066" user="pavel" changeset="720263" lat="49.8722477" lon="14.9723244">
    <tag k="is_in" v="Czech Republic, Europe"/>
    <tag k="name" v="Úžice"/>
    <tag k="place" v="village"/>
    <tag k="source" v="geonames.org,cs.wikipedia.org,nga.mil"/>
  </node>
  <node id="86947550" version="3" timestamp="2008-09-30T10:24:21Z" uid="1066" user="pavel" changeset="720911" lat="49.1891701" lon="15.0655473">
    <tag k="is_in" v="Czech Republic, Europe"/>
    <tag k="name" v="Jarošov nad Nežárkou"/>
    <tag k="place" v="village"/>
    <tag k="source" v="geonames.org,cs.wikipedia.org,nga.mil"/>
  </node>
  <node id="86947555" version="2" timestamp="2008-09-30T00:04:15Z" uid="1066" user="pavel" changeset="720263" lat="50.2902671" lon="14.3423997">
    <tag k="is_in" v="Czech Republic, Europe"/>
    <tag k="name" v="Všestudy"/>
    <tag k="place" v="village"/>
    <tag k="source" v="geonames.org,cs.wikipedia.org,nga.mil"/>
  </node>
  <node id="86947560" version="3" timestamp="2008-09-29T23:04:10Z" uid="1066" user="pavel" changeset="720263" lat="49.9103881" lon="14.7394011">
    <tag k="is_in" v="Czech Republic, Europe"/>
    <tag k="name" v="Hrusice"/>
    <tag k="place" v="village"/>
    <tag k="source" v="geonames.org,cs.wikipedia.org,nga.mil"/>
  </node>
  <node id="86947564" version="2" timestamp="2008-09-30T11:45:32Z" uid="1066" user="pavel" changeset="720911" lat="49.5366088" lon="13.1600707">
    <tag k="is_in" v="Czech Republic, Europe"/>
    <tag k="name" v="Buková"/>
    <tag k="place" v="village"/>
    <tag k="source" v="geonames.org,cs.wikipedia.org,nga.mil"/>
  </node>
  <node id="86947567" version="3" timestamp="2008-09-30T10:23:36Z" uid="1066" user="pavel" changeset="720911" lat="49.4684639" lon="16.0855377">
    <tag k="is_in" v="Czech Republic, Europe"/>
    <tag k="name" v="Radešín"/>
    <tag k="place" v="village"/>
    <tag k="source" v="geonames.org,cs.wikipedia.org,nga.mil"/>
  </node>
  <node id="86947570" version="2" timestamp="2008-09-30T10:14:48Z" uid="1066" user="pavel" changeset="720911" lat="49.0014903" lon="16.1189839">
    <tag k="is_in" v="Czech Republic, Europe"/>
    <tag k="name" v="Medlice"/>
    <tag k="place" v="village"/>
    <tag k="source" v="geonames.org,cs.wikipedia.org,nga.mil"/>
  </node>
  <node id="86947593" version="2" timestamp="2008-09-30T10:27:47Z" uid="1066" user="pavel" changeset="720911" lat="49.2223041" lon="16.2933236">
    <tag k="is_in" v="Czech Republic, Europe"/>
    <tag k="name" v="Zbraslav"/>
    <tag k="place" v="village"/>
    <tag k="source" v="geonames.org,cs.wikipedia.org,nga.mil"/>
  </node>
  <node id="86947637" version="2" timestamp="2008-09-30T11:47:45Z" uid="1066" user="pavel" changeset="720911" lat="49.5265659" lon="18.6375332">
    <tag k="is_in" v="Czech Republic, Europe"/>
    <tag k="name" v="Horní Lomná"/>
    <tag k="place" v="village"/>
    <tag k="source" v="geonames.org,cs.wikipedia.org,nga.mil"/>
  </node>
  <node id="86947665" version="2" timestamp="2008-09-30T10:14:13Z" uid="1066" user="pavel" changeset="720911" lat="49.7909174" lon="18.0161878">
    <tag k="is_in" v="Czech Republic, Europe"/>
    <tag k="name" v="Tísek"/>
    <tag k="place" v="village"/>
    <tag k="source" v="geonames.org,cs.wikipedia.org,nga.mil"/>
  </node>
  <node id="86947697" version="2" timestamp="2008-09-30T10:09:05Z" uid="1066" user="pavel" changeset="720911" lat="50.2344582" lon="16.1042365">
    <tag k="is_in" v="Czech Republic, Europe"/>
    <tag k="name" v="Přepychy"/>
    <tag k="place" v="village"/>
    <tag k="source" v="geonames.org,cs.wikipedia.org,nga.mil"/>
  </node>
  <node id="86947702" version="2" timestamp="2008-09-30T10:41:16Z" uid="1066" user="pavel" changeset="720911" lat="50.7324629" lon="14.0350175">
    <tag k="is_in" v="Czech Republic, Europe"/>
    <tag k="name" v="Velké Chvojno"/>
    <tag k="place" v="village"/>
    <tag k="source" v="geonames.org,cs.wikipedia.org,nga.mil"/>
  </node>
  <node id="86947706" version="2" timestamp="2008-09-29T23:16:12Z" uid="1066" user="pavel" changeset="720263" lat="49.4504461" lon="14.363336">
    <tag k="is_in" v="Czech Republic, Europe"/>
    <tag k="name" v="Milevsko"/>
    <tag k="place" v="town"/>
    <tag k="source" v="geonames.org,cs.wikipedia.org,nga.mil"/>
  </node>
  <node id="86947709" version="3" timestamp="2008-09-29T23:38:18Z" uid="1066" user="pavel" changeset="720263" lat="50.3176557" lon="15.1356206">
    <tag k="is_in" v="Czech Republic, Europe"/>
    <tag k="name" v="Košík"/>
    <tag k="place" v="village"/>
    <tag k="source" v="geonames.org,cs.wikipedia.org,nga.mil"/>
  </node>
  <node id="86947712" version="2" timestamp="2008-09-30T10:28:05Z" uid="1066" user="pavel" changeset="720911" lat="49.213031" lon="15.1216892">
    <tag k="is_in" v="Czech Republic, Europe"/>
    <tag k="name" v="Kamenný Malíkov"/>
    <tag k="place" v="village"/>
    <tag k="source" v="geonames.org,cs.wikipedia.org,nga.mil"/>
  </node>
  <node id="86947713" version="3" timestamp="2008-09-30T00:22:14Z" uid="1066" user="pavel" changeset="720263" lat="49.6084017" lon="15.1284051">
    <tag k="is_in" v="Czech Republic, Europe"/>
    <tag k="name" v="Studený"/>
    <tag k="place" v="village"/>
    <tag k="source" v="geonames.org,cs.wikipedia.org,nga.mil"/>
  </node>
  <node id="86947741" version="2" timestamp="2008-09-30T09:55:13Z" uid="1066" user="pavel" changeset="720911" lat="49.6917575" lon="16.7640777">
    <tag k="is_in" v="Czech Republic, Europe"/>
    <tag k="name" v="Bezděčí u Trnávky"/>
    <tag k="place" v="village"/>
    <tag k="source" v="geonames.org,cs.wikipedia.org,nga.mil"/>
  </node>
  <node id="86947742" version="2" timestamp="2008-09-30T10:38:45Z" uid="1066" user="pavel" changeset="720911" lat="49.1849998" lon="13.9349998">
    <tag k="is_in" v="Czech Republic, Europe"/>
    <tag k="name" v="Milejovice"/>
    <tag k="place" v="village"/>
    <tag k="source" v="geonames.org,cs.wikipedia.org,nga.mil"/>
  </node>
  <node id="86947744" version="2" timestamp="2008-09-30T11:13:48Z" uid="1066" user="pavel" changeset="720911" lat="48.7823196" lon="14.3508747">
    <tag k="is_in" v="Czech Republic, Europe"/>
    <tag k="name" v="Přídolí"/>
    <tag k="place" v="village"/>
    <tag k="source" v="geonames.org,cs.wikipedia.org,nga.mil"/>
  </node>
  <node id="86947746" version="2" timestamp="2008-09-29T23:54:29Z" uid="1066" user="pavel" changeset="720263" lat="49.3829089" lon="15.1676118">
    <tag k="is_in" v="Czech Republic, Europe"/>
    <tag k="name" v="Ústrašín"/>
    <tag k="place" v="village"/>
    <tag k="source" v="geonames.org,cs.wikipedia.org,nga.mil"/>
  </node>
  <node id="86947747" version="2" timestamp="2008-09-30T10:52:02Z" uid="1066" user="pavel" changeset="720911" lat="50.0172222" lon="13.2845833">
    <tag k="is_in" v="Czech Republic, Europe"/>
    <tag k="name" v="Kotaneč"/>
    <tag k="place" v="village"/>
    <tag k="source" v="geonames.org,cs.wikipedia.org,nga.mil"/>
  </node>
  <node id="86947749" version="2" timestamp="2008-09-30T10:17:18Z" uid="1066" user="pavel" changeset="720911" lat="49.7189772" lon="17.1642421">
    <tag k="is_in" v="Czech Republic, Europe"/>
    <tag k="name" v="Pňovice"/>
    <tag k="place" v="village"/>
    <tag k="source" v="geonames.org,cs.wikipedia.org,nga.mil"/>
  </node>
  <node id="86947751" version="3" timestamp="2008-09-30T00:14:32Z" uid="1066" user="pavel" changeset="720263" lat="50.3078523" lon="13.9971187">
    <tag k="is_in" v="Czech Republic, Europe"/>
    <tag k="name" v="Vrbičany"/>
    <tag k="place" v="village"/>
    <tag k="source" v="geonames.org,cs.wikipedia.org,nga.mil"/>
  </node>
  <node id="86947753" version="2" timestamp="2008-09-30T10:13:15Z" uid="1066" user="pavel" changeset="720911" lat="48.918017" lon="16.1994411">
    <tag k="is_in" v="Czech Republic, Europe"/>
    <tag k="name" v="Vítonice"/>
    <tag k="place" v="village"/>
    <tag k="source" v="geonames.org,cs.wikipedia.org,nga.mil"/>
  </node>
  <node id="86947754" version="2" timestamp="2008-09-30T10:24:52Z" uid="1066" user="pavel" changeset="720911" lat="49.116253" lon="16.4268317">
    <tag k="is_in" v="Czech Republic, Europe"/>
    <tag k="name" v="Hlína"/>
    <tag k="place" v="village"/>
    <tag k="source" v="geonames.org,cs.wikipedia.org,nga.mil"/>
  </node>
  <node id="86947781" version="2" timestamp="2008-09-30T11:48:37Z" uid="1066" user="pavel" changeset="720911" lat="49.5192978" lon="12.7375622">
    <tag k="is_in" v="Czech Republic, Europe"/>
    <tag k="name" v="Hora Svatého Václava"/>
    <tag k="place" v="village"/>
    <tag k="source" v="geonames.org,cs.wikipedia.org,nga.mil"/>
  </node>
  <node id="86947785" version="2" timestamp="2008-09-30T00:16:03Z" uid="1066" user="pavel" changeset="720263" lat="49.4231715" lon="15.0151523">
    <tag k="is_in" v="Czech Republic, Europe"/>
    <tag k="name" v="Kámen"/>
    <tag k="place" v="village"/>
    <tag k="source" v="geonames.org,cs.wikipedia.org,nga.mil"/>
  </node>
  <node id="86947787" version="2" timestamp="2008-09-30T10:14:40Z" uid="1066" user="pavel" changeset="720911" lat="49.4095443" lon="17.6278346">
    <tag k="is_in" v="Czech Republic, Europe"/>
    <tag k="name" v="Křtomil"/>
    <tag k="place" v="village"/>
    <tag k="source" v="geonames.org,cs.wikipedia.org,nga.mil"/>
  </node>
  <node id="86947790" version="2" timestamp="2008-09-29T23:34:27Z" uid="1066" user="pavel" changeset="720263" lat="49.6232453" lon="13.9679387">
    <tag k="is_in" v="Czech Republic, Europe"/>
    <tag k="name" v="Třebsko"/>
    <tag k="place" v="village"/>
    <tag k="source" v="geonames.org,cs.wikipedia.org,nga.mil"/>
  </node>
  <node id="86947794" version="2" timestamp="2008-09-29T23:36:37Z" uid="1066" user="pavel" changeset="720263" lat="49.7656946" lon="13.6504167">
    <tag k="is_in" v="Czech Republic, Europe"/>
    <tag k="name" v="Svojkovice"/>
    <tag k="place" v="village"/>
    <tag k="source" v="geonames.org,cs.wikipedia.org,nga.mil"/>
  </node>
  <node id="86947817" version="2" timestamp="2008-09-30T10:18:46Z" uid="1066" user="pavel" changeset="720911" lat="49.870345" lon="16.5570694">
    <tag k="is_in" v="Czech Republic, Europe"/>
    <tag k="name" v="Damníkov"/>
    <tag k="place" v="village"/>
    <tag k="source" v="geonames.org,cs.wikipedia.org,nga.mil"/>
  </node>
  <node id="86947818" version="2" timestamp="2008-09-30T10:25:56Z" uid="1066" user="pavel" changeset="720911" lat="49.5467856" lon="16.2624319">
    <tag k="is_in" v="Czech Republic, Europe"/>
    <tag k="name" v="Ždánice"/>
    <tag k="place" v="village"/>
    <tag k="source" v="geonames.org,cs.wikipedia.org,nga.mil"/>
  </node>
  <node id="86947819" version="2" timestamp="2008-09-30T10:31:19Z" uid="1066" user="pavel" changeset="720911" lat="49.1170653" lon="16.8017535">
    <tag k="is_in" v="Czech Republic, Europe"/>
    <tag k="name" v="Šaratice"/>
    <tag k="place" v="village"/>
    <tag k="source" v="geonames.org,cs.wikipedia.org,nga.mil"/>
  </node>
  <node id="86947820" version="2" timestamp="2008-09-30T10:48:49Z" uid="1066" user="pavel" changeset="720911" lat="49.7242095" lon="13.2353102">
    <tag k="is_in" v="Czech Republic, Europe"/>
    <tag k="name" v="Tlučná"/>
    <tag k="place" v="village"/>
    <tag k="source" v="geonames.org,cs.wikipedia.org,nga.mil"/>
  </node>
  <node id="86947821" version="2" timestamp="2008-09-30T10:30:43Z" uid="1066" user="pavel" changeset="720911" lat="49.0914339" lon="16.6304989">
    <tag k="is_in" v="Czech Republic, Europe"/>
    <tag k="name" v="Rajhradice"/>
    <tag k="place" v="village"/>
    <tag k="source" v="geonames.org,cs.wikipedia.org,nga.mil"/>
  </node>
  <node id="86947857" version="2" timestamp="2008-09-30T11:42:02Z" uid="1066" user="pavel" changeset="720911" lat="49.8515221" lon="18.0675224">
    <tag k="is_in" v="Czech Republic, Europe"/>
    <tag k="name" v="Horní Lhota"/>
    <tag k="place" v="village"/>
    <tag k="source" v="geonames.org,cs.wikipedia.org,nga.mil"/>
  </node>
  <node id="86947859" version="2" timestamp="2008-09-30T10:33:38Z" uid="1066" user="pavel" changeset="720911" lat="48.9626178" lon="16.5730566">
    <tag k="is_in" v="Czech Republic, Europe"/>
    <tag k="name" v="Přibice"/>
    <tag k="place" v="village"/>
    <tag k="source" v="geonames.org,cs.wikipedia.org,nga.mil"/>
  </node>
  <node id="86947862" version="2" timestamp="2008-09-30T11:45:13Z" uid="1066" user="pavel" changeset="720911" lat="49.8684724" lon="18.1681946">
    <tag k="is_in" v="Czech Republic, Europe"/>
    <tag k="name" v="Děhylov"/>
    <tag k="place" v="village"/>
    <tag k="source" v="geonames.org,cs.wikipedia.org,nga.mil"/>
  </node>
  <node id="86947863" version="2" timestamp="2008-09-30T11:42:45Z" uid="1066" user="pavel" changeset="720911" lat="49.5267417" lon="18.7538902">
    <tag k="is_in" v="Czech Republic, Europe"/>
    <tag k="name" v="Mosty u Jablunkova"/>
    <tag k="place" v="village"/>
    <tag k="source" v="geonames.org,cs.wikipedia.org,nga.mil"/>
  </node>
  <node id="86947865" version="2" timestamp="2008-09-30T11:33:49Z" uid="1066" user="pavel" changeset="720911" lat="49.2170835" lon="17.9169446">
    <tag k="is_in" v="Czech Republic, Europe"/>
    <tag k="name" v="Bratřejov"/>
    <tag k="place" v="village"/>
    <tag k="source" v="geonames.org,cs.wikipedia.org,nga.mil"/>
  </node>
  <node id="86947867" version="2" timestamp="2008-09-30T10:24:55Z" uid="1066" user="pavel" changeset="720911" lat="49.3671802" lon="17.9158268">
    <tag k="is_in" v="Czech Republic, Europe"/>
    <tag k="name" v="Ratiboř"/>
    <tag k="place" v="village"/>
    <tag k="source" v="geonames.org,cs.wikipedia.org,nga.mil"/>
  </node>
  <node id="86947871" version="2" timestamp="2008-09-30T11:41:31Z" uid="1066" user="pavel" changeset="720911" lat="50.5203067" lon="15.7144156">
    <tag k="is_in" v="Czech Republic, Europe"/>
    <tag k="name" v="Dolní Olešnice"/>
    <tag k="place" v="village"/>
    <tag k="source" v="geonames.org,cs.wikipedia.org,nga.mil"/>
  </node>
  <node id="86947875" version="2" timestamp="2008-09-29T23:11:08Z" uid="1066" user="pavel" changeset="720263" lat="50.4582771" lon="15.2350954">
    <tag k="is_in" v="Czech Republic, Europe"/>
    <tag k="name" v="Samšina"/>
    <tag k="place" v="village"/>
    <tag k="source" v="geonames.org,cs.wikipedia.org,nga.mil"/>
  </node>
  <node id="86947878" version="2" timestamp="2008-09-29T23:25:58Z" uid="1066" user="pavel" changeset="720263" lat="50.171933" lon="14.1902849">
    <tag k="is_in" v="Czech Republic, Europe"/>
    <tag k="name" v="Stehelčeves"/>
    <tag k="place" v="village"/>
    <tag k="source" v="geonames.org,cs.wikipedia.org,nga.mil"/>
  </node>
  <node id="86947883" version="2" timestamp="2008-09-29T23:50:37Z" uid="1066" user="pavel" changeset="720263" lat="50.1503505" lon="15.4074401">
    <tag k="is_in" v="Czech Republic, Europe"/>
    <tag k="name" v="Převýšov"/>
    <tag k="place" v="village"/>
    <tag k="source" v="geonames.org,cs.wikipedia.org,nga.mil"/>
  </node>
  <node id="86947884" version="2" timestamp="2008-09-30T10:32:54Z" uid="1066" user="pavel" changeset="720911" lat="50.2605719" lon="16.0659899">
    <tag k="is_in" v="Czech Republic, Europe"/>
    <tag k="name" v="Mokré"/>
    <tag k="place" v="village"/>
    <tag k="source" v="geonames.org,cs.wikipedia.org,nga.mil"/>
  </node>
  <node id="86947889" version="2" timestamp="2008-09-30T10:47:51Z" uid="1066" user="pavel" changeset="720911" lat="49.74568" lon="13.514629">
    <tag k="is_in" v="Czech Republic, Europe"/>
    <tag k="name" v="Ejpovice"/>
    <tag k="place" v="village"/>
    <tag k="source" v="geonames.org,cs.wikipedia.org,nga.mil"/>
  </node>
  <node id="86947892" version="2" timestamp="2008-09-29T23:10:38Z" uid="1066" user="pavel" changeset="720263" lat="50.267592" lon="15.4996209">
    <tag k="is_in" v="Czech Republic, Europe"/>
    <tag k="name" v="Skřivany"/>
    <tag k="place" v="village"/>
    <tag k="source" v="geonames.org,cs.wikipedia.org,nga.mil"/>
  </node>
  <node id="86947894" version="2" timestamp="2008-09-30T10:50:07Z" uid="1066" user="pavel" changeset="720911" lat="48.9992734" lon="13.9323121">
    <tag k="is_in" v="Czech Republic, Europe"/>
    <tag k="name" v="Záblatí"/>
    <tag k="place" v="village"/>
    <tag k="source" v="geonames.org,cs.wikipedia.org,nga.mil"/>
  </node>
  <node id="86947901" version="2" timestamp="2008-09-30T10:19:10Z" uid="1066" user="pavel" changeset="720911" lat="49.840796" lon="15.7064678">
    <tag k="is_in" v="Czech Republic, Europe"/>
    <tag k="name" v="Bojanov"/>
    <tag k="place" v="town"/>
    <tag k="source" v="geonames.org,cs.wikipedia.org,nga.mil"/>
  </node>
  <node id="86947906" version="2" timestamp="2008-09-30T10:47:42Z" uid="1066" user="pavel" changeset="720911" lat="49.7665509" lon="13.5656243">
    <tag k="is_in" v="Czech Republic, Europe"/>
    <tag k="name" v="Litohlavy"/>
    <tag k="place" v="village"/>
    <tag k="source" v="geonames.org,cs.wikipedia.org,nga.mil"/>
  </node>
  <node id="86947909" version="2" timestamp="2008-09-30T11:39:43Z" uid="1066" user="pavel" changeset="720911" lat="49.3534162" lon="18.2422533">
    <tag k="is_in" v="Czech Republic, Europe"/>
    <tag k="name" v="Karolinka"/>
    <tag k="place" v="town"/>
    <tag k="source" v="geonames.org,cs.wikipedia.org,nga.mil"/>
  </node>
  <node id="86947914" version="2" timestamp="2008-09-30T10:33:06Z" uid="1066" user="pavel" changeset="720911" lat="49.9127791" lon="17.372342">
    <tag k="is_in" v="Czech Republic, Europe"/>
    <tag k="name" v="Břidličná"/>
    <tag k="place" v="town"/>
    <tag k="source" v="geonames.org,cs.wikipedia.org,nga.mil"/>
  </node>
  <node id="86947914" version="4" timestamp="2009-07-26T17:34:57Z" uid="123700" user="Mala" changeset="1947360" lat="49.9127791" lon="17.372342">
    <tag k="is_in" v="Czech Republic, Europe"/>
    <tag k="is_in:continent" v="Europe"/>
    <tag k="is_in:country_code" v="cz"/>
    <tag k="name" v="Břidličná"/>
    <tag k="name:de" v="Friedland an der Mohra"/>
    <tag k="name:pl" v="Brzydliczna"/>
    <tag k="old_name" v="Frýdlant nad Moravicí"/>
    <tag k="place" v="town"/>
    <tag k="source" v="geonames.org,cs.wikipedia.org,nga.mil"/>
    <tag k="wikipedia" v="Břidličná"/>
  </node>
  <node id="86947920" version="2" timestamp="2008-09-30T10:30:58Z" uid="1066" user="pavel" changeset="720911" lat="49.5304382" lon="16.0061185">
    <tag k="is_in" v="Czech Republic, Europe"/>
    <tag k="name" v="Jámy"/>
    <tag k="place" v="village"/>
    <tag k="source" v="geonames.org,cs.wikipedia.org,nga.mil"/>
  </node>
  <node id="86947928" version="2" timestamp="2008-09-30T10:09:23Z" uid="1066" user="pavel" changeset="720911" lat="49.3830554" lon="17.5673613">
    <tag k="is_in" v="Czech Republic, Europe"/>
    <tag k="name" v="Pacetluky"/>
    <tag k="place" v="village"/>
    <tag k="source" v="geonames.org,cs.wikipedia.org,nga.mil"/>
  </node>
  <node id="86947929" version="2" timestamp="2008-09-29T23:26:21Z" uid="1066" user="pavel" changeset="720263" lat="50.3121286" lon="13.7349764">
    <tag k="is_in" v="Czech Republic, Europe"/>
    <tag k="name" v="Opočno"/>
    <tag k="place" v="village"/>
    <tag k="source" v="geonames.org,cs.wikipedia.org,nga.mil"/>
  </node>
  <node id="86947930" version="2" timestamp="2008-09-30T10:27:33Z" uid="1066" user="pavel" changeset="720911" lat="49.1217323" lon="16.9482778">
    <tag k="is_in" v="Czech Republic, Europe"/>
    <tag k="name" v="Rašovice"/>
    <tag k="place" v="village"/>
    <tag k="source" v="geonames.org,cs.wikipedia.org,nga.mil"/>
  </node>
  <node id="86947931" version="2" timestamp="2008-09-30T10:33:12Z" uid="1066" user="pavel" changeset="720911" lat="49.7099121" lon="16.2339371">
    <tag k="is_in" v="Czech Republic, Europe"/>
    <tag k="name" v="Kamenec u Poličky"/>
    <tag k="place" v="village"/>
    <tag k="source" v="geonames.org,cs.wikipedia.org,nga.mil"/>
  </node>
  <node id="86947982" version="2" timestamp="2008-09-30T10:22:50Z" uid="1066" user="pavel" changeset="720911" lat="49.5470907" lon="16.5735727">
    <tag k="is_in" v="Czech Republic, Europe"/>
    <tag k="name" v="Letovice"/>
    <tag k="place" v="town"/>
    <tag k="source" v="geonames.org,cs.wikipedia.org,nga.mil"/>
  </node>
  <node id="86947985" version="2" timestamp="2008-09-30T10:07:25Z" uid="1066" user="pavel" changeset="720911" lat="49.1435807" lon="16.8277154">
    <tag k="is_in" v="Czech Republic, Europe"/>
    <tag k="name" v="Křenovice"/>
    <tag k="place" v="village"/>
    <tag k="source" v="geonames.org,cs.wikipedia.org,nga.mil"/>
  </node>
  <node id="86947990" version="2" timestamp="2008-09-30T11:41:16Z" uid="1066" user="pavel" changeset="720911" lat="49.9670825" lon="17.6410913">
    <tag k="is_in" v="Czech Republic, Europe"/>
    <tag k="name" v="Horní Životice"/>
    <tag k="place" v="village"/>
    <tag k="source" v="geonames.org,cs.wikipedia.org,nga.mil"/>
  </node>
  <node id="86947995" version="2" timestamp="2008-09-30T10:31:42Z" uid="1066" user="pavel" changeset="720911" lat="49.2006407" lon="16.8827395">
    <tag k="is_in" v="Czech Republic, Europe"/>
    <tag k="name" v="Rousínov"/>
    <tag k="place" v="town"/>
    <tag k="source" v="geonames.org,cs.wikipedia.org,nga.mil"/>
  </node>
  <node id="86948000" version="2" timestamp="2008-09-30T11:44:47Z" uid="1066" user="pavel" changeset="720911" lat="49.52792" lon="13.1301359">
    <tag k="is_in" v="Czech Republic, Europe"/>
    <tag k="name" v="Poděvousy"/>
    <tag k="place" v="village"/>
    <tag k="source" v="geonames.org,cs.wikipedia.org,nga.mil"/>
  </node>
  <node id="86948003" version="2" timestamp="2008-09-30T10:10:06Z" uid="1066" user="pavel" changeset="720911" lat="49.0696501" lon="15.8709421">
    <tag k="is_in" v="Czech Republic, Europe"/>
    <tag k="name" v="Blatnice"/>
    <tag k="place" v="village"/>
    <tag k="source" v="geonames.org,cs.wikipedia.org,nga.mil"/>
  </node>
  <node id="86948005" version="2" timestamp="2008-09-30T11:45:28Z" uid="1066" user="pavel" changeset="720911" lat="49.143863" lon="17.7721186">
    <tag k="is_in" v="Czech Republic, Europe"/>
    <tag k="name" v="Podhradí"/>
    <tag k="place" v="village"/>
    <tag k="source" v="geonames.org,cs.wikipedia.org,nga.mil"/>
  </node>
  <node id="86948047" version="2" timestamp="2008-09-30T10:49:18Z" uid="1066" user="pavel" changeset="720911" lat="49.9524658" lon="13.5238125">
    <tag k="is_in" v="Czech Republic, Europe"/>
    <tag k="name" v="Buček"/>
    <tag k="place" v="village"/>
    <tag k="source" v="geonames.org,cs.wikipedia.org,nga.mil"/>
  </node>
  <node id="86948051" version="2" timestamp="2008-09-30T10:28:25Z" uid="1066" user="pavel" changeset="720911" lat="49.5983785" lon="16.0393308">
    <tag k="is_in" v="Czech Republic, Europe"/>
    <tag k="name" v="Vlachovice"/>
    <tag k="place" v="village"/>
    <tag k="source" v="geonames.org,cs.wikipedia.org,nga.mil"/>
  </node>
  <node id="86948055" version="2" timestamp="2008-09-30T10:24:28Z" uid="1066" user="pavel" changeset="720911" lat="49.9335409" lon="16.894476">
    <tag k="is_in" v="Czech Republic, Europe"/>
    <tag k="name" v="Chromeč"/>
    <tag k="place" v="village"/>
    <tag k="source" v="geonames.org,cs.wikipedia.org,nga.mil"/>
  </node>
  <node id="86948056" version="2" timestamp="2008-09-30T00:05:17Z" uid="1066" user="pavel" changeset="720263" lat="49.3999957" lon="13.6259625">
    <tag k="is_in" v="Czech Republic, Europe"/>
    <tag k="name" v="Olšany"/>
    <tag k="place" v="village"/>
    <tag k="source" v="geonames.org,cs.wikipedia.org,nga.mil"/>
  </node>
  <node id="86948057" version="2" timestamp="2008-09-29T22:50:17Z" uid="1066" user="pavel" changeset="720263" lat="50.1618609" lon="13.9889363">
    <tag k="is_in" v="Czech Republic, Europe"/>
    <tag k="name" v="Kačice"/>
    <tag k="place" v="village"/>
    <tag k="source" v="geonames.org,cs.wikipedia.org,nga.mil"/>
  </node>
  <node id="86948059" version="2" timestamp="2008-09-30T10:48:50Z" uid="1066" user="pavel" changeset="720911" lat="50.6680764" lon="14.6777133">
    <tag k="is_in" v="Czech Republic, Europe"/>
    <tag k="name" v="Bohatice"/>
    <tag k="place" v="village"/>
    <tag k="source" v="geonames.org,cs.wikipedia.org,nga.mil"/>
  </node>
  <node id="86948060" version="2" timestamp="2008-09-30T11:34:26Z" uid="1066" user="pavel" changeset="720911" lat="50.3006259" lon="15.6417309">
    <tag k="is_in" v="Czech Republic, Europe"/>
    <tag k="name" v="Stračov"/>
    <tag k="place" v="village"/>
    <tag k="source" v="geonames.org,cs.wikipedia.org,nga.mil"/>
  </node>
  <node id="86948062" version="2" timestamp="2008-09-30T11:35:48Z" uid="1066" user="pavel" changeset="720911" lat="50.8899307" lon="15.1904584">
    <tag k="is_in" v="Czech Republic, Europe"/>
    <tag k="name" v="Lázně Libverda"/>
    <tag k="place" v="village"/>
    <tag k="source" v="geonames.org,cs.wikipedia.org,nga.mil"/>
  </node>
  <node id="86948064" version="3" timestamp="2008-09-29T23:56:12Z" uid="1066" user="pavel" changeset="720263" lat="49.9400828" lon="14.3815187">
    <tag k="is_in" v="Czech Republic, Europe"/>
    <tag k="name" v="Vrané nad Vltavou"/>
    <tag k="place" v="village"/>
    <tag k="source" v="geonames.org,cs.wikipedia.org,nga.mil"/>
  </node>
  <node id="86948065" version="2" timestamp="2008-09-30T10:34:14Z" uid="1066" user="pavel" changeset="720911" lat="49.3746759" lon="17.2887749">
    <tag k="is_in" v="Czech Republic, Europe"/>
    <tag k="name" v="Uhřičice"/>
    <tag k="place" v="village"/>
    <tag k="source" v="geonames.org,cs.wikipedia.org,nga.mil"/>
  </node>
  <node id="86948102" version="2" timestamp="2008-09-30T00:01:37Z" uid="1066" user="pavel" changeset="720263" lat="50.1653783" lon="15.3853726">
    <tag k="is_in" v="Czech Republic, Europe"/>
    <tag k="name" v="Lovčice"/>
    <tag k="place" v="village"/>
    <tag k="source" v="geonames.org,cs.wikipedia.org,nga.mil"/>
  </node>
  <node id="86948111" version="2" timestamp="2008-09-30T10:52:05Z" uid="1066" user="pavel" changeset="720911" lat="50.1802369" lon="13.5098955">
    <tag k="is_in" v="Czech Republic, Europe"/>
    <tag k="name" v="Běsno"/>
    <tag k="place" v="village"/>
    <tag k="source" v="geonames.org,cs.wikipedia.org,nga.mil"/>
  </node>
  <node id="86948115" version="3" timestamp="2008-09-30T10:32:14Z" uid="1066" user="pavel" changeset="720911" lat="49.0845642" lon="15.853316">
    <tag k="is_in" v="Czech Republic, Europe"/>
    <tag k="name" v="Bohušice"/>
    <tag k="place" v="village"/>
    <tag k="source" v="geonames.org,cs.wikipedia.org,nga.mil"/>
    <tag k="source:position" v="UHUL:ortofoto"/>
  </node>
  <node id="86948117" version="2" timestamp="2008-09-30T10:39:08Z" uid="1066" user="pavel" changeset="720911" lat="50.7850004" lon="14.5331247">
    <tag k="is_in" v="Czech Republic, Europe"/>
    <tag k="name" v="Polevsko"/>
    <tag k="place" v="village"/>
    <tag k="source" v="geonames.org,cs.wikipedia.org,nga.mil"/>
  </node>
  <node id="86948119" version="2" timestamp="2008-09-30T00:06:52Z" uid="1066" user="pavel" changeset="720263" lat="49.5366205" lon="15.1684536">
    <tag k="is_in" v="Czech Republic, Europe"/>
    <tag k="name" v="Křelovice"/>
    <tag k="place" v="village"/>
    <tag k="source" v="geonames.org,cs.wikipedia.org,nga.mil"/>
  </node>
  <node id="86948122" version="2" timestamp="2008-09-29T23:34:09Z" uid="1066" user="pavel" changeset="720263" lat="49.3345832" lon="14.8831943">
    <tag k="is_in" v="Czech Republic, Europe"/>
    <tag k="name" v="Mlýny"/>
    <tag k="place" v="village"/>
    <tag k="source" v="geonames.org,cs.wikipedia.org,nga.mil"/>
  </node>
  <node id="86948125" version="2" timestamp="2008-09-30T11:35:49Z" uid="1066" user="pavel" changeset="720911" lat="49.9877322" lon="17.959536">
    <tag k="is_in" v="Czech Republic, Europe"/>
    <tag k="name" v="Oldřišov"/>
    <tag k="place" v="village"/>
    <tag k="source" v="geonames.org,cs.wikipedia.org,nga.mil"/>
  </node>
  <node id="86948126" version="2" timestamp="2008-09-29T23:21:20Z" uid="1066" user="pavel" changeset="720263" lat="49.8861692" lon="13.883607">
    <tag k="is_in" v="Czech Republic, Europe"/>
    <tag k="name" v="Točník"/>
    <tag k="place" v="village"/>
    <tag k="source" v="geonames.org,cs.wikipedia.org,nga.mil"/>
  </node>
  <node id="86948127" version="2" timestamp="2008-09-30T11:43:48Z" uid="1066" user="pavel" changeset="720911" lat="50.1482268" lon="12.5669467">
    <tag k="is_in" v="Czech Republic, Europe"/>
    <tag k="name" v="Dasnice"/>
    <tag k="place" v="village"/>
    <tag k="source" v="geonames.org,cs.wikipedia.org,nga.mil"/>
  </node>
  <node id="86948128" version="3" timestamp="2008-09-30T00:11:42Z" uid="1066" user="pavel" changeset="720263" lat="49.6209933" lon="13.8981577">
    <tag k="is_in" v="Czech Republic, Europe"/>
    <tag k="name" v="Vranovice"/>
    <tag k="place" v="village"/>
    <tag k="source" v="geonames.org,cs.wikipedia.org,nga.mil"/>
  </node>
  <node id="86948130" version="2" timestamp="2008-09-29T23:25:46Z" uid="1066" user="pavel" changeset="720263" lat="49.8169076" lon="14.2166051">
    <tag k="is_in" v="Czech Republic, Europe"/>
    <tag k="name" v="Voznice"/>
    <tag k="place" v="village"/>
    <tag k="source" v="geonames.org,cs.wikipedia.org,nga.mil"/>
  </node>
  <node id="86948131" version="2" timestamp="2008-09-29T23:57:31Z" uid="1066" user="pavel" changeset="720263" lat="49.3501389" lon="13.6684722">
    <tag k="is_in" v="Czech Republic, Europe"/>
    <tag k="name" v="Třebomyslice"/>
    <tag k="place" v="village"/>
    <tag k="source" v="geonames.org,cs.wikipedia.org,nga.mil"/>
  </node>
  <node id="86948136" version="2" timestamp="2008-09-30T10:28:46Z" uid="1066" user="pavel" changeset="720911" lat="49.3230629" lon="17.0299337">
    <tag k="is_in" v="Czech Republic, Europe"/>
    <tag k="name" v="Pustiměř"/>
    <tag k="place" v="village"/>
    <tag k="source" v="geonames.org,cs.wikipedia.org,nga.mil"/>
  </node>
  <node id="86948141" version="2" timestamp="2008-09-30T10:48:16Z" uid="1066" user="pavel" changeset="720911" lat="49.0498388" lon="14.9006554">
    <tag k="is_in" v="Czech Republic, Europe"/>
    <tag k="name" v="Pístina"/>
    <tag k="place" v="village"/>
    <tag k="source" v="geonames.org,cs.wikipedia.org,nga.mil"/>
  </node>
  <node id="86948146" version="2" timestamp="2008-09-29T22:55:55Z" uid="1066" user="pavel" changeset="720263" lat="49.3506944" lon="14.4515278">
    <tag k="is_in" v="Czech Republic, Europe"/>
    <tag k="name" v="Rataje"/>
    <tag k="place" v="village"/>
    <tag k="source" v="geonames.org,cs.wikipedia.org,nga.mil"/>
  </node>
  <node id="86948148" version="2" timestamp="2008-09-29T23:56:56Z" uid="1066" user="pavel" changeset="720263" lat="50.2828105" lon="14.2748467">
    <tag k="is_in" v="Czech Republic, Europe"/>
    <tag k="name" v="Uhy"/>
    <tag k="place" v="village"/>
    <tag k="source" v="geonames.org,cs.wikipedia.org,nga.mil"/>
  </node>
  <node id="86948150" version="2" timestamp="2008-09-29T22:45:07Z" uid="1066" user="pavel" changeset="720263" lat="50.2552723" lon="15.336707">
    <tag k="is_in" v="Czech Republic, Europe"/>
    <tag k="name" v="Kněžice"/>
    <tag k="place" v="village"/>
    <tag k="source" v="geonames.org,cs.wikipedia.org,nga.mil"/>
  </node>
  <node id="86948152" version="2" timestamp="2008-09-29T23:31:19Z" uid="1066" user="pavel" changeset="720263" lat="50.0297965" lon="15.3046232">
    <tag k="is_in" v="Czech Republic, Europe"/>
    <tag k="name" v="Veletov"/>
    <tag k="place" v="village"/>
    <tag k="source" v="geonames.org,cs.wikipedia.org,nga.mil"/>
  </node>
  <node id="86948156" version="2" timestamp="2008-09-29T23:39:10Z" uid="1066" user="pavel" changeset="720263" lat="49.4841609" lon="15.2751412">
    <tag k="is_in" v="Czech Republic, Europe"/>
    <tag k="name" v="Dehtáře"/>
    <tag k="place" v="village"/>
    <tag k="source" v="geonames.org,cs.wikipedia.org,nga.mil"/>
  </node>
  <node id="86948158" version="2" timestamp="2008-09-30T00:14:18Z" uid="1066" user="pavel" changeset="720263" lat="49.9898066" lon="14.0495783">
    <tag k="is_in" v="Czech Republic, Europe"/>
    <tag k="name" v="Hýskov"/>
    <tag k="place" v="village"/>
    <tag k="source" v="geonames.org,cs.wikipedia.org,nga.mil"/>
  </node>
  <node id="86948161" version="2" timestamp="2008-09-30T10:48:59Z" uid="1066" user="pavel" changeset="720911" lat="49.1035648" lon="14.3652425">
    <tag k="is_in" v="Czech Republic, Europe"/>
    <tag k="name" v="Olešník"/>
    <tag k="place" v="village"/>
    <tag k="source" v="geonames.org,cs.wikipedia.org,nga.mil"/>
  </node>
  <node id="86948162" version="2" timestamp="2008-09-30T11:47:51Z" uid="1066" user="pavel" changeset="720911" lat="48.8188052" lon="16.56749">
    <tag k="is_in" v="Czech Republic, Europe"/>
    <tag k="name" v="Březí"/>
    <tag k="place" v="village"/>
    <tag k="source" v="geonames.org,cs.wikipedia.org,nga.mil"/>
  </node>
  <node id="86948164" version="2" timestamp="2008-09-30T10:44:42Z" uid="1066" user="pavel" changeset="720911" lat="49.3333831" lon="13.2332586">
    <tag k="is_in" v="Czech Republic, Europe"/>
    <tag k="name" v="Klenová"/>
    <tag k="place" v="village"/>
    <tag k="source" v="geonames.org,cs.wikipedia.org,nga.mil"/>
  </node>
  <node id="86948165" version="2" timestamp="2008-09-30T11:44:28Z" uid="1066" user="pavel" changeset="720911" lat="48.7912247" lon="14.4554229">
    <tag k="is_in" v="Czech Republic, Europe"/>
    <tag k="name" v="Netřebice"/>
    <tag k="place" v="village"/>
    <tag k="source" v="geonames.org,cs.wikipedia.org,nga.mil"/>
  </node>
  <node id="86948166" version="2" timestamp="2008-09-30T10:51:51Z" uid="1066" user="pavel" changeset="720911" lat="48.946835" lon="14.4513843">
    <tag k="is_in" v="Czech Republic, Europe"/>
    <tag k="name" v="Planá"/>
    <tag k="place" v="village"/>
    <tag k="source" v="geonames.org,cs.wikipedia.org,nga.mil"/>
  </node>
  <node id="86948168" version="2" timestamp="2008-09-30T10:12:26Z" uid="1066" user="pavel" changeset="720911" lat="49.8407278" lon="15.7567636">
    <tag k="is_in" v="Czech Republic, Europe"/>
    <tag k="name" v="Libkov"/>
    <tag k="place" v="village"/>
    <tag k="source" v="geonames.org,cs.wikipedia.org,nga.mil"/>
  </node>
  <node id="86948169" version="2" timestamp="2008-09-30T11:42:32Z" uid="1066" user="pavel" changeset="720911" lat="49.1803597" lon="17.9829814">
    <tag k="is_in" v="Czech Republic, Europe"/>
    <tag k="name" v="Tichov"/>
    <tag k="place" v="village"/>
    <tag k="source" v="geonames.org,cs.wikipedia.org,nga.mil"/>
  </node>
  <node id="86948170" version="2" timestamp="2008-09-29T23:59:27Z" uid="1066" user="pavel" changeset="720263" lat="49.2711202" lon="14.7424848">
    <tag k="is_in" v="Czech Republic, Europe"/>
    <tag k="name" v="Zvěrotice"/>
    <tag k="place" v="village"/>
    <tag k="source" v="geonames.org,cs.wikipedia.org,nga.mil"/>
  </node>
  <node id="86948173" version="2" timestamp="2008-09-30T10:00:26Z" uid="1066" user="pavel" changeset="720911" lat="49.9194446" lon="16.3155557">
    <tag k="is_in" v="Czech Republic, Europe"/>
    <tag k="name" v="Sloupnice"/>
    <tag k="place" v="village"/>
    <tag k="source" v="geonames.org,cs.wikipedia.org,nga.mil"/>
  </node>
  <node id="86948174" version="3" timestamp="2008-09-30T11:41:05Z" uid="1066" user="pavel" changeset="720911" lat="50.6250815" lon="16.2411752">
    <tag k="is_in" v="Czech Republic, Europe"/>
    <tag k="name" v="Meziměstí"/>
    <tag k="place" v="town"/>
    <tag k="source" v="geonames.org,cs.wikipedia.org,nga.mil"/>
  </node>
  <node id="86948175" version="2" timestamp="2008-09-30T00:16:04Z" uid="1066" user="pavel" changeset="720263" lat="49.9731678" lon="15.254714">
    <tag k="is_in" v="Czech Republic, Europe"/>
    <tag k="name" v="Grunta"/>
    <tag k="place" v="village"/>
    <tag k="source" v="geonames.org,cs.wikipedia.org,nga.mil"/>
  </node>
  <node id="86948187" version="2" timestamp="2008-09-30T10:31:05Z" uid="1066" user="pavel" changeset="720911" lat="50.276664" lon="15.7840025">
    <tag k="is_in" v="Czech Republic, Europe"/>
    <tag k="name" v="Neděliště"/>
    <tag k="place" v="village"/>
    <tag k="source" v="geonames.org,cs.wikipedia.org,nga.mil"/>
  </node>
  <node id="86948188" version="2" timestamp="2008-09-29T22:53:32Z" uid="1066" user="pavel" changeset="720263" lat="50.4728964" lon="15.3843784">
    <tag k="is_in" v="Czech Republic, Europe"/>
    <tag k="name" v="Železnice"/>
    <tag k="place" v="town"/>
    <tag k="source" v="geonames.org,cs.wikipedia.org,nga.mil"/>
  </node>
  <node id="86948189" version="2" timestamp="2008-09-30T11:43:51Z" uid="1066" user="pavel" changeset="720911" lat="50.38208" lon="13.109822">
    <tag k="is_in" v="Czech Republic, Europe"/>
    <tag k="name" v="Perštejn"/>
    <tag k="place" v="village"/>
    <tag k="source" v="geonames.org,cs.wikipedia.org,nga.mil"/>
  </node>
  <node id="86948192" version="3" timestamp="2008-09-29T23:44:04Z" uid="1066" user="pavel" changeset="720263" lat="50.3909607" lon="14.6697858">
    <tag k="is_in" v="Czech Republic, Europe"/>
    <tag k="name" v="Chorušice"/>
    <tag k="place" v="village"/>
    <tag k="source" v="geonames.org,cs.wikipedia.org,nga.mil"/>
  </node>
  <node id="86948193" version="3" timestamp="2008-09-30T10:13:51Z" uid="1066" user="pavel" changeset="720911" lat="49.0147224" lon="16.25">
    <tag k="is_in" v="Czech Republic, Europe"/>
    <tag k="name" v="Vémyslice"/>
    <tag k="place" v="village"/>
    <tag k="source" v="geonames.org,cs.wikipedia.org,nga.mil"/>
  </node>
  <node id="86948196" version="2" timestamp="2008-09-29T23:35:09Z" uid="1066" user="pavel" changeset="720263" lat="50.4169446" lon="14.9656946">
    <tag k="is_in" v="Czech Republic, Europe"/>
    <tag k="name" v="Plazy"/>
    <tag k="place" v="village"/>
    <tag k="source" v="geonames.org,cs.wikipedia.org,nga.mil"/>
  </node>
  <node id="86948200" version="2" timestamp="2008-09-30T10:27:44Z" uid="1066" user="pavel" changeset="720911" lat="49.3334658" lon="16.5011084">
    <tag k="is_in" v="Czech Republic, Europe"/>
    <tag k="name" v="Malhostovice"/>
    <tag k="place" v="village"/>
    <tag k="source" v="geonames.org,cs.wikipedia.org,nga.mil"/>
  </node>
  <node id="86948205" version="2" timestamp="2008-09-30T10:51:28Z" uid="1066" user="pavel" changeset="720911" lat="49.1986111" lon="13.8823609">
    <tag k="is_in" v="Czech Republic, Europe"/>
    <tag k="name" v="Němětice"/>
    <tag k="place" v="village"/>
    <tag k="source" v="geonames.org,cs.wikipedia.org,nga.mil"/>
  </node>
  <node id="86948305" version="2" timestamp="2008-09-30T10:20:39Z" uid="1066" user="pavel" changeset="720911" lat="49.6077242" lon="17.7405653">
    <tag k="is_in" v="Czech Republic, Europe"/>
    <tag k="name" v="Střítež nad Ludinou"/>
    <tag k="place" v="village"/>
    <tag k="source" v="geonames.org,cs.wikipedia.org,nga.mil"/>
  </node>
  <node id="86948307" version="3" timestamp="2008-09-29T23:40:34Z" uid="1066" user="pavel" changeset="720263" lat="49.4631071" lon="13.9338314">
    <tag k="is_in" v="Czech Republic, Europe"/>
    <tag k="name" v="Chobot"/>
    <tag k="place" v="village"/>
    <tag k="source" v="geonames.org,cs.wikipedia.org,nga.mil"/>
  </node>
  <node id="86948371" version="2" timestamp="2008-09-29T22:50:37Z" uid="1066" user="pavel" changeset="720263" lat="49.2825232" lon="14.8309264">
    <tag k="is_in" v="Czech Republic, Europe"/>
    <tag k="name" v="Katov"/>
    <tag k="place" v="village"/>
    <tag k="source" v="geonames.org,cs.wikipedia.org,nga.mil"/>
  </node>
  <node id="86948376" version="2" timestamp="2008-09-30T10:26:42Z" uid="1066" user="pavel" changeset="720911" lat="49.8987427" lon="15.8631458">
    <tag k="is_in" v="Czech Republic, Europe"/>
    <tag k="name" v="Bítovany"/>
    <tag k="place" v="village"/>
    <tag k="source" v="geonames.org,cs.wikipedia.org,nga.mil"/>
  </node>
  <node id="86948379" version="2" timestamp="2008-09-30T10:33:10Z" uid="1066" user="pavel" changeset="720911" lat="49.0371945" lon="17.2058347">
    <tag k="is_in" v="Czech Republic, Europe"/>
    <tag k="name" v="Skalka"/>
    <tag k="place" v="village"/>
    <tag k="source" v="geonames.org,cs.wikipedia.org,nga.mil"/>
  </node>
  <node id="86948381" version="2" timestamp="2008-09-30T10:23:20Z" uid="1066" user="pavel" changeset="720911" lat="49.8713416" lon="15.7407844">
    <tag k="is_in" v="Czech Republic, Europe"/>
    <tag k="name" v="Liboměřice"/>
    <tag k="place" v="village"/>
    <tag k="source" v="geonames.org,cs.wikipedia.org,nga.mil"/>
  </node>
  <node id="86948385" version="3" timestamp="2008-09-30T10:33:51Z" uid="1066" user="pavel" changeset="720911" lat="49.4370508" lon="15.8225485">
    <tag k="is_in" v="Czech Republic, Europe"/>
    <tag k="name" v="Arnolec"/>
    <tag k="place" v="village"/>
    <tag k="source" v="geonames.org,cs.wikipedia.org,nga.mil"/>
    <tag k="source:position" v="UHUL:ortofoto"/>
  </node>
  <node id="86948395" version="4" timestamp="2008-09-29T22:50:11Z" uid="1066" user="pavel" changeset="720263" lat="49.8973435" lon="15.0007307">
    <tag k="is_in" v="Czech Republic, Europe"/>
    <tag k="name" v="Skvrňov"/>
    <tag k="place" v="village"/>
    <tag k="source" v="geonames.org,cs.wikipedia.org,nga.mil"/>
  </node>
  <node id="86948397" version="2" timestamp="2008-09-29T23:37:35Z" uid="1066" user="pavel" changeset="720263" lat="49.8682065" lon="14.6501126">
    <tag k="is_in" v="Czech Republic, Europe"/>
    <tag k="name" v="Řehenice"/>
    <tag k="place" v="village"/>
    <tag k="source" v="geonames.org,cs.wikipedia.org,nga.mil"/>
  </node>
  <node id="86948398" version="2" timestamp="2008-09-30T11:45:24Z" uid="1066" user="pavel" changeset="720911" lat="50.3138582" lon="16.1822064">
    <tag k="is_in" v="Czech Republic, Europe"/>
    <tag k="name" v="Val"/>
    <tag k="place" v="village"/>
    <tag k="source" v="geonames.org,cs.wikipedia.org,nga.mil"/>
  </node>
  <node id="86948399" version="2" timestamp="2008-09-30T10:23:47Z" uid="1066" user="pavel" changeset="720911" lat="49.4415132" lon="17.6448686">
    <tag k="is_in" v="Czech Republic, Europe"/>
    <tag k="name" v="Blazice"/>
    <tag k="place" v="village"/>
    <tag k="source" v="geonames.org,cs.wikipedia.org,nga.mil"/>
  </node>
  <node id="86948400" version="2" timestamp="2008-09-30T10:44:56Z" uid="1066" user="pavel" changeset="720911" lat="50.1992761" lon="13.4635446">
    <tag k="is_in" v="Czech Republic, Europe"/>
    <tag k="name" v="Očihov"/>
    <tag k="place" v="village"/>
    <tag k="source" v="geonames.org,cs.wikipedia.org,nga.mil"/>
  </node>
  <node id="86948451" version="2" timestamp="2008-09-30T11:12:58Z" uid="1066" user="pavel" changeset="720911" lat="49.2131286" lon="13.7564642">
    <tag k="is_in" v="Czech Republic, Europe"/>
    <tag k="name" v="Zvotoky"/>
    <tag k="place" v="village"/>
    <tag k="source" v="geonames.org,cs.wikipedia.org,nga.mil"/>
  </node>
  <node id="86948453" version="2" timestamp="2008-09-30T00:14:40Z" uid="1066" user="pavel" changeset="720263" lat="49.5181728" lon="15.3493985">
    <tag k="is_in" v="Czech Republic, Europe"/>
    <tag k="name" v="Vystrkov"/>
    <tag k="place" v="village"/>
    <tag k="source" v="geonames.org,cs.wikipedia.org,nga.mil"/>
  </node>
  <node id="86948455" version="2" timestamp="2008-09-30T10:42:35Z" uid="1066" user="pavel" changeset="720911" lat="50.3502778" lon="13.5816665">
    <tag k="is_in" v="Czech Republic, Europe"/>
    <tag k="name" v="Staňkovice"/>
    <tag k="place" v="village"/>
    <tag k="source" v="geonames.org,cs.wikipedia.org,nga.mil"/>
  </node>
  <node id="86948483" version="2" timestamp="2008-09-30T10:51:25Z" uid="1066" user="pavel" changeset="720911" lat="49.2540887" lon="13.7644264">
    <tag k="is_in" v="Czech Republic, Europe"/>
    <tag k="name" v="Štěchovice"/>
    <tag k="place" v="village"/>
    <tag k="source" v="geonames.org,cs.wikipedia.org,nga.mil"/>
  </node>
  <node id="86948484" version="3" timestamp="2008-09-29T23:50:05Z" uid="1066" user="pavel" changeset="720263" lat="49.7393842" lon="15.3596005">
    <tag k="is_in" v="Czech Republic, Europe"/>
    <tag k="name" v="Kynice"/>
    <tag k="place" v="village"/>
    <tag k="source" v="geonames.org,cs.wikipedia.org,nga.mil"/>
  </node>
  <node id="86948489" version="2" timestamp="2008-09-30T10:42:22Z" uid="1066" user="pavel" changeset="720911" lat="49.5552426" lon="13.4727438">
    <tag k="is_in" v="Czech Republic, Europe"/>
    <tag k="name" v="Drahkov"/>
    <tag k="place" v="village"/>
    <tag k="source" v="geonames.org,cs.wikipedia.org,nga.mil"/>
  </node>
  <node id="86948490" version="3" timestamp="2008-09-30T11:38:39Z" uid="1066" user="pavel" changeset="720911" lat="49.3971606" lon="12.8346839">
    <tag k="is_in" v="Czech Republic, Europe"/>
    <tag k="name" v="Pec"/>
    <tag k="place" v="village"/>
    <tag k="source" v="geonames.org,cs.wikipedia.org,nga.mil"/>
  </node>
  <node id="86948491" version="2" timestamp="2008-09-30T11:42:58Z" uid="1066" user="pavel" changeset="720911" lat="49.7463889" lon="12.5491667">
    <tag k="is_in" v="Czech Republic, Europe"/>
    <tag k="name" v="Lesná"/>
    <tag k="place" v="village"/>
    <tag k="source" v="geonames.org,cs.wikipedia.org,nga.mil"/>
  </node>
  <node id="86948493" version="3" timestamp="2008-09-29T22:41:59Z" uid="1066" user="pavel" changeset="720263" lat="50.4387899" lon="15.1264816">
    <tag k="is_in" v="Czech Republic, Europe"/>
    <tag k="name" v="Dolní Bousov"/>
    <tag k="place" v="town"/>
    <tag k="source" v="geonames.org,cs.wikipedia.org,nga.mil"/>
  </node>
  <node id="86948494" version="3" timestamp="2008-09-30T10:10:28Z" uid="1066" user="pavel" changeset="720911" lat="49.4719947" lon="18.0442637">
    <tag k="is_in" v="Czech Republic, Europe"/>
    <tag k="name" v="Zašová"/>
    <tag k="place" v="village"/>
    <tag k="source" v="geonames.org,cs.wikipedia.org,nga.mil"/>
  </node>
  <node id="86948496" version="3" timestamp="2008-09-30T10:31:33Z" uid="1066" user="pavel" changeset="720911" lat="49.6545215" lon="16.1490607">
    <tag k="is_in" v="Czech Republic, Europe"/>
    <tag k="name" v="Daňkovice"/>
    <tag k="place" v="village"/>
    <tag k="source" v="geonames.org,cs.wikipedia.org,nga.mil"/>
  </node>
  <node id="86948497" version="2" timestamp="2008-09-30T10:47:50Z" uid="1066" user="pavel" changeset="720911" lat="49.9188889" lon="13.4151389">
    <tag k="is_in" v="Czech Republic, Europe"/>
    <tag k="name" v="Nebřeziny"/>
    <tag k="place" v="village"/>
    <tag k="source" v="geonames.org,cs.wikipedia.org,nga.mil"/>
  </node>
  <node id="86948500" version="2" timestamp="2008-09-30T10:32:49Z" uid="1066" user="pavel" changeset="720911" lat="49.2205106" lon="15.7633296">
    <tag k="is_in" v="Czech Republic, Europe"/>
    <tag k="name" v="Hvězdoňovice"/>
    <tag k="place" v="village"/>
    <tag k="source" v="geonames.org,cs.wikipedia.org,nga.mil"/>
  </node>
  <node id="86948505" version="2" timestamp="2008-09-30T10:49:43Z" uid="1066" user="pavel" changeset="720911" lat="48.9304165" lon="14.7666668">
    <tag k="is_in" v="Czech Republic, Europe"/>
    <tag k="name" v="Hrachoviště"/>
    <tag k="place" v="village"/>
    <tag k="source" v="geonames.org,cs.wikipedia.org,nga.mil"/>
  </node>
  <node id="86948506" version="2" timestamp="2008-09-30T10:36:58Z" uid="1066" user="pavel" changeset="720911" lat="50.6789736" lon="15.2120679">
    <tag k="is_in" v="Czech Republic, Europe"/>
    <tag k="name" v="Skuhrov"/>
    <tag k="place" v="village"/>
    <tag k="source" v="geonames.org,cs.wikipedia.org,nga.mil"/>
  </node>
  <node id="86948542" version="2" timestamp="2008-09-30T11:33:47Z" uid="1066" user="pavel" changeset="720911" lat="49.1189857" lon="18.0814678">
    <tag k="is_in" v="Czech Republic, Europe"/>
    <tag k="name" v="Nedašova Lhota"/>
    <tag k="place" v="village"/>
    <tag k="source" v="geonames.org,cs.wikipedia.org,nga.mil"/>
  </node>
  <node id="86948545" version="2" timestamp="2008-09-30T10:14:07Z" uid="1066" user="pavel" changeset="720911" lat="49.6167962" lon="16.5028197">
    <tag k="is_in" v="Czech Republic, Europe"/>
    <tag k="name" v="Chrastavec"/>
    <tag k="place" v="village"/>
    <tag k="source" v="geonames.org,cs.wikipedia.org,nga.mil"/>
  </node>
  <node id="86948549" version="2" timestamp="2008-09-30T10:18:34Z" uid="1066" user="pavel" changeset="720911" lat="49.4382034" lon="18.03586">
    <tag k="is_in" v="Czech Republic, Europe"/>
    <tag k="name" v="Velká Lhota"/>
    <tag k="place" v="village"/>
    <tag k="source" v="geonames.org,cs.wikipedia.org,nga.mil"/>
  </node>
  <node id="86948585" version="2" timestamp="2008-09-30T10:31:47Z" uid="1066" user="pavel" changeset="720911" lat="49.9930827" lon="16.2477816">
    <tag k="is_in" v="Czech Republic, Europe"/>
    <tag k="name" v="Zářecká Lhota"/>
    <tag k="place" v="village"/>
    <tag k="source" v="geonames.org,cs.wikipedia.org,nga.mil"/>
  </node>
  <node id="86948586" version="2" timestamp="2008-09-30T10:49:57Z" uid="1066" user="pavel" changeset="720911" lat="50.5093007" lon="15.6148439">
    <tag k="is_in" v="Czech Republic, Europe"/>
    <tag k="name" v="Borovnice"/>
    <tag k="place" v="village"/>
    <tag k="source" v="geonames.org,cs.wikipedia.org,nga.mil"/>
  </node>
  <node id="86948587" version="2" timestamp="2008-09-30T10:22:35Z" uid="1066" user="pavel" changeset="720911" lat="49.3574469" lon="17.2254144">
    <tag k="is_in" v="Czech Republic, Europe"/>
    <tag k="name" v="Hruška"/>
    <tag k="place" v="village"/>
    <tag k="source" v="geonames.org,cs.wikipedia.org,nga.mil"/>
  </node>
  <node id="86948590" version="2" timestamp="2008-09-30T00:04:29Z" uid="1066" user="pavel" changeset="720263" lat="50.017572" lon="14.2316514">
    <tag k="is_in" v="Czech Republic, Europe"/>
    <tag k="name" v="Nučice"/>
    <tag k="place" v="village"/>
    <tag k="source" v="geonames.org,cs.wikipedia.org,nga.mil"/>
  </node>
  <node id="86948591" version="2" timestamp="2008-09-29T23:40:58Z" uid="1066" user="pavel" changeset="720263" lat="49.4012042" lon="13.9495596">
    <tag k="is_in" v="Czech Republic, Europe"/>
    <tag k="name" v="Škvořetice"/>
    <tag k="place" v="village"/>
    <tag k="source" v="geonames.org,cs.wikipedia.org,nga.mil"/>
  </node>
  <node id="86948592" version="2" timestamp="2008-09-30T10:15:39Z" uid="1066" user="pavel" changeset="720911" lat="49.6159724" lon="16.0005556">
    <tag k="is_in" v="Czech Republic, Europe"/>
    <tag k="name" v="Sklené"/>
    <tag k="place" v="village"/>
    <tag k="source" v="geonames.org,cs.wikipedia.org,nga.mil"/>
  </node>
  <node id="86948602" version="2" timestamp="2008-09-30T11:47:45Z" uid="1066" user="pavel" changeset="720911" lat="50.6021015" lon="13.6173914">
    <tag k="is_in" v="Czech Republic, Europe"/>
    <tag k="name" v="Litvínov"/>
    <tag k="place" v="town"/>
    <tag k="source" v="geonames.org,cs.wikipedia.org,nga.mil"/>
  </node>
  <node id="86948605" version="3" timestamp="2008-09-30T00:03:59Z" uid="1066" user="pavel" changeset="720263" lat="49.6891529" lon="14.482388">
    <tag k="is_in" v="Czech Republic, Europe"/>
    <tag k="name" v="Prosenická Lhota"/>
    <tag k="place" v="village"/>
    <tag k="source" v="geonames.org,cs.wikipedia.org,nga.mil"/>
  </node>
  <node id="86948607" version="2" timestamp="2008-09-30T10:30:41Z" uid="1066" user="pavel" changeset="720911" lat="50.2569138" lon="15.8143094">
    <tag k="is_in" v="Czech Republic, Europe"/>
    <tag k="name" v="Předměřice nad Labem"/>
    <tag k="place" v="village"/>
    <tag k="source" v="geonames.org,cs.wikipedia.org,nga.mil"/>
  </node>
  <node id="86948608" version="2" timestamp="2008-09-30T10:48:45Z" uid="1066" user="pavel" changeset="720911" lat="49.9369001" lon="13.4302292">
    <tag k="is_in" v="Czech Republic, Europe"/>
    <tag k="name" v="Babina"/>
    <tag k="place" v="village"/>
    <tag k="source" v="geonames.org,cs.wikipedia.org,nga.mil"/>
  </node>
  <node id="86948610" version="3" timestamp="2008-09-30T11:45:11Z" uid="1066" user="pavel" changeset="720911" lat="48.8354036" lon="16.2898703">
    <tag k="is_in" v="Czech Republic, Europe"/>
    <tag k="name" v="Božice"/>
    <tag k="place" v="village"/>
    <tag k="source" v="geonames.org,cs.wikipedia.org,nga.mil"/>
    <tag k="source:position" v="UHUL:ortofoto"/>
  </node>
  <node id="86948611" version="3" timestamp="2008-09-29T23:32:19Z" uid="1066" user="pavel" changeset="720263" lat="50.3343937" lon="14.968725">
    <tag k="is_in" v="Czech Republic, Europe"/>
    <tag k="name" v="Kosořice"/>
    <tag k="place" v="village"/>
    <tag k="source" v="geonames.org,cs.wikipedia.org,nga.mil"/>
  </node>
  <node id="86948614" version="2" timestamp="2008-09-30T10:51:45Z" uid="1066" user="pavel" changeset="720911" lat="49.5327545" lon="13.2224881">
    <tag k="is_in" v="Czech Republic, Europe"/>
    <tag k="name" v="Bolkov"/>
    <tag k="place" v="village"/>
    <tag k="source" v="geonames.org,cs.wikipedia.org,nga.mil"/>
  </node>
  <node id="86948616" version="3" timestamp="2008-09-29T23:26:08Z" uid="1066" user="pavel" changeset="720263" lat="50.4737378" lon="14.8031273">
    <tag k="is_in" v="Czech Republic, Europe"/>
    <tag k="name" v="Plužná"/>
    <tag k="place" v="village"/>
    <tag k="source" v="geonames.org,cs.wikipedia.org,nga.mil"/>
  </node>
  <node id="86948647" version="2" timestamp="2008-09-30T10:05:23Z" uid="1066" user="pavel" changeset="720911" lat="49.8444573" lon="16.0714668">
    <tag k="is_in" v="Czech Republic, Europe"/>
    <tag k="name" v="Hluboká"/>
    <tag k="place" v="village"/>
    <tag k="source" v="geonames.org,cs.wikipedia.org,nga.mil"/>
  </node>
  <node id="86948648" version="2" timestamp="2008-09-30T11:48:09Z" uid="1066" user="pavel" changeset="720911" lat="48.877284" lon="16.0748737">
    <tag k="is_in" v="Czech Republic, Europe"/>
    <tag k="name" v="Kuchařovice"/>
    <tag k="place" v="village"/>
    <tag k="source" v="geonames.org,cs.wikipedia.org,nga.mil"/>
  </node>
  <node id="86948649" version="2" timestamp="2008-09-30T10:25:58Z" uid="1066" user="pavel" changeset="720911" lat="49.3241955" lon="15.9375086">
    <tag k="is_in" v="Czech Republic, Europe"/>
    <tag k="name" v="Nový Telečkov"/>
    <tag k="place" v="village"/>
    <tag k="source" v="geonames.org,cs.wikipedia.org,nga.mil"/>
  </node>
  <node id="86948650" version="2" timestamp="2008-09-29T23:19:18Z" uid="1066" user="pavel" changeset="720263" lat="49.9733612" lon="15.5668362">
    <tag k="is_in" v="Czech Republic, Europe"/>
    <tag k="name" v="Urbanice"/>
    <tag k="place" v="village"/>
    <tag k="source" v="geonames.org,cs.wikipedia.org,nga.mil"/>
  </node>
  <node id="86948651" version="2" timestamp="2008-09-30T10:38:25Z" uid="1066" user="pavel" changeset="720911" lat="49.8549604" lon="13.4853363">
    <tag k="is_in" v="Czech Republic, Europe"/>
    <tag k="name" v="Chotiná"/>
    <tag k="place" v="village"/>
    <tag k="source" v="geonames.org,cs.wikipedia.org,nga.mil"/>
  </node>
  <node id="86948652" version="2" timestamp="2008-09-30T00:22:00Z" uid="1066" user="pavel" changeset="720263" lat="50.4061994" lon="13.628035">
    <tag k="is_in" v="Czech Republic, Europe"/>
    <tag k="name" v="Blažim"/>
    <tag k="place" v="village"/>
    <tag k="source" v="geonames.org,cs.wikipedia.org,nga.mil"/>
  </node>
  <node id="86948661" version="4" timestamp="2008-09-30T10:30:40Z" uid="1066" user="pavel" changeset="720911" lat="49.50986" lon="15.6517341">
    <tag k="is_in" v="Czech Republic, Europe"/>
    <tag k="name" v="Kamenná"/>
    <tag k="place" v="village"/>
    <tag k="source" v="geonames.org,cs.wikipedia.org,nga.mil"/>
    <tag k="source:position" v="uhul:ortofoto"/>
  </node>
  <node id="86948662" version="2" timestamp="2008-09-29T23:39:30Z" uid="1066" user="pavel" changeset="720263" lat="49.6708879" lon="14.3578073">
    <tag k="is_in" v="Czech Republic, Europe"/>
    <tag k="name" v="Dublovice"/>
    <tag k="place" v="village"/>
    <tag k="source" v="geonames.org,cs.wikipedia.org,nga.mil"/>
  </node>
  <node id="86948663" version="2" timestamp="2008-09-30T10:19:56Z" uid="1066" user="pavel" changeset="720911" lat="49.8831074" lon="16.1174468">
    <tag k="is_in" v="Czech Republic, Europe"/>
    <tag k="name" v="Libecina"/>
    <tag k="place" v="village"/>
    <tag k="source" v="geonames.org,cs.wikipedia.org,nga.mil"/>
  </node>
  <node id="86948676" version="2" timestamp="2008-09-29T23:07:09Z" uid="1066" user="pavel" changeset="720263" lat="50.4351387" lon="15.0006944">
    <tag k="is_in" v="Czech Republic, Europe"/>
    <tag k="name" v="Husí Lhota"/>
    <tag k="place" v="village"/>
    <tag k="source" v="geonames.org,cs.wikipedia.org,nga.mil"/>
  </node>
  <node id="86948677" version="2" timestamp="2008-09-30T11:12:23Z" uid="1066" user="pavel" changeset="720911" lat="49.2155049" lon="13.6318383">
    <tag k="is_in" v="Czech Republic, Europe"/>
    <tag k="name" v="Žihobce"/>
    <tag k="place" v="village"/>
    <tag k="source" v="geonames.org,cs.wikipedia.org,nga.mil"/>
  </node>
  <node id="86948678" version="2" timestamp="2008-09-30T00:08:01Z" uid="1066" user="pavel" changeset="720263" lat="50.0816665" lon="15.5188891">
    <tag k="is_in" v="Czech Republic, Europe"/>
    <tag k="name" v="Strašov"/>
    <tag k="place" v="village"/>
    <tag k="source" v="geonames.org,cs.wikipedia.org,nga.mil"/>
  </node>
  <node id="86948679" version="2" timestamp="2008-09-29T23:39:02Z" uid="1066" user="pavel" changeset="720263" lat="49.8848637" lon="14.4335327">
    <tag k="is_in" v="Czech Republic, Europe"/>
    <tag k="name" v="Petrov"/>
    <tag k="place" v="village"/>
    <tag k="source" v="geonames.org,cs.wikipedia.org,nga.mil"/>
  </node>
  <node id="86948680" version="3" timestamp="2008-09-30T10:41:25Z" uid="1066" user="pavel" changeset="720911" lat="49.0179295" lon="14.4777715">
    <tag k="is_in" v="Czech Republic, Europe"/>
    <tag k="name" v="Hrdějovice"/>
    <tag k="place" v="village"/>
    <tag k="source" v="geonames.org,cs.wikipedia.org,nga.mil"/>
  </node>
  <node id="86948685" version="2" timestamp="2008-09-29T23:03:13Z" uid="1066" user="pavel" changeset="720263" lat="49.6051533" lon="14.5812434">
    <tag k="is_in" v="Czech Republic, Europe"/>
    <tag k="name" v="Heřmaničky"/>
    <tag k="place" v="village"/>
    <tag k="source" v="geonames.org,cs.wikipedia.org,nga.mil"/>
  </node>
  <node id="86948686" version="2" timestamp="2008-09-29T23:24:50Z" uid="1066" user="pavel" changeset="720263" lat="49.3580998" lon="15.2697223">
    <tag k="is_in" v="Czech Republic, Europe"/>
    <tag k="name" v="Dobrá Voda"/>
    <tag k="place" v="village"/>
    <tag k="source" v="geonames.org,cs.wikipedia.org,nga.mil"/>
  </node>
  <node id="86948688" version="2" timestamp="2008-09-30T10:47:41Z" uid="1066" user="pavel" changeset="720911" lat="49.0009127" lon="14.6516715">
    <tag k="is_in" v="Czech Republic, Europe"/>
    <tag k="name" v="Štěpánovice"/>
    <tag k="place" v="village"/>
    <tag k="source" v="geonames.org,cs.wikipedia.org,nga.mil"/>
  </node>
  <node id="86948705" version="2" timestamp="2008-09-30T10:28:19Z" uid="1066" user="pavel" changeset="720911" lat="49.9594541" lon="15.9098547">
    <tag k="is_in" v="Czech Republic, Europe"/>
    <tag k="name" v="Hrochův Týnec"/>
    <tag k="place" v="village"/>
    <tag k="source" v="geonames.org,cs.wikipedia.org,nga.mil"/>
  </node>
  <node id="86948716" version="2" timestamp="2008-09-30T00:01:24Z" uid="1066" user="pavel" changeset="720263" lat="50.0915842" lon="15.2609919">
    <tag k="is_in" v="Czech Republic, Europe"/>
    <tag k="name" v="Jestřabí Lhota"/>
    <tag k="place" v="village"/>
    <tag k="source" v="geonames.org,cs.wikipedia.org,nga.mil"/>
  </node>
  <node id="86948717" version="2" timestamp="2008-09-30T10:46:49Z" uid="1066" user="pavel" changeset="720911" lat="50.6887065" lon="15.2360206">
    <tag k="is_in" v="Czech Republic, Europe"/>
    <tag k="name" v="Pěnčín"/>
    <tag k="place" v="village"/>
    <tag k="source" v="geonames.org,cs.wikipedia.org,nga.mil"/>
  </node>
  <node id="86948718" version="2" timestamp="2008-09-30T10:50:04Z" uid="1066" user="pavel" changeset="720911" lat="50.0217735" lon="13.4517299">
    <tag k="is_in" v="Czech Republic, Europe"/>
    <tag k="name" v="Vysoká Libyně"/>
    <tag k="place" v="village"/>
    <tag k="source" v="geonames.org,cs.wikipedia.org,nga.mil"/>
  </node>
  <node id="86948720" version="2" timestamp="2008-09-29T23:04:04Z" uid="1066" user="pavel" changeset="720263" lat="49.515904" lon="15.2531696">
    <tag k="is_in" v="Czech Republic, Europe"/>
    <tag k="name" v="Sedlice"/>
    <tag k="place" v="village"/>
    <tag k="source" v="geonames.org,cs.wikipedia.org,nga.mil"/>
  </node>
  <node id="86948721" version="2" timestamp="2008-09-30T10:34:12Z" uid="1066" user="pavel" changeset="720911" lat="49.4443498" lon="17.5288634">
    <tag k="is_in" v="Czech Republic, Europe"/>
    <tag k="name" v="Podolí"/>
    <tag k="place" v="village"/>
    <tag k="source" v="geonames.org,cs.wikipedia.org,nga.mil"/>
  </node>
  <node id="86948723" version="2" timestamp="2008-09-29T23:24:40Z" uid="1066" user="pavel" changeset="720263" lat="50.4609254" lon="14.3502578">
    <tag k="is_in" v="Czech Republic, Europe"/>
    <tag k="name" v="Račice"/>
    <tag k="place" v="village"/>
    <tag k="source" v="geonames.org,cs.wikipedia.org,nga.mil"/>
  </node>
  <node id="86948724" version="2" timestamp="2008-09-30T10:37:57Z" uid="1066" user="pavel" changeset="720911" lat="49.2624415" lon="13.4968881">
    <tag k="is_in" v="Czech Republic, Europe"/>
    <tag k="name" v="Hrádek"/>
    <tag k="place" v="village"/>
    <tag k="source" v="geonames.org,cs.wikipedia.org,nga.mil"/>
  </node>
  <node id="86948725" version="2" timestamp="2008-09-30T00:15:30Z" uid="1066" user="pavel" changeset="720263" lat="50.2148613" lon="14.2677779">
    <tag k="is_in" v="Czech Republic, Europe"/>
    <tag k="name" v="Otvovice"/>
    <tag k="place" v="village"/>
    <tag k="source" v="geonames.org,cs.wikipedia.org,nga.mil"/>
  </node>
  <node id="86948736" version="3" timestamp="2008-09-30T10:23:43Z" uid="1066" user="pavel" changeset="720911" lat="49.1600931" lon="15.2004441">
    <tag k="is_in" v="Czech Republic, Europe"/>
    <tag k="name" v="Strmilov"/>
    <tag k="place" v="town"/>
    <tag k="source" v="geonames.org,cs.wikipedia.org,nga.mil"/>
  </node>
  <node id="86948779" version="2" timestamp="2008-09-30T11:33:53Z" uid="1066" user="pavel" changeset="720911" lat="50.9660647" lon="15.2007442">
    <tag k="is_in" v="Czech Republic, Europe"/>
    <tag k="name" v="Horní Řasnice"/>
    <tag k="place" v="village"/>
    <tag k="source" v="geonames.org,cs.wikipedia.org,nga.mil"/>
  </node>
  <node id="86948782" version="2" timestamp="2008-09-30T10:29:08Z" uid="1066" user="pavel" changeset="720911" lat="49.135266" lon="14.632264">
    <tag k="is_in" v="Czech Republic, Europe"/>
    <tag k="name" v="Dynín"/>
    <tag k="place" v="village"/>
    <tag k="source" v="geonames.org,cs.wikipedia.org,nga.mil"/>
  </node>
  <node id="86948842" version="2" timestamp="2008-09-29T23:42:35Z" uid="1066" user="pavel" changeset="720263" lat="50.1224204" lon="13.6343512">
    <tag k="is_in" v="Czech Republic, Europe"/>
    <tag k="name" v="Přílepy"/>
    <tag k="place" v="village"/>
    <tag k="source" v="geonames.org,cs.wikipedia.org,nga.mil"/>
  </node>
  <node id="86948845" version="3" timestamp="2008-09-29T23:18:47Z" uid="1066" user="pavel" changeset="720263" lat="49.3420258" lon="14.3937211">
    <tag k="is_in" v="Czech Republic, Europe"/>
    <tag k="name" v="Borovany"/>
    <tag k="place" v="village"/>
    <tag k="source" v="geonames.org,cs.wikipedia.org,nga.mil"/>
  </node>
  <node id="86948848" version="2" timestamp="2008-09-29T23:52:50Z" uid="1066" user="pavel" changeset="720263" lat="50.2847793" lon="13.914384">
    <tag k="is_in" v="Czech Republic, Europe"/>
    <tag k="name" v="Žerotín"/>
    <tag k="place" v="village"/>
    <tag k="source" v="geonames.org,cs.wikipedia.org,nga.mil"/>
  </node>
  <node id="86948849" version="2" timestamp="2008-09-30T10:33:04Z" uid="1066" user="pavel" changeset="720911" lat="49.0751546" lon="16.6425705">
    <tag k="is_in" v="Czech Republic, Europe"/>
    <tag k="name" v="Opatovice"/>
    <tag k="place" v="village"/>
    <tag k="source" v="geonames.org,cs.wikipedia.org,nga.mil"/>
  </node>
  <node id="86948851" version="2" timestamp="2008-09-30T10:21:50Z" uid="1066" user="pavel" changeset="720911" lat="49.3709814" lon="16.0402135">
    <tag k="is_in" v="Czech Republic, Europe"/>
    <tag k="name" v="Martinice"/>
    <tag k="place" v="village"/>
    <tag k="source" v="geonames.org,cs.wikipedia.org,nga.mil"/>
  </node>
  <node id="86948852" version="2" timestamp="2008-09-30T10:28:11Z" uid="1066" user="pavel" changeset="720911" lat="49.4805241" lon="16.4895311">
    <tag k="is_in" v="Czech Republic, Europe"/>
    <tag k="name" v="Kunice"/>
    <tag k="place" v="village"/>
    <tag k="source" v="geonames.org,cs.wikipedia.org,nga.mil"/>
  </node>
  <node id="86948856" version="2" timestamp="2008-09-30T11:45:36Z" uid="1066" user="pavel" changeset="720911" lat="49.9459597" lon="18.1890528">
    <tag k="is_in" v="Czech Republic, Europe"/>
    <tag k="name" v="Vřesina"/>
    <tag k="place" v="village"/>
    <tag k="source" v="geonames.org,cs.wikipedia.org,nga.mil"/>
  </node>
  <node id="86948859" version="2" timestamp="2008-09-30T10:25:12Z" uid="1066" user="pavel" changeset="720911" lat="49.5827571" lon="16.0014367">
    <tag k="is_in" v="Czech Republic, Europe"/>
    <tag k="name" v="Lhotka"/>
    <tag k="place" v="village"/>
    <tag k="source" v="geonames.org,cs.wikipedia.org,nga.mil"/>
  </node>
  <node id="86948861" version="2" timestamp="2008-09-29T22:54:41Z" uid="1066" user="pavel" changeset="720263" lat="49.9571218" lon="14.719814">
    <tag k="is_in" v="Czech Republic, Europe"/>
    <tag k="name" v="Klokočná"/>
    <tag k="place" v="village"/>
    <tag k="source" v="geonames.org,cs.wikipedia.org,nga.mil"/>
  </node>
  <node id="86948863" version="2" timestamp="2008-09-29T22:59:05Z" uid="1066" user="pavel" changeset="720263" lat="49.5375" lon="14.5809722">
    <tag k="is_in" v="Czech Republic, Europe"/>
    <tag k="name" v="Včelákova Lhota"/>
    <tag k="place" v="village"/>
    <tag k="source" v="geonames.org,cs.wikipedia.org,nga.mil"/>
  </node>
  <node id="86948865" version="2" timestamp="2008-09-30T10:39:48Z" uid="1066" user="pavel" changeset="720911" lat="49.3706958" lon="13.2687632">
    <tag k="is_in" v="Czech Republic, Europe"/>
    <tag k="name" v="Lomec"/>
    <tag k="place" v="village"/>
    <tag k="source" v="geonames.org,cs.wikipedia.org,nga.mil"/>
  </node>
  <node id="86948905" version="2" timestamp="2008-09-30T00:18:52Z" uid="1066" user="pavel" changeset="720263" lat="49.6996077" lon="15.3329246">
    <tag k="is_in" v="Czech Republic, Europe"/>
    <tag k="name" v="Pavlov"/>
    <tag k="place" v="village"/>
    <tag k="source" v="geonames.org,cs.wikipedia.org,nga.mil"/>
  </node>
  <node id="86948937" version="2" timestamp="2008-09-30T10:22:23Z" uid="1066" user="pavel" changeset="720911" lat="49.5512643" lon="17.3376655">
    <tag k="is_in" v="Czech Republic, Europe"/>
    <tag k="name" v="Velký Týnec"/>
    <tag k="place" v="village"/>
    <tag k="source" v="geonames.org,cs.wikipedia.org,nga.mil"/>
  </node>
  <node id="86948938" version="2" timestamp="2008-09-30T10:09:35Z" uid="1066" user="pavel" changeset="720911" lat="49.4930278" lon="17.8668777">
    <tag k="is_in" v="Czech Republic, Europe"/>
    <tag k="name" v="Kladeruby"/>
    <tag k="place" v="village"/>
    <tag k="source" v="geonames.org,cs.wikipedia.org,nga.mil"/>
  </node>
  <node id="86948953" version="2" timestamp="2008-09-29T23:03:01Z" uid="1066" user="pavel" changeset="720263" lat="50.5304127" lon="14.668812">
    <tag k="is_in" v="Czech Republic, Europe"/>
    <tag k="name" v="Okna"/>
    <tag k="place" v="village"/>
    <tag k="source" v="geonames.org,cs.wikipedia.org,nga.mil"/>
  </node>
  <node id="86948957" version="2" timestamp="2008-09-30T11:39:59Z" uid="1066" user="pavel" changeset="720911" lat="48.7824183" lon="16.1995929">
    <tag k="is_in" v="Czech Republic, Europe"/>
    <tag k="name" v="Slup"/>
    <tag k="place" v="village"/>
    <tag k="source" v="geonames.org,cs.wikipedia.org,nga.mil"/>
  </node>
  <node id="86948976" version="2" timestamp="2008-09-30T10:27:33Z" uid="1066" user="pavel" changeset="720911" lat="49.5331094" lon="17.0518593">
    <tag k="is_in" v="Czech Republic, Europe"/>
    <tag k="name" v="Stařechovice"/>
    <tag k="place" v="village"/>
    <tag k="source" v="geonames.org,cs.wikipedia.org,nga.mil"/>
  </node>
  <node id="86948978" version="3" timestamp="2008-09-29T22:44:32Z" uid="1066" user="pavel" changeset="720263" lat="50.0717603" lon="14.9907541">
    <tag k="is_in" v="Czech Republic, Europe"/>
    <tag k="name" v="Chotutice"/>
    <tag k="place" v="village"/>
    <tag k="source" v="geonames.org,cs.wikipedia.org,nga.mil"/>
  </node>
  <node id="86948981" version="2" timestamp="2008-09-30T10:10:30Z" uid="1066" user="pavel" changeset="720911" lat="49.0836052" lon="16.0304089">
    <tag k="is_in" v="Czech Republic, Europe"/>
    <tag k="name" v="Bačice"/>
    <tag k="place" v="village"/>
    <tag k="source" v="geonames.org,cs.wikipedia.org,nga.mil"/>
  </node>
  <node id="86948983" version="2" timestamp="2008-09-30T11:46:26Z" uid="1066" user="pavel" changeset="720911" lat="49.5503494" lon="18.263896">
    <tag k="is_in" v="Czech Republic, Europe"/>
    <tag k="name" v="Kunčice pod Ondřejníkem"/>
    <tag k="place" v="village"/>
    <tag k="source" v="geonames.org,cs.wikipedia.org,nga.mil"/>
  </node>
  <node id="86948985" version="3" timestamp="2008-09-29T23:14:03Z" uid="1066" user="pavel" changeset="720263" lat="49.756206" lon="14.110286">
    <tag k="is_in" v="Czech Republic, Europe"/>
    <tag k="name" v="Rosovice"/>
    <tag k="place" v="village"/>
    <tag k="source" v="geonames.org,cs.wikipedia.org,nga.mil"/>
  </node>
  <node id="86948989" version="2" timestamp="2008-09-30T11:35:48Z" uid="1066" user="pavel" changeset="720911" lat="49.5987904" lon="13.0654027">
    <tag k="is_in" v="Czech Republic, Europe"/>
    <tag k="name" v="Neuměř"/>
    <tag k="place" v="village"/>
    <tag k="source" v="geonames.org,cs.wikipedia.org,nga.mil"/>
  </node>
  <node id="86948992" version="3" timestamp="2008-09-30T10:51:43Z" uid="1066" user="pavel" changeset="720911" lat="50.2839512" lon="13.0091261">
    <tag k="is_in" v="Czech Republic, Europe"/>
    <tag k="name" v="Velichov"/>
    <tag k="place" v="village"/>
    <tag k="source" v="geonames.org,cs.wikipedia.org,nga.mil"/>
  </node>
  <node id="86948999" version="2" timestamp="2008-09-30T10:36:42Z" uid="1066" user="pavel" changeset="720911" lat="50.7890854" lon="14.8188603">
    <tag k="is_in" v="Czech Republic, Europe"/>
    <tag k="name" v="Rynoltice"/>
    <tag k="place" v="village"/>
    <tag k="source" v="geonames.org,cs.wikipedia.org,nga.mil"/>
  </node>
  <node id="86949002" version="3" timestamp="2008-09-30T10:39:13Z" uid="1066" user="pavel" changeset="720911" lat="49.0138326" lon="14.381706">
    <tag k="is_in" v="Czech Republic, Europe"/>
    <tag k="name" v="Čejkovice"/>
    <tag k="place" v="village"/>
    <tag k="source" v="geonames.org,cs.wikipedia.org,nga.mil"/>
  </node>
  <node id="86949005" version="2" timestamp="2008-09-29T23:20:20Z" uid="1066" user="pavel" changeset="720263" lat="50.1316322" lon="15.0645461">
    <tag k="is_in" v="Czech Republic, Europe"/>
    <tag k="name" v="Písková Lhota"/>
    <tag k="place" v="village"/>
    <tag k="source" v="geonames.org,cs.wikipedia.org,nga.mil"/>
  </node>
  <node id="86949008" version="3" timestamp="2008-09-29T22:55:07Z" uid="1066" user="pavel" changeset="720263" lat="49.623181" lon="14.0039463">
    <tag k="is_in" v="Czech Republic, Europe"/>
    <tag k="name" v="Lazsko"/>
    <tag k="place" v="village"/>
    <tag k="source" v="geonames.org,cs.wikipedia.org,nga.mil"/>
  </node>
  <node id="86949014" version="2" timestamp="2008-09-29T23:35:37Z" uid="1066" user="pavel" changeset="720263" lat="49.6335687" lon="14.791681">
    <tag k="is_in" v="Czech Republic, Europe"/>
    <tag k="name" v="Zvěstov"/>
    <tag k="place" v="village"/>
    <tag k="source" v="geonames.org,cs.wikipedia.org,nga.mil"/>
  </node>
  <node id="86949074" version="2" timestamp="2008-09-30T11:43:58Z" uid="1066" user="pavel" changeset="720911" lat="50.7306023" lon="13.9649734">
    <tag k="is_in" v="Czech Republic, Europe"/>
    <tag k="name" v="Telnice"/>
    <tag k="place" v="village"/>
    <tag k="source" v="geonames.org,cs.wikipedia.org,nga.mil"/>
  </node>
  <node id="86949075" version="2" timestamp="2008-09-29T23:25:18Z" uid="1066" user="pavel" changeset="720263" lat="50.1530253" lon="13.8997973">
    <tag k="is_in" v="Czech Republic, Europe"/>
    <tag k="name" v="Nové Strašecí"/>
    <tag k="place" v="town"/>
    <tag k="source" v="geonames.org,cs.wikipedia.org,nga.mil"/>
  </node>
  <node id="86949076" version="2" timestamp="2008-09-30T10:06:53Z" uid="1066" user="pavel" changeset="720911" lat="50.2605289" lon="16.3088644">
    <tag k="is_in" v="Czech Republic, Europe"/>
    <tag k="name" v="Osečnice"/>
    <tag k="place" v="village"/>
    <tag k="source" v="geonames.org,cs.wikipedia.org,nga.mil"/>
  </node>
  <node id="86949079" version="2" timestamp="2008-09-29T23:08:52Z" uid="1066" user="pavel" changeset="720263" lat="49.9326401" lon="14.7817817">
    <tag k="is_in" v="Czech Republic, Europe"/>
    <tag k="name" v="Zvánovice"/>
    <tag k="place" v="village"/>
    <tag k="source" v="geonames.org,cs.wikipedia.org,nga.mil"/>
  </node>
  <node id="86949156" version="2" timestamp="2008-09-30T10:08:02Z" uid="1066" user="pavel" changeset="720911" lat="49.9477583" lon="16.3808901">
    <tag k="is_in" v="Czech Republic, Europe"/>
    <tag k="name" v="Řetová"/>
    <tag k="place" v="village"/>
    <tag k="source" v="geonames.org,cs.wikipedia.org,nga.mil"/>
  </node>
  <node id="86949158" version="2" timestamp="2008-09-29T23:52:51Z" uid="1066" user="pavel" changeset="720263" lat="49.650598" lon="13.682987">
    <tag k="is_in" v="Czech Republic, Europe"/>
    <tag k="name" v="Vísky"/>
    <tag k="place" v="village"/>
    <tag k="source" v="geonames.org,cs.wikipedia.org,nga.mil"/>
  </node>
  <node id="86949161" version="2" timestamp="2008-09-30T10:50:12Z" uid="1066" user="pavel" changeset="720911" lat="50.7120057" lon="14.1906009">
    <tag k="is_in" v="Czech Republic, Europe"/>
    <tag k="name" v="Dobkovice"/>
    <tag k="place" v="village"/>
    <tag k="source" v="geonames.org,cs.wikipedia.org,nga.mil"/>
  </node>
  <node id="86949162" version="2" timestamp="2008-09-30T11:42:35Z" uid="1066" user="pavel" changeset="720911" lat="50.1344443" lon="16.3995833">
    <tag k="is_in" v="Czech Republic, Europe"/>
    <tag k="name" v="Slatina nad Zdobnicí"/>
    <tag k="place" v="village"/>
    <tag k="source" v="geonames.org,cs.wikipedia.org,nga.mil"/>
  </node>
  <node id="86949166" version="2" timestamp="2008-09-30T10:48:09Z" uid="1066" user="pavel" changeset="720911" lat="50.6011434" lon="15.3001708">
    <tag k="is_in" v="Czech Republic, Europe"/>
    <tag k="name" v="Chuchelna"/>
    <tag k="place" v="village"/>
    <tag k="source" v="geonames.org,cs.wikipedia.org,nga.mil"/>
  </node>
  <node id="86949170" version="3" timestamp="2008-09-30T00:12:09Z" uid="1066" user="pavel" changeset="720263" lat="50.1946468" lon="14.1182217">
    <tag k="is_in" v="Czech Republic, Europe"/>
    <tag k="name" v="Pchery"/>
    <tag k="place" v="village"/>
    <tag k="source" v="geonames.org,cs.wikipedia.org,nga.mil"/>
  </node>
  <node id="86949174" version="2" timestamp="2008-09-30T10:33:17Z" uid="1066" user="pavel" changeset="720911" lat="50.0556541" lon="15.6718877">
    <tag k="is_in" v="Czech Republic, Europe"/>
    <tag k="name" v="Černá u Bohdanče"/>
    <tag k="place" v="village"/>
    <tag k="source" v="geonames.org,cs.wikipedia.org,nga.mil"/>
  </node>
  <node id="86949175" version="3" timestamp="2008-09-29T23:38:06Z" uid="1066" user="pavel" changeset="720263" lat="50.4266197" lon="14.7581739">
    <tag k="is_in" v="Czech Republic, Europe"/>
    <tag k="name" v="Skalsko"/>
    <tag k="place" v="village"/>
    <tag k="source" v="geonames.org,cs.wikipedia.org,nga.mil"/>
  </node>
  <node id="86949177" version="3" timestamp="2008-09-29T22:43:22Z" uid="1066" user="pavel" changeset="720263" lat="49.6869415" lon="14.9730525">
    <tag k="is_in" v="Czech Republic, Europe"/>
    <tag k="name" v="Zdislavice"/>
    <tag k="place" v="town"/>
    <tag k="source" v="geonames.org,cs.wikipedia.org,nga.mil"/>
  </node>
  <node id="86949179" version="3" timestamp="2008-09-29T23:43:52Z" uid="1066" user="pavel" changeset="720263" lat="49.7114452" lon="15.012798">
    <tag k="is_in" v="Czech Republic, Europe"/>
    <tag k="name" v="Trhový Štěpánov"/>
    <tag k="place" v="town"/>
    <tag k="source" v="geonames.org,cs.wikipedia.org,nga.mil"/>
  </node>
  <node id="86949183" version="2" timestamp="2008-09-30T00:15:24Z" uid="1066" user="pavel" changeset="720263" lat="49.8848463" lon="14.7027082">
    <tag k="is_in" v="Czech Republic, Europe"/>
    <tag k="name" v="Pětihosty"/>
    <tag k="place" v="village"/>
    <tag k="source" v="geonames.org,cs.wikipedia.org,nga.mil"/>
  </node>
  <node id="86949187" version="2" timestamp="2008-09-30T00:14:05Z" uid="1066" user="pavel" changeset="720263" lat="50.1491667" lon="13.6665279">
    <tag k="is_in" v="Czech Republic, Europe"/>
    <tag k="name" v="Chrášťany"/>
    <tag k="place" v="village"/>
    <tag k="source" v="geonames.org,cs.wikipedia.org,nga.mil"/>
  </node>
  <node id="86949191" version="2" timestamp="2008-09-30T11:48:32Z" uid="1066" user="pavel" changeset="720911" lat="48.9494444" lon="15.6818054">
    <tag k="is_in" v="Czech Republic, Europe"/>
    <tag k="name" v="Vysočany"/>
    <tag k="place" v="village"/>
    <tag k="source" v="geonames.org,cs.wikipedia.org,nga.mil"/>
  </node>
  <node id="86949194" version="2" timestamp="2008-09-30T09:57:39Z" uid="1066" user="pavel" changeset="720911" lat="49.2638891" lon="15.0009722">
    <tag k="is_in" v="Czech Republic, Europe"/>
    <tag k="name" v="Horní Radouň"/>
    <tag k="place" v="village"/>
    <tag k="source" v="geonames.org,cs.wikipedia.org,nga.mil"/>
  </node>
  <node id="86949196" version="2" timestamp="2008-09-29T23:33:49Z" uid="1066" user="pavel" changeset="720263" lat="49.2704955" lon="13.7172368">
    <tag k="is_in" v="Czech Republic, Europe"/>
    <tag k="name" v="Kalenice"/>
    <tag k="place" v="village"/>
    <tag k="source" v="geonames.org,cs.wikipedia.org,nga.mil"/>
  </node>
  <node id="86949199" version="2" timestamp="2008-09-30T10:11:14Z" uid="1066" user="pavel" changeset="720911" lat="49.8066993" lon="18.0720396">
    <tag k="is_in" v="Czech Republic, Europe"/>
    <tag k="name" v="Zbyslavice"/>
    <tag k="place" v="village"/>
    <tag k="source" v="geonames.org,cs.wikipedia.org,nga.mil"/>
  </node>
  <node id="86949201" version="4" timestamp="2008-09-30T10:29:34Z" uid="1066" user="pavel" changeset="720911" lat="49.9945465" lon="15.798589">
    <tag k="is_in" v="Czech Republic, Europe"/>
    <tag k="name" v="Ostřešany"/>
    <tag k="place" v="village"/>
    <tag k="source" v="geonames.org,cs.wikipedia.org,nga.mil"/>
  </node>
  <node id="86949203" version="2" timestamp="2008-09-29T23:00:55Z" uid="1066" user="pavel" changeset="720263" lat="50.150611" lon="14.3537163">
    <tag k="is_in" v="Czech Republic, Europe"/>
    <tag k="name" v="Únětice"/>
    <tag k="place" v="village"/>
    <tag k="source" v="geonames.org,cs.wikipedia.org,nga.mil"/>
  </node>
  <node id="86949208" version="3" timestamp="2008-09-30T00:13:00Z" uid="1066" user="pavel" changeset="720263" lat="50.3088322" lon="14.4380707">
    <tag k="is_in" v="Czech Republic, Europe"/>
    <tag k="name" v="Zálezlice"/>
    <tag k="place" v="village"/>
    <tag k="source" v="geonames.org,cs.wikipedia.org,nga.mil"/>
  </node>
  <node id="86949213" version="2" timestamp="2008-09-30T10:23:45Z" uid="1066" user="pavel" changeset="720911" lat="49.9679945" lon="16.337345">
    <tag k="is_in" v="Czech Republic, Europe"/>
    <tag k="name" v="Hrádek"/>
    <tag k="place" v="village"/>
    <tag k="source" v="geonames.org,cs.wikipedia.org,nga.mil"/>
  </node>
  <node id="86949217" version="2" timestamp="2008-09-30T10:02:21Z" uid="1066" user="pavel" changeset="720911" lat="49.4147023" lon="16.4788867">
    <tag k="is_in" v="Czech Republic, Europe"/>
    <tag k="name" v="Zhoř"/>
    <tag k="place" v="village"/>
    <tag k="source" v="geonames.org,cs.wikipedia.org,nga.mil"/>
  </node>
  <node id="86949218" version="2" timestamp="2008-09-30T11:41:21Z" uid="1066" user="pavel" changeset="720911" lat="49.1378903" lon="17.6673841">
    <tag k="is_in" v="Czech Republic, Europe"/>
    <tag k="name" v="Doubravy"/>
    <tag k="place" v="village"/>
    <tag k="source" v="geonames.org,cs.wikipedia.org,nga.mil"/>
  </node>
  <node id="86949220" version="2" timestamp="2008-09-30T00:06:31Z" uid="1066" user="pavel" changeset="720263" lat="50.4034776" lon="15.3437544">
    <tag k="is_in" v="Czech Republic, Europe"/>
    <tag k="name" v="Staré Místo"/>
    <tag k="place" v="village"/>
    <tag k="source" v="geonames.org,cs.wikipedia.org,nga.mil"/>
  </node>
  <node id="86949221" version="3" timestamp="2008-09-30T09:57:17Z" uid="1066" user="pavel" changeset="720911" lat="49.4800763" lon="15.8317666">
    <tag k="is_in" v="Czech Republic, Europe"/>
    <tag k="name" v="Rudolec"/>
    <tag k="place" v="village"/>
    <tag k="source" v="geonames.org,cs.wikipedia.org,nga.mil"/>
  </node>
  <node id="86949223" version="2" timestamp="2008-09-29T23:33:32Z" uid="1066" user="pavel" changeset="720263" lat="50.4489666" lon="15.3073871">
    <tag k="is_in" v="Czech Republic, Europe"/>
    <tag k="name" v="Ohaveč"/>
    <tag k="place" v="village"/>
    <tag k="source" v="geonames.org,cs.wikipedia.org,nga.mil"/>
  </node>
  <node id="86949226" version="2" timestamp="2008-09-29T23:29:47Z" uid="1066" user="pavel" changeset="720263" lat="49.5838643" lon="13.9838922">
    <tag k="is_in" v="Czech Republic, Europe"/>
    <tag k="name" v="Horčápsko"/>
    <tag k="place" v="village"/>
    <tag k="source" v="geonames.org,cs.wikipedia.org,nga.mil"/>
  </node>
  <node id="86949229" version="2" timestamp="2008-09-30T10:07:18Z" uid="1066" user="pavel" changeset="720911" lat="49.1940125" lon="14.8197093">
    <tag k="is_in" v="Czech Republic, Europe"/>
    <tag k="name" v="Pleše"/>
    <tag k="place" v="village"/>
    <tag k="source" v="geonames.org,cs.wikipedia.org,nga.mil"/>
  </node>
  <node id="86949232" version="2" timestamp="2008-09-30T10:40:02Z" uid="1066" user="pavel" changeset="720911" lat="50.6257845" lon="15.0894043">
    <tag k="is_in" v="Czech Republic, Europe"/>
    <tag k="name" v="Sychrov"/>
    <tag k="place" v="village"/>
    <tag k="source" v="geonames.org,cs.wikipedia.org,nga.mil"/>
  </node>
  <node id="86949234" version="2" timestamp="2008-09-30T10:01:38Z" uid="1066" user="pavel" changeset="720911" lat="49.848403" lon="16.7157655">
    <tag k="is_in" v="Czech Republic, Europe"/>
    <tag k="name" v="Koruna"/>
    <tag k="place" v="village"/>
    <tag k="source" v="geonames.org,cs.wikipedia.org,nga.mil"/>
  </node>
  <node id="86949237" version="2" timestamp="2008-09-30T10:50:28Z" uid="1066" user="pavel" changeset="720911" lat="49.8839423" lon="13.4675158">
    <tag k="is_in" v="Czech Republic, Europe"/>
    <tag k="name" v="Dobříč"/>
    <tag k="place" v="village"/>
    <tag k="source" v="geonames.org,cs.wikipedia.org,nga.mil"/>
  </node>
  <node id="86949269" version="2" timestamp="2008-09-30T10:16:00Z" uid="1066" user="pavel" changeset="720911" lat="49.7511885" lon="17.2323832">
    <tag k="is_in" v="Czech Republic, Europe"/>
    <tag k="name" v="Mladějovice"/>
    <tag k="place" v="village"/>
    <tag k="source" v="geonames.org,cs.wikipedia.org,nga.mil"/>
  </node>
  <node id="86949272" version="2" timestamp="2008-09-30T09:58:27Z" uid="1066" user="pavel" changeset="720911" lat="50.2624684" lon="15.7174017">
    <tag k="is_in" v="Czech Republic, Europe"/>
    <tag k="name" v="Střezetice"/>
    <tag k="place" v="village"/>
    <tag k="source" v="geonames.org,cs.wikipedia.org,nga.mil"/>
  </node>
  <node id="86949337" version="2" timestamp="2008-09-29T23:13:51Z" uid="1066" user="pavel" changeset="720263" lat="49.3913395" lon="13.6527516">
    <tag k="is_in" v="Czech Republic, Europe"/>
    <tag k="name" v="Maňovice"/>
    <tag k="place" v="village"/>
    <tag k="source" v="geonames.org,cs.wikipedia.org,nga.mil"/>
  </node>
  <node id="86949340" version="2" timestamp="2008-09-30T11:33:16Z" uid="1066" user="pavel" changeset="720911" lat="49.1768175" lon="17.5849919">
    <tag k="is_in" v="Czech Republic, Europe"/>
    <tag k="name" v="Karlovice"/>
    <tag k="place" v="village"/>
    <tag k="source" v="geonames.org,cs.wikipedia.org,nga.mil"/>
  </node>
  <node id="86949342" version="2" timestamp="2008-09-30T10:49:50Z" uid="1066" user="pavel" changeset="720911" lat="49.8283688" lon="13.4297158">
    <tag k="is_in" v="Czech Republic, Europe"/>
    <tag k="name" v="Česká Bříza"/>
    <tag k="place" v="village"/>
    <tag k="source" v="geonames.org,cs.wikipedia.org,nga.mil"/>
  </node>
  <node id="86949345" version="2" timestamp="2008-09-30T10:50:21Z" uid="1066" user="pavel" changeset="720911" lat="50.5669446" lon="15.6159724">
    <tag k="is_in" v="Czech Republic, Europe"/>
    <tag k="name" v="Horní Kalná"/>
    <tag k="place" v="village"/>
    <tag k="source" v="geonames.org,cs.wikipedia.org,nga.mil"/>
  </node>
  <node id="86949348" version="2" timestamp="2008-09-29T23:44:51Z" uid="1066" user="pavel" changeset="720263" lat="50.1803971" lon="15.1146355">
    <tag k="is_in" v="Czech Republic, Europe"/>
    <tag k="name" v="Křečkov"/>
    <tag k="place" v="village"/>
    <tag k="source" v="geonames.org,cs.wikipedia.org,nga.mil"/>
  </node>
  <node id="86949350" version="2" timestamp="2008-09-30T11:41:39Z" uid="1066" user="pavel" changeset="720911" lat="50.7582603" lon="15.2628492">
    <tag k="is_in" v="Czech Republic, Europe"/>
    <tag k="name" v="Jiřetín pod Bukovou"/>
    <tag k="place" v="village"/>
    <tag k="source" v="geonames.org,cs.wikipedia.org,nga.mil"/>
  </node>
  <node id="86949415" version="2" timestamp="2008-09-30T11:34:16Z" uid="1066" user="pavel" changeset="720911" lat="50.4004167" lon="15.6980556">
    <tag k="is_in" v="Czech Republic, Europe"/>
    <tag k="name" v="Rohoznice"/>
    <tag k="place" v="village"/>
    <tag k="source" v="geonames.org,cs.wikipedia.org,nga.mil"/>
  </node>
  <node id="86949419" version="2" timestamp="2008-09-30T10:14:36Z" uid="1066" user="pavel" changeset="720911" lat="49.3828478" lon="16.7646736">
    <tag k="is_in" v="Czech Republic, Europe"/>
    <tag k="name" v="Ostrov u Macochy"/>
    <tag k="place" v="town"/>
    <tag k="source" v="geonames.org,cs.wikipedia.org,nga.mil"/>
  </node>
  <node id="86949422" version="2" timestamp="2008-09-30T11:33:33Z" uid="1066" user="pavel" changeset="720911" lat="49.2625056" lon="17.9968389">
    <tag k="is_in" v="Czech Republic, Europe"/>
    <tag k="name" v="Valašská Polanka"/>
    <tag k="place" v="village"/>
    <tag k="source" v="geonames.org,cs.wikipedia.org,nga.mil"/>
  </node>
  <node id="86949425" version="2" timestamp="2008-09-30T10:10:34Z" uid="1066" user="pavel" changeset="720911" lat="49.1035895" lon="14.6847491">
    <tag k="is_in" v="Czech Republic, Europe"/>
    <tag k="name" v="Záblatí"/>
    <tag k="place" v="village"/>
    <tag k="source" v="geonames.org,cs.wikipedia.org,nga.mil"/>
  </node>
  <node id="86949428" version="2" timestamp="2008-09-29T22:47:40Z" uid="1066" user="pavel" changeset="720263" lat="49.551356" lon="15.0664461">
    <tag k="is_in" v="Czech Republic, Europe"/>
    <tag k="name" v="Buřenice"/>
    <tag k="place" v="village"/>
    <tag k="source" v="geonames.org,cs.wikipedia.org,nga.mil"/>
  </node>
  <node id="86949431" version="2" timestamp="2008-09-30T10:31:16Z" uid="1066" user="pavel" changeset="720911" lat="49.2060338" lon="16.0871592">
    <tag k="is_in" v="Czech Republic, Europe"/>
    <tag k="name" v="Okarec"/>
    <tag k="place" v="village"/>
    <tag k="source" v="geonames.org,cs.wikipedia.org,nga.mil"/>
  </node>
  <node id="86949434" version="2" timestamp="2008-09-30T10:32:11Z" uid="1066" user="pavel" changeset="720911" lat="49.3294603" lon="17.1412119">
    <tag k="is_in" v="Czech Republic, Europe"/>
    <tag k="name" v="Dřevnovice"/>
    <tag k="place" v="village"/>
    <tag k="source" v="geonames.org,cs.wikipedia.org,nga.mil"/>
  </node>
  <node id="86949438" version="2" timestamp="2008-09-30T00:20:14Z" uid="1066" user="pavel" changeset="720263" lat="49.8971214" lon="14.0570529">
    <tag k="is_in" v="Czech Republic, Europe"/>
    <tag k="name" v="Suchomasty"/>
    <tag k="place" v="village"/>
    <tag k="source" v="geonames.org,cs.wikipedia.org,nga.mil"/>
  </node>
  <node id="86949440" version="2" timestamp="2008-09-30T10:28:43Z" uid="1066" user="pavel" changeset="720911" lat="50.1465955" lon="15.7898074">
    <tag k="is_in" v="Czech Republic, Europe"/>
    <tag k="name" v="Opatovice nad Labem"/>
    <tag k="place" v="village"/>
    <tag k="source" v="geonames.org,cs.wikipedia.org,nga.mil"/>
  </node>
  <node id="86949443" version="2" timestamp="2008-09-30T10:28:14Z" uid="1066" user="pavel" changeset="720911" lat="49.5984722" lon="17.3181946">
    <tag k="is_in" v="Czech Republic, Europe"/>
    <tag k="name" v="Bystrovany"/>
    <tag k="place" v="village"/>
    <tag k="source" v="geonames.org,cs.wikipedia.org,nga.mil"/>
  </node>
  <node id="86949447" version="2" timestamp="2008-09-29T23:37:17Z" uid="1066" user="pavel" changeset="720263" lat="50.3005556" lon="14.7002778">
    <tag k="is_in" v="Czech Republic, Europe"/>
    <tag k="name" v="Horní Slivno"/>
    <tag k="place" v="village"/>
    <tag k="source" v="geonames.org,cs.wikipedia.org,nga.mil"/>
  </node>
  <node id="86949501" version="2" timestamp="2008-09-30T10:24:01Z" uid="1066" user="pavel" changeset="720911" lat="49.1847778" lon="14.8531551">
    <tag k="is_in" v="Czech Republic, Europe"/>
    <tag k="name" v="Kardašova Řečice"/>
    <tag k="place" v="town"/>
    <tag k="source" v="geonames.org,cs.wikipedia.org,nga.mil"/>
  </node>
  <node id="86949593" version="2" timestamp="2008-09-30T00:15:26Z" uid="1066" user="pavel" changeset="720263" lat="49.6991667" lon="14.0824998">
    <tag k="is_in" v="Czech Republic, Europe"/>
    <tag k="name" v="Dubenec"/>
    <tag k="place" v="village"/>
    <tag k="source" v="geonames.org,cs.wikipedia.org,nga.mil"/>
  </node>
  <node id="86949594" version="2" timestamp="2008-09-30T11:34:29Z" uid="1066" user="pavel" changeset="720911" lat="50.071607" lon="16.3908424">
    <tag k="is_in" v="Czech Republic, Europe"/>
    <tag k="name" v="Česká Rybná"/>
    <tag k="place" v="village"/>
    <tag k="source" v="geonames.org,cs.wikipedia.org,nga.mil"/>
  </node>
  <node id="86949597" version="2" timestamp="2008-09-30T00:22:02Z" uid="1066" user="pavel" changeset="720263" lat="49.345593" lon="15.3128558">
    <tag k="is_in" v="Czech Republic, Europe"/>
    <tag k="name" v="Černov"/>
    <tag k="place" v="village"/>
    <tag k="source" v="geonames.org,cs.wikipedia.org,nga.mil"/>
  </node>
  <node id="86949599" version="2" timestamp="2008-09-29T23:24:46Z" uid="1066" user="pavel" changeset="720263" lat="50.3151603" lon="15.5426424">
    <tag k="is_in" v="Czech Republic, Europe"/>
    <tag k="name" v="Šaplava"/>
    <tag k="place" v="village"/>
    <tag k="source" v="geonames.org,cs.wikipedia.org,nga.mil"/>
  </node>
  <node id="86949602" version="2" timestamp="2008-09-30T10:31:28Z" uid="1066" user="pavel" changeset="720911" lat="49.2312438" lon="16.1915862">
    <tag k="is_in" v="Czech Republic, Europe"/>
    <tag k="name" v="Jinošov"/>
    <tag k="place" v="village"/>
    <tag k="source" v="geonames.org,cs.wikipedia.org,nga.mil"/>
  </node>
  <node id="86949603" version="2" timestamp="2008-09-30T10:36:46Z" uid="1066" user="pavel" changeset="720911" lat="49.8576913" lon="13.604518">
    <tag k="is_in" v="Czech Republic, Europe"/>
    <tag k="name" v="Radnice"/>
    <tag k="place" v="town"/>
    <tag k="source" v="geonames.org,cs.wikipedia.org,nga.mil"/>
  </node>
  <node id="86949607" version="2" timestamp="2008-09-30T10:07:00Z" uid="1066" user="pavel" changeset="720911" lat="49.2349998" lon="15.5990278">
    <tag k="is_in" v="Czech Republic, Europe"/>
    <tag k="name" v="Dlouhá Brtnice"/>
    <tag k="place" v="village"/>
    <tag k="source" v="geonames.org,cs.wikipedia.org,nga.mil"/>
  </node>
  <node id="86949611" version="2" timestamp="2008-09-30T10:37:43Z" uid="1066" user="pavel" changeset="720911" lat="49.6955933" lon="13.6043292">
    <tag k="is_in" v="Czech Republic, Europe"/>
    <tag k="name" v="Veselá"/>
    <tag k="place" v="village"/>
    <tag k="source" v="geonames.org,cs.wikipedia.org,nga.mil"/>
  </node>
  <node id="86949615" version="2" timestamp="2008-09-30T10:39:17Z" uid="1066" user="pavel" changeset="720911" lat="50.7306943" lon="14.6998611">
    <tag k="is_in" v="Czech Republic, Europe"/>
    <tag k="name" v="Brniště"/>
    <tag k="place" v="village"/>
    <tag k="source" v="geonames.org,cs.wikipedia.org,nga.mil"/>
  </node>
  <node id="86949617" version="3" timestamp="2008-09-30T10:16:39Z" uid="1066" user="pavel" changeset="720911" lat="49.3322903" lon="17.0614606">
    <tag k="is_in" v="Czech Republic, Europe"/>
    <tag k="name" v="Drysice"/>
    <tag k="place" v="village"/>
    <tag k="source" v="geonames.org,cs.wikipedia.org,nga.mil"/>
  </node>
  <node id="86949621" version="2" timestamp="2008-02-27T22:35:40Z" uid="1066" user="pavel" changeset="216280" lat="49.7797682" lon="14.3784009">
    <tag k="created_by" v="create_osm_pr.pl/1"/>
    <tag k="name" v="Čím"/>
    <tag k="place" v="village"/>
    <tag k="source" v="geonames.org,cs.wikipedia.org,nga.mil"/>
  </node>
  <node id="86949621" version="3" timestamp="2008-09-29T23:11:25Z" uid="1066" user="pavel" changeset="720263" lat="49.7797682" lon="14.3784009">
    <tag k="is_in" v="Czech Republic, Europe"/>
    <tag k="name" v="Čím"/>
    <tag k="place" v="village"/>
    <tag k="source" v="geonames.org,cs.wikipedia.org,nga.mil"/>
  </node>
  <node id="86949661" version="2" timestamp="2008-09-29T22:55:49Z" uid="1066" user="pavel" changeset="720263" lat="50.0503166" lon="13.8651139">
    <tag k="is_in" v="Czech Republic, Europe"/>
    <tag k="name" v="Městečko"/>
    <tag k="place" v="village"/>
    <tag k="source" v="geonames.org,cs.wikipedia.org,nga.mil"/>
  </node>
  <node id="86949662" version="2" timestamp="2008-09-30T10:17:41Z" uid="1066" user="pavel" changeset="720911" lat="49.1092968" lon="16.5536035">
    <tag k="is_in" v="Czech Republic, Europe"/>
    <tag k="name" v="Hajany"/>
    <tag k="place" v="village"/>
    <tag k="source" v="geonames.org,cs.wikipedia.org,nga.mil"/>
  </node>
  <node id="86949663" version="2" timestamp="2008-09-29T23:51:05Z" uid="1066" user="pavel" changeset="720263" lat="50.1461944" lon="15.3181707">
    <tag k="is_in" v="Czech Republic, Europe"/>
    <tag k="name" v="Choťovice"/>
    <tag k="place" v="village"/>
    <tag k="source" v="geonames.org,cs.wikipedia.org,nga.mil"/>
  </node>
  <node id="86949692" version="2" timestamp="2008-09-29T23:28:43Z" uid="1066" user="pavel" changeset="720263" lat="50.0648613" lon="13.6993056">
    <tag k="is_in" v="Czech Republic, Europe"/>
    <tag k="name" v="Senec"/>
    <tag k="place" v="village"/>
    <tag k="source" v="geonames.org,cs.wikipedia.org,nga.mil"/>
  </node>
  <node id="86949694" version="2" timestamp="2008-09-30T10:51:50Z" uid="1066" user="pavel" changeset="720911" lat="49.0835399" lon="14.0541356">
    <tag k="is_in" v="Czech Republic, Europe"/>
    <tag k="name" v="Strunkovice nad Blanicí"/>
    <tag k="place" v="town"/>
    <tag k="source" v="geonames.org,cs.wikipedia.org,nga.mil"/>
  </node>
  <node id="86949696" version="2" timestamp="2008-09-29T22:48:36Z" uid="1066" user="pavel" changeset="720263" lat="49.4776657" lon="15.1672692">
    <tag k="is_in" v="Czech Republic, Europe"/>
    <tag k="name" v="Bácovice"/>
    <tag k="place" v="village"/>
    <tag k="source" v="geonames.org,cs.wikipedia.org,nga.mil"/>
  </node>
  <node id="86949719" version="2" timestamp="2008-09-30T11:42:42Z" uid="1066" user="pavel" changeset="720911" lat="50.3342605" lon="16.1008748">
    <tag k="is_in" v="Czech Republic, Europe"/>
    <tag k="name" v="Černčice"/>
    <tag k="place" v="village"/>
    <tag k="source" v="geonames.org,cs.wikipedia.org,nga.mil"/>
  </node>
  <node id="86949749" version="2" timestamp="2008-09-30T10:26:57Z" uid="1066" user="pavel" changeset="720911" lat="48.9130402" lon="16.8536147">
    <tag k="is_in" v="Czech Republic, Europe"/>
    <tag k="name" v="Bořetice"/>
    <tag k="place" v="village"/>
    <tag k="source" v="geonames.org,cs.wikipedia.org,nga.mil"/>
  </node>
  <node id="86949754" version="3" timestamp="2008-09-30T10:31:02Z" uid="1066" user="pavel" changeset="720911" lat="49.3980953" lon="16.841793">
    <tag k="is_in" v="Czech Republic, Europe"/>
    <tag k="name" v="Rozstání"/>
    <tag k="place" v="village"/>
    <tag k="source" v="geonames.org,cs.wikipedia.org,nga.mil"/>
  </node>
  <node id="86949758" version="2" timestamp="2008-09-30T00:03:12Z" uid="1066" user="pavel" changeset="720263" lat="50.1096817" lon="14.0721198">
    <tag k="is_in" v="Czech Republic, Europe"/>
    <tag k="name" v="Velká Dobrá"/>
    <tag k="place" v="village"/>
    <tag k="source" v="geonames.org,cs.wikipedia.org,nga.mil"/>
  </node>
  <node id="86949764" version="2" timestamp="2008-09-30T10:27:58Z" uid="1066" user="pavel" changeset="720911" lat="50.0024839" lon="16.8007514">
    <tag k="is_in" v="Czech Republic, Europe"/>
    <tag k="name" v="Písařov"/>
    <tag k="place" v="village"/>
    <tag k="source" v="geonames.org,cs.wikipedia.org,nga.mil"/>
  </node>
  <node id="86949767" version="2" timestamp="2008-09-30T10:33:50Z" uid="1066" user="pavel" changeset="720911" lat="49.3879016" lon="17.9422568">
    <tag k="is_in" v="Czech Republic, Europe"/>
    <tag k="name" v="Pržno"/>
    <tag k="place" v="village"/>
    <tag k="source" v="geonames.org,cs.wikipedia.org,nga.mil"/>
  </node>
  <node id="86949769" version="2" timestamp="2008-09-30T10:42:31Z" uid="1066" user="pavel" changeset="720911" lat="50.7981433" lon="14.2573721">
    <tag k="is_in" v="Czech Republic, Europe"/>
    <tag k="name" v="Ludvíkovice"/>
    <tag k="place" v="village"/>
    <tag k="source" v="geonames.org,cs.wikipedia.org,nga.mil"/>
  </node>
  <node id="86949773" version="2" timestamp="2008-09-30T10:18:05Z" uid="1066" user="pavel" changeset="720911" lat="49.6397742" lon="18.1444379">
    <tag k="is_in" v="Czech Republic, Europe"/>
    <tag k="name" v="Příbor"/>
    <tag k="place" v="town"/>
    <tag k="source" v="geonames.org,cs.wikipedia.org,nga.mil"/>
  </node>
  <node id="86949777" version="2" timestamp="2008-09-30T11:44:17Z" uid="1066" user="pavel" changeset="720911" lat="50.0827776" lon="16.5172224">
    <tag k="is_in" v="Czech Republic, Europe"/>
    <tag k="name" v="Líšnice"/>
    <tag k="place" v="village"/>
    <tag k="source" v="geonames.org,cs.wikipedia.org,nga.mil"/>
  </node>
  <node id="86949778" version="2" timestamp="2008-09-29T23:23:19Z" uid="1066" user="pavel" changeset="720263" lat="50.1355203" lon="15.2913389">
    <tag k="is_in" v="Czech Republic, Europe"/>
    <tag k="name" v="Žehuň"/>
    <tag k="place" v="village"/>
    <tag k="source" v="geonames.org,cs.wikipedia.org,nga.mil"/>
  </node>
  <node id="86949782" version="2" timestamp="2008-09-30T10:23:22Z" uid="1066" user="pavel" changeset="720911" lat="49.5014253" lon="16.4108316">
    <tag k="is_in" v="Czech Republic, Europe"/>
    <tag k="name" v="Hodonín"/>
    <tag k="place" v="village"/>
    <tag k="source" v="geonames.org,cs.wikipedia.org,nga.mil"/>
  </node>
  <node id="86949787" version="2" timestamp="2008-09-30T00:04:57Z" uid="1066" user="pavel" changeset="720263" lat="49.9100938" lon="15.0149396">
    <tag k="is_in" v="Czech Republic, Europe"/>
    <tag k="name" v="Církvice"/>
    <tag k="place" v="village"/>
    <tag k="source" v="geonames.org,cs.wikipedia.org,nga.mil"/>
  </node>
  <node id="86949802" version="2" timestamp="2008-09-30T10:38:11Z" uid="1066" user="pavel" changeset="720911" lat="49.2990571" lon="13.4378337">
    <tag k="is_in" v="Czech Republic, Europe"/>
    <tag k="name" v="Kolinec"/>
    <tag k="place" v="town"/>
    <tag k="source" v="geonames.org,cs.wikipedia.org,nga.mil"/>
  </node>
  <node id="86949803" version="3" timestamp="2008-09-29T23:19:55Z" uid="1066" user="pavel" changeset="720263" lat="50.2631626" lon="14.6163055">
    <tag k="is_in" v="Czech Republic, Europe"/>
    <tag k="name" v="Nedomice"/>
    <tag k="place" v="village"/>
    <tag k="source" v="geonames.org,cs.wikipedia.org,nga.mil"/>
  </node>
  <node id="86949805" version="2" timestamp="2008-09-30T10:31:40Z" uid="1066" user="pavel" changeset="720911" lat="49.5976092" lon="16.4008069">
    <tag k="is_in" v="Czech Republic, Europe"/>
    <tag k="name" v="Trpín"/>
    <tag k="place" v="village"/>
    <tag k="source" v="geonames.org,cs.wikipedia.org,nga.mil"/>
  </node>
  <node id="86949811" version="2" timestamp="2008-09-30T11:45:55Z" uid="1066" user="pavel" changeset="720911" lat="49.7976514" lon="18.4835831">
    <tag k="is_in" v="Czech Republic, Europe"/>
    <tag k="name" v="Horní Suchá"/>
    <tag k="place" v="village"/>
    <tag k="source" v="geonames.org,cs.wikipedia.org,nga.mil"/>
  </node>
  <node id="86949813" version="2" timestamp="2008-09-30T11:40:05Z" uid="1066" user="pavel" changeset="720911" lat="50.1499182" lon="12.5344891">
    <tag k="is_in" v="Czech Republic, Europe"/>
    <tag k="name" v="Chlum Svaté Maří"/>
    <tag k="place" v="village"/>
    <tag k="source" v="geonames.org,cs.wikipedia.org,nga.mil"/>
  </node>
  <node id="86949814" version="2" timestamp="2008-09-30T10:23:35Z" uid="1066" user="pavel" changeset="720911" lat="49.6099673" lon="16.9389324">
    <tag k="is_in" v="Czech Republic, Europe"/>
    <tag k="name" v="Rakůvka"/>
    <tag k="place" v="village"/>
    <tag k="source" v="geonames.org,cs.wikipedia.org,nga.mil"/>
  </node>
  <node id="86949816" version="2" timestamp="2008-09-29T23:26:27Z" uid="1066" user="pavel" changeset="720263" lat="49.6391236" lon="15.5262198">
    <tag k="is_in" v="Czech Republic, Europe"/>
    <tag k="name" v="Veselý Žďár"/>
    <tag k="place" v="village"/>
    <tag k="source" v="geonames.org,cs.wikipedia.org,nga.mil"/>
  </node>
  <node id="86949818" version="2" timestamp="2008-09-30T10:33:09Z" uid="1066" user="pavel" changeset="720911" lat="49.5999636" lon="15.7982997">
    <tag k="is_in" v="Czech Republic, Europe"/>
    <tag k="name" v="Malá Losenice"/>
    <tag k="place" v="village"/>
    <tag k="source" v="geonames.org,cs.wikipedia.org,nga.mil"/>
  </node>
  <node id="86949821" version="2" timestamp="2008-09-29T23:49:57Z" uid="1066" user="pavel" changeset="720263" lat="49.5783927" lon="14.0721637">
    <tag k="is_in" v="Czech Republic, Europe"/>
    <tag k="name" v="Chraštice"/>
    <tag k="place" v="village"/>
    <tag k="source" v="geonames.org,cs.wikipedia.org,nga.mil"/>
  </node>
  <node id="86949822" version="2" timestamp="2008-09-30T11:47:29Z" uid="1066" user="pavel" changeset="720911" lat="49.305899" lon="17.9580196">
    <tag k="is_in" v="Czech Republic, Europe"/>
    <tag k="name" v="Lhota u Vsetína"/>
    <tag k="place" v="village"/>
    <tag k="source" v="geonames.org,cs.wikipedia.org,nga.mil"/>
  </node>
  <node id="86949824" version="2" timestamp="2008-09-30T10:51:00Z" uid="1066" user="pavel" changeset="720911" lat="49.7652297" lon="13.2510518">
    <tag k="is_in" v="Czech Republic, Europe"/>
    <tag k="name" v="Kozolupy"/>
    <tag k="place" v="village"/>
    <tag k="source" v="geonames.org,cs.wikipedia.org,nga.mil"/>
  </node>
  <node id="86949826" version="2" timestamp="2008-09-29T23:08:28Z" uid="1066" user="pavel" changeset="720263" lat="50.3184819" lon="13.7485722">
    <tag k="is_in" v="Czech Republic, Europe"/>
    <tag k="name" v="Jimlín"/>
    <tag k="place" v="village"/>
    <tag k="source" v="geonames.org,cs.wikipedia.org,nga.mil"/>
  </node>
  <node id="86949829" version="2" timestamp="2008-09-30T10:44:26Z" uid="1066" user="pavel" changeset="720911" lat="49.3021856" lon="13.2470062">
    <tag k="is_in" v="Czech Republic, Europe"/>
    <tag k="name" v="Strážov"/>
    <tag k="place" v="town"/>
    <tag k="source" v="geonames.org,cs.wikipedia.org,nga.mil"/>
  </node>
  <node id="86949830" version="2" timestamp="2008-09-30T10:27:17Z" uid="1066" user="pavel" changeset="720911" lat="49.3029803" lon="16.2654561">
    <tag k="is_in" v="Czech Republic, Europe"/>
    <tag k="name" v="Křoví"/>
    <tag k="place" v="village"/>
    <tag k="source" v="geonames.org,cs.wikipedia.org,nga.mil"/>
  </node>
  <node id="86949832" version="2" timestamp="2008-09-30T10:37:57Z" uid="1066" user="pavel" changeset="720911" lat="49.0437487" lon="14.0732112">
    <tag k="is_in" v="Czech Republic, Europe"/>
    <tag k="name" v="Vitějovice"/>
    <tag k="place" v="village"/>
    <tag k="source" v="geonames.org,cs.wikipedia.org,nga.mil"/>
  </node>
  <node id="86949869" version="3" timestamp="2008-09-30T10:49:05Z" uid="1066" user="pavel" changeset="720911" lat="50.6035072" lon="15.1105583">
    <tag k="is_in" v="Czech Republic, Europe"/>
    <tag k="name" v="Lažany"/>
    <tag k="place" v="village"/>
    <tag k="source" v="geonames.org,cs.wikipedia.org,nga.mil"/>
  </node>
  <node id="86949872" version="2" timestamp="2008-09-30T10:40:55Z" uid="1066" user="pavel" changeset="720911" lat="49.5170787" lon="13.2292404">
    <tag k="is_in" v="Czech Republic, Europe"/>
    <tag k="name" v="Biřkov"/>
    <tag k="place" v="village"/>
    <tag k="source" v="geonames.org,cs.wikipedia.org,nga.mil"/>
  </node>
  <node id="86949875" version="2" timestamp="2008-09-29T23:51:29Z" uid="1066" user="pavel" changeset="720263" lat="49.5197516" lon="14.334104">
    <tag k="is_in" v="Czech Republic, Europe"/>
    <tag k="name" v="Hrazany"/>
    <tag k="place" v="village"/>
    <tag k="source" v="geonames.org,cs.wikipedia.org,nga.mil"/>
  </node>
  <node id="86949879" version="2" timestamp="2008-09-30T10:39:06Z" uid="1066" user="pavel" changeset="720911" lat="49.4326907" lon="13.4708183">
    <tag k="is_in" v="Czech Republic, Europe"/>
    <tag k="name" v="Mlýnské Struhadlo"/>
    <tag k="place" v="village"/>
    <tag k="source" v="geonames.org,cs.wikipedia.org,nga.mil"/>
  </node>
  <node id="86949930" version="2" timestamp="2008-09-30T00:19:22Z" uid="1066" user="pavel" changeset="720263" lat="50.124524" lon="14.9573204">
    <tag k="is_in" v="Czech Republic, Europe"/>
    <tag k="name" v="Třebestovice"/>
    <tag k="place" v="village"/>
    <tag k="source" v="geonames.org,cs.wikipedia.org,nga.mil"/>
  </node>
  <node id="86949931" version="2" timestamp="2008-09-30T11:44:46Z" uid="1066" user="pavel" changeset="720911" lat="50.5499925" lon="15.7681448">
    <tag k="is_in" v="Czech Republic, Europe"/>
    <tag k="name" v="Čermná"/>
    <tag k="place" v="village"/>
    <tag k="source" v="geonames.org,cs.wikipedia.org,nga.mil"/>
  </node>
  <node id="86949934" version="2" timestamp="2008-09-30T10:23:54Z" uid="1066" user="pavel" changeset="720911" lat="50.1035351" lon="16.1427418">
    <tag k="is_in" v="Czech Republic, Europe"/>
    <tag k="name" v="Zdelov"/>
    <tag k="place" v="village"/>
    <tag k="source" v="geonames.org,cs.wikipedia.org,nga.mil"/>
  </node>
  <node id="86949998" version="2" timestamp="2008-09-30T10:34:00Z" uid="1066" user="pavel" changeset="720911" lat="49.4830643" lon="16.7645221">
    <tag k="is_in" v="Czech Republic, Europe"/>
    <tag k="name" v="Suchý"/>
    <tag k="place" v="village"/>
    <tag k="source" v="geonames.org,cs.wikipedia.org,nga.mil"/>
  </node>
</osm>
