<?xml version='1.0' encoding='UTF-8'?>
<osm version="0.6" generator="libosmium/2.20.0">
  <node id="87255834" version="2" timestamp="2011-05-05T15:22:48Z" uid="115477" user="wowik" changeset="8057723" lat="55.7620406" lon="37.6863304"/>
  <node id="87256681" version="2" timestamp="2008-07-03T20:39:21Z" uid="6975" user="ulfl" changeset="386611" lat="48.9178278" lon="8.6649016">
    <tag k="highway" v="bus_stop"/>
    <tag k="name" v="Kämpfelbachquelle"/>
  </node>
  <node id="87256684" version="3" timestamp="2008-07-03T20:39:20Z" uid="6975" user="ulfl" changeset="386611" lat="48.9113759" lon="8.6774641">
    <tag k="highway" v="bus_stop"/>
    <tag k="name" v="Mahler#"/>
  </node>
  <node id="87256684" version="5" timestamp="2008-11-19T21:20:30Z" uid="67142" user="zottel" changeset="769962" lat="48.9113681" lon="8.6774483">
    <tag k="bus_lines" v="731"/>
    <tag k="created_by" v="Merkaartor 0.12"/>
    <tag k="highway" v="bus_stop"/>
    <tag k="name" v="Mahler"/>
    <tag k="operator" v="SüdwestBus"/>
    <tag k="shelter" v="yes"/>
  </node>
  <node id="87256689" version="2" timestamp="2008-07-03T20:39:23Z" uid="6975" user="ulfl" changeset="386611" lat="48.899248" lon="8.6913017">
    <tag k="highway" v="bus_stop"/>
    <tag k="name" v="Hauptfriedhof"/>
  </node>
  <node id="87256689" version="3" timestamp="2008-11-19T21:20:29Z" uid="67142" user="zottel" changeset="769962" lat="48.8991991" lon="8.6913562">
    <tag k="bus_lines" v="6"/>
    <tag k="highway" v="bus_stop"/>
    <tag k="name" v="Hauptfriedhof"/>
    <tag k="operator" v="SVP"/>
    <tag k="shelter" v="yes"/>
  </node>
  <node id="87256696" version="3" timestamp="2008-07-03T20:39:22Z" uid="6975" user="ulfl" changeset="386611" lat="48.8971841" lon="8.6986283">
    <tag k="highway" v="bus_stop"/>
    <tag k="name" v="Philippstraße"/>
  </node>
  <node id="87256703" version="2" timestamp="2008-07-03T20:39:21Z" uid="6975" user="ulfl" changeset="386611" lat="48.8972115" lon="8.6985718">
    <tag k="highway" v="bus_stop"/>
    <tag k="name" v="Philippstraße"/>
  </node>
  <node id="87256709" version="2" timestamp="2008-07-03T20:39:11Z" uid="6975" user="ulfl" changeset="386611" lat="48.8970325" lon="8.7028092">
    <tag k="highway" v="bus_stop"/>
    <tag k="name" v="Zähringerallee"/>
  </node>
  <node id="87256722" version="2" timestamp="2008-07-03T20:39:12Z" uid="6975" user="ulfl" changeset="386611" lat="48.8967867" lon="8.7052773">
    <tag k="highway" v="bus_stop"/>
    <tag k="name" v="Pfälzer Straße"/>
  </node>
  <node id="87259163" version="1" timestamp="2007-10-25T20:23:00Z" uid="8619" user="cetest" changeset="314714" lat="51.9809896" lon="4.3708736">
    <tag k="created_by" v="JOSM"/>
  </node>
  <node id="87259163" version="2" timestamp="2009-01-19T19:05:25Z" uid="8619" user="cetest" changeset="811694" lat="51.9810306" lon="4.3711623">
    <tag k="created_by" v="JOSM"/>
  </node>
  <node id="87259170" version="1" timestamp="2007-10-25T20:23:00Z" uid="8619" user="cetest" changeset="314714" lat="51.9809946" lon="4.3755775">
    <tag k="created_by" v="JOSM"/>
  </node>
  <node id="87259170" version="4" timestamp="2009-01-19T19:05:22Z" uid="8619" user="cetest" changeset="811694" lat="51.981126" lon="4.3755468"/>
  <node id="87259173" version="1" timestamp="2007-10-25T20:23:01Z" uid="8619" user="cetest" changeset="314714" lat="51.9754102" lon="4.3750926">
    <tag k="created_by" v="JOSM"/>
  </node>
  <node id="87259175" version="1" timestamp="2007-10-25T20:23:01Z" uid="8619" user="cetest" changeset="314714" lat="51.9752298" lon="4.3755548">
    <tag k="created_by" v="JOSM"/>
  </node>
  <node id="87259175" version="2" timestamp="2008-02-17T12:19:42Z" uid="8619" user="cetest" changeset="138160" lat="51.9751929" lon="4.3754616">
    <tag k="created_by" v="JOSM"/>
  </node>
  <node id="87259179" version="1" timestamp="2007-10-25T20:23:01Z" uid="8619" user="cetest" changeset="314714" lat="51.9748125" lon="4.376436">
    <tag k="created_by" v="JOSM"/>
  </node>
  <node id="87259179" version="2" timestamp="2008-12-21T13:07:36Z" uid="8619" user="cetest" changeset="523682" lat="51.9748375" lon="4.3763606">
    <tag k="created_by" v="JOSM"/>
  </node>
  <node id="87259181" version="1" timestamp="2007-10-25T20:23:01Z" uid="8619" user="cetest" changeset="314714" lat="51.9746472" lon="4.3765041">
    <tag k="created_by" v="JOSM"/>
  </node>
  <node id="87259181" version="2" timestamp="2008-12-21T13:07:35Z" uid="8619" user="cetest" changeset="523682" lat="51.9746472" lon="4.3764287">
    <tag k="created_by" v="JOSM"/>
  </node>
</osm>
