<?xml version='1.0' encoding='UTF-8'?>
<osm version="0.6" generator="libosmium/2.20.0">
  <node id="873220963" version="1" timestamp="2010-08-22T02:42:24Z" uid="4467" user="Rosscoe" changeset="5557385" lat="-21.1477264" lon="149.1858557">
    <tag k="addr:city" v="Mackay"/>
    <tag k="addr:country" v="AU"/>
    <tag k="addr:postcode" v="4740"/>
    <tag k="addr:state" v="Qld"/>
    <tag k="amenity" v="fast_food"/>
    <tag k="name" v="McDonald&apos;s"/>
    <tag k="opening_hours" v="Su-Tu 06:00-22:00; We-Th 06:00-23:00; Fr-Sa 06:00-24:00"/>
    <tag k="source" v="nearmap;knowledge"/>
  </node>
  <node id="873221010" version="1" timestamp="2010-08-22T02:42:25Z" uid="4467" user="Rosscoe" changeset="5557385" lat="-21.1458651" lon="149.1867382">
    <tag k="amenity" v="fuel"/>
    <tag k="source" v="nearmap;knowledge"/>
  </node>
  <node id="873221010" version="2" timestamp="2010-08-22T02:44:24Z" uid="4467" user="Rosscoe" changeset="5557390" lat="-21.1458651" lon="149.1867382">
    <tag k="amenity" v="fuel"/>
    <tag k="name" v="Mobil"/>
    <tag k="source" v="nearmap;knowledge"/>
  </node>
</osm>
