<?xml version='1.0' encoding='UTF-8'?>
<osm version="0.6" generator="libosmium/2.20.0">
  <node id="873712195" version="1" timestamp="2010-08-22T10:26:00Z" uid="7617" user="Franc" changeset="5559596" lat="-33.7977508" lon="150.731803">
    <tag k="addr:housenumber" v="59"/>
    <tag k="addr:street" v="Darvill Road"/>
    <tag k="source" v="survey"/>
  </node>
  <node id="873712196" version="1" timestamp="2010-08-22T10:26:00Z" uid="7617" user="Franc" changeset="5559596" lat="-33.7975362" lon="150.7320846">
    <tag k="addr:housenumber" v="54"/>
    <tag k="addr:street" v="Darvill Road"/>
    <tag k="source" v="survey"/>
  </node>
  <node id="873712197" version="1" timestamp="2010-08-22T10:26:00Z" uid="7617" user="Franc" changeset="5559596" lat="-33.7889301" lon="150.7413865">
    <tag k="addr:housenumber" v="126"/>
    <tag k="addr:street" v="Lansdowne Road"/>
    <tag k="source" v="survey"/>
  </node>
  <node id="873712198" version="1" timestamp="2010-08-22T10:26:00Z" uid="7617" user="Franc" changeset="5559596" lat="-33.7887674" lon="150.741278">
    <tag k="addr:housenumber" v="125"/>
    <tag k="addr:street" v="Lansdowne Road"/>
    <tag k="source" v="survey"/>
  </node>
  <node id="873712199" version="1" timestamp="2010-08-22T10:26:01Z" uid="7617" user="Franc" changeset="5559596" lat="-33.7686509" lon="150.7460719"/>
  <node id="873712200" version="1" timestamp="2010-08-22T10:26:01Z" uid="7617" user="Franc" changeset="5559596" lat="-33.7685297" lon="150.7460507"/>
  <node id="873712201" version="1" timestamp="2010-08-22T10:26:01Z" uid="7617" user="Franc" changeset="5559596" lat="-33.7682046" lon="150.7461379"/>
  <node id="873712202" version="1" timestamp="2010-08-22T10:26:01Z" uid="7617" user="Franc" changeset="5559596" lat="-33.7685577" lon="150.7465116"/>
  <node id="873712203" version="1" timestamp="2010-08-22T10:26:01Z" uid="7617" user="Franc" changeset="5559596" lat="-33.7683485" lon="150.7469737"/>
  <node id="873712204" version="1" timestamp="2010-08-22T10:26:01Z" uid="7617" user="Franc" changeset="5559596" lat="-33.7684179" lon="150.7469725"/>
  <node id="873712205" version="1" timestamp="2010-08-22T10:26:01Z" uid="7617" user="Franc" changeset="5559596" lat="-33.7684417" lon="150.7465726"/>
  <node id="873712206" version="1" timestamp="2010-08-22T10:26:01Z" uid="7617" user="Franc" changeset="5559596" lat="-33.7669716" lon="150.7583425"/>
  <node id="873712207" version="1" timestamp="2010-08-22T10:26:01Z" uid="7617" user="Franc" changeset="5559596" lat="-33.7669114" lon="150.7582942"/>
  <node id="873712208" version="1" timestamp="2010-08-22T10:26:01Z" uid="7617" user="Franc" changeset="5559596" lat="-33.7667071" lon="150.7583326"/>
  <node id="873712209" version="1" timestamp="2010-08-22T10:26:01Z" uid="7617" user="Franc" changeset="5559596" lat="-33.7665029" lon="150.7583297"/>
  <node id="873712210" version="1" timestamp="2010-08-22T10:26:01Z" uid="7617" user="Franc" changeset="5559596" lat="-33.7671428" lon="150.7596095"/>
  <node id="873712211" version="1" timestamp="2010-08-22T10:26:01Z" uid="7617" user="Franc" changeset="5559596" lat="-33.7671913" lon="150.7595186"/>
  <node id="873712212" version="1" timestamp="2010-08-22T10:26:01Z" uid="7617" user="Franc" changeset="5559596" lat="-33.7662762" lon="150.75829"/>
  <node id="873712213" version="1" timestamp="2010-08-22T10:26:01Z" uid="7617" user="Franc" changeset="5559596" lat="-33.7660376" lon="150.7582289"/>
  <node id="873712214" version="1" timestamp="2010-08-22T10:26:02Z" uid="7617" user="Franc" changeset="5559596" lat="-33.765955" lon="150.7582133"/>
  <node id="873712215" version="1" timestamp="2010-08-22T10:26:02Z" uid="7617" user="Franc" changeset="5559596" lat="-33.7656515" lon="150.7582161"/>
  <node id="873712216" version="1" timestamp="2010-08-22T10:26:02Z" uid="7617" user="Franc" changeset="5559596" lat="-33.765609" lon="150.7582871"/>
  <node id="873712217" version="1" timestamp="2010-08-22T10:26:02Z" uid="7617" user="Franc" changeset="5559596" lat="-33.7658251" lon="150.7593709"/>
  <node id="873712218" version="1" timestamp="2010-08-22T10:26:02Z" uid="7617" user="Franc" changeset="5559596" lat="-33.9265603" lon="151.1488124">
    <tag k="addr:housenumber" v="12"/>
    <tag k="addr:street" v="Unwin Street"/>
    <tag k="source" v="survey"/>
  </node>
  <node id="873712219" version="1" timestamp="2010-08-22T10:26:02Z" uid="7617" user="Franc" changeset="5559596" lat="-33.9265701" lon="151.1490243">
    <tag k="addr:housenumber" v="10"/>
    <tag k="addr:street" v="Unwin Street"/>
    <tag k="source" v="survey"/>
  </node>
  <node id="873712220" version="1" timestamp="2010-08-22T10:26:02Z" uid="7617" user="Franc" changeset="5559596" lat="-33.9257922" lon="151.1493771">
    <tag k="addr:housenumber" v="4"/>
    <tag k="addr:street" v="Tempe Street"/>
    <tag k="source" v="survey"/>
  </node>
  <node id="873712221" version="1" timestamp="2010-08-22T10:26:03Z" uid="7617" user="Franc" changeset="5559596" lat="-33.9247307" lon="151.1387367">
    <tag k="addr:housenumber" v="138"/>
    <tag k="addr:street" v="Bayview Avenue"/>
    <tag k="source" v="survey"/>
  </node>
  <node id="873712222" version="1" timestamp="2010-08-22T10:26:03Z" uid="7617" user="Franc" changeset="5559596" lat="-33.9239255" lon="151.1365061"/>
  <node id="873712223" version="1" timestamp="2010-08-22T10:26:03Z" uid="7617" user="Franc" changeset="5559596" lat="-33.9247239" lon="151.1389808"/>
  <node id="873712224" version="1" timestamp="2010-08-22T10:26:03Z" uid="7617" user="Franc" changeset="5559596" lat="-33.9249388" lon="151.1392321"/>
  <node id="873712225" version="1" timestamp="2010-08-22T10:26:03Z" uid="7617" user="Franc" changeset="5559596" lat="-33.9251668" lon="151.1405108"/>
  <node id="873712226" version="1" timestamp="2010-08-22T10:26:03Z" uid="7617" user="Franc" changeset="5559596" lat="-33.9250542" lon="151.1422772">
    <tag k="addr:housenumber" v="92"/>
    <tag k="addr:street" v="Bayview Avenue"/>
    <tag k="source" v="survey"/>
  </node>
  <node id="873712226" version="2" timestamp="2010-10-31T03:12:13Z" uid="7617" user="Franc" changeset="6234803" lat="-33.9250462" lon="151.1422908">
    <tag k="addr:housenumber" v="92"/>
    <tag k="addr:street" v="Bayview Avenue"/>
    <tag k="source" v="survey"/>
  </node>
  <node id="873712227" version="1" timestamp="2010-08-22T10:26:03Z" uid="7617" user="Franc" changeset="5559596" lat="-33.9256976" lon="151.1493634">
    <tag k="addr:housenumber" v="2"/>
    <tag k="addr:street" v="Tempe Street"/>
    <tag k="source" v="extrapolation"/>
  </node>
  <node id="873712228" version="1" timestamp="2010-08-22T10:26:03Z" uid="7617" user="Franc" changeset="5559596" lat="-33.9249293" lon="151.1488331"/>
  <node id="873712229" version="1" timestamp="2010-08-22T10:26:03Z" uid="7617" user="Franc" changeset="5559596" lat="-33.9148714" lon="151.1463966">
    <tag k="addr:housenumber" v="49"/>
    <tag k="addr:street" v="Harnett Avenue"/>
    <tag k="source" v="survey"/>
  </node>
  <node id="873712231" version="1" timestamp="2010-08-22T10:26:03Z" uid="7617" user="Franc" changeset="5559596" lat="-33.9149411" lon="151.1465334">
    <tag k="addr:housenumber" v="47"/>
    <tag k="addr:street" v="Harnett Avenue"/>
    <tag k="source" v="exrapolation"/>
  </node>
  <node id="873712231" version="2" timestamp="2011-05-29T06:04:46Z" uid="7617" user="Franc" changeset="8277649" lat="-33.9149411" lon="151.1465334">
    <tag k="addr:housenumber" v="47"/>
    <tag k="addr:street" v="Harnett Avenue"/>
    <tag k="source" v="extrapolation"/>
  </node>
  <node id="873712233" version="1" timestamp="2010-08-22T10:26:04Z" uid="7617" user="Franc" changeset="5559596" lat="-33.9249755" lon="151.1575103">
    <tag k="traffic_calming" v="hump"/>
  </node>
  <node id="873712233" version="2" timestamp="2011-05-21T03:36:13Z" uid="7617" user="Franc" changeset="8203609" lat="-33.9249636" lon="151.1575103">
    <tag k="traffic_calming" v="hump"/>
  </node>
  <node id="873712234" version="1" timestamp="2010-08-22T10:26:04Z" uid="7617" user="Franc" changeset="5559596" lat="-33.9244376" lon="151.1569412">
    <tag k="addr:housenumber" v="28"/>
    <tag k="addr:street" v="Griffths Street"/>
    <tag k="source" v="survey"/>
  </node>
  <node id="873712235" version="1" timestamp="2010-08-22T10:26:04Z" uid="7617" user="Franc" changeset="5559596" lat="-33.9241044" lon="151.1570203">
    <tag k="addr:housenumber" v="24"/>
    <tag k="addr:street" v="Griffths Street"/>
    <tag k="source" v="extrapolation"/>
  </node>
  <node id="873712236" version="1" timestamp="2010-08-22T10:26:04Z" uid="7617" user="Franc" changeset="5559596" lat="-33.9243676" lon="151.1569571">
    <tag k="addr:housenumber" v="26"/>
    <tag k="addr:street" v="Griffths Street"/>
    <tag k="source" v="extrapolation"/>
  </node>
  <node id="873712244" version="1" timestamp="2010-08-22T10:26:04Z" uid="7617" user="Franc" changeset="5559596" lat="-33.9239146" lon="151.1570628">
    <tag k="addr:housenumber" v="18"/>
    <tag k="addr:street" v="Griffths Street"/>
    <tag k="source" v="survey"/>
  </node>
  <node id="873712245" version="1" timestamp="2010-08-22T10:26:04Z" uid="7617" user="Franc" changeset="5559596" lat="-33.9237234" lon="151.1571116">
    <tag k="addr:housenumber" v="14"/>
    <tag k="addr:street" v="Griffths Street"/>
    <tag k="source" v="survey"/>
  </node>
  <node id="873712247" version="1" timestamp="2010-08-22T10:26:05Z" uid="7617" user="Franc" changeset="5559596" lat="-33.9238411" lon="151.1570827">
    <tag k="addr:housenumber" v="16"/>
    <tag k="addr:street" v="Griffths Street"/>
    <tag k="source" v="extrapolation"/>
  </node>
  <node id="873712255" version="1" timestamp="2010-08-22T10:26:05Z" uid="7617" user="Franc" changeset="5559596" lat="-33.9239761" lon="151.1570501">
    <tag k="addr:housenumber" v="20"/>
    <tag k="addr:street" v="Griffths Street"/>
    <tag k="source" v="extrapolation"/>
  </node>
  <node id="873712256" version="1" timestamp="2010-08-22T10:26:05Z" uid="7617" user="Franc" changeset="5559596" lat="-33.9240301" lon="151.1570384">
    <tag k="addr:housenumber" v="22"/>
    <tag k="addr:street" v="Griffths Street"/>
    <tag k="source" v="extrapolation"/>
  </node>
  <node id="873712257" version="1" timestamp="2010-08-22T10:26:05Z" uid="7617" user="Franc" changeset="5559596" lat="-33.9252063" lon="151.1582492">
    <tag k="traffic_calming" v="hump"/>
  </node>
  <node id="873712257" version="2" timestamp="2011-05-21T03:36:12Z" uid="7617" user="Franc" changeset="8203609" lat="-33.9252025" lon="151.1582492">
    <tag k="traffic_calming" v="hump"/>
  </node>
  <node id="873712259" version="1" timestamp="2010-08-22T10:26:05Z" uid="7617" user="Franc" changeset="5559596" lat="-33.9255159" lon="151.1592188">
    <tag k="traffic_calming" v="hump"/>
  </node>
  <node id="873712259" version="2" timestamp="2011-05-21T03:36:11Z" uid="7617" user="Franc" changeset="8203609" lat="-33.9255065" lon="151.1592188">
    <tag k="traffic_calming" v="hump"/>
  </node>
  <node id="873712262" version="1" timestamp="2010-08-22T10:26:05Z" uid="7617" user="Franc" changeset="5559596" lat="-33.901165" lon="151.153305">
    <tag k="addr:housenumber" v="85"/>
    <tag k="addr:street" v="Livingstone Road"/>
    <tag k="source" v="survey"/>
  </node>
  <node id="873712268" version="1" timestamp="2010-08-22T10:26:06Z" uid="7617" user="Franc" changeset="5559596" lat="-33.9002879" lon="151.1519055">
    <tag k="addr:housenumber" v="15"/>
    <tag k="addr:street" v="Miller Street"/>
    <tag k="source" v="survey"/>
  </node>
  <node id="873712270" version="1" timestamp="2010-08-22T10:26:06Z" uid="7617" user="Franc" changeset="5559596" lat="-33.9004194" lon="151.1513023">
    <tag k="addr:housenumber" v="26"/>
    <tag k="addr:street" v="Miller Street"/>
    <tag k="source" v="survey"/>
  </node>
  <node id="873712274" version="1" timestamp="2010-08-22T10:26:06Z" uid="7617" user="Franc" changeset="5559596" lat="-33.900208" lon="151.1516301">
    <tag k="addr:housenumber" v="17"/>
    <tag k="addr:street" v="Napier Street"/>
    <tag k="source" v="survey"/>
  </node>
  <node id="873712276" version="1" timestamp="2010-08-22T10:26:06Z" uid="7617" user="Franc" changeset="5559596" lat="-33.8998933" lon="151.1518698">
    <tag k="addr:housenumber" v="12"/>
    <tag k="addr:street" v="Napier Street"/>
    <tag k="source" v="survey"/>
  </node>
  <node id="873712282" version="1" timestamp="2010-08-22T10:26:06Z" uid="7617" user="Franc" changeset="5559596" lat="-33.899312" lon="151.151696">
    <tag k="addr:housenumber" v="1"/>
    <tag k="addr:street" v="Napier Street"/>
    <tag k="source" v="survey"/>
  </node>
  <node id="873712284" version="1" timestamp="2010-08-22T10:26:06Z" uid="7617" user="Franc" changeset="5559596" lat="-33.8989432" lon="151.1525643">
    <tag k="addr:housenumber" v="10"/>
    <tag k="addr:street" v="Morgan Street"/>
    <tag k="source" v="survey"/>
  </node>
  <node id="873712288" version="1" timestamp="2010-08-22T10:26:06Z" uid="7617" user="Franc" changeset="5559596" lat="-33.9003497" lon="151.1528794">
    <tag k="addr:housenumber" v="1"/>
    <tag k="addr:street" v="Miller Street"/>
    <tag k="source" v="survey"/>
  </node>
  <node id="873712289" version="1" timestamp="2010-08-22T10:26:06Z" uid="7617" user="Franc" changeset="5559596" lat="-33.9005127" lon="151.1528768">
    <tag k="addr:housenumber" v="2"/>
    <tag k="addr:street" v="Miller Street"/>
    <tag k="source" v="survey"/>
  </node>
  <node id="873712290" version="1" timestamp="2010-08-22T10:26:07Z" uid="7617" user="Franc" changeset="5559596" lat="-33.8996225" lon="151.1533957"/>
  <node id="873712290" version="2" timestamp="2011-02-01T08:26:11Z" uid="30201" user="rrankin" changeset="7152426" lat="-33.8996225" lon="151.1533957"/>
  <node id="873712291" version="1" timestamp="2010-08-22T10:26:07Z" uid="7617" user="Franc" changeset="5559596" lat="-33.8996225" lon="151.1533957">
    <tag k="addr:housenumber" v="55"/>
    <tag k="addr:street" v="Livingstone Road"/>
    <tag k="source" v="survey"/>
  </node>
  <node id="873712291" version="2" timestamp="2011-05-22T09:08:10Z" uid="7617" user="Franc" changeset="8213765" lat="-33.900043" lon="151.1533792">
    <tag k="addr:housenumber" v="67"/>
    <tag k="addr:street" v="Livingstone Road"/>
    <tag k="source" v="exrapolation"/>
  </node>
  <node id="873712291" version="3" timestamp="2011-05-29T08:31:43Z" uid="7617" user="Franc" changeset="8278454" lat="-33.900043" lon="151.1533792">
    <tag k="addr:housenumber" v="67"/>
    <tag k="addr:street" v="Livingstone Road"/>
    <tag k="source" v="extrapolation"/>
  </node>
  <node id="873712293" version="1" timestamp="2010-08-22T10:26:07Z" uid="7617" user="Franc" changeset="5559596" lat="-33.8989728" lon="151.1530785">
    <tag k="addr:housenumber" v="2"/>
    <tag k="addr:street" v="Morgan Street"/>
    <tag k="source" v="survey"/>
  </node>
  <node id="873712296" version="1" timestamp="2010-08-22T10:26:07Z" uid="7617" user="Franc" changeset="5559596" lat="-33.898961" lon="151.1529376">
    <tag k="addr:housenumber" v="4"/>
    <tag k="addr:street" v="Morgan Street"/>
    <tag k="source" v="extrapolation"/>
  </node>
  <node id="873712302" version="1" timestamp="2010-08-22T10:26:07Z" uid="7617" user="Franc" changeset="5559596" lat="-33.8989505" lon="151.1528098">
    <tag k="addr:housenumber" v="6"/>
    <tag k="addr:street" v="Morgan Street"/>
    <tag k="source" v="extrapolation"/>
  </node>
  <node id="873712303" version="1" timestamp="2010-08-22T10:26:07Z" uid="7617" user="Franc" changeset="5559596" lat="-33.8989474" lon="151.152682">
    <tag k="addr:housenumber" v="8"/>
    <tag k="addr:street" v="Morgan Street"/>
    <tag k="source" v="extrapolation"/>
  </node>
</osm>
