<?xml version='1.0' encoding='UTF-8'?>
<osm version="0.6" generator="libosmium/2.20.0">
  <node id="87630319" version="3" timestamp="2008-10-16T18:13:05Z" uid="49111" user="Markus B" changeset="380014" lat="49.3358412" lon="10.7963405"/>
  <node id="87634291" version="6" timestamp="2008-06-02T12:30:36Z" uid="36809" user="pfoten_weg_!_" changeset="20720" lat="48.0971425" lon="11.511462">
    <tag k="amenity" v="fuel"/>
    <tag k="created_by" v="Potlatch 0.9c"/>
    <tag k="name" v="Allguth"/>
    <tag k="source" v="survey"/>
  </node>
  <node id="87634291" version="7" timestamp="2008-06-02T13:03:16Z" uid="36809" user="pfoten_weg_!_" changeset="20720" lat="48.0971426" lon="11.5114553">
    <tag k="amenity" v="fuel"/>
    <tag k="created_by" v="Potlatch 0.9c"/>
    <tag k="name" v="Allguth"/>
    <tag k="source" v="survey"/>
  </node>
  <node id="87634297" version="8" timestamp="2008-08-23T19:36:29Z" uid="36809" user="pfoten_weg_!_" changeset="380911" lat="48.0976715" lon="11.5135388">
    <tag k="amenity" v="post_box"/>
    <tag k="created_by" v="RambaZamba"/>
    <tag k="source" v="survey"/>
  </node>
  <node id="87634297" version="9" timestamp="2008-10-01T00:59:14Z" uid="36809" user="pfoten_weg_!_" changeset="5644" lat="48.0976715" lon="11.5135388">
    <tag k="amenity" v="post_box"/>
    <tag k="created_by" v="RambaZamba"/>
    <tag k="source" v="survey"/>
  </node>
  <node id="87634297" version="15" timestamp="2009-02-15T12:01:34Z" uid="36809" user="pfoten_weg_!_" changeset="463903" lat="48.0976715" lon="11.5135388">
    <tag k="amenity" v="post_box"/>
    <tag k="collection_times" v="Mo-Fr 16:45,17:30; Sa 10:30"/>
    <tag k="operator" v="Deutsche Post"/>
    <tag k="source" v="survey"/>
  </node>
  <node id="87634297" version="17" timestamp="2009-03-24T01:24:48Z" uid="36809" user="pfoten_weg_!_" changeset="853978" lat="48.0976715" lon="11.5135388">
    <tag k="amenity" v="post_box"/>
    <tag k="collection_times" v="Mo-Fr 16:45,17:30; Sa 10:30"/>
    <tag k="operator" v="Deutsche Post"/>
    <tag k="source" v="survey"/>
  </node>
  <node id="87634297" version="19" timestamp="2009-03-30T01:40:14Z" uid="36809" user="pfoten_weg_!_" changeset="869093" lat="48.0976715" lon="11.5135388">
    <tag k="amenity" v="post_box"/>
    <tag k="collection_times" v="Mo-Fr 16:45,17:30; Sa 10:30"/>
    <tag k="operator" v="Deutsche Post"/>
    <tag k="source" v="survey"/>
  </node>
  <node id="87634297" version="21" timestamp="2009-06-12T20:31:12Z" uid="36809" user="pfoten_weg_!_" changeset="1500134" lat="48.0976715" lon="11.5135388">
    <tag k="amenity" v="post_box"/>
    <tag k="collection_times" v="Mo-Fr 16:45,17:30; Sa 10:30"/>
    <tag k="created_by" v="RambaZamba"/>
    <tag k="operator" v="Deutsche Post"/>
    <tag k="source" v="survey"/>
  </node>
  <node id="87634297" version="23" timestamp="2009-08-26T09:46:55Z" uid="36809" user="pfoten_weg_!_" changeset="2265457" lat="48.0976715" lon="11.5135388">
    <tag k="amenity" v="post_box"/>
    <tag k="collection_times" v="Mo-Fr 16:45,17:30; Sa 10:30"/>
    <tag k="operator" v="Deutsche Post"/>
    <tag k="source" v="survey"/>
  </node>
  <node id="87634297" version="24" timestamp="2009-10-13T23:03:32Z" uid="36809" user="pfoten_weg_!_" changeset="2841175" lat="48.0976715" lon="11.5135388">
    <tag k="amenity" v="post_box"/>
    <tag k="collection_times" v="Mo-Fr 16:45,17:30; Sa 10:30"/>
    <tag k="operator" v="Deutsche Post"/>
  </node>
  <node id="87634303" version="9" timestamp="2008-08-23T19:36:28Z" uid="36809" user="pfoten_weg_!_" changeset="380911" lat="48.0967664" lon="11.5135158">
    <tag k="amenity" v="bank"/>
    <tag k="atm" v="yes"/>
    <tag k="created_by" v="RambaZamba"/>
    <tag k="name" v="HypoVereinsbank"/>
    <tag k="source" v="survey"/>
  </node>
  <node id="87634303" version="10" timestamp="2008-10-01T00:59:13Z" uid="36809" user="pfoten_weg_!_" changeset="5644" lat="48.0967664" lon="11.5135158">
    <tag k="amenity" v="bank"/>
    <tag k="atm" v="yes"/>
    <tag k="created_by" v="RambaZamba"/>
    <tag k="name" v="HypoVereinsbank"/>
    <tag k="source" v="survey"/>
  </node>
  <node id="87634303" version="13" timestamp="2009-08-31T20:55:40Z" uid="36809" user="pfoten_weg_!_" changeset="2331411" lat="48.0967664" lon="11.5135158">
    <tag k="amenity" v="bank"/>
    <tag k="atm" v="yes"/>
    <tag k="name" v="HypoVereinsbank"/>
    <tag k="operator" v="HypoVereinsbank"/>
    <tag k="source" v="survey"/>
  </node>
  <node id="87634303" version="14" timestamp="2009-10-13T23:03:11Z" uid="36809" user="pfoten_weg_!_" changeset="2841175" lat="48.0967664" lon="11.5135158">
    <tag k="amenity" v="bank"/>
    <tag k="atm" v="yes"/>
    <tag k="name" v="HypoVereinsbank"/>
    <tag k="operator" v="HypoVereinsbank"/>
  </node>
  <node id="87634310" version="3" timestamp="2008-08-23T19:36:31Z" uid="36809" user="pfoten_weg_!_" changeset="380911" lat="48.0976157" lon="11.5134782">
    <tag k="created_by" v="RambaZamba"/>
  </node>
  <node id="87634310" version="4" timestamp="2008-10-01T00:59:20Z" uid="36809" user="pfoten_weg_!_" changeset="5644" lat="48.0976157" lon="11.5134782">
    <tag k="created_by" v="RambaZamba"/>
  </node>
  <node id="87634310" version="5" timestamp="2009-02-15T12:55:01Z" uid="36809" user="pfoten_weg_!_" changeset="463903" lat="48.0976157" lon="11.5134782">
    <tag k="created_by" v="RambaZamba"/>
    <tag k="source" v="survey"/>
  </node>
  <node id="87634310" version="9" timestamp="2009-06-12T20:31:13Z" uid="36809" user="pfoten_weg_!_" changeset="1500134" lat="48.0976157" lon="11.5134782">
    <tag k="created_by" v="RambaZamba"/>
    <tag k="source" v="survey"/>
  </node>
  <node id="87634310" version="11" timestamp="2009-08-26T09:46:56Z" uid="36809" user="pfoten_weg_!_" changeset="2265457" lat="48.0976157" lon="11.5134782">
    <tag k="source" v="survey"/>
  </node>
  <node id="87634310" version="12" timestamp="2009-10-13T23:03:34Z" uid="36809" user="pfoten_weg_!_" changeset="2841175" lat="48.0976157" lon="11.5134782"/>
  <node id="87634315" version="4" timestamp="2008-08-23T19:36:31Z" uid="36809" user="pfoten_weg_!_" changeset="380911" lat="48.097464" lon="11.5119002">
    <tag k="created_by" v="RambaZamba"/>
  </node>
  <node id="87634315" version="5" timestamp="2008-10-01T00:59:20Z" uid="36809" user="pfoten_weg_!_" changeset="5644" lat="48.097464" lon="11.5119002">
    <tag k="created_by" v="RambaZamba"/>
  </node>
  <node id="87634315" version="6" timestamp="2009-02-15T12:55:02Z" uid="36809" user="pfoten_weg_!_" changeset="463903" lat="48.097464" lon="11.5119002">
    <tag k="created_by" v="RambaZamba"/>
    <tag k="source" v="survey"/>
  </node>
  <node id="87634315" version="9" timestamp="2009-06-12T20:31:13Z" uid="36809" user="pfoten_weg_!_" changeset="1500134" lat="48.097464" lon="11.5119002">
    <tag k="created_by" v="RambaZamba"/>
    <tag k="source" v="survey"/>
  </node>
  <node id="87634315" version="11" timestamp="2009-08-26T09:46:57Z" uid="36809" user="pfoten_weg_!_" changeset="2265457" lat="48.097464" lon="11.5119002">
    <tag k="source" v="survey"/>
  </node>
  <node id="87634315" version="12" timestamp="2009-10-13T23:03:21Z" uid="36809" user="pfoten_weg_!_" changeset="2841175" lat="48.097464" lon="11.5119002"/>
  <node id="87634320" version="4" timestamp="2008-08-23T19:36:31Z" uid="36809" user="pfoten_weg_!_" changeset="380911" lat="48.0970058" lon="11.5120025">
    <tag k="created_by" v="RambaZamba"/>
  </node>
  <node id="87634320" version="5" timestamp="2008-10-01T00:59:21Z" uid="36809" user="pfoten_weg_!_" changeset="5644" lat="48.0970058" lon="11.5120025">
    <tag k="created_by" v="RambaZamba"/>
  </node>
  <node id="87634320" version="6" timestamp="2009-02-15T12:55:03Z" uid="36809" user="pfoten_weg_!_" changeset="463903" lat="48.0970058" lon="11.5120025">
    <tag k="created_by" v="RambaZamba"/>
    <tag k="source" v="survey"/>
  </node>
  <node id="87634320" version="9" timestamp="2009-06-12T20:31:13Z" uid="36809" user="pfoten_weg_!_" changeset="1500134" lat="48.0970058" lon="11.5120025">
    <tag k="created_by" v="RambaZamba"/>
    <tag k="source" v="survey"/>
  </node>
  <node id="87634320" version="11" timestamp="2009-08-26T09:46:57Z" uid="36809" user="pfoten_weg_!_" changeset="2265457" lat="48.0970058" lon="11.5120025">
    <tag k="source" v="survey"/>
  </node>
  <node id="87634320" version="12" timestamp="2009-10-13T23:03:16Z" uid="36809" user="pfoten_weg_!_" changeset="2841175" lat="48.0970058" lon="11.5120025"/>
  <node id="87634324" version="6" timestamp="2008-08-23T19:36:31Z" uid="36809" user="pfoten_weg_!_" changeset="380911" lat="48.0971709" lon="11.5135721">
    <tag k="created_by" v="RambaZamba"/>
  </node>
  <node id="87634324" version="7" timestamp="2008-10-01T00:59:21Z" uid="36809" user="pfoten_weg_!_" changeset="5644" lat="48.0971709" lon="11.5135721">
    <tag k="created_by" v="RambaZamba"/>
  </node>
  <node id="87634324" version="8" timestamp="2009-02-15T12:55:03Z" uid="36809" user="pfoten_weg_!_" changeset="463903" lat="48.0971709" lon="11.5135721">
    <tag k="created_by" v="RambaZamba"/>
    <tag k="source" v="survey"/>
  </node>
  <node id="87634324" version="11" timestamp="2009-06-12T20:31:14Z" uid="36809" user="pfoten_weg_!_" changeset="1500134" lat="48.0971709" lon="11.5135721">
    <tag k="created_by" v="RambaZamba"/>
    <tag k="source" v="survey"/>
  </node>
  <node id="87634324" version="13" timestamp="2009-08-26T09:46:57Z" uid="36809" user="pfoten_weg_!_" changeset="2265457" lat="48.0971709" lon="11.5135721">
    <tag k="source" v="survey"/>
  </node>
  <node id="87634324" version="14" timestamp="2009-10-13T23:03:27Z" uid="36809" user="pfoten_weg_!_" changeset="2841175" lat="48.0971709" lon="11.5135721"/>
  <node id="87634329" version="7" timestamp="2008-06-02T12:13:15Z" uid="36809" user="pfoten_weg_!_" changeset="20720" lat="48.0972858" lon="11.5135133">
    <tag k="amenity" v="pharmacy"/>
    <tag k="created_by" v="Potlatch 0.9c"/>
    <tag k="name" v="Apotheke im real,- S端d"/>
    <tag k="source" v="survey"/>
  </node>
  <node id="87634329" version="8" timestamp="2008-06-02T21:27:31Z" uid="36809" user="pfoten_weg_!_" changeset="28969" lat="48.0972817" lon="11.5135062">
    <tag k="amenity" v="pharmacy"/>
    <tag k="created_by" v="Potlatch 0.9c"/>
    <tag k="layer" v="3"/>
    <tag k="name" v="Apotheke im real,- S端d"/>
    <tag k="source" v="survey"/>
  </node>
  <node id="87634329" version="10" timestamp="2008-08-23T19:36:32Z" uid="36809" user="pfoten_weg_!_" changeset="380911" lat="48.0974398" lon="11.5134842">
    <tag k="amenity" v="pharmacy"/>
    <tag k="created_by" v="RambaZamba"/>
    <tag k="layer" v="3"/>
    <tag k="name" v="Apotheke im real,- S端d"/>
    <tag k="source" v="survey"/>
  </node>
  <node id="87634329" version="11" timestamp="2008-10-01T00:59:21Z" uid="36809" user="pfoten_weg_!_" changeset="5644" lat="48.0974398" lon="11.5134842">
    <tag k="amenity" v="pharmacy"/>
    <tag k="created_by" v="RambaZamba"/>
    <tag k="layer" v="3"/>
    <tag k="name" v="Apotheke im real,- S端d"/>
    <tag k="source" v="survey"/>
  </node>
  <node id="87636371" version="4" timestamp="2008-08-23T19:37:13Z" uid="36809" user="pfoten_weg_!_" changeset="380911" lat="48.0992463" lon="11.5200172">
    <tag k="amenity" v="bank"/>
    <tag k="atm" v="yes"/>
    <tag k="created_by" v="RambaZamba"/>
    <tag k="name" v="Deutsche Bank"/>
    <tag k="source" v="survey"/>
  </node>
  <node id="87636371" version="5" timestamp="2008-10-01T01:03:03Z" uid="36809" user="pfoten_weg_!_" changeset="5644" lat="48.0992463" lon="11.5200172">
    <tag k="amenity" v="bank"/>
    <tag k="atm" v="yes"/>
    <tag k="created_by" v="RambaZamba"/>
    <tag k="name" v="Deutsche Bank"/>
    <tag k="source" v="survey"/>
  </node>
  <node id="87636371" version="9" timestamp="2009-08-26T09:48:06Z" uid="36809" user="pfoten_weg_!_" changeset="2265457" lat="48.0992698" lon="11.5200139">
    <tag k="amenity" v="bank"/>
    <tag k="atm" v="yes"/>
    <tag k="name" v="Deutsche Bank"/>
    <tag k="operator" v="Deutsche Bank"/>
    <tag k="source" v="survey"/>
  </node>
  <node id="87636371" version="10" timestamp="2009-10-13T23:07:45Z" uid="36809" user="pfoten_weg_!_" changeset="2841175" lat="48.0992698" lon="11.5200139">
    <tag k="amenity" v="bank"/>
    <tag k="atm" v="yes"/>
    <tag k="name" v="Deutsche Bank"/>
    <tag k="operator" v="Deutsche Bank"/>
  </node>
  <node id="87636374" version="5" timestamp="2008-08-23T19:37:13Z" uid="36809" user="pfoten_weg_!_" changeset="380911" lat="48.0992264" lon="11.5196788">
    <tag k="amenity" v="pharmacy"/>
    <tag k="created_by" v="RambaZamba"/>
    <tag k="name" v="Olympia-Apotheke"/>
    <tag k="source" v="survey"/>
  </node>
  <node id="87636374" version="6" timestamp="2008-10-01T01:03:05Z" uid="36809" user="pfoten_weg_!_" changeset="5644" lat="48.0992264" lon="11.5196788">
    <tag k="amenity" v="pharmacy"/>
    <tag k="created_by" v="RambaZamba"/>
    <tag k="name" v="Olympia-Apotheke"/>
    <tag k="source" v="survey"/>
  </node>
  <node id="87636374" version="9" timestamp="2009-08-26T09:48:06Z" uid="36809" user="pfoten_weg_!_" changeset="2265457" lat="48.0992499" lon="11.5196821">
    <tag k="amenity" v="pharmacy"/>
    <tag k="name" v="Olympia-Apotheke"/>
    <tag k="source" v="survey"/>
  </node>
  <node id="87636374" version="10" timestamp="2009-10-13T23:07:44Z" uid="36809" user="pfoten_weg_!_" changeset="2841175" lat="48.0992499" lon="11.5196821">
    <tag k="amenity" v="pharmacy"/>
    <tag k="name" v="Olympia-Apotheke"/>
  </node>
  <node id="87636378" version="4" timestamp="2008-08-23T19:37:13Z" uid="36809" user="pfoten_weg_!_" changeset="380911" lat="48.099209" lon="11.5193834">
    <tag k="created_by" v="RambaZamba"/>
    <tag k="name" v="Schober"/>
    <tag k="shop" v="butcher"/>
    <tag k="source" v="survey"/>
  </node>
  <node id="87636378" version="5" timestamp="2008-10-01T01:03:07Z" uid="36809" user="pfoten_weg_!_" changeset="5644" lat="48.099209" lon="11.5193834">
    <tag k="created_by" v="RambaZamba"/>
    <tag k="name" v="Schober"/>
    <tag k="shop" v="butcher"/>
    <tag k="source" v="survey"/>
  </node>
  <node id="87636378" version="8" timestamp="2009-08-26T09:48:06Z" uid="36809" user="pfoten_weg_!_" changeset="2265457" lat="48.0992269" lon="11.5193851">
    <tag k="name" v="Schober"/>
    <tag k="shop" v="butcher"/>
    <tag k="source" v="survey"/>
  </node>
  <node id="87636378" version="9" timestamp="2009-10-13T23:07:45Z" uid="36809" user="pfoten_weg_!_" changeset="2841175" lat="48.0992269" lon="11.5193851">
    <tag k="name" v="Schober"/>
    <tag k="shop" v="butcher"/>
  </node>
  <node id="87637697" version="2" timestamp="2008-05-31T21:30:03Z" uid="36809" user="pfoten_weg_!_" changeset="564056" lat="48.102194" lon="11.5243484">
    <tag k="created_by" v="JOSM"/>
    <tag k="highway" v="traffic_signals"/>
    <tag k="source" v="survey"/>
  </node>
  <node id="87637697" version="3" timestamp="2008-10-01T01:00:29Z" uid="36809" user="pfoten_weg_!_" changeset="5644" lat="48.102194" lon="11.5243484">
    <tag k="created_by" v="RambaZamba"/>
    <tag k="highway" v="traffic_signals"/>
    <tag k="source" v="survey"/>
  </node>
  <node id="87637697" version="4" timestamp="2009-06-12T20:51:26Z" uid="36809" user="pfoten_weg_!_" changeset="1500284" lat="48.102194" lon="11.5243484">
    <tag k="created_by" v="RambaZamba"/>
    <tag k="highway" v="traffic_signals"/>
    <tag k="source" v="survey"/>
  </node>
</osm>
