<?xml version='1.0' encoding='UTF-8'?>
<osm version="0.6" generator="libosmium/2.20.0">
  <node id="88173327" version="3" timestamp="2008-09-06T13:08:25Z" uid="6975" user="ulfl" changeset="548423" lat="47.8222698" lon="16.0346048">
    <tag k="amenity" v="restaurant"/>
    <tag k="name" v="Hochkogelhaus"/>
    <tag k="tourism" v="hotel"/>
  </node>
  <node id="88174120" version="1" timestamp="2007-10-26T18:34:45Z" uid="8931" user="bluepup" changeset="322485" lat="51.7041636" lon="8.7195803">
    <tag k="created_by" v="JOSM"/>
  </node>
  <node id="88174128" version="1" timestamp="2007-10-26T18:34:45Z" uid="8931" user="bluepup" changeset="322485" lat="51.7042446" lon="8.7196608">
    <tag k="created_by" v="JOSM"/>
  </node>
  <node id="88175607" version="3" timestamp="2008-09-14T20:28:48Z" uid="6975" user="ulfl" changeset="640534" lat="47.8437151" lon="16.0286653">
    <tag k="amenity" v="restaurant"/>
    <tag k="name" v="Waldeggerhaus"/>
    <tag k="tourism" v="hotel"/>
  </node>
  <node id="88176884" version="3" timestamp="2008-02-16T19:49:19Z" uid="6975" user="ulfl" changeset="141861" lat="47.8357614" lon="16.0154473">
    <tag k="name" v="Alpin- und Heimatmuseum"/>
    <tag k="tourism" v="museum"/>
  </node>
  <node id="88178333" version="3" timestamp="2008-09-14T20:29:24Z" uid="6975" user="ulfl" changeset="640534" lat="47.830902" lon="16.0143916">
    <tag k="amenity" v="restaurant"/>
    <tag k="name" v="Gasthof Kleine Kanzel"/>
    <tag k="tourism" v="hotel"/>
  </node>
</osm>
