<?xml version='1.0' encoding='UTF-8'?>
<osm version="0.6" generator="libosmium/2.20.0">
  <node id="886201371" version="1" timestamp="2010-08-29T14:45:39Z" uid="6975" user="ulfl" changeset="5626613" lat="49.4407184" lon="11.0868895">
    <tag k="addr:city" v="Nürnberg"/>
    <tag k="addr:country" v="DE"/>
    <tag k="addr:housenumber" v="36"/>
    <tag k="addr:street" v="Wirthstraße"/>
  </node>
  <node id="886201378" version="1" timestamp="2010-08-29T14:45:40Z" uid="6975" user="ulfl" changeset="5626613" lat="49.440172" lon="11.0871264">
    <tag k="addr:city" v="Nürnberg"/>
    <tag k="addr:country" v="DE"/>
    <tag k="addr:housenumber" v="42"/>
    <tag k="addr:street" v="Wirthstraße"/>
  </node>
  <node id="886201385" version="1" timestamp="2010-08-29T14:45:40Z" uid="6975" user="ulfl" changeset="5626613" lat="49.4408974" lon="11.0867202">
    <tag k="addr:city" v="Nürnberg"/>
    <tag k="addr:country" v="DE"/>
    <tag k="addr:housenumber" v="54"/>
    <tag k="addr:street" v="Wölckernstraße"/>
  </node>
  <node id="886201392" version="1" timestamp="2010-08-29T14:45:40Z" uid="6975" user="ulfl" changeset="5626613" lat="49.4401139" lon="11.0868556">
    <tag k="addr:city" v="Nürnberg"/>
    <tag k="addr:country" v="DE"/>
    <tag k="addr:housenumber" v="129"/>
    <tag k="addr:street" v="Humboldtstraße"/>
  </node>
  <node id="886201404" version="1" timestamp="2010-08-29T14:45:41Z" uid="6975" user="ulfl" changeset="5626613" lat="49.4405129" lon="11.0873416">
    <tag k="addr:city" v="Nürnberg"/>
    <tag k="addr:country" v="DE"/>
    <tag k="addr:housenumber" v="39"/>
    <tag k="addr:street" v="Humboldtstraße"/>
  </node>
  <node id="886201410" version="1" timestamp="2010-08-29T14:45:41Z" uid="6975" user="ulfl" changeset="5626613" lat="49.4411513" lon="11.0865679">
    <tag k="addr:city" v="Nürnberg"/>
    <tag k="addr:country" v="DE"/>
    <tag k="addr:housenumber" v="51"/>
    <tag k="addr:street" v="Wölckernstraße"/>
  </node>
  <node id="886201414" version="1" timestamp="2010-08-29T14:45:41Z" uid="6975" user="ulfl" changeset="5626613" lat="49.4409095" lon="11.0867903">
    <tag k="addr:city" v="Nürnberg"/>
    <tag k="addr:country" v="DE"/>
    <tag k="addr:housenumber" v="32"/>
    <tag k="addr:street" v="Wirthstraße"/>
  </node>
  <node id="886201427" version="1" timestamp="2010-08-29T14:45:41Z" uid="6975" user="ulfl" changeset="5626613" lat="49.4405564" lon="11.0869499">
    <tag k="addr:city" v="Nürnberg"/>
    <tag k="addr:country" v="DE"/>
    <tag k="addr:housenumber" v="38"/>
    <tag k="addr:street" v="Wirthstraße"/>
  </node>
  <node id="886201433" version="1" timestamp="2010-08-29T14:45:42Z" uid="6975" user="ulfl" changeset="5626613" lat="49.4408563" lon="11.0872232">
    <tag k="addr:city" v="Nürnberg"/>
    <tag k="addr:country" v="DE"/>
    <tag k="addr:housenumber" v="35"/>
    <tag k="addr:street" v="Humboldtstraße"/>
  </node>
  <node id="886201438" version="1" timestamp="2010-08-29T14:45:42Z" uid="6975" user="ulfl" changeset="5626613" lat="49.4394345" lon="11.0876076">
    <tag k="addr:city" v="Nürnberg"/>
    <tag k="addr:country" v="DE"/>
    <tag k="addr:housenumber" v="50"/>
    <tag k="addr:street" v="Wirthstraße"/>
  </node>
  <node id="886201450" version="1" timestamp="2010-08-29T14:45:42Z" uid="6975" user="ulfl" changeset="5626613" lat="49.439848" lon="11.0872425">
    <tag k="addr:city" v="Nürnberg"/>
    <tag k="addr:country" v="DE"/>
    <tag k="addr:housenumber" v="138"/>
    <tag k="addr:street" v="Humboldtstraße"/>
  </node>
  <node id="886201456" version="1" timestamp="2010-08-29T14:45:42Z" uid="6975" user="ulfl" changeset="5626613" lat="49.4389485" lon="11.0879316">
    <tag k="addr:city" v="Nürnberg"/>
    <tag k="addr:country" v="DE"/>
    <tag k="addr:housenumber" v="58"/>
    <tag k="addr:street" v="Wirthstraße"/>
  </node>
  <node id="886201462" version="1" timestamp="2010-08-29T14:45:42Z" uid="6975" user="ulfl" changeset="5626613" lat="49.439877" lon="11.0874021">
    <tag k="addr:city" v="Nürnberg"/>
    <tag k="addr:country" v="DE"/>
    <tag k="addr:housenumber" v="44"/>
    <tag k="addr:street" v="Wirthstraße"/>
  </node>
  <node id="886201479" version="1" timestamp="2010-08-29T14:45:42Z" uid="6975" user="ulfl" changeset="5626613" lat="49.4390597" lon="11.0882774">
    <tag k="addr:city" v="Nürnberg"/>
    <tag k="addr:country" v="DE"/>
    <tag k="addr:housenumber" v="55"/>
    <tag k="addr:street" v="Wirthstraße"/>
  </node>
  <node id="886201484" version="1" timestamp="2010-08-29T14:45:43Z" uid="6975" user="ulfl" changeset="5626613" lat="49.4398141" lon="11.0878373">
    <tag k="addr:city" v="Nürnberg"/>
    <tag k="addr:country" v="DE"/>
    <tag k="addr:housenumber" v="140"/>
    <tag k="addr:street" v="Humboldtstraße"/>
  </node>
  <node id="886201487" version="1" timestamp="2010-08-29T14:45:43Z" uid="6975" user="ulfl" changeset="5626613" lat="49.4409409" lon="11.0870853">
    <tag k="amenity" v="telephone"/>
  </node>
  <node id="886201490" version="1" timestamp="2010-08-29T14:45:43Z" uid="6975" user="ulfl" changeset="5626613" lat="49.4398262" lon="11.0870708">
    <tag k="addr:city" v="Nürnberg"/>
    <tag k="addr:country" v="DE"/>
    <tag k="addr:housenumber" v="136"/>
    <tag k="addr:street" v="Humboldtstraße"/>
  </node>
  <node id="886201505" version="1" timestamp="2010-08-29T14:45:43Z" uid="6975" user="ulfl" changeset="5626613" lat="49.4391226" lon="11.0882242">
    <tag k="addr:city" v="Nürnberg"/>
    <tag k="addr:country" v="DE"/>
    <tag k="addr:housenumber" v="53"/>
    <tag k="addr:street" v="Wirthstraße"/>
  </node>
  <node id="886201511" version="1" timestamp="2010-08-29T14:45:43Z" uid="6975" user="ulfl" changeset="5626613" lat="49.440143" lon="11.0870176">
    <tag k="addr:city" v="Nürnberg"/>
    <tag k="addr:country" v="DE"/>
    <tag k="addr:housenumber" v="131"/>
    <tag k="addr:street" v="Humboldtstraße"/>
  </node>
</osm>
