<?xml version='1.0' encoding='UTF-8'?>
<osm version="0.6" generator="libosmium/2.20.0">
  <node id="89220173" version="4" timestamp="2011-02-20T14:41:37Z" uid="49111" user="Markus B" changeset="7343258" lat="49.5655972" lon="10.9698592"/>
  <node id="89220182" version="6" timestamp="2011-02-20T14:41:33Z" uid="49111" user="Markus B" changeset="7343258" lat="49.5652782" lon="10.9695722"/>
  <node id="89220190" version="5" timestamp="2011-02-20T14:41:40Z" uid="49111" user="Markus B" changeset="7343258" lat="49.5655046" lon="10.9701138"/>
  <node id="89227320" version="2" timestamp="2007-11-05T15:52:21Z" uid="9581" user="Lobelt" changeset="414873" lat="51.27463" lon="14.3384502">
    <tag k="created_by" v="Potlatch 0.4c"/>
    <tag k="is_in" v="Sachsen, Germany"/>
    <tag k="name" v="Neudorf"/>
    <tag k="place" v="village"/>
  </node>
  <node id="89227320" version="4" timestamp="2007-11-26T15:12:07Z" uid="9581" user="Lobelt" changeset="623243" lat="51.27463" lon="14.3384502">
    <tag k="created_by" v="Potlatch 0.5d"/>
    <tag k="is_in" v="Sachsen, Germany"/>
    <tag k="name" v="Neudorf"/>
    <tag k="place" v="village"/>
  </node>
  <node id="89227700" version="2" timestamp="2007-11-05T15:53:27Z" uid="9581" user="Lobelt" changeset="414873" lat="51.2664677" lon="14.3343303">
    <tag k="created_by" v="Potlatch 0.4c"/>
    <tag k="is_in" v="Sachsen, Germany"/>
    <tag k="name" v="Neschwitz"/>
    <tag k="place" v="village"/>
  </node>
  <node id="89227700" version="4" timestamp="2007-11-26T15:12:04Z" uid="9581" user="Lobelt" changeset="623243" lat="51.2702859" lon="14.3277986">
    <tag k="created_by" v="Potlatch 0.5d"/>
    <tag k="is_in" v="Sachsen, Germany"/>
    <tag k="name" v="Neschwitz"/>
    <tag k="place" v="village"/>
  </node>
  <node id="89229303" version="2" timestamp="2008-07-03T00:01:23Z" uid="6975" user="ulfl" changeset="377243" lat="48.8304784" lon="9.170318">
    <tag k="brand" v="Renault"/>
    <tag k="shop" v="car"/>
  </node>
</osm>
