<?xml version='1.0' encoding='UTF-8'?>
<osm version="0.6" generator="libosmium/2.20.0">
  <node id="897900567" version="1" timestamp="2010-09-05T19:28:01Z" uid="6269" user="Mueck" changeset="5691028" lat="48.9139109" lon="8.3071475"/>
  <node id="897900571" version="1" timestamp="2010-09-05T19:28:01Z" uid="6269" user="Mueck" changeset="5691028" lat="48.9138933" lon="8.3071046"/>
  <node id="897900576" version="1" timestamp="2010-09-05T19:28:01Z" uid="6269" user="Mueck" changeset="5691028" lat="48.9139215" lon="8.3070778"/>
  <node id="897900581" version="1" timestamp="2010-09-05T19:28:02Z" uid="6269" user="Mueck" changeset="5691028" lat="48.9139497" lon="8.3071207"/>
  <node id="897900581" version="2" timestamp="2010-09-05T19:28:07Z" uid="6269" user="Mueck" changeset="5691028" lat="48.9139391" lon="8.307126"/>
  <node id="897901392" version="1" timestamp="2010-09-05T19:28:28Z" uid="143719" user="DarkoS" changeset="5691601" lat="45.6056237" lon="15.8385189"/>
  <node id="897901419" version="1" timestamp="2010-09-05T19:28:28Z" uid="143719" user="DarkoS" changeset="5691601" lat="45.8065171" lon="16.1659298">
    <tag k="aeroway" v="navigationaid"/>
    <tag k="complete" v="no"/>
    <tag k="frequency" v="350"/>
    <tag k="name" v="SK"/>
    <tag k="type" v="NDB"/>
  </node>
  <node id="897901419" version="2" timestamp="2010-09-05T19:32:49Z" uid="143719" user="DarkoS" changeset="5691649" lat="45.8065171" lon="16.1659298">
    <tag k="aeroway" v="navigationaid"/>
    <tag k="complete" v="no"/>
    <tag k="frequency" v="350"/>
    <tag k="name" v="SK"/>
    <tag k="type" v="ndb"/>
  </node>
  <node id="897901419" version="3" timestamp="2010-09-05T19:39:29Z" uid="143719" user="DarkoS" changeset="5691707" lat="45.8065171" lon="16.1659298">
    <tag k="aeroway" v="navigationaid"/>
    <tag k="complete" v="no"/>
    <tag k="frequency" v="350"/>
    <tag k="name" v="SK"/>
    <tag k="type" v="NDB"/>
  </node>
  <node id="897901419" version="4" timestamp="2010-10-10T17:40:57Z" uid="143719" user="DarkoS" changeset="6004584" lat="45.8058962" lon="16.1645929">
    <tag k="aeroway" v="navigationaid"/>
    <tag k="complete" v="no"/>
    <tag k="frequency" v="350"/>
    <tag k="name" v="SK"/>
    <tag k="type" v="NDB"/>
  </node>
  <node id="897901436" version="1" timestamp="2010-09-05T19:28:29Z" uid="143719" user="DarkoS" changeset="5691601" lat="45.6043196" lon="15.8424967"/>
  <node id="897901440" version="1" timestamp="2010-09-05T19:28:29Z" uid="143719" user="DarkoS" changeset="5691601" lat="45.8999806" lon="16.3113749">
    <tag k="aeroway" v="navigationaid"/>
    <tag k="complete" v="no"/>
    <tag k="frequency" v="367"/>
    <tag k="name" v="ZAG"/>
    <tag k="type" v="NDB"/>
  </node>
  <node id="897901440" version="2" timestamp="2010-09-05T19:32:49Z" uid="143719" user="DarkoS" changeset="5691649" lat="45.8999806" lon="16.3113749">
    <tag k="aeroway" v="navigationaid"/>
    <tag k="complete" v="no"/>
    <tag k="frequency" v="367"/>
    <tag k="name" v="ZAG"/>
    <tag k="type" v="ndb"/>
  </node>
  <node id="897901440" version="3" timestamp="2010-09-05T19:39:29Z" uid="143719" user="DarkoS" changeset="5691707" lat="45.8999806" lon="16.3113749">
    <tag k="aeroway" v="navigationaid"/>
    <tag k="complete" v="no"/>
    <tag k="frequency" v="367"/>
    <tag k="name" v="ZAG"/>
    <tag k="type" v="NDB"/>
  </node>
  <node id="897901452" version="1" timestamp="2010-09-05T19:28:29Z" uid="143719" user="DarkoS" changeset="5691601" lat="45.8970038" lon="16.307014">
    <tag k="aeroway" v="navigationaid"/>
    <tag k="complete" v="no"/>
    <tag k="frequency" v="113,7"/>
    <tag k="name" v="ZAG"/>
    <tag k="type" v="VOR"/>
  </node>
  <node id="897901452" version="2" timestamp="2010-09-05T19:32:48Z" uid="143719" user="DarkoS" changeset="5691649" lat="45.8970038" lon="16.307014">
    <tag k="aeroway" v="navigationaid"/>
    <tag k="complete" v="no"/>
    <tag k="frequency" v="113,7"/>
    <tag k="name" v="ZAG"/>
    <tag k="type" v="vor/dme"/>
  </node>
  <node id="897901452" version="3" timestamp="2010-09-05T19:39:30Z" uid="143719" user="DarkoS" changeset="5691707" lat="45.8970038" lon="16.307014">
    <tag k="aeroway" v="navigationaid"/>
    <tag k="complete" v="no"/>
    <tag k="frequency" v="113,7"/>
    <tag k="name" v="ZAG"/>
    <tag k="type" v="VOR/DME"/>
  </node>
  <node id="897901452" version="4" timestamp="2010-10-10T17:40:56Z" uid="143719" user="DarkoS" changeset="6004584" lat="45.8954707" lon="16.3068304">
    <tag k="aeroway" v="navigationaid"/>
    <tag k="complete" v="no"/>
    <tag k="frequency" v="113,7"/>
    <tag k="name" v="ZAG"/>
    <tag k="type" v="VOR/DME"/>
  </node>
  <node id="897901474" version="1" timestamp="2010-09-05T19:28:30Z" uid="143719" user="DarkoS" changeset="5691601" lat="45.6044452" lon="15.8402876"/>
  <node id="897901480" version="1" timestamp="2010-09-05T19:28:30Z" uid="143719" user="DarkoS" changeset="5691601" lat="45.6048018" lon="15.8425765">
    <tag k="aeroway" v="navigationaid"/>
    <tag k="frequency" v="424"/>
    <tag k="name" v="PIS"/>
    <tag k="type" v="NDB"/>
  </node>
  <node id="897901480" version="2" timestamp="2010-09-05T19:29:03Z" uid="143719" user="DarkoS" changeset="5691611" lat="45.6048018" lon="15.8425765">
    <tag k="aeroway" v="navigationaid"/>
    <tag k="complete" v="no"/>
    <tag k="frequency" v="424"/>
    <tag k="name" v="PIS"/>
    <tag k="type" v="NDB"/>
  </node>
  <node id="897901480" version="3" timestamp="2010-09-05T19:32:49Z" uid="143719" user="DarkoS" changeset="5691649" lat="45.6048018" lon="15.8425765">
    <tag k="aeroway" v="navigationaid"/>
    <tag k="complete" v="no"/>
    <tag k="frequency" v="424"/>
    <tag k="name" v="PIS"/>
    <tag k="type" v="ndb"/>
  </node>
  <node id="897901480" version="4" timestamp="2010-09-05T19:39:29Z" uid="143719" user="DarkoS" changeset="5691707" lat="45.6048018" lon="15.8425765">
    <tag k="aeroway" v="navigationaid"/>
    <tag k="complete" v="no"/>
    <tag k="frequency" v="424"/>
    <tag k="name" v="PIS"/>
    <tag k="type" v="NDB"/>
  </node>
  <node id="897901480" version="5" timestamp="2010-10-10T17:40:57Z" uid="143719" user="DarkoS" changeset="6004584" lat="45.605202" lon="15.8438">
    <tag k="aeroway" v="navigationaid"/>
    <tag k="complete" v="no"/>
    <tag k="frequency" v="424"/>
    <tag k="name" v="PIS"/>
    <tag k="type" v="NDB"/>
  </node>
  <node id="897901497" version="1" timestamp="2010-09-05T19:28:30Z" uid="143719" user="DarkoS" changeset="5691601" lat="45.7254769" lon="16.0421958">
    <tag k="aeroway" v="navigationaid"/>
    <tag k="complete" v="no"/>
    <tag k="frequency" v="325"/>
    <tag k="name" v="VG"/>
    <tag k="type" v="NDB"/>
  </node>
  <node id="897901497" version="2" timestamp="2010-09-05T19:32:48Z" uid="143719" user="DarkoS" changeset="5691649" lat="45.7254769" lon="16.0421958">
    <tag k="aeroway" v="navigationaid"/>
    <tag k="complete" v="no"/>
    <tag k="frequency" v="325"/>
    <tag k="name" v="VG"/>
    <tag k="type" v="ndb"/>
  </node>
  <node id="897901497" version="3" timestamp="2010-09-05T19:39:29Z" uid="143719" user="DarkoS" changeset="5691707" lat="45.7254769" lon="16.0421958">
    <tag k="aeroway" v="navigationaid"/>
    <tag k="complete" v="no"/>
    <tag k="frequency" v="325"/>
    <tag k="name" v="VG"/>
    <tag k="type" v="NDB"/>
  </node>
  <node id="897901497" version="4" timestamp="2010-12-05T17:56:46Z" uid="143719" user="DarkoS" changeset="6554179" lat="45.7254769" lon="16.0421958">
    <tag k="aeroway" v="navigationaid"/>
    <tag k="complete" v="no"/>
    <tag k="frequency" v="325"/>
    <tag k="name" v="VG;MM050"/>
    <tag k="type" v="NDB;MM"/>
  </node>
  <node id="897901522" version="1" timestamp="2010-09-05T19:28:30Z" uid="143719" user="DarkoS" changeset="5691601" lat="45.6059073" lon="15.8444709"/>
  <node id="897902263" version="1" timestamp="2010-09-05T19:28:51Z" uid="6269" user="Mueck" changeset="5691028" lat="48.9176557" lon="8.3103312"/>
  <node id="897902868" version="1" timestamp="2010-09-05T19:29:11Z" uid="6269" user="Mueck" changeset="5691028" lat="48.9182611" lon="8.3098458"/>
  <node id="897902871" version="1" timestamp="2010-09-05T19:29:11Z" uid="6269" user="Mueck" changeset="5691028" lat="48.9189949" lon="8.3115216"/>
  <node id="897903155" version="1" timestamp="2010-09-05T19:29:22Z" uid="6269" user="Mueck" changeset="5691028" lat="48.9172628" lon="8.309428"/>
  <node id="897903991" version="1" timestamp="2010-09-05T19:29:58Z" uid="6269" user="Mueck" changeset="5691028" lat="48.9178381" lon="8.308966"/>
  <node id="897904282" version="1" timestamp="2010-09-05T19:30:07Z" uid="6269" user="Mueck" changeset="5691028" lat="48.9178099" lon="8.3090948">
    <tag k="amenity" v="hunting_stand"/>
  </node>
  <node id="897904692" version="1" timestamp="2010-09-05T19:30:18Z" uid="6269" user="Mueck" changeset="5691028" lat="48.9182329" lon="8.309996">
    <tag k="amenity" v="hunting_stand"/>
  </node>
  <node id="897907480" version="1" timestamp="2010-09-05T19:31:33Z" uid="6269" user="Mueck" changeset="5691028" lat="48.9123668" lon="8.3141803"/>
  <node id="897907483" version="1" timestamp="2010-09-05T19:31:33Z" uid="6269" user="Mueck" changeset="5691028" lat="48.9121411" lon="8.3145879"/>
  <node id="897909156" version="1" timestamp="2010-09-05T19:32:15Z" uid="6269" user="Mueck" changeset="5691028" lat="48.9175352" lon="8.3209741"/>
</osm>
