<?xml version='1.0' encoding='UTF-8'?>
<osm version="0.6" generator="libosmium/2.20.0">
  <node id="903647475" version="3" timestamp="2011-01-29T06:31:17Z" uid="4467" user="Rosscoe" changeset="7119367" lat="-34.9021202" lon="138.4897448">
    <tag k="drive_through" v="yes"/>
    <tag k="shop" v="alcohol"/>
  </node>
  <node id="903648574" version="2" timestamp="2011-02-07T11:59:56Z" uid="4467" user="Rosscoe" changeset="7215161" lat="-37.5909901" lon="143.8667116">
    <tag k="addr:housenumber" v="922"/>
    <tag k="addr:street" v="Ballarat-Buninyong Road"/>
  </node>
  <node id="903648575" version="2" timestamp="2011-02-07T11:59:38Z" uid="4467" user="Rosscoe" changeset="7215161" lat="-37.5928587" lon="143.8676431">
    <tag k="addr:housenumber" v="933"/>
    <tag k="addr:street" v="Ballarat-Buninyong Road"/>
  </node>
  <node id="903648576" version="2" timestamp="2011-02-07T11:59:55Z" uid="4467" user="Rosscoe" changeset="7215161" lat="-37.5934441" lon="143.8670445">
    <tag k="addr:housenumber" v="952"/>
    <tag k="addr:street" v="Ballarat-Buninyong Road"/>
  </node>
  <node id="903648577" version="2" timestamp="2011-02-07T11:59:36Z" uid="4467" user="Rosscoe" changeset="7215161" lat="-37.5903397" lon="143.8669408"/>
  <node id="903648578" version="2" timestamp="2011-02-07T11:59:48Z" uid="4467" user="Rosscoe" changeset="7215161" lat="-37.5920072" lon="143.8668108">
    <tag k="addr:housenumber" v="934"/>
    <tag k="addr:street" v="Ballarat-Buninyong Road"/>
  </node>
  <node id="903648579" version="2" timestamp="2011-02-07T11:59:28Z" uid="4467" user="Rosscoe" changeset="7215161" lat="-37.5919806" lon="143.8674861">
    <tag k="addr:housenumber" v="927"/>
    <tag k="addr:street" v="Ballarat-Buninyong Road"/>
  </node>
  <node id="903648581" version="2" timestamp="2011-02-07T12:00:08Z" uid="4467" user="Rosscoe" changeset="7215161" lat="-37.5905433" lon="143.8666927">
    <tag k="addr:housenumber" v="920"/>
    <tag k="addr:street" v="Ballarat-Buninyong Road"/>
  </node>
  <node id="903648583" version="2" timestamp="2011-02-07T12:00:00Z" uid="4467" user="Rosscoe" changeset="7215161" lat="-37.5916033" lon="143.8667494">
    <tag k="addr:housenumber" v="930"/>
    <tag k="addr:street" v="Ballarat-Buninyong Road"/>
  </node>
  <node id="903648585" version="2" timestamp="2011-02-07T12:00:05Z" uid="4467" user="Rosscoe" changeset="7215161" lat="-37.5926454" lon="143.8668837">
    <tag k="addr:housenumber" v="940"/>
    <tag k="addr:street" v="Ballarat-Buninyong Road"/>
  </node>
  <node id="903648588" version="2" timestamp="2011-02-07T12:00:09Z" uid="4467" user="Rosscoe" changeset="7215161" lat="-37.5918385" lon="143.8667871">
    <tag k="addr:housenumber" v="932"/>
    <tag k="addr:street" v="Ballarat-Buninyong Road"/>
  </node>
  <node id="903648590" version="2" timestamp="2011-02-07T12:00:02Z" uid="4467" user="Rosscoe" changeset="7215161" lat="-37.5916921" lon="143.8674319">
    <tag k="addr:housenumber" v="925"/>
    <tag k="addr:street" v="Ballarat-Buninyong Road"/>
  </node>
  <node id="903648592" version="2" timestamp="2011-02-07T12:00:07Z" uid="4467" user="Rosscoe" changeset="7215161" lat="-37.5903448" lon="143.8666522">
    <tag k="addr:housenumber" v="918"/>
    <tag k="addr:street" v="Ballarat-Buninyong Road"/>
  </node>
  <node id="903648593" version="2" timestamp="2011-02-07T11:59:45Z" uid="4467" user="Rosscoe" changeset="7215161" lat="-37.5914401" lon="143.8667257">
    <tag k="addr:housenumber" v="928"/>
    <tag k="addr:street" v="Ballarat-Buninyong Road"/>
  </node>
  <node id="903648597" version="2" timestamp="2011-02-07T11:59:31Z" uid="4467" user="Rosscoe" changeset="7215161" lat="-37.5898997" lon="143.8665803">
    <tag k="addr:housenumber" v="914"/>
    <tag k="addr:street" v="Ballarat-Buninyong Road"/>
  </node>
  <node id="903648598" version="2" timestamp="2011-02-07T11:59:43Z" uid="4467" user="Rosscoe" changeset="7215161" lat="-37.5914746" lon="143.8673989">
    <tag k="addr:housenumber" v="923"/>
    <tag k="addr:street" v="Ballarat-Buninyong Road"/>
  </node>
  <node id="903648599" version="2" timestamp="2011-02-07T12:00:10Z" uid="4467" user="Rosscoe" changeset="7215161" lat="-37.5901201" lon="143.8666119">
    <tag k="addr:housenumber" v="916"/>
    <tag k="addr:street" v="Ballarat-Buninyong Road"/>
  </node>
  <node id="903648600" version="2" timestamp="2011-02-07T11:59:48Z" uid="4467" user="Rosscoe" changeset="7215161" lat="-37.5913159" lon="143.8667089">
    <tag k="addr:housenumber" v="926"/>
    <tag k="addr:street" v="Ballarat-Buninyong Road"/>
  </node>
  <node id="903648602" version="2" timestamp="2011-02-07T11:59:41Z" uid="4467" user="Rosscoe" changeset="7215161" lat="-37.5910983" lon="143.867354">
    <tag k="addr:housenumber" v="919"/>
    <tag k="addr:street" v="Ballarat-Buninyong Road"/>
  </node>
  <node id="903648604" version="2" timestamp="2011-02-07T11:59:35Z" uid="4467" user="Rosscoe" changeset="7215161" lat="-37.5896681" lon="143.8665365">
    <tag k="addr:housenumber" v="912"/>
    <tag k="addr:street" v="Ballarat-Buninyong Road"/>
  </node>
  <node id="903648605" version="2" timestamp="2011-02-07T11:59:59Z" uid="4467" user="Rosscoe" changeset="7215161" lat="-37.5912865" lon="143.8673765">
    <tag k="addr:housenumber" v="921"/>
    <tag k="addr:street" v="Ballarat-Buninyong Road"/>
  </node>
  <node id="903648606" version="2" timestamp="2011-02-07T12:00:12Z" uid="4467" user="Rosscoe" changeset="7215161" lat="-37.592336" lon="143.8675257">
    <tag k="addr:housenumber" v="931"/>
    <tag k="addr:street" v="Ballarat-Buninyong Road"/>
  </node>
  <node id="903648607" version="2" timestamp="2011-02-07T11:59:53Z" uid="4467" user="Rosscoe" changeset="7215161" lat="-37.5911639" lon="143.8666992">
    <tag k="addr:housenumber" v="924"/>
    <tag k="addr:street" v="Ballarat-Buninyong Road"/>
  </node>
  <node id="903648609" version="2" timestamp="2011-02-07T12:00:01Z" uid="4467" user="Rosscoe" changeset="7215161" lat="-37.5909102" lon="143.8673315">
    <tag k="addr:housenumber" v="917"/>
    <tag k="addr:street" v="Ballarat-Buninyong Road"/>
  </node>
  <node id="903648611" version="2" timestamp="2011-02-07T11:59:54Z" uid="4467" user="Rosscoe" changeset="7215161" lat="-37.5893207" lon="143.8667813"/>
  <node id="903648613" version="2" timestamp="2011-02-07T11:59:46Z" uid="4467" user="Rosscoe" changeset="7215161" lat="-37.5933198" lon="143.8670278">
    <tag k="addr:housenumber" v="950"/>
    <tag k="addr:street" v="Ballarat-Buninyong Road"/>
  </node>
  <node id="903648615" version="2" timestamp="2011-02-07T11:59:39Z" uid="4467" user="Rosscoe" changeset="7215161" lat="-37.5895558" lon="143.8665658">
    <tag k="addr:housenumber" v="910"/>
    <tag k="addr:street" v="Ballarat-Buninyong Road"/>
  </node>
  <node id="903648619" version="2" timestamp="2011-02-07T11:59:37Z" uid="4467" user="Rosscoe" changeset="7215161" lat="-37.5921186" lon="143.8674979">
    <tag k="addr:housenumber" v="929"/>
    <tag k="addr:street" v="Ballarat-Buninyong Road"/>
  </node>
  <node id="903648621" version="2" timestamp="2011-02-07T11:59:28Z" uid="4467" user="Rosscoe" changeset="7215161" lat="-37.5930546" lon="143.8669874">
    <tag k="addr:housenumber" v="946"/>
    <tag k="addr:street" v="Ballarat-Buninyong Road"/>
  </node>
  <node id="903648624" version="2" timestamp="2011-02-07T11:59:44Z" uid="4467" user="Rosscoe" changeset="7215161" lat="-37.5924878" lon="143.866867">
    <tag k="addr:housenumber" v="938"/>
    <tag k="addr:street" v="Ballarat-Buninyong Road"/>
  </node>
  <node id="903648630" version="2" timestamp="2011-02-07T12:00:09Z" uid="4467" user="Rosscoe" changeset="7215161" lat="-37.5931789" lon="143.8669971">
    <tag k="addr:housenumber" v="948"/>
    <tag k="addr:street" v="Ballarat-Buninyong Road"/>
  </node>
  <node id="903648632" version="2" timestamp="2011-02-07T12:00:12Z" uid="4467" user="Rosscoe" changeset="7215161" lat="-37.5893402" lon="143.8665269">
    <tag k="addr:housenumber" v="908"/>
    <tag k="addr:street" v="Ballarat-Buninyong Road"/>
  </node>
  <node id="903648633" version="2" timestamp="2011-02-07T11:59:53Z" uid="4467" user="Rosscoe" changeset="7215161" lat="-37.5928939" lon="143.8669452">
    <tag k="addr:housenumber" v="944"/>
    <tag k="addr:street" v="Ballarat-Buninyong Road"/>
  </node>
  <node id="903648634" version="2" timestamp="2011-02-07T12:00:07Z" uid="4467" user="Rosscoe" changeset="7215161" lat="-37.5922802" lon="143.8668433">
    <tag k="addr:housenumber" v="936"/>
    <tag k="addr:street" v="Ballarat-Buninyong Road"/>
  </node>
</osm>
