<?xml version='1.0' encoding='UTF-8'?>
<osm version="0.6" generator="libosmium/2.20.0">
  <node id="904320471" version="1" timestamp="2010-09-09T18:25:39Z" uid="43967" user="railsnail" changeset="5735034" lat="41.0573579" lon="17.0806601">
    <tag k="name" v="Mola di Bari"/>
    <tag k="railway" v="station"/>
  </node>
  <node id="904324994" version="1" timestamp="2010-09-09T18:33:24Z" uid="43967" user="railsnail" changeset="5735085" lat="41.3497243" lon="16.0903781">
    <tag k="name" v="Trinitapoli S. Fernando di Puglia"/>
    <tag k="railway" v="station"/>
  </node>
  <node id="904329096" version="1" timestamp="2010-09-09T18:36:30Z" uid="115477" user="wowik" changeset="5735103" lat="54.9496145" lon="20.4403002">
    <tag k="name" v="Малиновка"/>
    <tag k="railway" v="halt"/>
  </node>
  <node id="904329096" version="2" timestamp="2010-09-15T09:21:29Z" uid="115477" user="wowik" changeset="5784864" lat="54.9496145" lon="20.4403002">
    <tag k="name" v="Малиновка"/>
    <tag k="railway" v="halt"/>
  </node>
  <node id="904329099" version="1" timestamp="2010-09-09T18:36:30Z" uid="115477" user="wowik" changeset="5735103" lat="54.9400398" lon="20.399283">
    <tag k="alt_name" v="Сокольники-2"/>
    <tag k="name" v="Сокольники"/>
    <tag k="railway" v="halt"/>
  </node>
  <node id="904329099" version="2" timestamp="2010-09-15T09:21:29Z" uid="115477" user="wowik" changeset="5784864" lat="54.9400398" lon="20.399283">
    <tag k="alt_name" v="Сокольники-2"/>
    <tag k="name" v="Сокольники"/>
    <tag k="railway" v="halt"/>
  </node>
  <node id="904329569" version="1" timestamp="2010-09-09T18:36:51Z" uid="43967" user="railsnail" changeset="5735109" lat="41.3504926" lon="15.7319022">
    <tag k="name" v="Orta Nova"/>
    <tag k="railway" v="station"/>
  </node>
  <node id="904329576" version="1" timestamp="2010-09-09T18:36:51Z" uid="43967" user="railsnail" changeset="5735109" lat="41.4083231" lon="15.6504447">
    <tag k="name" v="Incoronata"/>
    <tag k="railway" v="station"/>
  </node>
</osm>
