<?xml version='1.0' encoding='UTF-8'?>
<osm version="0.6" generator="libosmium/2.20.0">
  <node id="904570039" version="2" timestamp="2011-04-20T11:18:29Z" uid="115477" user="wowik" changeset="7915124" lat="55.7563163" lon="37.5890497">
    <tag k="addr:city" v="Москва"/>
    <tag k="addr:country" v="RU"/>
    <tag k="addr:housenumber" v="27"/>
    <tag k="addr:postcode" v="121069"/>
    <tag k="addr:street" v="Поварская улица"/>
    <tag k="building" v="yes"/>
    <tag k="cladr:code" v="77000000000701300"/>
    <tag k="historic" v="heritage"/>
    <tag k="name" v="Дом Шереметьевых"/>
    <tag k="tourism" v="attraction"/>
  </node>
  <node id="904573347" version="1" timestamp="2010-09-09T21:39:23Z" uid="59758" user="rendle" changeset="5736654" lat="51.0688156" lon="4.0320922">
    <tag k="name" v="Albo"/>
    <tag k="shop" v="doityourself"/>
  </node>
  <node id="904576787" version="1" timestamp="2010-09-09T21:41:39Z" uid="59758" user="rendle" changeset="5736654" lat="51.066257" lon="4.0342823">
    <tag k="amenity" v="fast_food"/>
    <tag k="name" v="Melisa"/>
  </node>
  <node id="904577000" version="1" timestamp="2010-09-09T21:42:03Z" uid="59758" user="rendle" changeset="5736654" lat="51.0663312" lon="4.0345921">
    <tag k="name" v="Purly"/>
    <tag k="shop" v="fashion"/>
  </node>
  <node id="904577132" version="1" timestamp="2010-09-09T21:42:29Z" uid="59758" user="rendle" changeset="5736654" lat="51.0664829" lon="4.0342863">
    <tag k="name" v="Nicky"/>
    <tag k="shop" v="fashion"/>
  </node>
  <node id="904577312" version="1" timestamp="2010-09-09T21:42:43Z" uid="59758" user="rendle" changeset="5736654" lat="51.0669245" lon="4.0333282">
    <tag k="amenity" v="parking"/>
  </node>
  <node id="904578941" version="5" timestamp="2010-10-30T00:18:41Z" uid="34428" user="usm78-gis" changeset="6223524" lat="60.1971527" lon="29.2633899">
    <tag k="name" v="Местерьярви"/>
    <tag k="name:fi" v="Mesterjärvi"/>
    <tag k="railway" v="halt"/>
  </node>
</osm>
