<?xml version='1.0' encoding='UTF-8'?>
<osm version="0.6" generator="libosmium/2.20.0">
  <node id="90524807" version="6" timestamp="2008-02-16T19:37:59Z" uid="6975" user="ulfl" changeset="141861" lat="49.8583664" lon="8.4374965">
    <tag k="highway" v="bus_stop"/>
  </node>
  <node id="90529210" version="6" timestamp="2010-08-23T13:33:36Z" uid="20587" user="balrog-kun" changeset="5570620" lat="33.8556347" lon="72.395502">
    <tag k="is_in" v="Pakistan, NWFP"/>
    <tag k="is_in:country" v="Pakistan"/>
    <tag k="is_in:state" v="North West Frontier Province"/>
    <tag k="name" v="Kamra"/>
    <tag k="place" v="town"/>
    <tag k="wikipedia" v="http://en.wikipedia.org/wiki/Kamra"/>
  </node>
  <node id="90529210" version="7" timestamp="2010-08-23T16:36:16Z" uid="123700" user="Mala" changeset="5572369" lat="33.8560901" lon="72.3941358">
    <tag k="is_in" v="Pakistan, NWFP"/>
    <tag k="is_in:country" v="Pakistan"/>
    <tag k="is_in:state" v="North West Frontier Province"/>
    <tag k="name" v="Kamra"/>
    <tag k="place" v="town"/>
    <tag k="wikipedia" v="http://en.wikipedia.org/wiki/Kamra"/>
  </node>
</osm>
