<?xml version='1.0' encoding='UTF-8'?>
<osm version="0.6" generator="libosmium/2.20.0">
  <node id="913113514" version="5" timestamp="2011-01-20T19:14:09Z" uid="115477" user="wowik" changeset="7033529" lat="55.9841319" lon="37.1550602"/>
  <node id="913113514" version="6" timestamp="2011-01-21T19:29:40Z" uid="115477" user="wowik" changeset="7043561" lat="55.9841726" lon="37.1549148"/>
  <node id="913114853" version="1" timestamp="2010-09-15T08:25:21Z" uid="43967" user="railsnail" changeset="5784699" lat="46.4867724" lon="11.8155445"/>
  <node id="913114855" version="1" timestamp="2010-09-15T08:25:21Z" uid="43967" user="railsnail" changeset="5784699" lat="46.4869462" lon="11.8157568"/>
  <node id="913114856" version="1" timestamp="2010-09-15T08:25:21Z" uid="43967" user="railsnail" changeset="5784699" lat="46.4868698" lon="11.8156011"/>
  <node id="913114857" version="1" timestamp="2010-09-15T08:25:21Z" uid="43967" user="railsnail" changeset="5784699" lat="46.4869657" lon="11.8158865"/>
  <node id="913114859" version="1" timestamp="2010-09-15T08:25:21Z" uid="43967" user="railsnail" changeset="5784699" lat="46.4868974" lon="11.8161908"/>
  <node id="913114862" version="1" timestamp="2010-09-15T08:25:22Z" uid="43967" user="railsnail" changeset="5784699" lat="46.4865225" lon="11.8155484"/>
  <node id="913114884" version="1" timestamp="2010-09-15T08:25:22Z" uid="43967" user="railsnail" changeset="5784699" lat="46.4867123" lon="11.8155186"/>
  <node id="913114885" version="1" timestamp="2010-09-15T08:25:22Z" uid="43967" user="railsnail" changeset="5784699" lat="46.4868309" lon="11.8155681"/>
  <node id="913114886" version="1" timestamp="2010-09-15T08:25:22Z" uid="43967" user="railsnail" changeset="5784699" lat="46.4869705" lon="11.8158181"/>
  <node id="913114887" version="1" timestamp="2010-09-15T08:25:22Z" uid="43967" user="railsnail" changeset="5784699" lat="46.4869234" lon="11.8156907"/>
  <node id="913114888" version="1" timestamp="2010-09-15T08:25:22Z" uid="43967" user="railsnail" changeset="5784699" lat="46.4869397" lon="11.8160422"/>
  <node id="913114889" version="1" timestamp="2010-09-15T08:25:22Z" uid="43967" user="railsnail" changeset="5784699" lat="46.486636" lon="11.8155186"/>
  <node id="913115944" version="2" timestamp="2011-01-18T13:30:31Z" uid="115477" user="wowik" changeset="7010451" lat="55.9925475" lon="37.1878274"/>
  <node id="913115945" version="2" timestamp="2011-01-18T13:30:56Z" uid="115477" user="wowik" changeset="7010451" lat="55.9919426" lon="37.187284"/>
  <node id="913115946" version="2" timestamp="2011-01-18T13:30:50Z" uid="115477" user="wowik" changeset="7010451" lat="55.9917941" lon="37.1873629">
    <tag k="barrier" v="lift_gate"/>
  </node>
  <node id="913115954" version="2" timestamp="2011-01-18T13:30:40Z" uid="115477" user="wowik" changeset="7010451" lat="55.99183" lon="37.1883191"/>
  <node id="913115956" version="2" timestamp="2011-01-18T13:30:48Z" uid="115477" user="wowik" changeset="7010451" lat="55.9923211" lon="37.1887306"/>
  <node id="913115962" version="2" timestamp="2011-01-18T13:30:29Z" uid="115477" user="wowik" changeset="7010451" lat="55.9919953" lon="37.1875239">
    <tag k="barrier" v="gate"/>
  </node>
  <node id="913115964" version="2" timestamp="2011-01-18T13:30:39Z" uid="115477" user="wowik" changeset="7010451" lat="55.9920312" lon="37.1875564">
    <tag k="barrier" v="gate"/>
  </node>
  <node id="913115976" version="3" timestamp="2011-01-20T19:14:35Z" uid="115477" user="wowik" changeset="7033529" lat="55.9837931" lon="37.1469971"/>
  <node id="913115976" version="4" timestamp="2011-01-21T19:30:20Z" uid="115477" user="wowik" changeset="7043561" lat="55.983821" lon="37.1469971"/>
  <node id="913115976" version="5" timestamp="2011-01-24T11:26:50Z" uid="115477" user="wowik" changeset="7071932" lat="55.9837928" lon="37.1469818"/>
  <node id="913115976" version="6" timestamp="2011-01-24T12:09:30Z" uid="115477" user="wowik" changeset="7072295" lat="55.9838218" lon="37.146916"/>
  <node id="913115979" version="3" timestamp="2011-01-20T19:13:04Z" uid="115477" user="wowik" changeset="7033529" lat="55.9837354" lon="37.1464782">
    <tag k="highway" v="crossing"/>
  </node>
  <node id="913115979" version="4" timestamp="2011-01-24T12:09:30Z" uid="115477" user="wowik" changeset="7072295" lat="55.9837733" lon="37.1464563">
    <tag k="highway" v="crossing"/>
  </node>
  <node id="913115979" version="5" timestamp="2011-01-24T12:15:09Z" uid="115477" user="wowik" changeset="7072337" lat="55.9837733" lon="37.1464557">
    <tag k="highway" v="crossing"/>
  </node>
  <node id="913115979" version="6" timestamp="2011-01-25T06:20:48Z" uid="115477" user="wowik" changeset="7080606" lat="55.9837733" lon="37.1464557">
    <tag k="highway" v="crossing"/>
  </node>
  <node id="913115985" version="4" timestamp="2011-01-21T19:30:59Z" uid="115477" user="wowik" changeset="7043561" lat="55.9832879" lon="37.1466437">
    <tag k="highway" v="crossing"/>
  </node>
  <node id="913115985" version="5" timestamp="2011-01-24T11:26:47Z" uid="115477" user="wowik" changeset="7071932" lat="55.9832879" lon="37.1466437">
    <tag k="highway" v="crossing"/>
  </node>
  <node id="913115985" version="6" timestamp="2011-01-24T12:09:22Z" uid="115477" user="wowik" changeset="7072295" lat="55.9833554" lon="37.1466183">
    <tag k="highway" v="crossing"/>
  </node>
  <node id="913115985" version="7" timestamp="2011-01-24T12:15:05Z" uid="115477" user="wowik" changeset="7072337" lat="55.9833377" lon="37.1466026">
    <tag k="highway" v="crossing"/>
  </node>
  <node id="913116155" version="1" timestamp="2010-09-15T08:32:21Z" uid="7617" user="Franc" changeset="5784757" lat="-33.883785" lon="151.1816282"/>
  <node id="913116155" version="2" timestamp="2011-06-10T22:09:51Z" uid="7617" user="Franc" changeset="8401446" lat="-33.8837679" lon="151.1816385"/>
  <node id="913116157" version="1" timestamp="2010-09-15T08:32:21Z" uid="7617" user="Franc" changeset="5784757" lat="-33.9135429" lon="151.1584843">
    <tag k="addr:housenumber" v="4"/>
    <tag k="addr:street" v="Calvert Street"/>
    <tag k="source" v="extrapolation"/>
  </node>
  <node id="913116157" version="2" timestamp="2011-04-30T22:18:51Z" uid="7617" user="Franc" changeset="8016514" lat="-33.9135332" lon="151.1584902">
    <tag k="addr:housenumber" v="4"/>
    <tag k="addr:street" v="Calvert Street"/>
    <tag k="source" v="extrapolation"/>
  </node>
  <node id="913116162" version="1" timestamp="2010-09-15T08:32:21Z" uid="7617" user="Franc" changeset="5784757" lat="-33.9137071" lon="151.1563749">
    <tag k="addr:housenumber" v="17"/>
    <tag k="addr:street" v="Cavey Street"/>
    <tag k="source" v="survey"/>
  </node>
  <node id="913116178" version="1" timestamp="2010-09-15T08:32:22Z" uid="7617" user="Franc" changeset="5784757" lat="-33.9136058" lon="151.1566366">
    <tag k="addr:housenumber" v="16"/>
    <tag k="addr:street" v="Cavey Street"/>
    <tag k="source" v="survey"/>
  </node>
  <node id="913116181" version="1" timestamp="2010-09-15T08:32:22Z" uid="7617" user="Franc" changeset="5784757" lat="-33.9128676" lon="151.1576759"/>
  <node id="913116184" version="1" timestamp="2010-09-15T08:32:22Z" uid="7617" user="Franc" changeset="5784757" lat="-33.9125665" lon="151.157082">
    <tag k="addr:housenumber" v="26"/>
    <tag k="addr:street" v="Gladstone Street"/>
    <tag k="source" v="survey"/>
  </node>
  <node id="913116187" version="1" timestamp="2010-09-15T08:32:22Z" uid="7617" user="Franc" changeset="5784757" lat="-33.9147545" lon="151.1580617"/>
  <node id="913116191" version="1" timestamp="2010-09-15T08:32:22Z" uid="7617" user="Franc" changeset="5784757" lat="-33.914154" lon="151.158508">
    <tag k="addr:housenumber" v="351"/>
    <tag k="addr:street" v="Victoria Road"/>
  </node>
  <node id="913116211" version="1" timestamp="2010-09-15T08:32:23Z" uid="7617" user="Franc" changeset="5784757" lat="-33.8840425" lon="151.1816882"/>
  <node id="913116211" version="2" timestamp="2011-06-10T22:10:03Z" uid="7617" user="Franc" changeset="8401446" lat="-33.8840254" lon="151.1816985"/>
  <node id="913116215" version="1" timestamp="2010-09-15T08:32:23Z" uid="7617" user="Franc" changeset="5784757" lat="-33.9134301" lon="151.1566237">
    <tag k="addr:housenumber" v="9"/>
    <tag k="addr:street" v="Cavey Street"/>
    <tag k="source" v="extrapolation"/>
  </node>
  <node id="913116224" version="1" timestamp="2010-09-15T08:32:23Z" uid="7617" user="Franc" changeset="5784757" lat="-33.9137808" lon="151.1563222">
    <tag k="addr:housenumber" v="19"/>
    <tag k="addr:street" v="Cavey Street"/>
    <tag k="source" v="extrapolation"/>
  </node>
  <node id="913116226" version="1" timestamp="2010-09-15T08:32:23Z" uid="7617" user="Franc" changeset="5784757" lat="-33.9121243" lon="151.1574648">
    <tag k="addr:housenumber" v="14"/>
    <tag k="addr:street" v="Gladstone Street"/>
    <tag k="source" v="survey"/>
  </node>
  <node id="913116238" version="1" timestamp="2010-09-15T08:32:24Z" uid="7617" user="Franc" changeset="5784757" lat="-33.9137547" lon="151.1565136">
    <tag k="addr:housenumber" v="20"/>
    <tag k="addr:street" v="Cavey Street"/>
    <tag k="source" v="survey"/>
  </node>
  <node id="913116244" version="1" timestamp="2010-09-15T08:32:24Z" uid="7617" user="Franc" changeset="5784757" lat="-33.9135191" lon="151.1565247">
    <tag k="addr:housenumber" v="11"/>
    <tag k="addr:street" v="Cavey Street"/>
    <tag k="source" v="survey"/>
  </node>
  <node id="913116252" version="1" timestamp="2010-09-15T08:32:24Z" uid="7617" user="Franc" changeset="5784757" lat="-33.8844621" lon="151.1813903">
    <tag k="addr:housenumber" v="254"/>
    <tag k="addr:street" v="St Johns Road"/>
    <tag k="source" v="survey"/>
  </node>
  <node id="913116259" version="1" timestamp="2010-09-15T08:32:24Z" uid="7617" user="Franc" changeset="5784757" lat="-33.9163922" lon="151.1569326">
    <tag k="addr:housenumber" v="22"/>
    <tag k="addr:street" v="Harriet Street"/>
    <tag k="source" v="survey"/>
  </node>
  <node id="913116274" version="1" timestamp="2010-09-15T08:32:25Z" uid="7617" user="Franc" changeset="5784757" lat="-33.8838398" lon="151.1815277"/>
  <node id="913116274" version="2" timestamp="2011-06-10T22:09:52Z" uid="7617" user="Franc" changeset="8401446" lat="-33.8838227" lon="151.181538"/>
  <node id="913116282" version="1" timestamp="2010-09-15T08:32:25Z" uid="7617" user="Franc" changeset="5784757" lat="-33.9119129" lon="151.1576395">
    <tag k="addr:housenumber" v="10"/>
    <tag k="addr:street" v="Gladstone Street"/>
    <tag k="source" v="survey"/>
  </node>
  <node id="913116289" version="1" timestamp="2010-09-15T08:32:25Z" uid="7617" user="Franc" changeset="5784757" lat="-33.9161995" lon="151.1569726">
    <tag k="addr:housenumber" v="21"/>
    <tag k="addr:street" v="Harriet Street"/>
    <tag k="source" v="survey"/>
  </node>
  <node id="913116298" version="1" timestamp="2010-09-15T08:32:26Z" uid="7617" user="Franc" changeset="5784757" lat="-33.9162562" lon="151.1570719">
    <tag k="addr:housenumber" v="23"/>
    <tag k="addr:street" v="Harriet Street"/>
    <tag k="source" v="survey"/>
  </node>
  <node id="913116324" version="1" timestamp="2010-09-15T08:32:26Z" uid="7617" user="Franc" changeset="5784757" lat="-33.9140063" lon="151.1581623">
    <tag k="addr:housenumber" v="1"/>
    <tag k="addr:street" v="Queen Street"/>
    <tag k="source" v="survey"/>
  </node>
  <node id="913116335" version="1" timestamp="2010-09-15T08:32:26Z" uid="7617" user="Franc" changeset="5784757" lat="-33.9130808" lon="151.1569132">
    <tag k="addr:housenumber" v="1"/>
    <tag k="addr:street" v="Cavey Street"/>
    <tag k="source" v="survey"/>
  </node>
  <node id="913116346" version="1" timestamp="2010-09-15T08:32:27Z" uid="7617" user="Franc" changeset="5784757" lat="-33.9096952" lon="151.1619688">
    <tag k="addr:housenumber" v="100b"/>
    <tag k="addr:street" v="Sydenham Road"/>
    <tag k="source" v="survey"/>
  </node>
  <node id="913116354" version="1" timestamp="2010-09-15T08:32:27Z" uid="7617" user="Franc" changeset="5784757" lat="-33.8843038" lon="151.1816615">
    <tag k="addr:housenumber" v="244"/>
    <tag k="addr:street" v="St Johns Road"/>
    <tag k="source" v="survey"/>
  </node>
  <node id="913116369" version="1" timestamp="2010-09-15T08:32:27Z" uid="7617" user="Franc" changeset="5784757" lat="-33.9136212" lon="151.1564396">
    <tag k="addr:housenumber" v="13a"/>
    <tag k="addr:street" v="Cavey Street"/>
    <tag k="source" v="survey"/>
  </node>
  <node id="913116375" version="1" timestamp="2010-09-15T08:32:28Z" uid="7617" user="Franc" changeset="5784757" lat="-33.9158296" lon="151.1585522">
    <tag k="addr:housenumber" v="2"/>
    <tag k="addr:street" v="Carrington Road"/>
    <tag k="source" v="survey"/>
  </node>
  <node id="913116385" version="1" timestamp="2010-09-15T08:32:28Z" uid="7617" user="Franc" changeset="5784757" lat="-33.9169703" lon="151.1577321">
    <tag k="addr:housenumber" v="6b"/>
    <tag k="addr:street" v="Carrington Road"/>
    <tag k="source" v="survey"/>
  </node>
  <node id="913116392" version="1" timestamp="2010-09-15T08:32:28Z" uid="7617" user="Franc" changeset="5784757" lat="-33.9128866" lon="151.1573095">
    <tag k="addr:housenumber" v="42"/>
    <tag k="addr:street" v="Calvert Street"/>
    <tag k="source" v="survey"/>
  </node>
  <node id="913116407" version="1" timestamp="2010-09-15T08:32:29Z" uid="7617" user="Franc" changeset="5784757" lat="-33.9135736" lon="151.158546">
    <tag k="addr:housenumber" v="2"/>
    <tag k="addr:street" v="Calvert Street"/>
    <tag k="source" v="survey"/>
  </node>
  <node id="913116407" version="2" timestamp="2011-04-30T22:18:51Z" uid="7617" user="Franc" changeset="8016514" lat="-33.9135639" lon="151.1585519">
    <tag k="addr:housenumber" v="2"/>
    <tag k="addr:street" v="Calvert Street"/>
    <tag k="source" v="survey"/>
  </node>
  <node id="913116408" version="1" timestamp="2010-09-15T08:32:29Z" uid="7617" user="Franc" changeset="5784757" lat="-33.9133756" lon="151.156829">
    <tag k="addr:housenumber" v="8"/>
    <tag k="addr:street" v="Cavey Street"/>
    <tag k="source" v="extrapolation"/>
  </node>
  <node id="913116409" version="1" timestamp="2010-09-15T08:32:29Z" uid="7617" user="Franc" changeset="5784757" lat="-33.8839877" lon="151.1817886"/>
  <node id="913116409" version="2" timestamp="2011-06-10T22:09:51Z" uid="7617" user="Franc" changeset="8401446" lat="-33.8839706" lon="151.1817989"/>
  <node id="913116411" version="1" timestamp="2010-09-15T08:32:29Z" uid="7617" user="Franc" changeset="5784757" lat="-33.9166044" lon="151.1577279">
    <tag k="addr:housenumber" v="15"/>
    <tag k="addr:street" v="Carrington Road"/>
    <tag k="source" v="survey"/>
  </node>
  <node id="913116428" version="1" timestamp="2010-09-15T08:32:30Z" uid="7617" user="Franc" changeset="5784757" lat="-33.9124748" lon="151.1569005">
    <tag k="addr:housenumber" v="39"/>
    <tag k="addr:street" v="Gladstone Street"/>
    <tag k="source" v="survey"/>
  </node>
  <node id="913116434" version="1" timestamp="2010-09-15T08:32:30Z" uid="7617" user="Franc" changeset="5784757" lat="-33.9133295" lon="151.1585143">
    <tag k="addr:housenumber" v="3"/>
    <tag k="addr:street" v="Calvert Street"/>
    <tag k="source" v="survey"/>
  </node>
  <node id="913116440" version="1" timestamp="2010-09-15T08:32:30Z" uid="7617" user="Franc" changeset="5784757" lat="-33.9127668" lon="151.1571123">
    <tag k="addr:housenumber" v="44"/>
    <tag k="addr:street" v="Calvert Street"/>
    <tag k="source" v="survey"/>
  </node>
  <node id="913116440" version="2" timestamp="2011-04-09T13:53:09Z" uid="7617" user="Franc" changeset="7813520" lat="-33.9127571" lon="151.157119">
    <tag k="addr:city" v="Marrickville"/>
    <tag k="addr:housenumber" v="44"/>
    <tag k="addr:postcode" v="2204"/>
    <tag k="addr:street" v="Calvert Street"/>
    <tag k="source" v="survey"/>
  </node>
  <node id="913116441" version="1" timestamp="2010-09-15T08:32:30Z" uid="7617" user="Franc" changeset="5784757" lat="-33.9136657" lon="151.1565904">
    <tag k="addr:housenumber" v="18"/>
    <tag k="addr:street" v="Cavey Street"/>
    <tag k="source" v="survey"/>
  </node>
  <node id="913116452" version="1" timestamp="2010-09-15T08:32:31Z" uid="7617" user="Franc" changeset="5784757" lat="-33.883928" lon="151.1818991">
    <tag k="addr:housenumber" v="199"/>
    <tag k="addr:street" v="St Johns Road"/>
    <tag k="source" v="survey"/>
  </node>
  <node id="913116457" version="1" timestamp="2010-09-15T08:32:31Z" uid="7617" user="Franc" changeset="5784757" lat="-33.9129261" lon="151.1576301"/>
  <node id="913116462" version="1" timestamp="2010-09-15T08:32:31Z" uid="7617" user="Franc" changeset="5784757" lat="-33.9134792" lon="151.1567439">
    <tag k="addr:housenumber" v="12"/>
    <tag k="addr:street" v="Cavey Street"/>
    <tag k="source" v="extrapolation"/>
  </node>
  <node id="913116468" version="1" timestamp="2010-09-15T08:32:31Z" uid="7617" user="Franc" changeset="5784757" lat="-33.9135035" lon="151.1584244">
    <tag k="addr:housenumber" v="6"/>
    <tag k="addr:street" v="Calvert Street"/>
    <tag k="source" v="survey"/>
  </node>
  <node id="913116468" version="2" timestamp="2011-04-30T22:18:51Z" uid="7617" user="Franc" changeset="8016514" lat="-33.9134938" lon="151.1584303">
    <tag k="addr:housenumber" v="6"/>
    <tag k="addr:street" v="Calvert Street"/>
    <tag k="source" v="survey"/>
  </node>
  <node id="913116480" version="1" timestamp="2010-09-15T08:32:32Z" uid="7617" user="Franc" changeset="5784757" lat="-33.9142208" lon="151.1581225">
    <tag k="addr:housenumber" v="2"/>
    <tag k="addr:street" v="Queen Street"/>
    <tag k="source" v="survey"/>
  </node>
  <node id="913116482" version="1" timestamp="2010-09-15T08:32:32Z" uid="7617" user="Franc" changeset="5784757" lat="-33.885043" lon="151.1947019">
    <tag k="addr:housenumber" v="12"/>
    <tag k="addr:street" v="City Road"/>
    <tag k="source" v="survey"/>
  </node>
  <node id="913116482" version="2" timestamp="2011-05-03T10:28:20Z" uid="7617" user="Franc" changeset="8038186" lat="-33.8850541" lon="151.1947259">
    <tag k="addr:housenumber" v="12"/>
    <tag k="addr:street" v="City Road"/>
    <tag k="source" v="survey"/>
  </node>
  <node id="913116484" version="1" timestamp="2010-09-15T08:32:32Z" uid="7617" user="Franc" changeset="5784757" lat="-33.9116858" lon="151.1575696">
    <tag k="addr:housenumber" v="3"/>
    <tag k="addr:street" v="Gladstone Street"/>
    <tag k="source" v="survey"/>
  </node>
  <node id="913116487" version="1" timestamp="2010-09-15T08:32:33Z" uid="7617" user="Franc" changeset="5784757" lat="-33.9135782" lon="151.1564849">
    <tag k="addr:housenumber" v="13b"/>
    <tag k="addr:street" v="Cavey Street"/>
    <tag k="source" v="survey"/>
  </node>
  <node id="913116492" version="1" timestamp="2010-09-15T08:32:33Z" uid="7617" user="Franc" changeset="5784757" lat="-33.9165137" lon="151.157116">
    <tag k="addr:housenumber" v="24"/>
    <tag k="addr:street" v="Harriet Street"/>
    <tag k="source" v="survey"/>
  </node>
  <node id="913116497" version="1" timestamp="2010-09-15T08:32:33Z" uid="7617" user="Franc" changeset="5784757" lat="-33.9146815" lon="151.1578482"/>
  <node id="913116500" version="1" timestamp="2010-09-15T08:32:33Z" uid="7617" user="Franc" changeset="5784757" lat="-33.913153" lon="151.1568512">
    <tag k="addr:housenumber" v="3"/>
    <tag k="addr:street" v="Cavey Street"/>
    <tag k="source" v="survey"/>
  </node>
  <node id="913116504" version="1" timestamp="2010-09-15T08:32:34Z" uid="7617" user="Franc" changeset="5784757" lat="-33.9158067" lon="151.1559511">
    <tag k="addr:housenumber" v="2"/>
    <tag k="addr:street" v="Harriet Street"/>
    <tag k="source" v="survey"/>
  </node>
  <node id="913116513" version="1" timestamp="2010-09-15T08:32:35Z" uid="7617" user="Franc" changeset="5784757" lat="-33.9129893" lon="151.1576375">
    <tag k="traffic_calming" v="hump"/>
  </node>
  <node id="913116513" version="2" timestamp="2011-04-09T13:53:09Z" uid="7617" user="Franc" changeset="7813520" lat="-33.9129837" lon="151.1576425">
    <tag k="traffic_calming" v="hump"/>
  </node>
  <node id="913116516" version="1" timestamp="2010-09-15T08:32:35Z" uid="7617" user="Franc" changeset="5784757" lat="-33.9132512" lon="151.156768">
    <tag k="addr:housenumber" v="5"/>
    <tag k="addr:street" v="Cavey Street"/>
    <tag k="source" v="extrapolation"/>
  </node>
  <node id="913116519" version="1" timestamp="2010-09-15T08:32:35Z" uid="7617" user="Franc" changeset="5784757" lat="-33.9124342" lon="151.1569345">
    <tag k="addr:housenumber" v="37"/>
    <tag k="addr:street" v="Gladstone Street"/>
    <tag k="source" v="survey"/>
  </node>
  <node id="913116523" version="1" timestamp="2010-09-15T08:32:35Z" uid="7617" user="Franc" changeset="5784757" lat="-33.9132451" lon="151.15694">
    <tag k="addr:housenumber" v="4"/>
    <tag k="addr:street" v="Cavey Street"/>
    <tag k="source" v="survey"/>
  </node>
  <node id="913116532" version="1" timestamp="2010-09-15T08:32:35Z" uid="7617" user="Franc" changeset="5784757" lat="-33.9133778" lon="151.1585953">
    <tag k="addr:housenumber" v="1"/>
    <tag k="addr:street" v="Calvert Street"/>
    <tag k="source" v="extrapolation"/>
  </node>
  <node id="913116536" version="1" timestamp="2010-09-15T08:32:36Z" uid="7617" user="Franc" changeset="5784757" lat="-33.9097251" lon="151.1620235">
    <tag k="addr:housenumber" v="100a"/>
    <tag k="addr:street" v="Sydenham Road"/>
    <tag k="source" v="survey"/>
  </node>
  <node id="913116544" version="1" timestamp="2010-09-15T08:32:36Z" uid="7617" user="Franc" changeset="5784757" lat="-33.9163354" lon="151.1568346">
    <tag k="addr:housenumber" v="20"/>
    <tag k="addr:street" v="Harriet Street"/>
    <tag k="source" v="survey"/>
  </node>
  <node id="913116553" version="1" timestamp="2010-09-15T08:32:36Z" uid="7617" user="Franc" changeset="5784757" lat="-33.9133372" lon="151.1566949">
    <tag k="addr:housenumber" v="7"/>
    <tag k="addr:street" v="Cavey Street"/>
    <tag k="source" v="extrapolation"/>
  </node>
  <node id="913116558" version="1" timestamp="2010-09-15T08:32:37Z" uid="7617" user="Franc" changeset="5784757" lat="-33.9136401" lon="151.1570852">
    <tag k="addr:housenumber" v="26"/>
    <tag k="addr:street" v="Queen Street"/>
    <tag k="source" v="survey"/>
  </node>
  <node id="913116563" version="1" timestamp="2010-09-15T08:32:37Z" uid="7617" user="Franc" changeset="5784757" lat="-33.9135521" lon="151.1566838">
    <tag k="addr:housenumber" v="14"/>
    <tag k="addr:street" v="Cavey Street"/>
    <tag k="source" v="survey"/>
  </node>
  <node id="913116566" version="1" timestamp="2010-09-15T08:32:37Z" uid="7617" user="Franc" changeset="5784757" lat="-33.9134752" lon="151.1571926">
    <tag k="addr:housenumber" v="35"/>
    <tag k="addr:street" v="Queen Street"/>
    <tag k="source" v="survey"/>
  </node>
  <node id="913116572" version="1" timestamp="2010-09-15T08:32:37Z" uid="7617" user="Franc" changeset="5784757" lat="-33.9134742" lon="151.1583698">
    <tag k="addr:housenumber" v="8"/>
    <tag k="addr:street" v="Calvert Street"/>
    <tag k="source" v="extrapolation"/>
  </node>
  <node id="913116572" version="2" timestamp="2011-04-30T22:18:51Z" uid="7617" user="Franc" changeset="8016514" lat="-33.9134645" lon="151.1583757">
    <tag k="addr:housenumber" v="8"/>
    <tag k="addr:street" v="Calvert Street"/>
    <tag k="source" v="extrapolation"/>
  </node>
  <node id="913116578" version="1" timestamp="2010-09-15T08:32:38Z" uid="7617" user="Franc" changeset="5784757" lat="-33.9133111" lon="151.1568854">
    <tag k="addr:housenumber" v="6"/>
    <tag k="addr:street" v="Cavey Street"/>
    <tag k="source" v="extrapolation"/>
  </node>
  <node id="913116579" version="1" timestamp="2010-09-15T08:32:38Z" uid="7617" user="Franc" changeset="5784757" lat="-33.9166051" lon="151.1572629">
    <tag k="addr:housenumber" v="26"/>
    <tag k="addr:street" v="Harriet Street"/>
    <tag k="source" v="survey"/>
  </node>
  <node id="913116580" version="1" timestamp="2010-09-15T08:32:38Z" uid="7617" user="Franc" changeset="5784757" lat="-33.9134224" lon="151.1567929">
    <tag k="addr:housenumber" v="10"/>
    <tag k="addr:street" v="Cavey Street"/>
    <tag k="source" v="extrapolation"/>
  </node>
  <node id="913116581" version="1" timestamp="2010-09-15T08:32:38Z" uid="7617" user="Franc" changeset="5784757" lat="-33.9156634" lon="151.1560884">
    <tag k="addr:housenumber" v="1"/>
    <tag k="addr:street" v="Harriet Street"/>
    <tag k="source" v="survey"/>
  </node>
  <node id="913116587" version="1" timestamp="2010-09-15T08:32:39Z" uid="7617" user="Franc" changeset="5784757" lat="-33.913167" lon="151.1570114">
    <tag k="addr:housenumber" v="2"/>
    <tag k="addr:street" v="Cavey Street"/>
    <tag k="source" v="survey"/>
  </node>
  <node id="913116590" version="1" timestamp="2010-09-15T08:32:39Z" uid="7617" user="Franc" changeset="5784757" lat="-33.9137648" lon="151.1588166">
    <tag k="addr:housenumber" v="335"/>
    <tag k="addr:street" v="Victoria Road"/>
  </node>
  <node id="913116592" version="1" timestamp="2010-09-15T08:32:39Z" uid="7617" user="Franc" changeset="5784757" lat="-33.9167983" lon="151.1578753">
    <tag k="addr:housenumber" v="6a"/>
    <tag k="addr:street" v="Carrington Road"/>
    <tag k="source" v="survey"/>
  </node>
  <node id="913116593" version="1" timestamp="2010-09-15T08:32:40Z" uid="7617" user="Franc" changeset="5784757" lat="-33.883675" lon="151.182266">
    <tag k="amenity" v="place_of_worship"/>
    <tag k="religion" v="christian"/>
  </node>
  <node id="913116598" version="1" timestamp="2010-09-15T08:32:40Z" uid="7617" user="Franc" changeset="5784757" lat="-33.8999501" lon="151.1707893">
    <tag k="addr:housenumber" v="2224"/>
    <tag k="addr:street" v="Enmore Road"/>
    <tag k="source" v="survey"/>
  </node>
  <node id="913116598" version="2" timestamp="2011-05-25T10:32:08Z" uid="7617" user="Franc" changeset="8243457" lat="-33.8999501" lon="151.1707893">
    <tag k="addr:housenumber" v="224"/>
    <tag k="addr:street" v="Enmore Road"/>
    <tag k="source" v="survey"/>
  </node>
  <node id="913116601" version="1" timestamp="2010-09-15T08:32:41Z" uid="7617" user="Franc" changeset="5784757" lat="-33.9096567" lon="151.1619059">
    <tag k="addr:housenumber" v="100c"/>
    <tag k="addr:street" v="Sydenham Road"/>
    <tag k="source" v="survey"/>
  </node>
  <node id="913116604" version="1" timestamp="2010-09-15T08:32:41Z" uid="7617" user="Franc" changeset="5784757" lat="-33.9116472" lon="151.1576089">
    <tag k="addr:housenumber" v="1"/>
    <tag k="addr:street" v="Gladstone Street"/>
    <tag k="source" v="survey"/>
  </node>
  <node id="913116607" version="1" timestamp="2010-09-15T08:32:41Z" uid="7617" user="Franc" changeset="5784757" lat="-33.9131438" lon="151.1570251">
    <tag k="addr:housenumber" v="2a"/>
    <tag k="addr:street" v="Cavey Street"/>
    <tag k="source" v="survey"/>
  </node>
  <node id="913116609" version="1" timestamp="2010-09-15T08:32:42Z" uid="7617" user="Franc" changeset="5784757" lat="-33.9136711" lon="151.1564054">
    <tag k="addr:housenumber" v="15"/>
    <tag k="addr:street" v="Cavey Street"/>
    <tag k="source" v="survey"/>
  </node>
  <node id="913117870" version="2" timestamp="2011-01-18T13:30:44Z" uid="115477" user="wowik" changeset="7010451" lat="55.9923611" lon="37.1877859"/>
  <node id="913117871" version="2" timestamp="2011-01-18T13:30:38Z" uid="115477" user="wowik" changeset="7010451" lat="55.9919425" lon="37.1874077"/>
  <node id="913117875" version="2" timestamp="2011-01-18T13:30:33Z" uid="115477" user="wowik" changeset="7010451" lat="55.9917311" lon="37.1876677"/>
  <node id="913117877" version="2" timestamp="2011-01-18T13:30:41Z" uid="115477" user="wowik" changeset="7010451" lat="55.9917413" lon="37.1879332"/>
</osm>
