<?xml version='1.0' encoding='UTF-8'?>
<osm version="0.6" generator="libosmium/2.20.0">
  <node id="915793051" version="1" timestamp="2010-09-17T19:02:50Z" uid="86259" user="hasse_osm_korinthenkacker" changeset="5806306" lat="48.492194" lon="12.968953">
    <tag k="name" v="Brand"/>
    <tag k="place" v="hamlet"/>
  </node>
  <node id="915794119" version="1" timestamp="2010-09-17T19:03:15Z" uid="86259" user="hasse_osm_korinthenkacker" changeset="5806310" lat="48.489677" lon="12.951336">
    <tag k="name" v="Schlafen"/>
    <tag k="place" v="hamlet"/>
  </node>
  <node id="915795174" version="1" timestamp="2010-09-17T19:03:37Z" uid="86259" user="hasse_osm_korinthenkacker" changeset="5806315" lat="48.490075" lon="12.967472">
    <tag k="name" v="Scheiben"/>
    <tag k="place" v="hamlet"/>
  </node>
  <node id="915795862" version="1" timestamp="2010-09-17T19:03:51Z" uid="86259" user="hasse_osm_korinthenkacker" changeset="5806317" lat="48.488326" lon="12.979381">
    <tag k="name" v="Asperting"/>
    <tag k="place" v="hamlet"/>
  </node>
  <node id="915796734" version="1" timestamp="2010-09-17T19:04:10Z" uid="86259" user="hasse_osm_korinthenkacker" changeset="5806322" lat="48.486022" lon="12.972729">
    <tag k="name" v="Pottenau"/>
    <tag k="place" v="hamlet"/>
  </node>
  <node id="915797235" version="1" timestamp="2010-09-17T19:04:21Z" uid="86259" user="hasse_osm_korinthenkacker" changeset="5806325" lat="48.48487" lon="12.960026">
    <tag k="name" v="Hausrucking"/>
    <tag k="place" v="hamlet"/>
  </node>
  <node id="915797947" version="1" timestamp="2010-09-17T19:04:36Z" uid="86259" user="hasse_osm_korinthenkacker" changeset="5806326" lat="48.487401" lon="12.952881">
    <tag k="name" v="Oberhof"/>
    <tag k="place" v="hamlet"/>
  </node>
  <node id="915799521" version="1" timestamp="2010-09-17T19:05:11Z" uid="86259" user="hasse_osm_korinthenkacker" changeset="5806333" lat="48.48285" lon="12.976034">
    <tag k="name" v="Seiling"/>
    <tag k="place" v="hamlet"/>
  </node>
</osm>
