<?xml version='1.0' encoding='UTF-8'?>
<osm version="0.6" generator="libosmium/2.20.0">
  <node id="916285553" version="1" timestamp="2010-09-18T04:24:06Z" uid="7617" user="Franc" changeset="5808700" lat="-33.9007291" lon="151.1559709">
    <tag k="addr:housenumber" v="16"/>
    <tag k="addr:street" v="Coronation Avenue"/>
    <tag k="source" v="extrapolation"/>
  </node>
  <node id="916285554" version="1" timestamp="2010-09-18T04:24:07Z" uid="7617" user="Franc" changeset="5808700" lat="-33.9134776" lon="151.1665839">
    <tag k="addr:housenumber" v="55"/>
    <tag k="addr:street" v="Railway Parade"/>
    <tag k="source" v="survey"/>
  </node>
  <node id="916285555" version="1" timestamp="2010-09-18T04:24:07Z" uid="7617" user="Franc" changeset="5808700" lat="-33.9003106" lon="151.1577462">
    <tag k="addr:housenumber" v="10"/>
    <tag k="addr:street" v="Park Road"/>
    <tag k="source" v="survey"/>
  </node>
  <node id="916285556" version="1" timestamp="2010-09-18T04:24:07Z" uid="7617" user="Franc" changeset="5808700" lat="-33.8990897" lon="151.1721534">
    <tag k="addr:housenumber" v="186"/>
    <tag k="addr:street" v="Enmore Road"/>
    <tag k="source" v="survey"/>
  </node>
  <node id="916285557" version="1" timestamp="2010-09-18T04:24:07Z" uid="7617" user="Franc" changeset="5808700" lat="-33.9011924" lon="151.1567879">
    <tag k="addr:housenumber" v="27"/>
    <tag k="addr:street" v="Park Road"/>
    <tag k="source" v="survey"/>
  </node>
  <node id="916285558" version="1" timestamp="2010-09-18T04:24:07Z" uid="7617" user="Franc" changeset="5808700" lat="-33.900293" lon="151.1589074">
    <tag k="addr:housenumber" v="227"/>
    <tag k="addr:street" v="Addison Road"/>
    <tag k="source" v="survey"/>
  </node>
  <node id="916285559" version="1" timestamp="2010-09-18T04:24:07Z" uid="7617" user="Franc" changeset="5808700" lat="-33.8962498" lon="151.1715921">
    <tag k="addr:housenumber" v="64"/>
    <tag k="addr:street" v="Gladstone Street"/>
    <tag k="source" v="survey"/>
  </node>
  <node id="916285560" version="1" timestamp="2010-09-18T04:24:08Z" uid="7617" user="Franc" changeset="5808700" lat="-33.9000114" lon="151.156057">
    <tag k="addr:housenumber" v="6"/>
    <tag k="addr:street" v="Coronation Avenue"/>
    <tag k="source" v="extrapolation"/>
  </node>
  <node id="916285561" version="1" timestamp="2010-09-18T04:24:08Z" uid="7617" user="Franc" changeset="5808700" lat="-33.9007085" lon="151.1557511">
    <tag k="addr:housenumber" v="3"/>
    <tag k="addr:street" v="Coronation Avenue"/>
    <tag k="source" v="survey"/>
  </node>
  <node id="916285562" version="1" timestamp="2010-09-18T04:24:08Z" uid="7617" user="Franc" changeset="5808700" lat="-33.897861" lon="151.1584339">
    <tag k="addr:housenumber" v="33"/>
    <tag k="addr:street" v="John Street"/>
    <tag k="source" v="survey"/>
  </node>
  <node id="916285563" version="1" timestamp="2010-09-18T04:24:08Z" uid="7617" user="Franc" changeset="5808700" lat="-33.9004199" lon="151.1565852">
    <tag k="addr:housenumber" v="3"/>
    <tag k="addr:street" v="Rose Street"/>
    <tag k="source" v="survey"/>
  </node>
  <node id="916285564" version="1" timestamp="2010-09-18T04:24:08Z" uid="7617" user="Franc" changeset="5808700" lat="-33.9145179" lon="151.1651321">
    <tag k="addr:housenumber" v="93"/>
    <tag k="addr:street" v="Railway Parade"/>
    <tag k="source" v="survey"/>
  </node>
  <node id="916285565" version="1" timestamp="2010-09-18T04:24:08Z" uid="7617" user="Franc" changeset="5808700" lat="-33.9003305" lon="151.1560183">
    <tag k="addr:housenumber" v="12"/>
    <tag k="addr:street" v="Coronation Avenue"/>
    <tag k="source" v="survey"/>
  </node>
  <node id="916285566" version="1" timestamp="2010-09-18T04:24:08Z" uid="7617" user="Franc" changeset="5808700" lat="-33.8971089" lon="151.172341"/>
  <node id="916285567" version="1" timestamp="2010-09-18T04:24:08Z" uid="7617" user="Franc" changeset="5808700" lat="-33.9005726" lon="151.1572789">
    <tag k="addr:housenumber" v="13"/>
    <tag k="addr:street" v="Park Road"/>
    <tag k="source" v="extrapolation"/>
  </node>
  <node id="916285568" version="1" timestamp="2010-09-18T04:24:08Z" uid="7617" user="Franc" changeset="5808700" lat="-33.9011068" lon="151.1559319">
    <tag k="addr:housenumber" v="24"/>
    <tag k="addr:street" v="Coronation Avenue"/>
    <tag k="source" v="extrapolation"/>
  </node>
  <node id="916285569" version="1" timestamp="2010-09-18T04:24:09Z" uid="7617" user="Franc" changeset="5808700" lat="-33.900492" lon="151.1573405">
    <tag k="addr:housenumber" v="11"/>
    <tag k="addr:street" v="Park Road"/>
    <tag k="source" v="survey"/>
  </node>
  <node id="916285571" version="1" timestamp="2010-09-18T04:24:09Z" uid="7617" user="Franc" changeset="5808700" lat="-33.8977785" lon="151.1583005">
    <tag k="addr:housenumber" v="44"/>
    <tag k="addr:street" v="John Street"/>
    <tag k="source" v="survey"/>
  </node>
  <node id="916285574" version="1" timestamp="2010-09-18T04:24:09Z" uid="7617" user="Franc" changeset="5808700" lat="-33.9011" lon="151.1568636">
    <tag k="addr:housenumber" v="25"/>
    <tag k="addr:street" v="Park Road"/>
    <tag k="source" v="extrapolation"/>
  </node>
  <node id="916285576" version="1" timestamp="2010-09-18T04:24:09Z" uid="7617" user="Franc" changeset="5808700" lat="-33.9002537" lon="151.1577833">
    <tag k="addr:housenumber" v="8"/>
    <tag k="addr:street" v="Park Road"/>
    <tag k="source" v="survey"/>
  </node>
  <node id="916285577" version="1" timestamp="2010-09-18T04:24:09Z" uid="7617" user="Franc" changeset="5808700" lat="-33.8963441" lon="151.1725928"/>
  <node id="916285579" version="1" timestamp="2010-09-18T04:24:09Z" uid="7617" user="Franc" changeset="5808700" lat="-33.9018892" lon="151.1578185">
    <tag k="addr:housenumber" v="39"/>
    <tag k="addr:street" v="Neville Street"/>
    <tag k="source" v="survey"/>
  </node>
  <node id="916285581" version="1" timestamp="2010-09-18T04:24:09Z" uid="7617" user="Franc" changeset="5808700" lat="-33.8978695" lon="151.1734941">
    <tag k="addr:housenumber" v="14"/>
    <tag k="addr:street" v="Phillip Street"/>
    <tag k="source" v="survey"/>
  </node>
  <node id="916285587" version="1" timestamp="2010-09-18T04:24:09Z" uid="7617" user="Franc" changeset="5808700" lat="-33.9010208" lon="151.1557201">
    <tag k="addr:housenumber" v="5"/>
    <tag k="addr:street" v="Coronation Avenue"/>
    <tag k="source" v="survey"/>
  </node>
  <node id="916285588" version="1" timestamp="2010-09-18T04:24:09Z" uid="7617" user="Franc" changeset="5808700" lat="-33.9020547" lon="151.1563648">
    <tag k="addr:housenumber" v="50"/>
    <tag k="addr:street" v="Park Road"/>
    <tag k="source" v="survey"/>
  </node>
  <node id="916285589" version="1" timestamp="2010-09-18T04:24:09Z" uid="7617" user="Franc" changeset="5808700" lat="-33.9007529" lon="151.1571373">
    <tag k="addr:housenumber" v="17"/>
    <tag k="addr:street" v="Park Road"/>
    <tag k="source" v="extrapolation"/>
  </node>
  <node id="916285590" version="1" timestamp="2010-09-18T04:24:10Z" uid="7617" user="Franc" changeset="5808700" lat="-33.9147181" lon="151.1648779">
    <tag k="addr:housenumber" v="95-99"/>
    <tag k="addr:street" v="Railway Parade"/>
    <tag k="source" v="survey"/>
  </node>
  <node id="916285593" version="1" timestamp="2010-09-18T04:24:10Z" uid="7617" user="Franc" changeset="5808700" lat="-33.900096" lon="151.1579076">
    <tag k="addr:housenumber" v="2"/>
    <tag k="addr:street" v="Park Road"/>
    <tag k="source" v="survey"/>
  </node>
  <node id="916285594" version="1" timestamp="2010-09-18T04:24:10Z" uid="7617" user="Franc" changeset="5808700" lat="-33.8979071" lon="151.156659">
    <tag k="addr:housenumber" v="2"/>
    <tag k="addr:street" v="Oxford Street"/>
    <tag k="source" v="survey"/>
  </node>
  <node id="916285595" version="1" timestamp="2010-09-18T04:24:10Z" uid="7617" user="Franc" changeset="5808700" lat="-33.9145112" lon="151.163741">
    <tag k="addr:housenumber" v="33-35"/>
    <tag k="addr:street" v="Sydenham Road"/>
    <tag k="source" v="survey"/>
  </node>
  <node id="916285596" version="1" timestamp="2010-09-18T04:24:10Z" uid="7617" user="Franc" changeset="5808700" lat="-33.9003794" lon="151.1574305">
    <tag k="addr:housenumber" v="9"/>
    <tag k="addr:street" v="Park Road"/>
    <tag k="source" v="extrapolation"/>
  </node>
  <node id="916285597" version="1" timestamp="2010-09-18T04:24:10Z" uid="7617" user="Franc" changeset="5808700" lat="-33.9004115" lon="151.1564435">
    <tag k="addr:housenumber" v="1"/>
    <tag k="addr:street" v="Rose Street"/>
    <tag k="source" v="survey"/>
  </node>
  <node id="916285598" version="1" timestamp="2010-09-18T04:24:10Z" uid="7617" user="Franc" changeset="5808700" lat="-33.8978915" lon="151.1582528">
    <tag k="addr:housenumber" v="42"/>
    <tag k="addr:street" v="John Street"/>
    <tag k="source" v="survey"/>
  </node>
  <node id="916285599" version="1" timestamp="2010-09-18T04:24:10Z" uid="7617" user="Franc" changeset="5808700" lat="-33.8972485" lon="151.1713836">
    <tag k="traffic_calming" v="table"/>
  </node>
  <node id="916285600" version="1" timestamp="2010-09-18T04:24:10Z" uid="7617" user="Franc" changeset="5808700" lat="-33.8964781" lon="151.1723374"/>
  <node id="916285601" version="1" timestamp="2010-09-18T04:24:11Z" uid="7617" user="Franc" changeset="5808700" lat="-33.8968195" lon="151.1716762"/>
  <node id="916285603" version="1" timestamp="2010-09-18T04:24:11Z" uid="7617" user="Franc" changeset="5808700" lat="-33.9033407" lon="151.1553425">
    <tag k="addr:housenumber" v="88"/>
    <tag k="addr:street" v="Park Road"/>
    <tag k="source" v="survey"/>
  </node>
  <node id="916285605" version="1" timestamp="2010-09-18T04:24:11Z" uid="7617" user="Franc" changeset="5808700" lat="-33.9005919" lon="151.1564065">
    <tag k="addr:housenumber" v="2"/>
    <tag k="addr:street" v="Rose Street"/>
    <tag k="source" v="survey"/>
  </node>
  <node id="916285607" version="1" timestamp="2010-09-18T04:24:11Z" uid="7617" user="Franc" changeset="5808700" lat="-33.8961081" lon="151.1715335">
    <tag k="addr:housenumber" v="65"/>
    <tag k="addr:street" v="Gladstone Street"/>
    <tag k="source" v="survey"/>
  </node>
  <node id="916285610" version="1" timestamp="2010-09-18T04:24:11Z" uid="7617" user="Franc" changeset="5808700" lat="-33.9144661" lon="151.165229">
    <tag k="addr:housenumber" v="91"/>
    <tag k="addr:street" v="Railway Parade"/>
    <tag k="source" v="survey"/>
  </node>
  <node id="916285612" version="1" timestamp="2010-09-18T04:24:11Z" uid="7617" user="Franc" changeset="5808700" lat="-33.9001933" lon="151.1575548">
    <tag k="addr:housenumber" v="5"/>
    <tag k="addr:street" v="Park Road"/>
    <tag k="source" v="extrapolation"/>
  </node>
  <node id="916285613" version="1" timestamp="2010-09-18T04:24:11Z" uid="7617" user="Franc" changeset="5808700" lat="-33.9002099" lon="151.1578276">
    <tag k="addr:housenumber" v="6"/>
    <tag k="addr:street" v="Park Road"/>
    <tag k="source" v="survey"/>
  </node>
  <node id="916285614" version="1" timestamp="2010-09-18T04:24:11Z" uid="7617" user="Franc" changeset="5808700" lat="-33.8983585" lon="151.1738985">
    <tag k="addr:housenumber" v="1"/>
    <tag k="addr:street" v="Phillip Street"/>
    <tag k="source" v="survey"/>
  </node>
  <node id="916285615" version="1" timestamp="2010-09-18T04:24:12Z" uid="7617" user="Franc" changeset="5808700" lat="-33.8962857" lon="151.1724652"/>
  <node id="916285616" version="1" timestamp="2010-09-18T04:24:12Z" uid="7617" user="Franc" changeset="5808700" lat="-33.8979118" lon="151.1584176">
    <tag k="addr:housenumber" v="31"/>
    <tag k="addr:street" v="John Street"/>
    <tag k="source" v="survey"/>
  </node>
  <node id="916285617" version="1" timestamp="2010-09-18T04:24:12Z" uid="7617" user="Franc" changeset="5808700" lat="-33.914883" lon="151.164658">
    <tag k="addr:housenumber" v="101"/>
    <tag k="addr:street" v="Railway Parade"/>
    <tag k="source" v="survey"/>
  </node>
  <node id="916285618" version="1" timestamp="2010-09-18T04:24:12Z" uid="7617" user="Franc" changeset="5808700" lat="-33.9009135" lon="151.1559514">
    <tag k="addr:housenumber" v="20"/>
    <tag k="addr:street" v="Coronation Avenue"/>
    <tag k="source" v="extrapolation"/>
  </node>
  <node id="916285619" version="1" timestamp="2010-09-18T04:24:12Z" uid="7617" user="Franc" changeset="5808700" lat="-33.9010083" lon="151.1559439">
    <tag k="addr:housenumber" v="22"/>
    <tag k="addr:street" v="Coronation Avenue"/>
    <tag k="source" v="survey"/>
  </node>
  <node id="916285620" version="1" timestamp="2010-09-18T04:24:12Z" uid="7617" user="Franc" changeset="5808700" lat="-33.9019551" lon="151.1564434">
    <tag k="addr:housenumber" v="48"/>
    <tag k="addr:street" v="Park Road"/>
    <tag k="source" v="survey"/>
  </node>
  <node id="916285621" version="1" timestamp="2010-09-18T04:24:12Z" uid="7617" user="Franc" changeset="5808700" lat="-33.901028" lon="151.1569213">
    <tag k="addr:housenumber" v="23"/>
    <tag k="addr:street" v="Park Road"/>
    <tag k="source" v="extrapolation"/>
  </node>
  <node id="916285622" version="1" timestamp="2010-09-18T04:24:12Z" uid="7617" user="Franc" changeset="5808700" lat="-33.8995074" lon="151.1576525">
    <tag k="addr:housenumber" v="2"/>
    <tag k="addr:street" v="John Street"/>
    <tag k="source" v="survey"/>
  </node>
  <node id="916285623" version="1" timestamp="2010-09-18T04:24:12Z" uid="7617" user="Franc" changeset="5808700" lat="-33.9002252" lon="151.1560311">
    <tag k="addr:housenumber" v="10"/>
    <tag k="addr:street" v="Coronation Avenue"/>
    <tag k="source" v="extrapolation"/>
  </node>
  <node id="916285624" version="1" timestamp="2010-09-18T04:24:13Z" uid="7617" user="Franc" changeset="5808700" lat="-33.9018351" lon="151.156539">
    <tag k="addr:housenumber" v="46"/>
    <tag k="addr:street" v="Park Road"/>
    <tag k="source" v="survey"/>
  </node>
  <node id="916285626" version="1" timestamp="2010-09-18T04:24:13Z" uid="7617" user="Franc" changeset="5808700" lat="-33.9007888" lon="151.1586811">
    <tag k="addr:housenumber" v="67"/>
    <tag k="addr:street" v="Neville Street"/>
    <tag k="source" v="survey"/>
  </node>
  <node id="916285627" version="1" timestamp="2010-09-18T04:24:13Z" uid="7617" user="Franc" changeset="5808700" lat="-33.8997791" lon="151.1560851">
    <tag k="addr:housenumber" v="2"/>
    <tag k="addr:street" v="Coronation Avenue"/>
    <tag k="source" v="survey"/>
  </node>
  <node id="916285628" version="1" timestamp="2010-09-18T04:24:13Z" uid="7617" user="Franc" changeset="5808700" lat="-33.9006559" lon="151.1572102">
    <tag k="addr:housenumber" v="15"/>
    <tag k="addr:street" v="Park Road"/>
    <tag k="source" v="extrapolation"/>
  </node>
  <node id="916285629" version="1" timestamp="2010-09-18T04:24:13Z" uid="7617" user="Franc" changeset="5808700" lat="-33.9000383" lon="151.1576761">
    <tag k="addr:housenumber" v="1"/>
    <tag k="addr:street" v="Park Road"/>
    <tag k="source" v="survey"/>
  </node>
  <node id="916285630" version="1" timestamp="2010-09-18T04:24:13Z" uid="7617" user="Franc" changeset="5808700" lat="-33.8990786" lon="151.1722192">
    <tag k="addr:housenumber" v="184"/>
    <tag k="addr:street" v="Enmore Road"/>
    <tag k="source" v="survey"/>
  </node>
  <node id="916285631" version="1" timestamp="2010-09-18T04:24:13Z" uid="7617" user="Franc" changeset="5808700" lat="-33.9021958" lon="151.1573365">
    <tag k="addr:housenumber" v="66"/>
    <tag k="addr:street" v="Neville Street"/>
    <tag k="source" v="survey"/>
  </node>
  <node id="916285632" version="1" timestamp="2010-09-18T04:24:13Z" uid="7617" user="Franc" changeset="5808700" lat="-33.9001209" lon="151.157619">
    <tag k="addr:housenumber" v="3"/>
    <tag k="addr:street" v="Park Road"/>
    <tag k="source" v="extrapolation"/>
  </node>
  <node id="916285633" version="1" timestamp="2010-09-18T04:24:13Z" uid="7617" user="Franc" changeset="5808700" lat="-33.8982725" lon="151.1582847">
    <tag k="addr:housenumber" v="27"/>
    <tag k="addr:street" v="John Street"/>
    <tag k="source" v="survey"/>
  </node>
  <node id="916285633" version="2" timestamp="2010-11-14T06:37:36Z" uid="7617" user="Franc" changeset="6363993" lat="-33.8981852" lon="151.1583236">
    <tag k="addr:housenumber" v="29"/>
    <tag k="addr:street" v="John Street"/>
    <tag k="source" v="survey"/>
  </node>
  <node id="916285634" version="1" timestamp="2010-09-18T04:24:13Z" uid="7617" user="Franc" changeset="5808700" lat="-33.900428" lon="151.1573876">
    <tag k="addr:housenumber" v="9a"/>
    <tag k="addr:street" v="Park Road"/>
    <tag k="source" v="survey"/>
  </node>
  <node id="916285635" version="1" timestamp="2010-09-18T04:24:13Z" uid="7617" user="Franc" changeset="5808700" lat="-33.9018288" lon="151.1578661">
    <tag k="addr:housenumber" v="41"/>
    <tag k="addr:street" v="Neville Street"/>
    <tag k="source" v="extrapolation"/>
  </node>
  <node id="916285636" version="1" timestamp="2010-09-18T04:24:14Z" uid="7617" user="Franc" changeset="5808700" lat="-33.8978311" lon="151.1734743">
    <tag k="addr:housenumber" v="16"/>
    <tag k="addr:street" v="Phillip Street"/>
    <tag k="source" v="exrapolation"/>
  </node>
  <node id="916285636" version="2" timestamp="2011-05-29T08:33:00Z" uid="7617" user="Franc" changeset="8278454" lat="-33.8978311" lon="151.1734743">
    <tag k="addr:housenumber" v="16"/>
    <tag k="addr:street" v="Phillip Street"/>
    <tag k="source" v="extrapolation"/>
  </node>
  <node id="916285637" version="1" timestamp="2010-09-18T04:24:14Z" uid="7617" user="Franc" changeset="5808700" lat="-33.9008238" lon="151.1559619">
    <tag k="addr:housenumber" v="18"/>
    <tag k="addr:street" v="Coronation Avenue"/>
    <tag k="source" v="extrapolation"/>
  </node>
  <node id="916285638" version="1" timestamp="2010-09-18T04:24:14Z" uid="7617" user="Franc" changeset="5808700" lat="-33.8957122" lon="151.1717471"/>
  <node id="916285639" version="1" timestamp="2010-09-18T04:24:14Z" uid="7617" user="Franc" changeset="5808700" lat="-33.9022326" lon="151.1573016">
    <tag k="addr:housenumber" v="64"/>
    <tag k="addr:street" v="Neville Street"/>
    <tag k="source" v="survey"/>
  </node>
  <node id="916285640" version="1" timestamp="2010-09-18T04:24:14Z" uid="7617" user="Franc" changeset="5808700" lat="-33.8994748" lon="151.1578419">
    <tag k="addr:housenumber" v="1"/>
    <tag k="addr:street" v="John Street"/>
    <tag k="source" v="survey"/>
  </node>
  <node id="916285641" version="1" timestamp="2010-09-18T04:24:14Z" uid="7617" user="Franc" changeset="5808700" lat="-33.9009447" lon="151.1569901">
    <tag k="addr:housenumber" v="21"/>
    <tag k="addr:street" v="Park Road"/>
    <tag k="source" v="extrapolation"/>
  </node>
  <node id="916285642" version="1" timestamp="2010-09-18T04:24:14Z" uid="7617" user="Franc" changeset="5808700" lat="-33.8981324" lon="151.1570745">
    <tag k="addr:housenumber" v="28"/>
    <tag k="addr:street" v="Albert Street"/>
    <tag k="source" v="survey"/>
  </node>
  <node id="916285643" version="1" timestamp="2010-09-18T04:24:14Z" uid="7617" user="Franc" changeset="5808700" lat="-33.9001541" lon="151.1578647">
    <tag k="addr:housenumber" v="4"/>
    <tag k="addr:street" v="Park Road"/>
    <tag k="source" v="survey"/>
  </node>
  <node id="916285644" version="1" timestamp="2010-09-18T04:24:14Z" uid="7617" user="Franc" changeset="5808700" lat="-33.8994644" lon="151.1576702">
    <tag k="addr:housenumber" v="4"/>
    <tag k="addr:street" v="John Street"/>
    <tag k="source" v="survey"/>
  </node>
  <node id="916285645" version="1" timestamp="2010-09-18T04:24:14Z" uid="7617" user="Franc" changeset="5808700" lat="-33.9004731" lon="151.1576219">
    <tag k="addr:housenumber" v="14"/>
    <tag k="addr:street" v="Park Road"/>
    <tag k="source" v="extrapolation"/>
  </node>
  <node id="916285646" version="1" timestamp="2010-09-18T04:24:14Z" uid="7617" user="Franc" changeset="5808700" lat="-33.8979708" lon="151.1568915">
    <tag k="addr:housenumber" v="26"/>
    <tag k="addr:street" v="Oxford Street"/>
    <tag k="source" v="survey"/>
  </node>
  <node id="916285647" version="1" timestamp="2010-09-18T04:24:14Z" uid="7617" user="Franc" changeset="5808700" lat="-33.896809" lon="151.1586422">
    <tag k="addr:housenumber" v="70"/>
    <tag k="addr:street" v="John Street"/>
    <tag k="source" v="survey"/>
  </node>
  <node id="916285647" version="2" timestamp="2011-04-03T07:49:52Z" uid="7617" user="Franc" changeset="7750988" lat="-33.8967931" lon="151.1586492">
    <tag k="addr:housenumber" v="70"/>
    <tag k="addr:street" v="John Street"/>
    <tag k="source" v="survey"/>
  </node>
  <node id="916285648" version="1" timestamp="2010-09-18T04:24:15Z" uid="7617" user="Franc" changeset="5808700" lat="-33.9017804" lon="151.1565861">
    <tag k="addr:housenumber" v="44"/>
    <tag k="addr:street" v="Park Road"/>
    <tag k="source" v="survey"/>
  </node>
  <node id="916285648" version="2" timestamp="2011-04-23T12:54:08Z" uid="7617" user="Franc" changeset="7943317" lat="-33.901199" lon="151.1570407">
    <tag k="addr:housenumber" v="30"/>
    <tag k="addr:street" v="Park Road"/>
    <tag k="source" v="survey"/>
  </node>
  <node id="916285649" version="1" timestamp="2010-09-18T04:24:15Z" uid="7617" user="Franc" changeset="5808700" lat="-33.8974283" lon="151.1728161"/>
  <node id="916285650" version="1" timestamp="2010-09-18T04:24:15Z" uid="7617" user="Franc" changeset="5808700" lat="-33.896694" lon="151.1586814">
    <tag k="addr:housenumber" v="72"/>
    <tag k="addr:street" v="John Street"/>
    <tag k="source" v="survey"/>
  </node>
  <node id="916285651" version="1" timestamp="2010-09-18T04:24:15Z" uid="7617" user="Franc" changeset="5808700" lat="-33.9003616" lon="151.1577076">
    <tag k="addr:housenumber" v="12"/>
    <tag k="addr:street" v="Park Road"/>
    <tag k="source" v="survey"/>
  </node>
  <node id="916285652" version="1" timestamp="2010-09-18T04:24:15Z" uid="7617" user="Franc" changeset="5808700" lat="-33.8978156" lon="151.1568399">
    <tag k="addr:housenumber" v="1"/>
    <tag k="addr:street" v="Oxford Street"/>
    <tag k="source" v="survey"/>
  </node>
  <node id="916285653" version="1" timestamp="2010-09-18T04:24:15Z" uid="7617" user="Franc" changeset="5808700" lat="-33.8968941" lon="151.1730327">
    <tag k="addr:housenumber" v="2"/>
    <tag k="addr:street" v="Gladstone Street"/>
    <tag k="source" v="survey"/>
  </node>
  <node id="916285654" version="1" timestamp="2010-09-18T04:24:15Z" uid="7617" user="Franc" changeset="5808700" lat="-33.901294" lon="151.1567027">
    <tag k="addr:housenumber" v="29"/>
    <tag k="addr:street" v="Park Road"/>
    <tag k="source" v="survey"/>
  </node>
  <node id="916285655" version="1" timestamp="2010-09-18T04:24:15Z" uid="7617" user="Franc" changeset="5808700" lat="-33.8981646" lon="151.1583233">
    <tag k="addr:housenumber" v="29"/>
    <tag k="addr:street" v="John Street"/>
    <tag k="source" v="survey"/>
  </node>
  <node id="916285655" version="2" timestamp="2010-11-14T06:37:31Z" uid="7617" user="Franc" changeset="6363993" lat="-33.8982757" lon="151.1582879">
    <tag k="addr:housenumber" v="27"/>
    <tag k="addr:street" v="John Street"/>
    <tag k="source" v="survey"/>
  </node>
  <node id="916285656" version="1" timestamp="2010-09-18T04:24:16Z" uid="7617" user="Franc" changeset="5808700" lat="-33.9001213" lon="151.1560437">
    <tag k="addr:housenumber" v="8"/>
    <tag k="addr:street" v="Coronation Avenue"/>
    <tag k="source" v="extrapolation"/>
  </node>
  <node id="916285657" version="1" timestamp="2010-09-18T04:24:16Z" uid="7617" user="Franc" changeset="5808700" lat="-33.8965365" lon="151.1724651"/>
  <node id="916285658" version="1" timestamp="2010-09-18T04:24:16Z" uid="7617" user="Franc" changeset="5808700" lat="-33.9004286" lon="151.1567069">
    <tag k="addr:housenumber" v="5"/>
    <tag k="addr:street" v="Rose Street"/>
    <tag k="source" v="survey"/>
  </node>
  <node id="916285659" version="1" timestamp="2010-09-18T04:24:16Z" uid="7617" user="Franc" changeset="5808700" lat="-33.8977678" lon="151.173446">
    <tag k="addr:housenumber" v="18"/>
    <tag k="addr:street" v="Phillip Street"/>
    <tag k="source" v="survey"/>
  </node>
  <node id="916285660" version="1" timestamp="2010-09-18T04:24:16Z" uid="7617" user="Franc" changeset="5808700" lat="-33.9137207" lon="151.1663771"/>
  <node id="916285661" version="1" timestamp="2010-09-18T04:24:16Z" uid="7617" user="Franc" changeset="5808700" lat="-33.8980949" lon="151.1581725">
    <tag k="addr:housenumber" v="40"/>
    <tag k="addr:street" v="John Street"/>
    <tag k="source" v="survey"/>
  </node>
  <node id="916285662" version="1" timestamp="2010-09-18T04:24:16Z" uid="7617" user="Franc" changeset="5808700" lat="-33.9021496" lon="151.1562891">
    <tag k="addr:housenumber" v="52"/>
    <tag k="addr:street" v="Park Road"/>
    <tag k="source" v="survey"/>
  </node>
  <node id="916285662" version="2" timestamp="2011-04-23T12:55:06Z" uid="7617" user="Franc" changeset="7943317" lat="-33.90214" lon="151.1562901">
    <tag k="addr:housenumber" v="52"/>
    <tag k="addr:street" v="Park Road"/>
    <tag k="source" v="survey"/>
  </node>
  <node id="916285663" version="1" timestamp="2010-09-18T04:24:16Z" uid="7617" user="Franc" changeset="5808700" lat="-33.9002763" lon="151.1575162">
    <tag k="addr:housenumber" v="7"/>
    <tag k="addr:street" v="Park Road"/>
    <tag k="source" v="survey"/>
  </node>
  <node id="916285664" version="1" timestamp="2010-09-18T04:24:16Z" uid="7617" user="Franc" changeset="5808700" lat="-33.9008326" lon="151.1584007">
    <tag k="addr:housenumber" v="108"/>
    <tag k="addr:street" v="Neville Street"/>
    <tag k="source" v="survey"/>
  </node>
  <node id="916285665" version="1" timestamp="2010-09-18T04:24:16Z" uid="7617" user="Franc" changeset="5808700" lat="-33.8998933" lon="151.1560712">
    <tag k="addr:housenumber" v="4"/>
    <tag k="addr:street" v="Coronation Avenue"/>
    <tag k="source" v="survey"/>
  </node>
  <node id="916285666" version="1" timestamp="2010-09-18T04:24:16Z" uid="7617" user="Franc" changeset="5808700" lat="-33.9005667" lon="151.1575448">
    <tag k="addr:housenumber" v="16"/>
    <tag k="addr:street" v="Park Road"/>
    <tag k="source" v="survey"/>
  </node>
  <node id="916285666" version="2" timestamp="2011-04-23T12:54:10Z" uid="7617" user="Franc" changeset="7943317" lat="-33.9005552" lon="151.157548">
    <tag k="addr:housenumber" v="16"/>
    <tag k="addr:street" v="Park Road"/>
    <tag k="source" v="survey"/>
  </node>
  <node id="916285667" version="1" timestamp="2010-09-18T04:24:16Z" uid="7617" user="Franc" changeset="5808700" lat="-33.9017607" lon="151.1579204">
    <tag k="addr:housenumber" v="43"/>
    <tag k="addr:street" v="Neville Street"/>
    <tag k="source" v="survey"/>
  </node>
  <node id="916285668" version="1" timestamp="2010-09-18T04:24:17Z" uid="7617" user="Franc" changeset="5808700" lat="-33.8979384" lon="151.1567721">
    <tag k="addr:housenumber" v="2a"/>
    <tag k="addr:street" v="Oxford Street"/>
    <tag k="source" v="survey"/>
  </node>
  <node id="916285669" version="1" timestamp="2010-09-18T04:24:17Z" uid="7617" user="Franc" changeset="5808700" lat="-33.8977537" lon="151.1559344">
    <tag k="addr:housenumber" v="22"/>
    <tag k="addr:street" v="Shaw Street"/>
    <tag k="source" v="survey"/>
  </node>
  <node id="916285670" version="1" timestamp="2010-09-18T04:24:17Z" uid="7617" user="Franc" changeset="5808700" lat="-33.9006106" lon="151.1559844">
    <tag k="addr:housenumber" v="14"/>
    <tag k="addr:street" v="Coronation Avenue"/>
    <tag k="source" v="survey"/>
  </node>
  <node id="916285671" version="1" timestamp="2010-09-18T04:24:17Z" uid="7617" user="Franc" changeset="5808700" lat="-33.9033138" lon="151.1552292"/>
  <node id="916285672" version="1" timestamp="2010-09-18T04:24:17Z" uid="7617" user="Franc" changeset="5808700" lat="-33.8961446" lon="151.1714738"/>
  <node id="916285673" version="1" timestamp="2010-09-18T04:24:17Z" uid="7617" user="Franc" changeset="5808700" lat="-33.9011205" lon="151.1557081">
    <tag k="addr:housenumber" v="7"/>
    <tag k="addr:street" v="Coronation Avenue"/>
    <tag k="source" v="extrapolation"/>
  </node>
  <node id="916285674" version="1" timestamp="2010-09-18T04:24:17Z" uid="7617" user="Franc" changeset="5808700" lat="-33.896748" lon="151.1588396">
    <tag k="addr:housenumber" v="59"/>
    <tag k="addr:street" v="John Street"/>
    <tag k="source" v="survey"/>
  </node>
  <node id="916285675" version="1" timestamp="2010-09-18T04:24:17Z" uid="7617" user="Franc" changeset="5808700" lat="-33.8979411" lon="151.1716997">
    <tag k="traffic_calming" v="table"/>
  </node>
  <node id="916285676" version="1" timestamp="2010-09-18T04:24:17Z" uid="7617" user="Franc" changeset="5808700" lat="-33.9008465" lon="151.157063">
    <tag k="addr:housenumber" v="19"/>
    <tag k="addr:street" v="Park Road"/>
    <tag k="source" v="extrapolation"/>
  </node>
  <node id="916286321" version="2" timestamp="2011-04-09T06:36:39Z" uid="7617" user="Franc" changeset="7810201" lat="-34.902522" lon="150.6185688"/>
  <node id="916286322" version="2" timestamp="2011-04-09T06:36:42Z" uid="7617" user="Franc" changeset="7810201" lat="-34.9024723" lon="150.6232594">
    <tag k="highway" v="turning_circle"/>
  </node>
  <node id="916286323" version="2" timestamp="2011-04-09T06:36:51Z" uid="7617" user="Franc" changeset="7810201" lat="-34.9006949" lon="150.6208993"/>
  <node id="916286326" version="2" timestamp="2011-04-09T06:36:34Z" uid="7617" user="Franc" changeset="7810201" lat="-34.9004142" lon="150.6186745"/>
  <node id="916286328" version="2" timestamp="2011-04-09T06:36:44Z" uid="7617" user="Franc" changeset="7810201" lat="-34.8988026" lon="150.6207475">
    <tag k="highway" v="turning_circle"/>
  </node>
  <node id="916286329" version="3" timestamp="2011-04-09T06:36:53Z" uid="7617" user="Franc" changeset="7810201" lat="-34.9015795" lon="150.6269695"/>
  <node id="916286330" version="2" timestamp="2011-04-09T06:36:54Z" uid="7617" user="Franc" changeset="7810201" lat="-34.902266" lon="150.6223377">
    <tag k="highway" v="turning_circle"/>
  </node>
  <node id="916286331" version="2" timestamp="2011-04-09T06:36:34Z" uid="7617" user="Franc" changeset="7810201" lat="-34.9008674" lon="150.6271455"/>
  <node id="916286333" version="2" timestamp="2011-04-09T06:36:47Z" uid="7617" user="Franc" changeset="7810201" lat="-34.9002906" lon="150.6199781">
    <tag k="highway" v="turning_circle"/>
  </node>
  <node id="916286334" version="2" timestamp="2011-04-09T06:36:48Z" uid="7617" user="Franc" changeset="7810201" lat="-34.8999263" lon="150.6260697"/>
  <node id="916286335" version="2" timestamp="2011-04-09T06:36:58Z" uid="7617" user="Franc" changeset="7810201" lat="-34.9025205" lon="150.6200631"/>
  <node id="916286337" version="2" timestamp="2011-04-09T06:36:42Z" uid="7617" user="Franc" changeset="7810201" lat="-34.8989929" lon="150.6216289"/>
  <node id="916286339" version="2" timestamp="2011-04-09T06:36:53Z" uid="7617" user="Franc" changeset="7810201" lat="-34.9017611" lon="150.6224141"/>
  <node id="916286340" version="2" timestamp="2011-04-09T06:36:55Z" uid="7617" user="Franc" changeset="7810201" lat="-34.899157" lon="150.6221363"/>
  <node id="916286341" version="2" timestamp="2011-04-09T06:36:34Z" uid="7617" user="Franc" changeset="7810201" lat="-34.9007253" lon="150.6230234">
    <tag k="highway" v="turning_circle"/>
  </node>
  <node id="916286344" version="2" timestamp="2011-04-09T06:36:47Z" uid="7617" user="Franc" changeset="7810201" lat="-34.8995038" lon="150.6238592"/>
  <node id="916286345" version="2" timestamp="2011-04-09T06:36:55Z" uid="7617" user="Franc" changeset="7810201" lat="-34.8998961" lon="150.6202064"/>
  <node id="916286348" version="2" timestamp="2011-04-09T06:36:40Z" uid="7617" user="Franc" changeset="7810201" lat="-34.9006818" lon="150.6250824"/>
  <node id="916286350" version="2" timestamp="2011-04-09T06:36:51Z" uid="7617" user="Franc" changeset="7810201" lat="-34.9025492" lon="150.6238378"/>
  <node id="916286351" version="2" timestamp="2011-04-09T06:36:30Z" uid="7617" user="Franc" changeset="7810201" lat="-34.9003932" lon="150.6242234"/>
  <node id="916286352" version="2" timestamp="2011-04-09T06:36:59Z" uid="7617" user="Franc" changeset="7810201" lat="-34.9033354" lon="150.6196049"/>
  <node id="916286355" version="2" timestamp="2011-04-09T06:36:50Z" uid="7617" user="Franc" changeset="7810201" lat="-34.9015353" lon="150.6218096"/>
  <node id="916286356" version="2" timestamp="2011-04-09T06:36:53Z" uid="7617" user="Franc" changeset="7810201" lat="-34.8992742" lon="150.6225791"/>
  <node id="916286358" version="2" timestamp="2011-04-09T06:36:34Z" uid="7617" user="Franc" changeset="7810201" lat="-34.9000802" lon="150.6211935"/>
  <node id="916286359" version="2" timestamp="2011-04-09T06:36:44Z" uid="7617" user="Franc" changeset="7810201" lat="-34.9019398" lon="150.6194634"/>
  <node id="916286360" version="2" timestamp="2011-04-09T06:36:43Z" uid="7617" user="Franc" changeset="7810201" lat="-34.9060803" lon="150.6192493"/>
  <node id="916286361" version="2" timestamp="2011-04-09T06:36:52Z" uid="7617" user="Franc" changeset="7810201" lat="-34.9014938" lon="150.6250372"/>
  <node id="916286362" version="3" timestamp="2011-04-09T06:36:54Z" uid="7617" user="Franc" changeset="7810201" lat="-34.9021776" lon="150.625298"/>
  <node id="916286364" version="2" timestamp="2011-04-09T06:36:36Z" uid="7617" user="Franc" changeset="7810201" lat="-34.9007658" lon="150.6185703"/>
  <node id="916286367" version="2" timestamp="2011-04-09T06:36:57Z" uid="7617" user="Franc" changeset="7810201" lat="-34.9010606" lon="150.6217583"/>
  <node id="916286368" version="2" timestamp="2011-04-09T06:36:39Z" uid="7617" user="Franc" changeset="7810201" lat="-34.9007208" lon="150.6261323"/>
  <node id="916286370" version="2" timestamp="2011-04-09T06:36:50Z" uid="7617" user="Franc" changeset="7810201" lat="-34.8994028" lon="150.6228683"/>
  <node id="916286372" version="2" timestamp="2011-04-09T06:36:31Z" uid="7617" user="Franc" changeset="7810201" lat="-34.9033411" lon="150.623674"/>
  <node id="916286373" version="3" timestamp="2011-04-09T06:36:41Z" uid="7617" user="Franc" changeset="7810201" lat="-34.9020461" lon="150.6257378"/>
  <node id="916286374" version="2" timestamp="2011-04-09T06:36:43Z" uid="7617" user="Franc" changeset="7810201" lat="-34.8991894" lon="150.6217826"/>
  <node id="916286376" version="2" timestamp="2011-04-09T06:37:00Z" uid="7617" user="Franc" changeset="7810201" lat="-34.9010655" lon="150.6250627"/>
  <node id="916286378" version="3" timestamp="2011-04-09T06:36:33Z" uid="7617" user="Franc" changeset="7810201" lat="-34.9030267" lon="150.6266719"/>
  <node id="916286380" version="2" timestamp="2011-04-09T06:36:45Z" uid="7617" user="Franc" changeset="7810201" lat="-34.9015165" lon="150.618017">
    <tag k="highway" v="turning_circle"/>
  </node>
  <node id="916286381" version="3" timestamp="2011-04-09T06:36:54Z" uid="7617" user="Franc" changeset="7810201" lat="-34.901933" lon="150.625885"/>
  <node id="916286382" version="2" timestamp="2011-04-09T06:36:56Z" uid="7617" user="Franc" changeset="7810201" lat="-34.8997906" lon="150.6233969"/>
  <node id="916286383" version="2" timestamp="2011-04-09T06:36:35Z" uid="7617" user="Franc" changeset="7810201" lat="-34.901798" lon="150.6239948"/>
  <node id="916286384" version="2" timestamp="2011-04-09T06:36:34Z" uid="7617" user="Franc" changeset="7810201" lat="-34.9021114" lon="150.6209225"/>
  <node id="916286385" version="2" timestamp="2011-04-09T06:36:45Z" uid="7617" user="Franc" changeset="7810201" lat="-34.9023288" lon="150.6248134">
    <tag k="highway" v="turning_circle"/>
  </node>
  <node id="916286386" version="2" timestamp="2011-04-09T06:36:48Z" uid="7617" user="Franc" changeset="7810201" lat="-34.8991535" lon="150.6219456"/>
  <node id="916286388" version="2" timestamp="2011-04-09T06:36:59Z" uid="7617" user="Franc" changeset="7810201" lat="-34.9011739" lon="150.6215235"/>
  <node id="916286391" version="2" timestamp="2011-04-09T06:36:49Z" uid="7617" user="Franc" changeset="7810201" lat="-34.9030866" lon="150.6253247"/>
  <node id="916286392" version="2" timestamp="2011-04-09T06:36:49Z" uid="7617" user="Franc" changeset="7810201" lat="-34.8996964" lon="150.61946"/>
  <node id="916286393" version="2" timestamp="2011-04-09T06:36:58Z" uid="7617" user="Franc" changeset="7810201" lat="-34.8996302" lon="150.6196282"/>
  <node id="916286394" version="2" timestamp="2011-04-09T06:36:30Z" uid="7617" user="Franc" changeset="7810201" lat="-34.9021897" lon="150.6171457">
    <tag k="highway" v="turning_circle"/>
  </node>
  <node id="916286395" version="2" timestamp="2011-04-09T06:36:40Z" uid="7617" user="Franc" changeset="7810201" lat="-34.8999027" lon="150.6178588"/>
  <node id="916286396" version="2" timestamp="2011-04-09T06:36:42Z" uid="7617" user="Franc" changeset="7810201" lat="-34.9011882" lon="150.624016"/>
  <node id="916286397" version="2" timestamp="2011-04-09T06:36:51Z" uid="7617" user="Franc" changeset="7810201" lat="-34.9007579" lon="150.626791"/>
  <node id="916286398" version="2" timestamp="2011-04-09T06:36:54Z" uid="7617" user="Franc" changeset="7810201" lat="-34.9031896" lon="150.6186233"/>
  <node id="916286399" version="2" timestamp="2011-04-09T06:36:33Z" uid="7617" user="Franc" changeset="7810201" lat="-34.9013367" lon="150.6240857"/>
  <node id="916286400" version="2" timestamp="2011-04-09T06:36:50Z" uid="7617" user="Franc" changeset="7810201" lat="-34.9001093" lon="150.6262684"/>
  <node id="916286401" version="2" timestamp="2011-04-09T06:36:29Z" uid="7617" user="Franc" changeset="7810201" lat="-34.9013111" lon="150.6202778"/>
  <node id="916286749" version="2" timestamp="2011-04-09T07:09:37Z" uid="7617" user="Franc" changeset="7810389" lat="-34.9234189" lon="150.671461"/>
  <node id="916287020" version="2" timestamp="2011-04-09T07:09:47Z" uid="7617" user="Franc" changeset="7810389" lat="-34.9235" lon="150.6716121"/>
  <node id="916287043" version="2" timestamp="2011-04-09T07:09:41Z" uid="7617" user="Franc" changeset="7810389" lat="-34.9022604" lon="150.6706844"/>
  <node id="916287058" version="2" timestamp="2011-04-09T07:09:35Z" uid="7617" user="Franc" changeset="7810389" lat="-34.9017472" lon="150.6705349"/>
  <node id="916287066" version="2" timestamp="2011-04-09T07:09:41Z" uid="7617" user="Franc" changeset="7810389" lat="-34.90165" lon="150.6704065"/>
  <node id="916287304" version="3" timestamp="2010-11-29T09:17:13Z" uid="171838" user="argrath" changeset="6484769" lat="34.5539516" lon="135.512428"/>
  <node id="916287619" version="2" timestamp="2011-01-07T04:23:25Z" uid="30201" user="rrankin" changeset="6889372" lat="-34.898994" lon="150.674091"/>
  <node id="916287622" version="2" timestamp="2011-01-07T04:23:06Z" uid="30201" user="rrankin" changeset="6889372" lat="-34.8989138" lon="150.6724144"/>
  <node id="916287622" version="3" timestamp="2011-04-09T07:09:45Z" uid="7617" user="Franc" changeset="7810389" lat="-34.8988864" lon="150.6724144"/>
</osm>
