<?xml version='1.0' encoding='UTF-8'?>
<osm version="0.6" generator="libosmium/2.20.0">
  <node id="918284099" version="2" timestamp="2011-01-12T04:02:14Z" uid="4467" user="Rosscoe" changeset="6943922" lat="-34.4296757" lon="150.8926444"/>
  <node id="918284112" version="2" timestamp="2011-01-12T04:02:16Z" uid="4467" user="Rosscoe" changeset="6943922" lat="-34.4296837" lon="150.8927228"/>
  <node id="918284116" version="2" timestamp="2011-01-12T04:02:09Z" uid="4467" user="Rosscoe" changeset="6943922" lat="-34.4297367" lon="150.8927828"/>
  <node id="918284118" version="2" timestamp="2011-01-12T04:02:11Z" uid="4467" user="Rosscoe" changeset="6943922" lat="-34.429771" lon="150.8927916"/>
  <node id="918284121" version="2" timestamp="2011-01-12T04:02:15Z" uid="4467" user="Rosscoe" changeset="6943922" lat="-34.4298253" lon="150.892775"/>
  <node id="918284125" version="2" timestamp="2011-01-12T04:02:09Z" uid="4467" user="Rosscoe" changeset="6943922" lat="-34.4298733" lon="150.8926937"/>
  <node id="918284128" version="2" timestamp="2011-01-12T04:02:13Z" uid="4467" user="Rosscoe" changeset="6943922" lat="-34.4298645" lon="150.8926144"/>
  <node id="918284132" version="2" timestamp="2011-01-12T04:02:15Z" uid="4467" user="Rosscoe" changeset="6943922" lat="-34.4298128" lon="150.8925563"/>
  <node id="918284133" version="2" timestamp="2011-01-12T04:02:12Z" uid="4467" user="Rosscoe" changeset="6943922" lat="-34.4297786" lon="150.8925472"/>
  <node id="918284135" version="2" timestamp="2011-01-12T04:02:13Z" uid="4467" user="Rosscoe" changeset="6943922" lat="-34.4297244" lon="150.8925632"/>
  <node id="918285461" version="1" timestamp="2010-09-19T12:55:42Z" uid="7617" user="Franc" changeset="5819508" lat="-33.9076108" lon="151.1492563">
    <tag k="addr:housenumber" v="353"/>
    <tag k="addr:street" v="Marrickville Road"/>
    <tag k="source" v="exrapolation"/>
  </node>
  <node id="918285461" version="2" timestamp="2010-11-05T09:36:03Z" uid="7617" user="Franc" changeset="6293977" lat="-33.9076108" lon="151.1492563">
    <tag k="addr:housenumber" v="353"/>
    <tag k="addr:street" v="Marrickville Road"/>
    <tag k="source" v="extrapolation"/>
  </node>
  <node id="918285461" version="3" timestamp="2011-04-26T02:09:16Z" uid="7617" user="Franc" changeset="7970426" lat="-33.907605" lon="151.1492588">
    <tag k="addr:housenumber" v="353"/>
    <tag k="addr:street" v="Marrickville Road"/>
    <tag k="source" v="extrapolation"/>
  </node>
  <node id="918285467" version="1" timestamp="2010-09-19T12:55:42Z" uid="7617" user="Franc" changeset="5819508" lat="-33.9042888" lon="151.1462342">
    <tag k="addr:housenumber" v="10"/>
    <tag k="addr:street" v="Charlecot Street"/>
    <tag k="source" v="exrapolation"/>
  </node>
  <node id="918285467" version="2" timestamp="2011-04-26T08:22:03Z" uid="7617" user="Franc" changeset="7972119" lat="-33.9042888" lon="151.1462342">
    <tag k="addr:housenumber" v="10"/>
    <tag k="addr:street" v="Charlecot Street"/>
    <tag k="source" v="extrapolation"/>
  </node>
  <node id="918285471" version="1" timestamp="2010-09-19T12:55:42Z" uid="7617" user="Franc" changeset="5819508" lat="-33.9045015" lon="151.1461677">
    <tag k="addr:housenumber" v="19"/>
    <tag k="addr:street" v="Charlecot Street"/>
    <tag k="source" v="exrapolation"/>
  </node>
  <node id="918285471" version="2" timestamp="2011-04-26T08:22:00Z" uid="7617" user="Franc" changeset="7972119" lat="-33.9045015" lon="151.1461677">
    <tag k="addr:housenumber" v="19"/>
    <tag k="addr:street" v="Charlecot Street"/>
    <tag k="source" v="extrapolation"/>
  </node>
  <node id="918285478" version="1" timestamp="2010-09-19T12:55:42Z" uid="7617" user="Franc" changeset="5819508" lat="-33.9102383" lon="151.1493566">
    <tag k="addr:housenumber" v="45"/>
    <tag k="addr:street" v="Robert Street"/>
    <tag k="source" v="exrapolation"/>
  </node>
  <node id="918285478" version="2" timestamp="2010-11-05T09:36:01Z" uid="7617" user="Franc" changeset="6293977" lat="-33.9102383" lon="151.1493566">
    <tag k="addr:housenumber" v="45"/>
    <tag k="addr:street" v="Robert Street"/>
    <tag k="source" v="extrapolation"/>
  </node>
  <node id="918285482" version="1" timestamp="2010-09-19T12:55:42Z" uid="7617" user="Franc" changeset="5819508" lat="-33.9104902" lon="151.1494928">
    <tag k="addr:housenumber" v="49"/>
    <tag k="addr:street" v="Robert Street"/>
    <tag k="source" v="survey"/>
  </node>
  <node id="918285486" version="1" timestamp="2010-09-19T12:55:42Z" uid="7617" user="Franc" changeset="5819508" lat="-33.9075454" lon="151.1490346">
    <tag k="addr:housenumber" v="357"/>
    <tag k="addr:street" v="Marrickville Road"/>
    <tag k="source" v="survey"/>
  </node>
  <node id="918285486" version="2" timestamp="2011-04-26T02:09:17Z" uid="7617" user="Franc" changeset="7970426" lat="-33.9075421" lon="151.1490507">
    <tag k="addr:housenumber" v="357"/>
    <tag k="addr:street" v="Marrickville Road"/>
    <tag k="source" v="survey"/>
  </node>
  <node id="918285490" version="1" timestamp="2010-09-19T12:55:42Z" uid="7617" user="Franc" changeset="5819508" lat="-33.9086835" lon="151.1490216">
    <tag k="addr:housenumber" v="11"/>
    <tag k="addr:street" v="Robert Street"/>
    <tag k="source" v="exrapolation"/>
  </node>
  <node id="918285490" version="2" timestamp="2010-11-05T09:36:09Z" uid="7617" user="Franc" changeset="6293977" lat="-33.9086835" lon="151.1490216">
    <tag k="addr:housenumber" v="11"/>
    <tag k="addr:street" v="Robert Street"/>
    <tag k="source" v="extrapolation"/>
  </node>
  <node id="918285498" version="1" timestamp="2010-09-19T12:55:43Z" uid="7617" user="Franc" changeset="5819508" lat="-33.9056084" lon="151.1495941">
    <tag k="addr:housenumber" v="41"/>
    <tag k="addr:street" v="Woodbury Street"/>
    <tag k="source" v="survey"/>
  </node>
  <node id="918285501" version="1" timestamp="2010-09-19T12:55:43Z" uid="7617" user="Franc" changeset="5819508" lat="-33.9108916" lon="151.1427909">
    <tag k="addr:housenumber" v="10"/>
    <tag k="addr:street" v="Wilga Avenue"/>
    <tag k="source" v="extrapolation"/>
  </node>
  <node id="918285504" version="1" timestamp="2010-09-19T12:55:43Z" uid="7617" user="Franc" changeset="5819508" lat="-33.9036875" lon="151.1459058">
    <tag k="addr:housenumber" v="5"/>
    <tag k="addr:street" v="Fairfowl Street"/>
    <tag k="source" v="survey"/>
  </node>
  <node id="918285508" version="1" timestamp="2010-09-19T12:55:43Z" uid="7617" user="Franc" changeset="5819508" lat="-33.908271" lon="151.1494465">
    <tag k="addr:housenumber" v="2"/>
    <tag k="addr:street" v="Robert Street"/>
    <tag k="source" v="survey"/>
  </node>
  <node id="918285515" version="1" timestamp="2010-09-19T12:55:43Z" uid="7617" user="Franc" changeset="5819508" lat="-33.9038166" lon="151.1457318">
    <tag k="addr:housenumber" v="1"/>
    <tag k="addr:street" v="Fairfowl Street"/>
    <tag k="source" v="survey"/>
  </node>
  <node id="918285520" version="1" timestamp="2010-09-19T12:55:43Z" uid="7617" user="Franc" changeset="5819508" lat="-33.9051691" lon="151.1525974">
    <tag k="addr:housenumber" v="47"/>
    <tag k="addr:street" v="George Street"/>
    <tag k="source" v="survey"/>
  </node>
  <node id="918285525" version="1" timestamp="2010-09-19T12:55:44Z" uid="7617" user="Franc" changeset="5819508" lat="-33.9120035" lon="151.147906">
    <tag k="addr:housenumber" v="227"/>
    <tag k="addr:street" v="Livingstone Road"/>
    <tag k="source" v="exrapolation"/>
  </node>
  <node id="918285525" version="2" timestamp="2011-04-23T12:54:15Z" uid="7617" user="Franc" changeset="7943317" lat="-33.9120035" lon="151.147906">
    <tag k="addr:housenumber" v="227"/>
    <tag k="addr:street" v="Livingstone Road"/>
    <tag k="source" v="extrapolation"/>
  </node>
  <node id="918285535" version="1" timestamp="2010-09-19T12:55:44Z" uid="7617" user="Franc" changeset="5819508" lat="-33.9102908" lon="151.1496192">
    <tag k="addr:housenumber" v="48"/>
    <tag k="addr:street" v="Robert Street"/>
    <tag k="source" v="survey"/>
  </node>
  <node id="918285536" version="1" timestamp="2010-09-19T12:55:44Z" uid="7617" user="Franc" changeset="5819508" lat="-33.9098537" lon="151.1491422">
    <tag k="addr:housenumber" v="37"/>
    <tag k="addr:street" v="Robert Street"/>
    <tag k="source" v="exrapolation"/>
  </node>
  <node id="918285536" version="2" timestamp="2010-11-05T09:36:08Z" uid="7617" user="Franc" changeset="6293977" lat="-33.9098537" lon="151.1491422">
    <tag k="addr:housenumber" v="37"/>
    <tag k="addr:street" v="Robert Street"/>
    <tag k="source" v="extrapolation"/>
  </node>
  <node id="918285537" version="1" timestamp="2010-09-19T12:55:44Z" uid="7617" user="Franc" changeset="5819508" lat="-33.9087205" lon="151.1491336">
    <tag k="traffic_calming" v="table"/>
  </node>
  <node id="918285539" version="1" timestamp="2010-09-19T12:55:44Z" uid="7617" user="Franc" changeset="5819508" lat="-33.9046974" lon="151.1464031">
    <tag k="addr:housenumber" v="25"/>
    <tag k="addr:street" v="Charlecot Street"/>
    <tag k="source" v="exrapolation"/>
  </node>
  <node id="918285539" version="2" timestamp="2011-04-26T08:22:05Z" uid="7617" user="Franc" changeset="7972119" lat="-33.9046974" lon="151.1464031">
    <tag k="addr:housenumber" v="25"/>
    <tag k="addr:street" v="Charlecot Street"/>
    <tag k="source" v="extrapolation"/>
  </node>
  <node id="918285554" version="1" timestamp="2010-09-19T12:55:44Z" uid="7617" user="Franc" changeset="5819508" lat="-33.9094476" lon="151.1489242">
    <tag k="addr:housenumber" v="27"/>
    <tag k="addr:street" v="Robert Street"/>
    <tag k="source" v="exrapolation"/>
  </node>
  <node id="918285554" version="2" timestamp="2010-11-05T09:36:07Z" uid="7617" user="Franc" changeset="6293977" lat="-33.9094476" lon="151.1489242">
    <tag k="addr:housenumber" v="27"/>
    <tag k="addr:street" v="Robert Street"/>
    <tag k="source" v="extrapolation"/>
  </node>
  <node id="918285557" version="1" timestamp="2010-09-19T12:55:45Z" uid="7617" user="Franc" changeset="5819508" lat="-33.9120755" lon="151.1478436">
    <tag k="addr:housenumber" v="229"/>
    <tag k="addr:street" v="Livingstone Road"/>
    <tag k="source" v="survey"/>
  </node>
  <node id="918285557" version="2" timestamp="2011-04-15T10:26:33Z" uid="7617" user="Franc" changeset="7868334" lat="-33.9120645" lon="151.1478617">
    <tag k="addr:housenumber" v="229"/>
    <tag k="addr:street" v="Livingstone Road"/>
    <tag k="source" v="survey"/>
  </node>
  <node id="918285559" version="1" timestamp="2010-09-19T12:55:45Z" uid="7617" user="Franc" changeset="5819508" lat="-33.9049586" lon="151.146725">
    <tag k="addr:housenumber" v="37"/>
    <tag k="addr:street" v="Charlecot Street"/>
    <tag k="source" v="survey"/>
  </node>
  <node id="918285561" version="1" timestamp="2010-09-19T12:55:45Z" uid="7617" user="Franc" changeset="5819508" lat="-33.9057287" lon="151.1495836">
    <tag k="addr:housenumber" v="37"/>
    <tag k="addr:street" v="Woodbury Street"/>
    <tag k="source" v="survey"/>
  </node>
  <node id="918285571" version="1" timestamp="2010-09-19T12:55:45Z" uid="7617" user="Franc" changeset="5819508" lat="-33.910594" lon="151.1495453">
    <tag k="addr:housenumber" v="51"/>
    <tag k="addr:street" v="Robert Street"/>
    <tag k="source" v="survey"/>
  </node>
  <node id="918285574" version="1" timestamp="2010-09-19T12:55:45Z" uid="7617" user="Franc" changeset="5819508" lat="-33.904627" lon="151.1466337">
    <tag k="addr:housenumber" v="26"/>
    <tag k="addr:street" v="Charlecot Street"/>
    <tag k="source" v="exrapolation"/>
  </node>
  <node id="918285574" version="2" timestamp="2011-05-29T08:32:45Z" uid="7617" user="Franc" changeset="8278454" lat="-33.904627" lon="151.1466337">
    <tag k="addr:housenumber" v="26"/>
    <tag k="addr:street" v="Charlecot Street"/>
    <tag k="source" v="extrapolation"/>
  </node>
  <node id="918285577" version="1" timestamp="2010-09-19T12:55:45Z" uid="7617" user="Franc" changeset="5819508" lat="-33.9119197" lon="151.1483095">
    <tag k="addr:housenumber" v="254"/>
    <tag k="addr:street" v="Livingstone Road"/>
    <tag k="source" v="survey"/>
  </node>
  <node id="918285580" version="1" timestamp="2010-09-19T12:55:45Z" uid="7617" user="Franc" changeset="5819508" lat="-33.9043252" lon="151.1413192">
    <tag k="addr:housenumber" v="5"/>
    <tag k="addr:street" v="Beach Road"/>
    <tag k="source" v="survey"/>
  </node>
  <node id="918285596" version="1" timestamp="2010-09-19T12:55:46Z" uid="7617" user="Franc" changeset="5819508" lat="-33.9108534" lon="151.1424633">
    <tag k="addr:housenumber" v="5"/>
    <tag k="addr:street" v="Wilga Avenue"/>
    <tag k="source" v="survey"/>
  </node>
  <node id="918285600" version="1" timestamp="2010-09-19T12:55:46Z" uid="7617" user="Franc" changeset="5819508" lat="-33.9076516" lon="151.1493846">
    <tag k="addr:housenumber" v="351"/>
    <tag k="addr:street" v="Marrickville Road"/>
    <tag k="source" v="exrapolation"/>
  </node>
  <node id="918285600" version="2" timestamp="2010-11-05T09:36:03Z" uid="7617" user="Franc" changeset="6293977" lat="-33.9076516" lon="151.1493846">
    <tag k="addr:housenumber" v="351"/>
    <tag k="addr:street" v="Marrickville Road"/>
    <tag k="source" v="extrapolation"/>
  </node>
  <node id="918285600" version="3" timestamp="2011-04-26T02:09:16Z" uid="7617" user="Franc" changeset="7970426" lat="-33.907644" lon="151.1493879">
    <tag k="addr:housenumber" v="351"/>
    <tag k="addr:street" v="Marrickville Road"/>
    <tag k="source" v="extrapolation"/>
  </node>
  <node id="918285602" version="1" timestamp="2010-09-19T12:55:46Z" uid="7617" user="Franc" changeset="5819508" lat="-33.9042024" lon="151.1461394">
    <tag k="addr:housenumber" v="6"/>
    <tag k="addr:street" v="Charlecot Street"/>
    <tag k="source" v="survey"/>
  </node>
  <node id="918285604" version="1" timestamp="2010-09-19T12:55:46Z" uid="7617" user="Franc" changeset="5819508" lat="-33.9090418" lon="151.1488798">
    <tag k="addr:housenumber" v="19"/>
    <tag k="addr:street" v="Robert Street"/>
    <tag k="source" v="survey"/>
  </node>
  <node id="918285615" version="1" timestamp="2010-09-19T12:55:46Z" uid="7617" user="Franc" changeset="5819508" lat="-33.905844" lon="151.1495702">
    <tag k="addr:housenumber" v="33"/>
    <tag k="addr:street" v="Woodbury Street"/>
    <tag k="source" v="survey"/>
  </node>
  <node id="918285618" version="1" timestamp="2010-09-19T12:55:46Z" uid="7617" user="Franc" changeset="5819508" lat="-33.9048423" lon="151.1468961">
    <tag k="addr:housenumber" v="34"/>
    <tag k="addr:street" v="Charlecot Street"/>
    <tag k="source" v="survey"/>
  </node>
  <node id="918285622" version="1" timestamp="2010-09-19T12:55:46Z" uid="7617" user="Franc" changeset="5819508" lat="-33.9044593" lon="151.1461213">
    <tag k="addr:housenumber" v="17"/>
    <tag k="addr:street" v="Charlecot Street"/>
    <tag k="source" v="exrapolation"/>
  </node>
  <node id="918285622" version="2" timestamp="2011-04-26T08:22:05Z" uid="7617" user="Franc" changeset="7972119" lat="-33.9044593" lon="151.1461213">
    <tag k="addr:housenumber" v="17"/>
    <tag k="addr:street" v="Charlecot Street"/>
    <tag k="source" v="extrapolation"/>
  </node>
  <node id="918285625" version="1" timestamp="2010-09-19T12:55:46Z" uid="7617" user="Franc" changeset="5819508" lat="-33.9106811" lon="151.1422726">
    <tag k="addr:housenumber" v="1"/>
    <tag k="addr:street" v="Wilga Avenue"/>
    <tag k="source" v="survey"/>
  </node>
  <node id="918285641" version="1" timestamp="2010-09-19T12:55:47Z" uid="7617" user="Franc" changeset="5819508" lat="-33.9047856" lon="151.1482686">
    <tag k="addr:housenumber" v="2"/>
    <tag k="addr:street" v="George Street"/>
  </node>
  <node id="918285642" version="1" timestamp="2010-09-19T12:55:47Z" uid="7617" user="Franc" changeset="5819508" lat="-33.9056927" lon="151.1494506">
    <tag k="addr:housenumber" v="32"/>
    <tag k="addr:street" v="Woodbury Street"/>
    <tag k="source" v="survey"/>
  </node>
  <node id="918285644" version="1" timestamp="2010-09-19T12:55:47Z" uid="7617" user="Franc" changeset="5819508" lat="-33.9059048" lon="151.1494327"/>
  <node id="918285646" version="1" timestamp="2010-09-19T12:55:47Z" uid="7617" user="Franc" changeset="5819508" lat="-33.9059529" lon="151.1523642">
    <tag k="addr:housenumber" v="2"/>
    <tag k="addr:street" v="Einfield Street"/>
    <tag k="source" v="survey"/>
  </node>
  <node id="918285659" version="1" timestamp="2010-09-19T12:55:47Z" uid="7617" user="Franc" changeset="5819508" lat="-33.9084261" lon="151.149376">
    <tag k="addr:housenumber" v="6"/>
    <tag k="addr:street" v="Robert Street"/>
    <tag k="source" v="survey"/>
  </node>
  <node id="918285662" version="1" timestamp="2010-09-19T12:55:47Z" uid="7617" user="Franc" changeset="5819508" lat="-33.908591" lon="151.1490715">
    <tag k="addr:housenumber" v="9"/>
    <tag k="addr:street" v="Robert Street"/>
    <tag k="source" v="exrapolation"/>
  </node>
  <node id="918285662" version="2" timestamp="2010-11-05T09:36:00Z" uid="7617" user="Franc" changeset="6293977" lat="-33.908591" lon="151.1490715">
    <tag k="addr:housenumber" v="9"/>
    <tag k="addr:street" v="Robert Street"/>
    <tag k="source" v="extrapolation"/>
  </node>
  <node id="918285665" version="1" timestamp="2010-09-19T12:55:47Z" uid="7617" user="Franc" changeset="5819508" lat="-33.9044472" lon="151.1464121">
    <tag k="addr:housenumber" v="18"/>
    <tag k="addr:street" v="Charlecot Street"/>
    <tag k="source" v="exrapolation"/>
  </node>
  <node id="918285665" version="2" timestamp="2011-04-26T08:22:01Z" uid="7617" user="Franc" changeset="7972119" lat="-33.9044472" lon="151.1464121">
    <tag k="addr:housenumber" v="18"/>
    <tag k="addr:street" v="Charlecot Street"/>
    <tag k="source" v="extrapolation"/>
  </node>
  <node id="918285667" version="1" timestamp="2010-09-19T12:55:48Z" uid="7617" user="Franc" changeset="5819508" lat="-33.9122358" lon="151.1479661">
    <tag k="addr:housenumber" v="260"/>
    <tag k="addr:street" v="Livingstone Road"/>
    <tag k="source" v="survey"/>
  </node>
  <node id="918285679" version="1" timestamp="2010-09-19T12:55:48Z" uid="7617" user="Franc" changeset="5819508" lat="-33.9048675" lon="151.1476357">
    <tag k="addr:housenumber" v="141"/>
    <tag k="addr:street" v="Wardell Road"/>
    <tag k="source" v="survey"/>
  </node>
  <node id="918285682" version="1" timestamp="2010-09-19T12:55:48Z" uid="7617" user="Franc" changeset="5819508" lat="-33.9049266" lon="151.1466826">
    <tag k="addr:housenumber" v="35"/>
    <tag k="addr:street" v="Charlecot Street"/>
    <tag k="source" v="survey"/>
  </node>
  <node id="918285685" version="1" timestamp="2010-09-19T12:55:48Z" uid="7617" user="Franc" changeset="5819508" lat="-33.9058887" lon="151.1506729">
    <tag k="addr:housenumber" v="32"/>
    <tag k="addr:street" v="Einfield Street"/>
    <tag k="source" v="survey"/>
  </node>
  <node id="918285688" version="1" timestamp="2010-09-19T12:55:48Z" uid="7617" user="Franc" changeset="5819508" lat="-33.9119555" lon="151.1479638">
    <tag k="addr:housenumber" v="225"/>
    <tag k="addr:street" v="Livingstone Road"/>
    <tag k="source" v="exrapolation"/>
  </node>
  <node id="918285688" version="2" timestamp="2011-04-23T12:54:47Z" uid="7617" user="Franc" changeset="7943317" lat="-33.9119555" lon="151.1479638">
    <tag k="addr:housenumber" v="225"/>
    <tag k="addr:street" v="Livingstone Road"/>
    <tag k="source" v="extrapolation"/>
  </node>
  <node id="918285696" version="1" timestamp="2010-09-19T12:55:48Z" uid="7617" user="Franc" changeset="5819508" lat="-33.9101338" lon="151.1492993">
    <tag k="addr:housenumber" v="43"/>
    <tag k="addr:street" v="Robert Street"/>
    <tag k="source" v="exrapolation"/>
  </node>
  <node id="918285696" version="2" timestamp="2010-11-05T09:36:01Z" uid="7617" user="Franc" changeset="6293977" lat="-33.9101338" lon="151.1492993">
    <tag k="addr:housenumber" v="43"/>
    <tag k="addr:street" v="Robert Street"/>
    <tag k="source" v="extrapolation"/>
  </node>
  <node id="918285699" version="1" timestamp="2010-09-19T12:55:49Z" uid="7617" user="Franc" changeset="5819508" lat="-33.9060263" lon="151.1494716"/>
  <node id="918285700" version="1" timestamp="2010-09-19T12:55:49Z" uid="7617" user="Franc" changeset="5819508" lat="-33.906113" lon="151.1519194">
    <tag k="addr:housenumber" v="11"/>
    <tag k="addr:street" v="Einfield Street"/>
    <tag k="source" v="survey"/>
  </node>
  <node id="918285705" version="1" timestamp="2010-09-19T12:55:49Z" uid="7617" user="Franc" changeset="5819508" lat="-33.9077634" lon="151.1497443">
    <tag k="addr:housenumber" v="345"/>
    <tag k="addr:street" v="Marrickville Road"/>
    <tag k="source" v="survey"/>
  </node>
  <node id="918285705" version="2" timestamp="2011-04-26T02:09:16Z" uid="7617" user="Franc" changeset="7970426" lat="-33.9077567" lon="151.1497604">
    <tag k="addr:housenumber" v="345"/>
    <tag k="addr:street" v="Marrickville Road"/>
    <tag k="source" v="survey"/>
  </node>
  <node id="918285714" version="1" timestamp="2010-09-19T12:55:49Z" uid="7617" user="Franc" changeset="5819508" lat="-33.9042853" lon="151.1412924">
    <tag k="addr:housenumber" v="3"/>
    <tag k="addr:street" v="Beach Road"/>
    <tag k="source" v="survey"/>
  </node>
  <node id="918285717" version="1" timestamp="2010-09-19T12:55:49Z" uid="7617" user="Franc" changeset="5819508" lat="-33.9055625" lon="151.1494566">
    <tag k="addr:housenumber" v="36"/>
    <tag k="addr:street" v="Woodbury Street"/>
    <tag k="source" v="survey"/>
  </node>
  <node id="918285719" version="1" timestamp="2010-09-19T12:55:49Z" uid="7617" user="Franc" changeset="5819508" lat="-33.9093338" lon="151.1488619">
    <tag k="addr:housenumber" v="25"/>
    <tag k="addr:street" v="Robert Street"/>
    <tag k="source" v="exrapolation"/>
  </node>
  <node id="918285719" version="2" timestamp="2010-11-05T09:36:10Z" uid="7617" user="Franc" changeset="6293977" lat="-33.9093338" lon="151.1488619">
    <tag k="addr:housenumber" v="25"/>
    <tag k="addr:street" v="Robert Street"/>
    <tag k="source" v="extrapolation"/>
  </node>
  <node id="918285722" version="1" timestamp="2010-09-19T12:55:49Z" uid="7617" user="Franc" changeset="5819508" lat="-33.9107997" lon="151.1426966">
    <tag k="addr:housenumber" v="8"/>
    <tag k="addr:street" v="Wilga Avenue"/>
    <tag k="source" v="extrapolation"/>
  </node>
  <node id="918285730" version="1" timestamp="2010-09-19T12:55:50Z" uid="7617" user="Franc" changeset="5819508" lat="-33.9050417" lon="151.1468226">
    <tag k="addr:housenumber" v="41"/>
    <tag k="addr:street" v="Charlecot Street"/>
    <tag k="source" v="survey"/>
  </node>
  <node id="918285734" version="1" timestamp="2010-09-19T12:55:50Z" uid="7617" user="Franc" changeset="5819508" lat="-33.9059231" lon="151.1392532">
    <tag k="addr:housenumber" v="43"/>
    <tag k="addr:street" v="Hercules Street"/>
    <tag k="source" v="survey"/>
  </node>
  <node id="918285736" version="1" timestamp="2010-09-19T12:55:50Z" uid="7617" user="Franc" changeset="5819508" lat="-33.9059035" lon="151.1499661">
    <tag k="addr:housenumber" v="54"/>
    <tag k="addr:street" v="Einfield Street"/>
    <tag k="source" v="survey"/>
  </node>
  <node id="918285748" version="1" timestamp="2010-09-19T12:55:50Z" uid="7617" user="Franc" changeset="5819508" lat="-33.9042134" lon="151.1412503">
    <tag k="addr:housenumber" v="1"/>
    <tag k="addr:street" v="Beach Road"/>
    <tag k="source" v="survey"/>
  </node>
  <node id="918285751" version="1" timestamp="2010-09-19T12:55:50Z" uid="7617" user="Franc" changeset="5819508" lat="-33.9045641" lon="151.1465502">
    <tag k="addr:housenumber" v="24"/>
    <tag k="addr:street" v="Charlecot Street"/>
    <tag k="source" v="exrapolation"/>
  </node>
  <node id="918285751" version="2" timestamp="2011-05-29T08:32:51Z" uid="7617" user="Franc" changeset="8278454" lat="-33.9045641" lon="151.1465502">
    <tag k="addr:housenumber" v="24"/>
    <tag k="addr:street" v="Charlecot Street"/>
    <tag k="source" v="extrapolation"/>
  </node>
  <node id="918285754" version="1" timestamp="2010-09-19T12:55:50Z" uid="7617" user="Franc" changeset="5819508" lat="-33.9100832" lon="151.1495141">
    <tag k="addr:housenumber" v="44"/>
    <tag k="addr:street" v="Robert Street"/>
    <tag k="source" v="survey"/>
  </node>
  <node id="918285756" version="1" timestamp="2010-09-19T12:55:50Z" uid="7617" user="Franc" changeset="5819508" lat="-33.9048769" lon="151.1466221">
    <tag k="addr:housenumber" v="33"/>
    <tag k="addr:street" v="Charlecot Street"/>
    <tag k="source" v="exrapolation"/>
  </node>
  <node id="918285756" version="2" timestamp="2011-05-29T08:32:23Z" uid="7617" user="Franc" changeset="8278454" lat="-33.9048769" lon="151.1466221">
    <tag k="addr:housenumber" v="33"/>
    <tag k="addr:street" v="Charlecot Street"/>
    <tag k="source" v="extrapolation"/>
  </node>
  <node id="918285768" version="1" timestamp="2010-09-19T12:55:51Z" uid="7617" user="Franc" changeset="5819508" lat="-33.9097731" lon="151.1490986">
    <tag k="addr:housenumber" v="35"/>
    <tag k="addr:street" v="Robert Street"/>
    <tag k="source" v="exrapolation"/>
  </node>
  <node id="918285768" version="2" timestamp="2010-11-05T09:36:00Z" uid="7617" user="Franc" changeset="6293977" lat="-33.9097731" lon="151.1490986">
    <tag k="addr:housenumber" v="35"/>
    <tag k="addr:street" v="Robert Street"/>
    <tag k="source" v="extrapolation"/>
  </node>
  <node id="918285770" version="1" timestamp="2010-09-19T12:55:51Z" uid="7617" user="Franc" changeset="5819508" lat="-33.9105558" lon="151.1422987"/>
  <node id="918285772" version="1" timestamp="2010-09-19T12:55:51Z" uid="7617" user="Franc" changeset="5819508" lat="-33.9061208" lon="151.1520963">
    <tag k="addr:housenumber" v="7"/>
    <tag k="addr:street" v="Einfield Street"/>
    <tag k="source" v="exrapolation"/>
  </node>
  <node id="918285772" version="2" timestamp="2010-11-05T09:36:05Z" uid="7617" user="Franc" changeset="6293977" lat="-33.9061208" lon="151.1520963">
    <tag k="addr:housenumber" v="7"/>
    <tag k="addr:street" v="Einfield Street"/>
    <tag k="source" v="extrapolation"/>
  </node>
  <node id="918285777" version="1" timestamp="2010-09-19T12:55:51Z" uid="7617" user="Franc" changeset="5819508" lat="-33.9043643" lon="151.1463197">
    <tag k="addr:housenumber" v="14"/>
    <tag k="addr:street" v="Charlecot Street"/>
    <tag k="source" v="exrapolation"/>
  </node>
  <node id="918285777" version="2" timestamp="2011-04-26T08:22:00Z" uid="7617" user="Franc" changeset="7972119" lat="-33.9043643" lon="151.1463197">
    <tag k="addr:housenumber" v="14"/>
    <tag k="addr:street" v="Charlecot Street"/>
    <tag k="source" v="extrapolation"/>
  </node>
  <node id="918285788" version="1" timestamp="2010-09-19T12:55:51Z" uid="7617" user="Franc" changeset="5819508" lat="-33.9046285" lon="151.1463195">
    <tag k="addr:housenumber" v="23"/>
    <tag k="addr:street" v="Charlecot Street"/>
    <tag k="source" v="exrapolation"/>
  </node>
  <node id="918285788" version="2" timestamp="2011-04-26T08:21:59Z" uid="7617" user="Franc" changeset="7972119" lat="-33.9046285" lon="151.1463195">
    <tag k="addr:housenumber" v="23"/>
    <tag k="addr:street" v="Charlecot Street"/>
    <tag k="source" v="extrapolation"/>
  </node>
  <node id="918285790" version="1" timestamp="2010-09-19T12:55:51Z" uid="7617" user="Franc" changeset="5819508" lat="-33.9049712" lon="151.1521459">
    <tag k="addr:housenumber" v="60"/>
    <tag k="addr:street" v="George Street"/>
    <tag k="source" v="survey"/>
  </node>
  <node id="918285792" version="1" timestamp="2010-09-19T12:55:51Z" uid="7617" user="Franc" changeset="5819508" lat="-33.9061297" lon="151.1522838">
    <tag k="addr:housenumber" v="3"/>
    <tag k="addr:street" v="Einfield Street"/>
    <tag k="source" v="survey"/>
  </node>
  <node id="918285795" version="1" timestamp="2010-09-19T12:55:51Z" uid="7617" user="Franc" changeset="5819508" lat="-33.9103459" lon="151.1494102">
    <tag k="addr:housenumber" v="47"/>
    <tag k="addr:street" v="Robert Street"/>
    <tag k="source" v="survey"/>
  </node>
  <node id="918285808" version="1" timestamp="2010-09-19T12:55:52Z" uid="7617" user="Franc" changeset="5819508" lat="-33.9049884" lon="151.1475405">
    <tag k="addr:housenumber" v="145"/>
    <tag k="addr:street" v="Wardell Road"/>
    <tag k="source" v="survey"/>
  </node>
  <node id="918285808" version="2" timestamp="2011-04-26T02:40:19Z" uid="7617" user="Franc" changeset="7970488" lat="-33.9049706" lon="151.147547">
    <tag k="addr:housenumber" v="145"/>
    <tag k="addr:street" v="Wardell Road"/>
    <tag k="source" v="survey"/>
  </node>
  <node id="918285813" version="1" timestamp="2010-09-19T12:55:52Z" uid="7617" user="Franc" changeset="5819508" lat="-33.9109836" lon="151.1428851">
    <tag k="addr:housenumber" v="12"/>
    <tag k="addr:street" v="Wilga Avenue"/>
    <tag k="source" v="survey"/>
  </node>
  <node id="918285816" version="1" timestamp="2010-09-19T12:55:52Z" uid="7617" user="Franc" changeset="5819508" lat="-33.9051693" lon="151.1522625">
    <tag k="addr:housenumber" v="43"/>
    <tag k="addr:street" v="George Street"/>
    <tag k="source" v="survey"/>
  </node>
  <node id="918285818" version="1" timestamp="2010-09-19T12:55:52Z" uid="7617" user="Franc" changeset="5819508" lat="-33.9089004" lon="151.1489257">
    <tag k="addr:housenumber" v="15"/>
    <tag k="addr:street" v="Robert Street"/>
    <tag k="source" v="exrapolation"/>
  </node>
  <node id="918285818" version="2" timestamp="2010-11-05T09:36:06Z" uid="7617" user="Franc" changeset="6293977" lat="-33.9089004" lon="151.1489257">
    <tag k="addr:housenumber" v="15"/>
    <tag k="addr:street" v="Robert Street"/>
    <tag k="source" v="extrapolation"/>
  </node>
  <node id="918285828" version="1" timestamp="2010-09-19T12:55:52Z" uid="7617" user="Franc" changeset="5819508" lat="-33.9055501" lon="151.1495971">
    <tag k="addr:housenumber" v="43"/>
    <tag k="addr:street" v="Woodbury Street"/>
    <tag k="source" v="survey"/>
  </node>
  <node id="918285830" version="1" timestamp="2010-09-19T12:55:52Z" uid="7617" user="Franc" changeset="5819508" lat="-33.9044016" lon="151.1463604">
    <tag k="addr:housenumber" v="16"/>
    <tag k="addr:street" v="Charlecot Street"/>
    <tag k="source" v="exrapolation"/>
  </node>
  <node id="918285830" version="2" timestamp="2011-04-26T08:22:05Z" uid="7617" user="Franc" changeset="7972119" lat="-33.9044016" lon="151.1463604">
    <tag k="addr:housenumber" v="16"/>
    <tag k="addr:street" v="Charlecot Street"/>
    <tag k="source" v="extrapolation"/>
  </node>
  <node id="918285833" version="1" timestamp="2010-09-19T12:55:52Z" uid="7617" user="Franc" changeset="5819508" lat="-33.9083326" lon="151.1494183">
    <tag k="addr:housenumber" v="2a"/>
    <tag k="addr:street" v="Robert Street"/>
    <tag k="source" v="survey"/>
  </node>
  <node id="918285836" version="1" timestamp="2010-09-19T12:55:52Z" uid="7617" user="Franc" changeset="5819508" lat="-33.9082933" lon="151.1491968">
    <tag k="addr:housenumber" v="3"/>
    <tag k="addr:street" v="Robert Street"/>
    <tag k="source" v="survey"/>
  </node>
  <node id="918285842" version="1" timestamp="2010-09-19T12:55:53Z" uid="7617" user="Franc" changeset="5819508" lat="-33.9106158" lon="151.1425081">
    <tag k="addr:housenumber" v="4"/>
    <tag k="addr:street" v="Wilga Avenue"/>
    <tag k="source" v="extrapolation"/>
  </node>
  <node id="918285845" version="1" timestamp="2010-09-19T12:55:53Z" uid="7617" user="Franc" changeset="5819508" lat="-33.904925" lon="151.1469894">
    <tag k="addr:housenumber" v="36"/>
    <tag k="addr:street" v="Charlecot Street"/>
    <tag k="source" v="survey"/>
  </node>
  <node id="918285848" version="1" timestamp="2010-09-19T12:55:53Z" uid="7617" user="Franc" changeset="5819508" lat="-33.9060511" lon="151.1495806">
    <tag k="addr:housenumber" v="31"/>
    <tag k="addr:street" v="Woodbury Street"/>
    <tag k="source" v="survey"/>
  </node>
  <node id="918285854" version="1" timestamp="2010-09-19T12:55:53Z" uid="7617" user="Franc" changeset="5819508" lat="-33.9044245" lon="151.1460775">
    <tag k="addr:housenumber" v="15"/>
    <tag k="addr:street" v="Charlecot Street"/>
    <tag k="source" v="exrapolation"/>
  </node>
  <node id="918285854" version="2" timestamp="2011-04-26T08:21:58Z" uid="7617" user="Franc" changeset="7972119" lat="-33.9044245" lon="151.1460775">
    <tag k="addr:housenumber" v="15"/>
    <tag k="addr:street" v="Charlecot Street"/>
    <tag k="source" v="extrapolation"/>
  </node>
  <node id="918285855" version="1" timestamp="2010-09-19T12:55:53Z" uid="7617" user="Franc" changeset="5819508" lat="-33.9100574" lon="151.1492557">
    <tag k="addr:housenumber" v="41"/>
    <tag k="addr:street" v="Robert Street"/>
    <tag k="source" v="exrapolation"/>
  </node>
  <node id="918285855" version="2" timestamp="2010-11-05T09:36:05Z" uid="7617" user="Franc" changeset="6293977" lat="-33.9100574" lon="151.1492557">
    <tag k="addr:housenumber" v="41"/>
    <tag k="addr:street" v="Robert Street"/>
    <tag k="source" v="extrapolation"/>
  </node>
  <node id="918285858" version="1" timestamp="2010-09-19T12:55:53Z" uid="7617" user="Franc" changeset="5819508" lat="-33.910701" lon="151.149602">
    <tag k="addr:housenumber" v="53"/>
    <tag k="addr:street" v="Robert Street"/>
    <tag k="source" v="survey"/>
  </node>
  <node id="918285863" version="1" timestamp="2010-09-19T12:55:53Z" uid="7617" user="Franc" changeset="5819508" lat="-33.9107792" lon="151.1423739">
    <tag k="addr:housenumber" v="3"/>
    <tag k="addr:street" v="Wilga Avenue"/>
    <tag k="source" v="survey"/>
  </node>
  <node id="918285878" version="1" timestamp="2010-09-19T12:55:54Z" uid="7617" user="Franc" changeset="5819508" lat="-33.9121974" lon="151.1480163">
    <tag k="addr:housenumber" v="258"/>
    <tag k="addr:street" v="Livingstone Road"/>
    <tag k="source" v="exrapolation"/>
  </node>
  <node id="918285878" version="2" timestamp="2011-04-15T10:26:41Z" uid="7617" user="Franc" changeset="7868334" lat="-33.9121864" lon="151.1480223">
    <tag k="addr:housenumber" v="258"/>
    <tag k="addr:street" v="Livingstone Road"/>
    <tag k="source" v="exrapolation"/>
  </node>
  <node id="918285878" version="3" timestamp="2011-04-23T12:54:22Z" uid="7617" user="Franc" changeset="7943317" lat="-33.9121864" lon="151.1480223">
    <tag k="addr:housenumber" v="258"/>
    <tag k="addr:street" v="Livingstone Road"/>
    <tag k="source" v="extrapolation"/>
  </node>
  <node id="918285880" version="1" timestamp="2010-09-19T12:55:54Z" uid="7617" user="Franc" changeset="5819508" lat="-33.9096306" lon="151.1490227">
    <tag k="addr:housenumber" v="31"/>
    <tag k="addr:street" v="Robert Street"/>
    <tag k="source" v="exrapolation"/>
  </node>
  <node id="918285880" version="2" timestamp="2010-11-05T09:36:05Z" uid="7617" user="Franc" changeset="6293977" lat="-33.9096306" lon="151.1490227">
    <tag k="addr:housenumber" v="31"/>
    <tag k="addr:street" v="Robert Street"/>
    <tag k="source" v="extrapolation"/>
  </node>
  <node id="918285882" version="1" timestamp="2010-09-19T12:55:54Z" uid="7617" user="Franc" changeset="5819508" lat="-33.9041562" lon="151.1460732">
    <tag k="addr:housenumber" v="4"/>
    <tag k="addr:street" v="Charlecot Street"/>
    <tag k="source" v="survey"/>
  </node>
  <node id="918285885" version="1" timestamp="2010-09-19T12:55:54Z" uid="7617" user="Franc" changeset="5819508" lat="-33.9085027" lon="151.1491137">
    <tag k="addr:housenumber" v="7"/>
    <tag k="addr:street" v="Robert Street"/>
    <tag k="source" v="exrapolation"/>
  </node>
  <node id="918285885" version="2" timestamp="2010-11-05T09:36:03Z" uid="7617" user="Franc" changeset="6293977" lat="-33.9085027" lon="151.1491137">
    <tag k="addr:housenumber" v="7"/>
    <tag k="addr:street" v="Robert Street"/>
    <tag k="source" v="extrapolation"/>
  </node>
  <node id="918285893" version="1" timestamp="2010-09-19T12:55:54Z" uid="7617" user="Franc" changeset="5819508" lat="-33.907094" lon="151.1489441">
    <tag k="addr:housenumber" v="2"/>
    <tag k="addr:street" v="Woodbury Street"/>
    <tag k="source" v="survey"/>
  </node>
  <node id="918285898" version="1" timestamp="2010-09-19T12:55:54Z" uid="7617" user="Franc" changeset="5819508" lat="-33.9056692" lon="151.1495941">
    <tag k="addr:housenumber" v="39"/>
    <tag k="addr:street" v="Woodbury Street"/>
    <tag k="source" v="survey"/>
  </node>
  <node id="918285900" version="1" timestamp="2010-09-19T12:55:54Z" uid="7617" user="Franc" changeset="5819508" lat="-33.9107077" lon="151.1426023">
    <tag k="addr:housenumber" v="6"/>
    <tag k="addr:street" v="Wilga Avenue"/>
    <tag k="source" v="extrapolation"/>
  </node>
  <node id="918285902" version="1" timestamp="2010-09-19T12:55:54Z" uid="7617" user="Franc" changeset="5819508" lat="-33.9037539" lon="151.1458162">
    <tag k="addr:housenumber" v="3"/>
    <tag k="addr:street" v="Fairfowl Street"/>
    <tag k="source" v="survey"/>
  </node>
  <node id="918285913" version="1" timestamp="2010-09-19T12:55:55Z" uid="7617" user="Franc" changeset="5819508" lat="-33.906133" lon="151.152407">
    <tag k="addr:housenumber" v="1"/>
    <tag k="addr:street" v="Einfield Street"/>
    <tag k="source" v="survey"/>
  </node>
  <node id="918285915" version="1" timestamp="2010-09-19T12:55:55Z" uid="7617" user="Franc" changeset="5819508" lat="-33.9049018" lon="151.1476032">
    <tag k="addr:housenumber" v="143"/>
    <tag k="addr:street" v="Wardell Road"/>
    <tag k="source" v="survey"/>
  </node>
  <node id="918285915" version="2" timestamp="2011-04-26T02:40:19Z" uid="7617" user="Franc" changeset="7970488" lat="-33.9048956" lon="151.1476087">
    <tag k="addr:housenumber" v="143"/>
    <tag k="addr:street" v="Wardell Road"/>
    <tag k="source" v="survey"/>
  </node>
  <node id="918285917" version="1" timestamp="2010-09-19T12:55:55Z" uid="7617" user="Franc" changeset="5819508" lat="-33.9083783" lon="151.1494004">
    <tag k="addr:housenumber" v="4"/>
    <tag k="addr:street" v="Robert Street"/>
    <tag k="source" v="survey"/>
  </node>
  <node id="918285921" version="1" timestamp="2010-09-19T12:55:55Z" uid="7617" user="Franc" changeset="5819508" lat="-33.9060074" lon="151.1505401"/>
  <node id="918285921" version="2" timestamp="2011-05-03T10:28:15Z" uid="7617" user="Franc" changeset="8038186" lat="-33.9060022" lon="151.1505235"/>
  <node id="918285923" version="1" timestamp="2010-09-19T12:55:55Z" uid="7617" user="Franc" changeset="5819508" lat="-33.9047371" lon="151.1467619">
    <tag k="addr:housenumber" v="30"/>
    <tag k="addr:street" v="Charlecot Street"/>
    <tag k="source" v="exrapolation"/>
  </node>
  <node id="918285923" version="2" timestamp="2011-05-29T08:32:36Z" uid="7617" user="Franc" changeset="8278454" lat="-33.9047371" lon="151.1467619">
    <tag k="addr:housenumber" v="30"/>
    <tag k="addr:street" v="Charlecot Street"/>
    <tag k="source" v="extrapolation"/>
  </node>
  <node id="918285928" version="1" timestamp="2010-09-19T12:55:55Z" uid="7617" user="Franc" changeset="5819508" lat="-33.9119202" lon="151.1480135">
    <tag k="addr:housenumber" v="223"/>
    <tag k="addr:street" v="Livingstone Road"/>
    <tag k="source" v="exrapolation"/>
  </node>
  <node id="918285928" version="2" timestamp="2011-04-23T12:54:50Z" uid="7617" user="Franc" changeset="7943317" lat="-33.9119202" lon="151.1480135">
    <tag k="addr:housenumber" v="223"/>
    <tag k="addr:street" v="Livingstone Road"/>
    <tag k="source" v="extrapolation"/>
  </node>
  <node id="918285931" version="1" timestamp="2010-09-19T12:55:55Z" uid="7617" user="Franc" changeset="5819508" lat="-33.904394" lon="151.141354">
    <tag k="addr:housenumber" v="7"/>
    <tag k="addr:street" v="Beach Road"/>
    <tag k="source" v="survey"/>
  </node>
  <node id="918285934" version="1" timestamp="2010-09-19T12:55:56Z" uid="7617" user="Franc" changeset="5819508" lat="-33.9102151" lon="151.1495779">
    <tag k="addr:housenumber" v="46"/>
    <tag k="addr:street" v="Robert Street"/>
    <tag k="source" v="survey"/>
  </node>
  <node id="918285939" version="1" timestamp="2010-09-19T12:55:56Z" uid="7617" user="Franc" changeset="5819508" lat="-33.9097257" lon="151.1490713">
    <tag k="addr:housenumber" v="33"/>
    <tag k="addr:street" v="Robert Street"/>
    <tag k="source" v="exrapolation"/>
  </node>
  <node id="918285939" version="2" timestamp="2010-11-05T09:36:03Z" uid="7617" user="Franc" changeset="6293977" lat="-33.9097257" lon="151.1490713">
    <tag k="addr:housenumber" v="33"/>
    <tag k="addr:street" v="Robert Street"/>
    <tag k="source" v="extrapolation"/>
  </node>
  <node id="918285941" version="1" timestamp="2010-09-19T12:55:56Z" uid="7617" user="Franc" changeset="5819508" lat="-33.9107651" lon="151.1420246"/>
  <node id="918285943" version="1" timestamp="2010-09-19T12:55:56Z" uid="7617" user="Franc" changeset="5819508" lat="-33.9075765" lon="151.1491448">
    <tag k="addr:housenumber" v="355"/>
    <tag k="addr:street" v="Marrickville Road"/>
    <tag k="source" v="exrapolation"/>
  </node>
  <node id="918285943" version="2" timestamp="2010-11-05T09:36:08Z" uid="7617" user="Franc" changeset="6293977" lat="-33.9075765" lon="151.1491448">
    <tag k="addr:housenumber" v="355"/>
    <tag k="addr:street" v="Marrickville Road"/>
    <tag k="source" v="extrapolation"/>
  </node>
  <node id="918285943" version="3" timestamp="2011-04-26T02:09:16Z" uid="7617" user="Franc" changeset="7970426" lat="-33.9075712" lon="151.1491471">
    <tag k="addr:housenumber" v="355"/>
    <tag k="addr:street" v="Marrickville Road"/>
    <tag k="source" v="extrapolation"/>
  </node>
  <node id="918285945" version="1" timestamp="2010-09-19T12:55:56Z" uid="7617" user="Franc" changeset="5819508" lat="-33.9042424" lon="151.1461786">
    <tag k="addr:housenumber" v="8"/>
    <tag k="addr:street" v="Charlecot Street"/>
    <tag k="source" v="survey"/>
  </node>
  <node id="918285956" version="1" timestamp="2010-09-19T12:55:56Z" uid="7617" user="Franc" changeset="5819508" lat="-33.9105238" lon="151.1424138">
    <tag k="addr:housenumber" v="2"/>
    <tag k="addr:street" v="Wilga Avenue"/>
    <tag k="source" v="survey"/>
  </node>
  <node id="918285959" version="1" timestamp="2010-09-19T12:55:56Z" uid="7617" user="Franc" changeset="5819508" lat="-33.9043261" lon="151.146273">
    <tag k="addr:housenumber" v="12"/>
    <tag k="addr:street" v="Charlecot Street"/>
    <tag k="source" v="exrapolation"/>
  </node>
  <node id="918285959" version="2" timestamp="2011-04-26T08:21:58Z" uid="7617" user="Franc" changeset="7972119" lat="-33.9043261" lon="151.146273">
    <tag k="addr:housenumber" v="12"/>
    <tag k="addr:street" v="Charlecot Street"/>
    <tag k="source" v="extrapolation"/>
  </node>
  <node id="918285962" version="1" timestamp="2010-09-19T12:55:56Z" uid="7617" user="Franc" changeset="5819508" lat="-33.905787" lon="151.1495791">
    <tag k="addr:housenumber" v="35"/>
    <tag k="addr:street" v="Woodbury Street"/>
    <tag k="source" v="survey"/>
  </node>
  <node id="918285964" version="1" timestamp="2010-09-19T12:55:56Z" uid="7617" user="Franc" changeset="5819508" lat="-33.9043305" lon="151.1459564">
    <tag k="addr:housenumber" v="11"/>
    <tag k="addr:street" v="Charlecot Street"/>
    <tag k="source" v="survey"/>
  </node>
  <node id="918285975" version="1" timestamp="2010-09-19T12:55:57Z" uid="7617" user="Franc" changeset="5819508" lat="-33.9045543" lon="151.1462333">
    <tag k="addr:housenumber" v="21"/>
    <tag k="addr:street" v="Charlecot Street"/>
    <tag k="source" v="exrapolation"/>
  </node>
  <node id="918285975" version="2" timestamp="2011-04-26T08:22:04Z" uid="7617" user="Franc" changeset="7972119" lat="-33.9045543" lon="151.1462333">
    <tag k="addr:housenumber" v="21"/>
    <tag k="addr:street" v="Charlecot Street"/>
    <tag k="source" v="extrapolation"/>
  </node>
  <node id="918285978" version="1" timestamp="2010-09-19T12:55:57Z" uid="7617" user="Franc" changeset="5819508" lat="-33.9092418" lon="151.148812">
    <tag k="addr:housenumber" v="23"/>
    <tag k="addr:street" v="Robert Street"/>
    <tag k="source" v="exrapolation"/>
  </node>
  <node id="918285978" version="2" timestamp="2011-05-06T09:31:00Z" uid="7617" user="Franc" changeset="8063834" lat="-33.9092418" lon="151.148812">
    <tag k="addr:housenumber" v="23"/>
    <tag k="addr:street" v="Robert Street"/>
    <tag k="source" v="extrapolation"/>
  </node>
  <node id="918285981" version="1" timestamp="2010-09-19T12:55:57Z" uid="7617" user="Franc" changeset="5819508" lat="-33.9050267" lon="151.1515997">
    <tag k="traffic_calming" v="table"/>
  </node>
  <node id="918285984" version="1" timestamp="2010-09-19T12:55:57Z" uid="7617" user="Franc" changeset="5819508" lat="-33.9109318" lon="151.1425392">
    <tag k="addr:housenumber" v="7"/>
    <tag k="addr:street" v="Wilga Avenue"/>
    <tag k="source" v="survey"/>
  </node>
  <node id="918285991" version="1" timestamp="2010-09-19T12:55:57Z" uid="7617" user="Franc" changeset="5819508" lat="-33.9047912" lon="151.148393">
    <tag k="addr:housenumber" v="4"/>
    <tag k="addr:street" v="George Street"/>
  </node>
  <node id="918285994" version="1" timestamp="2010-09-19T12:55:57Z" uid="7617" user="Franc" changeset="5819508" lat="-33.9060865" lon="151.1391721">
    <tag k="addr:housenumber" v="45"/>
    <tag k="addr:street" v="Hercules Street"/>
    <tag k="source" v="survey"/>
  </node>
  <node id="918285997" version="1" timestamp="2010-09-19T12:55:57Z" uid="7617" user="Franc" changeset="5819508" lat="-33.9051711" lon="151.1524164">
    <tag k="addr:housenumber" v="45"/>
    <tag k="addr:street" v="George Street"/>
    <tag k="source" v="survey"/>
  </node>
  <node id="918285999" version="1" timestamp="2010-09-19T12:55:57Z" uid="7617" user="Franc" changeset="5819508" lat="-33.9059629" lon="151.1525892">
    <tag k="addr:housenumber" v="2a"/>
    <tag k="addr:street" v="Einfield Street"/>
    <tag k="source" v="survey"/>
  </node>
  <node id="918286007" version="1" timestamp="2010-09-19T12:55:58Z" uid="7617" user="Franc" changeset="5819508" lat="-33.9084835" lon="151.149353">
    <tag k="addr:housenumber" v="8"/>
    <tag k="addr:street" v="Robert Street"/>
    <tag k="source" v="survey"/>
  </node>
  <node id="918286009" version="1" timestamp="2010-09-19T12:55:58Z" uid="7617" user="Franc" changeset="5819508" lat="-33.908793" lon="151.1489756">
    <tag k="addr:housenumber" v="13"/>
    <tag k="addr:street" v="Robert Street"/>
    <tag k="source" v="exrapolation"/>
  </node>
  <node id="918286009" version="2" timestamp="2010-11-05T09:36:03Z" uid="7617" user="Franc" changeset="6293977" lat="-33.908793" lon="151.1489756">
    <tag k="addr:housenumber" v="13"/>
    <tag k="addr:street" v="Robert Street"/>
    <tag k="source" v="extrapolation"/>
  </node>
  <node id="918286011" version="1" timestamp="2010-09-19T12:55:58Z" uid="7617" user="Franc" changeset="5819508" lat="-33.9077225" lon="151.1496179">
    <tag k="addr:housenumber" v="347"/>
    <tag k="addr:street" v="Marrickville Road"/>
    <tag k="source" v="survey"/>
  </node>
  <node id="918286011" version="2" timestamp="2011-04-26T02:09:15Z" uid="7617" user="Franc" changeset="7970426" lat="-33.9077146" lon="151.1496213">
    <tag k="addr:housenumber" v="347"/>
    <tag k="addr:street" v="Marrickville Road"/>
    <tag k="source" v="survey"/>
  </node>
  <node id="918286013" version="1" timestamp="2010-09-19T12:55:58Z" uid="7617" user="Franc" changeset="5819508" lat="-33.9101943" lon="151.1494353">
    <tag k="traffic_calming" v="table"/>
  </node>
  <node id="918286025" version="1" timestamp="2010-09-19T12:55:58Z" uid="7617" user="Franc" changeset="5819508" lat="-33.9045301" lon="151.1465125">
    <tag k="addr:housenumber" v="22"/>
    <tag k="addr:street" v="Charlecot Street"/>
    <tag k="source" v="exrapolation"/>
  </node>
  <node id="918286025" version="2" timestamp="2011-05-29T08:32:54Z" uid="7617" user="Franc" changeset="8278454" lat="-33.9045301" lon="151.1465125">
    <tag k="addr:housenumber" v="22"/>
    <tag k="addr:street" v="Charlecot Street"/>
    <tag k="source" v="extrapolation"/>
  </node>
  <node id="918286027" version="1" timestamp="2010-09-19T12:55:58Z" uid="7617" user="Franc" changeset="5819508" lat="-33.9119964" lon="151.1482298">
    <tag k="addr:housenumber" v="256"/>
    <tag k="addr:street" v="Livingstone Road"/>
    <tag k="source" v="survey"/>
  </node>
  <node id="918286029" version="1" timestamp="2010-09-19T12:55:58Z" uid="7617" user="Franc" changeset="5819508" lat="-33.9091415" lon="151.148786">
    <tag k="addr:housenumber" v="21"/>
    <tag k="addr:street" v="Robert Street"/>
    <tag k="source" v="survey"/>
  </node>
  <node id="918286031" version="1" timestamp="2010-09-19T12:55:58Z" uid="7617" user="Franc" changeset="5819508" lat="-33.9048411" lon="151.146577">
    <tag k="addr:housenumber" v="31"/>
    <tag k="addr:street" v="Charlecot Street"/>
    <tag k="source" v="exrapolation"/>
  </node>
  <node id="918286031" version="2" timestamp="2011-05-29T08:32:43Z" uid="7617" user="Franc" changeset="8278454" lat="-33.9048411" lon="151.146577">
    <tag k="addr:housenumber" v="31"/>
    <tag k="addr:street" v="Charlecot Street"/>
    <tag k="source" v="extrapolation"/>
  </node>
  <node id="918286040" version="1" timestamp="2010-09-19T12:55:59Z" uid="7617" user="Franc" changeset="5819508" lat="-33.9071475" lon="151.1491656">
    <tag k="addr:housenumber" v="3"/>
    <tag k="addr:street" v="Woodbury Street"/>
    <tag k="source" v="survey"/>
  </node>
  <node id="918286044" version="1" timestamp="2010-09-19T12:55:59Z" uid="7617" user="Franc" changeset="5819508" lat="-33.9043812" lon="151.1460246">
    <tag k="addr:housenumber" v="13"/>
    <tag k="addr:street" v="Charlecot Street"/>
    <tag k="source" v="exrapolation"/>
  </node>
  <node id="918286044" version="2" timestamp="2011-04-26T08:22:02Z" uid="7617" user="Franc" changeset="7972119" lat="-33.9043812" lon="151.1460246">
    <tag k="addr:housenumber" v="13"/>
    <tag k="addr:street" v="Charlecot Street"/>
    <tag k="source" v="extrapolation"/>
  </node>
  <node id="918286046" version="1" timestamp="2010-09-19T12:55:59Z" uid="7617" user="Franc" changeset="5819508" lat="-33.9089812" lon="151.1488989">
    <tag k="addr:housenumber" v="17"/>
    <tag k="addr:street" v="Robert Street"/>
    <tag k="source" v="exrapolation"/>
  </node>
  <node id="918286046" version="2" timestamp="2010-11-05T09:36:03Z" uid="7617" user="Franc" changeset="6293977" lat="-33.9089812" lon="151.1488989">
    <tag k="addr:housenumber" v="17"/>
    <tag k="addr:street" v="Robert Street"/>
    <tag k="source" v="extrapolation"/>
  </node>
  <node id="918286053" version="1" timestamp="2010-09-19T12:55:59Z" uid="7617" user="Franc" changeset="5819508" lat="-33.9040638" lon="151.1459649">
    <tag k="addr:housenumber" v="2a"/>
    <tag k="addr:street" v="Charlecot Street"/>
    <tag k="source" v="survey"/>
  </node>
  <node id="918286055" version="1" timestamp="2010-09-19T12:55:59Z" uid="7617" user="Franc" changeset="5819508" lat="-33.9060548" lon="151.1495836">
    <tag k="addr:housenumber" v="31"/>
    <tag k="addr:street" v="Woodbury Street"/>
    <tag k="source" v="survey"/>
  </node>
  <node id="918286057" version="1" timestamp="2010-09-19T12:55:59Z" uid="7617" user="Franc" changeset="5819508" lat="-33.9060266" lon="151.149963">
    <tag k="addr:housenumber" v="13"/>
    <tag k="addr:street" v="Einfield Street"/>
    <tag k="source" v="survey"/>
  </node>
  <node id="918286060" version="1" timestamp="2010-09-19T12:55:59Z" uid="7617" user="Franc" changeset="5819508" lat="-33.9056431" lon="151.1494536">
    <tag k="addr:housenumber" v="34"/>
    <tag k="addr:street" v="Woodbury Street"/>
    <tag k="source" v="survey"/>
  </node>
  <node id="918286068" version="1" timestamp="2010-09-19T12:55:59Z" uid="7617" user="Franc" changeset="5819508" lat="-33.9095365" lon="151.1489703">
    <tag k="addr:housenumber" v="29"/>
    <tag k="addr:street" v="Robert Street"/>
    <tag k="source" v="exrapolation"/>
  </node>
  <node id="918286068" version="2" timestamp="2010-11-05T09:36:00Z" uid="7617" user="Franc" changeset="6293977" lat="-33.9095365" lon="151.1489703">
    <tag k="addr:housenumber" v="29"/>
    <tag k="addr:street" v="Robert Street"/>
    <tag k="source" v="extrapolation"/>
  </node>
  <node id="918286070" version="1" timestamp="2010-09-19T12:56:00Z" uid="7617" user="Franc" changeset="5819508" lat="-33.9049758" lon="151.1524197">
    <tag k="addr:housenumber" v="62"/>
    <tag k="addr:street" v="George Street"/>
    <tag k="source" v="survey"/>
  </node>
  <node id="918286073" version="1" timestamp="2010-09-19T12:56:00Z" uid="7617" user="Franc" changeset="5819508" lat="-33.9083975" lon="151.1491572">
    <tag k="addr:housenumber" v="5"/>
    <tag k="addr:street" v="Robert Street"/>
    <tag k="source" v="exrapolation"/>
  </node>
  <node id="918286073" version="2" timestamp="2010-11-05T09:36:01Z" uid="7617" user="Franc" changeset="6293977" lat="-33.9083975" lon="151.1491572">
    <tag k="addr:housenumber" v="5"/>
    <tag k="addr:street" v="Robert Street"/>
    <tag k="source" v="extrapolation"/>
  </node>
  <node id="918286076" version="1" timestamp="2010-09-19T12:56:00Z" uid="7617" user="Franc" changeset="5819508" lat="-33.9098236" lon="151.1493689">
    <tag k="addr:housenumber" v="42"/>
    <tag k="addr:street" v="Robert Street"/>
    <tag k="source" v="survey"/>
  </node>
  <node id="918286087" version="1" timestamp="2010-09-19T12:56:00Z" uid="7617" user="Franc" changeset="5819508" lat="-33.9049991" lon="151.1467738">
    <tag k="addr:housenumber" v="39"/>
    <tag k="addr:street" v="Charlecot Street"/>
    <tag k="source" v="survey"/>
  </node>
  <node id="918286090" version="1" timestamp="2010-09-19T12:56:00Z" uid="7617" user="Franc" changeset="5819508" lat="-33.9046899" lon="151.1467132">
    <tag k="addr:housenumber" v="28"/>
    <tag k="addr:street" v="Charlecot Street"/>
    <tag k="source" v="exrapolation"/>
  </node>
  <node id="918286090" version="2" timestamp="2011-05-29T08:32:21Z" uid="7617" user="Franc" changeset="8278454" lat="-33.9046899" lon="151.1467132">
    <tag k="addr:housenumber" v="28"/>
    <tag k="addr:street" v="Charlecot Street"/>
    <tag k="source" v="extrapolation"/>
  </node>
  <node id="918286092" version="1" timestamp="2010-09-19T12:56:00Z" uid="7617" user="Franc" changeset="5819508" lat="-33.9099425" lon="151.1491921">
    <tag k="addr:housenumber" v="39"/>
    <tag k="addr:street" v="Robert Street"/>
    <tag k="source" v="exrapolation"/>
  </node>
  <node id="918286092" version="2" timestamp="2010-11-05T09:36:10Z" uid="7617" user="Franc" changeset="6293977" lat="-33.9099425" lon="151.1491921">
    <tag k="addr:housenumber" v="39"/>
    <tag k="addr:street" v="Robert Street"/>
    <tag k="source" v="extrapolation"/>
  </node>
  <node id="918286095" version="1" timestamp="2010-09-19T12:56:00Z" uid="7617" user="Franc" changeset="5819508" lat="-33.9061152" lon="151.1520199">
    <tag k="addr:housenumber" v="9"/>
    <tag k="addr:street" v="Einfield Street"/>
    <tag k="source" v="exrapolation"/>
  </node>
  <node id="918286095" version="2" timestamp="2010-11-05T09:36:01Z" uid="7617" user="Franc" changeset="6293977" lat="-33.9061152" lon="151.1520199">
    <tag k="addr:housenumber" v="9"/>
    <tag k="addr:street" v="Einfield Street"/>
    <tag k="source" v="extrapolation"/>
  </node>
  <node id="918286105" version="1" timestamp="2010-09-19T12:56:01Z" uid="7617" user="Franc" changeset="5819508" lat="-33.904745" lon="151.1464624">
    <tag k="addr:housenumber" v="27"/>
    <tag k="addr:street" v="Charlecot Street"/>
    <tag k="source" v="exrapolation"/>
  </node>
  <node id="918286105" version="2" timestamp="2011-05-29T08:32:47Z" uid="7617" user="Franc" changeset="8278454" lat="-33.904745" lon="151.1464624">
    <tag k="addr:housenumber" v="27"/>
    <tag k="addr:street" v="Charlecot Street"/>
    <tag k="source" v="extrapolation"/>
  </node>
  <node id="918286107" version="1" timestamp="2010-09-19T12:56:01Z" uid="7617" user="Franc" changeset="5819508" lat="-33.9118604" lon="151.148082">
    <tag k="addr:housenumber" v="221"/>
    <tag k="addr:street" v="Livingstone Road"/>
    <tag k="source" v="survey"/>
  </node>
  <node id="918286108" version="1" timestamp="2010-09-19T12:56:01Z" uid="7617" user="Franc" changeset="5819508" lat="-33.9061241" lon="151.1521726">
    <tag k="addr:housenumber" v="5"/>
    <tag k="addr:street" v="Einfield Street"/>
    <tag k="source" v="survey"/>
  </node>
  <node id="918286115" version="1" timestamp="2010-09-19T12:56:01Z" uid="7617" user="Franc" changeset="5819508" lat="-33.9041113" lon="151.1460221">
    <tag k="addr:housenumber" v="2"/>
    <tag k="addr:street" v="Charlecot Street"/>
    <tag k="source" v="survey"/>
  </node>
  <node id="918286120" version="1" timestamp="2010-09-19T12:56:01Z" uid="7617" user="Franc" changeset="5819508" lat="-33.904781" lon="151.1468176">
    <tag k="addr:housenumber" v="32"/>
    <tag k="addr:street" v="Charlecot Street"/>
    <tag k="source" v="exrapolation"/>
  </node>
  <node id="918286120" version="2" timestamp="2011-05-29T08:32:57Z" uid="7617" user="Franc" changeset="8278454" lat="-33.904781" lon="151.1468176">
    <tag k="addr:housenumber" v="32"/>
    <tag k="addr:street" v="Charlecot Street"/>
    <tag k="source" v="extrapolation"/>
  </node>
  <node id="918286125" version="1" timestamp="2010-09-19T12:56:01Z" uid="7617" user="Franc" changeset="5819508" lat="-33.907687" lon="151.1495012">
    <tag k="addr:housenumber" v="349"/>
    <tag k="addr:street" v="Marrickville Road"/>
    <tag k="source" v="exrapolation"/>
  </node>
  <node id="918286125" version="2" timestamp="2010-11-05T09:36:10Z" uid="7617" user="Franc" changeset="6293977" lat="-33.907687" lon="151.1495012">
    <tag k="addr:housenumber" v="349"/>
    <tag k="addr:street" v="Marrickville Road"/>
    <tag k="source" v="extrapolation"/>
  </node>
  <node id="918286125" version="3" timestamp="2011-04-26T02:09:17Z" uid="7617" user="Franc" changeset="7970426" lat="-33.9076793" lon="151.1495046">
    <tag k="addr:housenumber" v="349"/>
    <tag k="addr:street" v="Marrickville Road"/>
    <tag k="source" v="extrapolation"/>
  </node>
  <node id="918286126" version="1" timestamp="2010-09-19T12:56:01Z" uid="7617" user="Franc" changeset="5819508" lat="-33.911069" lon="151.1429763">
    <tag k="addr:housenumber" v="14"/>
    <tag k="addr:street" v="Wilga Street"/>
    <tag k="source" v="survey"/>
  </node>
  <node id="918286130" version="1" timestamp="2010-09-19T12:56:02Z" uid="7617" user="Franc" changeset="5819508" lat="-33.9058738" lon="151.1509269">
    <tag k="addr:housenumber" v="30"/>
    <tag k="addr:street" v="Einfield Street"/>
    <tag k="source" v="survey"/>
  </node>
  <node id="918286133" version="1" timestamp="2010-09-19T12:56:02Z" uid="7617" user="Franc" changeset="5819508" lat="-33.9092157" lon="151.1490303"/>
  <node id="918286135" version="1" timestamp="2010-09-19T12:56:02Z" uid="7617" user="Franc" changeset="5819508" lat="-33.9058986" lon="151.1499049">
    <tag k="addr:housenumber" v="56"/>
    <tag k="addr:street" v="Einfield Street"/>
    <tag k="source" v="survey"/>
  </node>
  <node id="918286139" version="1" timestamp="2010-09-19T12:56:02Z" uid="7617" user="Franc" changeset="5819508" lat="-33.9061225" lon="151.1531758">
    <tag k="addr:housenumber" v="150"/>
    <tag k="addr:street" v="Livingstone Road"/>
    <tag k="source" v="survey"/>
  </node>
  <node id="918286143" version="1" timestamp="2010-09-19T12:56:02Z" uid="7617" user="Franc" changeset="5819508" lat="-33.9044878" lon="151.1464588">
    <tag k="addr:housenumber" v="20"/>
    <tag k="addr:street" v="Charlecot Street"/>
  </node>
  <node id="918286149" version="1" timestamp="2010-09-19T12:56:02Z" uid="7617" user="Franc" changeset="5819508" lat="-33.9048021" lon="151.1465319">
    <tag k="addr:housenumber" v="29"/>
    <tag k="addr:street" v="Charlecot Street"/>
    <tag k="source" v="exrapolation"/>
  </node>
  <node id="918286149" version="2" timestamp="2011-05-29T08:32:21Z" uid="7617" user="Franc" changeset="8278454" lat="-33.9048021" lon="151.1465319">
    <tag k="addr:housenumber" v="29"/>
    <tag k="addr:street" v="Charlecot Street"/>
    <tag k="source" v="extrapolation"/>
  </node>
</osm>
