<?xml version='1.0' encoding='UTF-8'?>
<osm version="0.6" generator="libosmium/2.20.0">
  <node id="921168313" version="1" timestamp="2010-09-22T08:49:13Z" uid="7617" user="Franc" changeset="5843623" lat="-33.8750318" lon="151.164939"/>
  <node id="921168313" version="2" timestamp="2011-04-15T10:26:41Z" uid="7617" user="Franc" changeset="7868334" lat="-33.8750434" lon="151.164933"/>
  <node id="921168315" version="1" timestamp="2010-09-22T08:49:13Z" uid="7617" user="Franc" changeset="5843623" lat="-33.8743235" lon="151.1667585">
    <tag k="addr:housenumber" v="38"/>
    <tag k="addr:street" v="Brenan Street"/>
    <tag k="source" v="survey"/>
  </node>
  <node id="921168318" version="1" timestamp="2010-09-22T08:49:13Z" uid="7617" user="Franc" changeset="5843623" lat="-33.8749655" lon="151.162467">
    <tag k="addr:housenumber" v="17"/>
    <tag k="addr:street" v="Pretoria Street"/>
    <tag k="source" v="survey"/>
  </node>
  <node id="921168323" version="1" timestamp="2010-09-22T08:49:14Z" uid="7617" user="Franc" changeset="5843623" lat="-33.875173" lon="151.1621732">
    <tag k="addr:housenumber" v="16"/>
    <tag k="addr:street" v="Pretoria Street"/>
    <tag k="source" v="extrapolation"/>
  </node>
  <node id="921168326" version="1" timestamp="2010-09-22T08:49:14Z" uid="7617" user="Franc" changeset="5843623" lat="-33.8767727" lon="151.1698737">
    <tag k="addr:housenumber" v="374"/>
    <tag k="addr:street" v="Young Street"/>
    <tag k="source" v="survey"/>
  </node>
  <node id="921168328" version="1" timestamp="2010-09-22T08:49:14Z" uid="7617" user="Franc" changeset="5843623" lat="-33.8754465" lon="151.1705141">
    <tag k="addr:housenumber" v="424"/>
    <tag k="addr:street" v="Young Street"/>
    <tag k="source" v="survey"/>
  </node>
  <node id="921168334" version="1" timestamp="2010-09-22T08:49:14Z" uid="7617" user="Franc" changeset="5843623" lat="-33.8743915" lon="151.1653178"/>
  <node id="921168335" version="1" timestamp="2010-09-22T08:49:14Z" uid="7617" user="Franc" changeset="5843623" lat="-33.876102" lon="151.1630011">
    <tag k="addr:housenumber" v="74"/>
    <tag k="addr:street" v="Piper Street"/>
    <tag k="source" v="survey"/>
  </node>
  <node id="921168335" version="2" timestamp="2011-04-15T10:26:39Z" uid="7617" user="Franc" changeset="7868334" lat="-33.8760944" lon="151.1630037">
    <tag k="addr:housenumber" v="74"/>
    <tag k="addr:street" v="Piper Street"/>
    <tag k="source" v="survey"/>
  </node>
  <node id="921168336" version="1" timestamp="2010-09-22T08:49:14Z" uid="7617" user="Franc" changeset="5843623" lat="-33.8751063" lon="151.1633682">
    <tag k="addr:housenumber" v="31"/>
    <tag k="addr:street" v="Russel Street"/>
    <tag k="source" v="survey"/>
  </node>
  <node id="921168337" version="1" timestamp="2010-09-22T08:49:15Z" uid="7617" user="Franc" changeset="5843623" lat="-33.8749808" lon="151.1631814">
    <tag k="addr:housenumber" v="20"/>
    <tag k="addr:street" v="Russel Street"/>
    <tag k="source" v="survey"/>
  </node>
  <node id="921168338" version="1" timestamp="2010-09-22T08:49:15Z" uid="7617" user="Franc" changeset="5843623" lat="-33.8757004" lon="151.1620025">
    <tag k="addr:housenumber" v="2"/>
    <tag k="addr:street" v="Pretoria Street"/>
    <tag k="source" v="survey"/>
  </node>
  <node id="921168345" version="1" timestamp="2010-09-22T08:49:15Z" uid="7617" user="Franc" changeset="5843623" lat="-33.8759873" lon="151.170254">
    <tag k="addr:housenumber" v="398"/>
    <tag k="addr:street" v="Young Street"/>
    <tag k="source" v="survey"/>
  </node>
  <node id="921168347" version="1" timestamp="2010-09-22T08:49:15Z" uid="7617" user="Franc" changeset="5843623" lat="-33.8758291" lon="151.1631269">
    <tag k="addr:housenumber" v="7"/>
    <tag k="addr:street" v="Russel Street"/>
    <tag k="source" v="survey"/>
  </node>
  <node id="921168348" version="1" timestamp="2010-09-22T08:49:15Z" uid="7617" user="Franc" changeset="5843623" lat="-33.8753574" lon="151.163287">
    <tag k="addr:housenumber" v="13"/>
    <tag k="addr:street" v="Russel Street"/>
    <tag k="source" v="survey"/>
  </node>
  <node id="921168352" version="1" timestamp="2010-09-22T08:49:15Z" uid="7617" user="Franc" changeset="5843623" lat="-33.8753751" lon="151.1623327">
    <tag k="addr:housenumber" v="5"/>
    <tag k="addr:street" v="Pretoria Street"/>
    <tag k="source" v="survey"/>
  </node>
  <node id="921168354" version="1" timestamp="2010-09-22T08:49:16Z" uid="7617" user="Franc" changeset="5843623" lat="-33.8878645" lon="151.1614829">
    <tag k="addr:housenumber" v="287"/>
    <tag k="addr:street" v="Parramatta Road"/>
    <tag k="source" v="survey"/>
  </node>
  <node id="921168357" version="1" timestamp="2010-09-22T08:49:16Z" uid="7617" user="Franc" changeset="5843623" lat="-33.8755976" lon="151.1641505">
    <tag k="addr:housenumber" v="15"/>
    <tag k="addr:street" v="Lonsdale Street"/>
    <tag k="source" v="extrapolation"/>
  </node>
  <node id="921168359" version="1" timestamp="2010-09-22T08:49:16Z" uid="7617" user="Franc" changeset="5843623" lat="-33.8752557" lon="151.1642649">
    <tag k="addr:housenumber" v="21"/>
    <tag k="addr:street" v="Lonsdale Street"/>
    <tag k="source" v="survey"/>
  </node>
  <node id="921168362" version="1" timestamp="2010-09-22T08:49:16Z" uid="7617" user="Franc" changeset="5843623" lat="-33.8760969" lon="151.1637545">
    <tag k="addr:housenumber" v="2"/>
    <tag k="addr:street" v="Lonsdale Street"/>
    <tag k="source" v="survey"/>
  </node>
  <node id="921168364" version="1" timestamp="2010-09-22T08:49:16Z" uid="7617" user="Franc" changeset="5843623" lat="-33.8750306" lon="151.1633937">
    <tag k="addr:housenumber" v="33"/>
    <tag k="addr:street" v="Russel Street"/>
    <tag k="source" v="survey"/>
  </node>
  <node id="921168366" version="1" timestamp="2010-09-22T08:49:16Z" uid="7617" user="Franc" changeset="5843623" lat="-33.8757946" lon="151.1640809">
    <tag k="addr:housenumber" v="11"/>
    <tag k="addr:street" v="Lonsdale Street"/>
    <tag k="source" v="extrapolation"/>
  </node>
  <node id="921168369" version="1" timestamp="2010-09-22T08:49:17Z" uid="7617" user="Franc" changeset="5843623" lat="-33.8771848" lon="151.1679756">
    <tag k="addr:housenumber" v="47"/>
    <tag k="addr:street" v="Piper Street"/>
    <tag k="source" v="extrapolation"/>
  </node>
  <node id="921168372" version="1" timestamp="2010-09-22T08:49:17Z" uid="7617" user="Franc" changeset="5843623" lat="-33.8759962" lon="151.1630724">
    <tag k="addr:housenumber" v="1"/>
    <tag k="addr:street" v="Russel Street"/>
    <tag k="source" v="survey"/>
  </node>
  <node id="921168373" version="1" timestamp="2010-09-22T08:49:17Z" uid="7617" user="Franc" changeset="5843623" lat="-33.872965" lon="151.1721036">
    <tag k="addr:housenumber" v="20"/>
    <tag k="addr:street" v="Pritchard Street"/>
    <tag k="source" v="survey"/>
  </node>
  <node id="921168375" version="1" timestamp="2010-09-22T08:49:17Z" uid="7617" user="Franc" changeset="5843623" lat="-33.8742587" lon="151.167564">
    <tag k="addr:housenumber" v="26"/>
    <tag k="addr:street" v="Brenan Street"/>
    <tag k="source" v="survey"/>
  </node>
  <node id="921168378" version="1" timestamp="2010-09-22T08:49:17Z" uid="7617" user="Franc" changeset="5843623" lat="-33.87548" lon="151.1707349">
    <tag k="addr:housenumber" v="367"/>
    <tag k="addr:street" v="Young Street"/>
    <tag k="source" v="survey"/>
  </node>
  <node id="921168384" version="1" timestamp="2010-09-22T08:49:18Z" uid="7617" user="Franc" changeset="5843623" lat="-33.8735744" lon="151.1715162">
    <tag k="addr:housenumber" v="56"/>
    <tag k="addr:street" v="Breillat Street"/>
    <tag k="source" v="survey"/>
  </node>
  <node id="921168385" version="1" timestamp="2010-09-22T08:49:18Z" uid="7617" user="Franc" changeset="5843623" lat="-33.8743317" lon="151.1666491">
    <tag k="addr:housenumber" v="40"/>
    <tag k="addr:street" v="Brenan Street"/>
  </node>
  <node id="921168386" version="1" timestamp="2010-09-22T08:49:18Z" uid="7617" user="Franc" changeset="5843623" lat="-33.8748667" lon="151.1641576">
    <tag k="addr:housenumber" v="34"/>
    <tag k="addr:street" v="Lonsdale Street"/>
    <tag k="source" v="survey"/>
  </node>
  <node id="921168388" version="1" timestamp="2010-09-22T08:49:18Z" uid="7617" user="Franc" changeset="5843623" lat="-33.8748774" lon="151.1634415">
    <tag k="addr:housenumber" v="37"/>
    <tag k="addr:street" v="Russel Street"/>
    <tag k="source" v="survey"/>
  </node>
  <node id="921168395" version="1" timestamp="2010-09-22T08:49:19Z" uid="7617" user="Franc" changeset="5843623" lat="-33.8749227" lon="151.1624808">
    <tag k="addr:housenumber" v="19"/>
    <tag k="addr:street" v="Pretoria Street"/>
    <tag k="source" v="survey"/>
  </node>
  <node id="921168396" version="1" timestamp="2010-09-22T08:49:19Z" uid="7617" user="Franc" changeset="5843623" lat="-33.8772276" lon="151.1681359">
    <tag k="addr:housenumber" v="43"/>
    <tag k="addr:street" v="Piper Street"/>
    <tag k="source" v="extrapolation"/>
  </node>
  <node id="921168397" version="1" timestamp="2010-09-22T08:49:19Z" uid="7617" user="Franc" changeset="5843623" lat="-33.8742082" lon="151.1683675">
    <tag k="addr:housenumber" v="14"/>
    <tag k="addr:street" v="Brenan Street"/>
    <tag k="source" v="survey"/>
  </node>
  <node id="921168402" version="1" timestamp="2010-09-22T08:49:19Z" uid="7617" user="Franc" changeset="5843623" lat="-33.875485" lon="151.1641859">
    <tag k="addr:housenumber" v="17"/>
    <tag k="addr:street" v="Lonsdale Street"/>
    <tag k="source" v="extrapolation"/>
  </node>
  <node id="921168404" version="1" timestamp="2010-09-22T08:49:19Z" uid="7617" user="Franc" changeset="5843623" lat="-33.8754929" lon="151.1620628">
    <tag k="addr:housenumber" v="8"/>
    <tag k="addr:street" v="Pretoria Street"/>
    <tag k="source" v="survey"/>
  </node>
  <node id="921168406" version="1" timestamp="2010-09-22T08:49:19Z" uid="7617" user="Franc" changeset="5843623" lat="-33.872719" lon="151.1721394">
    <tag k="addr:housenumber" v="13"/>
    <tag k="addr:street" v="Pritchard Street"/>
    <tag k="source" v="survey"/>
  </node>
  <node id="921168408" version="1" timestamp="2010-09-22T08:49:19Z" uid="7617" user="Franc" changeset="5843623" lat="-33.8762825" lon="151.1638012">
    <tag k="addr:housenumber" v="64"/>
    <tag k="addr:street" v="Piper Street"/>
    <tag k="source" v="survey"/>
  </node>
  <node id="921168408" version="2" timestamp="2010-11-05T09:36:04Z" uid="7617" user="Franc" changeset="6293977" lat="-33.8763002" lon="151.1638864">
    <tag k="addr:housenumber" v="64"/>
    <tag k="addr:street" v="Piper Street"/>
    <tag k="source" v="survey"/>
  </node>
  <node id="921168410" version="1" timestamp="2010-09-22T08:49:20Z" uid="7617" user="Franc" changeset="5843623" lat="-33.8750655" lon="151.1624369">
    <tag k="addr:housenumber" v="15"/>
    <tag k="addr:street" v="Pretoria Street"/>
    <tag k="source" v="survey"/>
  </node>
  <node id="921168412" version="1" timestamp="2010-09-22T08:49:20Z" uid="7617" user="Franc" changeset="5843623" lat="-33.8743561" lon="151.1663207">
    <tag k="addr:housenumber" v="46"/>
    <tag k="addr:street" v="Brenan Street"/>
    <tag k="source" v="extrapolation"/>
  </node>
  <node id="921168415" version="1" timestamp="2010-09-22T08:49:20Z" uid="7617" user="Franc" changeset="5843623" lat="-33.875253" lon="151.1621456">
    <tag k="addr:housenumber" v="14"/>
    <tag k="addr:street" v="Pretoria Street"/>
    <tag k="source" v="extrapolation"/>
  </node>
  <node id="921168417" version="1" timestamp="2010-09-22T08:49:20Z" uid="7617" user="Franc" changeset="5843623" lat="-33.8742435" lon="151.1678916">
    <tag k="addr:housenumber" v="22"/>
    <tag k="addr:street" v="Brenan Street"/>
    <tag k="source" v="survey"/>
  </node>
  <node id="921168421" version="1" timestamp="2010-09-22T08:49:20Z" uid="7617" user="Franc" changeset="5843623" lat="-33.8742363" lon="151.1680207">
    <tag k="addr:housenumber" v="20"/>
    <tag k="addr:street" v="Brenan Street"/>
    <tag k="source" v="extrapolation"/>
  </node>
  <node id="921168422" version="1" timestamp="2010-09-22T08:49:21Z" uid="7617" user="Franc" changeset="5843623" lat="-33.875571" lon="151.1620439">
    <tag k="addr:housenumber" v="6"/>
    <tag k="addr:street" v="Pretoria Street"/>
    <tag k="source" v="survey"/>
  </node>
  <node id="921168424" version="1" timestamp="2010-09-22T08:49:21Z" uid="7617" user="Franc" changeset="5843623" lat="-33.88311" lon="151.1627005">
    <tag k="addr:housenumber" v="134"/>
    <tag k="addr:street" v="Catherine Street"/>
    <tag k="source" v="survey"/>
  </node>
  <node id="921168424" version="2" timestamp="2010-10-30T00:28:13Z" uid="7617" user="Franc" changeset="6223542" lat="-33.8831042" lon="151.1627362">
    <tag k="addr:housenumber" v="134"/>
    <tag k="addr:street" v="Catherine Street"/>
    <tag k="source" v="survey"/>
  </node>
  <node id="921168426" version="1" timestamp="2010-09-22T08:49:21Z" uid="7617" user="Franc" changeset="5843623" lat="-33.8744718" lon="151.1650751"/>
  <node id="921168430" version="1" timestamp="2010-09-22T08:49:21Z" uid="7617" user="Franc" changeset="5843623" lat="-33.8753664" lon="151.1642225">
    <tag k="addr:housenumber" v="19"/>
    <tag k="addr:street" v="Lonsdale Street"/>
    <tag k="source" v="survey"/>
  </node>
  <node id="921168433" version="1" timestamp="2010-09-22T08:49:21Z" uid="7617" user="Franc" changeset="5843623" lat="-33.8749017" lon="151.164944"/>
  <node id="921168435" version="1" timestamp="2010-09-22T08:49:21Z" uid="7617" user="Franc" changeset="5843623" lat="-33.8756537" lon="151.1631869">
    <tag k="addr:housenumber" v="11"/>
    <tag k="addr:street" v="Russel Street"/>
    <tag k="source" v="survey"/>
  </node>
  <node id="921168436" version="1" timestamp="2010-09-22T08:49:22Z" uid="7617" user="Franc" changeset="5843623" lat="-33.8761883" lon="151.1701576">
    <tag k="addr:housenumber" v="396"/>
    <tag k="addr:street" v="Young Street"/>
    <tag k="source" v="survey"/>
  </node>
  <node id="921168440" version="1" timestamp="2010-09-22T08:49:22Z" uid="7617" user="Franc" changeset="5843623" lat="-33.8742147" lon="151.168251">
    <tag k="addr:housenumber" v="16"/>
    <tag k="addr:street" v="Brenan Street"/>
    <tag k="source" v="survey"/>
  </node>
  <node id="921168442" version="1" timestamp="2010-09-22T08:49:22Z" uid="7617" user="Franc" changeset="5843623" lat="-33.8756104" lon="151.1629701">
    <tag k="addr:housenumber" v="4"/>
    <tag k="addr:street" v="Russel Street"/>
    <tag k="source" v="survey"/>
  </node>
  <node id="921168445" version="1" timestamp="2010-09-22T08:49:22Z" uid="7617" user="Franc" changeset="5843623" lat="-33.8750131" lon="151.1622285">
    <tag k="addr:housenumber" v="20"/>
    <tag k="addr:street" v="Pretoria Street"/>
    <tag k="source" v="extrapolation"/>
  </node>
  <node id="921168447" version="1" timestamp="2010-09-22T08:49:22Z" uid="7617" user="Franc" changeset="5843623" lat="-33.8772404" lon="151.1682028">
    <tag k="addr:housenumber" v="41"/>
    <tag k="addr:street" v="Piper Street"/>
    <tag k="source" v="survey"/>
  </node>
  <node id="921168451" version="1" timestamp="2010-09-22T08:49:23Z" uid="7617" user="Franc" changeset="5843623" lat="-33.8758891" lon="151.1631046">
    <tag k="addr:housenumber" v="5"/>
    <tag k="addr:street" v="Russel Street"/>
    <tag k="source" v="extrapolation"/>
  </node>
  <node id="921168454" version="1" timestamp="2010-09-22T08:49:23Z" uid="7617" user="Franc" changeset="5843623" lat="-33.8747453" lon="151.1650012"/>
  <node id="921168456" version="1" timestamp="2010-09-22T08:49:23Z" uid="7617" user="Franc" changeset="5843623" lat="-33.8727747" lon="151.1720437">
    <tag k="addr:housenumber" v="15"/>
    <tag k="addr:street" v="Pritchard Street"/>
    <tag k="source" v="survey"/>
  </node>
  <node id="921168458" version="1" timestamp="2010-09-22T08:49:23Z" uid="7617" user="Franc" changeset="5843623" lat="-33.8752773" lon="151.1709216">
    <tag k="addr:housenumber" v="1"/>
    <tag k="addr:street" v="Breillat Street"/>
    <tag k="source" v="survey"/>
  </node>
  <node id="921168466" version="1" timestamp="2010-09-22T08:49:23Z" uid="7617" user="Franc" changeset="5843623" lat="-33.8754689" lon="151.1623013">
    <tag k="addr:housenumber" v="3"/>
    <tag k="addr:street" v="Pretoria Street"/>
    <tag k="source" v="survey"/>
  </node>
  <node id="921168470" version="1" timestamp="2010-09-22T08:49:24Z" uid="7617" user="Franc" changeset="5843623" lat="-33.887569" lon="151.161301">
    <tag k="addr:housenumber" v="2"/>
    <tag k="addr:street" v="Catherine Street"/>
    <tag k="source" v="survey"/>
  </node>
  <node id="921168476" version="1" timestamp="2010-09-22T08:49:24Z" uid="7617" user="Franc" changeset="5843623" lat="-33.8751293" lon="151.1643027">
    <tag k="addr:housenumber" v="23"/>
    <tag k="addr:street" v="Lonsdale Street"/>
    <tag k="source" v="survey"/>
  </node>
  <node id="921168479" version="1" timestamp="2010-09-22T08:49:24Z" uid="7617" user="Franc" changeset="5843623" lat="-33.8771278" lon="151.1677282">
    <tag k="addr:housenumber" v="47"/>
    <tag k="addr:street" v="Piper Street"/>
    <tag k="source" v="survey"/>
  </node>
  <node id="921168482" version="1" timestamp="2010-09-22T08:49:24Z" uid="7617" user="Franc" changeset="5843623" lat="-33.8767375" lon="151.1701374">
    <tag k="addr:housenumber" v="339"/>
    <tag k="addr:street" v="Young Street"/>
    <tag k="source" v="survey"/>
  </node>
  <node id="921168483" version="1" timestamp="2010-09-22T08:49:24Z" uid="7617" user="Franc" changeset="5843623" lat="-33.874348" lon="151.1664302">
    <tag k="addr:housenumber" v="44"/>
    <tag k="addr:street" v="Brenan Street"/>
    <tag k="source" v="extrapolation"/>
  </node>
  <node id="921168485" version="1" timestamp="2010-09-22T08:49:25Z" uid="7617" user="Franc" changeset="5843623" lat="-33.8753329" lon="151.162118">
    <tag k="addr:housenumber" v="12"/>
    <tag k="addr:street" v="Pretoria Street"/>
    <tag k="source" v="extrapolation"/>
  </node>
  <node id="921168488" version="1" timestamp="2010-09-22T08:49:25Z" uid="7617" user="Franc" changeset="5843623" lat="-33.8756878" lon="151.1641233">
    <tag k="addr:housenumber" v="13"/>
    <tag k="addr:street" v="Lonsdale Street"/>
    <tag k="source" v="survey"/>
  </node>
  <node id="921168493" version="1" timestamp="2010-09-22T08:49:25Z" uid="7617" user="Franc" changeset="5843623" lat="-33.8750602" lon="151.1631547">
    <tag k="addr:housenumber" v="18"/>
    <tag k="addr:street" v="Russel Street"/>
    <tag k="source" v="survey"/>
  </node>
  <node id="921168494" version="1" timestamp="2010-09-22T08:49:25Z" uid="7617" user="Franc" changeset="5843623" lat="-33.8756987" lon="151.1629453">
    <tag k="addr:housenumber" v="2"/>
    <tag k="addr:street" v="Russel Street"/>
    <tag k="source" v="survey"/>
  </node>
  <node id="921168495" version="1" timestamp="2010-09-22T08:49:25Z" uid="7617" user="Franc" changeset="5843623" lat="-33.8742259" lon="151.1681315">
    <tag k="addr:housenumber" v="18"/>
    <tag k="addr:street" v="Brenan Street"/>
    <tag k="source" v="extrapolation"/>
  </node>
  <node id="921168497" version="1" timestamp="2010-09-22T08:49:25Z" uid="7617" user="Franc" changeset="5843623" lat="-33.8728758" lon="151.1722301">
    <tag k="addr:housenumber" v="18"/>
    <tag k="addr:street" v="Pritchard Street"/>
    <tag k="source" v="survey"/>
  </node>
  <node id="921168504" version="1" timestamp="2010-09-22T08:49:26Z" uid="7617" user="Franc" changeset="5843623" lat="-33.8752245" lon="151.1707588">
    <tag k="addr:housenumber" v="2"/>
    <tag k="addr:street" v="Breillat Street"/>
    <tag k="source" v="survey"/>
  </node>
  <node id="921168506" version="1" timestamp="2010-09-22T08:49:26Z" uid="7617" user="Franc" changeset="5843623" lat="-33.8759482" lon="151.1627733">
    <tag k="addr:housenumber" v="67"/>
    <tag k="addr:street" v="Piper Street"/>
    <tag k="source" v="survey"/>
  </node>
  <node id="921168506" version="2" timestamp="2011-04-15T10:26:41Z" uid="7617" user="Franc" changeset="7868334" lat="-33.8759482" lon="151.1627902">
    <tag k="addr:housenumber" v="67"/>
    <tag k="addr:street" v="Piper Street"/>
    <tag k="source" v="survey"/>
  </node>
  <node id="921168507" version="1" timestamp="2010-09-22T08:49:26Z" uid="7617" user="Franc" changeset="5843623" lat="-33.8758788" lon="151.1640525">
    <tag k="addr:housenumber" v="9"/>
    <tag k="addr:street" v="Lonsdale Street"/>
    <tag k="source" v="survey"/>
  </node>
  <node id="921168510" version="1" timestamp="2010-09-22T08:49:26Z" uid="7617" user="Franc" changeset="5843623" lat="-33.8748839" lon="151.1632136">
    <tag k="addr:housenumber" v="22"/>
    <tag k="addr:street" v="Russel Street"/>
    <tag k="source" v="survey"/>
  </node>
  <node id="921168513" version="1" timestamp="2010-09-22T08:49:26Z" uid="7617" user="Franc" changeset="5843623" lat="-33.8752927" lon="151.1623628">
    <tag k="addr:housenumber" v="7"/>
    <tag k="addr:street" v="Pretoria Street"/>
    <tag k="source" v="survey"/>
  </node>
  <node id="921168515" version="1" timestamp="2010-09-22T08:49:27Z" uid="7617" user="Franc" changeset="5843623" lat="-33.8750931" lon="151.1622009">
    <tag k="addr:housenumber" v="18"/>
    <tag k="addr:street" v="Pretoria Street"/>
    <tag k="source" v="extrapolation"/>
  </node>
  <node id="921168517" version="1" timestamp="2010-09-22T08:49:27Z" uid="7617" user="Franc" changeset="5843623" lat="-33.8759418" lon="151.1630824">
    <tag k="addr:housenumber" v="3"/>
    <tag k="addr:street" v="Russel Street"/>
    <tag k="source" v="extrapolation"/>
  </node>
  <node id="921168521" version="1" timestamp="2010-09-22T08:49:27Z" uid="7617" user="Franc" changeset="5843623" lat="-33.8757451" lon="151.1631569">
    <tag k="addr:housenumber" v="9"/>
    <tag k="addr:street" v="Russel Street"/>
    <tag k="source" v="survey"/>
  </node>
  <node id="921168523" version="1" timestamp="2010-09-22T08:49:27Z" uid="7617" user="Franc" changeset="5843623" lat="-33.874353" lon="151.1654105"/>
  <node id="921168525" version="1" timestamp="2010-09-22T08:49:27Z" uid="7617" user="Franc" changeset="5843623" lat="-33.8736338" lon="151.171486">
    <tag k="addr:housenumber" v="54"/>
    <tag k="addr:street" v="Breillat Street"/>
    <tag k="source" v="survey"/>
  </node>
  <node id="921168527" version="1" timestamp="2010-09-22T08:49:27Z" uid="7617" user="Franc" changeset="5843623" lat="-33.8727957" lon="151.1722919">
    <tag k="amenity" v="post_box"/>
    <tag k="source" v="nearmap"/>
  </node>
  <node id="921168530" version="1" timestamp="2010-09-22T08:49:27Z" uid="7617" user="Franc" changeset="5843623" lat="-33.8743643" lon="151.1662113">
    <tag k="addr:housenumber" v="48"/>
    <tag k="addr:street" v="Brenan Street"/>
    <tag k="source" v="survey"/>
  </node>
  <node id="921168533" version="1" timestamp="2010-09-22T08:49:28Z" uid="7617" user="Franc" changeset="5843623" lat="-33.8749331" lon="151.1622561">
    <tag k="addr:housenumber" v="22"/>
    <tag k="addr:street" v="Pretoria Street"/>
    <tag k="source" v="survey"/>
  </node>
  <node id="921168535" version="1" timestamp="2010-09-22T08:49:28Z" uid="7617" user="Franc" changeset="5843623" lat="-33.8749466" lon="151.1634171">
    <tag k="addr:housenumber" v="35"/>
    <tag k="addr:street" v="Russel Street"/>
    <tag k="source" v="extrapolation"/>
  </node>
  <node id="921168537" version="1" timestamp="2010-09-22T08:49:28Z" uid="7617" user="Franc" changeset="5843623" lat="-33.8772086" lon="151.1680855">
    <tag k="addr:housenumber" v="45"/>
    <tag k="addr:street" v="Piper Street"/>
    <tag k="source" v="extrapolation"/>
  </node>
  <node id="921168542" version="1" timestamp="2010-09-22T08:49:28Z" uid="7617" user="Franc" changeset="5843623" lat="-33.8743398" lon="151.1665396">
    <tag k="addr:housenumber" v="42"/>
    <tag k="addr:street" v="Brenan Street"/>
    <tag k="source" v="extrapolation"/>
  </node>
  <node id="921168543" version="1" timestamp="2010-09-22T08:49:28Z" uid="7617" user="Franc" changeset="5843623" lat="-33.8754129" lon="151.1620904">
    <tag k="addr:housenumber" v="10"/>
    <tag k="addr:street" v="Pretoria Street"/>
    <tag k="source" v="extrapolation"/>
  </node>
  <node id="921168545" version="1" timestamp="2010-09-22T08:49:28Z" uid="7617" user="Franc" changeset="5843623" lat="-33.8742587" lon="151.1676305">
    <tag k="addr:housenumber" v="24"/>
    <tag k="addr:street" v="Brenan Street"/>
    <tag k="source" v="survey"/>
  </node>
  <node id="921168546" version="1" timestamp="2010-09-22T08:49:28Z" uid="7617" user="Franc" changeset="5843623" lat="-33.8744693" lon="151.1649657"/>
  <node id="921168548" version="1" timestamp="2010-09-22T08:49:29Z" uid="7617" user="Franc" changeset="5843623" lat="-33.8747575" lon="151.1623093">
    <tag k="addr:housenumber" v="90"/>
    <tag k="addr:street" v="City West Link"/>
    <tag k="source" v="survey"/>
  </node>
</osm>
