<?xml version='1.0' encoding='UTF-8'?>
<osm version="0.6" generator="libosmium/2.20.0">
  <node id="925346415" version="3" timestamp="2011-03-28T10:36:51Z" uid="4467" user="Rosscoe" changeset="7695288" lat="-37.8329771" lon="145.1589256">
    <tag k="highway" v="bus_stop"/>
    <tag k="name" v="Route 703 Ventura Bus"/>
    <tag k="operator" v="Ventura"/>
    <tag k="source" v="nearmap"/>
    <tag k="type" v="703"/>
    <tag k="wheelchair" v="yes"/>
  </node>
  <node id="925346429" version="3" timestamp="2011-03-28T10:36:52Z" uid="4467" user="Rosscoe" changeset="7695288" lat="-37.8334638" lon="145.1606405">
    <tag k="highway" v="bus_stop"/>
    <tag k="name" v="Route 703 Ventura Bus"/>
    <tag k="operator" v="Ventura"/>
    <tag k="source" v="nearmap"/>
    <tag k="type" v="703"/>
    <tag k="wheelchair" v="yes"/>
  </node>
  <node id="925346440" version="3" timestamp="2011-03-28T10:36:52Z" uid="4467" user="Rosscoe" changeset="7695288" lat="-37.8336409" lon="145.1567218">
    <tag k="highway" v="bus_stop"/>
    <tag k="name" v="Route 703 Ventura Bus"/>
    <tag k="operator" v="Ventura"/>
    <tag k="source" v="nearmap"/>
    <tag k="type" v="703"/>
    <tag k="wheelchair" v="yes"/>
  </node>
  <node id="925346461" version="3" timestamp="2011-03-28T10:36:51Z" uid="4467" user="Rosscoe" changeset="7695288" lat="-37.8322378" lon="145.1524037">
    <tag k="highway" v="bus_stop"/>
    <tag k="name" v="Route 703 Ventura Bus"/>
    <tag k="operator" v="Ventura"/>
    <tag k="source" v="nearmap"/>
    <tag k="type" v="703"/>
    <tag k="wheelchair" v="yes"/>
  </node>
</osm>
