<?xml version='1.0' encoding='UTF-8'?>
<osm version="0.6" generator="libosmium/2.20.0">
  <node id="927345233" version="1" timestamp="2010-09-26T22:25:06Z" uid="96874" user="Quedel" changeset="5886526" lat="51.7714303" lon="11.1403833">
    <tag k="amenity" v="fuel"/>
    <tag k="name" v="Star"/>
  </node>
  <node id="927345237" version="1" timestamp="2010-09-26T22:25:06Z" uid="96874" user="Quedel" changeset="5886526" lat="51.7935018" lon="11.1583817">
    <tag k="bus" v="yes"/>
    <tag k="highway" v="bus_stop"/>
    <tag k="name" v="Kleers/Seniorenheim"/>
    <tag k="operator" v="Q-Bus Ballenstedt"/>
    <tag k="public_transport" v="stop_position"/>
    <tag k="ref" v="957202"/>
  </node>
  <node id="927345237" version="2" timestamp="2010-10-13T17:45:54Z" uid="96874" user="Quedel" changeset="6030469" lat="51.7935018" lon="11.1583817">
    <tag k="addr:city" v="Quedlinburg"/>
    <tag k="bus" v="yes"/>
    <tag k="highway" v="bus_stop"/>
    <tag k="name" v="Kleers/Seniorenheim"/>
    <tag k="operator" v="Q-Bus Ballenstedt"/>
    <tag k="public_transport" v="stop_position"/>
    <tag k="ref" v="957202"/>
  </node>
  <node id="927345239" version="1" timestamp="2010-09-26T22:25:06Z" uid="96874" user="Quedel" changeset="5886526" lat="51.7917765" lon="11.1578399">
    <tag k="bus" v="yes"/>
    <tag k="highway" v="bus_stop"/>
    <tag k="name" v="Gartenstraße"/>
    <tag k="operator" v="Q-Bus Ballenstedt"/>
    <tag k="public_transport" v="stop_position"/>
    <tag k="ref" v="956935"/>
  </node>
  <node id="927345239" version="2" timestamp="2010-10-13T17:45:52Z" uid="96874" user="Quedel" changeset="6030469" lat="51.7917765" lon="11.1578399">
    <tag k="addr:city" v="Quedlinburg"/>
    <tag k="bus" v="yes"/>
    <tag k="highway" v="bus_stop"/>
    <tag k="name" v="Gartenstraße"/>
    <tag k="operator" v="Q-Bus Ballenstedt"/>
    <tag k="public_transport" v="stop_position"/>
    <tag k="ref" v="956935"/>
  </node>
  <node id="927345318" version="1" timestamp="2010-09-26T22:25:14Z" uid="96874" user="Quedel" changeset="5886526" lat="51.7687982" lon="11.1383546"/>
  <node id="927345318" version="2" timestamp="2010-10-17T20:47:24Z" uid="96874" user="Quedel" changeset="6070824" lat="51.7687982" lon="11.1383546">
    <tag k="alt_name" v="Landkreis Harz"/>
    <tag k="name" v="Quedlinburg"/>
    <tag k="traffic_sign" v="city_limit"/>
  </node>
  <node id="927345342" version="2" timestamp="2011-04-11T13:59:27Z" uid="4467" user="Rosscoe" changeset="7833438" lat="-35.188338" lon="138.4806857"/>
  <node id="927345344" version="2" timestamp="2011-04-11T13:59:31Z" uid="4467" user="Rosscoe" changeset="7833438" lat="-35.188423" lon="138.4807514"/>
  <node id="927345348" version="2" timestamp="2011-04-11T13:59:26Z" uid="4467" user="Rosscoe" changeset="7833438" lat="-35.1885079" lon="138.4807287"/>
  <node id="927345352" version="2" timestamp="2011-04-11T13:59:32Z" uid="4467" user="Rosscoe" changeset="7833438" lat="-35.1885596" lon="138.4806438"/>
  <node id="927345354" version="2" timestamp="2011-04-11T13:59:30Z" uid="4467" user="Rosscoe" changeset="7833438" lat="-35.1885451" lon="138.4805202"/>
  <node id="927345357" version="2" timestamp="2011-04-11T13:59:24Z" uid="4467" user="Rosscoe" changeset="7833438" lat="-35.1884685" lon="138.4804541"/>
  <node id="927345359" version="2" timestamp="2011-04-11T13:59:31Z" uid="4467" user="Rosscoe" changeset="7833438" lat="-35.1884256" lon="138.4804514"/>
  <node id="927345362" version="2" timestamp="2011-04-11T13:59:27Z" uid="4467" user="Rosscoe" changeset="7833438" lat="-35.1883544" lon="138.4804933"/>
  <node id="927345365" version="2" timestamp="2011-04-11T13:59:30Z" uid="4467" user="Rosscoe" changeset="7833438" lat="-35.1883215" lon="138.4805618"/>
</osm>
