<?xml version='1.0' encoding='UTF-8'?>
<osm version="0.6" generator="libosmium/2.20.0">
  <node id="932584463" version="3" timestamp="2010-11-30T17:14:59Z" uid="115477" user="wowik" changeset="6495980" lat="55.8958267" lon="36.8575556">
    <tag k="addr:country" v="RU"/>
    <tag k="addr:region" v="Московская область"/>
    <tag k="name" v="Трусово"/>
    <tag k="place" v="hamlet"/>
  </node>
  <node id="932584463" version="4" timestamp="2010-11-30T17:35:51Z" uid="115477" user="wowik" changeset="6496139" lat="55.8958268" lon="36.8575555">
    <tag k="addr:country" v="RU"/>
    <tag k="addr:district" v="Солнечногорский район"/>
    <tag k="addr:region" v="Московская область"/>
    <tag k="name" v="Трусово"/>
    <tag k="place" v="hamlet"/>
  </node>
  <node id="932584463" version="5" timestamp="2010-11-30T17:51:31Z" uid="115477" user="wowik" changeset="6496238" lat="55.8958269" lon="36.8575554">
    <tag k="addr:country" v="RU"/>
    <tag k="addr:district" v="Истринский район"/>
    <tag k="addr:region" v="Московская область"/>
    <tag k="name" v="Трусово"/>
    <tag k="place" v="hamlet"/>
  </node>
</osm>
