<?xml version='1.0' encoding='UTF-8'?>
<osm version="0.6" generator="libosmium/2.20.0">
  <node id="941281422" version="1" timestamp="2010-10-08T08:41:22Z" uid="115477" user="wowik" changeset="5984136" lat="54.9594057" lon="19.9799173">
    <tag k="name" v="Маяк"/>
    <tag k="place" v="hamlet"/>
  </node>
  <node id="941281424" version="1" timestamp="2010-10-08T08:41:22Z" uid="115477" user="wowik" changeset="5984136" lat="54.9602065" lon="19.978587">
    <tag k="man made" v="lighthouse"/>
  </node>
  <node id="941288228" version="1" timestamp="2010-10-08T08:50:05Z" uid="115477" user="wowik" changeset="5984201" lat="54.951111" lon="19.984444">
    <tag k="gns:modify_date" v="2003-07-15"/>
    <tag k="name" v="Молодогвардейское"/>
    <tag k="place" v="hamlet"/>
    <tag k="source" v="GNS"/>
    <tag k="source:id" v="6793546"/>
  </node>
  <node id="941288228" version="2" timestamp="2010-10-08T15:17:02Z" uid="115477" user="wowik" changeset="5986870" lat="54.9514619" lon="19.991157">
    <tag k="gns:modify_date" v="2003-07-15"/>
    <tag k="name" v="Молодогвардейское"/>
    <tag k="name:de" v="Molodogwardejskoje"/>
    <tag k="name:lt" v="Molodogvardeiskojė"/>
    <tag k="old_name:de" v="Gut Finken"/>
    <tag k="place" v="hamlet"/>
    <tag k="source" v="GNS"/>
    <tag k="source:id" v="6793546"/>
  </node>
  <node id="941288228" version="3" timestamp="2010-10-08T16:37:47Z" uid="115477" user="wowik" changeset="5986870" lat="54.9433775" lon="20.0092351">
    <tag k="gns:modify_date" v="2003-07-15"/>
    <tag k="name" v="Молодогвардейское"/>
    <tag k="name:de" v="Molodogwardejskoje"/>
    <tag k="name:lt" v="Molodogvardeiskojė"/>
    <tag k="old_name:de" v="Gut Finken"/>
    <tag k="place" v="hamlet"/>
    <tag k="source" v="GNS"/>
    <tag k="source:id" v="6793546"/>
  </node>
</osm>
