<?xml version='1.0' encoding='UTF-8'?>
<osm version="0.6" generator="libosmium/2.20.0">
  <node id="942335219" version="1" timestamp="2010-10-09T09:06:43Z" uid="7617" user="Franc" changeset="5991910" lat="-33.9156377" lon="151.1481091">
    <tag k="addr:housenumber" v="6a"/>
    <tag k="addr:street" v="Harnett Avenue"/>
    <tag k="source" v="survey"/>
  </node>
  <node id="942335219" version="2" timestamp="2010-11-20T01:26:55Z" uid="7617" user="Franc" changeset="6411501" lat="-33.9156377" lon="151.1481091">
    <tag k="addr:housenumber" v="6a"/>
    <tag k="addr:street" v="Harnett Avenue"/>
    <tag k="source" v="survey"/>
  </node>
  <node id="942335233" version="1" timestamp="2010-10-09T09:06:43Z" uid="7617" user="Franc" changeset="5991910" lat="-33.9138823" lon="151.1465621">
    <tag k="addr:housenumber" v="2"/>
    <tag k="addr:street" v="Warren Road"/>
    <tag k="source" v="exrapolation"/>
  </node>
  <node id="942335233" version="2" timestamp="2011-05-29T08:32:34Z" uid="7617" user="Franc" changeset="8278454" lat="-33.9138823" lon="151.1465621">
    <tag k="addr:housenumber" v="2"/>
    <tag k="addr:street" v="Warren Road"/>
    <tag k="source" v="extrapolation"/>
  </node>
  <node id="942335238" version="1" timestamp="2010-10-09T09:06:43Z" uid="7617" user="Franc" changeset="5991910" lat="-33.914239" lon="151.1471766">
    <tag k="addr:housenumber" v="12"/>
    <tag k="addr:street" v="Warren Road"/>
    <tag k="source" v="exrapolation"/>
  </node>
  <node id="942335238" version="2" timestamp="2011-05-29T08:33:13Z" uid="7617" user="Franc" changeset="8278454" lat="-33.914239" lon="151.1471766">
    <tag k="addr:housenumber" v="12"/>
    <tag k="addr:street" v="Warren Road"/>
    <tag k="source" v="extrapolation"/>
  </node>
  <node id="942335242" version="1" timestamp="2010-10-09T09:06:43Z" uid="7617" user="Franc" changeset="5991910" lat="-33.9141591" lon="151.1470423">
    <tag k="addr:housenumber" v="10"/>
    <tag k="addr:street" v="Warren Road"/>
    <tag k="source" v="exrapolation"/>
  </node>
  <node id="942335242" version="2" timestamp="2011-05-29T08:32:28Z" uid="7617" user="Franc" changeset="8278454" lat="-33.9141591" lon="151.1470423">
    <tag k="addr:housenumber" v="10"/>
    <tag k="addr:street" v="Warren Road"/>
    <tag k="source" v="extrapolation"/>
  </node>
  <node id="942335246" version="1" timestamp="2010-10-09T09:06:43Z" uid="7617" user="Franc" changeset="5991910" lat="-33.9140857" lon="151.146917">
    <tag k="addr:housenumber" v="8"/>
    <tag k="addr:street" v="Warren Road"/>
    <tag k="source" v="exrapolation"/>
  </node>
  <node id="942335246" version="2" timestamp="2011-05-29T08:32:08Z" uid="7617" user="Franc" changeset="8278454" lat="-33.9140857" lon="151.146917">
    <tag k="addr:housenumber" v="8"/>
    <tag k="addr:street" v="Warren Road"/>
    <tag k="source" v="extrapolation"/>
  </node>
  <node id="942335255" version="1" timestamp="2010-10-09T09:06:44Z" uid="7617" user="Franc" changeset="5991910" lat="-33.9161477" lon="151.148995">
    <tag k="addr:housenumber" v="6"/>
    <tag k="addr:street" v="Harnett Avenue"/>
    <tag k="source" v="survey"/>
  </node>
  <node id="942335259" version="1" timestamp="2010-10-09T09:06:44Z" uid="7617" user="Franc" changeset="5991910" lat="-33.9140021" lon="151.146767">
    <tag k="addr:housenumber" v="6"/>
    <tag k="addr:street" v="Warren Road"/>
    <tag k="source" v="exrapolation"/>
  </node>
  <node id="942335259" version="2" timestamp="2011-05-29T08:33:05Z" uid="7617" user="Franc" changeset="8278454" lat="-33.9140021" lon="151.146767">
    <tag k="addr:housenumber" v="6"/>
    <tag k="addr:street" v="Warren Road"/>
    <tag k="source" v="extrapolation"/>
  </node>
  <node id="942335263" version="1" timestamp="2010-10-09T09:06:44Z" uid="7617" user="Franc" changeset="5991910" lat="-33.9139268" lon="151.1466337">
    <tag k="addr:housenumber" v="4"/>
    <tag k="addr:street" v="Warren Road"/>
    <tag k="source" v="exrapolation"/>
  </node>
  <node id="942335263" version="2" timestamp="2011-05-29T08:32:43Z" uid="7617" user="Franc" changeset="8278454" lat="-33.9139268" lon="151.1466337">
    <tag k="addr:housenumber" v="4"/>
    <tag k="addr:street" v="Warren Road"/>
    <tag k="source" v="extrapolation"/>
  </node>
</osm>
