<?xml version='1.0' encoding='UTF-8'?>
<osm version="0.6" generator="libosmium/2.20.0">
  <node id="957004326" version="2" timestamp="2010-12-06T20:31:48Z" uid="8619" user="cetest" changeset="6568333" lat="32.5899779" lon="34.9839461"/>
  <node id="957004327" version="3" timestamp="2010-12-06T20:31:31Z" uid="8619" user="cetest" changeset="6568333" lat="32.5861334" lon="34.9790665"/>
  <node id="957004328" version="3" timestamp="2010-12-06T20:32:37Z" uid="8619" user="cetest" changeset="6568333" lat="32.5902616" lon="34.9888141"/>
  <node id="957006616" version="1" timestamp="2010-10-19T12:06:04Z" uid="7617" user="Franc" changeset="6098118" lat="-33.937881" lon="151.114151">
    <tag k="name" v="nrt"/>
    <tag k="note" v="nrt"/>
  </node>
  <node id="957006616" version="2" timestamp="2011-06-13T13:04:36Z" uid="7617" user="Franc" changeset="8426070" lat="-33.937881" lon="151.114151"/>
  <node id="957006621" version="1" timestamp="2010-10-19T12:06:04Z" uid="7617" user="Franc" changeset="6098118" lat="-33.933842" lon="151.122299">
    <tag k="name" v="99"/>
    <tag k="note" v="99"/>
  </node>
  <node id="957006621" version="2" timestamp="2011-04-23T12:55:09Z" uid="7617" user="Franc" changeset="7943317" lat="-33.933842" lon="151.122299">
    <tag k="name" v="99"/>
    <tag k="note" v="99"/>
  </node>
  <node id="957006633" version="1" timestamp="2010-10-19T12:06:05Z" uid="7617" user="Franc" changeset="6098118" lat="-33.789921" lon="150.684296">
    <tag k="name" v="nrt"/>
    <tag k="note" v="nrt"/>
  </node>
  <node id="957006637" version="1" timestamp="2010-10-19T12:06:05Z" uid="7617" user="Franc" changeset="6098118" lat="-33.937153" lon="151.116226">
    <tag k="name" v="181"/>
    <tag k="note" v="181"/>
  </node>
  <node id="957006637" version="2" timestamp="2011-04-23T12:55:09Z" uid="7617" user="Franc" changeset="7943317" lat="-33.937153" lon="151.116226">
    <tag k="name" v="181"/>
    <tag k="note" v="181"/>
  </node>
  <node id="957006639" version="1" timestamp="2010-10-19T12:06:05Z" uid="7617" user="Franc" changeset="6098118" lat="-33.773834" lon="150.669266">
    <tag k="name" v="left only"/>
    <tag k="note" v="left only"/>
  </node>
  <node id="957006639" version="2" timestamp="2010-12-30T12:51:13Z" uid="4467" user="Rosscoe" changeset="6808926" lat="-33.773834" lon="150.669266">
    <tag k="name" v="left only"/>
    <tag k="note" v="left only"/>
  </node>
  <node id="957006640" version="1" timestamp="2010-10-19T12:06:05Z" uid="7617" user="Franc" changeset="6098118" lat="-33.937252" lon="151.116074">
    <tag k="name" v="183"/>
    <tag k="note" v="183"/>
  </node>
  <node id="957006640" version="2" timestamp="2011-04-23T12:55:08Z" uid="7617" user="Franc" changeset="7943317" lat="-33.937252" lon="151.116074">
    <tag k="name" v="183"/>
    <tag k="note" v="183"/>
  </node>
  <node id="957006641" version="1" timestamp="2010-10-19T12:06:05Z" uid="7617" user="Franc" changeset="6098118" lat="-33.936165" lon="151.117493">
    <tag k="name" v="206"/>
    <tag k="note" v="206"/>
  </node>
  <node id="957006641" version="2" timestamp="2011-04-23T12:55:08Z" uid="7617" user="Franc" changeset="7943317" lat="-33.936165" lon="151.117493">
    <tag k="name" v="206"/>
    <tag k="note" v="206"/>
  </node>
  <node id="957006651" version="1" timestamp="2010-10-19T12:06:05Z" uid="7617" user="Franc" changeset="6098118" lat="-33.782619" lon="150.673538">
    <tag k="name" v="salvatiopn army"/>
    <tag k="note" v="salvatiopn army"/>
  </node>
  <node id="957006652" version="1" timestamp="2010-10-19T12:06:05Z" uid="7617" user="Franc" changeset="6098118" lat="-33.9434541" lon="150.6025206">
    <tag k="addr:housenumber" v="390"/>
    <tag k="addr:street" v="Avoca Road"/>
  </node>
</osm>
