<?xml version='1.0' encoding='UTF-8'?>
<osm version="0.6" generator="libosmium/2.20.0">
  <node id="957043144" version="2" timestamp="2011-03-06T11:55:12Z" uid="8619" user="cetest" changeset="7472297" lat="32.608334" lon="35.0914364"/>
  <node id="957043146" version="2" timestamp="2011-03-06T11:55:33Z" uid="8619" user="cetest" changeset="7472297" lat="32.6073159" lon="35.0961798"/>
  <node id="957048743" version="1" timestamp="2010-10-19T13:00:32Z" uid="7617" user="Franc" changeset="6098994" lat="-33.8974639" lon="151.1574074">
    <tag k="addr:housenumber" v="40"/>
    <tag k="addr:street" v="Albert Street"/>
  </node>
  <node id="957048759" version="1" timestamp="2010-10-19T13:00:32Z" uid="7617" user="Franc" changeset="6098994" lat="-33.8976796" lon="151.1596091">
    <tag k="addr:housenumber" v="20"/>
    <tag k="addr:street" v="Marshall Street"/>
    <tag k="source" v="survey"/>
  </node>
  <node id="957048760" version="1" timestamp="2010-10-19T13:00:32Z" uid="7617" user="Franc" changeset="6098994" lat="-33.909958" lon="151.219482">
    <tag k="name" v="church"/>
    <tag k="note" v="church"/>
  </node>
  <node id="957048760" version="2" timestamp="2010-10-20T09:57:52Z" uid="7617" user="Franc" changeset="6110089" lat="-33.9099814" lon="151.2194759">
    <tag k="amenity" v="place_of_worship"/>
    <tag k="religion" v="christian"/>
  </node>
  <node id="957048761" version="1" timestamp="2010-10-19T13:00:32Z" uid="7617" user="Franc" changeset="6098994" lat="-33.9416843" lon="151.258227">
    <tag k="addr:housenumber" v="3"/>
    <tag k="addr:street" v="Sackville Street"/>
    <tag k="source" v="extrapolation"/>
  </node>
  <node id="957048764" version="1" timestamp="2010-10-19T13:00:32Z" uid="7617" user="Franc" changeset="6098994" lat="-33.897364" lon="151.1593024">
    <tag k="addr:housenumber" v="20"/>
    <tag k="addr:street" v="Denning Street"/>
    <tag k="source" v="extrapolation"/>
  </node>
  <node id="957048774" version="1" timestamp="2010-10-19T13:00:33Z" uid="7617" user="Franc" changeset="6098994" lat="-33.906831" lon="151.2158023">
    <tag k="addr:housenumber" v="22"/>
    <tag k="addr:street" v="Milroy Avenue"/>
    <tag k="source" v="extrapolation"/>
  </node>
  <node id="957048775" version="1" timestamp="2010-10-19T13:00:33Z" uid="7617" user="Franc" changeset="6098994" lat="-33.8979087" lon="151.1597205">
    <tag k="addr:housenumber" v="1a"/>
    <tag k="addr:street" v="Marshall Street"/>
    <tag k="source" v="survey"/>
  </node>
  <node id="957048776" version="1" timestamp="2010-10-19T13:00:33Z" uid="7617" user="Franc" changeset="6098994" lat="-33.911217" lon="151.21962">
    <tag k="name" v="1"/>
    <tag k="note" v="1"/>
  </node>
  <node id="957048776" version="2" timestamp="2010-10-20T09:57:58Z" uid="7617" user="Franc" changeset="6110089" lat="-33.9111987" lon="151.2196261">
    <tag k="addr:housenumber" v="1"/>
    <tag k="addr:street" v="Balfour Road"/>
    <tag k="source" v="survey"/>
  </node>
  <node id="957048778" version="1" timestamp="2010-10-19T13:00:33Z" uid="7617" user="Franc" changeset="6098994" lat="-33.908688" lon="151.214294">
    <tag k="name" v="substn"/>
    <tag k="note" v="substn"/>
  </node>
  <node id="957048778" version="2" timestamp="2010-10-20T09:57:44Z" uid="7617" user="Franc" changeset="6110089" lat="-33.9086785" lon="151.2142997">
    <tag k="power" v="sub_station"/>
  </node>
  <node id="957048792" version="1" timestamp="2010-10-19T13:00:33Z" uid="7617" user="Franc" changeset="6098994" lat="-33.8975869" lon="151.1598421">
    <tag k="addr:housenumber" v="3"/>
    <tag k="addr:street" v="Marshall Street"/>
    <tag k="source" v="survey"/>
  </node>
  <node id="957048793" version="1" timestamp="2010-10-19T13:00:33Z" uid="7617" user="Franc" changeset="6098994" lat="-33.915563" lon="151.1749324">
    <tag k="addr:housenumber" v="316"/>
    <tag k="addr:street" v="Princes HIghway"/>
  </node>
  <node id="957048796" version="1" timestamp="2010-10-19T13:00:33Z" uid="7617" user="Franc" changeset="6098994" lat="-33.909706" lon="151.213989">
    <tag k="name" v="1"/>
    <tag k="note" v="1"/>
  </node>
  <node id="957048796" version="2" timestamp="2010-10-20T09:57:53Z" uid="7617" user="Franc" changeset="6110089" lat="-33.9097022" lon="151.2140181">
    <tag k="addr:housenumber" v="1"/>
    <tag k="addr:street" v="Myrtle Street"/>
    <tag k="source" v="survey"/>
  </node>
  <node id="957048797" version="1" timestamp="2010-10-19T13:00:33Z" uid="7617" user="Franc" changeset="6098994" lat="-33.9415703" lon="151.258384">
    <tag k="addr:housenumber" v="6"/>
    <tag k="addr:street" v="Sackville Street"/>
    <tag k="source" v="survey"/>
  </node>
  <node id="957048807" version="1" timestamp="2010-10-19T13:00:34Z" uid="7617" user="Franc" changeset="6098994" lat="-33.8980876" lon="151.159466">
    <tag k="addr:housenumber" v="4"/>
    <tag k="addr:street" v="Marshall Street"/>
    <tag k="source" v="extrapolation"/>
  </node>
  <node id="957048812" version="1" timestamp="2010-10-19T13:00:34Z" uid="7617" user="Franc" changeset="6098994" lat="-33.9079038" lon="151.2136819">
    <tag k="addr:housenumber" v="55"/>
    <tag k="addr:street" v="Samuel Terry Avenue"/>
    <tag k="source" v="extrapolation"/>
  </node>
  <node id="957048815" version="1" timestamp="2010-10-19T13:00:34Z" uid="7617" user="Franc" changeset="6098994" lat="-33.8979468" lon="151.1590746">
    <tag k="addr:housenumber" v="4"/>
    <tag k="addr:street" v="Denning Street"/>
    <tag k="source" v="survey"/>
  </node>
  <node id="957048817" version="1" timestamp="2010-10-19T13:00:34Z" uid="7617" user="Franc" changeset="6098994" lat="-33.9064589" lon="151.215389">
    <tag k="addr:housenumber" v="11"/>
    <tag k="addr:street" v="Milroy Avenue"/>
    <tag k="source" v="extrapolation"/>
  </node>
  <node id="957048826" version="1" timestamp="2010-10-19T13:00:34Z" uid="7617" user="Franc" changeset="6098994" lat="-33.9056313" lon="151.1679824">
    <tag k="addr:housenumber" v="92"/>
    <tag k="addr:street" v="Victoria Road"/>
  </node>
  <node id="957048826" version="2" timestamp="2011-01-04T11:46:43Z" uid="7617" user="Franc" changeset="6859657" lat="-33.9056313" lon="151.1679824">
    <tag k="addr:housenumber" v="92"/>
    <tag k="addr:street" v="Victoria Road"/>
    <tag k="source" v="survey"/>
  </node>
  <node id="957048829" version="1" timestamp="2010-10-19T13:00:34Z" uid="7617" user="Franc" changeset="6098994" lat="-33.910381" lon="151.219528">
    <tag k="name" v="8"/>
    <tag k="note" v="8"/>
  </node>
  <node id="957048829" version="2" timestamp="2010-10-20T09:58:09Z" uid="7617" user="Franc" changeset="6110089" lat="-33.910381" lon="151.219528">
    <tag k="name" v="8"/>
    <tag k="note" v="8"/>
  </node>
  <node id="957048830" version="1" timestamp="2010-10-19T13:00:34Z" uid="7617" user="Franc" changeset="6098994" lat="-33.9092567" lon="151.2134127">
    <tag k="addr:housenumber" v="73"/>
    <tag k="addr:street" v="Samuel Terry Avenue"/>
    <tag k="source" v="extrapolation"/>
  </node>
  <node id="957048832" version="1" timestamp="2010-10-19T13:00:34Z" uid="7617" user="Franc" changeset="6098994" lat="-33.907871" lon="151.215775">
    <tag k="name" v="9"/>
    <tag k="note" v="9"/>
  </node>
  <node id="957048832" version="2" timestamp="2010-10-20T09:58:01Z" uid="7617" user="Franc" changeset="6110089" lat="-33.907871" lon="151.215775">
    <tag k="name" v="9"/>
    <tag k="note" v="9"/>
  </node>
  <node id="957048838" version="1" timestamp="2010-10-19T13:00:35Z" uid="7617" user="Franc" changeset="6098994" lat="-33.923012" lon="151.215744">
    <tag k="name" v="146"/>
    <tag k="note" v="146"/>
  </node>
  <node id="957048838" version="2" timestamp="2010-10-20T09:58:11Z" uid="7617" user="Franc" changeset="6110089" lat="-33.923012" lon="151.215744">
    <tag k="name" v="146"/>
    <tag k="note" v="146"/>
  </node>
  <node id="957048840" version="1" timestamp="2010-10-19T13:00:35Z" uid="7617" user="Franc" changeset="6098994" lat="-33.906467" lon="151.2156499">
    <tag k="addr:housenumber" v="16"/>
    <tag k="addr:street" v="Milroy Avenue"/>
    <tag k="source" v="extrapolation"/>
  </node>
  <node id="957048843" version="1" timestamp="2010-10-19T13:00:35Z" uid="7617" user="Franc" changeset="6098994" lat="-33.909439" lon="151.214432">
    <tag k="name" v="7"/>
    <tag k="note" v="7"/>
  </node>
  <node id="957048843" version="2" timestamp="2010-10-20T09:58:09Z" uid="7617" user="Franc" changeset="6110089" lat="-33.909439" lon="151.214432">
    <tag k="name" v="7"/>
    <tag k="note" v="7"/>
  </node>
  <node id="957048847" version="1" timestamp="2010-10-19T13:00:35Z" uid="7617" user="Franc" changeset="6098994" lat="-33.9067282" lon="151.2155285">
    <tag k="addr:housenumber" v="15"/>
    <tag k="addr:street" v="Milroy Avenue"/>
    <tag k="source" v="survey"/>
  </node>
  <node id="957048856" version="1" timestamp="2010-10-19T13:00:35Z" uid="7617" user="Franc" changeset="6098994" lat="-33.8979082" lon="151.1595292">
    <tag k="addr:housenumber" v="12"/>
    <tag k="addr:street" v="Marshall Street"/>
    <tag k="source" v="extrapolation"/>
  </node>
  <node id="957048857" version="1" timestamp="2010-10-19T13:00:35Z" uid="7617" user="Franc" changeset="6098994" lat="-33.9084425" lon="151.2135734">
    <tag k="addr:housenumber" v="63"/>
    <tag k="addr:street" v="Samuel Terry Avenue"/>
    <tag k="source" v="extrapolation"/>
  </node>
  <node id="957048859" version="1" timestamp="2010-10-19T13:00:35Z" uid="7617" user="Franc" changeset="6098994" lat="-33.8978039" lon="151.1591351">
    <tag k="addr:housenumber" v="8"/>
    <tag k="addr:street" v="Denning Street"/>
    <tag k="source" v="survey"/>
  </node>
  <node id="957048863" version="1" timestamp="2010-10-19T13:00:35Z" uid="7617" user="Franc" changeset="6098994" lat="-33.8973685" lon="151.1576763">
    <tag k="addr:housenumber" v="45"/>
    <tag k="addr:street" v="Albert Street"/>
  </node>
  <node id="957048872" version="1" timestamp="2010-10-19T13:00:36Z" uid="7617" user="Franc" changeset="6098994" lat="-33.9056974" lon="151.2141075">
    <tag k="addr:housenumber" v="27"/>
    <tag k="addr:street" v="Samuel Terry Avenue"/>
    <tag k="source" v="survey"/>
  </node>
  <node id="957048873" version="1" timestamp="2010-10-19T13:00:36Z" uid="7617" user="Franc" changeset="6098994" lat="-33.91869" lon="151.217453">
    <tag k="name" v="7a"/>
    <tag k="note" v="7a"/>
  </node>
  <node id="957048873" version="2" timestamp="2010-10-20T09:58:13Z" uid="7617" user="Franc" changeset="6110089" lat="-33.91869" lon="151.217453">
    <tag k="name" v="7a"/>
    <tag k="note" v="7a"/>
  </node>
  <node id="957048874" version="1" timestamp="2010-10-19T13:00:36Z" uid="7617" user="Franc" changeset="6098994" lat="-33.907547" lon="151.216309">
    <tag k="name" v="3"/>
    <tag k="note" v="3"/>
  </node>
  <node id="957048874" version="2" timestamp="2010-10-20T09:58:11Z" uid="7617" user="Franc" changeset="6110089" lat="-33.907547" lon="151.216309">
    <tag k="name" v="3"/>
    <tag k="note" v="3"/>
  </node>
  <node id="957048877" version="1" timestamp="2010-10-19T13:00:36Z" uid="7617" user="Franc" changeset="6098994" lat="-33.8973138" lon="151.1599425">
    <tag k="addr:housenumber" v="13"/>
    <tag k="addr:street" v="Marshall Street"/>
    <tag k="source" v="survey"/>
  </node>
  <node id="957048889" version="1" timestamp="2010-10-19T13:00:36Z" uid="7617" user="Franc" changeset="6098994" lat="-33.921791" lon="151.216385">
    <tag k="name" v="59"/>
    <tag k="note" v="59"/>
  </node>
  <node id="957048889" version="2" timestamp="2010-10-20T09:58:03Z" uid="7617" user="Franc" changeset="6110089" lat="-33.921791" lon="151.216385">
    <tag k="name" v="59"/>
    <tag k="note" v="59"/>
  </node>
  <node id="957048890" version="1" timestamp="2010-10-19T13:00:36Z" uid="7617" user="Franc" changeset="6098994" lat="-33.9178503" lon="151.1498993">
    <tag k="addr:housenumber" v="17"/>
    <tag k="addr:street" v="Cary Street"/>
  </node>
  <node id="957048891" version="1" timestamp="2010-10-19T13:00:36Z" uid="7617" user="Franc" changeset="6098994" lat="-33.8975805" lon="151.1592208">
    <tag k="addr:housenumber" v="14"/>
    <tag k="addr:street" v="Denning Street"/>
    <tag k="source" v="extrapolation"/>
  </node>
  <node id="957048892" version="1" timestamp="2010-10-19T13:00:36Z" uid="7617" user="Franc" changeset="6098994" lat="-33.9086845" lon="151.2135138">
    <tag k="addr:housenumber" v="67"/>
    <tag k="addr:street" v="Samuel Terry Avenue"/>
    <tag k="source" v="survey"/>
  </node>
  <node id="957048902" version="1" timestamp="2010-10-19T13:00:36Z" uid="7617" user="Franc" changeset="6098994" lat="-33.9057608" lon="151.2147998">
    <tag k="addr:housenumber" v="1"/>
    <tag k="addr:street" v="Milroy Avenue"/>
    <tag k="source" v="extrapolation"/>
  </node>
  <node id="957048905" version="1" timestamp="2010-10-19T13:00:37Z" uid="7617" user="Franc" changeset="6098994" lat="-33.9056531" lon="151.1707536"/>
  <node id="957048905" version="2" timestamp="2011-03-28T11:56:30Z" uid="7617" user="Franc" changeset="7695884" lat="-33.905643" lon="151.1707553"/>
  <node id="957048907" version="1" timestamp="2010-10-19T13:00:37Z" uid="7617" user="Franc" changeset="6098994" lat="-33.9070459" lon="151.2138483">
    <tag k="addr:housenumber" v="45"/>
    <tag k="addr:street" v="Samuel Terry Avenue"/>
    <tag k="source" v="extrapolation"/>
  </node>
  <node id="957048908" version="1" timestamp="2010-10-19T13:00:37Z" uid="7617" user="Franc" changeset="6098994" lat="-33.8971946" lon="151.1593648">
    <tag k="addr:housenumber" v="24"/>
    <tag k="addr:street" v="Denning Street"/>
    <tag k="source" v="survey"/>
  </node>
  <node id="957048910" version="1" timestamp="2010-10-19T13:00:37Z" uid="7617" user="Franc" changeset="6098994" lat="-33.9080687" lon="151.21625">
    <tag k="addr:housenumber" v="25"/>
    <tag k="addr:street" v="Milroy Avenue"/>
    <tag k="source" v="survey"/>
  </node>
  <node id="957048919" version="1" timestamp="2010-10-19T13:00:37Z" uid="7617" user="Franc" changeset="6098994" lat="-33.915073" lon="151.218658">
    <tag k="name" v="1"/>
    <tag k="note" v="1"/>
  </node>
  <node id="957048919" version="2" timestamp="2010-10-20T09:58:08Z" uid="7617" user="Franc" changeset="6110089" lat="-33.915073" lon="151.218658">
    <tag k="name" v="1"/>
    <tag k="note" v="1"/>
  </node>
  <node id="957048920" version="1" timestamp="2010-10-19T13:00:37Z" uid="7617" user="Franc" changeset="6098994" lat="-33.9061205" lon="151.2151109">
    <tag k="addr:housenumber" v="5"/>
    <tag k="addr:street" v="Milroy Avenue"/>
    <tag k="source" v="survey"/>
  </node>
  <node id="957048921" version="1" timestamp="2010-10-19T13:00:37Z" uid="7617" user="Franc" changeset="6098994" lat="-33.9056295" lon="151.1697065">
    <tag k="addr:housenumber" v="64"/>
    <tag k="addr:street" v="Victoria Road"/>
  </node>
  <node id="957048923" version="1" timestamp="2010-10-19T13:00:38Z" uid="7617" user="Franc" changeset="6098994" lat="-33.8980419" lon="151.1594813">
    <tag k="addr:housenumber" v="6"/>
    <tag k="addr:street" v="Marshall Street"/>
    <tag k="source" v="extrapolation"/>
  </node>
  <node id="957048931" version="1" timestamp="2010-10-19T13:00:38Z" uid="7617" user="Franc" changeset="6098994" lat="-33.91811" lon="151.217377">
    <tag k="name" v="81"/>
    <tag k="note" v="81"/>
  </node>
  <node id="957048931" version="2" timestamp="2010-10-20T09:58:07Z" uid="7617" user="Franc" changeset="6110089" lat="-33.91811" lon="151.217377">
    <tag k="name" v="81"/>
    <tag k="note" v="81"/>
  </node>
  <node id="957048935" version="1" timestamp="2010-10-19T13:00:38Z" uid="7617" user="Franc" changeset="6098994" lat="-33.907372" lon="151.216599">
    <tag k="name" v="1a"/>
    <tag k="note" v="1a"/>
  </node>
  <node id="957048935" version="2" timestamp="2010-10-20T09:58:12Z" uid="7617" user="Franc" changeset="6110089" lat="-33.907372" lon="151.216599">
    <tag k="name" v="1a"/>
    <tag k="note" v="1a"/>
  </node>
  <node id="957048936" version="1" timestamp="2010-10-19T13:00:38Z" uid="7617" user="Franc" changeset="6098994" lat="-33.8973699" lon="151.1599225">
    <tag k="addr:housenumber" v="11"/>
    <tag k="addr:street" v="Marshall Street"/>
    <tag k="source" v="survey"/>
  </node>
  <node id="957048937" version="1" timestamp="2010-10-19T13:00:38Z" uid="7617" user="Franc" changeset="6098994" lat="-33.92136" lon="151.216324">
    <tag k="name" v="128"/>
    <tag k="note" v="128"/>
  </node>
  <node id="957048937" version="2" timestamp="2010-10-20T09:58:03Z" uid="7617" user="Franc" changeset="6110089" lat="-33.92136" lon="151.216324">
    <tag k="name" v="128"/>
    <tag k="note" v="128"/>
  </node>
  <node id="957048945" version="1" timestamp="2010-10-19T13:00:38Z" uid="7617" user="Franc" changeset="6098994" lat="-33.8977246" lon="151.1597893">
    <tag k="addr:housenumber" v="1d"/>
    <tag k="addr:street" v="Marshall Street"/>
    <tag k="source" v="survey"/>
  </node>
  <node id="957048948" version="1" timestamp="2010-10-19T13:00:38Z" uid="7617" user="Franc" changeset="6098994" lat="-33.9414615" lon="151.258194">
    <tag k="addr:housenumber" v="2"/>
    <tag k="addr:street" v="Sackville Street"/>
    <tag k="source" v="extrapolation"/>
  </node>
  <node id="957048950" version="1" timestamp="2010-10-19T13:00:38Z" uid="7617" user="Franc" changeset="6098994" lat="-33.9061505" lon="151.2153848">
    <tag k="addr:housenumber" v="10"/>
    <tag k="addr:street" v="Milroy Avenue"/>
    <tag k="source" v="extrapolation"/>
  </node>
  <node id="957048951" version="1" timestamp="2010-10-19T13:00:39Z" uid="7617" user="Franc" changeset="6098994" lat="-33.914665" lon="151.218811">
    <tag k="name" v="1c"/>
    <tag k="note" v="1c"/>
  </node>
  <node id="957048951" version="2" timestamp="2010-10-20T09:58:02Z" uid="7617" user="Franc" changeset="6110089" lat="-33.914665" lon="151.218811">
    <tag k="name" v="1c"/>
    <tag k="note" v="1c"/>
  </node>
  <node id="957048954" version="1" timestamp="2010-10-19T13:00:39Z" uid="7617" user="Franc" changeset="6098994" lat="-33.9201353" lon="151.1535932">
    <tag k="addr:housenumber" v="88"/>
    <tag k="addr:street" v="Premier Street"/>
  </node>
  <node id="957048957" version="1" timestamp="2010-10-19T13:00:39Z" uid="7617" user="Franc" changeset="6098994" lat="-33.9060308" lon="151.2152923">
    <tag k="addr:housenumber" v="8"/>
    <tag k="addr:street" v="Milroy Avenue"/>
    <tag k="source" v="survey"/>
  </node>
  <node id="957048960" version="1" timestamp="2010-10-19T13:00:39Z" uid="7617" user="Franc" changeset="6098994" lat="-33.8972669" lon="151.159335">
    <tag k="addr:housenumber" v="22"/>
    <tag k="addr:street" v="Denning Street"/>
    <tag k="source" v="survey"/>
  </node>
  <node id="957048962" version="1" timestamp="2010-10-19T13:00:39Z" uid="7617" user="Franc" changeset="6098994" lat="-33.9066507" lon="151.2139295">
    <tag k="addr:housenumber" v="39"/>
    <tag k="addr:street" v="Samuel Terry Avenue"/>
    <tag k="source" v="extrapolation"/>
  </node>
  <node id="957048966" version="1" timestamp="2010-10-19T13:00:39Z" uid="7617" user="Franc" changeset="6098994" lat="-33.910009" lon="151.2132722">
    <tag k="addr:housenumber" v="81"/>
    <tag k="addr:street" v="Samuel Terry Avenue"/>
    <tag k="source" v="survey"/>
  </node>
  <node id="957048968" version="1" timestamp="2010-10-19T13:00:39Z" uid="7617" user="Franc" changeset="6098994" lat="-33.8978682" lon="151.1595462">
    <tag k="addr:housenumber" v="14"/>
    <tag k="addr:street" v="Marshall Street"/>
    <tag k="source" v="extrapolation"/>
  </node>
  <node id="957048970" version="1" timestamp="2010-10-19T13:00:39Z" uid="7617" user="Franc" changeset="6098994" lat="-33.9080498" lon="151.213648">
    <tag k="addr:housenumber" v="57"/>
    <tag k="addr:street" v="Samuel Terry Avenue"/>
    <tag k="source" v="extrapolation"/>
  </node>
  <node id="957048973" version="1" timestamp="2010-10-19T13:00:39Z" uid="7617" user="Franc" changeset="6098994" lat="-33.9069644" lon="151.2158675">
    <tag k="addr:housenumber" v="24"/>
    <tag k="addr:street" v="Milroy Avenue"/>
    <tag k="source" v="survey"/>
  </node>
  <node id="957048979" version="1" timestamp="2010-10-19T13:00:40Z" uid="7617" user="Franc" changeset="6098994" lat="-33.916462" lon="151.217972">
    <tag k="name" v="64"/>
    <tag k="note" v="64"/>
  </node>
  <node id="957048979" version="2" timestamp="2010-10-20T09:58:05Z" uid="7617" user="Franc" changeset="6110089" lat="-33.916462" lon="151.217972">
    <tag k="name" v="64"/>
    <tag k="note" v="64"/>
  </node>
  <node id="957048980" version="1" timestamp="2010-10-19T13:00:40Z" uid="7617" user="Franc" changeset="6098994" lat="-33.9055705" lon="151.2141322">
    <tag k="addr:housenumber" v="25"/>
    <tag k="addr:street" v="Samuel Terry Avenue"/>
    <tag k="source" v="survey"/>
  </node>
  <node id="957048981" version="1" timestamp="2010-10-19T13:00:40Z" uid="7617" user="Franc" changeset="6098994" lat="-33.8974645" lon="151.1598905">
    <tag k="addr:housenumber" v="7"/>
    <tag k="addr:street" v="Marshall Street"/>
  </node>
  <node id="957048985" version="1" timestamp="2010-10-19T13:00:40Z" uid="7617" user="Franc" changeset="6098994" lat="-33.9055974" lon="151.169714">
    <tag k="name" v="64"/>
    <tag k="note" v="64"/>
  </node>
  <node id="957048985" version="2" timestamp="2010-10-20T09:58:14Z" uid="7617" user="Franc" changeset="6110089" lat="-33.9055974" lon="151.169714">
    <tag k="name" v="64"/>
    <tag k="note" v="64"/>
  </node>
  <node id="957048993" version="1" timestamp="2010-10-19T13:00:40Z" uid="7617" user="Franc" changeset="6098994" lat="-33.9073202" lon="151.2137994">
    <tag k="addr:housenumber" v="49"/>
    <tag k="addr:street" v="Samuel Terry Avenue"/>
  </node>
  <node id="957048994" version="1" timestamp="2010-10-19T13:00:40Z" uid="7617" user="Franc" changeset="6098994" lat="-33.9094103" lon="151.2133787">
    <tag k="addr:housenumber" v="75"/>
    <tag k="addr:street" v="Samuel Terry Avenue"/>
    <tag k="source" v="extrapolation"/>
  </node>
  <node id="957048995" version="1" timestamp="2010-10-19T13:00:40Z" uid="7617" user="Franc" changeset="6098994" lat="-33.910267" lon="151.219559">
    <tag k="name" v="10"/>
    <tag k="note" v="10"/>
  </node>
  <node id="957048995" version="2" timestamp="2010-10-20T09:58:11Z" uid="7617" user="Franc" changeset="6110089" lat="-33.910267" lon="151.219559">
    <tag k="name" v="10"/>
    <tag k="note" v="10"/>
  </node>
  <node id="957048996" version="1" timestamp="2010-10-19T13:00:40Z" uid="7617" user="Franc" changeset="6098994" lat="-33.9415163" lon="151.2582869">
    <tag k="addr:housenumber" v="4"/>
    <tag k="addr:street" v="Sackville Street"/>
    <tag k="source" v="extrapolation"/>
  </node>
  <node id="957049006" version="1" timestamp="2010-10-19T13:00:41Z" uid="7617" user="Franc" changeset="6098994" lat="-33.9062512" lon="151.2152113">
    <tag k="addr:housenumber" v="7"/>
    <tag k="addr:street" v="Milroy Avenue"/>
    <tag k="source" v="extrapolation"/>
  </node>
  <node id="957049007" version="1" timestamp="2010-10-19T13:00:41Z" uid="7617" user="Franc" changeset="6098994" lat="-33.8974945" lon="151.1592534">
    <tag k="addr:housenumber" v="16"/>
    <tag k="addr:street" v="Denning Street"/>
    <tag k="source" v="extrapolation"/>
  </node>
  <node id="957049009" version="1" timestamp="2010-10-19T13:00:41Z" uid="7617" user="Franc" changeset="6098994" lat="-33.9090077" lon="151.2134571">
    <tag k="addr:housenumber" v="69"/>
    <tag k="addr:street" v="Samuel Terry Avenue"/>
    <tag k="source" v="survey"/>
  </node>
  <node id="957049010" version="1" timestamp="2010-10-19T13:00:41Z" uid="7617" user="Franc" changeset="6098994" lat="-33.9065718" lon="151.2156934">
    <tag k="addr:housenumber" v="18"/>
    <tag k="addr:street" v="Milroy Avenue"/>
    <tag k="source" v="extrapolation"/>
  </node>
  <node id="957049019" version="1" timestamp="2010-10-19T13:00:41Z" uid="7617" user="Franc" changeset="6098994" lat="-33.8977788" lon="151.1597678">
    <tag k="addr:housenumber" v="1c"/>
    <tag k="addr:street" v="Marshall Street"/>
    <tag k="source" v="survey"/>
  </node>
  <node id="957049020" version="1" timestamp="2010-10-19T13:00:41Z" uid="7617" user="Franc" changeset="6098994" lat="-33.912788" lon="151.218811">
    <tag k="name" v="20"/>
    <tag k="note" v="20"/>
  </node>
  <node id="957049020" version="2" timestamp="2010-10-20T09:58:10Z" uid="7617" user="Franc" changeset="6110089" lat="-33.912788" lon="151.218811">
    <tag k="name" v="20"/>
    <tag k="note" v="20"/>
  </node>
  <node id="957049021" version="1" timestamp="2010-10-19T13:00:41Z" uid="7617" user="Franc" changeset="6098994" lat="-33.9071652" lon="151.2138258">
    <tag k="addr:housenumber" v="47"/>
    <tag k="addr:street" v="Samuel Terry Avenue"/>
    <tag k="source" v="extrapolation"/>
  </node>
  <node id="957049025" version="1" timestamp="2010-10-19T13:00:42Z" uid="7617" user="Franc" changeset="6098994" lat="-33.909988" lon="151.213882">
    <tag k="name" v="4"/>
    <tag k="note" v="4"/>
  </node>
  <node id="957049025" version="2" timestamp="2010-10-20T09:58:01Z" uid="7617" user="Franc" changeset="6110089" lat="-33.909988" lon="151.213882">
    <tag k="name" v="4"/>
    <tag k="note" v="4"/>
  </node>
  <node id="957049036" version="1" timestamp="2010-10-19T13:00:42Z" uid="7617" user="Franc" changeset="6098994" lat="-33.9063627" lon="151.2139839">
    <tag k="addr:housenumber" v="35"/>
    <tag k="addr:street" v="Samuel Terry Avenue"/>
    <tag k="source" v="survey"/>
  </node>
  <node id="957049037" version="1" timestamp="2010-10-19T13:00:42Z" uid="7617" user="Franc" changeset="6098994" lat="-33.915188" lon="151.218399">
    <tag k="name" v="48"/>
    <tag k="note" v="48"/>
  </node>
  <node id="957049037" version="2" timestamp="2010-10-20T09:58:07Z" uid="7617" user="Franc" changeset="6110089" lat="-33.915188" lon="151.218399">
    <tag k="name" v="48"/>
    <tag k="note" v="48"/>
  </node>
  <node id="957049039" version="1" timestamp="2010-10-19T13:00:42Z" uid="7617" user="Franc" changeset="6098994" lat="-33.8976661" lon="151.1598122">
    <tag k="addr:housenumber" v="1"/>
    <tag k="addr:street" v="Marshall Street"/>
    <tag k="source" v="survey"/>
  </node>
  <node id="957049042" version="1" timestamp="2010-10-19T13:00:42Z" uid="7617" user="Franc" changeset="6098994" lat="-33.9058766" lon="151.2148886">
    <tag k="addr:housenumber" v="3"/>
    <tag k="addr:street" v="Milroy Avenue"/>
    <tag k="source" v="extrapolation"/>
  </node>
  <node id="957049056" version="1" timestamp="2010-10-19T13:00:42Z" uid="7617" user="Franc" changeset="6098994" lat="-33.9074435" lon="151.2137732">
    <tag k="addr:housenumber" v="51"/>
    <tag k="addr:street" v="Samuel Terry Avenue"/>
    <tag k="source" v="extrapolation"/>
  </node>
  <node id="957049057" version="1" timestamp="2010-10-19T13:00:42Z" uid="7617" user="Franc" changeset="6098994" lat="-33.9060517" lon="151.2140388">
    <tag k="addr:housenumber" v="33"/>
    <tag k="addr:street" v="Samuel Terry Avenue"/>
    <tag k="source" v="survey"/>
  </node>
  <node id="957049058" version="1" timestamp="2010-10-19T13:00:42Z" uid="7617" user="Franc" changeset="6098994" lat="-33.909447" lon="151.220078">
    <tag k="name" v="70"/>
    <tag k="note" v="70"/>
  </node>
  <node id="957049058" version="2" timestamp="2010-10-20T09:57:52Z" uid="7617" user="Franc" changeset="6110089" lat="-33.9094675" lon="151.220078">
    <tag k="addr:housenumber" v="70"/>
    <tag k="addr:street" v="Todman Avenue"/>
    <tag k="source" v="survey"/>
  </node>
  <node id="957049062" version="1" timestamp="2010-10-19T13:00:43Z" uid="7617" user="Franc" changeset="6098994" lat="-33.9416046" lon="151.2580896">
    <tag k="addr:housenumber" v="1"/>
    <tag k="addr:street" v="Sackville Street"/>
    <tag k="source" v="extrapolation"/>
  </node>
  <node id="957049077" version="1" timestamp="2010-10-19T13:00:43Z" uid="7617" user="Franc" changeset="6098994" lat="-33.9063656" lon="151.2153038">
    <tag k="addr:housenumber" v="9"/>
    <tag k="addr:street" v="Milroy Avenue"/>
    <tag k="source" v="extrapolation"/>
  </node>
  <node id="957049078" version="1" timestamp="2010-10-19T13:00:43Z" uid="7617" user="Franc" changeset="6098994" lat="-33.9045067" lon="151.2153364"/>
  <node id="957049079" version="1" timestamp="2010-10-19T13:00:43Z" uid="7617" user="Franc" changeset="6098994" lat="-33.911083" lon="151.21965">
    <tag k="name" v="3and5"/>
    <tag k="note" v="3and5"/>
  </node>
  <node id="957049079" version="2" timestamp="2010-10-20T09:58:09Z" uid="7617" user="Franc" changeset="6110089" lat="-33.911083" lon="151.21965">
    <tag k="name" v="3and5"/>
    <tag k="note" v="3and5"/>
  </node>
  <node id="957049081" version="1" timestamp="2010-10-19T13:00:43Z" uid="7617" user="Franc" changeset="6098994" lat="-33.908653" lon="151.214401">
    <tag k="name" v="29"/>
    <tag k="note" v="29"/>
  </node>
  <node id="957049081" version="2" timestamp="2010-10-20T09:57:56Z" uid="7617" user="Franc" changeset="6110089" lat="-33.9086814" lon="151.2144371">
    <tag k="addr:housenumber" v="29"/>
    <tag k="addr:street" v="Baker Street"/>
    <tag k="source" v="survey"/>
  </node>
  <node id="957049083" version="1" timestamp="2010-10-19T13:00:43Z" uid="7617" user="Franc" changeset="6098994" lat="-33.924198" lon="151.215637">
    <tag k="name" v="103"/>
    <tag k="note" v="103"/>
  </node>
  <node id="957049083" version="2" timestamp="2010-10-20T09:57:59Z" uid="7617" user="Franc" changeset="6110089" lat="-33.9241882" lon="151.2155981">
    <tag k="addr:housenumber" v="103"/>
    <tag k="addr:street" v="Tunstall Avenue"/>
    <tag k="source" v="survey"/>
  </node>
  <node id="957049096" version="1" timestamp="2010-10-19T13:00:43Z" uid="7617" user="Franc" changeset="6098994" lat="-33.9096786" lon="151.2133265">
    <tag k="addr:housenumber" v="79"/>
    <tag k="addr:street" v="Samuel Terry Avenue"/>
    <tag k="source" v="survey"/>
  </node>
  <node id="957049098" version="1" timestamp="2010-10-19T13:00:43Z" uid="7617" user="Franc" changeset="6098994" lat="-33.9062461" lon="151.2154774">
    <tag k="addr:housenumber" v="12"/>
    <tag k="addr:street" v="Milroy Avenue"/>
    <tag k="source" v="extrapolation"/>
  </node>
  <node id="957049099" version="1" timestamp="2010-10-19T13:00:43Z" uid="7617" user="Franc" changeset="6098994" lat="-33.909634" lon="151.214111">
    <tag k="name" v="3"/>
    <tag k="note" v="3"/>
  </node>
  <node id="957049099" version="2" timestamp="2010-10-20T09:58:06Z" uid="7617" user="Franc" changeset="6110089" lat="-33.909634" lon="151.214111">
    <tag k="name" v="3"/>
    <tag k="note" v="3"/>
  </node>
  <node id="957049102" version="1" timestamp="2010-10-19T13:00:44Z" uid="7617" user="Franc" changeset="6098994" lat="-33.8980575" lon="151.1590356">
    <tag k="addr:housenumber" v="2"/>
    <tag k="addr:street" v="Denning Street"/>
    <tag k="source" v="extrapolation"/>
  </node>
  <node id="957049117" version="1" timestamp="2010-10-19T13:00:44Z" uid="7617" user="Franc" changeset="6098994" lat="-33.905827" lon="151.2140873">
    <tag k="addr:housenumber" v="29"/>
    <tag k="addr:street" v="Samuel Terry Avenue"/>
    <tag k="source" v="extrapolation"/>
  </node>
  <node id="957049120" version="1" timestamp="2010-10-19T13:00:44Z" uid="7617" user="Franc" changeset="6098994" lat="-33.8979962" lon="151.1594993">
    <tag k="addr:housenumber" v="8"/>
    <tag k="addr:street" v="Marshall Street"/>
    <tag k="source" v="extrapolation"/>
  </node>
  <node id="957049122" version="1" timestamp="2010-10-19T13:00:44Z" uid="7617" user="Franc" changeset="6098994" lat="-33.9081618" lon="151.2136335">
    <tag k="addr:housenumber" v="59"/>
    <tag k="addr:street" v="Samuel Terry Avenue"/>
    <tag k="source" v="extrapolation"/>
  </node>
  <node id="957049125" version="1" timestamp="2010-10-19T13:00:44Z" uid="7617" user="Franc" changeset="6098994" lat="-33.897866" lon="151.1591095">
    <tag k="addr:housenumber" v="6"/>
    <tag k="addr:street" v="Denning Street"/>
    <tag k="source" v="survey"/>
  </node>
  <node id="957049136" version="1" timestamp="2010-10-19T13:00:45Z" uid="7617" user="Franc" changeset="6098994" lat="-33.9065747" lon="151.2154615">
    <tag k="addr:housenumber" v="13"/>
    <tag k="addr:street" v="Milroy Avenue"/>
    <tag k="source" v="extrapolation"/>
  </node>
  <node id="957049140" version="1" timestamp="2010-10-19T13:00:45Z" uid="7617" user="Franc" changeset="6098994" lat="-33.918812" lon="151.217422">
    <tag k="name" v="7"/>
    <tag k="note" v="7"/>
  </node>
  <node id="957049140" version="2" timestamp="2010-10-20T09:58:03Z" uid="7617" user="Franc" changeset="6110089" lat="-33.918812" lon="151.217422">
    <tag k="name" v="7"/>
    <tag k="note" v="7"/>
  </node>
  <node id="957049142" version="1" timestamp="2010-10-19T13:00:45Z" uid="7617" user="Franc" changeset="6098994" lat="-33.9095445" lon="151.2133526">
    <tag k="addr:housenumber" v="77"/>
    <tag k="addr:street" v="Samuel Terry Avenue"/>
    <tag k="source" v="extrapolation"/>
  </node>
  <node id="957049146" version="1" timestamp="2010-10-19T13:00:45Z" uid="7617" user="Franc" changeset="6098994" lat="-33.907795" lon="151.215927">
    <tag k="name" v="7a"/>
    <tag k="note" v="7a"/>
  </node>
  <node id="957049146" version="2" timestamp="2010-10-20T09:58:12Z" uid="7617" user="Franc" changeset="6110089" lat="-33.907795" lon="151.215927">
    <tag k="name" v="7a"/>
    <tag k="note" v="7a"/>
  </node>
  <node id="957049154" version="1" timestamp="2010-10-19T13:00:45Z" uid="7617" user="Franc" changeset="6098994" lat="-33.923008" lon="151.216034">
    <tag k="name" v="81"/>
    <tag k="note" v="81"/>
  </node>
  <node id="957049154" version="2" timestamp="2010-10-20T09:58:06Z" uid="7617" user="Franc" changeset="6110089" lat="-33.923008" lon="151.216034">
    <tag k="name" v="81"/>
    <tag k="note" v="81"/>
  </node>
  <node id="957049156" version="1" timestamp="2010-10-19T13:00:45Z" uid="7617" user="Franc" changeset="6098994" lat="-33.8977187" lon="151.1591637">
    <tag k="addr:housenumber" v="10"/>
    <tag k="addr:street" v="Denning Street"/>
    <tag k="source" v="extrapolation"/>
  </node>
  <node id="957049159" version="1" timestamp="2010-10-19T13:00:45Z" uid="7617" user="Franc" changeset="6098994" lat="-33.9067006" lon="151.215746">
    <tag k="addr:housenumber" v="20"/>
    <tag k="addr:street" v="Milroy Avenue"/>
    <tag k="source" v="extrapolation"/>
  </node>
  <node id="957049161" version="1" timestamp="2010-10-19T13:00:45Z" uid="7617" user="Franc" changeset="6098994" lat="-33.909325" lon="151.21434">
    <tag k="name" v="5"/>
    <tag k="note" v="5"/>
  </node>
  <node id="957049161" version="2" timestamp="2010-10-20T09:58:06Z" uid="7617" user="Franc" changeset="6110089" lat="-33.909325" lon="151.21434">
    <tag k="name" v="5"/>
    <tag k="note" v="5"/>
  </node>
  <node id="957049173" version="1" timestamp="2010-10-19T13:00:45Z" uid="7617" user="Franc" changeset="6098994" lat="-33.8978423" lon="151.1597454">
    <tag k="addr:housenumber" v="1b"/>
    <tag k="addr:street" v="Marshall Street"/>
    <tag k="source" v="survey"/>
  </node>
  <node id="957049176" version="1" timestamp="2010-10-19T13:00:46Z" uid="7617" user="Franc" changeset="6098994" lat="-33.9078565" lon="151.2163497">
    <tag k="addr:housenumber" v="30"/>
    <tag k="addr:street" v="Milroy Avenue"/>
    <tag k="source" v="extrapolation"/>
  </node>
  <node id="957049179" version="1" timestamp="2010-10-19T13:00:46Z" uid="7617" user="Franc" changeset="6098994" lat="-33.9067717" lon="151.2138934">
    <tag k="addr:housenumber" v="41"/>
    <tag k="addr:street" v="Samuel Terry Avenue"/>
    <tag k="source" v="extrapolation"/>
  </node>
  <node id="957049182" version="1" timestamp="2010-10-19T13:00:46Z" uid="7617" user="Franc" changeset="6098994" lat="-33.9071103" lon="151.2159038">
    <tag k="addr:housenumber" v="26"/>
    <tag k="addr:street" v="Milroy Avenue"/>
    <tag k="source" v="survey"/>
  </node>
  <node id="957049192" version="1" timestamp="2010-10-19T13:00:46Z" uid="7617" user="Franc" changeset="6098994" lat="-33.9202359" lon="151.1541638">
    <tag k="addr:housenumber" v="1016"/>
    <tag k="addr:street" v="Premier Street"/>
  </node>
  <node id="957049193" version="1" timestamp="2010-10-19T13:00:46Z" uid="7617" user="Franc" changeset="6098994" lat="-33.9079634" lon="151.2164386">
    <tag k="addr:housenumber" v="32"/>
    <tag k="addr:street" v="Milroy Avenue"/>
    <tag k="source" v="survey"/>
  </node>
  <node id="957049195" version="1" timestamp="2010-10-19T13:00:46Z" uid="7617" user="Franc" changeset="6098994" lat="-33.8972659" lon="151.159961">
    <tag k="addr:housenumber" v="15"/>
    <tag k="addr:street" v="Marshall Street"/>
    <tag k="source" v="survey"/>
  </node>
  <node id="957049199" version="1" timestamp="2010-10-19T13:00:46Z" uid="7617" user="Franc" changeset="6098994" lat="-33.8978281" lon="151.159559">
    <tag k="addr:housenumber" v="16"/>
    <tag k="addr:street" v="Marshall Street"/>
    <tag k="source" v="extrapolation"/>
  </node>
  <node id="957049212" version="1" timestamp="2010-10-19T13:00:47Z" uid="7617" user="Franc" changeset="6098994" lat="-33.8974078" lon="151.1576507">
    <tag k="addr:housenumber" v="45a"/>
    <tag k="addr:street" v="Albert Street"/>
  </node>
  <node id="957049214" version="1" timestamp="2010-10-19T13:00:47Z" uid="7617" user="Franc" changeset="6098994" lat="-33.8981512" lon="151.159448">
    <tag k="addr:housenumber" v="2"/>
    <tag k="addr:street" v="Marshall Street"/>
    <tag k="source" v="survey"/>
  </node>
  <node id="957049216" version="1" timestamp="2010-10-19T13:00:47Z" uid="7617" user="Franc" changeset="6098994" lat="-33.918705" lon="151.217224">
    <tag k="name" v="92"/>
    <tag k="note" v="92"/>
  </node>
  <node id="957049216" version="2" timestamp="2010-10-20T09:58:06Z" uid="7617" user="Franc" changeset="6110089" lat="-33.918705" lon="151.217224">
    <tag k="name" v="92"/>
    <tag k="note" v="92"/>
  </node>
  <node id="957049219" version="1" timestamp="2010-10-19T13:00:47Z" uid="7617" user="Franc" changeset="6098994" lat="-33.907448" lon="151.216476">
    <tag k="name" v="1"/>
    <tag k="note" v="1"/>
  </node>
  <node id="957049219" version="2" timestamp="2010-10-20T09:58:13Z" uid="7617" user="Franc" changeset="6110089" lat="-33.907448" lon="151.216476">
    <tag k="name" v="1"/>
    <tag k="note" v="1"/>
  </node>
  <node id="957049231" version="1" timestamp="2010-10-19T13:00:47Z" uid="7617" user="Franc" changeset="6098994" lat="-33.921505" lon="151.216522">
    <tag k="name" v="57"/>
    <tag k="note" v="57"/>
  </node>
  <node id="957049231" version="2" timestamp="2010-10-20T09:58:05Z" uid="7617" user="Franc" changeset="6110089" lat="-33.921505" lon="151.216522">
    <tag k="name" v="57"/>
    <tag k="note" v="57"/>
  </node>
  <node id="957049232" version="1" timestamp="2010-10-19T13:00:47Z" uid="7617" user="Franc" changeset="6098994" lat="-33.9085658" lon="151.2135434">
    <tag k="addr:housenumber" v="65"/>
    <tag k="addr:street" v="Samuel Terry Avenue"/>
    <tag k="source" v="survey"/>
  </node>
  <node id="957049234" version="1" timestamp="2010-10-19T13:00:47Z" uid="7617" user="Franc" changeset="6098994" lat="-33.8974348" lon="151.1592769">
    <tag k="addr:housenumber" v="18"/>
    <tag k="addr:street" v="Denning Street"/>
    <tag k="source" v="extrapolation"/>
  </node>
  <node id="957049237" version="1" timestamp="2010-10-19T13:00:47Z" uid="7617" user="Franc" changeset="6098994" lat="-33.9070516" lon="151.2156554">
    <tag k="addr:housenumber" v="17"/>
    <tag k="addr:street" v="Milroy Avenue"/>
    <tag k="source" v="survey"/>
  </node>
  <node id="957049251" version="1" timestamp="2010-10-19T13:00:47Z" uid="7617" user="Franc" changeset="6098994" lat="-33.907342" lon="151.2157642">
    <tag k="addr:housenumber" v="21"/>
    <tag k="addr:street" v="Milroy Avenue"/>
    <tag k="source" v="extrapolation"/>
  </node>
  <node id="957049252" version="1" timestamp="2010-10-19T13:00:48Z" uid="7617" user="Franc" changeset="6098994" lat="-33.910143" lon="151.2132328">
    <tag k="addr:housenumber" v="83"/>
    <tag k="addr:street" v="Samuel Terry Avenue"/>
    <tag k="source" v="survey"/>
  </node>
  <node id="957049253" version="1" timestamp="2010-10-19T13:00:48Z" uid="7617" user="Franc" changeset="6098994" lat="-33.914948" lon="151.218704">
    <tag k="name" v="1a"/>
    <tag k="note" v="1a"/>
  </node>
  <node id="957049253" version="2" timestamp="2010-10-20T09:58:11Z" uid="7617" user="Franc" changeset="6110089" lat="-33.914948" lon="151.218704">
    <tag k="name" v="1a"/>
    <tag k="note" v="1a"/>
  </node>
  <node id="957049254" version="1" timestamp="2010-10-19T13:00:48Z" uid="7617" user="Franc" changeset="6098994" lat="-33.9072442" lon="151.2159545">
    <tag k="addr:housenumber" v="28"/>
    <tag k="addr:street" v="Milroy Avenue"/>
    <tag k="source" v="survey"/>
  </node>
  <node id="957049268" version="1" timestamp="2010-10-19T13:00:48Z" uid="7617" user="Franc" changeset="6098994" lat="-33.9104184" lon="151.2189464">
    <tag k="addr:housenumber" v="68"/>
    <tag k="addr:street" v="Milroy Avenue"/>
    <tag k="source" v="extrapolation"/>
  </node>
  <node id="957049272" version="1" timestamp="2010-10-19T13:00:48Z" uid="7617" user="Franc" changeset="6098994" lat="-33.8966342" lon="151.1577311">
    <tag k="addr:housenumber" v="42"/>
    <tag k="addr:street" v="Albert Street"/>
  </node>
  <node id="957049273" version="1" timestamp="2010-10-19T13:00:48Z" uid="7617" user="Franc" changeset="6098994" lat="-33.9059452" lon="151.2140639">
    <tag k="addr:housenumber" v="31"/>
    <tag k="addr:street" v="Samuel Terry Avenue"/>
    <tag k="source" v="extrapolation"/>
  </node>
  <node id="957049274" version="1" timestamp="2010-10-19T13:00:48Z" uid="7617" user="Franc" changeset="6098994" lat="-33.9072186" lon="151.2157153">
    <tag k="addr:housenumber" v="19"/>
    <tag k="addr:street" v="Milroy Avenue"/>
    <tag k="source" v="survey"/>
  </node>
  <node id="957049288" version="1" timestamp="2010-10-19T13:00:48Z" uid="7617" user="Franc" changeset="6098994" lat="-33.8979476" lon="151.1595164">
    <tag k="addr:housenumber" v="10"/>
    <tag k="addr:street" v="Marshall Street"/>
    <tag k="source" v="extrapolation"/>
  </node>
  <node id="957049292" version="1" timestamp="2010-10-19T13:00:48Z" uid="7617" user="Franc" changeset="6098994" lat="-33.9077675" lon="151.2137081">
    <tag k="addr:housenumber" v="53"/>
    <tag k="addr:street" v="Samuel Terry Avenue"/>
    <tag k="source" v="extrapolation"/>
  </node>
  <node id="957049293" version="1" timestamp="2010-10-19T13:00:49Z" uid="7617" user="Franc" changeset="6098994" lat="-33.916435" lon="151.218216">
    <tag k="name" v="5a"/>
    <tag k="note" v="5a"/>
  </node>
  <node id="957049293" version="2" timestamp="2010-10-20T09:58:04Z" uid="7617" user="Franc" changeset="6110089" lat="-33.916435" lon="151.218216">
    <tag k="name" v="5a"/>
    <tag k="note" v="5a"/>
  </node>
  <node id="957049294" version="1" timestamp="2010-10-19T13:00:49Z" uid="7617" user="Franc" changeset="6098994" lat="-33.9417493" lon="151.2583274">
    <tag k="addr:housenumber" v="5"/>
    <tag k="addr:street" v="Sackville Street"/>
    <tag k="source" v="survey"/>
  </node>
  <node id="957049308" version="1" timestamp="2010-10-19T13:00:49Z" uid="7617" user="Franc" changeset="6098994" lat="-33.9041193" lon="151.2144181"/>
  <node id="957049308" version="2" timestamp="2010-12-19T10:50:30Z" uid="7617" user="Franc" changeset="6704320" lat="-33.9041045" lon="151.2144102"/>
  <node id="957049310" version="1" timestamp="2010-10-19T13:00:49Z" uid="7617" user="Franc" changeset="6098994" lat="-33.8974149" lon="151.1599062">
    <tag k="addr:housenumber" v="9"/>
    <tag k="addr:street" v="Marshall Street"/>
    <tag k="source" v="survey"/>
  </node>
  <node id="957049312" version="1" timestamp="2010-10-19T13:00:49Z" uid="7617" user="Franc" changeset="6098994" lat="-33.906512" lon="151.2139501">
    <tag k="addr:housenumber" v="37"/>
    <tag k="addr:street" v="Samuel Terry Avenue"/>
    <tag k="source" v="survey"/>
  </node>
  <node id="957049313" version="1" timestamp="2010-10-19T13:00:49Z" uid="7617" user="Franc" changeset="6098994" lat="-33.8977624" lon="151.1595778">
    <tag k="addr:housenumber" v="18"/>
    <tag k="addr:street" v="Marshall Street"/>
    <tag k="source" v="survey"/>
  </node>
  <node id="957049322" version="1" timestamp="2010-10-19T13:00:49Z" uid="7617" user="Franc" changeset="6098994" lat="-33.9079664" lon="151.2161648">
    <tag k="addr:housenumber" v="23"/>
    <tag k="addr:street" v="Milroy Avenue"/>
    <tag k="source" v="extrapolation"/>
  </node>
  <node id="957049323" version="1" timestamp="2010-10-19T13:00:49Z" uid="7617" user="Franc" changeset="6098994" lat="-33.9091241" lon="151.213431">
    <tag k="addr:housenumber" v="71"/>
    <tag k="addr:street" v="Samuel Terry Avenue"/>
    <tag k="source" v="extrapolation"/>
  </node>
  <node id="957049324" version="1" timestamp="2010-10-19T13:00:50Z" uid="7617" user="Franc" changeset="6098994" lat="-33.9054314" lon="151.2147307">
    <tag k="addr:housenumber" v="2"/>
    <tag k="addr:street" v="Milroy Avenue"/>
    <tag k="source" v="survey"/>
  </node>
  <node id="957049325" version="1" timestamp="2010-10-19T13:00:50Z" uid="7617" user="Franc" changeset="6098994" lat="-33.8976598" lon="151.1591891">
    <tag k="addr:housenumber" v="12"/>
    <tag k="addr:street" v="Denning Street"/>
    <tag k="source" v="extrapolation"/>
  </node>
  <node id="957049333" version="1" timestamp="2010-10-19T13:00:50Z" uid="7617" user="Franc" changeset="6098994" lat="-33.9063538" lon="151.21557">
    <tag k="addr:housenumber" v="14"/>
    <tag k="addr:street" v="Milroy Avenue"/>
    <tag k="source" v="extrapolation"/>
  </node>
  <node id="957049334" version="1" timestamp="2010-10-19T13:00:50Z" uid="7617" user="Franc" changeset="6098994" lat="-33.914814" lon="151.218781">
    <tag k="name" v="1b"/>
    <tag k="note" v="1b"/>
  </node>
  <node id="957049334" version="2" timestamp="2010-10-20T09:58:14Z" uid="7617" user="Franc" changeset="6110089" lat="-33.914814" lon="151.218781">
    <tag k="name" v="1b"/>
    <tag k="note" v="1b"/>
  </node>
  <node id="957049335" version="1" timestamp="2010-10-19T13:00:50Z" uid="7617" user="Franc" changeset="6098994" lat="-33.9069039" lon="151.2138728">
    <tag k="addr:housenumber" v="43"/>
    <tag k="addr:street" v="Samuel Terry Avenue"/>
    <tag k="source" v="extrapolation"/>
  </node>
  <node id="957049338" version="1" timestamp="2010-10-19T13:00:50Z" uid="7617" user="Franc" changeset="6098994" lat="-33.8971443" lon="151.1593791">
    <tag k="addr:housenumber" v="26"/>
    <tag k="addr:street" v="Denning Street"/>
    <tag k="source" v="survey"/>
  </node>
  <node id="957049348" version="1" timestamp="2010-10-19T13:00:50Z" uid="7617" user="Franc" changeset="6098994" lat="-33.9202038" lon="151.1541059">
    <tag k="addr:housenumber" v="101a"/>
    <tag k="addr:street" v="Premier Street"/>
  </node>
  <node id="957049350" version="1" timestamp="2010-10-19T13:00:50Z" uid="7617" user="Franc" changeset="6098994" lat="-33.9082997" lon="151.2136054">
    <tag k="addr:housenumber" v="61"/>
    <tag k="addr:street" v="Samuel Terry Avenue"/>
    <tag k="source" v="extrapolation"/>
  </node>
  <node id="957049353" version="1" timestamp="2010-10-19T13:00:50Z" uid="7617" user="Franc" changeset="6098994" lat="-33.915302" lon="151.218613">
    <tag k="name" v="5"/>
    <tag k="note" v="5"/>
  </node>
  <node id="957049353" version="2" timestamp="2010-10-20T09:58:01Z" uid="7617" user="Franc" changeset="6110089" lat="-33.915302" lon="151.218613">
    <tag k="name" v="5"/>
    <tag k="note" v="5"/>
  </node>
  <node id="957049355" version="1" timestamp="2010-10-19T13:00:50Z" uid="7617" user="Franc" changeset="6098994" lat="-33.9105958" lon="151.2189418">
    <tag k="addr:housenumber" v="71"/>
    <tag k="addr:street" v="Milroy Avenue"/>
    <tag k="source" v="survey"/>
  </node>
  <node id="957049364" version="1" timestamp="2010-10-19T13:00:51Z" uid="7617" user="Franc" changeset="6098994" lat="-33.897513" lon="151.1598684">
    <tag k="addr:housenumber" v="5"/>
    <tag k="addr:street" v="Marshall Street"/>
    <tag k="source" v="survey"/>
  </node>
  <node id="957049369" version="1" timestamp="2010-10-19T13:00:51Z" uid="7617" user="Franc" changeset="6098994" lat="-33.9056143" lon="151.1695988">
    <tag k="addr:housenumber" v="66"/>
    <tag k="addr:street" v="Victoria Road"/>
  </node>
</osm>
