<?xml version='1.0' encoding='UTF-8'?>
<osm version="0.6" generator="libosmium/2.20.0">
  <node id="959771074" version="1" timestamp="2010-10-21T20:36:52Z" uid="96874" user="Quedel" changeset="6131426" lat="51.7189009" lon="11.2181979"/>
  <node id="959771080" version="1" timestamp="2010-10-21T20:36:52Z" uid="96874" user="Quedel" changeset="6131426" lat="51.7928378" lon="11.1486316">
    <tag k="amenity" v="toilets"/>
    <tag k="fee" v="yes"/>
    <tag k="name" v="Fischteiche"/>
    <tag k="wheelchair" v="limited"/>
  </node>
  <node id="959771108" version="1" timestamp="2010-10-21T20:36:53Z" uid="96874" user="Quedel" changeset="6131426" lat="51.7887363" lon="11.1414205">
    <tag k="historic" v="monument"/>
    <tag k="name" v="Münzenberger Musikanten"/>
  </node>
  <node id="959771114" version="1" timestamp="2010-10-21T20:36:53Z" uid="96874" user="Quedel" changeset="6131426" lat="51.7883983" lon="11.1471989">
    <tag k="amenity" v="doctors"/>
    <tag k="name" v="div."/>
    <tag k="note" v="Ärztehaus mit Zahnarzt, Orthopäde, Allgemeinmediziner, Physiotherapie, etc."/>
  </node>
  <node id="959771120" version="1" timestamp="2010-10-21T20:36:53Z" uid="96874" user="Quedel" changeset="6131426" lat="51.7967538" lon="11.139194">
    <tag k="amenity" v="courthouse"/>
    <tag k="name" v="Amtsgericht Quedlinburg"/>
  </node>
  <node id="959771126" version="1" timestamp="2010-10-21T20:36:53Z" uid="96874" user="Quedel" changeset="6131426" lat="51.786241" lon="11.1365882">
    <tag k="name" v="Stadtmuseum Quedlinburg"/>
    <tag k="tourism" v="museum"/>
  </node>
  <node id="959771131" version="1" timestamp="2010-10-21T20:36:53Z" uid="96874" user="Quedel" changeset="6131426" lat="51.7931363" lon="11.1405743">
    <tag k="amenity" v="recycling"/>
    <tag k="recycling:glass" v="yes"/>
    <tag k="recycling:paper" v="yes"/>
  </node>
  <node id="959771156" version="1" timestamp="2010-10-21T20:36:54Z" uid="96874" user="Quedel" changeset="6131426" lat="51.718814" lon="11.2182451"/>
</osm>
