<?xml version='1.0' encoding='UTF-8'?>
<osm version="0.6" generator="libosmium/2.20.0">
  <node id="96201849" version="8" timestamp="2009-08-03T13:52:18Z" uid="4467" user="Rosscoe" changeset="2025703" lat="-33.7529932" lon="151.156449"/>
  <node id="96201853" version="10" timestamp="2010-01-19T05:45:17Z" uid="30201" user="rrankin" changeset="3656205" lat="-33.7538876" lon="151.1535651"/>
  <node id="96209423" version="25" timestamp="2009-07-23T00:20:25Z" uid="20587" user="balrog-kun" changeset="1910333" lat="44.4361331" lon="26.1027479">
    <tag k="capital" v="yes"/>
    <tag k="is_in" v="Romania"/>
    <tag k="is_in:continent" v="Europe"/>
    <tag k="name" v="București"/>
    <tag k="name:en" v="Bucharest"/>
    <tag k="name:es" v="Bucarest"/>
    <tag k="name:fi" v="Bukarest"/>
    <tag k="name:fr" v="Bucarest"/>
    <tag k="name:he" v="בוקרשט"/>
    <tag k="name:hu" v="Bukarest"/>
    <tag k="name:it" v="Bucarest"/>
    <tag k="name:pl" v="Bukareszt"/>
    <tag k="name:ru" v="Бухарест"/>
    <tag k="name:sv" v="Bukarest"/>
    <tag k="name:tr" v="Bukres"/>
    <tag k="place" v="city"/>
    <tag k="population" v="22350000"/>
    <tag k="wikipedia" v="Bucharest"/>
  </node>
  <node id="96209578" version="8" timestamp="2009-09-01T06:11:57Z" uid="61114" user="Trav" changeset="2333653" lat="-33.7391398" lon="151.1677297"/>
  <node id="96209578" version="9" timestamp="2010-02-18T08:12:43Z" uid="7617" user="Franc" changeset="3906977" lat="-33.7390896" lon="151.1677383"/>
</osm>
