<?xml version='1.0' encoding='UTF-8'?>
<osm version="0.6" generator="libosmium/2.20.0">
  <node id="973540716" version="1" timestamp="2010-11-01T08:52:31Z" uid="7617" user="Franc" changeset="6252462" lat="-33.8831467" lon="151.1651118"/>
  <node id="973540717" version="1" timestamp="2010-11-01T08:52:32Z" uid="7617" user="Franc" changeset="6252462" lat="-33.8807138" lon="151.1660976">
    <tag k="addr:housenumber" v="57-61"/>
    <tag k="addr:street" v="John street"/>
    <tag k="source" v="survey"/>
  </node>
  <node id="973540719" version="1" timestamp="2010-11-01T08:52:32Z" uid="7617" user="Franc" changeset="6252462" lat="-33.8822246" lon="151.1666989">
    <tag k="addr:housenumber" v="14"/>
    <tag k="addr:street" v="Alfred Street"/>
    <tag k="source" v="survey"/>
  </node>
  <node id="973540720" version="1" timestamp="2010-11-01T08:52:32Z" uid="7617" user="Franc" changeset="6252462" lat="-33.8822174" lon="151.1647386">
    <tag k="addr:housenumber" v="17"/>
    <tag k="addr:street" v="Emma Street"/>
    <tag k="source" v="extrapolation"/>
  </node>
  <node id="973540722" version="1" timestamp="2010-11-01T08:52:32Z" uid="7617" user="Franc" changeset="6252462" lat="-33.8828329" lon="151.1645512">
    <tag k="addr:housenumber" v="1"/>
    <tag k="addr:street" v="Emma Street"/>
    <tag k="source" v="survey"/>
  </node>
  <node id="973540723" version="1" timestamp="2010-11-01T08:52:32Z" uid="7617" user="Franc" changeset="6252462" lat="-33.8864121" lon="151.1641051"/>
  <node id="973540724" version="1" timestamp="2010-11-01T08:52:32Z" uid="7617" user="Franc" changeset="6252462" lat="-33.8813452" lon="151.1648078">
    <tag k="addr:housenumber" v="40"/>
    <tag k="addr:street" v="Emma Street"/>
    <tag k="source" v="survey"/>
  </node>
  <node id="973540725" version="1" timestamp="2010-11-01T08:52:32Z" uid="7617" user="Franc" changeset="6252462" lat="-33.8819141" lon="151.1648364">
    <tag k="addr:housenumber" v="25"/>
    <tag k="addr:street" v="Emma Street"/>
    <tag k="source" v="survey"/>
  </node>
  <node id="973540727" version="1" timestamp="2010-11-01T08:52:32Z" uid="7617" user="Franc" changeset="6252462" lat="-33.882399" lon="151.1646751">
    <tag k="addr:housenumber" v="11"/>
    <tag k="addr:street" v="Emma Street"/>
    <tag k="source" v="extrapolation"/>
  </node>
  <node id="973540728" version="1" timestamp="2010-11-01T08:52:32Z" uid="7617" user="Franc" changeset="6252462" lat="-33.88211" lon="151.1663755">
    <tag k="addr:housenumber" v="14a"/>
    <tag k="addr:street" v="Alfred Street"/>
    <tag k="source" v="knowledge"/>
  </node>
  <node id="973540730" version="1" timestamp="2010-11-01T08:52:32Z" uid="7617" user="Franc" changeset="6252462" lat="-33.8813757" lon="151.1650223">
    <tag k="addr:housenumber" v="43"/>
    <tag k="addr:street" v="Emma Street"/>
    <tag k="source" v="survey"/>
  </node>
  <node id="973540731" version="1" timestamp="2010-11-01T08:52:32Z" uid="7617" user="Franc" changeset="6252462" lat="-33.8828667" lon="151.1650467">
    <tag k="traffic_calming" v="table"/>
  </node>
  <node id="973540731" version="2" timestamp="2011-04-20T10:36:42Z" uid="7617" user="Franc" changeset="7914899" lat="-33.8828575" lon="151.1650467">
    <tag k="traffic_calming" v="table"/>
  </node>
  <node id="973540733" version="1" timestamp="2010-11-01T08:52:32Z" uid="7617" user="Franc" changeset="6252462" lat="-33.882406" lon="151.1666271">
    <tag k="addr:housenumber" v="4"/>
    <tag k="addr:street" v="Alfred Street"/>
    <tag k="source" v="survey"/>
  </node>
  <node id="973540734" version="1" timestamp="2010-11-01T08:52:33Z" uid="7617" user="Franc" changeset="6252462" lat="-33.8675895" lon="151.2033728"/>
  <node id="973540736" version="1" timestamp="2010-11-01T08:52:33Z" uid="7617" user="Franc" changeset="6252462" lat="-33.8816949" lon="151.1669434">
    <tag k="addr:housenumber" v="34"/>
    <tag k="addr:street" v="Alfred Street"/>
    <tag k="source" v="extrapolation"/>
  </node>
  <node id="973540737" version="1" timestamp="2010-11-01T08:52:33Z" uid="7617" user="Franc" changeset="6252462" lat="-33.8867262" lon="151.1634216"/>
  <node id="973540738" version="1" timestamp="2010-11-01T08:52:33Z" uid="7617" user="Franc" changeset="6252462" lat="-33.8682964" lon="151.203643">
    <tag k="addr:housenumber" v="120"/>
    <tag k="addr:street" v="Sussex Street"/>
    <tag k="source" v="survey"/>
  </node>
  <node id="973540740" version="1" timestamp="2010-11-01T08:52:33Z" uid="7617" user="Franc" changeset="6252462" lat="-33.8834658" lon="151.1653508"/>
  <node id="973540741" version="1" timestamp="2010-11-01T08:52:33Z" uid="7617" user="Franc" changeset="6252462" lat="-33.882167" lon="151.1667273">
    <tag k="addr:housenumber" v="16"/>
    <tag k="addr:street" v="Alfred Street"/>
    <tag k="source" v="survey"/>
  </node>
  <node id="973540742" version="1" timestamp="2010-11-01T08:52:33Z" uid="7617" user="Franc" changeset="6252462" lat="-33.8669491" lon="151.2030557"/>
  <node id="973540743" version="1" timestamp="2010-11-01T08:52:33Z" uid="7617" user="Franc" changeset="6252462" lat="-33.8672714" lon="151.2030178"/>
  <node id="973540745" version="1" timestamp="2010-11-01T08:52:33Z" uid="7617" user="Franc" changeset="6252462" lat="-33.8833288" lon="151.1644774"/>
  <node id="973540746" version="1" timestamp="2010-11-01T08:52:33Z" uid="7617" user="Franc" changeset="6252462" lat="-33.8824766" lon="151.1646509">
    <tag k="addr:housenumber" v="9"/>
    <tag k="addr:street" v="Emma Street"/>
    <tag k="source" v="extrapolation"/>
  </node>
  <node id="973540747" version="1" timestamp="2010-11-01T08:52:34Z" uid="7617" user="Franc" changeset="6252462" lat="-33.8822814" lon="151.1647132">
    <tag k="addr:housenumber" v="15"/>
    <tag k="addr:street" v="Emma Street"/>
    <tag k="source" v="extrapolation"/>
  </node>
  <node id="973540748" version="1" timestamp="2010-11-01T08:52:34Z" uid="7617" user="Franc" changeset="6252462" lat="-33.8680709" lon="151.203102"/>
  <node id="973540749" version="1" timestamp="2010-11-01T08:52:34Z" uid="7617" user="Franc" changeset="6252462" lat="-33.868214" lon="151.2034457">
    <tag k="addr:housenumber" v="101"/>
    <tag k="addr:street" v="Sussex Street"/>
    <tag k="source" v="survey"/>
  </node>
  <node id="973540750" version="1" timestamp="2010-11-01T08:52:34Z" uid="7617" user="Franc" changeset="6252462" lat="-33.8815191" lon="151.1647504">
    <tag k="addr:housenumber" v="34"/>
    <tag k="addr:street" v="Emma Street"/>
    <tag k="source" v="survey"/>
  </node>
  <node id="973540750" version="2" timestamp="2010-11-16T07:33:33Z" uid="7617" user="Franc" changeset="6383006" lat="-33.8815141" lon="151.1647492">
    <tag k="addr:housenumber" v="34"/>
    <tag k="addr:street" v="Emma Street"/>
    <tag k="source" v="survey"/>
  </node>
  <node id="973540752" version="1" timestamp="2010-11-01T08:52:34Z" uid="7617" user="Franc" changeset="6252462" lat="-33.8817787" lon="151.1646557">
    <tag k="addr:housenumber" v="30"/>
    <tag k="addr:street" v="Emma Street"/>
    <tag k="source" v="survey"/>
  </node>
  <node id="973540753" version="1" timestamp="2010-11-01T08:52:34Z" uid="7617" user="Franc" changeset="6252462" lat="-33.881742" lon="151.1669253">
    <tag k="addr:housenumber" v="32"/>
    <tag k="addr:street" v="Alfred Street"/>
    <tag k="source" v="extrapolation"/>
  </node>
  <node id="973540755" version="1" timestamp="2010-11-01T08:52:34Z" uid="7617" user="Franc" changeset="6252462" lat="-33.8824822" lon="151.1665824">
    <tag k="addr:housenumber" v="2a"/>
    <tag k="addr:street" v="Alfred Street"/>
    <tag k="source" v="survey"/>
  </node>
  <node id="973540756" version="1" timestamp="2010-11-01T08:52:34Z" uid="7617" user="Franc" changeset="6252462" lat="-33.8819917" lon="151.164811">
    <tag k="addr:housenumber" v="23"/>
    <tag k="addr:street" v="Emma Street"/>
    <tag k="source" v="extrapolation"/>
  </node>
  <node id="973540758" version="1" timestamp="2010-11-01T08:52:34Z" uid="7617" user="Franc" changeset="6252462" lat="-33.8870838" lon="151.1644192"/>
  <node id="973540759" version="1" timestamp="2010-11-01T08:52:34Z" uid="7617" user="Franc" changeset="6252462" lat="-33.8818375" lon="151.1648617">
    <tag k="addr:housenumber" v="27"/>
    <tag k="addr:street" v="Emma Street"/>
    <tag k="source" v="survey"/>
  </node>
  <node id="973540760" version="1" timestamp="2010-11-01T08:52:34Z" uid="7617" user="Franc" changeset="6252462" lat="-33.8832872" lon="151.1655003"/>
  <node id="973540761" version="1" timestamp="2010-11-01T08:52:34Z" uid="7617" user="Franc" changeset="6252462" lat="-33.8830132" lon="151.1643357">
    <tag k="addr:housenumber" v="38"/>
    <tag k="addr:street" v="Styles Street"/>
    <tag k="source" v="survey"/>
  </node>
  <node id="973540762" version="1" timestamp="2010-11-01T08:52:35Z" uid="7617" user="Franc" changeset="6252462" lat="-33.8823339" lon="151.1646967">
    <tag k="addr:housenumber" v="13"/>
    <tag k="addr:street" v="Emma Street"/>
    <tag k="source" v="extrapolation"/>
  </node>
  <node id="973540764" version="1" timestamp="2010-11-01T08:52:35Z" uid="7617" user="Franc" changeset="6252462" lat="-33.8813342" lon="151.1670844">
    <tag k="addr:housenumber" v="44"/>
    <tag k="addr:street" v="Alfred Street"/>
    <tag k="source" v="survey"/>
  </node>
  <node id="973540765" version="1" timestamp="2010-11-01T08:52:35Z" uid="7617" user="Franc" changeset="6252462" lat="-33.8812928" lon="151.1650501">
    <tag k="addr:housenumber" v="45"/>
    <tag k="addr:street" v="Emma Street"/>
    <tag k="source" v="survey"/>
  </node>
  <node id="973540766" version="1" timestamp="2010-11-01T08:52:35Z" uid="7617" user="Franc" changeset="6252462" lat="-33.8809244" lon="151.1660294">
    <tag k="addr:housenumber" v="51"/>
    <tag k="addr:street" v="John street"/>
    <tag k="source" v="survey"/>
  </node>
  <node id="973540767" version="1" timestamp="2010-11-01T08:52:35Z" uid="7617" user="Franc" changeset="6252462" lat="-33.8817898" lon="151.1669032">
    <tag k="addr:housenumber" v="30"/>
    <tag k="addr:street" v="Alfred Street"/>
    <tag k="source" v="survey"/>
  </node>
  <node id="973540769" version="1" timestamp="2010-11-01T08:52:35Z" uid="7617" user="Franc" changeset="6252462" lat="-33.8805833" lon="151.1674248">
    <tag k="addr:housenumber" v="76"/>
    <tag k="addr:street" v="Alfred Street"/>
    <tag k="source" v="survey"/>
  </node>
  <node id="973540770" version="1" timestamp="2010-11-01T08:52:35Z" uid="7617" user="Franc" changeset="6252462" lat="-33.8826991" lon="151.164571">
    <tag k="addr:housenumber" v="3"/>
    <tag k="addr:street" v="Emma Street"/>
    <tag k="source" v="extrapolation"/>
  </node>
  <node id="973540771" version="1" timestamp="2010-11-01T08:52:35Z" uid="7617" user="Franc" changeset="6252462" lat="-33.882549" lon="151.164623">
    <tag k="addr:housenumber" v="7"/>
    <tag k="addr:street" v="Emma Street"/>
    <tag k="source" v="extrapolation"/>
  </node>
  <node id="973540776" version="1" timestamp="2010-11-01T08:52:35Z" uid="7617" user="Franc" changeset="6252462" lat="-33.8805015" lon="151.1674656">
    <tag k="addr:housenumber" v="78"/>
    <tag k="addr:street" v="Alfred Street"/>
    <tag k="source" v="extrapolation"/>
  </node>
  <node id="973540777" version="1" timestamp="2010-11-01T08:52:36Z" uid="7617" user="Franc" changeset="6252462" lat="-33.8820935" lon="151.1647831">
    <tag k="addr:housenumber" v="21"/>
    <tag k="addr:street" v="Emma Street"/>
    <tag k="source" v="extrapolation"/>
  </node>
  <node id="973540778" version="1" timestamp="2010-11-01T08:52:36Z" uid="7617" user="Franc" changeset="6252462" lat="-33.8816582" lon="151.1669616">
    <tag k="addr:housenumber" v="36"/>
    <tag k="addr:street" v="Alfred Street"/>
    <tag k="source" v="survey"/>
  </node>
  <node id="973540779" version="1" timestamp="2010-11-01T08:52:36Z" uid="7617" user="Franc" changeset="6252462" lat="-33.8804471" lon="151.1659205">
    <tag k="addr:housenumber" v="56-72"/>
    <tag k="addr:street" v="John street"/>
    <tag k="source" v="survey"/>
  </node>
  <node id="973540781" version="1" timestamp="2010-11-01T08:52:36Z" uid="7617" user="Franc" changeset="6252462" lat="-33.8802963" lon="151.1662234">
    <tag k="addr:housenumber" v="71"/>
    <tag k="addr:street" v="John street"/>
    <tag k="source" v="survey"/>
  </node>
  <node id="973540782" version="1" timestamp="2010-11-01T08:52:36Z" uid="7617" user="Franc" changeset="6252462" lat="-33.8669327" lon="151.2032969"/>
  <node id="973540783" version="1" timestamp="2010-11-01T08:52:36Z" uid="7617" user="Franc" changeset="6252462" lat="-33.8815226" lon="151.1670263">
    <tag k="addr:housenumber" v="40"/>
    <tag k="addr:street" v="Alfred Street"/>
    <tag k="source" v="survey"/>
  </node>
  <node id="973540784" version="1" timestamp="2010-11-01T08:52:36Z" uid="7617" user="Franc" changeset="6252462" lat="-33.8808801" lon="151.1658078">
    <tag k="addr:housenumber" v="50"/>
    <tag k="addr:street" v="John street"/>
    <tag k="source" v="survey"/>
  </node>
  <node id="973540786" version="1" timestamp="2010-11-01T08:52:36Z" uid="7617" user="Franc" changeset="6252462" lat="-33.8821586" lon="151.1647615">
    <tag k="addr:housenumber" v="19"/>
    <tag k="addr:street" v="Emma Street"/>
    <tag k="source" v="extrapolation"/>
  </node>
  <node id="973540787" version="1" timestamp="2010-11-01T08:52:37Z" uid="7617" user="Franc" changeset="6252462" lat="-33.8815888" lon="151.1669939">
    <tag k="addr:housenumber" v="38"/>
    <tag k="addr:street" v="Alfred Street"/>
    <tag k="source" v="survey"/>
  </node>
  <node id="973540788" version="1" timestamp="2010-11-01T08:52:37Z" uid="7617" user="Franc" changeset="6252462" lat="-33.8813984" lon="151.1670577">
    <tag k="addr:housenumber" v="42"/>
    <tag k="addr:street" v="Alfred Street"/>
    <tag k="source" v="extrapolation"/>
  </node>
  <node id="973540790" version="1" timestamp="2010-11-01T08:52:37Z" uid="7617" user="Franc" changeset="6252462" lat="-33.8676005" lon="151.2030376"/>
  <node id="973540791" version="1" timestamp="2010-11-01T08:52:37Z" uid="7617" user="Franc" changeset="6252462" lat="-33.8826277" lon="151.1645951">
    <tag k="addr:housenumber" v="5"/>
    <tag k="addr:street" v="Emma Street"/>
    <tag k="source" v="extrapolation"/>
  </node>
  <node id="973540792" version="1" timestamp="2010-11-01T08:52:37Z" uid="7617" user="Franc" changeset="6252462" lat="-33.8824401" lon="151.1666058">
    <tag k="addr:housenumber" v="2"/>
    <tag k="addr:street" v="Alfred Street"/>
    <tag k="source" v="survey"/>
  </node>
  <node id="973540793" version="1" timestamp="2010-11-01T08:52:37Z" uid="7617" user="Franc" changeset="6252462" lat="-33.8811738" lon="151.1657183">
    <tag k="addr:housenumber" v="42-48"/>
    <tag k="addr:street" v="John street"/>
    <tag k="source" v="survey"/>
  </node>
  <node id="973540794" version="1" timestamp="2010-11-01T08:52:37Z" uid="7617" user="Franc" changeset="6252462" lat="-33.8827925" lon="151.1645583">
    <tag k="addr:housenumber" v="1a"/>
    <tag k="addr:street" v="Emma Street"/>
    <tag k="source" v="survey"/>
  </node>
  <node id="973542821" version="1" timestamp="2010-11-01T08:57:14Z" uid="7617" user="Franc" changeset="6252509" lat="-33.8812228" lon="151.1590808"/>
  <node id="973542822" version="1" timestamp="2010-11-01T08:57:14Z" uid="7617" user="Franc" changeset="6252509" lat="-33.880701" lon="151.1609224"/>
  <node id="973542824" version="1" timestamp="2010-11-01T08:57:14Z" uid="7617" user="Franc" changeset="6252509" lat="-33.8815404" lon="151.1590002"/>
  <node id="973542825" version="1" timestamp="2010-11-01T08:57:14Z" uid="7617" user="Franc" changeset="6252509" lat="-33.8811345" lon="151.1606372"/>
  <node id="973542826" version="1" timestamp="2010-11-01T08:57:14Z" uid="7617" user="Franc" changeset="6252509" lat="-33.8806686" lon="151.1607499"/>
  <node id="973542827" version="1" timestamp="2010-11-01T08:57:14Z" uid="7617" user="Franc" changeset="6252509" lat="-33.8811974" lon="151.1606174"/>
  <node id="973542828" version="1" timestamp="2010-11-01T08:57:14Z" uid="7617" user="Franc" changeset="6252509" lat="-33.8812941" lon="151.159988"/>
  <node id="973542830" version="1" timestamp="2010-11-01T08:57:14Z" uid="7617" user="Franc" changeset="6252509" lat="-33.8807917" lon="151.1608976"/>
  <node id="973542831" version="1" timestamp="2010-11-01T08:57:14Z" uid="7617" user="Franc" changeset="6252509" lat="-33.8819197" lon="151.1582107">
    <tag k="traffic_calming" v="hump"/>
  </node>
  <node id="973542832" version="1" timestamp="2010-11-01T08:57:14Z" uid="7617" user="Franc" changeset="6252509" lat="-33.881021" lon="151.1601595"/>
  <node id="973542834" version="1" timestamp="2010-11-01T08:57:14Z" uid="7617" user="Franc" changeset="6252509" lat="-33.8810839" lon="151.1601315"/>
  <node id="973542835" version="1" timestamp="2010-11-01T08:57:14Z" uid="7617" user="Franc" changeset="6252509" lat="-33.8815026" lon="151.1599774"/>
  <node id="973542836" version="1" timestamp="2010-11-01T08:57:14Z" uid="7617" user="Franc" changeset="6252509" lat="-33.8804944" lon="151.1610738">
    <tag k="leisure" v="playground"/>
    <tag k="source" v="nearmap"/>
  </node>
  <node id="973542837" version="1" timestamp="2010-11-01T08:57:14Z" uid="7617" user="Franc" changeset="6252509" lat="-33.8807593" lon="151.1607251"/>
</osm>
