<?xml version='1.0' encoding='UTF-8'?>
<osm version="0.6" generator="libosmium/2.20.0">
  <node id="976562259" version="3" timestamp="2010-12-14T13:59:02Z" uid="6269" user="Mueck" changeset="6657366" lat="53.530178" lon="8.5751812">
    <tag k="highway" v="bus_stop"/>
    <tag k="name" v="Fischereihafenschleuse"/>
    <tag k="public_transport" v="stop_position"/>
    <tag k="stop_ID" v="81501"/>
    <tag k="type" v="public_transport"/>
  </node>
  <node id="976569987" version="1" timestamp="2010-11-04T14:32:49Z" uid="20587" user="balrog-kun" changeset="6288991" lat="52.3463826" lon="20.9540821">
    <tag k="name" v="SELGROS Cash &amp; Carry"/>
    <tag k="shop" v="supermarket"/>
  </node>
  <node id="976569988" version="1" timestamp="2010-11-04T14:32:49Z" uid="20587" user="balrog-kun" changeset="6288991" lat="52.287577" lon="21.0039688">
    <tag k="amenity" v="school"/>
    <tag k="name" v="Technikum samochodowe"/>
  </node>
  <node id="976569989" version="1" timestamp="2010-11-04T14:32:49Z" uid="20587" user="balrog-kun" changeset="6288991" lat="52.3453398" lon="20.9518099">
    <tag k="addr:housenumber" v="310/312"/>
    <tag k="addr:postcode" v="03-152"/>
    <tag k="addr:street" v="Modlińska"/>
    <tag k="amenity" v="pub"/>
    <tag k="name" v="Pub Dyliżans"/>
    <tag k="opening_hours" v="12-24"/>
    <tag k="phone" v="+488190283"/>
    <tag k="url" v="http://www.fortpiontek.pl/"/>
  </node>
  <node id="976569991" version="1" timestamp="2010-11-04T14:32:49Z" uid="20587" user="balrog-kun" changeset="6288991" lat="52.3457956" lon="20.9526464">
    <tag k="addr:housenumber" v="310/312"/>
    <tag k="addr:postcode" v="03-152"/>
    <tag k="addr:street" v="Modlińska"/>
    <tag k="name" v="Centrum Fort Piontek"/>
    <tag k="phone" v="+488190171"/>
    <tag k="tourism" v="hotel"/>
    <tag k="url" v="http://www.fortpiontek.pl/"/>
  </node>
  <node id="976569991" version="2" timestamp="2010-11-04T15:01:01Z" uid="20587" user="balrog-kun" changeset="6289170" lat="52.3459489" lon="20.9528137">
    <tag k="addr:housenumber" v="310/312"/>
    <tag k="addr:postcode" v="03-152"/>
    <tag k="addr:street" v="Modlińska"/>
    <tag k="name" v="Centrum Fort Piontek"/>
    <tag k="phone" v="+488190171"/>
    <tag k="tourism" v="hotel"/>
    <tag k="url" v="http://www.fortpiontek.pl/"/>
  </node>
</osm>
