<?xml version='1.0' encoding='UTF-8'?>
<osm version="0.6" generator="libosmium/2.20.0">
  <node id="976548742" version="1" timestamp="2010-11-04T13:53:55Z" uid="20587" user="balrog-kun" changeset="6288680" lat="52.239847" lon="21.0946905">
    <tag k="amenity" v="estate_agent"/>
  </node>
  <node id="976548742" version="2" timestamp="2010-11-05T12:41:07Z" uid="20587" user="balrog-kun" changeset="6294932" lat="52.239847" lon="21.0946905">
    <tag k="amenity" v="estate_agent"/>
    <tag k="name" v="EGRIB"/>
  </node>
  <node id="976548751" version="1" timestamp="2010-11-04T13:53:56Z" uid="20587" user="balrog-kun" changeset="6288680" lat="52.2424808" lon="21.1031181">
    <tag k="name" v="Bielizna Jaga"/>
    <tag k="shop" v="clothes"/>
  </node>
  <node id="976548754" version="1" timestamp="2010-11-04T13:53:56Z" uid="20587" user="balrog-kun" changeset="6288680" lat="52.2398668" lon="21.0948976">
    <tag k="name" v="Zina"/>
    <tag k="shop" v="sports"/>
    <tag k="sport" v="soccer"/>
  </node>
</osm>
