<?xml version='1.0' encoding='UTF-8'?>
<osm version="0.6" generator="libosmium/2.20.0">
  <node id="977364661" version="1" timestamp="2010-11-05T09:35:30Z" uid="7617" user="Franc" changeset="6293977" lat="-33.8779812" lon="151.1695603">
    <tag k="addr:housenumber" v="307"/>
    <tag k="addr:street" v="Young Street"/>
    <tag k="source" v="survey"/>
  </node>
  <node id="977364661" version="2" timestamp="2011-04-15T10:26:36Z" uid="7617" user="Franc" changeset="7868334" lat="-33.8779778" lon="151.1695454">
    <tag k="addr:housenumber" v="307"/>
    <tag k="addr:street" v="Young Street"/>
    <tag k="source" v="survey"/>
  </node>
  <node id="977364674" version="1" timestamp="2010-11-05T09:35:37Z" uid="7617" user="Franc" changeset="6293977" lat="-33.9072102" lon="151.152074">
    <tag k="addr:housenumber" v="10"/>
    <tag k="addr:street" v="Hastings Street"/>
    <tag k="source" v="extrapolation"/>
  </node>
  <node id="977364678" version="1" timestamp="2010-11-05T09:35:37Z" uid="7617" user="Franc" changeset="6293977" lat="-33.8901695" lon="151.1678353">
    <tag k="addr:housenumber" v="52"/>
    <tag k="addr:street" v="Northumberland Avenue"/>
    <tag k="source" v="extrapolation"/>
  </node>
  <node id="977364681" version="1" timestamp="2010-11-05T09:35:37Z" uid="7617" user="Franc" changeset="6293977" lat="-33.9078772" lon="151.1501402">
    <tag k="addr:housenumber" v="343"/>
    <tag k="addr:street" v="Marrickville Road"/>
    <tag k="source" v="extrapolation"/>
  </node>
  <node id="977364681" version="2" timestamp="2011-04-26T02:09:17Z" uid="7617" user="Franc" changeset="7970426" lat="-33.9078655" lon="151.1501402">
    <tag k="addr:housenumber" v="343"/>
    <tag k="addr:street" v="Marrickville Road"/>
    <tag k="source" v="extrapolation"/>
  </node>
  <node id="977364683" version="1" timestamp="2010-11-05T09:35:37Z" uid="7617" user="Franc" changeset="6293977" lat="-33.8763251" lon="151.165823">
    <tag k="addr:housenumber" v="9"/>
    <tag k="addr:street" v="Percival Street"/>
    <tag k="source" v="survey"/>
  </node>
  <node id="977364687" version="1" timestamp="2010-11-05T09:35:37Z" uid="7617" user="Franc" changeset="6293977" lat="-33.8758918" lon="151.1659005">
    <tag k="addr:housenumber" v="21"/>
    <tag k="addr:street" v="Percival Street"/>
    <tag k="source" v="survey"/>
  </node>
  <node id="977364690" version="1" timestamp="2010-11-05T09:35:37Z" uid="7617" user="Franc" changeset="6293977" lat="-33.8782179" lon="151.1653295">
    <tag k="addr:housenumber" v="2"/>
    <tag k="addr:street" v="Paling Street"/>
    <tag k="source" v="survey"/>
  </node>
  <node id="977364691" version="1" timestamp="2010-11-05T09:35:37Z" uid="7617" user="Franc" changeset="6293977" lat="-33.8895816" lon="151.1677694">
    <tag k="addr:housenumber" v="36"/>
    <tag k="addr:street" v="Northumberland Avenue"/>
    <tag k="source" v="survey"/>
  </node>
  <node id="977364693" version="1" timestamp="2010-11-05T09:35:37Z" uid="7617" user="Franc" changeset="6293977" lat="-33.8780716" lon="151.1656154">
    <tag k="addr:housenumber" v="5"/>
    <tag k="addr:street" v="Paling Street"/>
    <tag k="source" v="survey"/>
  </node>
  <node id="977364696" version="1" timestamp="2010-11-05T09:35:38Z" uid="7617" user="Franc" changeset="6293977" lat="-33.9062526" lon="151.1531479">
    <tag k="addr:housenumber" v="152"/>
    <tag k="addr:street" v="Livingstone Road"/>
    <tag k="source" v="extrapolation"/>
  </node>
  <node id="977364697" version="1" timestamp="2010-11-05T09:35:38Z" uid="7617" user="Franc" changeset="6293977" lat="-33.8772154" lon="151.1656788">
    <tag k="addr:housenumber" v="32"/>
    <tag k="addr:street" v="Paling Street"/>
    <tag k="source" v="survey"/>
  </node>
  <node id="977364698" version="1" timestamp="2010-11-05T09:35:38Z" uid="7617" user="Franc" changeset="6293977" lat="-33.8764646" lon="151.1658025">
    <tag k="addr:housenumber" v="5"/>
    <tag k="addr:street" v="Percival Street"/>
    <tag k="source" v="survey"/>
  </node>
  <node id="977364699" version="1" timestamp="2010-11-05T09:35:38Z" uid="7617" user="Franc" changeset="6293977" lat="-33.8785321" lon="151.1627145">
    <tag k="addr:housenumber" v="1a"/>
    <tag k="addr:street" v="Answorth Avenue"/>
    <tag k="source" v="survey"/>
  </node>
  <node id="977364701" version="1" timestamp="2010-11-05T09:35:38Z" uid="7617" user="Franc" changeset="6293977" lat="-33.8780541" lon="151.1663087">
    <tag k="addr:housenumber" v="12"/>
    <tag k="addr:street" v="Edna Street"/>
    <tag k="source" v="extrapolation"/>
  </node>
  <node id="977364702" version="1" timestamp="2010-11-05T09:35:38Z" uid="7617" user="Franc" changeset="6293977" lat="-33.8900165" lon="151.1678181">
    <tag k="addr:housenumber" v="46"/>
    <tag k="addr:street" v="Northumberland Avenue"/>
    <tag k="source" v="extrapolation"/>
  </node>
  <node id="977364704" version="1" timestamp="2010-11-05T09:35:38Z" uid="7617" user="Franc" changeset="6293977" lat="-33.8763734" lon="151.1648614">
    <tag k="traffic_calming" v="table"/>
  </node>
  <node id="977364705" version="1" timestamp="2010-11-05T09:35:38Z" uid="7617" user="Franc" changeset="6293977" lat="-33.8760956" lon="151.1656958">
    <tag k="addr:housenumber" v="16"/>
    <tag k="addr:street" v="Percival Street"/>
    <tag k="source" v="extrapolation"/>
  </node>
  <node id="977364706" version="1" timestamp="2010-11-05T09:35:38Z" uid="7617" user="Franc" changeset="6293977" lat="-33.878086" lon="151.1653794">
    <tag k="addr:housenumber" v="8"/>
    <tag k="addr:street" v="Paling Street"/>
    <tag k="source" v="survey"/>
  </node>
  <node id="977364708" version="1" timestamp="2010-11-05T09:35:39Z" uid="7617" user="Franc" changeset="6293977" lat="-33.9072405" lon="151.1521835">
    <tag k="addr:housenumber" v="8"/>
    <tag k="addr:street" v="Hastings Street"/>
    <tag k="source" v="extrapolation"/>
  </node>
  <node id="977364710" version="1" timestamp="2010-11-05T09:35:40Z" uid="7617" user="Franc" changeset="6293977" lat="-33.8767595" lon="151.1691696">
    <tag k="addr:housenumber" v="7"/>
    <tag k="addr:street" v="Hudson Street"/>
    <tag k="source" v="extrapolation"/>
  </node>
  <node id="977364713" version="1" timestamp="2010-11-05T09:35:43Z" uid="7617" user="Franc" changeset="6293977" lat="-33.9081298" lon="151.150957">
    <tag k="addr:housenumber" v="335"/>
    <tag k="addr:street" v="Marrickville Road"/>
    <tag k="source" v="extrapolation"/>
  </node>
  <node id="977364719" version="1" timestamp="2010-11-05T09:35:43Z" uid="7617" user="Franc" changeset="6293977" lat="-33.9070471" lon="151.1514704">
    <tag k="addr:housenumber" v="18"/>
    <tag k="addr:street" v="Hastings Street"/>
    <tag k="source" v="survey"/>
  </node>
  <node id="977364721" version="1" timestamp="2010-11-05T09:35:43Z" uid="7617" user="Franc" changeset="6293977" lat="-33.8752171" lon="151.1648131">
    <tag k="addr:housenumber" v="394"/>
    <tag k="addr:street" v="Catherine Street"/>
    <tag k="source" v="survey"/>
  </node>
  <node id="977364722" version="1" timestamp="2010-11-05T09:35:43Z" uid="7617" user="Franc" changeset="6293977" lat="-33.8894675" lon="151.1677518">
    <tag k="addr:housenumber" v="32"/>
    <tag k="addr:street" v="Northumberland Avenue"/>
    <tag k="source" v="survey"/>
  </node>
  <node id="977364723" version="1" timestamp="2010-11-05T09:35:43Z" uid="7617" user="Franc" changeset="6293977" lat="-33.906786" lon="151.1510126">
    <tag k="addr:housenumber" v="20"/>
    <tag k="addr:street" v="Anderton Street"/>
    <tag k="source" v="survey"/>
  </node>
  <node id="977364730" version="1" timestamp="2010-11-05T09:35:43Z" uid="7617" user="Franc" changeset="6293977" lat="-33.9071106" lon="151.1517208">
    <tag k="addr:housenumber" v="14"/>
    <tag k="addr:street" v="Hastings Street"/>
    <tag k="source" v="extrapolation"/>
  </node>
  <node id="977364733" version="1" timestamp="2010-11-05T09:35:43Z" uid="7617" user="Franc" changeset="6293977" lat="-33.876694" lon="151.168965">
    <tag k="addr:housenumber" v="13"/>
    <tag k="addr:street" v="Hudson Street"/>
    <tag k="source" v="survey"/>
  </node>
  <node id="977364734" version="1" timestamp="2010-11-05T09:35:43Z" uid="7617" user="Franc" changeset="6293977" lat="-33.8895272" lon="151.1677629">
    <tag k="addr:housenumber" v="34"/>
    <tag k="addr:street" v="Northumberland Avenue"/>
    <tag k="source" v="extrapolation"/>
  </node>
  <node id="977364735" version="1" timestamp="2010-11-05T09:35:44Z" uid="7617" user="Franc" changeset="6293977" lat="-33.8781008" lon="151.1626431">
    <tag k="addr:housenumber" v="16"/>
    <tag k="addr:street" v="Answorth Avenue"/>
    <tag k="source" v="survey"/>
  </node>
  <node id="977364743" version="1" timestamp="2010-11-05T09:35:44Z" uid="7617" user="Franc" changeset="6293977" lat="-33.876418" lon="151.165643">
    <tag k="addr:housenumber" v="8"/>
    <tag k="addr:street" v="Percival Street"/>
    <tag k="source" v="survey"/>
  </node>
  <node id="977364746" version="1" timestamp="2010-11-05T09:35:44Z" uid="7617" user="Franc" changeset="6293977" lat="-33.8769033" lon="151.1657895">
    <tag k="addr:housenumber" v="42"/>
    <tag k="addr:street" v="Paling Street"/>
    <tag k="source" v="survey"/>
  </node>
  <node id="977364747" version="1" timestamp="2010-11-05T09:35:44Z" uid="7617" user="Franc" changeset="6293977" lat="-33.8784833" lon="151.1718479"/>
  <node id="977364748" version="1" timestamp="2010-11-05T09:35:44Z" uid="7617" user="Franc" changeset="6293977" lat="-33.8752705" lon="151.164811">
    <tag k="addr:housenumber" v="392"/>
    <tag k="addr:street" v="Catherine Street"/>
    <tag k="source" v="survey"/>
  </node>
  <node id="977364758" version="1" timestamp="2010-11-05T09:35:44Z" uid="7617" user="Franc" changeset="6293977" lat="-33.8776105" lon="151.1664529">
    <tag k="addr:housenumber" v="22"/>
    <tag k="addr:street" v="Edna Street"/>
    <tag k="source" v="extrapolation"/>
  </node>
  <node id="977364759" version="1" timestamp="2010-11-05T09:35:44Z" uid="7617" user="Franc" changeset="6293977" lat="-33.876846" lon="151.1660307">
    <tag k="addr:housenumber" v="35"/>
    <tag k="addr:street" v="Paling Street"/>
    <tag k="source" v="survey"/>
  </node>
  <node id="977364760" version="1" timestamp="2010-11-05T09:35:44Z" uid="7617" user="Franc" changeset="6293977" lat="-33.8902715" lon="151.1678468">
    <tag k="addr:housenumber" v="56"/>
    <tag k="addr:street" v="Northumberland Avenue"/>
    <tag k="source" v="extrapolation"/>
  </node>
  <node id="977364761" version="1" timestamp="2010-11-05T09:35:45Z" uid="7617" user="Franc" changeset="6293977" lat="-33.8763374" lon="151.1656562">
    <tag k="addr:housenumber" v="10"/>
    <tag k="addr:street" v="Percival Street"/>
    <tag k="source" v="extrapolation"/>
  </node>
  <node id="977364768" version="1" timestamp="2010-11-05T09:35:45Z" uid="7617" user="Franc" changeset="6293977" lat="-33.9068594" lon="151.151486">
    <tag k="addr:housenumber" v="11"/>
    <tag k="addr:street" v="Hastings Street"/>
    <tag k="source" v="extrapolation"/>
  </node>
  <node id="977364770" version="1" timestamp="2010-11-05T09:35:45Z" uid="7617" user="Franc" changeset="6293977" lat="-33.8767349" lon="151.1690882">
    <tag k="addr:housenumber" v="9"/>
    <tag k="addr:street" v="Hudson Street"/>
    <tag k="source" v="extrapolation"/>
  </node>
  <node id="977364771" version="1" timestamp="2010-11-05T09:35:45Z" uid="7617" user="Franc" changeset="6293977" lat="-33.878498" lon="151.167267">
    <tag k="addr:housenumber" v="31"/>
    <tag k="addr:street" v="White Street"/>
    <tag k="amenity" v="public_building"/>
    <tag k="name" v="White&apos;s Creek Cottage"/>
    <tag k="source" v="survey"/>
  </node>
  <node id="977364777" version="1" timestamp="2010-11-05T09:35:45Z" uid="7617" user="Franc" changeset="6293977" lat="-33.8770599" lon="151.165728">
    <tag k="addr:housenumber" v="34-38"/>
    <tag k="addr:street" v="Paling Street"/>
    <tag k="source" v="survey"/>
  </node>
  <node id="977364778" version="1" timestamp="2010-11-05T09:35:45Z" uid="7617" user="Franc" changeset="6293977" lat="-33.9069778" lon="151.1512303">
    <tag k="addr:housenumber" v="22"/>
    <tag k="addr:street" v="Hastings Street"/>
    <tag k="source" v="survey"/>
  </node>
  <node id="977364779" version="1" timestamp="2010-11-05T09:35:45Z" uid="7617" user="Franc" changeset="6293977" lat="-33.8782643" lon="151.1713568"/>
  <node id="977364780" version="1" timestamp="2010-11-05T09:35:45Z" uid="7617" user="Franc" changeset="6293977" lat="-33.8778668" lon="151.1663664">
    <tag k="addr:housenumber" v="16"/>
    <tag k="addr:street" v="Edna Street"/>
    <tag k="source" v="extrapolation"/>
  </node>
  <node id="977364781" version="1" timestamp="2010-11-05T09:35:46Z" uid="7617" user="Franc" changeset="6293977" lat="-33.8773428" lon="151.1667772">
    <tag k="addr:housenumber" v="33"/>
    <tag k="addr:street" v="Edna Street"/>
    <tag k="source" v="survey"/>
  </node>
  <node id="977364782" version="1" timestamp="2010-11-05T09:35:46Z" uid="7617" user="Franc" changeset="6293977" lat="-33.8761212" lon="151.1631017">
    <tag k="addr:housenumber" v="72"/>
    <tag k="addr:street" v="Piper Street"/>
    <tag k="source" v="extrapolation"/>
  </node>
  <node id="977364784" version="1" timestamp="2010-11-05T09:35:46Z" uid="7617" user="Franc" changeset="6293977" lat="-33.8760561" lon="151.1658738">
    <tag k="addr:housenumber" v="17"/>
    <tag k="addr:street" v="Percival Street"/>
    <tag k="source" v="extrapolation"/>
  </node>
  <node id="977364785" version="1" timestamp="2010-11-05T09:35:46Z" uid="7617" user="Franc" changeset="6293977" lat="-33.8779335" lon="151.169348">
    <tag k="addr:housenumber" v="340"/>
    <tag k="addr:street" v="Young Street"/>
    <tag k="source" v="survey"/>
  </node>
  <node id="977364787" version="1" timestamp="2010-11-05T09:35:46Z" uid="7617" user="Franc" changeset="6293977" lat="-33.8896176" lon="151.1679908">
    <tag k="addr:housenumber" v="31"/>
    <tag k="addr:street" v="Northumberland Avenue"/>
    <tag k="source" v="survey"/>
  </node>
  <node id="977364788" version="1" timestamp="2010-11-05T09:35:46Z" uid="7617" user="Franc" changeset="6293977" lat="-33.9073101" lon="151.1524315">
    <tag k="addr:housenumber" v="4"/>
    <tag k="addr:street" v="Hastings Street"/>
    <tag k="source" v="survey"/>
  </node>
  <node id="977364789" version="1" timestamp="2010-11-05T09:35:46Z" uid="7617" user="Franc" changeset="6293977" lat="-33.8783048" lon="151.1662195">
    <tag k="addr:housenumber" v="6"/>
    <tag k="addr:street" v="Edna Street"/>
    <tag k="source" v="extrapolation"/>
  </node>
  <node id="977364790" version="1" timestamp="2010-11-05T09:35:46Z" uid="7617" user="Franc" changeset="6293977" lat="-33.8768046" lon="151.1658237">
    <tag k="addr:housenumber" v="44"/>
    <tag k="addr:street" v="Paling Street"/>
    <tag k="source" v="survey"/>
  </node>
  <node id="977364791" version="1" timestamp="2010-11-05T09:35:47Z" uid="7617" user="Franc" changeset="6293977" lat="-33.8769385" lon="151.1699939"/>
  <node id="977364792" version="1" timestamp="2010-11-05T09:35:47Z" uid="7617" user="Franc" changeset="6293977" lat="-33.878032" lon="151.1626572">
    <tag k="addr:housenumber" v="18"/>
    <tag k="addr:street" v="Answorth Avenue"/>
    <tag k="source" v="survey"/>
  </node>
  <node id="977364794" version="1" timestamp="2010-11-05T09:35:47Z" uid="7617" user="Franc" changeset="6293977" lat="-33.9072752" lon="151.1523227">
    <tag k="addr:housenumber" v="6"/>
    <tag k="addr:street" v="Hastings Street"/>
    <tag k="source" v="extrapolation"/>
  </node>
  <node id="977364795" version="1" timestamp="2010-11-05T09:35:47Z" uid="7617" user="Franc" changeset="6293977" lat="-33.9097916" lon="151.1513372">
    <tag k="addr:housenumber" v="173"/>
    <tag k="addr:street" v="Livingstone Road"/>
    <tag k="source" v="survey"/>
  </node>
  <node id="977364796" version="1" timestamp="2010-11-05T09:35:47Z" uid="7617" user="Franc" changeset="6293977" lat="-33.8768239" lon="151.1693507">
    <tag k="addr:housenumber" v="3"/>
    <tag k="addr:street" v="Hudson Street"/>
    <tag k="source" v="extrapolation"/>
  </node>
  <node id="977364797" version="1" timestamp="2010-11-05T09:35:47Z" uid="7617" user="Franc" changeset="6293977" lat="-33.8903735" lon="151.1678582">
    <tag k="addr:housenumber" v="60"/>
    <tag k="addr:street" v="Northumberland Avenue"/>
    <tag k="source" v="extrapolation"/>
  </node>
  <node id="977364799" version="1" timestamp="2010-11-05T09:35:47Z" uid="7617" user="Franc" changeset="6293977" lat="-33.9079231" lon="151.1503002">
    <tag k="addr:housenumber" v="341"/>
    <tag k="addr:street" v="Marrickville Road"/>
    <tag k="source" v="extrapolation"/>
  </node>
  <node id="977364799" version="2" timestamp="2011-04-26T02:09:15Z" uid="7617" user="Franc" changeset="7970426" lat="-33.9079168" lon="151.1503031">
    <tag k="addr:housenumber" v="341"/>
    <tag k="addr:street" v="Marrickville Road"/>
    <tag k="source" v="extrapolation"/>
  </node>
  <node id="977364802" version="1" timestamp="2010-11-05T09:35:47Z" uid="7617" user="Franc" changeset="6293977" lat="-33.8762794" lon="151.1658359">
    <tag k="addr:housenumber" v="11"/>
    <tag k="addr:street" v="Percival Street"/>
    <tag k="source" v="extrapolation"/>
  </node>
  <node id="977364804" version="1" timestamp="2010-11-05T09:35:47Z" uid="7617" user="Franc" changeset="6293977" lat="-33.9070543" lon="151.1521922">
    <tag k="addr:housenumber" v="1"/>
    <tag k="addr:street" v="Hastings Street"/>
    <tag k="source" v="survey"/>
  </node>
  <node id="977364806" version="1" timestamp="2010-11-05T09:35:48Z" uid="7617" user="Franc" changeset="6293977" lat="-33.8779537" lon="151.164587"/>
  <node id="977364807" version="1" timestamp="2010-11-05T09:35:48Z" uid="7617" user="Franc" changeset="6293977" lat="-33.9065496" lon="151.1530751">
    <tag k="addr:housenumber" v="154"/>
    <tag k="addr:street" v="Livingstone Road"/>
    <tag k="source" v="extrapolation"/>
  </node>
  <node id="977364808" version="1" timestamp="2010-11-05T09:35:48Z" uid="7617" user="Franc" changeset="6293977" lat="-33.8901185" lon="151.1678295">
    <tag k="addr:housenumber" v="50"/>
    <tag k="addr:street" v="Northumberland Avenue"/>
    <tag k="source" v="extrapolation"/>
  </node>
  <node id="977364809" version="1" timestamp="2010-11-05T09:35:48Z" uid="7617" user="Franc" changeset="6293977" lat="-33.8785763" lon="151.1624678">
    <tag k="addr:housenumber" v="2"/>
    <tag k="addr:street" v="Answorth Avenue"/>
    <tag k="source" v="survey"/>
  </node>
  <node id="977364811" version="1" timestamp="2010-11-05T09:35:48Z" uid="7617" user="Franc" changeset="6293977" lat="-33.8778257" lon="151.1627486">
    <tag k="addr:housenumber" v="22"/>
    <tag k="addr:street" v="Answorth Avenue"/>
    <tag k="source" v="survey"/>
  </node>
  <node id="977364812" version="1" timestamp="2010-11-05T09:35:48Z" uid="7617" user="Franc" changeset="6293977" lat="-33.9076189" lon="151.1509203">
    <tag k="addr:housenumber" v="1"/>
    <tag k="addr:street" v="Anderton Street"/>
    <tag k="source" v="extrapolation"/>
  </node>
  <node id="977364814" version="1" timestamp="2010-11-05T09:35:48Z" uid="7617" user="Franc" changeset="6293977" lat="-33.8784841" lon="151.1718166"/>
  <node id="977364816" version="1" timestamp="2010-11-05T09:35:48Z" uid="7617" user="Franc" changeset="6293977" lat="-33.8774397" lon="151.1665106">
    <tag k="addr:housenumber" v="26"/>
    <tag k="addr:street" v="Edna Street"/>
    <tag k="source" v="extrapolation"/>
  </node>
  <node id="977364822" version="1" timestamp="2010-11-05T09:35:48Z" uid="7617" user="Franc" changeset="6293977" lat="-33.8899655" lon="151.1678123">
    <tag k="addr:housenumber" v="44"/>
    <tag k="addr:street" v="Northumberland Avenue"/>
    <tag k="source" v="extrapolation"/>
  </node>
  <node id="977364823" version="1" timestamp="2010-11-05T09:35:48Z" uid="7617" user="Franc" changeset="6293977" lat="-33.9083533" lon="151.151022">
    <tag k="addr:housenumber" v="406"/>
    <tag k="addr:street" v="Marrickville Road"/>
    <tag k="source" v="survey"/>
  </node>
  <node id="977364825" version="1" timestamp="2010-11-05T09:35:48Z" uid="7617" user="Franc" changeset="6293977" lat="-33.8761762" lon="151.1656826">
    <tag k="addr:housenumber" v="14"/>
    <tag k="addr:street" v="Percival Street"/>
    <tag k="source" v="extrapolation"/>
  </node>
  <node id="977364828" version="1" timestamp="2010-11-05T09:35:49Z" uid="7617" user="Franc" changeset="6293977" lat="-33.9081694" lon="151.1510795">
    <tag k="addr:housenumber" v="333"/>
    <tag k="addr:street" v="Marrickville Road"/>
    <tag k="source" v="survey"/>
  </node>
  <node id="977364834" version="1" timestamp="2010-11-05T09:35:49Z" uid="7617" user="Franc" changeset="6293977" lat="-33.8761443" lon="151.1631991">
    <tag k="addr:housenumber" v="70"/>
    <tag k="addr:street" v="Piper Street"/>
    <tag k="source" v="extrapolation"/>
  </node>
  <node id="977364835" version="1" timestamp="2010-11-05T09:35:49Z" uid="7617" user="Franc" changeset="6293977" lat="-33.8781575" lon="151.1655831">
    <tag k="addr:housenumber" v="3"/>
    <tag k="addr:street" v="Paling Street"/>
    <tag k="source" v="extrapolation"/>
  </node>
  <node id="977364837" version="1" timestamp="2010-11-05T09:35:49Z" uid="7617" user="Franc" changeset="6293977" lat="-33.8895594" lon="151.1679843">
    <tag k="addr:housenumber" v="29"/>
    <tag k="addr:street" v="Northumberland Avenue"/>
    <tag k="source" v="survey"/>
  </node>
  <node id="977364841" version="1" timestamp="2010-11-05T09:35:49Z" uid="7617" user="Franc" changeset="6293977" lat="-33.8781395" lon="151.1662759">
    <tag k="addr:housenumber" v="10"/>
    <tag k="addr:street" v="Edna Street"/>
    <tag k="source" v="extrapolation"/>
  </node>
  <node id="977364846" version="1" timestamp="2010-11-05T09:35:49Z" uid="7617" user="Franc" changeset="6293977" lat="-33.8783881" lon="151.1715278"/>
  <node id="977364847" version="1" timestamp="2010-11-05T09:35:49Z" uid="7617" user="Franc" changeset="6293977" lat="-33.9068955" lon="151.1516408">
    <tag k="addr:housenumber" v="9"/>
    <tag k="addr:street" v="Hastings Street"/>
    <tag k="source" v="extrapolation"/>
  </node>
  <node id="977364850" version="1" timestamp="2010-11-05T09:35:49Z" uid="7617" user="Franc" changeset="6293977" lat="-33.8747136" lon="151.165936">
    <tag k="addr:housenumber" v="52"/>
    <tag k="addr:street" v="Percival Street"/>
    <tag k="source" v="survey"/>
  </node>
  <node id="977364853" version="1" timestamp="2010-11-05T09:35:49Z" uid="7617" user="Franc" changeset="6293977" lat="-33.8765476" lon="151.1632157">
    <tag k="addr:housenumber" v="60"/>
    <tag k="addr:street" v="Answorth Avenue"/>
    <tag k="source" v="survey"/>
  </node>
  <node id="977364860" version="1" timestamp="2010-11-05T09:35:50Z" uid="7617" user="Franc" changeset="6293977" lat="-33.90798" lon="151.1504565">
    <tag k="addr:housenumber" v="339"/>
    <tag k="addr:street" v="Marrickville Road"/>
    <tag k="source" v="extrapolation"/>
  </node>
  <node id="977364860" version="2" timestamp="2011-04-26T02:09:16Z" uid="7617" user="Franc" changeset="7970426" lat="-33.907967" lon="151.1504624">
    <tag k="addr:housenumber" v="339"/>
    <tag k="addr:street" v="Marrickville Road"/>
    <tag k="source" v="extrapolation"/>
  </node>
  <node id="977364862" version="1" timestamp="2010-11-05T09:35:50Z" uid="7617" user="Franc" changeset="6293977" lat="-33.876136" lon="151.165859">
    <tag k="addr:housenumber" v="15"/>
    <tag k="addr:street" v="Percival Street"/>
    <tag k="source" v="extrapolation"/>
  </node>
  <node id="977364864" version="1" timestamp="2010-11-05T09:35:50Z" uid="7617" user="Franc" changeset="6293977" lat="-33.9070196" lon="151.1520792">
    <tag k="addr:housenumber" v="3"/>
    <tag k="addr:street" v="Hastings Street"/>
    <tag k="source" v="survey"/>
  </node>
  <node id="977364866" version="1" timestamp="2010-11-05T09:35:50Z" uid="7617" user="Franc" changeset="6293977" lat="-33.878424" lon="151.166404">
    <tag k="addr:housenumber" v="3"/>
    <tag k="addr:street" v="Edna Street"/>
    <tag k="source" v="survey"/>
  </node>
  <node id="977364872" version="1" timestamp="2010-11-05T09:35:50Z" uid="7617" user="Franc" changeset="6293977" lat="-33.8776959" lon="151.1664241">
    <tag k="addr:housenumber" v="20"/>
    <tag k="addr:street" v="Edna Street"/>
    <tag k="source" v="extrapolation"/>
  </node>
  <node id="977364875" version="1" timestamp="2010-11-05T09:35:50Z" uid="7617" user="Franc" changeset="6293977" lat="-33.8784817" lon="151.1627348">
    <tag k="addr:housenumber" v="1"/>
    <tag k="addr:street" v="Answorth Avenue"/>
    <tag k="source" v="survey"/>
  </node>
  <node id="977364876" version="1" timestamp="2010-11-05T09:35:50Z" uid="7617" user="Franc" changeset="6293977" lat="-33.8902205" lon="151.167841">
    <tag k="addr:housenumber" v="54"/>
    <tag k="addr:street" v="Northumberland Avenue"/>
    <tag k="source" v="extrapolation"/>
  </node>
  <node id="977364877" version="1" timestamp="2010-11-05T09:35:50Z" uid="7617" user="Franc" changeset="6293977" lat="-33.8777641" lon="151.1627695">
    <tag k="addr:housenumber" v="24"/>
    <tag k="addr:street" v="Answorth Avenue"/>
    <tag k="source" v="survey"/>
  </node>
  <node id="977364879" version="1" timestamp="2010-11-05T09:35:51Z" uid="7617" user="Franc" changeset="6293977" lat="-33.9074208" lon="151.1509917">
    <tag k="addr:housenumber" v="3"/>
    <tag k="addr:street" v="Anderton Street"/>
    <tag k="source" v="survey"/>
  </node>
  <node id="977364880" version="1" timestamp="2010-11-05T09:35:51Z" uid="7617" user="Franc" changeset="6293977" lat="-33.9073473" lon="151.1525593">
    <tag k="addr:housenumber" v="2"/>
    <tag k="addr:street" v="Hastings Street"/>
    <tag k="source" v="extrapolation"/>
  </node>
  <node id="977364881" version="1" timestamp="2010-11-05T09:35:51Z" uid="7617" user="Franc" changeset="6293977" lat="-33.907545" lon="151.1507239">
    <tag k="addr:housenumber" v="4"/>
    <tag k="addr:street" v="Anderton Street"/>
    <tag k="source" v="survey"/>
  </node>
  <node id="977364882" version="1" timestamp="2010-11-05T09:35:51Z" uid="7617" user="Franc" changeset="6293977" lat="-33.877961" lon="151.1663349">
    <tag k="addr:housenumber" v="14"/>
    <tag k="addr:street" v="Edna Street"/>
    <tag k="source" v="extrapolation"/>
  </node>
  <node id="977364884" version="1" timestamp="2010-11-05T09:35:51Z" uid="7617" user="Franc" changeset="6293977" lat="-33.8779568" lon="151.1626994">
    <tag k="addr:housenumber" v="20"/>
    <tag k="addr:street" v="Answorth Avenue"/>
    <tag k="source" v="extrapolation"/>
  </node>
  <node id="977364885" version="1" timestamp="2010-11-05T09:35:51Z" uid="7617" user="Franc" changeset="6293977" lat="-33.8900675" lon="151.1678238">
    <tag k="addr:housenumber" v="48"/>
    <tag k="addr:street" v="Northumberland Avenue"/>
    <tag k="source" v="extrapolation"/>
  </node>
  <node id="977364886" version="1" timestamp="2010-11-05T09:35:51Z" uid="7617" user="Franc" changeset="6293977" lat="-33.8759344" lon="151.1657222">
    <tag k="addr:housenumber" v="20"/>
    <tag k="addr:street" v="Percival Street"/>
    <tag k="source" v="survey"/>
  </node>
  <node id="977364888" version="1" timestamp="2010-11-05T09:35:51Z" uid="7617" user="Franc" changeset="6293977" lat="-33.876493" lon="151.1634659">
    <tag k="addr:housenumber" v="55"/>
    <tag k="addr:street" v="Answorth Avenue"/>
    <tag k="source" v="survey"/>
  </node>
  <node id="977364890" version="1" timestamp="2010-11-05T09:35:52Z" uid="7617" user="Franc" changeset="6293977" lat="-33.9066423" lon="151.1530513">
    <tag k="addr:housenumber" v="156"/>
    <tag k="addr:street" v="Livingstone Road"/>
    <tag k="source" v="extrapolation"/>
  </node>
  <node id="977364891" version="1" timestamp="2010-11-05T09:35:52Z" uid="7617" user="Franc" changeset="6293977" lat="-33.9070745" lon="151.1515782">
    <tag k="addr:housenumber" v="16"/>
    <tag k="addr:street" v="Hastings Street"/>
    <tag k="source" v="extrapolation"/>
  </node>
  <node id="977364892" version="1" timestamp="2010-11-05T09:35:52Z" uid="7617" user="Franc" changeset="6293977" lat="-33.8781767" lon="151.1653466">
    <tag k="addr:housenumber" v="4"/>
    <tag k="addr:street" v="Paling Street"/>
    <tag k="source" v="survey"/>
  </node>
  <node id="977364893" version="1" timestamp="2010-11-05T09:35:52Z" uid="7617" user="Franc" changeset="6293977" lat="-33.8903225" lon="151.1678525">
    <tag k="addr:housenumber" v="58"/>
    <tag k="addr:street" v="Northumberland Avenue"/>
    <tag k="source" v="extrapolation"/>
  </node>
  <node id="977364896" version="1" timestamp="2010-11-05T09:35:52Z" uid="7617" user="Franc" changeset="6293977" lat="-33.8782483" lon="151.1655544">
    <tag k="addr:housenumber" v="1"/>
    <tag k="addr:street" v="Paling Street"/>
    <tag k="source" v="extrapolation"/>
  </node>
  <node id="977364897" version="1" timestamp="2010-11-05T09:35:52Z" uid="7617" user="Franc" changeset="6293977" lat="-33.9070139" lon="151.1513521">
    <tag k="addr:housenumber" v="20"/>
    <tag k="addr:street" v="Hastings Street"/>
    <tag k="source" v="extrapolation"/>
  </node>
  <node id="977364898" version="1" timestamp="2010-11-05T09:35:52Z" uid="7617" user="Franc" changeset="6293977" lat="-33.8929924" lon="151.1585578">
    <tag k="addr:housenumber" v="97"/>
    <tag k="addr:street" v="Douglas Street"/>
    <tag k="source" v="survey"/>
  </node>
  <node id="977364909" version="1" timestamp="2010-11-05T09:35:52Z" uid="7617" user="Franc" changeset="6293977" lat="-33.8762772" lon="151.1633154">
    <tag k="addr:housenumber" v="68"/>
    <tag k="addr:street" v="Piper Street"/>
    <tag k="source" v="survey"/>
  </node>
  <node id="977364909" version="2" timestamp="2011-04-15T10:26:35Z" uid="7617" user="Franc" changeset="7868334" lat="-33.8761647" lon="151.1632933">
    <tag k="addr:housenumber" v="68"/>
    <tag k="addr:street" v="Piper Street"/>
    <tag k="source" v="survey"/>
  </node>
  <node id="977364910" version="1" timestamp="2010-11-05T09:35:53Z" uid="7617" user="Franc" changeset="6293977" lat="-33.8772688" lon="151.1665683">
    <tag k="addr:housenumber" v="30"/>
    <tag k="addr:street" v="Edna Street"/>
    <tag k="source" v="survey"/>
  </node>
  <node id="977364911" version="1" timestamp="2010-11-05T09:35:53Z" uid="7617" user="Franc" changeset="6293977" lat="-33.8782946" lon="151.1713485"/>
  <node id="977364912" version="1" timestamp="2010-11-05T09:35:53Z" uid="7617" user="Franc" changeset="6293977" lat="-33.876391" lon="151.1658128">
    <tag k="addr:housenumber" v="7"/>
    <tag k="addr:street" v="Percival Street"/>
    <tag k="source" v="survey"/>
  </node>
  <node id="977364913" version="1" timestamp="2010-11-05T09:35:53Z" uid="7617" user="Franc" changeset="6293977" lat="-33.8783793" lon="151.1661933">
    <tag k="addr:housenumber" v="4"/>
    <tag k="addr:street" v="Edna Street"/>
    <tag k="source" v="survey"/>
  </node>
  <node id="977364925" version="1" timestamp="2010-11-05T09:35:53Z" uid="7617" user="Franc" changeset="6293977" lat="-33.9069316" lon="151.1517852">
    <tag k="addr:housenumber" v="7"/>
    <tag k="addr:street" v="Hastings Street"/>
    <tag k="source" v="extrapolation"/>
  </node>
  <node id="977364926" version="1" timestamp="2010-11-05T09:35:53Z" uid="7617" user="Franc" changeset="6293977" lat="-33.9071654" lon="151.1519017">
    <tag k="addr:housenumber" v="12"/>
    <tag k="addr:street" v="Hastings Street"/>
    <tag k="source" v="survey"/>
  </node>
  <node id="977364927" version="1" timestamp="2010-11-05T09:35:53Z" uid="7617" user="Franc" changeset="6293977" lat="-33.8896413" lon="151.1677758">
    <tag k="addr:housenumber" v="38"/>
    <tag k="addr:street" v="Northumberland Avenue"/>
    <tag k="source" v="extrapolation"/>
  </node>
  <node id="977364928" version="1" timestamp="2010-11-05T09:35:53Z" uid="7617" user="Franc" changeset="6293977" lat="-33.8768431" lon="151.169404">
    <tag k="addr:housenumber" v="1"/>
    <tag k="addr:street" v="Hudson Street"/>
    <tag k="source" v="survey"/>
  </node>
  <node id="977364937" version="1" timestamp="2010-11-05T09:35:54Z" uid="7617" user="Franc" changeset="6293977" lat="-33.9064659" lon="151.1528452">
    <tag k="addr:housenumber" v="139"/>
    <tag k="addr:street" v="Livingstone Road"/>
    <tag k="source" v="survey"/>
  </node>
  <node id="977364940" version="1" timestamp="2010-11-05T09:35:54Z" uid="7617" user="Franc" changeset="6293977" lat="-33.8775251" lon="151.1664818">
    <tag k="addr:housenumber" v="24"/>
    <tag k="addr:street" v="Edna Street"/>
    <tag k="source" v="extrapolation"/>
  </node>
  <node id="977364943" version="1" timestamp="2010-11-05T09:35:54Z" uid="7617" user="Franc" changeset="6293977" lat="-33.8899145" lon="151.1678066">
    <tag k="addr:housenumber" v="42"/>
    <tag k="addr:street" v="Northumberland Avenue"/>
    <tag k="source" v="extrapolation"/>
  </node>
  <node id="977364948" version="1" timestamp="2010-11-05T09:35:54Z" uid="7617" user="Franc" changeset="6293977" lat="-33.8767155" lon="151.1690291">
    <tag k="addr:housenumber" v="11"/>
    <tag k="addr:street" v="Hudson Street"/>
    <tag k="source" v="survey"/>
  </node>
  <node id="977364952" version="1" timestamp="2010-11-05T09:35:54Z" uid="7617" user="Franc" changeset="6293977" lat="-33.8762568" lon="151.1656694">
    <tag k="addr:housenumber" v="12"/>
    <tag k="addr:street" v="Percival Street"/>
    <tag k="source" v="extrapolation"/>
  </node>
  <node id="977364955" version="1" timestamp="2010-11-05T09:35:54Z" uid="7617" user="Franc" changeset="6293977" lat="-33.9072516" lon="151.1510631">
    <tag k="addr:housenumber" v="5"/>
    <tag k="addr:street" v="Anderton Street"/>
    <tag k="source" v="survey"/>
  </node>
  <node id="977364957" version="1" timestamp="2010-11-05T09:35:54Z" uid="7617" user="Franc" changeset="6293977" lat="-33.8781257" lon="151.1653602">
    <tag k="addr:housenumber" v="6"/>
    <tag k="addr:street" v="Paling Street"/>
    <tag k="source" v="survey"/>
  </node>
  <node id="977364959" version="1" timestamp="2010-11-05T09:35:55Z" uid="7617" user="Franc" changeset="6293977" lat="-33.906725" lon="151.1530304">
    <tag k="addr:housenumber" v="158"/>
    <tag k="addr:street" v="Livingstone Road"/>
    <tag k="source" v="survey"/>
  </node>
  <node id="977364960" version="1" timestamp="2010-11-05T09:35:55Z" uid="7617" user="Franc" changeset="6293977" lat="-33.8784322" lon="151.1718667"/>
  <node id="977364961" version="1" timestamp="2010-11-05T09:35:55Z" uid="7617" user="Franc" changeset="6293977" lat="-33.8784719" lon="151.166387">
    <tag k="addr:housenumber" v="1"/>
    <tag k="addr:street" v="Edna Street"/>
    <tag k="source" v="survey"/>
  </node>
  <node id="977364963" version="1" timestamp="2010-11-05T09:35:55Z" uid="7617" user="Franc" changeset="6293977" lat="-33.9068089" lon="151.1513121">
    <tag k="addr:housenumber" v="13"/>
    <tag k="addr:street" v="Hastings Street"/>
    <tag k="source" v="survey"/>
  </node>
  <node id="977364964" version="1" timestamp="2010-11-05T09:35:55Z" uid="7617" user="Franc" changeset="6293977" lat="-33.8767963" lon="151.1692718">
    <tag k="addr:housenumber" v="5"/>
    <tag k="addr:street" v="Hudson Street"/>
    <tag k="source" v="extrapolation"/>
  </node>
  <node id="977364966" version="1" timestamp="2010-11-05T09:35:55Z" uid="7617" user="Franc" changeset="6293977" lat="-33.8777879" lon="151.1663952">
    <tag k="addr:housenumber" v="18"/>
    <tag k="addr:street" v="Edna Street"/>
    <tag k="source" v="extrapolation"/>
  </node>
  <node id="977364967" version="1" timestamp="2010-11-05T09:35:55Z" uid="7617" user="Franc" changeset="6293977" lat="-33.9080769" lon="151.1508114">
    <tag k="addr:housenumber" v="337"/>
    <tag k="addr:street" v="Marrickville Road"/>
    <tag k="source" v="extrapolation"/>
  </node>
  <node id="977364968" version="1" timestamp="2010-11-05T09:35:55Z" uid="7617" user="Franc" changeset="6293977" lat="-33.8772608" lon="151.1656624">
    <tag k="addr:housenumber" v="30"/>
    <tag k="addr:street" v="Paling Street"/>
    <tag k="source" v="survey"/>
  </node>
  <node id="977364969" version="1" timestamp="2010-11-05T09:35:55Z" uid="7617" user="Franc" changeset="6293977" lat="-33.875981" lon="151.1658876">
    <tag k="addr:housenumber" v="19"/>
    <tag k="addr:street" v="Percival Street"/>
    <tag k="source" v="extrapolation"/>
  </node>
  <node id="977364970" version="1" timestamp="2010-11-05T09:35:56Z" uid="7617" user="Franc" changeset="6293977" lat="-33.9069706" lon="151.151947">
    <tag k="addr:housenumber" v="5"/>
    <tag k="addr:street" v="Hastings Street"/>
    <tag k="source" v="extrapolation"/>
  </node>
  <node id="977364971" version="1" timestamp="2010-11-05T09:35:56Z" uid="7617" user="Franc" changeset="6293977" lat="-33.8763364" lon="151.1635252">
    <tag k="addr:housenumber" v="57"/>
    <tag k="addr:street" v="Answorth Avenue"/>
    <tag k="source" v="survey"/>
  </node>
  <node id="977364973" version="1" timestamp="2010-11-05T09:35:56Z" uid="7617" user="Franc" changeset="6293977" lat="-33.8782293" lon="151.1662444">
    <tag k="addr:housenumber" v="8"/>
    <tag k="addr:street" v="Edna Street"/>
    <tag k="source" v="extrapolation"/>
  </node>
  <node id="977364974" version="1" timestamp="2010-11-05T09:35:56Z" uid="7617" user="Franc" changeset="6293977" lat="-33.9074542" lon="151.1528515">
    <tag k="addr:housenumber" v="172"/>
    <tag k="addr:street" v="Livingstone Road"/>
    <tag k="source" v="survey"/>
  </node>
  <node id="977364974" version="2" timestamp="2010-11-09T10:39:51Z" uid="7617" user="Franc" changeset="6326877" lat="-33.9074542" lon="151.1528515">
    <tag k="addr:housenumber" v="172"/>
    <tag k="addr:street" v="Livingstone Road"/>
    <tag k="source" v="survey"/>
  </node>
  <node id="977364976" version="1" timestamp="2010-11-05T09:35:56Z" uid="7617" user="Franc" changeset="6293977" lat="-33.876015" lon="151.165709">
    <tag k="addr:housenumber" v="18"/>
    <tag k="addr:street" v="Percival Street"/>
    <tag k="source" v="extrapolation"/>
  </node>
  <node id="977364978" version="1" timestamp="2010-11-05T09:35:56Z" uid="7617" user="Franc" changeset="6293977" lat="-33.8773542" lon="151.1665395">
    <tag k="addr:housenumber" v="28"/>
    <tag k="addr:street" v="Edna Street"/>
    <tag k="source" v="extrapolation"/>
  </node>
  <node id="977364979" version="1" timestamp="2010-11-05T09:35:56Z" uid="7617" user="Franc" changeset="6293977" lat="-33.8904245" lon="151.167864">
    <tag k="addr:housenumber" v="62"/>
    <tag k="addr:street" v="Northumberland Avenue"/>
    <tag k="source" v="extrapolation"/>
  </node>
  <node id="977364988" version="1" timestamp="2010-11-05T09:35:56Z" uid="7617" user="Franc" changeset="6293977" lat="-33.8762197" lon="151.1658433">
    <tag k="addr:housenumber" v="13"/>
    <tag k="addr:street" v="Percival Street"/>
    <tag k="source" v="extrapolation"/>
  </node>
  <node id="977369720" version="2" timestamp="2011-01-31T18:46:06Z" uid="6269" user="Mueck" changeset="7147623" lat="49.0108894" lon="8.3841109"/>
  <node id="977369722" version="2" timestamp="2011-01-31T18:46:08Z" uid="6269" user="Mueck" changeset="7147623" lat="49.0107636" lon="8.3835525"/>
  <node id="977369722" version="3" timestamp="2011-03-28T13:07:06Z" uid="6269" user="Mueck" changeset="7696439" lat="49.0107593" lon="8.3835455"/>
  <node id="977369723" version="2" timestamp="2011-01-31T18:46:08Z" uid="6269" user="Mueck" changeset="7147623" lat="49.0109055" lon="8.3836912"/>
  <node id="977369733" version="3" timestamp="2011-01-31T18:46:07Z" uid="6269" user="Mueck" changeset="7147623" lat="49.010474" lon="8.382478"/>
  <node id="977369736" version="2" timestamp="2011-01-31T18:46:07Z" uid="6269" user="Mueck" changeset="7147623" lat="49.0107385" lon="8.3842099"/>
  <node id="977369736" version="3" timestamp="2011-03-28T13:07:06Z" uid="6269" user="Mueck" changeset="7696439" lat="49.0107343" lon="8.3842159"/>
</osm>
