<?xml version='1.0' encoding='UTF-8'?>
<osm version="0.6" generator="libosmium/2.20.0">
  <node id="982911427" version="1" timestamp="2010-11-08T23:35:42Z" uid="20587" user="balrog-kun" changeset="6324807" lat="52.2323834" lon="20.9979391"/>
  <node id="982911428" version="1" timestamp="2010-11-08T23:35:45Z" uid="20587" user="balrog-kun" changeset="6324807" lat="52.2349243" lon="21.007967">
    <tag k="shop" v="kiosk"/>
  </node>
  <node id="982911429" version="1" timestamp="2010-11-08T23:35:49Z" uid="20587" user="balrog-kun" changeset="6324807" lat="52.2326928" lon="20.9977355"/>
  <node id="982911430" version="1" timestamp="2010-11-08T23:35:49Z" uid="20587" user="balrog-kun" changeset="6324807" lat="52.2323096" lon="20.9965519"/>
  <node id="982911431" version="1" timestamp="2010-11-08T23:35:49Z" uid="20587" user="balrog-kun" changeset="6324807" lat="52.2311058" lon="20.9954963">
    <tag k="accor_ticket_acceptant" v="yes"/>
    <tag k="addr:housenumber" v="42"/>
    <tag k="addr:street" v="Twarda"/>
    <tag k="amenity" v="restaurant"/>
    <tag k="cuisine" v="pizza"/>
    <tag k="layer" v="0"/>
    <tag k="name" v="Zielona Oliwka"/>
  </node>
  <node id="982911438" version="1" timestamp="2010-11-08T23:35:50Z" uid="20587" user="balrog-kun" changeset="6324807" lat="52.2325497" lon="20.9978449"/>
  <node id="982911439" version="1" timestamp="2010-11-08T23:35:50Z" uid="20587" user="balrog-kun" changeset="6324807" lat="52.2309687" lon="20.9953642">
    <tag k="accor_ticket_acceptant" v="yes"/>
    <tag k="addr:housenumber" v="42"/>
    <tag k="addr:street" v="Twarda"/>
    <tag k="amenity" v="restaurant"/>
    <tag k="cuisine" v="chinese"/>
    <tag k="layer" v="-1"/>
    <tag k="name" v="Bliss Garden"/>
    <tag k="phone" v="+48226203519"/>
  </node>
  <node id="982911439" version="2" timestamp="2011-06-06T13:19:43Z" uid="20587" user="balrog-kun" changeset="8360247" lat="52.2309687" lon="20.9953642">
    <tag k="accor_ticket_acceptant" v="yes"/>
    <tag k="addr:housenumber" v="42"/>
    <tag k="addr:street" v="Twarda"/>
    <tag k="amenity" v="restaurant"/>
    <tag k="cuisine" v="chinese"/>
    <tag k="email" v="info@blissgarden.pl"/>
    <tag k="layer" v="-1"/>
    <tag k="name" v="Bliss Garden"/>
    <tag k="phone" v="+48226203519;+48226203519"/>
  </node>
  <node id="982911443" version="1" timestamp="2010-11-08T23:35:50Z" uid="20587" user="balrog-kun" changeset="6324807" lat="52.2320661" lon="20.996443">
    <tag k="highway" v="crossing"/>
  </node>
  <node id="982911444" version="1" timestamp="2010-11-08T23:35:50Z" uid="20587" user="balrog-kun" changeset="6324807" lat="52.2325104" lon="20.9965406"/>
  <node id="982911449" version="1" timestamp="2010-11-08T23:35:51Z" uid="20587" user="balrog-kun" changeset="6324807" lat="52.2321341" lon="20.9966499"/>
  <node id="982911450" version="1" timestamp="2010-11-08T23:35:51Z" uid="20587" user="balrog-kun" changeset="6324807" lat="52.2349839" lon="21.0081129">
    <tag k="shop" v="kiosk"/>
  </node>
</osm>
