<?xml version='1.0' encoding='UTF-8'?>
<osm version="0.6" generator="libosmium/2.20.0">
  <node id="983826578" version="2" timestamp="2011-03-24T21:39:28Z" uid="23543" user="jkjk" changeset="7660371" lat="46.332158" lon="7.524348">
    <tag k="ele" v="1526"/>
    <tag k="name" v="Aminona"/>
    <tag k="operator" v="SMC"/>
    <tag k="source" v="Bundesamt f端r Verkehr (BAV), DIDOK 2009"/>
    <tag k="uic_name" v="Aminona"/>
    <tag k="uic_ref" v="8579494"/>
  </node>
  <node id="983828227" version="2" timestamp="2011-03-24T21:39:29Z" uid="23543" user="jkjk" changeset="7660371" lat="46.3123298" lon="7.4906759">
    <tag k="ele" v="1315"/>
    <tag k="name" v="Marigny"/>
    <tag k="operator" v="SMC"/>
    <tag k="railway" v="station"/>
    <tag k="source" v="Bundesamt f端r Verkehr (BAV), DIDOK 2009"/>
    <tag k="uic_name" v="Marigny"/>
    <tag k="uic_ref" v="8530166"/>
  </node>
  <node id="983828554" version="2" timestamp="2011-03-24T21:39:30Z" uid="23543" user="jkjk" changeset="7660371" lat="46.3130213" lon="7.4879115">
    <tag k="ele" v="1484"/>
    <tag k="highway" v="bus_stop"/>
    <tag k="name" v="Montana-Vermala, poste"/>
    <tag k="operator" v="PAG"/>
    <tag k="source" v="Bundesamt f端r Verkehr (BAV), DIDOK 2009"/>
    <tag k="uic_name" v="Montana-Vermala, poste"/>
    <tag k="uic_ref" v="8501548"/>
  </node>
  <node id="983828657" version="2" timestamp="2011-03-24T21:39:30Z" uid="23543" user="jkjk" changeset="7660371" lat="46.306098" lon="7.472386">
    <tag k="ele" v="1460"/>
    <tag k="name" v="Crans-s.-S., Scandia"/>
    <tag k="operator" v="SMC"/>
    <tag k="railway" v="station"/>
    <tag k="source" v="Bundesamt f端r Verkehr (BAV), DIDOK 2009"/>
    <tag k="uic_name" v="Crans-s.-S., Scandia"/>
    <tag k="uic_ref" v="8501541"/>
  </node>
</osm>
