<?xml version='1.0' encoding='UTF-8'?>
<osm version="0.6" generator="libosmium/2.20.0">
  <node id="983924761" version="1" timestamp="2010-11-10T02:07:28Z" uid="4467" user="Rosscoe" changeset="6333038" lat="-20.6633461" lon="116.7071342"/>
  <node id="983924761" version="2" timestamp="2010-11-10T02:11:49Z" uid="4467" user="Rosscoe" changeset="6333038" lat="-20.6633461" lon="116.7071342">
    <tag k="amenity" v="library"/>
    <tag k="name" v="Dampier Community Library"/>
    <tag k="source" v="survey"/>
  </node>
  <node id="983924761" version="3" timestamp="2010-11-15T04:02:44Z" uid="4467" user="Rosscoe" changeset="6374803" lat="-20.6633461" lon="116.7071342">
    <tag k="amenity" v="library"/>
    <tag k="name" v="Dampier Community Library"/>
    <tag k="opening_hours" v="Mo 14:00-17:00, Tu 09:00-16:00"/>
    <tag k="source" v="survey"/>
  </node>
  <node id="983924761" version="4" timestamp="2010-11-25T10:24:49Z" uid="4467" user="Rosscoe" changeset="6453398" lat="-20.6633461" lon="116.7071342">
    <tag k="amenity" v="library"/>
    <tag k="name" v="Dampier Community Library"/>
    <tag k="opening_hours" v="Mo,We,Fr 14:00-17:00;Tu 10:00-16:00;Th 10:00-18:00;Sa 09:00-12:00"/>
    <tag k="source" v="survey"/>
  </node>
  <node id="983924761" version="5" timestamp="2010-11-30T22:35:05Z" uid="4467" user="Rosscoe" changeset="6498673" lat="-20.6631605" lon="116.7072198">
    <tag k="amenity" v="library"/>
    <tag k="name" v="Dampier Community Library"/>
    <tag k="opening_hours" v="Mo,We,Fr 14:00-17:00;Tu 10:00-16:00;Th 10:00-18:00;Sa 09:00-12:00"/>
    <tag k="source" v="survey"/>
  </node>
  <node id="983924761" version="6" timestamp="2010-12-02T15:58:57Z" uid="4467" user="Rosscoe" changeset="6516143" lat="-20.6632162" lon="116.7071722">
    <tag k="amenity" v="library"/>
    <tag k="name" v="Dampier Community Library"/>
    <tag k="opening_hours" v="Mo,We,Fr 14:00-17:00;Tu 10:00-16:00;Th 10:00-18:00;Sa 09:00-12:00"/>
    <tag k="source" v="survey"/>
  </node>
  <node id="983924779" version="1" timestamp="2010-11-10T02:08:38Z" uid="4467" user="Rosscoe" changeset="6333038" lat="-20.6588387" lon="116.7078959"/>
  <node id="983924779" version="2" timestamp="2010-11-10T03:33:22Z" uid="4467" user="Rosscoe" changeset="6333152" lat="-20.6588386" lon="116.7078958">
    <tag k="addr:city" v="Dampier"/>
    <tag k="addr:country" v="AU"/>
    <tag k="addr:housenumber" v="1"/>
    <tag k="addr:postcode" v="6713"/>
    <tag k="addr:street" v="Blackwood Crescent"/>
    <tag k="source" v="survey"/>
  </node>
  <node id="983924779" version="3" timestamp="2010-11-10T03:36:32Z" uid="4467" user="Rosscoe" changeset="6333152" lat="-20.6588386" lon="116.7078958">
    <tag k="addr:city" v="Dampier"/>
    <tag k="addr:country" v="AU"/>
    <tag k="addr:housenumber" v="1"/>
    <tag k="addr:postcode" v="6713"/>
    <tag k="addr:street" v="Blackwood Crescent"/>
    <tag k="source" v="survey"/>
  </node>
  <node id="983924779" version="4" timestamp="2010-11-30T22:35:05Z" uid="4467" user="Rosscoe" changeset="6498673" lat="-20.6588499" lon="116.7081093">
    <tag k="addr:city" v="Dampier"/>
    <tag k="addr:country" v="AU"/>
    <tag k="addr:housenumber" v="1"/>
    <tag k="addr:postcode" v="6713"/>
    <tag k="addr:street" v="Blackwood Crescent"/>
    <tag k="source" v="survey"/>
  </node>
  <node id="983924779" version="5" timestamp="2010-12-02T15:11:51Z" uid="4467" user="Rosscoe" changeset="6515740" lat="-20.6588893" lon="116.7080461">
    <tag k="addr:city" v="Dampier"/>
    <tag k="addr:country" v="AU"/>
    <tag k="addr:housenumber" v="1"/>
    <tag k="addr:postcode" v="6713"/>
    <tag k="addr:street" v="Blackwood Crescent"/>
    <tag k="source" v="survey"/>
  </node>
  <node id="983924796" version="1" timestamp="2010-11-10T02:09:53Z" uid="4467" user="Rosscoe" changeset="6333038" lat="-20.6588889" lon="116.7081749"/>
  <node id="983924796" version="2" timestamp="2010-11-10T03:33:12Z" uid="4467" user="Rosscoe" changeset="6333152" lat="-20.6588888" lon="116.7081749">
    <tag k="addr:city" v="Dampier"/>
    <tag k="addr:country" v="AU"/>
    <tag k="addr:housenumber" v="2"/>
    <tag k="addr:postcode" v="6713"/>
    <tag k="addr:street" v="Blackwood Crescent"/>
    <tag k="source" v="survey"/>
  </node>
  <node id="983924796" version="3" timestamp="2010-11-30T22:35:05Z" uid="4467" user="Rosscoe" changeset="6498673" lat="-20.6588643" lon="116.7083582">
    <tag k="addr:city" v="Dampier"/>
    <tag k="addr:country" v="AU"/>
    <tag k="addr:housenumber" v="2"/>
    <tag k="addr:postcode" v="6713"/>
    <tag k="addr:street" v="Blackwood Crescent"/>
    <tag k="source" v="survey"/>
  </node>
  <node id="983924796" version="4" timestamp="2010-12-02T15:11:36Z" uid="4467" user="Rosscoe" changeset="6515740" lat="-20.6589037" lon="116.708295">
    <tag k="addr:city" v="Dampier"/>
    <tag k="addr:country" v="AU"/>
    <tag k="addr:housenumber" v="2"/>
    <tag k="addr:postcode" v="6713"/>
    <tag k="addr:street" v="Blackwood Crescent"/>
    <tag k="source" v="survey"/>
  </node>
  <node id="983924810" version="1" timestamp="2010-11-10T02:10:43Z" uid="4467" user="Rosscoe" changeset="6333038" lat="-20.6588789" lon="116.7084109"/>
  <node id="983924810" version="2" timestamp="2010-11-14T07:48:57Z" uid="4467" user="Rosscoe" changeset="6364168" lat="-20.6588789" lon="116.7084109">
    <tag k="addr:city" v="Dampier"/>
    <tag k="addr:country" v="AU"/>
    <tag k="addr:housenumber" v="3"/>
    <tag k="addr:postcode" v="6713"/>
    <tag k="addr:street" v="Blackwood Crescent"/>
    <tag k="source" v="survey"/>
  </node>
  <node id="983924810" version="3" timestamp="2010-11-30T22:35:06Z" uid="4467" user="Rosscoe" changeset="6498673" lat="-20.6588649" lon="116.7085973">
    <tag k="addr:city" v="Dampier"/>
    <tag k="addr:country" v="AU"/>
    <tag k="addr:housenumber" v="3"/>
    <tag k="addr:postcode" v="6713"/>
    <tag k="addr:street" v="Blackwood Crescent"/>
    <tag k="source" v="survey"/>
  </node>
  <node id="983924810" version="4" timestamp="2010-12-02T15:11:50Z" uid="4467" user="Rosscoe" changeset="6515740" lat="-20.6589043" lon="116.7085341">
    <tag k="addr:city" v="Dampier"/>
    <tag k="addr:country" v="AU"/>
    <tag k="addr:housenumber" v="3"/>
    <tag k="addr:postcode" v="6713"/>
    <tag k="addr:street" v="Blackwood Crescent"/>
    <tag k="source" v="survey"/>
  </node>
  <node id="983924824" version="1" timestamp="2010-11-10T02:11:28Z" uid="4467" user="Rosscoe" changeset="6333038" lat="-20.6587383" lon="116.7089259"/>
  <node id="983924824" version="2" timestamp="2010-11-14T07:48:58Z" uid="4467" user="Rosscoe" changeset="6364168" lat="-20.6587383" lon="116.7089259">
    <tag k="addr:city" v="Dampier"/>
    <tag k="addr:country" v="AU"/>
    <tag k="addr:housenumber" v="5"/>
    <tag k="addr:postcode" v="6713"/>
    <tag k="addr:street" v="Blackwood Crescent"/>
    <tag k="source" v="survey"/>
  </node>
  <node id="983924824" version="3" timestamp="2010-11-30T22:35:06Z" uid="4467" user="Rosscoe" changeset="6498673" lat="-20.6587118" lon="116.709026">
    <tag k="addr:city" v="Dampier"/>
    <tag k="addr:country" v="AU"/>
    <tag k="addr:housenumber" v="5"/>
    <tag k="addr:postcode" v="6713"/>
    <tag k="addr:street" v="Blackwood Crescent"/>
    <tag k="source" v="survey"/>
  </node>
  <node id="983924824" version="4" timestamp="2010-12-02T15:11:37Z" uid="4467" user="Rosscoe" changeset="6515740" lat="-20.6587512" lon="116.7089628">
    <tag k="addr:city" v="Dampier"/>
    <tag k="addr:country" v="AU"/>
    <tag k="addr:housenumber" v="5"/>
    <tag k="addr:postcode" v="6713"/>
    <tag k="addr:street" v="Blackwood Crescent"/>
    <tag k="source" v="survey"/>
  </node>
  <node id="983924833" version="1" timestamp="2010-11-10T02:11:49Z" uid="4467" user="Rosscoe" changeset="6333038" lat="-20.6588287" lon="116.7086469"/>
  <node id="983924833" version="2" timestamp="2010-11-14T07:48:58Z" uid="4467" user="Rosscoe" changeset="6364168" lat="-20.6588287" lon="116.7086469">
    <tag k="addr:city" v="Dampier"/>
    <tag k="addr:country" v="AU"/>
    <tag k="addr:housenumber" v="4"/>
    <tag k="addr:postcode" v="6713"/>
    <tag k="addr:street" v="Blackwood Crescent"/>
    <tag k="source" v="survey"/>
  </node>
  <node id="983924833" version="3" timestamp="2010-11-30T22:35:07Z" uid="4467" user="Rosscoe" changeset="6498673" lat="-20.6588048" lon="116.7088337">
    <tag k="addr:city" v="Dampier"/>
    <tag k="addr:country" v="AU"/>
    <tag k="addr:housenumber" v="4"/>
    <tag k="addr:postcode" v="6713"/>
    <tag k="addr:street" v="Blackwood Crescent"/>
    <tag k="source" v="survey"/>
  </node>
  <node id="983924833" version="4" timestamp="2010-12-02T15:11:35Z" uid="4467" user="Rosscoe" changeset="6515740" lat="-20.6588442" lon="116.7087705">
    <tag k="addr:city" v="Dampier"/>
    <tag k="addr:country" v="AU"/>
    <tag k="addr:housenumber" v="4"/>
    <tag k="addr:postcode" v="6713"/>
    <tag k="addr:street" v="Blackwood Crescent"/>
    <tag k="source" v="survey"/>
  </node>
  <node id="983924886" version="1" timestamp="2010-11-10T02:14:05Z" uid="4467" user="Rosscoe" changeset="6333038" lat="-20.6587383" lon="116.7089259">
    <tag k="addr:city" v="Dampier"/>
    <tag k="addr:country" v="AU"/>
    <tag k="addr:housenumber" v="5"/>
    <tag k="addr:postcode" v="6713"/>
    <tag k="addr:street" v="Blackwood Crescent"/>
    <tag k="source" v="survey"/>
  </node>
  <node id="983924886" version="2" timestamp="2010-11-14T07:48:58Z" uid="4467" user="Rosscoe" changeset="6364168" lat="-20.6587383" lon="116.7089259">
    <tag k="addr:city" v="Dampier"/>
    <tag k="addr:country" v="AU"/>
    <tag k="addr:housenumber" v="5"/>
    <tag k="addr:postcode" v="6713"/>
    <tag k="addr:street" v="Blackwood Crescent"/>
    <tag k="source" v="survey"/>
  </node>
  <node id="983924922" version="1" timestamp="2010-11-10T02:17:13Z" uid="4467" user="Rosscoe" changeset="6333038" lat="-20.6587383" lon="116.7089259">
    <tag k="addr:city" v="Dampier"/>
    <tag k="addr:country" v="AU"/>
    <tag k="addr:housenumber" v="5"/>
    <tag k="addr:postcode" v="6713"/>
    <tag k="addr:street" v="Blackwood Crescent"/>
    <tag k="source" v="survey"/>
  </node>
  <node id="983924922" version="2" timestamp="2010-11-14T07:48:59Z" uid="4467" user="Rosscoe" changeset="6364168" lat="-20.6587383" lon="116.7089259">
    <tag k="addr:city" v="Dampier"/>
    <tag k="addr:country" v="AU"/>
    <tag k="addr:housenumber" v="5"/>
    <tag k="addr:postcode" v="6713"/>
    <tag k="addr:street" v="Blackwood Crescent"/>
    <tag k="source" v="survey"/>
  </node>
  <node id="983924960" version="1" timestamp="2010-11-10T02:19:08Z" uid="4467" user="Rosscoe" changeset="6333038" lat="-20.6588287" lon="116.7086469">
    <tag k="addr:city" v="Dampier"/>
    <tag k="addr:country" v="AU"/>
    <tag k="addr:housenumber" v="4"/>
    <tag k="addr:postcode" v="6713"/>
    <tag k="addr:street" v="Blackwood Crescent"/>
    <tag k="source" v="survey"/>
  </node>
  <node id="983924960" version="2" timestamp="2010-11-14T07:48:59Z" uid="4467" user="Rosscoe" changeset="6364168" lat="-20.6588287" lon="116.7086469">
    <tag k="addr:city" v="Dampier"/>
    <tag k="addr:country" v="AU"/>
    <tag k="addr:housenumber" v="4"/>
    <tag k="addr:postcode" v="6713"/>
    <tag k="addr:street" v="Blackwood Crescent"/>
    <tag k="source" v="survey"/>
  </node>
  <node id="983924998" version="1" timestamp="2010-11-10T02:21:18Z" uid="4467" user="Rosscoe" changeset="6333038" lat="-20.6588287" lon="116.7086469">
    <tag k="addr:city" v="Dampier"/>
    <tag k="addr:country" v="AU"/>
    <tag k="addr:housenumber" v="4"/>
    <tag k="addr:postcode" v="6713"/>
    <tag k="addr:street" v="Blackwood Crescent"/>
    <tag k="source" v="survey"/>
  </node>
  <node id="983924998" version="2" timestamp="2010-11-14T07:48:59Z" uid="4467" user="Rosscoe" changeset="6364168" lat="-20.6588287" lon="116.7086469">
    <tag k="addr:city" v="Dampier"/>
    <tag k="addr:country" v="AU"/>
    <tag k="addr:housenumber" v="4"/>
    <tag k="addr:postcode" v="6713"/>
    <tag k="addr:street" v="Blackwood Crescent"/>
    <tag k="source" v="survey"/>
  </node>
  <node id="983925255" version="1" timestamp="2010-11-10T02:35:22Z" uid="4467" user="Rosscoe" changeset="6333038" lat="-20.6588789" lon="116.7084109">
    <tag k="addr:city" v="Dampier"/>
    <tag k="addr:country" v="AU"/>
    <tag k="addr:housenumber" v="3"/>
    <tag k="addr:postcode" v="6713"/>
    <tag k="addr:street" v="Blackwood Crescent"/>
    <tag k="source" v="survey"/>
  </node>
  <node id="983925255" version="2" timestamp="2010-11-14T07:48:59Z" uid="4467" user="Rosscoe" changeset="6364168" lat="-20.6588789" lon="116.7084109">
    <tag k="addr:city" v="Dampier"/>
    <tag k="addr:country" v="AU"/>
    <tag k="addr:housenumber" v="3"/>
    <tag k="addr:postcode" v="6713"/>
    <tag k="addr:street" v="Blackwood Crescent"/>
    <tag k="source" v="survey"/>
  </node>
  <node id="983925271" version="1" timestamp="2010-11-10T02:35:25Z" uid="4467" user="Rosscoe" changeset="6333038" lat="-20.6588789" lon="116.7084109">
    <tag k="addr:city" v="Dampier"/>
    <tag k="addr:country" v="AU"/>
    <tag k="addr:housenumber" v="3"/>
    <tag k="addr:postcode" v="6713"/>
    <tag k="addr:street" v="Blackwood Crescent"/>
    <tag k="source" v="survey"/>
  </node>
  <node id="983925271" version="2" timestamp="2010-11-14T07:48:58Z" uid="4467" user="Rosscoe" changeset="6364168" lat="-20.6588789" lon="116.7084109">
    <tag k="addr:city" v="Dampier"/>
    <tag k="addr:country" v="AU"/>
    <tag k="addr:housenumber" v="3"/>
    <tag k="addr:postcode" v="6713"/>
    <tag k="addr:street" v="Blackwood Crescent"/>
    <tag k="source" v="survey"/>
  </node>
</osm>
