<?xml version='1.0' encoding='UTF-8'?>
<osm version="0.6" generator="libosmium/2.20.0">
  <node id="985925267" version="1" timestamp="2010-11-11T19:33:17Z" uid="17602" user="B10xyz" changeset="6346197" lat="50.0859302" lon="8.2249467">
    <tag k="amenity" v="pharmacy"/>
    <tag k="dispensing" v="yes"/>
    <tag k="name" v="Dürer-Apotheke"/>
  </node>
  <node id="985925273" version="1" timestamp="2010-11-11T19:33:17Z" uid="17602" user="B10xyz" changeset="6346197" lat="50.0769967" lon="8.2212912">
    <tag k="amenity" v="fast_food"/>
    <tag k="name" v="Döner"/>
  </node>
  <node id="985925290" version="1" timestamp="2010-11-11T19:33:18Z" uid="17602" user="B10xyz" changeset="6346197" lat="50.0773006" lon="8.22106">
    <tag k="name" v="Kara"/>
    <tag k="shop" v="optician"/>
  </node>
  <node id="985925296" version="1" timestamp="2010-11-11T19:33:18Z" uid="17602" user="B10xyz" changeset="6346197" lat="50.0776728" lon="8.2225922">
    <tag k="name" v="Schlecker"/>
    <tag k="shop" v="chemist"/>
  </node>
  <node id="985925298" version="1" timestamp="2010-11-11T19:33:19Z" uid="17602" user="B10xyz" changeset="6346197" lat="50.0884901" lon="8.2229263">
    <tag k="amenity" v="recycling"/>
    <tag k="recycling:glass" v="yes"/>
  </node>
  <node id="985925300" version="1" timestamp="2010-11-11T19:33:19Z" uid="17602" user="B10xyz" changeset="6346197" lat="50.0824879" lon="8.2223145">
    <tag k="amenity" v="restaurant"/>
    <tag k="cuisine" v="italian"/>
    <tag k="name" v="da zio Nico"/>
    <tag k="phone" v="0611 4502538"/>
    <tag k="smoking" v="no"/>
  </node>
  <node id="985925316" version="1" timestamp="2010-11-11T19:33:19Z" uid="17602" user="B10xyz" changeset="6346197" lat="50.0775454" lon="8.2201457">
    <tag k="name" v="ROSSMANN"/>
    <tag k="shop" v="chemist"/>
  </node>
  <node id="985925322" version="1" timestamp="2010-11-11T19:33:20Z" uid="17602" user="B10xyz" changeset="6346197" lat="50.0889208" lon="8.2204444">
    <tag k="amenity" v="restaurant"/>
    <tag k="cuisine" v="italian"/>
  </node>
  <node id="985925324" version="1" timestamp="2010-11-11T19:33:20Z" uid="17602" user="B10xyz" changeset="6346197" lat="50.0772684" lon="8.220251">
    <tag k="shop" v="bakery"/>
  </node>
  <node id="985925329" version="1" timestamp="2010-11-11T19:33:20Z" uid="17602" user="B10xyz" changeset="6346197" lat="50.0826811" lon="8.2229153">
    <tag k="name" v="Schlecker"/>
    <tag k="shop" v="chemist"/>
  </node>
  <node id="985925334" version="1" timestamp="2010-11-11T19:33:20Z" uid="17602" user="B10xyz" changeset="6346197" lat="50.088182" lon="8.2202411">
    <tag k="amenity" v="restaurant"/>
    <tag k="cuisine" v="greek;german"/>
  </node>
</osm>
