<?xml version='1.0' encoding='UTF-8'?>
<osm version="0.6" generator="libosmium/2.20.0">
  <node id="988250002" version="1" timestamp="2010-11-13T22:14:52Z" uid="151899" user="Bikeman2000" changeset="6362545" lat="51.2269909" lon="6.7915852">
    <tag k="addr:city" v="Düsseldorf"/>
    <tag k="addr:country" v="DE"/>
    <tag k="addr:housenumber" v="22"/>
    <tag k="addr:postcode" v="40211"/>
    <tag k="addr:street" v="Cantadorstraße"/>
  </node>
  <node id="988250005" version="1" timestamp="2010-11-13T22:14:52Z" uid="151899" user="Bikeman2000" changeset="6362545" lat="51.2267126" lon="6.7917845">
    <tag k="addr:city" v="Düsseldorf"/>
    <tag k="addr:country" v="DE"/>
    <tag k="addr:housenumber" v="30"/>
    <tag k="addr:postcode" v="40211"/>
    <tag k="addr:street" v="Cantadorstraße"/>
  </node>
  <node id="988250008" version="1" timestamp="2010-11-13T22:14:52Z" uid="151899" user="Bikeman2000" changeset="6362545" lat="51.2277891" lon="6.7909668">
    <tag k="addr:city" v="Düsseldorf"/>
    <tag k="addr:country" v="DE"/>
    <tag k="addr:housenumber" v="6"/>
    <tag k="addr:postcode" v="40211"/>
    <tag k="addr:street" v="Cantadorstraße"/>
  </node>
  <node id="988250008" version="2" timestamp="2010-11-13T22:30:06Z" uid="151899" user="Bikeman2000" changeset="6362670" lat="51.2277964" lon="6.7909668">
    <tag k="addr:city" v="Düsseldorf"/>
    <tag k="addr:country" v="DE"/>
    <tag k="addr:housenumber" v="6"/>
    <tag k="addr:postcode" v="40211"/>
    <tag k="addr:street" v="Cantadorstraße"/>
  </node>
  <node id="988250017" version="1" timestamp="2010-11-13T22:14:53Z" uid="151899" user="Bikeman2000" changeset="6362545" lat="51.2271806" lon="6.7914494">
    <tag k="addr:city" v="Düsseldorf"/>
    <tag k="addr:country" v="DE"/>
    <tag k="addr:housenumber" v="18"/>
    <tag k="addr:postcode" v="40211"/>
    <tag k="addr:street" v="Cantadorstraße"/>
  </node>
  <node id="988250022" version="1" timestamp="2010-11-13T22:14:53Z" uid="151899" user="Bikeman2000" changeset="6362545" lat="51.22802" lon="6.7907907">
    <tag k="addr:city" v="Düsseldorf"/>
    <tag k="addr:country" v="DE"/>
    <tag k="addr:housenumber" v="4"/>
    <tag k="addr:postcode" v="40211"/>
    <tag k="addr:street" v="Cantadorstraße"/>
  </node>
  <node id="988250022" version="2" timestamp="2010-11-13T22:29:43Z" uid="151899" user="Bikeman2000" changeset="6362665" lat="51.22802" lon="6.7907907">
    <tag k="addr:city" v="Düsseldorf"/>
    <tag k="addr:country" v="DE"/>
    <tag k="addr:housenumber" v="4"/>
    <tag k="addr:postcode" v="40211"/>
    <tag k="addr:street" v="Cantadorstraße"/>
    <tag k="note" v="Sowohl Hotel als auch Restaurant haben Hausnummer 4"/>
  </node>
  <node id="988250031" version="1" timestamp="2010-11-13T22:14:53Z" uid="151899" user="Bikeman2000" changeset="6362545" lat="51.2274494" lon="6.7912258">
    <tag k="addr:city" v="Düsseldorf"/>
    <tag k="addr:country" v="DE"/>
    <tag k="addr:housenumber" v="14"/>
    <tag k="addr:postcode" v="40211"/>
    <tag k="addr:street" v="Cantadorstraße"/>
  </node>
</osm>
