<?xml version='1.0' encoding='UTF-8'?>
<osm version="0.6" generator="libosmium/2.20.0">
  <node id="988903842" version="1" timestamp="2010-11-14T16:10:20Z" uid="33382" user="de_muur" changeset="6368002" lat="53.0515098" lon="9.0194305">
    <tag k="direction_east" v="Achim 5km; Embsen 2.6km"/>
    <tag k="direction_north" v="Sagehorn 3km; Oyten 0.4km"/>
    <tag k="direction_south" v="Meyerdamm 4km; Oyterdamm 2.5km"/>
    <tag k="information" v="guidepost"/>
    <tag k="network" v="lcn"/>
    <tag k="operator" v="Landkreis Verden"/>
    <tag k="route" v="bicycle"/>
    <tag k="tourism" v="information"/>
  </node>
  <node id="988903847" version="1" timestamp="2010-11-14T16:10:26Z" uid="33382" user="de_muur" changeset="6368002" lat="53.0471918" lon="9.0087989"/>
  <node id="988903847" version="2" timestamp="2010-12-01T20:20:33Z" uid="33382" user="de_muur" changeset="6507957" lat="53.0471918" lon="9.0087989"/>
  <node id="988907310" version="1" timestamp="2010-11-14T16:15:57Z" uid="6269" user="Mueck" changeset="6368053" lat="48.996261" lon="8.2917151"/>
  <node id="988907310" version="2" timestamp="2010-11-14T16:16:26Z" uid="6269" user="Mueck" changeset="6368053" lat="48.996261" lon="8.2917151">
    <tag k="addr:city" v="Karlsruhe"/>
    <tag k="addr:country" v="DE"/>
    <tag k="addr:housenumber" v="55"/>
    <tag k="addr:postcode" v="76189"/>
    <tag k="addr:street" v="Hermann-Schneider-Allee"/>
    <tag k="amenity" v="pub"/>
  </node>
</osm>
