<?xml version='1.0' encoding='UTF-8'?>
<osm version="0.6" generator="libosmium/2.20.0">
  <node id="989296641" version="1" timestamp="2010-11-14T21:49:36Z" uid="151899" user="Bikeman2000" changeset="6371566" lat="51.227281" lon="6.793222">
    <tag k="addr:city" v="Düsseldorf"/>
    <tag k="addr:country" v="DE"/>
    <tag k="addr:housenumber" v="26"/>
    <tag k="addr:postcode" v="40211"/>
    <tag k="addr:street" v="Kölner Str."/>
  </node>
  <node id="989296650" version="1" timestamp="2010-11-14T21:49:36Z" uid="151899" user="Bikeman2000" changeset="6371566" lat="51.2270111" lon="6.7934907">
    <tag k="addr:city" v="Düsseldorf"/>
    <tag k="addr:country" v="DE"/>
    <tag k="addr:housenumber" v="26"/>
    <tag k="addr:postcode" v="40211"/>
    <tag k="addr:street" v="Kölner Str."/>
  </node>
  <node id="989296658" version="1" timestamp="2010-11-14T21:49:36Z" uid="151899" user="Bikeman2000" changeset="6371566" lat="51.2272124" lon="6.7932902">
    <tag k="addr:city" v="Düsseldorf"/>
    <tag k="addr:country" v="DE"/>
    <tag k="addr:housenumber" v="24"/>
    <tag k="addr:postcode" v="40211"/>
    <tag k="addr:street" v="Kölner Str."/>
  </node>
  <node id="989296674" version="1" timestamp="2010-11-14T21:49:37Z" uid="151899" user="Bikeman2000" changeset="6371566" lat="51.2273613" lon="6.7931419">
    <tag k="addr:city" v="Düsseldorf"/>
    <tag k="addr:country" v="DE"/>
    <tag k="addr:housenumber" v="20"/>
    <tag k="addr:postcode" v="40211"/>
    <tag k="addr:street" v="Kölner Str."/>
  </node>
</osm>
