<?xml version='1.0' encoding='UTF-8'?>
<osm version="0.6" generator="libosmium/2.20.0">
  <node id="990467165" version="1" timestamp="2010-11-15T22:23:02Z" uid="20587" user="balrog-kun" changeset="6381423" lat="53.3282285" lon="-6.2325916">
    <tag k="building:levels" v="6"/>
    <tag k="name" v="Herbert Part Hotel"/>
    <tag k="tourism" v="hotel"/>
  </node>
  <node id="990467171" version="1" timestamp="2010-11-15T22:23:04Z" uid="20587" user="balrog-kun" changeset="6381423" lat="53.3280898" lon="-6.2326409">
    <tag k="amenity" v="restaurant"/>
    <tag k="operator" v="Herbert Park Hotel"/>
  </node>
  <node id="990467171" version="2" timestamp="2010-11-16T14:09:19Z" uid="20587" user="balrog-kun" changeset="6385303" lat="53.3280898" lon="-6.2326409">
    <tag k="amenity" v="restaurant;bar"/>
    <tag k="name" v="The Pavillon"/>
    <tag k="operator" v="Herbert Park Hotel"/>
  </node>
  <node id="990467174" version="1" timestamp="2010-11-15T22:23:04Z" uid="20587" user="balrog-kun" changeset="6381423" lat="53.3296778" lon="-6.2318038">
    <tag k="amenity" v="atm"/>
  </node>
</osm>
