<?xml version='1.0' encoding='UTF-8'?>
<osm version="0.6" generator="libosmium/2.20.0">
  <node id="99202271" version="3" timestamp="2008-08-21T23:17:14Z" uid="36809" user="pfoten_weg_!_" changeset="363581" lat="48.120072" lon="11.5483403">
    <tag k="created_by" v="RambaZamba"/>
    <tag k="name" v="Implerstraße"/>
    <tag k="railway" v="station"/>
  </node>
  <node id="99202271" version="5" timestamp="2008-09-13T12:35:23Z" uid="36809" user="pfoten_weg_!_" changeset="620497" lat="48.1200721" lon="11.5483408">
    <tag k="created_by" v="RambaZamba"/>
    <tag k="name" v="Implerstraße"/>
    <tag k="railway" v="station"/>
  </node>
  <node id="99202271" version="6" timestamp="2008-09-20T03:47:22Z" uid="36809" user="pfoten_weg_!_" changeset="670006" lat="48.1200721" lon="11.5483409">
    <tag k="created_by" v="RambaZamba"/>
    <tag k="name" v="Implerstraße"/>
    <tag k="railway" v="station"/>
  </node>
  <node id="99202271" version="7" timestamp="2008-10-01T01:15:48Z" uid="36809" user="pfoten_weg_!_" changeset="5644" lat="48.1200721" lon="11.5483409">
    <tag k="created_by" v="RambaZamba"/>
    <tag k="name" v="Implerstraße"/>
    <tag k="railway" v="station"/>
  </node>
  <node id="99202271" version="9" timestamp="2009-06-09T08:57:10Z" uid="36809" user="pfoten_weg_!_" changeset="1466365" lat="48.1200721" lon="11.5483409">
    <tag k="created_by" v="RambaZamba"/>
    <tag k="name" v="Implerstraße"/>
    <tag k="railway" v="station"/>
  </node>
  <node id="99202271" version="13" timestamp="2009-10-02T16:59:56Z" uid="86259" user="hasse_osm_korinthenkacker" changeset="2714981" lat="48.1200748" lon="11.548401">
    <tag k="name" v="Implerstraße"/>
    <tag k="railway" v="station"/>
  </node>
  <node id="99209620" version="4" timestamp="2008-10-01T01:27:45Z" uid="36809" user="pfoten_weg_!_" changeset="5644" lat="48.1004123" lon="11.5401241">
    <tag k="amenity" v="pharmacy"/>
    <tag k="created_by" v="RambaZamba"/>
    <tag k="name" v="Franziskus-Apotheke"/>
  </node>
  <node id="99209620" version="5" timestamp="2009-02-15T13:03:06Z" uid="36809" user="pfoten_weg_!_" changeset="463903" lat="48.1004123" lon="11.5401241">
    <tag k="amenity" v="pharmacy"/>
    <tag k="created_by" v="RambaZamba"/>
    <tag k="name" v="Franziskus-Apotheke"/>
    <tag k="source" v="survey"/>
  </node>
  <node id="99209620" version="7" timestamp="2009-08-31T20:58:52Z" uid="36809" user="pfoten_weg_!_" changeset="2331411" lat="48.1004123" lon="11.5401241">
    <tag k="amenity" v="pharmacy"/>
    <tag k="name" v="Franziskus-Apotheke"/>
    <tag k="source" v="survey"/>
  </node>
  <node id="99209620" version="8" timestamp="2009-10-13T23:39:57Z" uid="36809" user="pfoten_weg_!_" changeset="2841273" lat="48.1004123" lon="11.5401241">
    <tag k="amenity" v="pharmacy"/>
    <tag k="name" v="Franziskus-Apotheke"/>
  </node>
</osm>
