<?xml version='1.0' encoding='UTF-8'?>
<osm version="0.6" generator="libosmium/2.20.0">
  <node id="992765093" version="2" timestamp="2011-06-15T16:42:23Z" uid="33382" user="de_muur" changeset="8448646" lat="51.4283554" lon="9.6368636">
    <tag k="addr:city" v="Hann. Münden"/>
    <tag k="addr:country" v="DE"/>
    <tag k="addr:housenumber" v="10"/>
    <tag k="addr:postcode" v="34346"/>
    <tag k="addr:street" v="Professor-Oelkers-Straße"/>
    <tag k="name" v="Jugendherberge Hann. Münden"/>
    <tag k="tourism" v="hostel"/>
    <tag k="url" v="http://www.jugendherberge.de/de/jugendherbergen/visitenkarte/jh.jsp?IDJH=300"/>
  </node>
  <node id="992765261" version="2" timestamp="2010-12-18T17:16:40Z" uid="6269" user="Mueck" changeset="6696806" lat="53.5607342" lon="8.5800378">
    <tag k="highway" v="bus_stop"/>
    <tag k="name" v="Goethestraße"/>
    <tag k="public_transport" v="stop_position"/>
    <tag k="stop_ID" v="40901"/>
    <tag k="type" v="public_transport"/>
  </node>
</osm>
