<?xml version='1.0' encoding='UTF-8'?>
<osm version="0.6" generator="libosmium/2.20.0">
  <node id="999607601" version="2" timestamp="2010-12-20T02:30:19Z" uid="6269" user="Mueck" changeset="6712500" lat="53.5222979" lon="8.6115695">
    <tag k="highway" v="bus_stop"/>
    <tag k="name" v="Auf der Bult"/>
    <tag k="public_transport" v="stop_position"/>
    <tag k="stop_ID" v="65301"/>
    <tag k="type" v="public_transport"/>
  </node>
  <node id="999607611" version="2" timestamp="2010-12-20T02:30:18Z" uid="6269" user="Mueck" changeset="6712500" lat="53.5223443" lon="8.6112984">
    <tag k="highway" v="bus_stop"/>
    <tag k="name" v="Auf der Bult"/>
    <tag k="public_transport" v="stop_position"/>
    <tag k="stop_ID" v="65306"/>
    <tag k="type" v="public_transport"/>
  </node>
  <node id="999608811" version="2" timestamp="2010-12-20T02:30:18Z" uid="6269" user="Mueck" changeset="6712500" lat="53.5231051" lon="8.6064162">
    <tag k="highway" v="bus_stop"/>
    <tag k="name" v="BoschstraÃŸe"/>
    <tag k="public_transport" v="stop_position"/>
    <tag k="stop_ID" v="70207"/>
    <tag k="type" v="public_transport"/>
  </node>
</osm>
