<?xml version='1.0' encoding='UTF-8'?>
<osm version="0.6" generator="libosmium/2.20.0">
  <node id="999683064" version="2" timestamp="2010-12-20T02:30:19Z" uid="6269" user="Mueck" changeset="6712500" lat="53.5209133" lon="8.6149977">
    <tag k="highway" v="bus_stop"/>
    <tag k="name" v="Greifswalder Straße"/>
    <tag k="public_transport" v="stop_position"/>
    <tag k="stop_ID" v="65406"/>
    <tag k="type" v="public_transport"/>
  </node>
  <node id="999683076" version="2" timestamp="2010-12-20T02:30:18Z" uid="6269" user="Mueck" changeset="6712500" lat="53.5203846" lon="8.6154228">
    <tag k="highway" v="bus_stop"/>
    <tag k="name" v="Greifswalder Straße"/>
    <tag k="public_transport" v="stop_position"/>
    <tag k="stop_ID" v="65401"/>
    <tag k="type" v="public_transport"/>
  </node>
  <node id="999683080" version="2" timestamp="2010-12-20T01:11:33Z" uid="6269" user="Mueck" changeset="6712307" lat="53.5184291" lon="8.6234077">
    <tag k="highway" v="bus_stop"/>
    <tag k="name" v="Karlsweg"/>
    <tag k="public_transport" v="stop_position"/>
    <tag k="stop_ID" v="66201"/>
    <tag k="type" v="public_transport"/>
  </node>
  <node id="999683088" version="2" timestamp="2010-12-20T01:11:33Z" uid="6269" user="Mueck" changeset="6712307" lat="53.518652" lon="8.6225682">
    <tag k="highway" v="bus_stop"/>
    <tag k="name" v="Karlsweg"/>
    <tag k="public_transport" v="stop_position"/>
    <tag k="stop_ID" v="66206"/>
    <tag k="type" v="public_transport"/>
  </node>
</osm>
