<?xml version='1.0' encoding='UTF-8'?>
<osm version="0.6" generator="libosmium/2.20.0">
  <node id="2" version="1" timestamp="2007-10-04T18:28:37Z" uid="3451" user="sascha_silbe" changeset="34253" lat="50.1360074" lon="8.3023717">
    <tag k="is_in" v="Wiesbaden,Hessen,Germany,Europe"/>
    <tag k="name" v="Wiesbaden-Naurod"/>
    <tag k="place" v="village"/>
  </node>
  <node id="2" version="2" timestamp="2008-05-20T06:47:29Z" uid="28378" user="PHerison" changeset="484067" lat="50.1360088" lon="8.3023703">
    <tag k="created_by" v="Potlatch 0.9a"/>
    <tag k="is_in" v="Wiesbaden;Hessen,Germany,Europe"/>
    <tag k="name" v="Naurod"/>
    <tag k="place" v="village"/>
  </node>
  <node id="2" version="3" timestamp="2008-07-18T13:44:38Z" uid="40369" user="FrankE" changeset="530670" lat="50.1359504" lon="8.3013336">
    <tag k="created_by" v="Potlatch 0.10"/>
    <tag k="is_in" v="Wiesbaden;Hessen,Germany,Europe"/>
    <tag k="name" v="Naurod"/>
    <tag k="place" v="village"/>
  </node>
  <node id="2" version="4" timestamp="2008-07-25T15:54:39Z" uid="40369" user="FrankE" changeset="593416" lat="50.1359444" lon="8.3013034">
    <tag k="created_by" v="Potlatch 0.10"/>
    <tag k="is_in" v="Wiesbaden;Hessen,Germany,Europe"/>
    <tag k="name" v="Naurod"/>
    <tag k="place" v="village"/>
  </node>
  <node id="2" version="5" timestamp="2008-09-24T15:35:07Z" uid="3360" user="RalfZ" changeset="689456" lat="50.1359444" lon="8.3013034">
    <tag k="created_by" v="Potlatch 0.10"/>
    <tag k="is_in" v="Wiesbaden;Hessen,Germany,Europe"/>
    <tag k="name" v="Wiesbaden-Naurod"/>
    <tag k="place" v="village"/>
  </node>
  <node id="2" version="6" timestamp="2008-11-03T17:03:21Z" uid="76798" user="is_in-bot" changeset="665803" lat="50.1359444" lon="8.3013034">
    <tag k="created_by" v="is_in-bot"/>
    <tag k="is_in" v="Wiesbaden,Hessen,Bundesrepublik Deutschland,Europe"/>
    <tag k="name" v="Wiesbaden-Naurod"/>
    <tag k="place" v="village"/>
  </node>
  <node id="2" version="7" timestamp="2009-04-04T09:01:54Z" uid="113502" user="tacut" changeset="196013" lat="50.1247314" lon="14.4559349">
    <tag k="name" v="Metro C - Kobylisy"/>
    <tag k="railway" v="subway_entrance"/>
    <tag k="wheelchair" v="yes"/>
  </node>
  <node id="2" version="8" timestamp="2009-04-14T14:42:58Z" uid="5164" user="woodpeck" changeset="524633" lat="50.1359444" lon="8.3013034">
    <tag k="created_by" v="is_in-bot"/>
    <tag k="is_in" v="Wiesbaden,Hessen,Bundesrepublik Deutschland,Europe"/>
    <tag k="name" v="Wiesbaden-Naurod"/>
    <tag k="place" v="village"/>
  </node>
  <node id="2" version="9" timestamp="2009-08-13T19:47:00Z" uid="12494" user="Aleksandr Dezhin" changeset="2136011" lat="50.1359444" lon="8.3013034">
    <tag k="is_in" v="Wiesbaden,Hessen,Bundesrepublik Deutschland,Europe"/>
    <tag k="name" v="Wiesbaden-Naurod"/>
    <tag k="place" v="village"/>
  </node>
  <node id="2" version="10" timestamp="2009-10-17T15:45:45Z" uid="95779" user="uroesch" changeset="2875368" lat="50.1359444" lon="8.3013034">
    <tag k="is_in" v="Wiesbaden,Hessen,Bundesrepublik Deutschland,Europe"/>
    <tag k="name" v="Wiesbaden-Naurod"/>
    <tag k="place" v="village"/>
  </node>
  <node id="2" version="11" timestamp="2009-10-22T22:58:01Z" uid="95779" user="uroesch" changeset="2926051" lat="50.1359444" lon="8.3013034">
    <tag k="is_in" v="Wiesbaden,Hessen,Bundesrepublik Deutschland,Europe"/>
    <tag k="name" v="Wiesbaden-Naurod"/>
    <tag k="place" v="village"/>
  </node>
  <node id="2" version="12" timestamp="2009-10-28T08:48:57Z" uid="152289" user="cgu66" changeset="2971585" lat="50.1359444" lon="8.3013034">
    <tag k="is_in" v="Wiesbaden,Darmstadt,Hessen,Bundesrepublik Deutschland,Europe"/>
    <tag k="name" v="Wiesbaden-Naurod"/>
    <tag k="place" v="village"/>
  </node>
  <node id="2" version="13" timestamp="2010-05-02T14:42:09Z" uid="67792" user="UncleBob" changeset="4585831" lat="50.1359444" lon="8.3013034">
    <tag k="is_in" v="Wiesbaden,Darmstadt,Hessen,Bundesrepublik Deutschland,Europe"/>
    <tag k="name" v="Naurod"/>
    <tag k="place" v="suburb"/>
    <tag k="wikipedia" v="de:Wiesbaden-Naurod"/>
  </node>
  <node id="2" version="14" timestamp="2010-06-10T18:01:12Z" uid="67141" user="ligfietser" changeset="4956254" lat="50.1359444" lon="8.3013034">
    <tag k="is_in" v="Wiesbaden,Darmstadt,Hessen,Bundesrepublik Deutschland,Europe"/>
    <tag k="name" v="Naurod"/>
    <tag k="place" v="suburb"/>
    <tag k="wikipedia" v="de:Wiesbaden-Naurod"/>
  </node>
  <node id="2" version="15" timestamp="2011-11-15T14:23:35Z" uid="94578" user="andygol" changeset="9835007" lat="50.1360074" lon="8.3023717">
    <tag k="is_in" v="Wiesbaden,Hessen,Germany,Europe"/>
    <tag k="name" v="Wiesbaden-Naurod"/>
    <tag k="place" v="village"/>
  </node>
  <node id="2" version="16" timestamp="2011-11-23T18:03:37Z" uid="434767" user="tefal" changeset="9924106" lat="50.1360074" lon="8.3023717">
    <tag k="is_in" v="Wiesbaden,Hessen,Germany,Europe"/>
    <tag k="name" v="Wiesbaden-Naurod"/>
    <tag k="place" v="village"/>
  </node>
  <node id="2" version="17" timestamp="2011-11-27T22:21:08Z" uid="135562" user="Seetroll" changeset="9972783" lat="50.1360074" lon="8.3023717">
    <tag k="is_in" v="Wiesbaden,Hessen,Germany,Europe"/>
    <tag k="name" v="Wiesbaden-Naurod"/>
    <tag k="place" v="village"/>
  </node>
  <node id="2" version="18" timestamp="2012-01-25T22:53:33Z" uid="92274" user="adjuva" changeset="10498430" lat="50.1360074" lon="8.3023717">
    <tag k="is_in" v="Wiesbaden,Hessen,Bundesrepublik Deutschland,Europe"/>
    <tag k="name" v="Wiesbaden-Naurod"/>
    <tag k="place" v="village"/>
  </node>
  <node id="100" version="5" timestamp="2009-06-06T00:19:18Z" uid="20587" user="balrog-kun" changeset="1433919" lat="52.2531519" lon="20.9778386">
    <tag k="amenity" v="place_of_worship"/>
    <tag k="created_by" v="JOSM"/>
    <tag k="denomination" v="catholic"/>
    <tag k="name" v="Kościół Świętego Karola Boromeusza"/>
    <tag k="religion" v="christian"/>
    <tag k="source" v="knowledge"/>
    <tag k="source_ref" v="http://pl.wikipedia.org/wiki/Ko%C5%9Bci%C3%B3%C5%82_%C5%9Bw._Karola_Boromeusza_w_Warszawie_%28Pow%C4%85zki%29"/>
  </node>
</osm>
