<?xml version='1.0' encoding='UTF-8'?>
<osm version="0.6" generator="libosmium/2.20.0">
  <node id="1000852663" version="3" timestamp="2011-04-20T11:18:57Z" uid="115477" user="wowik" changeset="7915124" lat="55.7577898" lon="37.5827129">
    <tag k="addr:city" v="Москва"/>
    <tag k="addr:country" v="RU"/>
    <tag k="addr:housenumber" v="31"/>
    <tag k="addr:street" v="Новинский бульвар"/>
    <tag k="amenity" v="post_office"/>
    <tag k="atm" v="yes"/>
    <tag k="description" v="ТЦ Новинский Пассаж Тел.:+7 (495) 956-10-00"/>
    <tag k="name" v="DHL"/>
    <tag k="postal_code" v="123242"/>
  </node>
  <node id="1000852663" version="4" timestamp="2011-09-07T23:00:16Z" uid="126304" user="TarzanASG" changeset="9240906" lat="55.7577898" lon="37.5827129">
    <tag k="addr:city" v="Москва"/>
    <tag k="addr:country" v="RU"/>
    <tag k="addr:housenumber" v="31"/>
    <tag k="addr:street" v="Новинский бульвар"/>
    <tag k="amenity" v="post_office"/>
    <tag k="atm" v="yes"/>
    <tag k="description" v="ТЦ Новинский Пассаж Тел.:+7 (495) 956-10-00"/>
    <tag k="name" v="DHL"/>
    <tag k="postal_code" v="123242"/>
  </node>
  <node id="1000852663" version="5" timestamp="2011-12-11T21:06:47Z" uid="126304" user="TarzanASG" changeset="10094174" lat="55.7577898" lon="37.5827129">
    <tag k="addr:city" v="Москва"/>
    <tag k="addr:country" v="RU"/>
    <tag k="addr:housenumber" v="31"/>
    <tag k="addr:street" v="Новинский бульвар"/>
    <tag k="amenity" v="post_office"/>
    <tag k="atm" v="yes"/>
    <tag k="description" v="ТЦ Новинский Пассаж Тел.:+7 (495) 956-10-00"/>
    <tag k="name" v="DHL"/>
    <tag k="operator" v="DHL"/>
    <tag k="postal_code" v="123242"/>
    <tag k="website" v="http://www.dhl.com/"/>
  </node>
</osm>
