<?xml version='1.0' encoding='UTF-8'?>
<osm version="0.6" generator="libosmium/2.20.0">
  <node id="1001132585" version="1" timestamp="2010-11-23T18:06:45Z" uid="115477" user="wowik" changeset="6440035" lat="57.3495985" lon="37.0369381"/>
  <node id="1001132593" version="1" timestamp="2010-11-23T18:06:45Z" uid="115477" user="wowik" changeset="6440035" lat="57.3503596" lon="37.0103988">
    <tag k="name" v="Подберезье"/>
    <tag k="place" v="hamlet"/>
    <tag k="source" v="Менде"/>
  </node>
  <node id="1001132593" version="2" timestamp="2012-01-26T21:13:20Z" uid="384084" user="Kostik" changeset="10507299" lat="57.3503596" lon="37.0103988">
    <tag k="name" v="Подберезье"/>
    <tag k="place" v="hamlet"/>
    <tag k="source" v="Менде"/>
  </node>
  <node id="1001132604" version="1" timestamp="2010-11-23T18:06:45Z" uid="115477" user="wowik" changeset="6440035" lat="57.348776" lon="37.0248197"/>
  <node id="1001132606" version="1" timestamp="2010-11-23T18:06:45Z" uid="115477" user="wowik" changeset="6440035" lat="57.3480256" lon="37.0280589"/>
  <node id="1001132607" version="1" timestamp="2010-11-23T18:06:46Z" uid="115477" user="wowik" changeset="6440035" lat="57.3184407" lon="36.8793992">
    <tag k="name" v="Старово"/>
    <tag k="place" v="hamlet"/>
    <tag k="source" v="Менде"/>
  </node>
  <node id="1001132607" version="2" timestamp="2012-01-26T21:14:12Z" uid="384084" user="Kostik" changeset="10507299" lat="57.3184407" lon="36.8793992">
    <tag k="name" v="Старово"/>
    <tag k="place" v="hamlet"/>
    <tag k="source" v="Менде"/>
  </node>
  <node id="1001132608" version="1" timestamp="2010-11-23T18:06:46Z" uid="115477" user="wowik" changeset="6440035" lat="57.2949217" lon="36.8629612">
    <tag k="name" v="Подъелье"/>
    <tag k="place" v="hamlet"/>
    <tag k="source" v="Менде"/>
  </node>
  <node id="1001132608" version="2" timestamp="2012-01-26T21:13:22Z" uid="384084" user="Kostik" changeset="10507299" lat="57.2949217" lon="36.8629612">
    <tag k="name" v="Подъелье"/>
    <tag k="place" v="hamlet"/>
    <tag k="source" v="Менде"/>
  </node>
  <node id="1001132620" version="1" timestamp="2010-11-23T18:06:46Z" uid="115477" user="wowik" changeset="6440035" lat="57.3519422" lon="37.0272967"/>
  <node id="1001132623" version="1" timestamp="2010-11-23T18:06:46Z" uid="115477" user="wowik" changeset="6440035" lat="57.3448694" lon="37.0286686"/>
  <node id="1001132625" version="1" timestamp="2010-11-23T18:06:46Z" uid="115477" user="wowik" changeset="6440035" lat="57.3521581" lon="37.0378527"/>
  <node id="1001132627" version="1" timestamp="2010-11-23T18:06:46Z" uid="115477" user="wowik" changeset="6440035" lat="57.2829327" lon="36.8979049">
    <tag k="name" v="Поляна"/>
    <tag k="place" v="hamlet"/>
    <tag k="source" v="Менде"/>
  </node>
  <node id="1001132627" version="2" timestamp="2012-01-26T21:13:24Z" uid="384084" user="Kostik" changeset="10507299" lat="57.2829327" lon="36.8979049">
    <tag k="name" v="Поляна"/>
    <tag k="place" v="hamlet"/>
    <tag k="source" v="Менде"/>
  </node>
  <node id="1001132632" version="1" timestamp="2010-11-23T18:06:46Z" uid="115477" user="wowik" changeset="6440035" lat="57.3460003" lon="37.0332226"/>
  <node id="1001132633" version="1" timestamp="2010-11-23T18:06:46Z" uid="115477" user="wowik" changeset="6440035" lat="57.2981125" lon="36.8336596">
    <tag k="name" v="Петрово"/>
    <tag k="place" v="hamlet"/>
    <tag k="source" v="Менде"/>
  </node>
  <node id="1001132633" version="2" timestamp="2012-01-26T21:13:16Z" uid="384084" user="Kostik" changeset="10507299" lat="57.2981125" lon="36.8336596">
    <tag k="name" v="Петрово"/>
    <tag k="place" v="hamlet"/>
    <tag k="source" v="Менде"/>
  </node>
  <node id="1001132640" version="1" timestamp="2010-11-23T18:06:47Z" uid="115477" user="wowik" changeset="6440035" lat="57.3449516" lon="37.0318697"/>
  <node id="1001132642" version="1" timestamp="2010-11-23T18:06:47Z" uid="115477" user="wowik" changeset="6440035" lat="57.3849646" lon="37.077933">
    <tag k="name" v="Васиково"/>
    <tag k="place" v="hamlet"/>
    <tag k="source" v="Менде"/>
  </node>
  <node id="1001132642" version="2" timestamp="2011-01-14T17:44:08Z" uid="115477" user="wowik" changeset="6969443" lat="57.3849646" lon="37.077933">
    <tag k="name" v="Васиково"/>
    <tag k="place" v="locality"/>
    <tag k="source" v="Менде"/>
  </node>
  <node id="1001132642" version="3" timestamp="2012-01-26T21:10:12Z" uid="384084" user="Kostik" changeset="10507299" lat="57.3849646" lon="37.077933">
    <tag k="name" v="Васиково"/>
    <tag k="place" v="locality"/>
    <tag k="source" v="Менде"/>
  </node>
  <node id="1001132646" version="1" timestamp="2010-11-23T18:06:47Z" uid="115477" user="wowik" changeset="6440035" lat="57.2886619" lon="36.8106045">
    <tag k="name" v="Версино"/>
    <tag k="place" v="hamlet"/>
    <tag k="source" v="Менде"/>
  </node>
  <node id="1001132646" version="2" timestamp="2012-01-26T21:10:18Z" uid="384084" user="Kostik" changeset="10507299" lat="57.2886619" lon="36.8106045">
    <tag k="name" v="Версино"/>
    <tag k="place" v="hamlet"/>
    <tag k="source" v="Менде"/>
  </node>
  <node id="1001132649" version="1" timestamp="2010-11-23T18:06:47Z" uid="115477" user="wowik" changeset="6440035" lat="57.3502975" lon="37.0392246"/>
  <node id="1001132653" version="1" timestamp="2010-11-23T18:06:47Z" uid="115477" user="wowik" changeset="6440035" lat="57.3483443" lon="37.0333178"/>
  <node id="1001132662" version="1" timestamp="2010-11-23T18:06:47Z" uid="115477" user="wowik" changeset="6440035" lat="57.2981125" lon="36.8885149">
    <tag k="name" v="Вески"/>
    <tag k="place" v="hamlet"/>
    <tag k="source" v="Менде"/>
  </node>
  <node id="1001132662" version="2" timestamp="2011-11-25T21:03:51Z" uid="84567" user="Igor_blg" changeset="9948639" lat="57.2981125" lon="36.8885149">
    <tag k="name" v="Веска"/>
    <tag k="place" v="hamlet"/>
    <tag k="source" v="Менде"/>
  </node>
  <node id="1001132666" version="1" timestamp="2010-11-23T18:06:47Z" uid="115477" user="wowik" changeset="6440035" lat="57.3517983" lon="37.0392818"/>
  <node id="1001132667" version="1" timestamp="2010-11-23T18:06:47Z" uid="115477" user="wowik" changeset="6440035" lat="57.3254573" lon="37.013491"/>
  <node id="1001132668" version="1" timestamp="2010-11-23T18:06:47Z" uid="115477" user="wowik" changeset="6440035" lat="57.3809213" lon="37.0790378">
    <tag k="name" v="Власьево"/>
    <tag k="place" v="hamlet"/>
    <tag k="source" v="Менде"/>
  </node>
  <node id="1001132668" version="2" timestamp="2012-01-26T21:10:22Z" uid="384084" user="Kostik" changeset="10507299" lat="57.3809213" lon="37.0790378">
    <tag k="name" v="Власьево"/>
    <tag k="place" v="hamlet"/>
    <tag k="source" v="Менде"/>
  </node>
  <node id="1001132670" version="1" timestamp="2010-11-23T18:06:47Z" uid="115477" user="wowik" changeset="6440035" lat="57.3917133" lon="36.8812558">
    <tag k="name" v="Осипово"/>
    <tag k="place" v="hamlet"/>
    <tag k="source" v="Менде"/>
  </node>
  <node id="1001132670" version="2" timestamp="2012-01-26T21:13:06Z" uid="384084" user="Kostik" changeset="10507299" lat="57.3917133" lon="36.8812558">
    <tag k="name" v="Осипово"/>
    <tag k="place" v="hamlet"/>
    <tag k="source" v="Менде"/>
  </node>
  <node id="1001132675" version="1" timestamp="2010-11-23T18:06:47Z" uid="115477" user="wowik" changeset="6440035" lat="57.3500096" lon="37.0416445"/>
  <node id="1001132677" version="1" timestamp="2010-11-23T18:06:47Z" uid="115477" user="wowik" changeset="6440035" lat="57.3255066" lon="37.0143141"/>
  <node id="1001132680" version="1" timestamp="2010-11-23T18:06:48Z" uid="115477" user="wowik" changeset="6440035" lat="57.3499685" lon="37.0350899"/>
  <node id="1001132682" version="1" timestamp="2010-11-23T18:06:48Z" uid="115477" user="wowik" changeset="6440035" lat="57.3768615" lon="37.0520645">
    <tag k="name" v="Захаркино"/>
    <tag k="place" v="hamlet"/>
    <tag k="source" v="Менде"/>
  </node>
  <node id="1001132682" version="2" timestamp="2011-02-01T14:52:27Z" uid="115477" user="wowik" changeset="7155421" lat="57.3768615" lon="37.0520645">
    <tag k="name" v="Захарово"/>
    <tag k="old_name" v="Захаркино"/>
    <tag k="place" v="hamlet"/>
    <tag k="source" v="Менде"/>
  </node>
  <node id="1001132682" version="3" timestamp="2012-01-26T21:11:23Z" uid="384084" user="Kostik" changeset="10507299" lat="57.3768615" lon="37.0520645">
    <tag k="name" v="Захарово"/>
    <tag k="old_name" v="Захаркино"/>
    <tag k="place" v="hamlet"/>
    <tag k="source" v="Менде"/>
  </node>
  <node id="1001132685" version="1" timestamp="2010-11-23T18:06:48Z" uid="115477" user="wowik" changeset="6440035" lat="57.3877278" lon="37.0429787">
    <tag k="name" v="Чупрово"/>
    <tag k="place" v="hamlet"/>
    <tag k="source" v="Менде"/>
  </node>
  <node id="1001132685" version="2" timestamp="2012-01-26T21:15:05Z" uid="384084" user="Kostik" changeset="10507299" lat="57.3877278" lon="37.0429787">
    <tag k="name" v="Чупрово"/>
    <tag k="place" v="hamlet"/>
    <tag k="source" v="Менде"/>
  </node>
  <node id="1001132698" version="1" timestamp="2010-11-23T18:06:48Z" uid="115477" user="wowik" changeset="6440035" lat="57.3493415" lon="37.0405394"/>
  <node id="1001132700" version="1" timestamp="2010-11-23T18:06:48Z" uid="115477" user="wowik" changeset="6440035" lat="57.3507564" lon="37.038328">
    <tag k="name" v="Подселье"/>
    <tag k="place" v="hamlet"/>
    <tag k="source" v="Менде"/>
  </node>
  <node id="1001132700" version="2" timestamp="2012-01-26T21:13:22Z" uid="384084" user="Kostik" changeset="10507299" lat="57.3507564" lon="37.038328">
    <tag k="name" v="Подселье"/>
    <tag k="place" v="hamlet"/>
    <tag k="source" v="Менде"/>
  </node>
  <node id="1001134816" version="3" timestamp="2011-01-25T12:39:03Z" uid="115477" user="wowik" changeset="7083203" lat="55.8583672" lon="37.4452761"/>
  <node id="1001134817" version="2" timestamp="2011-01-25T12:39:07Z" uid="115477" user="wowik" changeset="7083203" lat="55.858273" lon="37.4453102"/>
  <node id="1001134818" version="2" timestamp="2011-01-25T12:39:11Z" uid="115477" user="wowik" changeset="7083203" lat="55.8582646" lon="37.4452368"/>
  <node id="1001134820" version="2" timestamp="2011-01-25T12:39:21Z" uid="115477" user="wowik" changeset="7083203" lat="55.8583588" lon="37.4452027"/>
  <node id="1001136838" version="2" timestamp="2011-01-25T12:39:18Z" uid="115477" user="wowik" changeset="7083203" lat="55.8583326" lon="37.4424909"/>
  <node id="1001136840" version="2" timestamp="2011-01-25T12:39:30Z" uid="115477" user="wowik" changeset="7083203" lat="55.8584229" lon="37.4432795"/>
  <node id="1001136841" version="2" timestamp="2011-01-25T12:39:03Z" uid="115477" user="wowik" changeset="7083203" lat="55.8583025" lon="37.4433278"/>
  <node id="1001136842" version="2" timestamp="2011-01-25T12:39:07Z" uid="115477" user="wowik" changeset="7083203" lat="55.8582151" lon="37.4425285"/>
  <node id="1001136858" version="2" timestamp="2011-01-25T12:39:24Z" uid="115477" user="wowik" changeset="7083203" lat="55.8582663" lon="37.4418847"/>
  <node id="1001136860" version="2" timestamp="2011-01-25T12:39:03Z" uid="115477" user="wowik" changeset="7083203" lat="55.8581489" lon="37.4419277"/>
</osm>
