<?xml version='1.0' encoding='UTF-8'?>
<osm version="0.6" generator="libosmium/2.20.0">
  <node id="101385255" version="3" timestamp="2008-08-23T23:45:16Z" uid="36809" user="pfoten_weg_!_" changeset="384601" lat="48.0981747" lon="11.5336759">
    <tag k="created_by" v="RambaZamba"/>
    <tag k="railway" v="subway_entrance"/>
  </node>
  <node id="101385255" version="4" timestamp="2008-10-01T01:27:38Z" uid="36809" user="pfoten_weg_!_" changeset="5644" lat="48.0981747" lon="11.5336759">
    <tag k="created_by" v="RambaZamba"/>
    <tag k="railway" v="subway_entrance"/>
  </node>
  <node id="101385255" version="5" timestamp="2009-01-02T17:59:49Z" uid="78442" user="jjKlaus" changeset="716029" lat="48.0981747" lon="11.5336759">
    <tag k="created_by" v="RambaZamba"/>
    <tag k="name" v="Obersendling"/>
    <tag k="railway" v="subway_entrance"/>
    <tag k="ref" v="U3"/>
  </node>
  <node id="101385255" version="6" timestamp="2009-03-06T22:58:23Z" uid="71041" user="TomRadfahrer" changeset="746179" lat="48.098216" lon="11.5338178">
    <tag k="name" v="Obersendling"/>
    <tag k="railway" v="subway_entrance"/>
    <tag k="ref" v="U3"/>
  </node>
  <node id="101385255" version="7" timestamp="2011-04-25T17:44:37Z" uid="71041" user="TomRadfahrer" changeset="7966289" lat="48.0981798" lon="11.5337529">
    <tag k="name" v="Obersendling"/>
    <tag k="railway" v="subway_entrance"/>
    <tag k="ref" v="U3"/>
  </node>
  <node id="101385258" version="2" timestamp="2008-08-23T23:45:17Z" uid="36809" user="pfoten_weg_!_" changeset="384601" lat="48.0982646" lon="11.533358">
    <tag k="created_by" v="RambaZamba"/>
  </node>
  <node id="101385258" version="3" timestamp="2008-10-01T01:27:38Z" uid="36809" user="pfoten_weg_!_" changeset="5644" lat="48.0982646" lon="11.533358">
    <tag k="created_by" v="RambaZamba"/>
  </node>
  <node id="101385258" version="4" timestamp="2009-02-15T13:03:05Z" uid="36809" user="pfoten_weg_!_" changeset="463903" lat="48.0982646" lon="11.533358">
    <tag k="created_by" v="RambaZamba"/>
    <tag k="source" v="survey"/>
  </node>
  <node id="101385258" version="5" timestamp="2009-03-06T22:58:23Z" uid="71041" user="TomRadfahrer" changeset="746179" lat="48.0982646" lon="11.533358">
    <tag k="created_by" v="RambaZamba"/>
    <tag k="source" v="survey"/>
  </node>
  <node id="101385263" version="3" timestamp="2008-08-23T23:45:17Z" uid="36809" user="pfoten_weg_!_" changeset="384601" lat="48.0983617" lon="11.5331535">
    <tag k="created_by" v="RambaZamba"/>
  </node>
  <node id="101385263" version="4" timestamp="2008-09-15T12:43:47Z" uid="36809" user="pfoten_weg_!_" changeset="638986" lat="48.0983617" lon="11.5331535">
    <tag k="created_by" v="RambaZamba"/>
    <tag k="source" v="survey "/>
  </node>
  <node id="101385263" version="5" timestamp="2008-09-16T05:59:55Z" uid="31231" user="Andre68" changeset="645611" lat="48.0983617" lon="11.5331535">
    <tag k="created_by" v="RambaZamba"/>
    <tag k="source" v="survey"/>
  </node>
  <node id="101385263" version="6" timestamp="2008-09-21T23:52:15Z" uid="36809" user="pfoten_weg_!_" changeset="678890" lat="48.0983617" lon="11.5331535">
    <tag k="created_by" v="RambaZamba"/>
    <tag k="source" v="survey"/>
  </node>
  <node id="101385263" version="7" timestamp="2008-10-01T01:27:38Z" uid="36809" user="pfoten_weg_!_" changeset="5644" lat="48.0983617" lon="11.5331535">
    <tag k="created_by" v="RambaZamba"/>
    <tag k="source" v="survey"/>
  </node>
  <node id="101385263" version="8" timestamp="2009-03-31T02:15:29Z" uid="5164" user="woodpeck" changeset="871977" lat="48.0983617" lon="11.5331535">
    <tag k="created_by" v="JOSM"/>
  </node>
  <node id="101385263" version="9" timestamp="2009-04-23T23:20:53Z" uid="36809" user="pfoten_weg_!_" changeset="920996" lat="48.0983617" lon="11.5331535">
    <tag k="created_by" v="JOSM"/>
  </node>
  <node id="101385263" version="10" timestamp="2009-06-08T11:56:38Z" uid="132988" user="ich-liebe-euch" changeset="1457959" lat="48.0983617" lon="11.5331535"/>
  <node id="101385263" version="11" timestamp="2009-09-01T10:25:33Z" uid="36809" user="pfoten_weg_!_" changeset="2335754" lat="48.0983617" lon="11.5331535"/>
  <node id="101385263" version="12" timestamp="2011-04-25T17:28:15Z" uid="71041" user="TomRadfahrer" changeset="7966289" lat="48.0983658" lon="11.5331005"/>
  <node id="101385263" version="13" timestamp="2011-04-25T17:44:37Z" uid="71041" user="TomRadfahrer" changeset="7966289" lat="48.0983083" lon="11.5330301"/>
  <node id="101386188" version="4" timestamp="2008-07-03T18:26:38Z" uid="6975" user="ulfl" changeset="379368" lat="47.3975933" lon="8.691435">
    <tag k="amenity" v="drinking_water"/>
  </node>
  <node id="101386188" version="5" timestamp="2011-07-22T17:32:46Z" uid="194843" user="feuerstein" changeset="8799690" lat="47.3975559" lon="8.6915235">
    <tag k="amenity" v="drinking_water"/>
  </node>
  <node id="101386320" version="7" timestamp="2008-10-23T05:07:33Z" uid="6975" user="ulfl" changeset="525020" lat="53.3408959" lon="-3.0038421">
    <tag k="amenity" v="veterinary"/>
    <tag k="name" v="Vet"/>
  </node>
  <node id="101386366" version="3" timestamp="2008-07-02T19:59:25Z" uid="6975" user="ulfl" changeset="369591" lat="53.3318821" lon="-2.9776497">
    <tag k="name" v="Muffs"/>
    <tag k="shop" v="butcher"/>
  </node>
  <node id="101386954" version="4" timestamp="2008-11-25T22:23:35Z" uid="6975" user="ulfl" changeset="792732" lat="53.3333711" lon="-2.9766539">
    <tag k="name" v="Matalan"/>
    <tag k="shop" v="general"/>
  </node>
  <node id="101388985" version="8" timestamp="2008-07-10T00:06:25Z" uid="6975" user="ulfl" changeset="448234" lat="53.3385866" lon="-2.9799857">
    <tag k="amenity" v="restaurant"/>
    <tag k="name" v="Mcdonalds"/>
  </node>
  <node id="101388985" version="9" timestamp="2009-11-15T01:39:11Z" uid="1185" user="dankarran" changeset="3118679" lat="53.3385866" lon="-2.9799857">
    <tag k="amenity" v="fast_food"/>
    <tag k="name" v="McDonald&apos;s"/>
  </node>
  <node id="101388985" version="10" timestamp="2010-08-06T16:44:39Z" uid="207745" user="NE2" changeset="5418228" lat="53.3385866" lon="-2.9799857">
    <tag k="amenity" v="fast_food"/>
    <tag k="cuisine" v="burger"/>
    <tag k="name" v="McDonald&apos;s"/>
  </node>
  <node id="101388985" version="11" timestamp="2011-12-29T18:05:50Z" uid="214310" user="rww100" changeset="10237985" lat="53.3385866" lon="-2.9799857"/>
</osm>
