<?xml version='1.0' encoding='UTF-8'?>
<osm version="0.6" generator="libosmium/2.20.0">
  <node id="1025634580" version="2" timestamp="2011-04-03T16:49:51Z" uid="4467" user="Rosscoe" changeset="7756305" lat="-34.9241596" lon="138.6370901"/>
  <node id="1025634592" version="2" timestamp="2011-04-03T16:48:00Z" uid="4467" user="Rosscoe" changeset="7756305" lat="-34.9169695" lon="138.6226855"/>
  <node id="1025634595" version="2" timestamp="2011-04-04T02:16:17Z" uid="4467" user="Rosscoe" changeset="7760538" lat="-34.9245014" lon="138.630317"/>
  <node id="1025634600" version="2" timestamp="2011-04-04T02:16:14Z" uid="4467" user="Rosscoe" changeset="7760538" lat="-34.9246469" lon="138.6275727"/>
  <node id="1025634608" version="2" timestamp="2011-04-03T16:49:12Z" uid="4467" user="Rosscoe" changeset="7756305" lat="-34.9241925" lon="138.6365646"/>
  <node id="1025634610" version="2" timestamp="2011-04-04T02:16:16Z" uid="4467" user="Rosscoe" changeset="7760538" lat="-34.92462" lon="138.628065"/>
  <node id="1025634612" version="2" timestamp="2011-04-04T02:16:05Z" uid="4467" user="Rosscoe" changeset="7760538" lat="-34.9243946" lon="138.6326116"/>
  <node id="1025634615" version="2" timestamp="2011-04-03T16:45:44Z" uid="4467" user="Rosscoe" changeset="7756305" lat="-34.9213101" lon="138.6318657"/>
  <node id="1025634627" version="2" timestamp="2011-04-04T02:16:11Z" uid="4467" user="Rosscoe" changeset="7760538" lat="-34.9244232" lon="138.632014"/>
  <node id="1025634645" version="2" timestamp="2011-04-03T16:49:09Z" uid="4467" user="Rosscoe" changeset="7756305" lat="-34.9243054" lon="138.6343538"/>
  <node id="1025634698" version="2" timestamp="2011-04-04T02:16:08Z" uid="4467" user="Rosscoe" changeset="7760538" lat="-34.9245752" lon="138.6289186"/>
  <node id="1025634707" version="2" timestamp="2011-04-03T16:48:31Z" uid="4467" user="Rosscoe" changeset="7756305" lat="-34.9240553" lon="138.6392333"/>
  <node id="1025634718" version="2" timestamp="2011-03-12T10:16:46Z" uid="4467" user="Rosscoe" changeset="7531438" lat="-34.9017254" lon="138.609233"/>
  <node id="1025634718" version="3" timestamp="2011-06-29T17:33:42Z" uid="238041" user="marquisite" changeset="8582944" lat="-34.9017358" lon="138.609252"/>
  <node id="1025634727" version="2" timestamp="2011-04-04T02:16:17Z" uid="4467" user="Rosscoe" changeset="7760538" lat="-34.9245296" lon="138.6297846"/>
  <node id="1025634738" version="2" timestamp="2011-03-12T10:16:43Z" uid="4467" user="Rosscoe" changeset="7531438" lat="-34.9029606" lon="138.6092247"/>
  <node id="1025634775" version="2" timestamp="2011-03-12T10:17:19Z" uid="4467" user="Rosscoe" changeset="7531438" lat="-34.9087838" lon="138.6125779">
    <tag k="highway" v="traffic_signals"/>
    <tag k="source" v="survey"/>
  </node>
  <node id="1025639897" version="1" timestamp="2010-12-06T22:58:25Z" uid="30632" user="antblant" changeset="6570002" lat="53.432682" lon="14.746013">
    <tag k="highway" v="bus_stop"/>
    <tag k="name" v="Ogrody Załomiak nż"/>
    <tag k="operator" v="Zarząd Dróg i Transportu Miejskiego"/>
    <tag k="ref" v="72311"/>
    <tag k="source" v="zditm"/>
    <tag k="website" v="http://zditm.szczecin.pl/rozklady/index.html"/>
  </node>
  <node id="1025639904" version="1" timestamp="2010-12-06T22:58:25Z" uid="30632" user="antblant" changeset="6570002" lat="53.3935326" lon="14.7114557"/>
  <node id="1025639907" version="1" timestamp="2010-12-06T22:58:25Z" uid="30632" user="antblant" changeset="6570002" lat="53.4183185" lon="14.7148369">
    <tag k="highway" v="bus_stop"/>
    <tag k="name" v="Kniewska"/>
    <tag k="operator" v="Zarząd Dróg i Transportu Miejskiego"/>
    <tag k="ref" v="71811"/>
    <tag k="source" v="zditm"/>
    <tag k="website" v="http://zditm.szczecin.pl/rozklady/index.html"/>
  </node>
  <node id="1025639911" version="1" timestamp="2010-12-06T22:58:25Z" uid="30632" user="antblant" changeset="6570002" lat="53.394123" lon="14.754113">
    <tag k="highway" v="bus_stop"/>
    <tag k="name" v="Radiostacja nż"/>
    <tag k="operator" v="Zarząd Dróg i Transportu Miejskiego"/>
    <tag k="ref" v="73112"/>
    <tag k="source" v="zditm"/>
    <tag k="website" v="http://zditm.szczecin.pl/rozklady/index.html"/>
  </node>
  <node id="1025639931" version="1" timestamp="2010-12-06T22:58:25Z" uid="30632" user="antblant" changeset="6570002" lat="53.3993381" lon="14.7729102"/>
  <node id="1025639934" version="1" timestamp="2010-12-06T22:58:25Z" uid="30632" user="antblant" changeset="6570002" lat="53.4183043" lon="14.7150677">
    <tag k="highway" v="bus_stop"/>
    <tag k="name" v="Kniewska"/>
    <tag k="operator" v="Zarząd Dróg i Transportu Miejskiego"/>
    <tag k="ref" v="71812"/>
    <tag k="source" v="zditm"/>
    <tag k="website" v="http://zditm.szczecin.pl/rozklady/index.html"/>
  </node>
  <node id="1025639939" version="1" timestamp="2010-12-06T22:58:26Z" uid="30632" user="antblant" changeset="6570002" lat="53.358173" lon="14.744511">
    <tag k="highway" v="bus_stop"/>
    <tag k="name" v="Płonia"/>
    <tag k="operator" v="Zarząd Dróg i Transportu Miejskiego"/>
    <tag k="ref" v="81212"/>
    <tag k="source" v="zditm"/>
    <tag k="website" v="http://zditm.szczecin.pl/rozklady/index.html"/>
  </node>
  <node id="1025639940" version="1" timestamp="2010-12-06T22:58:26Z" uid="30632" user="antblant" changeset="6570002" lat="53.391212" lon="14.765239">
    <tag k="highway" v="bus_stop"/>
    <tag k="name" v="Bałtycka"/>
    <tag k="operator" v="Zarząd Dróg i Transportu Miejskiego"/>
    <tag k="ref" v="73311"/>
    <tag k="source" v="zditm"/>
    <tag k="website" v="http://zditm.szczecin.pl/rozklady/index.html"/>
  </node>
  <node id="1025639941" version="1" timestamp="2010-12-06T22:58:26Z" uid="30632" user="antblant" changeset="6570002" lat="53.383739" lon="14.765239">
    <tag k="highway" v="bus_stop"/>
    <tag k="name" v="Wielgowo"/>
    <tag k="operator" v="Zarząd Dróg i Transportu Miejskiego"/>
    <tag k="ref" v="73511"/>
    <tag k="source" v="zditm"/>
    <tag k="website" v="http://zditm.szczecin.pl/rozklady/index.html"/>
  </node>
  <node id="1025639961" version="1" timestamp="2010-12-06T22:58:26Z" uid="30632" user="antblant" changeset="6570002" lat="53.426907" lon="14.738814">
    <tag k="highway" v="bus_stop"/>
    <tag k="name" v="Załom Fabryka"/>
    <tag k="operator" v="Zarząd Dróg i Transportu Miejskiego"/>
    <tag k="ref" v="72111"/>
    <tag k="source" v="zditm"/>
    <tag k="website" v="http://zditm.szczecin.pl/rozklady/index.html"/>
  </node>
  <node id="1025639964" version="1" timestamp="2010-12-06T22:58:26Z" uid="30632" user="antblant" changeset="6570002" lat="53.3770682" lon="14.7432019">
    <tag k="highway" v="bus_stop"/>
    <tag k="name" v="Stary Szlak nż"/>
    <tag k="operator" v="Zarząd Dróg i Transportu Miejskiego"/>
    <tag k="ref" v="74111"/>
    <tag k="source" v="zditm"/>
    <tag k="website" v="http://zditm.szczecin.pl/rozklady/index.html"/>
  </node>
  <node id="1025639966" version="1" timestamp="2010-12-06T22:58:26Z" uid="30632" user="antblant" changeset="6570002" lat="53.399136" lon="14.772819">
    <tag k="highway" v="bus_stop"/>
    <tag k="name" v="Wielgowo Borsucza"/>
    <tag k="operator" v="Zarząd Dróg i Transportu Miejskiego"/>
    <tag k="ref" v="74511"/>
    <tag k="source" v="zditm"/>
    <tag k="website" v="http://zditm.szczecin.pl/rozklady/index.html"/>
  </node>
  <node id="1025639986" version="1" timestamp="2010-12-06T22:58:26Z" uid="30632" user="antblant" changeset="6570002" lat="53.412888" lon="14.713579">
    <tag k="highway" v="bus_stop"/>
    <tag k="name" v="Stacja Doświadczalna"/>
    <tag k="operator" v="Zarząd Dróg i Transportu Miejskiego"/>
    <tag k="ref" v="71611"/>
    <tag k="source" v="zditm"/>
    <tag k="website" v="http://zditm.szczecin.pl/rozklady/index.html"/>
  </node>
  <node id="1025639992" version="1" timestamp="2010-12-06T22:58:26Z" uid="30632" user="antblant" changeset="6570002" lat="53.3430268" lon="14.7684626">
    <tag k="highway" v="bus_stop"/>
    <tag k="name" v="Topolowa"/>
    <tag k="operator" v="Zarząd Dróg i Transportu Miejskiego"/>
    <tag k="ref" v="81812"/>
    <tag k="source" v="zditm"/>
    <tag k="website" v="http://zditm.szczecin.pl/rozklady/index.html"/>
  </node>
  <node id="1025639996" version="1" timestamp="2010-12-06T22:58:27Z" uid="30632" user="antblant" changeset="6570002" lat="53.362915" lon="14.739865">
    <tag k="highway" v="bus_stop"/>
    <tag k="name" v="Balińskiego nż"/>
    <tag k="operator" v="Zarząd Dróg i Transportu Miejskiego"/>
    <tag k="ref" v="81011"/>
    <tag k="source" v="zditm"/>
    <tag k="website" v="http://zditm.szczecin.pl/rozklady/index.html"/>
  </node>
</osm>
