<?xml version='1.0' encoding='UTF-8'?>
<osm version="0.6" generator="libosmium/2.20.0">
  <node id="102571362" version="3" timestamp="2008-07-06T09:06:09Z" uid="6975" user="ulfl" changeset="407266" lat="48.2633127" lon="18.4551178">
    <tag k="name" v="Jadrová elektráreň Mochovce"/>
    <tag k="power" v="generator"/>
    <tag k="power_source" v="nuclear"/>
  </node>
  <node id="102571362" version="4" timestamp="2008-09-30T13:43:17Z" uid="12292" user="Vlado" changeset="721204" lat="48.2633127" lon="18.4551178">
    <tag k="man_made" v="power_nuclear"/>
    <tag k="name" v="Jadrová elektráreň Mochovce"/>
    <tag k="power" v="generator"/>
    <tag k="power_source" v="nuclear"/>
  </node>
  <node id="102571362" version="5" timestamp="2008-09-30T13:43:59Z" uid="12292" user="Vlado" changeset="721204" lat="48.2633127" lon="18.4551178">
    <tag k="man_made" v="power_nuclear"/>
    <tag k="name" v="Jadrová elektráreň Mochovce"/>
    <tag k="power" v="generator"/>
  </node>
  <node id="102571362" version="6" timestamp="2008-09-30T14:22:05Z" uid="12292" user="Vlado" changeset="721204" lat="48.2633127" lon="18.4551178">
    <tag k="man_made" v="power_nuclear"/>
    <tag k="name" v="Jadrová elektráreň Mochovce"/>
    <tag k="power" v="generator"/>
    <tag k="power_source" v="nuclear"/>
  </node>
  <node id="102571362" version="7" timestamp="2008-10-23T18:36:48Z" uid="6975" user="ulfl" changeset="530870" lat="48.2633127" lon="18.4551178">
    <tag k="name" v="Jadrová elektráreň Mochovce"/>
    <tag k="power" v="generator"/>
    <tag k="power_source" v="nuclear"/>
  </node>
  <node id="102571362" version="8" timestamp="2011-04-13T06:45:48Z" uid="6475" user="NiCK_n17" changeset="7849051" lat="48.2633127" lon="18.4551178">
    <tag k="generator:source" v="nuclear"/>
    <tag k="name" v="Jadrová elektráreň Mochovce"/>
    <tag k="power" v="generator"/>
  </node>
  <node id="102574645" version="2" timestamp="2008-07-08T19:43:26Z" uid="6975" user="ulfl" changeset="431192" lat="45.4459989" lon="-73.814513">
    <tag k="name" v="Plaza Pointe-Claire"/>
    <tag k="shop" v="shopping_center"/>
  </node>
  <node id="102574645" version="3" timestamp="2010-09-20T22:52:36Z" uid="65148" user="Pirat Michi" changeset="5833636" lat="45.4459989" lon="-73.814513">
    <tag k="name" v="Plaza Pointe-Claire"/>
    <tag k="shop" v="mall"/>
  </node>
  <node id="102579336" version="8" timestamp="2010-07-12T03:00:49Z" uid="4467" user="Rosscoe" changeset="5195509" lat="-34.9317243" lon="138.5691787"/>
  <node id="102579336" version="9" timestamp="2010-07-22T05:36:54Z" uid="225080" user="ctreb" changeset="5284157" lat="-34.931725" lon="138.5691682"/>
  <node id="102579429" version="12" timestamp="2011-03-18T15:41:24Z" uid="4467" user="Rosscoe" changeset="7596453" lat="-34.9313457" lon="138.5702436"/>
  <node id="102579429" version="13" timestamp="2011-07-29T02:20:51Z" uid="238041" user="marquisite" changeset="8859885" lat="-34.9313816" lon="138.570244"/>
  <node id="102579661" version="5" timestamp="2008-07-03T15:53:14Z" uid="6975" user="ulfl" changeset="378199" lat="-34.9311708" lon="138.5700612">
    <tag k="is_in" v="Hilton,South Australia,Australia"/>
    <tag k="name" v="Hilton Hotel Bottle Shop"/>
    <tag k="postal_code" v="5033"/>
    <tag k="shop" v="beverages"/>
  </node>
  <node id="102579661" version="6" timestamp="2008-07-10T16:25:13Z" uid="17425" user="jackb" changeset="453573" lat="-34.9311708" lon="138.5700612">
    <tag k="is_in" v="Hilton,South Australia,Australia"/>
    <tag k="name" v="Hilton Hotel Bottle Shop"/>
    <tag k="postal_code" v="5033"/>
    <tag k="shop" v="bottle_shop"/>
  </node>
  <node id="102579661" version="7" timestamp="2008-07-10T21:06:58Z" uid="6975" user="ulfl" changeset="457552" lat="-34.9311708" lon="138.5700612">
    <tag k="is_in" v="Hilton,South Australia,Australia"/>
    <tag k="name" v="Hilton Hotel Bottle Shop"/>
    <tag k="postal_code" v="5033"/>
    <tag k="shop" v="beverages"/>
  </node>
  <node id="102579661" version="8" timestamp="2008-07-20T17:56:33Z" uid="17425" user="jackb" changeset="551823" lat="-34.9311708" lon="138.5700612">
    <tag k="is_in" v="Hilton,South Australia,Australia"/>
    <tag k="name" v="Hilton Hotel Bottle Shop"/>
    <tag k="postal_code" v="5033"/>
    <tag k="shop" v="bottle_shop"/>
  </node>
  <node id="102579661" version="9" timestamp="2008-09-14T16:30:20Z" uid="6975" user="ulfl" changeset="640534" lat="-34.9311708" lon="138.5700612">
    <tag k="is_in" v="Hilton,South Australia,Australia"/>
    <tag k="name" v="Hilton Hotel Bottle Shop"/>
    <tag k="postal_code" v="5033"/>
    <tag k="shop" v="beverages"/>
  </node>
  <node id="102579661" version="10" timestamp="2008-12-21T00:08:41Z" uid="17425" user="jackb" changeset="510960" lat="-34.9311708" lon="138.5700612">
    <tag k="is_in" v="Hilton,South Australia,Australia"/>
    <tag k="name" v="Hilton Hotel Bottle Shop"/>
    <tag k="postal_code" v="5033"/>
    <tag k="shop" v="bottle_shop"/>
  </node>
  <node id="102579661" version="11" timestamp="2008-12-21T00:10:20Z" uid="17425" user="jackb" changeset="510960" lat="-34.9311708" lon="138.5700612">
    <tag k="is_in" v="Hilton,South Australia,Australia"/>
    <tag k="name" v="Hilton Hotel Bottle Shop"/>
    <tag k="postal_code" v="5033"/>
    <tag k="shop" v="bottle_shop"/>
    <tag k="source" v="survey"/>
  </node>
  <node id="102579661" version="12" timestamp="2009-01-01T14:20:42Z" uid="6975" user="ulfl" changeset="699648" lat="-34.9311708" lon="138.5700612">
    <tag k="is_in" v="Hilton,South Australia,Australia"/>
    <tag k="name" v="Hilton Hotel Bottle Shop"/>
    <tag k="postal_code" v="5033"/>
    <tag k="shop" v="beverages"/>
    <tag k="source" v="survey"/>
  </node>
  <node id="102579661" version="13" timestamp="2009-01-03T15:40:03Z" uid="17425" user="jackb" changeset="723041" lat="-34.9311708" lon="138.5700612">
    <tag k="is_in" v="Hilton,South Australia,Australia"/>
    <tag k="name" v="Hilton Hotel Bottle Shop"/>
    <tag k="postal_code" v="5033"/>
    <tag k="shop" v="bottle_shop"/>
    <tag k="source" v="survey"/>
  </node>
  <node id="102579661" version="14" timestamp="2009-02-01T19:08:20Z" uid="6975" user="ulfl" changeset="27333" lat="-34.9311708" lon="138.5700612">
    <tag k="is_in" v="Hilton,South Australia,Australia"/>
    <tag k="name" v="Hilton Hotel Bottle Shop"/>
    <tag k="postal_code" v="5033"/>
    <tag k="shop" v="beverages"/>
    <tag k="source" v="survey"/>
  </node>
  <node id="102579661" version="15" timestamp="2009-07-29T02:39:41Z" uid="17425" user="jackb" changeset="1971399" lat="-34.9311708" lon="138.5700612">
    <tag k="is_in" v="Hilton,South Australia,Australia"/>
    <tag k="name" v="Hilton Hotel Bottle Shop"/>
    <tag k="postal_code" v="5033"/>
    <tag k="shop" v="alcohol"/>
    <tag k="source" v="survey"/>
  </node>
</osm>
