<?xml version='1.0' encoding='UTF-8'?>
<osm version="0.6" generator="libosmium/2.20.0">
  <node id="102643394" version="3" timestamp="2008-02-16T19:31:18Z" uid="6975" user="ulfl" changeset="141861" lat="52.5010839" lon="13.2921797">
    <tag k="name" v="Plus"/>
    <tag k="shop" v="supermarket"/>
  </node>
  <node id="102643394" version="4" timestamp="2009-07-26T20:21:35Z" uid="6669" user="Elwood" changeset="1949431" lat="52.5010839" lon="13.2921797">
    <tag k="name" v="Netto"/>
    <tag k="shop" v="supermarket"/>
  </node>
  <node id="102643394" version="5" timestamp="2009-10-25T08:34:45Z" uid="6669" user="Elwood" changeset="2943587" lat="52.5010839" lon="13.2921797">
    <tag k="name" v="Netto Marken-Discount"/>
    <tag k="shop" v="supermarket"/>
  </node>
  <node id="102643394" version="6" timestamp="2009-11-09T18:09:39Z" uid="6669" user="Elwood" changeset="3075792" lat="52.5010839" lon="13.2921797">
    <tag k="addr:city" v="Berlin"/>
    <tag k="addr:country" v="DE"/>
    <tag k="addr:housenumber" v="19"/>
    <tag k="addr:postcode" v="10711"/>
    <tag k="addr:street" v="Heilbronner Straße"/>
    <tag k="name" v="Netto Marken-Discount"/>
    <tag k="shop" v="supermarket"/>
  </node>
  <node id="102643394" version="7" timestamp="2011-09-23T07:42:41Z" uid="290680" user="wheelmap_visitor" changeset="9373820" lat="52.5010839" lon="13.2921797">
    <tag k="addr:city" v="Berlin"/>
    <tag k="addr:country" v="DE"/>
    <tag k="addr:housenumber" v="19"/>
    <tag k="addr:postcode" v="10711"/>
    <tag k="addr:street" v="Heilbronner Straße"/>
    <tag k="name" v="Netto Marken-Discount"/>
    <tag k="shop" v="supermarket"/>
    <tag k="wheelchair" v="yes"/>
  </node>
  <node id="102643398" version="2" timestamp="2008-02-16T19:31:18Z" uid="6975" user="ulfl" changeset="141861" lat="52.5008886" lon="13.2934582">
    <tag k="name" v="Reichelt"/>
    <tag k="shop" v="supermarket"/>
  </node>
  <node id="102643398" version="3" timestamp="2009-06-25T20:18:45Z" uid="59819" user="Fuss-im-Ohr" changeset="1626217" lat="52.5008886" lon="13.2934582">
    <tag k="name" v="Edeka"/>
    <tag k="operator" v="Reichelt"/>
    <tag k="shop" v="supermarket"/>
  </node>
  <node id="102643398" version="4" timestamp="2009-11-09T18:09:40Z" uid="6669" user="Elwood" changeset="3075792" lat="52.5008886" lon="13.2934582">
    <tag k="addr:city" v="Berlin"/>
    <tag k="addr:country" v="DE"/>
    <tag k="addr:housenumber" v="9"/>
    <tag k="addr:postcode" v="10711"/>
    <tag k="addr:street" v="Heilbronner Straße"/>
    <tag k="name" v="Edeka"/>
    <tag k="operator" v="Reichelt"/>
    <tag k="shop" v="supermarket"/>
  </node>
  <node id="102643398" version="5" timestamp="2011-01-02T17:23:06Z" uid="290680" user="wheelmap_visitor" changeset="6840016" lat="52.5008886" lon="13.2934582">
    <tag k="addr:city" v="Berlin"/>
    <tag k="addr:country" v="DE"/>
    <tag k="addr:housenumber" v="9"/>
    <tag k="addr:postcode" v="10711"/>
    <tag k="addr:street" v="Heilbronner Straße"/>
    <tag k="name" v="Edeka"/>
    <tag k="operator" v="Reichelt"/>
    <tag k="shop" v="supermarket"/>
    <tag k="wheelchair" v="yes"/>
  </node>
  <node id="102643398" version="6" timestamp="2011-07-19T14:00:53Z" uid="217483" user="lokk77" changeset="8768817" lat="52.5010933" lon="13.293507">
    <tag k="addr:city" v="Berlin"/>
    <tag k="addr:country" v="DE"/>
    <tag k="addr:housenumber" v="9"/>
    <tag k="addr:postcode" v="10711"/>
    <tag k="addr:street" v="Heilbronner Straße"/>
    <tag k="name" v="Reichelt"/>
    <tag k="operator" v="EDEKA"/>
    <tag k="shop" v="supermarket"/>
    <tag k="wheelchair" v="yes"/>
  </node>
  <node id="102643402" version="2" timestamp="2008-02-16T19:31:18Z" uid="6975" user="ulfl" changeset="141861" lat="52.5028156" lon="13.2979352">
    <tag k="name" v="Lidl"/>
    <tag k="shop" v="supermarket"/>
  </node>
  <node id="102643402" version="3" timestamp="2008-11-15T22:45:07Z" uid="74224" user="gkai" changeset="754450" lat="52.5029604" lon="13.2985306">
    <tag k="created_by" v="Potlatch 0.10f"/>
    <tag k="name" v="Lidl"/>
    <tag k="shop" v="supermarket"/>
  </node>
  <node id="102643402" version="4" timestamp="2011-02-15T19:00:03Z" uid="290680" user="wheelmap_visitor" changeset="7293585" lat="52.5029604" lon="13.2985306">
    <tag k="created_by" v="Potlatch 0.10f"/>
    <tag k="name" v="Lidl"/>
    <tag k="shop" v="supermarket"/>
    <tag k="wheelchair" v="yes"/>
  </node>
  <node id="102643402" version="5" timestamp="2011-03-27T13:37:22Z" uid="22684" user="Mr_Israel" changeset="7686173" lat="52.5029604" lon="13.2985306">
    <tag k="created_by" v="Potlatch 0.10f"/>
    <tag k="name" v="Lidl"/>
    <tag k="opening_hours" v="mo - sa : 8 bis 22.00 uhr"/>
    <tag k="shop" v="supermarket"/>
    <tag k="wheelchair" v="yes"/>
  </node>
  <node id="102643402" version="6" timestamp="2011-03-27T15:38:55Z" uid="22684" user="Mr_Israel" changeset="7687319" lat="52.5029604" lon="13.2985306">
    <tag k="name" v="Lidl"/>
    <tag k="opening_hours" v="mo - sa : 8 bis 22.00 uhr"/>
    <tag k="shop" v="supermarket"/>
    <tag k="wheelchair" v="yes"/>
  </node>
  <node id="102643402" version="7" timestamp="2011-04-07T13:18:07Z" uid="89943" user="Bengatzer" changeset="7794590" lat="52.5029604" lon="13.2985306">
    <tag k="name" v="Lidl"/>
    <tag k="opening_hours" v="Mo-Sa 08:00-22:00"/>
    <tag k="shop" v="supermarket"/>
    <tag k="wheelchair" v="yes"/>
  </node>
</osm>
