<?xml version='1.0' encoding='UTF-8'?>
<osm version="0.6" generator="libosmium/2.20.0">
  <node id="1026095350" version="1" timestamp="2010-12-07T09:23:41Z" uid="30632" user="antblant" changeset="6572444" lat="53.363831" lon="14.597783">
    <tag k="highway" v="bus_stop"/>
    <tag k="name" v="Floriana Szarego"/>
    <tag k="operator" v="Zarząd Dróg i Transportu Miejskiego"/>
    <tag k="ref" v="83711"/>
    <tag k="source" v="zditm"/>
    <tag k="website" v="http://zditm.szczecin.pl/rozklady/index.html"/>
  </node>
  <node id="1026095361" version="1" timestamp="2010-12-07T09:23:41Z" uid="30632" user="antblant" changeset="6572444" lat="53.387539" lon="14.51523">
    <tag k="highway" v="bus_stop"/>
    <tag k="name" v="Ustowska nż"/>
    <tag k="operator" v="Zarząd Dróg i Transportu Miejskiego"/>
    <tag k="ref" v="25121"/>
    <tag k="source" v="zditm"/>
    <tag k="website" v="http://zditm.szczecin.pl/rozklady/index.html"/>
  </node>
  <node id="1026095361" version="2" timestamp="2012-02-15T18:29:59Z" uid="603523" user="diverpl" changeset="10694968" lat="53.3875022" lon="14.515325">
    <tag k="highway" v="bus_stop"/>
    <tag k="name" v="Ustowska nż"/>
    <tag k="operator" v="Zarząd Dróg i Transportu Miejskiego"/>
    <tag k="ref" v="25121"/>
    <tag k="source" v="zditm"/>
    <tag k="website" v="http://zditm.szczecin.pl/rozklady/index.html"/>
  </node>
  <node id="1026095361" version="3" timestamp="2012-02-15T21:32:16Z" uid="603523" user="diverpl" changeset="10696753" lat="53.387539" lon="14.51523">
    <tag k="highway" v="bus_stop"/>
    <tag k="name" v="Ustowska nż"/>
    <tag k="operator" v="Zarząd Dróg i Transportu Miejskiego"/>
    <tag k="ref" v="25121"/>
    <tag k="source" v="zditm"/>
    <tag k="website" v="http://zditm.szczecin.pl/rozklady/index.html"/>
  </node>
  <node id="1026095361" version="4" timestamp="2012-02-18T19:08:26Z" uid="603523" user="diverpl" changeset="10723216" lat="53.3874865" lon="14.5153672">
    <tag k="highway" v="bus_stop"/>
    <tag k="name" v="Ustowska nż"/>
    <tag k="operator" v="Zarząd Dróg i Transportu Miejskiego"/>
    <tag k="ref" v="25121"/>
    <tag k="source" v="zditm"/>
    <tag k="website" v="http://zditm.szczecin.pl/rozklady/index.html"/>
  </node>
  <node id="1026095372" version="1" timestamp="2010-12-07T09:23:42Z" uid="30632" user="antblant" changeset="6572444" lat="53.38649" lon="14.456398">
    <tag k="highway" v="bus_stop"/>
    <tag k="name" v="Warzymice 14 nż"/>
    <tag k="operator" v="Zarząd Dróg i Transportu Miejskiego"/>
    <tag k="ref" v="27012"/>
    <tag k="source" v="zditm"/>
    <tag k="website" v="http://zditm.szczecin.pl/rozklady/index.html"/>
  </node>
  <node id="1026095372" version="2" timestamp="2012-02-22T22:39:10Z" uid="603523" user="diverpl" changeset="10764172" lat="53.3864739" lon="14.4564495">
    <tag k="highway" v="bus_stop"/>
    <tag k="name" v="Warzymice 14 nż"/>
    <tag k="operator" v="Zarząd Dróg i Transportu Miejskiego"/>
    <tag k="ref" v="27012"/>
    <tag k="source" v="zditm"/>
    <tag k="website" v="http://zditm.szczecin.pl/rozklady/index.html"/>
  </node>
  <node id="1026095379" version="1" timestamp="2010-12-07T09:23:42Z" uid="30632" user="antblant" changeset="6572444" lat="53.340168" lon="14.552765">
    <tag k="highway" v="bus_stop"/>
    <tag k="name" v="Kluczborska nż"/>
    <tag k="operator" v="Zarząd Dróg i Transportu Miejskiego"/>
    <tag k="ref" v="83411"/>
    <tag k="source" v="zditm"/>
    <tag k="website" v="http://zditm.szczecin.pl/rozklady/index.html"/>
  </node>
  <node id="1026095388" version="1" timestamp="2010-12-07T09:23:42Z" uid="30632" user="antblant" changeset="6572444" lat="53.3791711" lon="14.5451106">
    <tag k="highway" v="bus_stop"/>
    <tag k="name" v="Dziewoklicz nż"/>
    <tag k="operator" v="Zarząd Dróg i Transportu Miejskiego"/>
    <tag k="ref" v="62411"/>
    <tag k="source" v="zditm"/>
    <tag k="website" v="http://zditm.szczecin.pl/rozklady/index.html"/>
  </node>
  <node id="1026095388" version="2" timestamp="2012-02-15T18:29:49Z" uid="603523" user="diverpl" changeset="10694968" lat="53.3791088" lon="14.545246">
    <tag k="highway" v="bus_stop"/>
    <tag k="name" v="Dziewoklicz nż"/>
    <tag k="operator" v="Zarząd Dróg i Transportu Miejskiego"/>
    <tag k="ref" v="62411"/>
    <tag k="source" v="zditm"/>
    <tag k="website" v="http://zditm.szczecin.pl/rozklady/index.html"/>
  </node>
  <node id="1026095388" version="3" timestamp="2012-02-15T21:32:08Z" uid="603523" user="diverpl" changeset="10696753" lat="53.3791711" lon="14.5451106">
    <tag k="highway" v="bus_stop"/>
    <tag k="name" v="Dziewoklicz nż"/>
    <tag k="operator" v="Zarząd Dróg i Transportu Miejskiego"/>
    <tag k="ref" v="62411"/>
    <tag k="source" v="zditm"/>
    <tag k="website" v="http://zditm.szczecin.pl/rozklady/index.html"/>
  </node>
  <node id="1026095388" version="4" timestamp="2012-02-18T19:08:22Z" uid="603523" user="diverpl" changeset="10723216" lat="53.3790938" lon="14.5452124">
    <tag k="highway" v="bus_stop"/>
    <tag k="name" v="Dziewoklicz nż"/>
    <tag k="operator" v="Zarząd Dróg i Transportu Miejskiego"/>
    <tag k="ref" v="62411"/>
    <tag k="source" v="zditm"/>
    <tag k="website" v="http://zditm.szczecin.pl/rozklady/index.html"/>
  </node>
  <node id="1026095403" version="1" timestamp="2010-12-07T09:23:43Z" uid="30632" user="antblant" changeset="6572444" lat="53.367626" lon="14.595605">
    <tag k="highway" v="bus_stop"/>
    <tag k="name" v="Podjuchy Pętla"/>
    <tag k="operator" v="Zarząd Dróg i Transportu Miejskiego"/>
    <tag k="ref" v="82514"/>
    <tag k="source" v="zditm"/>
    <tag k="website" v="http://zditm.szczecin.pl/rozklady/index.html"/>
  </node>
  <node id="1026095403" version="2" timestamp="2012-02-15T18:29:55Z" uid="603523" user="diverpl" changeset="10694968" lat="53.3676204" lon="14.5955699">
    <tag k="highway" v="bus_stop"/>
    <tag k="name" v="Podjuchy Pętla"/>
    <tag k="operator" v="Zarząd Dróg i Transportu Miejskiego"/>
    <tag k="ref" v="82514"/>
    <tag k="source" v="zditm"/>
    <tag k="website" v="http://zditm.szczecin.pl/rozklady/index.html"/>
  </node>
  <node id="1026095403" version="3" timestamp="2012-02-15T21:32:13Z" uid="603523" user="diverpl" changeset="10696753" lat="53.367626" lon="14.595605">
    <tag k="highway" v="bus_stop"/>
    <tag k="name" v="Podjuchy Pętla"/>
    <tag k="operator" v="Zarząd Dróg i Transportu Miejskiego"/>
    <tag k="ref" v="82514"/>
    <tag k="source" v="zditm"/>
    <tag k="website" v="http://zditm.szczecin.pl/rozklady/index.html"/>
  </node>
  <node id="1026095415" version="1" timestamp="2010-12-07T09:23:43Z" uid="30632" user="antblant" changeset="6572444" lat="53.386578" lon="14.482266">
    <tag k="highway" v="bus_stop"/>
    <tag k="name" v="Warzymice Osiedle Kresy"/>
    <tag k="operator" v="Zarząd Dróg i Transportu Miejskiego"/>
    <tag k="ref" v="24212"/>
    <tag k="source" v="zditm"/>
    <tag k="website" v="http://zditm.szczecin.pl/rozklady/index.html"/>
  </node>
  <node id="1026095415" version="2" timestamp="2012-02-21T19:25:01Z" uid="603523" user="diverpl" changeset="10752538" lat="53.3866179" lon="14.4822857">
    <tag k="highway" v="bus_stop"/>
    <tag k="name" v="Warzymice Osiedle Kresy"/>
    <tag k="operator" v="Zarząd Dróg i Transportu Miejskiego"/>
    <tag k="ref" v="24212"/>
    <tag k="source" v="zditm"/>
    <tag k="website" v="http://zditm.szczecin.pl/rozklady/index.html"/>
  </node>
  <node id="1026095429" version="1" timestamp="2010-12-07T09:23:43Z" uid="30632" user="antblant" changeset="6572444" lat="53.335613" lon="14.439179">
    <tag k="highway" v="bus_stop"/>
    <tag k="name" v="Kołbaskowo"/>
    <tag k="operator" v="Zarząd Dróg i Transportu Miejskiego"/>
    <tag k="ref" v="24611"/>
    <tag k="source" v="zditm"/>
    <tag k="website" v="http://zditm.szczecin.pl/rozklady/index.html"/>
  </node>
  <node id="1026095429" version="2" timestamp="2011-03-20T14:14:39Z" uid="152074" user="beweta" changeset="7616951" lat="53.335613" lon="14.439179">
    <tag k="highway" v="bus_stop"/>
    <tag k="name" v="Kołbaskowo"/>
    <tag k="name:de" v="Kolbitzow"/>
    <tag k="operator" v="Zarząd Dróg i Transportu Miejskiego"/>
    <tag k="ref" v="24611"/>
    <tag k="source" v="zditm"/>
    <tag k="website" v="http://zditm.szczecin.pl/rozklady/index.html"/>
  </node>
  <node id="1026095429" version="3" timestamp="2012-02-21T19:23:58Z" uid="603523" user="diverpl" changeset="10752538" lat="53.3357469" lon="14.4391711">
    <tag k="highway" v="bus_stop"/>
    <tag k="name" v="Kołbaskowo"/>
    <tag k="name:de" v="Kolbitzow"/>
    <tag k="operator" v="Zarząd Dróg i Transportu Miejskiego"/>
    <tag k="ref" v="24611"/>
    <tag k="source" v="zditm"/>
    <tag k="website" v="http://zditm.szczecin.pl/rozklady/index.html"/>
  </node>
  <node id="1026095435" version="1" timestamp="2010-12-07T09:23:44Z" uid="30632" user="antblant" changeset="6572444" lat="53.344353" lon="14.559706">
    <tag k="highway" v="bus_stop"/>
    <tag k="name" v="Klucz"/>
    <tag k="operator" v="Zarząd Dróg i Transportu Miejskiego"/>
    <tag k="ref" v="83211"/>
    <tag k="source" v="zditm"/>
    <tag k="website" v="http://zditm.szczecin.pl/rozklady/index.html"/>
  </node>
  <node id="1026095445" version="1" timestamp="2010-12-07T09:23:44Z" uid="30632" user="antblant" changeset="6572444" lat="53.385742" lon="14.527917">
    <tag k="highway" v="bus_stop"/>
    <tag k="name" v="Elektrociepłownia nż"/>
    <tag k="operator" v="Zarząd Dróg i Transportu Miejskiego"/>
    <tag k="ref" v="25212"/>
    <tag k="source" v="zditm"/>
    <tag k="website" v="http://zditm.szczecin.pl/rozklady/index.html"/>
  </node>
  <node id="1026095445" version="2" timestamp="2012-02-15T18:29:49Z" uid="603523" user="diverpl" changeset="10694968" lat="53.385691" lon="14.5280405">
    <tag k="highway" v="bus_stop"/>
    <tag k="name" v="Elektrociepłownia nż"/>
    <tag k="operator" v="Zarząd Dróg i Transportu Miejskiego"/>
    <tag k="ref" v="25212"/>
    <tag k="source" v="zditm"/>
    <tag k="website" v="http://zditm.szczecin.pl/rozklady/index.html"/>
  </node>
  <node id="1026095445" version="3" timestamp="2012-02-15T21:32:08Z" uid="603523" user="diverpl" changeset="10696753" lat="53.385742" lon="14.527917">
    <tag k="highway" v="bus_stop"/>
    <tag k="name" v="Elektrociepłownia nż"/>
    <tag k="operator" v="Zarząd Dróg i Transportu Miejskiego"/>
    <tag k="ref" v="25212"/>
    <tag k="source" v="zditm"/>
    <tag k="website" v="http://zditm.szczecin.pl/rozklady/index.html"/>
  </node>
  <node id="1026095455" version="1" timestamp="2010-12-07T09:23:44Z" uid="30632" user="antblant" changeset="6572444" lat="53.358234" lon="14.598212">
    <tag k="highway" v="bus_stop"/>
    <tag k="name" v="Smocza-Falskiego"/>
    <tag k="operator" v="Zarząd Dróg i Transportu Miejskiego"/>
    <tag k="ref" v="84011"/>
    <tag k="source" v="zditm"/>
    <tag k="website" v="http://zditm.szczecin.pl/rozklady/index.html"/>
  </node>
  <node id="1026095464" version="1" timestamp="2010-12-07T09:23:44Z" uid="30632" user="antblant" changeset="6572444" lat="53.347527" lon="14.566208">
    <tag k="highway" v="bus_stop"/>
    <tag k="name" v="Rymarska"/>
    <tag k="operator" v="Zarząd Dróg i Transportu Miejskiego"/>
    <tag k="ref" v="83112"/>
    <tag k="source" v="zditm"/>
    <tag k="website" v="http://zditm.szczecin.pl/rozklady/index.html"/>
  </node>
  <node id="1026095479" version="1" timestamp="2010-12-07T09:23:45Z" uid="30632" user="antblant" changeset="6572444" lat="53.375015" lon="14.580477">
    <tag k="highway" v="bus_stop"/>
    <tag k="name" v="Autostrada Poznańska nż"/>
    <tag k="operator" v="Zarząd Dróg i Transportu Miejskiego"/>
    <tag k="ref" v="62611"/>
    <tag k="source" v="zditm"/>
    <tag k="website" v="http://zditm.szczecin.pl/rozklady/index.html"/>
  </node>
  <node id="1026095479" version="2" timestamp="2012-02-15T18:29:43Z" uid="603523" user="diverpl" changeset="10694968" lat="53.3749873" lon="14.580535">
    <tag k="highway" v="bus_stop"/>
    <tag k="name" v="Autostrada Poznańska nż"/>
    <tag k="operator" v="Zarząd Dróg i Transportu Miejskiego"/>
    <tag k="ref" v="62611"/>
    <tag k="source" v="zditm"/>
    <tag k="website" v="http://zditm.szczecin.pl/rozklady/index.html"/>
  </node>
  <node id="1026095479" version="3" timestamp="2012-02-15T21:32:05Z" uid="603523" user="diverpl" changeset="10696753" lat="53.375015" lon="14.580477">
    <tag k="highway" v="bus_stop"/>
    <tag k="name" v="Autostrada Poznańska nż"/>
    <tag k="operator" v="Zarząd Dróg i Transportu Miejskiego"/>
    <tag k="ref" v="62611"/>
    <tag k="source" v="zditm"/>
    <tag k="website" v="http://zditm.szczecin.pl/rozklady/index.html"/>
  </node>
  <node id="1026095479" version="4" timestamp="2012-02-18T19:08:21Z" uid="603523" user="diverpl" changeset="10723216" lat="53.3749764" lon="14.5804832">
    <tag k="highway" v="bus_stop"/>
    <tag k="name" v="Autostrada Poznańska nż"/>
    <tag k="operator" v="Zarząd Dróg i Transportu Miejskiego"/>
    <tag k="ref" v="62611"/>
    <tag k="source" v="zditm"/>
    <tag k="website" v="http://zditm.szczecin.pl/rozklady/index.html"/>
  </node>
  <node id="1026095489" version="1" timestamp="2010-12-07T09:23:45Z" uid="30632" user="antblant" changeset="6572444" lat="53.375072" lon="14.611977">
    <tag k="highway" v="bus_stop"/>
    <tag k="name" v="Grabowa nż"/>
    <tag k="operator" v="Zarząd Dróg i Transportu Miejskiego"/>
    <tag k="ref" v="82212"/>
    <tag k="source" v="zditm"/>
    <tag k="website" v="http://zditm.szczecin.pl/rozklady/index.html"/>
  </node>
  <node id="1026095498" version="1" timestamp="2010-12-07T09:23:45Z" uid="30632" user="antblant" changeset="6572444" lat="53.367748" lon="14.5992813">
    <tag k="highway" v="bus_stop"/>
    <tag k="name" v="Krzemienna"/>
    <tag k="operator" v="Zarząd Dróg i Transportu Miejskiego"/>
    <tag k="ref" v="83612"/>
    <tag k="source" v="zditm"/>
    <tag k="website" v="http://zditm.szczecin.pl/rozklady/index.html"/>
  </node>
  <node id="1026095518" version="1" timestamp="2010-12-07T09:23:46Z" uid="30632" user="antblant" changeset="6572444" lat="53.387657" lon="14.515734">
    <tag k="highway" v="bus_stop"/>
    <tag k="name" v="Ustowska nż"/>
    <tag k="operator" v="Zarząd Dróg i Transportu Miejskiego"/>
    <tag k="ref" v="25111"/>
    <tag k="source" v="zditm"/>
    <tag k="website" v="http://zditm.szczecin.pl/rozklady/index.html"/>
  </node>
  <node id="1026095518" version="2" timestamp="2012-02-18T19:08:26Z" uid="603523" user="diverpl" changeset="10723216" lat="53.3876234" lon="14.5157797">
    <tag k="highway" v="bus_stop"/>
    <tag k="name" v="Ustowska nż"/>
    <tag k="operator" v="Zarząd Dróg i Transportu Miejskiego"/>
    <tag k="ref" v="25111"/>
    <tag k="source" v="zditm"/>
    <tag k="website" v="http://zditm.szczecin.pl/rozklady/index.html"/>
  </node>
  <node id="1026095527" version="1" timestamp="2010-12-07T09:23:46Z" uid="30632" user="antblant" changeset="6572444" lat="53.386528" lon="14.456699">
    <tag k="highway" v="bus_stop"/>
    <tag k="name" v="Warzymice 14 nż"/>
    <tag k="operator" v="Zarząd Dróg i Transportu Miejskiego"/>
    <tag k="ref" v="27011"/>
    <tag k="source" v="zditm"/>
    <tag k="website" v="http://zditm.szczecin.pl/rozklady/index.html"/>
  </node>
  <node id="1026095527" version="2" timestamp="2012-02-22T22:39:10Z" uid="603523" user="diverpl" changeset="10764172" lat="53.3865163" lon="14.4566548">
    <tag k="highway" v="bus_stop"/>
    <tag k="name" v="Warzymice 14 nż"/>
    <tag k="operator" v="Zarząd Dróg i Transportu Miejskiego"/>
    <tag k="ref" v="27011"/>
    <tag k="source" v="zditm"/>
    <tag k="website" v="http://zditm.szczecin.pl/rozklady/index.html"/>
  </node>
  <node id="1026095553" version="1" timestamp="2010-12-07T09:23:47Z" uid="30632" user="antblant" changeset="6572444" lat="53.388218" lon="14.443578">
    <tag k="highway" v="bus_stop"/>
    <tag k="name" v="Będargowo Szkoła"/>
    <tag k="operator" v="Zarząd Dróg i Transportu Miejskiego"/>
    <tag k="ref" v="27111"/>
    <tag k="source" v="zditm"/>
    <tag k="website" v="http://zditm.szczecin.pl/rozklady/index.html"/>
  </node>
  <node id="1026095553" version="2" timestamp="2012-02-22T22:39:10Z" uid="603523" user="diverpl" changeset="10764172" lat="53.3880839" lon="14.4437846">
    <tag k="highway" v="bus_stop"/>
    <tag k="name" v="Będargowo Szkoła"/>
    <tag k="operator" v="Zarząd Dróg i Transportu Miejskiego"/>
    <tag k="ref" v="27111"/>
    <tag k="source" v="zditm"/>
    <tag k="website" v="http://zditm.szczecin.pl/rozklady/index.html"/>
  </node>
  <node id="1026095562" version="1" timestamp="2010-12-07T09:23:47Z" uid="30632" user="antblant" changeset="6572444" lat="53.367661" lon="14.59567">
    <tag k="highway" v="bus_stop"/>
    <tag k="name" v="Podjuchy Pętla"/>
    <tag k="operator" v="Zarząd Dróg i Transportu Miejskiego"/>
    <tag k="ref" v="82513"/>
    <tag k="source" v="zditm"/>
    <tag k="website" v="http://zditm.szczecin.pl/rozklady/index.html"/>
  </node>
  <node id="1026095562" version="2" timestamp="2012-02-15T18:29:55Z" uid="603523" user="diverpl" changeset="10694968" lat="53.3676456" lon="14.5956325">
    <tag k="highway" v="bus_stop"/>
    <tag k="name" v="Podjuchy Pętla"/>
    <tag k="operator" v="Zarząd Dróg i Transportu Miejskiego"/>
    <tag k="ref" v="82513"/>
    <tag k="source" v="zditm"/>
    <tag k="website" v="http://zditm.szczecin.pl/rozklady/index.html"/>
  </node>
  <node id="1026095562" version="3" timestamp="2012-02-15T21:32:13Z" uid="603523" user="diverpl" changeset="10696753" lat="53.367661" lon="14.59567">
    <tag k="highway" v="bus_stop"/>
    <tag k="name" v="Podjuchy Pętla"/>
    <tag k="operator" v="Zarząd Dróg i Transportu Miejskiego"/>
    <tag k="ref" v="82513"/>
    <tag k="source" v="zditm"/>
    <tag k="website" v="http://zditm.szczecin.pl/rozklady/index.html"/>
  </node>
  <node id="1026095562" version="4" timestamp="2012-02-16T19:51:15Z" uid="603523" user="diverpl" changeset="10703931" lat="53.3676549" lon="14.5956639">
    <tag k="highway" v="bus_stop"/>
    <tag k="name" v="Podjuchy Pętla"/>
    <tag k="operator" v="Zarząd Dróg i Transportu Miejskiego"/>
    <tag k="ref" v="82513"/>
    <tag k="source" v="zditm"/>
    <tag k="website" v="http://zditm.szczecin.pl/rozklady/index.html"/>
  </node>
  <node id="1026095584" version="1" timestamp="2010-12-07T09:23:47Z" uid="30632" user="antblant" changeset="6572444" lat="53.373363" lon="14.600937">
    <tag k="highway" v="bus_stop"/>
    <tag k="name" v="Regalica nż"/>
    <tag k="operator" v="Zarząd Dróg i Transportu Miejskiego"/>
    <tag k="ref" v="86512"/>
    <tag k="source" v="zditm"/>
    <tag k="website" v="http://zditm.szczecin.pl/rozklady/index.html"/>
  </node>
  <node id="1026095584" version="2" timestamp="2012-02-15T18:29:57Z" uid="603523" user="diverpl" changeset="10694968" lat="53.3733351" lon="14.6009183">
    <tag k="highway" v="bus_stop"/>
    <tag k="name" v="Regalica nż"/>
    <tag k="operator" v="Zarząd Dróg i Transportu Miejskiego"/>
    <tag k="ref" v="86512"/>
    <tag k="source" v="zditm"/>
    <tag k="website" v="http://zditm.szczecin.pl/rozklady/index.html"/>
  </node>
  <node id="1026095584" version="3" timestamp="2012-02-15T21:32:14Z" uid="603523" user="diverpl" changeset="10696753" lat="53.373363" lon="14.600937">
    <tag k="highway" v="bus_stop"/>
    <tag k="name" v="Regalica nż"/>
    <tag k="operator" v="Zarząd Dróg i Transportu Miejskiego"/>
    <tag k="ref" v="86512"/>
    <tag k="source" v="zditm"/>
    <tag k="website" v="http://zditm.szczecin.pl/rozklady/index.html"/>
  </node>
  <node id="1026095584" version="4" timestamp="2012-02-18T19:08:24Z" uid="603523" user="diverpl" changeset="10723216" lat="53.3733446" lon="14.6009108">
    <tag k="highway" v="bus_stop"/>
    <tag k="name" v="Regalica nż"/>
    <tag k="operator" v="Zarząd Dróg i Transportu Miejskiego"/>
    <tag k="ref" v="86512"/>
    <tag k="source" v="zditm"/>
    <tag k="website" v="http://zditm.szczecin.pl/rozklady/index.html"/>
  </node>
  <node id="1026095594" version="1" timestamp="2010-12-07T09:23:48Z" uid="30632" user="antblant" changeset="6572444" lat="53.389946" lon="14.475979">
    <tag k="highway" v="bus_stop"/>
    <tag k="name" v="Warzymice Osiedle Różane"/>
    <tag k="operator" v="Zarząd Dróg i Transportu Miejskiego"/>
    <tag k="ref" v="26711"/>
    <tag k="source" v="zditm"/>
    <tag k="website" v="http://zditm.szczecin.pl/rozklady/index.html"/>
  </node>
  <node id="1026095594" version="2" timestamp="2012-02-22T22:39:11Z" uid="603523" user="diverpl" changeset="10764172" lat="53.3899958" lon="14.4759815">
    <tag k="highway" v="bus_stop"/>
    <tag k="name" v="Warzymice Osiedle Różane"/>
    <tag k="operator" v="Zarząd Dróg i Transportu Miejskiego"/>
    <tag k="ref" v="26711"/>
    <tag k="source" v="zditm"/>
    <tag k="website" v="http://zditm.szczecin.pl/rozklady/index.html"/>
  </node>
  <node id="1026095603" version="1" timestamp="2010-12-07T09:23:48Z" uid="30632" user="antblant" changeset="6572444" lat="53.355656" lon="14.58184">
    <tag k="highway" v="bus_stop"/>
    <tag k="name" v="Przodowników Pracy nż"/>
    <tag k="operator" v="Zarząd Dróg i Transportu Miejskiego"/>
    <tag k="ref" v="82812"/>
    <tag k="source" v="zditm"/>
    <tag k="website" v="http://zditm.szczecin.pl/rozklady/index.html"/>
  </node>
  <node id="1026095618" version="1" timestamp="2010-12-07T09:23:48Z" uid="30632" user="antblant" changeset="6572444" lat="53.389908" lon="14.484851">
    <tag k="highway" v="bus_stop"/>
    <tag k="name" v="Kombinat"/>
    <tag k="operator" v="Zarząd Dróg i Transportu Miejskiego"/>
    <tag k="ref" v="24111"/>
    <tag k="source" v="zditm"/>
    <tag k="website" v="http://zditm.szczecin.pl/rozklady/index.html"/>
  </node>
  <node id="1026095618" version="2" timestamp="2012-02-21T19:23:57Z" uid="603523" user="diverpl" changeset="10752538" lat="53.3899097" lon="14.4848121">
    <tag k="highway" v="bus_stop"/>
    <tag k="name" v="Kombinat"/>
    <tag k="operator" v="Zarząd Dróg i Transportu Miejskiego"/>
    <tag k="ref" v="24111"/>
    <tag k="source" v="zditm"/>
    <tag k="website" v="http://zditm.szczecin.pl/rozklady/index.html"/>
  </node>
  <node id="1026095618" version="3" timestamp="2012-02-21T19:25:00Z" uid="603523" user="diverpl" changeset="10752538" lat="53.3899097" lon="14.4847924">
    <tag k="highway" v="bus_stop"/>
    <tag k="name" v="Kombinat"/>
    <tag k="operator" v="Zarząd Dróg i Transportu Miejskiego"/>
    <tag k="ref" v="24111"/>
    <tag k="source" v="zditm"/>
    <tag k="website" v="http://zditm.szczecin.pl/rozklady/index.html"/>
  </node>
  <node id="1026095628" version="1" timestamp="2010-12-07T09:23:48Z" uid="30632" user="antblant" changeset="6572444" lat="53.36768" lon="14.595739">
    <tag k="highway" v="bus_stop"/>
    <tag k="name" v="Podjuchy Pętla"/>
    <tag k="operator" v="Zarząd Dróg i Transportu Miejskiego"/>
    <tag k="ref" v="82512"/>
    <tag k="source" v="zditm"/>
    <tag k="website" v="http://zditm.szczecin.pl/rozklady/index.html"/>
  </node>
  <node id="1026095628" version="2" timestamp="2012-02-15T18:29:55Z" uid="603523" user="diverpl" changeset="10694968" lat="53.3676786" lon="14.5957039">
    <tag k="highway" v="bus_stop"/>
    <tag k="name" v="Podjuchy Pętla"/>
    <tag k="operator" v="Zarząd Dróg i Transportu Miejskiego"/>
    <tag k="ref" v="82512"/>
    <tag k="source" v="zditm"/>
    <tag k="website" v="http://zditm.szczecin.pl/rozklady/index.html"/>
  </node>
  <node id="1026095628" version="3" timestamp="2012-02-15T21:32:13Z" uid="603523" user="diverpl" changeset="10696753" lat="53.36768" lon="14.595739">
    <tag k="highway" v="bus_stop"/>
    <tag k="name" v="Podjuchy Pętla"/>
    <tag k="operator" v="Zarząd Dróg i Transportu Miejskiego"/>
    <tag k="ref" v="82512"/>
    <tag k="source" v="zditm"/>
    <tag k="website" v="http://zditm.szczecin.pl/rozklady/index.html"/>
  </node>
  <node id="1026095628" version="4" timestamp="2012-02-16T19:51:15Z" uid="603523" user="diverpl" changeset="10703931" lat="53.3676861" lon="14.5957247">
    <tag k="highway" v="bus_stop"/>
    <tag k="name" v="Podjuchy Pętla"/>
    <tag k="operator" v="Zarząd Dróg i Transportu Miejskiego"/>
    <tag k="ref" v="82512"/>
    <tag k="source" v="zditm"/>
    <tag k="website" v="http://zditm.szczecin.pl/rozklady/index.html"/>
  </node>
  <node id="1026095636" version="1" timestamp="2010-12-07T09:23:49Z" uid="30632" user="antblant" changeset="6572444" lat="53.374207" lon="14.471719">
    <tag k="highway" v="bus_stop"/>
    <tag k="name" v="Przecław"/>
    <tag k="operator" v="Zarząd Dróg i Transportu Miejskiego"/>
    <tag k="ref" v="24413"/>
    <tag k="source" v="zditm"/>
    <tag k="website" v="http://zditm.szczecin.pl/rozklady/index.html"/>
  </node>
  <node id="1026095636" version="2" timestamp="2012-02-21T19:23:58Z" uid="603523" user="diverpl" changeset="10752538" lat="53.3741954" lon="14.4716773">
    <tag k="highway" v="bus_stop"/>
    <tag k="name" v="Przecław"/>
    <tag k="operator" v="Zarząd Dróg i Transportu Miejskiego"/>
    <tag k="ref" v="24413"/>
    <tag k="source" v="zditm"/>
    <tag k="website" v="http://zditm.szczecin.pl/rozklady/index.html"/>
  </node>
  <node id="1026095637" version="1" timestamp="2010-12-07T09:23:49Z" uid="30632" user="antblant" changeset="6572444" lat="53.3864214" lon="14.5261646">
    <tag k="highway" v="bus_stop"/>
    <tag k="name" v="Elektrociepłownia nż"/>
    <tag k="operator" v="Zarząd Dróg i Transportu Miejskiego"/>
    <tag k="ref" v="25211"/>
    <tag k="source" v="zditm"/>
    <tag k="website" v="http://zditm.szczecin.pl/rozklady/index.html"/>
  </node>
  <node id="1026095637" version="2" timestamp="2012-02-15T18:29:50Z" uid="603523" user="diverpl" changeset="10694968" lat="53.3862769" lon="14.5268961">
    <tag k="highway" v="bus_stop"/>
    <tag k="name" v="Elektrociepłownia nż"/>
    <tag k="operator" v="Zarząd Dróg i Transportu Miejskiego"/>
    <tag k="ref" v="25211"/>
    <tag k="source" v="zditm"/>
    <tag k="website" v="http://zditm.szczecin.pl/rozklady/index.html"/>
  </node>
  <node id="1026095637" version="3" timestamp="2012-02-15T21:32:09Z" uid="603523" user="diverpl" changeset="10696753" lat="53.3864214" lon="14.5261646">
    <tag k="highway" v="bus_stop"/>
    <tag k="name" v="Elektrociepłownia nż"/>
    <tag k="operator" v="Zarząd Dróg i Transportu Miejskiego"/>
    <tag k="ref" v="25211"/>
    <tag k="source" v="zditm"/>
    <tag k="website" v="http://zditm.szczecin.pl/rozklady/index.html"/>
  </node>
  <node id="1026095637" version="4" timestamp="2012-02-18T19:08:22Z" uid="603523" user="diverpl" changeset="10723216" lat="53.3862607" lon="14.5267436">
    <tag k="highway" v="bus_stop"/>
    <tag k="name" v="Elektrociepłownia nż"/>
    <tag k="operator" v="Zarząd Dróg i Transportu Miejskiego"/>
    <tag k="ref" v="25211"/>
    <tag k="source" v="zditm"/>
    <tag k="website" v="http://zditm.szczecin.pl/rozklady/index.html"/>
  </node>
  <node id="1026095640" version="1" timestamp="2010-12-07T09:23:49Z" uid="30632" user="antblant" changeset="6572444" lat="53.359459" lon="14.586614">
    <tag k="highway" v="bus_stop"/>
    <tag k="name" v="Podjuchy Dworzec"/>
    <tag k="operator" v="Zarząd Dróg i Transportu Miejskiego"/>
    <tag k="ref" v="82712"/>
    <tag k="source" v="zditm"/>
    <tag k="website" v="http://zditm.szczecin.pl/rozklady/index.html"/>
  </node>
  <node id="1026095651" version="1" timestamp="2010-12-07T09:23:50Z" uid="30632" user="antblant" changeset="6572444" lat="53.369415" lon="14.601447">
    <tag k="highway" v="bus_stop"/>
    <tag k="name" v="Granitowa"/>
    <tag k="operator" v="Zarząd Dróg i Transportu Miejskiego"/>
    <tag k="ref" v="82421"/>
    <tag k="source" v="zditm"/>
    <tag k="website" v="http://zditm.szczecin.pl/rozklady/index.html"/>
  </node>
  <node id="1026095651" version="2" timestamp="2012-02-15T18:29:50Z" uid="603523" user="diverpl" changeset="10694968" lat="53.369401" lon="14.6014704">
    <tag k="highway" v="bus_stop"/>
    <tag k="name" v="Granitowa"/>
    <tag k="operator" v="Zarząd Dróg i Transportu Miejskiego"/>
    <tag k="ref" v="82421"/>
    <tag k="source" v="zditm"/>
    <tag k="website" v="http://zditm.szczecin.pl/rozklady/index.html"/>
  </node>
  <node id="1026095651" version="3" timestamp="2012-02-15T21:32:09Z" uid="603523" user="diverpl" changeset="10696753" lat="53.369415" lon="14.601447">
    <tag k="highway" v="bus_stop"/>
    <tag k="name" v="Granitowa"/>
    <tag k="operator" v="Zarząd Dróg i Transportu Miejskiego"/>
    <tag k="ref" v="82421"/>
    <tag k="source" v="zditm"/>
    <tag k="website" v="http://zditm.szczecin.pl/rozklady/index.html"/>
  </node>
  <node id="1026095651" version="4" timestamp="2012-02-18T19:08:23Z" uid="603523" user="diverpl" changeset="10723216" lat="53.3694021" lon="14.6014778">
    <tag k="highway" v="bus_stop"/>
    <tag k="name" v="Granitowa"/>
    <tag k="operator" v="Zarząd Dróg i Transportu Miejskiego"/>
    <tag k="ref" v="82421"/>
    <tag k="source" v="zditm"/>
    <tag k="website" v="http://zditm.szczecin.pl/rozklady/index.html"/>
  </node>
  <node id="1026095652" version="1" timestamp="2010-12-07T09:23:50Z" uid="30632" user="antblant" changeset="6572444" lat="53.36058" lon="14.596281">
    <tag k="highway" v="bus_stop"/>
    <tag k="name" v="Przewiewna"/>
    <tag k="operator" v="Zarząd Dróg i Transportu Miejskiego"/>
    <tag k="ref" v="83921"/>
    <tag k="source" v="zditm"/>
    <tag k="website" v="http://zditm.szczecin.pl/rozklady/index.html"/>
  </node>
  <node id="1026095666" version="1" timestamp="2010-12-07T09:23:50Z" uid="30632" user="antblant" changeset="6572444" lat="53.348061" lon="14.567045">
    <tag k="highway" v="bus_stop"/>
    <tag k="name" v="Rymarska"/>
    <tag k="operator" v="Zarząd Dróg i Transportu Miejskiego"/>
    <tag k="ref" v="83111"/>
    <tag k="source" v="zditm"/>
    <tag k="website" v="http://zditm.szczecin.pl/rozklady/index.html"/>
  </node>
  <node id="1026095667" version="1" timestamp="2010-12-07T09:23:50Z" uid="30632" user="antblant" changeset="6572444" lat="53.3779765" lon="14.6216528">
    <tag k="highway" v="bus_stop"/>
    <tag k="name" v="Jez. Szmaragdowe"/>
    <tag k="operator" v="Zarząd Dróg i Transportu Miejskiego"/>
    <tag k="ref" v="82112"/>
    <tag k="source" v="zditm"/>
    <tag k="website" v="http://zditm.szczecin.pl/rozklady/index.html"/>
  </node>
  <node id="1026095669" version="1" timestamp="2010-12-07T09:23:50Z" uid="30632" user="antblant" changeset="6572444" lat="53.375694" lon="14.556391">
    <tag k="highway" v="bus_stop"/>
    <tag k="name" v="Tor Regatowy nż"/>
    <tag k="operator" v="Zarząd Dróg i Transportu Miejskiego"/>
    <tag k="ref" v="62512"/>
    <tag k="source" v="zditm"/>
    <tag k="website" v="http://zditm.szczecin.pl/rozklady/index.html"/>
  </node>
  <node id="1026095669" version="2" timestamp="2012-02-15T18:29:58Z" uid="603523" user="diverpl" changeset="10694968" lat="53.3756571" lon="14.5566232">
    <tag k="highway" v="bus_stop"/>
    <tag k="name" v="Tor Regatowy nż"/>
    <tag k="operator" v="Zarząd Dróg i Transportu Miejskiego"/>
    <tag k="ref" v="62512"/>
    <tag k="source" v="zditm"/>
    <tag k="website" v="http://zditm.szczecin.pl/rozklady/index.html"/>
  </node>
  <node id="1026095669" version="3" timestamp="2012-02-15T21:32:15Z" uid="603523" user="diverpl" changeset="10696753" lat="53.375694" lon="14.556391">
    <tag k="highway" v="bus_stop"/>
    <tag k="name" v="Tor Regatowy nż"/>
    <tag k="operator" v="Zarząd Dróg i Transportu Miejskiego"/>
    <tag k="ref" v="62512"/>
    <tag k="source" v="zditm"/>
    <tag k="website" v="http://zditm.szczecin.pl/rozklady/index.html"/>
  </node>
  <node id="1026095669" version="4" timestamp="2012-02-18T19:08:25Z" uid="603523" user="diverpl" changeset="10723216" lat="53.375659" lon="14.5565575">
    <tag k="highway" v="bus_stop"/>
    <tag k="name" v="Tor Regatowy nż"/>
    <tag k="operator" v="Zarząd Dróg i Transportu Miejskiego"/>
    <tag k="ref" v="62512"/>
    <tag k="source" v="zditm"/>
    <tag k="website" v="http://zditm.szczecin.pl/rozklady/index.html"/>
  </node>
  <node id="1026095683" version="1" timestamp="2010-12-07T09:23:51Z" uid="30632" user="antblant" changeset="6572444" lat="53.3754449" lon="14.6130231">
    <tag k="highway" v="bus_stop"/>
    <tag k="name" v="Grabowa nż"/>
    <tag k="operator" v="Zarząd Dróg i Transportu Miejskiego"/>
    <tag k="ref" v="82211"/>
    <tag k="source" v="zditm"/>
    <tag k="website" v="http://zditm.szczecin.pl/rozklady/index.html"/>
  </node>
  <node id="1026095690" version="1" timestamp="2010-12-07T09:23:51Z" uid="30632" user="antblant" changeset="6572444" lat="53.385906" lon="14.481536">
    <tag k="highway" v="bus_stop"/>
    <tag k="name" v="Warzymice Osiedle Kresy"/>
    <tag k="operator" v="Zarząd Dróg i Transportu Miejskiego"/>
    <tag k="ref" v="24211"/>
    <tag k="source" v="zditm"/>
    <tag k="website" v="http://zditm.szczecin.pl/rozklady/index.html"/>
  </node>
  <node id="1026095690" version="2" timestamp="2012-02-21T19:25:01Z" uid="603523" user="diverpl" changeset="10752538" lat="53.3858497" lon="14.4814141">
    <tag k="highway" v="bus_stop"/>
    <tag k="name" v="Warzymice Osiedle Kresy"/>
    <tag k="operator" v="Zarząd Dróg i Transportu Miejskiego"/>
    <tag k="ref" v="24211"/>
    <tag k="source" v="zditm"/>
    <tag k="website" v="http://zditm.szczecin.pl/rozklady/index.html"/>
  </node>
  <node id="1026095706" version="1" timestamp="2010-12-07T09:23:51Z" uid="30632" user="antblant" changeset="6572444" lat="53.355701" lon="14.462986">
    <tag k="highway" v="bus_stop"/>
    <tag k="name" v="Siadło Górne nż"/>
    <tag k="operator" v="Zarząd Dróg i Transportu Miejskiego"/>
    <tag k="ref" v="24512"/>
    <tag k="source" v="zditm"/>
    <tag k="website" v="http://zditm.szczecin.pl/rozklady/index.html"/>
  </node>
  <node id="1026095706" version="2" timestamp="2012-02-21T19:23:59Z" uid="603523" user="diverpl" changeset="10752538" lat="53.3556705" lon="14.4629663">
    <tag k="highway" v="bus_stop"/>
    <tag k="name" v="Siadło Górne nż"/>
    <tag k="operator" v="Zarząd Dróg i Transportu Miejskiego"/>
    <tag k="ref" v="24512"/>
    <tag k="source" v="zditm"/>
    <tag k="website" v="http://zditm.szczecin.pl/rozklady/index.html"/>
  </node>
  <node id="1026095710" version="1" timestamp="2010-12-07T09:23:52Z" uid="30632" user="antblant" changeset="6572444" lat="53.335083" lon="14.545341">
    <tag k="highway" v="bus_stop"/>
    <tag k="name" v="Autostrada"/>
    <tag k="operator" v="Zarząd Dróg i Transportu Miejskiego"/>
    <tag k="ref" v="83511"/>
    <tag k="source" v="zditm"/>
    <tag k="website" v="http://zditm.szczecin.pl/rozklady/index.html"/>
  </node>
  <node id="1026095728" version="1" timestamp="2010-12-07T09:23:52Z" uid="30632" user="antblant" changeset="6572444" lat="53.375629" lon="14.55725">
    <tag k="highway" v="bus_stop"/>
    <tag k="name" v="Tor Regatowy nż"/>
    <tag k="operator" v="Zarząd Dróg i Transportu Miejskiego"/>
    <tag k="ref" v="62511"/>
    <tag k="source" v="zditm"/>
    <tag k="website" v="http://zditm.szczecin.pl/rozklady/index.html"/>
  </node>
  <node id="1026095728" version="2" timestamp="2012-02-15T18:29:58Z" uid="603523" user="diverpl" changeset="10694968" lat="53.3755828" lon="14.5575712">
    <tag k="highway" v="bus_stop"/>
    <tag k="name" v="Tor Regatowy nż"/>
    <tag k="operator" v="Zarząd Dróg i Transportu Miejskiego"/>
    <tag k="ref" v="62511"/>
    <tag k="source" v="zditm"/>
    <tag k="website" v="http://zditm.szczecin.pl/rozklady/index.html"/>
  </node>
  <node id="1026095728" version="3" timestamp="2012-02-15T21:32:15Z" uid="603523" user="diverpl" changeset="10696753" lat="53.375629" lon="14.55725">
    <tag k="highway" v="bus_stop"/>
    <tag k="name" v="Tor Regatowy nż"/>
    <tag k="operator" v="Zarząd Dróg i Transportu Miejskiego"/>
    <tag k="ref" v="62511"/>
    <tag k="source" v="zditm"/>
    <tag k="website" v="http://zditm.szczecin.pl/rozklady/index.html"/>
  </node>
  <node id="1026095728" version="4" timestamp="2012-02-18T19:08:24Z" uid="603523" user="diverpl" changeset="10723216" lat="53.3755665" lon="14.5575676">
    <tag k="highway" v="bus_stop"/>
    <tag k="name" v="Tor Regatowy nż"/>
    <tag k="operator" v="Zarząd Dróg i Transportu Miejskiego"/>
    <tag k="ref" v="62511"/>
    <tag k="source" v="zditm"/>
    <tag k="website" v="http://zditm.szczecin.pl/rozklady/index.html"/>
  </node>
  <node id="1026095736" version="1" timestamp="2010-12-07T09:23:52Z" uid="30632" user="antblant" changeset="6572444" lat="53.37344" lon="14.601012">
    <tag k="highway" v="bus_stop"/>
    <tag k="name" v="Regalica nż"/>
    <tag k="operator" v="Zarząd Dróg i Transportu Miejskiego"/>
    <tag k="ref" v="86511"/>
    <tag k="source" v="zditm"/>
    <tag k="website" v="http://zditm.szczecin.pl/rozklady/index.html"/>
  </node>
  <node id="1026095736" version="2" timestamp="2012-02-15T18:29:57Z" uid="603523" user="diverpl" changeset="10694968" lat="53.3734232" lon="14.6010073">
    <tag k="highway" v="bus_stop"/>
    <tag k="name" v="Regalica nż"/>
    <tag k="operator" v="Zarząd Dróg i Transportu Miejskiego"/>
    <tag k="ref" v="86511"/>
    <tag k="source" v="zditm"/>
    <tag k="website" v="http://zditm.szczecin.pl/rozklady/index.html"/>
  </node>
  <node id="1026095736" version="3" timestamp="2012-02-15T21:32:15Z" uid="603523" user="diverpl" changeset="10696753" lat="53.37344" lon="14.601012">
    <tag k="highway" v="bus_stop"/>
    <tag k="name" v="Regalica nż"/>
    <tag k="operator" v="Zarząd Dróg i Transportu Miejskiego"/>
    <tag k="ref" v="86511"/>
    <tag k="source" v="zditm"/>
    <tag k="website" v="http://zditm.szczecin.pl/rozklady/index.html"/>
  </node>
  <node id="1026095736" version="4" timestamp="2012-02-18T19:08:24Z" uid="603523" user="diverpl" changeset="10723216" lat="53.3734142" lon="14.6010105">
    <tag k="highway" v="bus_stop"/>
    <tag k="name" v="Regalica nż"/>
    <tag k="operator" v="Zarząd Dróg i Transportu Miejskiego"/>
    <tag k="ref" v="86511"/>
    <tag k="source" v="zditm"/>
    <tag k="website" v="http://zditm.szczecin.pl/rozklady/index.html"/>
  </node>
  <node id="1026095742" version="1" timestamp="2010-12-07T09:23:53Z" uid="30632" user="antblant" changeset="6572444" lat="53.391743" lon="14.484315">
    <tag k="highway" v="bus_stop"/>
    <tag k="name" v="Warzymice Osiedle Promyk"/>
    <tag k="operator" v="Zarząd Dróg i Transportu Miejskiego"/>
    <tag k="ref" v="26611"/>
    <tag k="source" v="zditm"/>
    <tag k="website" v="http://zditm.szczecin.pl/rozklady/index.html"/>
  </node>
  <node id="1026095742" version="2" timestamp="2012-02-22T22:39:11Z" uid="603523" user="diverpl" changeset="10764172" lat="53.3916493" lon="14.4845948">
    <tag k="highway" v="bus_stop"/>
    <tag k="name" v="Warzymice Osiedle Promyk"/>
    <tag k="operator" v="Zarząd Dróg i Transportu Miejskiego"/>
    <tag k="ref" v="26611"/>
    <tag k="source" v="zditm"/>
    <tag k="website" v="http://zditm.szczecin.pl/rozklady/index.html"/>
  </node>
  <node id="1026095761" version="1" timestamp="2010-12-07T09:23:53Z" uid="30632" user="antblant" changeset="6572444" lat="53.355431" lon="14.581293">
    <tag k="highway" v="bus_stop"/>
    <tag k="name" v="Przodowników Pracy nż"/>
    <tag k="operator" v="Zarząd Dróg i Transportu Miejskiego"/>
    <tag k="ref" v="82811"/>
    <tag k="source" v="zditm"/>
    <tag k="website" v="http://zditm.szczecin.pl/rozklady/index.html"/>
  </node>
  <node id="1026095773" version="1" timestamp="2010-12-07T09:23:53Z" uid="30632" user="antblant" changeset="6572444" lat="53.343542" lon="14.5577019">
    <tag k="highway" v="bus_stop"/>
    <tag k="name" v="Klucz Pętla"/>
    <tag k="operator" v="Zarząd Dróg i Transportu Miejskiego"/>
    <tag k="ref" v="83311"/>
    <tag k="source" v="zditm"/>
    <tag k="website" v="http://zditm.szczecin.pl/rozklady/index.html"/>
  </node>
  <node id="1026095789" version="1" timestamp="2010-12-07T09:23:54Z" uid="30632" user="antblant" changeset="6572444" lat="53.36771" lon="14.595814">
    <tag k="highway" v="bus_stop"/>
    <tag k="name" v="Podjuchy Pętla"/>
    <tag k="operator" v="Zarząd Dróg i Transportu Miejskiego"/>
    <tag k="ref" v="82511"/>
    <tag k="source" v="zditm"/>
    <tag k="website" v="http://zditm.szczecin.pl/rozklady/index.html"/>
  </node>
  <node id="1026095789" version="2" timestamp="2012-02-15T18:29:56Z" uid="603523" user="diverpl" changeset="10694968" lat="53.3677086" lon="14.5957789">
    <tag k="highway" v="bus_stop"/>
    <tag k="name" v="Podjuchy Pętla"/>
    <tag k="operator" v="Zarząd Dróg i Transportu Miejskiego"/>
    <tag k="ref" v="82511"/>
    <tag k="source" v="zditm"/>
    <tag k="website" v="http://zditm.szczecin.pl/rozklady/index.html"/>
  </node>
  <node id="1026095789" version="3" timestamp="2012-02-15T21:32:13Z" uid="603523" user="diverpl" changeset="10696753" lat="53.36771" lon="14.595814">
    <tag k="highway" v="bus_stop"/>
    <tag k="name" v="Podjuchy Pętla"/>
    <tag k="operator" v="Zarząd Dróg i Transportu Miejskiego"/>
    <tag k="ref" v="82511"/>
    <tag k="source" v="zditm"/>
    <tag k="website" v="http://zditm.szczecin.pl/rozklady/index.html"/>
  </node>
  <node id="1026095789" version="4" timestamp="2012-02-16T19:51:16Z" uid="603523" user="diverpl" changeset="10703931" lat="53.3677173" lon="14.5957874">
    <tag k="highway" v="bus_stop"/>
    <tag k="name" v="Podjuchy Pętla"/>
    <tag k="operator" v="Zarząd Dróg i Transportu Miejskiego"/>
    <tag k="ref" v="82511"/>
    <tag k="source" v="zditm"/>
    <tag k="website" v="http://zditm.szczecin.pl/rozklady/index.html"/>
  </node>
  <node id="1026095794" version="1" timestamp="2010-12-07T09:23:54Z" uid="30632" user="antblant" changeset="6572444" lat="53.374611" lon="14.471848">
    <tag k="highway" v="bus_stop"/>
    <tag k="name" v="Przecław"/>
    <tag k="operator" v="Zarząd Dróg i Transportu Miejskiego"/>
    <tag k="ref" v="24412"/>
    <tag k="source" v="zditm"/>
    <tag k="website" v="http://zditm.szczecin.pl/rozklady/index.html"/>
  </node>
  <node id="1026095802" version="1" timestamp="2010-12-07T09:23:54Z" uid="30632" user="antblant" changeset="6572444" lat="53.358829" lon="14.585745">
    <tag k="highway" v="bus_stop"/>
    <tag k="name" v="Podjuchy Dworzec"/>
    <tag k="operator" v="Zarząd Dróg i Transportu Miejskiego"/>
    <tag k="ref" v="82711"/>
    <tag k="source" v="zditm"/>
    <tag k="website" v="http://zditm.szczecin.pl/rozklady/index.html"/>
  </node>
  <node id="1026095816" version="1" timestamp="2010-12-07T09:23:55Z" uid="30632" user="antblant" changeset="6572444" lat="53.369492" lon="14.601356">
    <tag k="highway" v="bus_stop"/>
    <tag k="name" v="Granitowa"/>
    <tag k="operator" v="Zarząd Dróg i Transportu Miejskiego"/>
    <tag k="ref" v="82411"/>
    <tag k="source" v="zditm"/>
    <tag k="website" v="http://zditm.szczecin.pl/rozklady/index.html"/>
  </node>
  <node id="1026095816" version="2" timestamp="2012-02-15T18:29:51Z" uid="603523" user="diverpl" changeset="10694968" lat="53.369478" lon="14.601356">
    <tag k="highway" v="bus_stop"/>
    <tag k="name" v="Granitowa"/>
    <tag k="operator" v="Zarząd Dróg i Transportu Miejskiego"/>
    <tag k="ref" v="82411"/>
    <tag k="source" v="zditm"/>
    <tag k="website" v="http://zditm.szczecin.pl/rozklady/index.html"/>
  </node>
  <node id="1026095816" version="3" timestamp="2012-02-15T21:32:10Z" uid="603523" user="diverpl" changeset="10696753" lat="53.369492" lon="14.601356">
    <tag k="highway" v="bus_stop"/>
    <tag k="name" v="Granitowa"/>
    <tag k="operator" v="Zarząd Dróg i Transportu Miejskiego"/>
    <tag k="ref" v="82411"/>
    <tag k="source" v="zditm"/>
    <tag k="website" v="http://zditm.szczecin.pl/rozklady/index.html"/>
  </node>
  <node id="1026095816" version="4" timestamp="2012-02-18T19:08:23Z" uid="603523" user="diverpl" changeset="10723216" lat="53.369481" lon="14.6013683">
    <tag k="highway" v="bus_stop"/>
    <tag k="name" v="Granitowa"/>
    <tag k="operator" v="Zarząd Dróg i Transportu Miejskiego"/>
    <tag k="ref" v="82411"/>
    <tag k="source" v="zditm"/>
    <tag k="website" v="http://zditm.szczecin.pl/rozklady/index.html"/>
  </node>
  <node id="1026095820" version="1" timestamp="2010-12-07T09:23:55Z" uid="30632" user="antblant" changeset="6572444" lat="53.3675063" lon="14.5990768">
    <tag k="highway" v="bus_stop"/>
    <tag k="name" v="Krzemienna"/>
    <tag k="operator" v="Zarząd Dróg i Transportu Miejskiego"/>
    <tag k="ref" v="83611"/>
    <tag k="source" v="zditm"/>
    <tag k="website" v="http://zditm.szczecin.pl/rozklady/index.html"/>
  </node>
  <node id="1026095837" version="1" timestamp="2010-12-07T09:23:55Z" uid="30632" user="antblant" changeset="6572444" lat="53.381615" lon="14.478264">
    <tag k="highway" v="bus_stop"/>
    <tag k="name" v="Przecław Osiedle Zielone Pole"/>
    <tag k="operator" v="Zarząd Dróg i Transportu Miejskiego"/>
    <tag k="ref" v="24312"/>
    <tag k="source" v="zditm"/>
    <tag k="website" v="http://zditm.szczecin.pl/rozklady/index.html"/>
  </node>
  <node id="1026095837" version="2" timestamp="2012-02-21T19:25:00Z" uid="603523" user="diverpl" changeset="10752538" lat="53.381608" lon="14.4783269">
    <tag k="highway" v="bus_stop"/>
    <tag k="name" v="Przecław Osiedle Zielone Pole"/>
    <tag k="operator" v="Zarząd Dróg i Transportu Miejskiego"/>
    <tag k="ref" v="24312"/>
    <tag k="source" v="zditm"/>
    <tag k="website" v="http://zditm.szczecin.pl/rozklady/index.html"/>
  </node>
  <node id="1026095842" version="1" timestamp="2010-12-07T09:23:56Z" uid="30632" user="antblant" changeset="6572444" lat="53.384556" lon="14.464638">
    <tag k="highway" v="bus_stop"/>
    <tag k="name" v="Warzymice"/>
    <tag k="operator" v="Zarząd Dróg i Transportu Miejskiego"/>
    <tag k="ref" v="26912"/>
    <tag k="source" v="zditm"/>
    <tag k="website" v="http://zditm.szczecin.pl/rozklady/index.html"/>
  </node>
  <node id="1026095842" version="2" timestamp="2012-02-22T22:39:11Z" uid="603523" user="diverpl" changeset="10764172" lat="53.3846028" lon="14.4646552">
    <tag k="highway" v="bus_stop"/>
    <tag k="name" v="Warzymice"/>
    <tag k="operator" v="Zarząd Dróg i Transportu Miejskiego"/>
    <tag k="ref" v="26912"/>
    <tag k="source" v="zditm"/>
    <tag k="website" v="http://zditm.szczecin.pl/rozklady/index.html"/>
  </node>
  <node id="1026095856" version="1" timestamp="2010-12-07T09:23:56Z" uid="30632" user="antblant" changeset="6572444" lat="53.352291" lon="14.575467">
    <tag k="highway" v="bus_stop"/>
    <tag k="name" v="Transportowa"/>
    <tag k="operator" v="Zarząd Dróg i Transportu Miejskiego"/>
    <tag k="ref" v="82911"/>
    <tag k="source" v="zditm"/>
    <tag k="website" v="http://zditm.szczecin.pl/rozklady/index.html"/>
  </node>
  <node id="1026095861" version="1" timestamp="2010-12-07T09:23:56Z" uid="30632" user="antblant" changeset="6572444" lat="53.3730103" lon="14.6076996">
    <tag k="highway" v="bus_stop"/>
    <tag k="name" v="Złota nż"/>
    <tag k="operator" v="Zarząd Dróg i Transportu Miejskiego"/>
    <tag k="ref" v="82312"/>
    <tag k="source" v="zditm"/>
    <tag k="website" v="http://zditm.szczecin.pl/rozklady/index.html"/>
  </node>
  <node id="1026095864" version="1" timestamp="2010-12-07T09:23:56Z" uid="30632" user="antblant" changeset="6572444" lat="53.39056" lon="14.485688">
    <tag k="highway" v="bus_stop"/>
    <tag k="name" v="Kombinat"/>
    <tag k="operator" v="Zarząd Dróg i Transportu Miejskiego"/>
    <tag k="ref" v="24112"/>
    <tag k="source" v="zditm"/>
    <tag k="website" v="http://zditm.szczecin.pl/rozklady/index.html"/>
  </node>
  <node id="1026095864" version="2" timestamp="2012-02-21T19:23:58Z" uid="603523" user="diverpl" changeset="10752538" lat="53.3906515" lon="14.4858807">
    <tag k="highway" v="bus_stop"/>
    <tag k="name" v="Kombinat"/>
    <tag k="operator" v="Zarząd Dróg i Transportu Miejskiego"/>
    <tag k="ref" v="24112"/>
    <tag k="source" v="zditm"/>
    <tag k="website" v="http://zditm.szczecin.pl/rozklady/index.html"/>
  </node>
  <node id="1026095870" version="1" timestamp="2010-12-07T09:23:57Z" uid="30632" user="antblant" changeset="6572444" lat="53.365604" lon="14.593599">
    <tag k="highway" v="bus_stop"/>
    <tag k="name" v="Metalowa"/>
    <tag k="operator" v="Zarząd Dróg i Transportu Miejskiego"/>
    <tag k="ref" v="82612"/>
    <tag k="source" v="zditm"/>
    <tag k="website" v="http://zditm.szczecin.pl/rozklady/index.html"/>
  </node>
  <node id="1026095875" version="1" timestamp="2010-12-07T09:23:57Z" uid="30632" user="antblant" changeset="6572444" lat="53.354546" lon="14.461988">
    <tag k="highway" v="bus_stop"/>
    <tag k="name" v="Siadło Górne nż"/>
    <tag k="operator" v="Zarząd Dróg i Transportu Miejskiego"/>
    <tag k="ref" v="24511"/>
    <tag k="source" v="zditm"/>
    <tag k="website" v="http://zditm.szczecin.pl/rozklady/index.html"/>
  </node>
  <node id="1026095875" version="2" timestamp="2012-02-21T19:23:59Z" uid="603523" user="diverpl" changeset="10752538" lat="53.354653" lon="14.4619773">
    <tag k="highway" v="bus_stop"/>
    <tag k="name" v="Siadło Górne nż"/>
    <tag k="operator" v="Zarząd Dróg i Transportu Miejskiego"/>
    <tag k="ref" v="24511"/>
    <tag k="source" v="zditm"/>
    <tag k="website" v="http://zditm.szczecin.pl/rozklady/index.html"/>
  </node>
  <node id="1026095882" version="1" timestamp="2010-12-07T09:23:57Z" uid="30632" user="antblant" changeset="6572444" lat="53.340707" lon="14.5538548">
    <tag k="highway" v="bus_stop"/>
    <tag k="name" v="Kluczborska nż"/>
    <tag k="operator" v="Zarząd Dróg i Transportu Miejskiego"/>
    <tag k="ref" v="83412"/>
    <tag k="source" v="zditm"/>
    <tag k="website" v="http://zditm.szczecin.pl/rozklady/index.html"/>
  </node>
  <node id="1026095889" version="1" timestamp="2010-12-07T09:23:57Z" uid="30632" user="antblant" changeset="6572444" lat="53.3792641" lon="14.5445123">
    <tag k="highway" v="bus_stop"/>
    <tag k="name" v="Dziewoklicz nż"/>
    <tag k="operator" v="Zarząd Dróg i Transportu Miejskiego"/>
    <tag k="ref" v="62412"/>
    <tag k="source" v="zditm"/>
    <tag k="website" v="http://zditm.szczecin.pl/rozklady/index.html"/>
  </node>
  <node id="1026095889" version="2" timestamp="2012-02-15T18:29:49Z" uid="603523" user="diverpl" changeset="10694968" lat="53.3792202" lon="14.5445858">
    <tag k="highway" v="bus_stop"/>
    <tag k="name" v="Dziewoklicz nż"/>
    <tag k="operator" v="Zarząd Dróg i Transportu Miejskiego"/>
    <tag k="ref" v="62412"/>
    <tag k="source" v="zditm"/>
    <tag k="website" v="http://zditm.szczecin.pl/rozklady/index.html"/>
  </node>
  <node id="1026095889" version="3" timestamp="2012-02-15T21:32:08Z" uid="603523" user="diverpl" changeset="10696753" lat="53.3792641" lon="14.5445123">
    <tag k="highway" v="bus_stop"/>
    <tag k="name" v="Dziewoklicz nż"/>
    <tag k="operator" v="Zarząd Dróg i Transportu Miejskiego"/>
    <tag k="ref" v="62412"/>
    <tag k="source" v="zditm"/>
    <tag k="website" v="http://zditm.szczecin.pl/rozklady/index.html"/>
  </node>
  <node id="1026095889" version="4" timestamp="2012-02-18T19:08:22Z" uid="603523" user="diverpl" changeset="10723216" lat="53.3792144" lon="14.5445216">
    <tag k="highway" v="bus_stop"/>
    <tag k="name" v="Dziewoklicz nż"/>
    <tag k="operator" v="Zarząd Dróg i Transportu Miejskiego"/>
    <tag k="ref" v="62412"/>
    <tag k="source" v="zditm"/>
    <tag k="website" v="http://zditm.szczecin.pl/rozklady/index.html"/>
  </node>
  <node id="1026095893" version="1" timestamp="2010-12-07T09:23:57Z" uid="30632" user="antblant" changeset="6572444" lat="53.377441" lon="14.619434">
    <tag k="highway" v="bus_stop"/>
    <tag k="name" v="Jez. Szmaragdowe"/>
    <tag k="operator" v="Zarząd Dróg i Transportu Miejskiego"/>
    <tag k="ref" v="82111"/>
    <tag k="source" v="zditm"/>
    <tag k="website" v="http://zditm.szczecin.pl/rozklady/index.html"/>
  </node>
  <node id="1026095897" version="1" timestamp="2010-12-07T09:23:58Z" uid="30632" user="antblant" changeset="6572444" lat="53.360733" lon="14.596785">
    <tag k="highway" v="bus_stop"/>
    <tag k="name" v="Przewiewna"/>
    <tag k="operator" v="Zarząd Dróg i Transportu Miejskiego"/>
    <tag k="ref" v="83911"/>
    <tag k="source" v="zditm"/>
    <tag k="website" v="http://zditm.szczecin.pl/rozklady/index.html"/>
  </node>
  <node id="1026095898" version="1" timestamp="2010-12-07T09:23:58Z" uid="30632" user="antblant" changeset="6572444" lat="53.3497452" lon="14.5735211">
    <tag k="highway" v="bus_stop"/>
    <tag k="name" v="Żydowce"/>
    <tag k="operator" v="Zarząd Dróg i Transportu Miejskiego"/>
    <tag k="ref" v="83011"/>
    <tag k="source" v="zditm"/>
    <tag k="website" v="http://zditm.szczecin.pl/rozklady/index.html"/>
  </node>
  <node id="1026095904" version="1" timestamp="2010-12-07T09:23:58Z" uid="30632" user="antblant" changeset="6572444" lat="53.380779" lon="14.477448">
    <tag k="highway" v="bus_stop"/>
    <tag k="name" v="Przecław Osiedle Zielone Pole"/>
    <tag k="operator" v="Zarząd Dróg i Transportu Miejskiego"/>
    <tag k="ref" v="24311"/>
    <tag k="source" v="zditm"/>
    <tag k="website" v="http://zditm.szczecin.pl/rozklady/index.html"/>
  </node>
  <node id="1026095906" version="1" timestamp="2010-12-07T09:23:58Z" uid="30632" user="antblant" changeset="6572444" lat="53.384632" lon="14.463909">
    <tag k="highway" v="bus_stop"/>
    <tag k="name" v="Warzymice"/>
    <tag k="operator" v="Zarząd Dróg i Transportu Miejskiego"/>
    <tag k="ref" v="26911"/>
    <tag k="source" v="zditm"/>
    <tag k="website" v="http://zditm.szczecin.pl/rozklady/index.html"/>
  </node>
  <node id="1026095906" version="2" timestamp="2012-02-22T22:39:12Z" uid="603523" user="diverpl" changeset="10764172" lat="53.3846715" lon="14.4638869">
    <tag k="highway" v="bus_stop"/>
    <tag k="name" v="Warzymice"/>
    <tag k="operator" v="Zarząd Dróg i Transportu Miejskiego"/>
    <tag k="ref" v="26911"/>
    <tag k="source" v="zditm"/>
    <tag k="website" v="http://zditm.szczecin.pl/rozklady/index.html"/>
  </node>
  <node id="1026095907" version="1" timestamp="2010-12-07T09:23:58Z" uid="30632" user="antblant" changeset="6572444" lat="53.3748597" lon="14.5799553">
    <tag k="highway" v="bus_stop"/>
    <tag k="name" v="Autostrada Poznańska nż"/>
    <tag k="operator" v="Zarząd Dróg i Transportu Miejskiego"/>
    <tag k="ref" v="62612"/>
    <tag k="source" v="zditm"/>
    <tag k="website" v="http://zditm.szczecin.pl/rozklady/index.html"/>
  </node>
  <node id="1026095907" version="2" timestamp="2012-02-15T18:29:43Z" uid="603523" user="diverpl" changeset="10694968" lat="53.3748482" lon="14.5797889">
    <tag k="highway" v="bus_stop"/>
    <tag k="name" v="Autostrada Poznańska nż"/>
    <tag k="operator" v="Zarząd Dróg i Transportu Miejskiego"/>
    <tag k="ref" v="62612"/>
    <tag k="source" v="zditm"/>
    <tag k="website" v="http://zditm.szczecin.pl/rozklady/index.html"/>
  </node>
  <node id="1026095907" version="3" timestamp="2012-02-15T21:32:04Z" uid="603523" user="diverpl" changeset="10696753" lat="53.3748597" lon="14.5799553">
    <tag k="highway" v="bus_stop"/>
    <tag k="name" v="Autostrada Poznańska nż"/>
    <tag k="operator" v="Zarząd Dróg i Transportu Miejskiego"/>
    <tag k="ref" v="62612"/>
    <tag k="source" v="zditm"/>
    <tag k="website" v="http://zditm.szczecin.pl/rozklady/index.html"/>
  </node>
  <node id="1026095907" version="4" timestamp="2012-02-18T19:08:21Z" uid="603523" user="diverpl" changeset="10723216" lat="53.3748487" lon="14.5797302">
    <tag k="highway" v="bus_stop"/>
    <tag k="name" v="Autostrada Poznańska nż"/>
    <tag k="operator" v="Zarząd Dróg i Transportu Miejskiego"/>
    <tag k="ref" v="62612"/>
    <tag k="source" v="zditm"/>
    <tag k="website" v="http://zditm.szczecin.pl/rozklady/index.html"/>
  </node>
  <node id="1026095917" version="1" timestamp="2010-12-07T09:23:59Z" uid="30632" user="antblant" changeset="6572444" lat="53.3728333" lon="14.607119">
    <tag k="highway" v="bus_stop"/>
    <tag k="name" v="Złota nż"/>
    <tag k="operator" v="Zarząd Dróg i Transportu Miejskiego"/>
    <tag k="ref" v="82311"/>
    <tag k="source" v="zditm"/>
    <tag k="website" v="http://zditm.szczecin.pl/rozklady/index.html"/>
  </node>
  <node id="1026095918" version="1" timestamp="2010-12-07T09:23:59Z" uid="30632" user="antblant" changeset="6572444" lat="53.36517" lon="14.592944">
    <tag k="highway" v="bus_stop"/>
    <tag k="name" v="Metalowa"/>
    <tag k="operator" v="Zarząd Dróg i Transportu Miejskiego"/>
    <tag k="ref" v="82611"/>
    <tag k="source" v="zditm"/>
    <tag k="website" v="http://zditm.szczecin.pl/rozklady/index.html"/>
  </node>
  <node id="1026095925" version="1" timestamp="2010-12-07T09:23:59Z" uid="30632" user="antblant" changeset="6572444" lat="53.384819" lon="14.50662">
    <tag k="highway" v="bus_stop"/>
    <tag k="name" v="Ustowo Auchan"/>
    <tag k="operator" v="Zarząd Dróg i Transportu Miejskiego"/>
    <tag k="ref" v="26511"/>
    <tag k="source" v="zditm"/>
    <tag k="website" v="http://zditm.szczecin.pl/rozklady/index.html"/>
  </node>
  <node id="1026095925" version="2" timestamp="2012-02-18T19:08:25Z" uid="603523" user="diverpl" changeset="10723216" lat="53.3848502" lon="14.5065727">
    <tag k="highway" v="bus_stop"/>
    <tag k="name" v="Ustowo Auchan"/>
    <tag k="operator" v="Zarząd Dróg i Transportu Miejskiego"/>
    <tag k="ref" v="26511"/>
    <tag k="source" v="zditm"/>
    <tag k="website" v="http://zditm.szczecin.pl/rozklady/index.html"/>
  </node>
  <node id="1026095929" version="1" timestamp="2010-12-07T09:23:59Z" uid="30632" user="antblant" changeset="6572444" lat="53.344597" lon="14.560372">
    <tag k="highway" v="bus_stop"/>
    <tag k="name" v="Klucz"/>
    <tag k="operator" v="Zarząd Dróg i Transportu Miejskiego"/>
    <tag k="ref" v="83212"/>
    <tag k="source" v="zditm"/>
    <tag k="website" v="http://zditm.szczecin.pl/rozklady/index.html"/>
  </node>
  <node id="1026095939" version="1" timestamp="2010-12-07T09:23:59Z" uid="30632" user="antblant" changeset="6572444" lat="53.37479" lon="14.472063">
    <tag k="highway" v="bus_stop"/>
    <tag k="name" v="Przecław"/>
    <tag k="operator" v="Zarząd Dróg i Transportu Miejskiego"/>
    <tag k="ref" v="24411"/>
    <tag k="source" v="zditm"/>
    <tag k="website" v="http://zditm.szczecin.pl/rozklady/index.html"/>
  </node>
  <node id="1026095939" version="2" timestamp="2012-02-21T19:23:59Z" uid="603523" user="diverpl" changeset="10752538" lat="53.3747917" lon="14.4720463">
    <tag k="highway" v="bus_stop"/>
    <tag k="name" v="Przecław"/>
    <tag k="operator" v="Zarząd Dróg i Transportu Miejskiego"/>
    <tag k="ref" v="24411"/>
    <tag k="source" v="zditm"/>
    <tag k="website" v="http://zditm.szczecin.pl/rozklady/index.html"/>
  </node>
  <node id="1026095944" version="1" timestamp="2010-12-07T09:24:00Z" uid="30632" user="antblant" changeset="6572444" lat="53.386623" lon="14.469734">
    <tag k="highway" v="bus_stop"/>
    <tag k="name" v="Warzymice Hurtownia nż"/>
    <tag k="operator" v="Zarząd Dróg i Transportu Miejskiego"/>
    <tag k="ref" v="26811"/>
    <tag k="source" v="zditm"/>
    <tag k="website" v="http://zditm.szczecin.pl/rozklady/index.html"/>
  </node>
  <node id="1026095944" version="2" timestamp="2012-02-22T22:39:10Z" uid="603523" user="diverpl" changeset="10764172" lat="53.3866508" lon="14.4697954">
    <tag k="highway" v="bus_stop"/>
    <tag k="name" v="Warzymice Hurtownia nż"/>
    <tag k="operator" v="Zarząd Dróg i Transportu Miejskiego"/>
    <tag k="ref" v="26811"/>
    <tag k="source" v="zditm"/>
    <tag k="website" v="http://zditm.szczecin.pl/rozklady/index.html"/>
  </node>
  <node id="1026095946" version="1" timestamp="2010-12-07T09:24:00Z" uid="30632" user="antblant" changeset="6572444" lat="53.363529" lon="14.597558">
    <tag k="highway" v="bus_stop"/>
    <tag k="name" v="Miechowska"/>
    <tag k="operator" v="Zarząd Dróg i Transportu Miejskiego"/>
    <tag k="ref" v="83811"/>
    <tag k="source" v="zditm"/>
    <tag k="website" v="http://zditm.szczecin.pl/rozklady/index.html"/>
  </node>
  <node id="1026095961" version="1" timestamp="2010-12-07T09:24:00Z" uid="30632" user="antblant" changeset="6572444" lat="53.3526055" lon="14.5763644">
    <tag k="highway" v="bus_stop"/>
    <tag k="name" v="Transportowa"/>
    <tag k="operator" v="Zarząd Dróg i Transportu Miejskiego"/>
    <tag k="ref" v="82912"/>
    <tag k="source" v="zditm"/>
    <tag k="website" v="http://zditm.szczecin.pl/rozklady/index.html"/>
  </node>
</osm>
