<?xml version='1.0' encoding='UTF-8'?>
<osm version="0.6" generator="libosmium/2.20.0">
  <node id="1026522249" version="1" timestamp="2010-12-07T14:38:42Z" uid="115477" user="wowik" changeset="6575537" lat="54.7518674" lon="30.2777787">
    <tag k="name" v="Лужки"/>
    <tag k="name:ru" v="Лужки"/>
    <tag k="railway" v="halt"/>
  </node>
  <node id="1026522249" version="2" timestamp="2011-11-27T21:19:32Z" uid="86479" user="osm-belarus" changeset="9969899" lat="54.7518674" lon="30.2777787">
    <tag k="name" v="Лужки"/>
    <tag k="name:be" v="Лужкі"/>
    <tag k="name:ru" v="Лужки"/>
    <tag k="railway" v="halt"/>
  </node>
  <node id="1026522278" version="1" timestamp="2010-12-07T14:38:43Z" uid="115477" user="wowik" changeset="6575537" lat="54.7369773" lon="30.2794387"/>
  <node id="1026529339" version="1" timestamp="2010-12-07T14:43:12Z" uid="115477" user="wowik" changeset="6575576" lat="55.5844544" lon="28.595993">
    <tag k="alt_name" v="Баравуха"/>
    <tag k="alt_name:ru" v="Баравуха"/>
    <tag k="name" v="Боровуха"/>
    <tag k="name:ru" v="Боровуха"/>
    <tag k="railway" v="station"/>
  </node>
  <node id="1026529339" version="2" timestamp="2011-11-27T21:01:26Z" uid="86479" user="osm-belarus" changeset="9969899" lat="55.5844544" lon="28.595993">
    <tag k="alt_name" v="Баравуха"/>
    <tag k="alt_name:ru" v="Баравуха"/>
    <tag k="name" v="Боровуха"/>
    <tag k="name:be" v="Баравуха"/>
    <tag k="name:ru" v="Боровуха"/>
    <tag k="railway" v="station"/>
  </node>
</osm>
