<?xml version='1.0' encoding='UTF-8'?>
<osm version="0.6" generator="libosmium/2.20.0">
  <node id="1027720610" version="1" timestamp="2010-12-08T07:29:13Z" uid="4467" user="Rosscoe" changeset="6582402" lat="-20.6680004" lon="116.7092922">
    <tag k="addr:city" v="Dampier"/>
    <tag k="addr:country" v="AU"/>
    <tag k="addr:postcode" v="6713"/>
    <tag k="addr:state" v="WA"/>
    <tag k="addr:street" v="Lockyer Crescent"/>
    <tag k="source" v="survey"/>
  </node>
  <node id="1027720610" version="2" timestamp="2011-03-20T05:33:41Z" uid="4467" user="Rosscoe" changeset="7612786" lat="-20.6680004" lon="116.7092922">
    <tag k="addr:city" v="Dampier"/>
    <tag k="addr:country" v="AU"/>
    <tag k="addr:housenumber" v="183"/>
    <tag k="addr:postcode" v="6713"/>
    <tag k="addr:state" v="WA"/>
    <tag k="addr:street" v="Lockyer Crescent"/>
    <tag k="source" v="survey"/>
  </node>
  <node id="1027720613" version="1" timestamp="2010-12-08T07:29:13Z" uid="4467" user="Rosscoe" changeset="6582402" lat="-20.6649025" lon="116.7126358">
    <tag k="addr:city" v="Dampier"/>
    <tag k="addr:country" v="AU"/>
    <tag k="addr:postcode" v="6713"/>
    <tag k="addr:state" v="WA"/>
    <tag k="addr:street" v="Irwin Crescent"/>
    <tag k="source" v="survey"/>
  </node>
  <node id="1027720613" version="2" timestamp="2011-03-20T05:49:57Z" uid="4467" user="Rosscoe" changeset="7612841" lat="-20.6649025" lon="116.7126358">
    <tag k="addr:city" v="Dampier"/>
    <tag k="addr:country" v="AU"/>
    <tag k="addr:housenumber" v="121"/>
    <tag k="addr:postcode" v="6713"/>
    <tag k="addr:state" v="WA"/>
    <tag k="addr:street" v="Irwin Crescent"/>
    <tag k="source" v="survey"/>
  </node>
  <node id="1027720623" version="1" timestamp="2010-12-08T07:29:13Z" uid="4467" user="Rosscoe" changeset="6582402" lat="-20.6659543" lon="116.709092">
    <tag k="addr:city" v="Dampier"/>
    <tag k="addr:country" v="AU"/>
    <tag k="addr:postcode" v="6713"/>
    <tag k="addr:state" v="WA"/>
    <tag k="addr:street" v="Fortesque Crescent"/>
    <tag k="source" v="survey"/>
  </node>
  <node id="1027720623" version="2" timestamp="2011-03-20T05:29:02Z" uid="4467" user="Rosscoe" changeset="7612776" lat="-20.6659543" lon="116.709092">
    <tag k="addr:city" v="Dampier"/>
    <tag k="addr:country" v="AU"/>
    <tag k="addr:housenumber" v="84"/>
    <tag k="addr:postcode" v="6713"/>
    <tag k="addr:state" v="WA"/>
    <tag k="addr:street" v="Fortesque Crescent"/>
    <tag k="source" v="survey"/>
  </node>
  <node id="1027720629" version="1" timestamp="2010-12-08T07:29:13Z" uid="4467" user="Rosscoe" changeset="6582402" lat="-20.6651588" lon="116.7158772">
    <tag k="addr:city" v="Dampier"/>
    <tag k="addr:country" v="AU"/>
    <tag k="addr:postcode" v="6713"/>
    <tag k="addr:state" v="WA"/>
    <tag k="addr:street" v="Hannan Crescent"/>
    <tag k="source" v="survey"/>
  </node>
  <node id="1027720629" version="2" timestamp="2011-03-22T05:11:57Z" uid="4467" user="Rosscoe" changeset="7633830" lat="-20.6651588" lon="116.7158772">
    <tag k="addr:city" v="Dampier"/>
    <tag k="addr:country" v="AU"/>
    <tag k="addr:housenumber" v="151A"/>
    <tag k="addr:postcode" v="6713"/>
    <tag k="addr:state" v="WA"/>
    <tag k="addr:street" v="Hannan Crescent"/>
    <tag k="source" v="survey"/>
  </node>
  <node id="1027720637" version="1" timestamp="2010-12-08T07:29:13Z" uid="4467" user="Rosscoe" changeset="6582402" lat="-20.6673999" lon="116.7133552">
    <tag k="addr:city" v="Dampier"/>
    <tag k="addr:country" v="AU"/>
    <tag k="addr:postcode" v="6713"/>
    <tag k="addr:state" v="WA"/>
    <tag k="addr:street" v="Flinders Crescent"/>
    <tag k="source" v="survey"/>
  </node>
  <node id="1027720637" version="2" timestamp="2011-03-09T06:58:10Z" uid="4467" user="Rosscoe" changeset="7501011" lat="-20.6673999" lon="116.7133552">
    <tag k="addr:city" v="Dampier"/>
    <tag k="addr:country" v="AU"/>
    <tag k="addr:housenumber" v="166"/>
    <tag k="addr:postcode" v="6713"/>
    <tag k="addr:state" v="WA"/>
    <tag k="addr:street" v="Flinders Crescent"/>
    <tag k="source" v="survey"/>
  </node>
  <node id="1027720642" version="1" timestamp="2010-12-08T07:29:13Z" uid="4467" user="Rosscoe" changeset="6582402" lat="-20.6644321" lon="116.7092555">
    <tag k="addr:city" v="Dampier"/>
    <tag k="addr:country" v="AU"/>
    <tag k="addr:postcode" v="6713"/>
    <tag k="addr:state" v="WA"/>
    <tag k="addr:street" v="Hardey Crescent"/>
    <tag k="source" v="survey"/>
  </node>
  <node id="1027720642" version="2" timestamp="2011-03-20T05:26:51Z" uid="4467" user="Rosscoe" changeset="7612771" lat="-20.6644321" lon="116.7092555">
    <tag k="addr:city" v="Dampier"/>
    <tag k="addr:country" v="AU"/>
    <tag k="addr:housenumber" v="65"/>
    <tag k="addr:postcode" v="6713"/>
    <tag k="addr:state" v="WA"/>
    <tag k="addr:street" v="Hardey Crescent"/>
    <tag k="source" v="survey"/>
  </node>
  <node id="1027720646" version="1" timestamp="2010-12-08T07:29:13Z" uid="4467" user="Rosscoe" changeset="6582402" lat="-20.6702032" lon="116.7113442">
    <tag k="addr:city" v="Dampier"/>
    <tag k="addr:country" v="AU"/>
    <tag k="addr:postcode" v="6713"/>
    <tag k="addr:state" v="WA"/>
    <tag k="addr:street" v="Fremantle Crescent"/>
    <tag k="source" v="survey"/>
  </node>
  <node id="1027720646" version="2" timestamp="2011-03-20T05:43:42Z" uid="4467" user="Rosscoe" changeset="7612817" lat="-20.6702032" lon="116.7113442">
    <tag k="addr:city" v="Dampier"/>
    <tag k="addr:country" v="AU"/>
    <tag k="addr:housenumber" v="223"/>
    <tag k="addr:postcode" v="6713"/>
    <tag k="addr:state" v="WA"/>
    <tag k="addr:street" v="Fremantle Crescent"/>
    <tag k="source" v="survey"/>
  </node>
  <node id="1027720656" version="1" timestamp="2010-12-08T07:29:13Z" uid="4467" user="Rosscoe" changeset="6582402" lat="-20.6627685" lon="116.7040235"/>
  <node id="1027720658" version="1" timestamp="2010-12-08T07:29:14Z" uid="4467" user="Rosscoe" changeset="6582402" lat="-20.6689412" lon="116.7108945">
    <tag k="addr:city" v="Dampier"/>
    <tag k="addr:country" v="AU"/>
    <tag k="addr:postcode" v="6713"/>
    <tag k="addr:state" v="WA"/>
    <tag k="addr:street" v="Gregory Crescent"/>
    <tag k="source" v="survey"/>
  </node>
  <node id="1027720658" version="2" timestamp="2011-03-20T05:35:56Z" uid="4467" user="Rosscoe" changeset="7612795" lat="-20.6689412" lon="116.7108945">
    <tag k="addr:city" v="Dampier"/>
    <tag k="addr:country" v="AU"/>
    <tag k="addr:housenumber" v="206"/>
    <tag k="addr:postcode" v="6713"/>
    <tag k="addr:state" v="WA"/>
    <tag k="addr:street" v="Gregory Crescent"/>
    <tag k="source" v="survey"/>
  </node>
  <node id="1027720663" version="1" timestamp="2010-12-08T07:29:14Z" uid="4467" user="Rosscoe" changeset="6582402" lat="-20.6652888" lon="116.7098441">
    <tag k="addr:city" v="Dampier"/>
    <tag k="addr:country" v="AU"/>
    <tag k="addr:postcode" v="6713"/>
    <tag k="addr:state" v="WA"/>
    <tag k="addr:street" v="Fortesque Crescent"/>
    <tag k="source" v="survey"/>
  </node>
  <node id="1027720663" version="2" timestamp="2011-02-19T17:04:09Z" uid="4467" user="Rosscoe" changeset="7333962" lat="-20.6652888" lon="116.7098441">
    <tag k="addr:city" v="Dampier"/>
    <tag k="addr:country" v="AU"/>
    <tag k="addr:housenumber" v="74"/>
    <tag k="addr:postcode" v="6713"/>
    <tag k="addr:state" v="WA"/>
    <tag k="addr:street" v="Fortesque Crescent"/>
    <tag k="source" v="survey"/>
  </node>
  <node id="1027720671" version="1" timestamp="2010-12-08T07:29:14Z" uid="4467" user="Rosscoe" changeset="6582402" lat="-20.664501" lon="116.7155379">
    <tag k="addr:city" v="Dampier"/>
    <tag k="addr:country" v="AU"/>
    <tag k="addr:postcode" v="6713"/>
    <tag k="addr:state" v="WA"/>
    <tag k="addr:street" v="Drummond Crescent"/>
    <tag k="source" v="survey"/>
  </node>
  <node id="1027720671" version="2" timestamp="2011-03-10T02:34:01Z" uid="4467" user="Rosscoe" changeset="7510456" lat="-20.664501" lon="116.7155379">
    <tag k="addr:city" v="Dampier"/>
    <tag k="addr:country" v="AU"/>
    <tag k="addr:housenumber" v="143"/>
    <tag k="addr:postcode" v="6713"/>
    <tag k="addr:state" v="WA"/>
    <tag k="addr:street" v="Drummond Crescent"/>
    <tag k="source" v="survey"/>
  </node>
  <node id="1027720674" version="1" timestamp="2010-12-08T07:29:14Z" uid="4467" user="Rosscoe" changeset="6582402" lat="-20.6655757" lon="116.7121249">
    <tag k="addr:city" v="Dampier"/>
    <tag k="addr:country" v="AU"/>
    <tag k="addr:postcode" v="6713"/>
    <tag k="addr:state" v="WA"/>
    <tag k="addr:street" v="Meda Crescent"/>
    <tag k="source" v="survey"/>
  </node>
  <node id="1027720674" version="2" timestamp="2011-03-09T06:58:11Z" uid="4467" user="Rosscoe" changeset="7501011" lat="-20.6655757" lon="116.7121249">
    <tag k="addr:city" v="Dampier"/>
    <tag k="addr:country" v="AU"/>
    <tag k="addr:housenumber" v="127"/>
    <tag k="addr:postcode" v="6713"/>
    <tag k="addr:state" v="WA"/>
    <tag k="addr:street" v="Meda Crescent"/>
    <tag k="source" v="survey"/>
  </node>
  <node id="1027720686" version="1" timestamp="2010-12-08T07:29:14Z" uid="4467" user="Rosscoe" changeset="6582402" lat="-20.6680501" lon="116.7134615">
    <tag k="addr:city" v="Dampier"/>
    <tag k="addr:country" v="AU"/>
    <tag k="addr:postcode" v="6713"/>
    <tag k="addr:state" v="WA"/>
    <tag k="addr:street" v="Thyseen Crescent"/>
    <tag k="source" v="survey"/>
  </node>
  <node id="1027720686" version="2" timestamp="2011-03-10T02:34:02Z" uid="4467" user="Rosscoe" changeset="7510456" lat="-20.6680501" lon="116.7134615">
    <tag k="addr:city" v="Dampier"/>
    <tag k="addr:country" v="AU"/>
    <tag k="addr:housenumber" v="171"/>
    <tag k="addr:postcode" v="6713"/>
    <tag k="addr:state" v="WA"/>
    <tag k="addr:street" v="Warburton Crescent"/>
    <tag k="source" v="survey"/>
  </node>
  <node id="1027720690" version="1" timestamp="2010-12-08T07:29:14Z" uid="4467" user="Rosscoe" changeset="6582402" lat="-20.6695837" lon="116.710776">
    <tag k="addr:city" v="Dampier"/>
    <tag k="addr:country" v="AU"/>
    <tag k="addr:postcode" v="6713"/>
    <tag k="addr:state" v="WA"/>
    <tag k="addr:street" v="Roe Crescent"/>
    <tag k="source" v="survey"/>
  </node>
  <node id="1027720690" version="2" timestamp="2011-03-09T06:58:13Z" uid="4467" user="Rosscoe" changeset="7501011" lat="-20.6695837" lon="116.710776">
    <tag k="addr:city" v="Dampier"/>
    <tag k="addr:country" v="AU"/>
    <tag k="addr:housenumber" v="214"/>
    <tag k="addr:postcode" v="6713"/>
    <tag k="addr:state" v="WA"/>
    <tag k="addr:street" v="Roe Crescent"/>
    <tag k="source" v="survey"/>
  </node>
  <node id="1027720693" version="1" timestamp="2010-12-08T07:29:14Z" uid="4467" user="Rosscoe" changeset="6582402" lat="-20.6630477" lon="116.7125132">
    <tag k="addr:city" v="Dampier"/>
    <tag k="addr:country" v="AU"/>
    <tag k="addr:postcode" v="6713"/>
    <tag k="addr:state" v="WA"/>
    <tag k="addr:street" v="Oaklover Crescent"/>
    <tag k="source" v="survey"/>
  </node>
  <node id="1027720693" version="2" timestamp="2011-03-09T06:58:14Z" uid="4467" user="Rosscoe" changeset="7501011" lat="-20.6630477" lon="116.7125132">
    <tag k="addr:city" v="Dampier"/>
    <tag k="addr:country" v="AU"/>
    <tag k="addr:housenumber" v="101"/>
    <tag k="addr:postcode" v="6713"/>
    <tag k="addr:state" v="WA"/>
    <tag k="addr:street" v="Oaklover Crescent"/>
    <tag k="source" v="survey"/>
  </node>
  <node id="1027720696" version="1" timestamp="2010-12-08T07:29:14Z" uid="4467" user="Rosscoe" changeset="6582402" lat="-20.6676485" lon="116.7109109">
    <tag k="addr:city" v="Dampier"/>
    <tag k="addr:country" v="AU"/>
    <tag k="addr:postcode" v="6713"/>
    <tag k="addr:state" v="WA"/>
    <tag k="addr:street" v="Lockyer Crescent"/>
    <tag k="source" v="survey"/>
  </node>
  <node id="1027720696" version="2" timestamp="2011-03-20T05:33:40Z" uid="4467" user="Rosscoe" changeset="7612786" lat="-20.6676485" lon="116.7109109">
    <tag k="addr:city" v="Dampier"/>
    <tag k="addr:country" v="AU"/>
    <tag k="addr:housenumber" v="190"/>
    <tag k="addr:postcode" v="6713"/>
    <tag k="addr:state" v="WA"/>
    <tag k="addr:street" v="Lockyer Crescent"/>
    <tag k="source" v="survey"/>
  </node>
  <node id="1027720698" version="1" timestamp="2010-12-08T07:29:14Z" uid="4467" user="Rosscoe" changeset="6582402" lat="-20.6649293" lon="116.7124151">
    <tag k="addr:city" v="Dampier"/>
    <tag k="addr:country" v="AU"/>
    <tag k="addr:postcode" v="6713"/>
    <tag k="addr:state" v="WA"/>
    <tag k="addr:street" v="Irwin Crescent"/>
    <tag k="source" v="survey"/>
  </node>
  <node id="1027720698" version="2" timestamp="2011-03-20T05:49:58Z" uid="4467" user="Rosscoe" changeset="7612841" lat="-20.6649293" lon="116.7124151">
    <tag k="addr:city" v="Dampier"/>
    <tag k="addr:country" v="AU"/>
    <tag k="addr:housenumber" v="122"/>
    <tag k="addr:postcode" v="6713"/>
    <tag k="addr:state" v="WA"/>
    <tag k="addr:street" v="Irwin Crescent"/>
    <tag k="source" v="survey"/>
  </node>
  <node id="1027720704" version="1" timestamp="2010-12-08T07:29:15Z" uid="4467" user="Rosscoe" changeset="6582402" lat="-20.6657019" lon="116.7082458">
    <tag k="addr:city" v="Dampier"/>
    <tag k="addr:country" v="AU"/>
    <tag k="addr:postcode" v="6713"/>
    <tag k="addr:state" v="WA"/>
    <tag k="addr:street" v="Fortesque Crescent"/>
    <tag k="source" v="survey"/>
  </node>
  <node id="1027720704" version="2" timestamp="2011-02-19T17:04:06Z" uid="4467" user="Rosscoe" changeset="7333962" lat="-20.6657019" lon="116.7082458">
    <tag k="addr:city" v="Dampier"/>
    <tag k="addr:country" v="AU"/>
    <tag k="addr:housenumber" v="71D"/>
    <tag k="addr:postcode" v="6713"/>
    <tag k="addr:state" v="WA"/>
    <tag k="addr:street" v="Fortesque Crescent"/>
    <tag k="source" v="survey"/>
  </node>
  <node id="1027720706" version="1" timestamp="2010-12-08T07:29:15Z" uid="4467" user="Rosscoe" changeset="6582402" lat="-20.6657707" lon="116.715497">
    <tag k="addr:city" v="Dampier"/>
    <tag k="addr:country" v="AU"/>
    <tag k="addr:postcode" v="6713"/>
    <tag k="addr:state" v="WA"/>
    <tag k="addr:street" v="Giles Crescent"/>
    <tag k="source" v="survey"/>
  </node>
  <node id="1027720706" version="2" timestamp="2011-03-10T02:34:01Z" uid="4467" user="Rosscoe" changeset="7510456" lat="-20.6657707" lon="116.715497">
    <tag k="addr:city" v="Dampier"/>
    <tag k="addr:country" v="AU"/>
    <tag k="addr:housenumber" v="152A"/>
    <tag k="addr:postcode" v="6713"/>
    <tag k="addr:state" v="WA"/>
    <tag k="addr:street" v="Giles Crescent"/>
    <tag k="source" v="survey"/>
  </node>
  <node id="1027720709" version="1" timestamp="2010-12-08T07:29:15Z" uid="4467" user="Rosscoe" changeset="6582402" lat="-20.6666236" lon="116.7141564">
    <tag k="addr:city" v="Dampier"/>
    <tag k="addr:country" v="AU"/>
    <tag k="addr:postcode" v="6713"/>
    <tag k="addr:state" v="WA"/>
    <tag k="addr:street" v="Burke Crescent"/>
    <tag k="source" v="survey"/>
  </node>
  <node id="1027720709" version="2" timestamp="2011-03-20T05:43:42Z" uid="4467" user="Rosscoe" changeset="7612817" lat="-20.6666236" lon="116.7141564">
    <tag k="addr:city" v="Dampier"/>
    <tag k="addr:country" v="AU"/>
    <tag k="addr:housenumber" v="156C"/>
    <tag k="addr:postcode" v="6713"/>
    <tag k="addr:state" v="WA"/>
    <tag k="addr:street" v="Burke Crescent"/>
    <tag k="source" v="survey"/>
  </node>
  <node id="1027720712" version="1" timestamp="2010-12-08T07:29:15Z" uid="4467" user="Rosscoe" changeset="6582402" lat="-20.6636825" lon="116.7102896">
    <tag k="addr:city" v="Dampier"/>
    <tag k="addr:country" v="AU"/>
    <tag k="addr:postcode" v="6713"/>
    <tag k="addr:state" v="WA"/>
    <tag k="addr:street" v="Gascoyne Crescent"/>
    <tag k="source" v="survey"/>
  </node>
  <node id="1027720712" version="2" timestamp="2011-02-02T04:43:27Z" uid="4467" user="Rosscoe" changeset="7161492" lat="-20.6636825" lon="116.7102896">
    <tag k="addr:city" v="Dampier"/>
    <tag k="addr:country" v="AU"/>
    <tag k="addr:housenumber" v="59"/>
    <tag k="addr:postcode" v="6713"/>
    <tag k="addr:state" v="WA"/>
    <tag k="addr:street" v="Gascoyne Crescent"/>
    <tag k="source" v="survey"/>
  </node>
  <node id="1027720715" version="1" timestamp="2010-12-08T07:29:15Z" uid="4467" user="Rosscoe" changeset="6582402" lat="-20.668291" lon="116.7102896">
    <tag k="addr:city" v="Dampier"/>
    <tag k="addr:country" v="AU"/>
    <tag k="addr:postcode" v="6713"/>
    <tag k="addr:state" v="WA"/>
    <tag k="addr:street" v="Forrest Crescent"/>
    <tag k="source" v="survey"/>
  </node>
  <node id="1027720715" version="2" timestamp="2011-03-09T00:58:23Z" uid="4467" user="Rosscoe" changeset="7500213" lat="-20.668291" lon="116.7102896">
    <tag k="addr:city" v="Dampier"/>
    <tag k="addr:country" v="AU"/>
    <tag k="addr:housenumber" v="198"/>
    <tag k="addr:postcode" v="6713"/>
    <tag k="addr:state" v="WA"/>
    <tag k="addr:street" v="Forrest Crescent"/>
    <tag k="source" v="survey"/>
  </node>
  <node id="1027720717" version="1" timestamp="2010-12-08T07:29:15Z" uid="4467" user="Rosscoe" changeset="6582402" lat="-20.6661952" lon="116.7086546">
    <tag k="addr:city" v="Dampier"/>
    <tag k="addr:country" v="AU"/>
    <tag k="addr:postcode" v="6713"/>
    <tag k="addr:state" v="WA"/>
    <tag k="addr:street" v="Fortesque Crescent"/>
    <tag k="source" v="survey"/>
  </node>
  <node id="1027720717" version="2" timestamp="2011-03-20T05:29:02Z" uid="4467" user="Rosscoe" changeset="7612776" lat="-20.6661952" lon="116.7086546">
    <tag k="addr:city" v="Dampier"/>
    <tag k="addr:country" v="AU"/>
    <tag k="addr:housenumber" v="86"/>
    <tag k="addr:postcode" v="6713"/>
    <tag k="addr:state" v="WA"/>
    <tag k="addr:street" v="Fortesque Crescent"/>
    <tag k="source" v="survey"/>
  </node>
  <node id="1027720718" version="1" timestamp="2010-12-08T07:29:15Z" uid="4467" user="Rosscoe" changeset="6582402" lat="-20.6645201" lon="116.7088058">
    <tag k="addr:city" v="Dampier"/>
    <tag k="addr:country" v="AU"/>
    <tag k="addr:postcode" v="6713"/>
    <tag k="addr:state" v="WA"/>
    <tag k="addr:street" v="Hardey Crescent"/>
    <tag k="source" v="survey"/>
  </node>
  <node id="1027720718" version="2" timestamp="2011-03-20T05:26:52Z" uid="4467" user="Rosscoe" changeset="7612771" lat="-20.6645201" lon="116.7088058">
    <tag k="addr:city" v="Dampier"/>
    <tag k="addr:country" v="AU"/>
    <tag k="addr:housenumber" v="67"/>
    <tag k="addr:postcode" v="6713"/>
    <tag k="addr:state" v="WA"/>
    <tag k="addr:street" v="Hardey Crescent"/>
    <tag k="source" v="survey"/>
  </node>
  <node id="1027720719" version="1" timestamp="2010-12-08T07:29:16Z" uid="4467" user="Rosscoe" changeset="6582402" lat="-20.6639464" lon="116.716147">
    <tag k="addr:city" v="Dampier"/>
    <tag k="addr:country" v="AU"/>
    <tag k="addr:postcode" v="6713"/>
    <tag k="addr:state" v="WA"/>
    <tag k="addr:street" v="Prinsep Crescent"/>
    <tag k="source" v="survey"/>
  </node>
  <node id="1027720719" version="2" timestamp="2011-03-22T05:11:56Z" uid="4467" user="Rosscoe" changeset="7633830" lat="-20.6639464" lon="116.716147">
    <tag k="addr:city" v="Dampier"/>
    <tag k="addr:country" v="AU"/>
    <tag k="addr:housenumber" v="139B"/>
    <tag k="addr:postcode" v="6713"/>
    <tag k="addr:state" v="WA"/>
    <tag k="addr:street" v="Prinsep Crescent"/>
    <tag k="source" v="survey"/>
  </node>
  <node id="1027720720" version="1" timestamp="2010-12-08T07:29:16Z" uid="4467" user="Rosscoe" changeset="6582402" lat="-20.6633842" lon="116.703721"/>
  <node id="1027720721" version="1" timestamp="2010-12-08T07:29:16Z" uid="4467" user="Rosscoe" changeset="6582402" lat="-20.6635219" lon="116.7130977">
    <tag k="addr:city" v="Dampier"/>
    <tag k="addr:country" v="AU"/>
    <tag k="addr:postcode" v="6713"/>
    <tag k="addr:state" v="WA"/>
    <tag k="addr:street" v="Murchinson Crescent"/>
    <tag k="source" v="survey"/>
  </node>
  <node id="1027720721" version="2" timestamp="2011-03-20T05:49:57Z" uid="4467" user="Rosscoe" changeset="7612841" lat="-20.6635219" lon="116.7130977">
    <tag k="addr:city" v="Dampier"/>
    <tag k="addr:country" v="AU"/>
    <tag k="addr:housenumber" v="103"/>
    <tag k="addr:postcode" v="6713"/>
    <tag k="addr:state" v="WA"/>
    <tag k="addr:street" v="Murchinson Crescent"/>
    <tag k="source" v="survey"/>
  </node>
  <node id="1027720722" version="1" timestamp="2010-12-08T07:29:16Z" uid="4467" user="Rosscoe" changeset="6582402" lat="-20.66779" lon="116.709746">
    <tag k="addr:city" v="Dampier"/>
    <tag k="addr:country" v="AU"/>
    <tag k="addr:postcode" v="6713"/>
    <tag k="addr:state" v="WA"/>
    <tag k="addr:street" v="Lockyer Crescent"/>
    <tag k="source" v="survey"/>
  </node>
  <node id="1027720722" version="2" timestamp="2011-03-20T05:33:41Z" uid="4467" user="Rosscoe" changeset="7612786" lat="-20.66779" lon="116.709746">
    <tag k="addr:city" v="Dampier"/>
    <tag k="addr:country" v="AU"/>
    <tag k="addr:housenumber" v="185"/>
    <tag k="addr:postcode" v="6713"/>
    <tag k="addr:state" v="WA"/>
    <tag k="addr:street" v="Lockyer Crescent"/>
    <tag k="source" v="survey"/>
  </node>
  <node id="1027720723" version="1" timestamp="2010-12-08T07:29:16Z" uid="4467" user="Rosscoe" changeset="6582402" lat="-20.6655718" lon="116.7125786">
    <tag k="addr:city" v="Dampier"/>
    <tag k="addr:country" v="AU"/>
    <tag k="addr:postcode" v="6713"/>
    <tag k="addr:state" v="WA"/>
    <tag k="addr:street" v="Meda Crescent"/>
    <tag k="source" v="survey"/>
  </node>
  <node id="1027720723" version="2" timestamp="2011-03-09T06:58:10Z" uid="4467" user="Rosscoe" changeset="7501011" lat="-20.6655718" lon="116.7125786">
    <tag k="addr:city" v="Dampier"/>
    <tag k="addr:country" v="AU"/>
    <tag k="addr:housenumber" v="129"/>
    <tag k="addr:postcode" v="6713"/>
    <tag k="addr:state" v="WA"/>
    <tag k="addr:street" v="Meda Crescent"/>
    <tag k="source" v="survey"/>
  </node>
  <node id="1027720724" version="1" timestamp="2010-12-08T07:29:16Z" uid="4467" user="Rosscoe" changeset="6582402" lat="-20.6656521" lon="116.7108864">
    <tag k="addr:city" v="Dampier"/>
    <tag k="addr:country" v="AU"/>
    <tag k="addr:postcode" v="6713"/>
    <tag k="addr:state" v="WA"/>
    <tag k="addr:street" v="Berkley Crescent"/>
    <tag k="source" v="survey"/>
  </node>
  <node id="1027720724" version="2" timestamp="2011-03-20T05:29:02Z" uid="4467" user="Rosscoe" changeset="7612776" lat="-20.6656521" lon="116.7108864">
    <tag k="addr:city" v="Dampier"/>
    <tag k="addr:country" v="AU"/>
    <tag k="addr:housenumber" v="79C"/>
    <tag k="addr:postcode" v="6713"/>
    <tag k="addr:state" v="WA"/>
    <tag k="addr:street" v="Berkley Crescent"/>
    <tag k="source" v="survey"/>
  </node>
  <node id="1027720725" version="1" timestamp="2010-12-08T07:29:16Z" uid="4467" user="Rosscoe" changeset="6582402" lat="-20.6653079" lon="116.7144711">
    <tag k="addr:city" v="Dampier"/>
    <tag k="addr:country" v="AU"/>
    <tag k="addr:postcode" v="6713"/>
    <tag k="addr:state" v="WA"/>
    <tag k="addr:street" v="Hannan Crescent"/>
    <tag k="source" v="survey"/>
  </node>
  <node id="1027720725" version="2" timestamp="2011-03-22T05:11:54Z" uid="4467" user="Rosscoe" changeset="7633830" lat="-20.6653079" lon="116.7144711">
    <tag k="addr:city" v="Dampier"/>
    <tag k="addr:country" v="AU"/>
    <tag k="addr:housenumber" v="146"/>
    <tag k="addr:postcode" v="6713"/>
    <tag k="addr:state" v="WA"/>
    <tag k="addr:street" v="Hannan Crescent"/>
    <tag k="source" v="survey"/>
  </node>
  <node id="1027720726" version="1" timestamp="2010-12-08T07:29:16Z" uid="4467" user="Rosscoe" changeset="6582402" lat="-20.6673885" lon="116.7128811">
    <tag k="addr:city" v="Dampier"/>
    <tag k="addr:country" v="AU"/>
    <tag k="addr:postcode" v="6713"/>
    <tag k="addr:state" v="WA"/>
    <tag k="addr:street" v="Flinders Crescent"/>
    <tag k="source" v="survey"/>
  </node>
  <node id="1027720726" version="2" timestamp="2011-03-09T06:58:12Z" uid="4467" user="Rosscoe" changeset="7501011" lat="-20.6673885" lon="116.7128811">
    <tag k="addr:city" v="Dampier"/>
    <tag k="addr:country" v="AU"/>
    <tag k="addr:housenumber" v="164"/>
    <tag k="addr:postcode" v="6713"/>
    <tag k="addr:state" v="WA"/>
    <tag k="addr:street" v="Flinders Crescent"/>
    <tag k="source" v="survey"/>
  </node>
  <node id="1027720727" version="1" timestamp="2010-12-08T07:29:17Z" uid="4467" user="Rosscoe" changeset="6582402" lat="-20.6639043" lon="116.7091492">
    <tag k="addr:city" v="Dampier"/>
    <tag k="addr:country" v="AU"/>
    <tag k="addr:postcode" v="6713"/>
    <tag k="addr:state" v="WA"/>
    <tag k="addr:street" v="Gascoyne Crescent"/>
    <tag k="source" v="survey"/>
  </node>
  <node id="1027720727" version="2" timestamp="2011-02-02T04:43:27Z" uid="4467" user="Rosscoe" changeset="7161492" lat="-20.6639043" lon="116.7091492">
    <tag k="addr:city" v="Dampier"/>
    <tag k="addr:country" v="AU"/>
    <tag k="addr:housenumber" v="55A"/>
    <tag k="addr:postcode" v="6713"/>
    <tag k="addr:state" v="WA"/>
    <tag k="addr:street" v="Gascoyne Crescent"/>
    <tag k="source" v="survey"/>
  </node>
  <node id="1027720728" version="1" timestamp="2010-12-08T07:29:17Z" uid="4467" user="Rosscoe" changeset="6582402" lat="-20.6702223" lon="116.7118224">
    <tag k="addr:city" v="Dampier"/>
    <tag k="addr:country" v="AU"/>
    <tag k="addr:postcode" v="6713"/>
    <tag k="addr:state" v="WA"/>
    <tag k="addr:street" v="Fremantle Crescent"/>
    <tag k="source" v="survey"/>
  </node>
  <node id="1027720728" version="2" timestamp="2011-03-20T05:43:40Z" uid="4467" user="Rosscoe" changeset="7612817" lat="-20.6702223" lon="116.7118224">
    <tag k="addr:city" v="Dampier"/>
    <tag k="addr:country" v="AU"/>
    <tag k="addr:housenumber" v="225"/>
    <tag k="addr:postcode" v="6713"/>
    <tag k="addr:state" v="WA"/>
    <tag k="addr:street" v="Fremantle Crescent"/>
    <tag k="source" v="survey"/>
  </node>
  <node id="1027720729" version="1" timestamp="2010-12-08T07:29:17Z" uid="4467" user="Rosscoe" changeset="6582402" lat="-20.6683331" lon="116.7100689">
    <tag k="addr:city" v="Dampier"/>
    <tag k="addr:country" v="AU"/>
    <tag k="addr:postcode" v="6713"/>
    <tag k="addr:state" v="WA"/>
    <tag k="addr:street" v="Forrest Crescent"/>
    <tag k="source" v="survey"/>
  </node>
  <node id="1027720729" version="2" timestamp="2011-03-09T00:58:22Z" uid="4467" user="Rosscoe" changeset="7500213" lat="-20.6683331" lon="116.7100689">
    <tag k="addr:city" v="Dampier"/>
    <tag k="addr:country" v="AU"/>
    <tag k="addr:housenumber" v="199"/>
    <tag k="addr:postcode" v="6713"/>
    <tag k="addr:state" v="WA"/>
    <tag k="addr:street" v="Forrest Crescent"/>
    <tag k="source" v="survey"/>
  </node>
  <node id="1027720730" version="1" timestamp="2010-12-08T07:29:17Z" uid="4467" user="Rosscoe" changeset="6582402" lat="-20.6663903" lon="116.7108005">
    <tag k="addr:city" v="Dampier"/>
    <tag k="addr:country" v="AU"/>
    <tag k="addr:postcode" v="6713"/>
    <tag k="addr:state" v="WA"/>
    <tag k="addr:street" v="Wooramel Crescent"/>
    <tag k="source" v="survey"/>
  </node>
  <node id="1027720730" version="2" timestamp="2011-03-07T11:02:11Z" uid="4467" user="Rosscoe" changeset="7482971" lat="-20.6663903" lon="116.7108005">
    <tag k="addr:city" v="Dampier"/>
    <tag k="addr:country" v="AU"/>
    <tag k="addr:housenumber" v="93"/>
    <tag k="addr:postcode" v="6713"/>
    <tag k="addr:state" v="WA"/>
    <tag k="addr:street" v="Wooramel Crescent"/>
    <tag k="source" v="survey"/>
  </node>
  <node id="1027720732" version="1" timestamp="2010-12-08T07:29:17Z" uid="4467" user="Rosscoe" changeset="6582402" lat="-20.6664974" lon="116.7149084">
    <tag k="addr:city" v="Dampier"/>
    <tag k="addr:country" v="AU"/>
    <tag k="addr:postcode" v="6713"/>
    <tag k="addr:state" v="WA"/>
    <tag k="addr:street" v="Eyre Crescent"/>
    <tag k="source" v="survey"/>
  </node>
  <node id="1027720732" version="2" timestamp="2011-03-22T05:11:56Z" uid="4467" user="Rosscoe" changeset="7633830" lat="-20.6664974" lon="116.7149084">
    <tag k="addr:city" v="Dampier"/>
    <tag k="addr:country" v="AU"/>
    <tag k="addr:housenumber" v="155A"/>
    <tag k="addr:postcode" v="6713"/>
    <tag k="addr:state" v="WA"/>
    <tag k="addr:street" v="Eyre Crescent"/>
    <tag k="source" v="survey"/>
  </node>
  <node id="1027720738" version="1" timestamp="2010-12-08T07:29:17Z" uid="4467" user="Rosscoe" changeset="6582402" lat="-20.6680998" lon="116.7090797">
    <tag k="addr:city" v="Dampier"/>
    <tag k="addr:country" v="AU"/>
    <tag k="addr:postcode" v="6713"/>
    <tag k="addr:state" v="WA"/>
    <tag k="addr:street" v="Lockyer Crescent"/>
    <tag k="source" v="survey"/>
  </node>
  <node id="1027720738" version="2" timestamp="2011-03-20T05:33:42Z" uid="4467" user="Rosscoe" changeset="7612786" lat="-20.6680998" lon="116.7090797">
    <tag k="addr:city" v="Dampier"/>
    <tag k="addr:country" v="AU"/>
    <tag k="addr:housenumber" v="182"/>
    <tag k="addr:postcode" v="6713"/>
    <tag k="addr:state" v="WA"/>
    <tag k="addr:street" v="Lockyer Crescent"/>
    <tag k="source" v="survey"/>
  </node>
  <node id="1027720739" version="1" timestamp="2010-12-08T07:29:17Z" uid="4467" user="Rosscoe" changeset="6582402" lat="-20.6645392" lon="116.7159957">
    <tag k="addr:city" v="Dampier"/>
    <tag k="addr:country" v="AU"/>
    <tag k="addr:postcode" v="6713"/>
    <tag k="addr:state" v="WA"/>
    <tag k="addr:street" v="Drummond Crescent"/>
    <tag k="source" v="survey"/>
  </node>
  <node id="1027720739" version="2" timestamp="2011-03-10T02:34:02Z" uid="4467" user="Rosscoe" changeset="7510456" lat="-20.6645392" lon="116.7159957">
    <tag k="addr:city" v="Dampier"/>
    <tag k="addr:country" v="AU"/>
    <tag k="addr:housenumber" v="141"/>
    <tag k="addr:postcode" v="6713"/>
    <tag k="addr:state" v="WA"/>
    <tag k="addr:street" v="Drummond Crescent"/>
    <tag k="source" v="survey"/>
  </node>
  <node id="1027720742" version="1" timestamp="2010-12-08T07:29:17Z" uid="4467" user="Rosscoe" changeset="6582402" lat="-20.6643595" lon="116.7116385">
    <tag k="addr:city" v="Dampier"/>
    <tag k="addr:country" v="AU"/>
    <tag k="addr:postcode" v="6713"/>
    <tag k="addr:state" v="WA"/>
    <tag k="addr:street" v="Lyndon Crescent"/>
    <tag k="source" v="survey"/>
  </node>
  <node id="1027720742" version="2" timestamp="2011-03-09T06:58:07Z" uid="4467" user="Rosscoe" changeset="7501011" lat="-20.6643595" lon="116.7116385">
    <tag k="addr:city" v="Dampier"/>
    <tag k="addr:country" v="AU"/>
    <tag k="addr:housenumber" v="111"/>
    <tag k="addr:postcode" v="6713"/>
    <tag k="addr:state" v="WA"/>
    <tag k="addr:street" v="Lyndon Crescent"/>
    <tag k="source" v="survey"/>
  </node>
  <node id="1027720745" version="1" timestamp="2010-12-08T07:29:18Z" uid="4467" user="Rosscoe" changeset="6582402" lat="-20.6658854" lon="116.7097296">
    <tag k="addr:city" v="Dampier"/>
    <tag k="addr:country" v="AU"/>
    <tag k="addr:postcode" v="6713"/>
    <tag k="addr:state" v="WA"/>
    <tag k="addr:street" v="Fortesque Crescent"/>
    <tag k="source" v="survey"/>
  </node>
  <node id="1027720745" version="2" timestamp="2011-03-20T05:29:03Z" uid="4467" user="Rosscoe" changeset="7612776" lat="-20.6658854" lon="116.7097296">
    <tag k="addr:city" v="Dampier"/>
    <tag k="addr:country" v="AU"/>
    <tag k="addr:housenumber" v="81"/>
    <tag k="addr:postcode" v="6713"/>
    <tag k="addr:state" v="WA"/>
    <tag k="addr:street" v="Fortesque Crescent"/>
    <tag k="source" v="survey"/>
  </node>
  <node id="1027720748" version="1" timestamp="2010-12-08T07:29:18Z" uid="4467" user="Rosscoe" changeset="6582402" lat="-20.6667383" lon="116.7132775">
    <tag k="addr:city" v="Dampier"/>
    <tag k="addr:country" v="AU"/>
    <tag k="addr:postcode" v="6713"/>
    <tag k="addr:state" v="WA"/>
    <tag k="addr:street" v="Burke Crescent"/>
    <tag k="source" v="survey"/>
  </node>
  <node id="1027720748" version="2" timestamp="2011-03-20T05:43:41Z" uid="4467" user="Rosscoe" changeset="7612817" lat="-20.6667383" lon="116.7132775">
    <tag k="addr:city" v="Dampier"/>
    <tag k="addr:country" v="AU"/>
    <tag k="addr:housenumber" v="157"/>
    <tag k="addr:postcode" v="6713"/>
    <tag k="addr:state" v="WA"/>
    <tag k="addr:street" v="Burke Crescent"/>
    <tag k="source" v="survey"/>
  </node>
  <node id="1027720750" version="1" timestamp="2010-12-08T07:29:18Z" uid="4467" user="Rosscoe" changeset="6582402" lat="-20.670207" lon="116.7110948">
    <tag k="addr:city" v="Dampier"/>
    <tag k="addr:country" v="AU"/>
    <tag k="addr:postcode" v="6713"/>
    <tag k="addr:state" v="WA"/>
    <tag k="addr:street" v="Fremantle Crescent"/>
    <tag k="source" v="survey"/>
  </node>
  <node id="1027720750" version="2" timestamp="2011-03-20T05:43:43Z" uid="4467" user="Rosscoe" changeset="7612817" lat="-20.670207" lon="116.7110948">
    <tag k="addr:city" v="Dampier"/>
    <tag k="addr:country" v="AU"/>
    <tag k="addr:housenumber" v="222"/>
    <tag k="addr:postcode" v="6713"/>
    <tag k="addr:state" v="WA"/>
    <tag k="addr:street" v="Fremantle Crescent"/>
    <tag k="source" v="survey"/>
  </node>
  <node id="1027720752" version="1" timestamp="2010-12-08T07:29:18Z" uid="4467" user="Rosscoe" changeset="6582402" lat="-20.6642639" lon="116.7040766"/>
  <node id="1027720753" version="1" timestamp="2010-12-08T07:29:18Z" uid="4467" user="Rosscoe" changeset="6582402" lat="-20.6636672" lon="116.7119614">
    <tag k="addr:city" v="Dampier"/>
    <tag k="addr:country" v="AU"/>
    <tag k="addr:postcode" v="6713"/>
    <tag k="addr:state" v="WA"/>
    <tag k="addr:street" v="Murchinson Crescent"/>
    <tag k="source" v="survey"/>
  </node>
  <node id="1027720753" version="2" timestamp="2011-03-20T05:49:59Z" uid="4467" user="Rosscoe" changeset="7612841" lat="-20.6636672" lon="116.7119614">
    <tag k="addr:city" v="Dampier"/>
    <tag k="addr:country" v="AU"/>
    <tag k="addr:housenumber" v="108"/>
    <tag k="addr:postcode" v="6713"/>
    <tag k="addr:state" v="WA"/>
    <tag k="addr:street" v="Murchinson Crescent"/>
    <tag k="source" v="survey"/>
  </node>
  <node id="1027720759" version="1" timestamp="2010-12-08T07:29:18Z" uid="4467" user="Rosscoe" changeset="6582402" lat="-20.6665433" lon="116.7101056">
    <tag k="addr:city" v="Dampier"/>
    <tag k="addr:country" v="AU"/>
    <tag k="addr:postcode" v="6713"/>
    <tag k="addr:state" v="WA"/>
    <tag k="addr:street" v="Wooramel Crescent"/>
    <tag k="source" v="survey"/>
  </node>
  <node id="1027720759" version="2" timestamp="2011-03-07T11:02:11Z" uid="4467" user="Rosscoe" changeset="7482971" lat="-20.6665433" lon="116.7101056">
    <tag k="addr:city" v="Dampier"/>
    <tag k="addr:country" v="AU"/>
    <tag k="addr:housenumber" v="90"/>
    <tag k="addr:postcode" v="6713"/>
    <tag k="addr:state" v="WA"/>
    <tag k="addr:street" v="Wooramel Crescent"/>
    <tag k="source" v="survey"/>
  </node>
  <node id="1027720763" version="1" timestamp="2010-12-08T07:29:18Z" uid="4467" user="Rosscoe" changeset="6582402" lat="-20.6640076" lon="116.7142953">
    <tag k="addr:city" v="Dampier"/>
    <tag k="addr:country" v="AU"/>
    <tag k="addr:postcode" v="6713"/>
    <tag k="addr:state" v="WA"/>
    <tag k="addr:street" v="Prinsep Crescent"/>
    <tag k="source" v="survey"/>
  </node>
  <node id="1027720763" version="2" timestamp="2011-03-22T05:11:57Z" uid="4467" user="Rosscoe" changeset="7633830" lat="-20.6640076" lon="116.7142953">
    <tag k="addr:city" v="Dampier"/>
    <tag k="addr:country" v="AU"/>
    <tag k="addr:housenumber" v="133"/>
    <tag k="addr:postcode" v="6713"/>
    <tag k="addr:state" v="WA"/>
    <tag k="addr:street" v="Prinsep Crescent"/>
    <tag k="source" v="survey"/>
  </node>
  <node id="1027720770" version="1" timestamp="2010-12-08T07:29:18Z" uid="4467" user="Rosscoe" changeset="6582402" lat="-20.6651052" lon="116.7105634">
    <tag k="addr:city" v="Dampier"/>
    <tag k="addr:country" v="AU"/>
    <tag k="addr:postcode" v="6713"/>
    <tag k="addr:state" v="WA"/>
    <tag k="addr:street" v="Fortesque Crescent"/>
    <tag k="source" v="survey"/>
  </node>
  <node id="1027720770" version="2" timestamp="2011-02-19T17:04:03Z" uid="4467" user="Rosscoe" changeset="7333962" lat="-20.6651052" lon="116.7105634">
    <tag k="addr:city" v="Dampier"/>
    <tag k="addr:country" v="AU"/>
    <tag k="addr:housenumber" v="77"/>
    <tag k="addr:postcode" v="6713"/>
    <tag k="addr:state" v="WA"/>
    <tag k="addr:street" v="Fortesque Crescent"/>
    <tag k="source" v="survey"/>
  </node>
  <node id="1027720773" version="1" timestamp="2010-12-08T07:29:18Z" uid="4467" user="Rosscoe" changeset="6582402" lat="-20.6645277" lon="116.7153131">
    <tag k="addr:city" v="Dampier"/>
    <tag k="addr:country" v="AU"/>
    <tag k="addr:postcode" v="6713"/>
    <tag k="addr:state" v="WA"/>
    <tag k="addr:street" v="Drummond Crescent"/>
    <tag k="source" v="survey"/>
  </node>
  <node id="1027720773" version="2" timestamp="2011-03-10T02:34:01Z" uid="4467" user="Rosscoe" changeset="7510456" lat="-20.6645277" lon="116.7153131">
    <tag k="addr:city" v="Dampier"/>
    <tag k="addr:country" v="AU"/>
    <tag k="addr:housenumber" v="144"/>
    <tag k="addr:postcode" v="6713"/>
    <tag k="addr:state" v="WA"/>
    <tag k="addr:street" v="Drummond Crescent"/>
    <tag k="source" v="survey"/>
  </node>
  <node id="1027720777" version="1" timestamp="2010-12-08T07:29:19Z" uid="4467" user="Rosscoe" changeset="6582402" lat="-20.6642065" lon="116.7131999">
    <tag k="addr:city" v="Dampier"/>
    <tag k="addr:country" v="AU"/>
    <tag k="addr:postcode" v="6713"/>
    <tag k="addr:state" v="WA"/>
    <tag k="addr:street" v="Lyndon Crescent"/>
    <tag k="source" v="survey"/>
  </node>
  <node id="1027720777" version="2" timestamp="2011-03-09T06:58:13Z" uid="4467" user="Rosscoe" changeset="7501011" lat="-20.6642065" lon="116.7131999">
    <tag k="addr:city" v="Dampier"/>
    <tag k="addr:country" v="AU"/>
    <tag k="addr:housenumber" v="116B"/>
    <tag k="addr:postcode" v="6713"/>
    <tag k="addr:state" v="WA"/>
    <tag k="addr:street" v="Lyndon Crescent"/>
    <tag k="source" v="survey"/>
  </node>
  <node id="1027720789" version="1" timestamp="2010-12-08T07:29:19Z" uid="4467" user="Rosscoe" changeset="6582402" lat="-20.6667995" lon="116.7125663">
    <tag k="addr:city" v="Dampier"/>
    <tag k="addr:country" v="AU"/>
    <tag k="addr:postcode" v="6713"/>
    <tag k="addr:state" v="WA"/>
    <tag k="addr:street" v="Burke Crescent"/>
    <tag k="source" v="survey"/>
  </node>
  <node id="1027720789" version="2" timestamp="2011-03-20T05:43:43Z" uid="4467" user="Rosscoe" changeset="7612817" lat="-20.6667995" lon="116.7125663">
    <tag k="addr:city" v="Dampier"/>
    <tag k="addr:country" v="AU"/>
    <tag k="addr:housenumber" v="160"/>
    <tag k="addr:postcode" v="6713"/>
    <tag k="addr:state" v="WA"/>
    <tag k="addr:street" v="Burke Crescent"/>
    <tag k="source" v="survey"/>
  </node>
  <node id="1027720794" version="1" timestamp="2010-12-08T07:29:19Z" uid="4467" user="Rosscoe" changeset="6582402" lat="-20.6695531" lon="116.7105062">
    <tag k="addr:city" v="Dampier"/>
    <tag k="addr:country" v="AU"/>
    <tag k="addr:postcode" v="6713"/>
    <tag k="addr:state" v="WA"/>
    <tag k="addr:street" v="Roe Crescent"/>
    <tag k="source" v="survey"/>
  </node>
  <node id="1027720794" version="2" timestamp="2011-03-09T06:58:08Z" uid="4467" user="Rosscoe" changeset="7501011" lat="-20.6695531" lon="116.7105062">
    <tag k="addr:city" v="Dampier"/>
    <tag k="addr:country" v="AU"/>
    <tag k="addr:housenumber" v="215"/>
    <tag k="addr:postcode" v="6713"/>
    <tag k="addr:state" v="WA"/>
    <tag k="addr:street" v="Roe Crescent"/>
    <tag k="source" v="survey"/>
  </node>
  <node id="1027720802" version="1" timestamp="2010-12-08T07:29:19Z" uid="4467" user="Rosscoe" changeset="6582402" lat="-20.663128" lon="116.7113728">
    <tag k="addr:city" v="Dampier"/>
    <tag k="addr:country" v="AU"/>
    <tag k="addr:postcode" v="6713"/>
    <tag k="addr:state" v="WA"/>
    <tag k="addr:street" v="Oaklover Crescent"/>
    <tag k="source" v="survey"/>
  </node>
  <node id="1027720802" version="2" timestamp="2011-03-09T06:58:08Z" uid="4467" user="Rosscoe" changeset="7501011" lat="-20.663128" lon="116.7113728">
    <tag k="addr:city" v="Dampier"/>
    <tag k="addr:country" v="AU"/>
    <tag k="addr:housenumber" v="96"/>
    <tag k="addr:postcode" v="6713"/>
    <tag k="addr:state" v="WA"/>
    <tag k="addr:street" v="Oaklover Crescent"/>
    <tag k="source" v="survey"/>
  </node>
  <node id="1027720806" version="1" timestamp="2010-12-08T07:29:19Z" uid="4467" user="Rosscoe" changeset="6582402" lat="-20.6682872" lon="116.7112542">
    <tag k="addr:city" v="Dampier"/>
    <tag k="addr:country" v="AU"/>
    <tag k="addr:postcode" v="6713"/>
    <tag k="addr:state" v="WA"/>
    <tag k="addr:street" v="Forrest Crescent"/>
    <tag k="source" v="survey"/>
  </node>
  <node id="1027720806" version="2" timestamp="2011-03-09T00:58:24Z" uid="4467" user="Rosscoe" changeset="7500213" lat="-20.6682872" lon="116.7112542">
    <tag k="addr:city" v="Dampier"/>
    <tag k="addr:country" v="AU"/>
    <tag k="addr:housenumber" v="194"/>
    <tag k="addr:postcode" v="6713"/>
    <tag k="addr:state" v="WA"/>
    <tag k="addr:street" v="Forrest Crescent"/>
    <tag k="source" v="survey"/>
  </node>
  <node id="1027720811" version="1" timestamp="2010-12-08T07:29:19Z" uid="4467" user="Rosscoe" changeset="6582402" lat="-20.6649064" lon="116.7131222">
    <tag k="addr:city" v="Dampier"/>
    <tag k="addr:country" v="AU"/>
    <tag k="addr:postcode" v="6713"/>
    <tag k="addr:state" v="WA"/>
    <tag k="addr:street" v="Irwin Crescent"/>
    <tag k="source" v="survey"/>
  </node>
  <node id="1027720811" version="2" timestamp="2011-03-20T05:49:57Z" uid="4467" user="Rosscoe" changeset="7612841" lat="-20.6649064" lon="116.7131222">
    <tag k="addr:city" v="Dampier"/>
    <tag k="addr:country" v="AU"/>
    <tag k="addr:housenumber" v="119"/>
    <tag k="addr:postcode" v="6713"/>
    <tag k="addr:state" v="WA"/>
    <tag k="addr:street" v="Irwin Crescent"/>
    <tag k="source" v="survey"/>
  </node>
  <node id="1027720819" version="1" timestamp="2010-12-08T07:29:19Z" uid="4467" user="Rosscoe" changeset="6582402" lat="-20.6658816" lon="116.7095211">
    <tag k="addr:city" v="Dampier"/>
    <tag k="addr:country" v="AU"/>
    <tag k="addr:postcode" v="6713"/>
    <tag k="addr:state" v="WA"/>
    <tag k="addr:street" v="Fortesque Crescent"/>
    <tag k="source" v="survey"/>
  </node>
  <node id="1027720819" version="2" timestamp="2011-03-20T05:29:03Z" uid="4467" user="Rosscoe" changeset="7612776" lat="-20.6658816" lon="116.7095211">
    <tag k="addr:city" v="Dampier"/>
    <tag k="addr:country" v="AU"/>
    <tag k="addr:housenumber" v="82"/>
    <tag k="addr:postcode" v="6713"/>
    <tag k="addr:state" v="WA"/>
    <tag k="addr:street" v="Fortesque Crescent"/>
    <tag k="source" v="survey"/>
  </node>
  <node id="1027720822" version="1" timestamp="2010-12-08T07:29:19Z" uid="4467" user="Rosscoe" changeset="6582402" lat="-20.6651397" lon="116.7154276">
    <tag k="addr:city" v="Dampier"/>
    <tag k="addr:country" v="AU"/>
    <tag k="addr:postcode" v="6713"/>
    <tag k="addr:state" v="WA"/>
    <tag k="addr:street" v="Hannan Crescent"/>
    <tag k="source" v="survey"/>
  </node>
  <node id="1027720822" version="2" timestamp="2011-03-22T05:11:56Z" uid="4467" user="Rosscoe" changeset="7633830" lat="-20.6651397" lon="116.7154276">
    <tag k="addr:city" v="Dampier"/>
    <tag k="addr:country" v="AU"/>
    <tag k="addr:housenumber" v="150"/>
    <tag k="addr:postcode" v="6713"/>
    <tag k="addr:state" v="WA"/>
    <tag k="addr:street" v="Hannan Crescent"/>
    <tag k="source" v="survey"/>
  </node>
  <node id="1027720833" version="1" timestamp="2010-12-08T07:29:20Z" uid="4467" user="Rosscoe" changeset="6582402" lat="-20.6644398" lon="116.7097173">
    <tag k="addr:city" v="Dampier"/>
    <tag k="addr:country" v="AU"/>
    <tag k="addr:postcode" v="6713"/>
    <tag k="addr:state" v="WA"/>
    <tag k="addr:street" v="Hardey Crescent"/>
    <tag k="source" v="survey"/>
  </node>
  <node id="1027720833" version="2" timestamp="2011-03-20T05:26:51Z" uid="4467" user="Rosscoe" changeset="7612771" lat="-20.6644398" lon="116.7097173">
    <tag k="addr:city" v="Dampier"/>
    <tag k="addr:country" v="AU"/>
    <tag k="addr:housenumber" v="63"/>
    <tag k="addr:postcode" v="6713"/>
    <tag k="addr:state" v="WA"/>
    <tag k="addr:street" v="Hardey Crescent"/>
    <tag k="source" v="survey"/>
  </node>
  <node id="1027720836" version="1" timestamp="2010-12-08T07:29:20Z" uid="4467" user="Rosscoe" changeset="6582402" lat="-20.6704862" lon="116.7099748">
    <tag k="addr:city" v="Dampier"/>
    <tag k="addr:country" v="AU"/>
    <tag k="addr:postcode" v="6713"/>
    <tag k="addr:state" v="WA"/>
    <tag k="addr:street" v="Fremantle Crescent"/>
    <tag k="source" v="survey"/>
  </node>
  <node id="1027720836" version="2" timestamp="2011-03-20T05:43:43Z" uid="4467" user="Rosscoe" changeset="7612817" lat="-20.6704862" lon="116.7099748">
    <tag k="addr:city" v="Dampier"/>
    <tag k="addr:country" v="AU"/>
    <tag k="addr:housenumber" v="218A"/>
    <tag k="addr:postcode" v="6713"/>
    <tag k="addr:state" v="WA"/>
    <tag k="addr:street" v="Fremantle Crescent"/>
    <tag k="source" v="survey"/>
  </node>
  <node id="1027720840" version="1" timestamp="2010-12-08T07:29:20Z" uid="4467" user="Rosscoe" changeset="6582402" lat="-20.6689335" lon="116.7113523">
    <tag k="addr:city" v="Dampier"/>
    <tag k="addr:country" v="AU"/>
    <tag k="addr:postcode" v="6713"/>
    <tag k="addr:state" v="WA"/>
    <tag k="addr:street" v="Gregory Crescent"/>
    <tag k="source" v="survey"/>
  </node>
  <node id="1027720840" version="2" timestamp="2011-03-20T05:35:55Z" uid="4467" user="Rosscoe" changeset="7612795" lat="-20.6689335" lon="116.7113523">
    <tag k="addr:city" v="Dampier"/>
    <tag k="addr:country" v="AU"/>
    <tag k="addr:housenumber" v="208"/>
    <tag k="addr:postcode" v="6713"/>
    <tag k="addr:state" v="WA"/>
    <tag k="addr:street" v="Gregory Crescent"/>
    <tag k="source" v="survey"/>
  </node>
  <node id="1027720848" version="1" timestamp="2010-12-08T07:29:20Z" uid="4467" user="Rosscoe" changeset="6582402" lat="-20.6667804" lon="116.7088058">
    <tag k="addr:city" v="Dampier"/>
    <tag k="addr:country" v="AU"/>
    <tag k="addr:postcode" v="6713"/>
    <tag k="addr:state" v="WA"/>
    <tag k="addr:street" v="Wooramel Crescent"/>
    <tag k="source" v="survey"/>
  </node>
  <node id="1027720848" version="2" timestamp="2011-03-07T11:02:12Z" uid="4467" user="Rosscoe" changeset="7482971" lat="-20.6667804" lon="116.7088058">
    <tag k="addr:city" v="Dampier"/>
    <tag k="addr:country" v="AU"/>
    <tag k="addr:housenumber" v="87B"/>
    <tag k="addr:postcode" v="6713"/>
    <tag k="addr:state" v="WA"/>
    <tag k="addr:street" v="Wooramel Crescent"/>
    <tag k="source" v="survey"/>
  </node>
  <node id="1027720852" version="1" timestamp="2010-12-08T07:29:20Z" uid="4467" user="Rosscoe" changeset="6582402" lat="-20.6638699" lon="116.715448">
    <tag k="addr:city" v="Dampier"/>
    <tag k="addr:country" v="AU"/>
    <tag k="addr:postcode" v="6713"/>
    <tag k="addr:state" v="WA"/>
    <tag k="addr:street" v="Prinsep Crescent"/>
    <tag k="source" v="survey"/>
  </node>
  <node id="1027720852" version="2" timestamp="2011-03-22T05:11:57Z" uid="4467" user="Rosscoe" changeset="7633830" lat="-20.6638699" lon="116.715448">
    <tag k="addr:city" v="Dampier"/>
    <tag k="addr:country" v="AU"/>
    <tag k="addr:housenumber" v="138"/>
    <tag k="addr:postcode" v="6713"/>
    <tag k="addr:state" v="WA"/>
    <tag k="addr:street" v="Prinsep Crescent"/>
    <tag k="source" v="survey"/>
  </node>
  <node id="1027720865" version="1" timestamp="2010-12-08T07:29:20Z" uid="4467" user="Rosscoe" changeset="6582402" lat="-20.6646348" lon="116.7085728">
    <tag k="addr:city" v="Dampier"/>
    <tag k="addr:country" v="AU"/>
    <tag k="addr:postcode" v="6713"/>
    <tag k="addr:state" v="WA"/>
    <tag k="addr:street" v="Hardey Crescent"/>
    <tag k="source" v="survey"/>
  </node>
  <node id="1027720865" version="2" timestamp="2011-03-20T05:26:50Z" uid="4467" user="Rosscoe" changeset="7612771" lat="-20.6646348" lon="116.7085728">
    <tag k="addr:city" v="Dampier"/>
    <tag k="addr:country" v="AU"/>
    <tag k="addr:housenumber" v="68"/>
    <tag k="addr:postcode" v="6713"/>
    <tag k="addr:state" v="WA"/>
    <tag k="addr:street" v="Hardey Crescent"/>
    <tag k="source" v="survey"/>
  </node>
  <node id="1027720868" version="1" timestamp="2010-12-08T07:29:20Z" uid="4467" user="Rosscoe" changeset="6582402" lat="-20.6647113" lon="116.7142953">
    <tag k="addr:city" v="Dampier"/>
    <tag k="addr:country" v="AU"/>
    <tag k="addr:postcode" v="6713"/>
    <tag k="addr:state" v="WA"/>
    <tag k="addr:street" v="Boolgeeda Crescent"/>
    <tag k="source" v="survey"/>
  </node>
  <node id="1027720868" version="2" timestamp="2011-03-22T05:11:58Z" uid="4467" user="Rosscoe" changeset="7633830" lat="-20.6647113" lon="116.7142953">
    <tag k="addr:city" v="Dampier"/>
    <tag k="addr:country" v="AU"/>
    <tag k="addr:housenumber" v="145B"/>
    <tag k="addr:postcode" v="6713"/>
    <tag k="addr:state" v="WA"/>
    <tag k="addr:street" v="Boolgeeda Crescent"/>
    <tag k="source" v="survey"/>
  </node>
  <node id="1027720873" version="1" timestamp="2010-12-08T07:29:20Z" uid="4467" user="Rosscoe" changeset="6582402" lat="-20.6640841" lon="116.7133879">
    <tag k="addr:city" v="Dampier"/>
    <tag k="addr:country" v="AU"/>
    <tag k="addr:postcode" v="6713"/>
    <tag k="addr:state" v="WA"/>
    <tag k="addr:street" v="Lyndon Crescent"/>
    <tag k="source" v="survey"/>
  </node>
  <node id="1027720873" version="2" timestamp="2011-03-09T06:58:13Z" uid="4467" user="Rosscoe" changeset="7501011" lat="-20.6640841" lon="116.7133879">
    <tag k="addr:city" v="Dampier"/>
    <tag k="addr:country" v="AU"/>
    <tag k="addr:housenumber" v="116C"/>
    <tag k="addr:postcode" v="6713"/>
    <tag k="addr:state" v="WA"/>
    <tag k="addr:street" v="Lyndon Crescent"/>
    <tag k="source" v="survey"/>
  </node>
  <node id="1027720879" version="1" timestamp="2010-12-08T07:29:21Z" uid="4467" user="Rosscoe" changeset="6582402" lat="-20.6691859" lon="116.7097255">
    <tag k="addr:city" v="Dampier"/>
    <tag k="addr:country" v="AU"/>
    <tag k="addr:postcode" v="6713"/>
    <tag k="addr:state" v="WA"/>
    <tag k="addr:street" v="Gregory Crescent"/>
    <tag k="source" v="survey"/>
  </node>
  <node id="1027720879" version="2" timestamp="2011-03-20T05:35:55Z" uid="4467" user="Rosscoe" changeset="7612795" lat="-20.6691859" lon="116.7097255">
    <tag k="addr:city" v="Dampier"/>
    <tag k="addr:country" v="AU"/>
    <tag k="addr:housenumber" v="201"/>
    <tag k="addr:postcode" v="6713"/>
    <tag k="addr:state" v="WA"/>
    <tag k="addr:street" v="Gregory Crescent"/>
    <tag k="source" v="survey"/>
  </node>
  <node id="1027720884" version="1" timestamp="2010-12-08T07:29:21Z" uid="4467" user="Rosscoe" changeset="6582402" lat="-20.6630438" lon="116.7120636">
    <tag k="addr:city" v="Dampier"/>
    <tag k="addr:country" v="AU"/>
    <tag k="addr:postcode" v="6713"/>
    <tag k="addr:state" v="WA"/>
    <tag k="addr:street" v="Oaklover Crescent"/>
    <tag k="source" v="survey"/>
  </node>
  <node id="1027720884" version="2" timestamp="2011-03-09T06:58:09Z" uid="4467" user="Rosscoe" changeset="7501011" lat="-20.6630438" lon="116.7120636">
    <tag k="addr:city" v="Dampier"/>
    <tag k="addr:country" v="AU"/>
    <tag k="addr:housenumber" v="99"/>
    <tag k="addr:postcode" v="6713"/>
    <tag k="addr:state" v="WA"/>
    <tag k="addr:street" v="Oaklover Crescent"/>
    <tag k="source" v="survey"/>
  </node>
  <node id="1027720894" version="1" timestamp="2010-12-08T07:29:21Z" uid="4467" user="Rosscoe" changeset="6582402" lat="-20.6656139" lon="116.7128197">
    <tag k="addr:city" v="Dampier"/>
    <tag k="addr:country" v="AU"/>
    <tag k="addr:postcode" v="6713"/>
    <tag k="addr:state" v="WA"/>
    <tag k="addr:street" v="Meda Crescent"/>
    <tag k="source" v="survey"/>
  </node>
  <node id="1027720894" version="2" timestamp="2011-03-09T06:58:14Z" uid="4467" user="Rosscoe" changeset="7501011" lat="-20.6656139" lon="116.7128197">
    <tag k="addr:city" v="Dampier"/>
    <tag k="addr:country" v="AU"/>
    <tag k="addr:housenumber" v="130"/>
    <tag k="addr:postcode" v="6713"/>
    <tag k="addr:state" v="WA"/>
    <tag k="addr:street" v="Meda Crescent"/>
    <tag k="source" v="survey"/>
  </node>
  <node id="1027720895" version="1" timestamp="2010-12-08T07:29:21Z" uid="4467" user="Rosscoe" changeset="6582402" lat="-20.6655106" lon="116.7086628">
    <tag k="addr:city" v="Dampier"/>
    <tag k="addr:country" v="AU"/>
    <tag k="addr:postcode" v="6713"/>
    <tag k="addr:state" v="WA"/>
    <tag k="addr:street" v="Fortesque Crescent"/>
    <tag k="source" v="survey"/>
  </node>
  <node id="1027720895" version="2" timestamp="2011-02-19T17:04:07Z" uid="4467" user="Rosscoe" changeset="7333962" lat="-20.6655106" lon="116.7086628">
    <tag k="addr:city" v="Dampier"/>
    <tag k="addr:country" v="AU"/>
    <tag k="addr:housenumber" v="71B"/>
    <tag k="addr:postcode" v="6713"/>
    <tag k="addr:state" v="WA"/>
    <tag k="addr:street" v="Fortesque Crescent"/>
    <tag k="source" v="survey"/>
  </node>
  <node id="1027720901" version="1" timestamp="2010-12-08T07:29:21Z" uid="4467" user="Rosscoe" changeset="6582402" lat="-20.664914" lon="116.7155829"/>
  <node id="1027720904" version="1" timestamp="2010-12-08T07:29:21Z" uid="4467" user="Rosscoe" changeset="6582402" lat="-20.6642065" lon="116.7106248">
    <tag k="addr:city" v="Dampier"/>
    <tag k="addr:country" v="AU"/>
    <tag k="addr:postcode" v="6713"/>
    <tag k="addr:state" v="WA"/>
    <tag k="addr:street" v="Hardey Crescent"/>
    <tag k="source" v="survey"/>
  </node>
  <node id="1027720904" version="2" timestamp="2011-02-19T17:04:05Z" uid="4467" user="Rosscoe" changeset="7333962" lat="-20.6642065" lon="116.7106248">
    <tag k="addr:city" v="Dampier"/>
    <tag k="addr:country" v="AU"/>
    <tag k="addr:housenumber" v="62"/>
    <tag k="addr:postcode" v="6713"/>
    <tag k="addr:state" v="WA"/>
    <tag k="addr:street" v="Hardey Crescent"/>
    <tag k="source" v="survey"/>
  </node>
  <node id="1027720904" version="3" timestamp="2011-03-20T05:26:52Z" uid="4467" user="Rosscoe" changeset="7612771" lat="-20.6642065" lon="116.7106248">
    <tag k="addr:city" v="Dampier"/>
    <tag k="addr:country" v="AU"/>
    <tag k="addr:housenumber" v="62C"/>
    <tag k="addr:postcode" v="6713"/>
    <tag k="addr:state" v="WA"/>
    <tag k="addr:street" v="Hardey Crescent"/>
    <tag k="source" v="survey"/>
  </node>
  <node id="1027720907" version="1" timestamp="2010-12-08T07:29:21Z" uid="4467" user="Rosscoe" changeset="6582402" lat="-20.6697175" lon="116.7100689">
    <tag k="addr:city" v="Dampier"/>
    <tag k="addr:country" v="AU"/>
    <tag k="addr:postcode" v="6713"/>
    <tag k="addr:state" v="WA"/>
    <tag k="addr:street" v="Roe Crescent"/>
    <tag k="source" v="survey"/>
  </node>
  <node id="1027720907" version="2" timestamp="2011-03-09T06:58:15Z" uid="4467" user="Rosscoe" changeset="7501011" lat="-20.6697175" lon="116.7100689">
    <tag k="addr:city" v="Dampier"/>
    <tag k="addr:country" v="AU"/>
    <tag k="addr:housenumber" v="217"/>
    <tag k="addr:postcode" v="6713"/>
    <tag k="addr:state" v="WA"/>
    <tag k="addr:street" v="Roe Crescent"/>
    <tag k="source" v="survey"/>
  </node>
  <node id="1027720913" version="1" timestamp="2010-12-08T07:29:21Z" uid="4467" user="Rosscoe" changeset="6582402" lat="-20.6682872" lon="116.7107719">
    <tag k="addr:city" v="Dampier"/>
    <tag k="addr:country" v="AU"/>
    <tag k="addr:postcode" v="6713"/>
    <tag k="addr:state" v="WA"/>
    <tag k="addr:street" v="Forrest Crescent"/>
    <tag k="source" v="survey"/>
  </node>
  <node id="1027720913" version="2" timestamp="2011-03-09T00:58:22Z" uid="4467" user="Rosscoe" changeset="7500213" lat="-20.6682872" lon="116.7107719">
    <tag k="addr:city" v="Dampier"/>
    <tag k="addr:country" v="AU"/>
    <tag k="addr:housenumber" v="196"/>
    <tag k="addr:postcode" v="6713"/>
    <tag k="addr:state" v="WA"/>
    <tag k="addr:street" v="Forrest Crescent"/>
    <tag k="source" v="survey"/>
  </node>
  <node id="1027720914" version="1" timestamp="2010-12-08T07:29:21Z" uid="4467" user="Rosscoe" changeset="6582402" lat="-20.6664744" lon="116.7105839">
    <tag k="addr:city" v="Dampier"/>
    <tag k="addr:country" v="AU"/>
    <tag k="addr:postcode" v="6713"/>
    <tag k="addr:state" v="WA"/>
    <tag k="addr:street" v="Wooramel Crescent"/>
    <tag k="source" v="survey"/>
  </node>
  <node id="1027720914" version="2" timestamp="2011-03-07T11:02:12Z" uid="4467" user="Rosscoe" changeset="7482971" lat="-20.6664744" lon="116.7105839">
    <tag k="addr:city" v="Dampier"/>
    <tag k="addr:country" v="AU"/>
    <tag k="addr:housenumber" v="92"/>
    <tag k="addr:postcode" v="6713"/>
    <tag k="addr:state" v="WA"/>
    <tag k="addr:street" v="Wooramel Crescent"/>
    <tag k="source" v="survey"/>
  </node>
  <node id="1027720916" version="1" timestamp="2010-12-08T07:29:22Z" uid="4467" user="Rosscoe" changeset="6582402" lat="-20.6664017" lon="116.7151455">
    <tag k="addr:city" v="Dampier"/>
    <tag k="addr:country" v="AU"/>
    <tag k="addr:postcode" v="6713"/>
    <tag k="addr:state" v="WA"/>
    <tag k="addr:street" v="Eyre Crescent"/>
    <tag k="source" v="survey"/>
  </node>
  <node id="1027720916" version="2" timestamp="2011-03-22T05:11:55Z" uid="4467" user="Rosscoe" changeset="7633830" lat="-20.6664017" lon="116.7151455">
    <tag k="addr:city" v="Dampier"/>
    <tag k="addr:country" v="AU"/>
    <tag k="addr:housenumber" v="155B"/>
    <tag k="addr:postcode" v="6713"/>
    <tag k="addr:state" v="WA"/>
    <tag k="addr:street" v="Eyre Crescent"/>
    <tag k="source" v="survey"/>
  </node>
  <node id="1027720920" version="1" timestamp="2010-12-08T07:29:22Z" uid="4467" user="Rosscoe" changeset="6582402" lat="-20.6629826" lon="116.7127094">
    <tag k="addr:city" v="Dampier"/>
    <tag k="addr:country" v="AU"/>
    <tag k="addr:postcode" v="6713"/>
    <tag k="addr:state" v="WA"/>
    <tag k="addr:street" v="Oaklover Crescent"/>
    <tag k="source" v="survey"/>
  </node>
  <node id="1027720920" version="2" timestamp="2011-03-09T06:58:12Z" uid="4467" user="Rosscoe" changeset="7501011" lat="-20.6629826" lon="116.7127094">
    <tag k="addr:city" v="Dampier"/>
    <tag k="addr:country" v="AU"/>
    <tag k="addr:housenumber" v="101A"/>
    <tag k="addr:postcode" v="6713"/>
    <tag k="addr:state" v="WA"/>
    <tag k="addr:street" v="Oaklover Crescent"/>
    <tag k="source" v="survey"/>
  </node>
  <node id="1027720921" version="1" timestamp="2010-12-08T07:29:22Z" uid="4467" user="Rosscoe" changeset="6582402" lat="-20.6638623" lon="116.715681">
    <tag k="addr:city" v="Dampier"/>
    <tag k="addr:country" v="AU"/>
    <tag k="addr:postcode" v="6713"/>
    <tag k="addr:state" v="WA"/>
    <tag k="addr:street" v="Prinsep Crescent"/>
    <tag k="source" v="survey"/>
  </node>
  <node id="1027720921" version="2" timestamp="2011-03-22T05:11:55Z" uid="4467" user="Rosscoe" changeset="7633830" lat="-20.6638623" lon="116.715681">
    <tag k="addr:city" v="Dampier"/>
    <tag k="addr:country" v="AU"/>
    <tag k="addr:housenumber" v="139"/>
    <tag k="addr:postcode" v="6713"/>
    <tag k="addr:state" v="WA"/>
    <tag k="addr:street" v="Prinsep Crescent"/>
    <tag k="source" v="survey"/>
  </node>
  <node id="1027720922" version="1" timestamp="2010-12-08T07:29:22Z" uid="4467" user="Rosscoe" changeset="6582402" lat="-20.6645048" lon="116.711385">
    <tag k="addr:city" v="Dampier"/>
    <tag k="addr:country" v="AU"/>
    <tag k="addr:postcode" v="6713"/>
    <tag k="addr:state" v="WA"/>
    <tag k="addr:street" v="Lyndon Crescent"/>
    <tag k="source" v="survey"/>
  </node>
  <node id="1027720922" version="2" timestamp="2011-03-09T06:58:12Z" uid="4467" user="Rosscoe" changeset="7501011" lat="-20.6645048" lon="116.711385">
    <tag k="addr:city" v="Dampier"/>
    <tag k="addr:country" v="AU"/>
    <tag k="addr:housenumber" v="110"/>
    <tag k="addr:postcode" v="6713"/>
    <tag k="addr:state" v="WA"/>
    <tag k="addr:street" v="Lyndon Crescent"/>
    <tag k="source" v="survey"/>
  </node>
  <node id="1027720923" version="1" timestamp="2010-12-08T07:29:22Z" uid="4467" user="Rosscoe" changeset="6582402" lat="-20.6634989" lon="116.7033368"/>
  <node id="1027720924" version="1" timestamp="2010-12-08T07:29:22Z" uid="4467" user="Rosscoe" changeset="6582402" lat="-20.6667651" lon="116.7130609">
    <tag k="addr:city" v="Dampier"/>
    <tag k="addr:country" v="AU"/>
    <tag k="addr:postcode" v="6713"/>
    <tag k="addr:state" v="WA"/>
    <tag k="addr:street" v="Burke Crescent"/>
    <tag k="source" v="survey"/>
  </node>
  <node id="1027720924" version="2" timestamp="2011-03-20T05:43:43Z" uid="4467" user="Rosscoe" changeset="7612817" lat="-20.6667651" lon="116.7130609">
    <tag k="addr:city" v="Dampier"/>
    <tag k="addr:country" v="AU"/>
    <tag k="addr:housenumber" v="158"/>
    <tag k="addr:postcode" v="6713"/>
    <tag k="addr:state" v="WA"/>
    <tag k="addr:street" v="Burke Crescent"/>
    <tag k="source" v="survey"/>
  </node>
  <node id="1027720925" version="1" timestamp="2010-12-08T07:29:22Z" uid="4467" user="Rosscoe" changeset="6582402" lat="-20.6688188" lon="116.7126522">
    <tag k="addr:city" v="Dampier"/>
    <tag k="addr:country" v="AU"/>
    <tag k="addr:postcode" v="6713"/>
    <tag k="addr:state" v="WA"/>
    <tag k="addr:street" v="Thyseen Crescent"/>
    <tag k="source" v="survey"/>
  </node>
  <node id="1027720925" version="2" timestamp="2011-03-09T06:58:13Z" uid="4467" user="Rosscoe" changeset="7501011" lat="-20.6688188" lon="116.7126522">
    <tag k="addr:city" v="Dampier"/>
    <tag k="addr:country" v="AU"/>
    <tag k="addr:housenumber" v="177"/>
    <tag k="addr:postcode" v="6713"/>
    <tag k="addr:state" v="WA"/>
    <tag k="addr:street" v="Thyseen Crescent"/>
    <tag k="source" v="survey"/>
  </node>
  <node id="1027720927" version="1" timestamp="2010-12-08T07:29:22Z" uid="4467" user="Rosscoe" changeset="6582402" lat="-20.6640841" lon="116.7045875"/>
  <node id="1027720928" version="1" timestamp="2010-12-08T07:29:22Z" uid="4467" user="Rosscoe" changeset="6582402" lat="-20.669423" lon="116.7119328">
    <tag k="addr:city" v="Dampier"/>
    <tag k="addr:country" v="AU"/>
    <tag k="addr:postcode" v="6713"/>
    <tag k="addr:state" v="WA"/>
    <tag k="addr:street" v="Roe Crescent"/>
    <tag k="source" v="survey"/>
  </node>
  <node id="1027720928" version="2" timestamp="2011-03-09T06:58:07Z" uid="4467" user="Rosscoe" changeset="7501011" lat="-20.669423" lon="116.7119328">
    <tag k="addr:city" v="Dampier"/>
    <tag k="addr:country" v="AU"/>
    <tag k="addr:housenumber" v="209"/>
    <tag k="addr:postcode" v="6713"/>
    <tag k="addr:state" v="WA"/>
    <tag k="addr:street" v="Roe Crescent"/>
    <tag k="source" v="survey"/>
  </node>
  <node id="1027720930" version="1" timestamp="2010-12-08T07:29:22Z" uid="4467" user="Rosscoe" changeset="6582402" lat="-20.6636749" lon="116.7117284">
    <tag k="addr:city" v="Dampier"/>
    <tag k="addr:country" v="AU"/>
    <tag k="addr:postcode" v="6713"/>
    <tag k="addr:state" v="WA"/>
    <tag k="addr:street" v="Murchinson Crescent"/>
    <tag k="source" v="survey"/>
  </node>
  <node id="1027720930" version="2" timestamp="2011-03-20T05:49:57Z" uid="4467" user="Rosscoe" changeset="7612841" lat="-20.6636749" lon="116.7117284">
    <tag k="addr:city" v="Dampier"/>
    <tag k="addr:country" v="AU"/>
    <tag k="addr:housenumber" v="109"/>
    <tag k="addr:postcode" v="6713"/>
    <tag k="addr:state" v="WA"/>
    <tag k="addr:street" v="Murchinson Crescent"/>
    <tag k="source" v="survey"/>
  </node>
  <node id="1027720933" version="1" timestamp="2010-12-08T07:29:23Z" uid="4467" user="Rosscoe" changeset="6582402" lat="-20.6676485" lon="116.7102037">
    <tag k="addr:city" v="Dampier"/>
    <tag k="addr:country" v="AU"/>
    <tag k="addr:postcode" v="6713"/>
    <tag k="addr:state" v="WA"/>
    <tag k="addr:street" v="Lockyer Crescent"/>
    <tag k="source" v="survey"/>
  </node>
  <node id="1027720933" version="2" timestamp="2011-03-20T05:33:41Z" uid="4467" user="Rosscoe" changeset="7612786" lat="-20.6676485" lon="116.7102037">
    <tag k="addr:city" v="Dampier"/>
    <tag k="addr:country" v="AU"/>
    <tag k="addr:housenumber" v="187"/>
    <tag k="addr:postcode" v="6713"/>
    <tag k="addr:state" v="WA"/>
    <tag k="addr:street" v="Lockyer Crescent"/>
    <tag k="source" v="survey"/>
  </node>
  <node id="1027720935" version="1" timestamp="2010-12-08T07:29:23Z" uid="4467" user="Rosscoe" changeset="6582402" lat="-20.665197" lon="116.7103386">
    <tag k="addr:city" v="Dampier"/>
    <tag k="addr:country" v="AU"/>
    <tag k="addr:postcode" v="6713"/>
    <tag k="addr:state" v="WA"/>
    <tag k="addr:street" v="Fortesque Crescent"/>
    <tag k="source" v="survey"/>
  </node>
  <node id="1027720935" version="2" timestamp="2011-02-19T17:04:02Z" uid="4467" user="Rosscoe" changeset="7333962" lat="-20.665197" lon="116.7103386">
    <tag k="addr:city" v="Dampier"/>
    <tag k="addr:country" v="AU"/>
    <tag k="addr:housenumber" v="76"/>
    <tag k="addr:postcode" v="6713"/>
    <tag k="addr:state" v="WA"/>
    <tag k="addr:street" v="Fortesque Crescent"/>
    <tag k="source" v="survey"/>
  </node>
  <node id="1027720940" version="1" timestamp="2010-12-08T07:29:23Z" uid="4467" user="Rosscoe" changeset="6582402" lat="-20.665132" lon="116.714933">
    <tag k="addr:city" v="Dampier"/>
    <tag k="addr:country" v="AU"/>
    <tag k="addr:postcode" v="6713"/>
    <tag k="addr:state" v="WA"/>
    <tag k="addr:street" v="Hannan Crescent"/>
    <tag k="source" v="survey"/>
  </node>
  <node id="1027720940" version="2" timestamp="2011-03-22T05:11:59Z" uid="4467" user="Rosscoe" changeset="7633830" lat="-20.665132" lon="116.714933">
    <tag k="addr:city" v="Dampier"/>
    <tag k="addr:country" v="AU"/>
    <tag k="addr:housenumber" v="148"/>
    <tag k="addr:postcode" v="6713"/>
    <tag k="addr:state" v="WA"/>
    <tag k="addr:street" v="Hannan Crescent"/>
    <tag k="source" v="survey"/>
  </node>
  <node id="1027720941" version="1" timestamp="2010-12-08T07:29:23Z" uid="4467" user="Rosscoe" changeset="6582402" lat="-20.6675414" lon="116.7124028">
    <tag k="addr:city" v="Dampier"/>
    <tag k="addr:country" v="AU"/>
    <tag k="addr:postcode" v="6713"/>
    <tag k="addr:state" v="WA"/>
    <tag k="addr:street" v="Flinders Crescent"/>
    <tag k="source" v="survey"/>
  </node>
  <node id="1027720941" version="2" timestamp="2011-03-09T06:58:16Z" uid="4467" user="Rosscoe" changeset="7501011" lat="-20.6675414" lon="116.7124028">
    <tag k="addr:city" v="Dampier"/>
    <tag k="addr:country" v="AU"/>
    <tag k="addr:housenumber" v="162"/>
    <tag k="addr:postcode" v="6713"/>
    <tag k="addr:state" v="WA"/>
    <tag k="addr:street" v="Flinders Crescent"/>
    <tag k="source" v="survey"/>
  </node>
  <node id="1027720944" version="1" timestamp="2010-12-08T07:29:23Z" uid="4467" user="Rosscoe" changeset="6582402" lat="-20.6701879" lon="116.7122679">
    <tag k="addr:city" v="Dampier"/>
    <tag k="addr:country" v="AU"/>
    <tag k="addr:postcode" v="6713"/>
    <tag k="addr:state" v="WA"/>
    <tag k="addr:street" v="Fremantle Crescent"/>
    <tag k="source" v="survey"/>
  </node>
  <node id="1027720944" version="2" timestamp="2011-03-20T05:43:42Z" uid="4467" user="Rosscoe" changeset="7612817" lat="-20.6701879" lon="116.7122679">
    <tag k="addr:city" v="Dampier"/>
    <tag k="addr:country" v="AU"/>
    <tag k="addr:housenumber" v="226A"/>
    <tag k="addr:postcode" v="6713"/>
    <tag k="addr:state" v="WA"/>
    <tag k="addr:street" v="Fremantle Crescent"/>
    <tag k="source" v="survey"/>
  </node>
  <node id="1027720946" version="1" timestamp="2010-12-08T07:29:23Z" uid="4467" user="Rosscoe" changeset="6582402" lat="-20.6680539" lon="116.7139356">
    <tag k="addr:city" v="Dampier"/>
    <tag k="addr:country" v="AU"/>
    <tag k="addr:postcode" v="6713"/>
    <tag k="addr:state" v="WA"/>
    <tag k="addr:street" v="Thyseen Crescent"/>
    <tag k="source" v="survey"/>
  </node>
  <node id="1027720946" version="2" timestamp="2011-03-10T02:34:04Z" uid="4467" user="Rosscoe" changeset="7510456" lat="-20.6680539" lon="116.7139356">
    <tag k="addr:city" v="Dampier"/>
    <tag k="addr:country" v="AU"/>
    <tag k="addr:housenumber" v="170"/>
    <tag k="addr:postcode" v="6713"/>
    <tag k="addr:state" v="WA"/>
    <tag k="addr:street" v="Warburton Crescent"/>
    <tag k="source" v="survey"/>
  </node>
  <node id="1027720948" version="1" timestamp="2010-12-08T07:29:23Z" uid="4467" user="Rosscoe" changeset="6582402" lat="-20.6695645" lon="116.7112338">
    <tag k="addr:city" v="Dampier"/>
    <tag k="addr:country" v="AU"/>
    <tag k="addr:postcode" v="6713"/>
    <tag k="addr:state" v="WA"/>
    <tag k="addr:street" v="Roe Crescent"/>
    <tag k="source" v="survey"/>
  </node>
  <node id="1027720948" version="2" timestamp="2011-03-09T06:58:12Z" uid="4467" user="Rosscoe" changeset="7501011" lat="-20.6695645" lon="116.7112338">
    <tag k="addr:city" v="Dampier"/>
    <tag k="addr:country" v="AU"/>
    <tag k="addr:housenumber" v="212"/>
    <tag k="addr:postcode" v="6713"/>
    <tag k="addr:state" v="WA"/>
    <tag k="addr:street" v="Roe Crescent"/>
    <tag k="source" v="survey"/>
  </node>
  <node id="1027720954" version="1" timestamp="2010-12-08T07:29:24Z" uid="4467" user="Rosscoe" changeset="6582402" lat="-20.6634837" lon="116.7139479">
    <tag k="addr:city" v="Dampier"/>
    <tag k="addr:country" v="AU"/>
    <tag k="addr:postcode" v="6713"/>
    <tag k="addr:state" v="WA"/>
    <tag k="addr:street" v="Tachikawa Crescent"/>
    <tag k="source" v="survey"/>
  </node>
  <node id="1027720954" version="2" timestamp="2011-03-22T05:11:57Z" uid="4467" user="Rosscoe" changeset="7633830" lat="-20.6634837" lon="116.7139479">
    <tag k="addr:city" v="Dampier"/>
    <tag k="addr:country" v="AU"/>
    <tag k="addr:housenumber" v="132A"/>
    <tag k="addr:postcode" v="6713"/>
    <tag k="addr:state" v="WA"/>
    <tag k="addr:street" v="Tachikawa Crescent"/>
    <tag k="source" v="survey"/>
  </node>
  <node id="1027720955" version="1" timestamp="2010-12-08T07:29:24Z" uid="4467" user="Rosscoe" changeset="6582402" lat="-20.6679086" lon="116.7095334">
    <tag k="addr:city" v="Dampier"/>
    <tag k="addr:country" v="AU"/>
    <tag k="addr:postcode" v="6713"/>
    <tag k="addr:state" v="WA"/>
    <tag k="addr:street" v="Lockyer Crescent"/>
    <tag k="source" v="survey"/>
  </node>
  <node id="1027720955" version="2" timestamp="2011-03-20T05:33:41Z" uid="4467" user="Rosscoe" changeset="7612786" lat="-20.6679086" lon="116.7095334">
    <tag k="addr:city" v="Dampier"/>
    <tag k="addr:country" v="AU"/>
    <tag k="addr:housenumber" v="184"/>
    <tag k="addr:postcode" v="6713"/>
    <tag k="addr:state" v="WA"/>
    <tag k="addr:street" v="Lockyer Crescent"/>
    <tag k="source" v="survey"/>
  </node>
  <node id="1027720962" version="1" timestamp="2010-12-08T07:29:24Z" uid="4467" user="Rosscoe" changeset="6582402" lat="-20.664914" lon="116.7128565">
    <tag k="addr:city" v="Dampier"/>
    <tag k="addr:country" v="AU"/>
    <tag k="addr:postcode" v="6713"/>
    <tag k="addr:state" v="WA"/>
    <tag k="addr:street" v="Irwin Crescent"/>
    <tag k="source" v="survey"/>
  </node>
  <node id="1027720962" version="2" timestamp="2011-03-20T05:49:57Z" uid="4467" user="Rosscoe" changeset="7612841" lat="-20.664914" lon="116.7128565">
    <tag k="addr:city" v="Dampier"/>
    <tag k="addr:country" v="AU"/>
    <tag k="addr:housenumber" v="120"/>
    <tag k="addr:postcode" v="6713"/>
    <tag k="addr:state" v="WA"/>
    <tag k="addr:street" v="Irwin Crescent"/>
    <tag k="source" v="survey"/>
  </node>
  <node id="1027720965" version="1" timestamp="2010-12-08T07:29:24Z" uid="4467" user="Rosscoe" changeset="6582402" lat="-20.6658816" lon="116.7102324">
    <tag k="addr:city" v="Dampier"/>
    <tag k="addr:country" v="AU"/>
    <tag k="addr:postcode" v="6713"/>
    <tag k="addr:state" v="WA"/>
    <tag k="addr:street" v="Fortesque Crescent"/>
    <tag k="source" v="survey"/>
  </node>
  <node id="1027720965" version="2" timestamp="2011-03-20T05:29:03Z" uid="4467" user="Rosscoe" changeset="7612776" lat="-20.6658816" lon="116.7102324">
    <tag k="addr:city" v="Dampier"/>
    <tag k="addr:country" v="AU"/>
    <tag k="addr:housenumber" v="79"/>
    <tag k="addr:postcode" v="6713"/>
    <tag k="addr:state" v="WA"/>
    <tag k="addr:street" v="Fortesque Crescent"/>
    <tag k="source" v="survey"/>
  </node>
  <node id="1027720969" version="1" timestamp="2010-12-08T07:29:24Z" uid="4467" user="Rosscoe" changeset="6582402" lat="-20.6651435" lon="116.7156524">
    <tag k="addr:city" v="Dampier"/>
    <tag k="addr:country" v="AU"/>
    <tag k="addr:postcode" v="6713"/>
    <tag k="addr:state" v="WA"/>
    <tag k="addr:street" v="Hannan Crescent"/>
    <tag k="source" v="survey"/>
  </node>
  <node id="1027720969" version="2" timestamp="2011-03-22T05:11:56Z" uid="4467" user="Rosscoe" changeset="7633830" lat="-20.6651435" lon="116.7156524">
    <tag k="addr:city" v="Dampier"/>
    <tag k="addr:country" v="AU"/>
    <tag k="addr:housenumber" v="151"/>
    <tag k="addr:postcode" v="6713"/>
    <tag k="addr:state" v="WA"/>
    <tag k="addr:street" v="Hannan Crescent"/>
    <tag k="source" v="survey"/>
  </node>
  <node id="1027720975" version="1" timestamp="2010-12-08T07:29:24Z" uid="4467" user="Rosscoe" changeset="6582402" lat="-20.6673732" lon="116.7140378">
    <tag k="addr:city" v="Dampier"/>
    <tag k="addr:country" v="AU"/>
    <tag k="addr:postcode" v="6713"/>
    <tag k="addr:state" v="WA"/>
    <tag k="addr:street" v="Flinders Crescent"/>
    <tag k="source" v="survey"/>
  </node>
  <node id="1027720975" version="2" timestamp="2011-03-09T06:58:09Z" uid="4467" user="Rosscoe" changeset="7501011" lat="-20.6673732" lon="116.7140378">
    <tag k="addr:city" v="Dampier"/>
    <tag k="addr:country" v="AU"/>
    <tag k="addr:housenumber" v="169"/>
    <tag k="addr:postcode" v="6713"/>
    <tag k="addr:state" v="WA"/>
    <tag k="addr:street" v="Flinders Crescent"/>
    <tag k="source" v="survey"/>
  </node>
  <node id="1027720976" version="1" timestamp="2010-12-08T07:29:24Z" uid="4467" user="Rosscoe" changeset="6582402" lat="-20.6644398" lon="116.7094762">
    <tag k="addr:city" v="Dampier"/>
    <tag k="addr:country" v="AU"/>
    <tag k="addr:postcode" v="6713"/>
    <tag k="addr:state" v="WA"/>
    <tag k="addr:street" v="Hardey Crescent"/>
    <tag k="source" v="survey"/>
  </node>
  <node id="1027720976" version="2" timestamp="2011-03-20T05:26:51Z" uid="4467" user="Rosscoe" changeset="7612771" lat="-20.6644398" lon="116.7094762">
    <tag k="addr:city" v="Dampier"/>
    <tag k="addr:country" v="AU"/>
    <tag k="addr:housenumber" v="64"/>
    <tag k="addr:postcode" v="6713"/>
    <tag k="addr:state" v="WA"/>
    <tag k="addr:street" v="Hardey Crescent"/>
    <tag k="source" v="survey"/>
  </node>
  <node id="1027720987" version="1" timestamp="2010-12-08T07:29:24Z" uid="4467" user="Rosscoe" changeset="6582402" lat="-20.670207" lon="116.7115731">
    <tag k="addr:city" v="Dampier"/>
    <tag k="addr:country" v="AU"/>
    <tag k="addr:postcode" v="6713"/>
    <tag k="addr:state" v="WA"/>
    <tag k="addr:street" v="Fremantle Crescent"/>
    <tag k="source" v="survey"/>
  </node>
  <node id="1027720987" version="2" timestamp="2011-03-20T05:43:43Z" uid="4467" user="Rosscoe" changeset="7612817" lat="-20.670207" lon="116.7115731">
    <tag k="addr:city" v="Dampier"/>
    <tag k="addr:country" v="AU"/>
    <tag k="addr:housenumber" v="224"/>
    <tag k="addr:postcode" v="6713"/>
    <tag k="addr:state" v="WA"/>
    <tag k="addr:street" v="Fremantle Crescent"/>
    <tag k="source" v="survey"/>
  </node>
  <node id="1027720992" version="1" timestamp="2010-12-08T07:29:24Z" uid="4467" user="Rosscoe" changeset="6582402" lat="-20.6689106" lon="116.7115935">
    <tag k="addr:city" v="Dampier"/>
    <tag k="addr:country" v="AU"/>
    <tag k="addr:postcode" v="6713"/>
    <tag k="addr:state" v="WA"/>
    <tag k="addr:street" v="Gregory Crescent"/>
    <tag k="source" v="survey"/>
  </node>
  <node id="1027720992" version="2" timestamp="2011-03-20T05:35:56Z" uid="4467" user="Rosscoe" changeset="7612795" lat="-20.6689106" lon="116.7115935">
    <tag k="addr:city" v="Dampier"/>
    <tag k="addr:country" v="AU"/>
    <tag k="addr:housenumber" v="208A"/>
    <tag k="addr:postcode" v="6713"/>
    <tag k="addr:state" v="WA"/>
    <tag k="addr:street" v="Gregory Crescent"/>
    <tag k="source" v="survey"/>
  </node>
  <node id="1027720997" version="1" timestamp="2010-12-08T07:29:25Z" uid="4467" user="Rosscoe" changeset="6582402" lat="-20.6676332" lon="116.7113687">
    <tag k="addr:city" v="Dampier"/>
    <tag k="addr:country" v="AU"/>
    <tag k="addr:postcode" v="6713"/>
    <tag k="addr:state" v="WA"/>
    <tag k="addr:street" v="Lockyer Crescent"/>
    <tag k="source" v="survey"/>
  </node>
  <node id="1027720997" version="2" timestamp="2011-03-20T05:33:41Z" uid="4467" user="Rosscoe" changeset="7612786" lat="-20.6676332" lon="116.7113687">
    <tag k="addr:city" v="Dampier"/>
    <tag k="addr:country" v="AU"/>
    <tag k="addr:housenumber" v="191A"/>
    <tag k="addr:postcode" v="6713"/>
    <tag k="addr:state" v="WA"/>
    <tag k="addr:street" v="Lockyer Crescent"/>
    <tag k="source" v="survey"/>
  </node>
  <node id="1027721004" version="1" timestamp="2010-12-08T07:29:25Z" uid="4467" user="Rosscoe" changeset="6582402" lat="-20.6652582" lon="116.7091778">
    <tag k="addr:city" v="Dampier"/>
    <tag k="addr:country" v="AU"/>
    <tag k="addr:postcode" v="6713"/>
    <tag k="addr:state" v="WA"/>
    <tag k="addr:street" v="Fortesque Crescent"/>
    <tag k="source" v="survey"/>
  </node>
  <node id="1027721004" version="2" timestamp="2011-02-19T17:04:08Z" uid="4467" user="Rosscoe" changeset="7333962" lat="-20.6652582" lon="116.7091778">
    <tag k="addr:city" v="Dampier"/>
    <tag k="addr:country" v="AU"/>
    <tag k="addr:housenumber" v="71"/>
    <tag k="addr:postcode" v="6713"/>
    <tag k="addr:state" v="WA"/>
    <tag k="addr:street" v="Fortesque Crescent"/>
    <tag k="source" v="survey"/>
  </node>
  <node id="1027721007" version="1" timestamp="2010-12-08T07:29:25Z" uid="4467" user="Rosscoe" changeset="6582402" lat="-20.6645163" lon="116.7157627">
    <tag k="addr:city" v="Dampier"/>
    <tag k="addr:country" v="AU"/>
    <tag k="addr:postcode" v="6713"/>
    <tag k="addr:state" v="WA"/>
    <tag k="addr:street" v="Drummond Crescent"/>
    <tag k="source" v="survey"/>
  </node>
  <node id="1027721007" version="2" timestamp="2011-03-10T02:34:02Z" uid="4467" user="Rosscoe" changeset="7510456" lat="-20.6645163" lon="116.7157627">
    <tag k="addr:city" v="Dampier"/>
    <tag k="addr:country" v="AU"/>
    <tag k="addr:housenumber" v="142"/>
    <tag k="addr:postcode" v="6713"/>
    <tag k="addr:state" v="WA"/>
    <tag k="addr:street" v="Drummond Crescent"/>
    <tag k="source" v="survey"/>
  </node>
  <node id="1027721020" version="1" timestamp="2010-12-08T07:29:25Z" uid="4467" user="Rosscoe" changeset="6582402" lat="-20.6643136" lon="116.7127339">
    <tag k="addr:city" v="Dampier"/>
    <tag k="addr:country" v="AU"/>
    <tag k="addr:postcode" v="6713"/>
    <tag k="addr:state" v="WA"/>
    <tag k="addr:street" v="Lyndon Crescent"/>
    <tag k="source" v="survey"/>
  </node>
  <node id="1027721020" version="2" timestamp="2011-03-09T06:58:08Z" uid="4467" user="Rosscoe" changeset="7501011" lat="-20.6643136" lon="116.7127339">
    <tag k="addr:city" v="Dampier"/>
    <tag k="addr:country" v="AU"/>
    <tag k="addr:housenumber" v="116"/>
    <tag k="addr:postcode" v="6713"/>
    <tag k="addr:state" v="WA"/>
    <tag k="addr:street" v="Lyndon Crescent"/>
    <tag k="source" v="survey"/>
  </node>
  <node id="1027721023" version="1" timestamp="2010-12-08T07:29:25Z" uid="4467" user="Rosscoe" changeset="6582402" lat="-20.6634837" lon="116.7107065">
    <tag k="addr:city" v="Dampier"/>
    <tag k="addr:country" v="AU"/>
    <tag k="addr:postcode" v="6713"/>
    <tag k="addr:state" v="WA"/>
    <tag k="addr:street" v="Gascoyne Crescent"/>
    <tag k="source" v="survey"/>
  </node>
  <node id="1027721023" version="2" timestamp="2011-02-02T04:43:27Z" uid="4467" user="Rosscoe" changeset="7161492" lat="-20.6634837" lon="116.7107065">
    <tag k="addr:city" v="Dampier"/>
    <tag k="addr:country" v="AU"/>
    <tag k="addr:housenumber" v="61"/>
    <tag k="addr:postcode" v="6713"/>
    <tag k="addr:state" v="WA"/>
    <tag k="addr:street" v="Gascoyne Crescent"/>
    <tag k="source" v="survey"/>
  </node>
  <node id="1027721032" version="1" timestamp="2010-12-08T07:29:25Z" uid="4467" user="Rosscoe" changeset="6582402" lat="-20.6656636" lon="116.7119001">
    <tag k="addr:city" v="Dampier"/>
    <tag k="addr:country" v="AU"/>
    <tag k="addr:postcode" v="6713"/>
    <tag k="addr:state" v="WA"/>
    <tag k="addr:street" v="Meda Crescent"/>
    <tag k="source" v="survey"/>
  </node>
  <node id="1027721032" version="2" timestamp="2011-03-09T06:58:10Z" uid="4467" user="Rosscoe" changeset="7501011" lat="-20.6656636" lon="116.7119001">
    <tag k="addr:city" v="Dampier"/>
    <tag k="addr:country" v="AU"/>
    <tag k="addr:housenumber" v="126"/>
    <tag k="addr:postcode" v="6713"/>
    <tag k="addr:state" v="WA"/>
    <tag k="addr:street" v="Meda Crescent"/>
    <tag k="source" v="survey"/>
  </node>
  <node id="1027721037" version="1" timestamp="2010-12-08T07:29:25Z" uid="4467" user="Rosscoe" changeset="6582402" lat="-20.6642945" lon="116.7059977"/>
  <node id="1027721038" version="1" timestamp="2010-12-08T07:29:25Z" uid="4467" user="Rosscoe" changeset="6582402" lat="-20.6680921" lon="116.7127421">
    <tag k="addr:city" v="Dampier"/>
    <tag k="addr:country" v="AU"/>
    <tag k="addr:postcode" v="6713"/>
    <tag k="addr:state" v="WA"/>
    <tag k="addr:street" v="Thyseen Crescent"/>
    <tag k="source" v="survey"/>
  </node>
  <node id="1027721038" version="2" timestamp="2011-03-10T02:34:02Z" uid="4467" user="Rosscoe" changeset="7510456" lat="-20.6680921" lon="116.7127421">
    <tag k="addr:city" v="Dampier"/>
    <tag k="addr:country" v="AU"/>
    <tag k="addr:housenumber" v="175"/>
    <tag k="addr:postcode" v="6713"/>
    <tag k="addr:state" v="WA"/>
    <tag k="addr:street" v="Warburton Crescent"/>
    <tag k="source" v="survey"/>
  </node>
  <node id="1027721049" version="1" timestamp="2010-12-08T07:29:25Z" uid="4467" user="Rosscoe" changeset="6582402" lat="-20.6695569" lon="116.7109885">
    <tag k="addr:city" v="Dampier"/>
    <tag k="addr:country" v="AU"/>
    <tag k="addr:postcode" v="6713"/>
    <tag k="addr:state" v="WA"/>
    <tag k="addr:street" v="Roe Crescent"/>
    <tag k="source" v="survey"/>
  </node>
  <node id="1027721049" version="2" timestamp="2011-03-09T06:58:07Z" uid="4467" user="Rosscoe" changeset="7501011" lat="-20.6695569" lon="116.7109885">
    <tag k="addr:city" v="Dampier"/>
    <tag k="addr:country" v="AU"/>
    <tag k="addr:housenumber" v="213"/>
    <tag k="addr:postcode" v="6713"/>
    <tag k="addr:state" v="WA"/>
    <tag k="addr:street" v="Roe Crescent"/>
    <tag k="source" v="survey"/>
  </node>
  <node id="1027721052" version="1" timestamp="2010-12-08T07:29:26Z" uid="4467" user="Rosscoe" changeset="6582402" lat="-20.6630285" lon="116.7122761">
    <tag k="addr:city" v="Dampier"/>
    <tag k="addr:country" v="AU"/>
    <tag k="addr:postcode" v="6713"/>
    <tag k="addr:state" v="WA"/>
    <tag k="addr:street" v="Oaklover Crescent"/>
    <tag k="source" v="survey"/>
  </node>
  <node id="1027721052" version="2" timestamp="2011-03-09T06:58:14Z" uid="4467" user="Rosscoe" changeset="7501011" lat="-20.6630285" lon="116.7122761">
    <tag k="addr:city" v="Dampier"/>
    <tag k="addr:country" v="AU"/>
    <tag k="addr:housenumber" v="100"/>
    <tag k="addr:postcode" v="6713"/>
    <tag k="addr:state" v="WA"/>
    <tag k="addr:street" v="Oaklover Crescent"/>
    <tag k="source" v="survey"/>
  </node>
  <node id="1027721054" version="1" timestamp="2010-12-08T07:29:26Z" uid="4467" user="Rosscoe" changeset="6582402" lat="-20.6650058" lon="116.7117039">
    <tag k="addr:city" v="Dampier"/>
    <tag k="addr:country" v="AU"/>
    <tag k="addr:postcode" v="6713"/>
    <tag k="addr:state" v="WA"/>
    <tag k="addr:street" v="Irwin Crescent"/>
    <tag k="source" v="survey"/>
  </node>
  <node id="1027721054" version="2" timestamp="2011-03-20T05:49:58Z" uid="4467" user="Rosscoe" changeset="7612841" lat="-20.6650058" lon="116.7117039">
    <tag k="addr:city" v="Dampier"/>
    <tag k="addr:country" v="AU"/>
    <tag k="addr:housenumber" v="124A"/>
    <tag k="addr:postcode" v="6713"/>
    <tag k="addr:state" v="WA"/>
    <tag k="addr:street" v="Irwin Crescent"/>
    <tag k="source" v="survey"/>
  </node>
  <node id="1027721064" version="1" timestamp="2010-12-08T07:29:26Z" uid="4467" user="Rosscoe" changeset="6582402" lat="-20.6656101" lon="116.7084461">
    <tag k="addr:city" v="Dampier"/>
    <tag k="addr:country" v="AU"/>
    <tag k="addr:postcode" v="6713"/>
    <tag k="addr:state" v="WA"/>
    <tag k="addr:street" v="Fortesque Crescent"/>
    <tag k="source" v="survey"/>
  </node>
  <node id="1027721064" version="2" timestamp="2011-02-19T17:04:06Z" uid="4467" user="Rosscoe" changeset="7333962" lat="-20.6656101" lon="116.7084461">
    <tag k="addr:city" v="Dampier"/>
    <tag k="addr:country" v="AU"/>
    <tag k="addr:housenumber" v="71C"/>
    <tag k="addr:postcode" v="6713"/>
    <tag k="addr:state" v="WA"/>
    <tag k="addr:street" v="Fortesque Crescent"/>
    <tag k="source" v="survey"/>
  </node>
  <node id="1027721070" version="1" timestamp="2010-12-08T07:29:26Z" uid="4467" user="Rosscoe" changeset="6582402" lat="-20.6657784" lon="116.7152845">
    <tag k="addr:city" v="Dampier"/>
    <tag k="addr:country" v="AU"/>
    <tag k="addr:postcode" v="6713"/>
    <tag k="addr:state" v="WA"/>
    <tag k="addr:street" v="Giles Crescent"/>
    <tag k="source" v="survey"/>
  </node>
  <node id="1027721070" version="2" timestamp="2011-03-10T02:34:03Z" uid="4467" user="Rosscoe" changeset="7510456" lat="-20.6657784" lon="116.7152845">
    <tag k="addr:city" v="Dampier"/>
    <tag k="addr:country" v="AU"/>
    <tag k="addr:housenumber" v="152"/>
    <tag k="addr:postcode" v="6713"/>
    <tag k="addr:state" v="WA"/>
    <tag k="addr:street" v="Giles Crescent"/>
    <tag k="source" v="survey"/>
  </node>
  <node id="1027721076" version="1" timestamp="2010-12-08T07:29:26Z" uid="4467" user="Rosscoe" changeset="6582402" lat="-20.6673732" lon="116.7142299">
    <tag k="addr:city" v="Dampier"/>
    <tag k="addr:country" v="AU"/>
    <tag k="addr:postcode" v="6713"/>
    <tag k="addr:state" v="WA"/>
    <tag k="addr:street" v="Flinders Crescent"/>
    <tag k="source" v="survey"/>
  </node>
  <node id="1027721076" version="2" timestamp="2011-03-09T06:58:13Z" uid="4467" user="Rosscoe" changeset="7501011" lat="-20.6673732" lon="116.7142299">
    <tag k="addr:city" v="Dampier"/>
    <tag k="addr:country" v="AU"/>
    <tag k="addr:housenumber" v="169A"/>
    <tag k="addr:postcode" v="6713"/>
    <tag k="addr:state" v="WA"/>
    <tag k="addr:street" v="Flinders Crescent"/>
    <tag k="source" v="survey"/>
  </node>
  <node id="1027721078" version="1" timestamp="2010-12-08T07:29:26Z" uid="4467" user="Rosscoe" changeset="6582402" lat="-20.663847" lon="116.7096029">
    <tag k="addr:city" v="Dampier"/>
    <tag k="addr:country" v="AU"/>
    <tag k="addr:postcode" v="6713"/>
    <tag k="addr:state" v="WA"/>
    <tag k="addr:street" v="Gascoyne Crescent"/>
    <tag k="source" v="survey"/>
  </node>
  <node id="1027721078" version="2" timestamp="2011-02-02T04:43:28Z" uid="4467" user="Rosscoe" changeset="7161492" lat="-20.663847" lon="116.7096029">
    <tag k="addr:city" v="Dampier"/>
    <tag k="addr:country" v="AU"/>
    <tag k="addr:housenumber" v="56"/>
    <tag k="addr:postcode" v="6713"/>
    <tag k="addr:state" v="WA"/>
    <tag k="addr:street" v="Gascoyne Crescent"/>
    <tag k="source" v="survey"/>
  </node>
  <node id="1027721082" version="1" timestamp="2010-12-08T07:29:26Z" uid="4467" user="Rosscoe" changeset="6582402" lat="-20.6702491" lon="116.7103959">
    <tag k="addr:city" v="Dampier"/>
    <tag k="addr:country" v="AU"/>
    <tag k="addr:postcode" v="6713"/>
    <tag k="addr:state" v="WA"/>
    <tag k="addr:street" v="Fremantle Crescent"/>
    <tag k="source" v="survey"/>
  </node>
  <node id="1027721082" version="2" timestamp="2011-03-20T05:43:41Z" uid="4467" user="Rosscoe" changeset="7612817" lat="-20.6702491" lon="116.7103959">
    <tag k="addr:city" v="Dampier"/>
    <tag k="addr:country" v="AU"/>
    <tag k="addr:housenumber" v="219"/>
    <tag k="addr:postcode" v="6713"/>
    <tag k="addr:state" v="WA"/>
    <tag k="addr:street" v="Fremantle Crescent"/>
    <tag k="source" v="survey"/>
  </node>
  <node id="1027721094" version="1" timestamp="2010-12-08T07:29:26Z" uid="4467" user="Rosscoe" changeset="6582402" lat="-20.6637751" lon="116.7064403"/>
  <node id="1027721097" version="1" timestamp="2010-12-08T07:29:27Z" uid="4467" user="Rosscoe" changeset="6582402" lat="-20.6682757" lon="116.7105307">
    <tag k="addr:city" v="Dampier"/>
    <tag k="addr:country" v="AU"/>
    <tag k="addr:postcode" v="6713"/>
    <tag k="addr:state" v="WA"/>
    <tag k="addr:street" v="Forrest Crescent"/>
    <tag k="source" v="survey"/>
  </node>
  <node id="1027721097" version="2" timestamp="2011-03-09T00:58:24Z" uid="4467" user="Rosscoe" changeset="7500213" lat="-20.6682757" lon="116.7105307">
    <tag k="addr:city" v="Dampier"/>
    <tag k="addr:country" v="AU"/>
    <tag k="addr:housenumber" v="197"/>
    <tag k="addr:postcode" v="6713"/>
    <tag k="addr:state" v="WA"/>
    <tag k="addr:street" v="Forrest Crescent"/>
    <tag k="source" v="survey"/>
  </node>
  <node id="1027721099" version="1" timestamp="2010-12-08T07:29:27Z" uid="4467" user="Rosscoe" changeset="6582402" lat="-20.6638546" lon="116.7149698">
    <tag k="addr:city" v="Dampier"/>
    <tag k="addr:country" v="AU"/>
    <tag k="addr:postcode" v="6713"/>
    <tag k="addr:state" v="WA"/>
    <tag k="addr:street" v="Prinsep Crescent"/>
    <tag k="source" v="survey"/>
  </node>
  <node id="1027721099" version="2" timestamp="2011-03-22T05:11:58Z" uid="4467" user="Rosscoe" changeset="7633830" lat="-20.6638546" lon="116.7149698">
    <tag k="addr:city" v="Dampier"/>
    <tag k="addr:country" v="AU"/>
    <tag k="addr:housenumber" v="136"/>
    <tag k="addr:postcode" v="6713"/>
    <tag k="addr:state" v="WA"/>
    <tag k="addr:street" v="Prinsep Crescent"/>
    <tag k="source" v="survey"/>
  </node>
  <node id="1027721103" version="1" timestamp="2010-12-08T07:29:27Z" uid="4467" user="Rosscoe" changeset="6582402" lat="-20.6644321" lon="116.7090388">
    <tag k="addr:city" v="Dampier"/>
    <tag k="addr:country" v="AU"/>
    <tag k="addr:postcode" v="6713"/>
    <tag k="addr:state" v="WA"/>
    <tag k="addr:street" v="Hardey Crescent"/>
    <tag k="source" v="survey"/>
  </node>
  <node id="1027721103" version="2" timestamp="2011-03-20T05:26:52Z" uid="4467" user="Rosscoe" changeset="7612771" lat="-20.6644321" lon="116.7090388">
    <tag k="addr:city" v="Dampier"/>
    <tag k="addr:country" v="AU"/>
    <tag k="addr:housenumber" v="66"/>
    <tag k="addr:postcode" v="6713"/>
    <tag k="addr:state" v="WA"/>
    <tag k="addr:street" v="Hardey Crescent"/>
    <tag k="source" v="survey"/>
  </node>
  <node id="1027721105" version="1" timestamp="2010-12-08T07:29:27Z" uid="4467" user="Rosscoe" changeset="6582402" lat="-20.6667383" lon="116.7137231">
    <tag k="addr:city" v="Dampier"/>
    <tag k="addr:country" v="AU"/>
    <tag k="addr:postcode" v="6713"/>
    <tag k="addr:state" v="WA"/>
    <tag k="addr:street" v="Burke Crescent"/>
    <tag k="source" v="survey"/>
  </node>
  <node id="1027721105" version="2" timestamp="2011-03-20T05:43:41Z" uid="4467" user="Rosscoe" changeset="7612817" lat="-20.6667383" lon="116.7137231">
    <tag k="addr:city" v="Dampier"/>
    <tag k="addr:country" v="AU"/>
    <tag k="addr:housenumber" v="156A"/>
    <tag k="addr:postcode" v="6713"/>
    <tag k="addr:state" v="WA"/>
    <tag k="addr:street" v="Burke Crescent"/>
    <tag k="source" v="survey"/>
  </node>
  <node id="1027721111" version="1" timestamp="2010-12-08T07:29:27Z" uid="4467" user="Rosscoe" changeset="6582402" lat="-20.668662" lon="116.7137967">
    <tag k="addr:city" v="Dampier"/>
    <tag k="addr:country" v="AU"/>
    <tag k="addr:postcode" v="6713"/>
    <tag k="addr:state" v="WA"/>
    <tag k="addr:street" v="Thyseen Crescent"/>
    <tag k="source" v="survey"/>
  </node>
  <node id="1027721111" version="2" timestamp="2011-03-09T06:58:11Z" uid="4467" user="Rosscoe" changeset="7501011" lat="-20.668662" lon="116.7137967">
    <tag k="addr:city" v="Dampier"/>
    <tag k="addr:country" v="AU"/>
    <tag k="addr:housenumber" v="181A"/>
    <tag k="addr:postcode" v="6713"/>
    <tag k="addr:state" v="WA"/>
    <tag k="addr:street" v="Thyseen Crescent"/>
    <tag k="source" v="survey"/>
  </node>
  <node id="1027721113" version="1" timestamp="2010-12-08T07:29:27Z" uid="4467" user="Rosscoe" changeset="6582402" lat="-20.6689756" lon="116.7101874">
    <tag k="addr:city" v="Dampier"/>
    <tag k="addr:country" v="AU"/>
    <tag k="addr:postcode" v="6713"/>
    <tag k="addr:state" v="WA"/>
    <tag k="addr:street" v="Gregory Crescent"/>
    <tag k="source" v="survey"/>
  </node>
  <node id="1027721113" version="2" timestamp="2011-03-20T05:35:56Z" uid="4467" user="Rosscoe" changeset="7612795" lat="-20.6689756" lon="116.7101874">
    <tag k="addr:city" v="Dampier"/>
    <tag k="addr:country" v="AU"/>
    <tag k="addr:housenumber" v="203"/>
    <tag k="addr:postcode" v="6713"/>
    <tag k="addr:state" v="WA"/>
    <tag k="addr:street" v="Gregory Crescent"/>
    <tag k="source" v="survey"/>
  </node>
  <node id="1027721114" version="1" timestamp="2010-12-08T07:29:27Z" uid="4467" user="Rosscoe" changeset="6582402" lat="-20.6636825" lon="116.7124273">
    <tag k="addr:city" v="Dampier"/>
    <tag k="addr:country" v="AU"/>
    <tag k="addr:postcode" v="6713"/>
    <tag k="addr:state" v="WA"/>
    <tag k="addr:street" v="Murchinson Crescent"/>
    <tag k="source" v="survey"/>
  </node>
  <node id="1027721114" version="2" timestamp="2011-03-20T05:49:58Z" uid="4467" user="Rosscoe" changeset="7612841" lat="-20.6636825" lon="116.7124273">
    <tag k="addr:city" v="Dampier"/>
    <tag k="addr:country" v="AU"/>
    <tag k="addr:housenumber" v="106"/>
    <tag k="addr:postcode" v="6713"/>
    <tag k="addr:state" v="WA"/>
    <tag k="addr:street" v="Murchinson Crescent"/>
    <tag k="source" v="survey"/>
  </node>
  <node id="1027721119" version="1" timestamp="2010-12-08T07:29:27Z" uid="4467" user="Rosscoe" changeset="6582402" lat="-20.6676944" lon="116.7099585">
    <tag k="addr:city" v="Dampier"/>
    <tag k="addr:country" v="AU"/>
    <tag k="addr:postcode" v="6713"/>
    <tag k="addr:state" v="WA"/>
    <tag k="addr:street" v="Lockyer Crescent"/>
    <tag k="source" v="survey"/>
  </node>
  <node id="1027721119" version="2" timestamp="2011-03-20T05:33:41Z" uid="4467" user="Rosscoe" changeset="7612786" lat="-20.6676944" lon="116.7099585">
    <tag k="addr:city" v="Dampier"/>
    <tag k="addr:country" v="AU"/>
    <tag k="addr:housenumber" v="186"/>
    <tag k="addr:postcode" v="6713"/>
    <tag k="addr:state" v="WA"/>
    <tag k="addr:street" v="Lockyer Crescent"/>
    <tag k="source" v="survey"/>
  </node>
  <node id="1027721120" version="1" timestamp="2010-12-08T07:29:27Z" uid="4467" user="Rosscoe" changeset="6582402" lat="-20.6656063" lon="116.7123456">
    <tag k="addr:city" v="Dampier"/>
    <tag k="addr:country" v="AU"/>
    <tag k="addr:postcode" v="6713"/>
    <tag k="addr:state" v="WA"/>
    <tag k="addr:street" v="Meda Crescent"/>
    <tag k="source" v="survey"/>
  </node>
  <node id="1027721120" version="2" timestamp="2011-03-09T06:58:08Z" uid="4467" user="Rosscoe" changeset="7501011" lat="-20.6656063" lon="116.7123456">
    <tag k="addr:city" v="Dampier"/>
    <tag k="addr:country" v="AU"/>
    <tag k="addr:housenumber" v="128"/>
    <tag k="addr:postcode" v="6713"/>
    <tag k="addr:state" v="WA"/>
    <tag k="addr:street" v="Meda Crescent"/>
    <tag k="source" v="survey"/>
  </node>
  <node id="1027721121" version="1" timestamp="2010-12-08T07:29:28Z" uid="4467" user="Rosscoe" changeset="6582402" lat="-20.6657516" lon="116.7106738">
    <tag k="addr:city" v="Dampier"/>
    <tag k="addr:country" v="AU"/>
    <tag k="addr:postcode" v="6713"/>
    <tag k="addr:state" v="WA"/>
    <tag k="addr:street" v="Fortesque Crescent"/>
    <tag k="source" v="survey"/>
  </node>
  <node id="1027721121" version="2" timestamp="2011-03-20T05:29:03Z" uid="4467" user="Rosscoe" changeset="7612776" lat="-20.6657516" lon="116.7106738">
    <tag k="addr:city" v="Dampier"/>
    <tag k="addr:country" v="AU"/>
    <tag k="addr:housenumber" v="79B"/>
    <tag k="addr:postcode" v="6713"/>
    <tag k="addr:state" v="WA"/>
    <tag k="addr:street" v="Fortesque Crescent"/>
    <tag k="source" v="survey"/>
  </node>
  <node id="1027721122" version="1" timestamp="2010-12-08T07:29:28Z" uid="4467" user="Rosscoe" changeset="6582402" lat="-20.6648222" lon="116.7140787">
    <tag k="addr:city" v="Dampier"/>
    <tag k="addr:country" v="AU"/>
    <tag k="addr:postcode" v="6713"/>
    <tag k="addr:state" v="WA"/>
    <tag k="addr:street" v="Boolgeeda Crescent"/>
    <tag k="source" v="survey"/>
  </node>
  <node id="1027721122" version="2" timestamp="2011-03-22T05:11:55Z" uid="4467" user="Rosscoe" changeset="7633830" lat="-20.6648222" lon="116.7140787">
    <tag k="addr:city" v="Dampier"/>
    <tag k="addr:country" v="AU"/>
    <tag k="addr:housenumber" v="145C"/>
    <tag k="addr:postcode" v="6713"/>
    <tag k="addr:state" v="WA"/>
    <tag k="addr:street" v="Boolgeeda Crescent"/>
    <tag k="source" v="survey"/>
  </node>
  <node id="1027721123" version="1" timestamp="2010-12-08T07:29:28Z" uid="4467" user="Rosscoe" changeset="6582402" lat="-20.6676447" lon="116.7121862">
    <tag k="addr:city" v="Dampier"/>
    <tag k="addr:country" v="AU"/>
    <tag k="addr:postcode" v="6713"/>
    <tag k="addr:state" v="WA"/>
    <tag k="addr:street" v="Flinders Crescent"/>
    <tag k="source" v="survey"/>
  </node>
  <node id="1027721123" version="2" timestamp="2011-03-09T06:58:10Z" uid="4467" user="Rosscoe" changeset="7501011" lat="-20.6676447" lon="116.7121862">
    <tag k="addr:city" v="Dampier"/>
    <tag k="addr:country" v="AU"/>
    <tag k="addr:housenumber" v="161"/>
    <tag k="addr:postcode" v="6713"/>
    <tag k="addr:state" v="WA"/>
    <tag k="addr:street" v="Flinders Crescent"/>
    <tag k="source" v="survey"/>
  </node>
  <node id="1027721124" version="1" timestamp="2010-12-08T07:29:28Z" uid="4467" user="Rosscoe" changeset="6582402" lat="-20.6638393" lon="116.7093822">
    <tag k="addr:city" v="Dampier"/>
    <tag k="addr:country" v="AU"/>
    <tag k="addr:postcode" v="6713"/>
    <tag k="addr:state" v="WA"/>
    <tag k="addr:street" v="Gascoyne Crescent"/>
    <tag k="source" v="survey"/>
  </node>
  <node id="1027721124" version="2" timestamp="2011-02-02T04:43:28Z" uid="4467" user="Rosscoe" changeset="7161492" lat="-20.6638393" lon="116.7093822">
    <tag k="addr:city" v="Dampier"/>
    <tag k="addr:country" v="AU"/>
    <tag k="addr:housenumber" v="55"/>
    <tag k="addr:postcode" v="6713"/>
    <tag k="addr:state" v="WA"/>
    <tag k="addr:street" v="Gascoyne Crescent"/>
    <tag k="source" v="survey"/>
  </node>
  <node id="1027721125" version="1" timestamp="2010-12-08T07:29:28Z" uid="4467" user="Rosscoe" changeset="6582402" lat="-20.6702338" lon="116.7120717">
    <tag k="addr:city" v="Dampier"/>
    <tag k="addr:country" v="AU"/>
    <tag k="addr:postcode" v="6713"/>
    <tag k="addr:state" v="WA"/>
    <tag k="addr:street" v="Fremantle Crescent"/>
    <tag k="source" v="survey"/>
  </node>
  <node id="1027721125" version="2" timestamp="2011-03-20T05:43:42Z" uid="4467" user="Rosscoe" changeset="7612817" lat="-20.6702338" lon="116.7120717">
    <tag k="addr:city" v="Dampier"/>
    <tag k="addr:country" v="AU"/>
    <tag k="addr:housenumber" v="226"/>
    <tag k="addr:postcode" v="6713"/>
    <tag k="addr:state" v="WA"/>
    <tag k="addr:street" v="Fremantle Crescent"/>
    <tag k="source" v="survey"/>
  </node>
  <node id="1027721126" version="1" timestamp="2010-12-08T07:29:28Z" uid="4467" user="Rosscoe" changeset="6582402" lat="-20.6686696" lon="116.7094353">
    <tag k="addr:city" v="Dampier"/>
    <tag k="addr:country" v="AU"/>
    <tag k="addr:postcode" v="6713"/>
    <tag k="addr:state" v="WA"/>
    <tag k="addr:street" v="Forrest Crescent"/>
    <tag k="source" v="survey"/>
  </node>
  <node id="1027721126" version="2" timestamp="2011-03-09T00:58:23Z" uid="4467" user="Rosscoe" changeset="7500213" lat="-20.6686696" lon="116.7094353">
    <tag k="addr:city" v="Dampier"/>
    <tag k="addr:country" v="AU"/>
    <tag k="addr:housenumber" v="200B"/>
    <tag k="addr:postcode" v="6713"/>
    <tag k="addr:state" v="WA"/>
    <tag k="addr:street" v="Forrest Crescent"/>
    <tag k="source" v="survey"/>
  </node>
  <node id="1027721127" version="1" timestamp="2010-12-08T07:29:28Z" uid="4467" user="Rosscoe" changeset="6582402" lat="-20.6662755" lon="116.7109845">
    <tag k="addr:city" v="Dampier"/>
    <tag k="addr:country" v="AU"/>
    <tag k="addr:postcode" v="6713"/>
    <tag k="addr:state" v="WA"/>
    <tag k="addr:street" v="Wooramel Crescent"/>
    <tag k="source" v="survey"/>
  </node>
  <node id="1027721127" version="2" timestamp="2011-03-07T11:02:13Z" uid="4467" user="Rosscoe" changeset="7482971" lat="-20.6662755" lon="116.7109845">
    <tag k="addr:city" v="Dampier"/>
    <tag k="addr:country" v="AU"/>
    <tag k="addr:housenumber" v="94"/>
    <tag k="addr:postcode" v="6713"/>
    <tag k="addr:state" v="WA"/>
    <tag k="addr:street" v="Wooramel Crescent"/>
    <tag k="source" v="survey"/>
  </node>
  <node id="1027721128" version="1" timestamp="2010-12-08T07:29:28Z" uid="4467" user="Rosscoe" changeset="6582402" lat="-20.6658395" lon="116.714839">
    <tag k="addr:city" v="Dampier"/>
    <tag k="addr:country" v="AU"/>
    <tag k="addr:postcode" v="6713"/>
    <tag k="addr:state" v="WA"/>
    <tag k="addr:street" v="Giles Crescent"/>
    <tag k="source" v="survey"/>
  </node>
  <node id="1027721128" version="2" timestamp="2011-03-10T02:34:02Z" uid="4467" user="Rosscoe" changeset="7510456" lat="-20.6658395" lon="116.714839">
    <tag k="addr:city" v="Dampier"/>
    <tag k="addr:country" v="AU"/>
    <tag k="addr:housenumber" v="154"/>
    <tag k="addr:postcode" v="6713"/>
    <tag k="addr:state" v="WA"/>
    <tag k="addr:street" v="Giles Crescent"/>
    <tag k="source" v="survey"/>
  </node>
  <node id="1027721129" version="1" timestamp="2010-12-08T07:29:29Z" uid="4467" user="Rosscoe" changeset="6582402" lat="-20.6641147" lon="116.714091">
    <tag k="addr:city" v="Dampier"/>
    <tag k="addr:country" v="AU"/>
    <tag k="addr:postcode" v="6713"/>
    <tag k="addr:state" v="WA"/>
    <tag k="addr:street" v="Prinsep Crescent"/>
    <tag k="source" v="survey"/>
  </node>
  <node id="1027721129" version="2" timestamp="2011-03-22T05:11:56Z" uid="4467" user="Rosscoe" changeset="7633830" lat="-20.6641147" lon="116.714091">
    <tag k="addr:city" v="Dampier"/>
    <tag k="addr:country" v="AU"/>
    <tag k="addr:housenumber" v="132"/>
    <tag k="addr:postcode" v="6713"/>
    <tag k="addr:state" v="WA"/>
    <tag k="addr:street" v="Prinsep Crescent"/>
    <tag k="source" v="survey"/>
  </node>
  <node id="1027721130" version="1" timestamp="2010-12-08T07:29:29Z" uid="4467" user="Rosscoe" changeset="6582402" lat="-20.6649829" lon="116.707927">
    <tag k="addr:city" v="Dampier"/>
    <tag k="addr:country" v="AU"/>
    <tag k="addr:postcode" v="6713"/>
    <tag k="addr:state" v="WA"/>
    <tag k="addr:street" v="Hardey Crescent"/>
    <tag k="source" v="survey"/>
  </node>
  <node id="1027721130" version="2" timestamp="2011-03-20T05:26:51Z" uid="4467" user="Rosscoe" changeset="7612771" lat="-20.6649829" lon="116.707927">
    <tag k="addr:city" v="Dampier"/>
    <tag k="addr:country" v="AU"/>
    <tag k="addr:housenumber" v="70A"/>
    <tag k="addr:postcode" v="6713"/>
    <tag k="addr:state" v="WA"/>
    <tag k="addr:street" v="Hardey Crescent"/>
    <tag k="source" v="survey"/>
  </node>
  <node id="1027721131" version="1" timestamp="2010-12-08T07:29:29Z" uid="4467" user="Rosscoe" changeset="6582402" lat="-20.6643136" lon="116.7122925">
    <tag k="addr:city" v="Dampier"/>
    <tag k="addr:country" v="AU"/>
    <tag k="addr:postcode" v="6713"/>
    <tag k="addr:state" v="WA"/>
    <tag k="addr:street" v="Lyndon Crescent"/>
    <tag k="source" v="survey"/>
  </node>
  <node id="1027721131" version="2" timestamp="2011-03-09T06:58:12Z" uid="4467" user="Rosscoe" changeset="7501011" lat="-20.6643136" lon="116.7122925">
    <tag k="addr:city" v="Dampier"/>
    <tag k="addr:country" v="AU"/>
    <tag k="addr:housenumber" v="114"/>
    <tag k="addr:postcode" v="6713"/>
    <tag k="addr:state" v="WA"/>
    <tag k="addr:street" v="Lyndon Crescent"/>
    <tag k="source" v="survey"/>
  </node>
  <node id="1027721132" version="1" timestamp="2010-12-08T07:29:29Z" uid="4467" user="Rosscoe" changeset="6582402" lat="-20.6658931" lon="116.7099748">
    <tag k="addr:city" v="Dampier"/>
    <tag k="addr:country" v="AU"/>
    <tag k="addr:postcode" v="6713"/>
    <tag k="addr:state" v="WA"/>
    <tag k="addr:street" v="Fortesque Crescent"/>
    <tag k="source" v="survey"/>
  </node>
  <node id="1027721132" version="2" timestamp="2011-03-20T05:29:03Z" uid="4467" user="Rosscoe" changeset="7612776" lat="-20.6658931" lon="116.7099748">
    <tag k="addr:city" v="Dampier"/>
    <tag k="addr:country" v="AU"/>
    <tag k="addr:housenumber" v="80"/>
    <tag k="addr:postcode" v="6713"/>
    <tag k="addr:state" v="WA"/>
    <tag k="addr:street" v="Fortesque Crescent"/>
    <tag k="source" v="survey"/>
  </node>
  <node id="1027721133" version="1" timestamp="2010-12-08T07:29:29Z" uid="4467" user="Rosscoe" changeset="6582402" lat="-20.6667268" lon="116.7135146">
    <tag k="addr:city" v="Dampier"/>
    <tag k="addr:country" v="AU"/>
    <tag k="addr:postcode" v="6713"/>
    <tag k="addr:state" v="WA"/>
    <tag k="addr:street" v="Burke Crescent"/>
    <tag k="source" v="survey"/>
  </node>
  <node id="1027721133" version="2" timestamp="2011-03-20T05:43:41Z" uid="4467" user="Rosscoe" changeset="7612817" lat="-20.6667268" lon="116.7135146">
    <tag k="addr:city" v="Dampier"/>
    <tag k="addr:country" v="AU"/>
    <tag k="addr:housenumber" v="156"/>
    <tag k="addr:postcode" v="6713"/>
    <tag k="addr:state" v="WA"/>
    <tag k="addr:street" v="Burke Crescent"/>
    <tag k="source" v="survey"/>
  </node>
  <node id="1027721134" version="1" timestamp="2010-12-08T07:29:29Z" uid="4467" user="Rosscoe" changeset="6582402" lat="-20.6643977" lon="116.7102078">
    <tag k="addr:city" v="Dampier"/>
    <tag k="addr:country" v="AU"/>
    <tag k="addr:postcode" v="6713"/>
    <tag k="addr:state" v="WA"/>
    <tag k="addr:street" v="Hardey Crescent"/>
    <tag k="source" v="survey"/>
  </node>
  <node id="1027721134" version="2" timestamp="2011-03-20T05:26:52Z" uid="4467" user="Rosscoe" changeset="7612771" lat="-20.6643977" lon="116.7102078">
    <tag k="addr:city" v="Dampier"/>
    <tag k="addr:country" v="AU"/>
    <tag k="addr:housenumber" v="62A"/>
    <tag k="addr:postcode" v="6713"/>
    <tag k="addr:state" v="WA"/>
    <tag k="addr:street" v="Hardey Crescent"/>
    <tag k="source" v="survey"/>
  </node>
  <node id="1027721135" version="1" timestamp="2010-12-08T07:29:29Z" uid="4467" user="Rosscoe" changeset="6582402" lat="-20.6686926" lon="116.7131181">
    <tag k="addr:city" v="Dampier"/>
    <tag k="addr:country" v="AU"/>
    <tag k="addr:postcode" v="6713"/>
    <tag k="addr:state" v="WA"/>
    <tag k="addr:street" v="Thyseen Crescent"/>
    <tag k="source" v="survey"/>
  </node>
  <node id="1027721135" version="2" timestamp="2011-03-09T06:58:14Z" uid="4467" user="Rosscoe" changeset="7501011" lat="-20.6686926" lon="116.7131181">
    <tag k="addr:city" v="Dampier"/>
    <tag k="addr:country" v="AU"/>
    <tag k="addr:housenumber" v="179"/>
    <tag k="addr:postcode" v="6713"/>
    <tag k="addr:state" v="WA"/>
    <tag k="addr:street" v="Thyseen Crescent"/>
    <tag k="source" v="survey"/>
  </node>
  <node id="1027721136" version="1" timestamp="2010-12-08T07:29:29Z" uid="4467" user="Rosscoe" changeset="6582402" lat="-20.6636787" lon="116.7121944">
    <tag k="addr:city" v="Dampier"/>
    <tag k="addr:country" v="AU"/>
    <tag k="addr:postcode" v="6713"/>
    <tag k="addr:state" v="WA"/>
    <tag k="addr:street" v="Murchinson Crescent"/>
    <tag k="source" v="survey"/>
  </node>
  <node id="1027721136" version="2" timestamp="2011-03-20T05:49:57Z" uid="4467" user="Rosscoe" changeset="7612841" lat="-20.6636787" lon="116.7121944">
    <tag k="addr:city" v="Dampier"/>
    <tag k="addr:country" v="AU"/>
    <tag k="addr:housenumber" v="107"/>
    <tag k="addr:postcode" v="6713"/>
    <tag k="addr:state" v="WA"/>
    <tag k="addr:street" v="Murchinson Crescent"/>
    <tag k="source" v="survey"/>
  </node>
  <node id="1027721137" version="1" timestamp="2010-12-08T07:29:29Z" uid="4467" user="Rosscoe" changeset="6582402" lat="-20.6665241" lon="116.7094394">
    <tag k="addr:city" v="Dampier"/>
    <tag k="addr:country" v="AU"/>
    <tag k="addr:postcode" v="6713"/>
    <tag k="addr:state" v="WA"/>
    <tag k="addr:street" v="Wooramel Crescent"/>
    <tag k="source" v="survey"/>
  </node>
  <node id="1027721137" version="2" timestamp="2011-03-07T11:02:12Z" uid="4467" user="Rosscoe" changeset="7482971" lat="-20.6665241" lon="116.7094394">
    <tag k="addr:city" v="Dampier"/>
    <tag k="addr:country" v="AU"/>
    <tag k="addr:housenumber" v="87"/>
    <tag k="addr:postcode" v="6713"/>
    <tag k="addr:state" v="WA"/>
    <tag k="addr:street" v="Wooramel Crescent"/>
    <tag k="source" v="survey"/>
  </node>
  <node id="1027721138" version="1" timestamp="2010-12-08T07:29:30Z" uid="4467" user="Rosscoe" changeset="6582402" lat="-20.6646578" lon="116.7135678">
    <tag k="addr:city" v="Dampier"/>
    <tag k="addr:country" v="AU"/>
    <tag k="addr:postcode" v="6713"/>
    <tag k="addr:state" v="WA"/>
    <tag k="addr:street" v="Irwin Crescent"/>
    <tag k="source" v="survey"/>
  </node>
  <node id="1027721138" version="2" timestamp="2011-03-20T05:49:58Z" uid="4467" user="Rosscoe" changeset="7612841" lat="-20.6646578" lon="116.7135678">
    <tag k="addr:city" v="Dampier"/>
    <tag k="addr:country" v="AU"/>
    <tag k="addr:housenumber" v="117"/>
    <tag k="addr:postcode" v="6713"/>
    <tag k="addr:state" v="WA"/>
    <tag k="addr:street" v="Irwin Crescent"/>
    <tag k="source" v="survey"/>
  </node>
  <node id="1027721139" version="1" timestamp="2010-12-08T07:29:30Z" uid="4467" user="Rosscoe" changeset="6582402" lat="-20.664283" lon="116.7129751">
    <tag k="addr:city" v="Dampier"/>
    <tag k="addr:country" v="AU"/>
    <tag k="addr:postcode" v="6713"/>
    <tag k="addr:state" v="WA"/>
    <tag k="addr:street" v="Lyndon Crescent"/>
    <tag k="source" v="survey"/>
  </node>
  <node id="1027721139" version="2" timestamp="2011-03-09T06:58:16Z" uid="4467" user="Rosscoe" changeset="7501011" lat="-20.664283" lon="116.7129751">
    <tag k="addr:city" v="Dampier"/>
    <tag k="addr:country" v="AU"/>
    <tag k="addr:housenumber" v="116A"/>
    <tag k="addr:postcode" v="6713"/>
    <tag k="addr:state" v="WA"/>
    <tag k="addr:street" v="Lyndon Crescent"/>
    <tag k="source" v="survey"/>
  </node>
  <node id="1027721140" version="1" timestamp="2010-12-08T07:29:30Z" uid="4467" user="Rosscoe" changeset="6582402" lat="-20.6657937" lon="116.7116712">
    <tag k="addr:city" v="Dampier"/>
    <tag k="addr:country" v="AU"/>
    <tag k="addr:postcode" v="6713"/>
    <tag k="addr:state" v="WA"/>
    <tag k="addr:street" v="Meda Crescent"/>
    <tag k="source" v="survey"/>
  </node>
  <node id="1027721140" version="2" timestamp="2011-03-09T06:58:09Z" uid="4467" user="Rosscoe" changeset="7501011" lat="-20.6657937" lon="116.7116712">
    <tag k="addr:city" v="Dampier"/>
    <tag k="addr:country" v="AU"/>
    <tag k="addr:housenumber" v="125"/>
    <tag k="addr:postcode" v="6713"/>
    <tag k="addr:state" v="WA"/>
    <tag k="addr:street" v="Meda Crescent"/>
    <tag k="source" v="survey"/>
  </node>
  <node id="1027721142" version="1" timestamp="2010-12-08T07:29:30Z" uid="4467" user="Rosscoe" changeset="6582402" lat="-20.6640994" lon="116.7058751"/>
  <node id="1027721143" version="1" timestamp="2010-12-08T07:29:30Z" uid="4467" user="Rosscoe" changeset="6582402" lat="-20.668008" lon="116.7141155">
    <tag k="addr:city" v="Dampier"/>
    <tag k="addr:country" v="AU"/>
    <tag k="addr:postcode" v="6713"/>
    <tag k="addr:state" v="WA"/>
    <tag k="addr:street" v="Warburton Crescent"/>
    <tag k="source" v="survey"/>
  </node>
  <node id="1027721143" version="2" timestamp="2011-03-10T02:34:03Z" uid="4467" user="Rosscoe" changeset="7510456" lat="-20.668008" lon="116.7141155">
    <tag k="addr:city" v="Dampier"/>
    <tag k="addr:country" v="AU"/>
    <tag k="addr:housenumber" v="170A"/>
    <tag k="addr:postcode" v="6713"/>
    <tag k="addr:state" v="WA"/>
    <tag k="addr:street" v="Warburton Crescent"/>
    <tag k="source" v="survey"/>
  </node>
  <node id="1027721145" version="1" timestamp="2010-12-08T07:29:30Z" uid="4467" user="Rosscoe" changeset="6582402" lat="-20.6695301" lon="116.7116916">
    <tag k="addr:city" v="Dampier"/>
    <tag k="addr:country" v="AU"/>
    <tag k="addr:postcode" v="6713"/>
    <tag k="addr:state" v="WA"/>
    <tag k="addr:street" v="Roe Crescent"/>
    <tag k="source" v="survey"/>
  </node>
  <node id="1027721145" version="2" timestamp="2011-03-09T06:58:10Z" uid="4467" user="Rosscoe" changeset="7501011" lat="-20.6695301" lon="116.7116916">
    <tag k="addr:city" v="Dampier"/>
    <tag k="addr:country" v="AU"/>
    <tag k="addr:housenumber" v="210"/>
    <tag k="addr:postcode" v="6713"/>
    <tag k="addr:state" v="WA"/>
    <tag k="addr:street" v="Roe Crescent"/>
    <tag k="source" v="survey"/>
  </node>
  <node id="1027721155" version="1" timestamp="2010-12-08T07:29:30Z" uid="4467" user="Rosscoe" changeset="6582402" lat="-20.6630438" lon="116.7116139">
    <tag k="addr:city" v="Dampier"/>
    <tag k="addr:country" v="AU"/>
    <tag k="addr:postcode" v="6713"/>
    <tag k="addr:state" v="WA"/>
    <tag k="addr:street" v="Oaklover Crescent"/>
    <tag k="source" v="survey"/>
  </node>
  <node id="1027721155" version="2" timestamp="2011-03-09T06:58:11Z" uid="4467" user="Rosscoe" changeset="7501011" lat="-20.6630438" lon="116.7116139">
    <tag k="addr:city" v="Dampier"/>
    <tag k="addr:country" v="AU"/>
    <tag k="addr:housenumber" v="97"/>
    <tag k="addr:postcode" v="6713"/>
    <tag k="addr:state" v="WA"/>
    <tag k="addr:street" v="Oaklover Crescent"/>
    <tag k="source" v="survey"/>
  </node>
  <node id="1027721158" version="1" timestamp="2010-12-08T07:29:30Z" uid="4467" user="Rosscoe" changeset="6582402" lat="-20.6682566" lon="116.7114586">
    <tag k="addr:city" v="Dampier"/>
    <tag k="addr:country" v="AU"/>
    <tag k="addr:postcode" v="6713"/>
    <tag k="addr:state" v="WA"/>
    <tag k="addr:street" v="Forrest Crescent"/>
    <tag k="source" v="survey"/>
  </node>
  <node id="1027721158" version="2" timestamp="2011-03-09T00:58:24Z" uid="4467" user="Rosscoe" changeset="7500213" lat="-20.6682566" lon="116.7114586">
    <tag k="addr:city" v="Dampier"/>
    <tag k="addr:country" v="AU"/>
    <tag k="addr:housenumber" v="193"/>
    <tag k="addr:postcode" v="6713"/>
    <tag k="addr:state" v="WA"/>
    <tag k="addr:street" v="Forrest Crescent"/>
    <tag k="source" v="survey"/>
  </node>
  <node id="1027721162" version="1" timestamp="2010-12-08T07:29:31Z" uid="4467" user="Rosscoe" changeset="6582402" lat="-20.6647878" lon="116.7133348">
    <tag k="addr:city" v="Dampier"/>
    <tag k="addr:country" v="AU"/>
    <tag k="addr:postcode" v="6713"/>
    <tag k="addr:state" v="WA"/>
    <tag k="addr:street" v="Irwin Crescent"/>
    <tag k="source" v="survey"/>
  </node>
  <node id="1027721162" version="2" timestamp="2011-03-20T05:49:58Z" uid="4467" user="Rosscoe" changeset="7612841" lat="-20.6647878" lon="116.7133348">
    <tag k="addr:city" v="Dampier"/>
    <tag k="addr:country" v="AU"/>
    <tag k="addr:housenumber" v="118"/>
    <tag k="addr:postcode" v="6713"/>
    <tag k="addr:state" v="WA"/>
    <tag k="addr:street" v="Irwin Crescent"/>
    <tag k="source" v="survey"/>
  </node>
  <node id="1027721165" version="1" timestamp="2010-12-08T07:29:31Z" uid="4467" user="Rosscoe" changeset="6582402" lat="-20.6660958" lon="116.7088467">
    <tag k="addr:city" v="Dampier"/>
    <tag k="addr:country" v="AU"/>
    <tag k="addr:postcode" v="6713"/>
    <tag k="addr:state" v="WA"/>
    <tag k="addr:street" v="Fortesque Crescent"/>
    <tag k="source" v="survey"/>
  </node>
  <node id="1027721165" version="2" timestamp="2011-03-20T05:29:02Z" uid="4467" user="Rosscoe" changeset="7612776" lat="-20.6660906" lon="116.7088799">
    <tag k="addr:city" v="Dampier"/>
    <tag k="addr:country" v="AU"/>
    <tag k="addr:housenumber" v="85"/>
    <tag k="addr:postcode" v="6713"/>
    <tag k="addr:state" v="WA"/>
    <tag k="addr:street" v="Fortesque Crescent"/>
    <tag k="source" v="survey"/>
  </node>
  <node id="1027721168" version="1" timestamp="2010-12-08T07:29:31Z" uid="4467" user="Rosscoe" changeset="6582402" lat="-20.6651358" lon="116.7151741">
    <tag k="addr:city" v="Dampier"/>
    <tag k="addr:country" v="AU"/>
    <tag k="addr:postcode" v="6713"/>
    <tag k="addr:state" v="WA"/>
    <tag k="addr:street" v="Hannan Crescent"/>
    <tag k="source" v="survey"/>
  </node>
  <node id="1027721168" version="2" timestamp="2011-03-22T05:11:58Z" uid="4467" user="Rosscoe" changeset="7633830" lat="-20.6651358" lon="116.7151741">
    <tag k="addr:city" v="Dampier"/>
    <tag k="addr:country" v="AU"/>
    <tag k="addr:housenumber" v="149"/>
    <tag k="addr:postcode" v="6713"/>
    <tag k="addr:state" v="WA"/>
    <tag k="addr:street" v="Hannan Crescent"/>
    <tag k="source" v="survey"/>
  </node>
  <node id="1027721176" version="1" timestamp="2010-12-08T07:29:31Z" uid="4467" user="Rosscoe" changeset="6582402" lat="-20.6673655" lon="116.7135882">
    <tag k="addr:city" v="Dampier"/>
    <tag k="addr:country" v="AU"/>
    <tag k="addr:postcode" v="6713"/>
    <tag k="addr:state" v="WA"/>
    <tag k="addr:street" v="Flinders Crescent"/>
    <tag k="source" v="survey"/>
  </node>
  <node id="1027721176" version="2" timestamp="2011-03-09T06:58:12Z" uid="4467" user="Rosscoe" changeset="7501011" lat="-20.6673655" lon="116.7135882">
    <tag k="addr:city" v="Dampier"/>
    <tag k="addr:country" v="AU"/>
    <tag k="addr:housenumber" v="167"/>
    <tag k="addr:postcode" v="6713"/>
    <tag k="addr:state" v="WA"/>
    <tag k="addr:street" v="Flinders Crescent"/>
    <tag k="source" v="survey"/>
  </node>
  <node id="1027721178" version="1" timestamp="2010-12-08T07:29:31Z" uid="4467" user="Rosscoe" changeset="6582402" lat="-20.6644283" lon="116.7099585">
    <tag k="addr:city" v="Dampier"/>
    <tag k="addr:country" v="AU"/>
    <tag k="addr:postcode" v="6713"/>
    <tag k="addr:state" v="WA"/>
    <tag k="addr:street" v="Hardey Crescent"/>
    <tag k="source" v="survey"/>
  </node>
  <node id="1027721178" version="2" timestamp="2011-03-20T05:26:51Z" uid="4467" user="Rosscoe" changeset="7612771" lat="-20.6644283" lon="116.7099585">
    <tag k="addr:city" v="Dampier"/>
    <tag k="addr:country" v="AU"/>
    <tag k="addr:housenumber" v="62"/>
    <tag k="addr:postcode" v="6713"/>
    <tag k="addr:state" v="WA"/>
    <tag k="addr:street" v="Hardey Crescent"/>
    <tag k="source" v="survey"/>
  </node>
  <node id="1027721186" version="1" timestamp="2010-12-08T07:29:31Z" uid="4467" user="Rosscoe" changeset="6582402" lat="-20.6703562" lon="116.7101751">
    <tag k="addr:city" v="Dampier"/>
    <tag k="addr:country" v="AU"/>
    <tag k="addr:postcode" v="6713"/>
    <tag k="addr:state" v="WA"/>
    <tag k="addr:street" v="Fremantle Crescent"/>
    <tag k="source" v="survey"/>
  </node>
  <node id="1027721186" version="2" timestamp="2011-03-20T05:43:43Z" uid="4467" user="Rosscoe" changeset="7612817" lat="-20.6703562" lon="116.7101751">
    <tag k="addr:city" v="Dampier"/>
    <tag k="addr:country" v="AU"/>
    <tag k="addr:housenumber" v="218"/>
    <tag k="addr:postcode" v="6713"/>
    <tag k="addr:state" v="WA"/>
    <tag k="addr:street" v="Fremantle Crescent"/>
    <tag k="source" v="survey"/>
  </node>
  <node id="1027721189" version="1" timestamp="2010-12-08T07:29:31Z" uid="4467" user="Rosscoe" changeset="6582402" lat="-20.6689259" lon="116.7106575">
    <tag k="addr:city" v="Dampier"/>
    <tag k="addr:country" v="AU"/>
    <tag k="addr:postcode" v="6713"/>
    <tag k="addr:state" v="WA"/>
    <tag k="addr:street" v="Gregory Crescent"/>
    <tag k="source" v="survey"/>
  </node>
  <node id="1027721189" version="2" timestamp="2011-03-20T05:35:55Z" uid="4467" user="Rosscoe" changeset="7612795" lat="-20.6689259" lon="116.7106575">
    <tag k="addr:city" v="Dampier"/>
    <tag k="addr:country" v="AU"/>
    <tag k="addr:housenumber" v="205"/>
    <tag k="addr:postcode" v="6713"/>
    <tag k="addr:state" v="WA"/>
    <tag k="addr:street" v="Gregory Crescent"/>
    <tag k="source" v="survey"/>
  </node>
  <node id="1027721194" version="1" timestamp="2010-12-08T07:29:31Z" uid="4467" user="Rosscoe" changeset="6582402" lat="-20.6666962" lon="116.709047">
    <tag k="addr:city" v="Dampier"/>
    <tag k="addr:country" v="AU"/>
    <tag k="addr:postcode" v="6713"/>
    <tag k="addr:state" v="WA"/>
    <tag k="addr:street" v="Wooramel Crescent"/>
    <tag k="source" v="survey"/>
  </node>
  <node id="1027721194" version="2" timestamp="2011-03-07T11:02:10Z" uid="4467" user="Rosscoe" changeset="7482971" lat="-20.6666962" lon="116.709047">
    <tag k="addr:city" v="Dampier"/>
    <tag k="addr:country" v="AU"/>
    <tag k="addr:housenumber" v="87A"/>
    <tag k="addr:postcode" v="6713"/>
    <tag k="addr:state" v="WA"/>
    <tag k="addr:street" v="Wooramel Crescent"/>
    <tag k="source" v="survey"/>
  </node>
  <node id="1027721197" version="1" timestamp="2010-12-08T07:29:32Z" uid="4467" user="Rosscoe" changeset="6582402" lat="-20.6638661" lon="116.7152027">
    <tag k="addr:city" v="Dampier"/>
    <tag k="addr:country" v="AU"/>
    <tag k="addr:postcode" v="6713"/>
    <tag k="addr:state" v="WA"/>
    <tag k="addr:street" v="Prinsep Crescent"/>
    <tag k="source" v="survey"/>
  </node>
  <node id="1027721197" version="2" timestamp="2011-03-22T05:11:57Z" uid="4467" user="Rosscoe" changeset="7633830" lat="-20.6638661" lon="116.7152027">
    <tag k="addr:city" v="Dampier"/>
    <tag k="addr:country" v="AU"/>
    <tag k="addr:housenumber" v="137"/>
    <tag k="addr:postcode" v="6713"/>
    <tag k="addr:state" v="WA"/>
    <tag k="addr:street" v="Prinsep Crescent"/>
    <tag k="source" v="survey"/>
  </node>
  <node id="1027721202" version="1" timestamp="2010-12-08T07:29:32Z" uid="4467" user="Rosscoe" changeset="6582402" lat="-20.6652659" lon="116.7096274">
    <tag k="addr:city" v="Dampier"/>
    <tag k="addr:country" v="AU"/>
    <tag k="addr:postcode" v="6713"/>
    <tag k="addr:state" v="WA"/>
    <tag k="addr:street" v="Fortesque Crescent"/>
    <tag k="source" v="survey"/>
  </node>
  <node id="1027721202" version="2" timestamp="2011-02-19T17:04:08Z" uid="4467" user="Rosscoe" changeset="7333962" lat="-20.6652659" lon="116.7096274">
    <tag k="addr:city" v="Dampier"/>
    <tag k="addr:country" v="AU"/>
    <tag k="addr:housenumber" v="73"/>
    <tag k="addr:postcode" v="6713"/>
    <tag k="addr:state" v="WA"/>
    <tag k="addr:street" v="Fortesque Crescent"/>
    <tag k="source" v="survey"/>
  </node>
  <node id="1027721212" version="1" timestamp="2010-12-08T07:29:32Z" uid="4467" user="Rosscoe" changeset="6582402" lat="-20.6634301" lon="116.7031814"/>
  <node id="1027721213" version="1" timestamp="2010-12-08T07:29:32Z" uid="4467" user="Rosscoe" changeset="6582402" lat="-20.6680157" lon="116.7132612">
    <tag k="addr:city" v="Dampier"/>
    <tag k="addr:country" v="AU"/>
    <tag k="addr:postcode" v="6713"/>
    <tag k="addr:state" v="WA"/>
    <tag k="addr:street" v="Thyseen Crescent"/>
    <tag k="source" v="survey"/>
  </node>
  <node id="1027721213" version="2" timestamp="2011-03-10T02:34:03Z" uid="4467" user="Rosscoe" changeset="7510456" lat="-20.6680157" lon="116.7132612">
    <tag k="addr:city" v="Dampier"/>
    <tag k="addr:country" v="AU"/>
    <tag k="addr:housenumber" v="173"/>
    <tag k="addr:postcode" v="6713"/>
    <tag k="addr:state" v="WA"/>
    <tag k="addr:street" v="Warburton Crescent"/>
    <tag k="source" v="survey"/>
  </node>
  <node id="1027721216" version="1" timestamp="2010-12-08T07:29:32Z" uid="4467" user="Rosscoe" changeset="6582402" lat="-20.6690712" lon="116.7099626">
    <tag k="addr:city" v="Dampier"/>
    <tag k="addr:country" v="AU"/>
    <tag k="addr:postcode" v="6713"/>
    <tag k="addr:state" v="WA"/>
    <tag k="addr:street" v="Gregory Crescent"/>
    <tag k="source" v="survey"/>
  </node>
  <node id="1027721216" version="2" timestamp="2011-03-20T05:35:56Z" uid="4467" user="Rosscoe" changeset="7612795" lat="-20.6690712" lon="116.7099626">
    <tag k="addr:city" v="Dampier"/>
    <tag k="addr:country" v="AU"/>
    <tag k="addr:housenumber" v="202"/>
    <tag k="addr:postcode" v="6713"/>
    <tag k="addr:state" v="WA"/>
    <tag k="addr:street" v="Gregory Crescent"/>
    <tag k="source" v="survey"/>
  </node>
  <node id="1027721227" version="1" timestamp="2010-12-08T07:29:32Z" uid="4467" user="Rosscoe" changeset="6582402" lat="-20.6630591" lon="116.7118265">
    <tag k="addr:city" v="Dampier"/>
    <tag k="addr:country" v="AU"/>
    <tag k="addr:postcode" v="6713"/>
    <tag k="addr:state" v="WA"/>
    <tag k="addr:street" v="Oaklover Crescent"/>
    <tag k="source" v="survey"/>
  </node>
  <node id="1027721227" version="2" timestamp="2011-03-09T06:58:09Z" uid="4467" user="Rosscoe" changeset="7501011" lat="-20.6630591" lon="116.7118265">
    <tag k="addr:city" v="Dampier"/>
    <tag k="addr:country" v="AU"/>
    <tag k="addr:housenumber" v="98"/>
    <tag k="addr:postcode" v="6713"/>
    <tag k="addr:state" v="WA"/>
    <tag k="addr:street" v="Oaklover Crescent"/>
    <tag k="source" v="survey"/>
  </node>
  <node id="1027721230" version="1" timestamp="2010-12-08T07:29:32Z" uid="4467" user="Rosscoe" changeset="6582402" lat="-20.6676447" lon="116.7106697">
    <tag k="addr:city" v="Dampier"/>
    <tag k="addr:country" v="AU"/>
    <tag k="addr:postcode" v="6713"/>
    <tag k="addr:state" v="WA"/>
    <tag k="addr:street" v="Lockyer Crescent"/>
    <tag k="source" v="survey"/>
  </node>
  <node id="1027721230" version="2" timestamp="2011-03-20T05:33:40Z" uid="4467" user="Rosscoe" changeset="7612786" lat="-20.6676447" lon="116.7106697">
    <tag k="addr:city" v="Dampier"/>
    <tag k="addr:country" v="AU"/>
    <tag k="addr:housenumber" v="189"/>
    <tag k="addr:postcode" v="6713"/>
    <tag k="addr:state" v="WA"/>
    <tag k="addr:street" v="Lockyer Crescent"/>
    <tag k="source" v="survey"/>
  </node>
  <node id="1027721242" version="1" timestamp="2010-12-08T07:29:32Z" uid="4467" user="Rosscoe" changeset="6582402" lat="-20.6649178" lon="116.7122025">
    <tag k="addr:city" v="Dampier"/>
    <tag k="addr:country" v="AU"/>
    <tag k="addr:postcode" v="6713"/>
    <tag k="addr:state" v="WA"/>
    <tag k="addr:street" v="Irwin Crescent"/>
    <tag k="source" v="survey"/>
  </node>
  <node id="1027721242" version="2" timestamp="2011-03-20T05:49:58Z" uid="4467" user="Rosscoe" changeset="7612841" lat="-20.6649178" lon="116.7122025">
    <tag k="addr:city" v="Dampier"/>
    <tag k="addr:country" v="AU"/>
    <tag k="addr:housenumber" v="123"/>
    <tag k="addr:postcode" v="6713"/>
    <tag k="addr:state" v="WA"/>
    <tag k="addr:street" v="Irwin Crescent"/>
    <tag k="source" v="survey"/>
  </node>
  <node id="1027721245" version="1" timestamp="2010-12-08T07:29:32Z" uid="4467" user="Rosscoe" changeset="6582402" lat="-20.6653883" lon="116.7088508">
    <tag k="addr:city" v="Dampier"/>
    <tag k="addr:country" v="AU"/>
    <tag k="addr:postcode" v="6713"/>
    <tag k="addr:state" v="WA"/>
    <tag k="addr:street" v="Fortesque Crescent"/>
    <tag k="source" v="survey"/>
  </node>
  <node id="1027721245" version="2" timestamp="2011-02-19T17:04:05Z" uid="4467" user="Rosscoe" changeset="7333962" lat="-20.6653883" lon="116.7088508">
    <tag k="addr:city" v="Dampier"/>
    <tag k="addr:country" v="AU"/>
    <tag k="addr:housenumber" v="71A"/>
    <tag k="addr:postcode" v="6713"/>
    <tag k="addr:state" v="WA"/>
    <tag k="addr:street" v="Fortesque Crescent"/>
    <tag k="source" v="survey"/>
  </node>
  <node id="1027721250" version="1" timestamp="2010-12-08T07:29:33Z" uid="4467" user="Rosscoe" changeset="6582402" lat="-20.6637743" lon="116.710077">
    <tag k="addr:city" v="Dampier"/>
    <tag k="addr:country" v="AU"/>
    <tag k="addr:postcode" v="6713"/>
    <tag k="addr:state" v="WA"/>
    <tag k="addr:street" v="Gascoyne Crescent"/>
    <tag k="source" v="survey"/>
  </node>
  <node id="1027721250" version="2" timestamp="2011-02-02T04:43:28Z" uid="4467" user="Rosscoe" changeset="7161492" lat="-20.6637743" lon="116.710077">
    <tag k="addr:city" v="Dampier"/>
    <tag k="addr:country" v="AU"/>
    <tag k="addr:housenumber" v="58"/>
    <tag k="addr:postcode" v="6713"/>
    <tag k="addr:state" v="WA"/>
    <tag k="addr:street" v="Gascoyne Crescent"/>
    <tag k="source" v="survey"/>
  </node>
  <node id="1027721262" version="1" timestamp="2010-12-08T07:29:33Z" uid="4467" user="Rosscoe" changeset="6582402" lat="-20.6682757" lon="116.711009">
    <tag k="addr:city" v="Dampier"/>
    <tag k="addr:country" v="AU"/>
    <tag k="addr:postcode" v="6713"/>
    <tag k="addr:state" v="WA"/>
    <tag k="addr:street" v="Forrest Crescent"/>
    <tag k="source" v="survey"/>
  </node>
  <node id="1027721262" version="2" timestamp="2011-03-09T00:58:23Z" uid="4467" user="Rosscoe" changeset="7500213" lat="-20.6682757" lon="116.711009">
    <tag k="addr:city" v="Dampier"/>
    <tag k="addr:country" v="AU"/>
    <tag k="addr:housenumber" v="195"/>
    <tag k="addr:postcode" v="6713"/>
    <tag k="addr:state" v="WA"/>
    <tag k="addr:street" v="Forrest Crescent"/>
    <tag k="source" v="survey"/>
  </node>
  <node id="1027721266" version="1" timestamp="2010-12-08T07:29:33Z" uid="4467" user="Rosscoe" changeset="6582402" lat="-20.6661723" lon="116.7111888">
    <tag k="addr:city" v="Dampier"/>
    <tag k="addr:country" v="AU"/>
    <tag k="addr:postcode" v="6713"/>
    <tag k="addr:state" v="WA"/>
    <tag k="addr:street" v="Wooramel Crescent"/>
    <tag k="source" v="survey"/>
  </node>
  <node id="1027721266" version="2" timestamp="2011-03-07T11:02:12Z" uid="4467" user="Rosscoe" changeset="7482971" lat="-20.6661723" lon="116.7111888">
    <tag k="addr:city" v="Dampier"/>
    <tag k="addr:country" v="AU"/>
    <tag k="addr:housenumber" v="95"/>
    <tag k="addr:postcode" v="6713"/>
    <tag k="addr:state" v="WA"/>
    <tag k="addr:street" v="Wooramel Crescent"/>
    <tag k="source" v="survey"/>
  </node>
  <node id="1027721276" version="1" timestamp="2010-12-08T07:29:33Z" uid="4467" user="Rosscoe" changeset="6582402" lat="-20.6659428" lon="116.714606">
    <tag k="addr:city" v="Dampier"/>
    <tag k="addr:country" v="AU"/>
    <tag k="addr:postcode" v="6713"/>
    <tag k="addr:state" v="WA"/>
    <tag k="addr:street" v="Giles Crescent"/>
    <tag k="source" v="survey"/>
  </node>
  <node id="1027721276" version="2" timestamp="2011-03-10T02:34:03Z" uid="4467" user="Rosscoe" changeset="7510456" lat="-20.6659428" lon="116.714606">
    <tag k="addr:city" v="Dampier"/>
    <tag k="addr:country" v="AU"/>
    <tag k="addr:housenumber" v="155"/>
    <tag k="addr:postcode" v="6713"/>
    <tag k="addr:state" v="WA"/>
    <tag k="addr:street" v="Giles Crescent"/>
    <tag k="source" v="survey"/>
  </node>
  <node id="1027721281" version="1" timestamp="2010-12-08T07:29:33Z" uid="4467" user="Rosscoe" changeset="6582402" lat="-20.6650326" lon="116.7107637">
    <tag k="addr:city" v="Dampier"/>
    <tag k="addr:country" v="AU"/>
    <tag k="addr:postcode" v="6713"/>
    <tag k="addr:state" v="WA"/>
    <tag k="addr:street" v="Fortesque Crescent"/>
    <tag k="source" v="survey"/>
  </node>
  <node id="1027721281" version="2" timestamp="2011-02-19T17:04:03Z" uid="4467" user="Rosscoe" changeset="7333962" lat="-20.6650326" lon="116.7107637">
    <tag k="addr:city" v="Dampier"/>
    <tag k="addr:country" v="AU"/>
    <tag k="addr:housenumber" v="78"/>
    <tag k="addr:postcode" v="6713"/>
    <tag k="addr:state" v="WA"/>
    <tag k="addr:street" v="Fortesque Crescent"/>
    <tag k="source" v="survey"/>
  </node>
  <node id="1027721283" version="1" timestamp="2010-12-08T07:29:33Z" uid="4467" user="Rosscoe" changeset="6582402" lat="-20.664042" lon="116.7163718">
    <tag k="addr:city" v="Dampier"/>
    <tag k="addr:country" v="AU"/>
    <tag k="addr:postcode" v="6713"/>
    <tag k="addr:state" v="WA"/>
    <tag k="addr:street" v="Prinsep Crescent"/>
    <tag k="source" v="survey"/>
  </node>
  <node id="1027721283" version="2" timestamp="2011-03-22T05:11:57Z" uid="4467" user="Rosscoe" changeset="7633830" lat="-20.664042" lon="116.7163718">
    <tag k="addr:city" v="Dampier"/>
    <tag k="addr:country" v="AU"/>
    <tag k="addr:housenumber" v="139C"/>
    <tag k="addr:postcode" v="6713"/>
    <tag k="addr:state" v="WA"/>
    <tag k="addr:street" v="Prinsep Crescent"/>
    <tag k="source" v="survey"/>
  </node>
  <node id="1027721293" version="1" timestamp="2010-12-08T07:29:33Z" uid="4467" user="Rosscoe" changeset="6582402" lat="-20.6651014" lon="116.7115036">
    <tag k="addr:city" v="Dampier"/>
    <tag k="addr:country" v="AU"/>
    <tag k="addr:postcode" v="6713"/>
    <tag k="addr:state" v="WA"/>
    <tag k="addr:street" v="Irwin Crescent"/>
    <tag k="source" v="survey"/>
  </node>
  <node id="1027721293" version="2" timestamp="2011-03-20T05:49:59Z" uid="4467" user="Rosscoe" changeset="7612841" lat="-20.6651014" lon="116.7115036">
    <tag k="addr:city" v="Dampier"/>
    <tag k="addr:country" v="AU"/>
    <tag k="addr:housenumber" v="124B"/>
    <tag k="addr:postcode" v="6713"/>
    <tag k="addr:state" v="WA"/>
    <tag k="addr:street" v="Irwin Crescent"/>
    <tag k="source" v="survey"/>
  </node>
  <node id="1027721297" version="1" timestamp="2010-12-08T07:29:34Z" uid="4467" user="Rosscoe" changeset="6582402" lat="-20.6687155" lon="116.712877">
    <tag k="addr:city" v="Dampier"/>
    <tag k="addr:country" v="AU"/>
    <tag k="addr:postcode" v="6713"/>
    <tag k="addr:state" v="WA"/>
    <tag k="addr:street" v="Thyseen Crescent"/>
    <tag k="source" v="survey"/>
  </node>
  <node id="1027721297" version="2" timestamp="2011-03-09T06:58:16Z" uid="4467" user="Rosscoe" changeset="7501011" lat="-20.6687155" lon="116.712877">
    <tag k="addr:city" v="Dampier"/>
    <tag k="addr:country" v="AU"/>
    <tag k="addr:housenumber" v="178"/>
    <tag k="addr:postcode" v="6713"/>
    <tag k="addr:state" v="WA"/>
    <tag k="addr:street" v="Thyseen Crescent"/>
    <tag k="source" v="survey"/>
  </node>
  <node id="1027721302" version="1" timestamp="2010-12-08T07:29:34Z" uid="4467" user="Rosscoe" changeset="6582402" lat="-20.6636022" lon="116.7128933">
    <tag k="addr:city" v="Dampier"/>
    <tag k="addr:country" v="AU"/>
    <tag k="addr:postcode" v="6713"/>
    <tag k="addr:state" v="WA"/>
    <tag k="addr:street" v="Murchinson Crescent"/>
    <tag k="source" v="survey"/>
  </node>
  <node id="1027721302" version="2" timestamp="2011-03-20T05:49:57Z" uid="4467" user="Rosscoe" changeset="7612841" lat="-20.6636022" lon="116.7128933">
    <tag k="addr:city" v="Dampier"/>
    <tag k="addr:country" v="AU"/>
    <tag k="addr:housenumber" v="104"/>
    <tag k="addr:postcode" v="6713"/>
    <tag k="addr:state" v="WA"/>
    <tag k="addr:street" v="Murchinson Crescent"/>
    <tag k="source" v="survey"/>
  </node>
  <node id="1027721306" version="1" timestamp="2010-12-08T07:29:34Z" uid="4467" user="Rosscoe" changeset="6582402" lat="-20.6676409" lon="116.7104326">
    <tag k="addr:city" v="Dampier"/>
    <tag k="addr:country" v="AU"/>
    <tag k="addr:postcode" v="6713"/>
    <tag k="addr:state" v="WA"/>
    <tag k="addr:street" v="Lockyer Crescent"/>
    <tag k="source" v="survey"/>
  </node>
  <node id="1027721306" version="2" timestamp="2011-03-20T05:33:40Z" uid="4467" user="Rosscoe" changeset="7612786" lat="-20.6676409" lon="116.7104326">
    <tag k="addr:city" v="Dampier"/>
    <tag k="addr:country" v="AU"/>
    <tag k="addr:housenumber" v="188"/>
    <tag k="addr:postcode" v="6713"/>
    <tag k="addr:state" v="WA"/>
    <tag k="addr:street" v="Lockyer Crescent"/>
    <tag k="source" v="survey"/>
  </node>
  <node id="1027721309" version="1" timestamp="2010-12-08T07:29:34Z" uid="4467" user="Rosscoe" changeset="6582402" lat="-20.6652123" lon="116.7147082">
    <tag k="addr:city" v="Dampier"/>
    <tag k="addr:country" v="AU"/>
    <tag k="addr:postcode" v="6713"/>
    <tag k="addr:state" v="WA"/>
    <tag k="addr:street" v="Hannan Crescent"/>
    <tag k="source" v="survey"/>
  </node>
  <node id="1027721309" version="2" timestamp="2011-03-22T05:11:59Z" uid="4467" user="Rosscoe" changeset="7633830" lat="-20.6652123" lon="116.7147082">
    <tag k="addr:city" v="Dampier"/>
    <tag k="addr:country" v="AU"/>
    <tag k="addr:housenumber" v="147"/>
    <tag k="addr:postcode" v="6713"/>
    <tag k="addr:state" v="WA"/>
    <tag k="addr:street" v="Hannan Crescent"/>
    <tag k="source" v="survey"/>
  </node>
  <node id="1027721314" version="1" timestamp="2010-12-08T07:29:34Z" uid="4467" user="Rosscoe" changeset="6582402" lat="-20.6673617" lon="116.7131345">
    <tag k="addr:city" v="Dampier"/>
    <tag k="addr:country" v="AU"/>
    <tag k="addr:postcode" v="6713"/>
    <tag k="addr:state" v="WA"/>
    <tag k="addr:street" v="Flinders Crescent"/>
    <tag k="source" v="survey"/>
  </node>
  <node id="1027721314" version="2" timestamp="2011-03-09T06:58:15Z" uid="4467" user="Rosscoe" changeset="7501011" lat="-20.6673617" lon="116.7131345">
    <tag k="addr:city" v="Dampier"/>
    <tag k="addr:country" v="AU"/>
    <tag k="addr:housenumber" v="165"/>
    <tag k="addr:postcode" v="6713"/>
    <tag k="addr:state" v="WA"/>
    <tag k="addr:street" v="Flinders Crescent"/>
    <tag k="source" v="survey"/>
  </node>
  <node id="1027721315" version="1" timestamp="2010-12-08T07:29:34Z" uid="4467" user="Rosscoe" changeset="6582402" lat="-20.6701153" lon="116.7124805">
    <tag k="addr:city" v="Dampier"/>
    <tag k="addr:country" v="AU"/>
    <tag k="addr:postcode" v="6713"/>
    <tag k="addr:state" v="WA"/>
    <tag k="addr:street" v="Fremantle Crescent"/>
    <tag k="source" v="survey"/>
  </node>
  <node id="1027721315" version="2" timestamp="2011-03-20T05:43:41Z" uid="4467" user="Rosscoe" changeset="7612817" lat="-20.6701153" lon="116.7124805">
    <tag k="addr:city" v="Dampier"/>
    <tag k="addr:country" v="AU"/>
    <tag k="addr:housenumber" v="226B"/>
    <tag k="addr:postcode" v="6713"/>
    <tag k="addr:state" v="WA"/>
    <tag k="addr:street" v="Fremantle Crescent"/>
    <tag k="source" v="survey"/>
  </node>
  <node id="1027721320" version="1" timestamp="2010-12-08T07:29:34Z" uid="4467" user="Rosscoe" changeset="6582402" lat="-20.6639617" lon="116.7065659"/>
  <node id="1027721322" version="1" timestamp="2010-12-08T07:29:34Z" uid="4467" user="Rosscoe" changeset="6582402" lat="-20.6684325" lon="116.7098522">
    <tag k="addr:city" v="Dampier"/>
    <tag k="addr:country" v="AU"/>
    <tag k="addr:postcode" v="6713"/>
    <tag k="addr:state" v="WA"/>
    <tag k="addr:street" v="Forrest Crescent"/>
    <tag k="source" v="survey"/>
  </node>
  <node id="1027721322" version="2" timestamp="2011-03-09T00:58:24Z" uid="4467" user="Rosscoe" changeset="7500213" lat="-20.6684325" lon="116.7098522">
    <tag k="addr:city" v="Dampier"/>
    <tag k="addr:country" v="AU"/>
    <tag k="addr:housenumber" v="200"/>
    <tag k="addr:postcode" v="6713"/>
    <tag k="addr:state" v="WA"/>
    <tag k="addr:street" v="Forrest Crescent"/>
    <tag k="source" v="survey"/>
  </node>
  <node id="1027721325" version="1" timestamp="2010-12-08T07:29:35Z" uid="4467" user="Rosscoe" changeset="6582402" lat="-20.6695684" lon="116.7114709">
    <tag k="addr:city" v="Dampier"/>
    <tag k="addr:country" v="AU"/>
    <tag k="addr:postcode" v="6713"/>
    <tag k="addr:state" v="WA"/>
    <tag k="addr:street" v="Roe Crescent"/>
    <tag k="source" v="survey"/>
  </node>
  <node id="1027721325" version="2" timestamp="2011-03-09T06:58:16Z" uid="4467" user="Rosscoe" changeset="7501011" lat="-20.6695684" lon="116.7114709">
    <tag k="addr:city" v="Dampier"/>
    <tag k="addr:country" v="AU"/>
    <tag k="addr:housenumber" v="211"/>
    <tag k="addr:postcode" v="6713"/>
    <tag k="addr:state" v="WA"/>
    <tag k="addr:street" v="Roe Crescent"/>
    <tag k="source" v="survey"/>
  </node>
  <node id="1027721328" version="1" timestamp="2010-12-08T07:29:35Z" uid="4467" user="Rosscoe" changeset="6582402" lat="-20.6629237" lon="116.7146247"/>
  <node id="1027721329" version="1" timestamp="2010-12-08T07:29:35Z" uid="4467" user="Rosscoe" changeset="6582402" lat="-20.6633727" lon="116.7141686">
    <tag k="addr:city" v="Dampier"/>
    <tag k="addr:country" v="AU"/>
    <tag k="addr:postcode" v="6713"/>
    <tag k="addr:state" v="WA"/>
    <tag k="addr:street" v="Tachikawa Crescent"/>
    <tag k="source" v="survey"/>
  </node>
  <node id="1027721329" version="2" timestamp="2011-03-22T05:11:59Z" uid="4467" user="Rosscoe" changeset="7633830" lat="-20.6633727" lon="116.7141686">
    <tag k="addr:city" v="Dampier"/>
    <tag k="addr:country" v="AU"/>
    <tag k="addr:housenumber" v="132B"/>
    <tag k="addr:postcode" v="6713"/>
    <tag k="addr:state" v="WA"/>
    <tag k="addr:street" v="Tachikawa Crescent"/>
    <tag k="source" v="survey"/>
  </node>
  <node id="1027721331" version="1" timestamp="2010-12-08T07:29:35Z" uid="4467" user="Rosscoe" changeset="6582402" lat="-20.6681457" lon="116.7117079">
    <tag k="addr:city" v="Dampier"/>
    <tag k="addr:country" v="AU"/>
    <tag k="addr:postcode" v="6713"/>
    <tag k="addr:state" v="WA"/>
    <tag k="addr:street" v="Forrest Crescent"/>
    <tag k="source" v="survey"/>
  </node>
  <node id="1027721331" version="2" timestamp="2011-03-09T00:58:22Z" uid="4467" user="Rosscoe" changeset="7500213" lat="-20.6681457" lon="116.7117079">
    <tag k="addr:city" v="Dampier"/>
    <tag k="addr:country" v="AU"/>
    <tag k="addr:housenumber" v="192"/>
    <tag k="addr:postcode" v="6713"/>
    <tag k="addr:state" v="WA"/>
    <tag k="addr:street" v="Forrest Crescent"/>
    <tag k="source" v="survey"/>
  </node>
  <node id="1027721332" version="1" timestamp="2010-12-08T07:29:35Z" uid="4467" user="Rosscoe" changeset="6582402" lat="-20.6645239" lon="116.7162328">
    <tag k="addr:city" v="Dampier"/>
    <tag k="addr:country" v="AU"/>
    <tag k="addr:postcode" v="6713"/>
    <tag k="addr:state" v="WA"/>
    <tag k="addr:street" v="Drummond Crescent"/>
    <tag k="source" v="survey"/>
  </node>
  <node id="1027721332" version="2" timestamp="2011-03-10T02:34:03Z" uid="4467" user="Rosscoe" changeset="7510456" lat="-20.6645239" lon="116.7162328">
    <tag k="addr:city" v="Dampier"/>
    <tag k="addr:country" v="AU"/>
    <tag k="addr:housenumber" v="140"/>
    <tag k="addr:postcode" v="6713"/>
    <tag k="addr:state" v="WA"/>
    <tag k="addr:street" v="Drummond Crescent"/>
    <tag k="source" v="survey"/>
  </node>
  <node id="1027721333" version="1" timestamp="2010-12-08T07:29:35Z" uid="4467" user="Rosscoe" changeset="6582402" lat="-20.6643097" lon="116.7118469">
    <tag k="addr:city" v="Dampier"/>
    <tag k="addr:country" v="AU"/>
    <tag k="addr:postcode" v="6713"/>
    <tag k="addr:state" v="WA"/>
    <tag k="addr:street" v="Lyndon Crescent"/>
    <tag k="source" v="survey"/>
  </node>
  <node id="1027721333" version="2" timestamp="2011-03-09T06:58:11Z" uid="4467" user="Rosscoe" changeset="7501011" lat="-20.6643097" lon="116.7118469">
    <tag k="addr:city" v="Dampier"/>
    <tag k="addr:country" v="AU"/>
    <tag k="addr:housenumber" v="112"/>
    <tag k="addr:postcode" v="6713"/>
    <tag k="addr:state" v="WA"/>
    <tag k="addr:street" v="Lyndon Crescent"/>
    <tag k="source" v="survey"/>
  </node>
  <node id="1027721334" version="1" timestamp="2010-12-08T07:29:35Z" uid="4467" user="Rosscoe" changeset="6582402" lat="-20.6658357" lon="116.7104694">
    <tag k="addr:city" v="Dampier"/>
    <tag k="addr:country" v="AU"/>
    <tag k="addr:postcode" v="6713"/>
    <tag k="addr:state" v="WA"/>
    <tag k="addr:street" v="Fortesque Crescent"/>
    <tag k="source" v="survey"/>
  </node>
  <node id="1027721334" version="2" timestamp="2011-03-20T05:29:02Z" uid="4467" user="Rosscoe" changeset="7612776" lat="-20.6658357" lon="116.7104694">
    <tag k="addr:city" v="Dampier"/>
    <tag k="addr:country" v="AU"/>
    <tag k="addr:housenumber" v="79A"/>
    <tag k="addr:postcode" v="6713"/>
    <tag k="addr:state" v="WA"/>
    <tag k="addr:street" v="Fortesque Crescent"/>
    <tag k="source" v="survey"/>
  </node>
  <node id="1027721335" version="1" timestamp="2010-12-08T07:29:35Z" uid="4467" user="Rosscoe" changeset="6582402" lat="-20.6674038" lon="116.713813">
    <tag k="addr:city" v="Dampier"/>
    <tag k="addr:country" v="AU"/>
    <tag k="addr:postcode" v="6713"/>
    <tag k="addr:state" v="WA"/>
    <tag k="addr:street" v="Flinders Crescent"/>
    <tag k="source" v="survey"/>
  </node>
  <node id="1027721335" version="2" timestamp="2011-03-09T06:58:15Z" uid="4467" user="Rosscoe" changeset="7501011" lat="-20.6674038" lon="116.713813">
    <tag k="addr:city" v="Dampier"/>
    <tag k="addr:country" v="AU"/>
    <tag k="addr:housenumber" v="168"/>
    <tag k="addr:postcode" v="6713"/>
    <tag k="addr:state" v="WA"/>
    <tag k="addr:street" v="Flinders Crescent"/>
    <tag k="source" v="survey"/>
  </node>
  <node id="1027721336" version="1" timestamp="2010-12-08T07:29:35Z" uid="4467" user="Rosscoe" changeset="6582402" lat="-20.6702376" lon="116.71087">
    <tag k="addr:city" v="Dampier"/>
    <tag k="addr:country" v="AU"/>
    <tag k="addr:postcode" v="6713"/>
    <tag k="addr:state" v="WA"/>
    <tag k="addr:street" v="Fremantle Crescent"/>
    <tag k="source" v="survey"/>
  </node>
  <node id="1027721336" version="2" timestamp="2011-03-20T05:43:42Z" uid="4467" user="Rosscoe" changeset="7612817" lat="-20.6702376" lon="116.71087">
    <tag k="addr:city" v="Dampier"/>
    <tag k="addr:country" v="AU"/>
    <tag k="addr:housenumber" v="221"/>
    <tag k="addr:postcode" v="6713"/>
    <tag k="addr:state" v="WA"/>
    <tag k="addr:street" v="Fremantle Crescent"/>
    <tag k="source" v="survey"/>
  </node>
  <node id="1027721337" version="1" timestamp="2010-12-08T07:29:36Z" uid="4467" user="Rosscoe" changeset="6582402" lat="-20.6628908" lon="116.7036025"/>
  <node id="1027721338" version="1" timestamp="2010-12-08T07:29:36Z" uid="4467" user="Rosscoe" changeset="6582402" lat="-20.6687576" lon="116.7092146">
    <tag k="addr:city" v="Dampier"/>
    <tag k="addr:country" v="AU"/>
    <tag k="addr:postcode" v="6713"/>
    <tag k="addr:state" v="WA"/>
    <tag k="addr:street" v="Forrest Crescent"/>
    <tag k="source" v="survey"/>
  </node>
  <node id="1027721338" version="2" timestamp="2011-03-09T00:58:24Z" uid="4467" user="Rosscoe" changeset="7500213" lat="-20.6687576" lon="116.7092146">
    <tag k="addr:city" v="Dampier"/>
    <tag k="addr:country" v="AU"/>
    <tag k="addr:housenumber" v="200C"/>
    <tag k="addr:postcode" v="6713"/>
    <tag k="addr:state" v="WA"/>
    <tag k="addr:street" v="Forrest Crescent"/>
    <tag k="source" v="survey"/>
  </node>
  <node id="1027721339" version="1" timestamp="2010-12-08T07:29:36Z" uid="4467" user="Rosscoe" changeset="6582402" lat="-20.6665203" lon="116.7098686">
    <tag k="addr:city" v="Dampier"/>
    <tag k="addr:country" v="AU"/>
    <tag k="addr:postcode" v="6713"/>
    <tag k="addr:state" v="WA"/>
    <tag k="addr:street" v="Wooramel Crescent"/>
    <tag k="source" v="survey"/>
  </node>
  <node id="1027721339" version="2" timestamp="2011-03-07T11:02:13Z" uid="4467" user="Rosscoe" changeset="7482971" lat="-20.6665203" lon="116.7098686">
    <tag k="addr:city" v="Dampier"/>
    <tag k="addr:country" v="AU"/>
    <tag k="addr:housenumber" v="89"/>
    <tag k="addr:postcode" v="6713"/>
    <tag k="addr:state" v="WA"/>
    <tag k="addr:street" v="Wooramel Crescent"/>
    <tag k="source" v="survey"/>
  </node>
  <node id="1027721340" version="1" timestamp="2010-12-08T07:29:36Z" uid="4467" user="Rosscoe" changeset="6582402" lat="-20.6639196" lon="116.7144834">
    <tag k="addr:city" v="Dampier"/>
    <tag k="addr:country" v="AU"/>
    <tag k="addr:postcode" v="6713"/>
    <tag k="addr:state" v="WA"/>
    <tag k="addr:street" v="Prinsep Crescent"/>
    <tag k="source" v="survey"/>
  </node>
  <node id="1027721340" version="2" timestamp="2011-03-22T05:11:59Z" uid="4467" user="Rosscoe" changeset="7633830" lat="-20.6639196" lon="116.7144834">
    <tag k="addr:city" v="Dampier"/>
    <tag k="addr:country" v="AU"/>
    <tag k="addr:housenumber" v="134"/>
    <tag k="addr:postcode" v="6713"/>
    <tag k="addr:state" v="WA"/>
    <tag k="addr:street" v="Prinsep Crescent"/>
    <tag k="source" v="survey"/>
  </node>
  <node id="1027721341" version="1" timestamp="2010-12-08T07:29:36Z" uid="4467" user="Rosscoe" changeset="6582402" lat="-20.6652468" lon="116.7094435">
    <tag k="addr:city" v="Dampier"/>
    <tag k="addr:country" v="AU"/>
    <tag k="addr:postcode" v="6713"/>
    <tag k="addr:state" v="WA"/>
    <tag k="addr:street" v="Fortesque Crescent"/>
    <tag k="source" v="survey"/>
  </node>
  <node id="1027721341" version="2" timestamp="2011-02-19T17:04:04Z" uid="4467" user="Rosscoe" changeset="7333962" lat="-20.6652468" lon="116.7094435">
    <tag k="addr:city" v="Dampier"/>
    <tag k="addr:country" v="AU"/>
    <tag k="addr:housenumber" v="72"/>
    <tag k="addr:postcode" v="6713"/>
    <tag k="addr:state" v="WA"/>
    <tag k="addr:street" v="Fortesque Crescent"/>
    <tag k="source" v="survey"/>
  </node>
  <node id="1027721342" version="1" timestamp="2010-12-08T07:29:36Z" uid="4467" user="Rosscoe" changeset="6582402" lat="-20.6644971" lon="116.715076">
    <tag k="addr:city" v="Dampier"/>
    <tag k="addr:country" v="AU"/>
    <tag k="addr:postcode" v="6713"/>
    <tag k="addr:state" v="WA"/>
    <tag k="addr:street" v="Drummond Crescent"/>
    <tag k="source" v="survey"/>
  </node>
  <node id="1027721342" version="2" timestamp="2011-03-10T02:34:02Z" uid="4467" user="Rosscoe" changeset="7510456" lat="-20.6644971" lon="116.715076">
    <tag k="addr:city" v="Dampier"/>
    <tag k="addr:country" v="AU"/>
    <tag k="addr:housenumber" v="145"/>
    <tag k="addr:postcode" v="6713"/>
    <tag k="addr:state" v="WA"/>
    <tag k="addr:street" v="Drummond Crescent"/>
    <tag k="source" v="survey"/>
  </node>
  <node id="1027721346" version="1" timestamp="2010-12-08T07:29:36Z" uid="4467" user="Rosscoe" changeset="6582402" lat="-20.6643059" lon="116.7125254">
    <tag k="addr:city" v="Dampier"/>
    <tag k="addr:country" v="AU"/>
    <tag k="addr:postcode" v="6713"/>
    <tag k="addr:state" v="WA"/>
    <tag k="addr:street" v="Lyndon Crescent"/>
    <tag k="source" v="survey"/>
  </node>
  <node id="1027721346" version="2" timestamp="2011-03-09T06:58:12Z" uid="4467" user="Rosscoe" changeset="7501011" lat="-20.6643059" lon="116.7125254">
    <tag k="addr:city" v="Dampier"/>
    <tag k="addr:country" v="AU"/>
    <tag k="addr:housenumber" v="115"/>
    <tag k="addr:postcode" v="6713"/>
    <tag k="addr:state" v="WA"/>
    <tag k="addr:street" v="Lyndon Crescent"/>
    <tag k="source" v="survey"/>
  </node>
  <node id="1027721347" version="1" timestamp="2010-12-08T07:29:36Z" uid="4467" user="Rosscoe" changeset="6582402" lat="-20.6635907" lon="116.710498">
    <tag k="addr:city" v="Dampier"/>
    <tag k="addr:country" v="AU"/>
    <tag k="addr:postcode" v="6713"/>
    <tag k="addr:state" v="WA"/>
    <tag k="addr:street" v="Gascoyne Crescent"/>
    <tag k="source" v="survey"/>
  </node>
  <node id="1027721347" version="2" timestamp="2011-02-02T04:43:28Z" uid="4467" user="Rosscoe" changeset="7161492" lat="-20.6635907" lon="116.710498">
    <tag k="addr:city" v="Dampier"/>
    <tag k="addr:country" v="AU"/>
    <tag k="addr:housenumber" v="60"/>
    <tag k="addr:postcode" v="6713"/>
    <tag k="addr:state" v="WA"/>
    <tag k="addr:street" v="Gascoyne Crescent"/>
    <tag k="source" v="survey"/>
  </node>
  <node id="1027721352" version="1" timestamp="2010-12-08T07:29:37Z" uid="4467" user="Rosscoe" changeset="6582402" lat="-20.6669142" lon="116.7123088">
    <tag k="addr:city" v="Dampier"/>
    <tag k="addr:country" v="AU"/>
    <tag k="addr:postcode" v="6713"/>
    <tag k="addr:state" v="WA"/>
    <tag k="addr:street" v="Burke Crescent"/>
    <tag k="source" v="survey"/>
  </node>
  <node id="1027721352" version="2" timestamp="2011-03-20T05:43:41Z" uid="4467" user="Rosscoe" changeset="7612817" lat="-20.6669142" lon="116.7123088">
    <tag k="addr:city" v="Dampier"/>
    <tag k="addr:country" v="AU"/>
    <tag k="addr:housenumber" v="160A"/>
    <tag k="addr:postcode" v="6713"/>
    <tag k="addr:state" v="WA"/>
    <tag k="addr:street" v="Burke Crescent"/>
    <tag k="source" v="survey"/>
  </node>
  <node id="1027721355" version="1" timestamp="2010-12-08T07:29:37Z" uid="4467" user="Rosscoe" changeset="6582402" lat="-20.6679736" lon="116.7129669">
    <tag k="addr:city" v="Dampier"/>
    <tag k="addr:country" v="AU"/>
    <tag k="addr:postcode" v="6713"/>
    <tag k="addr:state" v="WA"/>
    <tag k="addr:street" v="Thyseen Crescent"/>
    <tag k="source" v="survey"/>
  </node>
  <node id="1027721355" version="2" timestamp="2011-03-10T02:34:03Z" uid="4467" user="Rosscoe" changeset="7510456" lat="-20.6679736" lon="116.7129669">
    <tag k="addr:city" v="Dampier"/>
    <tag k="addr:country" v="AU"/>
    <tag k="addr:housenumber" v="174"/>
    <tag k="addr:postcode" v="6713"/>
    <tag k="addr:state" v="WA"/>
    <tag k="addr:street" v="Warburton Crescent"/>
    <tag k="source" v="survey"/>
  </node>
  <node id="1027721358" version="1" timestamp="2010-12-08T07:29:37Z" uid="4467" user="Rosscoe" changeset="6582402" lat="-20.6696066" lon="116.7102814">
    <tag k="addr:city" v="Dampier"/>
    <tag k="addr:country" v="AU"/>
    <tag k="addr:postcode" v="6713"/>
    <tag k="addr:state" v="WA"/>
    <tag k="addr:street" v="Roe Crescent"/>
    <tag k="source" v="survey"/>
  </node>
  <node id="1027721358" version="2" timestamp="2011-03-09T06:58:14Z" uid="4467" user="Rosscoe" changeset="7501011" lat="-20.6696066" lon="116.7102814">
    <tag k="addr:city" v="Dampier"/>
    <tag k="addr:country" v="AU"/>
    <tag k="addr:housenumber" v="216"/>
    <tag k="addr:postcode" v="6713"/>
    <tag k="addr:state" v="WA"/>
    <tag k="addr:street" v="Roe Crescent"/>
    <tag k="source" v="survey"/>
  </node>
  <node id="1027721359" version="1" timestamp="2010-12-08T07:29:37Z" uid="4467" user="Rosscoe" changeset="6582402" lat="-20.6649025" lon="116.711945">
    <tag k="addr:city" v="Dampier"/>
    <tag k="addr:country" v="AU"/>
    <tag k="addr:postcode" v="6713"/>
    <tag k="addr:state" v="WA"/>
    <tag k="addr:street" v="Irwin Crescent"/>
    <tag k="source" v="survey"/>
  </node>
  <node id="1027721359" version="2" timestamp="2011-03-20T05:49:59Z" uid="4467" user="Rosscoe" changeset="7612841" lat="-20.6649025" lon="116.711945">
    <tag k="addr:city" v="Dampier"/>
    <tag k="addr:country" v="AU"/>
    <tag k="addr:housenumber" v="124"/>
    <tag k="addr:postcode" v="6713"/>
    <tag k="addr:state" v="WA"/>
    <tag k="addr:street" v="Irwin Crescent"/>
    <tag k="source" v="survey"/>
  </node>
  <node id="1027721362" version="1" timestamp="2010-12-08T07:29:37Z" uid="4467" user="Rosscoe" changeset="6582402" lat="-20.6659046" lon="116.7093004">
    <tag k="addr:city" v="Dampier"/>
    <tag k="addr:country" v="AU"/>
    <tag k="addr:postcode" v="6713"/>
    <tag k="addr:state" v="WA"/>
    <tag k="addr:street" v="Fortesque Crescent"/>
    <tag k="source" v="survey"/>
  </node>
  <node id="1027721362" version="2" timestamp="2011-03-20T05:29:03Z" uid="4467" user="Rosscoe" changeset="7612776" lat="-20.6659046" lon="116.7093004">
    <tag k="addr:city" v="Dampier"/>
    <tag k="addr:country" v="AU"/>
    <tag k="addr:housenumber" v="83"/>
    <tag k="addr:postcode" v="6713"/>
    <tag k="addr:state" v="WA"/>
    <tag k="addr:street" v="Fortesque Crescent"/>
    <tag k="source" v="survey"/>
  </node>
  <node id="1027721368" version="1" timestamp="2010-12-08T07:29:37Z" uid="4467" user="Rosscoe" changeset="6582402" lat="-20.6638317" lon="116.7098318">
    <tag k="addr:city" v="Dampier"/>
    <tag k="addr:country" v="AU"/>
    <tag k="addr:postcode" v="6713"/>
    <tag k="addr:state" v="WA"/>
    <tag k="addr:street" v="Gascoyne Crescent"/>
    <tag k="source" v="survey"/>
  </node>
  <node id="1027721368" version="2" timestamp="2011-02-02T04:43:27Z" uid="4467" user="Rosscoe" changeset="7161492" lat="-20.6638317" lon="116.7098318">
    <tag k="addr:city" v="Dampier"/>
    <tag k="addr:country" v="AU"/>
    <tag k="addr:housenumber" v="57"/>
    <tag k="addr:postcode" v="6713"/>
    <tag k="addr:state" v="WA"/>
    <tag k="addr:street" v="Gascoyne Crescent"/>
    <tag k="source" v="survey"/>
  </node>
  <node id="1027721370" version="1" timestamp="2010-12-08T07:29:37Z" uid="4467" user="Rosscoe" changeset="6582402" lat="-20.6701917" lon="116.7106166">
    <tag k="addr:city" v="Dampier"/>
    <tag k="addr:country" v="AU"/>
    <tag k="addr:postcode" v="6713"/>
    <tag k="addr:state" v="WA"/>
    <tag k="addr:street" v="Fremantle Crescent"/>
    <tag k="source" v="survey"/>
  </node>
  <node id="1027721370" version="2" timestamp="2011-03-20T05:43:42Z" uid="4467" user="Rosscoe" changeset="7612817" lat="-20.6701917" lon="116.7106166">
    <tag k="addr:city" v="Dampier"/>
    <tag k="addr:country" v="AU"/>
    <tag k="addr:housenumber" v="220"/>
    <tag k="addr:postcode" v="6713"/>
    <tag k="addr:state" v="WA"/>
    <tag k="addr:street" v="Fremantle Crescent"/>
    <tag k="source" v="survey"/>
  </node>
  <node id="1027721374" version="1" timestamp="2010-12-08T07:29:37Z" uid="4467" user="Rosscoe" changeset="6582402" lat="-20.6689412" lon="116.7111234">
    <tag k="addr:city" v="Dampier"/>
    <tag k="addr:country" v="AU"/>
    <tag k="addr:postcode" v="6713"/>
    <tag k="addr:state" v="WA"/>
    <tag k="addr:street" v="Gregory Crescent"/>
    <tag k="source" v="survey"/>
  </node>
  <node id="1027721374" version="2" timestamp="2011-03-20T05:35:56Z" uid="4467" user="Rosscoe" changeset="7612795" lat="-20.6689412" lon="116.7111234">
    <tag k="addr:city" v="Dampier"/>
    <tag k="addr:country" v="AU"/>
    <tag k="addr:housenumber" v="207"/>
    <tag k="addr:postcode" v="6713"/>
    <tag k="addr:state" v="WA"/>
    <tag k="addr:street" v="Gregory Crescent"/>
    <tag k="source" v="survey"/>
  </node>
  <node id="1027721377" version="1" timestamp="2010-12-08T07:29:38Z" uid="4467" user="Rosscoe" changeset="6582402" lat="-20.6638508" lon="116.7147123">
    <tag k="addr:city" v="Dampier"/>
    <tag k="addr:country" v="AU"/>
    <tag k="addr:postcode" v="6713"/>
    <tag k="addr:state" v="WA"/>
    <tag k="addr:street" v="Prinsep Crescent"/>
    <tag k="source" v="survey"/>
  </node>
  <node id="1027721377" version="2" timestamp="2011-03-22T05:11:56Z" uid="4467" user="Rosscoe" changeset="7633830" lat="-20.6638508" lon="116.7147123">
    <tag k="addr:city" v="Dampier"/>
    <tag k="addr:country" v="AU"/>
    <tag k="addr:housenumber" v="135"/>
    <tag k="addr:postcode" v="6713"/>
    <tag k="addr:state" v="WA"/>
    <tag k="addr:street" v="Prinsep Crescent"/>
    <tag k="source" v="survey"/>
  </node>
  <node id="1027721381" version="1" timestamp="2010-12-08T07:29:38Z" uid="4467" user="Rosscoe" changeset="6582402" lat="-20.6647304" lon="116.7083644">
    <tag k="addr:city" v="Dampier"/>
    <tag k="addr:country" v="AU"/>
    <tag k="addr:postcode" v="6713"/>
    <tag k="addr:state" v="WA"/>
    <tag k="addr:street" v="Hardey Crescent"/>
    <tag k="source" v="survey"/>
  </node>
  <node id="1027721381" version="2" timestamp="2011-03-20T05:26:50Z" uid="4467" user="Rosscoe" changeset="7612771" lat="-20.6647304" lon="116.7083644">
    <tag k="addr:city" v="Dampier"/>
    <tag k="addr:country" v="AU"/>
    <tag k="addr:housenumber" v="69"/>
    <tag k="addr:postcode" v="6713"/>
    <tag k="addr:state" v="WA"/>
    <tag k="addr:street" v="Hardey Crescent"/>
    <tag k="source" v="survey"/>
  </node>
  <node id="1027721388" version="1" timestamp="2010-12-08T07:29:38Z" uid="4467" user="Rosscoe" changeset="6582402" lat="-20.6646004" lon="116.7144874">
    <tag k="addr:city" v="Dampier"/>
    <tag k="addr:country" v="AU"/>
    <tag k="addr:postcode" v="6713"/>
    <tag k="addr:state" v="WA"/>
    <tag k="addr:street" v="Boolgeeda Crescent"/>
    <tag k="source" v="survey"/>
  </node>
  <node id="1027721388" version="2" timestamp="2011-03-22T05:11:55Z" uid="4467" user="Rosscoe" changeset="7633830" lat="-20.6646004" lon="116.7144874">
    <tag k="addr:city" v="Dampier"/>
    <tag k="addr:country" v="AU"/>
    <tag k="addr:housenumber" v="145A"/>
    <tag k="addr:postcode" v="6713"/>
    <tag k="addr:state" v="WA"/>
    <tag k="addr:street" v="Boolgeeda Crescent"/>
    <tag k="source" v="survey"/>
  </node>
  <node id="1027721391" version="1" timestamp="2010-12-08T07:29:38Z" uid="4467" user="Rosscoe" changeset="6582402" lat="-20.663411" lon="116.7133102">
    <tag k="addr:city" v="Dampier"/>
    <tag k="addr:country" v="AU"/>
    <tag k="addr:postcode" v="6713"/>
    <tag k="addr:state" v="WA"/>
    <tag k="addr:street" v="Murchinson Crescent"/>
    <tag k="source" v="survey"/>
  </node>
  <node id="1027721391" version="2" timestamp="2011-03-20T05:49:58Z" uid="4467" user="Rosscoe" changeset="7612841" lat="-20.663411" lon="116.7133102">
    <tag k="addr:city" v="Dampier"/>
    <tag k="addr:country" v="AU"/>
    <tag k="addr:housenumber" v="102"/>
    <tag k="addr:postcode" v="6713"/>
    <tag k="addr:state" v="WA"/>
    <tag k="addr:street" v="Murchinson Crescent"/>
    <tag k="source" v="survey"/>
  </node>
  <node id="1027721399" version="1" timestamp="2010-12-08T07:29:38Z" uid="4467" user="Rosscoe" changeset="6582402" lat="-20.6627914" lon="116.7033736"/>
  <node id="1027721401" version="1" timestamp="2010-12-08T07:29:38Z" uid="4467" user="Rosscoe" changeset="6582402" lat="-20.6667421" lon="116.7139356">
    <tag k="addr:city" v="Dampier"/>
    <tag k="addr:country" v="AU"/>
    <tag k="addr:postcode" v="6713"/>
    <tag k="addr:state" v="WA"/>
    <tag k="addr:street" v="Burke Crescent"/>
    <tag k="source" v="survey"/>
  </node>
  <node id="1027721401" version="2" timestamp="2011-03-20T05:43:42Z" uid="4467" user="Rosscoe" changeset="7612817" lat="-20.6667421" lon="116.7139356">
    <tag k="addr:city" v="Dampier"/>
    <tag k="addr:country" v="AU"/>
    <tag k="addr:housenumber" v="156B"/>
    <tag k="addr:postcode" v="6713"/>
    <tag k="addr:state" v="WA"/>
    <tag k="addr:street" v="Burke Crescent"/>
    <tag k="source" v="survey"/>
  </node>
  <node id="1027721403" version="1" timestamp="2010-12-08T07:29:38Z" uid="4467" user="Rosscoe" changeset="6582402" lat="-20.6686696" lon="116.7135596">
    <tag k="addr:city" v="Dampier"/>
    <tag k="addr:country" v="AU"/>
    <tag k="addr:postcode" v="6713"/>
    <tag k="addr:state" v="WA"/>
    <tag k="addr:street" v="Thyseen Crescent"/>
    <tag k="source" v="survey"/>
  </node>
  <node id="1027721403" version="2" timestamp="2011-03-09T06:58:10Z" uid="4467" user="Rosscoe" changeset="7501011" lat="-20.6686696" lon="116.7135596">
    <tag k="addr:city" v="Dampier"/>
    <tag k="addr:country" v="AU"/>
    <tag k="addr:housenumber" v="181"/>
    <tag k="addr:postcode" v="6713"/>
    <tag k="addr:state" v="WA"/>
    <tag k="addr:street" v="Thyseen Crescent"/>
    <tag k="source" v="survey"/>
  </node>
  <node id="1027721410" version="1" timestamp="2010-12-08T07:29:38Z" uid="4467" user="Rosscoe" changeset="6582402" lat="-20.6689259" lon="116.710404">
    <tag k="addr:city" v="Dampier"/>
    <tag k="addr:country" v="AU"/>
    <tag k="addr:postcode" v="6713"/>
    <tag k="addr:state" v="WA"/>
    <tag k="addr:street" v="Gregory Crescent"/>
    <tag k="source" v="survey"/>
  </node>
  <node id="1027721410" version="2" timestamp="2011-03-20T05:35:56Z" uid="4467" user="Rosscoe" changeset="7612795" lat="-20.6689259" lon="116.710404">
    <tag k="addr:city" v="Dampier"/>
    <tag k="addr:country" v="AU"/>
    <tag k="addr:housenumber" v="204"/>
    <tag k="addr:postcode" v="6713"/>
    <tag k="addr:state" v="WA"/>
    <tag k="addr:street" v="Gregory Crescent"/>
    <tag k="source" v="survey"/>
  </node>
  <node id="1027721413" version="1" timestamp="2010-12-08T07:29:39Z" uid="4467" user="Rosscoe" changeset="6582402" lat="-20.6636749" lon="116.7126276">
    <tag k="addr:city" v="Dampier"/>
    <tag k="addr:country" v="AU"/>
    <tag k="addr:postcode" v="6713"/>
    <tag k="addr:state" v="WA"/>
    <tag k="addr:street" v="Murchinson Crescent"/>
    <tag k="source" v="survey"/>
  </node>
  <node id="1027721413" version="2" timestamp="2011-03-20T05:49:59Z" uid="4467" user="Rosscoe" changeset="7612841" lat="-20.6636749" lon="116.7126276">
    <tag k="addr:city" v="Dampier"/>
    <tag k="addr:country" v="AU"/>
    <tag k="addr:housenumber" v="105"/>
    <tag k="addr:postcode" v="6713"/>
    <tag k="addr:state" v="WA"/>
    <tag k="addr:street" v="Murchinson Crescent"/>
    <tag k="source" v="survey"/>
  </node>
  <node id="1027721415" version="1" timestamp="2010-12-08T07:29:39Z" uid="4467" user="Rosscoe" changeset="6582402" lat="-20.6676523" lon="116.7111316">
    <tag k="addr:city" v="Dampier"/>
    <tag k="addr:country" v="AU"/>
    <tag k="addr:postcode" v="6713"/>
    <tag k="addr:state" v="WA"/>
    <tag k="addr:street" v="Lockyer Crescent"/>
    <tag k="source" v="survey"/>
  </node>
  <node id="1027721415" version="2" timestamp="2011-03-20T05:33:40Z" uid="4467" user="Rosscoe" changeset="7612786" lat="-20.6676523" lon="116.7111316">
    <tag k="addr:city" v="Dampier"/>
    <tag k="addr:country" v="AU"/>
    <tag k="addr:housenumber" v="191"/>
    <tag k="addr:postcode" v="6713"/>
    <tag k="addr:state" v="WA"/>
    <tag k="addr:street" v="Lockyer Crescent"/>
    <tag k="source" v="survey"/>
  </node>
  <node id="1027721421" version="1" timestamp="2010-12-08T07:29:39Z" uid="4467" user="Rosscoe" changeset="6582402" lat="-20.665568" lon="116.7130486">
    <tag k="addr:city" v="Dampier"/>
    <tag k="addr:country" v="AU"/>
    <tag k="addr:postcode" v="6713"/>
    <tag k="addr:state" v="WA"/>
    <tag k="addr:street" v="Meda Crescent"/>
    <tag k="source" v="survey"/>
  </node>
  <node id="1027721421" version="2" timestamp="2011-03-09T00:58:23Z" uid="4467" user="Rosscoe" changeset="7500213" lat="-20.665568" lon="116.7130486">
    <tag k="addr:city" v="Dampier"/>
    <tag k="addr:country" v="AU"/>
    <tag k="addr:housenumber" v="131"/>
    <tag k="addr:postcode" v="6713"/>
    <tag k="addr:state" v="WA"/>
    <tag k="addr:street" v="Meda Crescent"/>
    <tag k="source" v="survey"/>
  </node>
  <node id="1027721424" version="1" timestamp="2010-12-08T07:29:39Z" uid="4467" user="Rosscoe" changeset="6582402" lat="-20.6681992" lon="116.7125295">
    <tag k="addr:city" v="Dampier"/>
    <tag k="addr:country" v="AU"/>
    <tag k="addr:postcode" v="6713"/>
    <tag k="addr:state" v="WA"/>
    <tag k="addr:street" v="Thyseen Crescent"/>
    <tag k="source" v="survey"/>
  </node>
  <node id="1027721424" version="2" timestamp="2011-03-10T02:34:04Z" uid="4467" user="Rosscoe" changeset="7510456" lat="-20.6681992" lon="116.7125295">
    <tag k="addr:city" v="Dampier"/>
    <tag k="addr:country" v="AU"/>
    <tag k="addr:housenumber" v="176"/>
    <tag k="addr:postcode" v="6713"/>
    <tag k="addr:state" v="WA"/>
    <tag k="addr:street" v="Warburton Crescent"/>
    <tag k="source" v="survey"/>
  </node>
  <node id="1027721439" version="1" timestamp="2010-12-08T07:29:39Z" uid="4467" user="Rosscoe" changeset="6582402" lat="-20.6700043" lon="116.7127053">
    <tag k="addr:city" v="Dampier"/>
    <tag k="addr:country" v="AU"/>
    <tag k="addr:postcode" v="6713"/>
    <tag k="addr:state" v="WA"/>
    <tag k="addr:street" v="Fremantle Crescent"/>
    <tag k="source" v="survey"/>
  </node>
  <node id="1027721439" version="2" timestamp="2011-03-20T05:43:44Z" uid="4467" user="Rosscoe" changeset="7612817" lat="-20.6700043" lon="116.7127053">
    <tag k="addr:city" v="Dampier"/>
    <tag k="addr:country" v="AU"/>
    <tag k="addr:housenumber" v="226C"/>
    <tag k="addr:postcode" v="6713"/>
    <tag k="addr:state" v="WA"/>
    <tag k="addr:street" v="Fremantle Crescent"/>
    <tag k="source" v="survey"/>
  </node>
  <node id="1027721442" version="1" timestamp="2010-12-08T07:29:39Z" uid="4467" user="Rosscoe" changeset="6582402" lat="-20.6685511" lon="116.7096233">
    <tag k="addr:city" v="Dampier"/>
    <tag k="addr:country" v="AU"/>
    <tag k="addr:postcode" v="6713"/>
    <tag k="addr:state" v="WA"/>
    <tag k="addr:street" v="Forrest Crescent"/>
    <tag k="source" v="survey"/>
  </node>
  <node id="1027721442" version="2" timestamp="2011-03-09T00:58:23Z" uid="4467" user="Rosscoe" changeset="7500213" lat="-20.6685511" lon="116.7096233">
    <tag k="addr:city" v="Dampier"/>
    <tag k="addr:country" v="AU"/>
    <tag k="addr:housenumber" v="200A"/>
    <tag k="addr:postcode" v="6713"/>
    <tag k="addr:state" v="WA"/>
    <tag k="addr:street" v="Forrest Crescent"/>
    <tag k="source" v="survey"/>
  </node>
  <node id="1027721446" version="1" timestamp="2010-12-08T07:29:39Z" uid="4467" user="Rosscoe" changeset="6582402" lat="-20.6665318" lon="116.71031">
    <tag k="addr:city" v="Dampier"/>
    <tag k="addr:country" v="AU"/>
    <tag k="addr:postcode" v="6713"/>
    <tag k="addr:state" v="WA"/>
    <tag k="addr:street" v="Wooramel Crescent"/>
    <tag k="source" v="survey"/>
  </node>
  <node id="1027721446" version="2" timestamp="2011-03-07T11:02:11Z" uid="4467" user="Rosscoe" changeset="7482971" lat="-20.6665318" lon="116.71031">
    <tag k="addr:city" v="Dampier"/>
    <tag k="addr:country" v="AU"/>
    <tag k="addr:housenumber" v="91"/>
    <tag k="addr:postcode" v="6713"/>
    <tag k="addr:state" v="WA"/>
    <tag k="addr:street" v="Wooramel Crescent"/>
    <tag k="source" v="survey"/>
  </node>
  <node id="1027721453" version="1" timestamp="2010-12-08T07:29:39Z" uid="4467" user="Rosscoe" changeset="6582402" lat="-20.6657631" lon="116.7150311">
    <tag k="addr:city" v="Dampier"/>
    <tag k="addr:country" v="AU"/>
    <tag k="addr:postcode" v="6713"/>
    <tag k="addr:state" v="WA"/>
    <tag k="addr:street" v="Giles Crescent"/>
    <tag k="source" v="survey"/>
  </node>
  <node id="1027721453" version="2" timestamp="2011-03-10T02:34:01Z" uid="4467" user="Rosscoe" changeset="7510456" lat="-20.6657631" lon="116.7150311">
    <tag k="addr:city" v="Dampier"/>
    <tag k="addr:country" v="AU"/>
    <tag k="addr:housenumber" v="153"/>
    <tag k="addr:postcode" v="6713"/>
    <tag k="addr:state" v="WA"/>
    <tag k="addr:street" v="Giles Crescent"/>
    <tag k="source" v="survey"/>
  </node>
  <node id="1027721458" version="1" timestamp="2010-12-08T07:29:40Z" uid="4467" user="Rosscoe" changeset="6582402" lat="-20.6632886" lon="116.7143812">
    <tag k="addr:city" v="Dampier"/>
    <tag k="addr:country" v="AU"/>
    <tag k="addr:postcode" v="6713"/>
    <tag k="addr:state" v="WA"/>
    <tag k="addr:street" v="Tachikawa Crescent"/>
    <tag k="source" v="survey"/>
  </node>
  <node id="1027721458" version="2" timestamp="2011-03-22T05:11:54Z" uid="4467" user="Rosscoe" changeset="7633830" lat="-20.6632886" lon="116.7143812">
    <tag k="addr:city" v="Dampier"/>
    <tag k="addr:country" v="AU"/>
    <tag k="addr:housenumber" v="132C"/>
    <tag k="addr:postcode" v="6713"/>
    <tag k="addr:state" v="WA"/>
    <tag k="addr:street" v="Tachikawa Crescent"/>
    <tag k="source" v="survey"/>
  </node>
  <node id="1027721464" version="1" timestamp="2010-12-08T07:29:40Z" uid="4467" user="Rosscoe" changeset="6582402" lat="-20.6648452" lon="116.7081314">
    <tag k="addr:city" v="Dampier"/>
    <tag k="addr:country" v="AU"/>
    <tag k="addr:postcode" v="6713"/>
    <tag k="addr:state" v="WA"/>
    <tag k="addr:street" v="Hardey Crescent"/>
    <tag k="source" v="survey"/>
  </node>
  <node id="1027721464" version="2" timestamp="2011-03-20T05:26:51Z" uid="4467" user="Rosscoe" changeset="7612771" lat="-20.6648452" lon="116.7081314">
    <tag k="addr:city" v="Dampier"/>
    <tag k="addr:country" v="AU"/>
    <tag k="addr:housenumber" v="70"/>
    <tag k="addr:postcode" v="6713"/>
    <tag k="addr:state" v="WA"/>
    <tag k="addr:street" v="Hardey Crescent"/>
    <tag k="source" v="survey"/>
  </node>
  <node id="1027721468" version="1" timestamp="2010-12-08T07:29:40Z" uid="4467" user="Rosscoe" changeset="6582402" lat="-20.6638929" lon="116.7158976">
    <tag k="addr:city" v="Dampier"/>
    <tag k="addr:country" v="AU"/>
    <tag k="addr:postcode" v="6713"/>
    <tag k="addr:state" v="WA"/>
    <tag k="addr:street" v="Prinsep Crescent"/>
    <tag k="source" v="survey"/>
  </node>
  <node id="1027721468" version="2" timestamp="2011-03-22T05:11:58Z" uid="4467" user="Rosscoe" changeset="7633830" lat="-20.6638929" lon="116.7158976">
    <tag k="addr:city" v="Dampier"/>
    <tag k="addr:country" v="AU"/>
    <tag k="addr:housenumber" v="139A"/>
    <tag k="addr:postcode" v="6713"/>
    <tag k="addr:state" v="WA"/>
    <tag k="addr:street" v="Prinsep Crescent"/>
    <tag k="source" v="survey"/>
  </node>
  <node id="1027721474" version="1" timestamp="2010-12-08T07:29:40Z" uid="4467" user="Rosscoe" changeset="6582402" lat="-20.6643174" lon="116.7120676">
    <tag k="addr:city" v="Dampier"/>
    <tag k="addr:country" v="AU"/>
    <tag k="addr:postcode" v="6713"/>
    <tag k="addr:state" v="WA"/>
    <tag k="addr:street" v="Lyndon Crescent"/>
    <tag k="source" v="survey"/>
  </node>
  <node id="1027721474" version="2" timestamp="2011-03-09T06:58:16Z" uid="4467" user="Rosscoe" changeset="7501011" lat="-20.6643174" lon="116.7120676">
    <tag k="addr:city" v="Dampier"/>
    <tag k="addr:country" v="AU"/>
    <tag k="addr:housenumber" v="113"/>
    <tag k="addr:postcode" v="6713"/>
    <tag k="addr:state" v="WA"/>
    <tag k="addr:street" v="Lyndon Crescent"/>
    <tag k="source" v="survey"/>
  </node>
  <node id="1027721476" version="1" timestamp="2010-12-08T07:29:40Z" uid="4467" user="Rosscoe" changeset="6582402" lat="-20.6667154" lon="116.7128075">
    <tag k="addr:city" v="Dampier"/>
    <tag k="addr:country" v="AU"/>
    <tag k="addr:postcode" v="6713"/>
    <tag k="addr:state" v="WA"/>
    <tag k="addr:street" v="Burke Crescent"/>
    <tag k="source" v="survey"/>
  </node>
  <node id="1027721476" version="2" timestamp="2011-03-20T05:43:40Z" uid="4467" user="Rosscoe" changeset="7612817" lat="-20.6667154" lon="116.7128075">
    <tag k="addr:city" v="Dampier"/>
    <tag k="addr:country" v="AU"/>
    <tag k="addr:housenumber" v="159"/>
    <tag k="addr:postcode" v="6713"/>
    <tag k="addr:state" v="WA"/>
    <tag k="addr:street" v="Burke Crescent"/>
    <tag k="source" v="survey"/>
  </node>
  <node id="1027721478" version="1" timestamp="2010-12-08T07:29:40Z" uid="4467" user="Rosscoe" changeset="6582402" lat="-20.6643059" lon="116.7104204">
    <tag k="addr:city" v="Dampier"/>
    <tag k="addr:country" v="AU"/>
    <tag k="addr:postcode" v="6713"/>
    <tag k="addr:state" v="WA"/>
    <tag k="addr:street" v="Hardey Crescent"/>
    <tag k="source" v="survey"/>
  </node>
  <node id="1027721478" version="2" timestamp="2011-03-20T05:26:51Z" uid="4467" user="Rosscoe" changeset="7612771" lat="-20.6643059" lon="116.7104204">
    <tag k="addr:city" v="Dampier"/>
    <tag k="addr:country" v="AU"/>
    <tag k="addr:housenumber" v="62B"/>
    <tag k="addr:postcode" v="6713"/>
    <tag k="addr:state" v="WA"/>
    <tag k="addr:street" v="Hardey Crescent"/>
    <tag k="source" v="survey"/>
  </node>
  <node id="1027721487" version="1" timestamp="2010-12-08T07:29:40Z" uid="4467" user="Rosscoe" changeset="6582402" lat="-20.6687041" lon="116.7133593">
    <tag k="addr:city" v="Dampier"/>
    <tag k="addr:country" v="AU"/>
    <tag k="addr:postcode" v="6713"/>
    <tag k="addr:state" v="WA"/>
    <tag k="addr:street" v="Thyseen Crescent"/>
    <tag k="source" v="survey"/>
  </node>
  <node id="1027721487" version="2" timestamp="2011-03-09T06:58:08Z" uid="4467" user="Rosscoe" changeset="7501011" lat="-20.6687041" lon="116.7133593">
    <tag k="addr:city" v="Dampier"/>
    <tag k="addr:country" v="AU"/>
    <tag k="addr:housenumber" v="180"/>
    <tag k="addr:postcode" v="6713"/>
    <tag k="addr:state" v="WA"/>
    <tag k="addr:street" v="Thyseen Crescent"/>
    <tag k="source" v="survey"/>
  </node>
  <node id="1027721491" version="1" timestamp="2010-12-08T07:29:40Z" uid="4467" user="Rosscoe" changeset="6582402" lat="-20.6636596" lon="116.7114709">
    <tag k="addr:city" v="Dampier"/>
    <tag k="addr:country" v="AU"/>
    <tag k="addr:postcode" v="6713"/>
    <tag k="addr:state" v="WA"/>
    <tag k="addr:street" v="Murchinson Crescent"/>
    <tag k="source" v="survey"/>
  </node>
  <node id="1027721491" version="2" timestamp="2011-03-20T05:49:59Z" uid="4467" user="Rosscoe" changeset="7612841" lat="-20.6636596" lon="116.7114709">
    <tag k="addr:city" v="Dampier"/>
    <tag k="addr:country" v="AU"/>
    <tag k="addr:housenumber" v="109A"/>
    <tag k="addr:postcode" v="6713"/>
    <tag k="addr:state" v="WA"/>
    <tag k="addr:street" v="Murchinson Crescent"/>
    <tag k="source" v="survey"/>
  </node>
  <node id="1027721495" version="1" timestamp="2010-12-08T07:29:41Z" uid="4467" user="Rosscoe" changeset="6582402" lat="-20.6665318" lon="116.709656">
    <tag k="addr:city" v="Dampier"/>
    <tag k="addr:country" v="AU"/>
    <tag k="addr:postcode" v="6713"/>
    <tag k="addr:state" v="WA"/>
    <tag k="addr:street" v="Wooramel Crescent"/>
    <tag k="source" v="survey"/>
  </node>
  <node id="1027721495" version="2" timestamp="2011-03-07T11:02:13Z" uid="4467" user="Rosscoe" changeset="7482971" lat="-20.6665318" lon="116.709656">
    <tag k="addr:city" v="Dampier"/>
    <tag k="addr:country" v="AU"/>
    <tag k="addr:housenumber" v="88"/>
    <tag k="addr:postcode" v="6713"/>
    <tag k="addr:state" v="WA"/>
    <tag k="addr:street" v="Wooramel Crescent"/>
    <tag k="source" v="survey"/>
  </node>
  <node id="1027721497" version="1" timestamp="2010-12-08T07:29:41Z" uid="4467" user="Rosscoe" changeset="6582402" lat="-20.665438" lon="116.7134697">
    <tag k="addr:city" v="Dampier"/>
    <tag k="addr:country" v="AU"/>
    <tag k="addr:postcode" v="6713"/>
    <tag k="addr:state" v="WA"/>
    <tag k="addr:street" v="Meda Crescent"/>
    <tag k="source" v="survey"/>
  </node>
  <node id="1027721497" version="2" timestamp="2011-03-09T00:58:22Z" uid="4467" user="Rosscoe" changeset="7500213" lat="-20.665438" lon="116.7134697">
    <tag k="addr:city" v="Dampier"/>
    <tag k="addr:country" v="AU"/>
    <tag k="addr:housenumber" v="131B"/>
    <tag k="addr:postcode" v="6713"/>
    <tag k="addr:state" v="WA"/>
    <tag k="addr:street" v="Meda Crescent"/>
    <tag k="source" v="survey"/>
  </node>
  <node id="1027721501" version="1" timestamp="2010-12-08T07:29:41Z" uid="4467" user="Rosscoe" changeset="6582402" lat="-20.6652582" lon="116.7100975">
    <tag k="addr:city" v="Dampier"/>
    <tag k="addr:country" v="AU"/>
    <tag k="addr:postcode" v="6713"/>
    <tag k="addr:state" v="WA"/>
    <tag k="addr:street" v="Fortesque Crescent"/>
    <tag k="source" v="survey"/>
  </node>
  <node id="1027721501" version="2" timestamp="2011-02-19T17:04:04Z" uid="4467" user="Rosscoe" changeset="7333962" lat="-20.6652582" lon="116.7100975">
    <tag k="addr:city" v="Dampier"/>
    <tag k="addr:country" v="AU"/>
    <tag k="addr:housenumber" v="75"/>
    <tag k="addr:postcode" v="6713"/>
    <tag k="addr:state" v="WA"/>
    <tag k="addr:street" v="Fortesque Crescent"/>
    <tag k="source" v="survey"/>
  </node>
  <node id="1027721510" version="1" timestamp="2010-12-08T07:29:41Z" uid="4467" user="Rosscoe" changeset="6582402" lat="-20.6674267" lon="116.7126235">
    <tag k="addr:city" v="Dampier"/>
    <tag k="addr:country" v="AU"/>
    <tag k="addr:postcode" v="6713"/>
    <tag k="addr:state" v="WA"/>
    <tag k="addr:street" v="Flinders Crescent"/>
    <tag k="source" v="survey"/>
  </node>
  <node id="1027721510" version="2" timestamp="2011-03-09T06:58:15Z" uid="4467" user="Rosscoe" changeset="7501011" lat="-20.6674267" lon="116.7126235">
    <tag k="addr:city" v="Dampier"/>
    <tag k="addr:country" v="AU"/>
    <tag k="addr:housenumber" v="163"/>
    <tag k="addr:postcode" v="6713"/>
    <tag k="addr:state" v="WA"/>
    <tag k="addr:street" v="Flinders Crescent"/>
    <tag k="source" v="survey"/>
  </node>
  <node id="1027721512" version="1" timestamp="2010-12-08T07:29:41Z" uid="4467" user="Rosscoe" changeset="6582402" lat="-20.667006" lon="116.7120963">
    <tag k="addr:city" v="Dampier"/>
    <tag k="addr:country" v="AU"/>
    <tag k="addr:postcode" v="6713"/>
    <tag k="addr:state" v="WA"/>
    <tag k="addr:street" v="Burke Crescent"/>
    <tag k="source" v="survey"/>
  </node>
  <node id="1027721512" version="2" timestamp="2011-03-20T05:43:43Z" uid="4467" user="Rosscoe" changeset="7612817" lat="-20.667006" lon="116.7120963">
    <tag k="addr:city" v="Dampier"/>
    <tag k="addr:country" v="AU"/>
    <tag k="addr:housenumber" v="160B"/>
    <tag k="addr:postcode" v="6713"/>
    <tag k="addr:state" v="WA"/>
    <tag k="addr:street" v="Burke Crescent"/>
    <tag k="source" v="survey"/>
  </node>
  <node id="1027721517" version="1" timestamp="2010-12-08T07:29:41Z" uid="4467" user="Rosscoe" changeset="6582402" lat="-20.6629226" lon="116.7058667"/>
  <node id="1027721519" version="1" timestamp="2010-12-08T07:29:41Z" uid="4467" user="Rosscoe" changeset="6582402" lat="-20.668008" lon="116.7136986">
    <tag k="addr:city" v="Dampier"/>
    <tag k="addr:country" v="AU"/>
    <tag k="addr:postcode" v="6713"/>
    <tag k="addr:state" v="WA"/>
    <tag k="addr:street" v="Thyseen Crescent"/>
    <tag k="source" v="survey"/>
  </node>
  <node id="1027721519" version="2" timestamp="2011-03-10T02:34:01Z" uid="4467" user="Rosscoe" changeset="7510456" lat="-20.668008" lon="116.7136986">
    <tag k="addr:city" v="Dampier"/>
    <tag k="addr:country" v="AU"/>
    <tag k="addr:housenumber" v="171"/>
    <tag k="addr:postcode" v="6713"/>
    <tag k="addr:state" v="WA"/>
    <tag k="addr:street" v="Warburton Crescent"/>
    <tag k="source" v="survey"/>
  </node>
</osm>
