<?xml version='1.0' encoding='UTF-8'?>
<osm version="0.6" generator="libosmium/2.20.0">
  <node id="103832504" version="4" timestamp="2008-07-03T17:49:01Z" uid="6975" user="ulfl" changeset="379368" lat="47.3844187" lon="8.5280682">
    <tag k="name" v="Saleh"/>
    <tag k="shop" v="hairdresser"/>
  </node>
  <node id="103832504" version="5" timestamp="2008-08-27T11:21:07Z" uid="61985" user="Kajk" changeset="426071" lat="47.3844064" lon="8.5280672">
    <tag k="created_by" v="Potlatch 0.10b"/>
    <tag k="name" v="Saleh"/>
    <tag k="shop" v="hairdresser"/>
  </node>
  <node id="103832504" version="6" timestamp="2010-11-15T16:49:46Z" uid="186651" user="Teddych" changeset="6378726" lat="47.3844064" lon="8.5280672">
    <tag k="name" v="Saleh"/>
    <tag k="shop" v="hairdresser"/>
  </node>
  <node id="103832504" version="7" timestamp="2010-12-02T21:15:07Z" uid="334389" user="ueliw0" changeset="6519713" lat="47.3843909" lon="8.5280147">
    <tag k="name" v="Saleh"/>
    <tag k="shop" v="hairdresser"/>
  </node>
</osm>
