<?xml version='1.0' encoding='UTF-8'?>
<osm version="0.6" generator="libosmium/2.20.0">
  <node id="1042174027" version="2" timestamp="2011-04-16T10:45:59Z" uid="4467" user="Rosscoe" changeset="7877170" lat="-37.8068167" lon="144.9656789">
    <tag k="addr:city" v="Carlton"/>
    <tag k="addr:country" v="AU"/>
    <tag k="addr:housenumber" v="1"/>
    <tag k="addr:postcode" v="3053"/>
    <tag k="addr:street" v="Lygon Street"/>
    <tag k="fixme" v="The actual location of these addresses has not been surveyed"/>
  </node>
  <node id="1042174029" version="2" timestamp="2011-04-16T10:45:27Z" uid="4467" user="Rosscoe" changeset="7877170" lat="-37.7955695" lon="144.9660975">
    <tag k="addr:city" v="Carlton"/>
    <tag k="addr:country" v="AU"/>
    <tag k="addr:housenumber" v="449"/>
    <tag k="addr:postcode" v="3053"/>
    <tag k="addr:street" v="Cardigan Street"/>
  </node>
  <node id="1042174030" version="2" timestamp="2011-04-16T10:45:51Z" uid="4467" user="Rosscoe" changeset="7877170" lat="-37.8068431" lon="144.9661883">
    <tag k="addr:city" v="Carlton"/>
    <tag k="addr:country" v="AU"/>
    <tag k="addr:housenumber" v="2"/>
    <tag k="addr:postcode" v="3053"/>
    <tag k="addr:street" v="Lygon Street"/>
    <tag k="fixme" v="The actual location of these addresses has not been surveyed"/>
  </node>
  <node id="1042174031" version="2" timestamp="2011-04-16T10:44:53Z" uid="4467" user="Rosscoe" changeset="7877170" lat="-37.7988082" lon="144.9669825">
    <tag k="addr:city" v="Carlton"/>
    <tag k="addr:country" v="AU"/>
    <tag k="addr:housenumber" v="285"/>
    <tag k="addr:postcode" v="3053"/>
    <tag k="addr:street" v="Lygon Street"/>
  </node>
  <node id="1042174036" version="2" timestamp="2011-04-16T10:45:56Z" uid="4467" user="Rosscoe" changeset="7877170" lat="-37.8066074" lon="144.9641824">
    <tag k="addr:city" v="Carlton"/>
    <tag k="addr:country" v="AU"/>
    <tag k="addr:housenumber" v="1"/>
    <tag k="addr:postcode" v="3053"/>
    <tag k="addr:street" v="Cardigan Street"/>
    <tag k="fixme" v="Location of this address has not been surveyed"/>
  </node>
  <node id="1042174037" version="2" timestamp="2011-04-16T10:44:56Z" uid="4467" user="Rosscoe" changeset="7877170" lat="-37.7988699" lon="144.9675772">
    <tag k="addr:city" v="Carlton"/>
    <tag k="addr:country" v="AU"/>
    <tag k="addr:housenumber" v="350"/>
    <tag k="addr:postcode" v="3053"/>
    <tag k="addr:street" v="Lygon Street"/>
  </node>
  <node id="1042174038" version="2" timestamp="2011-04-16T10:45:25Z" uid="4467" user="Rosscoe" changeset="7877170" lat="-37.7938921" lon="144.9668794">
    <tag k="addr:city" v="Carlton"/>
    <tag k="addr:country" v="AU"/>
    <tag k="addr:housenumber" v="438"/>
    <tag k="addr:postcode" v="3053"/>
    <tag k="addr:street" v="Cardigan Street"/>
  </node>
  <node id="1042174039" version="2" timestamp="2011-04-16T10:45:48Z" uid="4467" user="Rosscoe" changeset="7877170" lat="-37.8017036" lon="144.9655092">
    <tag k="addr:city" v="Carlton"/>
    <tag k="addr:country" v="AU"/>
    <tag k="addr:housenumber" v="142"/>
    <tag k="addr:postcode" v="3053"/>
    <tag k="addr:street" v="Cardigan Street"/>
  </node>
  <node id="1042174041" version="2" timestamp="2011-04-16T10:45:18Z" uid="4467" user="Rosscoe" changeset="7877170" lat="-37.8047631" lon="144.9646608">
    <tag k="highway" v="traffic_signals"/>
  </node>
  <node id="1042174043" version="2" timestamp="2011-04-16T10:46:07Z" uid="4467" user="Rosscoe" changeset="7877170" lat="-37.8066602" lon="144.9646541">
    <tag k="addr:city" v="Carlton"/>
    <tag k="addr:country" v="AU"/>
    <tag k="addr:housenumber" v="2"/>
    <tag k="addr:postcode" v="3053"/>
    <tag k="addr:street" v="Cardigan Street"/>
    <tag k="fixme" v="Location of this address has not been surveyed"/>
  </node>
</osm>
