<?xml version='1.0' encoding='UTF-8'?>
<osm version="0.6" generator="libosmium/2.20.0">
  <node id="1042093124" version="3" timestamp="2011-01-23T08:31:44Z" uid="4467" user="Rosscoe" changeset="7058351" lat="-21.274755" lon="146.9912945">
    <tag k="aeroway" v="aerodrome"/>
    <tag k="name" v="Yandan Mine"/>
  </node>
  <node id="1042093140" version="2" timestamp="2011-01-08T15:06:34Z" uid="4467" user="Rosscoe" changeset="6904751" lat="-22.9666996" lon="145.2420044">
    <tag k="aeroway" v="aerodrome"/>
    <tag k="iata" v="AXC"/>
    <tag k="name" v="Aramac Airport"/>
    <tag k="source" v="ourairports.com"/>
  </node>
  <node id="1042093159" version="2" timestamp="2010-12-17T22:05:18Z" uid="18775" user="drlizau" changeset="6691337" lat="-34.3666992" lon="146.8829956">
    <tag k="aeroway" v="aerodrome"/>
    <tag k="iata" v=""/>
    <tag k="name" v="Ardlethan Airport"/>
    <tag k="source" v="ourairports.com"/>
  </node>
  <node id="1042093177" version="2" timestamp="2011-01-05T11:21:54Z" uid="4467" user="Rosscoe" changeset="6870479" lat="-19.5943666" lon="147.3271334">
    <tag k="aeroway" v="aerodrome"/>
    <tag k="icao" v="AYR"/>
    <tag k="name" v="Ayr Airport"/>
  </node>
  <node id="1042093190" version="3" timestamp="2011-02-05T08:53:32Z" uid="18775" user="drlizau" changeset="7190033" lat="-30.4067001" lon="135.4799957">
    <tag k="aeroway" v="aerodrome"/>
    <tag k="name" v="Bon Bon Airstrip"/>
    <tag k="source" v="ourairports.com"/>
  </node>
  <node id="1042093225" version="3" timestamp="2011-04-21T07:10:38Z" uid="4467" user="Rosscoe" changeset="7922670" lat="-34.1666985" lon="150.1000061">
    <tag k="aeroway" v="aerodrome"/>
    <tag k="name" v="Bindook Airport"/>
    <tag k="source" v="ourairports.com"/>
  </node>
  <node id="1042093227" version="3" timestamp="2011-03-13T15:06:32Z" uid="4467" user="Rosscoe" changeset="7545991" lat="-25.5220996" lon="152.0468991">
    <tag k="aeroway" v="aerodrome"/>
    <tag k="name" v="Biggenden"/>
  </node>
  <node id="1042093227" version="4" timestamp="2012-03-22T01:22:06Z" uid="349913" user="Peter W34" changeset="11058720" lat="-25.5220996" lon="152.0468991"/>
  <node id="1042093395" version="2" timestamp="2011-02-01T15:19:29Z" uid="4467" user="Rosscoe" changeset="7155661" lat="-21.1716995" lon="149.1799927">
    <tag k="aeroway" v="aerodrome"/>
    <tag k="iata" v="MKY"/>
    <tag k="name" v="Mackay Airport"/>
    <tag k="source" v="ourairports.com"/>
  </node>
  <node id="1042093423" version="3" timestamp="2011-03-27T10:06:38Z" uid="4467" user="Rosscoe" changeset="7684122" lat="-22.6723929" lon="119.1657837">
    <tag k="aeroway" v="aerodrome"/>
    <tag k="name" v="Barimunya"/>
  </node>
  <node id="1042093432" version="2" timestamp="2011-01-13T11:16:10Z" uid="4467" user="Rosscoe" changeset="6956045" lat="-23.6030764" lon="148.8066413">
    <tag k="aeroway" v="aerodrome"/>
    <tag k="iata" v="BLT"/>
    <tag k="name" v="Blackwater Airport"/>
  </node>
  <node id="1042093446" version="3" timestamp="2011-02-26T10:20:29Z" uid="4467" user="Rosscoe" changeset="7398209" lat="-34.0841809" lon="138.3367069">
    <tag k="aeroway" v="aerodrome"/>
    <tag k="name" v="Balaklava Airport"/>
    <tag k="source" v="ourairports.com"/>
  </node>
  <node id="1042093458" version="3" timestamp="2011-03-15T04:24:58Z" uid="4467" user="Rosscoe" changeset="7563150" lat="-22.2667007" lon="119.8830032">
    <tag k="aeroway" v="aerodrome"/>
    <tag k="name" v="Bonney Downs Station"/>
    <tag k="source" v="ourairports.com"/>
  </node>
  <node id="1042093458" version="4" timestamp="2012-01-17T13:59:51Z" uid="42619" user="kerosin" changeset="10417889" lat="-22.2671852" lon="119.926073">
    <tag k="aeroway" v="aerodrome"/>
    <tag k="name" v="Bonney Downs Station"/>
    <tag k="source" v="ourairports.com"/>
  </node>
  <node id="1042093503" version="3" timestamp="2011-01-20T09:40:04Z" uid="4467" user="Rosscoe" changeset="7028401" lat="-25.104031" lon="146.8271345">
    <tag k="aerodrome" v="airstrip"/>
    <tag k="aeroway" v="aerodrome"/>
    <tag k="name" v="Caldervale Station"/>
  </node>
  <node id="1042093536" version="2" timestamp="2011-01-11T13:23:43Z" uid="4467" user="Rosscoe" changeset="6936643" lat="-22.7764602" lon="147.6227416">
    <tag k="aeroway" v="aerodrome"/>
    <tag k="name" v="Clermont Airport"/>
  </node>
  <node id="1042093540" version="3" timestamp="2011-02-06T15:48:43Z" uid="4467" user="Rosscoe" changeset="7205219" lat="-29.6842021" lon="115.8939798">
    <tag k="aeroway" v="aerodrome"/>
    <tag k="name" v="Carnarmah"/>
  </node>
  <node id="1042093562" version="3" timestamp="2011-04-02T00:56:00Z" uid="4467" user="Rosscoe" changeset="7740582" lat="-35.8262312" lon="144.2148297">
    <tag k="aeroway" v="aerodrome"/>
    <tag k="name" v="Cohuna Airport"/>
  </node>
  <node id="1042093654" version="3" timestamp="2011-03-27T11:55:00Z" uid="4467" user="Rosscoe" changeset="7685182" lat="-22.9648659" lon="118.8129012">
    <tag k="aeroway" v="aerodrome"/>
    <tag k="name" v="Coondewanna"/>
  </node>
  <node id="1042093654" version="4" timestamp="2011-09-25T03:18:56Z" uid="111508" user="HomerT51" changeset="9389173" lat="-22.9648659" lon="118.8129012">
    <tag k="aeroway" v="aerodrome"/>
    <tag k="name" v="Coondewanna"/>
    <tag k="permission" v="Private"/>
    <tag k="ref" v="YCWA"/>
    <tag k="source" v="GPS"/>
  </node>
  <node id="1042093663" version="3" timestamp="2010-12-28T23:55:02Z" uid="4467" user="Rosscoe" changeset="6793939" lat="-21.7943401" lon="117.7551132">
    <tag k="aeroway" v="aerodrome"/>
    <tag k="name" v="Coolawanyah"/>
    <tag k="source" v="knowledge"/>
  </node>
  <node id="1042093667" version="3" timestamp="2011-02-20T09:31:00Z" uid="18775" user="drlizau" changeset="7339884" lat="-34.5667" lon="146.1829987">
    <tag k="aeroway" v="airstrip"/>
    <tag k="name" v="YDAL"/>
    <tag k="source" v="ourairports.com; reality"/>
  </node>
  <node id="1042093676" version="3" timestamp="2011-02-24T04:36:08Z" uid="4467" user="Rosscoe" changeset="7378689" lat="-28.1320207" lon="140.8820718">
    <tag k="aeroway" v="aerodrome"/>
    <tag k="name" v="Dullingari"/>
  </node>
  <node id="1042093736" version="2" timestamp="2011-02-05T10:16:55Z" uid="4467" user="Rosscoe" changeset="7190587" lat="-29.8320326" lon="115.2468113">
    <tag k="aeroway" v="aerodrome"/>
    <tag k="iata" v="ENB"/>
    <tag k="name" v="Eneabba Airport"/>
    <tag k="source" v="ourairports.com"/>
  </node>
  <node id="1042093805" version="3" timestamp="2010-12-30T07:42:06Z" uid="4467" user="Rosscoe" changeset="6806297" lat="-21.2889944" lon="116.1313301">
    <tag k="aeroway" v="aerodrome"/>
    <tag k="name" v="Fortescue River"/>
  </node>
  <node id="1042093809" version="3" timestamp="2010-12-18T11:33:38Z" uid="19626" user="Swamp" changeset="6694799" lat="-35.0116997" lon="147.3739929">
    <tag k="aeroway" v="aerodrome"/>
    <tag k="name" v="Federation Hsd Airport"/>
    <tag k="source" v="ourairports.com"/>
  </node>
  <node id="1042093810" version="3" timestamp="2010-12-18T23:29:23Z" uid="18775" user="drlizau" changeset="6701720" lat="-33.8333015" lon="138.7669983">
    <tag k="aeroway" v="aerodrome"/>
    <tag k="name" v="Farrell Flat Airport"/>
    <tag k="source" v="ourairports.com"/>
  </node>
  <node id="1042093817" version="3" timestamp="2011-04-04T15:59:05Z" uid="4467" user="Rosscoe" changeset="7766323" lat="-26.7749996" lon="132.0169983">
    <tag k="aeroway" v="aerodrome"/>
    <tag k="name" v="Fregon Airport"/>
  </node>
  <node id="1042093820" version="2" timestamp="2011-03-25T14:57:12Z" uid="4467" user="Rosscoe" changeset="7666252" lat="-30.8464866" lon="128.1144831">
    <tag k="aeroway" v="aerodrome"/>
    <tag k="iata" v="FOS"/>
    <tag k="name" v="Forrest Airport"/>
  </node>
  <node id="1042093834" version="3" timestamp="2011-03-01T10:44:21Z" uid="4467" user="Rosscoe" changeset="7428183" lat="-25.6155012" lon="151.61801">
    <tag k="aeroway" v="aerodrome"/>
    <tag k="iata" v="GAH"/>
    <tag k="name" v="Gayndah"/>
  </node>
  <node id="1042093840" version="2" timestamp="2011-05-08T11:10:12Z" uid="74617" user="JohnSmith" changeset="8081422" lat="-28.5214005" lon="150.3200073"/>
  <node id="1042093849" version="3" timestamp="2011-02-20T09:33:35Z" uid="18775" user="drlizau" changeset="7339907" lat="-34" lon="145.7169952">
    <tag k="aeroway" v="aerodrome"/>
    <tag k="name" v="Goolgowi Airport"/>
    <tag k="source" v="ourairports.com"/>
  </node>
  <node id="1042093930" version="3" timestamp="2011-01-08T11:06:45Z" uid="4467" user="Rosscoe" changeset="6902162" lat="-20.6996605" lon="146.6443719">
    <tag k="aerodrome" v="airstrip"/>
    <tag k="aeroway" v="aerodrome"/>
    <tag k="name" v="Harvest Home"/>
  </node>
  <node id="1042093930" version="4" timestamp="2011-01-24T11:01:27Z" uid="4467" user="Rosscoe" changeset="7071734" lat="-20.6987244" lon="146.6450175">
    <tag k="aerodrome" v="airstrip"/>
    <tag k="aeroway" v="aerodrome"/>
    <tag k="name" v="Harvest Home"/>
  </node>
  <node id="1042093932" version="2" timestamp="2011-04-04T13:37:19Z" uid="4467" user="Rosscoe" changeset="7765070" lat="-26.9643243" lon="133.3156187">
    <tag k="aeroway" v="aerodrome"/>
    <tag k="iata" v="IDK"/>
    <tag k="name" v="Indulkana Airport"/>
  </node>
  <node id="1042093932" version="3" timestamp="2011-11-12T08:28:53Z" uid="437005" user="ssb2005" changeset="9802318" lat="-26.9643243" lon="133.3156187">
    <tag k="aeroway" v="aerodrome"/>
    <tag k="designation" v="Abandoned"/>
    <tag k="iata" v="IDK"/>
    <tag k="name" v="Indulkana Airport"/>
  </node>
  <node id="1042093936" version="2" timestamp="2011-01-05T11:22:25Z" uid="4467" user="Rosscoe" changeset="6870479" lat="-18.6635615" lon="146.1511438">
    <tag k="aeroway" v="aerodrome"/>
    <tag k="icao" v="IGH"/>
    <tag k="name" v="Ingham Airport"/>
  </node>
  <node id="1042093937" version="3" timestamp="2011-02-05T07:16:44Z" uid="18775" user="drlizau" changeset="7189651" lat="-29.6287374" lon="134.7878318">
    <tag k="aeroway" v="aerodrome"/>
    <tag k="name" v="Ingomar Airstrip"/>
    <tag k="source" v="ourairports.com"/>
  </node>
  <node id="1042093946" version="3" timestamp="2011-02-24T04:36:08Z" uid="4467" user="Rosscoe" changeset="7378689" lat="-27.7423774" lon="140.7451783">
    <tag k="aeroway" v="aerodrome"/>
    <tag k="name" v="Innamincka Township"/>
  </node>
  <node id="1042093965" version="2" timestamp="2011-02-24T04:36:08Z" uid="4467" user="Rosscoe" changeset="7378689" lat="-27.7027516" lon="140.7370521">
    <tag k="aeroway" v="aerodrome"/>
    <tag k="iata" v="INM"/>
    <tag k="name" v="Innamincka"/>
  </node>
  <node id="1042094173" version="3" timestamp="2011-01-23T03:46:41Z" uid="4467" user="Rosscoe" changeset="7057692" lat="-23.5832996" lon="146.1670074">
    <tag k="aeroway" v="aerodrome"/>
    <tag k="name" v="Jericho Airport"/>
    <tag k="source" v="ourairports.com"/>
  </node>
  <node id="1042094331" version="3" timestamp="2011-04-04T15:36:07Z" uid="4467" user="Rosscoe" changeset="7766135" lat="-26.335858" lon="132.4766605">
    <tag k="aeroway" v="aerodrome"/>
    <tag k="name" v="Kenmore Park"/>
  </node>
  <node id="1042094332" version="3" timestamp="2011-01-23T02:44:29Z" uid="4467" user="Rosscoe" changeset="7057517" lat="-30.888891" lon="150.5250891">
    <tag k="aerodrome" v="airstrip"/>
    <tag k="aeroway" v="aerodrome"/>
    <tag k="name" v="Lake Keepit"/>
  </node>
  <node id="1042094335" version="3" timestamp="2011-01-04T03:43:54Z" uid="30201" user="rrankin" changeset="6857203" lat="-36.2161803" lon="148.1123967">
    <tag k="aeroway" v="aerodrome"/>
    <tag k="icao" v="YKHA"/>
    <tag k="name" v="Khancoban Airport"/>
    <tag k="source" v="ourairports.com"/>
  </node>
  <node id="1042094335" version="4" timestamp="2012-03-08T10:08:55Z" uid="84937" user="Neil Penman" changeset="10907673" lat="-36.2161803" lon="148.1123967"/>
  <node id="1042094353" version="2" timestamp="2011-05-25T18:57:02Z" uid="74617" user="JohnSmith" changeset="8247537" lat="-31.0743999" lon="152.7700043"/>
  <node id="1042094582" version="3" timestamp="2010-12-19T01:43:48Z" uid="19626" user="Swamp" changeset="6702255" lat="-33.2800503" lon="146.3760588">
    <tag k="aeroway" v="aerodrome"/>
    <tag k="name" v="Lake Cargelligo Airport"/>
    <tag k="source" v="ourairports.com"/>
  </node>
  <node id="1042094645" version="3" timestamp="2010-12-18T00:11:27Z" uid="18775" user="drlizau" changeset="6692153" lat="-34.5" lon="146.4329987">
    <tag k="aeroway" v="aerodrome"/>
    <tag k="name" v="Leeton Airport"/>
    <tag k="source" v="ourairports.com"/>
  </node>
  <node id="1042094653" version="2" timestamp="2011-04-20T09:32:49Z" uid="4467" user="Rosscoe" changeset="7914409" lat="-28.8793602" lon="121.3167547">
    <tag k="aeroway" v="aerodrome"/>
    <tag k="iata" v="LNO"/>
    <tag k="name" v="Leonora Airport"/>
  </node>
  <node id="1042094687" version="3" timestamp="2011-03-27T11:56:03Z" uid="4467" user="Rosscoe" changeset="7685182" lat="-22.1052186" lon="118.4726294">
    <tag k="aeroway" v="aerodrome"/>
    <tag k="name" v="Mulga Downs"/>
  </node>
  <node id="1042095013" version="3" timestamp="2011-01-20T09:16:50Z" uid="4467" user="Rosscoe" changeset="7028215" lat="-25.0499992" lon="146.2669983">
    <tag k="aeroway" v="aerodrome"/>
    <tag k="name" v="Lansdowne Airport"/>
    <tag k="source" v="ourairports.com"/>
  </node>
  <node id="1042095219" version="2" timestamp="2011-03-14T05:17:50Z" uid="4467" user="Rosscoe" changeset="7552873" lat="-21.1640275" lon="119.8335243">
    <tag k="aeroway" v="aerodrome"/>
    <tag k="iata" v="MBB"/>
    <tag k="icao" v="MBL"/>
    <tag k="name" v="Marble Bar Airport"/>
  </node>
  <node id="1042095252" version="3" timestamp="2011-01-02T05:24:29Z" uid="18775" user="drlizau" changeset="6835156" lat="-21.2817118" lon="141.2860459">
    <tag k="aeroway" v="aerodrome"/>
    <tag k="name" v="Mckinley Airport"/>
    <tag k="note" v="the road is used as the runway"/>
    <tag k="source" v="ourairports.com"/>
  </node>
  <node id="1042095252" version="4" timestamp="2012-03-12T11:25:08Z" uid="83382" user="c-j-b" changeset="10953613" lat="-21.2797168" lon="141.298647">
    <tag k="aeroway" v="aerodrome"/>
    <tag k="name" v="Mckinley Airport"/>
    <tag k="note" v="the road is used as the runway"/>
    <tag k="source" v="ourairports.com"/>
  </node>
  <node id="1042095260" version="3" timestamp="2011-01-23T08:31:39Z" uid="4467" user="Rosscoe" changeset="7058351" lat="-21.3856685" lon="147.3323391">
    <tag k="aeroway" v="aerodrome"/>
    <tag k="name" v="Mount Coolon"/>
  </node>
  <node id="1042095273" version="3" timestamp="2011-01-08T13:19:13Z" uid="4467" user="Rosscoe" changeset="6903504" lat="-20.0139404" lon="146.4833689">
    <tag k="aerodrome" v="airstrip"/>
    <tag k="aeroway" v="aerodrome"/>
    <tag k="name" v="Macrossan"/>
  </node>
  <node id="1042095304" version="3" timestamp="2011-02-19T07:45:25Z" uid="4467" user="Rosscoe" changeset="7329027" lat="-20.5167007" lon="118.0670013">
    <tag k="aeroway" v="aerodrome"/>
    <tag k="name" v="Mundabullangana Airport"/>
    <tag k="source" v="ourairports.com"/>
  </node>
  <node id="1042095421" version="3" timestamp="2010-12-30T07:42:06Z" uid="4467" user="Rosscoe" changeset="6806297" lat="-21.2107334" lon="115.965828">
    <tag k="aeroway" v="aerodrome"/>
    <tag k="name" v="Mardi Station"/>
  </node>
  <node id="1042095433" version="3" timestamp="2011-01-30T11:10:49Z" uid="4467" user="Rosscoe" changeset="7132524" lat="-32.3634786" lon="142.4071599">
    <tag k="aeroway" v="aerodrome"/>
    <tag k="name" v="Menindee"/>
  </node>
  <node id="1042095539" version="3" timestamp="2011-04-20T08:47:55Z" uid="4467" user="Rosscoe" changeset="7914072" lat="-28.7893892" lon="122.0395283">
    <tag k="aeroway" v="aerodrome"/>
    <tag k="disused" v="yes"/>
    <tag k="name" v="Mount Morgans Airport"/>
  </node>
  <node id="1042095781" version="3" timestamp="2011-03-26T07:24:33Z" uid="4467" user="Rosscoe" changeset="7672561" lat="-26.8100361" lon="150.1618403">
    <tag k="aeroway" v="aerodrome"/>
    <tag k="icao" v="YMLS"/>
    <tag k="name" v="Miles"/>
  </node>
  <node id="1042095812" version="3" timestamp="2011-04-20T08:47:54Z" uid="4467" user="Rosscoe" changeset="7914072" lat="-28.712148" lon="121.8864545">
    <tag k="aeroway" v="aerodrome"/>
    <tag k="name" v="Murrin Murrin Airport"/>
  </node>
  <node id="1042095953" version="3" timestamp="2011-02-26T07:06:09Z" uid="4467" user="Rosscoe" changeset="7396959" lat="-28.7704368" lon="122.4410071">
    <tag k="aeroway" v="aerodrome"/>
    <tag k="name" v="Mount Weld"/>
  </node>
  <node id="1042095961" version="3" timestamp="2011-04-20T09:13:01Z" uid="4467" user="Rosscoe" changeset="7914252" lat="-28.8833008" lon="121.8000031">
    <tag k="aeroway" v="aerodrome"/>
    <tag k="name" v="Minura Airport"/>
    <tag k="source" v="ourairports.com"/>
  </node>
  <node id="1042095988" version="3" timestamp="2011-01-01T10:51:41Z" uid="18775" user="drlizau" changeset="6826559" lat="-35.057001" lon="144.0199288">
    <tag k="aeroway" v="aerodrome"/>
    <tag k="name" v="Moulamein Airstrip"/>
    <tag k="source" v="landsat"/>
  </node>
  <node id="1042096039" version="3" timestamp="2011-01-08T11:29:47Z" uid="4467" user="Rosscoe" changeset="6902392" lat="-20.5234895" lon="146.790514">
    <tag k="aerodrome" v="airstrip"/>
    <tag k="aeroway" v="aerodrome"/>
    <tag k="name" v="Mount Cooper"/>
  </node>
  <node id="1042096918" version="3" timestamp="2011-03-15T04:21:45Z" uid="4467" user="Rosscoe" changeset="7563150" lat="-21.9091323" lon="120.1949147">
    <tag k="aeroway" v="aerodrome"/>
    <tag k="iata" v="NLL"/>
    <tag k="icao" v="YNUL"/>
    <tag k="name" v="Nullagine Airport"/>
  </node>
  <node id="1042097135" version="3" timestamp="2011-01-10T03:50:27Z" uid="4467" user="Rosscoe" changeset="6922985" lat="-22.2667007" lon="145.9830017">
    <tag k="aeroway" v="aerodrome"/>
    <tag k="name" v="Oakvale Airport"/>
    <tag k="source" v="ourairports.com"/>
  </node>
  <node id="1042097226" version="2" timestamp="2011-02-24T04:50:42Z" uid="4467" user="Rosscoe" changeset="7378718" lat="-28.1017242" lon="140.1987512">
    <tag k="aeroway" v="aerodrome"/>
    <tag k="iata" v="MOO"/>
    <tag k="name" v="Moomba"/>
  </node>
  <node id="1042097276" version="3" timestamp="2011-04-09T10:48:20Z" uid="4467" user="Rosscoe" changeset="7812023" lat="-33.7930329" lon="122.9492881">
    <tag k="aeroway" v="aerodrome"/>
    <tag k="name" v="Orleans Farm"/>
  </node>
  <node id="1042097313" version="3" timestamp="2011-04-20T10:41:46Z" uid="4467" user="Rosscoe" changeset="7914933" lat="-29.1954461" lon="121.4457844">
    <tag k="aeroway" v="aerodrome"/>
    <tag k="name" v="Orient Well Airport"/>
    <tag k="source" v="ourairports.com"/>
  </node>
  <node id="1042097497" version="2" timestamp="2011-03-19T08:34:50Z" uid="4467" user="Rosscoe" changeset="7602318" lat="-12.2727073" lon="136.8244359">
    <tag k="aeroway" v="aerodrome"/>
    <tag k="iata" v="GOV"/>
    <tag k="name" v="Gove Airport"/>
  </node>
  <node id="1042097727" version="3" timestamp="2010-12-30T08:06:38Z" uid="4467" user="Rosscoe" changeset="6806409" lat="-21.6166992" lon="116.3170013">
    <tag k="aeroway" v="aerodrome"/>
    <tag k="name" v="Pannawonica Airport"/>
    <tag k="source" v="ourairports.com"/>
  </node>
  <node id="1042097751" version="2" timestamp="2011-02-12T04:46:01Z" uid="4467" user="Rosscoe" changeset="7261402" lat="-20.3785048" lon="118.6313595">
    <tag k="aeroway" v="aerodrome"/>
    <tag k="iata" v="PHE"/>
    <tag k="name" v="Port Hedland International Airport"/>
    <tag k="source" v="ourairports.com"/>
  </node>
  <node id="1042097751" version="3" timestamp="2011-02-12T09:24:13Z" uid="4467" user="Rosscoe" changeset="7262580" lat="-20.3785226" lon="118.6317653">
    <tag k="aeroway" v="aerodrome"/>
    <tag k="iata" v="PHE"/>
    <tag k="icao" v="PD"/>
    <tag k="name" v="Port Hedland International Airport"/>
  </node>
  <node id="1042097854" version="2" timestamp="2011-01-23T02:41:07Z" uid="4467" user="Rosscoe" changeset="7057507" lat="-31.4944043" lon="150.5222427">
    <tag k="aeroway" v="aerodrome"/>
    <tag k="iata" v="UIR"/>
    <tag k="name" v="Quirindi Airport"/>
  </node>
  <node id="1042097856" version="2" timestamp="2011-01-19T11:14:05Z" uid="4467" user="Rosscoe" changeset="7019352" lat="-26.6109915" lon="144.2571504">
    <tag k="aeroway" v="aerodrome"/>
    <tag k="iata" v="ULP"/>
    <tag k="name" v="Quilpie Airport"/>
  </node>
  <node id="1042098032" version="3" timestamp="2011-02-12T08:43:04Z" uid="4467" user="Rosscoe" changeset="7262299" lat="-21.9772119" lon="119.0176684">
    <tag k="aeroway" v="aerodrome"/>
    <tag k="name" v="Redmont"/>
  </node>
  <node id="1042098074" version="3" timestamp="2011-03-14T02:09:45Z" uid="4467" user="Rosscoe" changeset="7552430" lat="-37.4749531" lon="144.7226543">
    <tag k="aeroway" v="aerodrome"/>
    <tag k="name" v="Riddell"/>
  </node>
  <node id="1042098209" version="3" timestamp="2010-12-26T22:51:10Z" uid="7617" user="Franc" changeset="6773232" lat="-33.8301452" lon="151.0246609">
    <tag k="aeroway" v="aerodrome"/>
    <tag k="name" v="Rosehill Heliport Airport"/>
    <tag k="source" v="ourairports.com"/>
  </node>
  <node id="1042098241" version="2" timestamp="2011-03-09T04:55:56Z" uid="4467" user="Rosscoe" changeset="7500634" lat="-32.0048689" lon="115.5432981">
    <tag k="aeroway" v="aerodrome"/>
    <tag k="iata" v="RTS"/>
    <tag k="name" v="Rottnest Island"/>
  </node>
  <node id="1042098241" version="3" timestamp="2011-07-15T02:25:02Z" uid="481865" user="ShayneM" changeset="8727475" lat="-32.00455" lon="115.543143">
    <tag k="aeroway" v="aerodrome"/>
    <tag k="iata" v="RTS"/>
    <tag k="name" v="Rottnest Island"/>
  </node>
  <node id="1042098241" version="4" timestamp="2011-07-15T02:25:06Z" uid="481865" user="ShayneM" changeset="8727475" lat="-32.0048689" lon="115.5432981">
    <tag k="aeroway" v="aerodrome"/>
    <tag k="iata" v="RTS"/>
    <tag k="name" v="Rottnest Island"/>
  </node>
  <node id="1042098291" version="3" timestamp="2011-02-20T09:57:03Z" uid="18775" user="drlizau" changeset="7340127" lat="-34.6333008" lon="144.2830048">
    <tag k="aeroway" v="aerodrome"/>
    <tag k="name" v="Ravensworth Airport"/>
    <tag k="source" v="ourairports.com"/>
  </node>
  <node id="1042098326" version="3" timestamp="2011-03-27T11:54:59Z" uid="4467" user="Rosscoe" changeset="7685182" lat="-22.7960862" lon="119.6227308">
    <tag k="aeroway" v="aerodrome"/>
    <tag k="name" v="Sandhill"/>
  </node>
  <node id="1042098413" version="2" timestamp="2011-04-01T14:53:43Z" uid="4467" user="Rosscoe" changeset="7736102" lat="-32.2187859" lon="148.5700025">
    <tag k="aeroway" v="aerodrome"/>
    <tag k="iata" v="DBO"/>
    <tag k="icao" v="YSDU"/>
    <tag k="name" v="Dubbo City Regional Airport"/>
  </node>
  <node id="1042098659" version="2" timestamp="2011-03-04T10:08:20Z" uid="4467" user="Rosscoe" changeset="7453058" lat="-27.9245687" lon="153.3709091">
    <tag k="aeroway" v="aerodrome"/>
    <tag k="iata" v="SHQ"/>
    <tag k="name" v="Southport"/>
  </node>
  <node id="1042098674" version="3" timestamp="2011-02-26T07:06:08Z" uid="4467" user="Rosscoe" changeset="7396959" lat="-29.0999759" lon="122.4509834">
    <tag k="aeroway" v="aerodrome"/>
    <tag k="name" v="Sunrise Dam"/>
  </node>
  <node id="1042098740" version="2" timestamp="2010-12-18T00:29:57Z" uid="18775" user="drlizau" changeset="6692238" lat="-35.1652985" lon="147.4660034">
    <tag k="aeroway" v="aerodrome"/>
    <tag k="iata" v="WGA"/>
    <tag k="name" v="Wagga Wagga City Airport"/>
    <tag k="source" v="ourairports.com"/>
  </node>
  <node id="1042098743" version="2" timestamp="2011-03-26T03:02:43Z" uid="4467" user="Rosscoe" changeset="7671809" lat="-27.1625233" lon="150.4743209">
    <tag k="aeroway" v="aerodrome"/>
    <tag k="iata" v="XTR"/>
    <tag k="name" v="Tara"/>
  </node>
  <node id="1042098745" version="3" timestamp="2011-02-01T01:51:36Z" uid="18775" user="drlizau" changeset="7151190" lat="-32.6333008" lon="142.0829926">
    <tag k="aeroway" v="aerodrome"/>
    <tag k="name" v="Tandou Lake Airport"/>
    <tag k="source" v="ourairports.com"/>
  </node>
  <node id="1042098931" version="3" timestamp="2011-02-25T16:04:20Z" uid="4467" user="Rosscoe" changeset="7391735" lat="-17.0361785" lon="128.2082478">
    <tag k="aeroway" v="aerodrome"/>
    <tag k="name" v="Turkey Creek"/>
  </node>
  <node id="1042098968" version="3" timestamp="2011-01-20T08:04:22Z" uid="4467" user="Rosscoe" changeset="7027697" lat="-24.8368707" lon="146.2937562">
    <tag k="aeroway" v="aerodrome"/>
    <tag k="name" v="Tambo"/>
  </node>
  <node id="1042099069" version="3" timestamp="2011-01-20T09:16:48Z" uid="4467" user="Rosscoe" changeset="7028215" lat="-25.3140842" lon="146.0167158">
    <tag k="aeroway" v="aerodrome"/>
    <tag k="name" v="Toliness"/>
    <tag k="source" v="ourairports.com"/>
  </node>
  <node id="1042099353" version="3" timestamp="2011-04-04T15:59:10Z" uid="4467" user="Rosscoe" changeset="7766323" lat="-26.4864412" lon="132.0408995">
    <tag k="aeroway" v="aerodrome"/>
    <tag k="name" v="Umuwa Airport"/>
  </node>
  <node id="1042099623" version="2" timestamp="2011-02-08T05:34:46Z" uid="18775" user="drlizau" changeset="7223450" lat="-31.5206367" lon="143.3834748">
    <tag k="aeroway" v="aerodrome"/>
    <tag k="iata" v="WIO"/>
    <tag k="name" v="Wilcannia Aerodrome"/>
    <tag k="source" v="ourairports.com"/>
  </node>
  <node id="1042099807" version="3" timestamp="2011-01-24T02:39:56Z" uid="4467" user="Rosscoe" changeset="7069356" lat="-21.1280603" lon="147.2753325">
    <tag k="aeroway" v="aerodrome"/>
    <tag k="name" v="Wirralie Gold Mine"/>
  </node>
  <node id="1042099836" version="2" timestamp="2011-03-27T11:56:03Z" uid="4467" user="Rosscoe" changeset="7685182" lat="-22.2248089" lon="118.3465921">
    <tag k="aeroway" v="aerodrome"/>
    <tag k="iata" v="WIT"/>
    <tag k="name" v="Wittenoom (disused)"/>
  </node>
</osm>
