<?xml version='1.0' encoding='UTF-8'?>
<osm version="0.6" generator="libosmium/2.20.0">
  <node id="104391614" version="5" timestamp="2008-08-23T19:36:43Z" uid="36809" user="pfoten_weg_!_" changeset="380911" lat="48.0971" lon="11.5138314">
    <tag k="created_by" v="RambaZamba"/>
    <tag k="name" v="U3"/>
    <tag k="railway" v="subway_entrance"/>
  </node>
  <node id="104391614" version="6" timestamp="2008-10-01T01:57:42Z" uid="36809" user="pfoten_weg_!_" changeset="5644" lat="48.0971" lon="11.5138314">
    <tag k="created_by" v="RambaZamba"/>
    <tag k="name" v="U3"/>
    <tag k="railway" v="subway_entrance"/>
  </node>
  <node id="104391614" version="7" timestamp="2009-01-02T18:15:55Z" uid="78442" user="jjKlaus" changeset="716029" lat="48.0971" lon="11.5138314">
    <tag k="created_by" v="RambaZamba"/>
    <tag k="name" v="Machtlfinger Straße"/>
    <tag k="railway" v="subway_entrance"/>
    <tag k="ref" v="U3"/>
  </node>
  <node id="104391614" version="8" timestamp="2009-06-12T20:31:30Z" uid="36809" user="pfoten_weg_!_" changeset="1500134" lat="48.0971" lon="11.5138314">
    <tag k="created_by" v="RambaZamba"/>
    <tag k="name" v="Machtlfinger Straße"/>
    <tag k="railway" v="subway_entrance"/>
    <tag k="ref" v="U3"/>
    <tag k="source" v="survey"/>
  </node>
  <node id="104391614" version="9" timestamp="2009-08-12T12:39:26Z" uid="156995" user="HampelZamba" changeset="2118306" lat="48.0971" lon="11.5138314">
    <tag k="name" v="Machtlfinger Straße"/>
    <tag k="railway" v="subway_entrance"/>
    <tag k="ref" v="U3"/>
    <tag k="source" v="survey"/>
  </node>
  <node id="104391614" version="10" timestamp="2009-08-31T21:10:57Z" uid="36809" user="pfoten_weg_!_" changeset="2331411" lat="48.0971" lon="11.5138314">
    <tag k="name" v="Machtlfinger Straße"/>
    <tag k="railway" v="subway_entrance"/>
    <tag k="ref" v="U3"/>
    <tag k="source" v="survey"/>
  </node>
  <node id="104391614" version="11" timestamp="2009-10-13T23:06:32Z" uid="36809" user="pfoten_weg_!_" changeset="2841175" lat="48.0971" lon="11.5138314">
    <tag k="name" v="Machtlfinger Straße"/>
    <tag k="railway" v="subway_entrance"/>
    <tag k="ref" v="U3"/>
  </node>
  <node id="104391614" version="12" timestamp="2012-03-30T18:59:24Z" uid="8748" user="ToniE" changeset="11158861" lat="48.0971433" lon="11.5138102">
    <tag k="name" v="Machtlfinger Straße"/>
    <tag k="railway" v="subway_entrance"/>
    <tag k="ref" v="U3"/>
  </node>
  <node id="104393310" version="3" timestamp="2008-08-23T23:46:46Z" uid="36809" user="pfoten_weg_!_" changeset="384601" lat="48.0985937" lon="11.5380234">
    <tag k="bicycle" v="yes"/>
    <tag k="created_by" v="RambaZamba"/>
    <tag k="railway" v="subway_entrance"/>
  </node>
  <node id="104393310" version="4" timestamp="2008-10-01T01:51:51Z" uid="36809" user="pfoten_weg_!_" changeset="5644" lat="48.0985937" lon="11.5380234">
    <tag k="bicycle" v="yes"/>
    <tag k="created_by" v="RambaZamba"/>
    <tag k="railway" v="subway_entrance"/>
  </node>
  <node id="104393310" version="5" timestamp="2008-10-14T15:01:32Z" uid="48243" user="safado" changeset="335749" lat="48.0985887" lon="11.5380224">
    <tag k="bicycle" v="yes"/>
    <tag k="created_by" v="Potlatch 0.10e"/>
    <tag k="railway" v="subway_entrance"/>
  </node>
  <node id="104393310" version="6" timestamp="2008-10-14T15:01:43Z" uid="48243" user="safado" changeset="335749" lat="48.0985887" lon="11.5380224">
    <tag k="bicycle" v="yes"/>
    <tag k="created_by" v="Potlatch 0.10e"/>
    <tag k="name" v="Obersendling"/>
    <tag k="railway" v="subway_entrance"/>
  </node>
  <node id="104393310" version="7" timestamp="2008-12-16T16:18:19Z" uid="78442" user="jjKlaus" changeset="428361" lat="48.0985887" lon="11.5380224">
    <tag k="bicycle" v="yes"/>
    <tag k="created_by" v="Potlatch 0.10e"/>
    <tag k="name" v="Obersendling"/>
    <tag k="railway" v="subway_entrance"/>
    <tag k="ref" v="U3"/>
  </node>
  <node id="104393310" version="8" timestamp="2009-03-10T19:26:13Z" uid="8748" user="ToniE" changeset="777543" lat="48.0986178" lon="11.537957">
    <tag k="bicycle" v="yes"/>
    <tag k="created_by" v="Potlatch 0.10e"/>
    <tag k="name" v="Obersendling"/>
    <tag k="railway" v="subway_entrance"/>
    <tag k="ref" v="U3"/>
  </node>
  <node id="104393310" version="9" timestamp="2009-05-20T06:34:20Z" uid="8748" user="ToniE" changeset="1258621" lat="48.0986041" lon="11.5379467">
    <tag k="bicycle" v="yes"/>
    <tag k="created_by" v="Potlatch 0.10e"/>
    <tag k="name" v="Obersendling"/>
    <tag k="railway" v="subway_entrance"/>
    <tag k="ref" v="U3"/>
  </node>
  <node id="104393310" version="10" timestamp="2009-06-08T12:00:28Z" uid="132988" user="ich-liebe-euch" changeset="1457959" lat="48.0986041" lon="11.5379467">
    <tag k="bicycle" v="yes"/>
    <tag k="name" v="Obersendling"/>
    <tag k="railway" v="subway_entrance"/>
    <tag k="ref" v="U3"/>
  </node>
  <node id="104393310" version="11" timestamp="2009-06-08T13:38:56Z" uid="36809" user="pfoten_weg_!_" changeset="1458869" lat="48.0986041" lon="11.5379467">
    <tag k="bicycle" v="yes"/>
    <tag k="created_by" v="RambaZamba"/>
    <tag k="name" v="Obersendling"/>
    <tag k="railway" v="subway_entrance"/>
    <tag k="ref" v="U3"/>
    <tag k="source" v="survey"/>
  </node>
  <node id="104393310" version="12" timestamp="2009-08-12T12:39:27Z" uid="156995" user="HampelZamba" changeset="2118306" lat="48.0986041" lon="11.5379467">
    <tag k="bicycle" v="yes"/>
    <tag k="name" v="Obersendling"/>
    <tag k="railway" v="subway_entrance"/>
    <tag k="ref" v="U3"/>
    <tag k="source" v="survey"/>
  </node>
  <node id="104393310" version="13" timestamp="2009-08-31T21:10:43Z" uid="36809" user="pfoten_weg_!_" changeset="2331411" lat="48.0986041" lon="11.5379467">
    <tag k="bicycle" v="yes"/>
    <tag k="name" v="Obersendling"/>
    <tag k="railway" v="subway_entrance"/>
    <tag k="ref" v="U3"/>
    <tag k="source" v="survey"/>
  </node>
  <node id="104393310" version="14" timestamp="2009-10-13T23:39:52Z" uid="36809" user="pfoten_weg_!_" changeset="2841273" lat="48.0986041" lon="11.5379467">
    <tag k="bicycle" v="yes"/>
    <tag k="name" v="Obersendling"/>
    <tag k="railway" v="subway_entrance"/>
    <tag k="ref" v="U3"/>
  </node>
  <node id="104393310" version="15" timestamp="2011-10-07T10:04:45Z" uid="290680" user="wheelmap_visitor" changeset="9490517" lat="48.0986041" lon="11.5379467">
    <tag k="bicycle" v="yes"/>
    <tag k="name" v="Obersendling"/>
    <tag k="railway" v="subway_entrance"/>
    <tag k="ref" v="U3"/>
    <tag k="wheelchair" v="yes"/>
  </node>
  <node id="104393314" version="3" timestamp="2008-08-23T23:46:45Z" uid="36809" user="pfoten_weg_!_" changeset="384601" lat="48.0985942" lon="11.5381021">
    <tag k="created_by" v="RambaZamba"/>
    <tag k="highway" v="crossing"/>
  </node>
  <node id="104393314" version="4" timestamp="2008-10-01T01:51:50Z" uid="36809" user="pfoten_weg_!_" changeset="5644" lat="48.0985942" lon="11.5381021">
    <tag k="created_by" v="RambaZamba"/>
    <tag k="highway" v="crossing"/>
  </node>
  <node id="104393314" version="5" timestamp="2009-02-15T12:51:16Z" uid="36809" user="pfoten_weg_!_" changeset="463903" lat="48.0985942" lon="11.5381021">
    <tag k="created_by" v="RambaZamba"/>
    <tag k="highway" v="crossing"/>
    <tag k="source" v="survey"/>
  </node>
  <node id="104393314" version="6" timestamp="2009-03-10T19:00:09Z" uid="8748" user="ToniE" changeset="777543" lat="48.0985942" lon="11.5381021">
    <tag k="created_by" v="RambaZamba"/>
    <tag k="crossing" v="uncontrolled"/>
    <tag k="crossing_ref" v="zebra"/>
    <tag k="highway" v="crossing"/>
    <tag k="source" v="survey"/>
  </node>
  <node id="104393314" version="7" timestamp="2009-03-10T19:26:13Z" uid="8748" user="ToniE" changeset="777543" lat="48.0985953" lon="11.5380872">
    <tag k="created_by" v="RambaZamba"/>
    <tag k="crossing" v="uncontrolled"/>
    <tag k="crossing_ref" v="zebra"/>
    <tag k="highway" v="crossing"/>
    <tag k="source" v="survey"/>
  </node>
  <node id="104393314" version="8" timestamp="2009-06-08T12:00:26Z" uid="132988" user="ich-liebe-euch" changeset="1457959" lat="48.0985953" lon="11.5380872">
    <tag k="crossing" v="uncontrolled"/>
    <tag k="crossing_ref" v="zebra"/>
    <tag k="highway" v="crossing"/>
    <tag k="source" v="survey"/>
  </node>
  <node id="104393314" version="9" timestamp="2009-06-08T13:38:56Z" uid="36809" user="pfoten_weg_!_" changeset="1458869" lat="48.0985953" lon="11.5380872">
    <tag k="created_by" v="RambaZamba"/>
    <tag k="crossing" v="uncontrolled"/>
    <tag k="crossing_ref" v="zebra"/>
    <tag k="highway" v="crossing"/>
    <tag k="source" v="survey"/>
  </node>
  <node id="104393314" version="10" timestamp="2009-07-23T19:50:49Z" uid="149167" user="christcl" changeset="1919361" lat="48.0985953" lon="11.5380872">
    <tag k="crossing" v="uncontrolled"/>
    <tag k="crossing_ref" v="zebra"/>
    <tag k="highway" v="crossing"/>
    <tag k="source" v="survey"/>
  </node>
  <node id="104393314" version="11" timestamp="2009-10-13T23:39:53Z" uid="36809" user="pfoten_weg_!_" changeset="2841273" lat="48.0985953" lon="11.5380872">
    <tag k="crossing" v="uncontrolled"/>
    <tag k="crossing_ref" v="zebra"/>
    <tag k="highway" v="crossing"/>
  </node>
  <node id="104395553" version="4" timestamp="2008-10-01T01:46:51Z" uid="36809" user="pfoten_weg_!_" changeset="5644" lat="48.1010683" lon="11.5470059">
    <tag k="bicycle" v="yes"/>
    <tag k="created_by" v="RambaZamba"/>
    <tag k="name" v="U 3"/>
    <tag k="railway" v="subway_entrance"/>
  </node>
  <node id="104395553" version="5" timestamp="2008-12-16T16:17:56Z" uid="78442" user="jjKlaus" changeset="428361" lat="48.1010683" lon="11.5470059">
    <tag k="bicycle" v="yes"/>
    <tag k="created_by" v="RambaZamba"/>
    <tag k="name" v="Thalkirchen"/>
    <tag k="railway" v="subway_entrance"/>
    <tag k="ref" v="U 3"/>
  </node>
  <node id="104395553" version="6" timestamp="2009-01-02T18:15:54Z" uid="78442" user="jjKlaus" changeset="716029" lat="48.1010683" lon="11.5470059">
    <tag k="bicycle" v="yes"/>
    <tag k="created_by" v="RambaZamba"/>
    <tag k="name" v="Thalkirchen"/>
    <tag k="railway" v="subway_entrance"/>
    <tag k="ref" v="U3"/>
  </node>
  <node id="104395553" version="7" timestamp="2009-08-12T12:39:27Z" uid="156995" user="HampelZamba" changeset="2118306" lat="48.1010683" lon="11.5470059">
    <tag k="bicycle" v="yes"/>
    <tag k="name" v="Thalkirchen"/>
    <tag k="railway" v="subway_entrance"/>
    <tag k="ref" v="U3"/>
  </node>
  <node id="104395553" version="8" timestamp="2009-08-31T21:10:13Z" uid="36809" user="pfoten_weg_!_" changeset="2331411" lat="48.1010683" lon="11.5470059">
    <tag k="bicycle" v="yes"/>
    <tag k="name" v="Thalkirchen"/>
    <tag k="railway" v="subway_entrance"/>
    <tag k="ref" v="U3"/>
  </node>
  <node id="104395553" version="9" timestamp="2011-01-24T18:40:07Z" uid="319840" user="octo" changeset="7076253" lat="48.1010466" lon="11.5469572">
    <tag k="bicycle" v="yes"/>
    <tag k="name" v="Thalkirchen"/>
    <tag k="railway" v="subway_entrance"/>
    <tag k="ref" v="U3"/>
  </node>
  <node id="104395553" version="10" timestamp="2011-03-18T20:22:33Z" uid="290680" user="wheelmap_visitor" changeset="7598401" lat="48.1010466" lon="11.5469572">
    <tag k="bicycle" v="yes"/>
    <tag k="name" v="Thalkirchen"/>
    <tag k="railway" v="subway_entrance"/>
    <tag k="ref" v="U3"/>
    <tag k="station" v="subway_entrance"/>
    <tag k="wheelchair" v="yes"/>
  </node>
  <node id="104395553" version="11" timestamp="2011-03-18T21:54:18Z" uid="290680" user="wheelmap_visitor" changeset="7598401" lat="48.1010466" lon="11.5469572">
    <tag k="bicycle" v="yes"/>
    <tag k="name" v="Thalkirchen"/>
    <tag k="railway" v="subway_entrance"/>
    <tag k="ref" v="U3"/>
    <tag k="station" v="subway_entrance"/>
    <tag k="wheelchair" v="limited"/>
  </node>
  <node id="104395562" version="6" timestamp="2008-10-01T01:46:52Z" uid="36809" user="pfoten_weg_!_" changeset="5644" lat="48.1014485" lon="11.5468853">
    <tag k="created_by" v="RambaZamba"/>
    <tag k="name" v="U 3"/>
    <tag k="railway" v="subway_entrance"/>
  </node>
  <node id="104395562" version="7" timestamp="2008-12-16T16:17:57Z" uid="78442" user="jjKlaus" changeset="428361" lat="48.1014485" lon="11.5468853">
    <tag k="created_by" v="RambaZamba"/>
    <tag k="name" v="Thalkirchen"/>
    <tag k="railway" v="subway_entrance"/>
    <tag k="ref" v="U 3"/>
  </node>
  <node id="104395562" version="8" timestamp="2009-01-02T18:15:55Z" uid="78442" user="jjKlaus" changeset="716029" lat="48.1014485" lon="11.5468853">
    <tag k="created_by" v="RambaZamba"/>
    <tag k="name" v="Thalkirchen"/>
    <tag k="railway" v="subway_entrance"/>
    <tag k="ref" v="U3"/>
  </node>
  <node id="104395562" version="9" timestamp="2009-02-16T12:14:58Z" uid="8748" user="ToniE" changeset="478143" lat="48.1014485" lon="11.5468853">
    <tag k="created_by" v="RambaZamba"/>
    <tag k="lift" v="yes"/>
    <tag k="name" v="Thalkirchen"/>
    <tag k="note" v="lift only"/>
    <tag k="railway" v="subway_entrance"/>
    <tag k="ref" v="U3"/>
    <tag k="wheelchair" v="yes"/>
  </node>
  <node id="104395562" version="10" timestamp="2009-08-12T12:39:27Z" uid="156995" user="HampelZamba" changeset="2118306" lat="48.1014485" lon="11.5468853">
    <tag k="lift" v="yes"/>
    <tag k="name" v="Thalkirchen"/>
    <tag k="note" v="lift only"/>
    <tag k="railway" v="subway_entrance"/>
    <tag k="ref" v="U3"/>
    <tag k="wheelchair" v="yes"/>
  </node>
  <node id="104395562" version="11" timestamp="2009-08-31T21:10:13Z" uid="36809" user="pfoten_weg_!_" changeset="2331411" lat="48.1014485" lon="11.5468853">
    <tag k="lift" v="yes"/>
    <tag k="name" v="Thalkirchen"/>
    <tag k="note" v="lift only"/>
    <tag k="railway" v="subway_entrance"/>
    <tag k="ref" v="U3"/>
    <tag k="wheelchair" v="yes"/>
  </node>
  <node id="104395562" version="12" timestamp="2011-01-24T18:40:01Z" uid="319840" user="octo" changeset="7076253" lat="48.1015585" lon="11.5468644">
    <tag k="lift" v="yes"/>
    <tag k="name" v="Thalkirchen"/>
    <tag k="note" v="lift only"/>
    <tag k="railway" v="subway_entrance"/>
    <tag k="ref" v="U3"/>
    <tag k="wheelchair" v="yes"/>
  </node>
  <node id="104395562" version="13" timestamp="2011-02-02T09:53:28Z" uid="379063" user="MrRoute" changeset="7162938" lat="48.1016095" lon="11.5468843">
    <tag k="lift" v="yes"/>
    <tag k="name" v="Thalkirchen"/>
    <tag k="note" v="lift only"/>
    <tag k="railway" v="subway_entrance"/>
    <tag k="ref" v="U3"/>
    <tag k="wheelchair" v="yes"/>
  </node>
</osm>
