<?xml version='1.0' encoding='UTF-8'?>
<osm version="0.6" generator="libosmium/2.20.0">
  <node id="104696881" version="9" timestamp="2008-09-30T11:45:56Z" uid="1066" user="pavel" changeset="720911" lat="49.4401714" lon="12.9300369">
    <tag k="is_in" v="Czech Republic, Europe"/>
    <tag k="name" v="Domažlice"/>
    <tag k="place" v="town"/>
  </node>
  <node id="104696881" version="10" timestamp="2008-11-04T13:04:59Z" uid="308" user="MichaelCollinson" changeset="676656" lat="49.4401714" lon="12.9300369">
    <tag k="is_in" v="Czech Republic, Europe"/>
    <tag k="is_in:continent" v="Europe"/>
    <tag k="is_in:country_code" v="cz"/>
    <tag k="name" v="Domažlice"/>
    <tag k="place" v="town"/>
  </node>
  <node id="104696881" version="11" timestamp="2009-03-23T22:47:37Z" uid="12973" user="MattGPS" changeset="849126" lat="49.4400214" lon="12.9304058">
    <tag k="created_by" v="Potlatch 0.10f"/>
    <tag k="is_in" v="Czech Republic, Europe"/>
    <tag k="is_in:continent" v="Europe"/>
    <tag k="is_in:country_code" v="cz"/>
    <tag k="name" v="Domažlice"/>
    <tag k="name:de" v="Taus"/>
    <tag k="place" v="town"/>
  </node>
  <node id="104696881" version="12" timestamp="2009-05-12T08:59:14Z" uid="5748" user="fatbozz" changeset="1161881" lat="49.4400214" lon="12.9304058">
    <tag k="is_in" v="Czech Republic, Europe"/>
    <tag k="is_in:continent" v="Europe"/>
    <tag k="is_in:country_code" v="cz"/>
    <tag k="name" v="Domažlice"/>
    <tag k="name:de" v="Taus"/>
    <tag k="place" v="town"/>
  </node>
  <node id="104696881" version="13" timestamp="2009-05-21T09:52:57Z" uid="32883" user="zm54" changeset="1273735" lat="49.4402768" lon="12.9297259">
    <tag k="is_in" v="Czech Republic, Europe"/>
    <tag k="is_in:continent" v="Europe"/>
    <tag k="is_in:country_code" v="cz"/>
    <tag k="name" v="Domažlice"/>
    <tag k="name:de" v="Taus"/>
    <tag k="place" v="town"/>
  </node>
  <node id="104696881" version="14" timestamp="2010-05-24T21:07:09Z" uid="168630" user="Jakub Dvořák" changeset="4798656" lat="49.4402943" lon="12.9295567">
    <tag k="is_in" v="Czech Republic, Europe"/>
    <tag k="is_in:continent" v="Europe"/>
    <tag k="is_in:country_code" v="cz"/>
    <tag k="name" v="Domažlice"/>
    <tag k="name:de" v="Taus"/>
    <tag k="place" v="town"/>
  </node>
  <node id="104696881" version="15" timestamp="2010-05-31T13:23:42Z" uid="102554" user="Jezevec" changeset="4863102" lat="49.4402943" lon="12.9295567">
    <tag k="is_in" v="Czech Republic, Europe"/>
    <tag k="is_in:continent" v="Europe"/>
    <tag k="is_in:country_code" v="cz"/>
    <tag k="name" v="Domažlice"/>
    <tag k="name:cs" v="Domažlice"/>
    <tag k="name:de" v="Taus"/>
    <tag k="place" v="town"/>
  </node>
  <node id="104696881" version="16" timestamp="2010-10-23T19:13:11Z" uid="127170" user="Ilis" changeset="6150621" lat="49.4402943" lon="12.9295567">
    <tag k="is_in" v="Czech Republic, Europe"/>
    <tag k="is_in:continent" v="Europe"/>
    <tag k="is_in:country_code" v="cz"/>
    <tag k="name" v="Domažlice"/>
    <tag k="name:cs" v="Domažlice"/>
    <tag k="name:de" v="Taus"/>
    <tag k="name:ru" v="Домажлице"/>
    <tag k="place" v="town"/>
  </node>
  <node id="104696881" version="17" timestamp="2011-10-19T14:46:41Z" uid="102554" user="Jezevec" changeset="9600469" lat="49.4402943" lon="12.9295567">
    <tag k="is_in" v="Czech Republic, Europe"/>
    <tag k="is_in:continent" v="Europe"/>
    <tag k="is_in:country_code" v="cz"/>
    <tag k="lau1" v="CZ0321"/>
    <tag k="lau2" v="553425"/>
    <tag k="name" v="Domažlice"/>
    <tag k="name:cs" v="Domažlice"/>
    <tag k="name:de" v="Taus"/>
    <tag k="name:ru" v="Домажлице"/>
    <tag k="place" v="town"/>
    <tag k="population" v="10957"/>
  </node>
  <node id="104696881" version="18" timestamp="2012-01-21T08:44:07Z" uid="229590" user="xificurk" changeset="10453291" lat="49.4402943" lon="12.9295567"/>
</osm>
