<?xml version='1.0' encoding='UTF-8'?>
<osm version="0.6" generator="libosmium/2.20.0">
  <node id="106060938" version="2" timestamp="2007-12-12T22:27:45Z" uid="6454" user="B10xxx" changeset="276009" lat="50.9108333" lon="9.1862861">
    <tag k="created_by" v="JOSM"/>
    <tag k="name" v="Schwalmstadt / Treysa"/>
    <tag k="railway" v="station"/>
  </node>
  <node id="106060938" version="3" timestamp="2008-07-20T12:59:02Z" uid="47054" user="Bill Tuer" changeset="547594" lat="50.9106896" lon="9.1860685">
    <tag k="created_by" v="JOSM"/>
    <tag k="name" v="Schwalmstadt / Treysa"/>
    <tag k="railway" v="station"/>
  </node>
  <node id="106060938" version="4" timestamp="2008-10-10T03:16:00Z" uid="45847" user="Waldgraf" changeset="218703" lat="50.9106896" lon="9.1860685">
    <tag k="name" v="Treysa"/>
    <tag k="railway" v="station"/>
  </node>
  <node id="106060938" version="5" timestamp="2009-07-28T07:07:33Z" uid="126524" user="dirch" changeset="1962141" lat="50.9106896" lon="9.1860685">
    <tag k="name" v="Treysa"/>
    <tag k="railway" v="station"/>
  </node>
  <node id="106060938" version="6" timestamp="2011-01-10T19:02:05Z" uid="115091" user="thg99" changeset="6929573" lat="50.9106558" lon="9.1859279">
    <tag k="name" v="Treysa"/>
    <tag k="railway" v="station"/>
  </node>
  <node id="106060938" version="7" timestamp="2011-01-12T20:09:54Z" uid="115091" user="thg99" changeset="6951037" lat="50.9106151" lon="9.1857151">
    <tag k="name" v="Treysa"/>
    <tag k="railway" v="station"/>
  </node>
  <node id="106060938" version="8" timestamp="2011-04-21T15:04:12Z" uid="83876" user="BurnyB" changeset="7926288" lat="50.9105882" lon="9.1857184">
    <tag k="name" v="Treysa"/>
    <tag k="railway" v="station"/>
  </node>
  <node id="106060938" version="9" timestamp="2011-10-05T11:03:05Z" uid="290680" user="wheelmap_visitor" changeset="9474855" lat="50.9105882" lon="9.1857184">
    <tag k="name" v="Treysa"/>
    <tag k="railway" v="station"/>
    <tag k="wheelchair" v="no"/>
  </node>
</osm>
