<?xml version='1.0' encoding='UTF-8'?>
<osm version="0.6" generator="libosmium/2.20.0">
  <node id="1075363276" version="1" timestamp="2010-12-31T14:48:00Z" uid="4467" user="Rosscoe" changeset="6820435" lat="-32.1368443" lon="115.980264">
    <tag k="amenity" v="fuel"/>
    <tag k="amenity:atm" v="no"/>
    <tag k="amenity:carwash" v="yes"/>
    <tag k="amenity:eftpos" v="yes"/>
    <tag k="amenity:toilets" v="no"/>
    <tag k="amenity:truck_stop" v="no"/>
    <tag k="caltex:address" v="537 Lake Rd, Seville Grove WA 6112"/>
    <tag k="caltex:starcash" v="yes"/>
    <tag k="fuel:GTL_diesel" v="yes"/>
    <tag k="fuel:biodiesel" v="no"/>
    <tag k="fuel:diesel" v="no"/>
    <tag k="fuel:e10" v="no"/>
    <tag k="fuel:lpg" v="yes"/>
    <tag k="fuel:octane_91" v="yes"/>
    <tag k="fuel:octane_95" v="yes"/>
    <tag k="fuel:octane_98" v="yes"/>
    <tag k="name" v="Caltex Seville Grove"/>
    <tag k="operator" v="Caltex"/>
    <tag k="phone" v="+61-8-94951411"/>
    <tag k="rent:lpg_bottles" v="yes"/>
    <tag k="source" v="caltex.com.au"/>
    <tag k="source:location" v="nearmap"/>
  </node>
</osm>
