<?xml version='1.0' encoding='UTF-8'?>
<osm version="0.6" generator="libosmium/2.20.0">
  <node id="107604600" version="2" timestamp="2008-07-03T17:45:29Z" uid="6975" user="ulfl" changeset="379368" lat="48.0862172" lon="8.5486596">
    <tag k="name" v="Birkholz"/>
    <tag k="shop" v="car_repair"/>
  </node>
  <node id="107604600" version="3" timestamp="2012-02-06T11:27:24Z" uid="67540" user="Cobra" changeset="10601500" lat="48.0862172" lon="8.5486596"/>
  <node id="107604980" version="2" timestamp="2008-08-14T19:00:32Z" uid="6975" user="ulfl" changeset="264731" lat="48.0911803" lon="8.5539556">
    <tag k="amenity" v="place_of_worship"/>
    <tag k="denomination" v="catholic"/>
    <tag k="name" v="Kath. Kirche"/>
    <tag k="religion" v="christian"/>
  </node>
  <node id="107604980" version="3" timestamp="2008-11-18T14:50:06Z" uid="11081" user="soeren" changeset="765330" lat="48.0911803" lon="8.5539556">
    <tag k="amenity" v="place_of_worship"/>
    <tag k="created_by" v="JOSM"/>
    <tag k="name" v="Kath. Kirche"/>
    <tag k="religion" v="catholic"/>
  </node>
  <node id="107604980" version="4" timestamp="2008-11-20T16:19:30Z" uid="70696" user="xybot" changeset="774433" lat="48.0911803" lon="8.5539556">
    <tag k="amenity" v="place_of_worship"/>
    <tag k="created_by" v="xybot"/>
    <tag k="denomination" v="catholic"/>
    <tag k="name" v="Kath. Kirche"/>
    <tag k="religion" v="christian"/>
  </node>
  <node id="107604980" version="5" timestamp="2009-06-12T17:38:07Z" uid="85761" user="klausis" changeset="1498480" lat="48.0911803" lon="8.5539556">
    <tag k="amenity" v="place_of_worship"/>
    <tag k="denomination" v="catholic"/>
    <tag k="name" v="Kath. Kirche"/>
    <tag k="religion" v="christian"/>
  </node>
  <node id="107604980" version="6" timestamp="2010-08-23T13:34:38Z" uid="293774" user="Oli-Wan" changeset="5571129" lat="48.0911803" lon="8.5539556">
    <tag k="amenity" v="place_of_worship"/>
    <tag k="denomination" v="catholic"/>
    <tag k="name" v="Katholische Kirche"/>
    <tag k="religion" v="christian"/>
  </node>
  <node id="107604980" version="7" timestamp="2012-02-06T11:31:04Z" uid="67540" user="Cobra" changeset="10601500" lat="48.0911803" lon="8.5539556"/>
</osm>
