<?xml version='1.0' encoding='UTF-8'?>
<osm version="0.6" generator="libosmium/2.20.0">
  <node id="107751172" version="5" timestamp="2008-02-16T20:43:19Z" uid="6975" user="ulfl" changeset="141861" lat="53.4005403" lon="-2.9783916">
    <tag k="amenity" v="restaurant"/>
    <tag k="name" v="Ilfarno"/>
    <tag k="note" v="Italian"/>
  </node>
  <node id="107751172" version="6" timestamp="2010-06-03T14:17:39Z" uid="55910" user="Adrian McEwen" changeset="4892933" lat="53.4005403" lon="-2.9783917">
    <tag k="amenity" v="restaurant"/>
    <tag k="name" v="Il Forno"/>
    <tag k="note" v="Italian"/>
  </node>
  <node id="107751172" version="7" timestamp="2010-09-24T20:18:05Z" uid="4622" user="mcknut" changeset="5866194" lat="53.4005403" lon="-2.9783917">
    <tag k="addr:housenumber" v="132"/>
    <tag k="addr:street" v="Duke Street"/>
    <tag k="amenity" v="restaurant"/>
    <tag k="cuisine" v="italian"/>
    <tag k="name" v="Il Forno"/>
    <tag k="note" v="Italian"/>
    <tag k="phone" v="01517094002"/>
    <tag k="website" v="http://www.ilforno.co.uk/"/>
  </node>
  <node id="107753939" version="3" timestamp="2008-02-16T20:43:20Z" uid="6975" user="ulfl" changeset="141861" lat="53.4004686" lon="-2.9787178">
    <tag k="amenity" v="restaurant"/>
    <tag k="name" v="Majer"/>
    <tag k="note" v="Indian"/>
  </node>
  <node id="107753939" version="4" timestamp="2010-12-01T00:01:43Z" uid="377873" user="captainmusic" changeset="6499370" lat="53.4004687" lon="-2.9787179">
    <tag k="amenity" v="restaurant"/>
    <tag k="name" v="Mayur"/>
    <tag k="note" v="Indian"/>
  </node>
  <node id="107755739" version="3" timestamp="2008-02-16T20:43:18Z" uid="6975" user="ulfl" changeset="141861" lat="53.4003765" lon="-2.9781685">
    <tag k="amenity" v="restaurant"/>
    <tag k="name" v="Supporo Teppenyeoki"/>
    <tag k="note" v="Noodle bar"/>
  </node>
  <node id="107755739" version="4" timestamp="2010-12-01T00:01:43Z" uid="377873" user="captainmusic" changeset="6499370" lat="53.4003765" lon="-2.9781686">
    <tag k="amenity" v="restaurant"/>
    <tag k="name" v="Sapporo Teppanyaki"/>
    <tag k="note" v="Noodle bar"/>
  </node>
</osm>
