<?xml version='1.0' encoding='UTF-8'?>
<osm version="0.6" generator="libosmium/2.20.0">
  <node id="107954530" version="1" timestamp="2007-11-11T19:32:03Z" uid="8619" user="cetest" changeset="475566" lat="51.9833638" lon="4.3604265">
    <tag k="created_by" v="JOSM"/>
  </node>
  <node id="107954530" version="2" timestamp="2008-02-18T18:47:14Z" uid="8619" user="cetest" changeset="149884" lat="51.9835655" lon="4.3606326">
    <tag k="created_by" v="JOSM"/>
  </node>
  <node id="107954530" version="3" timestamp="2010-02-18T00:18:29Z" uid="161542" user="textlijn" changeset="3905905" lat="51.9835655" lon="4.3606326">
    <tag k="created_by" v="JOSM"/>
  </node>
  <node id="107954532" version="1" timestamp="2007-11-11T19:32:03Z" uid="8619" user="cetest" changeset="475566" lat="51.9841058" lon="4.3601337">
    <tag k="created_by" v="JOSM"/>
  </node>
  <node id="107954532" version="2" timestamp="2008-02-18T18:47:14Z" uid="8619" user="cetest" changeset="149884" lat="51.9841421" lon="4.360395">
    <tag k="created_by" v="JOSM"/>
  </node>
  <node id="107954532" version="3" timestamp="2010-02-18T00:18:30Z" uid="161542" user="textlijn" changeset="3905905" lat="51.9841421" lon="4.360395">
    <tag k="created_by" v="JOSM"/>
  </node>
  <node id="107954539" version="1" timestamp="2007-11-11T19:32:03Z" uid="8619" user="cetest" changeset="475566" lat="51.9840401" lon="4.3596396">
    <tag k="created_by" v="JOSM"/>
  </node>
  <node id="107954539" version="2" timestamp="2008-02-18T18:47:07Z" uid="8619" user="cetest" changeset="149884" lat="51.9840673" lon="4.3599083">
    <tag k="created_by" v="JOSM"/>
  </node>
  <node id="107954539" version="3" timestamp="2010-02-18T00:18:30Z" uid="161542" user="textlijn" changeset="3905905" lat="51.9840673" lon="4.3599083">
    <tag k="created_by" v="JOSM"/>
  </node>
  <node id="107954543" version="1" timestamp="2007-11-11T19:32:04Z" uid="8619" user="cetest" changeset="475566" lat="51.9843293" lon="4.3595359">
    <tag k="created_by" v="JOSM"/>
  </node>
  <node id="107954543" version="2" timestamp="2008-02-18T18:47:07Z" uid="8619" user="cetest" changeset="149884" lat="51.9843701" lon="4.3597825">
    <tag k="created_by" v="JOSM"/>
  </node>
  <node id="107954543" version="3" timestamp="2010-02-18T00:18:30Z" uid="161542" user="textlijn" changeset="3905905" lat="51.9843701" lon="4.3597825">
    <tag k="created_by" v="JOSM"/>
  </node>
  <node id="107954549" version="1" timestamp="2007-11-11T19:32:04Z" uid="8619" user="cetest" changeset="475566" lat="51.9844871" lon="4.36082">
    <tag k="created_by" v="JOSM"/>
  </node>
  <node id="107954549" version="2" timestamp="2008-02-18T18:47:10Z" uid="8619" user="cetest" changeset="149884" lat="51.9843216" lon="4.3606176">
    <tag k="created_by" v="JOSM"/>
  </node>
  <node id="107954549" version="3" timestamp="2010-02-18T00:18:30Z" uid="161542" user="textlijn" changeset="3905905" lat="51.9843216" lon="4.3606176">
    <tag k="created_by" v="JOSM"/>
  </node>
  <node id="107954551" version="1" timestamp="2007-11-11T19:32:04Z" uid="8619" user="cetest" changeset="475566" lat="51.9840513" lon="4.3613049">
    <tag k="created_by" v="JOSM"/>
  </node>
  <node id="107954551" version="2" timestamp="2008-02-18T18:47:10Z" uid="8619" user="cetest" changeset="149884" lat="51.9839584" lon="4.3614006">
    <tag k="created_by" v="JOSM"/>
  </node>
  <node id="107954551" version="3" timestamp="2010-02-18T00:18:30Z" uid="161542" user="textlijn" changeset="3905905" lat="51.9839584" lon="4.3614006">
    <tag k="created_by" v="JOSM"/>
  </node>
  <node id="107954558" version="1" timestamp="2007-11-11T19:32:04Z" uid="8619" user="cetest" changeset="475566" lat="51.9834484" lon="4.3612775">
    <tag k="created_by" v="JOSM"/>
  </node>
  <node id="107954558" version="2" timestamp="2008-02-18T18:47:14Z" uid="8619" user="cetest" changeset="149884" lat="51.983598" lon="4.3612297">
    <tag k="created_by" v="JOSM"/>
  </node>
  <node id="107954558" version="3" timestamp="2010-02-18T00:18:30Z" uid="161542" user="textlijn" changeset="3905905" lat="51.983598" lon="4.3612297">
    <tag k="created_by" v="JOSM"/>
  </node>
  <node id="107954564" version="1" timestamp="2007-11-11T19:32:04Z" uid="8619" user="cetest" changeset="475566" lat="51.9833807" lon="4.3606278">
    <tag k="amenity" v="school"/>
    <tag k="created_by" v="JOSM"/>
    <tag k="name" v="Simon Carmiggeltschool"/>
  </node>
  <node id="107954564" version="2" timestamp="2008-02-18T18:47:14Z" uid="8619" user="cetest" changeset="149884" lat="51.9835054" lon="4.3606572">
    <tag k="amenity" v="school"/>
    <tag k="created_by" v="JOSM"/>
    <tag k="name" v="Simon Carmiggeltschool"/>
  </node>
  <node id="107954564" version="3" timestamp="2010-02-18T00:18:30Z" uid="161542" user="textlijn" changeset="3905905" lat="51.9835054" lon="4.3606572">
    <tag k="amenity" v="school"/>
    <tag k="created_by" v="JOSM"/>
    <tag k="name" v="Simon Carmiggeltschool"/>
  </node>
  <node id="107954566" version="1" timestamp="2007-11-11T19:32:04Z" uid="8619" user="cetest" changeset="475566" lat="51.9841791" lon="4.3620918">
    <tag k="created_by" v="JOSM"/>
  </node>
  <node id="107954566" version="2" timestamp="2011-12-31T13:39:25Z" uid="476789" user="CeesW" changeset="10254454" lat="51.9841791" lon="4.3620918"/>
  <node id="107954573" version="1" timestamp="2007-11-11T19:32:05Z" uid="8619" user="cetest" changeset="475566" lat="51.9843744" lon="4.3620217">
    <tag k="created_by" v="JOSM"/>
  </node>
  <node id="107954573" version="2" timestamp="2011-12-31T13:39:25Z" uid="476789" user="CeesW" changeset="10254454" lat="51.9843744" lon="4.3620217"/>
  <node id="107954578" version="1" timestamp="2007-11-11T19:32:05Z" uid="8619" user="cetest" changeset="475566" lat="51.9844496" lon="4.3616465">
    <tag k="created_by" v="JOSM"/>
  </node>
  <node id="107954583" version="1" timestamp="2007-11-11T19:32:05Z" uid="8619" user="cetest" changeset="475566" lat="51.9846167" lon="4.3617472">
    <tag k="created_by" v="JOSM"/>
  </node>
  <node id="107954589" version="1" timestamp="2007-11-11T19:32:05Z" uid="8619" user="cetest" changeset="475566" lat="51.9845829" lon="4.361921">
    <tag k="created_by" v="JOSM"/>
  </node>
  <node id="107954597" version="1" timestamp="2007-11-11T19:32:05Z" uid="8619" user="cetest" changeset="475566" lat="51.9844082" lon="4.3618295">
    <tag k="created_by" v="JOSM"/>
  </node>
  <node id="107957832" version="6" timestamp="2009-05-01T12:54:46Z" uid="20587" user="balrog-kun" changeset="1036200" lat="50.7642252" lon="15.0532726">
    <tag k="addr:postcode" v="46-001"/>
    <tag k="is_in:continent" v="Europe"/>
    <tag k="name" v="Liberec"/>
    <tag k="place" v="city"/>
    <tag k="population" v="97400"/>
    <tag k="source:population" v="wikipedia"/>
    <tag k="wikipedia" v="Liberec"/>
  </node>
  <node id="107957832" version="7" timestamp="2009-09-26T18:20:29Z" uid="65298" user="Torsten OSM" changeset="2644657" lat="50.7642252" lon="15.0532726">
    <tag k="addr:postcode" v="46-001"/>
    <tag k="is_in:continent" v="Europe"/>
    <tag k="name" v="Liberec"/>
    <tag k="name:de" v="Reichenberg"/>
    <tag k="place" v="city"/>
    <tag k="population" v="97400"/>
    <tag k="source:population" v="wikipedia"/>
    <tag k="wikipedia" v="Liberec"/>
  </node>
  <node id="107957832" version="8" timestamp="2009-11-27T09:25:44Z" uid="166445" user="GranD" changeset="3226434" lat="50.7642253" lon="15.0532725">
    <tag k="addr:postcode" v="46-001"/>
    <tag k="is_in:continent" v="Europe"/>
    <tag k="name" v="Liberec"/>
    <tag k="name:de" v="Reichenberg"/>
    <tag k="name:ru" v="Либерец"/>
    <tag k="place" v="city"/>
    <tag k="population" v="97400"/>
    <tag k="source:population" v="wikipedia"/>
    <tag k="wikipedia" v="Liberec"/>
  </node>
  <node id="107957832" version="9" timestamp="2010-01-13T18:11:51Z" uid="162287" user="zby-cz" changeset="3611751" lat="50.7634278" lon="15.0578078">
    <tag k="addr:postcode" v="46-001"/>
    <tag k="is_in:continent" v="Europe"/>
    <tag k="name" v="Liberec"/>
    <tag k="name:de" v="Reichenberg"/>
    <tag k="name:ru" v="Либерец"/>
    <tag k="place" v="city"/>
    <tag k="population" v="97400"/>
    <tag k="source:population" v="wikipedia"/>
    <tag k="wikipedia" v="Liberec"/>
  </node>
  <node id="107957832" version="10" timestamp="2010-05-31T10:27:35Z" uid="102554" user="Jezevec" changeset="4861620" lat="50.7634278" lon="15.0578078">
    <tag k="addr:postcode" v="46-001"/>
    <tag k="is_in:continent" v="Europe"/>
    <tag k="name" v="Liberec"/>
    <tag k="name:de" v="Reichenberg"/>
    <tag k="name:ru" v="Либерец"/>
    <tag k="place" v="city"/>
    <tag k="population" v="105240"/>
    <tag k="source:population" v="wikipedia"/>
    <tag k="wikipedia" v="Liberec"/>
  </node>
  <node id="107957832" version="11" timestamp="2010-05-31T13:23:24Z" uid="102554" user="Jezevec" changeset="4863102" lat="50.7634278" lon="15.0578078">
    <tag k="addr:postcode" v="46-001"/>
    <tag k="is_in:continent" v="Europe"/>
    <tag k="name" v="Liberec"/>
    <tag k="name:cs" v="Liberec"/>
    <tag k="name:de" v="Reichenberg"/>
    <tag k="name:ru" v="Либерец"/>
    <tag k="place" v="city"/>
    <tag k="population" v="105240"/>
    <tag k="source:population" v="wikipedia"/>
    <tag k="wikipedia" v="Liberec"/>
  </node>
  <node id="107957832" version="12" timestamp="2011-03-20T12:35:23Z" uid="356614" user="swejzi" changeset="7615957" lat="50.7625525" lon="15.057387">
    <tag k="addr:postcode" v="46-001"/>
    <tag k="is_in:continent" v="Europe"/>
    <tag k="name" v="Liberec"/>
    <tag k="name:cs" v="Liberec"/>
    <tag k="name:de" v="Reichenberg"/>
    <tag k="name:ru" v="Либерец"/>
    <tag k="place" v="city"/>
    <tag k="population" v="105240"/>
    <tag k="source:population" v="wikipedia"/>
    <tag k="wikipedia" v="Liberec"/>
  </node>
  <node id="107957832" version="13" timestamp="2011-05-14T19:44:05Z" uid="212207" user="SunCobalt" changeset="8145003" lat="50.7625525" lon="15.057387">
    <tag k="addr:postcode" v="46-001"/>
    <tag k="is_in:continent" v="Europe"/>
    <tag k="name" v="Liberec"/>
    <tag k="name:cs" v="Liberec"/>
    <tag k="name:de" v="Reichenberg"/>
    <tag k="name:ru" v="Либерец"/>
    <tag k="name:sr" v="Либерец"/>
    <tag k="place" v="city"/>
    <tag k="population" v="105240"/>
    <tag k="source:population" v="wikipedia"/>
    <tag k="wikipedia" v="Liberec"/>
  </node>
  <node id="107957832" version="14" timestamp="2011-06-21T12:58:58Z" uid="102554" user="Jezevec" changeset="8504458" lat="50.7625525" lon="15.057387">
    <tag k="addr:postcode" v="46-001"/>
    <tag k="is_in:continent" v="Europe"/>
    <tag k="name" v="Liberec"/>
    <tag k="name:cs" v="Liberec"/>
    <tag k="name:de" v="Reichenberg"/>
    <tag k="name:ru" v="Либерец"/>
    <tag k="name:sr" v="Либерец"/>
    <tag k="place" v="city"/>
    <tag k="population" v="101865"/>
    <tag k="source:population" v="csu"/>
    <tag k="wikipedia" v="Liberec"/>
  </node>
  <node id="107957832" version="15" timestamp="2011-07-15T10:23:45Z" uid="102554" user="Jezevec" changeset="8729812" lat="50.7625525" lon="15.057387">
    <tag k="addr:postcode" v="46-001"/>
    <tag k="is_in:continent" v="Europe"/>
    <tag k="lau1" v="CZ0513"/>
    <tag k="lau2" v="563889"/>
    <tag k="name" v="Liberec"/>
    <tag k="name:cs" v="Liberec"/>
    <tag k="name:de" v="Reichenberg"/>
    <tag k="name:ru" v="Либерец"/>
    <tag k="name:sr" v="Либерец"/>
    <tag k="place" v="city"/>
    <tag k="population" v="101865"/>
    <tag k="source:population" v="csu"/>
    <tag k="wikipedia" v="Liberec"/>
  </node>
  <node id="107957832" version="16" timestamp="2012-01-13T00:25:58Z" uid="229590" user="xificurk" changeset="10374966" lat="50.7625525" lon="15.057387"/>
</osm>
