<?xml version='1.0' encoding='UTF-8'?>
<osm version="0.6" generator="libosmium/2.20.0">
  <node id="1080130281" version="4" timestamp="2011-02-05T04:33:24Z" uid="4467" user="Rosscoe" changeset="7189324" lat="-33.9578944" lon="151.1575441">
    <tag k="addr:housenumber" v="2-6"/>
    <tag k="addr:street" v="General Holmes Drive"/>
    <tag k="amenity" v="fuel"/>
    <tag k="fuel:diesel" v="yes"/>
    <tag k="fuel:e10" v="yes"/>
    <tag k="fuel:octane_95" v="yes"/>
    <tag k="name" v="Coles Express Brighton Le Sands"/>
    <tag k="opening_hours" v="7/24"/>
    <tag k="operator" v="Shell"/>
    <tag k="phone" v="0295673359"/>
    <tag k="source" v="colesexpress.com.au"/>
  </node>
  <node id="1080130847" version="2" timestamp="2011-02-02T09:47:41Z" uid="4467" user="Rosscoe" changeset="7162887" lat="-38.1362061" lon="145.8610459"/>
  <node id="1080130869" version="2" timestamp="2011-02-02T09:47:56Z" uid="4467" user="Rosscoe" changeset="7162887" lat="-38.1356233" lon="145.8557301"/>
  <node id="1080132185" version="2" timestamp="2011-02-02T09:47:39Z" uid="4467" user="Rosscoe" changeset="7162887" lat="-38.1293574" lon="145.8529995"/>
  <node id="1080132201" version="2" timestamp="2011-02-02T09:47:49Z" uid="4467" user="Rosscoe" changeset="7162887" lat="-38.1301768" lon="145.8521749">
    <tag k="highway" v="turning_circle"/>
  </node>
</osm>
