<?xml version='1.0' encoding='UTF-8'?>
<osm version="0.6" generator="libosmium/2.20.0">
  <node id="108114741" version="2" timestamp="2008-07-03T00:00:26Z" uid="6975" user="ulfl" changeset="377243" lat="53.873744" lon="10.6654012">
    <tag k="name" v="Nissan"/>
    <tag k="shop" v="car"/>
  </node>
  <node id="108114741" version="3" timestamp="2009-12-23T09:20:48Z" uid="55462" user="Lübeck" changeset="3432956" lat="53.873744" lon="10.6654012">
    <tag k="addr:city" v="Lübeck"/>
    <tag k="addr:country" v="DE"/>
    <tag k="addr:housenumber" v="47"/>
    <tag k="addr:postcode" v="23554"/>
    <tag k="addr:street" v="Fackenburger Allee"/>
    <tag k="operator" v="Nissan"/>
    <tag k="shop" v="car"/>
  </node>
  <node id="108114741" version="4" timestamp="2010-10-11T05:18:05Z" uid="55462" user="Lübeck" changeset="6008535" lat="53.873744" lon="10.6654012">
    <tag k="addr:city" v="Lübeck"/>
    <tag k="addr:country" v="DE"/>
    <tag k="addr:housenumber" v="47"/>
    <tag k="addr:postcode" v="23554"/>
    <tag k="addr:street" v="Fackenburger Allee"/>
    <tag k="brand" v="Nissan"/>
    <tag k="name" v="Olympic Auto"/>
    <tag k="shop" v="car"/>
  </node>
  <node id="108114741" version="5" timestamp="2011-02-20T10:02:31Z" uid="55462" user="Lübeck" changeset="7340177" lat="53.8736573" lon="10.6652932">
    <tag k="addr:city" v="Lübeck"/>
    <tag k="addr:country" v="DE"/>
    <tag k="addr:housenumber" v="47"/>
    <tag k="addr:postcode" v="23554"/>
    <tag k="addr:street" v="Fackenburger Allee"/>
    <tag k="brand" v="Nissan"/>
    <tag k="name" v="Olympic Auto"/>
    <tag k="shop" v="car"/>
  </node>
</osm>
