<?xml version='1.0' encoding='UTF-8'?>
<osm version="0.6" generator="libosmium/2.20.0">
  <node id="1089078888" version="1" timestamp="2011-01-07T19:21:27Z" uid="114813" user="Chrisuu" changeset="6896346" lat="53.5339888" lon="8.6548757">
    <tag k="addr:city" v="Schiffdorf"/>
    <tag k="addr:country" v="DE"/>
    <tag k="addr:housenumber" v="26"/>
    <tag k="addr:postcode" v="27619"/>
    <tag k="addr:street" v="Brameler Straße"/>
    <tag k="amenity" v="kindergarten"/>
    <tag k="name" v="Ev. Luth. Kindertagesstätte &quot;Regenbogen&quot;"/>
  </node>
  <node id="1089078888" version="2" timestamp="2011-01-13T23:04:56Z" uid="6269" user="Mueck" changeset="6962820" lat="53.5338928" lon="8.6550592">
    <tag k="addr:city" v="Schiffdorf"/>
    <tag k="addr:country" v="DE"/>
    <tag k="addr:housenumber" v="26"/>
    <tag k="addr:postcode" v="27619"/>
    <tag k="addr:street" v="Brameler Straße"/>
    <tag k="amenity" v="kindergarten"/>
    <tag k="name" v="Ev. Luth. Kindertagesstätte &quot;Regenbogen&quot;"/>
  </node>
  <node id="1089078888" version="3" timestamp="2011-04-22T06:36:05Z" uid="114813" user="Chrisuu" changeset="7931273" lat="53.5338993" lon="8.6551665">
    <tag k="addr:city" v="Schiffdorf"/>
    <tag k="addr:country" v="DE"/>
    <tag k="addr:housenumber" v="26"/>
    <tag k="addr:postcode" v="27619"/>
    <tag k="addr:street" v="Brameler Straße"/>
    <tag k="amenity" v="kindergarten"/>
    <tag k="name" v="Ev. Luth. Kindertagesstätte &quot;Regenbogen&quot;"/>
  </node>
  <node id="1089078888" version="4" timestamp="2011-04-26T15:10:28Z" uid="114813" user="Chrisuu" changeset="7975555" lat="53.5339342" lon="8.6551692">
    <tag k="addr:city" v="Schiffdorf"/>
    <tag k="addr:country" v="DE"/>
    <tag k="addr:housenumber" v="26"/>
    <tag k="addr:postcode" v="27619"/>
    <tag k="addr:street" v="Brameler Straße"/>
    <tag k="amenity" v="kindergarten"/>
    <tag k="name" v="Ev. Luth. Kindertagesstätte &quot;Regenbogen&quot;"/>
  </node>
  <node id="1089078888" version="5" timestamp="2011-12-18T12:11:13Z" uid="114813" user="Chrisuu" changeset="10145861" lat="53.5339342" lon="8.6551692">
    <tag k="addr:city" v="Schiffdorf"/>
    <tag k="addr:country" v="DE"/>
    <tag k="addr:housenumber" v="26"/>
    <tag k="addr:postcode" v="27619"/>
    <tag k="addr:street" v="Brameler Straße"/>
    <tag k="amenity" v="kindergarten"/>
    <tag k="name" v="Gemeindehaus der Martinsgemeinde"/>
  </node>
  <node id="1089078888" version="6" timestamp="2011-12-18T12:17:54Z" uid="114813" user="Chrisuu" changeset="10145861" lat="53.5339278" lon="8.6551912">
    <tag k="addr:city" v="Schiffdorf"/>
    <tag k="addr:country" v="DE"/>
    <tag k="addr:housenumber" v="26"/>
    <tag k="addr:postcode" v="27619"/>
    <tag k="addr:street" v="Brameler Straße"/>
  </node>
</osm>
