<?xml version='1.0' encoding='UTF-8'?>
<osm version="0.6" generator="libosmium/2.20.0">
  <node id="110461210" version="3" timestamp="2011-01-28T23:32:33Z" uid="6269" user="Mueck" changeset="7118148" lat="48.9977156" lon="8.4107571"/>
  <node id="110461210" version="4" timestamp="2011-02-05T11:53:20Z" uid="165061" user="keinname" changeset="7191411" lat="48.9977076" lon="8.4106779"/>
  <node id="110461219" version="2" timestamp="2008-02-13T00:36:24Z" uid="6269" user="Mueck" changeset="111430" lat="48.9977709" lon="8.4107618">
    <tag k="created_by" v="JOSM"/>
  </node>
  <node id="110461219" version="3" timestamp="2009-06-21T18:26:09Z" uid="85761" user="klausis" changeset="1586628" lat="48.9977709" lon="8.4107618"/>
  <node id="110461219" version="4" timestamp="2011-01-16T20:13:19Z" uid="165061" user="keinname" changeset="6993151" lat="48.9977634" lon="8.4107727"/>
  <node id="110461219" version="5" timestamp="2011-01-28T23:32:47Z" uid="6269" user="Mueck" changeset="7118148" lat="48.9977634" lon="8.4107727"/>
  <node id="110461223" version="2" timestamp="2008-02-13T00:36:24Z" uid="6269" user="Mueck" changeset="111430" lat="48.9977597" lon="8.4105642">
    <tag k="created_by" v="JOSM"/>
    <tag k="highway" v="gate"/>
  </node>
  <node id="110461223" version="3" timestamp="2009-02-13T00:48:26Z" uid="3516" user="BiIbo" changeset="388960" lat="48.9977597" lon="8.4105642">
    <tag k="barrier" v="gate"/>
    <tag k="created_by" v="JOSM"/>
  </node>
  <node id="110461223" version="4" timestamp="2009-06-21T18:26:09Z" uid="85761" user="klausis" changeset="1586628" lat="48.9977597" lon="8.4105642">
    <tag k="barrier" v="gate"/>
  </node>
  <node id="110461223" version="5" timestamp="2011-01-28T23:32:33Z" uid="6269" user="Mueck" changeset="7118148" lat="48.9977101" lon="8.4105674">
    <tag k="barrier" v="gate"/>
  </node>
  <node id="110461228" version="3" timestamp="2011-01-28T23:32:33Z" uid="6269" user="Mueck" changeset="7118148" lat="48.9977014" lon="8.4102942"/>
  <node id="110461228" version="4" timestamp="2011-03-28T19:40:06Z" uid="144572" user="TreumIch" changeset="7700662" lat="48.9977048" lon="8.4102657"/>
  <node id="110461259" version="3" timestamp="2008-06-27T16:47:23Z" uid="6975" user="ulfl" changeset="313873" lat="48.9975296" lon="8.4053843">
    <tag k="created_by" v="JOSM"/>
    <tag k="name" v="Salzmann"/>
    <tag k="shop" v="bakery"/>
  </node>
  <node id="110461259" version="4" timestamp="2009-06-21T18:26:08Z" uid="85761" user="klausis" changeset="1586628" lat="48.9975296" lon="8.4053843">
    <tag k="name" v="Salzmann"/>
    <tag k="shop" v="bakery"/>
  </node>
  <node id="110461259" version="5" timestamp="2010-10-21T10:26:03Z" uid="290680" user="wheelmap_visitor" changeset="6121669" lat="48.9975296" lon="8.4053843">
    <tag k="name" v="Salzmann"/>
    <tag k="shop" v="bakery"/>
    <tag k="wheelchair" v="no"/>
  </node>
  <node id="110461259" version="6" timestamp="2011-03-20T17:34:03Z" uid="144572" user="TreumIch" changeset="7619096" lat="48.9974451" lon="8.4052998">
    <tag k="name" v="Salzmann"/>
    <tag k="shop" v="bakery"/>
    <tag k="wheelchair" v="no"/>
  </node>
  <node id="110461259" version="7" timestamp="2011-10-25T21:25:59Z" uid="165061" user="keinname" changeset="9656275" lat="48.9973942" lon="8.4053124">
    <tag k="name" v="Salzmann"/>
    <tag k="shop" v="bakery"/>
    <tag k="wheelchair" v="no"/>
  </node>
  <node id="110461266" version="2" timestamp="2008-08-14T21:51:43Z" uid="6975" user="ulfl" changeset="264731" lat="48.9985799" lon="8.4039357">
    <tag k="amenity" v="restaurant"/>
    <tag k="cuisine" v="chinese"/>
    <tag k="name" v="Hong Kong"/>
  </node>
  <node id="110461266" version="3" timestamp="2011-07-08T10:01:47Z" uid="52181" user="Tichodroma" changeset="8664705" lat="48.9985799" lon="8.4039357">
    <tag k="addr:housenumber" v="29"/>
    <tag k="addr:postcode" v="76137"/>
    <tag k="addr:street" v="Ettlinger Straße"/>
    <tag k="amenity" v="restaurant"/>
    <tag k="name" v="Café Initial"/>
    <tag k="website" v="http://www.gfa-karlsruhe.de/"/>
  </node>
  <node id="110461266" version="4" timestamp="2011-11-25T20:15:35Z" uid="290680" user="wheelmap_visitor" changeset="9941016" lat="48.9985799" lon="8.4039357">
    <tag k="addr:housenumber" v="29"/>
    <tag k="addr:postcode" v="76137"/>
    <tag k="addr:street" v="Ettlinger Straße"/>
    <tag k="amenity" v="restaurant"/>
    <tag k="name" v="Café Initial"/>
    <tag k="website" v="http://www.gfa-karlsruhe.de/"/>
    <tag k="wheelchair" v="no"/>
  </node>
  <node id="110461814" version="4" timestamp="2009-10-22T16:57:53Z" uid="9581" user="Lobelt" changeset="2923245" lat="50.8575264" lon="12.417661"/>
  <node id="110461814" version="5" timestamp="2011-01-31T20:45:27Z" uid="396517" user="br01005" changeset="7148948" lat="50.8575142" lon="12.4176645"/>
  <node id="110461815" version="4" timestamp="2009-10-22T16:57:53Z" uid="9581" user="Lobelt" changeset="2923245" lat="50.8573338" lon="12.4168535"/>
  <node id="110461815" version="5" timestamp="2011-01-31T20:45:44Z" uid="396517" user="br01005" changeset="7148948" lat="50.8573349" lon="12.4168544"/>
</osm>
