<?xml version='1.0' encoding='UTF-8'?>
<osm version="0.6" generator="libosmium/2.20.0">
  <node id="1110197493" version="2" timestamp="2011-01-29T10:32:47Z" uid="4467" user="Rosscoe" changeset="7120603" lat="-37.763027" lon="144.944295">
    <tag k="amenity" v="place_of_worship"/>
    <tag k="denomination" v="uniting"/>
    <tag k="name" v="St. David&apos;s"/>
    <tag k="religion" v="christian"/>
  </node>
  <node id="1110197493" version="3" timestamp="2011-02-01T06:03:12Z" uid="152289" user="cgu66" changeset="7151758" lat="-37.763027" lon="144.944295">
    <tag k="amenity" v="place_of_worship"/>
    <tag k="denomination" v="uniting_church"/>
    <tag k="name" v="St. David&apos;s"/>
    <tag k="religion" v="christian"/>
  </node>
  <node id="1110197493" version="4" timestamp="2011-03-19T05:26:30Z" uid="152289" user="cgu66" changeset="7601454" lat="-37.763027" lon="144.944295">
    <tag k="amenity" v="place_of_worship"/>
    <tag k="denomination" v="uniting"/>
    <tag k="name" v="St. David&apos;s"/>
    <tag k="religion" v="christian"/>
  </node>
</osm>
