<?xml version='1.0' encoding='UTF-8'?>
<osm version="0.6" generator="libosmium/2.20.0">
  <node id="1118393659" version="2" timestamp="2011-03-09T12:57:20Z" uid="4467" user="Rosscoe" changeset="7503660" lat="-37.8369093" lon="144.9436074">
    <tag k="amenity" v="cafe"/>
    <tag k="name" v="Balderdsh"/>
  </node>
  <node id="1118393659" version="3" timestamp="2011-08-22T04:54:04Z" uid="3007" user="Hotwheelz" changeset="9090666" lat="-37.8369093" lon="144.9436074">
    <tag k="addr:housenumber" v="295 Bay Street"/>
    <tag k="addr:postcode" v="3207"/>
    <tag k="addr:street" v="Bay Street"/>
    <tag k="amenity" v="cafe"/>
    <tag k="name" v="Balderdsh"/>
    <tag k="website" v="http://www.balderdashcafe.com/"/>
  </node>
  <node id="1118393659" version="4" timestamp="2011-08-22T04:58:21Z" uid="3007" user="Hotwheelz" changeset="9090666" lat="-37.8369093" lon="144.9436074">
    <tag k="addr:housenumber" v="295"/>
    <tag k="addr:postcode" v="3207"/>
    <tag k="addr:street" v="Bay Street"/>
    <tag k="amenity" v="cafe"/>
    <tag k="name" v="Balderdsh"/>
    <tag k="website" v="http://www.balderdashcafe.com/"/>
  </node>
  <node id="1118393659" version="5" timestamp="2011-08-28T11:07:18Z" uid="3007" user="Hotwheelz" changeset="9146044" lat="-37.8369093" lon="144.9436074">
    <tag k="addr:housenumber" v="295"/>
    <tag k="addr:postcode" v="3207"/>
    <tag k="addr:street" v="Bay Street"/>
    <tag k="amenity" v="cafe"/>
    <tag k="cuisine" v="coffee_shop"/>
    <tag k="name" v="Balderdsh"/>
    <tag k="website" v="http://www.balderdashcafe.com/"/>
  </node>
</osm>
