<?xml version='1.0' encoding='UTF-8'?>
<osm version="0.6" generator="libosmium/2.20.0">
  <node id="1126026963" version="1" timestamp="2011-01-29T10:06:08Z" uid="4467" user="Rosscoe" changeset="7120398" lat="-17.6703688" lon="141.0790399">
    <tag k="amenity" v="pub"/>
    <tag k="name" v="The Purple Pub"/>
    <tag k="source" v="knowledge"/>
  </node>
  <node id="1126026963" version="2" timestamp="2011-01-29T10:19:00Z" uid="4467" user="Rosscoe" changeset="7120499" lat="-17.6703688" lon="141.0790399">
    <tag k="alt_name" v="National Hotel"/>
    <tag k="amenity" v="pub"/>
    <tag k="name" v="The Purple Pub"/>
    <tag k="source" v="knowledge"/>
  </node>
  <node id="1126026964" version="1" timestamp="2011-01-29T10:06:08Z" uid="4467" user="Rosscoe" changeset="7120398" lat="-17.6776556" lon="141.0690807">
    <tag k="source" v="knowledge"/>
    <tag k="tourism" v="motel"/>
  </node>
  <node id="1126026964" version="2" timestamp="2011-01-29T10:19:00Z" uid="4467" user="Rosscoe" changeset="7120499" lat="-17.6776556" lon="141.0690807">
    <tag k="name" v="Gulfland Motel"/>
    <tag k="source" v="knowledge"/>
    <tag k="tourism" v="motel"/>
  </node>
  <node id="1126026965" version="1" timestamp="2011-01-29T10:06:08Z" uid="4467" user="Rosscoe" changeset="7120398" lat="-17.6695839" lon="141.0809221">
    <tag k="amenity" v="pub"/>
    <tag k="name" v="Central Hotel"/>
  </node>
  <node id="1126026965" version="2" timestamp="2011-01-29T10:07:11Z" uid="4467" user="Rosscoe" changeset="7120409" lat="-17.6695773" lon="141.0801124">
    <tag k="amenity" v="pub"/>
    <tag k="name" v="Central Hotel"/>
  </node>
  <node id="1126026965" version="3" timestamp="2011-01-29T10:07:29Z" uid="4467" user="Rosscoe" changeset="7120414" lat="-17.6695773" lon="141.0801124">
    <tag k="amenity" v="pub"/>
    <tag k="name" v="Central Hotel"/>
    <tag k="source" v="knowledge"/>
  </node>
  <node id="1126026971" version="1" timestamp="2011-01-29T10:06:08Z" uid="4467" user="Rosscoe" changeset="7120398" lat="-17.6687484" lon="141.0801559">
    <tag k="amenity" v="pub"/>
    <tag k="name" v="Albion Hotel"/>
    <tag k="source" v="knowledge"/>
  </node>
</osm>
