<?xml version='1.0' encoding='UTF-8'?>
<osm version="0.6" generator="libosmium/2.20.0">
  <node id="11315476" version="4" timestamp="2008-08-15T00:10:48Z" uid="6975" user="ulfl" changeset="264731" lat="50.5971568" lon="-1.1980014">
    <tag k="amenity" v="place_of_worship"/>
    <tag k="denomination" v="catholic"/>
    <tag k="name" v="St Wilfred&amp;apos;s"/>
    <tag k="religion" v="christian"/>
  </node>
  <node id="11315476" version="5" timestamp="2009-01-13T20:51:08Z" uid="2231" user="Dee Earley" changeset="783229" lat="50.5971568" lon="-1.1980014">
    <tag k="amenity" v="place_of_worship"/>
    <tag k="denomination" v="catholic"/>
    <tag k="name" v="St Wilfred&apos;s"/>
    <tag k="religion" v="christian"/>
  </node>
  <node id="11317332" version="2" timestamp="2008-07-03T21:07:04Z" uid="6975" user="ulfl" changeset="386611" lat="51.3365891" lon="-0.4065376">
    <tag k="amenity" v="post_box"/>
  </node>
  <node id="11319967" version="2" timestamp="2008-07-03T18:48:31Z" uid="6975" user="ulfl" changeset="379368" lat="51.0882814" lon="-1.2978041">
    <tag k="amenity" v="place_of_worship"/>
    <tag k="name" v="KINGS W"/>
  </node>
  <node id="11319967" version="3" timestamp="2009-05-31T22:17:06Z" uid="2098" user="Andy Street" changeset="1374286" lat="51.0882814" lon="-1.2978041">
    <tag k="amenity" v="place_of_worship"/>
    <tag k="name" v="KINGS W"/>
    <tag k="religion" v="christian"/>
  </node>
  <node id="11319967" version="4" timestamp="2009-12-02T22:47:37Z" uid="196654" user="Sailor Steve" changeset="3276362" lat="51.0882814" lon="-1.297804">
    <tag k="amenity" v="place_of_worship"/>
    <tag k="denomination" v="Church of England"/>
    <tag k="name" v="St Mary"/>
    <tag k="religion" v="christian"/>
  </node>
  <node id="11319967" version="5" timestamp="2010-11-05T00:21:31Z" uid="260682" user="monxton" changeset="6292626" lat="51.0881998" lon="-1.2976373">
    <tag k="amenity" v="place_of_worship"/>
    <tag k="denomination" v="Church of England"/>
    <tag k="name" v="St Mary"/>
    <tag k="religion" v="christian"/>
  </node>
  <node id="11319967" version="6" timestamp="2010-11-15T08:29:08Z" uid="152289" user="cgu66" changeset="6375560" lat="51.0881998" lon="-1.2976373">
    <tag k="amenity" v="place_of_worship"/>
    <tag k="denomination" v="church_of_england"/>
    <tag k="name" v="St Mary"/>
    <tag k="religion" v="christian"/>
  </node>
</osm>
