<?xml version='1.0' encoding='UTF-8'?>
<osm version="0.6" generator="libosmium/2.20.0">
  <node id="114660253" version="2" timestamp="2010-02-09T00:17:33Z" uid="18775" user="drlizau" changeset="3828444" lat="-31.9272222" lon="146.5138889">
    <tag k="created_by" v="JOSM"/>
    <tag k="name" v="Babinda"/>
    <tag k="place" v="suburb"/>
    <tag k="place:nswgnb" v="SUBURB"/>
    <tag k="ref:nswgnb" v="81923"/>
    <tag k="source" v="nswgnb"/>
  </node>
  <node id="114660263" version="2" timestamp="2010-02-09T00:17:32Z" uid="18775" user="drlizau" changeset="3828444" lat="-31.9263889" lon="147.195833">
    <tag k="name" v="Buddabadah"/>
    <tag k="place" v="suburb"/>
    <tag k="place:nswgnb" v="SUBURB"/>
    <tag k="ref:nswgnb" v="82109"/>
    <tag k="source" v="nswgnb"/>
  </node>
  <node id="114660272" version="2" timestamp="2010-02-09T00:17:33Z" uid="18775" user="drlizau" changeset="3828444" lat="-31.865" lon="146.8344444">
    <tag k="created_by" v="JOSM"/>
    <tag k="name" v="Creeper Gate"/>
    <tag k="place" v="hamlet"/>
    <tag k="place:nswgnb" v="RURAL PLACE"/>
    <tag k="ref:nswgnb" v="14911"/>
    <tag k="source" v="nswgnb"/>
  </node>
  <node id="114660277" version="2" timestamp="2010-02-09T00:17:33Z" uid="18775" user="drlizau" changeset="3828444" lat="-32.1461111" lon="147.0041667">
    <tag k="created_by" v="JOSM"/>
    <tag k="name" v="Five Ways"/>
    <tag k="place" v="suburb"/>
    <tag k="place:nswgnb" v="SUBURB"/>
    <tag k="ref:nswgnb" v="82110"/>
    <tag k="source" v="nswgnb"/>
  </node>
  <node id="114660279" version="2" timestamp="2010-02-09T03:53:28Z" uid="18775" user="drlizau" changeset="3828875" lat="-31.3816667" lon="147.401111">
    <tag k="name" v="Gilgoen Scrub"/>
    <tag k="place" v="hamlet"/>
    <tag k="place:nswgnb" v="RURAL PLACE"/>
    <tag k="ref:nswgnb" v="71428"/>
    <tag k="source" v="nswgnb"/>
  </node>
  <node id="114660283" version="2" timestamp="2010-02-09T03:50:03Z" uid="18775" user="drlizau" changeset="3828868" lat="-31.5311111" lon="146.665278">
    <tag k="name" v="Hermidale"/>
    <tag k="place" v="village"/>
    <tag k="place:nswgnb" v="VILLAGE"/>
    <tag k="ref:nswgnb" v="81921"/>
    <tag k="source" v="nswgnb"/>
  </node>
  <node id="114660286" version="2" timestamp="2010-02-09T00:17:32Z" uid="18775" user="drlizau" changeset="3828444" lat="-31.7983333" lon="146.901111">
    <tag k="name" v="Honeybugle"/>
    <tag k="place" v="suburb"/>
    <tag k="place:nswgnb" v="SUBURB"/>
    <tag k="ref:nswgnb" v="24010"/>
    <tag k="source" v="nswgnb"/>
  </node>
  <node id="114660292" version="2" timestamp="2010-02-09T00:17:33Z" uid="18775" user="drlizau" changeset="3828444" lat="-31.8222222" lon="147.3294444">
    <tag k="created_by" v="JOSM"/>
    <tag k="name" v="Mulla"/>
    <tag k="place" v="suburb"/>
    <tag k="place:nswgnb" v="SUBURB"/>
    <tag k="ref:nswgnb" v="81925"/>
    <tag k="source" v="nswgnb"/>
  </node>
  <node id="114660294" version="2" timestamp="2010-02-09T03:50:03Z" uid="18775" user="drlizau" changeset="3828868" lat="-31.5316667" lon="146.934444">
    <tag k="name" v="Miandetta"/>
    <tag k="place" v="suburb"/>
    <tag k="place:nswgnb" v="SUBURB"/>
    <tag k="ref:nswgnb" v="37481"/>
    <tag k="source" v="nswgnb"/>
  </node>
  <node id="114660295" version="2" timestamp="2010-02-09T03:53:28Z" uid="18775" user="drlizau" changeset="3828875" lat="-31.1741667" lon="147.2322222">
    <tag k="created_by" v="JOSM"/>
    <tag k="name" v="Murrawombie"/>
    <tag k="place" v="suburb"/>
    <tag k="place:nswgnb" v="SUBURB"/>
    <tag k="ref:nswgnb" v="81920"/>
    <tag k="source" v="nswgnb"/>
  </node>
  <node id="114660298" version="2" timestamp="2010-02-09T03:50:06Z" uid="18775" user="drlizau" changeset="3828868" lat="-31.5316667" lon="146.5344444">
    <tag k="created_by" v="JOSM"/>
    <tag k="name" v="Muriel"/>
    <tag k="place" v="hamlet"/>
    <tag k="place:nswgnb" v="RURAL PLACE"/>
    <tag k="ref:nswgnb" v="40724"/>
    <tag k="source" v="nswgnb"/>
  </node>
  <node id="114660301" version="2" timestamp="2010-02-09T00:17:32Z" uid="18775" user="drlizau" changeset="3828444" lat="-31.9813889" lon="146.801111">
    <tag k="name" v="Pangee"/>
    <tag k="place" v="suburb"/>
    <tag k="place:nswgnb" v="SUBURB"/>
    <tag k="ref:nswgnb" v="81927"/>
    <tag k="source" v="nswgnb"/>
  </node>
  <node id="114660302" version="2" timestamp="2010-02-09T03:53:28Z" uid="18775" user="drlizau" changeset="3828875" lat="-31.3316667" lon="147.334444">
    <tag k="name" v="Old Canonba"/>
    <tag k="place" v="hamlet"/>
    <tag k="place:nswgnb" v="RURAL PLACE"/>
    <tag k="ref:nswgnb" v="43942"/>
    <tag k="source" v="nswgnb"/>
  </node>
  <node id="114660309" version="2" timestamp="2010-02-09T03:53:28Z" uid="18775" user="drlizau" changeset="3828875" lat="-31.5983333" lon="147.267778">
    <tag k="name" v="Warrigal"/>
    <tag k="place" v="hamlet"/>
    <tag k="place:nswgnb" v="RURAL PLACE"/>
    <tag k="ref:nswgnb" v="63153"/>
    <tag k="source" v="nswgnb"/>
  </node>
  <node id="114660895" version="2" timestamp="2008-01-15T20:20:11Z" uid="8328" user="benpre" changeset="642659" lat="48.5231653" lon="9.5498967">
    <tag k="created_by" v="JOSM"/>
  </node>
  <node id="114661946" version="9" timestamp="2011-04-20T08:20:13Z" uid="4467" user="Rosscoe" changeset="7913853" lat="-33.7355147" lon="150.2345775"/>
  <node id="114661987" version="79" timestamp="2009-01-01T03:39:38Z" uid="19626" user="Swamp" changeset="694579" lat="-33.7048356" lon="150.287963"/>
  <node id="114661988" version="79" timestamp="2009-01-01T03:39:37Z" uid="19626" user="Swamp" changeset="694579" lat="-33.7043257" lon="150.2877225"/>
  <node id="114661990" version="4" timestamp="2009-11-29T22:07:26Z" uid="200463" user="harmagedon" changeset="3251061" lat="48.7245608" lon="12.9098085">
    <tag k="name" v="BÃ¤ck Drive"/>
    <tag k="shop" v="bakery"/>
  </node>
  <node id="114661990" version="5" timestamp="2011-11-04T18:29:02Z" uid="290723" user="sulagaloh" changeset="9740705" lat="48.7245608" lon="12.9098085"/>
</osm>
