<?xml version='1.0' encoding='UTF-8'?>
<osm version="0.6" generator="libosmium/2.20.0">
  <node id="114891818" version="5" timestamp="2008-07-03T18:22:48Z" uid="6975" user="ulfl" changeset="379368" lat="48.2254191" lon="16.3619958">
    <tag k="amenity" v="bank"/>
    <tag k="atm" v="yes"/>
    <tag k="source" v="Hoss"/>
  </node>
  <node id="114891818" version="6" timestamp="2009-06-16T08:46:50Z" uid="133983" user="tueta" changeset="1533019" lat="48.2255526" lon="16.3619358">
    <tag k="amenity" v="bank"/>
    <tag k="atm" v="yes"/>
    <tag k="source" v="Hoss"/>
  </node>
  <node id="114891818" version="7" timestamp="2011-10-14T13:49:38Z" uid="534044" user="Trüffel" changeset="9555319" lat="48.2255526" lon="16.3619358">
    <tag k="amenity" v="bank"/>
    <tag k="atm" v="yes"/>
    <tag k="name" v="Hypo Noe"/>
    <tag k="source" v="Hoss"/>
  </node>
  <node id="114891818" version="8" timestamp="2011-10-14T13:51:50Z" uid="534044" user="Trüffel" changeset="9555319" lat="48.2255142" lon="16.3619176">
    <tag k="amenity" v="bank"/>
    <tag k="atm" v="yes"/>
    <tag k="name" v="Hypo Noe"/>
    <tag k="source" v="Hoss"/>
  </node>
  <node id="114891818" version="9" timestamp="2011-10-14T16:03:23Z" uid="534044" user="Trüffel" changeset="9556777" lat="48.2255142" lon="16.3619176">
    <tag k="amenity" v="bank"/>
    <tag k="atm" v="yes"/>
    <tag k="name" v="Hypo Noe"/>
  </node>
  <node id="114892723" version="5" timestamp="2008-07-03T18:22:58Z" uid="6975" user="ulfl" changeset="379368" lat="48.2267285" lon="16.3641158">
    <tag k="amenity" v="bank"/>
    <tag k="atm" v="yes"/>
    <tag k="name" v="Volksbank"/>
    <tag k="source" v="Hos"/>
  </node>
  <node id="114892723" version="6" timestamp="2010-01-25T23:40:44Z" uid="124234" user="kiwien" changeset="3715976" lat="48.2267284" lon="16.3641158">
    <tag k="amenity" v="bank"/>
    <tag k="atm" v="yes"/>
    <tag k="name" v="Volksbank"/>
    <tag k="operator" v="Volksbank"/>
    <tag k="source" v="Hos"/>
  </node>
  <node id="114892723" version="7" timestamp="2011-06-29T21:38:13Z" uid="298560" user="evod" changeset="8585453" lat="48.2267758" lon="16.3638969">
    <tag k="amenity" v="bank"/>
    <tag k="atm" v="yes"/>
    <tag k="name" v="Volksbank"/>
    <tag k="operator" v="Volksbank"/>
    <tag k="source" v="Hos"/>
  </node>
  <node id="114898138" version="4" timestamp="2008-07-03T18:22:43Z" uid="6975" user="ulfl" changeset="379368" lat="48.2292786" lon="16.3562795">
    <tag k="amenity" v="bank"/>
    <tag k="atm" v="yes"/>
    <tag k="name" v="Erste Bank"/>
    <tag k="source" v="Hoss"/>
  </node>
  <node id="114898138" version="5" timestamp="2009-03-07T22:10:37Z" uid="38255" user="BearT" changeset="752450" lat="48.2292238" lon="16.3562823">
    <tag k="addr:city" v="Wien"/>
    <tag k="addr:country" v="AT"/>
    <tag k="addr:housenumber" v="98"/>
    <tag k="addr:postcode" v="1090"/>
    <tag k="addr:street" v="Liechtensteinstraße"/>
    <tag k="amenity" v="bank"/>
    <tag k="atm" v="yes"/>
    <tag k="created_by" v="Merkaartor 0.13"/>
    <tag k="name" v="Erste Bank"/>
    <tag k="source" v="Hoss"/>
  </node>
  <node id="114898138" version="6" timestamp="2010-02-16T17:02:45Z" uid="78656" user="Walter Schlögl" changeset="3893895" lat="48.2292238" lon="16.3562823">
    <tag k="addr:city" v="Wien"/>
    <tag k="addr:country" v="AT"/>
    <tag k="addr:housenumber" v="98"/>
    <tag k="addr:postcode" v="1090"/>
    <tag k="addr:street" v="Liechtensteinstraße"/>
    <tag k="amenity" v="bank"/>
    <tag k="atm" v="yes"/>
    <tag k="name" v="Erste Bank"/>
    <tag k="operator" v="Erste Bank"/>
    <tag k="source" v="Hoss"/>
  </node>
  <node id="114898138" version="7" timestamp="2011-07-20T08:02:29Z" uid="290680" user="wheelmap_visitor" changeset="8775409" lat="48.2292238" lon="16.3562823">
    <tag k="addr:city" v="Wien"/>
    <tag k="addr:country" v="AT"/>
    <tag k="addr:housenumber" v="98"/>
    <tag k="addr:postcode" v="1090"/>
    <tag k="addr:street" v="Liechtensteinstraße"/>
    <tag k="amenity" v="bank"/>
    <tag k="atm" v="yes"/>
    <tag k="name" v="Erste Bank"/>
    <tag k="operator" v="Erste Bank"/>
    <tag k="source" v="Hoss"/>
    <tag k="wheelchair" v="yes"/>
  </node>
</osm>
