<?xml version='1.0' encoding='UTF-8'?>
<osm version="0.6" generator="libosmium/2.20.0">
  <node id="1149621148" version="1" timestamp="2011-02-12T21:23:49Z" uid="17602" user="B10xyz" changeset="7269643" lat="52.5261944" lon="13.3428748">
    <tag k="amenity" v="taxi"/>
    <tag k="call_box" v="yes"/>
    <tag k="opening_hours" v="0:00 - 24:00"/>
    <tag k="telephone" v="(030) 395 70 15"/>
  </node>
  <node id="1149621148" version="3" timestamp="2011-06-07T15:53:15Z" uid="317512" user="hlx" changeset="8371328" lat="52.5262336" lon="13.3417461">
    <tag k="amenity" v="taxi"/>
    <tag k="call_box" v="yes"/>
    <tag k="opening_hours" v="0:00 - 24:00"/>
    <tag k="phone" v="(030) 395 70 15"/>
  </node>
  <node id="1149621156" version="1" timestamp="2011-02-12T21:23:49Z" uid="17602" user="B10xyz" changeset="7269643" lat="52.5266604" lon="13.3535336">
    <tag k="amenity" v="taxi"/>
    <tag k="opening_hours" v="6:00 - 22:00"/>
  </node>
  <node id="1149621156" version="2" timestamp="2011-07-08T17:56:03Z" uid="447997" user="Berliner Igel" changeset="8668218" lat="52.5266182" lon="13.3535191">
    <tag k="amenity" v="taxi"/>
    <tag k="opening_hours" v="6:00 - 22:00"/>
  </node>
</osm>
