<?xml version='1.0' encoding='UTF-8'?>
<osm version="0.6" generator="libosmium/2.20.0">
  <node id="1158878811" version="2" timestamp="2011-02-25T08:54:33Z" uid="115477" user="wowik" changeset="7388402" lat="55.8411091" lon="37.3523639">
    <tag k="highway" v="bus_stop"/>
    <tag k="name" v="ул.Ген.Белобородова"/>
  </node>
  <node id="1158878811" version="3" timestamp="2012-02-24T16:52:20Z" uid="384084" user="Kostik" changeset="10780087" lat="55.8411091" lon="37.3523639">
    <tag k="highway" v="bus_stop"/>
    <tag k="name" v="ул.Ген.Белобородова"/>
  </node>
  <node id="1158878815" version="2" timestamp="2011-02-25T08:56:42Z" uid="115477" user="wowik" changeset="7388402" lat="55.8431497" lon="37.3554648">
    <tag k="highway" v="bus_stop"/>
    <tag k="name" v="ул.Барышиха"/>
  </node>
  <node id="1158878815" version="3" timestamp="2012-02-24T16:52:20Z" uid="384084" user="Kostik" changeset="10780087" lat="55.8431497" lon="37.3554648">
    <tag k="highway" v="bus_stop"/>
    <tag k="name" v="ул.Барышиха"/>
  </node>
  <node id="1158878817" version="2" timestamp="2011-02-25T08:56:01Z" uid="115477" user="wowik" changeset="7388402" lat="55.8493911" lon="37.368755">
    <tag k="highway" v="bus_stop"/>
    <tag k="name" v="Дубравная ул."/>
    <tag k="shelter" v="yes"/>
  </node>
  <node id="1158878817" version="3" timestamp="2011-06-19T17:26:15Z" uid="51726" user="stPavel" changeset="8486557" lat="55.8494324" lon="37.3688584">
    <tag k="highway" v="bus_stop"/>
    <tag k="name" v="Дубравная ул."/>
    <tag k="shelter" v="yes"/>
  </node>
  <node id="1158878824" version="2" timestamp="2011-02-25T08:53:55Z" uid="115477" user="wowik" changeset="7388402" lat="55.8470567" lon="37.3735555">
    <tag k="highway" v="bus_stop"/>
    <tag k="name" v="РТС"/>
    <tag k="shelter" v="yes"/>
  </node>
  <node id="1158878824" version="3" timestamp="2011-06-19T17:26:15Z" uid="51726" user="stPavel" changeset="8486557" lat="55.8470699" lon="37.3737159">
    <tag k="highway" v="bus_stop"/>
    <tag k="name" v="РТС"/>
    <tag k="shelter" v="yes"/>
  </node>
  <node id="1158878824" version="4" timestamp="2011-06-25T12:05:59Z" uid="51726" user="stPavel" changeset="8541529" lat="55.8470699" lon="37.3737159">
    <tag k="highway" v="bus_stop"/>
    <tag k="name" v="Районная тепловая станция"/>
    <tag k="shelter" v="yes"/>
  </node>
</osm>
