<?xml version='1.0' encoding='UTF-8'?>
<osm version="0.6" generator="libosmium/2.20.0">
  <node id="1159591645" version="1" timestamp="2011-02-18T19:03:31Z" uid="7617" user="Franc" changeset="7325291" lat="-33.9101481" lon="151.1473259">
    <tag k="addr:housenumber" v="46"/>
    <tag k="addr:street" v="Hollands Avenue"/>
    <tag k="source" v="survey"/>
  </node>
  <node id="1159591645" version="2" timestamp="2012-02-13T05:27:20Z" uid="7523" user="inas" changeset="10670291" lat="-33.9101481" lon="151.1473259"/>
  <node id="1159591669" version="1" timestamp="2011-02-18T19:03:31Z" uid="7617" user="Franc" changeset="7325291" lat="-33.9220845" lon="151.137053">
    <tag k="addr:housenumber" v="69"/>
    <tag k="addr:street" v="Riverview Road"/>
    <tag k="source" v="survey"/>
  </node>
  <node id="1159591669" version="2" timestamp="2012-02-13T04:37:32Z" uid="7523" user="inas" changeset="10670182" lat="-33.9220845" lon="151.137053"/>
  <node id="1159591673" version="1" timestamp="2011-02-18T19:03:31Z" uid="7617" user="Franc" changeset="7325291" lat="-33.9101883" lon="151.1475217">
    <tag k="addr:housenumber" v="19"/>
    <tag k="addr:street" v="Hollands Avenue"/>
    <tag k="source" v="survey"/>
  </node>
  <node id="1159591673" version="2" timestamp="2012-02-13T05:26:02Z" uid="7523" user="inas" changeset="10670291" lat="-33.9101883" lon="151.1475217"/>
  <node id="1159591677" version="1" timestamp="2011-02-18T19:03:31Z" uid="7617" user="Franc" changeset="7325291" lat="-33.9181035" lon="151.1524772">
    <tag k="addr:housenumber" v="12"/>
    <tag k="addr:street" v="Excelsior Parade"/>
    <tag k="source" v="survey"/>
  </node>
  <node id="1159591677" version="2" timestamp="2012-02-13T04:53:52Z" uid="7523" user="inas" changeset="10670222" lat="-33.9181035" lon="151.1524772"/>
  <node id="1159591682" version="1" timestamp="2011-02-18T19:03:31Z" uid="7617" user="Franc" changeset="7325291" lat="-33.9092351" lon="151.1476305">
    <tag k="addr:housenumber" v="33"/>
    <tag k="addr:street" v="South Street"/>
    <tag k="source" v="exrapolation"/>
  </node>
  <node id="1159591682" version="2" timestamp="2011-05-06T09:31:15Z" uid="7617" user="Franc" changeset="8063834" lat="-33.9092351" lon="151.1476305">
    <tag k="addr:housenumber" v="33"/>
    <tag k="addr:street" v="South Street"/>
    <tag k="source" v="extrapolation"/>
  </node>
  <node id="1159591682" version="3" timestamp="2012-02-13T05:26:53Z" uid="7523" user="inas" changeset="10670291" lat="-33.9092351" lon="151.1476305"/>
  <node id="1159591702" version="1" timestamp="2011-02-18T19:03:31Z" uid="7617" user="Franc" changeset="7325291" lat="-33.9102578" lon="151.1476185">
    <tag k="addr:housenumber" v="15"/>
    <tag k="addr:street" v="Hollands Avenue"/>
    <tag k="source" v="exrapolation"/>
  </node>
  <node id="1159591702" version="2" timestamp="2011-05-06T09:30:58Z" uid="7617" user="Franc" changeset="8063834" lat="-33.9102578" lon="151.1476185">
    <tag k="addr:housenumber" v="15"/>
    <tag k="addr:street" v="Hollands Avenue"/>
    <tag k="source" v="extrapolation"/>
  </node>
  <node id="1159591702" version="3" timestamp="2012-02-13T05:25:47Z" uid="7523" user="inas" changeset="10670291" lat="-33.9102578" lon="151.1476185"/>
  <node id="1159591705" version="1" timestamp="2011-02-18T19:03:31Z" uid="7617" user="Franc" changeset="7325291" lat="-33.9080475" lon="151.1484103">
    <tag k="addr:housenumber" v="4"/>
    <tag k="addr:street" v="South Street"/>
    <tag k="source" v="exrapolation"/>
  </node>
  <node id="1159591705" version="2" timestamp="2011-04-26T08:22:04Z" uid="7617" user="Franc" changeset="7972119" lat="-33.9080475" lon="151.1484103">
    <tag k="addr:housenumber" v="4"/>
    <tag k="addr:street" v="South Street"/>
    <tag k="source" v="extrapolation"/>
  </node>
  <node id="1159591705" version="3" timestamp="2012-02-13T05:27:09Z" uid="7523" user="inas" changeset="10670291" lat="-33.9080475" lon="151.1484103"/>
  <node id="1159591706" version="1" timestamp="2011-02-18T19:03:31Z" uid="7617" user="Franc" changeset="7325291" lat="-33.92313" lon="151.1398713">
    <tag k="addr:housenumber" v="29"/>
    <tag k="addr:street" v="Riverview Road"/>
    <tag k="source" v="survey"/>
  </node>
  <node id="1159591706" version="2" timestamp="2012-02-13T04:37:28Z" uid="7523" user="inas" changeset="10670182" lat="-33.92313" lon="151.1398713"/>
  <node id="1159591707" version="1" timestamp="2011-02-18T19:03:31Z" uid="7617" user="Franc" changeset="7325291" lat="-33.9101605" lon="151.148379">
    <tag k="addr:housenumber" v="39"/>
    <tag k="addr:street" v="Pine Street"/>
    <tag k="source" v="exrapolation"/>
  </node>
  <node id="1159591707" version="2" timestamp="2011-05-06T09:31:03Z" uid="7617" user="Franc" changeset="8063834" lat="-33.9101605" lon="151.148379">
    <tag k="addr:housenumber" v="39"/>
    <tag k="addr:street" v="Pine Street"/>
    <tag k="source" v="extrapolation"/>
  </node>
  <node id="1159591707" version="3" timestamp="2012-02-13T05:27:04Z" uid="7523" user="inas" changeset="10670291" lat="-33.9101605" lon="151.148379"/>
  <node id="1159591725" version="1" timestamp="2011-02-18T19:03:32Z" uid="7617" user="Franc" changeset="7325291" lat="-33.9099511" lon="151.148106">
    <tag k="addr:housenumber" v="31"/>
    <tag k="addr:street" v="Pine Street"/>
    <tag k="source" v="survey"/>
  </node>
  <node id="1159591725" version="2" timestamp="2012-02-13T05:26:48Z" uid="7523" user="inas" changeset="10670291" lat="-33.9099511" lon="151.148106"/>
  <node id="1159591732" version="1" timestamp="2011-02-18T19:03:32Z" uid="7617" user="Franc" changeset="7325291" lat="-33.9079821" lon="151.1537167">
    <tag k="addr:housenumber" v="15"/>
    <tag k="addr:street" v="Lilydale Street"/>
    <tag k="source" v="exrapolation"/>
  </node>
  <node id="1159591732" version="2" timestamp="2011-04-23T12:54:21Z" uid="7617" user="Franc" changeset="7943317" lat="-33.9079821" lon="151.1537167">
    <tag k="addr:housenumber" v="15"/>
    <tag k="addr:street" v="Lilydale Street"/>
    <tag k="source" v="extrapolation"/>
  </node>
  <node id="1159591732" version="3" timestamp="2012-02-13T05:25:47Z" uid="7523" user="inas" changeset="10670291" lat="-33.9079821" lon="151.1537167"/>
  <node id="1159591737" version="1" timestamp="2011-02-18T19:03:32Z" uid="7617" user="Franc" changeset="7325291" lat="-33.9233198" lon="151.1367453"/>
  <node id="1159591740" version="1" timestamp="2011-02-18T19:03:32Z" uid="7617" user="Franc" changeset="7325291" lat="-33.9092351" lon="151.1478631">
    <tag k="addr:housenumber" v="32"/>
    <tag k="addr:street" v="South Street"/>
    <tag k="source" v="survey"/>
  </node>
  <node id="1159591740" version="2" timestamp="2012-02-13T05:26:51Z" uid="7523" user="inas" changeset="10670291" lat="-33.9092351" lon="151.1478631"/>
  <node id="1159591742" version="1" timestamp="2011-02-18T19:03:32Z" uid="7617" user="Franc" changeset="7325291" lat="-33.910406" lon="151.1478233">
    <tag k="addr:housenumber" v="7"/>
    <tag k="addr:street" v="Hollands Avenue"/>
    <tag k="source" v="survey"/>
  </node>
  <node id="1159591742" version="2" timestamp="2012-02-13T05:27:54Z" uid="7523" user="inas" changeset="10670291" lat="-33.910406" lon="151.1478233"/>
  <node id="1159591758" version="1" timestamp="2011-02-18T19:03:32Z" uid="7617" user="Franc" changeset="7325291" lat="-33.9092299" lon="151.1506457">
    <tag k="addr:housenumber" v="10"/>
    <tag k="addr:street" v="David Street"/>
    <tag k="source" v="exrapolation"/>
  </node>
  <node id="1159591758" version="2" timestamp="2011-04-26T08:21:59Z" uid="7617" user="Franc" changeset="7972119" lat="-33.9092299" lon="151.1506457">
    <tag k="addr:housenumber" v="10"/>
    <tag k="addr:street" v="David Street"/>
    <tag k="source" v="extrapolation"/>
  </node>
  <node id="1159591758" version="3" timestamp="2012-02-13T05:25:17Z" uid="7523" user="inas" changeset="10670291" lat="-33.9092299" lon="151.1506457"/>
  <node id="1159591762" version="1" timestamp="2011-02-18T19:03:32Z" uid="7617" user="Franc" changeset="7325291" lat="-33.9076184" lon="151.1538087">
    <tag k="addr:housenumber" v="25"/>
    <tag k="addr:street" v="Lilydale Street"/>
    <tag k="source" v="exrapolation"/>
  </node>
  <node id="1159591762" version="2" timestamp="2011-04-23T12:55:02Z" uid="7617" user="Franc" changeset="7943317" lat="-33.9076184" lon="151.1538087">
    <tag k="addr:housenumber" v="25"/>
    <tag k="addr:street" v="Lilydale Street"/>
    <tag k="source" v="extrapolation"/>
  </node>
  <node id="1159591762" version="3" timestamp="2012-02-13T05:26:29Z" uid="7523" user="inas" changeset="10670291" lat="-33.9076184" lon="151.1538087"/>
  <node id="1159591766" version="1" timestamp="2011-02-18T19:03:32Z" uid="7617" user="Franc" changeset="7325291" lat="-33.9223072" lon="151.1376609"/>
  <node id="1159591766" version="2" timestamp="2012-02-13T12:31:41Z" uid="7523" user="inas" changeset="10672719" lat="-33.9223072" lon="151.1376609"/>
  <node id="1159591769" version="1" timestamp="2011-02-18T19:03:32Z" uid="7617" user="Franc" changeset="7325291" lat="-33.9089939" lon="151.1508371">
    <tag k="addr:housenumber" v="6"/>
    <tag k="addr:street" v="David Street"/>
    <tag k="source" v="exrapolation"/>
  </node>
  <node id="1159591769" version="2" timestamp="2011-04-26T08:22:03Z" uid="7617" user="Franc" changeset="7972119" lat="-33.9089939" lon="151.1508371">
    <tag k="addr:housenumber" v="6"/>
    <tag k="addr:street" v="David Street"/>
    <tag k="source" v="extrapolation"/>
  </node>
  <node id="1159591769" version="3" timestamp="2012-02-13T05:27:41Z" uid="7523" user="inas" changeset="10670291" lat="-33.9089939" lon="151.1508371"/>
  <node id="1159591787" version="1" timestamp="2011-02-18T19:03:33Z" uid="7617" user="Franc" changeset="7325291" lat="-33.9099932" lon="151.1474874">
    <tag k="addr:housenumber" v="54"/>
    <tag k="addr:street" v="Hollands Avenue"/>
    <tag k="source" v="survey"/>
  </node>
  <node id="1159591787" version="2" timestamp="2012-02-13T05:27:35Z" uid="7523" user="inas" changeset="10670291" lat="-33.9099932" lon="151.1474874"/>
  <node id="1159591790" version="1" timestamp="2011-02-18T19:03:33Z" uid="7617" user="Franc" changeset="7325291" lat="-33.9179651" lon="151.152584">
    <tag k="addr:housenumber" v="8"/>
    <tag k="addr:street" v="Excelsior Parade"/>
    <tag k="source" v="exrapolation"/>
  </node>
  <node id="1159591790" version="2" timestamp="2011-05-29T08:32:35Z" uid="7617" user="Franc" changeset="8278454" lat="-33.9179651" lon="151.152584">
    <tag k="addr:housenumber" v="8"/>
    <tag k="addr:street" v="Excelsior Parade"/>
    <tag k="source" v="extrapolation"/>
  </node>
  <node id="1159591790" version="3" timestamp="2012-02-13T04:54:16Z" uid="7523" user="inas" changeset="10670222" lat="-33.9179651" lon="151.152584"/>
  <node id="1159591793" version="1" timestamp="2011-02-18T19:03:33Z" uid="7617" user="Franc" changeset="7325291" lat="-33.9074224" lon="151.153723">
    <tag k="addr:housenumber" v="28"/>
    <tag k="addr:street" v="Lilydale Street"/>
    <tag k="source" v="survey"/>
  </node>
  <node id="1159591793" version="2" timestamp="2012-02-13T05:26:37Z" uid="7523" user="inas" changeset="10670291" lat="-33.9074224" lon="151.153723"/>
  <node id="1159591797" version="1" timestamp="2011-02-18T19:03:33Z" uid="7617" user="Franc" changeset="7325291" lat="-33.9212326" lon="151.1429587">
    <tag k="addr:housenumber" v="1"/>
    <tag k="addr:street" v="Wharf Street"/>
    <tag k="source" v="survey"/>
  </node>
  <node id="1159591797" version="2" timestamp="2012-02-13T04:53:51Z" uid="7523" user="inas" changeset="10670222" lat="-33.9212326" lon="151.1429587"/>
  <node id="1159591821" version="1" timestamp="2011-02-18T19:03:33Z" uid="7617" user="Franc" changeset="7325291" lat="-33.9087335" lon="151.1480908">
    <tag k="addr:housenumber" v="20"/>
    <tag k="addr:street" v="South Street"/>
    <tag k="source" v="exrapolation"/>
  </node>
  <node id="1159591821" version="2" timestamp="2011-04-26T08:22:01Z" uid="7617" user="Franc" changeset="7972119" lat="-33.9087335" lon="151.1480908">
    <tag k="addr:housenumber" v="20"/>
    <tag k="addr:street" v="South Street"/>
    <tag k="source" v="extrapolation"/>
  </node>
  <node id="1159591821" version="3" timestamp="2012-02-13T05:26:12Z" uid="7523" user="inas" changeset="10670291" lat="-33.9087335" lon="151.1480908"/>
  <node id="1159591825" version="1" timestamp="2011-02-18T19:03:33Z" uid="7617" user="Franc" changeset="7325291" lat="-33.9177427" lon="151.152453">
    <tag k="addr:housenumber" v="11"/>
    <tag k="addr:street" v="Excelsior Parade"/>
    <tag k="source" v="exrapolation"/>
  </node>
  <node id="1159591825" version="2" timestamp="2011-05-29T08:32:11Z" uid="7617" user="Franc" changeset="8278454" lat="-33.9177427" lon="151.152453">
    <tag k="addr:housenumber" v="11"/>
    <tag k="addr:street" v="Excelsior Parade"/>
    <tag k="source" v="extrapolation"/>
  </node>
  <node id="1159591825" version="3" timestamp="2012-02-13T04:53:52Z" uid="7523" user="inas" changeset="10670222" lat="-33.9177427" lon="151.152453"/>
  <node id="1159591828" version="1" timestamp="2011-02-18T19:03:33Z" uid="7617" user="Franc" changeset="7325291" lat="-33.9102024" lon="151.1483197">
    <tag k="addr:housenumber" v="41"/>
    <tag k="addr:street" v="Pine Street"/>
    <tag k="source" v="exrapolation"/>
  </node>
  <node id="1159591828" version="2" timestamp="2011-05-06T09:31:02Z" uid="7617" user="Franc" changeset="8063834" lat="-33.9102024" lon="151.1483197">
    <tag k="addr:housenumber" v="41"/>
    <tag k="addr:street" v="Pine Street"/>
    <tag k="source" v="extrapolation"/>
  </node>
  <node id="1159591828" version="3" timestamp="2012-02-13T05:27:12Z" uid="7523" user="inas" changeset="10670291" lat="-33.9102024" lon="151.1483197"/>
  <node id="1159591829" version="1" timestamp="2011-02-18T19:03:33Z" uid="7617" user="Franc" changeset="7325291" lat="-33.9095431" lon="151.1503882">
    <tag k="addr:housenumber" v="16"/>
    <tag k="addr:street" v="David Street"/>
    <tag k="source" v="exrapolation"/>
  </node>
  <node id="1159591829" version="2" timestamp="2011-04-26T08:22:05Z" uid="7617" user="Franc" changeset="7972119" lat="-33.9095431" lon="151.1503882">
    <tag k="addr:housenumber" v="16"/>
    <tag k="addr:street" v="David Street"/>
    <tag k="source" v="extrapolation"/>
  </node>
  <node id="1159591829" version="3" timestamp="2012-02-13T05:25:50Z" uid="7523" user="inas" changeset="10670291" lat="-33.9095431" lon="151.1503882"/>
  <node id="1159591844" version="1" timestamp="2011-02-18T19:03:33Z" uid="7617" user="Franc" changeset="7325291" lat="-33.9080497" lon="151.1536916">
    <tag k="addr:housenumber" v="13"/>
    <tag k="addr:street" v="Lilydale Street"/>
    <tag k="source" v="exrapolation"/>
  </node>
  <node id="1159591844" version="2" timestamp="2011-04-23T12:54:24Z" uid="7617" user="Franc" changeset="7943317" lat="-33.9080497" lon="151.1536916">
    <tag k="addr:housenumber" v="13"/>
    <tag k="addr:street" v="Lilydale Street"/>
    <tag k="source" v="extrapolation"/>
  </node>
  <node id="1159591844" version="3" timestamp="2012-02-13T05:25:38Z" uid="7523" user="inas" changeset="10670291" lat="-33.9080497" lon="151.1536916"/>
  <node id="1159591848" version="1" timestamp="2011-02-18T19:03:33Z" uid="7617" user="Franc" changeset="7325291" lat="-33.9177746" lon="151.1524308">
    <tag k="addr:housenumber" v="13"/>
    <tag k="addr:street" v="Excelsior Parade"/>
    <tag k="source" v="exrapolation"/>
  </node>
  <node id="1159591848" version="2" timestamp="2011-05-29T08:33:02Z" uid="7617" user="Franc" changeset="8278454" lat="-33.9177746" lon="151.1524308">
    <tag k="addr:housenumber" v="13"/>
    <tag k="addr:street" v="Excelsior Parade"/>
    <tag k="source" v="extrapolation"/>
  </node>
  <node id="1159591848" version="3" timestamp="2012-02-13T04:53:53Z" uid="7523" user="inas" changeset="10670222" lat="-33.9177746" lon="151.1524308"/>
  <node id="1159591852" version="1" timestamp="2011-02-18T19:03:33Z" uid="7617" user="Franc" changeset="7325291" lat="-33.9093134" lon="151.1475975">
    <tag k="addr:housenumber" v="35"/>
    <tag k="addr:street" v="South Street"/>
    <tag k="source" v="survey"/>
  </node>
  <node id="1159591852" version="2" timestamp="2012-02-13T05:26:57Z" uid="7523" user="inas" changeset="10670291" lat="-33.9093134" lon="151.1475975"/>
  <node id="1159591855" version="1" timestamp="2011-02-18T19:03:33Z" uid="7617" user="Franc" changeset="7325291" lat="-33.9090055" lon="151.1477402">
    <tag k="addr:housenumber" v="29"/>
    <tag k="addr:street" v="South Street"/>
    <tag k="source" v="exrapolation"/>
  </node>
  <node id="1159591855" version="2" timestamp="2011-04-26T08:21:59Z" uid="7617" user="Franc" changeset="7972119" lat="-33.9090055" lon="151.1477402">
    <tag k="addr:housenumber" v="29"/>
    <tag k="addr:street" v="South Street"/>
    <tag k="source" v="extrapolation"/>
  </node>
  <node id="1159591855" version="3" timestamp="2012-02-13T05:26:40Z" uid="7523" user="inas" changeset="10670291" lat="-33.9090055" lon="151.1477402"/>
  <node id="1159591864" version="1" timestamp="2011-02-18T19:03:34Z" uid="7617" user="Franc" changeset="7325291" lat="-33.9210926" lon="151.1426948">
    <tag k="addr:housenumber" v="1e"/>
    <tag k="addr:street" v="Wharf Street"/>
    <tag k="source" v="exrapolation"/>
  </node>
  <node id="1159591864" version="2" timestamp="2011-05-29T08:32:38Z" uid="7617" user="Franc" changeset="8278454" lat="-33.9210926" lon="151.1426948">
    <tag k="addr:housenumber" v="1e"/>
    <tag k="addr:street" v="Wharf Street"/>
    <tag k="source" v="extrapolation"/>
  </node>
  <node id="1159591864" version="3" timestamp="2012-02-13T04:53:57Z" uid="7523" user="inas" changeset="10670222" lat="-33.9210926" lon="151.1426948"/>
  <node id="1159591866" version="1" timestamp="2011-02-18T19:03:34Z" uid="7617" user="Franc" changeset="7325291" lat="-33.908246" lon="151.1483178">
    <tag k="addr:housenumber" v="10"/>
    <tag k="addr:street" v="South Street"/>
    <tag k="source" v="exrapolation"/>
  </node>
  <node id="1159591866" version="2" timestamp="2011-04-26T08:22:03Z" uid="7617" user="Franc" changeset="7972119" lat="-33.908246" lon="151.1483178">
    <tag k="addr:housenumber" v="10"/>
    <tag k="addr:street" v="South Street"/>
    <tag k="source" v="extrapolation"/>
  </node>
  <node id="1159591866" version="3" timestamp="2012-02-13T05:25:19Z" uid="7523" user="inas" changeset="10670291" lat="-33.908246" lon="151.1483178"/>
  <node id="1159591870" version="1" timestamp="2011-02-18T19:03:34Z" uid="7617" user="Franc" changeset="7325291" lat="-33.90945" lon="151.1475251">
    <tag k="addr:housenumber" v="39"/>
    <tag k="addr:street" v="South Street"/>
    <tag k="source" v="survey"/>
  </node>
  <node id="1159591870" version="2" timestamp="2012-02-13T05:27:04Z" uid="7523" user="inas" changeset="10670291" lat="-33.90945" lon="151.1475251"/>
  <node id="1159591874" version="1" timestamp="2011-02-18T19:03:34Z" uid="7617" user="Franc" changeset="7325291" lat="-33.9085108" lon="151.1535661">
    <tag k="addr:housenumber" v="3"/>
    <tag k="addr:street" v="Lilydale Street"/>
    <tag k="source" v="survey"/>
  </node>
  <node id="1159591874" version="2" timestamp="2012-02-13T05:26:43Z" uid="7523" user="inas" changeset="10670291" lat="-33.9085108" lon="151.1535661"/>
  <node id="1159591892" version="1" timestamp="2011-02-18T19:03:34Z" uid="7617" user="Franc" changeset="7325291" lat="-33.9234893" lon="151.1406233">
    <tag k="addr:housenumber" v="17"/>
    <tag k="addr:street" v="Riverview Road"/>
    <tag k="source" v="survey"/>
  </node>
  <node id="1159591892" version="2" timestamp="2012-02-13T04:37:27Z" uid="7523" user="inas" changeset="10670182" lat="-33.9234893" lon="151.1406233"/>
  <node id="1159591897" version="1" timestamp="2011-02-18T19:03:34Z" uid="7617" user="Franc" changeset="7325291" lat="-33.9089835" lon="151.1505867">
    <tag k="addr:housenumber" v="5"/>
    <tag k="addr:street" v="David Street"/>
    <tag k="source" v="survey"/>
  </node>
  <node id="1159591897" version="2" timestamp="2012-02-13T05:27:27Z" uid="7523" user="inas" changeset="10670291" lat="-33.9089835" lon="151.1505867"/>
  <node id="1159591902" version="1" timestamp="2011-02-18T19:03:34Z" uid="7617" user="Franc" changeset="7325291" lat="-33.9093412" lon="151.1502889">
    <tag k="addr:housenumber" v="11"/>
    <tag k="addr:street" v="David Street"/>
    <tag k="source" v="exrapolation"/>
  </node>
  <node id="1159591902" version="2" timestamp="2011-04-26T08:22:04Z" uid="7617" user="Franc" changeset="7972119" lat="-33.9093412" lon="151.1502889">
    <tag k="addr:housenumber" v="11"/>
    <tag k="addr:street" v="David Street"/>
    <tag k="source" v="extrapolation"/>
  </node>
  <node id="1159591902" version="3" timestamp="2012-02-13T05:25:26Z" uid="7523" user="inas" changeset="10670291" lat="-33.9093412" lon="151.1502889"/>
  <node id="1159591907" version="1" timestamp="2011-02-18T19:03:34Z" uid="7617" user="Franc" changeset="7325291" lat="-33.9080601" lon="151.1481704">
    <tag k="addr:housenumber" v="1"/>
    <tag k="addr:street" v="South Street"/>
    <tag k="source" v="exrapolation"/>
  </node>
  <node id="1159591907" version="2" timestamp="2011-04-26T08:22:04Z" uid="7617" user="Franc" changeset="7972119" lat="-33.9080601" lon="151.1481704">
    <tag k="addr:housenumber" v="1"/>
    <tag k="addr:street" v="South Street"/>
    <tag k="source" v="extrapolation"/>
  </node>
  <node id="1159591907" version="3" timestamp="2012-02-13T05:25:15Z" uid="7523" user="inas" changeset="10670291" lat="-33.9080601" lon="151.1481704"/>
  <node id="1159591923" version="1" timestamp="2011-02-18T19:03:35Z" uid="7617" user="Franc" changeset="7325291" lat="-33.9083632" lon="151.1536017">
    <tag k="addr:housenumber" v="5"/>
    <tag k="addr:street" v="Lilydale Street"/>
    <tag k="source" v="survey"/>
  </node>
  <node id="1159591923" version="2" timestamp="2012-02-13T05:27:28Z" uid="7523" user="inas" changeset="10670291" lat="-33.9083632" lon="151.1536017"/>
  <node id="1159591928" version="1" timestamp="2011-02-18T19:03:35Z" uid="7617" user="Franc" changeset="7325291" lat="-33.9081646" lon="151.1483558">
    <tag k="addr:housenumber" v="8"/>
    <tag k="addr:street" v="South Street"/>
    <tag k="source" v="exrapolation"/>
  </node>
  <node id="1159591928" version="2" timestamp="2011-04-26T08:22:01Z" uid="7617" user="Franc" changeset="7972119" lat="-33.9081646" lon="151.1483558">
    <tag k="addr:housenumber" v="8"/>
    <tag k="addr:street" v="South Street"/>
    <tag k="source" v="extrapolation"/>
  </node>
  <node id="1159591928" version="3" timestamp="2012-02-13T05:28:07Z" uid="7523" user="inas" changeset="10670291" lat="-33.9081646" lon="151.1483558"/>
  <node id="1159591934" version="1" timestamp="2011-02-18T19:03:35Z" uid="7617" user="Franc" changeset="7325291" lat="-33.9097494" lon="151.1501199">
    <tag k="addr:housenumber" v="22"/>
    <tag k="addr:street" v="David Street"/>
    <tag k="source" v="exrapolation"/>
  </node>
  <node id="1159591934" version="2" timestamp="2011-04-26T08:22:00Z" uid="7617" user="Franc" changeset="7972119" lat="-33.9097494" lon="151.1501199">
    <tag k="addr:housenumber" v="22"/>
    <tag k="addr:street" v="David Street"/>
    <tag k="source" v="extrapolation"/>
  </node>
  <node id="1159591934" version="3" timestamp="2012-02-13T05:26:18Z" uid="7523" user="inas" changeset="10670291" lat="-33.9097494" lon="151.1501199"/>
  <node id="1159591940" version="1" timestamp="2011-02-18T19:03:35Z" uid="7617" user="Franc" changeset="7325291" lat="-33.9169409" lon="151.1521765">
    <tag k="addr:housenumber" v="79"/>
    <tag k="addr:street" v="Warren Road"/>
    <tag k="source" v="survey"/>
  </node>
  <node id="1159591940" version="2" timestamp="2012-02-13T04:54:16Z" uid="7523" user="inas" changeset="10670222" lat="-33.9169409" lon="151.1521765"/>
  <node id="1159591956" version="1" timestamp="2011-02-18T19:03:35Z" uid="7617" user="Franc" changeset="7325291" lat="-33.9087888" lon="151.1480651">
    <tag k="addr:housenumber" v="22"/>
    <tag k="addr:street" v="South Street"/>
    <tag k="source" v="survey"/>
  </node>
  <node id="1159591956" version="2" timestamp="2012-02-13T05:26:19Z" uid="7523" user="inas" changeset="10670291" lat="-33.9087888" lon="151.1480651"/>
  <node id="1159591959" version="1" timestamp="2011-02-18T19:03:35Z" uid="7617" user="Franc" changeset="7325291" lat="-33.9103257" lon="151.1477144">
    <tag k="addr:housenumber" v="11"/>
    <tag k="addr:street" v="Hollands Avenue"/>
    <tag k="source" v="exrapolation"/>
  </node>
  <node id="1159591959" version="2" timestamp="2011-05-06T09:31:01Z" uid="7617" user="Franc" changeset="8063834" lat="-33.9103257" lon="151.1477144">
    <tag k="addr:housenumber" v="11"/>
    <tag k="addr:street" v="Hollands Avenue"/>
    <tag k="source" v="extrapolation"/>
  </node>
  <node id="1159591959" version="3" timestamp="2012-02-13T05:25:26Z" uid="7523" user="inas" changeset="10670291" lat="-33.9103257" lon="151.1477144"/>
  <node id="1159591964" version="1" timestamp="2011-02-18T19:03:35Z" uid="7617" user="Franc" changeset="7325291" lat="-33.9102896" lon="151.1476629">
    <tag k="addr:housenumber" v="13"/>
    <tag k="addr:street" v="Hollands Avenue"/>
    <tag k="source" v="exrapolation"/>
  </node>
  <node id="1159591964" version="2" timestamp="2011-05-06T09:31:09Z" uid="7617" user="Franc" changeset="8063834" lat="-33.9102896" lon="151.1476629">
    <tag k="addr:housenumber" v="13"/>
    <tag k="addr:street" v="Hollands Avenue"/>
    <tag k="source" v="extrapolation"/>
  </node>
  <node id="1159591964" version="3" timestamp="2012-02-13T05:25:38Z" uid="7523" user="inas" changeset="10670291" lat="-33.9102896" lon="151.1476629"/>
  <node id="1159591968" version="1" timestamp="2011-02-18T19:03:35Z" uid="7617" user="Franc" changeset="7325291" lat="-33.9088707" lon="151.1506708">
    <tag k="addr:housenumber" v="3"/>
    <tag k="addr:street" v="David Street"/>
    <tag k="source" v="survey"/>
  </node>
  <node id="1159591968" version="2" timestamp="2012-02-13T05:26:42Z" uid="7523" user="inas" changeset="10670291" lat="-33.9088707" lon="151.1506708"/>
  <node id="1159591979" version="1" timestamp="2011-02-18T19:03:35Z" uid="7617" user="Franc" changeset="7325291" lat="-33.9092225" lon="151.1504037">
    <tag k="addr:housenumber" v="9"/>
    <tag k="addr:street" v="David Street"/>
    <tag k="source" v="exrapolation"/>
  </node>
  <node id="1159591979" version="2" timestamp="2011-04-26T08:22:02Z" uid="7617" user="Franc" changeset="7972119" lat="-33.9092225" lon="151.1504037">
    <tag k="addr:housenumber" v="9"/>
    <tag k="addr:street" v="David Street"/>
    <tag k="source" v="extrapolation"/>
  </node>
  <node id="1159591979" version="3" timestamp="2012-02-13T05:28:14Z" uid="7523" user="inas" changeset="10670291" lat="-33.9092225" lon="151.1504037"/>
  <node id="1159591982" version="1" timestamp="2011-02-18T19:03:35Z" uid="7617" user="Franc" changeset="7325291" lat="-33.909144" lon="151.1479004">
    <tag k="addr:housenumber" v="30"/>
    <tag k="addr:street" v="South Street"/>
    <tag k="source" v="exrapolation"/>
  </node>
  <node id="1159591982" version="2" timestamp="2011-04-26T08:21:58Z" uid="7617" user="Franc" changeset="7972119" lat="-33.909144" lon="151.1479004">
    <tag k="addr:housenumber" v="30"/>
    <tag k="addr:street" v="South Street"/>
    <tag k="source" v="extrapolation"/>
  </node>
  <node id="1159591982" version="3" timestamp="2012-02-13T05:26:47Z" uid="7523" user="inas" changeset="10670291" lat="-33.909144" lon="151.1479004"/>
  <node id="1159591986" version="1" timestamp="2011-02-18T19:03:36Z" uid="7617" user="Franc" changeset="7325291" lat="-33.9099162" lon="151.1475731">
    <tag k="addr:housenumber" v="58"/>
    <tag k="addr:street" v="Hollands Avenue"/>
    <tag k="source" v="exrapolation"/>
  </node>
  <node id="1159591986" version="2" timestamp="2011-05-06T09:31:15Z" uid="7617" user="Franc" changeset="8063834" lat="-33.9099162" lon="151.1475731">
    <tag k="addr:housenumber" v="58"/>
    <tag k="addr:street" v="Hollands Avenue"/>
    <tag k="source" v="extrapolation"/>
  </node>
  <node id="1159591986" version="3" timestamp="2012-02-13T05:27:39Z" uid="7523" user="inas" changeset="10670291" lat="-33.9099162" lon="151.1475731"/>
  <node id="1159591995" version="1" timestamp="2011-02-18T19:03:36Z" uid="7617" user="Franc" changeset="7325291" lat="-33.9079071" lon="151.1482451">
    <tag k="addr:housenumber" v="1a"/>
    <tag k="addr:street" v="South Street"/>
    <tag k="source" v="survey"/>
  </node>
  <node id="1159591995" version="2" timestamp="2012-02-13T05:26:04Z" uid="7523" user="inas" changeset="10670291" lat="-33.9079071" lon="151.1482451"/>
  <node id="1159591998" version="1" timestamp="2011-02-18T19:03:36Z" uid="7617" user="Franc" changeset="7325291" lat="-33.9198649" lon="151.1428198">
    <tag k="addr:housenumber" v="384"/>
    <tag k="addr:street" v="Livingstone Road"/>
    <tag k="source" v="survey"/>
  </node>
  <node id="1159591998" version="2" timestamp="2012-02-13T04:37:30Z" uid="7523" user="inas" changeset="10670182" lat="-33.9198649" lon="151.1428198"/>
  <node id="1159592003" version="1" timestamp="2011-02-18T19:03:36Z" uid="7617" user="Franc" changeset="7325291" lat="-33.9100366" lon="151.1481924">
    <tag k="addr:housenumber" v="33"/>
    <tag k="addr:street" v="Pine Street"/>
    <tag k="source" v="exrapolation"/>
  </node>
  <node id="1159592003" version="2" timestamp="2011-05-06T09:31:00Z" uid="7617" user="Franc" changeset="8063834" lat="-33.9100366" lon="151.1481924">
    <tag k="addr:housenumber" v="33"/>
    <tag k="addr:street" v="Pine Street"/>
    <tag k="source" v="extrapolation"/>
  </node>
  <node id="1159592003" version="3" timestamp="2012-02-13T05:26:52Z" uid="7523" user="inas" changeset="10670291" lat="-33.9100366" lon="151.1481924"/>
  <node id="1159592008" version="1" timestamp="2011-02-18T19:03:36Z" uid="7617" user="Franc" changeset="7325291" lat="-33.92118" lon="151.1428491">
    <tag k="addr:housenumber" v="1b"/>
    <tag k="addr:street" v="Wharf Street"/>
    <tag k="source" v="survey"/>
  </node>
  <node id="1159592008" version="2" timestamp="2012-02-13T04:53:57Z" uid="7523" user="inas" changeset="10670222" lat="-33.92118" lon="151.1428491"/>
  <node id="1159592016" version="1" timestamp="2011-02-18T19:03:36Z" uid="7617" user="Franc" changeset="7325291" lat="-33.9075248" lon="151.1538317">
    <tag k="addr:housenumber" v="27"/>
    <tag k="addr:street" v="Lilydale Street"/>
    <tag k="source" v="survey"/>
  </node>
  <node id="1159592016" version="2" timestamp="2012-02-13T05:26:36Z" uid="7523" user="inas" changeset="10670291" lat="-33.9075248" lon="151.1538317"/>
  <node id="1159592017" version="1" timestamp="2011-02-18T19:03:36Z" uid="7617" user="Franc" changeset="7325291" lat="-33.9101657" lon="151.1473047">
    <tag k="addr:housenumber" v="44"/>
    <tag k="addr:street" v="Hollands Avenue"/>
    <tag k="source" v="survey"/>
  </node>
  <node id="1159592017" version="2" timestamp="2012-02-13T05:27:17Z" uid="7523" user="inas" changeset="10670291" lat="-33.9101657" lon="151.1473047"/>
  <node id="1159592021" version="1" timestamp="2011-02-18T19:03:36Z" uid="7617" user="Franc" changeset="7325291" lat="-33.9077276" lon="151.1537878">
    <tag k="addr:housenumber" v="23"/>
    <tag k="addr:street" v="Lilydale Street"/>
    <tag k="source" v="exrapolation"/>
  </node>
  <node id="1159592021" version="2" timestamp="2011-04-23T12:54:25Z" uid="7617" user="Franc" changeset="7943317" lat="-33.9077276" lon="151.1537878">
    <tag k="addr:housenumber" v="23"/>
    <tag k="addr:street" v="Lilydale Street"/>
    <tag k="source" v="extrapolation"/>
  </node>
  <node id="1159592021" version="3" timestamp="2012-02-13T05:26:22Z" uid="7523" user="inas" changeset="10670291" lat="-33.9077276" lon="151.1537878"/>
  <node id="1159592026" version="1" timestamp="2011-02-18T19:03:36Z" uid="7617" user="Franc" changeset="7325291" lat="-33.9097109" lon="151.1497711">
    <tag k="addr:housenumber" v="19"/>
    <tag k="addr:street" v="David Street"/>
    <tag k="source" v="survey"/>
  </node>
  <node id="1159592026" version="2" timestamp="2012-02-13T05:26:02Z" uid="7523" user="inas" changeset="10670291" lat="-33.9097109" lon="151.1497711"/>
  <node id="1159592045" version="1" timestamp="2011-02-18T19:03:37Z" uid="7617" user="Franc" changeset="7325291" lat="-33.9091021" lon="151.1476897">
    <tag k="addr:housenumber" v="31"/>
    <tag k="addr:street" v="South Street"/>
    <tag k="source" v="exrapolation"/>
  </node>
  <node id="1159592045" version="2" timestamp="2011-04-26T08:21:59Z" uid="7617" user="Franc" changeset="7972119" lat="-33.9091021" lon="151.1476897">
    <tag k="addr:housenumber" v="31"/>
    <tag k="addr:street" v="South Street"/>
    <tag k="source" v="extrapolation"/>
  </node>
  <node id="1159592045" version="3" timestamp="2012-02-13T05:26:49Z" uid="7523" user="inas" changeset="10670291" lat="-33.9091021" lon="151.1476897"/>
  <node id="1159592047" version="1" timestamp="2011-02-18T19:03:37Z" uid="7617" user="Franc" changeset="7325291" lat="-33.910113" lon="151.1473663">
    <tag k="addr:housenumber" v="48"/>
    <tag k="addr:street" v="Hollands Avenue"/>
    <tag k="source" v="exrapolation"/>
  </node>
  <node id="1159592047" version="2" timestamp="2011-05-06T09:31:04Z" uid="7617" user="Franc" changeset="8063834" lat="-33.910113" lon="151.1473663">
    <tag k="addr:housenumber" v="48"/>
    <tag k="addr:street" v="Hollands Avenue"/>
    <tag k="source" v="extrapolation"/>
  </node>
  <node id="1159592047" version="3" timestamp="2012-02-13T05:27:24Z" uid="7523" user="inas" changeset="10670291" lat="-33.910113" lon="151.1473663"/>
  <node id="1159592049" version="1" timestamp="2011-02-18T19:03:37Z" uid="7617" user="Franc" changeset="7325291" lat="-33.9086439" lon="151.1481325">
    <tag k="addr:housenumber" v="18"/>
    <tag k="addr:street" v="South Street"/>
    <tag k="source" v="exrapolation"/>
  </node>
  <node id="1159592049" version="2" timestamp="2011-04-26T08:22:03Z" uid="7617" user="Franc" changeset="7972119" lat="-33.9086439" lon="151.1481325">
    <tag k="addr:housenumber" v="18"/>
    <tag k="addr:street" v="South Street"/>
    <tag k="source" v="extrapolation"/>
  </node>
  <node id="1159592049" version="3" timestamp="2012-02-13T05:25:59Z" uid="7523" user="inas" changeset="10670291" lat="-33.9086439" lon="151.1481325"/>
  <node id="1159592050" version="1" timestamp="2011-02-18T19:03:37Z" uid="7617" user="Franc" changeset="7325291" lat="-33.9176935" lon="151.1524906">
    <tag k="addr:housenumber" v="9"/>
    <tag k="addr:street" v="Excelsior Parade"/>
    <tag k="source" v="exrapolation"/>
  </node>
  <node id="1159592050" version="2" timestamp="2011-05-29T08:32:27Z" uid="7617" user="Franc" changeset="8278454" lat="-33.9176935" lon="151.1524906">
    <tag k="addr:housenumber" v="9"/>
    <tag k="addr:street" v="Excelsior Parade"/>
    <tag k="source" v="extrapolation"/>
  </node>
  <node id="1159592050" version="3" timestamp="2012-02-13T04:54:18Z" uid="7523" user="inas" changeset="10670222" lat="-33.9176935" lon="151.1524906"/>
  <node id="1159592066" version="1" timestamp="2011-02-18T19:03:37Z" uid="7617" user="Franc" changeset="7325291" lat="-33.9110173" lon="151.1484489">
    <tag k="addr:housenumber" v="4"/>
    <tag k="addr:street" v="Hollands Avenue"/>
    <tag k="source" v="survey"/>
  </node>
  <node id="1159592066" version="2" timestamp="2012-02-13T05:27:07Z" uid="7523" user="inas" changeset="10670291" lat="-33.9110173" lon="151.1484489"/>
  <node id="1159592068" version="1" timestamp="2011-02-18T19:03:37Z" uid="7617" user="Franc" changeset="7325291" lat="-33.9179113" lon="151.1523123">
    <tag k="addr:housenumber" v="17"/>
    <tag k="addr:street" v="Excelsior Parade"/>
    <tag k="source" v="survey"/>
  </node>
  <node id="1159592068" version="2" timestamp="2012-02-13T04:53:55Z" uid="7523" user="inas" changeset="10670222" lat="-33.9179113" lon="151.1523123"/>
  <node id="1159592072" version="1" timestamp="2011-02-18T19:03:37Z" uid="7617" user="Franc" changeset="7325291" lat="-33.9081155" lon="151.1536749">
    <tag k="addr:housenumber" v="11"/>
    <tag k="addr:street" v="Lilydale Street"/>
    <tag k="source" v="exrapolation"/>
  </node>
  <node id="1159592072" version="2" timestamp="2011-04-23T12:54:28Z" uid="7617" user="Franc" changeset="7943317" lat="-33.9081155" lon="151.1536749">
    <tag k="addr:housenumber" v="11"/>
    <tag k="addr:street" v="Lilydale Street"/>
    <tag k="source" v="extrapolation"/>
  </node>
  <node id="1159592072" version="3" timestamp="2012-02-13T05:25:26Z" uid="7523" user="inas" changeset="10670291" lat="-33.9081155" lon="151.1536749"/>
  <node id="1159592081" version="1" timestamp="2011-02-18T19:03:37Z" uid="7617" user="Franc" changeset="7325291" lat="-33.9233629" lon="151.1366169"/>
  <node id="1159592083" version="1" timestamp="2011-02-18T19:03:37Z" uid="7617" user="Franc" changeset="7325291" lat="-33.9104328" lon="151.1478607">
    <tag k="addr:housenumber" v="5"/>
    <tag k="addr:street" v="Hollands Avenue"/>
    <tag k="source" v="survey"/>
  </node>
  <node id="1159592083" version="2" timestamp="2012-02-13T05:27:27Z" uid="7523" user="inas" changeset="10670291" lat="-33.9104328" lon="151.1478607"/>
  <node id="1159592092" version="1" timestamp="2011-02-18T19:03:38Z" uid="7617" user="Franc" changeset="7325291" lat="-33.9093442" lon="151.1505563">
    <tag k="addr:housenumber" v="12"/>
    <tag k="addr:street" v="David Street"/>
    <tag k="source" v="exrapolation"/>
  </node>
  <node id="1159592092" version="2" timestamp="2011-04-26T08:22:04Z" uid="7617" user="Franc" changeset="7972119" lat="-33.9093442" lon="151.1505563">
    <tag k="addr:housenumber" v="12"/>
    <tag k="addr:street" v="David Street"/>
    <tag k="source" v="extrapolation"/>
  </node>
  <node id="1159592092" version="3" timestamp="2012-02-13T05:25:32Z" uid="7523" user="inas" changeset="10670291" lat="-33.9093442" lon="151.1505563"/>
  <node id="1159592100" version="1" timestamp="2011-02-18T19:03:38Z" uid="7617" user="Franc" changeset="7325291" lat="-33.9170464" lon="151.1521002">
    <tag k="addr:housenumber" v="84"/>
    <tag k="addr:street" v="Warren Road"/>
    <tag k="source" v="survey"/>
  </node>
  <node id="1159592100" version="2" timestamp="2011-04-24T05:34:53Z" uid="7617" user="Franc" changeset="7949355" lat="-33.9170464" lon="151.1521002">
    <tag k="addr:housenumber" v="84"/>
    <tag k="addr:street" v="Warren Road"/>
    <tag k="source" v="survey"/>
  </node>
  <node id="1159592107" version="1" timestamp="2011-02-18T19:03:38Z" uid="7617" user="Franc" changeset="7325291" lat="-33.9078021" lon="151.1537606">
    <tag k="addr:housenumber" v="21"/>
    <tag k="addr:street" v="Lilydale Street"/>
    <tag k="source" v="exrapolation"/>
  </node>
  <node id="1159592107" version="2" timestamp="2011-04-23T12:54:13Z" uid="7617" user="Franc" changeset="7943317" lat="-33.9078021" lon="151.1537606">
    <tag k="addr:housenumber" v="21"/>
    <tag k="addr:street" v="Lilydale Street"/>
    <tag k="source" v="extrapolation"/>
  </node>
  <node id="1159592107" version="3" timestamp="2012-02-13T05:26:15Z" uid="7523" user="inas" changeset="10670291" lat="-33.9078021" lon="151.1537606"/>
  <node id="1159592111" version="1" timestamp="2011-02-18T19:03:38Z" uid="7617" user="Franc" changeset="7325291" lat="-33.9235985" lon="151.1411784">
    <tag k="addr:housenumber" v="9"/>
    <tag k="addr:street" v="Riverview Road"/>
    <tag k="source" v="survey"/>
  </node>
  <node id="1159592111" version="2" timestamp="2012-02-13T04:37:33Z" uid="7523" user="inas" changeset="10670182" lat="-33.9235985" lon="151.1411784"/>
  <node id="1159592123" version="1" timestamp="2011-02-18T19:03:38Z" uid="7617" user="Franc" changeset="7325291" lat="-33.9102168" lon="151.147561">
    <tag k="addr:housenumber" v="17"/>
    <tag k="addr:street" v="Hollands Avenue"/>
    <tag k="source" v="survey"/>
  </node>
  <node id="1159592123" version="2" timestamp="2012-02-13T05:25:55Z" uid="7523" user="inas" changeset="10670291" lat="-33.9102168" lon="151.147561"/>
  <node id="1159592126" version="1" timestamp="2011-02-18T19:03:38Z" uid="7617" user="Franc" changeset="7325291" lat="-33.9178959" lon="151.1526623">
    <tag k="addr:housenumber" v="6"/>
    <tag k="addr:street" v="Excelsior Parade"/>
    <tag k="source" v="exrapolation"/>
  </node>
  <node id="1159592126" version="2" timestamp="2011-05-29T08:33:07Z" uid="7617" user="Franc" changeset="8278454" lat="-33.9178959" lon="151.1526623">
    <tag k="addr:housenumber" v="6"/>
    <tag k="addr:street" v="Excelsior Parade"/>
    <tag k="source" v="extrapolation"/>
  </node>
  <node id="1159592126" version="3" timestamp="2012-02-13T04:54:11Z" uid="7523" user="inas" changeset="10670222" lat="-33.9178959" lon="151.1526623"/>
  <node id="1159592133" version="1" timestamp="2011-02-18T19:03:38Z" uid="7617" user="Franc" changeset="7325291" lat="-33.9091052" lon="151.1507441">
    <tag k="addr:housenumber" v="8"/>
    <tag k="addr:street" v="David Street"/>
    <tag k="source" v="survey"/>
  </node>
  <node id="1159592133" version="2" timestamp="2012-02-13T05:28:05Z" uid="7523" user="inas" changeset="10670291" lat="-33.9091052" lon="151.1507441"/>
  <node id="1159592139" version="1" timestamp="2011-02-18T19:03:39Z" uid="7617" user="Franc" changeset="7325291" lat="-33.909948" lon="151.1475418">
    <tag k="addr:housenumber" v="56"/>
    <tag k="addr:street" v="Hollands Avenue"/>
    <tag k="source" v="survey"/>
  </node>
  <node id="1159592139" version="2" timestamp="2012-02-13T05:27:37Z" uid="7523" user="inas" changeset="10670291" lat="-33.909948" lon="151.1475418"/>
  <node id="1159592154" version="1" timestamp="2011-02-18T19:03:39Z" uid="7617" user="Franc" changeset="7325291" lat="-33.9234228" lon="151.1404115">
    <tag k="addr:housenumber" v="21"/>
    <tag k="addr:street" v="Riverview Road"/>
    <tag k="source" v="exrapolation"/>
  </node>
  <node id="1159592154" version="2" timestamp="2011-05-29T08:32:56Z" uid="7617" user="Franc" changeset="8278454" lat="-33.9234228" lon="151.1404115">
    <tag k="addr:housenumber" v="21"/>
    <tag k="addr:street" v="Riverview Road"/>
    <tag k="source" v="extrapolation"/>
  </node>
  <node id="1159592154" version="3" timestamp="2012-02-13T04:37:27Z" uid="7523" user="inas" changeset="10670182" lat="-33.9234228" lon="151.1404115"/>
  <node id="1159592158" version="1" timestamp="2011-02-18T19:03:39Z" uid="7617" user="Franc" changeset="7325291" lat="-33.9085582" lon="151.1481725">
    <tag k="addr:housenumber" v="16"/>
    <tag k="addr:street" v="South Street"/>
    <tag k="source" v="exrapolation"/>
  </node>
  <node id="1159592158" version="2" timestamp="2011-04-26T08:22:03Z" uid="7617" user="Franc" changeset="7972119" lat="-33.9085582" lon="151.1481725">
    <tag k="addr:housenumber" v="16"/>
    <tag k="addr:street" v="South Street"/>
    <tag k="source" v="extrapolation"/>
  </node>
  <node id="1159592158" version="3" timestamp="2012-02-13T05:25:52Z" uid="7523" user="inas" changeset="10670291" lat="-33.9085582" lon="151.1481725"/>
  <node id="1159592159" version="1" timestamp="2011-02-18T19:03:39Z" uid="7617" user="Franc" changeset="7325291" lat="-33.9176623" lon="151.1525228">
    <tag k="addr:housenumber" v="7"/>
    <tag k="addr:street" v="Excelsior Parade"/>
    <tag k="source" v="exrapolation"/>
  </node>
  <node id="1159592159" version="2" timestamp="2011-05-29T08:31:45Z" uid="7617" user="Franc" changeset="8278454" lat="-33.9176623" lon="151.1525228">
    <tag k="addr:housenumber" v="7"/>
    <tag k="addr:street" v="Excelsior Parade"/>
    <tag k="source" v="extrapolation"/>
  </node>
  <node id="1159592159" version="3" timestamp="2012-02-13T04:54:15Z" uid="7523" user="inas" changeset="10670222" lat="-33.9176623" lon="151.1525228"/>
  <node id="1159592172" version="1" timestamp="2011-02-18T19:03:39Z" uid="7617" user="Franc" changeset="7325291" lat="-33.9096396" lon="151.1503292">
    <tag k="addr:housenumber" v="18"/>
    <tag k="addr:street" v="David Street"/>
    <tag k="source" v="exrapolation"/>
  </node>
  <node id="1159592172" version="2" timestamp="2011-04-26T08:22:00Z" uid="7617" user="Franc" changeset="7972119" lat="-33.9096396" lon="151.1503292">
    <tag k="addr:housenumber" v="18"/>
    <tag k="addr:street" v="David Street"/>
    <tag k="source" v="extrapolation"/>
  </node>
  <node id="1159592172" version="3" timestamp="2012-02-13T05:25:58Z" uid="7523" user="inas" changeset="10670291" lat="-33.9096396" lon="151.1503292"/>
  <node id="1159592176" version="1" timestamp="2011-02-18T19:03:39Z" uid="7617" user="Franc" changeset="7325291" lat="-33.9084552" lon="151.1535766">
    <tag k="addr:housenumber" v="3a"/>
    <tag k="addr:street" v="Lilydale Street"/>
    <tag k="source" v="survey"/>
  </node>
  <node id="1159592176" version="2" timestamp="2012-02-13T05:27:05Z" uid="7523" user="inas" changeset="10670291" lat="-33.9084552" lon="151.1535766"/>
  <node id="1159592180" version="1" timestamp="2011-02-18T19:03:39Z" uid="7617" user="Franc" changeset="7325291" lat="-33.9236096" lon="151.1412919">
    <tag k="addr:housenumber" v="7"/>
    <tag k="addr:street" v="Riverview Road"/>
    <tag k="source" v="survey"/>
  </node>
  <node id="1159592180" version="2" timestamp="2012-02-13T04:37:32Z" uid="7523" user="inas" changeset="10670182" lat="-33.9236096" lon="151.1412919"/>
  <node id="1159592186" version="1" timestamp="2011-02-18T19:03:39Z" uid="7617" user="Franc" changeset="7325291" lat="-33.9081813" lon="151.1536602">
    <tag k="addr:housenumber" v="9"/>
    <tag k="addr:street" v="Lilydale Street"/>
    <tag k="source" v="exrapolation"/>
  </node>
  <node id="1159592186" version="2" timestamp="2011-04-23T12:54:59Z" uid="7617" user="Franc" changeset="7943317" lat="-33.9081813" lon="151.1536602">
    <tag k="addr:housenumber" v="9"/>
    <tag k="addr:street" v="Lilydale Street"/>
    <tag k="source" v="extrapolation"/>
  </node>
  <node id="1159592186" version="3" timestamp="2012-02-13T05:28:14Z" uid="7523" user="inas" changeset="10670291" lat="-33.9081813" lon="151.1536602"/>
  <node id="1159592204" version="1" timestamp="2011-02-18T19:03:40Z" uid="7617" user="Franc" changeset="7325291" lat="-33.917804" lon="151.1527253">
    <tag k="addr:housenumber" v="4"/>
    <tag k="addr:street" v="Excelsior Parade"/>
    <tag k="source" v="survey"/>
  </node>
  <node id="1159592204" version="2" timestamp="2012-02-13T04:54:05Z" uid="7523" user="inas" changeset="10670222" lat="-33.917804" lon="151.1527253"/>
  <node id="1159592210" version="1" timestamp="2011-02-18T19:03:40Z" uid="7617" user="Franc" changeset="7325291" lat="-33.910288" lon="151.1482099">
    <tag k="addr:housenumber" v="45"/>
    <tag k="addr:street" v="Pine Street"/>
    <tag k="source" v="survey"/>
  </node>
  <node id="1159592210" version="2" timestamp="2012-02-13T05:27:19Z" uid="7523" user="inas" changeset="10670291" lat="-33.910288" lon="151.1482099"/>
  <node id="1159592212" version="1" timestamp="2011-02-18T19:03:40Z" uid="7617" user="Franc" changeset="7325291" lat="-33.9211189" lon="151.142741">
    <tag k="addr:housenumber" v="1d"/>
    <tag k="addr:street" v="Wharf Street"/>
    <tag k="source" v="exrapolation"/>
  </node>
  <node id="1159592212" version="2" timestamp="2011-05-29T08:32:00Z" uid="7617" user="Franc" changeset="8278454" lat="-33.9211189" lon="151.142741">
    <tag k="addr:housenumber" v="1d"/>
    <tag k="addr:street" v="Wharf Street"/>
    <tag k="source" v="extrapolation"/>
  </node>
  <node id="1159592212" version="3" timestamp="2012-02-13T04:53:57Z" uid="7523" user="inas" changeset="10670222" lat="-33.9211189" lon="151.142741"/>
  <node id="1159592215" version="1" timestamp="2011-02-18T19:03:40Z" uid="7617" user="Franc" changeset="7325291" lat="-33.9081088" lon="151.1483818">
    <tag k="addr:housenumber" v="6"/>
    <tag k="addr:street" v="South Street"/>
    <tag k="source" v="exrapolation"/>
  </node>
  <node id="1159592215" version="2" timestamp="2011-04-26T08:22:03Z" uid="7617" user="Franc" changeset="7972119" lat="-33.9081088" lon="151.1483818">
    <tag k="addr:housenumber" v="6"/>
    <tag k="addr:street" v="South Street"/>
    <tag k="source" v="extrapolation"/>
  </node>
  <node id="1159592215" version="3" timestamp="2012-02-13T05:27:43Z" uid="7523" user="inas" changeset="10670291" lat="-33.9081088" lon="151.1483818"/>
  <node id="1159592222" version="1" timestamp="2011-02-18T19:03:40Z" uid="7617" user="Franc" changeset="7325291" lat="-33.9101917" lon="151.1473239">
    <tag k="addr:housenumber" v="42"/>
    <tag k="addr:street" v="Hollands Avenue"/>
    <tag k="source" v="exrapolation"/>
  </node>
  <node id="1159592222" version="2" timestamp="2011-05-06T09:31:16Z" uid="7617" user="Franc" changeset="8063834" lat="-33.9101917" lon="151.1473239">
    <tag k="addr:housenumber" v="42"/>
    <tag k="addr:street" v="Hollands Avenue"/>
    <tag k="source" v="extrapolation"/>
  </node>
  <node id="1159592222" version="3" timestamp="2012-02-13T05:27:14Z" uid="7523" user="inas" changeset="10670291" lat="-33.9101917" lon="151.1473239"/>
  <node id="1159592227" version="1" timestamp="2011-02-18T19:03:40Z" uid="7617" user="Franc" changeset="7325291" lat="-33.9221488" lon="151.1372203">
    <tag k="addr:housenumber" v="67"/>
    <tag k="addr:street" v="Riverview Road"/>
    <tag k="source" v="survey"/>
  </node>
  <node id="1159592227" version="2" timestamp="2012-02-13T04:37:32Z" uid="7523" user="inas" changeset="10670182" lat="-33.9221488" lon="151.1372203"/>
  <node id="1159592232" version="1" timestamp="2011-02-18T19:03:40Z" uid="7617" user="Franc" changeset="7325291" lat="-33.9103633" lon="151.1477678">
    <tag k="addr:housenumber" v="9"/>
    <tag k="addr:street" v="Hollands Avenue"/>
    <tag k="source" v="exrapolation"/>
  </node>
  <node id="1159592232" version="2" timestamp="2011-05-06T09:30:56Z" uid="7617" user="Franc" changeset="8063834" lat="-33.9103633" lon="151.1477678">
    <tag k="addr:housenumber" v="9"/>
    <tag k="addr:street" v="Hollands Avenue"/>
    <tag k="source" v="extrapolation"/>
  </node>
  <node id="1159592232" version="3" timestamp="2012-02-13T05:28:14Z" uid="7523" user="inas" changeset="10670291" lat="-33.9103633" lon="151.1477678"/>
  <node id="1159592237" version="1" timestamp="2011-02-18T19:03:41Z" uid="7617" user="Franc" changeset="7325291" lat="-33.9232854" lon="151.1401496">
    <tag k="addr:housenumber" v="25"/>
    <tag k="addr:street" v="Riverview Road"/>
    <tag k="source" v="survey"/>
  </node>
  <node id="1159592237" version="2" timestamp="2012-02-13T04:37:27Z" uid="7523" user="inas" changeset="10670182" lat="-33.9232854" lon="151.1401496"/>
  <node id="1159592251" version="1" timestamp="2011-02-18T19:03:41Z" uid="7617" user="Franc" changeset="7325291" lat="-33.9090963" lon="151.1504809">
    <tag k="addr:housenumber" v="7"/>
    <tag k="addr:street" v="David Street"/>
    <tag k="source" v="exrapolation"/>
  </node>
  <node id="1159592251" version="2" timestamp="2011-04-26T08:22:04Z" uid="7617" user="Franc" changeset="7972119" lat="-33.9090963" lon="151.1504809">
    <tag k="addr:housenumber" v="7"/>
    <tag k="addr:street" v="David Street"/>
    <tag k="source" v="extrapolation"/>
  </node>
  <node id="1159592251" version="3" timestamp="2012-02-13T05:27:54Z" uid="7523" user="inas" changeset="10670291" lat="-33.9090963" lon="151.1504809"/>
  <node id="1159592253" version="1" timestamp="2011-02-18T19:03:41Z" uid="7617" user="Franc" changeset="7325291" lat="-33.9100292" lon="151.1474541">
    <tag k="addr:housenumber" v="52"/>
    <tag k="addr:street" v="Hollands Avenue"/>
    <tag k="source" v="exrapolation"/>
  </node>
  <node id="1159592253" version="2" timestamp="2011-05-06T09:31:16Z" uid="7617" user="Franc" changeset="8063834" lat="-33.9100292" lon="151.1474541">
    <tag k="addr:housenumber" v="52"/>
    <tag k="addr:street" v="Hollands Avenue"/>
    <tag k="source" v="extrapolation"/>
  </node>
  <node id="1159592253" version="3" timestamp="2012-02-13T05:27:33Z" uid="7523" user="inas" changeset="10670291" lat="-33.9100292" lon="151.1474541"/>
  <node id="1159592256" version="1" timestamp="2011-02-18T19:03:41Z" uid="7617" user="Franc" changeset="7325291" lat="-33.9212159" lon="151.1429111">
    <tag k="addr:housenumber" v="1a"/>
    <tag k="addr:street" v="Wharf Street"/>
    <tag k="source" v="survey"/>
  </node>
  <node id="1159592256" version="2" timestamp="2012-02-13T04:53:57Z" uid="7523" user="inas" changeset="10670222" lat="-33.9212159" lon="151.1429111"/>
  <node id="1159592258" version="1" timestamp="2011-02-18T19:03:41Z" uid="7617" user="Franc" changeset="7325291" lat="-33.9100803" lon="151.1484931">
    <tag k="addr:housenumber" v="35"/>
    <tag k="addr:street" v="Pine Street"/>
    <tag k="source" v="exrapolation"/>
  </node>
  <node id="1159592258" version="2" timestamp="2011-05-06T09:31:14Z" uid="7617" user="Franc" changeset="8063834" lat="-33.9100803" lon="151.1484931">
    <tag k="addr:housenumber" v="35"/>
    <tag k="addr:street" v="Pine Street"/>
    <tag k="source" v="extrapolation"/>
  </node>
  <node id="1159592258" version="3" timestamp="2012-02-13T05:26:57Z" uid="7523" user="inas" changeset="10670291" lat="-33.9100803" lon="151.1484931"/>
  <node id="1159592270" version="1" timestamp="2011-02-18T19:03:41Z" uid="7617" user="Franc" changeset="7325291" lat="-33.9197851" lon="151.1428749">
    <tag k="addr:housenumber" v="382"/>
    <tag k="addr:street" v="Livingstone Road"/>
    <tag k="source" v="survey"/>
  </node>
  <node id="1159592270" version="2" timestamp="2012-02-13T04:37:30Z" uid="7523" user="inas" changeset="10670182" lat="-33.9197851" lon="151.1428749"/>
  <node id="1159592273" version="1" timestamp="2011-02-18T19:03:41Z" uid="7617" user="Franc" changeset="7325291" lat="-33.9219252" lon="151.136641">
    <tag k="addr:housenumber" v="73"/>
    <tag k="addr:street" v="Riverview Road"/>
    <tag k="source" v="survey"/>
  </node>
  <node id="1159592273" version="2" timestamp="2012-02-13T04:37:32Z" uid="7523" user="inas" changeset="10670182" lat="-33.9219252" lon="151.136641"/>
  <node id="1159592276" version="1" timestamp="2011-02-18T19:03:41Z" uid="7617" user="Franc" changeset="7325291" lat="-33.9235309" lon="151.1407685">
    <tag k="addr:housenumber" v="15"/>
    <tag k="addr:street" v="Riverview Road"/>
    <tag k="source" v="survey"/>
  </node>
  <node id="1159592276" version="2" timestamp="2012-02-13T04:37:27Z" uid="7523" user="inas" changeset="10670182" lat="-33.9235309" lon="151.1407685"/>
  <node id="1159592279" version="1" timestamp="2011-02-18T19:03:41Z" uid="7617" user="Franc" changeset="7325291" lat="-33.9090092" lon="151.1479663">
    <tag k="addr:housenumber" v="26"/>
    <tag k="addr:street" v="South Street"/>
    <tag k="source" v="survey"/>
  </node>
  <node id="1159592279" version="2" timestamp="2012-02-13T05:26:33Z" uid="7523" user="inas" changeset="10670291" lat="-33.9090092" lon="151.1479663"/>
  <node id="1159592293" version="1" timestamp="2011-02-18T19:03:42Z" uid="7617" user="Franc" changeset="7325291" lat="-33.9235512" lon="151.1408378"/>
  <node id="1159592295" version="1" timestamp="2011-02-18T19:03:42Z" uid="7617" user="Franc" changeset="7325291" lat="-33.9079781" lon="151.1484426">
    <tag k="addr:housenumber" v="2"/>
    <tag k="addr:street" v="South Street"/>
    <tag k="source" v="survey"/>
  </node>
  <node id="1159592295" version="2" timestamp="2012-02-13T05:26:09Z" uid="7523" user="inas" changeset="10670291" lat="-33.9079781" lon="151.1484426"/>
  <node id="1159592297" version="1" timestamp="2011-02-18T19:03:42Z" uid="7617" user="Franc" changeset="7325291" lat="-33.9180259" lon="151.1525362">
    <tag k="addr:housenumber" v="10"/>
    <tag k="addr:street" v="Excelsior Parade"/>
    <tag k="source" v="exrapolation"/>
  </node>
  <node id="1159592297" version="2" timestamp="2011-05-29T08:31:50Z" uid="7617" user="Franc" changeset="8278454" lat="-33.9180259" lon="151.1525362">
    <tag k="addr:housenumber" v="10"/>
    <tag k="addr:street" v="Excelsior Parade"/>
    <tag k="source" v="extrapolation"/>
  </node>
  <node id="1159592297" version="3" timestamp="2012-02-13T04:53:51Z" uid="7523" user="inas" changeset="10670222" lat="-33.9180259" lon="151.1525362"/>
  <node id="1159592299" version="1" timestamp="2011-02-18T19:03:42Z" uid="7617" user="Franc" changeset="7325291" lat="-33.910237" lon="151.1482604">
    <tag k="addr:housenumber" v="43"/>
    <tag k="addr:street" v="Pine Street"/>
    <tag k="source" v="exrapolation"/>
  </node>
  <node id="1159592299" version="2" timestamp="2011-05-06T09:30:57Z" uid="7617" user="Franc" changeset="8063834" lat="-33.910237" lon="151.1482604">
    <tag k="addr:housenumber" v="43"/>
    <tag k="addr:street" v="Pine Street"/>
    <tag k="source" v="extrapolation"/>
  </node>
  <node id="1159592299" version="3" timestamp="2012-02-13T05:27:16Z" uid="7523" user="inas" changeset="10670291" lat="-33.910237" lon="151.1482604"/>
  <node id="1159592304" version="1" timestamp="2011-02-18T19:03:42Z" uid="7617" user="Franc" changeset="7325291" lat="-33.9073843" lon="151.1537355">
    <tag k="addr:housenumber" v="28a"/>
    <tag k="addr:street" v="Lilydale Street"/>
    <tag k="source" v="survey"/>
  </node>
  <node id="1159592304" version="2" timestamp="2012-02-13T05:26:39Z" uid="7523" user="inas" changeset="10670291" lat="-33.9073843" lon="151.1537355"/>
  <node id="1159592319" version="1" timestamp="2011-02-18T19:03:42Z" uid="7617" user="Franc" changeset="7325291" lat="-33.9090875" lon="151.1479268">
    <tag k="addr:housenumber" v="28"/>
    <tag k="addr:street" v="South Street"/>
    <tag k="source" v="exrapolation"/>
  </node>
  <node id="1159592319" version="2" timestamp="2011-04-26T08:22:00Z" uid="7617" user="Franc" changeset="7972119" lat="-33.9090875" lon="151.1479268">
    <tag k="addr:housenumber" v="28"/>
    <tag k="addr:street" v="South Street"/>
    <tag k="source" v="extrapolation"/>
  </node>
  <node id="1159592319" version="3" timestamp="2012-02-13T05:26:38Z" uid="7523" user="inas" changeset="10670291" lat="-33.9090875" lon="151.1479268"/>
  <node id="1159592324" version="1" timestamp="2011-02-18T19:03:42Z" uid="7617" user="Franc" changeset="7325291" lat="-33.910077" lon="151.1474097">
    <tag k="addr:housenumber" v="50"/>
    <tag k="addr:street" v="Hollands Avenue"/>
    <tag k="source" v="exrapolation"/>
  </node>
  <node id="1159592324" version="2" timestamp="2011-05-06T09:31:00Z" uid="7617" user="Franc" changeset="8063834" lat="-33.910077" lon="151.1474097">
    <tag k="addr:housenumber" v="50"/>
    <tag k="addr:street" v="Hollands Avenue"/>
    <tag k="source" v="extrapolation"/>
  </node>
  <node id="1159592324" version="3" timestamp="2012-02-13T05:27:30Z" uid="7523" user="inas" changeset="10670291" lat="-33.910077" lon="151.1474097"/>
  <node id="1159592328" version="1" timestamp="2011-02-18T19:03:42Z" uid="7617" user="Franc" changeset="7325291" lat="-33.9176201" lon="151.1525566">
    <tag k="addr:housenumber" v="5"/>
    <tag k="addr:street" v="Excelsior Parade"/>
  </node>
  <node id="1159592328" version="2" timestamp="2012-02-13T04:54:08Z" uid="7523" user="inas" changeset="10670222" lat="-33.9176201" lon="151.1525566"/>
  <node id="1159592331" version="1" timestamp="2011-02-18T19:03:42Z" uid="7617" user="Franc" changeset="7325291" lat="-33.9101241" lon="151.1484316">
    <tag k="addr:housenumber" v="37"/>
    <tag k="addr:street" v="Pine Street"/>
    <tag k="source" v="exrapolation"/>
  </node>
  <node id="1159592331" version="2" timestamp="2011-05-06T09:31:13Z" uid="7617" user="Franc" changeset="8063834" lat="-33.9101241" lon="151.1484316">
    <tag k="addr:housenumber" v="37"/>
    <tag k="addr:street" v="Pine Street"/>
    <tag k="source" v="extrapolation"/>
  </node>
  <node id="1159592331" version="3" timestamp="2012-02-13T05:27:01Z" uid="7523" user="inas" changeset="10670291" lat="-33.9101241" lon="151.1484316"/>
  <node id="1159592344" version="1" timestamp="2011-02-18T19:03:42Z" uid="7617" user="Franc" changeset="7325291" lat="-33.9232156" lon="151.1400315">
    <tag k="addr:housenumber" v="27"/>
    <tag k="addr:street" v="Riverview Road"/>
    <tag k="source" v="exrapolation"/>
  </node>
  <node id="1159592344" version="2" timestamp="2011-05-29T08:31:45Z" uid="7617" user="Franc" changeset="8278454" lat="-33.9232156" lon="151.1400315">
    <tag k="addr:housenumber" v="27"/>
    <tag k="addr:street" v="Riverview Road"/>
    <tag k="source" v="extrapolation"/>
  </node>
  <node id="1159592344" version="3" timestamp="2012-02-13T04:37:27Z" uid="7523" user="inas" changeset="10670182" lat="-33.9232156" lon="151.1400315"/>
  <node id="1159592349" version="1" timestamp="2011-02-18T19:03:42Z" uid="7617" user="Franc" changeset="7325291" lat="-33.9098548" lon="151.1498462">
    <tag k="addr:housenumber" v="26"/>
    <tag k="addr:street" v="David Street"/>
    <tag k="source" v="survey"/>
  </node>
  <node id="1159592349" version="2" timestamp="2012-02-13T05:26:32Z" uid="7523" user="inas" changeset="10670291" lat="-33.9098548" lon="151.1498462"/>
  <node id="1159592354" version="1" timestamp="2011-02-18T19:03:42Z" uid="7617" user="Franc" changeset="7325291" lat="-33.9079181" lon="151.1537334">
    <tag k="addr:housenumber" v="17"/>
    <tag k="addr:street" v="Lilydale Street"/>
    <tag k="source" v="exrapolation"/>
  </node>
  <node id="1159592354" version="2" timestamp="2011-04-23T12:54:06Z" uid="7617" user="Franc" changeset="7943317" lat="-33.9079181" lon="151.1537334">
    <tag k="addr:housenumber" v="17"/>
    <tag k="addr:street" v="Lilydale Street"/>
    <tag k="source" v="extrapolation"/>
  </node>
  <node id="1159592354" version="3" timestamp="2012-02-13T05:25:55Z" uid="7523" user="inas" changeset="10670291" lat="-33.9079181" lon="151.1537334"/>
  <node id="1159592358" version="1" timestamp="2011-02-18T19:03:43Z" uid="7617" user="Franc" changeset="7325291" lat="-33.9093626" lon="151.1475602">
    <tag k="addr:housenumber" v="37"/>
    <tag k="addr:street" v="South Street"/>
    <tag k="source" v="survey"/>
  </node>
  <node id="1159592358" version="2" timestamp="2012-02-13T05:27:01Z" uid="7523" user="inas" changeset="10670291" lat="-33.9093626" lon="151.1475602"/>
  <node id="1159592370" version="1" timestamp="2011-02-18T19:03:43Z" uid="7617" user="Franc" changeset="7325291" lat="-33.9088959" lon="151.1509212">
    <tag k="addr:housenumber" v="4"/>
    <tag k="addr:street" v="David Street"/>
    <tag k="source" v="survey"/>
  </node>
  <node id="1159592370" version="2" timestamp="2012-02-13T05:27:06Z" uid="7523" user="inas" changeset="10670291" lat="-33.9088959" lon="151.1509212"/>
  <node id="1159592375" version="1" timestamp="2011-02-18T19:03:43Z" uid="7617" user="Franc" changeset="7325291" lat="-33.907854" lon="151.153746">
    <tag k="addr:housenumber" v="19"/>
    <tag k="addr:street" v="Lilydale Street"/>
    <tag k="source" v="exrapolation"/>
  </node>
  <node id="1159592375" version="2" timestamp="2011-04-23T12:54:11Z" uid="7617" user="Franc" changeset="7943317" lat="-33.907854" lon="151.153746">
    <tag k="addr:housenumber" v="19"/>
    <tag k="addr:street" v="Lilydale Street"/>
    <tag k="source" v="extrapolation"/>
  </node>
  <node id="1159592375" version="3" timestamp="2012-02-13T05:26:02Z" uid="7523" user="inas" changeset="10670291" lat="-33.907854" lon="151.153746"/>
  <node id="1159592379" version="1" timestamp="2011-02-18T19:03:43Z" uid="7617" user="Franc" changeset="7325291" lat="-33.9096693" lon="151.1498981">
    <tag k="addr:housenumber" v="17"/>
    <tag k="addr:street" v="David Street"/>
    <tag k="source" v="survey"/>
  </node>
  <node id="1159592379" version="2" timestamp="2012-02-13T05:25:54Z" uid="7523" user="inas" changeset="10670291" lat="-33.9096693" lon="151.1498981"/>
  <node id="1159592385" version="1" timestamp="2011-02-18T19:03:43Z" uid="7617" user="Franc" changeset="7325291" lat="-33.9233609" lon="151.1402772">
    <tag k="addr:housenumber" v="23"/>
    <tag k="addr:street" v="Riverview Road"/>
    <tag k="source" v="exrapolation"/>
  </node>
  <node id="1159592385" version="2" timestamp="2011-05-29T08:32:41Z" uid="7617" user="Franc" changeset="8278454" lat="-33.9233609" lon="151.1402772">
    <tag k="addr:housenumber" v="23"/>
    <tag k="addr:street" v="Riverview Road"/>
    <tag k="source" v="extrapolation"/>
  </node>
  <node id="1159592385" version="3" timestamp="2012-02-13T04:37:27Z" uid="7523" user="inas" changeset="10670182" lat="-33.9233609" lon="151.1402772"/>
  <node id="1159592398" version="1" timestamp="2011-02-18T19:03:43Z" uid="7617" user="Franc" changeset="7325291" lat="-33.9084416" lon="151.1482267">
    <tag k="addr:housenumber" v="14"/>
    <tag k="addr:street" v="South Street"/>
    <tag k="source" v="exrapolation"/>
  </node>
  <node id="1159592398" version="2" timestamp="2011-04-26T08:22:00Z" uid="7617" user="Franc" changeset="7972119" lat="-33.9084416" lon="151.1482267">
    <tag k="addr:housenumber" v="14"/>
    <tag k="addr:street" v="South Street"/>
    <tag k="source" v="extrapolation"/>
  </node>
  <node id="1159592398" version="3" timestamp="2012-02-13T05:25:44Z" uid="7523" user="inas" changeset="10670291" lat="-33.9084416" lon="151.1482267"/>
  <node id="1159592402" version="1" timestamp="2011-02-18T19:03:43Z" uid="7617" user="Franc" changeset="7325291" lat="-33.9166802" lon="151.1517053">
    <tag k="addr:housenumber" v="69"/>
    <tag k="addr:street" v="Warren Road"/>
    <tag k="source" v="survey"/>
  </node>
  <node id="1159592402" version="2" timestamp="2012-02-13T04:54:14Z" uid="7523" user="inas" changeset="10670222" lat="-33.9166802" lon="151.1517053"/>
  <node id="1159592405" version="1" timestamp="2011-02-18T19:03:43Z" uid="7617" user="Franc" changeset="7325291" lat="-33.9082644" lon="151.1536351">
    <tag k="addr:housenumber" v="7"/>
    <tag k="addr:street" v="Lilydale Street"/>
    <tag k="source" v="exrapolation"/>
  </node>
  <node id="1159592405" version="2" timestamp="2011-04-23T12:54:57Z" uid="7617" user="Franc" changeset="7943317" lat="-33.9082644" lon="151.1536351">
    <tag k="addr:housenumber" v="7"/>
    <tag k="addr:street" v="Lilydale Street"/>
    <tag k="source" v="extrapolation"/>
  </node>
  <node id="1159592405" version="3" timestamp="2012-02-13T05:27:54Z" uid="7523" user="inas" changeset="10670291" lat="-33.9082644" lon="151.1536351"/>
  <node id="1159592425" version="1" timestamp="2011-02-18T19:03:43Z" uid="7617" user="Franc" changeset="7325291" lat="-33.9178378" lon="151.1523831">
    <tag k="addr:housenumber" v="15"/>
    <tag k="addr:street" v="Excelsior Parade"/>
    <tag k="source" v="exrapolation"/>
  </node>
  <node id="1159592425" version="2" timestamp="2011-05-29T08:32:22Z" uid="7617" user="Franc" changeset="8278454" lat="-33.9178378" lon="151.1523831">
    <tag k="addr:housenumber" v="15"/>
    <tag k="addr:street" v="Excelsior Parade"/>
    <tag k="source" v="extrapolation"/>
  </node>
  <node id="1159592425" version="3" timestamp="2012-02-13T04:53:54Z" uid="7523" user="inas" changeset="10670222" lat="-33.9178378" lon="151.1523831"/>
  <node id="1159592428" version="1" timestamp="2011-02-18T19:03:44Z" uid="7617" user="Franc" changeset="7325291" lat="-33.9094377" lon="151.1504597">
    <tag k="addr:housenumber" v="14"/>
    <tag k="addr:street" v="David Street"/>
    <tag k="source" v="exrapolation"/>
  </node>
  <node id="1159592428" version="2" timestamp="2011-04-26T08:22:04Z" uid="7617" user="Franc" changeset="7972119" lat="-33.9094377" lon="151.1504597">
    <tag k="addr:housenumber" v="14"/>
    <tag k="addr:street" v="David Street"/>
    <tag k="source" v="extrapolation"/>
  </node>
  <node id="1159592428" version="3" timestamp="2012-02-13T05:25:43Z" uid="7523" user="inas" changeset="10670291" lat="-33.9094377" lon="151.1504597"/>
  <node id="1159592430" version="1" timestamp="2011-02-18T19:03:44Z" uid="7617" user="Franc" changeset="7325291" lat="-33.9171246" lon="151.1522423">
    <tag k="addr:housenumber" v="86"/>
    <tag k="addr:street" v="Warren Road"/>
    <tag k="source" v="survey"/>
  </node>
  <node id="1159592430" version="2" timestamp="2011-04-24T05:34:45Z" uid="7617" user="Franc" changeset="7949355" lat="-33.9170425" lon="151.1521019">
    <tag k="addr:housenumber" v="84"/>
    <tag k="addr:street" v="Warren Road"/>
    <tag k="source" v="survey"/>
  </node>
  <node id="1159592430" version="3" timestamp="2012-02-13T04:54:18Z" uid="7523" user="inas" changeset="10670222" lat="-33.9170425" lon="151.1521019"/>
  <node id="1159592435" version="1" timestamp="2011-02-18T19:03:44Z" uid="7617" user="Franc" changeset="7325291" lat="-33.9220144" lon="151.1368611">
    <tag k="addr:housenumber" v="71"/>
    <tag k="addr:street" v="Riverview Road"/>
    <tag k="source" v="exrapolation"/>
  </node>
  <node id="1159592435" version="2" timestamp="2011-05-29T08:33:17Z" uid="7617" user="Franc" changeset="8278454" lat="-33.9220144" lon="151.1368611">
    <tag k="addr:housenumber" v="71"/>
    <tag k="addr:street" v="Riverview Road"/>
    <tag k="source" v="extrapolation"/>
  </node>
  <node id="1159592435" version="3" timestamp="2012-02-13T04:37:32Z" uid="7523" user="inas" changeset="10670182" lat="-33.9220144" lon="151.1368611"/>
  <node id="1159592447" version="1" timestamp="2011-02-18T19:03:44Z" uid="7617" user="Franc" changeset="7325291" lat="-33.9234577" lon="151.1405174">
    <tag k="addr:housenumber" v="19"/>
    <tag k="addr:street" v="Riverview Road"/>
    <tag k="source" v="exrapolation"/>
  </node>
  <node id="1159592447" version="2" timestamp="2011-05-29T08:31:48Z" uid="7617" user="Franc" changeset="8278454" lat="-33.9234577" lon="151.1405174">
    <tag k="addr:housenumber" v="19"/>
    <tag k="addr:street" v="Riverview Road"/>
    <tag k="source" v="extrapolation"/>
  </node>
  <node id="1159592447" version="3" timestamp="2012-02-13T04:37:27Z" uid="7523" user="inas" changeset="10670182" lat="-33.9234577" lon="151.1405174"/>
  <node id="1159592455" version="1" timestamp="2011-02-18T19:03:44Z" uid="7617" user="Franc" changeset="7325291" lat="-33.9096144" lon="151.1500343">
    <tag k="addr:housenumber" v="15"/>
    <tag k="addr:street" v="David Street"/>
    <tag k="source" v="exrapolation"/>
  </node>
  <node id="1159592455" version="2" timestamp="2011-04-26T08:21:59Z" uid="7617" user="Franc" changeset="7972119" lat="-33.9096144" lon="151.1500343">
    <tag k="addr:housenumber" v="15"/>
    <tag k="addr:street" v="David Street"/>
    <tag k="source" v="extrapolation"/>
  </node>
  <node id="1159592455" version="3" timestamp="2012-02-13T05:25:47Z" uid="7523" user="inas" changeset="10670291" lat="-33.9096144" lon="151.1500343"/>
  <node id="1159592461" version="1" timestamp="2011-02-18T19:03:44Z" uid="7617" user="Franc" changeset="7325291" lat="-33.9170154" lon="151.1523051">
    <tag k="addr:housenumber" v="81"/>
    <tag k="addr:street" v="Warren Road"/>
    <tag k="source" v="survey"/>
  </node>
  <node id="1159592461" version="2" timestamp="2012-02-13T04:54:17Z" uid="7523" user="inas" changeset="10670222" lat="-33.9170154" lon="151.1523051"/>
  <node id="1159592464" version="1" timestamp="2011-02-18T19:03:44Z" uid="7617" user="Franc" changeset="7325291" lat="-33.9083388" lon="151.1482746">
    <tag k="addr:housenumber" v="12"/>
    <tag k="addr:street" v="South Street"/>
    <tag k="source" v="exrapolation"/>
  </node>
  <node id="1159592464" version="2" timestamp="2011-04-26T08:22:03Z" uid="7617" user="Franc" changeset="7972119" lat="-33.9083388" lon="151.1482746">
    <tag k="addr:housenumber" v="12"/>
    <tag k="addr:street" v="South Street"/>
    <tag k="source" v="extrapolation"/>
  </node>
  <node id="1159592464" version="3" timestamp="2012-02-13T05:25:34Z" uid="7523" user="inas" changeset="10670291" lat="-33.9083388" lon="151.1482746"/>
  <node id="1159592475" version="1" timestamp="2011-02-18T19:03:45Z" uid="7617" user="Franc" changeset="7325291" lat="-33.9175381" lon="151.1526216">
    <tag k="addr:housenumber" v="3"/>
    <tag k="addr:street" v="Excelsior Parade"/>
  </node>
  <node id="1159592475" version="2" timestamp="2012-02-13T04:54:01Z" uid="7523" user="inas" changeset="10670222" lat="-33.9175381" lon="151.1526216"/>
  <node id="1159592478" version="1" timestamp="2011-02-18T19:03:45Z" uid="7617" user="Franc" changeset="7325291" lat="-33.9110466" lon="151.1484913">
    <tag k="addr:housenumber" v="2"/>
    <tag k="addr:street" v="Hollands Avenue"/>
    <tag k="source" v="survey"/>
  </node>
  <node id="1159592478" version="2" timestamp="2012-02-13T05:26:07Z" uid="7523" user="inas" changeset="10670291" lat="-33.9110466" lon="151.1484913"/>
  <node id="1159592484" version="1" timestamp="2011-02-18T19:03:45Z" uid="7617" user="Franc" changeset="7325291" lat="-33.9096975" lon="151.1502415">
    <tag k="addr:housenumber" v="20"/>
    <tag k="addr:street" v="David Street"/>
    <tag k="source" v="exrapolation"/>
  </node>
  <node id="1159592484" version="2" timestamp="2011-04-26T08:21:59Z" uid="7617" user="Franc" changeset="7972119" lat="-33.9096975" lon="151.1502415">
    <tag k="addr:housenumber" v="20"/>
    <tag k="addr:street" v="David Street"/>
    <tag k="source" v="extrapolation"/>
  </node>
  <node id="1159592484" version="3" timestamp="2012-02-13T05:26:11Z" uid="7523" user="inas" changeset="10670291" lat="-33.9096975" lon="151.1502415"/>
  <node id="1159592491" version="1" timestamp="2011-02-18T19:03:45Z" uid="7617" user="Franc" changeset="7325291" lat="-33.923604" lon="151.1418368">
    <tag k="addr:housenumber" v="29-33"/>
    <tag k="addr:street" v="Homer Street"/>
    <tag k="source" v="survey"/>
  </node>
  <node id="1159592491" version="2" timestamp="2012-02-13T04:37:28Z" uid="7523" user="inas" changeset="10670182" lat="-33.923604" lon="151.1418368"/>
  <node id="1159592507" version="1" timestamp="2011-02-18T19:03:45Z" uid="7617" user="Franc" changeset="7325291" lat="-33.9089054" lon="151.148008">
    <tag k="addr:housenumber" v="24"/>
    <tag k="addr:street" v="South Street"/>
    <tag k="source" v="exrapolation"/>
  </node>
  <node id="1159592507" version="2" timestamp="2011-04-26T08:21:59Z" uid="7617" user="Franc" changeset="7972119" lat="-33.9089054" lon="151.148008">
    <tag k="addr:housenumber" v="24"/>
    <tag k="addr:street" v="South Street"/>
    <tag k="source" v="extrapolation"/>
  </node>
  <node id="1159592507" version="3" timestamp="2012-02-13T05:26:26Z" uid="7523" user="inas" changeset="10670291" lat="-33.9089054" lon="151.148008"/>
  <node id="1159592511" version="1" timestamp="2011-02-18T19:03:45Z" uid="7617" user="Franc" changeset="7325291" lat="-33.9087772" lon="151.151016">
    <tag k="addr:housenumber" v="2"/>
    <tag k="addr:street" v="David Street"/>
    <tag k="source" v="survey"/>
  </node>
  <node id="1159592511" version="2" timestamp="2012-02-13T05:26:05Z" uid="7523" user="inas" changeset="10670291" lat="-33.9087772" lon="151.151016"/>
  <node id="1159592517" version="1" timestamp="2011-02-18T19:03:45Z" uid="7617" user="Franc" changeset="7325291" lat="-33.9088981" lon="151.1477819">
    <tag k="addr:housenumber" v="27"/>
    <tag k="addr:street" v="South Street"/>
    <tag k="source" v="survey"/>
  </node>
  <node id="1159592517" version="2" timestamp="2012-02-13T05:26:36Z" uid="7523" user="inas" changeset="10670291" lat="-33.9088981" lon="151.1477819"/>
  <node id="1159592522" version="1" timestamp="2011-02-18T19:03:45Z" uid="7617" user="Franc" changeset="7325291" lat="-33.9177255" lon="151.1527955">
    <tag k="addr:housenumber" v="2"/>
    <tag k="addr:street" v="Excelsior Parade"/>
    <tag k="source" v="survey"/>
  </node>
  <node id="1159592522" version="2" timestamp="2012-02-13T04:53:58Z" uid="7523" user="inas" changeset="10670222" lat="-33.9177255" lon="151.1527955"/>
  <node id="1159592542" version="1" timestamp="2011-02-18T19:03:46Z" uid="7617" user="Franc" changeset="7325291" lat="-33.9087564" lon="151.1507745">
    <tag k="addr:housenumber" v="1"/>
    <tag k="addr:street" v="David Street"/>
    <tag k="source" v="exrapolation"/>
  </node>
  <node id="1159592542" version="2" timestamp="2011-04-26T08:22:04Z" uid="7617" user="Franc" changeset="7972119" lat="-33.9087564" lon="151.1507745">
    <tag k="addr:housenumber" v="1"/>
    <tag k="addr:street" v="David Street"/>
    <tag k="source" v="extrapolation"/>
  </node>
  <node id="1159592542" version="3" timestamp="2012-02-13T05:25:12Z" uid="7523" user="inas" changeset="10670291" lat="-33.9087564" lon="151.1507745"/>
  <node id="1159592551" version="1" timestamp="2011-02-18T19:03:46Z" uid="7617" user="Franc" changeset="7325291" lat="-33.909457" lon="151.1501867">
    <tag k="addr:housenumber" v="13"/>
    <tag k="addr:street" v="David Street"/>
    <tag k="source" v="exrapolation"/>
  </node>
  <node id="1159592551" version="2" timestamp="2011-04-26T08:22:03Z" uid="7617" user="Franc" changeset="7972119" lat="-33.909457" lon="151.1501867">
    <tag k="addr:housenumber" v="13"/>
    <tag k="addr:street" v="David Street"/>
    <tag k="source" v="extrapolation"/>
  </node>
  <node id="1159592551" version="3" timestamp="2012-02-13T05:25:38Z" uid="7523" user="inas" changeset="10670291" lat="-33.909457" lon="151.1501867"/>
  <node id="1159592557" version="1" timestamp="2011-02-18T19:03:46Z" uid="7617" user="Franc" changeset="7325291" lat="-33.9081293" lon="151.1481441">
    <tag k="addr:housenumber" v="3"/>
    <tag k="addr:street" v="South Street"/>
    <tag k="source" v="survey"/>
  </node>
  <node id="1159592557" version="2" timestamp="2012-02-13T05:26:45Z" uid="7523" user="inas" changeset="10670291" lat="-33.9081293" lon="151.1481441"/>
  <node id="1159592560" version="1" timestamp="2011-02-18T19:03:46Z" uid="7617" user="Franc" changeset="7325291" lat="-33.9196819" lon="151.1429535">
    <tag k="addr:housenumber" v="380"/>
    <tag k="addr:street" v="Livingstone Road"/>
    <tag k="source" v="survey"/>
  </node>
  <node id="1159592560" version="2" timestamp="2012-02-13T04:37:30Z" uid="7523" user="inas" changeset="10670182" lat="-33.9196819" lon="151.1429535"/>
  <node id="1159592575" version="1" timestamp="2011-02-18T19:03:46Z" uid="7617" user="Franc" changeset="7325291" lat="-33.9102185" lon="151.1473582">
    <tag k="addr:housenumber" v="40"/>
    <tag k="addr:street" v="Hollands Avenue"/>
    <tag k="source" v="survey"/>
  </node>
  <node id="1159592575" version="2" timestamp="2012-02-13T05:27:10Z" uid="7523" user="inas" changeset="10670291" lat="-33.9102185" lon="151.1473582"/>
  <node id="1159592579" version="1" timestamp="2011-02-18T19:03:46Z" uid="7617" user="Franc" changeset="7325291" lat="-33.9098088" lon="151.1499732">
    <tag k="addr:housenumber" v="24"/>
    <tag k="addr:street" v="David Street"/>
    <tag k="source" v="exrapolation"/>
  </node>
  <node id="1159592579" version="2" timestamp="2011-04-26T08:21:59Z" uid="7617" user="Franc" changeset="7972119" lat="-33.9098088" lon="151.1499732">
    <tag k="addr:housenumber" v="24"/>
    <tag k="addr:street" v="David Street"/>
    <tag k="source" v="extrapolation"/>
  </node>
  <node id="1159592579" version="3" timestamp="2012-02-13T05:26:25Z" uid="7523" user="inas" changeset="10670291" lat="-33.9098088" lon="151.1499732"/>
  <node id="1159592586" version="1" timestamp="2011-02-18T19:03:46Z" uid="7617" user="Franc" changeset="7325291" lat="-33.92115" lon="151.1427958">
    <tag k="addr:housenumber" v="1c"/>
    <tag k="addr:street" v="Wharf Street"/>
    <tag k="source" v="survey"/>
  </node>
  <node id="1159592586" version="2" timestamp="2012-02-13T04:53:57Z" uid="7523" user="inas" changeset="10670222" lat="-33.92115" lon="151.1427958"/>
  <node id="1159592591" version="1" timestamp="2011-02-18T19:03:47Z" uid="7617" user="Franc" changeset="7325291" lat="-33.9074728" lon="151.1538506">
    <tag k="addr:housenumber" v="29"/>
    <tag k="addr:street" v="Lilydale Street"/>
    <tag k="source" v="survey"/>
  </node>
  <node id="1159592591" version="2" timestamp="2012-02-13T05:26:40Z" uid="7523" user="inas" changeset="10670291" lat="-33.9074728" lon="151.1538506"/>
</osm>
