<?xml version='1.0' encoding='UTF-8'?>
<osm version="0.6" generator="libosmium/2.20.0">
  <node id="117442902" version="2" timestamp="2008-07-06T09:04:40Z" uid="6975" user="ulfl" changeset="407266" lat="49.9373949" lon="14.3755753">
    <tag k="power" v="generator"/>
    <tag k="power_source" v="hydro"/>
  </node>
  <node id="117442902" version="3" timestamp="2008-11-17T22:29:58Z" uid="17615" user="Petr Dlouhý" changeset="761345" lat="49.9373949" lon="14.3755753">
    <tag k="name" v="Vrané"/>
    <tag k="power" v="generator"/>
    <tag k="power_source" v="hydro"/>
  </node>
  <node id="117442902" version="4" timestamp="2011-06-04T02:11:39Z" uid="297482" user="don-vip" changeset="8335625" lat="49.9373949" lon="14.3755753">
    <tag k="generator:source" v="hydro"/>
    <tag k="name" v="Vrané"/>
    <tag k="power" v="generator"/>
    <tag k="power_source" v="hydro"/>
  </node>
  <node id="117442909" version="2" timestamp="2008-09-29T23:14:37Z" uid="1066" user="pavel" changeset="720263" lat="49.9258313" lon="14.3747285">
    <tag k="is_in" v="Czech Republic, Europe"/>
    <tag k="name" v="Skochovice"/>
    <tag k="place" v="village"/>
  </node>
  <node id="117442909" version="3" timestamp="2008-11-04T13:22:01Z" uid="308" user="MichaelCollinson" changeset="676656" lat="49.9258313" lon="14.3747285">
    <tag k="is_in" v="Czech Republic, Europe"/>
    <tag k="is_in:continent" v="Europe"/>
    <tag k="is_in:country_code" v="cz"/>
    <tag k="name" v="Skochovice"/>
    <tag k="place" v="village"/>
  </node>
</osm>
