<?xml version='1.0' encoding='UTF-8'?>
<osm version="0.6" generator="libosmium/2.20.0">
  <node id="1202220879" version="2" timestamp="2011-05-31T13:39:19Z" uid="115477" user="wowik" changeset="8301336" lat="55.8081184" lon="37.5121142">
    <tag k="amenity" v="bank"/>
    <tag k="atm" v="yes"/>
    <tag k="name" v="Ренессанс Кредит"/>
  </node>
  <node id="1202220879" version="3" timestamp="2012-02-17T22:18:33Z" uid="384084" user="Kostik" changeset="10715762" lat="55.8081184" lon="37.5121142">
    <tag k="amenity" v="bank"/>
    <tag k="atm" v="yes"/>
    <tag k="name" v="Ренессанс Кредит"/>
  </node>
  <node id="1202222576" version="2" timestamp="2011-04-20T23:51:47Z" uid="4467" user="Rosscoe" changeset="7921309" lat="-25.2835289" lon="152.8480981">
    <tag k="building" v="yes"/>
    <tag k="name" v="Hervey Bay Gem &amp; Mineral Club"/>
  </node>
  <node id="1202223172" version="2" timestamp="2011-05-06T14:52:04Z" uid="66036" user="h4v" changeset="8065906" lat="51.758148" lon="19.4129565"/>
  <node id="1202228784" version="2" timestamp="2011-04-20T23:52:43Z" uid="4467" user="Rosscoe" changeset="7921312" lat="-25.2849984" lon="152.8369113">
    <tag k="amenity" v="library"/>
    <tag k="name" v="Fraser Coast Library"/>
  </node>
</osm>
