<?xml version='1.0' encoding='UTF-8'?>
<osm version="0.6" generator="libosmium/2.20.0">
  <node id="1204056947" version="1" timestamp="2011-03-16T10:19:54Z" uid="7617" user="Franc" changeset="7574105" lat="-33.9137858" lon="151.1421467">
    <tag k="addr:housenumber" v="23"/>
    <tag k="addr:street" v="Ewart Street"/>
    <tag k="source" v="exrapolation"/>
  </node>
  <node id="1204056947" version="2" timestamp="2011-05-29T08:33:31Z" uid="7617" user="Franc" changeset="8278454" lat="-33.9137858" lon="151.1421467">
    <tag k="addr:housenumber" v="23"/>
    <tag k="addr:street" v="Ewart Street"/>
    <tag k="source" v="extrapolation"/>
  </node>
  <node id="1204056947" version="3" timestamp="2012-02-13T05:13:06Z" uid="7523" user="inas" changeset="10670260" lat="-33.9137858" lon="151.1421467"/>
  <node id="1204056949" version="1" timestamp="2011-03-16T10:19:55Z" uid="7617" user="Franc" changeset="7574105" lat="-33.9137243" lon="151.142077">
    <tag k="addr:housenumber" v="25"/>
    <tag k="addr:street" v="Ewart Street"/>
    <tag k="source" v="exrapolation"/>
  </node>
  <node id="1204056949" version="2" timestamp="2011-05-29T08:32:59Z" uid="7617" user="Franc" changeset="8278454" lat="-33.9137243" lon="151.142077">
    <tag k="addr:housenumber" v="25"/>
    <tag k="addr:street" v="Ewart Street"/>
    <tag k="source" v="extrapolation"/>
  </node>
  <node id="1204056949" version="3" timestamp="2012-02-13T05:13:11Z" uid="7523" user="inas" changeset="10670260" lat="-33.9137243" lon="151.142077"/>
  <node id="1204056951" version="1" timestamp="2011-03-16T10:19:55Z" uid="7617" user="Franc" changeset="7574105" lat="-33.913839" lon="151.142212">
    <tag k="addr:housenumber" v="21"/>
    <tag k="addr:street" v="Ewart Street"/>
    <tag k="source" v="exrapolation"/>
  </node>
  <node id="1204056951" version="2" timestamp="2011-05-29T08:33:10Z" uid="7617" user="Franc" changeset="8278454" lat="-33.913839" lon="151.142212">
    <tag k="addr:housenumber" v="21"/>
    <tag k="addr:street" v="Ewart Street"/>
    <tag k="source" v="extrapolation"/>
  </node>
  <node id="1204056951" version="3" timestamp="2012-02-13T05:13:03Z" uid="7523" user="inas" changeset="10670260" lat="-33.913839" lon="151.142212"/>
  <node id="1204058072" version="1" timestamp="2011-03-16T10:20:53Z" uid="18775" user="drlizau" changeset="7574113" lat="-34.5015572" lon="144.8535502">
    <tag k="highway" v="turning_circle"/>
  </node>
</osm>
