<?xml version='1.0' encoding='UTF-8'?>
<osm version="0.6" generator="libosmium/2.20.0">
  <node id="1211950003" version="1" timestamp="2011-03-21T14:32:28Z" uid="171838" user="argrath" changeset="7627856" lat="35.727691" lon="137.931488">
    <tag k="amenity" v="post_office"/>
    <tag k="name" v="小町屋簡易郵便局"/>
    <tag k="source" v="NRPB of MLIT Japan"/>
    <tag k="source:ja" v="国土数値情報（公共施設データ）平成18年　国土交通省"/>
    <tag k="source_ref" v="http://nlftp.mlit.go.jp/ksj/jpgis/datalist/KsjTmplt-P02-v2_0.html"/>
  </node>
  <node id="1211950022" version="1" timestamp="2011-03-21T14:32:28Z" uid="171838" user="argrath" changeset="7627856" lat="35.734939" lon="137.943477">
    <tag k="amenity" v="post_office"/>
    <tag k="name" v="飯坂簡易郵便局"/>
    <tag k="source" v="NRPB of MLIT Japan"/>
    <tag k="source:ja" v="国土数値情報（公共施設データ）平成18年　国土交通省"/>
    <tag k="source_ref" v="http://nlftp.mlit.go.jp/ksj/jpgis/datalist/KsjTmplt-P02-v2_0.html"/>
  </node>
  <node id="1211950025" version="1" timestamp="2011-03-21T14:32:28Z" uid="171838" user="argrath" changeset="7627856" lat="36.775893" lon="138.360006">
    <tag k="amenity" v="post_office"/>
    <tag k="name" v="四ケ郷簡易郵便局"/>
    <tag k="source" v="NRPB of MLIT Japan"/>
    <tag k="source:ja" v="国土数値情報（公共施設データ）平成18年　国土交通省"/>
    <tag k="source_ref" v="http://nlftp.mlit.go.jp/ksj/jpgis/datalist/KsjTmplt-P02-v2_0.html"/>
  </node>
  <node id="1211950030" version="1" timestamp="2011-03-21T14:32:28Z" uid="171838" user="argrath" changeset="7627856" lat="36.753635" lon="138.318558">
    <tag k="amenity" v="post_office"/>
    <tag k="name" v="上今井簡易郵便局"/>
    <tag k="source" v="NRPB of MLIT Japan"/>
    <tag k="source:ja" v="国土数値情報（公共施設データ）平成18年　国土交通省"/>
    <tag k="source_ref" v="http://nlftp.mlit.go.jp/ksj/jpgis/datalist/KsjTmplt-P02-v2_0.html"/>
  </node>
  <node id="1211950048" version="1" timestamp="2011-03-21T14:32:29Z" uid="171838" user="argrath" changeset="7627856" lat="36.759275" lon="138.368524">
    <tag k="amenity" v="post_office"/>
    <tag k="name" v="中野北簡易郵便局"/>
    <tag k="source" v="NRPB of MLIT Japan"/>
    <tag k="source:ja" v="国土数値情報（公共施設データ）平成18年　国土交通省"/>
    <tag k="source_ref" v="http://nlftp.mlit.go.jp/ksj/jpgis/datalist/KsjTmplt-P02-v2_0.html"/>
  </node>
  <node id="1211950054" version="1" timestamp="2011-03-21T14:32:29Z" uid="171838" user="argrath" changeset="7627856" lat="36.759274" lon="138.343611">
    <tag k="amenity" v="post_office"/>
    <tag k="name" v="長嶺簡易郵便局"/>
    <tag k="source" v="NRPB of MLIT Japan"/>
    <tag k="source:ja" v="国土数値情報（公共施設データ）平成18年　国土交通省"/>
    <tag k="source_ref" v="http://nlftp.mlit.go.jp/ksj/jpgis/datalist/KsjTmplt-P02-v2_0.html"/>
  </node>
  <node id="1211950061" version="1" timestamp="2011-03-21T14:32:29Z" uid="171838" user="argrath" changeset="7627856" lat="36.770384" lon="138.346805">
    <tag k="amenity" v="post_office"/>
    <tag k="name" v="田麦簡易郵便局"/>
    <tag k="source" v="NRPB of MLIT Japan"/>
    <tag k="source:ja" v="国土数値情報（公共施設データ）平成18年　国土交通省"/>
    <tag k="source_ref" v="http://nlftp.mlit.go.jp/ksj/jpgis/datalist/KsjTmplt-P02-v2_0.html"/>
  </node>
  <node id="1211950080" version="1" timestamp="2011-03-21T14:32:29Z" uid="171838" user="argrath" changeset="7627856" lat="36.80098" lon="138.359498">
    <tag k="amenity" v="post_office"/>
    <tag k="name" v="柳沢簡易郵便局"/>
    <tag k="source" v="NRPB of MLIT Japan"/>
    <tag k="source:ja" v="国土数値情報（公共施設データ）平成18年　国土交通省"/>
    <tag k="source_ref" v="http://nlftp.mlit.go.jp/ksj/jpgis/datalist/KsjTmplt-P02-v2_0.html"/>
  </node>
  <node id="1211950085" version="1" timestamp="2011-03-21T14:32:29Z" uid="171838" user="argrath" changeset="7627856" lat="36.512421" lon="137.843108">
    <tag k="amenity" v="post_office"/>
    <tag k="name" v="大町宮田簡易郵便局"/>
    <tag k="source" v="NRPB of MLIT Japan"/>
    <tag k="source:ja" v="国土数値情報（公共施設データ）平成18年　国土交通省"/>
    <tag k="source_ref" v="http://nlftp.mlit.go.jp/ksj/jpgis/datalist/KsjTmplt-P02-v2_0.html"/>
  </node>
  <node id="1211950091" version="1" timestamp="2011-03-21T14:32:29Z" uid="171838" user="argrath" changeset="7627856" lat="36.502203" lon="137.852916">
    <tag k="amenity" v="post_office"/>
    <tag k="name" v="大町南原簡易郵便局"/>
    <tag k="source" v="NRPB of MLIT Japan"/>
    <tag k="source:ja" v="国土数値情報（公共施設データ）平成18年　国土交通省"/>
    <tag k="source_ref" v="http://nlftp.mlit.go.jp/ksj/jpgis/datalist/KsjTmplt-P02-v2_0.html"/>
  </node>
  <node id="1211950109" version="1" timestamp="2011-03-21T14:32:30Z" uid="171838" user="argrath" changeset="7627856" lat="36.518673" lon="137.854416">
    <tag k="amenity" v="post_office"/>
    <tag k="name" v="大町俵町簡易郵便局"/>
    <tag k="source" v="NRPB of MLIT Japan"/>
    <tag k="source:ja" v="国土数値情報（公共施設データ）平成18年　国土交通省"/>
    <tag k="source_ref" v="http://nlftp.mlit.go.jp/ksj/jpgis/datalist/KsjTmplt-P02-v2_0.html"/>
  </node>
  <node id="1211950114" version="1" timestamp="2011-03-21T14:32:30Z" uid="171838" user="argrath" changeset="7627856" lat="36.492242" lon="137.911702">
    <tag k="amenity" v="post_office"/>
    <tag k="name" v="矢下簡易郵便局"/>
    <tag k="source" v="NRPB of MLIT Japan"/>
    <tag k="source:ja" v="国土数値情報（公共施設データ）平成18年　国土交通省"/>
    <tag k="source_ref" v="http://nlftp.mlit.go.jp/ksj/jpgis/datalist/KsjTmplt-P02-v2_0.html"/>
  </node>
  <node id="1211950140" version="1" timestamp="2011-03-21T14:32:30Z" uid="171838" user="argrath" changeset="7627856" lat="36.890509" lon="138.379187">
    <tag k="amenity" v="post_office"/>
    <tag k="name" v="下水沢簡易郵便局"/>
    <tag k="source" v="NRPB of MLIT Japan"/>
    <tag k="source:ja" v="国土数値情報（公共施設データ）平成18年　国土交通省"/>
    <tag k="source_ref" v="http://nlftp.mlit.go.jp/ksj/jpgis/datalist/KsjTmplt-P02-v2_0.html"/>
  </node>
  <node id="1211950142" version="1" timestamp="2011-03-21T14:32:30Z" uid="171838" user="argrath" changeset="7627856" lat="36.826239" lon="138.351359">
    <tag k="amenity" v="post_office"/>
    <tag k="name" v="静間簡易郵便局"/>
    <tag k="source" v="NRPB of MLIT Japan"/>
    <tag k="source:ja" v="国土数値情報（公共施設データ）平成18年　国土交通省"/>
    <tag k="source_ref" v="http://nlftp.mlit.go.jp/ksj/jpgis/datalist/KsjTmplt-P02-v2_0.html"/>
  </node>
  <node id="1211950147" version="1" timestamp="2011-03-21T14:32:30Z" uid="171838" user="argrath" changeset="7627856" lat="36.869224" lon="138.359091">
    <tag k="amenity" v="post_office"/>
    <tag k="name" v="飯山旭簡易郵便局"/>
    <tag k="source" v="NRPB of MLIT Japan"/>
    <tag k="source:ja" v="国土数値情報（公共施設データ）平成18年　国土交通省"/>
    <tag k="source_ref" v="http://nlftp.mlit.go.jp/ksj/jpgis/datalist/KsjTmplt-P02-v2_0.html"/>
  </node>
  <node id="1211950160" version="1" timestamp="2011-03-21T14:32:31Z" uid="171838" user="argrath" changeset="7627856" lat="36.843588" lon="138.359595">
    <tag k="amenity" v="post_office"/>
    <tag k="name" v="飯山新町簡易郵便局"/>
    <tag k="source" v="NRPB of MLIT Japan"/>
    <tag k="source:ja" v="国土数値情報（公共施設データ）平成18年　国土交通省"/>
    <tag k="source_ref" v="http://nlftp.mlit.go.jp/ksj/jpgis/datalist/KsjTmplt-P02-v2_0.html"/>
  </node>
  <node id="1211950166" version="1" timestamp="2011-03-21T14:32:31Z" uid="171838" user="argrath" changeset="7627856" lat="36.912588" lon="138.315333">
    <tag k="amenity" v="post_office"/>
    <tag k="name" v="富倉簡易郵便局"/>
    <tag k="source" v="NRPB of MLIT Japan"/>
    <tag k="source:ja" v="国土数値情報（公共施設データ）平成18年　国土交通省"/>
    <tag k="source_ref" v="http://nlftp.mlit.go.jp/ksj/jpgis/datalist/KsjTmplt-P02-v2_0.html"/>
  </node>
  <node id="1211950175" version="1" timestamp="2011-03-21T14:32:31Z" uid="171838" user="argrath" changeset="7627856" lat="36.852542" lon="138.381715">
    <tag k="amenity" v="post_office"/>
    <tag k="name" v="木島簡易郵便局"/>
    <tag k="source" v="NRPB of MLIT Japan"/>
    <tag k="source:ja" v="国土数値情報（公共施設データ）平成18年　国土交通省"/>
    <tag k="source_ref" v="http://nlftp.mlit.go.jp/ksj/jpgis/datalist/KsjTmplt-P02-v2_0.html"/>
  </node>
  <node id="1211950192" version="1" timestamp="2011-03-21T14:32:31Z" uid="171838" user="argrath" changeset="7627856" lat="35.986055" lon="138.164571">
    <tag k="amenity" v="post_office"/>
    <tag k="name" v="ひばりケ丘簡易郵便局"/>
    <tag k="source" v="NRPB of MLIT Japan"/>
    <tag k="source:ja" v="国土数値情報（公共施設データ）平成18年　国土交通省"/>
    <tag k="source_ref" v="http://nlftp.mlit.go.jp/ksj/jpgis/datalist/KsjTmplt-P02-v2_0.html"/>
  </node>
  <node id="1211950196" version="1" timestamp="2011-03-21T14:32:31Z" uid="171838" user="argrath" changeset="7627856" lat="36.004219" lon="138.175791">
    <tag k="amenity" v="post_office"/>
    <tag k="name" v="鬼場簡易郵便局"/>
    <tag k="source" v="NRPB of MLIT Japan"/>
    <tag k="source:ja" v="国土数値情報（公共施設データ）平成18年　国土交通省"/>
    <tag k="source_ref" v="http://nlftp.mlit.go.jp/ksj/jpgis/datalist/KsjTmplt-P02-v2_0.html"/>
  </node>
  <node id="1211950203" version="1" timestamp="2011-03-21T14:32:32Z" uid="171838" user="argrath" changeset="7627856" lat="36.021637" lon="138.255344">
    <tag k="amenity" v="post_office"/>
    <tag k="name" v="湖東簡易郵便局"/>
    <tag k="source" v="NRPB of MLIT Japan"/>
    <tag k="source:ja" v="国土数値情報（公共施設データ）平成18年　国土交通省"/>
    <tag k="source_ref" v="http://nlftp.mlit.go.jp/ksj/jpgis/datalist/KsjTmplt-P02-v2_0.html"/>
  </node>
  <node id="1211950217" version="1" timestamp="2011-03-21T14:32:32Z" uid="171838" user="argrath" changeset="7627856" lat="36.000164" lon="138.178346">
    <tag k="amenity" v="post_office"/>
    <tag k="name" v="小泉簡易郵便局"/>
    <tag k="source" v="NRPB of MLIT Japan"/>
    <tag k="source:ja" v="国土数値情報（公共施設データ）平成18年　国土交通省"/>
    <tag k="source_ref" v="http://nlftp.mlit.go.jp/ksj/jpgis/datalist/KsjTmplt-P02-v2_0.html"/>
  </node>
  <node id="1211950220" version="1" timestamp="2011-03-21T14:32:32Z" uid="171838" user="argrath" changeset="7627856" lat="35.995527" lon="138.230953">
    <tag k="amenity" v="post_office"/>
    <tag k="name" v="泉野簡易郵便局"/>
    <tag k="source" v="NRPB of MLIT Japan"/>
    <tag k="source:ja" v="国土数値情報（公共施設データ）平成18年　国土交通省"/>
    <tag k="source_ref" v="http://nlftp.mlit.go.jp/ksj/jpgis/datalist/KsjTmplt-P02-v2_0.html"/>
  </node>
  <node id="1211950224" version="1" timestamp="2011-03-21T14:32:32Z" uid="171838" user="argrath" changeset="7627856" lat="36.105624" lon="138.231782">
    <tag k="amenity" v="post_office"/>
    <tag k="name" v="白樺湖簡易郵便局"/>
    <tag k="source" v="NRPB of MLIT Japan"/>
    <tag k="source:ja" v="国土数値情報（公共施設データ）平成18年　国土交通省"/>
    <tag k="source_ref" v="http://nlftp.mlit.go.jp/ksj/jpgis/datalist/KsjTmplt-P02-v2_0.html"/>
  </node>
  <node id="1211950239" version="1" timestamp="2011-03-21T14:32:32Z" uid="171838" user="argrath" changeset="7627856" lat="36.163388" lon="137.955749">
    <tag k="amenity" v="post_office"/>
    <tag k="name" v="塩尻吉田簡易郵便局"/>
    <tag k="source" v="NRPB of MLIT Japan"/>
    <tag k="source:ja" v="国土数値情報（公共施設データ）平成18年　国土交通省"/>
    <tag k="source_ref" v="http://nlftp.mlit.go.jp/ksj/jpgis/datalist/KsjTmplt-P02-v2_0.html"/>
  </node>
  <node id="1211950242" version="1" timestamp="2011-03-21T14:32:33Z" uid="171838" user="argrath" changeset="7627856" lat="36.117643" lon="137.944752">
    <tag k="amenity" v="post_office"/>
    <tag k="name" v="塩尻大門簡易郵便局"/>
    <tag k="source" v="NRPB of MLIT Japan"/>
    <tag k="source:ja" v="国土数値情報（公共施設データ）平成18年　国土交通省"/>
    <tag k="source_ref" v="http://nlftp.mlit.go.jp/ksj/jpgis/datalist/KsjTmplt-P02-v2_0.html"/>
  </node>
  <node id="1211950248" version="1" timestamp="2011-03-21T14:32:33Z" uid="171838" user="argrath" changeset="7627856" lat="36.125948" lon="137.950196">
    <tag k="amenity" v="post_office"/>
    <tag k="name" v="桔梗ケ原簡易郵便局"/>
    <tag k="source" v="NRPB of MLIT Japan"/>
    <tag k="source:ja" v="国土数値情報（公共施設データ）平成18年　国土交通省"/>
    <tag k="source_ref" v="http://nlftp.mlit.go.jp/ksj/jpgis/datalist/KsjTmplt-P02-v2_0.html"/>
  </node>
  <node id="1211950267" version="1" timestamp="2011-03-21T14:32:33Z" uid="171838" user="argrath" changeset="7627856" lat="36.132697" lon="137.936252">
    <tag k="amenity" v="post_office"/>
    <tag k="name" v="郷原簡易郵便局"/>
    <tag k="source" v="NRPB of MLIT Japan"/>
    <tag k="source:ja" v="国土数値情報（公共施設データ）平成18年　国土交通省"/>
    <tag k="source_ref" v="http://nlftp.mlit.go.jp/ksj/jpgis/datalist/KsjTmplt-P02-v2_0.html"/>
  </node>
  <node id="1211950271" version="1" timestamp="2011-03-21T14:32:33Z" uid="171838" user="argrath" changeset="7627856" lat="36.129772" lon="137.958058">
    <tag k="amenity" v="post_office"/>
    <tag k="name" v="高出簡易郵便局"/>
    <tag k="source" v="NRPB of MLIT Japan"/>
    <tag k="source:ja" v="国土数値情報（公共施設データ）平成18年　国土交通省"/>
    <tag k="source_ref" v="http://nlftp.mlit.go.jp/ksj/jpgis/datalist/KsjTmplt-P02-v2_0.html"/>
  </node>
  <node id="1211950275" version="1" timestamp="2011-03-21T14:32:33Z" uid="171838" user="argrath" changeset="7627856" lat="36.194951" lon="138.485006">
    <tag k="amenity" v="post_office"/>
    <tag k="name" v="臼田駅前簡易郵便局"/>
    <tag k="source" v="NRPB of MLIT Japan"/>
    <tag k="source:ja" v="国土数値情報（公共施設データ）平成18年　国土交通省"/>
    <tag k="source_ref" v="http://nlftp.mlit.go.jp/ksj/jpgis/datalist/KsjTmplt-P02-v2_0.html"/>
  </node>
  <node id="1211950293" version="1" timestamp="2011-03-21T14:32:33Z" uid="171838" user="argrath" changeset="7627856" lat="36.203145" lon="138.474201">
    <tag k="amenity" v="post_office"/>
    <tag k="name" v="臼田荒町簡易郵便局"/>
    <tag k="source" v="NRPB of MLIT Japan"/>
    <tag k="source:ja" v="国土数値情報（公共施設データ）平成18年　国土交通省"/>
    <tag k="source_ref" v="http://nlftp.mlit.go.jp/ksj/jpgis/datalist/KsjTmplt-P02-v2_0.html"/>
  </node>
  <node id="1211950299" version="1" timestamp="2011-03-21T14:32:33Z" uid="171838" user="argrath" changeset="7627856" lat="36.255111" lon="138.437287">
    <tag k="amenity" v="post_office"/>
    <tag k="name" v="高瀬簡易郵便局"/>
    <tag k="source" v="NRPB of MLIT Japan"/>
    <tag k="source:ja" v="国土数値情報（公共施設データ）平成18年　国土交通省"/>
    <tag k="source_ref" v="http://nlftp.mlit.go.jp/ksj/jpgis/datalist/KsjTmplt-P02-v2_0.html"/>
  </node>
  <node id="1211950301" version="1" timestamp="2011-03-21T14:32:34Z" uid="171838" user="argrath" changeset="7627856" lat="36.256887" lon="138.463238">
    <tag k="amenity" v="post_office"/>
    <tag k="name" v="根根井簡易郵便局"/>
    <tag k="source" v="NRPB of MLIT Japan"/>
    <tag k="source:ja" v="国土数値情報（公共施設データ）平成18年　国土交通省"/>
    <tag k="source_ref" v="http://nlftp.mlit.go.jp/ksj/jpgis/datalist/KsjTmplt-P02-v2_0.html"/>
  </node>
  <node id="1211950318" version="1" timestamp="2011-03-21T14:32:34Z" uid="171838" user="argrath" changeset="7627856" lat="36.181515" lon="138.48619">
    <tag k="amenity" v="post_office"/>
    <tag k="name" v="佐久三条簡易郵便局"/>
    <tag k="source" v="NRPB of MLIT Japan"/>
    <tag k="source:ja" v="国土数値情報（公共施設データ）平成18年　国土交通省"/>
    <tag k="source_ref" v="http://nlftp.mlit.go.jp/ksj/jpgis/datalist/KsjTmplt-P02-v2_0.html"/>
  </node>
  <node id="1211950322" version="1" timestamp="2011-03-21T14:32:34Z" uid="171838" user="argrath" changeset="7627856" lat="36.236863" lon="138.447591">
    <tag k="amenity" v="post_office"/>
    <tag k="name" v="桜井簡易郵便局"/>
    <tag k="source" v="NRPB of MLIT Japan"/>
    <tag k="source:ja" v="国土数値情報（公共施設データ）平成18年　国土交通省"/>
    <tag k="source_ref" v="http://nlftp.mlit.go.jp/ksj/jpgis/datalist/KsjTmplt-P02-v2_0.html"/>
  </node>
  <node id="1211950346" version="1" timestamp="2011-03-21T14:32:34Z" uid="171838" user="argrath" changeset="7627856" lat="36.256056" lon="138.506364">
    <tag k="amenity" v="post_office"/>
    <tag k="name" v="三井簡易郵便局"/>
    <tag k="source" v="NRPB of MLIT Japan"/>
    <tag k="source:ja" v="国土数値情報（公共施設データ）平成18年　国土交通省"/>
    <tag k="source_ref" v="http://nlftp.mlit.go.jp/ksj/jpgis/datalist/KsjTmplt-P02-v2_0.html"/>
  </node>
  <node id="1211950354" version="1" timestamp="2011-03-21T14:32:34Z" uid="171838" user="argrath" changeset="7627856" lat="36.258999" lon="138.401623">
    <tag k="amenity" v="post_office"/>
    <tag k="name" v="上原簡易郵便局"/>
    <tag k="source" v="NRPB of MLIT Japan"/>
    <tag k="source:ja" v="国土数値情報（公共施設データ）平成18年　国土交通省"/>
    <tag k="source_ref" v="http://nlftp.mlit.go.jp/ksj/jpgis/datalist/KsjTmplt-P02-v2_0.html"/>
  </node>
  <node id="1211950361" version="1" timestamp="2011-03-21T14:32:35Z" uid="171838" user="argrath" changeset="7627856" lat="36.209416" lon="138.499799">
    <tag k="amenity" v="post_office"/>
    <tag k="name" v="常和簡易郵便局"/>
    <tag k="source" v="NRPB of MLIT Japan"/>
    <tag k="source:ja" v="国土数値情報（公共施設データ）平成18年　国土交通省"/>
    <tag k="source_ref" v="http://nlftp.mlit.go.jp/ksj/jpgis/datalist/KsjTmplt-P02-v2_0.html"/>
  </node>
  <node id="1211950378" version="1" timestamp="2011-03-21T14:32:35Z" uid="171838" user="argrath" changeset="7627856" lat="36.225809" lon="138.445092">
    <tag k="amenity" v="post_office"/>
    <tag k="name" v="前山簡易郵便局"/>
    <tag k="source" v="NRPB of MLIT Japan"/>
    <tag k="source:ja" v="国土数値情報（公共施設データ）平成18年　国土交通省"/>
    <tag k="source_ref" v="http://nlftp.mlit.go.jp/ksj/jpgis/datalist/KsjTmplt-P02-v2_0.html"/>
  </node>
  <node id="1211950381" version="1" timestamp="2011-03-21T14:32:35Z" uid="171838" user="argrath" changeset="7627856" lat="36.209033" lon="138.456119">
    <tag k="amenity" v="post_office"/>
    <tag k="name" v="大沢簡易郵便局"/>
    <tag k="source" v="NRPB of MLIT Japan"/>
    <tag k="source:ja" v="国土数値情報（公共施設データ）平成18年　国土交通省"/>
    <tag k="source_ref" v="http://nlftp.mlit.go.jp/ksj/jpgis/datalist/KsjTmplt-P02-v2_0.html"/>
  </node>
  <node id="1211950385" version="1" timestamp="2011-03-21T14:32:35Z" uid="171838" user="argrath" changeset="7627856" lat="36.283247" lon="138.465867">
    <tag k="amenity" v="post_office"/>
    <tag k="name" v="長土呂簡易郵便局"/>
    <tag k="source" v="NRPB of MLIT Japan"/>
    <tag k="source:ja" v="国土数値情報（公共施設データ）平成18年　国土交通省"/>
    <tag k="source_ref" v="http://nlftp.mlit.go.jp/ksj/jpgis/datalist/KsjTmplt-P02-v2_0.html"/>
  </node>
  <node id="1211950401" version="1" timestamp="2011-03-21T14:32:35Z" uid="171838" user="argrath" changeset="7627856" lat="36.249471" lon="138.374654">
    <tag k="amenity" v="post_office"/>
    <tag k="name" v="入布施簡易郵便局"/>
    <tag k="source" v="NRPB of MLIT Japan"/>
    <tag k="source:ja" v="国土数値情報（公共施設データ）平成18年　国土交通省"/>
    <tag k="source_ref" v="http://nlftp.mlit.go.jp/ksj/jpgis/datalist/KsjTmplt-P02-v2_0.html"/>
  </node>
  <node id="1211950409" version="1" timestamp="2011-03-21T14:32:36Z" uid="171838" user="argrath" changeset="7627856" lat="36.284303" lon="138.500308">
    <tag k="amenity" v="post_office"/>
    <tag k="name" v="平根簡易郵便局"/>
    <tag k="source" v="NRPB of MLIT Japan"/>
    <tag k="source:ja" v="国土数値情報（公共施設データ）平成18年　国土交通省"/>
    <tag k="source_ref" v="http://nlftp.mlit.go.jp/ksj/jpgis/datalist/KsjTmplt-P02-v2_0.html"/>
  </node>
  <node id="1211950414" version="1" timestamp="2011-03-21T14:32:36Z" uid="171838" user="argrath" changeset="7627856" lat="36.542765" lon="138.132334">
    <tag k="amenity" v="post_office"/>
    <tag k="name" v="屋代簡易郵便局"/>
    <tag k="source" v="NRPB of MLIT Japan"/>
    <tag k="source:ja" v="国土数値情報（公共施設データ）平成18年　国土交通省"/>
    <tag k="source_ref" v="http://nlftp.mlit.go.jp/ksj/jpgis/datalist/KsjTmplt-P02-v2_0.html"/>
  </node>
  <node id="1211950431" version="1" timestamp="2011-03-21T14:32:36Z" uid="171838" user="argrath" changeset="7627856" lat="36.531349" lon="138.117697">
    <tag k="amenity" v="post_office"/>
    <tag k="name" v="杭瀬下簡易郵便局"/>
    <tag k="source" v="NRPB of MLIT Japan"/>
    <tag k="source:ja" v="国土数値情報（公共施設データ）平成18年　国土交通省"/>
    <tag k="source_ref" v="http://nlftp.mlit.go.jp/ksj/jpgis/datalist/KsjTmplt-P02-v2_0.html"/>
  </node>
  <node id="1211950432" version="1" timestamp="2011-03-21T14:32:36Z" uid="171838" user="argrath" changeset="7627856" lat="36.493102" lon="138.132763">
    <tag k="amenity" v="post_office"/>
    <tag k="name" v="黒彦団地簡易郵便局"/>
    <tag k="source" v="NRPB of MLIT Japan"/>
    <tag k="source:ja" v="国土数値情報（公共施設データ）平成18年　国土交通省"/>
    <tag k="source_ref" v="http://nlftp.mlit.go.jp/ksj/jpgis/datalist/KsjTmplt-P02-v2_0.html"/>
  </node>
  <node id="1211950435" version="1" timestamp="2011-03-21T14:32:36Z" uid="171838" user="argrath" changeset="7627856" lat="36.46919" lon="138.146275">
    <tag k="amenity" v="post_office"/>
    <tag k="name" v="上山田南簡易郵便局"/>
    <tag k="source" v="NRPB of MLIT Japan"/>
    <tag k="source:ja" v="国土数値情報（公共施設データ）平成18年　国土交通省"/>
    <tag k="source_ref" v="http://nlftp.mlit.go.jp/ksj/jpgis/datalist/KsjTmplt-P02-v2_0.html"/>
  </node>
  <node id="1211950449" version="1" timestamp="2011-03-21T14:32:36Z" uid="171838" user="argrath" changeset="7627856" lat="36.482883" lon="138.150331">
    <tag k="amenity" v="post_office"/>
    <tag k="name" v="新戸倉温泉簡易郵便局"/>
    <tag k="source" v="NRPB of MLIT Japan"/>
    <tag k="source:ja" v="国土数値情報（公共施設データ）平成18年　国土交通省"/>
    <tag k="source_ref" v="http://nlftp.mlit.go.jp/ksj/jpgis/datalist/KsjTmplt-P02-v2_0.html"/>
  </node>
  <node id="1211950452" version="1" timestamp="2011-03-21T14:32:36Z" uid="171838" user="argrath" changeset="7627856" lat="36.532211" lon="138.167968">
    <tag k="amenity" v="post_office"/>
    <tag k="name" v="倉科簡易郵便局"/>
    <tag k="source" v="NRPB of MLIT Japan"/>
    <tag k="source:ja" v="国土数値情報（公共施設データ）平成18年　国土交通省"/>
    <tag k="source_ref" v="http://nlftp.mlit.go.jp/ksj/jpgis/datalist/KsjTmplt-P02-v2_0.html"/>
  </node>
  <node id="1211950559" version="1" timestamp="2011-03-21T14:32:39Z" uid="171838" user="argrath" changeset="7627861" lat="36.353258" lon="138.345846">
    <tag k="amenity" v="post_office"/>
    <tag k="name" v="加沢簡易郵便局"/>
    <tag k="source" v="NRPB of MLIT Japan"/>
    <tag k="source:ja" v="国土数値情報（公共施設データ）平成18年　国土交通省"/>
    <tag k="source_ref" v="http://nlftp.mlit.go.jp/ksj/jpgis/datalist/KsjTmplt-P02-v2_0.html"/>
  </node>
  <node id="1211950564" version="1" timestamp="2011-03-21T14:32:39Z" uid="171838" user="argrath" changeset="7627861" lat="36.364224" lon="138.366821">
    <tag k="amenity" v="post_office"/>
    <tag k="name" v="新張簡易郵便局"/>
    <tag k="source" v="NRPB of MLIT Japan"/>
    <tag k="source:ja" v="国土数値情報（公共施設データ）平成18年　国土交通省"/>
    <tag k="source_ref" v="http://nlftp.mlit.go.jp/ksj/jpgis/datalist/KsjTmplt-P02-v2_0.html"/>
  </node>
  <node id="1211950581" version="1" timestamp="2011-03-21T14:32:40Z" uid="171838" user="argrath" changeset="7627861" lat="36.338558" lon="138.352675">
    <tag k="amenity" v="post_office"/>
    <tag k="name" v="島川原簡易郵便局"/>
    <tag k="source" v="NRPB of MLIT Japan"/>
    <tag k="source:ja" v="国土数値情報（公共施設データ）平成18年　国土交通省"/>
    <tag k="source_ref" v="http://nlftp.mlit.go.jp/ksj/jpgis/datalist/KsjTmplt-P02-v2_0.html"/>
  </node>
  <node id="1211950582" version="1" timestamp="2011-03-21T14:32:40Z" uid="171838" user="argrath" changeset="7627861" lat="36.294677" lon="137.928413">
    <tag k="amenity" v="post_office"/>
    <tag k="name" v="熊倉簡易郵便局"/>
    <tag k="source" v="NRPB of MLIT Japan"/>
    <tag k="source:ja" v="国土数値情報（公共施設データ）平成18年　国土交通省"/>
    <tag k="source_ref" v="http://nlftp.mlit.go.jp/ksj/jpgis/datalist/KsjTmplt-P02-v2_0.html"/>
  </node>
  <node id="1211950585" version="1" timestamp="2011-03-21T14:32:40Z" uid="171838" user="argrath" changeset="7627861" lat="36.274587" lon="137.898264">
    <tag k="amenity" v="post_office"/>
    <tag k="name" v="中萱簡易郵便局"/>
    <tag k="source" v="NRPB of MLIT Japan"/>
    <tag k="source:ja" v="国土数値情報（公共施設データ）平成18年　国土交通省"/>
    <tag k="source_ref" v="http://nlftp.mlit.go.jp/ksj/jpgis/datalist/KsjTmplt-P02-v2_0.html"/>
  </node>
  <node id="1211950604" version="1" timestamp="2011-03-21T14:32:40Z" uid="171838" user="argrath" changeset="7627861" lat="36.334978" lon="137.925579">
    <tag k="amenity" v="post_office"/>
    <tag k="name" v="中川手簡易郵便局"/>
    <tag k="source" v="NRPB of MLIT Japan"/>
    <tag k="source:ja" v="国土数値情報（公共施設データ）平成18年　国土交通省"/>
    <tag k="source_ref" v="http://nlftp.mlit.go.jp/ksj/jpgis/datalist/KsjTmplt-P02-v2_0.html"/>
  </node>
  <node id="1211950609" version="1" timestamp="2011-03-21T14:32:40Z" uid="171838" user="argrath" changeset="7627861" lat="36.290788" lon="137.887896">
    <tag k="amenity" v="post_office"/>
    <tag k="name" v="中堀簡易郵便局"/>
    <tag k="source" v="NRPB of MLIT Japan"/>
    <tag k="source:ja" v="国土数値情報（公共施設データ）平成18年　国土交通省"/>
    <tag k="source_ref" v="http://nlftp.mlit.go.jp/ksj/jpgis/datalist/KsjTmplt-P02-v2_0.html"/>
  </node>
  <node id="1211950616" version="1" timestamp="2011-03-21T14:32:41Z" uid="171838" user="argrath" changeset="7627861" lat="36.375323" lon="137.955526">
    <tag k="amenity" v="post_office"/>
    <tag k="name" v="東川手簡易郵便局"/>
    <tag k="source" v="NRPB of MLIT Japan"/>
    <tag k="source:ja" v="国土数値情報（公共施設データ）平成18年　国土交通省"/>
    <tag k="source_ref" v="http://nlftp.mlit.go.jp/ksj/jpgis/datalist/KsjTmplt-P02-v2_0.html"/>
  </node>
  <node id="1211950621" version="1" timestamp="2011-03-21T14:32:41Z" uid="171838" user="argrath" changeset="7627861" lat="36.309508" lon="137.913775">
    <tag k="amenity" v="post_office"/>
    <tag k="name" v="踏入簡易郵便局"/>
    <tag k="source" v="NRPB of MLIT Japan"/>
    <tag k="source:ja" v="国土数値情報（公共施設データ）平成18年　国土交通省"/>
    <tag k="source_ref" v="http://nlftp.mlit.go.jp/ksj/jpgis/datalist/KsjTmplt-P02-v2_0.html"/>
  </node>
  <node id="1211950628" version="1" timestamp="2011-03-21T14:32:41Z" uid="171838" user="argrath" changeset="7627861" lat="36.335477" lon="137.88861">
    <tag k="amenity" v="post_office"/>
    <tag k="name" v="穂高神田町簡易郵便局"/>
    <tag k="source" v="NRPB of MLIT Japan"/>
    <tag k="source:ja" v="国土数値情報（公共施設データ）平成18年　国土交通省"/>
    <tag k="source_ref" v="http://nlftp.mlit.go.jp/ksj/jpgis/datalist/KsjTmplt-P02-v2_0.html"/>
  </node>
  <node id="1211950646" version="1" timestamp="2011-03-21T14:32:41Z" uid="171838" user="argrath" changeset="7627861" lat="36.368252" lon="137.931272">
    <tag k="amenity" v="post_office"/>
    <tag k="name" v="木戸簡易郵便局"/>
    <tag k="source" v="NRPB of MLIT Japan"/>
    <tag k="source:ja" v="国土数値情報（公共施設データ）平成18年　国土交通省"/>
    <tag k="source_ref" v="http://nlftp.mlit.go.jp/ksj/jpgis/datalist/KsjTmplt-P02-v2_0.html"/>
  </node>
  <node id="1211950651" version="1" timestamp="2011-03-21T14:32:41Z" uid="171838" user="argrath" changeset="7627861" lat="36.384583" lon="137.925133">
    <tag k="amenity" v="post_office"/>
    <tag k="name" v="陸郷簡易郵便局"/>
    <tag k="source" v="NRPB of MLIT Japan"/>
    <tag k="source:ja" v="国土数値情報（公共施設データ）平成18年　国土交通省"/>
    <tag k="source_ref" v="http://nlftp.mlit.go.jp/ksj/jpgis/datalist/KsjTmplt-P02-v2_0.html"/>
  </node>
  <node id="1211950653" version="1" timestamp="2011-03-21T14:32:41Z" uid="171838" user="argrath" changeset="7627861" lat="36.270373" lon="137.909062">
    <tag k="amenity" v="post_office"/>
    <tag k="name" v="立石簡易郵便局"/>
    <tag k="source" v="NRPB of MLIT Japan"/>
    <tag k="source:ja" v="国土数値情報（公共施設データ）平成18年　国土交通省"/>
    <tag k="source_ref" v="http://nlftp.mlit.go.jp/ksj/jpgis/datalist/KsjTmplt-P02-v2_0.html"/>
  </node>
  <node id="1211950670" version="1" timestamp="2011-03-21T14:32:42Z" uid="171838" user="argrath" changeset="7627861" lat="36.072215" lon="138.496428">
    <tag k="amenity" v="post_office"/>
    <tag k="name" v="小海中村簡易郵便局"/>
    <tag k="source" v="NRPB of MLIT Japan"/>
    <tag k="source:ja" v="国土数値情報（公共施設データ）平成18年　国土交通省"/>
    <tag k="source_ref" v="http://nlftp.mlit.go.jp/ksj/jpgis/datalist/KsjTmplt-P02-v2_0.html"/>
  </node>
  <node id="1211950675" version="1" timestamp="2011-03-21T14:32:42Z" uid="171838" user="argrath" changeset="7627861" lat="36.081882" lon="138.522174">
    <tag k="amenity" v="post_office"/>
    <tag k="name" v="親沢簡易郵便局"/>
    <tag k="source" v="NRPB of MLIT Japan"/>
    <tag k="source:ja" v="国土数値情報（公共施設データ）平成18年　国土交通省"/>
    <tag k="source_ref" v="http://nlftp.mlit.go.jp/ksj/jpgis/datalist/KsjTmplt-P02-v2_0.html"/>
  </node>
  <node id="1211950676" version="1" timestamp="2011-03-21T14:32:42Z" uid="171838" user="argrath" changeset="7627861" lat="35.9762" lon="138.527956">
    <tag k="amenity" v="post_office"/>
    <tag k="name" v="川上駅前簡易郵便局"/>
    <tag k="source" v="NRPB of MLIT Japan"/>
    <tag k="source:ja" v="国土数値情報（公共施設データ）平成18年　国土交通省"/>
    <tag k="source_ref" v="http://nlftp.mlit.go.jp/ksj/jpgis/datalist/KsjTmplt-P02-v2_0.html"/>
  </node>
  <node id="1211950688" version="1" timestamp="2011-03-21T14:32:42Z" uid="171838" user="argrath" changeset="7627861" lat="35.957424" lon="138.474711">
    <tag k="amenity" v="post_office"/>
    <tag k="name" v="野辺山簡易郵便局"/>
    <tag k="source" v="NRPB of MLIT Japan"/>
    <tag k="source:ja" v="国土数値情報（公共施設データ）平成18年　国土交通省"/>
    <tag k="source_ref" v="http://nlftp.mlit.go.jp/ksj/jpgis/datalist/KsjTmplt-P02-v2_0.html"/>
  </node>
  <node id="1211950695" version="1" timestamp="2011-03-21T14:32:42Z" uid="171838" user="argrath" changeset="7627861" lat="36.166922" lon="138.489217">
    <tag k="amenity" v="post_office"/>
    <tag k="name" v="羽黒下簡易郵便局"/>
    <tag k="source" v="NRPB of MLIT Japan"/>
    <tag k="source:ja" v="国土数値情報（公共施設データ）平成18年　国土交通省"/>
    <tag k="source_ref" v="http://nlftp.mlit.go.jp/ksj/jpgis/datalist/KsjTmplt-P02-v2_0.html"/>
  </node>
  <node id="1211950707" version="1" timestamp="2011-03-21T14:32:42Z" uid="171838" user="argrath" changeset="7627861" lat="36.155873" lon="138.483729">
    <tag k="amenity" v="post_office"/>
    <tag k="name" v="四ツ谷簡易郵便局"/>
    <tag k="source" v="NRPB of MLIT Japan"/>
    <tag k="source:ja" v="国土数値情報（公共施設データ）平成18年　国土交通省"/>
    <tag k="source_ref" v="http://nlftp.mlit.go.jp/ksj/jpgis/datalist/KsjTmplt-P02-v2_0.html"/>
  </node>
  <node id="1211950708" version="1" timestamp="2011-03-21T14:32:42Z" uid="171838" user="argrath" changeset="7627861" lat="36.161483" lon="138.460537">
    <tag k="amenity" v="post_office"/>
    <tag k="name" v="上簡易郵便局"/>
    <tag k="source" v="NRPB of MLIT Japan"/>
    <tag k="source:ja" v="国土数値情報（公共施設データ）平成18年　国土交通省"/>
    <tag k="source_ref" v="http://nlftp.mlit.go.jp/ksj/jpgis/datalist/KsjTmplt-P02-v2_0.html"/>
  </node>
  <node id="1211950710" version="1" timestamp="2011-03-21T14:32:43Z" uid="171838" user="argrath" changeset="7627861" lat="36.128626" lon="138.447955">
    <tag k="amenity" v="post_office"/>
    <tag k="name" v="八郡簡易郵便局"/>
    <tag k="source" v="NRPB of MLIT Japan"/>
    <tag k="source:ja" v="国土数値情報（公共施設データ）平成18年　国土交通省"/>
    <tag k="source_ref" v="http://nlftp.mlit.go.jp/ksj/jpgis/datalist/KsjTmplt-P02-v2_0.html"/>
  </node>
  <node id="1211950724" version="1" timestamp="2011-03-21T14:32:43Z" uid="171838" user="argrath" changeset="7627861" lat="36.305134" lon="138.495808">
    <tag k="amenity" v="post_office"/>
    <tag k="name" v="小田井簡易郵便局"/>
    <tag k="source" v="NRPB of MLIT Japan"/>
    <tag k="source:ja" v="国土数値情報（公共施設データ）平成18年　国土交通省"/>
    <tag k="source_ref" v="http://nlftp.mlit.go.jp/ksj/jpgis/datalist/KsjTmplt-P02-v2_0.html"/>
  </node>
  <node id="1211950726" version="1" timestamp="2011-03-21T14:32:43Z" uid="171838" user="argrath" changeset="7627861" lat="36.302463" lon="138.294131">
    <tag k="amenity" v="post_office"/>
    <tag k="name" v="牛鹿簡易郵便局"/>
    <tag k="source" v="NRPB of MLIT Japan"/>
    <tag k="source:ja" v="国土数値情報（公共施設データ）平成18年　国土交通省"/>
    <tag k="source_ref" v="http://nlftp.mlit.go.jp/ksj/jpgis/datalist/KsjTmplt-P02-v2_0.html"/>
  </node>
  <node id="1211950730" version="1" timestamp="2011-03-21T14:32:43Z" uid="171838" user="argrath" changeset="7627861" lat="36.290854" lon="138.31599">
    <tag k="amenity" v="post_office"/>
    <tag k="name" v="細谷簡易郵便局"/>
    <tag k="source" v="NRPB of MLIT Japan"/>
    <tag k="source:ja" v="国土数値情報（公共施設データ）平成18年　国土交通省"/>
    <tag k="source_ref" v="http://nlftp.mlit.go.jp/ksj/jpgis/datalist/KsjTmplt-P02-v2_0.html"/>
  </node>
  <node id="1211950742" version="1" timestamp="2011-03-21T14:32:43Z" uid="171838" user="argrath" changeset="7627861" lat="36.12957" lon="138.271875">
    <tag k="amenity" v="post_office"/>
    <tag k="name" v="白樺高原簡易郵便局"/>
    <tag k="source" v="NRPB of MLIT Japan"/>
    <tag k="source:ja" v="国土数値情報（公共施設データ）平成18年　国土交通省"/>
    <tag k="source_ref" v="http://nlftp.mlit.go.jp/ksj/jpgis/datalist/KsjTmplt-P02-v2_0.html"/>
  </node>
  <node id="1211950744" version="1" timestamp="2011-03-21T14:32:43Z" uid="171838" user="argrath" changeset="7627861" lat="36.066237" lon="138.104712">
    <tag k="amenity" v="post_office"/>
    <tag k="name" v="高木簡易郵便局"/>
    <tag k="source" v="NRPB of MLIT Japan"/>
    <tag k="source:ja" v="国土数値情報（公共施設データ）平成18年　国土交通省"/>
    <tag k="source_ref" v="http://nlftp.mlit.go.jp/ksj/jpgis/datalist/KsjTmplt-P02-v2_0.html"/>
  </node>
  <node id="1211950748" version="1" timestamp="2011-03-21T14:32:43Z" uid="171838" user="argrath" changeset="7627861" lat="36.082027" lon="138.074033">
    <tag k="amenity" v="post_office"/>
    <tag k="name" v="社簡易郵便局"/>
    <tag k="source" v="NRPB of MLIT Japan"/>
    <tag k="source:ja" v="国土数値情報（公共施設データ）平成18年　国土交通省"/>
    <tag k="source_ref" v="http://nlftp.mlit.go.jp/ksj/jpgis/datalist/KsjTmplt-P02-v2_0.html"/>
  </node>
  <node id="1211950761" version="1" timestamp="2011-03-21T14:32:44Z" uid="171838" user="argrath" changeset="7627861" lat="35.913872" lon="138.264871">
    <tag k="amenity" v="post_office"/>
    <tag k="name" v="乙事簡易郵便局"/>
    <tag k="source" v="NRPB of MLIT Japan"/>
    <tag k="source:ja" v="国土数値情報（公共施設データ）平成18年　国土交通省"/>
    <tag k="source_ref" v="http://nlftp.mlit.go.jp/ksj/jpgis/datalist/KsjTmplt-P02-v2_0.html"/>
  </node>
  <node id="1211950762" version="1" timestamp="2011-03-21T14:32:44Z" uid="171838" user="argrath" changeset="7627861" lat="35.902095" lon="138.222236">
    <tag k="amenity" v="post_office"/>
    <tag k="name" v="若宮簡易郵便局"/>
    <tag k="source" v="NRPB of MLIT Japan"/>
    <tag k="source:ja" v="国土数値情報（公共施設データ）平成18年　国土交通省"/>
    <tag k="source_ref" v="http://nlftp.mlit.go.jp/ksj/jpgis/datalist/KsjTmplt-P02-v2_0.html"/>
  </node>
  <node id="1211950772" version="1" timestamp="2011-03-21T14:32:44Z" uid="171838" user="argrath" changeset="7627861" lat="35.868656" lon="138.273649">
    <tag k="amenity" v="post_office"/>
    <tag k="name" v="蔦木簡易郵便局"/>
    <tag k="source" v="NRPB of MLIT Japan"/>
    <tag k="source:ja" v="国土数値情報（公共施設データ）平成18年　国土交通省"/>
    <tag k="source_ref" v="http://nlftp.mlit.go.jp/ksj/jpgis/datalist/KsjTmplt-P02-v2_0.html"/>
  </node>
  <node id="1211950777" version="1" timestamp="2011-03-21T14:32:44Z" uid="171838" user="argrath" changeset="7627861" lat="35.968719" lon="138.003804">
    <tag k="amenity" v="post_office"/>
    <tag k="name" v="赤羽簡易郵便局"/>
    <tag k="source" v="NRPB of MLIT Japan"/>
    <tag k="source:ja" v="国土数値情報（公共施設データ）平成18年　国土交通省"/>
    <tag k="source_ref" v="http://nlftp.mlit.go.jp/ksj/jpgis/datalist/KsjTmplt-P02-v2_0.html"/>
  </node>
  <node id="1211950781" version="1" timestamp="2011-03-21T14:32:44Z" uid="171838" user="argrath" changeset="7627861" lat="35.985555" lon="137.983954">
    <tag k="amenity" v="post_office"/>
    <tag k="name" v="辰野中部簡易郵便局"/>
    <tag k="source" v="NRPB of MLIT Japan"/>
    <tag k="source:ja" v="国土数値情報（公共施設データ）平成18年　国土交通省"/>
    <tag k="source_ref" v="http://nlftp.mlit.go.jp/ksj/jpgis/datalist/KsjTmplt-P02-v2_0.html"/>
  </node>
  <node id="1211950781" version="2" timestamp="2011-12-20T02:29:25Z" uid="521665" user="AYAGE" changeset="10160618" lat="35.98557" lon="137.983957"/>
  <node id="1211950793" version="1" timestamp="2011-03-21T14:32:44Z" uid="171838" user="argrath" changeset="7627861" lat="35.9007" lon="137.997199">
    <tag k="amenity" v="post_office"/>
    <tag k="name" v="三日町簡易郵便局"/>
    <tag k="source" v="NRPB of MLIT Japan"/>
    <tag k="source:ja" v="国土数値情報（公共施設データ）平成18年　国土交通省"/>
    <tag k="source_ref" v="http://nlftp.mlit.go.jp/ksj/jpgis/datalist/KsjTmplt-P02-v2_0.html"/>
  </node>
  <node id="1211950794" version="1" timestamp="2011-03-21T14:32:45Z" uid="171838" user="argrath" changeset="7627861" lat="35.936333" lon="137.985952">
    <tag k="amenity" v="post_office"/>
    <tag k="name" v="沢簡易郵便局"/>
    <tag k="source" v="NRPB of MLIT Japan"/>
    <tag k="source:ja" v="国土数値情報（公共施設データ）平成18年　国土交通省"/>
    <tag k="source_ref" v="http://nlftp.mlit.go.jp/ksj/jpgis/datalist/KsjTmplt-P02-v2_0.html"/>
  </node>
  <node id="1211950797" version="1" timestamp="2011-03-21T14:32:45Z" uid="171838" user="argrath" changeset="7627861" lat="35.695112" lon="137.933377">
    <tag k="amenity" v="post_office"/>
    <tag k="name" v="田切簡易郵便局"/>
    <tag k="source" v="NRPB of MLIT Japan"/>
    <tag k="source:ja" v="国土数値情報（公共施設データ）平成18年　国土交通省"/>
    <tag k="source_ref" v="http://nlftp.mlit.go.jp/ksj/jpgis/datalist/KsjTmplt-P02-v2_0.html"/>
  </node>
  <node id="1211950814" version="1" timestamp="2011-03-21T14:32:45Z" uid="171838" user="argrath" changeset="7627861" lat="35.881986" lon="137.963266">
    <tag k="amenity" v="post_office"/>
    <tag k="name" v="大泉簡易郵便局"/>
    <tag k="source" v="NRPB of MLIT Japan"/>
    <tag k="source:ja" v="国土数値情報（公共施設データ）平成18年　国土交通省"/>
    <tag k="source_ref" v="http://nlftp.mlit.go.jp/ksj/jpgis/datalist/KsjTmplt-P02-v2_0.html"/>
  </node>
  <node id="1211950815" version="1" timestamp="2011-03-21T14:32:45Z" uid="171838" user="argrath" changeset="7627861" lat="35.606459" lon="137.890348">
    <tag k="amenity" v="post_office"/>
    <tag k="name" v="大島西簡易郵便局"/>
    <tag k="source" v="NRPB of MLIT Japan"/>
    <tag k="source:ja" v="国土数値情報（公共施設データ）平成18年　国土交通省"/>
    <tag k="source_ref" v="http://nlftp.mlit.go.jp/ksj/jpgis/datalist/KsjTmplt-P02-v2_0.html"/>
  </node>
  <node id="1211950827" version="1" timestamp="2011-03-21T14:32:45Z" uid="171838" user="argrath" changeset="7627861" lat="35.321571" lon="137.753908">
    <tag k="amenity" v="post_office"/>
    <tag k="name" v="和合簡易郵便局"/>
    <tag k="source" v="NRPB of MLIT Japan"/>
    <tag k="source:ja" v="国土数値情報（公共施設データ）平成18年　国土交通省"/>
    <tag k="source_ref" v="http://nlftp.mlit.go.jp/ksj/jpgis/datalist/KsjTmplt-P02-v2_0.html"/>
  </node>
  <node id="1211950832" version="1" timestamp="2011-03-21T14:32:45Z" uid="171838" user="argrath" changeset="7627861" lat="35.375158" lon="137.814233">
    <tag k="amenity" v="post_office"/>
    <tag k="name" v="門島簡易郵便局"/>
    <tag k="source" v="NRPB of MLIT Japan"/>
    <tag k="source:ja" v="国土数値情報（公共施設データ）平成18年　国土交通省"/>
    <tag k="source_ref" v="http://nlftp.mlit.go.jp/ksj/jpgis/datalist/KsjTmplt-P02-v2_0.html"/>
  </node>
  <node id="1211950838" version="1" timestamp="2011-03-21T14:32:45Z" uid="171838" user="argrath" changeset="7627861" lat="35.537198" lon="137.888312">
    <tag k="amenity" v="post_office"/>
    <tag k="name" v="伴野簡易郵便局"/>
    <tag k="source" v="NRPB of MLIT Japan"/>
    <tag k="source:ja" v="国土数値情報（公共施設データ）平成18年　国土交通省"/>
    <tag k="source_ref" v="http://nlftp.mlit.go.jp/ksj/jpgis/datalist/KsjTmplt-P02-v2_0.html"/>
  </node>
  <node id="1211950850" version="1" timestamp="2011-03-21T14:32:46Z" uid="171838" user="argrath" changeset="7627861" lat="35.740994" lon="137.715846">
    <tag k="amenity" v="post_office"/>
    <tag k="name" v="荻原簡易郵便局"/>
    <tag k="source" v="NRPB of MLIT Japan"/>
    <tag k="source:ja" v="国土数値情報（公共施設データ）平成18年　国土交通省"/>
    <tag k="source_ref" v="http://nlftp.mlit.go.jp/ksj/jpgis/datalist/KsjTmplt-P02-v2_0.html"/>
  </node>
  <node id="1211950853" version="1" timestamp="2011-03-21T14:32:46Z" uid="171838" user="argrath" changeset="7627861" lat="35.771403" lon="137.704534">
    <tag k="amenity" v="post_office"/>
    <tag k="name" v="寝覚簡易郵便局"/>
    <tag k="source" v="NRPB of MLIT Japan"/>
    <tag k="source:ja" v="国土数値情報（公共施設データ）平成18年　国土交通省"/>
    <tag k="source_ref" v="http://nlftp.mlit.go.jp/ksj/jpgis/datalist/KsjTmplt-P02-v2_0.html"/>
  </node>
  <node id="1211950859" version="1" timestamp="2011-03-21T14:32:46Z" uid="171838" user="argrath" changeset="7627861" lat="35.959714" lon="137.769854">
    <tag k="amenity" v="post_office"/>
    <tag k="name" v="小木曽簡易郵便局"/>
    <tag k="source" v="NRPB of MLIT Japan"/>
    <tag k="source:ja" v="国土数値情報（公共施設データ）平成18年　国土交通省"/>
    <tag k="source_ref" v="http://nlftp.mlit.go.jp/ksj/jpgis/datalist/KsjTmplt-P02-v2_0.html"/>
  </node>
  <node id="1211950874" version="1" timestamp="2011-03-21T14:32:46Z" uid="171838" user="argrath" changeset="7627861" lat="35.882223" lon="137.674922">
    <tag k="amenity" v="post_office"/>
    <tag k="name" v="新開黒川簡易郵便局"/>
    <tag k="source" v="NRPB of MLIT Japan"/>
    <tag k="source:ja" v="国土数値情報（公共施設データ）平成18年　国土交通省"/>
    <tag k="source_ref" v="http://nlftp.mlit.go.jp/ksj/jpgis/datalist/KsjTmplt-P02-v2_0.html"/>
  </node>
  <node id="1211950880" version="1" timestamp="2011-03-21T14:32:46Z" uid="171838" user="argrath" changeset="7627861" lat="36.442615" lon="137.939501">
    <tag k="amenity" v="post_office"/>
    <tag k="name" v="下生坂簡易郵便局"/>
    <tag k="source" v="NRPB of MLIT Japan"/>
    <tag k="source:ja" v="国土数値情報（公共施設データ）平成18年　国土交通省"/>
    <tag k="source_ref" v="http://nlftp.mlit.go.jp/ksj/jpgis/datalist/KsjTmplt-P02-v2_0.html"/>
  </node>
  <node id="1211950883" version="1" timestamp="2011-03-21T14:32:46Z" uid="171838" user="argrath" changeset="7627861" lat="36.207279" lon="137.873905">
    <tag k="amenity" v="post_office"/>
    <tag k="name" v="下島簡易郵便局"/>
    <tag k="source" v="NRPB of MLIT Japan"/>
    <tag k="source:ja" v="国土数値情報（公共施設データ）平成18年　国土交通省"/>
    <tag k="source_ref" v="http://nlftp.mlit.go.jp/ksj/jpgis/datalist/KsjTmplt-P02-v2_0.html"/>
  </node>
  <node id="1211950894" version="1" timestamp="2011-03-21T14:32:47Z" uid="171838" user="argrath" changeset="7627861" lat="36.210678" lon="137.890138">
    <tag k="amenity" v="post_office"/>
    <tag k="name" v="三溝簡易郵便局"/>
    <tag k="source" v="NRPB of MLIT Japan"/>
    <tag k="source:ja" v="国土数値情報（公共施設データ）平成18年　国土交通省"/>
    <tag k="source_ref" v="http://nlftp.mlit.go.jp/ksj/jpgis/datalist/KsjTmplt-P02-v2_0.html"/>
  </node>
  <node id="1211950901" version="1" timestamp="2011-03-21T14:32:47Z" uid="171838" user="argrath" changeset="7627861" lat="36.181856" lon="137.880005">
    <tag k="amenity" v="post_office"/>
    <tag k="name" v="下竹田簡易郵便局"/>
    <tag k="source" v="NRPB of MLIT Japan"/>
    <tag k="source:ja" v="国土数値情報（公共施設データ）平成18年　国土交通省"/>
    <tag k="source_ref" v="http://nlftp.mlit.go.jp/ksj/jpgis/datalist/KsjTmplt-P02-v2_0.html"/>
  </node>
  <node id="1211950908" version="1" timestamp="2011-03-21T14:32:47Z" uid="171838" user="argrath" changeset="7627861" lat="36.449912" lon="138.068617">
    <tag k="amenity" v="post_office"/>
    <tag k="name" v="坂井簡易郵便局"/>
    <tag k="source" v="NRPB of MLIT Japan"/>
    <tag k="source:ja" v="国土数値情報（公共施設データ）平成18年　国土交通省"/>
    <tag k="source_ref" v="http://nlftp.mlit.go.jp/ksj/jpgis/datalist/KsjTmplt-P02-v2_0.html"/>
  </node>
  <node id="1211950910" version="1" timestamp="2011-03-21T14:32:47Z" uid="171838" user="argrath" changeset="7627861" lat="36.439407" lon="137.87336">
    <tag k="amenity" v="post_office"/>
    <tag k="name" v="池田正科簡易郵便局"/>
    <tag k="source" v="NRPB of MLIT Japan"/>
    <tag k="source:ja" v="国土数値情報（公共施設データ）平成18年　国土交通省"/>
    <tag k="source_ref" v="http://nlftp.mlit.go.jp/ksj/jpgis/datalist/KsjTmplt-P02-v2_0.html"/>
  </node>
  <node id="1211950915" version="1" timestamp="2011-03-21T14:32:47Z" uid="171838" user="argrath" changeset="7627861" lat="36.405856" lon="137.86125">
    <tag k="amenity" v="post_office"/>
    <tag k="name" v="細野簡易郵便局"/>
    <tag k="source" v="NRPB of MLIT Japan"/>
    <tag k="source:ja" v="国土数値情報（公共施設データ）平成18年　国土交通省"/>
    <tag k="source_ref" v="http://nlftp.mlit.go.jp/ksj/jpgis/datalist/KsjTmplt-P02-v2_0.html"/>
  </node>
  <node id="1211950930" version="1" timestamp="2011-03-21T14:32:47Z" uid="171838" user="argrath" changeset="7627861" lat="36.711015" lon="137.872382">
    <tag k="amenity" v="post_office"/>
    <tag k="name" v="森上簡易郵便局"/>
    <tag k="source" v="NRPB of MLIT Japan"/>
    <tag k="source:ja" v="国土数値情報（公共施設データ）平成18年　国土交通省"/>
    <tag k="source_ref" v="http://nlftp.mlit.go.jp/ksj/jpgis/datalist/KsjTmplt-P02-v2_0.html"/>
  </node>
  <node id="1211950931" version="1" timestamp="2011-03-21T14:32:47Z" uid="171838" user="argrath" changeset="7627861" lat="36.752534" lon="137.753253">
    <tag k="amenity" v="post_office"/>
    <tag k="name" v="白馬山頂簡易郵便局（定期開設局）"/>
    <tag k="source" v="NRPB of MLIT Japan"/>
    <tag k="source:ja" v="国土数値情報（公共施設データ）平成18年　国土交通省"/>
    <tag k="source_ref" v="http://nlftp.mlit.go.jp/ksj/jpgis/datalist/KsjTmplt-P02-v2_0.html"/>
  </node>
  <node id="1211950932" version="1" timestamp="2011-03-21T14:32:47Z" uid="171838" user="argrath" changeset="7627861" lat="36.795034" lon="137.911793">
    <tag k="amenity" v="post_office"/>
    <tag k="name" v="中小谷簡易郵便局"/>
    <tag k="source" v="NRPB of MLIT Japan"/>
    <tag k="source:ja" v="国土数値情報（公共施設データ）平成18年　国土交通省"/>
    <tag k="source_ref" v="http://nlftp.mlit.go.jp/ksj/jpgis/datalist/KsjTmplt-P02-v2_0.html"/>
  </node>
  <node id="1211950948" version="1" timestamp="2011-03-21T14:32:48Z" uid="171838" user="argrath" changeset="7627861" lat="36.448971" lon="138.169635">
    <tag k="amenity" v="post_office"/>
    <tag k="name" v="上五明簡易郵便局"/>
    <tag k="source" v="NRPB of MLIT Japan"/>
    <tag k="source:ja" v="国土数値情報（公共施設データ）平成18年　国土交通省"/>
    <tag k="source_ref" v="http://nlftp.mlit.go.jp/ksj/jpgis/datalist/KsjTmplt-P02-v2_0.html"/>
  </node>
  <node id="1211950952" version="1" timestamp="2011-03-21T14:32:48Z" uid="171838" user="argrath" changeset="7627861" lat="36.447888" lon="138.193994">
    <tag k="amenity" v="post_office"/>
    <tag k="name" v="中之条簡易郵便局"/>
    <tag k="source" v="NRPB of MLIT Japan"/>
    <tag k="source:ja" v="国土数値情報（公共施設データ）平成18年　国土交通省"/>
    <tag k="source_ref" v="http://nlftp.mlit.go.jp/ksj/jpgis/datalist/KsjTmplt-P02-v2_0.html"/>
  </node>
  <node id="1211950957" version="1" timestamp="2011-03-21T14:32:48Z" uid="171838" user="argrath" changeset="7627861" lat="36.686864" lon="138.367564">
    <tag k="amenity" v="post_office"/>
    <tag k="name" v="高山北簡易郵便局"/>
    <tag k="source" v="NRPB of MLIT Japan"/>
    <tag k="source:ja" v="国土数値情報（公共施設データ）平成18年　国土交通省"/>
    <tag k="source_ref" v="http://nlftp.mlit.go.jp/ksj/jpgis/datalist/KsjTmplt-P02-v2_0.html"/>
  </node>
  <node id="1211950966" version="1" timestamp="2011-03-21T14:32:48Z" uid="171838" user="argrath" changeset="7627861" lat="36.676312" lon="138.386025">
    <tag k="amenity" v="post_office"/>
    <tag k="name" v="高山牧簡易郵便局"/>
    <tag k="source" v="NRPB of MLIT Japan"/>
    <tag k="source:ja" v="国土数値情報（公共施設データ）平成18年　国土交通省"/>
    <tag k="source_ref" v="http://nlftp.mlit.go.jp/ksj/jpgis/datalist/KsjTmplt-P02-v2_0.html"/>
  </node>
  <node id="1211950967" version="1" timestamp="2011-03-21T14:32:48Z" uid="171838" user="argrath" changeset="7627861" lat="36.731642" lon="138.407356">
    <tag k="amenity" v="post_office"/>
    <tag k="name" v="穂波簡易郵便局"/>
    <tag k="source" v="NRPB of MLIT Japan"/>
    <tag k="source:ja" v="国土数値情報（公共施設データ）平成18年　国土交通省"/>
    <tag k="source_ref" v="http://nlftp.mlit.go.jp/ksj/jpgis/datalist/KsjTmplt-P02-v2_0.html"/>
  </node>
  <node id="1211950981" version="1" timestamp="2011-03-21T14:32:48Z" uid="171838" user="argrath" changeset="7627861" lat="36.774823" lon="138.202209">
    <tag k="amenity" v="post_office"/>
    <tag k="name" v="富士里簡易郵便局"/>
    <tag k="source" v="NRPB of MLIT Japan"/>
    <tag k="source:ja" v="国土数値情報（公共施設データ）平成18年　国土交通省"/>
    <tag k="source_ref" v="http://nlftp.mlit.go.jp/ksj/jpgis/datalist/KsjTmplt-P02-v2_0.html"/>
  </node>
  <node id="1211950989" version="1" timestamp="2011-03-21T14:32:49Z" uid="171838" user="argrath" changeset="7627861" lat="36.611584" lon="137.948654">
    <tag k="amenity" v="post_office"/>
    <tag k="name" v="小根山簡易郵便局"/>
    <tag k="source" v="NRPB of MLIT Japan"/>
    <tag k="source:ja" v="国土数値情報（公共施設データ）平成18年　国土交通省"/>
    <tag k="source_ref" v="http://nlftp.mlit.go.jp/ksj/jpgis/datalist/KsjTmplt-P02-v2_0.html"/>
  </node>
  <node id="1211950990" version="1" timestamp="2011-03-21T14:32:49Z" uid="171838" user="argrath" changeset="7627861" lat="36.741968" lon="138.25451">
    <tag k="amenity" v="post_office"/>
    <tag k="name" v="福井団地簡易郵便局"/>
    <tag k="source" v="NRPB of MLIT Japan"/>
    <tag k="source:ja" v="国土数値情報（公共施設データ）平成18年　国土交通省"/>
    <tag k="source_ref" v="http://nlftp.mlit.go.jp/ksj/jpgis/datalist/KsjTmplt-P02-v2_0.html"/>
  </node>
  <node id="1211950999" version="1" timestamp="2011-03-21T14:32:49Z" uid="171838" user="argrath" changeset="7627861" lat="36.864913" lon="138.635033">
    <tag k="amenity" v="post_office"/>
    <tag k="name" v="小赤沢簡易郵便局"/>
    <tag k="source" v="NRPB of MLIT Japan"/>
    <tag k="source:ja" v="国土数値情報（公共施設データ）平成18年　国土交通省"/>
    <tag k="source_ref" v="http://nlftp.mlit.go.jp/ksj/jpgis/datalist/KsjTmplt-P02-v2_0.html"/>
  </node>
</osm>
