<?xml version='1.0' encoding='UTF-8'?>
<osm version="0.6" generator="libosmium/2.20.0">
  <node id="123860842" version="6" timestamp="2008-12-13T12:27:09Z" uid="58091" user="Andreas M" changeset="344092" lat="48.1963045" lon="16.3417269"/>
  <node id="123860842" version="7" timestamp="2010-12-15T16:50:45Z" uid="49642" user="realadry" changeset="6669332" lat="48.1963045" lon="16.3417071"/>
  <node id="123860842" version="8" timestamp="2011-07-23T21:11:42Z" uid="494207" user="ckschwoedi" changeset="8810110" lat="48.1963521" lon="16.3416224"/>
  <node id="123860842" version="9" timestamp="2012-03-18T18:40:44Z" uid="54806" user="_al" changeset="11022520" lat="48.1963904" lon="16.3416064"/>
  <node id="123860843" version="6" timestamp="2008-12-13T12:27:09Z" uid="58091" user="Andreas M" changeset="344092" lat="48.1964844" lon="16.3416525">
    <tag k="name" v="Kaiserstraße"/>
    <tag k="railway" v="tram_stop"/>
  </node>
  <node id="123860843" version="7" timestamp="2010-12-15T16:51:17Z" uid="49642" user="realadry" changeset="6669332" lat="48.1964844" lon="16.3416327">
    <tag k="name" v="Kaiserstraße"/>
    <tag k="railway" v="tram_stop"/>
  </node>
  <node id="123860843" version="8" timestamp="2011-08-17T07:26:11Z" uid="56501" user="Rudolf_H" changeset="9044881" lat="48.1964844" lon="16.3416327">
    <tag k="name" v="Kaiserstraße"/>
    <tag k="railway" v="tram_stop"/>
    <tag k="ref" v="643"/>
  </node>
  <node id="123860843" version="9" timestamp="2012-03-18T18:40:44Z" uid="54806" user="_al" changeset="11022520" lat="48.1965113" lon="16.3415913">
    <tag k="name" v="Kaiserstraße"/>
    <tag k="railway" v="tram_stop"/>
    <tag k="ref" v="643"/>
  </node>
  <node id="123860844" version="9" timestamp="2008-12-13T12:27:19Z" uid="58091" user="Andreas M" changeset="344092" lat="48.1985864" lon="16.3412096">
    <tag k="name" v="Stollgasse"/>
    <tag k="railway" v="tram_stop"/>
  </node>
  <node id="123860845" version="6" timestamp="2008-12-13T12:27:19Z" uid="58091" user="Andreas M" changeset="344092" lat="48.2001882" lon="16.3408835"/>
  <node id="123860846" version="6" timestamp="2008-12-13T12:27:09Z" uid="58091" user="Andreas M" changeset="344092" lat="48.201731" lon="16.3405521">
    <tag k="name" v="Westbahnstraße"/>
    <tag k="railway" v="tram_stop"/>
  </node>
  <node id="123860846" version="7" timestamp="2009-01-05T08:05:50Z" uid="58091" user="Andreas M" changeset="735458" lat="48.201731" lon="16.3405521">
    <tag k="name" v="Westbahnstraße"/>
    <tag k="railway" v="tram_stop"/>
  </node>
  <node id="123860847" version="6" timestamp="2008-12-13T12:27:09Z" uid="58091" user="Andreas M" changeset="344092" lat="48.2042788" lon="16.3400733">
    <tag k="created_by" v="JOSM"/>
    <tag k="highway" v="traffic_signals"/>
    <tag k="name" v="Burggasse"/>
    <tag k="railway" v="tram_stop"/>
  </node>
  <node id="123860847" version="7" timestamp="2009-01-04T02:03:39Z" uid="54806" user="_al" changeset="726896" lat="48.2042558" lon="16.3400772">
    <tag k="highway" v="traffic_signals"/>
    <tag k="name" v="Burggasse"/>
    <tag k="railway" v="tram_stop"/>
  </node>
  <node id="123860847" version="8" timestamp="2009-01-05T08:05:44Z" uid="58091" user="Andreas M" changeset="735458" lat="48.2042558" lon="16.3400772">
    <tag k="highway" v="traffic_signals"/>
    <tag k="name" v="Kaiserstraße/Burggasse"/>
    <tag k="railway" v="tram_stop"/>
  </node>
  <node id="123860847" version="9" timestamp="2010-04-24T18:17:50Z" uid="28427" user="skunk" changeset="4514295" lat="48.204315" lon="16.3400793">
    <tag k="highway" v="traffic_signals"/>
    <tag k="name" v="Kaiserstraße/Burggasse"/>
    <tag k="railway" v="tram_stop"/>
  </node>
  <node id="123860847" version="10" timestamp="2010-12-15T16:51:25Z" uid="49642" user="realadry" changeset="6669332" lat="48.2043127" lon="16.3400406">
    <tag k="highway" v="traffic_signals"/>
    <tag k="name" v="Kaiserstraße/Burggasse"/>
    <tag k="railway" v="tram_stop"/>
  </node>
  <node id="123860847" version="11" timestamp="2011-07-19T22:57:43Z" uid="49642" user="realadry" changeset="8773762" lat="48.204298" lon="16.340034">
    <tag k="highway" v="traffic_signals"/>
    <tag k="name" v="Kaiserstraße/Burggasse"/>
    <tag k="railway" v="tram_stop"/>
  </node>
  <node id="123860847" version="12" timestamp="2011-08-17T07:26:11Z" uid="56501" user="Rudolf_H" changeset="9044881" lat="48.204298" lon="16.340034">
    <tag k="highway" v="traffic_signals"/>
    <tag k="name" v="Kaiserstraße/Burggasse"/>
    <tag k="railway" v="tram_stop"/>
    <tag k="ref" v="644"/>
  </node>
  <node id="123860847" version="13" timestamp="2011-12-11T02:38:50Z" uid="17047" user="KaiRo" changeset="10086446" lat="48.2043267" lon="16.3400402">
    <tag k="highway" v="traffic_signals"/>
    <tag k="name" v="Kaiserstraße/Burggasse"/>
    <tag k="railway" v="tram_stop"/>
    <tag k="ref" v="644"/>
  </node>
  <node id="123860848" version="6" timestamp="2008-12-13T12:27:19Z" uid="58091" user="Andreas M" changeset="344092" lat="48.2059088" lon="16.3398621">
    <tag k="name" v="Neustiftgasse"/>
    <tag k="railway" v="tram_stop"/>
  </node>
  <node id="123860849" version="6" timestamp="2008-12-13T12:27:19Z" uid="58091" user="Andreas M" changeset="344092" lat="48.2083862" lon="16.3393836">
    <tag k="name" v="Thaliastraße"/>
    <tag k="railway" v="tram_stop"/>
  </node>
  <node id="123860850" version="7" timestamp="2008-12-13T12:27:19Z" uid="58091" user="Andreas M" changeset="344092" lat="48.2094578" lon="16.339927"/>
  <node id="123860883" version="8" timestamp="2009-07-23T00:20:26Z" uid="20587" user="balrog-kun" changeset="1910333" lat="42.441489" lon="19.2624275">
    <tag k="capital" v="yes"/>
    <tag k="is_in" v="Montenegro"/>
    <tag k="is_in:continent" v="Europe"/>
    <tag k="name" v="Podgorica"/>
    <tag k="name:ru" v="Подгорица"/>
    <tag k="place" v="city"/>
    <tag k="wikipedia" v="Podgorica"/>
  </node>
  <node id="123860883" version="9" timestamp="2009-08-04T19:53:29Z" uid="10610" user="RedFox" changeset="2039537" lat="42.441489" lon="19.2624275">
    <tag k="capital" v="yes"/>
    <tag k="is_in" v="Montenegro"/>
    <tag k="is_in:continent" v="Europe"/>
    <tag k="name" v="Podgorica"/>
    <tag k="name:fr" v="Podgorica"/>
    <tag k="name:ru" v="Подгорица"/>
    <tag k="place" v="city"/>
    <tag k="population" v="169132"/>
    <tag k="wikipedia" v="Podgorica"/>
    <tag k="wikipedia:fr" v="Podgorica"/>
  </node>
  <node id="123860883" version="10" timestamp="2009-08-16T10:40:16Z" uid="33377" user="Victor LP" changeset="2163565" lat="42.441489" lon="19.2624275">
    <tag k="capital" v="yes"/>
    <tag k="is_in" v="Montenegro"/>
    <tag k="is_in:continent" v="Europe"/>
    <tag k="name" v="Podgorica"/>
    <tag k="name:el" v="Ποντγκόριτσα"/>
    <tag k="name:fr" v="Podgorica"/>
    <tag k="name:ru" v="Подгорица"/>
    <tag k="place" v="city"/>
    <tag k="population" v="169132"/>
    <tag k="wikipedia" v="Podgorica"/>
    <tag k="wikipedia:fr" v="Podgorica"/>
  </node>
  <node id="123860883" version="11" timestamp="2009-09-07T22:35:18Z" uid="24965" user="Ævar Arnfjörð Bjarmason" changeset="2408705" lat="42.441489" lon="19.2624275">
    <tag k="capital" v="yes"/>
    <tag k="is_in" v="Montenegro"/>
    <tag k="is_in:continent" v="Europe"/>
    <tag k="name" v="Podgorica"/>
    <tag k="name:el" v="Ποντγκόριτσα"/>
    <tag k="name:fr" v="Podgorica"/>
    <tag k="name:is" v="Podgorica"/>
    <tag k="name:ru" v="Подгорица"/>
    <tag k="place" v="city"/>
    <tag k="population" v="169132"/>
    <tag k="wikipedia" v="Podgorica"/>
    <tag k="wikipedia:fr" v="Podgorica"/>
  </node>
  <node id="123860883" version="12" timestamp="2010-11-07T20:46:17Z" uid="76269" user="Snusmumriken" changeset="6315886" lat="42.441489" lon="19.2624275">
    <tag k="capital" v="yes"/>
    <tag k="is_in" v="Montenegro"/>
    <tag k="is_in:continent" v="Europe"/>
    <tag k="name" v="Podgorica"/>
    <tag k="name:el" v="Ποντγκόριτσα"/>
    <tag k="name:fr" v="Podgorica"/>
    <tag k="name:is" v="Podgorica"/>
    <tag k="name:ru" v="Подгорица"/>
    <tag k="name:sv" v="Podgorica"/>
    <tag k="place" v="city"/>
    <tag k="population" v="169132"/>
    <tag k="wikipedia" v="Podgorica"/>
    <tag k="wikipedia:fr" v="Podgorica"/>
  </node>
  <node id="123860883" version="13" timestamp="2010-11-12T19:03:13Z" uid="152074" user="beweta" changeset="6353245" lat="42.4415238" lon="19.2621081">
    <tag k="capital" v="yes"/>
    <tag k="is_in" v="Montenegro"/>
    <tag k="is_in:continent" v="Europe"/>
    <tag k="name" v="Podgorica"/>
    <tag k="name:el" v="Ποντγκόριτσα"/>
    <tag k="name:fr" v="Podgorica"/>
    <tag k="name:is" v="Podgorica"/>
    <tag k="name:ru" v="Подгорица"/>
    <tag k="name:sv" v="Podgorica"/>
    <tag k="old_name" v="Titograd"/>
    <tag k="place" v="city"/>
    <tag k="population" v="169132"/>
    <tag k="wikipedia" v="Podgorica"/>
    <tag k="wikipedia:fr" v="Podgorica"/>
  </node>
  <node id="123860883" version="14" timestamp="2011-04-04T23:38:04Z" uid="202858" user="kellerma" changeset="7770731" lat="42.4415238" lon="19.2621081">
    <tag k="capital" v="yes"/>
    <tag k="is_in" v="Montenegro"/>
    <tag k="is_in:continent" v="Europe"/>
    <tag k="name" v="Podgorica"/>
    <tag k="name:de" v="Podgorica"/>
    <tag k="name:el" v="Ποντγκόριτσα"/>
    <tag k="name:fr" v="Podgorica"/>
    <tag k="name:is" v="Podgorica"/>
    <tag k="name:ru" v="Подгорица"/>
    <tag k="name:sv" v="Podgorica"/>
    <tag k="old_name" v="Titograd"/>
    <tag k="place" v="city"/>
    <tag k="population" v="169132"/>
    <tag k="wikipedia" v="Podgorica"/>
    <tag k="wikipedia:fr" v="Podgorica"/>
  </node>
  <node id="123860883" version="15" timestamp="2011-04-06T16:12:20Z" uid="7045" user="Xuacu" changeset="7786452" lat="42.4415238" lon="19.2621081">
    <tag k="capital" v="yes"/>
    <tag k="is_in" v="Montenegro"/>
    <tag k="is_in:continent" v="Europe"/>
    <tag k="name" v="Podgorica"/>
    <tag k="name:ast" v="Podgorica"/>
    <tag k="name:de" v="Podgorica"/>
    <tag k="name:el" v="Ποντγκόριτσα"/>
    <tag k="name:es" v="Podgorica"/>
    <tag k="name:fr" v="Podgorica"/>
    <tag k="name:is" v="Podgorica"/>
    <tag k="name:ru" v="Подгорица"/>
    <tag k="name:sv" v="Podgorica"/>
    <tag k="old_name" v="Titograd"/>
    <tag k="place" v="city"/>
    <tag k="population" v="169132"/>
    <tag k="wikipedia" v="Podgorica"/>
    <tag k="wikipedia:fr" v="Podgorica"/>
  </node>
  <node id="123860883" version="16" timestamp="2011-05-15T07:52:13Z" uid="212207" user="SunCobalt" changeset="8148530" lat="42.4415238" lon="19.2621081">
    <tag k="capital" v="yes"/>
    <tag k="is_in" v="Montenegro"/>
    <tag k="is_in:continent" v="Europe"/>
    <tag k="name" v="Podgorica"/>
    <tag k="name:ast" v="Podgorica"/>
    <tag k="name:de" v="Podgorica"/>
    <tag k="name:el" v="Ποντγκόριτσα"/>
    <tag k="name:es" v="Podgorica"/>
    <tag k="name:fr" v="Podgorica"/>
    <tag k="name:is" v="Podgorica"/>
    <tag k="name:ru" v="Подгорица"/>
    <tag k="name:sr" v="Подгорица"/>
    <tag k="name:sv" v="Podgorica"/>
    <tag k="old_name" v="Titograd"/>
    <tag k="place" v="city"/>
    <tag k="population" v="169132"/>
    <tag k="wikipedia" v="Podgorica"/>
    <tag k="wikipedia:fr" v="Podgorica"/>
  </node>
  <node id="123860883" version="17" timestamp="2012-03-25T10:22:24Z" uid="500313" user="Pedja" changeset="11093398" lat="42.4415238" lon="19.2621081">
    <tag k="capital" v="yes"/>
    <tag k="is_in" v="Montenegro"/>
    <tag k="is_in:continent" v="Europe"/>
    <tag k="name" v="Подгорица"/>
    <tag k="name:ast" v="Podgorica"/>
    <tag k="name:de" v="Podgorica"/>
    <tag k="name:el" v="Ποντγκόριτσα"/>
    <tag k="name:es" v="Podgorica"/>
    <tag k="name:fr" v="Podgorica"/>
    <tag k="name:is" v="Podgorica"/>
    <tag k="name:ru" v="Подгорица"/>
    <tag k="name:sr" v="Подгорица"/>
    <tag k="name:sr-Latn" v="Podgorica"/>
    <tag k="name:sv" v="Podgorica"/>
    <tag k="old_name" v="Titograd"/>
    <tag k="place" v="city"/>
    <tag k="population" v="169132"/>
    <tag k="wikipedia" v="Podgorica"/>
    <tag k="wikipedia:fr" v="Podgorica"/>
  </node>
  <node id="123863902" version="5" timestamp="2008-12-13T12:27:11Z" uid="58091" user="Andreas M" changeset="344092" lat="48.1983532" lon="16.3392048"/>
  <node id="123863902" version="6" timestamp="2009-07-30T07:06:41Z" uid="28427" user="skunk" changeset="1982132" lat="48.1984174" lon="16.3391834"/>
  <node id="123863902" version="7" timestamp="2010-11-23T22:34:48Z" uid="41463" user="digitalhippie" changeset="6443279" lat="48.1983887" lon="16.3392005"/>
  <node id="123863902" version="8" timestamp="2010-12-15T16:51:12Z" uid="49642" user="realadry" changeset="6669332" lat="48.1984063" lon="16.3392005"/>
  <node id="123863902" version="9" timestamp="2011-02-07T16:23:31Z" uid="16763" user="hatschibratschi" changeset="7217740" lat="48.1984063" lon="16.3392005"/>
  <node id="123865355" version="1" timestamp="2007-11-19T16:33:01Z" uid="1066" user="pavel" changeset="568091" lat="50.0633119" lon="14.6318524">
    <tag k="created_by" v="JOSM"/>
  </node>
  <node id="123865355" version="2" timestamp="2009-03-29T13:42:27Z" uid="3516" user="BiIbo" changeset="867555" lat="50.0630077" lon="14.6308904"/>
  <node id="123865377" version="1" timestamp="2007-11-19T16:33:02Z" uid="1066" user="pavel" changeset="568091" lat="50.0634759" lon="14.632581">
    <tag k="created_by" v="JOSM"/>
  </node>
  <node id="123865377" version="2" timestamp="2009-03-29T13:42:28Z" uid="3516" user="BiIbo" changeset="867555" lat="50.063639" lon="14.6332009"/>
  <node id="123865400" version="1" timestamp="2007-11-19T16:33:02Z" uid="1066" user="pavel" changeset="568091" lat="50.0636762" lon="14.6331639">
    <tag k="created_by" v="JOSM"/>
  </node>
  <node id="123865400" version="2" timestamp="2009-03-29T13:42:28Z" uid="3516" user="BiIbo" changeset="867555" lat="50.0636892" lon="14.6335425"/>
  <node id="123865420" version="1" timestamp="2007-11-19T16:33:03Z" uid="1066" user="pavel" changeset="568091" lat="50.0637309" lon="14.6336922">
    <tag k="created_by" v="JOSM"/>
  </node>
  <node id="123865420" version="2" timestamp="2009-03-29T13:42:27Z" uid="3516" user="BiIbo" changeset="867555" lat="50.0637106" lon="14.6338588"/>
  <node id="123865431" version="1" timestamp="2007-11-19T16:33:04Z" uid="1066" user="pavel" changeset="568091" lat="50.0636762" lon="14.6341293">
    <tag k="created_by" v="JOSM"/>
  </node>
  <node id="123865431" version="2" timestamp="2009-03-29T13:42:27Z" uid="3516" user="BiIbo" changeset="867555" lat="50.063667" lon="14.6342384"/>
  <node id="123865453" version="1" timestamp="2007-11-19T16:33:04Z" uid="1066" user="pavel" changeset="568091" lat="50.0633666" lon="14.6352951">
    <tag k="created_by" v="JOSM"/>
  </node>
  <node id="123865453" version="2" timestamp="2012-02-09T22:36:37Z" uid="8007" user="vrabcak" changeset="10639034" lat="50.0633666" lon="14.6352951"/>
  <node id="123865469" version="1" timestamp="2007-11-19T16:33:05Z" uid="1066" user="pavel" changeset="568091" lat="50.0629476" lon="14.6365338">
    <tag k="created_by" v="JOSM"/>
  </node>
  <node id="123865469" version="2" timestamp="2011-02-24T11:14:42Z" uid="25867" user="adamos" changeset="7380540" lat="50.0629656" lon="14.6365411"/>
  <node id="123865469" version="3" timestamp="2011-05-17T13:52:58Z" uid="25867" user="adamos" changeset="8171915" lat="50.062986" lon="14.6365503"/>
  <node id="123865487" version="1" timestamp="2007-11-19T16:33:06Z" uid="1066" user="pavel" changeset="568091" lat="50.0632937" lon="14.6370256">
    <tag k="created_by" v="JOSM"/>
  </node>
  <node id="123865487" version="2" timestamp="2009-03-29T15:26:02Z" uid="3516" user="BiIbo" changeset="867555" lat="50.0632881" lon="14.6370402"/>
  <node id="123865487" version="3" timestamp="2012-02-09T22:36:37Z" uid="8007" user="vrabcak" changeset="10639034" lat="50.0632881" lon="14.6370402"/>
  <node id="123865506" version="1" timestamp="2007-11-19T16:33:06Z" uid="1066" user="pavel" changeset="568091" lat="50.0636398" lon="14.6371895">
    <tag k="created_by" v="JOSM"/>
  </node>
  <node id="123865506" version="2" timestamp="2009-03-29T15:26:02Z" uid="3516" user="BiIbo" changeset="867555" lat="50.0634502" lon="14.6371544"/>
  <node id="123865506" version="3" timestamp="2012-02-09T22:36:37Z" uid="8007" user="vrabcak" changeset="10639034" lat="50.0634502" lon="14.6371544"/>
  <node id="123865517" version="1" timestamp="2007-11-19T16:33:07Z" uid="1066" user="pavel" changeset="568091" lat="50.0640952" lon="14.6372442">
    <tag k="created_by" v="JOSM"/>
  </node>
  <node id="123865517" version="2" timestamp="2009-03-29T15:26:02Z" uid="3516" user="BiIbo" changeset="867555" lat="50.0641515" lon="14.6372793"/>
  <node id="123865517" version="3" timestamp="2012-02-09T22:36:37Z" uid="8007" user="vrabcak" changeset="10639034" lat="50.0641515" lon="14.6372793"/>
  <node id="123865531" version="1" timestamp="2007-11-19T16:33:08Z" uid="1066" user="pavel" changeset="568091" lat="50.0643866" lon="14.6373899">
    <tag k="created_by" v="JOSM"/>
  </node>
  <node id="123865531" version="2" timestamp="2012-02-09T22:36:38Z" uid="8007" user="vrabcak" changeset="10639034" lat="50.0643866" lon="14.6373899"/>
  <node id="123865541" version="1" timestamp="2007-11-19T16:33:08Z" uid="1066" user="pavel" changeset="568091" lat="50.0644959" lon="14.637572">
    <tag k="created_by" v="JOSM"/>
  </node>
  <node id="123865541" version="2" timestamp="2008-01-19T13:00:51Z" uid="1066" user="pavel" changeset="665184" lat="50.0644779" lon="14.6374999">
    <tag k="created_by" v="JOSM"/>
  </node>
  <node id="123865541" version="3" timestamp="2009-03-29T15:26:02Z" uid="3516" user="BiIbo" changeset="867555" lat="50.0644854" lon="14.6375379"/>
  <node id="123865560" version="1" timestamp="2007-11-19T16:33:09Z" uid="1066" user="pavel" changeset="568091" lat="50.0646599" lon="14.6379728">
    <tag k="created_by" v="JOSM"/>
  </node>
  <node id="123865560" version="2" timestamp="2009-03-29T15:26:01Z" uid="3516" user="BiIbo" changeset="867555" lat="50.06475" lon="14.6382739"/>
  <node id="123865560" version="3" timestamp="2012-02-09T22:36:38Z" uid="8007" user="vrabcak" changeset="10639034" lat="50.06475" lon="14.6382739"/>
  <node id="123865570" version="1" timestamp="2007-11-19T16:33:10Z" uid="1066" user="pavel" changeset="568091" lat="50.0648967" lon="14.6386103">
    <tag k="created_by" v="JOSM"/>
  </node>
  <node id="123865570" version="2" timestamp="2012-02-09T22:36:38Z" uid="8007" user="vrabcak" changeset="10639034" lat="50.0648967" lon="14.6386103"/>
  <node id="123865590" version="1" timestamp="2007-11-19T16:33:10Z" uid="1066" user="pavel" changeset="568091" lat="50.0650606" lon="14.6387924">
    <tag k="created_by" v="JOSM"/>
  </node>
  <node id="123865590" version="2" timestamp="2011-02-24T11:14:42Z" uid="25867" user="adamos" changeset="7380540" lat="50.0650489" lon="14.6388075"/>
  <node id="123865590" version="3" timestamp="2012-02-09T22:36:38Z" uid="8007" user="vrabcak" changeset="10639034" lat="50.0650489" lon="14.6388075"/>
  <node id="123865623" version="1" timestamp="2007-11-19T16:33:11Z" uid="1066" user="pavel" changeset="568091" lat="50.0652063" lon="14.6389017">
    <tag k="created_by" v="JOSM"/>
  </node>
  <node id="123865623" version="2" timestamp="2012-02-09T22:36:38Z" uid="8007" user="vrabcak" changeset="10639034" lat="50.0652063" lon="14.6389017"/>
  <node id="123865638" version="1" timestamp="2007-11-19T16:33:12Z" uid="1066" user="pavel" changeset="568091" lat="50.0654796" lon="14.6390292">
    <tag k="created_by" v="JOSM"/>
  </node>
  <node id="123865638" version="2" timestamp="2009-03-29T13:48:20Z" uid="3516" user="BiIbo" changeset="867555" lat="50.065451" lon="14.6390292"/>
  <node id="123865638" version="3" timestamp="2012-02-09T22:36:38Z" uid="8007" user="vrabcak" changeset="10639034" lat="50.065451" lon="14.6390292"/>
  <node id="123865654" version="1" timestamp="2007-11-19T16:33:13Z" uid="1066" user="pavel" changeset="568091" lat="50.0658074" lon="14.6392296">
    <tag k="created_by" v="JOSM"/>
    <tag k="highway" v="tertiary"/>
  </node>
  <node id="123865654" version="2" timestamp="2008-01-29T19:59:28Z" uid="3516" user="BiIbo" changeset="709929" lat="50.0658074" lon="14.6392296"/>
  <node id="123865654" version="3" timestamp="2012-02-09T22:36:38Z" uid="8007" user="vrabcak" changeset="10639034" lat="50.0658074" lon="14.6392296"/>
  <node id="123865671" version="1" timestamp="2007-11-19T16:33:14Z" uid="1066" user="pavel" changeset="568091" lat="50.0670643" lon="14.6377724">
    <tag k="created_by" v="JOSM"/>
  </node>
  <node id="123865671" version="2" timestamp="2012-02-09T22:36:39Z" uid="8007" user="vrabcak" changeset="10639034" lat="50.0670643" lon="14.6377724"/>
  <node id="123865690" version="1" timestamp="2007-11-19T16:33:14Z" uid="1066" user="pavel" changeset="568091" lat="50.0677018" lon="14.6366795">
    <tag k="created_by" v="JOSM"/>
  </node>
  <node id="123865690" version="2" timestamp="2012-02-09T22:36:39Z" uid="8007" user="vrabcak" changeset="10639034" lat="50.0677018" lon="14.6366795"/>
  <node id="123865720" version="1" timestamp="2007-11-19T16:33:15Z" uid="1066" user="pavel" changeset="568091" lat="50.0684851" lon="14.6350948">
    <tag k="created_by" v="JOSM"/>
  </node>
  <node id="123865720" version="2" timestamp="2012-02-09T22:36:39Z" uid="8007" user="vrabcak" changeset="10639034" lat="50.0684851" lon="14.6350948"/>
  <node id="123865732" version="1" timestamp="2007-11-19T16:33:16Z" uid="1066" user="pavel" changeset="568091" lat="50.0691226" lon="14.6335829">
    <tag k="created_by" v="JOSM"/>
  </node>
  <node id="123865732" version="2" timestamp="2012-02-09T22:36:39Z" uid="8007" user="vrabcak" changeset="10639034" lat="50.0691226" lon="14.6335829"/>
  <node id="123865753" version="1" timestamp="2007-11-19T16:33:16Z" uid="1066" user="pavel" changeset="568091" lat="50.0694505" lon="14.6326721">
    <tag k="created_by" v="JOSM"/>
  </node>
  <node id="123865753" version="2" timestamp="2012-02-09T22:36:39Z" uid="8007" user="vrabcak" changeset="10639034" lat="50.0694505" lon="14.6326721"/>
  <node id="123865769" version="1" timestamp="2007-11-19T16:33:17Z" uid="1066" user="pavel" changeset="568091" lat="50.0697237" lon="14.6322714">
    <tag k="created_by" v="JOSM"/>
  </node>
  <node id="123865769" version="2" timestamp="2012-02-09T22:36:39Z" uid="8007" user="vrabcak" changeset="10639034" lat="50.0697237" lon="14.6322714"/>
  <node id="123865784" version="1" timestamp="2007-11-19T16:33:17Z" uid="1066" user="pavel" changeset="568091" lat="50.070598" lon="14.6313424">
    <tag k="created_by" v="JOSM"/>
  </node>
  <node id="123865784" version="2" timestamp="2012-02-09T22:36:39Z" uid="8007" user="vrabcak" changeset="10639034" lat="50.070598" lon="14.6313424"/>
  <node id="123865792" version="1" timestamp="2007-11-19T16:33:18Z" uid="1066" user="pavel" changeset="568091" lat="50.0717456" lon="14.630122">
    <tag k="created_by" v="JOSM"/>
  </node>
  <node id="123865792" version="2" timestamp="2012-02-09T22:36:40Z" uid="8007" user="vrabcak" changeset="10639034" lat="50.0717456" lon="14.630122"/>
  <node id="123865810" version="1" timestamp="2007-11-19T16:33:18Z" uid="1066" user="pavel" changeset="568091" lat="50.0725653" lon="14.6292477">
    <tag k="created_by" v="JOSM"/>
  </node>
  <node id="123865810" version="2" timestamp="2012-02-09T22:36:40Z" uid="8007" user="vrabcak" changeset="10639034" lat="50.0725653" lon="14.6292477"/>
  <node id="123865834" version="1" timestamp="2007-11-19T16:33:19Z" uid="1066" user="pavel" changeset="568091" lat="50.0729296" lon="14.6287558">
    <tag k="created_by" v="JOSM"/>
  </node>
  <node id="123865834" version="2" timestamp="2012-02-09T22:36:40Z" uid="8007" user="vrabcak" changeset="10639034" lat="50.0729296" lon="14.6287558"/>
  <node id="123865852" version="1" timestamp="2007-11-19T16:33:20Z" uid="1066" user="pavel" changeset="568091" lat="50.0732939" lon="14.6283551">
    <tag k="created_by" v="JOSM"/>
  </node>
  <node id="123865852" version="2" timestamp="2012-02-09T22:36:40Z" uid="8007" user="vrabcak" changeset="10639034" lat="50.0732939" lon="14.6283551"/>
  <node id="123865875" version="1" timestamp="2007-11-19T16:33:21Z" uid="1066" user="pavel" changeset="568091" lat="50.0737493" lon="14.6279726">
    <tag k="created_by" v="JOSM"/>
  </node>
  <node id="123865875" version="2" timestamp="2012-02-09T22:36:40Z" uid="8007" user="vrabcak" changeset="10639034" lat="50.0737493" lon="14.6279726"/>
  <node id="123865889" version="1" timestamp="2007-11-19T16:33:22Z" uid="1066" user="pavel" changeset="568091" lat="50.0742261" lon="14.6276581">
    <tag k="created_by" v="JOSM"/>
  </node>
  <node id="123865889" version="2" timestamp="2012-02-09T22:36:40Z" uid="8007" user="vrabcak" changeset="10639034" lat="50.0742261" lon="14.6276581"/>
  <node id="123866038" version="1" timestamp="2007-11-19T16:33:28Z" uid="1066" user="pavel" changeset="568091" lat="50.0604865" lon="14.6378975">
    <tag k="created_by" v="JOSM"/>
  </node>
  <node id="123866038" version="2" timestamp="2009-03-29T14:52:34Z" uid="3516" user="BiIbo" changeset="867555" lat="50.0604749" lon="14.6380513"/>
  <node id="123866060" version="1" timestamp="2007-11-19T16:33:28Z" uid="1066" user="pavel" changeset="568091" lat="50.0606414" lon="14.6360387">
    <tag k="created_by" v="JOSM"/>
  </node>
  <node id="123866060" version="2" timestamp="2012-02-09T22:36:40Z" uid="8007" user="vrabcak" changeset="10639034" lat="50.0606414" lon="14.6360387"/>
  <node id="123866069" version="1" timestamp="2007-11-19T16:33:29Z" uid="1066" user="pavel" changeset="568091" lat="50.0632628" lon="14.6373857">
    <tag k="created_by" v="JOSM"/>
  </node>
  <node id="123866069" version="2" timestamp="2012-02-09T22:36:40Z" uid="8007" user="vrabcak" changeset="10639034" lat="50.0632628" lon="14.6373857"/>
  <node id="123866087" version="1" timestamp="2007-11-19T16:33:30Z" uid="1066" user="pavel" changeset="568091" lat="50.0632596" lon="14.6375639">
    <tag k="created_by" v="JOSM"/>
  </node>
  <node id="123866087" version="2" timestamp="2011-05-17T13:52:58Z" uid="25867" user="adamos" changeset="8171915" lat="50.0632414" lon="14.6375872"/>
  <node id="123866087" version="3" timestamp="2012-02-09T22:36:40Z" uid="8007" user="vrabcak" changeset="10639034" lat="50.0632414" lon="14.6375872"/>
  <node id="123866104" version="1" timestamp="2007-11-19T16:33:30Z" uid="1066" user="pavel" changeset="568091" lat="50.0632096" lon="14.6378045">
    <tag k="created_by" v="JOSM"/>
  </node>
  <node id="123866104" version="2" timestamp="2012-02-09T22:36:40Z" uid="8007" user="vrabcak" changeset="10639034" lat="50.0632096" lon="14.6378045"/>
  <node id="123866117" version="1" timestamp="2007-11-19T16:33:31Z" uid="1066" user="pavel" changeset="568091" lat="50.0630878" lon="14.6380358">
    <tag k="created_by" v="JOSM"/>
  </node>
  <node id="123866117" version="2" timestamp="2012-02-09T22:36:40Z" uid="8007" user="vrabcak" changeset="10639034" lat="50.0630878" lon="14.6380358"/>
  <node id="123866129" version="1" timestamp="2007-11-19T16:33:32Z" uid="1066" user="pavel" changeset="568091" lat="50.0629221" lon="14.6385608">
    <tag k="created_by" v="JOSM"/>
  </node>
  <node id="123866129" version="2" timestamp="2012-02-09T22:36:41Z" uid="8007" user="vrabcak" changeset="10639034" lat="50.0629221" lon="14.6385608"/>
  <node id="123866155" version="1" timestamp="2007-11-19T16:33:33Z" uid="1066" user="pavel" changeset="568091" lat="50.0626784" lon="14.639517">
    <tag k="created_by" v="JOSM"/>
  </node>
  <node id="123866155" version="2" timestamp="2012-02-09T22:36:41Z" uid="8007" user="vrabcak" changeset="10639034" lat="50.0626784" lon="14.639517"/>
  <node id="123866170" version="1" timestamp="2007-11-19T16:33:34Z" uid="1066" user="pavel" changeset="568091" lat="50.0625596" lon="14.6409764">
    <tag k="created_by" v="JOSM"/>
  </node>
  <node id="123866170" version="2" timestamp="2011-05-17T13:52:58Z" uid="25867" user="adamos" changeset="8171915" lat="50.0625172" lon="14.6411982"/>
  <node id="123866180" version="1" timestamp="2007-11-19T16:33:34Z" uid="1066" user="pavel" changeset="568091" lat="50.0624409" lon="14.641392">
    <tag k="created_by" v="JOSM"/>
  </node>
  <node id="123866180" version="2" timestamp="2011-05-17T13:52:58Z" uid="25867" user="adamos" changeset="8171915" lat="50.06241" lon="14.6414566"/>
  <node id="123866190" version="1" timestamp="2007-11-19T16:33:35Z" uid="1066" user="pavel" changeset="568091" lat="50.0624471" lon="14.6419327">
    <tag k="created_by" v="JOSM"/>
  </node>
  <node id="123866190" version="2" timestamp="2011-05-17T13:52:58Z" uid="25867" user="adamos" changeset="8171915" lat="50.062431" lon="14.6419263"/>
  <node id="123866201" version="1" timestamp="2007-11-19T16:33:35Z" uid="1066" user="pavel" changeset="568091" lat="50.0624409" lon="14.6423483">
    <tag k="created_by" v="JOSM"/>
    <tag k="highway" v="residential"/>
  </node>
  <node id="123866201" version="2" timestamp="2008-01-29T19:59:27Z" uid="3516" user="BiIbo" changeset="709929" lat="50.0624409" lon="14.6423483"/>
  <node id="123866201" version="3" timestamp="2011-05-17T13:52:58Z" uid="25867" user="adamos" changeset="8171915" lat="50.0624351" lon="14.6423135">
    <tag k="barrier" v="bollard"/>
  </node>
  <node id="123866216" version="1" timestamp="2007-11-19T16:33:36Z" uid="1066" user="pavel" changeset="568091" lat="50.0647878" lon="14.6386514">
    <tag k="created_by" v="JOSM"/>
  </node>
  <node id="123866216" version="2" timestamp="2012-02-09T22:36:41Z" uid="8007" user="vrabcak" changeset="10639034" lat="50.0647878" lon="14.6386514"/>
  <node id="123866226" version="1" timestamp="2007-11-19T16:33:36Z" uid="1066" user="pavel" changeset="568091" lat="50.064494" lon="14.6386389">
    <tag k="created_by" v="JOSM"/>
  </node>
  <node id="123866226" version="2" timestamp="2012-02-09T22:36:41Z" uid="8007" user="vrabcak" changeset="10639034" lat="50.064494" lon="14.6386389"/>
  <node id="123866238" version="1" timestamp="2007-11-19T16:33:37Z" uid="1066" user="pavel" changeset="568091" lat="50.0639253" lon="14.6386139">
    <tag k="created_by" v="JOSM"/>
  </node>
  <node id="123866238" version="2" timestamp="2012-02-09T22:36:41Z" uid="8007" user="vrabcak" changeset="10639034" lat="50.0639253" lon="14.6386139"/>
  <node id="123866256" version="1" timestamp="2007-11-19T16:33:37Z" uid="1066" user="pavel" changeset="568091" lat="50.0637628" lon="14.6395483">
    <tag k="created_by" v="JOSM"/>
  </node>
  <node id="123866256" version="2" timestamp="2012-02-09T22:36:41Z" uid="8007" user="vrabcak" changeset="10639034" lat="50.0637628" lon="14.6395483"/>
  <node id="123866271" version="1" timestamp="2007-11-19T16:33:38Z" uid="1066" user="pavel" changeset="568091" lat="50.0636628" lon="14.639817">
    <tag k="created_by" v="JOSM"/>
  </node>
  <node id="123866271" version="2" timestamp="2012-02-09T22:36:42Z" uid="8007" user="vrabcak" changeset="10639034" lat="50.0636628" lon="14.639817"/>
  <node id="123866278" version="1" timestamp="2007-11-19T16:33:38Z" uid="1066" user="pavel" changeset="568091" lat="50.0633253" lon="14.6407639">
    <tag k="created_by" v="JOSM"/>
  </node>
  <node id="123866278" version="2" timestamp="2012-02-09T22:36:42Z" uid="8007" user="vrabcak" changeset="10639034" lat="50.0633253" lon="14.6407639"/>
  <node id="123866291" version="1" timestamp="2007-11-19T16:33:38Z" uid="1066" user="pavel" changeset="568091" lat="50.0631565" lon="14.6417233">
    <tag k="created_by" v="JOSM"/>
  </node>
  <node id="123866291" version="2" timestamp="2012-02-09T22:36:42Z" uid="8007" user="vrabcak" changeset="10639034" lat="50.0631565" lon="14.6417233"/>
  <node id="123866304" version="1" timestamp="2007-11-19T16:33:39Z" uid="1066" user="pavel" changeset="568091" lat="50.0620211" lon="14.6415946">
    <tag k="created_by" v="JOSM"/>
  </node>
  <node id="123866304" version="2" timestamp="2012-02-09T22:36:42Z" uid="8007" user="vrabcak" changeset="10639034" lat="50.0620211" lon="14.6415946"/>
  <node id="123866315" version="1" timestamp="2007-11-19T16:33:40Z" uid="1066" user="pavel" changeset="568091" lat="50.0620176" lon="14.6406295">
    <tag k="created_by" v="JOSM"/>
  </node>
  <node id="123866315" version="2" timestamp="2012-02-09T22:36:42Z" uid="8007" user="vrabcak" changeset="10639034" lat="50.0620176" lon="14.6406295"/>
  <node id="123866330" version="1" timestamp="2007-11-19T16:33:40Z" uid="1066" user="pavel" changeset="568091" lat="50.0620657" lon="14.639496">
    <tag k="created_by" v="JOSM"/>
  </node>
  <node id="123866330" version="2" timestamp="2009-03-29T13:42:26Z" uid="3516" user="BiIbo" changeset="867555" lat="50.062058" lon="14.6397208"/>
  <node id="123866330" version="3" timestamp="2012-02-09T22:36:42Z" uid="8007" user="vrabcak" changeset="10639034" lat="50.062058" lon="14.6397208"/>
  <node id="123866335" version="1" timestamp="2007-11-19T16:33:41Z" uid="1066" user="pavel" changeset="568091" lat="50.061997" lon="14.6389362">
    <tag k="created_by" v="JOSM"/>
  </node>
  <node id="123866335" version="2" timestamp="2009-03-29T13:42:27Z" uid="3516" user="BiIbo" changeset="867555" lat="50.0620517" lon="14.6393909"/>
  <node id="123866335" version="3" timestamp="2012-02-09T22:36:42Z" uid="8007" user="vrabcak" changeset="10639034" lat="50.0620517" lon="14.6393909"/>
</osm>
