<?xml version='1.0' encoding='UTF-8'?>
<osm version="0.6" generator="libosmium/2.20.0">
  <node id="1243177196" version="1" timestamp="2011-04-13T12:29:35Z" uid="437005" user="ssb2005" changeset="7851386" lat="-32.4841467" lon="137.7579321">
    <tag k="name" v="Westside Vegie Patch"/>
    <tag k="shop" v="greengrocer"/>
  </node>
  <node id="1243177196" version="2" timestamp="2011-04-16T01:54:21Z" uid="4467" user="Rosscoe" changeset="7874963" lat="-32.4841785" lon="137.758079">
    <tag k="name" v="Westside Vegie Patch"/>
    <tag k="shop" v="greengrocer"/>
  </node>
  <node id="1243177249" version="1" timestamp="2011-04-13T12:29:36Z" uid="437005" user="ssb2005" changeset="7851386" lat="-32.4855223" lon="137.7584685">
    <tag k="amenity" v="pub"/>
    <tag k="name" v="Augusta Hotel"/>
    <tag k="wifi" v="no"/>
  </node>
  <node id="1243177249" version="2" timestamp="2011-04-16T01:54:22Z" uid="4467" user="Rosscoe" changeset="7874963" lat="-32.4854502" lon="137.7585611">
    <tag k="amenity" v="pub"/>
    <tag k="name" v="Augusta Hotel"/>
    <tag k="wifi" v="no"/>
  </node>
  <node id="1243177285" version="1" timestamp="2011-04-13T12:29:37Z" uid="437005" user="ssb2005" changeset="7851386" lat="-32.486382" lon="137.759638">
    <tag k="leisure" v="slipway"/>
    <tag k="name" v="Augusta West Boat ramp"/>
  </node>
  <node id="1243177285" version="2" timestamp="2011-04-13T13:56:50Z" uid="437005" user="ssb2005" changeset="7851983" lat="-32.4863662" lon="137.7595425">
    <tag k="leisure" v="slipway"/>
    <tag k="name" v="Augusta West Boat ramp"/>
  </node>
  <node id="1243177285" version="3" timestamp="2011-04-16T01:54:21Z" uid="4467" user="Rosscoe" changeset="7874963" lat="-32.4864573" lon="137.7596329">
    <tag k="leisure" v="slipway"/>
    <tag k="name" v="Augusta West Boat ramp"/>
  </node>
  <node id="1243177311" version="3" timestamp="2011-04-21T04:49:23Z" uid="4467" user="Rosscoe" changeset="7921941" lat="-32.4736108" lon="137.7518324">
    <tag k="shop" v="convenience"/>
  </node>
</osm>
