<?xml version='1.0' encoding='UTF-8'?>
<osm version="0.6" generator="libosmium/2.20.0">
  <node id="1245765873" version="3" timestamp="2011-05-31T12:08:24Z" uid="115477" user="wowik" changeset="8300738" lat="55.8043695" lon="37.5160433">
    <tag k="name" v="Станция метро &quot;Сокол&quot;"/>
    <tag k="public_transport" v="stop_position"/>
    <tag k="trolleybus" v="yes"/>
  </node>
  <node id="1245765873" version="4" timestamp="2011-08-09T13:53:32Z" uid="65083" user="deep125" changeset="8967438" lat="55.8043231" lon="37.5163076">
    <tag k="name" v="Станция метро &quot;Сокол&quot;"/>
    <tag k="public_transport" v="stop_position"/>
    <tag k="trolleybus" v="yes"/>
  </node>
  <node id="1245765873" version="5" timestamp="2011-09-15T04:30:50Z" uid="481934" user="iWowik" changeset="9304751" lat="55.8042709" lon="37.5162899">
    <tag k="name" v="Станция метро &quot;Сокол&quot;"/>
    <tag k="public_transport" v="stop_position"/>
    <tag k="trolleybus" v="yes"/>
  </node>
  <node id="1245765873" version="6" timestamp="2011-09-15T05:05:07Z" uid="481934" user="iWowik" changeset="9304825" lat="55.8042631" lon="37.5163197">
    <tag k="name" v="Станция метро &quot;Сокол&quot;"/>
    <tag k="public_transport" v="stop_position"/>
    <tag k="trolleybus" v="yes"/>
  </node>
  <node id="1245765873" version="7" timestamp="2011-11-20T22:31:47Z" uid="7547" user="edinorog" changeset="9890936" lat="55.8042631" lon="37.5163197"/>
  <node id="1245765873" version="8" timestamp="2012-01-18T10:38:41Z" uid="481934" user="iWowik" changeset="10426080" lat="55.8043323" lon="37.5161538"/>
  <node id="1245765875" version="3" timestamp="2011-05-23T08:53:07Z" uid="115477" user="wowik" changeset="8224149" lat="55.8068991" lon="37.5046912">
    <tag k="bus" v="yes"/>
    <tag k="name" v="Институт &quot;Гидропроект&quot;"/>
    <tag k="public_transport" v="stop_position"/>
    <tag k="trolleybus" v="yes"/>
  </node>
  <node id="1245765875" version="4" timestamp="2012-02-26T10:21:28Z" uid="384084" user="Kostik" changeset="10796233" lat="55.8068991" lon="37.5046912">
    <tag k="bus" v="yes"/>
    <tag k="name" v="Институт &quot;Гидропроект&quot;"/>
    <tag k="public_transport" v="stop_position"/>
    <tag k="trolleybus" v="yes"/>
  </node>
</osm>
