<?xml version='1.0' encoding='UTF-8'?>
<osm version="0.6" generator="libosmium/2.20.0">
  <node id="12610219" version="4" timestamp="2008-07-14T23:26:20Z" uid="6975" user="ulfl" changeset="496348" lat="45.5124208" lon="6.0021167">
    <tag k="highway" v="toll_booth"/>
    <tag k="name" v="Échangeur de Chignin"/>
  </node>
  <node id="12610219" version="5" timestamp="2008-07-20T20:20:32Z" uid="37548" user="Marcussacapuces91" changeset="553377" lat="45.5124208" lon="6.0021167">
    <tag k="highway" v="toll_booth"/>
    <tag k="name" v="Échangeur de Chignin"/>
  </node>
  <node id="12610219" version="6" timestamp="2008-08-18T22:54:02Z" uid="22685" user="Gand&apos;" changeset="318060" lat="45.5124208" lon="6.0021167">
    <tag k="highway" v="toll_booth"/>
    <tag k="name" v="Péage de Chignin"/>
  </node>
  <node id="12610219" version="7" timestamp="2009-02-08T23:49:22Z" uid="9176" user="Maarten Deen" changeset="292394" lat="45.5124208" lon="6.0021167">
    <tag k="barrier" v="toll_booth"/>
    <tag k="name" v="Péage de Chignin"/>
  </node>
  <node id="12610219" version="8" timestamp="2009-05-02T13:30:17Z" uid="74847" user="Marc Mongenet" changeset="1048685" lat="45.512567" lon="6.0021769">
    <tag k="barrier" v="toll_booth"/>
    <tag k="name" v="Péage de Chignin"/>
  </node>
  <node id="12610219" version="9" timestamp="2009-06-26T17:35:14Z" uid="37548" user="Marcussacapuces91" changeset="1643104" lat="45.512504" lon="6.0020545">
    <tag k="barrier" v="toll_booth"/>
    <tag k="name" v="Péage de Chignin"/>
  </node>
  <node id="12610219" version="10" timestamp="2009-06-26T17:35:27Z" uid="37548" user="Marcussacapuces91" changeset="1643104" lat="45.5125341" lon="6.0020717">
    <tag k="barrier" v="toll_booth"/>
    <tag k="name" v="Péage de Chignin"/>
  </node>
  <node id="12610219" version="11" timestamp="2009-06-26T17:35:39Z" uid="37548" user="Marcussacapuces91" changeset="1643104" lat="45.5125582" lon="6.0020888">
    <tag k="barrier" v="toll_booth"/>
    <tag k="name" v="Péage de Chignin"/>
  </node>
  <node id="12610220" version="4" timestamp="2008-07-14T23:26:19Z" uid="6975" user="ulfl" changeset="496348" lat="45.513177" lon="6.0025254">
    <tag k="highway" v="toll_booth"/>
    <tag k="name" v="Échangeur de Chignin"/>
  </node>
  <node id="12610220" version="5" timestamp="2008-07-20T20:23:23Z" uid="37548" user="Marcussacapuces91" changeset="553377" lat="45.513177" lon="6.0025254">
    <tag k="highway" v="toll_booth"/>
    <tag k="name" v="Échangeur de Chignin"/>
  </node>
  <node id="12610220" version="6" timestamp="2008-08-18T22:54:02Z" uid="22685" user="Gand&apos;" changeset="318060" lat="45.513177" lon="6.0025254">
    <tag k="highway" v="toll_booth"/>
    <tag k="name" v="Péage de Chignin"/>
  </node>
  <node id="12610220" version="7" timestamp="2009-02-08T23:49:22Z" uid="9176" user="Maarten Deen" changeset="292394" lat="45.513177" lon="6.0025254">
    <tag k="barrier" v="toll_booth"/>
    <tag k="name" v="Péage de Chignin"/>
  </node>
  <node id="12610220" version="8" timestamp="2009-05-02T13:30:19Z" uid="74847" user="Marc Mongenet" changeset="1048685" lat="45.5130695" lon="6.0025125">
    <tag k="barrier" v="toll_booth"/>
    <tag k="name" v="Péage de Chignin"/>
  </node>
  <node id="12610220" version="9" timestamp="2009-06-26T17:45:05Z" uid="37548" user="Marcussacapuces91" changeset="1643104" lat="45.5130574" lon="6.0025523">
    <tag k="barrier" v="toll_booth"/>
    <tag k="name" v="Péage de Chignin"/>
  </node>
</osm>
