<?xml version='1.0' encoding='UTF-8'?>
<osm version="0.6" generator="libosmium/2.20.0">
  <node id="126450250" version="6" timestamp="2008-09-14T20:00:49Z" uid="6975" user="ulfl" changeset="640534" lat="48.1318779" lon="11.3647504">
    <tag k="amenity" v="bank"/>
    <tag k="atm" v="yes"/>
  </node>
  <node id="126450250" version="7" timestamp="2009-02-28T16:55:44Z" uid="59819" user="Fuss-im-Ohr" changeset="702501" lat="48.1318779" lon="11.3647504">
    <tag k="amenity" v="bank"/>
    <tag k="atm" v="yes"/>
    <tag k="name" v="FIX ME"/>
  </node>
  <node id="126450250" version="8" timestamp="2009-06-15T11:58:05Z" uid="129518" user="amenityeditor" changeset="1524255" lat="48.131878" lon="11.364751">
    <tag k="amenity" v="bank"/>
    <tag k="atm" v="yes"/>
    <tag k="name" v="Deutsche Bank"/>
  </node>
  <node id="126450250" version="9" timestamp="2009-07-19T18:09:37Z" uid="16290" user="MichaelK" changeset="1876778" lat="48.131878" lon="11.364751">
    <tag k="amenity" v="bank"/>
    <tag k="atm" v="yes"/>
    <tag k="name" v="Deutsche Bank"/>
    <tag k="operator" v="Deutsche Bank"/>
  </node>
  <node id="126450250" version="10" timestamp="2009-08-18T22:15:50Z" uid="68010" user="ms2000" changeset="2195831" lat="48.1317502" lon="11.3647378">
    <tag k="addr:city" v="Germering"/>
    <tag k="addr:country" v="DE"/>
    <tag k="addr:housenumber" v="1"/>
    <tag k="addr:postcode" v="82110"/>
    <tag k="addr:street" v="Beethovenstraße"/>
    <tag k="amenity" v="bank"/>
    <tag k="atm" v="yes"/>
    <tag k="name" v="Deutsche Bank"/>
    <tag k="operator" v="Deutsche Bank"/>
  </node>
  <node id="126450250" version="11" timestamp="2011-09-23T17:54:37Z" uid="290680" user="wheelmap_visitor" changeset="9373820" lat="48.1317502" lon="11.3647378">
    <tag k="addr:city" v="Germering"/>
    <tag k="addr:country" v="DE"/>
    <tag k="addr:housenumber" v="1"/>
    <tag k="addr:postcode" v="82110"/>
    <tag k="addr:street" v="Beethovenstraße"/>
    <tag k="amenity" v="bank"/>
    <tag k="atm" v="yes"/>
    <tag k="name" v="Deutsche Bank"/>
    <tag k="operator" v="Deutsche Bank"/>
    <tag k="wheelchair" v="yes"/>
  </node>
  <node id="126452458" version="2" timestamp="2008-08-14T19:53:07Z" uid="6975" user="ulfl" changeset="264731" lat="61.3667647" lon="5.2878004">
    <tag k="is_in" v="Askvoll,Sogn og Fjordane,Norway"/>
    <tag k="name" v="Eikenes"/>
    <tag k="place" v="hamlet"/>
  </node>
  <node id="126452458" version="3" timestamp="2010-11-15T01:47:53Z" uid="103253" user="gormur" changeset="6374567" lat="61.3667647" lon="5.2878004">
    <tag k="name" v="Eikenes"/>
    <tag k="place" v="hamlet"/>
  </node>
  <node id="126453732" version="3" timestamp="2008-07-03T18:22:44Z" uid="6975" user="ulfl" changeset="379368" lat="48.2238115" lon="16.3142125">
    <tag k="amenity" v="bank"/>
    <tag k="atm" v="yes"/>
    <tag k="name" v="Erste Bank"/>
  </node>
  <node id="126453732" version="4" timestamp="2009-01-12T09:04:28Z" uid="54806" user="_al" changeset="776320" lat="48.2238127" lon="16.3142103">
    <tag k="addr:city" v="Wien"/>
    <tag k="addr:housenumber" v="185"/>
    <tag k="addr:postcode" v="1170"/>
    <tag k="addr:street" v="Hernalser Hauptstraße"/>
    <tag k="amenity" v="bank"/>
    <tag k="atm" v="yes"/>
    <tag k="created_by" v="Potlatch 0.10f"/>
    <tag k="name" v="Erste Bank"/>
    <tag k="ref" v="6221, 11712, 23692"/>
  </node>
  <node id="126453732" version="5" timestamp="2009-02-08T17:43:25Z" uid="66904" user="OSchlüter" changeset="281431" lat="48.2238127" lon="16.3142103">
    <tag k="addr:city" v="Wien"/>
    <tag k="addr:country" v="AT"/>
    <tag k="addr:housenumber" v="185"/>
    <tag k="addr:postcode" v="1170"/>
    <tag k="addr:street" v="Hernalser Hauptstraße"/>
    <tag k="amenity" v="bank"/>
    <tag k="atm" v="yes"/>
    <tag k="created_by" v="Potlatch 0.10f"/>
    <tag k="name" v="Erste Bank"/>
    <tag k="ref" v="6221, 11712, 23692"/>
  </node>
  <node id="126453732" version="6" timestamp="2010-02-16T17:02:41Z" uid="78656" user="Walter Schlögl" changeset="3893895" lat="48.2238127" lon="16.3142103">
    <tag k="addr:city" v="Wien"/>
    <tag k="addr:country" v="AT"/>
    <tag k="addr:housenumber" v="185"/>
    <tag k="addr:postcode" v="1170"/>
    <tag k="addr:street" v="Hernalser Hauptstraße"/>
    <tag k="amenity" v="bank"/>
    <tag k="atm" v="yes"/>
    <tag k="name" v="Erste Bank"/>
    <tag k="operator" v="Erste Bank"/>
    <tag k="ref" v="6221, 11712, 23692"/>
  </node>
  <node id="126453732" version="7" timestamp="2010-11-28T10:17:42Z" uid="290680" user="wheelmap_visitor" changeset="6475843" lat="48.2238127" lon="16.3142103">
    <tag k="addr:city" v="Wien"/>
    <tag k="addr:country" v="AT"/>
    <tag k="addr:housenumber" v="185"/>
    <tag k="addr:postcode" v="1170"/>
    <tag k="addr:street" v="Hernalser Hauptstraße"/>
    <tag k="amenity" v="bank"/>
    <tag k="atm" v="yes"/>
    <tag k="name" v="Erste Bank"/>
    <tag k="operator" v="Erste Bank"/>
    <tag k="ref" v="6221, 11712, 23692"/>
    <tag k="wheelchair" v="yes"/>
  </node>
</osm>
