<?xml version='1.0' encoding='UTF-8'?>
<osm version="0.6" generator="libosmium/2.20.0">
  <node id="127570226" version="2" timestamp="2009-06-06T09:36:15Z" uid="7617" user="Franc" changeset="1436296" lat="-33.7820738" lon="150.8028351"/>
  <node id="127570227" version="2" timestamp="2009-06-06T09:36:15Z" uid="7617" user="Franc" changeset="1436296" lat="-33.7825862" lon="150.8030534"/>
  <node id="127571050" version="5" timestamp="2009-05-01T18:26:45Z" uid="20587" user="balrog-kun" changeset="1040271" lat="54.0363859" lon="19.0286628">
    <tag k="addr:postcode" v="82-200"/>
    <tag k="is_in" v="powiat malborski, województwo pomorskie, Poland"/>
    <tag k="is_in:country" v="Poland"/>
    <tag k="is_in:county" v="powiat malborski"/>
    <tag k="is_in:municipality" v="gmina Malbork"/>
    <tag k="is_in:province" v="województwo pomorskie"/>
    <tag k="name" v="Malbork"/>
    <tag k="name:de" v="Marienburg"/>
    <tag k="place" v="town"/>
    <tag k="population" v="38210"/>
    <tag k="source:population" v="wikipedia"/>
    <tag k="teryt:rm" v="96"/>
    <tag k="teryt:simc" v="0932815"/>
    <tag k="teryt:stan_na" v="2009-01-01"/>
    <tag k="teryt:terc" v="2209011"/>
    <tag k="teryt:updated_by" v="teryt2osm combine.py v. 36M"/>
    <tag k="wikipedia" v="Malbork"/>
  </node>
  <node id="127571050" version="6" timestamp="2009-05-07T18:43:34Z" uid="115021" user="Jajcuś" changeset="1110407" lat="54.0363859" lon="19.0286628">
    <tag k="addr:postcode" v="82-200"/>
    <tag k="is_in" v="powiat malborski, województwo pomorskie, Poland"/>
    <tag k="is_in:country" v="Poland"/>
    <tag k="is_in:county" v="powiat malborski"/>
    <tag k="is_in:province" v="województwo pomorskie"/>
    <tag k="name" v="Malbork"/>
    <tag k="name:de" v="Marienburg"/>
    <tag k="place" v="town"/>
    <tag k="population" v="38210"/>
    <tag k="source:population" v="wikipedia"/>
    <tag k="teryt:rm" v="96"/>
    <tag k="teryt:simc" v="0932815"/>
    <tag k="teryt:stan_na" v="2009-01-01"/>
    <tag k="teryt:terc" v="2209011"/>
    <tag k="teryt:updated_by" v="teryt2osm combine.py v. 47M"/>
    <tag k="wikipedia" v="Malbork"/>
  </node>
  <node id="127571050" version="7" timestamp="2009-05-08T18:40:34Z" uid="115021" user="Jajcuś" changeset="1120487" lat="54.0363859" lon="19.0286628">
    <tag k="addr:postcode" v="82-200"/>
    <tag k="is_in" v="powiat malborski, województwo pomorskie, Poland"/>
    <tag k="is_in:country" v="Poland"/>
    <tag k="is_in:county" v="powiat malborski"/>
    <tag k="is_in:municipality" v="gmina Malbork"/>
    <tag k="is_in:province" v="województwo pomorskie"/>
    <tag k="name" v="Malbork"/>
    <tag k="name:de" v="Marienburg"/>
    <tag k="place" v="town"/>
    <tag k="population" v="38210"/>
    <tag k="source:population" v="wikipedia"/>
    <tag k="teryt:rm" v="96"/>
    <tag k="teryt:simc" v="0932815"/>
    <tag k="teryt:stan_na" v="2009-01-01"/>
    <tag k="teryt:terc" v="2209011"/>
    <tag k="teryt:updated_by" v="teryt2osm combine.py v. 49"/>
    <tag k="wikipedia" v="Malbork"/>
  </node>
  <node id="127571050" version="8" timestamp="2010-04-11T04:37:37Z" uid="20587" user="balrog-kun" changeset="4389130" lat="54.0359731" lon="19.033297">
    <tag k="addr:postcode" v="82-200"/>
    <tag k="is_in" v="powiat malborski, województwo pomorskie, Poland"/>
    <tag k="is_in:country" v="Poland"/>
    <tag k="is_in:county" v="powiat malborski"/>
    <tag k="is_in:municipality" v="gmina Malbork"/>
    <tag k="is_in:province" v="województwo pomorskie"/>
    <tag k="name" v="Malbork"/>
    <tag k="name:de" v="Marienburg"/>
    <tag k="place" v="town"/>
    <tag k="population" v="38210"/>
    <tag k="source:population" v="wikipedia"/>
    <tag k="teryt:rm" v="96"/>
    <tag k="teryt:simc" v="0932815"/>
    <tag k="teryt:stan_na" v="2009-01-01"/>
    <tag k="teryt:terc" v="2209011"/>
    <tag k="teryt:updated_by" v="teryt2osm combine.py v. 49"/>
    <tag k="wikipedia" v="Malbork"/>
  </node>
  <node id="127571285" version="4" timestamp="2009-04-15T22:47:44Z" uid="30632" user="antblant" changeset="575745" lat="54.0354313" lon="19.0251383"/>
  <node id="127572168" version="7" timestamp="2011-02-26T07:54:03Z" uid="7617" user="Franc" changeset="7397251" lat="-33.7389481" lon="150.9840746">
    <tag k="highway" v="traffic_signals"/>
  </node>
  <node id="127572178" version="3" timestamp="2010-01-20T00:37:20Z" uid="30201" user="rrankin" changeset="3663739" lat="-33.7350414" lon="150.9956174"/>
  <node id="127572181" version="3" timestamp="2009-01-13T15:07:20Z" uid="7617" user="Franc" changeset="783467" lat="-33.7374683" lon="150.9998653"/>
  <node id="127572427" version="2" timestamp="2009-06-06T09:36:17Z" uid="7617" user="Franc" changeset="1436296" lat="-33.7829647" lon="150.8017891"/>
  <node id="127575024" version="4" timestamp="2010-02-21T05:50:17Z" uid="30201" user="rrankin" changeset="3930038" lat="-33.7365811" lon="150.99142"/>
  <node id="127575025" version="4" timestamp="2010-02-21T05:50:17Z" uid="30201" user="rrankin" changeset="3930038" lat="-33.7367893" lon="150.9922777"/>
  <node id="127578094" version="2" timestamp="2009-06-06T09:35:58Z" uid="7617" user="Franc" changeset="1436296" lat="-33.7824587" lon="150.8013173"/>
  <node id="127579612" version="2" timestamp="2009-06-06T09:36:02Z" uid="7617" user="Franc" changeset="1436296" lat="-33.7815642" lon="150.8022416"/>
  <node id="127579613" version="2" timestamp="2009-06-06T09:36:02Z" uid="7617" user="Franc" changeset="1436296" lat="-33.7816855" lon="150.8021386"/>
  <node id="127579614" version="2" timestamp="2009-06-06T09:36:02Z" uid="7617" user="Franc" changeset="1436296" lat="-33.7818139" lon="150.8020442"/>
</osm>
