<?xml version='1.0' encoding='UTF-8'?>
<osm version="0.6" generator="libosmium/2.20.0">
  <node id="128054034" version="2" timestamp="2008-10-20T22:14:49Z" uid="30632" user="antblant" changeset="491221" lat="50.8179418" lon="19.1384821"/>
  <node id="128054034" version="3" timestamp="2008-12-01T11:03:51Z" uid="79873" user="ciachooown" changeset="29150" lat="50.8179418" lon="19.1384821"/>
  <node id="128054034" version="4" timestamp="2008-12-13T07:13:06Z" uid="79873" user="ciachooown" changeset="347393" lat="50.8179418" lon="19.1384821"/>
  <node id="128054034" version="5" timestamp="2008-12-13T07:14:26Z" uid="79873" user="ciachooown" changeset="347393" lat="50.8179418" lon="19.1384821"/>
  <node id="128054034" version="6" timestamp="2008-12-13T07:14:42Z" uid="79873" user="ciachooown" changeset="347393" lat="50.8179418" lon="19.1384821"/>
  <node id="128054034" version="7" timestamp="2009-03-22T15:25:01Z" uid="79873" user="ciachooown" changeset="845998" lat="50.8179418" lon="19.1384821"/>
  <node id="128054034" version="8" timestamp="2009-05-07T17:07:21Z" uid="120682" user="krzysieq" changeset="1109185" lat="50.8179483" lon="19.1384799"/>
  <node id="128054034" version="9" timestamp="2009-06-07T17:12:16Z" uid="120682" user="krzysieq" changeset="1450914" lat="50.8179483" lon="19.1384799"/>
  <node id="128054034" version="10" timestamp="2009-07-22T15:59:20Z" uid="109820" user="GoodGhost" changeset="1906363" lat="50.8179483" lon="19.1384799"/>
  <node id="128054034" version="11" timestamp="2009-07-23T10:57:17Z" uid="109820" user="GoodGhost" changeset="1914362" lat="50.8179373" lon="19.1384764">
    <tag k="crossing" v="no"/>
    <tag k="highway" v="traffic_signals"/>
  </node>
  <node id="128054034" version="12" timestamp="2010-07-18T11:20:28Z" uid="227040" user="pbm" changeset="5250160" lat="50.8179739" lon="19.1384909">
    <tag k="crossing" v="no"/>
    <tag k="highway" v="traffic_signals"/>
  </node>
  <node id="128054034" version="13" timestamp="2010-07-28T18:20:40Z" uid="91056" user="Yarl" changeset="5340706" lat="50.817977" lon="19.138461">
    <tag k="crossing" v="no"/>
    <tag k="highway" v="traffic_signals"/>
  </node>
  <node id="128054630" version="3" timestamp="2008-10-17T23:42:46Z" uid="30632" user="antblant" changeset="421571" lat="50.6683508" lon="17.9393828">
    <tag k="created_by" v="Potlatch 0.10e"/>
    <tag k="name" v="Opole"/>
    <tag k="name:de" v="Oppeln"/>
    <tag k="place" v="city"/>
  </node>
  <node id="128054630" version="4" timestamp="2008-11-05T17:40:35Z" uid="308" user="MichaelCollinson" changeset="685958" lat="50.6683508" lon="17.9393828">
    <tag k="is_in:continent" v="Europe"/>
    <tag k="name" v="Opole"/>
    <tag k="name:de" v="Oppeln"/>
    <tag k="place" v="city"/>
  </node>
  <node id="128054630" version="5" timestamp="2009-04-25T20:23:13Z" uid="115021" user="Jajcuś" changeset="958445" lat="50.6683508" lon="17.9393828">
    <tag k="is_in" v="województwo opolskie, Poland"/>
    <tag k="is_in:continent" v="Europe"/>
    <tag k="is_in:country" v="Poland"/>
    <tag k="is_in:province" v="województwo opolskie"/>
    <tag k="name" v="Opole"/>
    <tag k="name:de" v="Oppeln"/>
    <tag k="place" v="city"/>
    <tag k="teryt:rm" v="96"/>
    <tag k="teryt:simc" v="0965016"/>
    <tag k="teryt:stan_na" v="2009-01-01"/>
    <tag k="teryt:terc" v="1661011"/>
    <tag k="teryt:updated_by" v="teryt2osm combine.py v. 36M"/>
  </node>
  <node id="128054630" version="6" timestamp="2009-05-01T18:33:42Z" uid="20587" user="balrog-kun" changeset="1040416" lat="50.6683508" lon="17.9393828">
    <tag k="addr:postcode" v="45-001"/>
    <tag k="is_in" v="województwo opolskie, Poland"/>
    <tag k="is_in:continent" v="Europe"/>
    <tag k="is_in:country" v="Poland"/>
    <tag k="is_in:county" v="powiat opolski"/>
    <tag k="is_in:municipality" v="gmina Opole"/>
    <tag k="is_in:province" v="województwo opolskie"/>
    <tag k="name" v="Opole"/>
    <tag k="name:de" v="Oppeln"/>
    <tag k="place" v="city"/>
    <tag k="population" v="126382"/>
    <tag k="source:population" v="wikipedia"/>
    <tag k="teryt:rm" v="96"/>
    <tag k="teryt:simc" v="0965016"/>
    <tag k="teryt:stan_na" v="2009-01-01"/>
    <tag k="teryt:terc" v="1661011"/>
    <tag k="teryt:updated_by" v="teryt2osm combine.py v. 36M"/>
    <tag k="wikipedia" v="Opole"/>
  </node>
  <node id="128054630" version="7" timestamp="2009-05-07T18:43:03Z" uid="115021" user="Jajcuś" changeset="1110399" lat="50.6683508" lon="17.9393828">
    <tag k="addr:postcode" v="45-001"/>
    <tag k="is_in" v="województwo opolskie, Poland"/>
    <tag k="is_in:continent" v="Europe"/>
    <tag k="is_in:country" v="Poland"/>
    <tag k="is_in:province" v="województwo opolskie"/>
    <tag k="name" v="Opole"/>
    <tag k="name:de" v="Oppeln"/>
    <tag k="place" v="city"/>
    <tag k="population" v="126382"/>
    <tag k="source:population" v="wikipedia"/>
    <tag k="teryt:rm" v="96"/>
    <tag k="teryt:simc" v="0965016"/>
    <tag k="teryt:stan_na" v="2009-01-01"/>
    <tag k="teryt:terc" v="1661011"/>
    <tag k="teryt:updated_by" v="teryt2osm combine.py v. 47M"/>
    <tag k="wikipedia" v="Opole"/>
  </node>
  <node id="128054630" version="8" timestamp="2009-05-08T18:40:14Z" uid="115021" user="Jajcuś" changeset="1120480" lat="50.6683508" lon="17.9393828">
    <tag k="addr:postcode" v="45-001"/>
    <tag k="is_in" v="województwo opolskie, Poland"/>
    <tag k="is_in:continent" v="Europe"/>
    <tag k="is_in:country" v="Poland"/>
    <tag k="is_in:county" v="powiat m. Opole"/>
    <tag k="is_in:municipality" v="gmina m. Opole"/>
    <tag k="is_in:province" v="województwo opolskie"/>
    <tag k="name" v="Opole"/>
    <tag k="name:de" v="Oppeln"/>
    <tag k="place" v="city"/>
    <tag k="population" v="126382"/>
    <tag k="source:population" v="wikipedia"/>
    <tag k="teryt:rm" v="96"/>
    <tag k="teryt:simc" v="0965016"/>
    <tag k="teryt:stan_na" v="2009-01-01"/>
    <tag k="teryt:terc" v="1661011"/>
    <tag k="teryt:updated_by" v="teryt2osm combine.py v. 49"/>
    <tag k="wikipedia" v="Opole"/>
  </node>
  <node id="128054630" version="9" timestamp="2009-08-17T10:02:29Z" uid="9475" user="Slawek Maderak" changeset="2175780" lat="50.6686111" lon="17.939151">
    <tag k="addr:postcode" v="45-001"/>
    <tag k="is_in" v="województwo opolskie, Poland"/>
    <tag k="is_in:continent" v="Europe"/>
    <tag k="is_in:country" v="Poland"/>
    <tag k="is_in:county" v="powiat m. Opole"/>
    <tag k="is_in:municipality" v="gmina m. Opole"/>
    <tag k="is_in:province" v="województwo opolskie"/>
    <tag k="name" v="Opole"/>
    <tag k="name:de" v="Oppeln"/>
    <tag k="place" v="city"/>
    <tag k="population" v="126382"/>
    <tag k="source:population" v="wikipedia"/>
    <tag k="teryt:rm" v="96"/>
    <tag k="teryt:simc" v="0965016"/>
    <tag k="teryt:stan_na" v="2009-01-01"/>
    <tag k="teryt:terc" v="1661011"/>
    <tag k="teryt:updated_by" v="teryt2osm combine.py v. 49"/>
    <tag k="wikipedia" v="Opole"/>
  </node>
  <node id="128054630" version="10" timestamp="2009-11-21T22:11:42Z" uid="91056" user="Yarl" changeset="3181073" lat="50.669569" lon="17.924724">
    <tag k="addr:postcode" v="45-001"/>
    <tag k="is_in" v="województwo opolskie, Poland"/>
    <tag k="is_in:continent" v="Europe"/>
    <tag k="is_in:country" v="Poland"/>
    <tag k="is_in:county" v="powiat m. Opole"/>
    <tag k="is_in:municipality" v="gmina m. Opole"/>
    <tag k="is_in:province" v="województwo opolskie"/>
    <tag k="name" v="Opole"/>
    <tag k="name:de" v="Oppeln"/>
    <tag k="place" v="city"/>
    <tag k="population" v="126382"/>
    <tag k="source:population" v="wikipedia"/>
    <tag k="teryt:rm" v="96"/>
    <tag k="teryt:simc" v="0965016"/>
    <tag k="teryt:stan_na" v="2009-01-01"/>
    <tag k="teryt:terc" v="1661011"/>
    <tag k="teryt:updated_by" v="teryt2osm combine.py v. 49"/>
    <tag k="wikipedia" v="Opole"/>
  </node>
  <node id="128054630" version="11" timestamp="2010-02-09T12:09:44Z" uid="166445" user="GranD" changeset="3831517" lat="50.6695691" lon="17.924724">
    <tag k="addr:postcode" v="45-001"/>
    <tag k="is_in" v="województwo opolskie, Poland"/>
    <tag k="is_in:continent" v="Europe"/>
    <tag k="is_in:country" v="Poland"/>
    <tag k="is_in:county" v="powiat m. Opole"/>
    <tag k="is_in:municipality" v="gmina m. Opole"/>
    <tag k="is_in:province" v="województwo opolskie"/>
    <tag k="name" v="Opole"/>
    <tag k="name:de" v="Oppeln"/>
    <tag k="name:ru" v="Ополе"/>
    <tag k="place" v="city"/>
    <tag k="population" v="126382"/>
    <tag k="source:population" v="wikipedia"/>
    <tag k="teryt:rm" v="96"/>
    <tag k="teryt:simc" v="0965016"/>
    <tag k="teryt:stan_na" v="2009-01-01"/>
    <tag k="teryt:terc" v="1661011"/>
    <tag k="teryt:updated_by" v="teryt2osm combine.py v. 49"/>
    <tag k="wikipedia" v="Opole"/>
  </node>
  <node id="128054630" version="12" timestamp="2010-04-11T04:37:37Z" uid="20587" user="balrog-kun" changeset="4389130" lat="50.6671994" lon="17.9253258">
    <tag k="addr:postcode" v="45-001"/>
    <tag k="is_in" v="województwo opolskie, Poland"/>
    <tag k="is_in:continent" v="Europe"/>
    <tag k="is_in:country" v="Poland"/>
    <tag k="is_in:county" v="powiat m. Opole"/>
    <tag k="is_in:municipality" v="gmina m. Opole"/>
    <tag k="is_in:province" v="województwo opolskie"/>
    <tag k="name" v="Opole"/>
    <tag k="name:de" v="Oppeln"/>
    <tag k="name:ru" v="Ополе"/>
    <tag k="place" v="city"/>
    <tag k="population" v="126382"/>
    <tag k="source:population" v="wikipedia"/>
    <tag k="teryt:rm" v="96"/>
    <tag k="teryt:simc" v="0965016"/>
    <tag k="teryt:stan_na" v="2009-01-01"/>
    <tag k="teryt:terc" v="1661011"/>
    <tag k="teryt:updated_by" v="teryt2osm combine.py v. 49"/>
    <tag k="wikipedia" v="Opole"/>
  </node>
  <node id="128054836" version="2" timestamp="2010-03-20T19:07:16Z" uid="30632" user="antblant" changeset="4183549" lat="50.7439634" lon="18.8556744">
    <tag k="created_by" v="JOSM"/>
  </node>
  <node id="128054843" version="2" timestamp="2010-03-20T19:07:15Z" uid="30632" user="antblant" changeset="4183549" lat="50.7432873" lon="18.8506484">
    <tag k="created_by" v="JOSM"/>
  </node>
  <node id="128054853" version="2" timestamp="2010-03-20T19:07:15Z" uid="30632" user="antblant" changeset="4183549" lat="50.7426669" lon="18.8459501">
    <tag k="created_by" v="JOSM"/>
  </node>
  <node id="128054860" version="2" timestamp="2010-03-20T19:07:16Z" uid="30632" user="antblant" changeset="4183549" lat="50.7420743" lon="18.8415166">
    <tag k="created_by" v="JOSM"/>
  </node>
  <node id="128055233" version="7" timestamp="2009-05-01T20:03:51Z" uid="20587" user="balrog-kun" changeset="1041684" lat="50.6692784" lon="18.6821925">
    <tag k="addr:postcode" v="42-700"/>
    <tag k="is_in" v="powiat lubliniecki, województwo śląskie, Poland"/>
    <tag k="is_in:country" v="Poland"/>
    <tag k="is_in:county" v="powiat lubliniecki"/>
    <tag k="is_in:municipality" v="gmina Lubliniec"/>
    <tag k="is_in:province" v="województwo śląskie"/>
    <tag k="name" v="Lubliniec"/>
    <tag k="place" v="town"/>
    <tag k="population" v="24126"/>
    <tag k="postal_code" v="42-700"/>
    <tag k="source:population" v="wikipedia"/>
    <tag k="teryt:rm" v="96"/>
    <tag k="teryt:simc" v="0931945"/>
    <tag k="teryt:stan_na" v="2009-01-01"/>
    <tag k="teryt:terc" v="2407011"/>
    <tag k="teryt:updated_by" v="teryt2osm combine.py v. 36M"/>
    <tag k="wikipedia" v="Lubliniec"/>
  </node>
  <node id="128055233" version="8" timestamp="2009-05-07T18:45:33Z" uid="115021" user="Jajcuś" changeset="1110433" lat="50.6692784" lon="18.6821925">
    <tag k="addr:postcode" v="42-700"/>
    <tag k="is_in" v="powiat lubliniecki, województwo śląskie, Poland"/>
    <tag k="is_in:country" v="Poland"/>
    <tag k="is_in:county" v="powiat lubliniecki"/>
    <tag k="is_in:province" v="województwo śląskie"/>
    <tag k="name" v="Lubliniec"/>
    <tag k="place" v="town"/>
    <tag k="population" v="24126"/>
    <tag k="postal_code" v="42-700"/>
    <tag k="source:population" v="wikipedia"/>
    <tag k="teryt:rm" v="96"/>
    <tag k="teryt:simc" v="0931945"/>
    <tag k="teryt:stan_na" v="2009-01-01"/>
    <tag k="teryt:terc" v="2407011"/>
    <tag k="teryt:updated_by" v="teryt2osm combine.py v. 47M"/>
    <tag k="wikipedia" v="Lubliniec"/>
  </node>
  <node id="128055233" version="9" timestamp="2009-05-08T18:42:17Z" uid="115021" user="Jajcuś" changeset="1120509" lat="50.6692784" lon="18.6821925">
    <tag k="addr:postcode" v="42-700"/>
    <tag k="is_in" v="powiat lubliniecki, województwo śląskie, Poland"/>
    <tag k="is_in:country" v="Poland"/>
    <tag k="is_in:county" v="powiat lubliniecki"/>
    <tag k="is_in:municipality" v="gmina Lubliniec"/>
    <tag k="is_in:province" v="województwo śląskie"/>
    <tag k="name" v="Lubliniec"/>
    <tag k="place" v="town"/>
    <tag k="population" v="24126"/>
    <tag k="postal_code" v="42-700"/>
    <tag k="source:population" v="wikipedia"/>
    <tag k="teryt:rm" v="96"/>
    <tag k="teryt:simc" v="0931945"/>
    <tag k="teryt:stan_na" v="2009-01-01"/>
    <tag k="teryt:terc" v="2407011"/>
    <tag k="teryt:updated_by" v="teryt2osm combine.py v. 49"/>
    <tag k="wikipedia" v="Lubliniec"/>
  </node>
  <node id="128055233" version="10" timestamp="2010-04-11T04:37:37Z" uid="20587" user="balrog-kun" changeset="4389130" lat="50.6700919" lon="18.6831128">
    <tag k="addr:postcode" v="42-700"/>
    <tag k="is_in" v="powiat lubliniecki, województwo śląskie, Poland"/>
    <tag k="is_in:country" v="Poland"/>
    <tag k="is_in:county" v="powiat lubliniecki"/>
    <tag k="is_in:municipality" v="gmina Lubliniec"/>
    <tag k="is_in:province" v="województwo śląskie"/>
    <tag k="name" v="Lubliniec"/>
    <tag k="place" v="town"/>
    <tag k="population" v="24126"/>
    <tag k="postal_code" v="42-700"/>
    <tag k="source:population" v="wikipedia"/>
    <tag k="teryt:rm" v="96"/>
    <tag k="teryt:simc" v="0931945"/>
    <tag k="teryt:stan_na" v="2009-01-01"/>
    <tag k="teryt:terc" v="2407011"/>
    <tag k="teryt:updated_by" v="teryt2osm combine.py v. 49"/>
    <tag k="wikipedia" v="Lubliniec"/>
  </node>
  <node id="128056540" version="2" timestamp="2008-10-07T16:05:49Z" uid="9581" user="Lobelt" changeset="137401" lat="50.6780303" lon="18.2022705">
    <tag k="created_by" v="JOSM"/>
  </node>
  <node id="128056545" version="2" timestamp="2008-10-07T16:05:48Z" uid="9581" user="Lobelt" changeset="137401" lat="50.6776812" lon="18.2013165">
    <tag k="created_by" v="JOSM"/>
  </node>
</osm>
