<?xml version='1.0' encoding='UTF-8'?>
<osm version="0.6" generator="libosmium/2.20.0">
  <node id="128553560" version="3" timestamp="2009-12-09T12:41:55Z" uid="20587" user="balrog-kun" changeset="3333255" lat="43.0576642" lon="-6.0904112"/>
  <node id="128555767" version="3" timestamp="2008-02-16T19:03:51Z" uid="6975" user="ulfl" changeset="141861" lat="51.7033801" lon="8.7700225">
    <tag k="name" v="S端dringcenter"/>
    <tag k="shop" v="mall"/>
  </node>
  <node id="128555767" version="4" timestamp="2008-09-13T22:20:38Z" uid="44787" user="marsgps" changeset="629863" lat="51.7033801" lon="8.7700225">
    <tag k="name" v="S端dringcenter"/>
    <tag k="shop" v="supermarket"/>
  </node>
  <node id="128555767" version="5" timestamp="2009-06-12T12:10:04Z" uid="81732" user="zahilb" changeset="1495881" lat="51.7032296" lon="8.7704724">
    <tag k="name" v="S端dringcenter"/>
    <tag k="shop" v="supermarket"/>
  </node>
  <node id="128555767" version="6" timestamp="2009-12-14T19:17:47Z" uid="208218" user="rcschaefer" changeset="3374258" lat="51.7032296" lon="8.7704723">
    <tag k="name" v="Minnipreis"/>
    <tag k="shop" v="supermarket"/>
  </node>
  <node id="128555767" version="7" timestamp="2009-12-14T19:19:13Z" uid="208218" user="rcschaefer" changeset="3374258" lat="51.7032296" lon="8.7704722">
    <tag k="name" v="Minipreis"/>
    <tag k="shop" v="supermarket"/>
  </node>
  <node id="128555767" version="8" timestamp="2010-06-21T14:43:36Z" uid="121542" user="Jan-Philipp H端lshoff" changeset="5043306" lat="51.7033375" lon="8.7707515">
    <tag k="name" v="Minipreis"/>
    <tag k="shop" v="supermarket"/>
  </node>
  <node id="128555767" version="9" timestamp="2010-07-17T22:26:44Z" uid="289554" user="Vasquez" changeset="5246721" lat="51.7033375" lon="8.7707515">
    <tag k="indoor" v="yes"/>
    <tag k="level" v="1"/>
    <tag k="name" v="Minipreis"/>
    <tag k="shop" v="supermarket"/>
  </node>
  <node id="128555767" version="10" timestamp="2010-09-28T13:13:22Z" uid="29639" user="bielebog" changeset="5903858" lat="51.7033375" lon="8.7707515">
    <tag k="indoor" v="yes"/>
    <tag k="layer" v="1"/>
    <tag k="name" v="Minipreis"/>
    <tag k="shop" v="supermarket"/>
  </node>
  <node id="128555767" version="11" timestamp="2010-09-28T15:43:19Z" uid="29639" user="bielebog" changeset="5904876" lat="51.7033375" lon="8.7707515">
    <tag k="indoor" v="yes"/>
    <tag k="level" v="1"/>
    <tag k="name" v="Minipreis"/>
    <tag k="shop" v="supermarket"/>
  </node>
  <node id="128555767" version="12" timestamp="2010-12-30T07:02:04Z" uid="290680" user="wheelmap_visitor" changeset="6806130" lat="51.7033375" lon="8.7707515">
    <tag k="indoor" v="yes"/>
    <tag k="level" v="1"/>
    <tag k="name" v="Minipreis"/>
    <tag k="shop" v="supermarket"/>
    <tag k="wheelchair" v="yes"/>
  </node>
</osm>
