<?xml version='1.0' encoding='UTF-8'?>
<osm version="0.6" generator="libosmium/2.20.0">
  <node id="1298210213" version="3" timestamp="2011-05-31T20:26:44Z" uid="66036" user="h4v" changeset="8305383" lat="51.7789166" lon="19.4903309"/>
  <node id="1298210559" version="3" timestamp="2011-05-31T20:26:43Z" uid="66036" user="h4v" changeset="8305383" lat="51.7791855" lon="19.4908432"/>
  <node id="1298215444" version="1" timestamp="2011-05-24T08:32:46Z" uid="18775" user="drlizau" changeset="8233103" lat="-36.1287995" lon="144.7489046">
    <tag k="amenity" v="fire_station"/>
    <tag k="name" v="Echuca Fire Brigade"/>
    <tag k="source" v="nearmap"/>
  </node>
  <node id="1298215445" version="1" timestamp="2011-05-24T08:32:47Z" uid="18775" user="drlizau" changeset="8233103" lat="-36.1287024" lon="144.7493586">
    <tag k="amenity" v="place_of_worship"/>
    <tag k="denomination" v="uniting"/>
    <tag k="name" v="Echuca - Moama Uniting Church"/>
    <tag k="religion" v="christian"/>
    <tag k="source" v="nearmap"/>
  </node>
  <node id="1298215446" version="1" timestamp="2011-05-24T08:32:47Z" uid="18775" user="drlizau" changeset="8233103" lat="-36.1268159" lon="144.7490603">
    <tag k="amenity" v="bank;atm"/>
    <tag k="operator" v="Commonwealth"/>
    <tag k="source" v="nearmap"/>
  </node>
  <node id="1298215446" version="2" timestamp="2011-05-24T08:53:37Z" uid="18775" user="drlizau" changeset="8233256" lat="-36.1268159" lon="144.7490603">
    <tag k="amenity" v="bank"/>
    <tag k="atm" v="yes"/>
    <tag k="name" v="Commonwealth"/>
    <tag k="source" v="nearmap"/>
  </node>
  <node id="1298215447" version="1" timestamp="2011-05-24T08:32:47Z" uid="18775" user="drlizau" changeset="8233103" lat="-36.1265717" lon="144.749004">
    <tag k="amenity" v="bank;atm"/>
    <tag k="operator" v="ANZ"/>
    <tag k="source" v="nearmap"/>
  </node>
  <node id="1298215447" version="2" timestamp="2011-05-24T08:53:37Z" uid="18775" user="drlizau" changeset="8233256" lat="-36.1265717" lon="144.749004">
    <tag k="amenity" v="bank"/>
    <tag k="atm" v="yes"/>
    <tag k="name" v="ANZ"/>
    <tag k="source" v="nearmap"/>
  </node>
  <node id="1298215448" version="1" timestamp="2011-05-24T08:32:47Z" uid="18775" user="drlizau" changeset="8233103" lat="-36.1262326" lon="144.7488672">
    <tag k="amenity" v="pub"/>
    <tag k="name" v="Harvest Hotel"/>
    <tag k="source" v="nearmap"/>
  </node>
  <node id="1298215449" version="1" timestamp="2011-05-24T08:32:47Z" uid="18775" user="drlizau" changeset="8233103" lat="-36.1256103" lon="144.7494447">
    <tag k="amenity" v="place_of_worship"/>
    <tag k="denomination" v="catholic"/>
    <tag k="religion" v="christian"/>
    <tag k="source" v="nearmap"/>
  </node>
  <node id="1298215450" version="1" timestamp="2011-05-24T08:32:47Z" uid="18775" user="drlizau" changeset="8233103" lat="-36.1250347" lon="144.7481418">
    <tag k="amenity" v="place_of_worship"/>
    <tag k="denomination" v="anglican"/>
    <tag k="name" v="Christ Church"/>
    <tag k="religion" v="christian"/>
    <tag k="source" v="nearmap"/>
  </node>
  <node id="1298215451" version="1" timestamp="2011-05-24T08:32:48Z" uid="18775" user="drlizau" changeset="8233103" lat="-36.1239291" lon="144.7491793">
    <tag k="amenity" v="townhall"/>
    <tag k="name" v="Campaspe Shire Council"/>
    <tag k="source" v="nearmap"/>
  </node>
</osm>
