<?xml version='1.0' encoding='UTF-8'?>
<osm version="0.6" generator="libosmium/2.20.0">
  <node id="1298332062" version="1" timestamp="2011-05-24T11:41:25Z" uid="7617" user="Franc" changeset="8234563" lat="-33.915659" lon="151.1423654">
    <tag k="addr:housenumber" v="53"/>
    <tag k="addr:street" v="Beauchamp Street"/>
    <tag k="source" v="exrapolation"/>
  </node>
  <node id="1298332062" version="2" timestamp="2011-05-29T08:33:25Z" uid="7617" user="Franc" changeset="8278454" lat="-33.915659" lon="151.1423654">
    <tag k="addr:housenumber" v="53"/>
    <tag k="addr:street" v="Beauchamp Street"/>
    <tag k="source" v="extrapolation"/>
  </node>
  <node id="1298332062" version="3" timestamp="2012-02-13T05:13:54Z" uid="7523" user="inas" changeset="10670260" lat="-33.915659" lon="151.1423654"/>
  <node id="1298332070" version="1" timestamp="2011-05-24T11:41:25Z" uid="7617" user="Franc" changeset="8234563" lat="-33.9166093" lon="151.1425815">
    <tag k="addr:housenumber" v="67"/>
    <tag k="addr:street" v="Beauchamp Street"/>
    <tag k="source" v="exrapolation"/>
  </node>
  <node id="1298332070" version="2" timestamp="2011-05-29T08:32:03Z" uid="7617" user="Franc" changeset="8278454" lat="-33.9166093" lon="151.1425815">
    <tag k="addr:housenumber" v="67"/>
    <tag k="addr:street" v="Beauchamp Street"/>
    <tag k="source" v="extrapolation"/>
  </node>
  <node id="1298332070" version="3" timestamp="2012-02-13T04:37:32Z" uid="7523" user="inas" changeset="10670182" lat="-33.9166093" lon="151.1425815"/>
  <node id="1298332072" version="1" timestamp="2011-05-24T11:41:25Z" uid="7617" user="Franc" changeset="8234563" lat="-33.9194263" lon="151.1414737">
    <tag k="traffic_calming" v="table"/>
  </node>
  <node id="1298332072" version="2" timestamp="2012-02-28T02:51:21Z" uid="7523" user="inas" changeset="10815385" lat="-33.9194263" lon="151.1414737"/>
  <node id="1298332073" version="1" timestamp="2011-05-24T11:41:25Z" uid="7617" user="Franc" changeset="8234563" lat="-33.9159956" lon="151.1423525">
    <tag k="addr:housenumber" v="59"/>
    <tag k="addr:street" v="Beauchamp Street"/>
    <tag k="source" v="exrapolation"/>
  </node>
  <node id="1298332073" version="2" timestamp="2011-05-29T08:32:07Z" uid="7617" user="Franc" changeset="8278454" lat="-33.9159956" lon="151.1423525">
    <tag k="addr:housenumber" v="59"/>
    <tag k="addr:street" v="Beauchamp Street"/>
    <tag k="source" v="extrapolation"/>
  </node>
  <node id="1298332073" version="3" timestamp="2012-02-13T05:13:55Z" uid="7523" user="inas" changeset="10670260" lat="-33.9159956" lon="151.1423525"/>
  <node id="1298332074" version="1" timestamp="2011-05-24T11:41:25Z" uid="7617" user="Franc" changeset="8234563" lat="-33.9154355" lon="151.1424473">
    <tag k="addr:housenumber" v="49"/>
    <tag k="addr:street" v="Beauchamp Street"/>
    <tag k="source" v="exrapolation"/>
  </node>
  <node id="1298332074" version="2" timestamp="2011-05-29T08:33:07Z" uid="7617" user="Franc" changeset="8278454" lat="-33.9154355" lon="151.1424473">
    <tag k="addr:housenumber" v="49"/>
    <tag k="addr:street" v="Beauchamp Street"/>
    <tag k="source" v="extrapolation"/>
  </node>
  <node id="1298332074" version="3" timestamp="2012-02-13T05:13:48Z" uid="7523" user="inas" changeset="10670260" lat="-33.9154355" lon="151.1424473"/>
  <node id="1298332081" version="1" timestamp="2011-05-24T11:41:26Z" uid="7617" user="Franc" changeset="8234563" lat="-33.9155472" lon="151.1424063">
    <tag k="addr:housenumber" v="51"/>
    <tag k="addr:street" v="Beauchamp Street"/>
    <tag k="source" v="exrapolation"/>
  </node>
  <node id="1298332081" version="2" timestamp="2011-05-29T08:32:48Z" uid="7617" user="Franc" changeset="8278454" lat="-33.9155472" lon="151.1424063">
    <tag k="addr:housenumber" v="51"/>
    <tag k="addr:street" v="Beauchamp Street"/>
    <tag k="source" v="extrapolation"/>
  </node>
  <node id="1298332081" version="3" timestamp="2012-02-13T05:13:52Z" uid="7523" user="inas" changeset="10670260" lat="-33.9155472" lon="151.1424063"/>
  <node id="1298332084" version="1" timestamp="2011-05-24T11:41:26Z" uid="7617" user="Franc" changeset="8234563" lat="-33.9164905" lon="151.142541">
    <tag k="addr:housenumber" v="65"/>
    <tag k="addr:street" v="Beauchamp Street"/>
    <tag k="source" v="exrapolation"/>
  </node>
  <node id="1298332084" version="2" timestamp="2011-05-29T08:33:18Z" uid="7617" user="Franc" changeset="8278454" lat="-33.9164905" lon="151.142541">
    <tag k="addr:housenumber" v="65"/>
    <tag k="addr:street" v="Beauchamp Street"/>
    <tag k="source" v="extrapolation"/>
  </node>
  <node id="1298332084" version="3" timestamp="2012-02-13T04:37:32Z" uid="7523" user="inas" changeset="10670182" lat="-33.9164905" lon="151.142541"/>
  <node id="1298332085" version="1" timestamp="2011-05-24T11:41:26Z" uid="7617" user="Franc" changeset="8234563" lat="-33.9153237" lon="151.1424883">
    <tag k="addr:housenumber" v="47"/>
    <tag k="addr:street" v="Beauchamp Street"/>
    <tag k="source" v="exrapolation"/>
  </node>
  <node id="1298332085" version="2" timestamp="2011-05-29T08:32:27Z" uid="7617" user="Franc" changeset="8278454" lat="-33.9153237" lon="151.1424883">
    <tag k="addr:housenumber" v="47"/>
    <tag k="addr:street" v="Beauchamp Street"/>
    <tag k="source" v="extrapolation"/>
  </node>
  <node id="1298332085" version="3" timestamp="2012-02-13T05:13:47Z" uid="7523" user="inas" changeset="10670260" lat="-33.9153237" lon="151.1424883"/>
  <node id="1298332086" version="1" timestamp="2011-05-24T11:41:26Z" uid="7617" user="Franc" changeset="8234563" lat="-33.9158828" lon="151.1423158">
    <tag k="addr:housenumber" v="57"/>
    <tag k="addr:street" v="Beauchamp Street"/>
    <tag k="source" v="exrapolation"/>
  </node>
  <node id="1298332086" version="2" timestamp="2011-05-29T08:33:28Z" uid="7617" user="Franc" changeset="8278454" lat="-33.9158828" lon="151.1423158">
    <tag k="addr:housenumber" v="57"/>
    <tag k="addr:street" v="Beauchamp Street"/>
    <tag k="source" v="extrapolation"/>
  </node>
  <node id="1298332086" version="3" timestamp="2012-02-13T05:13:55Z" uid="7523" user="inas" changeset="10670260" lat="-33.9158828" lon="151.1423158"/>
  <node id="1298332094" version="1" timestamp="2011-05-24T11:41:26Z" uid="7617" user="Franc" changeset="8234563" lat="-33.9168201" lon="151.1426606">
    <tag k="addr:housenumber" v="71"/>
    <tag k="addr:street" v="Beauchamp Street"/>
    <tag k="source" v="exrapolation"/>
  </node>
  <node id="1298332094" version="2" timestamp="2011-05-29T08:32:21Z" uid="7617" user="Franc" changeset="8278454" lat="-33.9168201" lon="151.1426606">
    <tag k="addr:housenumber" v="71"/>
    <tag k="addr:street" v="Beauchamp Street"/>
    <tag k="source" v="extrapolation"/>
  </node>
  <node id="1298332094" version="3" timestamp="2012-02-13T04:37:32Z" uid="7523" user="inas" changeset="10670182" lat="-33.9168201" lon="151.1426606"/>
  <node id="1298332096" version="1" timestamp="2011-05-24T11:41:26Z" uid="7617" user="Franc" changeset="8234563" lat="-33.9157707" lon="151.1423244">
    <tag k="addr:housenumber" v="55"/>
    <tag k="addr:street" v="Beauchamp Street"/>
    <tag k="source" v="exrapolation"/>
  </node>
  <node id="1298332096" version="2" timestamp="2011-05-29T08:33:30Z" uid="7617" user="Franc" changeset="8278454" lat="-33.9157707" lon="151.1423244">
    <tag k="addr:housenumber" v="55"/>
    <tag k="addr:street" v="Beauchamp Street"/>
    <tag k="source" v="extrapolation"/>
  </node>
  <node id="1298332096" version="3" timestamp="2012-02-13T05:13:55Z" uid="7523" user="inas" changeset="10670260" lat="-33.9157707" lon="151.1423244"/>
  <node id="1298332097" version="1" timestamp="2011-05-24T11:41:26Z" uid="7617" user="Franc" changeset="8234563" lat="-33.9167139" lon="151.1426239">
    <tag k="addr:housenumber" v="69"/>
    <tag k="addr:street" v="Beauchamp Street"/>
    <tag k="source" v="exrapolation"/>
  </node>
  <node id="1298332097" version="2" timestamp="2011-05-29T08:32:42Z" uid="7617" user="Franc" changeset="8278454" lat="-33.9167139" lon="151.1426239">
    <tag k="addr:housenumber" v="69"/>
    <tag k="addr:street" v="Beauchamp Street"/>
    <tag k="source" v="extrapolation"/>
  </node>
  <node id="1298332097" version="3" timestamp="2012-02-13T04:37:32Z" uid="7523" user="inas" changeset="10670182" lat="-33.9167139" lon="151.1426239"/>
  <node id="1298332098" version="1" timestamp="2011-05-24T11:41:26Z" uid="7617" user="Franc" changeset="8234563" lat="-33.9161083" lon="151.1423893">
    <tag k="addr:housenumber" v="61"/>
    <tag k="addr:street" v="Beauchamp Street"/>
    <tag k="source" v="exrapolation"/>
  </node>
  <node id="1298332098" version="2" timestamp="2011-05-29T08:31:54Z" uid="7617" user="Franc" changeset="8278454" lat="-33.9161083" lon="151.1423893">
    <tag k="addr:housenumber" v="61"/>
    <tag k="addr:street" v="Beauchamp Street"/>
    <tag k="source" v="extrapolation"/>
  </node>
  <node id="1298332098" version="3" timestamp="2012-02-13T05:13:58Z" uid="7523" user="inas" changeset="10670260" lat="-33.9161083" lon="151.1423893"/>
</osm>
