<?xml version='1.0' encoding='UTF-8'?>
<osm version="0.6" generator="libosmium/2.20.0">
  <node id="129990120" version="1" timestamp="2007-11-22T22:21:03Z" uid="19626" user="Swamp" changeset="596421" lat="-34.5182266" lon="146.1864862">
    <tag k="created_by" v="JOSM"/>
  </node>
  <node id="129990120" version="2" timestamp="2007-11-22T22:34:00Z" uid="19626" user="Swamp" changeset="596421" lat="-34.518214" lon="146.1864609">
    <tag k="created_by" v="JOSM"/>
  </node>
  <node id="129990120" version="3" timestamp="2008-04-25T12:05:54Z" uid="19626" user="Swamp" changeset="254805" lat="-34.518214" lon="146.1864609">
    <tag k="created_by" v="JOSM"/>
  </node>
  <node id="129990120" version="4" timestamp="2009-07-23T00:51:54Z" uid="74617" user="JohnSmith" changeset="1910473" lat="-34.518214" lon="146.1864609"/>
  <node id="129990120" version="5" timestamp="2010-06-17T11:49:23Z" uid="19626" user="Swamp" changeset="5008131" lat="-34.518244" lon="146.186491"/>
  <node id="129990125" version="1" timestamp="2007-11-22T22:21:04Z" uid="19626" user="Swamp" changeset="596421" lat="-34.5192708" lon="146.1888677">
    <tag k="created_by" v="JOSM"/>
  </node>
  <node id="129990125" version="2" timestamp="2009-07-23T00:51:54Z" uid="74617" user="JohnSmith" changeset="1910473" lat="-34.5192708" lon="146.1888677"/>
  <node id="129990294" version="1" timestamp="2007-11-22T22:22:46Z" uid="19626" user="Swamp" changeset="596421" lat="-34.5169351" lon="146.1764106">
    <tag k="created_by" v="JOSM"/>
  </node>
  <node id="129990294" version="2" timestamp="2007-11-22T22:34:00Z" uid="19626" user="Swamp" changeset="596421" lat="-34.5169351" lon="146.1764359">
    <tag k="created_by" v="JOSM"/>
  </node>
  <node id="129990294" version="3" timestamp="2007-11-22T22:41:15Z" uid="19626" user="Swamp" changeset="596421" lat="-34.5169343" lon="146.1764312">
    <tag k="created_by" v="JOSM"/>
  </node>
  <node id="129990294" version="4" timestamp="2009-07-23T00:52:05Z" uid="74617" user="JohnSmith" changeset="1910473" lat="-34.5169343" lon="146.1764312"/>
  <node id="129991239" version="8" timestamp="2009-09-30T12:42:51Z" uid="36809" user="pfoten_weg_!_" changeset="2687909" lat="48.1801496" lon="11.2588772"/>
  <node id="129991240" version="4" timestamp="2009-09-30T12:43:28Z" uid="36809" user="pfoten_weg_!_" changeset="2687909" lat="48.1813811" lon="11.2583145"/>
  <node id="129991241" version="5" timestamp="2009-09-30T12:43:28Z" uid="36809" user="pfoten_weg_!_" changeset="2687909" lat="48.1821576" lon="11.2579559"/>
  <node id="129991242" version="3" timestamp="2009-09-30T12:43:24Z" uid="36809" user="pfoten_weg_!_" changeset="2687909" lat="48.1810199" lon="11.2564513"/>
  <node id="129991243" version="3" timestamp="2009-09-30T12:43:25Z" uid="36809" user="pfoten_weg_!_" changeset="2687909" lat="48.181793" lon="11.2561303"/>
  <node id="129991326" version="2" timestamp="2009-09-30T12:49:50Z" uid="36809" user="pfoten_weg_!_" changeset="2687909" lat="48.1918944" lon="11.2517119"/>
  <node id="129991326" version="3" timestamp="2009-10-01T19:26:43Z" uid="7596" user="ck3d" changeset="2704447" lat="48.1918748" lon="11.2517143"/>
  <node id="129991327" version="2" timestamp="2009-09-30T12:49:50Z" uid="36809" user="pfoten_weg_!_" changeset="2687909" lat="48.1917452" lon="11.251583"/>
  <node id="129991327" version="3" timestamp="2009-10-01T19:26:43Z" uid="7596" user="ck3d" changeset="2704447" lat="48.1917794" lon="11.2516026"/>
  <node id="129991328" version="2" timestamp="2009-09-30T12:49:34Z" uid="36809" user="pfoten_weg_!_" changeset="2687909" lat="48.191711" lon="11.2502061"/>
  <node id="129991329" version="2" timestamp="2009-09-30T12:49:35Z" uid="36809" user="pfoten_weg_!_" changeset="2687909" lat="48.191821" lon="11.2501007"/>
  <node id="129991329" version="3" timestamp="2009-10-01T19:26:42Z" uid="7596" user="ck3d" changeset="2704447" lat="48.1917845" lon="11.2501183"/>
  <node id="129991330" version="6" timestamp="2009-09-30T12:49:55Z" uid="36809" user="pfoten_weg_!_" changeset="2687909" lat="48.193058" lon="11.2500418"/>
  <node id="129991407" version="19" timestamp="2009-07-23T00:20:25Z" uid="20587" user="balrog-kun" changeset="1910333" lat="47.0122718" lon="28.8605992">
    <tag k="capital" v="yes"/>
    <tag k="is_in" v="Moldova"/>
    <tag k="name" v="Chişinău"/>
    <tag k="name:ar" v="كيشيناو"/>
    <tag k="name:de" v="Kischinau"/>
    <tag k="name:el" v="Κισινάου"/>
    <tag k="name:fr" v="Chisinau"/>
    <tag k="name:he" v="קישינב"/>
    <tag k="name:ja" v="キシナウ"/>
    <tag k="name:ka" v="კიშინიოვი"/>
    <tag k="name:ko" v="키시너우"/>
    <tag k="name:pl" v="Kiszyniów"/>
    <tag k="name:ru" v="Кишинёв"/>
    <tag k="name:tr" v="Kişinev"/>
    <tag k="name:uk" v="Кишинів"/>
    <tag k="name:zh" v="基希讷乌"/>
    <tag k="place" v="city"/>
    <tag k="wikipedia" v="Chişinău"/>
  </node>
  <node id="129991407" version="20" timestamp="2009-08-16T10:40:18Z" uid="33377" user="Victor LP" changeset="2163565" lat="47.0122718" lon="28.8605992">
    <tag k="capital" v="yes"/>
    <tag k="is_in" v="Moldova"/>
    <tag k="name" v="Chişinău"/>
    <tag k="name:ar" v="كيشيناو"/>
    <tag k="name:de" v="Kischinau"/>
    <tag k="name:el" v="Κισινάου"/>
    <tag k="name:fr" v="Chisinau"/>
    <tag k="name:he" v="קישינב"/>
    <tag k="name:ja" v="キシナウ"/>
    <tag k="name:ka" v="კიშინიოვი"/>
    <tag k="name:ko" v="키시너우"/>
    <tag k="name:nl" v="Chisinau"/>
    <tag k="name:pl" v="Kiszyniów"/>
    <tag k="name:ru" v="Кишинёв"/>
    <tag k="name:tr" v="Kişinev"/>
    <tag k="name:uk" v="Кишинів"/>
    <tag k="name:zh" v="基希讷乌"/>
    <tag k="place" v="city"/>
    <tag k="wikipedia" v="Chişinău"/>
  </node>
  <node id="129991407" version="21" timestamp="2009-09-02T00:07:59Z" uid="115468" user="platlas23" changeset="2344023" lat="47.0122737" lon="28.8605936">
    <tag k="capital" v="yes"/>
    <tag k="is_in" v="Moldova"/>
    <tag k="name" v="Chişinău"/>
    <tag k="name:ar" v="كيشيناو"/>
    <tag k="name:de" v="Kischinau"/>
    <tag k="name:el" v="Κισινάου"/>
    <tag k="name:fr" v="Chisinau"/>
    <tag k="name:he" v="קישינב"/>
    <tag k="name:ja" v="キシナウ"/>
    <tag k="name:ka" v="კიშინიოვი"/>
    <tag k="name:ko" v="키시너우"/>
    <tag k="name:nl" v="Chisinau"/>
    <tag k="name:pl" v="Kiszyniów"/>
    <tag k="name:ru" v="Кишинёв"/>
    <tag k="name:sk" v="Kišiňov"/>
    <tag k="name:tr" v="Kişinev"/>
    <tag k="name:uk" v="Кишинів"/>
    <tag k="name:zh" v="基希讷乌"/>
    <tag k="place" v="city"/>
    <tag k="wikipedia" v="Chişinău"/>
  </node>
  <node id="129991407" version="22" timestamp="2009-09-07T22:43:29Z" uid="24965" user="Ævar Arnfjörð Bjarmason" changeset="2408705" lat="47.0122737" lon="28.8605936">
    <tag k="capital" v="yes"/>
    <tag k="is_in" v="Moldova"/>
    <tag k="name" v="Chişinău"/>
    <tag k="name:ar" v="كيشيناو"/>
    <tag k="name:de" v="Kischinau"/>
    <tag k="name:el" v="Κισινάου"/>
    <tag k="name:fr" v="Chisinau"/>
    <tag k="name:he" v="קישינב"/>
    <tag k="name:is" v="Kisínev"/>
    <tag k="name:ja" v="キシナウ"/>
    <tag k="name:ka" v="კიშინიოვი"/>
    <tag k="name:ko" v="키시너우"/>
    <tag k="name:nl" v="Chisinau"/>
    <tag k="name:pl" v="Kiszyniów"/>
    <tag k="name:ru" v="Кишинёв"/>
    <tag k="name:sk" v="Kišiňov"/>
    <tag k="name:tr" v="Kişinev"/>
    <tag k="name:uk" v="Кишинів"/>
    <tag k="name:zh" v="基希讷乌"/>
    <tag k="place" v="city"/>
    <tag k="wikipedia" v="Chişinău"/>
  </node>
  <node id="129991407" version="23" timestamp="2009-11-10T13:36:00Z" uid="148025" user="mvrban" changeset="3082082" lat="47.0122737" lon="28.8605936">
    <tag k="capital" v="yes"/>
    <tag k="is_in" v="Moldova"/>
    <tag k="name" v="Chişinău"/>
    <tag k="name:ar" v="كيشيناو"/>
    <tag k="name:de" v="Kischinau"/>
    <tag k="name:el" v="Κισινάου"/>
    <tag k="name:fr" v="Chisinau"/>
    <tag k="name:he" v="קישינב"/>
    <tag k="name:hr" v="Kišnjev"/>
    <tag k="name:is" v="Kisínev"/>
    <tag k="name:ja" v="キシナウ"/>
    <tag k="name:ka" v="კიშინიოვი"/>
    <tag k="name:ko" v="키시너우"/>
    <tag k="name:nl" v="Chisinau"/>
    <tag k="name:pl" v="Kiszyniów"/>
    <tag k="name:ru" v="Кишинёв"/>
    <tag k="name:sk" v="Kišiňov"/>
    <tag k="name:tr" v="Kişinev"/>
    <tag k="name:uk" v="Кишинів"/>
    <tag k="name:zh" v="基希讷乌"/>
    <tag k="place" v="city"/>
    <tag k="wikipedia" v="Chişinău"/>
  </node>
  <node id="129991407" version="24" timestamp="2009-11-10T20:07:34Z" uid="33981" user="romanm" changeset="3084943" lat="47.0122737" lon="28.8605936">
    <tag k="capital" v="yes"/>
    <tag k="is_in" v="Moldova"/>
    <tag k="name" v="Chişinău"/>
    <tag k="name:ar" v="كيشيناو"/>
    <tag k="name:de" v="Kischinau"/>
    <tag k="name:el" v="Κισινάου"/>
    <tag k="name:fr" v="Chisinau"/>
    <tag k="name:he" v="קישינב"/>
    <tag k="name:hr" v="Kišnjev"/>
    <tag k="name:is" v="Kisínev"/>
    <tag k="name:ja" v="キシナウ"/>
    <tag k="name:ka" v="კიშინიოვი"/>
    <tag k="name:ko" v="키시너우"/>
    <tag k="name:nl" v="Chisinau"/>
    <tag k="name:pl" v="Kiszyniów"/>
    <tag k="name:ru" v="Кишинёв"/>
    <tag k="name:sk" v="Kišiňov"/>
    <tag k="name:sl" v="Kišinjev"/>
    <tag k="name:tr" v="Kişinev"/>
    <tag k="name:uk" v="Кишинів"/>
    <tag k="name:zh" v="基希讷乌"/>
    <tag k="place" v="city"/>
    <tag k="wikipedia" v="Chişinău"/>
    <tag k="wikipedia:sl" v="Kišinjev"/>
  </node>
  <node id="129991407" version="25" timestamp="2010-03-08T12:12:59Z" uid="221997" user="EuskalMapa" changeset="4071170" lat="47.0122737" lon="28.8605936">
    <tag k="capital" v="yes"/>
    <tag k="is_in" v="Moldova"/>
    <tag k="name" v="Chişinău"/>
    <tag k="name:ar" v="كيشيناو"/>
    <tag k="name:de" v="Kischinau"/>
    <tag k="name:el" v="Κισινάου"/>
    <tag k="name:eu" v="Chisinau"/>
    <tag k="name:fr" v="Chisinau"/>
    <tag k="name:he" v="קישינב"/>
    <tag k="name:hr" v="Kišnjev"/>
    <tag k="name:is" v="Kisínev"/>
    <tag k="name:ja" v="キシナウ"/>
    <tag k="name:ka" v="კიშინიოვი"/>
    <tag k="name:ko" v="키시너우"/>
    <tag k="name:nl" v="Chisinau"/>
    <tag k="name:pl" v="Kiszyniów"/>
    <tag k="name:ru" v="Кишинёв"/>
    <tag k="name:sk" v="Kišiňov"/>
    <tag k="name:sl" v="Kišinjev"/>
    <tag k="name:tr" v="Kişinev"/>
    <tag k="name:uk" v="Кишинів"/>
    <tag k="name:zh" v="基希讷乌"/>
    <tag k="place" v="city"/>
    <tag k="wikipedia" v="Chişinău"/>
    <tag k="wikipedia:sl" v="Kišinjev"/>
  </node>
  <node id="129991407" version="26" timestamp="2010-10-11T09:50:00Z" uid="355347" user="kcsaba" changeset="6010165" lat="47.0122737" lon="28.8605935">
    <tag k="capital" v="yes"/>
    <tag k="is_in" v="Moldova"/>
    <tag k="name" v="Chişinău"/>
    <tag k="name:ar" v="كيشيناو"/>
    <tag k="name:de" v="Kischinau"/>
    <tag k="name:el" v="Κισινάου"/>
    <tag k="name:eu" v="Chisinau"/>
    <tag k="name:fr" v="Chisinau"/>
    <tag k="name:he" v="קישינב"/>
    <tag k="name:hr" v="Kišnjev"/>
    <tag k="name:hu" v="Kisinyov"/>
    <tag k="name:is" v="Kisínev"/>
    <tag k="name:ja" v="キシナウ"/>
    <tag k="name:ka" v="კიშინიოვი"/>
    <tag k="name:ko" v="키시너우"/>
    <tag k="name:nl" v="Chisinau"/>
    <tag k="name:pl" v="Kiszyniów"/>
    <tag k="name:ru" v="Кишинёв"/>
    <tag k="name:sk" v="Kišiňov"/>
    <tag k="name:sl" v="Kišinjev"/>
    <tag k="name:tr" v="Kişinev"/>
    <tag k="name:uk" v="Кишинів"/>
    <tag k="name:zh" v="基希讷乌"/>
    <tag k="place" v="city"/>
    <tag k="wikipedia" v="Chişinău"/>
    <tag k="wikipedia:sl" v="Kišinjev"/>
  </node>
  <node id="129991407" version="27" timestamp="2010-11-07T20:46:26Z" uid="76269" user="Snusmumriken" changeset="6315886" lat="47.0122737" lon="28.8605935">
    <tag k="capital" v="yes"/>
    <tag k="is_in" v="Moldova"/>
    <tag k="name" v="Chişinău"/>
    <tag k="name:ar" v="كيشيناو"/>
    <tag k="name:de" v="Kischinau"/>
    <tag k="name:el" v="Κισινάου"/>
    <tag k="name:eu" v="Chisinau"/>
    <tag k="name:fr" v="Chisinau"/>
    <tag k="name:he" v="קישינב"/>
    <tag k="name:hr" v="Kišnjev"/>
    <tag k="name:hu" v="Kisinyov"/>
    <tag k="name:is" v="Kisínev"/>
    <tag k="name:ja" v="キシナウ"/>
    <tag k="name:ka" v="კიშინიოვი"/>
    <tag k="name:ko" v="키시너우"/>
    <tag k="name:nl" v="Chisinau"/>
    <tag k="name:pl" v="Kiszyniów"/>
    <tag k="name:ru" v="Кишинёв"/>
    <tag k="name:sk" v="Kišiňov"/>
    <tag k="name:sl" v="Kišinjev"/>
    <tag k="name:sv" v="Chisinau"/>
    <tag k="name:tr" v="Kişinev"/>
    <tag k="name:uk" v="Кишинів"/>
    <tag k="name:zh" v="基希讷乌"/>
    <tag k="place" v="city"/>
    <tag k="wikipedia" v="Chişinău"/>
    <tag k="wikipedia:sl" v="Kišinjev"/>
  </node>
  <node id="129991407" version="28" timestamp="2011-03-04T13:51:51Z" uid="220932" user="mor" changeset="7454546" lat="47.0122737" lon="28.8605935">
    <tag k="capital" v="yes"/>
    <tag k="is_in" v="Moldova"/>
    <tag k="name" v="Chişinău"/>
    <tag k="name:ar" v="كيشيناو"/>
    <tag k="name:de" v="Kischinau"/>
    <tag k="name:el" v="Κισινάου"/>
    <tag k="name:es" v="Chisinau"/>
    <tag k="name:eu" v="Chisinau"/>
    <tag k="name:fr" v="Chisinau"/>
    <tag k="name:he" v="קישינב"/>
    <tag k="name:hr" v="Kišnjev"/>
    <tag k="name:hu" v="Kisinyov"/>
    <tag k="name:is" v="Kisínev"/>
    <tag k="name:ja" v="キシナウ"/>
    <tag k="name:ka" v="კიშინიოვი"/>
    <tag k="name:ko" v="키시너우"/>
    <tag k="name:nl" v="Chisinau"/>
    <tag k="name:pl" v="Kiszyniów"/>
    <tag k="name:ru" v="Кишинёв"/>
    <tag k="name:sk" v="Kišiňov"/>
    <tag k="name:sl" v="Kišinjev"/>
    <tag k="name:sv" v="Chisinau"/>
    <tag k="name:tr" v="Kişinev"/>
    <tag k="name:uk" v="Кишинів"/>
    <tag k="name:zh" v="基希讷乌"/>
    <tag k="place" v="city"/>
    <tag k="wikipedia" v="Chişinău"/>
    <tag k="wikipedia:sl" v="Kišinjev"/>
  </node>
  <node id="129991407" version="29" timestamp="2011-03-10T10:37:47Z" uid="419932" user="viteoc13" changeset="7512638" lat="47.0122737" lon="28.8605935">
    <tag k="capital" v="yes"/>
    <tag k="is_in" v="Moldova"/>
    <tag k="name" v="Chişinău"/>
    <tag k="name:ar" v="كيشيناو"/>
    <tag k="name:de" v="Kischinau"/>
    <tag k="name:el" v="Κισινάου"/>
    <tag k="name:es" v="Chisinau"/>
    <tag k="name:eu" v="Chisinau"/>
    <tag k="name:fr" v="Chisinau"/>
    <tag k="name:he" v="קישינב"/>
    <tag k="name:hr" v="Kišnjev"/>
    <tag k="name:hu" v="Kisinyov"/>
    <tag k="name:is" v="Kisínev"/>
    <tag k="name:ja" v="キシナウ"/>
    <tag k="name:ka" v="კიშინიოვი"/>
    <tag k="name:ko" v="키시너우"/>
    <tag k="name:nl" v="Chisinau"/>
    <tag k="name:pl" v="Kiszyniów"/>
    <tag k="name:ru" v="Кишинёв"/>
    <tag k="name:sk" v="Kišiňov"/>
    <tag k="name:sl" v="Kišinjev"/>
    <tag k="name:sv" v="Chisinau"/>
    <tag k="name:tr" v="Kişinev"/>
    <tag k="name:uk" v="Кишинів"/>
    <tag k="name:zh" v="基希讷乌"/>
    <tag k="place" v="city"/>
    <tag k="population" v="750000"/>
    <tag k="wikipedia" v="Chişinău"/>
    <tag k="wikipedia:sl" v="Kišinjev"/>
  </node>
  <node id="129991407" version="30" timestamp="2011-04-06T16:12:20Z" uid="7045" user="Xuacu" changeset="7786452" lat="47.0122737" lon="28.8605935">
    <tag k="capital" v="yes"/>
    <tag k="is_in" v="Moldova"/>
    <tag k="name" v="Chişinău"/>
    <tag k="name:ar" v="كيشيناو"/>
    <tag k="name:ast" v="Quixináu"/>
    <tag k="name:de" v="Kischinau"/>
    <tag k="name:el" v="Κισινάου"/>
    <tag k="name:es" v="Chisinau"/>
    <tag k="name:eu" v="Chisinau"/>
    <tag k="name:fr" v="Chisinau"/>
    <tag k="name:he" v="קישינב"/>
    <tag k="name:hr" v="Kišnjev"/>
    <tag k="name:hu" v="Kisinyov"/>
    <tag k="name:is" v="Kisínev"/>
    <tag k="name:ja" v="キシナウ"/>
    <tag k="name:ka" v="კიშინიოვი"/>
    <tag k="name:ko" v="키시너우"/>
    <tag k="name:nl" v="Chisinau"/>
    <tag k="name:pl" v="Kiszyniów"/>
    <tag k="name:ru" v="Кишинёв"/>
    <tag k="name:sk" v="Kišiňov"/>
    <tag k="name:sl" v="Kišinjev"/>
    <tag k="name:sv" v="Chisinau"/>
    <tag k="name:tr" v="Kişinev"/>
    <tag k="name:uk" v="Кишинів"/>
    <tag k="name:zh" v="基希讷乌"/>
    <tag k="place" v="city"/>
    <tag k="population" v="750000"/>
    <tag k="wikipedia" v="Chişinău"/>
    <tag k="wikipedia:sl" v="Kišinjev"/>
  </node>
  <node id="129991407" version="31" timestamp="2011-05-15T13:41:38Z" uid="93026" user="mpele" changeset="8151975" lat="47.0122737" lon="28.8605935">
    <tag k="capital" v="yes"/>
    <tag k="is_in" v="Moldova"/>
    <tag k="name" v="Chişinău"/>
    <tag k="name:ar" v="كيشيناو"/>
    <tag k="name:ast" v="Quixináu"/>
    <tag k="name:de" v="Kischinau"/>
    <tag k="name:el" v="Κισινάου"/>
    <tag k="name:es" v="Chisinau"/>
    <tag k="name:eu" v="Chisinau"/>
    <tag k="name:fr" v="Chisinau"/>
    <tag k="name:he" v="קישינב"/>
    <tag k="name:hr" v="Kišnjev"/>
    <tag k="name:hu" v="Kisinyov"/>
    <tag k="name:is" v="Kisínev"/>
    <tag k="name:ja" v="キシナウ"/>
    <tag k="name:ka" v="კიშინიოვი"/>
    <tag k="name:ko" v="키시너우"/>
    <tag k="name:nl" v="Chisinau"/>
    <tag k="name:pl" v="Kiszyniów"/>
    <tag k="name:ru" v="Кишинёв"/>
    <tag k="name:sk" v="Kišiňov"/>
    <tag k="name:sl" v="Kišinjev"/>
    <tag k="name:sr" v="Кишњев"/>
    <tag k="name:sv" v="Chisinau"/>
    <tag k="name:tr" v="Kişinev"/>
    <tag k="name:uk" v="Кишинів"/>
    <tag k="name:zh" v="基希讷乌"/>
    <tag k="place" v="city"/>
    <tag k="population" v="750000"/>
    <tag k="wikipedia" v="Chişinău"/>
    <tag k="wikipedia:sl" v="Kišinjev"/>
  </node>
  <node id="129991407" version="32" timestamp="2011-06-27T15:44:24Z" uid="70696" user="xybot" changeset="8563361" lat="47.0122737" lon="28.8605935">
    <tag k="capital" v="yes"/>
    <tag k="is_in" v="Moldova"/>
    <tag k="name" v="Chișinău"/>
    <tag k="name:ar" v="كيشيناو"/>
    <tag k="name:ast" v="Quixináu"/>
    <tag k="name:de" v="Kischinau"/>
    <tag k="name:el" v="Κισινάου"/>
    <tag k="name:es" v="Chisinau"/>
    <tag k="name:eu" v="Chisinau"/>
    <tag k="name:fr" v="Chisinau"/>
    <tag k="name:he" v="קישינב"/>
    <tag k="name:hr" v="Kišnjev"/>
    <tag k="name:hu" v="Kisinyov"/>
    <tag k="name:is" v="Kisínev"/>
    <tag k="name:ja" v="キシナウ"/>
    <tag k="name:ka" v="კიშინიოვი"/>
    <tag k="name:ko" v="키시너우"/>
    <tag k="name:nl" v="Chisinau"/>
    <tag k="name:pl" v="Kiszyniów"/>
    <tag k="name:ru" v="Кишинёв"/>
    <tag k="name:sk" v="Kišiňov"/>
    <tag k="name:sl" v="Kišinjev"/>
    <tag k="name:sr" v="Кишњев"/>
    <tag k="name:sv" v="Chisinau"/>
    <tag k="name:tr" v="Kişinev"/>
    <tag k="name:uk" v="Кишинів"/>
    <tag k="name:zh" v="基希讷乌"/>
    <tag k="place" v="city"/>
    <tag k="population" v="750000"/>
    <tag k="wikipedia" v="Chișinău"/>
    <tag k="wikipedia:sl" v="Kišinjev"/>
  </node>
  <node id="129991407" version="33" timestamp="2011-07-31T08:19:44Z" uid="48157" user="Jekader" changeset="8878422" lat="47.0122737" lon="28.8605935">
    <tag k="capital" v="yes"/>
    <tag k="is_in" v="Moldova"/>
    <tag k="name" v="Chișinău"/>
    <tag k="name:ar" v="كيشيناو"/>
    <tag k="name:ast" v="Quixináu"/>
    <tag k="name:de" v="Kischinau"/>
    <tag k="name:el" v="Κισινάου"/>
    <tag k="name:es" v="Chisinau"/>
    <tag k="name:eu" v="Chisinau"/>
    <tag k="name:fr" v="Chisinau"/>
    <tag k="name:he" v="קישינב"/>
    <tag k="name:hr" v="Kišnjev"/>
    <tag k="name:hu" v="Kisinyov"/>
    <tag k="name:is" v="Kisínev"/>
    <tag k="name:ja" v="キシナウ"/>
    <tag k="name:ka" v="კიშინიოვი"/>
    <tag k="name:ko" v="키시너우"/>
    <tag k="name:nl" v="Chisinau"/>
    <tag k="name:pl" v="Kiszyniów"/>
    <tag k="name:ru" v="Кишинёв"/>
    <tag k="name:sk" v="Kišiňov"/>
    <tag k="name:sl" v="Kišinjev"/>
    <tag k="name:sr" v="Кишњев"/>
    <tag k="name:sv" v="Chisinau"/>
    <tag k="name:tr" v="Kişinev"/>
    <tag k="name:uk" v="Кишинів"/>
    <tag k="name:zh" v="基希讷乌"/>
    <tag k="place" v="city"/>
    <tag k="population" v="750000"/>
    <tag k="wikipedia" v="Chișinău"/>
    <tag k="wikipedia:sl" v="Kišinjev"/>
  </node>
  <node id="129991513" version="1" timestamp="2007-11-22T22:33:51Z" uid="19626" user="Swamp" changeset="596421" lat="-34.5135193" lon="146.1770287">
    <tag k="created_by" v="JOSM"/>
  </node>
  <node id="129991513" version="2" timestamp="2009-07-23T00:51:55Z" uid="74617" user="JohnSmith" changeset="1910473" lat="-34.5135193" lon="146.1770287"/>
  <node id="129991513" version="3" timestamp="2010-06-17T11:49:23Z" uid="19626" user="Swamp" changeset="5008131" lat="-34.5134941" lon="146.1772681"/>
  <node id="129991519" version="1" timestamp="2007-11-22T22:33:52Z" uid="19626" user="Swamp" changeset="596421" lat="-34.5136332" lon="146.1777628">
    <tag k="created_by" v="JOSM"/>
  </node>
  <node id="129991519" version="2" timestamp="2008-04-25T12:06:16Z" uid="19626" user="Swamp" changeset="254805" lat="-34.5136332" lon="146.1777628">
    <tag k="created_by" v="JOSM"/>
  </node>
  <node id="129991519" version="3" timestamp="2009-07-23T00:51:55Z" uid="74617" user="JohnSmith" changeset="1910473" lat="-34.5136332" lon="146.1777628"/>
  <node id="129991524" version="1" timestamp="2007-11-22T22:33:53Z" uid="19626" user="Swamp" changeset="596421" lat="-34.5166709" lon="146.1855089">
    <tag k="created_by" v="JOSM"/>
  </node>
  <node id="129991524" version="2" timestamp="2007-11-23T00:35:21Z" uid="19626" user="Swamp" changeset="596757" lat="-34.5166834" lon="146.1855215">
    <tag k="created_by" v="JOSM"/>
  </node>
  <node id="129991524" version="3" timestamp="2008-04-25T12:06:15Z" uid="19626" user="Swamp" changeset="254805" lat="-34.5166834" lon="146.1855215">
    <tag k="created_by" v="JOSM"/>
  </node>
  <node id="129991524" version="4" timestamp="2009-07-23T00:51:55Z" uid="74617" user="JohnSmith" changeset="1910473" lat="-34.5166834" lon="146.1855215"/>
  <node id="129991529" version="1" timestamp="2007-11-22T22:33:54Z" uid="19626" user="Swamp" changeset="596421" lat="-34.5203921" lon="146.1758263">
    <tag k="created_by" v="JOSM"/>
  </node>
  <node id="129991529" version="2" timestamp="2009-07-23T00:51:55Z" uid="74617" user="JohnSmith" changeset="1910473" lat="-34.5203921" lon="146.1758263"/>
  <node id="129991534" version="1" timestamp="2007-11-22T22:33:55Z" uid="19626" user="Swamp" changeset="596421" lat="-34.5188099" lon="146.1878125">
    <tag k="created_by" v="JOSM"/>
  </node>
  <node id="129991534" version="2" timestamp="2009-07-23T00:51:55Z" uid="74617" user="JohnSmith" changeset="1910473" lat="-34.5188099" lon="146.1878125"/>
  <node id="129991544" version="1" timestamp="2007-11-22T22:33:55Z" uid="19626" user="Swamp" changeset="596421" lat="-34.5225311" lon="146.1872303">
    <tag k="created_by" v="JOSM"/>
  </node>
  <node id="129991544" version="2" timestamp="2009-07-23T00:51:55Z" uid="74617" user="JohnSmith" changeset="1910473" lat="-34.5225311" lon="146.1872303"/>
  <node id="129991552" version="1" timestamp="2007-11-22T22:33:56Z" uid="19626" user="Swamp" changeset="596421" lat="-34.5223539" lon="146.1857241">
    <tag k="created_by" v="JOSM"/>
  </node>
  <node id="129991552" version="2" timestamp="2009-07-23T00:51:55Z" uid="74617" user="JohnSmith" changeset="1910473" lat="-34.5223539" lon="146.1857241"/>
  <node id="129991552" version="3" timestamp="2010-06-17T11:49:22Z" uid="19626" user="Swamp" changeset="5008131" lat="-34.5223244" lon="146.1857624"/>
  <node id="129991593" version="11" timestamp="2010-04-11T13:59:50Z" uid="43967" user="railsnail" changeset="4393686" lat="44.3495552" lon="9.1533632"/>
  <node id="129992795" version="2" timestamp="2010-12-02T18:37:55Z" uid="9581" user="Lobelt" changeset="6517813" lat="49.5268745" lon="8.5456396"/>
  <node id="129992798" version="4" timestamp="2010-12-02T18:37:56Z" uid="9581" user="Lobelt" changeset="6517813" lat="49.5337469" lon="8.5510893"/>
  <node id="129992798" version="5" timestamp="2012-01-22T23:03:40Z" uid="6326" user="mike_hd" changeset="10471039" lat="49.5336401" lon="8.5509738"/>
  <node id="129992801" version="3" timestamp="2010-12-02T18:37:54Z" uid="9581" user="Lobelt" changeset="6517813" lat="49.5256191" lon="8.5480634"/>
  <node id="129992802" version="2" timestamp="2009-04-05T18:54:35Z" uid="9581" user="Lobelt" changeset="221070" lat="49.5550804" lon="8.5884414">
    <tag k="created_by" v="JOSM"/>
  </node>
  <node id="129992802" version="3" timestamp="2009-07-09T19:42:05Z" uid="7562" user="LosHawlos" changeset="1783854" lat="49.5551091" lon="8.588316"/>
  <node id="129992803" version="2" timestamp="2009-04-05T18:54:35Z" uid="9581" user="Lobelt" changeset="221070" lat="49.5555206" lon="8.5885214">
    <tag k="created_by" v="JOSM"/>
  </node>
  <node id="129992803" version="3" timestamp="2009-07-09T19:42:05Z" uid="7562" user="LosHawlos" changeset="1783854" lat="49.5555828" lon="8.5884624"/>
  <node id="129992804" version="2" timestamp="2009-04-05T18:54:35Z" uid="9581" user="Lobelt" changeset="221070" lat="49.5558406" lon="8.5879813">
    <tag k="created_by" v="JOSM"/>
  </node>
  <node id="129992804" version="3" timestamp="2009-07-09T19:42:05Z" uid="7562" user="LosHawlos" changeset="1783854" lat="49.5558023" lon="8.5879961"/>
  <node id="129992805" version="2" timestamp="2009-04-05T18:54:35Z" uid="9581" user="Lobelt" changeset="221070" lat="49.5560407" lon="8.5872211">
    <tag k="created_by" v="JOSM"/>
  </node>
  <node id="129992805" version="3" timestamp="2009-07-09T19:42:05Z" uid="7562" user="LosHawlos" changeset="1783854" lat="49.5559737" lon="8.587317"/>
  <node id="129992805" version="4" timestamp="2009-11-21T17:43:51Z" uid="9581" user="Lobelt" changeset="3178218" lat="49.5560223" lon="8.5873503"/>
  <node id="129992805" version="5" timestamp="2012-03-18T20:28:26Z" uid="55687" user="dschuwa" changeset="11023657" lat="49.5560223" lon="8.5873503"/>
  <node id="129992806" version="2" timestamp="2009-04-05T18:54:35Z" uid="9581" user="Lobelt" changeset="221070" lat="49.5558806" lon="8.586701">
    <tag k="created_by" v="JOSM"/>
  </node>
  <node id="129992806" version="3" timestamp="2009-07-09T19:42:05Z" uid="7562" user="LosHawlos" changeset="1783854" lat="49.555828" lon="8.5866789"/>
  <node id="129992806" version="4" timestamp="2009-11-21T17:43:51Z" uid="9581" user="Lobelt" changeset="3178218" lat="49.5558604" lon="8.5866817"/>
  <node id="129992806" version="5" timestamp="2012-03-18T20:28:26Z" uid="55687" user="dschuwa" changeset="11023657" lat="49.5558604" lon="8.5866817"/>
  <node id="129992807" version="2" timestamp="2009-04-05T18:54:35Z" uid="9581" user="Lobelt" changeset="221070" lat="49.5554805" lon="8.5863809">
    <tag k="created_by" v="JOSM"/>
  </node>
  <node id="129992807" version="3" timestamp="2009-07-09T19:42:05Z" uid="7562" user="LosHawlos" changeset="1783854" lat="49.5554279" lon="8.5865801"/>
  <node id="129992808" version="2" timestamp="2009-04-05T18:54:34Z" uid="9581" user="Lobelt" changeset="221070" lat="49.5551205" lon="8.5864009">
    <tag k="created_by" v="JOSM"/>
  </node>
  <node id="129992808" version="3" timestamp="2009-07-09T19:42:05Z" uid="7562" user="LosHawlos" changeset="1783854" lat="49.5551492" lon="8.5863419"/>
  <node id="129992809" version="2" timestamp="2009-04-05T18:54:34Z" uid="9581" user="Lobelt" changeset="221070" lat="49.5547604" lon="8.586961">
    <tag k="created_by" v="JOSM"/>
  </node>
  <node id="129992809" version="3" timestamp="2009-07-09T19:42:05Z" uid="7562" user="LosHawlos" changeset="1783854" lat="49.5547748" lon="8.5868135"/>
  <node id="129992810" version="2" timestamp="2009-04-05T18:54:34Z" uid="9581" user="Lobelt" changeset="221070" lat="49.5546804" lon="8.5875212">
    <tag k="created_by" v="JOSM"/>
  </node>
  <node id="129992810" version="3" timestamp="2009-07-09T19:42:05Z" uid="7562" user="LosHawlos" changeset="1783854" lat="49.5547761" lon="8.5871303"/>
  <node id="129992811" version="2" timestamp="2009-04-05T18:54:34Z" uid="9581" user="Lobelt" changeset="221070" lat="49.5548804" lon="8.5879813">
    <tag k="created_by" v="JOSM"/>
  </node>
  <node id="129992811" version="3" timestamp="2009-07-09T19:42:05Z" uid="7562" user="LosHawlos" changeset="1783854" lat="49.5549809" lon="8.5877674"/>
  <node id="129992812" version="2" timestamp="2009-12-14T22:32:25Z" uid="9581" user="Lobelt" changeset="3375986" lat="49.5494518" lon="8.5510021"/>
  <node id="129992812" version="3" timestamp="2011-12-26T14:39:49Z" uid="136321" user="Teddy73" changeset="10206045" lat="49.5494518" lon="8.5510021"/>
  <node id="129992813" version="2" timestamp="2009-12-14T22:32:25Z" uid="9581" user="Lobelt" changeset="3375986" lat="49.5510738" lon="8.5506297"/>
  <node id="129992813" version="3" timestamp="2011-07-30T21:11:31Z" uid="117878" user="catweazle69514" changeset="8875948" lat="49.5512308" lon="8.5505801"/>
  <node id="129992813" version="4" timestamp="2011-12-26T14:39:49Z" uid="136321" user="Teddy73" changeset="10206045" lat="49.5512308" lon="8.5505801"/>
  <node id="129992814" version="2" timestamp="2009-12-14T22:32:25Z" uid="9581" user="Lobelt" changeset="3375986" lat="49.5513696" lon="8.5525449"/>
  <node id="129992814" version="3" timestamp="2011-12-26T14:39:49Z" uid="136321" user="Teddy73" changeset="10206045" lat="49.5513696" lon="8.5525449"/>
  <node id="129992817" version="2" timestamp="2009-12-14T22:32:25Z" uid="9581" user="Lobelt" changeset="3375986" lat="49.5498655" lon="8.5532901"/>
  <node id="129992817" version="3" timestamp="2011-12-26T14:39:50Z" uid="136321" user="Teddy73" changeset="10206045" lat="49.5498655" lon="8.5532901"/>
  <node id="129992833" version="7" timestamp="2010-04-19T20:30:20Z" uid="9581" user="Lobelt" changeset="4472152" lat="49.5565436" lon="8.4685474"/>
  <node id="129992845" version="6" timestamp="2010-04-19T20:30:18Z" uid="9581" user="Lobelt" changeset="4472152" lat="49.556704" lon="8.4503229"/>
  <node id="129992845" version="7" timestamp="2011-05-12T08:50:09Z" uid="6326" user="mike_hd" changeset="8119820" lat="49.5567543" lon="8.4502661"/>
  <node id="129992846" version="6" timestamp="2010-04-19T20:30:19Z" uid="9581" user="Lobelt" changeset="4472152" lat="49.5590426" lon="8.4539201"/>
  <node id="129992846" version="7" timestamp="2010-04-23T19:30:09Z" uid="85078" user="querkalender" changeset="4506480" lat="49.5590363" lon="8.4538526"/>
  <node id="129992876" version="1" timestamp="2007-11-22T22:41:11Z" uid="19626" user="Swamp" changeset="596421" lat="-34.5190222" lon="146.1760659">
    <tag k="created_by" v="JOSM"/>
  </node>
  <node id="129992876" version="2" timestamp="2009-07-23T00:52:07Z" uid="74617" user="JohnSmith" changeset="1910473" lat="-34.5190222" lon="146.1760659"/>
  <node id="129992882" version="1" timestamp="2007-11-22T22:41:12Z" uid="19626" user="Swamp" changeset="596421" lat="-34.5204728" lon="146.1875526">
    <tag k="created_by" v="JOSM"/>
  </node>
  <node id="129992882" version="2" timestamp="2009-07-23T00:52:07Z" uid="74617" user="JohnSmith" changeset="1910473" lat="-34.5204728" lon="146.1875526"/>
  <node id="129992882" version="3" timestamp="2010-06-17T11:49:22Z" uid="19626" user="Swamp" changeset="5008131" lat="-34.5204727" lon="146.1875525"/>
  <node id="129992884" version="1" timestamp="2007-11-22T22:41:12Z" uid="19626" user="Swamp" changeset="596421" lat="-34.5202889" lon="146.186096">
    <tag k="created_by" v="JOSM"/>
  </node>
  <node id="129992884" version="2" timestamp="2009-07-23T00:52:07Z" uid="74617" user="JohnSmith" changeset="1910473" lat="-34.5202889" lon="146.186096"/>
  <node id="129992884" version="3" timestamp="2010-06-17T11:49:22Z" uid="19626" user="Swamp" changeset="5008131" lat="-34.5202925" lon="146.186125"/>
  <node id="129992887" version="1" timestamp="2007-11-22T22:41:13Z" uid="19626" user="Swamp" changeset="596421" lat="-34.5201013" lon="146.1846107">
    <tag k="created_by" v="JOSM"/>
  </node>
  <node id="129992887" version="2" timestamp="2009-07-23T00:52:07Z" uid="74617" user="JohnSmith" changeset="1910473" lat="-34.5201013" lon="146.1846107"/>
  <node id="129992887" version="3" timestamp="2010-06-17T11:49:22Z" uid="19626" user="Swamp" changeset="5008131" lat="-34.5201013" lon="146.184611"/>
  <node id="129993101" version="1" timestamp="2007-11-22T22:43:41Z" uid="19626" user="Swamp" changeset="596421" lat="-34.5178566" lon="146.1835387">
    <tag k="created_by" v="JOSM"/>
  </node>
  <node id="129993101" version="2" timestamp="2008-04-25T12:06:06Z" uid="19626" user="Swamp" changeset="254805" lat="-34.5178566" lon="146.1835387">
    <tag k="created_by" v="JOSM"/>
  </node>
  <node id="129993101" version="3" timestamp="2009-07-23T00:52:02Z" uid="74617" user="JohnSmith" changeset="1910473" lat="-34.5178566" lon="146.1835387"/>
  <node id="129993101" version="4" timestamp="2010-06-17T11:49:23Z" uid="19626" user="Swamp" changeset="5008131" lat="-34.5178679" lon="146.1835375"/>
  <node id="129993102" version="1" timestamp="2007-11-22T22:43:42Z" uid="19626" user="Swamp" changeset="596421" lat="-34.5199164" lon="146.1831548">
    <tag k="created_by" v="JOSM"/>
  </node>
  <node id="129993102" version="2" timestamp="2009-07-23T00:52:01Z" uid="74617" user="JohnSmith" changeset="1910473" lat="-34.5199164" lon="146.1831548"/>
  <node id="129993102" version="3" timestamp="2010-06-17T11:49:22Z" uid="19626" user="Swamp" changeset="5008131" lat="-34.5199174" lon="146.1831548"/>
  <node id="129993104" version="1" timestamp="2007-11-22T22:43:43Z" uid="19626" user="Swamp" changeset="596421" lat="-34.5215014" lon="146.1828591">
    <tag k="created_by" v="JOSM"/>
  </node>
  <node id="129993104" version="2" timestamp="2009-07-23T00:52:02Z" uid="74617" user="JohnSmith" changeset="1910473" lat="-34.5215014" lon="146.1828591"/>
  <node id="129993120" version="6" timestamp="2008-07-13T16:47:01Z" uid="6975" user="ulfl" changeset="475845" lat="51.5318433" lon="-0.0014379">
    <tag k="barrier" v="bollard"/>
  </node>
  <node id="129993122" version="4" timestamp="2008-07-13T16:47:02Z" uid="6975" user="ulfl" changeset="475845" lat="51.5317253" lon="-0.0033033">
    <tag k="barrier" v="bollard"/>
  </node>
  <node id="129993358" version="1" timestamp="2007-11-22T22:45:29Z" uid="19626" user="Swamp" changeset="596421" lat="-34.5176699" lon="146.18203">
    <tag k="created_by" v="JOSM"/>
  </node>
  <node id="129993358" version="2" timestamp="2008-04-25T12:06:01Z" uid="19626" user="Swamp" changeset="254805" lat="-34.5176699" lon="146.18203">
    <tag k="created_by" v="JOSM"/>
  </node>
  <node id="129993358" version="3" timestamp="2009-07-23T00:51:59Z" uid="74617" user="JohnSmith" changeset="1910473" lat="-34.5176699" lon="146.18203"/>
  <node id="129993358" version="4" timestamp="2010-06-17T11:49:23Z" uid="19626" user="Swamp" changeset="5008131" lat="-34.5176699" lon="146.18203"/>
  <node id="129993362" version="1" timestamp="2007-11-22T22:45:29Z" uid="19626" user="Swamp" changeset="596421" lat="-34.5197238" lon="146.1816715">
    <tag k="created_by" v="JOSM"/>
  </node>
  <node id="129993362" version="2" timestamp="2009-07-23T00:51:59Z" uid="74617" user="JohnSmith" changeset="1910473" lat="-34.5197238" lon="146.1816715"/>
  <node id="129993362" version="3" timestamp="2010-06-17T11:49:22Z" uid="19626" user="Swamp" changeset="5008131" lat="-34.5197299" lon="146.1816702"/>
  <node id="129993393" version="2" timestamp="2007-12-01T14:26:46Z" uid="8328" user="benpre" changeset="23239" lat="48.6945358" lon="9.2205768">
    <tag k="created_by" v="JOSM"/>
  </node>
  <node id="129993394" version="2" timestamp="2007-12-01T14:26:46Z" uid="8328" user="benpre" changeset="23239" lat="48.6943448" lon="9.2229167">
    <tag k="created_by" v="JOSM"/>
  </node>
  <node id="129993395" version="2" timestamp="2007-12-01T14:26:46Z" uid="8328" user="benpre" changeset="23239" lat="48.6941833" lon="9.2228329">
    <tag k="created_by" v="JOSM"/>
  </node>
  <node id="129993396" version="2" timestamp="2007-12-01T14:26:46Z" uid="8328" user="benpre" changeset="23239" lat="48.693963" lon="9.2227989">
    <tag k="created_by" v="JOSM"/>
  </node>
  <node id="129993397" version="2" timestamp="2007-12-01T14:26:46Z" uid="8328" user="benpre" changeset="23239" lat="48.693802" lon="9.2225975">
    <tag k="created_by" v="JOSM"/>
  </node>
  <node id="129993807" version="3" timestamp="2009-11-21T16:20:45Z" uid="43967" user="railsnail" changeset="3177289" lat="46.5870214" lon="12.2537637"/>
  <node id="129993807" version="4" timestamp="2010-08-19T12:07:38Z" uid="175551" user="coso" changeset="5534757" lat="46.5872885" lon="12.2537059"/>
  <node id="129993821" version="3" timestamp="2009-11-21T16:20:27Z" uid="43967" user="railsnail" changeset="3177289" lat="46.5925305" lon="12.2527767"/>
  <node id="129993826" version="3" timestamp="2009-11-21T16:20:27Z" uid="43967" user="railsnail" changeset="3177289" lat="46.5945182" lon="12.25203"/>
  <node id="129993828" version="3" timestamp="2009-11-21T16:20:27Z" uid="43967" user="railsnail" changeset="3177289" lat="46.5952259" lon="12.2518755"/>
  <node id="129993828" version="4" timestamp="2010-08-19T12:07:36Z" uid="175551" user="coso" changeset="5534757" lat="46.5956546" lon="12.251927"/>
  <node id="129993830" version="2" timestamp="2009-11-21T16:20:27Z" uid="43967" user="railsnail" changeset="3177289" lat="46.595969" lon="12.25203"/>
  <node id="129993830" version="3" timestamp="2010-08-19T12:08:38Z" uid="175551" user="coso" changeset="5534757" lat="46.5960286" lon="12.252049"/>
  <node id="129993832" version="2" timestamp="2009-11-21T16:20:28Z" uid="43967" user="railsnail" changeset="3177289" lat="46.596665" lon="12.2524763"/>
  <node id="129993832" version="3" timestamp="2010-08-19T12:08:53Z" uid="175551" user="coso" changeset="5534757" lat="46.5966743" lon="12.2524953"/>
  <node id="129993842" version="2" timestamp="2009-11-21T16:20:28Z" uid="43967" user="railsnail" changeset="3177289" lat="46.5984578" lon="12.2512403"/>
  <node id="129993842" version="3" timestamp="2010-08-19T12:09:04Z" uid="175551" user="coso" changeset="5534757" lat="46.5984298" lon="12.2511101"/>
  <node id="129993845" version="3" timestamp="2009-11-21T16:20:28Z" uid="43967" user="railsnail" changeset="3177289" lat="46.5995253" lon="12.2474037"/>
  <node id="129993845" version="4" timestamp="2010-08-19T12:08:54Z" uid="175551" user="coso" changeset="5534757" lat="46.5994004" lon="12.2475502"/>
  <node id="129993847" version="3" timestamp="2009-08-12T11:43:51Z" uid="43967" user="railsnail" changeset="2117831" lat="46.5998346" lon="12.2466258"/>
  <node id="129993847" version="4" timestamp="2010-08-19T12:08:19Z" uid="175551" user="coso" changeset="5534757" lat="46.5997694" lon="12.2462542"/>
  <node id="129993853" version="2" timestamp="2009-11-21T16:20:28Z" uid="43967" user="railsnail" changeset="3177289" lat="46.5986112" lon="12.2437988"/>
  <node id="129993853" version="3" timestamp="2010-08-19T12:08:11Z" uid="175551" user="coso" changeset="5534757" lat="46.5984453" lon="12.2436252"/>
  <node id="129993855" version="2" timestamp="2009-08-12T11:43:51Z" uid="43967" user="railsnail" changeset="2117831" lat="46.597511" lon="12.2419737"/>
  <node id="129993855" version="3" timestamp="2009-11-21T16:20:28Z" uid="43967" user="railsnail" changeset="3177289" lat="46.5975791" lon="12.2420221"/>
  <node id="129993855" version="4" timestamp="2010-08-19T12:09:11Z" uid="175551" user="coso" changeset="5534757" lat="46.597594" lon="12.2420248"/>
  <node id="129993861" version="3" timestamp="2009-11-21T16:20:29Z" uid="43967" user="railsnail" changeset="3177289" lat="46.6000206" lon="12.2424427"/>
  <node id="129993864" version="2" timestamp="2009-11-21T16:20:30Z" uid="43967" user="railsnail" changeset="3177289" lat="46.6012826" lon="12.2424856"/>
  <node id="129993864" version="3" timestamp="2010-08-19T12:08:54Z" uid="175551" user="coso" changeset="5534757" lat="46.6012546" lon="12.2425026"/>
  <node id="129993866" version="2" timestamp="2009-08-12T11:52:12Z" uid="43967" user="railsnail" changeset="2117831" lat="46.6024706" lon="12.2431325"/>
  <node id="129993866" version="3" timestamp="2010-08-19T12:08:19Z" uid="175551" user="coso" changeset="5534757" lat="46.6028612" lon="12.2428113"/>
  <node id="129993866" version="4" timestamp="2011-07-11T18:46:07Z" uid="268988" user="Andreas Binder" changeset="8696449" lat="46.6028612" lon="12.2428113"/>
  <node id="129993868" version="2" timestamp="2009-11-21T16:20:30Z" uid="43967" user="railsnail" changeset="3177289" lat="46.6033761" lon="12.2422968"/>
  <node id="129993868" version="3" timestamp="2010-08-19T12:08:33Z" uid="175551" user="coso" changeset="5534757" lat="46.6038189" lon="12.2416349"/>
  <node id="129993872" version="2" timestamp="2009-11-21T16:20:30Z" uid="43967" user="railsnail" changeset="3177289" lat="46.6048975" lon="12.2394214"/>
  <node id="129993872" version="3" timestamp="2010-08-19T12:08:11Z" uid="175551" user="coso" changeset="5534757" lat="46.6049084" lon="12.2393991"/>
  <node id="129993874" version="2" timestamp="2009-08-12T11:52:12Z" uid="43967" user="railsnail" changeset="2117831" lat="46.6059262" lon="12.2385663"/>
  <node id="129993874" version="3" timestamp="2010-08-19T12:09:11Z" uid="175551" user="coso" changeset="5534757" lat="46.6066731" lon="12.2378209"/>
  <node id="129993876" version="2" timestamp="2009-08-12T11:52:12Z" uid="43967" user="railsnail" changeset="2117831" lat="46.6074121" lon="12.2370986"/>
  <node id="129993876" version="3" timestamp="2010-08-19T12:07:48Z" uid="175551" user="coso" changeset="5534757" lat="46.607395" lon="12.2370116"/>
  <node id="129993878" version="2" timestamp="2009-08-12T11:52:12Z" uid="43967" user="railsnail" changeset="2117831" lat="46.6088627" lon="12.2349785"/>
  <node id="129993878" version="3" timestamp="2010-08-19T12:08:48Z" uid="175551" user="coso" changeset="5534757" lat="46.6088499" lon="12.2348977"/>
  <node id="129993891" version="3" timestamp="2009-08-12T11:52:12Z" uid="43967" user="railsnail" changeset="2117831" lat="46.6121645" lon="12.2281293"/>
  <node id="129993891" version="4" timestamp="2010-08-19T12:08:11Z" uid="175551" user="coso" changeset="5534757" lat="46.6121448" lon="12.2280848"/>
  <node id="129993896" version="4" timestamp="2009-11-21T16:17:25Z" uid="43967" user="railsnail" changeset="3177289" lat="46.6110416" lon="12.229302"/>
  <node id="129993896" version="5" timestamp="2010-08-19T12:08:36Z" uid="175551" user="coso" changeset="5534757" lat="46.6109214" lon="12.229372"/>
  <node id="129993898" version="3" timestamp="2009-11-21T16:17:26Z" uid="43967" user="railsnail" changeset="3177289" lat="46.6105581" lon="12.2300315"/>
  <node id="129993898" version="4" timestamp="2010-08-19T12:07:58Z" uid="175551" user="coso" changeset="5534757" lat="46.6105472" lon="12.2298502"/>
  <node id="129993900" version="3" timestamp="2009-11-21T16:17:26Z" uid="43967" user="railsnail" changeset="3177289" lat="46.6110357" lon="12.2287698"/>
  <node id="129993902" version="3" timestamp="2009-11-21T16:17:27Z" uid="43967" user="railsnail" changeset="3177289" lat="46.6119673" lon="12.2272163"/>
  <node id="129993913" version="2" timestamp="2009-08-12T11:52:12Z" uid="43967" user="railsnail" changeset="2117831" lat="46.617618" lon="12.2203702"/>
  <node id="129993913" version="3" timestamp="2010-08-19T12:08:17Z" uid="175551" user="coso" changeset="5534757" lat="46.617618" lon="12.2204137"/>
  <node id="129993915" version="2" timestamp="2009-08-12T11:52:13Z" uid="43967" user="railsnail" changeset="2117831" lat="46.6181958" lon="12.2200526"/>
  <node id="129993915" version="3" timestamp="2009-11-21T16:16:30Z" uid="43967" user="railsnail" changeset="3177289" lat="46.6182167" lon="12.2201009"/>
  <node id="129993915" version="4" timestamp="2010-08-19T12:09:21Z" uid="175551" user="coso" changeset="5534757" lat="46.6182167" lon="12.2201009"/>
  <node id="129993930" version="2" timestamp="2009-08-12T11:52:12Z" uid="43967" user="railsnail" changeset="2117831" lat="46.6179128" lon="12.2201985"/>
  <node id="129993930" version="3" timestamp="2010-08-19T12:08:54Z" uid="175551" user="coso" changeset="5534757" lat="46.6179346" lon="12.2202542"/>
  <node id="129994331" version="1" timestamp="2007-11-22T22:50:01Z" uid="19626" user="Swamp" changeset="596421" lat="-34.51805" lon="146.1849365">
    <tag k="created_by" v="JOSM"/>
  </node>
  <node id="129994331" version="2" timestamp="2008-04-25T12:06:14Z" uid="19626" user="Swamp" changeset="254805" lat="-34.51805" lon="146.1849365">
    <tag k="created_by" v="JOSM"/>
  </node>
  <node id="129994331" version="3" timestamp="2009-07-23T00:51:57Z" uid="74617" user="JohnSmith" changeset="1910473" lat="-34.51805" lon="146.1849365"/>
  <node id="129994331" version="4" timestamp="2010-06-17T11:49:23Z" uid="19626" user="Swamp" changeset="5008131" lat="-34.5180516" lon="146.1849358"/>
  <node id="129994332" version="1" timestamp="2007-11-22T22:50:01Z" uid="19626" user="Swamp" changeset="596421" lat="-34.5147346" lon="146.1768168">
    <tag k="created_by" v="JOSM"/>
  </node>
  <node id="129994332" version="2" timestamp="2009-07-23T00:51:57Z" uid="74617" user="JohnSmith" changeset="1910473" lat="-34.5147346" lon="146.1768168"/>
  <node id="129994504" version="2" timestamp="2008-10-27T18:12:03Z" uid="43967" user="railsnail" changeset="602077" lat="46.6204163" lon="12.1832844"/>
  <node id="129994504" version="3" timestamp="2009-03-15T07:09:25Z" uid="45511" user="quarksteilchen" changeset="810892" lat="46.6204163" lon="12.1832844"/>
  <node id="129994504" version="4" timestamp="2010-08-19T12:07:54Z" uid="175551" user="coso" changeset="5534757" lat="46.6202712" lon="12.1832386"/>
  <node id="129994505" version="2" timestamp="2007-12-16T17:41:57Z" uid="6454" user="B10xxx" changeset="325125" lat="46.6175755" lon="12.1721724">
    <tag k="created_by" v="JOSM"/>
  </node>
  <node id="129994505" version="3" timestamp="2008-10-27T18:12:03Z" uid="43967" user="railsnail" changeset="602077" lat="46.6175755" lon="12.1721724"/>
  <node id="129994505" version="4" timestamp="2009-03-15T07:09:26Z" uid="45511" user="quarksteilchen" changeset="810892" lat="46.6175755" lon="12.1721724"/>
  <node id="129994505" version="5" timestamp="2010-08-19T12:08:57Z" uid="175551" user="coso" changeset="5534757" lat="46.6175014" lon="12.1721032"/>
  <node id="129994530" version="2" timestamp="2010-09-07T08:41:02Z" uid="43967" user="railsnail" changeset="5705562" lat="46.5983992" lon="12.1211307"/>
  <node id="129994530" version="3" timestamp="2012-03-29T17:38:09Z" uid="305001" user="voschix" changeset="11141431" lat="46.5983992" lon="12.1211307"/>
  <node id="129994536" version="3" timestamp="2010-09-07T08:41:43Z" uid="43967" user="railsnail" changeset="5705562" lat="46.5968142" lon="12.1182876"/>
  <node id="129994538" version="3" timestamp="2010-09-07T08:42:01Z" uid="43967" user="railsnail" changeset="5705562" lat="46.5946763" lon="12.115659"/>
  <node id="129994538" version="4" timestamp="2012-03-29T17:38:10Z" uid="305001" user="voschix" changeset="11141431" lat="46.5946763" lon="12.115659"/>
  <node id="129996883" version="5" timestamp="2008-08-21T22:15:32Z" uid="3451" user="sascha_silbe" changeset="365032" lat="48.5216178" lon="9.057546">
    <tag k="amenity" v="bank"/>
    <tag k="atm" v="yes"/>
    <tag k="created_by" v="Potlatch 0.9c"/>
    <tag k="name" v="Deutsche Bank"/>
  </node>
  <node id="129996883" version="6" timestamp="2009-06-01T13:58:40Z" uid="85761" user="klausis" changeset="1379895" lat="48.5216178" lon="9.057546">
    <tag k="amenity" v="bank"/>
    <tag k="atm" v="yes"/>
    <tag k="name" v="Deutsche Bank"/>
  </node>
  <node id="129996883" version="7" timestamp="2010-12-05T06:38:56Z" uid="290680" user="wheelmap_visitor" changeset="6546814" lat="48.5216178" lon="9.057546">
    <tag k="amenity" v="bank"/>
    <tag k="atm" v="yes"/>
    <tag k="name" v="Deutsche Bank"/>
    <tag k="wheelchair" v="yes"/>
  </node>
  <node id="129996883" version="8" timestamp="2012-03-03T22:42:57Z" uid="148776" user="meridianeum" changeset="10863230" lat="48.5216438" lon="9.0574939">
    <tag k="amenity" v="bank"/>
    <tag k="atm" v="yes"/>
    <tag k="name" v="Deutsche Bank"/>
    <tag k="wheelchair" v="yes"/>
  </node>
  <node id="129997816" version="3" timestamp="2008-07-05T11:14:37Z" uid="6975" user="ulfl" changeset="398437" lat="52.4846377" lon="10.555399">
    <tag k="leisure" v="water_park"/>
  </node>
  <node id="129999031" version="2" timestamp="2008-07-03T00:01:22Z" uid="6975" user="ulfl" changeset="377243" lat="48.7027423" lon="9.2193973">
    <tag k="shop" v="car"/>
  </node>
  <node id="129999734" version="1" timestamp="2007-11-23T00:23:44Z" uid="19626" user="Swamp" changeset="596757" lat="-34.5151985" lon="146.1779879">
    <tag k="created_by" v="JOSM"/>
  </node>
  <node id="129999734" version="2" timestamp="2008-04-25T12:06:22Z" uid="19626" user="Swamp" changeset="254805" lat="-34.5151985" lon="146.1779879">
    <tag k="created_by" v="JOSM"/>
  </node>
  <node id="129999734" version="3" timestamp="2009-07-23T00:52:01Z" uid="74617" user="JohnSmith" changeset="1910473" lat="-34.5151985" lon="146.1779879"/>
  <node id="129999734" version="4" timestamp="2010-06-17T11:49:22Z" uid="19626" user="Swamp" changeset="5008131" lat="-34.5152107" lon="146.177983"/>
  <node id="129999741" version="1" timestamp="2007-11-23T00:23:45Z" uid="19626" user="Swamp" changeset="596757" lat="-34.5170923" lon="146.1776568">
    <tag k="created_by" v="JOSM"/>
  </node>
  <node id="129999741" version="2" timestamp="2008-04-25T12:06:22Z" uid="19626" user="Swamp" changeset="254805" lat="-34.5170923" lon="146.1776568">
    <tag k="created_by" v="JOSM"/>
  </node>
  <node id="129999741" version="3" timestamp="2009-07-23T00:52:01Z" uid="74617" user="JohnSmith" changeset="1910473" lat="-34.5170923" lon="146.1776568"/>
  <node id="129999741" version="4" timestamp="2010-06-17T11:49:22Z" uid="19626" user="Swamp" changeset="5008131" lat="-34.5170953" lon="146.1776566"/>
  <node id="129999743" version="1" timestamp="2007-11-23T00:23:46Z" uid="19626" user="Swamp" changeset="596757" lat="-34.5191583" lon="146.177233">
    <tag k="created_by" v="JOSM"/>
  </node>
  <node id="129999743" version="2" timestamp="2009-07-23T00:52:01Z" uid="74617" user="JohnSmith" changeset="1910473" lat="-34.5191583" lon="146.177233"/>
  <node id="129999743" version="3" timestamp="2010-06-17T11:49:22Z" uid="19626" user="Swamp" changeset="5008131" lat="-34.5191694" lon="146.1772316"/>
  <node id="129999755" version="1" timestamp="2007-11-23T00:23:47Z" uid="19626" user="Swamp" changeset="596757" lat="-34.515768" lon="146.1793784">
    <tag k="created_by" v="JOSM"/>
  </node>
  <node id="129999755" version="2" timestamp="2008-04-25T12:06:21Z" uid="19626" user="Swamp" changeset="254805" lat="-34.515768" lon="146.1793784">
    <tag k="created_by" v="JOSM"/>
  </node>
  <node id="129999755" version="3" timestamp="2009-07-23T00:52:00Z" uid="74617" user="JohnSmith" changeset="1910473" lat="-34.515768" lon="146.1793784"/>
  <node id="129999755" version="4" timestamp="2010-06-17T11:49:23Z" uid="19626" user="Swamp" changeset="5008131" lat="-34.5157786" lon="146.1793737"/>
  <node id="129999762" version="1" timestamp="2007-11-23T00:23:48Z" uid="19626" user="Swamp" changeset="596757" lat="-34.5172512" lon="146.1791268">
    <tag k="created_by" v="JOSM"/>
  </node>
  <node id="129999762" version="2" timestamp="2008-04-25T12:06:19Z" uid="19626" user="Swamp" changeset="254805" lat="-34.5172512" lon="146.1791268">
    <tag k="created_by" v="JOSM"/>
  </node>
  <node id="129999762" version="3" timestamp="2009-07-23T00:52:00Z" uid="74617" user="JohnSmith" changeset="1910473" lat="-34.5172512" lon="146.1791268"/>
  <node id="129999762" version="4" timestamp="2010-06-17T11:49:23Z" uid="19626" user="Swamp" changeset="5008131" lat="-34.5172878" lon="146.1791222"/>
  <node id="129999763" version="1" timestamp="2007-11-23T00:23:49Z" uid="19626" user="Swamp" changeset="596757" lat="-34.5193569" lon="146.1787825">
    <tag k="created_by" v="JOSM"/>
  </node>
  <node id="129999763" version="2" timestamp="2009-07-23T00:52:00Z" uid="74617" user="JohnSmith" changeset="1910473" lat="-34.5193569" lon="146.1787825"/>
  <node id="129999763" version="3" timestamp="2010-06-17T11:49:22Z" uid="19626" user="Swamp" changeset="5008131" lat="-34.5193652" lon="146.178782"/>
  <node id="129999768" version="1" timestamp="2007-11-23T00:23:49Z" uid="19626" user="Swamp" changeset="596757" lat="-34.5163649" lon="146.1807843">
    <tag k="created_by" v="JOSM"/>
  </node>
  <node id="129999768" version="2" timestamp="2008-04-25T12:06:20Z" uid="19626" user="Swamp" changeset="254805" lat="-34.5163649" lon="146.1807843">
    <tag k="created_by" v="JOSM"/>
  </node>
  <node id="129999768" version="3" timestamp="2009-07-23T00:52:00Z" uid="74617" user="JohnSmith" changeset="1910473" lat="-34.5163649" lon="146.1807843"/>
  <node id="129999768" version="4" timestamp="2010-06-17T11:49:23Z" uid="19626" user="Swamp" changeset="5008131" lat="-34.516356" lon="146.1807876"/>
  <node id="129999779" version="1" timestamp="2007-11-23T00:23:50Z" uid="19626" user="Swamp" changeset="596757" lat="-34.5174896" lon="146.1805836">
    <tag k="created_by" v="JOSM"/>
  </node>
  <node id="129999779" version="2" timestamp="2008-04-25T12:06:17Z" uid="19626" user="Swamp" changeset="254805" lat="-34.5174896" lon="146.1805836">
    <tag k="created_by" v="JOSM"/>
  </node>
  <node id="129999779" version="3" timestamp="2009-07-23T00:51:59Z" uid="74617" user="JohnSmith" changeset="1910473" lat="-34.5174896" lon="146.1805836"/>
  <node id="129999779" version="4" timestamp="2010-06-17T11:49:23Z" uid="19626" user="Swamp" changeset="5008131" lat="-34.5174801" lon="146.1805853"/>
  <node id="129999782" version="1" timestamp="2007-11-23T00:23:51Z" uid="19626" user="Swamp" changeset="596757" lat="-34.5195158" lon="146.180226">
    <tag k="created_by" v="JOSM"/>
  </node>
  <node id="129999782" version="2" timestamp="2009-07-23T00:51:59Z" uid="74617" user="JohnSmith" changeset="1910473" lat="-34.5195158" lon="146.180226"/>
  <node id="129999782" version="3" timestamp="2010-06-17T11:49:22Z" uid="19626" user="Swamp" changeset="5008131" lat="-34.519547" lon="146.1802221"/>
  <node id="129999788" version="1" timestamp="2007-11-23T00:23:52Z" uid="19626" user="Swamp" changeset="596757" lat="-34.5172512" lon="146.1830336">
    <tag k="created_by" v="JOSM"/>
  </node>
  <node id="129999788" version="2" timestamp="2008-04-25T12:06:18Z" uid="19626" user="Swamp" changeset="254805" lat="-34.5172512" lon="146.1830336">
    <tag k="created_by" v="JOSM"/>
  </node>
  <node id="129999788" version="3" timestamp="2009-07-23T00:51:59Z" uid="74617" user="JohnSmith" changeset="1910473" lat="-34.5172512" lon="146.1830336"/>
  <node id="129999788" version="4" timestamp="2010-06-17T11:49:23Z" uid="19626" user="Swamp" changeset="5008131" lat="-34.5172702" lon="146.1830263"/>
  <node id="129999791" version="1" timestamp="2007-11-23T00:23:53Z" uid="19626" user="Swamp" changeset="596757" lat="-34.5177677" lon="146.1828482">
    <tag k="created_by" v="JOSM"/>
  </node>
  <node id="129999791" version="2" timestamp="2008-04-25T12:06:17Z" uid="19626" user="Swamp" changeset="254805" lat="-34.5177677" lon="146.1828482">
    <tag k="created_by" v="JOSM"/>
  </node>
  <node id="129999791" version="3" timestamp="2009-07-23T00:51:59Z" uid="74617" user="JohnSmith" changeset="1910473" lat="-34.5177677" lon="146.1828482"/>
  <node id="129999791" version="4" timestamp="2010-06-17T11:49:23Z" uid="19626" user="Swamp" changeset="5008131" lat="-34.5177772" lon="146.1828468"/>
</osm>
