<?xml version='1.0' encoding='UTF-8'?>
<osm version="0.6" generator="libosmium/2.20.0">
  <node id="1315660645" version="1" timestamp="2011-06-07T23:35:51Z" uid="30632" user="antblant" changeset="8375257" lat="51.7499826" lon="19.8247677">
    <tag k="addr:housenumber" v="73"/>
    <tag k="addr:street" v="Warszawska"/>
  </node>
  <node id="1315660647" version="1" timestamp="2011-06-07T23:35:51Z" uid="30632" user="antblant" changeset="8375257" lat="51.7455825" lon="19.8249708">
    <tag k="addr:housenumber" v="29"/>
    <tag k="addr:street" v="Warszawska"/>
  </node>
  <node id="1315660656" version="1" timestamp="2011-06-07T23:35:51Z" uid="30632" user="antblant" changeset="8375257" lat="51.7483858" lon="19.8225796">
    <tag k="addr:housenumber" v="71"/>
    <tag k="addr:street" v="Tadeusza Kościuszki"/>
  </node>
  <node id="1315660658" version="1" timestamp="2011-06-07T23:35:52Z" uid="30632" user="antblant" changeset="8375257" lat="51.7488762" lon="19.824821">
    <tag k="addr:housenumber" v="63"/>
    <tag k="addr:street" v="Warszawska"/>
  </node>
  <node id="1315660659" version="1" timestamp="2011-06-07T23:35:52Z" uid="30632" user="antblant" changeset="8375257" lat="51.7460264" lon="19.8226596">
    <tag k="addr:housenumber" v="51"/>
    <tag k="addr:street" v="Tadeusza Kościuszki"/>
    <tag k="name" v="Pasand"/>
    <tag k="note:pl" v="pasmanteria - producent"/>
    <tag k="shop" v="fabric"/>
  </node>
  <node id="1315660660" version="1" timestamp="2011-06-07T23:35:52Z" uid="30632" user="antblant" changeset="8375257" lat="51.7469067" lon="19.8230642">
    <tag k="addr:housenumber" v="16"/>
    <tag k="addr:street" v="Zawiła"/>
  </node>
  <node id="1315660664" version="1" timestamp="2011-06-07T23:35:52Z" uid="30632" user="antblant" changeset="8375257" lat="51.7443312" lon="19.8250816">
    <tag k="addr:housenumber" v="19"/>
    <tag k="addr:street" v="Warszawska"/>
  </node>
  <node id="1315660667" version="1" timestamp="2011-06-07T23:35:52Z" uid="30632" user="antblant" changeset="8375257" lat="51.7503562" lon="19.8247301">
    <tag k="addr:housenumber" v="77"/>
    <tag k="addr:street" v="Warszawska"/>
  </node>
  <node id="1315660669" version="1" timestamp="2011-06-07T23:35:52Z" uid="30632" user="antblant" changeset="8375257" lat="51.7433781" lon="19.8236447">
    <tag k="addr:housenumber" v="29"/>
    <tag k="addr:street" v="Tadeusza Kościuszki"/>
  </node>
  <node id="1315660671" version="1" timestamp="2011-06-07T23:35:52Z" uid="30632" user="antblant" changeset="8375257" lat="51.7482152" lon="19.8237463">
    <tag k="addr:housenumber" v="7"/>
    <tag k="addr:street" v="Józefa Bema"/>
  </node>
  <node id="1315660674" version="1" timestamp="2011-06-07T23:35:52Z" uid="30632" user="antblant" changeset="8375257" lat="51.750421" lon="19.8235811">
    <tag k="addr:housenumber" v="87b"/>
    <tag k="addr:street" v="Tadeusza Kościuszki"/>
  </node>
  <node id="1315660676" version="1" timestamp="2011-06-07T23:35:52Z" uid="30632" user="antblant" changeset="8375257" lat="51.7456528" lon="19.8234353">
    <tag k="addr:housenumber" v="2a"/>
    <tag k="addr:street" v="Zawiła"/>
    <tag k="note:pl" v="wejscie od Kosciuszki"/>
  </node>
  <node id="1315660678" version="1" timestamp="2011-06-07T23:35:52Z" uid="30632" user="antblant" changeset="8375257" lat="51.7493195" lon="19.8248156">
    <tag k="addr:housenumber" v="67"/>
    <tag k="addr:street" v="Warszawska"/>
  </node>
  <node id="1315660680" version="1" timestamp="2011-06-07T23:35:52Z" uid="30632" user="antblant" changeset="8375257" lat="51.7465206" lon="19.822483">
    <tag k="addr:housenumber" v="55"/>
    <tag k="addr:street" v="Tadeusza Kościuszki"/>
  </node>
  <node id="1315660682" version="1" timestamp="2011-06-07T23:35:52Z" uid="30632" user="antblant" changeset="8375257" lat="51.7453893" lon="19.8229445">
    <tag k="addr:housenumber" v="45"/>
    <tag k="addr:street" v="Tadeusza Kościuszki"/>
  </node>
  <node id="1315660682" version="2" timestamp="2011-06-14T17:44:31Z" uid="20587" user="balrog-kun" changeset="8439800" lat="51.7453777" lon="19.8229211">
    <tag k="addr:housenumber" v="45"/>
    <tag k="addr:street" v="Tadeusza Kościuszki"/>
  </node>
  <node id="1315660684" version="1" timestamp="2011-06-07T23:35:52Z" uid="30632" user="antblant" changeset="8375257" lat="51.7473064" lon="19.8221834">
    <tag k="addr:street" v="Tadeusza Kościuszki"/>
    <tag k="name" v="AUTO-RTV"/>
    <tag k="note" v="audio"/>
    <tag k="shop" v="car_repair"/>
  </node>
  <node id="1315660690" version="1" timestamp="2011-06-07T23:35:52Z" uid="30632" user="antblant" changeset="8375257" lat="51.748045" lon="19.8250178">
    <tag k="addr:housenumber" v="55"/>
    <tag k="addr:street" v="Warszawska"/>
  </node>
  <node id="1315660691" version="1" timestamp="2011-06-07T23:35:52Z" uid="30632" user="antblant" changeset="8375257" lat="51.7484016" lon="19.8226746">
    <tag k="addr:housenumber" v="71a"/>
    <tag k="addr:street" v="Tadeusza Kościuszki"/>
  </node>
  <node id="1315660692" version="1" timestamp="2011-06-07T23:35:53Z" uid="30632" user="antblant" changeset="8375257" lat="51.7435925" lon="19.8273679"/>
  <node id="1315660692" version="2" timestamp="2011-06-16T00:08:09Z" uid="163896" user="Zbigniew Czernik" changeset="8451875" lat="51.7435904" lon="19.8274256"/>
  <node id="1315660693" version="1" timestamp="2011-06-07T23:35:53Z" uid="30632" user="antblant" changeset="8375257" lat="51.7456517" lon="19.8228315">
    <tag k="addr:housenumber" v="49"/>
    <tag k="addr:street" v="Tadeusza Kościuszki"/>
  </node>
  <node id="1315660696" version="1" timestamp="2011-06-07T23:35:53Z" uid="30632" user="antblant" changeset="8375257" lat="51.7490324" lon="19.8228479">
    <tag k="addr:housenumber" v="79"/>
    <tag k="addr:street" v="Tadeusza Kościuszki"/>
  </node>
  <node id="1315660698" version="1" timestamp="2011-06-07T23:35:53Z" uid="30632" user="antblant" changeset="8375257" lat="51.7469612" lon="19.8223236">
    <tag k="addr:housenumber" v="59"/>
    <tag k="addr:street" v="Tadeusza Kościuszki"/>
    <tag k="name" v="Autoserwis"/>
    <tag k="opening_hours" v="Mo-Fr 09:00-17:00 Sa 09:00-14:00"/>
    <tag k="shop" v="car_repair"/>
  </node>
  <node id="1315660706" version="1" timestamp="2011-06-07T23:35:53Z" uid="30632" user="antblant" changeset="8375257" lat="51.7431142" lon="19.8268569">
    <tag k="amenity" v="post_box"/>
  </node>
  <node id="1315660707" version="1" timestamp="2011-06-07T23:35:53Z" uid="30632" user="antblant" changeset="8375257" lat="51.7463515" lon="19.8225536">
    <tag k="addr:housenumber" v="53"/>
    <tag k="addr:street" v="Tadeusza Kościuszki"/>
  </node>
  <node id="1315660708" version="1" timestamp="2011-06-07T23:35:53Z" uid="30632" user="antblant" changeset="8375257" lat="51.7505571" lon="19.8247099">
    <tag k="addr:housenumber" v="79"/>
    <tag k="addr:street" v="Warszawska"/>
    <tag k="note:pl" v="blizniak z 1 numerem"/>
  </node>
  <node id="1315660709" version="1" timestamp="2011-06-07T23:35:53Z" uid="30632" user="antblant" changeset="8375257" lat="51.7477645" lon="19.822203">
    <tag k="addr:housenumber" v="65"/>
    <tag k="addr:street" v="Tadeusza Kościuszki"/>
  </node>
  <node id="1315660715" version="1" timestamp="2011-06-07T23:35:53Z" uid="30632" user="antblant" changeset="8375257" lat="51.7452956" lon="19.8229851">
    <tag k="addr:housenumber" v="43"/>
    <tag k="addr:street" v="Tadeusza Kościuszki"/>
  </node>
  <node id="1315660718" version="1" timestamp="2011-06-07T23:35:53Z" uid="30632" user="antblant" changeset="8375257" lat="51.7485829" lon="19.8248246">
    <tag k="addr:housenumber" v="59"/>
    <tag k="addr:street" v="Warszawska"/>
  </node>
  <node id="1315660720" version="1" timestamp="2011-06-07T23:35:53Z" uid="30632" user="antblant" changeset="8375257" lat="51.7461334" lon="19.8233864">
    <tag k="addr:housenumber" v="8"/>
    <tag k="addr:street" v="Zawiła"/>
  </node>
  <node id="1315660723" version="1" timestamp="2011-06-07T23:35:53Z" uid="30632" user="antblant" changeset="8375257" lat="51.7445258" lon="19.8250574">
    <tag k="addr:housenumber" v="21"/>
    <tag k="addr:street" v="Warszawska"/>
  </node>
  <node id="1315660724" version="1" timestamp="2011-06-07T23:35:53Z" uid="30632" user="antblant" changeset="8375257" lat="51.7436264" lon="19.8273618"/>
  <node id="1315660724" version="2" timestamp="2011-06-16T00:08:08Z" uid="163896" user="Zbigniew Czernik" changeset="8451875" lat="51.7436895" lon="19.8274297"/>
  <node id="1315660725" version="1" timestamp="2011-06-07T23:35:53Z" uid="30632" user="antblant" changeset="8375257" lat="51.7434518" lon="19.823604">
    <tag k="addr:housenumber" v="31"/>
    <tag k="addr:street" v="Tadeusza Kościuszki"/>
  </node>
  <node id="1315660728" version="1" timestamp="2011-06-07T23:35:53Z" uid="30632" user="antblant" changeset="8375257" lat="51.7465943" lon="19.8249166">
    <tag k="addr:housenumber" v="39"/>
    <tag k="addr:street" v="Warszawska"/>
  </node>
  <node id="1315660731" version="1" timestamp="2011-06-07T23:35:53Z" uid="30632" user="antblant" changeset="8375257" lat="51.7470682" lon="19.8248742">
    <tag k="addr:housenumber" v="45"/>
    <tag k="addr:street" v="Warszawska"/>
  </node>
  <node id="1315660733" version="1" timestamp="2011-06-07T23:35:54Z" uid="30632" user="antblant" changeset="8375257" lat="51.7453668" lon="19.8234687">
    <tag k="addr:housenumber" v="2"/>
    <tag k="addr:street" v="Zawiła"/>
    <tag k="name" v="Usługi Remontowe"/>
  </node>
  <node id="1315660736" version="1" timestamp="2011-06-07T23:35:54Z" uid="30632" user="antblant" changeset="8375257" lat="51.7432347" lon="19.8269238">
    <tag k="name" v="Solarium Magnetic"/>
    <tag k="shop" v="solarium"/>
  </node>
  <node id="1315660740" version="1" timestamp="2011-06-07T23:35:54Z" uid="30632" user="antblant" changeset="8375257" lat="51.7437432" lon="19.8273131">
    <tag k="addr:housenumber" v="5"/>
    <tag k="addr:street" v="Piękna"/>
  </node>
  <node id="1315660741" version="1" timestamp="2011-06-07T23:35:54Z" uid="30632" user="antblant" changeset="8375257" lat="51.7457545" lon="19.8267083">
    <tag k="shop" v="kiosk"/>
  </node>
  <node id="1315660742" version="1" timestamp="2011-06-07T23:35:54Z" uid="30632" user="antblant" changeset="8375257" lat="51.7500251" lon="19.8234229">
    <tag k="addr:housenumber" v="87"/>
    <tag k="addr:street" v="Tadeusza Kościuszki"/>
  </node>
  <node id="1315660744" version="1" timestamp="2011-06-07T23:35:54Z" uid="30632" user="antblant" changeset="8375257" lat="51.7476782" lon="19.8248092">
    <tag k="addr:housenumber" v="51"/>
    <tag k="addr:street" v="Warszawska"/>
  </node>
  <node id="1315660746" version="1" timestamp="2011-06-07T23:35:54Z" uid="30632" user="antblant" changeset="8375257" lat="51.7467247" lon="19.8231132">
    <tag k="addr:housenumber" v="14"/>
    <tag k="addr:street" v="Zawiła"/>
  </node>
  <node id="1315660749" version="1" timestamp="2011-06-07T23:35:54Z" uid="30632" user="antblant" changeset="8375257" lat="51.7488952" lon="19.822774">
    <tag k="addr:housenumber" v="77"/>
    <tag k="addr:street" v="Tadeusza Kościuszki"/>
  </node>
  <node id="1315660755" version="1" timestamp="2011-06-07T23:35:54Z" uid="30632" user="antblant" changeset="8375257" lat="51.7433402" lon="19.8269269">
    <tag k="shop" v="car_repair"/>
  </node>
  <node id="1315660756" version="1" timestamp="2011-06-07T23:35:54Z" uid="30632" user="antblant" changeset="8375257" lat="51.7497094" lon="19.8247952">
    <tag k="addr:housenumber" v="71"/>
    <tag k="addr:street" v="Warszawska"/>
  </node>
  <node id="1315660757" version="1" timestamp="2011-06-07T23:35:54Z" uid="30632" user="antblant" changeset="8375257" lat="51.746128" lon="19.8292976">
    <tag k="amenity" v="recycling"/>
    <tag k="recycling:glass" v="yes"/>
    <tag k="recycling:paper" v="yes"/>
    <tag k="recycling:plastic" v="yes"/>
  </node>
  <node id="1315660758" version="1" timestamp="2011-06-07T23:35:54Z" uid="30632" user="antblant" changeset="8375257" lat="51.743875" lon="19.8251102">
    <tag k="addr:housenumber" v="9"/>
    <tag k="addr:street" v="Warszawska"/>
  </node>
  <node id="1315660760" version="1" timestamp="2011-06-07T23:35:54Z" uid="30632" user="antblant" changeset="8375257" lat="51.748009" lon="19.82283">
    <tag k="addr:housenumber" v="1a"/>
    <tag k="addr:street" v="Józefa Bema"/>
  </node>
  <node id="1315660769" version="1" timestamp="2011-06-07T23:35:54Z" uid="30632" user="antblant" changeset="8375257" lat="51.7457824" lon="19.8264528">
    <tag k="highway" v="crossing"/>
  </node>
  <node id="1315660769" version="2" timestamp="2011-06-16T00:09:03Z" uid="163896" user="Zbigniew Czernik" changeset="8451875" lat="51.7458211" lon="19.8264474">
    <tag k="highway" v="crossing"/>
  </node>
  <node id="1315660771" version="1" timestamp="2011-06-07T23:35:54Z" uid="30632" user="antblant" changeset="8375257" lat="51.7498585" lon="19.8233515">
    <tag k="addr:housenumber" v="85"/>
    <tag k="addr:street" v="Tadeusza Kościuszki"/>
  </node>
  <node id="1315660772" version="1" timestamp="2011-06-07T23:35:55Z" uid="30632" user="antblant" changeset="8375257" lat="51.7448245" lon="19.8250204">
    <tag k="addr:housenumber" v="23"/>
    <tag k="addr:street" v="Warszawska"/>
  </node>
  <node id="1315660773" version="1" timestamp="2011-06-07T23:35:55Z" uid="30632" user="antblant" changeset="8375257" lat="51.7485528" lon="19.8227032">
    <tag k="addr:housenumber" v="73"/>
    <tag k="addr:street" v="Tadeusza Kościuszki"/>
  </node>
  <node id="1315660774" version="1" timestamp="2011-06-07T23:35:55Z" uid="30632" user="antblant" changeset="8375257" lat="51.7434758" lon="19.8270242"/>
  <node id="1315660779" version="1" timestamp="2011-06-07T23:35:55Z" uid="30632" user="antblant" changeset="8375257" lat="51.748134" lon="19.8234057">
    <tag k="addr:housenumber" v="5"/>
    <tag k="addr:street" v="Józefa Bema"/>
  </node>
  <node id="1315660781" version="1" timestamp="2011-06-07T23:35:55Z" uid="30632" user="antblant" changeset="8375257" lat="51.7461088" lon="19.8249354">
    <tag k="addr:housenumber" v="35"/>
    <tag k="addr:street" v="Warszawska"/>
  </node>
  <node id="1315660784" version="1" timestamp="2011-06-07T23:35:55Z" uid="30632" user="antblant" changeset="8375257" lat="51.7451842" lon="19.8249758">
    <tag k="addr:housenumber" v="25"/>
    <tag k="addr:street" v="Warszawska"/>
  </node>
  <node id="1315660786" version="1" timestamp="2011-06-07T23:35:55Z" uid="30632" user="antblant" changeset="8375257" lat="51.7467941" lon="19.8223477">
    <tag k="addr:housenumber" v="57"/>
    <tag k="addr:street" v="Tadeusza Kościuszki"/>
    <tag k="name" v="Sklep Max"/>
    <tag k="shop" v="convenience"/>
  </node>
  <node id="1315660789" version="1" timestamp="2011-06-07T23:35:55Z" uid="30632" user="antblant" changeset="8375257" lat="51.7501049" lon="19.8247554">
    <tag k="addr:housenumber" v="75"/>
    <tag k="addr:street" v="Warszawska"/>
  </node>
  <node id="1315660791" version="1" timestamp="2011-06-07T23:35:55Z" uid="30632" user="antblant" changeset="8375257" lat="51.7457727" lon="19.8223275">
    <tag k="man_made" v="water_tower"/>
  </node>
  <node id="1315660791" version="2" timestamp="2011-06-14T17:44:28Z" uid="20587" user="balrog-kun" changeset="8439800" lat="51.7458832" lon="19.8221725">
    <tag k="man_made" v="water_tower"/>
  </node>
  <node id="1315660793" version="1" timestamp="2011-06-07T23:35:55Z" uid="30632" user="antblant" changeset="8375257" lat="51.7502436" lon="19.8235309">
    <tag k="addr:housenumber" v="87a"/>
    <tag k="addr:street" v="Tadeusza Kościuszki"/>
  </node>
  <node id="1315660795" version="1" timestamp="2011-06-07T23:35:55Z" uid="30632" user="antblant" changeset="8375257" lat="51.7459292" lon="19.8235107">
    <tag k="addr:housenumber" v="6"/>
    <tag k="addr:street" v="Zawiła"/>
  </node>
  <node id="1315660797" version="1" timestamp="2011-06-07T23:35:55Z" uid="30632" user="antblant" changeset="8375257" lat="51.7491425" lon="19.8228479">
    <tag k="addr:housenumber" v="79"/>
    <tag k="addr:street" v="Tadeusza Kościuszki"/>
  </node>
  <node id="1315660800" version="1" timestamp="2011-06-07T23:35:55Z" uid="30632" user="antblant" changeset="8375257" lat="51.7432027" lon="19.8269269">
    <tag k="amenity" v="bicycle_parking"/>
  </node>
  <node id="1315660802" version="1" timestamp="2011-06-07T23:35:55Z" uid="30632" user="antblant" changeset="8375257" lat="51.7490527" lon="19.8248188">
    <tag k="addr:housenumber" v="65"/>
    <tag k="addr:street" v="Warszawska"/>
  </node>
  <node id="1315660806" version="1" timestamp="2011-06-07T23:35:55Z" uid="30632" user="antblant" changeset="8375257" lat="51.7463902" lon="19.8249354">
    <tag k="addr:housenumber" v="37"/>
    <tag k="addr:street" v="Warszawska"/>
  </node>
  <node id="1315660807" version="1" timestamp="2011-06-07T23:35:55Z" uid="30632" user="antblant" changeset="8375257" lat="51.7451385" lon="19.8273947">
    <tag k="addr:housenumber" v="11a"/>
    <tag k="addr:street" v="Budowlanych"/>
  </node>
  <node id="1315660808" version="1" timestamp="2011-06-07T23:35:56Z" uid="30632" user="antblant" changeset="8375257" lat="51.7455267" lon="19.8282974">
    <tag k="addr:housenumber" v="3"/>
    <tag k="addr:street" v="Miła"/>
  </node>
  <node id="1315660810" version="1" timestamp="2011-06-07T23:35:56Z" uid="30632" user="antblant" changeset="8375257" lat="51.7429825" lon="19.8216417"/>
  <node id="1315660812" version="1" timestamp="2011-06-07T23:35:56Z" uid="30632" user="antblant" changeset="8375257" lat="51.7475574" lon="19.8221412">
    <tag k="addr:housenumber" v="65"/>
    <tag k="addr:street" v="Tadeusza Kościuszki"/>
  </node>
  <node id="1315660821" version="1" timestamp="2011-06-07T23:35:56Z" uid="30632" user="antblant" changeset="8375257" lat="51.747783" lon="19.8248028">
    <tag k="addr:housenumber" v="53"/>
    <tag k="addr:street" v="Warszawska"/>
  </node>
  <node id="1315660822" version="1" timestamp="2011-06-07T23:35:56Z" uid="30632" user="antblant" changeset="8375257" lat="51.7457297" lon="19.8266355">
    <tag k="highway" v="crossing"/>
  </node>
  <node id="1315660823" version="1" timestamp="2011-06-07T23:35:56Z" uid="30632" user="antblant" changeset="8375257" lat="51.7475793" lon="19.8248152">
    <tag k="addr:housenumber" v="49"/>
    <tag k="addr:street" v="Warszawska"/>
  </node>
  <node id="1315660824" version="1" timestamp="2011-06-07T23:35:56Z" uid="30632" user="antblant" changeset="8375257" lat="51.7494258" lon="19.8248143">
    <tag k="addr:housenumber" v="69a"/>
    <tag k="addr:street" v="Warszawska"/>
  </node>
  <node id="1315660825" version="1" timestamp="2011-06-07T23:35:56Z" uid="30632" user="antblant" changeset="8375257" lat="51.7441576" lon="19.8251031">
    <tag k="addr:housenumber" v="15"/>
    <tag k="addr:street" v="Warszawska"/>
  </node>
  <node id="1315660826" version="1" timestamp="2011-06-07T23:35:56Z" uid="30632" user="antblant" changeset="8375257" lat="51.7507491" lon="19.8246905">
    <tag k="addr:housenumber" v="81"/>
    <tag k="addr:street" v="Warszawska"/>
  </node>
  <node id="1315660834" version="1" timestamp="2011-06-07T23:35:56Z" uid="30632" user="antblant" changeset="8375257" lat="51.7457881" lon="19.8249449">
    <tag k="addr:housenumber" v="31"/>
    <tag k="addr:street" v="Warszawska"/>
  </node>
  <node id="1315660836" version="1" timestamp="2011-06-07T23:35:56Z" uid="30632" user="antblant" changeset="8375257" lat="51.7431118" lon="19.8235334"/>
  <node id="1315660838" version="1" timestamp="2011-06-07T23:35:56Z" uid="30632" user="antblant" changeset="8375257" lat="51.7496407" lon="19.8232714">
    <tag k="addr:housenumber" v="83"/>
    <tag k="addr:street" v="Tadeusza Kościuszki"/>
  </node>
  <node id="1315660839" version="1" timestamp="2011-06-07T23:35:56Z" uid="30632" user="antblant" changeset="8375257" lat="51.7431406" lon="19.825172">
    <tag k="addr:housenumber" v="1"/>
    <tag k="addr:street" v="Warszawska"/>
  </node>
  <node id="1315660840" version="1" timestamp="2011-06-07T23:35:56Z" uid="30632" user="antblant" changeset="8375257" lat="51.7482345" lon="19.8247753">
    <tag k="addr:housenumber" v="57"/>
    <tag k="addr:street" v="Warszawska"/>
  </node>
  <node id="1315660844" version="1" timestamp="2011-06-07T23:35:56Z" uid="30632" user="antblant" changeset="8375257" lat="51.7440617" lon="19.8250921">
    <tag k="addr:housenumber" v="13"/>
    <tag k="addr:street" v="Warszawska"/>
  </node>
  <node id="1315660846" version="1" timestamp="2011-06-07T23:35:56Z" uid="30632" user="antblant" changeset="8375257" lat="51.7480956" lon="19.8223731">
    <tag k="addr:housenumber" v="69"/>
    <tag k="addr:street" v="Tadeusza Kościuszki"/>
  </node>
  <node id="1315660849" version="1" timestamp="2011-06-07T23:35:57Z" uid="30632" user="antblant" changeset="8375257" lat="51.7456904" lon="19.8263555">
    <tag k="highway" v="crossing"/>
  </node>
  <node id="1315660849" version="2" timestamp="2011-06-16T00:09:03Z" uid="163896" user="Zbigniew Czernik" changeset="8451875" lat="51.7457089" lon="19.8262903">
    <tag k="highway" v="crossing"/>
  </node>
  <node id="1315660851" version="1" timestamp="2011-06-07T23:35:57Z" uid="30632" user="antblant" changeset="8375257" lat="51.7457694" lon="19.8235823">
    <tag k="addr:housenumber" v="4"/>
    <tag k="addr:street" v="Zawiła"/>
  </node>
  <node id="1315660853" version="1" timestamp="2011-06-07T23:35:57Z" uid="30632" user="antblant" changeset="8375257" lat="51.7451765" lon="19.8283004">
    <tag k="addr:housenumber" v="5"/>
    <tag k="addr:street" v="Miła"/>
  </node>
  <node id="1315660856" version="1" timestamp="2011-06-07T23:35:57Z" uid="30632" user="antblant" changeset="8375257" lat="51.7487786" lon="19.8248222">
    <tag k="addr:housenumber" v="61"/>
    <tag k="addr:street" v="Warszawska"/>
  </node>
  <node id="1315660857" version="1" timestamp="2011-06-07T23:35:57Z" uid="30632" user="antblant" changeset="8375257" lat="51.7436286" lon="19.8235263">
    <tag k="addr:housenumber" v="33"/>
    <tag k="addr:street" v="Tadeusza Kościuszki"/>
    <tag k="amenity" v="nightclub"/>
    <tag k="name" v="Klub Laguna"/>
  </node>
  <node id="1315660860" version="1" timestamp="2011-06-07T23:35:57Z" uid="30632" user="antblant" changeset="8375257" lat="51.7459849" lon="19.8249566">
    <tag k="addr:housenumber" v="33"/>
    <tag k="addr:street" v="Warszawska"/>
  </node>
  <node id="1315660862" version="1" timestamp="2011-06-07T23:35:57Z" uid="30632" user="antblant" changeset="8375257" lat="51.742794" lon="19.8272614">
    <tag k="amenity" v="bicycle_parking"/>
  </node>
  <node id="1315660864" version="1" timestamp="2011-06-07T23:35:57Z" uid="30632" user="antblant" changeset="8375257" lat="51.7495074" lon="19.8248133">
    <tag k="addr:housenumber" v="69"/>
    <tag k="addr:street" v="Warszawska"/>
  </node>
  <node id="1315660871" version="1" timestamp="2011-06-07T23:35:57Z" uid="30632" user="antblant" changeset="8375257" lat="51.7439861" lon="19.8269086">
    <tag k="addr:housenumber" v="7"/>
    <tag k="addr:street" v="Piękna"/>
  </node>
  <node id="1315660872" version="1" timestamp="2011-06-07T23:35:57Z" uid="30632" user="antblant" changeset="8375257" lat="51.750796" lon="19.8246858">
    <tag k="addr:housenumber" v="81a"/>
    <tag k="addr:street" v="Warszawska"/>
  </node>
  <node id="1315660873" version="1" timestamp="2011-06-07T23:35:57Z" uid="30632" user="antblant" changeset="8375257" lat="51.7473452" lon="19.8248295">
    <tag k="addr:housenumber" v="47"/>
    <tag k="addr:street" v="Warszawska"/>
  </node>
  <node id="1315660874" version="1" timestamp="2011-06-07T23:35:57Z" uid="30632" user="antblant" changeset="8375257" lat="51.7494028" lon="19.8232352">
    <tag k="addr:housenumber" v="81"/>
    <tag k="addr:street" v="Tadeusza Kościuszki"/>
  </node>
  <node id="1315660876" version="1" timestamp="2011-06-07T23:35:57Z" uid="30632" user="antblant" changeset="8375257" lat="51.7439907" lon="19.8250996">
    <tag k="addr:housenumber" v="11"/>
    <tag k="addr:street" v="Warszawska"/>
  </node>
  <node id="1315660884" version="1" timestamp="2011-06-07T23:35:57Z" uid="30632" user="antblant" changeset="8375257" lat="51.7442401" lon="19.8250929">
    <tag k="addr:housenumber" v="17"/>
    <tag k="addr:street" v="Warszawska"/>
  </node>
  <node id="1315660886" version="1" timestamp="2011-06-07T23:35:57Z" uid="30632" user="antblant" changeset="8375257" lat="51.7455117" lon="19.8229045">
    <tag k="addr:housenumber" v="47"/>
    <tag k="addr:street" v="Tadeusza Kościuszki"/>
  </node>
  <node id="1315660886" version="2" timestamp="2011-06-14T17:44:29Z" uid="20587" user="balrog-kun" changeset="8439800" lat="51.745561" lon="19.8228343">
    <tag k="addr:housenumber" v="47"/>
    <tag k="addr:street" v="Tadeusza Kościuszki"/>
  </node>
  <node id="1315660888" version="1" timestamp="2011-06-07T23:35:57Z" uid="30632" user="antblant" changeset="8375257" lat="51.7430077" lon="19.8212894"/>
  <node id="1315660889" version="1" timestamp="2011-06-07T23:35:58Z" uid="30632" user="antblant" changeset="8375257" lat="51.7487273" lon="19.8227409">
    <tag k="addr:housenumber" v="75a"/>
    <tag k="addr:street" v="Tadeusza Kościuszki"/>
    <tag k="name" v="Teleradiomechanika"/>
    <tag k="note" v="repair only"/>
    <tag k="shop" v="electronics"/>
  </node>
  <node id="1315660890" version="1" timestamp="2011-06-07T23:35:58Z" uid="30632" user="antblant" changeset="8375257" lat="51.7456188" lon="19.8264643">
    <tag k="highway" v="crossing"/>
  </node>
  <node id="1315660891" version="1" timestamp="2011-06-07T23:35:58Z" uid="30632" user="antblant" changeset="8375257" lat="51.7467532" lon="19.8249001">
    <tag k="addr:housenumber" v="41"/>
    <tag k="addr:street" v="Warszawska"/>
  </node>
  <node id="1315660897" version="1" timestamp="2011-06-07T23:35:58Z" uid="30632" user="antblant" changeset="8375257" lat="51.746953" lon="19.8248695">
    <tag k="addr:housenumber" v="43"/>
    <tag k="addr:street" v="Warszawska"/>
  </node>
  <node id="1315660899" version="1" timestamp="2011-06-07T23:35:58Z" uid="30632" user="antblant" changeset="8375257" lat="51.7451953" lon="19.8226572">
    <tag k="amenity" v="recycling"/>
    <tag k="recycling:glass" v="yes"/>
    <tag k="recycling:plastic" v="yes"/>
  </node>
  <node id="1315660902" version="1" timestamp="2011-06-07T23:35:58Z" uid="30632" user="antblant" changeset="8375257" lat="51.7457489" lon="19.8282769">
    <tag k="addr:housenumber" v="1"/>
    <tag k="addr:street" v="Miła"/>
  </node>
  <node id="1315660904" version="1" timestamp="2011-06-07T23:35:58Z" uid="30632" user="antblant" changeset="8375257" lat="51.7496612" lon="19.823826">
    <tag k="addr:housenumber" v="85b"/>
    <tag k="addr:street" v="Tadeusza Kościuszki"/>
  </node>
  <node id="1315660906" version="1" timestamp="2011-06-07T23:35:58Z" uid="30632" user="antblant" changeset="8375257" lat="51.7435112" lon="19.8251707">
    <tag k="addr:housenumber" v="7"/>
    <tag k="addr:street" v="Warszawska"/>
  </node>
</osm>
