<?xml version='1.0' encoding='UTF-8'?>
<osm version="0.6" generator="libosmium/2.20.0">
  <node id="133200006" version="1" timestamp="2007-11-25T22:17:05Z" uid="4467" user="Rosscoe" changeset="621649" lat="-28.514673" lon="150.289013">
    <tag k="created_by" v="JOSM"/>
    <tag k="highway" v="trunk"/>
    <tag k="name" v="Leichhardt Hwy"/>
    <tag k="surface" v="paved"/>
  </node>
  <node id="133200037" version="1" timestamp="2007-11-25T22:17:06Z" uid="4467" user="Rosscoe" changeset="621649" lat="-28.516393" lon="150.288693">
    <tag k="created_by" v="JOSM"/>
    <tag k="highway" v="trunk"/>
    <tag k="name" v="Leichhardt Hwy"/>
    <tag k="surface" v="paved"/>
  </node>
  <node id="133200064" version="1" timestamp="2007-11-25T22:17:07Z" uid="4467" user="Rosscoe" changeset="621649" lat="-28.515822" lon="150.2888">
    <tag k="created_by" v="JOSM"/>
    <tag k="highway" v="trunk"/>
    <tag k="name" v="Leichhardt Hwy"/>
    <tag k="surface" v="paved"/>
  </node>
  <node id="133200089" version="1" timestamp="2007-11-25T22:17:08Z" uid="4467" user="Rosscoe" changeset="621649" lat="-28.516015" lon="150.288765">
    <tag k="created_by" v="JOSM"/>
    <tag k="highway" v="trunk"/>
    <tag k="name" v="Leichhardt Hwy"/>
    <tag k="surface" v="paved"/>
  </node>
  <node id="133200111" version="1" timestamp="2007-11-25T22:17:09Z" uid="4467" user="Rosscoe" changeset="621649" lat="-28.516957" lon="150.28859">
    <tag k="created_by" v="JOSM"/>
    <tag k="highway" v="trunk"/>
    <tag k="name" v="Leichhardt Hwy"/>
    <tag k="surface" v="paved"/>
  </node>
  <node id="133200130" version="1" timestamp="2007-11-25T22:17:10Z" uid="4467" user="Rosscoe" changeset="621649" lat="-28.515633" lon="150.288835">
    <tag k="created_by" v="JOSM"/>
    <tag k="highway" v="trunk"/>
    <tag k="name" v="Leichhardt Hwy"/>
    <tag k="surface" v="paved"/>
  </node>
  <node id="133200150" version="1" timestamp="2007-11-25T22:17:10Z" uid="4467" user="Rosscoe" changeset="621649" lat="-28.51506" lon="150.28894">
    <tag k="created_by" v="JOSM"/>
    <tag k="highway" v="trunk"/>
    <tag k="name" v="Leichhardt Hwy"/>
    <tag k="surface" v="paved"/>
  </node>
  <node id="133200181" version="1" timestamp="2007-11-25T22:17:11Z" uid="4467" user="Rosscoe" changeset="621649" lat="-28.51525" lon="150.288905">
    <tag k="created_by" v="JOSM"/>
    <tag k="highway" v="trunk"/>
    <tag k="name" v="Leichhardt Hwy"/>
    <tag k="surface" v="paved"/>
  </node>
  <node id="133200203" version="1" timestamp="2007-11-25T22:17:12Z" uid="4467" user="Rosscoe" changeset="621649" lat="-28.519033" lon="150.288213">
    <tag k="created_by" v="JOSM"/>
    <tag k="highway" v="trunk"/>
    <tag k="name" v="Leichhardt Hwy"/>
    <tag k="surface" v="paved"/>
  </node>
  <node id="133200224" version="1" timestamp="2007-11-25T22:17:13Z" uid="4467" user="Rosscoe" changeset="621649" lat="-28.514867" lon="150.288977">
    <tag k="created_by" v="JOSM"/>
    <tag k="highway" v="trunk"/>
    <tag k="name" v="Leichhardt Hwy"/>
    <tag k="surface" v="paved"/>
  </node>
  <node id="133200251" version="1" timestamp="2007-11-25T22:17:14Z" uid="4467" user="Rosscoe" changeset="621649" lat="-28.514293" lon="150.289083">
    <tag k="created_by" v="JOSM"/>
    <tag k="highway" v="trunk"/>
    <tag k="name" v="Leichhardt Hwy"/>
    <tag k="surface" v="paved"/>
  </node>
  <node id="133200275" version="1" timestamp="2007-11-25T22:17:15Z" uid="4467" user="Rosscoe" changeset="621649" lat="-28.514483" lon="150.289048">
    <tag k="created_by" v="JOSM"/>
    <tag k="highway" v="trunk"/>
    <tag k="name" v="Leichhardt Hwy"/>
    <tag k="surface" v="paved"/>
  </node>
  <node id="133200298" version="1" timestamp="2007-11-25T22:17:15Z" uid="4467" user="Rosscoe" changeset="621649" lat="-28.515442" lon="150.28887">
    <tag k="created_by" v="JOSM"/>
    <tag k="highway" v="trunk"/>
    <tag k="name" v="Leichhardt Hwy"/>
    <tag k="surface" v="paved"/>
  </node>
  <node id="133200321" version="1" timestamp="2007-11-25T22:17:16Z" uid="4467" user="Rosscoe" changeset="621649" lat="-28.514105" lon="150.289118">
    <tag k="created_by" v="JOSM"/>
    <tag k="highway" v="trunk"/>
    <tag k="name" v="Leichhardt Hwy"/>
    <tag k="surface" v="paved"/>
  </node>
  <node id="133200347" version="1" timestamp="2007-11-25T22:17:17Z" uid="4467" user="Rosscoe" changeset="621649" lat="-28.51999" lon="150.288042">
    <tag k="created_by" v="JOSM"/>
    <tag k="highway" v="trunk"/>
    <tag k="name" v="Leichhardt Hwy"/>
    <tag k="surface" v="paved"/>
  </node>
  <node id="133200347" version="3" timestamp="2008-11-13T10:45:01Z" uid="76950" user="paulg" changeset="745119" lat="-28.51999" lon="150.288042"/>
  <node id="133200347" version="4" timestamp="2008-11-13T11:00:27Z" uid="76950" user="paulg" changeset="745119" lat="-28.51999" lon="150.288042"/>
  <node id="133200347" version="5" timestamp="2010-09-10T05:27:00Z" uid="22094" user="Chadzopkyo" changeset="5738268" lat="-28.5199887" lon="150.2880326"/>
  <node id="133200347" version="6" timestamp="2011-05-08T10:53:43Z" uid="74617" user="JohnSmith" changeset="8081299" lat="-28.519593" lon="150.287978"/>
  <node id="133200347" version="7" timestamp="2011-08-22T10:41:40Z" uid="349913" user="Peter W34" changeset="9092749" lat="-28.5196034" lon="150.2880844"/>
  <node id="133200371" version="1" timestamp="2007-11-25T22:17:18Z" uid="4467" user="Rosscoe" changeset="621649" lat="-28.519413" lon="150.288145">
    <tag k="created_by" v="JOSM"/>
    <tag k="highway" v="trunk"/>
    <tag k="name" v="Leichhardt Hwy"/>
    <tag k="surface" v="paved"/>
  </node>
  <node id="133200396" version="1" timestamp="2007-11-25T22:17:19Z" uid="4467" user="Rosscoe" changeset="621649" lat="-28.519605" lon="150.28811">
    <tag k="created_by" v="JOSM"/>
    <tag k="highway" v="trunk"/>
    <tag k="name" v="Leichhardt Hwy"/>
    <tag k="surface" v="paved"/>
  </node>
  <node id="133200415" version="1" timestamp="2007-11-25T22:17:20Z" uid="4467" user="Rosscoe" changeset="621649" lat="-28.517523" lon="150.288485">
    <tag k="created_by" v="JOSM"/>
    <tag k="highway" v="trunk"/>
    <tag k="name" v="Leichhardt Hwy"/>
    <tag k="surface" v="paved"/>
  </node>
  <node id="133200415" version="3" timestamp="2008-11-13T10:45:01Z" uid="76950" user="paulg" changeset="745119" lat="-28.517523" lon="150.288485"/>
  <node id="133200415" version="4" timestamp="2008-11-13T11:00:27Z" uid="76950" user="paulg" changeset="745119" lat="-28.517523" lon="150.288485"/>
  <node id="133200415" version="5" timestamp="2010-09-10T05:27:01Z" uid="22094" user="Chadzopkyo" changeset="5738268" lat="-28.5175232" lon="150.2884861"/>
  <node id="133200415" version="6" timestamp="2011-05-08T10:53:45Z" uid="74617" user="JohnSmith" changeset="8081299" lat="-28.5175232" lon="150.2884861"/>
  <node id="133200437" version="1" timestamp="2007-11-25T22:17:20Z" uid="4467" user="Rosscoe" changeset="621649" lat="-28.519222" lon="150.28818">
    <tag k="created_by" v="JOSM"/>
    <tag k="highway" v="trunk"/>
    <tag k="name" v="Leichhardt Hwy"/>
    <tag k="surface" v="paved"/>
  </node>
  <node id="133200466" version="1" timestamp="2007-11-25T22:17:21Z" uid="4467" user="Rosscoe" changeset="621649" lat="-28.518653" lon="150.288278">
    <tag k="created_by" v="JOSM"/>
    <tag k="highway" v="trunk"/>
    <tag k="name" v="Leichhardt Hwy"/>
    <tag k="surface" v="paved"/>
  </node>
  <node id="133200491" version="1" timestamp="2007-11-25T22:17:22Z" uid="4467" user="Rosscoe" changeset="621649" lat="-28.518842" lon="150.288245">
    <tag k="created_by" v="JOSM"/>
    <tag k="highway" v="trunk"/>
    <tag k="name" v="Leichhardt Hwy"/>
    <tag k="surface" v="paved"/>
  </node>
  <node id="133200518" version="1" timestamp="2007-11-25T22:17:23Z" uid="4467" user="Rosscoe" changeset="621649" lat="-28.519797" lon="150.288077">
    <tag k="created_by" v="JOSM"/>
    <tag k="highway" v="trunk"/>
    <tag k="name" v="Leichhardt Hwy"/>
    <tag k="surface" v="paved"/>
  </node>
  <node id="133200548" version="1" timestamp="2007-11-25T22:17:24Z" uid="4467" user="Rosscoe" changeset="621649" lat="-28.518465" lon="150.288313">
    <tag k="created_by" v="JOSM"/>
    <tag k="highway" v="trunk"/>
    <tag k="name" v="Leichhardt Hwy"/>
    <tag k="surface" v="paved"/>
  </node>
  <node id="133200574" version="1" timestamp="2007-11-25T22:17:25Z" uid="4467" user="Rosscoe" changeset="621649" lat="-28.5179" lon="150.288417">
    <tag k="created_by" v="JOSM"/>
    <tag k="highway" v="trunk"/>
    <tag k="name" v="Leichhardt Hwy"/>
    <tag k="surface" v="paved"/>
  </node>
  <node id="133200603" version="1" timestamp="2007-11-25T22:17:25Z" uid="4467" user="Rosscoe" changeset="621649" lat="-28.518087" lon="150.288382">
    <tag k="created_by" v="JOSM"/>
    <tag k="highway" v="trunk"/>
    <tag k="name" v="Leichhardt Hwy"/>
    <tag k="surface" v="paved"/>
  </node>
  <node id="133200633" version="1" timestamp="2007-11-25T22:17:26Z" uid="4467" user="Rosscoe" changeset="621649" lat="-28.521898" lon="150.28769">
    <tag k="created_by" v="JOSM"/>
    <tag k="highway" v="trunk"/>
    <tag k="name" v="Leichhardt Hwy"/>
    <tag k="surface" v="paved"/>
  </node>
  <node id="133200664" version="1" timestamp="2007-11-25T22:17:27Z" uid="4467" user="Rosscoe" changeset="621649" lat="-28.517712" lon="150.288452">
    <tag k="created_by" v="JOSM"/>
    <tag k="highway" v="trunk"/>
    <tag k="name" v="Leichhardt Hwy"/>
    <tag k="surface" v="paved"/>
  </node>
  <node id="133200697" version="1" timestamp="2007-11-25T22:17:28Z" uid="4467" user="Rosscoe" changeset="621649" lat="-28.517147" lon="150.288555">
    <tag k="created_by" v="JOSM"/>
    <tag k="highway" v="trunk"/>
    <tag k="name" v="Leichhardt Hwy"/>
    <tag k="surface" v="paved"/>
  </node>
  <node id="133200724" version="1" timestamp="2007-11-25T22:17:29Z" uid="4467" user="Rosscoe" changeset="621649" lat="-28.517335" lon="150.28852">
    <tag k="created_by" v="JOSM"/>
    <tag k="highway" v="trunk"/>
    <tag k="name" v="Leichhardt Hwy"/>
    <tag k="surface" v="paved"/>
  </node>
  <node id="133200749" version="1" timestamp="2007-11-25T22:17:29Z" uid="4467" user="Rosscoe" changeset="621649" lat="-28.518278" lon="150.288347">
    <tag k="created_by" v="JOSM"/>
    <tag k="highway" v="trunk"/>
    <tag k="name" v="Leichhardt Hwy"/>
    <tag k="surface" v="paved"/>
  </node>
  <node id="133200781" version="1" timestamp="2007-11-25T22:17:30Z" uid="4467" user="Rosscoe" changeset="621649" lat="-28.520375" lon="150.287968">
    <tag k="created_by" v="JOSM"/>
    <tag k="highway" v="trunk"/>
    <tag k="name" v="Leichhardt Hwy"/>
    <tag k="surface" v="paved"/>
  </node>
  <node id="133200810" version="1" timestamp="2007-11-25T22:17:31Z" uid="4467" user="Rosscoe" changeset="621649" lat="-28.522805" lon="150.287523">
    <tag k="created_by" v="JOSM"/>
    <tag k="highway" v="trunk"/>
    <tag k="name" v="Leichhardt Hwy"/>
    <tag k="surface" v="paved"/>
  </node>
  <node id="133200822" version="1" timestamp="2007-11-25T22:17:32Z" uid="4467" user="Rosscoe" changeset="621649" lat="-28.522985" lon="150.287488">
    <tag k="created_by" v="JOSM"/>
    <tag k="highway" v="trunk"/>
    <tag k="name" v="Leichhardt Hwy"/>
    <tag k="surface" v="paved"/>
  </node>
  <node id="133200828" version="1" timestamp="2007-11-25T22:17:33Z" uid="4467" user="Rosscoe" changeset="621649" lat="-28.52244" lon="150.287593">
    <tag k="created_by" v="JOSM"/>
    <tag k="highway" v="trunk"/>
    <tag k="name" v="Leichhardt Hwy"/>
    <tag k="surface" v="paved"/>
  </node>
  <node id="133200837" version="1" timestamp="2007-11-25T22:17:34Z" uid="4467" user="Rosscoe" changeset="621649" lat="-28.52262" lon="150.287558">
    <tag k="created_by" v="JOSM"/>
    <tag k="highway" v="trunk"/>
    <tag k="name" v="Leichhardt Hwy"/>
    <tag k="surface" v="paved"/>
  </node>
  <node id="133200857" version="3" timestamp="2008-09-14T20:01:06Z" uid="6975" user="ulfl" changeset="640534" lat="43.462186" lon="-3.8030412">
    <tag k="amenity" v="bank"/>
    <tag k="atm" v="yes"/>
    <tag k="name" v="Sede del Banco Santander"/>
  </node>
  <node id="133200857" version="4" timestamp="2009-08-17T07:22:24Z" uid="6389" user="Jesús Gómez" changeset="2174311" lat="43.462186" lon="-3.8030412"/>
  <node id="133200857" version="5" timestamp="2009-12-31T10:58:36Z" uid="6389" user="Jesús Gómez" changeset="3499484" lat="43.4622105" lon="-3.8030075"/>
  <node id="133200857" version="6" timestamp="2012-03-26T10:41:06Z" uid="223893" user="wingmaster" changeset="11104415" lat="43.4622228" lon="-3.8029894"/>
  <node id="133200859" version="1" timestamp="2007-11-25T22:17:34Z" uid="4467" user="Rosscoe" changeset="621649" lat="-28.52208" lon="150.287657">
    <tag k="created_by" v="JOSM"/>
    <tag k="highway" v="trunk"/>
    <tag k="name" v="Leichhardt Hwy"/>
    <tag k="surface" v="paved"/>
  </node>
  <node id="133200889" version="1" timestamp="2007-11-25T22:17:35Z" uid="4467" user="Rosscoe" changeset="621649" lat="-28.522262" lon="150.287625">
    <tag k="created_by" v="JOSM"/>
    <tag k="highway" v="trunk"/>
    <tag k="name" v="Leichhardt Hwy"/>
    <tag k="surface" v="paved"/>
  </node>
  <node id="133200922" version="1" timestamp="2007-11-25T22:17:36Z" uid="4467" user="Rosscoe" changeset="621649" lat="-28.521715" lon="150.287723">
    <tag k="created_by" v="JOSM"/>
    <tag k="highway" v="trunk"/>
    <tag k="name" v="Leichhardt Hwy"/>
    <tag k="surface" v="paved"/>
  </node>
  <node id="133200954" version="1" timestamp="2007-11-25T22:17:37Z" uid="4467" user="Rosscoe" changeset="621649" lat="-28.524563" lon="150.287198">
    <tag k="created_by" v="JOSM"/>
    <tag k="highway" v="trunk"/>
    <tag k="name" v="Leichhardt Hwy"/>
    <tag k="surface" v="paved"/>
  </node>
  <node id="133200986" version="1" timestamp="2007-11-25T22:17:38Z" uid="4467" user="Rosscoe" changeset="621649" lat="-28.521342" lon="150.287792">
    <tag k="created_by" v="JOSM"/>
    <tag k="highway" v="trunk"/>
    <tag k="name" v="Leichhardt Hwy"/>
    <tag k="surface" v="paved"/>
  </node>
  <node id="133201007" version="1" timestamp="2007-11-25T22:17:38Z" uid="4467" user="Rosscoe" changeset="621649" lat="-28.521527" lon="150.287758">
    <tag k="created_by" v="JOSM"/>
    <tag k="highway" v="trunk"/>
    <tag k="name" v="Leichhardt Hwy"/>
    <tag k="surface" v="paved"/>
  </node>
  <node id="133201036" version="1" timestamp="2007-11-25T22:17:39Z" uid="4467" user="Rosscoe" changeset="621649" lat="-28.52096" lon="150.287862">
    <tag k="created_by" v="JOSM"/>
    <tag k="highway" v="trunk"/>
    <tag k="name" v="Leichhardt Hwy"/>
    <tag k="surface" v="paved"/>
  </node>
  <node id="133201063" version="1" timestamp="2007-11-25T22:17:40Z" uid="4467" user="Rosscoe" changeset="621649" lat="-28.52115" lon="150.287827">
    <tag k="created_by" v="JOSM"/>
    <tag k="highway" v="trunk"/>
    <tag k="name" v="Leichhardt Hwy"/>
    <tag k="surface" v="paved"/>
  </node>
  <node id="133201089" version="1" timestamp="2007-11-25T22:17:41Z" uid="4467" user="Rosscoe" changeset="621649" lat="-28.520572" lon="150.287933">
    <tag k="created_by" v="JOSM"/>
    <tag k="highway" v="trunk"/>
    <tag k="name" v="Leichhardt Hwy"/>
    <tag k="surface" v="paved"/>
  </node>
  <node id="133201116" version="1" timestamp="2007-11-25T22:17:42Z" uid="4467" user="Rosscoe" changeset="621649" lat="-28.520768" lon="150.287897">
    <tag k="created_by" v="JOSM"/>
    <tag k="highway" v="trunk"/>
    <tag k="name" v="Leichhardt Hwy"/>
    <tag k="surface" v="paved"/>
  </node>
  <node id="133201143" version="1" timestamp="2007-11-25T22:17:42Z" uid="4467" user="Rosscoe" changeset="621649" lat="-28.520183" lon="150.288005">
    <tag k="created_by" v="JOSM"/>
    <tag k="highway" v="trunk"/>
    <tag k="name" v="Leichhardt Hwy"/>
    <tag k="surface" v="paved"/>
  </node>
  <node id="133201182" version="1" timestamp="2007-11-25T22:17:43Z" uid="4467" user="Rosscoe" changeset="621649" lat="-28.525657" lon="150.287002">
    <tag k="created_by" v="JOSM"/>
    <tag k="highway" v="trunk"/>
    <tag k="name" v="Leichhardt Hwy"/>
    <tag k="surface" v="paved"/>
  </node>
  <node id="133201206" version="1" timestamp="2007-11-25T22:17:44Z" uid="4467" user="Rosscoe" changeset="621649" lat="-28.523167" lon="150.287455">
    <tag k="created_by" v="JOSM"/>
    <tag k="highway" v="trunk"/>
    <tag k="name" v="Leichhardt Hwy"/>
    <tag k="surface" v="paved"/>
  </node>
  <node id="133201220" version="1" timestamp="2007-11-25T22:17:45Z" uid="4467" user="Rosscoe" changeset="621649" lat="-28.525372" lon="150.287048">
    <tag k="created_by" v="JOSM"/>
    <tag k="highway" v="trunk"/>
    <tag k="name" v="Leichhardt Hwy"/>
    <tag k="surface" v="paved"/>
  </node>
  <node id="133201249" version="1" timestamp="2007-11-25T22:17:46Z" uid="4467" user="Rosscoe" changeset="621649" lat="-28.52552" lon="150.287023">
    <tag k="created_by" v="JOSM"/>
    <tag k="highway" v="trunk"/>
    <tag k="name" v="Leichhardt Hwy"/>
    <tag k="surface" v="paved"/>
  </node>
  <node id="133201282" version="1" timestamp="2007-11-25T22:17:46Z" uid="4467" user="Rosscoe" changeset="621649" lat="-28.525057" lon="150.287105">
    <tag k="created_by" v="JOSM"/>
    <tag k="highway" v="trunk"/>
    <tag k="name" v="Leichhardt Hwy"/>
    <tag k="surface" v="paved"/>
  </node>
  <node id="133201296" version="1" timestamp="2007-11-25T22:17:47Z" uid="4467" user="Rosscoe" changeset="621649" lat="-28.525215" lon="150.287077">
    <tag k="created_by" v="JOSM"/>
    <tag k="highway" v="trunk"/>
    <tag k="name" v="Leichhardt Hwy"/>
    <tag k="surface" v="paved"/>
  </node>
  <node id="133201325" version="1" timestamp="2007-11-25T22:17:48Z" uid="4467" user="Rosscoe" changeset="621649" lat="-28.524725" lon="150.287168">
    <tag k="created_by" v="JOSM"/>
    <tag k="highway" v="trunk"/>
    <tag k="name" v="Leichhardt Hwy"/>
    <tag k="surface" v="paved"/>
  </node>
  <node id="133201359" version="1" timestamp="2007-11-25T22:17:49Z" uid="4467" user="Rosscoe" changeset="621649" lat="-28.524892" lon="150.287135">
    <tag k="created_by" v="JOSM"/>
    <tag k="highway" v="trunk"/>
    <tag k="name" v="Leichhardt Hwy"/>
    <tag k="surface" v="paved"/>
  </node>
  <node id="133201359" version="3" timestamp="2008-11-13T10:45:01Z" uid="76950" user="paulg" changeset="745119" lat="-28.524892" lon="150.287135"/>
  <node id="133201359" version="4" timestamp="2008-11-13T11:00:27Z" uid="76950" user="paulg" changeset="745119" lat="-28.524892" lon="150.287135"/>
  <node id="133201359" version="5" timestamp="2010-09-10T05:27:00Z" uid="22094" user="Chadzopkyo" changeset="5738268" lat="-28.5248914" lon="150.2871308"/>
  <node id="133201359" version="6" timestamp="2011-05-08T10:53:43Z" uid="74617" user="JohnSmith" changeset="8081299" lat="-28.5248674" lon="150.2869807"/>
  <node id="133201359" version="7" timestamp="2011-08-22T10:41:41Z" uid="349913" user="Peter W34" changeset="9092749" lat="-28.5248747" lon="150.2871127"/>
  <node id="133201386" version="1" timestamp="2007-11-25T22:17:50Z" uid="4467" user="Rosscoe" changeset="621649" lat="-28.524397" lon="150.287228">
    <tag k="created_by" v="JOSM"/>
    <tag k="highway" v="trunk"/>
    <tag k="name" v="Leichhardt Hwy"/>
    <tag k="surface" v="paved"/>
  </node>
  <node id="133201408" version="1" timestamp="2007-11-25T22:17:50Z" uid="4467" user="Rosscoe" changeset="621649" lat="-28.52578" lon="150.286982">
    <tag k="created_by" v="JOSM"/>
    <tag k="highway" v="trunk"/>
    <tag k="name" v="Leichhardt Hwy"/>
    <tag k="surface" v="paved"/>
  </node>
  <node id="133201408" version="3" timestamp="2008-01-03T01:14:11Z" uid="4467" user="Rosscoe" changeset="521818" lat="-28.5261151" lon="150.2869097"/>
  <node id="133201408" version="4" timestamp="2008-11-13T10:45:01Z" uid="76950" user="paulg" changeset="745119" lat="-28.5261151" lon="150.2869097"/>
  <node id="133201408" version="5" timestamp="2008-11-13T10:45:09Z" uid="76950" user="paulg" changeset="745119" lat="-28.5261151" lon="150.2869097"/>
  <node id="133201408" version="6" timestamp="2008-11-13T10:45:33Z" uid="76950" user="paulg" changeset="745119" lat="-28.5261151" lon="150.2869097"/>
  <node id="133201408" version="7" timestamp="2008-11-13T11:00:27Z" uid="76950" user="paulg" changeset="745119" lat="-28.5261151" lon="150.2869097"/>
  <node id="133201408" version="8" timestamp="2009-01-31T08:00:28Z" uid="69499" user="VK1RE" changeset="860398" lat="-28.5261151" lon="150.2869097"/>
  <node id="133201408" version="9" timestamp="2009-01-31T08:00:57Z" uid="69499" user="VK1RE" changeset="860398" lat="-28.5261151" lon="150.2869097"/>
  <node id="133201408" version="10" timestamp="2010-09-10T05:27:01Z" uid="22094" user="Chadzopkyo" changeset="5738268" lat="-28.5261146" lon="150.2869058"/>
  <node id="133201408" version="11" timestamp="2011-05-08T10:53:38Z" uid="74617" user="JohnSmith" changeset="8081299" lat="-28.5260127" lon="150.2867557"/>
  <node id="133201408" version="12" timestamp="2011-08-22T10:41:41Z" uid="349913" user="Peter W34" changeset="9092749" lat="-28.526033" lon="150.2869105"/>
  <node id="133201434" version="1" timestamp="2007-11-25T22:17:51Z" uid="4467" user="Rosscoe" changeset="621649" lat="-28.524053" lon="150.287292">
    <tag k="created_by" v="JOSM"/>
    <tag k="highway" v="trunk"/>
    <tag k="name" v="Leichhardt Hwy"/>
    <tag k="surface" v="paved"/>
  </node>
  <node id="133201459" version="1" timestamp="2007-11-25T22:17:52Z" uid="4467" user="Rosscoe" changeset="621649" lat="-28.524227" lon="150.28726">
    <tag k="created_by" v="JOSM"/>
    <tag k="highway" v="trunk"/>
    <tag k="name" v="Leichhardt Hwy"/>
    <tag k="surface" v="paved"/>
  </node>
  <node id="133201483" version="1" timestamp="2007-11-25T22:17:53Z" uid="4467" user="Rosscoe" changeset="621649" lat="-28.523702" lon="150.287357">
    <tag k="created_by" v="JOSM"/>
    <tag k="highway" v="trunk"/>
    <tag k="name" v="Leichhardt Hwy"/>
    <tag k="surface" v="paved"/>
  </node>
  <node id="133201506" version="1" timestamp="2007-11-25T22:17:54Z" uid="4467" user="Rosscoe" changeset="621649" lat="-28.52388" lon="150.287323">
    <tag k="created_by" v="JOSM"/>
    <tag k="highway" v="trunk"/>
    <tag k="name" v="Leichhardt Hwy"/>
    <tag k="surface" v="paved"/>
  </node>
  <node id="133201532" version="1" timestamp="2007-11-25T22:17:54Z" uid="4467" user="Rosscoe" changeset="621649" lat="-28.523347" lon="150.287422">
    <tag k="created_by" v="JOSM"/>
    <tag k="highway" v="trunk"/>
    <tag k="name" v="Leichhardt Hwy"/>
    <tag k="surface" v="paved"/>
  </node>
  <node id="133201553" version="1" timestamp="2007-11-25T22:17:55Z" uid="4467" user="Rosscoe" changeset="621649" lat="-28.523525" lon="150.287388">
    <tag k="created_by" v="JOSM"/>
    <tag k="highway" v="trunk"/>
    <tag k="name" v="Leichhardt Hwy"/>
    <tag k="surface" v="paved"/>
  </node>
  <node id="133202398" version="18" timestamp="2010-04-03T09:39:31Z" uid="74617" user="JohnSmith" changeset="4310277" lat="-27.9313544" lon="153.3744456">
    <tag k="highway" v="traffic_signals"/>
  </node>
</osm>
