<?xml version='1.0' encoding='UTF-8'?>
<osm version="0.6" generator="libosmium/2.20.0">
  <node id="133392104" version="2" timestamp="2009-10-22T22:48:07Z" uid="99207" user="Lar Kiesel" changeset="2926023" lat="41.125054" lon="-103.026373">
    <tag k="highway" v="motorway_junction"/>
    <tag k="name" v="N-19; Sidney"/>
    <tag k="ref" v="55"/>
    <tag k="source" v="tiger_import_dch_v0.6_20070813"/>
    <tag k="tiger:county" v="Cheyenne, NE"/>
    <tag k="tiger:tlid" v="135928705:135928712:135923780"/>
    <tag k="tiger:upload_uuid" v="bulk_upload.pl-447d98a2-9875-459b-89d0-3ab9f2508af9"/>
  </node>
  <node id="133392104" version="3" timestamp="2009-11-14T09:44:08Z" uid="147510" user="woodpeck_fixbot" changeset="3111552" lat="41.125054" lon="-103.026373">
    <tag k="highway" v="motorway_junction"/>
    <tag k="name" v="N-19; Sidney"/>
    <tag k="ref" v="55"/>
  </node>
  <node id="133392104" version="4" timestamp="2010-12-19T10:37:35Z" uid="262151" user="ToeBee" changeset="6704140" lat="41.124803" lon="-103.0253734">
    <tag k="highway" v="motorway_junction"/>
    <tag k="name" v="N-19; Sidney"/>
    <tag k="ref" v="55"/>
  </node>
  <node id="133392104" version="5" timestamp="2011-04-06T18:14:44Z" uid="207745" user="NE2" changeset="7787398" lat="41.124803" lon="-103.0253734">
    <tag k="exit_to" v="N-19; Sidney"/>
    <tag k="highway" v="motorway_junction"/>
    <tag k="ref" v="55"/>
  </node>
  <node id="133392345" version="2" timestamp="2009-10-22T22:48:00Z" uid="99207" user="Lar Kiesel" changeset="2926023" lat="41.113019" lon="-102.943788">
    <tag k="highway" v="motorway_junction"/>
    <tag k="name" v="L-17J to US 385; Sidney; Bridgeport"/>
    <tag k="ref" v="59"/>
    <tag k="source" v="tiger_import_dch_v0.6_20070813"/>
    <tag k="tiger:county" v="Cheyenne, NE"/>
    <tag k="tiger:tlid" v="135928815:135928816:135928819:135923792"/>
    <tag k="tiger:upload_uuid" v="bulk_upload.pl-447d98a2-9875-459b-89d0-3ab9f2508af9"/>
  </node>
  <node id="133392345" version="3" timestamp="2009-11-14T09:44:27Z" uid="147510" user="woodpeck_fixbot" changeset="3111552" lat="41.113019" lon="-102.943788">
    <tag k="highway" v="motorway_junction"/>
    <tag k="name" v="L-17J to US 385; Sidney; Bridgeport"/>
    <tag k="ref" v="59"/>
  </node>
  <node id="133392345" version="4" timestamp="2010-12-19T10:35:32Z" uid="262151" user="ToeBee" changeset="6704140" lat="41.113" lon="-102.9427602">
    <tag k="highway" v="motorway_junction"/>
    <tag k="name" v="L-17J to US 385; Sidney; Bridgeport"/>
    <tag k="ref" v="59"/>
  </node>
  <node id="133392345" version="5" timestamp="2011-04-06T21:21:55Z" uid="207745" user="NE2" changeset="7788882" lat="41.113" lon="-102.9427602">
    <tag k="exit_to" v="L-17J to US 385; Sidney; Bridgeport"/>
    <tag k="highway" v="motorway_junction"/>
    <tag k="ref" v="59"/>
  </node>
  <node id="133392488" version="2" timestamp="2009-10-22T22:47:49Z" uid="99207" user="Lar Kiesel" changeset="2926023" lat="41.114872" lon="-102.763592">
    <tag k="source" v="tiger_import_dch_v0.6_20070813"/>
    <tag k="tiger:county" v="Cheyenne, NE"/>
    <tag k="tiger:tlid" v="135923794"/>
    <tag k="tiger:upload_uuid" v="bulk_upload.pl-447d98a2-9875-459b-89d0-3ab9f2508af9"/>
  </node>
  <node id="133392488" version="3" timestamp="2009-11-14T09:44:29Z" uid="147510" user="woodpeck_fixbot" changeset="3111552" lat="41.114872" lon="-102.763592"/>
  <node id="133392488" version="4" timestamp="2011-04-28T23:10:57Z" uid="168517" user="Milo" changeset="7999519" lat="41.114872" lon="-102.763592"/>
  <node id="133392496" version="2" timestamp="2009-10-22T22:47:58Z" uid="99207" user="Lar Kiesel" changeset="2926023" lat="41.114542" lon="-102.762551">
    <tag k="source" v="tiger_import_dch_v0.6_20070813"/>
    <tag k="tiger:county" v="Cheyenne, NE"/>
    <tag k="tiger:tlid" v="135923796"/>
    <tag k="tiger:upload_uuid" v="bulk_upload.pl-447d98a2-9875-459b-89d0-3ab9f2508af9"/>
  </node>
  <node id="133392496" version="3" timestamp="2009-11-14T09:44:29Z" uid="147510" user="woodpeck_fixbot" changeset="3111552" lat="41.114542" lon="-102.762551"/>
  <node id="133392496" version="4" timestamp="2011-04-28T23:10:57Z" uid="168517" user="Milo" changeset="7999519" lat="41.114542" lon="-102.762551"/>
  <node id="133392506" version="2" timestamp="2009-10-22T22:47:58Z" uid="99207" user="Lar Kiesel" changeset="2926023" lat="41.113194" lon="-102.758269">
    <tag k="highway" v="motorway_junction"/>
    <tag k="name" v="L-17E"/>
    <tag k="ref" v="69"/>
    <tag k="source" v="tiger_import_dch_v0.6_20070813"/>
    <tag k="tiger:county" v="Cheyenne, NE"/>
    <tag k="tiger:tlid" v="135928834:135928835:135928837:135923796"/>
    <tag k="tiger:upload_uuid" v="bulk_upload.pl-447d98a2-9875-459b-89d0-3ab9f2508af9"/>
  </node>
  <node id="133392506" version="3" timestamp="2009-11-14T09:44:30Z" uid="147510" user="woodpeck_fixbot" changeset="3111552" lat="41.113194" lon="-102.758269">
    <tag k="highway" v="motorway_junction"/>
    <tag k="name" v="L-17E"/>
    <tag k="ref" v="69"/>
  </node>
  <node id="133392506" version="4" timestamp="2010-12-19T10:36:08Z" uid="262151" user="ToeBee" changeset="6704140" lat="41.1131757" lon="-102.7571091">
    <tag k="highway" v="motorway_junction"/>
    <tag k="name" v="L-17E"/>
    <tag k="ref" v="69"/>
  </node>
  <node id="133392506" version="5" timestamp="2011-04-06T22:49:34Z" uid="207745" user="NE2" changeset="7788882" lat="41.1131757" lon="-102.7571091">
    <tag k="exit_to" v="L-17E"/>
    <tag k="highway" v="motorway_junction"/>
    <tag k="ref" v="69"/>
  </node>
  <node id="133393785" version="2" timestamp="2007-12-15T14:29:41Z" uid="8328" user="benpre" changeset="312892" lat="48.5409847" lon="8.7173551"/>
  <node id="133393934" version="2" timestamp="2007-12-15T14:29:42Z" uid="8328" user="benpre" changeset="312892" lat="48.5412165" lon="8.7172228"/>
  <node id="133394103" version="2" timestamp="2007-12-15T14:29:42Z" uid="8328" user="benpre" changeset="312892" lat="48.5411076" lon="8.716574"/>
  <node id="133399008" version="9" timestamp="2009-11-23T09:52:12Z" uid="7617" user="Franc" changeset="3194124" lat="-33.5871185" lon="151.3263016"/>
</osm>
