<?xml version='1.0' encoding='UTF-8'?>
<osm version="0.6" generator="libosmium/2.20.0">
  <node id="133406369" version="3" timestamp="2011-03-02T15:06:48Z" uid="4467" user="Rosscoe" changeset="7438439" lat="-37.0518994" lon="146.0881851"/>
  <node id="133406369" version="4" timestamp="2011-08-29T10:17:21Z" uid="349913" user="Peter W34" changeset="9155508" lat="-37.0518868" lon="146.0881892"/>
  <node id="133406369" version="5" timestamp="2012-02-21T05:20:27Z" uid="288568" user="nickbarker" changeset="10747215" lat="-37.0518874" lon="146.0881889"/>
  <node id="133406374" version="3" timestamp="2011-03-02T15:06:51Z" uid="4467" user="Rosscoe" changeset="7438439" lat="-37.0521187" lon="146.0883995"/>
  <node id="133406374" version="4" timestamp="2011-08-29T10:17:21Z" uid="349913" user="Peter W34" changeset="9155508" lat="-37.0521176" lon="146.0883873"/>
  <node id="133406374" version="5" timestamp="2012-02-21T05:20:27Z" uid="288568" user="nickbarker" changeset="10747215" lat="-37.0521161" lon="146.0883715"/>
  <node id="133406378" version="3" timestamp="2011-03-02T15:06:48Z" uid="4467" user="Rosscoe" changeset="7438439" lat="-37.0523172" lon="146.0880758"/>
  <node id="133406378" version="4" timestamp="2011-08-29T10:17:21Z" uid="349913" user="Peter W34" changeset="9155508" lat="-37.0523043" lon="146.0880784"/>
  <node id="133406378" version="5" timestamp="2012-02-21T05:20:27Z" uid="288568" user="nickbarker" changeset="10747215" lat="-37.0523029" lon="146.0880786"/>
  <node id="133406382" version="3" timestamp="2011-03-02T15:06:50Z" uid="4467" user="Rosscoe" changeset="7438439" lat="-37.0520665" lon="146.0878703"/>
  <node id="133406382" version="4" timestamp="2011-08-29T10:17:21Z" uid="349913" user="Peter W34" changeset="9155508" lat="-37.052065" lon="146.0878561"/>
  <node id="133406382" version="5" timestamp="2012-02-21T05:20:27Z" uid="288568" user="nickbarker" changeset="10747215" lat="-37.0520634" lon="146.0878404"/>
  <node id="133408637" version="9" timestamp="2009-11-23T09:52:11Z" uid="7617" user="Franc" changeset="3194124" lat="-33.5871563" lon="151.3241285"/>
  <node id="133409085" version="1" timestamp="2007-11-26T00:05:54Z" uid="4467" user="Rosscoe" changeset="621649" lat="-20.32829" lon="148.600082">
    <tag k="created_by" v="JOSM"/>
    <tag k="highway" v="secondary"/>
    <tag k="name" v="Gregory Cannon Valley Rd"/>
    <tag k="surface" v="paved"/>
  </node>
  <node id="133409085" version="2" timestamp="2007-11-26T17:29:55Z" uid="3555" user="Marc Schütz" changeset="625949" lat="-20.32829" lon="148.600082"/>
  <node id="133409085" version="3" timestamp="2007-12-22T23:32:41Z" uid="4467" user="Rosscoe" changeset="397091" lat="-20.32829" lon="148.600082"/>
  <node id="133409092" version="1" timestamp="2007-11-26T00:05:56Z" uid="4467" user="Rosscoe" changeset="621649" lat="-20.328058" lon="148.600032">
    <tag k="created_by" v="JOSM"/>
    <tag k="highway" v="secondary"/>
    <tag k="name" v="Gregory Cannon Valley Rd"/>
    <tag k="surface" v="paved"/>
  </node>
  <node id="133409092" version="2" timestamp="2007-11-26T17:40:47Z" uid="3555" user="Marc Schütz" changeset="625949" lat="-20.328058" lon="148.600032">
    <tag k="created_by" v="JOSM"/>
    <tag k="highway" v="secondary"/>
    <tag k="name" v="Gregory Cannon Valley Rd"/>
    <tag k="surface" v="paved"/>
  </node>
  <node id="133409101" version="1" timestamp="2007-11-26T00:05:57Z" uid="4467" user="Rosscoe" changeset="621649" lat="-20.327837" lon="148.599965">
    <tag k="created_by" v="JOSM"/>
    <tag k="highway" v="secondary"/>
    <tag k="name" v="Gregory Cannon Valley Rd"/>
    <tag k="surface" v="paved"/>
  </node>
  <node id="133409101" version="2" timestamp="2007-11-26T17:35:28Z" uid="3555" user="Marc Schütz" changeset="625949" lat="-20.327837" lon="148.599965">
    <tag k="created_by" v="JOSM"/>
    <tag k="highway" v="secondary"/>
    <tag k="name" v="Gregory Cannon Valley Rd"/>
    <tag k="surface" v="paved"/>
  </node>
  <node id="133409108" version="1" timestamp="2007-11-26T00:05:59Z" uid="4467" user="Rosscoe" changeset="621649" lat="-20.327608" lon="148.599882">
    <tag k="created_by" v="JOSM"/>
    <tag k="highway" v="secondary"/>
    <tag k="name" v="Gregory Cannon Valley Rd"/>
    <tag k="surface" v="paved"/>
  </node>
  <node id="133409108" version="2" timestamp="2007-11-26T18:01:33Z" uid="3555" user="Marc Schütz" changeset="625949" lat="-20.327608" lon="148.599882">
    <tag k="created_by" v="JOSM"/>
    <tag k="highway" v="secondary"/>
    <tag k="name" v="Gregory Cannon Valley Rd"/>
    <tag k="surface" v="paved"/>
  </node>
  <node id="133409116" version="1" timestamp="2007-11-26T00:06:00Z" uid="4467" user="Rosscoe" changeset="621649" lat="-20.327375" lon="148.599792">
    <tag k="created_by" v="JOSM"/>
    <tag k="highway" v="secondary"/>
    <tag k="name" v="Gregory Cannon Valley Rd"/>
    <tag k="surface" v="paved"/>
  </node>
  <node id="133409116" version="2" timestamp="2007-11-26T17:46:11Z" uid="3555" user="Marc Schütz" changeset="625949" lat="-20.327375" lon="148.599792">
    <tag k="created_by" v="JOSM"/>
    <tag k="highway" v="secondary"/>
    <tag k="name" v="Gregory Cannon Valley Rd"/>
    <tag k="surface" v="paved"/>
  </node>
  <node id="133409124" version="1" timestamp="2007-11-26T00:06:03Z" uid="4467" user="Rosscoe" changeset="621649" lat="-20.327155" lon="148.59971">
    <tag k="created_by" v="JOSM"/>
    <tag k="highway" v="secondary"/>
    <tag k="name" v="Gregory Cannon Valley Rd"/>
    <tag k="surface" v="paved"/>
  </node>
  <node id="133409124" version="2" timestamp="2007-11-26T17:37:03Z" uid="3555" user="Marc Schütz" changeset="625949" lat="-20.327155" lon="148.59971">
    <tag k="created_by" v="JOSM"/>
    <tag k="highway" v="secondary"/>
    <tag k="name" v="Gregory Cannon Valley Rd"/>
    <tag k="surface" v="paved"/>
  </node>
  <node id="133409132" version="1" timestamp="2007-11-26T00:06:04Z" uid="4467" user="Rosscoe" changeset="621649" lat="-20.326923" lon="148.59962">
    <tag k="created_by" v="JOSM"/>
    <tag k="highway" v="secondary"/>
    <tag k="name" v="Gregory Cannon Valley Rd"/>
    <tag k="surface" v="paved"/>
  </node>
  <node id="133409132" version="2" timestamp="2007-11-26T18:07:41Z" uid="3555" user="Marc Schütz" changeset="625949" lat="-20.326923" lon="148.59962">
    <tag k="created_by" v="JOSM"/>
    <tag k="highway" v="secondary"/>
    <tag k="name" v="Gregory Cannon Valley Rd"/>
    <tag k="surface" v="paved"/>
  </node>
  <node id="133409141" version="1" timestamp="2007-11-26T00:06:06Z" uid="4467" user="Rosscoe" changeset="621649" lat="-20.32669" lon="148.599523">
    <tag k="created_by" v="JOSM"/>
    <tag k="highway" v="secondary"/>
    <tag k="name" v="Gregory Cannon Valley Rd"/>
    <tag k="surface" v="paved"/>
  </node>
  <node id="133409141" version="2" timestamp="2007-11-26T18:03:56Z" uid="3555" user="Marc Schütz" changeset="625949" lat="-20.32669" lon="148.599523">
    <tag k="created_by" v="JOSM"/>
    <tag k="highway" v="secondary"/>
    <tag k="name" v="Gregory Cannon Valley Rd"/>
    <tag k="surface" v="paved"/>
  </node>
  <node id="133409148" version="1" timestamp="2007-11-26T00:06:07Z" uid="4467" user="Rosscoe" changeset="621649" lat="-20.326458" lon="148.599415">
    <tag k="created_by" v="JOSM"/>
    <tag k="highway" v="secondary"/>
    <tag k="name" v="Gregory Cannon Valley Rd"/>
    <tag k="surface" v="paved"/>
  </node>
  <node id="133409148" version="2" timestamp="2007-11-26T17:30:52Z" uid="3555" user="Marc Schütz" changeset="625949" lat="-20.326458" lon="148.599415"/>
  <node id="133409155" version="1" timestamp="2007-11-26T00:06:08Z" uid="4467" user="Rosscoe" changeset="621649" lat="-20.32621" lon="148.599288">
    <tag k="created_by" v="JOSM"/>
    <tag k="highway" v="secondary"/>
    <tag k="name" v="Gregory Cannon Valley Rd"/>
    <tag k="surface" v="paved"/>
  </node>
  <node id="133409155" version="2" timestamp="2007-11-26T17:46:35Z" uid="3555" user="Marc Schütz" changeset="625949" lat="-20.32621" lon="148.599288">
    <tag k="created_by" v="JOSM"/>
    <tag k="highway" v="secondary"/>
    <tag k="name" v="Gregory Cannon Valley Rd"/>
    <tag k="surface" v="paved"/>
  </node>
  <node id="133409167" version="1" timestamp="2007-11-26T00:06:09Z" uid="4467" user="Rosscoe" changeset="621649" lat="-20.325988" lon="148.59917">
    <tag k="created_by" v="JOSM"/>
    <tag k="highway" v="secondary"/>
    <tag k="name" v="Gregory Cannon Valley Rd"/>
    <tag k="surface" v="paved"/>
  </node>
  <node id="133409167" version="2" timestamp="2007-11-26T18:02:57Z" uid="3555" user="Marc Schütz" changeset="625949" lat="-20.325988" lon="148.59917">
    <tag k="created_by" v="JOSM"/>
    <tag k="highway" v="secondary"/>
    <tag k="name" v="Gregory Cannon Valley Rd"/>
    <tag k="surface" v="paved"/>
  </node>
  <node id="133409174" version="1" timestamp="2007-11-26T00:06:10Z" uid="4467" user="Rosscoe" changeset="621649" lat="-20.325758" lon="148.59904">
    <tag k="created_by" v="JOSM"/>
    <tag k="highway" v="secondary"/>
    <tag k="name" v="Gregory Cannon Valley Rd"/>
    <tag k="surface" v="paved"/>
  </node>
  <node id="133409174" version="2" timestamp="2007-11-26T17:50:04Z" uid="3555" user="Marc Schütz" changeset="625949" lat="-20.325758" lon="148.59904">
    <tag k="created_by" v="JOSM"/>
    <tag k="highway" v="secondary"/>
    <tag k="name" v="Gregory Cannon Valley Rd"/>
    <tag k="surface" v="paved"/>
  </node>
  <node id="133409183" version="1" timestamp="2007-11-26T00:06:12Z" uid="4467" user="Rosscoe" changeset="621649" lat="-20.325528" lon="148.598908">
    <tag k="created_by" v="JOSM"/>
    <tag k="highway" v="secondary"/>
    <tag k="name" v="Gregory Cannon Valley Rd"/>
    <tag k="surface" v="paved"/>
  </node>
  <node id="133409183" version="2" timestamp="2007-11-26T17:42:27Z" uid="3555" user="Marc Schütz" changeset="625949" lat="-20.325528" lon="148.598908">
    <tag k="created_by" v="JOSM"/>
    <tag k="highway" v="secondary"/>
    <tag k="name" v="Gregory Cannon Valley Rd"/>
    <tag k="surface" v="paved"/>
  </node>
  <node id="133409191" version="1" timestamp="2007-11-26T00:06:13Z" uid="4467" user="Rosscoe" changeset="621649" lat="-20.325302" lon="148.598777">
    <tag k="created_by" v="JOSM"/>
    <tag k="highway" v="secondary"/>
    <tag k="name" v="Gregory Cannon Valley Rd"/>
    <tag k="surface" v="paved"/>
  </node>
  <node id="133409191" version="2" timestamp="2007-11-26T17:33:09Z" uid="3555" user="Marc Schütz" changeset="625949" lat="-20.325302" lon="148.598777">
    <tag k="created_by" v="JOSM"/>
    <tag k="highway" v="secondary"/>
    <tag k="name" v="Gregory Cannon Valley Rd"/>
    <tag k="surface" v="paved"/>
  </node>
  <node id="133409198" version="1" timestamp="2007-11-26T00:06:15Z" uid="4467" user="Rosscoe" changeset="621649" lat="-20.325067" lon="148.598642">
    <tag k="created_by" v="JOSM"/>
    <tag k="highway" v="secondary"/>
    <tag k="name" v="Gregory Cannon Valley Rd"/>
    <tag k="surface" v="paved"/>
  </node>
  <node id="133409198" version="2" timestamp="2007-11-26T17:59:10Z" uid="3555" user="Marc Schütz" changeset="625949" lat="-20.325067" lon="148.598642">
    <tag k="created_by" v="JOSM"/>
    <tag k="highway" v="secondary"/>
    <tag k="name" v="Gregory Cannon Valley Rd"/>
    <tag k="surface" v="paved"/>
  </node>
  <node id="133409208" version="1" timestamp="2007-11-26T00:06:16Z" uid="4467" user="Rosscoe" changeset="621649" lat="-20.324845" lon="148.598513">
    <tag k="created_by" v="JOSM"/>
    <tag k="highway" v="secondary"/>
    <tag k="name" v="Gregory Cannon Valley Rd"/>
    <tag k="surface" v="paved"/>
  </node>
  <node id="133409208" version="2" timestamp="2007-11-26T17:35:50Z" uid="3555" user="Marc Schütz" changeset="625949" lat="-20.324845" lon="148.598513">
    <tag k="created_by" v="JOSM"/>
    <tag k="highway" v="secondary"/>
    <tag k="name" v="Gregory Cannon Valley Rd"/>
    <tag k="surface" v="paved"/>
  </node>
  <node id="133409218" version="1" timestamp="2007-11-26T00:06:19Z" uid="4467" user="Rosscoe" changeset="621649" lat="-20.32439" lon="148.598252">
    <tag k="created_by" v="JOSM"/>
    <tag k="highway" v="secondary"/>
    <tag k="name" v="Gregory Cannon Valley Rd"/>
    <tag k="surface" v="paved"/>
  </node>
  <node id="133409218" version="2" timestamp="2007-11-26T18:02:47Z" uid="3555" user="Marc Schütz" changeset="625949" lat="-20.32439" lon="148.598252">
    <tag k="created_by" v="JOSM"/>
    <tag k="highway" v="secondary"/>
    <tag k="name" v="Gregory Cannon Valley Rd"/>
    <tag k="surface" v="paved"/>
  </node>
  <node id="133409225" version="1" timestamp="2007-11-26T00:06:20Z" uid="4467" user="Rosscoe" changeset="621649" lat="-20.32462" lon="148.598382">
    <tag k="created_by" v="JOSM"/>
    <tag k="highway" v="secondary"/>
    <tag k="name" v="Gregory Cannon Valley Rd"/>
    <tag k="surface" v="paved"/>
  </node>
  <node id="133409225" version="2" timestamp="2007-11-26T17:34:52Z" uid="3555" user="Marc Schütz" changeset="625949" lat="-20.32462" lon="148.598382">
    <tag k="created_by" v="JOSM"/>
    <tag k="highway" v="secondary"/>
    <tag k="name" v="Gregory Cannon Valley Rd"/>
    <tag k="surface" v="paved"/>
  </node>
  <node id="133409235" version="1" timestamp="2007-11-26T00:06:21Z" uid="4467" user="Rosscoe" changeset="621649" lat="-20.323923" lon="148.597982">
    <tag k="created_by" v="JOSM"/>
    <tag k="highway" v="secondary"/>
    <tag k="name" v="Gregory Cannon Valley Rd"/>
    <tag k="surface" v="paved"/>
  </node>
  <node id="133409235" version="2" timestamp="2007-11-26T17:27:49Z" uid="3555" user="Marc Schütz" changeset="625949" lat="-20.323923" lon="148.597982"/>
  <node id="133409243" version="1" timestamp="2007-11-26T00:06:23Z" uid="4467" user="Rosscoe" changeset="621649" lat="-20.324162" lon="148.598122">
    <tag k="created_by" v="JOSM"/>
    <tag k="highway" v="secondary"/>
    <tag k="name" v="Gregory Cannon Valley Rd"/>
    <tag k="surface" v="paved"/>
  </node>
  <node id="133409243" version="2" timestamp="2007-11-26T18:01:06Z" uid="3555" user="Marc Schütz" changeset="625949" lat="-20.324162" lon="148.598122">
    <tag k="created_by" v="JOSM"/>
    <tag k="highway" v="secondary"/>
    <tag k="name" v="Gregory Cannon Valley Rd"/>
    <tag k="surface" v="paved"/>
  </node>
  <node id="133409256" version="1" timestamp="2007-11-26T00:06:24Z" uid="4467" user="Rosscoe" changeset="621649" lat="-20.323493" lon="148.597685">
    <tag k="created_by" v="JOSM"/>
    <tag k="highway" v="secondary"/>
    <tag k="name" v="Gregory Cannon Valley Rd"/>
    <tag k="surface" v="paved"/>
  </node>
  <node id="133409256" version="2" timestamp="2007-11-26T18:02:10Z" uid="3555" user="Marc Schütz" changeset="625949" lat="-20.323493" lon="148.597685">
    <tag k="created_by" v="JOSM"/>
    <tag k="highway" v="secondary"/>
    <tag k="name" v="Gregory Cannon Valley Rd"/>
    <tag k="surface" v="paved"/>
  </node>
  <node id="133409257" version="2" timestamp="2007-12-15T14:29:47Z" uid="8328" user="benpre" changeset="312892" lat="48.5412736" lon="8.7158698"/>
  <node id="133409257" version="3" timestamp="2009-03-16T23:29:28Z" uid="11925" user="Moddy" changeset="823535" lat="48.5412736" lon="8.7158698"/>
  <node id="133409265" version="1" timestamp="2007-11-26T00:06:25Z" uid="4467" user="Rosscoe" changeset="621649" lat="-20.323712" lon="148.597845">
    <tag k="created_by" v="JOSM"/>
    <tag k="highway" v="secondary"/>
    <tag k="name" v="Gregory Cannon Valley Rd"/>
    <tag k="surface" v="paved"/>
  </node>
  <node id="133409265" version="2" timestamp="2007-11-26T18:07:28Z" uid="3555" user="Marc Schütz" changeset="625949" lat="-20.323712" lon="148.597845">
    <tag k="created_by" v="JOSM"/>
    <tag k="highway" v="secondary"/>
    <tag k="name" v="Gregory Cannon Valley Rd"/>
    <tag k="surface" v="paved"/>
  </node>
  <node id="133409272" version="1" timestamp="2007-11-26T00:06:27Z" uid="4467" user="Rosscoe" changeset="621649" lat="-20.323098" lon="148.597332">
    <tag k="created_by" v="JOSM"/>
    <tag k="highway" v="secondary"/>
    <tag k="name" v="Gregory Cannon Valley Rd"/>
    <tag k="surface" v="paved"/>
  </node>
  <node id="133409272" version="2" timestamp="2007-11-26T17:42:21Z" uid="3555" user="Marc Schütz" changeset="625949" lat="-20.323098" lon="148.597332">
    <tag k="created_by" v="JOSM"/>
    <tag k="highway" v="secondary"/>
    <tag k="name" v="Gregory Cannon Valley Rd"/>
    <tag k="surface" v="paved"/>
  </node>
  <node id="133409280" version="1" timestamp="2007-11-26T00:06:28Z" uid="4467" user="Rosscoe" changeset="621649" lat="-20.323288" lon="148.597512">
    <tag k="created_by" v="JOSM"/>
    <tag k="highway" v="secondary"/>
    <tag k="name" v="Gregory Cannon Valley Rd"/>
    <tag k="surface" v="paved"/>
  </node>
  <node id="133409280" version="2" timestamp="2007-11-26T17:32:18Z" uid="3555" user="Marc Schütz" changeset="625949" lat="-20.323288" lon="148.597512"/>
  <node id="133409290" version="1" timestamp="2007-11-26T00:06:30Z" uid="4467" user="Rosscoe" changeset="621649" lat="-20.322733" lon="148.596945">
    <tag k="created_by" v="JOSM"/>
    <tag k="highway" v="secondary"/>
    <tag k="name" v="Gregory Cannon Valley Rd"/>
    <tag k="surface" v="paved"/>
  </node>
  <node id="133409290" version="2" timestamp="2007-11-26T18:10:09Z" uid="3555" user="Marc Schütz" changeset="625949" lat="-20.322733" lon="148.596945">
    <tag k="created_by" v="JOSM"/>
    <tag k="highway" v="secondary"/>
    <tag k="name" v="Gregory Cannon Valley Rd"/>
    <tag k="surface" v="paved"/>
  </node>
  <node id="133409300" version="1" timestamp="2007-11-26T00:06:32Z" uid="4467" user="Rosscoe" changeset="621649" lat="-20.322905" lon="148.59713">
    <tag k="created_by" v="JOSM"/>
    <tag k="highway" v="secondary"/>
    <tag k="name" v="Gregory Cannon Valley Rd"/>
    <tag k="surface" v="paved"/>
  </node>
  <node id="133409300" version="2" timestamp="2007-11-26T17:55:29Z" uid="3555" user="Marc Schütz" changeset="625949" lat="-20.322905" lon="148.59713">
    <tag k="created_by" v="JOSM"/>
    <tag k="highway" v="secondary"/>
    <tag k="name" v="Gregory Cannon Valley Rd"/>
    <tag k="surface" v="paved"/>
  </node>
  <node id="133409308" version="1" timestamp="2007-11-26T00:06:35Z" uid="4467" user="Rosscoe" changeset="621649" lat="-20.322367" lon="148.59656">
    <tag k="created_by" v="JOSM"/>
    <tag k="highway" v="secondary"/>
    <tag k="name" v="Gregory Cannon Valley Rd"/>
    <tag k="surface" v="paved"/>
  </node>
  <node id="133409308" version="2" timestamp="2007-11-26T17:42:48Z" uid="3555" user="Marc Schütz" changeset="625949" lat="-20.322367" lon="148.59656">
    <tag k="created_by" v="JOSM"/>
    <tag k="highway" v="secondary"/>
    <tag k="name" v="Gregory Cannon Valley Rd"/>
    <tag k="surface" v="paved"/>
  </node>
  <node id="133409319" version="1" timestamp="2007-11-26T00:06:37Z" uid="4467" user="Rosscoe" changeset="621649" lat="-20.322555" lon="148.596753">
    <tag k="created_by" v="JOSM"/>
    <tag k="highway" v="secondary"/>
    <tag k="name" v="Gregory Cannon Valley Rd"/>
    <tag k="surface" v="paved"/>
  </node>
  <node id="133409319" version="2" timestamp="2007-11-26T17:53:51Z" uid="3555" user="Marc Schütz" changeset="625949" lat="-20.322555" lon="148.596753">
    <tag k="created_by" v="JOSM"/>
    <tag k="highway" v="secondary"/>
    <tag k="name" v="Gregory Cannon Valley Rd"/>
    <tag k="surface" v="paved"/>
  </node>
  <node id="133409328" version="1" timestamp="2007-11-26T00:06:39Z" uid="4467" user="Rosscoe" changeset="621649" lat="-20.32197" lon="148.596202">
    <tag k="created_by" v="JOSM"/>
    <tag k="highway" v="secondary"/>
    <tag k="name" v="Gregory Cannon Valley Rd"/>
    <tag k="surface" v="paved"/>
  </node>
  <node id="133409328" version="2" timestamp="2007-11-26T17:59:02Z" uid="3555" user="Marc Schütz" changeset="625949" lat="-20.32197" lon="148.596202">
    <tag k="created_by" v="JOSM"/>
    <tag k="highway" v="secondary"/>
    <tag k="name" v="Gregory Cannon Valley Rd"/>
    <tag k="surface" v="paved"/>
  </node>
  <node id="133409333" version="1" timestamp="2007-11-26T00:06:41Z" uid="4467" user="Rosscoe" changeset="621649" lat="-20.322172" lon="148.596375">
    <tag k="created_by" v="JOSM"/>
    <tag k="highway" v="secondary"/>
    <tag k="name" v="Gregory Cannon Valley Rd"/>
    <tag k="surface" v="paved"/>
  </node>
  <node id="133409333" version="2" timestamp="2007-11-26T17:33:10Z" uid="3555" user="Marc Schütz" changeset="625949" lat="-20.322172" lon="148.596375">
    <tag k="created_by" v="JOSM"/>
    <tag k="highway" v="secondary"/>
    <tag k="name" v="Gregory Cannon Valley Rd"/>
    <tag k="surface" v="paved"/>
  </node>
  <node id="133409342" version="1" timestamp="2007-11-26T00:06:42Z" uid="4467" user="Rosscoe" changeset="621649" lat="-20.321567" lon="148.595902">
    <tag k="created_by" v="JOSM"/>
    <tag k="highway" v="secondary"/>
    <tag k="name" v="Gregory Cannon Valley Rd"/>
    <tag k="surface" v="paved"/>
  </node>
  <node id="133409342" version="2" timestamp="2007-11-26T17:45:17Z" uid="3555" user="Marc Schütz" changeset="625949" lat="-20.321567" lon="148.595902">
    <tag k="created_by" v="JOSM"/>
    <tag k="highway" v="secondary"/>
    <tag k="name" v="Gregory Cannon Valley Rd"/>
    <tag k="surface" v="paved"/>
  </node>
  <node id="133409351" version="1" timestamp="2007-11-26T00:06:43Z" uid="4467" user="Rosscoe" changeset="621649" lat="-20.321777" lon="148.596048">
    <tag k="created_by" v="JOSM"/>
    <tag k="highway" v="secondary"/>
    <tag k="name" v="Gregory Cannon Valley Rd"/>
    <tag k="surface" v="paved"/>
  </node>
  <node id="133409351" version="2" timestamp="2007-11-26T17:29:47Z" uid="3555" user="Marc Schütz" changeset="625949" lat="-20.321777" lon="148.596048"/>
  <node id="133409363" version="1" timestamp="2007-11-26T00:06:45Z" uid="4467" user="Rosscoe" changeset="621649" lat="-20.320877" lon="148.595475">
    <tag k="created_by" v="JOSM"/>
    <tag k="highway" v="secondary"/>
    <tag k="name" v="Gregory Cannon Valley Rd"/>
    <tag k="surface" v="paved"/>
  </node>
  <node id="133409363" version="2" timestamp="2007-11-26T17:39:58Z" uid="3555" user="Marc Schütz" changeset="625949" lat="-20.320877" lon="148.595475">
    <tag k="created_by" v="JOSM"/>
    <tag k="highway" v="secondary"/>
    <tag k="name" v="Gregory Cannon Valley Rd"/>
    <tag k="surface" v="paved"/>
  </node>
  <node id="133409371" version="1" timestamp="2007-11-26T00:06:47Z" uid="4467" user="Rosscoe" changeset="621649" lat="-20.320655" lon="148.59534">
    <tag k="created_by" v="JOSM"/>
    <tag k="highway" v="secondary"/>
    <tag k="name" v="Gregory Cannon Valley Rd"/>
    <tag k="surface" v="paved"/>
  </node>
  <node id="133409371" version="2" timestamp="2007-11-26T18:06:49Z" uid="3555" user="Marc Schütz" changeset="625949" lat="-20.320655" lon="148.59534">
    <tag k="created_by" v="JOSM"/>
    <tag k="highway" v="secondary"/>
    <tag k="name" v="Gregory Cannon Valley Rd"/>
    <tag k="surface" v="paved"/>
  </node>
  <node id="133409377" version="1" timestamp="2007-11-26T00:06:48Z" uid="4467" user="Rosscoe" changeset="621649" lat="-20.32135" lon="148.595762">
    <tag k="created_by" v="JOSM"/>
    <tag k="highway" v="secondary"/>
    <tag k="name" v="Gregory Cannon Valley Rd"/>
    <tag k="surface" v="paved"/>
  </node>
  <node id="133409377" version="2" timestamp="2007-11-26T17:59:06Z" uid="3555" user="Marc Schütz" changeset="625949" lat="-20.32135" lon="148.595762">
    <tag k="created_by" v="JOSM"/>
    <tag k="highway" v="secondary"/>
    <tag k="name" v="Gregory Cannon Valley Rd"/>
    <tag k="surface" v="paved"/>
  </node>
  <node id="133409384" version="1" timestamp="2007-11-26T00:06:50Z" uid="4467" user="Rosscoe" changeset="621649" lat="-20.321118" lon="148.59562">
    <tag k="created_by" v="JOSM"/>
    <tag k="highway" v="secondary"/>
    <tag k="name" v="Gregory Cannon Valley Rd"/>
    <tag k="surface" v="paved"/>
  </node>
  <node id="133409384" version="2" timestamp="2007-11-26T18:06:45Z" uid="3555" user="Marc Schütz" changeset="625949" lat="-20.321118" lon="148.59562">
    <tag k="created_by" v="JOSM"/>
    <tag k="highway" v="secondary"/>
    <tag k="name" v="Gregory Cannon Valley Rd"/>
    <tag k="surface" v="paved"/>
  </node>
  <node id="133409393" version="1" timestamp="2007-11-26T00:06:51Z" uid="4467" user="Rosscoe" changeset="621649" lat="-20.319983" lon="148.594937">
    <tag k="created_by" v="JOSM"/>
    <tag k="highway" v="secondary"/>
    <tag k="name" v="Gregory Cannon Valley Rd"/>
    <tag k="surface" v="paved"/>
  </node>
  <node id="133409393" version="2" timestamp="2007-11-26T17:38:06Z" uid="3555" user="Marc Schütz" changeset="625949" lat="-20.319983" lon="148.594937">
    <tag k="created_by" v="JOSM"/>
    <tag k="highway" v="secondary"/>
    <tag k="name" v="Gregory Cannon Valley Rd"/>
    <tag k="surface" v="paved"/>
  </node>
  <node id="133409404" version="1" timestamp="2007-11-26T00:06:52Z" uid="4467" user="Rosscoe" changeset="621649" lat="-20.319745" lon="148.594817">
    <tag k="created_by" v="JOSM"/>
    <tag k="highway" v="secondary"/>
    <tag k="name" v="Gregory Cannon Valley Rd"/>
    <tag k="surface" v="paved"/>
  </node>
  <node id="133409404" version="2" timestamp="2007-11-26T17:42:12Z" uid="3555" user="Marc Schütz" changeset="625949" lat="-20.319745" lon="148.594817">
    <tag k="created_by" v="JOSM"/>
    <tag k="highway" v="secondary"/>
    <tag k="name" v="Gregory Cannon Valley Rd"/>
    <tag k="surface" v="paved"/>
  </node>
  <node id="133409413" version="1" timestamp="2007-11-26T00:06:54Z" uid="4467" user="Rosscoe" changeset="621649" lat="-20.32043" lon="148.595202">
    <tag k="created_by" v="JOSM"/>
    <tag k="highway" v="secondary"/>
    <tag k="name" v="Gregory Cannon Valley Rd"/>
    <tag k="surface" v="paved"/>
  </node>
  <node id="133409413" version="2" timestamp="2007-11-26T18:03:21Z" uid="3555" user="Marc Schütz" changeset="625949" lat="-20.32043" lon="148.595202">
    <tag k="created_by" v="JOSM"/>
    <tag k="highway" v="secondary"/>
    <tag k="name" v="Gregory Cannon Valley Rd"/>
    <tag k="surface" v="paved"/>
  </node>
  <node id="133409426" version="1" timestamp="2007-11-26T00:06:55Z" uid="4467" user="Rosscoe" changeset="621649" lat="-20.320205" lon="148.595065">
    <tag k="created_by" v="JOSM"/>
    <tag k="highway" v="secondary"/>
    <tag k="name" v="Gregory Cannon Valley Rd"/>
    <tag k="surface" v="paved"/>
  </node>
  <node id="133409426" version="2" timestamp="2007-11-26T17:39:24Z" uid="3555" user="Marc Schütz" changeset="625949" lat="-20.320205" lon="148.595065">
    <tag k="created_by" v="JOSM"/>
    <tag k="highway" v="secondary"/>
    <tag k="name" v="Gregory Cannon Valley Rd"/>
    <tag k="surface" v="paved"/>
  </node>
  <node id="133409436" version="1" timestamp="2007-11-26T00:06:56Z" uid="4467" user="Rosscoe" changeset="621649" lat="-20.319043" lon="148.594642">
    <tag k="created_by" v="JOSM"/>
    <tag k="highway" v="secondary"/>
    <tag k="name" v="Gregory Cannon Valley Rd"/>
    <tag k="surface" v="paved"/>
  </node>
  <node id="133409436" version="2" timestamp="2007-11-26T17:50:06Z" uid="3555" user="Marc Schütz" changeset="625949" lat="-20.319043" lon="148.594642">
    <tag k="created_by" v="JOSM"/>
    <tag k="highway" v="secondary"/>
    <tag k="name" v="Gregory Cannon Valley Rd"/>
    <tag k="surface" v="paved"/>
  </node>
  <node id="133409447" version="1" timestamp="2007-11-26T00:06:57Z" uid="4467" user="Rosscoe" changeset="621649" lat="-20.31879" lon="148.594643">
    <tag k="created_by" v="JOSM"/>
    <tag k="highway" v="secondary"/>
    <tag k="name" v="Gregory Cannon Valley Rd"/>
    <tag k="surface" v="paved"/>
  </node>
  <node id="133409447" version="2" timestamp="2007-11-26T17:29:02Z" uid="3555" user="Marc Schütz" changeset="625949" lat="-20.31879" lon="148.594643"/>
  <node id="133409459" version="1" timestamp="2007-11-26T00:06:58Z" uid="4467" user="Rosscoe" changeset="621649" lat="-20.319523" lon="148.594733">
    <tag k="created_by" v="JOSM"/>
    <tag k="highway" v="secondary"/>
    <tag k="name" v="Gregory Cannon Valley Rd"/>
    <tag k="surface" v="paved"/>
  </node>
  <node id="133409459" version="2" timestamp="2007-11-26T17:31:32Z" uid="3555" user="Marc Schütz" changeset="625949" lat="-20.319523" lon="148.594733"/>
  <node id="133409470" version="1" timestamp="2007-11-26T00:06:59Z" uid="4467" user="Rosscoe" changeset="621649" lat="-20.319287" lon="148.594673">
    <tag k="created_by" v="JOSM"/>
    <tag k="highway" v="secondary"/>
    <tag k="name" v="Gregory Cannon Valley Rd"/>
    <tag k="surface" v="paved"/>
  </node>
  <node id="133409470" version="2" timestamp="2007-11-26T17:49:06Z" uid="3555" user="Marc Schütz" changeset="625949" lat="-20.319287" lon="148.594673">
    <tag k="created_by" v="JOSM"/>
    <tag k="highway" v="secondary"/>
    <tag k="name" v="Gregory Cannon Valley Rd"/>
    <tag k="surface" v="paved"/>
  </node>
  <node id="133409479" version="1" timestamp="2007-11-26T00:07:00Z" uid="4467" user="Rosscoe" changeset="621649" lat="-20.318018" lon="148.594773">
    <tag k="created_by" v="JOSM"/>
    <tag k="highway" v="secondary"/>
    <tag k="name" v="Gregory Cannon Valley Rd"/>
    <tag k="surface" v="paved"/>
  </node>
  <node id="133409479" version="2" timestamp="2007-11-26T17:57:57Z" uid="3555" user="Marc Schütz" changeset="625949" lat="-20.318018" lon="148.594773">
    <tag k="created_by" v="JOSM"/>
    <tag k="highway" v="secondary"/>
    <tag k="name" v="Gregory Cannon Valley Rd"/>
    <tag k="surface" v="paved"/>
  </node>
  <node id="133409489" version="1" timestamp="2007-11-26T00:07:01Z" uid="4467" user="Rosscoe" changeset="621649" lat="-20.317763" lon="148.594825">
    <tag k="created_by" v="JOSM"/>
    <tag k="highway" v="secondary"/>
    <tag k="name" v="Gregory Cannon Valley Rd"/>
    <tag k="surface" v="paved"/>
  </node>
  <node id="133409489" version="2" timestamp="2007-11-26T17:44:24Z" uid="3555" user="Marc Schütz" changeset="625949" lat="-20.317763" lon="148.594825">
    <tag k="created_by" v="JOSM"/>
    <tag k="highway" v="secondary"/>
    <tag k="name" v="Gregory Cannon Valley Rd"/>
    <tag k="surface" v="paved"/>
  </node>
  <node id="133409499" version="1" timestamp="2007-11-26T00:07:02Z" uid="4467" user="Rosscoe" changeset="621649" lat="-20.318527" lon="148.594677">
    <tag k="created_by" v="JOSM"/>
    <tag k="highway" v="secondary"/>
    <tag k="name" v="Gregory Cannon Valley Rd"/>
    <tag k="surface" v="paved"/>
  </node>
  <node id="133409499" version="2" timestamp="2007-11-26T18:08:17Z" uid="3555" user="Marc Schütz" changeset="625949" lat="-20.318527" lon="148.594677">
    <tag k="created_by" v="JOSM"/>
    <tag k="highway" v="secondary"/>
    <tag k="name" v="Gregory Cannon Valley Rd"/>
    <tag k="surface" v="paved"/>
  </node>
  <node id="133409510" version="1" timestamp="2007-11-26T00:07:03Z" uid="4467" user="Rosscoe" changeset="621649" lat="-20.318275" lon="148.594722">
    <tag k="created_by" v="JOSM"/>
    <tag k="highway" v="secondary"/>
    <tag k="name" v="Gregory Cannon Valley Rd"/>
    <tag k="surface" v="paved"/>
  </node>
  <node id="133409510" version="2" timestamp="2007-11-26T18:06:53Z" uid="3555" user="Marc Schütz" changeset="625949" lat="-20.318275" lon="148.594722">
    <tag k="created_by" v="JOSM"/>
    <tag k="highway" v="secondary"/>
    <tag k="name" v="Gregory Cannon Valley Rd"/>
    <tag k="surface" v="paved"/>
  </node>
  <node id="133409527" version="1" timestamp="2007-11-26T00:07:04Z" uid="4467" user="Rosscoe" changeset="621649" lat="-20.316752" lon="148.595023">
    <tag k="created_by" v="JOSM"/>
    <tag k="highway" v="secondary"/>
    <tag k="name" v="Gregory Cannon Valley Rd"/>
    <tag k="surface" v="paved"/>
  </node>
  <node id="133409527" version="2" timestamp="2007-11-26T18:07:33Z" uid="3555" user="Marc Schütz" changeset="625949" lat="-20.316752" lon="148.595023">
    <tag k="created_by" v="JOSM"/>
    <tag k="highway" v="secondary"/>
    <tag k="name" v="Gregory Cannon Valley Rd"/>
    <tag k="surface" v="paved"/>
  </node>
  <node id="133409544" version="1" timestamp="2007-11-26T00:07:05Z" uid="4467" user="Rosscoe" changeset="621649" lat="-20.317008" lon="148.594978">
    <tag k="created_by" v="JOSM"/>
    <tag k="highway" v="secondary"/>
    <tag k="name" v="Gregory Cannon Valley Rd"/>
    <tag k="surface" v="paved"/>
  </node>
  <node id="133409544" version="2" timestamp="2007-11-26T17:59:31Z" uid="3555" user="Marc Schütz" changeset="625949" lat="-20.317008" lon="148.594978">
    <tag k="created_by" v="JOSM"/>
    <tag k="highway" v="secondary"/>
    <tag k="name" v="Gregory Cannon Valley Rd"/>
    <tag k="surface" v="paved"/>
  </node>
  <node id="133409561" version="1" timestamp="2007-11-26T00:07:06Z" uid="4467" user="Rosscoe" changeset="621649" lat="-20.317245" lon="148.59493">
    <tag k="created_by" v="JOSM"/>
    <tag k="highway" v="secondary"/>
    <tag k="name" v="Gregory Cannon Valley Rd"/>
    <tag k="surface" v="paved"/>
  </node>
  <node id="133409561" version="2" timestamp="2007-11-26T18:00:35Z" uid="3555" user="Marc Schütz" changeset="625949" lat="-20.317245" lon="148.59493">
    <tag k="created_by" v="JOSM"/>
    <tag k="highway" v="secondary"/>
    <tag k="name" v="Gregory Cannon Valley Rd"/>
    <tag k="surface" v="paved"/>
  </node>
  <node id="133409572" version="1" timestamp="2007-11-26T00:07:07Z" uid="4467" user="Rosscoe" changeset="621649" lat="-20.31751" lon="148.594875">
    <tag k="created_by" v="JOSM"/>
    <tag k="highway" v="secondary"/>
    <tag k="name" v="Gregory Cannon Valley Rd"/>
    <tag k="surface" v="paved"/>
  </node>
  <node id="133409572" version="2" timestamp="2007-11-26T17:57:06Z" uid="3555" user="Marc Schütz" changeset="625949" lat="-20.31751" lon="148.594875">
    <tag k="created_by" v="JOSM"/>
    <tag k="highway" v="secondary"/>
    <tag k="name" v="Gregory Cannon Valley Rd"/>
    <tag k="surface" v="paved"/>
  </node>
  <node id="133409588" version="1" timestamp="2007-11-26T00:07:09Z" uid="4467" user="Rosscoe" changeset="621649" lat="-20.315733" lon="148.59502">
    <tag k="created_by" v="JOSM"/>
    <tag k="highway" v="secondary"/>
    <tag k="name" v="Gregory Cannon Valley Rd"/>
    <tag k="surface" v="paved"/>
  </node>
  <node id="133409588" version="2" timestamp="2007-11-26T17:39:17Z" uid="3555" user="Marc Schütz" changeset="625949" lat="-20.315733" lon="148.59502">
    <tag k="created_by" v="JOSM"/>
    <tag k="highway" v="secondary"/>
    <tag k="name" v="Gregory Cannon Valley Rd"/>
    <tag k="surface" v="paved"/>
  </node>
  <node id="133409601" version="1" timestamp="2007-11-26T00:07:10Z" uid="4467" user="Rosscoe" changeset="621649" lat="-20.315975" lon="148.595052">
    <tag k="created_by" v="JOSM"/>
    <tag k="highway" v="secondary"/>
    <tag k="name" v="Gregory Cannon Valley Rd"/>
    <tag k="surface" v="paved"/>
  </node>
  <node id="133409601" version="2" timestamp="2007-11-26T17:33:19Z" uid="3555" user="Marc Schütz" changeset="625949" lat="-20.315975" lon="148.595052">
    <tag k="created_by" v="JOSM"/>
    <tag k="highway" v="secondary"/>
    <tag k="name" v="Gregory Cannon Valley Rd"/>
    <tag k="surface" v="paved"/>
  </node>
  <node id="133409615" version="1" timestamp="2007-11-26T00:07:11Z" uid="4467" user="Rosscoe" changeset="621649" lat="-20.316242" lon="148.595067">
    <tag k="created_by" v="JOSM"/>
    <tag k="highway" v="secondary"/>
    <tag k="name" v="Gregory Cannon Valley Rd"/>
    <tag k="surface" v="paved"/>
  </node>
  <node id="133409615" version="2" timestamp="2007-11-26T17:30:29Z" uid="3555" user="Marc Schütz" changeset="625949" lat="-20.316242" lon="148.595067"/>
  <node id="133409625" version="1" timestamp="2007-11-26T00:07:12Z" uid="4467" user="Rosscoe" changeset="621649" lat="-20.316493" lon="148.595055">
    <tag k="created_by" v="JOSM"/>
    <tag k="highway" v="secondary"/>
    <tag k="name" v="Gregory Cannon Valley Rd"/>
    <tag k="surface" v="paved"/>
  </node>
  <node id="133409625" version="2" timestamp="2007-11-26T18:04:12Z" uid="3555" user="Marc Schütz" changeset="625949" lat="-20.316493" lon="148.595055">
    <tag k="created_by" v="JOSM"/>
    <tag k="highway" v="secondary"/>
    <tag k="name" v="Gregory Cannon Valley Rd"/>
    <tag k="surface" v="paved"/>
  </node>
  <node id="133409630" version="1" timestamp="2007-11-26T00:07:14Z" uid="4467" user="Rosscoe" changeset="621649" lat="-20.314715" lon="148.594797">
    <tag k="created_by" v="JOSM"/>
    <tag k="highway" v="secondary"/>
    <tag k="name" v="Gregory Cannon Valley Rd"/>
    <tag k="surface" v="paved"/>
  </node>
  <node id="133409630" version="2" timestamp="2007-11-26T17:31:02Z" uid="3555" user="Marc Schütz" changeset="625949" lat="-20.314715" lon="148.594797"/>
  <node id="133409636" version="1" timestamp="2007-11-26T00:07:17Z" uid="4467" user="Rosscoe" changeset="621649" lat="-20.314975" lon="148.594857">
    <tag k="created_by" v="JOSM"/>
    <tag k="highway" v="secondary"/>
    <tag k="name" v="Gregory Cannon Valley Rd"/>
    <tag k="surface" v="paved"/>
  </node>
  <node id="133409636" version="2" timestamp="2007-11-26T17:59:07Z" uid="3555" user="Marc Schütz" changeset="625949" lat="-20.314975" lon="148.594857">
    <tag k="created_by" v="JOSM"/>
    <tag k="highway" v="secondary"/>
    <tag k="name" v="Gregory Cannon Valley Rd"/>
    <tag k="surface" v="paved"/>
  </node>
  <node id="133409646" version="1" timestamp="2007-11-26T00:07:18Z" uid="4467" user="Rosscoe" changeset="621649" lat="-20.31523" lon="148.594913">
    <tag k="created_by" v="JOSM"/>
    <tag k="highway" v="secondary"/>
    <tag k="name" v="Gregory Cannon Valley Rd"/>
    <tag k="surface" v="paved"/>
  </node>
  <node id="133409646" version="2" timestamp="2007-11-26T17:36:18Z" uid="3555" user="Marc Schütz" changeset="625949" lat="-20.31523" lon="148.594913">
    <tag k="created_by" v="JOSM"/>
    <tag k="highway" v="secondary"/>
    <tag k="name" v="Gregory Cannon Valley Rd"/>
    <tag k="surface" v="paved"/>
  </node>
  <node id="133409660" version="1" timestamp="2007-11-26T00:07:20Z" uid="4467" user="Rosscoe" changeset="621649" lat="-20.315485" lon="148.59497">
    <tag k="created_by" v="JOSM"/>
    <tag k="highway" v="secondary"/>
    <tag k="name" v="Gregory Cannon Valley Rd"/>
    <tag k="surface" v="paved"/>
  </node>
  <node id="133409660" version="2" timestamp="2007-11-26T17:45:03Z" uid="3555" user="Marc Schütz" changeset="625949" lat="-20.315485" lon="148.59497">
    <tag k="created_by" v="JOSM"/>
    <tag k="highway" v="secondary"/>
    <tag k="name" v="Gregory Cannon Valley Rd"/>
    <tag k="surface" v="paved"/>
  </node>
  <node id="133409671" version="1" timestamp="2007-11-26T00:07:21Z" uid="4467" user="Rosscoe" changeset="621649" lat="-20.313723" lon="148.594548">
    <tag k="created_by" v="JOSM"/>
    <tag k="highway" v="secondary"/>
    <tag k="name" v="Gregory Cannon Valley Rd"/>
    <tag k="surface" v="paved"/>
  </node>
  <node id="133409671" version="2" timestamp="2007-11-26T17:37:19Z" uid="3555" user="Marc Schütz" changeset="625949" lat="-20.313723" lon="148.594548">
    <tag k="created_by" v="JOSM"/>
    <tag k="highway" v="secondary"/>
    <tag k="name" v="Gregory Cannon Valley Rd"/>
    <tag k="surface" v="paved"/>
  </node>
  <node id="133409683" version="1" timestamp="2007-11-26T00:07:22Z" uid="4467" user="Rosscoe" changeset="621649" lat="-20.313978" lon="148.594612">
    <tag k="created_by" v="JOSM"/>
    <tag k="highway" v="secondary"/>
    <tag k="name" v="Gregory Cannon Valley Rd"/>
    <tag k="surface" v="paved"/>
  </node>
  <node id="133409683" version="2" timestamp="2007-11-26T17:43:20Z" uid="3555" user="Marc Schütz" changeset="625949" lat="-20.313978" lon="148.594612">
    <tag k="created_by" v="JOSM"/>
    <tag k="highway" v="secondary"/>
    <tag k="name" v="Gregory Cannon Valley Rd"/>
    <tag k="surface" v="paved"/>
  </node>
  <node id="133409695" version="1" timestamp="2007-11-26T00:07:23Z" uid="4467" user="Rosscoe" changeset="621649" lat="-20.314225" lon="148.594675">
    <tag k="created_by" v="JOSM"/>
    <tag k="highway" v="secondary"/>
    <tag k="name" v="Gregory Cannon Valley Rd"/>
    <tag k="surface" v="paved"/>
  </node>
  <node id="133409695" version="2" timestamp="2007-11-26T18:03:52Z" uid="3555" user="Marc Schütz" changeset="625949" lat="-20.314225" lon="148.594675">
    <tag k="created_by" v="JOSM"/>
    <tag k="highway" v="secondary"/>
    <tag k="name" v="Gregory Cannon Valley Rd"/>
    <tag k="surface" v="paved"/>
  </node>
  <node id="133409708" version="1" timestamp="2007-11-26T00:07:24Z" uid="4467" user="Rosscoe" changeset="621649" lat="-20.314475" lon="148.594738">
    <tag k="created_by" v="JOSM"/>
    <tag k="highway" v="secondary"/>
    <tag k="name" v="Gregory Cannon Valley Rd"/>
    <tag k="surface" v="paved"/>
  </node>
  <node id="133409708" version="2" timestamp="2007-11-26T18:04:21Z" uid="3555" user="Marc Schütz" changeset="625949" lat="-20.314475" lon="148.594738">
    <tag k="created_by" v="JOSM"/>
    <tag k="highway" v="secondary"/>
    <tag k="name" v="Gregory Cannon Valley Rd"/>
    <tag k="surface" v="paved"/>
  </node>
  <node id="133409722" version="1" timestamp="2007-11-26T00:07:25Z" uid="4467" user="Rosscoe" changeset="621649" lat="-20.31247" lon="148.594228">
    <tag k="created_by" v="JOSM"/>
    <tag k="highway" v="secondary"/>
    <tag k="name" v="Gregory Cannon Valley Rd"/>
    <tag k="surface" v="paved"/>
  </node>
  <node id="133409722" version="2" timestamp="2007-11-26T17:37:06Z" uid="3555" user="Marc Schütz" changeset="625949" lat="-20.31247" lon="148.594228">
    <tag k="created_by" v="JOSM"/>
    <tag k="highway" v="secondary"/>
    <tag k="name" v="Gregory Cannon Valley Rd"/>
    <tag k="surface" v="paved"/>
  </node>
  <node id="133409733" version="1" timestamp="2007-11-26T00:07:26Z" uid="4467" user="Rosscoe" changeset="621649" lat="-20.312203" lon="148.59416">
    <tag k="created_by" v="JOSM"/>
    <tag k="highway" v="secondary"/>
    <tag k="name" v="Gregory Cannon Valley Rd"/>
    <tag k="surface" v="paved"/>
  </node>
  <node id="133409733" version="2" timestamp="2007-11-26T17:36:34Z" uid="3555" user="Marc Schütz" changeset="625949" lat="-20.312203" lon="148.59416">
    <tag k="created_by" v="JOSM"/>
    <tag k="highway" v="secondary"/>
    <tag k="name" v="Gregory Cannon Valley Rd"/>
    <tag k="surface" v="paved"/>
  </node>
  <node id="133409739" version="1" timestamp="2007-11-26T00:07:28Z" uid="4467" user="Rosscoe" changeset="621649" lat="-20.31196" lon="148.594098">
    <tag k="created_by" v="JOSM"/>
    <tag k="highway" v="secondary"/>
    <tag k="name" v="Gregory Cannon Valley Rd"/>
    <tag k="surface" v="paved"/>
  </node>
  <node id="133409739" version="2" timestamp="2007-11-26T17:38:41Z" uid="3555" user="Marc Schütz" changeset="625949" lat="-20.31196" lon="148.594098">
    <tag k="created_by" v="JOSM"/>
    <tag k="highway" v="secondary"/>
    <tag k="name" v="Gregory Cannon Valley Rd"/>
    <tag k="surface" v="paved"/>
  </node>
  <node id="133409746" version="1" timestamp="2007-11-26T00:07:31Z" uid="4467" user="Rosscoe" changeset="621649" lat="-20.311708" lon="148.594033">
    <tag k="created_by" v="JOSM"/>
    <tag k="highway" v="secondary"/>
    <tag k="name" v="Gregory Cannon Valley Rd"/>
    <tag k="surface" v="paved"/>
  </node>
  <node id="133409746" version="2" timestamp="2007-11-26T17:36:12Z" uid="3555" user="Marc Schütz" changeset="625949" lat="-20.311708" lon="148.594033">
    <tag k="created_by" v="JOSM"/>
    <tag k="highway" v="secondary"/>
    <tag k="name" v="Gregory Cannon Valley Rd"/>
    <tag k="surface" v="paved"/>
  </node>
  <node id="133409755" version="1" timestamp="2007-11-26T00:07:33Z" uid="4467" user="Rosscoe" changeset="621649" lat="-20.313462" lon="148.594482">
    <tag k="created_by" v="JOSM"/>
    <tag k="highway" v="secondary"/>
    <tag k="name" v="Gregory Cannon Valley Rd"/>
    <tag k="surface" v="paved"/>
  </node>
  <node id="133409755" version="2" timestamp="2007-11-26T17:56:48Z" uid="3555" user="Marc Schütz" changeset="625949" lat="-20.313462" lon="148.594482">
    <tag k="created_by" v="JOSM"/>
    <tag k="highway" v="secondary"/>
    <tag k="name" v="Gregory Cannon Valley Rd"/>
    <tag k="surface" v="paved"/>
  </node>
  <node id="133409761" version="1" timestamp="2007-11-26T00:07:35Z" uid="4467" user="Rosscoe" changeset="621649" lat="-20.313222" lon="148.594422">
    <tag k="created_by" v="JOSM"/>
    <tag k="highway" v="secondary"/>
    <tag k="name" v="Gregory Cannon Valley Rd"/>
    <tag k="surface" v="paved"/>
  </node>
  <node id="133409761" version="2" timestamp="2007-11-26T18:02:27Z" uid="3555" user="Marc Schütz" changeset="625949" lat="-20.313222" lon="148.594422">
    <tag k="created_by" v="JOSM"/>
    <tag k="highway" v="secondary"/>
    <tag k="name" v="Gregory Cannon Valley Rd"/>
    <tag k="surface" v="paved"/>
  </node>
  <node id="133409773" version="1" timestamp="2007-11-26T00:07:37Z" uid="4467" user="Rosscoe" changeset="621649" lat="-20.31297" lon="148.594357">
    <tag k="created_by" v="JOSM"/>
    <tag k="highway" v="secondary"/>
    <tag k="name" v="Gregory Cannon Valley Rd"/>
    <tag k="surface" v="paved"/>
  </node>
  <node id="133409773" version="2" timestamp="2007-11-26T17:51:51Z" uid="3555" user="Marc Schütz" changeset="625949" lat="-20.31297" lon="148.594357">
    <tag k="created_by" v="JOSM"/>
    <tag k="highway" v="secondary"/>
    <tag k="name" v="Gregory Cannon Valley Rd"/>
    <tag k="surface" v="paved"/>
  </node>
  <node id="133409783" version="1" timestamp="2007-11-26T00:07:38Z" uid="4467" user="Rosscoe" changeset="621649" lat="-20.312713" lon="148.594292">
    <tag k="created_by" v="JOSM"/>
    <tag k="highway" v="secondary"/>
    <tag k="name" v="Gregory Cannon Valley Rd"/>
    <tag k="surface" v="paved"/>
  </node>
  <node id="133409783" version="2" timestamp="2007-11-26T17:59:21Z" uid="3555" user="Marc Schütz" changeset="625949" lat="-20.312713" lon="148.594292">
    <tag k="created_by" v="JOSM"/>
    <tag k="highway" v="secondary"/>
    <tag k="name" v="Gregory Cannon Valley Rd"/>
    <tag k="surface" v="paved"/>
  </node>
  <node id="133409790" version="1" timestamp="2007-11-26T00:07:40Z" uid="4467" user="Rosscoe" changeset="621649" lat="-20.310453" lon="148.593707">
    <tag k="created_by" v="JOSM"/>
    <tag k="highway" v="secondary"/>
    <tag k="name" v="Gregory Cannon Valley Rd"/>
    <tag k="surface" v="paved"/>
  </node>
  <node id="133409790" version="2" timestamp="2007-11-26T17:44:33Z" uid="3555" user="Marc Schütz" changeset="625949" lat="-20.310453" lon="148.593707">
    <tag k="created_by" v="JOSM"/>
    <tag k="highway" v="secondary"/>
    <tag k="name" v="Gregory Cannon Valley Rd"/>
    <tag k="surface" v="paved"/>
  </node>
  <node id="133409799" version="1" timestamp="2007-11-26T00:07:42Z" uid="4467" user="Rosscoe" changeset="621649" lat="-20.310203" lon="148.593642">
    <tag k="created_by" v="JOSM"/>
    <tag k="highway" v="secondary"/>
    <tag k="name" v="Gregory Cannon Valley Rd"/>
    <tag k="surface" v="paved"/>
  </node>
  <node id="133409799" version="2" timestamp="2007-11-26T18:02:55Z" uid="3555" user="Marc Schütz" changeset="625949" lat="-20.310203" lon="148.593642">
    <tag k="created_by" v="JOSM"/>
    <tag k="highway" v="secondary"/>
    <tag k="name" v="Gregory Cannon Valley Rd"/>
    <tag k="surface" v="paved"/>
  </node>
  <node id="133409806" version="2" timestamp="2007-12-15T14:29:46Z" uid="8328" user="benpre" changeset="312892" lat="48.5412999" lon="8.715779"/>
  <node id="133409806" version="3" timestamp="2010-04-06T10:27:47Z" uid="39649" user="badger23" changeset="4342434" lat="48.5413112" lon="8.7159586"/>
  <node id="133409807" version="1" timestamp="2007-11-26T00:07:43Z" uid="4467" user="Rosscoe" changeset="621649" lat="-20.309953" lon="148.593578">
    <tag k="created_by" v="JOSM"/>
    <tag k="highway" v="secondary"/>
    <tag k="name" v="Gregory Cannon Valley Rd"/>
    <tag k="surface" v="paved"/>
  </node>
  <node id="133409807" version="2" timestamp="2007-11-26T17:33:24Z" uid="3555" user="Marc Schütz" changeset="625949" lat="-20.309953" lon="148.593578">
    <tag k="created_by" v="JOSM"/>
    <tag k="highway" v="secondary"/>
    <tag k="name" v="Gregory Cannon Valley Rd"/>
    <tag k="surface" v="paved"/>
  </node>
  <node id="133409812" version="2" timestamp="2007-12-15T14:29:45Z" uid="8328" user="benpre" changeset="312892" lat="48.5411694" lon="8.7147275"/>
  <node id="133409813" version="1" timestamp="2007-11-26T00:07:45Z" uid="4467" user="Rosscoe" changeset="621649" lat="-20.309692" lon="148.593512">
    <tag k="created_by" v="JOSM"/>
    <tag k="highway" v="secondary"/>
    <tag k="name" v="Gregory Cannon Valley Rd"/>
    <tag k="surface" v="paved"/>
  </node>
  <node id="133409813" version="2" timestamp="2007-11-26T17:48:56Z" uid="3555" user="Marc Schütz" changeset="625949" lat="-20.309692" lon="148.593512">
    <tag k="created_by" v="JOSM"/>
    <tag k="highway" v="secondary"/>
    <tag k="name" v="Gregory Cannon Valley Rd"/>
    <tag k="surface" v="paved"/>
  </node>
  <node id="133409823" version="1" timestamp="2007-11-26T00:07:48Z" uid="4467" user="Rosscoe" changeset="621649" lat="-20.311457" lon="148.593968">
    <tag k="created_by" v="JOSM"/>
    <tag k="highway" v="secondary"/>
    <tag k="name" v="Gregory Cannon Valley Rd"/>
    <tag k="surface" v="paved"/>
  </node>
  <node id="133409823" version="2" timestamp="2007-11-26T17:55:32Z" uid="3555" user="Marc Schütz" changeset="625949" lat="-20.311457" lon="148.593968">
    <tag k="created_by" v="JOSM"/>
    <tag k="highway" v="secondary"/>
    <tag k="name" v="Gregory Cannon Valley Rd"/>
    <tag k="surface" v="paved"/>
  </node>
  <node id="133409834" version="1" timestamp="2007-11-26T00:07:49Z" uid="4467" user="Rosscoe" changeset="621649" lat="-20.311205" lon="148.593902">
    <tag k="created_by" v="JOSM"/>
    <tag k="highway" v="secondary"/>
    <tag k="name" v="Gregory Cannon Valley Rd"/>
    <tag k="surface" v="paved"/>
  </node>
  <node id="133409834" version="2" timestamp="2007-11-26T17:58:02Z" uid="3555" user="Marc Schütz" changeset="625949" lat="-20.311205" lon="148.593902">
    <tag k="created_by" v="JOSM"/>
    <tag k="highway" v="secondary"/>
    <tag k="name" v="Gregory Cannon Valley Rd"/>
    <tag k="surface" v="paved"/>
  </node>
  <node id="133409850" version="1" timestamp="2007-11-26T00:07:51Z" uid="4467" user="Rosscoe" changeset="621649" lat="-20.310947" lon="148.593835">
    <tag k="created_by" v="JOSM"/>
    <tag k="highway" v="secondary"/>
    <tag k="name" v="Gregory Cannon Valley Rd"/>
    <tag k="surface" v="paved"/>
  </node>
  <node id="133409850" version="2" timestamp="2007-11-26T17:38:22Z" uid="3555" user="Marc Schütz" changeset="625949" lat="-20.310947" lon="148.593835">
    <tag k="created_by" v="JOSM"/>
    <tag k="highway" v="secondary"/>
    <tag k="name" v="Gregory Cannon Valley Rd"/>
    <tag k="surface" v="paved"/>
  </node>
  <node id="133409859" version="1" timestamp="2007-11-26T00:07:52Z" uid="4467" user="Rosscoe" changeset="621649" lat="-20.310703" lon="148.593772">
    <tag k="created_by" v="JOSM"/>
    <tag k="highway" v="secondary"/>
    <tag k="name" v="Gregory Cannon Valley Rd"/>
    <tag k="surface" v="paved"/>
  </node>
  <node id="133409859" version="2" timestamp="2007-11-26T18:03:13Z" uid="3555" user="Marc Schütz" changeset="625949" lat="-20.310703" lon="148.593772">
    <tag k="created_by" v="JOSM"/>
    <tag k="highway" v="secondary"/>
    <tag k="name" v="Gregory Cannon Valley Rd"/>
    <tag k="surface" v="paved"/>
  </node>
  <node id="133409869" version="1" timestamp="2007-11-26T00:07:54Z" uid="4467" user="Rosscoe" changeset="621649" lat="-20.308193" lon="148.59313">
    <tag k="created_by" v="JOSM"/>
    <tag k="highway" v="secondary"/>
    <tag k="name" v="Gregory Cannon Valley Rd"/>
    <tag k="surface" v="paved"/>
  </node>
  <node id="133409869" version="2" timestamp="2007-11-26T17:36:26Z" uid="3555" user="Marc Schütz" changeset="625949" lat="-20.308193" lon="148.59313">
    <tag k="created_by" v="JOSM"/>
    <tag k="highway" v="secondary"/>
    <tag k="name" v="Gregory Cannon Valley Rd"/>
    <tag k="surface" v="paved"/>
  </node>
  <node id="133409871" version="2" timestamp="2007-12-15T14:29:45Z" uid="8328" user="benpre" changeset="312892" lat="48.5416138" lon="8.7151011"/>
  <node id="133409871" version="3" timestamp="2010-04-06T10:27:46Z" uid="39649" user="badger23" changeset="4342434" lat="48.5415996" lon="8.7152123"/>
  <node id="133409877" version="1" timestamp="2007-11-26T00:07:55Z" uid="4467" user="Rosscoe" changeset="621649" lat="-20.308433" lon="148.59319">
    <tag k="created_by" v="JOSM"/>
    <tag k="highway" v="secondary"/>
    <tag k="name" v="Gregory Cannon Valley Rd"/>
    <tag k="surface" v="paved"/>
  </node>
  <node id="133409877" version="2" timestamp="2007-11-26T17:45:32Z" uid="3555" user="Marc Schütz" changeset="625949" lat="-20.308433" lon="148.59319">
    <tag k="created_by" v="JOSM"/>
    <tag k="highway" v="secondary"/>
    <tag k="name" v="Gregory Cannon Valley Rd"/>
    <tag k="surface" v="paved"/>
  </node>
  <node id="133409894" version="1" timestamp="2007-11-26T00:07:56Z" uid="4467" user="Rosscoe" changeset="621649" lat="-20.307707" lon="148.593008">
    <tag k="created_by" v="JOSM"/>
    <tag k="highway" v="secondary"/>
    <tag k="name" v="Gregory Cannon Valley Rd"/>
    <tag k="surface" v="paved"/>
  </node>
  <node id="133409894" version="2" timestamp="2007-11-26T17:43:21Z" uid="3555" user="Marc Schütz" changeset="625949" lat="-20.307707" lon="148.593008">
    <tag k="created_by" v="JOSM"/>
    <tag k="highway" v="secondary"/>
    <tag k="name" v="Gregory Cannon Valley Rd"/>
    <tag k="surface" v="paved"/>
  </node>
  <node id="133409903" version="1" timestamp="2007-11-26T00:07:57Z" uid="4467" user="Rosscoe" changeset="621649" lat="-20.307952" lon="148.59307">
    <tag k="created_by" v="JOSM"/>
    <tag k="highway" v="secondary"/>
    <tag k="name" v="Gregory Cannon Valley Rd"/>
    <tag k="surface" v="paved"/>
  </node>
  <node id="133409903" version="2" timestamp="2007-11-26T17:34:47Z" uid="3555" user="Marc Schütz" changeset="625949" lat="-20.307952" lon="148.59307">
    <tag k="created_by" v="JOSM"/>
    <tag k="highway" v="secondary"/>
    <tag k="name" v="Gregory Cannon Valley Rd"/>
    <tag k="surface" v="paved"/>
  </node>
  <node id="133409911" version="2" timestamp="2007-12-15T14:29:45Z" uid="8328" user="benpre" changeset="312892" lat="48.5410281" lon="8.7134375"/>
  <node id="133409911" version="3" timestamp="2010-05-12T15:38:13Z" uid="39649" user="badger23" changeset="4678188" lat="48.5410102" lon="8.7134375"/>
  <node id="133409914" version="1" timestamp="2007-11-26T00:07:59Z" uid="4467" user="Rosscoe" changeset="621649" lat="-20.3092" lon="148.593387">
    <tag k="created_by" v="JOSM"/>
    <tag k="highway" v="secondary"/>
    <tag k="name" v="Gregory Cannon Valley Rd"/>
    <tag k="surface" v="paved"/>
  </node>
  <node id="133409914" version="2" timestamp="2007-11-26T17:43:59Z" uid="3555" user="Marc Schütz" changeset="625949" lat="-20.3092" lon="148.593387">
    <tag k="created_by" v="JOSM"/>
    <tag k="highway" v="secondary"/>
    <tag k="name" v="Gregory Cannon Valley Rd"/>
    <tag k="surface" v="paved"/>
  </node>
  <node id="133409929" version="1" timestamp="2007-11-26T00:08:01Z" uid="4467" user="Rosscoe" changeset="621649" lat="-20.309457" lon="148.593452">
    <tag k="created_by" v="JOSM"/>
    <tag k="highway" v="secondary"/>
    <tag k="name" v="Gregory Cannon Valley Rd"/>
    <tag k="surface" v="paved"/>
  </node>
  <node id="133409929" version="2" timestamp="2007-11-26T17:58:45Z" uid="3555" user="Marc Schütz" changeset="625949" lat="-20.309457" lon="148.593452">
    <tag k="created_by" v="JOSM"/>
    <tag k="highway" v="secondary"/>
    <tag k="name" v="Gregory Cannon Valley Rd"/>
    <tag k="surface" v="paved"/>
  </node>
  <node id="133409940" version="1" timestamp="2007-11-26T00:08:02Z" uid="4467" user="Rosscoe" changeset="621649" lat="-20.308697" lon="148.593255">
    <tag k="created_by" v="JOSM"/>
    <tag k="highway" v="secondary"/>
    <tag k="name" v="Gregory Cannon Valley Rd"/>
    <tag k="surface" v="paved"/>
  </node>
  <node id="133409940" version="2" timestamp="2007-11-26T18:06:15Z" uid="3555" user="Marc Schütz" changeset="625949" lat="-20.308697" lon="148.593255">
    <tag k="created_by" v="JOSM"/>
    <tag k="highway" v="secondary"/>
    <tag k="name" v="Gregory Cannon Valley Rd"/>
    <tag k="surface" v="paved"/>
  </node>
  <node id="133409945" version="2" timestamp="2007-12-15T14:29:45Z" uid="8328" user="benpre" changeset="312892" lat="48.5413389" lon="8.713654"/>
  <node id="133409947" version="1" timestamp="2007-11-26T00:08:04Z" uid="4467" user="Rosscoe" changeset="621649" lat="-20.308945" lon="148.59332">
    <tag k="created_by" v="JOSM"/>
    <tag k="highway" v="secondary"/>
    <tag k="name" v="Gregory Cannon Valley Rd"/>
    <tag k="surface" v="paved"/>
  </node>
  <node id="133409947" version="2" timestamp="2007-11-26T17:45:14Z" uid="3555" user="Marc Schütz" changeset="625949" lat="-20.308945" lon="148.59332">
    <tag k="created_by" v="JOSM"/>
    <tag k="highway" v="secondary"/>
    <tag k="name" v="Gregory Cannon Valley Rd"/>
    <tag k="surface" v="paved"/>
  </node>
  <node id="133409957" version="1" timestamp="2007-11-26T00:08:05Z" uid="4467" user="Rosscoe" changeset="621649" lat="-20.30643" lon="148.592512">
    <tag k="created_by" v="JOSM"/>
    <tag k="highway" v="secondary"/>
    <tag k="name" v="Gregory Cannon Valley Rd"/>
    <tag k="surface" v="paved"/>
  </node>
  <node id="133409957" version="2" timestamp="2007-11-26T17:27:32Z" uid="3555" user="Marc Schütz" changeset="625949" lat="-20.30643" lon="148.592512"/>
  <node id="133409969" version="1" timestamp="2007-11-26T00:08:06Z" uid="4467" user="Rosscoe" changeset="621649" lat="-20.306615" lon="148.592638">
    <tag k="created_by" v="JOSM"/>
    <tag k="highway" v="secondary"/>
    <tag k="name" v="Gregory Cannon Valley Rd"/>
    <tag k="surface" v="paved"/>
  </node>
  <node id="133409969" version="2" timestamp="2007-11-26T17:36:47Z" uid="3555" user="Marc Schütz" changeset="625949" lat="-20.306615" lon="148.592638">
    <tag k="created_by" v="JOSM"/>
    <tag k="highway" v="secondary"/>
    <tag k="name" v="Gregory Cannon Valley Rd"/>
    <tag k="surface" v="paved"/>
  </node>
  <node id="133409978" version="2" timestamp="2007-12-15T14:29:45Z" uid="8328" user="benpre" changeset="312892" lat="48.5419321" lon="8.7137859"/>
  <node id="133409980" version="1" timestamp="2007-11-26T00:08:07Z" uid="4467" user="Rosscoe" changeset="621649" lat="-20.306122" lon="148.592192">
    <tag k="created_by" v="JOSM"/>
    <tag k="highway" v="secondary"/>
    <tag k="name" v="Gregory Cannon Valley Rd"/>
    <tag k="surface" v="paved"/>
  </node>
  <node id="133409980" version="2" timestamp="2007-11-26T17:28:30Z" uid="3555" user="Marc Schütz" changeset="625949" lat="-20.306122" lon="148.592192"/>
  <node id="133409996" version="1" timestamp="2007-11-26T00:08:08Z" uid="4467" user="Rosscoe" changeset="621649" lat="-20.30626" lon="148.592353">
    <tag k="created_by" v="JOSM"/>
    <tag k="highway" v="secondary"/>
    <tag k="name" v="Gregory Cannon Valley Rd"/>
    <tag k="surface" v="paved"/>
  </node>
  <node id="133409996" version="2" timestamp="2007-11-26T17:42:59Z" uid="3555" user="Marc Schütz" changeset="625949" lat="-20.30626" lon="148.592353">
    <tag k="created_by" v="JOSM"/>
    <tag k="highway" v="secondary"/>
    <tag k="name" v="Gregory Cannon Valley Rd"/>
    <tag k="surface" v="paved"/>
  </node>
</osm>
