<?xml version='1.0' encoding='UTF-8'?>
<osm version="0.6" generator="libosmium/2.20.0">
  <node id="133470775" version="2" timestamp="2008-06-18T09:04:44Z" uid="9581" user="Lobelt" changeset="206150" lat="50.9163255" lon="11.3118226">
    <tag k="created_by" v="JOSM"/>
  </node>
  <node id="133470775" version="3" timestamp="2010-09-11T20:49:39Z" uid="110639" user="aighes" changeset="5753577" lat="50.9163255" lon="11.3118226"/>
  <node id="133471043" version="2" timestamp="2008-06-18T09:04:44Z" uid="9581" user="Lobelt" changeset="206150" lat="50.9187804" lon="11.3139952">
    <tag k="created_by" v="JOSM"/>
  </node>
  <node id="133471043" version="3" timestamp="2010-01-06T16:39:58Z" uid="60345" user="Mirko Küster" changeset="3554968" lat="50.9187804" lon="11.3139952"/>
  <node id="133471043" version="4" timestamp="2011-07-19T08:59:44Z" uid="110639" user="aighes" changeset="8766083" lat="50.9187804" lon="11.3139952"/>
  <node id="133474036" version="1" timestamp="2007-11-26T00:56:28Z" uid="4467" user="Rosscoe" changeset="621649" lat="-20.323073" lon="148.653092">
    <tag k="created_by" v="JOSM"/>
    <tag k="highway" v="secondary"/>
    <tag k="name" v="Gregory Cannon Valley Rd"/>
    <tag k="surface" v="paved"/>
  </node>
  <node id="133474036" version="2" timestamp="2007-11-26T17:31:47Z" uid="3555" user="Marc Schütz" changeset="625949" lat="-20.323073" lon="148.653092"/>
  <node id="133474036" version="3" timestamp="2011-11-15T21:22:24Z" uid="35673" user="gzin" changeset="9839198" lat="-20.3229695" lon="148.6531403"/>
  <node id="133474067" version="1" timestamp="2007-11-26T00:56:28Z" uid="4467" user="Rosscoe" changeset="621649" lat="-20.323053" lon="148.652952">
    <tag k="created_by" v="JOSM"/>
    <tag k="highway" v="secondary"/>
    <tag k="name" v="Gregory Cannon Valley Rd"/>
    <tag k="surface" v="paved"/>
  </node>
  <node id="133474067" version="2" timestamp="2007-11-26T18:02:49Z" uid="3555" user="Marc Schütz" changeset="625949" lat="-20.323053" lon="148.652952">
    <tag k="created_by" v="JOSM"/>
    <tag k="highway" v="secondary"/>
    <tag k="name" v="Gregory Cannon Valley Rd"/>
    <tag k="surface" v="paved"/>
  </node>
  <node id="133474098" version="1" timestamp="2007-11-26T00:56:29Z" uid="4467" user="Rosscoe" changeset="621649" lat="-20.323028" lon="148.652795">
    <tag k="created_by" v="JOSM"/>
    <tag k="highway" v="secondary"/>
    <tag k="name" v="Gregory Cannon Valley Rd"/>
    <tag k="surface" v="paved"/>
  </node>
  <node id="133474098" version="2" timestamp="2007-11-26T17:45:06Z" uid="3555" user="Marc Schütz" changeset="625949" lat="-20.323028" lon="148.652795">
    <tag k="created_by" v="JOSM"/>
    <tag k="highway" v="secondary"/>
    <tag k="name" v="Gregory Cannon Valley Rd"/>
    <tag k="surface" v="paved"/>
  </node>
  <node id="133474130" version="1" timestamp="2007-11-26T00:56:30Z" uid="4467" user="Rosscoe" changeset="621649" lat="-20.323" lon="148.652617">
    <tag k="created_by" v="JOSM"/>
    <tag k="highway" v="secondary"/>
    <tag k="name" v="Gregory Cannon Valley Rd"/>
    <tag k="surface" v="paved"/>
  </node>
  <node id="133474130" version="2" timestamp="2007-11-26T17:44:48Z" uid="3555" user="Marc Schütz" changeset="625949" lat="-20.323" lon="148.652617">
    <tag k="created_by" v="JOSM"/>
    <tag k="highway" v="secondary"/>
    <tag k="name" v="Gregory Cannon Valley Rd"/>
    <tag k="surface" v="paved"/>
  </node>
  <node id="133474161" version="1" timestamp="2007-11-26T00:56:31Z" uid="4467" user="Rosscoe" changeset="621649" lat="-20.322938" lon="148.652205">
    <tag k="created_by" v="JOSM"/>
    <tag k="highway" v="secondary"/>
    <tag k="name" v="Gregory Cannon Valley Rd"/>
    <tag k="surface" v="paved"/>
  </node>
  <node id="133474161" version="2" timestamp="2007-11-26T17:27:42Z" uid="3555" user="Marc Schütz" changeset="625949" lat="-20.322938" lon="148.652205"/>
  <node id="133474161" version="3" timestamp="2011-11-15T21:22:24Z" uid="35673" user="gzin" changeset="9839198" lat="-20.3228604" lon="148.6522188"/>
  <node id="133474178" version="1" timestamp="2007-11-26T00:56:32Z" uid="4467" user="Rosscoe" changeset="621649" lat="-20.322908" lon="148.651975">
    <tag k="created_by" v="JOSM"/>
    <tag k="highway" v="secondary"/>
    <tag k="name" v="Gregory Cannon Valley Rd"/>
    <tag k="surface" v="paved"/>
  </node>
  <node id="133474178" version="2" timestamp="2007-11-26T17:59:01Z" uid="3555" user="Marc Schütz" changeset="625949" lat="-20.322908" lon="148.651975">
    <tag k="created_by" v="JOSM"/>
    <tag k="highway" v="secondary"/>
    <tag k="name" v="Gregory Cannon Valley Rd"/>
    <tag k="surface" v="paved"/>
  </node>
  <node id="133474200" version="1" timestamp="2007-11-26T00:56:32Z" uid="4467" user="Rosscoe" changeset="621649" lat="-20.322875" lon="148.65173">
    <tag k="created_by" v="JOSM"/>
    <tag k="highway" v="secondary"/>
    <tag k="name" v="Gregory Cannon Valley Rd"/>
    <tag k="surface" v="paved"/>
  </node>
  <node id="133474200" version="2" timestamp="2007-11-26T17:52:19Z" uid="3555" user="Marc Schütz" changeset="625949" lat="-20.322875" lon="148.65173">
    <tag k="created_by" v="JOSM"/>
    <tag k="highway" v="secondary"/>
    <tag k="name" v="Gregory Cannon Valley Rd"/>
    <tag k="surface" v="paved"/>
  </node>
  <node id="133474229" version="1" timestamp="2007-11-26T00:56:33Z" uid="4467" user="Rosscoe" changeset="621649" lat="-20.322842" lon="148.65147">
    <tag k="created_by" v="JOSM"/>
    <tag k="highway" v="secondary"/>
    <tag k="name" v="Gregory Cannon Valley Rd"/>
    <tag k="surface" v="paved"/>
  </node>
  <node id="133474229" version="2" timestamp="2007-11-26T17:36:35Z" uid="3555" user="Marc Schütz" changeset="625949" lat="-20.322842" lon="148.65147">
    <tag k="created_by" v="JOSM"/>
    <tag k="highway" v="secondary"/>
    <tag k="name" v="Gregory Cannon Valley Rd"/>
    <tag k="surface" v="paved"/>
  </node>
  <node id="133474257" version="1" timestamp="2007-11-26T00:56:34Z" uid="4467" user="Rosscoe" changeset="621649" lat="-20.322768" lon="148.650917">
    <tag k="created_by" v="JOSM"/>
    <tag k="highway" v="secondary"/>
    <tag k="name" v="Gregory Cannon Valley Rd"/>
    <tag k="surface" v="paved"/>
  </node>
  <node id="133474257" version="2" timestamp="2007-11-26T17:39:52Z" uid="3555" user="Marc Schütz" changeset="625949" lat="-20.322768" lon="148.650917">
    <tag k="created_by" v="JOSM"/>
    <tag k="highway" v="secondary"/>
    <tag k="name" v="Gregory Cannon Valley Rd"/>
    <tag k="surface" v="paved"/>
  </node>
  <node id="133474285" version="2" timestamp="2009-10-13T14:43:06Z" uid="99207" user="Lar Kiesel" changeset="2836813" lat="41.438608" lon="-102.983222">
    <tag k="source" v="tiger_import_dch_v0.6_20070813"/>
    <tag k="tiger:county" v="Cheyenne, NE"/>
    <tag k="tiger:tlid" v="135914085:135930618:135914272:135914098"/>
    <tag k="tiger:upload_uuid" v="bulk_upload.pl-447d98a2-9875-459b-89d0-3ab9f2508af9"/>
  </node>
  <node id="133474291" version="1" timestamp="2007-11-26T00:56:35Z" uid="4467" user="Rosscoe" changeset="621649" lat="-20.322732" lon="148.65063">
    <tag k="created_by" v="JOSM"/>
    <tag k="highway" v="secondary"/>
    <tag k="name" v="Gregory Cannon Valley Rd"/>
    <tag k="surface" v="paved"/>
  </node>
  <node id="133474291" version="2" timestamp="2007-11-26T17:40:13Z" uid="3555" user="Marc Schütz" changeset="625949" lat="-20.322732" lon="148.65063">
    <tag k="created_by" v="JOSM"/>
    <tag k="highway" v="secondary"/>
    <tag k="name" v="Gregory Cannon Valley Rd"/>
    <tag k="surface" v="paved"/>
  </node>
  <node id="133474323" version="1" timestamp="2007-11-26T00:56:35Z" uid="4467" user="Rosscoe" changeset="621649" lat="-20.322695" lon="148.650345">
    <tag k="created_by" v="JOSM"/>
    <tag k="highway" v="secondary"/>
    <tag k="name" v="Gregory Cannon Valley Rd"/>
    <tag k="surface" v="paved"/>
  </node>
  <node id="133474323" version="2" timestamp="2007-11-26T18:08:56Z" uid="3555" user="Marc Schütz" changeset="625949" lat="-20.322695" lon="148.650345">
    <tag k="created_by" v="JOSM"/>
    <tag k="highway" v="secondary"/>
    <tag k="name" v="Gregory Cannon Valley Rd"/>
    <tag k="surface" v="paved"/>
  </node>
  <node id="133474356" version="1" timestamp="2007-11-26T00:56:36Z" uid="4467" user="Rosscoe" changeset="621649" lat="-20.322658" lon="148.65006">
    <tag k="created_by" v="JOSM"/>
    <tag k="highway" v="secondary"/>
    <tag k="name" v="Gregory Cannon Valley Rd"/>
    <tag k="surface" v="paved"/>
  </node>
  <node id="133474356" version="2" timestamp="2007-11-26T17:50:42Z" uid="3555" user="Marc Schütz" changeset="625949" lat="-20.322658" lon="148.65006">
    <tag k="created_by" v="JOSM"/>
    <tag k="highway" v="secondary"/>
    <tag k="name" v="Gregory Cannon Valley Rd"/>
    <tag k="surface" v="paved"/>
  </node>
  <node id="133474392" version="1" timestamp="2007-11-26T00:56:37Z" uid="4467" user="Rosscoe" changeset="621649" lat="-20.322587" lon="148.649493">
    <tag k="created_by" v="JOSM"/>
    <tag k="highway" v="secondary"/>
    <tag k="name" v="Gregory Cannon Valley Rd"/>
    <tag k="surface" v="paved"/>
  </node>
  <node id="133474392" version="2" timestamp="2007-11-26T17:36:18Z" uid="3555" user="Marc Schütz" changeset="625949" lat="-20.322587" lon="148.649493">
    <tag k="created_by" v="JOSM"/>
    <tag k="highway" v="secondary"/>
    <tag k="name" v="Gregory Cannon Valley Rd"/>
    <tag k="surface" v="paved"/>
  </node>
  <node id="133474421" version="1" timestamp="2007-11-26T00:56:38Z" uid="4467" user="Rosscoe" changeset="621649" lat="-20.32255" lon="148.649213">
    <tag k="created_by" v="JOSM"/>
    <tag k="highway" v="secondary"/>
    <tag k="name" v="Gregory Cannon Valley Rd"/>
    <tag k="surface" v="paved"/>
  </node>
  <node id="133474421" version="2" timestamp="2007-11-26T18:00:16Z" uid="3555" user="Marc Schütz" changeset="625949" lat="-20.32255" lon="148.649213">
    <tag k="created_by" v="JOSM"/>
    <tag k="highway" v="secondary"/>
    <tag k="name" v="Gregory Cannon Valley Rd"/>
    <tag k="surface" v="paved"/>
  </node>
  <node id="133474457" version="1" timestamp="2007-11-26T00:56:38Z" uid="4467" user="Rosscoe" changeset="621649" lat="-20.322513" lon="148.648932">
    <tag k="created_by" v="JOSM"/>
    <tag k="highway" v="secondary"/>
    <tag k="name" v="Gregory Cannon Valley Rd"/>
    <tag k="surface" v="paved"/>
  </node>
  <node id="133474457" version="2" timestamp="2007-11-26T18:06:57Z" uid="3555" user="Marc Schütz" changeset="625949" lat="-20.322513" lon="148.648932">
    <tag k="created_by" v="JOSM"/>
    <tag k="highway" v="secondary"/>
    <tag k="name" v="Gregory Cannon Valley Rd"/>
    <tag k="surface" v="paved"/>
  </node>
  <node id="133474488" version="1" timestamp="2007-11-26T00:56:39Z" uid="4467" user="Rosscoe" changeset="621649" lat="-20.322478" lon="148.648653">
    <tag k="created_by" v="JOSM"/>
    <tag k="highway" v="secondary"/>
    <tag k="name" v="Gregory Cannon Valley Rd"/>
    <tag k="surface" v="paved"/>
  </node>
  <node id="133474488" version="2" timestamp="2007-11-26T17:31:39Z" uid="3555" user="Marc Schütz" changeset="625949" lat="-20.322478" lon="148.648653"/>
  <node id="133474488" version="3" timestamp="2011-11-15T21:22:24Z" uid="35673" user="gzin" changeset="9839198" lat="-20.3224263" lon="148.6486392"/>
  <node id="133474517" version="1" timestamp="2007-11-26T00:56:40Z" uid="4467" user="Rosscoe" changeset="621649" lat="-20.322408" lon="148.648095">
    <tag k="created_by" v="JOSM"/>
    <tag k="highway" v="secondary"/>
    <tag k="name" v="Gregory Cannon Valley Rd"/>
    <tag k="surface" v="paved"/>
  </node>
  <node id="133474517" version="2" timestamp="2007-11-26T18:06:42Z" uid="3555" user="Marc Schütz" changeset="625949" lat="-20.322408" lon="148.648095">
    <tag k="created_by" v="JOSM"/>
    <tag k="highway" v="secondary"/>
    <tag k="name" v="Gregory Cannon Valley Rd"/>
    <tag k="surface" v="paved"/>
  </node>
  <node id="133474549" version="1" timestamp="2007-11-26T00:56:41Z" uid="4467" user="Rosscoe" changeset="621649" lat="-20.322377" lon="148.647818">
    <tag k="created_by" v="JOSM"/>
    <tag k="highway" v="secondary"/>
    <tag k="name" v="Gregory Cannon Valley Rd"/>
    <tag k="surface" v="paved"/>
  </node>
  <node id="133474549" version="2" timestamp="2007-11-26T18:09:59Z" uid="3555" user="Marc Schütz" changeset="625949" lat="-20.322377" lon="148.647818">
    <tag k="created_by" v="JOSM"/>
    <tag k="highway" v="secondary"/>
    <tag k="name" v="Gregory Cannon Valley Rd"/>
    <tag k="surface" v="paved"/>
  </node>
  <node id="133474575" version="1" timestamp="2007-11-26T00:56:42Z" uid="4467" user="Rosscoe" changeset="621649" lat="-20.322343" lon="148.64754">
    <tag k="created_by" v="JOSM"/>
    <tag k="highway" v="secondary"/>
    <tag k="name" v="Gregory Cannon Valley Rd"/>
    <tag k="surface" v="paved"/>
  </node>
  <node id="133474575" version="2" timestamp="2007-11-26T18:08:46Z" uid="3555" user="Marc Schütz" changeset="625949" lat="-20.322343" lon="148.64754">
    <tag k="created_by" v="JOSM"/>
    <tag k="highway" v="secondary"/>
    <tag k="name" v="Gregory Cannon Valley Rd"/>
    <tag k="surface" v="paved"/>
  </node>
  <node id="133474589" version="1" timestamp="2007-11-26T00:56:42Z" uid="4467" user="Rosscoe" changeset="621649" lat="-20.322308" lon="148.647263">
    <tag k="created_by" v="JOSM"/>
    <tag k="highway" v="secondary"/>
    <tag k="name" v="Gregory Cannon Valley Rd"/>
    <tag k="surface" v="paved"/>
  </node>
  <node id="133474589" version="2" timestamp="2007-11-26T17:51:18Z" uid="3555" user="Marc Schütz" changeset="625949" lat="-20.322308" lon="148.647263">
    <tag k="created_by" v="JOSM"/>
    <tag k="highway" v="secondary"/>
    <tag k="name" v="Gregory Cannon Valley Rd"/>
    <tag k="surface" v="paved"/>
  </node>
  <node id="133474619" version="1" timestamp="2007-11-26T00:56:43Z" uid="4467" user="Rosscoe" changeset="621649" lat="-20.32224" lon="148.646708">
    <tag k="created_by" v="JOSM"/>
    <tag k="highway" v="secondary"/>
    <tag k="name" v="Gregory Cannon Valley Rd"/>
    <tag k="surface" v="paved"/>
  </node>
  <node id="133474619" version="2" timestamp="2007-11-26T17:44:37Z" uid="3555" user="Marc Schütz" changeset="625949" lat="-20.32224" lon="148.646708">
    <tag k="created_by" v="JOSM"/>
    <tag k="highway" v="secondary"/>
    <tag k="name" v="Gregory Cannon Valley Rd"/>
    <tag k="surface" v="paved"/>
  </node>
  <node id="133474647" version="1" timestamp="2007-11-26T00:56:44Z" uid="4467" user="Rosscoe" changeset="621649" lat="-20.322205" lon="148.646432">
    <tag k="created_by" v="JOSM"/>
    <tag k="highway" v="secondary"/>
    <tag k="name" v="Gregory Cannon Valley Rd"/>
    <tag k="surface" v="paved"/>
  </node>
  <node id="133474647" version="2" timestamp="2007-11-26T18:02:16Z" uid="3555" user="Marc Schütz" changeset="625949" lat="-20.322205" lon="148.646432">
    <tag k="created_by" v="JOSM"/>
    <tag k="highway" v="secondary"/>
    <tag k="name" v="Gregory Cannon Valley Rd"/>
    <tag k="surface" v="paved"/>
  </node>
  <node id="133474673" version="1" timestamp="2007-11-26T00:56:45Z" uid="4467" user="Rosscoe" changeset="621649" lat="-20.322172" lon="148.646155">
    <tag k="created_by" v="JOSM"/>
    <tag k="highway" v="secondary"/>
    <tag k="name" v="Gregory Cannon Valley Rd"/>
    <tag k="surface" v="paved"/>
  </node>
  <node id="133474673" version="2" timestamp="2007-11-26T18:03:01Z" uid="3555" user="Marc Schütz" changeset="625949" lat="-20.322172" lon="148.646155">
    <tag k="created_by" v="JOSM"/>
    <tag k="highway" v="secondary"/>
    <tag k="name" v="Gregory Cannon Valley Rd"/>
    <tag k="surface" v="paved"/>
  </node>
  <node id="133474705" version="1" timestamp="2007-11-26T00:56:45Z" uid="4467" user="Rosscoe" changeset="621649" lat="-20.322137" lon="148.645878">
    <tag k="created_by" v="JOSM"/>
    <tag k="highway" v="secondary"/>
    <tag k="name" v="Gregory Cannon Valley Rd"/>
    <tag k="surface" v="paved"/>
  </node>
  <node id="133474705" version="2" timestamp="2007-11-26T18:09:12Z" uid="3555" user="Marc Schütz" changeset="625949" lat="-20.322137" lon="148.645878">
    <tag k="created_by" v="JOSM"/>
    <tag k="highway" v="secondary"/>
    <tag k="name" v="Gregory Cannon Valley Rd"/>
    <tag k="surface" v="paved"/>
  </node>
  <node id="133474733" version="1" timestamp="2007-11-26T00:56:46Z" uid="4467" user="Rosscoe" changeset="621649" lat="-20.322068" lon="148.645327">
    <tag k="created_by" v="JOSM"/>
    <tag k="highway" v="secondary"/>
    <tag k="name" v="Gregory Cannon Valley Rd"/>
    <tag k="surface" v="paved"/>
  </node>
  <node id="133474733" version="2" timestamp="2007-11-26T17:59:10Z" uid="3555" user="Marc Schütz" changeset="625949" lat="-20.322068" lon="148.645327">
    <tag k="created_by" v="JOSM"/>
    <tag k="highway" v="secondary"/>
    <tag k="name" v="Gregory Cannon Valley Rd"/>
    <tag k="surface" v="paved"/>
  </node>
  <node id="133474762" version="1" timestamp="2007-11-26T00:56:47Z" uid="4467" user="Rosscoe" changeset="621649" lat="-20.322033" lon="148.645052">
    <tag k="created_by" v="JOSM"/>
    <tag k="highway" v="secondary"/>
    <tag k="name" v="Gregory Cannon Valley Rd"/>
    <tag k="surface" v="paved"/>
  </node>
  <node id="133474762" version="2" timestamp="2007-11-26T17:38:06Z" uid="3555" user="Marc Schütz" changeset="625949" lat="-20.322033" lon="148.645052">
    <tag k="created_by" v="JOSM"/>
    <tag k="highway" v="secondary"/>
    <tag k="name" v="Gregory Cannon Valley Rd"/>
    <tag k="surface" v="paved"/>
  </node>
  <node id="133474793" version="1" timestamp="2007-11-26T00:56:48Z" uid="4467" user="Rosscoe" changeset="621649" lat="-20.322" lon="148.644775">
    <tag k="created_by" v="JOSM"/>
    <tag k="highway" v="secondary"/>
    <tag k="name" v="Gregory Cannon Valley Rd"/>
    <tag k="surface" v="paved"/>
  </node>
  <node id="133474793" version="2" timestamp="2007-11-26T18:01:24Z" uid="3555" user="Marc Schütz" changeset="625949" lat="-20.322" lon="148.644775">
    <tag k="created_by" v="JOSM"/>
    <tag k="highway" v="secondary"/>
    <tag k="name" v="Gregory Cannon Valley Rd"/>
    <tag k="surface" v="paved"/>
  </node>
  <node id="133474821" version="1" timestamp="2007-11-26T00:56:48Z" uid="4467" user="Rosscoe" changeset="621649" lat="-20.321967" lon="148.6445">
    <tag k="created_by" v="JOSM"/>
    <tag k="highway" v="secondary"/>
    <tag k="name" v="Gregory Cannon Valley Rd"/>
    <tag k="surface" v="paved"/>
  </node>
  <node id="133474821" version="2" timestamp="2007-11-26T17:29:37Z" uid="3555" user="Marc Schütz" changeset="625949" lat="-20.321967" lon="148.6445"/>
  <node id="133474821" version="3" timestamp="2011-11-15T21:22:24Z" uid="35673" user="gzin" changeset="9839198" lat="-20.321857" lon="148.6439"/>
  <node id="133474850" version="1" timestamp="2007-11-26T00:56:49Z" uid="4467" user="Rosscoe" changeset="621649" lat="-20.321903" lon="148.643948">
    <tag k="created_by" v="JOSM"/>
    <tag k="highway" v="secondary"/>
    <tag k="name" v="Gregory Cannon Valley Rd"/>
    <tag k="surface" v="paved"/>
  </node>
  <node id="133474850" version="2" timestamp="2007-11-26T17:40:50Z" uid="3555" user="Marc Schütz" changeset="625949" lat="-20.321903" lon="148.643948">
    <tag k="created_by" v="JOSM"/>
    <tag k="highway" v="secondary"/>
    <tag k="name" v="Gregory Cannon Valley Rd"/>
    <tag k="surface" v="paved"/>
  </node>
  <node id="133474885" version="1" timestamp="2007-11-26T00:56:50Z" uid="4467" user="Rosscoe" changeset="621649" lat="-20.32187" lon="148.643673">
    <tag k="created_by" v="JOSM"/>
    <tag k="highway" v="secondary"/>
    <tag k="name" v="Gregory Cannon Valley Rd"/>
    <tag k="surface" v="paved"/>
  </node>
  <node id="133474885" version="2" timestamp="2007-11-26T18:01:13Z" uid="3555" user="Marc Schütz" changeset="625949" lat="-20.32187" lon="148.643673">
    <tag k="created_by" v="JOSM"/>
    <tag k="highway" v="secondary"/>
    <tag k="name" v="Gregory Cannon Valley Rd"/>
    <tag k="surface" v="paved"/>
  </node>
  <node id="133474911" version="1" timestamp="2007-11-26T00:56:51Z" uid="4467" user="Rosscoe" changeset="621649" lat="-20.32184" lon="148.643398">
    <tag k="created_by" v="JOSM"/>
    <tag k="highway" v="secondary"/>
    <tag k="name" v="Gregory Cannon Valley Rd"/>
    <tag k="surface" v="paved"/>
  </node>
  <node id="133474911" version="2" timestamp="2007-11-26T17:51:13Z" uid="3555" user="Marc Schütz" changeset="625949" lat="-20.32184" lon="148.643398">
    <tag k="created_by" v="JOSM"/>
    <tag k="highway" v="secondary"/>
    <tag k="name" v="Gregory Cannon Valley Rd"/>
    <tag k="surface" v="paved"/>
  </node>
  <node id="133474940" version="1" timestamp="2007-11-26T00:56:52Z" uid="4467" user="Rosscoe" changeset="621649" lat="-20.32182" lon="148.643122">
    <tag k="created_by" v="JOSM"/>
    <tag k="highway" v="secondary"/>
    <tag k="name" v="Gregory Cannon Valley Rd"/>
    <tag k="surface" v="paved"/>
  </node>
  <node id="133474940" version="2" timestamp="2007-11-26T17:29:05Z" uid="3555" user="Marc Schütz" changeset="625949" lat="-20.32182" lon="148.643122"/>
  <node id="133474940" version="3" timestamp="2011-11-15T21:22:25Z" uid="35673" user="gzin" changeset="9839198" lat="-20.3218006" lon="148.643122"/>
  <node id="133474977" version="1" timestamp="2007-11-26T00:56:52Z" uid="4467" user="Rosscoe" changeset="621649" lat="-20.32185" lon="148.64257">
    <tag k="created_by" v="JOSM"/>
    <tag k="highway" v="secondary"/>
    <tag k="name" v="Gregory Cannon Valley Rd"/>
    <tag k="surface" v="paved"/>
  </node>
  <node id="133474977" version="2" timestamp="2007-11-26T17:30:01Z" uid="3555" user="Marc Schütz" changeset="625949" lat="-20.32185" lon="148.64257"/>
  <node id="133474977" version="3" timestamp="2009-01-14T12:00:27Z" uid="4467" user="Rosscoe" changeset="787262" lat="-20.32185" lon="148.64257">
    <tag k="created_by" v="JOSM"/>
  </node>
  <node id="133475003" version="1" timestamp="2007-11-26T00:56:53Z" uid="4467" user="Rosscoe" changeset="621649" lat="-20.321908" lon="148.642298">
    <tag k="created_by" v="JOSM"/>
    <tag k="highway" v="secondary"/>
    <tag k="name" v="Gregory Cannon Valley Rd"/>
    <tag k="surface" v="paved"/>
  </node>
  <node id="133475003" version="2" timestamp="2007-11-26T17:30:36Z" uid="3555" user="Marc Schütz" changeset="625949" lat="-20.321908" lon="148.642298"/>
  <node id="133475033" version="1" timestamp="2007-11-26T00:56:54Z" uid="4467" user="Rosscoe" changeset="621649" lat="-20.32212" lon="148.64179">
    <tag k="created_by" v="JOSM"/>
    <tag k="highway" v="secondary"/>
    <tag k="name" v="Gregory Cannon Valley Rd"/>
    <tag k="surface" v="paved"/>
  </node>
  <node id="133475033" version="2" timestamp="2007-11-26T17:31:50Z" uid="3555" user="Marc Schütz" changeset="625949" lat="-20.32212" lon="148.64179"/>
  <node id="133475033" version="3" timestamp="2011-11-15T21:22:25Z" uid="35673" user="gzin" changeset="9839198" lat="-20.3224304" lon="148.6413348"/>
  <node id="133475061" version="1" timestamp="2007-11-26T00:56:55Z" uid="4467" user="Rosscoe" changeset="621649" lat="-20.322392" lon="148.641312">
    <tag k="created_by" v="JOSM"/>
    <tag k="highway" v="secondary"/>
    <tag k="name" v="Gregory Cannon Valley Rd"/>
    <tag k="surface" v="paved"/>
  </node>
  <node id="133475061" version="2" timestamp="2007-11-26T17:33:57Z" uid="3555" user="Marc Schütz" changeset="625949" lat="-20.322392" lon="148.641312">
    <tag k="created_by" v="JOSM"/>
    <tag k="highway" v="secondary"/>
    <tag k="name" v="Gregory Cannon Valley Rd"/>
    <tag k="surface" v="paved"/>
  </node>
  <node id="133475095" version="1" timestamp="2007-11-26T00:56:55Z" uid="4467" user="Rosscoe" changeset="621649" lat="-20.322523" lon="148.641072">
    <tag k="created_by" v="JOSM"/>
    <tag k="highway" v="secondary"/>
    <tag k="name" v="Gregory Cannon Valley Rd"/>
    <tag k="surface" v="paved"/>
  </node>
  <node id="133475095" version="2" timestamp="2007-11-26T17:52:57Z" uid="3555" user="Marc Schütz" changeset="625949" lat="-20.322523" lon="148.641072">
    <tag k="created_by" v="JOSM"/>
    <tag k="highway" v="secondary"/>
    <tag k="name" v="Gregory Cannon Valley Rd"/>
    <tag k="surface" v="paved"/>
  </node>
  <node id="133475119" version="1" timestamp="2007-11-26T00:56:56Z" uid="4467" user="Rosscoe" changeset="621649" lat="-20.32264" lon="148.640823">
    <tag k="created_by" v="JOSM"/>
    <tag k="highway" v="secondary"/>
    <tag k="name" v="Gregory Cannon Valley Rd"/>
    <tag k="surface" v="paved"/>
  </node>
  <node id="133475119" version="2" timestamp="2007-11-26T17:31:54Z" uid="3555" user="Marc Schütz" changeset="625949" lat="-20.32264" lon="148.640823"/>
  <node id="133475147" version="1" timestamp="2007-11-26T00:56:57Z" uid="4467" user="Rosscoe" changeset="621649" lat="-20.32273" lon="148.640563">
    <tag k="created_by" v="JOSM"/>
    <tag k="highway" v="secondary"/>
    <tag k="name" v="Gregory Cannon Valley Rd"/>
    <tag k="surface" v="paved"/>
  </node>
  <node id="133475147" version="2" timestamp="2007-11-26T17:34:29Z" uid="3555" user="Marc Schütz" changeset="625949" lat="-20.32273" lon="148.640563">
    <tag k="created_by" v="JOSM"/>
    <tag k="highway" v="secondary"/>
    <tag k="name" v="Gregory Cannon Valley Rd"/>
    <tag k="surface" v="paved"/>
  </node>
  <node id="133475161" version="1" timestamp="2007-11-26T00:56:58Z" uid="4467" user="Rosscoe" changeset="621649" lat="-20.32285" lon="148.640022">
    <tag k="created_by" v="JOSM"/>
    <tag k="highway" v="secondary"/>
    <tag k="name" v="Gregory Cannon Valley Rd"/>
    <tag k="surface" v="paved"/>
  </node>
  <node id="133475161" version="2" timestamp="2007-11-26T17:29:25Z" uid="3555" user="Marc Schütz" changeset="625949" lat="-20.32285" lon="148.640022"/>
  <node id="133475181" version="1" timestamp="2007-11-26T00:56:59Z" uid="4467" user="Rosscoe" changeset="621649" lat="-20.322898" lon="148.639747">
    <tag k="created_by" v="JOSM"/>
    <tag k="highway" v="secondary"/>
    <tag k="name" v="Gregory Cannon Valley Rd"/>
    <tag k="surface" v="paved"/>
  </node>
  <node id="133475181" version="2" timestamp="2007-11-26T17:34:23Z" uid="3555" user="Marc Schütz" changeset="625949" lat="-20.322898" lon="148.639747">
    <tag k="created_by" v="JOSM"/>
    <tag k="highway" v="secondary"/>
    <tag k="name" v="Gregory Cannon Valley Rd"/>
    <tag k="surface" v="paved"/>
  </node>
  <node id="133475208" version="1" timestamp="2007-11-26T00:56:59Z" uid="4467" user="Rosscoe" changeset="621649" lat="-20.322947" lon="148.639472">
    <tag k="created_by" v="JOSM"/>
    <tag k="highway" v="secondary"/>
    <tag k="name" v="Gregory Cannon Valley Rd"/>
    <tag k="surface" v="paved"/>
  </node>
  <node id="133475208" version="2" timestamp="2007-11-26T17:51:12Z" uid="3555" user="Marc Schütz" changeset="625949" lat="-20.322947" lon="148.639472">
    <tag k="created_by" v="JOSM"/>
    <tag k="highway" v="secondary"/>
    <tag k="name" v="Gregory Cannon Valley Rd"/>
    <tag k="surface" v="paved"/>
  </node>
  <node id="133475225" version="1" timestamp="2007-11-26T00:57:00Z" uid="4467" user="Rosscoe" changeset="621649" lat="-20.322993" lon="148.639198">
    <tag k="created_by" v="JOSM"/>
    <tag k="highway" v="secondary"/>
    <tag k="name" v="Gregory Cannon Valley Rd"/>
    <tag k="surface" v="paved"/>
  </node>
  <node id="133475225" version="2" timestamp="2007-11-26T17:46:49Z" uid="3555" user="Marc Schütz" changeset="625949" lat="-20.322993" lon="148.639198">
    <tag k="created_by" v="JOSM"/>
    <tag k="highway" v="secondary"/>
    <tag k="name" v="Gregory Cannon Valley Rd"/>
    <tag k="surface" v="paved"/>
  </node>
  <node id="133475244" version="1" timestamp="2007-11-26T00:57:01Z" uid="4467" user="Rosscoe" changeset="621649" lat="-20.32308" lon="148.63865">
    <tag k="created_by" v="JOSM"/>
    <tag k="highway" v="secondary"/>
    <tag k="name" v="Gregory Cannon Valley Rd"/>
    <tag k="surface" v="paved"/>
  </node>
  <node id="133475244" version="2" timestamp="2007-11-26T17:30:45Z" uid="3555" user="Marc Schütz" changeset="625949" lat="-20.32308" lon="148.63865"/>
  <node id="133475266" version="1" timestamp="2007-11-26T00:57:02Z" uid="4467" user="Rosscoe" changeset="621649" lat="-20.323115" lon="148.638375">
    <tag k="created_by" v="JOSM"/>
    <tag k="highway" v="secondary"/>
    <tag k="name" v="Gregory Cannon Valley Rd"/>
    <tag k="surface" v="paved"/>
  </node>
  <node id="133475266" version="2" timestamp="2007-11-26T17:55:53Z" uid="3555" user="Marc Schütz" changeset="625949" lat="-20.323115" lon="148.638375">
    <tag k="created_by" v="JOSM"/>
    <tag k="highway" v="secondary"/>
    <tag k="name" v="Gregory Cannon Valley Rd"/>
    <tag k="surface" v="paved"/>
  </node>
  <node id="133475286" version="1" timestamp="2007-11-26T00:57:02Z" uid="4467" user="Rosscoe" changeset="621649" lat="-20.323138" lon="148.638098">
    <tag k="created_by" v="JOSM"/>
    <tag k="highway" v="secondary"/>
    <tag k="name" v="Gregory Cannon Valley Rd"/>
    <tag k="surface" v="paved"/>
  </node>
  <node id="133475286" version="2" timestamp="2007-11-26T17:28:03Z" uid="3555" user="Marc Schütz" changeset="625949" lat="-20.323138" lon="148.638098"/>
  <node id="133475306" version="1" timestamp="2007-11-26T00:57:03Z" uid="4467" user="Rosscoe" changeset="621649" lat="-20.323138" lon="148.63782">
    <tag k="created_by" v="JOSM"/>
    <tag k="highway" v="secondary"/>
    <tag k="name" v="Gregory Cannon Valley Rd"/>
    <tag k="surface" v="paved"/>
  </node>
  <node id="133475306" version="2" timestamp="2007-11-26T17:30:32Z" uid="3555" user="Marc Schütz" changeset="625949" lat="-20.323138" lon="148.63782"/>
  <node id="133475338" version="1" timestamp="2007-11-26T00:57:04Z" uid="4467" user="Rosscoe" changeset="621649" lat="-20.32309" lon="148.637267">
    <tag k="created_by" v="JOSM"/>
    <tag k="highway" v="secondary"/>
    <tag k="name" v="Gregory Cannon Valley Rd"/>
    <tag k="surface" v="paved"/>
  </node>
  <node id="133475338" version="2" timestamp="2007-11-26T17:42:29Z" uid="3555" user="Marc Schütz" changeset="625949" lat="-20.32309" lon="148.637267">
    <tag k="created_by" v="JOSM"/>
    <tag k="highway" v="secondary"/>
    <tag k="name" v="Gregory Cannon Valley Rd"/>
    <tag k="surface" v="paved"/>
  </node>
  <node id="133475366" version="1" timestamp="2007-11-26T00:57:05Z" uid="4467" user="Rosscoe" changeset="621649" lat="-20.323065" lon="148.63699">
    <tag k="created_by" v="JOSM"/>
    <tag k="highway" v="secondary"/>
    <tag k="name" v="Gregory Cannon Valley Rd"/>
    <tag k="surface" v="paved"/>
  </node>
  <node id="133475366" version="2" timestamp="2007-11-26T17:29:38Z" uid="3555" user="Marc Schütz" changeset="625949" lat="-20.323065" lon="148.63699"/>
  <node id="133475402" version="1" timestamp="2007-11-26T00:57:06Z" uid="4467" user="Rosscoe" changeset="621649" lat="-20.32306" lon="148.636715">
    <tag k="created_by" v="JOSM"/>
    <tag k="highway" v="secondary"/>
    <tag k="name" v="Gregory Cannon Valley Rd"/>
    <tag k="surface" v="paved"/>
  </node>
  <node id="133475402" version="2" timestamp="2007-11-26T17:30:39Z" uid="3555" user="Marc Schütz" changeset="625949" lat="-20.32306" lon="148.636715"/>
  <node id="133475436" version="1" timestamp="2007-11-26T00:57:06Z" uid="4467" user="Rosscoe" changeset="621649" lat="-20.323087" lon="148.636442">
    <tag k="created_by" v="JOSM"/>
    <tag k="highway" v="secondary"/>
    <tag k="name" v="Gregory Cannon Valley Rd"/>
    <tag k="surface" v="paved"/>
  </node>
  <node id="133475436" version="2" timestamp="2007-11-26T17:30:47Z" uid="3555" user="Marc Schütz" changeset="625949" lat="-20.323087" lon="148.636442"/>
  <node id="133475465" version="1" timestamp="2007-11-26T00:57:07Z" uid="4467" user="Rosscoe" changeset="621649" lat="-20.323252" lon="148.635923">
    <tag k="created_by" v="JOSM"/>
    <tag k="highway" v="secondary"/>
    <tag k="name" v="Gregory Cannon Valley Rd"/>
    <tag k="surface" v="paved"/>
  </node>
  <node id="133475465" version="2" timestamp="2007-11-26T17:28:03Z" uid="3555" user="Marc Schütz" changeset="625949" lat="-20.323252" lon="148.635923"/>
  <node id="133475490" version="1" timestamp="2007-11-26T00:57:08Z" uid="4467" user="Rosscoe" changeset="621649" lat="-20.323385" lon="148.635685">
    <tag k="created_by" v="JOSM"/>
    <tag k="highway" v="secondary"/>
    <tag k="name" v="Gregory Cannon Valley Rd"/>
    <tag k="surface" v="paved"/>
  </node>
  <node id="133475490" version="2" timestamp="2007-11-26T18:00:12Z" uid="3555" user="Marc Schütz" changeset="625949" lat="-20.323385" lon="148.635685">
    <tag k="created_by" v="JOSM"/>
    <tag k="highway" v="secondary"/>
    <tag k="name" v="Gregory Cannon Valley Rd"/>
    <tag k="surface" v="paved"/>
  </node>
  <node id="133475512" version="1" timestamp="2007-11-26T00:57:09Z" uid="4467" user="Rosscoe" changeset="621649" lat="-20.323553" lon="148.635472">
    <tag k="created_by" v="JOSM"/>
    <tag k="highway" v="secondary"/>
    <tag k="name" v="Gregory Cannon Valley Rd"/>
    <tag k="surface" v="paved"/>
  </node>
  <node id="133475512" version="2" timestamp="2007-11-26T17:29:49Z" uid="3555" user="Marc Schütz" changeset="625949" lat="-20.323553" lon="148.635472"/>
  <node id="133475540" version="1" timestamp="2007-11-26T00:57:09Z" uid="4467" user="Rosscoe" changeset="621649" lat="-20.323752" lon="148.635287">
    <tag k="created_by" v="JOSM"/>
    <tag k="highway" v="secondary"/>
    <tag k="name" v="Gregory Cannon Valley Rd"/>
    <tag k="surface" v="paved"/>
  </node>
  <node id="133475540" version="2" timestamp="2007-11-26T18:09:30Z" uid="3555" user="Marc Schütz" changeset="625949" lat="-20.323752" lon="148.635287">
    <tag k="created_by" v="JOSM"/>
    <tag k="highway" v="secondary"/>
    <tag k="name" v="Gregory Cannon Valley Rd"/>
    <tag k="surface" v="paved"/>
  </node>
  <node id="133475572" version="1" timestamp="2007-11-26T00:57:10Z" uid="4467" user="Rosscoe" changeset="621649" lat="-20.32422" lon="148.635015">
    <tag k="created_by" v="JOSM"/>
    <tag k="highway" v="secondary"/>
    <tag k="name" v="Gregory Cannon Valley Rd"/>
    <tag k="surface" v="paved"/>
  </node>
  <node id="133475572" version="2" timestamp="2007-11-26T18:07:02Z" uid="3555" user="Marc Schütz" changeset="625949" lat="-20.32422" lon="148.635015">
    <tag k="created_by" v="JOSM"/>
    <tag k="highway" v="secondary"/>
    <tag k="name" v="Gregory Cannon Valley Rd"/>
    <tag k="surface" v="paved"/>
  </node>
  <node id="133475605" version="1" timestamp="2007-11-26T00:57:11Z" uid="4467" user="Rosscoe" changeset="621649" lat="-20.32447" lon="148.634907">
    <tag k="created_by" v="JOSM"/>
    <tag k="highway" v="secondary"/>
    <tag k="name" v="Gregory Cannon Valley Rd"/>
    <tag k="surface" v="paved"/>
  </node>
  <node id="133475605" version="2" timestamp="2007-11-26T17:35:03Z" uid="3555" user="Marc Schütz" changeset="625949" lat="-20.32447" lon="148.634907">
    <tag k="created_by" v="JOSM"/>
    <tag k="highway" v="secondary"/>
    <tag k="name" v="Gregory Cannon Valley Rd"/>
    <tag k="surface" v="paved"/>
  </node>
  <node id="133475623" version="1" timestamp="2007-11-26T00:57:12Z" uid="4467" user="Rosscoe" changeset="621649" lat="-20.324717" lon="148.634793">
    <tag k="created_by" v="JOSM"/>
    <tag k="highway" v="secondary"/>
    <tag k="name" v="Gregory Cannon Valley Rd"/>
    <tag k="surface" v="paved"/>
  </node>
  <node id="133475623" version="2" timestamp="2007-11-26T18:04:26Z" uid="3555" user="Marc Schütz" changeset="625949" lat="-20.324717" lon="148.634793">
    <tag k="created_by" v="JOSM"/>
    <tag k="highway" v="secondary"/>
    <tag k="name" v="Gregory Cannon Valley Rd"/>
    <tag k="surface" v="paved"/>
  </node>
  <node id="133475649" version="1" timestamp="2007-11-26T00:57:13Z" uid="4467" user="Rosscoe" changeset="621649" lat="-20.324952" lon="148.63466">
    <tag k="created_by" v="JOSM"/>
    <tag k="highway" v="secondary"/>
    <tag k="name" v="Gregory Cannon Valley Rd"/>
    <tag k="surface" v="paved"/>
  </node>
  <node id="133475649" version="2" timestamp="2007-11-26T17:29:17Z" uid="3555" user="Marc Schütz" changeset="625949" lat="-20.324952" lon="148.63466"/>
  <node id="133475677" version="1" timestamp="2007-11-26T00:57:13Z" uid="4467" user="Rosscoe" changeset="621649" lat="-20.32536" lon="148.634307">
    <tag k="created_by" v="JOSM"/>
    <tag k="highway" v="secondary"/>
    <tag k="name" v="Gregory Cannon Valley Rd"/>
    <tag k="surface" v="paved"/>
  </node>
  <node id="133475677" version="2" timestamp="2007-11-26T17:42:15Z" uid="3555" user="Marc Schütz" changeset="625949" lat="-20.32536" lon="148.634307">
    <tag k="created_by" v="JOSM"/>
    <tag k="highway" v="secondary"/>
    <tag k="name" v="Gregory Cannon Valley Rd"/>
    <tag k="surface" v="paved"/>
  </node>
  <node id="133475704" version="1" timestamp="2007-11-26T00:57:14Z" uid="4467" user="Rosscoe" changeset="621649" lat="-20.325517" lon="148.634088">
    <tag k="created_by" v="JOSM"/>
    <tag k="highway" v="secondary"/>
    <tag k="name" v="Gregory Cannon Valley Rd"/>
    <tag k="surface" v="paved"/>
  </node>
  <node id="133475704" version="2" timestamp="2007-11-26T17:28:29Z" uid="3555" user="Marc Schütz" changeset="625949" lat="-20.325517" lon="148.634088"/>
  <node id="133475724" version="1" timestamp="2007-11-26T00:57:15Z" uid="4467" user="Rosscoe" changeset="621649" lat="-20.325645" lon="148.633845">
    <tag k="created_by" v="JOSM"/>
    <tag k="highway" v="secondary"/>
    <tag k="name" v="Gregory Cannon Valley Rd"/>
    <tag k="surface" v="paved"/>
  </node>
  <node id="133475724" version="2" timestamp="2007-11-26T17:52:24Z" uid="3555" user="Marc Schütz" changeset="625949" lat="-20.325645" lon="148.633845">
    <tag k="created_by" v="JOSM"/>
    <tag k="highway" v="secondary"/>
    <tag k="name" v="Gregory Cannon Valley Rd"/>
    <tag k="surface" v="paved"/>
  </node>
  <node id="133475741" version="1" timestamp="2007-11-26T00:57:16Z" uid="4467" user="Rosscoe" changeset="621649" lat="-20.325752" lon="148.633592">
    <tag k="created_by" v="JOSM"/>
    <tag k="highway" v="secondary"/>
    <tag k="name" v="Gregory Cannon Valley Rd"/>
    <tag k="surface" v="paved"/>
  </node>
  <node id="133475741" version="2" timestamp="2007-11-26T17:30:04Z" uid="3555" user="Marc Schütz" changeset="625949" lat="-20.325752" lon="148.633592"/>
  <node id="133475771" version="1" timestamp="2007-11-26T00:57:16Z" uid="4467" user="Rosscoe" changeset="621649" lat="-20.325945" lon="148.633077">
    <tag k="created_by" v="JOSM"/>
    <tag k="highway" v="secondary"/>
    <tag k="name" v="Gregory Cannon Valley Rd"/>
    <tag k="surface" v="paved"/>
  </node>
  <node id="133475771" version="2" timestamp="2007-11-26T17:52:15Z" uid="3555" user="Marc Schütz" changeset="625949" lat="-20.325945" lon="148.633077">
    <tag k="created_by" v="JOSM"/>
    <tag k="highway" v="secondary"/>
    <tag k="name" v="Gregory Cannon Valley Rd"/>
    <tag k="surface" v="paved"/>
  </node>
  <node id="133475798" version="1" timestamp="2007-11-26T00:57:17Z" uid="4467" user="Rosscoe" changeset="621649" lat="-20.32604" lon="148.632815">
    <tag k="created_by" v="JOSM"/>
    <tag k="highway" v="secondary"/>
    <tag k="name" v="Gregory Cannon Valley Rd"/>
    <tag k="surface" v="paved"/>
  </node>
  <node id="133475798" version="2" timestamp="2007-11-26T18:07:26Z" uid="3555" user="Marc Schütz" changeset="625949" lat="-20.32604" lon="148.632815">
    <tag k="created_by" v="JOSM"/>
    <tag k="highway" v="secondary"/>
    <tag k="name" v="Gregory Cannon Valley Rd"/>
    <tag k="surface" v="paved"/>
  </node>
  <node id="133475808" version="1" timestamp="2007-11-26T00:57:18Z" uid="4467" user="Rosscoe" changeset="621649" lat="-20.326135" lon="148.632557">
    <tag k="created_by" v="JOSM"/>
    <tag k="highway" v="secondary"/>
    <tag k="name" v="Gregory Cannon Valley Rd"/>
    <tag k="surface" v="paved"/>
  </node>
  <node id="133475808" version="2" timestamp="2007-11-26T17:49:47Z" uid="3555" user="Marc Schütz" changeset="625949" lat="-20.326135" lon="148.632557">
    <tag k="created_by" v="JOSM"/>
    <tag k="highway" v="secondary"/>
    <tag k="name" v="Gregory Cannon Valley Rd"/>
    <tag k="surface" v="paved"/>
  </node>
  <node id="133475812" version="1" timestamp="2007-11-26T00:57:19Z" uid="4467" user="Rosscoe" changeset="621649" lat="-20.326233" lon="148.632298">
    <tag k="created_by" v="JOSM"/>
    <tag k="highway" v="secondary"/>
    <tag k="name" v="Gregory Cannon Valley Rd"/>
    <tag k="surface" v="paved"/>
  </node>
  <node id="133475812" version="2" timestamp="2007-11-26T17:51:40Z" uid="3555" user="Marc Schütz" changeset="625949" lat="-20.326233" lon="148.632298">
    <tag k="created_by" v="JOSM"/>
    <tag k="highway" v="secondary"/>
    <tag k="name" v="Gregory Cannon Valley Rd"/>
    <tag k="surface" v="paved"/>
  </node>
  <node id="133475823" version="1" timestamp="2007-11-26T00:57:20Z" uid="4467" user="Rosscoe" changeset="621649" lat="-20.326427" lon="148.631778">
    <tag k="created_by" v="JOSM"/>
    <tag k="highway" v="secondary"/>
    <tag k="name" v="Gregory Cannon Valley Rd"/>
    <tag k="surface" v="paved"/>
  </node>
  <node id="133475823" version="2" timestamp="2007-11-26T17:36:37Z" uid="3555" user="Marc Schütz" changeset="625949" lat="-20.326427" lon="148.631778">
    <tag k="created_by" v="JOSM"/>
    <tag k="highway" v="secondary"/>
    <tag k="name" v="Gregory Cannon Valley Rd"/>
    <tag k="surface" v="paved"/>
  </node>
  <node id="133475840" version="1" timestamp="2007-11-26T00:57:20Z" uid="4467" user="Rosscoe" changeset="621649" lat="-20.326523" lon="148.631518">
    <tag k="created_by" v="JOSM"/>
    <tag k="highway" v="secondary"/>
    <tag k="name" v="Gregory Cannon Valley Rd"/>
    <tag k="surface" v="paved"/>
  </node>
  <node id="133475840" version="2" timestamp="2007-11-26T17:46:21Z" uid="3555" user="Marc Schütz" changeset="625949" lat="-20.326523" lon="148.631518">
    <tag k="created_by" v="JOSM"/>
    <tag k="highway" v="secondary"/>
    <tag k="name" v="Gregory Cannon Valley Rd"/>
    <tag k="surface" v="paved"/>
  </node>
  <node id="133475865" version="1" timestamp="2007-11-26T00:57:21Z" uid="4467" user="Rosscoe" changeset="621649" lat="-20.32662" lon="148.631255">
    <tag k="created_by" v="JOSM"/>
    <tag k="highway" v="secondary"/>
    <tag k="name" v="Gregory Cannon Valley Rd"/>
    <tag k="surface" v="paved"/>
  </node>
  <node id="133475865" version="2" timestamp="2007-11-26T17:56:59Z" uid="3555" user="Marc Schütz" changeset="625949" lat="-20.32662" lon="148.631255">
    <tag k="created_by" v="JOSM"/>
    <tag k="highway" v="secondary"/>
    <tag k="name" v="Gregory Cannon Valley Rd"/>
    <tag k="surface" v="paved"/>
  </node>
  <node id="133475886" version="1" timestamp="2007-11-26T00:57:22Z" uid="4467" user="Rosscoe" changeset="621649" lat="-20.326717" lon="148.630992">
    <tag k="created_by" v="JOSM"/>
    <tag k="highway" v="secondary"/>
    <tag k="name" v="Gregory Cannon Valley Rd"/>
    <tag k="surface" v="paved"/>
  </node>
  <node id="133475886" version="2" timestamp="2007-11-26T17:59:48Z" uid="3555" user="Marc Schütz" changeset="625949" lat="-20.326717" lon="148.630992">
    <tag k="created_by" v="JOSM"/>
    <tag k="highway" v="secondary"/>
    <tag k="name" v="Gregory Cannon Valley Rd"/>
    <tag k="surface" v="paved"/>
  </node>
  <node id="133475912" version="1" timestamp="2007-11-26T00:57:23Z" uid="4467" user="Rosscoe" changeset="621649" lat="-20.326913" lon="148.63047">
    <tag k="created_by" v="JOSM"/>
    <tag k="highway" v="secondary"/>
    <tag k="name" v="Gregory Cannon Valley Rd"/>
    <tag k="surface" v="paved"/>
  </node>
  <node id="133475912" version="2" timestamp="2007-11-26T17:52:41Z" uid="3555" user="Marc Schütz" changeset="625949" lat="-20.326913" lon="148.63047">
    <tag k="created_by" v="JOSM"/>
    <tag k="highway" v="secondary"/>
    <tag k="name" v="Gregory Cannon Valley Rd"/>
    <tag k="surface" v="paved"/>
  </node>
  <node id="133475940" version="1" timestamp="2007-11-26T00:57:24Z" uid="4467" user="Rosscoe" changeset="621649" lat="-20.327012" lon="148.630212">
    <tag k="created_by" v="JOSM"/>
    <tag k="highway" v="secondary"/>
    <tag k="name" v="Gregory Cannon Valley Rd"/>
    <tag k="surface" v="paved"/>
  </node>
  <node id="133475940" version="2" timestamp="2007-11-26T17:49:17Z" uid="3555" user="Marc Schütz" changeset="625949" lat="-20.327012" lon="148.630212">
    <tag k="created_by" v="JOSM"/>
    <tag k="highway" v="secondary"/>
    <tag k="name" v="Gregory Cannon Valley Rd"/>
    <tag k="surface" v="paved"/>
  </node>
  <node id="133475967" version="1" timestamp="2007-11-26T00:57:24Z" uid="4467" user="Rosscoe" changeset="621649" lat="-20.32711" lon="148.629955">
    <tag k="created_by" v="JOSM"/>
    <tag k="highway" v="secondary"/>
    <tag k="name" v="Gregory Cannon Valley Rd"/>
    <tag k="surface" v="paved"/>
  </node>
  <node id="133475967" version="2" timestamp="2007-11-26T17:58:15Z" uid="3555" user="Marc Schütz" changeset="625949" lat="-20.32711" lon="148.629955">
    <tag k="created_by" v="JOSM"/>
    <tag k="highway" v="secondary"/>
    <tag k="name" v="Gregory Cannon Valley Rd"/>
    <tag k="surface" v="paved"/>
  </node>
  <node id="133475998" version="1" timestamp="2007-11-26T00:57:25Z" uid="4467" user="Rosscoe" changeset="621649" lat="-20.327213" lon="148.629702">
    <tag k="created_by" v="JOSM"/>
    <tag k="highway" v="secondary"/>
    <tag k="name" v="Gregory Cannon Valley Rd"/>
    <tag k="surface" v="paved"/>
  </node>
  <node id="133475998" version="2" timestamp="2007-11-26T17:31:20Z" uid="3555" user="Marc Schütz" changeset="625949" lat="-20.327213" lon="148.629702"/>
  <node id="133476017" version="1" timestamp="2007-11-26T00:57:26Z" uid="4467" user="Rosscoe" changeset="621649" lat="-20.327435" lon="148.629205">
    <tag k="created_by" v="JOSM"/>
    <tag k="highway" v="secondary"/>
    <tag k="name" v="Gregory Cannon Valley Rd"/>
    <tag k="surface" v="paved"/>
  </node>
  <node id="133476017" version="2" timestamp="2007-11-26T17:56:32Z" uid="3555" user="Marc Schütz" changeset="625949" lat="-20.327435" lon="148.629205">
    <tag k="created_by" v="JOSM"/>
    <tag k="highway" v="secondary"/>
    <tag k="name" v="Gregory Cannon Valley Rd"/>
    <tag k="surface" v="paved"/>
  </node>
  <node id="133476044" version="1" timestamp="2007-11-26T00:57:27Z" uid="4467" user="Rosscoe" changeset="621649" lat="-20.32755" lon="148.62896">
    <tag k="created_by" v="JOSM"/>
    <tag k="highway" v="secondary"/>
    <tag k="name" v="Gregory Cannon Valley Rd"/>
    <tag k="surface" v="paved"/>
  </node>
  <node id="133476044" version="2" timestamp="2007-11-26T18:04:39Z" uid="3555" user="Marc Schütz" changeset="625949" lat="-20.32755" lon="148.62896">
    <tag k="created_by" v="JOSM"/>
    <tag k="highway" v="secondary"/>
    <tag k="name" v="Gregory Cannon Valley Rd"/>
    <tag k="surface" v="paved"/>
  </node>
  <node id="133476086" version="1" timestamp="2007-11-26T00:57:27Z" uid="4467" user="Rosscoe" changeset="621649" lat="-20.327667" lon="148.628717">
    <tag k="created_by" v="JOSM"/>
    <tag k="highway" v="secondary"/>
    <tag k="name" v="Gregory Cannon Valley Rd"/>
    <tag k="surface" v="paved"/>
  </node>
  <node id="133476086" version="2" timestamp="2007-11-26T17:34:32Z" uid="3555" user="Marc Schütz" changeset="625949" lat="-20.327667" lon="148.628717">
    <tag k="created_by" v="JOSM"/>
    <tag k="highway" v="secondary"/>
    <tag k="name" v="Gregory Cannon Valley Rd"/>
    <tag k="surface" v="paved"/>
  </node>
  <node id="133476097" version="1" timestamp="2007-11-26T00:57:28Z" uid="4467" user="Rosscoe" changeset="621649" lat="-20.327783" lon="148.628475">
    <tag k="created_by" v="JOSM"/>
    <tag k="highway" v="secondary"/>
    <tag k="name" v="Gregory Cannon Valley Rd"/>
    <tag k="surface" v="paved"/>
  </node>
  <node id="133476097" version="2" timestamp="2007-11-26T17:40:24Z" uid="3555" user="Marc Schütz" changeset="625949" lat="-20.327783" lon="148.628475">
    <tag k="created_by" v="JOSM"/>
    <tag k="highway" v="secondary"/>
    <tag k="name" v="Gregory Cannon Valley Rd"/>
    <tag k="surface" v="paved"/>
  </node>
  <node id="133476124" version="1" timestamp="2007-11-26T00:57:29Z" uid="4467" user="Rosscoe" changeset="621649" lat="-20.32802" lon="148.627993">
    <tag k="created_by" v="JOSM"/>
    <tag k="highway" v="secondary"/>
    <tag k="name" v="Gregory Cannon Valley Rd"/>
    <tag k="surface" v="paved"/>
  </node>
  <node id="133476124" version="2" timestamp="2007-11-26T17:50:25Z" uid="3555" user="Marc Schütz" changeset="625949" lat="-20.32802" lon="148.627993">
    <tag k="created_by" v="JOSM"/>
    <tag k="highway" v="secondary"/>
    <tag k="name" v="Gregory Cannon Valley Rd"/>
    <tag k="surface" v="paved"/>
  </node>
  <node id="133476156" version="1" timestamp="2007-11-26T00:57:30Z" uid="4467" user="Rosscoe" changeset="621649" lat="-20.32814" lon="148.627753">
    <tag k="created_by" v="JOSM"/>
    <tag k="highway" v="secondary"/>
    <tag k="name" v="Gregory Cannon Valley Rd"/>
    <tag k="surface" v="paved"/>
  </node>
  <node id="133476156" version="2" timestamp="2007-11-26T17:30:40Z" uid="3555" user="Marc Schütz" changeset="625949" lat="-20.32814" lon="148.627753"/>
  <node id="133476192" version="1" timestamp="2007-11-26T00:57:31Z" uid="4467" user="Rosscoe" changeset="621649" lat="-20.328262" lon="148.627515">
    <tag k="created_by" v="JOSM"/>
    <tag k="highway" v="secondary"/>
    <tag k="name" v="Gregory Cannon Valley Rd"/>
    <tag k="surface" v="paved"/>
  </node>
  <node id="133476192" version="2" timestamp="2007-11-26T17:51:17Z" uid="3555" user="Marc Schütz" changeset="625949" lat="-20.328262" lon="148.627515">
    <tag k="created_by" v="JOSM"/>
    <tag k="highway" v="secondary"/>
    <tag k="name" v="Gregory Cannon Valley Rd"/>
    <tag k="surface" v="paved"/>
  </node>
  <node id="133476223" version="1" timestamp="2007-11-26T00:57:31Z" uid="4467" user="Rosscoe" changeset="621649" lat="-20.328385" lon="148.627277">
    <tag k="created_by" v="JOSM"/>
    <tag k="highway" v="secondary"/>
    <tag k="name" v="Gregory Cannon Valley Rd"/>
    <tag k="surface" v="paved"/>
  </node>
  <node id="133476223" version="2" timestamp="2007-11-26T17:33:39Z" uid="3555" user="Marc Schütz" changeset="625949" lat="-20.328385" lon="148.627277">
    <tag k="created_by" v="JOSM"/>
    <tag k="highway" v="secondary"/>
    <tag k="name" v="Gregory Cannon Valley Rd"/>
    <tag k="surface" v="paved"/>
  </node>
  <node id="133476253" version="1" timestamp="2007-11-26T00:57:32Z" uid="4467" user="Rosscoe" changeset="621649" lat="-20.328652" lon="148.626813">
    <tag k="created_by" v="JOSM"/>
    <tag k="highway" v="secondary"/>
    <tag k="name" v="Gregory Cannon Valley Rd"/>
    <tag k="surface" v="paved"/>
  </node>
  <node id="133476253" version="2" timestamp="2007-11-26T18:05:13Z" uid="3555" user="Marc Schütz" changeset="625949" lat="-20.328652" lon="148.626813">
    <tag k="created_by" v="JOSM"/>
    <tag k="highway" v="secondary"/>
    <tag k="name" v="Gregory Cannon Valley Rd"/>
    <tag k="surface" v="paved"/>
  </node>
  <node id="133476279" version="1" timestamp="2007-11-26T00:57:33Z" uid="4467" user="Rosscoe" changeset="621649" lat="-20.328797" lon="148.626588">
    <tag k="created_by" v="JOSM"/>
    <tag k="highway" v="secondary"/>
    <tag k="name" v="Gregory Cannon Valley Rd"/>
    <tag k="surface" v="paved"/>
  </node>
  <node id="133476279" version="2" timestamp="2007-11-26T17:33:12Z" uid="3555" user="Marc Schütz" changeset="625949" lat="-20.328797" lon="148.626588">
    <tag k="created_by" v="JOSM"/>
    <tag k="highway" v="secondary"/>
    <tag k="name" v="Gregory Cannon Valley Rd"/>
    <tag k="surface" v="paved"/>
  </node>
  <node id="133476309" version="1" timestamp="2007-11-26T00:57:34Z" uid="4467" user="Rosscoe" changeset="621649" lat="-20.328948" lon="148.626368">
    <tag k="created_by" v="JOSM"/>
    <tag k="highway" v="secondary"/>
    <tag k="name" v="Gregory Cannon Valley Rd"/>
    <tag k="surface" v="paved"/>
  </node>
  <node id="133476309" version="2" timestamp="2007-11-26T17:31:53Z" uid="3555" user="Marc Schütz" changeset="625949" lat="-20.328948" lon="148.626368"/>
  <node id="133476337" version="1" timestamp="2007-11-26T00:57:34Z" uid="4467" user="Rosscoe" changeset="621649" lat="-20.329105" lon="148.626153">
    <tag k="created_by" v="JOSM"/>
    <tag k="highway" v="secondary"/>
    <tag k="name" v="Gregory Cannon Valley Rd"/>
    <tag k="surface" v="paved"/>
  </node>
  <node id="133476337" version="2" timestamp="2007-11-26T17:38:01Z" uid="3555" user="Marc Schütz" changeset="625949" lat="-20.329105" lon="148.626153">
    <tag k="created_by" v="JOSM"/>
    <tag k="highway" v="secondary"/>
    <tag k="name" v="Gregory Cannon Valley Rd"/>
    <tag k="surface" v="paved"/>
  </node>
  <node id="133476365" version="1" timestamp="2007-11-26T00:57:35Z" uid="4467" user="Rosscoe" changeset="621649" lat="-20.32943" lon="148.625733">
    <tag k="created_by" v="JOSM"/>
    <tag k="highway" v="secondary"/>
    <tag k="name" v="Gregory Cannon Valley Rd"/>
    <tag k="surface" v="paved"/>
  </node>
  <node id="133476365" version="2" timestamp="2007-11-26T17:38:39Z" uid="3555" user="Marc Schütz" changeset="625949" lat="-20.32943" lon="148.625733">
    <tag k="created_by" v="JOSM"/>
    <tag k="highway" v="secondary"/>
    <tag k="name" v="Gregory Cannon Valley Rd"/>
    <tag k="surface" v="paved"/>
  </node>
  <node id="133476382" version="1" timestamp="2007-11-26T00:57:36Z" uid="4467" user="Rosscoe" changeset="621649" lat="-20.329593" lon="148.625523">
    <tag k="created_by" v="JOSM"/>
    <tag k="highway" v="secondary"/>
    <tag k="name" v="Gregory Cannon Valley Rd"/>
    <tag k="surface" v="paved"/>
  </node>
  <node id="133476382" version="2" timestamp="2007-11-26T17:36:02Z" uid="3555" user="Marc Schütz" changeset="625949" lat="-20.329593" lon="148.625523">
    <tag k="created_by" v="JOSM"/>
    <tag k="highway" v="secondary"/>
    <tag k="name" v="Gregory Cannon Valley Rd"/>
    <tag k="surface" v="paved"/>
  </node>
  <node id="133476409" version="1" timestamp="2007-11-26T00:57:37Z" uid="4467" user="Rosscoe" changeset="621649" lat="-20.329757" lon="148.625315">
    <tag k="created_by" v="JOSM"/>
    <tag k="highway" v="secondary"/>
    <tag k="name" v="Gregory Cannon Valley Rd"/>
    <tag k="surface" v="paved"/>
  </node>
  <node id="133476409" version="2" timestamp="2007-11-26T18:08:32Z" uid="3555" user="Marc Schütz" changeset="625949" lat="-20.329757" lon="148.625315">
    <tag k="created_by" v="JOSM"/>
    <tag k="highway" v="secondary"/>
    <tag k="name" v="Gregory Cannon Valley Rd"/>
    <tag k="surface" v="paved"/>
  </node>
  <node id="133476438" version="1" timestamp="2007-11-26T00:57:38Z" uid="4467" user="Rosscoe" changeset="621649" lat="-20.329922" lon="148.625107">
    <tag k="created_by" v="JOSM"/>
    <tag k="highway" v="secondary"/>
    <tag k="name" v="Gregory Cannon Valley Rd"/>
    <tag k="surface" v="paved"/>
  </node>
  <node id="133476438" version="2" timestamp="2007-11-26T17:58:16Z" uid="3555" user="Marc Schütz" changeset="625949" lat="-20.329922" lon="148.625107">
    <tag k="created_by" v="JOSM"/>
    <tag k="highway" v="secondary"/>
    <tag k="name" v="Gregory Cannon Valley Rd"/>
    <tag k="surface" v="paved"/>
  </node>
  <node id="133476466" version="1" timestamp="2007-11-26T00:57:39Z" uid="4467" user="Rosscoe" changeset="621649" lat="-20.330248" lon="148.624692">
    <tag k="created_by" v="JOSM"/>
    <tag k="highway" v="secondary"/>
    <tag k="name" v="Gregory Cannon Valley Rd"/>
    <tag k="surface" v="paved"/>
  </node>
  <node id="133476466" version="2" timestamp="2007-11-26T17:58:41Z" uid="3555" user="Marc Schütz" changeset="625949" lat="-20.330248" lon="148.624692">
    <tag k="created_by" v="JOSM"/>
    <tag k="highway" v="secondary"/>
    <tag k="name" v="Gregory Cannon Valley Rd"/>
    <tag k="surface" v="paved"/>
  </node>
  <node id="133476487" version="1" timestamp="2007-11-26T00:57:39Z" uid="4467" user="Rosscoe" changeset="621649" lat="-20.330413" lon="148.624483">
    <tag k="created_by" v="JOSM"/>
    <tag k="highway" v="secondary"/>
    <tag k="name" v="Gregory Cannon Valley Rd"/>
    <tag k="surface" v="paved"/>
  </node>
  <node id="133476487" version="2" timestamp="2007-11-26T17:42:36Z" uid="3555" user="Marc Schütz" changeset="625949" lat="-20.330413" lon="148.624483">
    <tag k="created_by" v="JOSM"/>
    <tag k="highway" v="secondary"/>
    <tag k="name" v="Gregory Cannon Valley Rd"/>
    <tag k="surface" v="paved"/>
  </node>
  <node id="133476515" version="1" timestamp="2007-11-26T00:57:40Z" uid="4467" user="Rosscoe" changeset="621649" lat="-20.330573" lon="148.624273">
    <tag k="created_by" v="JOSM"/>
    <tag k="highway" v="secondary"/>
    <tag k="name" v="Gregory Cannon Valley Rd"/>
    <tag k="surface" v="paved"/>
  </node>
  <node id="133476515" version="2" timestamp="2007-11-26T18:01:20Z" uid="3555" user="Marc Schütz" changeset="625949" lat="-20.330573" lon="148.624273">
    <tag k="created_by" v="JOSM"/>
    <tag k="highway" v="secondary"/>
    <tag k="name" v="Gregory Cannon Valley Rd"/>
    <tag k="surface" v="paved"/>
  </node>
  <node id="133476542" version="1" timestamp="2007-11-26T00:57:41Z" uid="4467" user="Rosscoe" changeset="621649" lat="-20.330725" lon="148.624055">
    <tag k="created_by" v="JOSM"/>
    <tag k="highway" v="secondary"/>
    <tag k="name" v="Gregory Cannon Valley Rd"/>
    <tag k="surface" v="paved"/>
  </node>
  <node id="133476542" version="2" timestamp="2007-11-26T17:31:58Z" uid="3555" user="Marc Schütz" changeset="625949" lat="-20.330725" lon="148.624055"/>
  <node id="133476571" version="1" timestamp="2007-11-26T00:57:42Z" uid="4467" user="Rosscoe" changeset="621649" lat="-20.330957" lon="148.623575">
    <tag k="created_by" v="JOSM"/>
    <tag k="highway" v="secondary"/>
    <tag k="name" v="Gregory Cannon Valley Rd"/>
    <tag k="surface" v="paved"/>
  </node>
  <node id="133476571" version="2" timestamp="2007-11-26T17:29:51Z" uid="3555" user="Marc Schütz" changeset="625949" lat="-20.330957" lon="148.623575"/>
  <node id="133476601" version="1" timestamp="2007-11-26T00:57:43Z" uid="4467" user="Rosscoe" changeset="621649" lat="-20.331025" lon="148.623317">
    <tag k="created_by" v="JOSM"/>
    <tag k="highway" v="secondary"/>
    <tag k="name" v="Gregory Cannon Valley Rd"/>
    <tag k="surface" v="paved"/>
  </node>
  <node id="133476601" version="2" timestamp="2007-11-26T17:30:26Z" uid="3555" user="Marc Schütz" changeset="625949" lat="-20.331025" lon="148.623317"/>
  <node id="133476630" version="1" timestamp="2007-11-26T00:57:43Z" uid="4467" user="Rosscoe" changeset="621649" lat="-20.331053" lon="148.623045">
    <tag k="created_by" v="JOSM"/>
    <tag k="highway" v="secondary"/>
    <tag k="name" v="Gregory Cannon Valley Rd"/>
    <tag k="surface" v="paved"/>
  </node>
  <node id="133476630" version="2" timestamp="2007-11-26T17:32:28Z" uid="3555" user="Marc Schütz" changeset="625949" lat="-20.331053" lon="148.623045"/>
  <node id="133476658" version="1" timestamp="2007-11-26T00:57:44Z" uid="4467" user="Rosscoe" changeset="621649" lat="-20.331053" lon="148.622767">
    <tag k="created_by" v="JOSM"/>
    <tag k="highway" v="secondary"/>
    <tag k="name" v="Gregory Cannon Valley Rd"/>
    <tag k="surface" v="paved"/>
  </node>
  <node id="133476658" version="2" timestamp="2007-11-26T17:32:36Z" uid="3555" user="Marc Schütz" changeset="625949" lat="-20.331053" lon="148.622767"/>
  <node id="133476689" version="1" timestamp="2007-11-26T00:57:45Z" uid="4467" user="Rosscoe" changeset="621649" lat="-20.331012" lon="148.622213">
    <tag k="created_by" v="JOSM"/>
    <tag k="highway" v="secondary"/>
    <tag k="name" v="Gregory Cannon Valley Rd"/>
    <tag k="surface" v="paved"/>
  </node>
  <node id="133476689" version="2" timestamp="2007-11-26T17:58:04Z" uid="3555" user="Marc Schütz" changeset="625949" lat="-20.331012" lon="148.622213">
    <tag k="created_by" v="JOSM"/>
    <tag k="highway" v="secondary"/>
    <tag k="name" v="Gregory Cannon Valley Rd"/>
    <tag k="surface" v="paved"/>
  </node>
  <node id="133476714" version="1" timestamp="2007-11-26T00:57:46Z" uid="4467" user="Rosscoe" changeset="621649" lat="-20.330988" lon="148.621938">
    <tag k="created_by" v="JOSM"/>
    <tag k="highway" v="secondary"/>
    <tag k="name" v="Gregory Cannon Valley Rd"/>
    <tag k="surface" v="paved"/>
  </node>
  <node id="133476714" version="2" timestamp="2007-11-26T18:02:31Z" uid="3555" user="Marc Schütz" changeset="625949" lat="-20.330988" lon="148.621938">
    <tag k="created_by" v="JOSM"/>
    <tag k="highway" v="secondary"/>
    <tag k="name" v="Gregory Cannon Valley Rd"/>
    <tag k="surface" v="paved"/>
  </node>
  <node id="133476742" version="1" timestamp="2007-11-26T00:57:46Z" uid="4467" user="Rosscoe" changeset="621649" lat="-20.330963" lon="148.621663">
    <tag k="created_by" v="JOSM"/>
    <tag k="highway" v="secondary"/>
    <tag k="name" v="Gregory Cannon Valley Rd"/>
    <tag k="surface" v="paved"/>
  </node>
  <node id="133476742" version="2" timestamp="2007-11-26T18:01:59Z" uid="3555" user="Marc Schütz" changeset="625949" lat="-20.330963" lon="148.621663">
    <tag k="created_by" v="JOSM"/>
    <tag k="highway" v="secondary"/>
    <tag k="name" v="Gregory Cannon Valley Rd"/>
    <tag k="surface" v="paved"/>
  </node>
  <node id="133476775" version="1" timestamp="2007-11-26T00:57:47Z" uid="4467" user="Rosscoe" changeset="621649" lat="-20.330938" lon="148.62139">
    <tag k="created_by" v="JOSM"/>
    <tag k="highway" v="secondary"/>
    <tag k="name" v="Gregory Cannon Valley Rd"/>
    <tag k="surface" v="paved"/>
  </node>
  <node id="133476775" version="2" timestamp="2007-11-26T17:42:24Z" uid="3555" user="Marc Schütz" changeset="625949" lat="-20.330938" lon="148.62139">
    <tag k="created_by" v="JOSM"/>
    <tag k="highway" v="secondary"/>
    <tag k="name" v="Gregory Cannon Valley Rd"/>
    <tag k="surface" v="paved"/>
  </node>
  <node id="133476805" version="1" timestamp="2007-11-26T00:57:48Z" uid="4467" user="Rosscoe" changeset="621649" lat="-20.330893" lon="148.620845">
    <tag k="created_by" v="JOSM"/>
    <tag k="highway" v="secondary"/>
    <tag k="name" v="Gregory Cannon Valley Rd"/>
    <tag k="surface" v="paved"/>
  </node>
  <node id="133476805" version="2" timestamp="2007-11-26T17:50:00Z" uid="3555" user="Marc Schütz" changeset="625949" lat="-20.330893" lon="148.620845">
    <tag k="created_by" v="JOSM"/>
    <tag k="highway" v="secondary"/>
    <tag k="name" v="Gregory Cannon Valley Rd"/>
    <tag k="surface" v="paved"/>
  </node>
  <node id="133476831" version="1" timestamp="2007-11-26T00:57:49Z" uid="4467" user="Rosscoe" changeset="621649" lat="-20.330872" lon="148.620573">
    <tag k="created_by" v="JOSM"/>
    <tag k="highway" v="secondary"/>
    <tag k="name" v="Gregory Cannon Valley Rd"/>
    <tag k="surface" v="paved"/>
  </node>
  <node id="133476831" version="2" timestamp="2007-11-26T17:35:35Z" uid="3555" user="Marc Schütz" changeset="625949" lat="-20.330872" lon="148.620573">
    <tag k="created_by" v="JOSM"/>
    <tag k="highway" v="secondary"/>
    <tag k="name" v="Gregory Cannon Valley Rd"/>
    <tag k="surface" v="paved"/>
  </node>
  <node id="133476861" version="1" timestamp="2007-11-26T00:57:49Z" uid="4467" user="Rosscoe" changeset="621649" lat="-20.33085" lon="148.620303">
    <tag k="created_by" v="JOSM"/>
    <tag k="highway" v="secondary"/>
    <tag k="name" v="Gregory Cannon Valley Rd"/>
    <tag k="surface" v="paved"/>
  </node>
  <node id="133476861" version="2" timestamp="2007-11-26T17:41:14Z" uid="3555" user="Marc Schütz" changeset="625949" lat="-20.33085" lon="148.620303">
    <tag k="created_by" v="JOSM"/>
    <tag k="highway" v="secondary"/>
    <tag k="name" v="Gregory Cannon Valley Rd"/>
    <tag k="surface" v="paved"/>
  </node>
  <node id="133476895" version="1" timestamp="2007-11-26T00:57:50Z" uid="4467" user="Rosscoe" changeset="621649" lat="-20.330828" lon="148.620033">
    <tag k="created_by" v="JOSM"/>
    <tag k="highway" v="secondary"/>
    <tag k="name" v="Gregory Cannon Valley Rd"/>
    <tag k="surface" v="paved"/>
  </node>
  <node id="133476895" version="2" timestamp="2007-11-26T17:42:16Z" uid="3555" user="Marc Schütz" changeset="625949" lat="-20.330828" lon="148.620033">
    <tag k="created_by" v="JOSM"/>
    <tag k="highway" v="secondary"/>
    <tag k="name" v="Gregory Cannon Valley Rd"/>
    <tag k="surface" v="paved"/>
  </node>
  <node id="133476925" version="1" timestamp="2007-11-26T00:57:51Z" uid="4467" user="Rosscoe" changeset="621649" lat="-20.330787" lon="148.619492">
    <tag k="created_by" v="JOSM"/>
    <tag k="highway" v="secondary"/>
    <tag k="name" v="Gregory Cannon Valley Rd"/>
    <tag k="surface" v="paved"/>
  </node>
  <node id="133476925" version="2" timestamp="2007-11-26T17:41:35Z" uid="3555" user="Marc Schütz" changeset="625949" lat="-20.330787" lon="148.619492">
    <tag k="created_by" v="JOSM"/>
    <tag k="highway" v="secondary"/>
    <tag k="name" v="Gregory Cannon Valley Rd"/>
    <tag k="surface" v="paved"/>
  </node>
  <node id="133476956" version="1" timestamp="2007-11-26T00:57:52Z" uid="4467" user="Rosscoe" changeset="621649" lat="-20.330763" lon="148.619222">
    <tag k="created_by" v="JOSM"/>
    <tag k="highway" v="secondary"/>
    <tag k="name" v="Gregory Cannon Valley Rd"/>
    <tag k="surface" v="paved"/>
  </node>
  <node id="133476956" version="2" timestamp="2007-11-26T17:29:49Z" uid="3555" user="Marc Schütz" changeset="625949" lat="-20.330763" lon="148.619222"/>
  <node id="133476993" version="1" timestamp="2007-11-26T00:57:53Z" uid="4467" user="Rosscoe" changeset="621649" lat="-20.330743" lon="148.61895">
    <tag k="created_by" v="JOSM"/>
    <tag k="highway" v="secondary"/>
    <tag k="name" v="Gregory Cannon Valley Rd"/>
    <tag k="surface" v="paved"/>
  </node>
  <node id="133476993" version="2" timestamp="2007-11-26T17:44:40Z" uid="3555" user="Marc Schütz" changeset="625949" lat="-20.330743" lon="148.61895">
    <tag k="created_by" v="JOSM"/>
    <tag k="highway" v="secondary"/>
    <tag k="name" v="Gregory Cannon Valley Rd"/>
    <tag k="surface" v="paved"/>
  </node>
  <node id="133477020" version="1" timestamp="2007-11-26T00:57:53Z" uid="4467" user="Rosscoe" changeset="621649" lat="-20.330722" lon="148.618682">
    <tag k="created_by" v="JOSM"/>
    <tag k="highway" v="secondary"/>
    <tag k="name" v="Gregory Cannon Valley Rd"/>
    <tag k="surface" v="paved"/>
  </node>
  <node id="133477020" version="2" timestamp="2007-11-26T17:44:22Z" uid="3555" user="Marc Schütz" changeset="625949" lat="-20.330722" lon="148.618682">
    <tag k="created_by" v="JOSM"/>
    <tag k="highway" v="secondary"/>
    <tag k="name" v="Gregory Cannon Valley Rd"/>
    <tag k="surface" v="paved"/>
  </node>
  <node id="133477044" version="1" timestamp="2007-11-26T00:57:54Z" uid="4467" user="Rosscoe" changeset="621649" lat="-20.330687" lon="148.618143">
    <tag k="created_by" v="JOSM"/>
    <tag k="highway" v="secondary"/>
    <tag k="name" v="Gregory Cannon Valley Rd"/>
    <tag k="surface" v="paved"/>
  </node>
  <node id="133477044" version="2" timestamp="2007-11-26T17:46:48Z" uid="3555" user="Marc Schütz" changeset="625949" lat="-20.330687" lon="148.618143">
    <tag k="created_by" v="JOSM"/>
    <tag k="highway" v="secondary"/>
    <tag k="name" v="Gregory Cannon Valley Rd"/>
    <tag k="surface" v="paved"/>
  </node>
  <node id="133477073" version="1" timestamp="2007-11-26T00:57:55Z" uid="4467" user="Rosscoe" changeset="621649" lat="-20.330673" lon="148.617875">
    <tag k="created_by" v="JOSM"/>
    <tag k="highway" v="secondary"/>
    <tag k="name" v="Gregory Cannon Valley Rd"/>
    <tag k="surface" v="paved"/>
  </node>
  <node id="133477073" version="2" timestamp="2007-11-26T17:28:09Z" uid="3555" user="Marc Schütz" changeset="625949" lat="-20.330673" lon="148.617875"/>
  <node id="133477097" version="1" timestamp="2007-11-26T00:57:56Z" uid="4467" user="Rosscoe" changeset="621649" lat="-20.330665" lon="148.617607">
    <tag k="created_by" v="JOSM"/>
    <tag k="highway" v="secondary"/>
    <tag k="name" v="Gregory Cannon Valley Rd"/>
    <tag k="surface" v="paved"/>
  </node>
  <node id="133477097" version="2" timestamp="2007-11-26T17:44:54Z" uid="3555" user="Marc Schütz" changeset="625949" lat="-20.330665" lon="148.617607">
    <tag k="created_by" v="JOSM"/>
    <tag k="highway" v="secondary"/>
    <tag k="name" v="Gregory Cannon Valley Rd"/>
    <tag k="surface" v="paved"/>
  </node>
  <node id="133477127" version="1" timestamp="2007-11-26T00:57:56Z" uid="4467" user="Rosscoe" changeset="621649" lat="-20.330662" lon="148.617338">
    <tag k="created_by" v="JOSM"/>
    <tag k="highway" v="secondary"/>
    <tag k="name" v="Gregory Cannon Valley Rd"/>
    <tag k="surface" v="paved"/>
  </node>
  <node id="133477127" version="2" timestamp="2007-11-26T17:31:49Z" uid="3555" user="Marc Schütz" changeset="625949" lat="-20.330662" lon="148.617338"/>
  <node id="133477156" version="1" timestamp="2007-11-26T00:57:57Z" uid="4467" user="Rosscoe" changeset="621649" lat="-20.330673" lon="148.6168">
    <tag k="created_by" v="JOSM"/>
    <tag k="highway" v="secondary"/>
    <tag k="name" v="Gregory Cannon Valley Rd"/>
    <tag k="surface" v="paved"/>
  </node>
  <node id="133477156" version="2" timestamp="2007-11-26T17:28:02Z" uid="3555" user="Marc Schütz" changeset="625949" lat="-20.330673" lon="148.6168"/>
  <node id="133477179" version="1" timestamp="2007-11-26T00:57:58Z" uid="4467" user="Rosscoe" changeset="621649" lat="-20.330687" lon="148.61653">
    <tag k="created_by" v="JOSM"/>
    <tag k="highway" v="secondary"/>
    <tag k="name" v="Gregory Cannon Valley Rd"/>
    <tag k="surface" v="paved"/>
  </node>
  <node id="133477179" version="2" timestamp="2007-11-26T17:59:44Z" uid="3555" user="Marc Schütz" changeset="625949" lat="-20.330687" lon="148.61653">
    <tag k="created_by" v="JOSM"/>
    <tag k="highway" v="secondary"/>
    <tag k="name" v="Gregory Cannon Valley Rd"/>
    <tag k="surface" v="paved"/>
  </node>
  <node id="133477199" version="1" timestamp="2007-11-26T00:57:59Z" uid="4467" user="Rosscoe" changeset="621649" lat="-20.330702" lon="148.616258">
    <tag k="created_by" v="JOSM"/>
    <tag k="highway" v="secondary"/>
    <tag k="name" v="Gregory Cannon Valley Rd"/>
    <tag k="surface" v="paved"/>
  </node>
  <node id="133477199" version="2" timestamp="2007-11-26T18:07:57Z" uid="3555" user="Marc Schütz" changeset="625949" lat="-20.330702" lon="148.616258">
    <tag k="created_by" v="JOSM"/>
    <tag k="highway" v="secondary"/>
    <tag k="name" v="Gregory Cannon Valley Rd"/>
    <tag k="surface" v="paved"/>
  </node>
  <node id="133477220" version="1" timestamp="2007-11-26T00:58:00Z" uid="4467" user="Rosscoe" changeset="621649" lat="-20.330715" lon="148.615987">
    <tag k="created_by" v="JOSM"/>
    <tag k="highway" v="secondary"/>
    <tag k="name" v="Gregory Cannon Valley Rd"/>
    <tag k="surface" v="paved"/>
  </node>
  <node id="133477220" version="2" timestamp="2007-11-26T17:27:36Z" uid="3555" user="Marc Schütz" changeset="625949" lat="-20.330715" lon="148.615987"/>
  <node id="133477241" version="1" timestamp="2007-11-26T00:58:00Z" uid="4467" user="Rosscoe" changeset="621649" lat="-20.3307" lon="148.615437">
    <tag k="created_by" v="JOSM"/>
    <tag k="highway" v="secondary"/>
    <tag k="name" v="Gregory Cannon Valley Rd"/>
    <tag k="surface" v="paved"/>
  </node>
  <node id="133477241" version="2" timestamp="2007-11-26T17:29:33Z" uid="3555" user="Marc Schütz" changeset="625949" lat="-20.3307" lon="148.615437"/>
  <node id="133477273" version="1" timestamp="2007-11-26T00:58:01Z" uid="4467" user="Rosscoe" changeset="621649" lat="-20.330665" lon="148.615162">
    <tag k="created_by" v="JOSM"/>
    <tag k="highway" v="secondary"/>
    <tag k="name" v="Gregory Cannon Valley Rd"/>
    <tag k="surface" v="paved"/>
  </node>
  <node id="133477273" version="2" timestamp="2007-11-26T18:00:55Z" uid="3555" user="Marc Schütz" changeset="625949" lat="-20.330665" lon="148.615162">
    <tag k="created_by" v="JOSM"/>
    <tag k="highway" v="secondary"/>
    <tag k="name" v="Gregory Cannon Valley Rd"/>
    <tag k="surface" v="paved"/>
  </node>
  <node id="133477305" version="1" timestamp="2007-11-26T00:58:02Z" uid="4467" user="Rosscoe" changeset="621649" lat="-20.330615" lon="148.614892">
    <tag k="created_by" v="JOSM"/>
    <tag k="highway" v="secondary"/>
    <tag k="name" v="Gregory Cannon Valley Rd"/>
    <tag k="surface" v="paved"/>
  </node>
  <node id="133477305" version="2" timestamp="2007-11-26T18:00:09Z" uid="3555" user="Marc Schütz" changeset="625949" lat="-20.330615" lon="148.614892">
    <tag k="created_by" v="JOSM"/>
    <tag k="highway" v="secondary"/>
    <tag k="name" v="Gregory Cannon Valley Rd"/>
    <tag k="surface" v="paved"/>
  </node>
  <node id="133477336" version="1" timestamp="2007-11-26T00:58:03Z" uid="4467" user="Rosscoe" changeset="621649" lat="-20.33055" lon="148.614623">
    <tag k="created_by" v="JOSM"/>
    <tag k="highway" v="secondary"/>
    <tag k="name" v="Gregory Cannon Valley Rd"/>
    <tag k="surface" v="paved"/>
  </node>
  <node id="133477336" version="2" timestamp="2007-11-26T17:32:48Z" uid="3555" user="Marc Schütz" changeset="625949" lat="-20.33055" lon="148.614623"/>
  <node id="133477362" version="1" timestamp="2007-11-26T00:58:03Z" uid="4467" user="Rosscoe" changeset="621649" lat="-20.330383" lon="148.614098">
    <tag k="created_by" v="JOSM"/>
    <tag k="highway" v="secondary"/>
    <tag k="name" v="Gregory Cannon Valley Rd"/>
    <tag k="surface" v="paved"/>
  </node>
  <node id="133477362" version="2" timestamp="2007-11-26T17:36:53Z" uid="3555" user="Marc Schütz" changeset="625949" lat="-20.330383" lon="148.614098">
    <tag k="created_by" v="JOSM"/>
    <tag k="highway" v="secondary"/>
    <tag k="name" v="Gregory Cannon Valley Rd"/>
    <tag k="surface" v="paved"/>
  </node>
  <node id="133477390" version="1" timestamp="2007-11-26T00:58:04Z" uid="4467" user="Rosscoe" changeset="621649" lat="-20.330292" lon="148.613838">
    <tag k="created_by" v="JOSM"/>
    <tag k="highway" v="secondary"/>
    <tag k="name" v="Gregory Cannon Valley Rd"/>
    <tag k="surface" v="paved"/>
  </node>
  <node id="133477390" version="2" timestamp="2007-11-26T17:42:30Z" uid="3555" user="Marc Schütz" changeset="625949" lat="-20.330292" lon="148.613838">
    <tag k="created_by" v="JOSM"/>
    <tag k="highway" v="secondary"/>
    <tag k="name" v="Gregory Cannon Valley Rd"/>
    <tag k="surface" v="paved"/>
  </node>
  <node id="133477413" version="1" timestamp="2007-11-26T00:58:05Z" uid="4467" user="Rosscoe" changeset="621649" lat="-20.330198" lon="148.613578">
    <tag k="created_by" v="JOSM"/>
    <tag k="highway" v="secondary"/>
    <tag k="name" v="Gregory Cannon Valley Rd"/>
    <tag k="surface" v="paved"/>
  </node>
  <node id="133477413" version="2" timestamp="2007-11-26T17:34:03Z" uid="3555" user="Marc Schütz" changeset="625949" lat="-20.330198" lon="148.613578">
    <tag k="created_by" v="JOSM"/>
    <tag k="highway" v="secondary"/>
    <tag k="name" v="Gregory Cannon Valley Rd"/>
    <tag k="surface" v="paved"/>
  </node>
  <node id="133477436" version="1" timestamp="2007-11-26T00:58:06Z" uid="4467" user="Rosscoe" changeset="621649" lat="-20.330107" lon="148.613322">
    <tag k="created_by" v="JOSM"/>
    <tag k="highway" v="secondary"/>
    <tag k="name" v="Gregory Cannon Valley Rd"/>
    <tag k="surface" v="paved"/>
  </node>
  <node id="133477436" version="2" timestamp="2007-11-26T18:03:15Z" uid="3555" user="Marc Schütz" changeset="625949" lat="-20.330107" lon="148.613322">
    <tag k="created_by" v="JOSM"/>
    <tag k="highway" v="secondary"/>
    <tag k="name" v="Gregory Cannon Valley Rd"/>
    <tag k="surface" v="paved"/>
  </node>
  <node id="133477462" version="1" timestamp="2007-11-26T00:58:07Z" uid="4467" user="Rosscoe" changeset="621649" lat="-20.329922" lon="148.612807">
    <tag k="created_by" v="JOSM"/>
    <tag k="highway" v="secondary"/>
    <tag k="name" v="Gregory Cannon Valley Rd"/>
    <tag k="surface" v="paved"/>
  </node>
  <node id="133477462" version="2" timestamp="2007-11-26T17:39:32Z" uid="3555" user="Marc Schütz" changeset="625949" lat="-20.329922" lon="148.612807">
    <tag k="created_by" v="JOSM"/>
    <tag k="highway" v="secondary"/>
    <tag k="name" v="Gregory Cannon Valley Rd"/>
    <tag k="surface" v="paved"/>
  </node>
  <node id="133477488" version="1" timestamp="2007-11-26T00:58:07Z" uid="4467" user="Rosscoe" changeset="621649" lat="-20.329832" lon="148.612548">
    <tag k="created_by" v="JOSM"/>
    <tag k="highway" v="secondary"/>
    <tag k="name" v="Gregory Cannon Valley Rd"/>
    <tag k="surface" v="paved"/>
  </node>
  <node id="133477488" version="2" timestamp="2007-11-26T17:34:59Z" uid="3555" user="Marc Schütz" changeset="625949" lat="-20.329832" lon="148.612548">
    <tag k="created_by" v="JOSM"/>
    <tag k="highway" v="secondary"/>
    <tag k="name" v="Gregory Cannon Valley Rd"/>
    <tag k="surface" v="paved"/>
  </node>
  <node id="133477535" version="1" timestamp="2007-11-26T00:58:09Z" uid="4467" user="Rosscoe" changeset="621649" lat="-20.329747" lon="148.612288">
    <tag k="created_by" v="JOSM"/>
    <tag k="highway" v="secondary"/>
    <tag k="name" v="Gregory Cannon Valley Rd"/>
    <tag k="surface" v="paved"/>
  </node>
  <node id="133477535" version="2" timestamp="2007-11-26T17:30:59Z" uid="3555" user="Marc Schütz" changeset="625949" lat="-20.329747" lon="148.612288"/>
  <node id="133477535" version="3" timestamp="2008-10-20T03:29:51Z" uid="4467" user="Rosscoe" changeset="468749" lat="-20.329747" lon="148.612288"/>
  <node id="133477555" version="1" timestamp="2007-11-26T00:58:10Z" uid="4467" user="Rosscoe" changeset="621649" lat="-20.329672" lon="148.612025">
    <tag k="created_by" v="JOSM"/>
    <tag k="highway" v="secondary"/>
    <tag k="name" v="Gregory Cannon Valley Rd"/>
    <tag k="surface" v="paved"/>
  </node>
  <node id="133477555" version="2" timestamp="2007-11-26T18:02:31Z" uid="3555" user="Marc Schütz" changeset="625949" lat="-20.329672" lon="148.612025">
    <tag k="created_by" v="JOSM"/>
    <tag k="highway" v="secondary"/>
    <tag k="name" v="Gregory Cannon Valley Rd"/>
    <tag k="surface" v="paved"/>
  </node>
  <node id="133477583" version="1" timestamp="2007-11-26T00:58:11Z" uid="4467" user="Rosscoe" changeset="621649" lat="-20.32956" lon="148.61149">
    <tag k="created_by" v="JOSM"/>
    <tag k="highway" v="secondary"/>
    <tag k="name" v="Gregory Cannon Valley Rd"/>
    <tag k="surface" v="paved"/>
  </node>
  <node id="133477583" version="2" timestamp="2007-11-26T17:29:25Z" uid="3555" user="Marc Schütz" changeset="625949" lat="-20.32956" lon="148.61149"/>
  <node id="133477614" version="1" timestamp="2007-11-26T00:58:11Z" uid="4467" user="Rosscoe" changeset="621649" lat="-20.329522" lon="148.611218">
    <tag k="created_by" v="JOSM"/>
    <tag k="highway" v="secondary"/>
    <tag k="name" v="Gregory Cannon Valley Rd"/>
    <tag k="surface" v="paved"/>
  </node>
  <node id="133477614" version="2" timestamp="2007-11-26T17:34:02Z" uid="3555" user="Marc Schütz" changeset="625949" lat="-20.329522" lon="148.611218">
    <tag k="created_by" v="JOSM"/>
    <tag k="highway" v="secondary"/>
    <tag k="name" v="Gregory Cannon Valley Rd"/>
    <tag k="surface" v="paved"/>
  </node>
  <node id="133477643" version="1" timestamp="2007-11-26T00:58:12Z" uid="4467" user="Rosscoe" changeset="621649" lat="-20.329488" lon="148.610948">
    <tag k="created_by" v="JOSM"/>
    <tag k="highway" v="secondary"/>
    <tag k="name" v="Gregory Cannon Valley Rd"/>
    <tag k="surface" v="paved"/>
  </node>
  <node id="133477643" version="2" timestamp="2007-11-26T18:06:51Z" uid="3555" user="Marc Schütz" changeset="625949" lat="-20.329488" lon="148.610948">
    <tag k="created_by" v="JOSM"/>
    <tag k="highway" v="secondary"/>
    <tag k="name" v="Gregory Cannon Valley Rd"/>
    <tag k="surface" v="paved"/>
  </node>
  <node id="133477677" version="1" timestamp="2007-11-26T00:58:13Z" uid="4467" user="Rosscoe" changeset="621649" lat="-20.329458" lon="148.610678">
    <tag k="created_by" v="JOSM"/>
    <tag k="highway" v="secondary"/>
    <tag k="name" v="Gregory Cannon Valley Rd"/>
    <tag k="surface" v="paved"/>
  </node>
  <node id="133477677" version="2" timestamp="2007-11-26T18:07:21Z" uid="3555" user="Marc Schütz" changeset="625949" lat="-20.329458" lon="148.610678">
    <tag k="created_by" v="JOSM"/>
    <tag k="highway" v="secondary"/>
    <tag k="name" v="Gregory Cannon Valley Rd"/>
    <tag k="surface" v="paved"/>
  </node>
  <node id="133477697" version="1" timestamp="2007-11-26T00:58:14Z" uid="4467" user="Rosscoe" changeset="621649" lat="-20.329397" lon="148.610138">
    <tag k="created_by" v="JOSM"/>
    <tag k="highway" v="secondary"/>
    <tag k="name" v="Gregory Cannon Valley Rd"/>
    <tag k="surface" v="paved"/>
  </node>
  <node id="133477697" version="2" timestamp="2007-11-26T17:44:07Z" uid="3555" user="Marc Schütz" changeset="625949" lat="-20.329397" lon="148.610138">
    <tag k="created_by" v="JOSM"/>
    <tag k="highway" v="secondary"/>
    <tag k="name" v="Gregory Cannon Valley Rd"/>
    <tag k="surface" v="paved"/>
  </node>
  <node id="133477725" version="1" timestamp="2007-11-26T00:58:15Z" uid="4467" user="Rosscoe" changeset="621649" lat="-20.329365" lon="148.60987">
    <tag k="created_by" v="JOSM"/>
    <tag k="highway" v="secondary"/>
    <tag k="name" v="Gregory Cannon Valley Rd"/>
    <tag k="surface" v="paved"/>
  </node>
  <node id="133477725" version="2" timestamp="2007-11-26T17:42:43Z" uid="3555" user="Marc Schütz" changeset="625949" lat="-20.329365" lon="148.60987">
    <tag k="created_by" v="JOSM"/>
    <tag k="highway" v="secondary"/>
    <tag k="name" v="Gregory Cannon Valley Rd"/>
    <tag k="surface" v="paved"/>
  </node>
  <node id="133477755" version="1" timestamp="2007-11-26T00:58:15Z" uid="4467" user="Rosscoe" changeset="621649" lat="-20.329335" lon="148.609602">
    <tag k="created_by" v="JOSM"/>
    <tag k="highway" v="secondary"/>
    <tag k="name" v="Gregory Cannon Valley Rd"/>
    <tag k="surface" v="paved"/>
  </node>
  <node id="133477755" version="2" timestamp="2007-11-26T17:43:17Z" uid="3555" user="Marc Schütz" changeset="625949" lat="-20.329335" lon="148.609602">
    <tag k="created_by" v="JOSM"/>
    <tag k="highway" v="secondary"/>
    <tag k="name" v="Gregory Cannon Valley Rd"/>
    <tag k="surface" v="paved"/>
  </node>
  <node id="133477790" version="1" timestamp="2007-11-26T00:58:16Z" uid="4467" user="Rosscoe" changeset="621649" lat="-20.329305" lon="148.609332">
    <tag k="created_by" v="JOSM"/>
    <tag k="highway" v="secondary"/>
    <tag k="name" v="Gregory Cannon Valley Rd"/>
    <tag k="surface" v="paved"/>
  </node>
  <node id="133477790" version="2" timestamp="2007-11-26T18:06:53Z" uid="3555" user="Marc Schütz" changeset="625949" lat="-20.329305" lon="148.609332">
    <tag k="created_by" v="JOSM"/>
    <tag k="highway" v="secondary"/>
    <tag k="name" v="Gregory Cannon Valley Rd"/>
    <tag k="surface" v="paved"/>
  </node>
  <node id="133477812" version="1" timestamp="2007-11-26T00:58:17Z" uid="4467" user="Rosscoe" changeset="621649" lat="-20.329245" lon="148.608792">
    <tag k="created_by" v="JOSM"/>
    <tag k="highway" v="secondary"/>
    <tag k="name" v="Gregory Cannon Valley Rd"/>
    <tag k="surface" v="paved"/>
  </node>
  <node id="133477812" version="2" timestamp="2007-11-26T18:06:10Z" uid="3555" user="Marc Schütz" changeset="625949" lat="-20.329245" lon="148.608792">
    <tag k="created_by" v="JOSM"/>
    <tag k="highway" v="secondary"/>
    <tag k="name" v="Gregory Cannon Valley Rd"/>
    <tag k="surface" v="paved"/>
  </node>
  <node id="133477834" version="1" timestamp="2007-11-26T00:58:18Z" uid="4467" user="Rosscoe" changeset="621649" lat="-20.329215" lon="148.608522">
    <tag k="created_by" v="JOSM"/>
    <tag k="highway" v="secondary"/>
    <tag k="name" v="Gregory Cannon Valley Rd"/>
    <tag k="surface" v="paved"/>
  </node>
  <node id="133477834" version="2" timestamp="2007-11-26T17:50:55Z" uid="3555" user="Marc Schütz" changeset="625949" lat="-20.329215" lon="148.608522">
    <tag k="created_by" v="JOSM"/>
    <tag k="highway" v="secondary"/>
    <tag k="name" v="Gregory Cannon Valley Rd"/>
    <tag k="surface" v="paved"/>
  </node>
  <node id="133477866" version="1" timestamp="2007-11-26T00:58:18Z" uid="4467" user="Rosscoe" changeset="621649" lat="-20.329185" lon="148.608252">
    <tag k="created_by" v="JOSM"/>
    <tag k="highway" v="secondary"/>
    <tag k="name" v="Gregory Cannon Valley Rd"/>
    <tag k="surface" v="paved"/>
  </node>
  <node id="133477866" version="2" timestamp="2007-11-26T17:50:30Z" uid="3555" user="Marc Schütz" changeset="625949" lat="-20.329185" lon="148.608252">
    <tag k="created_by" v="JOSM"/>
    <tag k="highway" v="secondary"/>
    <tag k="name" v="Gregory Cannon Valley Rd"/>
    <tag k="surface" v="paved"/>
  </node>
  <node id="133477890" version="1" timestamp="2007-11-26T00:58:19Z" uid="4467" user="Rosscoe" changeset="621649" lat="-20.329153" lon="148.607982">
    <tag k="created_by" v="JOSM"/>
    <tag k="highway" v="secondary"/>
    <tag k="name" v="Gregory Cannon Valley Rd"/>
    <tag k="surface" v="paved"/>
  </node>
  <node id="133477890" version="2" timestamp="2007-11-26T17:41:31Z" uid="3555" user="Marc Schütz" changeset="625949" lat="-20.329153" lon="148.607982">
    <tag k="created_by" v="JOSM"/>
    <tag k="highway" v="secondary"/>
    <tag k="name" v="Gregory Cannon Valley Rd"/>
    <tag k="surface" v="paved"/>
  </node>
  <node id="133477908" version="1" timestamp="2007-11-26T00:58:20Z" uid="4467" user="Rosscoe" changeset="621649" lat="-20.329092" lon="148.60744">
    <tag k="created_by" v="JOSM"/>
    <tag k="highway" v="secondary"/>
    <tag k="name" v="Gregory Cannon Valley Rd"/>
    <tag k="surface" v="paved"/>
  </node>
  <node id="133477908" version="2" timestamp="2007-11-26T18:02:39Z" uid="3555" user="Marc Schütz" changeset="625949" lat="-20.329092" lon="148.60744">
    <tag k="created_by" v="JOSM"/>
    <tag k="highway" v="secondary"/>
    <tag k="name" v="Gregory Cannon Valley Rd"/>
    <tag k="surface" v="paved"/>
  </node>
  <node id="133477939" version="1" timestamp="2007-11-26T00:58:21Z" uid="4467" user="Rosscoe" changeset="621649" lat="-20.32906" lon="148.60717">
    <tag k="created_by" v="JOSM"/>
    <tag k="highway" v="secondary"/>
    <tag k="name" v="Gregory Cannon Valley Rd"/>
    <tag k="surface" v="paved"/>
  </node>
  <node id="133477939" version="2" timestamp="2007-11-26T17:38:03Z" uid="3555" user="Marc Schütz" changeset="625949" lat="-20.32906" lon="148.60717">
    <tag k="created_by" v="JOSM"/>
    <tag k="highway" v="secondary"/>
    <tag k="name" v="Gregory Cannon Valley Rd"/>
    <tag k="surface" v="paved"/>
  </node>
  <node id="133477972" version="1" timestamp="2007-11-26T00:58:22Z" uid="4467" user="Rosscoe" changeset="621649" lat="-20.329028" lon="148.6069">
    <tag k="created_by" v="JOSM"/>
    <tag k="highway" v="secondary"/>
    <tag k="name" v="Gregory Cannon Valley Rd"/>
    <tag k="surface" v="paved"/>
  </node>
  <node id="133477972" version="2" timestamp="2007-11-26T18:06:20Z" uid="3555" user="Marc Schütz" changeset="625949" lat="-20.329028" lon="148.6069">
    <tag k="created_by" v="JOSM"/>
    <tag k="highway" v="secondary"/>
    <tag k="name" v="Gregory Cannon Valley Rd"/>
    <tag k="surface" v="paved"/>
  </node>
  <node id="133478003" version="1" timestamp="2007-11-26T00:58:22Z" uid="4467" user="Rosscoe" changeset="621649" lat="-20.328998" lon="148.60663">
    <tag k="created_by" v="JOSM"/>
    <tag k="highway" v="secondary"/>
    <tag k="name" v="Gregory Cannon Valley Rd"/>
    <tag k="surface" v="paved"/>
  </node>
  <node id="133478003" version="2" timestamp="2007-11-26T17:42:55Z" uid="3555" user="Marc Schütz" changeset="625949" lat="-20.328998" lon="148.60663">
    <tag k="created_by" v="JOSM"/>
    <tag k="highway" v="secondary"/>
    <tag k="name" v="Gregory Cannon Valley Rd"/>
    <tag k="surface" v="paved"/>
  </node>
  <node id="133478034" version="1" timestamp="2007-11-26T00:58:23Z" uid="4467" user="Rosscoe" changeset="621649" lat="-20.328938" lon="148.606093">
    <tag k="created_by" v="JOSM"/>
    <tag k="highway" v="secondary"/>
    <tag k="name" v="Gregory Cannon Valley Rd"/>
    <tag k="surface" v="paved"/>
  </node>
  <node id="133478034" version="2" timestamp="2007-11-26T18:02:25Z" uid="3555" user="Marc Schütz" changeset="625949" lat="-20.328938" lon="148.606093">
    <tag k="created_by" v="JOSM"/>
    <tag k="highway" v="secondary"/>
    <tag k="name" v="Gregory Cannon Valley Rd"/>
    <tag k="surface" v="paved"/>
  </node>
  <node id="133478062" version="1" timestamp="2007-11-26T00:58:24Z" uid="4467" user="Rosscoe" changeset="621649" lat="-20.32891" lon="148.605825">
    <tag k="created_by" v="JOSM"/>
    <tag k="highway" v="secondary"/>
    <tag k="name" v="Gregory Cannon Valley Rd"/>
    <tag k="surface" v="paved"/>
  </node>
  <node id="133478062" version="2" timestamp="2007-11-26T17:44:51Z" uid="3555" user="Marc Schütz" changeset="625949" lat="-20.32891" lon="148.605825">
    <tag k="created_by" v="JOSM"/>
    <tag k="highway" v="secondary"/>
    <tag k="name" v="Gregory Cannon Valley Rd"/>
    <tag k="surface" v="paved"/>
  </node>
  <node id="133478093" version="1" timestamp="2007-11-26T00:58:25Z" uid="4467" user="Rosscoe" changeset="621649" lat="-20.32888" lon="148.60556">
    <tag k="created_by" v="JOSM"/>
    <tag k="highway" v="secondary"/>
    <tag k="name" v="Gregory Cannon Valley Rd"/>
    <tag k="surface" v="paved"/>
  </node>
  <node id="133478093" version="2" timestamp="2007-11-26T18:00:17Z" uid="3555" user="Marc Schütz" changeset="625949" lat="-20.32888" lon="148.60556">
    <tag k="created_by" v="JOSM"/>
    <tag k="highway" v="secondary"/>
    <tag k="name" v="Gregory Cannon Valley Rd"/>
    <tag k="surface" v="paved"/>
  </node>
  <node id="133478127" version="1" timestamp="2007-11-26T00:58:25Z" uid="4467" user="Rosscoe" changeset="621649" lat="-20.328848" lon="148.605293">
    <tag k="created_by" v="JOSM"/>
    <tag k="highway" v="secondary"/>
    <tag k="name" v="Gregory Cannon Valley Rd"/>
    <tag k="surface" v="paved"/>
  </node>
  <node id="133478127" version="2" timestamp="2007-11-26T18:01:10Z" uid="3555" user="Marc Schütz" changeset="625949" lat="-20.328848" lon="148.605293">
    <tag k="created_by" v="JOSM"/>
    <tag k="highway" v="secondary"/>
    <tag k="name" v="Gregory Cannon Valley Rd"/>
    <tag k="surface" v="paved"/>
  </node>
  <node id="133478151" version="1" timestamp="2007-11-26T00:58:26Z" uid="4467" user="Rosscoe" changeset="621649" lat="-20.328788" lon="148.60476">
    <tag k="created_by" v="JOSM"/>
    <tag k="highway" v="secondary"/>
    <tag k="name" v="Gregory Cannon Valley Rd"/>
    <tag k="surface" v="paved"/>
  </node>
  <node id="133478151" version="2" timestamp="2007-11-26T18:07:06Z" uid="3555" user="Marc Schütz" changeset="625949" lat="-20.328788" lon="148.60476">
    <tag k="created_by" v="JOSM"/>
    <tag k="highway" v="secondary"/>
    <tag k="name" v="Gregory Cannon Valley Rd"/>
    <tag k="surface" v="paved"/>
  </node>
  <node id="133478182" version="1" timestamp="2007-11-26T00:58:27Z" uid="4467" user="Rosscoe" changeset="621649" lat="-20.328757" lon="148.604492">
    <tag k="created_by" v="JOSM"/>
    <tag k="highway" v="secondary"/>
    <tag k="name" v="Gregory Cannon Valley Rd"/>
    <tag k="surface" v="paved"/>
  </node>
  <node id="133478182" version="2" timestamp="2007-11-26T17:50:40Z" uid="3555" user="Marc Schütz" changeset="625949" lat="-20.328757" lon="148.604492">
    <tag k="created_by" v="JOSM"/>
    <tag k="highway" v="secondary"/>
    <tag k="name" v="Gregory Cannon Valley Rd"/>
    <tag k="surface" v="paved"/>
  </node>
  <node id="133478210" version="1" timestamp="2007-11-26T00:58:28Z" uid="4467" user="Rosscoe" changeset="621649" lat="-20.328728" lon="148.604222">
    <tag k="created_by" v="JOSM"/>
    <tag k="highway" v="secondary"/>
    <tag k="name" v="Gregory Cannon Valley Rd"/>
    <tag k="surface" v="paved"/>
  </node>
  <node id="133478210" version="2" timestamp="2007-11-26T17:54:48Z" uid="3555" user="Marc Schütz" changeset="625949" lat="-20.328728" lon="148.604222">
    <tag k="created_by" v="JOSM"/>
    <tag k="highway" v="secondary"/>
    <tag k="name" v="Gregory Cannon Valley Rd"/>
    <tag k="surface" v="paved"/>
  </node>
  <node id="133478231" version="1" timestamp="2007-11-26T00:58:29Z" uid="4467" user="Rosscoe" changeset="621649" lat="-20.328698" lon="148.603948">
    <tag k="created_by" v="JOSM"/>
    <tag k="highway" v="secondary"/>
    <tag k="name" v="Gregory Cannon Valley Rd"/>
    <tag k="surface" v="paved"/>
  </node>
  <node id="133478231" version="2" timestamp="2007-11-26T17:43:32Z" uid="3555" user="Marc Schütz" changeset="625949" lat="-20.328698" lon="148.603948">
    <tag k="created_by" v="JOSM"/>
    <tag k="highway" v="secondary"/>
    <tag k="name" v="Gregory Cannon Valley Rd"/>
    <tag k="surface" v="paved"/>
  </node>
  <node id="133478263" version="1" timestamp="2007-11-26T00:58:29Z" uid="4467" user="Rosscoe" changeset="621649" lat="-20.328638" lon="148.6034">
    <tag k="created_by" v="JOSM"/>
    <tag k="highway" v="secondary"/>
    <tag k="name" v="Gregory Cannon Valley Rd"/>
    <tag k="surface" v="paved"/>
  </node>
  <node id="133478263" version="2" timestamp="2007-11-26T17:42:42Z" uid="3555" user="Marc Schütz" changeset="625949" lat="-20.328638" lon="148.6034">
    <tag k="created_by" v="JOSM"/>
    <tag k="highway" v="secondary"/>
    <tag k="name" v="Gregory Cannon Valley Rd"/>
    <tag k="surface" v="paved"/>
  </node>
  <node id="133478289" version="1" timestamp="2007-11-26T00:58:30Z" uid="4467" user="Rosscoe" changeset="621649" lat="-20.328607" lon="148.603123">
    <tag k="created_by" v="JOSM"/>
    <tag k="highway" v="secondary"/>
    <tag k="name" v="Gregory Cannon Valley Rd"/>
    <tag k="surface" v="paved"/>
  </node>
  <node id="133478289" version="2" timestamp="2007-11-26T17:51:33Z" uid="3555" user="Marc Schütz" changeset="625949" lat="-20.328607" lon="148.603123">
    <tag k="created_by" v="JOSM"/>
    <tag k="highway" v="secondary"/>
    <tag k="name" v="Gregory Cannon Valley Rd"/>
    <tag k="surface" v="paved"/>
  </node>
  <node id="133478318" version="1" timestamp="2007-11-26T00:58:31Z" uid="4467" user="Rosscoe" changeset="621649" lat="-20.328573" lon="148.602848">
    <tag k="created_by" v="JOSM"/>
    <tag k="highway" v="secondary"/>
    <tag k="name" v="Gregory Cannon Valley Rd"/>
    <tag k="surface" v="paved"/>
  </node>
  <node id="133478318" version="2" timestamp="2007-11-26T17:37:29Z" uid="3555" user="Marc Schütz" changeset="625949" lat="-20.328573" lon="148.602848">
    <tag k="created_by" v="JOSM"/>
    <tag k="highway" v="secondary"/>
    <tag k="name" v="Gregory Cannon Valley Rd"/>
    <tag k="surface" v="paved"/>
  </node>
  <node id="133478341" version="1" timestamp="2007-11-26T00:58:32Z" uid="4467" user="Rosscoe" changeset="621649" lat="-20.328542" lon="148.602575">
    <tag k="created_by" v="JOSM"/>
    <tag k="highway" v="secondary"/>
    <tag k="name" v="Gregory Cannon Valley Rd"/>
    <tag k="surface" v="paved"/>
  </node>
  <node id="133478341" version="2" timestamp="2007-11-26T17:53:17Z" uid="3555" user="Marc Schütz" changeset="625949" lat="-20.328542" lon="148.602575">
    <tag k="created_by" v="JOSM"/>
    <tag k="highway" v="secondary"/>
    <tag k="name" v="Gregory Cannon Valley Rd"/>
    <tag k="surface" v="paved"/>
  </node>
  <node id="133478350" version="1" timestamp="2007-11-26T00:58:32Z" uid="4467" user="Rosscoe" changeset="621649" lat="-20.328478" lon="148.602027">
    <tag k="created_by" v="JOSM"/>
    <tag k="highway" v="secondary"/>
    <tag k="name" v="Gregory Cannon Valley Rd"/>
    <tag k="surface" v="paved"/>
  </node>
  <node id="133478350" version="2" timestamp="2007-11-26T17:37:56Z" uid="3555" user="Marc Schütz" changeset="625949" lat="-20.328478" lon="148.602027">
    <tag k="created_by" v="JOSM"/>
    <tag k="highway" v="secondary"/>
    <tag k="name" v="Gregory Cannon Valley Rd"/>
    <tag k="surface" v="paved"/>
  </node>
  <node id="133478371" version="1" timestamp="2007-11-26T00:58:33Z" uid="4467" user="Rosscoe" changeset="621649" lat="-20.328447" lon="148.601758">
    <tag k="created_by" v="JOSM"/>
    <tag k="highway" v="secondary"/>
    <tag k="name" v="Gregory Cannon Valley Rd"/>
    <tag k="surface" v="paved"/>
  </node>
  <node id="133478371" version="2" timestamp="2007-11-26T18:06:21Z" uid="3555" user="Marc Schütz" changeset="625949" lat="-20.328447" lon="148.601758">
    <tag k="created_by" v="JOSM"/>
    <tag k="highway" v="secondary"/>
    <tag k="name" v="Gregory Cannon Valley Rd"/>
    <tag k="surface" v="paved"/>
  </node>
  <node id="133478395" version="1" timestamp="2007-11-26T00:58:34Z" uid="4467" user="Rosscoe" changeset="621649" lat="-20.328417" lon="148.601493">
    <tag k="created_by" v="JOSM"/>
    <tag k="highway" v="secondary"/>
    <tag k="name" v="Gregory Cannon Valley Rd"/>
    <tag k="surface" v="paved"/>
  </node>
  <node id="133478395" version="2" timestamp="2007-11-26T17:31:47Z" uid="3555" user="Marc Schütz" changeset="625949" lat="-20.328417" lon="148.601493"/>
  <node id="133478419" version="1" timestamp="2007-11-26T00:58:35Z" uid="4467" user="Rosscoe" changeset="621649" lat="-20.328388" lon="148.601235">
    <tag k="created_by" v="JOSM"/>
    <tag k="highway" v="secondary"/>
    <tag k="name" v="Gregory Cannon Valley Rd"/>
    <tag k="surface" v="paved"/>
  </node>
  <node id="133478419" version="2" timestamp="2007-11-26T17:50:25Z" uid="3555" user="Marc Schütz" changeset="625949" lat="-20.328388" lon="148.601235">
    <tag k="created_by" v="JOSM"/>
    <tag k="highway" v="secondary"/>
    <tag k="name" v="Gregory Cannon Valley Rd"/>
    <tag k="surface" v="paved"/>
  </node>
  <node id="133478445" version="1" timestamp="2007-11-26T00:58:36Z" uid="4467" user="Rosscoe" changeset="621649" lat="-20.328337" lon="148.600747">
    <tag k="created_by" v="JOSM"/>
    <tag k="highway" v="secondary"/>
    <tag k="name" v="Gregory Cannon Valley Rd"/>
    <tag k="surface" v="paved"/>
  </node>
  <node id="133478445" version="2" timestamp="2007-11-26T17:46:36Z" uid="3555" user="Marc Schütz" changeset="625949" lat="-20.328337" lon="148.600747">
    <tag k="created_by" v="JOSM"/>
    <tag k="highway" v="secondary"/>
    <tag k="name" v="Gregory Cannon Valley Rd"/>
    <tag k="surface" v="paved"/>
  </node>
  <node id="133478466" version="1" timestamp="2007-11-26T00:58:36Z" uid="4467" user="Rosscoe" changeset="621649" lat="-20.3282894" lon="148.6000813">
    <tag k="created_by" v="JOSM"/>
    <tag k="highway" v="secondary"/>
    <tag k="name" v="Gregory Cannon Valley Rd"/>
    <tag k="surface" v="paved"/>
  </node>
  <node id="133478466" version="2" timestamp="2007-11-26T17:32:49Z" uid="3555" user="Marc Schütz" changeset="625949" lat="-20.3282894" lon="148.6000813"/>
  <node id="133478466" version="3" timestamp="2007-12-22T23:32:27Z" uid="4467" user="Rosscoe" changeset="397091" lat="-20.3282894" lon="148.6000813"/>
  <node id="133478488" version="1" timestamp="2007-11-26T00:58:37Z" uid="4467" user="Rosscoe" changeset="621649" lat="-20.328315" lon="148.600537">
    <tag k="created_by" v="JOSM"/>
    <tag k="highway" v="secondary"/>
    <tag k="name" v="Gregory Cannon Valley Rd"/>
    <tag k="surface" v="paved"/>
  </node>
  <node id="133478488" version="2" timestamp="2007-11-26T17:54:45Z" uid="3555" user="Marc Schütz" changeset="625949" lat="-20.328315" lon="148.600537">
    <tag k="created_by" v="JOSM"/>
    <tag k="highway" v="secondary"/>
    <tag k="name" v="Gregory Cannon Valley Rd"/>
    <tag k="surface" v="paved"/>
  </node>
  <node id="133478517" version="1" timestamp="2007-11-26T00:58:38Z" uid="4467" user="Rosscoe" changeset="621649" lat="-20.328297" lon="148.60036">
    <tag k="created_by" v="JOSM"/>
    <tag k="highway" v="secondary"/>
    <tag k="name" v="Gregory Cannon Valley Rd"/>
    <tag k="surface" v="paved"/>
  </node>
  <node id="133478517" version="2" timestamp="2007-11-26T17:31:26Z" uid="3555" user="Marc Schütz" changeset="625949" lat="-20.328297" lon="148.60036"/>
  <node id="133478543" version="1" timestamp="2007-11-26T00:58:39Z" uid="4467" user="Rosscoe" changeset="621649" lat="-20.328285" lon="148.600223">
    <tag k="created_by" v="JOSM"/>
    <tag k="highway" v="secondary"/>
    <tag k="name" v="Gregory Cannon Valley Rd"/>
    <tag k="surface" v="paved"/>
  </node>
  <node id="133478543" version="2" timestamp="2007-11-26T17:31:00Z" uid="3555" user="Marc Schütz" changeset="625949" lat="-20.328285" lon="148.600223"/>
</osm>
