<?xml version='1.0' encoding='UTF-8'?>
<osm version="0.6" generator="libosmium/2.20.0">
  <node id="133486349" version="1" timestamp="2007-11-26T01:03:06Z" uid="4467" user="Rosscoe" changeset="621649" lat="-20.292803" lon="148.78586">
    <tag k="created_by" v="JOSM"/>
    <tag k="highway" v="secondary"/>
    <tag k="name" v="Shute Harbour Rd"/>
    <tag k="surface" v="paved"/>
  </node>
  <node id="133486349" version="2" timestamp="2007-11-26T17:29:35Z" uid="3555" user="Marc Schütz" changeset="625949" lat="-20.292803" lon="148.78586"/>
  <node id="133486349" version="3" timestamp="2009-06-04T04:17:14Z" uid="4467" user="Rosscoe" changeset="1418298" lat="-20.292803" lon="148.78586"/>
  <node id="133486364" version="1" timestamp="2007-11-26T01:03:07Z" uid="4467" user="Rosscoe" changeset="621649" lat="-20.292842" lon="148.785817">
    <tag k="created_by" v="JOSM"/>
    <tag k="highway" v="secondary"/>
    <tag k="name" v="Shute Harbour Rd"/>
    <tag k="surface" v="paved"/>
  </node>
  <node id="133486364" version="2" timestamp="2007-11-26T17:59:35Z" uid="3555" user="Marc Schütz" changeset="625949" lat="-20.292842" lon="148.785817">
    <tag k="created_by" v="JOSM"/>
    <tag k="highway" v="secondary"/>
    <tag k="name" v="Shute Harbour Rd"/>
    <tag k="surface" v="paved"/>
  </node>
  <node id="133486374" version="1" timestamp="2007-11-26T01:03:08Z" uid="4467" user="Rosscoe" changeset="621649" lat="-20.29288" lon="148.785757">
    <tag k="created_by" v="JOSM"/>
    <tag k="highway" v="secondary"/>
    <tag k="name" v="Shute Harbour Rd"/>
    <tag k="surface" v="paved"/>
  </node>
  <node id="133486374" version="2" timestamp="2007-11-26T18:08:00Z" uid="3555" user="Marc Schütz" changeset="625949" lat="-20.29288" lon="148.785757">
    <tag k="created_by" v="JOSM"/>
    <tag k="highway" v="secondary"/>
    <tag k="name" v="Shute Harbour Rd"/>
    <tag k="surface" v="paved"/>
  </node>
  <node id="133486382" version="1" timestamp="2007-11-26T01:03:08Z" uid="4467" user="Rosscoe" changeset="621649" lat="-20.292953" lon="148.785625">
    <tag k="created_by" v="JOSM"/>
    <tag k="highway" v="secondary"/>
    <tag k="name" v="Shute Harbour Rd"/>
    <tag k="surface" v="paved"/>
  </node>
  <node id="133486382" version="2" timestamp="2007-11-26T17:40:02Z" uid="3555" user="Marc Schütz" changeset="625949" lat="-20.292953" lon="148.785625">
    <tag k="created_by" v="JOSM"/>
    <tag k="highway" v="secondary"/>
    <tag k="name" v="Shute Harbour Rd"/>
    <tag k="surface" v="paved"/>
  </node>
  <node id="133486389" version="1" timestamp="2007-11-26T01:03:09Z" uid="4467" user="Rosscoe" changeset="621649" lat="-20.292987" lon="148.78556">
    <tag k="created_by" v="JOSM"/>
    <tag k="highway" v="secondary"/>
    <tag k="name" v="Shute Harbour Rd"/>
    <tag k="surface" v="paved"/>
  </node>
  <node id="133486389" version="2" timestamp="2007-11-26T18:09:46Z" uid="3555" user="Marc Schütz" changeset="625949" lat="-20.292987" lon="148.78556">
    <tag k="created_by" v="JOSM"/>
    <tag k="highway" v="secondary"/>
    <tag k="name" v="Shute Harbour Rd"/>
    <tag k="surface" v="paved"/>
  </node>
  <node id="133486404" version="1" timestamp="2007-11-26T01:03:10Z" uid="4467" user="Rosscoe" changeset="621649" lat="-20.293013" lon="148.785493">
    <tag k="created_by" v="JOSM"/>
    <tag k="highway" v="secondary"/>
    <tag k="name" v="Shute Harbour Rd"/>
    <tag k="surface" v="paved"/>
  </node>
  <node id="133486404" version="2" timestamp="2007-11-26T17:28:54Z" uid="3555" user="Marc Schütz" changeset="625949" lat="-20.293013" lon="148.785493"/>
  <node id="133486421" version="1" timestamp="2007-11-26T01:03:11Z" uid="4467" user="Rosscoe" changeset="621649" lat="-20.293027" lon="148.785427">
    <tag k="created_by" v="JOSM"/>
    <tag k="highway" v="secondary"/>
    <tag k="name" v="Shute Harbour Rd"/>
    <tag k="surface" v="paved"/>
  </node>
  <node id="133486421" version="2" timestamp="2007-11-26T17:28:40Z" uid="3555" user="Marc Schütz" changeset="625949" lat="-20.293027" lon="148.785427"/>
  <node id="133486443" version="1" timestamp="2007-11-26T01:03:12Z" uid="4467" user="Rosscoe" changeset="621649" lat="-20.293002" lon="148.785293">
    <tag k="created_by" v="JOSM"/>
    <tag k="highway" v="secondary"/>
    <tag k="name" v="Shute Harbour Rd"/>
    <tag k="surface" v="paved"/>
  </node>
  <node id="133486443" version="2" timestamp="2007-11-26T17:31:21Z" uid="3555" user="Marc Schütz" changeset="625949" lat="-20.293002" lon="148.785293"/>
  <node id="133486470" version="1" timestamp="2007-11-26T01:03:12Z" uid="4467" user="Rosscoe" changeset="621649" lat="-20.292962" lon="148.785228">
    <tag k="created_by" v="JOSM"/>
    <tag k="highway" v="secondary"/>
    <tag k="name" v="Shute Harbour Rd"/>
    <tag k="surface" v="paved"/>
  </node>
  <node id="133486470" version="2" timestamp="2007-11-26T18:03:38Z" uid="3555" user="Marc Schütz" changeset="625949" lat="-20.292962" lon="148.785228">
    <tag k="created_by" v="JOSM"/>
    <tag k="highway" v="secondary"/>
    <tag k="name" v="Shute Harbour Rd"/>
    <tag k="surface" v="paved"/>
  </node>
  <node id="133486487" version="1" timestamp="2007-11-26T01:03:13Z" uid="4467" user="Rosscoe" changeset="621649" lat="-20.292903" lon="148.785167">
    <tag k="created_by" v="JOSM"/>
    <tag k="highway" v="secondary"/>
    <tag k="name" v="Shute Harbour Rd"/>
    <tag k="surface" v="paved"/>
  </node>
  <node id="133486487" version="2" timestamp="2007-11-26T18:02:05Z" uid="3555" user="Marc Schütz" changeset="625949" lat="-20.292903" lon="148.785167">
    <tag k="created_by" v="JOSM"/>
    <tag k="highway" v="secondary"/>
    <tag k="name" v="Shute Harbour Rd"/>
    <tag k="surface" v="paved"/>
  </node>
  <node id="133486507" version="1" timestamp="2007-11-26T01:03:14Z" uid="4467" user="Rosscoe" changeset="621649" lat="-20.292827" lon="148.785103">
    <tag k="created_by" v="JOSM"/>
    <tag k="highway" v="secondary"/>
    <tag k="name" v="Shute Harbour Rd"/>
    <tag k="surface" v="paved"/>
  </node>
  <node id="133486507" version="2" timestamp="2007-11-26T18:00:29Z" uid="3555" user="Marc Schütz" changeset="625949" lat="-20.292827" lon="148.785103">
    <tag k="created_by" v="JOSM"/>
    <tag k="highway" v="secondary"/>
    <tag k="name" v="Shute Harbour Rd"/>
    <tag k="surface" v="paved"/>
  </node>
  <node id="133486534" version="1" timestamp="2007-11-26T01:03:15Z" uid="4467" user="Rosscoe" changeset="621649" lat="-20.292632" lon="148.784978">
    <tag k="created_by" v="JOSM"/>
    <tag k="highway" v="secondary"/>
    <tag k="name" v="Shute Harbour Rd"/>
    <tag k="surface" v="paved"/>
  </node>
  <node id="133486534" version="2" timestamp="2007-11-26T17:28:01Z" uid="3555" user="Marc Schütz" changeset="625949" lat="-20.292632" lon="148.784978"/>
  <node id="133486558" version="1" timestamp="2007-11-26T01:03:16Z" uid="4467" user="Rosscoe" changeset="621649" lat="-20.29251" lon="148.784932">
    <tag k="created_by" v="JOSM"/>
    <tag k="highway" v="secondary"/>
    <tag k="name" v="Shute Harbour Rd"/>
    <tag k="surface" v="paved"/>
  </node>
  <node id="133486558" version="2" timestamp="2007-11-26T17:58:35Z" uid="3555" user="Marc Schütz" changeset="625949" lat="-20.29251" lon="148.784932">
    <tag k="created_by" v="JOSM"/>
    <tag k="highway" v="secondary"/>
    <tag k="name" v="Shute Harbour Rd"/>
    <tag k="surface" v="paved"/>
  </node>
  <node id="133486587" version="1" timestamp="2007-11-26T01:03:16Z" uid="4467" user="Rosscoe" changeset="621649" lat="-20.292372" lon="148.784903">
    <tag k="created_by" v="JOSM"/>
    <tag k="highway" v="secondary"/>
    <tag k="name" v="Shute Harbour Rd"/>
    <tag k="surface" v="paved"/>
  </node>
  <node id="133486587" version="2" timestamp="2007-11-26T17:35:31Z" uid="3555" user="Marc Schütz" changeset="625949" lat="-20.292372" lon="148.784903">
    <tag k="created_by" v="JOSM"/>
    <tag k="highway" v="secondary"/>
    <tag k="name" v="Shute Harbour Rd"/>
    <tag k="surface" v="paved"/>
  </node>
  <node id="133486600" version="1" timestamp="2007-11-26T01:03:17Z" uid="4467" user="Rosscoe" changeset="621649" lat="-20.292228" lon="148.784887">
    <tag k="created_by" v="JOSM"/>
    <tag k="highway" v="secondary"/>
    <tag k="name" v="Shute Harbour Rd"/>
    <tag k="surface" v="paved"/>
  </node>
  <node id="133486600" version="2" timestamp="2007-11-26T17:52:53Z" uid="3555" user="Marc Schütz" changeset="625949" lat="-20.292228" lon="148.784887">
    <tag k="created_by" v="JOSM"/>
    <tag k="highway" v="secondary"/>
    <tag k="name" v="Shute Harbour Rd"/>
    <tag k="surface" v="paved"/>
  </node>
  <node id="133486616" version="1" timestamp="2007-11-26T01:03:18Z" uid="4467" user="Rosscoe" changeset="621649" lat="-20.291948" lon="148.78486">
    <tag k="created_by" v="JOSM"/>
    <tag k="highway" v="secondary"/>
    <tag k="name" v="Shute Harbour Rd"/>
    <tag k="surface" v="paved"/>
  </node>
  <node id="133486616" version="2" timestamp="2007-11-26T17:35:35Z" uid="3555" user="Marc Schütz" changeset="625949" lat="-20.291948" lon="148.78486">
    <tag k="created_by" v="JOSM"/>
    <tag k="highway" v="secondary"/>
    <tag k="name" v="Shute Harbour Rd"/>
    <tag k="surface" v="paved"/>
  </node>
  <node id="133486639" version="1" timestamp="2007-11-26T01:03:19Z" uid="4467" user="Rosscoe" changeset="621649" lat="-20.29167" lon="148.784835">
    <tag k="created_by" v="JOSM"/>
    <tag k="highway" v="secondary"/>
    <tag k="name" v="Shute Harbour Rd"/>
    <tag k="surface" v="paved"/>
  </node>
  <node id="133486639" version="2" timestamp="2007-11-26T17:44:55Z" uid="3555" user="Marc Schütz" changeset="625949" lat="-20.29167" lon="148.784835">
    <tag k="created_by" v="JOSM"/>
    <tag k="highway" v="secondary"/>
    <tag k="name" v="Shute Harbour Rd"/>
    <tag k="surface" v="paved"/>
  </node>
  <node id="133486666" version="1" timestamp="2007-11-26T01:03:19Z" uid="4467" user="Rosscoe" changeset="621649" lat="-20.29181" lon="148.784847">
    <tag k="created_by" v="JOSM"/>
    <tag k="highway" v="secondary"/>
    <tag k="name" v="Shute Harbour Rd"/>
    <tag k="surface" v="paved"/>
  </node>
  <node id="133486666" version="2" timestamp="2007-11-26T18:02:24Z" uid="3555" user="Marc Schütz" changeset="625949" lat="-20.29181" lon="148.784847">
    <tag k="created_by" v="JOSM"/>
    <tag k="highway" v="secondary"/>
    <tag k="name" v="Shute Harbour Rd"/>
    <tag k="surface" v="paved"/>
  </node>
  <node id="133486680" version="1" timestamp="2007-11-26T01:03:20Z" uid="4467" user="Rosscoe" changeset="621649" lat="-20.291237" lon="148.784812">
    <tag k="created_by" v="JOSM"/>
    <tag k="highway" v="secondary"/>
    <tag k="name" v="Shute Harbour Rd"/>
    <tag k="surface" v="paved"/>
  </node>
  <node id="133486680" version="2" timestamp="2007-11-26T17:36:53Z" uid="3555" user="Marc Schütz" changeset="625949" lat="-20.291237" lon="148.784812">
    <tag k="created_by" v="JOSM"/>
    <tag k="highway" v="secondary"/>
    <tag k="name" v="Shute Harbour Rd"/>
    <tag k="surface" v="paved"/>
  </node>
  <node id="133486702" version="1" timestamp="2007-11-26T01:03:21Z" uid="4467" user="Rosscoe" changeset="621649" lat="-20.29153" lon="148.784828">
    <tag k="created_by" v="JOSM"/>
    <tag k="highway" v="secondary"/>
    <tag k="name" v="Shute Harbour Rd"/>
    <tag k="surface" v="paved"/>
  </node>
  <node id="133486702" version="2" timestamp="2007-11-26T17:35:43Z" uid="3555" user="Marc Schütz" changeset="625949" lat="-20.29153" lon="148.784828">
    <tag k="created_by" v="JOSM"/>
    <tag k="highway" v="secondary"/>
    <tag k="name" v="Shute Harbour Rd"/>
    <tag k="surface" v="paved"/>
  </node>
  <node id="133486722" version="1" timestamp="2007-11-26T01:03:22Z" uid="4467" user="Rosscoe" changeset="621649" lat="-20.290937" lon="148.78478">
    <tag k="created_by" v="JOSM"/>
    <tag k="highway" v="secondary"/>
    <tag k="name" v="Shute Harbour Rd"/>
    <tag k="surface" v="paved"/>
  </node>
  <node id="133486722" version="2" timestamp="2007-11-26T17:46:44Z" uid="3555" user="Marc Schütz" changeset="625949" lat="-20.290937" lon="148.78478">
    <tag k="created_by" v="JOSM"/>
    <tag k="highway" v="secondary"/>
    <tag k="name" v="Shute Harbour Rd"/>
    <tag k="surface" v="paved"/>
  </node>
  <node id="133486746" version="1" timestamp="2007-11-26T01:03:23Z" uid="4467" user="Rosscoe" changeset="621649" lat="-20.291087" lon="148.7848">
    <tag k="created_by" v="JOSM"/>
    <tag k="highway" v="secondary"/>
    <tag k="name" v="Shute Harbour Rd"/>
    <tag k="surface" v="paved"/>
  </node>
  <node id="133486746" version="2" timestamp="2007-11-26T17:45:35Z" uid="3555" user="Marc Schütz" changeset="625949" lat="-20.291087" lon="148.7848">
    <tag k="created_by" v="JOSM"/>
    <tag k="highway" v="secondary"/>
    <tag k="name" v="Shute Harbour Rd"/>
    <tag k="surface" v="paved"/>
  </node>
  <node id="133486772" version="1" timestamp="2007-11-26T01:03:23Z" uid="4467" user="Rosscoe" changeset="621649" lat="-20.290548" lon="148.784615">
    <tag k="created_by" v="JOSM"/>
    <tag k="highway" v="secondary"/>
    <tag k="name" v="Shute Harbour Rd"/>
    <tag k="surface" v="paved"/>
  </node>
  <node id="133486772" version="2" timestamp="2007-11-26T17:28:01Z" uid="3555" user="Marc Schütz" changeset="625949" lat="-20.290548" lon="148.784615"/>
  <node id="133486794" version="1" timestamp="2007-11-26T01:03:24Z" uid="4467" user="Rosscoe" changeset="621649" lat="-20.290792" lon="148.784745">
    <tag k="created_by" v="JOSM"/>
    <tag k="highway" v="secondary"/>
    <tag k="name" v="Shute Harbour Rd"/>
    <tag k="surface" v="paved"/>
  </node>
  <node id="133486794" version="2" timestamp="2007-11-26T17:32:20Z" uid="3555" user="Marc Schütz" changeset="625949" lat="-20.290792" lon="148.784745"/>
  <node id="133486799" version="1" timestamp="2007-11-26T01:03:25Z" uid="4467" user="Rosscoe" changeset="621649" lat="-20.290408" lon="148.784363">
    <tag k="created_by" v="JOSM"/>
    <tag k="highway" v="secondary"/>
    <tag k="name" v="Shute Harbour Rd"/>
    <tag k="surface" v="paved"/>
  </node>
  <node id="133486799" version="2" timestamp="2007-11-26T17:30:13Z" uid="3555" user="Marc Schütz" changeset="625949" lat="-20.290408" lon="148.784363"/>
  <node id="133486805" version="1" timestamp="2007-11-26T01:03:26Z" uid="4467" user="Rosscoe" changeset="621649" lat="-20.29046" lon="148.784505">
    <tag k="created_by" v="JOSM"/>
    <tag k="highway" v="secondary"/>
    <tag k="name" v="Shute Harbour Rd"/>
    <tag k="surface" v="paved"/>
  </node>
  <node id="133486805" version="2" timestamp="2007-11-26T17:39:02Z" uid="3555" user="Marc Schütz" changeset="625949" lat="-20.29046" lon="148.784505">
    <tag k="created_by" v="JOSM"/>
    <tag k="highway" v="secondary"/>
    <tag k="name" v="Shute Harbour Rd"/>
    <tag k="surface" v="paved"/>
  </node>
  <node id="133486825" version="1" timestamp="2007-11-26T01:03:26Z" uid="4467" user="Rosscoe" changeset="621649" lat="-20.290513" lon="148.783888">
    <tag k="created_by" v="JOSM"/>
    <tag k="highway" v="secondary"/>
    <tag k="name" v="Shute Harbour Rd"/>
    <tag k="surface" v="paved"/>
  </node>
  <node id="133486825" version="2" timestamp="2007-11-26T17:30:18Z" uid="3555" user="Marc Schütz" changeset="625949" lat="-20.290513" lon="148.783888"/>
  <node id="133486840" version="1" timestamp="2007-11-26T01:03:27Z" uid="4467" user="Rosscoe" changeset="621649" lat="-20.290392" lon="148.78421">
    <tag k="created_by" v="JOSM"/>
    <tag k="highway" v="secondary"/>
    <tag k="name" v="Shute Harbour Rd"/>
    <tag k="surface" v="paved"/>
  </node>
  <node id="133486840" version="2" timestamp="2007-11-26T17:29:26Z" uid="3555" user="Marc Schütz" changeset="625949" lat="-20.290392" lon="148.78421"/>
  <node id="133486863" version="1" timestamp="2007-11-26T01:03:28Z" uid="4467" user="Rosscoe" changeset="621649" lat="-20.290703" lon="148.7836">
    <tag k="created_by" v="JOSM"/>
    <tag k="highway" v="secondary"/>
    <tag k="name" v="Shute Harbour Rd"/>
    <tag k="surface" v="paved"/>
  </node>
  <node id="133486863" version="2" timestamp="2007-11-26T18:07:10Z" uid="3555" user="Marc Schütz" changeset="625949" lat="-20.290703" lon="148.7836">
    <tag k="created_by" v="JOSM"/>
    <tag k="highway" v="secondary"/>
    <tag k="name" v="Shute Harbour Rd"/>
    <tag k="surface" v="paved"/>
  </node>
  <node id="133486878" version="1" timestamp="2007-11-26T01:03:29Z" uid="4467" user="Rosscoe" changeset="621649" lat="-20.290607" lon="148.78374">
    <tag k="created_by" v="JOSM"/>
    <tag k="highway" v="secondary"/>
    <tag k="name" v="Shute Harbour Rd"/>
    <tag k="surface" v="paved"/>
  </node>
  <node id="133486878" version="2" timestamp="2007-11-26T18:07:04Z" uid="3555" user="Marc Schütz" changeset="625949" lat="-20.290607" lon="148.78374">
    <tag k="created_by" v="JOSM"/>
    <tag k="highway" v="secondary"/>
    <tag k="name" v="Shute Harbour Rd"/>
    <tag k="surface" v="paved"/>
  </node>
  <node id="133486892" version="1" timestamp="2007-11-26T01:03:30Z" uid="4467" user="Rosscoe" changeset="621649" lat="-20.29097" lon="148.78321">
    <tag k="created_by" v="JOSM"/>
    <tag k="highway" v="secondary"/>
    <tag k="name" v="Shute Harbour Rd"/>
    <tag k="surface" v="paved"/>
  </node>
  <node id="133486892" version="2" timestamp="2007-11-26T17:56:20Z" uid="3555" user="Marc Schütz" changeset="625949" lat="-20.29097" lon="148.78321">
    <tag k="created_by" v="JOSM"/>
    <tag k="highway" v="secondary"/>
    <tag k="name" v="Shute Harbour Rd"/>
    <tag k="surface" v="paved"/>
  </node>
  <node id="133486924" version="1" timestamp="2007-11-26T01:03:31Z" uid="4467" user="Rosscoe" changeset="621649" lat="-20.2908" lon="148.783468">
    <tag k="created_by" v="JOSM"/>
    <tag k="highway" v="secondary"/>
    <tag k="name" v="Shute Harbour Rd"/>
    <tag k="surface" v="paved"/>
  </node>
  <node id="133486924" version="2" timestamp="2007-11-26T17:55:31Z" uid="3555" user="Marc Schütz" changeset="625949" lat="-20.2908" lon="148.783468">
    <tag k="created_by" v="JOSM"/>
    <tag k="highway" v="secondary"/>
    <tag k="name" v="Shute Harbour Rd"/>
    <tag k="surface" v="paved"/>
  </node>
  <node id="133486951" version="1" timestamp="2007-11-26T01:03:31Z" uid="4467" user="Rosscoe" changeset="621649" lat="-20.291118" lon="148.782773">
    <tag k="created_by" v="JOSM"/>
    <tag k="highway" v="secondary"/>
    <tag k="name" v="Shute Harbour Rd"/>
    <tag k="surface" v="paved"/>
  </node>
  <node id="133486951" version="2" timestamp="2007-11-26T17:32:38Z" uid="3555" user="Marc Schütz" changeset="625949" lat="-20.291118" lon="148.782773"/>
  <node id="133486984" version="1" timestamp="2007-11-26T01:03:32Z" uid="4467" user="Rosscoe" changeset="621649" lat="-20.291092" lon="148.782452">
    <tag k="created_by" v="JOSM"/>
    <tag k="highway" v="secondary"/>
    <tag k="name" v="Shute Harbour Rd"/>
    <tag k="surface" v="paved"/>
  </node>
  <node id="133486984" version="2" timestamp="2007-11-26T17:29:03Z" uid="3555" user="Marc Schütz" changeset="625949" lat="-20.291092" lon="148.782452"/>
  <node id="133487015" version="1" timestamp="2007-11-26T01:03:33Z" uid="4467" user="Rosscoe" changeset="621649" lat="-20.291038" lon="148.783075">
    <tag k="created_by" v="JOSM"/>
    <tag k="highway" v="secondary"/>
    <tag k="name" v="Shute Harbour Rd"/>
    <tag k="surface" v="paved"/>
  </node>
  <node id="133487015" version="2" timestamp="2007-11-26T17:32:32Z" uid="3555" user="Marc Schütz" changeset="625949" lat="-20.291038" lon="148.783075"/>
  <node id="133487048" version="1" timestamp="2007-11-26T01:03:34Z" uid="4467" user="Rosscoe" changeset="621649" lat="-20.29109" lon="148.782927">
    <tag k="created_by" v="JOSM"/>
    <tag k="highway" v="secondary"/>
    <tag k="name" v="Shute Harbour Rd"/>
    <tag k="surface" v="paved"/>
  </node>
  <node id="133487048" version="2" timestamp="2007-11-26T17:58:46Z" uid="3555" user="Marc Schütz" changeset="625949" lat="-20.29109" lon="148.782927">
    <tag k="created_by" v="JOSM"/>
    <tag k="highway" v="secondary"/>
    <tag k="name" v="Shute Harbour Rd"/>
    <tag k="surface" v="paved"/>
  </node>
  <node id="133487065" version="1" timestamp="2007-11-26T01:03:35Z" uid="4467" user="Rosscoe" changeset="621649" lat="-20.290827" lon="148.781977">
    <tag k="created_by" v="JOSM"/>
    <tag k="highway" v="secondary"/>
    <tag k="name" v="Shute Harbour Rd"/>
    <tag k="surface" v="paved"/>
  </node>
  <node id="133487065" version="2" timestamp="2007-11-26T17:30:57Z" uid="3555" user="Marc Schütz" changeset="625949" lat="-20.290827" lon="148.781977"/>
  <node id="133487085" version="1" timestamp="2007-11-26T01:03:35Z" uid="4467" user="Rosscoe" changeset="621649" lat="-20.290568" lon="148.781678">
    <tag k="created_by" v="JOSM"/>
    <tag k="highway" v="secondary"/>
    <tag k="name" v="Shute Harbour Rd"/>
    <tag k="surface" v="paved"/>
  </node>
  <node id="133487085" version="2" timestamp="2007-11-26T17:56:52Z" uid="3555" user="Marc Schütz" changeset="625949" lat="-20.290568" lon="148.781678">
    <tag k="created_by" v="JOSM"/>
    <tag k="highway" v="secondary"/>
    <tag k="name" v="Shute Harbour Rd"/>
    <tag k="surface" v="paved"/>
  </node>
  <node id="133487109" version="1" timestamp="2007-11-26T01:03:36Z" uid="4467" user="Rosscoe" changeset="621649" lat="-20.291033" lon="148.782292">
    <tag k="created_by" v="JOSM"/>
    <tag k="highway" v="secondary"/>
    <tag k="name" v="Shute Harbour Rd"/>
    <tag k="surface" v="paved"/>
  </node>
  <node id="133487109" version="2" timestamp="2007-11-26T17:59:50Z" uid="3555" user="Marc Schütz" changeset="625949" lat="-20.291033" lon="148.782292">
    <tag k="created_by" v="JOSM"/>
    <tag k="highway" v="secondary"/>
    <tag k="name" v="Shute Harbour Rd"/>
    <tag k="surface" v="paved"/>
  </node>
  <node id="133487135" version="1" timestamp="2007-11-26T01:03:37Z" uid="4467" user="Rosscoe" changeset="621649" lat="-20.290942" lon="148.782135">
    <tag k="created_by" v="JOSM"/>
    <tag k="highway" v="secondary"/>
    <tag k="name" v="Shute Harbour Rd"/>
    <tag k="surface" v="paved"/>
  </node>
  <node id="133487135" version="2" timestamp="2007-11-26T17:55:32Z" uid="3555" user="Marc Schütz" changeset="625949" lat="-20.290942" lon="148.782135">
    <tag k="created_by" v="JOSM"/>
    <tag k="highway" v="secondary"/>
    <tag k="name" v="Shute Harbour Rd"/>
    <tag k="surface" v="paved"/>
  </node>
  <node id="133487163" version="1" timestamp="2007-11-26T01:03:38Z" uid="4467" user="Rosscoe" changeset="621649" lat="-20.29016" lon="148.781277">
    <tag k="created_by" v="JOSM"/>
    <tag k="highway" v="secondary"/>
    <tag k="name" v="Shute Harbour Rd"/>
    <tag k="surface" v="paved"/>
  </node>
  <node id="133487163" version="2" timestamp="2007-11-26T17:30:22Z" uid="3555" user="Marc Schütz" changeset="625949" lat="-20.29016" lon="148.781277"/>
  <node id="133487197" version="1" timestamp="2007-11-26T01:03:38Z" uid="4467" user="Rosscoe" changeset="621649" lat="-20.289917" lon="148.780972">
    <tag k="created_by" v="JOSM"/>
    <tag k="highway" v="secondary"/>
    <tag k="name" v="Shute Harbour Rd"/>
    <tag k="surface" v="paved"/>
  </node>
  <node id="133487197" version="2" timestamp="2007-11-26T18:09:26Z" uid="3555" user="Marc Schütz" changeset="625949" lat="-20.289917" lon="148.780972">
    <tag k="created_by" v="JOSM"/>
    <tag k="highway" v="secondary"/>
    <tag k="name" v="Shute Harbour Rd"/>
    <tag k="surface" v="paved"/>
  </node>
  <node id="133487223" version="1" timestamp="2007-11-26T01:03:39Z" uid="4467" user="Rosscoe" changeset="621649" lat="-20.290433" lon="148.781542">
    <tag k="created_by" v="JOSM"/>
    <tag k="highway" v="secondary"/>
    <tag k="name" v="Shute Harbour Rd"/>
    <tag k="surface" v="paved"/>
  </node>
  <node id="133487223" version="2" timestamp="2007-11-26T17:43:29Z" uid="3555" user="Marc Schütz" changeset="625949" lat="-20.290433" lon="148.781542">
    <tag k="created_by" v="JOSM"/>
    <tag k="highway" v="secondary"/>
    <tag k="name" v="Shute Harbour Rd"/>
    <tag k="surface" v="paved"/>
  </node>
  <node id="133487249" version="1" timestamp="2007-11-26T01:03:40Z" uid="4467" user="Rosscoe" changeset="621649" lat="-20.290295" lon="148.781412">
    <tag k="created_by" v="JOSM"/>
    <tag k="highway" v="secondary"/>
    <tag k="name" v="Shute Harbour Rd"/>
    <tag k="surface" v="paved"/>
  </node>
  <node id="133487249" version="2" timestamp="2007-11-26T17:37:58Z" uid="3555" user="Marc Schütz" changeset="625949" lat="-20.290295" lon="148.781412">
    <tag k="created_by" v="JOSM"/>
    <tag k="highway" v="secondary"/>
    <tag k="name" v="Shute Harbour Rd"/>
    <tag k="surface" v="paved"/>
  </node>
  <node id="133487272" version="1" timestamp="2007-11-26T01:03:41Z" uid="4467" user="Rosscoe" changeset="621649" lat="-20.289587" lon="148.780462">
    <tag k="created_by" v="JOSM"/>
    <tag k="highway" v="secondary"/>
    <tag k="name" v="Shute Harbour Rd"/>
    <tag k="surface" v="paved"/>
  </node>
  <node id="133487272" version="2" timestamp="2007-11-26T17:45:54Z" uid="3555" user="Marc Schütz" changeset="625949" lat="-20.289587" lon="148.780462">
    <tag k="created_by" v="JOSM"/>
    <tag k="highway" v="secondary"/>
    <tag k="name" v="Shute Harbour Rd"/>
    <tag k="surface" v="paved"/>
  </node>
  <node id="133487306" version="1" timestamp="2007-11-26T01:03:42Z" uid="4467" user="Rosscoe" changeset="621649" lat="-20.289362" lon="148.780112">
    <tag k="created_by" v="JOSM"/>
    <tag k="highway" v="secondary"/>
    <tag k="name" v="Shute Harbour Rd"/>
    <tag k="surface" v="paved"/>
  </node>
  <node id="133487306" version="2" timestamp="2007-11-26T18:00:50Z" uid="3555" user="Marc Schütz" changeset="625949" lat="-20.289362" lon="148.780112">
    <tag k="created_by" v="JOSM"/>
    <tag k="highway" v="secondary"/>
    <tag k="name" v="Shute Harbour Rd"/>
    <tag k="surface" v="paved"/>
  </node>
  <node id="133487346" version="1" timestamp="2007-11-26T01:03:42Z" uid="4467" user="Rosscoe" changeset="621649" lat="-20.289807" lon="148.780805">
    <tag k="created_by" v="JOSM"/>
    <tag k="highway" v="secondary"/>
    <tag k="name" v="Shute Harbour Rd"/>
    <tag k="surface" v="paved"/>
  </node>
  <node id="133487346" version="2" timestamp="2007-11-26T17:56:41Z" uid="3555" user="Marc Schütz" changeset="625949" lat="-20.289807" lon="148.780805">
    <tag k="created_by" v="JOSM"/>
    <tag k="highway" v="secondary"/>
    <tag k="name" v="Shute Harbour Rd"/>
    <tag k="surface" v="paved"/>
  </node>
  <node id="133487383" version="1" timestamp="2007-11-26T01:03:43Z" uid="4467" user="Rosscoe" changeset="621649" lat="-20.289697" lon="148.780635">
    <tag k="created_by" v="JOSM"/>
    <tag k="highway" v="secondary"/>
    <tag k="name" v="Shute Harbour Rd"/>
    <tag k="surface" v="paved"/>
  </node>
  <node id="133487383" version="2" timestamp="2007-11-26T17:27:32Z" uid="3555" user="Marc Schütz" changeset="625949" lat="-20.289697" lon="148.780635"/>
  <node id="133487393" version="1" timestamp="2007-11-26T01:03:44Z" uid="4467" user="Rosscoe" changeset="621649" lat="-20.289002" lon="148.779183">
    <tag k="created_by" v="JOSM"/>
    <tag k="highway" v="secondary"/>
    <tag k="name" v="Shute Harbour Rd"/>
    <tag k="surface" v="paved"/>
  </node>
  <node id="133487393" version="2" timestamp="2007-11-26T17:28:37Z" uid="3555" user="Marc Schütz" changeset="625949" lat="-20.289002" lon="148.779183"/>
  <node id="133487426" version="1" timestamp="2007-11-26T01:03:45Z" uid="4467" user="Rosscoe" changeset="621649" lat="-20.289065" lon="148.779572">
    <tag k="created_by" v="JOSM"/>
    <tag k="highway" v="secondary"/>
    <tag k="name" v="Shute Harbour Rd"/>
    <tag k="surface" v="paved"/>
  </node>
  <node id="133487426" version="2" timestamp="2007-11-26T17:30:06Z" uid="3555" user="Marc Schütz" changeset="625949" lat="-20.289065" lon="148.779572"/>
  <node id="133487461" version="1" timestamp="2007-11-26T01:03:45Z" uid="4467" user="Rosscoe" changeset="621649" lat="-20.289148" lon="148.779757">
    <tag k="created_by" v="JOSM"/>
    <tag k="highway" v="secondary"/>
    <tag k="name" v="Shute Harbour Rd"/>
    <tag k="surface" v="paved"/>
  </node>
  <node id="133487461" version="2" timestamp="2007-11-26T17:32:08Z" uid="3555" user="Marc Schütz" changeset="625949" lat="-20.289148" lon="148.779757"/>
  <node id="133487498" version="1" timestamp="2007-11-26T01:03:46Z" uid="4467" user="Rosscoe" changeset="621649" lat="-20.28925" lon="148.779935">
    <tag k="created_by" v="JOSM"/>
    <tag k="highway" v="secondary"/>
    <tag k="name" v="Shute Harbour Rd"/>
    <tag k="surface" v="paved"/>
  </node>
  <node id="133487498" version="2" timestamp="2007-11-26T18:02:35Z" uid="3555" user="Marc Schütz" changeset="625949" lat="-20.28925" lon="148.779935">
    <tag k="created_by" v="JOSM"/>
    <tag k="highway" v="secondary"/>
    <tag k="name" v="Shute Harbour Rd"/>
    <tag k="surface" v="paved"/>
  </node>
  <node id="133487533" version="1" timestamp="2007-11-26T01:03:47Z" uid="4467" user="Rosscoe" changeset="621649" lat="-20.289475" lon="148.778312">
    <tag k="created_by" v="JOSM"/>
    <tag k="highway" v="secondary"/>
    <tag k="name" v="Shute Harbour Rd"/>
    <tag k="surface" v="paved"/>
  </node>
  <node id="133487533" version="2" timestamp="2007-11-26T17:37:53Z" uid="3555" user="Marc Schütz" changeset="625949" lat="-20.289475" lon="148.778312">
    <tag k="created_by" v="JOSM"/>
    <tag k="highway" v="secondary"/>
    <tag k="name" v="Shute Harbour Rd"/>
    <tag k="surface" v="paved"/>
  </node>
  <node id="133487567" version="1" timestamp="2007-11-26T01:03:48Z" uid="4467" user="Rosscoe" changeset="621649" lat="-20.28923" lon="148.778637">
    <tag k="created_by" v="JOSM"/>
    <tag k="highway" v="secondary"/>
    <tag k="name" v="Shute Harbour Rd"/>
    <tag k="surface" v="paved"/>
  </node>
  <node id="133487567" version="2" timestamp="2007-11-26T17:50:21Z" uid="3555" user="Marc Schütz" changeset="625949" lat="-20.28923" lon="148.778637">
    <tag k="created_by" v="JOSM"/>
    <tag k="highway" v="secondary"/>
    <tag k="name" v="Shute Harbour Rd"/>
    <tag k="surface" v="paved"/>
  </node>
  <node id="133487601" version="1" timestamp="2007-11-26T01:03:49Z" uid="4467" user="Rosscoe" changeset="621649" lat="-20.289128" lon="148.778807">
    <tag k="created_by" v="JOSM"/>
    <tag k="highway" v="secondary"/>
    <tag k="name" v="Shute Harbour Rd"/>
    <tag k="surface" v="paved"/>
  </node>
  <node id="133487601" version="2" timestamp="2007-11-26T17:31:40Z" uid="3555" user="Marc Schütz" changeset="625949" lat="-20.289128" lon="148.778807"/>
  <node id="133487628" version="1" timestamp="2007-11-26T01:03:49Z" uid="4467" user="Rosscoe" changeset="621649" lat="-20.289047" lon="148.77899">
    <tag k="created_by" v="JOSM"/>
    <tag k="highway" v="secondary"/>
    <tag k="name" v="Shute Harbour Rd"/>
    <tag k="surface" v="paved"/>
  </node>
  <node id="133487628" version="2" timestamp="2007-11-26T17:40:36Z" uid="3555" user="Marc Schütz" changeset="625949" lat="-20.289047" lon="148.77899">
    <tag k="created_by" v="JOSM"/>
    <tag k="highway" v="secondary"/>
    <tag k="name" v="Shute Harbour Rd"/>
    <tag k="surface" v="paved"/>
  </node>
  <node id="133487657" version="1" timestamp="2007-11-26T01:03:50Z" uid="4467" user="Rosscoe" changeset="621649" lat="-20.289982" lon="148.77749">
    <tag k="created_by" v="JOSM"/>
    <tag k="highway" v="secondary"/>
    <tag k="name" v="Shute Harbour Rd"/>
    <tag k="surface" v="paved"/>
  </node>
  <node id="133487657" version="2" timestamp="2007-11-26T17:30:06Z" uid="3555" user="Marc Schütz" changeset="625949" lat="-20.289982" lon="148.77749"/>
  <node id="133487683" version="1" timestamp="2007-11-26T01:03:51Z" uid="4467" user="Rosscoe" changeset="621649" lat="-20.289817" lon="148.777832">
    <tag k="created_by" v="JOSM"/>
    <tag k="highway" v="secondary"/>
    <tag k="name" v="Shute Harbour Rd"/>
    <tag k="surface" v="paved"/>
  </node>
  <node id="133487683" version="2" timestamp="2007-11-26T17:56:03Z" uid="3555" user="Marc Schütz" changeset="625949" lat="-20.289817" lon="148.777832">
    <tag k="created_by" v="JOSM"/>
    <tag k="highway" v="secondary"/>
    <tag k="name" v="Shute Harbour Rd"/>
    <tag k="surface" v="paved"/>
  </node>
  <node id="133487715" version="1" timestamp="2007-11-26T01:03:52Z" uid="4467" user="Rosscoe" changeset="621649" lat="-20.289712" lon="148.777995">
    <tag k="created_by" v="JOSM"/>
    <tag k="highway" v="secondary"/>
    <tag k="name" v="Shute Harbour Rd"/>
    <tag k="surface" v="paved"/>
  </node>
  <node id="133487715" version="2" timestamp="2007-11-26T17:31:09Z" uid="3555" user="Marc Schütz" changeset="625949" lat="-20.289712" lon="148.777995"/>
  <node id="133487752" version="1" timestamp="2007-11-26T01:03:52Z" uid="4467" user="Rosscoe" changeset="621649" lat="-20.289597" lon="148.778153">
    <tag k="created_by" v="JOSM"/>
    <tag k="highway" v="secondary"/>
    <tag k="name" v="Shute Harbour Rd"/>
    <tag k="surface" v="paved"/>
  </node>
  <node id="133487752" version="2" timestamp="2007-11-26T17:36:36Z" uid="3555" user="Marc Schütz" changeset="625949" lat="-20.289597" lon="148.778153">
    <tag k="created_by" v="JOSM"/>
    <tag k="highway" v="secondary"/>
    <tag k="name" v="Shute Harbour Rd"/>
    <tag k="surface" v="paved"/>
  </node>
  <node id="133487792" version="1" timestamp="2007-11-26T01:03:53Z" uid="4467" user="Rosscoe" changeset="621649" lat="-20.29028" lon="148.776622">
    <tag k="created_by" v="JOSM"/>
    <tag k="highway" v="secondary"/>
    <tag k="name" v="Shute Harbour Rd"/>
    <tag k="surface" v="paved"/>
  </node>
  <node id="133487792" version="2" timestamp="2007-11-26T18:03:19Z" uid="3555" user="Marc Schütz" changeset="625949" lat="-20.29028" lon="148.776622">
    <tag k="created_by" v="JOSM"/>
    <tag k="highway" v="secondary"/>
    <tag k="name" v="Shute Harbour Rd"/>
    <tag k="surface" v="paved"/>
  </node>
  <node id="133487826" version="1" timestamp="2007-11-26T01:03:54Z" uid="4467" user="Rosscoe" changeset="621649" lat="-20.290147" lon="148.776947">
    <tag k="created_by" v="JOSM"/>
    <tag k="highway" v="secondary"/>
    <tag k="name" v="Shute Harbour Rd"/>
    <tag k="surface" v="paved"/>
  </node>
  <node id="133487826" version="2" timestamp="2007-11-26T17:27:30Z" uid="3555" user="Marc Schütz" changeset="625949" lat="-20.290147" lon="148.776947"/>
  <node id="133487845" version="1" timestamp="2007-11-26T01:03:55Z" uid="4467" user="Rosscoe" changeset="621649" lat="-20.290095" lon="148.777123">
    <tag k="created_by" v="JOSM"/>
    <tag k="highway" v="secondary"/>
    <tag k="name" v="Shute Harbour Rd"/>
    <tag k="surface" v="paved"/>
  </node>
  <node id="133487845" version="2" timestamp="2007-11-26T18:05:17Z" uid="3555" user="Marc Schütz" changeset="625949" lat="-20.290095" lon="148.777123">
    <tag k="created_by" v="JOSM"/>
    <tag k="highway" v="secondary"/>
    <tag k="name" v="Shute Harbour Rd"/>
    <tag k="surface" v="paved"/>
  </node>
  <node id="133487863" version="1" timestamp="2007-11-26T01:03:56Z" uid="4467" user="Rosscoe" changeset="621649" lat="-20.290042" lon="148.777307">
    <tag k="created_by" v="JOSM"/>
    <tag k="highway" v="secondary"/>
    <tag k="name" v="Shute Harbour Rd"/>
    <tag k="surface" v="paved"/>
  </node>
  <node id="133487863" version="2" timestamp="2007-11-26T17:41:32Z" uid="3555" user="Marc Schütz" changeset="625949" lat="-20.290042" lon="148.777307">
    <tag k="created_by" v="JOSM"/>
    <tag k="highway" v="secondary"/>
    <tag k="name" v="Shute Harbour Rd"/>
    <tag k="surface" v="paved"/>
  </node>
  <node id="133487887" version="1" timestamp="2007-11-26T01:03:56Z" uid="4467" user="Rosscoe" changeset="621649" lat="-20.290518" lon="148.775723">
    <tag k="created_by" v="JOSM"/>
    <tag k="highway" v="secondary"/>
    <tag k="name" v="Shute Harbour Rd"/>
    <tag k="surface" v="paved"/>
  </node>
  <node id="133487887" version="2" timestamp="2007-11-26T17:27:29Z" uid="3555" user="Marc Schütz" changeset="625949" lat="-20.290518" lon="148.775723"/>
  <node id="133487912" version="1" timestamp="2007-11-26T01:03:57Z" uid="4467" user="Rosscoe" changeset="621649" lat="-20.290445" lon="148.77559">
    <tag k="created_by" v="JOSM"/>
    <tag k="highway" v="secondary"/>
    <tag k="name" v="Shute Harbour Rd"/>
    <tag k="surface" v="paved"/>
  </node>
  <node id="133487912" version="2" timestamp="2007-11-26T17:56:59Z" uid="3555" user="Marc Schütz" changeset="625949" lat="-20.290445" lon="148.77559">
    <tag k="created_by" v="JOSM"/>
    <tag k="highway" v="secondary"/>
    <tag k="name" v="Shute Harbour Rd"/>
    <tag k="surface" v="paved"/>
  </node>
  <node id="133487931" version="1" timestamp="2007-11-26T01:03:58Z" uid="4467" user="Rosscoe" changeset="621649" lat="-20.290337" lon="148.775475">
    <tag k="created_by" v="JOSM"/>
    <tag k="highway" v="secondary"/>
    <tag k="name" v="Shute Harbour Rd"/>
    <tag k="surface" v="paved"/>
  </node>
  <node id="133487931" version="2" timestamp="2007-11-26T17:29:34Z" uid="3555" user="Marc Schütz" changeset="625949" lat="-20.290337" lon="148.775475"/>
  <node id="133487955" version="1" timestamp="2007-11-26T01:03:59Z" uid="4467" user="Rosscoe" changeset="621649" lat="-20.290038" lon="148.775302">
    <tag k="created_by" v="JOSM"/>
    <tag k="highway" v="secondary"/>
    <tag k="name" v="Shute Harbour Rd"/>
    <tag k="surface" v="paved"/>
  </node>
  <node id="133487955" version="2" timestamp="2007-11-26T18:08:26Z" uid="3555" user="Marc Schütz" changeset="625949" lat="-20.290038" lon="148.775302">
    <tag k="created_by" v="JOSM"/>
    <tag k="highway" v="secondary"/>
    <tag k="name" v="Shute Harbour Rd"/>
    <tag k="surface" v="paved"/>
  </node>
  <node id="133487974" version="1" timestamp="2007-11-26T01:03:59Z" uid="4467" user="Rosscoe" changeset="621649" lat="-20.290358" lon="148.776472">
    <tag k="created_by" v="JOSM"/>
    <tag k="highway" v="secondary"/>
    <tag k="name" v="Shute Harbour Rd"/>
    <tag k="surface" v="paved"/>
  </node>
  <node id="133487974" version="2" timestamp="2007-11-26T18:07:15Z" uid="3555" user="Marc Schütz" changeset="625949" lat="-20.290358" lon="148.776472">
    <tag k="created_by" v="JOSM"/>
    <tag k="highway" v="secondary"/>
    <tag k="name" v="Shute Harbour Rd"/>
    <tag k="surface" v="paved"/>
  </node>
  <node id="133487996" version="1" timestamp="2007-11-26T01:04:00Z" uid="4467" user="Rosscoe" changeset="621649" lat="-20.290437" lon="148.776327">
    <tag k="created_by" v="JOSM"/>
    <tag k="highway" v="secondary"/>
    <tag k="name" v="Shute Harbour Rd"/>
    <tag k="surface" v="paved"/>
  </node>
  <node id="133487996" version="2" timestamp="2007-11-26T17:34:44Z" uid="3555" user="Marc Schütz" changeset="625949" lat="-20.290437" lon="148.776327">
    <tag k="created_by" v="JOSM"/>
    <tag k="highway" v="secondary"/>
    <tag k="name" v="Shute Harbour Rd"/>
    <tag k="surface" v="paved"/>
  </node>
  <node id="133488023" version="1" timestamp="2007-11-26T01:04:01Z" uid="4467" user="Rosscoe" changeset="621649" lat="-20.290503" lon="148.77618">
    <tag k="created_by" v="JOSM"/>
    <tag k="highway" v="secondary"/>
    <tag k="name" v="Shute Harbour Rd"/>
    <tag k="surface" v="paved"/>
  </node>
  <node id="133488023" version="2" timestamp="2007-11-26T17:27:52Z" uid="3555" user="Marc Schütz" changeset="625949" lat="-20.290503" lon="148.77618"/>
  <node id="133488052" version="1" timestamp="2007-11-26T01:04:02Z" uid="4467" user="Rosscoe" changeset="621649" lat="-20.290548" lon="148.775873">
    <tag k="created_by" v="JOSM"/>
    <tag k="highway" v="secondary"/>
    <tag k="name" v="Shute Harbour Rd"/>
    <tag k="surface" v="paved"/>
  </node>
  <node id="133488052" version="2" timestamp="2007-11-26T17:31:36Z" uid="3555" user="Marc Schütz" changeset="625949" lat="-20.290548" lon="148.775873"/>
  <node id="133488078" version="1" timestamp="2007-11-26T01:04:02Z" uid="4467" user="Rosscoe" changeset="621649" lat="-20.289125" lon="148.774773">
    <tag k="created_by" v="JOSM"/>
    <tag k="highway" v="secondary"/>
    <tag k="name" v="Shute Harbour Rd"/>
    <tag k="surface" v="paved"/>
  </node>
  <node id="133488078" version="2" timestamp="2007-11-26T17:28:07Z" uid="3555" user="Marc Schütz" changeset="625949" lat="-20.289125" lon="148.774773"/>
  <node id="133488100" version="1" timestamp="2007-11-26T01:04:03Z" uid="4467" user="Rosscoe" changeset="621649" lat="-20.289015" lon="148.774623">
    <tag k="created_by" v="JOSM"/>
    <tag k="highway" v="secondary"/>
    <tag k="name" v="Shute Harbour Rd"/>
    <tag k="surface" v="paved"/>
  </node>
  <node id="133488100" version="2" timestamp="2007-11-26T17:37:50Z" uid="3555" user="Marc Schütz" changeset="625949" lat="-20.289015" lon="148.774623">
    <tag k="created_by" v="JOSM"/>
    <tag k="highway" v="secondary"/>
    <tag k="name" v="Shute Harbour Rd"/>
    <tag k="surface" v="paved"/>
  </node>
  <node id="133488125" version="1" timestamp="2007-11-26T01:04:04Z" uid="4467" user="Rosscoe" changeset="621649" lat="-20.288928" lon="148.774457">
    <tag k="created_by" v="JOSM"/>
    <tag k="highway" v="secondary"/>
    <tag k="name" v="Shute Harbour Rd"/>
    <tag k="surface" v="paved"/>
  </node>
  <node id="133488125" version="2" timestamp="2007-11-26T17:27:44Z" uid="3555" user="Marc Schütz" changeset="625949" lat="-20.288928" lon="148.774457"/>
  <node id="133488151" version="1" timestamp="2007-11-26T01:04:05Z" uid="4467" user="Rosscoe" changeset="621649" lat="-20.28881" lon="148.774098">
    <tag k="created_by" v="JOSM"/>
    <tag k="highway" v="secondary"/>
    <tag k="name" v="Shute Harbour Rd"/>
    <tag k="surface" v="paved"/>
  </node>
  <node id="133488151" version="2" timestamp="2007-11-26T17:58:23Z" uid="3555" user="Marc Schütz" changeset="625949" lat="-20.28881" lon="148.774098">
    <tag k="created_by" v="JOSM"/>
    <tag k="highway" v="secondary"/>
    <tag k="name" v="Shute Harbour Rd"/>
    <tag k="surface" v="paved"/>
  </node>
  <node id="133488179" version="1" timestamp="2007-11-26T01:04:06Z" uid="4467" user="Rosscoe" changeset="621649" lat="-20.289873" lon="148.775235">
    <tag k="created_by" v="JOSM"/>
    <tag k="highway" v="secondary"/>
    <tag k="name" v="Shute Harbour Rd"/>
    <tag k="surface" v="paved"/>
  </node>
  <node id="133488179" version="2" timestamp="2007-11-26T17:52:07Z" uid="3555" user="Marc Schütz" changeset="625949" lat="-20.289873" lon="148.775235">
    <tag k="created_by" v="JOSM"/>
    <tag k="highway" v="secondary"/>
    <tag k="name" v="Shute Harbour Rd"/>
    <tag k="surface" v="paved"/>
  </node>
  <node id="133488206" version="1" timestamp="2007-11-26T01:04:06Z" uid="4467" user="Rosscoe" changeset="621649" lat="-20.289712" lon="148.775175">
    <tag k="created_by" v="JOSM"/>
    <tag k="highway" v="secondary"/>
    <tag k="name" v="Shute Harbour Rd"/>
    <tag k="surface" v="paved"/>
  </node>
  <node id="133488206" version="2" timestamp="2007-11-26T17:39:06Z" uid="3555" user="Marc Schütz" changeset="625949" lat="-20.289712" lon="148.775175">
    <tag k="created_by" v="JOSM"/>
    <tag k="highway" v="secondary"/>
    <tag k="name" v="Shute Harbour Rd"/>
    <tag k="surface" v="paved"/>
  </node>
  <node id="133488236" version="1" timestamp="2007-11-26T01:04:07Z" uid="4467" user="Rosscoe" changeset="621649" lat="-20.289552" lon="148.775103">
    <tag k="created_by" v="JOSM"/>
    <tag k="highway" v="secondary"/>
    <tag k="name" v="Shute Harbour Rd"/>
    <tag k="surface" v="paved"/>
  </node>
  <node id="133488236" version="2" timestamp="2007-11-26T17:31:12Z" uid="3555" user="Marc Schütz" changeset="625949" lat="-20.289552" lon="148.775103"/>
  <node id="133488266" version="1" timestamp="2007-11-26T01:04:08Z" uid="4467" user="Rosscoe" changeset="621649" lat="-20.289253" lon="148.774905">
    <tag k="created_by" v="JOSM"/>
    <tag k="highway" v="secondary"/>
    <tag k="name" v="Shute Harbour Rd"/>
    <tag k="surface" v="paved"/>
  </node>
  <node id="133488266" version="2" timestamp="2007-11-26T18:07:40Z" uid="3555" user="Marc Schütz" changeset="625949" lat="-20.289253" lon="148.774905">
    <tag k="created_by" v="JOSM"/>
    <tag k="highway" v="secondary"/>
    <tag k="name" v="Shute Harbour Rd"/>
    <tag k="surface" v="paved"/>
  </node>
  <node id="133488294" version="1" timestamp="2007-11-26T01:04:09Z" uid="4467" user="Rosscoe" changeset="621649" lat="-20.288397" lon="148.772955">
    <tag k="created_by" v="JOSM"/>
    <tag k="highway" v="secondary"/>
    <tag k="name" v="Shute Harbour Rd"/>
    <tag k="surface" v="paved"/>
  </node>
  <node id="133488294" version="2" timestamp="2007-11-26T18:09:58Z" uid="3555" user="Marc Schütz" changeset="625949" lat="-20.288397" lon="148.772955">
    <tag k="created_by" v="JOSM"/>
    <tag k="highway" v="secondary"/>
    <tag k="name" v="Shute Harbour Rd"/>
    <tag k="surface" v="paved"/>
  </node>
  <node id="133488326" version="1" timestamp="2007-11-26T01:04:09Z" uid="4467" user="Rosscoe" changeset="621649" lat="-20.288488" lon="148.773095">
    <tag k="created_by" v="JOSM"/>
    <tag k="highway" v="secondary"/>
    <tag k="name" v="Shute Harbour Rd"/>
    <tag k="surface" v="paved"/>
  </node>
  <node id="133488326" version="2" timestamp="2007-11-26T17:53:03Z" uid="3555" user="Marc Schütz" changeset="625949" lat="-20.288488" lon="148.773095">
    <tag k="created_by" v="JOSM"/>
    <tag k="highway" v="secondary"/>
    <tag k="name" v="Shute Harbour Rd"/>
    <tag k="surface" v="paved"/>
  </node>
  <node id="133488355" version="1" timestamp="2007-11-26T01:04:10Z" uid="4467" user="Rosscoe" changeset="621649" lat="-20.288047" lon="148.77265">
    <tag k="created_by" v="JOSM"/>
    <tag k="highway" v="secondary"/>
    <tag k="name" v="Shute Harbour Rd"/>
    <tag k="surface" v="paved"/>
  </node>
  <node id="133488355" version="2" timestamp="2007-11-26T17:41:39Z" uid="3555" user="Marc Schütz" changeset="625949" lat="-20.288047" lon="148.77265">
    <tag k="created_by" v="JOSM"/>
    <tag k="highway" v="secondary"/>
    <tag k="name" v="Shute Harbour Rd"/>
    <tag k="surface" v="paved"/>
  </node>
  <node id="133488380" version="1" timestamp="2007-11-26T01:04:11Z" uid="4467" user="Rosscoe" changeset="621649" lat="-20.288293" lon="148.772835">
    <tag k="created_by" v="JOSM"/>
    <tag k="highway" v="secondary"/>
    <tag k="name" v="Shute Harbour Rd"/>
    <tag k="surface" v="paved"/>
  </node>
  <node id="133488380" version="2" timestamp="2007-11-26T17:29:45Z" uid="3555" user="Marc Schütz" changeset="625949" lat="-20.288293" lon="148.772835"/>
  <node id="133488405" version="1" timestamp="2007-11-26T01:04:12Z" uid="4467" user="Rosscoe" changeset="621649" lat="-20.288718" lon="148.773742">
    <tag k="created_by" v="JOSM"/>
    <tag k="highway" v="secondary"/>
    <tag k="name" v="Shute Harbour Rd"/>
    <tag k="surface" v="paved"/>
  </node>
  <node id="133488405" version="2" timestamp="2007-11-26T17:34:06Z" uid="3555" user="Marc Schütz" changeset="625949" lat="-20.288718" lon="148.773742">
    <tag k="created_by" v="JOSM"/>
    <tag k="highway" v="secondary"/>
    <tag k="name" v="Shute Harbour Rd"/>
    <tag k="surface" v="paved"/>
  </node>
  <node id="133488432" version="1" timestamp="2007-11-26T01:04:13Z" uid="4467" user="Rosscoe" changeset="621649" lat="-20.288763" lon="148.773918">
    <tag k="created_by" v="JOSM"/>
    <tag k="highway" v="secondary"/>
    <tag k="name" v="Shute Harbour Rd"/>
    <tag k="surface" v="paved"/>
  </node>
  <node id="133488432" version="2" timestamp="2007-11-26T17:53:35Z" uid="3555" user="Marc Schütz" changeset="625949" lat="-20.288763" lon="148.773918">
    <tag k="created_by" v="JOSM"/>
    <tag k="highway" v="secondary"/>
    <tag k="name" v="Shute Harbour Rd"/>
    <tag k="surface" v="paved"/>
  </node>
  <node id="133488463" version="1" timestamp="2007-11-26T01:04:13Z" uid="4467" user="Rosscoe" changeset="621649" lat="-20.288565" lon="148.77325">
    <tag k="created_by" v="JOSM"/>
    <tag k="highway" v="secondary"/>
    <tag k="name" v="Shute Harbour Rd"/>
    <tag k="surface" v="paved"/>
  </node>
  <node id="133488463" version="2" timestamp="2007-11-26T17:28:30Z" uid="3555" user="Marc Schütz" changeset="625949" lat="-20.288565" lon="148.77325"/>
  <node id="133488492" version="1" timestamp="2007-11-26T01:04:14Z" uid="4467" user="Rosscoe" changeset="621649" lat="-20.288675" lon="148.773573">
    <tag k="created_by" v="JOSM"/>
    <tag k="highway" v="secondary"/>
    <tag k="name" v="Shute Harbour Rd"/>
    <tag k="surface" v="paved"/>
  </node>
  <node id="133488492" version="2" timestamp="2007-11-26T17:50:55Z" uid="3555" user="Marc Schütz" changeset="625949" lat="-20.288675" lon="148.773573">
    <tag k="created_by" v="JOSM"/>
    <tag k="highway" v="secondary"/>
    <tag k="name" v="Shute Harbour Rd"/>
    <tag k="surface" v="paved"/>
  </node>
  <node id="133488519" version="1" timestamp="2007-11-26T01:04:15Z" uid="4467" user="Rosscoe" changeset="621649" lat="-20.286832" lon="148.7723">
    <tag k="created_by" v="JOSM"/>
    <tag k="highway" v="secondary"/>
    <tag k="name" v="Shute Harbour Rd"/>
    <tag k="surface" v="paved"/>
  </node>
  <node id="133488519" version="2" timestamp="2007-11-26T17:47:00Z" uid="3555" user="Marc Schütz" changeset="625949" lat="-20.286832" lon="148.7723">
    <tag k="created_by" v="JOSM"/>
    <tag k="highway" v="secondary"/>
    <tag k="name" v="Shute Harbour Rd"/>
    <tag k="surface" v="paved"/>
  </node>
  <node id="133488549" version="1" timestamp="2007-11-26T01:04:16Z" uid="4467" user="Rosscoe" changeset="621649" lat="-20.287013" lon="148.772347">
    <tag k="created_by" v="JOSM"/>
    <tag k="highway" v="secondary"/>
    <tag k="name" v="Shute Harbour Rd"/>
    <tag k="surface" v="paved"/>
  </node>
  <node id="133488549" version="2" timestamp="2007-11-26T17:52:53Z" uid="3555" user="Marc Schütz" changeset="625949" lat="-20.287013" lon="148.772347">
    <tag k="created_by" v="JOSM"/>
    <tag k="highway" v="secondary"/>
    <tag k="name" v="Shute Harbour Rd"/>
    <tag k="surface" v="paved"/>
  </node>
  <node id="133488577" version="1" timestamp="2007-11-26T01:04:17Z" uid="4467" user="Rosscoe" changeset="621649" lat="-20.286347" lon="148.77208">
    <tag k="created_by" v="JOSM"/>
    <tag k="highway" v="secondary"/>
    <tag k="name" v="Shute Harbour Rd"/>
    <tag k="surface" v="paved"/>
  </node>
  <node id="133488577" version="2" timestamp="2007-11-26T17:31:08Z" uid="3555" user="Marc Schütz" changeset="625949" lat="-20.286347" lon="148.77208"/>
  <node id="133488609" version="1" timestamp="2007-11-26T01:04:18Z" uid="4467" user="Rosscoe" changeset="621649" lat="-20.286655" lon="148.772248">
    <tag k="created_by" v="JOSM"/>
    <tag k="highway" v="secondary"/>
    <tag k="name" v="Shute Harbour Rd"/>
    <tag k="surface" v="paved"/>
  </node>
  <node id="133488609" version="2" timestamp="2007-11-26T17:30:54Z" uid="3555" user="Marc Schütz" changeset="625949" lat="-20.286655" lon="148.772248"/>
  <node id="133488614" version="1" timestamp="2007-11-26T01:04:18Z" uid="4467" user="Rosscoe" changeset="621649" lat="-20.287733" lon="148.772528">
    <tag k="created_by" v="JOSM"/>
    <tag k="highway" v="secondary"/>
    <tag k="name" v="Shute Harbour Rd"/>
    <tag k="surface" v="paved"/>
  </node>
  <node id="133488614" version="2" timestamp="2007-11-26T18:08:46Z" uid="3555" user="Marc Schütz" changeset="625949" lat="-20.287733" lon="148.772528">
    <tag k="created_by" v="JOSM"/>
    <tag k="highway" v="secondary"/>
    <tag k="name" v="Shute Harbour Rd"/>
    <tag k="surface" v="paved"/>
  </node>
  <node id="133488630" version="1" timestamp="2007-11-26T01:04:19Z" uid="4467" user="Rosscoe" changeset="621649" lat="-20.287897" lon="148.772583">
    <tag k="created_by" v="JOSM"/>
    <tag k="highway" v="secondary"/>
    <tag k="name" v="Shute Harbour Rd"/>
    <tag k="surface" v="paved"/>
  </node>
  <node id="133488630" version="2" timestamp="2007-11-26T17:30:10Z" uid="3555" user="Marc Schütz" changeset="625949" lat="-20.287897" lon="148.772583"/>
  <node id="133488659" version="1" timestamp="2007-11-26T01:04:20Z" uid="4467" user="Rosscoe" changeset="621649" lat="-20.287195" lon="148.77239">
    <tag k="created_by" v="JOSM"/>
    <tag k="highway" v="secondary"/>
    <tag k="name" v="Shute Harbour Rd"/>
    <tag k="surface" v="paved"/>
  </node>
  <node id="133488659" version="2" timestamp="2007-11-26T17:41:29Z" uid="3555" user="Marc Schütz" changeset="625949" lat="-20.287195" lon="148.77239">
    <tag k="created_by" v="JOSM"/>
    <tag k="highway" v="secondary"/>
    <tag k="name" v="Shute Harbour Rd"/>
    <tag k="surface" v="paved"/>
  </node>
  <node id="133488682" version="1" timestamp="2007-11-26T01:04:21Z" uid="4467" user="Rosscoe" changeset="621649" lat="-20.287558" lon="148.772478">
    <tag k="created_by" v="JOSM"/>
    <tag k="highway" v="secondary"/>
    <tag k="name" v="Shute Harbour Rd"/>
    <tag k="surface" v="paved"/>
  </node>
  <node id="133488682" version="2" timestamp="2007-11-26T17:55:51Z" uid="3555" user="Marc Schütz" changeset="625949" lat="-20.287558" lon="148.772478">
    <tag k="created_by" v="JOSM"/>
    <tag k="highway" v="secondary"/>
    <tag k="name" v="Shute Harbour Rd"/>
    <tag k="surface" v="paved"/>
  </node>
  <node id="133488712" version="1" timestamp="2007-11-26T01:04:21Z" uid="4467" user="Rosscoe" changeset="621649" lat="-20.286237" lon="148.770803">
    <tag k="created_by" v="JOSM"/>
    <tag k="highway" v="secondary"/>
    <tag k="name" v="Shute Harbour Rd"/>
    <tag k="surface" v="paved"/>
  </node>
  <node id="133488712" version="2" timestamp="2007-11-26T18:00:08Z" uid="3555" user="Marc Schütz" changeset="625949" lat="-20.286237" lon="148.770803">
    <tag k="created_by" v="JOSM"/>
    <tag k="highway" v="secondary"/>
    <tag k="name" v="Shute Harbour Rd"/>
    <tag k="surface" v="paved"/>
  </node>
  <node id="133488731" version="1" timestamp="2007-11-26T01:04:22Z" uid="4467" user="Rosscoe" changeset="621649" lat="-20.286427" lon="148.77051">
    <tag k="created_by" v="JOSM"/>
    <tag k="highway" v="secondary"/>
    <tag k="name" v="Shute Harbour Rd"/>
    <tag k="surface" v="paved"/>
  </node>
  <node id="133488731" version="2" timestamp="2007-11-26T17:55:43Z" uid="3555" user="Marc Schütz" changeset="625949" lat="-20.286427" lon="148.77051">
    <tag k="created_by" v="JOSM"/>
    <tag k="highway" v="secondary"/>
    <tag k="name" v="Shute Harbour Rd"/>
    <tag k="surface" v="paved"/>
  </node>
  <node id="133488762" version="1" timestamp="2007-11-26T01:04:23Z" uid="4467" user="Rosscoe" changeset="621649" lat="-20.286077" lon="148.771122">
    <tag k="created_by" v="JOSM"/>
    <tag k="highway" v="secondary"/>
    <tag k="name" v="Shute Harbour Rd"/>
    <tag k="surface" v="paved"/>
  </node>
  <node id="133488762" version="2" timestamp="2007-11-26T18:07:44Z" uid="3555" user="Marc Schütz" changeset="625949" lat="-20.286077" lon="148.771122">
    <tag k="created_by" v="JOSM"/>
    <tag k="highway" v="secondary"/>
    <tag k="name" v="Shute Harbour Rd"/>
    <tag k="surface" v="paved"/>
  </node>
  <node id="133488781" version="1" timestamp="2007-11-26T01:04:24Z" uid="4467" user="Rosscoe" changeset="621649" lat="-20.286147" lon="148.770955">
    <tag k="created_by" v="JOSM"/>
    <tag k="highway" v="secondary"/>
    <tag k="name" v="Shute Harbour Rd"/>
    <tag k="surface" v="paved"/>
  </node>
  <node id="133488781" version="2" timestamp="2007-11-26T17:28:01Z" uid="3555" user="Marc Schütz" changeset="625949" lat="-20.286147" lon="148.770955"/>
  <node id="133488802" version="1" timestamp="2007-11-26T01:04:25Z" uid="4467" user="Rosscoe" changeset="621649" lat="-20.286067" lon="148.77166">
    <tag k="created_by" v="JOSM"/>
    <tag k="highway" v="secondary"/>
    <tag k="name" v="Shute Harbour Rd"/>
    <tag k="surface" v="paved"/>
  </node>
  <node id="133488802" version="2" timestamp="2007-11-26T17:28:15Z" uid="3555" user="Marc Schütz" changeset="625949" lat="-20.286067" lon="148.77166"/>
  <node id="133488831" version="1" timestamp="2007-11-26T01:04:25Z" uid="4467" user="Rosscoe" changeset="621649" lat="-20.286037" lon="148.771302">
    <tag k="created_by" v="JOSM"/>
    <tag k="highway" v="secondary"/>
    <tag k="name" v="Shute Harbour Rd"/>
    <tag k="surface" v="paved"/>
  </node>
  <node id="133488831" version="2" timestamp="2007-11-26T17:31:04Z" uid="3555" user="Marc Schütz" changeset="625949" lat="-20.286037" lon="148.771302"/>
  <node id="133488859" version="1" timestamp="2007-11-26T01:04:26Z" uid="4467" user="Rosscoe" changeset="621649" lat="-20.286225" lon="148.771962">
    <tag k="created_by" v="JOSM"/>
    <tag k="highway" v="secondary"/>
    <tag k="name" v="Shute Harbour Rd"/>
    <tag k="surface" v="paved"/>
  </node>
  <node id="133488859" version="2" timestamp="2007-11-26T17:58:24Z" uid="3555" user="Marc Schütz" changeset="625949" lat="-20.286225" lon="148.771962">
    <tag k="created_by" v="JOSM"/>
    <tag k="highway" v="secondary"/>
    <tag k="name" v="Shute Harbour Rd"/>
    <tag k="surface" v="paved"/>
  </node>
  <node id="133488879" version="1" timestamp="2007-11-26T01:04:27Z" uid="4467" user="Rosscoe" changeset="621649" lat="-20.286132" lon="148.77182">
    <tag k="created_by" v="JOSM"/>
    <tag k="highway" v="secondary"/>
    <tag k="name" v="Shute Harbour Rd"/>
    <tag k="surface" v="paved"/>
  </node>
  <node id="133488879" version="2" timestamp="2007-11-26T17:32:25Z" uid="3555" user="Marc Schütz" changeset="625949" lat="-20.286132" lon="148.77182"/>
  <node id="133488912" version="1" timestamp="2007-11-26T01:04:28Z" uid="4467" user="Rosscoe" changeset="621649" lat="-20.286433" lon="148.76927">
    <tag k="created_by" v="JOSM"/>
    <tag k="highway" v="secondary"/>
    <tag k="name" v="Shute Harbour Rd"/>
    <tag k="surface" v="paved"/>
  </node>
  <node id="133488912" version="2" timestamp="2007-11-26T17:32:47Z" uid="3555" user="Marc Schütz" changeset="625949" lat="-20.286433" lon="148.76927"/>
  <node id="133488946" version="1" timestamp="2007-11-26T01:04:28Z" uid="4467" user="Rosscoe" changeset="621649" lat="-20.286192" lon="148.768955">
    <tag k="created_by" v="JOSM"/>
    <tag k="highway" v="secondary"/>
    <tag k="name" v="Shute Harbour Rd"/>
    <tag k="surface" v="paved"/>
  </node>
  <node id="133488946" version="2" timestamp="2007-11-26T18:02:56Z" uid="3555" user="Marc Schütz" changeset="625949" lat="-20.286192" lon="148.768955">
    <tag k="created_by" v="JOSM"/>
    <tag k="highway" v="secondary"/>
    <tag k="name" v="Shute Harbour Rd"/>
    <tag k="surface" v="paved"/>
  </node>
  <node id="133488968" version="1" timestamp="2007-11-26T01:04:29Z" uid="4467" user="Rosscoe" changeset="621649" lat="-20.2866" lon="148.769588">
    <tag k="created_by" v="JOSM"/>
    <tag k="highway" v="secondary"/>
    <tag k="name" v="Shute Harbour Rd"/>
    <tag k="surface" v="paved"/>
  </node>
  <node id="133488968" version="2" timestamp="2007-11-26T17:31:10Z" uid="3555" user="Marc Schütz" changeset="625949" lat="-20.2866" lon="148.769588"/>
  <node id="133488992" version="1" timestamp="2007-11-26T01:04:30Z" uid="4467" user="Rosscoe" changeset="621649" lat="-20.286532" lon="148.769428">
    <tag k="created_by" v="JOSM"/>
    <tag k="highway" v="secondary"/>
    <tag k="name" v="Shute Harbour Rd"/>
    <tag k="surface" v="paved"/>
  </node>
  <node id="133488992" version="2" timestamp="2007-11-26T17:56:30Z" uid="3555" user="Marc Schütz" changeset="625949" lat="-20.286532" lon="148.769428">
    <tag k="created_by" v="JOSM"/>
    <tag k="highway" v="secondary"/>
    <tag k="name" v="Shute Harbour Rd"/>
    <tag k="surface" v="paved"/>
  </node>
  <node id="133489025" version="1" timestamp="2007-11-26T01:04:31Z" uid="4467" user="Rosscoe" changeset="621649" lat="-20.286628" lon="148.77006">
    <tag k="created_by" v="JOSM"/>
    <tag k="highway" v="secondary"/>
    <tag k="name" v="Shute Harbour Rd"/>
    <tag k="surface" v="paved"/>
  </node>
  <node id="133489025" version="2" timestamp="2007-11-26T17:32:14Z" uid="3555" user="Marc Schütz" changeset="625949" lat="-20.286628" lon="148.77006"/>
  <node id="133489059" version="1" timestamp="2007-11-26T01:04:32Z" uid="4467" user="Rosscoe" changeset="621649" lat="-20.286637" lon="148.769748">
    <tag k="created_by" v="JOSM"/>
    <tag k="highway" v="secondary"/>
    <tag k="name" v="Shute Harbour Rd"/>
    <tag k="surface" v="paved"/>
  </node>
  <node id="133489059" version="2" timestamp="2007-11-26T17:31:50Z" uid="3555" user="Marc Schütz" changeset="625949" lat="-20.286637" lon="148.769748"/>
  <node id="133489081" version="1" timestamp="2007-11-26T01:04:32Z" uid="4467" user="Rosscoe" changeset="621649" lat="-20.286512" lon="148.770362">
    <tag k="created_by" v="JOSM"/>
    <tag k="highway" v="secondary"/>
    <tag k="name" v="Shute Harbour Rd"/>
    <tag k="surface" v="paved"/>
  </node>
  <node id="133489081" version="2" timestamp="2007-11-26T17:52:04Z" uid="3555" user="Marc Schütz" changeset="625949" lat="-20.286512" lon="148.770362">
    <tag k="created_by" v="JOSM"/>
    <tag k="highway" v="secondary"/>
    <tag k="name" v="Shute Harbour Rd"/>
    <tag k="surface" v="paved"/>
  </node>
  <node id="133489106" version="1" timestamp="2007-11-26T01:04:33Z" uid="4467" user="Rosscoe" changeset="621649" lat="-20.28658" lon="148.770212">
    <tag k="created_by" v="JOSM"/>
    <tag k="highway" v="secondary"/>
    <tag k="name" v="Shute Harbour Rd"/>
    <tag k="surface" v="paved"/>
  </node>
  <node id="133489106" version="2" timestamp="2007-11-26T17:32:22Z" uid="3555" user="Marc Schütz" changeset="625949" lat="-20.28658" lon="148.770212"/>
  <node id="133489123" version="1" timestamp="2007-11-26T01:04:34Z" uid="4467" user="Rosscoe" changeset="621649" lat="-20.28544" lon="148.767173">
    <tag k="created_by" v="JOSM"/>
    <tag k="highway" v="secondary"/>
    <tag k="name" v="Shute Harbour Rd"/>
    <tag k="surface" v="paved"/>
  </node>
  <node id="133489123" version="2" timestamp="2007-11-26T17:35:17Z" uid="3555" user="Marc Schütz" changeset="625949" lat="-20.28544" lon="148.767173">
    <tag k="created_by" v="JOSM"/>
    <tag k="highway" v="secondary"/>
    <tag k="name" v="Shute Harbour Rd"/>
    <tag k="surface" v="paved"/>
  </node>
  <node id="133489149" version="1" timestamp="2007-11-26T01:04:35Z" uid="4467" user="Rosscoe" changeset="621649" lat="-20.28554" lon="148.767557">
    <tag k="created_by" v="JOSM"/>
    <tag k="highway" v="secondary"/>
    <tag k="name" v="Shute Harbour Rd"/>
    <tag k="surface" v="paved"/>
  </node>
  <node id="133489149" version="2" timestamp="2007-11-26T17:50:57Z" uid="3555" user="Marc Schütz" changeset="625949" lat="-20.28554" lon="148.767557">
    <tag k="created_by" v="JOSM"/>
    <tag k="highway" v="secondary"/>
    <tag k="name" v="Shute Harbour Rd"/>
    <tag k="surface" v="paved"/>
  </node>
  <node id="133489183" version="1" timestamp="2007-11-26T01:04:35Z" uid="4467" user="Rosscoe" changeset="621649" lat="-20.285587" lon="148.767738">
    <tag k="created_by" v="JOSM"/>
    <tag k="highway" v="secondary"/>
    <tag k="name" v="Shute Harbour Rd"/>
    <tag k="surface" v="paved"/>
  </node>
  <node id="133489183" version="2" timestamp="2007-11-26T17:55:37Z" uid="3555" user="Marc Schütz" changeset="625949" lat="-20.285587" lon="148.767738">
    <tag k="created_by" v="JOSM"/>
    <tag k="highway" v="secondary"/>
    <tag k="name" v="Shute Harbour Rd"/>
    <tag k="surface" v="paved"/>
  </node>
  <node id="133489210" version="1" timestamp="2007-11-26T01:04:36Z" uid="4467" user="Rosscoe" changeset="621649" lat="-20.28564" lon="148.767923">
    <tag k="created_by" v="JOSM"/>
    <tag k="highway" v="secondary"/>
    <tag k="name" v="Shute Harbour Rd"/>
    <tag k="surface" v="paved"/>
  </node>
  <node id="133489210" version="2" timestamp="2007-11-26T17:38:10Z" uid="3555" user="Marc Schütz" changeset="625949" lat="-20.28564" lon="148.767923">
    <tag k="created_by" v="JOSM"/>
    <tag k="highway" v="secondary"/>
    <tag k="name" v="Shute Harbour Rd"/>
    <tag k="surface" v="paved"/>
  </node>
  <node id="133489236" version="1" timestamp="2007-11-26T01:04:37Z" uid="4467" user="Rosscoe" changeset="621649" lat="-20.285702" lon="148.768112">
    <tag k="created_by" v="JOSM"/>
    <tag k="highway" v="secondary"/>
    <tag k="name" v="Shute Harbour Rd"/>
    <tag k="surface" v="paved"/>
  </node>
  <node id="133489236" version="2" timestamp="2007-11-26T17:29:52Z" uid="3555" user="Marc Schütz" changeset="625949" lat="-20.285702" lon="148.768112"/>
  <node id="133489261" version="1" timestamp="2007-11-26T01:04:38Z" uid="4467" user="Rosscoe" changeset="621649" lat="-20.285865" lon="148.768478">
    <tag k="created_by" v="JOSM"/>
    <tag k="highway" v="secondary"/>
    <tag k="name" v="Shute Harbour Rd"/>
    <tag k="surface" v="paved"/>
  </node>
  <node id="133489261" version="2" timestamp="2007-11-26T18:05:37Z" uid="3555" user="Marc Schütz" changeset="625949" lat="-20.285865" lon="148.768478">
    <tag k="created_by" v="JOSM"/>
    <tag k="highway" v="secondary"/>
    <tag k="name" v="Shute Harbour Rd"/>
    <tag k="surface" v="paved"/>
  </node>
  <node id="133489285" version="1" timestamp="2007-11-26T01:04:38Z" uid="4467" user="Rosscoe" changeset="621649" lat="-20.285962" lon="148.768642">
    <tag k="created_by" v="JOSM"/>
    <tag k="highway" v="secondary"/>
    <tag k="name" v="Shute Harbour Rd"/>
    <tag k="surface" v="paved"/>
  </node>
  <node id="133489285" version="2" timestamp="2007-11-26T17:29:36Z" uid="3555" user="Marc Schütz" changeset="625949" lat="-20.285962" lon="148.768642"/>
  <node id="133489316" version="1" timestamp="2007-11-26T01:04:39Z" uid="4467" user="Rosscoe" changeset="621649" lat="-20.286072" lon="148.768798">
    <tag k="created_by" v="JOSM"/>
    <tag k="highway" v="secondary"/>
    <tag k="name" v="Shute Harbour Rd"/>
    <tag k="surface" v="paved"/>
  </node>
  <node id="133489316" version="2" timestamp="2007-11-26T17:37:09Z" uid="3555" user="Marc Schütz" changeset="625949" lat="-20.286072" lon="148.768798">
    <tag k="created_by" v="JOSM"/>
    <tag k="highway" v="secondary"/>
    <tag k="name" v="Shute Harbour Rd"/>
    <tag k="surface" v="paved"/>
  </node>
  <node id="133489333" version="1" timestamp="2007-11-26T01:04:40Z" uid="4467" user="Rosscoe" changeset="621649" lat="-20.284758" lon="148.765237">
    <tag k="created_by" v="JOSM"/>
    <tag k="highway" v="secondary"/>
    <tag k="name" v="Shute Harbour Rd"/>
    <tag k="surface" v="paved"/>
  </node>
  <node id="133489333" version="2" timestamp="2007-11-26T17:36:37Z" uid="3555" user="Marc Schütz" changeset="625949" lat="-20.284758" lon="148.765237">
    <tag k="created_by" v="JOSM"/>
    <tag k="highway" v="secondary"/>
    <tag k="name" v="Shute Harbour Rd"/>
    <tag k="surface" v="paved"/>
  </node>
  <node id="133489359" version="1" timestamp="2007-11-26T01:04:41Z" uid="4467" user="Rosscoe" changeset="621649" lat="-20.28494" lon="148.765598">
    <tag k="created_by" v="JOSM"/>
    <tag k="highway" v="secondary"/>
    <tag k="name" v="Shute Harbour Rd"/>
    <tag k="surface" v="paved"/>
  </node>
  <node id="133489359" version="2" timestamp="2007-11-26T17:38:59Z" uid="3555" user="Marc Schütz" changeset="625949" lat="-20.28494" lon="148.765598">
    <tag k="created_by" v="JOSM"/>
    <tag k="highway" v="secondary"/>
    <tag k="name" v="Shute Harbour Rd"/>
    <tag k="surface" v="paved"/>
  </node>
  <node id="133489387" version="1" timestamp="2007-11-26T01:04:42Z" uid="4467" user="Rosscoe" changeset="621649" lat="-20.285023" lon="148.765777">
    <tag k="created_by" v="JOSM"/>
    <tag k="highway" v="secondary"/>
    <tag k="name" v="Shute Harbour Rd"/>
    <tag k="surface" v="paved"/>
  </node>
  <node id="133489387" version="2" timestamp="2007-11-26T18:02:01Z" uid="3555" user="Marc Schütz" changeset="625949" lat="-20.285023" lon="148.765777">
    <tag k="created_by" v="JOSM"/>
    <tag k="highway" v="secondary"/>
    <tag k="name" v="Shute Harbour Rd"/>
    <tag k="surface" v="paved"/>
  </node>
  <node id="133489414" version="1" timestamp="2007-11-26T01:04:42Z" uid="4467" user="Rosscoe" changeset="621649" lat="-20.285098" lon="148.765962">
    <tag k="created_by" v="JOSM"/>
    <tag k="highway" v="secondary"/>
    <tag k="name" v="Shute Harbour Rd"/>
    <tag k="surface" v="paved"/>
  </node>
  <node id="133489414" version="2" timestamp="2007-11-26T18:00:56Z" uid="3555" user="Marc Schütz" changeset="625949" lat="-20.285098" lon="148.765962">
    <tag k="created_by" v="JOSM"/>
    <tag k="highway" v="secondary"/>
    <tag k="name" v="Shute Harbour Rd"/>
    <tag k="surface" v="paved"/>
  </node>
  <node id="133489434" version="1" timestamp="2007-11-26T01:04:43Z" uid="4467" user="Rosscoe" changeset="621649" lat="-20.285165" lon="148.766153">
    <tag k="created_by" v="JOSM"/>
    <tag k="highway" v="secondary"/>
    <tag k="name" v="Shute Harbour Rd"/>
    <tag k="surface" v="paved"/>
  </node>
  <node id="133489434" version="2" timestamp="2007-11-26T17:31:14Z" uid="3555" user="Marc Schütz" changeset="625949" lat="-20.285165" lon="148.766153"/>
  <node id="133489461" version="1" timestamp="2007-11-26T01:04:44Z" uid="4467" user="Rosscoe" changeset="621649" lat="-20.285283" lon="148.766565">
    <tag k="created_by" v="JOSM"/>
    <tag k="highway" v="secondary"/>
    <tag k="name" v="Shute Harbour Rd"/>
    <tag k="surface" v="paved"/>
  </node>
  <node id="133489461" version="2" timestamp="2007-11-26T17:46:47Z" uid="3555" user="Marc Schütz" changeset="625949" lat="-20.285283" lon="148.766565">
    <tag k="created_by" v="JOSM"/>
    <tag k="highway" v="secondary"/>
    <tag k="name" v="Shute Harbour Rd"/>
    <tag k="surface" v="paved"/>
  </node>
  <node id="133489489" version="1" timestamp="2007-11-26T01:04:45Z" uid="4467" user="Rosscoe" changeset="621649" lat="-20.285337" lon="148.766772">
    <tag k="created_by" v="JOSM"/>
    <tag k="highway" v="secondary"/>
    <tag k="name" v="Shute Harbour Rd"/>
    <tag k="surface" v="paved"/>
  </node>
  <node id="133489489" version="2" timestamp="2007-11-26T17:49:49Z" uid="3555" user="Marc Schütz" changeset="625949" lat="-20.285337" lon="148.766772">
    <tag k="created_by" v="JOSM"/>
    <tag k="highway" v="secondary"/>
    <tag k="name" v="Shute Harbour Rd"/>
    <tag k="surface" v="paved"/>
  </node>
  <node id="133489513" version="1" timestamp="2007-11-26T01:04:45Z" uid="4467" user="Rosscoe" changeset="621649" lat="-20.285388" lon="148.766973">
    <tag k="created_by" v="JOSM"/>
    <tag k="highway" v="secondary"/>
    <tag k="name" v="Shute Harbour Rd"/>
    <tag k="surface" v="paved"/>
  </node>
  <node id="133489513" version="2" timestamp="2007-11-26T17:34:47Z" uid="3555" user="Marc Schütz" changeset="625949" lat="-20.285388" lon="148.766973">
    <tag k="created_by" v="JOSM"/>
    <tag k="highway" v="secondary"/>
    <tag k="name" v="Shute Harbour Rd"/>
    <tag k="surface" v="paved"/>
  </node>
  <node id="133489543" version="1" timestamp="2007-11-26T01:04:46Z" uid="4467" user="Rosscoe" changeset="621649" lat="-20.28402" lon="148.762655">
    <tag k="created_by" v="JOSM"/>
    <tag k="highway" v="secondary"/>
    <tag k="name" v="Shute Harbour Rd"/>
    <tag k="surface" v="paved"/>
  </node>
  <node id="133489543" version="2" timestamp="2007-11-26T17:34:09Z" uid="3555" user="Marc Schütz" changeset="625949" lat="-20.28402" lon="148.762655">
    <tag k="created_by" v="JOSM"/>
    <tag k="highway" v="secondary"/>
    <tag k="name" v="Shute Harbour Rd"/>
    <tag k="surface" v="paved"/>
  </node>
  <node id="133489564" version="1" timestamp="2007-11-26T01:04:47Z" uid="4467" user="Rosscoe" changeset="621649" lat="-20.284068" lon="148.762895">
    <tag k="created_by" v="JOSM"/>
    <tag k="highway" v="secondary"/>
    <tag k="name" v="Shute Harbour Rd"/>
    <tag k="surface" v="paved"/>
  </node>
  <node id="133489564" version="2" timestamp="2007-11-26T17:36:32Z" uid="3555" user="Marc Schütz" changeset="625949" lat="-20.284068" lon="148.762895">
    <tag k="created_by" v="JOSM"/>
    <tag k="highway" v="secondary"/>
    <tag k="name" v="Shute Harbour Rd"/>
    <tag k="surface" v="paved"/>
  </node>
  <node id="133489588" version="1" timestamp="2007-11-26T01:04:48Z" uid="4467" user="Rosscoe" changeset="621649" lat="-20.283873" lon="148.761955">
    <tag k="created_by" v="JOSM"/>
    <tag k="highway" v="secondary"/>
    <tag k="name" v="Shute Harbour Rd"/>
    <tag k="surface" v="paved"/>
  </node>
  <node id="133489588" version="2" timestamp="2007-11-26T17:39:27Z" uid="3555" user="Marc Schütz" changeset="625949" lat="-20.283873" lon="148.761955">
    <tag k="created_by" v="JOSM"/>
    <tag k="highway" v="secondary"/>
    <tag k="name" v="Shute Harbour Rd"/>
    <tag k="surface" v="paved"/>
  </node>
  <node id="133489610" version="1" timestamp="2007-11-26T01:04:49Z" uid="4467" user="Rosscoe" changeset="621649" lat="-20.28397" lon="148.762418">
    <tag k="created_by" v="JOSM"/>
    <tag k="highway" v="secondary"/>
    <tag k="name" v="Shute Harbour Rd"/>
    <tag k="surface" v="paved"/>
  </node>
  <node id="133489610" version="2" timestamp="2007-11-26T18:01:29Z" uid="3555" user="Marc Schütz" changeset="625949" lat="-20.28397" lon="148.762418">
    <tag k="created_by" v="JOSM"/>
    <tag k="highway" v="secondary"/>
    <tag k="name" v="Shute Harbour Rd"/>
    <tag k="surface" v="paved"/>
  </node>
  <node id="133489639" version="1" timestamp="2007-11-26T01:04:49Z" uid="4467" user="Rosscoe" changeset="621649" lat="-20.283767" lon="148.761482">
    <tag k="created_by" v="JOSM"/>
    <tag k="highway" v="secondary"/>
    <tag k="name" v="Shute Harbour Rd"/>
    <tag k="surface" v="paved"/>
  </node>
  <node id="133489639" version="2" timestamp="2007-11-26T17:34:42Z" uid="3555" user="Marc Schütz" changeset="625949" lat="-20.283767" lon="148.761482">
    <tag k="created_by" v="JOSM"/>
    <tag k="highway" v="secondary"/>
    <tag k="name" v="Shute Harbour Rd"/>
    <tag k="surface" v="paved"/>
  </node>
  <node id="133489661" version="1" timestamp="2007-11-26T01:04:50Z" uid="4467" user="Rosscoe" changeset="621649" lat="-20.283822" lon="148.761718">
    <tag k="created_by" v="JOSM"/>
    <tag k="highway" v="secondary"/>
    <tag k="name" v="Shute Harbour Rd"/>
    <tag k="surface" v="paved"/>
  </node>
  <node id="133489661" version="2" timestamp="2007-11-26T17:30:51Z" uid="3555" user="Marc Schütz" changeset="625949" lat="-20.283822" lon="148.761718"/>
  <node id="133489690" version="1" timestamp="2007-11-26T01:04:51Z" uid="4467" user="Rosscoe" changeset="621649" lat="-20.283625" lon="148.760998">
    <tag k="created_by" v="JOSM"/>
    <tag k="highway" v="secondary"/>
    <tag k="name" v="Shute Harbour Rd"/>
    <tag k="surface" v="paved"/>
  </node>
  <node id="133489690" version="2" timestamp="2007-11-26T17:29:14Z" uid="3555" user="Marc Schütz" changeset="625949" lat="-20.283625" lon="148.760998"/>
  <node id="133489715" version="1" timestamp="2007-11-26T01:04:52Z" uid="4467" user="Rosscoe" changeset="621649" lat="-20.2837" lon="148.761242">
    <tag k="created_by" v="JOSM"/>
    <tag k="highway" v="secondary"/>
    <tag k="name" v="Shute Harbour Rd"/>
    <tag k="surface" v="paved"/>
  </node>
  <node id="133489715" version="2" timestamp="2007-11-26T17:44:43Z" uid="3555" user="Marc Schütz" changeset="625949" lat="-20.2837" lon="148.761242">
    <tag k="created_by" v="JOSM"/>
    <tag k="highway" v="secondary"/>
    <tag k="name" v="Shute Harbour Rd"/>
    <tag k="surface" v="paved"/>
  </node>
  <node id="133489747" version="1" timestamp="2007-11-26T01:04:52Z" uid="4467" user="Rosscoe" changeset="621649" lat="-20.284575" lon="148.764843">
    <tag k="created_by" v="JOSM"/>
    <tag k="highway" v="secondary"/>
    <tag k="name" v="Shute Harbour Rd"/>
    <tag k="surface" v="paved"/>
  </node>
  <node id="133489747" version="2" timestamp="2007-11-26T17:32:12Z" uid="3555" user="Marc Schütz" changeset="625949" lat="-20.284575" lon="148.764843"/>
  <node id="133489766" version="1" timestamp="2007-11-26T01:04:53Z" uid="4467" user="Rosscoe" changeset="621649" lat="-20.284663" lon="148.765043">
    <tag k="created_by" v="JOSM"/>
    <tag k="highway" v="secondary"/>
    <tag k="name" v="Shute Harbour Rd"/>
    <tag k="surface" v="paved"/>
  </node>
  <node id="133489766" version="2" timestamp="2007-11-26T17:43:19Z" uid="3555" user="Marc Schütz" changeset="625949" lat="-20.284663" lon="148.765043">
    <tag k="created_by" v="JOSM"/>
    <tag k="highway" v="secondary"/>
    <tag k="name" v="Shute Harbour Rd"/>
    <tag k="surface" v="paved"/>
  </node>
  <node id="133489778" version="1" timestamp="2007-11-26T01:04:54Z" uid="4467" user="Rosscoe" changeset="621649" lat="-20.284357" lon="148.76424">
    <tag k="created_by" v="JOSM"/>
    <tag k="highway" v="secondary"/>
    <tag k="name" v="Shute Harbour Rd"/>
    <tag k="surface" v="paved"/>
  </node>
  <node id="133489778" version="2" timestamp="2007-11-26T17:28:00Z" uid="3555" user="Marc Schütz" changeset="625949" lat="-20.284357" lon="148.76424"/>
  <node id="133489801" version="1" timestamp="2007-11-26T01:04:55Z" uid="4467" user="Rosscoe" changeset="621649" lat="-20.284493" lon="148.764643">
    <tag k="created_by" v="JOSM"/>
    <tag k="highway" v="secondary"/>
    <tag k="name" v="Shute Harbour Rd"/>
    <tag k="surface" v="paved"/>
  </node>
  <node id="133489801" version="2" timestamp="2007-11-26T18:04:22Z" uid="3555" user="Marc Schütz" changeset="625949" lat="-20.284493" lon="148.764643">
    <tag k="created_by" v="JOSM"/>
    <tag k="highway" v="secondary"/>
    <tag k="name" v="Shute Harbour Rd"/>
    <tag k="surface" v="paved"/>
  </node>
  <node id="133489825" version="1" timestamp="2007-11-26T01:04:56Z" uid="4467" user="Rosscoe" changeset="621649" lat="-20.28425" lon="148.76381">
    <tag k="created_by" v="JOSM"/>
    <tag k="highway" v="secondary"/>
    <tag k="name" v="Shute Harbour Rd"/>
    <tag k="surface" v="paved"/>
  </node>
  <node id="133489825" version="2" timestamp="2007-11-26T17:33:27Z" uid="3555" user="Marc Schütz" changeset="625949" lat="-20.28425" lon="148.76381">
    <tag k="created_by" v="JOSM"/>
    <tag k="highway" v="secondary"/>
    <tag k="name" v="Shute Harbour Rd"/>
    <tag k="surface" v="paved"/>
  </node>
  <node id="133489851" version="1" timestamp="2007-11-26T01:04:56Z" uid="4467" user="Rosscoe" changeset="621649" lat="-20.2843" lon="148.764028">
    <tag k="created_by" v="JOSM"/>
    <tag k="highway" v="secondary"/>
    <tag k="name" v="Shute Harbour Rd"/>
    <tag k="surface" v="paved"/>
  </node>
  <node id="133489851" version="2" timestamp="2007-11-26T17:33:25Z" uid="3555" user="Marc Schütz" changeset="625949" lat="-20.2843" lon="148.764028">
    <tag k="created_by" v="JOSM"/>
    <tag k="highway" v="secondary"/>
    <tag k="name" v="Shute Harbour Rd"/>
    <tag k="surface" v="paved"/>
  </node>
  <node id="133489875" version="1" timestamp="2007-11-26T01:04:57Z" uid="4467" user="Rosscoe" changeset="621649" lat="-20.284115" lon="148.763135">
    <tag k="created_by" v="JOSM"/>
    <tag k="highway" v="secondary"/>
    <tag k="name" v="Shute Harbour Rd"/>
    <tag k="surface" v="paved"/>
  </node>
  <node id="133489875" version="2" timestamp="2007-11-26T17:46:40Z" uid="3555" user="Marc Schütz" changeset="625949" lat="-20.284115" lon="148.763135">
    <tag k="created_by" v="JOSM"/>
    <tag k="highway" v="secondary"/>
    <tag k="name" v="Shute Harbour Rd"/>
    <tag k="surface" v="paved"/>
  </node>
  <node id="133489890" version="1" timestamp="2007-11-26T01:04:58Z" uid="4467" user="Rosscoe" changeset="621649" lat="-20.284203" lon="148.76359">
    <tag k="created_by" v="JOSM"/>
    <tag k="highway" v="secondary"/>
    <tag k="name" v="Shute Harbour Rd"/>
    <tag k="surface" v="paved"/>
  </node>
  <node id="133489890" version="2" timestamp="2007-11-26T17:29:59Z" uid="3555" user="Marc Schütz" changeset="625949" lat="-20.284203" lon="148.76359"/>
  <node id="133489910" version="1" timestamp="2007-11-26T01:04:59Z" uid="4467" user="Rosscoe" changeset="621649" lat="-20.282293" lon="148.757883">
    <tag k="created_by" v="JOSM"/>
    <tag k="highway" v="secondary"/>
    <tag k="name" v="Shute Harbour Rd"/>
    <tag k="surface" v="paved"/>
  </node>
  <node id="133489910" version="2" timestamp="2007-11-26T17:28:47Z" uid="3555" user="Marc Schütz" changeset="625949" lat="-20.282293" lon="148.757883"/>
  <node id="133489930" version="1" timestamp="2007-11-26T01:04:59Z" uid="4467" user="Rosscoe" changeset="621649" lat="-20.282132" lon="148.75763">
    <tag k="created_by" v="JOSM"/>
    <tag k="highway" v="secondary"/>
    <tag k="name" v="Shute Harbour Rd"/>
    <tag k="surface" v="paved"/>
  </node>
  <node id="133489930" version="2" timestamp="2007-11-26T18:05:33Z" uid="3555" user="Marc Schütz" changeset="625949" lat="-20.282132" lon="148.75763">
    <tag k="created_by" v="JOSM"/>
    <tag k="highway" v="secondary"/>
    <tag k="name" v="Shute Harbour Rd"/>
    <tag k="surface" v="paved"/>
  </node>
  <node id="133489952" version="1" timestamp="2007-11-26T01:05:00Z" uid="4467" user="Rosscoe" changeset="621649" lat="-20.281962" lon="148.757387">
    <tag k="created_by" v="JOSM"/>
    <tag k="highway" v="secondary"/>
    <tag k="name" v="Shute Harbour Rd"/>
    <tag k="surface" v="paved"/>
  </node>
  <node id="133489952" version="2" timestamp="2007-11-26T17:31:44Z" uid="3555" user="Marc Schütz" changeset="625949" lat="-20.281962" lon="148.757387"/>
  <node id="133489972" version="1" timestamp="2007-11-26T01:05:01Z" uid="4467" user="Rosscoe" changeset="621649" lat="-20.281585" lon="148.756915">
    <tag k="created_by" v="JOSM"/>
    <tag k="highway" v="secondary"/>
    <tag k="name" v="Shute Harbour Rd"/>
    <tag k="surface" v="paved"/>
  </node>
  <node id="133489972" version="2" timestamp="2007-11-26T18:00:45Z" uid="3555" user="Marc Schütz" changeset="625949" lat="-20.281585" lon="148.756915">
    <tag k="created_by" v="JOSM"/>
    <tag k="highway" v="secondary"/>
    <tag k="name" v="Shute Harbour Rd"/>
    <tag k="surface" v="paved"/>
  </node>
  <node id="133489997" version="1" timestamp="2007-11-26T01:05:02Z" uid="4467" user="Rosscoe" changeset="621649" lat="-20.281378" lon="148.756688">
    <tag k="created_by" v="JOSM"/>
    <tag k="highway" v="secondary"/>
    <tag k="name" v="Shute Harbour Rd"/>
    <tag k="surface" v="paved"/>
  </node>
  <node id="133489997" version="2" timestamp="2007-11-26T17:32:48Z" uid="3555" user="Marc Schütz" changeset="625949" lat="-20.281378" lon="148.756688"/>
</osm>
