<?xml version='1.0' encoding='UTF-8'?>
<osm version="0.6" generator="libosmium/2.20.0">
  <node id="134050006" version="1" timestamp="2007-11-26T05:56:13Z" uid="4467" user="Rosscoe" changeset="621649" lat="-33.656797" lon="119.758153">
    <tag k="created_by" v="JOSM"/>
    <tag k="highway" v="trunk"/>
    <tag k="name" v="South Coast Hwy"/>
    <tag k="surface" v="paved"/>
  </node>
  <node id="134050033" version="1" timestamp="2007-11-26T05:56:14Z" uid="4467" user="Rosscoe" changeset="621649" lat="-33.657312" lon="119.755833">
    <tag k="created_by" v="JOSM"/>
    <tag k="highway" v="trunk"/>
    <tag k="name" v="South Coast Hwy"/>
    <tag k="surface" v="paved"/>
  </node>
  <node id="134050066" version="1" timestamp="2007-11-26T05:56:15Z" uid="4467" user="Rosscoe" changeset="621649" lat="-33.657237" lon="119.756168">
    <tag k="created_by" v="JOSM"/>
    <tag k="highway" v="trunk"/>
    <tag k="name" v="South Coast Hwy"/>
    <tag k="surface" v="paved"/>
  </node>
  <node id="134050100" version="1" timestamp="2007-11-26T05:56:16Z" uid="4467" user="Rosscoe" changeset="621649" lat="-33.657163" lon="119.756493">
    <tag k="created_by" v="JOSM"/>
    <tag k="highway" v="trunk"/>
    <tag k="name" v="South Coast Hwy"/>
    <tag k="surface" v="paved"/>
  </node>
  <node id="134050138" version="1" timestamp="2007-11-26T05:56:17Z" uid="4467" user="Rosscoe" changeset="621649" lat="-33.657088" lon="119.756823">
    <tag k="created_by" v="JOSM"/>
    <tag k="highway" v="trunk"/>
    <tag k="name" v="South Coast Hwy"/>
    <tag k="surface" v="paved"/>
  </node>
  <node id="134050170" version="1" timestamp="2007-11-26T05:56:17Z" uid="4467" user="Rosscoe" changeset="621649" lat="-33.657612" lon="119.754512">
    <tag k="created_by" v="JOSM"/>
    <tag k="highway" v="trunk"/>
    <tag k="name" v="South Coast Hwy"/>
    <tag k="surface" v="paved"/>
  </node>
  <node id="134050205" version="1" timestamp="2007-11-26T05:56:18Z" uid="4467" user="Rosscoe" changeset="621649" lat="-33.657535" lon="119.754843">
    <tag k="created_by" v="JOSM"/>
    <tag k="highway" v="trunk"/>
    <tag k="name" v="South Coast Hwy"/>
    <tag k="surface" v="paved"/>
  </node>
  <node id="134050239" version="1" timestamp="2007-11-26T05:56:19Z" uid="4467" user="Rosscoe" changeset="621649" lat="-33.65746" lon="119.755175">
    <tag k="created_by" v="JOSM"/>
    <tag k="highway" v="trunk"/>
    <tag k="name" v="South Coast Hwy"/>
    <tag k="surface" v="paved"/>
  </node>
  <node id="134050268" version="1" timestamp="2007-11-26T05:56:20Z" uid="4467" user="Rosscoe" changeset="621649" lat="-33.657385" lon="119.755505">
    <tag k="created_by" v="JOSM"/>
    <tag k="highway" v="trunk"/>
    <tag k="name" v="South Coast Hwy"/>
    <tag k="surface" v="paved"/>
  </node>
  <node id="134050297" version="1" timestamp="2007-11-26T05:56:20Z" uid="4467" user="Rosscoe" changeset="621649" lat="-33.657908" lon="119.753202">
    <tag k="created_by" v="JOSM"/>
    <tag k="highway" v="trunk"/>
    <tag k="name" v="South Coast Hwy"/>
    <tag k="surface" v="paved"/>
  </node>
  <node id="134050325" version="1" timestamp="2007-11-26T05:56:21Z" uid="4467" user="Rosscoe" changeset="621649" lat="-33.657835" lon="119.753527">
    <tag k="created_by" v="JOSM"/>
    <tag k="highway" v="trunk"/>
    <tag k="name" v="South Coast Hwy"/>
    <tag k="surface" v="paved"/>
  </node>
  <node id="134050351" version="1" timestamp="2007-11-26T05:56:22Z" uid="4467" user="Rosscoe" changeset="621649" lat="-33.65776" lon="119.753857">
    <tag k="created_by" v="JOSM"/>
    <tag k="highway" v="trunk"/>
    <tag k="name" v="South Coast Hwy"/>
    <tag k="surface" v="paved"/>
  </node>
  <node id="134050376" version="1" timestamp="2007-11-26T05:56:23Z" uid="4467" user="Rosscoe" changeset="621649" lat="-33.657685" lon="119.75419">
    <tag k="created_by" v="JOSM"/>
    <tag k="highway" v="trunk"/>
    <tag k="name" v="South Coast Hwy"/>
    <tag k="surface" v="paved"/>
  </node>
  <node id="134050406" version="1" timestamp="2007-11-26T05:56:24Z" uid="4467" user="Rosscoe" changeset="621649" lat="-33.658203" lon="119.751892">
    <tag k="created_by" v="JOSM"/>
    <tag k="highway" v="trunk"/>
    <tag k="name" v="South Coast Hwy"/>
    <tag k="surface" v="paved"/>
  </node>
  <node id="134050424" version="1" timestamp="2007-11-26T05:56:24Z" uid="4467" user="Rosscoe" changeset="621649" lat="-33.658128" lon="119.752222">
    <tag k="created_by" v="JOSM"/>
    <tag k="highway" v="trunk"/>
    <tag k="name" v="South Coast Hwy"/>
    <tag k="surface" v="paved"/>
  </node>
  <node id="134050452" version="1" timestamp="2007-11-26T05:56:25Z" uid="4467" user="Rosscoe" changeset="621649" lat="-33.658055" lon="119.752545">
    <tag k="created_by" v="JOSM"/>
    <tag k="highway" v="trunk"/>
    <tag k="name" v="South Coast Hwy"/>
    <tag k="surface" v="paved"/>
  </node>
  <node id="134050483" version="1" timestamp="2007-11-26T05:56:26Z" uid="4467" user="Rosscoe" changeset="621649" lat="-33.657982" lon="119.752875">
    <tag k="created_by" v="JOSM"/>
    <tag k="highway" v="trunk"/>
    <tag k="name" v="South Coast Hwy"/>
    <tag k="surface" v="paved"/>
  </node>
  <node id="134050517" version="1" timestamp="2007-11-26T05:56:27Z" uid="4467" user="Rosscoe" changeset="621649" lat="-33.658493" lon="119.750588">
    <tag k="created_by" v="JOSM"/>
    <tag k="highway" v="trunk"/>
    <tag k="name" v="South Coast Hwy"/>
    <tag k="surface" v="paved"/>
  </node>
  <node id="134050551" version="1" timestamp="2007-11-26T05:56:27Z" uid="4467" user="Rosscoe" changeset="621649" lat="-33.65842" lon="119.750915">
    <tag k="created_by" v="JOSM"/>
    <tag k="highway" v="trunk"/>
    <tag k="name" v="South Coast Hwy"/>
    <tag k="surface" v="paved"/>
  </node>
  <node id="134050566" version="1" timestamp="2007-11-26T05:56:28Z" uid="4467" user="Rosscoe" changeset="621649" lat="-33.658348" lon="119.751242">
    <tag k="created_by" v="JOSM"/>
    <tag k="highway" v="trunk"/>
    <tag k="name" v="South Coast Hwy"/>
    <tag k="surface" v="paved"/>
  </node>
  <node id="134050587" version="1" timestamp="2007-11-26T05:56:29Z" uid="4467" user="Rosscoe" changeset="621649" lat="-33.658277" lon="119.751563">
    <tag k="created_by" v="JOSM"/>
    <tag k="highway" v="trunk"/>
    <tag k="name" v="South Coast Hwy"/>
    <tag k="surface" v="paved"/>
  </node>
  <node id="134050612" version="1" timestamp="2007-11-26T05:56:30Z" uid="4467" user="Rosscoe" changeset="621649" lat="-33.658868" lon="119.748945">
    <tag k="created_by" v="JOSM"/>
    <tag k="highway" v="trunk"/>
    <tag k="name" v="South Coast Hwy"/>
    <tag k="surface" v="paved"/>
  </node>
  <node id="134050650" version="1" timestamp="2007-11-26T05:56:30Z" uid="4467" user="Rosscoe" changeset="621649" lat="-33.658793" lon="119.749273">
    <tag k="created_by" v="JOSM"/>
    <tag k="highway" v="trunk"/>
    <tag k="name" v="South Coast Hwy"/>
    <tag k="surface" v="paved"/>
  </node>
  <node id="134050677" version="1" timestamp="2007-11-26T05:56:31Z" uid="4467" user="Rosscoe" changeset="621649" lat="-33.658718" lon="119.749603">
    <tag k="created_by" v="JOSM"/>
    <tag k="highway" v="trunk"/>
    <tag k="name" v="South Coast Hwy"/>
    <tag k="surface" v="paved"/>
  </node>
  <node id="134050706" version="1" timestamp="2007-11-26T05:56:32Z" uid="4467" user="Rosscoe" changeset="621649" lat="-33.658643" lon="119.749932">
    <tag k="created_by" v="JOSM"/>
    <tag k="highway" v="trunk"/>
    <tag k="name" v="South Coast Hwy"/>
    <tag k="surface" v="paved"/>
  </node>
  <node id="134050728" version="1" timestamp="2007-11-26T05:56:33Z" uid="4467" user="Rosscoe" changeset="621649" lat="-33.65917" lon="119.747602">
    <tag k="created_by" v="JOSM"/>
    <tag k="highway" v="trunk"/>
    <tag k="name" v="South Coast Hwy"/>
    <tag k="surface" v="paved"/>
  </node>
  <node id="134050750" version="1" timestamp="2007-11-26T05:56:34Z" uid="4467" user="Rosscoe" changeset="621649" lat="-33.659093" lon="119.747943">
    <tag k="created_by" v="JOSM"/>
    <tag k="highway" v="trunk"/>
    <tag k="name" v="South Coast Hwy"/>
    <tag k="surface" v="paved"/>
  </node>
  <node id="134050768" version="1" timestamp="2007-11-26T05:56:34Z" uid="4467" user="Rosscoe" changeset="621649" lat="-33.659018" lon="119.748282">
    <tag k="created_by" v="JOSM"/>
    <tag k="highway" v="trunk"/>
    <tag k="name" v="South Coast Hwy"/>
    <tag k="surface" v="paved"/>
  </node>
  <node id="134050793" version="1" timestamp="2007-11-26T05:56:35Z" uid="4467" user="Rosscoe" changeset="621649" lat="-33.658943" lon="119.74861">
    <tag k="created_by" v="JOSM"/>
    <tag k="highway" v="trunk"/>
    <tag k="name" v="South Coast Hwy"/>
    <tag k="surface" v="paved"/>
  </node>
  <node id="134050820" version="1" timestamp="2007-11-26T05:56:36Z" uid="4467" user="Rosscoe" changeset="621649" lat="-33.659467" lon="119.746288">
    <tag k="created_by" v="JOSM"/>
    <tag k="highway" v="trunk"/>
    <tag k="name" v="South Coast Hwy"/>
    <tag k="surface" v="paved"/>
  </node>
  <node id="134050840" version="1" timestamp="2007-11-26T05:56:37Z" uid="4467" user="Rosscoe" changeset="621649" lat="-33.659392" lon="119.746615">
    <tag k="created_by" v="JOSM"/>
    <tag k="highway" v="trunk"/>
    <tag k="name" v="South Coast Hwy"/>
    <tag k="surface" v="paved"/>
  </node>
  <node id="134050871" version="1" timestamp="2007-11-26T05:56:38Z" uid="4467" user="Rosscoe" changeset="621649" lat="-33.659317" lon="119.746947">
    <tag k="created_by" v="JOSM"/>
    <tag k="highway" v="trunk"/>
    <tag k="name" v="South Coast Hwy"/>
    <tag k="surface" v="paved"/>
  </node>
  <node id="134050889" version="1" timestamp="2007-11-26T05:56:38Z" uid="4467" user="Rosscoe" changeset="621649" lat="-33.659242" lon="119.747278">
    <tag k="created_by" v="JOSM"/>
    <tag k="highway" v="trunk"/>
    <tag k="name" v="South Coast Hwy"/>
    <tag k="surface" v="paved"/>
  </node>
  <node id="134050913" version="1" timestamp="2007-11-26T05:56:39Z" uid="4467" user="Rosscoe" changeset="621649" lat="-33.65977" lon="119.744973">
    <tag k="created_by" v="JOSM"/>
    <tag k="highway" v="trunk"/>
    <tag k="name" v="South Coast Hwy"/>
    <tag k="surface" v="paved"/>
  </node>
  <node id="134050932" version="1" timestamp="2007-11-26T05:56:40Z" uid="4467" user="Rosscoe" changeset="621649" lat="-33.659695" lon="119.745298">
    <tag k="created_by" v="JOSM"/>
    <tag k="highway" v="trunk"/>
    <tag k="name" v="South Coast Hwy"/>
    <tag k="surface" v="paved"/>
  </node>
  <node id="134050953" version="1" timestamp="2007-11-26T05:56:41Z" uid="4467" user="Rosscoe" changeset="621649" lat="-33.659618" lon="119.745625">
    <tag k="created_by" v="JOSM"/>
    <tag k="highway" v="trunk"/>
    <tag k="name" v="South Coast Hwy"/>
    <tag k="surface" v="paved"/>
  </node>
  <node id="134050984" version="1" timestamp="2007-11-26T05:56:41Z" uid="4467" user="Rosscoe" changeset="621649" lat="-33.659543" lon="119.745953">
    <tag k="created_by" v="JOSM"/>
    <tag k="highway" v="trunk"/>
    <tag k="name" v="South Coast Hwy"/>
    <tag k="surface" v="paved"/>
  </node>
  <node id="134051008" version="1" timestamp="2007-11-26T05:56:42Z" uid="4467" user="Rosscoe" changeset="621649" lat="-33.660065" lon="119.743662">
    <tag k="created_by" v="JOSM"/>
    <tag k="highway" v="trunk"/>
    <tag k="name" v="South Coast Hwy"/>
    <tag k="surface" v="paved"/>
  </node>
  <node id="134051032" version="1" timestamp="2007-11-26T05:56:43Z" uid="4467" user="Rosscoe" changeset="621649" lat="-33.659992" lon="119.743993">
    <tag k="created_by" v="JOSM"/>
    <tag k="highway" v="trunk"/>
    <tag k="name" v="South Coast Hwy"/>
    <tag k="surface" v="paved"/>
  </node>
  <node id="134051067" version="1" timestamp="2007-11-26T05:56:44Z" uid="4467" user="Rosscoe" changeset="621649" lat="-33.659917" lon="119.744325">
    <tag k="created_by" v="JOSM"/>
    <tag k="highway" v="trunk"/>
    <tag k="name" v="South Coast Hwy"/>
    <tag k="surface" v="paved"/>
  </node>
  <node id="134051094" version="1" timestamp="2007-11-26T05:56:44Z" uid="4467" user="Rosscoe" changeset="621649" lat="-33.659843" lon="119.744647">
    <tag k="created_by" v="JOSM"/>
    <tag k="highway" v="trunk"/>
    <tag k="name" v="South Coast Hwy"/>
    <tag k="surface" v="paved"/>
  </node>
  <node id="134051119" version="1" timestamp="2007-11-26T05:56:45Z" uid="4467" user="Rosscoe" changeset="621649" lat="-33.660355" lon="119.742352">
    <tag k="created_by" v="JOSM"/>
    <tag k="highway" v="trunk"/>
    <tag k="name" v="South Coast Hwy"/>
    <tag k="surface" v="paved"/>
  </node>
  <node id="134051143" version="1" timestamp="2007-11-26T05:56:46Z" uid="4467" user="Rosscoe" changeset="621649" lat="-33.660283" lon="119.74268">
    <tag k="created_by" v="JOSM"/>
    <tag k="highway" v="trunk"/>
    <tag k="name" v="South Coast Hwy"/>
    <tag k="surface" v="paved"/>
  </node>
  <node id="134051170" version="1" timestamp="2007-11-26T05:56:47Z" uid="4467" user="Rosscoe" changeset="621649" lat="-33.66021" lon="119.74301">
    <tag k="created_by" v="JOSM"/>
    <tag k="highway" v="trunk"/>
    <tag k="name" v="South Coast Hwy"/>
    <tag k="surface" v="paved"/>
  </node>
  <node id="134051180" version="2" timestamp="2009-10-15T09:30:41Z" uid="99207" user="Lar Kiesel" changeset="2852855" lat="40.698733" lon="-97.615683">
    <tag k="source" v="tiger_import_dch_v0.6_20070813"/>
    <tag k="tiger:county" v="Fillmore, NE"/>
    <tag k="tiger:tlid" v="39394870:39394871"/>
    <tag k="tiger:upload_uuid" v="bulk_upload.pl-9443b768-d8b1-4758-b3b1-cdbd7e5c8bdc"/>
  </node>
  <node id="134051181" version="2" timestamp="2009-10-15T09:30:41Z" uid="99207" user="Lar Kiesel" changeset="2852855" lat="40.69873" lon="-97.616152">
    <tag k="source" v="tiger_import_dch_v0.6_20070813"/>
    <tag k="tiger:county" v="Fillmore, NE"/>
    <tag k="tiger:tlid" v="39394870:39394871"/>
    <tag k="tiger:upload_uuid" v="bulk_upload.pl-9443b768-d8b1-4758-b3b1-cdbd7e5c8bdc"/>
  </node>
  <node id="134051182" version="1" timestamp="2007-11-26T05:56:48Z" uid="4467" user="Rosscoe" changeset="621649" lat="-33.660137" lon="119.743338">
    <tag k="created_by" v="JOSM"/>
    <tag k="highway" v="trunk"/>
    <tag k="name" v="South Coast Hwy"/>
    <tag k="surface" v="paved"/>
  </node>
  <node id="134051184" version="2" timestamp="2009-10-15T09:30:40Z" uid="99207" user="Lar Kiesel" changeset="2852855" lat="40.698738" lon="-97.616175">
    <tag k="source" v="tiger_import_dch_v0.6_20070813"/>
    <tag k="tiger:county" v="Fillmore, NE"/>
    <tag k="tiger:tlid" v="39394870:39394871"/>
    <tag k="tiger:upload_uuid" v="bulk_upload.pl-9443b768-d8b1-4758-b3b1-cdbd7e5c8bdc"/>
  </node>
  <node id="134051186" version="2" timestamp="2009-10-15T09:30:41Z" uid="99207" user="Lar Kiesel" changeset="2852855" lat="40.698745" lon="-97.616194">
    <tag k="source" v="tiger_import_dch_v0.6_20070813"/>
    <tag k="tiger:county" v="Fillmore, NE"/>
    <tag k="tiger:tlid" v="39394871"/>
    <tag k="tiger:upload_uuid" v="bulk_upload.pl-9443b768-d8b1-4758-b3b1-cdbd7e5c8bdc"/>
  </node>
  <node id="134051215" version="1" timestamp="2007-11-26T05:56:48Z" uid="4467" user="Rosscoe" changeset="621649" lat="-33.66065" lon="119.74101">
    <tag k="created_by" v="JOSM"/>
    <tag k="highway" v="trunk"/>
    <tag k="name" v="South Coast Hwy"/>
    <tag k="surface" v="paved"/>
  </node>
  <node id="134051247" version="1" timestamp="2007-11-26T05:56:49Z" uid="4467" user="Rosscoe" changeset="621649" lat="-33.660577" lon="119.741342">
    <tag k="created_by" v="JOSM"/>
    <tag k="highway" v="trunk"/>
    <tag k="name" v="South Coast Hwy"/>
    <tag k="surface" v="paved"/>
  </node>
  <node id="134051279" version="1" timestamp="2007-11-26T05:56:50Z" uid="4467" user="Rosscoe" changeset="621649" lat="-33.660503" lon="119.741673">
    <tag k="created_by" v="JOSM"/>
    <tag k="highway" v="trunk"/>
    <tag k="name" v="South Coast Hwy"/>
    <tag k="surface" v="paved"/>
  </node>
  <node id="134051307" version="1" timestamp="2007-11-26T05:56:51Z" uid="4467" user="Rosscoe" changeset="621649" lat="-33.66043" lon="119.742012">
    <tag k="created_by" v="JOSM"/>
    <tag k="highway" v="trunk"/>
    <tag k="name" v="South Coast Hwy"/>
    <tag k="surface" v="paved"/>
  </node>
  <node id="134051340" version="1" timestamp="2007-11-26T05:56:51Z" uid="4467" user="Rosscoe" changeset="621649" lat="-33.660945" lon="119.739695">
    <tag k="created_by" v="JOSM"/>
    <tag k="highway" v="trunk"/>
    <tag k="name" v="South Coast Hwy"/>
    <tag k="surface" v="paved"/>
  </node>
  <node id="134051361" version="1" timestamp="2007-11-26T05:56:52Z" uid="4467" user="Rosscoe" changeset="621649" lat="-33.660873" lon="119.740022">
    <tag k="created_by" v="JOSM"/>
    <tag k="highway" v="trunk"/>
    <tag k="name" v="South Coast Hwy"/>
    <tag k="surface" v="paved"/>
  </node>
  <node id="134051390" version="1" timestamp="2007-11-26T05:56:53Z" uid="4467" user="Rosscoe" changeset="621649" lat="-33.660798" lon="119.740353">
    <tag k="created_by" v="JOSM"/>
    <tag k="highway" v="trunk"/>
    <tag k="name" v="South Coast Hwy"/>
    <tag k="surface" v="paved"/>
  </node>
  <node id="134051420" version="1" timestamp="2007-11-26T05:56:54Z" uid="4467" user="Rosscoe" changeset="621649" lat="-33.660725" lon="119.74068">
    <tag k="created_by" v="JOSM"/>
    <tag k="highway" v="trunk"/>
    <tag k="name" v="South Coast Hwy"/>
    <tag k="surface" v="paved"/>
  </node>
  <node id="134051453" version="1" timestamp="2007-11-26T05:56:55Z" uid="4467" user="Rosscoe" changeset="621649" lat="-33.661242" lon="119.738392">
    <tag k="created_by" v="JOSM"/>
    <tag k="highway" v="trunk"/>
    <tag k="name" v="South Coast Hwy"/>
    <tag k="surface" v="paved"/>
  </node>
  <node id="134051480" version="1" timestamp="2007-11-26T05:56:55Z" uid="4467" user="Rosscoe" changeset="621649" lat="-33.661168" lon="119.738717">
    <tag k="created_by" v="JOSM"/>
    <tag k="highway" v="trunk"/>
    <tag k="name" v="South Coast Hwy"/>
    <tag k="surface" v="paved"/>
  </node>
  <node id="134051504" version="1" timestamp="2007-11-26T05:56:56Z" uid="4467" user="Rosscoe" changeset="621649" lat="-33.661093" lon="119.739043">
    <tag k="created_by" v="JOSM"/>
    <tag k="highway" v="trunk"/>
    <tag k="name" v="South Coast Hwy"/>
    <tag k="surface" v="paved"/>
  </node>
  <node id="134051523" version="1" timestamp="2007-11-26T05:56:57Z" uid="4467" user="Rosscoe" changeset="621649" lat="-33.66102" lon="119.739368">
    <tag k="created_by" v="JOSM"/>
    <tag k="highway" v="trunk"/>
    <tag k="name" v="South Coast Hwy"/>
    <tag k="surface" v="paved"/>
  </node>
  <node id="134051558" version="1" timestamp="2007-11-26T05:56:58Z" uid="4467" user="Rosscoe" changeset="621649" lat="-33.661538" lon="119.73708">
    <tag k="created_by" v="JOSM"/>
    <tag k="highway" v="trunk"/>
    <tag k="name" v="South Coast Hwy"/>
    <tag k="surface" v="paved"/>
  </node>
  <node id="134051587" version="1" timestamp="2007-11-26T05:56:58Z" uid="4467" user="Rosscoe" changeset="621649" lat="-33.661463" lon="119.737408">
    <tag k="created_by" v="JOSM"/>
    <tag k="highway" v="trunk"/>
    <tag k="name" v="South Coast Hwy"/>
    <tag k="surface" v="paved"/>
  </node>
  <node id="134051610" version="1" timestamp="2007-11-26T05:56:59Z" uid="4467" user="Rosscoe" changeset="621649" lat="-33.66139" lon="119.737735">
    <tag k="created_by" v="JOSM"/>
    <tag k="highway" v="trunk"/>
    <tag k="name" v="South Coast Hwy"/>
    <tag k="surface" v="paved"/>
  </node>
  <node id="134051637" version="1" timestamp="2007-11-26T05:57:00Z" uid="4467" user="Rosscoe" changeset="621649" lat="-33.661315" lon="119.738063">
    <tag k="created_by" v="JOSM"/>
    <tag k="highway" v="trunk"/>
    <tag k="name" v="South Coast Hwy"/>
    <tag k="surface" v="paved"/>
  </node>
  <node id="134051668" version="1" timestamp="2007-11-26T05:57:01Z" uid="4467" user="Rosscoe" changeset="621649" lat="-33.661838" lon="119.735755">
    <tag k="created_by" v="JOSM"/>
    <tag k="highway" v="trunk"/>
    <tag k="name" v="South Coast Hwy"/>
    <tag k="surface" v="paved"/>
  </node>
  <node id="134051696" version="1" timestamp="2007-11-26T05:57:02Z" uid="4467" user="Rosscoe" changeset="621649" lat="-33.661763" lon="119.736087">
    <tag k="created_by" v="JOSM"/>
    <tag k="highway" v="trunk"/>
    <tag k="name" v="South Coast Hwy"/>
    <tag k="surface" v="paved"/>
  </node>
  <node id="134051728" version="1" timestamp="2007-11-26T05:57:02Z" uid="4467" user="Rosscoe" changeset="621649" lat="-33.661687" lon="119.736423">
    <tag k="created_by" v="JOSM"/>
    <tag k="highway" v="trunk"/>
    <tag k="name" v="South Coast Hwy"/>
    <tag k="surface" v="paved"/>
  </node>
  <node id="134051756" version="1" timestamp="2007-11-26T05:57:03Z" uid="4467" user="Rosscoe" changeset="621649" lat="-33.661613" lon="119.73675">
    <tag k="created_by" v="JOSM"/>
    <tag k="highway" v="trunk"/>
    <tag k="name" v="South Coast Hwy"/>
    <tag k="surface" v="paved"/>
  </node>
  <node id="134051784" version="1" timestamp="2007-11-26T05:57:04Z" uid="4467" user="Rosscoe" changeset="621649" lat="-33.662137" lon="119.734452">
    <tag k="created_by" v="JOSM"/>
    <tag k="highway" v="trunk"/>
    <tag k="name" v="South Coast Hwy"/>
    <tag k="surface" v="paved"/>
  </node>
  <node id="134051815" version="1" timestamp="2007-11-26T05:57:05Z" uid="4467" user="Rosscoe" changeset="621649" lat="-33.662065" lon="119.73477">
    <tag k="created_by" v="JOSM"/>
    <tag k="highway" v="trunk"/>
    <tag k="name" v="South Coast Hwy"/>
    <tag k="surface" v="paved"/>
  </node>
  <node id="134051847" version="1" timestamp="2007-11-26T05:57:05Z" uid="4467" user="Rosscoe" changeset="621649" lat="-33.66199" lon="119.7351">
    <tag k="created_by" v="JOSM"/>
    <tag k="highway" v="trunk"/>
    <tag k="name" v="South Coast Hwy"/>
    <tag k="surface" v="paved"/>
  </node>
  <node id="134051878" version="1" timestamp="2007-11-26T05:57:06Z" uid="4467" user="Rosscoe" changeset="621649" lat="-33.661915" lon="119.735427">
    <tag k="created_by" v="JOSM"/>
    <tag k="highway" v="trunk"/>
    <tag k="name" v="South Coast Hwy"/>
    <tag k="surface" v="paved"/>
  </node>
  <node id="134051903" version="1" timestamp="2007-11-26T05:57:07Z" uid="4467" user="Rosscoe" changeset="621649" lat="-33.662433" lon="119.73314">
    <tag k="created_by" v="JOSM"/>
    <tag k="highway" v="trunk"/>
    <tag k="name" v="South Coast Hwy"/>
    <tag k="surface" v="paved"/>
  </node>
  <node id="134051932" version="1" timestamp="2007-11-26T05:57:08Z" uid="4467" user="Rosscoe" changeset="621649" lat="-33.66236" lon="119.733467">
    <tag k="created_by" v="JOSM"/>
    <tag k="highway" v="trunk"/>
    <tag k="name" v="South Coast Hwy"/>
    <tag k="surface" v="paved"/>
  </node>
  <node id="134051962" version="1" timestamp="2007-11-26T05:57:09Z" uid="4467" user="Rosscoe" changeset="621649" lat="-33.662287" lon="119.733792">
    <tag k="created_by" v="JOSM"/>
    <tag k="highway" v="trunk"/>
    <tag k="name" v="South Coast Hwy"/>
    <tag k="surface" v="paved"/>
  </node>
  <node id="134051991" version="1" timestamp="2007-11-26T05:57:09Z" uid="4467" user="Rosscoe" changeset="621649" lat="-33.662212" lon="119.734122">
    <tag k="created_by" v="JOSM"/>
    <tag k="highway" v="trunk"/>
    <tag k="name" v="South Coast Hwy"/>
    <tag k="surface" v="paved"/>
  </node>
  <node id="134052017" version="1" timestamp="2007-11-26T05:57:10Z" uid="4467" user="Rosscoe" changeset="621649" lat="-33.662728" lon="119.731828">
    <tag k="created_by" v="JOSM"/>
    <tag k="highway" v="trunk"/>
    <tag k="name" v="South Coast Hwy"/>
    <tag k="surface" v="paved"/>
  </node>
  <node id="134052044" version="1" timestamp="2007-11-26T05:57:11Z" uid="4467" user="Rosscoe" changeset="621649" lat="-33.662655" lon="119.732158">
    <tag k="created_by" v="JOSM"/>
    <tag k="highway" v="trunk"/>
    <tag k="name" v="South Coast Hwy"/>
    <tag k="surface" v="paved"/>
  </node>
  <node id="134052074" version="1" timestamp="2007-11-26T05:57:12Z" uid="4467" user="Rosscoe" changeset="621649" lat="-33.662582" lon="119.732488">
    <tag k="created_by" v="JOSM"/>
    <tag k="highway" v="trunk"/>
    <tag k="name" v="South Coast Hwy"/>
    <tag k="surface" v="paved"/>
  </node>
  <node id="134052112" version="1" timestamp="2007-11-26T05:57:13Z" uid="4467" user="Rosscoe" changeset="621649" lat="-33.662508" lon="119.732813">
    <tag k="created_by" v="JOSM"/>
    <tag k="highway" v="trunk"/>
    <tag k="name" v="South Coast Hwy"/>
    <tag k="surface" v="paved"/>
  </node>
  <node id="134052145" version="1" timestamp="2007-11-26T05:57:13Z" uid="4467" user="Rosscoe" changeset="621649" lat="-33.663017" lon="119.730522">
    <tag k="created_by" v="JOSM"/>
    <tag k="highway" v="trunk"/>
    <tag k="name" v="South Coast Hwy"/>
    <tag k="surface" v="paved"/>
  </node>
  <node id="134052171" version="1" timestamp="2007-11-26T05:57:14Z" uid="4467" user="Rosscoe" changeset="621649" lat="-33.662943" lon="119.730845">
    <tag k="created_by" v="JOSM"/>
    <tag k="highway" v="trunk"/>
    <tag k="name" v="South Coast Hwy"/>
    <tag k="surface" v="paved"/>
  </node>
  <node id="134052183" version="1" timestamp="2007-11-26T05:57:15Z" uid="4467" user="Rosscoe" changeset="621649" lat="-33.66287" lon="119.731175">
    <tag k="created_by" v="JOSM"/>
    <tag k="highway" v="trunk"/>
    <tag k="name" v="South Coast Hwy"/>
    <tag k="surface" v="paved"/>
  </node>
  <node id="134052206" version="1" timestamp="2007-11-26T05:57:16Z" uid="4467" user="Rosscoe" changeset="621649" lat="-33.662798" lon="119.731503">
    <tag k="created_by" v="JOSM"/>
    <tag k="highway" v="trunk"/>
    <tag k="name" v="South Coast Hwy"/>
    <tag k="surface" v="paved"/>
  </node>
  <node id="134052240" version="1" timestamp="2007-11-26T05:57:16Z" uid="4467" user="Rosscoe" changeset="621649" lat="-33.663313" lon="119.729203">
    <tag k="created_by" v="JOSM"/>
    <tag k="highway" v="trunk"/>
    <tag k="name" v="South Coast Hwy"/>
    <tag k="surface" v="paved"/>
  </node>
  <node id="134052269" version="1" timestamp="2007-11-26T05:57:17Z" uid="4467" user="Rosscoe" changeset="621649" lat="-33.663238" lon="119.729533">
    <tag k="created_by" v="JOSM"/>
    <tag k="highway" v="trunk"/>
    <tag k="name" v="South Coast Hwy"/>
    <tag k="surface" v="paved"/>
  </node>
  <node id="134052302" version="1" timestamp="2007-11-26T05:57:18Z" uid="4467" user="Rosscoe" changeset="621649" lat="-33.663165" lon="119.72986">
    <tag k="created_by" v="JOSM"/>
    <tag k="highway" v="trunk"/>
    <tag k="name" v="South Coast Hwy"/>
    <tag k="surface" v="paved"/>
  </node>
  <node id="134052328" version="1" timestamp="2007-11-26T05:57:19Z" uid="4467" user="Rosscoe" changeset="621649" lat="-33.663092" lon="119.730188">
    <tag k="created_by" v="JOSM"/>
    <tag k="highway" v="trunk"/>
    <tag k="name" v="South Coast Hwy"/>
    <tag k="surface" v="paved"/>
  </node>
  <node id="134052347" version="1" timestamp="2007-11-26T05:57:19Z" uid="4467" user="Rosscoe" changeset="621649" lat="-33.663615" lon="119.72789">
    <tag k="created_by" v="JOSM"/>
    <tag k="highway" v="trunk"/>
    <tag k="name" v="South Coast Hwy"/>
    <tag k="surface" v="paved"/>
  </node>
  <node id="134052370" version="1" timestamp="2007-11-26T05:57:20Z" uid="4467" user="Rosscoe" changeset="621649" lat="-33.66354" lon="119.72822">
    <tag k="created_by" v="JOSM"/>
    <tag k="highway" v="trunk"/>
    <tag k="name" v="South Coast Hwy"/>
    <tag k="surface" v="paved"/>
  </node>
  <node id="134052403" version="1" timestamp="2007-11-26T05:57:21Z" uid="4467" user="Rosscoe" changeset="621649" lat="-33.663463" lon="119.728552">
    <tag k="created_by" v="JOSM"/>
    <tag k="highway" v="trunk"/>
    <tag k="name" v="South Coast Hwy"/>
    <tag k="surface" v="paved"/>
  </node>
  <node id="134052431" version="1" timestamp="2007-11-26T05:57:22Z" uid="4467" user="Rosscoe" changeset="621649" lat="-33.663388" lon="119.728877">
    <tag k="created_by" v="JOSM"/>
    <tag k="highway" v="trunk"/>
    <tag k="name" v="South Coast Hwy"/>
    <tag k="surface" v="paved"/>
  </node>
  <node id="134052463" version="1" timestamp="2007-11-26T05:57:23Z" uid="4467" user="Rosscoe" changeset="621649" lat="-33.663913" lon="119.726578">
    <tag k="created_by" v="JOSM"/>
    <tag k="highway" v="trunk"/>
    <tag k="name" v="South Coast Hwy"/>
    <tag k="surface" v="paved"/>
  </node>
  <node id="134052487" version="1" timestamp="2007-11-26T05:57:23Z" uid="4467" user="Rosscoe" changeset="621649" lat="-33.66384" lon="119.7269">
    <tag k="created_by" v="JOSM"/>
    <tag k="highway" v="trunk"/>
    <tag k="name" v="South Coast Hwy"/>
    <tag k="surface" v="paved"/>
  </node>
  <node id="134052515" version="1" timestamp="2007-11-26T05:57:24Z" uid="4467" user="Rosscoe" changeset="621649" lat="-33.663765" lon="119.727232">
    <tag k="created_by" v="JOSM"/>
    <tag k="highway" v="trunk"/>
    <tag k="name" v="South Coast Hwy"/>
    <tag k="surface" v="paved"/>
  </node>
  <node id="134052545" version="1" timestamp="2007-11-26T05:57:25Z" uid="4467" user="Rosscoe" changeset="621649" lat="-33.66369" lon="119.72756">
    <tag k="created_by" v="JOSM"/>
    <tag k="highway" v="trunk"/>
    <tag k="name" v="South Coast Hwy"/>
    <tag k="surface" v="paved"/>
  </node>
  <node id="134052576" version="1" timestamp="2007-11-26T05:57:26Z" uid="4467" user="Rosscoe" changeset="621649" lat="-33.664212" lon="119.725255">
    <tag k="created_by" v="JOSM"/>
    <tag k="highway" v="trunk"/>
    <tag k="name" v="South Coast Hwy"/>
    <tag k="surface" v="paved"/>
  </node>
  <node id="134052610" version="1" timestamp="2007-11-26T05:57:27Z" uid="4467" user="Rosscoe" changeset="621649" lat="-33.664137" lon="119.725583">
    <tag k="created_by" v="JOSM"/>
    <tag k="highway" v="trunk"/>
    <tag k="name" v="South Coast Hwy"/>
    <tag k="surface" v="paved"/>
  </node>
  <node id="134052640" version="1" timestamp="2007-11-26T05:57:27Z" uid="4467" user="Rosscoe" changeset="621649" lat="-33.664063" lon="119.725913">
    <tag k="created_by" v="JOSM"/>
    <tag k="highway" v="trunk"/>
    <tag k="name" v="South Coast Hwy"/>
    <tag k="surface" v="paved"/>
  </node>
  <node id="134052673" version="1" timestamp="2007-11-26T05:57:28Z" uid="4467" user="Rosscoe" changeset="621649" lat="-33.66399" lon="119.726243">
    <tag k="created_by" v="JOSM"/>
    <tag k="highway" v="trunk"/>
    <tag k="name" v="South Coast Hwy"/>
    <tag k="surface" v="paved"/>
  </node>
  <node id="134052698" version="1" timestamp="2007-11-26T05:57:29Z" uid="4467" user="Rosscoe" changeset="621649" lat="-33.664513" lon="119.723928">
    <tag k="created_by" v="JOSM"/>
    <tag k="highway" v="trunk"/>
    <tag k="name" v="South Coast Hwy"/>
    <tag k="surface" v="paved"/>
  </node>
  <node id="134052729" version="1" timestamp="2007-11-26T05:57:30Z" uid="4467" user="Rosscoe" changeset="621649" lat="-33.664437" lon="119.724262">
    <tag k="created_by" v="JOSM"/>
    <tag k="highway" v="trunk"/>
    <tag k="name" v="South Coast Hwy"/>
    <tag k="surface" v="paved"/>
  </node>
  <node id="134052758" version="1" timestamp="2007-11-26T05:57:30Z" uid="4467" user="Rosscoe" changeset="621649" lat="-33.66436" lon="119.724598">
    <tag k="created_by" v="JOSM"/>
    <tag k="highway" v="trunk"/>
    <tag k="name" v="South Coast Hwy"/>
    <tag k="surface" v="paved"/>
  </node>
  <node id="134052785" version="1" timestamp="2007-11-26T05:57:31Z" uid="4467" user="Rosscoe" changeset="621649" lat="-33.664287" lon="119.724925">
    <tag k="created_by" v="JOSM"/>
    <tag k="highway" v="trunk"/>
    <tag k="name" v="South Coast Hwy"/>
    <tag k="surface" v="paved"/>
  </node>
  <node id="134052811" version="1" timestamp="2007-11-26T05:57:32Z" uid="4467" user="Rosscoe" changeset="621649" lat="-33.664808" lon="119.722618">
    <tag k="created_by" v="JOSM"/>
    <tag k="highway" v="trunk"/>
    <tag k="name" v="South Coast Hwy"/>
    <tag k="surface" v="paved"/>
  </node>
  <node id="134052826" version="1" timestamp="2007-11-26T05:57:33Z" uid="4467" user="Rosscoe" changeset="621649" lat="-33.664735" lon="119.722943">
    <tag k="created_by" v="JOSM"/>
    <tag k="highway" v="trunk"/>
    <tag k="name" v="South Coast Hwy"/>
    <tag k="surface" v="paved"/>
  </node>
  <node id="134052854" version="1" timestamp="2007-11-26T05:57:34Z" uid="4467" user="Rosscoe" changeset="621649" lat="-33.66466" lon="119.723272">
    <tag k="created_by" v="JOSM"/>
    <tag k="highway" v="trunk"/>
    <tag k="name" v="South Coast Hwy"/>
    <tag k="surface" v="paved"/>
  </node>
  <node id="134052882" version="1" timestamp="2007-11-26T05:57:34Z" uid="4467" user="Rosscoe" changeset="621649" lat="-33.664587" lon="119.723602">
    <tag k="created_by" v="JOSM"/>
    <tag k="highway" v="trunk"/>
    <tag k="name" v="South Coast Hwy"/>
    <tag k="surface" v="paved"/>
  </node>
  <node id="134052899" version="1" timestamp="2007-11-26T05:57:35Z" uid="4467" user="Rosscoe" changeset="621649" lat="-33.665108" lon="119.721293">
    <tag k="created_by" v="JOSM"/>
    <tag k="highway" v="trunk"/>
    <tag k="name" v="South Coast Hwy"/>
    <tag k="surface" v="paved"/>
  </node>
  <node id="134052899" version="2" timestamp="2007-12-25T05:54:10Z" uid="4467" user="Rosscoe" changeset="417063" lat="-33.665108" lon="119.721293">
    <tag k="created_by" v="JOSM"/>
    <tag k="highway" v="trunk"/>
    <tag k="name" v="South Coast Hwy"/>
    <tag k="surface" v="paved"/>
  </node>
  <node id="134052922" version="1" timestamp="2007-11-26T05:57:36Z" uid="4467" user="Rosscoe" changeset="621649" lat="-33.665033" lon="119.721623">
    <tag k="created_by" v="JOSM"/>
    <tag k="highway" v="trunk"/>
    <tag k="name" v="South Coast Hwy"/>
    <tag k="surface" v="paved"/>
  </node>
  <node id="134052954" version="1" timestamp="2007-11-26T05:57:37Z" uid="4467" user="Rosscoe" changeset="621649" lat="-33.664958" lon="119.721952">
    <tag k="created_by" v="JOSM"/>
    <tag k="highway" v="trunk"/>
    <tag k="name" v="South Coast Hwy"/>
    <tag k="surface" v="paved"/>
  </node>
  <node id="134052983" version="1" timestamp="2007-11-26T05:57:37Z" uid="4467" user="Rosscoe" changeset="621649" lat="-33.664883" lon="119.722278">
    <tag k="created_by" v="JOSM"/>
    <tag k="highway" v="trunk"/>
    <tag k="name" v="South Coast Hwy"/>
    <tag k="surface" v="paved"/>
  </node>
  <node id="134052999" version="1" timestamp="2007-11-26T05:57:38Z" uid="4467" user="Rosscoe" changeset="621649" lat="-33.665407" lon="119.719973">
    <tag k="created_by" v="JOSM"/>
    <tag k="highway" v="trunk"/>
    <tag k="name" v="South Coast Hwy"/>
    <tag k="surface" v="paved"/>
  </node>
  <node id="134052999" version="2" timestamp="2007-12-25T05:54:54Z" uid="4467" user="Rosscoe" changeset="417063" lat="-33.665407" lon="119.719973">
    <tag k="created_by" v="JOSM"/>
    <tag k="highway" v="trunk"/>
    <tag k="name" v="South Coast Hwy"/>
    <tag k="surface" v="paved"/>
  </node>
  <node id="134053022" version="1" timestamp="2007-11-26T05:57:39Z" uid="4467" user="Rosscoe" changeset="621649" lat="-33.665332" lon="119.720303">
    <tag k="created_by" v="JOSM"/>
    <tag k="highway" v="trunk"/>
    <tag k="name" v="South Coast Hwy"/>
    <tag k="surface" v="paved"/>
  </node>
  <node id="134053022" version="2" timestamp="2007-12-25T05:55:01Z" uid="4467" user="Rosscoe" changeset="417063" lat="-33.665332" lon="119.720303">
    <tag k="created_by" v="JOSM"/>
    <tag k="highway" v="trunk"/>
    <tag k="name" v="South Coast Hwy"/>
    <tag k="surface" v="paved"/>
  </node>
  <node id="134053045" version="1" timestamp="2007-11-26T05:57:40Z" uid="4467" user="Rosscoe" changeset="621649" lat="-33.665255" lon="119.720638">
    <tag k="created_by" v="JOSM"/>
    <tag k="highway" v="trunk"/>
    <tag k="name" v="South Coast Hwy"/>
    <tag k="surface" v="paved"/>
  </node>
  <node id="134053045" version="2" timestamp="2007-12-25T05:54:51Z" uid="4467" user="Rosscoe" changeset="417063" lat="-33.665255" lon="119.720638">
    <tag k="created_by" v="JOSM"/>
    <tag k="highway" v="trunk"/>
    <tag k="name" v="South Coast Hwy"/>
    <tag k="surface" v="paved"/>
  </node>
  <node id="134053072" version="1" timestamp="2007-11-26T05:57:41Z" uid="4467" user="Rosscoe" changeset="621649" lat="-33.665182" lon="119.720962">
    <tag k="created_by" v="JOSM"/>
    <tag k="highway" v="trunk"/>
    <tag k="name" v="South Coast Hwy"/>
    <tag k="surface" v="paved"/>
  </node>
  <node id="134053072" version="2" timestamp="2007-12-25T05:54:41Z" uid="4467" user="Rosscoe" changeset="417063" lat="-33.665182" lon="119.720962">
    <tag k="created_by" v="JOSM"/>
    <tag k="highway" v="trunk"/>
    <tag k="name" v="South Coast Hwy"/>
    <tag k="surface" v="paved"/>
  </node>
  <node id="134053095" version="1" timestamp="2007-11-26T05:57:41Z" uid="4467" user="Rosscoe" changeset="621649" lat="-33.665702" lon="119.71866">
    <tag k="created_by" v="JOSM"/>
    <tag k="highway" v="trunk"/>
    <tag k="name" v="South Coast Hwy"/>
    <tag k="surface" v="paved"/>
  </node>
  <node id="134053095" version="2" timestamp="2007-12-25T05:54:26Z" uid="4467" user="Rosscoe" changeset="417063" lat="-33.665702" lon="119.71866">
    <tag k="created_by" v="JOSM"/>
    <tag k="highway" v="trunk"/>
    <tag k="name" v="South Coast Hwy"/>
    <tag k="surface" v="paved"/>
  </node>
  <node id="134053120" version="1" timestamp="2007-11-26T05:57:42Z" uid="4467" user="Rosscoe" changeset="621649" lat="-33.665628" lon="119.718985">
    <tag k="created_by" v="JOSM"/>
    <tag k="highway" v="trunk"/>
    <tag k="name" v="South Coast Hwy"/>
    <tag k="surface" v="paved"/>
  </node>
  <node id="134053120" version="2" timestamp="2007-12-25T05:55:37Z" uid="4467" user="Rosscoe" changeset="417063" lat="-33.665628" lon="119.718985">
    <tag k="created_by" v="JOSM"/>
    <tag k="highway" v="trunk"/>
    <tag k="name" v="South Coast Hwy"/>
    <tag k="surface" v="paved"/>
  </node>
  <node id="134053151" version="1" timestamp="2007-11-26T05:57:43Z" uid="4467" user="Rosscoe" changeset="621649" lat="-33.665553" lon="119.719315">
    <tag k="created_by" v="JOSM"/>
    <tag k="highway" v="trunk"/>
    <tag k="name" v="South Coast Hwy"/>
    <tag k="surface" v="paved"/>
  </node>
  <node id="134053151" version="2" timestamp="2007-12-25T05:55:33Z" uid="4467" user="Rosscoe" changeset="417063" lat="-33.665553" lon="119.719315">
    <tag k="created_by" v="JOSM"/>
    <tag k="highway" v="trunk"/>
    <tag k="name" v="South Coast Hwy"/>
    <tag k="surface" v="paved"/>
  </node>
  <node id="134053184" version="1" timestamp="2007-11-26T05:57:44Z" uid="4467" user="Rosscoe" changeset="621649" lat="-33.66548" lon="119.719643">
    <tag k="created_by" v="JOSM"/>
    <tag k="highway" v="trunk"/>
    <tag k="name" v="South Coast Hwy"/>
    <tag k="surface" v="paved"/>
  </node>
  <node id="134053184" version="2" timestamp="2007-12-25T05:55:20Z" uid="4467" user="Rosscoe" changeset="417063" lat="-33.66548" lon="119.719643">
    <tag k="created_by" v="JOSM"/>
    <tag k="highway" v="trunk"/>
    <tag k="name" v="South Coast Hwy"/>
    <tag k="surface" v="paved"/>
  </node>
  <node id="134053211" version="1" timestamp="2007-11-26T05:57:44Z" uid="4467" user="Rosscoe" changeset="621649" lat="-33.666003" lon="119.717337">
    <tag k="created_by" v="JOSM"/>
    <tag k="highway" v="trunk"/>
    <tag k="name" v="South Coast Hwy"/>
    <tag k="surface" v="paved"/>
  </node>
  <node id="134053211" version="2" timestamp="2007-12-25T05:55:15Z" uid="4467" user="Rosscoe" changeset="417063" lat="-33.666003" lon="119.717337">
    <tag k="created_by" v="JOSM"/>
    <tag k="highway" v="trunk"/>
    <tag k="name" v="South Coast Hwy"/>
    <tag k="surface" v="paved"/>
  </node>
  <node id="134053236" version="1" timestamp="2007-11-26T05:57:45Z" uid="4467" user="Rosscoe" changeset="621649" lat="-33.665928" lon="119.717665">
    <tag k="created_by" v="JOSM"/>
    <tag k="highway" v="trunk"/>
    <tag k="name" v="South Coast Hwy"/>
    <tag k="surface" v="paved"/>
  </node>
  <node id="134053236" version="2" timestamp="2007-12-25T05:55:07Z" uid="4467" user="Rosscoe" changeset="417063" lat="-33.665928" lon="119.717665">
    <tag k="created_by" v="JOSM"/>
    <tag k="highway" v="trunk"/>
    <tag k="name" v="South Coast Hwy"/>
    <tag k="surface" v="paved"/>
  </node>
  <node id="134053261" version="1" timestamp="2007-11-26T05:57:46Z" uid="4467" user="Rosscoe" changeset="621649" lat="-33.665853" lon="119.717995">
    <tag k="created_by" v="JOSM"/>
    <tag k="highway" v="trunk"/>
    <tag k="name" v="South Coast Hwy"/>
    <tag k="surface" v="paved"/>
  </node>
  <node id="134053261" version="2" timestamp="2007-12-25T05:56:17Z" uid="4467" user="Rosscoe" changeset="417063" lat="-33.665853" lon="119.717995">
    <tag k="created_by" v="JOSM"/>
    <tag k="highway" v="trunk"/>
    <tag k="name" v="South Coast Hwy"/>
    <tag k="surface" v="paved"/>
  </node>
  <node id="134053290" version="1" timestamp="2007-11-26T05:57:47Z" uid="4467" user="Rosscoe" changeset="621649" lat="-33.665778" lon="119.718325">
    <tag k="created_by" v="JOSM"/>
    <tag k="highway" v="trunk"/>
    <tag k="name" v="South Coast Hwy"/>
    <tag k="surface" v="paved"/>
  </node>
  <node id="134053290" version="2" timestamp="2007-12-25T05:56:08Z" uid="4467" user="Rosscoe" changeset="417063" lat="-33.665778" lon="119.718325">
    <tag k="created_by" v="JOSM"/>
    <tag k="highway" v="trunk"/>
    <tag k="name" v="South Coast Hwy"/>
    <tag k="surface" v="paved"/>
  </node>
  <node id="134053319" version="1" timestamp="2007-11-26T05:57:48Z" uid="4467" user="Rosscoe" changeset="621649" lat="-33.666302" lon="119.716015">
    <tag k="created_by" v="JOSM"/>
    <tag k="highway" v="trunk"/>
    <tag k="name" v="South Coast Hwy"/>
    <tag k="surface" v="paved"/>
  </node>
  <node id="134053319" version="2" timestamp="2007-12-25T05:55:55Z" uid="4467" user="Rosscoe" changeset="417063" lat="-33.666302" lon="119.716015">
    <tag k="created_by" v="JOSM"/>
    <tag k="highway" v="trunk"/>
    <tag k="name" v="South Coast Hwy"/>
    <tag k="surface" v="paved"/>
  </node>
  <node id="134053350" version="1" timestamp="2007-11-26T05:57:48Z" uid="4467" user="Rosscoe" changeset="621649" lat="-33.666227" lon="119.716345">
    <tag k="created_by" v="JOSM"/>
    <tag k="highway" v="trunk"/>
    <tag k="name" v="South Coast Hwy"/>
    <tag k="surface" v="paved"/>
  </node>
  <node id="134053350" version="2" timestamp="2007-12-25T05:55:45Z" uid="4467" user="Rosscoe" changeset="417063" lat="-33.666227" lon="119.716345">
    <tag k="created_by" v="JOSM"/>
    <tag k="highway" v="trunk"/>
    <tag k="name" v="South Coast Hwy"/>
    <tag k="surface" v="paved"/>
  </node>
  <node id="134053376" version="1" timestamp="2007-11-26T05:57:49Z" uid="4467" user="Rosscoe" changeset="621649" lat="-33.666152" lon="119.716682">
    <tag k="created_by" v="JOSM"/>
    <tag k="highway" v="trunk"/>
    <tag k="name" v="South Coast Hwy"/>
    <tag k="surface" v="paved"/>
  </node>
  <node id="134053376" version="2" timestamp="2007-12-25T05:51:35Z" uid="4467" user="Rosscoe" changeset="417063" lat="-33.666152" lon="119.716682">
    <tag k="created_by" v="JOSM"/>
    <tag k="highway" v="trunk"/>
    <tag k="name" v="South Coast Hwy"/>
    <tag k="surface" v="paved"/>
  </node>
  <node id="134053392" version="1" timestamp="2007-11-26T05:57:50Z" uid="4467" user="Rosscoe" changeset="621649" lat="-33.666078" lon="119.717005">
    <tag k="created_by" v="JOSM"/>
    <tag k="highway" v="trunk"/>
    <tag k="name" v="South Coast Hwy"/>
    <tag k="surface" v="paved"/>
  </node>
  <node id="134053392" version="2" timestamp="2007-12-25T05:51:42Z" uid="4467" user="Rosscoe" changeset="417063" lat="-33.666078" lon="119.717005">
    <tag k="created_by" v="JOSM"/>
    <tag k="highway" v="trunk"/>
    <tag k="name" v="South Coast Hwy"/>
    <tag k="surface" v="paved"/>
  </node>
  <node id="134053414" version="1" timestamp="2007-11-26T05:57:51Z" uid="4467" user="Rosscoe" changeset="621649" lat="-33.666598" lon="119.714703">
    <tag k="created_by" v="JOSM"/>
    <tag k="highway" v="trunk"/>
    <tag k="name" v="South Coast Hwy"/>
    <tag k="surface" v="paved"/>
  </node>
  <node id="134053414" version="2" timestamp="2007-12-25T05:51:43Z" uid="4467" user="Rosscoe" changeset="417063" lat="-33.666598" lon="119.714703">
    <tag k="created_by" v="JOSM"/>
    <tag k="highway" v="trunk"/>
    <tag k="name" v="South Coast Hwy"/>
    <tag k="surface" v="paved"/>
  </node>
  <node id="134053449" version="1" timestamp="2007-11-26T05:57:52Z" uid="4467" user="Rosscoe" changeset="621649" lat="-33.666525" lon="119.715028">
    <tag k="created_by" v="JOSM"/>
    <tag k="highway" v="trunk"/>
    <tag k="name" v="South Coast Hwy"/>
    <tag k="surface" v="paved"/>
  </node>
  <node id="134053449" version="2" timestamp="2007-12-25T05:51:14Z" uid="4467" user="Rosscoe" changeset="417063" lat="-33.666525" lon="119.715028">
    <tag k="created_by" v="JOSM"/>
    <tag k="highway" v="trunk"/>
    <tag k="name" v="South Coast Hwy"/>
    <tag k="surface" v="paved"/>
  </node>
  <node id="134053473" version="1" timestamp="2007-11-26T05:57:52Z" uid="4467" user="Rosscoe" changeset="621649" lat="-33.666453" lon="119.715352">
    <tag k="created_by" v="JOSM"/>
    <tag k="highway" v="trunk"/>
    <tag k="name" v="South Coast Hwy"/>
    <tag k="surface" v="paved"/>
  </node>
  <node id="134053473" version="2" timestamp="2007-12-25T05:51:25Z" uid="4467" user="Rosscoe" changeset="417063" lat="-33.666453" lon="119.715352">
    <tag k="created_by" v="JOSM"/>
    <tag k="highway" v="trunk"/>
    <tag k="name" v="South Coast Hwy"/>
    <tag k="surface" v="paved"/>
  </node>
  <node id="134053496" version="1" timestamp="2007-11-26T05:57:53Z" uid="4467" user="Rosscoe" changeset="621649" lat="-33.666377" lon="119.715685">
    <tag k="created_by" v="JOSM"/>
    <tag k="highway" v="trunk"/>
    <tag k="name" v="South Coast Hwy"/>
    <tag k="surface" v="paved"/>
  </node>
  <node id="134053496" version="2" timestamp="2007-12-25T05:51:27Z" uid="4467" user="Rosscoe" changeset="417063" lat="-33.666377" lon="119.715685">
    <tag k="created_by" v="JOSM"/>
    <tag k="highway" v="trunk"/>
    <tag k="name" v="South Coast Hwy"/>
    <tag k="surface" v="paved"/>
  </node>
  <node id="134053530" version="1" timestamp="2007-11-26T05:57:54Z" uid="4467" user="Rosscoe" changeset="621649" lat="-33.666895" lon="119.713383">
    <tag k="created_by" v="JOSM"/>
    <tag k="highway" v="trunk"/>
    <tag k="name" v="South Coast Hwy"/>
    <tag k="surface" v="paved"/>
  </node>
  <node id="134053530" version="2" timestamp="2007-12-25T05:52:21Z" uid="4467" user="Rosscoe" changeset="417063" lat="-33.666895" lon="119.713383">
    <tag k="created_by" v="JOSM"/>
    <tag k="highway" v="trunk"/>
    <tag k="name" v="South Coast Hwy"/>
    <tag k="surface" v="paved"/>
  </node>
  <node id="134053552" version="1" timestamp="2007-11-26T05:57:55Z" uid="4467" user="Rosscoe" changeset="621649" lat="-33.666822" lon="119.713712">
    <tag k="created_by" v="JOSM"/>
    <tag k="highway" v="trunk"/>
    <tag k="name" v="South Coast Hwy"/>
    <tag k="surface" v="paved"/>
  </node>
  <node id="134053552" version="2" timestamp="2007-12-25T05:52:28Z" uid="4467" user="Rosscoe" changeset="417063" lat="-33.666822" lon="119.713712">
    <tag k="created_by" v="JOSM"/>
    <tag k="highway" v="trunk"/>
    <tag k="name" v="South Coast Hwy"/>
    <tag k="surface" v="paved"/>
  </node>
  <node id="134053587" version="1" timestamp="2007-11-26T05:57:55Z" uid="4467" user="Rosscoe" changeset="621649" lat="-33.666748" lon="119.714038">
    <tag k="created_by" v="JOSM"/>
    <tag k="highway" v="trunk"/>
    <tag k="name" v="South Coast Hwy"/>
    <tag k="surface" v="paved"/>
  </node>
  <node id="134053587" version="2" timestamp="2007-12-25T05:51:56Z" uid="4467" user="Rosscoe" changeset="417063" lat="-33.666748" lon="119.714038">
    <tag k="created_by" v="JOSM"/>
    <tag k="highway" v="trunk"/>
    <tag k="name" v="South Coast Hwy"/>
    <tag k="surface" v="paved"/>
  </node>
  <node id="134053605" version="1" timestamp="2007-11-26T05:57:56Z" uid="4467" user="Rosscoe" changeset="621649" lat="-33.666675" lon="119.71437">
    <tag k="created_by" v="JOSM"/>
    <tag k="highway" v="trunk"/>
    <tag k="name" v="South Coast Hwy"/>
    <tag k="surface" v="paved"/>
  </node>
  <node id="134053605" version="2" timestamp="2007-12-25T05:52:02Z" uid="4467" user="Rosscoe" changeset="417063" lat="-33.666675" lon="119.71437">
    <tag k="created_by" v="JOSM"/>
    <tag k="highway" v="trunk"/>
    <tag k="name" v="South Coast Hwy"/>
    <tag k="surface" v="paved"/>
  </node>
  <node id="134053624" version="1" timestamp="2007-11-26T05:57:57Z" uid="4467" user="Rosscoe" changeset="621649" lat="-33.667192" lon="119.712057">
    <tag k="created_by" v="JOSM"/>
    <tag k="highway" v="trunk"/>
    <tag k="name" v="South Coast Hwy"/>
    <tag k="surface" v="paved"/>
  </node>
  <node id="134053624" version="2" timestamp="2007-12-25T05:52:10Z" uid="4467" user="Rosscoe" changeset="417063" lat="-33.667192" lon="119.712057">
    <tag k="created_by" v="JOSM"/>
    <tag k="highway" v="trunk"/>
    <tag k="name" v="South Coast Hwy"/>
    <tag k="surface" v="paved"/>
  </node>
  <node id="134053647" version="1" timestamp="2007-11-26T05:57:58Z" uid="4467" user="Rosscoe" changeset="621649" lat="-33.667117" lon="119.712393">
    <tag k="created_by" v="JOSM"/>
    <tag k="highway" v="trunk"/>
    <tag k="name" v="South Coast Hwy"/>
    <tag k="surface" v="paved"/>
  </node>
  <node id="134053647" version="2" timestamp="2007-12-25T05:52:57Z" uid="4467" user="Rosscoe" changeset="417063" lat="-33.667117" lon="119.712393">
    <tag k="created_by" v="JOSM"/>
    <tag k="highway" v="trunk"/>
    <tag k="name" v="South Coast Hwy"/>
    <tag k="surface" v="paved"/>
  </node>
  <node id="134053680" version="1" timestamp="2007-11-26T05:57:59Z" uid="4467" user="Rosscoe" changeset="621649" lat="-33.667042" lon="119.712727">
    <tag k="created_by" v="JOSM"/>
    <tag k="highway" v="trunk"/>
    <tag k="name" v="South Coast Hwy"/>
    <tag k="surface" v="paved"/>
  </node>
  <node id="134053680" version="2" timestamp="2007-12-25T05:53:05Z" uid="4467" user="Rosscoe" changeset="417063" lat="-33.667042" lon="119.712727">
    <tag k="created_by" v="JOSM"/>
    <tag k="highway" v="trunk"/>
    <tag k="name" v="South Coast Hwy"/>
    <tag k="surface" v="paved"/>
  </node>
  <node id="134053711" version="1" timestamp="2007-11-26T05:57:59Z" uid="4467" user="Rosscoe" changeset="621649" lat="-33.66697" lon="119.713053">
    <tag k="created_by" v="JOSM"/>
    <tag k="highway" v="trunk"/>
    <tag k="name" v="South Coast Hwy"/>
    <tag k="surface" v="paved"/>
  </node>
  <node id="134053711" version="2" timestamp="2007-12-25T05:52:38Z" uid="4467" user="Rosscoe" changeset="417063" lat="-33.66697" lon="119.713053">
    <tag k="created_by" v="JOSM"/>
    <tag k="highway" v="trunk"/>
    <tag k="name" v="South Coast Hwy"/>
    <tag k="surface" v="paved"/>
  </node>
  <node id="134053740" version="1" timestamp="2007-11-26T05:58:00Z" uid="4467" user="Rosscoe" changeset="621649" lat="-33.667485" lon="119.710745">
    <tag k="created_by" v="JOSM"/>
    <tag k="highway" v="trunk"/>
    <tag k="name" v="South Coast Hwy"/>
    <tag k="surface" v="paved"/>
  </node>
  <node id="134053740" version="2" timestamp="2007-12-25T05:52:48Z" uid="4467" user="Rosscoe" changeset="417063" lat="-33.667485" lon="119.710745">
    <tag k="created_by" v="JOSM"/>
    <tag k="highway" v="trunk"/>
    <tag k="name" v="South Coast Hwy"/>
    <tag k="surface" v="paved"/>
  </node>
  <node id="134053764" version="1" timestamp="2007-11-26T05:58:01Z" uid="4467" user="Rosscoe" changeset="621649" lat="-33.667413" lon="119.711068">
    <tag k="created_by" v="JOSM"/>
    <tag k="highway" v="trunk"/>
    <tag k="name" v="South Coast Hwy"/>
    <tag k="surface" v="paved"/>
  </node>
  <node id="134053764" version="2" timestamp="2007-12-25T05:53:36Z" uid="4467" user="Rosscoe" changeset="417063" lat="-33.667413" lon="119.711068">
    <tag k="created_by" v="JOSM"/>
    <tag k="highway" v="trunk"/>
    <tag k="name" v="South Coast Hwy"/>
    <tag k="surface" v="paved"/>
  </node>
  <node id="134053788" version="1" timestamp="2007-11-26T05:58:02Z" uid="4467" user="Rosscoe" changeset="621649" lat="-33.66734" lon="119.711398">
    <tag k="created_by" v="JOSM"/>
    <tag k="highway" v="trunk"/>
    <tag k="name" v="South Coast Hwy"/>
    <tag k="surface" v="paved"/>
  </node>
  <node id="134053788" version="2" timestamp="2007-12-25T05:53:32Z" uid="4467" user="Rosscoe" changeset="417063" lat="-33.66734" lon="119.711398">
    <tag k="created_by" v="JOSM"/>
    <tag k="highway" v="trunk"/>
    <tag k="name" v="South Coast Hwy"/>
    <tag k="surface" v="paved"/>
  </node>
  <node id="134053832" version="1" timestamp="2007-11-26T05:58:03Z" uid="4467" user="Rosscoe" changeset="621649" lat="-33.667265" lon="119.71173">
    <tag k="created_by" v="JOSM"/>
    <tag k="highway" v="trunk"/>
    <tag k="name" v="South Coast Hwy"/>
    <tag k="surface" v="paved"/>
  </node>
  <node id="134053832" version="2" timestamp="2007-12-25T05:53:17Z" uid="4467" user="Rosscoe" changeset="417063" lat="-33.667265" lon="119.71173">
    <tag k="created_by" v="JOSM"/>
    <tag k="highway" v="trunk"/>
    <tag k="name" v="South Coast Hwy"/>
    <tag k="surface" v="paved"/>
  </node>
  <node id="134053861" version="1" timestamp="2007-11-26T05:58:03Z" uid="4467" user="Rosscoe" changeset="621649" lat="-33.667782" lon="119.709423">
    <tag k="created_by" v="JOSM"/>
    <tag k="highway" v="trunk"/>
    <tag k="name" v="South Coast Hwy"/>
    <tag k="surface" v="paved"/>
  </node>
  <node id="134053861" version="2" timestamp="2007-12-25T05:53:24Z" uid="4467" user="Rosscoe" changeset="417063" lat="-33.667782" lon="119.709423">
    <tag k="created_by" v="JOSM"/>
    <tag k="highway" v="trunk"/>
    <tag k="name" v="South Coast Hwy"/>
    <tag k="surface" v="paved"/>
  </node>
  <node id="134053889" version="1" timestamp="2007-11-26T05:58:04Z" uid="4467" user="Rosscoe" changeset="621649" lat="-33.667707" lon="119.709752">
    <tag k="created_by" v="JOSM"/>
    <tag k="highway" v="trunk"/>
    <tag k="name" v="South Coast Hwy"/>
    <tag k="surface" v="paved"/>
  </node>
  <node id="134053889" version="2" timestamp="2007-12-25T05:51:40Z" uid="4467" user="Rosscoe" changeset="417063" lat="-33.667707" lon="119.709752">
    <tag k="created_by" v="JOSM"/>
    <tag k="highway" v="trunk"/>
    <tag k="name" v="South Coast Hwy"/>
    <tag k="surface" v="paved"/>
  </node>
  <node id="134053919" version="1" timestamp="2007-11-26T05:58:05Z" uid="4467" user="Rosscoe" changeset="621649" lat="-33.667635" lon="119.710077">
    <tag k="created_by" v="JOSM"/>
    <tag k="highway" v="trunk"/>
    <tag k="name" v="South Coast Hwy"/>
    <tag k="surface" v="paved"/>
  </node>
  <node id="134053919" version="2" timestamp="2007-12-25T05:51:30Z" uid="4467" user="Rosscoe" changeset="417063" lat="-33.667635" lon="119.710077">
    <tag k="created_by" v="JOSM"/>
    <tag k="highway" v="trunk"/>
    <tag k="name" v="South Coast Hwy"/>
    <tag k="surface" v="paved"/>
  </node>
  <node id="134053946" version="1" timestamp="2007-11-26T05:58:06Z" uid="4467" user="Rosscoe" changeset="621649" lat="-33.66756" lon="119.710412">
    <tag k="created_by" v="JOSM"/>
    <tag k="highway" v="trunk"/>
    <tag k="name" v="South Coast Hwy"/>
    <tag k="surface" v="paved"/>
  </node>
  <node id="134053946" version="2" timestamp="2007-12-25T05:51:42Z" uid="4467" user="Rosscoe" changeset="417063" lat="-33.66756" lon="119.710412">
    <tag k="created_by" v="JOSM"/>
    <tag k="highway" v="trunk"/>
    <tag k="name" v="South Coast Hwy"/>
    <tag k="surface" v="paved"/>
  </node>
  <node id="134053976" version="1" timestamp="2007-11-26T05:58:06Z" uid="4467" user="Rosscoe" changeset="621649" lat="-33.66808" lon="119.708107">
    <tag k="created_by" v="JOSM"/>
    <tag k="highway" v="trunk"/>
    <tag k="name" v="South Coast Hwy"/>
    <tag k="surface" v="paved"/>
  </node>
  <node id="134053976" version="2" timestamp="2007-12-25T05:51:13Z" uid="4467" user="Rosscoe" changeset="417063" lat="-33.66808" lon="119.708107">
    <tag k="created_by" v="JOSM"/>
    <tag k="highway" v="trunk"/>
    <tag k="name" v="South Coast Hwy"/>
    <tag k="surface" v="paved"/>
  </node>
  <node id="134054008" version="1" timestamp="2007-11-26T05:58:07Z" uid="4467" user="Rosscoe" changeset="621649" lat="-33.668005" lon="119.708438">
    <tag k="created_by" v="JOSM"/>
    <tag k="highway" v="trunk"/>
    <tag k="name" v="South Coast Hwy"/>
    <tag k="surface" v="paved"/>
  </node>
  <node id="134054008" version="2" timestamp="2007-12-25T05:51:23Z" uid="4467" user="Rosscoe" changeset="417063" lat="-33.668005" lon="119.708438">
    <tag k="created_by" v="JOSM"/>
    <tag k="highway" v="trunk"/>
    <tag k="name" v="South Coast Hwy"/>
    <tag k="surface" v="paved"/>
  </node>
  <node id="134054040" version="1" timestamp="2007-11-26T05:58:08Z" uid="4467" user="Rosscoe" changeset="621649" lat="-33.66793" lon="119.70877">
    <tag k="created_by" v="JOSM"/>
    <tag k="highway" v="trunk"/>
    <tag k="name" v="South Coast Hwy"/>
    <tag k="surface" v="paved"/>
  </node>
  <node id="134054040" version="2" timestamp="2007-12-25T05:52:16Z" uid="4467" user="Rosscoe" changeset="417063" lat="-33.66793" lon="119.70877">
    <tag k="created_by" v="JOSM"/>
    <tag k="highway" v="trunk"/>
    <tag k="name" v="South Coast Hwy"/>
    <tag k="surface" v="paved"/>
  </node>
  <node id="134054077" version="1" timestamp="2007-11-26T05:58:09Z" uid="4467" user="Rosscoe" changeset="621649" lat="-33.667857" lon="119.709095">
    <tag k="created_by" v="JOSM"/>
    <tag k="highway" v="trunk"/>
    <tag k="name" v="South Coast Hwy"/>
    <tag k="surface" v="paved"/>
  </node>
  <node id="134054077" version="2" timestamp="2007-12-25T05:52:25Z" uid="4467" user="Rosscoe" changeset="417063" lat="-33.667857" lon="119.709095">
    <tag k="created_by" v="JOSM"/>
    <tag k="highway" v="trunk"/>
    <tag k="name" v="South Coast Hwy"/>
    <tag k="surface" v="paved"/>
  </node>
  <node id="134054107" version="1" timestamp="2007-11-26T05:58:10Z" uid="4467" user="Rosscoe" changeset="621649" lat="-33.668377" lon="119.706803">
    <tag k="created_by" v="JOSM"/>
    <tag k="highway" v="trunk"/>
    <tag k="name" v="South Coast Hwy"/>
    <tag k="surface" v="paved"/>
  </node>
  <node id="134054107" version="2" timestamp="2007-12-25T05:51:53Z" uid="4467" user="Rosscoe" changeset="417063" lat="-33.668377" lon="119.706803">
    <tag k="created_by" v="JOSM"/>
    <tag k="highway" v="trunk"/>
    <tag k="name" v="South Coast Hwy"/>
    <tag k="surface" v="paved"/>
  </node>
  <node id="134054140" version="1" timestamp="2007-11-26T05:58:10Z" uid="4467" user="Rosscoe" changeset="621649" lat="-33.668303" lon="119.707125">
    <tag k="created_by" v="JOSM"/>
    <tag k="highway" v="trunk"/>
    <tag k="name" v="South Coast Hwy"/>
    <tag k="surface" v="paved"/>
  </node>
  <node id="134054140" version="2" timestamp="2007-12-25T05:52:07Z" uid="4467" user="Rosscoe" changeset="417063" lat="-33.668303" lon="119.707125">
    <tag k="created_by" v="JOSM"/>
    <tag k="highway" v="trunk"/>
    <tag k="name" v="South Coast Hwy"/>
    <tag k="surface" v="paved"/>
  </node>
  <node id="134054162" version="1" timestamp="2007-11-26T05:58:11Z" uid="4467" user="Rosscoe" changeset="621649" lat="-33.668228" lon="119.707452">
    <tag k="created_by" v="JOSM"/>
    <tag k="highway" v="trunk"/>
    <tag k="name" v="South Coast Hwy"/>
    <tag k="surface" v="paved"/>
  </node>
  <node id="134054162" version="2" timestamp="2007-12-25T05:52:59Z" uid="4467" user="Rosscoe" changeset="417063" lat="-33.668228" lon="119.707452">
    <tag k="created_by" v="JOSM"/>
    <tag k="highway" v="trunk"/>
    <tag k="name" v="South Coast Hwy"/>
    <tag k="surface" v="paved"/>
  </node>
  <node id="134054193" version="1" timestamp="2007-11-26T05:58:12Z" uid="4467" user="Rosscoe" changeset="621649" lat="-33.668153" lon="119.70778">
    <tag k="created_by" v="JOSM"/>
    <tag k="highway" v="trunk"/>
    <tag k="name" v="South Coast Hwy"/>
    <tag k="surface" v="paved"/>
  </node>
  <node id="134054193" version="2" timestamp="2007-12-25T05:53:08Z" uid="4467" user="Rosscoe" changeset="417063" lat="-33.668153" lon="119.70778">
    <tag k="created_by" v="JOSM"/>
    <tag k="highway" v="trunk"/>
    <tag k="name" v="South Coast Hwy"/>
    <tag k="surface" v="paved"/>
  </node>
  <node id="134054227" version="1" timestamp="2007-11-26T05:58:13Z" uid="4467" user="Rosscoe" changeset="621649" lat="-33.668748" lon="119.705158">
    <tag k="created_by" v="JOSM"/>
    <tag k="highway" v="trunk"/>
    <tag k="name" v="South Coast Hwy"/>
    <tag k="surface" v="paved"/>
  </node>
  <node id="134054227" version="2" timestamp="2007-12-25T05:52:39Z" uid="4467" user="Rosscoe" changeset="417063" lat="-33.668748" lon="119.705158">
    <tag k="created_by" v="JOSM"/>
    <tag k="highway" v="trunk"/>
    <tag k="name" v="South Coast Hwy"/>
    <tag k="surface" v="paved"/>
  </node>
  <node id="134054246" version="1" timestamp="2007-11-26T05:58:13Z" uid="4467" user="Rosscoe" changeset="621649" lat="-33.66882" lon="119.704833">
    <tag k="created_by" v="JOSM"/>
    <tag k="highway" v="trunk"/>
    <tag k="name" v="South Coast Hwy"/>
    <tag k="surface" v="paved"/>
  </node>
  <node id="134054246" version="2" timestamp="2007-12-25T05:52:45Z" uid="4467" user="Rosscoe" changeset="417063" lat="-33.66882" lon="119.704833">
    <tag k="created_by" v="JOSM"/>
    <tag k="highway" v="trunk"/>
    <tag k="name" v="South Coast Hwy"/>
    <tag k="surface" v="paved"/>
  </node>
  <node id="134054277" version="1" timestamp="2007-11-26T05:58:14Z" uid="4467" user="Rosscoe" changeset="621649" lat="-33.668895" lon="119.7045">
    <tag k="created_by" v="JOSM"/>
    <tag k="highway" v="trunk"/>
    <tag k="name" v="South Coast Hwy"/>
    <tag k="surface" v="paved"/>
  </node>
  <node id="134054277" version="2" timestamp="2007-12-25T05:53:30Z" uid="4467" user="Rosscoe" changeset="417063" lat="-33.668895" lon="119.7045">
    <tag k="created_by" v="JOSM"/>
    <tag k="highway" v="trunk"/>
    <tag k="name" v="South Coast Hwy"/>
    <tag k="surface" v="paved"/>
  </node>
  <node id="134054302" version="1" timestamp="2007-11-26T05:58:15Z" uid="4467" user="Rosscoe" changeset="621649" lat="-33.668968" lon="119.704165">
    <tag k="created_by" v="JOSM"/>
    <tag k="highway" v="trunk"/>
    <tag k="name" v="South Coast Hwy"/>
    <tag k="surface" v="paved"/>
  </node>
  <node id="134054302" version="2" timestamp="2007-12-25T05:53:40Z" uid="4467" user="Rosscoe" changeset="417063" lat="-33.668968" lon="119.704165">
    <tag k="created_by" v="JOSM"/>
    <tag k="highway" v="trunk"/>
    <tag k="name" v="South Coast Hwy"/>
    <tag k="surface" v="paved"/>
  </node>
  <node id="134054329" version="1" timestamp="2007-11-26T05:58:16Z" uid="4467" user="Rosscoe" changeset="621649" lat="-33.668453" lon="119.706472">
    <tag k="created_by" v="JOSM"/>
    <tag k="highway" v="trunk"/>
    <tag k="name" v="South Coast Hwy"/>
    <tag k="surface" v="paved"/>
  </node>
  <node id="134054329" version="2" timestamp="2007-12-25T05:53:45Z" uid="4467" user="Rosscoe" changeset="417063" lat="-33.668453" lon="119.706472">
    <tag k="created_by" v="JOSM"/>
    <tag k="highway" v="trunk"/>
    <tag k="name" v="South Coast Hwy"/>
    <tag k="surface" v="paved"/>
  </node>
  <node id="134054359" version="1" timestamp="2007-11-26T05:58:17Z" uid="4467" user="Rosscoe" changeset="621649" lat="-33.668527" lon="119.706143">
    <tag k="created_by" v="JOSM"/>
    <tag k="highway" v="trunk"/>
    <tag k="name" v="South Coast Hwy"/>
    <tag k="surface" v="paved"/>
  </node>
  <node id="134054359" version="2" timestamp="2007-12-25T05:53:16Z" uid="4467" user="Rosscoe" changeset="417063" lat="-33.668527" lon="119.706143">
    <tag k="created_by" v="JOSM"/>
    <tag k="highway" v="trunk"/>
    <tag k="name" v="South Coast Hwy"/>
    <tag k="surface" v="paved"/>
  </node>
  <node id="134054394" version="1" timestamp="2007-11-26T05:58:18Z" uid="4467" user="Rosscoe" changeset="621649" lat="-33.6686" lon="119.705815">
    <tag k="created_by" v="JOSM"/>
    <tag k="highway" v="trunk"/>
    <tag k="name" v="South Coast Hwy"/>
    <tag k="surface" v="paved"/>
  </node>
  <node id="134054394" version="2" timestamp="2007-12-25T05:53:27Z" uid="4467" user="Rosscoe" changeset="417063" lat="-33.6686" lon="119.705815">
    <tag k="created_by" v="JOSM"/>
    <tag k="highway" v="trunk"/>
    <tag k="name" v="South Coast Hwy"/>
    <tag k="surface" v="paved"/>
  </node>
  <node id="134054499" version="1" timestamp="2007-11-26T05:58:21Z" uid="4467" user="Rosscoe" changeset="621649" lat="-33.668675" lon="119.705488">
    <tag k="created_by" v="JOSM"/>
    <tag k="highway" v="trunk"/>
    <tag k="name" v="South Coast Hwy"/>
    <tag k="surface" v="paved"/>
  </node>
  <node id="134054499" version="2" timestamp="2007-12-25T05:53:54Z" uid="4467" user="Rosscoe" changeset="417063" lat="-33.668675" lon="119.705488">
    <tag k="created_by" v="JOSM"/>
    <tag k="highway" v="trunk"/>
    <tag k="name" v="South Coast Hwy"/>
    <tag k="surface" v="paved"/>
  </node>
  <node id="134054614" version="1" timestamp="2007-11-26T05:58:24Z" uid="4467" user="Rosscoe" changeset="621649" lat="-33.669338" lon="119.702523">
    <tag k="created_by" v="JOSM"/>
    <tag k="highway" v="trunk"/>
    <tag k="name" v="South Coast Hwy"/>
    <tag k="surface" v="paved"/>
  </node>
  <node id="134054614" version="2" timestamp="2007-12-25T05:54:35Z" uid="4467" user="Rosscoe" changeset="417063" lat="-33.669338" lon="119.702523">
    <tag k="created_by" v="JOSM"/>
    <tag k="highway" v="trunk"/>
    <tag k="name" v="South Coast Hwy"/>
    <tag k="surface" v="paved"/>
  </node>
  <node id="134054647" version="1" timestamp="2007-11-26T05:58:24Z" uid="4467" user="Rosscoe" changeset="621649" lat="-33.669417" lon="119.702192">
    <tag k="created_by" v="JOSM"/>
    <tag k="highway" v="trunk"/>
    <tag k="name" v="South Coast Hwy"/>
    <tag k="surface" v="paved"/>
  </node>
  <node id="134054647" version="2" timestamp="2007-12-25T05:54:24Z" uid="4467" user="Rosscoe" changeset="417063" lat="-33.669417" lon="119.702192">
    <tag k="created_by" v="JOSM"/>
    <tag k="highway" v="trunk"/>
    <tag k="name" v="South Coast Hwy"/>
    <tag k="surface" v="paved"/>
  </node>
  <node id="134054673" version="1" timestamp="2007-11-26T05:58:25Z" uid="4467" user="Rosscoe" changeset="621649" lat="-33.669497" lon="119.701868">
    <tag k="created_by" v="JOSM"/>
    <tag k="highway" v="trunk"/>
    <tag k="name" v="South Coast Hwy"/>
    <tag k="surface" v="paved"/>
  </node>
  <node id="134054673" version="2" timestamp="2007-12-25T05:55:38Z" uid="4467" user="Rosscoe" changeset="417063" lat="-33.669497" lon="119.701868">
    <tag k="created_by" v="JOSM"/>
    <tag k="highway" v="trunk"/>
    <tag k="name" v="South Coast Hwy"/>
    <tag k="surface" v="paved"/>
  </node>
  <node id="134054699" version="1" timestamp="2007-11-26T05:58:26Z" uid="4467" user="Rosscoe" changeset="621649" lat="-33.669587" lon="119.701545">
    <tag k="created_by" v="JOSM"/>
    <tag k="highway" v="trunk"/>
    <tag k="name" v="South Coast Hwy"/>
    <tag k="surface" v="paved"/>
  </node>
  <node id="134054699" version="2" timestamp="2007-12-25T05:55:22Z" uid="4467" user="Rosscoe" changeset="417063" lat="-33.669587" lon="119.701545">
    <tag k="created_by" v="JOSM"/>
    <tag k="highway" v="trunk"/>
    <tag k="name" v="South Coast Hwy"/>
    <tag k="surface" v="paved"/>
  </node>
  <node id="134054735" version="1" timestamp="2007-11-26T05:58:27Z" uid="4467" user="Rosscoe" changeset="621649" lat="-33.669042" lon="119.70384">
    <tag k="created_by" v="JOSM"/>
    <tag k="highway" v="trunk"/>
    <tag k="name" v="South Coast Hwy"/>
    <tag k="surface" v="paved"/>
  </node>
  <node id="134054735" version="2" timestamp="2007-12-25T05:55:12Z" uid="4467" user="Rosscoe" changeset="417063" lat="-33.669042" lon="119.70384">
    <tag k="created_by" v="JOSM"/>
    <tag k="highway" v="trunk"/>
    <tag k="name" v="South Coast Hwy"/>
    <tag k="surface" v="paved"/>
  </node>
  <node id="134054778" version="1" timestamp="2007-11-26T05:58:28Z" uid="4467" user="Rosscoe" changeset="621649" lat="-33.669115" lon="119.703512">
    <tag k="created_by" v="JOSM"/>
    <tag k="highway" v="trunk"/>
    <tag k="name" v="South Coast Hwy"/>
    <tag k="surface" v="paved"/>
  </node>
  <node id="134054778" version="2" timestamp="2007-12-25T05:55:10Z" uid="4467" user="Rosscoe" changeset="417063" lat="-33.669115" lon="119.703512">
    <tag k="created_by" v="JOSM"/>
    <tag k="highway" v="trunk"/>
    <tag k="name" v="South Coast Hwy"/>
    <tag k="surface" v="paved"/>
  </node>
  <node id="134054834" version="1" timestamp="2007-11-26T05:58:30Z" uid="4467" user="Rosscoe" changeset="621649" lat="-33.669188" lon="119.70318">
    <tag k="created_by" v="JOSM"/>
    <tag k="highway" v="trunk"/>
    <tag k="name" v="South Coast Hwy"/>
    <tag k="surface" v="paved"/>
  </node>
  <node id="134054834" version="2" timestamp="2007-12-25T05:56:04Z" uid="4467" user="Rosscoe" changeset="417063" lat="-33.669188" lon="119.70318">
    <tag k="created_by" v="JOSM"/>
    <tag k="highway" v="trunk"/>
    <tag k="name" v="South Coast Hwy"/>
    <tag k="surface" v="paved"/>
  </node>
  <node id="134054893" version="1" timestamp="2007-11-26T05:58:32Z" uid="4467" user="Rosscoe" changeset="621649" lat="-33.669262" lon="119.702857">
    <tag k="created_by" v="JOSM"/>
    <tag k="highway" v="trunk"/>
    <tag k="name" v="South Coast Hwy"/>
    <tag k="surface" v="paved"/>
  </node>
  <node id="134054893" version="2" timestamp="2007-12-25T07:54:36Z" uid="4467" user="Rosscoe" changeset="422154" lat="-33.669262" lon="119.702857">
    <tag k="created_by" v="JOSM"/>
    <tag k="highway" v="trunk"/>
    <tag k="name" v="South Coast Hwy"/>
    <tag k="surface" v="paved"/>
  </node>
  <node id="134054933" version="1" timestamp="2007-11-26T05:58:34Z" uid="4467" user="Rosscoe" changeset="621649" lat="-33.670147" lon="119.699968">
    <tag k="created_by" v="JOSM"/>
    <tag k="highway" v="trunk"/>
    <tag k="name" v="South Coast Hwy"/>
    <tag k="surface" v="paved"/>
  </node>
  <node id="134054933" version="2" timestamp="2007-12-25T05:46:13Z" uid="4467" user="Rosscoe" changeset="417063" lat="-33.670147" lon="119.699968">
    <tag k="created_by" v="JOSM"/>
    <tag k="highway" v="trunk"/>
    <tag k="name" v="South Coast Hwy"/>
    <tag k="surface" v="paved"/>
  </node>
  <node id="134054957" version="1" timestamp="2007-11-26T05:58:34Z" uid="4467" user="Rosscoe" changeset="621649" lat="-33.670282" lon="119.699667">
    <tag k="created_by" v="JOSM"/>
    <tag k="highway" v="trunk"/>
    <tag k="name" v="South Coast Hwy"/>
    <tag k="surface" v="paved"/>
  </node>
  <node id="134054957" version="2" timestamp="2007-12-25T05:46:29Z" uid="4467" user="Rosscoe" changeset="417063" lat="-33.670282" lon="119.699667">
    <tag k="created_by" v="JOSM"/>
    <tag k="highway" v="trunk"/>
    <tag k="name" v="South Coast Hwy"/>
    <tag k="surface" v="paved"/>
  </node>
  <node id="134054986" version="1" timestamp="2007-11-26T05:58:35Z" uid="4467" user="Rosscoe" changeset="621649" lat="-33.670425" lon="119.699363">
    <tag k="created_by" v="JOSM"/>
    <tag k="highway" v="trunk"/>
    <tag k="name" v="South Coast Hwy"/>
    <tag k="surface" v="paved"/>
  </node>
  <node id="134054986" version="2" timestamp="2007-12-25T05:46:38Z" uid="4467" user="Rosscoe" changeset="417063" lat="-33.670425" lon="119.699363">
    <tag k="created_by" v="JOSM"/>
    <tag k="highway" v="trunk"/>
    <tag k="name" v="South Coast Hwy"/>
    <tag k="surface" v="paved"/>
  </node>
  <node id="134055007" version="1" timestamp="2007-11-26T05:58:36Z" uid="4467" user="Rosscoe" changeset="621649" lat="-33.670575" lon="119.699075">
    <tag k="created_by" v="JOSM"/>
    <tag k="highway" v="trunk"/>
    <tag k="name" v="South Coast Hwy"/>
    <tag k="surface" v="paved"/>
  </node>
  <node id="134055007" version="2" timestamp="2007-12-25T05:46:35Z" uid="4467" user="Rosscoe" changeset="417063" lat="-33.670575" lon="119.699075">
    <tag k="created_by" v="JOSM"/>
    <tag k="highway" v="trunk"/>
    <tag k="name" v="South Coast Hwy"/>
    <tag k="surface" v="paved"/>
  </node>
  <node id="134055029" version="1" timestamp="2007-11-26T05:58:37Z" uid="4467" user="Rosscoe" changeset="621649" lat="-33.669682" lon="119.701222">
    <tag k="created_by" v="JOSM"/>
    <tag k="highway" v="trunk"/>
    <tag k="name" v="South Coast Hwy"/>
    <tag k="surface" v="paved"/>
  </node>
  <node id="134055029" version="2" timestamp="2007-12-25T05:46:44Z" uid="4467" user="Rosscoe" changeset="417063" lat="-33.669682" lon="119.701222">
    <tag k="created_by" v="JOSM"/>
    <tag k="highway" v="trunk"/>
    <tag k="name" v="South Coast Hwy"/>
    <tag k="surface" v="paved"/>
  </node>
  <node id="134055058" version="1" timestamp="2007-11-26T05:58:37Z" uid="4467" user="Rosscoe" changeset="621649" lat="-33.669783" lon="119.700907">
    <tag k="created_by" v="JOSM"/>
    <tag k="highway" v="trunk"/>
    <tag k="name" v="South Coast Hwy"/>
    <tag k="surface" v="paved"/>
  </node>
  <node id="134055058" version="2" timestamp="2007-12-25T05:46:54Z" uid="4467" user="Rosscoe" changeset="417063" lat="-33.669783" lon="119.700907">
    <tag k="created_by" v="JOSM"/>
    <tag k="highway" v="trunk"/>
    <tag k="name" v="South Coast Hwy"/>
    <tag k="surface" v="paved"/>
  </node>
  <node id="134055085" version="1" timestamp="2007-11-26T05:58:38Z" uid="4467" user="Rosscoe" changeset="621649" lat="-33.669897" lon="119.700588">
    <tag k="created_by" v="JOSM"/>
    <tag k="highway" v="trunk"/>
    <tag k="name" v="South Coast Hwy"/>
    <tag k="surface" v="paved"/>
  </node>
  <node id="134055085" version="2" timestamp="2007-12-25T05:47:04Z" uid="4467" user="Rosscoe" changeset="417063" lat="-33.669897" lon="119.700588">
    <tag k="created_by" v="JOSM"/>
    <tag k="highway" v="trunk"/>
    <tag k="name" v="South Coast Hwy"/>
    <tag k="surface" v="paved"/>
  </node>
  <node id="134055116" version="1" timestamp="2007-11-26T05:58:39Z" uid="4467" user="Rosscoe" changeset="621649" lat="-33.670018" lon="119.700278">
    <tag k="created_by" v="JOSM"/>
    <tag k="highway" v="trunk"/>
    <tag k="name" v="South Coast Hwy"/>
    <tag k="surface" v="paved"/>
  </node>
  <node id="134055116" version="2" timestamp="2007-12-25T05:47:12Z" uid="4467" user="Rosscoe" changeset="417063" lat="-33.670018" lon="119.700278">
    <tag k="created_by" v="JOSM"/>
    <tag k="highway" v="trunk"/>
    <tag k="name" v="South Coast Hwy"/>
    <tag k="surface" v="paved"/>
  </node>
  <node id="134055147" version="1" timestamp="2007-11-26T05:58:40Z" uid="4467" user="Rosscoe" changeset="621649" lat="-33.671403" lon="119.697662">
    <tag k="created_by" v="JOSM"/>
    <tag k="highway" v="trunk"/>
    <tag k="name" v="South Coast Hwy"/>
    <tag k="surface" v="paved"/>
  </node>
  <node id="134055147" version="2" timestamp="2007-12-25T05:47:19Z" uid="4467" user="Rosscoe" changeset="417063" lat="-33.671403" lon="119.697662">
    <tag k="created_by" v="JOSM"/>
    <tag k="highway" v="trunk"/>
    <tag k="name" v="South Coast Hwy"/>
    <tag k="surface" v="paved"/>
  </node>
  <node id="134055174" version="1" timestamp="2007-11-26T05:58:41Z" uid="4467" user="Rosscoe" changeset="621649" lat="-33.67157" lon="119.697388">
    <tag k="created_by" v="JOSM"/>
    <tag k="highway" v="trunk"/>
    <tag k="name" v="South Coast Hwy"/>
    <tag k="surface" v="paved"/>
  </node>
  <node id="134055174" version="2" timestamp="2007-12-25T05:47:25Z" uid="4467" user="Rosscoe" changeset="417063" lat="-33.67157" lon="119.697388">
    <tag k="created_by" v="JOSM"/>
    <tag k="highway" v="trunk"/>
    <tag k="name" v="South Coast Hwy"/>
    <tag k="surface" v="paved"/>
  </node>
  <node id="134055195" version="1" timestamp="2007-11-26T05:58:41Z" uid="4467" user="Rosscoe" changeset="621649" lat="-33.671738" lon="119.697108">
    <tag k="created_by" v="JOSM"/>
    <tag k="highway" v="trunk"/>
    <tag k="name" v="South Coast Hwy"/>
    <tag k="surface" v="paved"/>
  </node>
  <node id="134055195" version="2" timestamp="2007-12-25T05:47:30Z" uid="4467" user="Rosscoe" changeset="417063" lat="-33.671738" lon="119.697108">
    <tag k="created_by" v="JOSM"/>
    <tag k="highway" v="trunk"/>
    <tag k="name" v="South Coast Hwy"/>
    <tag k="surface" v="paved"/>
  </node>
  <node id="134055226" version="1" timestamp="2007-11-26T05:58:42Z" uid="4467" user="Rosscoe" changeset="621649" lat="-33.671907" lon="119.696833">
    <tag k="created_by" v="JOSM"/>
    <tag k="highway" v="trunk"/>
    <tag k="name" v="South Coast Hwy"/>
    <tag k="surface" v="paved"/>
  </node>
  <node id="134055226" version="2" timestamp="2007-12-25T05:47:39Z" uid="4467" user="Rosscoe" changeset="417063" lat="-33.671907" lon="119.696833">
    <tag k="created_by" v="JOSM"/>
    <tag k="highway" v="trunk"/>
    <tag k="name" v="South Coast Hwy"/>
    <tag k="surface" v="paved"/>
  </node>
  <node id="134055256" version="1" timestamp="2007-11-26T05:58:43Z" uid="4467" user="Rosscoe" changeset="621649" lat="-33.670735" lon="119.69878">
    <tag k="created_by" v="JOSM"/>
    <tag k="highway" v="trunk"/>
    <tag k="name" v="South Coast Hwy"/>
    <tag k="surface" v="paved"/>
  </node>
  <node id="134055256" version="2" timestamp="2007-12-25T05:47:48Z" uid="4467" user="Rosscoe" changeset="417063" lat="-33.670735" lon="119.69878">
    <tag k="created_by" v="JOSM"/>
    <tag k="highway" v="trunk"/>
    <tag k="name" v="South Coast Hwy"/>
    <tag k="surface" v="paved"/>
  </node>
  <node id="134055284" version="1" timestamp="2007-11-26T05:58:44Z" uid="4467" user="Rosscoe" changeset="621649" lat="-33.670898" lon="119.698495">
    <tag k="created_by" v="JOSM"/>
    <tag k="highway" v="trunk"/>
    <tag k="name" v="South Coast Hwy"/>
    <tag k="surface" v="paved"/>
  </node>
  <node id="134055284" version="2" timestamp="2007-12-25T05:47:55Z" uid="4467" user="Rosscoe" changeset="417063" lat="-33.670898" lon="119.698495">
    <tag k="created_by" v="JOSM"/>
    <tag k="highway" v="trunk"/>
    <tag k="name" v="South Coast Hwy"/>
    <tag k="surface" v="paved"/>
  </node>
  <node id="134055315" version="1" timestamp="2007-11-26T05:58:45Z" uid="4467" user="Rosscoe" changeset="621649" lat="-33.671065" lon="119.698218">
    <tag k="created_by" v="JOSM"/>
    <tag k="highway" v="trunk"/>
    <tag k="name" v="South Coast Hwy"/>
    <tag k="surface" v="paved"/>
  </node>
  <node id="134055315" version="2" timestamp="2007-12-25T05:48:06Z" uid="4467" user="Rosscoe" changeset="417063" lat="-33.671065" lon="119.698218">
    <tag k="created_by" v="JOSM"/>
    <tag k="highway" v="trunk"/>
    <tag k="name" v="South Coast Hwy"/>
    <tag k="surface" v="paved"/>
  </node>
  <node id="134055345" version="1" timestamp="2007-11-26T05:58:45Z" uid="4467" user="Rosscoe" changeset="621649" lat="-33.671235" lon="119.69794">
    <tag k="created_by" v="JOSM"/>
    <tag k="highway" v="trunk"/>
    <tag k="name" v="South Coast Hwy"/>
    <tag k="surface" v="paved"/>
  </node>
  <node id="134055345" version="2" timestamp="2007-12-25T05:48:15Z" uid="4467" user="Rosscoe" changeset="417063" lat="-33.671235" lon="119.69794">
    <tag k="created_by" v="JOSM"/>
    <tag k="highway" v="trunk"/>
    <tag k="name" v="South Coast Hwy"/>
    <tag k="surface" v="paved"/>
  </node>
  <node id="134055374" version="1" timestamp="2007-11-26T05:58:46Z" uid="4467" user="Rosscoe" changeset="621649" lat="-33.672742" lon="119.695448">
    <tag k="created_by" v="JOSM"/>
    <tag k="highway" v="trunk"/>
    <tag k="name" v="South Coast Hwy"/>
    <tag k="surface" v="paved"/>
  </node>
  <node id="134055374" version="2" timestamp="2007-12-25T05:48:16Z" uid="4467" user="Rosscoe" changeset="417063" lat="-33.672742" lon="119.695448">
    <tag k="created_by" v="JOSM"/>
    <tag k="highway" v="trunk"/>
    <tag k="name" v="South Coast Hwy"/>
    <tag k="surface" v="paved"/>
  </node>
  <node id="134055403" version="1" timestamp="2007-11-26T05:58:47Z" uid="4467" user="Rosscoe" changeset="621649" lat="-33.672913" lon="119.695165">
    <tag k="created_by" v="JOSM"/>
    <tag k="highway" v="trunk"/>
    <tag k="name" v="South Coast Hwy"/>
    <tag k="surface" v="paved"/>
  </node>
  <node id="134055403" version="2" timestamp="2007-12-25T05:48:22Z" uid="4467" user="Rosscoe" changeset="417063" lat="-33.672913" lon="119.695165">
    <tag k="created_by" v="JOSM"/>
    <tag k="highway" v="trunk"/>
    <tag k="name" v="South Coast Hwy"/>
    <tag k="surface" v="paved"/>
  </node>
  <node id="134055439" version="1" timestamp="2007-11-26T05:58:48Z" uid="4467" user="Rosscoe" changeset="621649" lat="-33.673083" lon="119.694888">
    <tag k="created_by" v="JOSM"/>
    <tag k="highway" v="trunk"/>
    <tag k="name" v="South Coast Hwy"/>
    <tag k="surface" v="paved"/>
  </node>
  <node id="134055439" version="2" timestamp="2007-12-25T05:48:47Z" uid="4467" user="Rosscoe" changeset="417063" lat="-33.673083" lon="119.694888">
    <tag k="created_by" v="JOSM"/>
    <tag k="highway" v="trunk"/>
    <tag k="name" v="South Coast Hwy"/>
    <tag k="surface" v="paved"/>
  </node>
  <node id="134055466" version="1" timestamp="2007-11-26T05:58:48Z" uid="4467" user="Rosscoe" changeset="621649" lat="-33.67325" lon="119.694615">
    <tag k="created_by" v="JOSM"/>
    <tag k="highway" v="trunk"/>
    <tag k="name" v="South Coast Hwy"/>
    <tag k="surface" v="paved"/>
  </node>
  <node id="134055466" version="2" timestamp="2007-12-25T05:48:36Z" uid="4467" user="Rosscoe" changeset="417063" lat="-33.67325" lon="119.694615">
    <tag k="created_by" v="JOSM"/>
    <tag k="highway" v="trunk"/>
    <tag k="name" v="South Coast Hwy"/>
    <tag k="surface" v="paved"/>
  </node>
  <node id="134055481" version="1" timestamp="2007-11-26T05:58:49Z" uid="4467" user="Rosscoe" changeset="621649" lat="-33.672075" lon="119.696555">
    <tag k="created_by" v="JOSM"/>
    <tag k="highway" v="trunk"/>
    <tag k="name" v="South Coast Hwy"/>
    <tag k="surface" v="paved"/>
  </node>
  <node id="134055481" version="2" timestamp="2007-12-25T05:48:31Z" uid="4467" user="Rosscoe" changeset="417063" lat="-33.672075" lon="119.696555">
    <tag k="created_by" v="JOSM"/>
    <tag k="highway" v="trunk"/>
    <tag k="name" v="South Coast Hwy"/>
    <tag k="surface" v="paved"/>
  </node>
  <node id="134055500" version="1" timestamp="2007-11-26T05:58:50Z" uid="4467" user="Rosscoe" changeset="621649" lat="-33.672242" lon="119.696278">
    <tag k="created_by" v="JOSM"/>
    <tag k="highway" v="trunk"/>
    <tag k="name" v="South Coast Hwy"/>
    <tag k="surface" v="paved"/>
  </node>
  <node id="134055500" version="2" timestamp="2007-12-25T05:49:04Z" uid="4467" user="Rosscoe" changeset="417063" lat="-33.672242" lon="119.696278">
    <tag k="created_by" v="JOSM"/>
    <tag k="highway" v="trunk"/>
    <tag k="name" v="South Coast Hwy"/>
    <tag k="surface" v="paved"/>
  </node>
  <node id="134055510" version="1" timestamp="2007-11-26T05:58:51Z" uid="4467" user="Rosscoe" changeset="621649" lat="-33.672407" lon="119.696003">
    <tag k="created_by" v="JOSM"/>
    <tag k="highway" v="trunk"/>
    <tag k="name" v="South Coast Hwy"/>
    <tag k="surface" v="paved"/>
  </node>
  <node id="134055510" version="2" timestamp="2007-12-25T05:48:56Z" uid="4467" user="Rosscoe" changeset="417063" lat="-33.672407" lon="119.696003">
    <tag k="created_by" v="JOSM"/>
    <tag k="highway" v="trunk"/>
    <tag k="name" v="South Coast Hwy"/>
    <tag k="surface" v="paved"/>
  </node>
  <node id="134055534" version="1" timestamp="2007-11-26T05:58:51Z" uid="4467" user="Rosscoe" changeset="621649" lat="-33.672572" lon="119.69573">
    <tag k="created_by" v="JOSM"/>
    <tag k="highway" v="trunk"/>
    <tag k="name" v="South Coast Hwy"/>
    <tag k="surface" v="paved"/>
  </node>
  <node id="134055534" version="2" timestamp="2007-12-25T05:48:54Z" uid="4467" user="Rosscoe" changeset="417063" lat="-33.672572" lon="119.69573">
    <tag k="created_by" v="JOSM"/>
    <tag k="highway" v="trunk"/>
    <tag k="name" v="South Coast Hwy"/>
    <tag k="surface" v="paved"/>
  </node>
  <node id="134055556" version="1" timestamp="2007-11-26T05:58:52Z" uid="4467" user="Rosscoe" changeset="621649" lat="-33.674095" lon="119.69323">
    <tag k="created_by" v="JOSM"/>
    <tag k="highway" v="trunk"/>
    <tag k="name" v="South Coast Hwy"/>
    <tag k="surface" v="paved"/>
  </node>
  <node id="134055556" version="2" timestamp="2007-12-25T05:49:28Z" uid="4467" user="Rosscoe" changeset="417063" lat="-33.674095" lon="119.69323">
    <tag k="created_by" v="JOSM"/>
    <tag k="highway" v="trunk"/>
    <tag k="name" v="South Coast Hwy"/>
    <tag k="surface" v="paved"/>
  </node>
  <node id="134055584" version="1" timestamp="2007-11-26T05:58:53Z" uid="4467" user="Rosscoe" changeset="621649" lat="-33.674265" lon="119.692957">
    <tag k="created_by" v="JOSM"/>
    <tag k="highway" v="trunk"/>
    <tag k="name" v="South Coast Hwy"/>
    <tag k="surface" v="paved"/>
  </node>
  <node id="134055584" version="2" timestamp="2007-12-25T05:49:17Z" uid="4467" user="Rosscoe" changeset="417063" lat="-33.674265" lon="119.692957">
    <tag k="created_by" v="JOSM"/>
    <tag k="highway" v="trunk"/>
    <tag k="name" v="South Coast Hwy"/>
    <tag k="surface" v="paved"/>
  </node>
  <node id="134055603" version="1" timestamp="2007-11-26T05:58:54Z" uid="4467" user="Rosscoe" changeset="621649" lat="-33.674433" lon="119.692682">
    <tag k="created_by" v="JOSM"/>
    <tag k="highway" v="trunk"/>
    <tag k="name" v="South Coast Hwy"/>
    <tag k="surface" v="paved"/>
  </node>
  <node id="134055603" version="2" timestamp="2007-12-25T05:49:09Z" uid="4467" user="Rosscoe" changeset="417063" lat="-33.674433" lon="119.692682">
    <tag k="created_by" v="JOSM"/>
    <tag k="highway" v="trunk"/>
    <tag k="name" v="South Coast Hwy"/>
    <tag k="surface" v="paved"/>
  </node>
  <node id="134055609" version="1" timestamp="2007-11-26T05:58:55Z" uid="4467" user="Rosscoe" changeset="621649" lat="-33.6746" lon="119.692412">
    <tag k="created_by" v="JOSM"/>
    <tag k="highway" v="trunk"/>
    <tag k="name" v="South Coast Hwy"/>
    <tag k="surface" v="paved"/>
  </node>
  <node id="134055609" version="2" timestamp="2007-12-25T05:49:07Z" uid="4467" user="Rosscoe" changeset="417063" lat="-33.6746" lon="119.692412">
    <tag k="created_by" v="JOSM"/>
    <tag k="highway" v="trunk"/>
    <tag k="name" v="South Coast Hwy"/>
    <tag k="surface" v="paved"/>
  </node>
  <node id="134055631" version="1" timestamp="2007-11-26T05:58:55Z" uid="4467" user="Rosscoe" changeset="621649" lat="-33.673418" lon="119.694338">
    <tag k="created_by" v="JOSM"/>
    <tag k="highway" v="trunk"/>
    <tag k="name" v="South Coast Hwy"/>
    <tag k="surface" v="paved"/>
  </node>
  <node id="134055631" version="2" timestamp="2007-12-25T05:49:44Z" uid="4467" user="Rosscoe" changeset="417063" lat="-33.673418" lon="119.694338">
    <tag k="created_by" v="JOSM"/>
    <tag k="highway" v="trunk"/>
    <tag k="name" v="South Coast Hwy"/>
    <tag k="surface" v="paved"/>
  </node>
  <node id="134055646" version="1" timestamp="2007-11-26T05:58:56Z" uid="4467" user="Rosscoe" changeset="621649" lat="-33.673585" lon="119.694067">
    <tag k="created_by" v="JOSM"/>
    <tag k="highway" v="trunk"/>
    <tag k="name" v="South Coast Hwy"/>
    <tag k="surface" v="paved"/>
  </node>
  <node id="134055646" version="2" timestamp="2007-12-25T05:49:38Z" uid="4467" user="Rosscoe" changeset="417063" lat="-33.673585" lon="119.694067">
    <tag k="created_by" v="JOSM"/>
    <tag k="highway" v="trunk"/>
    <tag k="name" v="South Coast Hwy"/>
    <tag k="surface" v="paved"/>
  </node>
  <node id="134055668" version="1" timestamp="2007-11-26T05:58:57Z" uid="4467" user="Rosscoe" changeset="621649" lat="-33.673755" lon="119.693787">
    <tag k="created_by" v="JOSM"/>
    <tag k="highway" v="trunk"/>
    <tag k="name" v="South Coast Hwy"/>
    <tag k="surface" v="paved"/>
  </node>
  <node id="134055668" version="2" timestamp="2007-12-25T05:49:31Z" uid="4467" user="Rosscoe" changeset="417063" lat="-33.673755" lon="119.693787">
    <tag k="created_by" v="JOSM"/>
    <tag k="highway" v="trunk"/>
    <tag k="name" v="South Coast Hwy"/>
    <tag k="surface" v="paved"/>
  </node>
  <node id="134055689" version="1" timestamp="2007-11-26T05:58:58Z" uid="4467" user="Rosscoe" changeset="621649" lat="-33.673927" lon="119.693507">
    <tag k="created_by" v="JOSM"/>
    <tag k="highway" v="trunk"/>
    <tag k="name" v="South Coast Hwy"/>
    <tag k="surface" v="paved"/>
  </node>
  <node id="134055689" version="2" timestamp="2007-12-25T05:50:01Z" uid="4467" user="Rosscoe" changeset="417063" lat="-33.673927" lon="119.693507">
    <tag k="created_by" v="JOSM"/>
    <tag k="highway" v="trunk"/>
    <tag k="name" v="South Coast Hwy"/>
    <tag k="surface" v="paved"/>
  </node>
  <node id="134055710" version="1" timestamp="2007-11-26T05:58:59Z" uid="4467" user="Rosscoe" changeset="621649" lat="-33.675407" lon="119.691002">
    <tag k="created_by" v="JOSM"/>
    <tag k="highway" v="trunk"/>
    <tag k="name" v="South Coast Hwy"/>
    <tag k="surface" v="paved"/>
  </node>
  <node id="134055710" version="2" timestamp="2007-12-25T07:54:30Z" uid="4467" user="Rosscoe" changeset="422154" lat="-33.675407" lon="119.691002">
    <tag k="created_by" v="JOSM"/>
    <tag k="highway" v="trunk"/>
    <tag k="name" v="South Coast Hwy"/>
    <tag k="surface" v="paved"/>
  </node>
  <node id="134055731" version="1" timestamp="2007-11-26T05:58:59Z" uid="4467" user="Rosscoe" changeset="621649" lat="-33.675545" lon="119.69071">
    <tag k="created_by" v="JOSM"/>
    <tag k="highway" v="trunk"/>
    <tag k="name" v="South Coast Hwy"/>
    <tag k="surface" v="paved"/>
  </node>
  <node id="134055731" version="2" timestamp="2007-12-25T05:49:56Z" uid="4467" user="Rosscoe" changeset="417063" lat="-33.675545" lon="119.69071">
    <tag k="created_by" v="JOSM"/>
    <tag k="highway" v="trunk"/>
    <tag k="name" v="South Coast Hwy"/>
    <tag k="surface" v="paved"/>
  </node>
  <node id="134055748" version="1" timestamp="2007-11-26T05:59:00Z" uid="4467" user="Rosscoe" changeset="621649" lat="-33.675678" lon="119.690403">
    <tag k="created_by" v="JOSM"/>
    <tag k="highway" v="trunk"/>
    <tag k="name" v="South Coast Hwy"/>
    <tag k="surface" v="paved"/>
  </node>
  <node id="134055748" version="2" timestamp="2007-12-25T05:50:21Z" uid="4467" user="Rosscoe" changeset="417063" lat="-33.675678" lon="119.690403">
    <tag k="created_by" v="JOSM"/>
    <tag k="highway" v="trunk"/>
    <tag k="name" v="South Coast Hwy"/>
    <tag k="surface" v="paved"/>
  </node>
  <node id="134055763" version="1" timestamp="2007-11-26T05:59:01Z" uid="4467" user="Rosscoe" changeset="621649" lat="-33.675803" lon="119.69009">
    <tag k="created_by" v="JOSM"/>
    <tag k="highway" v="trunk"/>
    <tag k="name" v="South Coast Hwy"/>
    <tag k="surface" v="paved"/>
  </node>
  <node id="134055763" version="2" timestamp="2007-12-25T05:50:28Z" uid="4467" user="Rosscoe" changeset="417063" lat="-33.675803" lon="119.69009">
    <tag k="created_by" v="JOSM"/>
    <tag k="highway" v="trunk"/>
    <tag k="name" v="South Coast Hwy"/>
    <tag k="surface" v="paved"/>
  </node>
  <node id="134055779" version="1" timestamp="2007-11-26T05:59:02Z" uid="4467" user="Rosscoe" changeset="621649" lat="-33.674772" lon="119.692133">
    <tag k="created_by" v="JOSM"/>
    <tag k="highway" v="trunk"/>
    <tag k="name" v="South Coast Hwy"/>
    <tag k="surface" v="paved"/>
  </node>
  <node id="134055779" version="2" timestamp="2007-12-25T05:50:11Z" uid="4467" user="Rosscoe" changeset="417063" lat="-33.674772" lon="119.692133">
    <tag k="created_by" v="JOSM"/>
    <tag k="highway" v="trunk"/>
    <tag k="name" v="South Coast Hwy"/>
    <tag k="surface" v="paved"/>
  </node>
  <node id="134055802" version="1" timestamp="2007-11-26T05:59:03Z" uid="4467" user="Rosscoe" changeset="621649" lat="-33.674938" lon="119.691857">
    <tag k="created_by" v="JOSM"/>
    <tag k="highway" v="trunk"/>
    <tag k="name" v="South Coast Hwy"/>
    <tag k="surface" v="paved"/>
  </node>
  <node id="134055802" version="2" timestamp="2007-12-25T05:50:19Z" uid="4467" user="Rosscoe" changeset="417063" lat="-33.674938" lon="119.691857">
    <tag k="created_by" v="JOSM"/>
    <tag k="highway" v="trunk"/>
    <tag k="name" v="South Coast Hwy"/>
    <tag k="surface" v="paved"/>
  </node>
  <node id="134055830" version="1" timestamp="2007-11-26T05:59:03Z" uid="4467" user="Rosscoe" changeset="621649" lat="-33.675102" lon="119.691577">
    <tag k="created_by" v="JOSM"/>
    <tag k="highway" v="trunk"/>
    <tag k="name" v="South Coast Hwy"/>
    <tag k="surface" v="paved"/>
  </node>
  <node id="134055830" version="2" timestamp="2007-12-25T05:50:49Z" uid="4467" user="Rosscoe" changeset="417063" lat="-33.675102" lon="119.691577">
    <tag k="created_by" v="JOSM"/>
    <tag k="highway" v="trunk"/>
    <tag k="name" v="South Coast Hwy"/>
    <tag k="surface" v="paved"/>
  </node>
  <node id="134055856" version="1" timestamp="2007-11-26T05:59:04Z" uid="4467" user="Rosscoe" changeset="621649" lat="-33.675258" lon="119.691292">
    <tag k="created_by" v="JOSM"/>
    <tag k="highway" v="trunk"/>
    <tag k="name" v="South Coast Hwy"/>
    <tag k="surface" v="paved"/>
  </node>
  <node id="134055856" version="2" timestamp="2007-12-25T05:50:40Z" uid="4467" user="Rosscoe" changeset="417063" lat="-33.675258" lon="119.691292">
    <tag k="created_by" v="JOSM"/>
    <tag k="highway" v="trunk"/>
    <tag k="name" v="South Coast Hwy"/>
    <tag k="surface" v="paved"/>
  </node>
  <node id="134055879" version="1" timestamp="2007-11-26T05:59:05Z" uid="4467" user="Rosscoe" changeset="621649" lat="-33.676278" lon="119.688477">
    <tag k="created_by" v="JOSM"/>
    <tag k="highway" v="trunk"/>
    <tag k="name" v="South Coast Hwy"/>
    <tag k="surface" v="paved"/>
  </node>
  <node id="134055879" version="2" timestamp="2007-12-25T05:51:05Z" uid="4467" user="Rosscoe" changeset="417063" lat="-33.676278" lon="119.688477">
    <tag k="created_by" v="JOSM"/>
    <tag k="highway" v="trunk"/>
    <tag k="name" v="South Coast Hwy"/>
    <tag k="surface" v="paved"/>
  </node>
  <node id="134055898" version="1" timestamp="2007-11-26T05:59:06Z" uid="4467" user="Rosscoe" changeset="621649" lat="-33.676343" lon="119.688152">
    <tag k="created_by" v="JOSM"/>
    <tag k="highway" v="trunk"/>
    <tag k="name" v="South Coast Hwy"/>
    <tag k="surface" v="paved"/>
  </node>
  <node id="134055898" version="2" timestamp="2007-12-25T05:51:11Z" uid="4467" user="Rosscoe" changeset="417063" lat="-33.676343" lon="119.688152">
    <tag k="created_by" v="JOSM"/>
    <tag k="highway" v="trunk"/>
    <tag k="name" v="South Coast Hwy"/>
    <tag k="surface" v="paved"/>
  </node>
  <node id="134055929" version="1" timestamp="2007-11-26T05:59:06Z" uid="4467" user="Rosscoe" changeset="621649" lat="-33.676402" lon="119.68782">
    <tag k="created_by" v="JOSM"/>
    <tag k="highway" v="trunk"/>
    <tag k="name" v="South Coast Hwy"/>
    <tag k="surface" v="paved"/>
  </node>
  <node id="134055929" version="2" timestamp="2007-12-25T05:50:57Z" uid="4467" user="Rosscoe" changeset="417063" lat="-33.676402" lon="119.68782">
    <tag k="created_by" v="JOSM"/>
    <tag k="highway" v="trunk"/>
    <tag k="name" v="South Coast Hwy"/>
    <tag k="surface" v="paved"/>
  </node>
  <node id="134055947" version="1" timestamp="2007-11-26T05:59:07Z" uid="4467" user="Rosscoe" changeset="621649" lat="-33.676455" lon="119.687492">
    <tag k="created_by" v="JOSM"/>
    <tag k="highway" v="trunk"/>
    <tag k="name" v="South Coast Hwy"/>
    <tag k="surface" v="paved"/>
  </node>
  <node id="134055947" version="2" timestamp="2007-12-25T07:54:39Z" uid="4467" user="Rosscoe" changeset="422154" lat="-33.676455" lon="119.687492">
    <tag k="created_by" v="JOSM"/>
    <tag k="highway" v="trunk"/>
    <tag k="name" v="South Coast Hwy"/>
    <tag k="surface" v="paved"/>
  </node>
  <node id="134055958" version="6" timestamp="2009-07-18T04:26:13Z" uid="7617" user="Franc" changeset="1859699" lat="-33.8867589" lon="151.2205651"/>
  <node id="134055965" version="1" timestamp="2007-11-26T05:59:08Z" uid="4467" user="Rosscoe" changeset="621649" lat="-33.675918" lon="119.689773">
    <tag k="created_by" v="JOSM"/>
    <tag k="highway" v="trunk"/>
    <tag k="name" v="South Coast Hwy"/>
    <tag k="surface" v="paved"/>
  </node>
  <node id="134055965" version="2" timestamp="2007-12-25T06:03:13Z" uid="4467" user="Rosscoe" changeset="417063" lat="-33.675918" lon="119.689773">
    <tag k="created_by" v="JOSM"/>
    <tag k="highway" v="trunk"/>
    <tag k="name" v="South Coast Hwy"/>
    <tag k="surface" v="paved"/>
  </node>
  <node id="134055991" version="1" timestamp="2007-11-26T05:59:09Z" uid="4467" user="Rosscoe" changeset="621649" lat="-33.676023" lon="119.689453">
    <tag k="created_by" v="JOSM"/>
    <tag k="highway" v="trunk"/>
    <tag k="name" v="South Coast Hwy"/>
    <tag k="surface" v="paved"/>
  </node>
  <node id="134055991" version="2" timestamp="2007-12-25T06:03:24Z" uid="4467" user="Rosscoe" changeset="417063" lat="-33.676023" lon="119.689453">
    <tag k="created_by" v="JOSM"/>
    <tag k="highway" v="trunk"/>
    <tag k="name" v="South Coast Hwy"/>
    <tag k="surface" v="paved"/>
  </node>
  <node id="134056008" version="1" timestamp="2007-11-26T05:59:10Z" uid="4467" user="Rosscoe" changeset="621649" lat="-33.67612" lon="119.689132">
    <tag k="created_by" v="JOSM"/>
    <tag k="highway" v="trunk"/>
    <tag k="name" v="South Coast Hwy"/>
    <tag k="surface" v="paved"/>
  </node>
  <node id="134056008" version="2" timestamp="2007-12-25T06:02:52Z" uid="4467" user="Rosscoe" changeset="417063" lat="-33.67612" lon="119.689132">
    <tag k="created_by" v="JOSM"/>
    <tag k="highway" v="trunk"/>
    <tag k="name" v="South Coast Hwy"/>
    <tag k="surface" v="paved"/>
  </node>
  <node id="134056033" version="1" timestamp="2007-11-26T05:59:10Z" uid="4467" user="Rosscoe" changeset="621649" lat="-33.676203" lon="119.688808">
    <tag k="created_by" v="JOSM"/>
    <tag k="highway" v="trunk"/>
    <tag k="name" v="South Coast Hwy"/>
    <tag k="surface" v="paved"/>
  </node>
  <node id="134056033" version="2" timestamp="2007-12-25T06:03:01Z" uid="4467" user="Rosscoe" changeset="417063" lat="-33.676203" lon="119.688808">
    <tag k="created_by" v="JOSM"/>
    <tag k="highway" v="trunk"/>
    <tag k="name" v="South Coast Hwy"/>
    <tag k="surface" v="paved"/>
  </node>
  <node id="134056055" version="1" timestamp="2007-11-26T05:59:11Z" uid="4467" user="Rosscoe" changeset="621649" lat="-33.676707" lon="119.685805">
    <tag k="created_by" v="JOSM"/>
    <tag k="highway" v="trunk"/>
    <tag k="name" v="South Coast Hwy"/>
    <tag k="surface" v="paved"/>
  </node>
  <node id="134056055" version="2" timestamp="2007-12-25T06:03:05Z" uid="4467" user="Rosscoe" changeset="417063" lat="-33.676707" lon="119.685805">
    <tag k="created_by" v="JOSM"/>
    <tag k="highway" v="trunk"/>
    <tag k="name" v="South Coast Hwy"/>
    <tag k="surface" v="paved"/>
  </node>
  <node id="134056096" version="1" timestamp="2007-11-26T05:59:12Z" uid="4467" user="Rosscoe" changeset="621649" lat="-33.676758" lon="119.685467">
    <tag k="created_by" v="JOSM"/>
    <tag k="highway" v="trunk"/>
    <tag k="name" v="South Coast Hwy"/>
    <tag k="surface" v="paved"/>
  </node>
  <node id="134056096" version="2" timestamp="2007-12-25T06:02:42Z" uid="4467" user="Rosscoe" changeset="417063" lat="-33.676758" lon="119.685467">
    <tag k="created_by" v="JOSM"/>
    <tag k="highway" v="trunk"/>
    <tag k="name" v="South Coast Hwy"/>
    <tag k="surface" v="paved"/>
  </node>
  <node id="134056145" version="1" timestamp="2007-11-26T05:59:13Z" uid="4467" user="Rosscoe" changeset="621649" lat="-33.676808" lon="119.68513">
    <tag k="created_by" v="JOSM"/>
    <tag k="highway" v="trunk"/>
    <tag k="name" v="South Coast Hwy"/>
    <tag k="surface" v="paved"/>
  </node>
  <node id="134056145" version="2" timestamp="2007-12-25T06:02:20Z" uid="4467" user="Rosscoe" changeset="417063" lat="-33.676808" lon="119.68513">
    <tag k="created_by" v="JOSM"/>
    <tag k="highway" v="trunk"/>
    <tag k="name" v="South Coast Hwy"/>
    <tag k="surface" v="paved"/>
  </node>
  <node id="134056192" version="1" timestamp="2007-11-26T05:59:14Z" uid="4467" user="Rosscoe" changeset="621649" lat="-33.676858" lon="119.6848">
    <tag k="created_by" v="JOSM"/>
    <tag k="highway" v="trunk"/>
    <tag k="name" v="South Coast Hwy"/>
    <tag k="surface" v="paved"/>
  </node>
  <node id="134056192" version="2" timestamp="2007-12-25T06:04:39Z" uid="4467" user="Rosscoe" changeset="417063" lat="-33.676858" lon="119.6848">
    <tag k="created_by" v="JOSM"/>
    <tag k="highway" v="trunk"/>
    <tag k="name" v="South Coast Hwy"/>
    <tag k="surface" v="paved"/>
  </node>
  <node id="134056221" version="1" timestamp="2007-11-26T05:59:15Z" uid="4467" user="Rosscoe" changeset="621649" lat="-33.676505" lon="119.687158">
    <tag k="created_by" v="JOSM"/>
    <tag k="highway" v="trunk"/>
    <tag k="name" v="South Coast Hwy"/>
    <tag k="surface" v="paved"/>
  </node>
  <node id="134056221" version="2" timestamp="2007-12-25T06:04:32Z" uid="4467" user="Rosscoe" changeset="417063" lat="-33.676505" lon="119.687158">
    <tag k="created_by" v="JOSM"/>
    <tag k="highway" v="trunk"/>
    <tag k="name" v="South Coast Hwy"/>
    <tag k="surface" v="paved"/>
  </node>
  <node id="134056240" version="1" timestamp="2007-11-26T05:59:15Z" uid="4467" user="Rosscoe" changeset="621649" lat="-33.676557" lon="119.686827">
    <tag k="created_by" v="JOSM"/>
    <tag k="highway" v="trunk"/>
    <tag k="name" v="South Coast Hwy"/>
    <tag k="surface" v="paved"/>
  </node>
  <node id="134056240" version="2" timestamp="2007-12-25T06:04:44Z" uid="4467" user="Rosscoe" changeset="417063" lat="-33.676557" lon="119.686827">
    <tag k="created_by" v="JOSM"/>
    <tag k="highway" v="trunk"/>
    <tag k="name" v="South Coast Hwy"/>
    <tag k="surface" v="paved"/>
  </node>
  <node id="134056264" version="1" timestamp="2007-11-26T05:59:16Z" uid="4467" user="Rosscoe" changeset="621649" lat="-33.676607" lon="119.686485">
    <tag k="created_by" v="JOSM"/>
    <tag k="highway" v="trunk"/>
    <tag k="name" v="South Coast Hwy"/>
    <tag k="surface" v="paved"/>
  </node>
  <node id="134056264" version="2" timestamp="2007-12-25T06:04:16Z" uid="4467" user="Rosscoe" changeset="417063" lat="-33.676607" lon="119.686485">
    <tag k="created_by" v="JOSM"/>
    <tag k="highway" v="trunk"/>
    <tag k="name" v="South Coast Hwy"/>
    <tag k="surface" v="paved"/>
  </node>
  <node id="134056285" version="1" timestamp="2007-11-26T05:59:17Z" uid="4467" user="Rosscoe" changeset="621649" lat="-33.676657" lon="119.686142">
    <tag k="created_by" v="JOSM"/>
    <tag k="highway" v="trunk"/>
    <tag k="name" v="South Coast Hwy"/>
    <tag k="surface" v="paved"/>
  </node>
  <node id="134056285" version="2" timestamp="2007-12-25T06:04:11Z" uid="4467" user="Rosscoe" changeset="417063" lat="-33.676657" lon="119.686142">
    <tag k="created_by" v="JOSM"/>
    <tag k="highway" v="trunk"/>
    <tag k="name" v="South Coast Hwy"/>
    <tag k="surface" v="paved"/>
  </node>
  <node id="134056311" version="1" timestamp="2007-11-26T05:59:18Z" uid="4467" user="Rosscoe" changeset="621649" lat="-33.677125" lon="119.68313">
    <tag k="created_by" v="JOSM"/>
    <tag k="highway" v="trunk"/>
    <tag k="name" v="South Coast Hwy"/>
    <tag k="surface" v="paved"/>
  </node>
  <node id="134056311" version="2" timestamp="2007-12-25T06:04:23Z" uid="4467" user="Rosscoe" changeset="417063" lat="-33.677125" lon="119.68313">
    <tag k="created_by" v="JOSM"/>
    <tag k="highway" v="trunk"/>
    <tag k="name" v="South Coast Hwy"/>
    <tag k="surface" v="paved"/>
  </node>
  <node id="134056328" version="1" timestamp="2007-11-26T05:59:19Z" uid="4467" user="Rosscoe" changeset="621649" lat="-33.677177" lon="119.682803">
    <tag k="created_by" v="JOSM"/>
    <tag k="highway" v="trunk"/>
    <tag k="name" v="South Coast Hwy"/>
    <tag k="surface" v="paved"/>
  </node>
  <node id="134056328" version="2" timestamp="2007-12-25T06:03:55Z" uid="4467" user="Rosscoe" changeset="417063" lat="-33.677177" lon="119.682803">
    <tag k="created_by" v="JOSM"/>
    <tag k="highway" v="trunk"/>
    <tag k="name" v="South Coast Hwy"/>
    <tag k="surface" v="paved"/>
  </node>
  <node id="134056352" version="1" timestamp="2007-11-26T05:59:19Z" uid="4467" user="Rosscoe" changeset="621649" lat="-33.67723" lon="119.68247">
    <tag k="created_by" v="JOSM"/>
    <tag k="highway" v="trunk"/>
    <tag k="name" v="South Coast Hwy"/>
    <tag k="surface" v="paved"/>
  </node>
  <node id="134056352" version="2" timestamp="2007-12-25T06:04:03Z" uid="4467" user="Rosscoe" changeset="417063" lat="-33.67723" lon="119.68247">
    <tag k="created_by" v="JOSM"/>
    <tag k="highway" v="trunk"/>
    <tag k="name" v="South Coast Hwy"/>
    <tag k="surface" v="paved"/>
  </node>
  <node id="134056374" version="1" timestamp="2007-11-26T05:59:20Z" uid="4467" user="Rosscoe" changeset="621649" lat="-33.677282" lon="119.682142">
    <tag k="created_by" v="JOSM"/>
    <tag k="highway" v="trunk"/>
    <tag k="name" v="South Coast Hwy"/>
    <tag k="surface" v="paved"/>
  </node>
  <node id="134056374" version="2" timestamp="2007-12-25T06:03:57Z" uid="4467" user="Rosscoe" changeset="417063" lat="-33.677282" lon="119.682142">
    <tag k="created_by" v="JOSM"/>
    <tag k="highway" v="trunk"/>
    <tag k="name" v="South Coast Hwy"/>
    <tag k="surface" v="paved"/>
  </node>
  <node id="134056384" version="1" timestamp="2007-11-26T05:59:21Z" uid="4467" user="Rosscoe" changeset="621649" lat="-33.67691" lon="119.684462">
    <tag k="created_by" v="JOSM"/>
    <tag k="highway" v="trunk"/>
    <tag k="name" v="South Coast Hwy"/>
    <tag k="surface" v="paved"/>
  </node>
  <node id="134056384" version="2" timestamp="2007-12-25T06:03:32Z" uid="4467" user="Rosscoe" changeset="417063" lat="-33.67691" lon="119.684462">
    <tag k="created_by" v="JOSM"/>
    <tag k="highway" v="trunk"/>
    <tag k="name" v="South Coast Hwy"/>
    <tag k="surface" v="paved"/>
  </node>
  <node id="134056406" version="1" timestamp="2007-11-26T05:59:22Z" uid="4467" user="Rosscoe" changeset="621649" lat="-33.676963" lon="119.684127">
    <tag k="created_by" v="JOSM"/>
    <tag k="highway" v="trunk"/>
    <tag k="name" v="South Coast Hwy"/>
    <tag k="surface" v="paved"/>
  </node>
  <node id="134056406" version="2" timestamp="2007-12-25T06:03:29Z" uid="4467" user="Rosscoe" changeset="417063" lat="-33.676963" lon="119.684127">
    <tag k="created_by" v="JOSM"/>
    <tag k="highway" v="trunk"/>
    <tag k="name" v="South Coast Hwy"/>
    <tag k="surface" v="paved"/>
  </node>
  <node id="134056422" version="1" timestamp="2007-11-26T05:59:23Z" uid="4467" user="Rosscoe" changeset="621649" lat="-33.677017" lon="119.683795">
    <tag k="created_by" v="JOSM"/>
    <tag k="highway" v="trunk"/>
    <tag k="name" v="South Coast Hwy"/>
    <tag k="surface" v="paved"/>
  </node>
  <node id="134056422" version="2" timestamp="2007-12-25T06:03:44Z" uid="4467" user="Rosscoe" changeset="417063" lat="-33.677017" lon="119.683795">
    <tag k="created_by" v="JOSM"/>
    <tag k="highway" v="trunk"/>
    <tag k="name" v="South Coast Hwy"/>
    <tag k="surface" v="paved"/>
  </node>
  <node id="134056440" version="1" timestamp="2007-11-26T05:59:23Z" uid="4467" user="Rosscoe" changeset="621649" lat="-33.677073" lon="119.68346">
    <tag k="created_by" v="JOSM"/>
    <tag k="highway" v="trunk"/>
    <tag k="name" v="South Coast Hwy"/>
    <tag k="surface" v="paved"/>
  </node>
  <node id="134056440" version="2" timestamp="2007-12-25T06:03:39Z" uid="4467" user="Rosscoe" changeset="417063" lat="-33.677073" lon="119.68346">
    <tag k="created_by" v="JOSM"/>
    <tag k="highway" v="trunk"/>
    <tag k="name" v="South Coast Hwy"/>
    <tag k="surface" v="paved"/>
  </node>
  <node id="134056470" version="1" timestamp="2007-11-26T05:59:24Z" uid="4467" user="Rosscoe" changeset="621649" lat="-33.677532" lon="119.68048">
    <tag k="created_by" v="JOSM"/>
    <tag k="highway" v="trunk"/>
    <tag k="name" v="South Coast Hwy"/>
    <tag k="surface" v="paved"/>
  </node>
  <node id="134056470" version="2" timestamp="2007-12-25T06:06:21Z" uid="4467" user="Rosscoe" changeset="417063" lat="-33.677532" lon="119.68048">
    <tag k="created_by" v="JOSM"/>
    <tag k="highway" v="trunk"/>
    <tag k="name" v="South Coast Hwy"/>
    <tag k="surface" v="paved"/>
  </node>
  <node id="134056484" version="1" timestamp="2007-11-26T05:59:25Z" uid="4467" user="Rosscoe" changeset="621649" lat="-33.677585" lon="119.680143">
    <tag k="created_by" v="JOSM"/>
    <tag k="highway" v="trunk"/>
    <tag k="name" v="South Coast Hwy"/>
    <tag k="surface" v="paved"/>
  </node>
  <node id="134056484" version="2" timestamp="2007-12-25T06:06:06Z" uid="4467" user="Rosscoe" changeset="417063" lat="-33.677585" lon="119.680143">
    <tag k="created_by" v="JOSM"/>
    <tag k="highway" v="trunk"/>
    <tag k="name" v="South Coast Hwy"/>
    <tag k="surface" v="paved"/>
  </node>
  <node id="134056499" version="1" timestamp="2007-11-26T05:59:26Z" uid="4467" user="Rosscoe" changeset="621649" lat="-33.677638" lon="119.679808">
    <tag k="created_by" v="JOSM"/>
    <tag k="highway" v="trunk"/>
    <tag k="name" v="South Coast Hwy"/>
    <tag k="surface" v="paved"/>
  </node>
  <node id="134056499" version="2" timestamp="2007-12-25T06:06:08Z" uid="4467" user="Rosscoe" changeset="417063" lat="-33.677638" lon="119.679808">
    <tag k="created_by" v="JOSM"/>
    <tag k="highway" v="trunk"/>
    <tag k="name" v="South Coast Hwy"/>
    <tag k="surface" v="paved"/>
  </node>
  <node id="134056527" version="1" timestamp="2007-11-26T05:59:27Z" uid="4467" user="Rosscoe" changeset="621649" lat="-33.677692" lon="119.679473">
    <tag k="created_by" v="JOSM"/>
    <tag k="highway" v="trunk"/>
    <tag k="name" v="South Coast Hwy"/>
    <tag k="surface" v="paved"/>
  </node>
  <node id="134056527" version="2" timestamp="2007-12-25T06:05:47Z" uid="4467" user="Rosscoe" changeset="417063" lat="-33.677692" lon="119.679473">
    <tag k="created_by" v="JOSM"/>
    <tag k="highway" v="trunk"/>
    <tag k="name" v="South Coast Hwy"/>
    <tag k="surface" v="paved"/>
  </node>
  <node id="134056544" version="1" timestamp="2007-11-26T05:59:27Z" uid="4467" user="Rosscoe" changeset="621649" lat="-33.677332" lon="119.681813">
    <tag k="created_by" v="JOSM"/>
    <tag k="highway" v="trunk"/>
    <tag k="name" v="South Coast Hwy"/>
    <tag k="surface" v="paved"/>
  </node>
  <node id="134056544" version="2" timestamp="2007-12-25T06:05:38Z" uid="4467" user="Rosscoe" changeset="417063" lat="-33.677332" lon="119.681813">
    <tag k="created_by" v="JOSM"/>
    <tag k="highway" v="trunk"/>
    <tag k="name" v="South Coast Hwy"/>
    <tag k="surface" v="paved"/>
  </node>
  <node id="134056566" version="1" timestamp="2007-11-26T05:59:28Z" uid="4467" user="Rosscoe" changeset="621649" lat="-33.677382" lon="119.681482">
    <tag k="created_by" v="JOSM"/>
    <tag k="highway" v="trunk"/>
    <tag k="name" v="South Coast Hwy"/>
    <tag k="surface" v="paved"/>
  </node>
  <node id="134056566" version="2" timestamp="2007-12-25T06:05:43Z" uid="4467" user="Rosscoe" changeset="417063" lat="-33.677382" lon="119.681482">
    <tag k="created_by" v="JOSM"/>
    <tag k="highway" v="trunk"/>
    <tag k="name" v="South Coast Hwy"/>
    <tag k="surface" v="paved"/>
  </node>
  <node id="134056579" version="1" timestamp="2007-11-26T05:59:29Z" uid="4467" user="Rosscoe" changeset="621649" lat="-33.677432" lon="119.68115">
    <tag k="created_by" v="JOSM"/>
    <tag k="highway" v="trunk"/>
    <tag k="name" v="South Coast Hwy"/>
    <tag k="surface" v="paved"/>
  </node>
  <node id="134056579" version="2" timestamp="2007-12-25T06:05:24Z" uid="4467" user="Rosscoe" changeset="417063" lat="-33.677432" lon="119.68115">
    <tag k="created_by" v="JOSM"/>
    <tag k="highway" v="trunk"/>
    <tag k="name" v="South Coast Hwy"/>
    <tag k="surface" v="paved"/>
  </node>
  <node id="134056598" version="1" timestamp="2007-11-26T05:59:30Z" uid="4467" user="Rosscoe" changeset="621649" lat="-33.677482" lon="119.68082">
    <tag k="created_by" v="JOSM"/>
    <tag k="highway" v="trunk"/>
    <tag k="name" v="South Coast Hwy"/>
    <tag k="surface" v="paved"/>
  </node>
  <node id="134056598" version="2" timestamp="2007-12-25T06:05:30Z" uid="4467" user="Rosscoe" changeset="417063" lat="-33.677482" lon="119.68082">
    <tag k="created_by" v="JOSM"/>
    <tag k="highway" v="trunk"/>
    <tag k="name" v="South Coast Hwy"/>
    <tag k="surface" v="paved"/>
  </node>
  <node id="134056624" version="1" timestamp="2007-11-26T05:59:30Z" uid="4467" user="Rosscoe" changeset="621649" lat="-33.678018" lon="119.677818">
    <tag k="created_by" v="JOSM"/>
    <tag k="highway" v="trunk"/>
    <tag k="name" v="South Coast Hwy"/>
    <tag k="surface" v="paved"/>
  </node>
  <node id="134056624" version="2" timestamp="2007-12-25T06:05:20Z" uid="4467" user="Rosscoe" changeset="417063" lat="-33.678018" lon="119.677818">
    <tag k="created_by" v="JOSM"/>
    <tag k="highway" v="trunk"/>
    <tag k="name" v="South Coast Hwy"/>
    <tag k="surface" v="paved"/>
  </node>
  <node id="134056646" version="1" timestamp="2007-11-26T05:59:31Z" uid="4467" user="Rosscoe" changeset="621649" lat="-33.67811" lon="119.677495">
    <tag k="created_by" v="JOSM"/>
    <tag k="highway" v="trunk"/>
    <tag k="name" v="South Coast Hwy"/>
    <tag k="surface" v="paved"/>
  </node>
  <node id="134056646" version="2" timestamp="2007-12-25T06:05:02Z" uid="4467" user="Rosscoe" changeset="417063" lat="-33.67811" lon="119.677495">
    <tag k="created_by" v="JOSM"/>
    <tag k="highway" v="trunk"/>
    <tag k="name" v="South Coast Hwy"/>
    <tag k="surface" v="paved"/>
  </node>
  <node id="134056659" version="1" timestamp="2007-11-26T05:59:32Z" uid="4467" user="Rosscoe" changeset="621649" lat="-33.678212" lon="119.677175">
    <tag k="created_by" v="JOSM"/>
    <tag k="highway" v="trunk"/>
    <tag k="name" v="South Coast Hwy"/>
    <tag k="surface" v="paved"/>
  </node>
  <node id="134056659" version="2" timestamp="2007-12-25T06:05:11Z" uid="4467" user="Rosscoe" changeset="417063" lat="-33.678212" lon="119.677175">
    <tag k="created_by" v="JOSM"/>
    <tag k="highway" v="trunk"/>
    <tag k="name" v="South Coast Hwy"/>
    <tag k="surface" v="paved"/>
  </node>
  <node id="134056678" version="1" timestamp="2007-11-26T05:59:33Z" uid="4467" user="Rosscoe" changeset="621649" lat="-33.67832" lon="119.676865">
    <tag k="created_by" v="JOSM"/>
    <tag k="highway" v="trunk"/>
    <tag k="name" v="South Coast Hwy"/>
    <tag k="surface" v="paved"/>
  </node>
  <node id="134056678" version="2" timestamp="2007-12-25T06:04:51Z" uid="4467" user="Rosscoe" changeset="417063" lat="-33.67832" lon="119.676865">
    <tag k="created_by" v="JOSM"/>
    <tag k="highway" v="trunk"/>
    <tag k="name" v="South Coast Hwy"/>
    <tag k="surface" v="paved"/>
  </node>
  <node id="134056689" version="6" timestamp="2010-03-23T06:03:58Z" uid="9719" user="dvaey" changeset="4209238" lat="-34.8369051" lon="138.584442"/>
  <node id="134056689" version="7" timestamp="2011-02-06T05:22:55Z" uid="4467" user="Rosscoe" changeset="7199988" lat="-34.8369051" lon="138.584442"/>
  <node id="134056690" version="2" timestamp="2010-03-23T06:04:19Z" uid="9719" user="dvaey" changeset="4209238" lat="-34.8342352" lon="138.5857502"/>
  <node id="134056690" version="3" timestamp="2010-03-23T08:19:47Z" uid="9719" user="dvaey" changeset="4209496" lat="-34.8344196" lon="138.5853404"/>
  <node id="134056691" version="2" timestamp="2010-03-23T08:11:00Z" uid="9719" user="dvaey" changeset="4209496" lat="-34.8304842" lon="138.5867358"/>
  <node id="134056692" version="2" timestamp="2010-03-23T06:04:19Z" uid="9719" user="dvaey" changeset="4209238" lat="-34.8282929" lon="138.587896"/>
  <node id="134056694" version="2" timestamp="2010-03-23T06:04:20Z" uid="9719" user="dvaey" changeset="4209238" lat="-34.8234555" lon="138.5922613"/>
  <node id="134056695" version="2" timestamp="2010-03-23T06:04:21Z" uid="9719" user="dvaey" changeset="4209238" lat="-34.8215559" lon="138.5951708"/>
  <node id="134056696" version="3" timestamp="2010-03-23T06:04:21Z" uid="9719" user="dvaey" changeset="4209238" lat="-34.8199831" lon="138.5974822"/>
  <node id="134056712" version="1" timestamp="2007-11-26T05:59:34Z" uid="4467" user="Rosscoe" changeset="621649" lat="-33.677747" lon="119.67914">
    <tag k="created_by" v="JOSM"/>
    <tag k="highway" v="trunk"/>
    <tag k="name" v="South Coast Hwy"/>
    <tag k="surface" v="paved"/>
  </node>
  <node id="134056712" version="2" timestamp="2007-12-25T06:07:50Z" uid="4467" user="Rosscoe" changeset="417063" lat="-33.677747" lon="119.67914">
    <tag k="created_by" v="JOSM"/>
    <tag k="highway" v="trunk"/>
    <tag k="name" v="South Coast Hwy"/>
    <tag k="surface" v="paved"/>
  </node>
  <node id="134056767" version="1" timestamp="2007-11-26T05:59:34Z" uid="4467" user="Rosscoe" changeset="621649" lat="-33.677802" lon="119.67881">
    <tag k="created_by" v="JOSM"/>
    <tag k="highway" v="trunk"/>
    <tag k="name" v="South Coast Hwy"/>
    <tag k="surface" v="paved"/>
  </node>
  <node id="134056767" version="2" timestamp="2007-12-25T06:07:31Z" uid="4467" user="Rosscoe" changeset="417063" lat="-33.677802" lon="119.67881">
    <tag k="created_by" v="JOSM"/>
    <tag k="highway" v="trunk"/>
    <tag k="name" v="South Coast Hwy"/>
    <tag k="surface" v="paved"/>
  </node>
  <node id="134056783" version="1" timestamp="2007-11-26T05:59:35Z" uid="4467" user="Rosscoe" changeset="621649" lat="-33.677867" lon="119.678475">
    <tag k="created_by" v="JOSM"/>
    <tag k="highway" v="trunk"/>
    <tag k="name" v="South Coast Hwy"/>
    <tag k="surface" v="paved"/>
  </node>
  <node id="134056783" version="2" timestamp="2007-12-25T06:07:22Z" uid="4467" user="Rosscoe" changeset="417063" lat="-33.677867" lon="119.678475">
    <tag k="created_by" v="JOSM"/>
    <tag k="highway" v="trunk"/>
    <tag k="name" v="South Coast Hwy"/>
    <tag k="surface" v="paved"/>
  </node>
  <node id="134056797" version="1" timestamp="2007-11-26T05:59:36Z" uid="4467" user="Rosscoe" changeset="621649" lat="-33.677938" lon="119.678145">
    <tag k="created_by" v="JOSM"/>
    <tag k="highway" v="trunk"/>
    <tag k="name" v="South Coast Hwy"/>
    <tag k="surface" v="paved"/>
  </node>
  <node id="134056797" version="2" timestamp="2007-12-25T06:07:16Z" uid="4467" user="Rosscoe" changeset="417063" lat="-33.677938" lon="119.678145">
    <tag k="created_by" v="JOSM"/>
    <tag k="highway" v="trunk"/>
    <tag k="name" v="South Coast Hwy"/>
    <tag k="surface" v="paved"/>
  </node>
  <node id="134056818" version="1" timestamp="2007-11-26T05:59:37Z" uid="4467" user="Rosscoe" changeset="621649" lat="-33.678937" lon="119.675308">
    <tag k="created_by" v="JOSM"/>
    <tag k="highway" v="trunk"/>
    <tag k="name" v="South Coast Hwy"/>
    <tag k="surface" v="paved"/>
  </node>
  <node id="134056818" version="2" timestamp="2007-12-25T06:07:09Z" uid="4467" user="Rosscoe" changeset="417063" lat="-33.678937" lon="119.675308">
    <tag k="created_by" v="JOSM"/>
    <tag k="highway" v="trunk"/>
    <tag k="name" v="South Coast Hwy"/>
    <tag k="surface" v="paved"/>
  </node>
  <node id="134056841" version="1" timestamp="2007-11-26T05:59:37Z" uid="4467" user="Rosscoe" changeset="621649" lat="-33.679058" lon="119.675005">
    <tag k="created_by" v="JOSM"/>
    <tag k="highway" v="trunk"/>
    <tag k="name" v="South Coast Hwy"/>
    <tag k="surface" v="paved"/>
  </node>
  <node id="134056841" version="2" timestamp="2007-12-25T06:07:01Z" uid="4467" user="Rosscoe" changeset="417063" lat="-33.679058" lon="119.675005">
    <tag k="created_by" v="JOSM"/>
    <tag k="highway" v="trunk"/>
    <tag k="name" v="South Coast Hwy"/>
    <tag k="surface" v="paved"/>
  </node>
  <node id="134056851" version="1" timestamp="2007-11-26T05:59:38Z" uid="4467" user="Rosscoe" changeset="621649" lat="-33.679182" lon="119.674693">
    <tag k="created_by" v="JOSM"/>
    <tag k="highway" v="trunk"/>
    <tag k="name" v="South Coast Hwy"/>
    <tag k="surface" v="paved"/>
  </node>
  <node id="134056851" version="2" timestamp="2007-12-25T06:06:52Z" uid="4467" user="Rosscoe" changeset="417063" lat="-33.679182" lon="119.674693">
    <tag k="created_by" v="JOSM"/>
    <tag k="highway" v="trunk"/>
    <tag k="name" v="South Coast Hwy"/>
    <tag k="surface" v="paved"/>
  </node>
  <node id="134056862" version="1" timestamp="2007-11-26T05:59:39Z" uid="4467" user="Rosscoe" changeset="621649" lat="-33.679307" lon="119.67438">
    <tag k="created_by" v="JOSM"/>
    <tag k="highway" v="trunk"/>
    <tag k="name" v="South Coast Hwy"/>
    <tag k="surface" v="paved"/>
  </node>
  <node id="134056862" version="2" timestamp="2007-12-25T06:06:57Z" uid="4467" user="Rosscoe" changeset="417063" lat="-33.679307" lon="119.67438">
    <tag k="created_by" v="JOSM"/>
    <tag k="highway" v="trunk"/>
    <tag k="name" v="South Coast Hwy"/>
    <tag k="surface" v="paved"/>
  </node>
  <node id="134056885" version="1" timestamp="2007-11-26T05:59:40Z" uid="4467" user="Rosscoe" changeset="621649" lat="-33.678442" lon="119.676547">
    <tag k="created_by" v="JOSM"/>
    <tag k="highway" v="trunk"/>
    <tag k="name" v="South Coast Hwy"/>
    <tag k="surface" v="paved"/>
  </node>
  <node id="134056885" version="2" timestamp="2007-12-25T06:06:43Z" uid="4467" user="Rosscoe" changeset="417063" lat="-33.678442" lon="119.676547">
    <tag k="created_by" v="JOSM"/>
    <tag k="highway" v="trunk"/>
    <tag k="name" v="South Coast Hwy"/>
    <tag k="surface" v="paved"/>
  </node>
  <node id="134056906" version="1" timestamp="2007-11-26T05:59:41Z" uid="4467" user="Rosscoe" changeset="621649" lat="-33.678565" lon="119.676235">
    <tag k="created_by" v="JOSM"/>
    <tag k="highway" v="trunk"/>
    <tag k="name" v="South Coast Hwy"/>
    <tag k="surface" v="paved"/>
  </node>
  <node id="134056906" version="2" timestamp="2007-12-25T06:06:39Z" uid="4467" user="Rosscoe" changeset="417063" lat="-33.678565" lon="119.676235">
    <tag k="created_by" v="JOSM"/>
    <tag k="highway" v="trunk"/>
    <tag k="name" v="South Coast Hwy"/>
    <tag k="surface" v="paved"/>
  </node>
  <node id="134056939" version="1" timestamp="2007-11-26T05:59:42Z" uid="4467" user="Rosscoe" changeset="621649" lat="-33.678687" lon="119.675928">
    <tag k="created_by" v="JOSM"/>
    <tag k="highway" v="trunk"/>
    <tag k="name" v="South Coast Hwy"/>
    <tag k="surface" v="paved"/>
  </node>
  <node id="134056939" version="2" timestamp="2007-12-25T06:06:31Z" uid="4467" user="Rosscoe" changeset="417063" lat="-33.678687" lon="119.675928">
    <tag k="created_by" v="JOSM"/>
    <tag k="highway" v="trunk"/>
    <tag k="name" v="South Coast Hwy"/>
    <tag k="surface" v="paved"/>
  </node>
  <node id="134056966" version="1" timestamp="2007-11-26T05:59:42Z" uid="4467" user="Rosscoe" changeset="621649" lat="-33.678812" lon="119.675618">
    <tag k="created_by" v="JOSM"/>
    <tag k="highway" v="trunk"/>
    <tag k="name" v="South Coast Hwy"/>
    <tag k="surface" v="paved"/>
  </node>
  <node id="134056966" version="2" timestamp="2007-12-25T05:57:02Z" uid="4467" user="Rosscoe" changeset="417063" lat="-33.678812" lon="119.675618">
    <tag k="created_by" v="JOSM"/>
    <tag k="highway" v="trunk"/>
    <tag k="name" v="South Coast Hwy"/>
    <tag k="surface" v="paved"/>
  </node>
  <node id="134056998" version="1" timestamp="2007-11-26T05:59:43Z" uid="4467" user="Rosscoe" changeset="621649" lat="-33.679925" lon="119.672848">
    <tag k="created_by" v="JOSM"/>
    <tag k="highway" v="trunk"/>
    <tag k="name" v="South Coast Hwy"/>
    <tag k="surface" v="paved"/>
  </node>
  <node id="134056998" version="2" timestamp="2007-12-25T05:57:13Z" uid="4467" user="Rosscoe" changeset="417063" lat="-33.679925" lon="119.672848">
    <tag k="created_by" v="JOSM"/>
    <tag k="highway" v="trunk"/>
    <tag k="name" v="South Coast Hwy"/>
    <tag k="surface" v="paved"/>
  </node>
  <node id="134057022" version="1" timestamp="2007-11-26T05:59:44Z" uid="4467" user="Rosscoe" changeset="621649" lat="-33.680048" lon="119.672542">
    <tag k="created_by" v="JOSM"/>
    <tag k="highway" v="trunk"/>
    <tag k="name" v="South Coast Hwy"/>
    <tag k="surface" v="paved"/>
  </node>
  <node id="134057022" version="2" timestamp="2007-12-25T05:57:23Z" uid="4467" user="Rosscoe" changeset="417063" lat="-33.680048" lon="119.672542">
    <tag k="created_by" v="JOSM"/>
    <tag k="highway" v="trunk"/>
    <tag k="name" v="South Coast Hwy"/>
    <tag k="surface" v="paved"/>
  </node>
  <node id="134057054" version="1" timestamp="2007-11-26T05:59:45Z" uid="4467" user="Rosscoe" changeset="621649" lat="-33.680172" lon="119.672235">
    <tag k="created_by" v="JOSM"/>
    <tag k="highway" v="trunk"/>
    <tag k="name" v="South Coast Hwy"/>
    <tag k="surface" v="paved"/>
  </node>
  <node id="134057054" version="2" timestamp="2007-12-25T05:57:37Z" uid="4467" user="Rosscoe" changeset="417063" lat="-33.680172" lon="119.672235">
    <tag k="created_by" v="JOSM"/>
    <tag k="highway" v="trunk"/>
    <tag k="name" v="South Coast Hwy"/>
    <tag k="surface" v="paved"/>
  </node>
  <node id="134057086" version="1" timestamp="2007-11-26T05:59:45Z" uid="4467" user="Rosscoe" changeset="621649" lat="-33.680295" lon="119.671928">
    <tag k="created_by" v="JOSM"/>
    <tag k="highway" v="trunk"/>
    <tag k="name" v="South Coast Hwy"/>
    <tag k="surface" v="paved"/>
  </node>
  <node id="134057086" version="2" timestamp="2007-12-25T05:57:46Z" uid="4467" user="Rosscoe" changeset="417063" lat="-33.680295" lon="119.671928">
    <tag k="created_by" v="JOSM"/>
    <tag k="highway" v="trunk"/>
    <tag k="name" v="South Coast Hwy"/>
    <tag k="surface" v="paved"/>
  </node>
  <node id="134057098" version="1" timestamp="2007-11-26T05:59:46Z" uid="4467" user="Rosscoe" changeset="621649" lat="-33.679428" lon="119.674075">
    <tag k="created_by" v="JOSM"/>
    <tag k="highway" v="trunk"/>
    <tag k="name" v="South Coast Hwy"/>
    <tag k="surface" v="paved"/>
  </node>
  <node id="134057098" version="2" timestamp="2007-12-25T05:56:19Z" uid="4467" user="Rosscoe" changeset="417063" lat="-33.679428" lon="119.674075">
    <tag k="created_by" v="JOSM"/>
    <tag k="highway" v="trunk"/>
    <tag k="name" v="South Coast Hwy"/>
    <tag k="surface" v="paved"/>
  </node>
  <node id="134057106" version="1" timestamp="2007-11-26T05:59:47Z" uid="4467" user="Rosscoe" changeset="621649" lat="-33.679553" lon="119.673768">
    <tag k="created_by" v="JOSM"/>
    <tag k="highway" v="trunk"/>
    <tag k="name" v="South Coast Hwy"/>
    <tag k="surface" v="paved"/>
  </node>
  <node id="134057106" version="2" timestamp="2007-12-25T05:56:28Z" uid="4467" user="Rosscoe" changeset="417063" lat="-33.679553" lon="119.673768">
    <tag k="created_by" v="JOSM"/>
    <tag k="highway" v="trunk"/>
    <tag k="name" v="South Coast Hwy"/>
    <tag k="surface" v="paved"/>
  </node>
  <node id="134057126" version="1" timestamp="2007-11-26T05:59:48Z" uid="4467" user="Rosscoe" changeset="621649" lat="-33.679678" lon="119.67346">
    <tag k="created_by" v="JOSM"/>
    <tag k="highway" v="trunk"/>
    <tag k="name" v="South Coast Hwy"/>
    <tag k="surface" v="paved"/>
  </node>
  <node id="134057126" version="2" timestamp="2007-12-25T05:56:32Z" uid="4467" user="Rosscoe" changeset="417063" lat="-33.679678" lon="119.67346">
    <tag k="created_by" v="JOSM"/>
    <tag k="highway" v="trunk"/>
    <tag k="name" v="South Coast Hwy"/>
    <tag k="surface" v="paved"/>
  </node>
  <node id="134057144" version="1" timestamp="2007-11-26T05:59:49Z" uid="4467" user="Rosscoe" changeset="621649" lat="-33.6798" lon="119.673158">
    <tag k="created_by" v="JOSM"/>
    <tag k="highway" v="trunk"/>
    <tag k="name" v="South Coast Hwy"/>
    <tag k="surface" v="paved"/>
  </node>
  <node id="134057144" version="2" timestamp="2007-12-25T05:56:37Z" uid="4467" user="Rosscoe" changeset="417063" lat="-33.6798" lon="119.673158">
    <tag k="created_by" v="JOSM"/>
    <tag k="highway" v="trunk"/>
    <tag k="name" v="South Coast Hwy"/>
    <tag k="surface" v="paved"/>
  </node>
  <node id="134057166" version="1" timestamp="2007-11-26T05:59:49Z" uid="4467" user="Rosscoe" changeset="621649" lat="-33.680918" lon="119.670392">
    <tag k="created_by" v="JOSM"/>
    <tag k="highway" v="trunk"/>
    <tag k="name" v="South Coast Hwy"/>
    <tag k="surface" v="paved"/>
  </node>
  <node id="134057166" version="2" timestamp="2007-12-25T05:56:43Z" uid="4467" user="Rosscoe" changeset="417063" lat="-33.680918" lon="119.670392">
    <tag k="created_by" v="JOSM"/>
    <tag k="highway" v="trunk"/>
    <tag k="name" v="South Coast Hwy"/>
    <tag k="surface" v="paved"/>
  </node>
  <node id="134057186" version="1" timestamp="2007-11-26T05:59:50Z" uid="4467" user="Rosscoe" changeset="621649" lat="-33.681042" lon="119.670085">
    <tag k="created_by" v="JOSM"/>
    <tag k="highway" v="trunk"/>
    <tag k="name" v="South Coast Hwy"/>
    <tag k="surface" v="paved"/>
  </node>
  <node id="134057186" version="2" timestamp="2007-12-25T05:56:53Z" uid="4467" user="Rosscoe" changeset="417063" lat="-33.681042" lon="119.670085">
    <tag k="created_by" v="JOSM"/>
    <tag k="highway" v="trunk"/>
    <tag k="name" v="South Coast Hwy"/>
    <tag k="surface" v="paved"/>
  </node>
  <node id="134057202" version="1" timestamp="2007-11-26T05:59:51Z" uid="4467" user="Rosscoe" changeset="621649" lat="-33.681167" lon="119.669775">
    <tag k="created_by" v="JOSM"/>
    <tag k="highway" v="trunk"/>
    <tag k="name" v="South Coast Hwy"/>
    <tag k="surface" v="paved"/>
  </node>
  <node id="134057202" version="2" timestamp="2007-12-25T05:56:59Z" uid="4467" user="Rosscoe" changeset="417063" lat="-33.681167" lon="119.669775">
    <tag k="created_by" v="JOSM"/>
    <tag k="highway" v="trunk"/>
    <tag k="name" v="South Coast Hwy"/>
    <tag k="surface" v="paved"/>
  </node>
  <node id="134057218" version="1" timestamp="2007-11-26T05:59:52Z" uid="4467" user="Rosscoe" changeset="621649" lat="-33.681288" lon="119.669472">
    <tag k="created_by" v="JOSM"/>
    <tag k="highway" v="trunk"/>
    <tag k="name" v="South Coast Hwy"/>
    <tag k="surface" v="paved"/>
  </node>
  <node id="134057218" version="2" timestamp="2007-12-25T05:58:45Z" uid="4467" user="Rosscoe" changeset="417063" lat="-33.681288" lon="119.669472">
    <tag k="created_by" v="JOSM"/>
    <tag k="highway" v="trunk"/>
    <tag k="name" v="South Coast Hwy"/>
    <tag k="surface" v="paved"/>
  </node>
  <node id="134057226" version="1" timestamp="2007-11-26T05:59:52Z" uid="4467" user="Rosscoe" changeset="621649" lat="-33.680418" lon="119.671622">
    <tag k="created_by" v="JOSM"/>
    <tag k="highway" v="trunk"/>
    <tag k="name" v="South Coast Hwy"/>
    <tag k="surface" v="paved"/>
  </node>
  <node id="134057226" version="2" timestamp="2007-12-25T05:58:47Z" uid="4467" user="Rosscoe" changeset="417063" lat="-33.680418" lon="119.671622">
    <tag k="created_by" v="JOSM"/>
    <tag k="highway" v="trunk"/>
    <tag k="name" v="South Coast Hwy"/>
    <tag k="surface" v="paved"/>
  </node>
  <node id="134057238" version="1" timestamp="2007-11-26T05:59:53Z" uid="4467" user="Rosscoe" changeset="621649" lat="-33.680542" lon="119.671318">
    <tag k="created_by" v="JOSM"/>
    <tag k="highway" v="trunk"/>
    <tag k="name" v="South Coast Hwy"/>
    <tag k="surface" v="paved"/>
  </node>
  <node id="134057238" version="2" timestamp="2007-12-25T05:58:36Z" uid="4467" user="Rosscoe" changeset="417063" lat="-33.680542" lon="119.671318">
    <tag k="created_by" v="JOSM"/>
    <tag k="highway" v="trunk"/>
    <tag k="name" v="South Coast Hwy"/>
    <tag k="surface" v="paved"/>
  </node>
  <node id="134057256" version="1" timestamp="2007-11-26T05:59:54Z" uid="4467" user="Rosscoe" changeset="621649" lat="-33.68067" lon="119.671005">
    <tag k="created_by" v="JOSM"/>
    <tag k="highway" v="trunk"/>
    <tag k="name" v="South Coast Hwy"/>
    <tag k="surface" v="paved"/>
  </node>
  <node id="134057256" version="2" timestamp="2007-12-25T05:59:01Z" uid="4467" user="Rosscoe" changeset="417063" lat="-33.68067" lon="119.671005">
    <tag k="created_by" v="JOSM"/>
    <tag k="highway" v="trunk"/>
    <tag k="name" v="South Coast Hwy"/>
    <tag k="surface" v="paved"/>
  </node>
  <node id="134057276" version="1" timestamp="2007-11-26T05:59:55Z" uid="4467" user="Rosscoe" changeset="621649" lat="-33.680793" lon="119.670698">
    <tag k="created_by" v="JOSM"/>
    <tag k="highway" v="trunk"/>
    <tag k="name" v="South Coast Hwy"/>
    <tag k="surface" v="paved"/>
  </node>
  <node id="134057276" version="2" timestamp="2007-12-25T05:58:52Z" uid="4467" user="Rosscoe" changeset="417063" lat="-33.680793" lon="119.670698">
    <tag k="created_by" v="JOSM"/>
    <tag k="highway" v="trunk"/>
    <tag k="name" v="South Coast Hwy"/>
    <tag k="surface" v="paved"/>
  </node>
  <node id="134057302" version="1" timestamp="2007-11-26T05:59:56Z" uid="4467" user="Rosscoe" changeset="621649" lat="-33.681912" lon="119.667935">
    <tag k="created_by" v="JOSM"/>
    <tag k="highway" v="trunk"/>
    <tag k="name" v="South Coast Hwy"/>
    <tag k="surface" v="paved"/>
  </node>
  <node id="134057302" version="2" timestamp="2007-12-25T05:59:02Z" uid="4467" user="Rosscoe" changeset="417063" lat="-33.681912" lon="119.667935">
    <tag k="created_by" v="JOSM"/>
    <tag k="highway" v="trunk"/>
    <tag k="name" v="South Coast Hwy"/>
    <tag k="surface" v="paved"/>
  </node>
  <node id="134057323" version="1" timestamp="2007-11-26T05:59:56Z" uid="4467" user="Rosscoe" changeset="621649" lat="-33.682033" lon="119.66763">
    <tag k="created_by" v="JOSM"/>
    <tag k="highway" v="trunk"/>
    <tag k="name" v="South Coast Hwy"/>
    <tag k="surface" v="paved"/>
  </node>
  <node id="134057323" version="2" timestamp="2007-12-25T05:59:18Z" uid="4467" user="Rosscoe" changeset="417063" lat="-33.682033" lon="119.66763">
    <tag k="created_by" v="JOSM"/>
    <tag k="highway" v="trunk"/>
    <tag k="name" v="South Coast Hwy"/>
    <tag k="surface" v="paved"/>
  </node>
  <node id="134057340" version="1" timestamp="2007-11-26T05:59:57Z" uid="4467" user="Rosscoe" changeset="621649" lat="-33.68216" lon="119.667318">
    <tag k="created_by" v="JOSM"/>
    <tag k="highway" v="trunk"/>
    <tag k="name" v="South Coast Hwy"/>
    <tag k="surface" v="paved"/>
  </node>
  <node id="134057340" version="2" timestamp="2007-12-25T05:59:13Z" uid="4467" user="Rosscoe" changeset="417063" lat="-33.68216" lon="119.667318">
    <tag k="created_by" v="JOSM"/>
    <tag k="highway" v="trunk"/>
    <tag k="name" v="South Coast Hwy"/>
    <tag k="surface" v="paved"/>
  </node>
  <node id="134057363" version="1" timestamp="2007-11-26T05:59:58Z" uid="4467" user="Rosscoe" changeset="621649" lat="-33.682285" lon="119.66701">
    <tag k="created_by" v="JOSM"/>
    <tag k="highway" v="trunk"/>
    <tag k="name" v="South Coast Hwy"/>
    <tag k="surface" v="paved"/>
  </node>
  <node id="134057363" version="2" timestamp="2007-12-25T05:57:52Z" uid="4467" user="Rosscoe" changeset="417063" lat="-33.682285" lon="119.66701">
    <tag k="created_by" v="JOSM"/>
    <tag k="highway" v="trunk"/>
    <tag k="name" v="South Coast Hwy"/>
    <tag k="surface" v="paved"/>
  </node>
  <node id="134057389" version="1" timestamp="2007-11-26T05:59:59Z" uid="4467" user="Rosscoe" changeset="621649" lat="-33.681415" lon="119.66916">
    <tag k="created_by" v="JOSM"/>
    <tag k="highway" v="trunk"/>
    <tag k="name" v="South Coast Hwy"/>
    <tag k="surface" v="paved"/>
  </node>
  <node id="134057389" version="2" timestamp="2007-12-25T05:58:03Z" uid="4467" user="Rosscoe" changeset="417063" lat="-33.681415" lon="119.66916">
    <tag k="created_by" v="JOSM"/>
    <tag k="highway" v="trunk"/>
    <tag k="name" v="South Coast Hwy"/>
    <tag k="surface" v="paved"/>
  </node>
  <node id="134057412" version="1" timestamp="2007-11-26T05:59:59Z" uid="4467" user="Rosscoe" changeset="621649" lat="-33.68154" lon="119.668852">
    <tag k="created_by" v="JOSM"/>
    <tag k="highway" v="trunk"/>
    <tag k="name" v="South Coast Hwy"/>
    <tag k="surface" v="paved"/>
  </node>
  <node id="134057412" version="2" timestamp="2007-12-25T05:58:17Z" uid="4467" user="Rosscoe" changeset="417063" lat="-33.68154" lon="119.668852">
    <tag k="created_by" v="JOSM"/>
    <tag k="highway" v="trunk"/>
    <tag k="name" v="South Coast Hwy"/>
    <tag k="surface" v="paved"/>
  </node>
  <node id="134057441" version="1" timestamp="2007-11-26T06:00:00Z" uid="4467" user="Rosscoe" changeset="621649" lat="-33.681663" lon="119.668548">
    <tag k="created_by" v="JOSM"/>
    <tag k="highway" v="trunk"/>
    <tag k="name" v="South Coast Hwy"/>
    <tag k="surface" v="paved"/>
  </node>
  <node id="134057441" version="2" timestamp="2007-12-25T05:58:31Z" uid="4467" user="Rosscoe" changeset="417063" lat="-33.681663" lon="119.668548">
    <tag k="created_by" v="JOSM"/>
    <tag k="highway" v="trunk"/>
    <tag k="name" v="South Coast Hwy"/>
    <tag k="surface" v="paved"/>
  </node>
  <node id="134057466" version="1" timestamp="2007-11-26T06:00:01Z" uid="4467" user="Rosscoe" changeset="621649" lat="-33.681788" lon="119.668243">
    <tag k="created_by" v="JOSM"/>
    <tag k="highway" v="trunk"/>
    <tag k="name" v="South Coast Hwy"/>
    <tag k="surface" v="paved"/>
  </node>
  <node id="134057466" version="2" timestamp="2007-12-25T05:58:23Z" uid="4467" user="Rosscoe" changeset="417063" lat="-33.681788" lon="119.668243">
    <tag k="created_by" v="JOSM"/>
    <tag k="highway" v="trunk"/>
    <tag k="name" v="South Coast Hwy"/>
    <tag k="surface" v="paved"/>
  </node>
  <node id="134057487" version="1" timestamp="2007-11-26T06:00:02Z" uid="4467" user="Rosscoe" changeset="621649" lat="-33.682905" lon="119.665473">
    <tag k="created_by" v="JOSM"/>
    <tag k="highway" v="trunk"/>
    <tag k="name" v="South Coast Hwy"/>
    <tag k="surface" v="paved"/>
  </node>
  <node id="134057487" version="2" timestamp="2007-12-25T06:00:24Z" uid="4467" user="Rosscoe" changeset="417063" lat="-33.682905" lon="119.665473">
    <tag k="created_by" v="JOSM"/>
    <tag k="highway" v="trunk"/>
    <tag k="name" v="South Coast Hwy"/>
    <tag k="surface" v="paved"/>
  </node>
  <node id="134057514" version="1" timestamp="2007-11-26T06:00:03Z" uid="4467" user="Rosscoe" changeset="621649" lat="-33.68303" lon="119.66516">
    <tag k="created_by" v="JOSM"/>
    <tag k="highway" v="trunk"/>
    <tag k="name" v="South Coast Hwy"/>
    <tag k="surface" v="paved"/>
  </node>
  <node id="134057514" version="2" timestamp="2007-12-25T06:00:09Z" uid="4467" user="Rosscoe" changeset="417063" lat="-33.68303" lon="119.66516">
    <tag k="created_by" v="JOSM"/>
    <tag k="highway" v="trunk"/>
    <tag k="name" v="South Coast Hwy"/>
    <tag k="surface" v="paved"/>
  </node>
  <node id="134057543" version="1" timestamp="2007-11-26T06:00:03Z" uid="4467" user="Rosscoe" changeset="621649" lat="-33.683153" lon="119.664858">
    <tag k="created_by" v="JOSM"/>
    <tag k="highway" v="trunk"/>
    <tag k="name" v="South Coast Hwy"/>
    <tag k="surface" v="paved"/>
  </node>
  <node id="134057543" version="2" timestamp="2007-12-25T06:00:42Z" uid="4467" user="Rosscoe" changeset="417063" lat="-33.683153" lon="119.664858">
    <tag k="created_by" v="JOSM"/>
    <tag k="highway" v="trunk"/>
    <tag k="name" v="South Coast Hwy"/>
    <tag k="surface" v="paved"/>
  </node>
  <node id="134057569" version="1" timestamp="2007-11-26T06:00:04Z" uid="4467" user="Rosscoe" changeset="621649" lat="-33.683278" lon="119.664552">
    <tag k="created_by" v="JOSM"/>
    <tag k="highway" v="trunk"/>
    <tag k="name" v="South Coast Hwy"/>
    <tag k="surface" v="paved"/>
  </node>
  <node id="134057569" version="2" timestamp="2007-12-25T06:00:33Z" uid="4467" user="Rosscoe" changeset="417063" lat="-33.683278" lon="119.664552">
    <tag k="created_by" v="JOSM"/>
    <tag k="highway" v="trunk"/>
    <tag k="name" v="South Coast Hwy"/>
    <tag k="surface" v="paved"/>
  </node>
  <node id="134057600" version="1" timestamp="2007-11-26T06:00:05Z" uid="4467" user="Rosscoe" changeset="621649" lat="-33.682407" lon="119.666708">
    <tag k="created_by" v="JOSM"/>
    <tag k="highway" v="trunk"/>
    <tag k="name" v="South Coast Hwy"/>
    <tag k="surface" v="paved"/>
  </node>
  <node id="134057600" version="2" timestamp="2007-12-25T05:59:34Z" uid="4467" user="Rosscoe" changeset="417063" lat="-33.682407" lon="119.666708">
    <tag k="created_by" v="JOSM"/>
    <tag k="highway" v="trunk"/>
    <tag k="name" v="South Coast Hwy"/>
    <tag k="surface" v="paved"/>
  </node>
  <node id="134057627" version="1" timestamp="2007-11-26T06:00:06Z" uid="4467" user="Rosscoe" changeset="621649" lat="-33.68253" lon="119.666405">
    <tag k="created_by" v="JOSM"/>
    <tag k="highway" v="trunk"/>
    <tag k="name" v="South Coast Hwy"/>
    <tag k="surface" v="paved"/>
  </node>
  <node id="134057627" version="2" timestamp="2007-12-25T05:59:39Z" uid="4467" user="Rosscoe" changeset="417063" lat="-33.68253" lon="119.666405">
    <tag k="created_by" v="JOSM"/>
    <tag k="highway" v="trunk"/>
    <tag k="name" v="South Coast Hwy"/>
    <tag k="surface" v="paved"/>
  </node>
  <node id="134057650" version="1" timestamp="2007-11-26T06:00:06Z" uid="4467" user="Rosscoe" changeset="621649" lat="-33.682655" lon="119.666095">
    <tag k="created_by" v="JOSM"/>
    <tag k="highway" v="trunk"/>
    <tag k="name" v="South Coast Hwy"/>
    <tag k="surface" v="paved"/>
  </node>
  <node id="134057650" version="2" timestamp="2007-12-25T05:59:28Z" uid="4467" user="Rosscoe" changeset="417063" lat="-33.682655" lon="119.666095">
    <tag k="created_by" v="JOSM"/>
    <tag k="highway" v="trunk"/>
    <tag k="name" v="South Coast Hwy"/>
    <tag k="surface" v="paved"/>
  </node>
  <node id="134057672" version="1" timestamp="2007-11-26T06:00:07Z" uid="4467" user="Rosscoe" changeset="621649" lat="-33.682778" lon="119.665787">
    <tag k="created_by" v="JOSM"/>
    <tag k="highway" v="trunk"/>
    <tag k="name" v="South Coast Hwy"/>
    <tag k="surface" v="paved"/>
  </node>
  <node id="134057672" version="2" timestamp="2007-12-25T05:59:55Z" uid="4467" user="Rosscoe" changeset="417063" lat="-33.682778" lon="119.665787">
    <tag k="created_by" v="JOSM"/>
    <tag k="highway" v="trunk"/>
    <tag k="name" v="South Coast Hwy"/>
    <tag k="surface" v="paved"/>
  </node>
  <node id="134057688" version="1" timestamp="2007-11-26T06:00:08Z" uid="4467" user="Rosscoe" changeset="621649" lat="-33.683902" lon="119.663017">
    <tag k="created_by" v="JOSM"/>
    <tag k="highway" v="trunk"/>
    <tag k="name" v="South Coast Hwy"/>
    <tag k="surface" v="paved"/>
  </node>
  <node id="134057688" version="2" timestamp="2007-12-25T06:00:03Z" uid="4467" user="Rosscoe" changeset="417063" lat="-33.683902" lon="119.663017">
    <tag k="created_by" v="JOSM"/>
    <tag k="highway" v="trunk"/>
    <tag k="name" v="South Coast Hwy"/>
    <tag k="surface" v="paved"/>
  </node>
  <node id="134057700" version="1" timestamp="2007-11-26T06:00:09Z" uid="4467" user="Rosscoe" changeset="621649" lat="-33.684022" lon="119.662715">
    <tag k="created_by" v="JOSM"/>
    <tag k="highway" v="trunk"/>
    <tag k="name" v="South Coast Hwy"/>
    <tag k="surface" v="paved"/>
  </node>
  <node id="134057700" version="2" timestamp="2007-12-25T05:59:47Z" uid="4467" user="Rosscoe" changeset="417063" lat="-33.684022" lon="119.662715">
    <tag k="created_by" v="JOSM"/>
    <tag k="highway" v="trunk"/>
    <tag k="name" v="South Coast Hwy"/>
    <tag k="surface" v="paved"/>
  </node>
  <node id="134057714" version="1" timestamp="2007-11-26T06:00:10Z" uid="4467" user="Rosscoe" changeset="621649" lat="-33.684145" lon="119.66241">
    <tag k="created_by" v="JOSM"/>
    <tag k="highway" v="trunk"/>
    <tag k="name" v="South Coast Hwy"/>
    <tag k="surface" v="paved"/>
  </node>
  <node id="134057714" version="2" timestamp="2007-12-25T05:59:53Z" uid="4467" user="Rosscoe" changeset="417063" lat="-33.684145" lon="119.66241">
    <tag k="created_by" v="JOSM"/>
    <tag k="highway" v="trunk"/>
    <tag k="name" v="South Coast Hwy"/>
    <tag k="surface" v="paved"/>
  </node>
  <node id="134057739" version="1" timestamp="2007-11-26T06:00:10Z" uid="4467" user="Rosscoe" changeset="621649" lat="-33.68427" lon="119.662105">
    <tag k="created_by" v="JOSM"/>
    <tag k="highway" v="trunk"/>
    <tag k="name" v="South Coast Hwy"/>
    <tag k="surface" v="paved"/>
  </node>
  <node id="134057739" version="2" timestamp="2007-12-25T06:01:50Z" uid="4467" user="Rosscoe" changeset="417063" lat="-33.68427" lon="119.662105">
    <tag k="created_by" v="JOSM"/>
    <tag k="highway" v="trunk"/>
    <tag k="name" v="South Coast Hwy"/>
    <tag k="surface" v="paved"/>
  </node>
  <node id="134057763" version="1" timestamp="2007-11-26T06:00:11Z" uid="4467" user="Rosscoe" changeset="621649" lat="-33.6834" lon="119.664248">
    <tag k="created_by" v="JOSM"/>
    <tag k="highway" v="trunk"/>
    <tag k="name" v="South Coast Hwy"/>
    <tag k="surface" v="paved"/>
  </node>
  <node id="134057763" version="2" timestamp="2007-12-25T06:01:37Z" uid="4467" user="Rosscoe" changeset="417063" lat="-33.6834" lon="119.664248">
    <tag k="created_by" v="JOSM"/>
    <tag k="highway" v="trunk"/>
    <tag k="name" v="South Coast Hwy"/>
    <tag k="surface" v="paved"/>
  </node>
  <node id="134057790" version="1" timestamp="2007-11-26T06:00:12Z" uid="4467" user="Rosscoe" changeset="621649" lat="-33.683523" lon="119.663947">
    <tag k="created_by" v="JOSM"/>
    <tag k="highway" v="trunk"/>
    <tag k="name" v="South Coast Hwy"/>
    <tag k="surface" v="paved"/>
  </node>
  <node id="134057790" version="2" timestamp="2007-12-25T06:01:35Z" uid="4467" user="Rosscoe" changeset="417063" lat="-33.683523" lon="119.663947">
    <tag k="created_by" v="JOSM"/>
    <tag k="highway" v="trunk"/>
    <tag k="name" v="South Coast Hwy"/>
    <tag k="surface" v="paved"/>
  </node>
  <node id="134057809" version="1" timestamp="2007-11-26T06:00:13Z" uid="4467" user="Rosscoe" changeset="621649" lat="-33.683652" lon="119.663635">
    <tag k="created_by" v="JOSM"/>
    <tag k="highway" v="trunk"/>
    <tag k="name" v="South Coast Hwy"/>
    <tag k="surface" v="paved"/>
  </node>
  <node id="134057809" version="2" timestamp="2007-12-25T06:02:07Z" uid="4467" user="Rosscoe" changeset="417063" lat="-33.683652" lon="119.663635">
    <tag k="created_by" v="JOSM"/>
    <tag k="highway" v="trunk"/>
    <tag k="name" v="South Coast Hwy"/>
    <tag k="surface" v="paved"/>
  </node>
  <node id="134057832" version="1" timestamp="2007-11-26T06:00:14Z" uid="4467" user="Rosscoe" changeset="621649" lat="-33.683777" lon="119.663327">
    <tag k="created_by" v="JOSM"/>
    <tag k="highway" v="trunk"/>
    <tag k="name" v="South Coast Hwy"/>
    <tag k="surface" v="paved"/>
  </node>
  <node id="134057832" version="2" timestamp="2007-12-25T06:02:04Z" uid="4467" user="Rosscoe" changeset="417063" lat="-33.683777" lon="119.663327">
    <tag k="created_by" v="JOSM"/>
    <tag k="highway" v="trunk"/>
    <tag k="name" v="South Coast Hwy"/>
    <tag k="surface" v="paved"/>
  </node>
  <node id="134057861" version="1" timestamp="2007-11-26T06:00:14Z" uid="4467" user="Rosscoe" changeset="621649" lat="-33.684902" lon="119.660563">
    <tag k="created_by" v="JOSM"/>
    <tag k="highway" v="trunk"/>
    <tag k="name" v="South Coast Hwy"/>
    <tag k="surface" v="paved"/>
  </node>
  <node id="134057861" version="2" timestamp="2007-12-25T06:01:09Z" uid="4467" user="Rosscoe" changeset="417063" lat="-33.684902" lon="119.660563">
    <tag k="created_by" v="JOSM"/>
    <tag k="highway" v="trunk"/>
    <tag k="name" v="South Coast Hwy"/>
    <tag k="surface" v="paved"/>
  </node>
  <node id="134057878" version="1" timestamp="2007-11-26T06:00:15Z" uid="4467" user="Rosscoe" changeset="621649" lat="-33.685023" lon="119.66026">
    <tag k="created_by" v="JOSM"/>
    <tag k="highway" v="trunk"/>
    <tag k="name" v="South Coast Hwy"/>
    <tag k="surface" v="paved"/>
  </node>
  <node id="134057878" version="2" timestamp="2007-12-25T06:01:03Z" uid="4467" user="Rosscoe" changeset="417063" lat="-33.685023" lon="119.66026">
    <tag k="created_by" v="JOSM"/>
    <tag k="highway" v="trunk"/>
    <tag k="name" v="South Coast Hwy"/>
    <tag k="surface" v="paved"/>
  </node>
  <node id="134057900" version="1" timestamp="2007-11-26T06:00:16Z" uid="4467" user="Rosscoe" changeset="621649" lat="-33.685148" lon="119.659948">
    <tag k="created_by" v="JOSM"/>
    <tag k="highway" v="trunk"/>
    <tag k="name" v="South Coast Hwy"/>
    <tag k="surface" v="paved"/>
  </node>
  <node id="134057900" version="2" timestamp="2007-12-25T06:00:56Z" uid="4467" user="Rosscoe" changeset="417063" lat="-33.685148" lon="119.659948">
    <tag k="created_by" v="JOSM"/>
    <tag k="highway" v="trunk"/>
    <tag k="name" v="South Coast Hwy"/>
    <tag k="surface" v="paved"/>
  </node>
  <node id="134057918" version="1" timestamp="2007-11-26T06:00:17Z" uid="4467" user="Rosscoe" changeset="621649" lat="-33.68527" lon="119.65964">
    <tag k="created_by" v="JOSM"/>
    <tag k="highway" v="trunk"/>
    <tag k="name" v="South Coast Hwy"/>
    <tag k="surface" v="paved"/>
  </node>
  <node id="134057918" version="2" timestamp="2007-12-25T06:00:51Z" uid="4467" user="Rosscoe" changeset="417063" lat="-33.68527" lon="119.65964">
    <tag k="created_by" v="JOSM"/>
    <tag k="highway" v="trunk"/>
    <tag k="name" v="South Coast Hwy"/>
    <tag k="surface" v="paved"/>
  </node>
  <node id="134057940" version="1" timestamp="2007-11-26T06:00:17Z" uid="4467" user="Rosscoe" changeset="621649" lat="-33.684402" lon="119.661792">
    <tag k="created_by" v="JOSM"/>
    <tag k="highway" v="trunk"/>
    <tag k="name" v="South Coast Hwy"/>
    <tag k="surface" v="paved"/>
  </node>
  <node id="134057940" version="2" timestamp="2007-12-25T06:01:24Z" uid="4467" user="Rosscoe" changeset="417063" lat="-33.684402" lon="119.661792">
    <tag k="created_by" v="JOSM"/>
    <tag k="highway" v="trunk"/>
    <tag k="name" v="South Coast Hwy"/>
    <tag k="surface" v="paved"/>
  </node>
  <node id="134057963" version="1" timestamp="2007-11-26T06:00:18Z" uid="4467" user="Rosscoe" changeset="621649" lat="-33.684527" lon="119.661485">
    <tag k="created_by" v="JOSM"/>
    <tag k="highway" v="trunk"/>
    <tag k="name" v="South Coast Hwy"/>
    <tag k="surface" v="paved"/>
  </node>
  <node id="134057963" version="2" timestamp="2007-12-25T06:01:19Z" uid="4467" user="Rosscoe" changeset="417063" lat="-33.684527" lon="119.661485">
    <tag k="created_by" v="JOSM"/>
    <tag k="highway" v="trunk"/>
    <tag k="name" v="South Coast Hwy"/>
    <tag k="surface" v="paved"/>
  </node>
  <node id="134057979" version="1" timestamp="2007-11-26T06:00:19Z" uid="4467" user="Rosscoe" changeset="621649" lat="-33.684655" lon="119.661175">
    <tag k="created_by" v="JOSM"/>
    <tag k="highway" v="trunk"/>
    <tag k="name" v="South Coast Hwy"/>
    <tag k="surface" v="paved"/>
  </node>
  <node id="134057979" version="2" timestamp="2007-12-25T06:01:13Z" uid="4467" user="Rosscoe" changeset="417063" lat="-33.684655" lon="119.661175">
    <tag k="created_by" v="JOSM"/>
    <tag k="highway" v="trunk"/>
    <tag k="name" v="South Coast Hwy"/>
    <tag k="surface" v="paved"/>
  </node>
  <node id="134058003" version="1" timestamp="2007-11-26T06:00:20Z" uid="4467" user="Rosscoe" changeset="621649" lat="-33.684778" lon="119.66087">
    <tag k="created_by" v="JOSM"/>
    <tag k="highway" v="trunk"/>
    <tag k="name" v="South Coast Hwy"/>
    <tag k="surface" v="paved"/>
  </node>
  <node id="134058003" version="2" timestamp="2007-12-25T05:53:05Z" uid="4467" user="Rosscoe" changeset="417063" lat="-33.684778" lon="119.66087">
    <tag k="created_by" v="JOSM"/>
    <tag k="highway" v="trunk"/>
    <tag k="name" v="South Coast Hwy"/>
    <tag k="surface" v="paved"/>
  </node>
  <node id="134058024" version="1" timestamp="2007-11-26T06:00:21Z" uid="4467" user="Rosscoe" changeset="621649" lat="-33.685895" lon="119.658103">
    <tag k="created_by" v="JOSM"/>
    <tag k="highway" v="trunk"/>
    <tag k="name" v="South Coast Hwy"/>
    <tag k="surface" v="paved"/>
  </node>
  <node id="134058024" version="2" timestamp="2007-12-25T05:52:58Z" uid="4467" user="Rosscoe" changeset="417063" lat="-33.685895" lon="119.658103">
    <tag k="created_by" v="JOSM"/>
    <tag k="highway" v="trunk"/>
    <tag k="name" v="South Coast Hwy"/>
    <tag k="surface" v="paved"/>
  </node>
  <node id="134058058" version="1" timestamp="2007-11-26T06:00:21Z" uid="4467" user="Rosscoe" changeset="621649" lat="-33.686022" lon="119.657793">
    <tag k="created_by" v="JOSM"/>
    <tag k="highway" v="trunk"/>
    <tag k="name" v="South Coast Hwy"/>
    <tag k="surface" v="paved"/>
  </node>
  <node id="134058058" version="2" timestamp="2007-12-25T05:52:47Z" uid="4467" user="Rosscoe" changeset="417063" lat="-33.686022" lon="119.657793">
    <tag k="created_by" v="JOSM"/>
    <tag k="highway" v="trunk"/>
    <tag k="name" v="South Coast Hwy"/>
    <tag k="surface" v="paved"/>
  </node>
  <node id="134058068" version="1" timestamp="2007-11-26T06:00:22Z" uid="4467" user="Rosscoe" changeset="621649" lat="-33.68615" lon="119.657488">
    <tag k="created_by" v="JOSM"/>
    <tag k="highway" v="trunk"/>
    <tag k="name" v="South Coast Hwy"/>
    <tag k="surface" v="paved"/>
  </node>
  <node id="134058068" version="2" timestamp="2007-12-25T05:52:44Z" uid="4467" user="Rosscoe" changeset="417063" lat="-33.68615" lon="119.657488">
    <tag k="created_by" v="JOSM"/>
    <tag k="highway" v="trunk"/>
    <tag k="name" v="South Coast Hwy"/>
    <tag k="surface" v="paved"/>
  </node>
  <node id="134058088" version="1" timestamp="2007-11-26T06:00:23Z" uid="4467" user="Rosscoe" changeset="621649" lat="-33.686273" lon="119.657183">
    <tag k="created_by" v="JOSM"/>
    <tag k="highway" v="trunk"/>
    <tag k="name" v="South Coast Hwy"/>
    <tag k="surface" v="paved"/>
  </node>
  <node id="134058088" version="2" timestamp="2007-12-25T05:52:36Z" uid="4467" user="Rosscoe" changeset="417063" lat="-33.686273" lon="119.657183">
    <tag k="created_by" v="JOSM"/>
    <tag k="highway" v="trunk"/>
    <tag k="name" v="South Coast Hwy"/>
    <tag k="surface" v="paved"/>
  </node>
  <node id="134058151" version="1" timestamp="2007-11-26T06:00:26Z" uid="4467" user="Rosscoe" changeset="621649" lat="-33.685393" lon="119.659333">
    <tag k="created_by" v="JOSM"/>
    <tag k="highway" v="trunk"/>
    <tag k="name" v="South Coast Hwy"/>
    <tag k="surface" v="paved"/>
  </node>
  <node id="134058151" version="2" timestamp="2007-12-25T05:53:36Z" uid="4467" user="Rosscoe" changeset="417063" lat="-33.685393" lon="119.659333">
    <tag k="created_by" v="JOSM"/>
    <tag k="highway" v="trunk"/>
    <tag k="name" v="South Coast Hwy"/>
    <tag k="surface" v="paved"/>
  </node>
  <node id="134058216" version="1" timestamp="2007-11-26T06:00:29Z" uid="4467" user="Rosscoe" changeset="621649" lat="-33.685517" lon="119.659027">
    <tag k="created_by" v="JOSM"/>
    <tag k="highway" v="trunk"/>
    <tag k="name" v="South Coast Hwy"/>
    <tag k="surface" v="paved"/>
  </node>
  <node id="134058216" version="2" timestamp="2007-12-25T05:53:19Z" uid="4467" user="Rosscoe" changeset="417063" lat="-33.685517" lon="119.659027">
    <tag k="created_by" v="JOSM"/>
    <tag k="highway" v="trunk"/>
    <tag k="name" v="South Coast Hwy"/>
    <tag k="surface" v="paved"/>
  </node>
  <node id="134058294" version="1" timestamp="2007-11-26T06:00:32Z" uid="4467" user="Rosscoe" changeset="621649" lat="-33.68564" lon="119.658722">
    <tag k="created_by" v="JOSM"/>
    <tag k="highway" v="trunk"/>
    <tag k="name" v="South Coast Hwy"/>
    <tag k="surface" v="paved"/>
  </node>
  <node id="134058294" version="2" timestamp="2007-12-25T05:51:39Z" uid="4467" user="Rosscoe" changeset="417063" lat="-33.68564" lon="119.658722">
    <tag k="created_by" v="JOSM"/>
    <tag k="highway" v="trunk"/>
    <tag k="name" v="South Coast Hwy"/>
    <tag k="surface" v="paved"/>
  </node>
  <node id="134058337" version="1" timestamp="2007-11-26T06:00:33Z" uid="4467" user="Rosscoe" changeset="621649" lat="-33.685763" lon="119.658418">
    <tag k="created_by" v="JOSM"/>
    <tag k="highway" v="trunk"/>
    <tag k="name" v="South Coast Hwy"/>
    <tag k="surface" v="paved"/>
  </node>
  <node id="134058337" version="2" timestamp="2007-12-25T05:51:16Z" uid="4467" user="Rosscoe" changeset="417063" lat="-33.685763" lon="119.658418">
    <tag k="created_by" v="JOSM"/>
    <tag k="highway" v="trunk"/>
    <tag k="name" v="South Coast Hwy"/>
    <tag k="surface" v="paved"/>
  </node>
  <node id="134058404" version="1" timestamp="2007-11-26T06:00:35Z" uid="4467" user="Rosscoe" changeset="621649" lat="-33.686895" lon="119.655655">
    <tag k="created_by" v="JOSM"/>
    <tag k="highway" v="trunk"/>
    <tag k="name" v="South Coast Hwy"/>
    <tag k="surface" v="paved"/>
  </node>
  <node id="134058404" version="2" timestamp="2007-12-25T05:52:13Z" uid="4467" user="Rosscoe" changeset="417063" lat="-33.686895" lon="119.655655">
    <tag k="created_by" v="JOSM"/>
    <tag k="highway" v="trunk"/>
    <tag k="name" v="South Coast Hwy"/>
    <tag k="surface" v="paved"/>
  </node>
  <node id="134058467" version="1" timestamp="2007-11-26T06:00:37Z" uid="4467" user="Rosscoe" changeset="621649" lat="-33.68702" lon="119.655347">
    <tag k="created_by" v="JOSM"/>
    <tag k="highway" v="trunk"/>
    <tag k="name" v="South Coast Hwy"/>
    <tag k="surface" v="paved"/>
  </node>
  <node id="134058467" version="2" timestamp="2007-12-25T05:51:52Z" uid="4467" user="Rosscoe" changeset="417063" lat="-33.68702" lon="119.655347">
    <tag k="created_by" v="JOSM"/>
    <tag k="highway" v="trunk"/>
    <tag k="name" v="South Coast Hwy"/>
    <tag k="surface" v="paved"/>
  </node>
  <node id="134058519" version="1" timestamp="2007-11-26T06:00:39Z" uid="4467" user="Rosscoe" changeset="621649" lat="-33.687147" lon="119.65504">
    <tag k="created_by" v="JOSM"/>
    <tag k="highway" v="trunk"/>
    <tag k="name" v="South Coast Hwy"/>
    <tag k="surface" v="paved"/>
  </node>
  <node id="134058519" version="2" timestamp="2007-12-25T05:55:26Z" uid="4467" user="Rosscoe" changeset="417063" lat="-33.687147" lon="119.65504">
    <tag k="created_by" v="JOSM"/>
    <tag k="highway" v="trunk"/>
    <tag k="name" v="South Coast Hwy"/>
    <tag k="surface" v="paved"/>
  </node>
  <node id="134058560" version="1" timestamp="2007-11-26T06:00:41Z" uid="4467" user="Rosscoe" changeset="621649" lat="-33.68727" lon="119.654737">
    <tag k="created_by" v="JOSM"/>
    <tag k="highway" v="trunk"/>
    <tag k="name" v="South Coast Hwy"/>
    <tag k="surface" v="paved"/>
  </node>
  <node id="134058560" version="2" timestamp="2007-12-25T05:55:11Z" uid="4467" user="Rosscoe" changeset="417063" lat="-33.68727" lon="119.654737">
    <tag k="created_by" v="JOSM"/>
    <tag k="highway" v="trunk"/>
    <tag k="name" v="South Coast Hwy"/>
    <tag k="surface" v="paved"/>
  </node>
  <node id="134058596" version="1" timestamp="2007-11-26T06:00:42Z" uid="4467" user="Rosscoe" changeset="621649" lat="-33.686395" lon="119.65688">
    <tag k="created_by" v="JOSM"/>
    <tag k="highway" v="trunk"/>
    <tag k="name" v="South Coast Hwy"/>
    <tag k="surface" v="paved"/>
  </node>
  <node id="134058596" version="2" timestamp="2007-12-25T05:55:19Z" uid="4467" user="Rosscoe" changeset="417063" lat="-33.686395" lon="119.65688">
    <tag k="created_by" v="JOSM"/>
    <tag k="highway" v="trunk"/>
    <tag k="name" v="South Coast Hwy"/>
    <tag k="surface" v="paved"/>
  </node>
  <node id="134058618" version="1" timestamp="2007-11-26T06:00:42Z" uid="4467" user="Rosscoe" changeset="621649" lat="-33.68652" lon="119.656577">
    <tag k="created_by" v="JOSM"/>
    <tag k="highway" v="trunk"/>
    <tag k="name" v="South Coast Hwy"/>
    <tag k="surface" v="paved"/>
  </node>
  <node id="134058618" version="2" timestamp="2007-12-25T05:55:13Z" uid="4467" user="Rosscoe" changeset="417063" lat="-33.68652" lon="119.656577">
    <tag k="created_by" v="JOSM"/>
    <tag k="highway" v="trunk"/>
    <tag k="name" v="South Coast Hwy"/>
    <tag k="surface" v="paved"/>
  </node>
  <node id="134058640" version="1" timestamp="2007-11-26T06:00:43Z" uid="4467" user="Rosscoe" changeset="621649" lat="-33.686647" lon="119.656267">
    <tag k="created_by" v="JOSM"/>
    <tag k="highway" v="trunk"/>
    <tag k="name" v="South Coast Hwy"/>
    <tag k="surface" v="paved"/>
  </node>
  <node id="134058640" version="2" timestamp="2007-12-25T05:56:00Z" uid="4467" user="Rosscoe" changeset="417063" lat="-33.686647" lon="119.656267">
    <tag k="created_by" v="JOSM"/>
    <tag k="highway" v="trunk"/>
    <tag k="name" v="South Coast Hwy"/>
    <tag k="surface" v="paved"/>
  </node>
  <node id="134058653" version="1" timestamp="2007-11-26T06:00:44Z" uid="4467" user="Rosscoe" changeset="621649" lat="-33.686773" lon="119.655955">
    <tag k="created_by" v="JOSM"/>
    <tag k="highway" v="trunk"/>
    <tag k="name" v="South Coast Hwy"/>
    <tag k="surface" v="paved"/>
  </node>
  <node id="134058653" version="2" timestamp="2007-12-25T05:56:03Z" uid="4467" user="Rosscoe" changeset="417063" lat="-33.686773" lon="119.655955">
    <tag k="created_by" v="JOSM"/>
    <tag k="highway" v="trunk"/>
    <tag k="name" v="South Coast Hwy"/>
    <tag k="surface" v="paved"/>
  </node>
  <node id="134058674" version="1" timestamp="2007-11-26T06:00:45Z" uid="4467" user="Rosscoe" changeset="621649" lat="-33.687897" lon="119.653193">
    <tag k="created_by" v="JOSM"/>
    <tag k="highway" v="trunk"/>
    <tag k="name" v="South Coast Hwy"/>
    <tag k="surface" v="paved"/>
  </node>
  <node id="134058674" version="2" timestamp="2007-12-25T05:56:09Z" uid="4467" user="Rosscoe" changeset="417063" lat="-33.687897" lon="119.653193">
    <tag k="created_by" v="JOSM"/>
    <tag k="highway" v="trunk"/>
    <tag k="name" v="South Coast Hwy"/>
    <tag k="surface" v="paved"/>
  </node>
  <node id="134058698" version="1" timestamp="2007-11-26T06:00:45Z" uid="4467" user="Rosscoe" changeset="621649" lat="-33.68802" lon="119.65289">
    <tag k="created_by" v="JOSM"/>
    <tag k="highway" v="trunk"/>
    <tag k="name" v="South Coast Hwy"/>
    <tag k="surface" v="paved"/>
  </node>
  <node id="134058698" version="2" timestamp="2007-12-25T05:55:49Z" uid="4467" user="Rosscoe" changeset="417063" lat="-33.68802" lon="119.65289">
    <tag k="created_by" v="JOSM"/>
    <tag k="highway" v="trunk"/>
    <tag k="name" v="South Coast Hwy"/>
    <tag k="surface" v="paved"/>
  </node>
  <node id="134058721" version="1" timestamp="2007-11-26T06:00:46Z" uid="4467" user="Rosscoe" changeset="621649" lat="-33.688145" lon="119.652582">
    <tag k="created_by" v="JOSM"/>
    <tag k="highway" v="trunk"/>
    <tag k="name" v="South Coast Hwy"/>
    <tag k="surface" v="paved"/>
  </node>
  <node id="134058721" version="2" timestamp="2007-12-25T05:55:58Z" uid="4467" user="Rosscoe" changeset="417063" lat="-33.688145" lon="119.652582">
    <tag k="created_by" v="JOSM"/>
    <tag k="highway" v="trunk"/>
    <tag k="name" v="South Coast Hwy"/>
    <tag k="surface" v="paved"/>
  </node>
  <node id="134058742" version="1" timestamp="2007-11-26T06:00:47Z" uid="4467" user="Rosscoe" changeset="621649" lat="-33.688268" lon="119.652273">
    <tag k="created_by" v="JOSM"/>
    <tag k="highway" v="trunk"/>
    <tag k="name" v="South Coast Hwy"/>
    <tag k="surface" v="paved"/>
  </node>
  <node id="134058742" version="2" timestamp="2007-12-25T05:55:50Z" uid="4467" user="Rosscoe" changeset="417063" lat="-33.688268" lon="119.652273">
    <tag k="created_by" v="JOSM"/>
    <tag k="highway" v="trunk"/>
    <tag k="name" v="South Coast Hwy"/>
    <tag k="surface" v="paved"/>
  </node>
  <node id="134058769" version="1" timestamp="2007-11-26T06:00:48Z" uid="4467" user="Rosscoe" changeset="621649" lat="-33.687397" lon="119.654423">
    <tag k="created_by" v="JOSM"/>
    <tag k="highway" v="trunk"/>
    <tag k="name" v="South Coast Hwy"/>
    <tag k="surface" v="paved"/>
  </node>
  <node id="134058769" version="2" timestamp="2007-12-25T05:54:14Z" uid="4467" user="Rosscoe" changeset="417063" lat="-33.687397" lon="119.654423">
    <tag k="created_by" v="JOSM"/>
    <tag k="highway" v="trunk"/>
    <tag k="name" v="South Coast Hwy"/>
    <tag k="surface" v="paved"/>
  </node>
  <node id="134058798" version="1" timestamp="2007-11-26T06:00:49Z" uid="4467" user="Rosscoe" changeset="621649" lat="-33.687522" lon="119.654115">
    <tag k="created_by" v="JOSM"/>
    <tag k="highway" v="trunk"/>
    <tag k="name" v="South Coast Hwy"/>
    <tag k="surface" v="paved"/>
  </node>
  <node id="134058798" version="2" timestamp="2007-12-25T05:54:17Z" uid="4467" user="Rosscoe" changeset="417063" lat="-33.687522" lon="119.654115">
    <tag k="created_by" v="JOSM"/>
    <tag k="highway" v="trunk"/>
    <tag k="name" v="South Coast Hwy"/>
    <tag k="surface" v="paved"/>
  </node>
  <node id="134058812" version="1" timestamp="2007-11-26T06:00:49Z" uid="4467" user="Rosscoe" changeset="621649" lat="-33.687648" lon="119.653808">
    <tag k="created_by" v="JOSM"/>
    <tag k="highway" v="trunk"/>
    <tag k="name" v="South Coast Hwy"/>
    <tag k="surface" v="paved"/>
  </node>
  <node id="134058812" version="2" timestamp="2007-12-25T05:54:21Z" uid="4467" user="Rosscoe" changeset="417063" lat="-33.687648" lon="119.653808">
    <tag k="created_by" v="JOSM"/>
    <tag k="highway" v="trunk"/>
    <tag k="name" v="South Coast Hwy"/>
    <tag k="surface" v="paved"/>
  </node>
  <node id="134058837" version="1" timestamp="2007-11-26T06:00:50Z" uid="4467" user="Rosscoe" changeset="621649" lat="-33.687772" lon="119.6535">
    <tag k="created_by" v="JOSM"/>
    <tag k="highway" v="trunk"/>
    <tag k="name" v="South Coast Hwy"/>
    <tag k="surface" v="paved"/>
  </node>
  <node id="134058837" version="2" timestamp="2007-12-25T05:53:54Z" uid="4467" user="Rosscoe" changeset="417063" lat="-33.687772" lon="119.6535">
    <tag k="created_by" v="JOSM"/>
    <tag k="highway" v="trunk"/>
    <tag k="name" v="South Coast Hwy"/>
    <tag k="surface" v="paved"/>
  </node>
  <node id="134058863" version="1" timestamp="2007-11-26T06:00:51Z" uid="4467" user="Rosscoe" changeset="621649" lat="-33.68888" lon="119.650738">
    <tag k="created_by" v="JOSM"/>
    <tag k="highway" v="trunk"/>
    <tag k="name" v="South Coast Hwy"/>
    <tag k="surface" v="paved"/>
  </node>
  <node id="134058863" version="2" timestamp="2007-12-25T05:53:57Z" uid="4467" user="Rosscoe" changeset="417063" lat="-33.68888" lon="119.650738">
    <tag k="created_by" v="JOSM"/>
    <tag k="highway" v="trunk"/>
    <tag k="name" v="South Coast Hwy"/>
    <tag k="surface" v="paved"/>
  </node>
  <node id="134058880" version="1" timestamp="2007-11-26T06:00:52Z" uid="4467" user="Rosscoe" changeset="621649" lat="-33.689005" lon="119.650433">
    <tag k="created_by" v="JOSM"/>
    <tag k="highway" v="trunk"/>
    <tag k="name" v="South Coast Hwy"/>
    <tag k="surface" v="paved"/>
  </node>
  <node id="134058880" version="2" timestamp="2007-12-25T05:54:46Z" uid="4467" user="Rosscoe" changeset="417063" lat="-33.689005" lon="119.650433">
    <tag k="created_by" v="JOSM"/>
    <tag k="highway" v="trunk"/>
    <tag k="name" v="South Coast Hwy"/>
    <tag k="surface" v="paved"/>
  </node>
  <node id="134058912" version="1" timestamp="2007-11-26T06:00:53Z" uid="4467" user="Rosscoe" changeset="621649" lat="-33.689128" lon="119.65013">
    <tag k="created_by" v="JOSM"/>
    <tag k="highway" v="trunk"/>
    <tag k="name" v="South Coast Hwy"/>
    <tag k="surface" v="paved"/>
  </node>
  <node id="134058912" version="2" timestamp="2007-12-25T05:54:54Z" uid="4467" user="Rosscoe" changeset="417063" lat="-33.689128" lon="119.65013">
    <tag k="created_by" v="JOSM"/>
    <tag k="highway" v="trunk"/>
    <tag k="name" v="South Coast Hwy"/>
    <tag k="surface" v="paved"/>
  </node>
  <node id="134058929" version="1" timestamp="2007-11-26T06:00:53Z" uid="4467" user="Rosscoe" changeset="621649" lat="-33.689253" lon="119.649822">
    <tag k="created_by" v="JOSM"/>
    <tag k="highway" v="trunk"/>
    <tag k="name" v="South Coast Hwy"/>
    <tag k="surface" v="paved"/>
  </node>
  <node id="134058929" version="2" timestamp="2007-12-25T05:55:00Z" uid="4467" user="Rosscoe" changeset="417063" lat="-33.689253" lon="119.649822">
    <tag k="created_by" v="JOSM"/>
    <tag k="highway" v="trunk"/>
    <tag k="name" v="South Coast Hwy"/>
    <tag k="surface" v="paved"/>
  </node>
  <node id="134058958" version="1" timestamp="2007-11-26T06:00:54Z" uid="4467" user="Rosscoe" changeset="621649" lat="-33.688387" lon="119.651968">
    <tag k="created_by" v="JOSM"/>
    <tag k="highway" v="trunk"/>
    <tag k="name" v="South Coast Hwy"/>
    <tag k="surface" v="paved"/>
  </node>
  <node id="134058958" version="2" timestamp="2007-12-25T05:54:28Z" uid="4467" user="Rosscoe" changeset="417063" lat="-33.688387" lon="119.651968">
    <tag k="created_by" v="JOSM"/>
    <tag k="highway" v="trunk"/>
    <tag k="name" v="South Coast Hwy"/>
    <tag k="surface" v="paved"/>
  </node>
  <node id="134058984" version="1" timestamp="2007-11-26T06:00:55Z" uid="4467" user="Rosscoe" changeset="621649" lat="-33.68851" lon="119.65166">
    <tag k="created_by" v="JOSM"/>
    <tag k="highway" v="trunk"/>
    <tag k="name" v="South Coast Hwy"/>
    <tag k="surface" v="paved"/>
  </node>
  <node id="134058984" version="2" timestamp="2007-12-25T05:54:38Z" uid="4467" user="Rosscoe" changeset="417063" lat="-33.68851" lon="119.65166">
    <tag k="created_by" v="JOSM"/>
    <tag k="highway" v="trunk"/>
    <tag k="name" v="South Coast Hwy"/>
    <tag k="surface" v="paved"/>
  </node>
  <node id="134059014" version="1" timestamp="2007-11-26T06:00:56Z" uid="4467" user="Rosscoe" changeset="621649" lat="-33.688632" lon="119.651352">
    <tag k="created_by" v="JOSM"/>
    <tag k="highway" v="trunk"/>
    <tag k="name" v="South Coast Hwy"/>
    <tag k="surface" v="paved"/>
  </node>
  <node id="134059014" version="2" timestamp="2007-12-25T05:47:35Z" uid="4467" user="Rosscoe" changeset="417063" lat="-33.688632" lon="119.651352">
    <tag k="created_by" v="JOSM"/>
    <tag k="highway" v="trunk"/>
    <tag k="name" v="South Coast Hwy"/>
    <tag k="surface" v="paved"/>
  </node>
  <node id="134059050" version="1" timestamp="2007-11-26T06:00:56Z" uid="4467" user="Rosscoe" changeset="621649" lat="-33.688753" lon="119.65105">
    <tag k="created_by" v="JOSM"/>
    <tag k="highway" v="trunk"/>
    <tag k="name" v="South Coast Hwy"/>
    <tag k="surface" v="paved"/>
  </node>
  <node id="134059050" version="2" timestamp="2007-12-25T05:47:30Z" uid="4467" user="Rosscoe" changeset="417063" lat="-33.688753" lon="119.65105">
    <tag k="created_by" v="JOSM"/>
    <tag k="highway" v="trunk"/>
    <tag k="name" v="South Coast Hwy"/>
    <tag k="surface" v="paved"/>
  </node>
  <node id="134059075" version="1" timestamp="2007-11-26T06:00:57Z" uid="4467" user="Rosscoe" changeset="621649" lat="-33.689875" lon="119.648297">
    <tag k="created_by" v="JOSM"/>
    <tag k="highway" v="trunk"/>
    <tag k="name" v="South Coast Hwy"/>
    <tag k="surface" v="paved"/>
  </node>
  <node id="134059075" version="2" timestamp="2007-12-25T05:47:54Z" uid="4467" user="Rosscoe" changeset="417063" lat="-33.689875" lon="119.648297">
    <tag k="created_by" v="JOSM"/>
    <tag k="highway" v="trunk"/>
    <tag k="name" v="South Coast Hwy"/>
    <tag k="surface" v="paved"/>
  </node>
  <node id="134059097" version="1" timestamp="2007-11-26T06:00:58Z" uid="4467" user="Rosscoe" changeset="621649" lat="-33.689998" lon="119.64799">
    <tag k="created_by" v="JOSM"/>
    <tag k="highway" v="trunk"/>
    <tag k="name" v="South Coast Hwy"/>
    <tag k="surface" v="paved"/>
  </node>
  <node id="134059097" version="2" timestamp="2007-12-25T05:47:52Z" uid="4467" user="Rosscoe" changeset="417063" lat="-33.689998" lon="119.64799">
    <tag k="created_by" v="JOSM"/>
    <tag k="highway" v="trunk"/>
    <tag k="name" v="South Coast Hwy"/>
    <tag k="surface" v="paved"/>
  </node>
  <node id="134059123" version="1" timestamp="2007-11-26T06:00:59Z" uid="4467" user="Rosscoe" changeset="621649" lat="-33.690123" lon="119.647682">
    <tag k="created_by" v="JOSM"/>
    <tag k="highway" v="trunk"/>
    <tag k="name" v="South Coast Hwy"/>
    <tag k="surface" v="paved"/>
  </node>
  <node id="134059123" version="2" timestamp="2007-12-25T05:47:41Z" uid="4467" user="Rosscoe" changeset="417063" lat="-33.690123" lon="119.647682">
    <tag k="created_by" v="JOSM"/>
    <tag k="highway" v="trunk"/>
    <tag k="name" v="South Coast Hwy"/>
    <tag k="surface" v="paved"/>
  </node>
  <node id="134059146" version="1" timestamp="2007-11-26T06:01:00Z" uid="4467" user="Rosscoe" changeset="621649" lat="-33.690247" lon="119.647378">
    <tag k="created_by" v="JOSM"/>
    <tag k="highway" v="trunk"/>
    <tag k="name" v="South Coast Hwy"/>
    <tag k="surface" v="paved"/>
  </node>
  <node id="134059146" version="2" timestamp="2007-12-25T05:48:12Z" uid="4467" user="Rosscoe" changeset="417063" lat="-33.690247" lon="119.647378">
    <tag k="created_by" v="JOSM"/>
    <tag k="highway" v="trunk"/>
    <tag k="name" v="South Coast Hwy"/>
    <tag k="surface" v="paved"/>
  </node>
  <node id="134059183" version="1" timestamp="2007-11-26T06:01:00Z" uid="4467" user="Rosscoe" changeset="621649" lat="-33.689375" lon="119.64952">
    <tag k="created_by" v="JOSM"/>
    <tag k="highway" v="trunk"/>
    <tag k="name" v="South Coast Hwy"/>
    <tag k="surface" v="paved"/>
  </node>
  <node id="134059183" version="2" timestamp="2007-12-25T05:48:04Z" uid="4467" user="Rosscoe" changeset="417063" lat="-33.689375" lon="119.64952">
    <tag k="created_by" v="JOSM"/>
    <tag k="highway" v="trunk"/>
    <tag k="name" v="South Coast Hwy"/>
    <tag k="surface" v="paved"/>
  </node>
  <node id="134059216" version="1" timestamp="2007-11-26T06:01:01Z" uid="4467" user="Rosscoe" changeset="621649" lat="-33.689497" lon="119.649217">
    <tag k="created_by" v="JOSM"/>
    <tag k="highway" v="trunk"/>
    <tag k="name" v="South Coast Hwy"/>
    <tag k="surface" v="paved"/>
  </node>
  <node id="134059216" version="2" timestamp="2007-12-25T05:48:23Z" uid="4467" user="Rosscoe" changeset="417063" lat="-33.689497" lon="119.649217">
    <tag k="created_by" v="JOSM"/>
    <tag k="highway" v="trunk"/>
    <tag k="name" v="South Coast Hwy"/>
    <tag k="surface" v="paved"/>
  </node>
  <node id="134059245" version="1" timestamp="2007-11-26T06:01:02Z" uid="4467" user="Rosscoe" changeset="621649" lat="-33.689623" lon="119.648908">
    <tag k="created_by" v="JOSM"/>
    <tag k="highway" v="trunk"/>
    <tag k="name" v="South Coast Hwy"/>
    <tag k="surface" v="paved"/>
  </node>
  <node id="134059245" version="2" timestamp="2007-12-25T05:48:20Z" uid="4467" user="Rosscoe" changeset="417063" lat="-33.689623" lon="119.648908">
    <tag k="created_by" v="JOSM"/>
    <tag k="highway" v="trunk"/>
    <tag k="name" v="South Coast Hwy"/>
    <tag k="surface" v="paved"/>
  </node>
  <node id="134059275" version="1" timestamp="2007-11-26T06:01:03Z" uid="4467" user="Rosscoe" changeset="621649" lat="-33.68975" lon="119.648602">
    <tag k="created_by" v="JOSM"/>
    <tag k="highway" v="trunk"/>
    <tag k="name" v="South Coast Hwy"/>
    <tag k="surface" v="paved"/>
  </node>
  <node id="134059275" version="2" timestamp="2007-12-25T05:46:26Z" uid="4467" user="Rosscoe" changeset="417063" lat="-33.68975" lon="119.648602">
    <tag k="created_by" v="JOSM"/>
    <tag k="highway" v="trunk"/>
    <tag k="name" v="South Coast Hwy"/>
    <tag k="surface" v="paved"/>
  </node>
  <node id="134059291" version="1" timestamp="2007-11-26T06:01:03Z" uid="4467" user="Rosscoe" changeset="621649" lat="-33.690872" lon="119.645837">
    <tag k="created_by" v="JOSM"/>
    <tag k="highway" v="trunk"/>
    <tag k="name" v="South Coast Hwy"/>
    <tag k="surface" v="paved"/>
  </node>
  <node id="134059291" version="2" timestamp="2007-12-25T05:46:30Z" uid="4467" user="Rosscoe" changeset="417063" lat="-33.690872" lon="119.645837">
    <tag k="created_by" v="JOSM"/>
    <tag k="highway" v="trunk"/>
    <tag k="name" v="South Coast Hwy"/>
    <tag k="surface" v="paved"/>
  </node>
  <node id="134059310" version="1" timestamp="2007-11-26T06:01:04Z" uid="4467" user="Rosscoe" changeset="621649" lat="-33.690995" lon="119.645533">
    <tag k="created_by" v="JOSM"/>
    <tag k="highway" v="trunk"/>
    <tag k="name" v="South Coast Hwy"/>
    <tag k="surface" v="paved"/>
  </node>
  <node id="134059310" version="2" timestamp="2007-12-25T05:46:16Z" uid="4467" user="Rosscoe" changeset="417063" lat="-33.690995" lon="119.645533">
    <tag k="created_by" v="JOSM"/>
    <tag k="highway" v="trunk"/>
    <tag k="name" v="South Coast Hwy"/>
    <tag k="surface" v="paved"/>
  </node>
  <node id="134059336" version="1" timestamp="2007-11-26T06:01:05Z" uid="4467" user="Rosscoe" changeset="621649" lat="-33.69112" lon="119.64522">
    <tag k="created_by" v="JOSM"/>
    <tag k="highway" v="trunk"/>
    <tag k="name" v="South Coast Hwy"/>
    <tag k="surface" v="paved"/>
  </node>
  <node id="134059336" version="2" timestamp="2007-12-25T05:46:45Z" uid="4467" user="Rosscoe" changeset="417063" lat="-33.69112" lon="119.64522">
    <tag k="created_by" v="JOSM"/>
    <tag k="highway" v="trunk"/>
    <tag k="name" v="South Coast Hwy"/>
    <tag k="surface" v="paved"/>
  </node>
  <node id="134059365" version="1" timestamp="2007-11-26T06:01:06Z" uid="4467" user="Rosscoe" changeset="621649" lat="-33.691245" lon="119.644915">
    <tag k="created_by" v="JOSM"/>
    <tag k="highway" v="trunk"/>
    <tag k="name" v="South Coast Hwy"/>
    <tag k="surface" v="paved"/>
  </node>
  <node id="134059365" version="2" timestamp="2007-12-25T05:46:33Z" uid="4467" user="Rosscoe" changeset="417063" lat="-33.691245" lon="119.644915">
    <tag k="created_by" v="JOSM"/>
    <tag k="highway" v="trunk"/>
    <tag k="name" v="South Coast Hwy"/>
    <tag k="surface" v="paved"/>
  </node>
  <node id="134059393" version="1" timestamp="2007-11-26T06:01:07Z" uid="4467" user="Rosscoe" changeset="621649" lat="-33.690372" lon="119.64707">
    <tag k="created_by" v="JOSM"/>
    <tag k="highway" v="trunk"/>
    <tag k="name" v="South Coast Hwy"/>
    <tag k="surface" v="paved"/>
  </node>
  <node id="134059393" version="2" timestamp="2007-12-25T05:47:02Z" uid="4467" user="Rosscoe" changeset="417063" lat="-33.690372" lon="119.64707">
    <tag k="created_by" v="JOSM"/>
    <tag k="highway" v="trunk"/>
    <tag k="name" v="South Coast Hwy"/>
    <tag k="surface" v="paved"/>
  </node>
  <node id="134059431" version="1" timestamp="2007-11-26T06:01:07Z" uid="4467" user="Rosscoe" changeset="621649" lat="-33.690498" lon="119.646755">
    <tag k="created_by" v="JOSM"/>
    <tag k="highway" v="trunk"/>
    <tag k="name" v="South Coast Hwy"/>
    <tag k="surface" v="paved"/>
  </node>
  <node id="134059431" version="2" timestamp="2007-12-25T05:46:52Z" uid="4467" user="Rosscoe" changeset="417063" lat="-33.690498" lon="119.646755">
    <tag k="created_by" v="JOSM"/>
    <tag k="highway" v="trunk"/>
    <tag k="name" v="South Coast Hwy"/>
    <tag k="surface" v="paved"/>
  </node>
  <node id="134059461" version="1" timestamp="2007-11-26T06:01:08Z" uid="4467" user="Rosscoe" changeset="621649" lat="-33.690623" lon="119.64645">
    <tag k="created_by" v="JOSM"/>
    <tag k="highway" v="trunk"/>
    <tag k="name" v="South Coast Hwy"/>
    <tag k="surface" v="paved"/>
  </node>
  <node id="134059461" version="2" timestamp="2007-12-25T05:47:17Z" uid="4467" user="Rosscoe" changeset="417063" lat="-33.690623" lon="119.64645">
    <tag k="created_by" v="JOSM"/>
    <tag k="highway" v="trunk"/>
    <tag k="name" v="South Coast Hwy"/>
    <tag k="surface" v="paved"/>
  </node>
  <node id="134059480" version="1" timestamp="2007-11-26T06:01:09Z" uid="4467" user="Rosscoe" changeset="621649" lat="-33.690747" lon="119.646145">
    <tag k="created_by" v="JOSM"/>
    <tag k="highway" v="trunk"/>
    <tag k="name" v="South Coast Hwy"/>
    <tag k="surface" v="paved"/>
  </node>
  <node id="134059480" version="2" timestamp="2007-12-25T05:47:20Z" uid="4467" user="Rosscoe" changeset="417063" lat="-33.690747" lon="119.646145">
    <tag k="created_by" v="JOSM"/>
    <tag k="highway" v="trunk"/>
    <tag k="name" v="South Coast Hwy"/>
    <tag k="surface" v="paved"/>
  </node>
  <node id="134059500" version="1" timestamp="2007-11-26T06:01:10Z" uid="4467" user="Rosscoe" changeset="621649" lat="-33.691862" lon="119.643377">
    <tag k="created_by" v="JOSM"/>
    <tag k="highway" v="trunk"/>
    <tag k="name" v="South Coast Hwy"/>
    <tag k="surface" v="paved"/>
  </node>
  <node id="134059500" version="2" timestamp="2007-12-25T05:47:09Z" uid="4467" user="Rosscoe" changeset="417063" lat="-33.691862" lon="119.643377">
    <tag k="created_by" v="JOSM"/>
    <tag k="highway" v="trunk"/>
    <tag k="name" v="South Coast Hwy"/>
    <tag k="surface" v="paved"/>
  </node>
  <node id="134059523" version="1" timestamp="2007-11-26T06:01:11Z" uid="4467" user="Rosscoe" changeset="621649" lat="-33.691985" lon="119.643073">
    <tag k="created_by" v="JOSM"/>
    <tag k="highway" v="trunk"/>
    <tag k="name" v="South Coast Hwy"/>
    <tag k="surface" v="paved"/>
  </node>
  <node id="134059523" version="2" timestamp="2007-12-25T05:49:55Z" uid="4467" user="Rosscoe" changeset="417063" lat="-33.691985" lon="119.643073">
    <tag k="created_by" v="JOSM"/>
    <tag k="highway" v="trunk"/>
    <tag k="name" v="South Coast Hwy"/>
    <tag k="surface" v="paved"/>
  </node>
  <node id="134059538" version="1" timestamp="2007-11-26T06:01:11Z" uid="4467" user="Rosscoe" changeset="621649" lat="-33.692107" lon="119.642768">
    <tag k="created_by" v="JOSM"/>
    <tag k="highway" v="trunk"/>
    <tag k="name" v="South Coast Hwy"/>
    <tag k="surface" v="paved"/>
  </node>
  <node id="134059538" version="2" timestamp="2007-12-25T05:49:49Z" uid="4467" user="Rosscoe" changeset="417063" lat="-33.692107" lon="119.642768">
    <tag k="created_by" v="JOSM"/>
    <tag k="highway" v="trunk"/>
    <tag k="name" v="South Coast Hwy"/>
    <tag k="surface" v="paved"/>
  </node>
  <node id="134059556" version="1" timestamp="2007-11-26T06:01:12Z" uid="4467" user="Rosscoe" changeset="621649" lat="-33.692228" lon="119.64246">
    <tag k="created_by" v="JOSM"/>
    <tag k="highway" v="trunk"/>
    <tag k="name" v="South Coast Hwy"/>
    <tag k="surface" v="paved"/>
  </node>
  <node id="134059556" version="2" timestamp="2007-12-25T05:50:04Z" uid="4467" user="Rosscoe" changeset="417063" lat="-33.692228" lon="119.64246">
    <tag k="created_by" v="JOSM"/>
    <tag k="highway" v="trunk"/>
    <tag k="name" v="South Coast Hwy"/>
    <tag k="surface" v="paved"/>
  </node>
  <node id="134059583" version="1" timestamp="2007-11-26T06:01:13Z" uid="4467" user="Rosscoe" changeset="621649" lat="-33.691367" lon="119.644608">
    <tag k="created_by" v="JOSM"/>
    <tag k="highway" v="trunk"/>
    <tag k="name" v="South Coast Hwy"/>
    <tag k="surface" v="paved"/>
  </node>
  <node id="134059583" version="2" timestamp="2007-12-25T05:50:02Z" uid="4467" user="Rosscoe" changeset="417063" lat="-33.691367" lon="119.644608">
    <tag k="created_by" v="JOSM"/>
    <tag k="highway" v="trunk"/>
    <tag k="name" v="South Coast Hwy"/>
    <tag k="surface" v="paved"/>
  </node>
  <node id="134059605" version="1" timestamp="2007-11-26T06:01:14Z" uid="4467" user="Rosscoe" changeset="621649" lat="-33.691488" lon="119.644298">
    <tag k="created_by" v="JOSM"/>
    <tag k="highway" v="trunk"/>
    <tag k="name" v="South Coast Hwy"/>
    <tag k="surface" v="paved"/>
  </node>
  <node id="134059605" version="2" timestamp="2007-12-25T05:50:08Z" uid="4467" user="Rosscoe" changeset="417063" lat="-33.691488" lon="119.644298">
    <tag k="created_by" v="JOSM"/>
    <tag k="highway" v="trunk"/>
    <tag k="name" v="South Coast Hwy"/>
    <tag k="surface" v="paved"/>
  </node>
  <node id="134059623" version="1" timestamp="2007-11-26T06:01:14Z" uid="4467" user="Rosscoe" changeset="621649" lat="-33.691612" lon="119.643992">
    <tag k="created_by" v="JOSM"/>
    <tag k="highway" v="trunk"/>
    <tag k="name" v="South Coast Hwy"/>
    <tag k="surface" v="paved"/>
  </node>
  <node id="134059623" version="2" timestamp="2007-12-25T05:50:27Z" uid="4467" user="Rosscoe" changeset="417063" lat="-33.691612" lon="119.643992">
    <tag k="created_by" v="JOSM"/>
    <tag k="highway" v="trunk"/>
    <tag k="name" v="South Coast Hwy"/>
    <tag k="surface" v="paved"/>
  </node>
  <node id="134059642" version="1" timestamp="2007-11-26T06:01:15Z" uid="4467" user="Rosscoe" changeset="621649" lat="-33.691737" lon="119.643688">
    <tag k="created_by" v="JOSM"/>
    <tag k="highway" v="trunk"/>
    <tag k="name" v="South Coast Hwy"/>
    <tag k="surface" v="paved"/>
  </node>
  <node id="134059642" version="2" timestamp="2007-12-25T05:50:25Z" uid="4467" user="Rosscoe" changeset="417063" lat="-33.691737" lon="119.643688">
    <tag k="created_by" v="JOSM"/>
    <tag k="highway" v="trunk"/>
    <tag k="name" v="South Coast Hwy"/>
    <tag k="surface" v="paved"/>
  </node>
  <node id="134059664" version="1" timestamp="2007-11-26T06:01:16Z" uid="4467" user="Rosscoe" changeset="621649" lat="-33.692777" lon="119.640895">
    <tag k="created_by" v="JOSM"/>
    <tag k="highway" v="trunk"/>
    <tag k="name" v="South Coast Hwy"/>
    <tag k="surface" v="paved"/>
  </node>
  <node id="134059664" version="2" timestamp="2007-12-25T05:50:34Z" uid="4467" user="Rosscoe" changeset="417063" lat="-33.692777" lon="119.640895">
    <tag k="created_by" v="JOSM"/>
    <tag k="highway" v="trunk"/>
    <tag k="name" v="South Coast Hwy"/>
    <tag k="surface" v="paved"/>
  </node>
  <node id="134059685" version="1" timestamp="2007-11-26T06:01:17Z" uid="4467" user="Rosscoe" changeset="621649" lat="-33.692878" lon="119.640575">
    <tag k="created_by" v="JOSM"/>
    <tag k="highway" v="trunk"/>
    <tag k="name" v="South Coast Hwy"/>
    <tag k="surface" v="paved"/>
  </node>
  <node id="134059685" version="2" timestamp="2007-12-25T07:56:47Z" uid="4467" user="Rosscoe" changeset="422154" lat="-33.692878" lon="119.640575">
    <tag k="created_by" v="JOSM"/>
    <tag k="highway" v="trunk"/>
    <tag k="name" v="South Coast Hwy"/>
    <tag k="surface" v="paved"/>
  </node>
  <node id="134059706" version="1" timestamp="2007-11-26T06:01:18Z" uid="4467" user="Rosscoe" changeset="621649" lat="-33.692978" lon="119.640255">
    <tag k="created_by" v="JOSM"/>
    <tag k="highway" v="trunk"/>
    <tag k="name" v="South Coast Hwy"/>
    <tag k="surface" v="paved"/>
  </node>
  <node id="134059706" version="2" timestamp="2007-12-25T05:50:43Z" uid="4467" user="Rosscoe" changeset="417063" lat="-33.692978" lon="119.640255">
    <tag k="created_by" v="JOSM"/>
    <tag k="highway" v="trunk"/>
    <tag k="name" v="South Coast Hwy"/>
    <tag k="surface" v="paved"/>
  </node>
  <node id="134059733" version="1" timestamp="2007-11-26T06:01:19Z" uid="4467" user="Rosscoe" changeset="621649" lat="-33.693077" lon="119.639937">
    <tag k="created_by" v="JOSM"/>
    <tag k="highway" v="trunk"/>
    <tag k="name" v="South Coast Hwy"/>
    <tag k="surface" v="paved"/>
  </node>
  <node id="134059733" version="2" timestamp="2007-12-25T05:50:54Z" uid="4467" user="Rosscoe" changeset="417063" lat="-33.693077" lon="119.639937">
    <tag k="created_by" v="JOSM"/>
    <tag k="highway" v="trunk"/>
    <tag k="name" v="South Coast Hwy"/>
    <tag k="surface" v="paved"/>
  </node>
  <node id="134059756" version="1" timestamp="2007-11-26T06:01:19Z" uid="4467" user="Rosscoe" changeset="621649" lat="-33.692347" lon="119.642153">
    <tag k="created_by" v="JOSM"/>
    <tag k="highway" v="trunk"/>
    <tag k="name" v="South Coast Hwy"/>
    <tag k="surface" v="paved"/>
  </node>
  <node id="134059756" version="2" timestamp="2007-12-25T05:51:09Z" uid="4467" user="Rosscoe" changeset="417063" lat="-33.692347" lon="119.642153">
    <tag k="created_by" v="JOSM"/>
    <tag k="highway" v="trunk"/>
    <tag k="name" v="South Coast Hwy"/>
    <tag k="surface" v="paved"/>
  </node>
  <node id="134059780" version="1" timestamp="2007-11-26T06:01:20Z" uid="4467" user="Rosscoe" changeset="621649" lat="-33.692457" lon="119.641848">
    <tag k="created_by" v="JOSM"/>
    <tag k="highway" v="trunk"/>
    <tag k="name" v="South Coast Hwy"/>
    <tag k="surface" v="paved"/>
  </node>
  <node id="134059780" version="2" timestamp="2007-12-25T05:48:29Z" uid="4467" user="Rosscoe" changeset="417063" lat="-33.692457" lon="119.641848">
    <tag k="created_by" v="JOSM"/>
    <tag k="highway" v="trunk"/>
    <tag k="name" v="South Coast Hwy"/>
    <tag k="surface" v="paved"/>
  </node>
  <node id="134059798" version="1" timestamp="2007-11-26T06:01:21Z" uid="4467" user="Rosscoe" changeset="621649" lat="-33.692568" lon="119.641532">
    <tag k="created_by" v="JOSM"/>
    <tag k="highway" v="trunk"/>
    <tag k="name" v="South Coast Hwy"/>
    <tag k="surface" v="paved"/>
  </node>
  <node id="134059798" version="2" timestamp="2007-12-25T05:48:34Z" uid="4467" user="Rosscoe" changeset="417063" lat="-33.692568" lon="119.641532">
    <tag k="created_by" v="JOSM"/>
    <tag k="highway" v="trunk"/>
    <tag k="name" v="South Coast Hwy"/>
    <tag k="surface" v="paved"/>
  </node>
  <node id="134059811" version="1" timestamp="2007-11-26T06:01:22Z" uid="4467" user="Rosscoe" changeset="621649" lat="-33.692673" lon="119.641215">
    <tag k="created_by" v="JOSM"/>
    <tag k="highway" v="trunk"/>
    <tag k="name" v="South Coast Hwy"/>
    <tag k="surface" v="paved"/>
  </node>
  <node id="134059811" version="2" timestamp="2007-12-25T05:48:39Z" uid="4467" user="Rosscoe" changeset="417063" lat="-33.692673" lon="119.641215">
    <tag k="created_by" v="JOSM"/>
    <tag k="highway" v="trunk"/>
    <tag k="name" v="South Coast Hwy"/>
    <tag k="surface" v="paved"/>
  </node>
  <node id="134059834" version="1" timestamp="2007-11-26T06:01:22Z" uid="4467" user="Rosscoe" changeset="621649" lat="-33.693578" lon="119.638345">
    <tag k="created_by" v="JOSM"/>
    <tag k="highway" v="trunk"/>
    <tag k="name" v="South Coast Hwy"/>
    <tag k="surface" v="paved"/>
  </node>
  <node id="134059834" version="2" timestamp="2007-12-25T05:48:44Z" uid="4467" user="Rosscoe" changeset="417063" lat="-33.693578" lon="119.638345">
    <tag k="created_by" v="JOSM"/>
    <tag k="highway" v="trunk"/>
    <tag k="name" v="South Coast Hwy"/>
    <tag k="surface" v="paved"/>
  </node>
  <node id="134059850" version="2" timestamp="2009-10-15T09:42:54Z" uid="99207" user="Lar Kiesel" changeset="2852855" lat="40.698728" lon="-97.595841">
    <tag k="source" v="tiger_import_dch_v0.6_20070813"/>
    <tag k="tiger:county" v="Fillmore, NE"/>
    <tag k="tiger:tlid" v="39389382:39391918:39394876:39394879:39393431"/>
    <tag k="tiger:upload_uuid" v="bulk_upload.pl-9443b768-d8b1-4758-b3b1-cdbd7e5c8bdc"/>
  </node>
  <node id="134059852" version="1" timestamp="2007-11-26T06:01:23Z" uid="4467" user="Rosscoe" changeset="621649" lat="-33.693677" lon="119.63803">
    <tag k="created_by" v="JOSM"/>
    <tag k="highway" v="trunk"/>
    <tag k="name" v="South Coast Hwy"/>
    <tag k="surface" v="paved"/>
  </node>
  <node id="134059852" version="2" timestamp="2007-12-25T05:48:50Z" uid="4467" user="Rosscoe" changeset="417063" lat="-33.693677" lon="119.63803">
    <tag k="created_by" v="JOSM"/>
    <tag k="highway" v="trunk"/>
    <tag k="name" v="South Coast Hwy"/>
    <tag k="surface" v="paved"/>
  </node>
  <node id="134059879" version="1" timestamp="2007-11-26T06:01:24Z" uid="4467" user="Rosscoe" changeset="621649" lat="-33.693778" lon="119.637707">
    <tag k="created_by" v="JOSM"/>
    <tag k="highway" v="trunk"/>
    <tag k="name" v="South Coast Hwy"/>
    <tag k="surface" v="paved"/>
  </node>
  <node id="134059879" version="2" timestamp="2007-12-25T05:48:57Z" uid="4467" user="Rosscoe" changeset="417063" lat="-33.693778" lon="119.637707">
    <tag k="created_by" v="JOSM"/>
    <tag k="highway" v="trunk"/>
    <tag k="name" v="South Coast Hwy"/>
    <tag k="surface" v="paved"/>
  </node>
  <node id="134059902" version="1" timestamp="2007-11-26T06:01:25Z" uid="4467" user="Rosscoe" changeset="621649" lat="-33.69388" lon="119.637385">
    <tag k="created_by" v="JOSM"/>
    <tag k="highway" v="trunk"/>
    <tag k="name" v="South Coast Hwy"/>
    <tag k="surface" v="paved"/>
  </node>
  <node id="134059902" version="2" timestamp="2007-12-25T05:49:05Z" uid="4467" user="Rosscoe" changeset="417063" lat="-33.69388" lon="119.637385">
    <tag k="created_by" v="JOSM"/>
    <tag k="highway" v="trunk"/>
    <tag k="name" v="South Coast Hwy"/>
    <tag k="surface" v="paved"/>
  </node>
  <node id="134059904" version="1" timestamp="2007-11-26T06:01:26Z" uid="4467" user="Rosscoe" changeset="621649" lat="-33.69318" lon="119.639613">
    <tag k="created_by" v="JOSM"/>
    <tag k="highway" v="trunk"/>
    <tag k="name" v="South Coast Hwy"/>
    <tag k="surface" v="paved"/>
  </node>
  <node id="134059904" version="2" timestamp="2007-12-25T05:49:10Z" uid="4467" user="Rosscoe" changeset="417063" lat="-33.69318" lon="119.639613">
    <tag k="created_by" v="JOSM"/>
    <tag k="highway" v="trunk"/>
    <tag k="name" v="South Coast Hwy"/>
    <tag k="surface" v="paved"/>
  </node>
  <node id="134059930" version="1" timestamp="2007-11-26T06:01:26Z" uid="4467" user="Rosscoe" changeset="621649" lat="-33.69328" lon="119.639297">
    <tag k="created_by" v="JOSM"/>
    <tag k="highway" v="trunk"/>
    <tag k="name" v="South Coast Hwy"/>
    <tag k="surface" v="paved"/>
  </node>
  <node id="134059930" version="2" timestamp="2007-12-25T05:49:13Z" uid="4467" user="Rosscoe" changeset="417063" lat="-33.69328" lon="119.639297">
    <tag k="created_by" v="JOSM"/>
    <tag k="highway" v="trunk"/>
    <tag k="name" v="South Coast Hwy"/>
    <tag k="surface" v="paved"/>
  </node>
  <node id="134059960" version="1" timestamp="2007-11-26T06:01:27Z" uid="4467" user="Rosscoe" changeset="621649" lat="-33.693378" lon="119.638982">
    <tag k="created_by" v="JOSM"/>
    <tag k="highway" v="trunk"/>
    <tag k="name" v="South Coast Hwy"/>
    <tag k="surface" v="paved"/>
  </node>
  <node id="134059960" version="2" timestamp="2007-12-25T05:49:22Z" uid="4467" user="Rosscoe" changeset="417063" lat="-33.693378" lon="119.638982">
    <tag k="created_by" v="JOSM"/>
    <tag k="highway" v="trunk"/>
    <tag k="name" v="South Coast Hwy"/>
    <tag k="surface" v="paved"/>
  </node>
  <node id="134059976" version="1" timestamp="2007-11-26T06:01:28Z" uid="4467" user="Rosscoe" changeset="621649" lat="-33.693478" lon="119.638665">
    <tag k="created_by" v="JOSM"/>
    <tag k="highway" v="trunk"/>
    <tag k="name" v="South Coast Hwy"/>
    <tag k="surface" v="paved"/>
  </node>
  <node id="134059976" version="2" timestamp="2007-12-25T05:49:29Z" uid="4467" user="Rosscoe" changeset="417063" lat="-33.693478" lon="119.638665">
    <tag k="created_by" v="JOSM"/>
    <tag k="highway" v="trunk"/>
    <tag k="name" v="South Coast Hwy"/>
    <tag k="surface" v="paved"/>
  </node>
  <node id="134059990" version="2" timestamp="2009-10-15T18:12:13Z" uid="99207" user="Lar Kiesel" changeset="2857426" lat="40.6257253" lon="-97.5956725">
    <tag k="source" v="tiger_import_dch_v0.6_20070813"/>
    <tag k="tiger:county" v="Fillmore, NE"/>
    <tag k="tiger:tlid" v="39392900:39392901:39392904:39392908:39391127:39391129"/>
    <tag k="tiger:upload_uuid" v="bulk_upload.pl-9443b768-d8b1-4758-b3b1-cdbd7e5c8bdc"/>
  </node>
  <node id="134059990" version="3" timestamp="2009-12-05T09:19:51Z" uid="147510" user="woodpeck_fixbot" changeset="3293696" lat="40.6257253" lon="-97.5956725"/>
  <node id="134059990" version="4" timestamp="2011-12-23T07:28:48Z" uid="262151" user="ToeBee" changeset="10184956" lat="40.6257253" lon="-97.5956725"/>
  <node id="134059999" version="1" timestamp="2007-11-26T06:01:29Z" uid="4467" user="Rosscoe" changeset="621649" lat="-33.694382" lon="119.635797">
    <tag k="created_by" v="JOSM"/>
    <tag k="highway" v="trunk"/>
    <tag k="name" v="South Coast Hwy"/>
    <tag k="surface" v="paved"/>
  </node>
  <node id="134059999" version="2" timestamp="2007-12-25T05:49:34Z" uid="4467" user="Rosscoe" changeset="417063" lat="-33.694382" lon="119.635797">
    <tag k="created_by" v="JOSM"/>
    <tag k="highway" v="trunk"/>
    <tag k="name" v="South Coast Hwy"/>
    <tag k="surface" v="paved"/>
  </node>
</osm>
