<?xml version='1.0' encoding='UTF-8'?>
<osm version="0.6" generator="libosmium/2.20.0">
  <node id="134330087" version="2" timestamp="2007-11-26T18:06:57Z" uid="9581" user="Lobelt" changeset="627021" lat="51.4564175" lon="13.8704669">
    <tag k="created_by" v="Potlatch 0.5d"/>
    <tag k="railway" v="station"/>
  </node>
  <node id="134330087" version="7" timestamp="2007-12-03T14:45:26Z" uid="19651" user="velofreak" changeset="52183" lat="51.4564277" lon="13.8704736">
    <tag k="created_by" v="Potlatch 0.5d"/>
    <tag k="name" v="Ruhland"/>
    <tag k="railway" v="station"/>
  </node>
  <node id="134330087" version="8" timestamp="2007-12-03T16:16:39Z" uid="19651" user="velofreak" changeset="62110" lat="51.4564311" lon="13.8704729">
    <tag k="created_by" v="Potlatch 0.5d"/>
    <tag k="name" v="Ruhland"/>
    <tag k="railway" v="station"/>
  </node>
  <node id="134330087" version="9" timestamp="2007-12-07T08:41:00Z" uid="19651" user="velofreak" changeset="174356" lat="51.4564335" lon="13.8704872">
    <tag k="created_by" v="Potlatch 0.5d"/>
    <tag k="name" v="Ruhland"/>
    <tag k="railway" v="station"/>
  </node>
  <node id="134330087" version="10" timestamp="2008-12-07T10:55:02Z" uid="83676" user="PaulTs" changeset="220942" lat="51.455465" lon="13.8696827">
    <tag k="created_by" v="Potlatch 0.10f"/>
    <tag k="name" v="Ruhland"/>
    <tag k="railway" v="station"/>
  </node>
  <node id="134330087" version="11" timestamp="2008-12-07T20:21:28Z" uid="83676" user="PaulTs" changeset="250504" lat="51.4555314" lon="13.869799">
    <tag k="created_by" v="Potlatch 0.10f"/>
    <tag k="name" v="Ruhland"/>
    <tag k="railway" v="station"/>
  </node>
  <node id="134330087" version="12" timestamp="2009-08-09T18:03:31Z" uid="109925" user="WanMil" changeset="2088969" lat="51.4555314" lon="13.869799">
    <tag k="name" v="Ruhland"/>
    <tag k="railway" v="station"/>
  </node>
  <node id="134330087" version="13" timestamp="2010-05-24T05:07:27Z" uid="5359" user="user_5359" changeset="4789763" lat="51.4555314" lon="13.869799">
    <tag k="name" v="Ruhland"/>
    <tag k="railway" v="station"/>
    <tag k="wheelchair" v="no"/>
  </node>
  <node id="134330087" version="14" timestamp="2010-07-13T19:42:58Z" uid="15720" user="J budissin" changeset="5211413" lat="51.4555314" lon="13.869799">
    <tag k="name" v="Ruhland"/>
    <tag k="name:hsb" v="Rólany"/>
    <tag k="railway" v="station"/>
    <tag k="wheelchair" v="no"/>
  </node>
  <node id="134330087" version="15" timestamp="2011-02-07T21:19:13Z" uid="358948" user="Lutze64" changeset="7220917" lat="51.455511" lon="13.8697883">
    <tag k="name" v="Ruhland"/>
    <tag k="name:hsb" v="Rólany"/>
    <tag k="railway" v="station"/>
    <tag k="wheelchair" v="no"/>
  </node>
  <node id="134330087" version="16" timestamp="2011-02-08T18:41:41Z" uid="358948" user="Lutze64" changeset="7229270" lat="51.4554913" lon="13.8697046">
    <tag k="name" v="Ruhland"/>
    <tag k="name:hsb" v="Rólany"/>
    <tag k="railway" v="station"/>
    <tag k="wheelchair" v="no"/>
  </node>
  <node id="134330087" version="17" timestamp="2011-02-15T21:00:10Z" uid="358948" user="Lutze64" changeset="7299012" lat="51.4550768" lon="13.8688232">
    <tag k="name" v="Ruhland"/>
    <tag k="name:hsb" v="Rólany"/>
    <tag k="railway" v="station"/>
    <tag k="wheelchair" v="no"/>
  </node>
  <node id="134330087" version="18" timestamp="2011-09-18T10:36:16Z" uid="83876" user="BurnyB" changeset="9331291" lat="51.4554473" lon="13.8697009">
    <tag k="name" v="Ruhland"/>
    <tag k="name:hsb" v="Rólany"/>
    <tag k="railway" v="station"/>
    <tag k="wheelchair" v="no"/>
  </node>
  <node id="134331682" version="2" timestamp="2007-11-26T18:06:39Z" uid="9581" user="Lobelt" changeset="627021" lat="51.4733681" lon="13.8901221">
    <tag k="created_by" v="Potlatch 0.5d"/>
    <tag k="railway" v="halt"/>
  </node>
  <node id="134331682" version="5" timestamp="2009-08-09T18:03:32Z" uid="109925" user="WanMil" changeset="2088969" lat="51.4733682" lon="13.8901252">
    <tag k="name" v="Schwarzheide"/>
    <tag k="railway" v="halt"/>
  </node>
  <node id="134331682" version="6" timestamp="2010-05-24T05:33:48Z" uid="5359" user="user_5359" changeset="4789839" lat="51.4733682" lon="13.8901252">
    <tag k="name" v="Schwarzheide"/>
    <tag k="railway" v="halt"/>
    <tag k="wheelchair" v="yes"/>
  </node>
  <node id="134331682" version="7" timestamp="2010-11-18T11:34:09Z" uid="358948" user="Lutze64" changeset="6399324" lat="51.4733682" lon="13.8901251">
    <tag k="name" v="Schwarzheide Ost"/>
    <tag k="railway" v="halt"/>
    <tag k="wheelchair" v="yes"/>
  </node>
  <node id="134331682" version="8" timestamp="2010-12-08T12:37:13Z" uid="358948" user="Lutze64" changeset="6584750" lat="51.4735224" lon="13.8903364">
    <tag k="name" v="Schwarzheide Ost"/>
    <tag k="railway" v="halt"/>
    <tag k="wheelchair" v="yes"/>
  </node>
  <node id="134331682" version="9" timestamp="2011-06-08T18:07:14Z" uid="28234" user="derandi" changeset="8381913" lat="51.4737776" lon="13.8909978">
    <tag k="name" v="Schwarzheide Ost"/>
    <tag k="railway" v="halt"/>
    <tag k="wheelchair" v="yes"/>
  </node>
  <node id="134335291" version="3" timestamp="2009-10-16T21:08:42Z" uid="99207" user="Lar Kiesel" changeset="2869125" lat="40.2177229" lon="-96.9163243"/>
  <node id="134335292" version="3" timestamp="2009-10-16T21:08:46Z" uid="99207" user="Lar Kiesel" changeset="2869125" lat="40.217744" lon="-96.916243"/>
  <node id="134339369" version="1" timestamp="2007-11-26T08:37:15Z" uid="7617" user="Franc" changeset="626785" lat="-33.9245148" lon="151.1226234">
    <tag k="created_by" v="JOSM"/>
  </node>
  <node id="134339369" version="2" timestamp="2007-12-21T22:47:04Z" uid="7617" user="Franc" changeset="387092" lat="-33.9245148" lon="151.1226234">
    <tag k="created_by" v="JOSM"/>
  </node>
</osm>
