<?xml version='1.0' encoding='UTF-8'?>
<osm version="0.6" generator="libosmium/2.20.0">
  <node id="135000455" version="3" timestamp="2009-11-12T08:04:02Z" uid="99207" user="Lar Kiesel" changeset="3095906" lat="40.9046492" lon="-96.5208845"/>
  <node id="135001872" version="2" timestamp="2008-07-06T09:01:09Z" uid="6975" user="ulfl" changeset="407266" lat="-51.6926778" lon="-57.86679">
    <tag k="name" v="Stanley power station"/>
    <tag k="power" v="generator"/>
    <tag k="power_source" v="fossil"/>
    <tag k="source" v="Falkland Islands Government (Public Works Department)"/>
  </node>
  <node id="135001872" version="3" timestamp="2010-07-16T09:43:35Z" uid="67896" user="mrpulley" changeset="5233466" lat="-51.6937047" lon="-57.8710247">
    <tag k="name" v="Stanley power station"/>
    <tag k="power" v="generator"/>
    <tag k="power_source" v="fossil"/>
    <tag k="source" v="Falkland Islands Government (Public Works Department)"/>
  </node>
  <node id="135001872" version="4" timestamp="2011-06-03T22:55:03Z" uid="297482" user="don-vip" changeset="8334905" lat="-51.6937047" lon="-57.8710247">
    <tag k="generator:source" v="fossil"/>
    <tag k="name" v="Stanley power station"/>
    <tag k="power" v="generator"/>
    <tag k="source" v="Falkland Islands Government (Public Works Department)"/>
  </node>
</osm>
