<?xml version='1.0' encoding='UTF-8'?>
<osm version="0.6" generator="libosmium/2.20.0">
  <node id="135022969" version="3" timestamp="2009-10-26T01:23:48Z" uid="99207" user="Lar Kiesel" changeset="2952873" lat="41.105868" lon="-100.730142">
    <tag k="highway" v="motorway_junction"/>
    <tag k="name" v="L-56G to US 30; North Platte"/>
    <tag k="ref" v="179"/>
  </node>
  <node id="135022969" version="4" timestamp="2010-12-20T00:17:33Z" uid="262151" user="ToeBee" changeset="6712066" lat="41.1060898" lon="-100.7313895">
    <tag k="highway" v="motorway_junction"/>
    <tag k="name" v="L-56G to US 30; North Platte"/>
    <tag k="ref" v="179"/>
  </node>
  <node id="135022969" version="5" timestamp="2011-04-06T18:22:13Z" uid="207745" user="NE2" changeset="7787398" lat="41.1060898" lon="-100.7313895">
    <tag k="exit_to" v="L-56G to US 30; North Platte"/>
    <tag k="highway" v="motorway_junction"/>
    <tag k="ref" v="179"/>
  </node>
  <node id="135024464" version="2" timestamp="2009-11-09T02:47:05Z" uid="99207" user="Lar Kiesel" changeset="3070393" lat="40.8165614" lon="-96.7589335">
    <tag k="source" v="tiger_import_dch_v0.6_20070813"/>
    <tag k="tiger:county" v="Lancaster, NE"/>
    <tag k="tiger:tlid" v="28301707"/>
    <tag k="tiger:upload_uuid" v="bulk_upload.pl-96e3018e-759d-454b-b058-e03c697b1ad6"/>
  </node>
  <node id="135024464" version="3" timestamp="2009-12-08T08:38:55Z" uid="147510" user="woodpeck_fixbot" changeset="3323135" lat="40.8165614" lon="-96.7589335"/>
  <node id="135024464" version="4" timestamp="2010-09-12T19:42:23Z" uid="262151" user="ToeBee" changeset="5763481" lat="40.8165614" lon="-96.7589335"/>
  <node id="135027614" version="3" timestamp="2009-11-10T14:49:47Z" uid="99207" user="Lar Kiesel" changeset="3082578" lat="40.861859" lon="-96.7159364"/>
  <node id="135027614" version="4" timestamp="2011-12-29T16:05:26Z" uid="337921" user="Cookie6533" changeset="10236737" lat="40.8618265" lon="-96.7159149"/>
  <node id="135027909" version="3" timestamp="2009-11-10T14:49:58Z" uid="99207" user="Lar Kiesel" changeset="3082578" lat="40.8620408" lon="-96.715739"/>
  <node id="135029577" version="2" timestamp="2009-10-26T01:23:49Z" uid="99207" user="Lar Kiesel" changeset="2952873" lat="41.104545" lon="-100.720676">
    <tag k="highway" v="motorway_junction"/>
    <tag k="name" v="L-56G to US 30; North Platte"/>
    <tag k="ref" v="179"/>
    <tag k="source" v="tiger_import_dch_v0.6_20070813"/>
    <tag k="tiger:county" v="Lincoln, NE"/>
    <tag k="tiger:tlid" v="151267150:151267151:151255195:151267146"/>
    <tag k="tiger:upload_uuid" v="bulk_upload.pl-212d567d-119b-4ccc-9a21-b667eded5ed4"/>
  </node>
  <node id="135029577" version="3" timestamp="2009-11-10T22:39:19Z" uid="147510" user="woodpeck_fixbot" changeset="3086213" lat="41.104545" lon="-100.720676">
    <tag k="highway" v="motorway_junction"/>
    <tag k="name" v="L-56G to US 30; North Platte"/>
    <tag k="ref" v="179"/>
  </node>
  <node id="135029577" version="4" timestamp="2010-12-20T00:15:25Z" uid="262151" user="ToeBee" changeset="6712066" lat="41.1043252" lon="-100.719392">
    <tag k="highway" v="motorway_junction"/>
    <tag k="name" v="L-56G to US 30; North Platte"/>
    <tag k="ref" v="179"/>
  </node>
  <node id="135029577" version="5" timestamp="2011-04-06T18:16:40Z" uid="207745" user="NE2" changeset="7787398" lat="41.1043252" lon="-100.719392">
    <tag k="exit_to" v="L-56G to US 30; North Platte"/>
    <tag k="highway" v="motorway_junction"/>
    <tag k="ref" v="179"/>
  </node>
</osm>
