<?xml version='1.0' encoding='UTF-8'?>
<osm version="0.6" generator="libosmium/2.20.0">
  <node id="135041633" version="3" timestamp="2009-10-26T01:23:45Z" uid="99207" user="Lar Kiesel" changeset="2952873" lat="41.003434" lon="-100.379603">
    <tag k="highway" v="motorway_junction"/>
    <tag k="name" v="L-56D; Brady"/>
    <tag k="ref" v="199"/>
  </node>
  <node id="135041633" version="4" timestamp="2010-12-20T00:13:28Z" uid="262151" user="ToeBee" changeset="6712066" lat="41.0039154" lon="-100.3807807">
    <tag k="highway" v="motorway_junction"/>
    <tag k="name" v="L-56D; Brady"/>
    <tag k="ref" v="199"/>
  </node>
  <node id="135041633" version="5" timestamp="2011-04-06T18:31:23Z" uid="207745" user="NE2" changeset="7787398" lat="41.0039154" lon="-100.3807807">
    <tag k="exit_to" v="L-56D; Brady"/>
    <tag k="highway" v="motorway_junction"/>
    <tag k="ref" v="199"/>
  </node>
  <node id="135041633" version="6" timestamp="2012-01-20T03:49:15Z" uid="262151" user="ToeBee" changeset="10443078" lat="41.0038469" lon="-100.3806315">
    <tag k="exit_to" v="L-56D; Brady"/>
    <tag k="highway" v="motorway_junction"/>
    <tag k="ref" v="199"/>
  </node>
  <node id="135044396" version="2" timestamp="2009-11-07T14:59:20Z" uid="99207" user="Lar Kiesel" changeset="3056277" lat="40.8203146" lon="-96.8729554">
    <tag k="source" v="tiger_import_dch_v0.6_20070813"/>
    <tag k="tiger:county" v="Lancaster, NE"/>
    <tag k="tiger:tlid" v="28284534:28263863:28246492:28300940:28250026"/>
    <tag k="tiger:upload_uuid" v="bulk_upload.pl-96e3018e-759d-454b-b058-e03c697b1ad6"/>
  </node>
  <node id="135044396" version="3" timestamp="2009-12-08T08:39:27Z" uid="147510" user="woodpeck_fixbot" changeset="3323135" lat="40.8203146" lon="-96.8729554"/>
  <node id="135044396" version="4" timestamp="2010-09-12T19:37:07Z" uid="262151" user="ToeBee" changeset="5763481" lat="40.8203291" lon="-96.8729188"/>
  <node id="135044524" version="3" timestamp="2009-11-07T14:59:55Z" uid="99207" user="Lar Kiesel" changeset="3056277" lat="40.8200548" lon="-96.8729468"/>
  <node id="135044524" version="4" timestamp="2012-01-21T07:53:22Z" uid="262151" user="ToeBee" changeset="10453079" lat="40.8200548" lon="-96.8729468"/>
</osm>
