<?xml version='1.0' encoding='UTF-8'?>
<osm version="0.6" generator="libosmium/2.20.0">
  <node id="13670754" version="11" timestamp="2009-10-03T21:09:19Z" uid="20587" user="balrog-kun" changeset="2729697" lat="51.5678377" lon="0.3409557">
    <tag k="name" v="West Horndon"/>
    <tag k="railway" v="station"/>
  </node>
  <node id="13670754" version="12" timestamp="2009-10-03T21:45:18Z" uid="20587" user="balrog-kun" changeset="2730063" lat="51.5678377" lon="0.3409557">
    <tag k="name" v="West Horndon"/>
    <tag k="railway" v="station"/>
    <tag k="wikipedia" v="West Horndon railway station"/>
  </node>
  <node id="13670754" version="13" timestamp="2011-02-28T06:13:15Z" uid="364" user="Edward" changeset="7417631" lat="51.5678377" lon="0.3409557">
    <tag k="name" v="West Horndon"/>
    <tag k="naptan:AtcoCode" v="9100WHORNDN"/>
    <tag k="railway" v="station"/>
    <tag k="wikipedia" v="West Horndon railway station"/>
  </node>
  <node id="13670754" version="14" timestamp="2011-07-11T13:24:01Z" uid="119838" user="n1dom" changeset="8693815" lat="51.5678557" lon="0.3409305">
    <tag k="name" v="West Horndon"/>
    <tag k="naptan:AtcoCode" v="9100WHORNDN"/>
    <tag k="railway" v="station"/>
    <tag k="wikipedia" v="West Horndon railway station"/>
  </node>
  <node id="13670754" version="15" timestamp="2011-11-23T15:12:01Z" uid="61216" user="UniEagle" changeset="9922045" lat="51.5678701" lon="0.3409278">
    <tag k="name" v="West Horndon"/>
    <tag k="naptan:AtcoCode" v="9100WHORNDN"/>
    <tag k="railway" v="station"/>
    <tag k="wikipedia" v="West Horndon railway station"/>
  </node>
  <node id="13670756" version="9" timestamp="2009-10-03T21:09:28Z" uid="20587" user="balrog-kun" changeset="2729697" lat="51.5678505" lon="0.34128">
    <tag k="created_by" v="JOSM"/>
  </node>
  <node id="13670815" version="3" timestamp="2009-07-18T12:47:38Z" uid="123517" user="Qichina" changeset="1863451" lat="51.5678055" lon="0.4439792"/>
  <node id="13670855" version="8" timestamp="2009-10-03T21:45:19Z" uid="20587" user="balrog-kun" changeset="2730063" lat="51.5603208" lon="0.5113738">
    <tag k="name" v="Pitsea"/>
    <tag k="railway" v="station"/>
    <tag k="source" v="NPE"/>
    <tag k="wikipedia" v="Pitsea railway station"/>
  </node>
  <node id="13670855" version="9" timestamp="2009-12-19T14:26:21Z" uid="210115" user="v-na-more" changeset="3407065" lat="51.5603228" lon="0.5127155">
    <tag k="name" v="Pitsea"/>
    <tag k="railway" v="station"/>
    <tag k="source" v="NPE"/>
    <tag k="wikipedia" v="Pitsea railway station"/>
  </node>
  <node id="13670855" version="10" timestamp="2009-12-19T14:29:25Z" uid="210115" user="v-na-more" changeset="3407086" lat="51.5603165" lon="0.5088109">
    <tag k="name" v="Pitsea"/>
    <tag k="railway" v="station"/>
    <tag k="source" v="NPE"/>
    <tag k="wikipedia" v="Pitsea railway station"/>
  </node>
  <node id="13670855" version="11" timestamp="2009-12-29T17:05:59Z" uid="210115" user="v-na-more" changeset="3483083" lat="51.5603271" lon="0.5091721">
    <tag k="name" v="Pitsea"/>
    <tag k="railway" v="station"/>
    <tag k="source" v="NPE"/>
    <tag k="wikipedia" v="Pitsea railway station"/>
  </node>
  <node id="13670855" version="12" timestamp="2010-01-06T00:22:15Z" uid="210115" user="v-na-more" changeset="3550326" lat="51.5603199" lon="0.5091786">
    <tag k="name" v="Pitsea"/>
    <tag k="railway" v="station"/>
    <tag k="source" v="NPE"/>
    <tag k="wikipedia" v="Pitsea railway station"/>
  </node>
  <node id="13670855" version="13" timestamp="2010-12-22T16:54:29Z" uid="74897" user="Rowland" changeset="6737474" lat="51.5602048" lon="0.5090982">
    <tag k="name" v="Pitsea"/>
    <tag k="railway" v="station"/>
    <tag k="source" v="NPE"/>
    <tag k="wikipedia" v="Pitsea railway station"/>
  </node>
  <node id="13670855" version="14" timestamp="2011-02-28T07:03:40Z" uid="364" user="Edward" changeset="7417888" lat="51.5602048" lon="0.5090982">
    <tag k="name" v="Pitsea"/>
    <tag k="naptan:AtcoCode" v="9100PITSEA"/>
    <tag k="railway" v="station"/>
    <tag k="source" v="NPE"/>
    <tag k="wikipedia" v="Pitsea railway station"/>
  </node>
  <node id="13670855" version="15" timestamp="2011-11-23T08:16:47Z" uid="61216" user="UniEagle" changeset="9918172" lat="51.5602578" lon="0.5091228">
    <tag k="name" v="Pitsea"/>
    <tag k="naptan:AtcoCode" v="9100PITSEA"/>
    <tag k="railway" v="station"/>
    <tag k="source" v="NPE"/>
    <tag k="wikipedia" v="Pitsea railway station"/>
  </node>
  <node id="13670855" version="16" timestamp="2012-02-06T16:08:25Z" uid="57884" user="EdLoach" changeset="10604269" lat="51.5602578" lon="0.5091228"/>
  <node id="13670881" version="7" timestamp="2009-10-03T21:45:19Z" uid="20587" user="balrog-kun" changeset="2730063" lat="51.5443544" lon="0.5613117">
    <tag k="name" v="Benfleet"/>
    <tag k="railway" v="station"/>
    <tag k="source" v="NPE"/>
    <tag k="wikipedia" v="Benfleet railway station"/>
  </node>
  <node id="13670881" version="8" timestamp="2009-12-31T03:19:32Z" uid="210115" user="v-na-more" changeset="3495860" lat="51.5441133" lon="0.5618072">
    <tag k="name" v="Benfleet"/>
    <tag k="railway" v="station"/>
    <tag k="source" v="NPE"/>
    <tag k="wikipedia" v="Benfleet railway station"/>
  </node>
  <node id="13670881" version="9" timestamp="2011-02-28T06:16:39Z" uid="364" user="Edward" changeset="7417631" lat="51.5441133" lon="0.5618072">
    <tag k="name" v="Benfleet"/>
    <tag k="naptan:AtcoCode" v="9100BENFLET"/>
    <tag k="railway" v="station"/>
    <tag k="source" v="NPE"/>
    <tag k="wikipedia" v="Benfleet railway station"/>
  </node>
  <node id="13670881" version="10" timestamp="2011-03-30T14:59:03Z" uid="386255" user="Jackamason" changeset="7716953" lat="51.5440935" lon="0.5616476">
    <tag k="name" v="Benfleet"/>
    <tag k="naptan:AtcoCode" v="9100BENFLET"/>
    <tag k="railway" v="station"/>
    <tag k="source" v="NPE"/>
    <tag k="wikipedia" v="Benfleet railway station"/>
  </node>
  <node id="13670881" version="11" timestamp="2011-11-22T23:32:42Z" uid="61216" user="UniEagle" changeset="9915182" lat="51.5441537" lon="0.5615647">
    <tag k="name" v="Benfleet"/>
    <tag k="naptan:AtcoCode" v="9100BENFLET"/>
    <tag k="railway" v="station"/>
    <tag k="source" v="NPE"/>
    <tag k="wikipedia" v="Benfleet railway station"/>
  </node>
  <node id="13672241" version="5" timestamp="2009-07-18T12:47:14Z" uid="123517" user="Qichina" changeset="1863451" lat="51.5681711" lon="0.4579106">
    <tag k="name" v="Basildon"/>
    <tag k="railway" v="station"/>
  </node>
  <node id="13678461" version="2" timestamp="2009-03-11T21:16:12Z" uid="34428" user="usm78-gis" changeset="788857" lat="58.8325757" lon="29.9148573"/>
  <node id="13678461" version="3" timestamp="2009-03-11T21:16:17Z" uid="34428" user="usm78-gis" changeset="788857" lat="58.8325757" lon="29.9148573"/>
  <node id="13678461" version="4" timestamp="2009-03-11T21:16:21Z" uid="34428" user="usm78-gis" changeset="788857" lat="58.8325757" lon="29.9148573"/>
  <node id="13678463" version="2" timestamp="2009-03-11T21:16:09Z" uid="34428" user="usm78-gis" changeset="788857" lat="58.7794786" lon="29.8776232"/>
  <node id="13678463" version="3" timestamp="2009-03-11T21:16:14Z" uid="34428" user="usm78-gis" changeset="788857" lat="58.7794786" lon="29.8776232"/>
  <node id="13678463" version="4" timestamp="2009-03-11T21:16:19Z" uid="34428" user="usm78-gis" changeset="788857" lat="58.7794786" lon="29.8776232"/>
</osm>
