<?xml version='1.0' encoding='UTF-8'?>
<osm version="0.6" generator="libosmium/2.20.0">
  <node id="137090167" version="3" timestamp="2009-11-02T23:17:37Z" uid="99207" user="Lar Kiesel" changeset="3020999" lat="40.8224395" lon="-97.5017339"/>
  <node id="137090167" version="4" timestamp="2010-04-01T04:25:21Z" uid="1679" user="andrewpmk" changeset="4291024" lat="40.8222605" lon="-97.5017735"/>
  <node id="137090167" version="5" timestamp="2012-01-21T07:54:25Z" uid="262151" user="ToeBee" changeset="10453079" lat="40.8222605" lon="-97.5017735"/>
  <node id="137091784" version="1" timestamp="2007-11-27T11:16:28Z" uid="9581" user="Lobelt" changeset="631122" lat="51.8700588" lon="14.1926678">
    <tag k="created_by" v="Potlatch 0.5d"/>
    <tag k="name" v="Neu Byhlegure"/>
    <tag k="place" v="hamlet"/>
  </node>
  <node id="137091784" version="2" timestamp="2007-11-27T11:16:31Z" uid="9581" user="Lobelt" changeset="631122" lat="51.8700588" lon="14.1926678">
    <tag k="created_by" v="Potlatch 0.5d"/>
    <tag k="name" v="Neu Byhlegure"/>
    <tag k="place" v="hamlet"/>
  </node>
  <node id="137091784" version="3" timestamp="2008-05-21T13:27:56Z" uid="28234" user="derandi" changeset="495190" lat="51.8700588" lon="14.1926678">
    <tag k="created_by" v="Potlatch 0.5d"/>
    <tag k="name" v="Neu Byhlegure"/>
    <tag k="place" v="hamlet"/>
  </node>
  <node id="137092538" version="3" timestamp="2009-11-02T23:17:43Z" uid="99207" user="Lar Kiesel" changeset="3020999" lat="40.8209976" lon="-97.4259454"/>
  <node id="137092538" version="4" timestamp="2010-04-01T04:23:08Z" uid="1679" user="andrewpmk" changeset="4291024" lat="40.8211806" lon="-97.4259206"/>
  <node id="137092538" version="5" timestamp="2011-04-26T20:58:51Z" uid="168517" user="Milo" changeset="7979740" lat="40.821191" lon="-97.4259865"/>
  <node id="137092822" version="1" timestamp="2007-11-27T11:17:02Z" uid="9581" user="Lobelt" changeset="631122" lat="51.8642288" lon="14.1978176">
    <tag k="created_by" v="Potlatch 0.5d"/>
    <tag k="name" v="Saccassne"/>
    <tag k="place" v="village"/>
  </node>
  <node id="137092822" version="2" timestamp="2008-05-24T15:53:13Z" uid="28234" user="derandi" changeset="509443" lat="51.8642288" lon="14.1978176">
    <tag k="created_by" v="Potlatch 0.5d"/>
    <tag k="name" v="Saccassne"/>
    <tag k="place" v="village"/>
  </node>
  <node id="137093358" version="3" timestamp="2009-11-02T23:17:33Z" uid="99207" user="Lar Kiesel" changeset="3020999" lat="40.8206339" lon="-97.4065906"/>
  <node id="137093358" version="4" timestamp="2012-01-21T07:54:26Z" uid="262151" user="ToeBee" changeset="10453079" lat="40.8206339" lon="-97.4065906"/>
  <node id="137093361" version="3" timestamp="2009-11-02T23:17:33Z" uid="99207" user="Lar Kiesel" changeset="3020999" lat="40.8216471" lon="-97.4065906"/>
  <node id="137093361" version="4" timestamp="2012-01-21T07:54:27Z" uid="262151" user="ToeBee" changeset="10453079" lat="40.8216471" lon="-97.4065906"/>
  <node id="137094040" version="1" timestamp="2007-11-27T11:17:48Z" uid="9581" user="Lobelt" changeset="631122" lat="51.8508702" lon="14.2126664">
    <tag k="created_by" v="Potlatch 0.5d"/>
    <tag k="name" v="Schmogrow"/>
    <tag k="place" v="village"/>
  </node>
  <node id="137094040" version="2" timestamp="2008-05-24T15:53:13Z" uid="28234" user="derandi" changeset="509443" lat="51.8508702" lon="14.2126664">
    <tag k="created_by" v="Potlatch 0.5d"/>
    <tag k="name" v="Schmogrow"/>
    <tag k="place" v="village"/>
  </node>
  <node id="137094547" version="1" timestamp="2007-11-27T11:18:03Z" uid="9581" user="Lobelt" changeset="631122" lat="51.8524607" lon="14.2477711">
    <tag k="created_by" v="Potlatch 0.5d"/>
    <tag k="name" v="Fehrow"/>
    <tag k="place" v="village"/>
  </node>
  <node id="137094547" version="2" timestamp="2008-03-08T10:38:53Z" uid="3555" user="Marc Schütz" changeset="285379" lat="51.8524607" lon="14.2477711">
    <tag k="created_by" v="Potlatch 0.5d"/>
    <tag k="name" v="Fehrow"/>
    <tag k="name:dsb" v="Prjawoz"/>
    <tag k="place" v="village"/>
  </node>
  <node id="137094547" version="3" timestamp="2008-05-24T19:54:19Z" uid="28234" user="derandi" changeset="512542" lat="51.8524607" lon="14.2477711">
    <tag k="created_by" v="Potlatch 0.5d"/>
    <tag k="is_in" v="Schmogrow-Fehrow,Spree-Neiße(Lausitz),Brandenburg,Bundesrepublik Deutschland,Europe"/>
    <tag k="name" v="Fehrow"/>
    <tag k="name:dsb" v="Prjawoz"/>
    <tag k="openGeoDB:auto_update" v="population,place,name,is_in"/>
    <tag k="openGeoDB:combination_of_public_administration" v="Amt Burg (Spreewald)"/>
    <tag k="openGeoDB:community_identification_number" v="12071041"/>
    <tag k="openGeoDB:is_in" v="Spree-Neiße(Lausitz),Brandenburg,Bundesrepublik Deutschland,Europe"/>
    <tag k="openGeoDB:is_in_loc_id" v="23089"/>
    <tag k="openGeoDB:layer" v="7"/>
    <tag k="openGeoDB:license_plate_code" v="SPN"/>
    <tag k="openGeoDB:loc_id" v="142628"/>
    <tag k="openGeoDB:location" v="political_structure"/>
    <tag k="openGeoDB:name" v="Fehrow"/>
    <tag k="openGeoDB:postal_codes" v="03096"/>
    <tag k="openGeoDB:sort_name" v="FEHROW"/>
    <tag k="openGeoDB:telephone_area_code" v="035606"/>
    <tag k="openGeoDB:type" v="Ort"/>
    <tag k="opengeodb:lat" v="51.8525"/>
    <tag k="opengeodb:lon" v="14.2478"/>
    <tag k="place" v="village"/>
  </node>
  <node id="137094547" version="4" timestamp="2008-05-30T00:11:07Z" uid="28234" user="derandi" changeset="550594" lat="51.8524607" lon="14.2477711">
    <tag k="created_by" v="Potlatch 0.5d"/>
    <tag k="is_in" v="Schmogrow-Fehrow,Spree-Neiße(Lausitz),Brandenburg,Bundesrepublik Deutschland,Europe"/>
    <tag k="name" v="Fehrow"/>
    <tag k="name:dsb" v="Prjawoz"/>
    <tag k="openGeoDB:auto_update" v="population,place,name,is_in"/>
    <tag k="openGeoDB:combination_of_public_administration" v="Amt Burg (Spreewald)"/>
    <tag k="openGeoDB:community_identification_number" v="12071341"/>
    <tag k="openGeoDB:is_in" v="Spree-Neiße(Lausitz),Brandenburg,Bundesrepublik Deutschland,Europe"/>
    <tag k="openGeoDB:is_in_loc_id" v="23089"/>
    <tag k="openGeoDB:layer" v="7"/>
    <tag k="openGeoDB:license_plate_code" v="SPN"/>
    <tag k="openGeoDB:loc_id" v="142628"/>
    <tag k="openGeoDB:location" v="political_structure"/>
    <tag k="openGeoDB:name" v="Fehrow"/>
    <tag k="openGeoDB:postal_codes" v="03096"/>
    <tag k="openGeoDB:sort_name" v="FEHROW"/>
    <tag k="openGeoDB:telephone_area_code" v="035606"/>
    <tag k="openGeoDB:type" v="Ort"/>
    <tag k="opengeodb:lat" v="51.8525"/>
    <tag k="opengeodb:lon" v="14.2478"/>
    <tag k="place" v="village"/>
  </node>
  <node id="137094547" version="5" timestamp="2011-02-15T14:35:09Z" uid="15720" user="J budissin" changeset="7294951" lat="51.8524607" lon="14.2477711">
    <tag k="is_in" v="Schmogrow-Fehrow,Spree-Neiße(Lausitz),Brandenburg,Bundesrepublik Deutschland,Europe"/>
    <tag k="name" v="Fehrow"/>
    <tag k="name:dsb" v="Prjawoz"/>
    <tag k="name:hsb" v="Prjawoz"/>
    <tag k="openGeoDB:auto_update" v="population,place,name,is_in"/>
    <tag k="openGeoDB:combination_of_public_administration" v="Amt Burg (Spreewald)"/>
    <tag k="openGeoDB:community_identification_number" v="12071341"/>
    <tag k="openGeoDB:is_in" v="Spree-Neiße(Lausitz),Brandenburg,Bundesrepublik Deutschland,Europe"/>
    <tag k="openGeoDB:is_in_loc_id" v="23089"/>
    <tag k="openGeoDB:layer" v="7"/>
    <tag k="openGeoDB:license_plate_code" v="SPN"/>
    <tag k="openGeoDB:loc_id" v="142628"/>
    <tag k="openGeoDB:location" v="political_structure"/>
    <tag k="openGeoDB:name" v="Fehrow"/>
    <tag k="openGeoDB:postal_codes" v="03096"/>
    <tag k="openGeoDB:sort_name" v="FEHROW"/>
    <tag k="openGeoDB:telephone_area_code" v="035606"/>
    <tag k="openGeoDB:type" v="Ort"/>
    <tag k="opengeodb:lat" v="51.8525"/>
    <tag k="opengeodb:lon" v="14.2478"/>
    <tag k="place" v="village"/>
  </node>
  <node id="137094547" version="6" timestamp="2011-04-20T07:37:31Z" uid="28234" user="derandi" changeset="7913576" lat="51.8523848" lon="14.2481596">
    <tag k="is_in" v="Schmogrow-Fehrow,Spree-Neiße(Lausitz),Brandenburg,Bundesrepublik Deutschland,Europe"/>
    <tag k="name" v="Fehrow"/>
    <tag k="name:dsb" v="Prjawoz"/>
    <tag k="name:hsb" v="Prjawoz"/>
    <tag k="openGeoDB:auto_update" v="population,place,name,is_in"/>
    <tag k="openGeoDB:combination_of_public_administration" v="Amt Burg (Spreewald)"/>
    <tag k="openGeoDB:community_identification_number" v="12071341"/>
    <tag k="openGeoDB:is_in" v="Spree-Neiße(Lausitz),Brandenburg,Bundesrepublik Deutschland,Europe"/>
    <tag k="openGeoDB:is_in_loc_id" v="23089"/>
    <tag k="openGeoDB:layer" v="7"/>
    <tag k="openGeoDB:license_plate_code" v="SPN"/>
    <tag k="openGeoDB:loc_id" v="142628"/>
    <tag k="openGeoDB:location" v="political_structure"/>
    <tag k="openGeoDB:name" v="Fehrow"/>
    <tag k="openGeoDB:postal_codes" v="03096"/>
    <tag k="openGeoDB:sort_name" v="FEHROW"/>
    <tag k="openGeoDB:telephone_area_code" v="035606"/>
    <tag k="openGeoDB:type" v="Ort"/>
    <tag k="opengeodb:lat" v="51.8525"/>
    <tag k="opengeodb:lon" v="14.2478"/>
    <tag k="place" v="village"/>
  </node>
  <node id="137094547" version="7" timestamp="2012-02-26T22:57:22Z" uid="28234" user="derandi" changeset="10804324" lat="51.8523848" lon="14.2481596"/>
  <node id="137096005" version="3" timestamp="2009-06-29T09:39:36Z" uid="74617" user="JohnSmith" changeset="1675026" lat="-26.4914685" lon="152.7059733">
    <tag k="created_by" v="JOSM"/>
  </node>
  <node id="137096078" version="3" timestamp="2009-06-29T09:39:30Z" uid="74617" user="JohnSmith" changeset="1675026" lat="-26.4831441" lon="152.7034775">
    <tag k="created_by" v="JOSM"/>
  </node>
  <node id="137096396" version="3" timestamp="2009-06-29T09:39:30Z" uid="74617" user="JohnSmith" changeset="1675026" lat="-26.4684998" lon="152.699508">
    <tag k="created_by" v="JOSM"/>
  </node>
  <node id="137097709" version="3" timestamp="2009-06-29T08:14:25Z" uid="74617" user="JohnSmith" changeset="1674248" lat="-26.459385" lon="152.676736">
    <tag k="is_in:country" v="Australia"/>
    <tag k="is_in:country_code" v="au"/>
    <tag k="is_in:state" v="Queensland"/>
    <tag k="is_in:state_code" v="QLD"/>
    <tag k="name" v="Imbil"/>
    <tag k="place" v="town"/>
  </node>
  <node id="137097709" version="4" timestamp="2009-07-01T17:17:27Z" uid="74617" user="JohnSmith" changeset="1702646" lat="-26.4593793" lon="152.6767293">
    <tag k="is_in:country" v="Australia"/>
    <tag k="is_in:country_code" v="au"/>
    <tag k="is_in:state" v="Queensland"/>
    <tag k="is_in:state_code" v="QLD"/>
    <tag k="name" v="Imbil"/>
    <tag k="place" v="city"/>
  </node>
  <node id="137097709" version="5" timestamp="2009-07-04T02:59:31Z" uid="74617" user="JohnSmith" changeset="1726269" lat="-26.4593957" lon="152.6767493">
    <tag k="is_in:country" v="Australia"/>
    <tag k="is_in:country_code" v="au"/>
    <tag k="is_in:state" v="Queensland"/>
    <tag k="is_in:state_code" v="QLD"/>
    <tag k="name" v="Imbil"/>
    <tag k="place" v="town"/>
  </node>
</osm>
