<?xml version='1.0' encoding='UTF-8'?>
<osm version="0.6" generator="libosmium/2.20.0">
  <node id="137697957" version="2" timestamp="2008-02-23T19:03:35Z" uid="6975" user="ulfl" changeset="186045" lat="49.4537493" lon="11.0778233">
    <tag k="created_by" v="JOSM"/>
    <tag k="highway" v="service"/>
    <tag k="name" v="Engelsgasse"/>
  </node>
  <node id="137697957" version="3" timestamp="2008-04-02T20:57:31Z" uid="26299" user="uboot" changeset="20931" lat="49.4537493" lon="11.0778233">
    <tag k="name" v="Engelsgasse"/>
  </node>
  <node id="137697957" version="4" timestamp="2008-08-16T17:22:42Z" uid="40851" user="gypakk" changeset="282593" lat="49.4537493" lon="11.0778233"/>
  <node id="137697957" version="5" timestamp="2009-01-13T08:48:56Z" uid="91378" user="Einer aus Nürnberg" changeset="781784" lat="49.4537493" lon="11.0778233"/>
  <node id="137697957" version="6" timestamp="2009-01-13T08:51:21Z" uid="91378" user="Einer aus Nürnberg" changeset="781784" lat="49.4537493" lon="11.0778233"/>
  <node id="137697957" version="7" timestamp="2009-01-13T08:51:53Z" uid="91378" user="Einer aus Nürnberg" changeset="781784" lat="49.4537493" lon="11.0778233"/>
  <node id="137697957" version="8" timestamp="2009-01-13T13:05:33Z" uid="91378" user="Einer aus Nürnberg" changeset="785294" lat="49.4537493" lon="11.0778233"/>
  <node id="137697957" version="9" timestamp="2009-03-06T16:49:31Z" uid="81175" user="robome" changeset="743845" lat="49.4538037" lon="11.0778622"/>
  <node id="137697957" version="10" timestamp="2010-11-29T20:16:47Z" uid="17099" user="matmai" changeset="6489443" lat="49.4538008" lon="11.0778532"/>
  <node id="137697957" version="11" timestamp="2011-11-11T23:18:58Z" uid="346758" user="kukuk" changeset="9800957" lat="49.4538663" lon="11.0777506"/>
  <node id="137697957" version="12" timestamp="2011-11-12T08:08:11Z" uid="346758" user="kukuk" changeset="9802315" lat="49.4538663" lon="11.0777506"/>
  <node id="137698002" version="3" timestamp="2010-06-25T15:12:58Z" uid="49111" user="Markus B" changeset="5074562" lat="49.4583936" lon="11.0875339">
    <tag k="created_by" v="JOSM"/>
  </node>
  <node id="137699889" version="5" timestamp="2008-07-06T23:59:22Z" uid="6975" user="ulfl" changeset="415781" lat="40.766351" lon="22.156578">
    <tag k="is_in" v="Greece"/>
    <tag k="name" v="Mesovouni"/>
    <tag k="place" v="village"/>
    <tag k="prefecture" v="Pella"/>
  </node>
  <node id="137699889" version="6" timestamp="2008-08-12T20:05:25Z" uid="14235" user="AiNikolas" changeset="204711" lat="40.7663463" lon="22.1565767">
    <tag k="created_by" v="Potlatch 0.10b"/>
    <tag k="is_in:periphery" v="Pella,Kendriki Makedonia,Greece"/>
    <tag k="name" v="Mesovouni"/>
    <tag k="place" v="village"/>
  </node>
  <node id="137699889" version="7" timestamp="2008-09-13T01:25:46Z" uid="14235" user="AiNikolas" changeset="618732" lat="40.7663497" lon="22.1565756">
    <tag k="created_by" v="Potlatch 0.10b"/>
    <tag k="is_in" v="Skydra,Pella,Kendriki Makedonia,Greece"/>
    <tag k="name" v="Μαυροβούνι"/>
    <tag k="name:de" v="Mavrovouni"/>
    <tag k="name:el" v="Μαυροβούνι"/>
    <tag k="name:en" v="Mavrovouni"/>
    <tag k="name:fr" v="Mavrovouni"/>
    <tag k="place" v="village"/>
  </node>
  <node id="137699889" version="8" timestamp="2008-09-13T01:26:22Z" uid="14235" user="AiNikolas" changeset="618732" lat="40.7663497" lon="22.1565756">
    <tag k="created_by" v="Potlatch 0.10b"/>
    <tag k="is_in" v="Skydra,Pella,Kendriki Makedonia,Greece"/>
    <tag k="name" v="Σκύδρα"/>
    <tag k="name:de" v="Skydra"/>
    <tag k="name:el" v="Σκύδρα"/>
    <tag k="name:en" v="Skydra"/>
    <tag k="name:fr" v="Skydra"/>
    <tag k="place" v="village"/>
  </node>
  <node id="137699889" version="9" timestamp="2008-10-03T21:45:09Z" uid="14235" user="AiNikolas" changeset="53031" lat="40.7663468" lon="22.1565722">
    <tag k="created_by" v="Potlatch 0.10c"/>
    <tag k="is_in" v="Skydra municipality,Pella prefecture,Kendriki Makedonia,Greece"/>
    <tag k="name" v="Σκύδρα"/>
    <tag k="name:de" v="Skydra"/>
    <tag k="name:el" v="Σκύδρα"/>
    <tag k="name:en" v="Skydra"/>
    <tag k="name:fr" v="Skydra"/>
    <tag k="place" v="village"/>
    <tag k="population" v="5801"/>
  </node>
  <node id="137699889" version="10" timestamp="2008-10-18T05:37:38Z" uid="14235" user="AiNikolas" changeset="408485" lat="40.7663491" lon="22.156565">
    <tag k="created_by" v="Potlatch 0.10e"/>
    <tag k="ele" v="19"/>
    <tag k="is_in" v="Skydra municipality,Pella prefecture,Kendriki Makedonia,Greece"/>
    <tag k="name" v="Σκύδρα"/>
    <tag k="name:de" v="Skydra"/>
    <tag k="name:el" v="Σκύδρα"/>
    <tag k="name:en" v="Skydra"/>
    <tag k="name:fr" v="Skydra"/>
    <tag k="old_name" v="Vertekop"/>
    <tag k="place" v="village"/>
    <tag k="population" v="5801"/>
  </node>
  <node id="137699889" version="11" timestamp="2009-05-28T04:00:33Z" uid="14235" user="AiNikolas" changeset="1339264" lat="40.7663474" lon="22.15656">
    <tag k="created_by" v="Potlatch 0.10e"/>
    <tag k="ele" v="19"/>
    <tag k="is_in" v="Skydra municipality,Pella prefecture,Kendriki Makedonia,Greece"/>
    <tag k="name" v="Σκύδρα (Skydra)"/>
    <tag k="name:de" v="Skydra"/>
    <tag k="name:el" v="Σκύδρα"/>
    <tag k="name:en" v="Skydra"/>
    <tag k="name:fr" v="Skydra"/>
    <tag k="old_name" v="Vertekop"/>
    <tag k="place" v="village"/>
    <tag k="population" v="5801"/>
  </node>
  <node id="137699889" version="12" timestamp="2009-12-06T14:06:02Z" uid="194504" user="fidusa" changeset="3305498" lat="40.7679298" lon="22.1576577">
    <tag k="ele" v="19"/>
    <tag k="is_in" v="Skydra municipality,Pella prefecture,Kendriki Makedonia,Greece"/>
    <tag k="name" v="Σκύδρα (Skydra)"/>
    <tag k="name:de" v="Skydra"/>
    <tag k="name:el" v="Σκύδρα"/>
    <tag k="name:en" v="Skydra"/>
    <tag k="name:fr" v="Skydra"/>
    <tag k="old_name" v="Vertekop"/>
    <tag k="place" v="village"/>
    <tag k="population" v="5801"/>
  </node>
  <node id="137699889" version="13" timestamp="2009-12-19T23:16:08Z" uid="194504" user="fidusa" changeset="3410530" lat="40.7679298" lon="22.1576577">
    <tag k="is_in" v="Skydra municipality,Pella prefecture,Kendriki Makedonia,Greece"/>
    <tag k="name" v="Σκύδρα"/>
    <tag k="name:en" v="Skydra"/>
    <tag k="place" v="town"/>
    <tag k="population" v="5801"/>
  </node>
</osm>
