<?xml version='1.0' encoding='UTF-8'?>
<osm version="0.6" generator="libosmium/2.20.0">
  <node id="137840690" version="1" timestamp="2007-11-27T19:36:42Z" uid="9336" user="nochmaltobi" changeset="634391" lat="49.4094314" lon="8.7066854">
    <tag k="amenity" v="place_of_worship"/>
    <tag k="created_by" v="JOSM"/>
    <tag k="name" v="Peters-Kirche"/>
  </node>
  <node id="137840690" version="2" timestamp="2007-12-01T11:32:17Z" uid="4667" user="MapZ" changeset="22625" lat="49.4094314" lon="8.7066854">
    <tag k="amenity" v="place_of_worship"/>
    <tag k="created_by" v="JOSM"/>
    <tag k="name" v="Peterskirche"/>
  </node>
  <node id="137840690" version="3" timestamp="2008-09-02T00:20:04Z" uid="49121" user="mauk" changeset="496813" lat="49.4094314" lon="8.7066854">
    <tag k="amenity" v="place_of_worship"/>
    <tag k="name" v="Peterskirche"/>
    <tag k="religion" v="christian"/>
  </node>
  <node id="137840690" version="4" timestamp="2009-05-24T17:13:20Z" uid="68877" user="Ebau" changeset="1308563" lat="49.4093865" lon="8.7065233">
    <tag k="amenity" v="place_of_worship"/>
    <tag k="name" v="Peterskirche"/>
    <tag k="religion" v="christian"/>
  </node>
  <node id="137840690" version="5" timestamp="2009-06-17T09:32:35Z" uid="130980" user="cpunk" changeset="1543430" lat="49.4093425" lon="8.7063287">
    <tag k="amenity" v="place_of_worship"/>
    <tag k="name" v="Peterskirche"/>
    <tag k="religion" v="christian"/>
  </node>
  <node id="137840690" version="6" timestamp="2009-08-20T07:25:04Z" uid="158828" user="rÃ¼di" changeset="2208779" lat="49.4093473" lon="8.7063244">
    <tag k="amenity" v="place_of_worship"/>
    <tag k="denomination" v="evangelisch-Uniierte Landeskirche"/>
    <tag k="name" v="Peterskirche"/>
    <tag k="religion" v="christian"/>
  </node>
  <node id="137840690" version="7" timestamp="2009-10-01T02:46:29Z" uid="152289" user="cgu66" changeset="2695686" lat="49.4093473" lon="8.7063244">
    <tag k="amenity" v="place_of_worship"/>
    <tag k="denomination" v="protestant"/>
    <tag k="name" v="Peterskirche"/>
    <tag k="religion" v="christian"/>
  </node>
  <node id="137840690" version="8" timestamp="2010-12-01T09:31:41Z" uid="55945" user="xeen" changeset="6501631" lat="49.4093473" lon="8.7063244">
    <tag k="amenity" v="place_of_worship"/>
    <tag k="denomination" v="protestant"/>
    <tag k="name" v="Peterskirche"/>
    <tag k="religion" v="christian"/>
  </node>
</osm>
