<?xml version='1.0' encoding='UTF-8'?>
<osm version="0.6" generator="libosmium/2.20.0">
  <node id="137918390" version="4" timestamp="2008-10-01T01:00:53Z" uid="36809" user="pfoten_weg_!_" changeset="5644" lat="48.1016597" lon="11.5466194">
    <tag k="created_by" v="RambaZamba"/>
    <tag k="name" v="U 3"/>
    <tag k="railway" v="subway_entrance"/>
  </node>
  <node id="137918390" version="5" timestamp="2008-10-27T15:24:00Z" uid="29287" user="tkarcher" changeset="596830" lat="48.1017622" lon="11.5465492">
    <tag k="created_by" v="Potlatch 0.10e"/>
    <tag k="name" v="U 3"/>
    <tag k="railway" v="subway_entrance"/>
  </node>
  <node id="137918390" version="6" timestamp="2008-12-16T16:17:57Z" uid="78442" user="jjKlaus" changeset="428361" lat="48.1017622" lon="11.5465492">
    <tag k="created_by" v="Potlatch 0.10e"/>
    <tag k="name" v="Thalkirchen"/>
    <tag k="railway" v="subway_entrance"/>
    <tag k="ref" v="U 3"/>
  </node>
  <node id="137918390" version="7" timestamp="2009-01-02T18:15:55Z" uid="78442" user="jjKlaus" changeset="716029" lat="48.1017622" lon="11.5465492">
    <tag k="created_by" v="Potlatch 0.10e"/>
    <tag k="name" v="Thalkirchen"/>
    <tag k="railway" v="subway_entrance"/>
    <tag k="ref" v="U3"/>
  </node>
  <node id="137918390" version="8" timestamp="2009-03-10T19:17:39Z" uid="8748" user="ToniE" changeset="777543" lat="48.1016913" lon="11.5465458">
    <tag k="created_by" v="Potlatch 0.10e"/>
    <tag k="name" v="Thalkirchen"/>
    <tag k="railway" v="subway_entrance"/>
    <tag k="ref" v="U3"/>
  </node>
  <node id="137918390" version="9" timestamp="2010-04-20T19:19:29Z" uid="224490" user="Geo-Tobi" changeset="4480637" lat="48.1016913" lon="11.5465458">
    <tag k="name" v="Thalkirchen"/>
    <tag k="railway" v="subway_entrance"/>
    <tag k="ref" v="U3"/>
  </node>
  <node id="137918390" version="10" timestamp="2011-01-24T18:40:03Z" uid="319840" user="octo" changeset="7076253" lat="48.1017579" lon="11.5464623">
    <tag k="name" v="Thalkirchen"/>
    <tag k="railway" v="subway_entrance"/>
    <tag k="ref" v="U3"/>
  </node>
  <node id="137918390" version="11" timestamp="2011-02-02T09:53:29Z" uid="379063" user="MrRoute" changeset="7162938" lat="48.1018216" lon="11.5464685">
    <tag k="name" v="Thalkirchen"/>
    <tag k="railway" v="subway_entrance"/>
    <tag k="ref" v="U3"/>
  </node>
  <node id="137918390" version="12" timestamp="2011-03-18T21:26:27Z" uid="290680" user="wheelmap_visitor" changeset="7598401" lat="48.1018216" lon="11.5464685">
    <tag k="name" v="Thalkirchen"/>
    <tag k="railway" v="subway_entrance"/>
    <tag k="ref" v="U3"/>
    <tag k="station" v="subway_entrance"/>
    <tag k="wheelchair" v="no"/>
  </node>
</osm>
