<?xml version='1.0' encoding='UTF-8'?>
<osm version="0.6" generator="libosmium/2.20.0">
  <node id="138126773" version="2" timestamp="2008-09-30T09:57:37Z" uid="1066" user="pavel" changeset="720911" lat="49.3723731" lon="15.8018864">
    <tag k="is_in" v="Czech Republic, Europe"/>
    <tag k="name" v="Kamenička"/>
    <tag k="place" v="village"/>
  </node>
  <node id="138126773" version="3" timestamp="2008-11-04T13:12:13Z" uid="308" user="MichaelCollinson" changeset="676656" lat="49.3723731" lon="15.8018864">
    <tag k="is_in" v="Czech Republic, Europe"/>
    <tag k="is_in:continent" v="Europe"/>
    <tag k="is_in:country_code" v="cz"/>
    <tag k="name" v="Kamenička"/>
    <tag k="place" v="village"/>
  </node>
  <node id="138126773" version="4" timestamp="2011-06-22T18:11:34Z" uid="134948" user="alik" changeset="8516536" lat="49.3726834" lon="15.8025728">
    <tag k="is_in" v="Czech Republic, Europe"/>
    <tag k="is_in:continent" v="Europe"/>
    <tag k="is_in:country_code" v="cz"/>
    <tag k="name" v="Kamenička"/>
    <tag k="place" v="village"/>
  </node>
  <node id="138126773" version="5" timestamp="2012-01-12T00:43:40Z" uid="536216" user="uir-zsj" changeset="10366037" lat="49.3726834" lon="15.8025728"/>
</osm>
