<?xml version='1.0' encoding='UTF-8'?>
<osm version="0.6" generator="libosmium/2.20.0">
  <node id="139260472" version="2" timestamp="2010-10-04T07:17:36Z" uid="61114" user="Trav" changeset="5950836" lat="-33.7652181" lon="150.6834389"/>
  <node id="139261594" version="6" timestamp="2008-12-31T05:16:15Z" uid="19626" user="Swamp" changeset="687835" lat="-33.761402" lon="150.689462"/>
  <node id="139261594" version="7" timestamp="2009-01-15T01:54:24Z" uid="90579" user="wori" changeset="793414" lat="-33.761402" lon="150.689462"/>
  <node id="139261594" version="8" timestamp="2009-01-15T01:54:25Z" uid="90579" user="wori" changeset="793414" lat="-33.761402" lon="150.689462"/>
  <node id="139261594" version="9" timestamp="2009-01-15T01:54:38Z" uid="90579" user="wori" changeset="793414" lat="-33.761402" lon="150.689462"/>
  <node id="139261594" version="10" timestamp="2009-01-15T01:54:38Z" uid="90579" user="wori" changeset="793414" lat="-33.761402" lon="150.689462"/>
  <node id="139261594" version="11" timestamp="2009-01-15T01:54:58Z" uid="90579" user="wori" changeset="793414" lat="-33.7615609" lon="150.6895546"/>
  <node id="139261594" version="12" timestamp="2009-01-15T01:54:59Z" uid="90579" user="wori" changeset="793414" lat="-33.7615609" lon="150.6895546"/>
  <node id="139261594" version="13" timestamp="2009-01-15T01:55:43Z" uid="90579" user="wori" changeset="793414" lat="-33.7615109" lon="150.6895031"/>
  <node id="139261594" version="14" timestamp="2009-01-15T01:55:43Z" uid="90579" user="wori" changeset="793414" lat="-33.7615109" lon="150.6895031"/>
  <node id="139261594" version="15" timestamp="2009-01-17T23:46:00Z" uid="90579" user="wori" changeset="803630" lat="-33.761644" lon="150.68955"/>
  <node id="139261594" version="16" timestamp="2009-01-17T23:46:01Z" uid="90579" user="wori" changeset="803630" lat="-33.761644" lon="150.68955"/>
  <node id="139261594" version="17" timestamp="2009-01-17T23:48:38Z" uid="90579" user="wori" changeset="803630" lat="-33.7615655" lon="150.6895414"/>
  <node id="139261594" version="18" timestamp="2009-01-17T23:48:38Z" uid="90579" user="wori" changeset="803630" lat="-33.7615655" lon="150.6895414"/>
  <node id="139261594" version="19" timestamp="2010-12-30T11:33:12Z" uid="4467" user="Rosscoe" changeset="6808062" lat="-33.7615284" lon="150.6894834"/>
  <node id="139261598" version="4" timestamp="2008-12-31T05:16:16Z" uid="19626" user="Swamp" changeset="687835" lat="-33.762201" lon="150.6938389"/>
  <node id="139261598" version="5" timestamp="2009-01-15T01:54:25Z" uid="90579" user="wori" changeset="793414" lat="-33.762201" lon="150.6938389"/>
  <node id="139261598" version="6" timestamp="2009-01-15T01:54:38Z" uid="90579" user="wori" changeset="793414" lat="-33.762201" lon="150.6938389"/>
  <node id="139261598" version="7" timestamp="2009-01-15T01:54:59Z" uid="90579" user="wori" changeset="793414" lat="-33.762201" lon="150.6938389"/>
  <node id="139261598" version="8" timestamp="2009-01-15T01:55:43Z" uid="90579" user="wori" changeset="793414" lat="-33.762201" lon="150.6938389"/>
  <node id="139261598" version="9" timestamp="2009-01-17T23:46:01Z" uid="90579" user="wori" changeset="803630" lat="-33.762201" lon="150.6938389"/>
  <node id="139261598" version="10" timestamp="2009-01-17T23:48:38Z" uid="90579" user="wori" changeset="803630" lat="-33.762201" lon="150.6938389"/>
  <node id="139261599" version="4" timestamp="2008-12-31T05:16:15Z" uid="19626" user="Swamp" changeset="687835" lat="-33.7625668" lon="150.6939766"/>
  <node id="139261599" version="5" timestamp="2009-01-15T01:54:25Z" uid="90579" user="wori" changeset="793414" lat="-33.7625668" lon="150.6939766"/>
  <node id="139261599" version="6" timestamp="2009-01-15T01:54:38Z" uid="90579" user="wori" changeset="793414" lat="-33.7625668" lon="150.6939766"/>
  <node id="139261599" version="7" timestamp="2009-01-15T01:54:59Z" uid="90579" user="wori" changeset="793414" lat="-33.7625668" lon="150.6939766"/>
  <node id="139261599" version="8" timestamp="2009-01-15T01:55:43Z" uid="90579" user="wori" changeset="793414" lat="-33.7625668" lon="150.6939766"/>
  <node id="139261599" version="9" timestamp="2009-01-17T23:46:01Z" uid="90579" user="wori" changeset="803630" lat="-33.7625668" lon="150.6939766"/>
  <node id="139261599" version="10" timestamp="2009-01-17T23:48:38Z" uid="90579" user="wori" changeset="803630" lat="-33.7625668" lon="150.6939766"/>
  <node id="139261600" version="4" timestamp="2008-12-31T05:16:17Z" uid="19626" user="Swamp" changeset="687835" lat="-33.7631788" lon="150.6945861"/>
  <node id="139261600" version="5" timestamp="2009-01-15T01:54:25Z" uid="90579" user="wori" changeset="793414" lat="-33.7631788" lon="150.6945861"/>
  <node id="139261600" version="6" timestamp="2009-01-15T01:54:38Z" uid="90579" user="wori" changeset="793414" lat="-33.7631788" lon="150.6945861"/>
  <node id="139261600" version="7" timestamp="2009-01-15T01:54:59Z" uid="90579" user="wori" changeset="793414" lat="-33.7631788" lon="150.6945861"/>
  <node id="139261600" version="8" timestamp="2009-01-15T01:55:43Z" uid="90579" user="wori" changeset="793414" lat="-33.7631788" lon="150.6945861"/>
  <node id="139261600" version="9" timestamp="2009-01-17T23:46:01Z" uid="90579" user="wori" changeset="803630" lat="-33.7631788" lon="150.6945861"/>
  <node id="139261600" version="10" timestamp="2009-01-17T23:48:38Z" uid="90579" user="wori" changeset="803630" lat="-33.7631788" lon="150.6945861"/>
  <node id="139261600" version="11" timestamp="2011-06-16T11:55:54Z" uid="47167" user="MCH" changeset="8455461" lat="-33.7631936" lon="150.6945636"/>
  <node id="139261604" version="4" timestamp="2008-12-31T05:16:18Z" uid="19626" user="Swamp" changeset="687835" lat="-33.7682848" lon="150.6879804"/>
  <node id="139261604" version="5" timestamp="2009-01-15T01:54:25Z" uid="90579" user="wori" changeset="793414" lat="-33.7682848" lon="150.6879804"/>
  <node id="139261604" version="6" timestamp="2009-01-15T01:54:38Z" uid="90579" user="wori" changeset="793414" lat="-33.7682848" lon="150.6879804"/>
  <node id="139261604" version="7" timestamp="2009-01-15T01:54:59Z" uid="90579" user="wori" changeset="793414" lat="-33.7682848" lon="150.6879804"/>
  <node id="139261604" version="8" timestamp="2009-01-15T01:55:43Z" uid="90579" user="wori" changeset="793414" lat="-33.7682848" lon="150.6879804"/>
  <node id="139261604" version="9" timestamp="2009-01-17T23:46:01Z" uid="90579" user="wori" changeset="803630" lat="-33.7682848" lon="150.6879804"/>
  <node id="139261604" version="10" timestamp="2009-01-17T23:48:38Z" uid="90579" user="wori" changeset="803630" lat="-33.7682848" lon="150.6879804"/>
  <node id="139261604" version="11" timestamp="2010-03-17T11:33:59Z" uid="30201" user="rrankin" changeset="4152201" lat="-33.7682178" lon="150.6880314"/>
  <node id="139261604" version="12" timestamp="2011-06-16T11:55:54Z" uid="47167" user="MCH" changeset="8455461" lat="-33.7682411" lon="150.6881141"/>
  <node id="139261605" version="4" timestamp="2008-12-31T05:16:19Z" uid="19626" user="Swamp" changeset="687835" lat="-33.7618133" lon="150.6892646"/>
  <node id="139261605" version="5" timestamp="2009-01-15T01:54:25Z" uid="90579" user="wori" changeset="793414" lat="-33.7618133" lon="150.6892646"/>
  <node id="139261605" version="6" timestamp="2009-01-15T01:54:38Z" uid="90579" user="wori" changeset="793414" lat="-33.7618133" lon="150.6892646"/>
  <node id="139261605" version="7" timestamp="2009-01-15T01:54:59Z" uid="90579" user="wori" changeset="793414" lat="-33.7618133" lon="150.6892646"/>
  <node id="139261605" version="8" timestamp="2009-01-15T01:55:43Z" uid="90579" user="wori" changeset="793414" lat="-33.7618133" lon="150.6892646"/>
  <node id="139261605" version="9" timestamp="2009-01-17T23:46:01Z" uid="90579" user="wori" changeset="803630" lat="-33.7618133" lon="150.6892646"/>
  <node id="139261605" version="10" timestamp="2009-01-17T23:48:38Z" uid="90579" user="wori" changeset="803630" lat="-33.7618133" lon="150.6892646"/>
  <node id="139261605" version="11" timestamp="2010-12-30T11:33:58Z" uid="4467" user="Rosscoe" changeset="6808062" lat="-33.761791" lon="150.6893293"/>
  <node id="139261952" version="1" timestamp="2007-11-28T09:59:33Z" uid="4467" user="Rosscoe" changeset="640529" lat="-29.865368" lon="150.575577">
    <tag k="created_by" v="JOSM"/>
    <tag k="highway" v="secondary"/>
    <tag k="name" v="East Street"/>
    <tag k="ref" v="95"/>
    <tag k="source" v="gpsdrivetrack"/>
    <tag k="surface" v="paved"/>
  </node>
  <node id="139261952" version="2" timestamp="2007-12-02T06:02:33Z" uid="4467" user="Rosscoe" changeset="40805" lat="-29.865368" lon="150.575577"/>
  <node id="139261952" version="3" timestamp="2008-10-06T11:07:19Z" uid="1218" user="macAlba" changeset="104435" lat="-29.8653549" lon="150.5755967"/>
  <node id="139261952" version="4" timestamp="2009-05-27T07:54:20Z" uid="74617" user="JohnSmith" changeset="1331912" lat="-29.8652656" lon="150.5755743"/>
  <node id="139261952" version="5" timestamp="2011-03-20T07:40:02Z" uid="349913" user="Peter W34" changeset="7613079" lat="-29.8652425" lon="150.5755827"/>
  <node id="139261952" version="6" timestamp="2011-05-26T23:53:40Z" uid="74617" user="JohnSmith" changeset="8258314" lat="-29.8650004" lon="150.5755029"/>
  <node id="139261973" version="1" timestamp="2007-11-28T09:59:34Z" uid="4467" user="Rosscoe" changeset="640529" lat="-29.8653" lon="150.575597">
    <tag k="created_by" v="JOSM"/>
    <tag k="highway" v="secondary"/>
    <tag k="name" v="East Street"/>
    <tag k="ref" v="95"/>
    <tag k="source" v="gpsdrivetrack"/>
    <tag k="surface" v="paved"/>
  </node>
  <node id="139261973" version="2" timestamp="2007-12-02T06:04:55Z" uid="4467" user="Rosscoe" changeset="40805" lat="-29.8653" lon="150.575597">
    <tag k="created_by" v="JOSM"/>
    <tag k="highway" v="secondary"/>
    <tag k="name" v="East Street"/>
    <tag k="ref" v="95"/>
    <tag k="source" v="gpsdrivetrack"/>
    <tag k="surface" v="paved"/>
  </node>
  <node id="139261990" version="1" timestamp="2007-11-28T09:59:35Z" uid="4467" user="Rosscoe" changeset="640529" lat="-29.865218" lon="150.575592">
    <tag k="created_by" v="JOSM"/>
    <tag k="highway" v="secondary"/>
    <tag k="name" v="East Street"/>
    <tag k="ref" v="95"/>
    <tag k="source" v="gpsdrivetrack"/>
    <tag k="surface" v="paved"/>
  </node>
  <node id="139261990" version="2" timestamp="2007-12-02T06:04:55Z" uid="4467" user="Rosscoe" changeset="40805" lat="-29.865218" lon="150.575592">
    <tag k="created_by" v="JOSM"/>
    <tag k="highway" v="secondary"/>
    <tag k="name" v="East Street"/>
    <tag k="ref" v="95"/>
    <tag k="source" v="gpsdrivetrack"/>
    <tag k="surface" v="paved"/>
  </node>
  <node id="139262009" version="1" timestamp="2007-11-28T09:59:36Z" uid="4467" user="Rosscoe" changeset="640529" lat="-29.865125" lon="150.575568">
    <tag k="created_by" v="JOSM"/>
    <tag k="highway" v="secondary"/>
    <tag k="name" v="East Street"/>
    <tag k="ref" v="95"/>
    <tag k="source" v="gpsdrivetrack"/>
    <tag k="surface" v="paved"/>
  </node>
  <node id="139262009" version="2" timestamp="2007-12-02T06:04:56Z" uid="4467" user="Rosscoe" changeset="40805" lat="-29.865125" lon="150.575568">
    <tag k="created_by" v="JOSM"/>
    <tag k="highway" v="secondary"/>
    <tag k="name" v="East Street"/>
    <tag k="ref" v="95"/>
    <tag k="source" v="gpsdrivetrack"/>
    <tag k="surface" v="paved"/>
  </node>
  <node id="139262032" version="1" timestamp="2007-11-28T09:59:36Z" uid="4467" user="Rosscoe" changeset="640529" lat="-29.86502" lon="150.575533">
    <tag k="created_by" v="JOSM"/>
    <tag k="highway" v="secondary"/>
    <tag k="name" v="East Street"/>
    <tag k="ref" v="95"/>
    <tag k="source" v="gpsdrivetrack"/>
    <tag k="surface" v="paved"/>
  </node>
  <node id="139262032" version="2" timestamp="2007-12-02T06:04:59Z" uid="4467" user="Rosscoe" changeset="40805" lat="-29.86502" lon="150.575533">
    <tag k="created_by" v="JOSM"/>
    <tag k="highway" v="secondary"/>
    <tag k="name" v="East Street"/>
    <tag k="ref" v="95"/>
    <tag k="source" v="gpsdrivetrack"/>
    <tag k="surface" v="paved"/>
  </node>
  <node id="139262048" version="1" timestamp="2007-11-28T09:59:37Z" uid="4467" user="Rosscoe" changeset="640529" lat="-29.864905" lon="150.57549">
    <tag k="created_by" v="JOSM"/>
    <tag k="highway" v="secondary"/>
    <tag k="name" v="East Street"/>
    <tag k="ref" v="95"/>
    <tag k="source" v="gpsdrivetrack"/>
    <tag k="surface" v="paved"/>
  </node>
  <node id="139262048" version="2" timestamp="2007-12-02T06:05:00Z" uid="4467" user="Rosscoe" changeset="40805" lat="-29.864905" lon="150.57549">
    <tag k="created_by" v="JOSM"/>
    <tag k="highway" v="secondary"/>
    <tag k="name" v="East Street"/>
    <tag k="ref" v="95"/>
    <tag k="source" v="gpsdrivetrack"/>
    <tag k="surface" v="paved"/>
  </node>
  <node id="139262065" version="1" timestamp="2007-11-28T09:59:38Z" uid="4467" user="Rosscoe" changeset="640529" lat="-29.864787" lon="150.575447">
    <tag k="created_by" v="JOSM"/>
    <tag k="highway" v="secondary"/>
    <tag k="name" v="East Street"/>
    <tag k="ref" v="95"/>
    <tag k="source" v="gpsdrivetrack"/>
    <tag k="surface" v="paved"/>
  </node>
  <node id="139262065" version="2" timestamp="2007-12-02T06:05:01Z" uid="4467" user="Rosscoe" changeset="40805" lat="-29.864787" lon="150.575447">
    <tag k="created_by" v="JOSM"/>
    <tag k="highway" v="secondary"/>
    <tag k="name" v="East Street"/>
    <tag k="ref" v="95"/>
    <tag k="source" v="gpsdrivetrack"/>
    <tag k="surface" v="paved"/>
  </node>
  <node id="139262085" version="1" timestamp="2007-11-28T09:59:39Z" uid="4467" user="Rosscoe" changeset="640529" lat="-29.864668" lon="150.575398">
    <tag k="created_by" v="JOSM"/>
    <tag k="highway" v="secondary"/>
    <tag k="name" v="East Street"/>
    <tag k="ref" v="95"/>
    <tag k="source" v="gpsdrivetrack"/>
    <tag k="surface" v="paved"/>
  </node>
  <node id="139262085" version="2" timestamp="2007-12-02T06:04:49Z" uid="4467" user="Rosscoe" changeset="40805" lat="-29.864668" lon="150.575398">
    <tag k="created_by" v="JOSM"/>
    <tag k="highway" v="secondary"/>
    <tag k="name" v="East Street"/>
    <tag k="ref" v="95"/>
    <tag k="source" v="gpsdrivetrack"/>
    <tag k="surface" v="paved"/>
  </node>
  <node id="139262110" version="1" timestamp="2007-11-28T09:59:40Z" uid="4467" user="Rosscoe" changeset="640529" lat="-29.864547" lon="150.575352">
    <tag k="created_by" v="JOSM"/>
    <tag k="highway" v="secondary"/>
    <tag k="name" v="East Street"/>
    <tag k="ref" v="95"/>
    <tag k="source" v="gpsdrivetrack"/>
    <tag k="surface" v="paved"/>
  </node>
  <node id="139262110" version="2" timestamp="2007-12-02T06:04:49Z" uid="4467" user="Rosscoe" changeset="40805" lat="-29.864547" lon="150.575352">
    <tag k="created_by" v="JOSM"/>
    <tag k="highway" v="secondary"/>
    <tag k="name" v="East Street"/>
    <tag k="ref" v="95"/>
    <tag k="source" v="gpsdrivetrack"/>
    <tag k="surface" v="paved"/>
  </node>
  <node id="139262129" version="1" timestamp="2007-11-28T09:59:40Z" uid="4467" user="Rosscoe" changeset="640529" lat="-29.864423" lon="150.575303">
    <tag k="created_by" v="JOSM"/>
    <tag k="highway" v="secondary"/>
    <tag k="name" v="East Street"/>
    <tag k="ref" v="95"/>
    <tag k="source" v="gpsdrivetrack"/>
    <tag k="surface" v="paved"/>
  </node>
  <node id="139262129" version="2" timestamp="2007-12-02T06:04:50Z" uid="4467" user="Rosscoe" changeset="40805" lat="-29.864423" lon="150.575303">
    <tag k="created_by" v="JOSM"/>
    <tag k="highway" v="secondary"/>
    <tag k="name" v="East Street"/>
    <tag k="ref" v="95"/>
    <tag k="source" v="gpsdrivetrack"/>
    <tag k="surface" v="paved"/>
  </node>
  <node id="139262150" version="1" timestamp="2007-11-28T09:59:41Z" uid="4467" user="Rosscoe" changeset="640529" lat="-29.864303" lon="150.575257">
    <tag k="created_by" v="JOSM"/>
    <tag k="highway" v="secondary"/>
    <tag k="name" v="East Street"/>
    <tag k="ref" v="95"/>
    <tag k="source" v="gpsdrivetrack"/>
    <tag k="surface" v="paved"/>
  </node>
  <node id="139262150" version="2" timestamp="2007-12-02T06:04:51Z" uid="4467" user="Rosscoe" changeset="40805" lat="-29.864303" lon="150.575257">
    <tag k="created_by" v="JOSM"/>
    <tag k="highway" v="secondary"/>
    <tag k="name" v="East Street"/>
    <tag k="ref" v="95"/>
    <tag k="source" v="gpsdrivetrack"/>
    <tag k="surface" v="paved"/>
  </node>
  <node id="139262171" version="1" timestamp="2007-11-28T09:59:42Z" uid="4467" user="Rosscoe" changeset="640529" lat="-29.864182" lon="150.57521">
    <tag k="created_by" v="JOSM"/>
    <tag k="highway" v="secondary"/>
    <tag k="name" v="East Street"/>
    <tag k="ref" v="95"/>
    <tag k="source" v="gpsdrivetrack"/>
    <tag k="surface" v="paved"/>
  </node>
  <node id="139262171" version="2" timestamp="2007-12-02T06:04:52Z" uid="4467" user="Rosscoe" changeset="40805" lat="-29.864182" lon="150.57521">
    <tag k="created_by" v="JOSM"/>
    <tag k="highway" v="secondary"/>
    <tag k="name" v="East Street"/>
    <tag k="ref" v="95"/>
    <tag k="source" v="gpsdrivetrack"/>
    <tag k="surface" v="paved"/>
  </node>
  <node id="139262192" version="1" timestamp="2007-11-28T09:59:43Z" uid="4467" user="Rosscoe" changeset="640529" lat="-29.864063" lon="150.575162">
    <tag k="created_by" v="JOSM"/>
    <tag k="highway" v="secondary"/>
    <tag k="name" v="East Street"/>
    <tag k="ref" v="95"/>
    <tag k="source" v="gpsdrivetrack"/>
    <tag k="surface" v="paved"/>
  </node>
  <node id="139262192" version="2" timestamp="2007-12-02T06:04:52Z" uid="4467" user="Rosscoe" changeset="40805" lat="-29.864063" lon="150.575162">
    <tag k="created_by" v="JOSM"/>
    <tag k="highway" v="secondary"/>
    <tag k="name" v="East Street"/>
    <tag k="ref" v="95"/>
    <tag k="source" v="gpsdrivetrack"/>
    <tag k="surface" v="paved"/>
  </node>
  <node id="139262218" version="1" timestamp="2007-11-28T09:59:43Z" uid="4467" user="Rosscoe" changeset="640529" lat="-29.863942" lon="150.575112">
    <tag k="created_by" v="JOSM"/>
    <tag k="highway" v="secondary"/>
    <tag k="name" v="East Street"/>
    <tag k="ref" v="95"/>
    <tag k="source" v="gpsdrivetrack"/>
    <tag k="surface" v="paved"/>
  </node>
  <node id="139262218" version="2" timestamp="2007-12-02T06:05:13Z" uid="4467" user="Rosscoe" changeset="40805" lat="-29.863942" lon="150.575112">
    <tag k="created_by" v="JOSM"/>
    <tag k="highway" v="secondary"/>
    <tag k="name" v="East Street"/>
    <tag k="ref" v="95"/>
    <tag k="source" v="gpsdrivetrack"/>
    <tag k="surface" v="paved"/>
  </node>
  <node id="139262239" version="1" timestamp="2007-11-28T09:59:44Z" uid="4467" user="Rosscoe" changeset="640529" lat="-29.863825" lon="150.575067">
    <tag k="created_by" v="JOSM"/>
    <tag k="highway" v="secondary"/>
    <tag k="name" v="East Street"/>
    <tag k="ref" v="95"/>
    <tag k="source" v="gpsdrivetrack"/>
    <tag k="surface" v="paved"/>
  </node>
  <node id="139262239" version="2" timestamp="2007-12-02T06:05:12Z" uid="4467" user="Rosscoe" changeset="40805" lat="-29.863825" lon="150.575067">
    <tag k="created_by" v="JOSM"/>
    <tag k="highway" v="secondary"/>
    <tag k="name" v="East Street"/>
    <tag k="ref" v="95"/>
    <tag k="source" v="gpsdrivetrack"/>
    <tag k="surface" v="paved"/>
  </node>
  <node id="139262252" version="1" timestamp="2007-11-28T09:59:45Z" uid="4467" user="Rosscoe" changeset="640529" lat="-29.863708" lon="150.57502">
    <tag k="created_by" v="JOSM"/>
    <tag k="highway" v="secondary"/>
    <tag k="name" v="East Street"/>
    <tag k="ref" v="95"/>
    <tag k="source" v="gpsdrivetrack"/>
    <tag k="surface" v="paved"/>
  </node>
  <node id="139262252" version="2" timestamp="2007-12-02T06:05:15Z" uid="4467" user="Rosscoe" changeset="40805" lat="-29.863708" lon="150.57502">
    <tag k="created_by" v="JOSM"/>
    <tag k="highway" v="secondary"/>
    <tag k="name" v="East Street"/>
    <tag k="ref" v="95"/>
    <tag k="source" v="gpsdrivetrack"/>
    <tag k="surface" v="paved"/>
  </node>
  <node id="139262274" version="1" timestamp="2007-11-28T09:59:46Z" uid="4467" user="Rosscoe" changeset="640529" lat="-29.86359" lon="150.574978">
    <tag k="created_by" v="JOSM"/>
    <tag k="highway" v="secondary"/>
    <tag k="name" v="East Street"/>
    <tag k="ref" v="95"/>
    <tag k="source" v="gpsdrivetrack"/>
    <tag k="surface" v="paved"/>
  </node>
  <node id="139262274" version="2" timestamp="2007-12-02T06:05:17Z" uid="4467" user="Rosscoe" changeset="40805" lat="-29.86359" lon="150.574978">
    <tag k="created_by" v="JOSM"/>
    <tag k="highway" v="secondary"/>
    <tag k="name" v="East Street"/>
    <tag k="ref" v="95"/>
    <tag k="source" v="gpsdrivetrack"/>
    <tag k="surface" v="paved"/>
  </node>
  <node id="139262301" version="1" timestamp="2007-11-28T09:59:47Z" uid="4467" user="Rosscoe" changeset="640529" lat="-29.863477" lon="150.574928">
    <tag k="created_by" v="JOSM"/>
    <tag k="highway" v="secondary"/>
    <tag k="name" v="East Street"/>
    <tag k="ref" v="95"/>
    <tag k="source" v="gpsdrivetrack"/>
    <tag k="surface" v="paved"/>
  </node>
  <node id="139262301" version="2" timestamp="2007-12-02T06:05:16Z" uid="4467" user="Rosscoe" changeset="40805" lat="-29.863477" lon="150.574928">
    <tag k="created_by" v="JOSM"/>
    <tag k="highway" v="secondary"/>
    <tag k="name" v="East Street"/>
    <tag k="ref" v="95"/>
    <tag k="source" v="gpsdrivetrack"/>
    <tag k="surface" v="paved"/>
  </node>
  <node id="139262319" version="1" timestamp="2007-11-28T09:59:47Z" uid="4467" user="Rosscoe" changeset="640529" lat="-29.863368" lon="150.574877">
    <tag k="created_by" v="JOSM"/>
    <tag k="highway" v="secondary"/>
    <tag k="name" v="East Street"/>
    <tag k="ref" v="95"/>
    <tag k="source" v="gpsdrivetrack"/>
    <tag k="surface" v="paved"/>
  </node>
  <node id="139262319" version="2" timestamp="2007-12-02T06:05:20Z" uid="4467" user="Rosscoe" changeset="40805" lat="-29.863368" lon="150.574877">
    <tag k="created_by" v="JOSM"/>
    <tag k="highway" v="secondary"/>
    <tag k="name" v="East Street"/>
    <tag k="ref" v="95"/>
    <tag k="source" v="gpsdrivetrack"/>
    <tag k="surface" v="paved"/>
  </node>
  <node id="139262326" version="1" timestamp="2007-11-28T09:59:48Z" uid="4467" user="Rosscoe" changeset="640529" lat="-29.863252" lon="150.574833">
    <tag k="created_by" v="JOSM"/>
    <tag k="highway" v="secondary"/>
    <tag k="name" v="East Street"/>
    <tag k="ref" v="95"/>
    <tag k="source" v="gpsdrivetrack"/>
    <tag k="surface" v="paved"/>
  </node>
  <node id="139262326" version="2" timestamp="2007-12-02T06:05:19Z" uid="4467" user="Rosscoe" changeset="40805" lat="-29.863252" lon="150.574833">
    <tag k="created_by" v="JOSM"/>
    <tag k="highway" v="secondary"/>
    <tag k="name" v="East Street"/>
    <tag k="ref" v="95"/>
    <tag k="source" v="gpsdrivetrack"/>
    <tag k="surface" v="paved"/>
  </node>
  <node id="139262344" version="1" timestamp="2007-11-28T09:59:49Z" uid="4467" user="Rosscoe" changeset="640529" lat="-29.863137" lon="150.57479">
    <tag k="created_by" v="JOSM"/>
    <tag k="highway" v="secondary"/>
    <tag k="name" v="East Street"/>
    <tag k="ref" v="95"/>
    <tag k="source" v="gpsdrivetrack"/>
    <tag k="surface" v="paved"/>
  </node>
  <node id="139262344" version="2" timestamp="2007-12-02T06:05:04Z" uid="4467" user="Rosscoe" changeset="40805" lat="-29.863137" lon="150.57479">
    <tag k="created_by" v="JOSM"/>
    <tag k="highway" v="secondary"/>
    <tag k="name" v="East Street"/>
    <tag k="ref" v="95"/>
    <tag k="source" v="gpsdrivetrack"/>
    <tag k="surface" v="paved"/>
  </node>
  <node id="139262364" version="1" timestamp="2007-11-28T09:59:50Z" uid="4467" user="Rosscoe" changeset="640529" lat="-29.863023" lon="150.574747">
    <tag k="created_by" v="JOSM"/>
    <tag k="highway" v="secondary"/>
    <tag k="name" v="East Street"/>
    <tag k="ref" v="95"/>
    <tag k="source" v="gpsdrivetrack"/>
    <tag k="surface" v="paved"/>
  </node>
  <node id="139262364" version="2" timestamp="2007-12-02T06:05:03Z" uid="4467" user="Rosscoe" changeset="40805" lat="-29.863023" lon="150.574747">
    <tag k="created_by" v="JOSM"/>
    <tag k="highway" v="secondary"/>
    <tag k="name" v="East Street"/>
    <tag k="ref" v="95"/>
    <tag k="source" v="gpsdrivetrack"/>
    <tag k="surface" v="paved"/>
  </node>
  <node id="139262369" version="1" timestamp="2007-11-28T09:59:50Z" uid="4467" user="Rosscoe" changeset="640529" lat="-29.862903" lon="150.574705">
    <tag k="created_by" v="JOSM"/>
    <tag k="highway" v="secondary"/>
    <tag k="name" v="East Street"/>
    <tag k="ref" v="95"/>
    <tag k="source" v="gpsdrivetrack"/>
    <tag k="surface" v="paved"/>
  </node>
  <node id="139262369" version="2" timestamp="2007-12-02T06:05:06Z" uid="4467" user="Rosscoe" changeset="40805" lat="-29.862903" lon="150.574705">
    <tag k="created_by" v="JOSM"/>
    <tag k="highway" v="secondary"/>
    <tag k="name" v="East Street"/>
    <tag k="ref" v="95"/>
    <tag k="source" v="gpsdrivetrack"/>
    <tag k="surface" v="paved"/>
  </node>
  <node id="139262370" version="1" timestamp="2007-11-28T09:59:51Z" uid="4467" user="Rosscoe" changeset="640529" lat="-29.862785" lon="150.574662">
    <tag k="created_by" v="JOSM"/>
    <tag k="highway" v="secondary"/>
    <tag k="name" v="East Street"/>
    <tag k="ref" v="95"/>
    <tag k="source" v="gpsdrivetrack"/>
    <tag k="surface" v="paved"/>
  </node>
  <node id="139262370" version="2" timestamp="2007-12-02T06:05:06Z" uid="4467" user="Rosscoe" changeset="40805" lat="-29.862785" lon="150.574662">
    <tag k="created_by" v="JOSM"/>
    <tag k="highway" v="secondary"/>
    <tag k="name" v="East Street"/>
    <tag k="ref" v="95"/>
    <tag k="source" v="gpsdrivetrack"/>
    <tag k="surface" v="paved"/>
  </node>
  <node id="139262386" version="1" timestamp="2007-11-28T09:59:52Z" uid="4467" user="Rosscoe" changeset="640529" lat="-29.862667" lon="150.574617">
    <tag k="created_by" v="JOSM"/>
    <tag k="highway" v="secondary"/>
    <tag k="name" v="East Street"/>
    <tag k="ref" v="95"/>
    <tag k="source" v="gpsdrivetrack"/>
    <tag k="surface" v="paved"/>
  </node>
  <node id="139262386" version="2" timestamp="2007-12-02T06:05:05Z" uid="4467" user="Rosscoe" changeset="40805" lat="-29.862667" lon="150.574617">
    <tag k="created_by" v="JOSM"/>
    <tag k="highway" v="secondary"/>
    <tag k="name" v="East Street"/>
    <tag k="ref" v="95"/>
    <tag k="source" v="gpsdrivetrack"/>
    <tag k="surface" v="paved"/>
  </node>
  <node id="139262403" version="1" timestamp="2007-11-28T09:59:53Z" uid="4467" user="Rosscoe" changeset="640529" lat="-29.862545" lon="150.574568">
    <tag k="created_by" v="JOSM"/>
    <tag k="highway" v="secondary"/>
    <tag k="name" v="East Street"/>
    <tag k="ref" v="95"/>
    <tag k="source" v="gpsdrivetrack"/>
    <tag k="surface" v="paved"/>
  </node>
  <node id="139262403" version="2" timestamp="2007-12-02T06:05:09Z" uid="4467" user="Rosscoe" changeset="40805" lat="-29.862545" lon="150.574568">
    <tag k="created_by" v="JOSM"/>
    <tag k="highway" v="secondary"/>
    <tag k="name" v="East Street"/>
    <tag k="ref" v="95"/>
    <tag k="source" v="gpsdrivetrack"/>
    <tag k="surface" v="paved"/>
  </node>
  <node id="139262425" version="1" timestamp="2007-11-28T09:59:54Z" uid="4467" user="Rosscoe" changeset="640529" lat="-29.86242" lon="150.574522">
    <tag k="created_by" v="JOSM"/>
    <tag k="highway" v="secondary"/>
    <tag k="name" v="East Street"/>
    <tag k="ref" v="95"/>
    <tag k="source" v="gpsdrivetrack"/>
    <tag k="surface" v="paved"/>
  </node>
  <node id="139262425" version="2" timestamp="2007-12-02T06:05:08Z" uid="4467" user="Rosscoe" changeset="40805" lat="-29.86242" lon="150.574522">
    <tag k="created_by" v="JOSM"/>
    <tag k="highway" v="secondary"/>
    <tag k="name" v="East Street"/>
    <tag k="ref" v="95"/>
    <tag k="source" v="gpsdrivetrack"/>
    <tag k="surface" v="paved"/>
  </node>
  <node id="139262441" version="1" timestamp="2007-11-28T09:59:54Z" uid="4467" user="Rosscoe" changeset="640529" lat="-29.862298" lon="150.574478">
    <tag k="created_by" v="JOSM"/>
    <tag k="highway" v="secondary"/>
    <tag k="name" v="East Street"/>
    <tag k="ref" v="95"/>
    <tag k="source" v="gpsdrivetrack"/>
    <tag k="surface" v="paved"/>
  </node>
  <node id="139262441" version="2" timestamp="2007-12-02T06:05:12Z" uid="4467" user="Rosscoe" changeset="40805" lat="-29.862298" lon="150.574478">
    <tag k="created_by" v="JOSM"/>
    <tag k="highway" v="secondary"/>
    <tag k="name" v="East Street"/>
    <tag k="ref" v="95"/>
    <tag k="source" v="gpsdrivetrack"/>
    <tag k="surface" v="paved"/>
  </node>
  <node id="139262461" version="1" timestamp="2007-11-28T09:59:55Z" uid="4467" user="Rosscoe" changeset="640529" lat="-29.862175" lon="150.574432">
    <tag k="created_by" v="JOSM"/>
    <tag k="highway" v="secondary"/>
    <tag k="name" v="East Street"/>
    <tag k="ref" v="95"/>
    <tag k="source" v="gpsdrivetrack"/>
    <tag k="surface" v="paved"/>
  </node>
  <node id="139262461" version="2" timestamp="2007-12-02T06:05:10Z" uid="4467" user="Rosscoe" changeset="40805" lat="-29.862175" lon="150.574432">
    <tag k="created_by" v="JOSM"/>
    <tag k="highway" v="secondary"/>
    <tag k="name" v="East Street"/>
    <tag k="ref" v="95"/>
    <tag k="source" v="gpsdrivetrack"/>
    <tag k="surface" v="paved"/>
  </node>
  <node id="139262484" version="1" timestamp="2007-11-28T09:59:56Z" uid="4467" user="Rosscoe" changeset="640529" lat="-29.86205" lon="150.574385">
    <tag k="created_by" v="JOSM"/>
    <tag k="highway" v="secondary"/>
    <tag k="name" v="East Street"/>
    <tag k="ref" v="95"/>
    <tag k="source" v="gpsdrivetrack"/>
    <tag k="surface" v="paved"/>
  </node>
  <node id="139262484" version="2" timestamp="2007-12-02T06:05:32Z" uid="4467" user="Rosscoe" changeset="40805" lat="-29.86205" lon="150.574385">
    <tag k="created_by" v="JOSM"/>
    <tag k="highway" v="secondary"/>
    <tag k="name" v="East Street"/>
    <tag k="ref" v="95"/>
    <tag k="source" v="gpsdrivetrack"/>
    <tag k="surface" v="paved"/>
  </node>
  <node id="139262508" version="1" timestamp="2007-11-28T09:59:57Z" uid="4467" user="Rosscoe" changeset="640529" lat="-29.861925" lon="150.57434">
    <tag k="created_by" v="JOSM"/>
    <tag k="highway" v="secondary"/>
    <tag k="name" v="East Street"/>
    <tag k="ref" v="95"/>
    <tag k="source" v="gpsdrivetrack"/>
    <tag k="surface" v="paved"/>
  </node>
  <node id="139262508" version="2" timestamp="2007-12-02T06:05:32Z" uid="4467" user="Rosscoe" changeset="40805" lat="-29.861925" lon="150.57434">
    <tag k="created_by" v="JOSM"/>
    <tag k="highway" v="secondary"/>
    <tag k="name" v="East Street"/>
    <tag k="ref" v="95"/>
    <tag k="source" v="gpsdrivetrack"/>
    <tag k="surface" v="paved"/>
  </node>
  <node id="139262528" version="1" timestamp="2007-11-28T09:59:57Z" uid="4467" user="Rosscoe" changeset="640529" lat="-29.861797" lon="150.574295">
    <tag k="created_by" v="JOSM"/>
    <tag k="highway" v="secondary"/>
    <tag k="name" v="East Street"/>
    <tag k="ref" v="95"/>
    <tag k="source" v="gpsdrivetrack"/>
    <tag k="surface" v="paved"/>
  </node>
  <node id="139262528" version="2" timestamp="2007-12-02T06:05:35Z" uid="4467" user="Rosscoe" changeset="40805" lat="-29.861797" lon="150.574295">
    <tag k="created_by" v="JOSM"/>
    <tag k="highway" v="secondary"/>
    <tag k="name" v="East Street"/>
    <tag k="ref" v="95"/>
    <tag k="source" v="gpsdrivetrack"/>
    <tag k="surface" v="paved"/>
  </node>
  <node id="139262576" version="1" timestamp="2007-11-28T09:59:58Z" uid="4467" user="Rosscoe" changeset="640529" lat="-29.861667" lon="150.574248">
    <tag k="created_by" v="JOSM"/>
    <tag k="highway" v="secondary"/>
    <tag k="name" v="East Street"/>
    <tag k="ref" v="95"/>
    <tag k="source" v="gpsdrivetrack"/>
    <tag k="surface" v="paved"/>
  </node>
  <node id="139262576" version="2" timestamp="2007-12-02T06:05:35Z" uid="4467" user="Rosscoe" changeset="40805" lat="-29.861667" lon="150.574248">
    <tag k="created_by" v="JOSM"/>
    <tag k="highway" v="secondary"/>
    <tag k="name" v="East Street"/>
    <tag k="ref" v="95"/>
    <tag k="source" v="gpsdrivetrack"/>
    <tag k="surface" v="paved"/>
  </node>
  <node id="139262593" version="1" timestamp="2007-11-28T09:59:59Z" uid="4467" user="Rosscoe" changeset="640529" lat="-29.86154" lon="150.574202">
    <tag k="created_by" v="JOSM"/>
    <tag k="highway" v="secondary"/>
    <tag k="name" v="East Street"/>
    <tag k="ref" v="95"/>
    <tag k="source" v="gpsdrivetrack"/>
    <tag k="surface" v="paved"/>
  </node>
  <node id="139262593" version="2" timestamp="2007-12-02T06:05:22Z" uid="4467" user="Rosscoe" changeset="40805" lat="-29.86154" lon="150.574202">
    <tag k="created_by" v="JOSM"/>
    <tag k="highway" v="secondary"/>
    <tag k="name" v="East Street"/>
    <tag k="ref" v="95"/>
    <tag k="source" v="gpsdrivetrack"/>
    <tag k="surface" v="paved"/>
  </node>
  <node id="139262615" version="1" timestamp="2007-11-28T10:00:00Z" uid="4467" user="Rosscoe" changeset="640529" lat="-29.86141" lon="150.574155">
    <tag k="created_by" v="JOSM"/>
    <tag k="highway" v="secondary"/>
    <tag k="name" v="East Street"/>
    <tag k="ref" v="95"/>
    <tag k="source" v="gpsdrivetrack"/>
    <tag k="surface" v="paved"/>
  </node>
  <node id="139262615" version="2" timestamp="2007-12-02T06:05:23Z" uid="4467" user="Rosscoe" changeset="40805" lat="-29.86141" lon="150.574155">
    <tag k="created_by" v="JOSM"/>
    <tag k="highway" v="secondary"/>
    <tag k="name" v="East Street"/>
    <tag k="ref" v="95"/>
    <tag k="source" v="gpsdrivetrack"/>
    <tag k="surface" v="paved"/>
  </node>
  <node id="139262643" version="1" timestamp="2007-11-28T10:00:00Z" uid="4467" user="Rosscoe" changeset="640529" lat="-29.861283" lon="150.574107">
    <tag k="created_by" v="JOSM"/>
    <tag k="highway" v="secondary"/>
    <tag k="name" v="East Street"/>
    <tag k="ref" v="95"/>
    <tag k="source" v="gpsdrivetrack"/>
    <tag k="surface" v="paved"/>
  </node>
  <node id="139262643" version="2" timestamp="2007-12-02T06:05:21Z" uid="4467" user="Rosscoe" changeset="40805" lat="-29.861283" lon="150.574107">
    <tag k="created_by" v="JOSM"/>
    <tag k="highway" v="secondary"/>
    <tag k="name" v="East Street"/>
    <tag k="ref" v="95"/>
    <tag k="source" v="gpsdrivetrack"/>
    <tag k="surface" v="paved"/>
  </node>
  <node id="139262665" version="1" timestamp="2007-11-28T10:00:01Z" uid="4467" user="Rosscoe" changeset="640529" lat="-29.861153" lon="150.574057">
    <tag k="created_by" v="JOSM"/>
    <tag k="highway" v="secondary"/>
    <tag k="name" v="East Street"/>
    <tag k="ref" v="95"/>
    <tag k="source" v="gpsdrivetrack"/>
    <tag k="surface" v="paved"/>
  </node>
  <node id="139262665" version="2" timestamp="2007-12-02T06:05:28Z" uid="4467" user="Rosscoe" changeset="40805" lat="-29.861153" lon="150.574057">
    <tag k="created_by" v="JOSM"/>
    <tag k="highway" v="secondary"/>
    <tag k="name" v="East Street"/>
    <tag k="ref" v="95"/>
    <tag k="source" v="gpsdrivetrack"/>
    <tag k="surface" v="paved"/>
  </node>
  <node id="139262667" version="1" timestamp="2007-11-28T10:00:02Z" uid="4467" user="Rosscoe" changeset="640529" lat="-29.86101" lon="150.574005">
    <tag k="created_by" v="JOSM"/>
    <tag k="highway" v="secondary"/>
    <tag k="name" v="East Street"/>
    <tag k="ref" v="95"/>
    <tag k="source" v="gpsdrivetrack"/>
    <tag k="surface" v="paved"/>
  </node>
  <node id="139262667" version="2" timestamp="2007-12-02T06:05:29Z" uid="4467" user="Rosscoe" changeset="40805" lat="-29.86101" lon="150.574005">
    <tag k="created_by" v="JOSM"/>
    <tag k="highway" v="secondary"/>
    <tag k="name" v="East Street"/>
    <tag k="ref" v="95"/>
    <tag k="source" v="gpsdrivetrack"/>
    <tag k="surface" v="paved"/>
  </node>
  <node id="139262672" version="1" timestamp="2007-11-28T10:00:03Z" uid="4467" user="Rosscoe" changeset="640529" lat="-29.860863" lon="150.57395">
    <tag k="created_by" v="JOSM"/>
    <tag k="highway" v="secondary"/>
    <tag k="name" v="East Street"/>
    <tag k="ref" v="95"/>
    <tag k="source" v="gpsdrivetrack"/>
    <tag k="surface" v="paved"/>
  </node>
  <node id="139262672" version="2" timestamp="2007-12-02T06:05:29Z" uid="4467" user="Rosscoe" changeset="40805" lat="-29.860863" lon="150.57395">
    <tag k="created_by" v="JOSM"/>
    <tag k="highway" v="secondary"/>
    <tag k="name" v="East Street"/>
    <tag k="ref" v="95"/>
    <tag k="source" v="gpsdrivetrack"/>
    <tag k="surface" v="paved"/>
  </node>
  <node id="139262678" version="1" timestamp="2007-11-28T10:00:04Z" uid="4467" user="Rosscoe" changeset="640529" lat="-29.860707" lon="150.573893">
    <tag k="created_by" v="JOSM"/>
    <tag k="highway" v="secondary"/>
    <tag k="name" v="East Street"/>
    <tag k="ref" v="95"/>
    <tag k="source" v="gpsdrivetrack"/>
    <tag k="surface" v="paved"/>
  </node>
  <node id="139262678" version="2" timestamp="2007-12-02T06:05:30Z" uid="4467" user="Rosscoe" changeset="40805" lat="-29.860707" lon="150.573893">
    <tag k="created_by" v="JOSM"/>
    <tag k="highway" v="secondary"/>
    <tag k="name" v="East Street"/>
    <tag k="ref" v="95"/>
    <tag k="source" v="gpsdrivetrack"/>
    <tag k="surface" v="paved"/>
  </node>
  <node id="139262683" version="1" timestamp="2007-11-28T10:00:04Z" uid="4467" user="Rosscoe" changeset="640529" lat="-29.860548" lon="150.573835">
    <tag k="created_by" v="JOSM"/>
    <tag k="highway" v="secondary"/>
    <tag k="name" v="East Street"/>
    <tag k="ref" v="95"/>
    <tag k="source" v="gpsdrivetrack"/>
    <tag k="surface" v="paved"/>
  </node>
  <node id="139262683" version="2" timestamp="2007-12-02T06:05:31Z" uid="4467" user="Rosscoe" changeset="40805" lat="-29.860548" lon="150.573835">
    <tag k="created_by" v="JOSM"/>
    <tag k="highway" v="secondary"/>
    <tag k="name" v="East Street"/>
    <tag k="ref" v="95"/>
    <tag k="source" v="gpsdrivetrack"/>
    <tag k="surface" v="paved"/>
  </node>
  <node id="139262690" version="1" timestamp="2007-11-28T10:00:05Z" uid="4467" user="Rosscoe" changeset="640529" lat="-29.860383" lon="150.573775">
    <tag k="created_by" v="JOSM"/>
    <tag k="highway" v="secondary"/>
    <tag k="name" v="East Street"/>
    <tag k="ref" v="95"/>
    <tag k="source" v="gpsdrivetrack"/>
    <tag k="surface" v="paved"/>
  </node>
  <node id="139262690" version="2" timestamp="2007-12-02T06:05:24Z" uid="4467" user="Rosscoe" changeset="40805" lat="-29.860383" lon="150.573775">
    <tag k="created_by" v="JOSM"/>
    <tag k="highway" v="secondary"/>
    <tag k="name" v="East Street"/>
    <tag k="ref" v="95"/>
    <tag k="source" v="gpsdrivetrack"/>
    <tag k="surface" v="paved"/>
  </node>
  <node id="139262696" version="1" timestamp="2007-11-28T10:00:06Z" uid="4467" user="Rosscoe" changeset="640529" lat="-29.860213" lon="150.573712">
    <tag k="created_by" v="JOSM"/>
    <tag k="highway" v="secondary"/>
    <tag k="name" v="East Street"/>
    <tag k="ref" v="95"/>
    <tag k="source" v="gpsdrivetrack"/>
    <tag k="surface" v="paved"/>
  </node>
  <node id="139262696" version="2" timestamp="2007-12-02T06:05:25Z" uid="4467" user="Rosscoe" changeset="40805" lat="-29.860213" lon="150.573712">
    <tag k="created_by" v="JOSM"/>
    <tag k="highway" v="secondary"/>
    <tag k="name" v="East Street"/>
    <tag k="ref" v="95"/>
    <tag k="source" v="gpsdrivetrack"/>
    <tag k="surface" v="paved"/>
  </node>
  <node id="139262702" version="1" timestamp="2007-11-28T10:00:07Z" uid="4467" user="Rosscoe" changeset="640529" lat="-29.860032" lon="150.573648">
    <tag k="created_by" v="JOSM"/>
    <tag k="highway" v="secondary"/>
    <tag k="name" v="East Street"/>
    <tag k="ref" v="95"/>
    <tag k="source" v="gpsdrivetrack"/>
    <tag k="surface" v="paved"/>
  </node>
  <node id="139262702" version="2" timestamp="2007-12-02T06:05:26Z" uid="4467" user="Rosscoe" changeset="40805" lat="-29.860032" lon="150.573648">
    <tag k="created_by" v="JOSM"/>
    <tag k="highway" v="secondary"/>
    <tag k="name" v="East Street"/>
    <tag k="ref" v="95"/>
    <tag k="source" v="gpsdrivetrack"/>
    <tag k="surface" v="paved"/>
  </node>
  <node id="139262709" version="1" timestamp="2007-11-28T10:00:07Z" uid="4467" user="Rosscoe" changeset="640529" lat="-29.859847" lon="150.573583">
    <tag k="created_by" v="JOSM"/>
    <tag k="highway" v="secondary"/>
    <tag k="name" v="East Street"/>
    <tag k="ref" v="95"/>
    <tag k="source" v="gpsdrivetrack"/>
    <tag k="surface" v="paved"/>
  </node>
  <node id="139262709" version="2" timestamp="2007-12-02T06:05:27Z" uid="4467" user="Rosscoe" changeset="40805" lat="-29.859847" lon="150.573583">
    <tag k="created_by" v="JOSM"/>
    <tag k="highway" v="secondary"/>
    <tag k="name" v="East Street"/>
    <tag k="ref" v="95"/>
    <tag k="source" v="gpsdrivetrack"/>
    <tag k="surface" v="paved"/>
  </node>
  <node id="139262723" version="1" timestamp="2007-11-28T10:00:08Z" uid="4467" user="Rosscoe" changeset="640529" lat="-29.859657" lon="150.573517">
    <tag k="created_by" v="JOSM"/>
    <tag k="highway" v="secondary"/>
    <tag k="name" v="East Street"/>
    <tag k="ref" v="95"/>
    <tag k="source" v="gpsdrivetrack"/>
    <tag k="surface" v="paved"/>
  </node>
  <node id="139262723" version="2" timestamp="2007-12-02T06:05:46Z" uid="4467" user="Rosscoe" changeset="40805" lat="-29.859657" lon="150.573517">
    <tag k="created_by" v="JOSM"/>
    <tag k="highway" v="secondary"/>
    <tag k="name" v="East Street"/>
    <tag k="ref" v="95"/>
    <tag k="source" v="gpsdrivetrack"/>
    <tag k="surface" v="paved"/>
  </node>
  <node id="139262735" version="1" timestamp="2007-11-28T10:00:09Z" uid="4467" user="Rosscoe" changeset="640529" lat="-29.859465" lon="150.573452">
    <tag k="created_by" v="JOSM"/>
    <tag k="highway" v="secondary"/>
    <tag k="name" v="East Street"/>
    <tag k="ref" v="95"/>
    <tag k="source" v="gpsdrivetrack"/>
    <tag k="surface" v="paved"/>
  </node>
  <node id="139262735" version="2" timestamp="2007-12-02T06:05:45Z" uid="4467" user="Rosscoe" changeset="40805" lat="-29.859465" lon="150.573452">
    <tag k="created_by" v="JOSM"/>
    <tag k="highway" v="secondary"/>
    <tag k="name" v="East Street"/>
    <tag k="ref" v="95"/>
    <tag k="source" v="gpsdrivetrack"/>
    <tag k="surface" v="paved"/>
  </node>
  <node id="139262745" version="1" timestamp="2007-11-28T10:00:10Z" uid="4467" user="Rosscoe" changeset="640529" lat="-29.85927" lon="150.573387">
    <tag k="created_by" v="JOSM"/>
    <tag k="highway" v="secondary"/>
    <tag k="name" v="East Street"/>
    <tag k="ref" v="95"/>
    <tag k="source" v="gpsdrivetrack"/>
    <tag k="surface" v="paved"/>
  </node>
  <node id="139262745" version="2" timestamp="2007-12-02T06:05:44Z" uid="4467" user="Rosscoe" changeset="40805" lat="-29.85927" lon="150.573387">
    <tag k="created_by" v="JOSM"/>
    <tag k="highway" v="secondary"/>
    <tag k="name" v="East Street"/>
    <tag k="ref" v="95"/>
    <tag k="source" v="gpsdrivetrack"/>
    <tag k="surface" v="paved"/>
  </node>
  <node id="139262755" version="1" timestamp="2007-11-28T10:00:11Z" uid="4467" user="Rosscoe" changeset="640529" lat="-29.85908" lon="150.573323">
    <tag k="created_by" v="JOSM"/>
    <tag k="highway" v="secondary"/>
    <tag k="name" v="East Street"/>
    <tag k="ref" v="95"/>
    <tag k="source" v="gpsdrivetrack"/>
    <tag k="surface" v="paved"/>
  </node>
  <node id="139262755" version="2" timestamp="2007-12-02T06:05:43Z" uid="4467" user="Rosscoe" changeset="40805" lat="-29.85908" lon="150.573323">
    <tag k="created_by" v="JOSM"/>
    <tag k="highway" v="secondary"/>
    <tag k="name" v="East Street"/>
    <tag k="ref" v="95"/>
    <tag k="source" v="gpsdrivetrack"/>
    <tag k="surface" v="paved"/>
  </node>
  <node id="139262771" version="1" timestamp="2007-11-28T10:00:11Z" uid="4467" user="Rosscoe" changeset="640529" lat="-29.858885" lon="150.573255">
    <tag k="created_by" v="JOSM"/>
    <tag k="highway" v="secondary"/>
    <tag k="name" v="East Street"/>
    <tag k="ref" v="95"/>
    <tag k="source" v="gpsdrivetrack"/>
    <tag k="surface" v="paved"/>
  </node>
  <node id="139262771" version="2" timestamp="2007-12-02T06:05:41Z" uid="4467" user="Rosscoe" changeset="40805" lat="-29.858885" lon="150.573255">
    <tag k="created_by" v="JOSM"/>
    <tag k="highway" v="secondary"/>
    <tag k="name" v="East Street"/>
    <tag k="ref" v="95"/>
    <tag k="source" v="gpsdrivetrack"/>
    <tag k="surface" v="paved"/>
  </node>
  <node id="139262797" version="1" timestamp="2007-11-28T10:00:12Z" uid="4467" user="Rosscoe" changeset="640529" lat="-29.85869" lon="150.573188">
    <tag k="created_by" v="JOSM"/>
    <tag k="highway" v="secondary"/>
    <tag k="name" v="East Street"/>
    <tag k="ref" v="95"/>
    <tag k="source" v="gpsdrivetrack"/>
    <tag k="surface" v="paved"/>
  </node>
  <node id="139262797" version="2" timestamp="2007-12-02T06:05:49Z" uid="4467" user="Rosscoe" changeset="40805" lat="-29.85869" lon="150.573188">
    <tag k="created_by" v="JOSM"/>
    <tag k="highway" v="secondary"/>
    <tag k="name" v="East Street"/>
    <tag k="ref" v="95"/>
    <tag k="source" v="gpsdrivetrack"/>
    <tag k="surface" v="paved"/>
  </node>
  <node id="139262821" version="1" timestamp="2007-11-28T10:00:13Z" uid="4467" user="Rosscoe" changeset="640529" lat="-29.858502" lon="150.573123">
    <tag k="created_by" v="JOSM"/>
    <tag k="highway" v="secondary"/>
    <tag k="name" v="East Street"/>
    <tag k="ref" v="95"/>
    <tag k="source" v="gpsdrivetrack"/>
    <tag k="surface" v="paved"/>
  </node>
  <node id="139262821" version="2" timestamp="2007-12-02T06:05:48Z" uid="4467" user="Rosscoe" changeset="40805" lat="-29.858502" lon="150.573123">
    <tag k="created_by" v="JOSM"/>
    <tag k="highway" v="secondary"/>
    <tag k="name" v="East Street"/>
    <tag k="ref" v="95"/>
    <tag k="source" v="gpsdrivetrack"/>
    <tag k="surface" v="paved"/>
  </node>
  <node id="139262848" version="1" timestamp="2007-11-28T10:00:14Z" uid="4467" user="Rosscoe" changeset="640529" lat="-29.85831" lon="150.57306">
    <tag k="created_by" v="JOSM"/>
    <tag k="highway" v="secondary"/>
    <tag k="name" v="East Street"/>
    <tag k="ref" v="95"/>
    <tag k="source" v="gpsdrivetrack"/>
    <tag k="surface" v="paved"/>
  </node>
  <node id="139262848" version="2" timestamp="2007-12-02T06:05:39Z" uid="4467" user="Rosscoe" changeset="40805" lat="-29.85831" lon="150.57306">
    <tag k="created_by" v="JOSM"/>
    <tag k="highway" v="secondary"/>
    <tag k="name" v="East Street"/>
    <tag k="ref" v="95"/>
    <tag k="source" v="gpsdrivetrack"/>
    <tag k="surface" v="paved"/>
  </node>
  <node id="139262870" version="1" timestamp="2007-11-28T10:00:14Z" uid="4467" user="Rosscoe" changeset="640529" lat="-29.858118" lon="150.572993">
    <tag k="created_by" v="JOSM"/>
    <tag k="highway" v="secondary"/>
    <tag k="name" v="East Street"/>
    <tag k="ref" v="95"/>
    <tag k="source" v="gpsdrivetrack"/>
    <tag k="surface" v="paved"/>
  </node>
  <node id="139262870" version="2" timestamp="2007-12-02T06:05:38Z" uid="4467" user="Rosscoe" changeset="40805" lat="-29.858118" lon="150.572993">
    <tag k="created_by" v="JOSM"/>
    <tag k="highway" v="secondary"/>
    <tag k="name" v="East Street"/>
    <tag k="ref" v="95"/>
    <tag k="source" v="gpsdrivetrack"/>
    <tag k="surface" v="paved"/>
  </node>
  <node id="139262892" version="1" timestamp="2007-11-28T10:00:15Z" uid="4467" user="Rosscoe" changeset="640529" lat="-29.857932" lon="150.572927">
    <tag k="created_by" v="JOSM"/>
    <tag k="highway" v="secondary"/>
    <tag k="name" v="East Street"/>
    <tag k="ref" v="95"/>
    <tag k="source" v="gpsdrivetrack"/>
    <tag k="surface" v="paved"/>
  </node>
  <node id="139262892" version="2" timestamp="2007-12-02T06:05:37Z" uid="4467" user="Rosscoe" changeset="40805" lat="-29.857932" lon="150.572927">
    <tag k="created_by" v="JOSM"/>
    <tag k="highway" v="secondary"/>
    <tag k="name" v="East Street"/>
    <tag k="ref" v="95"/>
    <tag k="source" v="gpsdrivetrack"/>
    <tag k="surface" v="paved"/>
  </node>
  <node id="139262921" version="1" timestamp="2007-11-28T10:00:16Z" uid="4467" user="Rosscoe" changeset="640529" lat="-29.85774" lon="150.572848">
    <tag k="created_by" v="JOSM"/>
    <tag k="highway" v="secondary"/>
    <tag k="name" v="East Street"/>
    <tag k="ref" v="95"/>
    <tag k="source" v="gpsdrivetrack"/>
    <tag k="surface" v="paved"/>
  </node>
  <node id="139262921" version="2" timestamp="2007-12-02T06:05:40Z" uid="4467" user="Rosscoe" changeset="40805" lat="-29.85774" lon="150.572848">
    <tag k="created_by" v="JOSM"/>
    <tag k="highway" v="secondary"/>
    <tag k="name" v="East Street"/>
    <tag k="ref" v="95"/>
    <tag k="source" v="gpsdrivetrack"/>
    <tag k="surface" v="paved"/>
  </node>
  <node id="139262939" version="1" timestamp="2007-11-28T10:00:17Z" uid="4467" user="Rosscoe" changeset="640529" lat="-29.857555" lon="150.572758">
    <tag k="created_by" v="JOSM"/>
    <tag k="highway" v="secondary"/>
    <tag k="name" v="East Street"/>
    <tag k="ref" v="95"/>
    <tag k="source" v="gpsdrivetrack"/>
    <tag k="surface" v="paved"/>
  </node>
  <node id="139262939" version="2" timestamp="2007-12-02T06:02:25Z" uid="4467" user="Rosscoe" changeset="40805" lat="-29.857555" lon="150.572758"/>
  <node id="139262939" version="3" timestamp="2008-10-06T11:15:54Z" uid="1218" user="macAlba" changeset="104435" lat="-29.857555" lon="150.572758"/>
  <node id="139263829" version="5" timestamp="2010-10-04T07:17:37Z" uid="61114" user="Trav" changeset="5950836" lat="-33.7611466" lon="150.6856708"/>
  <node id="139263930" version="1" timestamp="2007-11-28T10:00:52Z" uid="4467" user="Rosscoe" changeset="640529" lat="-29.86673" lon="150.571077">
    <tag k="created_by" v="JOSM"/>
    <tag k="highway" v="residential"/>
    <tag k="name" v="Cunningham Street"/>
    <tag k="ref" v="95"/>
    <tag k="source" v="gpsdrivetrack"/>
    <tag k="surface" v="paved"/>
  </node>
  <node id="139263930" version="2" timestamp="2007-12-02T06:02:36Z" uid="4467" user="Rosscoe" changeset="40805" lat="-29.86673" lon="150.571077"/>
  <node id="139263930" version="3" timestamp="2009-05-27T08:16:49Z" uid="74617" user="JohnSmith" changeset="1332042" lat="-29.86673" lon="150.571077"/>
  <node id="139263952" version="1" timestamp="2007-11-28T10:00:53Z" uid="4467" user="Rosscoe" changeset="640529" lat="-29.866675" lon="150.571113">
    <tag k="created_by" v="JOSM"/>
    <tag k="highway" v="residential"/>
    <tag k="name" v="Cunningham Street"/>
    <tag k="ref" v="95"/>
    <tag k="source" v="gpsdrivetrack"/>
    <tag k="surface" v="paved"/>
  </node>
  <node id="139263952" version="2" timestamp="2007-12-02T06:04:43Z" uid="4467" user="Rosscoe" changeset="40805" lat="-29.866675" lon="150.571113">
    <tag k="created_by" v="JOSM"/>
    <tag k="highway" v="residential"/>
    <tag k="name" v="Cunningham Street"/>
    <tag k="ref" v="95"/>
    <tag k="source" v="gpsdrivetrack"/>
    <tag k="surface" v="paved"/>
  </node>
  <node id="139263975" version="1" timestamp="2007-11-28T10:00:54Z" uid="4467" user="Rosscoe" changeset="640529" lat="-29.866632" lon="150.571172">
    <tag k="created_by" v="JOSM"/>
    <tag k="highway" v="residential"/>
    <tag k="name" v="Cunningham Street"/>
    <tag k="ref" v="95"/>
    <tag k="source" v="gpsdrivetrack"/>
    <tag k="surface" v="paved"/>
  </node>
  <node id="139263975" version="2" timestamp="2007-12-02T06:04:43Z" uid="4467" user="Rosscoe" changeset="40805" lat="-29.866632" lon="150.571172">
    <tag k="created_by" v="JOSM"/>
    <tag k="highway" v="residential"/>
    <tag k="name" v="Cunningham Street"/>
    <tag k="ref" v="95"/>
    <tag k="source" v="gpsdrivetrack"/>
    <tag k="surface" v="paved"/>
  </node>
  <node id="139263995" version="1" timestamp="2007-11-28T10:00:55Z" uid="4467" user="Rosscoe" changeset="640529" lat="-29.866595" lon="150.571248">
    <tag k="created_by" v="JOSM"/>
    <tag k="highway" v="residential"/>
    <tag k="name" v="Cunningham Street"/>
    <tag k="ref" v="95"/>
    <tag k="source" v="gpsdrivetrack"/>
    <tag k="surface" v="paved"/>
  </node>
  <node id="139263995" version="2" timestamp="2007-12-02T06:04:41Z" uid="4467" user="Rosscoe" changeset="40805" lat="-29.866595" lon="150.571248">
    <tag k="created_by" v="JOSM"/>
    <tag k="highway" v="residential"/>
    <tag k="name" v="Cunningham Street"/>
    <tag k="ref" v="95"/>
    <tag k="source" v="gpsdrivetrack"/>
    <tag k="surface" v="paved"/>
  </node>
  <node id="139264017" version="1" timestamp="2007-11-28T10:00:55Z" uid="4467" user="Rosscoe" changeset="640529" lat="-29.866563" lon="150.571342">
    <tag k="created_by" v="JOSM"/>
    <tag k="highway" v="residential"/>
    <tag k="name" v="Cunningham Street"/>
    <tag k="ref" v="95"/>
    <tag k="source" v="gpsdrivetrack"/>
    <tag k="surface" v="paved"/>
  </node>
  <node id="139264017" version="2" timestamp="2007-12-02T06:04:15Z" uid="4467" user="Rosscoe" changeset="40805" lat="-29.866563" lon="150.571342">
    <tag k="created_by" v="JOSM"/>
    <tag k="highway" v="residential"/>
    <tag k="name" v="Cunningham Street"/>
    <tag k="ref" v="95"/>
    <tag k="source" v="gpsdrivetrack"/>
    <tag k="surface" v="paved"/>
  </node>
  <node id="139264029" version="1" timestamp="2007-11-28T10:00:56Z" uid="4467" user="Rosscoe" changeset="640529" lat="-29.86653" lon="150.571447">
    <tag k="created_by" v="JOSM"/>
    <tag k="highway" v="residential"/>
    <tag k="name" v="Cunningham Street"/>
    <tag k="ref" v="95"/>
    <tag k="source" v="gpsdrivetrack"/>
    <tag k="surface" v="paved"/>
  </node>
  <node id="139264029" version="2" timestamp="2007-12-02T06:04:17Z" uid="4467" user="Rosscoe" changeset="40805" lat="-29.86653" lon="150.571447">
    <tag k="created_by" v="JOSM"/>
    <tag k="highway" v="residential"/>
    <tag k="name" v="Cunningham Street"/>
    <tag k="ref" v="95"/>
    <tag k="source" v="gpsdrivetrack"/>
    <tag k="surface" v="paved"/>
  </node>
  <node id="139264054" version="1" timestamp="2007-11-28T10:00:57Z" uid="4467" user="Rosscoe" changeset="640529" lat="-29.866498" lon="150.57156">
    <tag k="created_by" v="JOSM"/>
    <tag k="highway" v="residential"/>
    <tag k="name" v="Cunningham Street"/>
    <tag k="ref" v="95"/>
    <tag k="source" v="gpsdrivetrack"/>
    <tag k="surface" v="paved"/>
  </node>
  <node id="139264054" version="2" timestamp="2007-12-02T06:04:12Z" uid="4467" user="Rosscoe" changeset="40805" lat="-29.866498" lon="150.57156">
    <tag k="created_by" v="JOSM"/>
    <tag k="highway" v="residential"/>
    <tag k="name" v="Cunningham Street"/>
    <tag k="ref" v="95"/>
    <tag k="source" v="gpsdrivetrack"/>
    <tag k="surface" v="paved"/>
  </node>
  <node id="139264078" version="1" timestamp="2007-11-28T10:00:58Z" uid="4467" user="Rosscoe" changeset="640529" lat="-29.866468" lon="150.571683">
    <tag k="created_by" v="JOSM"/>
    <tag k="highway" v="residential"/>
    <tag k="name" v="Cunningham Street"/>
    <tag k="ref" v="95"/>
    <tag k="source" v="gpsdrivetrack"/>
    <tag k="surface" v="paved"/>
  </node>
  <node id="139264078" version="2" timestamp="2007-12-02T06:04:10Z" uid="4467" user="Rosscoe" changeset="40805" lat="-29.866468" lon="150.571683">
    <tag k="created_by" v="JOSM"/>
    <tag k="highway" v="residential"/>
    <tag k="name" v="Cunningham Street"/>
    <tag k="ref" v="95"/>
    <tag k="source" v="gpsdrivetrack"/>
    <tag k="surface" v="paved"/>
  </node>
  <node id="139264103" version="1" timestamp="2007-11-28T10:00:58Z" uid="4467" user="Rosscoe" changeset="640529" lat="-29.866438" lon="150.571812">
    <tag k="created_by" v="JOSM"/>
    <tag k="highway" v="residential"/>
    <tag k="name" v="Cunningham Street"/>
    <tag k="ref" v="95"/>
    <tag k="source" v="gpsdrivetrack"/>
    <tag k="surface" v="paved"/>
  </node>
  <node id="139264103" version="2" timestamp="2007-12-02T06:04:09Z" uid="4467" user="Rosscoe" changeset="40805" lat="-29.866438" lon="150.571812">
    <tag k="created_by" v="JOSM"/>
    <tag k="highway" v="residential"/>
    <tag k="name" v="Cunningham Street"/>
    <tag k="ref" v="95"/>
    <tag k="source" v="gpsdrivetrack"/>
    <tag k="surface" v="paved"/>
  </node>
  <node id="139264129" version="1" timestamp="2007-11-28T10:00:59Z" uid="4467" user="Rosscoe" changeset="640529" lat="-29.866408" lon="150.571947">
    <tag k="created_by" v="JOSM"/>
    <tag k="highway" v="residential"/>
    <tag k="name" v="Cunningham Street"/>
    <tag k="ref" v="95"/>
    <tag k="source" v="gpsdrivetrack"/>
    <tag k="surface" v="paved"/>
  </node>
  <node id="139264129" version="2" timestamp="2007-12-02T06:04:06Z" uid="4467" user="Rosscoe" changeset="40805" lat="-29.866408" lon="150.571947">
    <tag k="created_by" v="JOSM"/>
    <tag k="highway" v="residential"/>
    <tag k="name" v="Cunningham Street"/>
    <tag k="ref" v="95"/>
    <tag k="source" v="gpsdrivetrack"/>
    <tag k="surface" v="paved"/>
  </node>
  <node id="139264153" version="1" timestamp="2007-11-28T10:01:00Z" uid="4467" user="Rosscoe" changeset="640529" lat="-29.866375" lon="150.572088">
    <tag k="created_by" v="JOSM"/>
    <tag k="highway" v="residential"/>
    <tag k="name" v="Cunningham Street"/>
    <tag k="ref" v="95"/>
    <tag k="source" v="gpsdrivetrack"/>
    <tag k="surface" v="paved"/>
  </node>
  <node id="139264153" version="2" timestamp="2007-12-02T06:04:08Z" uid="4467" user="Rosscoe" changeset="40805" lat="-29.866375" lon="150.572088">
    <tag k="created_by" v="JOSM"/>
    <tag k="highway" v="residential"/>
    <tag k="name" v="Cunningham Street"/>
    <tag k="ref" v="95"/>
    <tag k="source" v="gpsdrivetrack"/>
    <tag k="surface" v="paved"/>
  </node>
  <node id="139264171" version="1" timestamp="2007-11-28T10:01:01Z" uid="4467" user="Rosscoe" changeset="640529" lat="-29.866338" lon="150.572232">
    <tag k="created_by" v="JOSM"/>
    <tag k="highway" v="residential"/>
    <tag k="name" v="Cunningham Street"/>
    <tag k="ref" v="95"/>
    <tag k="source" v="gpsdrivetrack"/>
    <tag k="surface" v="paved"/>
  </node>
  <node id="139264171" version="2" timestamp="2007-12-02T06:04:05Z" uid="4467" user="Rosscoe" changeset="40805" lat="-29.866338" lon="150.572232">
    <tag k="created_by" v="JOSM"/>
    <tag k="highway" v="residential"/>
    <tag k="name" v="Cunningham Street"/>
    <tag k="ref" v="95"/>
    <tag k="source" v="gpsdrivetrack"/>
    <tag k="surface" v="paved"/>
  </node>
  <node id="139264196" version="1" timestamp="2007-11-28T10:01:01Z" uid="4467" user="Rosscoe" changeset="640529" lat="-29.8663" lon="150.572373">
    <tag k="created_by" v="JOSM"/>
    <tag k="highway" v="residential"/>
    <tag k="name" v="Cunningham Street"/>
    <tag k="ref" v="95"/>
    <tag k="source" v="gpsdrivetrack"/>
    <tag k="surface" v="paved"/>
  </node>
  <node id="139264196" version="2" timestamp="2007-12-02T06:04:03Z" uid="4467" user="Rosscoe" changeset="40805" lat="-29.8663" lon="150.572373">
    <tag k="created_by" v="JOSM"/>
    <tag k="highway" v="residential"/>
    <tag k="name" v="Cunningham Street"/>
    <tag k="ref" v="95"/>
    <tag k="source" v="gpsdrivetrack"/>
    <tag k="surface" v="paved"/>
  </node>
  <node id="139264222" version="1" timestamp="2007-11-28T10:01:02Z" uid="4467" user="Rosscoe" changeset="640529" lat="-29.866262" lon="150.572518">
    <tag k="created_by" v="JOSM"/>
    <tag k="highway" v="residential"/>
    <tag k="name" v="Cunningham Street"/>
    <tag k="ref" v="95"/>
    <tag k="source" v="gpsdrivetrack"/>
    <tag k="surface" v="paved"/>
  </node>
  <node id="139264222" version="2" timestamp="2007-12-02T06:04:04Z" uid="4467" user="Rosscoe" changeset="40805" lat="-29.866262" lon="150.572518">
    <tag k="created_by" v="JOSM"/>
    <tag k="highway" v="residential"/>
    <tag k="name" v="Cunningham Street"/>
    <tag k="ref" v="95"/>
    <tag k="source" v="gpsdrivetrack"/>
    <tag k="surface" v="paved"/>
  </node>
  <node id="139264239" version="1" timestamp="2007-11-28T10:01:03Z" uid="4467" user="Rosscoe" changeset="640529" lat="-29.866222" lon="150.572663">
    <tag k="created_by" v="JOSM"/>
    <tag k="highway" v="residential"/>
    <tag k="name" v="Cunningham Street"/>
    <tag k="ref" v="95"/>
    <tag k="source" v="gpsdrivetrack"/>
    <tag k="surface" v="paved"/>
  </node>
  <node id="139264239" version="2" timestamp="2007-12-02T06:04:02Z" uid="4467" user="Rosscoe" changeset="40805" lat="-29.866222" lon="150.572663">
    <tag k="created_by" v="JOSM"/>
    <tag k="highway" v="residential"/>
    <tag k="name" v="Cunningham Street"/>
    <tag k="ref" v="95"/>
    <tag k="source" v="gpsdrivetrack"/>
    <tag k="surface" v="paved"/>
  </node>
  <node id="139264263" version="1" timestamp="2007-11-28T10:01:04Z" uid="4467" user="Rosscoe" changeset="640529" lat="-29.866183" lon="150.572808">
    <tag k="created_by" v="JOSM"/>
    <tag k="highway" v="residential"/>
    <tag k="name" v="Cunningham Street"/>
    <tag k="ref" v="95"/>
    <tag k="source" v="gpsdrivetrack"/>
    <tag k="surface" v="paved"/>
  </node>
  <node id="139264263" version="2" timestamp="2007-12-02T06:04:30Z" uid="4467" user="Rosscoe" changeset="40805" lat="-29.866183" lon="150.572808">
    <tag k="created_by" v="JOSM"/>
    <tag k="highway" v="residential"/>
    <tag k="name" v="Cunningham Street"/>
    <tag k="ref" v="95"/>
    <tag k="source" v="gpsdrivetrack"/>
    <tag k="surface" v="paved"/>
  </node>
  <node id="139264288" version="1" timestamp="2007-11-28T10:01:05Z" uid="4467" user="Rosscoe" changeset="640529" lat="-29.866105" lon="150.573095">
    <tag k="created_by" v="JOSM"/>
    <tag k="highway" v="residential"/>
    <tag k="name" v="Cunningham Street"/>
    <tag k="ref" v="95"/>
    <tag k="source" v="gpsdrivetrack"/>
    <tag k="surface" v="paved"/>
  </node>
  <node id="139264288" version="2" timestamp="2007-12-02T06:04:29Z" uid="4467" user="Rosscoe" changeset="40805" lat="-29.866105" lon="150.573095">
    <tag k="created_by" v="JOSM"/>
    <tag k="highway" v="residential"/>
    <tag k="name" v="Cunningham Street"/>
    <tag k="ref" v="95"/>
    <tag k="source" v="gpsdrivetrack"/>
    <tag k="surface" v="paved"/>
  </node>
  <node id="139264315" version="1" timestamp="2007-11-28T10:01:05Z" uid="4467" user="Rosscoe" changeset="640529" lat="-29.866143" lon="150.572952">
    <tag k="created_by" v="JOSM"/>
    <tag k="highway" v="residential"/>
    <tag k="name" v="Cunningham Street"/>
    <tag k="ref" v="95"/>
    <tag k="source" v="gpsdrivetrack"/>
    <tag k="surface" v="paved"/>
  </node>
  <node id="139264315" version="2" timestamp="2007-12-02T06:04:28Z" uid="4467" user="Rosscoe" changeset="40805" lat="-29.866143" lon="150.572952">
    <tag k="created_by" v="JOSM"/>
    <tag k="highway" v="residential"/>
    <tag k="name" v="Cunningham Street"/>
    <tag k="ref" v="95"/>
    <tag k="source" v="gpsdrivetrack"/>
    <tag k="surface" v="paved"/>
  </node>
  <node id="139264336" version="1" timestamp="2007-11-28T10:01:06Z" uid="4467" user="Rosscoe" changeset="640529" lat="-29.866028" lon="150.573383">
    <tag k="created_by" v="JOSM"/>
    <tag k="highway" v="residential"/>
    <tag k="name" v="Cunningham Street"/>
    <tag k="ref" v="95"/>
    <tag k="source" v="gpsdrivetrack"/>
    <tag k="surface" v="paved"/>
  </node>
  <node id="139264336" version="2" timestamp="2007-12-02T06:04:26Z" uid="4467" user="Rosscoe" changeset="40805" lat="-29.866028" lon="150.573383">
    <tag k="created_by" v="JOSM"/>
    <tag k="highway" v="residential"/>
    <tag k="name" v="Cunningham Street"/>
    <tag k="ref" v="95"/>
    <tag k="source" v="gpsdrivetrack"/>
    <tag k="surface" v="paved"/>
  </node>
  <node id="139264364" version="1" timestamp="2007-11-28T10:01:07Z" uid="4467" user="Rosscoe" changeset="640529" lat="-29.866068" lon="150.573237">
    <tag k="created_by" v="JOSM"/>
    <tag k="highway" v="residential"/>
    <tag k="name" v="Cunningham Street"/>
    <tag k="ref" v="95"/>
    <tag k="source" v="gpsdrivetrack"/>
    <tag k="surface" v="paved"/>
  </node>
  <node id="139264364" version="2" timestamp="2007-12-02T06:04:25Z" uid="4467" user="Rosscoe" changeset="40805" lat="-29.866068" lon="150.573237">
    <tag k="created_by" v="JOSM"/>
    <tag k="highway" v="residential"/>
    <tag k="name" v="Cunningham Street"/>
    <tag k="ref" v="95"/>
    <tag k="source" v="gpsdrivetrack"/>
    <tag k="surface" v="paved"/>
  </node>
  <node id="139264386" version="1" timestamp="2007-11-28T10:01:08Z" uid="4467" user="Rosscoe" changeset="640529" lat="-29.86595" lon="150.573672">
    <tag k="created_by" v="JOSM"/>
    <tag k="highway" v="residential"/>
    <tag k="name" v="Cunningham Street"/>
    <tag k="ref" v="95"/>
    <tag k="source" v="gpsdrivetrack"/>
    <tag k="surface" v="paved"/>
  </node>
  <node id="139264386" version="2" timestamp="2007-12-02T06:04:23Z" uid="4467" user="Rosscoe" changeset="40805" lat="-29.86595" lon="150.573672">
    <tag k="created_by" v="JOSM"/>
    <tag k="highway" v="residential"/>
    <tag k="name" v="Cunningham Street"/>
    <tag k="ref" v="95"/>
    <tag k="source" v="gpsdrivetrack"/>
    <tag k="surface" v="paved"/>
  </node>
  <node id="139264411" version="1" timestamp="2007-11-28T10:01:08Z" uid="4467" user="Rosscoe" changeset="640529" lat="-29.86599" lon="150.573528">
    <tag k="created_by" v="JOSM"/>
    <tag k="highway" v="residential"/>
    <tag k="name" v="Cunningham Street"/>
    <tag k="ref" v="95"/>
    <tag k="source" v="gpsdrivetrack"/>
    <tag k="surface" v="paved"/>
  </node>
  <node id="139264411" version="2" timestamp="2007-12-02T06:04:22Z" uid="4467" user="Rosscoe" changeset="40805" lat="-29.86599" lon="150.573528">
    <tag k="created_by" v="JOSM"/>
    <tag k="highway" v="residential"/>
    <tag k="name" v="Cunningham Street"/>
    <tag k="ref" v="95"/>
    <tag k="source" v="gpsdrivetrack"/>
    <tag k="surface" v="paved"/>
  </node>
  <node id="139264427" version="1" timestamp="2007-11-28T10:01:09Z" uid="4467" user="Rosscoe" changeset="640529" lat="-29.865867" lon="150.573967">
    <tag k="created_by" v="JOSM"/>
    <tag k="highway" v="residential"/>
    <tag k="name" v="Cunningham Street"/>
    <tag k="ref" v="95"/>
    <tag k="source" v="gpsdrivetrack"/>
    <tag k="surface" v="paved"/>
  </node>
  <node id="139264427" version="2" timestamp="2007-12-02T06:04:21Z" uid="4467" user="Rosscoe" changeset="40805" lat="-29.865867" lon="150.573967">
    <tag k="created_by" v="JOSM"/>
    <tag k="highway" v="residential"/>
    <tag k="name" v="Cunningham Street"/>
    <tag k="ref" v="95"/>
    <tag k="source" v="gpsdrivetrack"/>
    <tag k="surface" v="paved"/>
  </node>
  <node id="139264442" version="1" timestamp="2007-11-28T10:01:10Z" uid="4467" user="Rosscoe" changeset="640529" lat="-29.865908" lon="150.573818">
    <tag k="created_by" v="JOSM"/>
    <tag k="highway" v="residential"/>
    <tag k="name" v="Cunningham Street"/>
    <tag k="ref" v="95"/>
    <tag k="source" v="gpsdrivetrack"/>
    <tag k="surface" v="paved"/>
  </node>
  <node id="139264442" version="2" timestamp="2007-12-02T06:04:20Z" uid="4467" user="Rosscoe" changeset="40805" lat="-29.865908" lon="150.573818">
    <tag k="created_by" v="JOSM"/>
    <tag k="highway" v="residential"/>
    <tag k="name" v="Cunningham Street"/>
    <tag k="ref" v="95"/>
    <tag k="source" v="gpsdrivetrack"/>
    <tag k="surface" v="paved"/>
  </node>
  <node id="139264460" version="1" timestamp="2007-11-28T10:01:11Z" uid="4467" user="Rosscoe" changeset="640529" lat="-29.865787" lon="150.57426">
    <tag k="created_by" v="JOSM"/>
    <tag k="highway" v="residential"/>
    <tag k="name" v="Cunningham Street"/>
    <tag k="ref" v="95"/>
    <tag k="source" v="gpsdrivetrack"/>
    <tag k="surface" v="paved"/>
  </node>
  <node id="139264460" version="2" timestamp="2007-12-02T06:04:19Z" uid="4467" user="Rosscoe" changeset="40805" lat="-29.865787" lon="150.57426">
    <tag k="created_by" v="JOSM"/>
    <tag k="highway" v="residential"/>
    <tag k="name" v="Cunningham Street"/>
    <tag k="ref" v="95"/>
    <tag k="source" v="gpsdrivetrack"/>
    <tag k="surface" v="paved"/>
  </node>
  <node id="139264478" version="4" timestamp="2010-10-04T07:17:37Z" uid="61114" user="Trav" changeset="5950836" lat="-33.7631168" lon="150.6863282"/>
  <node id="139264488" version="1" timestamp="2007-11-28T10:01:12Z" uid="4467" user="Rosscoe" changeset="640529" lat="-29.865827" lon="150.574113">
    <tag k="created_by" v="JOSM"/>
    <tag k="highway" v="residential"/>
    <tag k="name" v="Cunningham Street"/>
    <tag k="ref" v="95"/>
    <tag k="source" v="gpsdrivetrack"/>
    <tag k="surface" v="paved"/>
  </node>
  <node id="139264488" version="2" timestamp="2007-12-02T06:04:18Z" uid="4467" user="Rosscoe" changeset="40805" lat="-29.865827" lon="150.574113">
    <tag k="created_by" v="JOSM"/>
    <tag k="highway" v="residential"/>
    <tag k="name" v="Cunningham Street"/>
    <tag k="ref" v="95"/>
    <tag k="source" v="gpsdrivetrack"/>
    <tag k="surface" v="paved"/>
  </node>
  <node id="139264505" version="1" timestamp="2007-11-28T10:01:12Z" uid="4467" user="Rosscoe" changeset="640529" lat="-29.865708" lon="150.574553">
    <tag k="created_by" v="JOSM"/>
    <tag k="highway" v="residential"/>
    <tag k="name" v="Cunningham Street"/>
    <tag k="ref" v="95"/>
    <tag k="source" v="gpsdrivetrack"/>
    <tag k="surface" v="paved"/>
  </node>
  <node id="139264505" version="2" timestamp="2007-12-02T06:04:17Z" uid="4467" user="Rosscoe" changeset="40805" lat="-29.865708" lon="150.574553">
    <tag k="created_by" v="JOSM"/>
    <tag k="highway" v="residential"/>
    <tag k="name" v="Cunningham Street"/>
    <tag k="ref" v="95"/>
    <tag k="source" v="gpsdrivetrack"/>
    <tag k="surface" v="paved"/>
  </node>
  <node id="139264526" version="1" timestamp="2007-11-28T10:01:13Z" uid="4467" user="Rosscoe" changeset="640529" lat="-29.865748" lon="150.574408">
    <tag k="created_by" v="JOSM"/>
    <tag k="highway" v="residential"/>
    <tag k="name" v="Cunningham Street"/>
    <tag k="ref" v="95"/>
    <tag k="source" v="gpsdrivetrack"/>
    <tag k="surface" v="paved"/>
  </node>
  <node id="139264526" version="2" timestamp="2007-12-02T06:04:37Z" uid="4467" user="Rosscoe" changeset="40805" lat="-29.865748" lon="150.574408">
    <tag k="created_by" v="JOSM"/>
    <tag k="highway" v="residential"/>
    <tag k="name" v="Cunningham Street"/>
    <tag k="ref" v="95"/>
    <tag k="source" v="gpsdrivetrack"/>
    <tag k="surface" v="paved"/>
  </node>
  <node id="139264545" version="1" timestamp="2007-11-28T10:01:14Z" uid="4467" user="Rosscoe" changeset="640529" lat="-29.865633" lon="150.574843">
    <tag k="created_by" v="JOSM"/>
    <tag k="highway" v="residential"/>
    <tag k="name" v="Cunningham Street"/>
    <tag k="ref" v="95"/>
    <tag k="source" v="gpsdrivetrack"/>
    <tag k="surface" v="paved"/>
  </node>
  <node id="139264545" version="2" timestamp="2007-12-02T06:04:39Z" uid="4467" user="Rosscoe" changeset="40805" lat="-29.865633" lon="150.574843">
    <tag k="created_by" v="JOSM"/>
    <tag k="highway" v="residential"/>
    <tag k="name" v="Cunningham Street"/>
    <tag k="ref" v="95"/>
    <tag k="source" v="gpsdrivetrack"/>
    <tag k="surface" v="paved"/>
  </node>
  <node id="139264565" version="1" timestamp="2007-11-28T10:01:15Z" uid="4467" user="Rosscoe" changeset="640529" lat="-29.86567" lon="150.5747">
    <tag k="created_by" v="JOSM"/>
    <tag k="highway" v="residential"/>
    <tag k="name" v="Cunningham Street"/>
    <tag k="ref" v="95"/>
    <tag k="source" v="gpsdrivetrack"/>
    <tag k="surface" v="paved"/>
  </node>
  <node id="139264565" version="2" timestamp="2007-12-02T06:04:40Z" uid="4467" user="Rosscoe" changeset="40805" lat="-29.86567" lon="150.5747">
    <tag k="created_by" v="JOSM"/>
    <tag k="highway" v="residential"/>
    <tag k="name" v="Cunningham Street"/>
    <tag k="ref" v="95"/>
    <tag k="source" v="gpsdrivetrack"/>
    <tag k="surface" v="paved"/>
  </node>
  <node id="139264586" version="1" timestamp="2007-11-28T10:01:15Z" uid="4467" user="Rosscoe" changeset="640529" lat="-29.86556" lon="150.575128">
    <tag k="created_by" v="JOSM"/>
    <tag k="highway" v="residential"/>
    <tag k="name" v="Cunningham Street"/>
    <tag k="ref" v="95"/>
    <tag k="source" v="gpsdrivetrack"/>
    <tag k="surface" v="paved"/>
  </node>
  <node id="139264586" version="2" timestamp="2007-12-02T06:04:35Z" uid="4467" user="Rosscoe" changeset="40805" lat="-29.86556" lon="150.575128">
    <tag k="created_by" v="JOSM"/>
    <tag k="highway" v="residential"/>
    <tag k="name" v="Cunningham Street"/>
    <tag k="ref" v="95"/>
    <tag k="source" v="gpsdrivetrack"/>
    <tag k="surface" v="paved"/>
  </node>
  <node id="139264607" version="1" timestamp="2007-11-28T10:01:16Z" uid="4467" user="Rosscoe" changeset="640529" lat="-29.865598" lon="150.574985">
    <tag k="created_by" v="JOSM"/>
    <tag k="highway" v="residential"/>
    <tag k="name" v="Cunningham Street"/>
    <tag k="ref" v="95"/>
    <tag k="source" v="gpsdrivetrack"/>
    <tag k="surface" v="paved"/>
  </node>
  <node id="139264607" version="2" timestamp="2007-12-02T06:04:35Z" uid="4467" user="Rosscoe" changeset="40805" lat="-29.865598" lon="150.574985">
    <tag k="created_by" v="JOSM"/>
    <tag k="highway" v="residential"/>
    <tag k="name" v="Cunningham Street"/>
    <tag k="ref" v="95"/>
    <tag k="source" v="gpsdrivetrack"/>
    <tag k="surface" v="paved"/>
  </node>
  <node id="139264631" version="1" timestamp="2007-11-28T10:01:17Z" uid="4467" user="Rosscoe" changeset="640529" lat="-29.86546" lon="150.575457">
    <tag k="created_by" v="JOSM"/>
    <tag k="highway" v="residential"/>
    <tag k="name" v="Cunningham Street"/>
    <tag k="ref" v="95"/>
    <tag k="source" v="gpsdrivetrack"/>
    <tag k="surface" v="paved"/>
  </node>
  <node id="139264631" version="2" timestamp="2007-12-02T06:04:36Z" uid="4467" user="Rosscoe" changeset="40805" lat="-29.86546" lon="150.575457">
    <tag k="created_by" v="JOSM"/>
    <tag k="highway" v="residential"/>
    <tag k="name" v="Cunningham Street"/>
    <tag k="ref" v="95"/>
    <tag k="source" v="gpsdrivetrack"/>
    <tag k="surface" v="paved"/>
  </node>
  <node id="139264652" version="1" timestamp="2007-11-28T10:01:18Z" uid="4467" user="Rosscoe" changeset="640529" lat="-29.86542" lon="150.575527">
    <tag k="created_by" v="JOSM"/>
    <tag k="highway" v="residential"/>
    <tag k="name" v="Cunningham Street"/>
    <tag k="ref" v="95"/>
    <tag k="source" v="gpsdrivetrack"/>
    <tag k="surface" v="paved"/>
  </node>
  <node id="139264652" version="2" timestamp="2007-12-02T06:04:32Z" uid="4467" user="Rosscoe" changeset="40805" lat="-29.86542" lon="150.575527">
    <tag k="created_by" v="JOSM"/>
    <tag k="highway" v="residential"/>
    <tag k="name" v="Cunningham Street"/>
    <tag k="ref" v="95"/>
    <tag k="source" v="gpsdrivetrack"/>
    <tag k="surface" v="paved"/>
  </node>
  <node id="139264675" version="1" timestamp="2007-11-28T10:01:19Z" uid="4467" user="Rosscoe" changeset="640529" lat="-29.865527" lon="150.575258">
    <tag k="created_by" v="JOSM"/>
    <tag k="highway" v="residential"/>
    <tag k="name" v="Cunningham Street"/>
    <tag k="ref" v="95"/>
    <tag k="source" v="gpsdrivetrack"/>
    <tag k="surface" v="paved"/>
  </node>
  <node id="139264675" version="2" timestamp="2007-12-02T06:04:33Z" uid="4467" user="Rosscoe" changeset="40805" lat="-29.865527" lon="150.575258">
    <tag k="created_by" v="JOSM"/>
    <tag k="highway" v="residential"/>
    <tag k="name" v="Cunningham Street"/>
    <tag k="ref" v="95"/>
    <tag k="source" v="gpsdrivetrack"/>
    <tag k="surface" v="paved"/>
  </node>
  <node id="139264699" version="1" timestamp="2007-11-28T10:01:19Z" uid="4467" user="Rosscoe" changeset="640529" lat="-29.865493" lon="150.575367">
    <tag k="created_by" v="JOSM"/>
    <tag k="highway" v="residential"/>
    <tag k="name" v="Cunningham Street"/>
    <tag k="ref" v="95"/>
    <tag k="source" v="gpsdrivetrack"/>
    <tag k="surface" v="paved"/>
  </node>
  <node id="139264699" version="2" timestamp="2007-12-02T06:04:34Z" uid="4467" user="Rosscoe" changeset="40805" lat="-29.865493" lon="150.575367">
    <tag k="created_by" v="JOSM"/>
    <tag k="highway" v="residential"/>
    <tag k="name" v="Cunningham Street"/>
    <tag k="ref" v="95"/>
    <tag k="source" v="gpsdrivetrack"/>
    <tag k="surface" v="paved"/>
  </node>
  <node id="139264719" version="1" timestamp="2007-11-28T10:01:20Z" uid="4467" user="Rosscoe" changeset="640529" lat="-29.865368" lon="150.575577">
    <tag k="created_by" v="JOSM"/>
    <tag k="highway" v="residential"/>
    <tag k="name" v="Cunningham Street"/>
    <tag k="ref" v="95"/>
    <tag k="source" v="gpsdrivetrack"/>
    <tag k="surface" v="paved"/>
  </node>
  <node id="139264719" version="2" timestamp="2007-12-02T06:02:42Z" uid="4467" user="Rosscoe" changeset="40805" lat="-29.865368" lon="150.575577"/>
  <node id="139264719" version="3" timestamp="2008-10-06T11:07:21Z" uid="1218" user="macAlba" changeset="104435" lat="-29.8653578" lon="150.5755977"/>
  <node id="139264719" version="4" timestamp="2009-05-27T07:54:20Z" uid="74617" user="JohnSmith" changeset="1331912" lat="-29.8654393" lon="150.575629"/>
  <node id="139264719" version="5" timestamp="2011-03-20T07:40:02Z" uid="349913" user="Peter W34" changeset="7613079" lat="-29.8654402" lon="150.5756492"/>
  <node id="139265194" version="16" timestamp="2010-12-30T11:33:59Z" uid="4467" user="Rosscoe" changeset="6808062" lat="-33.7609234" lon="150.6866211"/>
  <node id="139265194" version="17" timestamp="2011-01-14T11:24:30Z" uid="47167" user="MCH" changeset="6966228" lat="-33.7609234" lon="150.6866211"/>
  <node id="139266052" version="2" timestamp="2010-10-04T07:17:37Z" uid="61114" user="Trav" changeset="5950836" lat="-33.7683905" lon="150.6806516">
    <tag k="highway" v="turning_circle"/>
    <tag k="source" v="nearmap"/>
  </node>
  <node id="139266059" version="5" timestamp="2010-10-04T07:17:36Z" uid="61114" user="Trav" changeset="5950836" lat="-33.7676254" lon="150.6828999"/>
  <node id="139266335" version="2" timestamp="2010-10-04T07:17:36Z" uid="61114" user="Trav" changeset="5950836" lat="-33.7690572" lon="150.6832614">
    <tag k="highway" v="turning_circle"/>
    <tag k="source" v="nearmap"/>
  </node>
  <node id="139267074" version="2" timestamp="2010-03-17T11:33:59Z" uid="30201" user="rrankin" changeset="4152201" lat="-33.7709352" lon="150.6864876"/>
  <node id="139267074" version="3" timestamp="2010-10-04T07:17:17Z" uid="61114" user="Trav" changeset="5950836" lat="-33.770934" lon="150.6865498"/>
  <node id="139267075" version="2" timestamp="2010-03-17T11:33:59Z" uid="30201" user="rrankin" changeset="4152201" lat="-33.7705978" lon="150.685584">
    <tag k="highway" v="turning_circle"/>
  </node>
  <node id="139267075" version="3" timestamp="2010-10-04T07:18:15Z" uid="61114" user="Trav" changeset="5950836" lat="-33.7705978" lon="150.685584">
    <tag k="highway" v="turning_circle"/>
  </node>
  <node id="139267737" version="1" timestamp="2007-11-28T10:03:23Z" uid="4467" user="Rosscoe" changeset="640529" lat="-29.874735" lon="150.574043">
    <tag k="created_by" v="JOSM"/>
    <tag k="highway" v="residential"/>
    <tag k="name" v="Maitland Street"/>
    <tag k="ref" v="95"/>
    <tag k="source" v="gpsdrivetrack"/>
    <tag k="surface" v="paved"/>
  </node>
  <node id="139267737" version="2" timestamp="2007-12-02T06:02:54Z" uid="4467" user="Rosscoe" changeset="40805" lat="-29.874735" lon="150.574043"/>
  <node id="139267737" version="3" timestamp="2009-01-30T10:25:02Z" uid="69499" user="VK1RE" changeset="854043" lat="-29.874735" lon="150.574043"/>
  <node id="139267737" version="4" timestamp="2009-06-04T05:47:07Z" uid="74617" user="JohnSmith" changeset="1418621" lat="-29.874735" lon="150.574043"/>
  <node id="139267755" version="1" timestamp="2007-11-28T10:03:24Z" uid="4467" user="Rosscoe" changeset="640529" lat="-29.874592" lon="150.573985">
    <tag k="created_by" v="JOSM"/>
    <tag k="highway" v="residential"/>
    <tag k="name" v="Maitland Street"/>
    <tag k="ref" v="95"/>
    <tag k="source" v="gpsdrivetrack"/>
    <tag k="surface" v="paved"/>
  </node>
  <node id="139267755" version="2" timestamp="2007-12-02T06:03:50Z" uid="4467" user="Rosscoe" changeset="40805" lat="-29.874592" lon="150.573985">
    <tag k="created_by" v="JOSM"/>
    <tag k="highway" v="residential"/>
    <tag k="name" v="Maitland Street"/>
    <tag k="ref" v="95"/>
    <tag k="source" v="gpsdrivetrack"/>
    <tag k="surface" v="paved"/>
  </node>
  <node id="139267776" version="1" timestamp="2007-11-28T10:03:24Z" uid="4467" user="Rosscoe" changeset="640529" lat="-29.874448" lon="150.573927">
    <tag k="created_by" v="JOSM"/>
    <tag k="highway" v="residential"/>
    <tag k="name" v="Maitland Street"/>
    <tag k="ref" v="95"/>
    <tag k="source" v="gpsdrivetrack"/>
    <tag k="surface" v="paved"/>
  </node>
  <node id="139267776" version="2" timestamp="2007-12-02T06:03:51Z" uid="4467" user="Rosscoe" changeset="40805" lat="-29.874448" lon="150.573927">
    <tag k="created_by" v="JOSM"/>
    <tag k="highway" v="residential"/>
    <tag k="name" v="Maitland Street"/>
    <tag k="ref" v="95"/>
    <tag k="source" v="gpsdrivetrack"/>
    <tag k="surface" v="paved"/>
  </node>
  <node id="139267800" version="1" timestamp="2007-11-28T10:03:25Z" uid="4467" user="Rosscoe" changeset="640529" lat="-29.874305" lon="150.573868">
    <tag k="created_by" v="JOSM"/>
    <tag k="highway" v="residential"/>
    <tag k="name" v="Maitland Street"/>
    <tag k="ref" v="95"/>
    <tag k="source" v="gpsdrivetrack"/>
    <tag k="surface" v="paved"/>
  </node>
  <node id="139267800" version="2" timestamp="2007-12-02T06:03:51Z" uid="4467" user="Rosscoe" changeset="40805" lat="-29.874305" lon="150.573868">
    <tag k="created_by" v="JOSM"/>
    <tag k="highway" v="residential"/>
    <tag k="name" v="Maitland Street"/>
    <tag k="ref" v="95"/>
    <tag k="source" v="gpsdrivetrack"/>
    <tag k="surface" v="paved"/>
  </node>
  <node id="139267822" version="1" timestamp="2007-11-28T10:03:26Z" uid="4467" user="Rosscoe" changeset="640529" lat="-29.874162" lon="150.573812">
    <tag k="created_by" v="JOSM"/>
    <tag k="highway" v="residential"/>
    <tag k="name" v="Maitland Street"/>
    <tag k="ref" v="95"/>
    <tag k="source" v="gpsdrivetrack"/>
    <tag k="surface" v="paved"/>
  </node>
  <node id="139267822" version="2" timestamp="2007-12-02T06:03:52Z" uid="4467" user="Rosscoe" changeset="40805" lat="-29.874162" lon="150.573812">
    <tag k="created_by" v="JOSM"/>
    <tag k="highway" v="residential"/>
    <tag k="name" v="Maitland Street"/>
    <tag k="ref" v="95"/>
    <tag k="source" v="gpsdrivetrack"/>
    <tag k="surface" v="paved"/>
  </node>
  <node id="139267842" version="1" timestamp="2007-11-28T10:03:27Z" uid="4467" user="Rosscoe" changeset="640529" lat="-29.874018" lon="150.573755">
    <tag k="created_by" v="JOSM"/>
    <tag k="highway" v="residential"/>
    <tag k="name" v="Maitland Street"/>
    <tag k="ref" v="95"/>
    <tag k="source" v="gpsdrivetrack"/>
    <tag k="surface" v="paved"/>
  </node>
  <node id="139267842" version="2" timestamp="2007-12-02T06:03:53Z" uid="4467" user="Rosscoe" changeset="40805" lat="-29.874018" lon="150.573755">
    <tag k="created_by" v="JOSM"/>
    <tag k="highway" v="residential"/>
    <tag k="name" v="Maitland Street"/>
    <tag k="ref" v="95"/>
    <tag k="source" v="gpsdrivetrack"/>
    <tag k="surface" v="paved"/>
  </node>
  <node id="139267865" version="1" timestamp="2007-11-28T10:03:27Z" uid="4467" user="Rosscoe" changeset="640529" lat="-29.873878" lon="150.573698">
    <tag k="created_by" v="JOSM"/>
    <tag k="highway" v="residential"/>
    <tag k="name" v="Maitland Street"/>
    <tag k="ref" v="95"/>
    <tag k="source" v="gpsdrivetrack"/>
    <tag k="surface" v="paved"/>
  </node>
  <node id="139267865" version="2" timestamp="2007-12-02T06:03:54Z" uid="4467" user="Rosscoe" changeset="40805" lat="-29.873878" lon="150.573698">
    <tag k="created_by" v="JOSM"/>
    <tag k="highway" v="residential"/>
    <tag k="name" v="Maitland Street"/>
    <tag k="ref" v="95"/>
    <tag k="source" v="gpsdrivetrack"/>
    <tag k="surface" v="paved"/>
  </node>
  <node id="139267883" version="1" timestamp="2007-11-28T10:03:28Z" uid="4467" user="Rosscoe" changeset="640529" lat="-29.873732" lon="150.57364">
    <tag k="created_by" v="JOSM"/>
    <tag k="highway" v="residential"/>
    <tag k="name" v="Maitland Street"/>
    <tag k="ref" v="95"/>
    <tag k="source" v="gpsdrivetrack"/>
    <tag k="surface" v="paved"/>
  </node>
  <node id="139267883" version="2" timestamp="2007-12-02T06:03:54Z" uid="4467" user="Rosscoe" changeset="40805" lat="-29.873732" lon="150.57364">
    <tag k="created_by" v="JOSM"/>
    <tag k="highway" v="residential"/>
    <tag k="name" v="Maitland Street"/>
    <tag k="ref" v="95"/>
    <tag k="source" v="gpsdrivetrack"/>
    <tag k="surface" v="paved"/>
  </node>
  <node id="139267902" version="1" timestamp="2007-11-28T10:03:29Z" uid="4467" user="Rosscoe" changeset="640529" lat="-29.873587" lon="150.573583">
    <tag k="created_by" v="JOSM"/>
    <tag k="highway" v="residential"/>
    <tag k="name" v="Maitland Street"/>
    <tag k="ref" v="95"/>
    <tag k="source" v="gpsdrivetrack"/>
    <tag k="surface" v="paved"/>
  </node>
  <node id="139267902" version="2" timestamp="2007-12-02T06:03:55Z" uid="4467" user="Rosscoe" changeset="40805" lat="-29.873587" lon="150.573583">
    <tag k="created_by" v="JOSM"/>
    <tag k="highway" v="residential"/>
    <tag k="name" v="Maitland Street"/>
    <tag k="ref" v="95"/>
    <tag k="source" v="gpsdrivetrack"/>
    <tag k="surface" v="paved"/>
  </node>
  <node id="139267922" version="1" timestamp="2007-11-28T10:03:30Z" uid="4467" user="Rosscoe" changeset="640529" lat="-29.873448" lon="150.57353">
    <tag k="created_by" v="JOSM"/>
    <tag k="highway" v="residential"/>
    <tag k="name" v="Maitland Street"/>
    <tag k="ref" v="95"/>
    <tag k="source" v="gpsdrivetrack"/>
    <tag k="surface" v="paved"/>
  </node>
  <node id="139267922" version="2" timestamp="2007-12-02T06:03:56Z" uid="4467" user="Rosscoe" changeset="40805" lat="-29.873448" lon="150.57353">
    <tag k="created_by" v="JOSM"/>
    <tag k="highway" v="residential"/>
    <tag k="name" v="Maitland Street"/>
    <tag k="ref" v="95"/>
    <tag k="source" v="gpsdrivetrack"/>
    <tag k="surface" v="paved"/>
  </node>
  <node id="139267942" version="1" timestamp="2007-11-28T10:03:31Z" uid="4467" user="Rosscoe" changeset="640529" lat="-29.873308" lon="150.573477">
    <tag k="created_by" v="JOSM"/>
    <tag k="highway" v="residential"/>
    <tag k="name" v="Maitland Street"/>
    <tag k="ref" v="95"/>
    <tag k="source" v="gpsdrivetrack"/>
    <tag k="surface" v="paved"/>
  </node>
  <node id="139267942" version="2" timestamp="2007-12-02T06:03:57Z" uid="4467" user="Rosscoe" changeset="40805" lat="-29.873308" lon="150.573477">
    <tag k="created_by" v="JOSM"/>
    <tag k="highway" v="residential"/>
    <tag k="name" v="Maitland Street"/>
    <tag k="ref" v="95"/>
    <tag k="source" v="gpsdrivetrack"/>
    <tag k="surface" v="paved"/>
  </node>
  <node id="139267963" version="1" timestamp="2007-11-28T10:03:31Z" uid="4467" user="Rosscoe" changeset="640529" lat="-29.87317" lon="150.573423">
    <tag k="created_by" v="JOSM"/>
    <tag k="highway" v="residential"/>
    <tag k="name" v="Maitland Street"/>
    <tag k="ref" v="95"/>
    <tag k="source" v="gpsdrivetrack"/>
    <tag k="surface" v="paved"/>
  </node>
  <node id="139267963" version="2" timestamp="2007-12-02T06:03:57Z" uid="4467" user="Rosscoe" changeset="40805" lat="-29.87317" lon="150.573423">
    <tag k="created_by" v="JOSM"/>
    <tag k="highway" v="residential"/>
    <tag k="name" v="Maitland Street"/>
    <tag k="ref" v="95"/>
    <tag k="source" v="gpsdrivetrack"/>
    <tag k="surface" v="paved"/>
  </node>
  <node id="139267982" version="1" timestamp="2007-11-28T10:03:32Z" uid="4467" user="Rosscoe" changeset="640529" lat="-29.873035" lon="150.573372">
    <tag k="created_by" v="JOSM"/>
    <tag k="highway" v="residential"/>
    <tag k="name" v="Maitland Street"/>
    <tag k="ref" v="95"/>
    <tag k="source" v="gpsdrivetrack"/>
    <tag k="surface" v="paved"/>
  </node>
  <node id="139267982" version="2" timestamp="2007-12-02T06:03:58Z" uid="4467" user="Rosscoe" changeset="40805" lat="-29.873035" lon="150.573372">
    <tag k="created_by" v="JOSM"/>
    <tag k="highway" v="residential"/>
    <tag k="name" v="Maitland Street"/>
    <tag k="ref" v="95"/>
    <tag k="source" v="gpsdrivetrack"/>
    <tag k="surface" v="paved"/>
  </node>
  <node id="139268006" version="1" timestamp="2007-11-28T10:03:33Z" uid="4467" user="Rosscoe" changeset="640529" lat="-29.8729" lon="150.573318">
    <tag k="created_by" v="JOSM"/>
    <tag k="highway" v="residential"/>
    <tag k="name" v="Maitland Street"/>
    <tag k="ref" v="95"/>
    <tag k="source" v="gpsdrivetrack"/>
    <tag k="surface" v="paved"/>
  </node>
  <node id="139268006" version="2" timestamp="2007-12-02T06:03:59Z" uid="4467" user="Rosscoe" changeset="40805" lat="-29.8729" lon="150.573318">
    <tag k="created_by" v="JOSM"/>
    <tag k="highway" v="residential"/>
    <tag k="name" v="Maitland Street"/>
    <tag k="ref" v="95"/>
    <tag k="source" v="gpsdrivetrack"/>
    <tag k="surface" v="paved"/>
  </node>
  <node id="139268031" version="1" timestamp="2007-11-28T10:03:34Z" uid="4467" user="Rosscoe" changeset="640529" lat="-29.872765" lon="150.573267">
    <tag k="created_by" v="JOSM"/>
    <tag k="highway" v="residential"/>
    <tag k="name" v="Maitland Street"/>
    <tag k="ref" v="95"/>
    <tag k="source" v="gpsdrivetrack"/>
    <tag k="surface" v="paved"/>
  </node>
  <node id="139268031" version="2" timestamp="2007-12-02T06:04:00Z" uid="4467" user="Rosscoe" changeset="40805" lat="-29.872765" lon="150.573267">
    <tag k="created_by" v="JOSM"/>
    <tag k="highway" v="residential"/>
    <tag k="name" v="Maitland Street"/>
    <tag k="ref" v="95"/>
    <tag k="source" v="gpsdrivetrack"/>
    <tag k="surface" v="paved"/>
  </node>
  <node id="139268059" version="1" timestamp="2007-11-28T10:03:35Z" uid="4467" user="Rosscoe" changeset="640529" lat="-29.872635" lon="150.573218">
    <tag k="created_by" v="JOSM"/>
    <tag k="highway" v="residential"/>
    <tag k="name" v="Maitland Street"/>
    <tag k="ref" v="95"/>
    <tag k="source" v="gpsdrivetrack"/>
    <tag k="surface" v="paved"/>
  </node>
  <node id="139268059" version="2" timestamp="2007-12-02T06:04:00Z" uid="4467" user="Rosscoe" changeset="40805" lat="-29.872635" lon="150.573218">
    <tag k="created_by" v="JOSM"/>
    <tag k="highway" v="residential"/>
    <tag k="name" v="Maitland Street"/>
    <tag k="ref" v="95"/>
    <tag k="source" v="gpsdrivetrack"/>
    <tag k="surface" v="paved"/>
  </node>
  <node id="139268087" version="1" timestamp="2007-11-28T10:03:35Z" uid="4467" user="Rosscoe" changeset="640529" lat="-29.872372" lon="150.57312">
    <tag k="created_by" v="JOSM"/>
    <tag k="highway" v="residential"/>
    <tag k="name" v="Maitland Street"/>
    <tag k="ref" v="95"/>
    <tag k="source" v="gpsdrivetrack"/>
    <tag k="surface" v="paved"/>
  </node>
  <node id="139268087" version="2" timestamp="2007-12-02T06:04:01Z" uid="4467" user="Rosscoe" changeset="40805" lat="-29.872372" lon="150.57312">
    <tag k="created_by" v="JOSM"/>
    <tag k="highway" v="residential"/>
    <tag k="name" v="Maitland Street"/>
    <tag k="ref" v="95"/>
    <tag k="source" v="gpsdrivetrack"/>
    <tag k="surface" v="paved"/>
  </node>
  <node id="139268112" version="1" timestamp="2007-11-28T10:03:36Z" uid="4467" user="Rosscoe" changeset="640529" lat="-29.872503" lon="150.57317">
    <tag k="created_by" v="JOSM"/>
    <tag k="highway" v="residential"/>
    <tag k="name" v="Maitland Street"/>
    <tag k="ref" v="95"/>
    <tag k="source" v="gpsdrivetrack"/>
    <tag k="surface" v="paved"/>
  </node>
  <node id="139268112" version="2" timestamp="2007-12-02T06:03:26Z" uid="4467" user="Rosscoe" changeset="40805" lat="-29.872503" lon="150.57317">
    <tag k="created_by" v="JOSM"/>
    <tag k="highway" v="residential"/>
    <tag k="name" v="Maitland Street"/>
    <tag k="ref" v="95"/>
    <tag k="source" v="gpsdrivetrack"/>
    <tag k="surface" v="paved"/>
  </node>
  <node id="139268130" version="1" timestamp="2007-11-28T10:03:37Z" uid="4467" user="Rosscoe" changeset="640529" lat="-29.872108" lon="150.57302">
    <tag k="created_by" v="JOSM"/>
    <tag k="highway" v="residential"/>
    <tag k="name" v="Maitland Street"/>
    <tag k="ref" v="95"/>
    <tag k="source" v="gpsdrivetrack"/>
    <tag k="surface" v="paved"/>
  </node>
  <node id="139268130" version="2" timestamp="2007-12-02T06:03:27Z" uid="4467" user="Rosscoe" changeset="40805" lat="-29.872108" lon="150.57302">
    <tag k="created_by" v="JOSM"/>
    <tag k="highway" v="residential"/>
    <tag k="name" v="Maitland Street"/>
    <tag k="ref" v="95"/>
    <tag k="source" v="gpsdrivetrack"/>
    <tag k="surface" v="paved"/>
  </node>
  <node id="139268147" version="1" timestamp="2007-11-28T10:03:38Z" uid="4467" user="Rosscoe" changeset="640529" lat="-29.87224" lon="150.573072">
    <tag k="created_by" v="JOSM"/>
    <tag k="highway" v="residential"/>
    <tag k="name" v="Maitland Street"/>
    <tag k="ref" v="95"/>
    <tag k="source" v="gpsdrivetrack"/>
    <tag k="surface" v="paved"/>
  </node>
  <node id="139268147" version="2" timestamp="2007-12-02T06:03:27Z" uid="4467" user="Rosscoe" changeset="40805" lat="-29.87224" lon="150.573072">
    <tag k="created_by" v="JOSM"/>
    <tag k="highway" v="residential"/>
    <tag k="name" v="Maitland Street"/>
    <tag k="ref" v="95"/>
    <tag k="source" v="gpsdrivetrack"/>
    <tag k="surface" v="paved"/>
  </node>
  <node id="139268169" version="1" timestamp="2007-11-28T10:03:38Z" uid="4467" user="Rosscoe" changeset="640529" lat="-29.871848" lon="150.572923">
    <tag k="created_by" v="JOSM"/>
    <tag k="highway" v="residential"/>
    <tag k="name" v="Maitland Street"/>
    <tag k="ref" v="95"/>
    <tag k="source" v="gpsdrivetrack"/>
    <tag k="surface" v="paved"/>
  </node>
  <node id="139268169" version="2" timestamp="2007-12-02T06:03:24Z" uid="4467" user="Rosscoe" changeset="40805" lat="-29.871848" lon="150.572923">
    <tag k="created_by" v="JOSM"/>
    <tag k="highway" v="residential"/>
    <tag k="name" v="Maitland Street"/>
    <tag k="ref" v="95"/>
    <tag k="source" v="gpsdrivetrack"/>
    <tag k="surface" v="paved"/>
  </node>
  <node id="139268187" version="1" timestamp="2007-11-28T10:03:39Z" uid="4467" user="Rosscoe" changeset="640529" lat="-29.871977" lon="150.57297">
    <tag k="created_by" v="JOSM"/>
    <tag k="highway" v="residential"/>
    <tag k="name" v="Maitland Street"/>
    <tag k="ref" v="95"/>
    <tag k="source" v="gpsdrivetrack"/>
    <tag k="surface" v="paved"/>
  </node>
  <node id="139268187" version="2" timestamp="2007-12-02T06:03:24Z" uid="4467" user="Rosscoe" changeset="40805" lat="-29.871977" lon="150.57297">
    <tag k="created_by" v="JOSM"/>
    <tag k="highway" v="residential"/>
    <tag k="name" v="Maitland Street"/>
    <tag k="ref" v="95"/>
    <tag k="source" v="gpsdrivetrack"/>
    <tag k="surface" v="paved"/>
  </node>
  <node id="139268208" version="1" timestamp="2007-11-28T10:03:40Z" uid="4467" user="Rosscoe" changeset="640529" lat="-29.87161" lon="150.572835">
    <tag k="created_by" v="JOSM"/>
    <tag k="highway" v="residential"/>
    <tag k="name" v="Maitland Street"/>
    <tag k="ref" v="95"/>
    <tag k="source" v="gpsdrivetrack"/>
    <tag k="surface" v="paved"/>
  </node>
  <node id="139268208" version="2" timestamp="2007-12-02T06:03:25Z" uid="4467" user="Rosscoe" changeset="40805" lat="-29.87161" lon="150.572835">
    <tag k="created_by" v="JOSM"/>
    <tag k="highway" v="residential"/>
    <tag k="name" v="Maitland Street"/>
    <tag k="ref" v="95"/>
    <tag k="source" v="gpsdrivetrack"/>
    <tag k="surface" v="paved"/>
  </node>
  <node id="139268230" version="1" timestamp="2007-11-28T10:03:41Z" uid="4467" user="Rosscoe" changeset="640529" lat="-29.871727" lon="150.572878">
    <tag k="created_by" v="JOSM"/>
    <tag k="highway" v="residential"/>
    <tag k="name" v="Maitland Street"/>
    <tag k="ref" v="95"/>
    <tag k="source" v="gpsdrivetrack"/>
    <tag k="surface" v="paved"/>
  </node>
  <node id="139268230" version="2" timestamp="2007-12-02T06:03:21Z" uid="4467" user="Rosscoe" changeset="40805" lat="-29.871727" lon="150.572878">
    <tag k="created_by" v="JOSM"/>
    <tag k="highway" v="residential"/>
    <tag k="name" v="Maitland Street"/>
    <tag k="ref" v="95"/>
    <tag k="source" v="gpsdrivetrack"/>
    <tag k="surface" v="paved"/>
  </node>
  <node id="139268248" version="1" timestamp="2007-11-28T10:03:41Z" uid="4467" user="Rosscoe" changeset="640529" lat="-29.871393" lon="150.572757">
    <tag k="created_by" v="JOSM"/>
    <tag k="highway" v="residential"/>
    <tag k="name" v="Maitland Street"/>
    <tag k="ref" v="95"/>
    <tag k="source" v="gpsdrivetrack"/>
    <tag k="surface" v="paved"/>
  </node>
  <node id="139268248" version="2" timestamp="2007-12-02T06:03:22Z" uid="4467" user="Rosscoe" changeset="40805" lat="-29.871393" lon="150.572757">
    <tag k="created_by" v="JOSM"/>
    <tag k="highway" v="residential"/>
    <tag k="name" v="Maitland Street"/>
    <tag k="ref" v="95"/>
    <tag k="source" v="gpsdrivetrack"/>
    <tag k="surface" v="paved"/>
  </node>
  <node id="139268265" version="1" timestamp="2007-11-28T10:03:42Z" uid="4467" user="Rosscoe" changeset="640529" lat="-29.871502" lon="150.572795">
    <tag k="created_by" v="JOSM"/>
    <tag k="highway" v="residential"/>
    <tag k="name" v="Maitland Street"/>
    <tag k="ref" v="95"/>
    <tag k="source" v="gpsdrivetrack"/>
    <tag k="surface" v="paved"/>
  </node>
  <node id="139268265" version="2" timestamp="2007-12-02T06:03:23Z" uid="4467" user="Rosscoe" changeset="40805" lat="-29.871502" lon="150.572795">
    <tag k="created_by" v="JOSM"/>
    <tag k="highway" v="residential"/>
    <tag k="name" v="Maitland Street"/>
    <tag k="ref" v="95"/>
    <tag k="source" v="gpsdrivetrack"/>
    <tag k="surface" v="paved"/>
  </node>
  <node id="139268288" version="1" timestamp="2007-11-28T10:03:43Z" uid="4467" user="Rosscoe" changeset="640529" lat="-29.871188" lon="150.572688">
    <tag k="created_by" v="JOSM"/>
    <tag k="highway" v="residential"/>
    <tag k="name" v="Maitland Street"/>
    <tag k="ref" v="95"/>
    <tag k="source" v="gpsdrivetrack"/>
    <tag k="surface" v="paved"/>
  </node>
  <node id="139268288" version="2" timestamp="2007-12-02T06:03:19Z" uid="4467" user="Rosscoe" changeset="40805" lat="-29.871188" lon="150.572688">
    <tag k="created_by" v="JOSM"/>
    <tag k="highway" v="residential"/>
    <tag k="name" v="Maitland Street"/>
    <tag k="ref" v="95"/>
    <tag k="source" v="gpsdrivetrack"/>
    <tag k="surface" v="paved"/>
  </node>
  <node id="139268312" version="1" timestamp="2007-11-28T10:03:44Z" uid="4467" user="Rosscoe" changeset="640529" lat="-29.87129" lon="150.572722">
    <tag k="created_by" v="JOSM"/>
    <tag k="highway" v="residential"/>
    <tag k="name" v="Maitland Street"/>
    <tag k="ref" v="95"/>
    <tag k="source" v="gpsdrivetrack"/>
    <tag k="surface" v="paved"/>
  </node>
  <node id="139268312" version="2" timestamp="2007-12-02T06:03:20Z" uid="4467" user="Rosscoe" changeset="40805" lat="-29.87129" lon="150.572722">
    <tag k="created_by" v="JOSM"/>
    <tag k="highway" v="residential"/>
    <tag k="name" v="Maitland Street"/>
    <tag k="ref" v="95"/>
    <tag k="source" v="gpsdrivetrack"/>
    <tag k="surface" v="paved"/>
  </node>
  <node id="139268328" version="1" timestamp="2007-11-28T10:03:45Z" uid="4467" user="Rosscoe" changeset="640529" lat="-29.870988" lon="150.57262">
    <tag k="created_by" v="JOSM"/>
    <tag k="highway" v="residential"/>
    <tag k="name" v="Maitland Street"/>
    <tag k="ref" v="95"/>
    <tag k="source" v="gpsdrivetrack"/>
    <tag k="surface" v="paved"/>
  </node>
  <node id="139268328" version="2" timestamp="2007-12-02T06:03:21Z" uid="4467" user="Rosscoe" changeset="40805" lat="-29.870988" lon="150.57262">
    <tag k="created_by" v="JOSM"/>
    <tag k="highway" v="residential"/>
    <tag k="name" v="Maitland Street"/>
    <tag k="ref" v="95"/>
    <tag k="source" v="gpsdrivetrack"/>
    <tag k="surface" v="paved"/>
  </node>
  <node id="139268354" version="1" timestamp="2007-11-28T10:03:45Z" uid="4467" user="Rosscoe" changeset="640529" lat="-29.871088" lon="150.572655">
    <tag k="created_by" v="JOSM"/>
    <tag k="highway" v="residential"/>
    <tag k="name" v="Maitland Street"/>
    <tag k="ref" v="95"/>
    <tag k="source" v="gpsdrivetrack"/>
    <tag k="surface" v="paved"/>
  </node>
  <node id="139268354" version="2" timestamp="2007-12-02T06:03:17Z" uid="4467" user="Rosscoe" changeset="40805" lat="-29.871088" lon="150.572655">
    <tag k="created_by" v="JOSM"/>
    <tag k="highway" v="residential"/>
    <tag k="name" v="Maitland Street"/>
    <tag k="ref" v="95"/>
    <tag k="source" v="gpsdrivetrack"/>
    <tag k="surface" v="paved"/>
  </node>
  <node id="139268371" version="1" timestamp="2007-11-28T10:03:46Z" uid="4467" user="Rosscoe" changeset="640529" lat="-29.870793" lon="150.57255">
    <tag k="created_by" v="JOSM"/>
    <tag k="highway" v="residential"/>
    <tag k="name" v="Maitland Street"/>
    <tag k="ref" v="95"/>
    <tag k="source" v="gpsdrivetrack"/>
    <tag k="surface" v="paved"/>
  </node>
  <node id="139268371" version="2" timestamp="2007-12-02T06:03:16Z" uid="4467" user="Rosscoe" changeset="40805" lat="-29.870793" lon="150.57255">
    <tag k="created_by" v="JOSM"/>
    <tag k="highway" v="residential"/>
    <tag k="name" v="Maitland Street"/>
    <tag k="ref" v="95"/>
    <tag k="source" v="gpsdrivetrack"/>
    <tag k="surface" v="paved"/>
  </node>
  <node id="139268387" version="1" timestamp="2007-11-28T10:03:47Z" uid="4467" user="Rosscoe" changeset="640529" lat="-29.870892" lon="150.572587">
    <tag k="created_by" v="JOSM"/>
    <tag k="highway" v="residential"/>
    <tag k="name" v="Maitland Street"/>
    <tag k="ref" v="95"/>
    <tag k="source" v="gpsdrivetrack"/>
    <tag k="surface" v="paved"/>
  </node>
  <node id="139268387" version="2" timestamp="2007-12-02T06:03:18Z" uid="4467" user="Rosscoe" changeset="40805" lat="-29.870892" lon="150.572587">
    <tag k="created_by" v="JOSM"/>
    <tag k="highway" v="residential"/>
    <tag k="name" v="Maitland Street"/>
    <tag k="ref" v="95"/>
    <tag k="source" v="gpsdrivetrack"/>
    <tag k="surface" v="paved"/>
  </node>
  <node id="139268406" version="1" timestamp="2007-11-28T10:03:48Z" uid="4467" user="Rosscoe" changeset="640529" lat="-29.8705" lon="150.572442">
    <tag k="created_by" v="JOSM"/>
    <tag k="highway" v="residential"/>
    <tag k="name" v="Maitland Street"/>
    <tag k="ref" v="95"/>
    <tag k="source" v="gpsdrivetrack"/>
    <tag k="surface" v="paved"/>
  </node>
  <node id="139268406" version="2" timestamp="2007-12-02T06:03:18Z" uid="4467" user="Rosscoe" changeset="40805" lat="-29.8705" lon="150.572442">
    <tag k="created_by" v="JOSM"/>
    <tag k="highway" v="residential"/>
    <tag k="name" v="Maitland Street"/>
    <tag k="ref" v="95"/>
    <tag k="source" v="gpsdrivetrack"/>
    <tag k="surface" v="paved"/>
  </node>
  <node id="139268423" version="1" timestamp="2007-11-28T10:03:48Z" uid="4467" user="Rosscoe" changeset="640529" lat="-29.8704" lon="150.572405">
    <tag k="created_by" v="JOSM"/>
    <tag k="highway" v="residential"/>
    <tag k="name" v="Maitland Street"/>
    <tag k="ref" v="95"/>
    <tag k="source" v="gpsdrivetrack"/>
    <tag k="surface" v="paved"/>
  </node>
  <node id="139268423" version="2" timestamp="2007-12-02T06:03:15Z" uid="4467" user="Rosscoe" changeset="40805" lat="-29.8704" lon="150.572405">
    <tag k="created_by" v="JOSM"/>
    <tag k="highway" v="residential"/>
    <tag k="name" v="Maitland Street"/>
    <tag k="ref" v="95"/>
    <tag k="source" v="gpsdrivetrack"/>
    <tag k="surface" v="paved"/>
  </node>
  <node id="139268442" version="1" timestamp="2007-11-28T10:03:49Z" uid="4467" user="Rosscoe" changeset="640529" lat="-29.870695" lon="150.572513">
    <tag k="created_by" v="JOSM"/>
    <tag k="highway" v="residential"/>
    <tag k="name" v="Maitland Street"/>
    <tag k="ref" v="95"/>
    <tag k="source" v="gpsdrivetrack"/>
    <tag k="surface" v="paved"/>
  </node>
  <node id="139268442" version="2" timestamp="2007-12-02T06:03:14Z" uid="4467" user="Rosscoe" changeset="40805" lat="-29.870695" lon="150.572513">
    <tag k="created_by" v="JOSM"/>
    <tag k="highway" v="residential"/>
    <tag k="name" v="Maitland Street"/>
    <tag k="ref" v="95"/>
    <tag k="source" v="gpsdrivetrack"/>
    <tag k="surface" v="paved"/>
  </node>
  <node id="139268465" version="1" timestamp="2007-11-28T10:03:50Z" uid="4467" user="Rosscoe" changeset="640529" lat="-29.870598" lon="150.572478">
    <tag k="created_by" v="JOSM"/>
    <tag k="highway" v="residential"/>
    <tag k="name" v="Maitland Street"/>
    <tag k="ref" v="95"/>
    <tag k="source" v="gpsdrivetrack"/>
    <tag k="surface" v="paved"/>
  </node>
  <node id="139268465" version="2" timestamp="2007-12-02T06:03:15Z" uid="4467" user="Rosscoe" changeset="40805" lat="-29.870598" lon="150.572478">
    <tag k="created_by" v="JOSM"/>
    <tag k="highway" v="residential"/>
    <tag k="name" v="Maitland Street"/>
    <tag k="ref" v="95"/>
    <tag k="source" v="gpsdrivetrack"/>
    <tag k="surface" v="paved"/>
  </node>
  <node id="139268480" version="1" timestamp="2007-11-28T10:03:51Z" uid="4467" user="Rosscoe" changeset="640529" lat="-29.870103" lon="150.572288">
    <tag k="created_by" v="JOSM"/>
    <tag k="highway" v="residential"/>
    <tag k="name" v="Maitland Street"/>
    <tag k="ref" v="95"/>
    <tag k="source" v="gpsdrivetrack"/>
    <tag k="surface" v="paved"/>
  </node>
  <node id="139268480" version="2" timestamp="2007-12-02T06:03:12Z" uid="4467" user="Rosscoe" changeset="40805" lat="-29.870103" lon="150.572288">
    <tag k="created_by" v="JOSM"/>
    <tag k="highway" v="residential"/>
    <tag k="name" v="Maitland Street"/>
    <tag k="ref" v="95"/>
    <tag k="source" v="gpsdrivetrack"/>
    <tag k="surface" v="paved"/>
  </node>
  <node id="139268501" version="1" timestamp="2007-11-28T10:03:51Z" uid="4467" user="Rosscoe" changeset="640529" lat="-29.87" lon="150.572248">
    <tag k="created_by" v="JOSM"/>
    <tag k="highway" v="residential"/>
    <tag k="name" v="Maitland Street"/>
    <tag k="ref" v="95"/>
    <tag k="source" v="gpsdrivetrack"/>
    <tag k="surface" v="paved"/>
  </node>
  <node id="139268501" version="2" timestamp="2007-12-02T06:03:11Z" uid="4467" user="Rosscoe" changeset="40805" lat="-29.87" lon="150.572248">
    <tag k="created_by" v="JOSM"/>
    <tag k="highway" v="residential"/>
    <tag k="name" v="Maitland Street"/>
    <tag k="ref" v="95"/>
    <tag k="source" v="gpsdrivetrack"/>
    <tag k="surface" v="paved"/>
  </node>
  <node id="139268519" version="1" timestamp="2007-11-28T10:03:52Z" uid="4467" user="Rosscoe" changeset="640529" lat="-29.870303" lon="150.572368">
    <tag k="created_by" v="JOSM"/>
    <tag k="highway" v="residential"/>
    <tag k="name" v="Maitland Street"/>
    <tag k="ref" v="95"/>
    <tag k="source" v="gpsdrivetrack"/>
    <tag k="surface" v="paved"/>
  </node>
  <node id="139268519" version="2" timestamp="2007-12-02T06:03:13Z" uid="4467" user="Rosscoe" changeset="40805" lat="-29.870303" lon="150.572368">
    <tag k="created_by" v="JOSM"/>
    <tag k="highway" v="residential"/>
    <tag k="name" v="Maitland Street"/>
    <tag k="ref" v="95"/>
    <tag k="source" v="gpsdrivetrack"/>
    <tag k="surface" v="paved"/>
  </node>
  <node id="139268543" version="1" timestamp="2007-11-28T10:03:53Z" uid="4467" user="Rosscoe" changeset="640529" lat="-29.870205" lon="150.572328">
    <tag k="created_by" v="JOSM"/>
    <tag k="highway" v="residential"/>
    <tag k="name" v="Maitland Street"/>
    <tag k="ref" v="95"/>
    <tag k="source" v="gpsdrivetrack"/>
    <tag k="surface" v="paved"/>
  </node>
  <node id="139268543" version="2" timestamp="2007-12-02T06:03:12Z" uid="4467" user="Rosscoe" changeset="40805" lat="-29.870205" lon="150.572328">
    <tag k="created_by" v="JOSM"/>
    <tag k="highway" v="residential"/>
    <tag k="name" v="Maitland Street"/>
    <tag k="ref" v="95"/>
    <tag k="source" v="gpsdrivetrack"/>
    <tag k="surface" v="paved"/>
  </node>
  <node id="139268561" version="1" timestamp="2007-11-28T10:03:54Z" uid="4467" user="Rosscoe" changeset="640529" lat="-29.869687" lon="150.57213">
    <tag k="created_by" v="JOSM"/>
    <tag k="highway" v="residential"/>
    <tag k="name" v="Maitland Street"/>
    <tag k="ref" v="95"/>
    <tag k="source" v="gpsdrivetrack"/>
    <tag k="surface" v="paved"/>
  </node>
  <node id="139268561" version="2" timestamp="2007-12-02T06:03:09Z" uid="4467" user="Rosscoe" changeset="40805" lat="-29.869687" lon="150.57213">
    <tag k="created_by" v="JOSM"/>
    <tag k="highway" v="residential"/>
    <tag k="name" v="Maitland Street"/>
    <tag k="ref" v="95"/>
    <tag k="source" v="gpsdrivetrack"/>
    <tag k="surface" v="paved"/>
  </node>
  <node id="139268582" version="1" timestamp="2007-11-28T10:03:55Z" uid="4467" user="Rosscoe" changeset="640529" lat="-29.869578" lon="150.572088">
    <tag k="created_by" v="JOSM"/>
    <tag k="highway" v="residential"/>
    <tag k="name" v="Maitland Street"/>
    <tag k="ref" v="95"/>
    <tag k="source" v="gpsdrivetrack"/>
    <tag k="surface" v="paved"/>
  </node>
  <node id="139268582" version="2" timestamp="2007-12-02T06:03:10Z" uid="4467" user="Rosscoe" changeset="40805" lat="-29.869578" lon="150.572088">
    <tag k="created_by" v="JOSM"/>
    <tag k="highway" v="residential"/>
    <tag k="name" v="Maitland Street"/>
    <tag k="ref" v="95"/>
    <tag k="source" v="gpsdrivetrack"/>
    <tag k="surface" v="paved"/>
  </node>
  <node id="139268600" version="1" timestamp="2007-11-28T10:03:55Z" uid="4467" user="Rosscoe" changeset="640529" lat="-29.869898" lon="150.572208">
    <tag k="created_by" v="JOSM"/>
    <tag k="highway" v="residential"/>
    <tag k="name" v="Maitland Street"/>
    <tag k="ref" v="95"/>
    <tag k="source" v="gpsdrivetrack"/>
    <tag k="surface" v="paved"/>
  </node>
  <node id="139268600" version="2" timestamp="2007-12-02T06:03:10Z" uid="4467" user="Rosscoe" changeset="40805" lat="-29.869898" lon="150.572208">
    <tag k="created_by" v="JOSM"/>
    <tag k="highway" v="residential"/>
    <tag k="name" v="Maitland Street"/>
    <tag k="ref" v="95"/>
    <tag k="source" v="gpsdrivetrack"/>
    <tag k="surface" v="paved"/>
  </node>
  <node id="139268623" version="1" timestamp="2007-11-28T10:03:56Z" uid="4467" user="Rosscoe" changeset="640529" lat="-29.869793" lon="150.572168">
    <tag k="created_by" v="JOSM"/>
    <tag k="highway" v="residential"/>
    <tag k="name" v="Maitland Street"/>
    <tag k="ref" v="95"/>
    <tag k="source" v="gpsdrivetrack"/>
    <tag k="surface" v="paved"/>
  </node>
  <node id="139268623" version="2" timestamp="2007-12-02T06:03:46Z" uid="4467" user="Rosscoe" changeset="40805" lat="-29.869793" lon="150.572168">
    <tag k="created_by" v="JOSM"/>
    <tag k="highway" v="residential"/>
    <tag k="name" v="Maitland Street"/>
    <tag k="ref" v="95"/>
    <tag k="source" v="gpsdrivetrack"/>
    <tag k="surface" v="paved"/>
  </node>
  <node id="139268643" version="1" timestamp="2007-11-28T10:03:57Z" uid="4467" user="Rosscoe" changeset="640529" lat="-29.86926" lon="150.57197">
    <tag k="created_by" v="JOSM"/>
    <tag k="highway" v="residential"/>
    <tag k="name" v="Maitland Street"/>
    <tag k="ref" v="95"/>
    <tag k="source" v="gpsdrivetrack"/>
    <tag k="surface" v="paved"/>
  </node>
  <node id="139268643" version="2" timestamp="2007-12-02T06:03:45Z" uid="4467" user="Rosscoe" changeset="40805" lat="-29.86926" lon="150.57197">
    <tag k="created_by" v="JOSM"/>
    <tag k="highway" v="residential"/>
    <tag k="name" v="Maitland Street"/>
    <tag k="ref" v="95"/>
    <tag k="source" v="gpsdrivetrack"/>
    <tag k="surface" v="paved"/>
  </node>
  <node id="139268659" version="1" timestamp="2007-11-28T10:03:58Z" uid="4467" user="Rosscoe" changeset="640529" lat="-29.869153" lon="150.57193">
    <tag k="created_by" v="JOSM"/>
    <tag k="highway" v="residential"/>
    <tag k="name" v="Maitland Street"/>
    <tag k="ref" v="95"/>
    <tag k="source" v="gpsdrivetrack"/>
    <tag k="surface" v="paved"/>
  </node>
  <node id="139268659" version="2" timestamp="2007-12-02T06:03:45Z" uid="4467" user="Rosscoe" changeset="40805" lat="-29.869153" lon="150.57193">
    <tag k="created_by" v="JOSM"/>
    <tag k="highway" v="residential"/>
    <tag k="name" v="Maitland Street"/>
    <tag k="ref" v="95"/>
    <tag k="source" v="gpsdrivetrack"/>
    <tag k="surface" v="paved"/>
  </node>
  <node id="139268679" version="1" timestamp="2007-11-28T10:03:59Z" uid="4467" user="Rosscoe" changeset="640529" lat="-29.86947" lon="150.57205">
    <tag k="created_by" v="JOSM"/>
    <tag k="highway" v="residential"/>
    <tag k="name" v="Maitland Street"/>
    <tag k="ref" v="95"/>
    <tag k="source" v="gpsdrivetrack"/>
    <tag k="surface" v="paved"/>
  </node>
  <node id="139268679" version="2" timestamp="2007-12-02T06:03:43Z" uid="4467" user="Rosscoe" changeset="40805" lat="-29.86947" lon="150.57205">
    <tag k="created_by" v="JOSM"/>
    <tag k="highway" v="residential"/>
    <tag k="name" v="Maitland Street"/>
    <tag k="ref" v="95"/>
    <tag k="source" v="gpsdrivetrack"/>
    <tag k="surface" v="paved"/>
  </node>
  <node id="139268699" version="1" timestamp="2007-11-28T10:03:59Z" uid="4467" user="Rosscoe" changeset="640529" lat="-29.869365" lon="150.572012">
    <tag k="created_by" v="JOSM"/>
    <tag k="highway" v="residential"/>
    <tag k="name" v="Maitland Street"/>
    <tag k="ref" v="95"/>
    <tag k="source" v="gpsdrivetrack"/>
    <tag k="surface" v="paved"/>
  </node>
  <node id="139268699" version="2" timestamp="2007-12-02T06:03:44Z" uid="4467" user="Rosscoe" changeset="40805" lat="-29.869365" lon="150.572012">
    <tag k="created_by" v="JOSM"/>
    <tag k="highway" v="residential"/>
    <tag k="name" v="Maitland Street"/>
    <tag k="ref" v="95"/>
    <tag k="source" v="gpsdrivetrack"/>
    <tag k="surface" v="paved"/>
  </node>
  <node id="139268719" version="1" timestamp="2007-11-28T10:04:00Z" uid="4467" user="Rosscoe" changeset="640529" lat="-29.868722" lon="150.571773">
    <tag k="created_by" v="JOSM"/>
    <tag k="highway" v="residential"/>
    <tag k="name" v="Maitland Street"/>
    <tag k="ref" v="95"/>
    <tag k="source" v="gpsdrivetrack"/>
    <tag k="surface" v="paved"/>
  </node>
  <node id="139268719" version="2" timestamp="2007-12-02T06:03:42Z" uid="4467" user="Rosscoe" changeset="40805" lat="-29.868722" lon="150.571773">
    <tag k="created_by" v="JOSM"/>
    <tag k="highway" v="residential"/>
    <tag k="name" v="Maitland Street"/>
    <tag k="ref" v="95"/>
    <tag k="source" v="gpsdrivetrack"/>
    <tag k="surface" v="paved"/>
  </node>
  <node id="139268742" version="1" timestamp="2007-11-28T10:04:01Z" uid="4467" user="Rosscoe" changeset="640529" lat="-29.86883" lon="150.571813">
    <tag k="created_by" v="JOSM"/>
    <tag k="highway" v="residential"/>
    <tag k="name" v="Maitland Street"/>
    <tag k="ref" v="95"/>
    <tag k="source" v="gpsdrivetrack"/>
    <tag k="surface" v="paved"/>
  </node>
  <node id="139268742" version="2" timestamp="2007-12-02T06:03:42Z" uid="4467" user="Rosscoe" changeset="40805" lat="-29.86883" lon="150.571813">
    <tag k="created_by" v="JOSM"/>
    <tag k="highway" v="residential"/>
    <tag k="name" v="Maitland Street"/>
    <tag k="ref" v="95"/>
    <tag k="source" v="gpsdrivetrack"/>
    <tag k="surface" v="paved"/>
  </node>
  <node id="139268768" version="1" timestamp="2007-11-28T10:04:02Z" uid="4467" user="Rosscoe" changeset="640529" lat="-29.868938" lon="150.571853">
    <tag k="created_by" v="JOSM"/>
    <tag k="highway" v="residential"/>
    <tag k="name" v="Maitland Street"/>
    <tag k="ref" v="95"/>
    <tag k="source" v="gpsdrivetrack"/>
    <tag k="surface" v="paved"/>
  </node>
  <node id="139268768" version="2" timestamp="2007-12-02T06:03:40Z" uid="4467" user="Rosscoe" changeset="40805" lat="-29.868938" lon="150.571853">
    <tag k="created_by" v="JOSM"/>
    <tag k="highway" v="residential"/>
    <tag k="name" v="Maitland Street"/>
    <tag k="ref" v="95"/>
    <tag k="source" v="gpsdrivetrack"/>
    <tag k="surface" v="paved"/>
  </node>
  <node id="139268798" version="1" timestamp="2007-11-28T10:04:03Z" uid="4467" user="Rosscoe" changeset="640529" lat="-29.869048" lon="150.571893">
    <tag k="created_by" v="JOSM"/>
    <tag k="highway" v="residential"/>
    <tag k="name" v="Maitland Street"/>
    <tag k="ref" v="95"/>
    <tag k="source" v="gpsdrivetrack"/>
    <tag k="surface" v="paved"/>
  </node>
  <node id="139268798" version="2" timestamp="2007-12-02T06:03:41Z" uid="4467" user="Rosscoe" changeset="40805" lat="-29.869048" lon="150.571893">
    <tag k="created_by" v="JOSM"/>
    <tag k="highway" v="residential"/>
    <tag k="name" v="Maitland Street"/>
    <tag k="ref" v="95"/>
    <tag k="source" v="gpsdrivetrack"/>
    <tag k="surface" v="paved"/>
  </node>
  <node id="139268812" version="1" timestamp="2007-11-28T10:04:03Z" uid="4467" user="Rosscoe" changeset="640529" lat="-29.868293" lon="150.571622">
    <tag k="created_by" v="JOSM"/>
    <tag k="highway" v="residential"/>
    <tag k="name" v="Maitland Street"/>
    <tag k="ref" v="95"/>
    <tag k="source" v="gpsdrivetrack"/>
    <tag k="surface" v="paved"/>
  </node>
  <node id="139268812" version="2" timestamp="2007-12-02T06:03:39Z" uid="4467" user="Rosscoe" changeset="40805" lat="-29.868293" lon="150.571622">
    <tag k="created_by" v="JOSM"/>
    <tag k="highway" v="residential"/>
    <tag k="name" v="Maitland Street"/>
    <tag k="ref" v="95"/>
    <tag k="source" v="gpsdrivetrack"/>
    <tag k="surface" v="paved"/>
  </node>
  <node id="139268835" version="1" timestamp="2007-11-28T10:04:04Z" uid="4467" user="Rosscoe" changeset="640529" lat="-29.8684" lon="150.57166">
    <tag k="created_by" v="JOSM"/>
    <tag k="highway" v="residential"/>
    <tag k="name" v="Maitland Street"/>
    <tag k="ref" v="95"/>
    <tag k="source" v="gpsdrivetrack"/>
    <tag k="surface" v="paved"/>
  </node>
  <node id="139268835" version="2" timestamp="2007-12-02T06:03:38Z" uid="4467" user="Rosscoe" changeset="40805" lat="-29.8684" lon="150.57166">
    <tag k="created_by" v="JOSM"/>
    <tag k="highway" v="residential"/>
    <tag k="name" v="Maitland Street"/>
    <tag k="ref" v="95"/>
    <tag k="source" v="gpsdrivetrack"/>
    <tag k="surface" v="paved"/>
  </node>
  <node id="139268856" version="1" timestamp="2007-11-28T10:04:05Z" uid="4467" user="Rosscoe" changeset="640529" lat="-29.868507" lon="150.571697">
    <tag k="created_by" v="JOSM"/>
    <tag k="highway" v="residential"/>
    <tag k="name" v="Maitland Street"/>
    <tag k="ref" v="95"/>
    <tag k="source" v="gpsdrivetrack"/>
    <tag k="surface" v="paved"/>
  </node>
  <node id="139268856" version="2" timestamp="2007-12-02T06:03:39Z" uid="4467" user="Rosscoe" changeset="40805" lat="-29.868507" lon="150.571697">
    <tag k="created_by" v="JOSM"/>
    <tag k="highway" v="residential"/>
    <tag k="name" v="Maitland Street"/>
    <tag k="ref" v="95"/>
    <tag k="source" v="gpsdrivetrack"/>
    <tag k="surface" v="paved"/>
  </node>
  <node id="139268872" version="1" timestamp="2007-11-28T10:04:06Z" uid="4467" user="Rosscoe" changeset="640529" lat="-29.868615" lon="150.571733">
    <tag k="created_by" v="JOSM"/>
    <tag k="highway" v="residential"/>
    <tag k="name" v="Maitland Street"/>
    <tag k="ref" v="95"/>
    <tag k="source" v="gpsdrivetrack"/>
    <tag k="surface" v="paved"/>
  </node>
  <node id="139268872" version="2" timestamp="2007-12-02T06:03:37Z" uid="4467" user="Rosscoe" changeset="40805" lat="-29.868615" lon="150.571733">
    <tag k="created_by" v="JOSM"/>
    <tag k="highway" v="residential"/>
    <tag k="name" v="Maitland Street"/>
    <tag k="ref" v="95"/>
    <tag k="source" v="gpsdrivetrack"/>
    <tag k="surface" v="paved"/>
  </node>
  <node id="139268893" version="1" timestamp="2007-11-28T10:04:06Z" uid="4467" user="Rosscoe" changeset="640529" lat="-29.867882" lon="150.571467">
    <tag k="created_by" v="JOSM"/>
    <tag k="highway" v="residential"/>
    <tag k="name" v="Maitland Street"/>
    <tag k="ref" v="95"/>
    <tag k="source" v="gpsdrivetrack"/>
    <tag k="surface" v="paved"/>
  </node>
  <node id="139268893" version="2" timestamp="2007-12-02T06:03:36Z" uid="4467" user="Rosscoe" changeset="40805" lat="-29.867882" lon="150.571467">
    <tag k="created_by" v="JOSM"/>
    <tag k="highway" v="residential"/>
    <tag k="name" v="Maitland Street"/>
    <tag k="ref" v="95"/>
    <tag k="source" v="gpsdrivetrack"/>
    <tag k="surface" v="paved"/>
  </node>
  <node id="139268914" version="1" timestamp="2007-11-28T10:04:07Z" uid="4467" user="Rosscoe" changeset="640529" lat="-29.867982" lon="150.571508">
    <tag k="created_by" v="JOSM"/>
    <tag k="highway" v="residential"/>
    <tag k="name" v="Maitland Street"/>
    <tag k="ref" v="95"/>
    <tag k="source" v="gpsdrivetrack"/>
    <tag k="surface" v="paved"/>
  </node>
  <node id="139268914" version="2" timestamp="2007-12-02T06:03:36Z" uid="4467" user="Rosscoe" changeset="40805" lat="-29.867982" lon="150.571508">
    <tag k="created_by" v="JOSM"/>
    <tag k="highway" v="residential"/>
    <tag k="name" v="Maitland Street"/>
    <tag k="ref" v="95"/>
    <tag k="source" v="gpsdrivetrack"/>
    <tag k="surface" v="paved"/>
  </node>
  <node id="139268932" version="1" timestamp="2007-11-28T10:04:08Z" uid="4467" user="Rosscoe" changeset="640529" lat="-29.868087" lon="150.571545">
    <tag k="created_by" v="JOSM"/>
    <tag k="highway" v="residential"/>
    <tag k="name" v="Maitland Street"/>
    <tag k="ref" v="95"/>
    <tag k="source" v="gpsdrivetrack"/>
    <tag k="surface" v="paved"/>
  </node>
  <node id="139268932" version="2" timestamp="2007-12-02T06:03:34Z" uid="4467" user="Rosscoe" changeset="40805" lat="-29.868087" lon="150.571545">
    <tag k="created_by" v="JOSM"/>
    <tag k="highway" v="residential"/>
    <tag k="name" v="Maitland Street"/>
    <tag k="ref" v="95"/>
    <tag k="source" v="gpsdrivetrack"/>
    <tag k="surface" v="paved"/>
  </node>
  <node id="139268942" version="1" timestamp="2007-11-28T10:04:09Z" uid="4467" user="Rosscoe" changeset="640529" lat="-29.86819" lon="150.571583">
    <tag k="created_by" v="JOSM"/>
    <tag k="highway" v="residential"/>
    <tag k="name" v="Maitland Street"/>
    <tag k="ref" v="95"/>
    <tag k="source" v="gpsdrivetrack"/>
    <tag k="surface" v="paved"/>
  </node>
  <node id="139268942" version="2" timestamp="2007-12-02T06:03:35Z" uid="4467" user="Rosscoe" changeset="40805" lat="-29.86819" lon="150.571583">
    <tag k="created_by" v="JOSM"/>
    <tag k="highway" v="residential"/>
    <tag k="name" v="Maitland Street"/>
    <tag k="ref" v="95"/>
    <tag k="source" v="gpsdrivetrack"/>
    <tag k="surface" v="paved"/>
  </node>
  <node id="139268966" version="1" timestamp="2007-11-28T10:04:10Z" uid="4467" user="Rosscoe" changeset="640529" lat="-29.867482" lon="150.57131">
    <tag k="created_by" v="JOSM"/>
    <tag k="highway" v="residential"/>
    <tag k="name" v="Maitland Street"/>
    <tag k="ref" v="95"/>
    <tag k="source" v="gpsdrivetrack"/>
    <tag k="surface" v="paved"/>
  </node>
  <node id="139268966" version="2" timestamp="2007-12-02T06:03:33Z" uid="4467" user="Rosscoe" changeset="40805" lat="-29.867482" lon="150.57131">
    <tag k="created_by" v="JOSM"/>
    <tag k="highway" v="residential"/>
    <tag k="name" v="Maitland Street"/>
    <tag k="ref" v="95"/>
    <tag k="source" v="gpsdrivetrack"/>
    <tag k="surface" v="paved"/>
  </node>
  <node id="139268986" version="1" timestamp="2007-11-28T10:04:10Z" uid="4467" user="Rosscoe" changeset="640529" lat="-29.86758" lon="150.57135">
    <tag k="created_by" v="JOSM"/>
    <tag k="highway" v="residential"/>
    <tag k="name" v="Maitland Street"/>
    <tag k="ref" v="95"/>
    <tag k="source" v="gpsdrivetrack"/>
    <tag k="surface" v="paved"/>
  </node>
  <node id="139268986" version="2" timestamp="2007-12-02T06:03:33Z" uid="4467" user="Rosscoe" changeset="40805" lat="-29.86758" lon="150.57135">
    <tag k="created_by" v="JOSM"/>
    <tag k="highway" v="residential"/>
    <tag k="name" v="Maitland Street"/>
    <tag k="ref" v="95"/>
    <tag k="source" v="gpsdrivetrack"/>
    <tag k="surface" v="paved"/>
  </node>
  <node id="139269006" version="1" timestamp="2007-11-28T10:04:11Z" uid="4467" user="Rosscoe" changeset="640529" lat="-29.867678" lon="150.571388">
    <tag k="created_by" v="JOSM"/>
    <tag k="highway" v="residential"/>
    <tag k="name" v="Maitland Street"/>
    <tag k="ref" v="95"/>
    <tag k="source" v="gpsdrivetrack"/>
    <tag k="surface" v="paved"/>
  </node>
  <node id="139269006" version="2" timestamp="2007-12-02T06:03:32Z" uid="4467" user="Rosscoe" changeset="40805" lat="-29.867678" lon="150.571388">
    <tag k="created_by" v="JOSM"/>
    <tag k="highway" v="residential"/>
    <tag k="name" v="Maitland Street"/>
    <tag k="ref" v="95"/>
    <tag k="source" v="gpsdrivetrack"/>
    <tag k="surface" v="paved"/>
  </node>
  <node id="139269020" version="1" timestamp="2007-11-28T10:04:12Z" uid="4467" user="Rosscoe" changeset="640529" lat="-29.867782" lon="150.571427">
    <tag k="created_by" v="JOSM"/>
    <tag k="highway" v="residential"/>
    <tag k="name" v="Maitland Street"/>
    <tag k="ref" v="95"/>
    <tag k="source" v="gpsdrivetrack"/>
    <tag k="surface" v="paved"/>
  </node>
  <node id="139269020" version="2" timestamp="2007-12-02T06:03:31Z" uid="4467" user="Rosscoe" changeset="40805" lat="-29.867782" lon="150.571427">
    <tag k="created_by" v="JOSM"/>
    <tag k="highway" v="residential"/>
    <tag k="name" v="Maitland Street"/>
    <tag k="ref" v="95"/>
    <tag k="source" v="gpsdrivetrack"/>
    <tag k="surface" v="paved"/>
  </node>
  <node id="139269040" version="1" timestamp="2007-11-28T10:04:13Z" uid="4467" user="Rosscoe" changeset="640529" lat="-29.867003" lon="150.571128">
    <tag k="created_by" v="JOSM"/>
    <tag k="highway" v="residential"/>
    <tag k="name" v="Maitland Street"/>
    <tag k="ref" v="95"/>
    <tag k="source" v="gpsdrivetrack"/>
    <tag k="surface" v="paved"/>
  </node>
  <node id="139269040" version="2" timestamp="2007-12-02T06:03:30Z" uid="4467" user="Rosscoe" changeset="40805" lat="-29.867003" lon="150.571128">
    <tag k="created_by" v="JOSM"/>
    <tag k="highway" v="residential"/>
    <tag k="name" v="Maitland Street"/>
    <tag k="ref" v="95"/>
    <tag k="source" v="gpsdrivetrack"/>
    <tag k="surface" v="paved"/>
  </node>
  <node id="139269064" version="1" timestamp="2007-11-28T10:04:13Z" uid="4467" user="Rosscoe" changeset="640529" lat="-29.866925" lon="150.5711">
    <tag k="created_by" v="JOSM"/>
    <tag k="highway" v="residential"/>
    <tag k="name" v="Maitland Street"/>
    <tag k="ref" v="95"/>
    <tag k="source" v="gpsdrivetrack"/>
    <tag k="surface" v="paved"/>
  </node>
  <node id="139269064" version="2" timestamp="2007-12-02T06:03:30Z" uid="4467" user="Rosscoe" changeset="40805" lat="-29.866925" lon="150.5711">
    <tag k="created_by" v="JOSM"/>
    <tag k="highway" v="residential"/>
    <tag k="name" v="Maitland Street"/>
    <tag k="ref" v="95"/>
    <tag k="source" v="gpsdrivetrack"/>
    <tag k="surface" v="paved"/>
  </node>
  <node id="139269085" version="1" timestamp="2007-11-28T10:04:14Z" uid="4467" user="Rosscoe" changeset="640529" lat="-29.866855" lon="150.571077">
    <tag k="created_by" v="JOSM"/>
    <tag k="highway" v="residential"/>
    <tag k="name" v="Maitland Street"/>
    <tag k="ref" v="95"/>
    <tag k="source" v="gpsdrivetrack"/>
    <tag k="surface" v="paved"/>
  </node>
  <node id="139269085" version="2" timestamp="2007-12-02T06:03:29Z" uid="4467" user="Rosscoe" changeset="40805" lat="-29.866855" lon="150.571077">
    <tag k="created_by" v="JOSM"/>
    <tag k="highway" v="residential"/>
    <tag k="name" v="Maitland Street"/>
    <tag k="ref" v="95"/>
    <tag k="source" v="gpsdrivetrack"/>
    <tag k="surface" v="paved"/>
  </node>
  <node id="139269108" version="1" timestamp="2007-11-28T10:04:15Z" uid="4467" user="Rosscoe" changeset="640529" lat="-29.86679" lon="150.571065">
    <tag k="created_by" v="JOSM"/>
    <tag k="highway" v="residential"/>
    <tag k="name" v="Maitland Street"/>
    <tag k="ref" v="95"/>
    <tag k="source" v="gpsdrivetrack"/>
    <tag k="surface" v="paved"/>
  </node>
  <node id="139269108" version="2" timestamp="2007-12-02T06:03:28Z" uid="4467" user="Rosscoe" changeset="40805" lat="-29.86679" lon="150.571065">
    <tag k="created_by" v="JOSM"/>
    <tag k="highway" v="residential"/>
    <tag k="name" v="Maitland Street"/>
    <tag k="ref" v="95"/>
    <tag k="source" v="gpsdrivetrack"/>
    <tag k="surface" v="paved"/>
  </node>
  <node id="139269131" version="1" timestamp="2007-11-28T10:04:16Z" uid="4467" user="Rosscoe" changeset="640529" lat="-29.867383" lon="150.571273">
    <tag k="created_by" v="JOSM"/>
    <tag k="highway" v="residential"/>
    <tag k="name" v="Maitland Street"/>
    <tag k="ref" v="95"/>
    <tag k="source" v="gpsdrivetrack"/>
    <tag k="surface" v="paved"/>
  </node>
  <node id="139269131" version="2" timestamp="2007-12-02T06:03:47Z" uid="4467" user="Rosscoe" changeset="40805" lat="-29.867383" lon="150.571273">
    <tag k="created_by" v="JOSM"/>
    <tag k="highway" v="residential"/>
    <tag k="name" v="Maitland Street"/>
    <tag k="ref" v="95"/>
    <tag k="source" v="gpsdrivetrack"/>
    <tag k="surface" v="paved"/>
  </node>
  <node id="139269154" version="1" timestamp="2007-11-28T10:04:17Z" uid="4467" user="Rosscoe" changeset="640529" lat="-29.867287" lon="150.571235">
    <tag k="created_by" v="JOSM"/>
    <tag k="highway" v="residential"/>
    <tag k="name" v="Maitland Street"/>
    <tag k="ref" v="95"/>
    <tag k="source" v="gpsdrivetrack"/>
    <tag k="surface" v="paved"/>
  </node>
  <node id="139269154" version="2" timestamp="2007-12-02T06:03:48Z" uid="4467" user="Rosscoe" changeset="40805" lat="-29.867287" lon="150.571235">
    <tag k="created_by" v="JOSM"/>
    <tag k="highway" v="residential"/>
    <tag k="name" v="Maitland Street"/>
    <tag k="ref" v="95"/>
    <tag k="source" v="gpsdrivetrack"/>
    <tag k="surface" v="paved"/>
  </node>
  <node id="139269175" version="1" timestamp="2007-11-28T10:04:17Z" uid="4467" user="Rosscoe" changeset="640529" lat="-29.86719" lon="150.571198">
    <tag k="created_by" v="JOSM"/>
    <tag k="highway" v="residential"/>
    <tag k="name" v="Maitland Street"/>
    <tag k="ref" v="95"/>
    <tag k="source" v="gpsdrivetrack"/>
    <tag k="surface" v="paved"/>
  </node>
  <node id="139269175" version="2" timestamp="2007-12-02T06:03:48Z" uid="4467" user="Rosscoe" changeset="40805" lat="-29.86719" lon="150.571198">
    <tag k="created_by" v="JOSM"/>
    <tag k="highway" v="residential"/>
    <tag k="name" v="Maitland Street"/>
    <tag k="ref" v="95"/>
    <tag k="source" v="gpsdrivetrack"/>
    <tag k="surface" v="paved"/>
  </node>
  <node id="139269192" version="1" timestamp="2007-11-28T10:04:18Z" uid="4467" user="Rosscoe" changeset="640529" lat="-29.867093" lon="150.571162">
    <tag k="created_by" v="JOSM"/>
    <tag k="highway" v="residential"/>
    <tag k="name" v="Maitland Street"/>
    <tag k="ref" v="95"/>
    <tag k="source" v="gpsdrivetrack"/>
    <tag k="surface" v="paved"/>
  </node>
  <node id="139269192" version="2" timestamp="2007-12-02T06:03:49Z" uid="4467" user="Rosscoe" changeset="40805" lat="-29.867093" lon="150.571162">
    <tag k="created_by" v="JOSM"/>
    <tag k="highway" v="residential"/>
    <tag k="name" v="Maitland Street"/>
    <tag k="ref" v="95"/>
    <tag k="source" v="gpsdrivetrack"/>
    <tag k="surface" v="paved"/>
  </node>
  <node id="139269209" version="1" timestamp="2007-11-28T10:04:19Z" uid="4467" user="Rosscoe" changeset="640529" lat="-29.86673" lon="150.571077">
    <tag k="created_by" v="JOSM"/>
    <tag k="highway" v="residential"/>
    <tag k="name" v="Maitland Street"/>
    <tag k="ref" v="95"/>
    <tag k="source" v="gpsdrivetrack"/>
    <tag k="surface" v="paved"/>
  </node>
  <node id="139269209" version="2" timestamp="2007-12-02T06:02:58Z" uid="4467" user="Rosscoe" changeset="40805" lat="-29.86673" lon="150.571077"/>
  <node id="139269209" version="3" timestamp="2009-01-30T10:24:25Z" uid="69499" user="VK1RE" changeset="854043" lat="-29.86673" lon="150.571077"/>
  <node id="139269209" version="4" timestamp="2009-01-30T10:25:02Z" uid="69499" user="VK1RE" changeset="854043" lat="-29.86673" lon="150.571077"/>
  <node id="139269209" version="5" timestamp="2009-05-27T08:16:45Z" uid="74617" user="JohnSmith" changeset="1332042" lat="-29.8667438" lon="150.5710215"/>
  <node id="139269209" version="6" timestamp="2009-05-27T10:35:33Z" uid="74617" user="JohnSmith" changeset="1333076" lat="-29.866733" lon="150.5710175"/>
  <node id="139269786" version="6" timestamp="2010-01-18T10:23:17Z" uid="7617" user="Franc" changeset="3649113" lat="-33.7734727" lon="150.6966801"/>
  <node id="139269786" version="7" timestamp="2011-03-20T09:23:16Z" uid="9477" user="NilbogAus" changeset="7614005" lat="-33.7734672" lon="150.6966856"/>
</osm>
