<?xml version='1.0' encoding='UTF-8'?>
<osm version="0.6" generator="libosmium/2.20.0">
  <node id="139714762" version="4" timestamp="2008-07-06T23:59:20Z" uid="6975" user="ulfl" changeset="415781" lat="39.462838" lon="22.7431853">
    <tag k="is_in" v="Greece"/>
    <tag k="name" v="Stefanovikio"/>
    <tag k="place" v="village"/>
    <tag k="prefecture" v="Larisa"/>
  </node>
  <node id="139714762" version="5" timestamp="2008-09-16T00:47:39Z" uid="14235" user="AiNikolas" changeset="645595" lat="39.4628369" lon="22.7431823">
    <tag k="created_by" v="Potlatch 0.10b"/>
    <tag k="is_in" v="Karla municipality,Magnisia prefecture,Thessalia,Greece"/>
    <tag k="name" v="Στεφανοβίκειο"/>
    <tag k="name:de" v="Stefanovikio"/>
    <tag k="name:el" v="Στεφανοβίκειο"/>
    <tag k="name:en" v="Stefanovikio"/>
    <tag k="place" v="hamlet"/>
  </node>
  <node id="139714762" version="6" timestamp="2008-09-16T00:48:20Z" uid="14235" user="AiNikolas" changeset="645595" lat="39.4628369" lon="22.7431823">
    <tag k="created_by" v="Potlatch 0.10b"/>
    <tag k="is_in" v="Karla municipality,Magnisia prefecture,Thessalia,Greece"/>
    <tag k="name" v="Στεφανοβίκειο"/>
    <tag k="name:de" v="Stefanovikio"/>
    <tag k="name:el" v="Στεφανοβίκειο"/>
    <tag k="name:en" v="Stefanovikio"/>
    <tag k="place" v="hamlet"/>
    <tag k="population" v="1963"/>
  </node>
  <node id="139714762" version="7" timestamp="2008-10-10T00:27:24Z" uid="14235" user="AiNikolas" changeset="206924" lat="39.462842" lon="22.7431814">
    <tag k="created_by" v="Potlatch 0.10d"/>
    <tag k="is_in" v="Karla municipality,Magnisia prefecture,Thessalia,Greece"/>
    <tag k="name" v="Στεφανοβίκειο"/>
    <tag k="name:de" v="Stefanovikio"/>
    <tag k="name:el" v="Στεφανοβίκειο"/>
    <tag k="name:en" v="Stefanovikio"/>
    <tag k="place" v="village"/>
    <tag k="population" v="1963"/>
  </node>
  <node id="139714762" version="8" timestamp="2009-03-09T19:59:57Z" uid="14235" user="AiNikolas" changeset="769850" lat="39.4635166" lon="22.742157">
    <tag k="created_by" v="Potlatch 0.10f"/>
    <tag k="is_in" v="Karla municipality,Magnisia prefecture,Thessalia,Greece"/>
    <tag k="name" v="Στεφανοβίκειο"/>
    <tag k="name:de" v="Stefanovikio"/>
    <tag k="name:el" v="Στεφανοβίκειο"/>
    <tag k="name:en" v="Stefanovikio"/>
    <tag k="name:fr" v="Stefanovikio"/>
    <tag k="place" v="village"/>
    <tag k="population" v="1963"/>
  </node>
  <node id="139714762" version="9" timestamp="2009-05-23T07:54:10Z" uid="14235" user="AiNikolas" changeset="1292347" lat="39.4635146" lon="22.7421522">
    <tag k="created_by" v="Potlatch 0.10f"/>
    <tag k="is_in" v="Karla municipality,Magnisia prefecture,Thessalia,Greece"/>
    <tag k="name" v="Στεφανοβίκειο (Stefanovikio)"/>
    <tag k="name:de" v="Stefanovikio"/>
    <tag k="name:el" v="Στεφανοβίκειο"/>
    <tag k="name:en" v="Stefanovikio"/>
    <tag k="name:fr" v="Stefanovikio"/>
    <tag k="place" v="village"/>
    <tag k="population" v="1963"/>
  </node>
  <node id="139714762" version="10" timestamp="2010-01-13T16:35:48Z" uid="23785" user="Simon Kokolakis" changeset="3611122" lat="39.4635146" lon="22.7421522">
    <tag k="is_in" v="Karla municipality,Magnisia prefecture,Thessalia,Greece"/>
    <tag k="name" v="Στεφανοβίκειο"/>
    <tag k="name:de" v="Stefanovikio"/>
    <tag k="name:el" v="Στεφανοβίκειο"/>
    <tag k="name:en" v="Stefanovikio"/>
    <tag k="name:fr" v="Stefanovikio"/>
    <tag k="place" v="village"/>
    <tag k="population" v="1963"/>
  </node>
  <node id="139717277" version="2" timestamp="2010-05-14T15:31:50Z" uid="58091" user="Andreas M" changeset="4697157" lat="48.2849493" lon="16.3690764"/>
  <node id="139717278" version="2" timestamp="2010-05-14T15:31:49Z" uid="58091" user="Andreas M" changeset="4697157" lat="48.2844421" lon="16.3674441"/>
  <node id="139717663" version="3" timestamp="2008-07-06T23:59:20Z" uid="6975" user="ulfl" changeset="415781" lat="40.3165108" lon="22.5851564">
    <tag k="is_in" v="Greece"/>
    <tag k="name" v="Korinos"/>
    <tag k="place" v="village"/>
  </node>
  <node id="139717663" version="4" timestamp="2008-08-09T10:30:15Z" uid="14235" user="AiNikolas" changeset="149062" lat="40.316512" lon="22.5851576">
    <tag k="created_by" v="Potlatch 0.10b"/>
    <tag k="is_in" v="Greece"/>
    <tag k="is_in:nation" v="Greece"/>
    <tag k="is_in:periphery" v="Kendriki Makedonia"/>
    <tag k="is_in:prefecture" v="Pieria"/>
    <tag k="name" v="Korinos"/>
    <tag k="place" v="village"/>
  </node>
  <node id="139717663" version="5" timestamp="2008-09-08T12:00:20Z" uid="14235" user="AiNikolas" changeset="572179" lat="40.3165112" lon="22.5851503">
    <tag k="created_by" v="Potlatch 0.10b"/>
    <tag k="is_in" v="Pieria,Kendriki Makedonia,Greece"/>
    <tag k="name" v="Korinos"/>
    <tag k="place" v="village"/>
  </node>
  <node id="139717663" version="6" timestamp="2008-09-14T02:44:19Z" uid="14235" user="AiNikolas" changeset="628114" lat="40.3165078" lon="22.5851499">
    <tag k="created_by" v="Potlatch 0.10b"/>
    <tag k="is_in" v="Korinos,Pieria,Kendriki Makedonia,Greece"/>
    <tag k="name" v="Κορινός"/>
    <tag k="name:de" v="Korinos"/>
    <tag k="name:en" v="Korinos"/>
    <tag k="name:fr" v="Korinos"/>
    <tag k="place" v="village"/>
    <tag k="population" v="4054"/>
  </node>
  <node id="139717663" version="7" timestamp="2008-10-01T00:45:53Z" uid="14235" user="AiNikolas" changeset="5213" lat="40.3165082" lon="22.5851429">
    <tag k="created_by" v="Potlatch 0.10c"/>
    <tag k="is_in" v="Korinos municipality,Pieria prefecure,Kendriki Makedonia,Greece"/>
    <tag k="name" v="Κορινός"/>
    <tag k="name:de" v="Korinos"/>
    <tag k="name:en" v="Korinos"/>
    <tag k="name:fr" v="Korinos"/>
    <tag k="place" v="village"/>
    <tag k="population" v="4054"/>
  </node>
  <node id="139717663" version="8" timestamp="2008-10-18T23:23:38Z" uid="14235" user="AiNikolas" changeset="432174" lat="40.3165047" lon="22.5851404">
    <tag k="created_by" v="Potlatch 0.10e"/>
    <tag k="ele" v="6"/>
    <tag k="is_in" v="Korinos municipality,Pieria prefecure,Kendriki Makedonia,Greece"/>
    <tag k="name" v="Κορινός"/>
    <tag k="name:de" v="Korinos"/>
    <tag k="name:el" v="Κορινός"/>
    <tag k="name:en" v="Korinos"/>
    <tag k="name:fr" v="Korinos"/>
    <tag k="place" v="village"/>
    <tag k="population" v="4054"/>
  </node>
  <node id="139717663" version="9" timestamp="2009-05-28T04:15:51Z" uid="14235" user="AiNikolas" changeset="1339264" lat="40.3165072" lon="22.5851384">
    <tag k="created_by" v="Potlatch 0.10e"/>
    <tag k="ele" v="6"/>
    <tag k="is_in" v="Korinos municipality,Pieria prefecure,Kendriki Makedonia,Greece"/>
    <tag k="name" v="Κορινός (Korinos)"/>
    <tag k="name:de" v="Korinos"/>
    <tag k="name:el" v="Κορινός"/>
    <tag k="name:en" v="Korinos"/>
    <tag k="name:fr" v="Korinos"/>
    <tag k="place" v="village"/>
    <tag k="population" v="4054"/>
  </node>
  <node id="139717663" version="10" timestamp="2010-01-13T16:35:59Z" uid="23785" user="Simon Kokolakis" changeset="3611122" lat="40.3165072" lon="22.5851384">
    <tag k="ele" v="6"/>
    <tag k="is_in" v="Korinos municipality,Pieria prefecure,Kendriki Makedonia,Greece"/>
    <tag k="name" v="Κορινός"/>
    <tag k="name:de" v="Korinos"/>
    <tag k="name:el" v="Κορινός"/>
    <tag k="name:en" v="Korinos"/>
    <tag k="name:fr" v="Korinos"/>
    <tag k="place" v="village"/>
    <tag k="population" v="4054"/>
  </node>
  <node id="139718561" version="5" timestamp="2008-07-06T23:59:20Z" uid="6975" user="ulfl" changeset="415781" lat="40.4945414" lon="22.5436114">
    <tag k="is_in" v="Greece"/>
    <tag k="name" v="Eginio"/>
    <tag k="place" v="town"/>
    <tag k="prefecture" v="Pieria"/>
  </node>
  <node id="139718561" version="6" timestamp="2008-09-08T12:01:10Z" uid="14235" user="AiNikolas" changeset="572179" lat="40.4945397" lon="22.5436082">
    <tag k="created_by" v="Potlatch 0.10b"/>
    <tag k="is_in" v="Pieria,Kendriki Makedonia,Greece"/>
    <tag k="name" v="Eginio"/>
    <tag k="place" v="town"/>
  </node>
  <node id="139718561" version="7" timestamp="2008-10-01T00:29:40Z" uid="14235" user="AiNikolas" changeset="5213" lat="40.4945367" lon="22.5436012">
    <tag k="created_by" v="Potlatch 0.10c"/>
    <tag k="is_in" v="Pieria prefecture,Kendriki Makedonia,Greece"/>
    <tag k="name" v="Eginio"/>
    <tag k="place" v="hamlet"/>
  </node>
  <node id="139718561" version="8" timestamp="2008-10-01T00:32:30Z" uid="14235" user="AiNikolas" changeset="5213" lat="40.4935837" lon="22.5442707">
    <tag k="created_by" v="Potlatch 0.10c"/>
    <tag k="is_in" v="Eginio municipality,Pieria prefecture,Kendriki Makedonia,Greece"/>
    <tag k="name" v="Αιγίνιο"/>
    <tag k="name:de" v="Eginio"/>
    <tag k="name:el" v="Αιγίνιο"/>
    <tag k="name:en" v="Eginio"/>
    <tag k="name:fr" v="Eginio"/>
    <tag k="place" v="town"/>
    <tag k="population" v="4208"/>
  </node>
  <node id="139718561" version="9" timestamp="2008-10-01T00:34:05Z" uid="14235" user="AiNikolas" changeset="5213" lat="40.493587" lon="22.5442689">
    <tag k="created_by" v="Potlatch 0.10c"/>
    <tag k="is_in" v="Eginio municipality,Pieria prefecture,Kendriki Makedonia,Greece"/>
    <tag k="name" v="Αιγίνιο"/>
    <tag k="name:de" v="Eginio"/>
    <tag k="name:el" v="Αιγίνιο"/>
    <tag k="name:en" v="Eginio"/>
    <tag k="name:fr" v="Eginio"/>
    <tag k="place" v="village"/>
    <tag k="population" v="4208"/>
  </node>
  <node id="139718561" version="10" timestamp="2008-10-18T23:34:32Z" uid="14235" user="AiNikolas" changeset="432174" lat="40.4935868" lon="22.5442679">
    <tag k="created_by" v="Potlatch 0.10e"/>
    <tag k="ele" v="20"/>
    <tag k="is_in" v="Eginio municipality,Pieria prefecture,Kendriki Makedonia,Greece"/>
    <tag k="name" v="Αιγίνιο"/>
    <tag k="name:de" v="Eginio"/>
    <tag k="name:el" v="Αιγίνιο"/>
    <tag k="name:en" v="Eginio"/>
    <tag k="name:fr" v="Eginio"/>
    <tag k="place" v="village"/>
    <tag k="population" v="4208"/>
  </node>
  <node id="139718561" version="11" timestamp="2011-04-23T10:18:10Z" uid="23785" user="greecemapper" changeset="7942223" lat="40.4969649" lon="22.5432901">
    <tag k="ele" v="20"/>
    <tag k="is_in" v="Eginio municipality,Pieria prefecture,Kendriki Makedonia,Greece"/>
    <tag k="name" v="Αιγίνιο"/>
    <tag k="name:de" v="Eginio"/>
    <tag k="name:el" v="Αιγίνιο"/>
    <tag k="name:en" v="Eginio"/>
    <tag k="name:fr" v="Eginio"/>
    <tag k="place" v="village"/>
    <tag k="population" v="4208"/>
  </node>
  <node id="139718561" version="12" timestamp="2011-11-02T11:29:56Z" uid="16821" user="geraki" changeset="9720924" lat="40.4969649" lon="22.5432901">
    <tag k="ele" v="20"/>
    <tag k="is_in" v="Eginio municipality,Pieria prefecture,Kendriki Makedonia,Greece"/>
    <tag k="name" v="Αιγίνιο"/>
    <tag k="name:de" v="Eginio"/>
    <tag k="name:el" v="Αιγίνιο"/>
    <tag k="name:en" v="Eginio"/>
    <tag k="name:fr" v="Eginio"/>
    <tag k="place" v="town"/>
    <tag k="population" v="4208"/>
  </node>
</osm>
