<?xml version='1.0' encoding='UTF-8'?>
<osm version="0.6" generator="libosmium/2.20.0">
  <node id="139940610" version="3" timestamp="2008-07-03T18:22:49Z" uid="6975" user="ulfl" changeset="379368" lat="52.771836" lon="1.5153232">
    <tag k="amenity" v="bank"/>
    <tag k="atm" v="yes"/>
    <tag k="name" v="Barclays"/>
    <tag k="owner" v="Barclays PLC"/>
  </node>
  <node id="139940610" version="4" timestamp="2009-11-08T18:10:22Z" uid="57932" user="Strange but untrue" changeset="3066673" lat="52.7718402" lon="1.5153184">
    <tag k="amenity" v="bank"/>
    <tag k="atm" v="yes"/>
    <tag k="name" v="Barclays"/>
    <tag k="operator" v="Barclays PLC"/>
  </node>
  <node id="139940610" version="5" timestamp="2011-09-28T15:41:11Z" uid="290680" user="wheelmap_visitor" changeset="9416290" lat="52.7718402" lon="1.5153184">
    <tag k="amenity" v="bank"/>
    <tag k="atm" v="yes"/>
    <tag k="name" v="Barclays"/>
    <tag k="operator" v="Barclays PLC"/>
    <tag k="wheelchair" v="yes"/>
  </node>
  <node id="139948260" version="3" timestamp="2011-02-23T21:42:00Z" uid="9581" user="Lobelt" changeset="7377086" lat="49.9143945" lon="8.5502264">
    <tag k="railway" v="crossing"/>
  </node>
  <node id="139948260" version="4" timestamp="2011-02-25T11:42:18Z" uid="362369" user="ma-scha" changeset="7389669" lat="49.9143945" lon="8.5502264">
    <tag k="railway" v="level_crossing"/>
  </node>
  <node id="139948260" version="5" timestamp="2012-03-09T23:08:44Z" uid="11008" user="spacer1971" changeset="10926837" lat="49.9143975" lon="8.5502241">
    <tag k="railway" v="level_crossing"/>
  </node>
  <node id="139948260" version="6" timestamp="2012-03-17T14:16:27Z" uid="55687" user="dschuwa" changeset="11008343" lat="49.914407" lon="8.550234">
    <tag k="railway" v="level_crossing"/>
  </node>
</osm>
