<?xml version='1.0' encoding='UTF-8'?>
<osm version="0.6" generator="libosmium/2.20.0">
  <node id="140150689" version="7" timestamp="2008-07-07T00:22:32Z" uid="6975" user="ulfl" changeset="415781" lat="40.6251039" lon="22.9538514">
    <tag k="loc_name" v="Archeologiko Mousio Thessalonikis"/>
    <tag k="name" v="Archeological Museum of Thessaloniki"/>
    <tag k="tourism" v="museum"/>
  </node>
  <node id="140150689" version="8" timestamp="2010-08-11T15:34:46Z" uid="331694" user="archiegab" changeset="5463954" lat="40.6251038" lon="22.9538513">
    <tag k="loc_name" v="Αρχαιλογικό Μουσείο Θεσσαλονίκης"/>
    <tag k="name" v="Archeological Museum of Thessaloniki"/>
    <tag k="tourism" v="museum"/>
  </node>
  <node id="140150689" version="9" timestamp="2011-04-26T02:33:35Z" uid="96446" user="radiobuzzer" changeset="7970467" lat="40.6251038" lon="22.9538513">
    <tag k="name" v="Αρχαιoλογικό Μουσείο Θεσσαλονίκης"/>
    <tag k="name:en" v="Archeological Museum of Thessaloniki"/>
    <tag k="tourism" v="museum"/>
  </node>
  <node id="140156303" version="5" timestamp="2008-07-07T00:22:33Z" uid="6975" user="ulfl" changeset="415781" lat="40.6263561" lon="22.9484546">
    <tag k="historic" v="monument"/>
    <tag k="loc_name" v="Lefkos Pyrgos"/>
    <tag k="name" v="White Tower"/>
    <tag k="tourism" v="attraction"/>
  </node>
  <node id="140156303" version="6" timestamp="2010-01-12T14:29:53Z" uid="14319" user="Xav" changeset="3603470" lat="40.6263561" lon="22.9484547">
    <tag k="historic" v="monument"/>
    <tag k="loc_name" v="Lefkos Pyrgos"/>
    <tag k="name" v="White Tower"/>
    <tag k="name:fr" v="La Tour Blanche"/>
    <tag k="tourism" v="attraction"/>
  </node>
  <node id="140156303" version="7" timestamp="2010-08-11T09:37:55Z" uid="52508" user="logictheo" changeset="5461062" lat="40.6263561" lon="22.9484547">
    <tag k="historic" v="monument"/>
    <tag k="loc_name" v="Lefkos Pyrgos"/>
    <tag k="name" v="White Tower"/>
    <tag k="name:fr" v="La Tour Blanche"/>
    <tag k="tourism" v="attraction"/>
  </node>
</osm>
