<?xml version='1.0' encoding='UTF-8'?>
<osm version="0.6" generator="libosmium/2.20.0">
  <node id="142032864" version="3" timestamp="2008-09-30T10:44:00Z" uid="1066" user="pavel" changeset="720911" lat="49.0171763" lon="14.609123">
    <tag k="is_in" v="Czech Republic, Europe"/>
    <tag k="name" v="Lišov"/>
    <tag k="place" v="town"/>
  </node>
  <node id="142032864" version="4" timestamp="2008-11-04T13:15:28Z" uid="308" user="MichaelCollinson" changeset="676656" lat="49.0171763" lon="14.609123">
    <tag k="is_in" v="Czech Republic, Europe"/>
    <tag k="is_in:continent" v="Europe"/>
    <tag k="is_in:country_code" v="cz"/>
    <tag k="name" v="Lišov"/>
    <tag k="place" v="town"/>
  </node>
  <node id="142032864" version="5" timestamp="2009-02-04T23:38:29Z" uid="46751" user="Medulove" changeset="169793" lat="49.0148608" lon="14.6120277">
    <tag k="is_in" v="Czech Republic, Europe"/>
    <tag k="is_in:continent" v="Europe"/>
    <tag k="is_in:country_code" v="cz"/>
    <tag k="name" v="Lišov"/>
    <tag k="place" v="town"/>
  </node>
  <node id="142032864" version="6" timestamp="2012-01-20T19:07:28Z" uid="536216" user="uir-zsj" changeset="10449381" lat="49.0148608" lon="14.6120277"/>
</osm>
