<?xml version='1.0' encoding='UTF-8'?>
<osm version="0.6" generator="libosmium/2.20.0">
  <node id="144850203" version="22" timestamp="2009-07-23T00:14:46Z" uid="123700" user="Mala" changeset="1910307" lat="39.7836936" lon="-100.4458446">
    <tag k="alt_name" v="USA;US;The States"/>
    <tag k="capital_city" v="Washington DC"/>
    <tag k="country_code" v="US"/>
    <tag k="country_code_fips" v="US"/>
    <tag k="country_code_iso3166_1_alpha_2" v="US"/>
    <tag k="is_in:continent" v="North America"/>
    <tag k="is_in:ocean" v="Pacific;Atlantic"/>
    <tag k="name" v="United States of America"/>
    <tag k="name:cy" v="Unol Daleithiau America"/>
    <tag k="name:da" v="USA"/>
    <tag k="name:de" v="Vereinigte Staaten von Amerika"/>
    <tag k="name:en" v="United States of America"/>
    <tag k="name:eo" v="Usono"/>
    <tag k="name:es" v="Estados Unidos"/>
    <tag k="name:fi" v="Yhdysvallat"/>
    <tag k="name:fr" v="États-Unis d&apos;Amérique"/>
    <tag k="name:he" v="ארצות הברית של אמריקה"/>
    <tag k="name:hu" v="Amerikai Egyesült Államok"/>
    <tag k="name:nl" v="Verenigde Staten van Amerika"/>
    <tag k="name:pl" v="Stany Zjednoczone Ameryki"/>
    <tag k="name:sl" v="Združene države Amerike"/>
    <tag k="name:zh" v="美国"/>
    <tag k="name:zh_py" v="Meiguo"/>
    <tag k="name:zh_pyt" v="Měiguó"/>
    <tag k="place" v="country"/>
    <tag k="source" v="Wikipedia"/>
  </node>
</osm>
