<?xml version='1.0' encoding='UTF-8'?>
<osm version="0.6" generator="libosmium/2.20.0">
  <node id="149845636" version="1" timestamp="2007-12-04T01:56:23Z" uid="4467" user="Rosscoe" changeset="65016" lat="-21.141527" lon="149.1867677">
    <tag k="created_by" v="JOSM"/>
    <tag k="name" v="Mackay"/>
    <tag k="place" v="city"/>
  </node>
  <node id="149845636" version="2" timestamp="2007-12-16T07:20:30Z" uid="10359" user="swampwallaby" changeset="321819" lat="-21.141527" lon="149.1867677">
    <tag k="created_by" v="JOSM"/>
    <tag k="name" v="Mackay"/>
    <tag k="place" v="city"/>
  </node>
  <node id="149845650" version="1" timestamp="2007-12-04T01:56:24Z" uid="4467" user="Rosscoe" changeset="65016" lat="-23.3782409" lon="150.5131869">
    <tag k="created_by" v="JOSM"/>
    <tag k="is_in" v="Queensland, Australia"/>
    <tag k="name" v="Rockhampton"/>
    <tag k="place" v="city"/>
  </node>
  <node id="149845650" version="2" timestamp="2008-10-14T09:15:23Z" uid="308" user="MichaelCollinson" changeset="321487" lat="-23.3782409" lon="150.5131869">
    <tag k="is_in" v="Queensland, Australia"/>
    <tag k="is_in:country" v="Australia"/>
    <tag k="is_in:country_code" v="au"/>
    <tag k="is_in:state" v="Queensland"/>
    <tag k="is_in:state_code" v="QLD"/>
    <tag k="name" v="Rockhampton"/>
    <tag k="place" v="city"/>
  </node>
  <node id="149845650" version="3" timestamp="2008-10-14T09:38:12Z" uid="308" user="MichaelCollinson" changeset="321487" lat="-23.3782409" lon="150.5131869">
    <tag k="is_in" v="Queensland, Australia"/>
    <tag k="is_in:country" v="Australia"/>
    <tag k="is_in:country_code" v="au"/>
    <tag k="is_in:state" v="Queensland"/>
    <tag k="is_in:state_code" v="QLD"/>
    <tag k="name" v="Rockhampton"/>
    <tag k="place" v="city"/>
    <tag k="population" v="74530"/>
  </node>
  <node id="149845650" version="4" timestamp="2008-11-05T18:08:04Z" uid="308" user="MichaelCollinson" changeset="685958" lat="-23.3782409" lon="150.5131869">
    <tag k="is_in" v="Queensland, Australia"/>
    <tag k="is_in:continent" v="Australia"/>
    <tag k="is_in:country" v="Australia"/>
    <tag k="is_in:country_code" v="au"/>
    <tag k="is_in:state" v="Queensland"/>
    <tag k="is_in:state_code" v="QLD"/>
    <tag k="name" v="Rockhampton"/>
    <tag k="place" v="city"/>
    <tag k="population" v="74530"/>
  </node>
</osm>
