<?xml version='1.0' encoding='UTF-8'?>
<osm version="0.6" generator="libosmium/2.20.0">
  <node id="151221721" version="14" timestamp="2009-08-22T06:09:58Z" uid="34428" user="usm78-gis" changeset="2230662" lat="59.7991519" lon="30.2631175">
    <tag k="aeroway" v="aerodrome"/>
    <tag k="created_by" v="Potlatch 0.8b"/>
    <tag k="ele" v="24"/>
    <tag k="iata" v="LED"/>
    <tag k="icao" v="ULLI"/>
    <tag k="is_in" v="Saint Petersburg"/>
    <tag k="name" v="Аэропорт Пулково"/>
    <tag k="name:en" v="Pulkovo Airport"/>
    <tag k="name:ru" v="Аэропорт Пулково"/>
    <tag k="name_2" v="Пулково-1"/>
    <tag k="operator" v="Pulkovo Aviation Enterprise"/>
    <tag k="source" v="wikipedia"/>
    <tag k="type" v="Public"/>
    <tag k="wikipedia:en" v="Pulkovo_Airport"/>
  </node>
  <node id="151221721" version="15" timestamp="2009-08-22T06:10:17Z" uid="34428" user="usm78-gis" changeset="2230662" lat="59.7991605" lon="30.2631175">
    <tag k="aeroway" v="aerodrome"/>
    <tag k="created_by" v="Potlatch 0.8b"/>
    <tag k="ele" v="24"/>
    <tag k="iata" v="LED"/>
    <tag k="icao" v="ULLI"/>
    <tag k="is_in" v="Saint Petersburg"/>
    <tag k="name" v="Аэропорт Пулково"/>
    <tag k="name:en" v="Pulkovo Airport"/>
    <tag k="name:ru" v="Аэропорт Пулково-1"/>
    <tag k="name_2" v="Пулково-1"/>
    <tag k="operator" v="Pulkovo Aviation Enterprise"/>
    <tag k="source" v="wikipedia"/>
    <tag k="type" v="Public"/>
    <tag k="wikipedia:en" v="Pulkovo_Airport"/>
  </node>
  <node id="151221721" version="16" timestamp="2009-08-22T06:10:37Z" uid="34428" user="usm78-gis" changeset="2230662" lat="59.7991605" lon="30.2631175">
    <tag k="aeroway" v="aerodrome"/>
    <tag k="created_by" v="Potlatch 0.8b"/>
    <tag k="ele" v="24"/>
    <tag k="iata" v="LED"/>
    <tag k="icao" v="ULLI"/>
    <tag k="is_in" v="Saint Petersburg"/>
    <tag k="name" v="Аэропорт Пулково"/>
    <tag k="name:en" v="Pulkovo Airport"/>
    <tag k="name:ru" v="Аэропорт Пулково-1"/>
    <tag k="operator" v="Pulkovo Aviation Enterprise"/>
    <tag k="source" v="wikipedia"/>
    <tag k="type" v="Public"/>
    <tag k="wikipedia:en" v="Pulkovo_Airport"/>
  </node>
  <node id="151221721" version="17" timestamp="2010-06-04T18:58:45Z" uid="94786" user="glebius" changeset="4903090" lat="59.7991605" lon="30.2631175">
    <tag k="aeroway" v="aerodrome"/>
    <tag k="created_by" v="Potlatch 0.8b"/>
    <tag k="ele" v="24"/>
    <tag k="iata" v="LED"/>
    <tag k="icao" v="ULLI"/>
    <tag k="is_in" v="Saint Petersburg"/>
    <tag k="name" v="Аэропорт Пулково"/>
    <tag k="name:en" v="Pulkovo Airport"/>
    <tag k="name:ru" v="Аэропорт Пулково"/>
    <tag k="operator" v="Pulkovo Aviation Enterprise"/>
    <tag k="source" v="wikipedia"/>
    <tag k="type" v="Public"/>
    <tag k="wikipedia:en" v="Pulkovo_Airport"/>
  </node>
  <node id="151221721" version="18" timestamp="2010-08-28T22:27:39Z" uid="143266" user="Sergey Astakhov" changeset="5620948" lat="59.7991605" lon="30.2631175">
    <tag k="aeroway" v="aerodrome"/>
    <tag k="ele" v="24"/>
    <tag k="iata" v="LED"/>
    <tag k="icao" v="ULLI"/>
    <tag k="is_in" v="Saint Petersburg"/>
    <tag k="name" v="Пулково-1"/>
    <tag k="name:en" v="Pulkovo-1"/>
    <tag k="name:ru" v="Пулково-1"/>
    <tag k="operator" v="Pulkovo Aviation Enterprise"/>
    <tag k="source" v="wikipedia"/>
    <tag k="type" v="Public"/>
    <tag k="wikipedia:en" v="Pulkovo_Airport"/>
  </node>
  <node id="151221721" version="19" timestamp="2010-10-06T08:28:30Z" uid="336559" user="copov" changeset="5967010" lat="59.7991605" lon="30.2631174">
    <tag k="aeroway" v="aerodrome"/>
    <tag k="ele" v="24"/>
    <tag k="iata" v="LED"/>
    <tag k="icao" v="ULLI"/>
    <tag k="is_in" v="Saint Petersburg"/>
    <tag k="name" v="Пулково-1"/>
    <tag k="name:en" v="Pulkovo-1"/>
    <tag k="name:ru" v="Пулково-1"/>
    <tag k="operator" v="Pulkovo Aviation Enterprise"/>
    <tag k="place" v="airport"/>
    <tag k="source" v="wikipedia"/>
    <tag k="type" v="Public"/>
    <tag k="wikipedia:en" v="Pulkovo_Airport"/>
  </node>
  <node id="151221721" version="20" timestamp="2011-06-19T01:11:47Z" uid="39040" user="Dinamik" changeset="8479417" lat="59.7991605" lon="30.2631174"/>
  <node id="151222194" version="5" timestamp="2009-10-18T17:20:30Z" uid="74027" user="katzlbt" changeset="2886309" lat="47.3309313" lon="11.1074537"/>
  <node id="151222194" version="6" timestamp="2010-02-26T00:23:30Z" uid="45481" user="borisC" changeset="3976979" lat="47.3310043" lon="11.1075615"/>
  <node id="151222194" version="7" timestamp="2010-02-26T00:27:28Z" uid="45481" user="borisC" changeset="3976979" lat="47.3310043" lon="11.1075615"/>
  <node id="151222194" version="8" timestamp="2011-01-04T00:03:22Z" uid="45481" user="borisC" changeset="6856490" lat="47.3310209" lon="11.1074801"/>
  <node id="151222194" version="9" timestamp="2012-01-28T21:54:38Z" uid="62236" user="Paulchen Panther" changeset="10525377" lat="47.331136" lon="11.1075276"/>
  <node id="151223002" version="9" timestamp="2009-04-04T17:34:56Z" uid="34428" user="usm78-gis" changeset="171721" lat="59.8054498" lon="30.3119654"/>
  <node id="151223002" version="10" timestamp="2009-04-04T17:35:04Z" uid="34428" user="usm78-gis" changeset="171721" lat="59.8054498" lon="30.3119654"/>
  <node id="151223002" version="11" timestamp="2009-04-04T17:35:24Z" uid="34428" user="usm78-gis" changeset="171721" lat="59.8054498" lon="30.3119654"/>
  <node id="151223002" version="12" timestamp="2010-05-11T17:14:47Z" uid="43262" user="KonTur" changeset="4670388" lat="59.8054985" lon="30.311873"/>
  <node id="151223002" version="13" timestamp="2011-04-02T21:31:01Z" uid="303945" user="Дмитрий Кудряшов" changeset="7748639" lat="59.8055866" lon="30.3117624"/>
  <node id="151223002" version="14" timestamp="2011-08-30T15:06:36Z" uid="143266" user="Sergey Astakhov" changeset="9168196" lat="59.8055745" lon="30.3117521"/>
  <node id="151223003" version="5" timestamp="2009-03-28T19:56:46Z" uid="34428" user="usm78-gis" changeset="865258" lat="59.8044677" lon="30.319068"/>
  <node id="151223003" version="6" timestamp="2009-03-29T14:39:03Z" uid="34428" user="usm78-gis" changeset="867422" lat="59.8044677" lon="30.319068"/>
  <node id="151223003" version="7" timestamp="2010-05-11T17:14:50Z" uid="43262" user="KonTur" changeset="4670388" lat="59.8044677" lon="30.319068"/>
  <node id="151223005" version="5" timestamp="2009-03-28T19:56:46Z" uid="34428" user="usm78-gis" changeset="865258" lat="59.8044331" lon="30.3195144"/>
  <node id="151223005" version="6" timestamp="2009-03-29T14:39:05Z" uid="34428" user="usm78-gis" changeset="867422" lat="59.8044331" lon="30.3195144"/>
  <node id="151223005" version="7" timestamp="2010-05-11T17:14:44Z" uid="43262" user="KonTur" changeset="4670388" lat="59.8044154" lon="30.3195109"/>
  <node id="151223005" version="8" timestamp="2011-08-30T15:06:36Z" uid="143266" user="Sergey Astakhov" changeset="9168196" lat="59.8043982" lon="30.3195075"/>
  <node id="151223400" version="2" timestamp="2008-07-03T00:02:06Z" uid="6975" user="ulfl" changeset="377243" lat="40.4858345" lon="-3.6892715">
    <tag k="name" v="Taller T y J"/>
    <tag k="shop" v="car_repair"/>
  </node>
  <node id="151223409" version="2" timestamp="2008-02-16T20:15:44Z" uid="6975" user="ulfl" changeset="141861" lat="40.4866713" lon="-3.6894109">
    <tag k="amenity" v="hospital"/>
    <tag k="name" v="Dentista"/>
  </node>
  <node id="151223413" version="2" timestamp="2008-02-16T20:15:45Z" uid="6975" user="ulfl" changeset="141861" lat="40.4861016" lon="-3.6905682">
    <tag k="amenity" v="hospital"/>
    <tag k="name" v="dentista"/>
  </node>
  <node id="151223415" version="2" timestamp="2008-02-16T20:15:44Z" uid="6975" user="ulfl" changeset="141861" lat="40.4856802" lon="-3.6900103">
    <tag k="amenity" v="hospital"/>
    <tag k="name" v="Clínica &amp;quot;MEFRAN&amp;quot;"/>
  </node>
  <node id="151223415" version="3" timestamp="2009-05-21T20:13:44Z" uid="70696" user="xybot" changeset="1280410" lat="40.4856802" lon="-3.6900103">
    <tag k="amenity" v="hospital"/>
    <tag k="name" v="Clínica &quot;MEFRAN&quot;"/>
  </node>
  <node id="151225047" version="4" timestamp="2009-12-20T13:55:14Z" uid="9719" user="dvaey" changeset="3413662" lat="-35.394454" lon="149.0764799"/>
  <node id="151225047" version="5" timestamp="2010-03-12T20:01:38Z" uid="79144" user="John H" changeset="4108814" lat="-35.3945049" lon="149.076369"/>
  <node id="151225048" version="4" timestamp="2009-12-20T13:55:14Z" uid="9719" user="dvaey" changeset="3413662" lat="-35.3941811" lon="149.0769091"/>
  <node id="151225049" version="4" timestamp="2009-12-20T13:55:13Z" uid="9719" user="dvaey" changeset="3413662" lat="-35.3935929" lon="149.0777001"/>
  <node id="151225049" version="5" timestamp="2010-03-12T20:01:39Z" uid="79144" user="John H" changeset="4108814" lat="-35.3935837" lon="149.0777633"/>
  <node id="151225050" version="4" timestamp="2009-12-20T13:55:13Z" uid="9719" user="dvaey" changeset="3413662" lat="-35.3928937" lon="149.0786686"/>
  <node id="151225050" version="5" timestamp="2010-03-12T20:01:39Z" uid="79144" user="John H" changeset="4108814" lat="-35.3930393" lon="149.0784458"/>
  <node id="151225088" version="4" timestamp="2009-12-21T04:54:30Z" uid="9719" user="dvaey" changeset="3418345" lat="-35.3939409" lon="149.0777162"/>
  <node id="151225089" version="4" timestamp="2010-06-21T07:27:17Z" uid="4467" user="Rosscoe" changeset="5040065" lat="-35.3946774" lon="149.0783705"/>
  <node id="151225091" version="4" timestamp="2010-03-30T14:02:31Z" uid="9719" user="dvaey" changeset="4276266" lat="-35.3951637" lon="149.0786993"/>
  <node id="151225091" version="5" timestamp="2010-03-30T14:03:03Z" uid="9719" user="dvaey" changeset="4276266" lat="-35.3951654" lon="149.0787718"/>
  <node id="151225091" version="6" timestamp="2010-03-30T14:04:12Z" uid="9719" user="dvaey" changeset="4276266" lat="-35.3951719" lon="149.0787523"/>
  <node id="151225091" version="7" timestamp="2010-03-30T14:05:04Z" uid="9719" user="dvaey" changeset="4276266" lat="-35.3951719" lon="149.0787523"/>
  <node id="151225092" version="5" timestamp="2010-03-30T14:03:05Z" uid="9719" user="dvaey" changeset="4276266" lat="-35.3951232" lon="149.0787974"/>
  <node id="151225181" version="7" timestamp="2009-12-20T13:55:06Z" uid="9719" user="dvaey" changeset="3413662" lat="-35.3936323" lon="149.0773138"/>
  <node id="151225181" version="8" timestamp="2010-03-12T20:01:39Z" uid="79144" user="John H" changeset="4108814" lat="-35.393671" lon="149.0773117"/>
  <node id="151225182" version="4" timestamp="2009-12-20T13:55:06Z" uid="9719" user="dvaey" changeset="3413662" lat="-35.3937263" lon="149.077523"/>
  <node id="151225182" version="5" timestamp="2010-03-12T20:01:39Z" uid="79144" user="John H" changeset="4108814" lat="-35.3937484" lon="149.0775366"/>
  <node id="151225245" version="2" timestamp="2008-02-16T19:37:37Z" uid="6975" user="ulfl" changeset="141861" lat="49.8791775" lon="8.39528">
    <tag k="highway" v="bus_stop"/>
  </node>
  <node id="151225417" version="4" timestamp="2010-06-21T07:27:18Z" uid="4467" user="Rosscoe" changeset="5040065" lat="-35.3955448" lon="149.0787096"/>
  <node id="151225430" version="14" timestamp="2010-06-21T07:26:51Z" uid="4467" user="Rosscoe" changeset="5040065" lat="-35.3959364" lon="149.0789538"/>
  <node id="151225647" version="3" timestamp="2009-04-16T23:32:32Z" uid="115797" user="Elofant" changeset="605509" lat="47.5497214" lon="11.6897369"/>
  <node id="151225647" version="4" timestamp="2011-12-04T07:15:48Z" uid="290723" user="sulagaloh" changeset="10030484" lat="47.5497214" lon="11.6897369"/>
  <node id="151225673" version="2" timestamp="2008-02-16T19:38:25Z" uid="6975" user="ulfl" changeset="141861" lat="49.8854271" lon="8.395177">
    <tag k="highway" v="bus_stop"/>
  </node>
  <node id="151225696" version="3" timestamp="2008-02-16T19:38:28Z" uid="6975" user="ulfl" changeset="141861" lat="49.9242171" lon="8.407056">
    <tag k="highway" v="bus_stop"/>
  </node>
  <node id="151225696" version="4" timestamp="2008-03-19T22:10:06Z" uid="31441" user="ChrisWolf" changeset="354536" lat="49.9242207" lon="8.4070515">
    <tag k="amenity" v="place_of_worship"/>
    <tag k="created_by" v="Potlatch 0.7b"/>
    <tag k="highway" v="bus_stop"/>
  </node>
  <node id="151225696" version="5" timestamp="2010-01-08T00:33:23Z" uid="216076" user="salamicacher" changeset="3567163" lat="49.9242207" lon="8.4070515">
    <tag k="amenity" v="place_of_worship"/>
    <tag k="highway" v="bus_stop"/>
    <tag k="name" v="Hauptstraße"/>
    <tag k="shelter" v="yes"/>
  </node>
  <node id="151225823" version="2" timestamp="2008-02-16T19:38:17Z" uid="6975" user="ulfl" changeset="141861" lat="49.9292011" lon="8.4063007">
    <tag k="highway" v="bus_stop"/>
  </node>
  <node id="151225823" version="3" timestamp="2010-01-07T16:25:44Z" uid="216076" user="salamicacher" changeset="3563267" lat="49.9292011" lon="8.4063007">
    <tag k="highway" v="bus_stop"/>
    <tag k="name" v="Rüsselsheimer Straße"/>
  </node>
  <node id="151226002" version="3" timestamp="2010-06-21T07:27:13Z" uid="4467" user="Rosscoe" changeset="5040065" lat="-35.396469" lon="149.077149">
    <tag k="highway" v="turning_circle"/>
  </node>
  <node id="151226019" version="4" timestamp="2010-06-21T07:26:54Z" uid="4467" user="Rosscoe" changeset="5040065" lat="-35.396115" lon="149.0779689">
    <tag k="highway" v="turning_circle"/>
  </node>
  <node id="151226020" version="21" timestamp="2010-06-21T07:27:29Z" uid="4467" user="Rosscoe" changeset="5040065" lat="-35.395617" lon="149.0777368"/>
  <node id="151226032" version="3" timestamp="2008-02-16T19:38:05Z" uid="6975" user="ulfl" changeset="141861" lat="50.0123114" lon="8.4210262">
    <tag k="highway" v="bus_stop"/>
  </node>
  <node id="151226091" version="2" timestamp="2008-02-16T19:37:58Z" uid="6975" user="ulfl" changeset="141861" lat="50.0133722" lon="8.4211901">
    <tag k="highway" v="bus_stop"/>
  </node>
  <node id="151226114" version="3" timestamp="2010-03-30T14:05:22Z" uid="9719" user="dvaey" changeset="4276266" lat="-35.3952096" lon="149.0785313"/>
  <node id="151226232" version="3" timestamp="2008-02-16T19:37:46Z" uid="6975" user="ulfl" changeset="141861" lat="49.9919235" lon="8.4130578">
    <tag k="highway" v="bus_stop"/>
  </node>
  <node id="151226232" version="4" timestamp="2008-05-16T16:45:13Z" uid="11161" user="Yps" changeset="459638" lat="49.9919486" lon="8.4144718">
    <tag k="created_by" v="JOSM"/>
    <tag k="highway" v="bus_stop"/>
  </node>
  <node id="151226232" version="5" timestamp="2009-08-09T16:11:29Z" uid="8464" user="MichaH" changeset="2087635" lat="49.9919486" lon="8.4144718">
    <tag k="highway" v="bus_stop"/>
  </node>
  <node id="151226232" version="6" timestamp="2010-02-09T00:14:22Z" uid="109343" user="radhof" changeset="3828435" lat="49.9919486" lon="8.4144718">
    <tag k="amenity" v="bus_station"/>
  </node>
  <node id="151226232" version="7" timestamp="2010-10-10T19:46:42Z" uid="57645" user="KartoGrapHiti" changeset="6005887" lat="49.9920367" lon="8.4144353">
    <tag k="amenity" v="bus_station"/>
    <tag k="line" v="6; 11; 22; 32; 42; 51; 52; L1"/>
  </node>
  <node id="151226232" version="8" timestamp="2011-12-06T13:15:04Z" uid="221387" user="baeuchle" changeset="10049942" lat="49.9920367" lon="8.4144353">
    <tag k="amenity" v="bus_station"/>
    <tag k="line" v="6; 11; 22; 32; 42; 51; 52; L1"/>
    <tag k="name" v="Rüsselsheim Bahnhof"/>
  </node>
  <node id="151226377" version="3" timestamp="2009-04-16T23:31:25Z" uid="115797" user="Elofant" changeset="605509" lat="47.5826161" lon="11.8601966"/>
  <node id="151226377" version="4" timestamp="2011-06-03T19:38:49Z" uid="268988" user="Andreas Binder" changeset="8332880" lat="47.582479" lon="11.8602747"/>
  <node id="151226377" version="5" timestamp="2011-08-15T10:03:10Z" uid="290723" user="sulagaloh" changeset="9024587" lat="47.582479" lon="11.8602747"/>
  <node id="151226764" version="3" timestamp="2010-03-30T14:09:00Z" uid="9719" user="dvaey" changeset="4276266" lat="-35.3993912" lon="149.0762183"/>
  <node id="151226780" version="21" timestamp="2010-03-30T14:11:21Z" uid="9719" user="dvaey" changeset="4276266" lat="-35.4013179" lon="149.0769566"/>
  <node id="151226802" version="16" timestamp="2010-03-30T13:57:49Z" uid="9719" user="dvaey" changeset="4276266" lat="-35.3986921" lon="149.0752655"/>
  <node id="151226861" version="16" timestamp="2010-03-30T14:11:55Z" uid="9719" user="dvaey" changeset="4276266" lat="-35.4018546" lon="149.0785726"/>
  <node id="151229686" version="2" timestamp="2008-02-16T19:00:36Z" uid="6975" user="ulfl" changeset="141861" lat="50.863765" lon="4.7479388">
    <tag k="name" v="Brico GB"/>
    <tag k="shop" v="doityourself"/>
  </node>
  <node id="151229686" version="3" timestamp="2010-07-08T10:03:30Z" uid="315632" user="Frederik De Buck" changeset="5164848" lat="50.8637651" lon="4.7479388">
    <tag k="name" v="Brico"/>
    <tag k="shop" v="doityourself"/>
  </node>
  <node id="151229686" version="4" timestamp="2010-12-04T17:56:59Z" uid="317031" user="ivodeb" changeset="6540331" lat="50.8636389" lon="4.7479734">
    <tag k="name" v="Brico"/>
    <tag k="shop" v="doityourself"/>
  </node>
  <node id="151229686" version="5" timestamp="2010-12-04T20:00:24Z" uid="317031" user="ivodeb" changeset="6542541" lat="50.8636607" lon="4.7479991">
    <tag k="name" v="Brico"/>
    <tag k="shop" v="doityourself"/>
  </node>
  <node id="151229686" version="6" timestamp="2011-03-28T14:47:18Z" uid="15188" user="Polyglot" changeset="7697206" lat="50.8636607" lon="4.7479991">
    <tag k="addr:housenumber" v="1"/>
    <tag k="name" v="Brico"/>
    <tag k="shop" v="doityourself"/>
  </node>
  <node id="151229686" version="7" timestamp="2011-03-28T16:29:12Z" uid="15188" user="Polyglot" changeset="7698320" lat="50.8637344" lon="4.7479494">
    <tag k="building" v="entrance"/>
  </node>
</osm>
