<?xml version='1.0' encoding='UTF-8'?>
<osm version="0.6" generator="libosmium/2.20.0">
  <node id="152250218" version="4" timestamp="2009-12-12T06:05:58Z" uid="4467" user="Rosscoe" changeset="3353805" lat="-37.7122731" lon="144.8940164"/>
  <node id="152253759" version="5" timestamp="2009-05-01T19:25:10Z" uid="20587" user="balrog-kun" changeset="1041165" lat="49.5307916" lon="19.9960584">
    <tag k="created_by" v="JOSM"/>
    <tag k="is_in" v="gmina Nowy Targ, powiat nowotarski, województwo małopolskie, Poland"/>
    <tag k="is_in:country" v="Poland"/>
    <tag k="is_in:county" v="powiat nowotarski"/>
    <tag k="is_in:municipality" v="gmina Nowy Targ"/>
    <tag k="is_in:province" v="województwo małopolskie"/>
    <tag k="name" v="Obidowa"/>
    <tag k="place" v="village"/>
    <tag k="population" v="772"/>
    <tag k="source:population" v="wikipedia"/>
    <tag k="teryt:rm" v="01"/>
    <tag k="teryt:simc" v="0457455"/>
    <tag k="teryt:stan_na" v="2009-01-01"/>
    <tag k="teryt:terc" v="1211092"/>
    <tag k="teryt:updated_by" v="teryt2osm combine.py v. 43"/>
    <tag k="wikipedia" v="Obidowa"/>
  </node>
  <node id="152253759" version="6" timestamp="2010-04-11T04:37:40Z" uid="20587" user="balrog-kun" changeset="4389130" lat="49.5355731" lon="20.0018279">
    <tag k="is_in" v="gmina Nowy Targ, powiat nowotarski, województwo małopolskie, Poland"/>
    <tag k="is_in:country" v="Poland"/>
    <tag k="is_in:county" v="powiat nowotarski"/>
    <tag k="is_in:municipality" v="gmina Nowy Targ"/>
    <tag k="is_in:province" v="województwo małopolskie"/>
    <tag k="name" v="Obidowa"/>
    <tag k="place" v="village"/>
    <tag k="population" v="772"/>
    <tag k="source:population" v="wikipedia"/>
    <tag k="teryt:rm" v="01"/>
    <tag k="teryt:simc" v="0457455"/>
    <tag k="teryt:stan_na" v="2009-01-01"/>
    <tag k="teryt:terc" v="1211092"/>
    <tag k="teryt:updated_by" v="teryt2osm combine.py v. 43"/>
    <tag k="wikipedia" v="Obidowa"/>
  </node>
</osm>
