<?xml version='1.0' encoding='UTF-8'?>
<osm version="0.6" generator="libosmium/2.20.0">
  <node id="154001915" version="3" timestamp="2010-02-18T04:04:23Z" uid="103576" user="DiverCTH" changeset="3906294" lat="36.825015" lon="-81.508933">
    <tag k="highway" v="motorway_junction"/>
    <tag k="name" v="SR-16;Marion"/>
    <tag k="ref" v="45"/>
  </node>
  <node id="154001915" version="4" timestamp="2011-04-06T18:30:21Z" uid="207745" user="NE2" changeset="7787398" lat="36.825015" lon="-81.508933">
    <tag k="exit_to" v="SR-16;Marion"/>
    <tag k="highway" v="motorway_junction"/>
    <tag k="ref" v="45"/>
  </node>
  <node id="154004278" version="3" timestamp="2009-06-10T00:31:00Z" uid="99207" user="Lar Kiesel" changeset="1473212" lat="34.1368613" lon="-81.3063323">
    <tag k="ele" v="130"/>
    <tag k="gnis:Class" v="Populated Place"/>
    <tag k="gnis:County" v="Richland"/>
    <tag k="gnis:County_num" v="079"/>
    <tag k="gnis:ST_alpha" v="SC"/>
    <tag k="gnis:ST_num" v="45"/>
    <tag k="gnis:id" v="1245999"/>
    <tag k="import_uuid" v="bb7269ee-502a-5391-8056-e3ce0e66489c"/>
    <tag k="is_in" v="Richland,South Carolina,S.C.,SC,USA"/>
    <tag k="name" v="Hilton"/>
    <tag k="place" v="hamlet"/>
  </node>
  <node id="154004826" version="18" timestamp="2010-04-26T14:00:30Z" uid="4467" user="Rosscoe" changeset="4532178" lat="-37.8987597" lon="144.9991346"/>
  <node id="154004826" version="19" timestamp="2010-08-21T05:02:37Z" uid="320632" user="Zulu99" changeset="5548946" lat="-37.898775" lon="144.9991397"/>
  <node id="154004826" version="20" timestamp="2011-04-23T04:12:56Z" uid="4467" user="Rosscoe" changeset="7940280" lat="-37.8987958" lon="144.9991377"/>
  <node id="154009402" version="26" timestamp="2010-04-20T13:15:07Z" uid="4467" user="Rosscoe" changeset="4477163" lat="-37.8877126" lon="144.9914346">
    <tag k="direction" v="clockwise"/>
    <tag k="highway" v="mini_roundabout"/>
  </node>
</osm>
