<?xml version='1.0' encoding='UTF-8'?>
<osm version="0.6" generator="libosmium/2.20.0">
  <node id="154141400" version="3" timestamp="2009-09-23T08:24:24Z" uid="99207" user="Lar Kiesel" changeset="2592036" lat="34.0266267" lon="-81.4665674">
    <tag k="ele" v="135"/>
    <tag k="gnis:Class" v="Populated Place"/>
    <tag k="gnis:County" v="Lexington"/>
    <tag k="gnis:County_num" v="063"/>
    <tag k="gnis:ST_alpha" v="SC"/>
    <tag k="gnis:ST_num" v="45"/>
    <tag k="gnis:id" v="1231711"/>
    <tag k="import_uuid" v="bb7269ee-502a-5391-8056-e3ce0e66489c"/>
    <tag k="is_in" v="Lexington,South Carolina,S.C.,SC,USA"/>
    <tag k="name" v="Red Star"/>
    <tag k="place" v="hamlet"/>
  </node>
  <node id="154141778" version="3" timestamp="2009-09-07T19:26:52Z" uid="99207" user="Lar Kiesel" changeset="2406856" lat="36.3944651" lon="-80.7868193">
    <tag k="ele" v="407"/>
    <tag k="gnis:Class" v="Populated Place"/>
    <tag k="gnis:County" v="Surry"/>
    <tag k="gnis:County_num" v="171"/>
    <tag k="gnis:ST_alpha" v="NC"/>
    <tag k="gnis:ST_num" v="37"/>
    <tag k="gnis:id" v="1731654"/>
    <tag k="import_uuid" v="bb7269ee-502a-5391-8056-e3ce0e66489c"/>
    <tag k="is_in" v="Surry,North Carolina,N.C.,NC,USA"/>
    <tag k="name" v="Salemfork"/>
    <tag k="place" v="hamlet"/>
  </node>
  <node id="154142595" version="3" timestamp="2010-02-18T03:55:57Z" uid="103576" user="DiverCTH" changeset="3906294" lat="36.712197" lon="-81.937702">
    <tag k="highway" v="motorway_junction"/>
    <tag k="name" v="US-58 Alt;SR-75;Abingdon;South Holston Dam"/>
    <tag k="ref" v="17"/>
  </node>
  <node id="154142595" version="4" timestamp="2011-04-06T18:25:49Z" uid="207745" user="NE2" changeset="7787398" lat="36.712197" lon="-81.937702">
    <tag k="exit_to" v="US-58 Alt;SR-75;Abingdon;South Holston Dam"/>
    <tag k="highway" v="motorway_junction"/>
    <tag k="ref" v="17"/>
  </node>
</osm>
