<?xml version='1.0' encoding='UTF-8'?>
<osm version="0.6" generator="libosmium/2.20.0">
  <node id="155462541" version="5" timestamp="2009-05-01T12:54:35Z" uid="20587" user="balrog-kun" changeset="1036200" lat="51.8441312" lon="16.5749914">
    <tag k="addr:postcode" v="64-100"/>
    <tag k="created_by" v="Potlatch 0.10f"/>
    <tag k="is_in" v="Poland"/>
    <tag k="is_in:county" v="powiat grodzki leszno"/>
    <tag k="name" v="Leszno"/>
    <tag k="place" v="city"/>
    <tag k="population" v="63955"/>
    <tag k="population:source" v="www.stat.gov.pl"/>
    <tag k="teryt:simc" v="0954225"/>
    <tag k="teryt:terc" v="3063011"/>
    <tag k="wikipedia" v="Leszno"/>
  </node>
  <node id="155462541" version="6" timestamp="2009-05-07T18:44:00Z" uid="115021" user="Jajcuś" changeset="1110413" lat="51.8441312" lon="16.5749914">
    <tag k="addr:postcode" v="64-100"/>
    <tag k="created_by" v="Potlatch 0.10f"/>
    <tag k="is_in" v="województwo wielkopolskie, Poland"/>
    <tag k="is_in:country" v="Poland"/>
    <tag k="is_in:province" v="województwo wielkopolskie"/>
    <tag k="name" v="Leszno"/>
    <tag k="place" v="city"/>
    <tag k="population" v="63955"/>
    <tag k="population:source" v="www.stat.gov.pl"/>
    <tag k="teryt:rm" v="96"/>
    <tag k="teryt:simc" v="0954225"/>
    <tag k="teryt:stan_na" v="2009-01-01"/>
    <tag k="teryt:terc" v="3063011"/>
    <tag k="teryt:updated_by" v="teryt2osm combine.py v. 47M"/>
    <tag k="wikipedia" v="Leszno"/>
  </node>
  <node id="155462541" version="7" timestamp="2009-05-08T18:41:19Z" uid="115021" user="Jajcuś" changeset="1120496" lat="51.8441312" lon="16.5749914">
    <tag k="addr:postcode" v="64-100"/>
    <tag k="created_by" v="Potlatch 0.10f"/>
    <tag k="is_in" v="województwo wielkopolskie, Poland"/>
    <tag k="is_in:country" v="Poland"/>
    <tag k="is_in:county" v="powiat m. Leszno"/>
    <tag k="is_in:municipality" v="gmina m. Leszno"/>
    <tag k="is_in:province" v="województwo wielkopolskie"/>
    <tag k="name" v="Leszno"/>
    <tag k="place" v="city"/>
    <tag k="population" v="63955"/>
    <tag k="population:source" v="www.stat.gov.pl"/>
    <tag k="teryt:rm" v="96"/>
    <tag k="teryt:simc" v="0954225"/>
    <tag k="teryt:stan_na" v="2009-01-01"/>
    <tag k="teryt:terc" v="3063011"/>
    <tag k="teryt:updated_by" v="teryt2osm combine.py v. 49"/>
    <tag k="wikipedia" v="Leszno"/>
  </node>
  <node id="155462541" version="8" timestamp="2010-02-05T10:54:38Z" uid="166445" user="GranD" changeset="3796871" lat="51.8441313" lon="16.5749913">
    <tag k="addr:postcode" v="64-100"/>
    <tag k="is_in" v="województwo wielkopolskie, Poland"/>
    <tag k="is_in:country" v="Poland"/>
    <tag k="is_in:county" v="powiat m. Leszno"/>
    <tag k="is_in:municipality" v="gmina m. Leszno"/>
    <tag k="is_in:province" v="województwo wielkopolskie"/>
    <tag k="name" v="Leszno"/>
    <tag k="name:ru" v="Лешно"/>
    <tag k="place" v="city"/>
    <tag k="population" v="63955"/>
    <tag k="population:source" v="www.stat.gov.pl"/>
    <tag k="teryt:rm" v="96"/>
    <tag k="teryt:simc" v="0954225"/>
    <tag k="teryt:stan_na" v="2009-01-01"/>
    <tag k="teryt:terc" v="3063011"/>
    <tag k="teryt:updated_by" v="teryt2osm combine.py v. 49"/>
    <tag k="wikipedia" v="Leszno"/>
  </node>
  <node id="155462541" version="9" timestamp="2010-04-11T04:37:41Z" uid="20587" user="balrog-kun" changeset="4389130" lat="51.8441313" lon="16.5749913">
    <tag k="addr:postcode" v="64-100"/>
    <tag k="is_in" v="województwo wielkopolskie, Poland"/>
    <tag k="is_in:country" v="Poland"/>
    <tag k="is_in:county" v="powiat m. Leszno"/>
    <tag k="is_in:municipality" v="gmina m. Leszno"/>
    <tag k="is_in:province" v="województwo wielkopolskie"/>
    <tag k="name" v="Leszno"/>
    <tag k="name:ru" v="Лешно"/>
    <tag k="place" v="city"/>
    <tag k="population" v="63955"/>
    <tag k="population:source" v="www.stat.gov.pl"/>
    <tag k="teryt:rm" v="96"/>
    <tag k="teryt:simc" v="0954225"/>
    <tag k="teryt:stan_na" v="2009-01-01"/>
    <tag k="teryt:terc" v="3063011"/>
    <tag k="teryt:updated_by" v="teryt2osm combine.py v. 49"/>
    <tag k="wikipedia" v="Leszno"/>
  </node>
  <node id="155462541" version="10" timestamp="2010-08-10T16:37:49Z" uid="113415" user="tomek-k" changeset="5455400" lat="51.843306" lon="16.5743698">
    <tag k="addr:postcode" v="64-100"/>
    <tag k="is_in" v="województwo wielkopolskie, Poland"/>
    <tag k="is_in:country" v="Poland"/>
    <tag k="is_in:county" v="powiat m. Leszno"/>
    <tag k="is_in:municipality" v="gmina m. Leszno"/>
    <tag k="is_in:province" v="województwo wielkopolskie"/>
    <tag k="name" v="Leszno"/>
    <tag k="name:ru" v="Лешно"/>
    <tag k="place" v="city"/>
    <tag k="population" v="63955"/>
    <tag k="population:source" v="www.stat.gov.pl"/>
    <tag k="teryt:rm" v="96"/>
    <tag k="teryt:simc" v="0954225"/>
    <tag k="teryt:stan_na" v="2009-01-01"/>
    <tag k="teryt:terc" v="3063011"/>
    <tag k="teryt:updated_by" v="teryt2osm combine.py v. 49"/>
    <tag k="wikipedia" v="Leszno"/>
  </node>
  <node id="155462541" version="11" timestamp="2010-10-29T16:03:35Z" uid="152074" user="beweta" changeset="6219870" lat="51.843306" lon="16.5743698">
    <tag k="addr:postcode" v="64-100"/>
    <tag k="alt_name:de" v="Polnisch Lissa"/>
    <tag k="is_in" v="województwo wielkopolskie, Poland"/>
    <tag k="is_in:country" v="Poland"/>
    <tag k="is_in:county" v="powiat m. Leszno"/>
    <tag k="is_in:municipality" v="gmina m. Leszno"/>
    <tag k="is_in:province" v="województwo wielkopolskie"/>
    <tag k="name" v="Leszno"/>
    <tag k="name:de" v="Lissa"/>
    <tag k="name:ru" v="Лешно"/>
    <tag k="place" v="city"/>
    <tag k="population" v="63955"/>
    <tag k="population:source" v="www.stat.gov.pl"/>
    <tag k="teryt:rm" v="96"/>
    <tag k="teryt:simc" v="0954225"/>
    <tag k="teryt:stan_na" v="2009-01-01"/>
    <tag k="teryt:terc" v="3063011"/>
    <tag k="teryt:updated_by" v="teryt2osm combine.py v. 49"/>
    <tag k="wikipedia" v="Leszno"/>
  </node>
  <node id="155462541" version="12" timestamp="2011-08-19T16:27:26Z" uid="113415" user="tomek-k" changeset="9067140" lat="51.8434452" lon="16.5743776">
    <tag k="addr:postcode" v="64-100"/>
    <tag k="alt_name:de" v="Polnisch Lissa"/>
    <tag k="is_in" v="województwo wielkopolskie, Poland"/>
    <tag k="is_in:country" v="Poland"/>
    <tag k="is_in:county" v="powiat m. Leszno"/>
    <tag k="is_in:municipality" v="gmina m. Leszno"/>
    <tag k="is_in:province" v="województwo wielkopolskie"/>
    <tag k="name" v="Leszno"/>
    <tag k="name:de" v="Lissa"/>
    <tag k="name:ru" v="Лешно"/>
    <tag k="place" v="city"/>
    <tag k="population" v="63955"/>
    <tag k="population:source" v="www.stat.gov.pl"/>
    <tag k="teryt:rm" v="96"/>
    <tag k="teryt:simc" v="0954225"/>
    <tag k="teryt:stan_na" v="2009-01-01"/>
    <tag k="teryt:terc" v="3063011"/>
    <tag k="teryt:updated_by" v="teryt2osm combine.py v. 49"/>
    <tag k="wikipedia" v="Leszno"/>
  </node>
  <node id="155462948" version="1" timestamp="2007-12-07T22:24:23Z" uid="4467" user="Rosscoe" changeset="164253" lat="-21.1753728" lon="149.1604111">
    <tag k="created_by" v="JOSM"/>
  </node>
  <node id="155462948" version="2" timestamp="2008-12-08T12:00:42Z" uid="69499" user="VK1RE" changeset="268211" lat="-21.1753728" lon="149.1604111"/>
  <node id="155462948" version="3" timestamp="2010-08-02T01:20:53Z" uid="4467" user="Rosscoe" changeset="5376386" lat="-21.1753177" lon="149.1603643"/>
  <node id="155467372" version="2" timestamp="2009-10-13T14:34:37Z" uid="99207" user="Lar Kiesel" changeset="2836723" lat="37.507444" lon="-81.810607">
    <tag k="source" v="tiger_import_dch_v0.6_20070828"/>
    <tag k="tiger:county" v="McDowell, WV"/>
    <tag k="tiger:tlid" v="74244288"/>
    <tag k="tiger:upload_uuid" v="bulk_upload.pl-c0e8a62a-f4e0-4ce3-85a1-0a3f0a3ef202"/>
  </node>
</osm>
