<?xml version='1.0' encoding='UTF-8'?>
<osm version="0.6" generator="libosmium/2.20.0">
  <node id="156386724" version="1" timestamp="2007-12-08T10:52:56Z" uid="20914" user="MwGrabowski" changeset="182184" lat="49.8963267" lon="9.1868756">
    <tag k="created_by" v="JOSM"/>
    <tag k="name" v="Dornau"/>
    <tag k="place" v="village"/>
  </node>
  <node id="156386724" version="2" timestamp="2008-06-20T21:25:58Z" uid="26299" user="uboot" changeset="238280" lat="49.8967725" lon="9.187842">
    <tag k="created_by" v="JOSM"/>
    <tag k="name" v="Dornau"/>
    <tag k="place" v="village"/>
  </node>
  <node id="156386724" version="3" timestamp="2008-11-01T22:17:11Z" uid="26299" user="uboot" changeset="650779" lat="49.8967725" lon="9.187842">
    <tag k="created_by" v="JOSM"/>
    <tag k="is_in" v="Sulzbach,Miltenberg,Unterfranken,Bayern,Bundesrepublik Deutschland,Europe"/>
    <tag k="name" v="Dornau"/>
    <tag k="place" v="village"/>
  </node>
  <node id="156386724" version="4" timestamp="2009-03-22T19:08:26Z" uid="106847" user="nixgut" changeset="846689" lat="49.8967725" lon="9.187842">
    <tag k="created_by" v="JOSM"/>
    <tag k="is_in" v="Sulzbach a.Main,Miltenberg,Unterfranken,Bayern,Bundesrepublik Deutschland,Europe"/>
    <tag k="name" v="Dornau"/>
    <tag k="place" v="village"/>
  </node>
  <node id="156386724" version="5" timestamp="2012-03-14T14:34:26Z" uid="26299" user="uboot" changeset="10978445" lat="49.8967725" lon="9.187842"/>
  <node id="156387639" version="6" timestamp="2009-07-26T08:39:24Z" uid="49111" user="Markus B" changeset="1942025" lat="47.3670187" lon="8.5443473"/>
  <node id="156387639" version="7" timestamp="2011-03-30T12:50:00Z" uid="327907" user="wyo" changeset="7715713" lat="47.367007" lon="8.5443643"/>
</osm>
