<?xml version='1.0' encoding='UTF-8'?>
<osm version="0.6" generator="libosmium/2.20.0">
  <node id="156941969" version="3" timestamp="2009-03-30T10:28:24Z" uid="36809" user="pfoten_weg_!_" changeset="869697" lat="48.058375" lon="11.4025847">
    <tag k="amenity" v="restaurant"/>
    <tag k="created_by" v="Potlatch 0.5d"/>
    <tag k="name" v="FIX ME"/>
  </node>
  <node id="156941969" version="4" timestamp="2009-03-31T08:54:58Z" uid="5164" user="woodpeck" changeset="871977" lat="48.058375" lon="11.4025847">
    <tag k="amenity" v="restaurant"/>
    <tag k="created_by" v="Potlatch 0.5d"/>
    <tag k="name" v="FIX ME"/>
  </node>
  <node id="156941969" version="5" timestamp="2009-04-04T22:54:57Z" uid="36809" user="pfoten_weg_!_" changeset="196576" lat="48.058375" lon="11.4025847">
    <tag k="amenity" v="restaurant"/>
    <tag k="created_by" v="RambaZamba"/>
    <tag k="name" v="FIX ME"/>
    <tag k="source" v="survey"/>
  </node>
  <node id="156941969" version="6" timestamp="2009-04-10T14:15:11Z" uid="113364" user="BR0SI" changeset="374390" lat="48.0583771" lon="11.4025784">
    <tag k="amenity" v="restaurant"/>
    <tag k="created_by" v="Potlatch 0.10f"/>
    <tag k="name" v="Haller"/>
    <tag k="source" v="survey"/>
  </node>
  <node id="156941969" version="7" timestamp="2009-04-10T18:56:00Z" uid="113364" user="BR0SI" changeset="393364" lat="48.058392" lon="11.4025198">
    <tag k="amenity" v="restaurant"/>
    <tag k="created_by" v="Potlatch 0.10f"/>
    <tag k="name" v="Haller"/>
    <tag k="source" v="survey"/>
  </node>
  <node id="156941969" version="8" timestamp="2009-04-10T18:57:19Z" uid="113364" user="BR0SI" changeset="393364" lat="48.0583633" lon="11.4026057">
    <tag k="amenity" v="restaurant"/>
    <tag k="created_by" v="Potlatch 0.10f"/>
    <tag k="name" v="Haller"/>
    <tag k="source" v="survey"/>
  </node>
  <node id="156941969" version="9" timestamp="2009-07-29T23:18:57Z" uid="36809" user="pfoten_weg_!_" changeset="1980427" lat="48.0583633" lon="11.4026057">
    <tag k="amenity" v="restaurant"/>
    <tag k="discovered_by" v="RambaZamba"/>
    <tag k="name" v="Haller"/>
    <tag k="source" v="survey"/>
  </node>
  <node id="156941969" version="10" timestamp="2009-08-12T12:39:44Z" uid="156995" user="HampelZamba" changeset="2118306" lat="48.0583633" lon="11.4026057">
    <tag k="amenity" v="restaurant"/>
    <tag k="name" v="Haller"/>
    <tag k="source" v="survey"/>
  </node>
  <node id="156941969" version="11" timestamp="2009-08-28T20:40:27Z" uid="36809" user="pfoten_weg_!_" changeset="2295155" lat="48.0583633" lon="11.4026057">
    <tag k="amenity" v="restaurant"/>
    <tag k="discovered_by" v="RambaZamba"/>
    <tag k="name" v="Haller"/>
    <tag k="source" v="survey"/>
  </node>
  <node id="156941969" version="12" timestamp="2009-08-30T04:53:31Z" uid="156995" user="HampelZamba" changeset="2308696" lat="48.0583633" lon="11.4026057">
    <tag k="amenity" v="restaurant"/>
    <tag k="name" v="Haller"/>
    <tag k="source" v="survey"/>
  </node>
  <node id="156941969" version="13" timestamp="2009-08-31T17:38:30Z" uid="36809" user="pfoten_weg_!_" changeset="2328905" lat="48.0583633" lon="11.4026057">
    <tag k="amenity" v="restaurant"/>
    <tag k="name" v="Haller"/>
    <tag k="source" v="survey"/>
  </node>
  <node id="156941969" version="14" timestamp="2009-10-02T17:19:47Z" uid="86259" user="hasse_osm_korinthenkacker" changeset="2715119" lat="48.0583633" lon="11.4026057">
    <tag k="amenity" v="restaurant"/>
    <tag k="name" v="Haller"/>
  </node>
  <node id="156941969" version="15" timestamp="2010-12-19T20:16:54Z" uid="73495" user="Kaffeebohne" changeset="6710175" lat="48.0583787" lon="11.4025688">
    <tag k="amenity" v="restaurant"/>
    <tag k="name" v="Haller"/>
  </node>
  <node id="156943609" version="2" timestamp="2009-04-04T22:49:09Z" uid="36809" user="pfoten_weg_!_" changeset="196576" lat="48.0577038" lon="11.403031">
    <tag k="amenity" v="telephone"/>
    <tag k="created_by" v="RambaZamba"/>
    <tag k="source" v="survey"/>
  </node>
  <node id="156943609" version="3" timestamp="2009-08-12T12:39:44Z" uid="156995" user="HampelZamba" changeset="2118306" lat="48.0577038" lon="11.403031">
    <tag k="amenity" v="telephone"/>
    <tag k="source" v="survey"/>
  </node>
  <node id="156943609" version="4" timestamp="2009-08-28T20:40:41Z" uid="36809" user="pfoten_weg_!_" changeset="2295155" lat="48.0577038" lon="11.403031">
    <tag k="amenity" v="telephone"/>
    <tag k="discovered_by" v="RambaZamba"/>
    <tag k="source" v="survey"/>
  </node>
  <node id="156943609" version="5" timestamp="2009-08-30T04:53:31Z" uid="156995" user="HampelZamba" changeset="2308696" lat="48.0577038" lon="11.403031">
    <tag k="amenity" v="telephone"/>
    <tag k="source" v="survey"/>
  </node>
  <node id="156943609" version="6" timestamp="2009-08-31T17:38:32Z" uid="36809" user="pfoten_weg_!_" changeset="2328905" lat="48.0577038" lon="11.403031">
    <tag k="amenity" v="telephone"/>
    <tag k="source" v="survey"/>
  </node>
  <node id="156943609" version="7" timestamp="2009-10-02T17:19:42Z" uid="86259" user="hasse_osm_korinthenkacker" changeset="2715119" lat="48.0577038" lon="11.403031">
    <tag k="amenity" v="telephone"/>
  </node>
  <node id="156946754" version="2" timestamp="2008-02-23T09:48:05Z" uid="6975" user="ulfl" changeset="184302" lat="49.4682351" lon="11.0110158">
    <tag k="created_by" v="JOSM"/>
  </node>
  <node id="156946754" version="3" timestamp="2010-05-09T19:25:22Z" uid="81175" user="robome" changeset="4653031" lat="49.4682395" lon="11.0110175"/>
  <node id="156946783" version="2" timestamp="2008-02-16T15:23:21Z" uid="6975" user="ulfl" changeset="141861" lat="49.4685775" lon="11.0125242">
    <tag k="created_by" v="JOSM"/>
    <tag k="name" v="Rundfunkmuseum"/>
    <tag k="tourism" v="museum"/>
  </node>
  <node id="156946783" version="3" timestamp="2008-10-31T16:04:35Z" uid="44613" user="Montmorency" changeset="640282" lat="49.4685995" lon="11.0125846">
    <tag k="created_by" v="Potlatch 0.10f"/>
    <tag k="name" v="Rundfunkmuseum"/>
    <tag k="tourism" v="museum"/>
  </node>
  <node id="156946783" version="4" timestamp="2009-06-30T19:52:49Z" uid="68393" user="-bg-" changeset="1695415" lat="49.4685995" lon="11.0125846">
    <tag k="created_by" v="Potlatch 0.10f"/>
    <tag k="name" v="Rundfunkmuseum"/>
    <tag k="tourism" v="museum"/>
  </node>
</osm>
