<?xml version='1.0' encoding='UTF-8'?>
<osm version="0.6" generator="libosmium/2.20.0">
  <node id="158714275" version="3" timestamp="2008-07-03T00:04:15Z" uid="6975" user="ulfl" changeset="377243" lat="43.6837387" lon="-79.4163662">
    <tag k="description" v="Owned by Loblaws"/>
    <tag k="name" v="Joe"/>
    <tag k="shop" v="clothes"/>
  </node>
  <node id="158717545" version="3" timestamp="2008-09-14T14:42:54Z" uid="6975" user="ulfl" changeset="640534" lat="46.4980343" lon="10.6293266">
    <tag k="mountain_pass" v="yes"/>
    <tag k="name" v="Madritschjoch"/>
    <tag k="natural" v="peak"/>
  </node>
  <node id="158717545" version="4" timestamp="2009-03-12T08:31:55Z" uid="66900" user="Fabry" changeset="792437" lat="46.4980343" lon="10.6293266">
    <tag k="ele" v="3129"/>
    <tag k="mountain_pass" v="yes"/>
    <tag k="name" v="Madritschjoch"/>
  </node>
  <node id="158717545" version="5" timestamp="2009-03-12T08:32:55Z" uid="66900" user="Fabry" changeset="792437" lat="46.4980343" lon="10.6293266">
    <tag k="ele" v="3129"/>
    <tag k="mountain_pass" v="yes"/>
    <tag k="name" v="Passo del Madriccio"/>
    <tag k="name:de" v="Madritschjoch"/>
  </node>
  <node id="158717545" version="6" timestamp="2009-10-21T13:36:22Z" uid="69717" user="kaitu" changeset="2912293" lat="46.4980343" lon="10.6293266">
    <tag k="amenity" v="place_of_worship"/>
    <tag k="ele" v="3129"/>
    <tag k="mountain_pass" v="yes"/>
    <tag k="name" v="Passo del Madriccio"/>
    <tag k="name:de" v="Madritschjoch"/>
  </node>
  <node id="158717545" version="7" timestamp="2009-10-22T20:43:12Z" uid="69717" user="kaitu" changeset="2925337" lat="46.4980343" lon="10.6293266">
    <tag k="ele" v="3129"/>
    <tag k="mountain_pass" v="yes"/>
    <tag k="name" v="Passo del Madriccio"/>
    <tag k="name:de" v="Madritschjoch"/>
  </node>
  <node id="158717545" version="8" timestamp="2010-08-23T06:01:10Z" uid="172099" user="Andreas Cierpka" changeset="5567662" lat="46.4980343" lon="10.6293266">
    <tag k="ele" v="3129"/>
    <tag k="mountain_pass" v="yes"/>
    <tag k="name" v="Passo del Madriccio"/>
    <tag k="name:de" v="Madritschjoch"/>
  </node>
</osm>
