<?xml version='1.0' encoding='UTF-8'?>
<osm version="0.6" generator="libosmium/2.20.0">
  <node id="161414513" version="4" timestamp="2008-07-03T18:22:58Z" uid="6975" user="ulfl" changeset="379368" lat="46.1758031" lon="21.3179664">
    <tag k="amenity" v="bank"/>
    <tag k="atm" v="yes"/>
    <tag k="name" v="Alpha Bank"/>
  </node>
  <node id="161414513" version="5" timestamp="2009-05-09T08:20:39Z" uid="121584" user="manuelciosici" changeset="1124833" lat="46.1758031" lon="21.3179664">
    <tag k="amenity" v="bank"/>
    <tag k="atm" v="yes"/>
    <tag k="name" v="Alpha Bank"/>
  </node>
  <node id="161414529" version="5" timestamp="2008-09-14T20:02:44Z" uid="6975" user="ulfl" changeset="640534" lat="46.1758803" lon="21.3180222">
    <tag k="amenity" v="bank"/>
    <tag k="atm" v="yes"/>
    <tag k="name" v="Banca Transilvania"/>
  </node>
  <node id="161415079" version="5" timestamp="2008-07-03T18:22:54Z" uid="6975" user="ulfl" changeset="379368" lat="46.1761418" lon="21.3181381">
    <tag k="amenity" v="bank"/>
    <tag k="atm" v="yes"/>
    <tag k="name" v="BCR"/>
  </node>
</osm>
