<?xml version='1.0' encoding='UTF-8'?>
<osm version="0.6" generator="libosmium/2.20.0">
  <node id="162406325" version="4" timestamp="2008-12-04T19:51:41Z" uid="6975" user="ulfl" changeset="107048" lat="67.9548798" lon="23.675486">
    <tag k="highway" v="bus_stop"/>
    <tag k="source" v="local knowledge"/>
  </node>
  <node id="162406325" version="5" timestamp="2010-01-11T06:57:09Z" uid="164168" user="str" changeset="3593840" lat="67.9549307" lon="23.6756506"/>
  <node id="162406366" version="3" timestamp="2008-07-02T23:53:43Z" uid="6975" user="ulfl" changeset="377243" lat="67.9560406" lon="23.6829011">
    <tag k="name" v="Alko"/>
    <tag k="note" v="alcohol"/>
    <tag k="shop" v="beverages"/>
    <tag k="source" v="local knowledge"/>
  </node>
  <node id="162406366" version="4" timestamp="2008-11-30T12:30:53Z" uid="16995" user="zut" changeset="811924" lat="67.9559678" lon="23.6832201">
    <tag k="name" v="Alko"/>
    <tag k="note" v="alcohol"/>
    <tag k="shop" v="beverages"/>
    <tag k="source" v="local knowledge"/>
  </node>
  <node id="162406366" version="5" timestamp="2009-03-10T12:25:54Z" uid="4660" user="alv" changeset="775619" lat="67.9559678" lon="23.6832201">
    <tag k="name" v="Alko"/>
    <tag k="note" v="alcohol"/>
    <tag k="shop" v="alcohol"/>
    <tag k="source" v="local knowledge"/>
  </node>
</osm>
