<?xml version='1.0' encoding='UTF-8'?>
<osm version="0.6" generator="libosmium/2.20.0">
  <node id="164174751" version="6" timestamp="2009-08-26T13:51:44Z" uid="36809" user="pfoten_weg_!_" changeset="2267796" lat="48.011406" lon="11.3556463"/>
  <node id="164178845" version="2" timestamp="2008-09-06T13:17:49Z" uid="6975" user="ulfl" changeset="548423" lat="48.7546052" lon="8.2655245">
    <tag k="amenity" v="vineyard"/>
    <tag k="is_in" v="Baden-Baden, Germany"/>
    <tag k="name" v="Weingut Eckberg"/>
  </node>
  <node id="164178845" version="3" timestamp="2011-10-27T07:52:27Z" uid="39381" user="DD1GJ" changeset="9666219" lat="48.754631" lon="8.2655914">
    <tag k="addr:city" v="Baden-Baden"/>
    <tag k="addr:country" v="DE"/>
    <tag k="addr:housenumber" v="12"/>
    <tag k="addr:postcode" v="76534"/>
    <tag k="addr:street" v="EckhÃ¶fe"/>
    <tag k="name" v="Weingut Eckberg"/>
    <tag k="opening_hours" v="Mo-Sa 15:00-19:00"/>
    <tag k="phone" v="+49 7221 994840"/>
    <tag k="shop" v="alcohol"/>
    <tag k="website" v="http://www.weingut-eckberg.de/"/>
  </node>
  <node id="164179395" version="3" timestamp="2009-12-19T06:38:21Z" uid="9719" user="dvaey" changeset="3405055" lat="-35.4347546" lon="149.1124148">
    <tag k="amenity" v="fuel"/>
    <tag k="name" v="CALTEX Woolworths"/>
  </node>
  <node id="164179395" version="4" timestamp="2010-02-07T20:37:53Z" uid="79144" user="John H" changeset="3818708" lat="-35.4347546" lon="149.112415">
    <tag k="amenity" v="fuel"/>
    <tag k="fuel:diesel" v="yes"/>
    <tag k="fuel:e10" v="yes"/>
    <tag k="fuel:octane_91" v="yes"/>
    <tag k="fuel:octane_95" v="yes"/>
    <tag k="fuel:octane_98" v="yes"/>
    <tag k="name" v="CALTEX Woolworths"/>
  </node>
  <node id="164179395" version="5" timestamp="2010-02-10T15:08:16Z" uid="79144" user="John H" changeset="3840900" lat="-35.4347546" lon="149.112415">
    <tag k="amenity" v="fuel"/>
    <tag k="fuel:diesel" v="yes"/>
    <tag k="fuel:e10" v="yes"/>
    <tag k="fuel:octane_91" v="yes"/>
    <tag k="fuel:octane_95" v="yes"/>
    <tag k="fuel:octane_98" v="yes"/>
    <tag k="name" v="CALTEX Woolworths"/>
  </node>
</osm>
