<?xml version='1.0' encoding='UTF-8'?>
<osm version="0.6" generator="libosmium/2.20.0">
  <node id="166043716" version="4" timestamp="2008-08-15T00:17:41Z" uid="6975" user="ulfl" changeset="264731" lat="48.1434212" lon="17.1168584">
    <tag k="amenity" v="place_of_worship"/>
    <tag k="denomination" v="catholic"/>
    <tag k="is_in" v="Bratislava - Staré Mesto"/>
    <tag k="name" v="Modrý kostolík\sKostol sv. Alžbety"/>
    <tag k="religion" v="christian"/>
  </node>
  <node id="166043716" version="5" timestamp="2009-04-12T15:09:13Z" uid="115468" user="platlas23" changeset="439128" lat="48.1434219" lon="17.1168584">
    <tag k="amenity" v="place_of_worship"/>
    <tag k="created_by" v="Potlatch 0.10f"/>
    <tag k="denomination" v="catholic"/>
    <tag k="is_in" v="Bratislava - Staré Mesto"/>
    <tag k="loc_name" v="Modrý kostolík"/>
    <tag k="name" v="Kostol sv. Alžbety"/>
    <tag k="religion" v="christian"/>
  </node>
  <node id="166043716" version="6" timestamp="2009-04-25T21:14:44Z" uid="44943" user="Jožo Schwarz" changeset="960254" lat="48.1434219" lon="17.1168584">
    <tag k="amenity" v="place_of_worship"/>
    <tag k="created_by" v="Potlatch 0.10f"/>
    <tag k="denomination" v="roman_catholic"/>
    <tag k="is_in" v="Bratislava - Staré Mesto"/>
    <tag k="loc_name" v="Modrý kostolík"/>
    <tag k="name" v="Kostol sv. Alžbety"/>
    <tag k="religion" v="christian"/>
  </node>
  <node id="166043716" version="7" timestamp="2009-11-26T09:18:22Z" uid="29717" user="eumiro" changeset="3218280" lat="48.1434219" lon="17.1168584">
    <tag k="amenity" v="place_of_worship"/>
    <tag k="created_by" v="Potlatch 0.10f"/>
    <tag k="denomination" v="roman_catholic"/>
    <tag k="is_in" v="Bratislava - Staré Mesto"/>
    <tag k="loc_name" v="Modrý kostolík"/>
    <tag k="name" v="Kostol sv. Alžbety"/>
    <tag k="religion" v="christian"/>
  </node>
  <node id="166043727" version="4" timestamp="2008-08-15T00:17:42Z" uid="6975" user="ulfl" changeset="264731" lat="48.1529561" lon="17.1189269">
    <tag k="amenity" v="place_of_worship"/>
    <tag k="denomination" v="catholic"/>
    <tag k="is_in" v="Bratislava - Staré Mesto"/>
    <tag k="name" v="Kostol Nanebovzatia Panny Márie"/>
    <tag k="religion" v="christian"/>
  </node>
  <node id="166043727" version="5" timestamp="2008-10-28T21:53:54Z" uid="5544" user="Zdeno" changeset="611781" lat="48.152897" lon="17.1190015">
    <tag k="amenity" v="place_of_worship"/>
    <tag k="denomination" v="catholic"/>
    <tag k="is_in" v="Bratislava - Staré Mesto"/>
    <tag k="name" v="Kostol Nanebovzatia Panny Márie"/>
    <tag k="religion" v="christian"/>
  </node>
  <node id="166043727" version="6" timestamp="2009-11-25T11:35:59Z" uid="29717" user="eumiro" changeset="3211248" lat="48.152897" lon="17.1190015">
    <tag k="amenity" v="place_of_worship"/>
    <tag k="denomination" v="catholic"/>
    <tag k="is_in" v="Bratislava - Staré Mesto"/>
    <tag k="name" v="Kostol Nanebovzatia Panny Márie"/>
    <tag k="religion" v="christian"/>
  </node>
</osm>
