<?xml version='1.0' encoding='UTF-8'?>
<osm version="0.6" generator="libosmium/2.20.0">
  <node id="166862286" version="2" timestamp="2008-07-14T08:49:53Z" uid="6975" user="ulfl" changeset="486169" lat="49.8544687" lon="8.4323973">
    <tag k="amenity" v="kindergarten"/>
    <tag k="name" v="Kindergarten"/>
  </node>
  <node id="166863734" version="2" timestamp="2011-05-16T20:14:40Z" uid="9581" user="Lobelt" changeset="8166159" lat="39.2601201" lon="121.6070226"/>
  <node id="166863734" version="3" timestamp="2012-03-29T01:01:05Z" uid="212111" user="okilimu" changeset="11132704" lat="39.2601201" lon="121.6070226"/>
  <node id="166865304" version="2" timestamp="2007-12-27T15:52:08Z" uid="5871" user="Banny" changeset="439946" lat="50.9959989" lon="7.4941541">
    <tag k="created_by" v="JOSM"/>
  </node>
  <node id="166865304" version="3" timestamp="2012-01-09T19:30:54Z" uid="139465" user="SteveK" changeset="10345124" lat="50.996014" lon="7.4941567"/>
  <node id="166865364" version="2" timestamp="2008-02-16T19:55:52Z" uid="6975" user="ulfl" changeset="141861" lat="51.9687499" lon="7.6558435">
    <tag k="amenity" v="post_box"/>
    <tag k="name" v="Paketstation"/>
    <tag k="note" v="FIXME tag anpassen"/>
  </node>
  <node id="166865364" version="3" timestamp="2012-02-19T18:44:40Z" uid="607538" user="Adinos" changeset="10733352" lat="51.9687499" lon="7.6558435">
    <tag k="amenity" v="post_box"/>
    <tag k="name" v="Paketstation"/>
    <tag k="note" v="FIXME tag anpassen"/>
    <tag k="operator" v="Deutsche Post"/>
    <tag k="ref" v="Paketstation"/>
  </node>
  <node id="166865364" version="4" timestamp="2012-03-01T03:39:26Z" uid="210173" user="osmmaker" changeset="10834275" lat="51.9687499" lon="7.6558435">
    <tag k="amenity" v="post_box"/>
    <tag k="collection_times" v="FIXME"/>
    <tag k="name" v="Paketstation"/>
    <tag k="note" v="FIXME tag anpassen"/>
    <tag k="operator" v="Deutsche Post"/>
    <tag k="ref" v="Paketstation"/>
  </node>
  <node id="166865364" version="5" timestamp="2012-03-03T20:58:46Z" uid="147510" user="woodpeck_fixbot" changeset="10861079" lat="51.9687499" lon="7.6558435">
    <tag k="amenity" v="post_box"/>
    <tag k="name" v="Paketstation"/>
    <tag k="note" v="FIXME tag anpassen"/>
    <tag k="operator" v="Deutsche Post"/>
    <tag k="ref" v="Paketstation"/>
  </node>
  <node id="166865558" version="2" timestamp="2007-12-27T15:52:10Z" uid="5871" user="Banny" changeset="439946" lat="50.9959989" lon="7.4941541">
    <tag k="created_by" v="JOSM"/>
  </node>
</osm>
