<?xml version='1.0' encoding='UTF-8'?>
<osm version="0.6" generator="libosmium/2.20.0">
  <node id="167262314" version="4" timestamp="2008-09-14T20:00:32Z" uid="6975" user="ulfl" changeset="640534" lat="60.2414807" lon="24.88624">
    <tag k="amenity" v="bank"/>
    <tag k="atm" v="yes"/>
    <tag k="bic" v="NDEAFIHHXXX"/>
    <tag k="name" v="Nordea"/>
  </node>
  <node id="167262314" version="5" timestamp="2008-10-09T08:28:23Z" uid="70696" user="xybot" changeset="203736" lat="60.2414807" lon="24.88624">
    <tag k="addr:bic" v="NDEAFIHHXXX"/>
    <tag k="amenity" v="bank"/>
    <tag k="atm" v="yes"/>
    <tag k="created_by" v="xybot"/>
    <tag k="name" v="Nordea"/>
  </node>
  <node id="167262314" version="6" timestamp="2008-12-10T16:35:18Z" uid="70696" user="xybot" changeset="307270" lat="60.2414807" lon="24.88624">
    <tag k="amenity" v="bank"/>
    <tag k="atm" v="yes"/>
    <tag k="bic" v="NDEAFIHHXXX"/>
    <tag k="created_by" v="xybot"/>
    <tag k="name" v="Nordea"/>
  </node>
  <node id="167262314" version="7" timestamp="2009-07-20T10:21:46Z" uid="70359" user="JRA2" changeset="1883170" lat="60.2414844" lon="24.8862379">
    <tag k="amenity" v="bank"/>
    <tag k="atm" v="yes"/>
    <tag k="bic" v="NDEAFIHHXXX"/>
    <tag k="created_by" v="xybot"/>
    <tag k="name" v="Nordea"/>
    <tag k="operator" v="Nordea"/>
  </node>
  <node id="167262314" version="8" timestamp="2009-11-16T19:02:09Z" uid="20688" user="PetskuH" changeset="3134775" lat="60.2414865" lon="24.8862357">
    <tag k="amenity" v="bank"/>
    <tag k="atm" v="yes"/>
    <tag k="bic" v="NDEAFIHHXXX"/>
    <tag k="name" v="Nordea"/>
    <tag k="operator" v="Nordea"/>
    <tag k="website" v="http://www.nordea.fi/"/>
  </node>
  <node id="167262314" version="9" timestamp="2011-06-21T12:46:39Z" uid="20688" user="PetskuH" changeset="8504350" lat="60.2414865" lon="24.8862357"/>
</osm>
