<?xml version='1.0' encoding='UTF-8'?>
<osm version="0.6" generator="libosmium/2.20.0">
  <node id="173860671" version="2" timestamp="2009-12-09T15:29:11Z" uid="200463" user="harmagedon" changeset="3334003" lat="49.0882202" lon="13.2474613">
    <tag k="amenity" v="restaurant"/>
    <tag k="name" v="Wirtshaus zum Falkenstein"/>
    <tag k="note" v="FIXME: check name"/>
  </node>
  <node id="173866241" version="4" timestamp="2009-12-09T15:29:42Z" uid="200463" user="harmagedon" changeset="3334003" lat="49.0938197" lon="13.2710638">
    <tag k="name" v="Steinbachfall"/>
    <tag k="waterway" v="waterfall"/>
  </node>
  <node id="173866241" version="5" timestamp="2011-03-13T00:54:30Z" uid="37976" user="R2D2_C3PO" changeset="7540073" lat="49.0938197" lon="13.2710638">
    <tag k="name" v="Steinbachfall"/>
    <tag k="tourism" v="attraction"/>
    <tag k="waterway" v="waterfall"/>
  </node>
  <node id="173866241" version="6" timestamp="2011-07-02T11:29:11Z" uid="436868" user="Waldschwamm" changeset="8606828" lat="49.0938197" lon="13.2710638">
    <tag k="name" v="Steinbachfälle"/>
    <tag k="tourism" v="attraction"/>
    <tag k="waterway" v="waterfall"/>
  </node>
  <node id="173866922" version="3" timestamp="2009-12-09T15:29:50Z" uid="200463" user="harmagedon" changeset="3334003" lat="49.0885068" lon="13.2732424">
    <tag k="ele" v="1190"/>
    <tag k="name" v="Kleiner Falkenstein"/>
    <tag k="natural" v="peak"/>
  </node>
  <node id="173867877" version="2" timestamp="2010-10-02T12:55:51Z" uid="9581" user="Lobelt" changeset="5935957" lat="49.5608674" lon="8.7058924"/>
  <node id="173867886" version="3" timestamp="2011-02-26T19:41:16Z" uid="9581" user="Lobelt" changeset="7403598" lat="49.554169" lon="8.7056461"/>
  <node id="173867893" version="2" timestamp="2011-02-26T19:41:15Z" uid="9581" user="Lobelt" changeset="7403598" lat="49.5544346" lon="8.7069766"/>
  <node id="173867896" version="2" timestamp="2011-02-26T19:41:20Z" uid="9581" user="Lobelt" changeset="7403598" lat="49.5542209" lon="8.7070405"/>
  <node id="173867936" version="2" timestamp="2010-10-02T12:56:33Z" uid="9581" user="Lobelt" changeset="5935957" lat="49.5577287" lon="8.70524"/>
  <node id="173868483" version="2" timestamp="2009-12-09T15:29:48Z" uid="200463" user="harmagedon" changeset="3334003" lat="49.084924" lon="13.2805692">
    <tag k="amenity" v="restaurant"/>
    <tag k="name" v="Bergwachthütte auf dem Falkenstein"/>
  </node>
  <node id="173868483" version="3" timestamp="2011-08-21T12:58:15Z" uid="436868" user="Waldschwamm" changeset="9083219" lat="49.084924" lon="13.2805692">
    <tag k="addr:housename" v="Bergwachthütte auf dem Falkenstein"/>
    <tag k="amenity" v="restaurant"/>
    <tag k="name" v="Bergwachthütte "/>
  </node>
  <node id="173868483" version="4" timestamp="2011-08-21T17:43:03Z" uid="70696" user="xybot" changeset="9086619" lat="49.084924" lon="13.2805692">
    <tag k="addr:housename" v="Bergwachthütte auf dem Falkenstein"/>
    <tag k="amenity" v="restaurant"/>
    <tag k="name" v="Bergwachthütte"/>
  </node>
</osm>
