<?xml version='1.0' encoding='UTF-8'?>
<osm version="0.6" generator="libosmium/2.20.0">
  <node id="173893546" version="2" timestamp="2009-10-07T16:52:39Z" uid="86259" user="hasse_osm_korinthenkacker" changeset="2773624" lat="47.6135887" lon="13.0180914">
    <tag k="amenity" v="restaurant"/>
    <tag k="name" v="Windbeutelbaron"/>
  </node>
  <node id="173893546" version="3" timestamp="2009-10-08T19:33:51Z" uid="86259" user="hasse_osm_korinthenkacker" changeset="2785814" lat="47.6135887" lon="13.0180914">
    <tag k="amenity" v="restaurant"/>
    <tag k="name" v="Windbeutelbaron"/>
  </node>
  <node id="173893546" version="4" timestamp="2012-01-07T15:18:50Z" uid="32786" user="Netzwolf" changeset="10322044" lat="47.6135202" lon="13.0179669">
    <tag k="amenity" v="restaurant"/>
    <tag k="name" v="Windbeutelbaron"/>
  </node>
  <node id="173896575" version="2" timestamp="2009-10-07T16:53:24Z" uid="86259" user="hasse_osm_korinthenkacker" changeset="2773624" lat="47.6332808" lon="13.0481873">
    <tag k="name" v="Greifvogelgehege"/>
    <tag k="tourism" v="attraction"/>
  </node>
  <node id="173896575" version="3" timestamp="2009-10-08T19:46:41Z" uid="86259" user="hasse_osm_korinthenkacker" changeset="2785814" lat="47.6332808" lon="13.0481873">
    <tag k="name" v="Greifvogelgehege"/>
    <tag k="tourism" v="attraction"/>
  </node>
  <node id="173898197" version="2" timestamp="2009-10-07T16:53:04Z" uid="86259" user="hasse_osm_korinthenkacker" changeset="2773624" lat="47.6348773" lon="13.0100765">
    <tag k="name" v="Watzmanntherme"/>
    <tag k="sport" v="swimming"/>
  </node>
  <node id="173898197" version="3" timestamp="2009-10-08T19:42:55Z" uid="86259" user="hasse_osm_korinthenkacker" changeset="2785814" lat="47.6348773" lon="13.0100765">
    <tag k="name" v="Watzmanntherme"/>
    <tag k="sport" v="swimming"/>
  </node>
  <node id="173898197" version="4" timestamp="2011-06-24T16:18:35Z" uid="290680" user="wheelmap_visitor" changeset="8528990" lat="47.6348773" lon="13.0100765">
    <tag k="name" v="Watzmanntherme"/>
    <tag k="sport" v="swimming"/>
    <tag k="wheelchair" v="yes"/>
  </node>
  <node id="173898902" version="4" timestamp="2009-10-07T16:53:47Z" uid="86259" user="hasse_osm_korinthenkacker" changeset="2773624" lat="47.6581505" lon="13.0178961">
    <tag k="ele" v="1189"/>
    <tag k="name" v="Kneifelspitze"/>
    <tag k="natural" v="peak"/>
  </node>
  <node id="173898902" version="5" timestamp="2009-10-08T19:51:18Z" uid="86259" user="hasse_osm_korinthenkacker" changeset="2785814" lat="47.6581505" lon="13.0178961">
    <tag k="ele" v="1189"/>
    <tag k="name" v="Kneifelspitze"/>
    <tag k="natural" v="peak"/>
  </node>
  <node id="173898902" version="6" timestamp="2010-12-21T20:03:32Z" uid="32786" user="Netzwolf" changeset="6728968" lat="47.6581505" lon="13.0178961">
    <tag k="ele" v="1189"/>
    <tag k="name" v="Kneifelspitze"/>
    <tag k="natural" v="peak"/>
    <tag k="ref:avf" v="1240"/>
  </node>
</osm>
