<?xml version='1.0' encoding='UTF-8'?>
<osm version="0.6" generator="libosmium/2.20.0">
  <node id="173880175" version="3" timestamp="2009-10-07T16:47:25Z" uid="86259" user="hasse_osm_korinthenkacker" changeset="2773624" lat="47.6023644" lon="12.9242078">
    <tag k="amenity" v="parking"/>
    <tag k="fee" v="yes"/>
    <tag k="name" v="Parkplatz Wimbachbrücke"/>
  </node>
  <node id="173880175" version="4" timestamp="2009-10-08T18:27:57Z" uid="86259" user="hasse_osm_korinthenkacker" changeset="2785814" lat="47.6023644" lon="12.9242078">
    <tag k="amenity" v="parking"/>
    <tag k="fee" v="yes"/>
    <tag k="name" v="Parkplatz Wimbachbrücke"/>
  </node>
  <node id="173880175" version="5" timestamp="2010-12-13T17:37:56Z" uid="268988" user="Andreas Binder" changeset="6650140" lat="47.6023645" lon="12.9242077">
    <tag k="amenity" v="parking"/>
    <tag k="ele" v="634"/>
    <tag k="fee" v="yes"/>
    <tag k="name" v="Parkplatz Wimbachbrücke"/>
  </node>
  <node id="173880175" version="6" timestamp="2010-12-18T21:23:37Z" uid="32112" user="SverigeFan" changeset="6700641" lat="47.6024115" lon="12.9242861">
    <tag k="amenity" v="parking"/>
    <tag k="ele" v="634"/>
    <tag k="fee" v="yes"/>
    <tag k="name" v="Parkplatz Wimbachbrücke"/>
  </node>
  <node id="173880175" version="7" timestamp="2011-07-25T21:50:44Z" uid="294059" user="smoky" changeset="8830851" lat="47.6024115" lon="12.9242861">
    <tag k="amenity" v="parking"/>
    <tag k="ele" v="634"/>
    <tag k="fee" v="yes"/>
    <tag k="name" v="Wimbachbrücke"/>
  </node>
  <node id="173882245" version="3" timestamp="2009-10-07T16:47:42Z" uid="86259" user="hasse_osm_korinthenkacker" changeset="2773624" lat="47.60372" lon="12.9493304">
    <tag k="amenity" v="parking"/>
    <tag k="fee" v="yes"/>
    <tag k="name" v="Parkplatz Hammerstiel"/>
  </node>
  <node id="173882245" version="4" timestamp="2009-10-08T18:30:44Z" uid="86259" user="hasse_osm_korinthenkacker" changeset="2785814" lat="47.60372" lon="12.9493304">
    <tag k="amenity" v="parking"/>
    <tag k="fee" v="yes"/>
    <tag k="name" v="Parkplatz Hammerstiel"/>
  </node>
  <node id="173882245" version="5" timestamp="2011-07-25T21:50:55Z" uid="294059" user="smoky" changeset="8830851" lat="47.60372" lon="12.9493304">
    <tag k="amenity" v="parking"/>
    <tag k="fee" v="yes"/>
    <tag k="name" v="Hammerstiel"/>
  </node>
  <node id="173883529" version="5" timestamp="2009-10-07T16:47:43Z" uid="86259" user="hasse_osm_korinthenkacker" changeset="2773624" lat="47.5929094" lon="12.9618999">
    <tag k="amenity" v="restaurant"/>
    <tag k="name" v="Grünsteinhütte"/>
  </node>
  <node id="173883529" version="6" timestamp="2009-10-08T18:30:48Z" uid="86259" user="hasse_osm_korinthenkacker" changeset="2785814" lat="47.5929094" lon="12.9618999">
    <tag k="amenity" v="restaurant"/>
    <tag k="name" v="Grünsteinhütte"/>
  </node>
  <node id="173883529" version="7" timestamp="2010-12-21T19:12:36Z" uid="32786" user="Netzwolf" changeset="6728968" lat="47.5929094" lon="12.9618999">
    <tag k="amenity" v="restaurant"/>
    <tag k="name" v="Grünsteinhütte"/>
    <tag k="ref:avf" v="111"/>
  </node>
  <node id="173883529" version="8" timestamp="2011-10-29T10:07:44Z" uid="331" user="user_331" changeset="9683151" lat="47.5929094" lon="12.9618999">
    <tag k="amenity" v="restaurant"/>
    <tag k="name" v="Grünsteinhütte"/>
    <tag k="ref:avf" v="111"/>
    <tag k="website" v="http://www.gruensteinhuette.de/"/>
  </node>
  <node id="173883540" version="3" timestamp="2009-10-07T16:48:10Z" uid="86259" user="hasse_osm_korinthenkacker" changeset="2773624" lat="47.5943198" lon="12.9655742">
    <tag k="ele" v="1304"/>
    <tag k="name" v="Grünstein"/>
    <tag k="natural" v="peak"/>
  </node>
  <node id="173883540" version="4" timestamp="2009-10-08T18:34:18Z" uid="86259" user="hasse_osm_korinthenkacker" changeset="2785814" lat="47.5943198" lon="12.9655742">
    <tag k="ele" v="1304"/>
    <tag k="name" v="Grünstein"/>
    <tag k="natural" v="peak"/>
  </node>
  <node id="173883540" version="5" timestamp="2010-12-22T11:21:49Z" uid="32786" user="Netzwolf" changeset="6734415" lat="47.5943198" lon="12.9655742">
    <tag k="ele" v="1304"/>
    <tag k="name" v="Grünstein"/>
    <tag k="natural" v="peak"/>
    <tag k="ref:avf" v="1304"/>
  </node>
  <node id="173883540" version="6" timestamp="2011-10-29T10:07:43Z" uid="331" user="user_331" changeset="9683151" lat="47.5943198" lon="12.9655742">
    <tag k="ele" v="1304"/>
    <tag k="name" v="Grünstein"/>
    <tag k="natural" v="peak"/>
    <tag k="ref:avf" v="1304"/>
    <tag k="wikipedia:de" v="http://de.wikipedia.org/wiki/Grünstein_(Watzmann)"/>
  </node>
  <node id="173888515" version="3" timestamp="2009-10-07T16:52:33Z" uid="86259" user="hasse_osm_korinthenkacker" changeset="2773624" lat="47.5952438" lon="13.0220815">
    <tag k="amenity" v="parking"/>
    <tag k="fee" v="yes"/>
    <tag k="name" v="Parkplatz Hinterbrand"/>
  </node>
  <node id="173888515" version="4" timestamp="2009-10-08T19:32:20Z" uid="86259" user="hasse_osm_korinthenkacker" changeset="2785814" lat="47.5952438" lon="13.0220815">
    <tag k="amenity" v="parking"/>
    <tag k="fee" v="yes"/>
    <tag k="name" v="Parkplatz Hinterbrand"/>
  </node>
  <node id="173888515" version="5" timestamp="2010-09-01T21:54:56Z" uid="80256" user="WoD" changeset="5657812" lat="47.5952438" lon="13.0220815">
    <tag k="amenity" v="parking"/>
    <tag k="fee" v="yes"/>
    <tag k="name" v="Parkplatz Hinterbrand"/>
  </node>
  <node id="173888515" version="6" timestamp="2011-06-24T15:42:03Z" uid="290680" user="wheelmap_visitor" changeset="8528990" lat="47.5952438" lon="13.0220815">
    <tag k="amenity" v="parking"/>
    <tag k="fee" v="yes"/>
    <tag k="name" v="Parkplatz Hinterbrand"/>
    <tag k="wheelchair" v="yes"/>
  </node>
  <node id="173888515" version="7" timestamp="2011-07-21T00:24:12Z" uid="294059" user="smoky" changeset="8784251" lat="47.5952438" lon="13.0220815">
    <tag k="amenity" v="parking"/>
    <tag k="fee" v="yes"/>
    <tag k="name" v="Hinterbrand"/>
    <tag k="wheelchair" v="yes"/>
  </node>
  <node id="173888515" version="8" timestamp="2011-07-25T20:26:17Z" uid="199058" user="pegeka" changeset="8830054" lat="47.5951843" lon="13.0223799">
    <tag k="amenity" v="parking"/>
    <tag k="fee" v="yes"/>
    <tag k="name" v="Hinterbrand"/>
    <tag k="wheelchair" v="yes"/>
  </node>
</osm>
