<?xml version='1.0' encoding='UTF-8'?>
<osm version="0.6" generator="libosmium/2.20.0">
  <node id="174050374" version="5" timestamp="2010-10-22T22:17:33Z" uid="7617" user="Franc" changeset="6140904" lat="-33.7645401" lon="151.3016915"/>
  <node id="174050375" version="5" timestamp="2010-10-22T22:17:23Z" uid="7617" user="Franc" changeset="6140904" lat="-33.7646295" lon="151.3014652"/>
  <node id="174050376" version="5" timestamp="2010-01-23T03:50:32Z" uid="30201" user="rrankin" changeset="3688961" lat="-33.7645304" lon="151.3012958"/>
  <node id="174050376" version="6" timestamp="2010-10-22T22:18:14Z" uid="7617" user="Franc" changeset="6140904" lat="-33.7646045" lon="151.3012458"/>
  <node id="174050377" version="4" timestamp="2010-01-23T03:50:33Z" uid="30201" user="rrankin" changeset="3688961" lat="-33.7644449" lon="151.3010969"/>
  <node id="174050377" version="5" timestamp="2010-10-22T22:18:04Z" uid="7617" user="Franc" changeset="6140904" lat="-33.7645044" lon="151.3010807"/>
  <node id="174052979" version="3" timestamp="2009-12-14T19:44:33Z" uid="74617" user="JohnSmith" changeset="3374489" lat="-35.2041046" lon="149.2100965">
    <tag k="amenity" v="fuel"/>
    <tag k="operator" v="United"/>
  </node>
  <node id="174052979" version="4" timestamp="2010-02-13T21:48:59Z" uid="79144" user="John H" changeset="3868795" lat="-35.2041046" lon="149.210096">
    <tag k="amenity" v="fuel"/>
    <tag k="fuel:diesel" v="yes"/>
    <tag k="fuel:e10" v="yes"/>
    <tag k="fuel:lpg" v="yes"/>
    <tag k="fuel:octane_91" v="yes"/>
    <tag k="fuel:octane_98" v="yes"/>
    <tag k="name" v="United Petroleum Sutton"/>
    <tag k="operator" v="United Petroleum"/>
  </node>
  <node id="174052979" version="5" timestamp="2010-03-19T10:17:21Z" uid="232912" user="Jack Kirby" changeset="4168521" lat="-35.2031809" lon="149.2106262">
    <tag k="amenity" v="fuel"/>
    <tag k="fuel:diesel" v="yes"/>
    <tag k="fuel:e10" v="yes"/>
    <tag k="fuel:lpg" v="yes"/>
    <tag k="fuel:octane_91" v="yes"/>
    <tag k="fuel:octane_98" v="yes"/>
    <tag k="name" v="United Petroleum Sutton"/>
    <tag k="operator" v="United Petroleum"/>
  </node>
  <node id="174052979" version="6" timestamp="2010-06-13T23:29:08Z" uid="79144" user="John H" changeset="4984019" lat="-35.2030852" lon="149.2106309">
    <tag k="amenity" v="fuel"/>
    <tag k="fuel:diesel" v="yes"/>
    <tag k="fuel:e10" v="yes"/>
    <tag k="fuel:lpg" v="yes"/>
    <tag k="fuel:octane_91" v="yes"/>
    <tag k="fuel:octane_98" v="yes"/>
    <tag k="name" v="United Petroleum Sutton"/>
    <tag k="operator" v="United Petroleum"/>
  </node>
</osm>
