<?xml version='1.0' encoding='UTF-8'?>
<osm version="0.6" generator="libosmium/2.20.0">
  <node id="174942320" version="2" timestamp="2008-07-03T18:22:55Z" uid="6975" user="ulfl" changeset="379368" lat="48.1573824" lon="17.1273684">
    <tag k="amenity" v="bank"/>
    <tag k="atm" v="yes"/>
    <tag k="operator" v="VÚB"/>
  </node>
  <node id="174942320" version="3" timestamp="2009-04-15T08:17:29Z" uid="5544" user="Zdeno" changeset="559492" lat="48.1562637" lon="17.125982">
    <tag k="amenity" v="bank"/>
    <tag k="operator" v="mBank"/>
  </node>
  <node id="174942320" version="4" timestamp="2009-04-15T08:24:59Z" uid="5544" user="Zdeno" changeset="559492" lat="48.1562637" lon="17.125982">
    <tag k="amenity" v="bank"/>
    <tag k="operator" v="mBank"/>
  </node>
  <node id="174942322" version="3" timestamp="2008-07-03T18:22:55Z" uid="6975" user="ulfl" changeset="379368" lat="48.1563184" lon="17.1260521">
    <tag k="amenity" v="bank"/>
    <tag k="atm" v="yes"/>
    <tag k="operator" v="UniCredit Bank"/>
  </node>
  <node id="174942322" version="4" timestamp="2011-08-15T11:56:12Z" uid="29717" user="eumiro" changeset="9026251" lat="48.1563184" lon="17.1260521">
    <tag k="amenity" v="bank"/>
    <tag k="atm" v="yes"/>
    <tag k="name" v="UniCredit Bank"/>
    <tag k="operator" v="UniCredit Bank"/>
  </node>
  <node id="174942327" version="3" timestamp="2008-07-03T18:22:55Z" uid="6975" user="ulfl" changeset="379368" lat="48.1561562" lon="17.1258536">
    <tag k="amenity" v="bank"/>
    <tag k="atm" v="yes"/>
    <tag k="operator" v="ČSOB Slovensko"/>
  </node>
  <node id="174942327" version="4" timestamp="2011-08-15T11:56:26Z" uid="29717" user="eumiro" changeset="9026251" lat="48.1561562" lon="17.1258536">
    <tag k="amenity" v="bank"/>
    <tag k="atm" v="yes"/>
    <tag k="name" v="ČSOB"/>
    <tag k="operator" v="ČSOB"/>
  </node>
</osm>
