<?xml version='1.0' encoding='UTF-8'?>
<osm version="0.6" generator="libosmium/2.20.0">
  <node id="175607711" version="11" timestamp="2009-07-01T03:20:44Z" uid="20587" user="balrog-kun" changeset="1697137" lat="52.4027618" lon="16.9422736">
    <tag k="layer" v="2"/>
    <tag k="name" v="Most św. Rocha"/>
    <tag k="railway" v="tram_stop"/>
  </node>
  <node id="175607711" version="12" timestamp="2010-05-06T21:20:42Z" uid="88909" user="miko101" changeset="4625681" lat="52.4027618" lon="16.9422736">
    <tag k="layer" v="2"/>
    <tag k="name" v="Most św. Rocha"/>
    <tag k="railway" v="tram_stop"/>
  </node>
  <node id="175607711" version="13" timestamp="2010-08-25T15:05:40Z" uid="88909" user="miko101" changeset="5590509" lat="52.4027386" lon="16.9422841">
    <tag k="layer" v="2"/>
    <tag k="name" v="Most św. Rocha"/>
    <tag k="railway" v="tram_stop"/>
  </node>
  <node id="175607711" version="14" timestamp="2011-02-10T15:55:17Z" uid="88909" user="miko101" changeset="7246543" lat="52.4027432" lon="16.9422942">
    <tag k="layer" v="2"/>
    <tag k="name" v="Most św. Rocha"/>
    <tag k="railway" v="tram_stop"/>
  </node>
  <node id="175607711" version="15" timestamp="2011-09-08T17:36:59Z" uid="91056" user="Yarl" changeset="9247651" lat="52.4027005" lon="16.9422872">
    <tag k="layer" v="2"/>
    <tag k="name" v="Most św. Rocha"/>
    <tag k="railway" v="tram_stop"/>
  </node>
  <node id="175607711" version="16" timestamp="2011-12-15T00:03:51Z" uid="88909" user="miko101" changeset="10120423" lat="52.4027005" lon="16.9422872"/>
  <node id="175607829" version="8" timestamp="2009-12-08T23:39:40Z" uid="123700" user="Mala" changeset="3330111" lat="52.4064103" lon="16.9253523">
    <tag k="highway" v="crossing"/>
  </node>
  <node id="175607829" version="9" timestamp="2010-05-06T21:00:36Z" uid="88909" user="miko101" changeset="4625498" lat="52.4063643" lon="16.9253316">
    <tag k="highway" v="crossing"/>
  </node>
  <node id="175607829" version="10" timestamp="2011-03-14T22:19:30Z" uid="88909" user="miko101" changeset="7561832" lat="52.4063522" lon="16.9252837">
    <tag k="highway" v="crossing"/>
  </node>
  <node id="175607829" version="11" timestamp="2011-08-23T13:55:30Z" uid="19417" user="xjr" changeset="9103928" lat="52.4063599" lon="16.9253063">
    <tag k="highway" v="crossing"/>
  </node>
  <node id="175607829" version="12" timestamp="2011-09-10T12:30:31Z" uid="91056" user="Yarl" changeset="9261682" lat="52.406345" lon="16.9253943">
    <tag k="highway" v="crossing"/>
  </node>
  <node id="175607834" version="6" timestamp="2009-08-02T21:55:21Z" uid="20587" user="balrog-kun" changeset="2020184" lat="52.4065393" lon="16.9285124">
    <tag k="name" v="Marcinkowskiego"/>
    <tag k="railway" v="tram_stop"/>
  </node>
  <node id="175607834" version="7" timestamp="2010-05-06T21:00:36Z" uid="88909" user="miko101" changeset="4625498" lat="52.406541" lon="16.9285932">
    <tag k="name" v="Marcinkowskiego"/>
    <tag k="railway" v="tram_stop"/>
  </node>
  <node id="175607834" version="8" timestamp="2011-04-17T20:02:22Z" uid="88909" user="miko101" changeset="7891310" lat="52.406541" lon="16.9285932">
    <tag k="name" v="Marcinkowskiego"/>
    <tag k="railway" v="tram_stop"/>
  </node>
</osm>
