<?xml version='1.0' encoding='UTF-8'?>
<osm version="0.6" generator="libosmium/2.20.0">
  <node id="176074756" version="5" timestamp="2008-07-05T13:59:23Z" uid="6975" user="ulfl" changeset="398437" lat="52.4044143" lon="-1.5082448">
    <tag k="amenity" v="police"/>
    <tag k="created_by" v="Potlatch 0.9a"/>
    <tag k="name" v="Little Park Street"/>
  </node>
  <node id="176074756" version="6" timestamp="2009-12-06T12:33:08Z" uid="80126" user="sherbourne" changeset="3304386" lat="52.4044144" lon="-1.5082448">
    <tag k="amenity" v="police"/>
    <tag k="name" v="Little Park Street Police Station"/>
    <tag k="note" v="name acording to www.west-midlands.police.uk/np/littleparkstreet/"/>
  </node>
  <node id="176074756" version="7" timestamp="2010-04-19T14:06:55Z" uid="80126" user="sherbourne" changeset="4468155" lat="52.4044144" lon="-1.5082448">
    <tag k="amenity" v="police"/>
    <tag k="name" v="Coventry Central Police Station"/>
    <tag k="note" v="name changed from 1/4/2010 www.west-midlands.police.uk"/>
  </node>
  <node id="176074756" version="8" timestamp="2011-11-07T21:33:27Z" uid="411244" user="RobJN" changeset="9769131" lat="52.4044144" lon="-1.5082448"/>
</osm>
