<?xml version='1.0' encoding='UTF-8'?>
<osm version="0.6" generator="libosmium/2.20.0">
  <node id="176801590" version="2" timestamp="2008-06-25T07:25:42Z" uid="6975" user="ulfl" changeset="293993" lat="46.5702571" lon="13.9727935">
    <tag k="created_by" v="JOSM"/>
    <tag k="mountain_pass" v="yes"/>
    <tag k="name" v="Orainsattel"/>
  </node>
  <node id="176801590" version="3" timestamp="2008-09-24T13:03:20Z" uid="69102" user="Mathbau" changeset="688617" lat="46.5702571" lon="13.9727935">
    <tag k="created_by" v="JOSM"/>
    <tag k="mountain_pass" v="yes"/>
    <tag k="name" v="Orainsattel"/>
  </node>
  <node id="176801590" version="4" timestamp="2008-09-24T13:06:32Z" uid="69102" user="Mathbau" changeset="688617" lat="46.5702571" lon="13.9727935">
    <tag k="created_by" v="JOSM"/>
    <tag k="mountain_pass" v="yes"/>
    <tag k="name" v="Orainsattel"/>
  </node>
  <node id="176801590" version="5" timestamp="2008-09-25T11:19:23Z" uid="44863" user="rvs" changeset="696964" lat="46.5703006" lon="13.9726978">
    <tag k="created_by" v="JOSM"/>
    <tag k="mountain_pass" v="yes"/>
    <tag k="name" v="Orainsattel"/>
  </node>
  <node id="176809431" version="2" timestamp="2008-06-25T07:29:12Z" uid="6975" user="ulfl" changeset="293993" lat="46.5870591" lon="14.0175079">
    <tag k="created_by" v="JOSM"/>
  </node>
  <node id="176809431" version="3" timestamp="2008-08-18T08:51:13Z" uid="51987" user="pronti" changeset="308007" lat="46.5870535" lon="14.0174912">
    <tag k="created_by" v="JOSM"/>
  </node>
  <node id="176809431" version="4" timestamp="2009-12-28T17:30:45Z" uid="45347" user="eriosw" changeset="3473858" lat="46.5870535" lon="14.0174912">
    <tag k="created_by" v="JOSM"/>
  </node>
</osm>
