<?xml version='1.0' encoding='UTF-8'?>
<osm version="0.6" generator="libosmium/2.20.0">
  <node id="177346517" version="5" timestamp="2008-12-13T16:01:44Z" uid="58091" user="Andreas M" changeset="358771" lat="48.2087589" lon="16.4472035">
    <tag k="name" v="Camping Neue Donau"/>
    <tag k="phone" v="+43-1-202 4010"/>
    <tag k="tourism" v="camp_site"/>
  </node>
  <node id="177346517" version="6" timestamp="2010-03-13T09:37:05Z" uid="12295" user="mapper_07" changeset="4112825" lat="48.2087589" lon="16.4472035">
    <tag k="addr:city" v="Wien"/>
    <tag k="addr:street" v="Am Kleehäufel"/>
    <tag k="name" v="Camping Neue Donau"/>
    <tag k="phone" v="+43-1-202 4010"/>
    <tag k="tourism" v="camp_site"/>
    <tag k="url" v="www.wiencamping.at"/>
  </node>
  <node id="177346517" version="7" timestamp="2010-09-20T12:48:57Z" uid="65148" user="Pirat Michi" changeset="5828900" lat="48.2087589" lon="16.4472035">
    <tag k="addr:city" v="Wien"/>
    <tag k="addr:street" v="Am Kleehäufel"/>
    <tag k="name" v="Camping Neue Donau"/>
    <tag k="phone" v="+43-1-202 4010"/>
    <tag k="tourism" v="camp_site"/>
    <tag k="website" v="www.wiencamping.at"/>
  </node>
  <node id="177346517" version="8" timestamp="2010-10-28T16:24:43Z" uid="78656" user="Walter Schlögl" changeset="6210062" lat="48.2087589" lon="16.4472035">
    <tag k="addr:city" v="Wien"/>
    <tag k="addr:street" v="Am Kleehäufel"/>
    <tag k="name" v="Camping Neue Donau"/>
    <tag k="phone" v="+43-1-202 4010"/>
    <tag k="tourism" v="camp_site"/>
    <tag k="website" v="www.wiencamping.at"/>
  </node>
</osm>
