<?xml version='1.0' encoding='UTF-8'?>
<osm version="0.6" generator="libosmium/2.20.0">
  <node id="17780035" version="18" timestamp="2009-07-26T00:10:51Z" uid="123700" user="Mala" changeset="1939678" lat="48.1372706" lon="11.5754887">
    <tag k="int_name" v="Munich"/>
    <tag k="is_in" v="Oberbayern,Bayern,Bundesrepublik Deutschland,Europe"/>
    <tag k="is_in:continent" v="Europe"/>
    <tag k="name" v="München"/>
    <tag k="name:bar" v="Minga"/>
    <tag k="name:cs" v="Mnichov"/>
    <tag k="name:de" v="München"/>
    <tag k="name:en" v="Munich"/>
    <tag k="name:es" v="Múnich"/>
    <tag k="name:it" v="Monaco di Baviera"/>
    <tag k="name:pl" v="Monachium"/>
    <tag k="name:pt" v="Munique"/>
    <tag k="openGeoDB:auto_update" v="population,name,is_in"/>
    <tag k="openGeoDB:community_identification_number" v="09162"/>
    <tag k="openGeoDB:is_in" v="Oberbayern,Bayern,Bundesrepublik Deutschland,Europe"/>
    <tag k="openGeoDB:is_in_loc_id" v="166"/>
    <tag k="openGeoDB:layer" v="5"/>
    <tag k="openGeoDB:license_plate_code" v="M"/>
    <tag k="openGeoDB:loc_id" v="212"/>
    <tag k="openGeoDB:location" v="political_structure"/>
    <tag k="openGeoDB:name" v="München"/>
    <tag k="openGeoDB:population" v="1300000"/>
    <tag k="openGeoDB:sort_name" v="MUENCHEN"/>
    <tag k="openGeoDB:telephone_area_code" v="089"/>
    <tag k="openGeoDB:type" v="Landeshauptstadt"/>
    <tag k="openGeoDB:version" v="0.2.6.11 / 2007-12-04 / http://fa-technik.adfc.de/code/opengeodb/dump/"/>
    <tag k="opengeodb:lat" v="48.13724"/>
    <tag k="opengeodb:lon" v="11.5755114"/>
    <tag k="place" v="city"/>
    <tag k="population" v="1311573"/>
    <tag k="wikipedia" v="Munich"/>
  </node>
  <node id="17780035" version="19" timestamp="2009-08-31T08:21:53Z" uid="28427" user="skunk" changeset="2323479" lat="48.1372706" lon="11.5754887">
    <tag k="int_name" v="Munich"/>
    <tag k="is_in" v="Oberbayern,Bayern,Bundesrepublik Deutschland,Europe"/>
    <tag k="is_in:continent" v="Europe"/>
    <tag k="name" v="München"/>
    <tag k="name:bar" v="Minga"/>
    <tag k="name:bg" v="Мюнхен"/>
    <tag k="name:cs" v="Mnichov"/>
    <tag k="name:de" v="München"/>
    <tag k="name:en" v="Munich"/>
    <tag k="name:es" v="Múnich"/>
    <tag k="name:fr" v="Munich"/>
    <tag k="name:it" v="Monaco di Baviera"/>
    <tag k="name:pl" v="Monachium"/>
    <tag k="name:pt" v="Munique"/>
    <tag k="openGeoDB:auto_update" v="population,name,is_in"/>
    <tag k="openGeoDB:community_identification_number" v="09162"/>
    <tag k="openGeoDB:is_in" v="Oberbayern,Bayern,Bundesrepublik Deutschland,Europe"/>
    <tag k="openGeoDB:is_in_loc_id" v="166"/>
    <tag k="openGeoDB:layer" v="5"/>
    <tag k="openGeoDB:license_plate_code" v="M"/>
    <tag k="openGeoDB:loc_id" v="212"/>
    <tag k="openGeoDB:location" v="political_structure"/>
    <tag k="openGeoDB:name" v="München"/>
    <tag k="openGeoDB:population" v="1300000"/>
    <tag k="openGeoDB:sort_name" v="MUENCHEN"/>
    <tag k="openGeoDB:telephone_area_code" v="089"/>
    <tag k="openGeoDB:type" v="Landeshauptstadt"/>
    <tag k="openGeoDB:version" v="0.2.6.11 / 2007-12-04 / http://fa-technik.adfc.de/code/opengeodb/dump/"/>
    <tag k="opengeodb:lat" v="48.13724"/>
    <tag k="opengeodb:lon" v="11.5755114"/>
    <tag k="place" v="city"/>
    <tag k="population" v="1311573"/>
    <tag k="wikipedia" v="Munich"/>
  </node>
  <node id="17780035" version="20" timestamp="2009-09-18T14:15:48Z" uid="29717" user="eumiro" changeset="2524877" lat="48.1372706" lon="11.5754887">
    <tag k="int_name" v="Munich"/>
    <tag k="is_in" v="Oberbayern,Bayern,Bundesrepublik Deutschland,Europe"/>
    <tag k="is_in:continent" v="Europe"/>
    <tag k="name" v="München"/>
    <tag k="name:bar" v="Minga"/>
    <tag k="name:bg" v="Мюнхен"/>
    <tag k="name:cs" v="Mnichov"/>
    <tag k="name:de" v="München"/>
    <tag k="name:en" v="Munich"/>
    <tag k="name:es" v="Múnich"/>
    <tag k="name:fr" v="Munich"/>
    <tag k="name:it" v="Monaco di Baviera"/>
    <tag k="name:pl" v="Monachium"/>
    <tag k="name:pt" v="Munique"/>
    <tag k="name:sk" v="Mníchov"/>
    <tag k="openGeoDB:auto_update" v="population,name,is_in"/>
    <tag k="openGeoDB:community_identification_number" v="09162"/>
    <tag k="openGeoDB:is_in" v="Oberbayern,Bayern,Bundesrepublik Deutschland,Europe"/>
    <tag k="openGeoDB:is_in_loc_id" v="166"/>
    <tag k="openGeoDB:layer" v="5"/>
    <tag k="openGeoDB:license_plate_code" v="M"/>
    <tag k="openGeoDB:loc_id" v="212"/>
    <tag k="openGeoDB:location" v="political_structure"/>
    <tag k="openGeoDB:name" v="München"/>
    <tag k="openGeoDB:population" v="1300000"/>
    <tag k="openGeoDB:sort_name" v="MUENCHEN"/>
    <tag k="openGeoDB:telephone_area_code" v="089"/>
    <tag k="openGeoDB:type" v="Landeshauptstadt"/>
    <tag k="openGeoDB:version" v="0.2.6.11 / 2007-12-04 / http://fa-technik.adfc.de/code/opengeodb/dump/"/>
    <tag k="opengeodb:lat" v="48.13724"/>
    <tag k="opengeodb:lon" v="11.5755114"/>
    <tag k="place" v="city"/>
    <tag k="population" v="1311573"/>
    <tag k="wikipedia" v="Munich"/>
  </node>
  <node id="17780035" version="21" timestamp="2009-10-23T09:21:40Z" uid="53468" user="yohanson" changeset="2928017" lat="48.1372706" lon="11.5754887">
    <tag k="int_name" v="Munich"/>
    <tag k="is_in" v="Oberbayern,Bayern,Bundesrepublik Deutschland,Europe"/>
    <tag k="is_in:continent" v="Europe"/>
    <tag k="name" v="München"/>
    <tag k="name:bar" v="Minga"/>
    <tag k="name:bg" v="Мюнхен"/>
    <tag k="name:cs" v="Mnichov"/>
    <tag k="name:de" v="München"/>
    <tag k="name:en" v="Munich"/>
    <tag k="name:es" v="Múnich"/>
    <tag k="name:fr" v="Munich"/>
    <tag k="name:it" v="Monaco di Baviera"/>
    <tag k="name:pl" v="Monachium"/>
    <tag k="name:pt" v="Munique"/>
    <tag k="name:ru" v="Мюнхен"/>
    <tag k="name:sk" v="Mníchov"/>
    <tag k="openGeoDB:auto_update" v="population,name,is_in"/>
    <tag k="openGeoDB:community_identification_number" v="09162"/>
    <tag k="openGeoDB:is_in" v="Oberbayern,Bayern,Bundesrepublik Deutschland,Europe"/>
    <tag k="openGeoDB:is_in_loc_id" v="166"/>
    <tag k="openGeoDB:layer" v="5"/>
    <tag k="openGeoDB:license_plate_code" v="M"/>
    <tag k="openGeoDB:loc_id" v="212"/>
    <tag k="openGeoDB:location" v="political_structure"/>
    <tag k="openGeoDB:name" v="München"/>
    <tag k="openGeoDB:population" v="1300000"/>
    <tag k="openGeoDB:sort_name" v="MUENCHEN"/>
    <tag k="openGeoDB:telephone_area_code" v="089"/>
    <tag k="openGeoDB:type" v="Landeshauptstadt"/>
    <tag k="openGeoDB:version" v="0.2.6.11 / 2007-12-04 / http://fa-technik.adfc.de/code/opengeodb/dump/"/>
    <tag k="opengeodb:lat" v="48.13724"/>
    <tag k="opengeodb:lon" v="11.5755114"/>
    <tag k="place" v="city"/>
    <tag k="population" v="1311573"/>
    <tag k="wikipedia" v="Munich"/>
  </node>
  <node id="17780035" version="22" timestamp="2009-11-01T10:32:14Z" uid="47892" user="richlv" changeset="3004762" lat="48.1372706" lon="11.5754887">
    <tag k="int_name" v="Munich"/>
    <tag k="is_in" v="Oberbayern,Bayern,Bundesrepublik Deutschland,Europe"/>
    <tag k="is_in:continent" v="Europe"/>
    <tag k="name" v="München"/>
    <tag k="name:bar" v="Minga"/>
    <tag k="name:bg" v="Мюнхен"/>
    <tag k="name:cs" v="Mnichov"/>
    <tag k="name:de" v="München"/>
    <tag k="name:en" v="Munich"/>
    <tag k="name:es" v="Múnich"/>
    <tag k="name:fr" v="Munich"/>
    <tag k="name:it" v="Monaco di Baviera"/>
    <tag k="name:lv" v="Minhene"/>
    <tag k="name:pl" v="Monachium"/>
    <tag k="name:pt" v="Munique"/>
    <tag k="name:ru" v="Мюнхен"/>
    <tag k="name:sk" v="Mníchov"/>
    <tag k="openGeoDB:auto_update" v="population,name,is_in"/>
    <tag k="openGeoDB:community_identification_number" v="09162"/>
    <tag k="openGeoDB:is_in" v="Oberbayern,Bayern,Bundesrepublik Deutschland,Europe"/>
    <tag k="openGeoDB:is_in_loc_id" v="166"/>
    <tag k="openGeoDB:layer" v="5"/>
    <tag k="openGeoDB:license_plate_code" v="M"/>
    <tag k="openGeoDB:loc_id" v="212"/>
    <tag k="openGeoDB:location" v="political_structure"/>
    <tag k="openGeoDB:name" v="München"/>
    <tag k="openGeoDB:population" v="1300000"/>
    <tag k="openGeoDB:sort_name" v="MUENCHEN"/>
    <tag k="openGeoDB:telephone_area_code" v="089"/>
    <tag k="openGeoDB:type" v="Landeshauptstadt"/>
    <tag k="openGeoDB:version" v="0.2.6.11 / 2007-12-04 / http://fa-technik.adfc.de/code/opengeodb/dump/"/>
    <tag k="opengeodb:lat" v="48.13724"/>
    <tag k="opengeodb:lon" v="11.5755114"/>
    <tag k="place" v="city"/>
    <tag k="population" v="1311573"/>
    <tag k="wikipedia" v="Munich"/>
  </node>
  <node id="17780035" version="23" timestamp="2009-11-01T16:51:47Z" uid="31075" user="wieland" changeset="3008356" lat="48.1372718" lon="11.5754816">
    <tag k="int_name" v="Munich"/>
    <tag k="is_in" v="Oberbayern,Bayern,Bundesrepublik Deutschland,Europe"/>
    <tag k="is_in:continent" v="Europe"/>
    <tag k="name" v="München"/>
    <tag k="name:bar" v="Minga"/>
    <tag k="name:bg" v="Мюнхен"/>
    <tag k="name:cs" v="Mnichov"/>
    <tag k="name:de" v="München"/>
    <tag k="name:en" v="Munich"/>
    <tag k="name:eo" v="Munkeno"/>
    <tag k="name:es" v="Múnich"/>
    <tag k="name:fr" v="Munich"/>
    <tag k="name:it" v="Monaco di Baviera"/>
    <tag k="name:lv" v="Minhene"/>
    <tag k="name:pl" v="Monachium"/>
    <tag k="name:pt" v="Munique"/>
    <tag k="name:ru" v="Мюнхен"/>
    <tag k="name:sk" v="Mníchov"/>
    <tag k="openGeoDB:auto_update" v="population,name,is_in"/>
    <tag k="openGeoDB:community_identification_number" v="09162"/>
    <tag k="openGeoDB:is_in" v="Oberbayern,Bayern,Bundesrepublik Deutschland,Europe"/>
    <tag k="openGeoDB:is_in_loc_id" v="166"/>
    <tag k="openGeoDB:layer" v="5"/>
    <tag k="openGeoDB:license_plate_code" v="M"/>
    <tag k="openGeoDB:loc_id" v="212"/>
    <tag k="openGeoDB:location" v="political_structure"/>
    <tag k="openGeoDB:name" v="München"/>
    <tag k="openGeoDB:population" v="1300000"/>
    <tag k="openGeoDB:sort_name" v="MUENCHEN"/>
    <tag k="openGeoDB:telephone_area_code" v="089"/>
    <tag k="openGeoDB:type" v="Landeshauptstadt"/>
    <tag k="openGeoDB:version" v="0.2.6.11 / 2007-12-04 / http://fa-technik.adfc.de/code/opengeodb/dump/"/>
    <tag k="opengeodb:lat" v="48.13724"/>
    <tag k="opengeodb:lon" v="11.5755114"/>
    <tag k="place" v="city"/>
    <tag k="population" v="1311573"/>
    <tag k="wikipedia" v="Munich"/>
  </node>
  <node id="17780035" version="24" timestamp="2009-11-11T17:31:35Z" uid="18069" user="Claudius Henrichs" changeset="3091907" lat="48.1372718" lon="11.5754816">
    <tag k="int_name" v="Munich"/>
    <tag k="is_in" v="Oberbayern,Bayern,Bundesrepublik Deutschland,Europe"/>
    <tag k="is_in:continent" v="Europe"/>
    <tag k="name" v="München"/>
    <tag k="name:bar" v="Minga"/>
    <tag k="name:bg" v="Мюнхен"/>
    <tag k="name:cs" v="Mnichov"/>
    <tag k="name:de" v="München"/>
    <tag k="name:en" v="Munich"/>
    <tag k="name:eo" v="Munkeno"/>
    <tag k="name:es" v="Múnich"/>
    <tag k="name:fa" v="مونیخ"/>
    <tag k="name:fr" v="Munich"/>
    <tag k="name:it" v="Monaco di Baviera"/>
    <tag k="name:lv" v="Minhene"/>
    <tag k="name:pl" v="Monachium"/>
    <tag k="name:pt" v="Munique"/>
    <tag k="name:ru" v="Мюнхен"/>
    <tag k="name:sk" v="Mníchov"/>
    <tag k="openGeoDB:auto_update" v="population,name,is_in"/>
    <tag k="openGeoDB:community_identification_number" v="09162"/>
    <tag k="openGeoDB:is_in" v="Oberbayern,Bayern,Bundesrepublik Deutschland,Europe"/>
    <tag k="openGeoDB:is_in_loc_id" v="166"/>
    <tag k="openGeoDB:layer" v="5"/>
    <tag k="openGeoDB:license_plate_code" v="M"/>
    <tag k="openGeoDB:loc_id" v="212"/>
    <tag k="openGeoDB:location" v="political_structure"/>
    <tag k="openGeoDB:name" v="München"/>
    <tag k="openGeoDB:population" v="1300000"/>
    <tag k="openGeoDB:sort_name" v="MUENCHEN"/>
    <tag k="openGeoDB:telephone_area_code" v="089"/>
    <tag k="openGeoDB:type" v="Landeshauptstadt"/>
    <tag k="openGeoDB:version" v="0.2.6.11 / 2007-12-04 / http://fa-technik.adfc.de/code/opengeodb/dump/"/>
    <tag k="opengeodb:lat" v="48.13724"/>
    <tag k="opengeodb:lon" v="11.5755114"/>
    <tag k="place" v="city"/>
    <tag k="population" v="1311573"/>
    <tag k="wikipedia" v="Munich"/>
  </node>
  <node id="17780035" version="25" timestamp="2009-12-02T22:27:18Z" uid="129607" user="Mage Whopper" changeset="3276205" lat="48.1372719" lon="11.5754815">
    <tag k="int_name" v="Munich"/>
    <tag k="is_in" v="Oberbayern,Bayern,Bundesrepublik Deutschland,Europe"/>
    <tag k="is_in:continent" v="Europe"/>
    <tag k="name" v="München"/>
    <tag k="name:bar" v="Minga"/>
    <tag k="name:bg" v="Мюнхен"/>
    <tag k="name:cs" v="Mnichov"/>
    <tag k="name:de" v="München"/>
    <tag k="name:en" v="Munich"/>
    <tag k="name:eo" v="Munkeno"/>
    <tag k="name:es" v="Múnich"/>
    <tag k="name:fa" v="مونیخ"/>
    <tag k="name:fr" v="Munich"/>
    <tag k="name:it" v="Monaco di Baviera"/>
    <tag k="name:ja" v="ミュンヘン"/>
    <tag k="name:lv" v="Minhene"/>
    <tag k="name:pl" v="Monachium"/>
    <tag k="name:pt" v="Munique"/>
    <tag k="name:ru" v="Мюнхен"/>
    <tag k="name:sk" v="Mníchov"/>
    <tag k="openGeoDB:auto_update" v="population,name,is_in"/>
    <tag k="openGeoDB:community_identification_number" v="09162"/>
    <tag k="openGeoDB:is_in" v="Oberbayern,Bayern,Bundesrepublik Deutschland,Europe"/>
    <tag k="openGeoDB:is_in_loc_id" v="166"/>
    <tag k="openGeoDB:layer" v="5"/>
    <tag k="openGeoDB:license_plate_code" v="M"/>
    <tag k="openGeoDB:loc_id" v="212"/>
    <tag k="openGeoDB:location" v="political_structure"/>
    <tag k="openGeoDB:name" v="München"/>
    <tag k="openGeoDB:population" v="1300000"/>
    <tag k="openGeoDB:sort_name" v="MUENCHEN"/>
    <tag k="openGeoDB:telephone_area_code" v="089"/>
    <tag k="openGeoDB:type" v="Landeshauptstadt"/>
    <tag k="openGeoDB:version" v="0.2.6.11 / 2007-12-04 / http://fa-technik.adfc.de/code/opengeodb/dump/"/>
    <tag k="opengeodb:lat" v="48.13724"/>
    <tag k="opengeodb:lon" v="11.5755114"/>
    <tag k="place" v="city"/>
    <tag k="population" v="1311573"/>
    <tag k="wikipedia" v="Munich"/>
  </node>
  <node id="17780035" version="26" timestamp="2010-03-08T09:37:28Z" uid="221997" user="EuskalMapa" changeset="4069966" lat="48.1372719" lon="11.5754815">
    <tag k="int_name" v="Munich"/>
    <tag k="is_in" v="Oberbayern,Bayern,Bundesrepublik Deutschland,Europe"/>
    <tag k="is_in:continent" v="Europe"/>
    <tag k="name" v="München"/>
    <tag k="name:bar" v="Minga"/>
    <tag k="name:bg" v="Мюнхен"/>
    <tag k="name:cs" v="Mnichov"/>
    <tag k="name:de" v="München"/>
    <tag k="name:en" v="Munich"/>
    <tag k="name:eo" v="Munkeno"/>
    <tag k="name:es" v="Múnich"/>
    <tag k="name:eu" v="Munich"/>
    <tag k="name:fa" v="مونیخ"/>
    <tag k="name:fr" v="Munich"/>
    <tag k="name:it" v="Monaco di Baviera"/>
    <tag k="name:ja" v="ミュンヘン"/>
    <tag k="name:lv" v="Minhene"/>
    <tag k="name:pl" v="Monachium"/>
    <tag k="name:pt" v="Munique"/>
    <tag k="name:ru" v="Мюнхен"/>
    <tag k="name:sk" v="Mníchov"/>
    <tag k="openGeoDB:auto_update" v="population,name,is_in"/>
    <tag k="openGeoDB:community_identification_number" v="09162"/>
    <tag k="openGeoDB:is_in" v="Oberbayern,Bayern,Bundesrepublik Deutschland,Europe"/>
    <tag k="openGeoDB:is_in_loc_id" v="166"/>
    <tag k="openGeoDB:layer" v="5"/>
    <tag k="openGeoDB:license_plate_code" v="M"/>
    <tag k="openGeoDB:loc_id" v="212"/>
    <tag k="openGeoDB:location" v="political_structure"/>
    <tag k="openGeoDB:name" v="München"/>
    <tag k="openGeoDB:population" v="1300000"/>
    <tag k="openGeoDB:sort_name" v="MUENCHEN"/>
    <tag k="openGeoDB:telephone_area_code" v="089"/>
    <tag k="openGeoDB:type" v="Landeshauptstadt"/>
    <tag k="openGeoDB:version" v="0.2.6.11 / 2007-12-04 / http://fa-technik.adfc.de/code/opengeodb/dump/"/>
    <tag k="opengeodb:lat" v="48.13724"/>
    <tag k="opengeodb:lon" v="11.5755114"/>
    <tag k="place" v="city"/>
    <tag k="population" v="1311573"/>
    <tag k="wikipedia" v="Munich"/>
  </node>
  <node id="17780035" version="27" timestamp="2010-05-28T20:17:13Z" uid="148025" user="mvrban" changeset="4835765" lat="48.1372719" lon="11.5754815">
    <tag k="int_name" v="Munich"/>
    <tag k="is_in" v="Oberbayern,Bayern,Bundesrepublik Deutschland,Europe"/>
    <tag k="is_in:continent" v="Europe"/>
    <tag k="name" v="München"/>
    <tag k="name:bar" v="Minga"/>
    <tag k="name:bg" v="Мюнхен"/>
    <tag k="name:cs" v="Mnichov"/>
    <tag k="name:de" v="München"/>
    <tag k="name:en" v="Munich"/>
    <tag k="name:eo" v="Munkeno"/>
    <tag k="name:es" v="Múnich"/>
    <tag k="name:eu" v="Munich"/>
    <tag k="name:fa" v="مونیخ"/>
    <tag k="name:fr" v="Munich"/>
    <tag k="name:hr" v="Minhen"/>
    <tag k="name:it" v="Monaco di Baviera"/>
    <tag k="name:ja" v="ミュンヘン"/>
    <tag k="name:lv" v="Minhene"/>
    <tag k="name:pl" v="Monachium"/>
    <tag k="name:pt" v="Munique"/>
    <tag k="name:ru" v="Мюнхен"/>
    <tag k="name:sk" v="Mníchov"/>
    <tag k="openGeoDB:auto_update" v="population,name,is_in"/>
    <tag k="openGeoDB:community_identification_number" v="09162"/>
    <tag k="openGeoDB:is_in" v="Oberbayern,Bayern,Bundesrepublik Deutschland,Europe"/>
    <tag k="openGeoDB:is_in_loc_id" v="166"/>
    <tag k="openGeoDB:layer" v="5"/>
    <tag k="openGeoDB:license_plate_code" v="M"/>
    <tag k="openGeoDB:loc_id" v="212"/>
    <tag k="openGeoDB:location" v="political_structure"/>
    <tag k="openGeoDB:name" v="München"/>
    <tag k="openGeoDB:population" v="1300000"/>
    <tag k="openGeoDB:sort_name" v="MUENCHEN"/>
    <tag k="openGeoDB:telephone_area_code" v="089"/>
    <tag k="openGeoDB:type" v="Landeshauptstadt"/>
    <tag k="openGeoDB:version" v="0.2.6.11 / 2007-12-04 / http://fa-technik.adfc.de/code/opengeodb/dump/"/>
    <tag k="opengeodb:lat" v="48.13724"/>
    <tag k="opengeodb:lon" v="11.5755114"/>
    <tag k="place" v="city"/>
    <tag k="population" v="1311573"/>
    <tag k="wikipedia" v="Munich"/>
  </node>
  <node id="17780035" version="28" timestamp="2010-08-20T21:44:39Z" uid="59819" user="Fuss-im-Ohr" changeset="5547750" lat="48.1372719" lon="11.5754815">
    <tag k="addr:city" v="München"/>
    <tag k="int_name" v="Munich"/>
    <tag k="is_in" v="Oberbayern,Bayern,Bundesrepublik Deutschland,Europe"/>
    <tag k="is_in:continent" v="Europe"/>
    <tag k="name" v="München"/>
    <tag k="name:bar" v="Minga"/>
    <tag k="name:bg" v="Мюнхен"/>
    <tag k="name:cs" v="Mnichov"/>
    <tag k="name:de" v="München"/>
    <tag k="name:en" v="Munich"/>
    <tag k="name:eo" v="Munkeno"/>
    <tag k="name:es" v="Múnich"/>
    <tag k="name:eu" v="Munich"/>
    <tag k="name:fa" v="مونیخ"/>
    <tag k="name:fr" v="Munich"/>
    <tag k="name:hr" v="Minhen"/>
    <tag k="name:it" v="Monaco di Baviera"/>
    <tag k="name:ja" v="ミュンヘン"/>
    <tag k="name:lv" v="Minhene"/>
    <tag k="name:pl" v="Monachium"/>
    <tag k="name:pt" v="Munique"/>
    <tag k="name:ru" v="Мюнхен"/>
    <tag k="name:sk" v="Mníchov"/>
    <tag k="openGeoDB:auto_update" v="population,name,is_in"/>
    <tag k="openGeoDB:community_identification_number" v="09162"/>
    <tag k="openGeoDB:is_in" v="Oberbayern,Bayern,Bundesrepublik Deutschland,Europe"/>
    <tag k="openGeoDB:is_in_loc_id" v="166"/>
    <tag k="openGeoDB:layer" v="5"/>
    <tag k="openGeoDB:license_plate_code" v="M"/>
    <tag k="openGeoDB:loc_id" v="212"/>
    <tag k="openGeoDB:location" v="political_structure"/>
    <tag k="openGeoDB:name" v="München"/>
    <tag k="openGeoDB:population" v="1300000"/>
    <tag k="openGeoDB:sort_name" v="MUENCHEN"/>
    <tag k="openGeoDB:telephone_area_code" v="089"/>
    <tag k="openGeoDB:type" v="Landeshauptstadt"/>
    <tag k="openGeoDB:version" v="0.2.6.11 / 2007-12-04 / http://fa-technik.adfc.de/code/opengeodb/dump/"/>
    <tag k="opengeodb:lat" v="48.13724"/>
    <tag k="opengeodb:lon" v="11.5755114"/>
    <tag k="place" v="city"/>
    <tag k="population" v="1311573"/>
    <tag k="wikipedia" v="Munich"/>
  </node>
  <node id="17780035" version="29" timestamp="2010-09-04T16:39:01Z" uid="7596" user="ck3d" changeset="5680400" lat="48.1372719" lon="11.5754815">
    <tag k="addr:city" v="München"/>
    <tag k="int_name" v="Munich"/>
    <tag k="is_in" v="Oberbayern,Bayern,Bundesrepublik Deutschland,Europe"/>
    <tag k="is_in:continent" v="Europe"/>
    <tag k="name" v="München"/>
    <tag k="name:bar" v="Minga"/>
    <tag k="name:bg" v="Мюнхен"/>
    <tag k="name:cs" v="Mnichov"/>
    <tag k="name:de" v="München"/>
    <tag k="name:en" v="Munich"/>
    <tag k="name:eo" v="Munkeno"/>
    <tag k="name:es" v="Múnich"/>
    <tag k="name:eu" v="Munich"/>
    <tag k="name:fa" v="مونیخ"/>
    <tag k="name:fr" v="Munich"/>
    <tag k="name:hr" v="Minhen"/>
    <tag k="name:it" v="Monaco di Baviera"/>
    <tag k="name:ja" v="ミュンヘン"/>
    <tag k="name:lv" v="Minhene"/>
    <tag k="name:pl" v="Monachium"/>
    <tag k="name:pt" v="Munique"/>
    <tag k="name:ru" v="Мюнхен"/>
    <tag k="name:sk" v="Mníchov"/>
    <tag k="openGeoDB:auto_update" v="population,name,is_in"/>
    <tag k="openGeoDB:community_identification_number" v="09162"/>
    <tag k="openGeoDB:is_in" v="Oberbayern,Bayern,Bundesrepublik Deutschland,Europe"/>
    <tag k="openGeoDB:is_in_loc_id" v="166"/>
    <tag k="openGeoDB:layer" v="5"/>
    <tag k="openGeoDB:license_plate_code" v="M"/>
    <tag k="openGeoDB:loc_id" v="212"/>
    <tag k="openGeoDB:location" v="political_structure"/>
    <tag k="openGeoDB:name" v="München"/>
    <tag k="openGeoDB:population" v="1300000"/>
    <tag k="openGeoDB:sort_name" v="MUENCHEN"/>
    <tag k="openGeoDB:telephone_area_code" v="089"/>
    <tag k="openGeoDB:type" v="Landeshauptstadt"/>
    <tag k="openGeoDB:version" v="0.2.6.11 / 2007-12-04 / http://fa-technik.adfc.de/code/opengeodb/dump/"/>
    <tag k="opengeodb:lat" v="48.13724"/>
    <tag k="opengeodb:lon" v="11.5755114"/>
    <tag k="place" v="city"/>
    <tag k="population" v="1311573"/>
    <tag k="website" v="http://www.muenchen.de/"/>
    <tag k="wikipedia:de" v="München"/>
    <tag k="wikipedia:en" v="Munich"/>
  </node>
  <node id="17780035" version="30" timestamp="2011-01-24T12:39:09Z" uid="393666" user="etrumap" changeset="7072524" lat="48.1372719" lon="11.5754815">
    <tag k="addr:city" v="München"/>
    <tag k="capital" v="4"/>
    <tag k="int_name" v="Munich"/>
    <tag k="is_in" v="Oberbayern,Bayern,Bundesrepublik Deutschland,Europe"/>
    <tag k="is_in:continent" v="Europe"/>
    <tag k="name" v="München"/>
    <tag k="name:bar" v="Minga"/>
    <tag k="name:bg" v="Мюнхен"/>
    <tag k="name:cs" v="Mnichov"/>
    <tag k="name:de" v="München"/>
    <tag k="name:en" v="Munich"/>
    <tag k="name:eo" v="Munkeno"/>
    <tag k="name:es" v="Múnich"/>
    <tag k="name:eu" v="Munich"/>
    <tag k="name:fa" v="مونیخ"/>
    <tag k="name:fr" v="Munich"/>
    <tag k="name:hr" v="Minhen"/>
    <tag k="name:it" v="Monaco di Baviera"/>
    <tag k="name:ja" v="ミュンヘン"/>
    <tag k="name:lv" v="Minhene"/>
    <tag k="name:pl" v="Monachium"/>
    <tag k="name:pt" v="Munique"/>
    <tag k="name:ru" v="Мюнхен"/>
    <tag k="name:sk" v="Mníchov"/>
    <tag k="openGeoDB:auto_update" v="population,name,is_in"/>
    <tag k="openGeoDB:community_identification_number" v="09162"/>
    <tag k="openGeoDB:is_in" v="Oberbayern,Bayern,Bundesrepublik Deutschland,Europe"/>
    <tag k="openGeoDB:is_in_loc_id" v="166"/>
    <tag k="openGeoDB:layer" v="5"/>
    <tag k="openGeoDB:license_plate_code" v="M"/>
    <tag k="openGeoDB:loc_id" v="212"/>
    <tag k="openGeoDB:location" v="political_structure"/>
    <tag k="openGeoDB:name" v="München"/>
    <tag k="openGeoDB:population" v="1300000"/>
    <tag k="openGeoDB:sort_name" v="MUENCHEN"/>
    <tag k="openGeoDB:telephone_area_code" v="089"/>
    <tag k="openGeoDB:type" v="Landeshauptstadt"/>
    <tag k="openGeoDB:version" v="0.2.6.11 / 2007-12-04 / http://fa-technik.adfc.de/code/opengeodb/dump/"/>
    <tag k="opengeodb:lat" v="48.13724"/>
    <tag k="opengeodb:lon" v="11.5755114"/>
    <tag k="place" v="city"/>
    <tag k="population" v="1311573"/>
    <tag k="website" v="http://www.muenchen.de/"/>
    <tag k="wikipedia:de" v="München"/>
    <tag k="wikipedia:en" v="Munich"/>
  </node>
  <node id="17780035" version="31" timestamp="2011-05-14T17:44:23Z" uid="212207" user="SunCobalt" changeset="8143600" lat="48.1372719" lon="11.5754815">
    <tag k="addr:city" v="München"/>
    <tag k="capital" v="4"/>
    <tag k="int_name" v="Munich"/>
    <tag k="is_in" v="Oberbayern,Bayern,Bundesrepublik Deutschland,Europe"/>
    <tag k="is_in:continent" v="Europe"/>
    <tag k="name" v="München"/>
    <tag k="name:bar" v="Minga"/>
    <tag k="name:bg" v="Мюнхен"/>
    <tag k="name:cs" v="Mnichov"/>
    <tag k="name:de" v="München"/>
    <tag k="name:en" v="Munich"/>
    <tag k="name:eo" v="Munkeno"/>
    <tag k="name:es" v="Múnich"/>
    <tag k="name:eu" v="Munich"/>
    <tag k="name:fa" v="مونیخ"/>
    <tag k="name:fr" v="Munich"/>
    <tag k="name:hr" v="Minhen"/>
    <tag k="name:it" v="Monaco di Baviera"/>
    <tag k="name:ja" v="ミュンヘン"/>
    <tag k="name:lv" v="Minhene"/>
    <tag k="name:pl" v="Monachium"/>
    <tag k="name:pt" v="Munique"/>
    <tag k="name:ru" v="Мюнхен"/>
    <tag k="name:sk" v="Mníchov"/>
    <tag k="name:sr" v="Минхен"/>
    <tag k="openGeoDB:auto_update" v="population,name,is_in"/>
    <tag k="openGeoDB:community_identification_number" v="09162"/>
    <tag k="openGeoDB:is_in" v="Oberbayern,Bayern,Bundesrepublik Deutschland,Europe"/>
    <tag k="openGeoDB:is_in_loc_id" v="166"/>
    <tag k="openGeoDB:layer" v="5"/>
    <tag k="openGeoDB:license_plate_code" v="M"/>
    <tag k="openGeoDB:loc_id" v="212"/>
    <tag k="openGeoDB:location" v="political_structure"/>
    <tag k="openGeoDB:name" v="München"/>
    <tag k="openGeoDB:population" v="1300000"/>
    <tag k="openGeoDB:sort_name" v="MUENCHEN"/>
    <tag k="openGeoDB:telephone_area_code" v="089"/>
    <tag k="openGeoDB:type" v="Landeshauptstadt"/>
    <tag k="openGeoDB:version" v="0.2.6.11 / 2007-12-04 / http://fa-technik.adfc.de/code/opengeodb/dump/"/>
    <tag k="opengeodb:lat" v="48.13724"/>
    <tag k="opengeodb:lon" v="11.5755114"/>
    <tag k="place" v="city"/>
    <tag k="population" v="1311573"/>
    <tag k="website" v="http://www.muenchen.de/"/>
    <tag k="wikipedia:de" v="München"/>
    <tag k="wikipedia:en" v="Munich"/>
  </node>
  <node id="17780035" version="32" timestamp="2011-07-10T14:16:10Z" uid="39966" user="free_as_a_bird" changeset="8683993" lat="48.1372719" lon="11.5754815">
    <tag k="addr:city" v="München"/>
    <tag k="capital" v="4"/>
    <tag k="int_name" v="Munich"/>
    <tag k="is_in" v="Oberbayern,Bayern,Bundesrepublik Deutschland,Europe"/>
    <tag k="is_in:continent" v="Europe"/>
    <tag k="name" v="München"/>
    <tag k="name:bar" v="Minga"/>
    <tag k="name:bg" v="Мюнхен"/>
    <tag k="name:cs" v="Mnichov"/>
    <tag k="name:de" v="München"/>
    <tag k="name:en" v="Munich"/>
    <tag k="name:eo" v="Munkeno"/>
    <tag k="name:es" v="Múnich"/>
    <tag k="name:eu" v="Munich"/>
    <tag k="name:fa" v="مونیخ"/>
    <tag k="name:fr" v="Munich"/>
    <tag k="name:hr" v="Minhen"/>
    <tag k="name:it" v="Monaco di Baviera"/>
    <tag k="name:ja" v="ミュンヘン"/>
    <tag k="name:lv" v="Minhene"/>
    <tag k="name:pl" v="Monachium"/>
    <tag k="name:pt" v="Munique"/>
    <tag k="name:ru" v="Мюнхен"/>
    <tag k="name:sk" v="Mníchov"/>
    <tag k="name:sr" v="Минхен"/>
    <tag k="name:zh" v="慕尼黑"/>
    <tag k="openGeoDB:auto_update" v="population,name,is_in"/>
    <tag k="openGeoDB:community_identification_number" v="09162"/>
    <tag k="openGeoDB:is_in" v="Oberbayern,Bayern,Bundesrepublik Deutschland,Europe"/>
    <tag k="openGeoDB:is_in_loc_id" v="166"/>
    <tag k="openGeoDB:layer" v="5"/>
    <tag k="openGeoDB:license_plate_code" v="M"/>
    <tag k="openGeoDB:loc_id" v="212"/>
    <tag k="openGeoDB:location" v="political_structure"/>
    <tag k="openGeoDB:name" v="München"/>
    <tag k="openGeoDB:population" v="1300000"/>
    <tag k="openGeoDB:sort_name" v="MUENCHEN"/>
    <tag k="openGeoDB:telephone_area_code" v="089"/>
    <tag k="openGeoDB:type" v="Landeshauptstadt"/>
    <tag k="openGeoDB:version" v="0.2.6.11 / 2007-12-04 / http://fa-technik.adfc.de/code/opengeodb/dump/"/>
    <tag k="opengeodb:lat" v="48.13724"/>
    <tag k="opengeodb:lon" v="11.5755114"/>
    <tag k="place" v="city"/>
    <tag k="population" v="1311573"/>
    <tag k="website" v="http://www.muenchen.de/"/>
    <tag k="wikipedia:de" v="München"/>
    <tag k="wikipedia:en" v="Munich"/>
  </node>
  <node id="17780035" version="33" timestamp="2011-08-18T23:45:08Z" uid="56526" user="JJ Rammerl" changeset="9061675" lat="48.1372719" lon="11.5754815">
    <tag k="addr:city" v="München"/>
    <tag k="addr:country" v="DE"/>
    <tag k="capital" v="4"/>
    <tag k="int_name" v="Munich"/>
    <tag k="is_in" v="Oberbayern,Bayern,Bundesrepublik Deutschland,Europe"/>
    <tag k="is_in:continent" v="Europe"/>
    <tag k="name" v="München"/>
    <tag k="name:bar" v="Minga"/>
    <tag k="name:bg" v="Мюнхен"/>
    <tag k="name:cs" v="Mnichov"/>
    <tag k="name:de" v="München"/>
    <tag k="name:en" v="Munich"/>
    <tag k="name:eo" v="Munkeno"/>
    <tag k="name:es" v="Múnich"/>
    <tag k="name:eu" v="Munich"/>
    <tag k="name:fa" v="مونیخ"/>
    <tag k="name:fr" v="Munich"/>
    <tag k="name:hr" v="Minhen"/>
    <tag k="name:it" v="Monaco di Baviera"/>
    <tag k="name:ja" v="ミュンヘン"/>
    <tag k="name:lv" v="Minhene"/>
    <tag k="name:pl" v="Monachium"/>
    <tag k="name:pt" v="Munique"/>
    <tag k="name:ru" v="Мюнхен"/>
    <tag k="name:sk" v="Mníchov"/>
    <tag k="name:sr" v="Минхен"/>
    <tag k="name:zh" v="慕尼黑"/>
    <tag k="openGeoDB:auto_update" v="population,name,is_in"/>
    <tag k="openGeoDB:community_identification_number" v="09162"/>
    <tag k="openGeoDB:is_in" v="Oberbayern,Bayern,Bundesrepublik Deutschland,Europe"/>
    <tag k="openGeoDB:is_in_loc_id" v="166"/>
    <tag k="openGeoDB:layer" v="5"/>
    <tag k="openGeoDB:license_plate_code" v="M"/>
    <tag k="openGeoDB:loc_id" v="212"/>
    <tag k="openGeoDB:location" v="political_structure"/>
    <tag k="openGeoDB:name" v="München"/>
    <tag k="openGeoDB:population" v="1300000"/>
    <tag k="openGeoDB:sort_name" v="MUENCHEN"/>
    <tag k="openGeoDB:telephone_area_code" v="089"/>
    <tag k="openGeoDB:type" v="Landeshauptstadt"/>
    <tag k="openGeoDB:version" v="0.2.6.11 / 2007-12-04 / http://fa-technik.adfc.de/code/opengeodb/dump/"/>
    <tag k="opengeodb:lat" v="48.13724"/>
    <tag k="opengeodb:lon" v="11.5755114"/>
    <tag k="place" v="city"/>
    <tag k="population" v="1311573"/>
    <tag k="website" v="http://www.muenchen.de/"/>
    <tag k="wikipedia:de" v="München"/>
    <tag k="wikipedia:en" v="Munich"/>
  </node>
  <node id="17780035" version="34" timestamp="2011-09-26T15:06:55Z" uid="56526" user="JJ Rammerl" changeset="9402752" lat="48.1372719" lon="11.5754815">
    <tag k="capital" v="4"/>
    <tag k="int_name" v="Munich"/>
    <tag k="is_in" v="Oberbayern,Bayern,Bundesrepublik Deutschland,Europe"/>
    <tag k="is_in:continent" v="Europe"/>
    <tag k="name" v="München"/>
    <tag k="name:bar" v="Minga"/>
    <tag k="name:bg" v="Мюнхен"/>
    <tag k="name:cs" v="Mnichov"/>
    <tag k="name:de" v="München"/>
    <tag k="name:en" v="Munich"/>
    <tag k="name:eo" v="Munkeno"/>
    <tag k="name:es" v="Múnich"/>
    <tag k="name:eu" v="Munich"/>
    <tag k="name:fa" v="مونیخ"/>
    <tag k="name:fr" v="Munich"/>
    <tag k="name:hr" v="Minhen"/>
    <tag k="name:it" v="Monaco di Baviera"/>
    <tag k="name:ja" v="ミュンヘン"/>
    <tag k="name:lv" v="Minhene"/>
    <tag k="name:pl" v="Monachium"/>
    <tag k="name:pt" v="Munique"/>
    <tag k="name:ru" v="Мюнхен"/>
    <tag k="name:sk" v="Mníchov"/>
    <tag k="name:sr" v="Минхен"/>
    <tag k="name:zh" v="慕尼黑"/>
    <tag k="openGeoDB:auto_update" v="population,name,is_in"/>
    <tag k="openGeoDB:community_identification_number" v="09162"/>
    <tag k="openGeoDB:is_in" v="Oberbayern,Bayern,Bundesrepublik Deutschland,Europe"/>
    <tag k="openGeoDB:is_in_loc_id" v="166"/>
    <tag k="openGeoDB:layer" v="5"/>
    <tag k="openGeoDB:license_plate_code" v="M"/>
    <tag k="openGeoDB:loc_id" v="212"/>
    <tag k="openGeoDB:location" v="political_structure"/>
    <tag k="openGeoDB:name" v="München"/>
    <tag k="openGeoDB:population" v="1300000"/>
    <tag k="openGeoDB:sort_name" v="MUENCHEN"/>
    <tag k="openGeoDB:telephone_area_code" v="089"/>
    <tag k="openGeoDB:type" v="Landeshauptstadt"/>
    <tag k="openGeoDB:version" v="0.2.6.11 / 2007-12-04 / http://fa-technik.adfc.de/code/opengeodb/dump/"/>
    <tag k="opengeodb:lat" v="48.13724"/>
    <tag k="opengeodb:lon" v="11.5755114"/>
    <tag k="place" v="city"/>
    <tag k="population" v="1311573"/>
    <tag k="website" v="http://www.muenchen.de/"/>
    <tag k="wikipedia:de" v="München"/>
    <tag k="wikipedia:en" v="Munich"/>
  </node>
  <node id="17780035" version="35" timestamp="2012-01-24T12:51:04Z" uid="64164" user="osmkurt" changeset="10484152" lat="48.1372719" lon="11.5754815">
    <tag k="capital" v="4"/>
    <tag k="int_name" v="Munich"/>
    <tag k="is_in" v="Oberbayern,Bayern,Bundesrepublik Deutschland,Europe"/>
    <tag k="is_in:continent" v="Europe"/>
    <tag k="name" v="München"/>
    <tag k="name:bar" v="Minga"/>
    <tag k="name:bg" v="Мюнхен"/>
    <tag k="name:cs" v="Mnichov"/>
    <tag k="name:de" v="München"/>
    <tag k="name:en" v="Munich"/>
    <tag k="name:eo" v="Munkeno"/>
    <tag k="name:es" v="Múnich"/>
    <tag k="name:eu" v="Munich"/>
    <tag k="name:fa" v="مونیخ"/>
    <tag k="name:fr" v="Munich"/>
    <tag k="name:hr" v="Minhen"/>
    <tag k="name:it" v="Monaco di Baviera"/>
    <tag k="name:ja" v="ミュンヘン"/>
    <tag k="name:lv" v="Minhene"/>
    <tag k="name:pl" v="Monachium"/>
    <tag k="name:pt" v="Munique"/>
    <tag k="name:ru" v="Мюнхен"/>
    <tag k="name:sk" v="Mníchov"/>
    <tag k="name:sr" v="Минхен"/>
    <tag k="name:tr" v="Münih"/>
    <tag k="name:zh" v="慕尼黑"/>
    <tag k="openGeoDB:auto_update" v="population,name,is_in"/>
    <tag k="openGeoDB:community_identification_number" v="09162"/>
    <tag k="openGeoDB:is_in" v="Oberbayern,Bayern,Bundesrepublik Deutschland,Europe"/>
    <tag k="openGeoDB:is_in_loc_id" v="166"/>
    <tag k="openGeoDB:layer" v="5"/>
    <tag k="openGeoDB:license_plate_code" v="M"/>
    <tag k="openGeoDB:loc_id" v="212"/>
    <tag k="openGeoDB:location" v="political_structure"/>
    <tag k="openGeoDB:name" v="München"/>
    <tag k="openGeoDB:population" v="1300000"/>
    <tag k="openGeoDB:sort_name" v="MUENCHEN"/>
    <tag k="openGeoDB:telephone_area_code" v="089"/>
    <tag k="openGeoDB:type" v="Landeshauptstadt"/>
    <tag k="openGeoDB:version" v="0.2.6.11 / 2007-12-04 / http://fa-technik.adfc.de/code/opengeodb/dump/"/>
    <tag k="opengeodb:lat" v="48.13724"/>
    <tag k="opengeodb:lon" v="11.5755114"/>
    <tag k="place" v="city"/>
    <tag k="population" v="1311573"/>
    <tag k="website" v="http://www.muenchen.de/"/>
    <tag k="wikipedia:de" v="München"/>
    <tag k="wikipedia:en" v="Munich"/>
  </node>
</osm>
