<?xml version='1.0' encoding='UTF-8'?>
<osm version="0.6" generator="libosmium/2.20.0">
  <node id="17974736" version="17" timestamp="2009-07-22T19:59:00Z" uid="20587" user="balrog-kun" changeset="1908820" lat="48.1535383" lon="17.1096711">
    <tag k="capital" v="yes"/>
    <tag k="int_name" v="Bratislava"/>
    <tag k="is_in" v="Slovakia,Europe"/>
    <tag k="is_in:continent" v="Europe"/>
    <tag k="name" v="Bratislava"/>
    <tag k="name:de" v="Pressburg"/>
    <tag k="name:eo" v="Bratislavo"/>
    <tag k="name:hu" v="Pozsony"/>
    <tag k="name:pl" v="Bratysława"/>
    <tag k="old_name" v="Pressburg"/>
    <tag k="old_name:sk" v="Prešporok"/>
    <tag k="place" v="city"/>
    <tag k="population" v="427000"/>
    <tag k="wikipedia" v="Bratislava"/>
  </node>
  <node id="17974736" version="18" timestamp="2009-08-04T22:44:55Z" uid="10610" user="RedFox" changeset="2040817" lat="48.1535383" lon="17.1096711">
    <tag k="capital" v="yes"/>
    <tag k="int_name" v="Bratislava"/>
    <tag k="is_in" v="Slovakia,Europe"/>
    <tag k="is_in:continent" v="Europe"/>
    <tag k="name" v="Bratislava"/>
    <tag k="name:de" v="Pressburg"/>
    <tag k="name:eo" v="Bratislavo"/>
    <tag k="name:fr" v="Bratislava"/>
    <tag k="name:hu" v="Pozsony"/>
    <tag k="name:pl" v="Bratysława"/>
    <tag k="old_name" v="Pressburg"/>
    <tag k="old_name:sk" v="Prešporok"/>
    <tag k="place" v="city"/>
    <tag k="population" v="427000"/>
    <tag k="wikipedia" v="Bratislava"/>
    <tag k="wikipedia:fr" v="Bratislava"/>
  </node>
  <node id="17974736" version="19" timestamp="2009-08-16T10:40:18Z" uid="33377" user="Victor LP" changeset="2163565" lat="48.1535383" lon="17.1096711">
    <tag k="capital" v="yes"/>
    <tag k="int_name" v="Bratislava"/>
    <tag k="is_in" v="Slovakia,Europe"/>
    <tag k="is_in:continent" v="Europe"/>
    <tag k="name" v="Bratislava"/>
    <tag k="name:de" v="Pressburg"/>
    <tag k="name:el" v="Μπρατισλάβα"/>
    <tag k="name:eo" v="Bratislavo"/>
    <tag k="name:fr" v="Bratislava"/>
    <tag k="name:hu" v="Pozsony"/>
    <tag k="name:pl" v="Bratysława"/>
    <tag k="old_name" v="Pressburg"/>
    <tag k="old_name:sk" v="Prešporok"/>
    <tag k="place" v="city"/>
    <tag k="population" v="427000"/>
    <tag k="wikipedia" v="Bratislava"/>
    <tag k="wikipedia:fr" v="Bratislava"/>
  </node>
  <node id="17974736" version="20" timestamp="2009-09-02T07:54:51Z" uid="115468" user="platlas23" changeset="2345941" lat="48.1535383" lon="17.1096711">
    <tag k="capital" v="yes"/>
    <tag k="int_name" v="Bratislava"/>
    <tag k="is_in" v="Slovakia,Europe"/>
    <tag k="is_in:continent" v="Europe"/>
    <tag k="name" v="Bratislava"/>
    <tag k="name:de" v="Pressburg"/>
    <tag k="name:el" v="Μπρατισλάβα"/>
    <tag k="name:eo" v="Bratislavo"/>
    <tag k="name:fr" v="Bratislava"/>
    <tag k="name:gr" v="Mπρατισλάβα"/>
    <tag k="name:he" v="ברטיסלאבה"/>
    <tag k="name:hr" v="Bratislavo"/>
    <tag k="name:hu" v="Pozsony"/>
    <tag k="name:pl" v="Bratysława"/>
    <tag k="name:ru" v="Братислава"/>
    <tag k="old_name" v="Pressburg"/>
    <tag k="old_name:gr" v="Istropolis"/>
    <tag k="old_name:la" v="Posonium"/>
    <tag k="old_name:sk" v="Prešporok"/>
    <tag k="place" v="city"/>
    <tag k="population" v="427000"/>
    <tag k="wikipedia" v="Bratislava"/>
    <tag k="wikipedia:fr" v="Bratislava"/>
  </node>
  <node id="17974736" version="21" timestamp="2009-09-04T13:44:06Z" uid="165177" user="Milan Dimof" changeset="2369929" lat="48.1535383" lon="17.1096711">
    <tag k="capital" v="yes"/>
    <tag k="city_id" v="582000"/>
    <tag k="int_name" v="Bratislava"/>
    <tag k="is_in" v="Slovakia,Europe"/>
    <tag k="is_in:continent" v="Europe"/>
    <tag k="name" v="Bratislava"/>
    <tag k="name:de" v="Pressburg"/>
    <tag k="name:el" v="Μπρατισλάβα"/>
    <tag k="name:eo" v="Bratislavo"/>
    <tag k="name:fr" v="Bratislava"/>
    <tag k="name:gr" v="Mπρατισλάβα"/>
    <tag k="name:he" v="ברטיסלאבה"/>
    <tag k="name:hr" v="Bratislavo"/>
    <tag k="name:hu" v="Pozsony"/>
    <tag k="name:pl" v="Bratysława"/>
    <tag k="name:ru" v="Братислава"/>
    <tag k="old_name" v="Pressburg"/>
    <tag k="old_name:gr" v="Istropolis"/>
    <tag k="old_name:la" v="Posonium"/>
    <tag k="old_name:sk" v="Prešporok"/>
    <tag k="place" v="city"/>
    <tag k="population" v="427000"/>
    <tag k="wikipedia" v="Bratislava"/>
    <tag k="wikipedia:fr" v="Bratislava"/>
  </node>
  <node id="17974736" version="22" timestamp="2009-09-06T19:42:55Z" uid="24965" user="Ævar Arnfjörð Bjarmason" changeset="2395774" lat="48.1535383" lon="17.1096711">
    <tag k="capital" v="yes"/>
    <tag k="city_id" v="582000"/>
    <tag k="int_name" v="Bratislava"/>
    <tag k="is_in" v="Slovakia,Europe"/>
    <tag k="is_in:continent" v="Europe"/>
    <tag k="name" v="Bratislava"/>
    <tag k="name:de" v="Pressburg"/>
    <tag k="name:el" v="Μπρατισλάβα"/>
    <tag k="name:eo" v="Bratislavo"/>
    <tag k="name:fr" v="Bratislava"/>
    <tag k="name:gr" v="Mπρατισλάβα"/>
    <tag k="name:he" v="ברטיסלאבה"/>
    <tag k="name:hr" v="Bratislavo"/>
    <tag k="name:hu" v="Pozsony"/>
    <tag k="name:is" v="Bratislava"/>
    <tag k="name:pl" v="Bratysława"/>
    <tag k="name:ru" v="Братислава"/>
    <tag k="old_name" v="Pressburg"/>
    <tag k="old_name:gr" v="Istropolis"/>
    <tag k="old_name:la" v="Posonium"/>
    <tag k="old_name:sk" v="Prešporok"/>
    <tag k="place" v="city"/>
    <tag k="population" v="427000"/>
    <tag k="wikipedia" v="Bratislava"/>
    <tag k="wikipedia:fr" v="Bratislava"/>
  </node>
  <node id="17974736" version="23" timestamp="2009-10-13T14:53:57Z" uid="184713" user="nobonn" changeset="2836925" lat="48.1535383" lon="17.1096711">
    <tag k="capital" v="yes"/>
    <tag k="city_id" v="582000"/>
    <tag k="int_name" v="Bratislava"/>
    <tag k="is_in" v="Slovakia,Europe"/>
    <tag k="is_in:continent" v="Europe"/>
    <tag k="name" v="Bratislava"/>
    <tag k="name:de" v="Pressburg"/>
    <tag k="name:el" v="Μπρατισλάβα"/>
    <tag k="name:eo" v="Bratislavo"/>
    <tag k="name:fr" v="Bratislava"/>
    <tag k="name:gr" v="Mπρατισλάβα"/>
    <tag k="name:he" v="ברטיסלאבה"/>
    <tag k="name:hr" v="Bratislavo"/>
    <tag k="name:hu" v="Pozsony"/>
    <tag k="name:is" v="Bratislava"/>
    <tag k="name:pl" v="Bratysława"/>
    <tag k="name:ru" v="Братислава"/>
    <tag k="old_name" v="Pressburg"/>
    <tag k="old_name:gr" v="Istropolis"/>
    <tag k="old_name:la" v="Posonium"/>
    <tag k="old_name:sk" v="Prešporok"/>
    <tag k="place" v="city"/>
    <tag k="population" v="426927"/>
    <tag k="wikipedia" v="Bratislava"/>
    <tag k="wikipedia:fr" v="Bratislava"/>
  </node>
  <node id="17974736" version="24" timestamp="2009-10-14T06:45:08Z" uid="184713" user="nobonn" changeset="2842548" lat="48.1535383" lon="17.1096711">
    <tag k="capital" v="yes"/>
    <tag k="city_id" v="582000"/>
    <tag k="int_name" v="Bratislava"/>
    <tag k="is_in" v="Slovakia,Europe"/>
    <tag k="is_in:continent" v="Europe"/>
    <tag k="name" v="Bratislava"/>
    <tag k="name:de" v="Pressburg"/>
    <tag k="name:el" v="Μπρατισλάβα"/>
    <tag k="name:eo" v="Bratislavo"/>
    <tag k="name:fr" v="Bratislava"/>
    <tag k="name:gr" v="Mπρατισλάβα"/>
    <tag k="name:he" v="ברטיסלאבה"/>
    <tag k="name:hr" v="Bratislavo"/>
    <tag k="name:hu" v="Pozsony"/>
    <tag k="name:is" v="Bratislava"/>
    <tag k="name:pl" v="Bratysława"/>
    <tag k="name:ru" v="Братислава"/>
    <tag k="old_name" v="Pressburg"/>
    <tag k="old_name:gr" v="Istropolis"/>
    <tag k="old_name:la" v="Posonium"/>
    <tag k="old_name:sk" v="Prešporok"/>
    <tag k="place" v="city"/>
    <tag k="population" v="426927"/>
    <tag k="wikipedia" v="Bratislava"/>
    <tag k="wikipedia:fr" v="Bratislava"/>
  </node>
</osm>
