<?xml version='1.0' encoding='UTF-8'?>
<osm version="0.6" generator="libosmium/2.20.0">
  <node id="180137282" version="2" timestamp="2008-02-16T19:38:21Z" uid="6975" user="ulfl" changeset="141861" lat="50.8738427" lon="4.6879549">
    <tag k="highway" v="bus_stop"/>
  </node>
  <node id="180137282" version="3" timestamp="2010-12-07T09:32:16Z" uid="15188" user="Polyglot" changeset="6572498" lat="50.8737002" lon="4.6880742">
    <tag k="highway" v="bus_stop"/>
  </node>
  <node id="180137282" version="4" timestamp="2010-12-07T12:02:37Z" uid="15188" user="Polyglot" changeset="6573795" lat="50.8736969" lon="4.6880516">
    <tag k="highway" v="bus_stop"/>
  </node>
  <node id="180137282" version="5" timestamp="2011-01-28T23:59:57Z" uid="15188" user="Polyglot" changeset="7118396" lat="50.8736969" lon="4.6880516">
    <tag k="highway" v="bus_stop"/>
    <tag k="name" v="Ijzerenmolenstraat"/>
    <tag k="operator" v="De Lijn"/>
    <tag k="ref" v="33044"/>
    <tag k="zone" v="40"/>
  </node>
  <node id="180137282" version="6" timestamp="2011-03-11T11:18:48Z" uid="15188" user="Polyglot" changeset="7522310" lat="50.8736981" lon="4.6880478">
    <tag k="addr:city" v="Leuven"/>
    <tag k="addr:street" v="Tervuursevest"/>
    <tag k="highway" v="bus_stop"/>
    <tag k="name" v="IJzerenmolenstraat"/>
    <tag k="operator" v="De Lijn"/>
    <tag k="ref" v="303045"/>
    <tag k="route_ref" v="178;307;318"/>
    <tag k="source" v="survey;bing"/>
    <tag k="zone" v="40"/>
  </node>
  <node id="180137282" version="7" timestamp="2011-08-13T01:17:22Z" uid="15188" user="Polyglot" changeset="9001421" lat="50.8736981" lon="4.6880478"/>
  <node id="180137531" version="2" timestamp="2008-02-16T19:37:58Z" uid="6975" user="ulfl" changeset="141861" lat="50.8732795" lon="4.6884441">
    <tag k="highway" v="bus_stop"/>
  </node>
  <node id="180137531" version="3" timestamp="2010-08-15T08:15:24Z" uid="317031" user="ivodeb" changeset="5496778" lat="50.87311" lon="4.6884904">
    <tag k="highway" v="bus_stop"/>
    <tag k="name" v="IJzerenmolenstraat"/>
    <tag k="operator" v="De Lijn"/>
    <tag k="zone" v="40"/>
  </node>
  <node id="180137531" version="4" timestamp="2010-08-15T08:43:27Z" uid="317031" user="ivodeb" changeset="5496778" lat="50.87311" lon="4.6884904">
    <tag k="highway" v="bus_stop"/>
    <tag k="name" v="IJzerenmolenstraat"/>
    <tag k="operator" v="De Lijn"/>
    <tag k="ref" v="32933"/>
    <tag k="zone" v="40"/>
  </node>
  <node id="180137531" version="5" timestamp="2010-10-30T13:50:18Z" uid="253266" user="Sanderd17" changeset="6228119" lat="50.872542" lon="4.6877918">
    <tag k="highway" v="bus_stop"/>
    <tag k="name" v="IJzerenmolenstraat"/>
    <tag k="operator" v="De Lijn"/>
    <tag k="ref" v="32933"/>
    <tag k="zone" v="40"/>
  </node>
  <node id="180137531" version="6" timestamp="2010-12-07T09:31:40Z" uid="15188" user="Polyglot" changeset="6572498" lat="50.8725336" lon="4.6878745">
    <tag k="highway" v="bus_stop"/>
    <tag k="name" v="IJzermolenstraat"/>
    <tag k="operator" v="De Lijn"/>
    <tag k="ref" v="32933"/>
    <tag k="zone" v="40"/>
  </node>
  <node id="180137531" version="7" timestamp="2011-01-29T00:00:01Z" uid="15188" user="Polyglot" changeset="7118396" lat="50.8725336" lon="4.6878745">
    <tag k="highway" v="bus_stop"/>
    <tag k="name" v="Ijzerenmolenstraat"/>
    <tag k="operator" v="De Lijn"/>
    <tag k="ref" v="32933"/>
    <tag k="zone" v="40"/>
  </node>
  <node id="180137531" version="8" timestamp="2011-03-11T11:18:48Z" uid="15188" user="Polyglot" changeset="7522310" lat="50.8725336" lon="4.6878745">
    <tag k="addr:city" v="Leuven"/>
    <tag k="addr:street" v="IJzerenmolenstraat"/>
    <tag k="bench" v="yes"/>
    <tag k="bin" v="yes"/>
    <tag k="highway" v="bus_stop"/>
    <tag k="name" v="IJzerenmolenstraat"/>
    <tag k="operator" v="De Lijn"/>
    <tag k="ref" v="302933"/>
    <tag k="route_ref" v="7;8;9"/>
    <tag k="shelter" v="yes"/>
    <tag k="source" v="survey"/>
    <tag k="zone" v="40"/>
  </node>
  <node id="180137531" version="9" timestamp="2011-08-13T01:17:22Z" uid="15188" user="Polyglot" changeset="9001421" lat="50.8725336" lon="4.6878745"/>
  <node id="180138325" version="2" timestamp="2008-02-16T19:38:42Z" uid="6975" user="ulfl" changeset="141861" lat="50.8726728" lon="4.6878605">
    <tag k="highway" v="bus_stop"/>
  </node>
  <node id="180138325" version="3" timestamp="2010-08-15T08:15:24Z" uid="317031" user="ivodeb" changeset="5496778" lat="50.8727037" lon="4.6876857">
    <tag k="highway" v="bus_stop"/>
    <tag k="name" v="IJzerenmolenstraat"/>
    <tag k="operator" v="De Lijn"/>
    <tag k="zone" v="40"/>
  </node>
  <node id="180138325" version="4" timestamp="2010-08-15T08:43:27Z" uid="317031" user="ivodeb" changeset="5496778" lat="50.8727037" lon="4.6876857">
    <tag k="highway" v="bus_stop"/>
    <tag k="name" v="IJzerenmolenstraat"/>
    <tag k="operator" v="De Lijn"/>
    <tag k="ref" v="32934"/>
    <tag k="zone" v="40"/>
  </node>
  <node id="180138325" version="5" timestamp="2010-12-07T09:31:51Z" uid="15188" user="Polyglot" changeset="6572498" lat="50.8727027" lon="4.6878822">
    <tag k="highway" v="bus_stop"/>
    <tag k="name" v="IJzermolenstraat"/>
    <tag k="operator" v="De Lijn"/>
    <tag k="ref" v="32934"/>
    <tag k="zone" v="40"/>
  </node>
  <node id="180138325" version="6" timestamp="2011-01-28T23:59:58Z" uid="15188" user="Polyglot" changeset="7118396" lat="50.8727027" lon="4.6878822">
    <tag k="highway" v="bus_stop"/>
    <tag k="name" v="Ijzerenmolenstraat"/>
    <tag k="operator" v="De Lijn"/>
    <tag k="ref" v="32934"/>
    <tag k="zone" v="40"/>
  </node>
  <node id="180138325" version="7" timestamp="2011-03-11T11:19:08Z" uid="15188" user="Polyglot" changeset="7522310" lat="50.8727018" lon="4.68789">
    <tag k="addr:city" v="Leuven"/>
    <tag k="addr:street" v="IJzerenmolenstraat"/>
    <tag k="highway" v="bus_stop"/>
    <tag k="name" v="IJzerenmolenstraat"/>
    <tag k="operator" v="De Lijn"/>
    <tag k="ref" v="302934"/>
    <tag k="route_ref" v="7;8;9"/>
    <tag k="source" v="survey;bing"/>
    <tag k="zone" v="40"/>
  </node>
  <node id="180138325" version="8" timestamp="2011-08-13T01:17:22Z" uid="15188" user="Polyglot" changeset="9001421" lat="50.8727018" lon="4.68789"/>
</osm>
