<?xml version='1.0' encoding='UTF-8'?>
<osm version="0.6" generator="libosmium/2.20.0">
  <node id="183485300" version="2" timestamp="2008-07-03T00:08:09Z" uid="6975" user="ulfl" changeset="377243" lat="30.2568358" lon="120.2045845">
    <tag k="name" v="B&amp;amp;Q"/>
    <tag k="shop" v="doityourself"/>
  </node>
  <node id="183485300" version="3" timestamp="2008-11-30T15:00:42Z" uid="5553" user="dkt" changeset="812493" lat="30.2568358" lon="120.2045845">
    <tag k="name" v="B&amp;Q"/>
    <tag k="name:en" v="B&amp;Q"/>
    <tag k="name:zh" v="百安居"/>
    <tag k="name:zh_py" v="Bai An Ju"/>
    <tag k="name:zh_pyt" v="Bǎi ān jū"/>
    <tag k="shop" v="doityourself"/>
  </node>
  <node id="183485300" version="4" timestamp="2009-12-07T12:36:30Z" uid="13721" user="wangchun" changeset="3315009" lat="30.2568358" lon="120.2045845">
    <tag k="name" v="B&amp;Q"/>
    <tag k="name:en" v="B&amp;Q"/>
    <tag k="name:zh" v="百安居"/>
    <tag k="name:zh_pinyin" v="Bai An Ju"/>
    <tag k="name:zh_pyt" v="Bǎi ān jū"/>
    <tag k="shop" v="doityourself"/>
  </node>
  <node id="183485300" version="5" timestamp="2009-12-07T21:53:25Z" uid="13721" user="wangchun" changeset="3320066" lat="30.2568358" lon="120.2045845">
    <tag k="name" v="B&amp;Q"/>
    <tag k="name:en" v="B&amp;Q"/>
    <tag k="name:zh" v="百安居"/>
    <tag k="name:zh_pinyin" v="Bǎi ān jū"/>
    <tag k="shop" v="doityourself"/>
  </node>
</osm>
