<?xml version='1.0' encoding='UTF-8'?>
<osm version="0.6" generator="libosmium/2.20.0">
  <node id="185541916" version="11" timestamp="2010-05-01T14:39:06Z" uid="151899" user="Bikeman2000" changeset="4575651" lat="51.2197892" lon="6.7910632"/>
  <node id="185541916" version="12" timestamp="2010-05-01T14:56:07Z" uid="151899" user="Bikeman2000" changeset="4575799" lat="51.2197842" lon="6.7910403"/>
  <node id="185541916" version="13" timestamp="2010-11-02T13:58:15Z" uid="365589" user="duesseldorf" changeset="6267923" lat="51.2197523" lon="6.7910148"/>
  <node id="185542915" version="2" timestamp="2008-02-16T18:57:24Z" uid="6975" user="ulfl" changeset="141861" lat="48.2241384" lon="11.6751968">
    <tag k="name" v="Schlecker"/>
    <tag k="shop" v="chemist"/>
  </node>
  <node id="185542915" version="3" timestamp="2011-02-10T00:01:25Z" uid="56526" user="JJ Rammerl" changeset="7241696" lat="48.2241384" lon="11.6751968">
    <tag k="name" v="Schlecker"/>
    <tag k="shop" v="chemist"/>
  </node>
  <node id="185542946" version="4" timestamp="2010-09-23T16:26:17Z" uid="16922" user="amai" changeset="5855341" lat="48.2303168" lon="11.6718583">
    <tag k="addr:city" v="Ismaning"/>
    <tag k="addr:country" v="DE"/>
    <tag k="addr:housenumber" v="17"/>
    <tag k="addr:postcode" v="85737"/>
    <tag k="addr:street" v="Schloßstraße"/>
    <tag k="amenity" v="restaurant"/>
    <tag k="name" v="Fischerwirt/Malandra Osteria"/>
    <tag k="tourism" v="hotel"/>
    <tag k="website" v="http://www.fischerwirt.de"/>
  </node>
  <node id="185542946" version="5" timestamp="2010-09-30T00:39:41Z" uid="56526" user="JJ Rammerl" changeset="5916481" lat="48.2303168" lon="11.6718583">
    <tag k="addr:city" v="Ismaning"/>
    <tag k="addr:country" v="DE"/>
    <tag k="addr:housenumber" v="17"/>
    <tag k="addr:postcode" v="85737"/>
    <tag k="addr:street" v="Schloßstraße"/>
    <tag k="amenity" v="restaurant"/>
    <tag k="cuisine" v="italian"/>
    <tag k="name" v="Fischerwirt/Malandra Osteria"/>
    <tag k="tourism" v="hotel"/>
    <tag k="website" v="http://www.fischerwirt.de"/>
  </node>
  <node id="185542946" version="6" timestamp="2010-10-18T18:49:46Z" uid="56526" user="JJ Rammerl" changeset="6084647" lat="48.2303168" lon="11.6718583">
    <tag k="addr:city" v="Ismaning"/>
    <tag k="addr:country" v="DE"/>
    <tag k="addr:housenumber" v="17"/>
    <tag k="addr:postcode" v="85737"/>
    <tag k="addr:street" v="Schloßstraße"/>
    <tag k="amenity" v="restaurant"/>
    <tag k="name" v="Fischerwirt"/>
    <tag k="tourism" v="hotel"/>
    <tag k="website" v="http://www.fischerwirt.de"/>
  </node>
  <node id="185542946" version="7" timestamp="2011-10-02T20:34:08Z" uid="56526" user="JJ Rammerl" changeset="9454953" lat="48.2303034" lon="11.6719663">
    <tag k="addr:city" v="Ismaning"/>
    <tag k="addr:country" v="DE"/>
    <tag k="addr:housenumber" v="17"/>
    <tag k="addr:postcode" v="85737"/>
    <tag k="addr:street" v="Schloßstraße"/>
    <tag k="contact:fax" v="+49 89 96262610"/>
    <tag k="contact:phone" v="+49 89 9626260"/>
    <tag k="internet_access" v="yes"/>
    <tag k="internet_access:fee" v="no"/>
    <tag k="name" v="Fischerwirt"/>
    <tag k="operator" v="Lupperger GmbH"/>
    <tag k="rooms" v="40"/>
    <tag k="smoking" v="no"/>
    <tag k="tourism" v="hotel"/>
    <tag k="website" v="http://www.fischerwirt.de"/>
    <tag k="wheelchair" v="yes"/>
  </node>
  <node id="185542975" version="2" timestamp="2008-02-16T18:57:24Z" uid="6975" user="ulfl" changeset="141861" lat="48.2292446" lon="11.6720442">
    <tag k="name" v="Rossmann"/>
    <tag k="shop" v="chemist"/>
  </node>
  <node id="185542975" version="3" timestamp="2009-01-03T13:17:26Z" uid="61758" user="chrisix" changeset="720683" lat="48.2292446" lon="11.6720365">
    <tag k="created_by" v="Potlatch 0.10f"/>
    <tag k="name" v="Rossmann"/>
    <tag k="shop" v="drugstore"/>
  </node>
  <node id="185542975" version="4" timestamp="2009-09-05T12:45:41Z" uid="85761" user="klausis" changeset="2380296" lat="48.2292446" lon="11.6720365">
    <tag k="name" v="Rossmann"/>
    <tag k="shop" v="drugstore"/>
  </node>
  <node id="185542975" version="5" timestamp="2009-12-06T16:04:03Z" uid="15035" user="grungelborz" changeset="3306551" lat="48.229215" lon="11.6720397">
    <tag k="name" v="Rossmann"/>
    <tag k="shop" v="drugstore"/>
  </node>
  <node id="185542975" version="6" timestamp="2011-02-01T23:55:23Z" uid="56526" user="JJ Rammerl" changeset="7160737" lat="48.229215" lon="11.6720397">
    <tag k="addr:city" v="Ismaning"/>
    <tag k="addr:country" v="DE"/>
    <tag k="addr:housenumber" v="14"/>
    <tag k="addr:postcode" v="85737"/>
    <tag k="addr:street" v="Münchener Straße"/>
    <tag k="name" v="Rossmann"/>
    <tag k="shop" v="drugstore"/>
  </node>
  <node id="185542975" version="7" timestamp="2011-02-12T00:32:39Z" uid="56526" user="JJ Rammerl" changeset="7260708" lat="48.229215" lon="11.6720397">
    <tag k="addr:city" v="Ismaning"/>
    <tag k="addr:country" v="DE"/>
    <tag k="addr:housenumber" v="14"/>
    <tag k="addr:postcode" v="85737"/>
    <tag k="addr:street" v="Münchener Straße"/>
    <tag k="name" v="Rossmann"/>
    <tag k="shop" v="drugstore"/>
  </node>
  <node id="185543052" version="2" timestamp="2008-02-16T18:48:58Z" uid="6975" user="ulfl" changeset="141861" lat="48.2290789" lon="11.671294">
    <tag k="amenity" v="cafe"/>
    <tag k="name" v="Riedmair"/>
    <tag k="shop" v="bakery"/>
  </node>
  <node id="185543052" version="3" timestamp="2009-07-29T20:24:14Z" uid="15035" user="grungelborz" changeset="1979493" lat="48.2290789" lon="11.671294">
    <tag k="amenity" v="cafe"/>
    <tag k="name" v="Riedmair"/>
    <tag k="opening_hours" v="Mo-Fr 6:30-18:30; Sa 6:30-13:30; So 7:30-11:00"/>
    <tag k="shop" v="bakery"/>
  </node>
  <node id="185543052" version="4" timestamp="2009-07-31T20:57:02Z" uid="31231" user="Andre68" changeset="1998599" lat="48.2290789" lon="11.671294">
    <tag k="amenity" v="cafe"/>
    <tag k="name" v="Riedmair"/>
    <tag k="opening_hours" v="Mo-Fr 6:30-18:30; Sa 6:30-13:30; Su 7:30-11:00"/>
    <tag k="shop" v="bakery"/>
  </node>
  <node id="185543052" version="5" timestamp="2009-08-09T08:12:49Z" uid="31231" user="Andre68" changeset="2082403" lat="48.2290789" lon="11.671294">
    <tag k="amenity" v="cafe"/>
    <tag k="name" v="Riedmair"/>
    <tag k="opening_hours" v="Mo-Fr 06:30-18:30; Sa 06:30-13:30; Su 07:30-11:00"/>
    <tag k="shop" v="bakery"/>
  </node>
  <node id="185543052" version="6" timestamp="2011-01-31T04:50:53Z" uid="56526" user="JJ Rammerl" changeset="7142086" lat="48.2290815" lon="11.671399">
    <tag k="addr:city" v="Ismaning"/>
    <tag k="addr:country" v="DE"/>
    <tag k="addr:housenumber" v="2"/>
    <tag k="addr:postcode" v="85737"/>
    <tag k="addr:street" v="Leuchtenbergstraße"/>
    <tag k="amenity" v="cafe"/>
    <tag k="contact:phone" v="+49 89 45229444"/>
    <tag k="name" v="Riedmair"/>
    <tag k="opening_hours" v="Mo-Fr 06:30-18:30; Sa 06:30-13:30; Su 08:00-11:00"/>
    <tag k="shop" v="bakery"/>
  </node>
  <node id="185543074" version="2" timestamp="2008-02-16T18:59:59Z" uid="6975" user="ulfl" changeset="141861" lat="48.2250313" lon="11.6690295">
    <tag k="shop" v="kiosk"/>
  </node>
  <node id="185543074" version="3" timestamp="2009-05-31T23:21:46Z" uid="59819" user="Fuss-im-Ohr" changeset="1374593" lat="48.2250313" lon="11.6690295">
    <tag k="name" v="Kiosk"/>
    <tag k="shop" v="kiosk"/>
  </node>
  <node id="185543074" version="4" timestamp="2009-11-07T20:35:10Z" uid="15035" user="grungelborz" changeset="3058896" lat="48.2250876" lon="11.6690179">
    <tag k="name" v="Kiosk"/>
    <tag k="shop" v="kiosk"/>
  </node>
  <node id="185543074" version="5" timestamp="2011-02-02T23:32:56Z" uid="56526" user="JJ Rammerl" changeset="7170062" lat="48.2250876" lon="11.6690179">
    <tag k="addr:city" v="Ismaning"/>
    <tag k="addr:country" v="DE"/>
    <tag k="addr:housenumber" v="9"/>
    <tag k="addr:postcode" v="85737"/>
    <tag k="addr:street" v="An der Isarau"/>
    <tag k="name" v="Schreibcenter Anton Riedler"/>
    <tag k="shop" v="stationery"/>
  </node>
  <node id="185543079" version="2" timestamp="2008-02-16T18:48:59Z" uid="6975" user="ulfl" changeset="141861" lat="48.2256276" lon="11.6706726">
    <tag k="name" v="Feringa"/>
    <tag k="shop" v="bakery"/>
  </node>
  <node id="185543079" version="3" timestamp="2009-08-02T19:18:29Z" uid="15035" user="grungelborz" changeset="2018612" lat="48.2253531" lon="11.6706059">
    <tag k="name" v="Feringa"/>
    <tag k="shop" v="bakery"/>
  </node>
  <node id="185543079" version="4" timestamp="2011-02-01T23:56:03Z" uid="56526" user="JJ Rammerl" changeset="7160737" lat="48.2253531" lon="11.6706059">
    <tag k="addr:city" v="Ismaning"/>
    <tag k="addr:country" v="DE"/>
    <tag k="addr:housenumber" v="48"/>
    <tag k="addr:postcode" v="85737"/>
    <tag k="addr:street" v="Münchener Straße"/>
    <tag k="building" v="yes"/>
    <tag k="name" v="Feringa"/>
    <tag k="shop" v="bakery"/>
  </node>
  <node id="185543079" version="5" timestamp="2011-10-01T23:04:33Z" uid="56526" user="JJ Rammerl" changeset="9446860" lat="48.2253531" lon="11.6706059">
    <tag k="addr:city" v="Ismaning"/>
    <tag k="addr:country" v="DE"/>
    <tag k="addr:housenumber" v="48"/>
    <tag k="addr:postcode" v="85737"/>
    <tag k="addr:street" v="Münchener Straße"/>
    <tag k="name" v="Feringa"/>
    <tag k="shop" v="bakery"/>
  </node>
  <node id="185543097" version="2" timestamp="2008-07-03T15:55:33Z" uid="6975" user="ulfl" changeset="378199" lat="48.2245619" lon="11.6690735">
    <tag k="name" v="Buchladen am Korbinianplatz"/>
    <tag k="shop" v="books"/>
  </node>
  <node id="185543097" version="3" timestamp="2009-07-27T20:06:16Z" uid="15035" user="grungelborz" changeset="1959295" lat="48.2245858" lon="11.6690356">
    <tag k="name" v="Buchladen am Korbinianplatz"/>
    <tag k="shop" v="books"/>
  </node>
  <node id="185543097" version="4" timestamp="2011-03-04T00:28:35Z" uid="56526" user="JJ Rammerl" changeset="7451074" lat="48.224584" lon="11.6690112">
    <tag k="addr:city" v="Ismaning"/>
    <tag k="addr:country" v="DE"/>
    <tag k="addr:housenumber" v="14"/>
    <tag k="addr:postcode" v="85737"/>
    <tag k="addr:street" v="Korbinianstraße"/>
    <tag k="name" v="Buchladen am Korbinianplatz"/>
    <tag k="opening_hours" v="Mo-Fr 09:00-18:45; Sa 09:00-14:00"/>
    <tag k="shop" v="books"/>
    <tag k="website" v="http://www.buchismaning.de"/>
  </node>
  <node id="185543109" version="2" timestamp="2008-11-25T22:13:13Z" uid="6975" user="ulfl" changeset="792732" lat="48.2227926" lon="11.6678126">
    <tag k="name" v="Sieber Feinkost"/>
    <tag k="shop" v="groceries"/>
  </node>
  <node id="185543109" version="3" timestamp="2009-09-21T21:16:39Z" uid="15891" user="farlokko" changeset="2562959" lat="48.2227926" lon="11.6678126">
    <tag k="name" v="Sieber Feinkost"/>
    <tag k="shop" v="greengrocer"/>
  </node>
  <node id="185543109" version="4" timestamp="2009-09-29T21:05:35Z" uid="15891" user="farlokko" changeset="2682478" lat="48.2227937" lon="11.6678055">
    <tag k="name" v="Sieber Feinkost"/>
    <tag k="shop" v="groceries"/>
  </node>
  <node id="185543109" version="5" timestamp="2010-09-20T22:02:16Z" uid="65148" user="Pirat Michi" changeset="5833384" lat="48.2227937" lon="11.6678055">
    <tag k="name" v="Sieber Feinkost"/>
    <tag k="shop" v="grocery"/>
  </node>
  <node id="185543109" version="6" timestamp="2010-11-24T19:46:24Z" uid="56526" user="JJ Rammerl" changeset="6449582" lat="48.2227502" lon="11.6678475">
    <tag k="addr:city" v="Ismaning"/>
    <tag k="addr:country" v="DE"/>
    <tag k="addr:housenumber" v="70"/>
    <tag k="addr:postcode" v="85737"/>
    <tag k="addr:street" v="Münchener Straße"/>
    <tag k="contact:fax" v="+49 89 96200962"/>
    <tag k="contact:phone" v="+49 89 966402"/>
    <tag k="name" v="Sieber Feinkost"/>
    <tag k="opening_hours" v="Mo-Fr 08:30-12:30,14:00-18:30; Sa 08:30-13:00"/>
    <tag k="shop" v="deli,gift"/>
  </node>
  <node id="185543117" version="2" timestamp="2008-02-16T18:48:59Z" uid="6975" user="ulfl" changeset="141861" lat="48.2216365" lon="11.6670953">
    <tag k="name" v="Kistenpfennig"/>
    <tag k="shop" v="bakery"/>
  </node>
  <node id="185543117" version="3" timestamp="2009-08-02T19:18:29Z" uid="15035" user="grungelborz" changeset="2018612" lat="48.2216257" lon="11.6670323">
    <tag k="name" v="Kistenpfennig"/>
    <tag k="shop" v="bakery"/>
  </node>
  <node id="185543117" version="4" timestamp="2010-11-25T22:15:29Z" uid="56526" user="JJ Rammerl" changeset="6458221" lat="48.2216257" lon="11.6670323">
    <tag k="addr:city" v="Ismaning"/>
    <tag k="addr:country" v="DE"/>
    <tag k="addr:housenumber" v="78"/>
    <tag k="addr:postcode" v="85737"/>
    <tag k="addr:street" v="Münchener Straße"/>
    <tag k="contact:phone" v="+49 89 96998474"/>
    <tag k="name" v="Kistenpfennig"/>
    <tag k="opening_hours" v="Mo-Fr 06:30-18:30; Sa 06:30-16:00; So,PH 07:30-16:00"/>
    <tag k="shop" v="bakery"/>
  </node>
  <node id="185543117" version="5" timestamp="2010-12-01T18:48:42Z" uid="89943" user="Bengatzer" changeset="6507018" lat="48.2216257" lon="11.6670323">
    <tag k="addr:city" v="Ismaning"/>
    <tag k="addr:country" v="DE"/>
    <tag k="addr:housenumber" v="78"/>
    <tag k="addr:postcode" v="85737"/>
    <tag k="addr:street" v="Münchener Straße"/>
    <tag k="contact:phone" v="+49 89 96998474"/>
    <tag k="name" v="Kistenpfennig"/>
    <tag k="opening_hours" v="Mo-Fr 06:30-18:30; Sa 06:30-16:00; Su,PH 07:30-16:00"/>
    <tag k="shop" v="bakery"/>
  </node>
  <node id="185543120" version="2" timestamp="2008-07-10T00:08:20Z" uid="6975" user="ulfl" changeset="448234" lat="48.2217383" lon="11.6670229">
    <tag k="shop" v="stationery"/>
  </node>
  <node id="185543120" version="3" timestamp="2009-05-31T23:21:46Z" uid="59819" user="Fuss-im-Ohr" changeset="1374593" lat="48.2217383" lon="11.6670229">
    <tag k="name" v="FIX ME"/>
    <tag k="shop" v="stationery"/>
  </node>
  <node id="185543120" version="4" timestamp="2009-07-25T22:11:49Z" uid="15035" user="grungelborz" changeset="1939220" lat="48.2217383" lon="11.6670229">
    <tag k="shop" v="stationery"/>
  </node>
  <node id="185543120" version="5" timestamp="2009-08-02T19:18:29Z" uid="15035" user="grungelborz" changeset="2018612" lat="48.2217383" lon="11.6670229">
    <tag k="name" v="Schreibshop Riedler"/>
    <tag k="shop" v="stationery"/>
  </node>
  <node id="185543120" version="6" timestamp="2010-11-25T22:15:29Z" uid="56526" user="JJ Rammerl" changeset="6458221" lat="48.2217383" lon="11.6670229">
    <tag k="addr:city" v="Ismaning"/>
    <tag k="addr:country" v="DE"/>
    <tag k="addr:housenumber" v="78"/>
    <tag k="addr:postcode" v="85737"/>
    <tag k="addr:street" v="Münchener Straße"/>
    <tag k="contact:fax" v="+49 89 9612165"/>
    <tag k="contact:phone" v="+49 89 967571"/>
    <tag k="name" v="Schreibshop Riedler"/>
    <tag k="opening_hours" v="Mo-Th 07:30-12:30,14:00-18:30; Fr 07:30-18:30; Sa 07:30-13:00"/>
    <tag k="shop" v="stationery"/>
    <tag k="website" v="http://www.schreibshop-riedler.de"/>
  </node>
  <node id="185544389" version="2" timestamp="2009-12-27T14:04:31Z" uid="4467" user="Rosscoe" changeset="3463022" lat="-28.0747405" lon="153.4439069"/>
  <node id="185544390" version="2" timestamp="2009-12-27T14:04:31Z" uid="4467" user="Rosscoe" changeset="3463022" lat="-28.0745407" lon="153.4445871"/>
  <node id="185544391" version="2" timestamp="2009-12-27T14:04:31Z" uid="4467" user="Rosscoe" changeset="3463022" lat="-28.0734648" lon="153.4441931"/>
  <node id="185544392" version="2" timestamp="2009-12-27T14:04:31Z" uid="4467" user="Rosscoe" changeset="3463022" lat="-28.0738671" lon="153.443591"/>
</osm>
