<?xml version='1.0' encoding='UTF-8'?>
<osm version="0.6" generator="libosmium/2.20.0">
  <node id="18628532" version="2" timestamp="2008-02-16T19:24:40Z" uid="6975" user="ulfl" changeset="141861" lat="52.1991406" lon="0.1574554">
    <tag k="name" v="Sainsburys"/>
    <tag k="shop" v="supermarket"/>
  </node>
  <node id="18628532" version="3" timestamp="2009-01-23T20:49:26Z" uid="9013" user="Malcolm Parsons" changeset="827780" lat="52.1991376" lon="0.1574601">
    <tag k="created_by" v="Potlatch 0.10f"/>
    <tag k="name" v="Sainsbury&apos;s"/>
    <tag k="shop" v="supermarket"/>
  </node>
  <node id="18628532" version="4" timestamp="2010-04-24T20:55:06Z" uid="21502" user="Kevin Steinhardt" changeset="4515914" lat="52.1991376" lon="0.1574601">
    <tag k="fixme" v="An address would be nice"/>
    <tag k="landuse" v="retail"/>
    <tag k="name" v="Sainsbury&apos;s"/>
    <tag k="shop" v="supermarket"/>
  </node>
  <node id="18628532" version="5" timestamp="2012-01-01T18:46:37Z" uid="3582" user="davidearl" changeset="10264391" lat="52.1991376" lon="0.1574601"/>
</osm>
