<?xml version='1.0' encoding='UTF-8'?>
<osm version="0.6" generator="libosmium/2.20.0">
  <node id="189479371" version="2" timestamp="2008-07-30T11:12:08Z" uid="54539" user="Spot" changeset="625990" lat="49.5824488" lon="10.9936196">
    <tag k="amenity" v="fuel"/>
    <tag k="created_by" v="JOSM"/>
    <tag k="name" v="Esso"/>
  </node>
  <node id="189479371" version="3" timestamp="2009-03-21T15:08:34Z" uid="56597" user="Oberaffe" changeset="839184" lat="49.5824222" lon="10.9936332">
    <tag k="amenity" v="fuel"/>
    <tag k="created_by" v="Potlatch 0.10f"/>
    <tag k="name" v="Esso"/>
  </node>
  <node id="189479371" version="4" timestamp="2009-11-25T10:57:55Z" uid="56597" user="Oberaffe" changeset="3211098" lat="49.5824222" lon="10.9936332">
    <tag k="amenity" v="fuel"/>
    <tag k="name" v="Esso"/>
  </node>
  <node id="189479371" version="5" timestamp="2010-03-18T08:15:16Z" uid="118856" user="staehler" changeset="4159296" lat="49.582534" lon="10.9939551">
    <tag k="addr:city" v="Erlangen"/>
    <tag k="addr:country" v="DE"/>
    <tag k="addr:housenumber" v="2"/>
    <tag k="addr:state" v="Bayern"/>
    <tag k="addr:street" v="WichernstraÃŸe"/>
    <tag k="amenity" v="fuel"/>
    <tag k="name" v="Esso"/>
  </node>
  <node id="189479438" version="5" timestamp="2010-06-12T07:27:38Z" uid="4467" user="Rosscoe" changeset="4968082" lat="-32.5569843" lon="115.6932412">
    <tag k="highway" v="traffic_signals"/>
    <tag k="source" v="nearmap"/>
  </node>
  <node id="189479438" version="6" timestamp="2010-06-13T06:48:57Z" uid="4467" user="Rosscoe" changeset="4975801" lat="-32.5570258" lon="115.6931819">
    <tag k="highway" v="traffic_signals"/>
    <tag k="source" v="nearmap"/>
  </node>
  <node id="189479450" version="5" timestamp="2010-06-12T07:28:48Z" uid="4467" user="Rosscoe" changeset="4968082" lat="-32.556866" lon="115.693083">
    <tag k="highway" v="traffic_signals"/>
    <tag k="source" v="nearmap"/>
  </node>
  <node id="189479450" version="6" timestamp="2010-06-13T06:47:51Z" uid="4467" user="Rosscoe" changeset="4975801" lat="-32.5568937" lon="115.6930345">
    <tag k="highway" v="traffic_signals"/>
    <tag k="source" v="nearmap"/>
  </node>
  <node id="189479481" version="3" timestamp="2010-06-13T06:47:28Z" uid="4467" user="Rosscoe" changeset="4975801" lat="-32.5560503" lon="115.6923327"/>
  <node id="189479483" version="2" timestamp="2010-06-13T06:47:52Z" uid="4467" user="Rosscoe" changeset="4975801" lat="-32.5556051" lon="115.6920942"/>
  <node id="189479504" version="2" timestamp="2010-06-13T06:48:13Z" uid="4467" user="Rosscoe" changeset="4975801" lat="-32.5550801" lon="115.6919468"/>
</osm>
