<?xml version='1.0' encoding='UTF-8'?>
<osm version="0.6" generator="libosmium/2.20.0">
  <node id="189820294" version="6" timestamp="2010-07-20T14:51:57Z" uid="74617" user="JohnSmith" changeset="5271352" lat="-37.5625335" lon="143.8627112">
    <tag k="created_by" v="Potlatch 0.10f"/>
    <tag k="is_in" v="Victoria, Australia"/>
    <tag k="is_in:continent" v="Australia"/>
    <tag k="is_in:country" v="Australia"/>
    <tag k="is_in:country_code" v="au"/>
    <tag k="is_in:state" v="Victoria"/>
    <tag k="is_in:state_code" v="VIC"/>
    <tag k="name" v="Ballarat"/>
    <tag k="place" v="city"/>
    <tag k="population" v="78221"/>
    <tag k="uuid:place" v="f43c2e9d-86ee-49d9-8766-4499fad57e8f"/>
  </node>
  <node id="189820294" version="7" timestamp="2010-10-17T06:26:42Z" uid="79475" user="AlexOnTheBus" changeset="6063822" lat="-37.5622632" lon="143.8607215">
    <tag k="is_in" v="Victoria, Australia"/>
    <tag k="is_in:continent" v="Australia"/>
    <tag k="is_in:country" v="Australia"/>
    <tag k="is_in:country_code" v="au"/>
    <tag k="is_in:state" v="Victoria"/>
    <tag k="is_in:state_code" v="VIC"/>
    <tag k="name" v="Ballarat"/>
    <tag k="place" v="city"/>
    <tag k="population" v="78221"/>
    <tag k="uuid:place" v="f43c2e9d-86ee-49d9-8766-4499fad57e8f"/>
  </node>
  <node id="189820294" version="8" timestamp="2011-11-03T11:56:33Z" uid="46482" user="Leon K" changeset="9729717" lat="-37.5622632" lon="143.8607215">
    <tag k="is_in" v="Victoria, Australia"/>
    <tag k="is_in:continent" v="Australia"/>
    <tag k="is_in:country" v="Australia"/>
    <tag k="is_in:country_code" v="au"/>
    <tag k="is_in:state" v="Victoria"/>
    <tag k="is_in:state_code" v="VIC"/>
    <tag k="name" v="Ballarat"/>
    <tag k="place" v="city"/>
    <tag k="population" v="78221"/>
    <tag k="uuid:place" v="f43c2e9d-86ee-49d9-8766-4499fad57e8f"/>
    <tag k="wikipedia" v="en:Ballarat, Victoria"/>
  </node>
  <node id="189820294" version="9" timestamp="2012-03-07T12:22:09Z" uid="174822" user="Canabis" changeset="10899037" lat="-37.5622632" lon="143.8607215">
    <tag k="is_in" v="Victoria, Australia"/>
    <tag k="is_in:continent" v="Australia"/>
    <tag k="is_in:country" v="Australia"/>
    <tag k="is_in:country_code" v="au"/>
    <tag k="is_in:state" v="Victoria"/>
    <tag k="is_in:state_code" v="VIC"/>
    <tag k="name" v="Ballarat"/>
    <tag k="name:ru" v="Балларат"/>
    <tag k="place" v="city"/>
    <tag k="population" v="78221"/>
    <tag k="uuid:place" v="f43c2e9d-86ee-49d9-8766-4499fad57e8f"/>
    <tag k="wikipedia" v="en:Ballarat, Victoria"/>
  </node>
</osm>
