<?xml version='1.0' encoding='UTF-8'?>
<osm version="0.6" generator="libosmium/2.20.0">
  <node id="191774769" version="14" timestamp="2010-12-09T16:45:06Z" uid="115477" user="wowik" changeset="6596854" lat="60.933726" lon="76.579737">
    <tag k="addr:country" v="RU"/>
    <tag k="addr:postcode" v="628600"/>
    <tag k="addr:region" v="Ханты-Мансийский Автономный округ - Югра автономный округ"/>
    <tag k="cladr:code" v="8600001100000"/>
    <tag k="cladr:name" v="Нижневартовск"/>
    <tag k="cladr:suffix" v="Город"/>
    <tag k="int_name" v="Nizhnevartovsk"/>
    <tag k="is_in" v="Ханты-Мансийский автономный округ"/>
    <tag k="name" v="Нижневартовск"/>
    <tag k="name:de" v="Nischnewartowsk"/>
    <tag k="name:en" v="Nizhnevartovsk"/>
    <tag k="name:ru" v="Нижневартовск"/>
    <tag k="place" v="city"/>
    <tag k="population" v="239000"/>
  </node>
  <node id="191774769" version="15" timestamp="2011-04-05T13:13:17Z" uid="133332" user="AMDmi3" changeset="7774793" lat="60.933726" lon="76.579737">
    <tag k="addr:country" v="RU"/>
    <tag k="addr:postcode" v="628600"/>
    <tag k="addr:region" v="Ханты-Мансийский Автономный округ - Югра автономный округ"/>
    <tag k="cladr:code" v="8600001100000"/>
    <tag k="cladr:name" v="Нижневартовск"/>
    <tag k="cladr:suffix" v="Город"/>
    <tag k="int_name" v="Nizhnevartovsk"/>
    <tag k="is_in" v="Ханты-Мансийский автономный округ"/>
    <tag k="name" v="Нижневартовск"/>
    <tag k="name:de" v="Nischnewartowsk"/>
    <tag k="name:en" v="Nizhnevartovsk"/>
    <tag k="name:ru" v="Нижневартовск"/>
    <tag k="place" v="city"/>
    <tag k="population" v="251000"/>
  </node>
  <node id="191774769" version="16" timestamp="2011-05-18T06:03:46Z" uid="137570" user="tsvnv" changeset="8177960" lat="60.9340439" lon="76.58037">
    <tag k="addr:country" v="RU"/>
    <tag k="addr:postcode" v="628600"/>
    <tag k="addr:region" v="Ханты-Мансийский Автономный округ - Югра автономный округ"/>
    <tag k="cladr:code" v="8600001100000"/>
    <tag k="cladr:name" v="Нижневартовск"/>
    <tag k="cladr:suffix" v="Город"/>
    <tag k="int_name" v="Nizhnevartovsk"/>
    <tag k="is_in" v="Ханты-Мансийский автономный округ"/>
    <tag k="name" v="Нижневартовск"/>
    <tag k="name:de" v="Nischnewartowsk"/>
    <tag k="name:en" v="Nizhnevartovsk"/>
    <tag k="name:ru" v="Нижневартовск"/>
    <tag k="place" v="city"/>
    <tag k="population" v="251000"/>
  </node>
  <node id="191774769" version="17" timestamp="2011-08-09T21:31:16Z" uid="297358" user="patashnik" changeset="8971768" lat="60.9340439" lon="76.58037">
    <tag k="addr:country" v="RU"/>
    <tag k="addr:region" v="Ханты-Мансийский Автономный округ - Югра автономный округ"/>
    <tag k="cladr:code" v="8600001100000"/>
    <tag k="int_name" v="Nizhnevartovsk"/>
    <tag k="is_in" v="Ханты-Мансийский автономный округ"/>
    <tag k="name" v="Нижневартовск"/>
    <tag k="name:de" v="Nischnewartowsk"/>
    <tag k="name:en" v="Nizhnevartovsk"/>
    <tag k="name:ru" v="Нижневартовск"/>
    <tag k="place" v="city"/>
    <tag k="population" v="251000"/>
  </node>
  <node id="191774769" version="18" timestamp="2011-10-03T03:56:42Z" uid="402319" user="Stalker61" changeset="9456555" lat="60.9340439" lon="76.58037">
    <tag k="addr:city" v="Нижневартовск"/>
    <tag k="addr:country" v="RU"/>
    <tag k="addr:region" v="Ханты-Мансийский автономный округ - Югра"/>
    <tag k="cladr:code" v="8600001100000"/>
    <tag k="int_name" v="Nizhnevartovsk"/>
    <tag k="is_in" v="Ханты-Мансийский автономный округ"/>
    <tag k="name" v="Нижневартовск"/>
    <tag k="name:de" v="Nischnewartowsk"/>
    <tag k="name:en" v="Nizhnevartovsk"/>
    <tag k="name:ru" v="Нижневартовск"/>
    <tag k="place" v="city"/>
    <tag k="population" v="251000"/>
  </node>
</osm>
