<?xml version='1.0' encoding='UTF-8'?>
<osm version="0.6" generator="libosmium/2.20.0">
  <node id="194340428" version="1" timestamp="2007-12-28T19:19:08Z" uid="3451" user="sascha_silbe" changeset="452010" lat="50.6137672" lon="8.7052839">
    <tag k="created_by" v="JOSM"/>
    <tag k="man_made" v="works"/>
    <tag k="name" v="Gießener Brauhaus"/>
    <tag k="source" v="survey"/>
  </node>
  <node id="194340428" version="2" timestamp="2010-11-12T13:03:40Z" uid="57645" user="KartoGrapHiti" changeset="6350595" lat="50.6137672" lon="8.7052839">
    <tag k="man_made" v="works"/>
    <tag k="name" v="Gießener Brauhaus"/>
    <tag k="source" v="survey"/>
  </node>
  <node id="194340428" version="3" timestamp="2011-01-05T15:25:14Z" uid="6879" user="Longbow4u" changeset="6872874" lat="50.6137672" lon="8.7052839">
    <tag k="man_made" v="works"/>
    <tag k="name" v="Gießener Brauhaus"/>
    <tag k="source" v="survey"/>
  </node>
  <node id="194340434" version="1" timestamp="2007-12-28T19:19:09Z" uid="3451" user="sascha_silbe" changeset="452010" lat="50.6129831" lon="8.7053329">
    <tag k="created_by" v="JOSM"/>
    <tag k="man_made" v="works"/>
    <tag k="name" v="Lilly"/>
    <tag k="source" v="survey"/>
  </node>
  <node id="194340434" version="2" timestamp="2010-11-12T12:57:14Z" uid="57645" user="KartoGrapHiti" changeset="6350595" lat="50.6129831" lon="8.7053329">
    <tag k="man_made" v="works"/>
    <tag k="name" v="Lilly"/>
    <tag k="source" v="survey"/>
  </node>
  <node id="194340434" version="3" timestamp="2011-01-05T14:01:07Z" uid="6879" user="Longbow4u" changeset="6871996" lat="50.6129831" lon="8.7053329">
    <tag k="man_made" v="works"/>
    <tag k="name" v="Lilly"/>
    <tag k="source" v="survey"/>
  </node>
  <node id="194341041" version="5" timestamp="2010-05-30T12:03:34Z" uid="9581" user="Lobelt" changeset="4851168" lat="49.5140894" lon="8.334725">
    <tag k="railway" v="level_crossing"/>
  </node>
  <node id="194347847" version="4" timestamp="2010-05-25T18:46:54Z" uid="9581" user="Lobelt" changeset="4806568" lat="49.5074054" lon="8.446135"/>
  <node id="194347850" version="2" timestamp="2010-05-22T23:03:20Z" uid="9581" user="Lobelt" changeset="4779168" lat="49.5070487" lon="8.4461968"/>
  <node id="194347850" version="3" timestamp="2011-04-14T05:13:55Z" uid="410505" user="Udini" changeset="7857586" lat="49.5070738" lon="8.4461718"/>
  <node id="194347850" version="4" timestamp="2011-04-30T07:40:30Z" uid="410505" user="Udini" changeset="8009311" lat="49.5070738" lon="8.4461718"/>
</osm>
