<?xml version='1.0' encoding='UTF-8'?>
<osm version="0.6" generator="libosmium/2.20.0">
  <node id="197504061" version="2" timestamp="2008-02-16T19:24:31Z" uid="6975" user="ulfl" changeset="141861" lat="52.4307184" lon="7.7451452">
    <tag k="name" v="Schlecker"/>
    <tag k="shop" v="supermarket"/>
  </node>
  <node id="197504061" version="3" timestamp="2010-04-06T14:55:49Z" uid="15075" user="Reddig" changeset="4344910" lat="52.4307184" lon="7.7451452">
    <tag k="addr:housenumber" v="23"/>
    <tag k="addr:street" v="Hauptstraße"/>
    <tag k="created_by" v="Vespucci 0.6.3"/>
    <tag k="name" v="vldtrade"/>
  </node>
  <node id="197504061" version="4" timestamp="2010-04-07T17:32:23Z" uid="15075" user="Reddig" changeset="4356825" lat="52.4307184" lon="7.7451452">
    <tag k="addr:housenumber" v="23"/>
    <tag k="addr:street" v="Hauptstraße"/>
    <tag k="name" v="vldtrade"/>
  </node>
  <node id="197504061" version="5" timestamp="2012-01-10T19:32:55Z" uid="36443" user="jman1983" changeset="10354439" lat="52.4307184" lon="7.7451452">
    <tag k="addr:city" v="Voltlage"/>
    <tag k="addr:housenumber" v="23"/>
    <tag k="addr:street" v="Hauptstraße"/>
    <tag k="name" v="vldtrade"/>
  </node>
</osm>
