<?xml version='1.0' encoding='UTF-8'?>
<osm version="0.6" generator="libosmium/2.20.0">
  <node id="198181878" version="2" timestamp="2008-07-07T02:05:44Z" uid="6975" user="ulfl" changeset="415781" lat="48.1644946" lon="11.472838">
    <tag k="amenity" v="bank"/>
    <tag k="atm" v="yes"/>
    <tag k="name" v="Stadtsparkasse"/>
  </node>
  <node id="198181878" version="3" timestamp="2008-07-15T21:46:04Z" uid="14244" user="tuxbenz" changeset="506927" lat="48.1644971" lon="11.4728375">
    <tag k="amenity" v="bank"/>
    <tag k="atm" v="yes"/>
    <tag k="created_by" v="Potlatch 0.9c"/>
    <tag k="name" v="Stadtsparkasse"/>
  </node>
  <node id="198181878" version="4" timestamp="2008-07-15T21:52:35Z" uid="14244" user="tuxbenz" changeset="506927" lat="48.1644985" lon="11.4728375">
    <tag k="amenity" v="bank,atm"/>
    <tag k="created_by" v="Potlatch 0.9c"/>
    <tag k="name" v="Stadtsparkasse"/>
  </node>
  <node id="198181878" version="5" timestamp="2008-08-19T16:47:38Z" uid="14244" user="tuxbenz" changeset="325628" lat="48.1645011" lon="11.4728325">
    <tag k="amenity" v="bank"/>
    <tag k="atm" v="yes"/>
    <tag k="created_by" v="Potlatch 0.10b"/>
    <tag k="name" v="Stadtsparkasse"/>
  </node>
  <node id="198181878" version="6" timestamp="2009-07-06T18:59:42Z" uid="68974" user="Broky" changeset="1756016" lat="48.1645653" lon="11.4704464">
    <tag k="amenity" v="bank"/>
    <tag k="atm" v="yes"/>
    <tag k="created_by" v="Potlatch 0.10b"/>
    <tag k="name" v="Stadtsparkasse"/>
  </node>
  <node id="198181878" version="7" timestamp="2009-09-04T12:39:11Z" uid="85761" user="klausis" changeset="2369376" lat="48.1645653" lon="11.4704464">
    <tag k="amenity" v="bank"/>
    <tag k="atm" v="yes"/>
    <tag k="name" v="Stadtsparkasse"/>
  </node>
  <node id="198181878" version="8" timestamp="2010-02-13T16:20:49Z" uid="8748" user="ToniE" changeset="3866094" lat="48.1645653" lon="11.4704464">
    <tag k="amenity" v="bank"/>
    <tag k="atm" v="yes"/>
    <tag k="name" v="Stadtsparkasse M端nchen"/>
    <tag k="operator" v="Stadtsparkasse M端nchen"/>
  </node>
  <node id="198181878" version="9" timestamp="2011-10-25T22:11:21Z" uid="290680" user="wheelmap_visitor" changeset="9650151" lat="48.1645653" lon="11.4704464">
    <tag k="amenity" v="bank"/>
    <tag k="atm" v="yes"/>
    <tag k="name" v="Stadtsparkasse M端nchen"/>
    <tag k="operator" v="Stadtsparkasse M端nchen"/>
    <tag k="wheelchair" v="limited"/>
  </node>
</osm>
