<?xml version='1.0' encoding='UTF-8'?>
<osm version="0.6" generator="libosmium/2.20.0">
  <node id="201541179" version="2" timestamp="2008-02-16T19:55:00Z" uid="6975" user="ulfl" changeset="141861" lat="51.2376106" lon="-0.2642469">
    <tag k="name" v="Hartsfield Manor"/>
    <tag k="tourism" v="hotel"/>
  </node>
  <node id="201541179" version="3" timestamp="2008-05-23T07:15:16Z" uid="25650" user="Adam37" changeset="502887" lat="51.2376112" lon="-0.2642497">
    <tag k="created_by" v="Potlatch 0.9a"/>
    <tag k="name" v="Hartsfield Manor"/>
    <tag k="source" v="www.deverevenues.co.uk/find-venue/hartsfield-manor.html"/>
    <tag k="tourism" v="hotel"/>
  </node>
  <node id="201541179" version="4" timestamp="2008-05-23T07:24:52Z" uid="25650" user="Adam37" changeset="502887" lat="51.2376112" lon="-0.2642497">
    <tag k="created_by" v="Potlatch 0.9a"/>
    <tag k="name" v="Hartsfield Manor"/>
    <tag k="source" v="www.deverevenues.co.uk/find-venue/hartsfield-manor.html"/>
    <tag k="tourism" v="attraction"/>
  </node>
  <node id="201541179" version="5" timestamp="2009-08-09T19:56:49Z" uid="10291" user="Stephen" changeset="2090193" lat="51.2376125" lon="-0.2642477">
    <tag k="created_by" v="Potlatch 0.9a"/>
    <tag k="name" v="Hartsfield Manor"/>
    <tag k="operator" v="DeVere Venues"/>
    <tag k="source" v="www.deverevenues.co.uk/find-venue/hartsfield-manor.html"/>
    <tag k="tourism" v="attraction"/>
  </node>
  <node id="201541179" version="6" timestamp="2011-05-26T12:11:26Z" uid="10291" user="Stephen" changeset="8253003" lat="51.2374386" lon="-0.2643479">
    <tag k="name" v="Hartsfield Manor"/>
    <tag k="operator" v="DeVere Venues"/>
    <tag k="source" v="www.deverevenues.co.uk/find-venue/hartsfield-manor.html"/>
    <tag k="tourism" v="attraction"/>
  </node>
</osm>
