<?xml version='1.0' encoding='UTF-8'?>
<osm version="0.6" generator="libosmium/2.20.0">
  <node id="203331587" version="2" timestamp="2008-07-03T18:24:50Z" uid="6975" user="ulfl" changeset="379368" lat="46.217806" lon="24.7947047">
    <tag k="amenity" v="bank"/>
    <tag k="atm" v="yes"/>
    <tag k="name" v="BRD"/>
  </node>
  <node id="203331587" version="3" timestamp="2008-09-13T11:07:55Z" uid="27647" user="Asztalos Attila Oszkár" changeset="624222" lat="46.2178423" lon="24.7946369">
    <tag k="amenity" v="bank"/>
    <tag k="atm" v="yes"/>
    <tag k="name" v="BRD"/>
  </node>
  <node id="203332856" version="4" timestamp="2008-09-14T20:00:58Z" uid="6975" user="ulfl" changeset="640534" lat="46.2200152" lon="24.7949107">
    <tag k="amenity" v="bank"/>
    <tag k="atm" v="yes"/>
    <tag k="name" v="Banca Carpatica"/>
  </node>
  <node id="203332856" version="5" timestamp="2009-11-09T20:09:45Z" uid="27647" user="Asztalos Attila Oszkár" changeset="3077101" lat="46.2200081" lon="24.7948543">
    <tag k="amenity" v="bank"/>
    <tag k="atm" v="yes"/>
    <tag k="name" v="Banca Carpatica"/>
  </node>
  <node id="203336842" version="3" timestamp="2010-02-07T06:45:08Z" uid="103576" user="DiverCTH" changeset="3811076" lat="36.138226" lon="-85.442764"/>
</osm>
