<?xml version='1.0' encoding='UTF-8'?>
<osm version="0.6" generator="libosmium/2.20.0">
  <node id="204590804" version="1" timestamp="2008-01-03T05:19:47Z" uid="4467" user="Rosscoe" changeset="527545" lat="-21.0384537" lon="148.9097021">
    <tag k="created_by" v="JOSM"/>
    <tag k="is_in" v="Queensland, Australia"/>
    <tag k="name" v="Kuttabul"/>
    <tag k="place" v="village"/>
  </node>
  <node id="204590804" version="2" timestamp="2008-01-09T04:15:15Z" uid="4467" user="Rosscoe" changeset="583964" lat="-21.0392623" lon="148.9079794">
    <tag k="created_by" v="JOSM"/>
    <tag k="is_in" v="Queensland, Australia"/>
    <tag k="name" v="Kuttabul"/>
    <tag k="place" v="village"/>
  </node>
  <node id="204590817" version="1" timestamp="2008-01-03T05:19:48Z" uid="4467" user="Rosscoe" changeset="527545" lat="-20.9602044" lon="148.8335097">
    <tag k="created_by" v="JOSM"/>
    <tag k="is_in" v="Queensland, Australia"/>
    <tag k="name" v="Mount Ossa"/>
    <tag k="place" v="village"/>
  </node>
  <node id="204593891" version="1" timestamp="2008-01-03T05:22:58Z" uid="4467" user="Rosscoe" changeset="527545" lat="-20.8989227" lon="148.7730812">
    <tag k="created_by" v="JOSM"/>
    <tag k="is_in" v="Queensland, Australia"/>
    <tag k="name" v="Calen"/>
    <tag k="place" v="village"/>
  </node>
  <node id="204593891" version="2" timestamp="2008-04-04T04:53:22Z" uid="4467" user="Rosscoe" changeset="45066" lat="-20.8991322" lon="148.7732292">
    <tag k="created_by" v="Potlatch 0.8a"/>
    <tag k="is_in" v="Queensland, Australia"/>
    <tag k="name" v="Calen"/>
    <tag k="place" v="village"/>
  </node>
</osm>
