<?xml version='1.0' encoding='UTF-8'?>
<osm version="0.6" generator="libosmium/2.20.0">
  <node id="204830782" version="2" timestamp="2010-08-06T21:39:48Z" uid="137033" user="lubomir" changeset="5420797" lat="48.3518065" lon="17.7613682"/>
  <node id="204831413" version="12" timestamp="2009-09-30T15:15:32Z" uid="36809" user="pfoten_weg_!_" changeset="2689684" lat="47.280455" lon="11.5064563">
    <tag k="amenity" v="bank"/>
    <tag k="atm" v="yes"/>
    <tag k="name" v="Raiffeisenbank Hall"/>
  </node>
  <node id="204831413" version="13" timestamp="2011-04-01T22:34:57Z" uid="19763" user="leofranz" changeset="7740084" lat="47.2805116" lon="11.5064794">
    <tag k="amenity" v="bank"/>
    <tag k="atm" v="yes"/>
    <tag k="name" v="Raiffeisenbank Hall"/>
  </node>
  <node id="204831413" version="14" timestamp="2012-01-24T23:42:16Z" uid="45481" user="borisC" changeset="10489649" lat="47.2805116" lon="11.5064794"/>
  <node id="204831839" version="8" timestamp="2009-09-30T15:15:40Z" uid="36809" user="pfoten_weg_!_" changeset="2689684" lat="47.2806474" lon="11.507031">
    <tag k="name" v="Libro - bookstore"/>
    <tag k="shop" v="supermarket"/>
  </node>
  <node id="204831839" version="9" timestamp="2010-05-16T11:58:54Z" uid="288247" user="elec868868" changeset="4716136" lat="47.2806474" lon="11.5070309">
    <tag k="name" v="Libro - bookstore"/>
    <tag k="shop" v="books"/>
  </node>
  <node id="204831839" version="10" timestamp="2011-03-27T12:15:05Z" uid="19763" user="leofranz" changeset="7685364" lat="47.2806474" lon="11.5070309">
    <tag k="name" v="Libro - bookstore"/>
    <tag k="shop" v="books"/>
  </node>
  <node id="204836071" version="5" timestamp="2009-09-30T15:15:41Z" uid="36809" user="pfoten_weg_!_" changeset="2689684" lat="47.280692" lon="11.5075456">
    <tag k="is_in" v="Hall, Tirol, Austria"/>
    <tag k="name" v="Hall in Tirol"/>
    <tag k="openGeoDB:auto_update" v="population"/>
    <tag k="openGeoDB:community_identification_number" v="7035402"/>
    <tag k="openGeoDB:is_in" v="Hall in Tirol,Innsbruck-Land,Tirol,Ã–sterreich,Europe"/>
    <tag k="openGeoDB:is_in_loc_id" v="77590"/>
    <tag k="openGeoDB:layer" v="7"/>
    <tag k="openGeoDB:loc_id" v="29436"/>
    <tag k="openGeoDB:name" v="Hall in Tirol"/>
    <tag k="openGeoDB:population" v="10991"/>
    <tag k="openGeoDB:postal_codes" v="6060,6050"/>
    <tag k="openGeoDB:sort_name" v="HALL"/>
    <tag k="openGeoDB:type" v="Ort"/>
    <tag k="openGeoDB:version" v="0.2.6.11 / 2007-12-04 / http://fa-technik.adfc.de/code/opengeodb/dump/"/>
    <tag k="opengeodb:lat" v="47.2806951"/>
    <tag k="opengeodb:lon" v="11.5075424"/>
    <tag k="place" v="town"/>
    <tag k="population" v="10991"/>
  </node>
  <node id="204836071" version="6" timestamp="2012-01-31T01:29:53Z" uid="45481" user="borisC" changeset="10545646" lat="47.280692" lon="11.5075456"/>
</osm>
