<?xml version='1.0' encoding='UTF-8'?>
<osm version="0.6" generator="libosmium/2.20.0">
  <node id="205347844" version="5" timestamp="2009-05-01T18:25:46Z" uid="20587" user="balrog-kun" changeset="1040271" lat="53.954472" lon="17.7456852">
    <tag k="created_by" v="JOSM"/>
    <tag k="is_in" v="gmina Brusy, powiat chojnicki, województwo pomorskie, Poland"/>
    <tag k="is_in:country" v="Poland"/>
    <tag k="is_in:county" v="powiat chojnicki"/>
    <tag k="is_in:municipality" v="gmina Brusy"/>
    <tag k="is_in:province" v="województwo pomorskie"/>
    <tag k="name" v="Lamk"/>
    <tag k="place" v="village"/>
    <tag k="population" v="56"/>
    <tag k="source:population" v="wikipedia"/>
    <tag k="teryt:rm" v="01"/>
    <tag k="teryt:simc" v="0079993"/>
    <tag k="teryt:stan_na" v="2009-01-01"/>
    <tag k="teryt:terc" v="2202025"/>
    <tag k="teryt:updated_by" v="teryt2osm combine.py v. 43"/>
    <tag k="wikipedia" v="Lamk"/>
  </node>
  <node id="205347844" version="6" timestamp="2010-03-28T14:08:15Z" uid="91056" user="Yarl" changeset="4256841" lat="53.9574083" lon="17.7459225">
    <tag k="is_in" v="gmina Brusy, powiat chojnicki, województwo pomorskie, Poland"/>
    <tag k="is_in:country" v="Poland"/>
    <tag k="is_in:county" v="powiat chojnicki"/>
    <tag k="is_in:municipality" v="gmina Brusy"/>
    <tag k="is_in:province" v="województwo pomorskie"/>
    <tag k="name" v="Lamk"/>
    <tag k="place" v="village"/>
    <tag k="population" v="56"/>
    <tag k="source:population" v="wikipedia"/>
    <tag k="teryt:rm" v="01"/>
    <tag k="teryt:simc" v="0079993"/>
    <tag k="teryt:stan_na" v="2009-01-01"/>
    <tag k="teryt:terc" v="2202025"/>
    <tag k="teryt:updated_by" v="teryt2osm combine.py v. 43"/>
    <tag k="wikipedia" v="Lamk"/>
  </node>
  <node id="205347844" version="7" timestamp="2010-04-11T04:37:45Z" uid="20587" user="balrog-kun" changeset="4389130" lat="53.9574718" lon="17.7456548">
    <tag k="is_in" v="gmina Brusy, powiat chojnicki, województwo pomorskie, Poland"/>
    <tag k="is_in:country" v="Poland"/>
    <tag k="is_in:county" v="powiat chojnicki"/>
    <tag k="is_in:municipality" v="gmina Brusy"/>
    <tag k="is_in:province" v="województwo pomorskie"/>
    <tag k="name" v="Lamk"/>
    <tag k="place" v="village"/>
    <tag k="population" v="56"/>
    <tag k="source:population" v="wikipedia"/>
    <tag k="teryt:rm" v="01"/>
    <tag k="teryt:simc" v="0079993"/>
    <tag k="teryt:stan_na" v="2009-01-01"/>
    <tag k="teryt:terc" v="2202025"/>
    <tag k="teryt:updated_by" v="teryt2osm combine.py v. 43"/>
    <tag k="wikipedia" v="Lamk"/>
  </node>
  <node id="205347852" version="5" timestamp="2009-05-01T18:29:52Z" uid="20587" user="balrog-kun" changeset="1040271" lat="53.936357" lon="17.7424745">
    <tag k="addr:postcode" v="89-632"/>
    <tag k="created_by" v="JOSM"/>
    <tag k="is_in" v="gmina Brusy, powiat chojnicki, województwo pomorskie, Poland"/>
    <tag k="is_in:country" v="Poland"/>
    <tag k="is_in:county" v="powiat chojnicki"/>
    <tag k="is_in:municipality" v="gmina Brusy"/>
    <tag k="is_in:province" v="województwo pomorskie"/>
    <tag k="name" v="Lubnia"/>
    <tag k="place" v="village"/>
    <tag k="population" v="927"/>
    <tag k="source:population" v="wikipedia"/>
    <tag k="teryt:rm" v="01"/>
    <tag k="teryt:simc" v="0079964"/>
    <tag k="teryt:stan_na" v="2009-01-01"/>
    <tag k="teryt:terc" v="2202025"/>
    <tag k="teryt:updated_by" v="teryt2osm combine.py v. 43"/>
    <tag k="wikipedia" v="Lubnia"/>
  </node>
  <node id="205347852" version="6" timestamp="2010-03-28T14:08:15Z" uid="91056" user="Yarl" changeset="4256841" lat="53.9277051" lon="17.7518332">
    <tag k="addr:postcode" v="89-632"/>
    <tag k="is_in" v="gmina Brusy, powiat chojnicki, województwo pomorskie, Poland"/>
    <tag k="is_in:country" v="Poland"/>
    <tag k="is_in:county" v="powiat chojnicki"/>
    <tag k="is_in:municipality" v="gmina Brusy"/>
    <tag k="is_in:province" v="województwo pomorskie"/>
    <tag k="name" v="Lubnia"/>
    <tag k="place" v="village"/>
    <tag k="population" v="927"/>
    <tag k="source:population" v="wikipedia"/>
    <tag k="teryt:rm" v="01"/>
    <tag k="teryt:simc" v="0079964"/>
    <tag k="teryt:stan_na" v="2009-01-01"/>
    <tag k="teryt:terc" v="2202025"/>
    <tag k="teryt:updated_by" v="teryt2osm combine.py v. 43"/>
    <tag k="wikipedia" v="Lubnia"/>
  </node>
  <node id="205347852" version="7" timestamp="2010-04-11T04:37:45Z" uid="20587" user="balrog-kun" changeset="4389130" lat="53.9278506" lon="17.7521202">
    <tag k="addr:postcode" v="89-632"/>
    <tag k="is_in" v="gmina Brusy, powiat chojnicki, województwo pomorskie, Poland"/>
    <tag k="is_in:country" v="Poland"/>
    <tag k="is_in:county" v="powiat chojnicki"/>
    <tag k="is_in:municipality" v="gmina Brusy"/>
    <tag k="is_in:province" v="województwo pomorskie"/>
    <tag k="name" v="Lubnia"/>
    <tag k="place" v="village"/>
    <tag k="population" v="927"/>
    <tag k="source:population" v="wikipedia"/>
    <tag k="teryt:rm" v="01"/>
    <tag k="teryt:simc" v="0079964"/>
    <tag k="teryt:stan_na" v="2009-01-01"/>
    <tag k="teryt:terc" v="2202025"/>
    <tag k="teryt:updated_by" v="teryt2osm combine.py v. 43"/>
    <tag k="wikipedia" v="Lubnia"/>
  </node>
  <node id="205347852" version="8" timestamp="2011-08-15T15:45:02Z" uid="59808" user="ortylp" changeset="9028299" lat="53.9278506" lon="17.7521202">
    <tag k="addr:country" v="PL"/>
    <tag k="addr:postcode" v="89-632"/>
    <tag k="is_in" v="gmina Brusy, powiat chojnicki, województwo pomorskie, Poland"/>
    <tag k="is_in:country" v="Poland"/>
    <tag k="is_in:county" v="powiat chojnicki"/>
    <tag k="is_in:municipality" v="gmina Brusy"/>
    <tag k="is_in:province" v="województwo pomorskie"/>
    <tag k="name" v="Lubnia"/>
    <tag k="place" v="village"/>
    <tag k="population" v="927"/>
    <tag k="source:population" v="wikipedia"/>
    <tag k="teryt:rm" v="01"/>
    <tag k="teryt:simc" v="0079964"/>
    <tag k="teryt:stan_na" v="2009-01-01"/>
    <tag k="teryt:terc" v="2202025"/>
    <tag k="teryt:updated_by" v="teryt2osm combine.py v. 43"/>
    <tag k="wikipedia" v="Lubnia"/>
  </node>
  <node id="205347855" version="5" timestamp="2009-05-01T18:28:51Z" uid="20587" user="balrog-kun" changeset="1040271" lat="53.921074" lon="17.7296042">
    <tag k="created_by" v="JOSM"/>
    <tag k="is_in" v="gmina Brusy, powiat chojnicki, województwo pomorskie, Poland"/>
    <tag k="is_in:country" v="Poland"/>
    <tag k="is_in:county" v="powiat chojnicki"/>
    <tag k="is_in:municipality" v="gmina Brusy"/>
    <tag k="is_in:province" v="województwo pomorskie"/>
    <tag k="name" v="Zalesie"/>
    <tag k="place" v="village"/>
    <tag k="population" v="584"/>
    <tag k="source:population" v="wikipedia"/>
    <tag k="teryt:rm" v="01"/>
    <tag k="teryt:simc" v="0080482"/>
    <tag k="teryt:stan_na" v="2009-01-01"/>
    <tag k="teryt:terc" v="2202025"/>
    <tag k="teryt:updated_by" v="teryt2osm combine.py v. 43"/>
    <tag k="wikipedia" v="Zalesie, Chojnice County"/>
  </node>
  <node id="205347855" version="6" timestamp="2010-04-11T04:37:45Z" uid="20587" user="balrog-kun" changeset="4389130" lat="53.9211118" lon="17.7295429">
    <tag k="is_in" v="gmina Brusy, powiat chojnicki, województwo pomorskie, Poland"/>
    <tag k="is_in:country" v="Poland"/>
    <tag k="is_in:county" v="powiat chojnicki"/>
    <tag k="is_in:municipality" v="gmina Brusy"/>
    <tag k="is_in:province" v="województwo pomorskie"/>
    <tag k="name" v="Zalesie"/>
    <tag k="place" v="village"/>
    <tag k="population" v="584"/>
    <tag k="source:population" v="wikipedia"/>
    <tag k="teryt:rm" v="01"/>
    <tag k="teryt:simc" v="0080482"/>
    <tag k="teryt:stan_na" v="2009-01-01"/>
    <tag k="teryt:terc" v="2202025"/>
    <tag k="teryt:updated_by" v="teryt2osm combine.py v. 43"/>
    <tag k="wikipedia" v="Zalesie, Chojnice County"/>
  </node>
  <node id="205347948" version="2" timestamp="2011-03-02T12:45:02Z" uid="30632" user="antblant" changeset="7437453" lat="53.8593825" lon="17.7124024">
    <tag k="railway" v="level_crossing"/>
  </node>
  <node id="205347960" version="2" timestamp="2011-03-02T12:45:13Z" uid="30632" user="antblant" changeset="7437453" lat="53.855901" lon="17.7072724">
    <tag k="name" v="Zabno"/>
    <tag k="railway" v="halt"/>
  </node>
</osm>
