<?xml version='1.0' encoding='UTF-8'?>
<osm version="0.6" generator="libosmium/2.20.0">
  <node id="205381129" version="2" timestamp="2009-05-01T18:28:35Z" uid="20587" user="balrog-kun" changeset="1040271" lat="53.6927664" lon="17.5187395">
    <tag k="created_by" v="JOSM"/>
    <tag k="is_in" v="gmina Chojnice, powiat chojnicki, wojew贸dztwo pomorskie, Poland"/>
    <tag k="is_in:county" v="powiat chojnicki"/>
    <tag k="is_in:municipality" v="gmina Chojnice"/>
    <tag k="is_in:province" v="wojew贸dztwo pomorskie"/>
    <tag k="name" v="Topole"/>
    <tag k="place" v="village"/>
    <tag k="population" v="122"/>
    <tag k="source:population" v="wikipedia"/>
    <tag k="wikipedia" v="Topole, Pomeranian Voivodeship"/>
  </node>
  <node id="205381129" version="3" timestamp="2010-04-27T04:20:21Z" uid="30632" user="antblant" changeset="4537912" lat="53.6927664" lon="17.5187395">
    <tag k="created_by" v="JOSM"/>
    <tag k="is_in" v="gmina Chojnice, powiat chojnicki, wojew贸dztwo pomorskie, Poland"/>
    <tag k="is_in:county" v="powiat chojnicki"/>
    <tag k="is_in:municipality" v="gmina Chojnice"/>
    <tag k="is_in:province" v="wojew贸dztwo pomorskie"/>
    <tag k="name" v="Topole"/>
    <tag k="place" v="village"/>
    <tag k="population" v="122"/>
    <tag k="source:population" v="wikipedia"/>
    <tag k="teryt:simc" v="0081926"/>
    <tag k="wikipedia" v="Topole, Pomeranian Voivodeship"/>
  </node>
  <node id="205382363" version="2" timestamp="2008-02-16T15:43:53Z" uid="6975" user="ulfl" changeset="141861" lat="49.2829138" lon="11.4550869">
    <tag k="amenity" v="public_building"/>
    <tag k="created_by" v="JOSM"/>
    <tag k="name" v="Landratsamt"/>
  </node>
  <node id="205382363" version="3" timestamp="2008-05-18T17:36:22Z" uid="6330" user="user_6330" changeset="473867" lat="49.2824481" lon="11.4555884">
    <tag k="amenity" v="public_building"/>
    <tag k="created_by" v="Potlatch 0.9a"/>
    <tag k="name" v="Landratsamt"/>
  </node>
  <node id="205382363" version="4" timestamp="2009-02-14T21:13:26Z" uid="37976" user="R2D2_C3PO" changeset="433461" lat="49.2824481" lon="11.4555884">
    <tag k="amenity" v="public_building"/>
    <tag k="created_by" v="Potlatch 0.9a"/>
    <tag k="name" v="Landratsamt"/>
  </node>
  <node id="205388249" version="2" timestamp="2008-09-14T22:08:09Z" uid="6975" user="ulfl" changeset="640534" lat="17.0921602" lon="-61.8488729">
    <tag k="bridge" v="viaduct"/>
  </node>
  <node id="205388249" version="3" timestamp="2009-05-29T00:20:39Z" uid="28756" user="Nescum" changeset="1347388" lat="17.0921602" lon="-61.8488729">
    <tag k="bridge" v="viaduct"/>
  </node>
  <node id="205389328" version="7" timestamp="2008-10-03T16:08:17Z" uid="65847" user="LKK" changeset="42719" lat="50.1505285" lon="8.2137242"/>
  <node id="205389328" version="8" timestamp="2009-04-08T20:21:17Z" uid="102258" user="wf-tst" changeset="334279" lat="50.1505249" lon="8.2135081"/>
</osm>
