<?xml version='1.0' encoding='UTF-8'?>
<osm version="0.6" generator="libosmium/2.20.0">
  <node id="205315691" version="2" timestamp="2009-05-01T18:28:16Z" uid="20587" user="balrog-kun" changeset="1040271" lat="54.086681" lon="17.7984309">
    <tag k="created_by" v="JOSM"/>
    <tag k="is_in" v="gmina Lipusz, powiat kościerski, województwo pomorskie, Poland"/>
    <tag k="is_in:county" v="powiat kościerski"/>
    <tag k="is_in:municipality" v="gmina Lipusz"/>
    <tag k="is_in:province" v="województwo pomorskie"/>
    <tag k="name" v="Bałachy"/>
    <tag k="place" v="village"/>
    <tag k="population" v="162"/>
    <tag k="source:population" v="wikipedia"/>
    <tag k="wikipedia" v="pl:Bałachy"/>
  </node>
  <node id="205315691" version="3" timestamp="2010-03-28T14:08:32Z" uid="91056" user="Yarl" changeset="4256841" lat="54.0834154" lon="17.7940369">
    <tag k="is_in" v="gmina Lipusz, powiat kościerski, województwo pomorskie, Poland"/>
    <tag k="is_in:county" v="powiat kościerski"/>
    <tag k="is_in:municipality" v="gmina Lipusz"/>
    <tag k="is_in:province" v="województwo pomorskie"/>
    <tag k="name" v="Bałachy"/>
    <tag k="place" v="village"/>
    <tag k="population" v="162"/>
    <tag k="source:population" v="wikipedia"/>
    <tag k="wikipedia" v="pl:Bałachy"/>
  </node>
  <node id="205315691" version="4" timestamp="2010-04-27T04:09:10Z" uid="30632" user="antblant" changeset="4537879" lat="54.0834154" lon="17.7940369">
    <tag k="is_in" v="gmina Lipusz, powiat kościerski, województwo pomorskie, Poland"/>
    <tag k="is_in:county" v="powiat kościerski"/>
    <tag k="is_in:municipality" v="gmina Lipusz"/>
    <tag k="is_in:province" v="województwo pomorskie"/>
    <tag k="name" v="Bałachy"/>
    <tag k="place" v="village"/>
    <tag k="population" v="162"/>
    <tag k="source:population" v="wikipedia"/>
    <tag k="teryt:simc" v="0166090"/>
    <tag k="wikipedia" v="pl:Bałachy"/>
  </node>
  <node id="205315713" version="5" timestamp="2009-05-01T18:27:40Z" uid="20587" user="balrog-kun" changeset="1040271" lat="54.0760452" lon="17.8010801">
    <tag k="created_by" v="JOSM"/>
    <tag k="is_in" v="gmina Lipusz, powiat kościerski, województwo pomorskie, Poland"/>
    <tag k="is_in:country" v="Poland"/>
    <tag k="is_in:county" v="powiat kościerski"/>
    <tag k="is_in:municipality" v="gmina Lipusz"/>
    <tag k="is_in:province" v="województwo pomorskie"/>
    <tag k="name" v="Lipuska Huta"/>
    <tag k="place" v="village"/>
    <tag k="population" v="103"/>
    <tag k="source:population" v="wikipedia"/>
    <tag k="teryt:rm" v="01"/>
    <tag k="teryt:simc" v="0166083"/>
    <tag k="teryt:stan_na" v="2009-01-01"/>
    <tag k="teryt:terc" v="2206062"/>
    <tag k="teryt:updated_by" v="teryt2osm combine.py v. 43"/>
    <tag k="wikipedia" v="Lipuska Huta"/>
  </node>
  <node id="205315713" version="6" timestamp="2010-04-11T04:37:44Z" uid="20587" user="balrog-kun" changeset="4389130" lat="54.0760946" lon="17.8010651">
    <tag k="is_in" v="gmina Lipusz, powiat kościerski, województwo pomorskie, Poland"/>
    <tag k="is_in:country" v="Poland"/>
    <tag k="is_in:county" v="powiat kościerski"/>
    <tag k="is_in:municipality" v="gmina Lipusz"/>
    <tag k="is_in:province" v="województwo pomorskie"/>
    <tag k="name" v="Lipuska Huta"/>
    <tag k="place" v="village"/>
    <tag k="population" v="103"/>
    <tag k="source:population" v="wikipedia"/>
    <tag k="teryt:rm" v="01"/>
    <tag k="teryt:simc" v="0166083"/>
    <tag k="teryt:stan_na" v="2009-01-01"/>
    <tag k="teryt:terc" v="2206062"/>
    <tag k="teryt:updated_by" v="teryt2osm combine.py v. 43"/>
    <tag k="wikipedia" v="Lipuska Huta"/>
  </node>
</osm>
