<?xml version='1.0' encoding='UTF-8'?>
<osm version="0.6" generator="libosmium/2.20.0">
  <node id="205893637" version="1" timestamp="2008-01-04T04:36:40Z" uid="4467" user="Rosscoe" changeset="538325" lat="-32.6485085" lon="138.0961604">
    <tag k="created_by" v="JOSM"/>
    <tag k="name" v="Willmington"/>
    <tag k="place" v="town"/>
  </node>
  <node id="205893637" version="2" timestamp="2008-06-18T08:09:38Z" uid="26526" user="beldin" changeset="206555" lat="-32.6518222" lon="138.0996348">
    <tag k="amenity" v="post_office"/>
    <tag k="created_by" v="JOSM"/>
    <tag k="name" v="Wilmington"/>
    <tag k="place" v="town"/>
    <tag k="postal_code" v="5485"/>
    <tag k="source" v="survey"/>
  </node>
  <node id="205893637" version="3" timestamp="2008-10-14T10:35:12Z" uid="308" user="MichaelCollinson" changeset="321487" lat="-32.6518222" lon="138.0996348">
    <tag k="amenity" v="post_office"/>
    <tag k="is_in:country" v="Australia"/>
    <tag k="is_in:country_code" v="au"/>
    <tag k="name" v="Wilmington"/>
    <tag k="place" v="town"/>
    <tag k="postal_code" v="5485"/>
    <tag k="source" v="survey"/>
  </node>
  <node id="205893637" version="4" timestamp="2009-07-28T03:37:20Z" uid="18775" user="drlizau" changeset="1961143" lat="-32.6512273" lon="138.0998897">
    <tag k="is_in:country" v="Australia"/>
    <tag k="is_in:country_code" v="au"/>
    <tag k="name" v="Wilmington"/>
    <tag k="place" v="town"/>
    <tag k="postal_code" v="5485"/>
    <tag k="source" v="survey"/>
  </node>
</osm>
