<?xml version='1.0' encoding='UTF-8'?>
<osm version="0.6" generator="libosmium/2.20.0">
  <node id="210363740" version="3" timestamp="2008-08-15T00:27:15Z" uid="6975" user="ulfl" changeset="264731" lat="54.977373" lon="-1.6093654">
    <tag k="amenity" v="place_of_worship"/>
    <tag k="denomination" v="united_reformed"/>
    <tag k="name" v="St. James&amp;apos; United Reformed Church"/>
    <tag k="religion" v="christian"/>
  </node>
  <node id="210363740" version="4" timestamp="2009-01-10T03:42:43Z" uid="2330" user="LeedsTracker" changeset="767116" lat="54.977373" lon="-1.6093654">
    <tag k="amenity" v="place_of_worship"/>
    <tag k="denomination" v="united_reformed"/>
    <tag k="name" v="St. James&apos; United Reformed Church"/>
    <tag k="religion" v="christian"/>
  </node>
  <node id="210363740" version="5" timestamp="2010-06-15T19:33:59Z" uid="17427" user="dysteleologist" changeset="4994701" lat="54.9775057" lon="-1.6089454">
    <tag k="amenity" v="place_of_worship"/>
    <tag k="denomination" v="united_reformed"/>
    <tag k="name" v="St. James&apos; United Reformed Church"/>
    <tag k="religion" v="christian"/>
  </node>
  <node id="210363740" version="6" timestamp="2012-01-23T11:53:28Z" uid="51722" user="Chris Parker" changeset="10474514" lat="54.9775097" lon="-1.6090492">
    <tag k="amenity" v="place_of_worship"/>
    <tag k="denomination" v="united_reformed"/>
    <tag k="name" v="St. James&apos; United Reformed Church"/>
    <tag k="religion" v="christian"/>
  </node>
  <node id="210365411" version="2" timestamp="2009-06-21T16:40:23Z" uid="85955" user="Gerd Höweler" changeset="1585276" lat="52.0526143" lon="8.6007809">
    <tag k="highway" v="turning_circle"/>
  </node>
  <node id="210365411" version="3" timestamp="2011-12-21T23:21:45Z" uid="60824" user="Carsten Güse" changeset="10176240" lat="52.0526985" lon="8.6006942">
    <tag k="highway" v="turning_circle"/>
  </node>
</osm>
