<?xml version='1.0' encoding='UTF-8'?>
<osm version="0.6" generator="libosmium/2.20.0">
  <node id="210310779" version="1" timestamp="2008-01-08T10:56:11Z" uid="9581" user="Lobelt" changeset="573704" lat="50.7634459" lon="11.3901145">
    <tag k="created_by" v="Potlatch 0.6a"/>
    <tag k="name" v="Kuhfraß"/>
    <tag k="place" v="village"/>
  </node>
  <node id="210310779" version="2" timestamp="2010-03-08T19:54:32Z" uid="60345" user="Mirko Küster" changeset="4075081" lat="50.7634459" lon="11.3901145">
    <tag k="name" v="Kuhfraß"/>
    <tag k="place" v="village"/>
  </node>
  <node id="210310779" version="3" timestamp="2012-01-03T18:59:14Z" uid="118134" user="scai" changeset="10284479" lat="50.7634459" lon="11.3901145"/>
  <node id="210311140" version="1" timestamp="2008-01-08T10:56:25Z" uid="9581" user="Lobelt" changeset="573704" lat="50.7763651" lon="11.3816172">
    <tag k="created_by" v="Potlatch 0.6a"/>
    <tag k="name" v="Neusitz"/>
    <tag k="place" v="village"/>
  </node>
  <node id="210311140" version="2" timestamp="2010-03-08T19:54:33Z" uid="60345" user="Mirko Küster" changeset="4075081" lat="50.7763651" lon="11.3816172">
    <tag k="name" v="Neusitz"/>
    <tag k="place" v="village"/>
  </node>
  <node id="210311140" version="3" timestamp="2012-01-02T20:02:39Z" uid="118134" user="scai" changeset="10275219" lat="50.7763651" lon="11.3816172"/>
  <node id="210312246" version="1" timestamp="2008-01-08T10:57:03Z" uid="9581" user="Lobelt" changeset="573704" lat="50.786839" lon="11.4065081">
    <tag k="created_by" v="Potlatch 0.6a"/>
    <tag k="name" v="Engerda"/>
    <tag k="place" v="village"/>
  </node>
  <node id="210312246" version="2" timestamp="2010-03-08T19:54:33Z" uid="60345" user="Mirko Küster" changeset="4075081" lat="50.786839" lon="11.4065081">
    <tag k="name" v="Engerda"/>
    <tag k="place" v="village"/>
  </node>
  <node id="210312246" version="3" timestamp="2012-01-02T20:02:38Z" uid="118134" user="scai" changeset="10275219" lat="50.786839" lon="11.4065081"/>
  <node id="210312609" version="1" timestamp="2008-01-08T10:57:16Z" uid="9581" user="Lobelt" changeset="573704" lat="50.7951405" lon="11.3821322">
    <tag k="created_by" v="Potlatch 0.6a"/>
    <tag k="name" v="Schmieden"/>
    <tag k="place" v="village"/>
  </node>
  <node id="210312609" version="2" timestamp="2009-07-13T18:47:18Z" uid="9581" user="Lobelt" changeset="1820337" lat="50.7954537" lon="11.3795556">
    <tag k="created_by" v="Potlatch 0.6a"/>
    <tag k="name" v="Schmieden"/>
    <tag k="place" v="village"/>
  </node>
  <node id="210312609" version="3" timestamp="2010-03-08T19:54:33Z" uid="60345" user="Mirko Küster" changeset="4075081" lat="50.7954537" lon="11.3795556">
    <tag k="name" v="Schmieden"/>
    <tag k="place" v="village"/>
  </node>
  <node id="210312609" version="4" timestamp="2012-01-02T20:02:39Z" uid="118134" user="scai" changeset="10275219" lat="50.7954537" lon="11.3795556"/>
  <node id="210313323" version="1" timestamp="2008-01-08T10:57:41Z" uid="9581" user="Lobelt" changeset="573704" lat="50.7824435" lon="11.3724334">
    <tag k="created_by" v="Potlatch 0.6a"/>
    <tag k="name" v="Kleinkochberg"/>
    <tag k="place" v="village"/>
  </node>
  <node id="210313323" version="2" timestamp="2010-03-08T19:54:32Z" uid="60345" user="Mirko Küster" changeset="4075081" lat="50.7824435" lon="11.3724334">
    <tag k="name" v="Kleinkochberg"/>
    <tag k="place" v="village"/>
  </node>
  <node id="210313323" version="3" timestamp="2012-01-02T20:42:29Z" uid="118134" user="scai" changeset="10275810" lat="50.7824435" lon="11.3724334"/>
  <node id="210313946" version="1" timestamp="2008-01-08T10:58:01Z" uid="9581" user="Lobelt" changeset="573704" lat="50.7750625" lon="11.3561255">
    <tag k="created_by" v="Potlatch 0.6a"/>
    <tag k="name" v="Großkochberg"/>
    <tag k="place" v="village"/>
  </node>
  <node id="210313946" version="2" timestamp="2008-01-19T20:34:58Z" uid="24767" user="OpenGeoDB Bot" changeset="668163" lat="50.7750625" lon="11.3561255">
    <tag k="created_by" v="opengeodb2osm0.5.2"/>
    <tag k="is_in" v="Saalfeld-Rudolstadt,Thüringen,Bundesrepublik Deutschland,Europe"/>
    <tag k="name" v="Großkochberg"/>
    <tag k="openGeoDB:auto_update" v="population,is_in"/>
    <tag k="openGeoDB:combination_of_public_administration" v="Erfüllende Gemeinde Uhlstädt-Kirchhasel"/>
    <tag k="openGeoDB:community_identification_number" v="16073029"/>
    <tag k="openGeoDB:is_in" v="Saalfeld-Rudolstadt,Thüringen,Bundesrepublik Deutschland,Europe"/>
    <tag k="openGeoDB:is_in_loc_id" v="341"/>
    <tag k="openGeoDB:layer" v="6"/>
    <tag k="openGeoDB:license_plate_code" v="SLF"/>
    <tag k="openGeoDB:loc_id" v="17493"/>
    <tag k="openGeoDB:name" v="Großkochberg"/>
    <tag k="openGeoDB:population" v="679"/>
    <tag k="openGeoDB:postal_codes" v="07407"/>
    <tag k="openGeoDB:sort_name" v="GROSSKOCHBERG"/>
    <tag k="openGeoDB:telephone_area_code" v="036742"/>
    <tag k="openGeoDB:type" v="Gemeinde"/>
    <tag k="openGeoDB:version" v="0.2.6.11 / 2007-12-04 / http://fa-technik.adfc.de/code/opengeodb/dump/"/>
    <tag k="opengeodb:lat" v="50.7750625"/>
    <tag k="opengeodb:lon" v="11.3561255"/>
    <tag k="place" v="village"/>
    <tag k="population" v="679"/>
  </node>
  <node id="210313946" version="3" timestamp="2010-03-08T19:54:33Z" uid="60345" user="Mirko Küster" changeset="4075081" lat="50.7750625" lon="11.3561255">
    <tag k="is_in" v="Saalfeld-Rudolstadt,Thüringen,Bundesrepublik Deutschland,Europe"/>
    <tag k="name" v="Großkochberg"/>
    <tag k="openGeoDB:auto_update" v="population,is_in"/>
    <tag k="openGeoDB:combination_of_public_administration" v="Erfüllende Gemeinde Uhlstädt-Kirchhasel"/>
    <tag k="openGeoDB:community_identification_number" v="16073029"/>
    <tag k="openGeoDB:is_in" v="Saalfeld-Rudolstadt,Thüringen,Bundesrepublik Deutschland,Europe"/>
    <tag k="openGeoDB:is_in_loc_id" v="341"/>
    <tag k="openGeoDB:layer" v="6"/>
    <tag k="openGeoDB:license_plate_code" v="SLF"/>
    <tag k="openGeoDB:loc_id" v="17493"/>
    <tag k="openGeoDB:name" v="Großkochberg"/>
    <tag k="openGeoDB:population" v="679"/>
    <tag k="openGeoDB:postal_codes" v="07407"/>
    <tag k="openGeoDB:sort_name" v="GROSSKOCHBERG"/>
    <tag k="openGeoDB:telephone_area_code" v="036742"/>
    <tag k="openGeoDB:type" v="Gemeinde"/>
    <tag k="openGeoDB:version" v="0.2.6.11 / 2007-12-04 / http://fa-technik.adfc.de/code/opengeodb/dump/"/>
    <tag k="opengeodb:lat" v="50.7750625"/>
    <tag k="opengeodb:lon" v="11.3561255"/>
    <tag k="place" v="village"/>
    <tag k="population" v="679"/>
  </node>
  <node id="210313946" version="4" timestamp="2012-01-02T06:53:04Z" uid="118134" user="scai" changeset="10268028" lat="50.7750625" lon="11.3561255"/>
  <node id="210314709" version="1" timestamp="2008-01-08T10:58:30Z" uid="9581" user="Lobelt" changeset="573704" lat="50.7609485" lon="11.3530356">
    <tag k="created_by" v="Potlatch 0.6a"/>
    <tag k="name" v="Weitersdorf"/>
    <tag k="place" v="hamlet"/>
  </node>
  <node id="210314709" version="2" timestamp="2009-07-31T19:41:28Z" uid="9581" user="Lobelt" changeset="1997877" lat="50.7602543" lon="11.3533817">
    <tag k="created_by" v="Potlatch 0.6a"/>
    <tag k="name" v="Weitersdorf"/>
    <tag k="place" v="hamlet"/>
  </node>
  <node id="210314709" version="3" timestamp="2010-03-08T19:54:33Z" uid="60345" user="Mirko Küster" changeset="4075081" lat="50.7602543" lon="11.3533817">
    <tag k="name" v="Weitersdorf"/>
    <tag k="place" v="hamlet"/>
  </node>
  <node id="210314709" version="4" timestamp="2012-01-03T18:59:14Z" uid="118134" user="scai" changeset="10284479" lat="50.7602543" lon="11.3533817"/>
  <node id="210315364" version="1" timestamp="2008-01-08T10:58:59Z" uid="9581" user="Lobelt" changeset="573704" lat="50.7509033" lon="11.3484008">
    <tag k="created_by" v="Potlatch 0.6a"/>
    <tag k="name" v="Teichweiden"/>
    <tag k="place" v="village"/>
  </node>
  <node id="210315364" version="2" timestamp="2009-06-27T15:01:02Z" uid="69628" user="vsandre" changeset="1650673" lat="50.7509033" lon="11.3484008">
    <tag k="name" v="Teichweiden"/>
    <tag k="place" v="village"/>
  </node>
  <node id="210315364" version="3" timestamp="2009-07-31T19:41:29Z" uid="9581" user="Lobelt" changeset="1997877" lat="50.7507992" lon="11.3484008">
    <tag k="name" v="Teichweiden"/>
    <tag k="place" v="village"/>
  </node>
  <node id="210315364" version="4" timestamp="2012-01-03T18:59:14Z" uid="118134" user="scai" changeset="10284479" lat="50.7507992" lon="11.3484008"/>
</osm>
