<?xml version='1.0' encoding='UTF-8'?>
<osm version="0.6" generator="libosmium/2.20.0">
  <node id="213099321" version="2" timestamp="2008-09-30T11:33:55Z" uid="1066" user="pavel" changeset="720911" lat="48.7432363" lon="16.7591138">
    <tag k="is_in" v="Czech Republic, Europe"/>
    <tag k="name" v="Valtice"/>
    <tag k="place" v="town"/>
    <tag k="source" v="UHUL:ortofoto"/>
  </node>
  <node id="213099321" version="3" timestamp="2008-11-04T13:20:13Z" uid="308" user="MichaelCollinson" changeset="676656" lat="48.7432363" lon="16.7591138">
    <tag k="is_in" v="Czech Republic, Europe"/>
    <tag k="is_in:continent" v="Europe"/>
    <tag k="is_in:country_code" v="cz"/>
    <tag k="name" v="Valtice"/>
    <tag k="place" v="town"/>
    <tag k="source" v="UHUL:ortofoto"/>
  </node>
  <node id="213099321" version="4" timestamp="2008-11-20T18:59:05Z" uid="27052" user="onovy" changeset="773075" lat="48.7432363" lon="16.7591138">
    <tag k="is_in" v="Czech Republic, Europe"/>
    <tag k="is_in:continent" v="Europe"/>
    <tag k="is_in:country_code" v="cz"/>
    <tag k="name" v="Valtice"/>
    <tag k="place" v="town"/>
    <tag k="source" v="uhul:ortofoto"/>
  </node>
  <node id="213099321" version="5" timestamp="2010-10-24T06:48:13Z" uid="127170" user="Ilis" changeset="6153635" lat="48.7432363" lon="16.7591138">
    <tag k="is_in" v="Czech Republic, Europe"/>
    <tag k="is_in:continent" v="Europe"/>
    <tag k="is_in:country_code" v="cz"/>
    <tag k="name" v="Valtice"/>
    <tag k="name:ru" v="Вальтице"/>
    <tag k="place" v="town"/>
    <tag k="source" v="uhul:ortofoto"/>
  </node>
  <node id="213099321" version="6" timestamp="2011-04-15T15:59:55Z" uid="78656" user="Walter Schlögl" changeset="7870918" lat="48.7432363" lon="16.7591138">
    <tag k="is_in" v="Czech Republic, Europe"/>
    <tag k="is_in:continent" v="Europe"/>
    <tag k="is_in:country_code" v="cz"/>
    <tag k="name" v="Valtice"/>
    <tag k="name:de" v="Feldsberg"/>
    <tag k="name:ru" v="Вальтице"/>
    <tag k="place" v="town"/>
    <tag k="source" v="uhul:ortofoto"/>
  </node>
  <node id="213099321" version="7" timestamp="2012-01-23T00:28:55Z" uid="229590" user="xificurk" changeset="10471447" lat="48.7432363" lon="16.7591138"/>
</osm>
