<?xml version='1.0' encoding='UTF-8'?>
<osm version="0.6" generator="libosmium/2.20.0">
  <node id="213525066" version="2" timestamp="2009-03-29T22:34:04Z" uid="34428" user="usm78-gis" changeset="870330" lat="60.730403" lon="28.8704762">
    <tag k="created_by" v="Potlatch 0.10f"/>
    <tag k="name" v="Улыбино"/>
    <tag k="name:fi" v="KÃ¤rstolÃ¤"/>
    <tag k="place" v="hamlet"/>
  </node>
  <node id="213525066" version="3" timestamp="2009-04-01T00:23:27Z" uid="34428" user="usm78-gis" changeset="27604" lat="60.730403" lon="28.8704762">
    <tag k="name" v="Улыбино"/>
    <tag k="name:fi" v="Kärstolä"/>
    <tag k="place" v="hamlet"/>
  </node>
  <node id="213525066" version="4" timestamp="2009-09-24T14:04:29Z" uid="30590" user="KekcuHa" changeset="2606035" lat="60.730403" lon="28.8704762">
    <tag k="addr:country" v="RU"/>
    <tag k="addr:district" v="Выборгский район"/>
    <tag k="addr:postcode" v="188901"/>
    <tag k="addr:region" v="Ленинградская область"/>
    <tag k="cladr:code" v="4700600006700"/>
    <tag k="cladr:name" v="Улыбино"/>
    <tag k="cladr:suffix" v="Поселок"/>
    <tag k="name" v="Улыбино"/>
    <tag k="name:fi" v="Karstola"/>
    <tag k="place" v="hamlet"/>
  </node>
  <node id="213525066" version="5" timestamp="2011-08-09T23:05:01Z" uid="297358" user="patashnik" changeset="8972296" lat="60.730403" lon="28.8704762">
    <tag k="addr:country" v="RU"/>
    <tag k="addr:district" v="Выборгский район"/>
    <tag k="addr:region" v="Ленинградская область"/>
    <tag k="cladr:code" v="4700600006700"/>
    <tag k="name" v="Улыбино"/>
    <tag k="name:fi" v="Karstola"/>
    <tag k="place" v="hamlet"/>
  </node>
  <node id="213525066" version="6" timestamp="2012-01-02T19:04:19Z" uid="472653" user="Pavel47" changeset="10274450" lat="60.7293457" lon="28.8650267">
    <tag k="addr:country" v="RU"/>
    <tag k="addr:district" v="Выборгский район"/>
    <tag k="addr:region" v="Ленинградская область"/>
    <tag k="cladr:code" v="4700600006700"/>
    <tag k="name" v="Улыбино"/>
    <tag k="name:fi" v="Karstola"/>
    <tag k="place" v="hamlet"/>
  </node>
</osm>
