<?xml version='1.0' encoding='UTF-8'?>
<osm version="0.6" generator="libosmium/2.20.0">
  <node id="214196800" version="2" timestamp="2009-11-11T17:32:39Z" uid="36809" user="pfoten_weg_!_" changeset="3091919" lat="-41.233333" lon="-73.466667">
    <tag k="is_in" v="Chile, Latin America"/>
    <tag k="name" v="Pichi-Parga"/>
    <tag k="place" v="village"/>
    <tag k="source" v="GNS"/>
  </node>
  <node id="214196800" version="3" timestamp="2009-11-11T22:32:42Z" uid="36809" user="pfoten_weg_!_" changeset="3094320" lat="-41.233333" lon="-73.466667">
    <tag k="is_in" v="Chile, Latin America"/>
    <tag k="name" v="Pichi-Parga"/>
    <tag k="place" v="village"/>
    <tag k="source" v="GNS"/>
  </node>
  <node id="214197980" version="2" timestamp="2009-11-11T01:19:19Z" uid="36809" user="pfoten_weg_!_" changeset="3086939" lat="-53.15" lon="-70.916667">
    <tag k="is_in" v="Chile, Latin America"/>
    <tag k="name" v="Magallanes"/>
    <tag k="place" v="village"/>
    <tag k="source" v="GNS"/>
  </node>
  <node id="214197980" version="3" timestamp="2009-11-11T09:54:16Z" uid="36809" user="pfoten_weg_!_" changeset="3088543" lat="-53.15" lon="-70.916667">
    <tag k="is_in" v="Chile, Latin America"/>
    <tag k="name" v="Magallanes"/>
    <tag k="place" v="village"/>
    <tag k="source" v="GNS"/>
  </node>
  <node id="214197980" version="4" timestamp="2011-10-15T19:52:56Z" uid="535504" user="magallanes1" changeset="9566747" lat="-53.15" lon="-70.916667">
    <tag k="is_in" v="Chile, Latin America"/>
    <tag k="name" v="Barrio Prat"/>
    <tag k="place" v="suburb"/>
    <tag k="source" v="GNS"/>
  </node>
</osm>
