<?xml version='1.0' encoding='UTF-8'?>
<osm version="0.6" generator="libosmium/2.20.0">
  <node id="214984255" version="3" timestamp="2008-09-14T20:00:23Z" uid="6975" user="ulfl" changeset="640534" lat="49.6716499" lon="6.5217672">
    <tag k="amenity" v="bank"/>
    <tag k="atm" v="yes"/>
    <tag k="name" v="Sparkasse"/>
  </node>
  <node id="214984255" version="4" timestamp="2009-02-09T20:48:00Z" uid="23218" user="rheinz" changeset="304763" lat="49.6715877" lon="6.5216229">
    <tag k="amenity" v="bank"/>
    <tag k="atm" v="yes"/>
    <tag k="name" v="Sparkasse"/>
  </node>
  <node id="214984255" version="5" timestamp="2011-10-05T20:52:17Z" uid="290680" user="wheelmap_visitor" changeset="9474855" lat="49.6715877" lon="6.5216229">
    <tag k="amenity" v="bank"/>
    <tag k="atm" v="yes"/>
    <tag k="name" v="Sparkasse"/>
    <tag k="wheelchair" v="yes"/>
  </node>
  <node id="214988741" version="4" timestamp="2010-04-23T03:01:47Z" uid="4467" user="Rosscoe" changeset="4500324" lat="-30.526256" lon="151.6770911">
    <tag k="created_by" v="JOSM"/>
    <tag k="direction" v="clockwise"/>
    <tag k="highway" v="mini_roundabout"/>
  </node>
</osm>
