<?xml version='1.0' encoding='UTF-8'?>
<osm version="0.6" generator="libosmium/2.20.0">
  <node id="217607513" version="3" timestamp="2008-07-03T18:48:38Z" uid="6975" user="ulfl" changeset="379368" lat="48.1475975" lon="16.2536752">
    <tag k="amenity" v="place_of_worship"/>
    <tag k="name" v="Wotruba Kirche"/>
    <tag k="religion" v="christian"/>
  </node>
  <node id="217607513" version="4" timestamp="2008-08-17T16:36:10Z" uid="54806" user="_al" changeset="291605" lat="48.1475984" lon="16.2536742">
    <tag k="amenity" v="place_of_worship"/>
    <tag k="created_by" v="Potlatch 0.10b"/>
    <tag k="denomination" v="catholic"/>
    <tag k="name" v="Wotruba Kirche"/>
    <tag k="religion" v="christian"/>
  </node>
  <node id="217607513" version="5" timestamp="2009-04-07T08:19:01Z" uid="107461" user="stuffi" changeset="290986" lat="48.1476006" lon="16.2536662">
    <tag k="alt_name" v="Kirche Zur Heiligsten Dreifaltigkeit"/>
    <tag k="amenity" v="place_of_worship"/>
    <tag k="artist_name" v="Fritz Wotruba"/>
    <tag k="created_by" v="Potlatch 0.10f"/>
    <tag k="denomination" v="catholic"/>
    <tag k="name" v="Wotruba Kirche"/>
    <tag k="religion" v="christian"/>
    <tag k="tourism" v="artwork"/>
  </node>
  <node id="217607513" version="6" timestamp="2010-07-11T08:16:23Z" uid="78656" user="Walter SchlÃ¶gl" changeset="5187768" lat="48.1476006" lon="16.2536662">
    <tag k="alt_name" v="Kirche Zur Heiligsten Dreifaltigkeit"/>
    <tag k="amenity" v="place_of_worship"/>
    <tag k="artist_name" v="Fritz Wotruba"/>
    <tag k="created_by" v="Potlatch 0.10f"/>
    <tag k="denomination" v="catholic"/>
    <tag k="name" v="Wotruba Kirche"/>
    <tag k="religion" v="christian"/>
    <tag k="tourism" v="artwork"/>
  </node>
</osm>
