<?xml version='1.0' encoding='UTF-8'?>
<osm version="0.6" generator="libosmium/2.20.0">
  <node id="218402201" version="3" timestamp="2008-07-10T20:46:46Z" uid="6975" user="ulfl" changeset="457552" lat="52.5270768" lon="13.2215012">
    <tag k="highway" v="turning_circle"/>
  </node>
  <node id="218402201" version="4" timestamp="2010-06-17T09:07:20Z" uid="304807" user="elMiro" changeset="5007144" lat="52.5270768" lon="13.2215012">
    <tag k="highway" v="turning_circle"/>
  </node>
  <node id="218407396" version="3" timestamp="2009-10-13T23:08:04Z" uid="36809" user="pfoten_weg_!_" changeset="2841207" lat="46.7871455" lon="11.9159157">
    <tag k="amenity" v="fuel"/>
    <tag k="brand" v="Shell"/>
    <tag k="name" v="Monteshell"/>
    <tag k="www.prezzibenzina.it" v="5785"/>
  </node>
  <node id="218407396" version="4" timestamp="2012-01-29T22:30:12Z" uid="334153" user="Alexander Roalter" changeset="10535488" lat="46.7876384" lon="11.9187009">
    <tag k="amenity" v="fuel"/>
    <tag k="brand" v="Shell"/>
    <tag k="fuel:cng" v="yes"/>
    <tag k="fuel:diesel" v="yes"/>
    <tag k="fuel:lpg" v="yes"/>
    <tag k="fuel:octane_91" v="yes"/>
    <tag k="fuel:octane_95" v="yes"/>
    <tag k="fuel:octane_98" v="yes"/>
    <tag k="name" v="Monteshell"/>
    <tag k="www.prezzibenzina.it" v="5785"/>
  </node>
  <node id="218407396" version="5" timestamp="2012-03-03T10:47:30Z" uid="606933" user="immaterial" changeset="10856274" lat="46.7876384" lon="11.9187009">
    <tag k="amenity" v="fuel"/>
    <tag k="brand" v="Shell"/>
    <tag k="fuel:cng" v="yes"/>
    <tag k="fuel:diesel" v="yes"/>
    <tag k="fuel:lpg" v="yes"/>
    <tag k="fuel:octane_91" v="yes"/>
    <tag k="fuel:octane_95" v="yes"/>
    <tag k="fuel:octane_98" v="yes"/>
    <tag k="name" v="Shell-Tankstelle"/>
    <tag k="www.prezzibenzina.it" v="5785"/>
  </node>
  <node id="218407401" version="2" timestamp="2009-10-13T23:46:07Z" uid="36809" user="pfoten_weg_!_" changeset="2841284" lat="46.6716423" lon="11.1348699">
    <tag k="amenity" v="fuel"/>
    <tag k="brand" v="omv"/>
    <tag k="name" v="Omv"/>
    <tag k="www.prezzibenzina.it" v="9868"/>
  </node>
</osm>
