<?xml version='1.0' encoding='UTF-8'?>
<osm version="0.6" generator="libosmium/2.20.0">
  <node id="218521523" version="2" timestamp="2010-11-01T09:35:40Z" uid="34428" user="usm78-gis" changeset="6252780" lat="60.6619834" lon="28.8874605">
    <tag k="name" v="Нижнее Черкасово"/>
    <tag k="name:fi" v="Säiniö"/>
    <tag k="place" v="village"/>
  </node>
  <node id="218521523" version="3" timestamp="2011-05-30T09:13:51Z" uid="95117" user="one_half_3544" changeset="8290035" lat="60.6619834" lon="28.8874605">
    <tag k="name" v="Черкасово"/>
    <tag k="name:fi" v="Säiniö"/>
    <tag k="place" v="village"/>
    <tag k="wikipedia" v="ru:Черкасово (Ленинградская область)"/>
  </node>
  <node id="218522160" version="3" timestamp="2010-11-01T09:35:27Z" uid="34428" user="usm78-gis" changeset="6252780" lat="60.6497434" lon="28.8923529">
    <tag k="addr:country" v="RU"/>
    <tag k="addr:district" v="Выборгский район"/>
    <tag k="addr:postcode" v="188901"/>
    <tag k="addr:region" v="Ленинградская область"/>
    <tag k="cladr:code" v="4700600006200"/>
    <tag k="cladr:name" v="Верхнее Черкасово"/>
    <tag k="cladr:suffix" v="Поселок"/>
    <tag k="name" v="Верхнее Черкасово"/>
    <tag k="name:fi" v="Mikkolanmäki"/>
    <tag k="place" v="village"/>
  </node>
  <node id="218522160" version="4" timestamp="2011-05-30T09:13:52Z" uid="95117" user="one_half_3544" changeset="8290035" lat="60.6497434" lon="28.8923529">
    <tag k="addr:country" v="RU"/>
    <tag k="addr:district" v="Выборгский район"/>
    <tag k="addr:postcode" v="188901"/>
    <tag k="addr:region" v="Ленинградская область"/>
    <tag k="cladr:code" v="4700600006200"/>
    <tag k="cladr:name" v="Верхнее Черкасово"/>
    <tag k="cladr:suffix" v="Поселок"/>
    <tag k="name" v="Верхнее Черкасово"/>
    <tag k="name:fi" v="Mikkolanmäki"/>
    <tag k="place" v="locality"/>
  </node>
</osm>
