<?xml version='1.0' encoding='UTF-8'?>
<osm version="0.6" generator="libosmium/2.20.0">
  <node id="220148099" version="7" timestamp="2008-10-23T18:33:29Z" uid="6975" user="ulfl" changeset="530870" lat="48.5709467" lon="17.3879494">
    <tag k="name" v="Veterná elektráreň Cerová"/>
    <tag k="osmarender:renderName" v="no"/>
    <tag k="power" v="generator"/>
    <tag k="power_source" v="wind"/>
  </node>
  <node id="220148099" version="8" timestamp="2011-01-06T20:35:38Z" uid="207745" user="NE2" changeset="6886621" lat="48.5709467" lon="17.3879494">
    <tag k="name" v="Veterná elektráreň Cerová"/>
    <tag k="power" v="generator"/>
    <tag k="power_source" v="wind"/>
  </node>
  <node id="220148099" version="9" timestamp="2011-04-13T06:45:44Z" uid="6475" user="NiCK_n17" changeset="7849051" lat="48.5709467" lon="17.3879494">
    <tag k="generator:source" v="wind"/>
    <tag k="name" v="Veterná elektráreň Cerová"/>
    <tag k="power" v="generator"/>
  </node>
  <node id="220148099" version="10" timestamp="2011-07-01T14:07:26Z" uid="29717" user="eumiro" changeset="8598803" lat="48.5709759" lon="17.387773">
    <tag k="generator:source" v="wind"/>
    <tag k="name" v="Veterná elektráreň Cerová"/>
    <tag k="power" v="generator"/>
    <tag k="power_source" v="wind"/>
  </node>
  <node id="220148099" version="11" timestamp="2012-02-14T20:42:07Z" uid="590907" user="cbdavis" changeset="10686992" lat="48.5709759" lon="17.387773">
    <tag k="generator:source" v="wind"/>
    <tag k="name" v="Veterná elektráreň Cerová"/>
    <tag k="power" v="generator"/>
  </node>
  <node id="220148099" version="12" timestamp="2012-02-15T09:03:48Z" uid="590907" user="cbdavis" changeset="10690119" lat="48.5709759" lon="17.387773">
    <tag k="generator:source" v="wind"/>
    <tag k="name" v="Veterná elektráreň Cerová"/>
    <tag k="power" v="generator"/>
    <tag k="power_source" v="wind"/>
  </node>
</osm>
