<?xml version='1.0' encoding='UTF-8'?>
<osm version="0.6" generator="libosmium/2.20.0">
  <node id="220472756" version="2" timestamp="2009-12-14T19:43:42Z" uid="74617" user="JohnSmith" changeset="3374481" lat="-33.7326531" lon="151.1563747">
    <tag k="amenity" v="fuel"/>
    <tag k="operator" v="Mobil"/>
  </node>
  <node id="220472756" version="3" timestamp="2011-01-11T05:28:24Z" uid="18713" user="Diego" changeset="6933494" lat="-33.7326531" lon="151.1563747">
    <tag k="amenity" v="fuel"/>
    <tag k="name" v="Mobil St. Ives"/>
    <tag k="operator" v="Mobil"/>
  </node>
  <node id="220472787" version="4" timestamp="2009-12-14T17:06:27Z" uid="74617" user="JohnSmith" changeset="3373323" lat="-33.7312105" lon="151.1575348">
    <tag k="amenity" v="fuel"/>
    <tag k="operator" v="Shell"/>
  </node>
  <node id="220472787" version="5" timestamp="2010-07-24T08:44:04Z" uid="299678" user="peteramjet" changeset="5301934" lat="-33.7312105" lon="151.1575348">
    <tag k="amenity" v="fuel"/>
    <tag k="operator" v="Shell"/>
  </node>
  <node id="220472817" version="3" timestamp="2010-02-18T08:13:24Z" uid="7617" user="Franc" changeset="3906977" lat="-33.7308848" lon="151.1570457">
    <tag k="amenity" v="fuel"/>
    <tag k="created_by" v="JOSM"/>
    <tag k="name" v="Caltex"/>
  </node>
</osm>
