<?xml version='1.0' encoding='UTF-8'?>
<osm version="0.6" generator="libosmium/2.20.0">
  <node id="2225126" version="2" timestamp="2008-09-14T20:26:57Z" uid="6975" user="ulfl" changeset="640534" lat="46.664229" lon="6.7964267">
    <tag k="name" v="Denner"/>
    <tag k="shop" v="groceries"/>
  </node>
  <node id="2225126" version="3" timestamp="2009-09-21T21:16:08Z" uid="15891" user="farlokko" changeset="2562959" lat="46.664229" lon="6.7964267">
    <tag k="name" v="Denner"/>
    <tag k="shop" v="greengrocer"/>
  </node>
  <node id="2225126" version="4" timestamp="2009-10-21T11:51:28Z" uid="24965" user="Ævar Arnfjörð Bjarmason" changeset="2911412" lat="46.664229" lon="6.7964267">
    <tag k="name" v="Denner"/>
    <tag k="shop" v="groceries"/>
  </node>
  <node id="2225126" version="5" timestamp="2010-09-20T22:00:40Z" uid="65148" user="Pirat Michi" changeset="5833384" lat="46.664229" lon="6.7964267">
    <tag k="name" v="Denner"/>
    <tag k="shop" v="grocery"/>
  </node>
  <node id="2225126" version="6" timestamp="2011-09-06T06:42:26Z" uid="125339" user="efred" changeset="9224470" lat="46.664229" lon="6.7964267"/>
</osm>
