<?xml version='1.0' encoding='UTF-8'?>
<osm version="0.6" generator="libosmium/2.20.0">
  <node id="225975023" version="6" timestamp="2009-12-09T17:56:52Z" uid="200463" user="harmagedon" changeset="3335395" lat="50.8914367" lon="14.659887">
    <tag k="railway" v="level_crossing"/>
  </node>
  <node id="225975043" version="2" timestamp="2009-12-09T20:10:05Z" uid="200463" user="harmagedon" changeset="3336536" lat="50.8995156" lon="14.6609401">
    <tag k="name" v="Damast- und Heimatmuseum"/>
    <tag k="tourism" v="museum"/>
  </node>
  <node id="225975043" version="3" timestamp="2011-08-19T16:31:10Z" uid="179581" user="Geofreund1" changeset="9067152" lat="50.8995156" lon="14.6609401">
    <tag k="addr:city" v="Großschönau"/>
    <tag k="addr:housenumber" v="3"/>
    <tag k="addr:postcode" v="02779"/>
    <tag k="addr:street" v="Schenaustraße"/>
    <tag k="name" v="Deutsches Damast- und Frottiermuseum"/>
    <tag k="phone" v="+49 35841 35 469"/>
    <tag k="tourism" v="museum"/>
  </node>
  <node id="225975043" version="4" timestamp="2011-08-19T16:31:50Z" uid="179581" user="Geofreund1" changeset="9067152" lat="50.8995156" lon="14.6609401">
    <tag k="addr:city" v="Großschönau"/>
    <tag k="addr:housenumber" v="3"/>
    <tag k="addr:postcode" v="02779"/>
    <tag k="addr:street" v="Schenaustraße"/>
    <tag k="name" v="Deutsches Damast- und Frottiermuseum"/>
    <tag k="phone" v="+49 35841 35 469"/>
    <tag k="tourism" v="museum"/>
    <tag k="website" v="www.ddfm.de"/>
  </node>
  <node id="225975048" version="2" timestamp="2009-12-09T20:10:40Z" uid="200463" user="harmagedon" changeset="3336536" lat="50.8994483" lon="14.6655573">
    <tag k="name" v="Technik- und Motorradmuseum"/>
    <tag k="tourism" v="museum"/>
  </node>
  <node id="225975725" version="5" timestamp="2010-05-07T23:19:48Z" uid="4467" user="Rosscoe" changeset="4634949" lat="-31.7816189" lon="115.9749117"/>
  <node id="225975725" version="6" timestamp="2010-11-10T10:32:21Z" uid="189263" user="wildmyron" changeset="6334819" lat="-31.7816061" lon="115.9749293"/>
</osm>
