<?xml version='1.0' encoding='UTF-8'?>
<osm version="0.6" generator="libosmium/2.20.0">
  <node id="226921028" version="4" timestamp="2009-01-31T16:48:57Z" uid="9581" user="Lobelt" changeset="859371" lat="50.4907719" lon="10.9105819">
    <tag k="created_by" v="is_in-bot"/>
    <tag k="is_in" v="Th端ringen,Bundesrepublik Deutschland,Europe"/>
    <tag k="name" v="Einsiedel"/>
    <tag k="place" v="village"/>
  </node>
  <node id="226921028" version="5" timestamp="2009-10-03T10:23:49Z" uid="28234" user="derandi" changeset="2721857" lat="50.4907968" lon="10.9103996">
    <tag k="is_in" v="Th端ringen,Bundesrepublik Deutschland,Europe"/>
    <tag k="name" v="Einsiedel"/>
    <tag k="place" v="village"/>
  </node>
  <node id="226921028" version="6" timestamp="2009-10-03T10:37:04Z" uid="28234" user="derandi" changeset="2721991" lat="50.4907968" lon="10.9103996">
    <tag k="is_in" v="Th端ringen,Bundesrepublik Deutschland,Europe"/>
    <tag k="name" v="Einsiedel"/>
    <tag k="place" v="hamlet"/>
  </node>
  <node id="226921028" version="7" timestamp="2012-01-19T16:03:43Z" uid="16696" user="Hike39" changeset="10438632" lat="50.4915149" lon="10.9106838">
    <tag k="is_in" v="Th端ringen,Bundesrepublik Deutschland,Europe"/>
    <tag k="name" v="Einsiedel"/>
    <tag k="place" v="village"/>
  </node>
  <node id="226925342" version="2" timestamp="2009-01-04T18:09:23Z" uid="58091" user="Andreas M" changeset="729261" lat="48.2530654" lon="16.3958297"/>
  <node id="226925343" version="2" timestamp="2009-01-04T18:09:23Z" uid="58091" user="Andreas M" changeset="729261" lat="48.2532311" lon="16.3959671"/>
  <node id="226925345" version="2" timestamp="2009-01-04T18:09:10Z" uid="58091" user="Andreas M" changeset="729261" lat="48.2532923" lon="16.3960571"/>
  <node id="226925345" version="3" timestamp="2009-03-02T18:46:43Z" uid="12295" user="mapper_07" changeset="724961" lat="48.2533352" lon="16.3959554"/>
  <node id="226925346" version="2" timestamp="2009-01-04T18:09:10Z" uid="58091" user="Andreas M" changeset="729261" lat="48.2536428" lon="16.3960473"/>
  <node id="226928025" version="2" timestamp="2009-09-30T11:51:01Z" uid="36809" user="pfoten_weg_!_" changeset="2687450" lat="46.687087" lon="11.630917">
    <tag k="amenity" v="fuel"/>
    <tag k="brand" v="agip"/>
    <tag k="name" v="Agip"/>
    <tag k="operator" v="Agip"/>
    <tag k="www.prezzibenzina.it" v="1498"/>
  </node>
  <node id="226928025" version="3" timestamp="2009-10-01T09:48:23Z" uid="64756" user="alegria6208" changeset="2698368" lat="46.687087" lon="11.630917">
    <tag k="amenity" v="fuel"/>
    <tag k="brand" v="agip"/>
    <tag k="name" v="Agip"/>
    <tag k="operator" v="Agip"/>
    <tag k="www.prezzibenzina.it" v="1498"/>
  </node>
  <node id="226929563" version="2" timestamp="2009-10-13T23:08:09Z" uid="36809" user="pfoten_weg_!_" changeset="2841207" lat="46.790584" lon="11.927011">
    <tag k="amenity" v="fuel"/>
    <tag k="brand" v="agip"/>
    <tag k="name" v="Agip"/>
    <tag k="operator" v="Agip"/>
    <tag k="www.prezzibenzina.it" v="1526"/>
  </node>
  <node id="226929567" version="2" timestamp="2009-10-13T23:08:10Z" uid="36809" user="pfoten_weg_!_" changeset="2841207" lat="46.793141" lon="11.93156">
    <tag k="amenity" v="fuel"/>
    <tag k="brand" v="agip"/>
    <tag k="name" v="Agip"/>
    <tag k="operator" v="Agip"/>
    <tag k="www.prezzibenzina.it" v="1527"/>
  </node>
  <node id="226929567" version="3" timestamp="2011-05-18T20:36:08Z" uid="250984" user="gumpix" changeset="8184829" lat="46.7929612" lon="11.9310995">
    <tag k="amenity" v="fuel"/>
    <tag k="brand" v="agip"/>
    <tag k="name" v="Agip"/>
    <tag k="operator" v="Agip"/>
    <tag k="www.prezzibenzina.it" v="1527"/>
  </node>
  <node id="226929567" version="4" timestamp="2011-05-18T20:46:40Z" uid="250984" user="gumpix" changeset="8184927" lat="46.7929612" lon="11.9310995"/>
</osm>
