<?xml version='1.0' encoding='UTF-8'?>
<osm version="0.6" generator="libosmium/2.20.0">
  <node id="230100325" version="4" timestamp="2009-05-01T18:56:00Z" uid="20587" user="balrog-kun" changeset="1040664" lat="52.6621541" lon="17.9452847">
    <tag k="addr:postcode" v="88-300"/>
    <tag k="created_by" v="Potlatch 0.7a"/>
    <tag k="is_in" v="powiat mogileński, województwo kujawsko-pomorskie, Poland"/>
    <tag k="is_in:country" v="Poland"/>
    <tag k="is_in:county" v="powiat mogileński"/>
    <tag k="is_in:municipality" v="gmina Mogilno"/>
    <tag k="is_in:province" v="województwo kujawsko-pomorskie"/>
    <tag k="name" v="Mogilno"/>
    <tag k="place" v="town"/>
    <tag k="population" v="12506"/>
    <tag k="postal_code" v="88-300"/>
    <tag k="source:population" v="wikipedia"/>
    <tag k="teryt:rm" v="96"/>
    <tag k="teryt:simc" v="0929428"/>
    <tag k="teryt:stan_na" v="2009-01-01"/>
    <tag k="teryt:terc" v="0409034"/>
    <tag k="teryt:updated_by" v="teryt2osm combine.py v. 39"/>
    <tag k="wikipedia" v="Mogilno"/>
  </node>
  <node id="230100325" version="5" timestamp="2009-05-07T18:40:09Z" uid="115021" user="Jajcuś" changeset="1110351" lat="52.6621541" lon="17.9452847">
    <tag k="addr:postcode" v="88-300"/>
    <tag k="created_by" v="Potlatch 0.7a"/>
    <tag k="is_in" v="powiat mogileński, województwo kujawsko-pomorskie, Poland"/>
    <tag k="is_in:country" v="Poland"/>
    <tag k="is_in:county" v="powiat mogileński"/>
    <tag k="is_in:province" v="województwo kujawsko-pomorskie"/>
    <tag k="name" v="Mogilno"/>
    <tag k="place" v="town"/>
    <tag k="population" v="12506"/>
    <tag k="postal_code" v="88-300"/>
    <tag k="source:population" v="wikipedia"/>
    <tag k="teryt:rm" v="96"/>
    <tag k="teryt:simc" v="0929428"/>
    <tag k="teryt:stan_na" v="2009-01-01"/>
    <tag k="teryt:terc" v="0409034"/>
    <tag k="teryt:updated_by" v="teryt2osm combine.py v. 47M"/>
    <tag k="wikipedia" v="Mogilno"/>
  </node>
  <node id="230100325" version="6" timestamp="2009-05-08T18:35:11Z" uid="115021" user="Jajcuś" changeset="1120425" lat="52.6621541" lon="17.9452847">
    <tag k="addr:postcode" v="88-300"/>
    <tag k="created_by" v="Potlatch 0.7a"/>
    <tag k="is_in" v="powiat mogileński, województwo kujawsko-pomorskie, Poland"/>
    <tag k="is_in:country" v="Poland"/>
    <tag k="is_in:county" v="powiat mogileński"/>
    <tag k="is_in:municipality" v="gmina Mogilno"/>
    <tag k="is_in:province" v="województwo kujawsko-pomorskie"/>
    <tag k="name" v="Mogilno"/>
    <tag k="place" v="town"/>
    <tag k="population" v="12506"/>
    <tag k="postal_code" v="88-300"/>
    <tag k="source:population" v="wikipedia"/>
    <tag k="teryt:rm" v="96"/>
    <tag k="teryt:simc" v="0929428"/>
    <tag k="teryt:stan_na" v="2009-01-01"/>
    <tag k="teryt:terc" v="0409034"/>
    <tag k="teryt:updated_by" v="teryt2osm combine.py v. 49"/>
    <tag k="wikipedia" v="Mogilno"/>
  </node>
  <node id="230100325" version="7" timestamp="2010-03-20T20:42:16Z" uid="19417" user="xjr" changeset="4184618" lat="52.6587783" lon="17.9492742">
    <tag k="addr:postcode" v="88-300"/>
    <tag k="is_in" v="powiat mogileński, województwo kujawsko-pomorskie, Poland"/>
    <tag k="is_in:country" v="Poland"/>
    <tag k="is_in:county" v="powiat mogileński"/>
    <tag k="is_in:municipality" v="gmina Mogilno"/>
    <tag k="is_in:province" v="województwo kujawsko-pomorskie"/>
    <tag k="name" v="Mogilno"/>
    <tag k="place" v="town"/>
    <tag k="population" v="12506"/>
    <tag k="postal_code" v="88-300"/>
    <tag k="source:population" v="wikipedia"/>
    <tag k="teryt:rm" v="96"/>
    <tag k="teryt:simc" v="0929428"/>
    <tag k="teryt:stan_na" v="2009-01-01"/>
    <tag k="teryt:terc" v="0409034"/>
    <tag k="teryt:updated_by" v="teryt2osm combine.py v. 49"/>
    <tag k="wikipedia" v="Mogilno"/>
  </node>
  <node id="230100325" version="8" timestamp="2010-04-11T04:37:46Z" uid="20587" user="balrog-kun" changeset="4389130" lat="52.6585418" lon="17.9511959">
    <tag k="addr:postcode" v="88-300"/>
    <tag k="is_in" v="powiat mogileński, województwo kujawsko-pomorskie, Poland"/>
    <tag k="is_in:country" v="Poland"/>
    <tag k="is_in:county" v="powiat mogileński"/>
    <tag k="is_in:municipality" v="gmina Mogilno"/>
    <tag k="is_in:province" v="województwo kujawsko-pomorskie"/>
    <tag k="name" v="Mogilno"/>
    <tag k="place" v="town"/>
    <tag k="population" v="12506"/>
    <tag k="postal_code" v="88-300"/>
    <tag k="source:population" v="wikipedia"/>
    <tag k="teryt:rm" v="96"/>
    <tag k="teryt:simc" v="0929428"/>
    <tag k="teryt:stan_na" v="2009-01-01"/>
    <tag k="teryt:terc" v="0409034"/>
    <tag k="teryt:updated_by" v="teryt2osm combine.py v. 49"/>
    <tag k="wikipedia" v="Mogilno"/>
  </node>
  <node id="230100343" version="4" timestamp="2010-07-26T02:03:12Z" uid="20587" user="balrog-kun" changeset="5317852" lat="52.6583447" lon="17.9459933">
    <tag k="name" v="Mogilno"/>
    <tag k="railway" v="station"/>
    <tag k="uic_ref" v="5100220"/>
    <tag k="wikipedia" v="pl:Mogilno (stacja kolejowa)"/>
  </node>
</osm>
