<?xml version='1.0' encoding='UTF-8'?>
<osm version="0.6" generator="libosmium/2.20.0">
  <node id="232271329" version="4" timestamp="2008-08-15T00:11:00Z" uid="6975" user="ulfl" changeset="264731" lat="53.2035208" lon="-6.1102047">
    <tag k="amenity" v="place_of_worship"/>
    <tag k="denomination" v="catholic"/>
    <tag k="name" v="Most Holy Redeemer Parish Church"/>
    <tag k="religion" v="christian"/>
  </node>
  <node id="232271329" version="5" timestamp="2011-08-30T17:03:42Z" uid="166593" user="Nick Burrett" changeset="9169099" lat="53.2035208" lon="-6.1102047"/>
  <node id="232274787" version="2" timestamp="2008-08-15T00:02:21Z" uid="6975" user="ulfl" changeset="264731" lat="54.5964749" lon="-2.6237619">
    <tag k="amenity" v="place_of_worship"/>
    <tag k="denomination" v="church_of_england"/>
    <tag k="name" v="Morland Church"/>
    <tag k="religion" v="christian"/>
  </node>
  <node id="232274787" version="3" timestamp="2008-12-29T16:56:31Z" uid="7984" user="gerv" changeset="661447" lat="54.5965273" lon="-2.6236437">
    <tag k="amenity" v="place_of_worship"/>
    <tag k="denomination" v="church_of_england"/>
    <tag k="name" v="Morland Church"/>
    <tag k="religion" v="christian"/>
  </node>
  <node id="232277673" version="2" timestamp="2008-08-15T00:02:20Z" uid="6975" user="ulfl" changeset="264731" lat="54.6042356" lon="-2.5599336">
    <tag k="amenity" v="place_of_worship"/>
    <tag k="denomination" v="church_of_england"/>
    <tag k="name" v="Bolton Parish Church"/>
    <tag k="religion" v="christian"/>
  </node>
</osm>
