<?xml version='1.0' encoding='UTF-8'?>
<osm version="0.6" generator="libosmium/2.20.0">
  <node id="23333262" version="4" timestamp="2008-07-06T09:06:07Z" uid="6975" user="ulfl" changeset="407266" lat="60.4027166" lon="18.1743884">
    <tag k="name" v="Forsmark 1"/>
    <tag k="power" v="generator"/>
    <tag k="power_source" v="nuclear"/>
  </node>
  <node id="23333262" version="5" timestamp="2010-10-03T10:13:53Z" uid="65171" user="Spüli" changeset="5942555" lat="60.4037229" lon="18.1729064">
    <tag k="name" v="Forsmark 1"/>
    <tag k="power" v="generator"/>
    <tag k="power_source" v="nuclear"/>
  </node>
  <node id="23333262" version="6" timestamp="2011-06-03T21:25:33Z" uid="297482" user="don-vip" changeset="8334243" lat="60.4037229" lon="18.1729064">
    <tag k="generator:source" v="nuclear"/>
    <tag k="name" v="Forsmark 1"/>
    <tag k="power" v="generator"/>
  </node>
  <node id="23333262" version="7" timestamp="2011-07-15T14:45:20Z" uid="34078" user="Emill" changeset="8731935" lat="60.4037229" lon="18.1729064">
    <tag k="generator:source" v="nuclear"/>
    <tag k="name" v="Forsmark 1"/>
    <tag k="power" v="generator"/>
    <tag k="power_source" v="nuclear"/>
  </node>
  <node id="23333265" version="5" timestamp="2008-07-06T09:06:05Z" uid="6975" user="ulfl" changeset="407266" lat="60.404194" lon="18.1729858">
    <tag k="name" v="Forsmark 2"/>
    <tag k="power" v="generator"/>
    <tag k="power_source" v="nuclear"/>
  </node>
  <node id="23333265" version="6" timestamp="2010-10-03T10:13:53Z" uid="65171" user="Spüli" changeset="5942555" lat="60.4042528" lon="18.1743655">
    <tag k="name" v="Forsmark 2"/>
    <tag k="power" v="generator"/>
    <tag k="power_source" v="nuclear"/>
  </node>
  <node id="23333265" version="7" timestamp="2011-06-03T21:25:34Z" uid="297482" user="don-vip" changeset="8334243" lat="60.4042528" lon="18.1743655">
    <tag k="generator:source" v="nuclear"/>
    <tag k="name" v="Forsmark 2"/>
    <tag k="power" v="generator"/>
  </node>
  <node id="23333265" version="8" timestamp="2011-07-15T14:45:21Z" uid="34078" user="Emill" changeset="8731935" lat="60.4042528" lon="18.1743655">
    <tag k="generator:source" v="nuclear"/>
    <tag k="name" v="Forsmark 2"/>
    <tag k="power" v="generator"/>
    <tag k="power_source" v="nuclear"/>
  </node>
  <node id="23333269" version="6" timestamp="2008-07-06T09:06:04Z" uid="6975" user="ulfl" changeset="407266" lat="60.4059077" lon="18.1608802">
    <tag k="name" v="Forsmark 3"/>
    <tag k="power" v="generator"/>
    <tag k="power_source" v="nuclear"/>
  </node>
  <node id="23333269" version="7" timestamp="2010-10-08T08:58:55Z" uid="65171" user="Spüli" changeset="5984243" lat="60.4056955" lon="18.1599777">
    <tag k="name" v="Forsmark 3"/>
    <tag k="power" v="generator"/>
    <tag k="power_source" v="nuclear"/>
  </node>
  <node id="23333269" version="8" timestamp="2011-06-03T21:25:34Z" uid="297482" user="don-vip" changeset="8334243" lat="60.4056955" lon="18.1599777">
    <tag k="generator:source" v="nuclear"/>
    <tag k="name" v="Forsmark 3"/>
    <tag k="power" v="generator"/>
  </node>
  <node id="23333269" version="9" timestamp="2011-07-15T14:45:21Z" uid="34078" user="Emill" changeset="8731935" lat="60.4056955" lon="18.1599777">
    <tag k="generator:source" v="nuclear"/>
    <tag k="name" v="Forsmark 3"/>
    <tag k="power" v="generator"/>
    <tag k="power_source" v="nuclear"/>
  </node>
  <node id="23335211" version="3" timestamp="2011-04-16T22:47:16Z" uid="6269" user="Mueck" changeset="7882952" lat="48.9768109" lon="8.4076501"/>
  <node id="23335211" version="4" timestamp="2011-08-11T14:16:02Z" uid="212553" user="ARWIE" changeset="8986005" lat="48.9768146" lon="8.4076395"/>
  <node id="23335211" version="5" timestamp="2012-03-12T10:21:33Z" uid="35468" user="Blunauer" changeset="10953017" lat="48.9768146" lon="8.4076395"/>
</osm>
