<?xml version='1.0' encoding='UTF-8'?>
<osm version="0.6" generator="libosmium/2.20.0">
  <node id="240205245" version="1" timestamp="2008-01-19T20:48:48Z" uid="9581" user="Lobelt" changeset="666934" lat="51.7585722" lon="14.3277456">
    <tag k="created_by" v="JOSM"/>
    <tag k="railway" v="halt"/>
  </node>
  <node id="240205245" version="2" timestamp="2008-06-27T12:56:41Z" uid="9581" user="Lobelt" changeset="314163" lat="51.7585722" lon="14.3277456">
    <tag k="created_by" v="JOSM"/>
    <tag k="railway" v="tram_stop"/>
  </node>
  <node id="240205245" version="3" timestamp="2008-10-25T16:21:24Z" uid="75061" user="dcbm" changeset="574656" lat="51.7585722" lon="14.3277456">
    <tag k="created_by" v="JOSM"/>
    <tag k="highway" v="bus_stop"/>
    <tag k="name" v="August-Bebel-Straße"/>
    <tag k="railway" v="tram_stop"/>
  </node>
  <node id="240205245" version="4" timestamp="2009-06-27T12:54:14Z" uid="69628" user="vsandre" changeset="1649815" lat="51.7585722" lon="14.3277456">
    <tag k="highway" v="bus_stop"/>
    <tag k="name" v="August-Bebel-Straße"/>
    <tag k="railway" v="tram_stop"/>
  </node>
  <node id="240205245" version="5" timestamp="2009-12-26T09:46:11Z" uid="14029" user="MartinDornfelder" changeset="3453083" lat="51.7585722" lon="14.3277456">
    <tag k="highway" v="bus_stop"/>
    <tag k="name" v="August-Bebel-Straße"/>
    <tag k="railway" v="tram_stop"/>
  </node>
  <node id="240205245" version="6" timestamp="2011-06-12T10:35:50Z" uid="28234" user="derandi" changeset="8413775" lat="51.7585724" lon="14.3277731">
    <tag k="highway" v="bus_stop"/>
    <tag k="name" v="August-Bebel-Straße"/>
    <tag k="railway" v="tram_stop"/>
  </node>
  <node id="240205245" version="7" timestamp="2011-07-10T15:04:30Z" uid="28234" user="derandi" changeset="8684511" lat="51.7585724" lon="14.3277731">
    <tag k="bus" v="yes"/>
    <tag k="highway" v="bus_stop"/>
    <tag k="name" v="August-Bebel-Straße"/>
    <tag k="railway" v="tram_stop"/>
    <tag k="tram" v="yes"/>
  </node>
  <node id="240205245" version="8" timestamp="2012-02-14T13:58:41Z" uid="15720" user="J budissin" changeset="10682781" lat="51.7585724" lon="14.3277731">
    <tag k="bus" v="yes"/>
    <tag k="highway" v="bus_stop"/>
    <tag k="name" v="August-Bebel-Straße"/>
    <tag k="name:hsb" v="A. Bebelowa droga"/>
    <tag k="railway" v="tram_stop"/>
    <tag k="tram" v="yes"/>
  </node>
  <node id="240205245" version="9" timestamp="2012-02-26T13:33:03Z" uid="28234" user="derandi" changeset="10798189" lat="51.7585724" lon="14.3277731"/>
  <node id="240205253" version="1" timestamp="2008-01-19T20:48:49Z" uid="9581" user="Lobelt" changeset="666934" lat="51.7612157" lon="14.329696">
    <tag k="created_by" v="JOSM"/>
    <tag k="railway" v="halt"/>
  </node>
  <node id="240205253" version="2" timestamp="2008-06-27T12:56:42Z" uid="9581" user="Lobelt" changeset="314163" lat="51.7612157" lon="14.329696">
    <tag k="created_by" v="JOSM"/>
    <tag k="railway" v="tram_stop"/>
  </node>
  <node id="240205253" version="3" timestamp="2008-10-25T15:56:47Z" uid="75061" user="dcbm" changeset="574656" lat="51.7612157" lon="14.329696">
    <tag k="created_by" v="JOSM"/>
    <tag k="name" v="Stadthalle"/>
    <tag k="railway" v="tram_stop"/>
  </node>
  <node id="240205253" version="4" timestamp="2009-06-27T12:54:16Z" uid="69628" user="vsandre" changeset="1649815" lat="51.7612157" lon="14.329696">
    <tag k="name" v="Stadthalle"/>
    <tag k="railway" v="tram_stop"/>
  </node>
  <node id="240205253" version="5" timestamp="2010-11-04T20:12:34Z" uid="75061" user="dcbm" changeset="6291330" lat="51.7612157" lon="14.329696">
    <tag k="highway" v="bus_stop"/>
    <tag k="name" v="Stadthalle"/>
    <tag k="railway" v="tram_stop"/>
  </node>
  <node id="240205253" version="6" timestamp="2011-03-14T08:37:25Z" uid="290680" user="wheelmap_visitor" changeset="7553775" lat="51.7612157" lon="14.329696">
    <tag k="highway" v="bus_stop"/>
    <tag k="name" v="Stadthalle"/>
    <tag k="railway" v="tram_stop"/>
    <tag k="wheelchair" v="yes"/>
  </node>
  <node id="240205253" version="7" timestamp="2011-06-14T19:11:23Z" uid="28234" user="derandi" changeset="8440730" lat="51.7612157" lon="14.329696"/>
  <node id="240205259" version="1" timestamp="2008-01-19T20:48:49Z" uid="9581" user="Lobelt" changeset="666934" lat="51.7617152" lon="14.3309738">
    <tag k="created_by" v="JOSM"/>
    <tag k="railway" v="halt"/>
  </node>
  <node id="240205259" version="2" timestamp="2008-02-06T14:08:16Z" uid="14029" user="MartinDornfelder" changeset="53582" lat="51.7617152" lon="14.3309738">
    <tag k="created_by" v="JOSM"/>
    <tag k="railway" v="halt"/>
  </node>
  <node id="240205259" version="3" timestamp="2008-06-27T12:56:41Z" uid="9581" user="Lobelt" changeset="314163" lat="51.7617152" lon="14.3309738">
    <tag k="created_by" v="JOSM"/>
    <tag k="railway" v="tram_stop"/>
  </node>
  <node id="240205259" version="4" timestamp="2008-10-25T15:56:47Z" uid="75061" user="dcbm" changeset="574656" lat="51.7617152" lon="14.3309738">
    <tag k="created_by" v="JOSM"/>
    <tag k="name" v="Stadthalle"/>
    <tag k="railway" v="tram_stop"/>
  </node>
  <node id="240205259" version="5" timestamp="2008-10-25T16:21:24Z" uid="75061" user="dcbm" changeset="574656" lat="51.7617152" lon="14.3309738">
    <tag k="created_by" v="JOSM"/>
    <tag k="highway" v="bus_stop"/>
    <tag k="name" v="Stadthalle"/>
    <tag k="railway" v="tram_stop"/>
  </node>
  <node id="240205259" version="6" timestamp="2011-03-10T20:31:13Z" uid="418962" user="kurtek" changeset="7517938" lat="51.7617152" lon="14.3309738">
    <tag k="highway" v="bus_stop"/>
    <tag k="name" v="Stadthalle"/>
    <tag k="railway" v="tram_stop"/>
  </node>
  <node id="240205259" version="7" timestamp="2011-03-14T08:36:25Z" uid="290680" user="wheelmap_visitor" changeset="7553775" lat="51.7617152" lon="14.3309738">
    <tag k="highway" v="bus_stop"/>
    <tag k="name" v="Stadthalle"/>
    <tag k="railway" v="tram_stop"/>
    <tag k="wheelchair" v="yes"/>
  </node>
  <node id="240205259" version="8" timestamp="2011-06-14T16:24:44Z" uid="28234" user="derandi" changeset="8439085" lat="51.761713" lon="14.3310192">
    <tag k="highway" v="bus_stop"/>
    <tag k="name" v="Stadthalle"/>
    <tag k="railway" v="tram_stop"/>
    <tag k="wheelchair" v="yes"/>
  </node>
  <node id="240205259" version="9" timestamp="2011-06-14T19:11:23Z" uid="28234" user="derandi" changeset="8440730" lat="51.761713" lon="14.3310192"/>
  <node id="240205266" version="1" timestamp="2008-01-19T20:48:49Z" uid="9581" user="Lobelt" changeset="666934" lat="51.7536319" lon="14.3333166">
    <tag k="created_by" v="JOSM"/>
    <tag k="railway" v="halt"/>
  </node>
  <node id="240205266" version="2" timestamp="2008-02-06T14:08:16Z" uid="14029" user="MartinDornfelder" changeset="53582" lat="51.7536319" lon="14.3333166">
    <tag k="created_by" v="JOSM"/>
    <tag k="railway" v="halt"/>
  </node>
  <node id="240205266" version="3" timestamp="2008-06-27T12:56:41Z" uid="9581" user="Lobelt" changeset="314163" lat="51.7536319" lon="14.3333166">
    <tag k="created_by" v="JOSM"/>
    <tag k="railway" v="tram_stop"/>
  </node>
  <node id="240205266" version="4" timestamp="2008-10-25T16:21:24Z" uid="75061" user="dcbm" changeset="574656" lat="51.7536319" lon="14.3333166">
    <tag k="created_by" v="JOSM"/>
    <tag k="highway" v="bus_stop"/>
    <tag k="name" v="Marienstraße/Busbahnhof"/>
    <tag k="railway" v="tram_stop"/>
  </node>
  <node id="240205266" version="5" timestamp="2010-07-15T15:16:29Z" uid="163437" user="r-michael" changeset="5227595" lat="51.7536319" lon="14.3333166">
    <tag k="highway" v="bus_stop"/>
    <tag k="name" v="Marienstraße/Busbahnhof"/>
    <tag k="railway" v="tram_stop"/>
  </node>
  <node id="240205266" version="6" timestamp="2011-03-14T08:43:30Z" uid="290680" user="wheelmap_visitor" changeset="7553775" lat="51.7536319" lon="14.3333166">
    <tag k="highway" v="bus_stop"/>
    <tag k="name" v="Marienstraße/Busbahnhof"/>
    <tag k="railway" v="tram_stop"/>
    <tag k="wheelchair" v="yes"/>
  </node>
  <node id="240205266" version="7" timestamp="2011-06-13T22:25:07Z" uid="28234" user="derandi" changeset="8432399" lat="51.7536319" lon="14.3333521">
    <tag k="highway" v="bus_stop"/>
    <tag k="name" v="Marienstraße/Busbahnhof"/>
    <tag k="railway" v="tram_stop"/>
    <tag k="wheelchair" v="yes"/>
  </node>
  <node id="240205266" version="8" timestamp="2011-06-14T20:52:56Z" uid="28234" user="derandi" changeset="8442000" lat="51.7536319" lon="14.3333521"/>
</osm>
