<?xml version='1.0' encoding='UTF-8'?>
<osm version="0.6" generator="libosmium/2.20.0">
  <node id="240380761" version="2" timestamp="2009-07-26T21:48:11Z" uid="4467" user="Rosscoe" changeset="1950150" lat="-35.0033855" lon="116.5249481">
    <tag k="amenity" v="parking"/>
    <tag k="name" v="Red Rock"/>
  </node>
  <node id="240381554" version="3" timestamp="2008-09-14T20:01:13Z" uid="6975" user="ulfl" changeset="640534" lat="48.399335" lon="-4.4721371">
    <tag k="amenity" v="bank"/>
    <tag k="atm" v="yes"/>
    <tag k="name" v="CMB Strasbourg"/>
  </node>
  <node id="240381554" version="4" timestamp="2010-05-15T15:10:58Z" uid="187752" user="François " changeset="4707195" lat="48.3992953" lon="-4.4720672">
    <tag k="amenity" v="bank"/>
    <tag k="atm" v="yes"/>
    <tag k="name" v="CMB Strasbourg"/>
  </node>
  <node id="240381554" version="5" timestamp="2010-05-20T06:34:15Z" uid="187752" user="François " changeset="4754164" lat="48.3992671" lon="-4.4720049">
    <tag k="amenity" v="bank"/>
    <tag k="atm" v="yes"/>
    <tag k="name" v="CMB Strasbourg"/>
  </node>
</osm>
