<?xml version='1.0' encoding='UTF-8'?>
<osm version="0.6" generator="libosmium/2.20.0">
  <node id="241002759" version="2" timestamp="2009-08-08T07:33:29Z" uid="61114" user="Trav" changeset="2072633" lat="-33.781129" lon="151.2805508"/>
  <node id="241002759" version="3" timestamp="2009-11-14T01:20:33Z" uid="7617" user="Franc" changeset="3110166" lat="-33.781129" lon="151.2805508"/>
  <node id="241002764" version="2" timestamp="2009-11-10T11:19:44Z" uid="7617" user="Franc" changeset="3081325" lat="-33.7819605" lon="151.2793036">
    <tag k="created_by" v="JOSM"/>
  </node>
  <node id="241002773" version="4" timestamp="2009-11-09T11:57:01Z" uid="7617" user="Franc" changeset="3072660" lat="-33.7854375" lon="151.2808072"/>
  <node id="241002779" version="3" timestamp="2009-11-09T11:57:00Z" uid="7617" user="Franc" changeset="3072660" lat="-33.7856875" lon="151.2801251"/>
  <node id="241002794" version="3" timestamp="2009-11-09T11:57:00Z" uid="7617" user="Franc" changeset="3072660" lat="-33.7860711" lon="151.2807656"/>
  <node id="241002799" version="2" timestamp="2009-09-01T19:03:06Z" uid="7617" user="Franc" changeset="2341607" lat="-33.8249599" lon="151.2023029">
    <tag k="created_by" v="JOSM"/>
  </node>
  <node id="241002804" version="2" timestamp="2008-08-04T09:05:11Z" uid="7617" user="Franc" changeset="47835" lat="-33.8246768" lon="151.2016306">
    <tag k="amenity" v="place_of_worship"/>
    <tag k="created_by" v="JOSM"/>
    <tag k="name" v="Uniting Church"/>
    <tag k="religion" v="christian"/>
  </node>
  <node id="241002804" version="3" timestamp="2012-03-12T22:30:13Z" uid="7523" user="inas" changeset="10961483" lat="-33.8246768" lon="151.2016306"/>
  <node id="241002842" version="2" timestamp="2008-08-31T10:48:58Z" uid="61114" user="Trav" changeset="479734" lat="-33.8241696" lon="151.2004727">
    <tag k="amenity" v="Doctors Surgery"/>
    <tag k="created_by" v="Merkaartor 0.12"/>
  </node>
  <node id="241002842" version="3" timestamp="2009-03-07T09:35:00Z" uid="61114" user="Trav" changeset="752969" lat="-33.8241696" lon="151.2004727">
    <tag k="amenity" v="doctor"/>
    <tag k="created_by" v="Merkaartor 0.13"/>
  </node>
  <node id="241002842" version="4" timestamp="2009-07-27T10:17:28Z" uid="42123" user="Ropino" changeset="1953907" lat="-33.8241696" lon="151.2004727">
    <tag k="amenity" v="doctors"/>
  </node>
  <node id="241002842" version="5" timestamp="2009-08-05T03:49:16Z" uid="69319" user="Rhubarb" changeset="2041468" lat="-33.8241696" lon="151.2004727">
    <tag k="amenity" v="doctors"/>
  </node>
  <node id="241003027" version="14" timestamp="2009-07-22T17:45:35Z" uid="20587" user="balrog-kun" changeset="1907299" lat="54.8847109" lon="-2.4359629">
    <tag k="alt_name" v="United Kingdom; UK; Britain; Great Britain"/>
    <tag k="capital_city" v="London"/>
    <tag k="country_code" v="gb"/>
    <tag k="country_code_fips" v="UK"/>
    <tag k="country_code_iso3166_1_alpha_2" v="GB"/>
    <tag k="is_in:continent" v="Europe"/>
    <tag k="is_in:ocean" v="Atlantic"/>
    <tag k="name" v="United Kingdom"/>
    <tag k="name:ar" v="المملكة المتحدة"/>
    <tag k="name:cy" v="Y Deyrnas Unedig"/>
    <tag k="name:de" v="Vereinigtes Königreich"/>
    <tag k="name:en" v="United Kingdom"/>
    <tag k="name:eo" v="Unuiĝinta Reĝlando"/>
    <tag k="name:es" v="Gran Bretaña"/>
    <tag k="name:fi" v="Yhdistynyt kuningaskunta"/>
    <tag k="name:fr" v="Royaume-Uni"/>
    <tag k="name:gd" v="An Rìoghachd Aonaichte"/>
    <tag k="name:he" v="בריטניה"/>
    <tag k="name:hu" v="Nagy-Britannia"/>
    <tag k="name:pl" v="Wielka Brytania"/>
    <tag k="name:sv" v="Storbritannien"/>
    <tag k="name:zh" v="英国"/>
    <tag k="name:zh_py" v="Yingguo"/>
    <tag k="name:zh_pyt" v="Yīngguó"/>
    <tag k="official_name" v="United Kingdom of Great Britain and Northern Ireland"/>
    <tag k="official_name:es" v="Reino Unido de Gran Bretaña"/>
    <tag k="official_name:pl" v="Zjednoczone Królestwo Wielkiej Brytanii"/>
    <tag k="place" v="country"/>
    <tag k="population" v="60975000"/>
    <tag k="wikipedia" v="United Kingdom"/>
  </node>
  <node id="241003027" version="15" timestamp="2009-07-23T19:46:28Z" uid="3560" user="Firefishy" changeset="1919315" lat="54.8847109" lon="-2.4359629">
    <tag k="alt_name" v="United Kingdom; UK; Britain; Great Britain"/>
    <tag k="capital_city" v="London"/>
    <tag k="country_code" v="gb"/>
    <tag k="country_code_fips" v="UK"/>
    <tag k="country_code_iso3166_1_alpha_2" v="GB"/>
    <tag k="is_in:continent" v="Europe"/>
    <tag k="is_in:ocean" v="Atlantic"/>
    <tag k="name" v="United Kingdom"/>
    <tag k="name:af" v="Verenigde Koninkryk"/>
    <tag k="name:ar" v="المملكة المتحدة"/>
    <tag k="name:cy" v="Y Deyrnas Unedig"/>
    <tag k="name:de" v="Vereinigtes Königreich"/>
    <tag k="name:en" v="United Kingdom"/>
    <tag k="name:eo" v="Unuiĝinta Reĝlando"/>
    <tag k="name:es" v="Gran Bretaña"/>
    <tag k="name:fi" v="Yhdistynyt kuningaskunta"/>
    <tag k="name:fr" v="Royaume-Uni"/>
    <tag k="name:gd" v="An Rìoghachd Aonaichte"/>
    <tag k="name:he" v="בריטניה"/>
    <tag k="name:hu" v="Nagy-Britannia"/>
    <tag k="name:pl" v="Wielka Brytania"/>
    <tag k="name:sv" v="Storbritannien"/>
    <tag k="name:zh" v="英国"/>
    <tag k="name:zh_py" v="Yingguo"/>
    <tag k="name:zh_pyt" v="Yīngguó"/>
    <tag k="official_name" v="United Kingdom of Great Britain and Northern Ireland"/>
    <tag k="official_name:es" v="Reino Unido de Gran Bretaña"/>
    <tag k="official_name:pl" v="Zjednoczone Królestwo Wielkiej Brytanii"/>
    <tag k="place" v="country"/>
    <tag k="population" v="60975000"/>
    <tag k="wikipedia" v="United Kingdom"/>
  </node>
  <node id="241003027" version="16" timestamp="2009-07-24T20:42:03Z" uid="1185" user="dankarran" changeset="1929235" lat="54.8847155" lon="-2.4359704">
    <tag k="alt_name" v="United Kingdom; UK; Britain; Great Britain"/>
    <tag k="capital_city" v="London"/>
    <tag k="country_code" v="gb"/>
    <tag k="country_code_fips" v="UK"/>
    <tag k="country_code_iso3166_1_alpha_2" v="GB"/>
    <tag k="is_in:continent" v="Europe"/>
    <tag k="is_in:ocean" v="Atlantic"/>
    <tag k="name" v="United Kingdom"/>
    <tag k="name:af" v="Verenigde Koninkryk"/>
    <tag k="name:ar" v="المملكة المتحدة"/>
    <tag k="name:cy" v="Y Deyrnas Unedig"/>
    <tag k="name:de" v="Vereinigtes Königreich"/>
    <tag k="name:en" v="United Kingdom"/>
    <tag k="name:eo" v="Unuiĝinta Reĝlando"/>
    <tag k="name:es" v="Gran Bretaña"/>
    <tag k="name:fi" v="Yhdistynyt kuningaskunta"/>
    <tag k="name:fr" v="Royaume-Uni"/>
    <tag k="name:gd" v="An Rìoghachd Aonaichte"/>
    <tag k="name:gv" v="Reeriaght Unnaneysit"/>
    <tag k="name:he" v="בריטניה"/>
    <tag k="name:hu" v="Nagy-Britannia"/>
    <tag k="name:pl" v="Wielka Brytania"/>
    <tag k="name:sv" v="Storbritannien"/>
    <tag k="name:zh" v="英国"/>
    <tag k="name:zh_py" v="Yingguo"/>
    <tag k="name:zh_pyt" v="Yīngguó"/>
    <tag k="official_name" v="United Kingdom of Great Britain and Northern Ireland"/>
    <tag k="official_name:es" v="Reino Unido de Gran Bretaña"/>
    <tag k="official_name:pl" v="Zjednoczone Królestwo Wielkiej Brytanii"/>
    <tag k="place" v="country"/>
    <tag k="population" v="60975000"/>
    <tag k="wikipedia" v="United Kingdom"/>
  </node>
  <node id="241003027" version="17" timestamp="2009-08-04T20:46:02Z" uid="10610" user="RedFox" changeset="2040148" lat="54.8847155" lon="-2.4359704">
    <tag k="alt_name" v="United Kingdom; UK; Britain; Great Britain"/>
    <tag k="capital_city" v="London"/>
    <tag k="country_code_fips" v="UK"/>
    <tag k="country_code_iso3166_1_alpha_2" v="GB"/>
    <tag k="is_in:continent" v="Europe"/>
    <tag k="is_in:ocean" v="Atlantic"/>
    <tag k="name" v="United Kingdom"/>
    <tag k="name:af" v="Verenigde Koninkryk"/>
    <tag k="name:ar" v="المملكة المتحدة"/>
    <tag k="name:cy" v="Y Deyrnas Unedig"/>
    <tag k="name:de" v="Vereinigtes Königreich"/>
    <tag k="name:en" v="United Kingdom"/>
    <tag k="name:eo" v="Unuiĝinta Reĝlando"/>
    <tag k="name:es" v="Gran Bretaña"/>
    <tag k="name:fi" v="Yhdistynyt kuningaskunta"/>
    <tag k="name:fr" v="Royaume-Uni"/>
    <tag k="name:gd" v="An Rìoghachd Aonaichte"/>
    <tag k="name:gv" v="Reeriaght Unnaneysit"/>
    <tag k="name:he" v="בריטניה"/>
    <tag k="name:hu" v="Nagy-Britannia"/>
    <tag k="name:pl" v="Wielka Brytania"/>
    <tag k="name:sv" v="Storbritannien"/>
    <tag k="name:zh" v="英国"/>
    <tag k="name:zh_py" v="Yingguo"/>
    <tag k="name:zh_pyt" v="Yīngguó"/>
    <tag k="official_name" v="United Kingdom of Great Britain and Northern Ireland"/>
    <tag k="official_name:es" v="Reino Unido de Gran Bretaña"/>
    <tag k="official_name:fr" v="Royaume-Uni de Grande-Bretagne et d&apos;Irlande du Nord"/>
    <tag k="official_name:pl" v="Zjednoczone Królestwo Wielkiej Brytanii"/>
    <tag k="place" v="country"/>
    <tag k="population" v="60975000"/>
    <tag k="wikipedia" v="United Kingdom"/>
    <tag k="wikipedia:fr" v="Royaume-Uni"/>
  </node>
  <node id="241003027" version="18" timestamp="2009-08-12T22:35:49Z" uid="137" user="simone" changeset="2124790" lat="54.8847166" lon="-2.4359712">
    <tag k="alt_name" v="United Kingdom; UK; Britain; Great Britain"/>
    <tag k="capital_city" v="London"/>
    <tag k="country_code_fips" v="UK"/>
    <tag k="country_code_iso3166_1_alpha_2" v="GB"/>
    <tag k="is_in:continent" v="Europe"/>
    <tag k="is_in:ocean" v="Atlantic"/>
    <tag k="name" v="United Kingdom"/>
    <tag k="name:af" v="Verenigde Koninkryk"/>
    <tag k="name:ar" v="المملكة المتحدة"/>
    <tag k="name:cy" v="Y Deyrnas Unedig"/>
    <tag k="name:de" v="Vereinigtes Königreich"/>
    <tag k="name:en" v="United Kingdom"/>
    <tag k="name:eo" v="Unuiĝinta Reĝlando"/>
    <tag k="name:es" v="Gran Bretaña"/>
    <tag k="name:fi" v="Yhdistynyt kuningaskunta"/>
    <tag k="name:fr" v="Royaume-Uni"/>
    <tag k="name:gd" v="An Rìoghachd Aonaichte"/>
    <tag k="name:gv" v="Reeriaght Unnaneysit"/>
    <tag k="name:he" v="בריטניה"/>
    <tag k="name:hu" v="Nagy-Britannia"/>
    <tag k="name:it" v="Gran Bretagna"/>
    <tag k="name:pl" v="Wielka Brytania"/>
    <tag k="name:sv" v="Storbritannien"/>
    <tag k="name:zh" v="英国"/>
    <tag k="name:zh_py" v="Yingguo"/>
    <tag k="name:zh_pyt" v="Yīngguó"/>
    <tag k="official_name" v="United Kingdom of Great Britain and Northern Ireland"/>
    <tag k="official_name:es" v="Reino Unido de Gran Bretaña"/>
    <tag k="official_name:fr" v="Royaume-Uni de Grande-Bretagne et d&apos;Irlande du Nord"/>
    <tag k="official_name:pl" v="Zjednoczone Królestwo Wielkiej Brytanii"/>
    <tag k="place" v="country"/>
    <tag k="population" v="60975000"/>
    <tag k="wikipedia" v="United Kingdom"/>
    <tag k="wikipedia:fr" v="Royaume-Uni"/>
  </node>
  <node id="241003027" version="19" timestamp="2009-08-12T23:49:21Z" uid="48796" user="Ldp" changeset="2125182" lat="54.8847166" lon="-2.4359712">
    <tag k="alt_name" v="United Kingdom; UK; Britain; Great Britain"/>
    <tag k="capital_city" v="London"/>
    <tag k="country_code_fips" v="UK"/>
    <tag k="country_code_iso3166_1_alpha_2" v="GB"/>
    <tag k="is_in:continent" v="Europe"/>
    <tag k="is_in:ocean" v="Atlantic"/>
    <tag k="name" v="United Kingdom"/>
    <tag k="name:af" v="Verenigde Koninkryk"/>
    <tag k="name:ar" v="المملكة المتحدة"/>
    <tag k="name:cy" v="Y Deyrnas Unedig"/>
    <tag k="name:de" v="Vereinigtes Königreich"/>
    <tag k="name:en" v="United Kingdom"/>
    <tag k="name:eo" v="Unuiĝinta Reĝlando"/>
    <tag k="name:es" v="Gran Bretaña"/>
    <tag k="name:fi" v="Yhdistynyt kuningaskunta"/>
    <tag k="name:fr" v="Royaume-Uni"/>
    <tag k="name:gd" v="An Rìoghachd Aonaichte"/>
    <tag k="name:gv" v="Reeriaght Unnaneysit"/>
    <tag k="name:he" v="בריטניה"/>
    <tag k="name:hu" v="Nagy-Britannia"/>
    <tag k="name:it" v="Gran Bretagna"/>
    <tag k="name:nl" v="Verenigd Koninkrijk"/>
    <tag k="name:pl" v="Wielka Brytania"/>
    <tag k="name:sv" v="Storbritannien"/>
    <tag k="name:zh" v="英国"/>
    <tag k="name:zh_py" v="Yingguo"/>
    <tag k="name:zh_pyt" v="Yīngguó"/>
    <tag k="official_name" v="United Kingdom of Great Britain and Northern Ireland"/>
    <tag k="official_name:es" v="Reino Unido de Gran Bretaña"/>
    <tag k="official_name:fr" v="Royaume-Uni de Grande-Bretagne et d&apos;Irlande du Nord"/>
    <tag k="official_name:pl" v="Zjednoczone Królestwo Wielkiej Brytanii"/>
    <tag k="place" v="country"/>
    <tag k="population" v="60975000"/>
    <tag k="wikipedia" v="United Kingdom"/>
    <tag k="wikipedia:fr" v="Royaume-Uni"/>
  </node>
  <node id="241003027" version="20" timestamp="2009-08-13T00:13:57Z" uid="9010" user="rasher" changeset="2125330" lat="54.8847166" lon="-2.4359712">
    <tag k="alt_name" v="United Kingdom; UK; Britain; Great Britain"/>
    <tag k="capital_city" v="London"/>
    <tag k="country_code_fips" v="UK"/>
    <tag k="country_code_iso3166_1_alpha_2" v="GB"/>
    <tag k="is_in:continent" v="Europe"/>
    <tag k="is_in:ocean" v="Atlantic"/>
    <tag k="name" v="United Kingdom"/>
    <tag k="name:af" v="Verenigde Koninkryk"/>
    <tag k="name:ar" v="المملكة المتحدة"/>
    <tag k="name:cy" v="Y Deyrnas Unedig"/>
    <tag k="name:da" v="Storbritannien"/>
    <tag k="name:de" v="Vereinigtes Königreich"/>
    <tag k="name:en" v="United Kingdom"/>
    <tag k="name:eo" v="Unuiĝinta Reĝlando"/>
    <tag k="name:es" v="Gran Bretaña"/>
    <tag k="name:fi" v="Yhdistynyt kuningaskunta"/>
    <tag k="name:fr" v="Royaume-Uni"/>
    <tag k="name:gd" v="An Rìoghachd Aonaichte"/>
    <tag k="name:gv" v="Reeriaght Unnaneysit"/>
    <tag k="name:he" v="בריטניה"/>
    <tag k="name:hu" v="Nagy-Britannia"/>
    <tag k="name:it" v="Gran Bretagna"/>
    <tag k="name:nl" v="Verenigd Koninkrijk"/>
    <tag k="name:pl" v="Wielka Brytania"/>
    <tag k="name:sv" v="Storbritannien"/>
    <tag k="name:zh" v="英国"/>
    <tag k="name:zh_py" v="Yingguo"/>
    <tag k="name:zh_pyt" v="Yīngguó"/>
    <tag k="official_name" v="United Kingdom of Great Britain and Northern Ireland"/>
    <tag k="official_name:es" v="Reino Unido de Gran Bretaña"/>
    <tag k="official_name:fr" v="Royaume-Uni de Grande-Bretagne et d&apos;Irlande du Nord"/>
    <tag k="official_name:pl" v="Zjednoczone Królestwo Wielkiej Brytanii"/>
    <tag k="place" v="country"/>
    <tag k="population" v="60975000"/>
    <tag k="wikipedia" v="United Kingdom"/>
    <tag k="wikipedia:fr" v="Royaume-Uni"/>
  </node>
  <node id="241003027" version="21" timestamp="2009-08-13T01:10:34Z" uid="48796" user="Ldp" changeset="2125704" lat="54.8847166" lon="-2.4359712">
    <tag k="alt_name" v="United Kingdom; UK; Britain; Great Britain"/>
    <tag k="capital_city" v="London"/>
    <tag k="country_code_fips" v="UK"/>
    <tag k="country_code_iso3166_1_alpha_2" v="GB"/>
    <tag k="is_in:continent" v="Europe"/>
    <tag k="is_in:ocean" v="Atlantic"/>
    <tag k="name" v="United Kingdom"/>
    <tag k="name:af" v="Verenigde Koninkryk"/>
    <tag k="name:ar" v="المملكة المتحدة"/>
    <tag k="name:cy" v="Y Deyrnas Unedig"/>
    <tag k="name:da" v="Storbritannien"/>
    <tag k="name:de" v="Vereinigtes Königreich"/>
    <tag k="name:en" v="United Kingdom"/>
    <tag k="name:eo" v="Unuiĝinta Reĝlando"/>
    <tag k="name:es" v="Gran Bretaña"/>
    <tag k="name:fi" v="Yhdistynyt kuningaskunta"/>
    <tag k="name:fr" v="Royaume-Uni"/>
    <tag k="name:fy" v="Grut-Brittanje"/>
    <tag k="name:gd" v="An Rìoghachd Aonaichte"/>
    <tag k="name:gv" v="Reeriaght Unnaneysit"/>
    <tag k="name:he" v="בריטניה"/>
    <tag k="name:hu" v="Nagy-Britannia"/>
    <tag k="name:it" v="Gran Bretagna"/>
    <tag k="name:nl" v="Verenigd Koninkrijk"/>
    <tag k="name:pl" v="Wielka Brytania"/>
    <tag k="name:sv" v="Storbritannien"/>
    <tag k="name:zh" v="英国"/>
    <tag k="name:zh_py" v="Yingguo"/>
    <tag k="name:zh_pyt" v="Yīngguó"/>
    <tag k="official_name" v="United Kingdom of Great Britain and Northern Ireland"/>
    <tag k="official_name:es" v="Reino Unido de Gran Bretaña"/>
    <tag k="official_name:fr" v="Royaume-Uni de Grande-Bretagne et d&apos;Irlande du Nord"/>
    <tag k="official_name:pl" v="Zjednoczone Królestwo Wielkiej Brytanii"/>
    <tag k="place" v="country"/>
    <tag k="population" v="60975000"/>
    <tag k="wikipedia" v="United Kingdom"/>
    <tag k="wikipedia:fr" v="Royaume-Uni"/>
  </node>
  <node id="241003027" version="22" timestamp="2009-08-13T01:48:53Z" uid="24965" user="Ævar Arnfjörð Bjarmason" changeset="2125890" lat="54.8847166" lon="-2.4359712">
    <tag k="alt_name" v="United Kingdom; UK; Britain; Great Britain"/>
    <tag k="capital_city" v="London"/>
    <tag k="country_code_fips" v="UK"/>
    <tag k="country_code_iso3166_1_alpha_2" v="GB"/>
    <tag k="is_in:continent" v="Europe"/>
    <tag k="is_in:ocean" v="Atlantic"/>
    <tag k="name" v="United Kingdom"/>
    <tag k="name:af" v="Verenigde Koninkryk"/>
    <tag k="name:ar" v="المملكة المتحدة"/>
    <tag k="name:cy" v="Y Deyrnas Unedig"/>
    <tag k="name:da" v="Storbritannien"/>
    <tag k="name:de" v="Vereinigtes Königreich"/>
    <tag k="name:en" v="United Kingdom"/>
    <tag k="name:eo" v="Unuiĝinta Reĝlando"/>
    <tag k="name:es" v="Gran Bretaña"/>
    <tag k="name:fi" v="Yhdistynyt kuningaskunta"/>
    <tag k="name:fr" v="Royaume-Uni"/>
    <tag k="name:fy" v="Grut-Brittanje"/>
    <tag k="name:gd" v="An Rìoghachd Aonaichte"/>
    <tag k="name:gv" v="Reeriaght Unnaneysit"/>
    <tag k="name:he" v="בריטניה"/>
    <tag k="name:hu" v="Nagy-Britannia"/>
    <tag k="name:is" v="Bretland"/>
    <tag k="name:it" v="Gran Bretagna"/>
    <tag k="name:nl" v="Verenigd Koninkrijk"/>
    <tag k="name:pl" v="Wielka Brytania"/>
    <tag k="name:sv" v="Storbritannien"/>
    <tag k="name:zh" v="英国"/>
    <tag k="name:zh_py" v="Yingguo"/>
    <tag k="name:zh_pyt" v="Yīngguó"/>
    <tag k="official_name" v="United Kingdom of Great Britain and Northern Ireland"/>
    <tag k="official_name:es" v="Reino Unido de Gran Bretaña"/>
    <tag k="official_name:fr" v="Royaume-Uni de Grande-Bretagne et d&apos;Irlande du Nord"/>
    <tag k="official_name:pl" v="Zjednoczone Królestwo Wielkiej Brytanii"/>
    <tag k="place" v="country"/>
    <tag k="population" v="60975000"/>
    <tag k="wikipedia" v="United Kingdom"/>
    <tag k="wikipedia:fr" v="Royaume-Uni"/>
  </node>
  <node id="241003027" version="23" timestamp="2009-08-13T12:38:21Z" uid="23966" user="Thomas Petillon" changeset="2130978" lat="54.8847194" lon="-2.4359739">
    <tag k="alt_name" v="United Kingdom; UK; Britain; Great Britain"/>
    <tag k="capital_city" v="London"/>
    <tag k="country_code_fips" v="UK"/>
    <tag k="country_code_iso3166_1_alpha_2" v="GB"/>
    <tag k="is_in:continent" v="Europe"/>
    <tag k="is_in:ocean" v="Atlantic"/>
    <tag k="name" v="United Kingdom"/>
    <tag k="name:af" v="Verenigde Koninkryk"/>
    <tag k="name:ar" v="المملكة المتحدة"/>
    <tag k="name:br" v="Rouantelezh Unanet"/>
    <tag k="name:cy" v="Y Deyrnas Unedig"/>
    <tag k="name:da" v="Storbritannien"/>
    <tag k="name:de" v="Vereinigtes Königreich"/>
    <tag k="name:en" v="United Kingdom"/>
    <tag k="name:eo" v="Unuiĝinta Reĝlando"/>
    <tag k="name:es" v="Gran Bretaña"/>
    <tag k="name:fi" v="Yhdistynyt kuningaskunta"/>
    <tag k="name:fr" v="Royaume-Uni"/>
    <tag k="name:fy" v="Grut-Brittanje"/>
    <tag k="name:gd" v="An Rìoghachd Aonaichte"/>
    <tag k="name:gv" v="Reeriaght Unnaneysit"/>
    <tag k="name:he" v="בריטניה"/>
    <tag k="name:hu" v="Nagy-Britannia"/>
    <tag k="name:is" v="Bretland"/>
    <tag k="name:it" v="Gran Bretagna"/>
    <tag k="name:nl" v="Verenigd Koninkrijk"/>
    <tag k="name:pl" v="Wielka Brytania"/>
    <tag k="name:sv" v="Storbritannien"/>
    <tag k="name:zh" v="英国"/>
    <tag k="name:zh_py" v="Yingguo"/>
    <tag k="name:zh_pyt" v="Yīngguó"/>
    <tag k="official_name" v="United Kingdom of Great Britain and Northern Ireland"/>
    <tag k="official_name:br" v="Rouantelezh Unanet Breizh-Veur ha Norzhiwerzhon"/>
    <tag k="official_name:es" v="Reino Unido de Gran Bretaña"/>
    <tag k="official_name:fr" v="Royaume-Uni de Grande-Bretagne et d&apos;Irlande du Nord"/>
    <tag k="official_name:pl" v="Zjednoczone Królestwo Wielkiej Brytanii"/>
    <tag k="place" v="country"/>
    <tag k="population" v="60975000"/>
    <tag k="wikipedia" v="United Kingdom"/>
    <tag k="wikipedia:fr" v="Royaume-Uni"/>
  </node>
  <node id="241003027" version="24" timestamp="2009-08-13T13:54:42Z" uid="48796" user="Ldp" changeset="2131830" lat="54.8847194" lon="-2.4359739">
    <tag k="alt_name" v="United Kingdom; UK; Britain; Great Britain"/>
    <tag k="capital_city" v="London"/>
    <tag k="country_code_fips" v="UK"/>
    <tag k="country_code_iso3166_1_alpha_2" v="GB"/>
    <tag k="is_in:continent" v="Europe"/>
    <tag k="is_in:ocean" v="Atlantic"/>
    <tag k="name" v="United Kingdom"/>
    <tag k="name:af" v="Verenigde Koninkryk"/>
    <tag k="name:ar" v="المملكة المتحدة"/>
    <tag k="name:br" v="Rouantelezh Unanet"/>
    <tag k="name:cy" v="Y Deyrnas Unedig"/>
    <tag k="name:da" v="Storbritannien"/>
    <tag k="name:de" v="Vereinigtes Königreich"/>
    <tag k="name:en" v="United Kingdom"/>
    <tag k="name:eo" v="Unuiĝinta Reĝlando"/>
    <tag k="name:es" v="Gran Bretaña"/>
    <tag k="name:fi" v="Yhdistynyt kuningaskunta"/>
    <tag k="name:fr" v="Royaume-Uni"/>
    <tag k="name:fy" v="Grut-Brittanje"/>
    <tag k="name:gd" v="An Rìoghachd Aonaichte"/>
    <tag k="name:gv" v="Reeriaght Unnaneysit"/>
    <tag k="name:he" v="בריטניה"/>
    <tag k="name:hu" v="Nagy-Britannia"/>
    <tag k="name:is" v="Bretland"/>
    <tag k="name:it" v="Gran Bretagna"/>
    <tag k="name:li" v="Vereineg Keuninkriek"/>
    <tag k="name:nl" v="Verenigd Koninkrijk"/>
    <tag k="name:pl" v="Wielka Brytania"/>
    <tag k="name:sv" v="Storbritannien"/>
    <tag k="name:zh" v="英国"/>
    <tag k="name:zh_py" v="Yingguo"/>
    <tag k="name:zh_pyt" v="Yīngguó"/>
    <tag k="official_name" v="United Kingdom of Great Britain and Northern Ireland"/>
    <tag k="official_name:br" v="Rouantelezh Unanet Breizh-Veur ha Norzhiwerzhon"/>
    <tag k="official_name:es" v="Reino Unido de Gran Bretaña"/>
    <tag k="official_name:fr" v="Royaume-Uni de Grande-Bretagne et d&apos;Irlande du Nord"/>
    <tag k="official_name:pl" v="Zjednoczone Królestwo Wielkiej Brytanii"/>
    <tag k="place" v="country"/>
    <tag k="population" v="60975000"/>
    <tag k="wikipedia" v="United Kingdom"/>
    <tag k="wikipedia:fr" v="Royaume-Uni"/>
  </node>
  <node id="241003027" version="25" timestamp="2009-08-13T17:26:10Z" uid="17497" user="katpatuka" changeset="2134178" lat="54.8847219" lon="-2.4359755">
    <tag k="alt_name" v="United Kingdom; UK; Britain; Great Britain"/>
    <tag k="capital_city" v="London"/>
    <tag k="country_code_fips" v="UK"/>
    <tag k="country_code_iso3166_1_alpha_2" v="GB"/>
    <tag k="is_in:continent" v="Europe"/>
    <tag k="is_in:ocean" v="Atlantic"/>
    <tag k="name" v="United Kingdom"/>
    <tag k="name:af" v="Verenigde Koninkryk"/>
    <tag k="name:ar" v="المملكة المتحدة"/>
    <tag k="name:br" v="Rouantelezh Unanet"/>
    <tag k="name:cy" v="Y Deyrnas Unedig"/>
    <tag k="name:da" v="Storbritannien"/>
    <tag k="name:de" v="Vereinigtes Königreich"/>
    <tag k="name:en" v="United Kingdom"/>
    <tag k="name:eo" v="Unuiĝinta Reĝlando"/>
    <tag k="name:es" v="Gran Bretaña"/>
    <tag k="name:fi" v="Yhdistynyt kuningaskunta"/>
    <tag k="name:fr" v="Royaume-Uni"/>
    <tag k="name:fy" v="Grut-Brittanje"/>
    <tag k="name:gd" v="An Rìoghachd Aonaichte"/>
    <tag k="name:gv" v="Reeriaght Unnaneysit"/>
    <tag k="name:he" v="בריטניה"/>
    <tag k="name:hu" v="Nagy-Britannia"/>
    <tag k="name:is" v="Bretland"/>
    <tag k="name:it" v="Gran Bretagna"/>
    <tag k="name:li" v="Vereineg Keuninkriek"/>
    <tag k="name:nl" v="Verenigd Koninkrijk"/>
    <tag k="name:pl" v="Wielka Brytania"/>
    <tag k="name:sv" v="Storbritannien"/>
    <tag k="name:tr" v="Birleşik Krallık"/>
    <tag k="name:zh" v="英国"/>
    <tag k="name:zh_py" v="Yingguo"/>
    <tag k="name:zh_pyt" v="Yīngguó"/>
    <tag k="official_name" v="United Kingdom of Great Britain and Northern Ireland"/>
    <tag k="official_name:br" v="Rouantelezh Unanet Breizh-Veur ha Norzhiwerzhon"/>
    <tag k="official_name:es" v="Reino Unido de Gran Bretaña"/>
    <tag k="official_name:fr" v="Royaume-Uni de Grande-Bretagne et d&apos;Irlande du Nord"/>
    <tag k="official_name:pl" v="Zjednoczone Królestwo Wielkiej Brytanii"/>
    <tag k="place" v="country"/>
    <tag k="population" v="60975000"/>
    <tag k="wikipedia" v="United Kingdom"/>
    <tag k="wikipedia:fr" v="Royaume-Uni"/>
  </node>
  <node id="241003027" version="26" timestamp="2009-08-13T19:31:40Z" uid="61891" user="stephankn" changeset="2135797" lat="54.8847219" lon="-2.4359755">
    <tag k="alt_name" v="United Kingdom; UK; Britain; Great Britain"/>
    <tag k="capital_city" v="London"/>
    <tag k="country_code_fips" v="UK"/>
    <tag k="country_code_iso3166_1_alpha_2" v="GB"/>
    <tag k="is_in:continent" v="Europe"/>
    <tag k="is_in:ocean" v="Atlantic"/>
    <tag k="name" v="United Kingdom"/>
    <tag k="name:af" v="Verenigde Koninkryk"/>
    <tag k="name:ar" v="المملكة المتحدة"/>
    <tag k="name:br" v="Rouantelezh Unanet"/>
    <tag k="name:cy" v="Y Deyrnas Unedig"/>
    <tag k="name:da" v="Storbritannien"/>
    <tag k="name:de" v="Vereinigtes Königreich"/>
    <tag k="name:en" v="United Kingdom"/>
    <tag k="name:eo" v="Unuiĝinta Reĝlando"/>
    <tag k="name:es" v="Gran Bretaña"/>
    <tag k="name:fi" v="Yhdistynyt kuningaskunta"/>
    <tag k="name:fr" v="Royaume-Uni"/>
    <tag k="name:fy" v="Grut-Brittanje"/>
    <tag k="name:gd" v="An Rìoghachd Aonaichte"/>
    <tag k="name:gv" v="Reeriaght Unnaneysit"/>
    <tag k="name:he" v="בריטניה"/>
    <tag k="name:hu" v="Nagy-Britannia"/>
    <tag k="name:is" v="Bretland"/>
    <tag k="name:it" v="Gran Bretagna"/>
    <tag k="name:li" v="Vereineg Keuninkriek"/>
    <tag k="name:nl" v="Verenigd Koninkrijk"/>
    <tag k="name:pl" v="Wielka Brytania"/>
    <tag k="name:sv" v="Storbritannien"/>
    <tag k="name:th" v="สหราชอาณาจักร"/>
    <tag k="name:tr" v="Birleşik Krallık"/>
    <tag k="name:zh" v="英国"/>
    <tag k="name:zh_py" v="Yingguo"/>
    <tag k="name:zh_pyt" v="Yīngguó"/>
    <tag k="official_name" v="United Kingdom of Great Britain and Northern Ireland"/>
    <tag k="official_name:br" v="Rouantelezh Unanet Breizh-Veur ha Norzhiwerzhon"/>
    <tag k="official_name:es" v="Reino Unido de Gran Bretaña"/>
    <tag k="official_name:fr" v="Royaume-Uni de Grande-Bretagne et d&apos;Irlande du Nord"/>
    <tag k="official_name:pl" v="Zjednoczone Królestwo Wielkiej Brytanii"/>
    <tag k="place" v="country"/>
    <tag k="population" v="60975000"/>
    <tag k="wikipedia" v="United Kingdom"/>
    <tag k="wikipedia:fr" v="Royaume-Uni"/>
  </node>
  <node id="241003027" version="27" timestamp="2009-08-14T08:46:38Z" uid="11132" user="liosha" changeset="2140176" lat="54.8847219" lon="-2.4359755">
    <tag k="alt_name" v="United Kingdom; UK; Britain; Great Britain"/>
    <tag k="capital_city" v="London"/>
    <tag k="country_code_fips" v="UK"/>
    <tag k="country_code_iso3166_1_alpha_2" v="GB"/>
    <tag k="is_in:continent" v="Europe"/>
    <tag k="is_in:ocean" v="Atlantic"/>
    <tag k="name" v="United Kingdom"/>
    <tag k="name:af" v="Verenigde Koninkryk"/>
    <tag k="name:ar" v="المملكة المتحدة"/>
    <tag k="name:br" v="Rouantelezh Unanet"/>
    <tag k="name:cy" v="Y Deyrnas Unedig"/>
    <tag k="name:da" v="Storbritannien"/>
    <tag k="name:de" v="Vereinigtes Königreich"/>
    <tag k="name:en" v="United Kingdom"/>
    <tag k="name:eo" v="Unuiĝinta Reĝlando"/>
    <tag k="name:es" v="Gran Bretaña"/>
    <tag k="name:fi" v="Yhdistynyt kuningaskunta"/>
    <tag k="name:fr" v="Royaume-Uni"/>
    <tag k="name:fy" v="Grut-Brittanje"/>
    <tag k="name:gd" v="An Rìoghachd Aonaichte"/>
    <tag k="name:gv" v="Reeriaght Unnaneysit"/>
    <tag k="name:he" v="בריטניה"/>
    <tag k="name:hu" v="Nagy-Britannia"/>
    <tag k="name:is" v="Bretland"/>
    <tag k="name:it" v="Gran Bretagna"/>
    <tag k="name:li" v="Vereineg Keuninkriek"/>
    <tag k="name:nl" v="Verenigd Koninkrijk"/>
    <tag k="name:pl" v="Wielka Brytania"/>
    <tag k="name:ru" v="Великобритания"/>
    <tag k="name:sv" v="Storbritannien"/>
    <tag k="name:th" v="สหราชอาณาจักร"/>
    <tag k="name:tr" v="Birleşik Krallık"/>
    <tag k="name:zh" v="英国"/>
    <tag k="name:zh_py" v="Yingguo"/>
    <tag k="name:zh_pyt" v="Yīngguó"/>
    <tag k="official_name" v="United Kingdom of Great Britain and Northern Ireland"/>
    <tag k="official_name:br" v="Rouantelezh Unanet Breizh-Veur ha Norzhiwerzhon"/>
    <tag k="official_name:es" v="Reino Unido de Gran Bretaña"/>
    <tag k="official_name:fr" v="Royaume-Uni de Grande-Bretagne et d&apos;Irlande du Nord"/>
    <tag k="official_name:pl" v="Zjednoczone Królestwo Wielkiej Brytanii"/>
    <tag k="place" v="country"/>
    <tag k="population" v="60975000"/>
    <tag k="wikipedia" v="United Kingdom"/>
    <tag k="wikipedia:fr" v="Royaume-Uni"/>
  </node>
  <node id="241003027" version="28" timestamp="2009-08-14T12:16:07Z" uid="36870" user="Erik Lundin" changeset="2142185" lat="54.8847219" lon="-2.4359755">
    <tag k="alt_name" v="United Kingdom; UK; Britain; Great Britain"/>
    <tag k="capital_city" v="London"/>
    <tag k="country_code_fips" v="UK"/>
    <tag k="country_code_iso3166_1_alpha_2" v="GB"/>
    <tag k="is_in:continent" v="Europe"/>
    <tag k="is_in:ocean" v="Atlantic"/>
    <tag k="name" v="United Kingdom"/>
    <tag k="name:af" v="Verenigde Koninkryk"/>
    <tag k="name:ar" v="المملكة المتحدة"/>
    <tag k="name:br" v="Rouantelezh Unanet"/>
    <tag k="name:cy" v="Y Deyrnas Unedig"/>
    <tag k="name:da" v="Storbritannien"/>
    <tag k="name:de" v="Vereinigtes Königreich"/>
    <tag k="name:en" v="United Kingdom"/>
    <tag k="name:eo" v="Unuiĝinta Reĝlando"/>
    <tag k="name:es" v="Gran Bretaña"/>
    <tag k="name:fi" v="Yhdistynyt kuningaskunta"/>
    <tag k="name:fr" v="Royaume-Uni"/>
    <tag k="name:fy" v="Grut-Brittanje"/>
    <tag k="name:gd" v="An Rìoghachd Aonaichte"/>
    <tag k="name:gv" v="Reeriaght Unnaneysit"/>
    <tag k="name:he" v="בריטניה"/>
    <tag k="name:hu" v="Nagy-Britannia"/>
    <tag k="name:is" v="Bretland"/>
    <tag k="name:it" v="Gran Bretagna"/>
    <tag k="name:li" v="Vereineg Keuninkriek"/>
    <tag k="name:nl" v="Verenigd Koninkrijk"/>
    <tag k="name:pl" v="Wielka Brytania"/>
    <tag k="name:ru" v="Великобритания"/>
    <tag k="name:sv" v="Storbritannien"/>
    <tag k="name:th" v="สหราชอาณาจักร"/>
    <tag k="name:tr" v="Birleşik Krallık"/>
    <tag k="name:zh" v="英国"/>
    <tag k="name:zh_py" v="Yingguo"/>
    <tag k="name:zh_pyt" v="Yīngguó"/>
    <tag k="official_name" v="United Kingdom of Great Britain and Northern Ireland"/>
    <tag k="official_name:br" v="Rouantelezh Unanet Breizh-Veur ha Norzhiwerzhon"/>
    <tag k="official_name:es" v="Reino Unido de Gran Bretaña"/>
    <tag k="official_name:fr" v="Royaume-Uni de Grande-Bretagne et d&apos;Irlande du Nord"/>
    <tag k="official_name:pl" v="Zjednoczone Królestwo Wielkiej Brytanii"/>
    <tag k="official_name:sv" v="Förenade konungariket Storbritannien och Nordirland"/>
    <tag k="place" v="country"/>
    <tag k="population" v="60975000"/>
    <tag k="wikipedia" v="United Kingdom"/>
    <tag k="wikipedia:fr" v="Royaume-Uni"/>
  </node>
  <node id="241003027" version="29" timestamp="2009-08-15T01:43:21Z" uid="48796" user="Ldp" changeset="2149158" lat="54.8847219" lon="-2.4359755">
    <tag k="alt_name" v="United Kingdom; UK; Britain; Great Britain"/>
    <tag k="capital_city" v="London"/>
    <tag k="country_code_fips" v="UK"/>
    <tag k="country_code_iso3166_1_alpha_2" v="GB"/>
    <tag k="is_in:continent" v="Europe"/>
    <tag k="is_in:ocean" v="Atlantic"/>
    <tag k="name" v="United Kingdom"/>
    <tag k="name:af" v="Verenigde Koninkryk"/>
    <tag k="name:ar" v="المملكة المتحدة"/>
    <tag k="name:br" v="Rouantelezh Unanet"/>
    <tag k="name:cy" v="Y Deyrnas Unedig"/>
    <tag k="name:da" v="Storbritannien"/>
    <tag k="name:de" v="Vereinigtes Königreich"/>
    <tag k="name:en" v="United Kingdom"/>
    <tag k="name:eo" v="Unuiĝinta Reĝlando"/>
    <tag k="name:es" v="Gran Bretaña"/>
    <tag k="name:fi" v="Yhdistynyt kuningaskunta"/>
    <tag k="name:fr" v="Royaume-Uni"/>
    <tag k="name:fy" v="Grut-Brittanje"/>
    <tag k="name:gd" v="An Rìoghachd Aonaichte"/>
    <tag k="name:gv" v="Reeriaght Unnaneysit"/>
    <tag k="name:he" v="בריטניה"/>
    <tag k="name:hu" v="Nagy-Britannia"/>
    <tag k="name:is" v="Bretland"/>
    <tag k="name:it" v="Gran Bretagna"/>
    <tag k="name:lb" v="Groussbritannien an Nordirland"/>
    <tag k="name:li" v="Vereineg Keuninkriek"/>
    <tag k="name:nl" v="Verenigd Koninkrijk"/>
    <tag k="name:pl" v="Wielka Brytania"/>
    <tag k="name:ru" v="Великобритания"/>
    <tag k="name:sv" v="Storbritannien"/>
    <tag k="name:th" v="สหราชอาณาจักร"/>
    <tag k="name:tr" v="Birleşik Krallık"/>
    <tag k="name:zh" v="英国"/>
    <tag k="name:zh_py" v="Yingguo"/>
    <tag k="name:zh_pyt" v="Yīngguó"/>
    <tag k="official_name" v="United Kingdom of Great Britain and Northern Ireland"/>
    <tag k="official_name:br" v="Rouantelezh Unanet Breizh-Veur ha Norzhiwerzhon"/>
    <tag k="official_name:es" v="Reino Unido de Gran Bretaña"/>
    <tag k="official_name:fr" v="Royaume-Uni de Grande-Bretagne et d&apos;Irlande du Nord"/>
    <tag k="official_name:lb" v="Vereenegt Kinnekräich vu Groussbritannien an Nordirland"/>
    <tag k="official_name:pl" v="Zjednoczone Królestwo Wielkiej Brytanii"/>
    <tag k="official_name:sv" v="Förenade konungariket Storbritannien och Nordirland"/>
    <tag k="place" v="country"/>
    <tag k="population" v="60975000"/>
    <tag k="wikipedia" v="United Kingdom"/>
    <tag k="wikipedia:fr" v="Royaume-Uni"/>
  </node>
  <node id="241003027" version="30" timestamp="2009-08-15T08:50:41Z" uid="18069" user="Claudius Henrichs" changeset="2151103" lat="54.8847219" lon="-2.4359755">
    <tag k="alt_name" v="United Kingdom; UK; Britain; Great Britain"/>
    <tag k="capital_city" v="London"/>
    <tag k="country_code_fips" v="UK"/>
    <tag k="country_code_iso3166_1_alpha_2" v="GB"/>
    <tag k="is_in:continent" v="Europe"/>
    <tag k="is_in:ocean" v="Atlantic"/>
    <tag k="name" v="United Kingdom"/>
    <tag k="name:af" v="Verenigde Koninkryk"/>
    <tag k="name:ar" v="المملكة المتحدة"/>
    <tag k="name:br" v="Rouantelezh Unanet"/>
    <tag k="name:cy" v="Y Deyrnas Unedig"/>
    <tag k="name:da" v="Storbritannien"/>
    <tag k="name:de" v="Vereinigtes Königreich"/>
    <tag k="name:en" v="United Kingdom"/>
    <tag k="name:eo" v="Unuiĝinta Reĝlando"/>
    <tag k="name:es" v="Gran Bretaña"/>
    <tag k="name:fa" v="بریتانیا"/>
    <tag k="name:fi" v="Yhdistynyt kuningaskunta"/>
    <tag k="name:fr" v="Royaume-Uni"/>
    <tag k="name:fy" v="Grut-Brittanje"/>
    <tag k="name:gd" v="An Rìoghachd Aonaichte"/>
    <tag k="name:gv" v="Reeriaght Unnaneysit"/>
    <tag k="name:he" v="בריטניה"/>
    <tag k="name:hu" v="Nagy-Britannia"/>
    <tag k="name:is" v="Bretland"/>
    <tag k="name:it" v="Gran Bretagna"/>
    <tag k="name:lb" v="Groussbritannien an Nordirland"/>
    <tag k="name:li" v="Vereineg Keuninkriek"/>
    <tag k="name:nl" v="Verenigd Koninkrijk"/>
    <tag k="name:pl" v="Wielka Brytania"/>
    <tag k="name:ru" v="Великобритания"/>
    <tag k="name:sv" v="Storbritannien"/>
    <tag k="name:th" v="สหราชอาณาจักร"/>
    <tag k="name:tr" v="Birleşik Krallık"/>
    <tag k="name:zh" v="英国"/>
    <tag k="name:zh_py" v="Yingguo"/>
    <tag k="name:zh_pyt" v="Yīngguó"/>
    <tag k="official_name" v="United Kingdom of Great Britain and Northern Ireland"/>
    <tag k="official_name:br" v="Rouantelezh Unanet Breizh-Veur ha Norzhiwerzhon"/>
    <tag k="official_name:es" v="Reino Unido de Gran Bretaña"/>
    <tag k="official_name:fr" v="Royaume-Uni de Grande-Bretagne et d&apos;Irlande du Nord"/>
    <tag k="official_name:lb" v="Vereenegt Kinnekräich vu Groussbritannien an Nordirland"/>
    <tag k="official_name:pl" v="Zjednoczone Królestwo Wielkiej Brytanii"/>
    <tag k="official_name:sv" v="Förenade konungariket Storbritannien och Nordirland"/>
    <tag k="place" v="country"/>
    <tag k="population" v="60975000"/>
    <tag k="wikipedia" v="United Kingdom"/>
    <tag k="wikipedia:fr" v="Royaume-Uni"/>
  </node>
  <node id="241003027" version="31" timestamp="2009-08-15T11:15:13Z" uid="9176" user="Maarten Deen" changeset="2152724" lat="54.8847259" lon="-2.435976">
    <tag k="alt_name" v="United Kingdom; UK; Britain; Great Britain"/>
    <tag k="capital_city" v="London"/>
    <tag k="country_code_fips" v="UK"/>
    <tag k="country_code_iso3166_1_alpha_2" v="GB"/>
    <tag k="is_in:continent" v="Europe"/>
    <tag k="is_in:ocean" v="Atlantic"/>
    <tag k="name" v="United Kingdom"/>
    <tag k="name:af" v="Verenigde Koninkryk"/>
    <tag k="name:ar" v="المملكة المتحدة"/>
    <tag k="name:br" v="Rouantelezh Unanet"/>
    <tag k="name:ca" v="Regne Unit"/>
    <tag k="name:cy" v="Y Deyrnas Unedig"/>
    <tag k="name:da" v="Storbritannien"/>
    <tag k="name:de" v="Vereinigtes Königreich"/>
    <tag k="name:en" v="United Kingdom"/>
    <tag k="name:eo" v="Unuiĝinta Reĝlando"/>
    <tag k="name:es" v="Gran Bretaña"/>
    <tag k="name:fa" v="بریتانیا"/>
    <tag k="name:fi" v="Yhdistynyt kuningaskunta"/>
    <tag k="name:fr" v="Royaume-Uni"/>
    <tag k="name:fy" v="Grut-Brittanje"/>
    <tag k="name:gd" v="An Rìoghachd Aonaichte"/>
    <tag k="name:gv" v="Reeriaght Unnaneysit"/>
    <tag k="name:he" v="בריטניה"/>
    <tag k="name:hu" v="Nagy-Britannia"/>
    <tag k="name:is" v="Bretland"/>
    <tag k="name:it" v="Gran Bretagna"/>
    <tag k="name:lb" v="Groussbritannien an Nordirland"/>
    <tag k="name:li" v="Vereineg Keuninkriek"/>
    <tag k="name:nl" v="Verenigd Koninkrijk"/>
    <tag k="name:pl" v="Wielka Brytania"/>
    <tag k="name:ru" v="Великобритания"/>
    <tag k="name:sv" v="Storbritannien"/>
    <tag k="name:th" v="สหราชอาณาจักร"/>
    <tag k="name:tr" v="Birleşik Krallık"/>
    <tag k="name:zh" v="英国"/>
    <tag k="name:zh_py" v="Yingguo"/>
    <tag k="name:zh_pyt" v="Yīngguó"/>
    <tag k="official_name" v="United Kingdom of Great Britain and Northern Ireland"/>
    <tag k="official_name:br" v="Rouantelezh Unanet Breizh-Veur ha Norzhiwerzhon"/>
    <tag k="official_name:es" v="Reino Unido de Gran Bretaña"/>
    <tag k="official_name:fr" v="Royaume-Uni de Grande-Bretagne et d&apos;Irlande du Nord"/>
    <tag k="official_name:lb" v="Vereenegt Kinnekräich vu Groussbritannien an Nordirland"/>
    <tag k="official_name:pl" v="Zjednoczone Królestwo Wielkiej Brytanii"/>
    <tag k="official_name:sv" v="Förenade konungariket Storbritannien och Nordirland"/>
    <tag k="place" v="country"/>
    <tag k="population" v="60975000"/>
    <tag k="wikipedia" v="United Kingdom"/>
    <tag k="wikipedia:fr" v="Royaume-Uni"/>
  </node>
  <node id="241003027" version="32" timestamp="2009-08-15T13:01:08Z" uid="60129" user="Tomas Straupis" changeset="2153856" lat="54.8847259" lon="-2.435976">
    <tag k="alt_name" v="United Kingdom; UK; Britain; Great Britain"/>
    <tag k="capital_city" v="London"/>
    <tag k="country_code_fips" v="UK"/>
    <tag k="country_code_iso3166_1_alpha_2" v="GB"/>
    <tag k="is_in:continent" v="Europe"/>
    <tag k="is_in:ocean" v="Atlantic"/>
    <tag k="name" v="United Kingdom"/>
    <tag k="name:af" v="Verenigde Koninkryk"/>
    <tag k="name:ar" v="المملكة المتحدة"/>
    <tag k="name:br" v="Rouantelezh Unanet"/>
    <tag k="name:ca" v="Regne Unit"/>
    <tag k="name:cy" v="Y Deyrnas Unedig"/>
    <tag k="name:da" v="Storbritannien"/>
    <tag k="name:de" v="Vereinigtes Königreich"/>
    <tag k="name:en" v="United Kingdom"/>
    <tag k="name:eo" v="Unuiĝinta Reĝlando"/>
    <tag k="name:es" v="Gran Bretaña"/>
    <tag k="name:fa" v="بریتانیا"/>
    <tag k="name:fi" v="Yhdistynyt kuningaskunta"/>
    <tag k="name:fr" v="Royaume-Uni"/>
    <tag k="name:fy" v="Grut-Brittanje"/>
    <tag k="name:gd" v="An Rìoghachd Aonaichte"/>
    <tag k="name:gv" v="Reeriaght Unnaneysit"/>
    <tag k="name:he" v="בריטניה"/>
    <tag k="name:hu" v="Nagy-Britannia"/>
    <tag k="name:is" v="Bretland"/>
    <tag k="name:it" v="Gran Bretagna"/>
    <tag k="name:lb" v="Groussbritannien an Nordirland"/>
    <tag k="name:li" v="Vereineg Keuninkriek"/>
    <tag k="name:lt" v="Jungtinė Karalystė"/>
    <tag k="name:nl" v="Verenigd Koninkrijk"/>
    <tag k="name:pl" v="Wielka Brytania"/>
    <tag k="name:ru" v="Великобритания"/>
    <tag k="name:sv" v="Storbritannien"/>
    <tag k="name:th" v="สหราชอาณาจักร"/>
    <tag k="name:tr" v="Birleşik Krallık"/>
    <tag k="name:zh" v="英国"/>
    <tag k="name:zh_py" v="Yingguo"/>
    <tag k="name:zh_pyt" v="Yīngguó"/>
    <tag k="official_name" v="United Kingdom of Great Britain and Northern Ireland"/>
    <tag k="official_name:br" v="Rouantelezh Unanet Breizh-Veur ha Norzhiwerzhon"/>
    <tag k="official_name:es" v="Reino Unido de Gran Bretaña"/>
    <tag k="official_name:fr" v="Royaume-Uni de Grande-Bretagne et d&apos;Irlande du Nord"/>
    <tag k="official_name:lb" v="Vereenegt Kinnekräich vu Groussbritannien an Nordirland"/>
    <tag k="official_name:pl" v="Zjednoczone Królestwo Wielkiej Brytanii"/>
    <tag k="official_name:sv" v="Förenade konungariket Storbritannien och Nordirland"/>
    <tag k="place" v="country"/>
    <tag k="population" v="60975000"/>
    <tag k="wikipedia" v="United Kingdom"/>
    <tag k="wikipedia:fr" v="Royaume-Uni"/>
  </node>
  <node id="241003027" version="33" timestamp="2009-08-16T07:14:47Z" uid="33377" user="Victor LP" changeset="2160824" lat="54.8847259" lon="-2.435976">
    <tag k="alt_name" v="United Kingdom; UK; Britain; Great Britain"/>
    <tag k="capital_city" v="London"/>
    <tag k="country_code_fips" v="UK"/>
    <tag k="country_code_iso3166_1_alpha_2" v="GB"/>
    <tag k="is_in:continent" v="Europe"/>
    <tag k="is_in:ocean" v="Atlantic"/>
    <tag k="name" v="United Kingdom"/>
    <tag k="name:af" v="Verenigde Koninkryk"/>
    <tag k="name:ar" v="المملكة المتحدة"/>
    <tag k="name:br" v="Rouantelezh Unanet"/>
    <tag k="name:ca" v="Regne Unit"/>
    <tag k="name:cy" v="Y Deyrnas Unedig"/>
    <tag k="name:da" v="Storbritannien"/>
    <tag k="name:de" v="Vereinigtes Königreich"/>
    <tag k="name:el" v="Ηνωμένο Βασίλειο"/>
    <tag k="name:en" v="United Kingdom"/>
    <tag k="name:eo" v="Unuiĝinta Reĝlando"/>
    <tag k="name:es" v="Gran Bretaña"/>
    <tag k="name:fa" v="بریتانیا"/>
    <tag k="name:fi" v="Yhdistynyt kuningaskunta"/>
    <tag k="name:fr" v="Royaume-Uni"/>
    <tag k="name:fy" v="Grut-Brittanje"/>
    <tag k="name:gd" v="An Rìoghachd Aonaichte"/>
    <tag k="name:gv" v="Reeriaght Unnaneysit"/>
    <tag k="name:he" v="בריטניה"/>
    <tag k="name:hu" v="Nagy-Britannia"/>
    <tag k="name:is" v="Bretland"/>
    <tag k="name:it" v="Gran Bretagna"/>
    <tag k="name:lb" v="Groussbritannien an Nordirland"/>
    <tag k="name:li" v="Vereineg Keuninkriek"/>
    <tag k="name:lt" v="Jungtinė Karalystė"/>
    <tag k="name:nl" v="Verenigd Koninkrijk"/>
    <tag k="name:pl" v="Wielka Brytania"/>
    <tag k="name:ru" v="Великобритания"/>
    <tag k="name:sv" v="Storbritannien"/>
    <tag k="name:th" v="สหราชอาณาจักร"/>
    <tag k="name:tr" v="Birleşik Krallık"/>
    <tag k="name:zh" v="英国"/>
    <tag k="name:zh_py" v="Yingguo"/>
    <tag k="name:zh_pyt" v="Yīngguó"/>
    <tag k="official_name" v="United Kingdom of Great Britain and Northern Ireland"/>
    <tag k="official_name:br" v="Rouantelezh Unanet Breizh-Veur ha Norzhiwerzhon"/>
    <tag k="official_name:el" v="Ηνωμένο Βασίλειο της Μεγάλης Βρετανίας και της Βορείου Ιρλανδίας"/>
    <tag k="official_name:es" v="Reino Unido de Gran Bretaña"/>
    <tag k="official_name:fr" v="Royaume-Uni de Grande-Bretagne et d&apos;Irlande du Nord"/>
    <tag k="official_name:lb" v="Vereenegt Kinnekräich vu Groussbritannien an Nordirland"/>
    <tag k="official_name:pl" v="Zjednoczone Królestwo Wielkiej Brytanii"/>
    <tag k="official_name:sv" v="Förenade konungariket Storbritannien och Nordirland"/>
    <tag k="place" v="country"/>
    <tag k="population" v="60975000"/>
    <tag k="wikipedia" v="United Kingdom"/>
    <tag k="wikipedia:fr" v="Royaume-Uni"/>
  </node>
  <node id="241003027" version="34" timestamp="2009-08-16T12:28:22Z" uid="17497" user="katpatuka" changeset="2164743" lat="54.8847284" lon="-2.4359776">
    <tag k="alt_name" v="United Kingdom; UK; Britain; Great Britain"/>
    <tag k="capital_city" v="London"/>
    <tag k="country_code_fips" v="UK"/>
    <tag k="country_code_iso3166_1_alpha_2" v="GB"/>
    <tag k="is_in:continent" v="Europe"/>
    <tag k="is_in:ocean" v="Atlantic"/>
    <tag k="name" v="United Kingdom"/>
    <tag k="name:af" v="Verenigde Koninkryk"/>
    <tag k="name:ar" v="المملكة المتحدة"/>
    <tag k="name:br" v="Rouantelezh Unanet"/>
    <tag k="name:ca" v="Regne Unit"/>
    <tag k="name:cy" v="Y Deyrnas Unedig"/>
    <tag k="name:da" v="Storbritannien"/>
    <tag k="name:de" v="Vereinigtes Königreich"/>
    <tag k="name:el" v="Ηνωμένο Βασίλειο"/>
    <tag k="name:eo" v="Unuiĝinta Reĝlando"/>
    <tag k="name:es" v="Gran Bretaña"/>
    <tag k="name:fa" v="بریتانیا"/>
    <tag k="name:fi" v="Yhdistynyt kuningaskunta"/>
    <tag k="name:fr" v="Royaume-Uni"/>
    <tag k="name:fy" v="Grut-Brittanje"/>
    <tag k="name:gd" v="An Rìoghachd Aonaichte"/>
    <tag k="name:gv" v="Reeriaght Unnaneysit"/>
    <tag k="name:he" v="בריטניה"/>
    <tag k="name:hu" v="Nagy-Britannia"/>
    <tag k="name:is" v="Bretland"/>
    <tag k="name:it" v="Gran Bretagna"/>
    <tag k="name:lb" v="Groussbritannien an Nordirland"/>
    <tag k="name:li" v="Vereineg Keuninkriek"/>
    <tag k="name:lt" v="Jungtinė Karalystė"/>
    <tag k="name:mn" v="Нэгдсэн Вант Улс"/>
    <tag k="name:nl" v="Verenigd Koninkrijk"/>
    <tag k="name:pl" v="Wielka Brytania"/>
    <tag k="name:ru" v="Великобритания"/>
    <tag k="name:sv" v="Storbritannien"/>
    <tag k="name:th" v="สหราชอาณาจักร"/>
    <tag k="name:tr" v="Birleşik Krallık"/>
    <tag k="name:zh" v="英国"/>
    <tag k="name:zh_py" v="Yingguo"/>
    <tag k="name:zh_pyt" v="Yīngguó"/>
    <tag k="official_name" v="United Kingdom of Great Britain and Northern Ireland"/>
    <tag k="official_name:br" v="Rouantelezh Unanet Breizh-Veur ha Norzhiwerzhon"/>
    <tag k="official_name:el" v="Ηνωμένο Βασίλειο της Μεγάλης Βρετανίας και της Βορείου Ιρλανδίας"/>
    <tag k="official_name:es" v="Reino Unido de Gran Bretaña"/>
    <tag k="official_name:fr" v="Royaume-Uni de Grande-Bretagne et d&apos;Irlande du Nord"/>
    <tag k="official_name:lb" v="Vereenegt Kinnekräich vu Groussbritannien an Nordirland"/>
    <tag k="official_name:pl" v="Zjednoczone Królestwo Wielkiej Brytanii"/>
    <tag k="official_name:sv" v="Förenade konungariket Storbritannien och Nordirland"/>
    <tag k="place" v="country"/>
    <tag k="population" v="60975000"/>
    <tag k="wikipedia" v="United Kingdom"/>
    <tag k="wikipedia:fr" v="Royaume-Uni"/>
  </node>
  <node id="241003027" version="35" timestamp="2009-08-16T17:47:36Z" uid="48796" user="Ldp" changeset="2168549" lat="54.8847284" lon="-2.4359776">
    <tag k="alt_name" v="United Kingdom; UK; Britain; Great Britain"/>
    <tag k="capital_city" v="London"/>
    <tag k="country_code_fips" v="UK"/>
    <tag k="country_code_iso3166_1_alpha_2" v="GB"/>
    <tag k="is_in:continent" v="Europe"/>
    <tag k="is_in:ocean" v="Atlantic"/>
    <tag k="name" v="United Kingdom"/>
    <tag k="name:af" v="Verenigde Koninkryk"/>
    <tag k="name:ar" v="المملكة المتحدة"/>
    <tag k="name:br" v="Rouantelezh Unanet"/>
    <tag k="name:ca" v="Regne Unit"/>
    <tag k="name:cy" v="Y Deyrnas Unedig"/>
    <tag k="name:da" v="Storbritannien"/>
    <tag k="name:de" v="Vereinigtes Königreich"/>
    <tag k="name:el" v="Ηνωμένο Βασίλειο"/>
    <tag k="name:eo" v="Unuiĝinta Reĝlando"/>
    <tag k="name:es" v="Gran Bretaña"/>
    <tag k="name:et" v="Suurbritannia"/>
    <tag k="name:fa" v="بریتانیا"/>
    <tag k="name:fi" v="Yhdistynyt kuningaskunta"/>
    <tag k="name:fr" v="Royaume-Uni"/>
    <tag k="name:fy" v="Grut-Brittanje"/>
    <tag k="name:gd" v="An Rìoghachd Aonaichte"/>
    <tag k="name:gv" v="Reeriaght Unnaneysit"/>
    <tag k="name:he" v="בריטניה"/>
    <tag k="name:hu" v="Nagy-Britannia"/>
    <tag k="name:is" v="Bretland"/>
    <tag k="name:it" v="Gran Bretagna"/>
    <tag k="name:lb" v="Groussbritannien an Nordirland"/>
    <tag k="name:li" v="Vereineg Keuninkriek"/>
    <tag k="name:lt" v="Jungtinė Karalystė"/>
    <tag k="name:mn" v="Нэгдсэн Вант Улс"/>
    <tag k="name:nl" v="Verenigd Koninkrijk"/>
    <tag k="name:pl" v="Wielka Brytania"/>
    <tag k="name:ru" v="Великобритания"/>
    <tag k="name:sv" v="Storbritannien"/>
    <tag k="name:th" v="สหราชอาณาจักร"/>
    <tag k="name:tr" v="Birleşik Krallık"/>
    <tag k="name:zh" v="英国"/>
    <tag k="name:zh_py" v="Yingguo"/>
    <tag k="name:zh_pyt" v="Yīngguó"/>
    <tag k="official_name" v="United Kingdom of Great Britain and Northern Ireland"/>
    <tag k="official_name:br" v="Rouantelezh Unanet Breizh-Veur ha Norzhiwerzhon"/>
    <tag k="official_name:el" v="Ηνωμένο Βασίλειο της Μεγάλης Βρετανίας και της Βορείου Ιρλανδίας"/>
    <tag k="official_name:es" v="Reino Unido de Gran Bretaña"/>
    <tag k="official_name:et" v="Suurbritannia ja Põhja-Iiri Ühendkuningriik"/>
    <tag k="official_name:fr" v="Royaume-Uni de Grande-Bretagne et d&apos;Irlande du Nord"/>
    <tag k="official_name:lb" v="Vereenegt Kinnekräich vu Groussbritannien an Nordirland"/>
    <tag k="official_name:pl" v="Zjednoczone Królestwo Wielkiej Brytanii"/>
    <tag k="official_name:sv" v="Förenade konungariket Storbritannien och Nordirland"/>
    <tag k="place" v="country"/>
    <tag k="population" v="60975000"/>
    <tag k="wikipedia" v="United Kingdom"/>
    <tag k="wikipedia:fr" v="Royaume-Uni"/>
  </node>
  <node id="241003027" version="36" timestamp="2009-08-16T19:20:56Z" uid="1379" user="AndrewMcCarthy" changeset="2169989" lat="54.8847284" lon="-2.4359776">
    <tag k="alt_name" v="United Kingdom; UK; Britain; Great Britain"/>
    <tag k="capital_city" v="London"/>
    <tag k="country_code_fips" v="UK"/>
    <tag k="country_code_iso3166_1_alpha_2" v="GB"/>
    <tag k="is_in:continent" v="Europe"/>
    <tag k="is_in:ocean" v="Atlantic"/>
    <tag k="name" v="United Kingdom"/>
    <tag k="name:af" v="Verenigde Koninkryk"/>
    <tag k="name:ar" v="المملكة المتحدة"/>
    <tag k="name:br" v="Rouantelezh Unanet"/>
    <tag k="name:ca" v="Regne Unit"/>
    <tag k="name:cy" v="Y Deyrnas Unedig"/>
    <tag k="name:da" v="Storbritannien"/>
    <tag k="name:de" v="Vereinigtes Königreich"/>
    <tag k="name:el" v="Ηνωμένο Βασίλειο"/>
    <tag k="name:eo" v="Unuiĝinta Reĝlando"/>
    <tag k="name:es" v="Gran Bretaña"/>
    <tag k="name:et" v="Suurbritannia"/>
    <tag k="name:fa" v="بریتانیا"/>
    <tag k="name:fi" v="Yhdistynyt kuningaskunta"/>
    <tag k="name:fr" v="Royaume-Uni"/>
    <tag k="name:fy" v="Grut-Brittanje"/>
    <tag k="name:ga" v="An Ríocht Aontaithe"/>
    <tag k="name:gd" v="An Rìoghachd Aonaichte"/>
    <tag k="name:gv" v="Reeriaght Unnaneysit"/>
    <tag k="name:he" v="בריטניה"/>
    <tag k="name:hu" v="Nagy-Britannia"/>
    <tag k="name:is" v="Bretland"/>
    <tag k="name:it" v="Gran Bretagna"/>
    <tag k="name:lb" v="Groussbritannien an Nordirland"/>
    <tag k="name:li" v="Vereineg Keuninkriek"/>
    <tag k="name:lt" v="Jungtinė Karalystė"/>
    <tag k="name:mn" v="Нэгдсэн Вант Улс"/>
    <tag k="name:nl" v="Verenigd Koninkrijk"/>
    <tag k="name:pl" v="Wielka Brytania"/>
    <tag k="name:ru" v="Великобритания"/>
    <tag k="name:sv" v="Storbritannien"/>
    <tag k="name:th" v="สหราชอาณาจักร"/>
    <tag k="name:tr" v="Birleşik Krallık"/>
    <tag k="name:zh" v="英国"/>
    <tag k="name:zh_py" v="Yingguo"/>
    <tag k="name:zh_pyt" v="Yīngguó"/>
    <tag k="official_name" v="United Kingdom of Great Britain and Northern Ireland"/>
    <tag k="official_name:br" v="Rouantelezh Unanet Breizh-Veur ha Norzhiwerzhon"/>
    <tag k="official_name:el" v="Ηνωμένο Βασίλειο της Μεγάλης Βρετανίας και της Βορείου Ιρλανδίας"/>
    <tag k="official_name:es" v="Reino Unido de Gran Bretaña"/>
    <tag k="official_name:et" v="Suurbritannia ja Põhja-Iiri Ühendkuningriik"/>
    <tag k="official_name:fr" v="Royaume-Uni de Grande-Bretagne et d&apos;Irlande du Nord"/>
    <tag k="official_name:lb" v="Vereenegt Kinnekräich vu Groussbritannien an Nordirland"/>
    <tag k="official_name:pl" v="Zjednoczone Królestwo Wielkiej Brytanii"/>
    <tag k="official_name:sv" v="Förenade konungariket Storbritannien och Nordirland"/>
    <tag k="place" v="country"/>
    <tag k="population" v="60975000"/>
    <tag k="wikipedia" v="United Kingdom"/>
    <tag k="wikipedia:fr" v="Royaume-Uni"/>
  </node>
  <node id="241003027" version="37" timestamp="2009-08-16T19:25:14Z" uid="12293" user="Nighto" changeset="2170071" lat="54.8847314" lon="-2.4359855">
    <tag k="alt_name" v="United Kingdom; UK; Britain; Great Britain"/>
    <tag k="capital_city" v="London"/>
    <tag k="country_code_fips" v="UK"/>
    <tag k="country_code_iso3166_1_alpha_2" v="GB"/>
    <tag k="is_in:continent" v="Europe"/>
    <tag k="is_in:ocean" v="Atlantic"/>
    <tag k="name" v="United Kingdom"/>
    <tag k="name:af" v="Verenigde Koninkryk"/>
    <tag k="name:ar" v="المملكة المتحدة"/>
    <tag k="name:br" v="Rouantelezh Unanet"/>
    <tag k="name:ca" v="Regne Unit"/>
    <tag k="name:cy" v="Y Deyrnas Unedig"/>
    <tag k="name:da" v="Storbritannien"/>
    <tag k="name:de" v="Vereinigtes Königreich"/>
    <tag k="name:el" v="Ηνωμένο Βασίλειο"/>
    <tag k="name:eo" v="Unuiĝinta Reĝlando"/>
    <tag k="name:es" v="Gran Bretaña"/>
    <tag k="name:et" v="Suurbritannia"/>
    <tag k="name:fa" v="بریتانیا"/>
    <tag k="name:fi" v="Yhdistynyt kuningaskunta"/>
    <tag k="name:fr" v="Royaume-Uni"/>
    <tag k="name:fy" v="Grut-Brittanje"/>
    <tag k="name:ga" v="An Ríocht Aontaithe"/>
    <tag k="name:gd" v="An Rìoghachd Aonaichte"/>
    <tag k="name:gv" v="Reeriaght Unnaneysit"/>
    <tag k="name:he" v="בריטניה"/>
    <tag k="name:hu" v="Nagy-Britannia"/>
    <tag k="name:is" v="Bretland"/>
    <tag k="name:it" v="Gran Bretagna"/>
    <tag k="name:lb" v="Groussbritannien an Nordirland"/>
    <tag k="name:li" v="Vereineg Keuninkriek"/>
    <tag k="name:lt" v="Jungtinė Karalystė"/>
    <tag k="name:mn" v="Нэгдсэн Вант Улс"/>
    <tag k="name:nl" v="Verenigd Koninkrijk"/>
    <tag k="name:pl" v="Wielka Brytania"/>
    <tag k="name:pt" v="Reino Unido"/>
    <tag k="name:ru" v="Великобритания"/>
    <tag k="name:sv" v="Storbritannien"/>
    <tag k="name:th" v="สหราชอาณาจักร"/>
    <tag k="name:tr" v="Birleşik Krallık"/>
    <tag k="name:zh" v="英国"/>
    <tag k="name:zh_py" v="Yingguo"/>
    <tag k="name:zh_pyt" v="Yīngguó"/>
    <tag k="official_name" v="United Kingdom of Great Britain and Northern Ireland"/>
    <tag k="official_name:br" v="Rouantelezh Unanet Breizh-Veur ha Norzhiwerzhon"/>
    <tag k="official_name:el" v="Ηνωμένο Βασίλειο της Μεγάλης Βρετανίας και της Βορείου Ιρλανδίας"/>
    <tag k="official_name:es" v="Reino Unido de Gran Bretaña"/>
    <tag k="official_name:et" v="Suurbritannia ja Põhja-Iiri Ühendkuningriik"/>
    <tag k="official_name:fr" v="Royaume-Uni de Grande-Bretagne et d&apos;Irlande du Nord"/>
    <tag k="official_name:lb" v="Vereenegt Kinnekräich vu Groussbritannien an Nordirland"/>
    <tag k="official_name:pl" v="Zjednoczone Królestwo Wielkiej Brytanii"/>
    <tag k="official_name:pt" v="Reino Unido da Grã-Bretanha e Irlanda do Norte"/>
    <tag k="official_name:sv" v="Förenade konungariket Storbritannien och Nordirland"/>
    <tag k="place" v="country"/>
    <tag k="population" v="60975000"/>
    <tag k="wikipedia" v="United Kingdom"/>
    <tag k="wikipedia:fr" v="Royaume-Uni"/>
  </node>
  <node id="241003027" version="38" timestamp="2009-08-16T20:40:44Z" uid="107037" user="ulfm" changeset="2171139" lat="54.8847343" lon="-2.4359935">
    <tag k="alt_name" v="United Kingdom; UK; Britain; Great Britain"/>
    <tag k="capital_city" v="London"/>
    <tag k="country_code_fips" v="UK"/>
    <tag k="country_code_iso3166_1_alpha_2" v="GB"/>
    <tag k="is_in:continent" v="Europe"/>
    <tag k="is_in:ocean" v="Atlantic"/>
    <tag k="name" v="United Kingdom"/>
    <tag k="name:af" v="Verenigde Koninkryk"/>
    <tag k="name:ar" v="المملكة المتحدة"/>
    <tag k="name:br" v="Rouantelezh Unanet"/>
    <tag k="name:ca" v="Regne Unit"/>
    <tag k="name:cy" v="Y Deyrnas Unedig"/>
    <tag k="name:da" v="Storbritannien"/>
    <tag k="name:de" v="Vereinigtes Königreich"/>
    <tag k="name:el" v="Ηνωμένο Βασίλειο"/>
    <tag k="name:eo" v="Unuiĝinta Reĝlando"/>
    <tag k="name:es" v="Gran Bretaña"/>
    <tag k="name:et" v="Suurbritannia"/>
    <tag k="name:fa" v="بریتانیا"/>
    <tag k="name:fi" v="Yhdistynyt kuningaskunta"/>
    <tag k="name:fr" v="Royaume-Uni"/>
    <tag k="name:fy" v="Grut-Brittanje"/>
    <tag k="name:ga" v="An Ríocht Aontaithe"/>
    <tag k="name:gd" v="An Rìoghachd Aonaichte"/>
    <tag k="name:gv" v="Reeriaght Unnaneysit"/>
    <tag k="name:he" v="בריטניה"/>
    <tag k="name:hu" v="Nagy-Britannia"/>
    <tag k="name:is" v="Bretland"/>
    <tag k="name:it" v="Gran Bretagna"/>
    <tag k="name:lb" v="Groussbritannien an Nordirland"/>
    <tag k="name:li" v="Vereineg Keuninkriek"/>
    <tag k="name:lt" v="Jungtinė Karalystė"/>
    <tag k="name:mn" v="Нэгдсэн Вант Улс"/>
    <tag k="name:nds" v="Vereenigde Königriek"/>
    <tag k="name:nl" v="Verenigd Koninkrijk"/>
    <tag k="name:pl" v="Wielka Brytania"/>
    <tag k="name:pt" v="Reino Unido"/>
    <tag k="name:ru" v="Великобритания"/>
    <tag k="name:sv" v="Storbritannien"/>
    <tag k="name:th" v="สหราชอาณาจักร"/>
    <tag k="name:tr" v="Birleşik Krallık"/>
    <tag k="name:zh" v="英国"/>
    <tag k="name:zh_py" v="Yingguo"/>
    <tag k="name:zh_pyt" v="Yīngguó"/>
    <tag k="official_name" v="United Kingdom of Great Britain and Northern Ireland"/>
    <tag k="official_name:br" v="Rouantelezh Unanet Breizh-Veur ha Norzhiwerzhon"/>
    <tag k="official_name:el" v="Ηνωμένο Βασίλειο της Μεγάλης Βρετανίας και της Βορείου Ιρλανδίας"/>
    <tag k="official_name:es" v="Reino Unido de Gran Bretaña"/>
    <tag k="official_name:et" v="Suurbritannia ja Põhja-Iiri Ühendkuningriik"/>
    <tag k="official_name:fr" v="Royaume-Uni de Grande-Bretagne et d&apos;Irlande du Nord"/>
    <tag k="official_name:lb" v="Vereenegt Kinnekräich vu Groussbritannien an Nordirland"/>
    <tag k="official_name:pl" v="Zjednoczone Królestwo Wielkiej Brytanii"/>
    <tag k="official_name:pt" v="Reino Unido da Grã-Bretanha e Irlanda do Norte"/>
    <tag k="official_name:sv" v="Förenade konungariket Storbritannien och Nordirland"/>
    <tag k="place" v="country"/>
    <tag k="population" v="60975000"/>
    <tag k="wikipedia" v="United Kingdom"/>
    <tag k="wikipedia:fr" v="Royaume-Uni"/>
  </node>
  <node id="241003027" version="39" timestamp="2009-08-16T20:51:23Z" uid="107037" user="ulfm" changeset="2171269" lat="54.8847343" lon="-2.4359935">
    <tag k="alt_name" v="United Kingdom; UK; Britain; Great Britain"/>
    <tag k="capital_city" v="London"/>
    <tag k="country_code_fips" v="UK"/>
    <tag k="country_code_iso3166_1_alpha_2" v="GB"/>
    <tag k="is_in:continent" v="Europe"/>
    <tag k="is_in:ocean" v="Atlantic"/>
    <tag k="name" v="United Kingdom"/>
    <tag k="name:af" v="Verenigde Koninkryk"/>
    <tag k="name:ar" v="المملكة المتحدة"/>
    <tag k="name:br" v="Rouantelezh Unanet"/>
    <tag k="name:ca" v="Regne Unit"/>
    <tag k="name:cy" v="Y Deyrnas Unedig"/>
    <tag k="name:da" v="Storbritannien"/>
    <tag k="name:de" v="Vereinigtes Königreich"/>
    <tag k="name:el" v="Ηνωμένο Βασίλειο"/>
    <tag k="name:eo" v="Unuiĝinta Reĝlando"/>
    <tag k="name:es" v="Gran Bretaña"/>
    <tag k="name:et" v="Suurbritannia"/>
    <tag k="name:fa" v="بریتانیا"/>
    <tag k="name:fi" v="Yhdistynyt kuningaskunta"/>
    <tag k="name:fr" v="Royaume-Uni"/>
    <tag k="name:fy" v="Grut-Brittanje"/>
    <tag k="name:ga" v="An Ríocht Aontaithe"/>
    <tag k="name:gd" v="An Rìoghachd Aonaichte"/>
    <tag k="name:gv" v="Reeriaght Unnaneysit"/>
    <tag k="name:he" v="בריטניה"/>
    <tag k="name:hu" v="Nagy-Britannia"/>
    <tag k="name:is" v="Bretland"/>
    <tag k="name:it" v="Gran Bretagna"/>
    <tag k="name:lb" v="Groussbritannien an Nordirland"/>
    <tag k="name:li" v="Vereineg Keuninkriek"/>
    <tag k="name:lt" v="Jungtinė Karalystė"/>
    <tag k="name:mn" v="Нэгдсэн Вант Улс"/>
    <tag k="name:nds" v="Vereenigt Königriek"/>
    <tag k="name:nl" v="Verenigd Koninkrijk"/>
    <tag k="name:pl" v="Wielka Brytania"/>
    <tag k="name:pt" v="Reino Unido"/>
    <tag k="name:ru" v="Великобритания"/>
    <tag k="name:sv" v="Storbritannien"/>
    <tag k="name:th" v="สหราชอาณาจักร"/>
    <tag k="name:tr" v="Birleşik Krallık"/>
    <tag k="name:zh" v="英国"/>
    <tag k="name:zh_py" v="Yingguo"/>
    <tag k="name:zh_pyt" v="Yīngguó"/>
    <tag k="official_name" v="United Kingdom of Great Britain and Northern Ireland"/>
    <tag k="official_name:br" v="Rouantelezh Unanet Breizh-Veur ha Norzhiwerzhon"/>
    <tag k="official_name:el" v="Ηνωμένο Βασίλειο της Μεγάλης Βρετανίας και της Βορείου Ιρλανδίας"/>
    <tag k="official_name:es" v="Reino Unido de Gran Bretaña"/>
    <tag k="official_name:et" v="Suurbritannia ja Põhja-Iiri Ühendkuningriik"/>
    <tag k="official_name:fr" v="Royaume-Uni de Grande-Bretagne et d&apos;Irlande du Nord"/>
    <tag k="official_name:lb" v="Vereenegt Kinnekräich vu Groussbritannien an Nordirland"/>
    <tag k="official_name:pl" v="Zjednoczone Królestwo Wielkiej Brytanii"/>
    <tag k="official_name:pt" v="Reino Unido da Grã-Bretanha e Irlanda do Norte"/>
    <tag k="official_name:sv" v="Förenade konungariket Storbritannien och Nordirland"/>
    <tag k="place" v="country"/>
    <tag k="population" v="60975000"/>
    <tag k="wikipedia" v="United Kingdom"/>
    <tag k="wikipedia:fr" v="Royaume-Uni"/>
  </node>
  <node id="241003027" version="40" timestamp="2009-08-16T22:09:31Z" uid="107037" user="ulfm" changeset="2171940" lat="54.8847343" lon="-2.4359935">
    <tag k="alt_name" v="United Kingdom; UK; Britain; Great Britain"/>
    <tag k="capital_city" v="London"/>
    <tag k="country_code_fips" v="UK"/>
    <tag k="country_code_iso3166_1_alpha_2" v="GB"/>
    <tag k="is_in:continent" v="Europe"/>
    <tag k="is_in:ocean" v="Atlantic"/>
    <tag k="name" v="United Kingdom"/>
    <tag k="name:af" v="Verenigde Koninkryk"/>
    <tag k="name:ar" v="المملكة المتحدة"/>
    <tag k="name:br" v="Rouantelezh Unanet"/>
    <tag k="name:ca" v="Regne Unit"/>
    <tag k="name:cy" v="Y Deyrnas Unedig"/>
    <tag k="name:da" v="Storbritannien"/>
    <tag k="name:de" v="Vereinigtes Königreich"/>
    <tag k="name:el" v="Ηνωμένο Βασίλειο"/>
    <tag k="name:eo" v="Unuiĝinta Reĝlando"/>
    <tag k="name:es" v="Gran Bretaña"/>
    <tag k="name:et" v="Suurbritannia"/>
    <tag k="name:fa" v="بریتانیا"/>
    <tag k="name:fi" v="Yhdistynyt kuningaskunta"/>
    <tag k="name:fr" v="Royaume-Uni"/>
    <tag k="name:fy" v="Grut-Brittanje"/>
    <tag k="name:ga" v="An Ríocht Aontaithe"/>
    <tag k="name:gd" v="An Rìoghachd Aonaichte"/>
    <tag k="name:gv" v="Reeriaght Unnaneysit"/>
    <tag k="name:he" v="בריטניה"/>
    <tag k="name:hu" v="Nagy-Britannia"/>
    <tag k="name:is" v="Bretland"/>
    <tag k="name:it" v="Gran Bretagna"/>
    <tag k="name:lb" v="Groussbritannien an Nordirland"/>
    <tag k="name:li" v="Vereineg Keuninkriek"/>
    <tag k="name:lt" v="Jungtinė Karalystė"/>
    <tag k="name:mn" v="Нэгдсэн Вант Улс"/>
    <tag k="name:nds" v="Vereenigd Königriek"/>
    <tag k="name:nl" v="Verenigd Koninkrijk"/>
    <tag k="name:pl" v="Wielka Brytania"/>
    <tag k="name:pt" v="Reino Unido"/>
    <tag k="name:ru" v="Великобритания"/>
    <tag k="name:sv" v="Storbritannien"/>
    <tag k="name:th" v="สหราชอาณาจักร"/>
    <tag k="name:tr" v="Birleşik Krallık"/>
    <tag k="name:zh" v="英国"/>
    <tag k="name:zh_py" v="Yingguo"/>
    <tag k="name:zh_pyt" v="Yīngguó"/>
    <tag k="official_name" v="United Kingdom of Great Britain and Northern Ireland"/>
    <tag k="official_name:br" v="Rouantelezh Unanet Breizh-Veur ha Norzhiwerzhon"/>
    <tag k="official_name:el" v="Ηνωμένο Βασίλειο της Μεγάλης Βρετανίας και της Βορείου Ιρλανδίας"/>
    <tag k="official_name:es" v="Reino Unido de Gran Bretaña"/>
    <tag k="official_name:et" v="Suurbritannia ja Põhja-Iiri Ühendkuningriik"/>
    <tag k="official_name:fr" v="Royaume-Uni de Grande-Bretagne et d&apos;Irlande du Nord"/>
    <tag k="official_name:lb" v="Vereenegt Kinnekräich vu Groussbritannien an Nordirland"/>
    <tag k="official_name:pl" v="Zjednoczone Królestwo Wielkiej Brytanii"/>
    <tag k="official_name:pt" v="Reino Unido da Grã-Bretanha e Irlanda do Norte"/>
    <tag k="official_name:sv" v="Förenade konungariket Storbritannien och Nordirland"/>
    <tag k="place" v="country"/>
    <tag k="population" v="60975000"/>
    <tag k="wikipedia" v="United Kingdom"/>
    <tag k="wikipedia:fr" v="Royaume-Uni"/>
  </node>
  <node id="241003027" version="41" timestamp="2009-08-17T12:06:21Z" uid="33377" user="Victor LP" changeset="2177118" lat="54.8847343" lon="-2.4359935">
    <tag k="alt_name" v="United Kingdom; UK; Britain; Great Britain"/>
    <tag k="capital_city" v="London"/>
    <tag k="country_code_fips" v="UK"/>
    <tag k="country_code_iso3166_1_alpha_2" v="GB"/>
    <tag k="is_in:continent" v="Europe"/>
    <tag k="is_in:ocean" v="Atlantic"/>
    <tag k="name" v="United Kingdom"/>
    <tag k="name:af" v="Verenigde Koninkryk"/>
    <tag k="name:ar" v="المملكة المتحدة"/>
    <tag k="name:br" v="Rouantelezh Unanet"/>
    <tag k="name:ca" v="Regne Unit"/>
    <tag k="name:cy" v="Y Deyrnas Unedig"/>
    <tag k="name:da" v="Storbritannien"/>
    <tag k="name:de" v="Vereinigtes Königreich"/>
    <tag k="name:el" v="Ηνωμένο Βασίλειο"/>
    <tag k="name:eo" v="Unuiĝinta Reĝlando"/>
    <tag k="name:es" v="Gran Bretaña"/>
    <tag k="name:et" v="Suurbritannia"/>
    <tag k="name:fa" v="بریتانیا"/>
    <tag k="name:fi" v="Yhdistynyt kuningaskunta"/>
    <tag k="name:fr" v="Royaume-Uni"/>
    <tag k="name:fy" v="Grut-Brittanje"/>
    <tag k="name:ga" v="An Ríocht Aontaithe"/>
    <tag k="name:gd" v="An Rìoghachd Aonaichte"/>
    <tag k="name:gv" v="Reeriaght Unnaneysit"/>
    <tag k="name:he" v="בריטניה"/>
    <tag k="name:hu" v="Nagy-Britannia"/>
    <tag k="name:hy" v="Միացյալ Թագավորություն"/>
    <tag k="name:is" v="Bretland"/>
    <tag k="name:it" v="Gran Bretagna"/>
    <tag k="name:lb" v="Groussbritannien an Nordirland"/>
    <tag k="name:li" v="Vereineg Keuninkriek"/>
    <tag k="name:lt" v="Jungtinė Karalystė"/>
    <tag k="name:mn" v="Нэгдсэн Вант Улс"/>
    <tag k="name:nds" v="Vereenigd Königriek"/>
    <tag k="name:nl" v="Verenigd Koninkrijk"/>
    <tag k="name:pl" v="Wielka Brytania"/>
    <tag k="name:pt" v="Reino Unido"/>
    <tag k="name:ru" v="Великобритания"/>
    <tag k="name:sv" v="Storbritannien"/>
    <tag k="name:th" v="สหราชอาณาจักร"/>
    <tag k="name:tr" v="Birleşik Krallık"/>
    <tag k="name:zh" v="英国"/>
    <tag k="name:zh_py" v="Yingguo"/>
    <tag k="name:zh_pyt" v="Yīngguó"/>
    <tag k="official_name" v="United Kingdom of Great Britain and Northern Ireland"/>
    <tag k="official_name:br" v="Rouantelezh Unanet Breizh-Veur ha Norzhiwerzhon"/>
    <tag k="official_name:el" v="Ηνωμένο Βασίλειο της Μεγάλης Βρετανίας και της Βορείου Ιρλανδίας"/>
    <tag k="official_name:es" v="Reino Unido de Gran Bretaña"/>
    <tag k="official_name:et" v="Suurbritannia ja Põhja-Iiri Ühendkuningriik"/>
    <tag k="official_name:fr" v="Royaume-Uni de Grande-Bretagne et d&apos;Irlande du Nord"/>
    <tag k="official_name:lb" v="Vereenegt Kinnekräich vu Groussbritannien an Nordirland"/>
    <tag k="official_name:pl" v="Zjednoczone Królestwo Wielkiej Brytanii"/>
    <tag k="official_name:pt" v="Reino Unido da Grã-Bretanha e Irlanda do Norte"/>
    <tag k="official_name:sv" v="Förenade konungariket Storbritannien och Nordirland"/>
    <tag k="place" v="country"/>
    <tag k="population" v="60975000"/>
    <tag k="wikipedia" v="United Kingdom"/>
    <tag k="wikipedia:fr" v="Royaume-Uni"/>
  </node>
  <node id="241003027" version="42" timestamp="2009-08-17T22:15:30Z" uid="48796" user="Ldp" changeset="2184057" lat="54.8847343" lon="-2.4359935">
    <tag k="alt_name" v="United Kingdom; UK; Britain; Great Britain"/>
    <tag k="capital_city" v="London"/>
    <tag k="country_code_fips" v="UK"/>
    <tag k="country_code_iso3166_1_alpha_2" v="GB"/>
    <tag k="is_in:continent" v="Europe"/>
    <tag k="is_in:ocean" v="Atlantic"/>
    <tag k="name" v="United Kingdom"/>
    <tag k="name:af" v="Verenigde Koninkryk"/>
    <tag k="name:ar" v="المملكة المتحدة"/>
    <tag k="name:br" v="Rouantelezh Unanet"/>
    <tag k="name:ca" v="Regne Unit"/>
    <tag k="name:cy" v="Y Deyrnas Unedig"/>
    <tag k="name:da" v="Storbritannien"/>
    <tag k="name:de" v="Vereinigtes Königreich"/>
    <tag k="name:el" v="Ηνωμένο Βασίλειο"/>
    <tag k="name:eo" v="Unuiĝinta Reĝlando"/>
    <tag k="name:es" v="Gran Bretaña"/>
    <tag k="name:et" v="Suurbritannia"/>
    <tag k="name:fa" v="بریتانیا"/>
    <tag k="name:fi" v="Yhdistynyt kuningaskunta"/>
    <tag k="name:fr" v="Royaume-Uni"/>
    <tag k="name:fy" v="Grut-Brittanje"/>
    <tag k="name:ga" v="An Ríocht Aontaithe"/>
    <tag k="name:gd" v="An Rìoghachd Aonaichte"/>
    <tag k="name:gv" v="Reeriaght Unnaneysit"/>
    <tag k="name:he" v="בריטניה"/>
    <tag k="name:hu" v="Nagy-Britannia"/>
    <tag k="name:hy" v="Միացյալ Թագավորություն"/>
    <tag k="name:id" v="Britania Raya"/>
    <tag k="name:is" v="Bretland"/>
    <tag k="name:it" v="Gran Bretagna"/>
    <tag k="name:lb" v="Groussbritannien an Nordirland"/>
    <tag k="name:li" v="Vereineg Keuninkriek"/>
    <tag k="name:lt" v="Jungtinė Karalystė"/>
    <tag k="name:mn" v="Нэгдсэн Вант Улс"/>
    <tag k="name:nds" v="Vereenigd Königriek"/>
    <tag k="name:nl" v="Verenigd Koninkrijk"/>
    <tag k="name:pl" v="Wielka Brytania"/>
    <tag k="name:pt" v="Reino Unido"/>
    <tag k="name:ru" v="Великобритания"/>
    <tag k="name:sv" v="Storbritannien"/>
    <tag k="name:th" v="สหราชอาณาจักร"/>
    <tag k="name:tr" v="Birleşik Krallık"/>
    <tag k="name:zh" v="英国"/>
    <tag k="name:zh_py" v="Yingguo"/>
    <tag k="name:zh_pyt" v="Yīngguó"/>
    <tag k="official_name" v="United Kingdom of Great Britain and Northern Ireland"/>
    <tag k="official_name:br" v="Rouantelezh Unanet Breizh-Veur ha Norzhiwerzhon"/>
    <tag k="official_name:el" v="Ηνωμένο Βασίλειο της Μεγάλης Βρετανίας και της Βορείου Ιρλανδίας"/>
    <tag k="official_name:es" v="Reino Unido de Gran Bretaña"/>
    <tag k="official_name:et" v="Suurbritannia ja Põhja-Iiri Ühendkuningriik"/>
    <tag k="official_name:fr" v="Royaume-Uni de Grande-Bretagne et d&apos;Irlande du Nord"/>
    <tag k="official_name:id" v="Perserikatan Kerajaan Britania Raya dan Irlandia Utara"/>
    <tag k="official_name:lb" v="Vereenegt Kinnekräich vu Groussbritannien an Nordirland"/>
    <tag k="official_name:pl" v="Zjednoczone Królestwo Wielkiej Brytanii"/>
    <tag k="official_name:pt" v="Reino Unido da Grã-Bretanha e Irlanda do Norte"/>
    <tag k="official_name:sv" v="Förenade konungariket Storbritannien och Nordirland"/>
    <tag k="place" v="country"/>
    <tag k="population" v="60975000"/>
    <tag k="wikipedia" v="United Kingdom"/>
    <tag k="wikipedia:fr" v="Royaume-Uni"/>
  </node>
  <node id="241003027" version="43" timestamp="2009-08-18T07:13:52Z" uid="3834" user="StefanB" changeset="2186160" lat="54.8847392" lon="-2.4359938">
    <tag k="alt_name" v="United Kingdom; UK; Britain; Great Britain"/>
    <tag k="capital_city" v="London"/>
    <tag k="country_code_fips" v="UK"/>
    <tag k="country_code_iso3166_1_alpha_2" v="GB"/>
    <tag k="is_in:continent" v="Europe"/>
    <tag k="is_in:ocean" v="Atlantic"/>
    <tag k="name" v="United Kingdom"/>
    <tag k="name:af" v="Verenigde Koninkryk"/>
    <tag k="name:ar" v="المملكة المتحدة"/>
    <tag k="name:br" v="Rouantelezh Unanet"/>
    <tag k="name:ca" v="Regne Unit"/>
    <tag k="name:cy" v="Y Deyrnas Unedig"/>
    <tag k="name:da" v="Storbritannien"/>
    <tag k="name:de" v="Vereinigtes Königreich"/>
    <tag k="name:el" v="Ηνωμένο Βασίλειο"/>
    <tag k="name:eo" v="Unuiĝinta Reĝlando"/>
    <tag k="name:es" v="Gran Bretaña"/>
    <tag k="name:et" v="Suurbritannia"/>
    <tag k="name:fa" v="بریتانیا"/>
    <tag k="name:fi" v="Yhdistynyt kuningaskunta"/>
    <tag k="name:fr" v="Royaume-Uni"/>
    <tag k="name:fy" v="Grut-Brittanje"/>
    <tag k="name:ga" v="An Ríocht Aontaithe"/>
    <tag k="name:gd" v="An Rìoghachd Aonaichte"/>
    <tag k="name:gv" v="Reeriaght Unnaneysit"/>
    <tag k="name:he" v="בריטניה"/>
    <tag k="name:hu" v="Nagy-Britannia"/>
    <tag k="name:hy" v="Միացյալ Թագավորություն"/>
    <tag k="name:id" v="Britania Raya"/>
    <tag k="name:is" v="Bretland"/>
    <tag k="name:it" v="Gran Bretagna"/>
    <tag k="name:lb" v="Groussbritannien an Nordirland"/>
    <tag k="name:li" v="Vereineg Keuninkriek"/>
    <tag k="name:lt" v="Jungtinė Karalystė"/>
    <tag k="name:mn" v="Нэгдсэн Вант Улс"/>
    <tag k="name:nds" v="Vereenigd Königriek"/>
    <tag k="name:nl" v="Verenigd Koninkrijk"/>
    <tag k="name:pl" v="Wielka Brytania"/>
    <tag k="name:pt" v="Reino Unido"/>
    <tag k="name:ru" v="Великобритания"/>
    <tag k="name:sl" v="Velika Britanija"/>
    <tag k="name:sv" v="Storbritannien"/>
    <tag k="name:th" v="สหราชอาณาจักร"/>
    <tag k="name:tr" v="Birleşik Krallık"/>
    <tag k="name:zh" v="英国"/>
    <tag k="name:zh_py" v="Yingguo"/>
    <tag k="name:zh_pyt" v="Yīngguó"/>
    <tag k="official_name" v="United Kingdom of Great Britain and Northern Ireland"/>
    <tag k="official_name:br" v="Rouantelezh Unanet Breizh-Veur ha Norzhiwerzhon"/>
    <tag k="official_name:el" v="Ηνωμένο Βασίλειο της Μεγάλης Βρετανίας και της Βορείου Ιρλανδίας"/>
    <tag k="official_name:es" v="Reino Unido de Gran Bretaña"/>
    <tag k="official_name:et" v="Suurbritannia ja Põhja-Iiri Ühendkuningriik"/>
    <tag k="official_name:fr" v="Royaume-Uni de Grande-Bretagne et d&apos;Irlande du Nord"/>
    <tag k="official_name:id" v="Perserikatan Kerajaan Britania Raya dan Irlandia Utara"/>
    <tag k="official_name:lb" v="Vereenegt Kinnekräich vu Groussbritannien an Nordirland"/>
    <tag k="official_name:pl" v="Zjednoczone Królestwo Wielkiej Brytanii"/>
    <tag k="official_name:pt" v="Reino Unido da Grã-Bretanha e Irlanda do Norte"/>
    <tag k="official_name:sl" v="Združeno kraljestvo Velike Britanije in Severne Irske"/>
    <tag k="official_name:sv" v="Förenade konungariket Storbritannien och Nordirland"/>
    <tag k="place" v="country"/>
    <tag k="population" v="60975000"/>
    <tag k="wikipedia" v="United Kingdom"/>
    <tag k="wikipedia:fr" v="Royaume-Uni"/>
  </node>
  <node id="241003027" version="44" timestamp="2009-08-18T11:56:25Z" uid="48796" user="Ldp" changeset="2189027" lat="54.8847392" lon="-2.4359938">
    <tag k="alt_name" v="United Kingdom; UK; Britain; Great Britain"/>
    <tag k="capital_city" v="London"/>
    <tag k="country_code_fips" v="UK"/>
    <tag k="country_code_iso3166_1_alpha_2" v="GB"/>
    <tag k="is_in:continent" v="Europe"/>
    <tag k="is_in:ocean" v="Atlantic"/>
    <tag k="name" v="United Kingdom"/>
    <tag k="name:af" v="Verenigde Koninkryk"/>
    <tag k="name:ar" v="المملكة المتحدة"/>
    <tag k="name:br" v="Rouantelezh Unanet"/>
    <tag k="name:ca" v="Regne Unit"/>
    <tag k="name:cy" v="Y Deyrnas Unedig"/>
    <tag k="name:da" v="Storbritannien"/>
    <tag k="name:de" v="Vereinigtes Königreich"/>
    <tag k="name:el" v="Ηνωμένο Βασίλειο"/>
    <tag k="name:eo" v="Unuiĝinta Reĝlando"/>
    <tag k="name:es" v="Gran Bretaña"/>
    <tag k="name:et" v="Suurbritannia"/>
    <tag k="name:fa" v="بریتانیا"/>
    <tag k="name:fi" v="Yhdistynyt kuningaskunta"/>
    <tag k="name:fr" v="Royaume-Uni"/>
    <tag k="name:fy" v="Grut-Brittanje"/>
    <tag k="name:ga" v="An Ríocht Aontaithe"/>
    <tag k="name:gd" v="An Rìoghachd Aonaichte"/>
    <tag k="name:gv" v="Reeriaght Unnaneysit"/>
    <tag k="name:he" v="בריטניה"/>
    <tag k="name:hu" v="Nagy-Britannia"/>
    <tag k="name:hy" v="Միացյալ Թագավորություն"/>
    <tag k="name:id" v="Britania Raya"/>
    <tag k="name:is" v="Bretland"/>
    <tag k="name:it" v="Gran Bretagna"/>
    <tag k="name:lb" v="Groussbritannien an Nordirland"/>
    <tag k="name:li" v="Vereineg Keuninkriek"/>
    <tag k="name:lt" v="Jungtinė Karalystė"/>
    <tag k="name:mn" v="Нэгдсэн Вант Улс"/>
    <tag k="name:nds" v="Vereenigd Königriek"/>
    <tag k="name:nl" v="Verenigd Koninkrijk"/>
    <tag k="name:pl" v="Wielka Brytania"/>
    <tag k="name:pt" v="Reino Unido"/>
    <tag k="name:ru" v="Великобритания"/>
    <tag k="name:sl" v="Velika Britanija"/>
    <tag k="name:sv" v="Storbritannien"/>
    <tag k="name:th" v="สหราชอาณาจักร"/>
    <tag k="name:tr" v="Birleşik Krallık"/>
    <tag k="name:vi" v="Liên hiệp Vương quốc Anh và Bắc Ireland"/>
    <tag k="name:zh" v="英国"/>
    <tag k="name:zh_py" v="Yingguo"/>
    <tag k="name:zh_pyt" v="Yīngguó"/>
    <tag k="official_name" v="United Kingdom of Great Britain and Northern Ireland"/>
    <tag k="official_name:br" v="Rouantelezh Unanet Breizh-Veur ha Norzhiwerzhon"/>
    <tag k="official_name:el" v="Ηνωμένο Βασίλειο της Μεγάλης Βρετανίας και της Βορείου Ιρλανδίας"/>
    <tag k="official_name:es" v="Reino Unido de Gran Bretaña"/>
    <tag k="official_name:et" v="Suurbritannia ja Põhja-Iiri Ühendkuningriik"/>
    <tag k="official_name:fr" v="Royaume-Uni de Grande-Bretagne et d&apos;Irlande du Nord"/>
    <tag k="official_name:id" v="Perserikatan Kerajaan Britania Raya dan Irlandia Utara"/>
    <tag k="official_name:lb" v="Vereenegt Kinnekräich vu Groussbritannien an Nordirland"/>
    <tag k="official_name:pl" v="Zjednoczone Królestwo Wielkiej Brytanii"/>
    <tag k="official_name:pt" v="Reino Unido da Grã-Bretanha e Irlanda do Norte"/>
    <tag k="official_name:sl" v="Združeno kraljestvo Velike Britanije in Severne Irske"/>
    <tag k="official_name:sv" v="Förenade konungariket Storbritannien och Nordirland"/>
    <tag k="place" v="country"/>
    <tag k="population" v="60975000"/>
    <tag k="wikipedia" v="United Kingdom"/>
    <tag k="wikipedia:fr" v="Royaume-Uni"/>
  </node>
  <node id="241003027" version="45" timestamp="2009-08-18T16:10:43Z" uid="17752" user="Yuri Nazarov" changeset="2191739" lat="54.8847392" lon="-2.4359938">
    <tag k="alt_name" v="United Kingdom; UK; Britain; Great Britain"/>
    <tag k="capital_city" v="London"/>
    <tag k="country_code_fips" v="UK"/>
    <tag k="country_code_iso3166_1_alpha_2" v="GB"/>
    <tag k="is_in:continent" v="Europe"/>
    <tag k="is_in:ocean" v="Atlantic"/>
    <tag k="name" v="United Kingdom"/>
    <tag k="name:af" v="Verenigde Koninkryk"/>
    <tag k="name:ar" v="المملكة المتحدة"/>
    <tag k="name:br" v="Rouantelezh Unanet"/>
    <tag k="name:ca" v="Regne Unit"/>
    <tag k="name:cy" v="Y Deyrnas Unedig"/>
    <tag k="name:da" v="Storbritannien"/>
    <tag k="name:de" v="Vereinigtes Königreich"/>
    <tag k="name:el" v="Ηνωμένο Βασίλειο"/>
    <tag k="name:eo" v="Unuiĝinta Reĝlando"/>
    <tag k="name:es" v="Gran Bretaña"/>
    <tag k="name:et" v="Suurbritannia"/>
    <tag k="name:fa" v="بریتانیا"/>
    <tag k="name:fi" v="Yhdistynyt kuningaskunta"/>
    <tag k="name:fr" v="Royaume-Uni"/>
    <tag k="name:fy" v="Grut-Brittanje"/>
    <tag k="name:ga" v="An Ríocht Aontaithe"/>
    <tag k="name:gd" v="An Rìoghachd Aonaichte"/>
    <tag k="name:gv" v="Reeriaght Unnaneysit"/>
    <tag k="name:he" v="בריטניה"/>
    <tag k="name:hu" v="Nagy-Britannia"/>
    <tag k="name:hy" v="Միացյալ Թագավորություն"/>
    <tag k="name:id" v="Britania Raya"/>
    <tag k="name:is" v="Bretland"/>
    <tag k="name:it" v="Gran Bretagna"/>
    <tag k="name:lb" v="Groussbritannien an Nordirland"/>
    <tag k="name:li" v="Vereineg Keuninkriek"/>
    <tag k="name:lt" v="Jungtinė Karalystė"/>
    <tag k="name:mn" v="Нэгдсэн Вант Улс"/>
    <tag k="name:nds" v="Vereenigd Königriek"/>
    <tag k="name:nl" v="Verenigd Koninkrijk"/>
    <tag k="name:pl" v="Wielka Brytania"/>
    <tag k="name:pt" v="Reino Unido"/>
    <tag k="name:ru" v="Соединенное Королевство"/>
    <tag k="name:sl" v="Velika Britanija"/>
    <tag k="name:sv" v="Storbritannien"/>
    <tag k="name:th" v="สหราชอาณาจักร"/>
    <tag k="name:tr" v="Birleşik Krallık"/>
    <tag k="name:vi" v="Liên hiệp Vương quốc Anh và Bắc Ireland"/>
    <tag k="name:zh" v="英国"/>
    <tag k="name:zh_py" v="Yingguo"/>
    <tag k="name:zh_pyt" v="Yīngguó"/>
    <tag k="official_name" v="United Kingdom of Great Britain and Northern Ireland"/>
    <tag k="official_name:br" v="Rouantelezh Unanet Breizh-Veur ha Norzhiwerzhon"/>
    <tag k="official_name:el" v="Ηνωμένο Βασίλειο της Μεγάλης Βρετανίας και της Βορείου Ιρλανδίας"/>
    <tag k="official_name:es" v="Reino Unido de Gran Bretaña"/>
    <tag k="official_name:et" v="Suurbritannia ja Põhja-Iiri Ühendkuningriik"/>
    <tag k="official_name:fr" v="Royaume-Uni de Grande-Bretagne et d&apos;Irlande du Nord"/>
    <tag k="official_name:id" v="Perserikatan Kerajaan Britania Raya dan Irlandia Utara"/>
    <tag k="official_name:lb" v="Vereenegt Kinnekräich vu Groussbritannien an Nordirland"/>
    <tag k="official_name:pl" v="Zjednoczone Królestwo Wielkiej Brytanii"/>
    <tag k="official_name:pt" v="Reino Unido da Grã-Bretanha e Irlanda do Norte"/>
    <tag k="official_name:ru" v="Соединенное Королевство Великобритании и Северной Ирландии"/>
    <tag k="official_name:sl" v="Združeno kraljestvo Velike Britanije in Severne Irske"/>
    <tag k="official_name:sv" v="Förenade konungariket Storbritannien och Nordirland"/>
    <tag k="place" v="country"/>
    <tag k="population" v="60975000"/>
    <tag k="wikipedia" v="United Kingdom"/>
    <tag k="wikipedia:fr" v="Royaume-Uni"/>
  </node>
  <node id="241003027" version="46" timestamp="2009-08-18T20:49:55Z" uid="48796" user="Ldp" changeset="2195220" lat="54.8847392" lon="-2.4359938">
    <tag k="alt_name" v="United Kingdom; UK; Britain; Great Britain"/>
    <tag k="capital_city" v="London"/>
    <tag k="country_code_fips" v="UK"/>
    <tag k="country_code_iso3166_1_alpha_2" v="GB"/>
    <tag k="is_in:continent" v="Europe"/>
    <tag k="is_in:ocean" v="Atlantic"/>
    <tag k="name" v="United Kingdom"/>
    <tag k="name:af" v="Verenigde Koninkryk"/>
    <tag k="name:ar" v="المملكة المتحدة"/>
    <tag k="name:br" v="Rouantelezh Unanet"/>
    <tag k="name:ca" v="Regne Unit"/>
    <tag k="name:cy" v="Y Deyrnas Unedig"/>
    <tag k="name:da" v="Storbritannien"/>
    <tag k="name:de" v="Vereinigtes Königreich"/>
    <tag k="name:el" v="Ηνωμένο Βασίλειο"/>
    <tag k="name:eo" v="Unuiĝinta Reĝlando"/>
    <tag k="name:es" v="Gran Bretaña"/>
    <tag k="name:et" v="Suurbritannia"/>
    <tag k="name:fa" v="بریتانیا"/>
    <tag k="name:fi" v="Yhdistynyt kuningaskunta"/>
    <tag k="name:fr" v="Royaume-Uni"/>
    <tag k="name:fy" v="Grut-Brittanje"/>
    <tag k="name:ga" v="An Ríocht Aontaithe"/>
    <tag k="name:gd" v="An Rìoghachd Aonaichte"/>
    <tag k="name:gv" v="Reeriaght Unnaneysit"/>
    <tag k="name:he" v="בריטניה"/>
    <tag k="name:hu" v="Nagy-Britannia"/>
    <tag k="name:hy" v="Միացյալ Թագավորություն"/>
    <tag k="name:id" v="Britania Raya"/>
    <tag k="name:is" v="Bretland"/>
    <tag k="name:it" v="Gran Bretagna"/>
    <tag k="name:la" v="Britanniarum Regnum"/>
    <tag k="name:lb" v="Groussbritannien an Nordirland"/>
    <tag k="name:li" v="Vereineg Keuninkriek"/>
    <tag k="name:lt" v="Jungtinė Karalystė"/>
    <tag k="name:mn" v="Нэгдсэн Вант Улс"/>
    <tag k="name:nds" v="Vereenigd Königriek"/>
    <tag k="name:nl" v="Verenigd Koninkrijk"/>
    <tag k="name:pl" v="Wielka Brytania"/>
    <tag k="name:pt" v="Reino Unido"/>
    <tag k="name:ru" v="Соединенное Королевство"/>
    <tag k="name:sl" v="Velika Britanija"/>
    <tag k="name:sv" v="Storbritannien"/>
    <tag k="name:th" v="สหราชอาณาจักร"/>
    <tag k="name:tr" v="Birleşik Krallık"/>
    <tag k="name:vi" v="Liên hiệp Vương quốc Anh và Bắc Ireland"/>
    <tag k="name:zh" v="英国"/>
    <tag k="name:zh_py" v="Yingguo"/>
    <tag k="name:zh_pyt" v="Yīngguó"/>
    <tag k="official_name" v="United Kingdom of Great Britain and Northern Ireland"/>
    <tag k="official_name:br" v="Rouantelezh Unanet Breizh-Veur ha Norzhiwerzhon"/>
    <tag k="official_name:el" v="Ηνωμένο Βασίλειο της Μεγάλης Βρετανίας και της Βορείου Ιρλανδίας"/>
    <tag k="official_name:es" v="Reino Unido de Gran Bretaña"/>
    <tag k="official_name:et" v="Suurbritannia ja Põhja-Iiri Ühendkuningriik"/>
    <tag k="official_name:fr" v="Royaume-Uni de Grande-Bretagne et d&apos;Irlande du Nord"/>
    <tag k="official_name:id" v="Perserikatan Kerajaan Britania Raya dan Irlandia Utara"/>
    <tag k="official_name:lb" v="Vereenegt Kinnekräich vu Groussbritannien an Nordirland"/>
    <tag k="official_name:pl" v="Zjednoczone Królestwo Wielkiej Brytanii"/>
    <tag k="official_name:pt" v="Reino Unido da Grã-Bretanha e Irlanda do Norte"/>
    <tag k="official_name:ru" v="Соединенное Королевство Великобритании и Северной Ирландии"/>
    <tag k="official_name:sl" v="Združeno kraljestvo Velike Britanije in Severne Irske"/>
    <tag k="official_name:sv" v="Förenade konungariket Storbritannien och Nordirland"/>
    <tag k="place" v="country"/>
    <tag k="population" v="60975000"/>
    <tag k="wikipedia" v="United Kingdom"/>
    <tag k="wikipedia:fr" v="Royaume-Uni"/>
  </node>
  <node id="241003027" version="47" timestamp="2009-08-21T02:19:36Z" uid="84468" user="nazotoko" changeset="2218344" lat="54.8847411" lon="-2.4360024">
    <tag k="alt_name" v="United Kingdom; UK; Britain; Great Britain"/>
    <tag k="capital_city" v="London"/>
    <tag k="country_code_fips" v="UK"/>
    <tag k="country_code_iso3166_1_alpha_2" v="GB"/>
    <tag k="is_in:continent" v="Europe"/>
    <tag k="is_in:ocean" v="Atlantic"/>
    <tag k="name" v="United Kingdom"/>
    <tag k="name:af" v="Verenigde Koninkryk"/>
    <tag k="name:ar" v="المملكة المتحدة"/>
    <tag k="name:br" v="Rouantelezh Unanet"/>
    <tag k="name:ca" v="Regne Unit"/>
    <tag k="name:cy" v="Y Deyrnas Unedig"/>
    <tag k="name:da" v="Storbritannien"/>
    <tag k="name:de" v="Vereinigtes Königreich"/>
    <tag k="name:el" v="Ηνωμένο Βασίλειο"/>
    <tag k="name:eo" v="Unuiĝinta Reĝlando"/>
    <tag k="name:es" v="Gran Bretaña"/>
    <tag k="name:et" v="Suurbritannia"/>
    <tag k="name:fa" v="بریتانیا"/>
    <tag k="name:fi" v="Yhdistynyt kuningaskunta"/>
    <tag k="name:fr" v="Royaume-Uni"/>
    <tag k="name:fy" v="Grut-Brittanje"/>
    <tag k="name:ga" v="An Ríocht Aontaithe"/>
    <tag k="name:gd" v="An Rìoghachd Aonaichte"/>
    <tag k="name:gv" v="Reeriaght Unnaneysit"/>
    <tag k="name:he" v="בריטניה"/>
    <tag k="name:hu" v="Nagy-Britannia"/>
    <tag k="name:hy" v="Միացյալ Թագավորություն"/>
    <tag k="name:id" v="Britania Raya"/>
    <tag k="name:is" v="Bretland"/>
    <tag k="name:it" v="Gran Bretagna"/>
    <tag k="name:ja" v="イギリス"/>
    <tag k="name:la" v="Britanniarum Regnum"/>
    <tag k="name:lb" v="Groussbritannien an Nordirland"/>
    <tag k="name:li" v="Vereineg Keuninkriek"/>
    <tag k="name:lt" v="Jungtinė Karalystė"/>
    <tag k="name:mn" v="Нэгдсэн Вант Улс"/>
    <tag k="name:nds" v="Vereenigd Königriek"/>
    <tag k="name:nl" v="Verenigd Koninkrijk"/>
    <tag k="name:pl" v="Wielka Brytania"/>
    <tag k="name:pt" v="Reino Unido"/>
    <tag k="name:ru" v="Соединенное Королевство"/>
    <tag k="name:sl" v="Velika Britanija"/>
    <tag k="name:sv" v="Storbritannien"/>
    <tag k="name:th" v="สหราชอาณาจักร"/>
    <tag k="name:tr" v="Birleşik Krallık"/>
    <tag k="name:vi" v="Liên hiệp Vương quốc Anh và Bắc Ireland"/>
    <tag k="name:zh" v="英国"/>
    <tag k="name:zh_py" v="Yingguo"/>
    <tag k="name:zh_pyt" v="Yīngguó"/>
    <tag k="official_name" v="United Kingdom of Great Britain and Northern Ireland"/>
    <tag k="official_name:br" v="Rouantelezh Unanet Breizh-Veur ha Norzhiwerzhon"/>
    <tag k="official_name:el" v="Ηνωμένο Βασίλειο της Μεγάλης Βρετανίας και της Βορείου Ιρλανδίας"/>
    <tag k="official_name:es" v="Reino Unido de Gran Bretaña"/>
    <tag k="official_name:et" v="Suurbritannia ja Põhja-Iiri Ühendkuningriik"/>
    <tag k="official_name:fr" v="Royaume-Uni de Grande-Bretagne et d&apos;Irlande du Nord"/>
    <tag k="official_name:id" v="Perserikatan Kerajaan Britania Raya dan Irlandia Utara"/>
    <tag k="official_name:ja" v="グレートブリテン及び北アイルランド連合王国"/>
    <tag k="official_name:lb" v="Vereenegt Kinnekräich vu Groussbritannien an Nordirland"/>
    <tag k="official_name:pl" v="Zjednoczone Królestwo Wielkiej Brytanii"/>
    <tag k="official_name:pt" v="Reino Unido da Grã-Bretanha e Irlanda do Norte"/>
    <tag k="official_name:ru" v="Соединенное Королевство Великобритании и Северной Ирландии"/>
    <tag k="official_name:sl" v="Združeno kraljestvo Velike Britanije in Severne Irske"/>
    <tag k="official_name:sv" v="Förenade konungariket Storbritannien och Nordirland"/>
    <tag k="place" v="country"/>
    <tag k="population" v="60975000"/>
    <tag k="wikipedia" v="United Kingdom"/>
    <tag k="wikipedia:fr" v="Royaume-Uni"/>
  </node>
  <node id="241003027" version="48" timestamp="2009-08-26T15:00:47Z" uid="29431" user="jekhor" changeset="2268464" lat="54.8847411" lon="-2.4360024">
    <tag k="alt_name" v="United Kingdom; UK; Britain; Great Britain"/>
    <tag k="capital_city" v="London"/>
    <tag k="country_code_fips" v="UK"/>
    <tag k="country_code_iso3166_1_alpha_2" v="GB"/>
    <tag k="is_in:continent" v="Europe"/>
    <tag k="is_in:ocean" v="Atlantic"/>
    <tag k="name" v="United Kingdom"/>
    <tag k="name:af" v="Verenigde Koninkryk"/>
    <tag k="name:ar" v="المملكة المتحدة"/>
    <tag k="name:br" v="Rouantelezh Unanet"/>
    <tag k="name:ca" v="Regne Unit"/>
    <tag k="name:cy" v="Y Deyrnas Unedig"/>
    <tag k="name:da" v="Storbritannien"/>
    <tag k="name:de" v="Vereinigtes Königreich"/>
    <tag k="name:el" v="Ηνωμένο Βασίλειο"/>
    <tag k="name:eo" v="Unuiĝinta Reĝlando"/>
    <tag k="name:es" v="Gran Bretaña"/>
    <tag k="name:et" v="Suurbritannia"/>
    <tag k="name:fa" v="بریتانیا"/>
    <tag k="name:fi" v="Yhdistynyt kuningaskunta"/>
    <tag k="name:fr" v="Royaume-Uni"/>
    <tag k="name:fy" v="Grut-Brittanje"/>
    <tag k="name:ga" v="An Ríocht Aontaithe"/>
    <tag k="name:gd" v="An Rìoghachd Aonaichte"/>
    <tag k="name:gv" v="Reeriaght Unnaneysit"/>
    <tag k="name:he" v="בריטניה"/>
    <tag k="name:hu" v="Nagy-Britannia"/>
    <tag k="name:hy" v="Միացյալ Թագավորություն"/>
    <tag k="name:id" v="Britania Raya"/>
    <tag k="name:is" v="Bretland"/>
    <tag k="name:it" v="Gran Bretagna"/>
    <tag k="name:ja" v="イギリス"/>
    <tag k="name:la" v="Britanniarum Regnum"/>
    <tag k="name:lb" v="Groussbritannien an Nordirland"/>
    <tag k="name:li" v="Vereineg Keuninkriek"/>
    <tag k="name:lt" v="Jungtinė Karalystė"/>
    <tag k="name:mn" v="Нэгдсэн Вант Улс"/>
    <tag k="name:nds" v="Vereenigd Königriek"/>
    <tag k="name:nl" v="Verenigd Koninkrijk"/>
    <tag k="name:pl" v="Wielka Brytania"/>
    <tag k="name:pt" v="Reino Unido"/>
    <tag k="name:ru" v="Соединенное Королевство"/>
    <tag k="name:sl" v="Velika Britanija"/>
    <tag k="name:sv" v="Storbritannien"/>
    <tag k="name:th" v="สหราชอาณาจักร"/>
    <tag k="name:tr" v="Birleşik Krallık"/>
    <tag k="name:vi" v="Liên hiệp Vương quốc Anh và Bắc Ireland"/>
    <tag k="name:zh" v="英国"/>
    <tag k="name:zh_py" v="Yingguo"/>
    <tag k="name:zh_pyt" v="Yīngguó"/>
    <tag k="official_name" v="United Kingdom of Great Britain and Northern Ireland"/>
    <tag k="official_name:be" v="Злучанае Каралеўства Вялікабрытаніі і Паўночнай Ірландыі"/>
    <tag k="official_name:br" v="Rouantelezh Unanet Breizh-Veur ha Norzhiwerzhon"/>
    <tag k="official_name:el" v="Ηνωμένο Βασίλειο της Μεγάλης Βρετανίας και της Βορείου Ιρλανδίας"/>
    <tag k="official_name:es" v="Reino Unido de Gran Bretaña"/>
    <tag k="official_name:et" v="Suurbritannia ja Põhja-Iiri Ühendkuningriik"/>
    <tag k="official_name:fr" v="Royaume-Uni de Grande-Bretagne et d&apos;Irlande du Nord"/>
    <tag k="official_name:id" v="Perserikatan Kerajaan Britania Raya dan Irlandia Utara"/>
    <tag k="official_name:ja" v="グレートブリテン及び北アイルランド連合王国"/>
    <tag k="official_name:lb" v="Vereenegt Kinnekräich vu Groussbritannien an Nordirland"/>
    <tag k="official_name:pl" v="Zjednoczone Królestwo Wielkiej Brytanii"/>
    <tag k="official_name:pt" v="Reino Unido da Grã-Bretanha e Irlanda do Norte"/>
    <tag k="official_name:ru" v="Соединенное Королевство Великобритании и Северной Ирландии"/>
    <tag k="official_name:sl" v="Združeno kraljestvo Velike Britanije in Severne Irske"/>
    <tag k="official_name:sv" v="Förenade konungariket Storbritannien och Nordirland"/>
    <tag k="place" v="country"/>
    <tag k="population" v="60975000"/>
    <tag k="wikipedia" v="United Kingdom"/>
    <tag k="wikipedia:fr" v="Royaume-Uni"/>
  </node>
  <node id="241003027" version="49" timestamp="2009-08-26T16:49:26Z" uid="29431" user="jekhor" changeset="2269408" lat="54.8847411" lon="-2.4360024">
    <tag k="alt_name" v="United Kingdom; UK; Britain; Great Britain"/>
    <tag k="capital_city" v="London"/>
    <tag k="country_code_fips" v="UK"/>
    <tag k="country_code_iso3166_1_alpha_2" v="GB"/>
    <tag k="is_in:continent" v="Europe"/>
    <tag k="is_in:ocean" v="Atlantic"/>
    <tag k="name" v="United Kingdom"/>
    <tag k="name:af" v="Verenigde Koninkryk"/>
    <tag k="name:ar" v="المملكة المتحدة"/>
    <tag k="name:be" v="Вялікабрытанія"/>
    <tag k="name:br" v="Rouantelezh Unanet"/>
    <tag k="name:ca" v="Regne Unit"/>
    <tag k="name:cy" v="Y Deyrnas Unedig"/>
    <tag k="name:da" v="Storbritannien"/>
    <tag k="name:de" v="Vereinigtes Königreich"/>
    <tag k="name:el" v="Ηνωμένο Βασίλειο"/>
    <tag k="name:eo" v="Unuiĝinta Reĝlando"/>
    <tag k="name:es" v="Gran Bretaña"/>
    <tag k="name:et" v="Suurbritannia"/>
    <tag k="name:fa" v="بریتانیا"/>
    <tag k="name:fi" v="Yhdistynyt kuningaskunta"/>
    <tag k="name:fr" v="Royaume-Uni"/>
    <tag k="name:fy" v="Grut-Brittanje"/>
    <tag k="name:ga" v="An Ríocht Aontaithe"/>
    <tag k="name:gd" v="An Rìoghachd Aonaichte"/>
    <tag k="name:gv" v="Reeriaght Unnaneysit"/>
    <tag k="name:he" v="בריטניה"/>
    <tag k="name:hu" v="Nagy-Britannia"/>
    <tag k="name:hy" v="Միացյալ Թագավորություն"/>
    <tag k="name:id" v="Britania Raya"/>
    <tag k="name:is" v="Bretland"/>
    <tag k="name:it" v="Gran Bretagna"/>
    <tag k="name:ja" v="イギリス"/>
    <tag k="name:la" v="Britanniarum Regnum"/>
    <tag k="name:lb" v="Groussbritannien an Nordirland"/>
    <tag k="name:li" v="Vereineg Keuninkriek"/>
    <tag k="name:lt" v="Jungtinė Karalystė"/>
    <tag k="name:mn" v="Нэгдсэн Вант Улс"/>
    <tag k="name:nds" v="Vereenigd Königriek"/>
    <tag k="name:nl" v="Verenigd Koninkrijk"/>
    <tag k="name:pl" v="Wielka Brytania"/>
    <tag k="name:pt" v="Reino Unido"/>
    <tag k="name:ru" v="Соединенное Королевство"/>
    <tag k="name:sl" v="Velika Britanija"/>
    <tag k="name:sv" v="Storbritannien"/>
    <tag k="name:th" v="สหราชอาณาจักร"/>
    <tag k="name:tr" v="Birleşik Krallık"/>
    <tag k="name:vi" v="Liên hiệp Vương quốc Anh và Bắc Ireland"/>
    <tag k="name:zh" v="英国"/>
    <tag k="name:zh_py" v="Yingguo"/>
    <tag k="name:zh_pyt" v="Yīngguó"/>
    <tag k="official_name" v="United Kingdom of Great Britain and Northern Ireland"/>
    <tag k="official_name:be" v="Злучанае Каралеўства Вялікабрытаніі і Паўночнай Ірландыі"/>
    <tag k="official_name:br" v="Rouantelezh Unanet Breizh-Veur ha Norzhiwerzhon"/>
    <tag k="official_name:el" v="Ηνωμένο Βασίλειο της Μεγάλης Βρετανίας και της Βορείου Ιρλανδίας"/>
    <tag k="official_name:es" v="Reino Unido de Gran Bretaña"/>
    <tag k="official_name:et" v="Suurbritannia ja Põhja-Iiri Ühendkuningriik"/>
    <tag k="official_name:fr" v="Royaume-Uni de Grande-Bretagne et d&apos;Irlande du Nord"/>
    <tag k="official_name:id" v="Perserikatan Kerajaan Britania Raya dan Irlandia Utara"/>
    <tag k="official_name:ja" v="グレートブリテン及び北アイルランド連合王国"/>
    <tag k="official_name:lb" v="Vereenegt Kinnekräich vu Groussbritannien an Nordirland"/>
    <tag k="official_name:pl" v="Zjednoczone Królestwo Wielkiej Brytanii"/>
    <tag k="official_name:pt" v="Reino Unido da Grã-Bretanha e Irlanda do Norte"/>
    <tag k="official_name:ru" v="Соединенное Королевство Великобритании и Северной Ирландии"/>
    <tag k="official_name:sl" v="Združeno kraljestvo Velike Britanije in Severne Irske"/>
    <tag k="official_name:sv" v="Förenade konungariket Storbritannien och Nordirland"/>
    <tag k="place" v="country"/>
    <tag k="population" v="60975000"/>
    <tag k="wikipedia" v="United Kingdom"/>
    <tag k="wikipedia:fr" v="Royaume-Uni"/>
  </node>
  <node id="241003027" version="50" timestamp="2009-08-27T10:39:29Z" uid="65077" user="mishok13" changeset="2276401" lat="54.8847442" lon="-2.4360062">
    <tag k="alt_name" v="United Kingdom; UK; Britain; Great Britain"/>
    <tag k="capital_city" v="London"/>
    <tag k="country_code_fips" v="UK"/>
    <tag k="country_code_iso3166_1_alpha_2" v="GB"/>
    <tag k="is_in:continent" v="Europe"/>
    <tag k="is_in:ocean" v="Atlantic"/>
    <tag k="name" v="United Kingdom"/>
    <tag k="name:af" v="Verenigde Koninkryk"/>
    <tag k="name:ar" v="المملكة المتحدة"/>
    <tag k="name:be" v="Вялікабрытанія"/>
    <tag k="name:br" v="Rouantelezh Unanet"/>
    <tag k="name:ca" v="Regne Unit"/>
    <tag k="name:cy" v="Y Deyrnas Unedig"/>
    <tag k="name:da" v="Storbritannien"/>
    <tag k="name:de" v="Vereinigtes Königreich"/>
    <tag k="name:el" v="Ηνωμένο Βασίλειο"/>
    <tag k="name:eo" v="Unuiĝinta Reĝlando"/>
    <tag k="name:es" v="Gran Bretaña"/>
    <tag k="name:et" v="Suurbritannia"/>
    <tag k="name:fa" v="بریتانیا"/>
    <tag k="name:fi" v="Yhdistynyt kuningaskunta"/>
    <tag k="name:fr" v="Royaume-Uni"/>
    <tag k="name:fy" v="Grut-Brittanje"/>
    <tag k="name:ga" v="An Ríocht Aontaithe"/>
    <tag k="name:gd" v="An Rìoghachd Aonaichte"/>
    <tag k="name:gv" v="Reeriaght Unnaneysit"/>
    <tag k="name:he" v="בריטניה"/>
    <tag k="name:hu" v="Nagy-Britannia"/>
    <tag k="name:hy" v="Միացյալ Թագավորություն"/>
    <tag k="name:id" v="Britania Raya"/>
    <tag k="name:is" v="Bretland"/>
    <tag k="name:it" v="Gran Bretagna"/>
    <tag k="name:ja" v="イギリス"/>
    <tag k="name:la" v="Britanniarum Regnum"/>
    <tag k="name:lb" v="Groussbritannien an Nordirland"/>
    <tag k="name:li" v="Vereineg Keuninkriek"/>
    <tag k="name:lt" v="Jungtinė Karalystė"/>
    <tag k="name:mn" v="Нэгдсэн Вант Улс"/>
    <tag k="name:nds" v="Vereenigd Königriek"/>
    <tag k="name:nl" v="Verenigd Koninkrijk"/>
    <tag k="name:pl" v="Wielka Brytania"/>
    <tag k="name:pt" v="Reino Unido"/>
    <tag k="name:ru" v="Соединенное Королевство"/>
    <tag k="name:sl" v="Velika Britanija"/>
    <tag k="name:sv" v="Storbritannien"/>
    <tag k="name:th" v="สหราชอาณาจักร"/>
    <tag k="name:tr" v="Birleşik Krallık"/>
    <tag k="name:uk" v="Великобританія"/>
    <tag k="name:vi" v="Liên hiệp Vương quốc Anh và Bắc Ireland"/>
    <tag k="name:zh" v="英国"/>
    <tag k="name:zh_py" v="Yingguo"/>
    <tag k="name:zh_pyt" v="Yīngguó"/>
    <tag k="official_name" v="United Kingdom of Great Britain and Northern Ireland"/>
    <tag k="official_name:be" v="Злучанае Каралеўства Вялікабрытаніі і Паўночнай Ірландыі"/>
    <tag k="official_name:br" v="Rouantelezh Unanet Breizh-Veur ha Norzhiwerzhon"/>
    <tag k="official_name:el" v="Ηνωμένο Βασίλειο της Μεγάλης Βρετανίας και της Βορείου Ιρλανδίας"/>
    <tag k="official_name:es" v="Reino Unido de Gran Bretaña"/>
    <tag k="official_name:et" v="Suurbritannia ja Põhja-Iiri Ühendkuningriik"/>
    <tag k="official_name:fr" v="Royaume-Uni de Grande-Bretagne et d&apos;Irlande du Nord"/>
    <tag k="official_name:id" v="Perserikatan Kerajaan Britania Raya dan Irlandia Utara"/>
    <tag k="official_name:ja" v="グレートブリテン及び北アイルランド連合王国"/>
    <tag k="official_name:lb" v="Vereenegt Kinnekräich vu Groussbritannien an Nordirland"/>
    <tag k="official_name:pl" v="Zjednoczone Królestwo Wielkiej Brytanii"/>
    <tag k="official_name:pt" v="Reino Unido da Grã-Bretanha e Irlanda do Norte"/>
    <tag k="official_name:ru" v="Соединенное Королевство Великобритании и Северной Ирландии"/>
    <tag k="official_name:sl" v="Združeno kraljestvo Velike Britanije in Severne Irske"/>
    <tag k="official_name:sv" v="Förenade konungariket Storbritannien och Nordirland"/>
    <tag k="place" v="country"/>
    <tag k="population" v="60975000"/>
    <tag k="wikipedia" v="United Kingdom"/>
    <tag k="wikipedia:fr" v="Royaume-Uni"/>
  </node>
  <node id="241003027" version="51" timestamp="2009-08-27T19:46:25Z" uid="29447" user="Laaknor" changeset="2282513" lat="54.8847477" lon="-2.43601">
    <tag k="alt_name" v="United Kingdom; UK; Britain; Great Britain"/>
    <tag k="capital_city" v="London"/>
    <tag k="country_code_fips" v="UK"/>
    <tag k="country_code_iso3166_1_alpha_2" v="GB"/>
    <tag k="is_in:continent" v="Europe"/>
    <tag k="is_in:ocean" v="Atlantic"/>
    <tag k="name" v="United Kingdom"/>
    <tag k="name:af" v="Verenigde Koninkryk"/>
    <tag k="name:ar" v="المملكة المتحدة"/>
    <tag k="name:be" v="Вялікабрытанія"/>
    <tag k="name:br" v="Rouantelezh Unanet"/>
    <tag k="name:ca" v="Regne Unit"/>
    <tag k="name:cy" v="Y Deyrnas Unedig"/>
    <tag k="name:da" v="Storbritannien"/>
    <tag k="name:de" v="Vereinigtes Königreich"/>
    <tag k="name:el" v="Ηνωμένο Βασίλειο"/>
    <tag k="name:eo" v="Unuiĝinta Reĝlando"/>
    <tag k="name:es" v="Gran Bretaña"/>
    <tag k="name:et" v="Suurbritannia"/>
    <tag k="name:fa" v="بریتانیا"/>
    <tag k="name:fi" v="Yhdistynyt kuningaskunta"/>
    <tag k="name:fr" v="Royaume-Uni"/>
    <tag k="name:fy" v="Grut-Brittanje"/>
    <tag k="name:ga" v="An Ríocht Aontaithe"/>
    <tag k="name:gd" v="An Rìoghachd Aonaichte"/>
    <tag k="name:gv" v="Reeriaght Unnaneysit"/>
    <tag k="name:he" v="בריטניה"/>
    <tag k="name:hu" v="Nagy-Britannia"/>
    <tag k="name:hy" v="Միացյալ Թագավորություն"/>
    <tag k="name:id" v="Britania Raya"/>
    <tag k="name:is" v="Bretland"/>
    <tag k="name:it" v="Gran Bretagna"/>
    <tag k="name:ja" v="イギリス"/>
    <tag k="name:la" v="Britanniarum Regnum"/>
    <tag k="name:lb" v="Groussbritannien an Nordirland"/>
    <tag k="name:li" v="Vereineg Keuninkriek"/>
    <tag k="name:lt" v="Jungtinė Karalystė"/>
    <tag k="name:mn" v="Нэгдсэн Вант Улс"/>
    <tag k="name:nds" v="Vereenigd Königriek"/>
    <tag k="name:nl" v="Verenigd Koninkrijk"/>
    <tag k="name:no" v="Storbritania"/>
    <tag k="name:pl" v="Wielka Brytania"/>
    <tag k="name:pt" v="Reino Unido"/>
    <tag k="name:ru" v="Соединенное Королевство"/>
    <tag k="name:sl" v="Velika Britanija"/>
    <tag k="name:sv" v="Storbritannien"/>
    <tag k="name:th" v="สหราชอาณาจักร"/>
    <tag k="name:tr" v="Birleşik Krallık"/>
    <tag k="name:uk" v="Великобританія"/>
    <tag k="name:vi" v="Liên hiệp Vương quốc Anh và Bắc Ireland"/>
    <tag k="name:zh" v="英国"/>
    <tag k="name:zh_py" v="Yingguo"/>
    <tag k="name:zh_pyt" v="Yīngguó"/>
    <tag k="official_name" v="United Kingdom of Great Britain and Northern Ireland"/>
    <tag k="official_name:be" v="Злучанае Каралеўства Вялікабрытаніі і Паўночнай Ірландыі"/>
    <tag k="official_name:br" v="Rouantelezh Unanet Breizh-Veur ha Norzhiwerzhon"/>
    <tag k="official_name:el" v="Ηνωμένο Βασίλειο της Μεγάλης Βρετανίας και της Βορείου Ιρλανδίας"/>
    <tag k="official_name:es" v="Reino Unido de Gran Bretaña"/>
    <tag k="official_name:et" v="Suurbritannia ja Põhja-Iiri Ühendkuningriik"/>
    <tag k="official_name:fr" v="Royaume-Uni de Grande-Bretagne et d&apos;Irlande du Nord"/>
    <tag k="official_name:id" v="Perserikatan Kerajaan Britania Raya dan Irlandia Utara"/>
    <tag k="official_name:ja" v="グレートブリテン及び北アイルランド連合王国"/>
    <tag k="official_name:lb" v="Vereenegt Kinnekräich vu Groussbritannien an Nordirland"/>
    <tag k="official_name:pl" v="Zjednoczone Królestwo Wielkiej Brytanii"/>
    <tag k="official_name:pt" v="Reino Unido da Grã-Bretanha e Irlanda do Norte"/>
    <tag k="official_name:ru" v="Соединенное Королевство Великобритании и Северной Ирландии"/>
    <tag k="official_name:sl" v="Združeno kraljestvo Velike Britanije in Severne Irske"/>
    <tag k="official_name:sv" v="Förenade konungariket Storbritannien och Nordirland"/>
    <tag k="place" v="country"/>
    <tag k="population" v="60975000"/>
    <tag k="wikipedia" v="United Kingdom"/>
    <tag k="wikipedia:fr" v="Royaume-Uni"/>
  </node>
  <node id="241003027" version="52" timestamp="2009-09-01T10:59:11Z" uid="148025" user="mvrban" changeset="2336157" lat="54.8847477" lon="-2.43601">
    <tag k="alt_name" v="United Kingdom; UK; Britain; Great Britain"/>
    <tag k="capital_city" v="London"/>
    <tag k="country_code_fips" v="UK"/>
    <tag k="country_code_iso3166_1_alpha_2" v="GB"/>
    <tag k="is_in:continent" v="Europe"/>
    <tag k="is_in:ocean" v="Atlantic"/>
    <tag k="name" v="United Kingdom"/>
    <tag k="name:af" v="Verenigde Koninkryk"/>
    <tag k="name:ar" v="المملكة المتحدة"/>
    <tag k="name:be" v="Вялікабрытанія"/>
    <tag k="name:br" v="Rouantelezh Unanet"/>
    <tag k="name:ca" v="Regne Unit"/>
    <tag k="name:cy" v="Y Deyrnas Unedig"/>
    <tag k="name:da" v="Storbritannien"/>
    <tag k="name:de" v="Vereinigtes Königreich"/>
    <tag k="name:el" v="Ηνωμένο Βασίλειο"/>
    <tag k="name:eo" v="Unuiĝinta Reĝlando"/>
    <tag k="name:es" v="Gran Bretaña"/>
    <tag k="name:et" v="Suurbritannia"/>
    <tag k="name:fa" v="بریتانیا"/>
    <tag k="name:fi" v="Yhdistynyt kuningaskunta"/>
    <tag k="name:fr" v="Royaume-Uni"/>
    <tag k="name:fy" v="Grut-Brittanje"/>
    <tag k="name:ga" v="An Ríocht Aontaithe"/>
    <tag k="name:gd" v="An Rìoghachd Aonaichte"/>
    <tag k="name:gv" v="Reeriaght Unnaneysit"/>
    <tag k="name:he" v="בריטניה"/>
    <tag k="name:hr" v="Velika Britanija"/>
    <tag k="name:hu" v="Nagy-Britannia"/>
    <tag k="name:hy" v="Միացյալ Թագավորություն"/>
    <tag k="name:id" v="Britania Raya"/>
    <tag k="name:is" v="Bretland"/>
    <tag k="name:it" v="Gran Bretagna"/>
    <tag k="name:ja" v="イギリス"/>
    <tag k="name:la" v="Britanniarum Regnum"/>
    <tag k="name:lb" v="Groussbritannien an Nordirland"/>
    <tag k="name:li" v="Vereineg Keuninkriek"/>
    <tag k="name:lt" v="Jungtinė Karalystė"/>
    <tag k="name:mn" v="Нэгдсэн Вант Улс"/>
    <tag k="name:nds" v="Vereenigd Königriek"/>
    <tag k="name:nl" v="Verenigd Koninkrijk"/>
    <tag k="name:no" v="Storbritania"/>
    <tag k="name:pl" v="Wielka Brytania"/>
    <tag k="name:pt" v="Reino Unido"/>
    <tag k="name:ru" v="Соединенное Королевство"/>
    <tag k="name:sl" v="Velika Britanija"/>
    <tag k="name:sv" v="Storbritannien"/>
    <tag k="name:th" v="สหราชอาณาจักร"/>
    <tag k="name:tr" v="Birleşik Krallık"/>
    <tag k="name:uk" v="Великобританія"/>
    <tag k="name:vi" v="Liên hiệp Vương quốc Anh và Bắc Ireland"/>
    <tag k="name:zh" v="英国"/>
    <tag k="name:zh_py" v="Yingguo"/>
    <tag k="name:zh_pyt" v="Yīngguó"/>
    <tag k="official_name" v="United Kingdom of Great Britain and Northern Ireland"/>
    <tag k="official_name:be" v="Злучанае Каралеўства Вялікабрытаніі і Паўночнай Ірландыі"/>
    <tag k="official_name:br" v="Rouantelezh Unanet Breizh-Veur ha Norzhiwerzhon"/>
    <tag k="official_name:el" v="Ηνωμένο Βασίλειο της Μεγάλης Βρετανίας και της Βορείου Ιρλανδίας"/>
    <tag k="official_name:es" v="Reino Unido de Gran Bretaña"/>
    <tag k="official_name:et" v="Suurbritannia ja Põhja-Iiri Ühendkuningriik"/>
    <tag k="official_name:fr" v="Royaume-Uni de Grande-Bretagne et d&apos;Irlande du Nord"/>
    <tag k="official_name:id" v="Perserikatan Kerajaan Britania Raya dan Irlandia Utara"/>
    <tag k="official_name:ja" v="グレートブリテン及び北アイルランド連合王国"/>
    <tag k="official_name:lb" v="Vereenegt Kinnekräich vu Groussbritannien an Nordirland"/>
    <tag k="official_name:pl" v="Zjednoczone Królestwo Wielkiej Brytanii"/>
    <tag k="official_name:pt" v="Reino Unido da Grã-Bretanha e Irlanda do Norte"/>
    <tag k="official_name:ru" v="Соединенное Королевство Великобритании и Северной Ирландии"/>
    <tag k="official_name:sl" v="Združeno kraljestvo Velike Britanije in Severne Irske"/>
    <tag k="official_name:sv" v="Förenade konungariket Storbritannien och Nordirland"/>
    <tag k="place" v="country"/>
    <tag k="population" v="60975000"/>
    <tag k="wikipedia" v="United Kingdom"/>
    <tag k="wikipedia:fr" v="Royaume-Uni"/>
  </node>
  <node id="241003027" version="53" timestamp="2009-09-01T23:46:37Z" uid="115468" user="platlas23" changeset="2343968" lat="54.8847477" lon="-2.43601">
    <tag k="alt_name" v="United Kingdom; UK; Britain; Great Britain"/>
    <tag k="capital_city" v="London"/>
    <tag k="country_code_fips" v="UK"/>
    <tag k="country_code_iso3166_1_alpha_2" v="GB"/>
    <tag k="is_in:continent" v="Europe"/>
    <tag k="is_in:ocean" v="Atlantic"/>
    <tag k="name" v="United Kingdom"/>
    <tag k="name:af" v="Verenigde Koninkryk"/>
    <tag k="name:ar" v="المملكة المتحدة"/>
    <tag k="name:be" v="Вялікабрытанія"/>
    <tag k="name:br" v="Rouantelezh Unanet"/>
    <tag k="name:ca" v="Regne Unit"/>
    <tag k="name:cy" v="Y Deyrnas Unedig"/>
    <tag k="name:da" v="Storbritannien"/>
    <tag k="name:de" v="Vereinigtes Königreich"/>
    <tag k="name:el" v="Ηνωμένο Βασίλειο"/>
    <tag k="name:eo" v="Unuiĝinta Reĝlando"/>
    <tag k="name:es" v="Gran Bretaña"/>
    <tag k="name:et" v="Suurbritannia"/>
    <tag k="name:fa" v="بریتانیا"/>
    <tag k="name:fi" v="Yhdistynyt kuningaskunta"/>
    <tag k="name:fr" v="Royaume-Uni"/>
    <tag k="name:fy" v="Grut-Brittanje"/>
    <tag k="name:ga" v="An Ríocht Aontaithe"/>
    <tag k="name:gd" v="An Rìoghachd Aonaichte"/>
    <tag k="name:gv" v="Reeriaght Unnaneysit"/>
    <tag k="name:he" v="בריטניה"/>
    <tag k="name:hr" v="Velika Britanija"/>
    <tag k="name:hu" v="Nagy-Britannia"/>
    <tag k="name:hy" v="Միացյալ Թագավորություն"/>
    <tag k="name:id" v="Britania Raya"/>
    <tag k="name:is" v="Bretland"/>
    <tag k="name:it" v="Gran Bretagna"/>
    <tag k="name:ja" v="イギリス"/>
    <tag k="name:la" v="Britanniarum Regnum"/>
    <tag k="name:lb" v="Groussbritannien an Nordirland"/>
    <tag k="name:li" v="Vereineg Keuninkriek"/>
    <tag k="name:lt" v="Jungtinė Karalystė"/>
    <tag k="name:mn" v="Нэгдсэн Вант Улс"/>
    <tag k="name:nds" v="Vereenigd Königriek"/>
    <tag k="name:nl" v="Verenigd Koninkrijk"/>
    <tag k="name:no" v="Storbritania"/>
    <tag k="name:pl" v="Wielka Brytania"/>
    <tag k="name:pt" v="Reino Unido"/>
    <tag k="name:ru" v="Соединенное Королевство"/>
    <tag k="name:sk" v="Spojené kráľovstvo"/>
    <tag k="name:sl" v="Velika Britanija"/>
    <tag k="name:sv" v="Storbritannien"/>
    <tag k="name:th" v="สหราชอาณาจักร"/>
    <tag k="name:tr" v="Birleşik Krallık"/>
    <tag k="name:uk" v="Великобританія"/>
    <tag k="name:vi" v="Liên hiệp Vương quốc Anh và Bắc Ireland"/>
    <tag k="name:zh" v="英国"/>
    <tag k="name:zh_py" v="Yingguo"/>
    <tag k="name:zh_pyt" v="Yīngguó"/>
    <tag k="official_name" v="United Kingdom of Great Britain and Northern Ireland"/>
    <tag k="official_name:be" v="Злучанае Каралеўства Вялікабрытаніі і Паўночнай Ірландыі"/>
    <tag k="official_name:br" v="Rouantelezh Unanet Breizh-Veur ha Norzhiwerzhon"/>
    <tag k="official_name:el" v="Ηνωμένο Βασίλειο της Μεγάλης Βρετανίας και της Βορείου Ιρλανδίας"/>
    <tag k="official_name:es" v="Reino Unido de Gran Bretaña"/>
    <tag k="official_name:et" v="Suurbritannia ja Põhja-Iiri Ühendkuningriik"/>
    <tag k="official_name:fr" v="Royaume-Uni de Grande-Bretagne et d&apos;Irlande du Nord"/>
    <tag k="official_name:id" v="Perserikatan Kerajaan Britania Raya dan Irlandia Utara"/>
    <tag k="official_name:ja" v="グレートブリテン及び北アイルランド連合王国"/>
    <tag k="official_name:lb" v="Vereenegt Kinnekräich vu Groussbritannien an Nordirland"/>
    <tag k="official_name:pl" v="Zjednoczone Królestwo Wielkiej Brytanii"/>
    <tag k="official_name:pt" v="Reino Unido da Grã-Bretanha e Irlanda do Norte"/>
    <tag k="official_name:ru" v="Соединенное Королевство Великобритании и Северной Ирландии"/>
    <tag k="official_name:sk" v="Spojené kráľovstvo Veľkej Británie a Severného Írska"/>
    <tag k="official_name:sl" v="Združeno kraljestvo Velike Britanije in Severne Irske"/>
    <tag k="official_name:sv" v="Förenade konungariket Storbritannien och Nordirland"/>
    <tag k="place" v="country"/>
    <tag k="population" v="60975000"/>
    <tag k="wikipedia" v="United Kingdom"/>
    <tag k="wikipedia:fr" v="Royaume-Uni"/>
  </node>
  <node id="241003027" version="54" timestamp="2009-09-11T14:59:59Z" uid="10345" user="Mormegil" changeset="2447653" lat="54.8847477" lon="-2.43601">
    <tag k="alt_name" v="United Kingdom; UK; Britain; Great Britain"/>
    <tag k="alt_name:cs" v="Velká Británie"/>
    <tag k="capital_city" v="London"/>
    <tag k="country_code_fips" v="UK"/>
    <tag k="country_code_iso3166_1_alpha_2" v="GB"/>
    <tag k="is_in:continent" v="Europe"/>
    <tag k="is_in:ocean" v="Atlantic"/>
    <tag k="name" v="United Kingdom"/>
    <tag k="name:af" v="Verenigde Koninkryk"/>
    <tag k="name:ar" v="المملكة المتحدة"/>
    <tag k="name:be" v="Вялікабрытанія"/>
    <tag k="name:br" v="Rouantelezh Unanet"/>
    <tag k="name:ca" v="Regne Unit"/>
    <tag k="name:cs" v="Spojené království"/>
    <tag k="name:cy" v="Y Deyrnas Unedig"/>
    <tag k="name:da" v="Storbritannien"/>
    <tag k="name:de" v="Vereinigtes Königreich"/>
    <tag k="name:el" v="Ηνωμένο Βασίλειο"/>
    <tag k="name:eo" v="Unuiĝinta Reĝlando"/>
    <tag k="name:es" v="Gran Bretaña"/>
    <tag k="name:et" v="Suurbritannia"/>
    <tag k="name:fa" v="بریتانیا"/>
    <tag k="name:fi" v="Yhdistynyt kuningaskunta"/>
    <tag k="name:fr" v="Royaume-Uni"/>
    <tag k="name:fy" v="Grut-Brittanje"/>
    <tag k="name:ga" v="An Ríocht Aontaithe"/>
    <tag k="name:gd" v="An Rìoghachd Aonaichte"/>
    <tag k="name:gv" v="Reeriaght Unnaneysit"/>
    <tag k="name:he" v="בריטניה"/>
    <tag k="name:hr" v="Velika Britanija"/>
    <tag k="name:hu" v="Nagy-Britannia"/>
    <tag k="name:hy" v="Միացյալ Թագավորություն"/>
    <tag k="name:id" v="Britania Raya"/>
    <tag k="name:is" v="Bretland"/>
    <tag k="name:it" v="Gran Bretagna"/>
    <tag k="name:ja" v="イギリス"/>
    <tag k="name:la" v="Britanniarum Regnum"/>
    <tag k="name:lb" v="Groussbritannien an Nordirland"/>
    <tag k="name:li" v="Vereineg Keuninkriek"/>
    <tag k="name:lt" v="Jungtinė Karalystė"/>
    <tag k="name:mn" v="Нэгдсэн Вант Улс"/>
    <tag k="name:nds" v="Vereenigd Königriek"/>
    <tag k="name:nl" v="Verenigd Koninkrijk"/>
    <tag k="name:no" v="Storbritania"/>
    <tag k="name:pl" v="Wielka Brytania"/>
    <tag k="name:pt" v="Reino Unido"/>
    <tag k="name:ru" v="Соединенное Королевство"/>
    <tag k="name:sk" v="Spojené kráľovstvo"/>
    <tag k="name:sl" v="Velika Britanija"/>
    <tag k="name:sv" v="Storbritannien"/>
    <tag k="name:th" v="สหราชอาณาจักร"/>
    <tag k="name:tr" v="Birleşik Krallık"/>
    <tag k="name:uk" v="Великобританія"/>
    <tag k="name:vi" v="Liên hiệp Vương quốc Anh và Bắc Ireland"/>
    <tag k="name:zh" v="英国"/>
    <tag k="name:zh_py" v="Yingguo"/>
    <tag k="name:zh_pyt" v="Yīngguó"/>
    <tag k="official_name" v="United Kingdom of Great Britain and Northern Ireland"/>
    <tag k="official_name:be" v="Злучанае Каралеўства Вялікабрытаніі і Паўночнай Ірландыі"/>
    <tag k="official_name:br" v="Rouantelezh Unanet Breizh-Veur ha Norzhiwerzhon"/>
    <tag k="official_name:el" v="Ηνωμένο Βασίλειο της Μεγάλης Βρετανίας και της Βορείου Ιρλανδίας"/>
    <tag k="official_name:es" v="Reino Unido de Gran Bretaña"/>
    <tag k="official_name:et" v="Suurbritannia ja Põhja-Iiri Ühendkuningriik"/>
    <tag k="official_name:fr" v="Royaume-Uni de Grande-Bretagne et d&apos;Irlande du Nord"/>
    <tag k="official_name:id" v="Perserikatan Kerajaan Britania Raya dan Irlandia Utara"/>
    <tag k="official_name:ja" v="グレートブリテン及び北アイルランド連合王国"/>
    <tag k="official_name:lb" v="Vereenegt Kinnekräich vu Groussbritannien an Nordirland"/>
    <tag k="official_name:pl" v="Zjednoczone Królestwo Wielkiej Brytanii"/>
    <tag k="official_name:pt" v="Reino Unido da Grã-Bretanha e Irlanda do Norte"/>
    <tag k="official_name:ru" v="Соединенное Королевство Великобритании и Северной Ирландии"/>
    <tag k="official_name:sk" v="Spojené kráľovstvo Veľkej Británie a Severného Írska"/>
    <tag k="official_name:sl" v="Združeno kraljestvo Velike Britanije in Severne Irske"/>
    <tag k="official_name:sv" v="Förenade konungariket Storbritannien och Nordirland"/>
    <tag k="place" v="country"/>
    <tag k="population" v="60975000"/>
    <tag k="wikipedia" v="United Kingdom"/>
    <tag k="wikipedia:fr" v="Royaume-Uni"/>
  </node>
  <node id="241003027" version="55" timestamp="2009-09-23T10:35:04Z" uid="140069" user="kebil" changeset="2593768" lat="54.8847482" lon="-2.4360105">
    <tag k="alt_name" v="United Kingdom; UK; Britain; Great Britain"/>
    <tag k="alt_name:cs" v="Velká Británie"/>
    <tag k="capital_city" v="London"/>
    <tag k="country_code_fips" v="UK"/>
    <tag k="country_code_iso3166_1_alpha_2" v="GB"/>
    <tag k="is_in:continent" v="Europe"/>
    <tag k="is_in:ocean" v="Atlantic"/>
    <tag k="name" v="United Kingdom"/>
    <tag k="name:af" v="Verenigde Koninkryk"/>
    <tag k="name:ar" v="المملكة المتحدة"/>
    <tag k="name:be" v="Вялікабрытанія"/>
    <tag k="name:br" v="Rouantelezh Unanet"/>
    <tag k="name:ca" v="Regne Unit"/>
    <tag k="name:cs" v="Spojené království"/>
    <tag k="name:cy" v="Y Deyrnas Unedig"/>
    <tag k="name:da" v="Storbritannien"/>
    <tag k="name:de" v="Vereinigtes Königreich"/>
    <tag k="name:el" v="Ηνωμένο Βασίλειο"/>
    <tag k="name:eo" v="Unuiĝinta Reĝlando"/>
    <tag k="name:es" v="Gran Bretaña"/>
    <tag k="name:et" v="Suurbritannia"/>
    <tag k="name:fa" v="بریتانیا"/>
    <tag k="name:fi" v="Yhdistynyt kuningaskunta"/>
    <tag k="name:fr" v="Royaume-Uni"/>
    <tag k="name:fy" v="Grut-Brittanje"/>
    <tag k="name:ga" v="An Ríocht Aontaithe"/>
    <tag k="name:gd" v="An Rìoghachd Aonaichte"/>
    <tag k="name:gv" v="Reeriaght Unnaneysit"/>
    <tag k="name:he" v="בריטניה"/>
    <tag k="name:hr" v="Velika Britanija"/>
    <tag k="name:hu" v="Nagy-Britannia"/>
    <tag k="name:hy" v="Միացյալ Թագավորություն"/>
    <tag k="name:id" v="Britania Raya"/>
    <tag k="name:is" v="Bretland"/>
    <tag k="name:it" v="Gran Bretagna"/>
    <tag k="name:ja" v="イギリス"/>
    <tag k="name:la" v="Britanniarum Regnum"/>
    <tag k="name:lb" v="Groussbritannien an Nordirland"/>
    <tag k="name:li" v="Vereineg Keuninkriek"/>
    <tag k="name:lt" v="Jungtinė Karalystė"/>
    <tag k="name:mn" v="Нэгдсэн Вант Улс"/>
    <tag k="name:nds" v="Vereenigd Königriek"/>
    <tag k="name:nl" v="Verenigd Koninkrijk"/>
    <tag k="name:no" v="Storbritania"/>
    <tag k="name:pl" v="Wielka Brytania"/>
    <tag k="name:pt" v="Reino Unido"/>
    <tag k="name:ru" v="Соединенное Королевство"/>
    <tag k="name:sk" v="Spojené kráľovstvo"/>
    <tag k="name:sl" v="Velika Britanija"/>
    <tag k="name:sv" v="Storbritannien"/>
    <tag k="name:th" v="สหราชอาณาจักร"/>
    <tag k="name:tr" v="Birleşik Krallık"/>
    <tag k="name:uk" v="Великобританія"/>
    <tag k="name:vi" v="Liên hiệp Vương quốc Anh và Bắc Ireland"/>
    <tag k="name:zh" v="英国"/>
    <tag k="name:zh_py" v="Yingguo"/>
    <tag k="name:zh_pyt" v="Yīngguó"/>
    <tag k="official_name" v="United Kingdom of Great Britain and Northern Ireland"/>
    <tag k="official_name:be" v="Злучанае Каралеўства Вялікабрытаніі і Паўночнай Ірландыі"/>
    <tag k="official_name:br" v="Rouantelezh Unanet Breizh-Veur ha Norzhiwerzhon"/>
    <tag k="official_name:el" v="Ηνωμένο Βασίλειο της Μεγάλης Βρετανίας και της Βορείου Ιρλανδίας"/>
    <tag k="official_name:es" v="Reino Unido de Gran Bretaña"/>
    <tag k="official_name:et" v="Suurbritannia ja Põhja-Iiri Ühendkuningriik"/>
    <tag k="official_name:fr" v="Royaume-Uni de Grande-Bretagne et d&apos;Irlande du Nord"/>
    <tag k="official_name:id" v="Perserikatan Kerajaan Britania Raya dan Irlandia Utara"/>
    <tag k="official_name:ja" v="グレートブリテン及び北アイルランド連合王国"/>
    <tag k="official_name:lb" v="Vereenegt Kinnekräich vu Groussbritannien an Nordirland"/>
    <tag k="official_name:lt" v="Jungtinė Didžiosios Britanijos ir Šiaurės Airijos Karalystė"/>
    <tag k="official_name:pl" v="Zjednoczone Królestwo Wielkiej Brytanii"/>
    <tag k="official_name:pt" v="Reino Unido da Grã-Bretanha e Irlanda do Norte"/>
    <tag k="official_name:ru" v="Соединенное Королевство Великобритании и Северной Ирландии"/>
    <tag k="official_name:sk" v="Spojené kráľovstvo Veľkej Británie a Severného Írska"/>
    <tag k="official_name:sl" v="Združeno kraljestvo Velike Britanije in Severne Irske"/>
    <tag k="official_name:sv" v="Förenade konungariket Storbritannien och Nordirland"/>
    <tag k="place" v="country"/>
    <tag k="population" v="60975000"/>
    <tag k="wikipedia" v="United Kingdom"/>
    <tag k="wikipedia:fr" v="Royaume-Uni"/>
  </node>
  <node id="241003027" version="56" timestamp="2009-09-28T19:06:26Z" uid="47892" user="richlv" changeset="2669173" lat="54.8847482" lon="-2.4360105">
    <tag k="alt_name" v="United Kingdom; UK; Britain; Great Britain"/>
    <tag k="alt_name:cs" v="Velká Británie"/>
    <tag k="capital_city" v="London"/>
    <tag k="country_code_fips" v="UK"/>
    <tag k="country_code_iso3166_1_alpha_2" v="GB"/>
    <tag k="is_in:continent" v="Europe"/>
    <tag k="is_in:ocean" v="Atlantic"/>
    <tag k="name" v="United Kingdom"/>
    <tag k="name:af" v="Verenigde Koninkryk"/>
    <tag k="name:ar" v="المملكة المتحدة"/>
    <tag k="name:be" v="Вялікабрытанія"/>
    <tag k="name:br" v="Rouantelezh Unanet"/>
    <tag k="name:ca" v="Regne Unit"/>
    <tag k="name:cs" v="Spojené království"/>
    <tag k="name:cy" v="Y Deyrnas Unedig"/>
    <tag k="name:da" v="Storbritannien"/>
    <tag k="name:de" v="Vereinigtes Königreich"/>
    <tag k="name:el" v="Ηνωμένο Βασίλειο"/>
    <tag k="name:eo" v="Unuiĝinta Reĝlando"/>
    <tag k="name:es" v="Gran Bretaña"/>
    <tag k="name:et" v="Suurbritannia"/>
    <tag k="name:fa" v="بریتانیا"/>
    <tag k="name:fi" v="Yhdistynyt kuningaskunta"/>
    <tag k="name:fr" v="Royaume-Uni"/>
    <tag k="name:fy" v="Grut-Brittanje"/>
    <tag k="name:ga" v="An Ríocht Aontaithe"/>
    <tag k="name:gd" v="An Rìoghachd Aonaichte"/>
    <tag k="name:gv" v="Reeriaght Unnaneysit"/>
    <tag k="name:he" v="בריטניה"/>
    <tag k="name:hr" v="Velika Britanija"/>
    <tag k="name:hu" v="Nagy-Britannia"/>
    <tag k="name:hy" v="Միացյալ Թագավորություն"/>
    <tag k="name:id" v="Britania Raya"/>
    <tag k="name:is" v="Bretland"/>
    <tag k="name:it" v="Gran Bretagna"/>
    <tag k="name:ja" v="イギリス"/>
    <tag k="name:la" v="Britanniarum Regnum"/>
    <tag k="name:lb" v="Groussbritannien an Nordirland"/>
    <tag k="name:li" v="Vereineg Keuninkriek"/>
    <tag k="name:lt" v="Jungtinė Karalystė"/>
    <tag k="name:lv" v="Lielbritānija"/>
    <tag k="name:mn" v="Нэгдсэн Вант Улс"/>
    <tag k="name:nds" v="Vereenigd Königriek"/>
    <tag k="name:nl" v="Verenigd Koninkrijk"/>
    <tag k="name:no" v="Storbritania"/>
    <tag k="name:pl" v="Wielka Brytania"/>
    <tag k="name:pt" v="Reino Unido"/>
    <tag k="name:ru" v="Соединенное Королевство"/>
    <tag k="name:sk" v="Spojené kráľovstvo"/>
    <tag k="name:sl" v="Velika Britanija"/>
    <tag k="name:sv" v="Storbritannien"/>
    <tag k="name:th" v="สหราชอาณาจักร"/>
    <tag k="name:tr" v="Birleşik Krallık"/>
    <tag k="name:uk" v="Великобританія"/>
    <tag k="name:vi" v="Liên hiệp Vương quốc Anh và Bắc Ireland"/>
    <tag k="name:zh" v="英国"/>
    <tag k="name:zh_py" v="Yingguo"/>
    <tag k="name:zh_pyt" v="Yīngguó"/>
    <tag k="official_name" v="United Kingdom of Great Britain and Northern Ireland"/>
    <tag k="official_name:be" v="Злучанае Каралеўства Вялікабрытаніі і Паўночнай Ірландыі"/>
    <tag k="official_name:br" v="Rouantelezh Unanet Breizh-Veur ha Norzhiwerzhon"/>
    <tag k="official_name:el" v="Ηνωμένο Βασίλειο της Μεγάλης Βρετανίας και της Βορείου Ιρλανδίας"/>
    <tag k="official_name:es" v="Reino Unido de Gran Bretaña"/>
    <tag k="official_name:et" v="Suurbritannia ja Põhja-Iiri Ühendkuningriik"/>
    <tag k="official_name:fr" v="Royaume-Uni de Grande-Bretagne et d&apos;Irlande du Nord"/>
    <tag k="official_name:id" v="Perserikatan Kerajaan Britania Raya dan Irlandia Utara"/>
    <tag k="official_name:ja" v="グレートブリテン及び北アイルランド連合王国"/>
    <tag k="official_name:lb" v="Vereenegt Kinnekräich vu Groussbritannien an Nordirland"/>
    <tag k="official_name:lt" v="Jungtinė Didžiosios Britanijos ir Šiaurės Airijos Karalystė"/>
    <tag k="official_name:pl" v="Zjednoczone Królestwo Wielkiej Brytanii"/>
    <tag k="official_name:pt" v="Reino Unido da Grã-Bretanha e Irlanda do Norte"/>
    <tag k="official_name:ru" v="Соединенное Королевство Великобритании и Северной Ирландии"/>
    <tag k="official_name:sk" v="Spojené kráľovstvo Veľkej Británie a Severného Írska"/>
    <tag k="official_name:sl" v="Združeno kraljestvo Velike Britanije in Severne Irske"/>
    <tag k="official_name:sv" v="Förenade konungariket Storbritannien och Nordirland"/>
    <tag k="place" v="country"/>
    <tag k="population" v="60975000"/>
    <tag k="wikipedia" v="United Kingdom"/>
    <tag k="wikipedia:fr" v="Royaume-Uni"/>
  </node>
  <node id="241003027" version="57" timestamp="2009-11-27T20:08:51Z" uid="173870" user="MikelEH" changeset="3231263" lat="54.8847483" lon="-2.4360105">
    <tag k="alt_name" v="United Kingdom; UK; Britain; Great Britain"/>
    <tag k="alt_name:cs" v="Velká Británie"/>
    <tag k="capital_city" v="London"/>
    <tag k="country_code_fips" v="UK"/>
    <tag k="country_code_iso3166_1_alpha_2" v="GB"/>
    <tag k="is_in:continent" v="Europe"/>
    <tag k="is_in:ocean" v="Atlantic"/>
    <tag k="name" v="United Kingdom"/>
    <tag k="name:af" v="Verenigde Koninkryk"/>
    <tag k="name:ar" v="المملكة المتحدة"/>
    <tag k="name:be" v="Вялікабрытанія"/>
    <tag k="name:br" v="Rouantelezh Unanet"/>
    <tag k="name:ca" v="Regne Unit"/>
    <tag k="name:cs" v="Spojené království"/>
    <tag k="name:cy" v="Y Deyrnas Unedig"/>
    <tag k="name:da" v="Storbritannien"/>
    <tag k="name:de" v="Vereinigtes Königreich"/>
    <tag k="name:el" v="Ηνωμένο Βασίλειο"/>
    <tag k="name:eo" v="Unuiĝinta Reĝlando"/>
    <tag k="name:es" v="Gran Bretaña"/>
    <tag k="name:et" v="Suurbritannia"/>
    <tag k="name:eu" v="Erresuma Batua"/>
    <tag k="name:fa" v="بریتانیا"/>
    <tag k="name:fi" v="Yhdistynyt kuningaskunta"/>
    <tag k="name:fr" v="Royaume-Uni"/>
    <tag k="name:fy" v="Grut-Brittanje"/>
    <tag k="name:ga" v="An Ríocht Aontaithe"/>
    <tag k="name:gd" v="An Rìoghachd Aonaichte"/>
    <tag k="name:gv" v="Reeriaght Unnaneysit"/>
    <tag k="name:he" v="בריטניה"/>
    <tag k="name:hr" v="Velika Britanija"/>
    <tag k="name:hu" v="Nagy-Britannia"/>
    <tag k="name:hy" v="Միացյալ Թագավորություն"/>
    <tag k="name:id" v="Britania Raya"/>
    <tag k="name:is" v="Bretland"/>
    <tag k="name:it" v="Gran Bretagna"/>
    <tag k="name:ja" v="イギリス"/>
    <tag k="name:la" v="Britanniarum Regnum"/>
    <tag k="name:lb" v="Groussbritannien an Nordirland"/>
    <tag k="name:li" v="Vereineg Keuninkriek"/>
    <tag k="name:lt" v="Jungtinė Karalystė"/>
    <tag k="name:lv" v="Lielbritānija"/>
    <tag k="name:mn" v="Нэгдсэн Вант Улс"/>
    <tag k="name:nds" v="Vereenigd Königriek"/>
    <tag k="name:nl" v="Verenigd Koninkrijk"/>
    <tag k="name:no" v="Storbritania"/>
    <tag k="name:pl" v="Wielka Brytania"/>
    <tag k="name:pt" v="Reino Unido"/>
    <tag k="name:ru" v="Соединенное Королевство"/>
    <tag k="name:sk" v="Spojené kráľovstvo"/>
    <tag k="name:sl" v="Velika Britanija"/>
    <tag k="name:sv" v="Storbritannien"/>
    <tag k="name:th" v="สหราชอาณาจักร"/>
    <tag k="name:tr" v="Birleşik Krallık"/>
    <tag k="name:uk" v="Великобританія"/>
    <tag k="name:vi" v="Liên hiệp Vương quốc Anh và Bắc Ireland"/>
    <tag k="name:zh" v="英国"/>
    <tag k="name:zh_py" v="Yingguo"/>
    <tag k="name:zh_pyt" v="Yīngguó"/>
    <tag k="official_name" v="United Kingdom of Great Britain and Northern Ireland"/>
    <tag k="official_name:be" v="Злучанае Каралеўства Вялікабрытаніі і Паўночнай Ірландыі"/>
    <tag k="official_name:br" v="Rouantelezh Unanet Breizh-Veur ha Norzhiwerzhon"/>
    <tag k="official_name:el" v="Ηνωμένο Βασίλειο της Μεγάλης Βρετανίας και της Βορείου Ιρλανδίας"/>
    <tag k="official_name:es" v="Reino Unido de Gran Bretaña"/>
    <tag k="official_name:et" v="Suurbritannia ja Põhja-Iiri Ühendkuningriik"/>
    <tag k="official_name:eu" v="Britania Handiko eta Ipar Irlandako Erresuma Batua"/>
    <tag k="official_name:fr" v="Royaume-Uni de Grande-Bretagne et d&apos;Irlande du Nord"/>
    <tag k="official_name:id" v="Perserikatan Kerajaan Britania Raya dan Irlandia Utara"/>
    <tag k="official_name:ja" v="グレートブリテン及び北アイルランド連合王国"/>
    <tag k="official_name:lb" v="Vereenegt Kinnekräich vu Groussbritannien an Nordirland"/>
    <tag k="official_name:lt" v="Jungtinė Didžiosios Britanijos ir Šiaurės Airijos Karalystė"/>
    <tag k="official_name:pl" v="Zjednoczone Królestwo Wielkiej Brytanii"/>
    <tag k="official_name:pt" v="Reino Unido da Grã-Bretanha e Irlanda do Norte"/>
    <tag k="official_name:ru" v="Соединенное Королевство Великобритании и Северной Ирландии"/>
    <tag k="official_name:sk" v="Spojené kráľovstvo Veľkej Británie a Severného Írska"/>
    <tag k="official_name:sl" v="Združeno kraljestvo Velike Britanije in Severne Irske"/>
    <tag k="official_name:sv" v="Förenade konungariket Storbritannien och Nordirland"/>
    <tag k="place" v="country"/>
    <tag k="population" v="60975000"/>
    <tag k="wikipedia" v="United Kingdom"/>
    <tag k="wikipedia:fr" v="Royaume-Uni"/>
  </node>
  <node id="241003027" version="58" timestamp="2009-12-07T11:13:54Z" uid="13721" user="wangchun" changeset="3314708" lat="54.8847483" lon="-2.4360105">
    <tag k="alt_name" v="United Kingdom; UK; Britain; Great Britain"/>
    <tag k="alt_name:cs" v="Velká Británie"/>
    <tag k="capital_city" v="London"/>
    <tag k="country_code_fips" v="UK"/>
    <tag k="country_code_iso3166_1_alpha_2" v="GB"/>
    <tag k="is_in:continent" v="Europe"/>
    <tag k="is_in:ocean" v="Atlantic"/>
    <tag k="name" v="United Kingdom"/>
    <tag k="name:af" v="Verenigde Koninkryk"/>
    <tag k="name:ar" v="المملكة المتحدة"/>
    <tag k="name:be" v="Вялікабрытанія"/>
    <tag k="name:br" v="Rouantelezh Unanet"/>
    <tag k="name:ca" v="Regne Unit"/>
    <tag k="name:cs" v="Spojené království"/>
    <tag k="name:cy" v="Y Deyrnas Unedig"/>
    <tag k="name:da" v="Storbritannien"/>
    <tag k="name:de" v="Vereinigtes Königreich"/>
    <tag k="name:el" v="Ηνωμένο Βασίλειο"/>
    <tag k="name:eo" v="Unuiĝinta Reĝlando"/>
    <tag k="name:es" v="Gran Bretaña"/>
    <tag k="name:et" v="Suurbritannia"/>
    <tag k="name:eu" v="Erresuma Batua"/>
    <tag k="name:fa" v="بریتانیا"/>
    <tag k="name:fi" v="Yhdistynyt kuningaskunta"/>
    <tag k="name:fr" v="Royaume-Uni"/>
    <tag k="name:fy" v="Grut-Brittanje"/>
    <tag k="name:ga" v="An Ríocht Aontaithe"/>
    <tag k="name:gd" v="An Rìoghachd Aonaichte"/>
    <tag k="name:gv" v="Reeriaght Unnaneysit"/>
    <tag k="name:he" v="בריטניה"/>
    <tag k="name:hr" v="Velika Britanija"/>
    <tag k="name:hu" v="Nagy-Britannia"/>
    <tag k="name:hy" v="Միացյալ Թագավորություն"/>
    <tag k="name:id" v="Britania Raya"/>
    <tag k="name:is" v="Bretland"/>
    <tag k="name:it" v="Gran Bretagna"/>
    <tag k="name:ja" v="イギリス"/>
    <tag k="name:la" v="Britanniarum Regnum"/>
    <tag k="name:lb" v="Groussbritannien an Nordirland"/>
    <tag k="name:li" v="Vereineg Keuninkriek"/>
    <tag k="name:lt" v="Jungtinė Karalystė"/>
    <tag k="name:lv" v="Lielbritānija"/>
    <tag k="name:mn" v="Нэгдсэн Вант Улс"/>
    <tag k="name:nds" v="Vereenigd Königriek"/>
    <tag k="name:nl" v="Verenigd Koninkrijk"/>
    <tag k="name:no" v="Storbritania"/>
    <tag k="name:pl" v="Wielka Brytania"/>
    <tag k="name:pt" v="Reino Unido"/>
    <tag k="name:ru" v="Соединенное Королевство"/>
    <tag k="name:sk" v="Spojené kráľovstvo"/>
    <tag k="name:sl" v="Velika Britanija"/>
    <tag k="name:sv" v="Storbritannien"/>
    <tag k="name:th" v="สหราชอาณาจักร"/>
    <tag k="name:tr" v="Birleşik Krallık"/>
    <tag k="name:uk" v="Великобританія"/>
    <tag k="name:vi" v="Liên hiệp Vương quốc Anh và Bắc Ireland"/>
    <tag k="name:zh" v="英国"/>
    <tag k="name:zh_pinyin" v="Yingguo"/>
    <tag k="name:zh_pyt" v="Yīngguó"/>
    <tag k="official_name" v="United Kingdom of Great Britain and Northern Ireland"/>
    <tag k="official_name:be" v="Злучанае Каралеўства Вялікабрытаніі і Паўночнай Ірландыі"/>
    <tag k="official_name:br" v="Rouantelezh Unanet Breizh-Veur ha Norzhiwerzhon"/>
    <tag k="official_name:el" v="Ηνωμένο Βασίλειο της Μεγάλης Βρετανίας και της Βορείου Ιρλανδίας"/>
    <tag k="official_name:es" v="Reino Unido de Gran Bretaña"/>
    <tag k="official_name:et" v="Suurbritannia ja Põhja-Iiri Ühendkuningriik"/>
    <tag k="official_name:eu" v="Britania Handiko eta Ipar Irlandako Erresuma Batua"/>
    <tag k="official_name:fr" v="Royaume-Uni de Grande-Bretagne et d&apos;Irlande du Nord"/>
    <tag k="official_name:id" v="Perserikatan Kerajaan Britania Raya dan Irlandia Utara"/>
    <tag k="official_name:ja" v="グレートブリテン及び北アイルランド連合王国"/>
    <tag k="official_name:lb" v="Vereenegt Kinnekräich vu Groussbritannien an Nordirland"/>
    <tag k="official_name:lt" v="Jungtinė Didžiosios Britanijos ir Šiaurės Airijos Karalystė"/>
    <tag k="official_name:pl" v="Zjednoczone Królestwo Wielkiej Brytanii"/>
    <tag k="official_name:pt" v="Reino Unido da Grã-Bretanha e Irlanda do Norte"/>
    <tag k="official_name:ru" v="Соединенное Королевство Великобритании и Северной Ирландии"/>
    <tag k="official_name:sk" v="Spojené kráľovstvo Veľkej Británie a Severného Írska"/>
    <tag k="official_name:sl" v="Združeno kraljestvo Velike Britanije in Severne Irske"/>
    <tag k="official_name:sv" v="Förenade konungariket Storbritannien och Nordirland"/>
    <tag k="place" v="country"/>
    <tag k="population" v="60975000"/>
    <tag k="wikipedia" v="United Kingdom"/>
    <tag k="wikipedia:fr" v="Royaume-Uni"/>
  </node>
  <node id="241003027" version="59" timestamp="2009-12-07T21:53:43Z" uid="13721" user="wangchun" changeset="3320066" lat="54.8847483" lon="-2.4360105">
    <tag k="alt_name" v="United Kingdom; UK; Britain; Great Britain"/>
    <tag k="alt_name:cs" v="Velká Británie"/>
    <tag k="capital_city" v="London"/>
    <tag k="country_code_fips" v="UK"/>
    <tag k="country_code_iso3166_1_alpha_2" v="GB"/>
    <tag k="is_in:continent" v="Europe"/>
    <tag k="is_in:ocean" v="Atlantic"/>
    <tag k="name" v="United Kingdom"/>
    <tag k="name:af" v="Verenigde Koninkryk"/>
    <tag k="name:ar" v="المملكة المتحدة"/>
    <tag k="name:be" v="Вялікабрытанія"/>
    <tag k="name:br" v="Rouantelezh Unanet"/>
    <tag k="name:ca" v="Regne Unit"/>
    <tag k="name:cs" v="Spojené království"/>
    <tag k="name:cy" v="Y Deyrnas Unedig"/>
    <tag k="name:da" v="Storbritannien"/>
    <tag k="name:de" v="Vereinigtes Königreich"/>
    <tag k="name:el" v="Ηνωμένο Βασίλειο"/>
    <tag k="name:eo" v="Unuiĝinta Reĝlando"/>
    <tag k="name:es" v="Gran Bretaña"/>
    <tag k="name:et" v="Suurbritannia"/>
    <tag k="name:eu" v="Erresuma Batua"/>
    <tag k="name:fa" v="بریتانیا"/>
    <tag k="name:fi" v="Yhdistynyt kuningaskunta"/>
    <tag k="name:fr" v="Royaume-Uni"/>
    <tag k="name:fy" v="Grut-Brittanje"/>
    <tag k="name:ga" v="An Ríocht Aontaithe"/>
    <tag k="name:gd" v="An Rìoghachd Aonaichte"/>
    <tag k="name:gv" v="Reeriaght Unnaneysit"/>
    <tag k="name:he" v="בריטניה"/>
    <tag k="name:hr" v="Velika Britanija"/>
    <tag k="name:hu" v="Nagy-Britannia"/>
    <tag k="name:hy" v="Միացյալ Թագավորություն"/>
    <tag k="name:id" v="Britania Raya"/>
    <tag k="name:is" v="Bretland"/>
    <tag k="name:it" v="Gran Bretagna"/>
    <tag k="name:ja" v="イギリス"/>
    <tag k="name:la" v="Britanniarum Regnum"/>
    <tag k="name:lb" v="Groussbritannien an Nordirland"/>
    <tag k="name:li" v="Vereineg Keuninkriek"/>
    <tag k="name:lt" v="Jungtinė Karalystė"/>
    <tag k="name:lv" v="Lielbritānija"/>
    <tag k="name:mn" v="Нэгдсэн Вант Улс"/>
    <tag k="name:nds" v="Vereenigd Königriek"/>
    <tag k="name:nl" v="Verenigd Koninkrijk"/>
    <tag k="name:no" v="Storbritania"/>
    <tag k="name:pl" v="Wielka Brytania"/>
    <tag k="name:pt" v="Reino Unido"/>
    <tag k="name:ru" v="Соединенное Королевство"/>
    <tag k="name:sk" v="Spojené kráľovstvo"/>
    <tag k="name:sl" v="Velika Britanija"/>
    <tag k="name:sv" v="Storbritannien"/>
    <tag k="name:th" v="สหราชอาณาจักร"/>
    <tag k="name:tr" v="Birleşik Krallık"/>
    <tag k="name:uk" v="Великобританія"/>
    <tag k="name:vi" v="Liên hiệp Vương quốc Anh và Bắc Ireland"/>
    <tag k="name:zh" v="英国"/>
    <tag k="name:zh_pinyin" v="Yīngguó"/>
    <tag k="official_name" v="United Kingdom of Great Britain and Northern Ireland"/>
    <tag k="official_name:be" v="Злучанае Каралеўства Вялікабрытаніі і Паўночнай Ірландыі"/>
    <tag k="official_name:br" v="Rouantelezh Unanet Breizh-Veur ha Norzhiwerzhon"/>
    <tag k="official_name:el" v="Ηνωμένο Βασίλειο της Μεγάλης Βρετανίας και της Βορείου Ιρλανδίας"/>
    <tag k="official_name:es" v="Reino Unido de Gran Bretaña"/>
    <tag k="official_name:et" v="Suurbritannia ja Põhja-Iiri Ühendkuningriik"/>
    <tag k="official_name:eu" v="Britania Handiko eta Ipar Irlandako Erresuma Batua"/>
    <tag k="official_name:fr" v="Royaume-Uni de Grande-Bretagne et d&apos;Irlande du Nord"/>
    <tag k="official_name:id" v="Perserikatan Kerajaan Britania Raya dan Irlandia Utara"/>
    <tag k="official_name:ja" v="グレートブリテン及び北アイルランド連合王国"/>
    <tag k="official_name:lb" v="Vereenegt Kinnekräich vu Groussbritannien an Nordirland"/>
    <tag k="official_name:lt" v="Jungtinė Didžiosios Britanijos ir Šiaurės Airijos Karalystė"/>
    <tag k="official_name:pl" v="Zjednoczone Królestwo Wielkiej Brytanii"/>
    <tag k="official_name:pt" v="Reino Unido da Grã-Bretanha e Irlanda do Norte"/>
    <tag k="official_name:ru" v="Соединенное Королевство Великобритании и Северной Ирландии"/>
    <tag k="official_name:sk" v="Spojené kráľovstvo Veľkej Británie a Severného Írska"/>
    <tag k="official_name:sl" v="Združeno kraljestvo Velike Britanije in Severne Irske"/>
    <tag k="official_name:sv" v="Förenade konungariket Storbritannien och Nordirland"/>
    <tag k="place" v="country"/>
    <tag k="population" v="60975000"/>
    <tag k="wikipedia" v="United Kingdom"/>
    <tag k="wikipedia:fr" v="Royaume-Uni"/>
  </node>
  <node id="241003027" version="60" timestamp="2009-12-17T20:13:10Z" uid="2903" user="Higgy" changeset="3396488" lat="54.8847484" lon="-2.4360105">
    <tag k="alt_name" v="United Kingdom; UK; Britain; Great Britain"/>
    <tag k="alt_name:cs" v="Velká Británie"/>
    <tag k="capital_city" v="London"/>
    <tag k="country_code_fips" v="UK"/>
    <tag k="country_code_iso3166_1_alpha_2" v="GB"/>
    <tag k="idd_code" v="+44"/>
    <tag k="is_in:continent" v="Europe"/>
    <tag k="is_in:ocean" v="Atlantic"/>
    <tag k="name" v="United Kingdom"/>
    <tag k="name:af" v="Verenigde Koninkryk"/>
    <tag k="name:ar" v="المملكة المتحدة"/>
    <tag k="name:be" v="Вялікабрытанія"/>
    <tag k="name:br" v="Rouantelezh Unanet"/>
    <tag k="name:ca" v="Regne Unit"/>
    <tag k="name:cs" v="Spojené království"/>
    <tag k="name:cy" v="Y Deyrnas Unedig"/>
    <tag k="name:da" v="Storbritannien"/>
    <tag k="name:de" v="Vereinigtes Königreich"/>
    <tag k="name:el" v="Ηνωμένο Βασίλειο"/>
    <tag k="name:eo" v="Unuiĝinta Reĝlando"/>
    <tag k="name:es" v="Gran Bretaña"/>
    <tag k="name:et" v="Suurbritannia"/>
    <tag k="name:eu" v="Erresuma Batua"/>
    <tag k="name:fa" v="بریتانیا"/>
    <tag k="name:fi" v="Yhdistynyt kuningaskunta"/>
    <tag k="name:fr" v="Royaume-Uni"/>
    <tag k="name:fy" v="Grut-Brittanje"/>
    <tag k="name:ga" v="An Ríocht Aontaithe"/>
    <tag k="name:gd" v="An Rìoghachd Aonaichte"/>
    <tag k="name:gv" v="Reeriaght Unnaneysit"/>
    <tag k="name:he" v="בריטניה"/>
    <tag k="name:hr" v="Velika Britanija"/>
    <tag k="name:hu" v="Nagy-Britannia"/>
    <tag k="name:hy" v="Միացյալ Թագավորություն"/>
    <tag k="name:id" v="Britania Raya"/>
    <tag k="name:is" v="Bretland"/>
    <tag k="name:it" v="Gran Bretagna"/>
    <tag k="name:ja" v="イギリス"/>
    <tag k="name:la" v="Britanniarum Regnum"/>
    <tag k="name:lb" v="Groussbritannien an Nordirland"/>
    <tag k="name:li" v="Vereineg Keuninkriek"/>
    <tag k="name:lt" v="Jungtinė Karalystė"/>
    <tag k="name:lv" v="Lielbritānija"/>
    <tag k="name:mn" v="Нэгдсэн Вант Улс"/>
    <tag k="name:nds" v="Vereenigd Königriek"/>
    <tag k="name:nl" v="Verenigd Koninkrijk"/>
    <tag k="name:no" v="Storbritania"/>
    <tag k="name:pl" v="Wielka Brytania"/>
    <tag k="name:pt" v="Reino Unido"/>
    <tag k="name:ru" v="Соединенное Королевство"/>
    <tag k="name:sk" v="Spojené kráľovstvo"/>
    <tag k="name:sl" v="Velika Britanija"/>
    <tag k="name:sv" v="Storbritannien"/>
    <tag k="name:th" v="สหราชอาณาจักร"/>
    <tag k="name:tr" v="Birleşik Krallık"/>
    <tag k="name:uk" v="Великобританія"/>
    <tag k="name:vi" v="Liên hiệp Vương quốc Anh và Bắc Ireland"/>
    <tag k="name:zh" v="英国"/>
    <tag k="name:zh_pinyin" v="Yīngguó"/>
    <tag k="official_name" v="United Kingdom of Great Britain and Northern Ireland"/>
    <tag k="official_name:be" v="Злучанае Каралеўства Вялікабрытаніі і Паўночнай Ірландыі"/>
    <tag k="official_name:br" v="Rouantelezh Unanet Breizh-Veur ha Norzhiwerzhon"/>
    <tag k="official_name:el" v="Ηνωμένο Βασίλειο της Μεγάλης Βρετανίας και της Βορείου Ιρλανδίας"/>
    <tag k="official_name:es" v="Reino Unido de Gran Bretaña"/>
    <tag k="official_name:et" v="Suurbritannia ja Põhja-Iiri Ühendkuningriik"/>
    <tag k="official_name:eu" v="Britania Handiko eta Ipar Irlandako Erresuma Batua"/>
    <tag k="official_name:fr" v="Royaume-Uni de Grande-Bretagne et d&apos;Irlande du Nord"/>
    <tag k="official_name:id" v="Perserikatan Kerajaan Britania Raya dan Irlandia Utara"/>
    <tag k="official_name:ja" v="グレートブリテン及び北アイルランド連合王国"/>
    <tag k="official_name:lb" v="Vereenegt Kinnekräich vu Groussbritannien an Nordirland"/>
    <tag k="official_name:lt" v="Jungtinė Didžiosios Britanijos ir Šiaurės Airijos Karalystė"/>
    <tag k="official_name:pl" v="Zjednoczone Królestwo Wielkiej Brytanii"/>
    <tag k="official_name:pt" v="Reino Unido da Grã-Bretanha e Irlanda do Norte"/>
    <tag k="official_name:ru" v="Соединенное Королевство Великобритании и Северной Ирландии"/>
    <tag k="official_name:sk" v="Spojené kráľovstvo Veľkej Británie a Severného Írska"/>
    <tag k="official_name:sl" v="Združeno kraljestvo Velike Britanije in Severne Irske"/>
    <tag k="official_name:sv" v="Förenade konungariket Storbritannien och Nordirland"/>
    <tag k="place" v="country"/>
    <tag k="population" v="60975000"/>
    <tag k="tld" v=".uk"/>
    <tag k="wikipedia" v="United Kingdom"/>
    <tag k="wikipedia:fr" v="Royaume-Uni"/>
  </node>
  <node id="241003027" version="61" timestamp="2010-01-20T17:05:31Z" uid="200243" user="iPhonin" changeset="3668387" lat="54.8847484" lon="-2.4360105">
    <tag k="alt_name" v="United Kingdom; UK; Britain; Great Britain"/>
    <tag k="alt_name:cs" v="Velká Británie"/>
    <tag k="capital_city" v="London"/>
    <tag k="country_code_fips" v="UK"/>
    <tag k="country_code_iso3166_1_alpha_2" v="GB"/>
    <tag k="idd_code" v="+44"/>
    <tag k="is_in:continent" v="Europe"/>
    <tag k="is_in:ocean" v="Atlantic"/>
    <tag k="name" v="United Kingdom"/>
    <tag k="name:af" v="Verenigde Koninkryk"/>
    <tag k="name:ar" v="المملكة المتحدة"/>
    <tag k="name:be" v="Вялікабрытанія"/>
    <tag k="name:br" v="Rouantelezh Unanet"/>
    <tag k="name:ca" v="Regne Unit"/>
    <tag k="name:cs" v="Spojené království"/>
    <tag k="name:cy" v="Y Deyrnas Unedig"/>
    <tag k="name:da" v="Storbritannien"/>
    <tag k="name:de" v="Vereinigtes Königreich"/>
    <tag k="name:el" v="Ηνωμένο Βασίλειο"/>
    <tag k="name:eo" v="Unuiĝinta Reĝlando"/>
    <tag k="name:es" v="Gran Bretaña"/>
    <tag k="name:et" v="Suurbritannia"/>
    <tag k="name:eu" v="Erresuma Batua"/>
    <tag k="name:fa" v="بریتانیا"/>
    <tag k="name:fi" v="Yhdistynyt kuningaskunta"/>
    <tag k="name:fr" v="Royaume-Uni"/>
    <tag k="name:fy" v="Grut-Brittanje"/>
    <tag k="name:ga" v="An Ríocht Aontaithe"/>
    <tag k="name:gd" v="An Rìoghachd Aonaichte"/>
    <tag k="name:gv" v="Reeriaght Unnaneysit"/>
    <tag k="name:he" v="בריטניה"/>
    <tag k="name:hr" v="Velika Britanija"/>
    <tag k="name:hu" v="Nagy-Britannia"/>
    <tag k="name:hy" v="Միացյալ Թագավորություն"/>
    <tag k="name:id" v="Britania Raya"/>
    <tag k="name:is" v="Bretland"/>
    <tag k="name:it" v="Gran Bretagna"/>
    <tag k="name:ja" v="イギリス"/>
    <tag k="name:la" v="Britanniarum Regnum"/>
    <tag k="name:lb" v="Groussbritannien an Nordirland"/>
    <tag k="name:li" v="Vereineg Keuninkriek"/>
    <tag k="name:lt" v="Jungtinė Karalystė"/>
    <tag k="name:lv" v="Lielbritānija"/>
    <tag k="name:mn" v="Нэгдсэн Вант Улс"/>
    <tag k="name:nds" v="Vereenigd Königriek"/>
    <tag k="name:nl" v="Verenigd Koninkrijk"/>
    <tag k="name:no" v="Storbritania"/>
    <tag k="name:pl" v="Wielka Brytania"/>
    <tag k="name:pt" v="Reino Unido"/>
    <tag k="name:ru" v="Великобритания"/>
    <tag k="name:sk" v="Spojené kráľovstvo"/>
    <tag k="name:sl" v="Velika Britanija"/>
    <tag k="name:sv" v="Storbritannien"/>
    <tag k="name:th" v="สหราชอาณาจักร"/>
    <tag k="name:tr" v="Birleşik Krallık"/>
    <tag k="name:uk" v="Великобританія"/>
    <tag k="name:vi" v="Liên hiệp Vương quốc Anh và Bắc Ireland"/>
    <tag k="name:zh" v="英国"/>
    <tag k="name:zh_pinyin" v="Yīngguó"/>
    <tag k="official_name" v="United Kingdom of Great Britain and Northern Ireland"/>
    <tag k="official_name:be" v="Злучанае Каралеўства Вялікабрытаніі і Паўночнай Ірландыі"/>
    <tag k="official_name:br" v="Rouantelezh Unanet Breizh-Veur ha Norzhiwerzhon"/>
    <tag k="official_name:el" v="Ηνωμένο Βασίλειο της Μεγάλης Βρετανίας και της Βορείου Ιρλανδίας"/>
    <tag k="official_name:es" v="Reino Unido de Gran Bretaña"/>
    <tag k="official_name:et" v="Suurbritannia ja Põhja-Iiri Ühendkuningriik"/>
    <tag k="official_name:eu" v="Britania Handiko eta Ipar Irlandako Erresuma Batua"/>
    <tag k="official_name:fr" v="Royaume-Uni de Grande-Bretagne et d&apos;Irlande du Nord"/>
    <tag k="official_name:id" v="Perserikatan Kerajaan Britania Raya dan Irlandia Utara"/>
    <tag k="official_name:ja" v="グレートブリテン及び北アイルランド連合王国"/>
    <tag k="official_name:lb" v="Vereenegt Kinnekräich vu Groussbritannien an Nordirland"/>
    <tag k="official_name:lt" v="Jungtinė Didžiosios Britanijos ir Šiaurės Airijos Karalystė"/>
    <tag k="official_name:pl" v="Zjednoczone Królestwo Wielkiej Brytanii"/>
    <tag k="official_name:pt" v="Reino Unido da Grã-Bretanha e Irlanda do Norte"/>
    <tag k="official_name:ru" v="Соединенное Королевство Великобритании и Северной Ирландии"/>
    <tag k="official_name:sk" v="Spojené kráľovstvo Veľkej Británie a Severného Írska"/>
    <tag k="official_name:sl" v="Združeno kraljestvo Velike Britanije in Severne Irske"/>
    <tag k="official_name:sv" v="Förenade konungariket Storbritannien och Nordirland"/>
    <tag k="place" v="country"/>
    <tag k="population" v="60975000"/>
    <tag k="tld" v=".uk"/>
    <tag k="wikipedia" v="United Kingdom"/>
    <tag k="wikipedia:fr" v="Royaume-Uni"/>
  </node>
  <node id="241003027" version="62" timestamp="2010-03-29T02:24:55Z" uid="202868" user="Manchito" changeset="4263498" lat="54.8847484" lon="-2.4360105">
    <tag k="alt_name" v="United Kingdom; UK; Britain; Great Britain"/>
    <tag k="alt_name:cs" v="Velká Británie"/>
    <tag k="capital_city" v="London"/>
    <tag k="country_code_fips" v="UK"/>
    <tag k="country_code_iso3166_1_alpha_2" v="GB"/>
    <tag k="idd_code" v="+44"/>
    <tag k="is_in:continent" v="Europe"/>
    <tag k="is_in:ocean" v="Atlantic"/>
    <tag k="name" v="United Kingdom"/>
    <tag k="name:af" v="Verenigde Koninkryk"/>
    <tag k="name:ar" v="المملكة المتحدة"/>
    <tag k="name:be" v="Вялікабрытанія"/>
    <tag k="name:br" v="Rouantelezh Unanet"/>
    <tag k="name:ca" v="Regne Unit"/>
    <tag k="name:cs" v="Spojené království"/>
    <tag k="name:cy" v="Y Deyrnas Unedig"/>
    <tag k="name:da" v="Storbritannien"/>
    <tag k="name:de" v="Vereinigtes Königreich"/>
    <tag k="name:el" v="Ηνωμένο Βασίλειο"/>
    <tag k="name:eo" v="Unuiĝinta Reĝlando"/>
    <tag k="name:es" v="Reino Unido"/>
    <tag k="name:et" v="Suurbritannia"/>
    <tag k="name:eu" v="Erresuma Batua"/>
    <tag k="name:fa" v="بریتانیا"/>
    <tag k="name:fi" v="Yhdistynyt kuningaskunta"/>
    <tag k="name:fr" v="Royaume-Uni"/>
    <tag k="name:fy" v="Grut-Brittanje"/>
    <tag k="name:ga" v="An Ríocht Aontaithe"/>
    <tag k="name:gd" v="An Rìoghachd Aonaichte"/>
    <tag k="name:gv" v="Reeriaght Unnaneysit"/>
    <tag k="name:he" v="בריטניה"/>
    <tag k="name:hr" v="Velika Britanija"/>
    <tag k="name:hu" v="Nagy-Britannia"/>
    <tag k="name:hy" v="Միացյալ Թագավորություն"/>
    <tag k="name:id" v="Britania Raya"/>
    <tag k="name:is" v="Bretland"/>
    <tag k="name:it" v="Gran Bretagna"/>
    <tag k="name:ja" v="イギリス"/>
    <tag k="name:la" v="Britanniarum Regnum"/>
    <tag k="name:lb" v="Groussbritannien an Nordirland"/>
    <tag k="name:li" v="Vereineg Keuninkriek"/>
    <tag k="name:lt" v="Jungtinė Karalystė"/>
    <tag k="name:lv" v="Lielbritānija"/>
    <tag k="name:mn" v="Нэгдсэн Вант Улс"/>
    <tag k="name:nds" v="Vereenigd Königriek"/>
    <tag k="name:nl" v="Verenigd Koninkrijk"/>
    <tag k="name:no" v="Storbritania"/>
    <tag k="name:pl" v="Wielka Brytania"/>
    <tag k="name:pt" v="Reino Unido"/>
    <tag k="name:ru" v="Великобритания"/>
    <tag k="name:sk" v="Spojené kráľovstvo"/>
    <tag k="name:sl" v="Velika Britanija"/>
    <tag k="name:sv" v="Storbritannien"/>
    <tag k="name:th" v="สหราชอาณาจักร"/>
    <tag k="name:tr" v="Birleşik Krallık"/>
    <tag k="name:uk" v="Великобританія"/>
    <tag k="name:vi" v="Liên hiệp Vương quốc Anh và Bắc Ireland"/>
    <tag k="name:zh" v="英国"/>
    <tag k="name:zh_pinyin" v="Yīngguó"/>
    <tag k="official_name" v="United Kingdom of Great Britain and Northern Ireland"/>
    <tag k="official_name:be" v="Злучанае Каралеўства Вялікабрытаніі і Паўночнай Ірландыі"/>
    <tag k="official_name:br" v="Rouantelezh Unanet Breizh-Veur ha Norzhiwerzhon"/>
    <tag k="official_name:el" v="Ηνωμένο Βασίλειο της Μεγάλης Βρετανίας και της Βορείου Ιρλανδίας"/>
    <tag k="official_name:es" v="Reino Unido de Gran Bretaña e Irlanda del Norte"/>
    <tag k="official_name:et" v="Suurbritannia ja Põhja-Iiri Ühendkuningriik"/>
    <tag k="official_name:eu" v="Britania Handiko eta Ipar Irlandako Erresuma Batua"/>
    <tag k="official_name:fr" v="Royaume-Uni de Grande-Bretagne et d&apos;Irlande du Nord"/>
    <tag k="official_name:id" v="Perserikatan Kerajaan Britania Raya dan Irlandia Utara"/>
    <tag k="official_name:ja" v="グレートブリテン及び北アイルランド連合王国"/>
    <tag k="official_name:lb" v="Vereenegt Kinnekräich vu Groussbritannien an Nordirland"/>
    <tag k="official_name:lt" v="Jungtinė Didžiosios Britanijos ir Šiaurės Airijos Karalystė"/>
    <tag k="official_name:pl" v="Zjednoczone Królestwo Wielkiej Brytanii"/>
    <tag k="official_name:pt" v="Reino Unido da Grã-Bretanha e Irlanda do Norte"/>
    <tag k="official_name:ru" v="Соединенное Королевство Великобритании и Северной Ирландии"/>
    <tag k="official_name:sk" v="Spojené kráľovstvo Veľkej Británie a Severného Írska"/>
    <tag k="official_name:sl" v="Združeno kraljestvo Velike Britanije in Severne Irske"/>
    <tag k="official_name:sv" v="Förenade konungariket Storbritannien och Nordirland"/>
    <tag k="place" v="country"/>
    <tag k="population" v="60975000"/>
    <tag k="tld" v=".uk"/>
    <tag k="wikipedia" v="United Kingdom"/>
    <tag k="wikipedia:fr" v="Royaume-Uni"/>
  </node>
  <node id="241003027" version="63" timestamp="2010-06-21T10:02:07Z" uid="27647" user="Asztalos Attila Oszkár" changeset="5041114" lat="54.8847485" lon="-2.4360106">
    <tag k="alt_name" v="United Kingdom; UK; Britain; Great Britain"/>
    <tag k="alt_name:cs" v="Velká Británie"/>
    <tag k="capital_city" v="London"/>
    <tag k="country_code_fips" v="UK"/>
    <tag k="country_code_iso3166_1_alpha_2" v="GB"/>
    <tag k="idd_code" v="+44"/>
    <tag k="is_in:continent" v="Europe"/>
    <tag k="is_in:ocean" v="Atlantic"/>
    <tag k="name" v="United Kingdom"/>
    <tag k="name:af" v="Verenigde Koninkryk"/>
    <tag k="name:ar" v="المملكة المتحدة"/>
    <tag k="name:be" v="Вялікабрытанія"/>
    <tag k="name:br" v="Rouantelezh Unanet"/>
    <tag k="name:ca" v="Regne Unit"/>
    <tag k="name:cs" v="Spojené království"/>
    <tag k="name:cy" v="Y Deyrnas Unedig"/>
    <tag k="name:da" v="Storbritannien"/>
    <tag k="name:de" v="Vereinigtes Königreich"/>
    <tag k="name:el" v="Ηνωμένο Βασίλειο"/>
    <tag k="name:eo" v="Unuiĝinta Reĝlando"/>
    <tag k="name:es" v="Reino Unido"/>
    <tag k="name:et" v="Suurbritannia"/>
    <tag k="name:eu" v="Erresuma Batua"/>
    <tag k="name:fa" v="بریتانیا"/>
    <tag k="name:fi" v="Yhdistynyt kuningaskunta"/>
    <tag k="name:fr" v="Royaume-Uni"/>
    <tag k="name:fy" v="Grut-Brittanje"/>
    <tag k="name:ga" v="An Ríocht Aontaithe"/>
    <tag k="name:gd" v="An Rìoghachd Aonaichte"/>
    <tag k="name:gv" v="Reeriaght Unnaneysit"/>
    <tag k="name:he" v="בריטניה"/>
    <tag k="name:hr" v="Velika Britanija"/>
    <tag k="name:hu" v="Nagy-Britannia"/>
    <tag k="name:hy" v="Միացյալ Թագավորություն"/>
    <tag k="name:id" v="Britania Raya"/>
    <tag k="name:is" v="Bretland"/>
    <tag k="name:it" v="Gran Bretagna"/>
    <tag k="name:ja" v="イギリス"/>
    <tag k="name:la" v="Britanniarum Regnum"/>
    <tag k="name:lb" v="Groussbritannien an Nordirland"/>
    <tag k="name:li" v="Vereineg Keuninkriek"/>
    <tag k="name:lt" v="Jungtinė Karalystė"/>
    <tag k="name:lv" v="Lielbritānija"/>
    <tag k="name:mn" v="Нэгдсэн Вант Улс"/>
    <tag k="name:nds" v="Vereenigd Königriek"/>
    <tag k="name:nl" v="Verenigd Koninkrijk"/>
    <tag k="name:no" v="Storbritania"/>
    <tag k="name:pl" v="Wielka Brytania"/>
    <tag k="name:pt" v="Reino Unido"/>
    <tag k="name:ro" v="Marea Britanie"/>
    <tag k="name:ru" v="Великобритания"/>
    <tag k="name:sk" v="Spojené kráľovstvo"/>
    <tag k="name:sl" v="Velika Britanija"/>
    <tag k="name:sv" v="Storbritannien"/>
    <tag k="name:th" v="สหราชอาณาจักร"/>
    <tag k="name:tr" v="Birleşik Krallık"/>
    <tag k="name:uk" v="Великобританія"/>
    <tag k="name:vi" v="Liên hiệp Vương quốc Anh và Bắc Ireland"/>
    <tag k="name:zh" v="英国"/>
    <tag k="name:zh_pinyin" v="Yīngguó"/>
    <tag k="official_name" v="United Kingdom of Great Britain and Northern Ireland"/>
    <tag k="official_name:be" v="Злучанае Каралеўства Вялікабрытаніі і Паўночнай Ірландыі"/>
    <tag k="official_name:br" v="Rouantelezh Unanet Breizh-Veur ha Norzhiwerzhon"/>
    <tag k="official_name:el" v="Ηνωμένο Βασίλειο της Μεγάλης Βρετανίας και της Βορείου Ιρλανδίας"/>
    <tag k="official_name:es" v="Reino Unido de Gran Bretaña e Irlanda del Norte"/>
    <tag k="official_name:et" v="Suurbritannia ja Põhja-Iiri Ühendkuningriik"/>
    <tag k="official_name:eu" v="Britania Handiko eta Ipar Irlandako Erresuma Batua"/>
    <tag k="official_name:fr" v="Royaume-Uni de Grande-Bretagne et d&apos;Irlande du Nord"/>
    <tag k="official_name:id" v="Perserikatan Kerajaan Britania Raya dan Irlandia Utara"/>
    <tag k="official_name:ja" v="グレートブリテン及び北アイルランド連合王国"/>
    <tag k="official_name:lb" v="Vereenegt Kinnekräich vu Groussbritannien an Nordirland"/>
    <tag k="official_name:lt" v="Jungtinė Didžiosios Britanijos ir Šiaurės Airijos Karalystė"/>
    <tag k="official_name:pl" v="Zjednoczone Królestwo Wielkiej Brytanii"/>
    <tag k="official_name:pt" v="Reino Unido da Grã-Bretanha e Irlanda do Norte"/>
    <tag k="official_name:ro" v="Regatul Unit al Marii Britanii şi al Irlandei de Nord"/>
    <tag k="official_name:ru" v="Соединенное Королевство Великобритании и Северной Ирландии"/>
    <tag k="official_name:sk" v="Spojené kráľovstvo Veľkej Británie a Severného Írska"/>
    <tag k="official_name:sl" v="Združeno kraljestvo Velike Britanije in Severne Irske"/>
    <tag k="official_name:sv" v="Förenade konungariket Storbritannien och Nordirland"/>
    <tag k="place" v="country"/>
    <tag k="population" v="60975000"/>
    <tag k="tld" v=".uk"/>
    <tag k="wikipedia" v="United Kingdom"/>
    <tag k="wikipedia:fr" v="Royaume-Uni"/>
  </node>
  <node id="241003027" version="64" timestamp="2010-06-21T22:48:12Z" uid="210115" user="v-na-more" changeset="5047385" lat="54.8847485" lon="-2.4360106">
    <tag k="alt_name" v="United Kingdom; UK; Britain; Great Britain"/>
    <tag k="alt_name:cs" v="Velká Británie"/>
    <tag k="capital_city" v="London"/>
    <tag k="country_code_fips" v="UK"/>
    <tag k="country_code_iso3166_1_alpha_2" v="GB"/>
    <tag k="idd_code" v="+44"/>
    <tag k="is_in:continent" v="Europe"/>
    <tag k="is_in:ocean" v="Atlantic"/>
    <tag k="name" v="United Kingdom"/>
    <tag k="name:af" v="Verenigde Koninkryk"/>
    <tag k="name:ar" v="المملكة المتحدة"/>
    <tag k="name:be" v="Вялікабрытанія"/>
    <tag k="name:br" v="Rouantelezh Unanet"/>
    <tag k="name:ca" v="Regne Unit"/>
    <tag k="name:cs" v="Spojené království"/>
    <tag k="name:cy" v="Y Deyrnas Unedig"/>
    <tag k="name:da" v="Storbritannien"/>
    <tag k="name:de" v="Vereinigtes Königreich"/>
    <tag k="name:el" v="Ηνωμένο Βασίλειο"/>
    <tag k="name:eo" v="Unuiĝinta Reĝlando"/>
    <tag k="name:es" v="Reino Unido"/>
    <tag k="name:et" v="Suurbritannia"/>
    <tag k="name:eu" v="Erresuma Batua"/>
    <tag k="name:fa" v="بریتانیا"/>
    <tag k="name:fi" v="Yhdistynyt kuningaskunta"/>
    <tag k="name:fr" v="Royaume-Uni"/>
    <tag k="name:fy" v="Grut-Brittanje"/>
    <tag k="name:ga" v="An Ríocht Aontaithe"/>
    <tag k="name:gd" v="An Rìoghachd Aonaichte"/>
    <tag k="name:gv" v="Reeriaght Unnaneysit"/>
    <tag k="name:he" v="בריטניה"/>
    <tag k="name:hr" v="Velika Britanija"/>
    <tag k="name:hu" v="Nagy-Britannia"/>
    <tag k="name:hy" v="Միացյալ Թագավորություն"/>
    <tag k="name:id" v="Britania Raya"/>
    <tag k="name:is" v="Bretland"/>
    <tag k="name:it" v="Gran Bretagna"/>
    <tag k="name:ja" v="イギリス"/>
    <tag k="name:la" v="Britanniarum Regnum"/>
    <tag k="name:lb" v="Groussbritannien an Nordirland"/>
    <tag k="name:li" v="Vereineg Keuninkriek"/>
    <tag k="name:lt" v="Jungtinė Karalystė"/>
    <tag k="name:lv" v="Lielbritānija"/>
    <tag k="name:mn" v="Нэгдсэн Вант Улс"/>
    <tag k="name:nds" v="Vereenigd Königriek"/>
    <tag k="name:nl" v="Verenigd Koninkrijk"/>
    <tag k="name:no" v="Storbritania"/>
    <tag k="name:pl" v="Wielka Brytania"/>
    <tag k="name:pt" v="Reino Unido"/>
    <tag k="name:ro" v="Marea Britanie"/>
    <tag k="name:ru" v="Великобритания"/>
    <tag k="name:sk" v="Spojené kráľovstvo"/>
    <tag k="name:sl" v="Velika Britanija"/>
    <tag k="name:sv" v="Storbritannien"/>
    <tag k="name:th" v="สหราชอาณาจักร"/>
    <tag k="name:tr" v="Birleşik Krallık"/>
    <tag k="name:uk" v="Великобританія"/>
    <tag k="name:vi" v="Liên hiệp Vương quốc Anh và Bắc Ireland"/>
    <tag k="name:zh" v="英国"/>
    <tag k="name:zh_pinyin" v="Yīngguó"/>
    <tag k="official_name" v="United Kingdom of Great Britain and Northern Ireland"/>
    <tag k="official_name:be" v="Злучанае Каралеўства Вялікабрытаніі і Паўночнай Ірландыі"/>
    <tag k="official_name:br" v="Rouantelezh Unanet Breizh-Veur ha Norzhiwerzhon"/>
    <tag k="official_name:el" v="Ηνωμένο Βασίλειο της Μεγάλης Βρετανίας και της Βορείου Ιρλανδίας"/>
    <tag k="official_name:es" v="Reino Unido de Gran Bretaña e Irlanda del Norte"/>
    <tag k="official_name:et" v="Suurbritannia ja Põhja-Iiri Ühendkuningriik"/>
    <tag k="official_name:eu" v="Britania Handiko eta Ipar Irlandako Erresuma Batua"/>
    <tag k="official_name:fr" v="Royaume-Uni de Grande-Bretagne et d&apos;Irlande du Nord"/>
    <tag k="official_name:id" v="Perserikatan Kerajaan Britania Raya dan Irlandia Utara"/>
    <tag k="official_name:ja" v="グレートブリテン及び北アイルランド連合王国"/>
    <tag k="official_name:lb" v="Vereenegt Kinnekräich vu Groussbritannien an Nordirland"/>
    <tag k="official_name:lt" v="Jungtinė Didžiosios Britanijos ir Šiaurės Airijos Karalystė"/>
    <tag k="official_name:pl" v="Zjednoczone Królestwo Wielkiej Brytanii"/>
    <tag k="official_name:pt" v="Reino Unido da Grã-Bretanha e Irlanda do Norte"/>
    <tag k="official_name:ro" v="Regatul Unit al Marii Britanii şi al Irlandei de Nord"/>
    <tag k="official_name:ru" v="Соединенное Королевство Великобритании и Северной Ирландии"/>
    <tag k="official_name:sk" v="Spojené kráľovstvo Veľkej Británie a Severného Írska"/>
    <tag k="official_name:sl" v="Združeno kraljestvo Velike Britanije in Severne Irske"/>
    <tag k="official_name:sv" v="Förenade konungariket Storbritannien och Nordirland"/>
    <tag k="place" v="country"/>
    <tag k="population" v="60975000"/>
    <tag k="tld" v=".uk"/>
    <tag k="wikipedia" v="United Kingdom"/>
    <tag k="wikipedia:fr" v="Royaume-Uni"/>
  </node>
  <node id="241006144" version="3" timestamp="2009-06-25T14:26:13Z" uid="17602" user="B10xyz" changeset="1623556" lat="45.4769537" lon="12.2183504"/>
  <node id="241006144" version="4" timestamp="2010-01-16T07:42:23Z" uid="97928" user="Al3xius" changeset="3629547" lat="45.476957" lon="12.2183528"/>
  <node id="241006144" version="5" timestamp="2010-12-12T01:21:57Z" uid="54666" user="Bigshot" changeset="6631703" lat="45.476957" lon="12.2183528"/>
</osm>
