<?xml version='1.0' encoding='UTF-8'?>
<osm version="0.6" generator="libosmium/2.20.0">
  <node id="242971975" version="2" timestamp="2008-07-03T15:12:29Z" uid="6975" user="ulfl" changeset="378199" lat="-26.1283026" lon="27.9713188">
    <tag k="amenity" v="restaurant"/>
    <tag k="name" v="Jimmys Killer Prawns"/>
  </node>
  <node id="242978956" version="3" timestamp="2010-09-16T14:01:57Z" uid="115477" user="wowik" changeset="5795582" lat="54.85619" lon="29.1631199">
    <tag k="name" v="Чашники"/>
    <tag k="place" v="town"/>
  </node>
  <node id="242978956" version="4" timestamp="2010-09-16T15:59:46Z" uid="115477" user="wowik" changeset="5795582" lat="54.8568542" lon="29.1628229">
    <tag k="name" v="Чашники"/>
    <tag k="place" v="town"/>
  </node>
  <node id="242978956" version="5" timestamp="2011-06-28T09:46:29Z" uid="29320" user="Komяpa" changeset="8569857" lat="54.8568542" lon="29.1628229">
    <tag k="int_name" v="Čašniki"/>
    <tag k="name" v="Чашники"/>
    <tag k="name:be" v="Чашнікі"/>
    <tag k="name:en" v="Chashniki"/>
    <tag k="name:ru" v="Чашники"/>
    <tag k="place" v="town"/>
  </node>
  <node id="242978956" version="6" timestamp="2011-07-19T20:09:04Z" uid="274913" user="okj" changeset="8772351" lat="54.8568542" lon="29.1628229">
    <tag k="int_name" v="Čašniki"/>
    <tag k="name" v="Чашники"/>
    <tag k="name:be" v="Чашнікі"/>
    <tag k="name:en" v="Chashniki"/>
    <tag k="name:ru" v="Чашники"/>
    <tag k="place" v="town"/>
    <tag k="population" v="9203"/>
  </node>
  <node id="242978956" version="7" timestamp="2011-10-23T18:14:37Z" uid="86479" user="osm-belarus" changeset="9636394" lat="54.8568542" lon="29.1628229">
    <tag k="addr:country" v="BY"/>
    <tag k="addr:district" v="Чашникский район"/>
    <tag k="addr:region" v="Витебская область"/>
    <tag k="int_name" v="Čašniki"/>
    <tag k="name" v="Чашники"/>
    <tag k="name:be" v="Чашнікі"/>
    <tag k="name:en" v="Chashniki"/>
    <tag k="name:ru" v="Чашники"/>
    <tag k="place" v="town"/>
    <tag k="population" v="9203"/>
  </node>
</osm>
