<?xml version='1.0' encoding='UTF-8'?>
<osm version="0.6" generator="libosmium/2.20.0">
  <node id="243840299" version="22" timestamp="2010-02-15T15:59:43Z" uid="23543" user="jkjk" changeset="3884276" lat="-25.9028231" lon="32.6199718"/>
  <node id="243840301" version="18" timestamp="2010-02-15T15:59:43Z" uid="23543" user="jkjk" changeset="3884276" lat="-25.8902247" lon="32.6252755"/>
  <node id="243840306" version="18" timestamp="2010-02-15T15:59:43Z" uid="23543" user="jkjk" changeset="3884276" lat="-25.8102788" lon="32.6497758"/>
  <node id="243840386" version="18" timestamp="2010-02-15T15:59:43Z" uid="23543" user="jkjk" changeset="3884276" lat="-25.9114825" lon="32.6161049"/>
  <node id="243842137" version="5" timestamp="2008-07-05T19:52:27Z" uid="6975" user="ulfl" changeset="398437" lat="36.141265" lon="-5.3480556">
    <tag k="is_in:continent" v="Europe"/>
    <tag k="name" v="Gibraltar"/>
    <tag k="place" v="country"/>
  </node>
  <node id="243842137" version="6" timestamp="2008-11-07T09:13:14Z" uid="308" user="MichaelCollinson" changeset="705703" lat="36.141265" lon="-5.3480556">
    <tag k="capital_city" v="Gibraltar"/>
    <tag k="country_code" v="GI"/>
    <tag k="country_code_fips" v="GI"/>
    <tag k="country_code_iso3166_1_alpha_2" v="GI"/>
    <tag k="description" v="British overseas territory"/>
    <tag k="is_in:continent" v="Europe"/>
    <tag k="is_in:country" v="UK"/>
    <tag k="name" v="Gibraltar"/>
    <tag k="name:ar" v="Jabal Tāriq (جبل طارق)"/>
    <tag k="old_name" v="Mons Calpe"/>
    <tag k="place" v="country"/>
    <tag k="population" v="28875"/>
    <tag k="wikipedia" v="Gibralter"/>
  </node>
  <node id="243842137" version="7" timestamp="2008-12-04T18:27:49Z" uid="5553" user="dkt" changeset="106882" lat="36.141265" lon="-5.3480556">
    <tag k="capital_city" v="Gibraltar"/>
    <tag k="country_code" v="GI"/>
    <tag k="country_code_fips" v="GI"/>
    <tag k="country_code_iso3166_1_alpha_2" v="GI"/>
    <tag k="description" v="British overseas territory"/>
    <tag k="is_in:continent" v="Europe"/>
    <tag k="is_in:country" v="UK"/>
    <tag k="name" v="Gibraltar"/>
    <tag k="name:ar" v="Jabal Tāriq (جبل طارق)"/>
    <tag k="name:zh" v="直布罗陀"/>
    <tag k="name:zh_py" v="Zhibuluotuo"/>
    <tag k="name:zh_pyt" v="Zhíbùluótuó"/>
    <tag k="old_name" v="Mons Calpe"/>
    <tag k="place" v="country"/>
    <tag k="population" v="28875"/>
    <tag k="wikipedia" v="Gibralter"/>
  </node>
  <node id="243842137" version="8" timestamp="2009-01-15T20:24:49Z" uid="38239" user="Daeron" changeset="791483" lat="36.141265" lon="-5.3480556">
    <tag k="capital_city" v="Gibraltar"/>
    <tag k="country_code" v="GI"/>
    <tag k="country_code_fips" v="GI"/>
    <tag k="country_code_iso3166_1_alpha_2" v="GI"/>
    <tag k="description" v="British overseas territory"/>
    <tag k="is_in:continent" v="Europe"/>
    <tag k="is_in:country" v="UK"/>
    <tag k="name" v="Gibraltar"/>
    <tag k="name:ar" v="Jabal Tāriq (جبل طارق)"/>
    <tag k="name:fi" v="Gibraltar"/>
    <tag k="name:zh" v="直布罗陀"/>
    <tag k="name:zh_py" v="Zhibuluotuo"/>
    <tag k="name:zh_pyt" v="Zhíbùluótuó"/>
    <tag k="old_name" v="Mons Calpe"/>
    <tag k="place" v="country"/>
    <tag k="population" v="28875"/>
    <tag k="wikipedia" v="Gibralter"/>
  </node>
  <node id="243842137" version="9" timestamp="2009-02-01T19:12:53Z" uid="7321" user="rollercow" changeset="27890" lat="36.141265" lon="-5.3480556">
    <tag k="capital_city" v="Gibraltar"/>
    <tag k="country_code" v="GI"/>
    <tag k="country_code_fips" v="GI"/>
    <tag k="country_code_iso3166_1_alpha_2" v="GI"/>
    <tag k="created_by" v="pyOSM"/>
    <tag k="description" v="British overseas territory"/>
    <tag k="is_in:continent" v="Europe"/>
    <tag k="is_in:country" v="UK"/>
    <tag k="name" v="Gibraltar"/>
    <tag k="name:ar" v="Jabal Tāriq (جبل طارق)"/>
    <tag k="name:fi" v="Gibraltar"/>
    <tag k="name:zh" v="直布罗陀"/>
    <tag k="name:zh_py" v="Zhibuluotuo"/>
    <tag k="name:zh_pyt" v="Zhíbùluótuó"/>
    <tag k="old_name" v="Mons Calpe"/>
    <tag k="place" v="country"/>
    <tag k="population" v="28875"/>
  </node>
  <node id="243842137" version="10" timestamp="2009-02-07T17:34:13Z" uid="97524" user="Zaŝa" changeset="229567" lat="36.141265" lon="-5.3480556">
    <tag k="capital_city" v="Gibraltar"/>
    <tag k="country_code" v="GI"/>
    <tag k="country_code_fips" v="GI"/>
    <tag k="country_code_iso3166_1_alpha_2" v="GI"/>
    <tag k="description" v="British overseas territory"/>
    <tag k="is_in:continent" v="Europe"/>
    <tag k="is_in:country" v="UK"/>
    <tag k="name" v="Gibraltar"/>
    <tag k="name:ar" v="Jabal Tāriq (جبل طارق)"/>
    <tag k="name:de" v="Gibraltar"/>
    <tag k="name:eo" v="Ĝibraltaro"/>
    <tag k="name:fi" v="Gibraltar"/>
    <tag k="name:zh" v="直布罗陀"/>
    <tag k="name:zh_py" v="Zhibuluotuo"/>
    <tag k="name:zh_pyt" v="Zhíbùluótuó"/>
    <tag k="old_name" v="Mons Calpe"/>
    <tag k="place" v="country"/>
    <tag k="population" v="28875"/>
  </node>
  <node id="243842137" version="11" timestamp="2009-02-22T01:31:55Z" uid="100178" user="gtr" changeset="610816" lat="36.141265" lon="-5.3480556">
    <tag k="capital_city" v="Gibraltar"/>
    <tag k="country_code" v="GI"/>
    <tag k="country_code_fips" v="GI"/>
    <tag k="country_code_iso3166_1_alpha_2" v="GI"/>
    <tag k="description" v="British overseas territory"/>
    <tag k="is_in:continent" v="Europe"/>
    <tag k="is_in:country" v="UK"/>
    <tag k="name" v="Gibraltar"/>
    <tag k="name:ar" v="Jabal Tāriq (جبل طارق)"/>
    <tag k="name:de" v="Gibraltar"/>
    <tag k="name:eo" v="Ĝibraltaro"/>
    <tag k="name:fi" v="Gibraltar"/>
    <tag k="name:hu" v="Gibraltár"/>
    <tag k="name:zh" v="直布罗陀"/>
    <tag k="name:zh_py" v="Zhibuluotuo"/>
    <tag k="name:zh_pyt" v="Zhíbùluótuó"/>
    <tag k="old_name" v="Mons Calpe"/>
    <tag k="place" v="country"/>
    <tag k="population" v="28875"/>
  </node>
  <node id="243842137" version="12" timestamp="2009-03-11T16:12:35Z" uid="9010" user="rasher" changeset="788019" lat="36.141265" lon="-5.3480556">
    <tag k="capital_city" v="Gibraltar"/>
    <tag k="country_code" v="GI"/>
    <tag k="country_code_fips" v="GI"/>
    <tag k="country_code_iso3166_1_alpha_2" v="GI"/>
    <tag k="description" v="British overseas territory"/>
    <tag k="is_in:continent" v="Europe"/>
    <tag k="is_in:country" v="UK"/>
    <tag k="name" v="Gibraltar"/>
    <tag k="name:ar" v="Jabal Tāriq (جبل طارق)"/>
    <tag k="name:da" v="Gibraltar"/>
    <tag k="name:de" v="Gibraltar"/>
    <tag k="name:eo" v="Ĝibraltaro"/>
    <tag k="name:fi" v="Gibraltar"/>
    <tag k="name:hu" v="Gibraltár"/>
    <tag k="name:zh" v="直布罗陀"/>
    <tag k="name:zh_py" v="Zhibuluotuo"/>
    <tag k="name:zh_pyt" v="Zhíbùluótuó"/>
    <tag k="old_name" v="Mons Calpe"/>
    <tag k="place" v="country"/>
    <tag k="population" v="28875"/>
  </node>
  <node id="243842137" version="13" timestamp="2009-06-18T20:03:23Z" uid="37109" user="Baruch" changeset="1558224" lat="36.141265" lon="-5.3480556">
    <tag k="capital_city" v="Gibraltar"/>
    <tag k="country_code" v="GI"/>
    <tag k="country_code_fips" v="GI"/>
    <tag k="country_code_iso3166_1_alpha_2" v="GI"/>
    <tag k="description" v="British overseas territory"/>
    <tag k="is_in:continent" v="Europe"/>
    <tag k="is_in:country" v="UK"/>
    <tag k="name" v="Gibraltar"/>
    <tag k="name:ar" v="Jabal Tāriq (جبل طارق)"/>
    <tag k="name:da" v="Gibraltar"/>
    <tag k="name:de" v="Gibraltar"/>
    <tag k="name:eo" v="Ĝibraltaro"/>
    <tag k="name:fi" v="Gibraltar"/>
    <tag k="name:he" v="גיברלטר"/>
    <tag k="name:hu" v="Gibraltár"/>
    <tag k="name:zh" v="直布罗陀"/>
    <tag k="name:zh_py" v="Zhibuluotuo"/>
    <tag k="name:zh_pyt" v="Zhíbùluótuó"/>
    <tag k="old_name" v="Mons Calpe"/>
    <tag k="place" v="country"/>
    <tag k="population" v="28875"/>
  </node>
  <node id="243842137" version="14" timestamp="2009-07-21T22:46:48Z" uid="5265" user="ivansanchez" changeset="1900110" lat="36.141265" lon="-5.3480556">
    <tag k="capital_city" v="Gibraltar"/>
    <tag k="country_code" v="GI"/>
    <tag k="country_code_fips" v="GI"/>
    <tag k="country_code_iso3166_1_alpha_2" v="GI"/>
    <tag k="description" v="British overseas territory"/>
    <tag k="is_in:continent" v="Europe"/>
    <tag k="is_in:country" v="UK"/>
    <tag k="name" v="Gibraltar"/>
    <tag k="name:ar" v="Jabal Tāriq (جبل طارق)"/>
    <tag k="name:da" v="Gibraltar"/>
    <tag k="name:de" v="Gibraltar"/>
    <tag k="name:eo" v="Ĝibraltaro"/>
    <tag k="name:fi" v="Gibraltar"/>
    <tag k="name:he" v="גיברלטר"/>
    <tag k="name:hu" v="Gibraltár"/>
    <tag k="name:zh" v="直布罗陀"/>
    <tag k="name:zh_py" v="Zhibuluotuo"/>
    <tag k="name:zh_pyt" v="Zhíbùluótuó"/>
    <tag k="old_name" v="Mons Calpe"/>
    <tag k="place" v="country"/>
    <tag k="population" v="28875"/>
  </node>
  <node id="243846199" version="3" timestamp="2008-02-25T19:53:31Z" uid="6975" user="ulfl" changeset="208586" lat="49.3953644" lon="11.0848264"/>
  <node id="243846378" version="2" timestamp="2008-02-25T19:53:31Z" uid="6975" user="ulfl" changeset="208586" lat="49.3943477" lon="11.0837964"/>
</osm>
