<?xml version='1.0' encoding='UTF-8'?>
<osm version="0.6" generator="libosmium/2.20.0">
  <node id="245285278" version="2" timestamp="2008-12-17T11:50:45Z" uid="7617" user="Franc" changeset="440106" lat="-33.8025021" lon="151.292862">
    <tag k="created_by" v="JOSM"/>
  </node>
  <node id="245285278" version="3" timestamp="2012-03-05T23:57:31Z" uid="7523" user="inas" changeset="10885923" lat="-33.8025021" lon="151.292862"/>
  <node id="245286029" version="3" timestamp="2009-08-30T07:56:07Z" uid="61114" user="Trav" changeset="2309931" lat="-33.7954663" lon="151.2559624">
    <tag k="amenity" v="fuel"/>
    <tag k="operator" v="BP"/>
  </node>
  <node id="245286029" version="4" timestamp="2009-09-16T10:57:18Z" uid="75655" user="DrBen" changeset="2501203" lat="-33.7954635" lon="151.255954">
    <tag k="amenity" v="fuel"/>
    <tag k="name" v="BP"/>
    <tag k="operator" v="BP"/>
  </node>
  <node id="245286029" version="5" timestamp="2009-09-16T11:01:36Z" uid="75655" user="DrBen" changeset="2501203" lat="-33.7954635" lon="151.255954">
    <tag k="amenity" v="fuel"/>
    <tag k="fuel:octane_91" v="yes"/>
    <tag k="fuel:octane_95" v="yes"/>
    <tag k="fuel:octane_98" v="yes"/>
    <tag k="name" v="BP Connect"/>
    <tag k="operator" v="BP"/>
    <tag k="shop" v="kiosk"/>
  </node>
  <node id="245286029" version="6" timestamp="2009-12-21T01:23:33Z" uid="75655" user="DrBen" changeset="3418081" lat="-33.7954635" lon="151.255954">
    <tag k="amenity" v="fuel"/>
    <tag k="fuel:octane_91" v="yes"/>
    <tag k="fuel:octane_95" v="yes"/>
    <tag k="fuel:octane_98" v="yes"/>
    <tag k="name" v="BP Connect"/>
    <tag k="operator" v="BP"/>
    <tag k="shop" v="kiosk"/>
  </node>
  <node id="245286040" version="2" timestamp="2010-03-31T06:31:39Z" uid="74617" user="JohnSmith" changeset="4282753" lat="-33.8230477" lon="151.2435375">
    <tag k="amenity" v="fuel"/>
  </node>
  <node id="245286040" version="3" timestamp="2011-02-19T11:46:42Z" uid="28794" user="csdf" changeset="7330902" lat="-33.8230477" lon="151.2435375">
    <tag k="amenity" v="fuel"/>
    <tag k="operator" v="7-Eleven"/>
  </node>
  <node id="245286049" version="2" timestamp="2008-05-31T08:59:04Z" uid="7617" user="Franc" changeset="561674" lat="-33.8305363" lon="151.226292">
    <tag k="amenity" v="fuel"/>
    <tag k="created_by" v="JOSM"/>
    <tag k="name" v="Shell, Coles Express"/>
  </node>
  <node id="245286049" version="3" timestamp="2009-11-12T01:22:03Z" uid="4467" user="Rosscoe" changeset="3095098" lat="-33.8305363" lon="151.226292">
    <tag k="amenity" v="fuel"/>
    <tag k="name" v="Shell, Coles Express"/>
    <tag k="operator" v="Shell"/>
  </node>
  <node id="245286049" version="4" timestamp="2010-03-11T04:49:27Z" uid="69319" user="Rhubarb" changeset="4095230" lat="-33.8305363" lon="151.226292">
    <tag k="amenity" v="fuel"/>
    <tag k="name" v="Shell, Coles Express"/>
    <tag k="operator" v="Shell"/>
  </node>
  <node id="245286060" version="3" timestamp="2008-08-12T10:49:47Z" uid="7617" user="Franc" changeset="205802" lat="-33.8016838" lon="151.1449541">
    <tag k="created_by" v="JOSM"/>
    <tag k="highway" v="traffic_signals"/>
  </node>
  <node id="245286060" version="4" timestamp="2009-01-18T22:09:24Z" uid="17425" user="jackb" changeset="806737" lat="-33.8016193" lon="151.1448681">
    <tag k="created_by" v="JOSM"/>
    <tag k="highway" v="traffic_signals"/>
  </node>
  <node id="245286060" version="5" timestamp="2009-07-18T11:23:11Z" uid="18713" user="Diego" changeset="1862644" lat="-33.801859" lon="151.1451758">
    <tag k="created_by" v="JOSM"/>
    <tag k="highway" v="traffic_signals"/>
  </node>
  <node id="245286060" version="6" timestamp="2009-12-28T15:42:09Z" uid="12203" user="brainwad" changeset="3472791" lat="-33.801859" lon="151.1451758">
    <tag k="created_by" v="JOSM"/>
    <tag k="highway" v="traffic_signals"/>
  </node>
</osm>
