<?xml version='1.0' encoding='UTF-8'?>
<osm version="0.6" generator="libosmium/2.20.0">
  <node id="246422157" version="10" timestamp="2009-07-23T01:02:51Z" uid="123700" user="Mala" changeset="1910504" lat="19.1399521" lon="-72.3570683">
    <tag k="country_code_fips" v="HA"/>
    <tag k="country_code_iso3166_1_alpha_2" v="HT"/>
    <tag k="is_in:continent" v="North America"/>
    <tag k="is_in:sea" v="Caribbean Sea"/>
    <tag k="name" v="Haiti"/>
    <tag k="name:da" v="Haiti"/>
    <tag k="name:eo" v="Haitio"/>
    <tag k="name:he" v="האיטי"/>
    <tag k="name:hu" v="Haiti"/>
    <tag k="place" v="country"/>
  </node>
  <node id="246422158" version="13" timestamp="2009-07-23T01:02:48Z" uid="123700" user="Mala" changeset="1910504" lat="19.0941392" lon="-70.3012329">
    <tag k="capital_city" v="Santo Domingo"/>
    <tag k="country_code_fips" v="DR"/>
    <tag k="country_code_iso3166_1_alpha_2" v="DO"/>
    <tag k="is_in:continent" v="North America"/>
    <tag k="is_in:sea" v="Caribbean Sea"/>
    <tag k="name" v="República Dominicana"/>
    <tag k="name:ar" v="الجمهورية الدومينيكية"/>
    <tag k="name:cy" v="Gweriniaeth Dominica"/>
    <tag k="name:da" v="Dominikanske Republik"/>
    <tag k="name:de" v="Dominikanische Republik"/>
    <tag k="name:do" v="República Dominicána"/>
    <tag k="name:en" v="Dominican Republic"/>
    <tag k="name:eo" v="Domingo"/>
    <tag k="name:he" v="דומיניק"/>
    <tag k="name:hu" v="Dominikai Köztársaság"/>
    <tag k="name:it" v="Repubblica Dominicana"/>
    <tag k="name:pl" v="Dominikana"/>
    <tag k="official_name:pl" v="Republika Dominikańska"/>
    <tag k="place" v="country"/>
    <tag k="wikipedia" v="Dominican Republic"/>
  </node>
  <node id="246422158" version="14" timestamp="2009-08-13T00:10:53Z" uid="48796" user="Ldp" changeset="2125312" lat="19.0941392" lon="-70.3012329">
    <tag k="capital_city" v="Santo Domingo"/>
    <tag k="country_code_fips" v="DR"/>
    <tag k="country_code_iso3166_1_alpha_2" v="DO"/>
    <tag k="is_in:continent" v="North America"/>
    <tag k="is_in:sea" v="Caribbean Sea"/>
    <tag k="name" v="República Dominicana"/>
    <tag k="name:ar" v="الجمهورية الدومينيكية"/>
    <tag k="name:cy" v="Gweriniaeth Dominica"/>
    <tag k="name:da" v="Dominikanske Republik"/>
    <tag k="name:de" v="Dominikanische Republik"/>
    <tag k="name:do" v="República Dominicána"/>
    <tag k="name:en" v="Dominican Republic"/>
    <tag k="name:eo" v="Domingo"/>
    <tag k="name:he" v="דומיניק"/>
    <tag k="name:hu" v="Dominikai Köztársaság"/>
    <tag k="name:it" v="Repubblica Dominicana"/>
    <tag k="name:nl" v="Dominicaanse Republiek"/>
    <tag k="name:pl" v="Dominikana"/>
    <tag k="official_name:pl" v="Republika Dominikańska"/>
    <tag k="place" v="country"/>
    <tag k="wikipedia" v="Dominican Republic"/>
  </node>
  <node id="246422158" version="15" timestamp="2009-08-13T00:22:48Z" uid="38239" user="Daeron" changeset="2125398" lat="19.0941392" lon="-70.3012329">
    <tag k="capital_city" v="Santo Domingo"/>
    <tag k="country_code_fips" v="DR"/>
    <tag k="country_code_iso3166_1_alpha_2" v="DO"/>
    <tag k="is_in:continent" v="North America"/>
    <tag k="is_in:sea" v="Caribbean Sea"/>
    <tag k="name" v="República Dominicana"/>
    <tag k="name:ar" v="الجمهورية الدومينيكية"/>
    <tag k="name:cy" v="Gweriniaeth Dominica"/>
    <tag k="name:da" v="Dominikanske Republik"/>
    <tag k="name:de" v="Dominikanische Republik"/>
    <tag k="name:do" v="República Dominicána"/>
    <tag k="name:en" v="Dominican Republic"/>
    <tag k="name:eo" v="Domingo"/>
    <tag k="name:fi" v="Dominikaaninen tasavalta"/>
    <tag k="name:he" v="דומיניק"/>
    <tag k="name:hu" v="Dominikai Köztársaság"/>
    <tag k="name:it" v="Repubblica Dominicana"/>
    <tag k="name:nl" v="Dominicaanse Republiek"/>
    <tag k="name:pl" v="Dominikana"/>
    <tag k="official_name:pl" v="Republika Dominikańska"/>
    <tag k="place" v="country"/>
    <tag k="wikipedia" v="Dominican Republic"/>
  </node>
  <node id="246422158" version="16" timestamp="2009-08-13T00:33:41Z" uid="99151" user="quicky" changeset="2125496" lat="19.0941473" lon="-70.3012377">
    <tag k="capital_city" v="Santo Domingo"/>
    <tag k="country_code_fips" v="DR"/>
    <tag k="country_code_iso3166_1_alpha_2" v="DO"/>
    <tag k="is_in:continent" v="North America"/>
    <tag k="is_in:sea" v="Caribbean Sea"/>
    <tag k="name" v="República Dominicana"/>
    <tag k="name:ar" v="الجمهورية الدومينيكية"/>
    <tag k="name:cy" v="Gweriniaeth Dominica"/>
    <tag k="name:da" v="Dominikanske Republik"/>
    <tag k="name:de" v="Dominikanische Republik"/>
    <tag k="name:do" v="República Dominicána"/>
    <tag k="name:en" v="Dominican Republic"/>
    <tag k="name:eo" v="Domingo"/>
    <tag k="name:fi" v="Dominikaaninen tasavalta"/>
    <tag k="name:fr" v="République Dominicaine"/>
    <tag k="name:he" v="דומיניק"/>
    <tag k="name:hu" v="Dominikai Köztársaság"/>
    <tag k="name:it" v="Repubblica Dominicana"/>
    <tag k="name:nl" v="Dominicaanse Republiek"/>
    <tag k="name:pl" v="Dominikana"/>
    <tag k="official_name:pl" v="Republika Dominikańska"/>
    <tag k="place" v="country"/>
    <tag k="wikipedia" v="Dominican Republic"/>
  </node>
  <node id="246422158" version="17" timestamp="2009-08-13T01:00:45Z" uid="48796" user="Ldp" changeset="2125649" lat="19.0941501" lon="-70.3012452">
    <tag k="capital_city" v="Santo Domingo"/>
    <tag k="country_code_fips" v="DR"/>
    <tag k="country_code_iso3166_1_alpha_2" v="DO"/>
    <tag k="is_in:continent" v="North America"/>
    <tag k="is_in:sea" v="Caribbean Sea"/>
    <tag k="name" v="República Dominicana"/>
    <tag k="name:ar" v="الجمهورية الدومينيكية"/>
    <tag k="name:cy" v="Gweriniaeth Dominica"/>
    <tag k="name:da" v="Dominikanske Republik"/>
    <tag k="name:de" v="Dominikanische Republik"/>
    <tag k="name:do" v="República Dominicána"/>
    <tag k="name:en" v="Dominican Republic"/>
    <tag k="name:eo" v="Domingo"/>
    <tag k="name:fi" v="Dominikaaninen tasavalta"/>
    <tag k="name:fr" v="République Dominicaine"/>
    <tag k="name:fy" v="de Dominikaanske Republyk"/>
    <tag k="name:he" v="דומיניק"/>
    <tag k="name:hu" v="Dominikai Köztársaság"/>
    <tag k="name:it" v="Repubblica Dominicana"/>
    <tag k="name:nl" v="Dominicaanse Republiek"/>
    <tag k="name:pl" v="Dominikana"/>
    <tag k="official_name:pl" v="Republika Dominikańska"/>
    <tag k="place" v="country"/>
    <tag k="wikipedia" v="Dominican Republic"/>
  </node>
  <node id="246422158" version="18" timestamp="2009-08-13T02:57:52Z" uid="48796" user="Ldp" changeset="2126148" lat="19.0941501" lon="-70.3012452">
    <tag k="capital_city" v="Santo Domingo"/>
    <tag k="country_code_fips" v="DR"/>
    <tag k="country_code_iso3166_1_alpha_2" v="DO"/>
    <tag k="is_in:continent" v="North America"/>
    <tag k="is_in:sea" v="Caribbean Sea"/>
    <tag k="name" v="República Dominicana"/>
    <tag k="name:af" v="Dominikaanse Republiek"/>
    <tag k="name:ar" v="الجمهورية الدومينيكية"/>
    <tag k="name:cy" v="Gweriniaeth Dominica"/>
    <tag k="name:da" v="Dominikanske Republik"/>
    <tag k="name:de" v="Dominikanische Republik"/>
    <tag k="name:do" v="República Dominicána"/>
    <tag k="name:en" v="Dominican Republic"/>
    <tag k="name:eo" v="Domingo"/>
    <tag k="name:fi" v="Dominikaaninen tasavalta"/>
    <tag k="name:fr" v="République Dominicaine"/>
    <tag k="name:fy" v="de Dominikaanske Republyk"/>
    <tag k="name:he" v="דומיניק"/>
    <tag k="name:hu" v="Dominikai Köztársaság"/>
    <tag k="name:it" v="Repubblica Dominicana"/>
    <tag k="name:nl" v="Dominicaanse Republiek"/>
    <tag k="name:pl" v="Dominikana"/>
    <tag k="official_name:pl" v="Republika Dominikańska"/>
    <tag k="place" v="country"/>
    <tag k="wikipedia" v="Dominican Republic"/>
  </node>
  <node id="246422158" version="19" timestamp="2009-08-13T03:50:31Z" uid="48796" user="Ldp" changeset="2126329" lat="19.0941501" lon="-70.3012452">
    <tag k="capital_city" v="Santo Domingo"/>
    <tag k="country_code_fips" v="DR"/>
    <tag k="country_code_iso3166_1_alpha_2" v="DO"/>
    <tag k="is_in:continent" v="North America"/>
    <tag k="is_in:sea" v="Caribbean Sea"/>
    <tag k="name" v="República Dominicana"/>
    <tag k="name:af" v="Dominikaanse Republiek"/>
    <tag k="name:ar" v="الجمهورية الدومينيكية"/>
    <tag k="name:cy" v="Gweriniaeth Dominica"/>
    <tag k="name:da" v="Dominikanske Republik"/>
    <tag k="name:de" v="Dominikanische Republik"/>
    <tag k="name:do" v="República Dominicána"/>
    <tag k="name:en" v="Dominican Republic"/>
    <tag k="name:eo" v="Domingo"/>
    <tag k="name:fi" v="Dominikaaninen tasavalta"/>
    <tag k="name:fr" v="République Dominicaine"/>
    <tag k="name:fy" v="de Dominikaanske Republyk"/>
    <tag k="name:he" v="דומיניק"/>
    <tag k="name:hu" v="Dominikai Köztársaság"/>
    <tag k="name:it" v="Repubblica Dominicana"/>
    <tag k="name:nl" v="Dominicaanse Republiek"/>
    <tag k="name:pl" v="Dominikana"/>
    <tag k="name:sv" v="Dominikanska republiken"/>
    <tag k="official_name:pl" v="Republika Dominikańska"/>
    <tag k="place" v="country"/>
    <tag k="wikipedia" v="Dominican Republic"/>
  </node>
  <node id="246422158" version="20" timestamp="2009-08-13T08:11:52Z" uid="24965" user="Ævar Arnfjörð Bjarmason" changeset="2128178" lat="19.0941501" lon="-70.3012452">
    <tag k="capital_city" v="Santo Domingo"/>
    <tag k="country_code_fips" v="DR"/>
    <tag k="country_code_iso3166_1_alpha_2" v="DO"/>
    <tag k="is_in:continent" v="North America"/>
    <tag k="is_in:sea" v="Caribbean Sea"/>
    <tag k="name" v="República Dominicana"/>
    <tag k="name:af" v="Dominikaanse Republiek"/>
    <tag k="name:ar" v="الجمهورية الدومينيكية"/>
    <tag k="name:cy" v="Gweriniaeth Dominica"/>
    <tag k="name:da" v="Dominikanske Republik"/>
    <tag k="name:de" v="Dominikanische Republik"/>
    <tag k="name:do" v="República Dominicána"/>
    <tag k="name:en" v="Dominican Republic"/>
    <tag k="name:eo" v="Domingo"/>
    <tag k="name:fi" v="Dominikaaninen tasavalta"/>
    <tag k="name:fr" v="République Dominicaine"/>
    <tag k="name:fy" v="de Dominikaanske Republyk"/>
    <tag k="name:he" v="דומיניק"/>
    <tag k="name:hu" v="Dominikai Köztársaság"/>
    <tag k="name:is" v="Dóminíska lýðveldið"/>
    <tag k="name:it" v="Repubblica Dominicana"/>
    <tag k="name:nl" v="Dominicaanse Republiek"/>
    <tag k="name:pl" v="Dominikana"/>
    <tag k="name:sv" v="Dominikanska republiken"/>
    <tag k="official_name:pl" v="Republika Dominikańska"/>
    <tag k="place" v="country"/>
    <tag k="wikipedia" v="Dominican Republic"/>
  </node>
  <node id="246422158" version="21" timestamp="2009-08-13T15:45:41Z" uid="48796" user="Ldp" changeset="2133168" lat="19.0941501" lon="-70.3012452">
    <tag k="capital_city" v="Santo Domingo"/>
    <tag k="country_code_fips" v="DR"/>
    <tag k="country_code_iso3166_1_alpha_2" v="DO"/>
    <tag k="is_in:continent" v="North America"/>
    <tag k="is_in:sea" v="Caribbean Sea"/>
    <tag k="name" v="República Dominicana"/>
    <tag k="name:af" v="Dominikaanse Republiek"/>
    <tag k="name:ar" v="الجمهورية الدومينيكية"/>
    <tag k="name:cy" v="Gweriniaeth Dominica"/>
    <tag k="name:da" v="Dominikanske Republik"/>
    <tag k="name:de" v="Dominikanische Republik"/>
    <tag k="name:do" v="República Dominicána"/>
    <tag k="name:en" v="Dominican Republic"/>
    <tag k="name:eo" v="Domingo"/>
    <tag k="name:fi" v="Dominikaaninen tasavalta"/>
    <tag k="name:fr" v="République Dominicaine"/>
    <tag k="name:fy" v="de Dominikaanske Republyk"/>
    <tag k="name:he" v="דומיניק"/>
    <tag k="name:hu" v="Dominikai Köztársaság"/>
    <tag k="name:is" v="Dóminíska lýðveldið"/>
    <tag k="name:it" v="Repubblica Dominicana"/>
    <tag k="name:li" v="Dominicaanse Rippebliek"/>
    <tag k="name:nl" v="Dominicaanse Republiek"/>
    <tag k="name:pl" v="Dominikana"/>
    <tag k="name:sv" v="Dominikanska republiken"/>
    <tag k="official_name:pl" v="Republika Dominikańska"/>
    <tag k="place" v="country"/>
    <tag k="wikipedia" v="Dominican Republic"/>
  </node>
  <node id="246422158" version="22" timestamp="2009-08-13T17:01:42Z" uid="17497" user="katpatuka" changeset="2133890" lat="19.0941542" lon="-70.3012468">
    <tag k="capital_city" v="Santo Domingo"/>
    <tag k="country_code_fips" v="DR"/>
    <tag k="country_code_iso3166_1_alpha_2" v="DO"/>
    <tag k="is_in:continent" v="North America"/>
    <tag k="is_in:sea" v="Caribbean Sea"/>
    <tag k="name" v="República Dominicana"/>
    <tag k="name:af" v="Dominikaanse Republiek"/>
    <tag k="name:ar" v="الجمهورية الدومينيكية"/>
    <tag k="name:cy" v="Gweriniaeth Dominica"/>
    <tag k="name:da" v="Dominikanske Republik"/>
    <tag k="name:de" v="Dominikanische Republik"/>
    <tag k="name:do" v="República Dominicána"/>
    <tag k="name:en" v="Dominican Republic"/>
    <tag k="name:eo" v="Domingo"/>
    <tag k="name:fi" v="Dominikaaninen tasavalta"/>
    <tag k="name:fr" v="République Dominicaine"/>
    <tag k="name:fy" v="de Dominikaanske Republyk"/>
    <tag k="name:he" v="דומיניק"/>
    <tag k="name:hu" v="Dominikai Köztársaság"/>
    <tag k="name:is" v="Dóminíska lýðveldið"/>
    <tag k="name:it" v="Repubblica Dominicana"/>
    <tag k="name:li" v="Dominicaanse Rippebliek"/>
    <tag k="name:nl" v="Dominicaanse Republiek"/>
    <tag k="name:pl" v="Dominikana"/>
    <tag k="name:sv" v="Dominikanska republiken"/>
    <tag k="name:tr" v="Dominik Cumhuriyeti"/>
    <tag k="official_name:pl" v="Republika Dominikańska"/>
    <tag k="place" v="country"/>
    <tag k="wikipedia" v="Dominican Republic"/>
  </node>
  <node id="246422158" version="23" timestamp="2009-08-13T20:56:51Z" uid="61891" user="stephankn" changeset="2136814" lat="19.0941542" lon="-70.3012468">
    <tag k="capital_city" v="Santo Domingo"/>
    <tag k="country_code_fips" v="DR"/>
    <tag k="country_code_iso3166_1_alpha_2" v="DO"/>
    <tag k="is_in:continent" v="North America"/>
    <tag k="is_in:sea" v="Caribbean Sea"/>
    <tag k="name" v="República Dominicana"/>
    <tag k="name:af" v="Dominikaanse Republiek"/>
    <tag k="name:ar" v="الجمهورية الدومينيكية"/>
    <tag k="name:cy" v="Gweriniaeth Dominica"/>
    <tag k="name:da" v="Dominikanske Republik"/>
    <tag k="name:de" v="Dominikanische Republik"/>
    <tag k="name:do" v="República Dominicána"/>
    <tag k="name:en" v="Dominican Republic"/>
    <tag k="name:eo" v="Domingo"/>
    <tag k="name:fi" v="Dominikaaninen tasavalta"/>
    <tag k="name:fr" v="République Dominicaine"/>
    <tag k="name:fy" v="de Dominikaanske Republyk"/>
    <tag k="name:he" v="דומיניק"/>
    <tag k="name:hu" v="Dominikai Köztársaság"/>
    <tag k="name:is" v="Dóminíska lýðveldið"/>
    <tag k="name:it" v="Repubblica Dominicana"/>
    <tag k="name:li" v="Dominicaanse Rippebliek"/>
    <tag k="name:nl" v="Dominicaanse Republiek"/>
    <tag k="name:pl" v="Dominikana"/>
    <tag k="name:sv" v="Dominikanska republiken"/>
    <tag k="name:th" v="สาธารณรัฐโดมินิกัน"/>
    <tag k="name:tr" v="Dominik Cumhuriyeti"/>
    <tag k="official_name:pl" v="Republika Dominikańska"/>
    <tag k="place" v="country"/>
    <tag k="wikipedia" v="Dominican Republic"/>
  </node>
  <node id="246422158" version="24" timestamp="2009-08-14T00:08:05Z" uid="152380" user="Rimael" changeset="2137717" lat="19.0941476" lon="-70.3012554">
    <tag k="capital_city" v="Santo Domingo"/>
    <tag k="country_code_fips" v="DR"/>
    <tag k="country_code_iso3166_1_alpha_2" v="DO"/>
    <tag k="is_in:continent" v="North America"/>
    <tag k="is_in:sea" v="Caribbean Sea"/>
    <tag k="name" v="República Dominicana"/>
    <tag k="name:af" v="Dominikaanse Republiek"/>
    <tag k="name:ar" v="الجمهورية الدومينيكية"/>
    <tag k="name:br" v="Republik Dominikan"/>
    <tag k="name:cy" v="Gweriniaeth Dominica"/>
    <tag k="name:da" v="Dominikanske Republik"/>
    <tag k="name:de" v="Dominikanische Republik"/>
    <tag k="name:do" v="República Dominicána"/>
    <tag k="name:en" v="Dominican Republic"/>
    <tag k="name:eo" v="Domingo"/>
    <tag k="name:fi" v="Dominikaaninen tasavalta"/>
    <tag k="name:fr" v="République Dominicaine"/>
    <tag k="name:fy" v="de Dominikaanske Republyk"/>
    <tag k="name:he" v="דומיניק"/>
    <tag k="name:hu" v="Dominikai Köztársaság"/>
    <tag k="name:is" v="Dóminíska lýðveldið"/>
    <tag k="name:it" v="Repubblica Dominicana"/>
    <tag k="name:li" v="Dominicaanse Rippebliek"/>
    <tag k="name:nl" v="Dominicaanse Republiek"/>
    <tag k="name:pl" v="Dominikana"/>
    <tag k="name:sv" v="Dominikanska republiken"/>
    <tag k="name:th" v="สาธารณรัฐโดมินิกัน"/>
    <tag k="name:tr" v="Dominik Cumhuriyeti"/>
    <tag k="official_name:pl" v="Republika Dominikańska"/>
    <tag k="place" v="country"/>
    <tag k="wikipedia" v="Dominican Republic"/>
  </node>
  <node id="246422158" version="25" timestamp="2009-08-14T10:48:59Z" uid="11132" user="liosha" changeset="2141280" lat="19.0941476" lon="-70.3012554">
    <tag k="capital_city" v="Santo Domingo"/>
    <tag k="country_code_fips" v="DR"/>
    <tag k="country_code_iso3166_1_alpha_2" v="DO"/>
    <tag k="is_in:continent" v="North America"/>
    <tag k="is_in:sea" v="Caribbean Sea"/>
    <tag k="name" v="República Dominicana"/>
    <tag k="name:af" v="Dominikaanse Republiek"/>
    <tag k="name:ar" v="الجمهورية الدومينيكية"/>
    <tag k="name:br" v="Republik Dominikan"/>
    <tag k="name:cy" v="Gweriniaeth Dominica"/>
    <tag k="name:da" v="Dominikanske Republik"/>
    <tag k="name:de" v="Dominikanische Republik"/>
    <tag k="name:do" v="República Dominicána"/>
    <tag k="name:en" v="Dominican Republic"/>
    <tag k="name:eo" v="Domingo"/>
    <tag k="name:fi" v="Dominikaaninen tasavalta"/>
    <tag k="name:fr" v="République Dominicaine"/>
    <tag k="name:fy" v="de Dominikaanske Republyk"/>
    <tag k="name:he" v="דומיניק"/>
    <tag k="name:hu" v="Dominikai Köztársaság"/>
    <tag k="name:is" v="Dóminíska lýðveldið"/>
    <tag k="name:it" v="Repubblica Dominicana"/>
    <tag k="name:li" v="Dominicaanse Rippebliek"/>
    <tag k="name:nl" v="Dominicaanse Republiek"/>
    <tag k="name:pl" v="Dominikana"/>
    <tag k="name:ru" v="Доминиканская Республика"/>
    <tag k="name:sv" v="Dominikanska republiken"/>
    <tag k="name:th" v="สาธารณรัฐโดมินิกัน"/>
    <tag k="name:tr" v="Dominik Cumhuriyeti"/>
    <tag k="official_name:pl" v="Republika Dominikańska"/>
    <tag k="place" v="country"/>
    <tag k="wikipedia" v="Dominican Republic"/>
  </node>
  <node id="246422158" version="26" timestamp="2009-08-14T14:22:41Z" uid="17497" user="katpatuka" changeset="2143597" lat="19.0941517" lon="-70.301257">
    <tag k="capital_city" v="Santo Domingo"/>
    <tag k="country_code_fips" v="DR"/>
    <tag k="country_code_iso3166_1_alpha_2" v="DO"/>
    <tag k="is_in:continent" v="North America"/>
    <tag k="is_in:sea" v="Caribbean Sea"/>
    <tag k="name" v="República Dominicana"/>
    <tag k="name:af" v="Dominikaanse Republiek"/>
    <tag k="name:ar" v="الجمهورية الدومينيكية"/>
    <tag k="name:br" v="Republik Dominikan"/>
    <tag k="name:cy" v="Gweriniaeth Dominica"/>
    <tag k="name:da" v="Dominikanske Republik"/>
    <tag k="name:de" v="Dominikanische Republik"/>
    <tag k="name:do" v="República Dominicána"/>
    <tag k="name:en" v="Dominican Republic"/>
    <tag k="name:eo" v="Domingo"/>
    <tag k="name:fi" v="Dominikaaninen tasavalta"/>
    <tag k="name:fr" v="République Dominicaine"/>
    <tag k="name:fy" v="de Dominikaanske Republyk"/>
    <tag k="name:he" v="דומיניק"/>
    <tag k="name:hu" v="Dominikai Köztársaság"/>
    <tag k="name:is" v="Dóminíska lýðveldið"/>
    <tag k="name:it" v="Repubblica Dominicana"/>
    <tag k="name:li" v="Dominicaanse Rippebliek"/>
    <tag k="name:mn" v="Доминиканы Бүгд Найрамдах Улс"/>
    <tag k="name:nl" v="Dominicaanse Republiek"/>
    <tag k="name:pl" v="Dominikana"/>
    <tag k="name:ru" v="Доминиканская Республика"/>
    <tag k="name:sv" v="Dominikanska republiken"/>
    <tag k="name:th" v="สาธารณรัฐโดมินิกัน"/>
    <tag k="name:tr" v="Dominik Cumhuriyeti"/>
    <tag k="official_name:pl" v="Republika Dominikańska"/>
    <tag k="place" v="country"/>
    <tag k="wikipedia" v="Dominican Republic"/>
  </node>
  <node id="246422158" version="27" timestamp="2009-08-15T00:46:44Z" uid="48796" user="Ldp" changeset="2148984" lat="19.0941517" lon="-70.301257">
    <tag k="capital_city" v="Santo Domingo"/>
    <tag k="country_code_fips" v="DR"/>
    <tag k="country_code_iso3166_1_alpha_2" v="DO"/>
    <tag k="is_in:continent" v="North America"/>
    <tag k="is_in:sea" v="Caribbean Sea"/>
    <tag k="name" v="República Dominicana"/>
    <tag k="name:af" v="Dominikaanse Republiek"/>
    <tag k="name:ar" v="الجمهورية الدومينيكية"/>
    <tag k="name:br" v="Republik Dominikan"/>
    <tag k="name:cy" v="Gweriniaeth Dominica"/>
    <tag k="name:da" v="Dominikanske Republik"/>
    <tag k="name:de" v="Dominikanische Republik"/>
    <tag k="name:do" v="República Dominicána"/>
    <tag k="name:en" v="Dominican Republic"/>
    <tag k="name:eo" v="Domingo"/>
    <tag k="name:fi" v="Dominikaaninen tasavalta"/>
    <tag k="name:fr" v="République Dominicaine"/>
    <tag k="name:fy" v="de Dominikaanske Republyk"/>
    <tag k="name:he" v="דומיניק"/>
    <tag k="name:hu" v="Dominikai Köztársaság"/>
    <tag k="name:is" v="Dóminíska lýðveldið"/>
    <tag k="name:it" v="Repubblica Dominicana"/>
    <tag k="name:lb" v="Dominikanesch Republik"/>
    <tag k="name:li" v="Dominicaanse Rippebliek"/>
    <tag k="name:mn" v="Доминиканы Бүгд Найрамдах Улс"/>
    <tag k="name:nl" v="Dominicaanse Republiek"/>
    <tag k="name:pl" v="Dominikana"/>
    <tag k="name:ru" v="Доминиканская Республика"/>
    <tag k="name:sv" v="Dominikanska republiken"/>
    <tag k="name:th" v="สาธารณรัฐโดมินิกัน"/>
    <tag k="name:tr" v="Dominik Cumhuriyeti"/>
    <tag k="official_name:pl" v="Republika Dominikańska"/>
    <tag k="place" v="country"/>
    <tag k="wikipedia" v="Dominican Republic"/>
  </node>
  <node id="246422158" version="28" timestamp="2009-08-15T19:38:25Z" uid="5553" user="dkt" changeset="2157797" lat="19.0941591" lon="-70.3012586">
    <tag k="capital_city" v="Santo Domingo"/>
    <tag k="country_code_fips" v="DR"/>
    <tag k="country_code_iso3166_1_alpha_2" v="DO"/>
    <tag k="is_in:continent" v="North America"/>
    <tag k="is_in:sea" v="Caribbean Sea"/>
    <tag k="name" v="República Dominicana"/>
    <tag k="name:af" v="Dominikaanse Republiek"/>
    <tag k="name:ar" v="الجمهورية الدومينيكية"/>
    <tag k="name:br" v="Republik Dominikan"/>
    <tag k="name:cy" v="Gweriniaeth Dominica"/>
    <tag k="name:da" v="Dominikanske Republik"/>
    <tag k="name:de" v="Dominikanische Republik"/>
    <tag k="name:do" v="República Dominicána"/>
    <tag k="name:en" v="Dominican Republic"/>
    <tag k="name:eo" v="Domingo"/>
    <tag k="name:fi" v="Dominikaaninen tasavalta"/>
    <tag k="name:fr" v="République Dominicaine"/>
    <tag k="name:fy" v="de Dominikaanske Republyk"/>
    <tag k="name:he" v="דומיניק"/>
    <tag k="name:hu" v="Dominikai Köztársaság"/>
    <tag k="name:is" v="Dóminíska lýðveldið"/>
    <tag k="name:it" v="Repubblica Dominicana"/>
    <tag k="name:lb" v="Dominikanesch Republik"/>
    <tag k="name:li" v="Dominicaanse Rippebliek"/>
    <tag k="name:mn" v="Доминиканы Бүгд Найрамдах Улс"/>
    <tag k="name:nl" v="Dominicaanse Republiek"/>
    <tag k="name:pl" v="Dominikana"/>
    <tag k="name:ru" v="Доминиканская Республика"/>
    <tag k="name:sv" v="Dominikanska republiken"/>
    <tag k="name:th" v="สาธารณรัฐโดมินิกัน"/>
    <tag k="name:tr" v="Dominik Cumhuriyeti"/>
    <tag k="name:zh" v="多明尼加共和國"/>
    <tag k="official_name:pl" v="Republika Dominikańska"/>
    <tag k="place" v="country"/>
    <tag k="wikipedia" v="Dominican Republic"/>
  </node>
  <node id="246422158" version="29" timestamp="2009-08-15T20:04:48Z" uid="140069" user="kebil" changeset="2158060" lat="19.0941606" lon="-70.3012653">
    <tag k="capital_city" v="Santo Domingo"/>
    <tag k="country_code_fips" v="DR"/>
    <tag k="country_code_iso3166_1_alpha_2" v="DO"/>
    <tag k="is_in:continent" v="North America"/>
    <tag k="is_in:sea" v="Caribbean Sea"/>
    <tag k="name" v="República Dominicana"/>
    <tag k="name:af" v="Dominikaanse Republiek"/>
    <tag k="name:ar" v="الجمهورية الدومينيكية"/>
    <tag k="name:br" v="Republik Dominikan"/>
    <tag k="name:cy" v="Gweriniaeth Dominica"/>
    <tag k="name:da" v="Dominikanske Republik"/>
    <tag k="name:de" v="Dominikanische Republik"/>
    <tag k="name:do" v="República Dominicána"/>
    <tag k="name:en" v="Dominican Republic"/>
    <tag k="name:eo" v="Domingo"/>
    <tag k="name:fi" v="Dominikaaninen tasavalta"/>
    <tag k="name:fr" v="République Dominicaine"/>
    <tag k="name:fy" v="de Dominikaanske Republyk"/>
    <tag k="name:he" v="דומיניק"/>
    <tag k="name:hu" v="Dominikai Köztársaság"/>
    <tag k="name:is" v="Dóminíska lýðveldið"/>
    <tag k="name:it" v="Repubblica Dominicana"/>
    <tag k="name:lb" v="Dominikanesch Republik"/>
    <tag k="name:li" v="Dominicaanse Rippebliek"/>
    <tag k="name:lt" v="Dominikos Respublika"/>
    <tag k="name:mn" v="Доминиканы Бүгд Найрамдах Улс"/>
    <tag k="name:nl" v="Dominicaanse Republiek"/>
    <tag k="name:pl" v="Dominikana"/>
    <tag k="name:ru" v="Доминиканская Республика"/>
    <tag k="name:sv" v="Dominikanska republiken"/>
    <tag k="name:th" v="สาธารณรัฐโดมินิกัน"/>
    <tag k="name:tr" v="Dominik Cumhuriyeti"/>
    <tag k="name:zh" v="多明尼加共和國"/>
    <tag k="official_name:pl" v="Republika Dominikańska"/>
    <tag k="place" v="country"/>
    <tag k="wikipedia" v="Dominican Republic"/>
  </node>
  <node id="246422158" version="30" timestamp="2009-08-16T07:14:31Z" uid="33377" user="Victor LP" changeset="2160824" lat="19.0941606" lon="-70.3012653">
    <tag k="capital_city" v="Santo Domingo"/>
    <tag k="country_code_fips" v="DR"/>
    <tag k="country_code_iso3166_1_alpha_2" v="DO"/>
    <tag k="is_in:continent" v="North America"/>
    <tag k="is_in:sea" v="Caribbean Sea"/>
    <tag k="name" v="República Dominicana"/>
    <tag k="name:af" v="Dominikaanse Republiek"/>
    <tag k="name:ar" v="الجمهورية الدومينيكية"/>
    <tag k="name:br" v="Republik Dominikan"/>
    <tag k="name:cy" v="Gweriniaeth Dominica"/>
    <tag k="name:da" v="Dominikanske Republik"/>
    <tag k="name:de" v="Dominikanische Republik"/>
    <tag k="name:do" v="República Dominicána"/>
    <tag k="name:el" v="Δομινικανή Δημοκρατία"/>
    <tag k="name:en" v="Dominican Republic"/>
    <tag k="name:eo" v="Domingo"/>
    <tag k="name:fi" v="Dominikaaninen tasavalta"/>
    <tag k="name:fr" v="République Dominicaine"/>
    <tag k="name:fy" v="de Dominikaanske Republyk"/>
    <tag k="name:he" v="דומיניק"/>
    <tag k="name:hu" v="Dominikai Köztársaság"/>
    <tag k="name:is" v="Dóminíska lýðveldið"/>
    <tag k="name:it" v="Repubblica Dominicana"/>
    <tag k="name:lb" v="Dominikanesch Republik"/>
    <tag k="name:li" v="Dominicaanse Rippebliek"/>
    <tag k="name:lt" v="Dominikos Respublika"/>
    <tag k="name:mn" v="Доминиканы Бүгд Найрамдах Улс"/>
    <tag k="name:nl" v="Dominicaanse Republiek"/>
    <tag k="name:pl" v="Dominikana"/>
    <tag k="name:ru" v="Доминиканская Республика"/>
    <tag k="name:sv" v="Dominikanska republiken"/>
    <tag k="name:th" v="สาธารณรัฐโดมินิกัน"/>
    <tag k="name:tr" v="Dominik Cumhuriyeti"/>
    <tag k="name:zh" v="多明尼加共和國"/>
    <tag k="official_name:pl" v="Republika Dominikańska"/>
    <tag k="place" v="country"/>
    <tag k="wikipedia" v="Dominican Republic"/>
  </node>
  <node id="246422158" version="31" timestamp="2009-08-16T14:55:40Z" uid="48796" user="Ldp" changeset="2166436" lat="19.0941606" lon="-70.3012653">
    <tag k="capital_city" v="Santo Domingo"/>
    <tag k="country_code_fips" v="DR"/>
    <tag k="country_code_iso3166_1_alpha_2" v="DO"/>
    <tag k="is_in:continent" v="North America"/>
    <tag k="is_in:sea" v="Caribbean Sea"/>
    <tag k="name" v="República Dominicana"/>
    <tag k="name:af" v="Dominikaanse Republiek"/>
    <tag k="name:ar" v="الجمهورية الدومينيكية"/>
    <tag k="name:br" v="Republik Dominikan"/>
    <tag k="name:cy" v="Gweriniaeth Dominica"/>
    <tag k="name:da" v="Dominikanske Republik"/>
    <tag k="name:de" v="Dominikanische Republik"/>
    <tag k="name:do" v="República Dominicána"/>
    <tag k="name:el" v="Δομινικανή Δημοκρατία"/>
    <tag k="name:en" v="Dominican Republic"/>
    <tag k="name:eo" v="Domingo"/>
    <tag k="name:fi" v="Dominikaaninen tasavalta"/>
    <tag k="name:fr" v="République Dominicaine"/>
    <tag k="name:fy" v="de Dominikaanske Republyk"/>
    <tag k="name:gd" v="Poblachd Dhoiminicia"/>
    <tag k="name:he" v="דומיניק"/>
    <tag k="name:hu" v="Dominikai Köztársaság"/>
    <tag k="name:is" v="Dóminíska lýðveldið"/>
    <tag k="name:it" v="Repubblica Dominicana"/>
    <tag k="name:lb" v="Dominikanesch Republik"/>
    <tag k="name:li" v="Dominicaanse Rippebliek"/>
    <tag k="name:lt" v="Dominikos Respublika"/>
    <tag k="name:mn" v="Доминиканы Бүгд Найрамдах Улс"/>
    <tag k="name:nl" v="Dominicaanse Republiek"/>
    <tag k="name:pl" v="Dominikana"/>
    <tag k="name:ru" v="Доминиканская Республика"/>
    <tag k="name:sv" v="Dominikanska republiken"/>
    <tag k="name:th" v="สาธารณรัฐโดมินิกัน"/>
    <tag k="name:tr" v="Dominik Cumhuriyeti"/>
    <tag k="name:zh" v="多明尼加共和國"/>
    <tag k="official_name:pl" v="Republika Dominikańska"/>
    <tag k="place" v="country"/>
    <tag k="wikipedia" v="Dominican Republic"/>
  </node>
  <node id="246422158" version="32" timestamp="2009-08-16T15:48:21Z" uid="48796" user="Ldp" changeset="2167039" lat="19.0941606" lon="-70.3012653">
    <tag k="capital_city" v="Santo Domingo"/>
    <tag k="country_code_fips" v="DR"/>
    <tag k="country_code_iso3166_1_alpha_2" v="DO"/>
    <tag k="is_in:continent" v="North America"/>
    <tag k="is_in:sea" v="Caribbean Sea"/>
    <tag k="name" v="República Dominicana"/>
    <tag k="name:af" v="Dominikaanse Republiek"/>
    <tag k="name:ar" v="الجمهورية الدومينيكية"/>
    <tag k="name:br" v="Republik Dominikan"/>
    <tag k="name:cy" v="Gweriniaeth Dominica"/>
    <tag k="name:da" v="Dominikanske Republik"/>
    <tag k="name:de" v="Dominikanische Republik"/>
    <tag k="name:do" v="República Dominicána"/>
    <tag k="name:el" v="Δομινικανή Δημοκρατία"/>
    <tag k="name:en" v="Dominican Republic"/>
    <tag k="name:eo" v="Domingo"/>
    <tag k="name:et" v="Dominikaani Vabariik"/>
    <tag k="name:fi" v="Dominikaaninen tasavalta"/>
    <tag k="name:fr" v="République Dominicaine"/>
    <tag k="name:fy" v="de Dominikaanske Republyk"/>
    <tag k="name:gd" v="Poblachd Dhoiminicia"/>
    <tag k="name:he" v="דומיניק"/>
    <tag k="name:hu" v="Dominikai Köztársaság"/>
    <tag k="name:is" v="Dóminíska lýðveldið"/>
    <tag k="name:it" v="Repubblica Dominicana"/>
    <tag k="name:lb" v="Dominikanesch Republik"/>
    <tag k="name:li" v="Dominicaanse Rippebliek"/>
    <tag k="name:lt" v="Dominikos Respublika"/>
    <tag k="name:mn" v="Доминиканы Бүгд Найрамдах Улс"/>
    <tag k="name:nl" v="Dominicaanse Republiek"/>
    <tag k="name:pl" v="Dominikana"/>
    <tag k="name:ru" v="Доминиканская Республика"/>
    <tag k="name:sv" v="Dominikanska republiken"/>
    <tag k="name:th" v="สาธารณรัฐโดมินิกัน"/>
    <tag k="name:tr" v="Dominik Cumhuriyeti"/>
    <tag k="name:zh" v="多明尼加共和國"/>
    <tag k="official_name:pl" v="Republika Dominikańska"/>
    <tag k="place" v="country"/>
    <tag k="wikipedia" v="Dominican Republic"/>
  </node>
  <node id="246422158" version="33" timestamp="2009-08-17T21:48:22Z" uid="18069" user="Claudius Henrichs" changeset="2183888" lat="19.0941606" lon="-70.3012653">
    <tag k="capital_city" v="Santo Domingo"/>
    <tag k="country_code_fips" v="DR"/>
    <tag k="country_code_iso3166_1_alpha_2" v="DO"/>
    <tag k="is_in:continent" v="North America"/>
    <tag k="is_in:sea" v="Caribbean Sea"/>
    <tag k="name" v="República Dominicana"/>
    <tag k="name:af" v="Dominikaanse Republiek"/>
    <tag k="name:ar" v="الجمهورية الدومينيكية"/>
    <tag k="name:br" v="Republik Dominikan"/>
    <tag k="name:cy" v="Gweriniaeth Dominica"/>
    <tag k="name:da" v="Dominikanske Republik"/>
    <tag k="name:de" v="Dominikanische Republik"/>
    <tag k="name:do" v="República Dominicána"/>
    <tag k="name:el" v="Δομινικανή Δημοκρατία"/>
    <tag k="name:en" v="Dominican Republic"/>
    <tag k="name:eo" v="Domingo"/>
    <tag k="name:et" v="Dominikaani Vabariik"/>
    <tag k="name:fa" v="جمهوری دومینیکن"/>
    <tag k="name:fi" v="Dominikaaninen tasavalta"/>
    <tag k="name:fr" v="République Dominicaine"/>
    <tag k="name:fy" v="de Dominikaanske Republyk"/>
    <tag k="name:gd" v="Poblachd Dhoiminicia"/>
    <tag k="name:he" v="דומיניק"/>
    <tag k="name:hu" v="Dominikai Köztársaság"/>
    <tag k="name:is" v="Dóminíska lýðveldið"/>
    <tag k="name:it" v="Repubblica Dominicana"/>
    <tag k="name:lb" v="Dominikanesch Republik"/>
    <tag k="name:li" v="Dominicaanse Rippebliek"/>
    <tag k="name:lt" v="Dominikos Respublika"/>
    <tag k="name:mn" v="Доминиканы Бүгд Найрамдах Улс"/>
    <tag k="name:nl" v="Dominicaanse Republiek"/>
    <tag k="name:pl" v="Dominikana"/>
    <tag k="name:ru" v="Доминиканская Республика"/>
    <tag k="name:sv" v="Dominikanska republiken"/>
    <tag k="name:th" v="สาธารณรัฐโดมินิกัน"/>
    <tag k="name:tr" v="Dominik Cumhuriyeti"/>
    <tag k="name:zh" v="多明尼加共和國"/>
    <tag k="official_name:pl" v="Republika Dominikańska"/>
    <tag k="place" v="country"/>
    <tag k="wikipedia" v="Dominican Republic"/>
  </node>
  <node id="246422158" version="34" timestamp="2009-08-17T22:33:15Z" uid="48796" user="Ldp" changeset="2184141" lat="19.0941606" lon="-70.3012653">
    <tag k="capital_city" v="Santo Domingo"/>
    <tag k="country_code_fips" v="DR"/>
    <tag k="country_code_iso3166_1_alpha_2" v="DO"/>
    <tag k="is_in:continent" v="North America"/>
    <tag k="is_in:sea" v="Caribbean Sea"/>
    <tag k="name" v="República Dominicana"/>
    <tag k="name:af" v="Dominikaanse Republiek"/>
    <tag k="name:ar" v="الجمهورية الدومينيكية"/>
    <tag k="name:br" v="Republik Dominikan"/>
    <tag k="name:cy" v="Gweriniaeth Dominica"/>
    <tag k="name:da" v="Dominikanske Republik"/>
    <tag k="name:de" v="Dominikanische Republik"/>
    <tag k="name:do" v="República Dominicána"/>
    <tag k="name:el" v="Δομινικανή Δημοκρατία"/>
    <tag k="name:en" v="Dominican Republic"/>
    <tag k="name:eo" v="Domingo"/>
    <tag k="name:et" v="Dominikaani Vabariik"/>
    <tag k="name:fa" v="جمهوری دومینیکن"/>
    <tag k="name:fi" v="Dominikaaninen tasavalta"/>
    <tag k="name:fr" v="République Dominicaine"/>
    <tag k="name:fy" v="de Dominikaanske Republyk"/>
    <tag k="name:gd" v="Poblachd Dhoiminicia"/>
    <tag k="name:he" v="דומיניק"/>
    <tag k="name:hu" v="Dominikai Köztársaság"/>
    <tag k="name:id" v="Republik Dominika"/>
    <tag k="name:is" v="Dóminíska lýðveldið"/>
    <tag k="name:it" v="Repubblica Dominicana"/>
    <tag k="name:lb" v="Dominikanesch Republik"/>
    <tag k="name:li" v="Dominicaanse Rippebliek"/>
    <tag k="name:lt" v="Dominikos Respublika"/>
    <tag k="name:mn" v="Доминиканы Бүгд Найрамдах Улс"/>
    <tag k="name:nl" v="Dominicaanse Republiek"/>
    <tag k="name:pl" v="Dominikana"/>
    <tag k="name:ru" v="Доминиканская Республика"/>
    <tag k="name:sv" v="Dominikanska republiken"/>
    <tag k="name:th" v="สาธารณรัฐโดมินิกัน"/>
    <tag k="name:tr" v="Dominik Cumhuriyeti"/>
    <tag k="name:zh" v="多明尼加共和國"/>
    <tag k="official_name:pl" v="Republika Dominikańska"/>
    <tag k="place" v="country"/>
    <tag k="wikipedia" v="Dominican Republic"/>
  </node>
  <node id="246422158" version="35" timestamp="2009-08-18T07:30:45Z" uid="3834" user="StefanB" changeset="2186342" lat="19.0941606" lon="-70.3012656">
    <tag k="capital_city" v="Santo Domingo"/>
    <tag k="country_code_fips" v="DR"/>
    <tag k="country_code_iso3166_1_alpha_2" v="DO"/>
    <tag k="is_in:continent" v="North America"/>
    <tag k="is_in:sea" v="Caribbean Sea"/>
    <tag k="name" v="República Dominicana"/>
    <tag k="name:af" v="Dominikaanse Republiek"/>
    <tag k="name:ar" v="الجمهورية الدومينيكية"/>
    <tag k="name:br" v="Republik Dominikan"/>
    <tag k="name:cy" v="Gweriniaeth Dominica"/>
    <tag k="name:da" v="Dominikanske Republik"/>
    <tag k="name:de" v="Dominikanische Republik"/>
    <tag k="name:do" v="República Dominicána"/>
    <tag k="name:el" v="Δομινικανή Δημοκρατία"/>
    <tag k="name:en" v="Dominican Republic"/>
    <tag k="name:eo" v="Domingo"/>
    <tag k="name:et" v="Dominikaani Vabariik"/>
    <tag k="name:fa" v="جمهوری دومینیکن"/>
    <tag k="name:fi" v="Dominikaaninen tasavalta"/>
    <tag k="name:fr" v="République Dominicaine"/>
    <tag k="name:fy" v="de Dominikaanske Republyk"/>
    <tag k="name:gd" v="Poblachd Dhoiminicia"/>
    <tag k="name:he" v="דומיניק"/>
    <tag k="name:hu" v="Dominikai Köztársaság"/>
    <tag k="name:id" v="Republik Dominika"/>
    <tag k="name:is" v="Dóminíska lýðveldið"/>
    <tag k="name:it" v="Repubblica Dominicana"/>
    <tag k="name:lb" v="Dominikanesch Republik"/>
    <tag k="name:li" v="Dominicaanse Rippebliek"/>
    <tag k="name:lt" v="Dominikos Respublika"/>
    <tag k="name:mn" v="Доминиканы Бүгд Найрамдах Улс"/>
    <tag k="name:nl" v="Dominicaanse Republiek"/>
    <tag k="name:pl" v="Dominikana"/>
    <tag k="name:ru" v="Доминиканская Республика"/>
    <tag k="name:sl" v="Dominikanska republika"/>
    <tag k="name:sv" v="Dominikanska republiken"/>
    <tag k="name:th" v="สาธารณรัฐโดมินิกัน"/>
    <tag k="name:tr" v="Dominik Cumhuriyeti"/>
    <tag k="name:zh" v="多明尼加共和國"/>
    <tag k="official_name:pl" v="Republika Dominikańska"/>
    <tag k="place" v="country"/>
    <tag k="wikipedia" v="Dominican Republic"/>
  </node>
  <node id="246422158" version="36" timestamp="2009-08-18T10:15:49Z" uid="48796" user="Ldp" changeset="2187980" lat="19.0941606" lon="-70.3012656">
    <tag k="capital_city" v="Santo Domingo"/>
    <tag k="country_code_fips" v="DR"/>
    <tag k="country_code_iso3166_1_alpha_2" v="DO"/>
    <tag k="is_in:continent" v="North America"/>
    <tag k="is_in:sea" v="Caribbean Sea"/>
    <tag k="name" v="República Dominicana"/>
    <tag k="name:af" v="Dominikaanse Republiek"/>
    <tag k="name:ar" v="الجمهورية الدومينيكية"/>
    <tag k="name:br" v="Republik Dominikan"/>
    <tag k="name:cy" v="Gweriniaeth Dominica"/>
    <tag k="name:da" v="Dominikanske Republik"/>
    <tag k="name:de" v="Dominikanische Republik"/>
    <tag k="name:do" v="República Dominicána"/>
    <tag k="name:el" v="Δομινικανή Δημοκρατία"/>
    <tag k="name:en" v="Dominican Republic"/>
    <tag k="name:eo" v="Domingo"/>
    <tag k="name:et" v="Dominikaani Vabariik"/>
    <tag k="name:fa" v="جمهوری دومینیکن"/>
    <tag k="name:fi" v="Dominikaaninen tasavalta"/>
    <tag k="name:fr" v="République Dominicaine"/>
    <tag k="name:fy" v="de Dominikaanske Republyk"/>
    <tag k="name:gd" v="Poblachd Dhoiminicia"/>
    <tag k="name:he" v="דומיניק"/>
    <tag k="name:hu" v="Dominikai Köztársaság"/>
    <tag k="name:id" v="Republik Dominika"/>
    <tag k="name:is" v="Dóminíska lýðveldið"/>
    <tag k="name:it" v="Repubblica Dominicana"/>
    <tag k="name:lb" v="Dominikanesch Republik"/>
    <tag k="name:li" v="Dominicaanse Rippebliek"/>
    <tag k="name:lt" v="Dominikos Respublika"/>
    <tag k="name:mn" v="Доминиканы Бүгд Найрамдах Улс"/>
    <tag k="name:nl" v="Dominicaanse Republiek"/>
    <tag k="name:pl" v="Dominikana"/>
    <tag k="name:ru" v="Доминиканская Республика"/>
    <tag k="name:sl" v="Dominikanska republika"/>
    <tag k="name:sv" v="Dominikanska republiken"/>
    <tag k="name:th" v="สาธารณรัฐโดมินิกัน"/>
    <tag k="name:tr" v="Dominik Cumhuriyeti"/>
    <tag k="name:vi" v="Cộng hòa Dominicana"/>
    <tag k="name:zh" v="多明尼加共和國"/>
    <tag k="official_name:pl" v="Republika Dominikańska"/>
    <tag k="place" v="country"/>
    <tag k="wikipedia" v="Dominican Republic"/>
  </node>
  <node id="246422158" version="37" timestamp="2009-08-18T20:50:08Z" uid="48796" user="Ldp" changeset="2195220" lat="19.0941606" lon="-70.3012656">
    <tag k="capital_city" v="Santo Domingo"/>
    <tag k="country_code_fips" v="DR"/>
    <tag k="country_code_iso3166_1_alpha_2" v="DO"/>
    <tag k="is_in:continent" v="North America"/>
    <tag k="is_in:sea" v="Caribbean Sea"/>
    <tag k="name" v="República Dominicana"/>
    <tag k="name:af" v="Dominikaanse Republiek"/>
    <tag k="name:ar" v="الجمهورية الدومينيكية"/>
    <tag k="name:br" v="Republik Dominikan"/>
    <tag k="name:cy" v="Gweriniaeth Dominica"/>
    <tag k="name:da" v="Dominikanske Republik"/>
    <tag k="name:de" v="Dominikanische Republik"/>
    <tag k="name:do" v="República Dominicána"/>
    <tag k="name:el" v="Δομινικανή Δημοκρατία"/>
    <tag k="name:en" v="Dominican Republic"/>
    <tag k="name:eo" v="Domingo"/>
    <tag k="name:et" v="Dominikaani Vabariik"/>
    <tag k="name:fa" v="جمهوری دومینیکن"/>
    <tag k="name:fi" v="Dominikaaninen tasavalta"/>
    <tag k="name:fr" v="République Dominicaine"/>
    <tag k="name:fy" v="de Dominikaanske Republyk"/>
    <tag k="name:gd" v="Poblachd Dhoiminicia"/>
    <tag k="name:he" v="דומיניק"/>
    <tag k="name:hu" v="Dominikai Köztársaság"/>
    <tag k="name:id" v="Republik Dominika"/>
    <tag k="name:is" v="Dóminíska lýðveldið"/>
    <tag k="name:it" v="Repubblica Dominicana"/>
    <tag k="name:la" v="Respublica Dominicana"/>
    <tag k="name:lb" v="Dominikanesch Republik"/>
    <tag k="name:li" v="Dominicaanse Rippebliek"/>
    <tag k="name:lt" v="Dominikos Respublika"/>
    <tag k="name:mn" v="Доминиканы Бүгд Найрамдах Улс"/>
    <tag k="name:nl" v="Dominicaanse Republiek"/>
    <tag k="name:pl" v="Dominikana"/>
    <tag k="name:ru" v="Доминиканская Республика"/>
    <tag k="name:sl" v="Dominikanska republika"/>
    <tag k="name:sv" v="Dominikanska republiken"/>
    <tag k="name:th" v="สาธารณรัฐโดมินิกัน"/>
    <tag k="name:tr" v="Dominik Cumhuriyeti"/>
    <tag k="name:vi" v="Cộng hòa Dominicana"/>
    <tag k="name:zh" v="多明尼加共和國"/>
    <tag k="official_name:pl" v="Republika Dominikańska"/>
    <tag k="place" v="country"/>
    <tag k="wikipedia" v="Dominican Republic"/>
  </node>
  <node id="246422158" version="38" timestamp="2009-08-21T21:23:16Z" uid="1379" user="AndrewMcCarthy" changeset="2228830" lat="19.0941606" lon="-70.3012656">
    <tag k="capital_city" v="Santo Domingo"/>
    <tag k="country_code_fips" v="DR"/>
    <tag k="country_code_iso3166_1_alpha_2" v="DO"/>
    <tag k="is_in:continent" v="North America"/>
    <tag k="is_in:sea" v="Caribbean Sea"/>
    <tag k="name" v="República Dominicana"/>
    <tag k="name:af" v="Dominikaanse Republiek"/>
    <tag k="name:ar" v="الجمهورية الدومينيكية"/>
    <tag k="name:br" v="Republik Dominikan"/>
    <tag k="name:cy" v="Gweriniaeth Dominica"/>
    <tag k="name:da" v="Dominikanske Republik"/>
    <tag k="name:de" v="Dominikanische Republik"/>
    <tag k="name:do" v="República Dominicána"/>
    <tag k="name:el" v="Δομινικανή Δημοκρατία"/>
    <tag k="name:en" v="Dominican Republic"/>
    <tag k="name:eo" v="Domingo"/>
    <tag k="name:et" v="Dominikaani Vabariik"/>
    <tag k="name:fa" v="جمهوری دومینیکن"/>
    <tag k="name:fi" v="Dominikaaninen tasavalta"/>
    <tag k="name:fr" v="République Dominicaine"/>
    <tag k="name:fy" v="de Dominikaanske Republyk"/>
    <tag k="name:ga" v="An Phoblacht Dhoiminiceach"/>
    <tag k="name:gd" v="Poblachd Dhoiminicia"/>
    <tag k="name:he" v="דומיניק"/>
    <tag k="name:hu" v="Dominikai Köztársaság"/>
    <tag k="name:id" v="Republik Dominika"/>
    <tag k="name:is" v="Dóminíska lýðveldið"/>
    <tag k="name:it" v="Repubblica Dominicana"/>
    <tag k="name:la" v="Respublica Dominicana"/>
    <tag k="name:lb" v="Dominikanesch Republik"/>
    <tag k="name:li" v="Dominicaanse Rippebliek"/>
    <tag k="name:lt" v="Dominikos Respublika"/>
    <tag k="name:mn" v="Доминиканы Бүгд Найрамдах Улс"/>
    <tag k="name:nl" v="Dominicaanse Republiek"/>
    <tag k="name:pl" v="Dominikana"/>
    <tag k="name:ru" v="Доминиканская Республика"/>
    <tag k="name:sl" v="Dominikanska republika"/>
    <tag k="name:sv" v="Dominikanska republiken"/>
    <tag k="name:th" v="สาธารณรัฐโดมินิกัน"/>
    <tag k="name:tr" v="Dominik Cumhuriyeti"/>
    <tag k="name:vi" v="Cộng hòa Dominicana"/>
    <tag k="name:zh" v="多明尼加共和國"/>
    <tag k="official_name:pl" v="Republika Dominikańska"/>
    <tag k="place" v="country"/>
    <tag k="wikipedia" v="Dominican Republic"/>
  </node>
  <node id="246422158" version="39" timestamp="2009-08-30T19:31:07Z" uid="22556" user="Lafriks" changeset="2318635" lat="19.0941636" lon="-70.3012664">
    <tag k="capital_city" v="Santo Domingo"/>
    <tag k="country_code_fips" v="DR"/>
    <tag k="country_code_iso3166_1_alpha_2" v="DO"/>
    <tag k="is_in:continent" v="North America"/>
    <tag k="is_in:sea" v="Caribbean Sea"/>
    <tag k="name" v="República Dominicana"/>
    <tag k="name:af" v="Dominikaanse Republiek"/>
    <tag k="name:ar" v="الجمهورية الدومينيكية"/>
    <tag k="name:br" v="Republik Dominikan"/>
    <tag k="name:cy" v="Gweriniaeth Dominica"/>
    <tag k="name:da" v="Dominikanske Republik"/>
    <tag k="name:de" v="Dominikanische Republik"/>
    <tag k="name:do" v="República Dominicána"/>
    <tag k="name:el" v="Δομινικανή Δημοκρατία"/>
    <tag k="name:en" v="Dominican Republic"/>
    <tag k="name:eo" v="Domingo"/>
    <tag k="name:et" v="Dominikaani Vabariik"/>
    <tag k="name:fa" v="جمهوری دومینیکن"/>
    <tag k="name:fi" v="Dominikaaninen tasavalta"/>
    <tag k="name:fr" v="République Dominicaine"/>
    <tag k="name:fy" v="de Dominikaanske Republyk"/>
    <tag k="name:ga" v="An Phoblacht Dhoiminiceach"/>
    <tag k="name:gd" v="Poblachd Dhoiminicia"/>
    <tag k="name:he" v="דומיניק"/>
    <tag k="name:hu" v="Dominikai Köztársaság"/>
    <tag k="name:id" v="Republik Dominika"/>
    <tag k="name:is" v="Dóminíska lýðveldið"/>
    <tag k="name:it" v="Repubblica Dominicana"/>
    <tag k="name:la" v="Respublica Dominicana"/>
    <tag k="name:lb" v="Dominikanesch Republik"/>
    <tag k="name:li" v="Dominicaanse Rippebliek"/>
    <tag k="name:lt" v="Dominikos Respublika"/>
    <tag k="name:lv" v="Dominikānas Republika"/>
    <tag k="name:mn" v="Доминиканы Бүгд Найрамдах Улс"/>
    <tag k="name:nl" v="Dominicaanse Republiek"/>
    <tag k="name:pl" v="Dominikana"/>
    <tag k="name:ru" v="Доминиканская Республика"/>
    <tag k="name:sl" v="Dominikanska republika"/>
    <tag k="name:sv" v="Dominikanska republiken"/>
    <tag k="name:th" v="สาธารณรัฐโดมินิกัน"/>
    <tag k="name:tr" v="Dominik Cumhuriyeti"/>
    <tag k="name:vi" v="Cộng hòa Dominicana"/>
    <tag k="name:zh" v="多明尼加共和國"/>
    <tag k="official_name:pl" v="Republika Dominikańska"/>
    <tag k="place" v="country"/>
    <tag k="wikipedia" v="Dominican Republic"/>
  </node>
  <node id="246422158" version="40" timestamp="2009-09-01T11:18:04Z" uid="65077" user="mishok13" changeset="2336372" lat="19.0941687" lon="-70.3012702">
    <tag k="capital_city" v="Santo Domingo"/>
    <tag k="country_code_fips" v="DR"/>
    <tag k="country_code_iso3166_1_alpha_2" v="DO"/>
    <tag k="is_in:continent" v="North America"/>
    <tag k="is_in:sea" v="Caribbean Sea"/>
    <tag k="name" v="República Dominicana"/>
    <tag k="name:af" v="Dominikaanse Republiek"/>
    <tag k="name:ar" v="الجمهورية الدومينيكية"/>
    <tag k="name:br" v="Republik Dominikan"/>
    <tag k="name:cy" v="Gweriniaeth Dominica"/>
    <tag k="name:da" v="Dominikanske Republik"/>
    <tag k="name:de" v="Dominikanische Republik"/>
    <tag k="name:do" v="República Dominicána"/>
    <tag k="name:el" v="Δομινικανή Δημοκρατία"/>
    <tag k="name:en" v="Dominican Republic"/>
    <tag k="name:eo" v="Domingo"/>
    <tag k="name:et" v="Dominikaani Vabariik"/>
    <tag k="name:fa" v="جمهوری دومینیکن"/>
    <tag k="name:fi" v="Dominikaaninen tasavalta"/>
    <tag k="name:fr" v="République Dominicaine"/>
    <tag k="name:fy" v="de Dominikaanske Republyk"/>
    <tag k="name:ga" v="An Phoblacht Dhoiminiceach"/>
    <tag k="name:gd" v="Poblachd Dhoiminicia"/>
    <tag k="name:he" v="דומיניק"/>
    <tag k="name:hu" v="Dominikai Köztársaság"/>
    <tag k="name:id" v="Republik Dominika"/>
    <tag k="name:is" v="Dóminíska lýðveldið"/>
    <tag k="name:it" v="Repubblica Dominicana"/>
    <tag k="name:la" v="Respublica Dominicana"/>
    <tag k="name:lb" v="Dominikanesch Republik"/>
    <tag k="name:li" v="Dominicaanse Rippebliek"/>
    <tag k="name:lt" v="Dominikos Respublika"/>
    <tag k="name:lv" v="Dominikānas Republika"/>
    <tag k="name:mn" v="Доминиканы Бүгд Найрамдах Улс"/>
    <tag k="name:nl" v="Dominicaanse Republiek"/>
    <tag k="name:pl" v="Dominikana"/>
    <tag k="name:ru" v="Доминиканская Республика"/>
    <tag k="name:sl" v="Dominikanska republika"/>
    <tag k="name:sv" v="Dominikanska republiken"/>
    <tag k="name:th" v="สาธารณรัฐโดมินิกัน"/>
    <tag k="name:tr" v="Dominik Cumhuriyeti"/>
    <tag k="name:uk" v="Домініканська Республіка"/>
    <tag k="name:vi" v="Cộng hòa Dominicana"/>
    <tag k="name:zh" v="多明尼加共和國"/>
    <tag k="official_name:pl" v="Republika Dominikańska"/>
    <tag k="place" v="country"/>
    <tag k="wikipedia" v="Dominican Republic"/>
  </node>
  <node id="246422158" version="41" timestamp="2009-09-01T15:12:57Z" uid="148025" user="mvrban" changeset="2338759" lat="19.0941687" lon="-70.3012702">
    <tag k="capital_city" v="Santo Domingo"/>
    <tag k="country_code_fips" v="DR"/>
    <tag k="country_code_iso3166_1_alpha_2" v="DO"/>
    <tag k="is_in:continent" v="North America"/>
    <tag k="is_in:sea" v="Caribbean Sea"/>
    <tag k="name" v="República Dominicana"/>
    <tag k="name:af" v="Dominikaanse Republiek"/>
    <tag k="name:ar" v="الجمهورية الدومينيكية"/>
    <tag k="name:br" v="Republik Dominikan"/>
    <tag k="name:cy" v="Gweriniaeth Dominica"/>
    <tag k="name:da" v="Dominikanske Republik"/>
    <tag k="name:de" v="Dominikanische Republik"/>
    <tag k="name:do" v="República Dominicána"/>
    <tag k="name:el" v="Δομινικανή Δημοκρατία"/>
    <tag k="name:en" v="Dominican Republic"/>
    <tag k="name:eo" v="Domingo"/>
    <tag k="name:et" v="Dominikaani Vabariik"/>
    <tag k="name:fa" v="جمهوری دومینیکن"/>
    <tag k="name:fi" v="Dominikaaninen tasavalta"/>
    <tag k="name:fr" v="République Dominicaine"/>
    <tag k="name:fy" v="de Dominikaanske Republyk"/>
    <tag k="name:ga" v="An Phoblacht Dhoiminiceach"/>
    <tag k="name:gd" v="Poblachd Dhoiminicia"/>
    <tag k="name:he" v="דומיניק"/>
    <tag k="name:hr" v="Dominikanska Republika"/>
    <tag k="name:hu" v="Dominikai Köztársaság"/>
    <tag k="name:id" v="Republik Dominika"/>
    <tag k="name:is" v="Dóminíska lýðveldið"/>
    <tag k="name:it" v="Repubblica Dominicana"/>
    <tag k="name:la" v="Respublica Dominicana"/>
    <tag k="name:lb" v="Dominikanesch Republik"/>
    <tag k="name:li" v="Dominicaanse Rippebliek"/>
    <tag k="name:lt" v="Dominikos Respublika"/>
    <tag k="name:lv" v="Dominikānas Republika"/>
    <tag k="name:mn" v="Доминиканы Бүгд Найрамдах Улс"/>
    <tag k="name:nl" v="Dominicaanse Republiek"/>
    <tag k="name:pl" v="Dominikana"/>
    <tag k="name:ru" v="Доминиканская Республика"/>
    <tag k="name:sl" v="Dominikanska republika"/>
    <tag k="name:sv" v="Dominikanska republiken"/>
    <tag k="name:th" v="สาธารณรัฐโดมินิกัน"/>
    <tag k="name:tr" v="Dominik Cumhuriyeti"/>
    <tag k="name:uk" v="Домініканська Республіка"/>
    <tag k="name:vi" v="Cộng hòa Dominicana"/>
    <tag k="name:zh" v="多明尼加共和國"/>
    <tag k="official_name:pl" v="Republika Dominikańska"/>
    <tag k="place" v="country"/>
    <tag k="wikipedia" v="Dominican Republic"/>
  </node>
  <node id="246422158" version="42" timestamp="2009-09-07T18:19:50Z" uid="84468" user="nazotoko" changeset="2405788" lat="19.0941687" lon="-70.3012702">
    <tag k="capital_city" v="Santo Domingo"/>
    <tag k="country_code_fips" v="DR"/>
    <tag k="country_code_iso3166_1_alpha_2" v="DO"/>
    <tag k="is_in:continent" v="North America"/>
    <tag k="is_in:sea" v="Caribbean Sea"/>
    <tag k="name" v="República Dominicana"/>
    <tag k="name:af" v="Dominikaanse Republiek"/>
    <tag k="name:ar" v="الجمهورية الدومينيكية"/>
    <tag k="name:br" v="Republik Dominikan"/>
    <tag k="name:cy" v="Gweriniaeth Dominica"/>
    <tag k="name:da" v="Dominikanske Republik"/>
    <tag k="name:de" v="Dominikanische Republik"/>
    <tag k="name:do" v="República Dominicána"/>
    <tag k="name:el" v="Δομινικανή Δημοκρατία"/>
    <tag k="name:en" v="Dominican Republic"/>
    <tag k="name:eo" v="Domingo"/>
    <tag k="name:et" v="Dominikaani Vabariik"/>
    <tag k="name:fa" v="جمهوری دومینیکن"/>
    <tag k="name:fi" v="Dominikaaninen tasavalta"/>
    <tag k="name:fr" v="République Dominicaine"/>
    <tag k="name:fy" v="de Dominikaanske Republyk"/>
    <tag k="name:ga" v="An Phoblacht Dhoiminiceach"/>
    <tag k="name:gd" v="Poblachd Dhoiminicia"/>
    <tag k="name:he" v="דומיניק"/>
    <tag k="name:hr" v="Dominikanska Republika"/>
    <tag k="name:hu" v="Dominikai Köztársaság"/>
    <tag k="name:id" v="Republik Dominika"/>
    <tag k="name:is" v="Dóminíska lýðveldið"/>
    <tag k="name:it" v="Repubblica Dominicana"/>
    <tag k="name:ja" v="ドミニカ"/>
    <tag k="name:la" v="Respublica Dominicana"/>
    <tag k="name:lb" v="Dominikanesch Republik"/>
    <tag k="name:li" v="Dominicaanse Rippebliek"/>
    <tag k="name:lt" v="Dominikos Respublika"/>
    <tag k="name:lv" v="Dominikānas Republika"/>
    <tag k="name:mn" v="Доминиканы Бүгд Найрамдах Улс"/>
    <tag k="name:nl" v="Dominicaanse Republiek"/>
    <tag k="name:pl" v="Dominikana"/>
    <tag k="name:ru" v="Доминиканская Республика"/>
    <tag k="name:sl" v="Dominikanska republika"/>
    <tag k="name:sv" v="Dominikanska republiken"/>
    <tag k="name:th" v="สาธารณรัฐโดมินิกัน"/>
    <tag k="name:tr" v="Dominik Cumhuriyeti"/>
    <tag k="name:uk" v="Домініканська Республіка"/>
    <tag k="name:vi" v="Cộng hòa Dominicana"/>
    <tag k="name:zh" v="多明尼加共和國"/>
    <tag k="official_name:ja" v="ドミニカ共和国"/>
    <tag k="official_name:pl" v="Republika Dominikańska"/>
    <tag k="place" v="country"/>
    <tag k="wikipedia" v="Dominican Republic"/>
  </node>
  <node id="246422158" version="43" timestamp="2009-09-07T18:20:22Z" uid="84468" user="nazotoko" changeset="2405801" lat="19.0941687" lon="-70.3012702">
    <tag k="capital_city" v="Santo Domingo"/>
    <tag k="country_code_fips" v="DR"/>
    <tag k="country_code_iso3166_1_alpha_2" v="DO"/>
    <tag k="is_in:continent" v="North America"/>
    <tag k="is_in:sea" v="Caribbean Sea"/>
    <tag k="name" v="República Dominicana"/>
    <tag k="name:af" v="Dominikaanse Republiek"/>
    <tag k="name:ar" v="الجمهورية الدومينيكية"/>
    <tag k="name:br" v="Republik Dominikan"/>
    <tag k="name:cy" v="Gweriniaeth Dominica"/>
    <tag k="name:da" v="Dominikanske Republik"/>
    <tag k="name:de" v="Dominikanische Republik"/>
    <tag k="name:do" v="República Dominicána"/>
    <tag k="name:el" v="Δομινικανή Δημοκρατία"/>
    <tag k="name:en" v="Dominican Republic"/>
    <tag k="name:eo" v="Domingo"/>
    <tag k="name:et" v="Dominikaani Vabariik"/>
    <tag k="name:fa" v="جمهوری دومینیکن"/>
    <tag k="name:fi" v="Dominikaaninen tasavalta"/>
    <tag k="name:fr" v="République Dominicaine"/>
    <tag k="name:fy" v="de Dominikaanske Republyk"/>
    <tag k="name:ga" v="An Phoblacht Dhoiminiceach"/>
    <tag k="name:gd" v="Poblachd Dhoiminicia"/>
    <tag k="name:he" v="דומיניק"/>
    <tag k="name:hr" v="Dominikanska Republika"/>
    <tag k="name:hu" v="Dominikai Köztársaság"/>
    <tag k="name:id" v="Republik Dominika"/>
    <tag k="name:is" v="Dóminíska lýðveldið"/>
    <tag k="name:it" v="Repubblica Dominicana"/>
    <tag k="name:ja" v="ドミニカ共和国"/>
    <tag k="name:la" v="Respublica Dominicana"/>
    <tag k="name:lb" v="Dominikanesch Republik"/>
    <tag k="name:li" v="Dominicaanse Rippebliek"/>
    <tag k="name:lt" v="Dominikos Respublika"/>
    <tag k="name:lv" v="Dominikānas Republika"/>
    <tag k="name:mn" v="Доминиканы Бүгд Найрамдах Улс"/>
    <tag k="name:nl" v="Dominicaanse Republiek"/>
    <tag k="name:pl" v="Dominikana"/>
    <tag k="name:ru" v="Доминиканская Республика"/>
    <tag k="name:sl" v="Dominikanska republika"/>
    <tag k="name:sv" v="Dominikanska republiken"/>
    <tag k="name:th" v="สาธารณรัฐโดมินิกัน"/>
    <tag k="name:tr" v="Dominik Cumhuriyeti"/>
    <tag k="name:uk" v="Домініканська Республіка"/>
    <tag k="name:vi" v="Cộng hòa Dominicana"/>
    <tag k="name:zh" v="多明尼加共和國"/>
    <tag k="official_name:ja" v="ドミニカ共和国"/>
    <tag k="official_name:pl" v="Republika Dominikańska"/>
    <tag k="place" v="country"/>
    <tag k="wikipedia" v="Dominican Republic"/>
  </node>
  <node id="246422158" version="44" timestamp="2009-09-11T14:59:43Z" uid="10345" user="Mormegil" changeset="2447653" lat="19.0941687" lon="-70.3012702">
    <tag k="capital_city" v="Santo Domingo"/>
    <tag k="country_code_fips" v="DR"/>
    <tag k="country_code_iso3166_1_alpha_2" v="DO"/>
    <tag k="is_in:continent" v="North America"/>
    <tag k="is_in:sea" v="Caribbean Sea"/>
    <tag k="name" v="República Dominicana"/>
    <tag k="name:af" v="Dominikaanse Republiek"/>
    <tag k="name:ar" v="الجمهورية الدومينيكية"/>
    <tag k="name:br" v="Republik Dominikan"/>
    <tag k="name:cs" v="Dominikánská republika"/>
    <tag k="name:cy" v="Gweriniaeth Dominica"/>
    <tag k="name:da" v="Dominikanske Republik"/>
    <tag k="name:de" v="Dominikanische Republik"/>
    <tag k="name:do" v="República Dominicána"/>
    <tag k="name:el" v="Δομινικανή Δημοκρατία"/>
    <tag k="name:en" v="Dominican Republic"/>
    <tag k="name:eo" v="Domingo"/>
    <tag k="name:et" v="Dominikaani Vabariik"/>
    <tag k="name:fa" v="جمهوری دومینیکن"/>
    <tag k="name:fi" v="Dominikaaninen tasavalta"/>
    <tag k="name:fr" v="République Dominicaine"/>
    <tag k="name:fy" v="de Dominikaanske Republyk"/>
    <tag k="name:ga" v="An Phoblacht Dhoiminiceach"/>
    <tag k="name:gd" v="Poblachd Dhoiminicia"/>
    <tag k="name:he" v="דומיניק"/>
    <tag k="name:hr" v="Dominikanska Republika"/>
    <tag k="name:hu" v="Dominikai Köztársaság"/>
    <tag k="name:id" v="Republik Dominika"/>
    <tag k="name:is" v="Dóminíska lýðveldið"/>
    <tag k="name:it" v="Repubblica Dominicana"/>
    <tag k="name:ja" v="ドミニカ共和国"/>
    <tag k="name:la" v="Respublica Dominicana"/>
    <tag k="name:lb" v="Dominikanesch Republik"/>
    <tag k="name:li" v="Dominicaanse Rippebliek"/>
    <tag k="name:lt" v="Dominikos Respublika"/>
    <tag k="name:lv" v="Dominikānas Republika"/>
    <tag k="name:mn" v="Доминиканы Бүгд Найрамдах Улс"/>
    <tag k="name:nl" v="Dominicaanse Republiek"/>
    <tag k="name:pl" v="Dominikana"/>
    <tag k="name:ru" v="Доминиканская Республика"/>
    <tag k="name:sl" v="Dominikanska republika"/>
    <tag k="name:sv" v="Dominikanska republiken"/>
    <tag k="name:th" v="สาธารณรัฐโดมินิกัน"/>
    <tag k="name:tr" v="Dominik Cumhuriyeti"/>
    <tag k="name:uk" v="Домініканська Республіка"/>
    <tag k="name:vi" v="Cộng hòa Dominicana"/>
    <tag k="name:zh" v="多明尼加共和國"/>
    <tag k="official_name:ja" v="ドミニカ共和国"/>
    <tag k="official_name:pl" v="Republika Dominikańska"/>
    <tag k="place" v="country"/>
    <tag k="wikipedia" v="Dominican Republic"/>
  </node>
  <node id="246422158" version="45" timestamp="2009-09-11T20:35:07Z" uid="28773" user="Joan Montané" changeset="2451492" lat="19.094175" lon="-70.3012705">
    <tag k="capital_city" v="Santo Domingo"/>
    <tag k="country_code_fips" v="DR"/>
    <tag k="country_code_iso3166_1_alpha_2" v="DO"/>
    <tag k="is_in:continent" v="North America"/>
    <tag k="is_in:sea" v="Caribbean Sea"/>
    <tag k="name" v="República Dominicana"/>
    <tag k="name:af" v="Dominikaanse Republiek"/>
    <tag k="name:ar" v="الجمهورية الدومينيكية"/>
    <tag k="name:br" v="Republik Dominikan"/>
    <tag k="name:ca" v="República Dominicana"/>
    <tag k="name:cs" v="Dominikánská republika"/>
    <tag k="name:cy" v="Gweriniaeth Dominica"/>
    <tag k="name:da" v="Dominikanske Republik"/>
    <tag k="name:de" v="Dominikanische Republik"/>
    <tag k="name:do" v="República Dominicána"/>
    <tag k="name:el" v="Δομινικανή Δημοκρατία"/>
    <tag k="name:en" v="Dominican Republic"/>
    <tag k="name:eo" v="Domingo"/>
    <tag k="name:et" v="Dominikaani Vabariik"/>
    <tag k="name:fa" v="جمهوری دومینیکن"/>
    <tag k="name:fi" v="Dominikaaninen tasavalta"/>
    <tag k="name:fr" v="République Dominicaine"/>
    <tag k="name:fy" v="de Dominikaanske Republyk"/>
    <tag k="name:ga" v="An Phoblacht Dhoiminiceach"/>
    <tag k="name:gd" v="Poblachd Dhoiminicia"/>
    <tag k="name:he" v="דומיניק"/>
    <tag k="name:hr" v="Dominikanska Republika"/>
    <tag k="name:hu" v="Dominikai Köztársaság"/>
    <tag k="name:id" v="Republik Dominika"/>
    <tag k="name:is" v="Dóminíska lýðveldið"/>
    <tag k="name:it" v="Repubblica Dominicana"/>
    <tag k="name:ja" v="ドミニカ共和国"/>
    <tag k="name:la" v="Respublica Dominicana"/>
    <tag k="name:lb" v="Dominikanesch Republik"/>
    <tag k="name:li" v="Dominicaanse Rippebliek"/>
    <tag k="name:lt" v="Dominikos Respublika"/>
    <tag k="name:lv" v="Dominikānas Republika"/>
    <tag k="name:mn" v="Доминиканы Бүгд Найрамдах Улс"/>
    <tag k="name:nl" v="Dominicaanse Republiek"/>
    <tag k="name:pl" v="Dominikana"/>
    <tag k="name:ru" v="Доминиканская Республика"/>
    <tag k="name:sl" v="Dominikanska republika"/>
    <tag k="name:sv" v="Dominikanska republiken"/>
    <tag k="name:th" v="สาธารณรัฐโดมินิกัน"/>
    <tag k="name:tr" v="Dominik Cumhuriyeti"/>
    <tag k="name:uk" v="Домініканська Республіка"/>
    <tag k="name:vi" v="Cộng hòa Dominicana"/>
    <tag k="name:zh" v="多明尼加共和國"/>
    <tag k="official_name:ja" v="ドミニカ共和国"/>
    <tag k="official_name:pl" v="Republika Dominikańska"/>
    <tag k="place" v="country"/>
    <tag k="wikipedia" v="Dominican Republic"/>
  </node>
  <node id="246422158" version="46" timestamp="2009-11-16T20:30:23Z" uid="29717" user="eumiro" changeset="3135700" lat="19.094175" lon="-70.3012705">
    <tag k="capital_city" v="Santo Domingo"/>
    <tag k="country_code_fips" v="DR"/>
    <tag k="country_code_iso3166_1_alpha_2" v="DO"/>
    <tag k="is_in:continent" v="North America"/>
    <tag k="is_in:sea" v="Caribbean Sea"/>
    <tag k="name" v="República Dominicana"/>
    <tag k="name:af" v="Dominikaanse Republiek"/>
    <tag k="name:ar" v="الجمهورية الدومينيكية"/>
    <tag k="name:br" v="Republik Dominikan"/>
    <tag k="name:ca" v="República Dominicana"/>
    <tag k="name:cs" v="Dominikánská republika"/>
    <tag k="name:cy" v="Gweriniaeth Dominica"/>
    <tag k="name:da" v="Dominikanske Republik"/>
    <tag k="name:de" v="Dominikanische Republik"/>
    <tag k="name:do" v="República Dominicána"/>
    <tag k="name:el" v="Δομινικανή Δημοκρατία"/>
    <tag k="name:en" v="Dominican Republic"/>
    <tag k="name:eo" v="Domingo"/>
    <tag k="name:et" v="Dominikaani Vabariik"/>
    <tag k="name:fa" v="جمهوری دومینیکن"/>
    <tag k="name:fi" v="Dominikaaninen tasavalta"/>
    <tag k="name:fr" v="République Dominicaine"/>
    <tag k="name:fy" v="de Dominikaanske Republyk"/>
    <tag k="name:ga" v="An Phoblacht Dhoiminiceach"/>
    <tag k="name:gd" v="Poblachd Dhoiminicia"/>
    <tag k="name:he" v="דומיניק"/>
    <tag k="name:hr" v="Dominikanska Republika"/>
    <tag k="name:hu" v="Dominikai Köztársaság"/>
    <tag k="name:id" v="Republik Dominika"/>
    <tag k="name:is" v="Dóminíska lýðveldið"/>
    <tag k="name:it" v="Repubblica Dominicana"/>
    <tag k="name:ja" v="ドミニカ共和国"/>
    <tag k="name:la" v="Respublica Dominicana"/>
    <tag k="name:lb" v="Dominikanesch Republik"/>
    <tag k="name:li" v="Dominicaanse Rippebliek"/>
    <tag k="name:lt" v="Dominikos Respublika"/>
    <tag k="name:lv" v="Dominikānas Republika"/>
    <tag k="name:mn" v="Доминиканы Бүгд Найрамдах Улс"/>
    <tag k="name:nl" v="Dominicaanse Republiek"/>
    <tag k="name:pl" v="Dominikana"/>
    <tag k="name:ru" v="Доминиканская Республика"/>
    <tag k="name:sk" v="Dominikánska republika"/>
    <tag k="name:sl" v="Dominikanska republika"/>
    <tag k="name:sv" v="Dominikanska republiken"/>
    <tag k="name:th" v="สาธารณรัฐโดมินิกัน"/>
    <tag k="name:tr" v="Dominik Cumhuriyeti"/>
    <tag k="name:uk" v="Домініканська Республіка"/>
    <tag k="name:vi" v="Cộng hòa Dominicana"/>
    <tag k="name:zh" v="多明尼加共和國"/>
    <tag k="official_name:ja" v="ドミニカ共和国"/>
    <tag k="official_name:pl" v="Republika Dominikańska"/>
    <tag k="place" v="country"/>
    <tag k="wikipedia" v="Dominican Republic"/>
  </node>
  <node id="246422158" version="47" timestamp="2010-01-16T12:29:23Z" uid="42429" user="FK270673" changeset="3630975" lat="19.094175" lon="-70.3012705">
    <tag k="capital_city" v="Santo Domingo"/>
    <tag k="country_code_fips" v="DR"/>
    <tag k="country_code_iso3166_1_alpha_2" v="DO"/>
    <tag k="is_in:continent" v="North America"/>
    <tag k="is_in:sea" v="Caribbean Sea"/>
    <tag k="name" v="República Dominicana"/>
    <tag k="name:af" v="Dominikaanse Republiek"/>
    <tag k="name:ar" v="الجمهورية الدومينيكية"/>
    <tag k="name:br" v="Republik Dominikan"/>
    <tag k="name:ca" v="República Dominicana"/>
    <tag k="name:cs" v="Dominikánská republika"/>
    <tag k="name:cy" v="Gweriniaeth Dominica"/>
    <tag k="name:da" v="Dominikanske Republik"/>
    <tag k="name:de" v="Dominikanische Republik"/>
    <tag k="name:do" v="República Dominicána"/>
    <tag k="name:el" v="Δομινικανή Δημοκρατία"/>
    <tag k="name:en" v="Dominican Republic"/>
    <tag k="name:eo" v="Domingo"/>
    <tag k="name:et" v="Dominikaani Vabariik"/>
    <tag k="name:fa" v="جمهوری دومینیکن"/>
    <tag k="name:fi" v="Dominikaaninen tasavalta"/>
    <tag k="name:fr" v="République Dominicaine"/>
    <tag k="name:fy" v="de Dominikaanske Republyk"/>
    <tag k="name:ga" v="An Phoblacht Dhoiminiceach"/>
    <tag k="name:gd" v="Poblachd Dhoiminicia"/>
    <tag k="name:he" v="דומיניק"/>
    <tag k="name:hr" v="Dominikanska Republika"/>
    <tag k="name:hu" v="Dominikai Köztársaság"/>
    <tag k="name:id" v="Republik Dominika"/>
    <tag k="name:is" v="Dóminíska lýðveldið"/>
    <tag k="name:it" v="Repubblica Dominicana"/>
    <tag k="name:ja" v="ドミニカ共和国"/>
    <tag k="name:la" v="Respublica Dominicana"/>
    <tag k="name:lb" v="Dominikanesch Republik"/>
    <tag k="name:li" v="Dominicaanse Rippebliek"/>
    <tag k="name:lt" v="Dominikos Respublika"/>
    <tag k="name:lv" v="Dominikānas Republika"/>
    <tag k="name:mn" v="Доминиканы Бүгд Найрамдах Улс"/>
    <tag k="name:nl" v="Dominicaanse Republiek"/>
    <tag k="name:pl" v="Dominikana"/>
    <tag k="name:qu" v="Duminikana"/>
    <tag k="name:ru" v="Доминиканская Республика"/>
    <tag k="name:sk" v="Dominikánska republika"/>
    <tag k="name:sl" v="Dominikanska republika"/>
    <tag k="name:sv" v="Dominikanska republiken"/>
    <tag k="name:tg" v="Ҷумҳурии Доминикана"/>
    <tag k="name:th" v="สาธารณรัฐโดมินิกัน"/>
    <tag k="name:tr" v="Dominik Cumhuriyeti"/>
    <tag k="name:uk" v="Домініканська Республіка"/>
    <tag k="name:vi" v="Cộng hòa Dominicana"/>
    <tag k="name:wo" v="Réewum Dominik"/>
    <tag k="name:yi" v="דאמיניקאנישע רעפובליק"/>
    <tag k="name:yo" v="Dómíníkì Olómìnira"/>
    <tag k="name:zh" v="多明尼加共和國"/>
    <tag k="official_name:ja" v="ドミニカ共和国"/>
    <tag k="official_name:pl" v="Republika Dominikańska"/>
    <tag k="place" v="country"/>
    <tag k="wikipedia" v="Dominican Republic"/>
  </node>
  <node id="246422158" version="48" timestamp="2010-01-16T12:33:01Z" uid="42429" user="FK270673" changeset="3630975" lat="19.094175" lon="-70.3012705">
    <tag k="capital_city" v="Santo Domingo"/>
    <tag k="country_code_fips" v="DR"/>
    <tag k="country_code_iso3166_1_alpha_2" v="DO"/>
    <tag k="is_in:continent" v="North America"/>
    <tag k="is_in:sea" v="Caribbean Sea"/>
    <tag k="name" v="República Dominicana"/>
    <tag k="name:af" v="Dominikaanse Republiek"/>
    <tag k="name:ar" v="الجمهورية الدومينيكية"/>
    <tag k="name:br" v="Republik Dominikan"/>
    <tag k="name:ca" v="República Dominicana"/>
    <tag k="name:cs" v="Dominikánská republika"/>
    <tag k="name:cy" v="Gweriniaeth Dominica"/>
    <tag k="name:da" v="Dominikanske Republik"/>
    <tag k="name:de" v="Dominikanische Republik"/>
    <tag k="name:do" v="República Dominicána"/>
    <tag k="name:el" v="Δομινικανή Δημοκρατία"/>
    <tag k="name:en" v="Dominican Republic"/>
    <tag k="name:eo" v="Domingo"/>
    <tag k="name:et" v="Dominikaani Vabariik"/>
    <tag k="name:fa" v="جمهوری دومینیکن"/>
    <tag k="name:fi" v="Dominikaaninen tasavalta"/>
    <tag k="name:fr" v="République Dominicaine"/>
    <tag k="name:fy" v="de Dominikaanske Republyk"/>
    <tag k="name:ga" v="An Phoblacht Dhoiminiceach"/>
    <tag k="name:gd" v="Poblachd Dhoiminicia"/>
    <tag k="name:he" v="דומיניק"/>
    <tag k="name:hr" v="Dominikanska Republika"/>
    <tag k="name:ht" v="Repiblik dominikàn"/>
    <tag k="name:hu" v="Dominikai Köztársaság"/>
    <tag k="name:id" v="Republik Dominika"/>
    <tag k="name:is" v="Dóminíska lýðveldið"/>
    <tag k="name:it" v="Repubblica Dominicana"/>
    <tag k="name:ja" v="ドミニカ共和国"/>
    <tag k="name:ka" v="დომინიკელთა რესპუბლიკა"/>
    <tag k="name:la" v="Respublica Dominicana"/>
    <tag k="name:lb" v="Dominikanesch Republik"/>
    <tag k="name:li" v="Dominicaanse Rippebliek"/>
    <tag k="name:lt" v="Dominikos Respublika"/>
    <tag k="name:lv" v="Dominikānas Republika"/>
    <tag k="name:mn" v="Доминиканы Бүгд Найрамдах Улс"/>
    <tag k="name:nah" v="Dominicanatlācatlahtohcāyōtl"/>
    <tag k="name:nds" v="Dominikaansche Republiek"/>
    <tag k="name:nl" v="Dominicaanse Republiek"/>
    <tag k="name:pl" v="Dominikana"/>
    <tag k="name:pt" v="República Dominicana"/>
    <tag k="name:qu" v="Duminikana"/>
    <tag k="name:ro" v="Republica Dominicană"/>
    <tag k="name:ru" v="Доминиканская Республика"/>
    <tag k="name:sk" v="Dominikánska republika"/>
    <tag k="name:sl" v="Dominikanska republika"/>
    <tag k="name:sv" v="Dominikanska republiken"/>
    <tag k="name:sw" v="Jamhuri ya Dominika"/>
    <tag k="name:tg" v="Ҷумҳурии Доминикана"/>
    <tag k="name:th" v="สาธารณรัฐโดมินิกัน"/>
    <tag k="name:tl" v="Republikang Dominikana"/>
    <tag k="name:tr" v="Dominik Cumhuriyeti"/>
    <tag k="name:uk" v="Домініканська Республіка"/>
    <tag k="name:vi" v="Cộng hòa Dominicana"/>
    <tag k="name:wo" v="Réewum Dominik"/>
    <tag k="name:yi" v="דאמיניקאנישע רעפובליק"/>
    <tag k="name:yo" v="Dómíníkì Olómìnira"/>
    <tag k="name:zh" v="多明尼加共和國"/>
    <tag k="official_name:ja" v="ドミニカ共和国"/>
    <tag k="official_name:pl" v="Republika Dominikańska"/>
    <tag k="place" v="country"/>
    <tag k="wikipedia" v="Dominican Republic"/>
  </node>
  <node id="246422158" version="49" timestamp="2010-01-16T13:28:19Z" uid="42429" user="FK270673" changeset="3631454" lat="19.0941751" lon="-70.3012706">
    <tag k="capital_city" v="Santo Domingo"/>
    <tag k="country_code_fips" v="DR"/>
    <tag k="country_code_iso3166_1_alpha_2" v="DO"/>
    <tag k="is_in:continent" v="North America"/>
    <tag k="is_in:sea" v="Caribbean Sea"/>
    <tag k="name" v="República Dominicana"/>
    <tag k="name:af" v="Dominikaanse Republiek"/>
    <tag k="name:ar" v="الجمهورية الدومينيكية"/>
    <tag k="name:ast" v="República Dominicana"/>
    <tag k="name:az" v="Dominikan Respublikası"/>
    <tag k="name:bcl" v="Dominikanang Republika"/>
    <tag k="name:bg" v="Доминиканска република"/>
    <tag k="name:bn" v="ডোমিনিকান প্রজাতন্ত্র"/>
    <tag k="name:bo" v="ཌོ་མི་ནི་ཀན་སྤྱི་མཐུན་རྒྱལ་ཁབ།"/>
    <tag k="name:br" v="Republik Dominikan"/>
    <tag k="name:bs" v="Dominikanska Republika"/>
    <tag k="name:ca" v="República Dominicana"/>
    <tag k="name:ceb" v="Republikang Dominicano"/>
    <tag k="name:cs" v="Dominikánská republika"/>
    <tag k="name:cy" v="Gweriniaeth Dominica"/>
    <tag k="name:da" v="Dominikanske Republik"/>
    <tag k="name:de" v="Dominikanische Republik"/>
    <tag k="name:diq" v="Cumurêtê Dominiki"/>
    <tag k="name:do" v="República Dominicána"/>
    <tag k="name:dsb" v="Dominikana"/>
    <tag k="name:dv" v="ޑޮމިނިކަން ޖުމްހޫރިއްޔާ"/>
    <tag k="name:el" v="Δομινικανή Δημοκρατία"/>
    <tag k="name:en" v="Dominican Republic"/>
    <tag k="name:eo" v="Domingo"/>
    <tag k="name:et" v="Dominikaani Vabariik"/>
    <tag k="name:eu" v="Dominikar Errepublika"/>
    <tag k="name:fa" v="جمهوری دومینیکن"/>
    <tag k="name:fi" v="Dominikaaninen tasavalta"/>
    <tag k="name:fiu-vro" v="Dominikaani Vabariik"/>
    <tag k="name:fo" v="Dominikanalýðveldið"/>
    <tag k="name:fr" v="République Dominicaine"/>
    <tag k="name:frp" v="Rèpublica domeniquêna"/>
    <tag k="name:fy" v="de Dominikaanske Republyk"/>
    <tag k="name:ga" v="An Phoblacht Dhoiminiceach"/>
    <tag k="name:gd" v="Poblachd Dhoiminicia"/>
    <tag k="name:gv" v="Yn Phobblaght Ghominicagh"/>
    <tag k="name:hak" v="Tô-mí-nì-kâ Khiung-fò-koet"/>
    <tag k="name:he" v="דומיניק"/>
    <tag k="name:hi" v="डोमिनिकन गणराज्य"/>
    <tag k="name:hr" v="Dominikanska Republika"/>
    <tag k="name:ht" v="Repiblik dominikàn"/>
    <tag k="name:hu" v="Dominikai Köztársaság"/>
    <tag k="name:hy" v="Դոմինիկյան Հանրապետություն"/>
    <tag k="name:ia" v="Republica Dominican"/>
    <tag k="name:id" v="Republik Dominika"/>
    <tag k="name:io" v="Dominikana Republiko"/>
    <tag k="name:is" v="Dóminíska lýðveldið"/>
    <tag k="name:it" v="Repubblica Dominicana"/>
    <tag k="name:ja" v="ドミニカ共和国"/>
    <tag k="name:jv" v="Republik Dominika"/>
    <tag k="name:ka" v="დომინიკელთა რესპუბლიკა"/>
    <tag k="name:kk" v="Доминикан Республикасы"/>
    <tag k="name:ko" v="도미니카 공화국"/>
    <tag k="name:ks" v="डोमोनिकन रिपब्लिक"/>
    <tag k="name:ku" v="Komara Domînîk"/>
    <tag k="name:kw" v="Repoblek Dhominikanek"/>
    <tag k="name:la" v="Respublica Dominicana"/>
    <tag k="name:lb" v="Dominikanesch Republik"/>
    <tag k="name:li" v="Dominicaanse Rippebliek"/>
    <tag k="name:lij" v="Repubbrica Dominicann-a"/>
    <tag k="name:ln" v="Republiki Dominikani"/>
    <tag k="name:lt" v="Dominikos Respublika"/>
    <tag k="name:lv" v="Dominikānas Republika"/>
    <tag k="name:ml" v="ഡൊമനിക്കന്‍ റിപ്പബ്ലിക്"/>
    <tag k="name:mn" v="Доминиканы Бүгд Найрамдах Улс"/>
    <tag k="name:mr" v="डॉमिनिकन प्रजासत्ताक"/>
    <tag k="name:ms" v="Republik Dominika"/>
    <tag k="name:nah" v="Dominicanatlācatlahtohcāyōtl"/>
    <tag k="name:nds" v="Dominikaansche Republiek"/>
    <tag k="name:nl" v="Dominicaanse Republiek"/>
    <tag k="name:nov" v="Dominikal Republike"/>
    <tag k="name:nv" v="Domingo Bikéyah"/>
    <tag k="name:oc" v="Republica Dominicana"/>
    <tag k="name:os" v="Доминиканæйы Республикæ"/>
    <tag k="name:pl" v="Dominikana"/>
    <tag k="name:ps" v="ډومنيکان جمهوريت"/>
    <tag k="name:pt" v="República Dominicana"/>
    <tag k="name:qu" v="Duminikana"/>
    <tag k="name:ro" v="Republica Dominicană"/>
    <tag k="name:ru" v="Доминиканская Республика"/>
    <tag k="name:sa" v="डोमोनिकन रिपब्लिक"/>
    <tag k="name:scn" v="Ripùbbrica Duminicana"/>
    <tag k="name:sk" v="Dominikánska republika"/>
    <tag k="name:sl" v="Dominikanska republika"/>
    <tag k="name:sq" v="Republika Dominikane"/>
    <tag k="name:sr" v="Доминиканска Република"/>
    <tag k="name:sv" v="Dominikanska republiken"/>
    <tag k="name:sw" v="Jamhuri ya Dominika"/>
    <tag k="name:szl" v="Důmińikana"/>
    <tag k="name:ta" v="டொமினிக்கன் குடியரசு"/>
    <tag k="name:tg" v="Ҷумҳурии Доминикана"/>
    <tag k="name:th" v="สาธารณรัฐโดมินิกัน"/>
    <tag k="name:tl" v="Republikang Dominikana"/>
    <tag k="name:tr" v="Dominik Cumhuriyeti"/>
    <tag k="name:ug" v="Dominikan Jumhuriyeti"/>
    <tag k="name:uk" v="Домініканська Республіка"/>
    <tag k="name:ur" v="جمہوریہ ڈومینیکا"/>
    <tag k="name:vi" v="Cộng hòa Dominicana"/>
    <tag k="name:wo" v="Réewum Dominik"/>
    <tag k="name:yi" v="דאמיניקאנישע רעפובליק"/>
    <tag k="name:yo" v="Dómíníkì Olómìnira"/>
    <tag k="name:zh" v="多明尼加共和國"/>
    <tag k="official_name:ja" v="ドミニカ共和国"/>
    <tag k="official_name:pl" v="Republika Dominikańska"/>
    <tag k="place" v="country"/>
    <tag k="wikipedia" v="Dominican Republic"/>
  </node>
  <node id="246422158" version="50" timestamp="2010-06-21T00:12:09Z" uid="7538" user="oyvind" changeset="5038665" lat="19.0941752" lon="-70.3012706">
    <tag k="capital_city" v="Santo Domingo"/>
    <tag k="country_code_fips" v="DR"/>
    <tag k="country_code_iso3166_1_alpha_2" v="DO"/>
    <tag k="is_in:continent" v="North America"/>
    <tag k="is_in:sea" v="Caribbean Sea"/>
    <tag k="name" v="República Dominicana"/>
    <tag k="name:af" v="Dominikaanse Republiek"/>
    <tag k="name:ar" v="الجمهورية الدومينيكية"/>
    <tag k="name:ast" v="República Dominicana"/>
    <tag k="name:az" v="Dominikan Respublikası"/>
    <tag k="name:bcl" v="Dominikanang Republika"/>
    <tag k="name:bg" v="Доминиканска република"/>
    <tag k="name:bn" v="ডোমিনিকান প্রজাতন্ত্র"/>
    <tag k="name:bo" v="ཌོ་མི་ནི་ཀན་སྤྱི་མཐུན་རྒྱལ་ཁབ།"/>
    <tag k="name:br" v="Republik Dominikan"/>
    <tag k="name:bs" v="Dominikanska Republika"/>
    <tag k="name:ca" v="República Dominicana"/>
    <tag k="name:ceb" v="Republikang Dominicano"/>
    <tag k="name:cs" v="Dominikánská republika"/>
    <tag k="name:cy" v="Gweriniaeth Dominica"/>
    <tag k="name:da" v="Dominikanske Republik"/>
    <tag k="name:de" v="Dominikanische Republik"/>
    <tag k="name:diq" v="Cumurêtê Dominiki"/>
    <tag k="name:do" v="República Dominicána"/>
    <tag k="name:dsb" v="Dominikana"/>
    <tag k="name:dv" v="ޑޮމިނިކަން ޖުމްހޫރިއްޔާ"/>
    <tag k="name:el" v="Δομινικανή Δημοκρατία"/>
    <tag k="name:en" v="Dominican Republic"/>
    <tag k="name:eo" v="Domingo"/>
    <tag k="name:et" v="Dominikaani Vabariik"/>
    <tag k="name:eu" v="Dominikar Errepublika"/>
    <tag k="name:fa" v="جمهوری دومینیکن"/>
    <tag k="name:fi" v="Dominikaaninen tasavalta"/>
    <tag k="name:fiu-vro" v="Dominikaani Vabariik"/>
    <tag k="name:fo" v="Dominikanalýðveldið"/>
    <tag k="name:fr" v="République Dominicaine"/>
    <tag k="name:frp" v="Rèpublica domeniquêna"/>
    <tag k="name:fy" v="de Dominikaanske Republyk"/>
    <tag k="name:ga" v="An Phoblacht Dhoiminiceach"/>
    <tag k="name:gd" v="Poblachd Dhoiminicia"/>
    <tag k="name:gv" v="Yn Phobblaght Ghominicagh"/>
    <tag k="name:hak" v="Tô-mí-nì-kâ Khiung-fò-koet"/>
    <tag k="name:he" v="דומיניק"/>
    <tag k="name:hi" v="डोमिनिकन गणराज्य"/>
    <tag k="name:hr" v="Dominikanska Republika"/>
    <tag k="name:ht" v="Repiblik dominikàn"/>
    <tag k="name:hu" v="Dominikai Köztársaság"/>
    <tag k="name:hy" v="Դոմինիկյան Հանրապետություն"/>
    <tag k="name:ia" v="Republica Dominican"/>
    <tag k="name:id" v="Republik Dominika"/>
    <tag k="name:io" v="Dominikana Republiko"/>
    <tag k="name:is" v="Dóminíska lýðveldið"/>
    <tag k="name:it" v="Repubblica Dominicana"/>
    <tag k="name:ja" v="ドミニカ共和国"/>
    <tag k="name:jv" v="Republik Dominika"/>
    <tag k="name:ka" v="დომინიკელთა რესპუბლიკა"/>
    <tag k="name:kk" v="Доминикан Республикасы"/>
    <tag k="name:ko" v="도미니카 공화국"/>
    <tag k="name:ks" v="डोमोनिकन रिपब्लिक"/>
    <tag k="name:ku" v="Komara Domînîk"/>
    <tag k="name:kw" v="Repoblek Dhominikanek"/>
    <tag k="name:la" v="Respublica Dominicana"/>
    <tag k="name:lb" v="Dominikanesch Republik"/>
    <tag k="name:li" v="Dominicaanse Rippebliek"/>
    <tag k="name:lij" v="Repubbrica Dominicann-a"/>
    <tag k="name:ln" v="Republiki Dominikani"/>
    <tag k="name:lt" v="Dominikos Respublika"/>
    <tag k="name:lv" v="Dominikānas Republika"/>
    <tag k="name:ml" v="ഡൊമനിക്കന്‍ റിപ്പബ്ലിക്"/>
    <tag k="name:mn" v="Доминиканы Бүгд Найрамдах Улс"/>
    <tag k="name:mr" v="डॉमिनिकन प्रजासत्ताक"/>
    <tag k="name:ms" v="Republik Dominika"/>
    <tag k="name:nah" v="Dominicanatlācatlahtohcāyōtl"/>
    <tag k="name:nds" v="Dominikaansche Republiek"/>
    <tag k="name:nl" v="Dominicaanse Republiek"/>
    <tag k="name:no" v="Den dominikanske republikk"/>
    <tag k="name:nov" v="Dominikal Republike"/>
    <tag k="name:nv" v="Domingo Bikéyah"/>
    <tag k="name:oc" v="Republica Dominicana"/>
    <tag k="name:os" v="Доминиканæйы Республикæ"/>
    <tag k="name:pl" v="Dominikana"/>
    <tag k="name:ps" v="ډومنيکان جمهوريت"/>
    <tag k="name:pt" v="República Dominicana"/>
    <tag k="name:qu" v="Duminikana"/>
    <tag k="name:ro" v="Republica Dominicană"/>
    <tag k="name:ru" v="Доминиканская Республика"/>
    <tag k="name:sa" v="डोमोनिकन रिपब्लिक"/>
    <tag k="name:scn" v="Ripùbbrica Duminicana"/>
    <tag k="name:sk" v="Dominikánska republika"/>
    <tag k="name:sl" v="Dominikanska republika"/>
    <tag k="name:sq" v="Republika Dominikane"/>
    <tag k="name:sr" v="Доминиканска Република"/>
    <tag k="name:sv" v="Dominikanska republiken"/>
    <tag k="name:sw" v="Jamhuri ya Dominika"/>
    <tag k="name:szl" v="Důmińikana"/>
    <tag k="name:ta" v="டொமினிக்கன் குடியரசு"/>
    <tag k="name:tg" v="Ҷумҳурии Доминикана"/>
    <tag k="name:th" v="สาธารณรัฐโดมินิกัน"/>
    <tag k="name:tl" v="Republikang Dominikana"/>
    <tag k="name:tr" v="Dominik Cumhuriyeti"/>
    <tag k="name:ug" v="Dominikan Jumhuriyeti"/>
    <tag k="name:uk" v="Домініканська Республіка"/>
    <tag k="name:ur" v="جمہوریہ ڈومینیکا"/>
    <tag k="name:vi" v="Cộng hòa Dominicana"/>
    <tag k="name:wo" v="Réewum Dominik"/>
    <tag k="name:yi" v="דאמיניקאנישע רעפובליק"/>
    <tag k="name:yo" v="Dómíníkì Olómìnira"/>
    <tag k="name:zh" v="多明尼加共和國"/>
    <tag k="official_name:ja" v="ドミニカ共和国"/>
    <tag k="official_name:pl" v="Republika Dominikańska"/>
    <tag k="place" v="country"/>
    <tag k="wikipedia" v="Dominican Republic"/>
  </node>
  <node id="246422158" version="51" timestamp="2011-05-28T13:16:24Z" uid="202868" user="Manchito" changeset="8271688" lat="19.0941752" lon="-70.3012706">
    <tag k="capital_city" v="Santo Domingo"/>
    <tag k="country_code_fips" v="DR"/>
    <tag k="country_code_iso3166_1_alpha_2" v="DO"/>
    <tag k="is_in:continent" v="North America"/>
    <tag k="is_in:sea" v="Caribbean Sea"/>
    <tag k="name" v="República Dominicana"/>
    <tag k="name:af" v="Dominikaanse Republiek"/>
    <tag k="name:ar" v="الجمهورية الدومينيكية"/>
    <tag k="name:ast" v="República Dominicana"/>
    <tag k="name:az" v="Dominikan Respublikası"/>
    <tag k="name:bcl" v="Dominikanang Republika"/>
    <tag k="name:bg" v="Доминиканска република"/>
    <tag k="name:bn" v="ডোমিনিকান প্রজাতন্ত্র"/>
    <tag k="name:bo" v="ཌོ་མི་ནི་ཀན་སྤྱི་མཐུན་རྒྱལ་ཁབ།"/>
    <tag k="name:br" v="Republik Dominikan"/>
    <tag k="name:bs" v="Dominikanska Republika"/>
    <tag k="name:ca" v="República Dominicana"/>
    <tag k="name:ceb" v="Republikang Dominicano"/>
    <tag k="name:cs" v="Dominikánská republika"/>
    <tag k="name:cy" v="Gweriniaeth Dominica"/>
    <tag k="name:da" v="Dominikanske Republik"/>
    <tag k="name:de" v="Dominikanische Republik"/>
    <tag k="name:diq" v="Cumurêtê Dominiki"/>
    <tag k="name:do" v="República Dominicána"/>
    <tag k="name:dsb" v="Dominikana"/>
    <tag k="name:dv" v="ޑޮމިނިކަން ޖުމްހޫރިއްޔާ"/>
    <tag k="name:el" v="Δομινικανή Δημοκρατία"/>
    <tag k="name:en" v="Dominican Republic"/>
    <tag k="name:eo" v="Domingo"/>
    <tag k="name:es" v="República Dominicana"/>
    <tag k="name:et" v="Dominikaani Vabariik"/>
    <tag k="name:eu" v="Dominikar Errepublika"/>
    <tag k="name:fa" v="جمهوری دومینیکن"/>
    <tag k="name:fi" v="Dominikaaninen tasavalta"/>
    <tag k="name:fiu-vro" v="Dominikaani Vabariik"/>
    <tag k="name:fo" v="Dominikanalýðveldið"/>
    <tag k="name:fr" v="République Dominicaine"/>
    <tag k="name:frp" v="Rèpublica domeniquêna"/>
    <tag k="name:fy" v="de Dominikaanske Republyk"/>
    <tag k="name:ga" v="An Phoblacht Dhoiminiceach"/>
    <tag k="name:gd" v="Poblachd Dhoiminicia"/>
    <tag k="name:gv" v="Yn Phobblaght Ghominicagh"/>
    <tag k="name:hak" v="Tô-mí-nì-kâ Khiung-fò-koet"/>
    <tag k="name:he" v="דומיניק"/>
    <tag k="name:hi" v="डोमिनिकन गणराज्य"/>
    <tag k="name:hr" v="Dominikanska Republika"/>
    <tag k="name:ht" v="Repiblik dominikàn"/>
    <tag k="name:hu" v="Dominikai Köztársaság"/>
    <tag k="name:hy" v="Դոմինիկյան Հանրապետություն"/>
    <tag k="name:ia" v="Republica Dominican"/>
    <tag k="name:id" v="Republik Dominika"/>
    <tag k="name:io" v="Dominikana Republiko"/>
    <tag k="name:is" v="Dóminíska lýðveldið"/>
    <tag k="name:it" v="Repubblica Dominicana"/>
    <tag k="name:ja" v="ドミニカ共和国"/>
    <tag k="name:jv" v="Republik Dominika"/>
    <tag k="name:ka" v="დომინიკელთა რესპუბლიკა"/>
    <tag k="name:kk" v="Доминикан Республикасы"/>
    <tag k="name:ko" v="도미니카 공화국"/>
    <tag k="name:ks" v="डोमोनिकन रिपब्लिक"/>
    <tag k="name:ku" v="Komara Domînîk"/>
    <tag k="name:kw" v="Repoblek Dhominikanek"/>
    <tag k="name:la" v="Respublica Dominicana"/>
    <tag k="name:lb" v="Dominikanesch Republik"/>
    <tag k="name:li" v="Dominicaanse Rippebliek"/>
    <tag k="name:lij" v="Repubbrica Dominicann-a"/>
    <tag k="name:ln" v="Republiki Dominikani"/>
    <tag k="name:lt" v="Dominikos Respublika"/>
    <tag k="name:lv" v="Dominikānas Republika"/>
    <tag k="name:ml" v="ഡൊമനിക്കന്‍ റിപ്പബ്ലിക്"/>
    <tag k="name:mn" v="Доминиканы Бүгд Найрамдах Улс"/>
    <tag k="name:mr" v="डॉमिनिकन प्रजासत्ताक"/>
    <tag k="name:ms" v="Republik Dominika"/>
    <tag k="name:nah" v="Dominicanatlācatlahtohcāyōtl"/>
    <tag k="name:nds" v="Dominikaansche Republiek"/>
    <tag k="name:nl" v="Dominicaanse Republiek"/>
    <tag k="name:no" v="Den dominikanske republikk"/>
    <tag k="name:nov" v="Dominikal Republike"/>
    <tag k="name:nv" v="Domingo Bikéyah"/>
    <tag k="name:oc" v="Republica Dominicana"/>
    <tag k="name:os" v="Доминиканæйы Республикæ"/>
    <tag k="name:pl" v="Dominikana"/>
    <tag k="name:ps" v="ډومنيکان جمهوريت"/>
    <tag k="name:pt" v="República Dominicana"/>
    <tag k="name:qu" v="Duminikana"/>
    <tag k="name:ro" v="Republica Dominicană"/>
    <tag k="name:ru" v="Доминиканская Республика"/>
    <tag k="name:sa" v="डोमोनिकन रिपब्लिक"/>
    <tag k="name:scn" v="Ripùbbrica Duminicana"/>
    <tag k="name:sk" v="Dominikánska republika"/>
    <tag k="name:sl" v="Dominikanska republika"/>
    <tag k="name:sq" v="Republika Dominikane"/>
    <tag k="name:sr" v="Доминиканска Република"/>
    <tag k="name:sv" v="Dominikanska republiken"/>
    <tag k="name:sw" v="Jamhuri ya Dominika"/>
    <tag k="name:szl" v="Důmińikana"/>
    <tag k="name:ta" v="டொமினிக்கன் குடியரசு"/>
    <tag k="name:tg" v="Ҷумҳурии Доминикана"/>
    <tag k="name:th" v="สาธารณรัฐโดมินิกัน"/>
    <tag k="name:tl" v="Republikang Dominikana"/>
    <tag k="name:tr" v="Dominik Cumhuriyeti"/>
    <tag k="name:ug" v="Dominikan Jumhuriyeti"/>
    <tag k="name:uk" v="Домініканська Республіка"/>
    <tag k="name:ur" v="جمہوریہ ڈومینیکا"/>
    <tag k="name:vi" v="Cộng hòa Dominicana"/>
    <tag k="name:wo" v="Réewum Dominik"/>
    <tag k="name:yi" v="דאמיניקאנישע רעפובליק"/>
    <tag k="name:yo" v="Dómíníkì Olómìnira"/>
    <tag k="name:zh" v="多明尼加共和國"/>
    <tag k="official_name:ja" v="ドミニカ共和国"/>
    <tag k="official_name:pl" v="Republika Dominikańska"/>
    <tag k="place" v="country"/>
    <tag k="wikipedia" v="Dominican Republic"/>
  </node>
  <node id="246428061" version="2" timestamp="2009-08-13T01:04:13Z" uid="4467" user="Rosscoe" changeset="2125668" lat="-37.9168287" lon="145.1454447"/>
  <node id="246428061" version="3" timestamp="2010-07-18T04:24:20Z" uid="4467" user="Rosscoe" changeset="5247790" lat="-37.9168467" lon="145.1454303"/>
  <node id="246429741" version="2" timestamp="2010-01-16T23:15:55Z" uid="49111" user="Markus B" changeset="3636251" lat="18.699431" lon="-72.829858"/>
  <node id="246429743" version="3" timestamp="2010-01-16T23:04:34Z" uid="49111" user="Markus B" changeset="3636251" lat="18.7000143" lon="-72.8289576"/>
  <node id="246429744" version="3" timestamp="2010-01-16T23:04:34Z" uid="49111" user="Markus B" changeset="3636251" lat="18.6987148" lon="-72.82755"/>
  <node id="246429746" version="2" timestamp="2010-01-16T23:04:33Z" uid="49111" user="Markus B" changeset="3636251" lat="18.6973415" lon="-72.827484"/>
  <node id="246429748" version="2" timestamp="2010-01-16T23:04:33Z" uid="49111" user="Markus B" changeset="3636251" lat="18.6967907" lon="-72.8270002"/>
  <node id="246429749" version="2" timestamp="2010-01-16T23:04:33Z" uid="49111" user="Markus B" changeset="3636251" lat="18.6959856" lon="-72.8265713"/>
  <node id="246429750" version="2" timestamp="2010-01-16T23:04:33Z" uid="49111" user="Markus B" changeset="3636251" lat="18.6944986" lon="-72.8237747"/>
  <node id="246429753" version="2" timestamp="2010-01-16T23:04:34Z" uid="49111" user="Markus B" changeset="3636251" lat="18.6940071" lon="-72.8225342"/>
  <node id="246429754" version="2" timestamp="2010-01-16T23:04:34Z" uid="49111" user="Markus B" changeset="3636251" lat="18.6951092" lon="-72.8206838"/>
  <node id="246429755" version="3" timestamp="2010-01-16T23:04:34Z" uid="49111" user="Markus B" changeset="3636251" lat="18.6945162" lon="-72.8187058"/>
  <node id="246429757" version="3" timestamp="2010-01-16T23:04:34Z" uid="49111" user="Markus B" changeset="3636251" lat="18.6978058" lon="-72.8190627"/>
  <node id="246429759" version="2" timestamp="2010-01-16T23:04:34Z" uid="49111" user="Markus B" changeset="3636251" lat="18.6981125" lon="-72.8195899"/>
  <node id="246429772" version="3" timestamp="2010-01-17T16:25:34Z" uid="49111" user="Markus B" changeset="3642767" lat="18.6997759" lon="-72.8137068"/>
  <node id="246429777" version="3" timestamp="2010-01-17T16:25:34Z" uid="49111" user="Markus B" changeset="3642767" lat="18.7013519" lon="-72.811918"/>
  <node id="246429780" version="3" timestamp="2010-01-17T16:25:34Z" uid="49111" user="Markus B" changeset="3642767" lat="18.7029428" lon="-72.8105812"/>
  <node id="246429856" version="2" timestamp="2010-01-17T16:51:02Z" uid="49111" user="Markus B" changeset="3643063" lat="18.7553587" lon="-72.8053768"/>
  <node id="246429857" version="2" timestamp="2010-01-17T16:51:02Z" uid="49111" user="Markus B" changeset="3643063" lat="18.7564578" lon="-72.8045073"/>
  <node id="246429857" version="3" timestamp="2010-01-25T12:26:45Z" uid="84681" user="SK53" changeset="3710343" lat="18.7564814" lon="-72.8045619"/>
  <node id="246429859" version="2" timestamp="2010-01-17T16:51:02Z" uid="49111" user="Markus B" changeset="3643063" lat="18.7575302" lon="-72.8041652"/>
  <node id="246429860" version="2" timestamp="2010-01-17T16:51:02Z" uid="49111" user="Markus B" changeset="3643063" lat="18.7587733" lon="-72.8043524"/>
  <node id="246429860" version="3" timestamp="2010-01-25T12:26:45Z" uid="84681" user="SK53" changeset="3710343" lat="18.7587475" lon="-72.8043976"/>
  <node id="246429862" version="2" timestamp="2010-01-17T16:51:02Z" uid="49111" user="Markus B" changeset="3643063" lat="18.7595977" lon="-72.804805"/>
  <node id="246429862" version="3" timestamp="2010-01-25T12:26:45Z" uid="84681" user="SK53" changeset="3710343" lat="18.7595694" lon="-72.8048609"/>
</osm>
