<?xml version='1.0' encoding='UTF-8'?>
<osm version="0.6" generator="libosmium/2.20.0">
  <node id="247208756" version="2" timestamp="2008-07-10T22:34:48Z" uid="6975" user="ulfl" changeset="457552" lat="39.898516" lon="32.8608139">
    <tag k="name" v="Türk Hava Yolları"/>
    <tag k="shop" v="travel_agency"/>
  </node>
  <node id="247208772" version="2" timestamp="2008-07-10T22:34:47Z" uid="6975" user="ulfl" changeset="457552" lat="39.8946133" lon="32.8571796">
    <tag k="name" v="Rally Tur"/>
    <tag k="shop" v="travel_agency"/>
  </node>
  <node id="247208772" version="3" timestamp="2008-09-04T16:24:56Z" uid="11395" user="XceptN" changeset="526382" lat="39.8946052" lon="32.857218">
    <tag k="name" v="Rally Tur"/>
    <tag k="shop" v="travel_agency"/>
  </node>
  <node id="247208772" version="4" timestamp="2008-10-17T12:46:38Z" uid="11395" user="XceptN" changeset="391630" lat="39.8945138" lon="32.8574253">
    <tag k="name" v="Rally Tur"/>
    <tag k="shop" v="travel_agency"/>
  </node>
  <node id="247208777" version="2" timestamp="2008-07-10T22:34:47Z" uid="6975" user="ulfl" changeset="457552" lat="39.894287" lon="32.8570027">
    <tag k="name" v="Adım Travel"/>
    <tag k="shop" v="travel_agency"/>
  </node>
  <node id="247208777" version="3" timestamp="2008-09-04T16:24:55Z" uid="11395" user="XceptN" changeset="526382" lat="39.8942445" lon="32.8570796">
    <tag k="name" v="Adım Travel"/>
    <tag k="shop" v="travel_agency"/>
  </node>
  <node id="247208777" version="4" timestamp="2008-10-17T12:46:37Z" uid="11395" user="XceptN" changeset="391630" lat="39.8941531" lon="32.8572869">
    <tag k="name" v="Adım Travel"/>
    <tag k="shop" v="travel_agency"/>
  </node>
  <node id="247208778" version="2" timestamp="2008-07-10T22:34:47Z" uid="6975" user="ulfl" changeset="457552" lat="39.8941513" lon="32.8567729">
    <tag k="name" v="Rally Tur"/>
    <tag k="shop" v="travel_agency"/>
  </node>
  <node id="247208778" version="3" timestamp="2008-09-04T16:24:56Z" uid="11395" user="XceptN" changeset="526382" lat="39.8941655" lon="32.8567486">
    <tag k="name" v="Rally Tur"/>
    <tag k="shop" v="travel_agency"/>
  </node>
  <node id="247208778" version="4" timestamp="2008-10-17T12:46:38Z" uid="11395" user="XceptN" changeset="391630" lat="39.8941838" lon="32.8566084">
    <tag k="name" v="Rally Tur"/>
    <tag k="shop" v="travel_agency"/>
  </node>
  <node id="247208799" version="2" timestamp="2008-07-10T22:34:46Z" uid="6975" user="ulfl" changeset="457552" lat="39.8933022" lon="32.8564586">
    <tag k="name" v="Russian Travel Agency"/>
    <tag k="shop" v="travel_agency"/>
  </node>
  <node id="247208799" version="3" timestamp="2008-09-04T16:24:59Z" uid="11395" user="XceptN" changeset="526382" lat="39.8933265" lon="32.8564222">
    <tag k="name" v="Russian Travel Agency"/>
    <tag k="shop" v="travel_agency"/>
  </node>
  <node id="247208799" version="4" timestamp="2008-10-17T12:46:41Z" uid="11395" user="XceptN" changeset="391630" lat="39.8933448" lon="32.856282">
    <tag k="name" v="Russian Travel Agency"/>
    <tag k="shop" v="travel_agency"/>
  </node>
  <node id="247208809" version="2" timestamp="2008-07-10T22:34:47Z" uid="6975" user="ulfl" changeset="457552" lat="39.8918271" lon="32.855941">
    <tag k="name" v="Star Tours"/>
    <tag k="shop" v="travel_agency"/>
  </node>
  <node id="247208809" version="3" timestamp="2008-10-17T12:46:45Z" uid="11395" user="XceptN" changeset="391630" lat="39.8918271" lon="32.8558618">
    <tag k="name" v="Star Tours"/>
    <tag k="shop" v="travel_agency"/>
  </node>
  <node id="247208813" version="2" timestamp="2008-07-10T22:34:46Z" uid="6975" user="ulfl" changeset="457552" lat="39.8913205" lon="32.8558908">
    <tag k="name" v="Erc-i Seyyah Turizm"/>
    <tag k="shop" v="travel_agency"/>
  </node>
  <node id="247208813" version="3" timestamp="2008-10-17T12:46:44Z" uid="11395" user="XceptN" changeset="391630" lat="39.8912473" lon="32.8560249">
    <tag k="name" v="Erc-i Seyyah Turizm"/>
    <tag k="shop" v="travel_agency"/>
  </node>
  <node id="247208817" version="2" timestamp="2008-07-10T22:34:48Z" uid="6975" user="ulfl" changeset="457552" lat="39.8911199" lon="32.8558036">
    <tag k="name" v="Magic Life Center"/>
    <tag k="shop" v="travel_agency"/>
  </node>
  <node id="247208817" version="3" timestamp="2008-10-17T12:46:51Z" uid="11395" user="XceptN" changeset="391630" lat="39.8910467" lon="32.8559377">
    <tag k="name" v="Magic Life Center"/>
    <tag k="shop" v="travel_agency"/>
  </node>
  <node id="247208819" version="2" timestamp="2008-07-10T22:34:48Z" uid="6975" user="ulfl" changeset="457552" lat="39.8910023" lon="32.8557535">
    <tag k="name" v="Alabanda Tur"/>
    <tag k="shop" v="travel_agency"/>
  </node>
  <node id="247208819" version="3" timestamp="2008-10-17T12:46:50Z" uid="11395" user="XceptN" changeset="391630" lat="39.8909291" lon="32.8558876">
    <tag k="name" v="Alabanda Tur"/>
    <tag k="shop" v="travel_agency"/>
  </node>
</osm>
