<?xml version='1.0' encoding='UTF-8'?>
<osm version="0.6" generator="libosmium/2.20.0">
  <node id="247583527" version="3" timestamp="2011-04-10T20:38:30Z" uid="4467" user="Rosscoe" changeset="7827395" lat="-37.7893906" lon="144.9718376">
    <tag k="crossing" v="traffic_signals"/>
    <tag k="highway" v="crossing"/>
  </node>
  <node id="247584470" version="1" timestamp="2008-02-14T08:55:39Z" uid="19626" user="Swamp" changeset="121791" lat="-34.3412509" lon="146.0389617">
    <tag k="created_by" v="JOSM"/>
  </node>
  <node id="247584470" version="2" timestamp="2008-03-28T11:19:41Z" uid="19626" user="Swamp" changeset="413443" lat="-34.3412733" lon="146.0390825">
    <tag k="created_by" v="JOSM"/>
  </node>
  <node id="247584470" version="3" timestamp="2010-05-29T07:57:33Z" uid="18775" user="drlizau" changeset="4840220" lat="-34.3412678" lon="146.0390405"/>
  <node id="247584470" version="4" timestamp="2010-09-18T10:00:39Z" uid="22094" user="Chadzopkyo" changeset="5810108" lat="-34.3412693" lon="146.0390525"/>
  <node id="247584478" version="1" timestamp="2008-02-14T08:55:40Z" uid="19626" user="Swamp" changeset="121791" lat="-34.3432498" lon="146.0542596">
    <tag k="created_by" v="JOSM"/>
  </node>
  <node id="247584478" version="2" timestamp="2008-02-14T09:47:21Z" uid="19626" user="Swamp" changeset="121791" lat="-34.3432351" lon="146.0543187">
    <tag k="created_by" v="JOSM"/>
  </node>
  <node id="247584935" version="1" timestamp="2008-02-14T08:56:50Z" uid="19626" user="Swamp" changeset="121791" lat="-34.3393744" lon="146.0549531">
    <tag k="created_by" v="JOSM"/>
  </node>
  <node id="247584935" version="2" timestamp="2008-02-14T09:47:22Z" uid="19626" user="Swamp" changeset="121791" lat="-34.3393744" lon="146.0550564">
    <tag k="created_by" v="JOSM"/>
  </node>
  <node id="247584942" version="1" timestamp="2008-02-14T08:56:51Z" uid="19626" user="Swamp" changeset="121791" lat="-34.3312154" lon="146.0407974">
    <tag k="created_by" v="JOSM"/>
  </node>
  <node id="247584942" version="2" timestamp="2008-03-28T11:19:40Z" uid="19626" user="Swamp" changeset="413443" lat="-34.3312426" lon="146.0409441">
    <tag k="created_by" v="JOSM"/>
  </node>
  <node id="247584942" version="3" timestamp="2008-11-16T10:20:42Z" uid="18775" user="drlizau" changeset="756879" lat="-34.3312426" lon="146.0409441">
    <tag k="created_by" v="JOSM"/>
  </node>
  <node id="247584942" version="4" timestamp="2010-09-18T10:00:40Z" uid="22094" user="Chadzopkyo" changeset="5810108" lat="-34.3312419" lon="146.0409385"/>
  <node id="247586521" version="5" timestamp="2008-07-03T00:21:24Z" uid="6975" user="ulfl" changeset="377243" lat="48.8618314" lon="2.3473496">
    <tag k="name" v="Forum les Halles"/>
    <tag k="shop" v="mall"/>
  </node>
  <node id="247586521" version="6" timestamp="2010-03-30T20:12:49Z" uid="17286" user="Pieren" changeset="4280436" lat="48.8619015" lon="2.3474062">
    <tag k="name" v="Forum les Halles"/>
    <tag k="shop" v="mall"/>
  </node>
  <node id="247586521" version="7" timestamp="2010-08-17T20:04:22Z" uid="210173" user="osmmaker" changeset="5521153" lat="48.8618476" lon="2.3472929">
    <tag k="name" v="Forum les Halles"/>
    <tag k="shop" v="mall"/>
  </node>
  <node id="247586521" version="8" timestamp="2010-12-01T16:12:55Z" uid="210173" user="osmmaker" changeset="6505370" lat="48.861769" lon="2.3468566">
    <tag k="name" v="Forum les Halles"/>
    <tag k="shop" v="mall"/>
  </node>
  <node id="247588858" version="7" timestamp="2008-07-03T00:21:24Z" uid="6975" user="ulfl" changeset="377243" lat="48.8612462" lon="2.3356848">
    <tag k="layer" v="4"/>
    <tag k="name" v="Le Carrousel du Louvre"/>
    <tag k="shop" v="mall"/>
  </node>
  <node id="247588858" version="8" timestamp="2009-06-04T20:21:01Z" uid="11699" user="wagner51" changeset="1424583" lat="48.8611455" lon="2.3353414">
    <tag k="layer" v="4"/>
    <tag k="name" v="Le Carrousel du Louvre"/>
    <tag k="shop" v="mall"/>
  </node>
  <node id="247588858" version="9" timestamp="2010-03-31T20:17:55Z" uid="17286" user="Pieren" changeset="4289065" lat="48.8611455" lon="2.3353414">
    <tag k="layer" v="4"/>
    <tag k="name" v="Carrousel du Louvre"/>
    <tag k="shop" v="mall"/>
  </node>
  <node id="247588858" version="10" timestamp="2010-11-26T23:13:34Z" uid="290680" user="wheelmap_visitor" changeset="6465983" lat="48.8611455" lon="2.3353414">
    <tag k="layer" v="4"/>
    <tag k="name" v="Carrousel du Louvre"/>
    <tag k="shop" v="mall"/>
    <tag k="wheelchair" v="yes"/>
  </node>
  <node id="247588858" version="11" timestamp="2011-03-15T01:08:23Z" uid="210173" user="osmmaker" changeset="7562649" lat="48.8616059" lon="2.3342018">
    <tag k="layer" v="4"/>
    <tag k="name" v="Carrousel du Louvre"/>
    <tag k="shop" v="mall"/>
    <tag k="website" v="http://www.carrouseldulouvre.com/"/>
    <tag k="wheelchair" v="yes"/>
    <tag k="wikipedia:fr" v="Carrousel_du_Louvre"/>
  </node>
  <node id="247589180" version="2" timestamp="2008-07-02T23:58:55Z" uid="6975" user="ulfl" changeset="377243" lat="48.8663516" lon="2.3243909">
    <tag k="name" v="W.H. Smith"/>
    <tag k="shop" v="books"/>
  </node>
  <node id="247589180" version="3" timestamp="2010-04-03T16:14:21Z" uid="17286" user="Pieren" changeset="4314676" lat="48.86622" lon="2.3249104">
    <tag k="name" v="W.H. Smith"/>
    <tag k="shop" v="books"/>
  </node>
  <node id="247589180" version="4" timestamp="2011-03-24T11:06:42Z" uid="290680" user="wheelmap_visitor" changeset="7654823" lat="48.86622" lon="2.3249104">
    <tag k="name" v="W.H. Smith"/>
    <tag k="shop" v="books"/>
    <tag k="wheelchair" v="limited"/>
  </node>
</osm>
