<?xml version='1.0' encoding='UTF-8'?>
<osm version="0.6" generator="libosmium/2.20.0">
  <node id="247661658" version="2" timestamp="2008-07-06T09:05:03Z" uid="6975" user="ulfl" changeset="407266" lat="49.1243537" lon="16.1242793">
    <tag k="name" v="Přečerpávací elektrárna Dalešice"/>
    <tag k="power" v="generator"/>
    <tag k="power_source" v="hydro"/>
  </node>
  <node id="247661658" version="3" timestamp="2008-11-25T16:23:07Z" uid="17615" user="Petr Dlouhý" changeset="793046" lat="49.1243537" lon="16.1242793">
    <tag k="name" v="Přečerpávací elektrárna Dalešice"/>
    <tag k="power" v="generator"/>
    <tag k="power_source" v="hydro"/>
    <tag k="ref" v="EDA"/>
    <tag k="source:ref" v="ceps_cz"/>
  </node>
  <node id="247661658" version="4" timestamp="2011-06-04T02:02:28Z" uid="297482" user="don-vip" changeset="8335610" lat="49.1243537" lon="16.1242793">
    <tag k="generator:source" v="hydro"/>
    <tag k="name" v="Přečerpávací elektrárna Dalešice"/>
    <tag k="power" v="generator"/>
    <tag k="power_source" v="hydro"/>
    <tag k="ref" v="EDA"/>
    <tag k="source:ref" v="ceps_cz"/>
  </node>
  <node id="247662548" version="1" timestamp="2008-02-14T17:19:30Z" uid="6516" user="ramack" changeset="118945" lat="48.9940729" lon="9.3578911">
    <tag k="amenity" v="hotel"/>
    <tag k="created_by" v="JOSM"/>
    <tag k="name" v="Sonnenhof"/>
  </node>
  <node id="247662548" version="2" timestamp="2008-02-16T19:55:00Z" uid="6975" user="ulfl" changeset="141861" lat="48.9940729" lon="9.3578911">
    <tag k="name" v="Sonnenhof"/>
    <tag k="tourism" v="hotel"/>
  </node>
  <node id="247662548" version="3" timestamp="2012-01-16T15:29:30Z" uid="272207" user="blue_fire" changeset="10409100" lat="48.9940729" lon="9.3578911"/>
  <node id="247662583" version="3" timestamp="2008-07-08T01:42:14Z" uid="6975" user="ulfl" changeset="429882" lat="48.9902256" lon="9.3947782">
    <tag k="name" v="Sonne"/>
    <tag k="tourism" v="guest_house"/>
  </node>
  <node id="247662583" version="4" timestamp="2009-03-10T05:52:52Z" uid="12011" user="bwurst" changeset="774794" lat="48.9902143" lon="9.3948984">
    <tag k="name" v="Sonne"/>
    <tag k="tourism" v="guest_house"/>
  </node>
  <node id="247662583" version="5" timestamp="2011-02-16T14:52:46Z" uid="12011" user="bwurst" changeset="7304552" lat="48.9901452" lon="9.3948325">
    <tag k="amenity" v="restaurant"/>
    <tag k="cuisine" v="regional"/>
    <tag k="microbrewery" v="yes"/>
    <tag k="name" v="Zum Läuterbottich"/>
    <tag k="opening_hours" v="Tu-Su 16:30-24:00"/>
    <tag k="phone" v="+49 7191 3455506"/>
    <tag k="tourism" v="guest_house"/>
    <tag k="website" v="http://laeuterbottich.com/"/>
  </node>
  <node id="247662583" version="6" timestamp="2012-02-05T10:43:20Z" uid="131968" user="changchun_1" changeset="10592177" lat="48.9901452" lon="9.3948325"/>
  <node id="247665854" version="3" timestamp="2009-08-26T09:54:12Z" uid="36809" user="pfoten_weg_!_" changeset="2265457" lat="48.1220282" lon="11.5243069"/>
  <node id="247666109" version="5" timestamp="2009-08-31T20:50:21Z" uid="36809" user="pfoten_weg_!_" changeset="2331411" lat="48.1233632" lon="11.5280406"/>
  <node id="247666109" version="6" timestamp="2010-12-07T22:14:43Z" uid="354821" user="joi" changeset="6579110" lat="48.123342" lon="11.5280067"/>
  <node id="247666755" version="2" timestamp="2010-06-04T19:14:27Z" uid="13367" user="nubok" changeset="4903649" lat="52.2439798" lon="11.5788038"/>
  <node id="247669957" version="2" timestamp="2008-07-04T22:01:00Z" uid="6975" user="ulfl" changeset="395915" lat="51.2899063" lon="11.8999141">
    <tag k="railway" v="level_crossing"/>
  </node>
  <node id="247669957" version="3" timestamp="2010-04-17T21:06:58Z" uid="266124" user="68Mario" changeset="4452344" lat="51.289913" lon="11.8999195">
    <tag k="railway" v="level_crossing"/>
  </node>
  <node id="247669957" version="4" timestamp="2011-05-17T22:29:35Z" uid="16319" user="ipodolsk" changeset="8176918" lat="51.2897436" lon="11.899912">
    <tag k="railway" v="level_crossing"/>
  </node>
</osm>
