<?xml version='1.0' encoding='UTF-8'?>
<osm version="0.6" generator="libosmium/2.20.0">
  <node id="249701679" version="2" timestamp="2009-01-01T13:24:46Z" uid="6975" user="ulfl" changeset="699648" lat="53.7274569" lon="-0.4361386">
    <tag k="amenity" v="dentist"/>
  </node>
  <node id="249701679" version="3" timestamp="2009-02-18T15:41:12Z" uid="12355" user="chillly" changeset="538658" lat="53.7274569" lon="-0.4361386">
    <tag k="amenity" v="dentist"/>
    <tag k="name" v="Beverley House Dental Practice"/>
  </node>
  <node id="249707055" version="1" timestamp="2008-02-29T17:14:11Z" uid="29231" user="Funkysapien" changeset="236995" lat="49.4606586" lon="11.0927362">
    <tag k="created_by" v="Potlatch 0.7b"/>
    <tag k="name" v="Rennweg"/>
    <tag k="railway" v="subway_entrance"/>
  </node>
  <node id="249707055" version="2" timestamp="2008-03-04T06:04:45Z" uid="10712" user="Kraeml" changeset="266341" lat="49.4608487" lon="11.0927812">
    <tag k="created_by" v="Potlatch 0.7b"/>
    <tag k="name" v="Rennweg"/>
    <tag k="railway" v="subway_entrance"/>
  </node>
  <node id="249707055" version="3" timestamp="2008-03-10T19:00:08Z" uid="17099" user="matmai" changeset="298873" lat="49.4606811" lon="11.0927499">
    <tag k="created_by" v="Potlatch 0.7b"/>
    <tag k="name" v="Rennweg"/>
    <tag k="railway" v="subway_entrance"/>
  </node>
  <node id="249707055" version="4" timestamp="2008-12-08T00:30:49Z" uid="80255" user="miriat" changeset="252886" lat="49.4607323" lon="11.0927381">
    <tag k="created_by" v="Potlatch 0.7b"/>
    <tag k="name" v="Rennweg"/>
    <tag k="railway" v="subway_entrance"/>
  </node>
  <node id="249707055" version="5" timestamp="2010-09-13T13:34:18Z" uid="83876" user="BurnyB" changeset="5769752" lat="49.4606546" lon="11.0926989">
    <tag k="name" v="Rennweg"/>
    <tag k="railway" v="subway_entrance"/>
  </node>
  <node id="249707055" version="6" timestamp="2011-08-28T20:45:44Z" uid="290680" user="wheelmap_visitor" changeset="9151509" lat="49.4606546" lon="11.0926989">
    <tag k="name" v="Rennweg"/>
    <tag k="railway" v="subway_entrance"/>
    <tag k="wheelchair" v="no"/>
  </node>
  <node id="249707055" version="7" timestamp="2011-09-24T20:12:09Z" uid="290680" user="wheelmap_visitor" changeset="9383846" lat="49.4606546" lon="11.0926989">
    <tag k="name" v="Rennweg"/>
    <tag k="railway" v="subway_entrance"/>
    <tag k="wheelchair" v="yes"/>
  </node>
  <node id="249707055" version="8" timestamp="2011-09-24T20:12:10Z" uid="290680" user="wheelmap_visitor" changeset="9383846" lat="49.4606546" lon="11.0926989">
    <tag k="name" v="Rennweg"/>
    <tag k="railway" v="subway_entrance"/>
    <tag k="wheelchair" v="no"/>
  </node>
  <node id="249707055" version="9" timestamp="2011-10-29T08:00:54Z" uid="346758" user="kukuk" changeset="9682269" lat="49.4607239" lon="11.0926897">
    <tag k="name" v="Rennweg"/>
    <tag k="railway" v="subway_entrance"/>
    <tag k="wheelchair" v="no"/>
  </node>
  <node id="249707055" version="10" timestamp="2011-10-29T09:51:34Z" uid="346758" user="kukuk" changeset="9683017" lat="49.4607273" lon="11.092682">
    <tag k="name" v="Rennweg"/>
    <tag k="railway" v="subway_entrance"/>
    <tag k="wheelchair" v="no"/>
  </node>
  <node id="249707055" version="11" timestamp="2011-12-01T21:45:34Z" uid="71557" user="Taroc" changeset="10012558" lat="49.4607273" lon="11.092682"/>
  <node id="249707211" version="2" timestamp="2008-04-21T20:09:00Z" uid="6975" user="ulfl" changeset="214890" lat="49.4392874" lon="11.0501213">
    <tag k="created_by" v="Potlatch 0.7b"/>
    <tag k="name" v="St. Leonhard"/>
    <tag k="railway" v="subway_entrance"/>
  </node>
  <node id="249707211" version="3" timestamp="2008-12-08T00:30:36Z" uid="80255" user="miriat" changeset="252886" lat="49.4393605" lon="11.0501201">
    <tag k="created_by" v="Potlatch 0.7b"/>
    <tag k="name" v="St. Leonhard"/>
    <tag k="railway" v="subway_entrance"/>
  </node>
  <node id="249707211" version="4" timestamp="2010-04-05T15:40:48Z" uid="81175" user="robome" changeset="4334731" lat="49.4393605" lon="11.0501201">
    <tag k="name" v="St. Leonhard"/>
    <tag k="railway" v="subway_entrance"/>
  </node>
  <node id="249707211" version="5" timestamp="2010-09-10T19:37:04Z" uid="83876" user="BurnyB" changeset="5744036" lat="49.4393656" lon="11.0501162">
    <tag k="name" v="St. Leonhard"/>
    <tag k="railway" v="subway_entrance"/>
  </node>
  <node id="249707211" version="6" timestamp="2011-12-05T21:16:13Z" uid="71557" user="Taroc" changeset="10045669" lat="49.4393656" lon="11.0501162"/>
</osm>
