<?xml version='1.0' encoding='UTF-8'?>
<osm version="0.6" generator="libosmium/2.20.0">
  <node id="249824354" version="3" timestamp="2008-08-14T19:24:08Z" uid="6975" user="ulfl" changeset="264731" lat="42.1871543" lon="-2.178811">
    <tag k="amenity" v="place_of_worship"/>
    <tag k="denomination" v="catholic"/>
    <tag k="name" v="Iglesia de San Esteban"/>
    <tag k="religion" v="christian"/>
  </node>
  <node id="249824354" version="4" timestamp="2010-02-13T09:45:52Z" uid="7406" user="jynus" changeset="3862906" lat="42.1871543" lon="-2.178811">
    <tag k="amenity" v="place_of_worship"/>
    <tag k="denomination" v="catholic"/>
    <tag k="name" v="Iglesia de San Esteban"/>
    <tag k="religion" v="christian"/>
  </node>
  <node id="249826263" version="6" timestamp="2011-02-27T08:52:37Z" uid="9581" user="Lobelt" changeset="7407928" lat="50.2746736" lon="9.3731619">
    <tag k="TMC:cid_58:tabcd_1:Class" v="Point"/>
    <tag k="TMC:cid_58:tabcd_1:Direction" v="negative"/>
    <tag k="TMC:cid_58:tabcd_1:LCLversion" v="9.00"/>
    <tag k="TMC:cid_58:tabcd_1:LocationCode" v="12196"/>
    <tag k="TMC:cid_58:tabcd_1:NextLocationCode" v="12197"/>
    <tag k="TMC:cid_58:tabcd_1:PrevLocationCode" v="12195"/>
    <tag k="highway" v="motorway_junction"/>
    <tag k="name" v="Bad Soden-Salmünster"/>
    <tag k="ref" v="46"/>
  </node>
  <node id="249826263" version="7" timestamp="2011-08-07T20:29:33Z" uid="39240" user="Seehundeführer" changeset="8950885" lat="50.2746765" lon="9.3731161">
    <tag k="TMC:cid_58:tabcd_1:Class" v="Point"/>
    <tag k="TMC:cid_58:tabcd_1:Direction" v="negative"/>
    <tag k="TMC:cid_58:tabcd_1:LCLversion" v="9.00"/>
    <tag k="TMC:cid_58:tabcd_1:LocationCode" v="12196"/>
    <tag k="TMC:cid_58:tabcd_1:NextLocationCode" v="12197"/>
    <tag k="TMC:cid_58:tabcd_1:PrevLocationCode" v="12195"/>
    <tag k="highway" v="motorway_junction"/>
    <tag k="name" v="Bad Soden-Salmünster"/>
    <tag k="ref" v="46"/>
  </node>
</osm>
