<?xml version='1.0' encoding='UTF-8'?>
<osm version="0.6" generator="libosmium/2.20.0">
  <node id="250203092" version="6" timestamp="2010-06-16T15:24:15Z" uid="10712" user="Kraeml" changeset="5001508" lat="49.4614783" lon="11.1026817">
    <tag k="addr:city" v="Nürnberg"/>
    <tag k="addr:country" v="DE"/>
    <tag k="addr:housnumber" v="20"/>
    <tag k="addr:postcode" v="90489"/>
    <tag k="addr:street" v="Schoppershofstraße"/>
    <tag k="amenity" v="restaurant"/>
    <tag k="cuisine" v="Badisch"/>
    <tag k="name" v="Savanna"/>
    <tag k="opening_hours" v="Tu-So 16:00-01:00"/>
    <tag k="phone" v="0049 (0)911 580 80 82"/>
    <tag k="smoking" v="no"/>
    <tag k="website" v="www.savanna-nuernberg.de"/>
  </node>
  <node id="250203092" version="7" timestamp="2010-06-16T18:20:55Z" uid="70696" user="xybot" changeset="5002705" lat="49.4614783" lon="11.1026817">
    <tag k="addr:city" v="Nürnberg"/>
    <tag k="addr:country" v="DE"/>
    <tag k="addr:housenumber" v="20"/>
    <tag k="addr:postcode" v="90489"/>
    <tag k="addr:street" v="Schoppershofstraße"/>
    <tag k="amenity" v="restaurant"/>
    <tag k="cuisine" v="Badisch"/>
    <tag k="name" v="Savanna"/>
    <tag k="opening_hours" v="Tu-So 16:00-01:00"/>
    <tag k="phone" v="0049 (0)911 580 80 82"/>
    <tag k="smoking" v="no"/>
    <tag k="website" v="www.savanna-nuernberg.de"/>
  </node>
  <node id="250203092" version="8" timestamp="2010-11-21T21:38:18Z" uid="202858" user="kellerma" changeset="6427198" lat="49.4614783" lon="11.1026817">
    <tag k="addr:city" v="Nürnberg"/>
    <tag k="addr:country" v="DE"/>
    <tag k="addr:housenumber" v="20"/>
    <tag k="addr:postcode" v="90489"/>
    <tag k="addr:street" v="Schoppershofstraße"/>
    <tag k="amenity" v="restaurant"/>
    <tag k="cuisine" v="Badisch"/>
    <tag k="name" v="Savanna"/>
    <tag k="opening_hours" v="Tu-Su 16:00-01:00"/>
    <tag k="phone" v="0049 (0)911 580 80 82"/>
    <tag k="smoking" v="no"/>
    <tag k="website" v="www.savanna-nuernberg.de"/>
  </node>
  <node id="250203092" version="9" timestamp="2011-03-22T08:59:56Z" uid="33053" user="Smurf" changeset="7634999" lat="49.4614783" lon="11.1026817">
    <tag k="addr:city" v="Nürnberg"/>
    <tag k="addr:country" v="DE"/>
    <tag k="addr:housenumber" v="20"/>
    <tag k="addr:postcode" v="90489"/>
    <tag k="addr:street" v="Schoppershofstraße"/>
    <tag k="amenity" v="restaurant"/>
    <tag k="cuisine" v="Badisch"/>
    <tag k="name" v="Savanna"/>
    <tag k="opening_hours" v="Tu-Su 16:00-01:00"/>
    <tag k="phone" v="+49 911 5808082"/>
    <tag k="smoking" v="no"/>
    <tag k="website" v="www.savanna-nuernberg.de"/>
  </node>
  <node id="250203092" version="10" timestamp="2011-09-09T18:07:08Z" uid="64008" user="E-Malte" changeset="9256461" lat="49.4614783" lon="11.1026817">
    <tag k="addr:city" v="Nürnberg"/>
    <tag k="addr:country" v="DE"/>
    <tag k="addr:housenumber" v="20"/>
    <tag k="addr:postcode" v="90489"/>
    <tag k="addr:street" v="Schoppershofstraße"/>
    <tag k="amenity" v="restaurant"/>
    <tag k="cuisine" v="badisch"/>
    <tag k="name" v="Savanna"/>
    <tag k="opening_hours" v="Tu-Su 16:00-01:00"/>
    <tag k="phone" v="+49 911 5808082"/>
    <tag k="smoking" v="no"/>
    <tag k="website" v="www.savanna-nuernberg.de"/>
  </node>
  <node id="250203092" version="11" timestamp="2011-11-01T10:33:50Z" uid="346758" user="kukuk" changeset="9711218" lat="49.4614783" lon="11.1026817"/>
  <node id="250206694" version="2" timestamp="2010-06-29T18:38:23Z" uid="8619" user="cetest" changeset="5108044" lat="51.9380813" lon="4.3938037"/>
  <node id="250206694" version="3" timestamp="2010-12-10T09:57:49Z" uid="161542" user="textlijn" changeset="6603507" lat="51.9380631" lon="4.393824"/>
  <node id="250206694" version="4" timestamp="2011-11-19T17:08:11Z" uid="203114" user="Jeroen Muris" changeset="9874970" lat="51.9380631" lon="4.393824"/>
  <node id="250206695" version="1" timestamp="2008-03-02T21:56:15Z" uid="28052" user="CvR" changeset="256703" lat="51.9380753" lon="4.3940229"/>
  <node id="250206695" version="2" timestamp="2008-03-04T19:49:35Z" uid="8619" user="cetest" changeset="266276" lat="51.9378144" lon="4.3973674">
    <tag k="source" v="AND"/>
  </node>
  <node id="250206695" version="3" timestamp="2009-12-26T09:19:55Z" uid="211771" user="AND_fixbot" changeset="3452869" lat="51.9378144" lon="4.3973674"/>
  <node id="250206695" version="4" timestamp="2010-12-10T09:57:43Z" uid="161542" user="textlijn" changeset="6603507" lat="51.9378062" lon="4.3973718"/>
  <node id="250206695" version="5" timestamp="2011-11-19T17:08:11Z" uid="203114" user="Jeroen Muris" changeset="9874970" lat="51.9378062" lon="4.3973718"/>
  <node id="250209995" version="6" timestamp="2010-05-01T16:53:24Z" uid="151899" user="Bikeman2000" changeset="4577036" lat="51.2092518" lon="6.7826684">
    <tag k="name" v="Färberstraße"/>
    <tag k="railway" v="tram_stop"/>
    <tag k="source" v="survey"/>
  </node>
  <node id="250209995" version="7" timestamp="2010-11-07T11:49:57Z" uid="290680" user="wheelmap_visitor" changeset="6308379" lat="51.2092518" lon="6.7826684">
    <tag k="name" v="Färberstraße"/>
    <tag k="railway" v="tram_stop"/>
    <tag k="source" v="survey"/>
    <tag k="wheelchair" v="no"/>
  </node>
  <node id="250209995" version="8" timestamp="2011-05-25T21:39:25Z" uid="105839" user="jotzt" changeset="8249019" lat="51.2092533" lon="6.7826496">
    <tag k="name" v="Färberstraße"/>
    <tag k="railway" v="tram_stop"/>
    <tag k="source" v="survey"/>
    <tag k="wheelchair" v="no"/>
  </node>
  <node id="250209995" version="9" timestamp="2011-10-13T15:31:27Z" uid="290680" user="wheelmap_visitor" changeset="9544161" lat="51.2092533" lon="6.7826496">
    <tag k="name" v="Färberstraße"/>
    <tag k="railway" v="tram_stop"/>
    <tag k="source" v="survey"/>
    <tag k="wheelchair" v="yes"/>
  </node>
</osm>
