<?xml version='1.0' encoding='UTF-8'?>
<osm version="0.6" generator="libosmium/2.20.0">
  <node id="250711691" version="2" timestamp="2008-04-27T18:59:58Z" uid="17602" user="B10xyz" changeset="278750" lat="44.3656808" lon="3.4104819">
    <tag k="created_by" v="JOSM"/>
  </node>
  <node id="250711691" version="3" timestamp="2009-06-28T09:20:36Z" uid="9065" user="brianboru" changeset="1660444" lat="44.3656336" lon="3.4104643">
    <tag k="created_by" v="JOSM"/>
  </node>
  <node id="250711691" version="4" timestamp="2010-07-01T16:04:30Z" uid="90394" user="petrovsk" changeset="5121685" lat="44.3656437" lon="3.4105442"/>
  <node id="250711691" version="5" timestamp="2012-02-20T22:19:35Z" uid="99151" user="quicky" changeset="10745702" lat="44.3656437" lon="3.4105442"/>
  <node id="250712715" version="3" timestamp="2008-07-03T18:28:44Z" uid="6975" user="ulfl" changeset="379368" lat="53.0838285" lon="8.8004984">
    <tag k="amenity" v="fire_station"/>
    <tag k="name" v="Feuerwache 1"/>
  </node>
  <node id="250712715" version="4" timestamp="2010-03-21T09:45:22Z" uid="61005" user="nkbre" changeset="4188634" lat="53.0838285" lon="8.8004984">
    <tag k="addr:housenumber" v="24"/>
    <tag k="addr:street" v="Am Wandrahm"/>
    <tag k="amenity" v="fire_station"/>
    <tag k="name" v="Feuerwache 1"/>
    <tag k="url" v="http://www.feuerwehr-bremen.org/Feuerwache-1.127.0.html"/>
  </node>
  <node id="250712715" version="5" timestamp="2010-03-25T15:31:40Z" uid="61005" user="nkbre" changeset="4230042" lat="53.0838285" lon="8.8004984">
    <tag k="addr:housenumber" v="24"/>
    <tag k="addr:street" v="Am Wandrahm"/>
    <tag k="amenity" v="fire_station"/>
    <tag k="name" v="Feuerwache 1"/>
    <tag k="url" v="http://www.feuerwehr-bremen.org/Feuerwache-1.127.0.html"/>
    <tag k="wikipedia:de" v="http://de.wikipedia.org/wiki/Feuerwehr_Bremen#Feuer-_und_Rettungswache_1"/>
  </node>
  <node id="250712715" version="6" timestamp="2010-03-29T13:45:07Z" uid="61005" user="nkbre" changeset="4267470" lat="53.0838285" lon="8.8004984">
    <tag k="addr:city" v="Bremen"/>
    <tag k="addr:housenumber" v="24"/>
    <tag k="addr:postcode" v="28195"/>
    <tag k="addr:street" v="Am Wandrahm"/>
    <tag k="amenity" v="fire_station"/>
    <tag k="name" v="Feuerwache 1"/>
    <tag k="url" v="http://www.feuerwehr-bremen.org/Feuerwache-1.127.0.html"/>
    <tag k="wikipedia:de" v="http://de.wikipedia.org/wiki/Feuerwehr_Bremen#Feuer-_und_Rettungswache_1"/>
  </node>
  <node id="250712715" version="7" timestamp="2010-09-20T14:43:09Z" uid="65148" user="Pirat Michi" changeset="5829678" lat="53.0838285" lon="8.8004984">
    <tag k="addr:city" v="Bremen"/>
    <tag k="addr:housenumber" v="24"/>
    <tag k="addr:postcode" v="28195"/>
    <tag k="addr:street" v="Am Wandrahm"/>
    <tag k="amenity" v="fire_station"/>
    <tag k="name" v="Feuerwache 1"/>
    <tag k="website" v="http://www.feuerwehr-bremen.org/Feuerwache-1.127.0.html"/>
    <tag k="wikipedia:de" v="http://de.wikipedia.org/wiki/Feuerwehr_Bremen#Feuer-_und_Rettungswache_1"/>
  </node>
  <node id="250712715" version="8" timestamp="2010-09-28T22:13:16Z" uid="40175" user="Minime" changeset="5907784" lat="53.083695" lon="8.8007522">
    <tag k="addr:city" v="Bremen"/>
    <tag k="addr:housenumber" v="24"/>
    <tag k="addr:postcode" v="28195"/>
    <tag k="addr:street" v="Am Wandrahm"/>
    <tag k="amenity" v="fire_station"/>
    <tag k="name" v="Feuerwache 1"/>
    <tag k="website" v="http://www.feuerwehr-bremen.org/Feuerwache-1.127.0.html"/>
    <tag k="wikipedia:de" v="http://de.wikipedia.org/wiki/Feuerwehr_Bremen#Feuer-_und_Rettungswache_1"/>
  </node>
  <node id="250712715" version="9" timestamp="2010-12-18T23:48:11Z" uid="61005" user="nkbre" changeset="6701847" lat="53.083695" lon="8.8007522">
    <tag k="addr:city" v="Bremen"/>
    <tag k="addr:housenumber" v="24"/>
    <tag k="addr:postcode" v="28195"/>
    <tag k="addr:street" v="Am Wandrahm"/>
    <tag k="amenity" v="fire_station"/>
    <tag k="name" v="Feuerwache 1"/>
    <tag k="website" v="http://www.feuerwehr-bremen.org/index.php?id=274"/>
    <tag k="wikipedia:de" v="http://de.wikipedia.org/wiki/Feuerwehr_Bremen#Feuer-_und_Rettungswache_1"/>
  </node>
</osm>
