<?xml version='1.0' encoding='UTF-8'?>
<osm version="0.6" generator="libosmium/2.20.0">
  <node id="252440370" version="4" timestamp="2008-09-14T19:14:47Z" uid="6975" user="ulfl" changeset="640534" lat="53.9275895" lon="-1.3865351">
    <tag k="amenity" v="fast_food"/>
    <tag k="cuisine" v="Fish &amp;amp; Chips"/>
    <tag k="name" v="The Wetherby Whaler"/>
  </node>
  <node id="252440370" version="5" timestamp="2009-05-23T08:53:02Z" uid="70696" user="xybot" changeset="1293006" lat="53.9275895" lon="-1.3865351">
    <tag k="amenity" v="fast_food"/>
    <tag k="cuisine" v="Fish &amp; Chips"/>
    <tag k="name" v="The Wetherby Whaler"/>
  </node>
  <node id="252440370" version="6" timestamp="2010-07-04T19:09:31Z" uid="52921" user="t-i" changeset="5136155" lat="53.9275895" lon="-1.3865351">
    <tag k="amenity" v="fast_food"/>
    <tag k="cuisine" v="fish_and_chips"/>
    <tag k="name" v="The Wetherby Whaler"/>
  </node>
  <node id="252441371" version="2" timestamp="2008-07-06T00:36:22Z" uid="6975" user="ulfl" changeset="404092" lat="43.3412446" lon="-1.4737395">
    <tag k="amenity" v="townhall"/>
    <tag k="name" v="Mairie"/>
  </node>
  <node id="252443467" version="4" timestamp="2008-07-05T13:28:28Z" uid="6975" user="ulfl" changeset="398437" lat="43.3847252" lon="-1.4760998">
    <tag k="aeroway" v=" "/>
    <tag k="amenity" v="undefined"/>
    <tag k="description" v="undefined"/>
    <tag k="landuse" v="farm"/>
    <tag k="leisure" v="undefined"/>
    <tag k="name" v="Anderearen Borda"/>
    <tag k="natural" v="undefined"/>
    <tag k="place" v="undefined"/>
  </node>
  <node id="252443467" version="5" timestamp="2008-10-09T09:13:15Z" uid="70696" user="xybot" changeset="203736" lat="43.3847252" lon="-1.4760998">
    <tag k="amenity" v="undefined"/>
    <tag k="created_by" v="xybot"/>
    <tag k="description" v="undefined"/>
    <tag k="landuse" v="farm"/>
    <tag k="leisure" v="undefined"/>
    <tag k="name" v="Anderearen Borda"/>
    <tag k="natural" v="undefined"/>
    <tag k="place" v="undefined"/>
  </node>
  <node id="252443467" version="6" timestamp="2008-11-22T03:49:52Z" uid="11081" user="soeren" changeset="780011" lat="43.3847252" lon="-1.4760998">
    <tag k="aeroway" v=" "/>
    <tag k="landuse" v="farm"/>
    <tag k="name" v="Anderearen Borda"/>
  </node>
  <node id="252443467" version="7" timestamp="2008-11-22T04:05:03Z" uid="11081" user="soeren" changeset="780011" lat="43.3847252" lon="-1.4760998">
    <tag k="landuse" v="farm"/>
    <tag k="name" v="Anderearen Borda"/>
  </node>
  <node id="252443467" version="8" timestamp="2008-12-10T17:11:22Z" uid="70696" user="xybot" changeset="307270" lat="43.3847252" lon="-1.4760998">
    <tag k="created_by" v="xybot"/>
    <tag k="landuse" v="farm"/>
    <tag k="name" v="Anderearen Borda"/>
  </node>
  <node id="252443467" version="9" timestamp="2010-08-08T19:25:22Z" uid="276785" user="Chemins" changeset="5436676" lat="43.3847251" lon="-1.4760999">
    <tag k="landuse" v="farm"/>
    <tag k="name" v="Anderearen Borda"/>
    <tag k="place" v="farm"/>
  </node>
  <node id="252443467" version="10" timestamp="2010-09-10T19:58:35Z" uid="276785" user="Chemins" changeset="5744262" lat="43.3847251" lon="-1.4760999">
    <tag k="landuse" v="farm"/>
    <tag k="name" v="Anderearen Borda"/>
    <tag k="place" v="farm"/>
  </node>
  <node id="252448751" version="2" timestamp="2009-09-14T19:30:45Z" uid="17602" user="B10xyz" changeset="2485854" lat="43.3384413" lon="-1.4029632"/>
  <node id="252448751" version="3" timestamp="2010-06-15T20:48:28Z" uid="276785" user="Chemins" changeset="4994314" lat="43.3384413" lon="-1.4029632"/>
  <node id="252448754" version="2" timestamp="2009-09-14T19:30:45Z" uid="17602" user="B10xyz" changeset="2485854" lat="43.3373045" lon="-1.4035035"/>
  <node id="252448754" version="3" timestamp="2010-06-15T20:48:28Z" uid="276785" user="Chemins" changeset="4994314" lat="43.3373045" lon="-1.4035035"/>
  <node id="252449475" version="3" timestamp="2010-04-19T18:45:14Z" uid="9581" user="Lobelt" changeset="4470814" lat="49.4788529" lon="8.2813584"/>
  <node id="252449851" version="2" timestamp="2008-07-03T18:05:01Z" uid="6975" user="ulfl" changeset="379368" lat="59.3463048" lon="18.2043327">
    <tag k="leisure" v="playground"/>
  </node>
  <node id="252449851" version="3" timestamp="2011-07-17T11:37:17Z" uid="308" user="MichaelCollinson" changeset="8746745" lat="59.3463048" lon="18.2043327"/>
</osm>
