<?xml version='1.0' encoding='UTF-8'?>
<osm version="0.6" generator="libosmium/2.20.0">
  <node id="253362373" version="3" timestamp="2008-09-14T20:03:27Z" uid="6975" user="ulfl" changeset="640534" lat="51.8052354" lon="7.9465673">
    <tag k="amenity" v="bank"/>
    <tag k="atm" v="yes"/>
    <tag k="name" v="Volksbank"/>
  </node>
  <node id="253362377" version="3" timestamp="2008-07-03T00:11:38Z" uid="6975" user="ulfl" changeset="377243" lat="51.8056855" lon="7.9460594">
    <tag k="name" v="Schmitz"/>
    <tag k="shop" v="florist"/>
  </node>
  <node id="253362377" version="4" timestamp="2011-07-25T20:02:56Z" uid="81732" user="zahilb" changeset="8829835" lat="51.8056832" lon="7.9459583">
    <tag k="name" v="Schmitz"/>
    <tag k="shop" v="florist"/>
  </node>
  <node id="253362378" version="3" timestamp="2008-09-14T20:03:20Z" uid="6975" user="ulfl" changeset="640534" lat="51.8059656" lon="7.9460956">
    <tag k="amenity" v="bank"/>
    <tag k="atm" v="yes"/>
    <tag k="name" v="Sparkasse"/>
  </node>
  <node id="253362378" version="4" timestamp="2011-05-23T12:13:05Z" uid="449758" user="Lars Mörsch" changeset="8225459" lat="51.8059656" lon="7.9460956">
    <tag k="addr:city" v="Ahlen"/>
    <tag k="addr:housenumber" v="45"/>
    <tag k="addr:postcode" v="59227"/>
    <tag k="addr:street" v="Hauptstraße"/>
    <tag k="amenity" v="bank"/>
    <tag k="atm" v="yes"/>
    <tag k="name" v="Sparkasse"/>
    <tag k="website" v="http://www.sparkasse-muensterland-ost.de/"/>
    <tag k="wheelchair" v="yes"/>
  </node>
  <node id="253362378" version="5" timestamp="2011-10-22T19:12:48Z" uid="290680" user="wheelmap_visitor" changeset="9621211" lat="51.8059656" lon="7.9460956">
    <tag k="addr:city" v="Ahlen"/>
    <tag k="addr:housenumber" v="45"/>
    <tag k="addr:postcode" v="59227"/>
    <tag k="addr:street" v="Hauptstraße"/>
    <tag k="amenity" v="bank"/>
    <tag k="atm" v="yes"/>
    <tag k="name" v="Sparkasse"/>
    <tag k="website" v="http://www.sparkasse-muensterland-ost.de/"/>
    <tag k="wheelchair" v="limited"/>
  </node>
  <node id="253362382" version="3" timestamp="2008-07-03T00:11:38Z" uid="6975" user="ulfl" changeset="377243" lat="51.8073321" lon="7.9445869">
    <tag k="name" v="Mittmann"/>
    <tag k="shop" v="florist"/>
    <tag k="source" v="survey"/>
  </node>
  <node id="253362382" version="4" timestamp="2011-08-30T16:12:52Z" uid="513538" user="munky" changeset="9168655" lat="51.8073321" lon="7.9445869">
    <tag k="name" v="Blumen Mittmann"/>
    <tag k="shop" v="florist"/>
    <tag k="source" v="survey"/>
  </node>
  <node id="253362702" version="3" timestamp="2010-05-02T14:13:47Z" uid="151899" user="Bikeman2000" changeset="4585571" lat="51.2453666" lon="6.8004076"/>
  <node id="253362702" version="4" timestamp="2012-01-22T14:18:33Z" uid="12614" user="rabenkind" changeset="10465111" lat="51.2453666" lon="6.8004076"/>
  <node id="253363787" version="2" timestamp="2010-05-02T09:20:51Z" uid="151899" user="Bikeman2000" changeset="4582538" lat="51.2402832" lon="6.8184298"/>
  <node id="253363787" version="3" timestamp="2011-12-09T22:01:10Z" uid="18130" user="black_bike" changeset="10076943" lat="51.2402742" lon="6.8184875"/>
  <node id="253363788" version="2" timestamp="2010-05-02T09:20:56Z" uid="151899" user="Bikeman2000" changeset="4582538" lat="51.2404444" lon="6.8183413"/>
  <node id="253363788" version="3" timestamp="2011-12-09T22:01:11Z" uid="18130" user="black_bike" changeset="10076943" lat="51.2404489" lon="6.8184048"/>
  <node id="253363789" version="2" timestamp="2010-05-02T09:20:56Z" uid="151899" user="Bikeman2000" changeset="4582538" lat="51.2411883" lon="6.8170163"/>
  <node id="253363789" version="3" timestamp="2012-01-19T15:34:37Z" uid="12614" user="rabenkind" changeset="10438432" lat="51.2411883" lon="6.8170163"/>
  <node id="253363805" version="3" timestamp="2010-05-02T07:07:09Z" uid="151899" user="Bikeman2000" changeset="4581523" lat="51.2393684" lon="6.8204601"/>
  <node id="253363805" version="4" timestamp="2012-01-19T16:24:41Z" uid="12614" user="rabenkind" changeset="10438786" lat="51.2393684" lon="6.8204601"/>
  <node id="253363806" version="2" timestamp="2010-05-02T09:20:52Z" uid="151899" user="Bikeman2000" changeset="4582538" lat="51.2402815" lon="6.8186819"/>
  <node id="253363806" version="3" timestamp="2011-12-09T22:01:11Z" uid="18130" user="black_bike" changeset="10076943" lat="51.2403131" lon="6.8187266"/>
  <node id="253363815" version="2" timestamp="2010-05-02T09:20:51Z" uid="151899" user="Bikeman2000" changeset="4582538" lat="51.2399205" lon="6.8182447"/>
  <node id="253363815" version="3" timestamp="2012-01-19T15:34:37Z" uid="12614" user="rabenkind" changeset="10438432" lat="51.2399205" lon="6.8182447"/>
  <node id="253364993" version="3" timestamp="2009-12-02T03:03:23Z" uid="200463" user="harmagedon" changeset="3269195" lat="47.7809233" lon="12.1443604"/>
  <node id="253364993" version="4" timestamp="2011-03-26T09:28:45Z" uid="31704" user="frosch" changeset="7673362" lat="47.7809775" lon="12.1443177"/>
  <node id="253365070" version="4" timestamp="2009-12-02T03:03:25Z" uid="200463" user="harmagedon" changeset="3269195" lat="47.7801341" lon="12.1415126"/>
  <node id="253365070" version="5" timestamp="2011-05-21T17:54:21Z" uid="20601" user="SabineSW" changeset="8209107" lat="47.7801744" lon="12.1414966"/>
  <node id="253365249" version="2" timestamp="2008-07-03T00:00:56Z" uid="6975" user="ulfl" changeset="377243" lat="51.3858474" lon="-0.4258469">
    <tag k="shop" v="car"/>
    <tag k="shop:brand" v="Aston Martin"/>
  </node>
  <node id="253365249" version="3" timestamp="2009-01-03T13:06:19Z" uid="6975" user="ulfl" changeset="720285" lat="51.3858474" lon="-0.4258469">
    <tag k="brand" v="Aston Martin"/>
    <tag k="shop" v="car"/>
  </node>
  <node id="253365249" version="4" timestamp="2009-03-01T20:41:32Z" uid="1238" user="80n" changeset="714373" lat="51.3858474" lon="-0.4258469">
    <tag k="brand" v="Aston Martin"/>
    <tag k="name" v="HWM"/>
    <tag k="shop" v="car"/>
  </node>
  <node id="253365557" version="14" timestamp="2010-07-29T15:05:51Z" uid="33382" user="de_muur" changeset="5347508" lat="53.1097056" lon="8.9620807"/>
  <node id="253365838" version="3" timestamp="2010-09-08T11:30:18Z" uid="115477" user="wowik" changeset="5715736" lat="55.9176852" lon="37.4929805"/>
  <node id="253365840" version="3" timestamp="2010-09-08T10:39:25Z" uid="115477" user="wowik" changeset="5715736" lat="55.9170772" lon="37.4920881">
    <tag k="amenity" v="place_of_worship"/>
    <tag k="denomination" v="orthodox"/>
    <tag k="name" v="Церковь Троицы Живоначальной"/>
    <tag k="religion" v="christian"/>
  </node>
  <node id="253365840" version="4" timestamp="2010-09-08T10:41:01Z" uid="115477" user="wowik" changeset="5715736" lat="55.9171591" lon="37.4921114">
    <tag k="amenity" v="place_of_worship"/>
    <tag k="denomination" v="orthodox"/>
    <tag k="name" v="Церковь Иконы Божией Матери Казанская"/>
    <tag k="religion" v="christian"/>
  </node>
  <node id="253365840" version="5" timestamp="2010-09-08T10:43:06Z" uid="115477" user="wowik" changeset="5715736" lat="55.9171591" lon="37.4921114">
    <tag k="addr:housenumber" v="85"/>
    <tag k="amenity" v="place_of_worship"/>
    <tag k="denomination" v="orthodox"/>
    <tag k="name" v="Церковь Иконы Божией Матери Казанская"/>
    <tag k="religion" v="christian"/>
  </node>
  <node id="253365840" version="6" timestamp="2010-09-08T11:30:17Z" uid="115477" user="wowik" changeset="5715736" lat="55.9171591" lon="37.4921114">
    <tag k="addr:housenumber" v="85A"/>
    <tag k="amenity" v="place_of_worship"/>
    <tag k="denomination" v="orthodox"/>
    <tag k="name" v="Церковь Иконы Божией Матери Казанская"/>
    <tag k="religion" v="christian"/>
  </node>
  <node id="253365840" version="7" timestamp="2010-09-10T16:03:43Z" uid="115477" user="wowik" changeset="5742414" lat="55.9171747" lon="37.4920565">
    <tag k="addr:housenumber" v="85A"/>
    <tag k="amenity" v="place_of_worship"/>
    <tag k="denomination" v="orthodox"/>
    <tag k="name" v="Церковь Иконы Божией Матери Казанская"/>
    <tag k="religion" v="christian"/>
  </node>
  <node id="253365840" version="8" timestamp="2011-01-21T18:47:08Z" uid="70696" user="xybot" changeset="7043225" lat="55.9171747" lon="37.4920565">
    <tag k="addr:country" v="RU"/>
    <tag k="addr:housenumber" v="85А"/>
    <tag k="amenity" v="place_of_worship"/>
    <tag k="denomination" v="orthodox"/>
    <tag k="name" v="Церковь Иконы Божией Матери Казанская"/>
    <tag k="religion" v="christian"/>
  </node>
  <node id="253365840" version="9" timestamp="2012-03-24T06:39:03Z" uid="440644" user="markhor" changeset="11081072" lat="55.9171747" lon="37.4920565">
    <tag k="addr:country" v="RU"/>
    <tag k="addr:housenumber" v="85А"/>
    <tag k="amenity" v="place_of_worship"/>
    <tag k="denomination" v="orthodox"/>
    <tag k="name" v="Храм Казанской Иконы Божьей Матери"/>
    <tag k="religion" v="christian"/>
    <tag k="wikipedia" v="ru:Храм_Казанской_Иконы_Божьей_Матери_(Долгопрудный)"/>
  </node>
  <node id="253366007" version="2" timestamp="2008-07-03T15:57:22Z" uid="6975" user="ulfl" changeset="378199" lat="51.383753" lon="-0.4216344">
    <tag k="name" v="Homebase"/>
    <tag k="shop" v="doityourself"/>
  </node>
  <node id="253366007" version="3" timestamp="2010-03-14T13:51:49Z" uid="55782" user="fluteflute" changeset="4124637" lat="51.383753" lon="-0.4216344">
    <tag k="name" v="Homebase"/>
    <tag k="shop" v="doityourself"/>
  </node>
  <node id="253366838" version="1" timestamp="2008-03-22T17:16:20Z" uid="8619" user="cetest" changeset="370656" lat="52.0092541" lon="4.3557051">
    <tag k="created_by" v="JOSM"/>
  </node>
  <node id="253366838" version="2" timestamp="2010-03-12T15:43:14Z" uid="161542" user="textlijn" changeset="4107451" lat="52.0091734" lon="4.3557813"/>
  <node id="253366838" version="3" timestamp="2010-05-19T16:14:55Z" uid="26230" user="BugBlue" changeset="4749443" lat="52.0091734" lon="4.3557813"/>
  <node id="253366840" version="1" timestamp="2008-03-22T17:16:20Z" uid="8619" user="cetest" changeset="370656" lat="52.008334" lon="4.3566487">
    <tag k="created_by" v="JOSM"/>
  </node>
  <node id="253366840" version="2" timestamp="2011-12-31T13:39:56Z" uid="476789" user="CeesW" changeset="10254454" lat="52.008334" lon="4.3566487"/>
  <node id="253367603" version="13" timestamp="2010-05-08T19:36:37Z" uid="33382" user="de_muur" changeset="4642259" lat="53.0854396" lon="8.9502436"/>
  <node id="253368287" version="3" timestamp="2010-09-07T12:45:39Z" uid="115477" user="wowik" changeset="5707581" lat="55.926166" lon="37.5234251"/>
  <node id="253368287" version="4" timestamp="2011-05-28T13:24:56Z" uid="440644" user="markhor" changeset="8271309" lat="55.9261713" lon="37.5234593"/>
  <node id="253368287" version="5" timestamp="2011-05-31T04:34:09Z" uid="440644" user="markhor" changeset="8298232" lat="55.9261716" lon="37.5234609"/>
  <node id="253368418" version="11" timestamp="2010-01-07T17:09:47Z" uid="33382" user="de_muur" changeset="3563650" lat="53.0746012" lon="8.9542188"/>
  <node id="253368419" version="9" timestamp="2010-01-07T17:09:49Z" uid="33382" user="de_muur" changeset="3563650" lat="53.074777" lon="8.9545614"/>
  <node id="253368725" version="2" timestamp="2008-07-06T08:42:50Z" uid="6975" user="ulfl" changeset="407266" lat="-25.993933" lon="28.1388547">
    <tag k="man_made" v="reservoir_covered"/>
  </node>
  <node id="253368725" version="3" timestamp="2009-03-26T13:26:20Z" uid="108442" user="Gordon Mc" changeset="862277" lat="-25.9942419" lon="28.1389573">
    <tag k="created_by" v="Potlatch 0.10f"/>
    <tag k="man_made" v="reservoir_covered"/>
  </node>
  <node id="253368725" version="4" timestamp="2009-03-26T13:26:24Z" uid="108442" user="Gordon Mc" changeset="862277" lat="-25.9941261" lon="28.1394293">
    <tag k="created_by" v="Potlatch 0.10f"/>
    <tag k="man_made" v="reservoir_covered"/>
  </node>
  <node id="253368725" version="5" timestamp="2009-03-27T14:34:10Z" uid="108442" user="Gordon Mc" changeset="864241" lat="-25.9939785" lon="28.1391099">
    <tag k="created_by" v="Potlatch 0.10f"/>
    <tag k="man_made" v="reservoir_covered"/>
  </node>
  <node id="253368725" version="6" timestamp="2009-07-07T04:28:51Z" uid="6636" user="johng" changeset="1758978" lat="-25.9938739" lon="28.1388667">
    <tag k="created_by" v="Potlatch 0.10f"/>
    <tag k="man_made" v="reservoir_covered"/>
  </node>
  <node id="253368733" version="2" timestamp="2008-12-14T13:18:36Z" uid="6975" user="ulfl" changeset="366940" lat="-25.9862169" lon="28.140805">
    <tag k="aeroway" v="aerodrome"/>
    <tag k="icao" v="FAGC"/>
    <tag k="name" v="Grand Central"/>
  </node>
  <node id="253368733" version="3" timestamp="2009-03-31T15:28:50Z" uid="108442" user="Gordon Mc" changeset="873285" lat="-25.986223" lon="28.1407981">
    <tag k="aeroway" v="aerodrome"/>
    <tag k="created_by" v="Potlatch 0.10f"/>
    <tag k="icao" v="FAGC"/>
    <tag k="name" v="Grand Central"/>
  </node>
  <node id="253368733" version="4" timestamp="2009-05-23T01:00:44Z" uid="28145" user="amillar" changeset="1291293" lat="-25.9864452" lon="28.1402548">
    <tag k="aeroway" v="aerodrome"/>
    <tag k="closest_town" v="Midrand"/>
    <tag k="created_by" v="Potlatch 0.10f"/>
    <tag k="ele" v="1624"/>
    <tag k="iata" v="GCJ"/>
    <tag k="icao" v="FAGC"/>
    <tag k="name" v="Grand Central Airport"/>
    <tag k="name:en" v="Grand Central Airport"/>
    <tag k="name_1" v="Grand Central"/>
    <tag k="source" v="wikipedia"/>
    <tag k="type" v="Public"/>
    <tag k="wikipedia:en" v="Grand_Central_Airport"/>
  </node>
  <node id="253368733" version="5" timestamp="2010-02-26T14:02:38Z" uid="114902" user="Raithlin" changeset="3980490" lat="-25.9864451" lon="28.1402548">
    <tag k="aeroway" v="aerodrome"/>
    <tag k="closest_town" v="Midrand"/>
    <tag k="ele" v="1624"/>
    <tag k="iata" v="GCJ"/>
    <tag k="icao" v="FAGC"/>
    <tag k="name" v="Grand Central Airport"/>
    <tag k="name:en" v="Grand Central Airport"/>
    <tag k="name_1" v="Grand Central"/>
    <tag k="source" v="wikipedia"/>
    <tag k="type" v="Public"/>
    <tag k="wikipedia:en" v="Grand_Central_Airport"/>
  </node>
  <node id="253368733" version="6" timestamp="2010-04-23T08:13:04Z" uid="232312" user="ike88" changeset="4501458" lat="-25.986445" lon="28.1402547">
    <tag k="aeroway" v="aerodrome"/>
    <tag k="closest_town" v="Midrand"/>
    <tag k="ele" v="1624"/>
    <tag k="iata" v="GCJ"/>
    <tag k="icao" v="FAGC"/>
    <tag k="name" v="Grand Central Airport"/>
    <tag k="name:en" v="Grand Central Airport"/>
    <tag k="name_1" v="Grand Central"/>
    <tag k="source" v="wikipedia"/>
    <tag k="type" v="public"/>
    <tag k="wikipedia:en" v="Grand_Central_Airport"/>
  </node>
  <node id="253368733" version="7" timestamp="2010-07-04T09:17:08Z" uid="5616" user="Adrian Frith" changeset="5130996" lat="-25.9870667" lon="28.1405472">
    <tag k="aeroway" v="aerodrome"/>
    <tag k="alt_name" v="Grand Central"/>
    <tag k="closest_town" v="Midrand"/>
    <tag k="ele" v="1623"/>
    <tag k="iata" v="GCJ"/>
    <tag k="icao" v="FAGC"/>
    <tag k="name" v="Grand Central Airport"/>
    <tag k="name:en" v="Grand Central Airport"/>
    <tag k="source" v="wikipedia"/>
    <tag k="type" v="public"/>
    <tag k="wikipedia:en" v="Grand_Central_Airport"/>
  </node>
  <node id="253368830" version="3" timestamp="2010-05-26T16:52:47Z" uid="115477" user="wowik" changeset="4814765" lat="55.9274404" lon="37.5174376"/>
  <node id="253368830" version="4" timestamp="2011-05-31T04:14:04Z" uid="440644" user="markhor" changeset="8298169" lat="55.9274506" lon="37.5173488"/>
  <node id="253368836" version="3" timestamp="2010-05-26T16:52:47Z" uid="115477" user="wowik" changeset="4814765" lat="55.9274133" lon="37.5171962"/>
  <node id="253368836" version="4" timestamp="2011-05-31T04:14:04Z" uid="440644" user="markhor" changeset="8298169" lat="55.9274446" lon="37.5171241"/>
  <node id="253368838" version="3" timestamp="2010-05-26T16:52:47Z" uid="115477" user="wowik" changeset="4814765" lat="55.9274704" lon="37.5169279"/>
  <node id="253368838" version="4" timestamp="2011-05-31T04:14:04Z" uid="440644" user="markhor" changeset="8298169" lat="55.9274927" lon="37.5169291"/>
  <node id="253369990" version="19" timestamp="2009-12-06T17:23:09Z" uid="33382" user="de_muur" changeset="3307377" lat="53.0857046" lon="8.9785296"/>
  <node id="253369991" version="15" timestamp="2009-12-06T17:23:09Z" uid="33382" user="de_muur" changeset="3307377" lat="53.0857934" lon="8.9791721"/>
  <node id="253369992" version="14" timestamp="2009-12-06T17:23:10Z" uid="33382" user="de_muur" changeset="3307377" lat="53.0855751" lon="8.9843261"/>
  <node id="253369993" version="14" timestamp="2009-12-06T17:23:10Z" uid="33382" user="de_muur" changeset="3307377" lat="53.0831588" lon="8.9894768"/>
  <node id="253369994" version="13" timestamp="2009-12-12T17:46:20Z" uid="33382" user="de_muur" changeset="3357480" lat="53.0827411" lon="8.9954132"/>
</osm>
