<?xml version='1.0' encoding='UTF-8'?>
<osm version="0.6" generator="libosmium/2.20.0">
  <node id="253693088" version="4" timestamp="2009-12-20T14:43:20Z" uid="4467" user="Rosscoe" changeset="3414047" lat="-27.178574" lon="152.9839889"/>
  <node id="253694441" version="2" timestamp="2008-09-14T20:01:19Z" uid="6975" user="ulfl" changeset="640534" lat="55.9235102" lon="-3.2915913">
    <tag k="amenity" v="bank"/>
    <tag k="atm" v="yes"/>
    <tag k="name" v="Clydesdale Bank"/>
  </node>
  <node id="253694441" version="3" timestamp="2009-09-01T14:50:01Z" uid="57932" user="Strange but untrue" changeset="2338454" lat="55.9235125" lon="-3.2915973">
    <tag k="amenity" v="bank"/>
    <tag k="atm" v="yes"/>
    <tag k="name" v="Clydesdale Bank"/>
    <tag k="operator" v="Clydesdale Bank"/>
  </node>
  <node id="253694442" version="2" timestamp="2008-09-14T20:01:19Z" uid="6975" user="ulfl" changeset="640534" lat="55.9233837" lon="-3.2915448">
    <tag k="amenity" v="bank"/>
    <tag k="atm" v="yes"/>
    <tag k="name" v="Bank of Scotland"/>
  </node>
  <node id="253694442" version="3" timestamp="2009-09-01T14:49:50Z" uid="57932" user="Strange but untrue" changeset="2338454" lat="55.9233875" lon="-3.2915458">
    <tag k="amenity" v="bank"/>
    <tag k="atm" v="yes"/>
    <tag k="name" v="Bank of Scotland"/>
    <tag k="operator" v="Bank of Scotland"/>
  </node>
  <node id="253695062" version="4" timestamp="2010-05-05T11:12:59Z" uid="58091" user="Andreas M" changeset="4611878" lat="48.0926508" lon="16.2067051"/>
  <node id="253695062" version="5" timestamp="2011-01-01T20:32:29Z" uid="302363" user="fkv" changeset="6832093" lat="48.0927097" lon="16.2067086"/>
</osm>
