<?xml version='1.0' encoding='UTF-8'?>
<osm version="0.6" generator="libosmium/2.20.0">
  <node id="25388430" version="3" timestamp="2008-12-28T19:10:58Z" uid="27600" user="Islanit" changeset="645924" lat="53.5319173" lon="10.2270455"/>
  <node id="25388431" version="2" timestamp="2008-12-28T19:10:58Z" uid="27600" user="Islanit" changeset="645924" lat="53.5328939" lon="10.2235704"/>
  <node id="25388431" version="3" timestamp="2012-02-28T08:56:54Z" uid="46145" user="Jacques_N" changeset="10816748" lat="53.5328939" lon="10.2235704"/>
  <node id="25388991" version="3" timestamp="2008-08-15T00:11:02Z" uid="6975" user="ulfl" changeset="264731" lat="14.5292007" lon="120.997274">
    <tag k="amenity" v="place_of_worship"/>
    <tag k="denomination" v="catholic"/>
    <tag k="name" v="Sta. Rita de Cascia Church, Baclaran Parish"/>
    <tag k="religion" v="christian"/>
  </node>
  <node id="25388991" version="4" timestamp="2009-06-11T06:36:19Z" uid="44938" user="ianlopez1115" changeset="1483825" lat="14.5286764" lon="120.9978063">
    <tag k="amenity" v="place_of_worship"/>
    <tag k="denomination" v="catholic"/>
    <tag k="name" v="Sta. Rita de Cascia Church, Baclaran Parish"/>
    <tag k="religion" v="christian"/>
  </node>
  <node id="25389005" version="3" timestamp="2008-08-15T00:19:52Z" uid="6975" user="ulfl" changeset="264731" lat="14.5163824" lon="120.9962435">
    <tag k="amenity" v="place_of_worship"/>
    <tag k="denomination" v="methodist"/>
    <tag k="name" v="Martyrs&amp;apos; Memorial Methodist Church"/>
    <tag k="place_numbers" v="199"/>
    <tag k="religion" v="christian"/>
  </node>
  <node id="25389005" version="4" timestamp="2008-11-18T12:45:02Z" uid="44938" user="ianlopez1115" changeset="765850" lat="14.5163754" lon="120.9962508">
    <tag k="amenity" v="place_of_worship"/>
    <tag k="created_by" v="Potlatch 0.10f"/>
    <tag k="denomination" v="methodist"/>
    <tag k="name" v="Martyrs&apos; Memorial Methodist Church"/>
    <tag k="place_numbers" v="199"/>
    <tag k="religion" v="christian"/>
  </node>
  <node id="25389005" version="5" timestamp="2010-10-26T22:13:46Z" uid="103253" user="gormur" changeset="6187234" lat="14.5163754" lon="120.9962508">
    <tag k="addr:housenumber" v="199"/>
    <tag k="amenity" v="place_of_worship"/>
    <tag k="denomination" v="methodist"/>
    <tag k="name" v="Martyrs&apos; Memorial Methodist Church"/>
    <tag k="religion" v="christian"/>
  </node>
  <node id="25389005" version="6" timestamp="2012-01-29T05:10:29Z" uid="11126" user="seav" changeset="10526903" lat="14.5163754" lon="120.9962508"/>
  <node id="25389019" version="5" timestamp="2008-07-02T23:52:26Z" uid="6975" user="ulfl" changeset="377243" lat="14.5307798" lon="120.996874">
    <tag k="amenity" v="pharmacy"/>
    <tag k="name" v="Mercury Drug"/>
  </node>
  <node id="25389030" version="3" timestamp="2008-07-08T19:43:54Z" uid="6975" user="ulfl" changeset="431192" lat="14.5218405" lon="120.996845">
    <tag k="name" v="Pearl Plaza [shopping center]"/>
    <tag k="shop" v="shopping_centre"/>
  </node>
  <node id="25389030" version="4" timestamp="2010-09-20T22:51:55Z" uid="65148" user="Pirat Michi" changeset="5833632" lat="14.5218405" lon="120.996845">
    <tag k="name" v="Pearl Plaza [shopping center]"/>
    <tag k="shop" v="mall"/>
  </node>
  <node id="25389030" version="5" timestamp="2011-12-11T01:21:56Z" uid="11126" user="seav" changeset="10086258" lat="14.5212783" lon="120.9970054">
    <tag k="name" v="Pearl Plaza [shopping center]"/>
    <tag k="shop" v="mall"/>
  </node>
  <node id="25389032" version="6" timestamp="2008-07-02T23:52:24Z" uid="6975" user="ulfl" changeset="377243" lat="14.5220603" lon="120.9966813">
    <tag k="amenity" v="pharmacy"/>
    <tag k="name" v="Mercury Drug"/>
  </node>
  <node id="25389032" version="7" timestamp="2009-06-11T00:48:04Z" uid="44938" user="ianlopez1115" changeset="1482708" lat="14.5219684" lon="120.996692">
    <tag k="amenity" v="pharmacy"/>
    <tag k="operator" v="Mercury Drug"/>
  </node>
  <node id="25389032" version="8" timestamp="2009-06-11T00:48:12Z" uid="44938" user="ianlopez1115" changeset="1482708" lat="14.5220183" lon="120.9966663">
    <tag k="amenity" v="pharmacy"/>
    <tag k="operator" v="Mercury Drug"/>
  </node>
  <node id="25389077" version="3" timestamp="2008-08-15T00:10:55Z" uid="6975" user="ulfl" changeset="264731" lat="14.5148631" lon="120.9959911">
    <tag k="amenity" v="place_of_worship"/>
    <tag k="denomination" v="catholic"/>
    <tag k="name" v="St Joseph Parish Church"/>
    <tag k="religion" v="christian"/>
  </node>
  <node id="25389077" version="4" timestamp="2009-06-11T00:18:25Z" uid="44938" user="ianlopez1115" changeset="1482656" lat="14.5147811" lon="120.9963401">
    <tag k="amenity" v="place_of_worship"/>
    <tag k="denomination" v="roman_catholic"/>
    <tag k="name" v="St Joseph Parish Church"/>
    <tag k="religion" v="christian"/>
  </node>
  <node id="25389123" version="2" timestamp="2007-10-25T19:47:56Z" uid="8328" user="benpre" changeset="314650" lat="14.5387656" lon="120.9956607">
    <tag k="created_by" v="JOSM"/>
  </node>
  <node id="25389123" version="3" timestamp="2008-01-16T14:47:17Z" uid="5541" user="Ian Haylock" changeset="647992" lat="14.5387656" lon="120.9956607">
    <tag k="created_by" v="JOSM"/>
  </node>
  <node id="25389123" version="4" timestamp="2009-01-13T04:01:29Z" uid="44938" user="ianlopez1115" changeset="781449" lat="14.5387656" lon="120.9956607"/>
  <node id="25389123" version="5" timestamp="2009-01-13T04:01:41Z" uid="44938" user="ianlopez1115" changeset="781449" lat="14.5387656" lon="120.9956607"/>
  <node id="25389123" version="6" timestamp="2010-07-25T17:40:21Z" uid="11126" user="seav" changeset="5314317" lat="14.5388051" lon="120.9955991"/>
  <node id="25389123" version="7" timestamp="2011-05-07T15:25:04Z" uid="11126" user="seav" changeset="8074428" lat="14.5387964" lon="120.9955394"/>
  <node id="25389123" version="8" timestamp="2011-11-12T23:45:27Z" uid="11126" user="seav" changeset="9809846" lat="14.5387937" lon="120.9955422"/>
</osm>
