<?xml version='1.0' encoding='UTF-8'?>
<osm version="0.6" generator="libosmium/2.20.0">
  <node id="255203643" version="4" timestamp="2008-07-07T02:05:44Z" uid="6975" user="ulfl" changeset="415781" lat="49.625979" lon="10.8369501">
    <tag k="name" v="REWE"/>
    <tag k="shop" v="supermarket"/>
  </node>
  <node id="255203643" version="5" timestamp="2008-11-26T14:53:49Z" uid="26567" user="maximal" changeset="796491" lat="49.6259701" lon="10.8368967">
    <tag k="name" v="REWE"/>
    <tag k="shop" v="supermarket"/>
  </node>
  <node id="255203643" version="6" timestamp="2012-01-26T12:42:37Z" uid="290680" user="wheelmap_visitor" changeset="10500956" lat="49.6259701" lon="10.8368967">
    <tag k="name" v="REWE"/>
    <tag k="shop" v="supermarket"/>
    <tag k="wheelchair" v="yes"/>
  </node>
  <node id="255205028" version="2" timestamp="2010-03-16T22:31:48Z" uid="163746" user="anti_bot-nonsense" changeset="4147654" lat="52.4428884" lon="16.944458">
    <tag k="amenity" v="fuel"/>
  </node>
  <node id="255205028" version="3" timestamp="2010-06-24T11:35:08Z" uid="303209" user="dPedro" changeset="5065433" lat="52.4428175" lon="16.9441082">
    <tag k="amenity" v="fuel"/>
  </node>
  <node id="255205028" version="4" timestamp="2011-08-06T23:52:10Z" uid="189054" user="zolv" changeset="8942965" lat="52.4427536" lon="16.9442101">
    <tag k="amenity" v="fuel"/>
    <tag k="operator" v="Lotos"/>
  </node>
</osm>
