<?xml version='1.0' encoding='UTF-8'?>
<osm version="0.6" generator="libosmium/2.20.0">
  <node id="258710405" version="5" timestamp="2009-12-09T21:15:44Z" uid="200463" user="harmagedon" changeset="3336909" lat="51.053108" lon="14.2775408">
    <tag k="amenity" v="restaurant"/>
    <tag k="name" v="HohwaldschÃ¤nke"/>
  </node>
  <node id="258710541" version="2" timestamp="2008-09-18T10:08:55Z" uid="65847" user="LKK" changeset="658467" lat="50.2369248" lon="8.4039443">
    <tag k="created_by" v="JOSM"/>
  </node>
  <node id="258710541" version="3" timestamp="2008-09-18T10:43:36Z" uid="65847" user="LKK" changeset="658467" lat="50.2369153" lon="8.4039105">
    <tag k="created_by" v="JOSM"/>
  </node>
  <node id="258711638" version="2" timestamp="2009-01-07T08:33:42Z" uid="27600" user="Islanit" changeset="750056" lat="53.4477417" lon="9.9682406"/>
  <node id="258711638" version="3" timestamp="2009-01-07T08:33:52Z" uid="27600" user="Islanit" changeset="750056" lat="53.4477417" lon="9.9682406"/>
  <node id="258711638" version="4" timestamp="2012-03-03T14:51:46Z" uid="63375" user="Divjo" changeset="10858542" lat="53.4477417" lon="9.9682406"/>
  <node id="258711673" version="1" timestamp="2008-04-19T22:09:48Z" uid="30632" user="antblant" changeset="198306" lat="53.4264692" lon="14.5424917">
    <tag k="amenity" v="cinema"/>
    <tag k="created_by" v="Potlatch 0.8a"/>
    <tag k="name" v="Helios"/>
  </node>
  <node id="258711673" version="2" timestamp="2009-02-19T21:57:26Z" uid="30632" user="antblant" changeset="560959" lat="53.4265082" lon="14.542501">
    <tag k="amenity" v="cinema"/>
    <tag k="created_by" v="Potlatch 0.10f"/>
    <tag k="name" v="Helios"/>
  </node>
  <node id="258711673" version="3" timestamp="2009-09-14T17:00:29Z" uid="30632" user="antblant" changeset="2484005" lat="53.4266553" lon="14.5425109">
    <tag k="amenity" v="cinema"/>
    <tag k="name" v="Helios"/>
  </node>
  <node id="258711714" version="1" timestamp="2008-04-19T22:09:52Z" uid="30632" user="antblant" changeset="198306" lat="53.4328258" lon="14.5448263">
    <tag k="created_by" v="Potlatch 0.8a"/>
  </node>
  <node id="258711714" version="2" timestamp="2008-04-19T22:10:10Z" uid="30632" user="antblant" changeset="198306" lat="53.4328258" lon="14.544749">
    <tag k="amenity" v="pub"/>
    <tag k="created_by" v="Potlatch 0.8a"/>
    <tag k="name" v="Hormon"/>
  </node>
  <node id="258711714" version="3" timestamp="2008-04-19T23:02:41Z" uid="30632" user="antblant" changeset="198306" lat="53.4328303" lon="14.5447487">
    <tag k="amenity" v="nightclub"/>
    <tag k="created_by" v="Potlatch 0.8a"/>
    <tag k="name" v="Hormon"/>
  </node>
  <node id="258711714" version="4" timestamp="2008-12-04T23:27:35Z" uid="18325" user="sumpfralle" changeset="127279" lat="53.4328972" lon="14.5445056">
    <tag k="amenity" v="nightclub"/>
    <tag k="created_by" v="Potlatch 0.8a"/>
    <tag k="name" v="Hormon"/>
  </node>
  <node id="258711714" version="5" timestamp="2009-11-03T01:00:19Z" uid="36809" user="pfoten_weg_!_" changeset="3021530" lat="53.4328972" lon="14.5445056">
    <tag k="amenity" v="nightclub"/>
    <tag k="name" v="Hormon"/>
  </node>
  <node id="258711714" version="6" timestamp="2010-01-25T15:08:59Z" uid="30632" user="antblant" changeset="3711648" lat="53.4326492" lon="14.544684">
    <tag k="amenity" v="nightclub"/>
    <tag k="name" v="Hormon"/>
  </node>
  <node id="258711714" version="7" timestamp="2011-09-26T07:24:41Z" uid="290680" user="wheelmap_visitor" changeset="9398611" lat="53.4326492" lon="14.544684">
    <tag k="amenity" v="nightclub"/>
    <tag k="name" v="Hormon"/>
    <tag k="wheelchair" v="no"/>
  </node>
  <node id="258711910" version="3" timestamp="2009-10-03T13:34:45Z" uid="179968" user="Ich_hasse_doitsche_OSM-Korinthenkacker" changeset="2723894" lat="52.214056" lon="10.6371117">
    <tag k="amenity" v="place_of_worship"/>
    <tag k="denomination" v="evangelical"/>
    <tag k="religion" v="christian"/>
  </node>
  <node id="258711910" version="4" timestamp="2009-11-07T09:33:02Z" uid="31231" user="Andre68" changeset="3054236" lat="52.214056" lon="10.6371117">
    <tag k="amenity" v="place_of_worship"/>
    <tag k="denomination" v="evangelical"/>
    <tag k="name" v="St. Petri"/>
    <tag k="religion" v="christian"/>
  </node>
  <node id="258711910" version="5" timestamp="2010-05-01T11:42:02Z" uid="31231" user="Andre68" changeset="4573937" lat="52.214056" lon="10.6371117">
    <tag k="amenity" v="place_of_worship"/>
    <tag k="denomination" v="evangelical"/>
    <tag k="name" v="St. Petri Sickte"/>
    <tag k="religion" v="christian"/>
  </node>
  <node id="258711910" version="6" timestamp="2010-12-19T07:09:04Z" uid="31231" user="Andre68" changeset="6702744" lat="52.214056" lon="10.6371117">
    <tag k="amenity" v="place_of_worship"/>
    <tag k="denomination" v="evangelical"/>
    <tag k="name" v="St. Petri Sickte"/>
    <tag k="religion" v="christian"/>
  </node>
  <node id="258712590" version="1" timestamp="2008-04-19T22:11:10Z" uid="30632" user="antblant" changeset="198306" lat="53.4273949" lon="14.5340545">
    <tag k="amenity" v="pub"/>
    <tag k="created_by" v="Potlatch 0.8a"/>
    <tag k="name" v="Wiarus"/>
  </node>
  <node id="258712590" version="2" timestamp="2008-04-20T13:28:15Z" uid="30632" user="antblant" changeset="207111" lat="53.4273284" lon="14.5340173">
    <tag k="amenity" v="pub"/>
    <tag k="created_by" v="Potlatch 0.8a"/>
    <tag k="name" v="Wiarus"/>
  </node>
  <node id="258712590" version="3" timestamp="2008-05-28T18:27:12Z" uid="30632" user="antblant" changeset="543972" lat="53.4273312" lon="14.5340129">
    <tag k="amenity" v="pub"/>
    <tag k="created_by" v="Potlatch 0.9b"/>
    <tag k="food" v="yes"/>
    <tag k="name" v="Wiarus"/>
  </node>
  <node id="258712590" version="4" timestamp="2008-06-04T22:42:49Z" uid="31442" user="cheatoss" changeset="62440" lat="53.427335" lon="14.5340193">
    <tag k="amenity" v="pub"/>
    <tag k="created_by" v="Potlatch 0.9c"/>
    <tag k="food" v="yes"/>
    <tag k="name" v="Wiarus"/>
  </node>
  <node id="258712590" version="5" timestamp="2008-10-04T15:51:58Z" uid="30632" user="antblant" changeset="65285" lat="53.427335" lon="14.5342477">
    <tag k="amenity" v="pub"/>
    <tag k="created_by" v="Potlatch 0.9c"/>
    <tag k="food" v="yes"/>
    <tag k="name" v="Wiarus"/>
  </node>
  <node id="258712590" version="6" timestamp="2008-11-24T16:47:07Z" uid="30632" user="antblant" changeset="787794" lat="53.4273771" lon="14.5342183">
    <tag k="amenity" v="pub"/>
    <tag k="created_by" v="Potlatch 0.9c"/>
    <tag k="food" v="yes"/>
    <tag k="name" v="Wiarus"/>
  </node>
  <node id="258712590" version="7" timestamp="2009-03-25T18:09:53Z" uid="30632" user="antblant" changeset="856878" lat="53.4273588" lon="14.5341298">
    <tag k="amenity" v="pub"/>
    <tag k="created_by" v="Potlatch 0.9c"/>
    <tag k="food" v="yes"/>
    <tag k="name" v="Wiarus"/>
  </node>
  <node id="258712590" version="8" timestamp="2009-11-03T00:59:57Z" uid="36809" user="pfoten_weg_!_" changeset="3021530" lat="53.4273588" lon="14.5341298">
    <tag k="amenity" v="pub"/>
    <tag k="food" v="yes"/>
    <tag k="name" v="Wiarus"/>
  </node>
  <node id="258712590" version="9" timestamp="2010-11-11T14:48:37Z" uid="30632" user="antblant" changeset="6344096" lat="53.4274763" lon="14.5341181">
    <tag k="amenity" v="pub"/>
    <tag k="food" v="yes"/>
    <tag k="name" v="Wiarus"/>
  </node>
  <node id="258715884" version="1" timestamp="2008-04-19T22:16:33Z" uid="30632" user="antblant" changeset="198306" lat="53.431315" lon="14.5446993">
    <tag k="amenity" v="fast_food"/>
    <tag k="created_by" v="Potlatch 0.8a"/>
    <tag k="name" v="Qrnik"/>
  </node>
  <node id="258715884" version="2" timestamp="2008-09-08T22:37:55Z" uid="30632" user="antblant" changeset="580205" lat="53.431256" lon="14.5448131">
    <tag k="amenity" v="fast_food"/>
    <tag k="created_by" v="Potlatch 0.8a"/>
    <tag k="name" v="Qrnik"/>
    <tag k="opening_hours" v="24/7"/>
  </node>
  <node id="258715884" version="3" timestamp="2009-04-11T09:54:20Z" uid="30632" user="antblant" changeset="408814" lat="53.4313028" lon="14.544804">
    <tag k="amenity" v="fast_food"/>
    <tag k="created_by" v="Potlatch 0.10f"/>
    <tag k="name" v="Qrnik"/>
    <tag k="opening_hours" v="24/7"/>
  </node>
  <node id="258715884" version="4" timestamp="2009-11-03T01:00:16Z" uid="36809" user="pfoten_weg_!_" changeset="3021530" lat="53.4313028" lon="14.544804">
    <tag k="amenity" v="fast_food"/>
    <tag k="name" v="Qrnik"/>
    <tag k="opening_hours" v="24/7"/>
  </node>
  <node id="258715884" version="5" timestamp="2010-01-25T15:08:56Z" uid="30632" user="antblant" changeset="3711648" lat="53.4313382" lon="14.544804">
    <tag k="amenity" v="fast_food"/>
    <tag k="name" v="Qrnik"/>
    <tag k="opening_hours" v="24/7"/>
  </node>
  <node id="258716136" version="1" timestamp="2008-04-19T22:16:50Z" uid="30632" user="antblant" changeset="198306" lat="53.4321945" lon="14.5476776">
    <tag k="amenity" v="fast_food"/>
    <tag k="created_by" v="Potlatch 0.8a"/>
    <tag k="name" v="Mak Kwak"/>
  </node>
  <node id="258716136" version="2" timestamp="2008-06-01T17:00:35Z" uid="30632" user="antblant" changeset="7557" lat="53.4320457" lon="14.5476305">
    <tag k="amenity" v="fast_food"/>
    <tag k="created_by" v="Potlatch 0.9c"/>
    <tag k="name" v="Mak Kwak"/>
  </node>
  <node id="258716136" version="3" timestamp="2008-09-14T15:44:39Z" uid="30632" user="antblant" changeset="630411" lat="53.4320457" lon="14.5476305">
    <tag k="amenity" v="fast_food"/>
    <tag k="created_by" v="Potlatch 0.9c"/>
    <tag k="name" v="Mak Kwak"/>
    <tag k="opening_hours" v="24/7"/>
  </node>
  <node id="258716136" version="4" timestamp="2009-09-14T17:04:55Z" uid="30632" user="antblant" changeset="2484044" lat="53.431928" lon="14.5475831">
    <tag k="amenity" v="fast_food"/>
    <tag k="name" v="Mak Kwak"/>
    <tag k="opening_hours" v="24/7"/>
  </node>
  <node id="258716136" version="5" timestamp="2009-11-27T21:00:42Z" uid="30632" user="antblant" changeset="3231676" lat="53.4319053" lon="14.5474932">
    <tag k="amenity" v="fast_food"/>
    <tag k="name" v="Mak Kwak"/>
    <tag k="opening_hours" v="24/7"/>
  </node>
  <node id="258716632" version="1" timestamp="2008-04-19T22:17:35Z" uid="30632" user="antblant" changeset="198306" lat="53.4271931" lon="14.5380131">
    <tag k="created_by" v="Potlatch 0.8a"/>
  </node>
  <node id="258716632" version="2" timestamp="2008-04-19T22:18:04Z" uid="30632" user="antblant" changeset="198306" lat="53.4271625" lon="14.5380646">
    <tag k="amenity" v="fast_food"/>
    <tag k="created_by" v="Potlatch 0.8a"/>
    <tag k="name" v="Mak Kwak"/>
  </node>
  <node id="258716632" version="3" timestamp="2008-09-14T15:44:41Z" uid="30632" user="antblant" changeset="630411" lat="53.4271625" lon="14.5380646">
    <tag k="amenity" v="fast_food"/>
    <tag k="created_by" v="Potlatch 0.8a"/>
    <tag k="name" v="Mak Kwak"/>
    <tag k="opening_hours" v="24/7"/>
  </node>
  <node id="258716632" version="4" timestamp="2009-09-14T17:00:28Z" uid="30632" user="antblant" changeset="2484005" lat="53.4271596" lon="14.5386027">
    <tag k="amenity" v="fast_food"/>
    <tag k="name" v="Mak Kwak"/>
    <tag k="opening_hours" v="24/7"/>
  </node>
  <node id="258716632" version="5" timestamp="2010-11-11T14:48:26Z" uid="30632" user="antblant" changeset="6344096" lat="53.4271503" lon="14.5385975">
    <tag k="amenity" v="fast_food"/>
    <tag k="name" v="Mak Kwak"/>
    <tag k="opening_hours" v="24/7"/>
  </node>
  <node id="258717268" version="1" timestamp="2008-04-19T22:18:30Z" uid="30632" user="antblant" changeset="198306" lat="53.425398" lon="14.5500379">
    <tag k="amenity" v="fast_food"/>
    <tag k="created_by" v="Potlatch 0.8a"/>
    <tag k="name" v="Mak Kwak"/>
  </node>
  <node id="258717268" version="2" timestamp="2008-09-14T15:44:36Z" uid="30632" user="antblant" changeset="630411" lat="53.425398" lon="14.5500379">
    <tag k="amenity" v="fast_food"/>
    <tag k="created_by" v="Potlatch 0.8a"/>
    <tag k="name" v="Mak Kwak"/>
    <tag k="opening_hours" v="24/7"/>
  </node>
  <node id="258717268" version="3" timestamp="2009-11-03T01:00:54Z" uid="36809" user="pfoten_weg_!_" changeset="3021530" lat="53.425398" lon="14.5500379">
    <tag k="amenity" v="fast_food"/>
    <tag k="name" v="Mak Kwak"/>
    <tag k="opening_hours" v="24/7"/>
  </node>
  <node id="258717268" version="4" timestamp="2009-11-07T12:19:03Z" uid="30632" user="antblant" changeset="3055198" lat="53.4255935" lon="14.5498872">
    <tag k="amenity" v="fast_food"/>
    <tag k="name" v="Mak Kwak"/>
    <tag k="opening_hours" v="24/7"/>
  </node>
  <node id="258717268" version="5" timestamp="2010-11-11T14:48:43Z" uid="30632" user="antblant" changeset="6344096" lat="53.4255935" lon="14.5498872">
    <tag k="amenity" v="fast_food"/>
    <tag k="name" v="Mak Kwak"/>
    <tag k="opening_hours" v="24/7"/>
  </node>
  <node id="258718457" version="2" timestamp="2008-05-03T15:35:40Z" uid="8328" user="benpre" changeset="317482" lat="48.6592496" lon="8.9676948">
    <tag k="created_by" v="JOSM"/>
  </node>
  <node id="258718901" version="1" timestamp="2008-04-19T22:21:40Z" uid="30632" user="antblant" changeset="198306" lat="53.4288194" lon="14.5543295">
    <tag k="amenity" v="fast_food"/>
    <tag k="created_by" v="Potlatch 0.8a"/>
    <tag k="name" v="Mak Kwak"/>
  </node>
  <node id="258718901" version="2" timestamp="2008-09-14T15:44:42Z" uid="30632" user="antblant" changeset="630411" lat="53.4288194" lon="14.5543295">
    <tag k="amenity" v="fast_food"/>
    <tag k="created_by" v="Potlatch 0.8a"/>
    <tag k="name" v="Mak Kwak"/>
    <tag k="opening_hours" v="24/7"/>
  </node>
  <node id="258718901" version="3" timestamp="2009-09-12T11:50:13Z" uid="30632" user="antblant" changeset="2457089" lat="53.4288914" lon="14.554385">
    <tag k="amenity" v="fast_food"/>
    <tag k="name" v="Mak Kwak"/>
    <tag k="opening_hours" v="24/7"/>
  </node>
  <node id="258718901" version="4" timestamp="2010-11-11T21:18:55Z" uid="30632" user="antblant" changeset="6347094" lat="53.4288705" lon="14.5543499">
    <tag k="amenity" v="fast_food"/>
    <tag k="name" v="Mak Kwak"/>
    <tag k="opening_hours" v="24/7"/>
  </node>
  <node id="258718901" version="5" timestamp="2011-09-26T07:28:49Z" uid="290680" user="wheelmap_visitor" changeset="9398611" lat="53.4288705" lon="14.5543499">
    <tag k="amenity" v="fast_food"/>
    <tag k="name" v="Mak Kwak"/>
    <tag k="opening_hours" v="24/7"/>
    <tag k="wheelchair" v="limited"/>
  </node>
</osm>
