<?xml version='1.0' encoding='UTF-8'?>
<osm version="0.6" generator="libosmium/2.20.0">
  <node id="259232602" version="2" timestamp="2008-11-30T20:53:10Z" uid="6269" user="Mueck" changeset="813905" lat="53.0886163" lon="8.7853388"/>
  <node id="259232602" version="3" timestamp="2009-02-19T09:23:38Z" uid="57645" user="KartoGrapHiti" changeset="551388" lat="53.0886163" lon="8.7853388"/>
  <node id="259232602" version="4" timestamp="2009-02-19T09:23:57Z" uid="57645" user="KartoGrapHiti" changeset="551388" lat="53.0886163" lon="8.7853388"/>
  <node id="259232602" version="5" timestamp="2009-02-19T09:24:00Z" uid="57645" user="KartoGrapHiti" changeset="551388" lat="53.0886163" lon="8.7853388"/>
  <node id="259232602" version="6" timestamp="2011-04-07T20:47:36Z" uid="45445" user="UScha" changeset="7798594" lat="53.0886317" lon="8.7853241"/>
  <node id="259232605" version="2" timestamp="2008-11-30T21:03:24Z" uid="6269" user="Mueck" changeset="813905" lat="53.0887754" lon="8.7851047"/>
  <node id="259232605" version="3" timestamp="2009-02-19T09:23:38Z" uid="57645" user="KartoGrapHiti" changeset="551388" lat="53.0887754" lon="8.7851047"/>
  <node id="259232605" version="4" timestamp="2009-02-19T09:23:57Z" uid="57645" user="KartoGrapHiti" changeset="551388" lat="53.0887754" lon="8.7851047"/>
  <node id="259238982" version="2" timestamp="2008-09-14T20:00:46Z" uid="6975" user="ulfl" changeset="640534" lat="51.7133963" lon="8.9365975">
    <tag k="amenity" v="bank"/>
    <tag k="atm" v="yes"/>
    <tag k="name" v="Sparkasse"/>
  </node>
  <node id="259238982" version="3" timestamp="2009-05-05T17:35:31Z" uid="53104" user="Thomas Berendes" changeset="1089389" lat="51.7133321" lon="8.9366732">
    <tag k="amenity" v="bank"/>
    <tag k="atm" v="yes"/>
    <tag k="name" v="Sparkasse Paderborn"/>
  </node>
  <node id="259238982" version="4" timestamp="2011-05-05T11:40:41Z" uid="449758" user="Lars Mörsch" changeset="8055795" lat="51.7133321" lon="8.9366732">
    <tag k="addr:city" v="Schwaney"/>
    <tag k="addr:housenumber" v="6"/>
    <tag k="addr:postcode" v="33184"/>
    <tag k="addr:street" v="OSttorstraße"/>
    <tag k="amenity" v="bank"/>
    <tag k="atm" v="yes"/>
    <tag k="name" v="Sparkasse Paderborn"/>
    <tag k="website" v="http://www.sparkasse-paderborn.de"/>
    <tag k="wheelchair" v="yes"/>
  </node>
  <node id="259238982" version="5" timestamp="2011-05-18T12:37:23Z" uid="29639" user="bielebog" changeset="8180718" lat="51.7133665" lon="8.9365493">
    <tag k="addr:city" v="Schwaney"/>
    <tag k="addr:housenumber" v="6"/>
    <tag k="addr:postcode" v="33184"/>
    <tag k="addr:street" v="OSttorstraße"/>
    <tag k="amenity" v="bank"/>
    <tag k="atm" v="yes"/>
    <tag k="name" v="Sparkasse Paderborn"/>
    <tag k="website" v="http://www.sparkasse-paderborn.de"/>
    <tag k="wheelchair" v="yes"/>
  </node>
</osm>
