<?xml version='1.0' encoding='UTF-8'?>
<osm version="0.6" generator="libosmium/2.20.0">
  <node id="260680225" version="3" timestamp="2008-07-08T01:30:56Z" uid="6975" user="ulfl" changeset="429882" lat="49.3736214" lon="8.8967152">
    <tag k="amenity" v="dentist"/>
  </node>
  <node id="260680225" version="4" timestamp="2012-02-07T23:14:55Z" uid="131968" user="changchun_1" changeset="10618265" lat="49.3736214" lon="8.8967152"/>
  <node id="260682409" version="2" timestamp="2011-01-02T16:26:41Z" uid="49111" user="Markus B" changeset="6839975" lat="47.3576407" lon="8.5299644"/>
  <node id="260682411" version="2" timestamp="2011-01-02T16:23:45Z" uid="49111" user="Markus B" changeset="6839975" lat="47.3575335" lon="8.5298644"/>
  <node id="260682412" version="2" timestamp="2011-01-26T23:23:26Z" uid="49111" user="Markus B" changeset="7099221" lat="47.3574541" lon="8.5293631"/>
  <node id="260682921" version="2" timestamp="2011-01-02T16:24:01Z" uid="49111" user="Markus B" changeset="6839975" lat="47.357969" lon="8.5299252"/>
  <node id="260682922" version="2" timestamp="2011-01-02T16:25:35Z" uid="49111" user="Markus B" changeset="6839975" lat="47.3582225" lon="8.5298952"/>
  <node id="260683376" version="4" timestamp="2010-09-12T17:17:55Z" uid="9581" user="Lobelt" changeset="5761904" lat="49.3577367" lon="8.2725621"/>
  <node id="260683377" version="9" timestamp="2010-09-12T17:17:49Z" uid="9581" user="Lobelt" changeset="5761904" lat="49.3573671" lon="8.2724979">
    <tag k="bicycle" v="yes"/>
    <tag k="crossing" v="traffic_signals"/>
    <tag k="crossing_ref" v="toucan"/>
    <tag k="highway" v="traffic_signals"/>
    <tag k="segregated" v="no"/>
  </node>
  <node id="260683377" version="10" timestamp="2011-03-01T22:34:41Z" uid="24920" user="Schusch" changeset="7433911" lat="49.3573766" lon="8.2724979">
    <tag k="bicycle" v="yes"/>
    <tag k="crossing" v="traffic_signals"/>
    <tag k="crossing_ref" v="toucan"/>
    <tag k="highway" v="traffic_signals"/>
    <tag k="segregated" v="no"/>
  </node>
  <node id="260683384" version="3" timestamp="2010-09-12T17:17:47Z" uid="9581" user="Lobelt" changeset="5761904" lat="49.3590039" lon="8.278436"/>
  <node id="260683384" version="4" timestamp="2011-05-20T09:20:06Z" uid="24920" user="Schusch" changeset="8196819" lat="49.3590348" lon="8.278498"/>
  <node id="260683385" version="1" timestamp="2008-04-29T21:17:29Z" uid="30201" user="rrankin" changeset="288183" lat="-34.4171374" lon="150.4946825">
    <tag k="created_by" v="JOSM"/>
  </node>
  <node id="260683385" version="2" timestamp="2009-07-25T01:26:07Z" uid="124310" user="Babstar" changeset="1930310" lat="-34.4171374" lon="150.4946825">
    <tag k="created_by" v="JOSM"/>
  </node>
  <node id="260683386" version="3" timestamp="2010-09-12T17:17:53Z" uid="9581" user="Lobelt" changeset="5761904" lat="49.359124" lon="8.2789995"/>
  <node id="260683386" version="4" timestamp="2011-05-20T09:20:07Z" uid="24920" user="Schusch" changeset="8196819" lat="49.3591406" lon="8.2789375"/>
  <node id="260683387" version="3" timestamp="2010-09-12T17:17:48Z" uid="9581" user="Lobelt" changeset="5761904" lat="49.3593909" lon="8.2802924"/>
  <node id="260683387" version="4" timestamp="2011-04-25T19:43:44Z" uid="417937" user="panorama" changeset="7968002" lat="49.3593787" lon="8.2803009"/>
  <node id="260683387" version="5" timestamp="2011-05-20T09:20:07Z" uid="24920" user="Schusch" changeset="8196819" lat="49.3594072" lon="8.2803301"/>
  <node id="260683393" version="1" timestamp="2008-04-29T21:17:30Z" uid="30201" user="rrankin" changeset="288183" lat="-34.4178432" lon="150.4937258">
    <tag k="created_by" v="JOSM"/>
  </node>
  <node id="260683393" version="2" timestamp="2009-07-25T01:26:07Z" uid="124310" user="Babstar" changeset="1930310" lat="-34.4178432" lon="150.4937258">
    <tag k="created_by" v="JOSM"/>
  </node>
  <node id="260683401" version="1" timestamp="2008-04-29T21:17:30Z" uid="30201" user="rrankin" changeset="288183" lat="-34.4190351" lon="150.4929259">
    <tag k="created_by" v="JOSM"/>
  </node>
  <node id="260683401" version="2" timestamp="2009-05-03T06:19:33Z" uid="9477" user="NilbogAus" changeset="1056262" lat="-34.418824" lon="150.4928708">
    <tag k="created_by" v="JOSM"/>
  </node>
  <node id="260683401" version="3" timestamp="2009-07-25T01:26:07Z" uid="124310" user="Babstar" changeset="1930310" lat="-34.418824" lon="150.4928708">
    <tag k="created_by" v="JOSM"/>
  </node>
  <node id="260683408" version="1" timestamp="2008-04-29T21:17:31Z" uid="30201" user="rrankin" changeset="288183" lat="-34.4197879" lon="150.4925652">
    <tag k="created_by" v="JOSM"/>
  </node>
  <node id="260683408" version="2" timestamp="2009-07-25T01:26:06Z" uid="124310" user="Babstar" changeset="1930310" lat="-34.4198235" lon="150.4926084">
    <tag k="created_by" v="JOSM"/>
  </node>
  <node id="260683408" version="3" timestamp="2010-02-13T01:05:23Z" uid="7617" user="Franc" changeset="3861648" lat="-34.4202" lon="150.4925887"/>
  <node id="260683408" version="4" timestamp="2010-09-01T12:07:05Z" uid="79475" user="AlexOnTheBus" changeset="5653389" lat="-34.4201873" lon="150.4926363"/>
  <node id="260684118" version="3" timestamp="2011-01-02T16:27:15Z" uid="49111" user="Markus B" changeset="6839975" lat="47.3589451" lon="8.5308505"/>
  <node id="260684119" version="2" timestamp="2011-01-02T16:24:14Z" uid="49111" user="Markus B" changeset="6839975" lat="47.3589617" lon="8.5309111"/>
  <node id="260684119" version="3" timestamp="2012-02-04T17:52:13Z" uid="8296" user="kuede" changeset="10586880" lat="47.3589617" lon="8.5309111"/>
  <node id="260684189" version="5" timestamp="2011-01-02T16:25:20Z" uid="49111" user="Markus B" changeset="6839975" lat="47.3573694" lon="8.5318988"/>
  <node id="260684225" version="6" timestamp="2009-07-23T01:40:57Z" uid="20587" user="balrog-kun" changeset="1910614" lat="4.6534383" lon="-74.0836698">
    <tag k="capital" v="yes"/>
    <tag k="country" v="Colombia"/>
    <tag k="is_in" v="Colombia, co, capital cities"/>
    <tag k="is_in:country" v="Colombia"/>
    <tag k="name" v="Bogotá D. C."/>
    <tag k="name:he" v="בוגוטה"/>
    <tag k="name:pl" v="Bogota"/>
    <tag k="name:ru" v="Богота"/>
    <tag k="old_name" v="Santa Fe de Bogotá"/>
    <tag k="place" v="city"/>
    <tag k="population" v="8000000"/>
    <tag k="wikipedia" v="Bogotá"/>
  </node>
  <node id="260684225" version="7" timestamp="2009-08-04T20:46:08Z" uid="10610" user="RedFox" changeset="2040148" lat="4.6534383" lon="-74.0836698">
    <tag k="capital" v="yes"/>
    <tag k="is_in" v="Colombia, co, capital cities"/>
    <tag k="is_in:country" v="Colombia"/>
    <tag k="name" v="Bogotá"/>
    <tag k="name:fr" v="Bogotá"/>
    <tag k="name:he" v="בוגוטה"/>
    <tag k="name:pl" v="Bogota"/>
    <tag k="name:ru" v="Богота"/>
    <tag k="old_name" v="Santa Fe de Bogotá"/>
    <tag k="place" v="city"/>
    <tag k="population" v="8000000"/>
    <tag k="wikipedia" v="Bogotá"/>
    <tag k="wikipedia:fr" v="Bogotá"/>
  </node>
  <node id="260684225" version="8" timestamp="2009-08-04T20:55:47Z" uid="10610" user="RedFox" changeset="2040235" lat="4.6534383" lon="-74.0836698">
    <tag k="capital" v="yes"/>
    <tag k="is_in" v="Colombia, South America"/>
    <tag k="is_in:country" v="Colombia"/>
    <tag k="name" v="Bogotá"/>
    <tag k="name:fr" v="Bogotá"/>
    <tag k="name:he" v="בוגוטה"/>
    <tag k="name:pl" v="Bogota"/>
    <tag k="name:ru" v="Богота"/>
    <tag k="old_name" v="Santa Fe de Bogotá"/>
    <tag k="place" v="city"/>
    <tag k="population" v="8000000"/>
    <tag k="wikipedia" v="Bogotá"/>
    <tag k="wikipedia:fr" v="Bogotá"/>
  </node>
  <node id="260684225" version="9" timestamp="2009-09-07T21:30:03Z" uid="24965" user="Ævar Arnfjörð Bjarmason" changeset="2408488" lat="4.6534383" lon="-74.0836698">
    <tag k="capital" v="yes"/>
    <tag k="is_in" v="Colombia, South America"/>
    <tag k="is_in:country" v="Colombia"/>
    <tag k="name" v="Bogotá"/>
    <tag k="name:fr" v="Bogotá"/>
    <tag k="name:he" v="בוגוטה"/>
    <tag k="name:is" v="Bógóta"/>
    <tag k="name:pl" v="Bogota"/>
    <tag k="name:ru" v="Богота"/>
    <tag k="old_name" v="Santa Fe de Bogotá"/>
    <tag k="place" v="city"/>
    <tag k="population" v="8000000"/>
    <tag k="wikipedia" v="Bogotá"/>
    <tag k="wikipedia:fr" v="Bogotá"/>
  </node>
  <node id="260684225" version="10" timestamp="2009-09-24T17:09:42Z" uid="22108" user="afonin" changeset="2607929" lat="4.6534383" lon="-74.0836698">
    <tag k="capital" v="yes"/>
    <tag k="is_in" v="Colombia, South America"/>
    <tag k="is_in:country" v="Colombia"/>
    <tag k="name" v="Bogotá"/>
    <tag k="name:fr" v="Bogotá"/>
    <tag k="name:he" v="בוגוטה"/>
    <tag k="name:is" v="Bógóta"/>
    <tag k="name:pl" v="Bogota"/>
    <tag k="name:ru" v="Санта-фе-де-Богота"/>
    <tag k="old_name" v="Santa Fe de Bogotá"/>
    <tag k="place" v="city"/>
    <tag k="population" v="8000000"/>
    <tag k="wikipedia" v="Bogotá"/>
    <tag k="wikipedia:fr" v="Bogotá"/>
  </node>
  <node id="260684225" version="11" timestamp="2009-10-22T12:44:38Z" uid="176083" user="hdorod" changeset="2921320" lat="4.6534449" lon="-74.0836758">
    <tag k="capital" v="yes"/>
    <tag k="is_in" v="Colombia, South America"/>
    <tag k="is_in:country" v="Colombia"/>
    <tag k="name" v="Bogotá D.C."/>
    <tag k="name:fr" v="Bogotá"/>
    <tag k="name:he" v="בוגוטה"/>
    <tag k="name:is" v="Bógóta"/>
    <tag k="name:pl" v="Bogota"/>
    <tag k="name:ru" v="Санта-фе-де-Богота"/>
    <tag k="old_name" v="Santa Fé de Bogotá"/>
    <tag k="place" v="city"/>
    <tag k="population" v="8000000"/>
    <tag k="wikipedia" v="Bogotá"/>
    <tag k="wikipedia:fr" v="Bogotá"/>
  </node>
  <node id="260684225" version="12" timestamp="2009-11-10T20:06:51Z" uid="148025" user="mvrban" changeset="3084935" lat="4.6534449" lon="-74.0836758">
    <tag k="capital" v="yes"/>
    <tag k="is_in" v="Colombia, South America"/>
    <tag k="is_in:country" v="Colombia"/>
    <tag k="name" v="Bogotá D.C."/>
    <tag k="name:fr" v="Bogotá"/>
    <tag k="name:he" v="בוגוטה"/>
    <tag k="name:hr" v="Bogota"/>
    <tag k="name:is" v="Bógóta"/>
    <tag k="name:pl" v="Bogota"/>
    <tag k="name:ru" v="Санта-фе-де-Богота"/>
    <tag k="old_name" v="Santa Fé de Bogotá"/>
    <tag k="place" v="city"/>
    <tag k="population" v="8000000"/>
    <tag k="wikipedia" v="Bogotá"/>
    <tag k="wikipedia:fr" v="Bogotá"/>
  </node>
  <node id="260684225" version="13" timestamp="2009-12-07T23:40:34Z" uid="105255" user="Sven L" changeset="3320998" lat="4.6534449" lon="-74.0836758">
    <tag k="capital" v="yes"/>
    <tag k="is_in" v="Colombia, South America"/>
    <tag k="is_in:country" v="Colombia"/>
    <tag k="name" v="Bogotá D.C."/>
    <tag k="name:fr" v="Bogotá"/>
    <tag k="name:he" v="בוגוטה"/>
    <tag k="name:hr" v="Bogota"/>
    <tag k="name:is" v="Bógóta"/>
    <tag k="name:nl" v="Bogota"/>
    <tag k="name:pl" v="Bogota"/>
    <tag k="name:ru" v="Санта-фе-де-Богота"/>
    <tag k="old_name" v="Santa Fé de Bogotá"/>
    <tag k="place" v="city"/>
    <tag k="population" v="8000000"/>
    <tag k="wikipedia" v="Bogotá"/>
    <tag k="wikipedia:fr" v="Bogotá"/>
  </node>
  <node id="260684225" version="14" timestamp="2009-12-10T10:56:59Z" uid="190196" user="FlorinMateiu" changeset="3340590" lat="4.6534449" lon="-74.0836758">
    <tag k="capital" v="yes"/>
    <tag k="is_in" v="Colombia, South America"/>
    <tag k="is_in:country" v="Colombia"/>
    <tag k="name" v="Bogotá D.C."/>
    <tag k="name:fr" v="Bogotá"/>
    <tag k="name:he" v="בוגוטה"/>
    <tag k="name:hr" v="Bogota"/>
    <tag k="name:is" v="Bógóta"/>
    <tag k="name:nl" v="Bogota"/>
    <tag k="name:pl" v="Bogota"/>
    <tag k="name:ru" v="Санта-фе-де-Богота"/>
    <tag k="old_name" v="Santa Fé de Bogotá"/>
    <tag k="place" v="city"/>
    <tag k="population" v="8000000"/>
    <tag k="wikipedia" v="Bogotá"/>
    <tag k="wikipedia:fr" v="Bogotá"/>
  </node>
  <node id="260684292" version="2" timestamp="2011-01-02T16:26:02Z" uid="49111" user="Markus B" changeset="6839975" lat="47.3593382" lon="8.5311604"/>
  <node id="260684374" version="2" timestamp="2011-01-02T16:25:26Z" uid="49111" user="Markus B" changeset="6839975" lat="47.3590936" lon="8.5314184"/>
  <node id="260684375" version="3" timestamp="2011-01-02T16:24:49Z" uid="49111" user="Markus B" changeset="6839975" lat="47.3588501" lon="8.5314747"/>
  <node id="260684377" version="4" timestamp="2011-01-02T16:23:34Z" uid="49111" user="Markus B" changeset="6839975" lat="47.3582258" lon="8.5314951"/>
  <node id="260684744" version="8" timestamp="2011-02-18T21:12:35Z" uid="49111" user="Markus B" changeset="7326552" lat="49.039276" lon="11.4735176"/>
  <node id="260685145" version="7" timestamp="2011-01-02T16:25:34Z" uid="49111" user="Markus B" changeset="6839975" lat="47.3563017" lon="8.5317642"/>
  <node id="260686439" version="6" timestamp="2009-10-19T20:57:22Z" uid="36809" user="pfoten_weg_!_" changeset="2898607" lat="47.6512798" lon="11.7847297">
    <tag k="ele" v="1706"/>
    <tag k="name" v="Setzberg"/>
    <tag k="natural" v="peak"/>
    <tag k="note" v="Andere Quellen geben 1712 an."/>
    <tag k="source_ele" v="Wikipedia"/>
  </node>
  <node id="260686440" version="4" timestamp="2009-10-19T20:57:25Z" uid="36809" user="pfoten_weg_!_" changeset="2898607" lat="47.6402046" lon="11.8026118">
    <tag k="ele" v="1768"/>
    <tag k="name" v="Blankenstein"/>
    <tag k="natural" v="peak"/>
  </node>
</osm>
