<?xml version='1.0' encoding='UTF-8'?>
<osm version="0.6" generator="libosmium/2.20.0">
  <node id="261180394" version="3" timestamp="2008-09-14T20:02:38Z" uid="6975" user="ulfl" changeset="640534" lat="50.0027863" lon="8.2098032">
    <tag k="amenity" v="bank"/>
    <tag k="atm" v="yes"/>
    <tag k="name" v="VR-Bank Mainz eG"/>
  </node>
  <node id="261180394" version="4" timestamp="2009-03-07T21:53:34Z" uid="36372" user="TomsDidi" changeset="752382" lat="50.002784" lon="8.2098106">
    <tag k="amenity" v="bank"/>
    <tag k="atm" v="yes"/>
    <tag k="created_by" v="Potlatch 0.10f"/>
    <tag k="name" v="VR-Bank Mainz (Volksbank)"/>
  </node>
  <node id="261180394" version="5" timestamp="2009-10-10T11:07:35Z" uid="149372" user="csosm" changeset="2802426" lat="50.0027881" lon="8.2098066">
    <tag k="amenity" v="bank"/>
    <tag k="atm" v="yes"/>
    <tag k="name" v="VR-Bank Mainz (Volksbank)"/>
    <tag k="operator" v="Volks- und Raiffeisenbank"/>
  </node>
  <node id="261180394" version="6" timestamp="2010-08-26T17:58:02Z" uid="36372" user="TomsDidi" changeset="5601154" lat="50.0027397" lon="8.2095893">
    <tag k="amenity" v="bank"/>
    <tag k="atm" v="yes"/>
    <tag k="name" v="VR-Bank Mainz (Volksbank)"/>
    <tag k="operator" v="Volks- und Raiffeisenbank"/>
  </node>
  <node id="261180394" version="7" timestamp="2011-05-04T21:01:38Z" uid="290680" user="wheelmap_visitor" changeset="8052045" lat="50.0027397" lon="8.2095893">
    <tag k="amenity" v="bank"/>
    <tag k="atm" v="yes"/>
    <tag k="name" v="VR-Bank Mainz (Volksbank)"/>
    <tag k="operator" v="Volks- und Raiffeisenbank"/>
    <tag k="wheelchair" v="yes"/>
  </node>
  <node id="261180394" version="8" timestamp="2011-12-25T22:33:45Z" uid="328555" user="peb12345" changeset="10203574" lat="50.0027397" lon="8.2095893"/>
</osm>
