<?xml version='1.0' encoding='UTF-8'?>
<osm version="0.6" generator="libosmium/2.20.0">
  <node id="261245958" version="2" timestamp="2008-07-14T23:27:20Z" uid="6975" user="ulfl" changeset="496348" lat="51.4721626" lon="-0.1182433">
    <tag k="highway" v="gate"/>
  </node>
  <node id="261245958" version="3" timestamp="2009-02-13T22:14:42Z" uid="3516" user="BiIbo" changeset="411090" lat="51.4721626" lon="-0.1182433">
    <tag k="barrier" v="gate"/>
  </node>
  <node id="261246717" version="2" timestamp="2008-07-03T00:10:27Z" uid="6975" user="ulfl" changeset="377243" lat="49.9997134" lon="8.2575852">
    <tag k="name" v="Conrad"/>
    <tag k="shop" v="electronics"/>
  </node>
  <node id="261246717" version="3" timestamp="2009-10-27T11:02:23Z" uid="128575" user="Lamima" changeset="2964224" lat="49.9996149" lon="8.2577907">
    <tag k="name" v="Conrad"/>
    <tag k="shop" v="electronics"/>
  </node>
  <node id="261246717" version="4" timestamp="2009-12-30T22:45:31Z" uid="27716" user="glmosm" changeset="3494617" lat="49.9996149" lon="8.2577907">
    <tag k="addr:city" v="Mainz"/>
    <tag k="addr:housenumber" v="14-16"/>
    <tag k="addr:postcode" v="55122"/>
    <tag k="addr:street" v="Binger Strasse"/>
    <tag k="desciption" v="www.conrad.de"/>
    <tag k="name" v="Conrad Electronic SE"/>
    <tag k="opening_hours" v="Mo-Sa: 09:30-19:30"/>
    <tag k="shop" v="electronics"/>
  </node>
  <node id="261246717" version="5" timestamp="2009-12-30T23:12:03Z" uid="27716" user="glmosm" changeset="3494826" lat="49.9996149" lon="8.2577907">
    <tag k="addr:city" v="Mainz"/>
    <tag k="addr:housenumber" v="14-16"/>
    <tag k="addr:postcode" v="55122"/>
    <tag k="addr:street" v="Binger Strasse"/>
    <tag k="name" v="Conrad Electronic SE"/>
    <tag k="opening_hours" v="Mo-Sa: 09:30-19:30"/>
    <tag k="shop" v="electronics"/>
    <tag k="website" v="www.conrad.de"/>
  </node>
  <node id="261246717" version="6" timestamp="2010-01-02T10:40:08Z" uid="70696" user="xybot" changeset="3516819" lat="49.9996149" lon="8.2577907">
    <tag k="addr:city" v="Mainz"/>
    <tag k="addr:housenumber" v="14-16"/>
    <tag k="addr:postcode" v="55122"/>
    <tag k="addr:street" v="Binger Straße"/>
    <tag k="name" v="Conrad Electronic SE"/>
    <tag k="opening_hours" v="Mo-Sa: 09:30-19:30"/>
    <tag k="shop" v="electronics"/>
    <tag k="website" v="www.conrad.de"/>
  </node>
  <node id="261246717" version="7" timestamp="2010-05-30T00:54:42Z" uid="27716" user="glmosm" changeset="4847741" lat="49.9996149" lon="8.2577907">
    <tag k="addr:city" v="Mainz"/>
    <tag k="addr:housenumber" v="14-16"/>
    <tag k="addr:postcode" v="55122"/>
    <tag k="addr:street" v="Binger Straße"/>
    <tag k="name" v="Conrad Electronic SE"/>
    <tag k="note" v="parken Taubertsberg 1. Std. kostenlos"/>
    <tag k="opening_hours" v="Mo-Sa: 09:30-19:30"/>
    <tag k="shop" v="electronics"/>
    <tag k="url" v="www.conrad.de"/>
  </node>
  <node id="261246717" version="8" timestamp="2010-09-19T15:13:40Z" uid="65148" user="Pirat Michi" changeset="5820767" lat="49.9996149" lon="8.2577907">
    <tag k="addr:city" v="Mainz"/>
    <tag k="addr:housenumber" v="14-16"/>
    <tag k="addr:postcode" v="55122"/>
    <tag k="addr:street" v="Binger Straße"/>
    <tag k="name" v="Conrad Electronic SE"/>
    <tag k="note" v="parken Taubertsberg 1. Std. kostenlos"/>
    <tag k="opening_hours" v="Mo-Sa: 09:30-19:30"/>
    <tag k="shop" v="electronics"/>
    <tag k="website" v="www.conrad.de"/>
  </node>
  <node id="261246717" version="9" timestamp="2010-11-24T21:35:57Z" uid="115102" user="errt" changeset="6450489" lat="49.9996149" lon="8.2577907">
    <tag k="addr:city" v="Mainz"/>
    <tag k="addr:housenumber" v="14-16"/>
    <tag k="addr:postcode" v="55122"/>
    <tag k="addr:street" v="Binger Straße"/>
    <tag k="name" v="Conrad Electronic SE"/>
    <tag k="note" v="parken Taubertsberg 1. Std. kostenlos"/>
    <tag k="opening_hours" v="Mo-Sa 09:30-19:30"/>
    <tag k="shop" v="electronics"/>
    <tag k="website" v="www.conrad.de"/>
  </node>
  <node id="261246717" version="10" timestamp="2011-03-09T17:47:18Z" uid="418763" user="essub" changeset="7506256" lat="49.9994305" lon="8.2576201">
    <tag k="addr:city" v="Mainz"/>
    <tag k="addr:housenumber" v="14-16"/>
    <tag k="addr:postcode" v="55122"/>
    <tag k="addr:street" v="Binger Straße"/>
    <tag k="name" v="Conrad Electronic SE"/>
    <tag k="note" v="parken Taubertsberg 1. Std. kostenlos"/>
    <tag k="opening_hours" v="Mo-Sa 09:30-19:30"/>
    <tag k="shop" v="electronics"/>
    <tag k="website" v="www.conrad.de"/>
  </node>
  <node id="261246717" version="11" timestamp="2011-04-13T18:22:43Z" uid="290680" user="wheelmap_visitor" changeset="7850894" lat="49.9994305" lon="8.2576201">
    <tag k="addr:city" v="Mainz"/>
    <tag k="addr:housenumber" v="14-16"/>
    <tag k="addr:postcode" v="55122"/>
    <tag k="addr:street" v="Binger Straße"/>
    <tag k="name" v="Conrad Electronic SE"/>
    <tag k="note" v="parken Taubertsberg 1. Std. kostenlos"/>
    <tag k="opening_hours" v="Mo-Sa 09:30-19:30"/>
    <tag k="shop" v="electronics"/>
    <tag k="website" v="www.conrad.de"/>
    <tag k="wheelchair" v="yes"/>
  </node>
  <node id="261246717" version="12" timestamp="2011-10-31T22:10:45Z" uid="123364" user="Tronikon" changeset="9708489" lat="49.999663" lon="8.2574013">
    <tag k="addr:city" v="Mainz"/>
    <tag k="addr:housenumber" v="14-16"/>
    <tag k="addr:postcode" v="55122"/>
    <tag k="addr:street" v="Binger Straße"/>
    <tag k="name" v="Conrad Electronic SE"/>
    <tag k="note" v="parken Taubertsberg 1. Std. kostenlos"/>
    <tag k="opening_hours" v="Mo-Sa 09:30-19:30"/>
    <tag k="shop" v="electronics"/>
    <tag k="website" v="www.conrad.de"/>
    <tag k="wheelchair" v="yes"/>
  </node>
</osm>
