<?xml version='1.0' encoding='UTF-8'?>
<osm version="0.6" generator="libosmium/2.20.0">
  <node id="262800105" version="1" timestamp="2008-05-08T11:47:17Z" uid="30201" user="rrankin" changeset="365304" lat="-33.895168" lon="151.1624178">
    <tag k="created_by" v="JOSM"/>
    <tag k="leisure" v="playground"/>
  </node>
  <node id="262800105" version="2" timestamp="2011-03-09T10:50:16Z" uid="7617" user="Franc" changeset="7502681" lat="-33.8951358" lon="151.1623254">
    <tag k="leisure" v="playground"/>
  </node>
  <node id="262800552" version="2" timestamp="2008-06-28T13:55:53Z" uid="33382" user="de_muur" changeset="325886" lat="50.5366604" lon="9.7769627"/>
  <node id="262800552" version="3" timestamp="2008-07-10T22:25:25Z" uid="49343" user="keymaker" changeset="457644" lat="50.5366178" lon="9.7769201"/>
  <node id="262800552" version="4" timestamp="2012-02-29T22:16:55Z" uid="302852" user="be-ju" changeset="10832958" lat="50.5366178" lon="9.7769201"/>
  <node id="262800987" version="3" timestamp="2009-03-14T12:08:22Z" uid="17602" user="B10xyz" changeset="804506" lat="50.5718629" lon="9.8326727"/>
  <node id="262800987" version="4" timestamp="2012-03-03T17:10:08Z" uid="302852" user="be-ju" changeset="10859905" lat="50.5718629" lon="9.8326727"/>
  <node id="262802379" version="2" timestamp="2008-07-08T18:50:35Z" uid="17602" user="B10xyz" changeset="430325" lat="52.5206238" lon="13.3977477">
    <tag k="created_by" v="Potlatch 0.9"/>
    <tag k="historic" v="UNESCO_world_heritage"/>
    <tag k="name" v="Museumsinsel"/>
    <tag k="name:en" v="Museum Island"/>
    <tag k="tourism" v="attraction"/>
  </node>
  <node id="262802379" version="3" timestamp="2009-06-26T16:09:13Z" uid="115651" user="Konrad Aust" changeset="1642399" lat="52.5209599" lon="13.3972245">
    <tag k="created_by" v="Potlatch 0.9"/>
    <tag k="historic" v="UNESCO_world_heritage"/>
    <tag k="name" v="Museumsinsel (UNESCO-Welterbe)"/>
    <tag k="name:en" v="Museum Island"/>
    <tag k="tourism" v="attraction"/>
  </node>
  <node id="262802379" version="4" timestamp="2009-06-26T16:09:36Z" uid="115651" user="Konrad Aust" changeset="1642399" lat="52.5207301" lon="13.3976108">
    <tag k="created_by" v="Potlatch 0.9"/>
    <tag k="historic" v="UNESCO_world_heritage"/>
    <tag k="name" v="Museumsinsel (UNESCO-Welterbe)"/>
    <tag k="name:en" v="Museum Island"/>
    <tag k="tourism" v="attraction"/>
  </node>
  <node id="262802379" version="5" timestamp="2010-08-03T22:56:52Z" uid="107257" user="FrViPofm" changeset="5394623" lat="52.5207301" lon="13.3976108">
    <tag k="fixme" v="uwh:ref"/>
    <tag k="heritage" v="1"/>
    <tag k="heritage:operator" v="uwh"/>
    <tag k="historic" v="UNESCO_world_heritage"/>
    <tag k="name" v="Museumsinsel (UNESCO-Welterbe)"/>
    <tag k="name:en" v="Museum Island"/>
    <tag k="tourism" v="attraction"/>
  </node>
  <node id="262802379" version="6" timestamp="2010-08-06T08:12:15Z" uid="107257" user="FrViPofm" changeset="5414514" lat="52.5207301" lon="13.3976108">
    <tag k="fixme" v="uwh:ref"/>
    <tag k="heritage" v="1"/>
    <tag k="heritage:operator" v="whc"/>
    <tag k="historic" v="UNESCO_world_heritage"/>
    <tag k="name" v="Museumsinsel (UNESCO-Welterbe)"/>
    <tag k="name:en" v="Museum Island"/>
    <tag k="tourism" v="attraction"/>
  </node>
  <node id="262802379" version="7" timestamp="2010-10-25T18:36:00Z" uid="201359" user="wambacher" changeset="6176033" lat="52.5207301" lon="13.3976108">
    <tag k="fixme" v="uwh:ref"/>
    <tag k="heritage" v="1"/>
    <tag k="heritage:operator" v="whc"/>
    <tag k="historic" v="UNESCO_world_heritage"/>
    <tag k="name" v="Museumsinsel"/>
    <tag k="name:en" v="Museum Island"/>
    <tag k="note" v="Name der Insel ist &quot;Museumsinsel&quot; und nicht &quot;Museumsinsel Unesco Welterbe&quot;"/>
    <tag k="tourism" v="attraction"/>
  </node>
  <node id="262802379" version="8" timestamp="2010-11-30T20:17:44Z" uid="363904" user="maltejohannson" changeset="6497476" lat="52.5207301" lon="13.3976108">
    <tag k="fixme" v="uwh:ref"/>
    <tag k="heritage" v="1"/>
    <tag k="heritage:operator" v="whc"/>
    <tag k="historic" v="UNESCO_world_heritage"/>
    <tag k="name" v="Museumsinsel"/>
    <tag k="name:en" v="Museum Island"/>
    <tag k="note" v="Name der Insel ist &quot;Museumsinsel&quot; und nicht &quot;Museumsinsel Unesco Welterbe&quot;"/>
    <tag k="tourism" v="attraction"/>
  </node>
  <node id="262805237" version="3" timestamp="2010-05-09T20:52:31Z" uid="9581" user="Lobelt" changeset="4654132" lat="52.6012762" lon="10.8011141">
    <tag k="power" v="tower"/>
  </node>
  <node id="262805238" version="3" timestamp="2010-05-09T20:52:31Z" uid="9581" user="Lobelt" changeset="4654132" lat="52.5982354" lon="10.7990474">
    <tag k="power" v="tower"/>
  </node>
  <node id="262808160" version="9" timestamp="2008-07-06T09:22:28Z" uid="6975" user="ulfl" changeset="407266" lat="49.8749763" lon="8.9788818">
    <tag k="power" v="generator"/>
    <tag k="power_source" v="wind"/>
  </node>
  <node id="262808160" version="10" timestamp="2011-01-30T15:20:57Z" uid="212057" user="sfitzek" changeset="7135279" lat="49.874948" lon="8.9788644">
    <tag k="power" v="generator"/>
    <tag k="power_source" v="wind"/>
  </node>
  <node id="262808160" version="11" timestamp="2011-06-04T03:26:06Z" uid="297482" user="don-vip" changeset="8335705" lat="49.874948" lon="8.9788644">
    <tag k="generator:source" v="wind"/>
    <tag k="power" v="generator"/>
    <tag k="power_source" v="wind"/>
  </node>
  <node id="262808160" version="12" timestamp="2012-02-14T21:07:24Z" uid="590907" user="cbdavis" changeset="10686992" lat="49.874948" lon="8.9788644">
    <tag k="generator:source" v="wind"/>
    <tag k="power" v="generator"/>
  </node>
  <node id="262808160" version="13" timestamp="2012-02-15T10:38:46Z" uid="590907" user="cbdavis" changeset="10690119" lat="49.874948" lon="8.9788644">
    <tag k="generator:source" v="wind"/>
    <tag k="power" v="generator"/>
    <tag k="power_source" v="wind"/>
  </node>
  <node id="262808177" version="2" timestamp="2008-07-03T18:50:35Z" uid="6975" user="ulfl" changeset="379368" lat="51.6559604" lon="7.6375535">
    <tag k="amenity" v="theatre"/>
    <tag k="name" v="Freilichtbühne Werne"/>
  </node>
  <node id="262808177" version="3" timestamp="2011-01-27T15:01:48Z" uid="236628" user="Bluekanada" changeset="7104359" lat="51.6559604" lon="7.6375535">
    <tag k="amenity" v="theatre"/>
    <tag k="name" v="Freilichtbühne Werne"/>
  </node>
  <node id="262808238" version="2" timestamp="2009-07-31T13:43:00Z" uid="4467" user="Rosscoe" changeset="1994838" lat="-33.8190935" lon="151.1946104"/>
  <node id="262808238" version="3" timestamp="2010-01-12T11:31:33Z" uid="61114" user="Trav" changeset="3602366" lat="-33.8190197" lon="151.1945732"/>
  <node id="262808562" version="2" timestamp="2010-02-06T20:40:43Z" uid="9581" user="Lobelt" changeset="3808782" lat="49.4649311" lon="8.6130697">
    <tag k="created_by" v="JOSM"/>
    <tag k="leisure" v="sports_centre"/>
    <tag k="sport" v="tennis"/>
  </node>
</osm>
