<?xml version='1.0' encoding='UTF-8'?>
<osm version="0.6" generator="libosmium/2.20.0">
  <node id="263520350" version="5" timestamp="2008-07-05T09:07:15Z" uid="6975" user="ulfl" changeset="396365" lat="47.2221231" lon="39.7172812">
    <tag k="highway" v="bus_stop"/>
    <tag k="name:ru" v="Ворошиловский пр-т."/>
  </node>
  <node id="263520350" version="6" timestamp="2009-12-07T04:28:15Z" uid="12184" user="alexfrol" changeset="3312478" lat="47.2221231" lon="39.7172812">
    <tag k="highway" v="bus_stop"/>
    <tag k="name" v="Ворошиловский пр-т."/>
    <tag k="name:ru" v="Ворошиловский пр-т."/>
  </node>
  <node id="263520350" version="7" timestamp="2010-05-15T16:22:11Z" uid="34198" user="SoNick_RND" changeset="4707881" lat="47.2222324" lon="39.7172919">
    <tag k="highway" v="bus_stop"/>
    <tag k="name" v="Ворошиловский пр-т."/>
    <tag k="name:ru" v="Ворошиловский пр-т."/>
  </node>
  <node id="263520350" version="8" timestamp="2011-01-02T12:53:30Z" uid="311318" user="luiswoo" changeset="6838052" lat="47.2222735" lon="39.7174909">
    <tag k="highway" v="bus_stop"/>
    <tag k="name" v="Ворошиловский пр-т."/>
    <tag k="name:ru" v="Ворошиловский пр-т."/>
  </node>
  <node id="263520350" version="9" timestamp="2011-12-26T15:04:19Z" uid="211300" user="yashka" changeset="10207811" lat="47.2222246" lon="39.7173297">
    <tag k="bench" v="yes"/>
    <tag k="highway" v="bus_stop"/>
    <tag k="name" v="Ворошиловский пр-т."/>
    <tag k="name:ru" v="Ворошиловский пр-т."/>
    <tag k="shelter" v="yes"/>
  </node>
  <node id="263520350" version="10" timestamp="2011-12-28T13:24:49Z" uid="211300" user="yashka" changeset="10225863" lat="47.2222246" lon="39.7173297">
    <tag k="bench" v="yes"/>
    <tag k="highway" v="bus_stop"/>
    <tag k="name" v="Ворошиловский проспект"/>
    <tag k="name:ru" v="Ворошиловский проспект"/>
    <tag k="shelter" v="yes"/>
  </node>
  <node id="263520350" version="11" timestamp="2011-12-30T16:59:35Z" uid="211300" user="yashka" changeset="10247245" lat="47.2222246" lon="39.7173297">
    <tag k="bench" v="yes"/>
    <tag k="bus" v="yes"/>
    <tag k="highway" v="bus_stop"/>
    <tag k="name" v="Ворошиловский проспект"/>
    <tag k="name:ru" v="Ворошиловский проспект"/>
    <tag k="public_transport" v="platform"/>
    <tag k="share_taxi" v="yes"/>
    <tag k="shelter" v="yes"/>
    <tag k="trolleybus" v="yes"/>
  </node>
  <node id="263524246" version="2" timestamp="2009-10-03T13:54:34Z" uid="179968" user="Ich_hasse_doitsche_OSM-Korinthenkacker" changeset="2724114" lat="52.2195525" lon="10.6196822"/>
  <node id="263525323" version="4" timestamp="2009-10-03T13:54:34Z" uid="179968" user="Ich_hasse_doitsche_OSM-Korinthenkacker" changeset="2724114" lat="52.2194903" lon="10.6175126">
    <tag k="highway" v="turning_circle"/>
  </node>
</osm>
