<?xml version='1.0' encoding='UTF-8'?>
<osm version="0.6" generator="libosmium/2.20.0">
  <node id="264734646" version="1" timestamp="2008-05-15T17:07:03Z" uid="20587" user="balrog-kun" changeset="451378" lat="-3.7843111" lon="-38.4571421">
    <tag k="created_by" v="JOSM"/>
    <tag k="is_in" v="Fortaleza,Ceará,Brazil"/>
    <tag k="name" v="Edson Queiroz"/>
    <tag k="place" v="suburb"/>
  </node>
  <node id="264734649" version="1" timestamp="2008-05-15T17:07:03Z" uid="20587" user="balrog-kun" changeset="451378" lat="-3.7854409" lon="-38.5049603">
    <tag k="created_by" v="JOSM"/>
    <tag k="is_in" v="Fortaleza,Ceará,Brazil"/>
    <tag k="name" v="Jardim das Oliveiras"/>
    <tag k="place" v="suburb"/>
  </node>
  <node id="264734651" version="1" timestamp="2008-05-15T17:07:03Z" uid="20587" user="balrog-kun" changeset="451378" lat="-3.7648634" lon="-38.5350676">
    <tag k="created_by" v="JOSM"/>
    <tag k="is_in" v="Fortaleza,Ceará,Brazil"/>
    <tag k="name" v="Vila União"/>
    <tag k="place" v="suburb"/>
  </node>
  <node id="264734651" version="2" timestamp="2008-05-15T19:58:13Z" uid="20587" user="balrog-kun" changeset="453732" lat="-3.7639608" lon="-38.5338379">
    <tag k="created_by" v="JOSM"/>
    <tag k="is_in" v="Fortaleza,Ceará,Brazil"/>
    <tag k="name" v="Vila União"/>
    <tag k="place" v="suburb"/>
  </node>
  <node id="264734655" version="1" timestamp="2008-05-15T17:07:04Z" uid="20587" user="balrog-kun" changeset="451378" lat="-3.7660092" lon="-38.5128107">
    <tag k="created_by" v="JOSM"/>
    <tag k="is_in" v="Fortaleza,Ceará,Brazil"/>
    <tag k="name" v="Alto da Balança"/>
    <tag k="place" v="suburb"/>
  </node>
  <node id="264734657" version="1" timestamp="2008-05-15T17:07:04Z" uid="20587" user="balrog-kun" changeset="451378" lat="-3.7585885" lon="-38.5110494">
    <tag k="created_by" v="JOSM"/>
    <tag k="is_in" v="Fortaleza,Ceará,Brazil"/>
    <tag k="name" v="São João do Tauape"/>
    <tag k="place" v="suburb"/>
  </node>
  <node id="264734659" version="1" timestamp="2008-05-15T17:07:04Z" uid="20587" user="balrog-kun" changeset="451378" lat="-3.7828635" lon="-38.5497524">
    <tag k="created_by" v="JOSM"/>
    <tag k="is_in" v="Fortaleza,Ceará,Brazil"/>
    <tag k="name" v="Serrinha"/>
    <tag k="place" v="suburb"/>
  </node>
  <node id="264734661" version="1" timestamp="2008-05-15T17:07:04Z" uid="20587" user="balrog-kun" changeset="451378" lat="-3.7722552" lon="-38.5555582">
    <tag k="created_by" v="JOSM"/>
    <tag k="is_in" v="Fortaleza,Ceará,Brazil"/>
    <tag k="name" v="Itaoca"/>
    <tag k="place" v="suburb"/>
  </node>
  <node id="264734665" version="1" timestamp="2008-05-15T17:07:04Z" uid="20587" user="balrog-kun" changeset="451378" lat="-3.7524535" lon="-38.5292866">
    <tag k="created_by" v="JOSM"/>
    <tag k="is_in" v="Fortaleza,Ceará,Brazil"/>
    <tag k="name" v="Fátima"/>
    <tag k="place" v="suburb"/>
  </node>
  <node id="264734665" version="2" timestamp="2008-05-15T19:58:13Z" uid="20587" user="balrog-kun" changeset="453732" lat="-3.7517525" lon="-38.5290848">
    <tag k="created_by" v="JOSM"/>
    <tag k="is_in" v="Fortaleza,Ceará,Brazil"/>
    <tag k="name" v="Fátima"/>
    <tag k="place" v="suburb"/>
  </node>
  <node id="264734667" version="1" timestamp="2008-05-15T17:07:04Z" uid="20587" user="balrog-kun" changeset="451378" lat="-3.7481505" lon="-38.5427867">
    <tag k="created_by" v="JOSM"/>
    <tag k="is_in" v="Fortaleza,Ceará,Brazil"/>
    <tag k="name" v="Jardim América"/>
    <tag k="place" v="suburb"/>
  </node>
  <node id="264734669" version="1" timestamp="2008-05-15T17:07:05Z" uid="20587" user="balrog-kun" changeset="451378" lat="-3.756896" lon="-38.5519423">
    <tag k="created_by" v="JOSM"/>
    <tag k="is_in" v="Fortaleza,Ceará,Brazil"/>
    <tag k="name" v="Damas"/>
    <tag k="place" v="suburb"/>
  </node>
  <node id="264734673" version="1" timestamp="2008-05-15T17:07:05Z" uid="20587" user="balrog-kun" changeset="451378" lat="-3.7603219" lon="-38.5428684">
    <tag k="created_by" v="JOSM"/>
    <tag k="is_in" v="Fortaleza,Ceará,Brazil"/>
    <tag k="name" v="Bom Futuro"/>
    <tag k="place" v="suburb"/>
  </node>
  <node id="264734675" version="1" timestamp="2008-05-15T17:07:05Z" uid="20587" user="balrog-kun" changeset="451378" lat="-3.7628302" lon="-38.5498578">
    <tag k="created_by" v="JOSM"/>
    <tag k="is_in" v="Fortaleza,Ceará,Brazil"/>
    <tag k="name" v="Montese"/>
    <tag k="place" v="suburb"/>
  </node>
  <node id="264734677" version="1" timestamp="2008-05-15T17:07:05Z" uid="20587" user="balrog-kun" changeset="451378" lat="-3.746289" lon="-38.5499015">
    <tag k="created_by" v="JOSM"/>
    <tag k="is_in" v="Fortaleza,Ceará,Brazil"/>
    <tag k="name" v="Rodolfo Teófilo"/>
    <tag k="place" v="suburb"/>
  </node>
  <node id="264734680" version="1" timestamp="2008-05-15T17:07:05Z" uid="20587" user="balrog-kun" changeset="451378" lat="-3.7218504" lon="-38.5416884">
    <tag k="created_by" v="JOSM"/>
    <tag k="is_in" v="Fortaleza,Ceará,Brazil"/>
    <tag k="name" v="Jacarecanga"/>
    <tag k="place" v="suburb"/>
  </node>
  <node id="264734682" version="1" timestamp="2008-05-15T17:07:06Z" uid="20587" user="balrog-kun" changeset="451378" lat="-3.7292351" lon="-38.5421768">
    <tag k="created_by" v="JOSM"/>
    <tag k="is_in" v="Fortaleza,Ceará,Brazil"/>
    <tag k="name" v="Farias Brito"/>
    <tag k="place" v="suburb"/>
  </node>
  <node id="264734682" version="2" timestamp="2008-05-18T18:42:27Z" uid="20587" user="balrog-kun" changeset="472400" lat="-3.7291396" lon="-38.5423283">
    <tag k="created_by" v="JOSM"/>
    <tag k="is_in" v="Fortaleza,Ceará,Brazil"/>
    <tag k="name" v="Farias Brito"/>
    <tag k="place" v="suburb"/>
  </node>
  <node id="264734682" version="3" timestamp="2010-01-18T02:10:43Z" uid="99364" user="Arthur Rodrigues" changeset="3647552" lat="-3.7296496" lon="-38.5430883">
    <tag k="is_in" v="Fortaleza,Ceará,Brazil"/>
    <tag k="name" v="Farias Brito"/>
    <tag k="place" v="suburb"/>
  </node>
  <node id="264734685" version="1" timestamp="2008-05-15T17:07:06Z" uid="20587" user="balrog-kun" changeset="451378" lat="-3.7263862" lon="-38.5502533">
    <tag k="created_by" v="JOSM"/>
    <tag k="is_in" v="Fortaleza,Ceará,Brazil"/>
    <tag k="name" v="Monte Castelo"/>
    <tag k="place" v="suburb"/>
  </node>
  <node id="264734689" version="1" timestamp="2008-05-15T17:07:06Z" uid="20587" user="balrog-kun" changeset="451378" lat="-3.7353453" lon="-38.5488258">
    <tag k="created_by" v="JOSM"/>
    <tag k="is_in" v="Fortaleza,Ceará,Brazil"/>
    <tag k="name" v="Parque Araxa"/>
    <tag k="place" v="suburb"/>
  </node>
  <node id="264734689" version="2" timestamp="2010-01-04T06:09:36Z" uid="99364" user="Arthur Rodrigues" changeset="3534747" lat="-3.7386782" lon="-38.5469966">
    <tag k="is_in" v="Fortaleza,Ceará,Brazil"/>
    <tag k="name" v="Parque Araxa"/>
    <tag k="place" v="suburb"/>
  </node>
  <node id="264734689" version="3" timestamp="2010-01-18T02:10:44Z" uid="99364" user="Arthur Rodrigues" changeset="3647552" lat="-3.7388033" lon="-38.5471438">
    <tag k="is_in" v="Fortaleza,Ceará,Brazil"/>
    <tag k="name" v="Parque Araxa"/>
    <tag k="place" v="suburb"/>
  </node>
  <node id="264737247" version="2" timestamp="2008-08-15T00:10:52Z" uid="6975" user="ulfl" changeset="264731" lat="51.4968358" lon="-0.1693017">
    <tag k="amenity" v="place_of_worship"/>
    <tag k="denomination" v="catholic"/>
    <tag k="name" v="Brompton Oratory"/>
    <tag k="religion" v="christian"/>
  </node>
  <node id="264737247" version="3" timestamp="2009-06-02T22:57:50Z" uid="33144" user="Nodwick1" changeset="1409304" lat="51.4968358" lon="-0.1693017">
    <tag k="amenity" v="place_of_worship"/>
    <tag k="denomination" v="catholic"/>
    <tag k="name" v="Brompton Oratory"/>
    <tag k="religion" v="christian"/>
  </node>
  <node id="264738532" version="3" timestamp="2009-10-20T16:19:17Z" uid="9581" user="Lobelt" changeset="2904708" lat="50.4776406" lon="11.9607651"/>
  <node id="264738763" version="3" timestamp="2010-08-25T19:28:56Z" uid="9581" user="Lobelt" changeset="5592865" lat="49.2811831" lon="8.5265099"/>
  <node id="264738763" version="4" timestamp="2010-11-07T11:46:02Z" uid="258588" user="Peter Feickert" changeset="6310387" lat="49.2811817" lon="8.5265121"/>
</osm>
