<?xml version='1.0' encoding='UTF-8'?>
<osm version="0.6" generator="libosmium/2.20.0">
  <node id="266055965" version="2" timestamp="2008-07-02T23:54:14Z" uid="6975" user="ulfl" changeset="377243" lat="50.2966386" lon="8.259673">
    <tag k="name" v="Toom"/>
    <tag k="shop" v="beverages"/>
  </node>
  <node id="266055965" version="3" timestamp="2011-10-10T22:05:18Z" uid="290680" user="wheelmap_visitor" changeset="9518514" lat="50.2966386" lon="8.259673">
    <tag k="name" v="Toom"/>
    <tag k="shop" v="beverages"/>
    <tag k="wheelchair" v="yes"/>
  </node>
  <node id="266056016" version="2" timestamp="2008-11-02T15:09:19Z" uid="65847" user="LKK" changeset="662299" lat="50.2991309" lon="8.3023004">
    <tag k="created_by" v="JOSM"/>
  </node>
  <node id="266056016" version="3" timestamp="2010-05-25T12:48:15Z" uid="46169" user="wolter" changeset="4803342" lat="50.2990418" lon="8.3024322"/>
  <node id="266056054" version="2" timestamp="2008-07-08T19:58:19Z" uid="6975" user="ulfl" changeset="431192" lat="50.2946475" lon="8.2611284">
    <tag k="amenity" v="kindergarden"/>
    <tag k="name" v="Kinderoase"/>
  </node>
  <node id="266056054" version="3" timestamp="2008-07-14T08:49:54Z" uid="6975" user="ulfl" changeset="486169" lat="50.2946475" lon="8.2611284">
    <tag k="amenity" v="kindergarten"/>
    <tag k="name" v="Kinderoase"/>
  </node>
  <node id="266056134" version="2" timestamp="2008-07-03T18:56:09Z" uid="6975" user="ulfl" changeset="379368" lat="50.2992058" lon="8.2967841">
    <tag k="amenity" v="restaurant"/>
    <tag k="name" v="Waldschlösschen"/>
  </node>
  <node id="266056134" version="3" timestamp="2008-11-02T15:18:02Z" uid="65847" user="LKK" changeset="662299" lat="50.2992058" lon="8.2967841">
    <tag k="amenity" v="restaurant"/>
    <tag k="name" v="Waldschlösschen"/>
    <tag k="tourism" v="hotel"/>
  </node>
  <node id="266056134" version="4" timestamp="2010-01-06T19:49:52Z" uid="216094" user="BerndO" changeset="3556628" lat="50.2992058" lon="8.2967841">
    <tag k="amenity" v="restaurant"/>
    <tag k="name" v="Hotel Waldschloss"/>
    <tag k="tourism" v="hotel"/>
  </node>
  <node id="266056134" version="5" timestamp="2011-02-15T06:56:23Z" uid="382146" user="Taunide" changeset="7292254" lat="50.2992058" lon="8.2967841">
    <tag k="amenity" v="restaurant"/>
    <tag k="horse" v="yes"/>
    <tag k="name" v="Hotel Waldschloss"/>
    <tag k="tourism" v="hotel"/>
  </node>
  <node id="266056189" version="2" timestamp="2008-07-02T20:46:35Z" uid="6975" user="ulfl" changeset="369591" lat="50.2975966" lon="8.2477666">
    <tag k="name" v="Haar-Welt"/>
    <tag k="shop" v="hairdresser"/>
  </node>
  <node id="266056189" version="3" timestamp="2011-04-26T07:58:35Z" uid="94579" user="Cali42" changeset="7971921" lat="50.2975966" lon="8.2477666">
    <tag k="name" v="Haar-Welt"/>
    <tag k="shop" v="hairdresser"/>
  </node>
  <node id="266056212" version="2" timestamp="2008-11-02T15:09:16Z" uid="65847" user="LKK" changeset="662299" lat="50.2992712" lon="8.3024509">
    <tag k="amenity" v="parking"/>
    <tag k="created_by" v="JOSM"/>
  </node>
  <node id="266056212" version="3" timestamp="2010-01-06T19:49:52Z" uid="216094" user="BerndO" changeset="3556628" lat="50.2992712" lon="8.3024509">
    <tag k="amenity" v="parking"/>
    <tag k="name" v="Am Vorderwald"/>
  </node>
  <node id="266056305" version="2" timestamp="2008-08-15T00:17:46Z" uid="6975" user="ulfl" changeset="264731" lat="50.3049745" lon="8.3213373">
    <tag k="amenity" v="place_of_worship"/>
    <tag k="denomination" v="catholic"/>
    <tag k="name" v="Pfarrkirche Dombach"/>
    <tag k="religion" v="christian"/>
  </node>
  <node id="266056315" version="2" timestamp="2008-07-03T18:42:38Z" uid="6975" user="ulfl" changeset="379368" lat="50.3025359" lon="8.320202">
    <tag k="amenity" v="grave_yard"/>
  </node>
  <node id="266056733" version="2" timestamp="2008-07-03T17:44:21Z" uid="6975" user="ulfl" changeset="379368" lat="50.299941" lon="8.2618263">
    <tag k="access" v="Wenz"/>
    <tag k="shop" v="car_repair"/>
  </node>
  <node id="266056991" version="2" timestamp="2008-07-14T08:49:52Z" uid="6975" user="ulfl" changeset="486169" lat="50.305736" lon="8.2662961">
    <tag k="amenity" v="kindergarten"/>
  </node>
  <node id="266057118" version="2" timestamp="2008-07-03T18:42:39Z" uid="6975" user="ulfl" changeset="379368" lat="50.3001292" lon="8.2741725">
    <tag k="amenity" v="grave_yard"/>
    <tag k="religion" v="jewish"/>
  </node>
  <node id="266057118" version="3" timestamp="2008-08-09T20:20:35Z" uid="31605" user="hatzfeld" changeset="157309" lat="50.3001292" lon="8.2741725">
    <tag k="amenity" v="grave_yard"/>
    <tag k="historic" v="memorial"/>
    <tag k="religion" v="jewish"/>
  </node>
  <node id="266057312" version="2" timestamp="2008-08-15T00:17:40Z" uid="6975" user="ulfl" changeset="264731" lat="50.2982824" lon="8.2671153">
    <tag k="amenity" v="place_of_worship"/>
    <tag k="denomination" v="catholic"/>
    <tag k="name" v="St. Peter und Paul"/>
    <tag k="religion" v="christian"/>
  </node>
  <node id="266058620" version="3" timestamp="2010-08-30T22:57:21Z" uid="23543" user="jkjk" changeset="5641303" lat="50.2191013" lon="12.7923914"/>
  <node id="266058621" version="3" timestamp="2010-08-30T22:56:51Z" uid="23543" user="jkjk" changeset="5641303" lat="50.2188008" lon="12.7913243"/>
  <node id="266058621" version="4" timestamp="2010-11-07T17:40:48Z" uid="8007" user="vrabcak" changeset="6313870" lat="50.2188354" lon="12.7913919"/>
  <node id="266058622" version="3" timestamp="2010-08-30T22:56:52Z" uid="23543" user="jkjk" changeset="5641303" lat="50.2198885" lon="12.7973971"/>
  <node id="266058623" version="3" timestamp="2010-08-30T22:57:20Z" uid="23543" user="jkjk" changeset="5641303" lat="50.2197401" lon="12.797448"/>
</osm>
