<?xml version='1.0' encoding='UTF-8'?>
<osm version="0.6" generator="libosmium/2.20.0">
  <node id="266120423" version="2" timestamp="2008-07-03T18:15:18Z" uid="6975" user="ulfl" changeset="379368" lat="61.5084639" lon="9.7838305">
    <tag k="name" v="Gålå Høgfjellshotell"/>
    <tag k="source" v="survey"/>
    <tag k="tourism" v="hotel"/>
  </node>
  <node id="266121379" version="2" timestamp="2009-12-14T19:37:55Z" uid="74617" user="JohnSmith" changeset="3374422" lat="-37.7647426" lon="145.3049745">
    <tag k="amenity" v="fuel"/>
    <tag k="created_by" v="Potlatch 0.9a"/>
    <tag k="name" v="BP"/>
  </node>
  <node id="266121409" version="4" timestamp="2011-03-07T00:42:05Z" uid="4467" user="Rosscoe" changeset="7480147" lat="-37.7603578" lon="145.310179">
    <tag k="amenity" v="cinema"/>
    <tag k="name" v="Reading Cinemas"/>
    <tag k="website" v="http://www.readingcinemas.com.au/cinemas/chirnsidepark.asp"/>
  </node>
  <node id="266123068" version="3" timestamp="2011-03-07T00:42:06Z" uid="4467" user="Rosscoe" changeset="7480147" lat="-37.7599507" lon="145.3110716">
    <tag k="amenity" v="fast_food"/>
    <tag k="name" v="Subway"/>
  </node>
  <node id="266123127" version="2" timestamp="2011-03-07T00:42:15Z" uid="4467" user="Rosscoe" changeset="7480147" lat="-37.7601218" lon="145.3126478">
    <tag k="amenity" v="fuel"/>
  </node>
  <node id="266123794" version="3" timestamp="2008-09-14T20:03:45Z" uid="6975" user="ulfl" changeset="640534" lat="51.8075927" lon="8.4267546">
    <tag k="amenity" v="bank"/>
    <tag k="atm" v="yes"/>
    <tag k="name" v="Sparkasse"/>
  </node>
  <node id="266123794" version="4" timestamp="2008-11-16T19:39:08Z" uid="34927" user="flohoff" changeset="757180" lat="51.8075927" lon="8.4267546">
    <tag k="addr:city" v="Rietberg"/>
    <tag k="addr:housenumber" v="36"/>
    <tag k="addr:postcode" v="33397"/>
    <tag k="addr:street" v="Rathausstraße"/>
    <tag k="amenity" v="bank"/>
    <tag k="atm" v="yes"/>
    <tag k="name" v="Sparkasse"/>
  </node>
  <node id="266123794" version="5" timestamp="2008-11-16T19:51:32Z" uid="34927" user="flohoff" changeset="757180" lat="51.807605" lon="8.4267208">
    <tag k="addr:city" v="Rietberg"/>
    <tag k="addr:housenumber" v="36"/>
    <tag k="addr:postcode" v="33397"/>
    <tag k="addr:street" v="Rathausstraße"/>
    <tag k="amenity" v="bank"/>
    <tag k="atm" v="yes"/>
    <tag k="name" v="Sparkasse"/>
  </node>
  <node id="266123794" version="6" timestamp="2011-11-08T13:24:50Z" uid="290680" user="wheelmap_visitor" changeset="9770655" lat="51.807605" lon="8.4267208">
    <tag k="addr:city" v="Rietberg"/>
    <tag k="addr:housenumber" v="36"/>
    <tag k="addr:postcode" v="33397"/>
    <tag k="addr:street" v="Rathausstraße"/>
    <tag k="amenity" v="bank"/>
    <tag k="atm" v="yes"/>
    <tag k="name" v="Sparkasse"/>
    <tag k="wheelchair" v="no"/>
  </node>
  <node id="266123794" version="7" timestamp="2012-01-08T11:56:40Z" uid="17339" user="Bernie454" changeset="10330233" lat="51.807605" lon="8.4267208">
    <tag k="addr:city" v="Rietberg"/>
    <tag k="addr:housenumber" v="36"/>
    <tag k="addr:postcode" v="33397"/>
    <tag k="addr:street" v="Rathausstraße"/>
    <tag k="amenity" v="atm"/>
    <tag k="atm" v="yes"/>
    <tag k="name" v="Sparkasse"/>
    <tag k="wheelchair" v="no"/>
  </node>
  <node id="266123794" version="8" timestamp="2012-02-24T21:16:36Z" uid="307987" user="bernie454" changeset="10782387" lat="51.807605" lon="8.4267208">
    <tag k="addr:city" v="Rietberg"/>
    <tag k="addr:housenumber" v="36"/>
    <tag k="addr:postcode" v="33397"/>
    <tag k="addr:street" v="Rathausstraße"/>
    <tag k="amenity" v="atm"/>
    <tag k="atm" v="yes"/>
    <tag k="name" v="Sparkasse"/>
    <tag k="operator" v="Sparkasse Rietberg"/>
    <tag k="wheelchair" v="no"/>
  </node>
  <node id="266123947" version="3" timestamp="2008-09-14T20:03:26Z" uid="6975" user="ulfl" changeset="640534" lat="51.8095179" lon="8.4274705">
    <tag k="amenity" v="bank"/>
    <tag k="atm" v="yes"/>
    <tag k="name" v="Dresdner Bank"/>
  </node>
  <node id="266123947" version="4" timestamp="2008-10-17T05:24:44Z" uid="17339" user="Bernie454" changeset="387055" lat="51.8095124" lon="8.427497">
    <tag k="amenity" v="bank"/>
    <tag k="atm" v="yes"/>
    <tag k="created_by" v="Potlatch 0.10e"/>
    <tag k="name" v="Dresdner Bank"/>
  </node>
  <node id="266123947" version="5" timestamp="2008-11-16T19:53:35Z" uid="34927" user="flohoff" changeset="757180" lat="51.8096084" lon="8.4274137">
    <tag k="amenity" v="bank"/>
    <tag k="atm" v="yes"/>
    <tag k="created_by" v="Potlatch 0.10e"/>
    <tag k="name" v="Dresdner Bank"/>
  </node>
  <node id="266123947" version="6" timestamp="2009-01-26T16:43:38Z" uid="17339" user="Bernie454" changeset="840362" lat="51.8095185" lon="8.4274235">
    <tag k="amenity" v="bank"/>
    <tag k="atm" v="yes"/>
    <tag k="created_by" v="Potlatch 0.10f"/>
    <tag k="name" v="Dresdner Bank"/>
  </node>
  <node id="266123947" version="7" timestamp="2011-10-03T09:48:52Z" uid="290680" user="wheelmap_visitor" changeset="9456721" lat="51.8095185" lon="8.4274235">
    <tag k="amenity" v="bank"/>
    <tag k="atm" v="yes"/>
    <tag k="created_by" v="Potlatch 0.10f"/>
    <tag k="name" v="Dresdner Bank"/>
    <tag k="wheelchair" v="no"/>
  </node>
  <node id="266123947" version="8" timestamp="2012-02-24T19:22:50Z" uid="307987" user="bernie454" changeset="10781487" lat="51.8095185" lon="8.4274235">
    <tag k="amenity" v="bank"/>
    <tag k="atm" v="yes"/>
    <tag k="name" v="Commerzbank"/>
    <tag k="wheelchair" v="no"/>
  </node>
  <node id="266123992" version="3" timestamp="2008-09-14T20:03:08Z" uid="6975" user="ulfl" changeset="640534" lat="51.810091" lon="8.427522">
    <tag k="amenity" v="bank"/>
    <tag k="atm" v="yes"/>
    <tag k="name" v="?"/>
  </node>
  <node id="266123992" version="4" timestamp="2008-10-17T05:25:10Z" uid="17339" user="Bernie454" changeset="387055" lat="51.8100962" lon="8.4275142">
    <tag k="amenity" v="bank"/>
    <tag k="atm" v="yes"/>
    <tag k="created_by" v="Potlatch 0.10e"/>
    <tag k="name" v="Commerzbank"/>
  </node>
  <node id="266123992" version="5" timestamp="2008-10-26T18:12:35Z" uid="17339" user="Bernie454" changeset="584602" lat="51.810079" lon="8.4275677">
    <tag k="amenity" v="bank"/>
    <tag k="atm" v="yes"/>
    <tag k="created_by" v="Potlatch 0.10e"/>
    <tag k="name" v="Commerzbank"/>
  </node>
  <node id="266123992" version="6" timestamp="2008-11-16T19:48:36Z" uid="34927" user="flohoff" changeset="757180" lat="51.810079" lon="8.4275677">
    <tag k="addr:city" v="Rietberg"/>
    <tag k="addr:housenumber" v="10"/>
    <tag k="addr:postcode" v="33397"/>
    <tag k="addr:street" v="Rathausstraße"/>
    <tag k="amenity" v="bank"/>
    <tag k="atm" v="yes"/>
    <tag k="created_by" v="Potlatch 0.10e"/>
    <tag k="name" v="Commerzbank"/>
  </node>
  <node id="266123992" version="7" timestamp="2008-11-16T19:53:35Z" uid="34927" user="flohoff" changeset="757180" lat="51.8100301" lon="8.4275659">
    <tag k="addr:city" v="Rietberg"/>
    <tag k="addr:housenumber" v="10"/>
    <tag k="addr:postcode" v="33397"/>
    <tag k="addr:street" v="Rathausstraße"/>
    <tag k="amenity" v="bank"/>
    <tag k="atm" v="yes"/>
    <tag k="created_by" v="Potlatch 0.10e"/>
    <tag k="name" v="Commerzbank"/>
  </node>
  <node id="266123992" version="8" timestamp="2011-10-13T18:47:21Z" uid="290680" user="wheelmap_visitor" changeset="9544161" lat="51.8100301" lon="8.4275659">
    <tag k="addr:city" v="Rietberg"/>
    <tag k="addr:housenumber" v="10"/>
    <tag k="addr:postcode" v="33397"/>
    <tag k="addr:street" v="Rathausstraße"/>
    <tag k="amenity" v="bank"/>
    <tag k="atm" v="yes"/>
    <tag k="created_by" v="Potlatch 0.10e"/>
    <tag k="name" v="Commerzbank"/>
    <tag k="wheelchair" v="no"/>
  </node>
  <node id="266124108" version="3" timestamp="2011-03-29T12:19:15Z" uid="4467" user="Rosscoe" changeset="7706279" lat="-37.7480763" lon="145.3562584">
    <tag k="sport" v="cycling"/>
  </node>
  <node id="266124320" version="2" timestamp="2009-12-14T17:06:20Z" uid="74617" user="JohnSmith" changeset="3373323" lat="-37.7529897" lon="145.3650474">
    <tag k="amenity" v="fuel"/>
    <tag k="operator" v="Shell"/>
  </node>
  <node id="266124728" version="2" timestamp="2009-03-10T13:53:49Z" uid="55964" user="Evan Sebire" changeset="778901" lat="-37.7526978" lon="145.3658628">
    <tag k="amenity" v="fuel"/>
    <tag k="created_by" v="Merkaartor 0.13"/>
    <tag k="name" v="United"/>
  </node>
  <node id="266124728" version="3" timestamp="2009-12-14T19:44:32Z" uid="74617" user="JohnSmith" changeset="3374489" lat="-37.7526978" lon="145.3658628">
    <tag k="amenity" v="fuel"/>
    <tag k="operator" v="United"/>
  </node>
  <node id="266125517" version="5" timestamp="2010-05-12T09:24:14Z" uid="4467" user="Rosscoe" changeset="4675520" lat="-34.5782113" lon="150.8702081">
    <tag k="direction" v="clockwise"/>
    <tag k="highway" v="mini_roundabout"/>
  </node>
  <node id="266125852" version="2" timestamp="2009-11-23T22:07:27Z" uid="55964" user="Evan Sebire" changeset="3200272" lat="-37.7577875" lon="145.3552885">
    <tag k="amenity" v="fuel"/>
    <tag k="name" v="Caltex"/>
  </node>
  <node id="266125852" version="3" timestamp="2010-09-05T14:56:36Z" uid="206929" user="Supt_of_Printing" changeset="5688369" lat="-37.7577875" lon="145.3552885">
    <tag k="amenity" v="fuel"/>
    <tag k="name" v="Caltex"/>
  </node>
  <node id="266126077" version="2" timestamp="2008-05-26T11:13:38Z" uid="19626" user="Swamp" changeset="527365" lat="-34.5520993" lon="150.8606333">
    <tag k="created_by" v="Potlatch 0.9a"/>
  </node>
  <node id="266126283" version="2" timestamp="2009-11-23T22:07:05Z" uid="55964" user="Evan Sebire" changeset="3200272" lat="-37.755107" lon="145.3507996">
    <tag k="sport" v="swimming"/>
  </node>
  <node id="266127755" version="1" timestamp="2008-05-21T10:13:24Z" uid="9581" user="Lobelt" changeset="494155" lat="51.8461139" lon="14.1861574">
    <tag k="created_by" v="JOSM"/>
  </node>
  <node id="266127755" version="2" timestamp="2009-06-02T16:37:26Z" uid="28234" user="derandi" changeset="1405641" lat="51.8464045" lon="14.186183">
    <tag k="created_by" v="JOSM"/>
  </node>
  <node id="266127757" version="1" timestamp="2008-05-21T10:13:24Z" uid="9581" user="Lobelt" changeset="494155" lat="51.8453609" lon="14.1861768">
    <tag k="created_by" v="JOSM"/>
  </node>
  <node id="266127757" version="2" timestamp="2009-06-02T16:37:26Z" uid="28234" user="derandi" changeset="1405641" lat="51.8453524" lon="14.1862138">
    <tag k="created_by" v="JOSM"/>
  </node>
  <node id="266127758" version="1" timestamp="2008-05-21T10:13:24Z" uid="9581" user="Lobelt" changeset="494155" lat="51.8439672" lon="14.1862631">
    <tag k="created_by" v="JOSM"/>
  </node>
  <node id="266127758" version="2" timestamp="2009-06-02T16:37:41Z" uid="28234" user="derandi" changeset="1405641" lat="51.8439672" lon="14.1862631">
    <tag k="created_by" v="JOSM"/>
  </node>
  <node id="266127760" version="1" timestamp="2008-05-21T10:13:24Z" uid="9581" user="Lobelt" changeset="494155" lat="51.8413711" lon="14.1863779">
    <tag k="created_by" v="JOSM"/>
  </node>
  <node id="266127760" version="2" timestamp="2009-06-02T16:37:26Z" uid="28234" user="derandi" changeset="1405641" lat="51.841469" lon="14.1864758">
    <tag k="created_by" v="JOSM"/>
  </node>
  <node id="266127760" version="3" timestamp="2011-03-16T22:45:19Z" uid="28234" user="derandi" changeset="7580643" lat="51.8414472" lon="14.1864784"/>
  <node id="266127761" version="1" timestamp="2008-05-21T10:13:24Z" uid="9581" user="Lobelt" changeset="494155" lat="51.8378803" lon="14.1865857">
    <tag k="created_by" v="JOSM"/>
  </node>
  <node id="266127761" version="2" timestamp="2009-07-02T20:38:49Z" uid="28234" user="derandi" changeset="1713807" lat="51.8372405" lon="14.1867005">
    <tag k="created_by" v="JOSM"/>
  </node>
  <node id="266127761" version="3" timestamp="2011-03-15T10:03:42Z" uid="28234" user="derandi" changeset="7564664" lat="51.8372353" lon="14.186705"/>
  <node id="266127764" version="1" timestamp="2008-05-21T10:13:24Z" uid="9581" user="Lobelt" changeset="494155" lat="51.8392284" lon="14.1865159">
    <tag k="created_by" v="JOSM"/>
  </node>
  <node id="266127764" version="2" timestamp="2011-03-16T15:02:39Z" uid="28234" user="derandi" changeset="7576531" lat="51.8392504" lon="14.1865284"/>
  <node id="266127764" version="3" timestamp="2011-03-16T18:05:42Z" uid="28234" user="derandi" changeset="7577990" lat="51.8392507" lon="14.1865701"/>
  <node id="266128383" version="2" timestamp="2008-05-26T11:13:36Z" uid="19626" user="Swamp" changeset="527365" lat="-34.5526083" lon="150.8602985">
    <tag k="amenity" v="Warilla post_office"/>
    <tag k="created_by" v="Potlatch 0.9a"/>
  </node>
  <node id="266128396" version="1" timestamp="2008-05-21T10:14:57Z" uid="9581" user="Lobelt" changeset="494155" lat="51.8586031" lon="14.1559898">
    <tag k="created_by" v="JOSM"/>
  </node>
  <node id="266128396" version="2" timestamp="2008-05-26T17:02:02Z" uid="9581" user="Lobelt" changeset="526420" lat="51.8586019" lon="14.155862">
    <tag k="created_by" v="JOSM"/>
  </node>
  <node id="266128396" version="3" timestamp="2009-06-03T11:02:21Z" uid="28234" user="derandi" changeset="1411984" lat="51.8585503" lon="14.1557968">
    <tag k="created_by" v="JOSM"/>
  </node>
  <node id="266128396" version="4" timestamp="2010-02-15T18:11:51Z" uid="12983" user="jorilla" changeset="3885405" lat="51.8585547" lon="14.1557896"/>
  <node id="266128396" version="5" timestamp="2011-07-26T09:12:15Z" uid="28234" user="derandi" changeset="8833587" lat="51.8585296" lon="14.1557807"/>
  <node id="266129371" version="2" timestamp="2008-05-26T11:13:36Z" uid="19626" user="Swamp" changeset="527365" lat="-34.5531879" lon="150.8580669">
    <tag k="amenity" v="Warilla Police Station"/>
    <tag k="created_by" v="Potlatch 0.9a"/>
  </node>
  <node id="266129732" version="2" timestamp="2010-03-06T05:54:00Z" uid="30201" user="rrankin" changeset="4046750" lat="-34.5531357" lon="150.857452"/>
  <node id="266129732" version="3" timestamp="2010-07-27T03:29:22Z" uid="280711" user="kbosward" changeset="5325912" lat="-34.5531439" lon="150.8574489"/>
  <node id="266129843" version="4" timestamp="2010-03-04T11:10:42Z" uid="30201" user="rrankin" changeset="4031744" lat="-34.552613" lon="150.8587043"/>
  <node id="266129843" version="5" timestamp="2010-07-27T03:29:14Z" uid="280711" user="kbosward" changeset="5325912" lat="-34.5526115" lon="150.858731"/>
  <node id="266129996" version="2" timestamp="2011-01-07T00:18:52Z" uid="30201" user="rrankin" changeset="6888648" lat="-34.5512439" lon="150.8600067"/>
</osm>
