<?xml version='1.0' encoding='UTF-8'?>
<osm version="0.6" generator="libosmium/2.20.0">
  <node id="26760128" version="1" timestamp="2007-03-25T03:08:17Z" uid="6454" user="B10xxx" changeset="244644" lat="52.5070903" lon="13.3324521">
    <tag k="created_by" v="YahooApplet 1.0"/>
    <tag k="name" v="Zoologischer Garten"/>
    <tag k="railway" v="station"/>
  </node>
  <node id="26760128" version="2" timestamp="2007-10-14T19:18:08Z" uid="6454" user="B10xxx" changeset="165202" lat="52.5070943" lon="13.3324448">
    <tag k="created_by" v="Potlatch 0.4a"/>
    <tag k="name" v="Zoologischer Garten"/>
    <tag k="railway" v="station"/>
  </node>
  <node id="26760128" version="3" timestamp="2007-10-15T09:43:48Z" uid="16447" user="Wilmersdorfer" changeset="178235" lat="52.5070987" lon="13.3324406">
    <tag k="created_by" v="Potlatch 0.4a"/>
    <tag k="name" v="Zoologischer Garten"/>
    <tag k="railway" v="station"/>
  </node>
  <node id="26760128" version="4" timestamp="2007-11-09T21:25:23Z" uid="18123" user="BlackMagic" changeset="453659" lat="52.5071006" lon="13.3324376">
    <tag k="created_by" v="Potlatch 0.4c"/>
    <tag k="name" v="Zoologischer Garten"/>
    <tag k="railway" v="station"/>
  </node>
  <node id="26760128" version="5" timestamp="2008-05-06T18:13:24Z" uid="35787" user="Randbewohner" changeset="354110" lat="52.5071039" lon="13.3324352">
    <tag k="created_by" v="Potlatch 0.4c"/>
    <tag k="name" v="Zoologischer Garten"/>
    <tag k="railway" v="station"/>
  </node>
  <node id="26760189" version="1" timestamp="2007-05-12T14:33:24Z" uid="6454" user="B10xxx" changeset="46993" lat="52.506656" lon="13.3311405">
    <tag k="created_by" v="YahooApplet 1.0"/>
  </node>
  <node id="26760190" version="1" timestamp="2007-03-27T01:47:57Z" uid="6454" user="B10xxx" changeset="246434" lat="52.506656" lon="13.3311405">
    <tag k="created_by" v="YahooApplet 1.0"/>
  </node>
  <node id="26760190" version="2" timestamp="2008-05-22T16:32:21Z" uid="6669" user="Elwood" changeset="499642" lat="52.5066281" lon="13.331129">
    <tag k="created_by" v="YahooApplet 1.0"/>
  </node>
  <node id="26760190" version="3" timestamp="2010-04-16T14:10:29Z" uid="88961" user="Shmias" changeset="4439079" lat="52.5066281" lon="13.331129">
    <tag k="created_by" v="YahooApplet 1.0"/>
  </node>
  <node id="26760192" version="1" timestamp="2007-03-27T01:46:36Z" uid="6454" user="B10xxx" changeset="246434" lat="52.5078641" lon="13.3281686">
    <tag k="created_by" v="YahooApplet 1.0"/>
  </node>
  <node id="26760192" version="2" timestamp="2008-03-19T11:44:51Z" uid="6669" user="Elwood" changeset="349831" lat="52.5078641" lon="13.3281686">
    <tag k="created_by" v="YahooApplet 1.0"/>
    <tag k="highway" v="traffic_signals"/>
  </node>
  <node id="26760192" version="3" timestamp="2008-05-22T16:32:21Z" uid="6669" user="Elwood" changeset="499642" lat="52.5079444" lon="13.328226">
    <tag k="created_by" v="YahooApplet 1.0"/>
    <tag k="highway" v="traffic_signals"/>
  </node>
  <node id="26760192" version="4" timestamp="2009-09-28T15:05:47Z" uid="6669" user="Elwood" changeset="2665841" lat="52.5080333" lon="13.3282225">
    <tag k="highway" v="traffic_signals"/>
  </node>
  <node id="26760192" version="5" timestamp="2010-12-05T20:39:34Z" uid="59428" user="Plan_A" changeset="6556386" lat="52.5080333" lon="13.3281842">
    <tag k="highway" v="traffic_signals"/>
  </node>
  <node id="26760192" version="6" timestamp="2011-12-04T18:12:55Z" uid="564384" user="JuP" changeset="10035975" lat="52.5080333" lon="13.3281842">
    <tag k="highway" v="traffic_signals"/>
  </node>
  <node id="26760192" version="7" timestamp="2011-12-24T18:32:10Z" uid="39457" user="Markus59" changeset="10195757" lat="52.5080501" lon="13.3281891">
    <tag k="highway" v="traffic_signals"/>
  </node>
  <node id="26760256" version="1" timestamp="2007-03-25T22:42:11Z" uid="6454" user="B10xxx" changeset="245530" lat="50.673296" lon="9.7630436">
    <tag k="created_by" v="YahooApplet 1.0"/>
    <tag k="name" v="Huenfeld-HBf"/>
    <tag k="railway" v="station"/>
  </node>
  <node id="26760256" version="2" timestamp="2010-09-29T23:09:17Z" uid="351608" user="janus4" changeset="5916260" lat="50.673296" lon="9.7630436">
    <tag k="name" v="Hünfeld-HBf"/>
    <tag k="railway" v="station"/>
  </node>
  <node id="26760256" version="3" timestamp="2011-11-09T18:39:27Z" uid="36894" user="rab" changeset="9783590" lat="50.6732963" lon="9.7630383"/>
  <node id="26760257" version="1" timestamp="2007-03-25T15:07:10Z" uid="6454" user="B10xxx" changeset="244795" lat="50.6733165" lon="9.7636064">
    <tag k="created_by" v="YahooApplet 1.0"/>
  </node>
  <node id="26760257" version="2" timestamp="2009-02-13T02:08:52Z" uid="17602" user="B10xyz" changeset="392180" lat="50.6733165" lon="9.7636064">
    <tag k="created_by" v="YahooApplet 1.0"/>
  </node>
  <node id="26760257" version="3" timestamp="2010-11-03T22:34:19Z" uid="351608" user="janus4" changeset="6280157" lat="50.6733165" lon="9.7635702"/>
  <node id="26760258" version="1" timestamp="2007-03-25T15:07:09Z" uid="6454" user="B10xxx" changeset="244795" lat="50.6733376" lon="9.7641345">
    <tag k="created_by" v="YahooApplet 1.0"/>
  </node>
  <node id="26760258" version="2" timestamp="2008-12-17T18:09:55Z" uid="36745" user="Gluko" changeset="445081" lat="50.6733376" lon="9.7641345"/>
  <node id="26760258" version="3" timestamp="2009-01-21T18:52:27Z" uid="60533" user="joni-k" changeset="820423" lat="50.6733467" lon="9.7641847"/>
  <node id="26760258" version="4" timestamp="2010-08-26T09:56:32Z" uid="292789" user="Jaspora" changeset="5597597" lat="50.6733467" lon="9.7641429"/>
  <node id="26760258" version="5" timestamp="2010-09-30T20:18:37Z" uid="351608" user="janus4" changeset="5923230" lat="50.6733467" lon="9.7641429">
    <tag k="highway" v="traffic_signals"/>
  </node>
  <node id="26760259" version="1" timestamp="2007-03-25T20:06:01Z" uid="6454" user="B10xxx" changeset="245530" lat="50.6733894" lon="9.7649246">
    <tag k="created_by" v="YahooApplet 1.0"/>
  </node>
  <node id="26760259" version="2" timestamp="2008-01-09T22:23:45Z" uid="6454" user="B10xxx" changeset="592662" lat="50.6733894" lon="9.764878">
    <tag k="created_by" v="YahooApplet 1.0"/>
  </node>
  <node id="26760259" version="3" timestamp="2012-02-18T17:59:34Z" uid="302852" user="be-ju" changeset="10722654" lat="50.6733894" lon="9.764878"/>
  <node id="26760260" version="1" timestamp="2007-03-25T15:07:09Z" uid="6454" user="B10xxx" changeset="244795" lat="50.6707203" lon="9.7651893">
    <tag k="created_by" v="YahooApplet 1.0"/>
  </node>
  <node id="26760260" version="2" timestamp="2011-07-20T12:43:40Z" uid="351608" user="janus4" changeset="8778291" lat="50.6707418" lon="9.7651699"/>
  <node id="26760260" version="3" timestamp="2012-03-03T17:09:22Z" uid="302852" user="be-ju" changeset="10859905" lat="50.6707417" lon="9.7651729"/>
  <node id="26760261" version="1" timestamp="2007-03-25T15:07:11Z" uid="6454" user="B10xxx" changeset="244795" lat="50.6727044" lon="9.7668211">
    <tag k="created_by" v="YahooApplet 1.0"/>
  </node>
  <node id="26760261" version="2" timestamp="2009-02-24T15:11:56Z" uid="68457" user="fossy" changeset="650769" lat="50.6726282" lon="9.7669373">
    <tag k="created_by" v="YahooApplet 1.0"/>
  </node>
  <node id="26760261" version="3" timestamp="2009-03-14T11:24:26Z" uid="17602" user="B10xyz" changeset="804506" lat="50.6726525" lon="9.7669421">
    <tag k="created_by" v="YahooApplet 1.0"/>
  </node>
  <node id="26760261" version="4" timestamp="2012-02-01T21:58:44Z" uid="302852" user="be-ju" changeset="10563025" lat="50.6726525" lon="9.7669421"/>
  <node id="26760262" version="1" timestamp="2007-03-25T15:07:10Z" uid="6454" user="B10xxx" changeset="244795" lat="50.6724257" lon="9.7658713">
    <tag k="created_by" v="YahooApplet 1.0"/>
  </node>
  <node id="26760262" version="2" timestamp="2009-02-24T15:11:56Z" uid="68457" user="fossy" changeset="650769" lat="50.6724609" lon="9.7658684">
    <tag k="created_by" v="YahooApplet 1.0"/>
  </node>
  <node id="26760262" version="3" timestamp="2010-10-05T13:57:46Z" uid="351608" user="janus4" changeset="5961494" lat="50.6724327" lon="9.7658653"/>
  <node id="26760263" version="1" timestamp="2007-03-25T20:05:54Z" uid="6454" user="B10xxx" changeset="245530" lat="50.6734406" lon="9.7657938">
    <tag k="created_by" v="YahooApplet 1.0"/>
  </node>
  <node id="26760263" version="2" timestamp="2012-02-01T21:58:44Z" uid="302852" user="be-ju" changeset="10563025" lat="50.6734406" lon="9.7657938"/>
  <node id="26760264" version="1" timestamp="2007-03-25T15:07:10Z" uid="6454" user="B10xxx" changeset="244795" lat="50.6705536" lon="9.7642368">
    <tag k="created_by" v="YahooApplet 1.0"/>
  </node>
  <node id="26760264" version="2" timestamp="2008-12-17T18:09:55Z" uid="36745" user="Gluko" changeset="445081" lat="50.6705536" lon="9.7642368"/>
  <node id="26760264" version="3" timestamp="2008-12-17T18:11:21Z" uid="36745" user="Gluko" changeset="445081" lat="50.6705536" lon="9.7642368"/>
  <node id="26760264" version="4" timestamp="2010-08-26T09:56:33Z" uid="292789" user="Jaspora" changeset="5597597" lat="50.6705687" lon="9.7641756"/>
  <node id="26760265" version="1" timestamp="2007-03-25T20:06:01Z" uid="6454" user="B10xxx" changeset="245530" lat="50.6741135" lon="9.7647695">
    <tag k="created_by" v="YahooApplet 1.0"/>
  </node>
  <node id="26760265" version="2" timestamp="2008-01-09T22:23:44Z" uid="6454" user="B10xxx" changeset="592662" lat="50.6741168" lon="9.7647177">
    <tag k="created_by" v="YahooApplet 1.0"/>
  </node>
  <node id="26760265" version="3" timestamp="2012-02-18T17:59:34Z" uid="302852" user="be-ju" changeset="10722654" lat="50.6741168" lon="9.7647177"/>
  <node id="26760297" version="1" timestamp="2007-03-26T14:56:43Z" uid="6454" user="B10xxx" changeset="245796" lat="50.663344" lon="9.7669461">
    <tag k="created_by" v="YahooApplet 1.0"/>
    <tag k="tourism" v="attraction"/>
  </node>
  <node id="26760298" version="1" timestamp="2007-03-25T15:30:12Z" uid="6454" user="B10xxx" changeset="244795" lat="50.6643777" lon="9.7655084">
    <tag k="created_by" v="YahooApplet 1.0"/>
  </node>
  <node id="26760299" version="1" timestamp="2007-03-26T14:56:48Z" uid="6454" user="B10xxx" changeset="245796" lat="50.6634528" lon="9.7704008">
    <tag k="created_by" v="YahooApplet 1.0"/>
  </node>
  <node id="26761220" version="1" timestamp="2007-04-01T18:49:34Z" uid="6454" user="B10xxx" changeset="4574" lat="52.5003742" lon="13.3306831">
    <tag k="created_by" v="JOSM"/>
  </node>
  <node id="26761220" version="2" timestamp="2008-03-19T11:44:48Z" uid="6669" user="Elwood" changeset="349831" lat="52.5003742" lon="13.3306831">
    <tag k="created_by" v="JOSM"/>
    <tag k="highway" v="traffic_signals"/>
  </node>
  <node id="26761220" version="3" timestamp="2008-05-22T16:52:28Z" uid="6669" user="Elwood" changeset="499642" lat="52.5003857" lon="13.3307962">
    <tag k="created_by" v="JOSM"/>
    <tag k="highway" v="traffic_signals"/>
  </node>
  <node id="26761220" version="4" timestamp="2009-07-19T21:50:02Z" uid="34417" user="TobHaeg" changeset="1879258" lat="52.5003857" lon="13.3307962">
    <tag k="highway" v="traffic_signals"/>
  </node>
  <node id="26761220" version="5" timestamp="2010-02-03T18:55:59Z" uid="6669" user="Elwood" changeset="3785190" lat="52.5003848" lon="13.3307608">
    <tag k="highway" v="traffic_signals"/>
  </node>
  <node id="26761220" version="6" timestamp="2010-05-02T07:22:44Z" uid="6669" user="Elwood" changeset="4581519" lat="52.5003848" lon="13.3307608">
    <tag k="TMC:cid_58:tabcd_1:Direction" v="positive"/>
    <tag k="TMC:cid_58:tabcd_1:LocationCode" v="27116"/>
    <tag k="highway" v="traffic_signals"/>
  </node>
  <node id="26761220" version="7" timestamp="2010-05-02T18:14:21Z" uid="218283" user="TMCbot" changeset="4588243" lat="52.5003848" lon="13.3307608">
    <tag k="TMC:cid_58:tabcd_1:Class" v="Point"/>
    <tag k="TMC:cid_58:tabcd_1:Direction" v="positive"/>
    <tag k="TMC:cid_58:tabcd_1:LCLversion" v="9.00"/>
    <tag k="TMC:cid_58:tabcd_1:LocationCode" v="27116"/>
    <tag k="TMC:cid_58:tabcd_1:NextLocationCode" v="27117"/>
    <tag k="TMC:cid_58:tabcd_1:PrevLocationCode" v="27115"/>
    <tag k="highway" v="traffic_signals"/>
  </node>
  <node id="26761220" version="8" timestamp="2010-10-29T18:23:47Z" uid="6669" user="Elwood" changeset="6220986" lat="52.5003848" lon="13.3307608">
    <tag k="highway" v="traffic_signals"/>
  </node>
  <node id="26761220" version="9" timestamp="2010-10-29T18:37:20Z" uid="6669" user="Elwood" changeset="6220986" lat="52.5003848" lon="13.3307608">
    <tag k="TMC:cid_58:tabcd_1:Direction" v="positive"/>
    <tag k="TMC:cid_58:tabcd_1:LocationCode" v="27116"/>
    <tag k="highway" v="traffic_signals"/>
  </node>
  <node id="26761220" version="10" timestamp="2010-10-30T18:06:24Z" uid="218283" user="TMCbot" changeset="6231646" lat="52.5003848" lon="13.3307608">
    <tag k="TMC:cid_58:tabcd_1:Class" v="Point"/>
    <tag k="TMC:cid_58:tabcd_1:Direction" v="positive"/>
    <tag k="TMC:cid_58:tabcd_1:LCLversion" v="9.00"/>
    <tag k="TMC:cid_58:tabcd_1:LocationCode" v="27116"/>
    <tag k="TMC:cid_58:tabcd_1:NextLocationCode" v="27117"/>
    <tag k="TMC:cid_58:tabcd_1:PrevLocationCode" v="27115"/>
    <tag k="highway" v="traffic_signals"/>
  </node>
  <node id="26761221" version="1" timestamp="2007-04-01T18:49:39Z" uid="6454" user="B10xxx" changeset="4574" lat="52.5003887" lon="13.3309448">
    <tag k="created_by" v="JOSM"/>
  </node>
  <node id="26761221" version="2" timestamp="2008-03-19T11:44:48Z" uid="6669" user="Elwood" changeset="349831" lat="52.5003887" lon="13.3309448">
    <tag k="created_by" v="JOSM"/>
    <tag k="highway" v="traffic_signals"/>
  </node>
  <node id="26761221" version="3" timestamp="2008-05-22T16:52:28Z" uid="6669" user="Elwood" changeset="499642" lat="52.5003973" lon="13.3309495">
    <tag k="created_by" v="JOSM"/>
    <tag k="highway" v="traffic_signals"/>
  </node>
  <node id="26761221" version="4" timestamp="2009-07-19T21:50:05Z" uid="34417" user="TobHaeg" changeset="1879258" lat="52.5003973" lon="13.3309495">
    <tag k="highway" v="traffic_signals"/>
  </node>
  <node id="26761221" version="5" timestamp="2009-11-30T15:53:05Z" uid="18062" user="Ulrich Hertlein" changeset="3256857" lat="52.5003973" lon="13.3309495">
    <tag k="highway" v="traffic_signals"/>
  </node>
  <node id="26761221" version="6" timestamp="2010-02-03T18:55:58Z" uid="6669" user="Elwood" changeset="3785190" lat="52.5003964" lon="13.3308971">
    <tag k="highway" v="traffic_signals"/>
  </node>
  <node id="26761221" version="7" timestamp="2010-05-02T07:22:44Z" uid="6669" user="Elwood" changeset="4581519" lat="52.5003964" lon="13.3308971">
    <tag k="TMC:cid_58:tabcd_1:Direction" v="positive"/>
    <tag k="TMC:cid_58:tabcd_1:LocationCode" v="27150"/>
    <tag k="highway" v="traffic_signals"/>
  </node>
  <node id="26761221" version="8" timestamp="2010-05-02T18:14:23Z" uid="218283" user="TMCbot" changeset="4588243" lat="52.5003964" lon="13.3308971">
    <tag k="TMC:cid_58:tabcd_1:Class" v="Point"/>
    <tag k="TMC:cid_58:tabcd_1:Direction" v="positive"/>
    <tag k="TMC:cid_58:tabcd_1:LCLversion" v="9.00"/>
    <tag k="TMC:cid_58:tabcd_1:LocationCode" v="27150"/>
    <tag k="TMC:cid_58:tabcd_1:NextLocationCode" v="27151"/>
    <tag k="TMC:cid_58:tabcd_1:PrevLocationCode" v="31245"/>
    <tag k="highway" v="traffic_signals"/>
  </node>
  <node id="26761221" version="9" timestamp="2010-09-19T14:42:28Z" uid="39457" user="Markus59" changeset="5820468" lat="52.5003964" lon="13.3308971">
    <tag k="TMC:cid_58:tabcd_1:Class" v="Point"/>
    <tag k="TMC:cid_58:tabcd_1:Direction" v="positive"/>
    <tag k="TMC:cid_58:tabcd_1:LCLversion" v="9.00"/>
    <tag k="TMC:cid_58:tabcd_1:LocationCode" v="27150"/>
    <tag k="TMC:cid_58:tabcd_1:NextLocationCode" v="27151"/>
    <tag k="TMC:cid_58:tabcd_1:PrevLocationCode" v="31245"/>
    <tag k="addr:city" v="Berlin"/>
    <tag k="highway" v="traffic_signals"/>
  </node>
  <node id="26761221" version="10" timestamp="2010-10-04T16:40:37Z" uid="43566" user="anbr" changeset="5955164" lat="52.5003964" lon="13.3308971">
    <tag k="TMC:cid_58:tabcd_1:Class" v="Point"/>
    <tag k="TMC:cid_58:tabcd_1:Direction" v="positive"/>
    <tag k="TMC:cid_58:tabcd_1:LCLversion" v="9.00"/>
    <tag k="TMC:cid_58:tabcd_1:LocationCode" v="27150"/>
    <tag k="TMC:cid_58:tabcd_1:NextLocationCode" v="27151"/>
    <tag k="TMC:cid_58:tabcd_1:PrevLocationCode" v="31245"/>
    <tag k="highway" v="traffic_signals"/>
  </node>
  <node id="26761380" version="5" timestamp="2008-10-24T21:00:57Z" uid="6975" user="ulfl" changeset="551307" lat="37.250556" lon="27.664167">
    <tag k="aeroway" v="aerodrome"/>
    <tag k="geonames:id" v="6299771"/>
    <tag k="iata" v="BJV"/>
    <tag k="icao" v="LTFE"/>
    <tag k="is_in" v="Turkey, Muğla"/>
    <tag k="name" v="Milas-Bodrum Havalimanı"/>
    <tag k="name:en" v="Milas Bodrum International"/>
    <tag k="place" v="airport"/>
    <tag k="source" v="Wikipedia (tr)"/>
    <tag k="type" v="civil"/>
    <tag k="watch:hakan" v="airports"/>
  </node>
  <node id="26761380" version="6" timestamp="2009-06-17T22:02:58Z" uid="28145" user="amillar" changeset="1550194" lat="37.2506" lon="27.6642">
    <tag k="aeroway" v="aerodrome"/>
    <tag k="closest_town" v="Bodrum"/>
    <tag k="ele" v="6"/>
    <tag k="geonames:id" v="6299771"/>
    <tag k="iata" v="BJV"/>
    <tag k="icao" v="LTFE"/>
    <tag k="is_in" v="Turkey, Muğla"/>
    <tag k="name" v="Milas-Bodrum Havalimanı"/>
    <tag k="name:en" v="Milas-Bodrum International Airport"/>
    <tag k="name:tr" v="Milas-Bodrum Havalimanı"/>
    <tag k="operator" v="Civil Government"/>
    <tag k="place" v="airport"/>
    <tag k="source" v="wikipedia"/>
    <tag k="type" v="public"/>
    <tag k="watch:hakan" v="airports"/>
    <tag k="wikipedia:en" v="Milas-Bodrum_Airport"/>
  </node>
  <node id="26761380" version="7" timestamp="2009-08-02T20:46:10Z" uid="125354" user="teecee90" changeset="2019616" lat="37.2506001" lon="27.6641937">
    <tag k="aeroway" v="aerodrome"/>
    <tag k="amenity" v="school"/>
    <tag k="closest_town" v="Bodrum"/>
    <tag k="ele" v="6"/>
    <tag k="geonames:id" v="6299771"/>
    <tag k="iata" v="BJV"/>
    <tag k="icao" v="LTFE"/>
    <tag k="is_in" v="Turkey, Muğla"/>
    <tag k="name" v="Milas-Bodrum Havalimanı"/>
    <tag k="name:en" v="Milas-Bodrum International Airport"/>
    <tag k="name:tr" v="Milas-Bodrum Havalimanı"/>
    <tag k="operator" v="Civil Government"/>
    <tag k="shop" v="doityourself"/>
    <tag k="source" v="wikipedia"/>
    <tag k="type" v="public"/>
    <tag k="watch:hakan" v="airports"/>
    <tag k="wikipedia:en" v="Milas-Bodrum_Airport"/>
  </node>
  <node id="26761380" version="8" timestamp="2009-08-02T20:50:02Z" uid="125354" user="teecee90" changeset="2019707" lat="37.2506056" lon="27.664189">
    <tag k="aeroway" v="aerodrome"/>
    <tag k="amenity" v="airport"/>
    <tag k="closest_town" v="Bodrum"/>
    <tag k="ele" v="6"/>
    <tag k="geonames:id" v="6299771"/>
    <tag k="iata" v="BJV"/>
    <tag k="icao" v="LTFE"/>
    <tag k="is_in" v="Turkey, Muğla"/>
    <tag k="name" v="Milas-Bodrum Havalimanı"/>
    <tag k="name:en" v="Milas-Bodrum International Airport"/>
    <tag k="name:tr" v="Milas-Bodrum Havalimanı"/>
    <tag k="operator" v="Civil Government"/>
    <tag k="shop" v="doityourself"/>
    <tag k="source" v="wikipedia"/>
    <tag k="type" v="public"/>
    <tag k="watch:hakan" v="airports"/>
    <tag k="wikipedia:en" v="Milas-Bodrum_Airport"/>
  </node>
  <node id="26761380" version="9" timestamp="2009-12-28T04:27:35Z" uid="11127" user="c19" changeset="3468715" lat="37.2506056" lon="27.664189">
    <tag k="aeroway" v="aerodrome"/>
    <tag k="amenity" v="airport"/>
    <tag k="closest_town" v="Bodrum"/>
    <tag k="ele" v="6"/>
    <tag k="geonames:id" v="6299771"/>
    <tag k="iata" v="BJV"/>
    <tag k="icao" v="LTFE"/>
    <tag k="is_in" v="Turkey, Muğla"/>
    <tag k="name" v="Milas-Bodrum Havalimanı"/>
    <tag k="name:en" v="Milas-Bodrum International Airport"/>
    <tag k="name:tr" v="Milas-Bodrum Havalimanı"/>
    <tag k="operator" v="Civil Government"/>
    <tag k="source" v="wikipedia"/>
    <tag k="type" v="public"/>
    <tag k="watch:hakan" v="airports"/>
    <tag k="wikipedia:en" v="Milas-Bodrum_Airport"/>
  </node>
  <node id="26761380" version="10" timestamp="2010-08-08T17:52:31Z" uid="207745" user="NE2" changeset="5435557" lat="37.2506056" lon="27.664189">
    <tag k="aeroway" v="aerodrome"/>
    <tag k="amenity" v="airport"/>
    <tag k="closest_town" v="Bodrum"/>
    <tag k="ele" v="6"/>
    <tag k="geonames:id" v="6299771"/>
    <tag k="iata" v="BJV"/>
    <tag k="icao" v="LTFE"/>
    <tag k="is_in" v="Turkey, Muğla"/>
    <tag k="name" v="Milas-Bodrum Havalimanı"/>
    <tag k="name:en" v="Milas-Bodrum International Airport"/>
    <tag k="name:tr" v="Milas-Bodrum Havalimanı"/>
    <tag k="operator" v="Civil Government"/>
    <tag k="source" v="wikipedia"/>
    <tag k="type" v="public"/>
    <tag k="wikipedia:en" v="Milas-Bodrum_Airport"/>
  </node>
  <node id="26761400" version="6" timestamp="2009-07-25T23:07:41Z" uid="123700" user="Mala" changeset="1939477" lat="43.2948043" lon="5.3708202">
    <tag k="code_INSEE" v="13055"/>
    <tag k="code_departement" v="13"/>
    <tag k="is_in" v="Europe,France"/>
    <tag k="is_in:continent" v="Europe"/>
    <tag k="name" v="Marseille"/>
    <tag k="name:ca" v="Marsella"/>
    <tag k="name:es" v="Marsella"/>
    <tag k="name:it" v="Marsiglia"/>
    <tag k="name:oc" v="Marselha"/>
    <tag k="name:pl" v="Marsylia"/>
    <tag k="name:pt" v="Marselha"/>
    <tag k="name:tr" v="Marsilya"/>
    <tag k="place" v="city"/>
    <tag k="population" v="820900"/>
    <tag k="postal_code" v="13000"/>
    <tag k="wikipedia" v="Marseille"/>
  </node>
  <node id="26761400" version="7" timestamp="2009-08-28T09:45:55Z" uid="33757" user="Minh Nguyen" changeset="2287945" lat="43.2948058" lon="5.3708155">
    <tag k="alt_name:vi" v="Mác-xây"/>
    <tag k="code_INSEE" v="13055"/>
    <tag k="code_departement" v="13"/>
    <tag k="is_in" v="Europe,France"/>
    <tag k="is_in:continent" v="Europe"/>
    <tag k="name" v="Marseille"/>
    <tag k="name:ca" v="Marsella"/>
    <tag k="name:es" v="Marsella"/>
    <tag k="name:it" v="Marsiglia"/>
    <tag k="name:oc" v="Marselha"/>
    <tag k="name:pl" v="Marsylia"/>
    <tag k="name:pt" v="Marselha"/>
    <tag k="name:tr" v="Marsilya"/>
    <tag k="name:vi" v="Mạc Xây"/>
    <tag k="place" v="city"/>
    <tag k="population" v="820900"/>
    <tag k="postal_code" v="13000"/>
    <tag k="wikipedia" v="Marseille"/>
  </node>
  <node id="26761400" version="8" timestamp="2009-11-24T11:58:32Z" uid="183561" user="EtienneChoveBot" changeset="3203604" lat="43.2948058" lon="5.3708155">
    <tag k="alt_name:vi" v="Mác-xây"/>
    <tag k="code_departement" v="13"/>
    <tag k="is_in" v="Europe,France"/>
    <tag k="is_in:continent" v="Europe"/>
    <tag k="name" v="Marseille"/>
    <tag k="name:ca" v="Marsella"/>
    <tag k="name:es" v="Marsella"/>
    <tag k="name:it" v="Marsiglia"/>
    <tag k="name:oc" v="Marselha"/>
    <tag k="name:pl" v="Marsylia"/>
    <tag k="name:pt" v="Marselha"/>
    <tag k="name:tr" v="Marsilya"/>
    <tag k="name:vi" v="Mạc Xây"/>
    <tag k="place" v="city"/>
    <tag k="population" v="820900"/>
    <tag k="postal_code" v="13000"/>
    <tag k="ref:INSEE" v="13055"/>
    <tag k="wikipedia" v="Marseille"/>
  </node>
  <node id="26761400" version="9" timestamp="2009-12-02T11:09:34Z" uid="129607" user="Mage Whopper" changeset="3270805" lat="43.2948059" lon="5.3708155">
    <tag k="alt_name:vi" v="Mác-xây"/>
    <tag k="code_departement" v="13"/>
    <tag k="is_in" v="Europe,France"/>
    <tag k="is_in:continent" v="Europe"/>
    <tag k="name" v="Marseille"/>
    <tag k="name:ca" v="Marsella"/>
    <tag k="name:es" v="Marsella"/>
    <tag k="name:it" v="Marsiglia"/>
    <tag k="name:ja" v="マルセイユ"/>
    <tag k="name:oc" v="Marselha"/>
    <tag k="name:pl" v="Marsylia"/>
    <tag k="name:pt" v="Marselha"/>
    <tag k="name:tr" v="Marsilya"/>
    <tag k="name:vi" v="Mạc Xây"/>
    <tag k="place" v="city"/>
    <tag k="population" v="820900"/>
    <tag k="postal_code" v="13000"/>
    <tag k="ref:INSEE" v="13055"/>
    <tag k="wikipedia" v="Marseille"/>
  </node>
  <node id="26761400" version="10" timestamp="2010-02-10T14:31:38Z" uid="166445" user="GranD" changeset="3840617" lat="43.2948059" lon="5.3708155">
    <tag k="alt_name:vi" v="Mác-xây"/>
    <tag k="code_departement" v="13"/>
    <tag k="is_in" v="Europe,France"/>
    <tag k="is_in:continent" v="Europe"/>
    <tag k="name" v="Marseille"/>
    <tag k="name:ca" v="Marsella"/>
    <tag k="name:es" v="Marsella"/>
    <tag k="name:it" v="Marsiglia"/>
    <tag k="name:ja" v="マルセイユ"/>
    <tag k="name:oc" v="Marselha"/>
    <tag k="name:pl" v="Marsylia"/>
    <tag k="name:pt" v="Marselha"/>
    <tag k="name:ru" v="Марсель"/>
    <tag k="name:tr" v="Marsilya"/>
    <tag k="name:vi" v="Mạc Xây"/>
    <tag k="place" v="city"/>
    <tag k="population" v="820900"/>
    <tag k="postal_code" v="13000"/>
    <tag k="ref:INSEE" v="13055"/>
    <tag k="wikipedia" v="Marseille"/>
  </node>
  <node id="26761400" version="11" timestamp="2010-02-20T10:20:58Z" uid="28269" user="Pierre-Alain Dorange" changeset="3921997" lat="43.2948059" lon="5.3708155">
    <tag k="alt_name:vi" v="Mác-xây"/>
    <tag k="code_departement" v="13"/>
    <tag k="is_in" v="Europe, France, Provence-Alpes-Côte-d&apos;Azur, Bouche-du-Rhône"/>
    <tag k="is_in:continent" v="Europe"/>
    <tag k="is_in:country" v="France"/>
    <tag k="name" v="Marseille"/>
    <tag k="name:ca" v="Marsella"/>
    <tag k="name:es" v="Marsella"/>
    <tag k="name:it" v="Marsiglia"/>
    <tag k="name:ja" v="マルセイユ"/>
    <tag k="name:oc" v="Marselha"/>
    <tag k="name:pl" v="Marsylia"/>
    <tag k="name:pt" v="Marselha"/>
    <tag k="name:ru" v="Марсель"/>
    <tag k="name:tr" v="Marsilya"/>
    <tag k="name:vi" v="Mạc Xây"/>
    <tag k="place" v="city"/>
    <tag k="population" v="820900"/>
    <tag k="postal_code" v="13000"/>
    <tag k="ref:INSEE" v="13055"/>
    <tag k="wikipedia" v="Marseille"/>
  </node>
  <node id="26761400" version="12" timestamp="2010-02-20T11:35:13Z" uid="28269" user="Pierre-Alain Dorange" changeset="3922542" lat="43.2948059" lon="5.3708155">
    <tag k="alt_name:vi" v="Mác-xây"/>
    <tag k="code_departement" v="13"/>
    <tag k="is_in" v="Europe, France, Provence-Alpes-Côte-d&apos;Azur, Bouche-du-Rhône"/>
    <tag k="is_in:continent" v="Europe"/>
    <tag k="is_in:country" v="France"/>
    <tag k="name" v="Marseille"/>
    <tag k="name:ca" v="Marsella"/>
    <tag k="name:es" v="Marsella"/>
    <tag k="name:it" v="Marsiglia"/>
    <tag k="name:ja" v="マルセイユ"/>
    <tag k="name:oc" v="Marselha"/>
    <tag k="name:pl" v="Marsylia"/>
    <tag k="name:pt" v="Marselha"/>
    <tag k="name:ru" v="Марсель"/>
    <tag k="name:tr" v="Marsilya"/>
    <tag k="name:vi" v="Mạc Xây"/>
    <tag k="place" v="city"/>
    <tag k="population" v="852395"/>
    <tag k="postal_code" v="13000"/>
    <tag k="ref:INSEE" v="13055"/>
    <tag k="source:population" v="INSEE 2007"/>
    <tag k="wikipedia" v="Marseille"/>
  </node>
  <node id="26761400" version="13" timestamp="2010-03-05T16:52:00Z" uid="221997" user="EuskalMapa" changeset="4042610" lat="43.2948059" lon="5.3708155">
    <tag k="alt_name:vi" v="Mác-xây"/>
    <tag k="code_departement" v="13"/>
    <tag k="is_in" v="Europe, France, Provence-Alpes-Côte-d&apos;Azur, Bouche-du-Rhône"/>
    <tag k="is_in:continent" v="Europe"/>
    <tag k="is_in:country" v="France"/>
    <tag k="name" v="Marseille"/>
    <tag k="name:ca" v="Marsella"/>
    <tag k="name:es" v="Marsella"/>
    <tag k="name:eu" v="Marsella"/>
    <tag k="name:it" v="Marsiglia"/>
    <tag k="name:ja" v="マルセイユ"/>
    <tag k="name:oc" v="Marselha"/>
    <tag k="name:pl" v="Marsylia"/>
    <tag k="name:pt" v="Marselha"/>
    <tag k="name:ru" v="Марсель"/>
    <tag k="name:tr" v="Marsilya"/>
    <tag k="name:vi" v="Mạc Xây"/>
    <tag k="place" v="city"/>
    <tag k="population" v="852395"/>
    <tag k="postal_code" v="13000"/>
    <tag k="ref:INSEE" v="13055"/>
    <tag k="source:population" v="INSEE 2007"/>
    <tag k="wikipedia" v="Marseille"/>
  </node>
  <node id="26761400" version="14" timestamp="2010-03-08T13:21:06Z" uid="221997" user="EuskalMapa" changeset="4071747" lat="43.2948059" lon="5.3708155">
    <tag k="alt_name:vi" v="Mác-xây"/>
    <tag k="code_departement" v="13"/>
    <tag k="is_in" v="Europe, France, Provence-Alpes-Côte-d&apos;Azur, Bouche-du-Rhône"/>
    <tag k="is_in:continent" v="Europe"/>
    <tag k="is_in:country" v="France"/>
    <tag k="name" v="Marseille"/>
    <tag k="name:ca" v="Marsella"/>
    <tag k="name:es" v="Marsella"/>
    <tag k="name:eu" v="Marseilla"/>
    <tag k="name:it" v="Marsiglia"/>
    <tag k="name:ja" v="マルセイユ"/>
    <tag k="name:oc" v="Marselha"/>
    <tag k="name:pl" v="Marsylia"/>
    <tag k="name:pt" v="Marselha"/>
    <tag k="name:ru" v="Марсель"/>
    <tag k="name:tr" v="Marsilya"/>
    <tag k="name:vi" v="Mạc Xây"/>
    <tag k="place" v="city"/>
    <tag k="population" v="852395"/>
    <tag k="postal_code" v="13000"/>
    <tag k="ref:INSEE" v="13055"/>
    <tag k="source:population" v="INSEE 2007"/>
    <tag k="wikipedia" v="Marseille"/>
  </node>
  <node id="26761400" version="15" timestamp="2010-05-12T13:11:21Z" uid="118927" user="DSem" changeset="4677070" lat="43.2948059" lon="5.3708155">
    <tag k="alt_name:vi" v="Mác-xây"/>
    <tag k="code_departement" v="13"/>
    <tag k="is_in" v="Europe, France, Provence-Alpes-Côte-d&apos;Azur, Bouche-du-Rhône"/>
    <tag k="is_in:continent" v="Europe"/>
    <tag k="is_in:country" v="France"/>
    <tag k="name" v="Marseille"/>
    <tag k="name:ca" v="Marsella"/>
    <tag k="name:es" v="Marsella"/>
    <tag k="name:eu" v="Marseilla"/>
    <tag k="name:it" v="Marsiglia"/>
    <tag k="name:ja" v="マルセイユ"/>
    <tag k="name:oc" v="Marselha"/>
    <tag k="name:pl" v="Marsylia"/>
    <tag k="name:pt" v="Marselha"/>
    <tag k="name:ru" v="Марсель"/>
    <tag k="name:tr" v="Marsilya"/>
    <tag k="name:uk" v="Марсель"/>
    <tag k="name:vi" v="Mạc Xây"/>
    <tag k="place" v="city"/>
    <tag k="population" v="852395"/>
    <tag k="postal_code" v="13000"/>
    <tag k="ref:INSEE" v="13055"/>
    <tag k="source:population" v="INSEE 2007"/>
    <tag k="wikipedia" v="Marseille"/>
  </node>
  <node id="26761400" version="16" timestamp="2011-01-22T10:39:40Z" uid="79386" user="philippekerla" changeset="7048448" lat="43.2948059" lon="5.3708155">
    <tag k="alt_name:vi" v="Mác-xây"/>
    <tag k="code_departement" v="13"/>
    <tag k="is_in" v="Europe, France, Provence-Alpes-Côte-d&apos;Azur, Bouche-du-Rhône"/>
    <tag k="is_in:continent" v="Europe"/>
    <tag k="is_in:country" v="France"/>
    <tag k="name" v="Marseille"/>
    <tag k="name:ca" v="Marsella"/>
    <tag k="name:es" v="Marsella"/>
    <tag k="name:eu" v="Marseilla"/>
    <tag k="name:it" v="Marsiglia"/>
    <tag k="name:ja" v="マルセイユ"/>
    <tag k="name:oc" v="Marselha"/>
    <tag k="name:pl" v="Marsylia"/>
    <tag k="name:pt" v="Marselha"/>
    <tag k="name:ru" v="Марсель"/>
    <tag k="name:tr" v="Marsilya"/>
    <tag k="name:uk" v="Марсель"/>
    <tag k="name:vi" v="Mạc Xây"/>
    <tag k="place" v="city"/>
    <tag k="population" v="852395"/>
    <tag k="postal_code" v="13000"/>
    <tag k="ref:INSEE" v="13055"/>
    <tag k="ref:SIREN" v="211300553"/>
    <tag k="source:population" v="INSEE 2007"/>
    <tag k="wikipedia" v="Marseille"/>
  </node>
  <node id="26761400" version="17" timestamp="2011-01-24T12:39:12Z" uid="393666" user="etrumap" changeset="7072524" lat="43.2948059" lon="5.3708155">
    <tag k="alt_name:vi" v="Mác-xây"/>
    <tag k="code_departement" v="13"/>
    <tag k="is_in" v="Europe, France, Provence-Alpes-Côte-d&apos;Azur, Bouche-du-Rhône"/>
    <tag k="is_in:continent" v="Europe"/>
    <tag k="is_in:country" v="France"/>
    <tag k="name" v="Marseille"/>
    <tag k="name:ca" v="Marsella"/>
    <tag k="name:es" v="Marsella"/>
    <tag k="name:eu" v="Marseilla"/>
    <tag k="name:it" v="Marsiglia"/>
    <tag k="name:ja" v="マルセイユ"/>
    <tag k="name:oc" v="Marselha"/>
    <tag k="name:pl" v="Marsylia"/>
    <tag k="name:pt" v="Marselha"/>
    <tag k="name:ru" v="Марсель"/>
    <tag k="name:tr" v="Marsilya"/>
    <tag k="name:uk" v="Марсель"/>
    <tag k="name:vi" v="Mạc Xây"/>
    <tag k="place" v="city"/>
    <tag k="population" v="852395"/>
    <tag k="postal_code" v="13000"/>
    <tag k="rank" v="10"/>
    <tag k="ref:INSEE" v="13055"/>
    <tag k="ref:SIREN" v="211300553"/>
    <tag k="source:population" v="INSEE 2007"/>
    <tag k="wikipedia" v="Marseille"/>
  </node>
  <node id="26761400" version="18" timestamp="2011-05-21T20:02:45Z" uid="93026" user="mpele" changeset="8210214" lat="43.2948059" lon="5.3708155">
    <tag k="alt_name:vi" v="Mác-xây"/>
    <tag k="code_departement" v="13"/>
    <tag k="is_in" v="Europe, France, Provence-Alpes-Côte-d&apos;Azur, Bouche-du-Rhône"/>
    <tag k="is_in:continent" v="Europe"/>
    <tag k="is_in:country" v="France"/>
    <tag k="name" v="Marseille"/>
    <tag k="name:ca" v="Marsella"/>
    <tag k="name:es" v="Marsella"/>
    <tag k="name:eu" v="Marseilla"/>
    <tag k="name:it" v="Marsiglia"/>
    <tag k="name:ja" v="マルセイユ"/>
    <tag k="name:oc" v="Marselha"/>
    <tag k="name:pl" v="Marsylia"/>
    <tag k="name:pt" v="Marselha"/>
    <tag k="name:ru" v="Марсель"/>
    <tag k="name:sr" v="Марсеј"/>
    <tag k="name:tr" v="Marsilya"/>
    <tag k="name:uk" v="Марсель"/>
    <tag k="name:vi" v="Mạc Xây"/>
    <tag k="place" v="city"/>
    <tag k="population" v="852395"/>
    <tag k="postal_code" v="13000"/>
    <tag k="rank" v="10"/>
    <tag k="ref:INSEE" v="13055"/>
    <tag k="ref:SIREN" v="211300553"/>
    <tag k="source:population" v="INSEE 2007"/>
    <tag k="wikipedia" v="Marseille"/>
  </node>
  <node id="26761400" version="19" timestamp="2011-07-25T16:59:55Z" uid="49047" user="vincent_95" changeset="8827986" lat="43.2948059" lon="5.3708155">
    <tag k="addr:postcode" v="13000"/>
    <tag k="alt_name:vi" v="Mác-xây"/>
    <tag k="code_departement" v="13"/>
    <tag k="is_in" v="Europe, France, Provence-Alpes-Côte-d&apos;Azur, Bouche-du-Rhône"/>
    <tag k="is_in:continent" v="Europe"/>
    <tag k="is_in:country" v="France"/>
    <tag k="name" v="Marseille"/>
    <tag k="name:ca" v="Marsella"/>
    <tag k="name:es" v="Marsella"/>
    <tag k="name:eu" v="Marseilla"/>
    <tag k="name:it" v="Marsiglia"/>
    <tag k="name:ja" v="マルセイユ"/>
    <tag k="name:oc" v="Marselha"/>
    <tag k="name:pl" v="Marsylia"/>
    <tag k="name:pt" v="Marselha"/>
    <tag k="name:ru" v="Марсель"/>
    <tag k="name:sr" v="Марсеј"/>
    <tag k="name:tr" v="Marsilya"/>
    <tag k="name:uk" v="Марсель"/>
    <tag k="name:vi" v="Mạc Xây"/>
    <tag k="place" v="city"/>
    <tag k="population" v="852395"/>
    <tag k="rank" v="10"/>
    <tag k="ref:INSEE" v="13055"/>
    <tag k="ref:SIREN" v="211300553"/>
    <tag k="source:population" v="INSEE 2007"/>
    <tag k="wikipedia" v="Marseille"/>
  </node>
  <node id="26761400" version="20" timestamp="2012-03-08T14:42:41Z" uid="7045" user="Xuacu" changeset="10909736" lat="43.2948059" lon="5.3708155">
    <tag k="addr:postcode" v="13000"/>
    <tag k="alt_name:vi" v="Mác-xây"/>
    <tag k="code_departement" v="13"/>
    <tag k="is_in" v="Europe, France, Provence-Alpes-Côte-d&apos;Azur, Bouche-du-Rhône"/>
    <tag k="is_in:continent" v="Europe"/>
    <tag k="is_in:country" v="France"/>
    <tag k="name" v="Marseille"/>
    <tag k="name:ast" v="Marsella"/>
    <tag k="name:ca" v="Marsella"/>
    <tag k="name:es" v="Marsella"/>
    <tag k="name:eu" v="Marseilla"/>
    <tag k="name:it" v="Marsiglia"/>
    <tag k="name:ja" v="マルセイユ"/>
    <tag k="name:oc" v="Marselha"/>
    <tag k="name:pl" v="Marsylia"/>
    <tag k="name:pt" v="Marselha"/>
    <tag k="name:ru" v="Марсель"/>
    <tag k="name:sr" v="Марсеј"/>
    <tag k="name:tr" v="Marsilya"/>
    <tag k="name:uk" v="Марсель"/>
    <tag k="name:vi" v="Mạc Xây"/>
    <tag k="place" v="city"/>
    <tag k="population" v="852395"/>
    <tag k="rank" v="10"/>
    <tag k="ref:INSEE" v="13055"/>
    <tag k="ref:SIREN" v="211300553"/>
    <tag k="source:population" v="INSEE 2007"/>
    <tag k="wikipedia" v="Marseille"/>
  </node>
  <node id="26761400" version="21" timestamp="2012-03-30T22:02:02Z" uid="352971" user="Ecologeek" changeset="11160639" lat="43.2961743" lon="5.3699525">
    <tag k="addr:postcode" v="13000"/>
    <tag k="alt_name:vi" v="Mác-xây"/>
    <tag k="code_departement" v="13"/>
    <tag k="is_in" v="Europe, France, Provence-Alpes-Côte-d&apos;Azur, Bouche-du-Rhône"/>
    <tag k="is_in:continent" v="Europe"/>
    <tag k="is_in:country" v="France"/>
    <tag k="name" v="Marseille"/>
    <tag k="name:ast" v="Marsella"/>
    <tag k="name:ca" v="Marsella"/>
    <tag k="name:es" v="Marsella"/>
    <tag k="name:eu" v="Marseilla"/>
    <tag k="name:it" v="Marsiglia"/>
    <tag k="name:ja" v="マルセイユ"/>
    <tag k="name:oc" v="Marselha"/>
    <tag k="name:pl" v="Marsylia"/>
    <tag k="name:pt" v="Marselha"/>
    <tag k="name:ru" v="Марсель"/>
    <tag k="name:sr" v="Марсеј"/>
    <tag k="name:tr" v="Marsilya"/>
    <tag k="name:uk" v="Марсель"/>
    <tag k="name:vi" v="Mạc Xây"/>
    <tag k="place" v="city"/>
    <tag k="population" v="852395"/>
    <tag k="rank" v="10"/>
    <tag k="ref:INSEE" v="13055"/>
    <tag k="ref:SIREN" v="211300553"/>
    <tag k="source:population" v="INSEE 2007"/>
    <tag k="wikipedia" v="Marseille"/>
  </node>
  <node id="26761926" version="2" timestamp="2010-03-28T11:28:16Z" uid="137033" user="lubomir" changeset="4255394" lat="48.2062336" lon="17.8529834"/>
  <node id="26761927" version="2" timestamp="2010-03-28T11:28:16Z" uid="137033" user="lubomir" changeset="4255394" lat="48.205362" lon="17.8483846"/>
  <node id="26761928" version="2" timestamp="2010-03-28T11:28:16Z" uid="137033" user="lubomir" changeset="4255394" lat="48.2068097" lon="17.8439829"/>
  <node id="26761928" version="3" timestamp="2011-02-07T13:11:56Z" uid="137033" user="lubomir" changeset="7215784" lat="48.2068396" lon="17.8435871"/>
  <node id="26761928" version="4" timestamp="2011-11-15T00:46:46Z" uid="96027" user="kroupa" changeset="9830712" lat="48.2067722" lon="17.8434175"/>
  <node id="26761929" version="2" timestamp="2010-03-28T11:28:16Z" uid="137033" user="lubomir" changeset="4255394" lat="48.2056708" lon="17.8421117"/>
  <node id="26761929" version="3" timestamp="2011-02-07T13:11:55Z" uid="137033" user="lubomir" changeset="7215784" lat="48.2059315" lon="17.8421409"/>
  <node id="26761929" version="4" timestamp="2011-11-15T00:46:46Z" uid="96027" user="kroupa" changeset="9830712" lat="48.2058772" lon="17.8420529"/>
  <node id="26761931" version="2" timestamp="2010-04-19T01:04:41Z" uid="137033" user="lubomir" changeset="4464281" lat="48.2090232" lon="17.8331049"/>
  <node id="26761931" version="3" timestamp="2011-02-07T13:11:55Z" uid="137033" user="lubomir" changeset="7215784" lat="48.208892" lon="17.8335278"/>
  <node id="26761931" version="4" timestamp="2011-11-15T00:46:46Z" uid="96027" user="kroupa" changeset="9830712" lat="48.2087464" lon="17.8338017"/>
  <node id="26761950" version="2" timestamp="2011-05-12T23:52:24Z" uid="137033" user="lubomir" changeset="8127453" lat="48.2451688" lon="17.7759592"/>
  <node id="26761951" version="2" timestamp="2011-05-12T23:52:24Z" uid="137033" user="lubomir" changeset="8127453" lat="48.2433737" lon="17.7750607"/>
  <node id="26761952" version="2" timestamp="2011-05-12T23:52:24Z" uid="137033" user="lubomir" changeset="8127453" lat="48.2409802" lon="17.777307"/>
  <node id="26762956" version="1" timestamp="2007-04-01T18:41:51Z" uid="6454" user="B10xxx" changeset="4574" lat="52.503941" lon="13.3314845">
    <tag k="created_by" v="JOSM"/>
  </node>
  <node id="26762956" version="2" timestamp="2007-11-15T18:54:04Z" uid="12983" user="jorilla" changeset="522678" lat="52.5039043" lon="13.3314795">
    <tag k="created_by" v="JOSM"/>
  </node>
  <node id="26762956" version="3" timestamp="2008-03-19T11:44:47Z" uid="6669" user="Elwood" changeset="349831" lat="52.5039043" lon="13.3314795">
    <tag k="created_by" v="JOSM"/>
    <tag k="highway" v="traffic_signals"/>
  </node>
  <node id="26762956" version="4" timestamp="2008-05-22T16:52:31Z" uid="6669" user="Elwood" changeset="499642" lat="52.5038615" lon="13.3314678">
    <tag k="created_by" v="JOSM"/>
    <tag k="highway" v="traffic_signals"/>
  </node>
  <node id="26762956" version="5" timestamp="2009-07-19T21:50:23Z" uid="34417" user="TobHaeg" changeset="1879258" lat="52.5038615" lon="13.3314678">
    <tag k="highway" v="traffic_signals"/>
  </node>
  <node id="26762956" version="6" timestamp="2010-02-03T19:01:35Z" uid="6669" user="Elwood" changeset="3785190" lat="52.503909" lon="13.331446">
    <tag k="highway" v="traffic_signals"/>
  </node>
  <node id="26762956" version="7" timestamp="2010-05-02T08:19:15Z" uid="6669" user="Elwood" changeset="4582050" lat="52.503909" lon="13.331446">
    <tag k="TMC:cid_58:tabcd_1:Direction" v="negative"/>
    <tag k="TMC:cid_58:tabcd_1:LocationCode" v="27141"/>
    <tag k="highway" v="traffic_signals"/>
  </node>
  <node id="26762956" version="8" timestamp="2010-05-02T18:15:55Z" uid="218283" user="TMCbot" changeset="4588243" lat="52.503909" lon="13.331446">
    <tag k="TMC:cid_58:tabcd_1:Class" v="Point"/>
    <tag k="TMC:cid_58:tabcd_1:Direction" v="negative"/>
    <tag k="TMC:cid_58:tabcd_1:LCLversion" v="9.00"/>
    <tag k="TMC:cid_58:tabcd_1:LocationCode" v="27141"/>
    <tag k="TMC:cid_58:tabcd_1:NextLocationCode" v="27142"/>
    <tag k="TMC:cid_58:tabcd_1:PrevLocationCode" v="32881"/>
    <tag k="highway" v="traffic_signals"/>
  </node>
  <node id="26762967" version="1" timestamp="2007-04-01T18:43:44Z" uid="6454" user="B10xxx" changeset="4574" lat="52.505235" lon="13.3317585">
    <tag k="created_by" v="JOSM"/>
  </node>
  <node id="26762967" version="2" timestamp="2008-05-22T16:23:46Z" uid="6669" user="Elwood" changeset="499642" lat="52.505235" lon="13.3317585">
    <tag k="created_by" v="JOSM"/>
    <tag k="highway" v="traffic_signals"/>
  </node>
  <node id="26762967" version="3" timestamp="2009-03-25T11:53:34Z" uid="88961" user="Shmias" changeset="856472" lat="52.505235" lon="13.3317625">
    <tag k="created_by" v="Merkaartor 0.13"/>
    <tag k="highway" v="traffic_signals"/>
  </node>
  <node id="26762967" version="4" timestamp="2009-07-19T21:50:28Z" uid="34417" user="TobHaeg" changeset="1879258" lat="52.505235" lon="13.3317625">
    <tag k="highway" v="traffic_signals"/>
  </node>
  <node id="26762967" version="5" timestamp="2010-06-14T17:18:52Z" uid="6669" user="Elwood" changeset="4989758" lat="52.505235" lon="13.3317625">
    <tag k="TMC:cid_58:tabcd_1:Direction" v="positive"/>
    <tag k="TMC:cid_58:tabcd_1:LocationCode" v="26692"/>
    <tag k="highway" v="traffic_signals"/>
  </node>
  <node id="26762967" version="6" timestamp="2010-06-14T18:15:58Z" uid="218283" user="TMCbot" changeset="4990186" lat="52.505235" lon="13.3317625">
    <tag k="TMC:cid_58:tabcd_1:Class" v="Point"/>
    <tag k="TMC:cid_58:tabcd_1:Direction" v="positive"/>
    <tag k="TMC:cid_58:tabcd_1:LCLversion" v="9.00"/>
    <tag k="TMC:cid_58:tabcd_1:LocationCode" v="26692"/>
    <tag k="TMC:cid_58:tabcd_1:NextLocationCode" v="26693"/>
    <tag k="TMC:cid_58:tabcd_1:PrevLocationCode" v="32882"/>
    <tag k="highway" v="traffic_signals"/>
  </node>
  <node id="26762967" version="7" timestamp="2010-09-07T15:06:15Z" uid="6669" user="Elwood" changeset="5708643" lat="52.5052398" lon="13.3316705">
    <tag k="TMC:cid_58:tabcd_1:Class" v="Point"/>
    <tag k="TMC:cid_58:tabcd_1:Direction" v="positive"/>
    <tag k="TMC:cid_58:tabcd_1:LCLversion" v="9.00"/>
    <tag k="TMC:cid_58:tabcd_1:LocationCode" v="26692"/>
    <tag k="TMC:cid_58:tabcd_1:NextLocationCode" v="26693"/>
    <tag k="TMC:cid_58:tabcd_1:PrevLocationCode" v="32882"/>
    <tag k="highway" v="traffic_signals"/>
  </node>
  <node id="26762983" version="1" timestamp="2007-04-01T18:43:52Z" uid="6454" user="B10xxx" changeset="4574" lat="52.5053692" lon="13.3318301">
    <tag k="created_by" v="JOSM"/>
  </node>
  <node id="26762983" version="2" timestamp="2008-05-22T16:23:46Z" uid="6669" user="Elwood" changeset="499642" lat="52.5053692" lon="13.3318301">
    <tag k="created_by" v="JOSM"/>
    <tag k="highway" v="traffic_signals"/>
  </node>
  <node id="26762983" version="3" timestamp="2010-01-11T11:08:55Z" uid="10549" user="toaster" changeset="3594985" lat="52.5053692" lon="13.3318301">
    <tag k="highway" v="traffic_signals"/>
  </node>
  <node id="26762983" version="4" timestamp="2010-09-07T15:06:12Z" uid="6669" user="Elwood" changeset="5708643" lat="52.5053508" lon="13.3317224">
    <tag k="TMC:cid_58:tabcd_1:Direction" v="positive"/>
    <tag k="TMC:cid_58:tabcd_1:LocationCode" v="27152"/>
    <tag k="highway" v="traffic_signals"/>
  </node>
  <node id="26762983" version="5" timestamp="2010-09-07T18:18:38Z" uid="218283" user="TMCbot" changeset="5710501" lat="52.5053508" lon="13.3317224">
    <tag k="TMC:cid_58:tabcd_1:Class" v="Point"/>
    <tag k="TMC:cid_58:tabcd_1:Direction" v="positive"/>
    <tag k="TMC:cid_58:tabcd_1:LCLversion" v="9.00"/>
    <tag k="TMC:cid_58:tabcd_1:LocationCode" v="27152"/>
    <tag k="TMC:cid_58:tabcd_1:NextLocationCode" v="27153"/>
    <tag k="TMC:cid_58:tabcd_1:PrevLocationCode" v="27151"/>
    <tag k="highway" v="traffic_signals"/>
  </node>
  <node id="26763005" version="1" timestamp="2007-04-01T19:00:07Z" uid="6454" user="B10xxx" changeset="4574" lat="52.5042919" lon="13.3366019">
    <tag k="created_by" v="JOSM"/>
  </node>
  <node id="26763005" version="2" timestamp="2009-07-19T21:50:16Z" uid="34417" user="TobHaeg" changeset="1879258" lat="52.5042919" lon="13.3366019"/>
  <node id="26763005" version="3" timestamp="2012-02-22T19:23:28Z" uid="6669" user="Elwood" changeset="10762155" lat="52.5042919" lon="13.3366019"/>
  <node id="26763021" version="1" timestamp="2007-03-28T19:41:56Z" uid="6454" user="B10xxx" changeset="249226" lat="52.4943759" lon="13.3417706">
    <tag k="created_by" v="JOSM"/>
  </node>
  <node id="26763021" version="2" timestamp="2008-03-26T15:48:12Z" uid="17508" user="robx" changeset="398840" lat="52.4943759" lon="13.3418379">
    <tag k="created_by" v="JOSM"/>
  </node>
  <node id="26763021" version="3" timestamp="2009-08-02T09:25:48Z" uid="6669" user="Elwood" changeset="2011683" lat="52.4943678" lon="13.3418048"/>
  <node id="26763038" version="1" timestamp="2007-03-28T19:42:00Z" uid="6454" user="B10xxx" changeset="249226" lat="52.4942042" lon="13.341776">
    <tag k="created_by" v="JOSM"/>
  </node>
  <node id="26763038" version="2" timestamp="2008-03-26T15:48:12Z" uid="17508" user="robx" changeset="398840" lat="52.494231" lon="13.3418024">
    <tag k="created_by" v="JOSM"/>
  </node>
  <node id="26763038" version="3" timestamp="2009-08-02T09:25:48Z" uid="6669" user="Elwood" changeset="2011683" lat="52.4942781" lon="13.341809"/>
  <node id="26763038" version="4" timestamp="2010-01-31T09:34:00Z" uid="6669" user="Elwood" changeset="3757080" lat="52.4942781" lon="13.341799"/>
  <node id="26763038" version="5" timestamp="2010-06-07T20:29:37Z" uid="214267" user="Ilian" changeset="4932198" lat="52.4942815" lon="13.3418428"/>
  <node id="26763044" version="1" timestamp="2007-04-01T18:48:38Z" uid="6454" user="B10xxx" changeset="4574" lat="52.5005375" lon="13.3307332">
    <tag k="created_by" v="JOSM"/>
  </node>
  <node id="26763044" version="2" timestamp="2008-03-19T11:44:46Z" uid="6669" user="Elwood" changeset="349831" lat="52.5005375" lon="13.3307332">
    <tag k="created_by" v="JOSM"/>
    <tag k="highway" v="traffic_signals"/>
  </node>
  <node id="26763044" version="3" timestamp="2008-05-22T16:52:28Z" uid="6669" user="Elwood" changeset="499642" lat="52.5004988" lon="13.3307968">
    <tag k="created_by" v="JOSM"/>
    <tag k="highway" v="traffic_signals"/>
  </node>
  <node id="26763044" version="4" timestamp="2009-07-09T22:59:07Z" uid="6669" user="Elwood" changeset="1785070" lat="52.5005433" lon="13.3307943">
    <tag k="highway" v="traffic_signals"/>
  </node>
  <node id="26763044" version="5" timestamp="2010-05-02T07:22:44Z" uid="6669" user="Elwood" changeset="4581519" lat="52.5005433" lon="13.3307943">
    <tag k="TMC:cid_58:tabcd_1:Direction" v="negative"/>
    <tag k="TMC:cid_58:tabcd_1:LocationCode" v="27150"/>
    <tag k="highway" v="traffic_signals"/>
  </node>
  <node id="26763044" version="6" timestamp="2010-05-02T18:14:24Z" uid="218283" user="TMCbot" changeset="4588243" lat="52.5005433" lon="13.3307943">
    <tag k="TMC:cid_58:tabcd_1:Class" v="Point"/>
    <tag k="TMC:cid_58:tabcd_1:Direction" v="negative"/>
    <tag k="TMC:cid_58:tabcd_1:LCLversion" v="9.00"/>
    <tag k="TMC:cid_58:tabcd_1:LocationCode" v="27150"/>
    <tag k="TMC:cid_58:tabcd_1:NextLocationCode" v="27151"/>
    <tag k="TMC:cid_58:tabcd_1:PrevLocationCode" v="31245"/>
    <tag k="highway" v="traffic_signals"/>
  </node>
  <node id="26763044" version="7" timestamp="2010-09-19T14:43:24Z" uid="39457" user="Markus59" changeset="5820468" lat="52.5005433" lon="13.3307943">
    <tag k="TMC:cid_58:tabcd_1:Class" v="Point"/>
    <tag k="TMC:cid_58:tabcd_1:Direction" v="negative"/>
    <tag k="TMC:cid_58:tabcd_1:LCLversion" v="9.00"/>
    <tag k="TMC:cid_58:tabcd_1:LocationCode" v="27150"/>
    <tag k="TMC:cid_58:tabcd_1:NextLocationCode" v="27151"/>
    <tag k="TMC:cid_58:tabcd_1:PrevLocationCode" v="31245"/>
    <tag k="addr:city" v="Berlin"/>
    <tag k="highway" v="traffic_signals"/>
  </node>
  <node id="26763044" version="8" timestamp="2010-10-04T16:40:19Z" uid="43566" user="anbr" changeset="5955164" lat="52.5005433" lon="13.3307943">
    <tag k="TMC:cid_58:tabcd_1:Class" v="Point"/>
    <tag k="TMC:cid_58:tabcd_1:Direction" v="negative"/>
    <tag k="TMC:cid_58:tabcd_1:LCLversion" v="9.00"/>
    <tag k="TMC:cid_58:tabcd_1:LocationCode" v="27150"/>
    <tag k="TMC:cid_58:tabcd_1:NextLocationCode" v="27151"/>
    <tag k="TMC:cid_58:tabcd_1:PrevLocationCode" v="31245"/>
    <tag k="highway" v="traffic_signals"/>
  </node>
  <node id="26763057" version="1" timestamp="2007-04-01T18:45:24Z" uid="6454" user="B10xxx" changeset="4574" lat="52.5036052" lon="13.3311978">
    <tag k="created_by" v="JOSM"/>
  </node>
  <node id="26763057" version="2" timestamp="2008-03-19T11:44:45Z" uid="6669" user="Elwood" changeset="349831" lat="52.5036052" lon="13.3311978">
    <tag k="created_by" v="JOSM"/>
    <tag k="highway" v="traffic_signals"/>
  </node>
  <node id="26763057" version="3" timestamp="2008-05-22T16:52:27Z" uid="6669" user="Elwood" changeset="499642" lat="52.5036659" lon="13.3311978">
    <tag k="created_by" v="JOSM"/>
    <tag k="highway" v="traffic_signals"/>
  </node>
  <node id="26763057" version="4" timestamp="2009-07-19T21:50:03Z" uid="34417" user="TobHaeg" changeset="1879258" lat="52.5036659" lon="13.3311978">
    <tag k="highway" v="traffic_signals"/>
  </node>
  <node id="26763057" version="5" timestamp="2010-02-03T19:01:35Z" uid="6669" user="Elwood" changeset="3785190" lat="52.5036902" lon="13.3312051">
    <tag k="highway" v="traffic_signals"/>
  </node>
  <node id="26763057" version="6" timestamp="2010-05-02T08:19:15Z" uid="6669" user="Elwood" changeset="4582050" lat="52.5036902" lon="13.3312051">
    <tag k="TMC:cid_58:tabcd_1:Direction" v="positive"/>
    <tag k="TMC:cid_58:tabcd_1:LocationCode" v="27141"/>
    <tag k="highway" v="traffic_signals"/>
  </node>
  <node id="26763057" version="7" timestamp="2010-05-02T18:15:59Z" uid="218283" user="TMCbot" changeset="4588243" lat="52.5036902" lon="13.3312051">
    <tag k="TMC:cid_58:tabcd_1:Class" v="Point"/>
    <tag k="TMC:cid_58:tabcd_1:Direction" v="positive"/>
    <tag k="TMC:cid_58:tabcd_1:LCLversion" v="9.00"/>
    <tag k="TMC:cid_58:tabcd_1:LocationCode" v="27141"/>
    <tag k="TMC:cid_58:tabcd_1:NextLocationCode" v="27142"/>
    <tag k="TMC:cid_58:tabcd_1:PrevLocationCode" v="32881"/>
    <tag k="highway" v="traffic_signals"/>
  </node>
  <node id="26763057" version="8" timestamp="2012-02-22T20:07:03Z" uid="6669" user="Elwood" changeset="10762155" lat="52.5036896" lon="13.331203">
    <tag k="TMC:cid_58:tabcd_1:Class" v="Point"/>
    <tag k="TMC:cid_58:tabcd_1:Direction" v="positive"/>
    <tag k="TMC:cid_58:tabcd_1:LCLversion" v="9.00"/>
    <tag k="TMC:cid_58:tabcd_1:LocationCode" v="27141"/>
    <tag k="TMC:cid_58:tabcd_1:NextLocationCode" v="27142"/>
    <tag k="TMC:cid_58:tabcd_1:PrevLocationCode" v="32881"/>
    <tag k="highway" v="traffic_signals"/>
  </node>
  <node id="26763067" version="1" timestamp="2007-04-01T18:42:01Z" uid="6454" user="B10xxx" changeset="4574" lat="52.5053928" lon="13.3315502">
    <tag k="created_by" v="JOSM"/>
  </node>
  <node id="26763067" version="2" timestamp="2008-05-22T16:23:45Z" uid="6669" user="Elwood" changeset="499642" lat="52.5053928" lon="13.3315502">
    <tag k="created_by" v="JOSM"/>
    <tag k="highway" v="traffic_signals"/>
  </node>
  <node id="26763067" version="3" timestamp="2009-07-19T21:50:27Z" uid="34417" user="TobHaeg" changeset="1879258" lat="52.5053928" lon="13.3315502">
    <tag k="highway" v="traffic_signals"/>
  </node>
  <node id="26763067" version="4" timestamp="2010-06-14T17:18:53Z" uid="6669" user="Elwood" changeset="4989758" lat="52.5053928" lon="13.3315502">
    <tag k="TMC:cid_58:tabcd_1:Direction" v="negative"/>
    <tag k="TMC:cid_58:tabcd_1:LocationCode" v="26692"/>
    <tag k="highway" v="traffic_signals"/>
  </node>
  <node id="26763067" version="5" timestamp="2010-06-14T18:16:00Z" uid="218283" user="TMCbot" changeset="4990186" lat="52.5053928" lon="13.3315502">
    <tag k="TMC:cid_58:tabcd_1:Class" v="Point"/>
    <tag k="TMC:cid_58:tabcd_1:Direction" v="negative"/>
    <tag k="TMC:cid_58:tabcd_1:LCLversion" v="9.00"/>
    <tag k="TMC:cid_58:tabcd_1:LocationCode" v="26692"/>
    <tag k="TMC:cid_58:tabcd_1:NextLocationCode" v="26693"/>
    <tag k="TMC:cid_58:tabcd_1:PrevLocationCode" v="32882"/>
    <tag k="highway" v="traffic_signals"/>
  </node>
  <node id="26763067" version="6" timestamp="2010-09-07T15:06:16Z" uid="6669" user="Elwood" changeset="5708643" lat="52.5053592" lon="13.3315449">
    <tag k="TMC:cid_58:tabcd_1:Class" v="Point"/>
    <tag k="TMC:cid_58:tabcd_1:Direction" v="negative"/>
    <tag k="TMC:cid_58:tabcd_1:LCLversion" v="9.00"/>
    <tag k="TMC:cid_58:tabcd_1:LocationCode" v="26692"/>
    <tag k="TMC:cid_58:tabcd_1:NextLocationCode" v="26693"/>
    <tag k="TMC:cid_58:tabcd_1:PrevLocationCode" v="32882"/>
    <tag k="highway" v="traffic_signals"/>
  </node>
  <node id="26763074" version="1" timestamp="2007-04-01T19:00:13Z" uid="6454" user="B10xxx" changeset="4574" lat="52.5051592" lon="13.3368404">
    <tag k="created_by" v="JOSM"/>
  </node>
  <node id="26763074" version="2" timestamp="2008-06-23T14:21:24Z" uid="44786" user="makracht" changeset="269585" lat="52.5051592" lon="13.3368404">
    <tag k="created_by" v="JOSM"/>
    <tag k="highway" v="bus_stop"/>
    <tag k="name" v="Breitscheidplatz"/>
  </node>
  <node id="26763074" version="3" timestamp="2009-04-10T14:02:41Z" uid="6669" user="Elwood" changeset="381170" lat="52.5051513" lon="13.3368469">
    <tag k="created_by" v="JOSM"/>
    <tag k="highway" v="bus_stop"/>
    <tag k="name" v="Breitscheidplatz"/>
  </node>
  <node id="26763074" version="4" timestamp="2009-07-10T17:11:44Z" uid="6669" user="Elwood" changeset="1790899" lat="52.5052043" lon="13.336874">
    <tag k="highway" v="bus_stop"/>
    <tag k="name" v="Breitscheidplatz"/>
  </node>
  <node id="26763074" version="5" timestamp="2010-03-26T15:18:13Z" uid="190074" user="wusi22" changeset="4238614" lat="52.5052043" lon="13.336874">
    <tag k="highway" v="bus_stop"/>
    <tag k="name" v="Breitscheidplatz"/>
    <tag k="network" v="VBB"/>
    <tag k="operator" v="BVG"/>
    <tag k="ref" v="103842"/>
  </node>
  <node id="26763074" version="6" timestamp="2010-11-03T21:27:14Z" uid="290680" user="wheelmap_visitor" changeset="6273485" lat="52.5052043" lon="13.336874">
    <tag k="highway" v="bus_stop"/>
    <tag k="name" v="Breitscheidplatz"/>
    <tag k="network" v="VBB"/>
    <tag k="operator" v="BVG"/>
    <tag k="ref" v="103842"/>
    <tag k="wheelchair" v="yes"/>
  </node>
  <node id="26763074" version="7" timestamp="2011-12-24T17:27:26Z" uid="39457" user="Markus59" changeset="10195441" lat="52.5051981" lon="13.3368535"/>
  <node id="26763850" version="9" timestamp="2008-02-16T19:15:47Z" uid="6975" user="ulfl" changeset="141861" lat="-35.3526873" lon="149.0594056">
    <tag k="name" v="Waramanga Shops"/>
    <tag k="shop" v="supermarket"/>
  </node>
  <node id="26763850" version="10" timestamp="2010-03-15T22:27:02Z" uid="15181" user="mtrax" changeset="4139341" lat="-35.3526825" lon="149.0594712">
    <tag k="name" v="Waramanga Shops"/>
    <tag k="shop" v="supermarket"/>
  </node>
  <node id="26765699" version="1" timestamp="2007-04-02T18:15:24Z" uid="6454" user="B10xxx" changeset="5230" lat="52.5004262" lon="13.3666208">
    <tag k="created_by" v="YahooApplet 1.0"/>
  </node>
  <node id="26765699" version="2" timestamp="2009-07-17T13:14:25Z" uid="34417" user="TobHaeg" changeset="1854318" lat="52.5004262" lon="13.3666208"/>
  <node id="26765699" version="3" timestamp="2009-11-10T14:05:30Z" uid="6669" user="Elwood" changeset="3082262" lat="52.500449" lon="13.3665223"/>
  <node id="26766539" version="1" timestamp="2007-03-25T10:35:59Z" uid="1066" user="pavel" changeset="244721" lat="50.0432987" lon="14.3943572"/>
  <node id="26766539" version="2" timestamp="2010-05-16T19:05:22Z" uid="17615" user="Petr Dlouhý" changeset="4721166" lat="50.043276" lon="14.3943218"/>
  <node id="26766542" version="1" timestamp="2007-03-25T10:36:01Z" uid="1066" user="pavel" changeset="244721" lat="50.04334" lon="14.3947005"/>
  <node id="26766542" version="2" timestamp="2010-05-16T19:05:19Z" uid="17615" user="Petr Dlouhý" changeset="4721166" lat="50.0433171" lon="14.394703"/>
  <node id="26766545" version="1" timestamp="2007-03-25T10:36:04Z" uid="1066" user="pavel" changeset="244721" lat="50.0435192" lon="14.3951941"/>
  <node id="26766545" version="2" timestamp="2010-05-16T19:05:24Z" uid="17615" user="Petr Dlouhý" changeset="4721166" lat="50.0435028" lon="14.3952094"/>
  <node id="26766548" version="1" timestamp="2007-03-25T10:36:07Z" uid="1066" user="pavel" changeset="244721" lat="50.0438361" lon="14.3951726"/>
  <node id="26766592" version="1" timestamp="2007-03-25T10:37:56Z" uid="1066" user="pavel" changeset="244721" lat="50.0424994" lon="14.4047213"/>
  <node id="26766592" version="2" timestamp="2009-02-02T17:13:30Z" uid="8007" user="vrabcak" changeset="61379" lat="50.0424684" lon="14.4047277"/>
  <node id="26766592" version="3" timestamp="2009-02-17T22:05:45Z" uid="8007" user="vrabcak" changeset="536881" lat="50.0423181" lon="14.4046413"/>
  <node id="26766592" version="4" timestamp="2009-03-09T02:08:45Z" uid="3516" user="BiIbo" changeset="766878" lat="50.0423173" lon="14.4046513"/>
  <node id="26766592" version="5" timestamp="2010-12-10T14:30:46Z" uid="17615" user="Petr Dlouhý" changeset="6605788" lat="50.0424245" lon="14.4047266"/>
  <node id="26766593" version="1" timestamp="2007-03-25T10:37:59Z" uid="1066" user="pavel" changeset="244721" lat="50.0424443" lon="14.4043779"/>
  <node id="26766593" version="2" timestamp="2009-02-17T22:05:45Z" uid="8007" user="vrabcak" changeset="536881" lat="50.0423817" lon="14.4043946"/>
  <node id="26766593" version="3" timestamp="2010-12-10T14:30:37Z" uid="17615" user="Petr Dlouhý" changeset="6605788" lat="50.042437" lon="14.4044495"/>
  <node id="26766594" version="1" timestamp="2007-03-25T10:38:02Z" uid="1066" user="pavel" changeset="244721" lat="50.0423065" lon="14.4041634"/>
  <node id="26766595" version="1" timestamp="2007-03-25T10:38:05Z" uid="1066" user="pavel" changeset="244721" lat="50.0421549" lon="14.4037771"/>
  <node id="26766595" version="2" timestamp="2009-03-09T02:08:45Z" uid="3516" user="BiIbo" changeset="766878" lat="50.0421225" lon="14.4037588"/>
  <node id="26766595" version="3" timestamp="2010-12-10T14:31:16Z" uid="17615" user="Petr Dlouhý" changeset="6605788" lat="50.0421083" lon="14.4037637"/>
  <node id="26766596" version="1" timestamp="2007-03-25T10:38:07Z" uid="1066" user="pavel" changeset="244721" lat="50.0419069" lon="14.4030476"/>
  <node id="26766596" version="2" timestamp="2009-03-09T02:08:44Z" uid="3516" user="BiIbo" changeset="766878" lat="50.0415171" lon="14.4029056"/>
  <node id="26766597" version="1" timestamp="2007-03-25T10:38:11Z" uid="1066" user="pavel" changeset="244721" lat="50.042651" lon="14.4041419"/>
  <node id="26766597" version="2" timestamp="2009-02-17T22:05:51Z" uid="8007" user="vrabcak" changeset="536881" lat="50.042651" lon="14.4041419"/>
  <node id="26766598" version="1" timestamp="2007-03-25T10:38:15Z" uid="1066" user="pavel" changeset="244721" lat="50.0374555" lon="14.3993139"/>
  <node id="26766598" version="2" timestamp="2008-02-08T23:49:21Z" uid="3516" user="BiIbo" changeset="77731" lat="50.0374555" lon="14.3993697"/>
  <node id="26766599" version="1" timestamp="2007-03-25T10:38:18Z" uid="1066" user="pavel" changeset="244721" lat="50.0371247" lon="14.3987989"/>
  <node id="26766599" version="2" timestamp="2008-02-08T23:51:43Z" uid="3516" user="BiIbo" changeset="77731" lat="50.0370851" lon="14.3988174"/>
  <node id="26766599" version="3" timestamp="2010-05-17T07:29:02Z" uid="3516" user="BiIbo" changeset="4726255" lat="50.0369712" lon="14.3985925"/>
  <node id="26766600" version="1" timestamp="2007-03-25T10:38:21Z" uid="1066" user="pavel" changeset="244721" lat="50.0369455" lon="14.398241"/>
  <node id="26766601" version="1" timestamp="2007-03-25T10:38:24Z" uid="1066" user="pavel" changeset="244721" lat="50.0369593" lon="14.3977904"/>
  <node id="26766601" version="2" timestamp="2010-05-17T07:29:49Z" uid="3516" user="BiIbo" changeset="4726255" lat="50.0370065" lon="14.3977947"/>
  <node id="26766602" version="1" timestamp="2007-03-25T10:38:27Z" uid="1066" user="pavel" changeset="244721" lat="50.0371247" lon="14.3972969"/>
  <node id="26766603" version="1" timestamp="2007-03-25T10:38:30Z" uid="1066" user="pavel" changeset="244721" lat="50.0373728" lon="14.3966746"/>
  <node id="26766603" version="2" timestamp="2010-05-17T07:29:03Z" uid="3516" user="BiIbo" changeset="4726255" lat="50.0374367" lon="14.3966184"/>
  <node id="26766604" version="1" timestamp="2007-03-25T10:38:33Z" uid="1066" user="pavel" changeset="244721" lat="50.0376484" lon="14.3962669"/>
  <node id="26766604" version="2" timestamp="2010-05-17T07:29:03Z" uid="3516" user="BiIbo" changeset="4726255" lat="50.0377095" lon="14.3962842"/>
  <node id="26766605" version="1" timestamp="2007-03-25T10:38:38Z" uid="1066" user="pavel" changeset="244721" lat="50.0381446" lon="14.3959451"/>
  <node id="26766605" version="2" timestamp="2010-05-17T07:29:03Z" uid="3516" user="BiIbo" changeset="4726255" lat="50.0381437" lon="14.3959522"/>
  <node id="26766606" version="1" timestamp="2007-03-25T10:38:41Z" uid="1066" user="pavel" changeset="244721" lat="50.0380205" lon="14.3930054"/>
  <node id="26766606" version="2" timestamp="2008-02-08T23:45:26Z" uid="3516" user="BiIbo" changeset="77731" lat="50.0379728" lon="14.3930054"/>
  <node id="26766607" version="1" timestamp="2007-03-25T10:38:57Z" uid="1066" user="pavel" changeset="244721" lat="50.0381997" lon="14.3930483"/>
  <node id="26766608" version="1" timestamp="2007-03-25T10:39:03Z" uid="1066" user="pavel" changeset="244721" lat="50.0383237" lon="14.3927693"/>
  <node id="26766608" version="2" timestamp="2010-05-24T22:26:40Z" uid="3516" user="BiIbo" changeset="4798893" lat="50.038274" lon="14.3929596"/>
  <node id="26766609" version="1" timestamp="2007-03-25T10:39:08Z" uid="1066" user="pavel" changeset="244721" lat="50.0386269" lon="14.3916106"/>
  <node id="26766609" version="2" timestamp="2008-02-08T23:45:26Z" uid="3516" user="BiIbo" changeset="77731" lat="50.0386298" lon="14.3916335"/>
  <node id="26766610" version="1" timestamp="2007-03-25T10:39:13Z" uid="1066" user="pavel" changeset="244721" lat="50.0377725" lon="14.3926406"/>
  <node id="26766610" version="2" timestamp="2008-02-08T23:45:26Z" uid="3516" user="BiIbo" changeset="77731" lat="50.0377725" lon="14.3926153"/>
  <node id="26766610" version="3" timestamp="2008-02-08T23:51:43Z" uid="3516" user="BiIbo" changeset="77731" lat="50.037821" lon="14.3925482"/>
  <node id="26766611" version="1" timestamp="2007-03-25T10:39:17Z" uid="1066" user="pavel" changeset="244721" lat="50.037483" lon="14.3929195"/>
  <node id="26766611" version="2" timestamp="2010-05-24T22:26:40Z" uid="3516" user="BiIbo" changeset="4798893" lat="50.0375992" lon="14.3928402"/>
  <node id="26766612" version="1" timestamp="2007-03-25T10:39:20Z" uid="1066" user="pavel" changeset="244721" lat="50.0372074" lon="14.3931985"/>
  <node id="26766613" version="1" timestamp="2007-03-25T10:39:23Z" uid="1066" user="pavel" changeset="244721" lat="50.0370145" lon="14.3935847"/>
  <node id="26766613" version="2" timestamp="2010-05-24T22:26:41Z" uid="3516" user="BiIbo" changeset="4798893" lat="50.0370176" lon="14.3936339"/>
  <node id="26766613" version="3" timestamp="2012-03-29T19:18:21Z" uid="488732" user="montardo" changeset="11142511" lat="50.0370281" lon="14.3935987"/>
  <node id="26766614" version="1" timestamp="2007-03-25T10:39:27Z" uid="1066" user="pavel" changeset="244721" lat="50.0369869" lon="14.3921041"/>
  <node id="26766615" version="1" timestamp="2007-03-25T10:39:30Z" uid="1066" user="pavel" changeset="244721" lat="50.0368491" lon="14.3923187"/>
  <node id="26766615" version="2" timestamp="2008-02-08T23:51:43Z" uid="3516" user="BiIbo" changeset="77731" lat="50.036867" lon="14.3923101"/>
  <node id="26766616" version="1" timestamp="2007-03-25T10:39:34Z" uid="1066" user="pavel" changeset="244721" lat="50.0366699" lon="14.3923402"/>
  <node id="26766616" version="2" timestamp="2008-02-08T23:51:43Z" uid="3516" user="BiIbo" changeset="77731" lat="50.0367347" lon="14.3923273"/>
  <node id="26766617" version="1" timestamp="2007-03-25T10:39:38Z" uid="1066" user="pavel" changeset="244721" lat="50.0366423" lon="14.3920612"/>
  <node id="26766617" version="2" timestamp="2008-02-08T23:51:43Z" uid="3516" user="BiIbo" changeset="77731" lat="50.0366258" lon="14.3920633"/>
  <node id="26766618" version="1" timestamp="2007-03-25T10:39:44Z" uid="1066" user="pavel" changeset="244721" lat="50.0366561" lon="14.3914819"/>
  <node id="26766618" version="2" timestamp="2008-02-08T23:45:26Z" uid="3516" user="BiIbo" changeset="77731" lat="50.0367119" lon="14.390233"/>
  <node id="26768015" version="2" timestamp="2011-03-27T16:47:47Z" uid="9581" user="Lobelt" changeset="7688201" lat="49.6405611" lon="8.4713947"/>
  <node id="26768015" version="3" timestamp="2012-02-28T05:53:55Z" uid="55687" user="dschuwa" changeset="10815879" lat="49.6405611" lon="8.4713947"/>
  <node id="26768017" version="2" timestamp="2011-03-27T16:48:03Z" uid="9581" user="Lobelt" changeset="7688201" lat="49.6399215" lon="8.4716551"/>
  <node id="26768017" version="3" timestamp="2012-02-28T05:53:55Z" uid="55687" user="dschuwa" changeset="10815879" lat="49.6399215" lon="8.4716551"/>
  <node id="26768023" version="2" timestamp="2011-03-27T16:47:54Z" uid="9581" user="Lobelt" changeset="7688201" lat="49.6402058" lon="8.4730232"/>
  <node id="26768023" version="3" timestamp="2012-02-28T05:53:56Z" uid="55687" user="dschuwa" changeset="10815879" lat="49.6402058" lon="8.4730232"/>
  <node id="26768310" version="5" timestamp="2008-06-16T11:14:07Z" uid="30201" user="rrankin" changeset="183883" lat="-33.8498177" lon="151.0803224">
    <tag k="created_by" v="YahooApplet 1.0"/>
  </node>
  <node id="26768310" version="6" timestamp="2009-02-20T09:52:10Z" uid="94048" user="Brad777" changeset="570158" lat="-33.8498177" lon="151.0803224"/>
  <node id="26768310" version="7" timestamp="2009-02-20T09:53:01Z" uid="94048" user="Brad777" changeset="570158" lat="-33.8498177" lon="151.0803224"/>
  <node id="26768310" version="8" timestamp="2009-07-23T02:48:10Z" uid="1679" user="andrewpmk" changeset="1910799" lat="-33.8499539" lon="151.0804597"/>
  <node id="26768312" version="5" timestamp="2008-06-16T11:14:05Z" uid="30201" user="rrankin" changeset="183883" lat="-33.8502489" lon="151.0804243">
    <tag k="created_by" v="YahooApplet 1.0"/>
  </node>
  <node id="26768312" version="6" timestamp="2009-02-20T09:52:10Z" uid="94048" user="Brad777" changeset="570158" lat="-33.8502512" lon="151.0804708"/>
  <node id="26768312" version="7" timestamp="2009-02-20T09:53:01Z" uid="94048" user="Brad777" changeset="570158" lat="-33.8502512" lon="151.0804708"/>
  <node id="26768312" version="8" timestamp="2009-07-23T02:48:10Z" uid="1679" user="andrewpmk" changeset="1910799" lat="-33.850153" lon="151.0805128"/>
  <node id="26768313" version="2" timestamp="2008-06-16T11:14:06Z" uid="30201" user="rrankin" changeset="183883" lat="-33.8506311" lon="151.0804004">
    <tag k="created_by" v="YahooApplet 1.0"/>
  </node>
  <node id="26768313" version="3" timestamp="2009-02-20T09:52:10Z" uid="94048" user="Brad777" changeset="570158" lat="-33.8506575" lon="151.0804537"/>
  <node id="26768313" version="4" timestamp="2009-02-20T09:53:01Z" uid="94048" user="Brad777" changeset="570158" lat="-33.8506575" lon="151.0804537"/>
  <node id="26768313" version="5" timestamp="2009-07-23T02:48:10Z" uid="1679" user="andrewpmk" changeset="1910799" lat="-33.8505973" lon="151.0804995"/>
  <node id="26768322" version="1" timestamp="2007-03-25T11:07:08Z" uid="4667" user="MapZ" changeset="245194" lat="49.4810048" lon="8.4841156">
    <tag k="created_by" v="JOSM"/>
  </node>
  <node id="26768322" version="2" timestamp="2008-05-02T14:03:19Z" uid="13035" user="eddivonderalm" changeset="312671" lat="49.4809172" lon="8.4843042">
    <tag k="created_by" v="JOSM"/>
  </node>
  <node id="26768322" version="3" timestamp="2010-09-26T16:37:40Z" uid="24920" user="Schusch" changeset="5882955" lat="49.4809172" lon="8.4843042"/>
  <node id="26768322" version="4" timestamp="2011-03-13T07:08:03Z" uid="410505" user="Udini" changeset="7541294" lat="49.480852" lon="8.4842416"/>
  <node id="26768322" version="5" timestamp="2012-02-08T18:20:06Z" uid="564585" user="wegavision" changeset="10627062" lat="49.4808752" lon="8.4842089"/>
  <node id="26768322" version="6" timestamp="2012-02-09T22:13:16Z" uid="564585" user="wegavision" changeset="10638875" lat="49.4808867" lon="8.4841706"/>
  <node id="26768323" version="1" timestamp="2007-03-25T11:07:08Z" uid="4667" user="MapZ" changeset="245194" lat="49.4847092" lon="8.4875194">
    <tag k="created_by" v="JOSM"/>
  </node>
  <node id="26768323" version="2" timestamp="2008-05-02T14:03:19Z" uid="13035" user="eddivonderalm" changeset="312671" lat="49.4845745" lon="8.4876541">
    <tag k="created_by" v="JOSM"/>
  </node>
  <node id="26768323" version="3" timestamp="2009-03-26T15:34:32Z" uid="85078" user="querkalender" changeset="861977" lat="49.4845745" lon="8.4876541"/>
  <node id="26768323" version="4" timestamp="2012-02-09T22:13:16Z" uid="564585" user="wegavision" changeset="10638875" lat="49.484651" lon="8.4876305"/>
  <node id="26768324" version="1" timestamp="2007-03-25T11:07:09Z" uid="4667" user="MapZ" changeset="245194" lat="49.4810581" lon="8.4839834">
    <tag k="created_by" v="JOSM"/>
  </node>
  <node id="26768324" version="2" timestamp="2010-09-26T16:37:21Z" uid="24920" user="Schusch" changeset="5882955" lat="49.4810581" lon="8.4839834"/>
  <node id="26768324" version="3" timestamp="2011-03-13T07:08:04Z" uid="410505" user="Udini" changeset="7541294" lat="49.4809819" lon="8.4839103"/>
  <node id="26768324" version="4" timestamp="2012-02-08T18:43:24Z" uid="564585" user="wegavision" changeset="10627294" lat="49.480986" lon="8.4839187"/>
  <node id="26768326" version="1" timestamp="2007-03-26T22:32:42Z" uid="4667" user="MapZ" changeset="246803" lat="49.4878628" lon="8.4898157">
    <tag k="created_by" v="JOSM"/>
  </node>
  <node id="26768326" version="2" timestamp="2008-05-02T14:03:19Z" uid="13035" user="eddivonderalm" changeset="312671" lat="49.4878291" lon="8.4899504">
    <tag k="created_by" v="JOSM"/>
  </node>
  <node id="26768326" version="3" timestamp="2010-06-30T16:43:36Z" uid="192174" user="nichtsnutz" changeset="5114778" lat="49.4878267" lon="8.4899553"/>
  <node id="26768326" version="4" timestamp="2010-07-01T18:55:58Z" uid="192174" user="nichtsnutz" changeset="5122817" lat="49.4878251" lon="8.48996"/>
  <node id="26768326" version="5" timestamp="2011-10-23T12:59:13Z" uid="110838" user="Bernhard W" changeset="9632571" lat="49.4878098" lon="8.4899481"/>
  <node id="26768326" version="6" timestamp="2011-10-23T13:09:36Z" uid="110838" user="Bernhard W" changeset="9632709" lat="49.4877302" lon="8.4898889"/>
  <node id="26768326" version="7" timestamp="2011-10-23T13:10:26Z" uid="110838" user="Bernhard W" changeset="9632709" lat="49.4876894" lon="8.4898562"/>
  <node id="26768331" version="3" timestamp="2010-03-31T10:13:07Z" uid="74617" user="JohnSmith" changeset="4283972" lat="-33.8537638" lon="151.077575"/>
  <node id="26768332" version="3" timestamp="2010-03-31T10:13:07Z" uid="74617" user="JohnSmith" changeset="4283972" lat="-33.8535196" lon="151.077955"/>
  <node id="26768333" version="3" timestamp="2010-03-31T10:13:07Z" uid="74617" user="JohnSmith" changeset="4283972" lat="-33.8532113" lon="151.078388"/>
  <node id="26768334" version="3" timestamp="2010-03-31T10:13:07Z" uid="74617" user="JohnSmith" changeset="4283972" lat="-33.8527642" lon="151.078987"/>
  <node id="26768336" version="3" timestamp="2010-03-31T10:13:08Z" uid="74617" user="JohnSmith" changeset="4283972" lat="-33.8514276" lon="151.080353"/>
  <node id="26768336" version="4" timestamp="2011-02-04T13:36:53Z" uid="4467" user="Rosscoe" changeset="7183265" lat="-33.8512606" lon="151.0804759"/>
  <node id="26768337" version="3" timestamp="2010-03-31T10:13:08Z" uid="74617" user="JohnSmith" changeset="4283972" lat="-33.8508876" lon="151.080785"/>
  <node id="26768337" version="4" timestamp="2011-02-04T13:36:50Z" uid="4467" user="Rosscoe" changeset="7183265" lat="-33.8508474" lon="151.0807813"/>
  <node id="26768338" version="2" timestamp="2008-05-25T06:38:48Z" uid="30201" user="rrankin" changeset="514784" lat="-33.8504256" lon="151.0811496">
    <tag k="created_by" v="YahooApplet 1.0"/>
  </node>
  <node id="26768338" version="3" timestamp="2009-01-14T01:04:29Z" uid="17425" user="jackb" changeset="785729" lat="-33.8504149" lon="151.0811069">
    <tag k="created_by" v="YahooApplet 1.0"/>
  </node>
  <node id="26768338" version="4" timestamp="2010-03-31T10:09:35Z" uid="74617" user="JohnSmith" changeset="4283951" lat="-33.8504001" lon="151.0810972"/>
  <node id="26768338" version="5" timestamp="2010-03-31T10:13:07Z" uid="74617" user="JohnSmith" changeset="4283972" lat="-33.8504001" lon="151.0810972"/>
  <node id="26768338" version="6" timestamp="2011-02-04T13:36:44Z" uid="4467" user="Rosscoe" changeset="7183265" lat="-33.8504063" lon="151.0811084"/>
  <node id="26768365" version="3" timestamp="2010-11-13T09:41:46Z" uid="7617" user="Franc" changeset="6356736" lat="-33.858427" lon="151.0842034"/>
  <node id="26768372" version="1" timestamp="2007-09-30T05:39:14Z" uid="7617" user="Franc" changeset="537600" lat="-33.8529152" lon="151.0824533">
    <tag k="created_by" v="YahooApplet 1.0"/>
  </node>
  <node id="26768379" version="2" timestamp="2008-06-16T11:14:05Z" uid="30201" user="rrankin" changeset="183883" lat="-33.8519878" lon="151.0819109">
    <tag k="created_by" v="YahooApplet 1.0"/>
  </node>
  <node id="26768379" version="3" timestamp="2009-05-31T13:06:24Z" uid="7617" user="Franc" changeset="1368823" lat="-33.8519598" lon="151.0818484">
    <tag k="created_by" v="YahooApplet 1.0"/>
  </node>
  <node id="26768379" version="4" timestamp="2009-07-23T02:48:10Z" uid="1679" user="andrewpmk" changeset="1910799" lat="-33.8521578" lon="151.0819795"/>
  <node id="26768379" version="5" timestamp="2009-12-17T00:20:05Z" uid="30201" user="rrankin" changeset="3390791" lat="-33.8521389" lon="151.0819396"/>
  <node id="26768386" version="2" timestamp="2008-06-16T11:13:42Z" uid="30201" user="rrankin" changeset="183883" lat="-33.8523798" lon="151.0817607">
    <tag k="created_by" v="YahooApplet 1.0"/>
  </node>
  <node id="26768386" version="3" timestamp="2009-05-31T13:06:24Z" uid="7617" user="Franc" changeset="1368823" lat="-33.8523518" lon="151.0816982">
    <tag k="created_by" v="YahooApplet 1.0"/>
  </node>
  <node id="26768386" version="4" timestamp="2009-07-23T02:48:10Z" uid="1679" user="andrewpmk" changeset="1910799" lat="-33.8524062" lon="151.0818353"/>
  <node id="26768386" version="5" timestamp="2009-12-17T00:19:58Z" uid="30201" user="rrankin" changeset="3390791" lat="-33.8523952" lon="151.0817821"/>
  <node id="26768392" version="2" timestamp="2008-06-16T11:13:35Z" uid="30201" user="rrankin" changeset="183883" lat="-33.8527719" lon="151.0813959">
    <tag k="created_by" v="YahooApplet 1.0"/>
  </node>
  <node id="26768392" version="3" timestamp="2009-05-31T13:06:24Z" uid="7617" user="Franc" changeset="1368823" lat="-33.8527439" lon="151.0813334">
    <tag k="created_by" v="YahooApplet 1.0"/>
  </node>
  <node id="26768392" version="4" timestamp="2009-07-23T02:48:09Z" uid="1679" user="andrewpmk" changeset="1910799" lat="-33.8528379" lon="151.0814407"/>
  <node id="26768392" version="5" timestamp="2009-12-17T00:19:57Z" uid="30201" user="rrankin" changeset="3390791" lat="-33.8528142" lon="151.0813932"/>
  <node id="26768399" version="2" timestamp="2008-06-16T11:13:34Z" uid="30201" user="rrankin" changeset="183883" lat="-33.8549993" lon="151.0791858">
    <tag k="created_by" v="YahooApplet 1.0"/>
  </node>
  <node id="26768399" version="3" timestamp="2009-05-31T13:06:24Z" uid="7617" user="Franc" changeset="1368823" lat="-33.8549713" lon="151.0791233">
    <tag k="created_by" v="YahooApplet 1.0"/>
  </node>
  <node id="26768399" version="4" timestamp="2009-07-23T02:48:09Z" uid="1679" user="andrewpmk" changeset="1910799" lat="-33.8550158" lon="151.0791591"/>
  <node id="26768493" version="2" timestamp="2010-01-23T13:23:18Z" uid="74617" user="JohnSmith" changeset="3691555" lat="-33.8517404" lon="151.0861536"/>
  <node id="26768493" version="3" timestamp="2012-01-20T22:35:05Z" uid="77586" user="Map Star" changeset="10451409" lat="-33.8517404" lon="151.0861536"/>
  <node id="26768494" version="2" timestamp="2010-01-23T13:07:02Z" uid="74617" user="JohnSmith" changeset="3691394" lat="-33.8529292" lon="151.0864031"/>
  <node id="26768494" version="3" timestamp="2012-01-20T22:35:06Z" uid="77586" user="Map Star" changeset="10451409" lat="-33.8529292" lon="151.0864031"/>
  <node id="26768495" version="1" timestamp="2007-09-30T05:59:48Z" uid="7617" user="Franc" changeset="537600" lat="-33.8537884" lon="151.0865731">
    <tag k="created_by" v="YahooApplet 1.0"/>
    <tag k="highway" v="residential"/>
  </node>
  <node id="26768495" version="2" timestamp="2007-12-16T00:02:43Z" uid="7617" user="Franc" changeset="318882" lat="-33.8537884" lon="151.0865731"/>
  <node id="26768495" version="3" timestamp="2010-01-23T13:07:02Z" uid="74617" user="JohnSmith" changeset="3691394" lat="-33.853525" lon="151.0865401"/>
  <node id="26768495" version="4" timestamp="2012-01-20T22:35:06Z" uid="77586" user="Map Star" changeset="10451409" lat="-33.853525" lon="151.0865401"/>
  <node id="26768496" version="2" timestamp="2010-01-23T13:07:02Z" uid="74617" user="JohnSmith" changeset="3691394" lat="-33.8558857" lon="151.0871821"/>
  <node id="26768496" version="3" timestamp="2012-01-20T22:35:06Z" uid="77586" user="Map Star" changeset="10451409" lat="-33.8558857" lon="151.0871821"/>
  <node id="26768497" version="2" timestamp="2010-01-23T13:07:01Z" uid="74617" user="JohnSmith" changeset="3691394" lat="-33.8584744" lon="151.088036"/>
  <node id="26768497" version="3" timestamp="2012-01-20T22:35:06Z" uid="77586" user="Map Star" changeset="10451409" lat="-33.8584744" lon="151.088036"/>
  <node id="26768498" version="2" timestamp="2010-01-23T13:07:01Z" uid="74617" user="JohnSmith" changeset="3691394" lat="-33.8589647" lon="151.0882061">
    <tag k="name" v="North Strathfield"/>
    <tag k="railway" v="station"/>
  </node>
  <node id="26768498" version="3" timestamp="2010-12-30T13:06:41Z" uid="4467" user="Rosscoe" changeset="6809124" lat="-33.8589647" lon="151.0882061"/>
  <node id="26768498" version="4" timestamp="2012-01-20T22:35:06Z" uid="77586" user="Map Star" changeset="10451409" lat="-33.8589647" lon="151.0882061"/>
  <node id="26768499" version="2" timestamp="2010-01-23T13:07:01Z" uid="74617" user="JohnSmith" changeset="3691394" lat="-33.8596105" lon="151.0884256"/>
  <node id="26768499" version="3" timestamp="2012-01-20T22:35:06Z" uid="77586" user="Map Star" changeset="10451409" lat="-33.8596105" lon="151.0884256"/>
  <node id="26768500" version="2" timestamp="2010-05-09T08:25:03Z" uid="7617" user="Franc" changeset="4645640" lat="-33.8592991" lon="151.0880158"/>
  <node id="26768501" version="2" timestamp="2010-05-09T08:25:03Z" uid="7617" user="Franc" changeset="4645640" lat="-33.8592069" lon="151.0884028"/>
  <node id="26768558" version="2" timestamp="2010-01-23T12:28:11Z" uid="74617" user="JohnSmith" changeset="3691038" lat="-33.8653295" lon="151.0904029"/>
  <node id="26768558" version="3" timestamp="2012-01-20T22:35:06Z" uid="77586" user="Map Star" changeset="10451409" lat="-33.8653295" lon="151.0904029"/>
  <node id="26768765" version="2" timestamp="2008-04-06T11:23:48Z" uid="30201" user="rrankin" changeset="64490" lat="-33.8625731" lon="151.0834188">
    <tag k="created_by" v="YahooApplet 1.0"/>
  </node>
  <node id="26768801" version="3" timestamp="2008-07-03T21:27:58Z" uid="6975" user="ulfl" changeset="386611" lat="48.3860068" lon="9.9475896">
    <tag k="highway" v="turning_circle"/>
  </node>
  <node id="26768801" version="4" timestamp="2011-03-22T23:46:19Z" uid="424360" user="NachtSpazz" changeset="7642687" lat="48.3861225" lon="9.9476038">
    <tag k="highway" v="turning_circle"/>
  </node>
  <node id="26769154" version="3" timestamp="2010-11-13T09:41:40Z" uid="7617" user="Franc" changeset="6356736" lat="-33.8590974" lon="151.0844426"/>
  <node id="26769155" version="3" timestamp="2010-11-13T09:41:45Z" uid="7617" user="Franc" changeset="6356736" lat="-33.8597685" lon="151.0846564"/>
  <node id="26769156" version="3" timestamp="2010-11-13T09:41:49Z" uid="7617" user="Franc" changeset="6356736" lat="-33.8602727" lon="151.0849145"/>
  <node id="26769157" version="3" timestamp="2010-11-13T09:41:43Z" uid="7617" user="Franc" changeset="6356736" lat="-33.8611999" lon="151.0854473"/>
  <node id="26769158" version="3" timestamp="2010-11-13T09:41:47Z" uid="7617" user="Franc" changeset="6356736" lat="-33.8616197" lon="151.0858115"/>
  <node id="26769159" version="3" timestamp="2010-11-13T09:41:50Z" uid="7617" user="Franc" changeset="6356736" lat="-33.8620792" lon="151.0862644"/>
  <node id="26769160" version="3" timestamp="2010-11-13T09:41:42Z" uid="7617" user="Franc" changeset="6356736" lat="-33.8626312" lon="151.0864932"/>
  <node id="26769162" version="3" timestamp="2010-11-13T09:41:50Z" uid="7617" user="Franc" changeset="6356736" lat="-33.8633889" lon="151.0874122"/>
  <node id="26769163" version="3" timestamp="2010-11-13T09:41:44Z" uid="7617" user="Franc" changeset="6356736" lat="-33.8639346" lon="151.0875722"/>
  <node id="26769164" version="3" timestamp="2010-11-13T09:41:48Z" uid="7617" user="Franc" changeset="6356736" lat="-33.8650207" lon="151.0880794"/>
  <node id="26769165" version="3" timestamp="2010-11-13T09:41:41Z" uid="7617" user="Franc" changeset="6356736" lat="-33.8652899" lon="151.0881106"/>
  <node id="26769166" version="3" timestamp="2010-11-13T09:41:45Z" uid="7617" user="Franc" changeset="6356736" lat="-33.8659477" lon="151.0880921"/>
  <node id="26769167" version="3" timestamp="2010-11-13T09:41:49Z" uid="7617" user="Franc" changeset="6356736" lat="-33.8666901" lon="151.0883054"/>
  <node id="26769168" version="3" timestamp="2010-11-13T09:41:45Z" uid="7617" user="Franc" changeset="6356736" lat="-33.8668535" lon="151.0884973"/>
  <node id="26769169" version="3" timestamp="2010-11-13T09:41:49Z" uid="7617" user="Franc" changeset="6356736" lat="-33.8670236" lon="151.0893129"/>
  <node id="26769170" version="2" timestamp="2010-03-31T10:13:07Z" uid="74617" user="JohnSmith" changeset="4283972" lat="-33.8624718" lon="151.083129"/>
  <node id="26769170" version="3" timestamp="2010-04-01T07:51:00Z" uid="74617" user="JohnSmith" changeset="4291360" lat="-33.8625075" lon="151.0831374"/>
  <node id="26769171" version="2" timestamp="2007-11-08T06:32:41Z" uid="7617" user="Franc" changeset="441827" lat="-33.8652104" lon="151.0917669">
    <tag k="created_by" v="JOSM"/>
  </node>
  <node id="26769171" version="3" timestamp="2009-12-17T00:20:56Z" uid="30201" user="rrankin" changeset="3390791" lat="-33.8651825" lon="151.0917706"/>
  <node id="26769171" version="4" timestamp="2010-04-01T07:53:44Z" uid="74617" user="JohnSmith" changeset="4291360" lat="-33.8652146" lon="151.0917765"/>
  <node id="26769172" version="2" timestamp="2007-11-08T06:32:41Z" uid="7617" user="Franc" changeset="441827" lat="-33.8653424" lon="151.0925787">
    <tag k="created_by" v="JOSM"/>
  </node>
  <node id="26769172" version="3" timestamp="2009-12-17T00:21:01Z" uid="30201" user="rrankin" changeset="3390791" lat="-33.8653145" lon="151.0925824"/>
  <node id="26769172" version="4" timestamp="2010-04-01T07:53:44Z" uid="74617" user="JohnSmith" changeset="4291360" lat="-33.8653239" lon="151.0925797"/>
  <node id="26769173" version="2" timestamp="2007-10-21T07:38:37Z" uid="7617" user="Franc" changeset="271561" lat="-33.8653997" lon="151.0932424">
    <tag k="created_by" v="JOSM"/>
  </node>
  <node id="26769174" version="2" timestamp="2007-10-21T07:38:37Z" uid="7617" user="Franc" changeset="271561" lat="-33.8654188" lon="151.0936252">
    <tag k="created_by" v="JOSM"/>
  </node>
  <node id="26769175" version="2" timestamp="2007-10-21T07:38:36Z" uid="7617" user="Franc" changeset="271561" lat="-33.8654303" lon="151.0939054">
    <tag k="created_by" v="JOSM"/>
  </node>
  <node id="26769176" version="2" timestamp="2007-10-21T07:38:34Z" uid="7617" user="Franc" changeset="271561" lat="-33.8655052" lon="151.0943072">
    <tag k="created_by" v="JOSM"/>
  </node>
  <node id="26769176" version="3" timestamp="2011-06-19T12:54:51Z" uid="7617" user="Franc" changeset="8483675" lat="-33.8655293" lon="151.0943096"/>
  <node id="26769177" version="2" timestamp="2007-10-21T07:38:34Z" uid="7617" user="Franc" changeset="271561" lat="-33.865696" lon="151.0946485">
    <tag k="created_by" v="JOSM"/>
  </node>
  <node id="26769177" version="3" timestamp="2011-06-19T12:54:56Z" uid="7617" user="Franc" changeset="8483675" lat="-33.865689" lon="151.0946219"/>
  <node id="26769178" version="2" timestamp="2010-01-05T12:47:13Z" uid="30201" user="rrankin" changeset="3544973" lat="-33.8660351" lon="151.094892"/>
  <node id="26769181" version="2" timestamp="2007-10-21T07:38:35Z" uid="7617" user="Franc" changeset="271561" lat="-33.8649518" lon="151.0914729">
    <tag k="created_by" v="JOSM"/>
  </node>
  <node id="26769181" version="3" timestamp="2009-04-24T23:57:57Z" uid="7617" user="Franc" changeset="935084" lat="-33.8650114" lon="151.0914964">
    <tag k="created_by" v="JOSM"/>
  </node>
  <node id="26769181" version="4" timestamp="2009-12-17T00:20:59Z" uid="30201" user="rrankin" changeset="3390791" lat="-33.8649811" lon="151.0914867"/>
  <node id="26769182" version="2" timestamp="2007-11-08T06:32:40Z" uid="7617" user="Franc" changeset="441827" lat="-33.8565118" lon="151.0918257">
    <tag k="created_by" v="JOSM"/>
  </node>
  <node id="26769182" version="3" timestamp="2007-12-12T10:55:54Z" uid="7617" user="Franc" changeset="269462" lat="-33.8565004" lon="151.0916639">
    <tag k="created_by" v="JOSM"/>
  </node>
  <node id="26769183" version="2" timestamp="2007-11-08T06:32:39Z" uid="7617" user="Franc" changeset="441827" lat="-33.855614" lon="151.0915588">
    <tag k="created_by" v="JOSM"/>
  </node>
  <node id="26769183" version="3" timestamp="2007-12-12T10:55:52Z" uid="7617" user="Franc" changeset="269462" lat="-33.8555744" lon="151.0913709">
    <tag k="created_by" v="JOSM"/>
  </node>
  <node id="26769183" version="4" timestamp="2008-09-25T06:21:20Z" uid="7617" user="Franc" changeset="695657" lat="-33.8555744" lon="151.0913709">
    <tag k="created_by" v="JOSM"/>
    <tag k="highway" v="traffic_signals"/>
  </node>
  <node id="26769183" version="5" timestamp="2010-05-09T08:25:04Z" uid="7617" user="Franc" changeset="4645640" lat="-33.8555966" lon="151.0913843">
    <tag k="highway" v="traffic_signals"/>
  </node>
  <node id="26769209" version="2" timestamp="2007-11-08T04:41:31Z" uid="7617" user="Franc" changeset="441827" lat="-33.8588195" lon="151.0924246">
    <tag k="created_by" v="JOSM"/>
  </node>
  <node id="26769209" version="3" timestamp="2007-11-08T05:53:35Z" uid="7617" user="Franc" changeset="441827" lat="-33.8588333" lon="151.0923923">
    <tag k="created_by" v="JOSM"/>
  </node>
  <node id="26769209" version="4" timestamp="2007-11-08T06:32:37Z" uid="7617" user="Franc" changeset="441827" lat="-33.8588333" lon="151.0924533">
    <tag k="created_by" v="JOSM"/>
  </node>
  <node id="26769209" version="5" timestamp="2007-12-12T10:56:07Z" uid="7617" user="Franc" changeset="269462" lat="-33.8588333" lon="151.0924533">
    <tag k="created_by" v="JOSM"/>
  </node>
  <node id="26769210" version="1" timestamp="2007-09-30T05:59:45Z" uid="7617" user="Franc" changeset="537600" lat="-33.8592399" lon="151.0925758">
    <tag k="created_by" v="JOSM"/>
    <tag k="highway" v="residential"/>
  </node>
  <node id="26769210" version="2" timestamp="2007-11-08T04:42:15Z" uid="7617" user="Franc" changeset="441827" lat="-33.8592399" lon="151.0925758">
    <tag k="created_by" v="JOSM"/>
    <tag k="highway" v="residential"/>
  </node>
  <node id="26769212" version="1" timestamp="2007-09-30T05:59:45Z" uid="7617" user="Franc" changeset="537600" lat="-33.8602311" lon="151.0928705">
    <tag k="created_by" v="JOSM"/>
    <tag k="highway" v="residential"/>
  </node>
  <node id="26769212" version="2" timestamp="2007-11-08T05:53:36Z" uid="7617" user="Franc" changeset="441827" lat="-33.860208" lon="151.0928197">
    <tag k="created_by" v="JOSM"/>
    <tag k="highway" v="residential"/>
  </node>
  <node id="26769212" version="3" timestamp="2007-11-08T06:32:38Z" uid="7617" user="Franc" changeset="441827" lat="-33.860208" lon="151.0928808">
    <tag k="created_by" v="JOSM"/>
    <tag k="highway" v="residential"/>
  </node>
  <node id="26769212" version="4" timestamp="2007-12-12T10:56:06Z" uid="7617" user="Franc" changeset="269462" lat="-33.860208" lon="151.0928808">
    <tag k="created_by" v="JOSM"/>
    <tag k="highway" v="residential"/>
  </node>
  <node id="26769214" version="2" timestamp="2007-11-08T05:53:36Z" uid="7617" user="Franc" changeset="441827" lat="-33.8616898" lon="151.0932627">
    <tag k="created_by" v="JOSM"/>
  </node>
  <node id="26769214" version="3" timestamp="2007-11-08T06:32:39Z" uid="7617" user="Franc" changeset="441827" lat="-33.8616898" lon="151.0933237">
    <tag k="created_by" v="JOSM"/>
  </node>
  <node id="26769214" version="4" timestamp="2007-12-12T10:43:46Z" uid="7617" user="Franc" changeset="269462" lat="-33.861641" lon="151.0933098">
    <tag k="created_by" v="JOSM"/>
  </node>
  <node id="26769214" version="5" timestamp="2008-09-25T06:21:19Z" uid="7617" user="Franc" changeset="695657" lat="-33.861641" lon="151.0932943">
    <tag k="created_by" v="JOSM"/>
  </node>
  <node id="26769214" version="6" timestamp="2008-09-25T09:21:51Z" uid="7617" user="Franc" changeset="695657" lat="-33.8616497" lon="151.0932662">
    <tag k="created_by" v="JOSM"/>
  </node>
  <node id="26769218" version="2" timestamp="2007-11-08T06:32:44Z" uid="7617" user="Franc" changeset="441827" lat="-33.8524388" lon="151.0907152">
    <tag k="created_by" v="JOSM"/>
  </node>
  <node id="26769218" version="3" timestamp="2007-12-12T10:55:55Z" uid="7617" user="Franc" changeset="269462" lat="-33.8524568" lon="151.0906384">
    <tag k="created_by" v="JOSM"/>
  </node>
  <node id="26769218" version="4" timestamp="2008-09-25T10:51:39Z" uid="7617" user="Franc" changeset="695657" lat="-33.8524568" lon="151.0906384">
    <tag k="created_by" v="JOSM"/>
  </node>
  <node id="26769219" version="1" timestamp="2007-09-30T05:38:47Z" uid="7617" user="Franc" changeset="537600" lat="-33.8510204" lon="151.0902774">
    <tag k="created_by" v="JOSM"/>
  </node>
  <node id="26769221" version="2" timestamp="2010-01-23T12:28:10Z" uid="74617" user="JohnSmith" changeset="3691038" lat="-33.868486" lon="151.0914524"/>
  <node id="26769221" version="3" timestamp="2012-01-20T21:09:01Z" uid="77586" user="Map Star" changeset="10450617" lat="-33.868486" lon="151.0914524"/>
  <node id="26769222" version="2" timestamp="2010-01-23T10:40:50Z" uid="74617" user="JohnSmith" changeset="3690326" lat="-33.8690563" lon="151.0916801"/>
  <node id="26769222" version="3" timestamp="2012-01-20T21:09:01Z" uid="77586" user="Map Star" changeset="10450617" lat="-33.8690563" lon="151.0916801"/>
  <node id="26769223" version="2" timestamp="2010-01-23T10:40:50Z" uid="74617" user="JohnSmith" changeset="3690326" lat="-33.8695734" lon="151.0920238"/>
  <node id="26769223" version="3" timestamp="2012-01-20T21:09:01Z" uid="77586" user="Map Star" changeset="10450617" lat="-33.8695734" lon="151.0920238"/>
  <node id="26769224" version="2" timestamp="2010-01-23T10:40:50Z" uid="74617" user="JohnSmith" changeset="3690326" lat="-33.8701169" lon="151.0925498"/>
  <node id="26769224" version="3" timestamp="2012-01-20T21:09:02Z" uid="77586" user="Map Star" changeset="10450617" lat="-33.8701169" lon="151.0925498"/>
  <node id="26769226" version="2" timestamp="2010-01-23T12:43:42Z" uid="74617" user="JohnSmith" changeset="3691203" lat="-33.8659844" lon="151.0838923"/>
  <node id="26769226" version="3" timestamp="2012-01-20T07:19:53Z" uid="77586" user="Map Star" changeset="10443663" lat="-33.8659844" lon="151.0838923"/>
  <node id="26769227" version="2" timestamp="2010-01-23T12:43:42Z" uid="74617" user="JohnSmith" changeset="3691203" lat="-33.8661811" lon="151.0852399"/>
  <node id="26769227" version="3" timestamp="2012-01-20T21:09:02Z" uid="77586" user="Map Star" changeset="10450617" lat="-33.8661811" lon="151.0852399"/>
  <node id="26769228" version="2" timestamp="2010-01-23T12:43:43Z" uid="74617" user="JohnSmith" changeset="3691203" lat="-33.8663438" lon="151.0859329"/>
  <node id="26769228" version="3" timestamp="2012-01-20T21:09:02Z" uid="77586" user="Map Star" changeset="10450617" lat="-33.8663438" lon="151.0859329"/>
  <node id="26769229" version="2" timestamp="2010-01-23T12:43:42Z" uid="74617" user="JohnSmith" changeset="3691203" lat="-33.8665776" lon="151.0865587"/>
  <node id="26769229" version="3" timestamp="2012-01-20T21:09:02Z" uid="77586" user="Map Star" changeset="10450617" lat="-33.8665776" lon="151.0865587"/>
  <node id="26769230" version="2" timestamp="2010-01-23T12:43:43Z" uid="74617" user="JohnSmith" changeset="3691203" lat="-33.8669777" lon="151.0872659"/>
  <node id="26769230" version="3" timestamp="2012-01-20T21:09:02Z" uid="77586" user="Map Star" changeset="10450617" lat="-33.8669777" lon="151.0872659"/>
  <node id="26769231" version="2" timestamp="2010-01-23T12:43:43Z" uid="74617" user="JohnSmith" changeset="3691203" lat="-33.8673929" lon="151.0879838"/>
  <node id="26769231" version="3" timestamp="2012-01-20T21:09:02Z" uid="77586" user="Map Star" changeset="10450617" lat="-33.8673929" lon="151.0879838"/>
  <node id="26769232" version="2" timestamp="2010-01-23T12:43:43Z" uid="74617" user="JohnSmith" changeset="3691203" lat="-33.8675073" lon="151.0884823"/>
  <node id="26769232" version="3" timestamp="2012-01-20T21:09:02Z" uid="77586" user="Map Star" changeset="10450617" lat="-33.8675073" lon="151.0884823"/>
  <node id="26769233" version="2" timestamp="2010-01-23T12:43:43Z" uid="74617" user="JohnSmith" changeset="3691203" lat="-33.8674974" lon="151.0889736"/>
  <node id="26769233" version="3" timestamp="2012-01-20T21:09:02Z" uid="77586" user="Map Star" changeset="10450617" lat="-33.8674974" lon="151.0889736"/>
  <node id="26769234" version="2" timestamp="2010-01-23T12:43:43Z" uid="74617" user="JohnSmith" changeset="3691203" lat="-33.8673469" lon="151.0894925"/>
  <node id="26769234" version="3" timestamp="2012-01-20T21:09:02Z" uid="77586" user="Map Star" changeset="10450617" lat="-33.8673469" lon="151.0894925"/>
  <node id="26769235" version="2" timestamp="2010-01-23T12:28:10Z" uid="74617" user="JohnSmith" changeset="3691038" lat="-33.8669479" lon="151.0900695"/>
  <node id="26769235" version="3" timestamp="2012-01-20T21:09:03Z" uid="77586" user="Map Star" changeset="10450617" lat="-33.8669479" lon="151.0900695"/>
  <node id="26769236" version="2" timestamp="2010-01-23T12:28:10Z" uid="74617" user="JohnSmith" changeset="3691038" lat="-33.8665604" lon="151.090332"/>
  <node id="26769236" version="3" timestamp="2012-01-20T21:09:03Z" uid="77586" user="Map Star" changeset="10450617" lat="-33.8665604" lon="151.090332"/>
  <node id="26769237" version="2" timestamp="2010-01-23T12:28:10Z" uid="74617" user="JohnSmith" changeset="3691038" lat="-33.8661606" lon="151.0904305"/>
  <node id="26769237" version="3" timestamp="2012-01-20T21:09:03Z" uid="77586" user="Map Star" changeset="10450617" lat="-33.8661606" lon="151.0904305"/>
  <node id="26769238" version="2" timestamp="2010-01-23T12:28:11Z" uid="74617" user="JohnSmith" changeset="3691038" lat="-33.8659293" lon="151.0904296"/>
  <node id="26769238" version="3" timestamp="2012-01-20T21:09:03Z" uid="77586" user="Map Star" changeset="10450617" lat="-33.8659293" lon="151.0904296"/>
  <node id="26769337" version="2" timestamp="2008-07-03T01:08:39Z" uid="6975" user="ulfl" changeset="377243" lat="51.4845781" lon="0.3439542">
    <tag k="name" v="Orchard Garden Centre (Smiths)"/>
    <tag k="shop" v="garden_centre"/>
  </node>
  <node id="26769337" version="3" timestamp="2012-01-23T16:32:28Z" uid="57884" user="EdLoach" changeset="10476756" lat="51.4845781" lon="0.3439542"/>
  <node id="26769447" version="2" timestamp="2008-06-07T06:51:21Z" uid="30201" user="rrankin" changeset="81397" lat="-33.8424472" lon="151.0573173">
    <tag k="created_by" v="JOSM"/>
  </node>
  <node id="26769448" version="2" timestamp="2008-06-07T06:51:17Z" uid="30201" user="rrankin" changeset="81397" lat="-33.8419263" lon="151.0573173">
    <tag k="created_by" v="JOSM"/>
  </node>
  <node id="26769450" version="2" timestamp="2008-06-07T06:51:17Z" uid="30201" user="rrankin" changeset="81397" lat="-33.8415001" lon="151.0575778">
    <tag k="created_by" v="JOSM"/>
  </node>
  <node id="26769452" version="2" timestamp="2008-06-07T06:51:19Z" uid="30201" user="rrankin" changeset="81397" lat="-33.841074" lon="151.0580039">
    <tag k="created_by" v="JOSM"/>
  </node>
  <node id="26769453" version="2" timestamp="2008-06-07T06:51:18Z" uid="30201" user="rrankin" changeset="81397" lat="-33.8406715" lon="151.0581223">
    <tag k="created_by" v="JOSM"/>
  </node>
  <node id="26769454" version="2" timestamp="2008-06-07T06:51:20Z" uid="30201" user="rrankin" changeset="81397" lat="-33.8401979" lon="151.058146">
    <tag k="created_by" v="JOSM"/>
  </node>
  <node id="26769455" version="2" timestamp="2008-06-07T06:51:19Z" uid="30201" user="rrankin" changeset="81397" lat="-33.8398191" lon="151.058217">
    <tag k="created_by" v="JOSM"/>
  </node>
  <node id="26769456" version="2" timestamp="2008-06-07T06:51:11Z" uid="30201" user="rrankin" changeset="81397" lat="-33.8395823" lon="151.0585248">
    <tag k="created_by" v="JOSM"/>
  </node>
  <node id="26769457" version="2" timestamp="2008-06-07T06:51:12Z" uid="30201" user="rrankin" changeset="81397" lat="-33.8394166" lon="151.0588563">
    <tag k="created_by" v="JOSM"/>
  </node>
  <node id="26769458" version="2" timestamp="2008-06-07T06:51:12Z" uid="30201" user="rrankin" changeset="81397" lat="-33.8394166" lon="151.0592588">
    <tag k="created_by" v="JOSM"/>
  </node>
  <node id="26769459" version="2" timestamp="2008-06-07T06:51:13Z" uid="30201" user="rrankin" changeset="81397" lat="-33.839464" lon="151.0596376">
    <tag k="created_by" v="JOSM"/>
  </node>
  <node id="26769460" version="2" timestamp="2008-06-07T06:51:14Z" uid="30201" user="rrankin" changeset="81397" lat="-33.839677" lon="151.0603716">
    <tag k="created_by" v="JOSM"/>
  </node>
  <node id="26769461" version="2" timestamp="2008-06-07T06:51:14Z" uid="30201" user="rrankin" changeset="81397" lat="-33.8397954" lon="151.0608451">
    <tag k="created_by" v="JOSM"/>
  </node>
  <node id="26769462" version="2" timestamp="2008-06-07T06:51:15Z" uid="30201" user="rrankin" changeset="81397" lat="-33.8398428" lon="151.0612003">
    <tag k="created_by" v="JOSM"/>
  </node>
  <node id="26769463" version="2" timestamp="2008-06-07T06:51:16Z" uid="30201" user="rrankin" changeset="81397" lat="-33.8399138" lon="151.0614844">
    <tag k="created_by" v="JOSM"/>
  </node>
  <node id="26769464" version="2" timestamp="2008-06-07T06:51:05Z" uid="30201" user="rrankin" changeset="81397" lat="-33.8401506" lon="151.0617212">
    <tag k="created_by" v="JOSM"/>
  </node>
  <node id="26769465" version="2" timestamp="2008-06-07T06:51:06Z" uid="30201" user="rrankin" changeset="81397" lat="-33.84034" lon="151.0618869">
    <tag k="created_by" v="JOSM"/>
  </node>
  <node id="26769466" version="2" timestamp="2008-06-07T06:51:07Z" uid="30201" user="rrankin" changeset="81397" lat="-33.8404584" lon="151.0621237">
    <tag k="created_by" v="JOSM"/>
  </node>
  <node id="26769467" version="2" timestamp="2008-06-07T06:51:07Z" uid="30201" user="rrankin" changeset="81397" lat="-33.840411" lon="151.0627156">
    <tag k="created_by" v="JOSM"/>
  </node>
  <node id="26769468" version="2" timestamp="2008-06-07T06:51:08Z" uid="30201" user="rrankin" changeset="81397" lat="-33.8402926" lon="151.0634496">
    <tag k="created_by" v="JOSM"/>
  </node>
  <node id="26769469" version="2" timestamp="2008-06-07T06:51:09Z" uid="30201" user="rrankin" changeset="81397" lat="-33.8401743" lon="151.0638047">
    <tag k="created_by" v="JOSM"/>
  </node>
  <node id="26769470" version="2" timestamp="2008-06-07T06:51:10Z" uid="30201" user="rrankin" changeset="81397" lat="-33.8399375" lon="151.0638994">
    <tag k="created_by" v="JOSM"/>
  </node>
  <node id="26769471" version="2" timestamp="2008-06-07T06:51:10Z" uid="30201" user="rrankin" changeset="81397" lat="-33.839535" lon="151.0639231">
    <tag k="created_by" v="JOSM"/>
  </node>
  <node id="26769472" version="2" timestamp="2008-06-07T06:51:22Z" uid="30201" user="rrankin" changeset="81397" lat="-33.8391325" lon="151.0639705">
    <tag k="created_by" v="JOSM"/>
  </node>
  <node id="26769473" version="2" timestamp="2008-06-07T06:51:21Z" uid="30201" user="rrankin" changeset="81397" lat="-33.8388484" lon="151.0643493">
    <tag k="created_by" v="JOSM"/>
  </node>
  <node id="26769576" version="2" timestamp="2010-08-27T06:48:16Z" uid="4467" user="Rosscoe" changeset="5604881" lat="-35.2535862" lon="149.1336862"/>
  <node id="26769576" version="3" timestamp="2011-02-09T15:04:28Z" uid="4467" user="Rosscoe" changeset="7236829" lat="-35.2534636" lon="149.1336584"/>
  <node id="26769596" version="1" timestamp="2007-07-01T19:23:42Z" uid="8328" user="benpre" changeset="121022" lat="49.14622" lon="9.2233067">
    <tag k="created_by" v="JOSM"/>
  </node>
  <node id="26769606" version="1" timestamp="2007-07-01T18:18:05Z" uid="8328" user="benpre" changeset="121022" lat="49.1458867" lon="9.2231125">
    <tag k="created_by" v="JOSM"/>
  </node>
  <node id="26769615" version="1" timestamp="2007-06-30T20:52:29Z" uid="8328" user="benpre" changeset="119473" lat="49.14047" lon="9.2486717">
    <tag k="created_by" v="JOSM"/>
  </node>
  <node id="26769618" version="1" timestamp="2007-06-30T23:54:26Z" uid="8328" user="benpre" changeset="120615" lat="49.1461186" lon="9.2350405">
    <tag k="created_by" v="JOSM"/>
  </node>
  <node id="26769620" version="1" timestamp="2007-07-01T18:17:32Z" uid="8328" user="benpre" changeset="121022" lat="49.1390259" lon="9.2179531">
    <tag k="created_by" v="JOSM"/>
  </node>
  <node id="26769620" version="2" timestamp="2009-06-10T19:45:58Z" uid="5079" user="friedel_hn" changeset="1481190" lat="49.1390184" lon="9.2179332">
    <tag k="created_by" v="JOSM"/>
  </node>
  <node id="26769620" version="3" timestamp="2009-06-10T20:20:57Z" uid="5079" user="friedel_hn" changeset="1481572" lat="49.1389916" lon="9.2179286">
    <tag k="created_by" v="JOSM"/>
  </node>
  <node id="26769620" version="4" timestamp="2009-06-25T16:56:11Z" uid="85761" user="klausis" changeset="1624568" lat="49.1389916" lon="9.2179286"/>
  <node id="26769620" version="5" timestamp="2011-12-25T21:25:00Z" uid="131968" user="changchun_1" changeset="10203203" lat="49.1389916" lon="9.2179286"/>
  <node id="26769628" version="1" timestamp="2007-06-30T23:54:26Z" uid="8328" user="benpre" changeset="120615" lat="49.1409768" lon="9.2450399">
    <tag k="created_by" v="JOSM"/>
  </node>
  <node id="26769630" version="1" timestamp="2007-07-01T18:59:54Z" uid="8328" user="benpre" changeset="121022" lat="49.1395934" lon="9.2149367">
    <tag k="created_by" v="JOSM"/>
  </node>
  <node id="26769631" version="1" timestamp="2007-06-30T23:54:26Z" uid="8328" user="benpre" changeset="120615" lat="49.1436458" lon="9.2405433">
    <tag k="created_by" v="JOSM"/>
  </node>
  <node id="26769633" version="1" timestamp="2007-07-01T18:59:53Z" uid="8328" user="benpre" changeset="121022" lat="49.139665" lon="9.2150883">
    <tag k="created_by" v="JOSM"/>
  </node>
  <node id="26769801" version="2" timestamp="2008-06-16T11:12:43Z" uid="30201" user="rrankin" changeset="183883" lat="-33.8362388" lon="151.0705671">
    <tag k="created_by" v="JOSM"/>
  </node>
  <node id="26769801" version="3" timestamp="2012-03-08T06:04:52Z" uid="7523" user="inas" changeset="10906275" lat="-33.8362388" lon="151.0705671"/>
  <node id="26769805" version="2" timestamp="2008-06-07T08:26:04Z" uid="30201" user="rrankin" changeset="81397" lat="-33.8361729" lon="151.0717127">
    <tag k="created_by" v="JOSM"/>
  </node>
  <node id="26769809" version="2" timestamp="2008-06-07T08:26:05Z" uid="30201" user="rrankin" changeset="81397" lat="-33.8359835" lon="151.0726835">
    <tag k="created_by" v="JOSM"/>
  </node>
  <node id="26769812" version="2" timestamp="2008-06-07T08:26:05Z" uid="30201" user="rrankin" changeset="81397" lat="-33.8359125" lon="151.0735358">
    <tag k="created_by" v="JOSM"/>
  </node>
  <node id="26769816" version="2" timestamp="2008-06-07T08:26:06Z" uid="30201" user="rrankin" changeset="81397" lat="-33.8358177" lon="151.0737726">
    <tag k="created_by" v="JOSM"/>
  </node>
  <node id="26769819" version="2" timestamp="2008-06-07T08:26:07Z" uid="30201" user="rrankin" changeset="81397" lat="-33.8356994" lon="151.0739147">
    <tag k="created_by" v="JOSM"/>
  </node>
</osm>
