<?xml version='1.0' encoding='UTF-8'?>
<osm version="0.6" generator="libosmium/2.20.0">
  <node id="268080118" version="8" timestamp="2010-08-29T11:26:23Z" uid="33382" user="de_muur" changeset="5624577" lat="53.6309641" lon="10.2976232"/>
  <node id="268080348" version="3" timestamp="2008-07-23T14:46:38Z" uid="33633" user="Elena" changeset="577807" lat="48.5040088" lon="26.4928622">
    <tag k="created_by" v="Potlatch 0.10"/>
    <tag k="name" v="Хотин"/>
    <tag k="name:en" v="Khotin"/>
    <tag k="name:ru" v="Хотин"/>
    <tag k="place" v="town"/>
  </node>
  <node id="268080348" version="4" timestamp="2008-07-31T09:52:35Z" uid="25906" user="sorein" changeset="633732" lat="48.5040091" lon="26.4928563">
    <tag k="created_by" v="Potlatch 0.10a"/>
    <tag k="name" v="Хотин (Hotin)"/>
    <tag k="name:en" v="Khotin"/>
    <tag k="name:ru" v="Хотин"/>
    <tag k="place" v="town"/>
  </node>
  <node id="268080348" version="5" timestamp="2008-08-06T14:10:09Z" uid="32621" user="TEL0000" changeset="107829" lat="48.5040138" lon="26.492848">
    <tag k="created_by" v="Potlatch 0.10b"/>
    <tag k="name" v="Хотин"/>
    <tag k="name:de" v="Chotyn"/>
    <tag k="name:en" v="Khotyn"/>
    <tag k="name:pl" v="Chocim"/>
    <tag k="name:ro" v="Hotin"/>
    <tag k="name:ru" v="Хотин"/>
    <tag k="place" v="town"/>
  </node>
  <node id="268080348" version="6" timestamp="2008-08-07T02:14:00Z" uid="32621" user="TEL0000" changeset="120537" lat="48.5040151" lon="26.4928406">
    <tag k="created_by" v="Potlatch 0.10b"/>
    <tag k="is_in" v="Чернівецька область, Хотинський район"/>
    <tag k="name" v="Хотин"/>
    <tag k="name:de" v="Chotyn"/>
    <tag k="name:en" v="Khotyn"/>
    <tag k="name:pl" v="Chocim"/>
    <tag k="name:ro" v="Hotin"/>
    <tag k="name:ru" v="Хотин"/>
    <tag k="place" v="town"/>
    <tag k="population" v="13200"/>
  </node>
  <node id="268080348" version="7" timestamp="2009-02-04T02:46:22Z" uid="32621" user="TEL0000" changeset="133815" lat="48.5040168" lon="26.4928447">
    <tag k="created_by" v="Potlatch 0.10f"/>
    <tag k="is_in" v="Хотинський район, Чернівецька область, Україна, Europe"/>
    <tag k="name" v="Хотин"/>
    <tag k="name:de" v="Chotyn"/>
    <tag k="name:en" v="Khotyn"/>
    <tag k="name:pl" v="Chocim"/>
    <tag k="name:ro" v="Hotin"/>
    <tag k="name:ru" v="Хотин"/>
    <tag k="place" v="town"/>
    <tag k="population" v="13200"/>
  </node>
  <node id="268080348" version="8" timestamp="2009-10-04T21:16:55Z" uid="128534" user="greencaps" changeset="2743468" lat="48.5079508" lon="26.4929133">
    <tag k="created_by" v="Potlatch 0.10f"/>
    <tag k="is_in" v="Хотинський район, Чернівецька область, Україна, Europe"/>
    <tag k="name" v="Хотин"/>
    <tag k="name:de" v="Chotyn"/>
    <tag k="name:en" v="Khotyn"/>
    <tag k="name:pl" v="Chocim"/>
    <tag k="name:ro" v="Hotin"/>
    <tag k="name:ru" v="Хотин"/>
    <tag k="place" v="town"/>
    <tag k="population" v="13200"/>
  </node>
  <node id="268080348" version="9" timestamp="2010-05-20T15:16:14Z" uid="118927" user="DSem" changeset="4758503" lat="48.5079508" lon="26.4929133">
    <tag k="is_in" v="Хотинський район, Чернівецька область, Україна, Europe"/>
    <tag k="name" v="Хотин"/>
    <tag k="name:de" v="Chotyn"/>
    <tag k="name:en" v="Khotyn"/>
    <tag k="name:pl" v="Chocim"/>
    <tag k="name:ro" v="Hotin"/>
    <tag k="name:ru" v="Хотин"/>
    <tag k="place" v="town"/>
    <tag k="population" v="13200"/>
  </node>
  <node id="268080594" version="3" timestamp="2008-06-08T21:31:41Z" uid="6975" user="ulfl" changeset="98777" lat="49.666802" lon="10.1459307"/>
  <node id="268080594" version="4" timestamp="2008-06-23T10:03:27Z" uid="31166" user="UweBrinkhoff" changeset="274959" lat="49.6668414" lon="10.1459438"/>
  <node id="268081010" version="3" timestamp="2008-07-23T14:48:17Z" uid="33633" user="Elena" changeset="577807" lat="48.6769291" lon="26.5859027">
    <tag k="created_by" v="Potlatch 0.10"/>
    <tag k="name" v="Кам&quot;янець-Подільський"/>
    <tag k="name:en" v="Kamianets-Podilsky"/>
    <tag k="name:ru" v="Каменец-Подольский"/>
    <tag k="place" v="town"/>
  </node>
  <node id="268081010" version="4" timestamp="2008-08-07T02:34:09Z" uid="32621" user="TEL0000" changeset="120537" lat="48.6769306" lon="26.5858974">
    <tag k="created_by" v="Potlatch 0.10b"/>
    <tag k="name" v="Кам&apos;янець-Подільський"/>
    <tag k="name:en" v="Kamianets-Podilsky"/>
    <tag k="name:ru" v="Каменец-Подольский"/>
    <tag k="place" v="town"/>
  </node>
  <node id="268081010" version="5" timestamp="2008-08-07T02:36:59Z" uid="32621" user="TEL0000" changeset="120537" lat="48.6769306" lon="26.5858974">
    <tag k="created_by" v="Potlatch 0.10b"/>
    <tag k="is_in" v="Хмельницька область, "/>
    <tag k="name" v="Кам&apos;янець-Подільський"/>
    <tag k="name:en" v="Kamianets-Podilskyi"/>
    <tag k="name:ru" v="Каменец-Подольский"/>
    <tag k="place" v="town"/>
  </node>
  <node id="268081010" version="6" timestamp="2008-08-07T02:37:43Z" uid="32621" user="TEL0000" changeset="120537" lat="48.6769306" lon="26.5858974">
    <tag k="created_by" v="Potlatch 0.10b"/>
    <tag k="is_in" v="Хмельницька область, Кам&apos;янець-Подільський район"/>
    <tag k="name" v="Кам&apos;янець-Подільський"/>
    <tag k="name:en" v="Kamianets-Podilskyi"/>
    <tag k="name:ru" v="Каменец-Подольский"/>
    <tag k="place" v="town"/>
  </node>
  <node id="268081010" version="7" timestamp="2008-08-07T02:37:51Z" uid="32621" user="TEL0000" changeset="120537" lat="48.6769306" lon="26.5858974">
    <tag k="created_by" v="Potlatch 0.10b"/>
    <tag k="is_in" v="Хмельницька область, Кам&apos;янець-Подільський район"/>
    <tag k="name" v="Кам&apos;янець-Подільський"/>
    <tag k="name:en" v="Kamianets-Podilskyi"/>
    <tag k="name:ru" v="Каменец-Подольский"/>
    <tag k="place" v="town"/>
  </node>
  <node id="268081010" version="8" timestamp="2008-08-07T02:38:17Z" uid="32621" user="TEL0000" changeset="120537" lat="48.6769306" lon="26.5858974">
    <tag k="created_by" v="Potlatch 0.10b"/>
    <tag k="is_in" v="Хмельницька область, Кам&apos;янець-Подільський район"/>
    <tag k="name" v="Кам&apos;янець-Подільський"/>
    <tag k="name:en" v="Kamianets-Podilskyi"/>
    <tag k="name:ru" v="Каменец-Подольский"/>
    <tag k="place" v="town"/>
    <tag k="population" v="99610"/>
  </node>
  <node id="268081010" version="9" timestamp="2008-08-07T02:40:06Z" uid="32621" user="TEL0000" changeset="120537" lat="48.6769317" lon="26.5858965">
    <tag k="created_by" v="Potlatch 0.10b"/>
    <tag k="is_in" v="Хмельницька область, Кам&apos;янець-Подільський район"/>
    <tag k="name:en" v="Kamianets-Podilskyi"/>
    <tag k="name:ro" v="Cameniţa"/>
    <tag k="name:ru" v="Каменец-Подольский"/>
    <tag k="place" v="town"/>
    <tag k="population" v="99610"/>
  </node>
  <node id="268081010" version="10" timestamp="2008-08-13T20:03:11Z" uid="32621" user="TEL0000" changeset="230145" lat="48.6769317" lon="26.5858913">
    <tag k="created_by" v="Potlatch 0.10b"/>
    <tag k="is_in" v="Хмельницька область, Кам&apos;янець-Подільський район"/>
    <tag k="name" v="Камянець-Подільський"/>
    <tag k="name:en" v="Kamianets-Podilskyi"/>
    <tag k="name:ro" v="Cameniţa"/>
    <tag k="name:ru" v="Каменец-Подольский"/>
    <tag k="place" v="town"/>
    <tag k="population" v="99610"/>
  </node>
  <node id="268081010" version="11" timestamp="2008-11-19T20:59:28Z" uid="32621" user="TEL0000" changeset="768273" lat="48.6769318" lon="26.5858868">
    <tag k="created_by" v="Potlatch 0.10f"/>
    <tag k="is_in" v="Хмельницька область, Кам&apos;янець-Подільський район"/>
    <tag k="name" v="Камянець-Подільський"/>
    <tag k="name:en" v="Kamianets-Podilskyi"/>
    <tag k="name:ro" v="Cameniţa"/>
    <tag k="name:ru" v="Каменец-Подольский"/>
    <tag k="name:tr" v="Kamaniçe"/>
    <tag k="place" v="town"/>
    <tag k="population" v="99610"/>
  </node>
  <node id="268081010" version="12" timestamp="2008-11-19T21:00:16Z" uid="32621" user="TEL0000" changeset="768273" lat="48.6769318" lon="26.5858868">
    <tag k="created_by" v="Potlatch 0.10f"/>
    <tag k="is_in" v="Хмельницька область, Кам&apos;янець-Подільський район"/>
    <tag k="name" v="Камянець-Подільський"/>
    <tag k="name:cs" v="Kamenec Podolský"/>
    <tag k="name:en" v="Kamianets-Podilskyi"/>
    <tag k="name:ro" v="Cameniţa"/>
    <tag k="name:ru" v="Каменец-Подольский"/>
    <tag k="name:tr" v="Kamaniçe"/>
    <tag k="place" v="town"/>
    <tag k="population" v="99610"/>
  </node>
  <node id="268081010" version="13" timestamp="2009-02-04T03:17:37Z" uid="32621" user="TEL0000" changeset="133815" lat="48.6769373" lon="26.58588">
    <tag k="created_by" v="Potlatch 0.10f"/>
    <tag k="is_in" v="Хмельницька область, Кам&apos;янець-Подільський район"/>
    <tag k="name" v="Кам&apos;Янець-Подільський"/>
    <tag k="name:cs" v="Kamenec Podolský"/>
    <tag k="name:en" v="Kamianets-Podilskyi"/>
    <tag k="name:ro" v="Cameniţa"/>
    <tag k="name:ru" v="Каменец-Подольский"/>
    <tag k="name:tr" v="Kamaniçe"/>
    <tag k="place" v="town"/>
    <tag k="population" v="99610"/>
  </node>
  <node id="268081010" version="14" timestamp="2009-02-04T03:18:00Z" uid="32621" user="TEL0000" changeset="133815" lat="48.6769373" lon="26.58588">
    <tag k="created_by" v="Potlatch 0.10f"/>
    <tag k="is_in" v="Хмельницька область, Кам&apos;янець-Подільський район"/>
    <tag k="name" v="Кам&apos;янець-Подільський"/>
    <tag k="name:cs" v="Kamenec Podolský"/>
    <tag k="name:en" v="Kamianets-Podilskyi"/>
    <tag k="name:ro" v="Cameniţa"/>
    <tag k="name:ru" v="Каменец-Подольский"/>
    <tag k="name:tr" v="Kamaniçe"/>
    <tag k="place" v="town"/>
    <tag k="population" v="99610"/>
  </node>
  <node id="268081010" version="15" timestamp="2010-05-20T15:16:55Z" uid="118927" user="DSem" changeset="4758503" lat="48.6769373" lon="26.58588">
    <tag k="is_in" v="Хмельницька область, Кам&apos;янець-Подільський район"/>
    <tag k="name" v="Кам&apos;янець-Подільський"/>
    <tag k="name:cs" v="Kamenec Podolský"/>
    <tag k="name:en" v="Kamianets-Podilskyi"/>
    <tag k="name:ro" v="Cameniţa"/>
    <tag k="name:ru" v="Каменец-Подольский"/>
    <tag k="name:tr" v="Kamaniçe"/>
    <tag k="place" v="town"/>
    <tag k="population" v="99610"/>
  </node>
  <node id="268081010" version="16" timestamp="2010-10-18T11:42:40Z" uid="118927" user="DSem" changeset="6080952" lat="48.6769373" lon="26.58588">
    <tag k="is_in" v="Хмельницька область, Кам&apos;янець-Подільський район"/>
    <tag k="name" v="Кам&apos;янець-Подільський"/>
    <tag k="name:be" v="Камянец-Падольскі"/>
    <tag k="name:cs" v="Kamenec Podolský"/>
    <tag k="name:de" v="Kamjanez-Podilskyj"/>
    <tag k="name:en" v="Kamianets-Podilskyi"/>
    <tag k="name:pl" v="Kamieniec Podolski"/>
    <tag k="name:ro" v="Cameniţa"/>
    <tag k="name:ru" v="Каменец-Подольский"/>
    <tag k="name:tr" v="Kamaniçe"/>
    <tag k="place" v="city"/>
    <tag k="population" v="102250"/>
  </node>
  <node id="268081010" version="17" timestamp="2011-05-15T13:41:40Z" uid="93026" user="mpele" changeset="8151975" lat="48.6769373" lon="26.58588">
    <tag k="is_in" v="Хмельницька область, Кам&apos;янець-Подільський район"/>
    <tag k="name" v="Кам&apos;янець-Подільський"/>
    <tag k="name:be" v="Камянец-Падольскі"/>
    <tag k="name:cs" v="Kamenec Podolský"/>
    <tag k="name:de" v="Kamjanez-Podilskyj"/>
    <tag k="name:en" v="Kamianets-Podilskyi"/>
    <tag k="name:pl" v="Kamieniec Podolski"/>
    <tag k="name:ro" v="Cameniţa"/>
    <tag k="name:ru" v="Каменец-Подольский"/>
    <tag k="name:sr" v="Каменица"/>
    <tag k="name:tr" v="Kamaniçe"/>
    <tag k="place" v="city"/>
    <tag k="population" v="102250"/>
  </node>
  <node id="268081010" version="18" timestamp="2011-09-05T19:54:15Z" uid="356014" user="_sev" changeset="9221470" lat="48.6769373" lon="26.58588">
    <tag k="name" v="Кам&apos;янець-Подільський"/>
    <tag k="name:be" v="Камянец-Падольскі"/>
    <tag k="name:cs" v="Kamenec Podolský"/>
    <tag k="name:de" v="Kamjanez-Podilskyj"/>
    <tag k="name:en" v="Kamianets-Podilskyi"/>
    <tag k="name:pl" v="Kamieniec Podolski"/>
    <tag k="name:ro" v="Cameniţa"/>
    <tag k="name:ru" v="Каменец-Подольский"/>
    <tag k="name:sr" v="Каменица"/>
    <tag k="name:tr" v="Kamaniçe"/>
    <tag k="place" v="city"/>
    <tag k="population" v="102250"/>
  </node>
  <node id="268081167" version="3" timestamp="2008-06-23T18:58:33Z" uid="27600" user="Islanit" changeset="274556" lat="47.0129095" lon="15.4656618"/>
  <node id="268081173" version="3" timestamp="2008-06-23T18:58:32Z" uid="27600" user="Islanit" changeset="274556" lat="47.0025075" lon="15.4698147"/>
  <node id="268081175" version="3" timestamp="2008-06-23T18:58:32Z" uid="27600" user="Islanit" changeset="274556" lat="47.0123645" lon="15.4659627"/>
  <node id="268081176" version="3" timestamp="2008-06-23T18:58:32Z" uid="27600" user="Islanit" changeset="274556" lat="47.0109246" lon="15.4667236"/>
  <node id="268081178" version="3" timestamp="2008-06-23T18:58:32Z" uid="27600" user="Islanit" changeset="274556" lat="47.0076685" lon="15.4681807"/>
  <node id="268081189" version="3" timestamp="2008-06-23T18:58:33Z" uid="27600" user="Islanit" changeset="274556" lat="47.0117833" lon="15.4662163"/>
  <node id="268081468" version="2" timestamp="2008-07-06T20:05:21Z" uid="6975" user="ulfl" changeset="415781" lat="50.9479892" lon="6.9470965">
    <tag k="amenity" v="Corporate"/>
    <tag k="name" v="TIMETOACT Software &amp;amp; Consulting GmbH"/>
  </node>
  <node id="268081468" version="3" timestamp="2008-08-05T22:49:51Z" uid="16478" user="Raymond" changeset="86746" lat="50.9479892" lon="6.9470965">
    <tag k="amenity" v="Corporate"/>
    <tag k="name" v="TIMETOACT Software &amp; Consulting GmbH"/>
  </node>
  <node id="268081468" version="4" timestamp="2011-01-08T19:02:57Z" uid="16478" user="Raymond" changeset="6907520" lat="50.9480419" lon="6.9469932">
    <tag k="amenity" v="Corporate"/>
    <tag k="name" v="TIMETOACT Software &amp; Consulting GmbH"/>
  </node>
  <node id="268081468" version="5" timestamp="2011-02-24T20:22:56Z" uid="25451" user="BellHouse" changeset="7384951" lat="50.9480419" lon="6.9469932">
    <tag k="amenity" v="Corporate"/>
    <tag k="name" v="TIMETOACT Software &amp; Consulting GmbH"/>
  </node>
  <node id="268083219" version="2" timestamp="2009-08-20T10:35:34Z" uid="33382" user="de_muur" changeset="2210653" lat="53.6124828" lon="10.3397239"/>
  <node id="268083219" version="3" timestamp="2009-09-22T16:51:36Z" uid="4902" user="mbuege" changeset="2573641" lat="53.6124898" lon="10.3397259"/>
  <node id="268083219" version="4" timestamp="2009-10-19T16:28:58Z" uid="4902" user="mbuege" changeset="2895801" lat="53.6124789" lon="10.3397443"/>
  <node id="268083220" version="2" timestamp="2009-08-20T10:35:36Z" uid="33382" user="de_muur" changeset="2210653" lat="53.6132985" lon="10.3412717"/>
  <node id="268083220" version="3" timestamp="2009-09-22T16:51:38Z" uid="4902" user="mbuege" changeset="2573641" lat="53.6132137" lon="10.3411578"/>
  <node id="268083220" version="4" timestamp="2009-09-25T15:39:49Z" uid="33382" user="de_muur" changeset="2621799" lat="53.6132406" lon="10.3412655"/>
  <node id="268083262" version="3" timestamp="2009-08-20T10:35:36Z" uid="33382" user="de_muur" changeset="2210653" lat="53.6116233" lon="10.3382289"/>
  <node id="268083262" version="4" timestamp="2009-09-22T16:51:36Z" uid="4902" user="mbuege" changeset="2573641" lat="53.6115535" lon="10.3381729"/>
  <node id="268083262" version="5" timestamp="2011-05-29T17:09:29Z" uid="55462" user="Lübeck" changeset="8283359" lat="53.611572" lon="10.338229"/>
  <node id="268083319" version="3" timestamp="2009-08-20T10:35:34Z" uid="33382" user="de_muur" changeset="2210653" lat="53.6106795" lon="10.3370604"/>
  <node id="268083319" version="4" timestamp="2009-09-22T16:51:35Z" uid="4902" user="mbuege" changeset="2573641" lat="53.6106056" lon="10.3369837"/>
  <node id="268083355" version="2" timestamp="2010-12-24T23:14:19Z" uid="9581" user="Lobelt" changeset="6757933" lat="49.8280143" lon="10.0415642"/>
  <node id="268083703" version="3" timestamp="2009-08-20T10:35:36Z" uid="33382" user="de_muur" changeset="2210653" lat="53.6084747" lon="10.3365107"/>
  <node id="268083703" version="4" timestamp="2009-09-22T16:51:34Z" uid="4902" user="mbuege" changeset="2573641" lat="53.6084646" lon="10.3364903"/>
  <node id="268083703" version="5" timestamp="2009-09-25T15:39:50Z" uid="33382" user="de_muur" changeset="2621799" lat="53.6084589" lon="10.3365707"/>
  <node id="268083710" version="2" timestamp="2009-08-20T10:35:37Z" uid="33382" user="de_muur" changeset="2210653" lat="53.6070964" lon="10.336059"/>
  <node id="268083710" version="3" timestamp="2009-09-25T15:39:49Z" uid="33382" user="de_muur" changeset="2621799" lat="53.6070967" lon="10.3360917"/>
  <node id="268083924" version="2" timestamp="2009-08-20T10:35:35Z" uid="33382" user="de_muur" changeset="2210653" lat="53.6099861" lon="10.3368736"/>
  <node id="268083924" version="3" timestamp="2009-09-22T16:51:34Z" uid="4902" user="mbuege" changeset="2573641" lat="53.6099356" lon="10.3368192"/>
  <node id="268087419" version="3" timestamp="2009-09-01T20:53:29Z" uid="36809" user="pfoten_weg_!_" changeset="2343001" lat="47.8318056" lon="11.9055526"/>
  <node id="268087419" version="4" timestamp="2010-07-04T19:41:50Z" uid="42393" user="mawi42" changeset="5136505" lat="47.8317874" lon="11.9055528"/>
  <node id="268087419" version="5" timestamp="2010-07-04T19:55:38Z" uid="42393" user="mawi42" changeset="5136505" lat="47.831782" lon="11.9055555"/>
  <node id="268087420" version="3" timestamp="2009-09-01T20:53:30Z" uid="36809" user="pfoten_weg_!_" changeset="2343001" lat="47.8317422" lon="11.9054153"/>
  <node id="268087420" version="4" timestamp="2010-07-04T19:41:51Z" uid="42393" user="mawi42" changeset="5136505" lat="47.8317082" lon="11.9054401"/>
  <node id="268087421" version="3" timestamp="2009-09-01T20:53:30Z" uid="36809" user="pfoten_weg_!_" changeset="2343001" lat="47.8315636" lon="11.9051835"/>
  <node id="268087421" version="4" timestamp="2010-07-04T19:41:52Z" uid="42393" user="mawi42" changeset="5136505" lat="47.8315497" lon="11.9052256"/>
  <node id="268087422" version="3" timestamp="2009-09-01T20:53:30Z" uid="36809" user="pfoten_weg_!_" changeset="2343001" lat="47.8313619" lon="11.9041536"/>
  <node id="268087423" version="3" timestamp="2009-09-01T20:53:30Z" uid="36809" user="pfoten_weg_!_" changeset="2343001" lat="47.8314023" lon="11.9040077"/>
  <node id="268087424" version="4" timestamp="2009-09-01T20:53:44Z" uid="36809" user="pfoten_weg_!_" changeset="2343001" lat="47.8314829" lon="11.9038617"/>
  <node id="268087425" version="4" timestamp="2009-09-01T20:53:45Z" uid="36809" user="pfoten_weg_!_" changeset="2343001" lat="47.8314772" lon="11.9037073"/>
  <node id="268087426" version="4" timestamp="2009-09-01T20:53:44Z" uid="36809" user="pfoten_weg_!_" changeset="2343001" lat="47.8314023" lon="11.90363"/>
  <node id="268087432" version="3" timestamp="2009-09-01T20:53:45Z" uid="36809" user="pfoten_weg_!_" changeset="2343001" lat="47.8311487" lon="11.9009778"/>
  <node id="268087432" version="4" timestamp="2010-07-04T16:25:08Z" uid="42393" user="mawi42" changeset="5134157" lat="47.8311624" lon="11.9010512"/>
  <node id="268087435" version="3" timestamp="2009-09-01T20:53:45Z" uid="36809" user="pfoten_weg_!_" changeset="2343001" lat="47.8313331" lon="11.9037244"/>
  <node id="268087650" version="3" timestamp="2008-07-06T20:00:18Z" uid="6975" user="ulfl" changeset="415781" lat="51.4350596" lon="-0.5113121">
    <tag k="amenity" v="post_box"/>
    <tag k="ref" v="TW18 534"/>
  </node>
  <node id="268087650" version="4" timestamp="2009-03-13T17:08:27Z" uid="3937" user="southglos" changeset="800306" lat="51.4350596" lon="-0.5113121">
    <tag k="amenity" v="post_box"/>
    <tag k="postal_code" v="TW18"/>
    <tag k="ref" v="TW18 534"/>
  </node>
  <node id="268087988" version="2" timestamp="2008-12-13T19:40:42Z" uid="1066" user="pavel" changeset="351994" lat="50.3496892" lon="14.4739133"/>
  <node id="268087989" version="2" timestamp="2008-12-13T19:40:39Z" uid="1066" user="pavel" changeset="351994" lat="50.3495468" lon="14.4741798"/>
  <node id="268087993" version="2" timestamp="2008-12-13T19:40:40Z" uid="1066" user="pavel" changeset="351994" lat="50.349575" lon="14.4744909"/>
  <node id="268087997" version="2" timestamp="2008-12-13T19:40:36Z" uid="1066" user="pavel" changeset="351994" lat="50.3496701" lon="14.4743148"/>
  <node id="268088036" version="2" timestamp="2008-10-04T13:15:45Z" uid="57673" user="Olaf Jan Schmidt" changeset="56209" lat="50.703153" lon="7.1196897"/>
  <node id="268088036" version="3" timestamp="2008-12-30T15:43:50Z" uid="49785" user="mike67" changeset="676138" lat="50.703153" lon="7.1196897"/>
  <node id="268088036" version="4" timestamp="2008-12-30T15:45:31Z" uid="49785" user="mike67" changeset="676138" lat="50.703153" lon="7.1196897"/>
  <node id="268088036" version="5" timestamp="2011-08-28T19:24:29Z" uid="55687" user="dschuwa" changeset="9150850" lat="50.7031438" lon="7.1197114"/>
  <node id="268088036" version="6" timestamp="2011-08-28T19:28:37Z" uid="55687" user="dschuwa" changeset="9150887" lat="50.7031438" lon="7.1197114"/>
  <node id="268088062" version="1" timestamp="2008-06-02T18:42:31Z" uid="16922" user="amai" changeset="21390" lat="49.0119302" lon="8.4314762"/>
  <node id="268088062" version="2" timestamp="2011-02-08T21:52:35Z" uid="6269" user="Mueck" changeset="7231329" lat="49.0119286" lon="8.431462"/>
  <node id="268088062" version="3" timestamp="2011-10-25T11:56:48Z" uid="442210" user="dwausr" changeset="9651465" lat="49.0119286" lon="8.431462"/>
  <node id="268088185" version="2" timestamp="2008-08-21T23:17:51Z" uid="36809" user="pfoten_weg_!_" changeset="363581" lat="48.0975869" lon="11.5271903">
    <tag k="created_by" v="RambaZamba"/>
  </node>
  <node id="268088185" version="3" timestamp="2008-09-13T12:44:34Z" uid="36809" user="pfoten_weg_!_" changeset="620497" lat="48.097587" lon="11.5271908">
    <tag k="created_by" v="RambaZamba"/>
  </node>
  <node id="268088185" version="4" timestamp="2008-09-20T03:38:43Z" uid="36809" user="pfoten_weg_!_" changeset="670006" lat="48.097587" lon="11.5271909">
    <tag k="created_by" v="RambaZamba"/>
  </node>
  <node id="268088185" version="5" timestamp="2008-09-21T21:14:54Z" uid="36809" user="pfoten_weg_!_" changeset="676192" lat="48.097587" lon="11.5271909">
    <tag k="created_by" v="RambaZamba"/>
    <tag k="source" v="survey"/>
  </node>
  <node id="268088185" version="6" timestamp="2008-10-01T01:12:04Z" uid="36809" user="pfoten_weg_!_" changeset="5644" lat="48.097587" lon="11.5271909">
    <tag k="created_by" v="RambaZamba"/>
    <tag k="source" v="survey"/>
  </node>
  <node id="268088185" version="7" timestamp="2009-04-02T15:11:30Z" uid="5164" user="woodpeck" changeset="94633" lat="48.0975869" lon="11.5271903">
    <tag k="created_by" v="JOSM"/>
  </node>
  <node id="268088185" version="8" timestamp="2009-06-08T11:59:02Z" uid="132988" user="ich-liebe-euch" changeset="1457959" lat="48.0975869" lon="11.5271903"/>
  <node id="268088185" version="9" timestamp="2009-06-09T08:56:55Z" uid="36809" user="pfoten_weg_!_" changeset="1466365" lat="48.0975869" lon="11.5271903">
    <tag k="created_by" v="RambaZamba"/>
  </node>
  <node id="268088185" version="10" timestamp="2009-08-12T12:43:36Z" uid="156995" user="HampelZamba" changeset="2118306" lat="48.0975869" lon="11.5271903"/>
  <node id="268088185" version="11" timestamp="2009-08-26T09:20:37Z" uid="36809" user="pfoten_weg_!_" changeset="2265170" lat="48.0975869" lon="11.5271903"/>
  <node id="268088539" version="3" timestamp="2009-08-26T19:14:36Z" uid="36809" user="pfoten_weg_!_" changeset="2270948" lat="47.8612187" lon="11.8484976"/>
  <node id="268088540" version="3" timestamp="2009-08-26T19:14:55Z" uid="36809" user="pfoten_weg_!_" changeset="2270948" lat="47.8618291" lon="11.8475964"/>
  <node id="268088541" version="3" timestamp="2009-08-26T19:14:55Z" uid="36809" user="pfoten_weg_!_" changeset="2270948" lat="47.8619731" lon="11.8472617"/>
  <node id="268088542" version="4" timestamp="2009-08-26T19:14:39Z" uid="36809" user="pfoten_weg_!_" changeset="2270948" lat="47.8620307" lon="11.8469012"/>
  <node id="268088544" version="3" timestamp="2009-08-26T19:14:31Z" uid="36809" user="pfoten_weg_!_" changeset="2270948" lat="47.8619846" lon="11.8465836"/>
  <node id="268088545" version="3" timestamp="2009-08-26T19:14:32Z" uid="36809" user="pfoten_weg_!_" changeset="2270948" lat="47.861927" lon="11.846369"/>
  <node id="268088546" version="3" timestamp="2009-08-26T19:14:34Z" uid="36809" user="pfoten_weg_!_" changeset="2270948" lat="47.861236" lon="11.845691"/>
  <node id="268088548" version="3" timestamp="2009-08-26T19:14:34Z" uid="36809" user="pfoten_weg_!_" changeset="2270948" lat="47.8610459" lon="11.845442"/>
  <node id="268088549" version="3" timestamp="2009-08-26T19:14:35Z" uid="36809" user="pfoten_weg_!_" changeset="2270948" lat="47.8610517" lon="11.8451588"/>
  <node id="268088549" version="4" timestamp="2012-01-04T14:39:37Z" uid="42393" user="mawi42" changeset="10291545" lat="47.8610501" lon="11.8451195"/>
  <node id="268088568" version="7" timestamp="2009-08-26T18:40:26Z" uid="36809" user="pfoten_weg_!_" changeset="2270662" lat="47.8565769" lon="11.8419712"/>
  <node id="268088568" version="8" timestamp="2011-01-18T22:50:38Z" uid="42393" user="mawi42" changeset="7015805" lat="47.856539" lon="11.8419772"/>
  <node id="268088568" version="9" timestamp="2012-01-05T17:26:03Z" uid="13832" user="Peter14" changeset="10303260" lat="47.8565378" lon="11.8419781"/>
  <node id="268088571" version="4" timestamp="2009-08-26T19:14:29Z" uid="36809" user="pfoten_weg_!_" changeset="2270948" lat="47.8616851" lon="11.845957"/>
  <node id="268088581" version="3" timestamp="2009-08-26T19:12:57Z" uid="36809" user="pfoten_weg_!_" changeset="2270948" lat="47.8615354" lon="11.8457167"/>
  <node id="268088587" version="3" timestamp="2009-08-26T19:12:57Z" uid="36809" user="pfoten_weg_!_" changeset="2270948" lat="47.8614663" lon="11.8459656"/>
  <node id="268088593" version="3" timestamp="2009-08-26T19:12:59Z" uid="36809" user="pfoten_weg_!_" changeset="2270948" lat="47.8613684" lon="11.8456223"/>
  <node id="268088598" version="3" timestamp="2009-08-26T19:12:58Z" uid="36809" user="pfoten_weg_!_" changeset="2270948" lat="47.8612993" lon="11.8459055"/>
  <node id="268089098" version="2" timestamp="2008-07-09T23:55:42Z" uid="6975" user="ulfl" changeset="448234" lat="52.3332726" lon="9.7628463">
    <tag k="shop" v="bakery"/>
  </node>
  <node id="268089098" version="3" timestamp="2009-11-29T17:35:52Z" uid="41158" user="flup" changeset="3248219" lat="52.3331991" lon="9.7627238">
    <tag k="name" v="Bäcker"/>
    <tag k="shop" v="bakery"/>
  </node>
  <node id="268089098" version="4" timestamp="2009-11-29T22:30:47Z" uid="41158" user="flup" changeset="3251458" lat="52.3331775" lon="9.7626578">
    <tag k="name" v="Bäcker"/>
    <tag k="shop" v="bakery"/>
  </node>
  <node id="268089098" version="5" timestamp="2011-02-09T14:39:44Z" uid="366556" user="iceman96" changeset="7236626" lat="52.3331775" lon="9.7626578">
    <tag k="name" v="Bäcker"/>
    <tag k="shop" v="bakery"/>
  </node>
  <node id="268089181" version="5" timestamp="2011-05-05T19:00:00Z" uid="115477" user="wowik" changeset="8059952" lat="55.6866054" lon="37.8314558"/>
  <node id="268089181" version="6" timestamp="2011-12-29T22:32:29Z" uid="574379" user="Lexx-R" changeset="10239356" lat="55.686634" lon="37.8315461"/>
  <node id="268089345" version="4" timestamp="2011-05-05T19:00:04Z" uid="115477" user="wowik" changeset="8059952" lat="55.6872934" lon="37.829745"/>
  <node id="268089345" version="5" timestamp="2011-12-29T22:32:29Z" uid="574379" user="Lexx-R" changeset="10239356" lat="55.6873229" lon="37.8298067"/>
  <node id="268089755" version="3" timestamp="2008-08-21T23:17:09Z" uid="36809" user="pfoten_weg_!_" changeset="363581" lat="48.0918819" lon="11.4919582">
    <tag k="created_by" v="RambaZamba"/>
  </node>
  <node id="268089755" version="4" timestamp="2008-09-13T12:42:02Z" uid="36809" user="pfoten_weg_!_" changeset="620497" lat="48.091882" lon="11.4919587">
    <tag k="created_by" v="RambaZamba"/>
  </node>
  <node id="268089755" version="5" timestamp="2008-09-20T03:35:57Z" uid="36809" user="pfoten_weg_!_" changeset="670006" lat="48.091882" lon="11.4919588">
    <tag k="created_by" v="RambaZamba"/>
  </node>
  <node id="268089755" version="6" timestamp="2008-10-01T01:08:50Z" uid="36809" user="pfoten_weg_!_" changeset="5644" lat="48.091882" lon="11.4919588">
    <tag k="created_by" v="RambaZamba"/>
  </node>
  <node id="268089755" version="7" timestamp="2009-02-15T12:39:18Z" uid="36809" user="pfoten_weg_!_" changeset="463903" lat="48.091882" lon="11.4919588">
    <tag k="created_by" v="RambaZamba"/>
    <tag k="source" v="survey"/>
  </node>
  <node id="268089755" version="8" timestamp="2009-04-03T01:33:02Z" uid="5164" user="woodpeck" changeset="150055" lat="48.0918819" lon="11.4919582">
    <tag k="created_by" v="JOSM"/>
  </node>
  <node id="268089755" version="9" timestamp="2009-06-08T11:58:40Z" uid="132988" user="ich-liebe-euch" changeset="1457959" lat="48.0918819" lon="11.4919582"/>
  <node id="268089755" version="10" timestamp="2009-06-09T08:56:52Z" uid="36809" user="pfoten_weg_!_" changeset="1466365" lat="48.0918819" lon="11.4919582">
    <tag k="created_by" v="RambaZamba"/>
  </node>
  <node id="268089755" version="11" timestamp="2009-06-12T20:31:11Z" uid="36809" user="pfoten_weg_!_" changeset="1500134" lat="48.0918819" lon="11.4919582">
    <tag k="created_by" v="RambaZamba"/>
    <tag k="source" v="survey"/>
  </node>
  <node id="268089755" version="12" timestamp="2009-08-12T12:43:36Z" uid="156995" user="HampelZamba" changeset="2118306" lat="48.0918819" lon="11.4919582">
    <tag k="source" v="survey"/>
  </node>
  <node id="268089755" version="13" timestamp="2009-08-26T09:18:20Z" uid="36809" user="pfoten_weg_!_" changeset="2265170" lat="48.0918819" lon="11.4919582">
    <tag k="source" v="survey"/>
  </node>
  <node id="268089755" version="14" timestamp="2009-10-02T17:43:56Z" uid="86259" user="hasse_osm_korinthenkacker" changeset="2715119" lat="48.0918819" lon="11.4919582"/>
  <node id="268089756" version="1" timestamp="2008-06-02T18:50:53Z" uid="8748" user="ToniE" changeset="22429" lat="48.0918408" lon="11.4920539">
    <tag k="created_by" v="JOSM"/>
  </node>
  <node id="268089756" version="2" timestamp="2008-06-04T22:55:27Z" uid="36809" user="pfoten_weg_!_" changeset="53742" lat="48.0918392" lon="11.492056">
    <tag k="created_by" v="JOSM"/>
  </node>
  <node id="268089756" version="3" timestamp="2008-06-23T14:03:16Z" uid="37850" user="mawis" changeset="272053" lat="48.0919507" lon="11.4922217">
    <tag k="created_by" v="JOSM"/>
  </node>
  <node id="268089756" version="4" timestamp="2008-07-16T08:48:55Z" uid="36809" user="pfoten_weg_!_" changeset="503265" lat="48.091912" lon="11.4921636">
    <tag k="created_by" v="JOSM"/>
  </node>
  <node id="268089756" version="5" timestamp="2008-09-20T03:35:57Z" uid="36809" user="pfoten_weg_!_" changeset="670006" lat="48.091912" lon="11.4921637">
    <tag k="created_by" v="RambaZamba"/>
  </node>
  <node id="268089756" version="6" timestamp="2008-10-01T01:08:48Z" uid="36809" user="pfoten_weg_!_" changeset="5644" lat="48.091912" lon="11.4921637">
    <tag k="created_by" v="RambaZamba"/>
  </node>
  <node id="268089756" version="7" timestamp="2009-02-15T12:39:18Z" uid="36809" user="pfoten_weg_!_" changeset="463903" lat="48.091912" lon="11.4921637">
    <tag k="created_by" v="RambaZamba"/>
    <tag k="source" v="survey"/>
  </node>
  <node id="268089756" version="8" timestamp="2009-08-12T12:43:36Z" uid="156995" user="HampelZamba" changeset="2118306" lat="48.091912" lon="11.4921637">
    <tag k="source" v="survey"/>
  </node>
  <node id="268089756" version="9" timestamp="2009-08-26T09:18:20Z" uid="36809" user="pfoten_weg_!_" changeset="2265170" lat="48.091912" lon="11.4921637">
    <tag k="source" v="survey"/>
  </node>
  <node id="268089756" version="10" timestamp="2009-10-02T17:43:57Z" uid="86259" user="hasse_osm_korinthenkacker" changeset="2715119" lat="48.091912" lon="11.4921637"/>
  <node id="268089756" version="11" timestamp="2012-02-11T23:21:03Z" uid="13832" user="Peter14" changeset="10658633" lat="48.091912" lon="11.4921637"/>
</osm>
