<?xml version='1.0' encoding='UTF-8'?>
<osm version="0.6" generator="libosmium/2.20.0">
  <node id="269571065" version="2" timestamp="2008-07-03T17:35:17Z" uid="6975" user="ulfl" changeset="379368" lat="51.9418806" lon="7.148909">
    <tag k="name" v="Mazda"/>
    <tag k="operator" v="Michels"/>
    <tag k="shop" v="car"/>
  </node>
  <node id="269571065" version="3" timestamp="2010-12-17T19:57:09Z" uid="62614" user="Fam-Os" changeset="6690096" lat="51.9419934" lon="7.1488422">
    <tag k="name" v="Mazda"/>
    <tag k="operator" v="Michels"/>
    <tag k="shop" v="car"/>
  </node>
  <node id="269571235" version="2" timestamp="2010-07-29T09:13:34Z" uid="74617" user="JohnSmith" changeset="5344848" lat="48.7764455" lon="9.2484665">
    <tag k="amenity" v="emergency_phone"/>
    <tag k="emergency" v="phone"/>
  </node>
  <node id="269573517" version="2" timestamp="2008-07-09T23:56:00Z" uid="6975" user="ulfl" changeset="448234" lat="50.9004835" lon="10.4779863">
    <tag k="name" v="Bäckerei Stiebling"/>
    <tag k="shop" v="bakery"/>
  </node>
  <node id="269574088" version="3" timestamp="2009-10-01T16:10:26Z" uid="86259" user="hasse_osm_korinthenkacker" changeset="2702067" lat="47.5616568" lon="11.1596411"/>
  <node id="269574088" version="4" timestamp="2010-12-10T14:07:32Z" uid="28519" user="Glücki" changeset="6605157" lat="47.564289" lon="11.1563656"/>
  <node id="269574088" version="5" timestamp="2010-12-18T20:51:17Z" uid="15035" user="grungelborz" changeset="6700336" lat="47.5620685" lon="11.1593492"/>
  <node id="269575568" version="4" timestamp="2008-10-23T15:54:16Z" uid="6975" user="ulfl" changeset="530870" lat="54.5842557" lon="13.1023969">
    <tag k="amenity" v="toilets"/>
  </node>
  <node id="269575568" version="5" timestamp="2010-08-01T09:57:24Z" uid="70400" user="Schwedenhagen" changeset="5369307" lat="54.5841672" lon="13.1024394">
    <tag k="amenity" v="toilets"/>
  </node>
  <node id="269575568" version="6" timestamp="2010-08-17T09:17:58Z" uid="212207" user="SunCobalt" changeset="5515835" lat="54.5841672" lon="13.1024394">
    <tag k="amenity" v="toilets"/>
  </node>
  <node id="269575747" version="4" timestamp="2010-08-24T19:11:59Z" uid="9581" user="Lobelt" changeset="5582938" lat="49.218882" lon="8.6464603"/>
  <node id="269575757" version="6" timestamp="2010-08-24T19:11:16Z" uid="9581" user="Lobelt" changeset="5582938" lat="49.220269" lon="8.6455735"/>
  <node id="269575757" version="7" timestamp="2011-05-08T17:04:11Z" uid="178277" user="klappermann" changeset="8084707" lat="49.2202905" lon="8.6455701"/>
  <node id="269575761" version="7" timestamp="2010-08-24T19:11:12Z" uid="9581" user="Lobelt" changeset="5582938" lat="49.220258" lon="8.6467951"/>
  <node id="269575761" version="8" timestamp="2011-05-08T17:04:10Z" uid="178277" user="klappermann" changeset="8084707" lat="49.220336" lon="8.6467605"/>
  <node id="269576757" version="2" timestamp="2008-09-14T20:00:33Z" uid="6975" user="ulfl" changeset="640534" lat="54.5649438" lon="13.1033818">
    <tag k="amenity" v="bank"/>
    <tag k="atm" v="yes"/>
    <tag k="name" v="Sparkasse"/>
  </node>
  <node id="269576757" version="3" timestamp="2009-05-18T13:57:39Z" uid="42938" user="Xanadu" changeset="1237442" lat="54.5649438" lon="13.1033818">
    <tag k="amenity" v="bank"/>
    <tag k="atm" v="yes"/>
    <tag k="name" v="Sparkasse"/>
    <tag k="operator" v="Sparkasse"/>
  </node>
  <node id="269576757" version="4" timestamp="2009-06-07T08:33:41Z" uid="94327" user="YvonneBentele" changeset="1445594" lat="54.5649438" lon="13.1033818">
    <tag k="addr:city" v="Vitte"/>
    <tag k="addr:country" v="DE"/>
    <tag k="addr:housename" v="Sparkasse"/>
    <tag k="addr:housenumber" v="59"/>
    <tag k="addr:postcode" v="18565"/>
    <tag k="addr:street" v="Süderende"/>
    <tag k="amenity" v="bank"/>
    <tag k="atm" v="yes"/>
    <tag k="name" v="Sparkasse"/>
    <tag k="operator" v="Sparkasse Rügen"/>
  </node>
  <node id="269576757" version="5" timestamp="2010-07-25T07:45:28Z" uid="212207" user="SunCobalt" changeset="5309467" lat="54.5649438" lon="13.1033818">
    <tag k="addr:city" v="Vitte"/>
    <tag k="addr:country" v="DE"/>
    <tag k="addr:housename" v="Sparkasse"/>
    <tag k="addr:housenumber" v="59"/>
    <tag k="addr:postcode" v="18565"/>
    <tag k="addr:street" v="Süderende"/>
    <tag k="amenity" v="bank"/>
    <tag k="atm" v="yes"/>
    <tag k="name" v="Sparkasse"/>
    <tag k="operator" v="Sparkasse Rügen"/>
  </node>
  <node id="269577088" version="3" timestamp="2009-11-28T01:20:12Z" uid="9581" user="Lobelt" changeset="3233101" lat="50.8930698" lon="10.6972223"/>
  <node id="269577956" version="3" timestamp="2008-10-23T15:54:16Z" uid="6975" user="ulfl" changeset="530870" lat="54.5847055" lon="13.1126052">
    <tag k="amenity" v="toilets"/>
  </node>
  <node id="269577956" version="4" timestamp="2010-07-31T20:47:09Z" uid="70400" user="Schwedenhagen" changeset="5365853" lat="54.5847526" lon="13.1125019">
    <tag k="amenity" v="toilets"/>
  </node>
  <node id="269579765" version="2" timestamp="2008-06-20T17:45:26Z" uid="27600" user="Islanit" changeset="233682" lat="51.7701044" lon="9.4154316">
    <tag k="created_by" v="JOSM"/>
  </node>
  <node id="269579768" version="2" timestamp="2008-06-20T17:45:25Z" uid="27600" user="Islanit" changeset="233682" lat="51.7693076" lon="9.4131785">
    <tag k="created_by" v="JOSM"/>
  </node>
  <node id="269579774" version="2" timestamp="2008-06-20T17:45:25Z" uid="27600" user="Islanit" changeset="233682" lat="51.7736648" lon="9.418274">
    <tag k="created_by" v="JOSM"/>
  </node>
  <node id="269579779" version="2" timestamp="2008-06-20T17:45:28Z" uid="27600" user="Islanit" changeset="233682" lat="51.7741973" lon="9.4172011">
    <tag k="created_by" v="JOSM"/>
  </node>
</osm>
