<?xml version='1.0' encoding='UTF-8'?>
<osm version="0.6" generator="libosmium/2.20.0">
  <node id="269710005" version="2" timestamp="2008-08-15T00:05:12Z" uid="6975" user="ulfl" changeset="264731" lat="51.3898398" lon="-0.2925576">
    <tag k="amenity" v="place_of_worship"/>
    <tag k="denomination" v="church_of_england"/>
    <tag k="name" v="Christchurch"/>
    <tag k="religion" v="christian"/>
  </node>
  <node id="269710005" version="3" timestamp="2008-10-19T10:40:10Z" uid="57618" user="Ben_C" changeset="453717" lat="51.3898398" lon="-0.2925576">
    <tag k="amenity" v="place_of_worship"/>
    <tag k="denomination" v="church_of_england"/>
    <tag k="name" v="Christchurch"/>
    <tag k="religion" v="christian"/>
  </node>
  <node id="269710035" version="2" timestamp="2008-07-14T02:46:28Z" uid="20587" user="balrog-kun" changeset="484620" lat="41.041972" lon="28.9973893"/>
  <node id="269710036" version="2" timestamp="2008-07-14T02:46:28Z" uid="20587" user="balrog-kun" changeset="484620" lat="41.0421533" lon="28.997252"/>
  <node id="269710113" version="3" timestamp="2010-08-05T17:46:50Z" uid="107674" user="GeoCounter" changeset="5410348" lat="50.0747856" lon="8.8062028">
    <tag k="amenity" v="biergarten"/>
    <tag k="created_by" v="Potlatch 0.9c"/>
    <tag k="name" v="Zur Lokomotive"/>
  </node>
  <node id="269710136" version="8" timestamp="2009-03-21T08:13:49Z" uid="12188" user="Babis" changeset="838444" lat="37.8575383" lon="23.7649535"/>
  <node id="269710136" version="9" timestamp="2009-03-21T08:15:19Z" uid="12188" user="Babis" changeset="838444" lat="37.8575383" lon="23.7649535"/>
  <node id="269710136" version="10" timestamp="2009-04-02T20:09:59Z" uid="108277" user="FireGate_13" changeset="91717" lat="37.8575383" lon="23.7649535"/>
  <node id="269710136" version="11" timestamp="2009-04-10T14:58:42Z" uid="12188" user="Babis" changeset="382144" lat="37.8575383" lon="23.7649535"/>
  <node id="269710136" version="12" timestamp="2009-04-10T15:02:46Z" uid="12188" user="Babis" changeset="382144" lat="37.8575383" lon="23.7649535"/>
  <node id="269710308" version="5" timestamp="2010-07-15T18:05:12Z" uid="107674" user="GeoCounter" changeset="5228733" lat="50.0595644" lon="8.8133133">
    <tag k="addr:city" v="Heusenstamm"/>
    <tag k="addr:country" v="DE"/>
    <tag k="addr:housenumber" v="8"/>
    <tag k="addr:postcode" v="63150"/>
    <tag k="addr:street" v="Rembrücker Straße"/>
    <tag k="amenity" v="recycling"/>
    <tag k="contact:phone" v="+49 6104 80244-0"/>
    <tag k="name" v="Bauhof und Wertstoffhof"/>
    <tag k="opening_hours" v="Mo-We 07:30-12:00,13:00-15:30; Th 07:30-12:00,13:00-18:00; Fr 07:30-11:30; Sa 09:00-11:00"/>
    <tag k="recycling:aluminium" v="yes"/>
    <tag k="recycling:asbestos" v="no"/>
    <tag k="recycling:batteries" v="yes"/>
    <tag k="recycling:cardboard" v="yes"/>
    <tag k="recycling:clothes" v="no"/>
    <tag k="recycling:cork" v="yes"/>
    <tag k="recycling:discs" v="yes"/>
    <tag k="recycling:green_waste" v="no"/>
    <tag k="recycling:hardcode" v="yes"/>
    <tag k="recycling:printer_cartridges" v="yes"/>
    <tag k="recycling:scrap_metal" v="yes"/>
    <tag k="recycling:shoes" v="no"/>
    <tag k="recycling:waste_oil" v="no"/>
    <tag k="recycling:white_goods" v="yes"/>
    <tag k="recycling:wood" v="yes"/>
  </node>
  <node id="269710308" version="6" timestamp="2010-11-14T00:57:51Z" uid="107674" user="GeoCounter" changeset="6363369" lat="50.0595644" lon="8.8133133">
    <tag k="addr:city" v="Heusenstamm"/>
    <tag k="addr:country" v="DE"/>
    <tag k="addr:housenumber" v="8"/>
    <tag k="addr:postcode" v="63150"/>
    <tag k="addr:street" v="Rembrücker Straße"/>
    <tag k="amenity" v="recycling"/>
    <tag k="contact:phone" v="+49 6104 80244-0"/>
    <tag k="contact:website" v="http://www.stadt-heusenstamm.de/RathausundStadtverwaltung/BauhofundWertstoffhof/tabid/469/Default.aspx"/>
    <tag k="name" v="Bauhof und Wertstoffhof"/>
    <tag k="opening_hours" v="Mo-We 07:30-12:00,13:00-15:30; Th 07:30-12:00,13:00-18:00; Fr 07:30-11:30; Sa 09:00-11:00"/>
    <tag k="recycling:aluminium" v="yes"/>
    <tag k="recycling:asbestos" v="no"/>
    <tag k="recycling:batteries" v="yes"/>
    <tag k="recycling:cardboard" v="yes"/>
    <tag k="recycling:clothes" v="no"/>
    <tag k="recycling:cork" v="yes"/>
    <tag k="recycling:discs" v="yes"/>
    <tag k="recycling:green_waste" v="no"/>
    <tag k="recycling:hardcode" v="yes"/>
    <tag k="recycling:printer_cartridges" v="yes"/>
    <tag k="recycling:scrap_metal" v="yes"/>
    <tag k="recycling:shoes" v="no"/>
    <tag k="recycling:waste_oil" v="no"/>
    <tag k="recycling:white_goods" v="yes"/>
    <tag k="recycling:wood" v="yes"/>
  </node>
  <node id="269710308" version="7" timestamp="2010-12-14T19:17:22Z" uid="107674" user="GeoCounter" changeset="6661427" lat="50.0593937" lon="8.8128752">
    <tag k="addr:city" v="Heusenstamm"/>
    <tag k="addr:country" v="DE"/>
    <tag k="addr:housenumber" v="8"/>
    <tag k="addr:postcode" v="63150"/>
    <tag k="addr:street" v="Rembrücker Straße"/>
    <tag k="amenity" v="recycling"/>
    <tag k="contact:phone" v="+49 6104 80244-0"/>
    <tag k="contact:website" v="http://www.stadt-heusenstamm.de/RathausundStadtverwaltung/BauhofundWertstoffhof/tabid/469/Default.aspx"/>
    <tag k="name" v="Bauhof und Wertstoffhof"/>
    <tag k="opening_hours" v="Mo-We 07:30-12:00,13:00-15:30; Th 07:30-12:00,13:00-18:00; Fr 07:30-11:30; Sa 09:00-11:00"/>
    <tag k="recycling:aluminium" v="yes"/>
    <tag k="recycling:asbestos" v="no"/>
    <tag k="recycling:batteries" v="yes"/>
    <tag k="recycling:cardboard" v="yes"/>
    <tag k="recycling:clothes" v="no"/>
    <tag k="recycling:cork" v="yes"/>
    <tag k="recycling:discs" v="yes"/>
    <tag k="recycling:green_waste" v="no"/>
    <tag k="recycling:hardcode" v="yes"/>
    <tag k="recycling:printer_cartridges" v="yes"/>
    <tag k="recycling:scrap_metal" v="yes"/>
    <tag k="recycling:shoes" v="no"/>
    <tag k="recycling:waste_oil" v="no"/>
    <tag k="recycling:white_goods" v="yes"/>
    <tag k="recycling:wood" v="yes"/>
  </node>
  <node id="269710308" version="8" timestamp="2011-06-17T15:27:16Z" uid="107674" user="GeoCounter" changeset="8465865" lat="50.0595562" lon="8.8130546">
    <tag k="addr:city" v="Heusenstamm"/>
    <tag k="addr:country" v="DE"/>
    <tag k="addr:housenumber" v="8"/>
    <tag k="addr:postcode" v="63150"/>
    <tag k="addr:street" v="Rembrücker Straße"/>
    <tag k="amenity" v="recycling"/>
    <tag k="contact:phone" v="+49 6104 80244-0"/>
    <tag k="contact:website" v="http://www.stadt-heusenstamm.de/RathausundStadtverwaltung/BauhofundWertstoffhof/tabid/469/Default.aspx"/>
    <tag k="name" v="Bauhof und Wertstoffhof"/>
    <tag k="opening_hours" v="Mo-We 07:30-12:00,13:00-15:30; Th 07:30-12:00,13:00-18:00; Fr 07:30-11:30; Sa 09:00-11:00"/>
    <tag k="recycling:aluminium" v="yes"/>
    <tag k="recycling:asbestos" v="no"/>
    <tag k="recycling:batteries" v="yes"/>
    <tag k="recycling:cardboard" v="yes"/>
    <tag k="recycling:clothes" v="no"/>
    <tag k="recycling:cork" v="yes"/>
    <tag k="recycling:discs" v="yes"/>
    <tag k="recycling:green_waste" v="no"/>
    <tag k="recycling:hardcode" v="yes"/>
    <tag k="recycling:printer_cartridges" v="yes"/>
    <tag k="recycling:scrap_metal" v="yes"/>
    <tag k="recycling:shoes" v="no"/>
    <tag k="recycling:waste_oil" v="no"/>
    <tag k="recycling:white_goods" v="yes"/>
    <tag k="recycling:wood" v="yes"/>
  </node>
  <node id="269710308" version="9" timestamp="2011-06-17T18:33:31Z" uid="107674" user="GeoCounter" changeset="8467212" lat="50.0595759" lon="8.8130291">
    <tag k="addr:city" v="Heusenstamm"/>
    <tag k="addr:country" v="DE"/>
    <tag k="addr:housenumber" v="8"/>
    <tag k="addr:postcode" v="63150"/>
    <tag k="addr:street" v="Rembrücker Straße"/>
    <tag k="amenity" v="recycling"/>
    <tag k="contact:phone" v="+49 6104 80244-0"/>
    <tag k="contact:website" v="http://www.stadt-heusenstamm.de/RathausundStadtverwaltung/BauhofundWertstoffhof/tabid/469/Default.aspx"/>
    <tag k="name" v="Bauhof und Wertstoffhof"/>
    <tag k="opening_hours" v="Mo-We 07:30-12:00,13:00-15:30; Th 07:30-12:00,13:00-18:00; Fr 07:30-11:30; Sa 09:00-11:00"/>
    <tag k="recycling:aluminium" v="yes"/>
    <tag k="recycling:asbestos" v="no"/>
    <tag k="recycling:batteries" v="yes"/>
    <tag k="recycling:cardboard" v="yes"/>
    <tag k="recycling:clothes" v="no"/>
    <tag k="recycling:cork" v="yes"/>
    <tag k="recycling:discs" v="yes"/>
    <tag k="recycling:green_waste" v="no"/>
    <tag k="recycling:hardcode" v="yes"/>
    <tag k="recycling:printer_cartridges" v="yes"/>
    <tag k="recycling:scrap_metal" v="yes"/>
    <tag k="recycling:shoes" v="no"/>
    <tag k="recycling:waste_oil" v="no"/>
    <tag k="recycling:white_goods" v="yes"/>
    <tag k="recycling:wood" v="yes"/>
  </node>
  <node id="269710308" version="10" timestamp="2012-01-03T12:07:48Z" uid="91490" user="Heinz_V" changeset="10280528" lat="50.0595759" lon="8.8130291">
    <tag k="addr:city" v="Heusenstamm"/>
    <tag k="addr:country" v="DE"/>
    <tag k="addr:housenumber" v="8"/>
    <tag k="addr:postcode" v="63150"/>
    <tag k="addr:street" v="Rembrücker Straße"/>
    <tag k="amenity" v="recycling"/>
    <tag k="contact:phone" v="+49 6104 80244-0"/>
    <tag k="contact:website" v="http://www.stadt-heusenstamm.de/RathausundStadtverwaltung/BauhofundWertstoffhof/tabid/469/Default.aspx"/>
    <tag k="name" v="Bauhof und Wertstoffhof"/>
    <tag k="odbl" v="clean"/>
    <tag k="opening_hours" v="Mo-We 07:30-12:00,13:00-15:30; Th 07:30-12:00,13:00-18:00; Fr 07:30-11:30; Sa 09:00-11:00"/>
    <tag k="recycling:aluminium" v="yes"/>
    <tag k="recycling:asbestos" v="no"/>
    <tag k="recycling:batteries" v="yes"/>
    <tag k="recycling:cardboard" v="yes"/>
    <tag k="recycling:clothes" v="no"/>
    <tag k="recycling:cork" v="yes"/>
    <tag k="recycling:discs" v="yes"/>
    <tag k="recycling:green_waste" v="no"/>
    <tag k="recycling:hardcode" v="yes"/>
    <tag k="recycling:printer_cartridges" v="yes"/>
    <tag k="recycling:scrap_metal" v="yes"/>
    <tag k="recycling:shoes" v="no"/>
    <tag k="recycling:waste_oil" v="no"/>
    <tag k="recycling:white_goods" v="yes"/>
    <tag k="recycling:wood" v="yes"/>
  </node>
  <node id="269710351" version="2" timestamp="2008-07-14T02:46:17Z" uid="20587" user="balrog-kun" changeset="484620" lat="41.0421209" lon="28.9964109"/>
  <node id="269710352" version="2" timestamp="2008-07-14T02:46:18Z" uid="20587" user="balrog-kun" changeset="484620" lat="41.0422116" lon="28.9966512"/>
  <node id="269710356" version="2" timestamp="2008-07-14T02:46:01Z" uid="20587" user="balrog-kun" changeset="484620" lat="41.0422116" lon="28.9972091"/>
  <node id="269710356" version="3" timestamp="2009-11-21T20:31:37Z" uid="175523" user="mapistanbul" changeset="3179887" lat="41.0422115" lon="28.997209"/>
  <node id="269710513" version="2" timestamp="2008-07-14T02:46:01Z" uid="20587" user="balrog-kun" changeset="484620" lat="41.0426388" lon="28.9961069"/>
  <node id="269710515" version="2" timestamp="2008-07-14T02:46:18Z" uid="20587" user="balrog-kun" changeset="484620" lat="41.0426582" lon="28.996737"/>
  <node id="269711601" version="8" timestamp="2009-03-21T08:13:49Z" uid="12188" user="Babis" changeset="838444" lat="37.859204" lon="23.7640195"/>
  <node id="269711601" version="9" timestamp="2009-03-21T08:15:19Z" uid="12188" user="Babis" changeset="838444" lat="37.859204" lon="23.7640195"/>
  <node id="269711601" version="10" timestamp="2009-04-02T20:09:58Z" uid="108277" user="FireGate_13" changeset="91717" lat="37.859204" lon="23.7640195"/>
  <node id="269711601" version="11" timestamp="2009-04-10T14:58:42Z" uid="12188" user="Babis" changeset="382144" lat="37.859204" lon="23.7640195"/>
  <node id="269711601" version="12" timestamp="2009-04-10T15:02:45Z" uid="12188" user="Babis" changeset="382144" lat="37.859204" lon="23.7640195"/>
  <node id="269711772" version="2" timestamp="2008-11-17T13:00:15Z" uid="6269" user="Mueck" changeset="759735" lat="49.0966203" lon="8.489036"/>
  <node id="269711772" version="3" timestamp="2010-07-11T09:37:20Z" uid="153109" user="pschaefer" changeset="5188461" lat="49.0965783" lon="8.4890424"/>
  <node id="269711772" version="4" timestamp="2011-03-25T09:17:23Z" uid="165061" user="keinname" changeset="7663749" lat="49.0965358" lon="8.4885929"/>
  <node id="269712292" version="8" timestamp="2009-03-21T08:13:50Z" uid="12188" user="Babis" changeset="838444" lat="37.8554913" lon="23.765969"/>
  <node id="269712292" version="9" timestamp="2009-03-21T08:15:20Z" uid="12188" user="Babis" changeset="838444" lat="37.8554913" lon="23.765969"/>
  <node id="269712292" version="10" timestamp="2009-04-02T20:10:01Z" uid="108277" user="FireGate_13" changeset="91717" lat="37.8554913" lon="23.765969"/>
  <node id="269712292" version="11" timestamp="2009-04-10T14:58:43Z" uid="12188" user="Babis" changeset="382144" lat="37.8554913" lon="23.765969"/>
  <node id="269712292" version="12" timestamp="2009-04-10T15:02:47Z" uid="12188" user="Babis" changeset="382144" lat="37.8554913" lon="23.765969"/>
  <node id="269712476" version="3" timestamp="2009-06-14T21:10:08Z" uid="107674" user="GeoCounter" changeset="1519986" lat="50.0630785" lon="8.8012225">
    <tag k="leisure" v="swimming_pool"/>
    <tag k="name" v="Schwimmbad &quot;Im Forst&quot;"/>
    <tag k="sport" v="swimming"/>
  </node>
  <node id="269712476" version="4" timestamp="2010-12-05T00:21:09Z" uid="107674" user="GeoCounter" changeset="6545840" lat="50.0630785" lon="8.8012225">
    <tag k="leisure" v="swimming_pool"/>
    <tag k="name" v="Schwimmbad &quot;Im Forst&quot;"/>
    <tag k="sport" v="swimming"/>
  </node>
  <node id="269712488" version="3" timestamp="2008-07-09T11:06:22Z" uid="5871" user="Banny" changeset="444232" lat="50.9012041" lon="7.0639196"/>
  <node id="269712508" version="8" timestamp="2009-03-21T08:13:50Z" uid="12188" user="Babis" changeset="838444" lat="37.8561911" lon="23.7656228"/>
  <node id="269712508" version="9" timestamp="2009-03-21T08:15:20Z" uid="12188" user="Babis" changeset="838444" lat="37.8561911" lon="23.7656228"/>
  <node id="269712508" version="10" timestamp="2009-04-02T20:10:00Z" uid="108277" user="FireGate_13" changeset="91717" lat="37.8561911" lon="23.7656228"/>
  <node id="269712508" version="11" timestamp="2009-04-10T14:58:43Z" uid="12188" user="Babis" changeset="382144" lat="37.8561911" lon="23.7656228"/>
  <node id="269712508" version="12" timestamp="2009-04-10T15:02:46Z" uid="12188" user="Babis" changeset="382144" lat="37.8561911" lon="23.7656228"/>
  <node id="269712580" version="8" timestamp="2009-03-21T08:13:50Z" uid="12188" user="Babis" changeset="838444" lat="37.8568405" lon="23.7653015"/>
  <node id="269712580" version="9" timestamp="2009-03-21T08:15:19Z" uid="12188" user="Babis" changeset="838444" lat="37.8568405" lon="23.7653015"/>
  <node id="269712580" version="10" timestamp="2009-04-02T20:10:00Z" uid="108277" user="FireGate_13" changeset="91717" lat="37.8568405" lon="23.7653015"/>
  <node id="269712580" version="11" timestamp="2009-04-10T14:58:43Z" uid="12188" user="Babis" changeset="382144" lat="37.8568405" lon="23.7653015"/>
  <node id="269712580" version="12" timestamp="2009-04-10T15:02:46Z" uid="12188" user="Babis" changeset="382144" lat="37.8568405" lon="23.7653015"/>
  <node id="269713019" version="3" timestamp="2010-07-29T09:20:49Z" uid="74617" user="JohnSmith" changeset="5344848" lat="49.801881" lon="9.6899898">
    <tag k="amenity" v="emergency_phone"/>
    <tag k="emergency" v="phone"/>
  </node>
  <node id="269715042" version="2" timestamp="2010-07-29T09:13:36Z" uid="74617" user="JohnSmith" changeset="5344848" lat="49.8052579" lon="9.6533406">
    <tag k="amenity" v="emergency_phone"/>
    <tag k="emergency" v="phone"/>
  </node>
  <node id="269715083" version="2" timestamp="2008-07-13T01:12:44Z" uid="20587" user="balrog-kun" changeset="471900" lat="41.0371364" lon="28.9965176"/>
  <node id="269715125" version="2" timestamp="2008-07-14T18:43:59Z" uid="20587" user="balrog-kun" changeset="486775" lat="41.035541" lon="28.993165"/>
  <node id="269715126" version="2" timestamp="2008-07-14T18:43:59Z" uid="20587" user="balrog-kun" changeset="486775" lat="41.0354615" lon="28.9930631"/>
  <node id="269715127" version="2" timestamp="2008-07-14T18:43:59Z" uid="20587" user="balrog-kun" changeset="486775" lat="41.0352966" lon="28.9930798"/>
  <node id="269715129" version="2" timestamp="2008-07-14T18:43:58Z" uid="20587" user="balrog-kun" changeset="486775" lat="41.0351585" lon="28.9929154"/>
  <node id="269715130" version="2" timestamp="2008-07-14T18:43:58Z" uid="20587" user="balrog-kun" changeset="486775" lat="41.0350401" lon="28.9929098"/>
  <node id="269715131" version="2" timestamp="2008-07-14T18:43:59Z" uid="20587" user="balrog-kun" changeset="486775" lat="41.0345018" lon="28.9924348"/>
  <node id="269715132" version="2" timestamp="2008-07-14T18:44:03Z" uid="20587" user="balrog-kun" changeset="486775" lat="41.0341709" lon="28.9920163"/>
  <node id="269715133" version="2" timestamp="2008-07-14T18:43:58Z" uid="20587" user="balrog-kun" changeset="486775" lat="41.0339464" lon="28.9918911"/>
  <node id="269715134" version="2" timestamp="2008-07-14T18:43:58Z" uid="20587" user="balrog-kun" changeset="486775" lat="41.0335497" lon="28.9914735"/>
  <node id="269715135" version="2" timestamp="2008-07-14T18:43:58Z" uid="20587" user="balrog-kun" changeset="486775" lat="41.0332214" lon="28.9912926"/>
  <node id="269715254" version="2" timestamp="2008-07-13T20:51:18Z" uid="20587" user="balrog-kun" changeset="479817" lat="41.0187536" lon="28.9721551"/>
  <node id="269715255" version="2" timestamp="2008-07-13T20:51:18Z" uid="20587" user="balrog-kun" changeset="479817" lat="41.0181384" lon="28.9717517"/>
  <node id="269715274" version="2" timestamp="2008-07-13T21:20:43Z" uid="20587" user="balrog-kun" changeset="479817" lat="41.0163187" lon="28.9733396"/>
  <node id="269715400" version="3" timestamp="2009-08-24T21:56:52Z" uid="36809" user="pfoten_weg_!_" changeset="2250603" lat="54.3223735" lon="12.3664262">
    <tag k="nore:de" v="Warnung"/>
  </node>
  <node id="269715400" version="4" timestamp="2009-08-24T22:28:07Z" uid="36809" user="pfoten_weg_!_" changeset="2250754" lat="54.3223735" lon="12.3664262"/>
  <node id="269715502" version="3" timestamp="2008-07-06T20:43:03Z" uid="6975" user="ulfl" changeset="415781" lat="38.9856661" lon="-76.9361851">
    <tag k="building" v="entrance"/>
  </node>
  <node id="269715502" version="4" timestamp="2008-07-23T17:24:14Z" uid="43036" user="firefighter" changeset="578349" lat="38.9856661" lon="-76.9361851">
    <tag k="building" v="entrance"/>
  </node>
  <node id="269715650" version="2" timestamp="2008-10-16T18:03:11Z" uid="49111" user="Markus B" changeset="380014" lat="49.4840286" lon="10.8811869"/>
  <node id="269715650" version="3" timestamp="2008-10-28T07:38:04Z" uid="44961" user="gla_weiss" changeset="606958" lat="49.4840286" lon="10.8811869"/>
  <node id="269715650" version="4" timestamp="2008-11-10T10:05:46Z" uid="44961" user="gla_weiss" changeset="730777" lat="49.4840286" lon="10.8811869"/>
  <node id="269715650" version="5" timestamp="2008-11-10T10:07:04Z" uid="44961" user="gla_weiss" changeset="730777" lat="49.4840286" lon="10.8811869"/>
  <node id="269715651" version="2" timestamp="2008-10-16T18:03:11Z" uid="49111" user="Markus B" changeset="380014" lat="49.483839" lon="10.8813156"/>
  <node id="269715651" version="3" timestamp="2008-10-28T07:38:04Z" uid="44961" user="gla_weiss" changeset="606958" lat="49.483839" lon="10.8813156"/>
  <node id="269715651" version="4" timestamp="2008-11-10T10:05:46Z" uid="44961" user="gla_weiss" changeset="730777" lat="49.483839" lon="10.8813156"/>
  <node id="269715651" version="5" timestamp="2008-11-10T10:07:04Z" uid="44961" user="gla_weiss" changeset="730777" lat="49.483839" lon="10.8813156"/>
  <node id="269715653" version="3" timestamp="2008-10-16T18:03:11Z" uid="49111" user="Markus B" changeset="380014" lat="49.4826385" lon="10.8850874"/>
  <node id="269715653" version="4" timestamp="2008-11-04T12:24:43Z" uid="44961" user="gla_weiss" changeset="680250" lat="49.4826385" lon="10.8850874"/>
  <node id="269715653" version="5" timestamp="2008-11-04T12:24:53Z" uid="44961" user="gla_weiss" changeset="680250" lat="49.4826385" lon="10.8850874"/>
  <node id="269715653" version="6" timestamp="2009-02-06T21:30:31Z" uid="44961" user="gla_weiss" changeset="202932" lat="49.4826385" lon="10.8850874"/>
  <node id="269715653" version="7" timestamp="2011-10-15T11:25:15Z" uid="391652" user="travelling_salesman" changeset="9562626" lat="49.4826979" lon="10.8850157"/>
  <node id="269716442" version="2" timestamp="2008-07-12T19:34:42Z" uid="20587" user="balrog-kun" changeset="469241" lat="41.0086583" lon="28.9734883"/>
  <node id="269716442" version="3" timestamp="2011-10-03T20:40:33Z" uid="12982" user="Michael Schulze" changeset="9464530" lat="41.0087139" lon="28.9734926"/>
  <node id="269716638" version="3" timestamp="2008-07-12T19:34:41Z" uid="20587" user="balrog-kun" changeset="469241" lat="41.0096351" lon="28.9738552"/>
  <node id="269716719" version="2" timestamp="2008-07-12T19:35:19Z" uid="20587" user="balrog-kun" changeset="469241" lat="41.0101272" lon="28.971623"/>
  <node id="269716754" version="2" timestamp="2008-07-12T19:34:41Z" uid="20587" user="balrog-kun" changeset="469241" lat="41.010337" lon="28.9704729">
    <tag k="amenity" v="place_of_worship"/>
    <tag k="created_by" v="Potlatch 0.9c"/>
    <tag k="name" v="Nuruosmaniye Camisi"/>
    <tag k="religion" v="muslim"/>
  </node>
  <node id="269716754" version="3" timestamp="2011-04-29T21:16:53Z" uid="332493" user="bazgal" changeset="8007006" lat="41.010337" lon="28.9704729"/>
  <node id="269716754" version="4" timestamp="2012-02-07T07:05:00Z" uid="83557" user="Esperanza36" changeset="10609481" lat="41.010337" lon="28.9704729"/>
  <node id="269717150" version="2" timestamp="2008-10-16T18:02:31Z" uid="49111" user="Markus B" changeset="380014" lat="49.4972661" lon="10.8736982"/>
  <node id="269717150" version="3" timestamp="2008-10-28T07:02:23Z" uid="44961" user="gla_weiss" changeset="606958" lat="49.4972661" lon="10.8736982"/>
  <node id="269717150" version="4" timestamp="2008-10-28T07:31:28Z" uid="44961" user="gla_weiss" changeset="606958" lat="49.4972661" lon="10.8736982"/>
  <node id="269717150" version="5" timestamp="2008-10-28T07:32:01Z" uid="44961" user="gla_weiss" changeset="606958" lat="49.4972661" lon="10.8736982"/>
  <node id="269717150" version="6" timestamp="2008-10-28T07:42:58Z" uid="44961" user="gla_weiss" changeset="606958" lat="49.4972661" lon="10.8736982"/>
  <node id="269717150" version="7" timestamp="2008-10-28T09:30:13Z" uid="44961" user="gla_weiss" changeset="606958" lat="49.4972661" lon="10.8736982"/>
  <node id="269717150" version="8" timestamp="2008-10-28T11:30:42Z" uid="44961" user="gla_weiss" changeset="614458" lat="49.4972661" lon="10.8736982"/>
  <node id="269717150" version="9" timestamp="2008-10-28T11:30:43Z" uid="44961" user="gla_weiss" changeset="614458" lat="49.4972661" lon="10.8736982"/>
  <node id="269717150" version="10" timestamp="2008-10-28T11:30:57Z" uid="44961" user="gla_weiss" changeset="614458" lat="49.4972661" lon="10.8736982"/>
  <node id="269717150" version="11" timestamp="2008-10-28T11:31:13Z" uid="44961" user="gla_weiss" changeset="614458" lat="49.4972661" lon="10.8736982"/>
  <node id="269717150" version="12" timestamp="2008-10-28T11:51:12Z" uid="44961" user="gla_weiss" changeset="614458" lat="49.4972661" lon="10.8736982"/>
  <node id="269717150" version="13" timestamp="2008-11-07T06:54:42Z" uid="44961" user="gla_weiss" changeset="701620" lat="49.4972661" lon="10.8736982"/>
  <node id="269717150" version="14" timestamp="2008-11-07T07:49:24Z" uid="44961" user="gla_weiss" changeset="701620" lat="49.4972661" lon="10.8736982"/>
  <node id="269718365" version="3" timestamp="2009-12-09T17:59:47Z" uid="200463" user="harmagedon" changeset="3335395" lat="50.8795633" lon="14.7808533"/>
  <node id="269718367" version="2" timestamp="2009-12-09T17:59:39Z" uid="200463" user="harmagedon" changeset="3335395" lat="50.8772671" lon="14.7835314"/>
  <node id="269718368" version="2" timestamp="2009-12-09T17:59:39Z" uid="200463" user="harmagedon" changeset="3335395" lat="50.8766127" lon="14.7844863"/>
  <node id="269718370" version="2" timestamp="2009-12-09T17:59:38Z" uid="200463" user="harmagedon" changeset="3335395" lat="50.8765322" lon="14.7852802"/>
  <node id="269718371" version="2" timestamp="2009-12-09T17:59:38Z" uid="200463" user="harmagedon" changeset="3335395" lat="50.8757938" lon="14.7864852"/>
  <node id="269718383" version="2" timestamp="2009-12-09T23:58:16Z" uid="200463" user="harmagedon" changeset="3338481" lat="50.8913326" lon="14.8134863"/>
  <node id="269718388" version="2" timestamp="2009-12-09T23:58:32Z" uid="200463" user="harmagedon" changeset="3338481" lat="50.8916438" lon="14.8155141">
    <tag k="addr:housenumber" v="28"/>
  </node>
  <node id="269718389" version="2" timestamp="2009-12-09T23:58:16Z" uid="200463" user="harmagedon" changeset="3338481" lat="50.8910751" lon="14.8145056">
    <tag k="addr:housenumber" v="38"/>
  </node>
  <node id="269718391" version="2" timestamp="2009-12-09T23:58:19Z" uid="200463" user="harmagedon" changeset="3338481" lat="50.8918744" lon="14.8148918">
    <tag k="addr:housenumber" v="14"/>
  </node>
  <node id="269718392" version="2" timestamp="2009-12-09T23:58:15Z" uid="200463" user="harmagedon" changeset="3338481" lat="50.891338" lon="14.8137975">
    <tag k="addr:housenumber" v="26"/>
  </node>
  <node id="269718394" version="2" timestamp="2009-12-09T23:58:19Z" uid="200463" user="harmagedon" changeset="3338481" lat="50.8918744" lon="14.815042">
    <tag k="amenity" v="telephone"/>
  </node>
  <node id="269718396" version="2" timestamp="2009-12-09T23:58:19Z" uid="200463" user="harmagedon" changeset="3338481" lat="50.8921426" lon="14.8149455">
    <tag k="addr:housenumber" v="21"/>
  </node>
  <node id="269718796" version="3" timestamp="2008-09-14T15:53:19Z" uid="6975" user="ulfl" changeset="640534" lat="48.8297088" lon="8.2565319">
    <tag k="name" v="Wasserkraftwerk Kuppenheim"/>
    <tag k="power" v="generator"/>
    <tag k="power_source" v="hydro"/>
  </node>
  <node id="269718796" version="4" timestamp="2011-06-04T02:11:45Z" uid="297482" user="don-vip" changeset="8335625" lat="48.8297088" lon="8.2565319">
    <tag k="generator:source" v="hydro"/>
    <tag k="name" v="Wasserkraftwerk Kuppenheim"/>
    <tag k="power" v="generator"/>
    <tag k="power_source" v="hydro"/>
  </node>
  <node id="269718956" version="2" timestamp="2008-06-26T16:40:14Z" uid="5871" user="Banny" changeset="302686" lat="50.8977078" lon="7.0727223"/>
  <node id="269718956" version="3" timestamp="2010-09-29T16:24:38Z" uid="116044" user="berndw" changeset="5913094" lat="50.8977361" lon="7.0727897"/>
  <node id="269718956" version="4" timestamp="2011-10-08T12:28:46Z" uid="116044" user="berndw" changeset="9502061" lat="50.8977361" lon="7.0727897"/>
  <node id="269719006" version="2" timestamp="2008-07-14T00:49:13Z" uid="20587" user="balrog-kun" changeset="482996" lat="41.014351" lon="28.9763608"/>
  <node id="269719006" version="3" timestamp="2009-09-18T09:53:21Z" uid="65622" user="michaelreinke" changeset="2522201" lat="41.014351" lon="28.9763608"/>
  <node id="269719007" version="2" timestamp="2008-07-14T00:49:13Z" uid="20587" user="balrog-kun" changeset="482996" lat="41.0145396" lon="28.9760249"/>
  <node id="269719007" version="3" timestamp="2009-09-18T09:53:22Z" uid="65622" user="michaelreinke" changeset="2522201" lat="41.0145396" lon="28.9760249"/>
  <node id="269719132" version="2" timestamp="2008-07-14T00:49:13Z" uid="20587" user="balrog-kun" changeset="482996" lat="41.012691" lon="28.9782321"/>
  <node id="269719132" version="3" timestamp="2009-09-18T09:53:21Z" uid="65622" user="michaelreinke" changeset="2522201" lat="41.012691" lon="28.9782321"/>
  <node id="269719132" version="4" timestamp="2011-10-03T20:40:33Z" uid="12982" user="Michael Schulze" changeset="9464530" lat="41.0126927" lon="28.9782055"/>
  <node id="269719133" version="2" timestamp="2008-07-14T00:49:14Z" uid="20587" user="balrog-kun" changeset="482996" lat="41.0128983" lon="28.9779365"/>
  <node id="269719133" version="3" timestamp="2009-09-18T09:53:21Z" uid="65622" user="michaelreinke" changeset="2522201" lat="41.0128983" lon="28.9779365"/>
  <node id="269719133" version="4" timestamp="2011-10-03T20:40:33Z" uid="12982" user="Michael Schulze" changeset="9464530" lat="41.0129601" lon="28.9778192"/>
  <node id="269719134" version="2" timestamp="2008-07-14T00:49:13Z" uid="20587" user="balrog-kun" changeset="482996" lat="41.0131194" lon="28.977722"/>
  <node id="269719134" version="3" timestamp="2009-09-18T09:53:21Z" uid="65622" user="michaelreinke" changeset="2522201" lat="41.0131194" lon="28.977722"/>
  <node id="269719134" version="4" timestamp="2011-10-03T20:40:34Z" uid="12982" user="Michael Schulze" changeset="9464530" lat="41.0132281" lon="28.9775702"/>
  <node id="269719187" version="2" timestamp="2008-07-14T00:49:14Z" uid="20587" user="balrog-kun" changeset="482996" lat="41.0140313" lon="28.9767098"/>
  <node id="269719187" version="3" timestamp="2010-09-07T19:43:22Z" uid="294096" user="SalihB" changeset="5711189" lat="41.0140313" lon="28.9767098"/>
  <node id="269719187" version="4" timestamp="2011-10-03T20:40:34Z" uid="12982" user="Michael Schulze" changeset="9464530" lat="41.0141062" lon="28.9766553"/>
  <node id="269719847" version="2" timestamp="2010-02-06T19:17:07Z" uid="38524" user="Kuddy" changeset="3808049" lat="49.8145391" lon="6.7501641"/>
  <node id="269719848" version="2" timestamp="2010-02-06T19:17:07Z" uid="38524" user="Kuddy" changeset="3808049" lat="49.8144558" lon="6.7497587"/>
  <node id="269719849" version="2" timestamp="2010-02-06T19:17:07Z" uid="38524" user="Kuddy" changeset="3808049" lat="49.8142293" lon="6.7496897"/>
  <node id="269719942" version="2" timestamp="2008-06-26T16:40:06Z" uid="5871" user="Banny" changeset="302686" lat="50.8952359" lon="7.0708794"/>
  <node id="269719942" version="3" timestamp="2011-10-08T12:28:47Z" uid="116044" user="berndw" changeset="9502061" lat="50.8952359" lon="7.0708794"/>
</osm>
