<?xml version='1.0' encoding='UTF-8'?>
<osm version="0.6" generator="libosmium/2.20.0">
  <node id="273718197" version="4" timestamp="2009-10-02T19:48:02Z" uid="86259" user="hasse_osm_korinthenkacker" changeset="2716821" lat="47.9099301" lon="11.6750136">
    <tag k="amenity" v="post_office"/>
  </node>
  <node id="273718197" version="5" timestamp="2009-10-21T17:33:31Z" uid="42393" user="mawi42" changeset="2914576" lat="47.9099585" lon="11.6750057">
    <tag k="amenity" v="post_office"/>
  </node>
  <node id="273718197" version="6" timestamp="2009-12-05T08:46:49Z" uid="42393" user="mawi42" changeset="3293574" lat="47.9099571" lon="11.6750401">
    <tag k="amenity" v="post_office"/>
  </node>
  <node id="273718197" version="7" timestamp="2010-03-24T16:56:43Z" uid="42393" user="mawi42" changeset="4222601" lat="47.9088212" lon="11.6752283">
    <tag k="amenity" v="post_office"/>
  </node>
  <node id="273718197" version="8" timestamp="2010-04-21T21:36:19Z" uid="42393" user="mawi42" changeset="4491092" lat="47.9088213" lon="11.6752283">
    <tag k="amenity" v="post_office"/>
    <tag k="opening_hours" v="Mo"/>
  </node>
  <node id="273718197" version="9" timestamp="2010-05-20T09:45:50Z" uid="42393" user="mawi42" changeset="4755514" lat="47.9088213" lon="11.6752282">
    <tag k="amenity" v="post_office"/>
    <tag k="opening_hours" v="Mo-Fr, Sa"/>
  </node>
  <node id="273718197" version="10" timestamp="2010-11-16T10:16:49Z" uid="140803" user="ThomasStr" changeset="6383843" lat="47.9088213" lon="11.6752282">
    <tag k="amenity" v="post_office"/>
    <tag k="opening_hours" v="Mo-Fr 09:00-12:00,14:00-17:00; Sa 09:00-12:00"/>
  </node>
  <node id="273718197" version="11" timestamp="2010-11-19T07:44:59Z" uid="290680" user="wheelmap_visitor" changeset="6404947" lat="47.9088213" lon="11.6752282">
    <tag k="amenity" v="post_office"/>
    <tag k="opening_hours" v="Mo-Fr 09:00-12:00,14:00-17:00; Sa 09:00-12:00"/>
    <tag k="wheelchair" v="no"/>
  </node>
  <node id="273718197" version="12" timestamp="2011-05-23T09:46:15Z" uid="42393" user="mawi42" changeset="8224638" lat="47.9088214" lon="11.6752282">
    <tag k="amenity" v="post_office"/>
    <tag k="name" v="Postagentur Otterfing"/>
    <tag k="opening_hours" v="Mo-Fr 09:00-12:00,14:00-17:00; Sa 09:00-12:00"/>
    <tag k="wheelchair" v="no"/>
  </node>
</osm>
