<?xml version='1.0' encoding='UTF-8'?>
<osm version="0.6" generator="libosmium/2.20.0">
  <node id="273903982" version="1" timestamp="2008-06-27T12:03:52Z" uid="40373" user="Daguru" changeset="317272" lat="51.6542206" lon="7.3446841"/>
  <node id="273903982" version="2" timestamp="2008-06-28T09:24:26Z" uid="40373" user="Daguru" changeset="320303" lat="51.6542092" lon="7.3446898"/>
  <node id="273903982" version="3" timestamp="2011-10-12T14:54:46Z" uid="489128" user="scooterul6" changeset="9539632" lat="51.6542092" lon="7.3446898">
    <tag k="highway" v="bus_stop"/>
    <tag k="name" v="Am Tigg"/>
    <tag k="public_transport" v="stop_position"/>
  </node>
  <node id="273903982" version="4" timestamp="2012-03-17T02:51:04Z" uid="290680" user="wheelmap_visitor" changeset="11004265" lat="51.6542092" lon="7.3446898">
    <tag k="highway" v="bus_stop"/>
    <tag k="name" v="Am Tigg"/>
    <tag k="public_transport" v="stop_position"/>
    <tag k="wheelchair" v="yes"/>
  </node>
  <node id="273903985" version="1" timestamp="2008-06-27T12:03:52Z" uid="40373" user="Daguru" changeset="317272" lat="51.6521942" lon="7.3385903"/>
  <node id="273903985" version="2" timestamp="2011-04-27T05:15:21Z" uid="31602" user="crazy-rat" changeset="7981407" lat="51.6521692" lon="7.3386936">
    <tag k="amenity" v="bus_station"/>
    <tag k="name" v="Busbahnhof"/>
  </node>
  <node id="273903985" version="3" timestamp="2011-05-04T06:03:27Z" uid="31602" user="crazy-rat" changeset="8045798" lat="51.6521692" lon="7.3386936">
    <tag k="highway" v="bus_stop"/>
    <tag k="name" v="Busbahnhof"/>
  </node>
  <node id="273903985" version="4" timestamp="2011-07-27T22:44:30Z" uid="489128" user="scooterul6" changeset="8849948" lat="51.6521692" lon="7.3386936">
    <tag k="amenity" v="bench"/>
    <tag k="anemity" v="shelter"/>
    <tag k="highway" v="bus_stop"/>
    <tag k="name" v="Datteln Busbahnhof"/>
    <tag k="public_transport" v="platform"/>
  </node>
  <node id="273903985" version="5" timestamp="2011-07-29T12:34:32Z" uid="489128" user="scooterul6" changeset="8863018" lat="51.6521692" lon="7.3386936">
    <tag k="highway" v="bus_stop"/>
    <tag k="name" v="Datteln Busbahnhof Süd"/>
    <tag k="public_transport" v="stop_position"/>
  </node>
  <node id="273903985" version="6" timestamp="2011-07-30T12:13:38Z" uid="489128" user="scooterul6" changeset="8871614" lat="51.6521692" lon="7.3386936">
    <tag k="name" v="Datteln Busbahnhof Süd"/>
    <tag k="public_transport" v="stop_position"/>
  </node>
  <node id="273903985" version="7" timestamp="2011-08-03T15:34:51Z" uid="489128" user="scooterul6" changeset="8911134" lat="51.6521692" lon="7.3386936">
    <tag k="bus" v="yes"/>
    <tag k="public_transport" v="stop_position"/>
  </node>
  <node id="273903989" version="1" timestamp="2008-06-27T12:03:52Z" uid="40373" user="Daguru" changeset="317272" lat="51.6521221" lon="7.3385607">
    <tag k="amenity" v="bus_station"/>
    <tag k="name" v="Busbahnhof"/>
  </node>
  <node id="273903989" version="2" timestamp="2008-06-28T09:30:19Z" uid="40373" user="Daguru" changeset="320303" lat="51.651997" lon="7.3386371">
    <tag k="highway" v="bus_stop"/>
    <tag k="name" v="Busbahnhof"/>
  </node>
  <node id="273903989" version="3" timestamp="2009-03-17T17:44:04Z" uid="40373" user="Daguru" changeset="823111" lat="51.651997" lon="7.3386371">
    <tag k="amenity" v="bus_station"/>
    <tag k="name" v="Busbahnhof"/>
  </node>
  <node id="273903989" version="4" timestamp="2011-03-16T06:04:04Z" uid="31602" user="crazy-rat" changeset="7572601" lat="51.6522666" lon="7.3386151">
    <tag k="amenity" v="bus_station"/>
    <tag k="name" v="Busbahnhof"/>
  </node>
  <node id="273903989" version="5" timestamp="2011-04-27T05:16:17Z" uid="31602" user="crazy-rat" changeset="7981407" lat="51.6522666" lon="7.3386151">
    <tag k="amenity" v="bus_station"/>
    <tag k="name" v="Busbahnhof"/>
  </node>
</osm>
