<?xml version='1.0' encoding='UTF-8'?>
<osm version="0.6" generator="libosmium/2.20.0">
  <node id="274160333" version="1" timestamp="2008-06-28T01:33:38Z" uid="30201" user="rrankin" changeset="318974" lat="-33.8211967" lon="151.1055208"/>
  <node id="274160333" version="2" timestamp="2009-07-04T13:25:03Z" uid="7617" user="Franc" changeset="1729755" lat="-33.8211448" lon="151.1054584"/>
  <node id="274160333" version="3" timestamp="2010-01-14T09:20:12Z" uid="30201" user="rrankin" changeset="3615596" lat="-33.8210854" lon="151.1055001"/>
  <node id="274160333" version="4" timestamp="2011-09-19T02:31:01Z" uid="7523" user="inas" changeset="9338702" lat="-33.8210854" lon="151.1055001"/>
  <node id="274160336" version="1" timestamp="2008-06-28T01:33:38Z" uid="30201" user="rrankin" changeset="318974" lat="-33.8167237" lon="151.1087002"/>
  <node id="274160336" version="2" timestamp="2010-02-25T12:02:23Z" uid="7617" user="Franc" changeset="3971050" lat="-33.8166958" lon="151.1086092"/>
  <node id="274160340" version="1" timestamp="2008-06-28T01:33:39Z" uid="30201" user="rrankin" changeset="318974" lat="-33.8166842" lon="151.1086986"/>
  <node id="274160340" version="2" timestamp="2009-04-15T03:08:39Z" uid="7523" user="inas" changeset="559825" lat="-33.8166842" lon="151.1086986"/>
  <node id="274160340" version="3" timestamp="2009-04-15T03:10:25Z" uid="7523" user="inas" changeset="559825" lat="-33.8166842" lon="151.1086986"/>
  <node id="274160340" version="4" timestamp="2010-02-25T12:02:23Z" uid="7617" user="Franc" changeset="3971050" lat="-33.8166218" lon="151.1085678"/>
  <node id="274160343" version="1" timestamp="2008-06-28T01:33:40Z" uid="30201" user="rrankin" changeset="318974" lat="-33.8210546" lon="151.1042198"/>
  <node id="274160343" version="2" timestamp="2010-01-14T09:20:12Z" uid="30201" user="rrankin" changeset="3615596" lat="-33.8209898" lon="151.1041596"/>
  <node id="274160343" version="3" timestamp="2010-11-20T04:10:16Z" uid="7617" user="Franc" changeset="6411741" lat="-33.8210072" lon="151.1041512"/>
  <node id="274160343" version="4" timestamp="2012-03-09T01:48:39Z" uid="7523" user="inas" changeset="10915552" lat="-33.8210072" lon="151.1041512"/>
  <node id="274160347" version="1" timestamp="2008-06-28T01:33:40Z" uid="30201" user="rrankin" changeset="318974" lat="-33.8215552" lon="151.102204"/>
  <node id="274160347" version="2" timestamp="2008-12-14T11:38:18Z" uid="7617" user="Franc" changeset="375809" lat="-33.8215428" lon="151.1022133"/>
  <node id="274160347" version="3" timestamp="2010-05-27T21:26:39Z" uid="7617" user="Franc" changeset="4826301" lat="-33.8215196" lon="151.1022022"/>
  <node id="274160347" version="4" timestamp="2012-03-09T01:48:39Z" uid="7523" user="inas" changeset="10915552" lat="-33.8215196" lon="151.1022022"/>
  <node id="274160350" version="1" timestamp="2008-06-28T01:33:41Z" uid="30201" user="rrankin" changeset="318974" lat="-33.8212021" lon="151.1017235"/>
  <node id="274160350" version="2" timestamp="2008-12-14T11:40:12Z" uid="7617" user="Franc" changeset="375809" lat="-33.8211897" lon="151.1017328"/>
  <node id="274160350" version="3" timestamp="2012-03-09T01:48:39Z" uid="7523" user="inas" changeset="10915552" lat="-33.8211897" lon="151.1017328"/>
  <node id="274164169" version="2" timestamp="2008-07-08T19:58:50Z" uid="6975" user="ulfl" changeset="431192" lat="53.2776082" lon="9.7272849">
    <tag k="amenity" v="kindergarten"/>
  </node>
  <node id="274164169" version="3" timestamp="2008-12-11T22:27:46Z" uid="45882" user="smarties" changeset="321371" lat="53.2776082" lon="9.7272849">
    <tag k="amenity" v="kindergarten"/>
    <tag k="name" v="Kindergarten ev.-luth. Kirchengemeinde"/>
  </node>
  <node id="274164169" version="4" timestamp="2010-02-23T00:26:22Z" uid="45882" user="smarties" changeset="3948962" lat="53.2776082" lon="9.7272849">
    <tag k="addr:city" v="Tostedt"/>
    <tag k="addr:country" v="DE"/>
    <tag k="addr:housenumber" v="21"/>
    <tag k="addr:postcode" v="21255"/>
    <tag k="addr:street" v="Im Stocken"/>
    <tag k="amenity" v="kindergarten"/>
    <tag k="name" v="Kindergarten ev.-luth. Kirchengemeinde"/>
    <tag k="phone" v="+49 4182 287041"/>
    <tag k="website" v="http://www.kirche-tostedt.de/tostedt/kinder/kindergarten.html"/>
  </node>
  <node id="274164169" version="5" timestamp="2010-02-23T00:27:15Z" uid="45882" user="smarties" changeset="3948965" lat="53.2776082" lon="9.7272849">
    <tag k="addr:city" v="Tostedt"/>
    <tag k="addr:country" v="DE"/>
    <tag k="addr:housenumber" v="21"/>
    <tag k="addr:postcode" v="21255"/>
    <tag k="addr:street" v="Im Stocken"/>
    <tag k="amenity" v="kindergarten"/>
    <tag k="name" v="Kindergarten ev.-luth. Kirchengemeinde"/>
    <tag k="phone" v="+49 4182 287041"/>
    <tag k="website" v="http://www.kirche-tostedt.de"/>
  </node>
  <node id="274164169" version="6" timestamp="2010-02-23T00:29:12Z" uid="45882" user="smarties" changeset="3948972" lat="53.2776082" lon="9.7272849">
    <tag k="addr:city" v="Tostedt"/>
    <tag k="addr:country" v="DE"/>
    <tag k="addr:housenumber" v="21"/>
    <tag k="addr:postcode" v="21255"/>
    <tag k="addr:street" v="Im Stocken"/>
    <tag k="amenity" v="kindergarten"/>
    <tag k="name" v="Kindergarten ev.-luth. Kirchengemeinde"/>
    <tag k="operator" v="Ev.-luth. Johannesgemeinde Tostedt"/>
    <tag k="phone" v="+49 4182 287041"/>
    <tag k="website" v="http://www.kirche-tostedt.de"/>
  </node>
  <node id="274164169" version="7" timestamp="2010-03-07T22:22:27Z" uid="45882" user="smarties" changeset="4067215" lat="53.2776082" lon="9.7272849">
    <tag k="addr:city" v="Tostedt"/>
    <tag k="addr:housenumber" v="21"/>
    <tag k="addr:postcode" v="21255"/>
    <tag k="addr:street" v="Im Stocken"/>
    <tag k="amenity" v="kindergarten"/>
    <tag k="name" v="Kindergarten ev.-luth. Kirchengemeinde"/>
    <tag k="operator" v="Ev.-luth. Johannesgemeinde Tostedt"/>
    <tag k="phone" v="+49 4182 287041"/>
    <tag k="website" v="http://www.kirche-tostedt.de"/>
  </node>
  <node id="274164169" version="8" timestamp="2010-03-08T22:15:07Z" uid="45882" user="smarties" changeset="4076715" lat="53.2776082" lon="9.7272849">
    <tag k="addr:city" v="Tostedt"/>
    <tag k="addr:housenumber" v="21"/>
    <tag k="addr:postcode" v="21255"/>
    <tag k="addr:street" v="Im Stocken"/>
    <tag k="amenity" v="kindergarten"/>
    <tag k="name" v="Kindergarten Evangelisch-lutherische Johannesgemeinde Tostedt"/>
    <tag k="operator" v="Evangelisch-lutherische Johannesgemeinde Tostedt"/>
    <tag k="phone" v="+49 4182 287041"/>
    <tag k="website" v="http://www.kirche-tostedt.de"/>
  </node>
  <node id="274164169" version="9" timestamp="2010-03-08T22:51:16Z" uid="45882" user="smarties" changeset="4077024" lat="53.2776082" lon="9.7272849">
    <tag k="addr:city" v="Tostedt"/>
    <tag k="addr:housenumber" v="21"/>
    <tag k="addr:postcode" v="21255"/>
    <tag k="addr:street" v="Im Stocken"/>
    <tag k="amenity" v="kindergarten"/>
    <tag k="name" v="Kindergarten Evangelisch-lutherische Johannesgemeinde Tostedt"/>
    <tag k="operator" v="Evangelisch-lutherische Johannesgemeinde Tostedt"/>
    <tag k="phone" v="+49 4182 287041"/>
    <tag k="website" v="http://www.kirche-tostedt.de"/>
    <tag k="wheelchair" v="yes"/>
  </node>
  <node id="274164169" version="10" timestamp="2010-12-12T07:15:58Z" uid="103124" user="ficus" changeset="6632699" lat="53.2776082" lon="9.7272849">
    <tag k="addr:city" v="Tostedt"/>
    <tag k="addr:country" v="DE"/>
    <tag k="addr:housenumber" v="21"/>
    <tag k="addr:postcode" v="21255"/>
    <tag k="addr:street" v="Im Stocken"/>
    <tag k="amenity" v="kindergarten"/>
    <tag k="name" v="Kindergarten Evangelisch-lutherische Johannesgemeinde Tostedt"/>
    <tag k="operator" v="Evangelisch-lutherische Johannesgemeinde Tostedt"/>
    <tag k="phone" v="+49 4182 287041"/>
    <tag k="website" v="http://www.kirche-tostedt.de"/>
    <tag k="wheelchair" v="yes"/>
  </node>
  <node id="274169811" version="4" timestamp="2008-07-07T02:05:49Z" uid="6975" user="ulfl" changeset="415781" lat="48.9830725" lon="9.4588689">
    <tag k="amenity" v="place_of_worship"/>
    <tag k="name" v="St. Jakob"/>
    <tag k="religion" v="Evangelisch"/>
  </node>
  <node id="274169811" version="5" timestamp="2008-10-16T17:26:27Z" uid="44971" user="LayBack" changeset="370895" lat="48.9830725" lon="9.4588689">
    <tag k="amenity" v="place_of_worship"/>
    <tag k="denomination" v="lutheran"/>
    <tag k="name" v="Jakobus-Kirche"/>
    <tag k="religion" v="christian"/>
  </node>
  <node id="274169811" version="6" timestamp="2009-02-27T10:12:35Z" uid="12973" user="MattGPS" changeset="685895" lat="48.9829978" lon="9.4589739">
    <tag k="amenity" v="place_of_worship"/>
    <tag k="created_by" v="Potlatch 0.10f"/>
    <tag k="denomination" v="lutheran"/>
    <tag k="name" v="Jakobus-Kirche"/>
    <tag k="religion" v="christian"/>
  </node>
  <node id="274169811" version="7" timestamp="2009-05-08T16:27:34Z" uid="12973" user="MattGPS" changeset="1119219" lat="48.982927" lon="9.4590718">
    <tag k="amenity" v="place_of_worship"/>
    <tag k="created_by" v="Potlatch 0.10f"/>
    <tag k="denomination" v="lutheran"/>
    <tag k="name" v="Jakobus-Kirche"/>
    <tag k="religion" v="christian"/>
  </node>
  <node id="274169811" version="8" timestamp="2011-10-21T04:14:05Z" uid="290680" user="wheelmap_visitor" changeset="9613553" lat="48.982927" lon="9.4590718">
    <tag k="amenity" v="place_of_worship"/>
    <tag k="created_by" v="Potlatch 0.10f"/>
    <tag k="denomination" v="lutheran"/>
    <tag k="name" v="Jakobus-Kirche"/>
    <tag k="religion" v="christian"/>
    <tag k="wheelchair" v="limited"/>
  </node>
</osm>
