<?xml version='1.0' encoding='UTF-8'?>
<osm version="0.6" generator="libosmium/2.20.0">
  <node id="274122522" version="7" timestamp="2010-04-26T10:07:53Z" uid="18775" user="drlizau" changeset="4529995" lat="42.0610805" lon="19.5129757"/>
  <node id="274122522" version="8" timestamp="2010-04-30T07:29:27Z" uid="131059" user="h4ck3rm1k3" changeset="4563719" lat="42.0611102" lon="19.5126796"/>
  <node id="274122522" version="9" timestamp="2010-09-06T12:36:24Z" uid="90557" user="dougcb68" changeset="5697598" lat="42.0611102" lon="19.5126796"/>
  <node id="274125679" version="3" timestamp="2008-09-20T03:24:56Z" uid="36809" user="pfoten_weg_!_" changeset="670006" lat="48.0873283" lon="11.4839945">
    <tag k="amenity" v="recycling"/>
    <tag k="created_by" v="RambaZamba"/>
    <tag k="recycling:glass" v="true"/>
    <tag k="recycling:plastic" v="yes"/>
    <tag k="recycling:scrap_metal" v="yes"/>
  </node>
  <node id="274125679" version="4" timestamp="2008-10-01T00:59:06Z" uid="36809" user="pfoten_weg_!_" changeset="5644" lat="48.0873283" lon="11.4839945">
    <tag k="amenity" v="recycling"/>
    <tag k="created_by" v="RambaZamba"/>
    <tag k="recycling:glass" v="true"/>
    <tag k="recycling:plastic" v="yes"/>
    <tag k="recycling:scrap_metal" v="yes"/>
  </node>
  <node id="274125679" version="5" timestamp="2009-02-15T12:36:59Z" uid="36809" user="pfoten_weg_!_" changeset="463903" lat="48.0873283" lon="11.4839945">
    <tag k="amenity" v="recycling"/>
    <tag k="created_by" v="RambaZamba"/>
    <tag k="recycling:glass" v="true"/>
    <tag k="recycling:plastic" v="yes"/>
    <tag k="recycling:scrap_metal" v="yes"/>
    <tag k="source" v="survey"/>
  </node>
  <node id="274125679" version="6" timestamp="2009-03-26T22:28:38Z" uid="106615" user="matafumar" changeset="862437" lat="48.0873285" lon="11.4839908">
    <tag k="amenity" v="recycling"/>
    <tag k="created_by" v="Potlatch 0.10f"/>
    <tag k="recycling:glass" v="yes"/>
    <tag k="recycling:plastic" v="yes"/>
    <tag k="recycling:scrap_metal" v="yes"/>
    <tag k="source" v="survey"/>
  </node>
  <node id="274125679" version="7" timestamp="2009-08-26T09:12:33Z" uid="36809" user="pfoten_weg_!_" changeset="2265170" lat="48.0873285" lon="11.4839908">
    <tag k="amenity" v="recycling"/>
    <tag k="recycling:glass" v="yes"/>
    <tag k="recycling:plastic" v="yes"/>
    <tag k="recycling:scrap_metal" v="yes"/>
    <tag k="source" v="survey"/>
  </node>
  <node id="274125679" version="8" timestamp="2009-10-30T19:55:25Z" uid="36809" user="pfoten_weg_!_" changeset="2992134" lat="48.0873285" lon="11.4839908">
    <tag k="amenity" v="recycling"/>
    <tag k="recycling:glass" v="yes"/>
    <tag k="recycling:plastic" v="yes"/>
    <tag k="recycling:scrap_metal" v="yes"/>
  </node>
  <node id="274125679" version="9" timestamp="2010-12-08T19:26:50Z" uid="80117" user="kartenleser" changeset="6588480" lat="48.0873285" lon="11.4839908">
    <tag k="amenity" v="recycling"/>
    <tag k="operator" v="Remondis"/>
    <tag k="recycling:glass" v="yes"/>
    <tag k="recycling:plastic" v="yes"/>
    <tag k="recycling:scrap_metal" v="yes"/>
  </node>
  <node id="274125881" version="3" timestamp="2008-09-30T10:50:18Z" uid="1066" user="pavel" changeset="720911" lat="49.1470281" lon="14.1759076">
    <tag k="is_in" v="Czech Republic, Europe"/>
    <tag k="name" v="Vodňany"/>
    <tag k="place" v="town"/>
  </node>
  <node id="274125881" version="4" timestamp="2008-11-04T13:02:27Z" uid="308" user="MichaelCollinson" changeset="676656" lat="49.1470281" lon="14.1759076">
    <tag k="is_in" v="Czech Republic, Europe"/>
    <tag k="is_in:continent" v="Europe"/>
    <tag k="is_in:country_code" v="cz"/>
    <tag k="name" v="Vodňany"/>
    <tag k="place" v="town"/>
  </node>
  <node id="274125881" version="5" timestamp="2009-03-09T07:39:24Z" uid="19173" user="wopixe" changeset="766357" lat="49.1477187" lon="14.1756835">
    <tag k="is_in" v="Czech Republic, Europe"/>
    <tag k="is_in:continent" v="Europe"/>
    <tag k="is_in:country_code" v="cz"/>
    <tag k="name" v="Vodňany"/>
    <tag k="place" v="town"/>
    <tag k="source" v="uhul:ortofoto"/>
  </node>
  <node id="274125881" version="6" timestamp="2009-06-03T02:06:23Z" uid="131188" user="paracka" changeset="1409636" lat="49.1477132" lon="14.1756805">
    <tag k="is_in" v="Czech Republic, Europe"/>
    <tag k="is_in:continent" v="Europe"/>
    <tag k="is_in:country_code" v="cz"/>
    <tag k="name" v="Vodňany"/>
    <tag k="place" v="town"/>
    <tag k="postal_code" v="389 01"/>
    <tag k="source" v="uhul:ortofoto"/>
  </node>
  <node id="274125881" version="7" timestamp="2009-06-03T02:09:48Z" uid="131188" user="paracka" changeset="1409645" lat="49.1477162" lon="14.1756732">
    <tag k="is_in" v="Czech Republic, Europe"/>
    <tag k="is_in:continent" v="Europe"/>
    <tag k="is_in:country_code" v="cz"/>
    <tag k="name" v="Vodňany"/>
    <tag k="place" v="town"/>
    <tag k="postal_code" v="38901"/>
    <tag k="source" v="uhul:ortofoto"/>
  </node>
  <node id="274125881" version="8" timestamp="2011-03-24T20:11:28Z" uid="152074" user="beweta" changeset="7659428" lat="49.1477162" lon="14.1756732">
    <tag k="is_in" v="Czech Republic, Europe"/>
    <tag k="is_in:continent" v="Europe"/>
    <tag k="is_in:country_code" v="cz"/>
    <tag k="name" v="Vodňany"/>
    <tag k="name:de" v="Wodnian"/>
    <tag k="place" v="town"/>
    <tag k="postal_code" v="38901"/>
    <tag k="source" v="uhul:ortofoto"/>
  </node>
  <node id="274125881" version="9" timestamp="2012-01-20T23:13:39Z" uid="229590" user="xificurk" changeset="10451691" lat="49.1477162" lon="14.1756732"/>
  <node id="274127114" version="1" timestamp="2008-06-27T23:28:29Z" uid="45882" user="smarties" changeset="321628" lat="53.2814306" lon="9.7406106">
    <tag k="amenity" v="Kindergarten"/>
  </node>
  <node id="274127114" version="2" timestamp="2008-07-08T19:58:47Z" uid="6975" user="ulfl" changeset="431192" lat="53.2814306" lon="9.7406106">
    <tag k="amenity" v="kindergarten"/>
  </node>
  <node id="274127114" version="3" timestamp="2008-12-11T22:17:27Z" uid="45882" user="smarties" changeset="321371" lat="53.2814306" lon="9.7406106">
    <tag k="amenity" v="kindergarten"/>
    <tag k="name" v="Kindergarten Todtglüsingen"/>
  </node>
  <node id="274127114" version="4" timestamp="2010-02-23T00:04:17Z" uid="45882" user="smarties" changeset="3948853" lat="53.2814306" lon="9.7406106">
    <tag k="addr:city" v="Tostedt"/>
    <tag k="addr:country" v="DE"/>
    <tag k="addr:housenumber" v="1"/>
    <tag k="addr:postcode" v="21255"/>
    <tag k="addr:street" v="Schulstraße"/>
    <tag k="amenity" v="kindergarten"/>
    <tag k="name" v="Kindergarten Todtglüsingen"/>
    <tag k="operator" v="Samtgemeinde Tostedt"/>
  </node>
  <node id="274127114" version="5" timestamp="2010-02-23T00:30:23Z" uid="45882" user="smarties" changeset="3948975" lat="53.2814306" lon="9.7406106">
    <tag k="addr:city" v="Tostedt"/>
    <tag k="addr:country" v="DE"/>
    <tag k="addr:housenumber" v="1"/>
    <tag k="addr:postcode" v="21255"/>
    <tag k="addr:street" v="Schulstraße"/>
    <tag k="amenity" v="kindergarten"/>
    <tag k="name" v="Kindergarten Todtglüsingen"/>
    <tag k="operator" v="Samtgemeinde Tostedt"/>
    <tag k="phone" v="+49 4182 5126"/>
  </node>
  <node id="274127114" version="6" timestamp="2010-03-07T22:22:27Z" uid="45882" user="smarties" changeset="4067215" lat="53.2814306" lon="9.7406106">
    <tag k="addr:city" v="Tostedt"/>
    <tag k="addr:housenumber" v="1"/>
    <tag k="addr:postcode" v="21255"/>
    <tag k="addr:street" v="Schulstraße"/>
    <tag k="amenity" v="kindergarten"/>
    <tag k="name" v="Kindergarten Todtglüsingen"/>
    <tag k="operator" v="Samtgemeinde Tostedt"/>
    <tag k="phone" v="+49 4182 5126"/>
  </node>
  <node id="274127114" version="7" timestamp="2010-03-08T21:21:52Z" uid="45882" user="smarties" changeset="4076188" lat="53.2814306" lon="9.7406106">
    <tag k="addr:city" v="Tostedt"/>
    <tag k="addr:housenumber" v="1"/>
    <tag k="addr:postcode" v="21255"/>
    <tag k="addr:street" v="Schulstraße"/>
    <tag k="amenity" v="kindergarten"/>
    <tag k="name" v="Kindergarten Todtglüsingen"/>
    <tag k="operator" v="Samtgemeinde Tostedt"/>
    <tag k="phone" v="+49 4182 5126"/>
    <tag k="wheelchair" v="limited"/>
    <tag k="wheelchair:description:de" v="Keine Behindertentoilette"/>
  </node>
  <node id="274127114" version="8" timestamp="2010-03-08T21:22:44Z" uid="45882" user="smarties" changeset="4076200" lat="53.2814306" lon="9.7406106">
    <tag k="addr:city" v="Tostedt"/>
    <tag k="addr:housenumber" v="1"/>
    <tag k="addr:postcode" v="21255"/>
    <tag k="addr:street" v="Schulstraße"/>
    <tag k="amenity" v="kindergarten"/>
    <tag k="name" v="Kindergarten Todtglüsingen"/>
    <tag k="operator" v="Samtgemeinde Tostedt"/>
    <tag k="phone" v="+49 4182 5126"/>
    <tag k="website" v="http://www.tostedt.de"/>
    <tag k="wheelchair" v="limited"/>
    <tag k="wheelchair:description:de" v="Keine Behindertentoilette"/>
  </node>
  <node id="274127114" version="9" timestamp="2010-08-31T19:08:11Z" uid="103124" user="ficus" changeset="5648257" lat="53.2814566" lon="9.7404178">
    <tag k="addr:city" v="Tostedt"/>
    <tag k="addr:housenumber" v="1-3"/>
    <tag k="addr:postcode" v="21255"/>
    <tag k="addr:street" v="Schulstraße"/>
    <tag k="amenity" v="kindergarten"/>
    <tag k="name" v="Kindergarten Todtglüsingen"/>
    <tag k="operator" v="Samtgemeinde Tostedt"/>
    <tag k="phone" v="+49 4182 5126"/>
    <tag k="website" v="http://www.tostedt.de"/>
    <tag k="wheelchair" v="limited"/>
    <tag k="wheelchair:description:de" v="Keine Behindertentoilette"/>
  </node>
  <node id="274127114" version="10" timestamp="2010-12-12T07:15:41Z" uid="103124" user="ficus" changeset="6632699" lat="53.2814566" lon="9.7404178">
    <tag k="addr:city" v="Tostedt"/>
    <tag k="addr:country" v="DE"/>
    <tag k="addr:housenumber" v="1-3"/>
    <tag k="addr:postcode" v="21255"/>
    <tag k="addr:street" v="Schulstraße"/>
    <tag k="amenity" v="kindergarten"/>
    <tag k="name" v="Kindergarten Todtglüsingen"/>
    <tag k="operator" v="Samtgemeinde Tostedt"/>
    <tag k="phone" v="+49 4182 5126"/>
    <tag k="website" v="http://www.tostedt.de"/>
    <tag k="wheelchair" v="limited"/>
    <tag k="wheelchair:description:de" v="Keine Behindertentoilette"/>
  </node>
  <node id="274127114" version="11" timestamp="2011-02-15T21:57:43Z" uid="45882" user="smarties" changeset="7299531" lat="53.2814401" lon="9.7404945">
    <tag k="addr:city" v="Tostedt"/>
    <tag k="addr:country" v="DE"/>
    <tag k="addr:housenumber" v="1-3"/>
    <tag k="addr:postcode" v="21255"/>
    <tag k="addr:street" v="Schulstraße"/>
    <tag k="amenity" v="kindergarten"/>
    <tag k="name" v="Kindergarten Todtglüsingen"/>
    <tag k="operator" v="Samtgemeinde Tostedt"/>
    <tag k="phone" v="+49 4182 5126"/>
    <tag k="website" v="http://www.tostedt.de"/>
    <tag k="wheelchair" v="limited"/>
    <tag k="wheelchair:description:de" v="Keine Behindertentoilette"/>
  </node>
  <node id="274127114" version="12" timestamp="2012-01-29T22:39:11Z" uid="45882" user="smarties" changeset="10535576" lat="53.2814401" lon="9.7404945">
    <tag k="addr:city" v="Tostedt"/>
    <tag k="addr:country" v="DE"/>
    <tag k="addr:housenumber" v="1-3"/>
    <tag k="addr:postcode" v="21255"/>
    <tag k="addr:street" v="Schulstraße"/>
    <tag k="amenity" v="kindergarten"/>
    <tag k="name" v="Kindergarten Todtglüsingen"/>
    <tag k="operator" v="Samtgemeinde Tostedt"/>
    <tag k="phone" v="+49 4182 5126"/>
    <tag k="website" v="http://www.tostedt.de"/>
    <tag k="wheelchair" v="limited"/>
    <tag k="wheelchair:description" v="Keine Behindertentoilette"/>
  </node>
  <node id="274127765" version="3" timestamp="2010-08-24T21:08:56Z" uid="9581" user="Lobelt" changeset="5584192" lat="49.3993368" lon="8.7141605"/>
  <node id="274127765" version="4" timestamp="2011-05-15T21:57:06Z" uid="202726" user="whb" changeset="8157516" lat="49.3993597" lon="8.7140804"/>
  <node id="274127765" version="5" timestamp="2011-05-22T17:54:00Z" uid="160164" user="mahau" changeset="8219021" lat="49.3994136" lon="8.7141334"/>
  <node id="274127765" version="6" timestamp="2012-01-27T01:29:50Z" uid="202726" user="whb" changeset="10508818" lat="49.3993547" lon="8.714119"/>
  <node id="274127766" version="3" timestamp="2010-08-24T21:08:57Z" uid="9581" user="Lobelt" changeset="5584192" lat="49.3985325" lon="8.7139519"/>
  <node id="274127766" version="4" timestamp="2012-01-17T21:48:31Z" uid="202726" user="whb" changeset="10422648" lat="49.3985325" lon="8.7139519"/>
  <node id="274127768" version="3" timestamp="2010-08-24T21:08:54Z" uid="9581" user="Lobelt" changeset="5584192" lat="49.3979681" lon="8.7137629"/>
  <node id="274127768" version="4" timestamp="2012-01-17T21:48:31Z" uid="202726" user="whb" changeset="10422648" lat="49.3979681" lon="8.7137629"/>
  <node id="274127770" version="5" timestamp="2010-08-24T21:08:56Z" uid="9581" user="Lobelt" changeset="5584192" lat="49.3976186" lon="8.713715"/>
  <node id="274127770" version="6" timestamp="2011-01-31T16:59:49Z" uid="160164" user="mahau" changeset="7146641" lat="49.3975656" lon="8.713715"/>
  <node id="274127770" version="7" timestamp="2011-05-22T17:56:31Z" uid="160164" user="mahau" changeset="8219021" lat="49.3974921" lon="8.7137256"/>
  <node id="274127770" version="8" timestamp="2012-01-17T21:48:17Z" uid="202726" user="whb" changeset="10422648" lat="49.3974948" lon="8.7137105"/>
  <node id="274127771" version="3" timestamp="2010-08-24T21:08:57Z" uid="9581" user="Lobelt" changeset="5584192" lat="49.3972028" lon="8.7137334"/>
  <node id="274127771" version="4" timestamp="2012-01-17T21:48:31Z" uid="202726" user="whb" changeset="10422648" lat="49.3972028" lon="8.7137334"/>
  <node id="274129261" version="6" timestamp="2009-10-07T16:55:32Z" uid="86259" user="hasse_osm_korinthenkacker" changeset="2773624" lat="51.1431545" lon="14.9646544"/>
  <node id="274129261" version="7" timestamp="2009-10-08T20:12:49Z" uid="86259" user="hasse_osm_korinthenkacker" changeset="2785814" lat="51.1431545" lon="14.9646544"/>
  <node id="274129350" version="2" timestamp="2010-04-17T09:47:17Z" uid="74617" user="JohnSmith" changeset="4445439" lat="-27.0697648" lon="153.1616089"/>
  <node id="274129351" version="2" timestamp="2010-04-17T09:47:17Z" uid="74617" user="JohnSmith" changeset="4445439" lat="-27.07008" lon="153.1617661"/>
  <node id="274129934" version="2" timestamp="2010-04-17T09:52:04Z" uid="74617" user="JohnSmith" changeset="4445439" lat="-27.0714779" lon="153.1552432"/>
  <node id="274129935" version="2" timestamp="2010-04-17T09:52:04Z" uid="74617" user="JohnSmith" changeset="4445439" lat="-27.0712595" lon="153.1553516"/>
  <node id="274129936" version="2" timestamp="2010-04-17T09:52:04Z" uid="74617" user="JohnSmith" changeset="4445439" lat="-27.0710894" lon="153.1554387"/>
</osm>
