<?xml version='1.0' encoding='UTF-8'?>
<osm version="0.6" generator="libosmium/2.20.0">
  <node id="274980464" version="2" timestamp="2008-09-14T20:56:13Z" uid="6975" user="ulfl" changeset="640534" lat="51.5117228" lon="9.9724522">
    <tag k="amenity" v="retirement_home"/>
    <tag k="building" v="yes"/>
  </node>
  <node id="274980464" version="3" timestamp="2009-06-02T13:37:34Z" uid="38286" user="t_u_b_o" changeset="1404093" lat="51.511723" lon="9.972452">
    <tag k="addr:city" v="Göttingen"/>
    <tag k="addr:country" v="DE"/>
    <tag k="addr:housenumber" v="19"/>
    <tag k="addr:phone" v="+49 551 7990"/>
    <tag k="addr:postcode" v="37085"/>
    <tag k="addr:street" v="Charlottenburger Straße"/>
    <tag k="amenity" v="retirement_home"/>
    <tag k="building" v="yes"/>
    <tag k="name" v="Wohnstift Göttingen"/>
  </node>
  <node id="274980464" version="4" timestamp="2009-06-02T13:42:42Z" uid="38286" user="t_u_b_o" changeset="1404123" lat="51.511723" lon="9.972452">
    <tag k="addr:city" v="Göttingen"/>
    <tag k="addr:country" v="DE"/>
    <tag k="addr:housenumber" v="19"/>
    <tag k="addr:phone" v="+49 551 7990"/>
    <tag k="addr:postcode" v="37085"/>
    <tag k="addr:street" v="Charlottenburger Straße"/>
    <tag k="amenity" v="retirement_home"/>
    <tag k="building" v="yes"/>
    <tag k="name" v="Wohnstift Göttingen"/>
    <tag k="url" v="http://www.gda.de/"/>
  </node>
  <node id="274980464" version="5" timestamp="2010-04-15T15:10:30Z" uid="70696" user="xybot" changeset="4431179" lat="51.511723" lon="9.972452">
    <tag k="addr:city" v="Göttingen"/>
    <tag k="addr:country" v="DE"/>
    <tag k="addr:housenumber" v="19"/>
    <tag k="addr:postcode" v="37085"/>
    <tag k="addr:street" v="Charlottenburger Straße"/>
    <tag k="amenity" v="retirement_home"/>
    <tag k="building" v="yes"/>
    <tag k="name" v="Wohnstift Göttingen"/>
    <tag k="phone" v="+49 551 7990"/>
    <tag k="url" v="http://www.gda.de/"/>
  </node>
  <node id="274980464" version="6" timestamp="2010-09-20T15:12:44Z" uid="65148" user="Pirat Michi" changeset="5829678" lat="51.511723" lon="9.972452">
    <tag k="addr:city" v="Göttingen"/>
    <tag k="addr:country" v="DE"/>
    <tag k="addr:housenumber" v="19"/>
    <tag k="addr:postcode" v="37085"/>
    <tag k="addr:street" v="Charlottenburger Straße"/>
    <tag k="amenity" v="retirement_home"/>
    <tag k="building" v="yes"/>
    <tag k="name" v="Wohnstift Göttingen"/>
    <tag k="phone" v="+49 551 7990"/>
    <tag k="website" v="http://www.gda.de/"/>
  </node>
  <node id="274980464" version="7" timestamp="2010-09-20T21:20:13Z" uid="65148" user="Pirat Michi" changeset="5833083" lat="51.511723" lon="9.972452">
    <tag k="addr:city" v="Göttingen"/>
    <tag k="addr:country" v="DE"/>
    <tag k="addr:housenumber" v="19"/>
    <tag k="addr:postcode" v="37085"/>
    <tag k="addr:street" v="Charlottenburger Straße"/>
    <tag k="amenity" v="nursing_home"/>
    <tag k="building" v="yes"/>
    <tag k="name" v="Wohnstift Göttingen"/>
    <tag k="phone" v="+49 551 7990"/>
    <tag k="website" v="http://www.gda.de/"/>
  </node>
  <node id="274980464" version="8" timestamp="2010-09-23T12:59:09Z" uid="65148" user="Pirat Michi" changeset="5853860" lat="51.511723" lon="9.972452">
    <tag k="addr:city" v="Göttingen"/>
    <tag k="addr:country" v="DE"/>
    <tag k="addr:housenumber" v="19"/>
    <tag k="addr:postcode" v="37085"/>
    <tag k="addr:street" v="Charlottenburger Straße"/>
    <tag k="amenity" v="retirement_home"/>
    <tag k="building" v="yes"/>
    <tag k="name" v="Wohnstift Göttingen"/>
    <tag k="phone" v="+49 551 7990"/>
    <tag k="website" v="http://www.gda.de/"/>
  </node>
  <node id="274980464" version="9" timestamp="2011-11-13T16:32:33Z" uid="18369" user="magmer" changeset="9815897" lat="51.511723" lon="9.972452">
    <tag k="addr:city" v="Göttingen"/>
    <tag k="addr:country" v="DE"/>
    <tag k="addr:housenumber" v="19"/>
    <tag k="addr:postcode" v="37085"/>
    <tag k="addr:street" v="Charlottenburger Straße"/>
    <tag k="amenity" v="nursing_home"/>
    <tag k="building" v="yes"/>
    <tag k="name" v="GDA Wohnstift Göttingen"/>
    <tag k="phone" v="+49 551 7990"/>
    <tag k="website" v="http://www.gda.de/"/>
  </node>
  <node id="274980780" version="2" timestamp="2009-07-17T11:58:49Z" uid="20587" user="balrog-kun" changeset="1853631" lat="27.9030316" lon="-15.4425264">
    <tag k="is_in" v="Gran Canaria,Islas Canarias,Spain"/>
    <tag k="name" v="Agüimes"/>
    <tag k="place" v="village"/>
    <tag k="population" v="25556"/>
  </node>
  <node id="274980780" version="3" timestamp="2009-07-21T23:47:44Z" uid="20587" user="balrog-kun" changeset="1900339" lat="27.9049541" lon="-15.4445131">
    <tag k="is_in" v="Gran Canaria,Islas Canarias,Spain"/>
    <tag k="name" v="Agüimes"/>
    <tag k="place" v="village"/>
    <tag k="population" v="25556"/>
  </node>
  <node id="274980780" version="4" timestamp="2009-07-22T01:59:39Z" uid="20587" user="balrog-kun" changeset="1900582" lat="27.9049541" lon="-15.4445131">
    <tag k="is_in" v="Gran Canaria,Islas Canarias,Spain"/>
    <tag k="name" v="Agüimes"/>
    <tag k="note" v="The wikipedia page is about the municipality rather than the village alone which the node refers to, same with population"/>
    <tag k="place" v="village"/>
    <tag k="population" v="28224"/>
    <tag k="wikipedia" v="es:Agüimes"/>
  </node>
  <node id="274980780" version="5" timestamp="2011-10-07T15:54:40Z" uid="399394" user="egrn" changeset="9495213" lat="27.9049541" lon="-15.4445131">
    <tag k="admin_level" v="8"/>
    <tag k="capital" v="yes"/>
    <tag k="ele" v="265"/>
    <tag k="is_in" v="Gran Canaria,Islas Canarias,Spain"/>
    <tag k="is_in:municipality" v="Agüimes"/>
    <tag k="is_in:province_code" v="35"/>
    <tag k="name" v="Agüimes"/>
    <tag k="note" v="The wikipedia page is about the municipality rather than the village alone which the node refers to, same with population"/>
    <tag k="place" v="village"/>
    <tag k="population" v="28224"/>
    <tag k="ref:ine" v="35002000100"/>
    <tag k="source" v="Instituto Geográfico Nacional"/>
    <tag k="source:date" v="2011-06"/>
    <tag k="source:ele" v="MDT5"/>
    <tag k="source:file" v="http://centrodedescargas.cnig.es/CentroDescargas/equipamiento/BD_Municipios-Entidades.zip"/>
    <tag k="source:name" v="Nomenclátor Geográfico de Municipios y Entidades de Población"/>
    <tag k="wikipedia" v="es:Agüimes"/>
  </node>
  <node id="274980780" version="6" timestamp="2011-10-17T22:12:42Z" uid="399394" user="egrn" changeset="9586881" lat="27.9049541" lon="-15.4445131">
    <tag k="admin_level" v="8"/>
    <tag k="capital" v="8"/>
    <tag k="ele" v="265"/>
    <tag k="is_in" v="Gran Canaria,Islas Canarias,Spain"/>
    <tag k="is_in:municipality" v="Agüimes"/>
    <tag k="is_in:province_code" v="35"/>
    <tag k="name" v="Agüimes"/>
    <tag k="note" v="The wikipedia page is about the municipality rather than the village alone which the node refers to, same with population"/>
    <tag k="place" v="village"/>
    <tag k="population" v="28224"/>
    <tag k="ref:ine" v="35002000100"/>
    <tag k="source" v="Instituto Geográfico Nacional"/>
    <tag k="source:date" v="2011-06"/>
    <tag k="source:ele" v="MDT5"/>
    <tag k="source:file" v="http://centrodedescargas.cnig.es/CentroDescargas/equipamiento/BD_Municipios-Entidades.zip"/>
    <tag k="source:name" v="Nomenclátor Geográfico de Municipios y Entidades de Población"/>
    <tag k="wikipedia" v="es:Agüimes"/>
  </node>
  <node id="274981691" version="3" timestamp="2010-04-29T20:23:01Z" uid="9581" user="Lobelt" changeset="4561205" lat="49.3959279" lon="8.5749701">
    <tag k="railway" v="level_crossing"/>
  </node>
  <node id="274981691" version="4" timestamp="2010-08-05T16:30:54Z" uid="142422" user="BIGTH" changeset="5409755" lat="49.3959258" lon="8.5749665">
    <tag k="railway" v="level_crossing"/>
  </node>
  <node id="274981692" version="4" timestamp="2010-04-29T20:14:42Z" uid="9581" user="Lobelt" changeset="4561130" lat="49.3935123" lon="8.572797">
    <tag k="railway" v="level_crossing"/>
  </node>
  <node id="274981692" version="5" timestamp="2010-09-21T21:04:57Z" uid="142422" user="BIGTH" changeset="5840913" lat="49.3935123" lon="8.572797">
    <tag k="railway" v="level_crossing"/>
  </node>
  <node id="274987236" version="5" timestamp="2008-12-23T06:27:05Z" uid="27600" user="Islanit" changeset="573140" lat="47.4840032" lon="10.7214971"/>
  <node id="274987236" version="6" timestamp="2009-01-13T13:50:40Z" uid="48087" user="pos_ei_don" changeset="784231" lat="47.4839496" lon="10.7214349"/>
  <node id="274987236" version="7" timestamp="2009-03-16T06:40:58Z" uid="106405" user="turbojoe" changeset="821628" lat="47.4839914" lon="10.7214504"/>
  <node id="274987236" version="8" timestamp="2009-05-26T15:36:58Z" uid="106405" user="turbojoe" changeset="1326682" lat="47.4840053" lon="10.7214833"/>
  <node id="274987238" version="3" timestamp="2008-12-23T06:27:05Z" uid="27600" user="Islanit" changeset="573140" lat="47.4841447" lon="10.7212747"/>
  <node id="274987238" version="4" timestamp="2009-01-05T23:09:45Z" uid="25510" user="Apo42" changeset="743420" lat="47.4841163" lon="10.7213457"/>
  <node id="274987238" version="5" timestamp="2009-01-13T13:50:40Z" uid="48087" user="pos_ei_don" changeset="784231" lat="47.4840864" lon="10.7212968"/>
  <node id="274987238" version="6" timestamp="2009-03-16T06:40:58Z" uid="106405" user="turbojoe" changeset="821628" lat="47.4841282" lon="10.7213123"/>
  <node id="274987238" version="7" timestamp="2010-10-19T17:16:22Z" uid="106405" user="turbojoe" changeset="6101303" lat="47.4841641" lon="10.7212485"/>
  <node id="274988065" version="3" timestamp="2009-02-18T17:30:06Z" uid="33382" user="de_muur" changeset="541453" lat="53.0184724" lon="8.9096168">
    <tag k="barrier" v="gate"/>
    <tag k="bicycle" v="yes"/>
    <tag k="foot" v="yes"/>
  </node>
  <node id="274988065" version="4" timestamp="2010-02-06T14:39:47Z" uid="33382" user="de_muur" changeset="3805669" lat="53.0184724" lon="8.9096168">
    <tag k="access" v="no"/>
    <tag k="barrier" v="gate"/>
    <tag k="bicycle" v="yes"/>
    <tag k="foot" v="yes"/>
  </node>
  <node id="274989885" version="3" timestamp="2009-12-13T12:11:08Z" uid="1066" user="pavel" changeset="3362218" lat="49.801596" lon="14.1701289"/>
  <node id="274989885" version="4" timestamp="2010-03-29T10:24:06Z" uid="90247" user="karpi" changeset="4266006" lat="49.8016075" lon="14.1701498"/>
</osm>
