<?xml version='1.0' encoding='UTF-8'?>
<osm version="0.6" generator="libosmium/2.20.0">
  <node id="275701625" version="1" timestamp="2008-07-02T21:16:07Z" uid="30201" user="rrankin" changeset="371671" lat="-33.9063356" lon="150.963277"/>
  <node id="275701625" version="2" timestamp="2010-05-11T07:26:00Z" uid="30201" user="rrankin" changeset="4666054" lat="-33.9062894" lon="150.9631846"/>
  <node id="275701690" version="1" timestamp="2008-07-02T21:16:08Z" uid="30201" user="rrankin" changeset="371671" lat="-33.9062412" lon="150.9633181"/>
  <node id="275701690" version="2" timestamp="2010-05-11T07:26:01Z" uid="30201" user="rrankin" changeset="4666054" lat="-33.9062222" lon="150.9632328"/>
  <node id="275701857" version="1" timestamp="2008-07-02T21:16:54Z" uid="4667" user="MapZ" changeset="374787" lat="32.7165614" lon="-16.966861">
    <tag k="ele" v="640"/>
    <tag k="is_in" v="Camara de Lobos,Madeira,Portugal"/>
    <tag k="name" v="Curral das Freiras"/>
    <tag k="place" v="village"/>
    <tag k="source" v="wikipedia"/>
  </node>
  <node id="275701857" version="2" timestamp="2008-08-27T16:53:12Z" uid="35483" user="FraFie" changeset="430677" lat="32.720835" lon="-16.9657129">
    <tag k="ele" v="640"/>
    <tag k="is_in" v="Camara de Lobos,Madeira,Portugal"/>
    <tag k="name" v="Curral das Freiras"/>
    <tag k="place" v="village"/>
    <tag k="source" v="wikipedia"/>
  </node>
  <node id="275701857" version="3" timestamp="2011-12-04T21:29:16Z" uid="179581" user="Geofreund1" changeset="10037812" lat="32.720835" lon="-16.9657129">
    <tag k="ele" v="640"/>
    <tag k="is_in" v="Camara de Lobos,Madeira,Portugal"/>
    <tag k="name" v="Curral das Freiras"/>
    <tag k="place" v="village"/>
    <tag k="population" v="1673"/>
    <tag k="source" v="wikipedia"/>
  </node>
  <node id="275701858" version="1" timestamp="2008-07-02T21:16:54Z" uid="4667" user="MapZ" changeset="374787" lat="32.6667469" lon="-16.983251">
    <tag k="ele" v="460"/>
    <tag k="is_in" v="Camara de Lobos,Madeira,Portugal"/>
    <tag k="name" v="Estreito de Camara de Lobos"/>
    <tag k="place" v="village"/>
  </node>
  <node id="275701858" version="2" timestamp="2011-12-04T21:40:40Z" uid="179581" user="Geofreund1" changeset="10037943" lat="32.6667469" lon="-16.983251">
    <tag k="ele" v="460"/>
    <tag k="is_in" v="Camara de Lobos,Madeira,Portugal"/>
    <tag k="name" v="Estreito de Camara de Lobos"/>
    <tag k="place" v="village"/>
    <tag k="population" v="10283"/>
  </node>
  <node id="275702101" version="2" timestamp="2008-12-03T09:15:39Z" uid="43863" user="Rundling" changeset="66037" lat="52.9896391" lon="9.8525753">
    <tag k="created_by" v="JOSM"/>
  </node>
  <node id="275702102" version="2" timestamp="2008-12-03T09:15:39Z" uid="43863" user="Rundling" changeset="66037" lat="52.9891615" lon="9.8531524">
    <tag k="created_by" v="JOSM"/>
  </node>
  <node id="275702103" version="2" timestamp="2008-12-03T09:15:39Z" uid="43863" user="Rundling" changeset="66037" lat="52.9887701" lon="9.8523896">
    <tag k="created_by" v="JOSM"/>
  </node>
  <node id="275702104" version="2" timestamp="2008-12-03T09:15:40Z" uid="43863" user="Rundling" changeset="66037" lat="52.9892543" lon="9.8517661">
    <tag k="created_by" v="JOSM"/>
  </node>
  <node id="275702105" version="2" timestamp="2008-12-03T09:15:40Z" uid="43863" user="Rundling" changeset="66037" lat="52.98946" lon="9.8527942">
    <tag k="created_by" v="JOSM"/>
  </node>
  <node id="275702106" version="2" timestamp="2008-12-03T09:15:40Z" uid="43863" user="Rundling" changeset="66037" lat="52.989712" lon="9.8533448">
    <tag k="created_by" v="JOSM"/>
  </node>
  <node id="275702107" version="2" timestamp="2008-12-03T09:15:40Z" uid="43863" user="Rundling" changeset="66037" lat="52.9895528" lon="9.8535371">
    <tag k="created_by" v="JOSM"/>
  </node>
  <node id="275702108" version="2" timestamp="2008-12-03T09:15:40Z" uid="43863" user="Rundling" changeset="66037" lat="52.9892809" lon="9.8529999">
    <tag k="created_by" v="JOSM"/>
  </node>
  <node id="275702368" version="12" timestamp="2009-03-28T22:22:10Z" uid="87590" user="Alois_Paul" changeset="866114" lat="48.1632631" lon="8.685354"/>
  <node id="275702368" version="13" timestamp="2009-03-28T22:30:00Z" uid="87590" user="Alois_Paul" changeset="866114" lat="48.1632631" lon="8.685354"/>
  <node id="275702368" version="14" timestamp="2009-04-03T22:30:31Z" uid="87590" user="Alois_Paul" changeset="188126" lat="48.1632631" lon="8.685354"/>
  <node id="275702368" version="15" timestamp="2009-04-03T22:30:54Z" uid="87590" user="Alois_Paul" changeset="188126" lat="48.1632631" lon="8.685354"/>
  <node id="275702368" version="16" timestamp="2009-04-03T22:31:25Z" uid="87590" user="Alois_Paul" changeset="188126" lat="48.1632631" lon="8.685354"/>
  <node id="275702368" version="17" timestamp="2009-04-07T18:34:56Z" uid="87590" user="Alois_Paul" changeset="307183" lat="48.1632631" lon="8.685354"/>
  <node id="275702368" version="18" timestamp="2009-04-07T18:35:29Z" uid="87590" user="Alois_Paul" changeset="307183" lat="48.1632631" lon="8.685354"/>
  <node id="275702368" version="19" timestamp="2009-04-07T19:57:55Z" uid="87590" user="Alois_Paul" changeset="307183" lat="48.1632631" lon="8.685354"/>
  <node id="275702368" version="20" timestamp="2009-04-14T20:14:28Z" uid="87590" user="Alois_Paul" changeset="537606" lat="48.1632631" lon="8.685354"/>
  <node id="275702368" version="21" timestamp="2009-04-14T21:41:22Z" uid="45228" user="heavy" changeset="531532" lat="48.1632631" lon="8.685354"/>
  <node id="275702368" version="22" timestamp="2009-05-28T17:31:13Z" uid="45228" user="heavy" changeset="1344763" lat="48.1632631" lon="8.685354"/>
  <node id="275702368" version="23" timestamp="2009-06-07T19:47:51Z" uid="42221" user="Andys-de" changeset="1453041" lat="48.1632631" lon="8.685354"/>
  <node id="275702368" version="24" timestamp="2011-04-30T15:06:36Z" uid="446310" user="Wisco87" changeset="8012250" lat="48.1632631" lon="8.685354"/>
  <node id="275702708" version="3" timestamp="2008-07-09T01:05:32Z" uid="6975" user="ulfl" changeset="443284" lat="48.4601659" lon="9.3578881">
    <tag k="created_by" v="Digger-sr"/>
    <tag k="highway" v="Upfinger Str."/>
  </node>
  <node id="275703894" version="2" timestamp="2008-09-29T22:44:51Z" uid="1066" user="pavel" changeset="720263" lat="49.2977172" lon="14.5176108">
    <tag k="is_in" v="Czech Republic, Europe"/>
    <tag k="name" v="Bežerovice"/>
    <tag k="place" v="village"/>
  </node>
  <node id="275703894" version="3" timestamp="2008-11-04T13:05:42Z" uid="308" user="MichaelCollinson" changeset="676656" lat="49.2977172" lon="14.5176108">
    <tag k="is_in" v="Czech Republic, Europe"/>
    <tag k="is_in:continent" v="Europe"/>
    <tag k="is_in:country_code" v="cz"/>
    <tag k="name" v="Bežerovice"/>
    <tag k="place" v="village"/>
  </node>
  <node id="275703894" version="4" timestamp="2012-01-20T21:57:51Z" uid="536216" user="uir-zsj" changeset="10451080" lat="49.2977172" lon="14.5176108"/>
  <node id="275704197" version="1" timestamp="2008-07-02T21:28:13Z" uid="4667" user="MapZ" changeset="374787" lat="32.6527074" lon="-17.0165739">
    <tag k="ele" v="450"/>
    <tag k="is_in" v="Camara de Lobos,Madeira,Portugal"/>
    <tag k="name" v="Quinta Grande"/>
    <tag k="place" v="village"/>
    <tag k="source" v="wikipedia"/>
  </node>
  <node id="275704197" version="2" timestamp="2011-10-17T19:26:45Z" uid="179581" user="Geofreund1" changeset="9585350" lat="32.6527074" lon="-17.0165739">
    <tag k="ele" v="450"/>
    <tag k="is_in" v="Camara de Lobos,Madeira,Portugal"/>
    <tag k="name" v="Quinta Grande"/>
    <tag k="place" v="village"/>
    <tag k="population" v="2250"/>
    <tag k="source" v="wikipedia"/>
  </node>
  <node id="275704199" version="1" timestamp="2008-07-02T21:28:14Z" uid="4667" user="MapZ" changeset="374787" lat="32.6605059" lon="-17.0321131">
    <tag k="is_in" v="Ribeira Brava,Madeira,Portugal"/>
    <tag k="name" v="Campanario"/>
    <tag k="place" v="village"/>
    <tag k="source" v="wikipedia"/>
  </node>
  <node id="275704199" version="2" timestamp="2008-08-18T16:27:36Z" uid="59945" user="geps" changeset="316696" lat="32.6605113" lon="-17.0321066">
    <tag k="created_by" v="Potlatch 0.10b"/>
    <tag k="is_in" v="Ribeira Brava,Madeira,Portugal"/>
    <tag k="name" v="Campanario"/>
    <tag k="place" v="village"/>
    <tag k="source" v="wikipedia"/>
  </node>
  <node id="275704199" version="3" timestamp="2010-03-29T17:50:12Z" uid="13363" user="CaptainCrunch" changeset="4269305" lat="32.6605113" lon="-17.0321066">
    <tag k="is_in" v="Ribeira Brava,Madeira,Portugal"/>
    <tag k="name" v="Campanario"/>
    <tag k="place" v="village"/>
    <tag k="source" v="wikipedia"/>
  </node>
  <node id="275704199" version="4" timestamp="2010-11-10T22:27:36Z" uid="364960" user="castro" changeset="6340240" lat="32.6684714" lon="-17.0325289">
    <tag k="is_in" v="Ribeira Brava,Madeira,Portugal"/>
    <tag k="name" v="Campanario"/>
    <tag k="place" v="village"/>
    <tag k="source" v="wikipedia"/>
  </node>
  <node id="275704199" version="5" timestamp="2011-10-17T19:28:37Z" uid="179581" user="Geofreund1" changeset="9585368" lat="32.6684714" lon="-17.0325289">
    <tag k="is_in" v="Ribeira Brava,Madeira,Portugal"/>
    <tag k="name" v="Campanario"/>
    <tag k="place" v="village"/>
    <tag k="population" v="4300"/>
    <tag k="source" v="wikipedia"/>
  </node>
  <node id="275704252" version="1" timestamp="2008-07-02T21:29:00Z" uid="42220" user="longsch" changeset="373093" lat="47.5507347" lon="7.6039782">
    <tag k="name" v="Sevogelplatz"/>
    <tag k="railway" v="tram station"/>
  </node>
  <node id="275704252" version="2" timestamp="2008-07-04T22:08:56Z" uid="6975" user="ulfl" changeset="395915" lat="47.5507347" lon="7.6039782">
    <tag k="name" v="Sevogelplatz"/>
    <tag k="railway" v="tram_station"/>
  </node>
  <node id="275704252" version="3" timestamp="2008-08-09T18:28:31Z" uid="42220" user="longsch" changeset="158743" lat="47.5507347" lon="7.6039782">
    <tag k="name" v="Sevogelplatz"/>
    <tag k="railway" v="tram_stop"/>
  </node>
  <node id="275704252" version="4" timestamp="2010-11-10T07:16:23Z" uid="368211" user="DidokImportCH" changeset="6333593" lat="47.550735" lon="7.603978">
    <tag k="ele" v="271"/>
    <tag k="name" v="Sevogelplatz"/>
    <tag k="operator" v="BVB"/>
    <tag k="railway" v="tram_stop"/>
    <tag k="uic_name" v="Basel, Sevogelplatz"/>
    <tag k="uic_ref" v="8589362"/>
  </node>
  <node id="275704252" version="5" timestamp="2011-02-20T10:33:57Z" uid="282726" user="kaiD" changeset="7340505" lat="47.550735" lon="7.6039453">
    <tag k="ele" v="271"/>
    <tag k="name" v="Sevogelplatz"/>
    <tag k="operator" v="BVB"/>
    <tag k="railway" v="tram_stop"/>
    <tag k="uic_name" v="Basel, Sevogelplatz"/>
    <tag k="uic_ref" v="8589362"/>
  </node>
  <node id="275704253" version="1" timestamp="2008-07-02T21:29:01Z" uid="42220" user="longsch" changeset="373093" lat="47.5493901" lon="7.6066802">
    <tag k="name" v="Grellingerstrasse"/>
    <tag k="railway" v="tram station"/>
  </node>
  <node id="275704253" version="2" timestamp="2008-07-04T22:08:55Z" uid="6975" user="ulfl" changeset="395915" lat="47.5493901" lon="7.6066802">
    <tag k="name" v="Grellingerstrasse"/>
    <tag k="railway" v="tram_station"/>
  </node>
  <node id="275704253" version="3" timestamp="2008-08-09T18:28:30Z" uid="42220" user="longsch" changeset="158743" lat="47.5493901" lon="7.6066802">
    <tag k="name" v="Grellingerstrasse"/>
    <tag k="railway" v="tram_stop"/>
  </node>
  <node id="275704253" version="4" timestamp="2010-11-10T07:16:23Z" uid="368211" user="DidokImportCH" changeset="6333593" lat="47.54939" lon="7.60668">
    <tag k="ele" v="273"/>
    <tag k="name" v="Grellingerstrasse"/>
    <tag k="operator" v="BVB"/>
    <tag k="railway" v="tram_stop"/>
    <tag k="uic_name" v="Basel, Grellingerstrasse"/>
    <tag k="uic_ref" v="8589317"/>
  </node>
  <node id="275704264" version="1" timestamp="2008-07-02T21:29:01Z" uid="42220" user="longsch" changeset="373093" lat="47.5480348" lon="7.6092999">
    <tag k="name" v="Karl-Barth-Platz"/>
    <tag k="railway" v="tram station"/>
  </node>
  <node id="275704264" version="2" timestamp="2008-07-04T22:08:56Z" uid="6975" user="ulfl" changeset="395915" lat="47.5480348" lon="7.6092999">
    <tag k="name" v="Karl-Barth-Platz"/>
    <tag k="railway" v="tram_station"/>
  </node>
  <node id="275704264" version="3" timestamp="2008-07-19T12:03:38Z" uid="40112" user="zapfen" changeset="543408" lat="47.5480348" lon="7.6092999">
    <tag k="name" v="Karl-Barth-Platz"/>
    <tag k="railway" v="tram_station"/>
  </node>
  <node id="275704264" version="4" timestamp="2008-08-09T18:28:30Z" uid="42220" user="longsch" changeset="158743" lat="47.5480348" lon="7.6092999">
    <tag k="name" v="Karl-Barth-Platz"/>
    <tag k="railway" v="tram_stop"/>
  </node>
  <node id="275704264" version="5" timestamp="2011-01-07T00:21:37Z" uid="52921" user="t-i" changeset="6888658" lat="47.5480348" lon="7.6092999">
    <tag k="name" v="Karl-Barth-Platz"/>
    <tag k="railway" v="tram_stop"/>
  </node>
  <node id="275705098" version="1" timestamp="2008-07-02T21:33:14Z" uid="4667" user="MapZ" changeset="374787" lat="32.6471759" lon="-16.8894258">
    <tag k="ele" v="0"/>
    <tag k="is_in" v="Funchal,Madeira,Portugal"/>
    <tag k="name" v="Santa Maria Maior"/>
    <tag k="place" v="town"/>
    <tag k="source" v="wikipedia"/>
  </node>
  <node id="275705333" version="2" timestamp="2009-12-02T20:03:36Z" uid="38524" user="Kuddy" changeset="3275001" lat="49.8766091" lon="6.641852">
    <tag k="name" v="Daufenbach"/>
    <tag k="place" v="village"/>
  </node>
  <node id="275705687" version="1" timestamp="2008-07-02T21:35:43Z" uid="4667" user="MapZ" changeset="374787" lat="32.641303" lon="-16.8322126">
    <tag k="is_in" v="Funchal,Madeira,Portugal"/>
    <tag k="name" v="Sao Goncalo"/>
    <tag k="place" v="town"/>
  </node>
  <node id="275705687" version="2" timestamp="2008-07-02T21:39:02Z" uid="4667" user="MapZ" changeset="374787" lat="32.641303" lon="-16.8322126">
    <tag k="is_in" v="Funchal,Madeira,Portugal"/>
    <tag k="name" v="Sao Goncalo"/>
    <tag k="place" v="town"/>
    <tag k="source" v="wikipedia"/>
  </node>
  <node id="275705687" version="3" timestamp="2008-10-16T17:23:05Z" uid="73253" user="pnfa" changeset="384855" lat="32.6413039" lon="-16.8322185">
    <tag k="created_by" v="Potlatch 0.10e"/>
    <tag k="is_in" v="Funchal,Madeira,Portugal"/>
    <tag k="name" v="Sao Goncalo"/>
    <tag k="place" v="town"/>
    <tag k="source" v="wikipedia"/>
  </node>
  <node id="275705687" version="4" timestamp="2008-11-26T13:08:28Z" uid="52495" user="seawolff" changeset="796579" lat="32.6413055" lon="-16.8322203">
    <tag k="created_by" v="Potlatch 0.10f"/>
    <tag k="is_in" v="Funchal,Madeira,Portugal"/>
    <tag k="name" v="Canico de baixo"/>
    <tag k="place" v="village"/>
  </node>
  <node id="275705687" version="5" timestamp="2008-11-26T13:29:34Z" uid="52495" user="seawolff" changeset="796579" lat="32.6433942" lon="-16.832452">
    <tag k="created_by" v="Potlatch 0.10f"/>
    <tag k="is_in" v="Funchal,Madeira,Portugal"/>
    <tag k="name" v="Canico de baixo"/>
    <tag k="place" v="village"/>
  </node>
  <node id="275705687" version="6" timestamp="2010-03-29T17:51:05Z" uid="13363" user="CaptainCrunch" changeset="4269305" lat="32.6433942" lon="-16.832452">
    <tag k="is_in" v="Funchal,Madeira,Portugal"/>
    <tag k="name" v="Canico de baixo"/>
    <tag k="place" v="village"/>
  </node>
  <node id="275706439" version="1" timestamp="2008-07-02T21:39:02Z" uid="4667" user="MapZ" changeset="374787" lat="32.651065" lon="-16.9336731">
    <tag k="ele" v="195"/>
    <tag k="is_in" v="Funchal,Madeira,Portugal"/>
    <tag k="name" v="Santo Antonio"/>
    <tag k="place" v="town"/>
    <tag k="source" v="wikipedia"/>
  </node>
  <node id="275706439" version="2" timestamp="2010-11-05T20:59:29Z" uid="364960" user="castro" changeset="6298150" lat="32.6643906" lon="-16.9330512">
    <tag k="ele" v="195"/>
    <tag k="is_in" v="Funchal,Madeira,Portugal"/>
    <tag k="name" v="Santo Antonio"/>
    <tag k="place" v="town"/>
    <tag k="source" v="wikipedia"/>
  </node>
  <node id="275706439" version="3" timestamp="2011-10-17T19:38:04Z" uid="179581" user="Geofreund1" changeset="9585467" lat="32.6643906" lon="-16.9330512">
    <tag k="ele" v="195"/>
    <tag k="is_in" v="Funchal,Madeira,Portugal"/>
    <tag k="name" v="Santo Antonio"/>
    <tag k="place" v="town"/>
    <tag k="population" v="22000"/>
    <tag k="source" v="wikipedia"/>
  </node>
  <node id="275706441" version="1" timestamp="2008-07-02T21:39:02Z" uid="4667" user="MapZ" changeset="374787" lat="32.6394334" lon="-16.9490047">
    <tag k="ele" v="240"/>
    <tag k="is_in" v="Funchal,Madeira,Portugal"/>
    <tag k="name" v="Sao Martinho"/>
    <tag k="place" v="town"/>
    <tag k="source" v="wikipedia"/>
  </node>
  <node id="275706441" version="2" timestamp="2010-11-05T21:00:11Z" uid="364960" user="castro" changeset="6298150" lat="32.6483121" lon="-16.9441234">
    <tag k="ele" v="240"/>
    <tag k="is_in" v="Funchal,Madeira,Portugal"/>
    <tag k="name" v="Sao Martinho"/>
    <tag k="place" v="town"/>
    <tag k="source" v="wikipedia"/>
  </node>
  <node id="275706441" version="3" timestamp="2011-10-17T19:23:04Z" uid="179581" user="Geofreund1" changeset="9585314" lat="32.6483121" lon="-16.9441234">
    <tag k="ele" v="240"/>
    <tag k="is_in" v="Funchal,Madeira,Portugal"/>
    <tag k="name" v="Sao Martinho"/>
    <tag k="place" v="town"/>
    <tag k="population" v="20700"/>
    <tag k="source" v="wikipedia"/>
  </node>
  <node id="275708027" version="1" timestamp="2008-07-02T21:44:42Z" uid="4667" user="MapZ" changeset="374787" lat="32.6499593" lon="-16.9049646">
    <tag k="ele" v="350"/>
    <tag k="is_in" v="Funchal,Madeira,Portugal"/>
    <tag k="name" v="Sao Roque"/>
    <tag k="place" v="village"/>
    <tag k="source" v="wikipedia"/>
  </node>
  <node id="275708027" version="2" timestamp="2010-11-10T22:20:54Z" uid="364960" user="castro" changeset="6340199" lat="32.6709554" lon="-16.9282244">
    <tag k="ele" v="350"/>
    <tag k="is_in" v="Funchal,Madeira,Portugal"/>
    <tag k="name" v="Sao Roque"/>
    <tag k="place" v="village"/>
    <tag k="source" v="wikipedia"/>
  </node>
  <node id="275708027" version="3" timestamp="2011-10-17T19:35:34Z" uid="179581" user="Geofreund1" changeset="9585437" lat="32.6709554" lon="-16.9282244">
    <tag k="ele" v="350"/>
    <tag k="is_in" v="Funchal,Madeira,Portugal"/>
    <tag k="name" v="Sao Roque"/>
    <tag k="place" v="village"/>
    <tag k="population" v="9274"/>
    <tag k="source" v="wikipedia"/>
  </node>
  <node id="275708529" version="7" timestamp="2009-10-02T19:47:40Z" uid="86259" user="hasse_osm_korinthenkacker" changeset="2716821" lat="47.9088121" lon="11.6691672">
    <tag k="amenity" v="place_of_worship"/>
    <tag k="denomination" v="catholic"/>
    <tag k="name" v="St. Valentin"/>
    <tag k="religion" v="christian"/>
  </node>
  <node id="275708529" version="8" timestamp="2009-11-04T09:04:22Z" uid="42393" user="mawi42" changeset="3031032" lat="47.9087911" lon="11.6691908">
    <tag k="amenity" v="place_of_worship"/>
    <tag k="denomination" v="catholic"/>
    <tag k="name" v="St. Valentin"/>
    <tag k="religion" v="christian"/>
  </node>
  <node id="275709444" version="1" timestamp="2008-07-02T21:49:58Z" uid="4667" user="MapZ" changeset="374787" lat="32.7360251" lon="-16.7428442">
    <tag k="is_in" v="Machico,Madeira,Portugal"/>
    <tag k="name" v="Caniçal"/>
    <tag k="place" v="village"/>
    <tag k="source" v="wikipedia"/>
  </node>
  <node id="275709444" version="2" timestamp="2008-09-02T23:22:55Z" uid="4667" user="MapZ" changeset="508411" lat="32.7370086" lon="-16.739161">
    <tag k="is_in" v="Machico,Madeira,Portugal"/>
    <tag k="name" v="Caniçal"/>
    <tag k="place" v="village"/>
    <tag k="source" v="wikipedia"/>
  </node>
  <node id="275709444" version="3" timestamp="2009-01-21T17:47:36Z" uid="70492" user="Stefan Dirsch" changeset="822057" lat="32.737009" lon="-16.739161">
    <tag k="created_by" v="Merkaartor 0.12"/>
    <tag k="is_in" v="Machico,Madeira,Portugal"/>
    <tag k="name" v="Caniçal"/>
    <tag k="place" v="village"/>
    <tag k="source" v="wikipedia"/>
  </node>
  <node id="275709444" version="4" timestamp="2010-07-05T12:03:33Z" uid="74896" user="tevake" changeset="5141470" lat="32.7372662" lon="-16.738984">
    <tag k="is_in" v="Machico,Madeira,Portugal"/>
    <tag k="name" v="Caniçal"/>
    <tag k="place" v="village"/>
    <tag k="source" v="wikipedia"/>
  </node>
  <node id="275709444" version="5" timestamp="2011-10-17T19:03:23Z" uid="179581" user="Geofreund1" changeset="9585101" lat="32.7372662" lon="-16.738984">
    <tag k="is_in" v="Machico,Madeira,Portugal"/>
    <tag k="name" v="Caniçal"/>
    <tag k="place" v="village"/>
    <tag k="population" v="4000"/>
    <tag k="source" v="wikipedia"/>
  </node>
  <node id="275709444" version="6" timestamp="2011-10-17T19:07:11Z" uid="179581" user="Geofreund1" changeset="9585101" lat="32.7372662" lon="-16.738984">
    <tag k="is_in" v="Machico,Madeira,Portugal"/>
    <tag k="name" v="Caniçal"/>
    <tag k="place" v="village"/>
    <tag k="population" v="4065"/>
    <tag k="source" v="wikipedia"/>
  </node>
</osm>
