<?xml version='1.0' encoding='UTF-8'?>
<osm version="0.6" generator="libosmium/2.20.0">
  <node id="276100520" version="2" timestamp="2008-07-05T20:00:05Z" uid="6975" user="ulfl" changeset="398437" lat="56.7091583" lon="8.4112132">
    <tag k="is_in" v="Danmark, Jylland"/>
    <tag k="name" v="Ydby"/>
    <tag k="place" v="village"/>
  </node>
  <node id="276101230" version="2" timestamp="2010-08-24T19:11:12Z" uid="9581" user="Lobelt" changeset="5582938" lat="49.2125373" lon="8.6453347"/>
  <node id="276101234" version="6" timestamp="2010-08-24T19:11:26Z" uid="9581" user="Lobelt" changeset="5582938" lat="49.2097306" lon="8.6449516"/>
  <node id="276101256" version="2" timestamp="2010-08-24T19:11:22Z" uid="9581" user="Lobelt" changeset="5582938" lat="49.2197991" lon="8.6467549"/>
  <node id="276101257" version="3" timestamp="2010-08-24T19:11:12Z" uid="9581" user="Lobelt" changeset="5582938" lat="49.2202113" lon="8.6468557"/>
  <node id="276102374" version="4" timestamp="2011-02-24T15:06:10Z" uid="4467" user="Rosscoe" changeset="7382289" lat="-31.1977557" lon="136.8155885"/>
  <node id="276102846" version="2" timestamp="2008-09-14T20:00:48Z" uid="6975" user="ulfl" changeset="640534" lat="48.6845066" lon="9.0137847">
    <tag k="amenity" v="bank"/>
    <tag k="atm" v="yes"/>
    <tag k="name" v="BW Bank"/>
  </node>
  <node id="276102846" version="3" timestamp="2009-11-06T23:02:19Z" uid="149097" user="AlexanderF" changeset="3052503" lat="48.6845066" lon="9.0137847">
    <tag k="amenity" v="bank"/>
    <tag k="atm" v="yes"/>
    <tag k="name" v="BW Bank"/>
    <tag k="operator" v="Landesbank Baden-Württemberg"/>
  </node>
  <node id="276102846" version="4" timestamp="2009-11-14T00:10:12Z" uid="149097" user="AlexanderF" changeset="3109946" lat="48.6845066" lon="9.0137847">
    <tag k="amenity" v="bank"/>
    <tag k="atm" v="yes"/>
    <tag k="name" v="BW-Bank"/>
    <tag k="operator" v="Landesbank Baden-Württemberg"/>
  </node>
  <node id="276102846" version="5" timestamp="2010-01-09T18:57:38Z" uid="210344" user="blue-storm" changeset="3580673" lat="48.6845066" lon="9.0137847">
    <tag k="amenity" v="bank"/>
    <tag k="atm" v="yes"/>
    <tag k="name" v="BW-Bank"/>
    <tag k="operator" v="Landesbank Baden-Württemberg"/>
  </node>
  <node id="276104413" version="4" timestamp="2011-02-24T15:06:13Z" uid="4467" user="Rosscoe" changeset="7382289" lat="-31.1899862" lon="136.8128255"/>
  <node id="276104894" version="4" timestamp="2010-06-23T00:20:54Z" uid="4467" user="Rosscoe" changeset="5055741" lat="-37.9090455" lon="145.354507"/>
  <node id="276104894" version="5" timestamp="2010-07-05T10:19:22Z" uid="206929" user="Supt_of_Printing" changeset="5140717" lat="-37.909055" lon="145.3544975"/>
  <node id="276104894" version="6" timestamp="2010-10-02T11:02:16Z" uid="206929" user="Supt_of_Printing" changeset="5935072" lat="-37.9090253" lon="145.3545194"/>
  <node id="276104894" version="7" timestamp="2011-02-01T04:33:36Z" uid="4467" user="Rosscoe" changeset="7151558" lat="-37.9090894" lon="145.3544972"/>
  <node id="276104894" version="8" timestamp="2011-03-01T13:07:07Z" uid="206929" user="Supt_of_Printing" changeset="7429087" lat="-37.9090651" lon="145.3545192"/>
  <node id="276104899" version="2" timestamp="2010-06-23T00:24:39Z" uid="4467" user="Rosscoe" changeset="5055741" lat="-37.9092213" lon="145.3545256"/>
  <node id="276104899" version="3" timestamp="2010-10-02T11:02:16Z" uid="206929" user="Supt_of_Printing" changeset="5935072" lat="-37.9092242" lon="145.3545341"/>
  <node id="276104899" version="4" timestamp="2011-03-01T13:07:02Z" uid="206929" user="Supt_of_Printing" changeset="7429087" lat="-37.90923" lon="145.3545225"/>
  <node id="276104899" version="5" timestamp="2011-03-06T13:15:13Z" uid="206929" user="Supt_of_Printing" changeset="7473009" lat="-37.9092341" lon="145.3545197"/>
  <node id="276105121" version="2" timestamp="2009-07-25T07:58:12Z" uid="74617" user="JohnSmith" changeset="1931598" lat="-37.9104148" lon="145.3540193">
    <tag k="amenity" v="parking"/>
  </node>
  <node id="276105121" version="3" timestamp="2010-01-16T03:36:56Z" uid="206929" user="Supt_of_Printing" changeset="3629166" lat="-37.9104148" lon="145.3540193">
    <tag k="amenity" v="parking"/>
  </node>
  <node id="276105949" version="1" timestamp="2008-07-04T06:47:40Z" uid="30201" user="rrankin" changeset="392108" lat="-33.6828484" lon="150.888504"/>
  <node id="276105949" version="2" timestamp="2008-07-09T05:59:59Z" uid="30201" user="rrankin" changeset="439563" lat="-33.6829172" lon="150.888529"/>
  <node id="276105949" version="3" timestamp="2009-08-24T10:27:28Z" uid="139659" user="LiteEarthTreader" changeset="2241813" lat="-33.6828606" lon="150.888491"/>
  <node id="276105950" version="1" timestamp="2008-07-04T06:47:40Z" uid="30201" user="rrankin" changeset="392108" lat="-33.6702573" lon="150.8789931"/>
  <node id="276105950" version="2" timestamp="2008-07-09T05:53:35Z" uid="30201" user="rrankin" changeset="439563" lat="-33.6702322" lon="150.878999"/>
  <node id="276106829" version="1" timestamp="2008-07-04T06:56:35Z" uid="30201" user="rrankin" changeset="392108" lat="-33.686312" lon="150.8701102"/>
  <node id="276106830" version="1" timestamp="2008-07-04T06:56:36Z" uid="30201" user="rrankin" changeset="392108" lat="-33.6848665" lon="150.8727952"/>
  <node id="276106831" version="1" timestamp="2008-07-04T06:56:37Z" uid="30201" user="rrankin" changeset="392108" lat="-33.6828244" lon="150.8766681"/>
  <node id="276106832" version="1" timestamp="2008-07-04T06:56:38Z" uid="30201" user="rrankin" changeset="392108" lat="-33.6879739" lon="150.8713566"/>
  <node id="276106832" version="2" timestamp="2009-08-24T10:27:30Z" uid="139659" user="LiteEarthTreader" changeset="2241813" lat="-33.6879314" lon="150.8712562"/>
  <node id="276106833" version="1" timestamp="2008-07-04T06:56:39Z" uid="30201" user="rrankin" changeset="392108" lat="-33.6845112" lon="150.8779586"/>
  <node id="276106834" version="1" timestamp="2008-07-04T06:56:40Z" uid="30201" user="rrankin" changeset="392108" lat="-33.6813197" lon="150.8839556"/>
  <node id="276106835" version="1" timestamp="2008-07-04T06:56:41Z" uid="30201" user="rrankin" changeset="392108" lat="-33.6807778" lon="150.8850007"/>
  <node id="276106836" version="1" timestamp="2008-07-04T06:56:42Z" uid="30201" user="rrankin" changeset="392108" lat="-33.6800569" lon="150.8863891"/>
  <node id="276106836" version="2" timestamp="2009-08-24T10:27:31Z" uid="139659" user="LiteEarthTreader" changeset="2241813" lat="-33.6800608" lon="150.8863367"/>
  <node id="276106837" version="1" timestamp="2008-07-04T06:56:43Z" uid="30201" user="rrankin" changeset="392108" lat="-33.6895138" lon="150.8724902"/>
  <node id="276106837" version="2" timestamp="2009-08-24T10:27:30Z" uid="139659" user="LiteEarthTreader" changeset="2241813" lat="-33.6894668" lon="150.8724493"/>
  <node id="276109659" version="2" timestamp="2008-07-05T09:07:17Z" uid="6975" user="ulfl" changeset="396365" lat="50.8939922" lon="6.9038177">
    <tag k="highway" v="bus_stop"/>
  </node>
  <node id="276109659" version="3" timestamp="2009-05-18T20:18:36Z" uid="34373" user="Gery" changeset="1242689" lat="50.8939922" lon="6.9038177">
    <tag k="highway" v="bus_stop"/>
    <tag k="name" v="Efferen Stadtbahn"/>
    <tag k="ref" v="712"/>
  </node>
  <node id="276109659" version="4" timestamp="2009-10-31T21:11:26Z" uid="7079" user="mapwitch" changeset="3001493" lat="50.8939922" lon="6.9038177">
    <tag k="highway" v="bus_stop"/>
    <tag k="name" v="Efferen (Stadtbahn)"/>
    <tag k="ref" v="712"/>
  </node>
  <node id="276109659" version="5" timestamp="2009-11-02T18:45:37Z" uid="7079" user="mapwitch" changeset="3018688" lat="50.8939682" lon="6.9037865">
    <tag k="highway" v="bus_stop"/>
    <tag k="name" v="Efferen (Stadtbahn)"/>
    <tag k="ref" v="712"/>
  </node>
  <node id="276109659" version="6" timestamp="2010-09-30T09:39:03Z" uid="7079" user="mapwitch" changeset="5918426" lat="50.8939322" lon="6.9037428">
    <tag k="highway" v="bus_stop"/>
    <tag k="name" v="Efferen (Stadtbahn)"/>
    <tag k="ref" v="712"/>
  </node>
  <node id="276109659" version="7" timestamp="2010-12-19T15:01:09Z" uid="7079" user="mapwitch" changeset="6706800" lat="50.8939322" lon="6.9037428">
    <tag k="bus" v="yes"/>
    <tag k="name" v="Efferen (Stadtbahn)"/>
    <tag k="public_transport" v="platform"/>
    <tag k="shared_taxi" v="yes"/>
  </node>
  <node id="276109659" version="8" timestamp="2011-08-02T20:56:31Z" uid="498918" user="VRS Haltestellen-Import" changeset="8905007" lat="50.8939322" lon="6.9037428">
    <tag k="VRS:gemeinde" v="HÜRTH"/>
    <tag k="VRS:name" v="Efferen"/>
    <tag k="VRS:ortsteil" v="Efferen"/>
    <tag k="VRS:ref" v="83611"/>
    <tag k="bus" v="yes"/>
    <tag k="name" v="Efferen (Stadtbahn)"/>
    <tag k="public_transport" v="platform"/>
    <tag k="shared_taxi" v="yes"/>
  </node>
  <node id="276109659" version="9" timestamp="2011-08-05T14:13:17Z" uid="133419" user="dachefte" changeset="8929481" lat="50.8938788" lon="6.9037852">
    <tag k="VRS:gemeinde" v="HÜRTH"/>
    <tag k="VRS:name" v="Efferen"/>
    <tag k="VRS:ortsteil" v="Efferen"/>
    <tag k="VRS:ref" v="83611"/>
    <tag k="bus" v="yes"/>
    <tag k="highway" v="bus_stop"/>
    <tag k="name" v="Efferen (Stadtbahn)"/>
    <tag k="public_transport" v="platform"/>
    <tag k="ref" v="D"/>
    <tag k="shared_taxi" v="yes"/>
  </node>
  <node id="276109659" version="10" timestamp="2011-10-05T18:42:07Z" uid="290680" user="wheelmap_visitor" changeset="9474855" lat="50.8938788" lon="6.9037852">
    <tag k="VRS:gemeinde" v="HÜRTH"/>
    <tag k="VRS:name" v="Efferen"/>
    <tag k="VRS:ortsteil" v="Efferen"/>
    <tag k="VRS:ref" v="83611"/>
    <tag k="bus" v="yes"/>
    <tag k="highway" v="bus_stop"/>
    <tag k="name" v="Efferen (Stadtbahn)"/>
    <tag k="public_transport" v="platform"/>
    <tag k="ref" v="D"/>
    <tag k="shared_taxi" v="yes"/>
    <tag k="wheelchair" v="yes"/>
  </node>
  <node id="276109659" version="11" timestamp="2011-12-14T10:37:23Z" uid="7079" user="mapwitch" changeset="10114776" lat="50.8938788" lon="6.9037852"/>
  <node id="276109717" version="2" timestamp="2008-07-05T09:07:06Z" uid="6975" user="ulfl" changeset="396365" lat="50.9001852" lon="6.9022298">
    <tag k="highway" v="bus_stop"/>
  </node>
  <node id="276109717" version="3" timestamp="2009-10-31T21:11:27Z" uid="7079" user="mapwitch" changeset="3001493" lat="50.9001852" lon="6.9022298">
    <tag k="highway" v="bus_stop"/>
    <tag k="name" v="Bachstr. / Haus Baden"/>
  </node>
  <node id="276109717" version="4" timestamp="2009-11-02T11:03:36Z" uid="70696" user="xybot" changeset="3015082" lat="50.9001852" lon="6.9022298">
    <tag k="highway" v="bus_stop"/>
    <tag k="name" v="Bachstraße / Haus Baden"/>
  </node>
  <node id="276109717" version="5" timestamp="2009-11-03T17:39:28Z" uid="7079" user="mapwitch" changeset="3026529" lat="50.9003465" lon="6.9025312">
    <tag k="highway" v="bus_stop"/>
    <tag k="name" v="Bachstraße / Haus Baden"/>
  </node>
  <node id="276109717" version="6" timestamp="2010-02-22T19:25:54Z" uid="7079" user="mapwitch" changeset="3946514" lat="50.9003465" lon="6.9025312">
    <tag k="highway" v="bus_stop"/>
    <tag k="name" v="Haus Baden"/>
  </node>
  <node id="276109717" version="7" timestamp="2010-05-10T14:04:09Z" uid="28370" user="millowitsch" changeset="4659543" lat="50.9003464" lon="6.9025312">
    <tag k="highway" v="bus_stop"/>
    <tag k="name" v="Bachstr./Haus Baden"/>
  </node>
  <node id="276109717" version="8" timestamp="2010-05-12T12:46:59Z" uid="70696" user="xybot" changeset="4676932" lat="50.9003464" lon="6.9025312">
    <tag k="highway" v="bus_stop"/>
    <tag k="name" v="Bachstraße/Haus Baden"/>
  </node>
  <node id="276109717" version="9" timestamp="2010-12-19T15:01:05Z" uid="7079" user="mapwitch" changeset="6706800" lat="50.9003464" lon="6.9025312">
    <tag k="bus" v="yes"/>
    <tag k="name" v="Bachstraße/Haus Baden"/>
    <tag k="public_transport" v="platform"/>
    <tag k="shared_taxi" v="yes"/>
  </node>
  <node id="276109717" version="10" timestamp="2011-08-02T20:56:20Z" uid="498918" user="VRS Haltestellen-Import" changeset="8905007" lat="50.9003464" lon="6.9025312">
    <tag k="VRS:gemeinde" v="HÜRTH"/>
    <tag k="VRS:ortsteil" v="Efferen"/>
    <tag k="VRS:ref" v="83662"/>
    <tag k="bus" v="yes"/>
    <tag k="name" v="Bachstraße/Haus Baden"/>
    <tag k="public_transport" v="platform"/>
    <tag k="shared_taxi" v="yes"/>
  </node>
  <node id="276109717" version="11" timestamp="2011-12-14T09:18:20Z" uid="7079" user="mapwitch" changeset="10114098" lat="50.9003464" lon="6.9025312"/>
</osm>
