<?xml version='1.0' encoding='UTF-8'?>
<osm version="0.6" generator="libosmium/2.20.0">
  <node id="27702163" version="3" timestamp="2009-04-05T16:45:25Z" uid="9581" user="Lobelt" changeset="210536" lat="49.5995101" lon="8.5623484">
    <tag k="created_by" v="JOSM"/>
    <tag k="highway" v="bus_stop"/>
    <tag k="name" v="Hüttenfeld Forsthaus Wildbahn"/>
  </node>
  <node id="27702163" version="4" timestamp="2010-03-25T22:01:19Z" uid="24920" user="Schusch" changeset="4233638" lat="49.5995101" lon="8.5623484">
    <tag k="highway" v="bus_stop"/>
    <tag k="name" v="Hüttenfeld Forsthaus Wildbahn"/>
  </node>
  <node id="27702585" version="2" timestamp="2008-02-16T19:41:25Z" uid="6975" user="ulfl" changeset="141861" lat="49.6458511" lon="8.5671019">
    <tag k="amenity" v="post_box"/>
  </node>
  <node id="27702585" version="3" timestamp="2008-12-10T23:59:18Z" uid="38919" user="krza" changeset="310317" lat="49.6458511" lon="8.5671019">
    <tag k="amenity" v="post_box"/>
    <tag k="emptying_time" v="fixme (post box)"/>
    <tag k="operator" v="fixme (post box)"/>
  </node>
  <node id="27702585" version="4" timestamp="2009-01-29T21:55:18Z" uid="69628" user="vsandre" changeset="852903" lat="49.6458511" lon="8.5671019">
    <tag k="amenity" v="post_box"/>
  </node>
  <node id="27705245" version="4" timestamp="2009-10-03T21:45:21Z" uid="20587" user="balrog-kun" changeset="2730063" lat="51.4763386" lon="0.3218926">
    <tag k="name" v="Grays"/>
    <tag k="railway" v="station"/>
    <tag k="wikipedia" v="Grays railway station"/>
  </node>
  <node id="27705245" version="5" timestamp="2010-08-06T10:13:33Z" uid="324073" user="Pavelss" changeset="5415391" lat="51.4763386" lon="0.3218926">
    <tag k="name" v="Grays"/>
    <tag k="network" v="National Railways"/>
    <tag k="railway" v="station"/>
    <tag k="source_ref" v="http://en.wikipedia.org/wiki/List_of_London_railway_stations"/>
    <tag k="wikipedia" v="Grays railway station"/>
  </node>
  <node id="27705245" version="6" timestamp="2010-08-09T08:08:11Z" uid="324073" user="Pavelss" changeset="5440921" lat="51.4763386" lon="0.3218926">
    <tag k="name" v="Grays"/>
    <tag k="network" v="National Rail"/>
    <tag k="railway" v="station"/>
    <tag k="source_ref" v="http://en.wikipedia.org/wiki/List_of_London_railway_stations"/>
    <tag k="wikipedia" v="Grays railway station"/>
  </node>
  <node id="27705245" version="7" timestamp="2011-02-28T06:12:39Z" uid="364" user="Edward" changeset="7417631" lat="51.4763386" lon="0.3218926">
    <tag k="name" v="Grays"/>
    <tag k="naptan:AtcoCode" v="9100GRAYS"/>
    <tag k="network" v="National Rail"/>
    <tag k="railway" v="station"/>
    <tag k="source_ref" v="http://en.wikipedia.org/wiki/List_of_London_railway_stations"/>
    <tag k="wikipedia" v="Grays railway station"/>
  </node>
  <node id="27705245" version="8" timestamp="2011-11-24T12:09:39Z" uid="61216" user="UniEagle" changeset="9932359" lat="51.4763468" lon="0.3218851">
    <tag k="name" v="Grays"/>
    <tag k="naptan:AtcoCode" v="9100GRAYS"/>
    <tag k="network" v="National Rail"/>
    <tag k="railway" v="station"/>
    <tag k="source_ref" v="http://en.wikipedia.org/wiki/List_of_London_railway_stations"/>
    <tag k="wikipedia" v="Grays railway station"/>
  </node>
  <node id="27705245" version="9" timestamp="2012-02-08T12:18:45Z" uid="57884" user="EdLoach" changeset="10623893" lat="51.4763468" lon="0.3218851"/>
</osm>
