<?xml version='1.0' encoding='UTF-8'?>
<osm version="0.6" generator="libosmium/2.20.0">
  <node id="277531140" version="2" timestamp="2008-07-22T08:53:23Z" uid="9581" user="Lobelt" changeset="567448" lat="50.8072659" lon="11.583835">
    <tag k="created_by" v="Potlatch 0.9c"/>
    <tag k="is_in" v="Deutschland, Thüringen"/>
    <tag k="name" v="Kahla"/>
    <tag k="place" v="town"/>
  </node>
  <node id="277532236" version="3" timestamp="2009-03-15T01:20:50Z" uid="34428" user="usm78-gis" changeset="811766" lat="60.004943" lon="30.6288212"/>
  <node id="277532481" version="2" timestamp="2008-07-10T20:49:46Z" uid="6975" user="ulfl" changeset="457552" lat="53.7455399" lon="9.659537">
    <tag k="name" v="Millahn"/>
    <tag k="shop" v="bakery"/>
  </node>
  <node id="277532481" version="3" timestamp="2011-05-05T12:26:02Z" uid="35571" user="theblackcat" changeset="8057070" lat="53.7455948" lon="9.6595178">
    <tag k="name" v="Millahn"/>
    <tag k="shop" v="bakery"/>
  </node>
  <node id="277532481" version="4" timestamp="2011-05-14T11:36:52Z" uid="35571" user="theblackcat" changeset="8139901" lat="53.7455948" lon="9.6595178">
    <tag k="shop" v="bakery"/>
  </node>
  <node id="277532481" version="5" timestamp="2011-05-18T05:14:38Z" uid="35571" user="theblackcat" changeset="8177776" lat="53.7455948" lon="9.6595178"/>
  <node id="277532925" version="1" timestamp="2008-07-10T12:00:06Z" uid="40373" user="Daguru" changeset="450371" lat="51.6197061" lon="7.332067"/>
  <node id="277532925" version="2" timestamp="2010-02-15T20:43:54Z" uid="43250" user="Mikrokosmonaut" changeset="3886733" lat="51.6194479" lon="7.3310611"/>
  <node id="277532925" version="3" timestamp="2011-12-08T04:40:41Z" uid="184969" user="EvanE" changeset="10062578" lat="51.6194479" lon="7.3310611"/>
  <node id="277532933" version="1" timestamp="2008-07-10T12:00:06Z" uid="40373" user="Daguru" changeset="450371" lat="51.6173717" lon="7.3365015"/>
  <node id="277532933" version="2" timestamp="2010-02-15T20:43:54Z" uid="43250" user="Mikrokosmonaut" changeset="3886733" lat="51.6168585" lon="7.3357475"/>
  <node id="277532933" version="3" timestamp="2011-12-08T04:40:41Z" uid="184969" user="EvanE" changeset="10062578" lat="51.6168585" lon="7.3357475"/>
  <node id="277532934" version="1" timestamp="2008-07-10T12:00:07Z" uid="40373" user="Daguru" changeset="450371" lat="51.6166859" lon="7.3262309"/>
  <node id="277532934" version="2" timestamp="2011-09-11T08:02:21Z" uid="57645" user="KartoGrapHiti" changeset="9268416" lat="51.6166859" lon="7.3262309"/>
  <node id="277533171" version="3" timestamp="2008-07-10T20:49:46Z" uid="6975" user="ulfl" changeset="457552" lat="53.7524615" lon="9.6721411">
    <tag k="name" v="Millahn"/>
    <tag k="shop" v="bakery"/>
  </node>
  <node id="277533171" version="4" timestamp="2008-07-18T06:01:56Z" uid="35571" user="theblackcat" changeset="523603" lat="53.7524615" lon="9.6721411">
    <tag k="created_by" v="theblackcat"/>
    <tag k="name" v="Millahn"/>
    <tag k="shop" v="bakery"/>
  </node>
  <node id="277533171" version="5" timestamp="2008-07-18T08:47:06Z" uid="35571" user="theblackcat" changeset="530000" lat="53.7525225" lon="9.6720475">
    <tag k="created_by" v="theblackcat"/>
    <tag k="name" v="Millahn"/>
    <tag k="shop" v="bakery"/>
  </node>
  <node id="277533171" version="6" timestamp="2008-08-30T20:52:33Z" uid="24920" user="Schusch" changeset="467859" lat="53.7525225" lon="9.6720475">
    <tag k="name" v="Millahn"/>
    <tag k="shop" v="bakery"/>
  </node>
  <node id="277533660" version="2" timestamp="2008-09-30T10:18:19Z" uid="1066" user="pavel" changeset="720911" lat="49.9808657" lon="16.2586182">
    <tag k="is_in" v="Czech Republic, Europe"/>
    <tag k="name" v="Loucky"/>
    <tag k="place" v="village"/>
  </node>
  <node id="277533660" version="3" timestamp="2008-11-04T13:16:36Z" uid="308" user="MichaelCollinson" changeset="676656" lat="49.9808657" lon="16.2586182">
    <tag k="is_in" v="Czech Republic, Europe"/>
    <tag k="is_in:continent" v="Europe"/>
    <tag k="is_in:country_code" v="cz"/>
    <tag k="name" v="Loucky"/>
    <tag k="place" v="village"/>
  </node>
  <node id="277533660" version="4" timestamp="2009-03-19T16:08:34Z" uid="72020" user="Petr1868" changeset="831563" lat="49.9818663" lon="16.2596821">
    <tag k="is_in" v="Czech Republic, Europe"/>
    <tag k="is_in:continent" v="Europe"/>
    <tag k="is_in:country_code" v="cz"/>
    <tag k="name" v="Loučky"/>
    <tag k="place" v="village"/>
  </node>
  <node id="277533660" version="5" timestamp="2012-01-12T09:20:57Z" uid="536216" user="uir-zsj" changeset="10367731" lat="49.9818663" lon="16.2596821"/>
  <node id="277533936" version="4" timestamp="2010-10-02T16:47:18Z" uid="9581" user="Lobelt" changeset="5937714" lat="49.5222828" lon="8.7349597"/>
  <node id="277533938" version="4" timestamp="2010-10-02T16:47:22Z" uid="9581" user="Lobelt" changeset="5937714" lat="49.5219848" lon="8.7348367"/>
  <node id="277533942" version="7" timestamp="2010-10-02T16:47:12Z" uid="9581" user="Lobelt" changeset="5937714" lat="49.521113" lon="8.734792"/>
  <node id="277534026" version="2" timestamp="2010-10-02T16:47:12Z" uid="9581" user="Lobelt" changeset="5937714" lat="49.5201015" lon="8.7398646"/>
  <node id="277534047" version="2" timestamp="2010-10-02T16:47:22Z" uid="9581" user="Lobelt" changeset="5937714" lat="49.5190287" lon="8.7376787"/>
  <node id="277534051" version="2" timestamp="2010-10-02T16:47:26Z" uid="9581" user="Lobelt" changeset="5937714" lat="49.519039" lon="8.7361571"/>
  <node id="277534054" version="2" timestamp="2010-10-02T16:47:19Z" uid="9581" user="Lobelt" changeset="5937714" lat="49.5190794" lon="8.7358467"/>
  <node id="277534059" version="5" timestamp="2010-10-02T16:47:20Z" uid="9581" user="Lobelt" changeset="5937714" lat="49.5193266" lon="8.7349921"/>
  <node id="277534230" version="2" timestamp="2008-09-30T10:00:55Z" uid="1066" user="pavel" changeset="720911" lat="50.0094471" lon="16.2448853">
    <tag k="is_in" v="Czech Republic, Europe"/>
    <tag k="name" v="Hemze"/>
    <tag k="place" v="village"/>
  </node>
  <node id="277534230" version="3" timestamp="2008-11-04T13:19:05Z" uid="308" user="MichaelCollinson" changeset="676656" lat="50.0094471" lon="16.2448853">
    <tag k="is_in" v="Czech Republic, Europe"/>
    <tag k="is_in:continent" v="Europe"/>
    <tag k="is_in:country_code" v="cz"/>
    <tag k="name" v="Hemze"/>
    <tag k="place" v="village"/>
  </node>
  <node id="277534230" version="4" timestamp="2009-02-25T16:44:16Z" uid="72020" user="Petr1868" changeset="663878" lat="50.0106968" lon="16.2457858">
    <tag k="is_in" v="Czech Republic, Europe"/>
    <tag k="is_in:continent" v="Europe"/>
    <tag k="is_in:country_code" v="cz"/>
    <tag k="name" v="Hemze"/>
    <tag k="place" v="village"/>
  </node>
  <node id="277534230" version="5" timestamp="2009-03-18T18:53:25Z" uid="72020" user="Petr1868" changeset="827363" lat="50.0106968" lon="16.2457858">
    <tag k="is_in" v="Czech Republic, Europe"/>
    <tag k="is_in:continent" v="Europe"/>
    <tag k="is_in:country_code" v="cz"/>
    <tag k="name" v="Hemže"/>
    <tag k="place" v="village"/>
  </node>
  <node id="277534230" version="6" timestamp="2012-01-12T09:20:48Z" uid="536216" user="uir-zsj" changeset="10367731" lat="50.0106968" lon="16.2457858"/>
  <node id="277534423" version="2" timestamp="2008-09-30T10:17:24Z" uid="1066" user="pavel" changeset="720911" lat="49.9703779" lon="16.3701981">
    <tag k="is_in" v="Czech Republic, Europe"/>
    <tag k="name" v="Kerhatice"/>
    <tag k="place" v="village"/>
  </node>
  <node id="277534423" version="3" timestamp="2008-11-04T13:18:43Z" uid="308" user="MichaelCollinson" changeset="676656" lat="49.9703779" lon="16.3701981">
    <tag k="is_in" v="Czech Republic, Europe"/>
    <tag k="is_in:continent" v="Europe"/>
    <tag k="is_in:country_code" v="cz"/>
    <tag k="name" v="Kerhatice"/>
    <tag k="place" v="village"/>
  </node>
  <node id="277534423" version="4" timestamp="2009-08-10T08:49:13Z" uid="139254" user="Tlama" changeset="2094708" lat="49.9703799" lon="16.3701958">
    <tag k="is_in" v="Czech Republic, Europe"/>
    <tag k="is_in:continent" v="Europe"/>
    <tag k="is_in:country_code" v="cz"/>
    <tag k="name" v="Kerhartice"/>
    <tag k="place" v="village"/>
  </node>
  <node id="277534423" version="5" timestamp="2011-08-20T21:45:24Z" uid="245252" user="Washek" changeset="9078764" lat="49.9704596" lon="16.3699065">
    <tag k="is_in" v="Czech Republic, Europe"/>
    <tag k="is_in:continent" v="Europe"/>
    <tag k="is_in:country_code" v="cz"/>
    <tag k="name" v="Kerhartice"/>
    <tag k="place" v="village"/>
  </node>
  <node id="277534423" version="6" timestamp="2012-01-12T09:20:57Z" uid="536216" user="uir-zsj" changeset="10367731" lat="49.9704596" lon="16.3699065"/>
  <node id="277534468" version="2" timestamp="2008-09-30T10:09:45Z" uid="1066" user="pavel" changeset="720911" lat="49.9899165" lon="16.3578385">
    <tag k="is_in" v="Czech Republic, Europe"/>
    <tag k="name" v="Ricky"/>
    <tag k="place" v="village"/>
  </node>
  <node id="277534468" version="3" timestamp="2008-11-04T13:18:38Z" uid="308" user="MichaelCollinson" changeset="676656" lat="49.9899165" lon="16.3578385">
    <tag k="is_in" v="Czech Republic, Europe"/>
    <tag k="is_in:continent" v="Europe"/>
    <tag k="is_in:country_code" v="cz"/>
    <tag k="name" v="Ricky"/>
    <tag k="place" v="village"/>
  </node>
  <node id="277534468" version="4" timestamp="2010-03-16T12:13:17Z" uid="84326" user="Mike Crash" changeset="4142784" lat="49.9899165" lon="16.3578385">
    <tag k="is_in" v="Czech Republic, Europe"/>
    <tag k="is_in:continent" v="Europe"/>
    <tag k="is_in:country_code" v="cz"/>
    <tag k="name" v="Říčky"/>
    <tag k="place" v="suburb"/>
  </node>
  <node id="277534468" version="5" timestamp="2012-01-12T09:20:48Z" uid="536216" user="uir-zsj" changeset="10367731" lat="49.9899165" lon="16.3578385"/>
  <node id="277534489" version="2" timestamp="2008-09-30T10:34:18Z" uid="1066" user="pavel" changeset="720911" lat="50.026654" lon="16.3720864">
    <tag k="is_in" v="Czech Republic, Europe"/>
    <tag k="name" v="Horni Libchavy"/>
    <tag k="place" v="village"/>
  </node>
  <node id="277534489" version="3" timestamp="2008-11-04T13:18:37Z" uid="308" user="MichaelCollinson" changeset="676656" lat="50.026654" lon="16.3720864">
    <tag k="is_in" v="Czech Republic, Europe"/>
    <tag k="is_in:continent" v="Europe"/>
    <tag k="is_in:country_code" v="cz"/>
    <tag k="name" v="Horni Libchavy"/>
    <tag k="place" v="village"/>
  </node>
  <node id="277534489" version="4" timestamp="2011-08-20T21:45:24Z" uid="245252" user="Washek" changeset="9078764" lat="50.0170548" lon="16.3752977">
    <tag k="is_in" v="Czech Republic, Europe"/>
    <tag k="is_in:continent" v="Europe"/>
    <tag k="is_in:country_code" v="cz"/>
    <tag k="name" v="Horní Libchavy"/>
    <tag k="place" v="village"/>
    <tag k="source" v="knowledge;cs.wikipedia.org"/>
    <tag k="wikipedia" v="cs:Horní Libchavy"/>
  </node>
  <node id="277534489" version="5" timestamp="2012-01-24T18:39:38Z" uid="229590" user="xificurk" changeset="10487147" lat="50.0170548" lon="16.3752977"/>
  <node id="277534490" version="2" timestamp="2008-09-30T09:56:32Z" uid="1066" user="pavel" changeset="720911" lat="50.0127566" lon="16.385476">
    <tag k="is_in" v="Czech Republic, Europe"/>
    <tag k="name" v="Libchavy"/>
    <tag k="place" v="village"/>
  </node>
  <node id="277534490" version="3" timestamp="2008-11-04T13:18:37Z" uid="308" user="MichaelCollinson" changeset="676656" lat="50.0127566" lon="16.385476">
    <tag k="is_in" v="Czech Republic, Europe"/>
    <tag k="is_in:continent" v="Europe"/>
    <tag k="is_in:country_code" v="cz"/>
    <tag k="name" v="Libchavy"/>
    <tag k="place" v="village"/>
  </node>
  <node id="277534490" version="4" timestamp="2011-08-20T21:45:24Z" uid="245252" user="Washek" changeset="9078764" lat="50.0118824" lon="16.3852682">
    <tag k="is_in" v="Czech Republic, Europe"/>
    <tag k="is_in:continent" v="Europe"/>
    <tag k="is_in:country_code" v="cz"/>
    <tag k="name" v="Libchavy"/>
    <tag k="place" v="village"/>
    <tag k="population" v="1608"/>
    <tag k="source" v="knowledge;cs.wikipedia.org"/>
    <tag k="wikipedia" v="cs:Libchavy"/>
  </node>
  <node id="277534490" version="5" timestamp="2012-01-19T23:03:17Z" uid="229590" user="xificurk" changeset="10442191" lat="50.0118824" lon="16.3852682"/>
  <node id="277534604" version="2" timestamp="2008-09-30T10:25:07Z" uid="1066" user="pavel" changeset="720911" lat="49.9956551" lon="16.3976639">
    <tag k="is_in" v="Czech Republic, Europe"/>
    <tag k="name" v="Dolni Libchavy"/>
    <tag k="place" v="village"/>
  </node>
  <node id="277534604" version="3" timestamp="2008-11-04T13:18:19Z" uid="308" user="MichaelCollinson" changeset="676656" lat="49.9956551" lon="16.3976639">
    <tag k="is_in" v="Czech Republic, Europe"/>
    <tag k="is_in:continent" v="Europe"/>
    <tag k="is_in:country_code" v="cz"/>
    <tag k="name" v="Dolni Libchavy"/>
    <tag k="place" v="village"/>
  </node>
  <node id="277534604" version="4" timestamp="2011-08-20T21:45:23Z" uid="245252" user="Washek" changeset="9078764" lat="49.9944526" lon="16.3969081">
    <tag k="is_in" v="Czech Republic, Europe"/>
    <tag k="is_in:continent" v="Europe"/>
    <tag k="is_in:country_code" v="cz"/>
    <tag k="name" v="Dolní Libchavy"/>
    <tag k="place" v="village"/>
    <tag k="population" v="938"/>
    <tag k="source" v="knowledge;cs.wikipedia.org"/>
    <tag k="wikipedia" v="cs:Dolní Libchavy"/>
  </node>
  <node id="277534604" version="5" timestamp="2012-01-24T18:39:31Z" uid="229590" user="xificurk" changeset="10487144" lat="49.9944526" lon="16.3969081"/>
  <node id="277534723" version="2" timestamp="2008-09-30T10:14:50Z" uid="1066" user="pavel" changeset="720911" lat="50.020147" lon="16.3356942">
    <tag k="is_in" v="Czech Republic, Europe"/>
    <tag k="name" v="Rozsocha"/>
    <tag k="place" v="village"/>
  </node>
  <node id="277534723" version="3" timestamp="2008-11-04T13:20:59Z" uid="308" user="MichaelCollinson" changeset="676656" lat="50.020147" lon="16.3356942">
    <tag k="is_in" v="Czech Republic, Europe"/>
    <tag k="is_in:continent" v="Europe"/>
    <tag k="is_in:country_code" v="cz"/>
    <tag k="name" v="Rozsocha"/>
    <tag k="place" v="village"/>
  </node>
  <node id="277534723" version="4" timestamp="2010-03-16T12:13:17Z" uid="84326" user="Mike Crash" changeset="4142784" lat="50.020147" lon="16.3356942">
    <tag k="is_in" v="Czech Republic, Europe"/>
    <tag k="is_in:continent" v="Europe"/>
    <tag k="is_in:country_code" v="cz"/>
    <tag k="name" v="Rozsocha"/>
    <tag k="place" v="suburb"/>
  </node>
  <node id="277534723" version="5" timestamp="2012-01-12T09:20:48Z" uid="536216" user="uir-zsj" changeset="10367731" lat="50.020147" lon="16.3356942"/>
  <node id="277535286" version="2" timestamp="2008-09-30T10:13:27Z" uid="1066" user="pavel" changeset="720911" lat="50.0092265" lon="16.3396424">
    <tag k="is_in" v="Czech Republic, Europe"/>
    <tag k="name" v="Rviste"/>
    <tag k="place" v="village"/>
  </node>
  <node id="277535286" version="3" timestamp="2008-11-04T13:20:19Z" uid="308" user="MichaelCollinson" changeset="676656" lat="50.0092265" lon="16.3396424">
    <tag k="is_in" v="Czech Republic, Europe"/>
    <tag k="is_in:continent" v="Europe"/>
    <tag k="is_in:country_code" v="cz"/>
    <tag k="name" v="Rviste"/>
    <tag k="place" v="village"/>
  </node>
  <node id="277535286" version="4" timestamp="2010-03-16T12:13:17Z" uid="84326" user="Mike Crash" changeset="4142784" lat="50.0092265" lon="16.3396424">
    <tag k="is_in" v="Czech Republic, Europe"/>
    <tag k="is_in:continent" v="Europe"/>
    <tag k="is_in:country_code" v="cz"/>
    <tag k="name" v="Rviště"/>
    <tag k="place" v="suburb"/>
  </node>
  <node id="277535286" version="5" timestamp="2012-01-12T09:20:55Z" uid="536216" user="uir-zsj" changeset="10367731" lat="50.0092265" lon="16.3396424"/>
  <node id="277535721" version="2" timestamp="2008-07-10T20:45:21Z" uid="6975" user="ulfl" changeset="457552" lat="49.4947981" lon="7.7128831">
    <tag k="highway" v="footway"/>
  </node>
  <node id="277535721" version="3" timestamp="2008-08-12T11:00:29Z" uid="31059" user="DaBear" changeset="204133" lat="49.4947981" lon="7.7128831"/>
  <node id="277535721" version="4" timestamp="2009-05-07T20:24:50Z" uid="41727" user="MattF" changeset="1111797" lat="49.4947947" lon="7.7128493"/>
  <node id="277536659" version="2" timestamp="2008-07-10T20:45:21Z" uid="6975" user="ulfl" changeset="457552" lat="49.4992299" lon="7.7015448">
    <tag k="highway" v="footway"/>
  </node>
  <node id="277536659" version="3" timestamp="2008-08-12T11:00:30Z" uid="31059" user="DaBear" changeset="204133" lat="49.4992299" lon="7.7015448"/>
  <node id="277536659" version="4" timestamp="2008-11-04T22:06:27Z" uid="49971" user="Spielkind" changeset="680444" lat="49.499254" lon="7.7015223"/>
  <node id="277536659" version="5" timestamp="2011-03-31T10:05:44Z" uid="407804" user="Blesmol" changeset="7724659" lat="49.4992695" lon="7.7014961"/>
  <node id="277537344" version="3" timestamp="2008-07-14T08:46:27Z" uid="6975" user="ulfl" changeset="486169" lat="49.9759431" lon="11.0335724">
    <tag k="amenity" v="townhall"/>
    <tag k="name" v="Rathaus"/>
  </node>
  <node id="277537344" version="4" timestamp="2008-07-17T12:32:59Z" uid="49569" user="Marcel D" changeset="522660" lat="49.9759503" lon="11.0335764">
    <tag k="amenity" v="townhall"/>
    <tag k="name" v="Rathaus"/>
  </node>
  <node id="277537344" version="5" timestamp="2008-08-11T11:43:51Z" uid="49569" user="Marcel D" changeset="194148" lat="49.9759503" lon="11.0335764">
    <tag k="amenity" v="townhall"/>
    <tag k="name" v="Rathaus"/>
  </node>
  <node id="277537344" version="6" timestamp="2009-11-05T17:01:39Z" uid="49569" user="Marcel D" changeset="3042004" lat="49.9759204" lon="11.0336366">
    <tag k="amenity" v="townhall"/>
    <tag k="name" v="Rathaus"/>
  </node>
  <node id="277537344" version="7" timestamp="2011-12-03T10:15:40Z" uid="96069" user="theophrastos" changeset="10023376" lat="49.9759204" lon="11.0336366"/>
  <node id="277538721" version="3" timestamp="2008-07-10T20:18:38Z" uid="6975" user="ulfl" changeset="457552" lat="48.1227952" lon="11.5650137">
    <tag k="name" v="DERAG Hotel Prinzessin Elisabeth"/>
    <tag k="tourism" v="hotel"/>
  </node>
  <node id="277538721" version="4" timestamp="2011-02-08T13:03:19Z" uid="42393" user="mawi42" changeset="7226370" lat="48.1228083" lon="11.5649637">
    <tag k="name" v="DERAG Hotel Prinzessin Elisabeth"/>
    <tag k="tourism" v="hotel"/>
  </node>
  <node id="277538721" version="5" timestamp="2011-02-09T08:53:47Z" uid="42393" user="mawi42" changeset="7233927" lat="48.1228084" lon="11.5649637">
    <tag k="addr:city" v="München"/>
    <tag k="addr:country" v="DE"/>
    <tag k="addr:housenumber" v="52"/>
    <tag k="addr:postcode" v="80469"/>
    <tag k="addr:street" v="Geyerstraße"/>
    <tag k="name" v="DERAG Hotel Prinzessin Elisabeth"/>
    <tag k="tourism" v="hotel"/>
  </node>
  <node id="277538721" version="6" timestamp="2011-08-07T21:13:53Z" uid="290680" user="wheelmap_visitor" changeset="8950992" lat="48.1228084" lon="11.5649637">
    <tag k="addr:city" v="München"/>
    <tag k="addr:country" v="DE"/>
    <tag k="addr:housenumber" v="52"/>
    <tag k="addr:postcode" v="80469"/>
    <tag k="addr:street" v="Geyerstraße"/>
    <tag k="name" v="DERAG Hotel Prinzessin Elisabeth"/>
    <tag k="tourism" v="hotel"/>
    <tag k="wheelchair" v="yes"/>
  </node>
</osm>
