<?xml version='1.0' encoding='UTF-8'?>
<osm version="0.6" generator="libosmium/2.20.0">
  <node id="279391081" version="2" timestamp="2008-11-09T20:39:41Z" uid="3451" user="sascha_silbe" changeset="723296" lat="48.5120746" lon="9.0752981"/>
  <node id="279391084" version="2" timestamp="2008-08-21T23:35:34Z" uid="3451" user="sascha_silbe" changeset="365032" lat="48.5107553" lon="9.0761869">
    <tag k="addr:housenumber" v="46"/>
    <tag k="amenity" v="restaurant"/>
    <tag k="name" v="credo"/>
    <tag k="source:addr" v="survey"/>
  </node>
  <node id="279391084" version="3" timestamp="2008-11-02T15:51:17Z" uid="3451" user="sascha_silbe" changeset="658554" lat="48.5107553" lon="9.0761869">
    <tag k="addr:housenumber" v="46"/>
    <tag k="addr:street" v="Aixer Straße"/>
    <tag k="amenity" v="restaurant"/>
    <tag k="name" v="credo"/>
    <tag k="source:addr" v="survey"/>
  </node>
  <node id="279391084" version="4" timestamp="2008-11-09T07:01:41Z" uid="78459" user="Jannis_1337" changeset="720086" lat="48.5107596" lon="9.0762302">
    <tag k="addr:housenumber" v="46"/>
    <tag k="addr:street" v="Aixer Straße"/>
    <tag k="amenity" v="restaurant"/>
    <tag k="created_by" v="Potlatch 0.10f"/>
    <tag k="name" v="credo"/>
    <tag k="source:addr" v="survey"/>
  </node>
  <node id="279391084" version="5" timestamp="2009-06-01T13:58:20Z" uid="85761" user="klausis" changeset="1379895" lat="48.5107596" lon="9.0762302">
    <tag k="addr:housenumber" v="46"/>
    <tag k="addr:street" v="Aixer Straße"/>
    <tag k="amenity" v="restaurant"/>
    <tag k="name" v="credo"/>
    <tag k="source:addr" v="survey"/>
  </node>
  <node id="279391084" version="6" timestamp="2010-11-07T09:25:19Z" uid="290680" user="wheelmap_visitor" changeset="6308379" lat="48.5107596" lon="9.0762302">
    <tag k="addr:housenumber" v="46"/>
    <tag k="addr:street" v="Aixer Straße"/>
    <tag k="amenity" v="restaurant"/>
    <tag k="name" v="credo"/>
    <tag k="source:addr" v="survey"/>
    <tag k="wheelchair" v="yes"/>
  </node>
  <node id="279391085" version="2" timestamp="2008-08-21T23:35:33Z" uid="3451" user="sascha_silbe" changeset="365032" lat="48.5109491" lon="9.0755011">
    <tag k="amenity" v="atm"/>
    <tag k="operator" v="Kreissparkasse Tübingen"/>
  </node>
  <node id="279391085" version="3" timestamp="2008-11-02T15:43:28Z" uid="3451" user="sascha_silbe" changeset="658554" lat="48.5109906" lon="9.0754078">
    <tag k="amenity" v="atm"/>
    <tag k="operator" v="Kreissparkasse Tübingen"/>
  </node>
  <node id="279391085" version="4" timestamp="2008-11-19T09:14:15Z" uid="3451" user="sascha_silbe" changeset="768368" lat="48.5109906" lon="9.0754078">
    <tag k="addr:housenumber" v="44"/>
    <tag k="amenity" v="atm"/>
    <tag k="operator" v="Kreissparkasse Tübingen"/>
  </node>
  <node id="279391468" version="2" timestamp="2008-09-13T23:56:21Z" uid="6975" user="ulfl" changeset="628567" lat="51.4634387" lon="-0.1065415">
    <tag k="highway" v="bus_stop"/>
    <tag k="loc_ref" v="N"/>
    <tag k="name" v="Moorland Road"/>
  </node>
  <node id="279391475" version="2" timestamp="2008-09-14T23:15:09Z" uid="6975" user="ulfl" changeset="640534" lat="51.4603591" lon="-0.1162439">
    <tag k="highway" v="bus_stop"/>
  </node>
  <node id="279391475" version="3" timestamp="2010-05-15T12:32:55Z" uid="285415" user="itsbruce" changeset="4705716" lat="51.4603549" lon="-0.1162277">
    <tag k="highway" v="bus_stop"/>
  </node>
  <node id="279391485" version="3" timestamp="2008-10-27T08:19:43Z" uid="6975" user="ulfl" changeset="596208" lat="51.4823486" lon="-0.0812711">
    <tag k="FIXME" v="what is this?"/>
    <tag k="historic" v="monument"/>
    <tag k="kind" v="train"/>
  </node>
  <node id="279391485" version="4" timestamp="2009-02-19T22:29:24Z" uid="1185" user="dankarran" changeset="558422" lat="51.4823501" lon="-0.0812787">
    <tag k="FIXME" v="what is this?"/>
    <tag k="created_by" v="Potlatch 0.10f"/>
    <tag k="historic" v="monument"/>
    <tag k="image" v="http://www.flickr.com/photos/southwarkcouncil/3194055478"/>
    <tag k="kind" v="train"/>
  </node>
  <node id="279391485" version="5" timestamp="2009-10-12T16:58:59Z" uid="57932" user="Strange but untrue" changeset="2828165" lat="51.4823524" lon="-0.081284">
    <tag k="FIXME" v="what is this?"/>
    <tag k="historic" v="monument"/>
    <tag k="image" v="http://www.flickr.com/photos/southwarkcouncil/3194055478"/>
    <tag k="type" v="train"/>
  </node>
  <node id="279391485" version="6" timestamp="2012-01-11T16:49:03Z" uid="346" user="Tom Chance" changeset="10362043" lat="51.4823524" lon="-0.081284"/>
  <node id="279392415" version="4" timestamp="2008-12-04T19:51:50Z" uid="6975" user="ulfl" changeset="107048" lat="50.5713056" lon="8.6623028">
    <tag k="highway" v="bus_stop"/>
    <tag k="line" v="1"/>
    <tag k="name" v="Richard-Wagner-Straße"/>
    <tag k="note" v="FIXME: exact place"/>
    <tag k="source" v="local knowledge"/>
  </node>
  <node id="279392415" version="5" timestamp="2009-01-10T20:15:43Z" uid="67441" user="u14183" changeset="768699" lat="50.5713056" lon="8.6623028">
    <tag k="highway" v="bus_stop"/>
    <tag k="name" v="Richard-Wagner-Straße"/>
    <tag k="note" v="FIXME: exact place"/>
    <tag k="source" v="local knowledge"/>
  </node>
  <node id="279392415" version="6" timestamp="2009-01-19T10:57:38Z" uid="57645" user="KartoGrapHiti" changeset="809498" lat="50.5712058" lon="8.6623294">
    <tag k="created_by" v="Potlatch 0.10f"/>
    <tag k="highway" v="bus_stop"/>
    <tag k="name" v="Richard-Wagner-Straße"/>
    <tag k="note" v="FIXME: exact place"/>
    <tag k="source" v="local knowledge"/>
  </node>
  <node id="279392415" version="7" timestamp="2009-02-01T13:00:00Z" uid="57645" user="KartoGrapHiti" changeset="17918" lat="50.5709659" lon="8.6616173">
    <tag k="created_by" v="Potlatch 0.10f"/>
    <tag k="highway" v="bus_stop"/>
    <tag k="line" v="1; 13"/>
    <tag k="name" v="Richard-Wagner-Straße"/>
    <tag k="network" v="RMV"/>
    <tag k="shelter" v="yes"/>
  </node>
  <node id="279392415" version="8" timestamp="2009-02-01T13:00:13Z" uid="57645" user="KartoGrapHiti" changeset="17918" lat="50.5709659" lon="8.6616173">
    <tag k="created_by" v="Potlatch 0.10f"/>
    <tag k="highway" v="bus_stop"/>
    <tag k="line" v="1; 13"/>
    <tag k="name" v="Richard-Wagner-Straße"/>
    <tag k="network" v="RMV"/>
    <tag k="shelter" v="no"/>
  </node>
  <node id="279392415" version="9" timestamp="2009-02-20T21:10:27Z" uid="57645" user="KartoGrapHiti" changeset="590672" lat="50.5709696" lon="8.6616133">
    <tag k="created_by" v="Potlatch 0.10f"/>
    <tag k="highway" v="bus_stop"/>
    <tag k="line" v="1; 13"/>
    <tag k="name" v="Richard-Wagner-Straße"/>
    <tag k="network" v="RMV"/>
    <tag k="ref" v="114516"/>
    <tag k="shelter" v="no"/>
  </node>
  <node id="279392415" version="10" timestamp="2010-11-12T13:02:27Z" uid="57645" user="KartoGrapHiti" changeset="6350595" lat="50.5709696" lon="8.6616133">
    <tag k="highway" v="bus_stop"/>
    <tag k="line" v="1; 13"/>
    <tag k="name" v="Richard-Wagner-Straße"/>
    <tag k="network" v="RMV"/>
    <tag k="ref" v="114516"/>
    <tag k="shelter" v="no"/>
  </node>
  <node id="279392415" version="11" timestamp="2011-09-19T12:12:25Z" uid="57645" user="KartoGrapHiti" changeset="9342083" lat="50.5709696" lon="8.6616133">
    <tag k="highway" v="bus_stop"/>
    <tag k="line" v="1; 13"/>
    <tag k="name" v="Richard-Wagner-Straße"/>
    <tag k="network" v="RMV"/>
    <tag k="ref" v="114516"/>
    <tag k="ref_name" v="Richard-Wagner-Straße, Gießen"/>
    <tag k="shelter" v="no"/>
  </node>
  <node id="279392415" version="12" timestamp="2012-03-09T17:42:18Z" uid="302852" user="be-ju" changeset="10923010" lat="50.5709115" lon="8.6616245">
    <tag k="bench" v="no"/>
    <tag k="highway" v="bus_stop"/>
    <tag k="line" v="1;13"/>
    <tag k="name" v="Richard-Wagner-Straße"/>
    <tag k="network" v="RMV"/>
    <tag k="ref" v="114516"/>
    <tag k="ref_name" v="Richard-Wagner-Straße, Gießen"/>
    <tag k="shelter" v="no"/>
    <tag k="tactile_paving" v="no"/>
  </node>
  <node id="279392417" version="4" timestamp="2008-12-04T19:51:41Z" uid="6975" user="ulfl" changeset="107048" lat="50.5726902" lon="8.6594275">
    <tag k="highway" v="bus_stop"/>
    <tag k="line" v="1"/>
    <tag k="name" v="Schubertstraße"/>
    <tag k="note" v="FIXME: exact place"/>
    <tag k="source" v="local knowledge"/>
  </node>
  <node id="279392417" version="5" timestamp="2009-09-28T17:12:01Z" uid="75317" user="HoloDuke" changeset="2667644" lat="50.5726902" lon="8.6594275">
    <tag k="fixme" v="exact place"/>
    <tag k="highway" v="bus_stop"/>
    <tag k="line" v="1"/>
    <tag k="name" v="Schubertstraße"/>
    <tag k="source" v="local knowledge"/>
  </node>
  <node id="279392417" version="6" timestamp="2011-08-12T12:23:09Z" uid="286452" user="TetiSoft" changeset="8995500" lat="50.5726902" lon="8.6594274">
    <tag k="fixme" v="exact place"/>
    <tag k="highway" v="bus_stop"/>
    <tag k="line" v="1"/>
    <tag k="name" v="Schubertstraße"/>
    <tag k="network" v="RMV"/>
    <tag k="source" v="local knowledge"/>
  </node>
  <node id="279392417" version="7" timestamp="2011-09-19T12:12:25Z" uid="57645" user="KartoGrapHiti" changeset="9342083" lat="50.5726902" lon="8.6594274">
    <tag k="fixme" v="exact place"/>
    <tag k="highway" v="bus_stop"/>
    <tag k="line" v="1"/>
    <tag k="name" v="Schubertstraße"/>
    <tag k="network" v="RMV"/>
    <tag k="ref_name" v="Richard-Wagner-Straße, Gießen"/>
    <tag k="source" v="local knowledge"/>
  </node>
  <node id="279392419" version="4" timestamp="2008-12-04T19:51:40Z" uid="6975" user="ulfl" changeset="107048" lat="50.569523" lon="8.6582945">
    <tag k="highway" v="bus_stop"/>
    <tag k="lines" v="1"/>
    <tag k="name" v="Max-Reger-Straße"/>
    <tag k="note" v="FIXME: exact place"/>
    <tag k="source" v="local knowledge"/>
  </node>
  <node id="279392419" version="5" timestamp="2009-01-10T20:15:42Z" uid="67441" user="u14183" changeset="768699" lat="50.569523" lon="8.6582945">
    <tag k="highway" v="bus_stop"/>
    <tag k="name" v="Max-Reger-Straße"/>
    <tag k="note" v="FIXME: exact place"/>
    <tag k="source" v="local knowledge"/>
  </node>
  <node id="279392419" version="6" timestamp="2009-02-01T12:53:56Z" uid="57645" user="KartoGrapHiti" changeset="17918" lat="50.5694776" lon="8.6582699">
    <tag k="created_by" v="Potlatch 0.10f"/>
    <tag k="highway" v="bus_stop"/>
    <tag k="name" v="Max-Reger-Straße"/>
    <tag k="note" v="FIXME: exact place"/>
    <tag k="source" v="local knowledge"/>
  </node>
  <node id="279392419" version="7" timestamp="2009-02-01T12:55:01Z" uid="57645" user="KartoGrapHiti" changeset="17918" lat="50.5692269" lon="8.6580467">
    <tag k="created_by" v="Potlatch 0.10f"/>
    <tag k="highway" v="bus_stop"/>
    <tag k="line" v="1; 13"/>
    <tag k="name" v="Max-Reger-Straße"/>
    <tag k="shelter" v="yes"/>
  </node>
  <node id="279392419" version="8" timestamp="2009-02-01T12:55:16Z" uid="57645" user="KartoGrapHiti" changeset="17918" lat="50.5692269" lon="8.6580467">
    <tag k="created_by" v="Potlatch 0.10f"/>
    <tag k="highway" v="bus_stop"/>
    <tag k="line" v="1; 13"/>
    <tag k="name" v="Max-Reger-Straße"/>
    <tag k="network" v="RMV"/>
    <tag k="shelter" v="yes"/>
  </node>
  <node id="279392419" version="9" timestamp="2009-02-01T12:55:38Z" uid="57645" user="KartoGrapHiti" changeset="17918" lat="50.5694504" lon="8.6583042">
    <tag k="created_by" v="Potlatch 0.10f"/>
    <tag k="highway" v="bus_stop"/>
    <tag k="line" v="1; 13"/>
    <tag k="name" v="Max-Reger-Straße"/>
    <tag k="network" v="RMV"/>
    <tag k="shelter" v="yes"/>
  </node>
  <node id="279392419" version="10" timestamp="2009-02-01T12:56:37Z" uid="57645" user="KartoGrapHiti" changeset="17918" lat="50.5694885" lon="8.6583814">
    <tag k="created_by" v="Potlatch 0.10f"/>
    <tag k="highway" v="bus_stop"/>
    <tag k="line" v="1; 13"/>
    <tag k="name" v="Max-Reger-Straße"/>
    <tag k="network" v="RMV"/>
    <tag k="shelter" v="yes"/>
  </node>
  <node id="279392419" version="11" timestamp="2009-02-01T15:45:50Z" uid="57645" user="KartoGrapHiti" changeset="17918" lat="50.5694871" lon="8.6583813">
    <tag k="created_by" v="Potlatch 0.10f"/>
    <tag k="highway" v="bus_stop"/>
    <tag k="line" v="1; 13; Saturn"/>
    <tag k="name" v="Max-Reger-Straße"/>
    <tag k="network" v="RMV"/>
    <tag k="shelter" v="yes"/>
  </node>
  <node id="279392419" version="12" timestamp="2009-02-01T15:46:19Z" uid="57645" user="KartoGrapHiti" changeset="17918" lat="50.5694871" lon="8.6583813">
    <tag k="created_by" v="Potlatch 0.10f"/>
    <tag k="highway" v="bus_stop"/>
    <tag k="line" v="1; 13"/>
    <tag k="name" v="Max-Reger-Straße"/>
    <tag k="network" v="RMV"/>
    <tag k="shelter" v="yes"/>
  </node>
  <node id="279392419" version="13" timestamp="2009-02-20T21:09:55Z" uid="57645" user="KartoGrapHiti" changeset="590672" lat="50.5694923" lon="8.6583775">
    <tag k="created_by" v="Potlatch 0.10f"/>
    <tag k="highway" v="bus_stop"/>
    <tag k="line" v="1; 13"/>
    <tag k="name" v="Max-Reger-Straße"/>
    <tag k="network" v="RMV"/>
    <tag k="ref" v="114515"/>
    <tag k="shelter" v="yes"/>
  </node>
  <node id="279392419" version="14" timestamp="2010-11-12T13:01:15Z" uid="57645" user="KartoGrapHiti" changeset="6350595" lat="50.5694923" lon="8.6583775">
    <tag k="highway" v="bus_stop"/>
    <tag k="line" v="1; 13"/>
    <tag k="name" v="Max-Reger-Straße"/>
    <tag k="network" v="RMV"/>
    <tag k="ref" v="114515"/>
    <tag k="shelter" v="yes"/>
  </node>
  <node id="279392419" version="15" timestamp="2010-12-04T16:51:46Z" uid="57645" user="KartoGrapHiti" changeset="6540207" lat="50.5694495" lon="8.6584505">
    <tag k="highway" v="bus_stop"/>
    <tag k="line" v="1; 13"/>
    <tag k="name" v="Max-Reger-Straße"/>
    <tag k="network" v="RMV"/>
    <tag k="ref" v="114515"/>
    <tag k="shelter" v="yes"/>
  </node>
  <node id="279392419" version="16" timestamp="2011-05-18T12:47:38Z" uid="290680" user="wheelmap_visitor" changeset="8177878" lat="50.5694495" lon="8.6584505">
    <tag k="highway" v="bus_stop"/>
    <tag k="line" v="1; 13"/>
    <tag k="name" v="Max-Reger-Straße"/>
    <tag k="network" v="RMV"/>
    <tag k="ref" v="114515"/>
    <tag k="shelter" v="yes"/>
    <tag k="wheelchair" v="yes"/>
  </node>
  <node id="279392419" version="17" timestamp="2011-09-19T12:12:25Z" uid="57645" user="KartoGrapHiti" changeset="9342083" lat="50.5694495" lon="8.6584505">
    <tag k="highway" v="bus_stop"/>
    <tag k="line" v="1; 13"/>
    <tag k="name" v="Max-Reger-Straße"/>
    <tag k="network" v="RMV"/>
    <tag k="ref" v="114515"/>
    <tag k="ref_name" v="Max-Reger-Straße, Gießen"/>
    <tag k="shelter" v="yes"/>
    <tag k="wheelchair" v="yes"/>
  </node>
  <node id="279392419" version="18" timestamp="2012-03-23T21:04:09Z" uid="302852" user="be-ju" changeset="11078423" lat="50.5694431" lon="8.658467">
    <tag k="bench" v="yes"/>
    <tag k="highway" v="bus_stop"/>
    <tag k="line" v="1; 13"/>
    <tag k="name" v="Max-Reger-Straße"/>
    <tag k="network" v="RMV"/>
    <tag k="ref" v="114515"/>
    <tag k="ref_name" v="Max-Reger-Straße, Gießen"/>
    <tag k="shelter" v="yes"/>
    <tag k="tactile_paving" v="no"/>
    <tag k="wheelchair" v="yes"/>
  </node>
  <node id="279395139" version="3" timestamp="2008-07-22T19:56:12Z" uid="8931" user="bluepup" changeset="569500" lat="51.5755965" lon="8.7165531">
    <tag k="amenity" v="fuel"/>
    <tag k="created_by" v="Potlatch 0.10"/>
    <tag k="name" v="Schallenkamp"/>
  </node>
  <node id="279395139" version="4" timestamp="2009-06-09T11:22:38Z" uid="44480" user="Gospelix" changeset="1467414" lat="51.575471" lon="8.7165308">
    <tag k="amenity" v="fuel"/>
    <tag k="created_by" v="Potlatch 0.10"/>
    <tag k="name" v="Schallenkamp"/>
  </node>
  <node id="279395139" version="5" timestamp="2009-07-14T17:38:58Z" uid="145389" user="phlip" changeset="1829000" lat="51.5754671" lon="8.7165248">
    <tag k="amenity" v="lpg fuel"/>
    <tag k="created_by" v="Potlatch 0.10"/>
    <tag k="name" v="Schallenkamp"/>
  </node>
  <node id="279395139" version="6" timestamp="2009-08-02T17:04:15Z" uid="31231" user="Andre68" changeset="2017043" lat="51.5754671" lon="8.7165248">
    <tag k="amenity" v="fuel"/>
    <tag k="fuel:lpg" v="yes"/>
    <tag k="name" v="Schallenkamp"/>
  </node>
  <node id="279399728" version="2" timestamp="2009-01-07T14:24:01Z" uid="3451" user="sascha_silbe" changeset="752086" lat="48.5169367" lon="9.0584377">
    <tag k="name" v="Padeffke"/>
    <tag k="shop" v="bakery"/>
  </node>
  <node id="279399728" version="3" timestamp="2010-05-16T13:55:54Z" uid="125684" user="tesche" changeset="4717338" lat="48.5171462" lon="9.0583387">
    <tag k="name" v="Padeffke"/>
    <tag k="shop" v="bakery"/>
  </node>
  <node id="279399728" version="4" timestamp="2011-01-19T10:25:24Z" uid="79281" user="tjum" changeset="7018965" lat="48.5172139" lon="9.0582898">
    <tag k="amenity" v="cafe"/>
    <tag k="name" v="Padeffke"/>
    <tag k="shop" v="bakery"/>
  </node>
  <node id="279399728" version="5" timestamp="2011-06-01T13:21:17Z" uid="290680" user="wheelmap_visitor" changeset="8310204" lat="48.5172139" lon="9.0582898">
    <tag k="amenity" v="cafe"/>
    <tag k="name" v="Padeffke"/>
    <tag k="shop" v="bakery"/>
    <tag k="wheelchair" v="no"/>
  </node>
  <node id="279399728" version="6" timestamp="2012-01-04T09:17:35Z" uid="569579" user="judisa" changeset="10288840" lat="48.5172246" lon="9.0582147">
    <tag k="amenity" v="cafe"/>
    <tag k="name" v="Padeffke"/>
    <tag k="shop" v="bakery"/>
    <tag k="wheelchair" v="no"/>
  </node>
  <node id="279399863" version="2" timestamp="2010-03-15T21:18:23Z" uid="30632" user="antblant" changeset="4138784" lat="51.93936" lon="20.1455425"/>
</osm>
