<?xml version='1.0' encoding='UTF-8'?>
<osm version="0.6" generator="libosmium/2.20.0">
  <node id="279610614" version="6" timestamp="2008-09-14T14:12:02Z" uid="6975" user="ulfl" changeset="640534" lat="53.5604242" lon="8.0465895">
    <tag k="amenity" v="kindergarten"/>
    <tag k="name" v="?"/>
  </node>
  <node id="279610614" version="7" timestamp="2011-01-07T08:39:51Z" uid="70696" user="xybot" changeset="6889889" lat="53.5604242" lon="8.0465895">
    <tag k="FIXME" v="name"/>
    <tag k="amenity" v="kindergarten"/>
  </node>
  <node id="279610614" version="8" timestamp="2011-06-04T07:52:45Z" uid="140610" user="ehop" changeset="8336727" lat="53.5605183" lon="8.046507">
    <tag k="FIXME" v="name"/>
    <tag k="amenity" v="kindergarten"/>
  </node>
  <node id="279610614" version="9" timestamp="2011-07-20T08:28:34Z" uid="38735" user="GPS-Wolf" changeset="8775933" lat="53.5605183" lon="8.046507">
    <tag k="addr:city" v="Wilhelmshaven"/>
    <tag k="addr:country" v="DE"/>
    <tag k="addr:housenumber" v="18"/>
    <tag k="addr:postcode" v="26388"/>
    <tag k="addr:street" v="Poststraße"/>
    <tag k="amenity" v="kindergarten"/>
    <tag k="name" v="AWO Kindergarten Hummel-Hus"/>
    <tag k="phone" v="+49 4423 1349"/>
    <tag k="website" v="http://www.awo-wilhelmshaven.de/kitas.php"/>
  </node>
  <node id="279610614" version="10" timestamp="2011-10-16T12:11:29Z" uid="290680" user="wheelmap_visitor" changeset="9569216" lat="53.5605183" lon="8.046507">
    <tag k="addr:city" v="Wilhelmshaven"/>
    <tag k="addr:country" v="DE"/>
    <tag k="addr:housenumber" v="18"/>
    <tag k="addr:postcode" v="26388"/>
    <tag k="addr:street" v="Poststraße"/>
    <tag k="amenity" v="kindergarten"/>
    <tag k="name" v="AWO Kindergarten Hummel-Hus"/>
    <tag k="phone" v="+49 4423 1349"/>
    <tag k="website" v="http://www.awo-wilhelmshaven.de/kitas.php"/>
    <tag k="wheelchair" v="limited"/>
  </node>
  <node id="279611707" version="2" timestamp="2008-08-09T14:39:38Z" uid="36809" user="pfoten_weg_!_" changeset="152802" lat="48.0344939" lon="11.5036347">
    <tag k="created_by" v="RambaZamba"/>
  </node>
  <node id="279611707" version="3" timestamp="2008-09-19T23:32:15Z" uid="36809" user="pfoten_weg_!_" changeset="670006" lat="48.0344939" lon="11.5036347">
    <tag k="created_by" v="RambaZamba"/>
  </node>
  <node id="279611710" version="2" timestamp="2008-08-09T14:39:38Z" uid="36809" user="pfoten_weg_!_" changeset="152802" lat="48.03412" lon="11.5033078">
    <tag k="created_by" v="RambaZamba"/>
  </node>
  <node id="279611710" version="3" timestamp="2008-09-19T23:32:15Z" uid="36809" user="pfoten_weg_!_" changeset="670006" lat="48.03412" lon="11.5033078">
    <tag k="created_by" v="RambaZamba"/>
  </node>
  <node id="279611714" version="2" timestamp="2008-08-09T14:39:39Z" uid="36809" user="pfoten_weg_!_" changeset="152802" lat="48.0364003" lon="11.5046764">
    <tag k="created_by" v="RambaZamba"/>
  </node>
  <node id="279611714" version="3" timestamp="2008-08-18T12:01:11Z" uid="36809" user="pfoten_weg_!_" changeset="306127" lat="48.0364003" lon="11.5046763">
    <tag k="created_by" v="RambaZamba"/>
  </node>
  <node id="279611714" version="4" timestamp="2008-08-18T12:49:28Z" uid="36809" user="pfoten_weg_!_" changeset="306127" lat="48.0364003" lon="11.5046779">
    <tag k="created_by" v="RambaZamba"/>
  </node>
  <node id="279611714" version="5" timestamp="2008-09-23T00:37:14Z" uid="36809" user="pfoten_weg_!_" changeset="683746" lat="48.0364003" lon="11.5046779">
    <tag k="created_by" v="RambaZamba"/>
  </node>
  <node id="279611718" version="3" timestamp="2008-08-09T14:39:39Z" uid="36809" user="pfoten_weg_!_" changeset="152802" lat="48.021035" lon="11.486946">
    <tag k="amenity" v="bank"/>
    <tag k="atm" v="yes"/>
    <tag k="created_by" v="RambaZamba"/>
    <tag k="name" v="Sparkasse"/>
  </node>
  <node id="279611718" version="4" timestamp="2008-10-01T01:50:45Z" uid="36809" user="pfoten_weg_!_" changeset="5644" lat="48.021035" lon="11.486946">
    <tag k="amenity" v="bank"/>
    <tag k="atm" v="yes"/>
    <tag k="created_by" v="RambaZamba"/>
    <tag k="name" v="Sparkasse"/>
  </node>
  <node id="279611718" version="5" timestamp="2009-03-30T00:42:05Z" uid="36809" user="pfoten_weg_!_" changeset="869093" lat="48.021035" lon="11.486946">
    <tag k="amenity" v="bank"/>
    <tag k="atm" v="yes"/>
    <tag k="created_by" v="RambaZamba"/>
    <tag k="name" v="Sparkasse"/>
    <tag k="source" v="survey"/>
  </node>
  <node id="279611718" version="6" timestamp="2009-08-12T12:47:00Z" uid="156995" user="HampelZamba" changeset="2118306" lat="48.021035" lon="11.486946">
    <tag k="amenity" v="bank"/>
    <tag k="atm" v="yes"/>
    <tag k="name" v="Sparkasse"/>
    <tag k="source" v="survey"/>
  </node>
  <node id="279611718" version="7" timestamp="2009-08-19T13:47:49Z" uid="36809" user="pfoten_weg_!_" changeset="2201154" lat="48.021035" lon="11.486946">
    <tag k="amenity" v="bank"/>
    <tag k="atm" v="yes"/>
    <tag k="name" v="Sparkasse"/>
    <tag k="source" v="survey at RambaZamba"/>
  </node>
  <node id="279611718" version="8" timestamp="2009-08-28T19:39:31Z" uid="156995" user="HampelZamba" changeset="2294580" lat="48.021035" lon="11.486946">
    <tag k="amenity" v="bank"/>
    <tag k="atm" v="yes"/>
    <tag k="name" v="Sparkasse"/>
  </node>
  <node id="279611718" version="9" timestamp="2009-08-28T21:27:35Z" uid="36809" user="pfoten_weg_!_" changeset="2295609" lat="48.021035" lon="11.486946">
    <tag k="amenity" v="bank"/>
    <tag k="atm" v="yes"/>
    <tag k="discovered_by" v="RambaZamba"/>
    <tag k="name" v="Sparkasse"/>
    <tag k="source" v="survey"/>
  </node>
  <node id="279611718" version="10" timestamp="2009-08-30T04:54:11Z" uid="156995" user="HampelZamba" changeset="2308696" lat="48.021035" lon="11.486946">
    <tag k="amenity" v="bank"/>
    <tag k="atm" v="yes"/>
    <tag k="name" v="Sparkasse"/>
    <tag k="source" v="survey"/>
  </node>
  <node id="279611718" version="11" timestamp="2009-08-31T17:39:41Z" uid="36809" user="pfoten_weg_!_" changeset="2328905" lat="48.021035" lon="11.486946">
    <tag k="amenity" v="bank"/>
    <tag k="atm" v="yes"/>
    <tag k="name" v="Sparkasse"/>
    <tag k="source" v="survey"/>
  </node>
  <node id="279611718" version="12" timestamp="2009-10-01T17:29:31Z" uid="163280" user="xxlbiker" changeset="2702933" lat="48.0210389" lon="11.4869374">
    <tag k="amenity" v="bank"/>
    <tag k="atm" v="yes"/>
    <tag k="name" v="Sparkasse"/>
    <tag k="operator" v="Kreissparkasse München"/>
    <tag k="source" v="survey"/>
  </node>
  <node id="279611718" version="13" timestamp="2009-10-11T23:33:19Z" uid="36809" user="pfoten_weg_!_" changeset="2821194" lat="48.0210389" lon="11.4869374">
    <tag k="amenity" v="bank"/>
    <tag k="atm" v="yes"/>
    <tag k="name" v="Sparkasse"/>
    <tag k="operator" v="Kreissparkasse München"/>
  </node>
  <node id="279611718" version="14" timestamp="2010-09-20T14:33:44Z" uid="42393" user="mawi42" changeset="5829509" lat="48.0210389" lon="11.4869373">
    <tag k="addr:city" v="Baierbrunn"/>
    <tag k="addr:country" v="DE"/>
    <tag k="addr:housenumber" v="44"/>
    <tag k="addr:postcode" v="82065"/>
    <tag k="addr:street" v="Wolfratshauser Straße"/>
    <tag k="amenity" v="bank"/>
    <tag k="atm" v="yes"/>
    <tag k="name" v="Sparkasse"/>
    <tag k="operator" v="Kreissparkasse München Starnberg"/>
  </node>
  <node id="279611718" version="15" timestamp="2010-09-20T14:35:49Z" uid="42393" user="mawi42" changeset="5829509" lat="48.0210389" lon="11.4869373">
    <tag k="addr:city" v="Baierbrunn"/>
    <tag k="addr:country" v="DE"/>
    <tag k="addr:housenumber" v="44"/>
    <tag k="addr:postcode" v="82065"/>
    <tag k="addr:street" v="Wolfratshauser Straße"/>
    <tag k="amenity" v="bank"/>
    <tag k="atm" v="yes"/>
    <tag k="name" v="Sparkasse"/>
    <tag k="operator" v="Kreissparkasse München Starnberg"/>
    <tag k="website" v="https://www.kskms.de"/>
  </node>
  <node id="279616055" version="2" timestamp="2009-04-13T13:42:34Z" uid="116459" user="Gemi" changeset="474164" lat="51.3506156" lon="8.2840528"/>
  <node id="279616055" version="3" timestamp="2010-07-31T21:49:36Z" uid="116459" user="Gemi" changeset="5366336" lat="51.3506022" lon="8.2840743"/>
  <node id="279616055" version="4" timestamp="2012-01-05T14:57:44Z" uid="63969" user="olvagor" changeset="10301793" lat="51.3506022" lon="8.2840743"/>
  <node id="279617120" version="18" timestamp="2009-09-22T13:51:09Z" uid="9581" user="Lobelt" changeset="2570242" lat="50.9471564" lon="11.6101595"/>
  <node id="279618186" version="2" timestamp="2009-10-07T16:55:57Z" uid="86259" user="hasse_osm_korinthenkacker" changeset="2773624" lat="51.1450003" lon="14.9908769">
    <tag k="historic" v="memorial"/>
    <tag k="name" v="Schillerdenkmal"/>
  </node>
  <node id="279618186" version="3" timestamp="2009-10-08T20:17:58Z" uid="86259" user="hasse_osm_korinthenkacker" changeset="2785814" lat="51.1450003" lon="14.9908769">
    <tag k="historic" v="memorial"/>
    <tag k="name" v="Schillerdenkmal"/>
  </node>
  <node id="279618250" version="3" timestamp="2008-09-14T18:38:28Z" uid="6975" user="ulfl" changeset="640534" lat="52.6360068" lon="13.4298215">
    <tag k="description" v="E82 2000kW 138m"/>
    <tag k="name" v="Enercon E82"/>
    <tag k="power" v="generator"/>
    <tag k="power_source" v="wind"/>
  </node>
  <node id="279618250" version="4" timestamp="2010-07-24T09:58:28Z" uid="52033" user="L Blume" changeset="5302506" lat="52.6360069" lon="13.4298214">
    <tag k="description" v="E82 2000kW 138m"/>
    <tag k="manufacturer" v="Enercon"/>
    <tag k="manufacturer_type" v="E82"/>
    <tag k="power" v="generator"/>
    <tag k="power_rating" v="2000kW"/>
    <tag k="power_source" v="wind"/>
  </node>
  <node id="279618250" version="5" timestamp="2010-08-29T17:15:39Z" uid="5359" user="user_5359" changeset="5628312" lat="52.6360069" lon="13.4298214">
    <tag k="description" v="E82 2000kW 138m"/>
    <tag k="manufacturer" v="Enercon"/>
    <tag k="manufacturer:type" v="E82"/>
    <tag k="power" v="generator"/>
    <tag k="power_rating" v="2000kW"/>
    <tag k="power_source" v="wind"/>
  </node>
  <node id="279618250" version="6" timestamp="2010-10-28T07:45:11Z" uid="24920" user="Schusch" changeset="6205119" lat="52.6360069" lon="13.4298214">
    <tag k="description" v="E-82 2000 kW Nabenhöhe 138 m"/>
    <tag k="manufacturer" v="Enercon"/>
    <tag k="manufacturer:type" v="E-82"/>
    <tag k="power" v="generator"/>
    <tag k="power_rating" v="2000 kW"/>
    <tag k="power_source" v="wind"/>
  </node>
  <node id="279618250" version="7" timestamp="2011-06-04T03:35:25Z" uid="297482" user="don-vip" changeset="8335705" lat="52.6360069" lon="13.4298214">
    <tag k="description" v="E-82 2000 kW Nabenhöhe 138 m"/>
    <tag k="generator:source" v="wind"/>
    <tag k="manufacturer" v="Enercon"/>
    <tag k="manufacturer:type" v="E-82"/>
    <tag k="power" v="generator"/>
    <tag k="power_rating" v="2000 kW"/>
    <tag k="power_source" v="wind"/>
  </node>
  <node id="279618250" version="8" timestamp="2011-06-04T22:57:49Z" uid="297482" user="don-vip" changeset="8344074" lat="52.6360069" lon="13.4298214">
    <tag k="description" v="E-82 2000 kW Nabenhöhe 138 m"/>
    <tag k="generator:output:electricity" v="2000 kW"/>
    <tag k="generator:source" v="wind"/>
    <tag k="manufacturer" v="Enercon"/>
    <tag k="manufacturer:type" v="E-82"/>
    <tag k="power" v="generator"/>
    <tag k="power_rating" v="2000 kW"/>
    <tag k="power_source" v="wind"/>
  </node>
  <node id="279618250" version="9" timestamp="2011-06-04T23:41:00Z" uid="297482" user="don-vip" changeset="8344266" lat="52.6360069" lon="13.4298214">
    <tag k="description" v="E-82 2000 kW Nabenhöhe 138 m"/>
    <tag k="generator:output:electricity" v="2 MW"/>
    <tag k="generator:source" v="wind"/>
    <tag k="manufacturer" v="Enercon"/>
    <tag k="manufacturer:type" v="E-82"/>
    <tag k="power" v="generator"/>
    <tag k="power_rating" v="2000 kW"/>
    <tag k="power_source" v="wind"/>
  </node>
  <node id="279618250" version="10" timestamp="2012-02-14T21:20:55Z" uid="590907" user="cbdavis" changeset="10686992" lat="52.6360069" lon="13.4298214">
    <tag k="description" v="E-82 2000 kW Nabenhöhe 138 m"/>
    <tag k="generator:output:electricity" v="2 MW"/>
    <tag k="generator:source" v="wind"/>
    <tag k="manufacturer" v="Enercon"/>
    <tag k="manufacturer:type" v="E-82"/>
    <tag k="power" v="generator"/>
    <tag k="power_rating" v="2000 kW"/>
  </node>
  <node id="279618250" version="11" timestamp="2012-02-15T10:55:10Z" uid="590907" user="cbdavis" changeset="10690119" lat="52.6360069" lon="13.4298214">
    <tag k="description" v="E-82 2000 kW Nabenhöhe 138 m"/>
    <tag k="generator:output:electricity" v="2 MW"/>
    <tag k="generator:source" v="wind"/>
    <tag k="manufacturer" v="Enercon"/>
    <tag k="manufacturer:type" v="E-82"/>
    <tag k="power" v="generator"/>
    <tag k="power_rating" v="2000 kW"/>
    <tag k="power_source" v="wind"/>
  </node>
  <node id="279618350" version="2" timestamp="2008-10-19T23:19:52Z" uid="1066" user="pavel" changeset="459567" lat="50.275797" lon="14.3390274"/>
  <node id="279618352" version="2" timestamp="2008-10-19T23:19:07Z" uid="1066" user="pavel" changeset="459567" lat="50.2758755" lon="14.3387401"/>
  <node id="279618420" version="2" timestamp="2008-10-19T23:19:21Z" uid="1066" user="pavel" changeset="459567" lat="50.2786109" lon="14.3267964"/>
  <node id="279618422" version="2" timestamp="2008-10-19T23:19:32Z" uid="1066" user="pavel" changeset="459567" lat="50.2783432" lon="14.325998"/>
  <node id="279618431" version="2" timestamp="2008-10-19T23:19:24Z" uid="1066" user="pavel" changeset="459567" lat="50.2793049" lon="14.3175677"/>
  <node id="279618440" version="2" timestamp="2008-10-19T23:19:55Z" uid="1066" user="pavel" changeset="459567" lat="50.2782087" lon="14.3299762">
    <tag k="name" v="Zámek Veltrusy"/>
    <tag k="tourism" v="attraction"/>
  </node>
  <node id="279618440" version="3" timestamp="2009-11-27T15:10:38Z" uid="90247" user="karpi" changeset="3228749" lat="50.2782171" lon="14.329998">
    <tag k="historic" v="castle"/>
    <tag k="name" v="Zámek Veltrusy"/>
    <tag k="tourism" v="attraction"/>
  </node>
  <node id="279618440" version="4" timestamp="2011-09-01T16:01:17Z" uid="190711" user="Zulu" changeset="9185799" lat="50.2782171" lon="14.329998"/>
  <node id="279618506" version="2" timestamp="2009-10-30T18:17:01Z" uid="23543" user="jkjk" changeset="2991300" lat="50.2997514" lon="14.3324371"/>
  <node id="279618601" version="2" timestamp="2008-08-09T14:35:53Z" uid="36809" user="pfoten_weg_!_" changeset="152802" lat="48.0182316" lon="11.4857237">
    <tag k="created_by" v="RambaZamba"/>
  </node>
  <node id="279618601" version="3" timestamp="2008-10-01T01:27:14Z" uid="36809" user="pfoten_weg_!_" changeset="5644" lat="48.0182316" lon="11.4857237">
    <tag k="created_by" v="RambaZamba"/>
  </node>
  <node id="279618601" version="4" timestamp="2008-12-01T16:16:24Z" uid="36809" user="pfoten_weg_!_" changeset="22291" lat="48.0182316" lon="11.4857237">
    <tag k="created_by" v="RambaZamba"/>
  </node>
  <node id="279618607" version="2" timestamp="2008-08-09T14:35:53Z" uid="36809" user="pfoten_weg_!_" changeset="152802" lat="48.0142099" lon="11.4806481">
    <tag k="created_by" v="RambaZamba"/>
  </node>
  <node id="279618607" version="3" timestamp="2009-03-23T20:30:21Z" uid="36809" user="pfoten_weg_!_" changeset="849581" lat="48.0142099" lon="11.4806481">
    <tag k="created_by" v="RambaZamba"/>
  </node>
  <node id="279618607" version="4" timestamp="2009-03-25T16:31:29Z" uid="5164" user="woodpeck" changeset="857476" lat="48.0142099" lon="11.4806481"/>
  <node id="279618607" version="5" timestamp="2009-03-27T15:06:14Z" uid="8748" user="ToniE" changeset="862943" lat="48.0142099" lon="11.4806481"/>
  <node id="279618608" version="2" timestamp="2008-08-09T14:35:53Z" uid="36809" user="pfoten_weg_!_" changeset="152802" lat="48.013646" lon="11.4797038">
    <tag k="created_by" v="RambaZamba"/>
  </node>
  <node id="279618608" version="3" timestamp="2009-03-23T20:30:19Z" uid="36809" user="pfoten_weg_!_" changeset="849581" lat="48.013646" lon="11.4797038">
    <tag k="created_by" v="RambaZamba"/>
  </node>
  <node id="279618608" version="4" timestamp="2009-03-25T16:31:30Z" uid="5164" user="woodpeck" changeset="857476" lat="48.013646" lon="11.4797038"/>
  <node id="279618608" version="5" timestamp="2009-03-27T15:06:14Z" uid="8748" user="ToniE" changeset="862943" lat="48.013646" lon="11.4797038"/>
  <node id="279618609" version="2" timestamp="2008-08-09T14:35:53Z" uid="36809" user="pfoten_weg_!_" changeset="152802" lat="48.0136475" lon="11.4794937">
    <tag k="created_by" v="RambaZamba"/>
  </node>
  <node id="279618609" version="3" timestamp="2009-03-23T20:30:18Z" uid="36809" user="pfoten_weg_!_" changeset="849581" lat="48.0136475" lon="11.4794937">
    <tag k="created_by" v="RambaZamba"/>
  </node>
  <node id="279618609" version="4" timestamp="2009-03-25T16:31:30Z" uid="5164" user="woodpeck" changeset="857476" lat="48.0136475" lon="11.4794937"/>
  <node id="279618609" version="5" timestamp="2009-03-27T15:06:14Z" uid="8748" user="ToniE" changeset="862943" lat="48.0136475" lon="11.4794937"/>
  <node id="279618610" version="2" timestamp="2008-08-09T14:35:53Z" uid="36809" user="pfoten_weg_!_" changeset="152802" lat="48.0134544" lon="11.4787195">
    <tag k="created_by" v="RambaZamba"/>
  </node>
  <node id="279618610" version="3" timestamp="2009-03-23T20:30:20Z" uid="36809" user="pfoten_weg_!_" changeset="849581" lat="48.0134544" lon="11.4787195">
    <tag k="created_by" v="RambaZamba"/>
  </node>
  <node id="279618610" version="4" timestamp="2009-03-25T16:31:31Z" uid="5164" user="woodpeck" changeset="857476" lat="48.0134544" lon="11.4787195"/>
  <node id="279618610" version="5" timestamp="2009-03-27T15:06:14Z" uid="8748" user="ToniE" changeset="862943" lat="48.0134544" lon="11.4787195"/>
  <node id="279618611" version="2" timestamp="2008-08-09T14:35:53Z" uid="36809" user="pfoten_weg_!_" changeset="152802" lat="48.013245" lon="11.4783572">
    <tag k="created_by" v="RambaZamba"/>
  </node>
  <node id="279618611" version="3" timestamp="2009-03-23T20:30:20Z" uid="36809" user="pfoten_weg_!_" changeset="849581" lat="48.013245" lon="11.4783572">
    <tag k="created_by" v="RambaZamba"/>
  </node>
  <node id="279618611" version="4" timestamp="2009-03-25T16:31:31Z" uid="5164" user="woodpeck" changeset="857476" lat="48.013245" lon="11.4783572"/>
  <node id="279618611" version="5" timestamp="2009-03-27T15:06:14Z" uid="8748" user="ToniE" changeset="862943" lat="48.013245" lon="11.4783572"/>
  <node id="279618612" version="2" timestamp="2009-03-23T20:30:21Z" uid="36809" user="pfoten_weg_!_" changeset="849581" lat="48.0092976" lon="11.4734037"/>
  <node id="279618612" version="3" timestamp="2009-03-25T16:31:32Z" uid="5164" user="woodpeck" changeset="857476" lat="48.0092976" lon="11.4734037"/>
  <node id="279618612" version="4" timestamp="2009-03-27T14:57:18Z" uid="8748" user="ToniE" changeset="862943" lat="48.0092976" lon="11.4734037"/>
  <node id="279618878" version="2" timestamp="2009-10-07T16:55:56Z" uid="86259" user="hasse_osm_korinthenkacker" changeset="2773624" lat="51.143078" lon="14.9900357">
    <tag k="tourism" v="viewpoint"/>
  </node>
  <node id="279618878" version="3" timestamp="2009-10-08T20:17:23Z" uid="86259" user="hasse_osm_korinthenkacker" changeset="2785814" lat="51.143078" lon="14.9900357">
    <tag k="tourism" v="viewpoint"/>
  </node>
  <node id="279618878" version="4" timestamp="2011-05-15T07:35:28Z" uid="62236" user="Paulchen Panther" changeset="8148406" lat="51.1429951" lon="14.9898491">
    <tag k="tourism" v="viewpoint"/>
  </node>
  <node id="279619902" version="2" timestamp="2009-10-07T16:55:35Z" uid="86259" user="hasse_osm_korinthenkacker" changeset="2773624" lat="51.1445426" lon="14.9805858">
    <tag k="amenity" v="place_of_worship"/>
    <tag k="religion" v="christian"/>
  </node>
  <node id="279619902" version="3" timestamp="2009-10-08T20:13:38Z" uid="86259" user="hasse_osm_korinthenkacker" changeset="2785814" lat="51.1445426" lon="14.9805858">
    <tag k="amenity" v="place_of_worship"/>
    <tag k="religion" v="christian"/>
  </node>
  <node id="279619902" version="4" timestamp="2010-10-31T08:59:08Z" uid="212800" user="Caprico" changeset="6236090" lat="51.1445426" lon="14.9805858">
    <tag k="access" v="Heilig-Geist-Kirche"/>
    <tag k="amenity" v="place_of_worship"/>
    <tag k="religion" v="christian"/>
  </node>
  <node id="279619902" version="5" timestamp="2010-11-20T10:37:25Z" uid="212800" user="Caprico" changeset="6412985" lat="51.1445426" lon="14.9805858">
    <tag k="amenity" v="place_of_worship"/>
    <tag k="name" v="Heilig-Geist-Kirche"/>
    <tag k="religion" v="christian"/>
  </node>
  <node id="279619902" version="6" timestamp="2011-04-28T21:09:45Z" uid="74983" user="Wolfram Sobotta" changeset="7998841" lat="51.1445426" lon="14.9805858">
    <tag k="amenity" v="place_of_worship"/>
    <tag k="denomination" v="catholic"/>
    <tag k="name" v="Heilig-Geist-Kirche"/>
    <tag k="religion" v="christian"/>
  </node>
</osm>
