<?xml version='1.0' encoding='UTF-8'?>
<osm version="0.6" generator="libosmium/2.20.0">
  <node id="280560036" version="1" timestamp="2008-07-23T20:50:32Z" uid="27600" user="Islanit" changeset="577547" lat="53.4836591" lon="10.2117694">
    <tag k="railway" v="level_crossing"/>
  </node>
  <node id="280560036" version="2" timestamp="2012-03-05T18:23:45Z" uid="63375" user="Divjo" changeset="10882411" lat="53.4836591" lon="10.2117694"/>
  <node id="280560239" version="2" timestamp="2009-02-15T16:27:47Z" uid="38524" user="Kuddy" changeset="454586" lat="49.8899038" lon="6.7707685"/>
  <node id="280560330" version="1" timestamp="2008-07-23T20:51:20Z" uid="27600" user="Islanit" changeset="577547" lat="53.4817583" lon="10.2249757"/>
  <node id="280560330" version="2" timestamp="2008-07-23T21:00:29Z" uid="27600" user="Islanit" changeset="577547" lat="53.4817583" lon="10.2249757"/>
  <node id="280560606" version="1" timestamp="2008-07-23T20:52:08Z" uid="27600" user="Islanit" changeset="577547" lat="53.4812501" lon="10.2242186"/>
  <node id="280560606" version="2" timestamp="2008-10-31T12:50:16Z" uid="27600" user="Islanit" changeset="642217" lat="53.4812501" lon="10.2242186"/>
  <node id="280560606" version="3" timestamp="2012-02-29T14:28:39Z" uid="46145" user="Jacques_N" changeset="10828424" lat="53.4812501" lon="10.2242186"/>
  <node id="280560759" version="1" timestamp="2008-07-23T20:52:44Z" uid="27600" user="Islanit" changeset="577547" lat="53.4790614" lon="10.2298624">
    <tag k="railway" v="level_crossing"/>
  </node>
  <node id="280560759" version="2" timestamp="2008-09-22T22:16:58Z" uid="41512" user="Kuddl Klien" changeset="683557" lat="53.479164" lon="10.2298872">
    <tag k="railway" v="level_crossing"/>
  </node>
  <node id="280560759" version="3" timestamp="2008-09-22T22:17:10Z" uid="41512" user="Kuddl Klien" changeset="683557" lat="53.4792202" lon="10.2298614">
    <tag k="railway" v="level_crossing"/>
  </node>
  <node id="280560759" version="4" timestamp="2008-12-18T11:44:49Z" uid="27600" user="Islanit" changeset="461873" lat="53.4791919" lon="10.229605">
    <tag k="railway" v="level_crossing"/>
  </node>
  <node id="280560759" version="5" timestamp="2009-05-07T06:14:12Z" uid="27600" user="Islanit" changeset="1103820" lat="53.4791919" lon="10.229605">
    <tag k="railway" v="level_crossing"/>
  </node>
  <node id="280560759" version="6" timestamp="2012-02-29T14:28:32Z" uid="46145" user="Jacques_N" changeset="10828424" lat="53.4791902" lon="10.2296054">
    <tag k="railway" v="level_crossing"/>
  </node>
  <node id="280560759" version="7" timestamp="2012-03-05T18:23:45Z" uid="63375" user="Divjo" changeset="10882411" lat="53.4791902" lon="10.2296054"/>
  <node id="280560919" version="1" timestamp="2008-07-23T20:53:14Z" uid="27600" user="Islanit" changeset="577547" lat="53.4808944" lon="10.2310728"/>
  <node id="280560919" version="2" timestamp="2009-05-01T18:29:44Z" uid="59316" user="HunterMaster" changeset="1040267" lat="53.48091" lon="10.231052"/>
  <node id="280560922" version="1" timestamp="2008-07-23T20:53:14Z" uid="27600" user="Islanit" changeset="577547" lat="53.4810017" lon="10.2309612"/>
  <node id="280560922" version="2" timestamp="2009-05-01T18:29:44Z" uid="59316" user="HunterMaster" changeset="1040267" lat="53.4809815" lon="10.2310177"/>
  <node id="280560923" version="1" timestamp="2008-07-23T20:53:14Z" uid="27600" user="Islanit" changeset="577547" lat="53.4809557" lon="10.2305492"/>
  <node id="280560923" version="2" timestamp="2009-05-01T18:29:44Z" uid="59316" user="HunterMaster" changeset="1040267" lat="53.48091" lon="10.2305885"/>
  <node id="280561538" version="2" timestamp="2009-02-15T16:39:15Z" uid="38524" user="Kuddy" changeset="454586" lat="49.8890241" lon="6.7906878"/>
  <node id="280561538" version="3" timestamp="2009-08-24T18:01:59Z" uid="30270" user="janssend" changeset="2247920" lat="49.8890241" lon="6.7906878"/>
  <node id="280562293" version="6" timestamp="2009-05-01T15:14:34Z" uid="20587" user="balrog-kun" changeset="1037852" lat="52.1158549" lon="19.6866426">
    <tag k="created_by" v="Potlatch 0.10"/>
    <tag k="is_in" v="gmina Bielawy, powiat łowicki, województwo łódzkie, Poland"/>
    <tag k="is_in:country" v="Poland"/>
    <tag k="is_in:county" v="powiat łowicki"/>
    <tag k="is_in:municipality" v="gmina Bielawy"/>
    <tag k="is_in:province" v="województwo łódzkie"/>
    <tag k="name" v="Sobota"/>
    <tag k="place" v="village"/>
    <tag k="population" v="560"/>
    <tag k="source:population" v="wikipedia"/>
    <tag k="teryt:rm" v="01"/>
    <tag k="teryt:simc" v="0724809"/>
    <tag k="teryt:stan_na" v="2009-01-01"/>
    <tag k="teryt:terc" v="1005022"/>
    <tag k="teryt:updated_by" v="teryt2osm combine.py v. 43"/>
    <tag k="wikipedia" v="Sobota, Łódź Voivodeship"/>
  </node>
  <node id="280562293" version="7" timestamp="2010-04-11T04:38:23Z" uid="20587" user="balrog-kun" changeset="4389130" lat="52.1157514" lon="19.6870648">
    <tag k="is_in" v="gmina Bielawy, powiat łowicki, województwo łódzkie, Poland"/>
    <tag k="is_in:country" v="Poland"/>
    <tag k="is_in:county" v="powiat łowicki"/>
    <tag k="is_in:municipality" v="gmina Bielawy"/>
    <tag k="is_in:province" v="województwo łódzkie"/>
    <tag k="name" v="Sobota"/>
    <tag k="place" v="village"/>
    <tag k="population" v="560"/>
    <tag k="source:population" v="wikipedia"/>
    <tag k="teryt:rm" v="01"/>
    <tag k="teryt:simc" v="0724809"/>
    <tag k="teryt:stan_na" v="2009-01-01"/>
    <tag k="teryt:terc" v="1005022"/>
    <tag k="teryt:updated_by" v="teryt2osm combine.py v. 43"/>
    <tag k="wikipedia" v="Sobota, Łódź Voivodeship"/>
  </node>
  <node id="280562315" version="1" timestamp="2008-07-23T20:57:28Z" uid="27600" user="Islanit" changeset="577547" lat="53.4786614" lon="10.1771963">
    <tag k="name" v="200"/>
    <tag k="place" v="hydrant"/>
  </node>
  <node id="280562315" version="2" timestamp="2008-07-24T14:27:08Z" uid="27600" user="Islanit" changeset="581824" lat="53.4786647" lon="10.1771963">
    <tag k="name" v="200"/>
    <tag k="place" v="hydrant"/>
  </node>
  <node id="280562315" version="3" timestamp="2008-07-24T14:27:13Z" uid="27600" user="Islanit" changeset="581824" lat="53.4786647" lon="10.1771963">
    <tag k="name" v="200"/>
    <tag k="place" v="hydrant"/>
  </node>
  <node id="280562316" version="1" timestamp="2008-07-23T20:57:28Z" uid="27600" user="Islanit" changeset="577547" lat="53.4780689" lon="10.1780387">
    <tag k="name" v="100"/>
    <tag k="place" v="hydrant"/>
  </node>
  <node id="280562316" version="2" timestamp="2008-07-24T14:27:00Z" uid="27600" user="Islanit" changeset="581824" lat="53.4780722" lon="10.1780374">
    <tag k="name" v="100"/>
    <tag k="place" v="hydrant"/>
  </node>
  <node id="280562318" version="1" timestamp="2008-07-23T20:57:28Z" uid="27600" user="Islanit" changeset="577547" lat="53.477969" lon="10.1786341">
    <tag k="name" v="100"/>
    <tag k="place" v="hydrant"/>
  </node>
  <node id="280562318" version="2" timestamp="2008-07-24T14:26:57Z" uid="27600" user="Islanit" changeset="581824" lat="53.47797" lon="10.1786296">
    <tag k="name" v="100"/>
    <tag k="place" v="hydrant"/>
  </node>
  <node id="280562331" version="1" timestamp="2008-07-23T20:57:32Z" uid="27600" user="Islanit" changeset="577547" lat="53.4790844" lon="10.1784372">
    <tag k="name" v="100"/>
    <tag k="place" v="hydrant"/>
  </node>
  <node id="280562331" version="2" timestamp="2008-07-24T14:27:10Z" uid="27600" user="Islanit" changeset="581824" lat="53.4790887" lon="10.1784322">
    <tag k="name" v="100"/>
    <tag k="place" v="hydrant"/>
  </node>
  <node id="280562531" version="2" timestamp="2009-02-15T16:39:05Z" uid="38524" user="Kuddy" changeset="454586" lat="49.8832175" lon="6.8005057"/>
  <node id="280562537" version="2" timestamp="2009-02-15T16:39:06Z" uid="38524" user="Kuddy" changeset="454586" lat="49.8832083" lon="6.8004921"/>
  <node id="280562553" version="2" timestamp="2009-02-15T16:39:06Z" uid="38524" user="Kuddy" changeset="454586" lat="49.883241" lon="6.8005415"/>
  <node id="280564917" version="2" timestamp="2008-10-08T16:31:35Z" uid="9581" user="Lobelt" changeset="165948" lat="47.2951242" lon="19.2352324"/>
  <node id="280564919" version="2" timestamp="2008-10-08T16:31:32Z" uid="9581" user="Lobelt" changeset="165948" lat="47.2967592" lon="19.238699"/>
  <node id="280564919" version="3" timestamp="2009-08-29T16:20:20Z" uid="117930" user="Halike" changeset="2303492" lat="47.2967236" lon="19.2386727"/>
  <node id="280564923" version="2" timestamp="2008-10-08T16:31:35Z" uid="9581" user="Lobelt" changeset="165948" lat="47.3022104" lon="19.2478323"/>
  <node id="280565239" version="2" timestamp="2008-10-08T16:31:34Z" uid="9581" user="Lobelt" changeset="165948" lat="47.2969876" lon="19.2396688"/>
  <node id="280565628" version="4" timestamp="2009-09-26T20:36:39Z" uid="9581" user="Lobelt" changeset="2646269" lat="50.8728439" lon="11.5953517">
    <tag k="highway" v="motorway_junction"/>
    <tag k="name" v="Jena-Göschwitz"/>
    <tag k="ref" v="53"/>
  </node>
  <node id="280565628" version="5" timestamp="2009-10-29T20:14:22Z" uid="151742" user="eins80" changeset="2984296" lat="50.8728818" lon="11.5953125">
    <tag k="highway" v="motorway_junction"/>
    <tag k="name" v="Jena-Göschwitz"/>
    <tag k="ref" v="53"/>
  </node>
  <node id="280565628" version="6" timestamp="2009-10-29T20:25:48Z" uid="151742" user="eins80" changeset="2984389" lat="50.8728444" lon="11.5953157">
    <tag k="highway" v="motorway_junction"/>
    <tag k="name" v="Jena-Göschwitz"/>
    <tag k="ref" v="53"/>
  </node>
  <node id="280565628" version="7" timestamp="2009-10-29T20:25:54Z" uid="151742" user="eins80" changeset="2984389" lat="50.8728769" lon="11.5952985">
    <tag k="highway" v="motorway_junction"/>
    <tag k="name" v="Jena-Göschwitz"/>
    <tag k="ref" v="53"/>
  </node>
  <node id="280565628" version="8" timestamp="2009-10-29T20:26:16Z" uid="151742" user="eins80" changeset="2984389" lat="50.8728769" lon="11.5952985">
    <tag k="highway" v="motorway_junction"/>
    <tag k="name" v="Jena-Göschwitz"/>
    <tag k="ref" v="53"/>
  </node>
  <node id="280565628" version="9" timestamp="2011-05-29T13:20:12Z" uid="42123" user="Ropino" changeset="8280879" lat="50.8728152" lon="11.5953881">
    <tag k="highway" v="motorway_junction"/>
    <tag k="name" v="Jena-Göschwitz"/>
    <tag k="ref" v="53"/>
  </node>
  <node id="280565628" version="10" timestamp="2012-01-09T21:44:02Z" uid="497849" user="pyram" changeset="10346502" lat="50.8730594" lon="11.5957423">
    <tag k="highway" v="motorway_junction"/>
    <tag k="name" v="Jena-Göschwitz"/>
    <tag k="ref" v="53"/>
  </node>
  <node id="280565988" version="2" timestamp="2008-10-08T16:31:32Z" uid="9581" user="Lobelt" changeset="165948" lat="47.299813" lon="19.2444184"/>
  <node id="280565988" version="3" timestamp="2009-08-29T16:20:20Z" uid="117930" user="Halike" changeset="2303492" lat="47.2997284" lon="19.2443396"/>
  <node id="280565995" version="2" timestamp="2008-10-08T16:31:33Z" uid="9581" user="Lobelt" changeset="165948" lat="47.3200837" lon="19.2949917"/>
  <node id="280565995" version="3" timestamp="2012-03-12T11:56:16Z" uid="408450" user="BáthoryPéter" changeset="10953711" lat="47.3200837" lon="19.2949917"/>
  <node id="280566089" version="2" timestamp="2008-10-08T16:31:35Z" uid="9581" user="Lobelt" changeset="165948" lat="47.2957086" lon="19.2360661"/>
  <node id="280566089" version="3" timestamp="2009-08-29T16:07:39Z" uid="117930" user="Halike" changeset="2303370" lat="47.2957407" lon="19.2361817"/>
  <node id="280566090" version="2" timestamp="2008-10-08T16:31:35Z" uid="9581" user="Lobelt" changeset="165948" lat="47.3022504" lon="19.2482496"/>
  <node id="280566091" version="3" timestamp="2008-10-08T16:31:33Z" uid="9581" user="Lobelt" changeset="165948" lat="47.310706" lon="19.2882071"/>
  <node id="280566091" version="4" timestamp="2012-03-12T11:56:16Z" uid="408450" user="BáthoryPéter" changeset="10953711" lat="47.3105846" lon="19.2878854"/>
  <node id="280566092" version="3" timestamp="2008-10-08T16:31:35Z" uid="9581" user="Lobelt" changeset="165948" lat="47.3123368" lon="19.2909999"/>
  <node id="280566092" version="4" timestamp="2012-03-12T11:56:16Z" uid="408450" user="BáthoryPéter" changeset="10953711" lat="47.3124656" lon="19.2911336"/>
  <node id="280566093" version="2" timestamp="2008-10-08T16:31:33Z" uid="9581" user="Lobelt" changeset="165948" lat="47.3271103" lon="19.3039099"/>
  <node id="280566389" version="3" timestamp="2008-10-08T16:31:34Z" uid="9581" user="Lobelt" changeset="165948" lat="47.3064976" lon="19.2816603"/>
  <node id="280566389" version="4" timestamp="2009-08-11T15:04:17Z" uid="36129" user="City-busz" changeset="2109216" lat="47.3064501" lon="19.2816603"/>
  <node id="280566389" version="5" timestamp="2011-01-21T14:34:03Z" uid="94627" user="sprok" changeset="7040839" lat="47.3064941" lon="19.2815889"/>
  <node id="280566389" version="6" timestamp="2012-03-12T11:59:45Z" uid="408450" user="BáthoryPéter" changeset="10953711" lat="47.3065061" lon="19.281663"/>
  <node id="280568097" version="2" timestamp="2009-09-26T18:29:18Z" uid="33382" user="de_muur" changeset="2644744" lat="53.6227568" lon="10.4042698"/>
  <node id="280568097" version="3" timestamp="2012-03-26T20:19:46Z" uid="349191" user="Glühwürmchen" changeset="11109456" lat="53.6227568" lon="10.4042698"/>
  <node id="280569127" version="3" timestamp="2009-09-14T04:04:24Z" uid="6975" user="ulfl" changeset="2477409" lat="48.2179997" lon="8.8529533">
    <tag k="ele" v="884"/>
    <tag k="mountain_pass" v="yes"/>
    <tag k="name" v="Lochenpass"/>
  </node>
  <node id="280569127" version="4" timestamp="2009-11-30T22:13:38Z" uid="101348" user="Stefan Karl" changeset="3260281" lat="48.2180749" lon="8.8529075"/>
  <node id="280569127" version="5" timestamp="2010-05-23T21:06:37Z" uid="242699" user="micha2103" changeset="4787899" lat="48.2181763" lon="8.8527759"/>
  <node id="280569127" version="6" timestamp="2010-07-11T15:51:05Z" uid="79281" user="tjum" changeset="5191657" lat="48.2181108" lon="8.8526255"/>
  <node id="280569857" version="3" timestamp="2008-12-14T02:26:47Z" uid="6975" user="ulfl" changeset="365670" lat="52.26203" lon="10.5288769">
    <tag k="addr:city" v="Braunschweig"/>
    <tag k="addr:housenumber" v="1"/>
    <tag k="addr:postcode" v="38100"/>
    <tag k="addr:street" v="Ackerhof"/>
    <tag k="fax" v="+49 531 44434"/>
    <tag k="name" v="Ohlendorf"/>
    <tag k="opening_hours" v="Mo-Fr 7:30-18:30\s Sa 9:00-16:00"/>
    <tag k="phone" v="+49 531 242224"/>
    <tag k="shop" v="hardware"/>
  </node>
  <node id="280569857" version="4" timestamp="2009-02-02T11:15:27Z" uid="70696" user="xybot" changeset="50224" lat="52.26203" lon="10.5288769">
    <tag k="addr:city" v="Braunschweig"/>
    <tag k="addr:housenumber" v="1"/>
    <tag k="addr:postcode" v="38100"/>
    <tag k="addr:street" v="Ackerhof"/>
    <tag k="fax" v="+49 531 44434"/>
    <tag k="name" v="Ohlendorf"/>
    <tag k="opening_hours" v="Mo-Fr 7:30-18:30; Sa 9:00-16:00"/>
    <tag k="phone" v="+49 531 242224"/>
    <tag k="shop" v="hardware"/>
  </node>
  <node id="280569857" version="5" timestamp="2009-08-03T12:35:05Z" uid="31231" user="Andre68" changeset="2025045" lat="52.26203" lon="10.5288769">
    <tag k="addr:city" v="Braunschweig"/>
    <tag k="addr:housenumber" v="1"/>
    <tag k="addr:postcode" v="38100"/>
    <tag k="addr:street" v="Ackerhof"/>
    <tag k="fax" v="+49 531 44434"/>
    <tag k="name" v="Ohlendorf"/>
    <tag k="opening_hours" v="Mo-Fr 07:30-18:30; Sa 09:00-16:00"/>
    <tag k="phone" v="+49 531 242224"/>
    <tag k="shop" v="hardware"/>
  </node>
  <node id="280569857" version="6" timestamp="2011-08-27T12:36:59Z" uid="18106" user="geltmar" changeset="9137455" lat="52.2620405" lon="10.5289591">
    <tag k="addr:city" v="Braunschweig"/>
    <tag k="addr:housenumber" v="1"/>
    <tag k="addr:postcode" v="38100"/>
    <tag k="addr:street" v="Ackerhof"/>
    <tag k="fax" v="+49 531 44434"/>
    <tag k="name" v="Ohlendorf"/>
    <tag k="opening_hours" v="Mo-Fr 07:30-18:30; Sa 09:00-16:00"/>
    <tag k="phone" v="+49 531 242224"/>
    <tag k="shop" v="hardware"/>
  </node>
  <node id="280569857" version="7" timestamp="2011-10-08T22:11:25Z" uid="290680" user="wheelmap_visitor" changeset="9499106" lat="52.2620405" lon="10.5289591">
    <tag k="addr:city" v="Braunschweig"/>
    <tag k="addr:housenumber" v="1"/>
    <tag k="addr:postcode" v="38100"/>
    <tag k="addr:street" v="Ackerhof"/>
    <tag k="fax" v="+49 531 44434"/>
    <tag k="name" v="Ohlendorf"/>
    <tag k="opening_hours" v="Mo-Fr 07:30-18:30; Sa 09:00-16:00"/>
    <tag k="phone" v="+49 531 242224"/>
    <tag k="shop" v="hardware"/>
    <tag k="wheelchair" v="yes"/>
  </node>
  <node id="280569857" version="8" timestamp="2011-11-18T14:26:08Z" uid="102715" user="Leffgar" changeset="9864359" lat="52.2620405" lon="10.5289591">
    <tag k="addr:city" v="Braunschweig"/>
    <tag k="addr:housenumber" v="1"/>
    <tag k="addr:postcode" v="38100"/>
    <tag k="addr:street" v="Ackerhof"/>
    <tag k="fax" v="+49 531 44434"/>
    <tag k="name" v="Ohlendorf"/>
    <tag k="opening_hours" v="Mo-Fr 07:30-18:30; Sa 09:00-16:00"/>
    <tag k="phone" v="+49 531 242224"/>
    <tag k="shop" v="doityourself"/>
    <tag k="wheelchair" v="yes"/>
  </node>
</osm>
