<?xml version='1.0' encoding='UTF-8'?>
<osm version="0.6" generator="libosmium/2.20.0">
  <node id="281480008" version="3" timestamp="2009-12-06T07:03:39Z" uid="7617" user="Franc" changeset="3300716" lat="-33.8630064" lon="150.9300134">
    <tag k="highway" v="turning_circle"/>
  </node>
  <node id="281480576" version="2" timestamp="2010-02-25T20:05:34Z" uid="9581" user="Lobelt" changeset="3975166" lat="49.5145173" lon="8.6079884"/>
  <node id="281480578" version="2" timestamp="2010-02-25T20:05:33Z" uid="9581" user="Lobelt" changeset="3975166" lat="49.5139055" lon="8.6084196"/>
  <node id="281480645" version="2" timestamp="2009-12-06T07:03:37Z" uid="7617" user="Franc" changeset="3300716" lat="-33.866897" lon="150.9266948">
    <tag k="highway" v="turning_circle"/>
  </node>
  <node id="281480646" version="2" timestamp="2009-12-06T07:03:38Z" uid="7617" user="Franc" changeset="3300716" lat="-33.8667972" lon="150.9266519"/>
  <node id="281480648" version="2" timestamp="2009-12-06T07:03:39Z" uid="7617" user="Franc" changeset="3300716" lat="-33.8643627" lon="150.9271408"/>
  <node id="281480649" version="2" timestamp="2009-12-06T07:03:39Z" uid="7617" user="Franc" changeset="3300716" lat="-33.8642487" lon="150.9272352"/>
  <node id="281480652" version="2" timestamp="2008-08-01T02:39:08Z" uid="30201" user="rrankin" changeset="3602" lat="-33.8644294" lon="150.9288013"/>
  <node id="281480652" version="3" timestamp="2009-12-06T07:03:39Z" uid="7617" user="Franc" changeset="3300716" lat="-33.8643872" lon="150.9287153"/>
  <node id="281480655" version="2" timestamp="2010-02-25T20:05:34Z" uid="9581" user="Lobelt" changeset="3975166" lat="49.5140464" lon="8.6078045"/>
  <node id="281480657" version="2" timestamp="2009-12-06T07:03:39Z" uid="7617" user="Franc" changeset="3300716" lat="-33.8648711" lon="150.9270504"/>
  <node id="281480659" version="2" timestamp="2009-12-06T07:03:38Z" uid="7617" user="Franc" changeset="3300716" lat="-33.8666956" lon="150.9292891"/>
  <node id="281480662" version="2" timestamp="2009-12-06T07:03:38Z" uid="7617" user="Franc" changeset="3300716" lat="-33.8664419" lon="150.9277935"/>
  <node id="281480664" version="2" timestamp="2009-12-06T07:03:38Z" uid="7617" user="Franc" changeset="3300716" lat="-33.8666272" lon="150.9275875"/>
  <node id="281480668" version="2" timestamp="2009-12-06T07:03:38Z" uid="7617" user="Franc" changeset="3300716" lat="-33.8675082" lon="150.9291271"/>
  <node id="281480728" version="3" timestamp="2009-05-24T16:46:25Z" uid="43863" user="Rundling" changeset="1308258" lat="52.6656141" lon="9.633419"/>
  <node id="281480728" version="4" timestamp="2012-01-21T22:48:39Z" uid="207280" user="mEIN" changeset="10460629" lat="52.6656239" lon="9.6334621"/>
  <node id="281480731" version="2" timestamp="2008-11-15T06:43:26Z" uid="7617" user="Franc" changeset="749870" lat="-33.8674054" lon="150.9282977">
    <tag k="highway" v="turning_circle"/>
  </node>
  <node id="281480732" version="2" timestamp="2009-12-06T07:03:38Z" uid="7617" user="Franc" changeset="3300716" lat="-33.8665796" lon="150.9284263"/>
  <node id="281480733" version="2" timestamp="2009-12-06T07:03:38Z" uid="7617" user="Franc" changeset="3300716" lat="-33.866506" lon="150.9276476"/>
  <node id="281480734" version="2" timestamp="2008-10-22T20:43:11Z" uid="30201" user="rrankin" changeset="511736" lat="-33.8678806" lon="150.9274292"/>
  <node id="281480734" version="3" timestamp="2008-11-15T06:43:25Z" uid="7617" user="Franc" changeset="749870" lat="-33.8678454" lon="150.927437"/>
  <node id="281480734" version="4" timestamp="2009-12-06T07:03:38Z" uid="7617" user="Franc" changeset="3300716" lat="-33.8677951" lon="150.927353"/>
  <node id="281480736" version="2" timestamp="2009-12-06T07:03:38Z" uid="7617" user="Franc" changeset="3300716" lat="-33.8659349" lon="150.9267893"/>
  <node id="281480737" version="2" timestamp="2009-12-06T07:03:39Z" uid="7617" user="Franc" changeset="3300716" lat="-33.8642131" lon="150.9273468"/>
  <node id="281480738" version="2" timestamp="2008-08-01T02:39:11Z" uid="30201" user="rrankin" changeset="3602" lat="-33.8644294" lon="150.9288013"/>
  <node id="281481883" version="1" timestamp="2008-07-27T15:20:33Z" uid="30632" user="antblant" changeset="605895" lat="53.3793534" lon="14.6364231">
    <tag k="highway" v="bus_stop"/>
    <tag k="name" v="Zdroje Dworzec"/>
  </node>
  <node id="281481883" version="2" timestamp="2008-10-04T15:51:58Z" uid="30632" user="antblant" changeset="65285" lat="53.3793051" lon="14.6365123">
    <tag k="highway" v="bus_stop"/>
    <tag k="name" v="Zdroje Dworzec"/>
  </node>
  <node id="281481883" version="3" timestamp="2009-10-19T12:39:06Z" uid="30632" user="antblant" changeset="2893989" lat="53.3793008" lon="14.6365015">
    <tag k="highway" v="bus_stop"/>
    <tag k="name" v="Zdroje Dworzec"/>
  </node>
  <node id="281481883" version="4" timestamp="2010-12-06T23:59:20Z" uid="30632" user="antblant" changeset="6570404" lat="53.3793023" lon="14.636499">
    <tag k="bus" v="yes"/>
    <tag k="public_transport" v="stop_position"/>
  </node>
  <node id="281481919" version="1" timestamp="2008-07-27T15:21:07Z" uid="30632" user="antblant" changeset="605895" lat="53.3744557" lon="14.6443467">
    <tag k="highway" v="bus_stop"/>
    <tag k="name" v="Walecznych"/>
  </node>
  <node id="281481919" version="2" timestamp="2009-04-21T11:32:37Z" uid="30632" user="antblant" changeset="879072" lat="53.3743582" lon="14.6448979">
    <tag k="highway" v="bus_stop"/>
    <tag k="name" v="Walecznych"/>
  </node>
  <node id="281481919" version="3" timestamp="2010-04-10T20:16:07Z" uid="30632" user="antblant" changeset="4386797" lat="53.3743249" lon="14.6448942">
    <tag k="highway" v="bus_stop"/>
    <tag k="name" v="Walecznych"/>
  </node>
  <node id="281481919" version="4" timestamp="2010-12-06T23:59:09Z" uid="30632" user="antblant" changeset="6570404" lat="53.3743249" lon="14.6448942">
    <tag k="bus" v="yes"/>
    <tag k="public_transport" v="stop_position"/>
  </node>
  <node id="281481930" version="1" timestamp="2008-07-27T15:21:12Z" uid="30632" user="antblant" changeset="605895" lat="53.3745215" lon="14.6440289">
    <tag k="highway" v="bus_stop"/>
    <tag k="name" v="Walecznych"/>
  </node>
  <node id="281481930" version="2" timestamp="2008-10-04T15:51:58Z" uid="30632" user="antblant" changeset="65285" lat="53.3746758" lon="14.6434274">
    <tag k="highway" v="bus_stop"/>
    <tag k="name" v="Walecznych"/>
  </node>
  <node id="281481930" version="3" timestamp="2010-12-06T23:59:20Z" uid="30632" user="antblant" changeset="6570404" lat="53.3746149" lon="14.6436827">
    <tag k="name" v="Walecznych"/>
    <tag k="public_transport" v="stop_position"/>
  </node>
  <node id="281481979" version="1" timestamp="2008-07-27T15:21:50Z" uid="30632" user="antblant" changeset="605895" lat="53.3733498" lon="14.6493774">
    <tag k="highway" v="bus_stop"/>
    <tag k="name" v="Pszenna"/>
  </node>
  <node id="281481979" version="2" timestamp="2008-09-18T12:39:08Z" uid="30632" user="antblant" changeset="658316" lat="53.3734402" lon="14.6490988">
    <tag k="highway" v="bus_stop"/>
    <tag k="name" v="Pszenna"/>
  </node>
  <node id="281481979" version="3" timestamp="2010-12-06T23:59:14Z" uid="30632" user="antblant" changeset="6570404" lat="53.3734402" lon="14.6490988"/>
  <node id="281481980" version="1" timestamp="2008-07-27T15:21:50Z" uid="30632" user="antblant" changeset="605895" lat="53.3732803" lon="14.6495855">
    <tag k="highway" v="bus_stop"/>
    <tag k="name" v="Pszenna"/>
  </node>
  <node id="281481980" version="2" timestamp="2010-12-06T23:59:13Z" uid="30632" user="antblant" changeset="6570404" lat="53.3732803" lon="14.6495855"/>
  <node id="281481983" version="5" timestamp="2011-02-03T18:34:17Z" uid="107674" user="GeoCounter" changeset="7176427" lat="50.7757783" lon="7.5165247">
    <tag k="created_by" v="Potlatch 0.10"/>
    <tag k="sport" v="tennis"/>
  </node>
  <node id="281482439" version="12" timestamp="2010-07-07T17:26:10Z" uid="9581" user="Lobelt" changeset="5160127" lat="45.3333765" lon="22.2674796"/>
  <node id="281482499" version="12" timestamp="2010-07-07T17:26:11Z" uid="9581" user="Lobelt" changeset="5160127" lat="45.2620956" lon="22.2965529"/>
  <node id="281482517" version="1" timestamp="2008-07-27T15:23:33Z" uid="16922" user="amai" changeset="608752" lat="49.8999079" lon="8.8453126">
    <tag k="amenity" v="restaurant"/>
    <tag k="created_by" v="Potlatch 0.10"/>
    <tag k="name" v="Schmankerlburg"/>
    <tag k="tourism" v="hotel"/>
  </node>
  <node id="281482517" version="2" timestamp="2011-01-23T18:09:32Z" uid="109925" user="WanMil" changeset="7065019" lat="49.8999079" lon="8.8453126">
    <tag k="addr:city" v="Dieburg"/>
    <tag k="addr:country" v="DE"/>
    <tag k="addr:housenumber" v="10"/>
    <tag k="addr:postcode" v="64807"/>
    <tag k="addr:street" v="Frankfurter Straße"/>
    <tag k="amenity" v="restaurant"/>
    <tag k="name" v="Schmankerlburg"/>
    <tag k="phone" v="+49 6071 22843"/>
    <tag k="tourism" v="hotel"/>
    <tag k="website" v="http://www.hotel-schmankerlburg.de/"/>
  </node>
  <node id="281482517" version="3" timestamp="2011-04-30T18:55:42Z" uid="16922" user="amai" changeset="8014636" lat="49.8998194" lon="8.8453406">
    <tag k="addr:city" v="Dieburg"/>
    <tag k="addr:country" v="DE"/>
    <tag k="addr:housenumber" v="10"/>
    <tag k="addr:postcode" v="64807"/>
    <tag k="addr:street" v="Frankfurter Straße"/>
    <tag k="amenity" v="restaurant"/>
    <tag k="name" v="Schmankerlburg"/>
    <tag k="phone" v="+49 6071 22843"/>
    <tag k="tourism" v="hotel"/>
    <tag k="website" v="http://www.hotel-schmankerlburg.de/"/>
  </node>
  <node id="281482517" version="4" timestamp="2012-01-10T14:42:17Z" uid="583269" user="Fraenzi611" changeset="10351844" lat="49.8998194" lon="8.8453406">
    <tag k="addr:city" v="Dieburg"/>
    <tag k="addr:country" v="DE"/>
    <tag k="addr:housenumber" v="10"/>
    <tag k="addr:postcode" v="64807"/>
    <tag k="addr:street" v="Frankfurter Straße"/>
    <tag k="amenity" v="restaurant"/>
    <tag k="designation" v="Schmankerlburg"/>
    <tag k="name" v="Schmankerlburg"/>
    <tag k="phone" v="+49 6071 22843"/>
    <tag k="tourism" v="hotel"/>
    <tag k="website" v="http://www.hotel-schmankerlburg.de/"/>
  </node>
  <node id="281482517" version="5" timestamp="2012-01-15T13:54:12Z" uid="290680" user="wheelmap_visitor" changeset="10397324" lat="49.8998194" lon="8.8453406">
    <tag k="addr:city" v="Dieburg"/>
    <tag k="addr:country" v="DE"/>
    <tag k="addr:housenumber" v="10"/>
    <tag k="addr:postcode" v="64807"/>
    <tag k="addr:street" v="Frankfurter Straße"/>
    <tag k="amenity" v="restaurant"/>
    <tag k="designation" v="Schmankerlburg"/>
    <tag k="name" v="Schmankerlburg"/>
    <tag k="phone" v="+49 6071 22843"/>
    <tag k="tourism" v="hotel"/>
    <tag k="website" v="http://www.hotel-schmankerlburg.de/"/>
    <tag k="wheelchair" v="no"/>
  </node>
  <node id="281482517" version="6" timestamp="2012-02-11T23:36:57Z" uid="131968" user="changchun_1" changeset="10658694" lat="49.8998194" lon="8.8453406"/>
  <node id="281483318" version="1" timestamp="2008-07-27T15:25:01Z" uid="16922" user="amai" changeset="608752" lat="49.89803" lon="8.8379289">
    <tag k="amenity" v="bank"/>
    <tag k="created_by" v="Potlatch 0.10"/>
    <tag k="name" v="Sparkasse"/>
  </node>
  <node id="281483318" version="2" timestamp="2009-10-20T06:21:10Z" uid="188190" user="Fermat" changeset="2900185" lat="49.8979783" lon="8.8379342">
    <tag k="amenity" v="bank"/>
    <tag k="name" v="Sparkasse"/>
  </node>
  <node id="281483318" version="3" timestamp="2011-10-17T18:14:39Z" uid="290680" user="wheelmap_visitor" changeset="9578325" lat="49.8979783" lon="8.8379342">
    <tag k="amenity" v="bank"/>
    <tag k="name" v="Sparkasse"/>
    <tag k="wheelchair" v="limited"/>
  </node>
  <node id="281483318" version="4" timestamp="2012-02-11T12:23:58Z" uid="131968" user="changchun_1" changeset="10652057" lat="49.8979783" lon="8.8379342"/>
  <node id="281483377" version="1" timestamp="2008-07-27T15:25:13Z" uid="16922" user="amai" changeset="608752" lat="49.8981682" lon="8.8379203">
    <tag k="amenity" v="bank"/>
    <tag k="created_by" v="Potlatch 0.10"/>
    <tag k="name" v="Volksbank"/>
  </node>
  <node id="281483377" version="2" timestamp="2009-10-20T06:21:10Z" uid="188190" user="Fermat" changeset="2900185" lat="49.8980889" lon="8.837917">
    <tag k="amenity" v="bank"/>
    <tag k="name" v="Volksbank"/>
  </node>
  <node id="281483377" version="3" timestamp="2011-05-14T11:04:54Z" uid="16922" user="amai" changeset="8139548" lat="49.8980872" lon="8.8379204">
    <tag k="amenity" v="bank"/>
    <tag k="name" v="Volksbank"/>
  </node>
  <node id="281483377" version="4" timestamp="2012-02-11T12:23:58Z" uid="131968" user="changchun_1" changeset="10652057" lat="49.8980872" lon="8.8379204"/>
</osm>
