<?xml version='1.0' encoding='UTF-8'?>
<osm version="0.6" generator="libosmium/2.20.0">
  <node id="281612320" version="1" timestamp="2008-07-27T22:27:09Z" uid="26515" user="Simon Ward" changeset="615356" lat="53.4490893" lon="-2.1910834">
    <tag k="amenity" v="place_of_worship"/>
    <tag k="name" v="New Covenant Church"/>
    <tag k="phone" v="0161 248 7733"/>
    <tag k="religion" v="christian"/>
  </node>
  <node id="281612320" version="2" timestamp="2012-03-17T13:20:39Z" uid="165" user="Richard" changeset="11007890" lat="53.4490893" lon="-2.1910834"/>
  <node id="281612321" version="1" timestamp="2008-07-27T22:27:09Z" uid="26515" user="Simon Ward" changeset="615356" lat="53.4490886" lon="-2.1907749">
    <tag k="name" v="S&amp;R Auto Repair Centre"/>
    <tag k="phone" v="0161 248 5600"/>
    <tag k="postal_code" v="M12"/>
    <tag k="shop" v="auto_repair"/>
  </node>
  <node id="281612321" version="2" timestamp="2008-09-14T16:26:26Z" uid="6975" user="ulfl" changeset="640534" lat="53.4490886" lon="-2.1907749">
    <tag k="name" v="S&amp;amp;R Auto Repair Centre"/>
    <tag k="phone" v="0161 248 5600"/>
    <tag k="postal_code" v="M12"/>
    <tag k="shop" v="car_repair"/>
  </node>
  <node id="281612321" version="3" timestamp="2009-05-23T09:04:03Z" uid="70696" user="xybot" changeset="1293006" lat="53.4490886" lon="-2.1907749">
    <tag k="name" v="S&amp;R Auto Repair Centre"/>
    <tag k="phone" v="0161 248 5600"/>
    <tag k="postal_code" v="M12"/>
    <tag k="shop" v="car_repair"/>
  </node>
  <node id="281612321" version="4" timestamp="2012-03-17T13:20:39Z" uid="165" user="Richard" changeset="11007890" lat="53.4490886" lon="-2.1907749"/>
  <node id="281612322" version="1" timestamp="2008-07-27T22:27:10Z" uid="26515" user="Simon Ward" changeset="615356" lat="53.4490917" lon="-2.1907133">
    <tag k="name" v="Mubashar Fashion"/>
    <tag k="shop" v="tailor"/>
  </node>
  <node id="281612322" version="2" timestamp="2012-03-17T13:20:40Z" uid="165" user="Richard" changeset="11007890" lat="53.4490917" lon="-2.1907133"/>
  <node id="281612323" version="1" timestamp="2008-07-27T22:27:10Z" uid="26515" user="Simon Ward" changeset="615356" lat="53.4490949" lon="-2.1906588">
    <tag k="name" v="Ace Claim Services"/>
  </node>
  <node id="281612323" version="2" timestamp="2012-03-17T13:20:40Z" uid="165" user="Richard" changeset="11007890" lat="53.4490949" lon="-2.1906588"/>
  <node id="281612324" version="1" timestamp="2008-07-27T22:27:10Z" uid="26515" user="Simon Ward" changeset="615356" lat="53.4491036" lon="-2.1905769">
    <tag k="name" v="Sapna Beauty Parlour"/>
    <tag k="phone" v="0161 224 6 334"/>
    <tag k="shop" v="beauty"/>
  </node>
  <node id="281612324" version="2" timestamp="2012-03-17T13:20:41Z" uid="165" user="Richard" changeset="11007890" lat="53.4491036" lon="-2.1905769"/>
  <node id="281612325" version="1" timestamp="2008-07-27T22:27:10Z" uid="26515" user="Simon Ward" changeset="615356" lat="53.4491125" lon="-2.1904205">
    <tag k="name" v="Rays Local &amp; Convenience Store"/>
    <tag k="shop" v="convenience"/>
  </node>
  <node id="281612325" version="2" timestamp="2012-03-17T13:20:41Z" uid="165" user="Richard" changeset="11007890" lat="53.4491125" lon="-2.1904205"/>
  <node id="281612326" version="1" timestamp="2008-07-27T22:27:10Z" uid="26515" user="Simon Ward" changeset="615356" lat="53.4491841" lon="-2.1897958">
    <tag k="name" v="Clean Machine Laundrettes"/>
    <tag k="shop" v="laundry"/>
  </node>
  <node id="281612326" version="2" timestamp="2012-03-17T13:20:42Z" uid="165" user="Richard" changeset="11007890" lat="53.4491841" lon="-2.1897958"/>
  <node id="281612327" version="1" timestamp="2008-07-27T22:27:10Z" uid="26515" user="Simon Ward" changeset="615356" lat="53.4492929" lon="-2.1886682">
    <tag k="highway" v="bus_stop"/>
    <tag k="name" v="Matthews Lane / Madia Street"/>
    <tag k="ref" v="EB1055"/>
    <tag k="service" v="168,171"/>
    <tag k="towards" v="Belle Vue"/>
  </node>
  <node id="281612327" version="2" timestamp="2009-10-09T13:15:57Z" uid="57932" user="Strange but untrue" changeset="2793722" lat="53.4492902" lon="-2.188673">
    <tag k="highway" v="bus_stop"/>
    <tag k="name" v="Matthews Lane / Madia Street"/>
    <tag k="ref" v="EB1055"/>
    <tag k="route_ref" v="168;171"/>
    <tag k="towards" v="Belle Vue"/>
  </node>
  <node id="281612327" version="3" timestamp="2012-03-17T13:20:42Z" uid="165" user="Richard" changeset="11007890" lat="53.4492902" lon="-2.188673"/>
  <node id="281612328" version="1" timestamp="2008-07-27T22:27:11Z" uid="26515" user="Simon Ward" changeset="615356" lat="53.4494071" lon="-2.1876357">
    <tag k="amenity" v="telephone"/>
    <tag k="note" v="postal code was half obscured"/>
    <tag k="phone" v="0161 248 8329"/>
    <tag k="postal_code" v="M12 4QW"/>
  </node>
  <node id="281612328" version="2" timestamp="2012-03-17T13:20:31Z" uid="165" user="Richard" changeset="11007890" lat="53.4494071" lon="-2.1876357"/>
  <node id="281612330" version="1" timestamp="2008-07-27T22:27:11Z" uid="26515" user="Simon Ward" changeset="615356" lat="53.4497759" lon="-2.1841172">
    <tag k="highway" v="bus_stop"/>
    <tag k="name" v="Matthews Lane / Hornbeam Road"/>
    <tag k="ref" v="EB1057"/>
    <tag k="service" v="168,171"/>
    <tag k="towards" v="Belle Vue"/>
  </node>
  <node id="281612330" version="2" timestamp="2009-10-09T13:24:15Z" uid="57932" user="Strange but untrue" changeset="2793909" lat="53.4497775" lon="-2.1841254">
    <tag k="highway" v="bus_stop"/>
    <tag k="name" v="Matthews Lane / Hornbeam Road"/>
    <tag k="ref" v="EB1057"/>
    <tag k="route_ref" v="168;171"/>
    <tag k="towards" v="Belle Vue"/>
  </node>
  <node id="281612330" version="3" timestamp="2012-03-17T13:20:41Z" uid="165" user="Richard" changeset="11007890" lat="53.4497775" lon="-2.1841254"/>
  <node id="281612331" version="1" timestamp="2008-07-27T22:27:11Z" uid="26515" user="Simon Ward" changeset="615356" lat="53.4502297" lon="-2.1812054">
    <tag k="amenity" v="school"/>
    <tag k="name" v="Cedar Mount High School"/>
    <tag k="phone" v="0161 248 7009"/>
  </node>
  <node id="281612331" version="2" timestamp="2008-12-25T02:53:34Z" uid="26515" user="Simon Ward" changeset="594458" lat="53.4502297" lon="-2.1812054">
    <tag k="amenity" v="school"/>
    <tag k="name" v="Cedar Mount High School"/>
    <tag k="phone" v="0161 248 7009"/>
  </node>
  <node id="281612332" version="1" timestamp="2008-07-27T22:27:11Z" uid="26515" user="Simon Ward" changeset="615356" lat="53.4502058" lon="-2.1810137">
    <tag k="highway" v="bus_stop"/>
    <tag k="name" v="Matthews Lane / Mount Road"/>
    <tag k="ref" v="EB1059"/>
    <tag k="service" v="168,171"/>
    <tag k="towards" v="Belle Vue"/>
  </node>
  <node id="281612332" version="2" timestamp="2009-10-09T13:24:38Z" uid="57932" user="Strange but untrue" changeset="2793909" lat="53.4502069" lon="-2.1810183">
    <tag k="highway" v="bus_stop"/>
    <tag k="name" v="Matthews Lane / Mount Road"/>
    <tag k="ref" v="EB1059"/>
    <tag k="route_ref" v="168;171"/>
    <tag k="towards" v="Belle Vue"/>
  </node>
  <node id="281612332" version="3" timestamp="2012-03-17T13:20:44Z" uid="165" user="Richard" changeset="11007890" lat="53.4502069" lon="-2.1810183"/>
  <node id="281612333" version="1" timestamp="2008-07-27T22:27:12Z" uid="26515" user="Simon Ward" changeset="615356" lat="53.4499231" lon="-2.182209">
    <tag k="highway" v="bus_stop"/>
    <tag k="name" v="Matthews Lane / Leybourne Avenue"/>
    <tag k="note" v="Txt managagj to 84268"/>
    <tag k="ref" v="EB1060"/>
    <tag k="service" v="168"/>
    <tag k="towards" v="Longsight"/>
  </node>
  <node id="281612333" version="2" timestamp="2009-10-09T13:24:28Z" uid="57932" user="Strange but untrue" changeset="2793909" lat="53.4499258" lon="-2.1822114">
    <tag k="highway" v="bus_stop"/>
    <tag k="name" v="Matthews Lane / Leybourne Avenue"/>
    <tag k="note" v="Txt managagj to 84268"/>
    <tag k="ref" v="EB1060"/>
    <tag k="route_ref" v="168"/>
    <tag k="towards" v="Longsight"/>
  </node>
  <node id="281612333" version="3" timestamp="2011-05-15T16:25:37Z" uid="441589" user="NotEvilJoe" changeset="8153745" lat="53.4499929" lon="-2.1822114">
    <tag k="highway" v="bus_stop"/>
    <tag k="name" v="Matthews Lane / Leybourne Avenue"/>
    <tag k="note" v="Txt managagj to 84268"/>
    <tag k="ref" v="EB1060"/>
    <tag k="route_ref" v="168"/>
    <tag k="towards" v="Longsight"/>
  </node>
  <node id="281612333" version="4" timestamp="2012-03-17T13:20:44Z" uid="165" user="Richard" changeset="11007890" lat="53.4499929" lon="-2.1822114"/>
  <node id="281615173" version="1" timestamp="2008-07-27T22:38:12Z" uid="26515" user="Simon Ward" changeset="615356" lat="53.4471864" lon="-2.1866255"/>
  <node id="281615173" version="2" timestamp="2012-03-17T13:20:43Z" uid="165" user="Richard" changeset="11007890" lat="53.4471864" lon="-2.1866255"/>
  <node id="281615174" version="1" timestamp="2008-07-27T22:38:13Z" uid="26515" user="Simon Ward" changeset="615356" lat="53.4458178" lon="-2.185768">
    <tag k="barrier" v="bollard"/>
  </node>
  <node id="281615174" version="2" timestamp="2012-03-17T13:20:41Z" uid="165" user="Richard" changeset="11007890" lat="53.4458178" lon="-2.185768"/>
  <node id="281615175" version="1" timestamp="2008-07-27T22:38:13Z" uid="26515" user="Simon Ward" changeset="615356" lat="53.4457103" lon="-2.1863067"/>
  <node id="281615175" version="2" timestamp="2011-01-13T18:01:06Z" uid="29755" user="Enrico Zini" changeset="6959697" lat="53.4456767" lon="-2.1863334"/>
  <node id="281615175" version="3" timestamp="2012-03-17T13:20:44Z" uid="165" user="Richard" changeset="11007890" lat="53.4456767" lon="-2.1863334"/>
  <node id="281615176" version="1" timestamp="2008-07-27T22:38:13Z" uid="26515" user="Simon Ward" changeset="615356" lat="53.445974" lon="-2.1849924"/>
  <node id="281615176" version="2" timestamp="2011-06-29T16:10:04Z" uid="441589" user="NotEvilJoe" changeset="8582375" lat="53.4459344" lon="-2.1851947"/>
  <node id="281615179" version="1" timestamp="2008-07-27T22:38:13Z" uid="26515" user="Simon Ward" changeset="615356" lat="53.4471322" lon="-2.1867965"/>
  <node id="281615179" version="2" timestamp="2012-03-17T13:20:43Z" uid="165" user="Richard" changeset="11007890" lat="53.4471322" lon="-2.1867965"/>
  <node id="281615186" version="1" timestamp="2008-07-27T22:38:13Z" uid="26515" user="Simon Ward" changeset="615356" lat="53.447173" lon="-2.1868156">
    <tag k="barrier" v="bollard"/>
  </node>
  <node id="281615186" version="2" timestamp="2012-03-17T13:20:29Z" uid="165" user="Richard" changeset="11007890" lat="53.447173" lon="-2.1868156"/>
  <node id="281615188" version="1" timestamp="2008-07-27T22:38:13Z" uid="26515" user="Simon Ward" changeset="615356" lat="53.4476423" lon="-2.1870711">
    <tag k="barrier" v="bollard"/>
  </node>
  <node id="281615188" version="2" timestamp="2012-03-17T13:20:32Z" uid="165" user="Richard" changeset="11007890" lat="53.4476423" lon="-2.1870711"/>
  <node id="281615190" version="1" timestamp="2008-07-27T22:38:14Z" uid="26515" user="Simon Ward" changeset="615356" lat="53.448183" lon="-2.1872882">
    <tag k="barrier" v="bollard"/>
  </node>
  <node id="281615190" version="2" timestamp="2012-03-17T13:20:34Z" uid="165" user="Richard" changeset="11007890" lat="53.448183" lon="-2.1872882"/>
</osm>
