<?xml version='1.0' encoding='UTF-8'?>
<osm version="0.6" generator="libosmium/2.20.0">
  <node id="2836078" version="5" timestamp="2008-11-06T23:53:43Z" uid="36809" user="pfoten_weg_!_" changeset="700775" lat="47.9940083" lon="10.1450338">
    <tag k="highway" v="motorway_junction"/>
    <tag k="name" v="Kreuz Memmingen"/>
    <tag k="ref" v="12"/>
  </node>
  <node id="2836078" version="6" timestamp="2010-02-21T23:52:04Z" uid="6270" user="mikes" changeset="3940178" lat="47.9940083" lon="10.1450338">
    <tag k="TMC:cid_58:tabcd_1:Class" v="Point"/>
    <tag k="TMC:cid_58:tabcd_1:Direction" v="positive"/>
    <tag k="TMC:cid_58:tabcd_1:LCLversion" v="9.00"/>
    <tag k="TMC:cid_58:tabcd_1:LocationCode" v="12934"/>
    <tag k="TMC:cid_58:tabcd_1:NextLocationCode" v="12935"/>
    <tag k="TMC:cid_58:tabcd_1:PrevLocationCode" v="12933"/>
    <tag k="highway" v="motorway_junction"/>
    <tag k="name" v="Kreuz Memmingen"/>
    <tag k="ref" v="12"/>
  </node>
  <node id="2836078" version="7" timestamp="2011-04-29T09:09:18Z" uid="391611" user="Syncronius" changeset="8001705" lat="47.9939798" lon="10.1449912">
    <tag k="TMC:cid_58:tabcd_1:Class" v="Point"/>
    <tag k="TMC:cid_58:tabcd_1:Direction" v="positive"/>
    <tag k="TMC:cid_58:tabcd_1:LCLversion" v="9.00"/>
    <tag k="TMC:cid_58:tabcd_1:LocationCode" v="12934"/>
    <tag k="TMC:cid_58:tabcd_1:NextLocationCode" v="12935"/>
    <tag k="TMC:cid_58:tabcd_1:PrevLocationCode" v="12933"/>
    <tag k="highway" v="motorway_junction"/>
    <tag k="name" v="Kreuz Memmingen"/>
    <tag k="ref" v="12"/>
  </node>
</osm>
