<?xml version='1.0' encoding='UTF-8'?>
<osm version="0.6" generator="libosmium/2.20.0">
  <node id="283130300" version="2" timestamp="2008-09-14T15:53:25Z" uid="6975" user="ulfl" changeset="640534" lat="48.1290417" lon="7.8279065">
    <tag k="name" v="Mundinger Mühle"/>
    <tag k="power" v="generator"/>
    <tag k="power_source" v="hydro"/>
  </node>
  <node id="283130300" version="3" timestamp="2011-05-25T13:14:53Z" uid="33035" user="muklas" changeset="8244650" lat="48.1289088" lon="7.8279721">
    <tag k="name" v="Mundinger Mühle"/>
    <tag k="power" v="generator"/>
    <tag k="power_source" v="hydro"/>
  </node>
  <node id="283130300" version="4" timestamp="2011-06-04T02:11:28Z" uid="297482" user="don-vip" changeset="8335625" lat="48.1289088" lon="7.8279721">
    <tag k="generator:source" v="hydro"/>
    <tag k="name" v="Mundinger Mühle"/>
    <tag k="power" v="generator"/>
    <tag k="power_source" v="hydro"/>
  </node>
  <node id="283130300" version="5" timestamp="2011-06-30T16:46:20Z" uid="33035" user="muklas" changeset="8592269" lat="48.1289158" lon="7.8278279">
    <tag k="generator:source" v="hydro"/>
    <tag k="name" v="Mundinger Mühle"/>
    <tag k="power" v="generator"/>
    <tag k="power_source" v="hydro"/>
  </node>
  <node id="283130300" version="6" timestamp="2012-01-21T17:35:57Z" uid="11374" user="q_un_go" changeset="10457798" lat="48.1289158" lon="7.8278279"/>
  <node id="283131059" version="3" timestamp="2010-05-01T16:53:23Z" uid="151899" user="Bikeman2000" changeset="4577036" lat="51.2092821" lon="6.7819832"/>
  <node id="283131059" version="4" timestamp="2011-12-17T12:30:01Z" uid="12614" user="rabenkind" changeset="10137936" lat="51.2092821" lon="6.7819832"/>
  <node id="283131658" version="2" timestamp="2008-09-14T20:01:31Z" uid="6975" user="ulfl" changeset="640534" lat="50.9208806" lon="4.7194617">
    <tag k="amenity" v="bank"/>
    <tag k="atm" v="yes"/>
  </node>
  <node id="283131658" version="3" timestamp="2009-07-20T13:30:24Z" uid="52520" user="pweemeeuw" changeset="1885112" lat="50.9208199" lon="4.7196212">
    <tag k="addr:housenumber" v="558"/>
    <tag k="addr:street" v="Aarschotsesteenweg"/>
    <tag k="amenity" v="bank"/>
    <tag k="atm" v="yes"/>
    <tag k="operator" v="KBC"/>
  </node>
  <node id="283131658" version="4" timestamp="2009-08-08T20:29:40Z" uid="9176" user="Maarten Deen" changeset="2079509" lat="50.9208199" lon="4.7196212">
    <tag k="addr:city" v="Wilsele"/>
    <tag k="addr:country" v="BE"/>
    <tag k="addr:housenumber" v="558"/>
    <tag k="addr:postcode" v="3012KA"/>
    <tag k="addr:street" v="Aarschotsesteenweg"/>
    <tag k="amenity" v="bank"/>
    <tag k="atm" v="yes"/>
    <tag k="name" v="KBC"/>
    <tag k="operator" v="KBC"/>
  </node>
  <node id="283131658" version="5" timestamp="2009-08-09T18:26:54Z" uid="52520" user="pweemeeuw" changeset="2089275" lat="50.9208334" lon="4.7195698">
    <tag k="addr:city" v="Wilsele"/>
    <tag k="addr:country" v="BE"/>
    <tag k="addr:housenumber" v="558"/>
    <tag k="addr:postcode" v="3012KA"/>
    <tag k="addr:street" v="Aarschotsesteenweg"/>
    <tag k="amenity" v="bank"/>
    <tag k="atm" v="yes"/>
    <tag k="name" v="KBC"/>
    <tag k="operator" v="KBC"/>
  </node>
  <node id="283132531" version="5" timestamp="2010-05-04T08:21:37Z" uid="4467" user="Rosscoe" changeset="4602108" lat="-32.3998146" lon="151.7580378">
    <tag k="direction" v="clockwise"/>
    <tag k="highway" v="mini_roundabout"/>
  </node>
  <node id="283133958" version="2" timestamp="2009-08-29T08:22:48Z" uid="74617" user="JohnSmith" changeset="2298439" lat="-32.5651666" lon="151.5983647"/>
  <node id="283133961" version="2" timestamp="2009-08-29T08:22:48Z" uid="74617" user="JohnSmith" changeset="2298439" lat="-32.5658409" lon="151.5966624"/>
  <node id="283133964" version="2" timestamp="2009-08-29T08:22:48Z" uid="74617" user="JohnSmith" changeset="2298439" lat="-32.5665272" lon="151.5951355"/>
  <node id="283134155" version="2" timestamp="2008-09-14T16:27:52Z" uid="6975" user="ulfl" changeset="640534" lat="52.1553468" lon="10.5530903">
    <tag k="name" v="Cut &amp;amp; Colour"/>
    <tag k="shop" v="hairdresser"/>
  </node>
  <node id="283134155" version="3" timestamp="2009-05-20T00:02:53Z" uid="31130" user="Praetorius" changeset="1256569" lat="52.1553468" lon="10.5530903">
    <tag k="name" v="Cut &amp; Colour"/>
    <tag k="shop" v="hairdresser"/>
  </node>
  <node id="283134997" version="2" timestamp="2008-09-14T14:29:33Z" uid="6975" user="ulfl" changeset="640534" lat="46.25417" lon="6.0811313">
    <tag k="amenity" v="townhall"/>
  </node>
  <node id="283139286" version="3" timestamp="2008-09-14T13:17:05Z" uid="6975" user="ulfl" changeset="640534" lat="52.2437701" lon="9.7315504">
    <tag k="highway" v="bus_stop"/>
    <tag k="name" v="Hüpede/Krugstraße"/>
  </node>
  <node id="283139289" version="4" timestamp="2008-09-14T13:17:06Z" uid="6975" user="ulfl" changeset="640534" lat="52.2439957" lon="9.7318304">
    <tag k="highway" v="bus_stop"/>
    <tag k="name" v="Hüpede/Krugstraße"/>
  </node>
  <node id="283139290" version="3" timestamp="2008-09-14T13:17:07Z" uid="6975" user="ulfl" changeset="640534" lat="52.2436029" lon="9.7339992">
    <tag k="highway" v="bus_stop"/>
    <tag k="name" v="Hüpede/Im Felde"/>
  </node>
  <node id="283139293" version="4" timestamp="2008-09-14T13:17:07Z" uid="6975" user="ulfl" changeset="640534" lat="52.2402975" lon="9.7367907">
    <tag k="bus_lines" v="310, 320"/>
    <tag k="highway" v="bus_stop"/>
    <tag k="name" v="Hüpede/Schule"/>
  </node>
  <node id="283139295" version="3" timestamp="2008-09-14T13:17:08Z" uid="6975" user="ulfl" changeset="640534" lat="52.2403602" lon="9.7369745">
    <tag k="highway" v="bus_stop"/>
    <tag k="name" v="Hüpede/Schule"/>
  </node>
</osm>
