<?xml version='1.0' encoding='UTF-8'?>
<osm version="0.6" generator="libosmium/2.20.0">
  <node id="285261489" version="3" timestamp="2009-06-17T18:09:55Z" uid="9581" user="Lobelt" changeset="1547783" lat="49.4118363" lon="8.6799978"/>
  <node id="285261489" version="4" timestamp="2009-11-16T10:52:03Z" uid="160164" user="mahau" changeset="3130794" lat="49.4118427" lon="8.6800108"/>
  <node id="285266342" version="1" timestamp="2008-08-06T16:43:35Z" uid="38528" user="acrosscanadatrails" changeset="100301" lat="48.5008096" lon="-123.0018785"/>
  <node id="285266342" version="2" timestamp="2009-05-16T23:46:27Z" uid="6009" user="CoreyBurger" changeset="1216700" lat="48.5008096" lon="-123.0018785"/>
  <node id="285266364" version="1" timestamp="2008-08-06T16:43:36Z" uid="38528" user="acrosscanadatrails" changeset="100301" lat="48.2486609" lon="-123.0002412"/>
  <node id="285266377" version="1" timestamp="2008-08-06T16:43:36Z" uid="38528" user="acrosscanadatrails" changeset="100301" lat="48.2494796" lon="-123.4979891"/>
  <node id="285266377" version="2" timestamp="2008-08-06T19:26:02Z" uid="38528" user="acrosscanadatrails" changeset="108861" lat="48.2499982" lon="-123.4999996"/>
  <node id="285266377" version="3" timestamp="2009-05-16T23:46:27Z" uid="6009" user="CoreyBurger" changeset="1216700" lat="48.2499982" lon="-123.4999996"/>
  <node id="285267308" version="1" timestamp="2008-08-06T16:44:03Z" uid="36809" user="pfoten_weg_!_" changeset="108472" lat="48.0864687" lon="11.5031213"/>
  <node id="285267308" version="2" timestamp="2008-08-06T16:44:32Z" uid="36809" user="pfoten_weg_!_" changeset="108472" lat="48.0864514" lon="11.5031167"/>
  <node id="285267308" version="3" timestamp="2008-08-06T18:50:28Z" uid="36809" user="pfoten_weg_!_" changeset="108472" lat="48.0864516" lon="11.5031217"/>
  <node id="285267308" version="4" timestamp="2008-08-06T20:41:14Z" uid="36809" user="pfoten_weg_!_" changeset="108472" lat="48.0864516" lon="11.5031217">
    <tag k="created_by" v="RambaZamba"/>
  </node>
  <node id="285267308" version="5" timestamp="2008-08-12T16:00:22Z" uid="36809" user="pfoten_weg_!_" changeset="210447" lat="48.0864516" lon="11.5031217">
    <tag k="created_by" v="RambaZamba"/>
  </node>
  <node id="285267308" version="6" timestamp="2008-08-20T09:09:18Z" uid="36809" user="pfoten_weg_!_" changeset="333184" lat="48.0864515" lon="11.5031176">
    <tag k="created_by" v="RambaZamba"/>
  </node>
  <node id="285267308" version="7" timestamp="2008-09-13T12:20:43Z" uid="36809" user="pfoten_weg_!_" changeset="620497" lat="48.0864515" lon="11.5031176">
    <tag k="created_by" v="RambaZamba"/>
  </node>
  <node id="285267308" version="8" timestamp="2008-09-13T12:44:28Z" uid="36809" user="pfoten_weg_!_" changeset="620497" lat="48.0864516" lon="11.5031181">
    <tag k="created_by" v="RambaZamba"/>
  </node>
  <node id="285267308" version="9" timestamp="2008-09-15T12:56:43Z" uid="36809" user="pfoten_weg_!_" changeset="638986" lat="48.0864516" lon="11.5031181">
    <tag k="created_by" v="RambaZamba"/>
    <tag k="source" v="survey "/>
  </node>
  <node id="285267308" version="10" timestamp="2008-09-16T05:59:15Z" uid="31231" user="Andre68" changeset="645611" lat="48.0864516" lon="11.5031181">
    <tag k="created_by" v="RambaZamba"/>
    <tag k="source" v="survey"/>
  </node>
  <node id="285267308" version="11" timestamp="2008-09-20T03:38:13Z" uid="36809" user="pfoten_weg_!_" changeset="670006" lat="48.0864516" lon="11.5031182">
    <tag k="created_by" v="RambaZamba"/>
    <tag k="source" v="survey"/>
  </node>
  <node id="285267308" version="12" timestamp="2008-09-25T00:59:39Z" uid="36809" user="pfoten_weg_!_" changeset="693466" lat="48.0864516" lon="11.5031174">
    <tag k="created_by" v="RambaZamba"/>
    <tag k="source" v="survey"/>
  </node>
  <node id="285267308" version="13" timestamp="2008-10-01T01:39:53Z" uid="36809" user="pfoten_weg_!_" changeset="5644" lat="48.0864516" lon="11.5031174">
    <tag k="created_by" v="RambaZamba"/>
    <tag k="source" v="survey"/>
  </node>
  <node id="285267308" version="14" timestamp="2009-02-14T21:06:20Z" uid="36809" user="pfoten_weg_!_" changeset="445466" lat="48.0864516" lon="11.5031174">
    <tag k="created_by" v="RambaZamba"/>
    <tag k="source" v="survey"/>
  </node>
  <node id="285267308" version="15" timestamp="2009-03-30T18:53:31Z" uid="36809" user="pfoten_weg_!_" changeset="871597" lat="48.0864516" lon="11.5031174">
    <tag k="created_by" v="RambaZamba"/>
    <tag k="source" v="survey"/>
  </node>
  <node id="285267308" version="16" timestamp="2009-04-03T21:05:08Z" uid="5164" user="woodpeck" changeset="150055" lat="48.0864516" lon="11.5031174"/>
  <node id="285267308" version="17" timestamp="2009-04-22T18:13:56Z" uid="36809" user="pfoten_weg_!_" changeset="903669" lat="48.0864516" lon="11.5031174">
    <tag k="created_by" v="RambaZamba"/>
    <tag k="source" v="survey"/>
  </node>
  <node id="285267308" version="18" timestamp="2009-08-12T12:48:38Z" uid="156995" user="HampelZamba" changeset="2118306" lat="48.0864516" lon="11.5031174">
    <tag k="source" v="survey"/>
  </node>
  <node id="285267308" version="19" timestamp="2009-08-19T01:58:24Z" uid="36809" user="pfoten_weg_!_" changeset="2196399" lat="48.0864516" lon="11.5031174">
    <tag k="source" v="survey"/>
    <tag k="warnung" v="rumpelzumpel-verbrecher"/>
  </node>
  <node id="285267308" version="20" timestamp="2009-08-19T02:22:28Z" uid="36809" user="pfoten_weg_!_" changeset="2196453" lat="48.0864516" lon="11.5031174">
    <tag k="source" v="survey"/>
  </node>
  <node id="285267308" version="21" timestamp="2009-10-12T22:02:48Z" uid="36809" user="pfoten_weg_!_" changeset="2831291" lat="48.0864516" lon="11.5031174"/>
  <node id="285267308" version="22" timestamp="2011-07-23T12:15:18Z" uid="42393" user="mawi42" changeset="8805753" lat="48.0864518" lon="11.5030843"/>
  <node id="285267313" version="1" timestamp="2008-08-06T16:44:05Z" uid="36809" user="pfoten_weg_!_" changeset="108472" lat="48.0864686" lon="11.5031167">
    <tag k="created_by" v="Potlatch 0.10b"/>
  </node>
  <node id="285267313" version="2" timestamp="2008-08-06T16:44:08Z" uid="36809" user="pfoten_weg_!_" changeset="108472" lat="48.0864686" lon="11.5031167">
    <tag k="created_by" v="Potlatch 0.10b"/>
  </node>
  <node id="285267313" version="3" timestamp="2009-04-22T17:38:09Z" uid="36809" user="pfoten_weg_!_" changeset="903000" lat="48.0864686" lon="11.5031167">
    <tag k="created_by" v="Potlatch 0.10b"/>
  </node>
  <node id="285267765" version="1" timestamp="2008-08-06T16:44:17Z" uid="36809" user="pfoten_weg_!_" changeset="108472" lat="48.086354" lon="11.503125"/>
  <node id="285267765" version="2" timestamp="2008-08-06T18:50:26Z" uid="36809" user="pfoten_weg_!_" changeset="108472" lat="48.086354" lon="11.5031249"/>
  <node id="285267765" version="3" timestamp="2008-08-06T20:41:14Z" uid="36809" user="pfoten_weg_!_" changeset="108472" lat="48.086354" lon="11.5031249">
    <tag k="created_by" v="RambaZamba"/>
  </node>
  <node id="285267765" version="4" timestamp="2008-08-12T16:00:22Z" uid="36809" user="pfoten_weg_!_" changeset="210447" lat="48.086354" lon="11.5031249">
    <tag k="created_by" v="RambaZamba"/>
  </node>
  <node id="285267765" version="5" timestamp="2008-08-20T09:09:18Z" uid="36809" user="pfoten_weg_!_" changeset="333184" lat="48.0863539" lon="11.5031204">
    <tag k="created_by" v="RambaZamba"/>
  </node>
  <node id="285267765" version="6" timestamp="2008-09-13T12:20:43Z" uid="36809" user="pfoten_weg_!_" changeset="620497" lat="48.0863539" lon="11.5031204">
    <tag k="created_by" v="RambaZamba"/>
  </node>
  <node id="285267765" version="7" timestamp="2008-09-13T12:43:43Z" uid="36809" user="pfoten_weg_!_" changeset="620497" lat="48.086354" lon="11.5031209">
    <tag k="created_by" v="RambaZamba"/>
  </node>
  <node id="285267765" version="8" timestamp="2008-09-15T12:55:45Z" uid="36809" user="pfoten_weg_!_" changeset="638986" lat="48.086354" lon="11.5031209">
    <tag k="created_by" v="RambaZamba"/>
    <tag k="source" v="survey "/>
  </node>
  <node id="285267765" version="9" timestamp="2008-09-16T06:02:34Z" uid="31231" user="Andre68" changeset="645611" lat="48.086354" lon="11.5031209">
    <tag k="created_by" v="RambaZamba"/>
    <tag k="source" v="survey"/>
  </node>
  <node id="285267765" version="10" timestamp="2008-09-20T03:37:04Z" uid="36809" user="pfoten_weg_!_" changeset="670006" lat="48.086354" lon="11.503121">
    <tag k="created_by" v="RambaZamba"/>
    <tag k="source" v="survey"/>
  </node>
  <node id="285267765" version="11" timestamp="2008-09-25T00:59:38Z" uid="36809" user="pfoten_weg_!_" changeset="693466" lat="48.086354" lon="11.5031203">
    <tag k="created_by" v="RambaZamba"/>
    <tag k="source" v="survey"/>
  </node>
  <node id="285267765" version="12" timestamp="2008-10-01T01:38:54Z" uid="36809" user="pfoten_weg_!_" changeset="5644" lat="48.086354" lon="11.5031203">
    <tag k="created_by" v="RambaZamba"/>
    <tag k="source" v="survey"/>
  </node>
  <node id="285267765" version="13" timestamp="2009-02-14T21:06:19Z" uid="36809" user="pfoten_weg_!_" changeset="445466" lat="48.086354" lon="11.5031203">
    <tag k="created_by" v="RambaZamba"/>
    <tag k="source" v="survey"/>
  </node>
  <node id="285267765" version="14" timestamp="2009-03-30T18:53:30Z" uid="36809" user="pfoten_weg_!_" changeset="871597" lat="48.086354" lon="11.5031202">
    <tag k="created_by" v="RambaZamba"/>
    <tag k="source" v="survey"/>
  </node>
  <node id="285267765" version="15" timestamp="2009-04-03T22:48:12Z" uid="5164" user="woodpeck" changeset="150055" lat="48.086354" lon="11.5031202"/>
  <node id="285267765" version="16" timestamp="2009-04-22T18:13:49Z" uid="36809" user="pfoten_weg_!_" changeset="903669" lat="48.086354" lon="11.5031202">
    <tag k="created_by" v="RambaZamba"/>
    <tag k="source" v="survey"/>
  </node>
  <node id="285267765" version="17" timestamp="2009-08-12T12:48:38Z" uid="156995" user="HampelZamba" changeset="2118306" lat="48.086354" lon="11.5031202">
    <tag k="source" v="survey"/>
  </node>
  <node id="285267765" version="18" timestamp="2009-08-19T01:56:40Z" uid="36809" user="pfoten_weg_!_" changeset="2196399" lat="48.086354" lon="11.5031202">
    <tag k="source" v="survey"/>
    <tag k="warnung" v="rumpelzumpel-verbrecher"/>
  </node>
  <node id="285267765" version="19" timestamp="2009-08-19T02:20:50Z" uid="36809" user="pfoten_weg_!_" changeset="2196453" lat="48.086354" lon="11.5031202">
    <tag k="source" v="survey"/>
  </node>
  <node id="285267765" version="20" timestamp="2009-10-12T22:02:48Z" uid="36809" user="pfoten_weg_!_" changeset="2831291" lat="48.086354" lon="11.5031202"/>
  <node id="285267765" version="21" timestamp="2011-07-23T12:15:17Z" uid="42393" user="mawi42" changeset="8805753" lat="48.0863558" lon="11.5030867"/>
  <node id="285268220" version="1" timestamp="2008-08-06T16:44:32Z" uid="36809" user="pfoten_weg_!_" changeset="108472" lat="48.0864055" lon="11.5031339"/>
  <node id="285268220" version="2" timestamp="2008-08-06T16:45:04Z" uid="36809" user="pfoten_weg_!_" changeset="108472" lat="48.0864055" lon="11.5031339">
    <tag k="highway" v="bus_stop"/>
  </node>
  <node id="285268220" version="3" timestamp="2008-08-06T16:45:26Z" uid="36809" user="pfoten_weg_!_" changeset="108472" lat="48.0864055" lon="11.5031339">
    <tag k="highway" v="bus_stop"/>
    <tag k="name" v="Stäblistraße"/>
  </node>
  <node id="285268220" version="4" timestamp="2008-08-06T16:45:42Z" uid="36809" user="pfoten_weg_!_" changeset="108472" lat="48.0864055" lon="11.5031339">
    <tag k="highway" v="bus_stop"/>
    <tag k="name" v="Stäblistraße"/>
    <tag k="ref" v="133; 134; N40"/>
  </node>
  <node id="285268220" version="5" timestamp="2008-08-08T16:26:47Z" uid="36809" user="pfoten_weg_!_" changeset="142705" lat="48.0864055" lon="11.5031339">
    <tag k="created_by" v="RambaZamba"/>
    <tag k="highway" v="bus_stop"/>
    <tag k="name" v="Stäblistraße"/>
    <tag k="ref" v="133; 134; N40"/>
  </node>
  <node id="285268220" version="6" timestamp="2008-08-12T16:00:21Z" uid="36809" user="pfoten_weg_!_" changeset="210447" lat="48.0864012" lon="11.5031348">
    <tag k="created_by" v="RambaZamba"/>
    <tag k="highway" v="bus_stop"/>
    <tag k="name" v="Stäblistraße"/>
    <tag k="ref" v="133; 134; N40"/>
  </node>
  <node id="285268220" version="7" timestamp="2008-08-21T22:39:12Z" uid="36809" user="pfoten_weg_!_" changeset="363581" lat="48.0864012" lon="11.5031348">
    <tag k="created_by" v="RambaZamba"/>
    <tag k="highway" v="bus_stop"/>
    <tag k="name" v="Stäblistraße "/>
    <tag k="ref" v="133; 134; N40"/>
  </node>
  <node id="285268220" version="8" timestamp="2008-09-09T06:07:22Z" uid="31231" user="Andre68" changeset="581906" lat="48.0864012" lon="11.5031348">
    <tag k="created_by" v="RambaZamba"/>
    <tag k="highway" v="bus_stop"/>
    <tag k="name" v="Stäblistraße"/>
    <tag k="ref" v="133; 134; N40"/>
  </node>
  <node id="285268220" version="9" timestamp="2008-09-13T12:42:23Z" uid="36809" user="pfoten_weg_!_" changeset="620497" lat="48.0864013" lon="11.5031353">
    <tag k="created_by" v="RambaZamba"/>
    <tag k="highway" v="bus_stop"/>
    <tag k="name" v="Stäblistraße"/>
    <tag k="ref" v="133; 134; N40"/>
  </node>
  <node id="285268220" version="10" timestamp="2008-09-15T12:54:29Z" uid="36809" user="pfoten_weg_!_" changeset="638986" lat="48.0864013" lon="11.5031353">
    <tag k="created_by" v="RambaZamba"/>
    <tag k="highway" v="bus_stop"/>
    <tag k="name" v="Stäblistraße"/>
    <tag k="ref" v="133; 134; N40"/>
    <tag k="source" v="survey "/>
  </node>
  <node id="285268220" version="11" timestamp="2008-09-16T06:02:04Z" uid="31231" user="Andre68" changeset="645611" lat="48.0864013" lon="11.5031353">
    <tag k="created_by" v="RambaZamba"/>
    <tag k="highway" v="bus_stop"/>
    <tag k="name" v="Stäblistraße"/>
    <tag k="ref" v="133; 134; N40"/>
    <tag k="source" v="survey"/>
  </node>
  <node id="285268220" version="12" timestamp="2008-09-20T03:36:07Z" uid="36809" user="pfoten_weg_!_" changeset="670006" lat="48.0864013" lon="11.5031354">
    <tag k="created_by" v="RambaZamba"/>
    <tag k="highway" v="bus_stop"/>
    <tag k="name" v="Stäblistraße"/>
    <tag k="ref" v="133; 134; N40"/>
    <tag k="source" v="survey"/>
  </node>
  <node id="285268220" version="13" timestamp="2008-09-24T19:59:38Z" uid="36809" user="pfoten_weg_!_" changeset="691601" lat="48.0864019" lon="11.5031533">
    <tag k="created_by" v="RambaZamba"/>
    <tag k="highway" v="bus_stop"/>
    <tag k="name" v="Stäblistraße"/>
    <tag k="ref" v="133; 134; N40"/>
    <tag k="source" v="survey"/>
  </node>
  <node id="285268220" version="14" timestamp="2008-09-24T23:27:22Z" uid="36809" user="pfoten_weg_!_" changeset="693466" lat="48.0864019" lon="11.5031533">
    <tag k="created_by" v="RambaZamba"/>
    <tag k="highway" v="bus_stop"/>
    <tag k="name" v="Stäblistraße"/>
    <tag k="ref" v="133,134,N40"/>
    <tag k="source" v="survey"/>
  </node>
  <node id="285268220" version="15" timestamp="2008-10-01T01:37:59Z" uid="36809" user="pfoten_weg_!_" changeset="5644" lat="48.0864019" lon="11.5031533">
    <tag k="created_by" v="RambaZamba"/>
    <tag k="highway" v="bus_stop"/>
    <tag k="name" v="Stäblistraße"/>
    <tag k="ref" v="133,134,N40"/>
    <tag k="source" v="survey"/>
  </node>
  <node id="285268220" version="16" timestamp="2009-08-12T12:48:38Z" uid="156995" user="HampelZamba" changeset="2118306" lat="48.0864019" lon="11.5031533">
    <tag k="highway" v="bus_stop"/>
    <tag k="name" v="Stäblistraße"/>
    <tag k="ref" v="133,134,N40"/>
    <tag k="source" v="survey"/>
  </node>
  <node id="285268220" version="17" timestamp="2009-08-19T01:14:47Z" uid="36809" user="pfoten_weg_!_" changeset="2196346" lat="48.0864019" lon="11.5031533">
    <tag k="discovered_by" v="RambaZamba"/>
    <tag k="highway" v="bus_stop"/>
    <tag k="name" v="Stäblistraße"/>
    <tag k="ref" v="133,134,N40"/>
    <tag k="source" v="survey"/>
  </node>
  <node id="285268220" version="18" timestamp="2009-08-28T19:39:36Z" uid="156995" user="HampelZamba" changeset="2294580" lat="48.0864019" lon="11.5031533">
    <tag k="highway" v="bus_stop"/>
    <tag k="name" v="Stäblistraße"/>
    <tag k="ref" v="133,134,N40"/>
    <tag k="source" v="survey"/>
  </node>
  <node id="285268220" version="19" timestamp="2009-08-28T20:51:28Z" uid="36809" user="pfoten_weg_!_" changeset="2295155" lat="48.0864019" lon="11.5031533">
    <tag k="discovered_by" v="RambaZamba"/>
    <tag k="highway" v="bus_stop"/>
    <tag k="name" v="Stäblistraße"/>
    <tag k="ref" v="133,134,N40"/>
    <tag k="source" v="survey"/>
  </node>
  <node id="285268220" version="20" timestamp="2009-08-30T04:54:13Z" uid="156995" user="HampelZamba" changeset="2308696" lat="48.0864019" lon="11.5031533">
    <tag k="highway" v="bus_stop"/>
    <tag k="name" v="Stäblistraße"/>
    <tag k="ref" v="133,134,N40"/>
    <tag k="source" v="survey"/>
  </node>
  <node id="285268220" version="21" timestamp="2009-09-01T10:26:51Z" uid="36809" user="pfoten_weg_!_" changeset="2335754" lat="48.0864019" lon="11.5031533">
    <tag k="highway" v="bus_stop"/>
    <tag k="name" v="Stäblistraße"/>
    <tag k="ref" v="133,134,N40"/>
    <tag k="source" v="survey"/>
  </node>
  <node id="285268220" version="22" timestamp="2009-10-13T22:54:59Z" uid="36809" user="pfoten_weg_!_" changeset="2841175" lat="48.0864019" lon="11.5031533">
    <tag k="highway" v="bus_stop"/>
    <tag k="name" v="Stäblistraße"/>
    <tag k="ref" v="133,134,N40"/>
  </node>
  <node id="285268220" version="23" timestamp="2010-06-25T10:32:45Z" uid="247670" user="burt13de" changeset="5071150" lat="48.0864019" lon="11.5031533">
    <tag k="highway" v="bus_stop"/>
    <tag k="name" v="Stäblistraße"/>
    <tag k="ref" v="133,134,N40"/>
  </node>
</osm>
