<?xml version='1.0' encoding='UTF-8'?>
<osm version="0.6" generator="libosmium/2.20.0">
  <node id="28602934" version="1" timestamp="2007-09-06T18:19:31Z" uid="6454" user="B10xxx" changeset="364362" lat="50.0524033" lon="8.2183098">
    <tag k="created_by" v="JOSM"/>
  </node>
  <node id="28602934" version="2" timestamp="2008-05-23T11:47:03Z" uid="28378" user="PHerison" changeset="502743" lat="50.0524033" lon="8.2183098">
    <tag k="created_by" v="JOSM"/>
    <tag k="highway" v="motorway_junction"/>
    <tag k="name" v="Schiersteiner Kreuz"/>
    <tag k="ref" v="3"/>
  </node>
  <node id="28602934" version="3" timestamp="2008-05-24T14:00:51Z" uid="23785" user="Simon Kokolakis" changeset="512360" lat="50.0524445" lon="8.218298">
    <tag k="created_by" v="JOSM"/>
    <tag k="highway" v="motorway_junction"/>
    <tag k="name" v="Schiersteiner Kreuz"/>
    <tag k="ref" v="3"/>
  </node>
  <node id="28602934" version="4" timestamp="2009-08-08T11:42:21Z" uid="109925" user="WanMil" changeset="2074786" lat="50.0524445" lon="8.218298">
    <tag k="highway" v="motorway_junction"/>
    <tag k="name" v="Schiersteiner Kreuz"/>
    <tag k="ref" v="3"/>
  </node>
  <node id="28602934" version="5" timestamp="2010-07-07T16:38:21Z" uid="94353" user="Fips" changeset="5159799" lat="50.0524445" lon="8.218298">
    <tag k="TMC:cid_58:tabcd_1:Class" v="Point"/>
    <tag k="TMC:cid_58:tabcd_1:Direction" v="negative"/>
    <tag k="TMC:cid_58:tabcd_1:LCLversion" v="9.00"/>
    <tag k="TMC:cid_58:tabcd_1:LocationCode" v="12158"/>
    <tag k="TMC:cid_58:tabcd_1:NextLocationCode" v="12159"/>
    <tag k="TMC:cid_58:tabcd_1:PrevLocationCode" v="12157"/>
    <tag k="highway" v="motorway_junction"/>
    <tag k="name" v="Schiersteiner Kreuz"/>
    <tag k="ref" v="3"/>
  </node>
  <node id="28602941" version="1" timestamp="2007-07-02T02:09:42Z" uid="6454" user="B10xxx" changeset="122302" lat="50.0527733" lon="8.2129618">
    <tag k="created_by" v="JOSM"/>
  </node>
  <node id="28602941" version="2" timestamp="2008-05-24T13:57:56Z" uid="23785" user="Simon Kokolakis" changeset="512360" lat="50.0528357" lon="8.2129851">
    <tag k="created_by" v="JOSM"/>
  </node>
  <node id="28602941" version="3" timestamp="2009-08-08T11:42:21Z" uid="109925" user="WanMil" changeset="2074786" lat="50.0528357" lon="8.2129851"/>
  <node id="28602943" version="1" timestamp="2007-07-02T02:09:42Z" uid="6454" user="B10xxx" changeset="122302" lat="50.0528946" lon="8.2096916">
    <tag k="created_by" v="JOSM"/>
  </node>
  <node id="28602943" version="2" timestamp="2008-05-23T11:47:03Z" uid="28378" user="PHerison" changeset="502743" lat="50.0528946" lon="8.2096916">
    <tag k="created_by" v="JOSM"/>
    <tag k="highway" v="motorway_junction"/>
    <tag k="name" v="Schiersteiner Kreuz"/>
    <tag k="ref" v="3"/>
  </node>
  <node id="28602943" version="3" timestamp="2008-05-24T13:57:40Z" uid="23785" user="Simon Kokolakis" changeset="512360" lat="50.0529019" lon="8.2111483">
    <tag k="created_by" v="JOSM"/>
    <tag k="highway" v="motorway_junction"/>
    <tag k="name" v="Schiersteiner Kreuz"/>
    <tag k="ref" v="3"/>
  </node>
  <node id="28602943" version="4" timestamp="2008-07-29T18:52:03Z" uid="54273" user="Igi" changeset="624692" lat="50.0528902" lon="8.2111278">
    <tag k="created_by" v="JOSM"/>
    <tag k="highway" v="motorway_junction"/>
    <tag k="name" v="Schiersteiner Kreuz"/>
    <tag k="ref" v="3"/>
  </node>
  <node id="28602943" version="5" timestamp="2008-07-29T18:54:05Z" uid="54273" user="Igi" changeset="624692" lat="50.0529019" lon="8.2111483">
    <tag k="created_by" v="JOSM"/>
    <tag k="highway" v="motorway_junction"/>
    <tag k="name" v="Schiersteiner Kreuz"/>
    <tag k="ref" v="3"/>
  </node>
  <node id="28602943" version="6" timestamp="2009-08-08T11:42:21Z" uid="109925" user="WanMil" changeset="2074786" lat="50.0529019" lon="8.2111483">
    <tag k="highway" v="motorway_junction"/>
    <tag k="name" v="Schiersteiner Kreuz"/>
    <tag k="ref" v="3"/>
  </node>
  <node id="28602955" version="1" timestamp="2007-09-06T17:29:54Z" uid="6454" user="B10xxx" changeset="364362" lat="50.0529561" lon="8.2084823">
    <tag k="created_by" v="JOSM"/>
  </node>
  <node id="28602974" version="1" timestamp="2007-09-06T18:20:31Z" uid="6454" user="B10xxx" changeset="364362" lat="50.0526403" lon="8.2157263"/>
  <node id="28602974" version="2" timestamp="2008-05-24T13:59:04Z" uid="23785" user="Simon Kokolakis" changeset="512360" lat="50.0527531" lon="8.2141867"/>
  <node id="28602980" version="1" timestamp="2007-05-02T23:58:00Z" uid="6454" user="B10xxx" changeset="37542" lat="50.0517376" lon="8.2230622">
    <tag k="created_by" v="JOSM"/>
  </node>
  <node id="28602980" version="2" timestamp="2008-05-24T14:01:07Z" uid="23785" user="Simon Kokolakis" changeset="512360" lat="50.0519264" lon="8.2231389">
    <tag k="created_by" v="JOSM"/>
  </node>
  <node id="28602980" version="3" timestamp="2009-08-08T11:42:21Z" uid="109925" user="WanMil" changeset="2074786" lat="50.0519264" lon="8.2231389"/>
  <node id="28602980" version="4" timestamp="2011-07-05T21:47:43Z" uid="461945" user="poppei82" changeset="8643517" lat="50.0519001" lon="8.2232617"/>
  <node id="28602988" version="1" timestamp="2007-08-28T01:33:25Z" uid="6454" user="B10xxx" changeset="259179" lat="50.0523427" lon="8.2431323">
    <tag k="created_by" v="JOSM"/>
  </node>
  <node id="28602988" version="2" timestamp="2008-05-23T11:49:01Z" uid="28378" user="PHerison" changeset="502743" lat="50.0523427" lon="8.2431323">
    <tag k="created_by" v="JOSM"/>
    <tag k="highway" v="motorway_junction"/>
    <tag k="name" v="Wiesbaden-Biebrich"/>
    <tag k="ref" v="4"/>
  </node>
  <node id="28602988" version="3" timestamp="2008-05-24T14:02:46Z" uid="23785" user="Simon Kokolakis" changeset="512360" lat="50.05245" lon="8.243146">
    <tag k="created_by" v="JOSM"/>
    <tag k="highway" v="motorway_junction"/>
    <tag k="name" v="Wiesbaden-Biebrich"/>
    <tag k="ref" v="4"/>
  </node>
  <node id="28602988" version="4" timestamp="2009-08-08T11:42:21Z" uid="109925" user="WanMil" changeset="2074786" lat="50.05245" lon="8.243146">
    <tag k="highway" v="motorway_junction"/>
    <tag k="name" v="Wiesbaden-Biebrich"/>
    <tag k="ref" v="4"/>
  </node>
  <node id="28602988" version="5" timestamp="2009-10-11T14:23:42Z" uid="67792" user="UncleBob" changeset="2815024" lat="50.0523807" lon="8.2430997">
    <tag k="highway" v="motorway_junction"/>
    <tag k="name" v="Wiesbaden-Biebrich"/>
    <tag k="ref" v="4"/>
  </node>
  <node id="28602988" version="6" timestamp="2010-03-12T21:47:08Z" uid="28378" user="PHerison" changeset="4109799" lat="50.0524107" lon="8.2431033">
    <tag k="highway" v="motorway_junction"/>
    <tag k="name" v="Wiesbaden-Biebrich"/>
    <tag k="ref" v="4"/>
  </node>
  <node id="28602988" version="7" timestamp="2010-07-06T11:45:55Z" uid="94353" user="Fips" changeset="5149795" lat="50.0524107" lon="8.2431033">
    <tag k="TMC:cid_58:tabcd_1:Class" v="Point"/>
    <tag k="TMC:cid_58:tabcd_1:Direction" v="positive"/>
    <tag k="TMC:cid_58:tabcd_1:LCLversion" v="9.00"/>
    <tag k="TMC:cid_58:tabcd_1:LocationCode" v="12159"/>
    <tag k="TMC:cid_58:tabcd_1:NextLocationCode" v="12160"/>
    <tag k="TMC:cid_58:tabcd_1:PrevLocationCode" v="12158"/>
    <tag k="highway" v="motorway_junction"/>
    <tag k="name" v="Wiesbaden-Biebrich"/>
    <tag k="ref" v="4"/>
  </node>
  <node id="28603039" version="1" timestamp="2007-08-28T01:33:25Z" uid="6454" user="B10xxx" changeset="259179" lat="50.0521333" lon="8.2467801">
    <tag k="created_by" v="JOSM"/>
  </node>
  <node id="28603039" version="2" timestamp="2008-05-24T14:03:26Z" uid="23785" user="Simon Kokolakis" changeset="512360" lat="50.0521965" lon="8.246708">
    <tag k="created_by" v="JOSM"/>
  </node>
  <node id="28603039" version="3" timestamp="2009-08-08T11:42:21Z" uid="109925" user="WanMil" changeset="2074786" lat="50.0521965" lon="8.246708"/>
  <node id="28603039" version="4" timestamp="2009-10-11T14:23:42Z" uid="67792" user="UncleBob" changeset="2815024" lat="50.0521668" lon="8.2466566"/>
  <node id="28603119" version="1" timestamp="2007-05-02T23:58:16Z" uid="6454" user="B10xxx" changeset="37542" lat="50.0524106" lon="8.239709">
    <tag k="created_by" v="JOSM"/>
  </node>
  <node id="28603119" version="2" timestamp="2008-05-24T14:02:19Z" uid="23785" user="Simon Kokolakis" changeset="512360" lat="50.0525216" lon="8.2391377">
    <tag k="created_by" v="JOSM"/>
  </node>
  <node id="28603119" version="3" timestamp="2009-08-08T11:42:22Z" uid="109925" user="WanMil" changeset="2074786" lat="50.0525216" lon="8.2391377"/>
  <node id="28603119" version="4" timestamp="2009-10-11T14:23:42Z" uid="67792" user="UncleBob" changeset="2815024" lat="50.0524622" lon="8.2389835"/>
  <node id="28603119" version="5" timestamp="2010-03-08T19:07:35Z" uid="28378" user="PHerison" changeset="4074669" lat="50.0525086" lon="8.2388856"/>
  <node id="28603124" version="1" timestamp="2007-09-06T21:28:43Z" uid="6454" user="B10xxx" changeset="364362" lat="50.0518963" lon="8.2337335">
    <tag k="created_by" v="JOSM"/>
  </node>
  <node id="28603124" version="2" timestamp="2008-05-24T14:01:33Z" uid="23785" user="Simon Kokolakis" changeset="512360" lat="50.0519981" lon="8.2336875">
    <tag k="created_by" v="JOSM"/>
  </node>
  <node id="28603124" version="3" timestamp="2009-08-08T11:42:21Z" uid="109925" user="WanMil" changeset="2074786" lat="50.0519981" lon="8.2336875"/>
  <node id="28603124" version="4" timestamp="2009-10-11T14:23:42Z" uid="67792" user="UncleBob" changeset="2815024" lat="50.0519519" lon="8.2337081"/>
  <node id="28603124" version="5" timestamp="2010-03-08T19:07:34Z" uid="28378" user="PHerison" changeset="4074669" lat="50.052" lon="8.2336915"/>
  <node id="28603165" version="1" timestamp="2007-05-02T23:58:21Z" uid="6454" user="B10xxx" changeset="37542" lat="50.0514649" lon="8.229142">
    <tag k="created_by" v="JOSM"/>
  </node>
  <node id="28603165" version="2" timestamp="2008-05-24T14:01:25Z" uid="23785" user="Simon Kokolakis" changeset="512360" lat="50.0516674" lon="8.2290269">
    <tag k="created_by" v="JOSM"/>
  </node>
  <node id="28603165" version="3" timestamp="2009-08-08T11:42:21Z" uid="109925" user="WanMil" changeset="2074786" lat="50.0516674" lon="8.2290269"/>
  <node id="28603165" version="4" timestamp="2011-07-05T21:47:48Z" uid="461945" user="poppei82" changeset="8643517" lat="50.0516543" lon="8.2291088"/>
  <node id="28603172" version="1" timestamp="2007-05-02T23:58:22Z" uid="6454" user="B10xxx" changeset="37542" lat="50.0514376" lon="8.2257037">
    <tag k="created_by" v="JOSM"/>
  </node>
  <node id="28603172" version="2" timestamp="2008-05-24T14:01:17Z" uid="23785" user="Simon Kokolakis" changeset="512360" lat="50.0517611" lon="8.225688">
    <tag k="created_by" v="JOSM"/>
  </node>
  <node id="28603172" version="3" timestamp="2009-08-08T11:42:21Z" uid="109925" user="WanMil" changeset="2074786" lat="50.0517611" lon="8.225688"/>
  <node id="28603172" version="4" timestamp="2011-07-05T21:45:39Z" uid="461945" user="poppei82" changeset="8643517" lat="50.0517348" lon="8.2256675"/>
  <node id="28603178" version="1" timestamp="2007-05-02T23:58:22Z" uid="6454" user="B10xxx" changeset="37542" lat="50.0519877" lon="8.2207715">
    <tag k="created_by" v="JOSM"/>
  </node>
  <node id="28603178" version="2" timestamp="2008-05-24T14:01:01Z" uid="23785" user="Simon Kokolakis" changeset="512360" lat="50.0521248" lon="8.2207871">
    <tag k="created_by" v="JOSM"/>
  </node>
  <node id="28603178" version="3" timestamp="2009-08-08T11:42:21Z" uid="109925" user="WanMil" changeset="2074786" lat="50.0521248" lon="8.2207871"/>
  <node id="28603178" version="4" timestamp="2011-07-05T21:47:41Z" uid="461945" user="poppei82" changeset="8643517" lat="50.0520919" lon="8.2207666"/>
  <node id="28607096" version="1" timestamp="2007-09-11T13:25:00Z" uid="6454" user="B10xxx" changeset="411127" lat="50.0717323" lon="8.2484449">
    <tag k="created_by" v="JOSM"/>
  </node>
  <node id="28607096" version="2" timestamp="2009-02-05T21:09:45Z" uid="26869" user="Ailatix" changeset="166322" lat="50.0717323" lon="8.2484449">
    <tag k="created_by" v="JOSM"/>
    <tag k="highway" v="traffic_signals"/>
  </node>
  <node id="28607096" version="3" timestamp="2009-08-21T07:44:05Z" uid="8464" user="MichaH" changeset="2220078" lat="50.0717323" lon="8.2484449">
    <tag k="highway" v="traffic_signals"/>
  </node>
  <node id="28607096" version="4" timestamp="2010-02-24T17:52:26Z" uid="94353" user="Fips" changeset="3964980" lat="50.0717323" lon="8.2484449">
    <tag k="highway" v="traffic_signals"/>
  </node>
</osm>
