<?xml version='1.0' encoding='UTF-8'?>
<osm version="0.6" generator="libosmium/2.20.0">
  <node id="291361048" version="2" timestamp="2009-08-22T06:15:17Z" uid="33382" user="de_muur" changeset="2230700" lat="53.6163115" lon="10.5942031"/>
  <node id="291361051" version="2" timestamp="2009-08-22T06:15:17Z" uid="33382" user="de_muur" changeset="2230700" lat="53.617202" lon="10.6000624"/>
  <node id="291362810" version="9" timestamp="2009-03-25T23:03:50Z" uid="49111" user="Markus B" changeset="861683" lat="47.4096217" lon="9.2077994"/>
  <node id="291362810" version="10" timestamp="2011-12-16T22:35:50Z" uid="15071" user="filzstift" changeset="10134838" lat="47.4096217" lon="9.2077994"/>
  <node id="291362816" version="9" timestamp="2009-03-25T23:03:50Z" uid="49111" user="Markus B" changeset="861683" lat="47.4092261" lon="9.2097646"/>
  <node id="291362816" version="10" timestamp="2011-07-06T18:59:16Z" uid="334389" user="ueliw0" changeset="8651026" lat="47.4093056" lon="9.2096399"/>
  <node id="291362816" version="11" timestamp="2011-12-16T22:35:50Z" uid="15071" user="filzstift" changeset="10134838" lat="47.4093056" lon="9.2096399"/>
  <node id="291363694" version="3" timestamp="2008-09-14T14:33:09Z" uid="6975" user="ulfl" changeset="640534" lat="60.2416624" lon="24.7802904">
    <tag k="barrier" v="bollard"/>
  </node>
  <node id="291364400" version="4" timestamp="2008-09-14T13:35:34Z" uid="6975" user="ulfl" changeset="640534" lat="48.138413" lon="11.5881201">
    <tag k="name" v="FIX ME"/>
    <tag k="shop" v="hairdresser"/>
  </node>
  <node id="291364400" version="5" timestamp="2008-09-17T23:43:35Z" uid="59819" user="Fuss-im-Ohr" changeset="658071" lat="48.1383678" lon="11.5880723">
    <tag k="name" v="FIX ME"/>
    <tag k="shop" v="hairdresser"/>
  </node>
  <node id="291364400" version="6" timestamp="2008-09-21T00:51:07Z" uid="59819" user="Fuss-im-Ohr" changeset="672231" lat="48.1383678" lon="11.5880723">
    <tag k="addr:city" v="München"/>
    <tag k="addr:postcode" v="80538"/>
    <tag k="name" v="FIX ME"/>
    <tag k="shop" v="hairdresser"/>
  </node>
  <node id="291364400" version="7" timestamp="2008-09-27T16:33:10Z" uid="59819" user="Fuss-im-Ohr" changeset="705779" lat="48.1383678" lon="11.5880723">
    <tag k="addr:city" v="München"/>
    <tag k="addr:postcode" v="80538"/>
    <tag k="name" v="FIX ME"/>
    <tag k="shop" v="hairdresser"/>
  </node>
  <node id="291364458" version="6" timestamp="2008-09-24T03:48:49Z" uid="6975" user="ulfl" changeset="687743" lat="48.1406747" lon="11.5886717">
    <tag k="addr:city" v="München"/>
    <tag k="addr:postcode" v="80538"/>
    <tag k="name" v="FIX ME"/>
    <tag k="shop" v="hairdresser"/>
  </node>
  <node id="291364458" version="7" timestamp="2008-10-23T23:28:15Z" uid="59819" user="Fuss-im-Ohr" changeset="543913" lat="48.1407093" lon="11.5886837">
    <tag k="addr:city" v="München"/>
    <tag k="addr:postcode" v="80538"/>
    <tag k="name" v="FIX ME"/>
    <tag k="shop" v="hairdresser"/>
  </node>
  <node id="291364458" version="8" timestamp="2008-12-19T00:47:07Z" uid="59819" user="Fuss-im-Ohr" changeset="471827" lat="48.1407093" lon="11.5886837">
    <tag k="addr:city" v="München"/>
    <tag k="addr:country" v="de"/>
    <tag k="addr:postcode" v="80538"/>
    <tag k="name" v="Hand &amp; Fuss GmbH"/>
    <tag k="opening_hours" v="Mo-Di0900-1800;Mi0900-2000;Do-Fr0900-1800"/>
    <tag k="phone" v="+49 89 21024413"/>
    <tag k="shop" v="beauty_salon"/>
  </node>
  <node id="291364458" version="9" timestamp="2008-12-24T02:17:53Z" uid="59819" user="Fuss-im-Ohr" changeset="580521" lat="48.1407093" lon="11.5886837">
    <tag k="addr:city" v="München"/>
    <tag k="addr:country" v="de"/>
    <tag k="addr:postcode" v="80538"/>
    <tag k="name" v="Hand &amp; Fuss GmbH"/>
    <tag k="opening_hours" v="Mo-Di:0900-1800;Mi:0900-2000;Do-Fr:0900-1800"/>
    <tag k="phone" v="+49 89 21024413"/>
    <tag k="shop" v="beauty_salon"/>
  </node>
  <node id="291364458" version="10" timestamp="2009-01-21T20:22:33Z" uid="70696" user="xybot" changeset="822919" lat="48.1407093" lon="11.5886837">
    <tag k="addr:city" v="München"/>
    <tag k="addr:country" v="DE"/>
    <tag k="addr:postcode" v="80538"/>
    <tag k="created_by" v="xybot"/>
    <tag k="name" v="Hand &amp; Fuss GmbH"/>
    <tag k="opening_hours" v="Mo-Di:0900-1800;Mi:0900-2000;Do-Fr:0900-1800"/>
    <tag k="phone" v="+49 89 21024413"/>
    <tag k="shop" v="beauty_salon"/>
  </node>
  <node id="291364458" version="11" timestamp="2009-03-24T00:43:51Z" uid="59819" user="Fuss-im-Ohr" changeset="851456" lat="48.1407093" lon="11.5886837">
    <tag k="addr:city" v="München"/>
    <tag k="addr:country" v="DE"/>
    <tag k="addr:housenumber" v="9"/>
    <tag k="addr:postcode" v="80538"/>
    <tag k="addr:street" v="Triftstraße"/>
    <tag k="name" v="Hand &amp; Fuss GmbH"/>
    <tag k="opening_hours" v="Mo-Di:0900-1800;Mi:0900-2000;Do-Fr:0900-1800"/>
    <tag k="phone" v="+49 89 21024413"/>
    <tag k="shop" v="beauty_salon"/>
    <tag k="website" v="http://www.wellness-lehel.de"/>
  </node>
  <node id="291364458" version="12" timestamp="2009-08-02T06:45:28Z" uid="31231" user="Andre68" changeset="2010231" lat="48.1407093" lon="11.5886837">
    <tag k="addr:city" v="München"/>
    <tag k="addr:country" v="DE"/>
    <tag k="addr:housenumber" v="9"/>
    <tag k="addr:postcode" v="80538"/>
    <tag k="addr:street" v="Triftstraße"/>
    <tag k="name" v="Hand &amp; Fuss GmbH"/>
    <tag k="opening_hours" v="Mo-Tu 09:00-18:00; We 09:00-20:00; Th-Fr 09:00-18:00"/>
    <tag k="phone" v="+49 89 21024413"/>
    <tag k="shop" v="beauty_salon"/>
    <tag k="website" v="http://www.wellness-lehel.de"/>
  </node>
  <node id="291364458" version="13" timestamp="2010-08-16T11:19:47Z" uid="293774" user="Oli-Wan" changeset="5508255" lat="48.1407093" lon="11.5886837">
    <tag k="addr:city" v="München"/>
    <tag k="addr:country" v="DE"/>
    <tag k="addr:housenumber" v="9"/>
    <tag k="addr:postcode" v="80538"/>
    <tag k="addr:street" v="Triftstraße"/>
    <tag k="name" v="Hand &amp; Fuss GmbH"/>
    <tag k="opening_hours" v="Mo-Tu 09:00-18:00; We 09:00-20:00; Th-Fr 09:00-18:00"/>
    <tag k="phone" v="+49 89 21024413"/>
    <tag k="shop" v="beauty"/>
    <tag k="website" v="http://www.wellness-lehel.de"/>
  </node>
  <node id="291364458" version="14" timestamp="2010-09-15T15:43:44Z" uid="109029" user="shorty_de" changeset="5788320" lat="48.1405068" lon="11.5885455">
    <tag k="addr:city" v="München"/>
    <tag k="addr:country" v="DE"/>
    <tag k="addr:housenumber" v="9"/>
    <tag k="addr:postcode" v="80538"/>
    <tag k="addr:street" v="Triftstraße"/>
    <tag k="name" v="Hand &amp; Fuss GmbH"/>
    <tag k="opening_hours" v="Mo-Tu 09:00-18:00; We 09:00-20:00; Th-Fr 09:00-18:00"/>
    <tag k="phone" v="+49 89 21024413"/>
    <tag k="shop" v="beauty"/>
    <tag k="website" v="http://www.wellness-lehel.de"/>
  </node>
  <node id="291364484" version="10" timestamp="2009-01-03T13:50:18Z" uid="6975" user="ulfl" changeset="720285" lat="48.1402654" lon="11.591302">
    <tag k="addr:city" v="München"/>
    <tag k="addr:country" v="de"/>
    <tag k="addr:housenumber" v="26"/>
    <tag k="addr:postcode" v="80538"/>
    <tag k="addr:street" v="Sternstraße"/>
    <tag k="created_by" v="JOSM"/>
    <tag k="name" v="Augenoptiker Augenstern"/>
    <tag k="phone" v="+49 89  21329865"/>
    <tag k="shop" v="optician"/>
    <tag k="website:official" v="http://www.augenstern-optik.de"/>
  </node>
  <node id="291364484" version="11" timestamp="2009-01-15T21:11:43Z" uid="59819" user="Fuss-im-Ohr" changeset="791501" lat="48.1402654" lon="11.591302">
    <tag k="addr:city" v="München"/>
    <tag k="addr:country" v="de"/>
    <tag k="addr:housenumber" v="26"/>
    <tag k="addr:postcode" v="80538"/>
    <tag k="addr:street" v="Sternstraße"/>
    <tag k="created_by" v="JOSM"/>
    <tag k="name" v="Augenoptiker Augenstern"/>
    <tag k="phone" v="+49 89 21329865"/>
    <tag k="shop" v="optician"/>
    <tag k="website:official" v="http://www.augenstern-optik.de"/>
  </node>
  <node id="291364484" version="12" timestamp="2009-01-21T20:22:38Z" uid="70696" user="xybot" changeset="822919" lat="48.1402654" lon="11.591302">
    <tag k="addr:city" v="München"/>
    <tag k="addr:country" v="DE"/>
    <tag k="addr:housenumber" v="26"/>
    <tag k="addr:postcode" v="80538"/>
    <tag k="addr:street" v="Sternstraße"/>
    <tag k="created_by" v="xybot"/>
    <tag k="name" v="Augenoptiker Augenstern"/>
    <tag k="phone" v="+49 89 21329865"/>
    <tag k="shop" v="optician"/>
    <tag k="website:official" v="http://www.augenstern-optik.de"/>
  </node>
  <node id="291364484" version="13" timestamp="2009-01-26T09:33:36Z" uid="59819" user="Fuss-im-Ohr" changeset="838452" lat="48.1402654" lon="11.591302">
    <tag k="addr:city" v="München"/>
    <tag k="addr:country" v="DE"/>
    <tag k="addr:housenumber" v="26"/>
    <tag k="addr:postcode" v="80538"/>
    <tag k="addr:street" v="Sternstraße"/>
    <tag k="name" v="Augenoptiker Augenstern"/>
    <tag k="phone" v="+49 89 21329865"/>
    <tag k="shop" v="optician"/>
    <tag k="website:official" v="http://www.augenstern-optik.de"/>
  </node>
  <node id="291364484" version="14" timestamp="2010-08-21T08:58:09Z" uid="59819" user="Fuss-im-Ohr" changeset="5549984" lat="48.1402654" lon="11.591302">
    <tag k="addr:city" v="München"/>
    <tag k="addr:country" v="DE"/>
    <tag k="addr:housenumber" v="26"/>
    <tag k="addr:postcode" v="80538"/>
    <tag k="addr:street" v="Sternstraße"/>
    <tag k="name" v="Augenoptiker Augenstern"/>
    <tag k="phone" v="+49 89 21329865"/>
    <tag k="shop" v="optician"/>
    <tag k="website" v="http://www.augenstern-optik.de"/>
  </node>
  <node id="291364484" version="15" timestamp="2011-09-26T11:38:17Z" uid="38096" user="benelsen" changeset="9401207" lat="48.1402327" lon="11.5911911">
    <tag k="addr:city" v="München"/>
    <tag k="addr:country" v="DE"/>
    <tag k="addr:housenumber" v="26"/>
    <tag k="addr:postcode" v="80538"/>
    <tag k="addr:street" v="Sternstraße"/>
    <tag k="name" v="Augenoptiker Augenstern"/>
    <tag k="phone" v="+49 89 21329865"/>
    <tag k="shop" v="optician"/>
    <tag k="website" v="http://www.augenstern-optik.de"/>
  </node>
  <node id="291364487" version="8" timestamp="2008-11-26T02:13:31Z" uid="6975" user="ulfl" changeset="794829" lat="48.1406036" lon="11.5906558">
    <tag k="name" v="Auckenthaler"/>
    <tag k="phone" v="+49 89 26010944"/>
    <tag k="shop" v="hairdresser"/>
  </node>
  <node id="291364487" version="9" timestamp="2009-01-26T09:24:50Z" uid="59819" user="Fuss-im-Ohr" changeset="838452" lat="48.1406036" lon="11.5906558">
    <tag k="addr:city" v="München"/>
    <tag k="addr:country" v="DE"/>
    <tag k="addr:postcode" v="80538"/>
    <tag k="addr:street" v="Tattenbachstraße"/>
    <tag k="name" v="Auckenthaler"/>
    <tag k="phone" v="+49 89 26010944"/>
    <tag k="shop" v="hairdresser"/>
  </node>
  <node id="291364487" version="10" timestamp="2009-03-29T13:36:39Z" uid="59819" user="Fuss-im-Ohr" changeset="868296" lat="48.1406036" lon="11.5906558">
    <tag k="addr:city" v="München"/>
    <tag k="addr:country" v="DE"/>
    <tag k="addr:housenumber" v="20"/>
    <tag k="addr:postcode" v="80538"/>
    <tag k="addr:street" v="Tattenbachstraße"/>
    <tag k="name" v="Auckenthaler"/>
    <tag k="phone" v="+49 89 26010944"/>
    <tag k="shop" v="hairdresser"/>
  </node>
  <node id="291364491" version="7" timestamp="2008-09-14T13:35:35Z" uid="6975" user="ulfl" changeset="640534" lat="48.1404258" lon="11.591343">
    <tag k="addr:housenumber" v="28"/>
    <tag k="addr:street" v="Sternstraße"/>
    <tag k="name" v="Hundesalon und Mode"/>
    <tag k="phone" v="+49 89  21112552"/>
    <tag k="shop" v="hairdresser"/>
    <tag k="website:official" v="http://www.hundesalon-und-mode.de"/>
  </node>
  <node id="291364491" version="8" timestamp="2008-09-17T23:43:31Z" uid="59819" user="Fuss-im-Ohr" changeset="658071" lat="48.1404152" lon="11.5913962">
    <tag k="addr:housenumber" v="28"/>
    <tag k="addr:street" v="Sternstraße"/>
    <tag k="name" v="Hundesalon und Mode"/>
    <tag k="phone" v="+49 89  21112552"/>
    <tag k="shop" v="hairdresser"/>
    <tag k="website:official" v="http://www.hundesalon-und-mode.de"/>
  </node>
  <node id="291364491" version="9" timestamp="2008-09-21T00:51:05Z" uid="59819" user="Fuss-im-Ohr" changeset="672231" lat="48.1404152" lon="11.5913962">
    <tag k="addr:city" v="München"/>
    <tag k="addr:housenumber" v="28"/>
    <tag k="addr:postcode" v="80538"/>
    <tag k="addr:street" v="Sternstraße"/>
    <tag k="name" v="Hundesalon und Mode"/>
    <tag k="phone" v="+49 89  21112552"/>
    <tag k="shop" v="hairdresser"/>
    <tag k="website:official" v="http://www.hundesalon-und-mode.de"/>
  </node>
  <node id="291364491" version="10" timestamp="2008-10-23T15:53:41Z" uid="59819" user="Fuss-im-Ohr" changeset="526029" lat="48.140435" lon="11.5913828">
    <tag k="addr:city" v="München"/>
    <tag k="addr:housenumber" v="28"/>
    <tag k="addr:postcode" v="80538"/>
    <tag k="addr:street" v="Sternstraße"/>
    <tag k="name" v="Hundesalon und Mode"/>
    <tag k="phone" v="+49 89  21112552"/>
    <tag k="shop" v="hairdresser"/>
    <tag k="website:official" v="http://www.hundesalon-und-mode.de"/>
  </node>
  <node id="291364491" version="11" timestamp="2008-12-12T21:20:51Z" uid="8748" user="ToniE" changeset="332961" lat="48.140435" lon="11.5913828">
    <tag k="addr:city" v="München"/>
    <tag k="addr:country" v="de"/>
    <tag k="addr:housenumber" v="28"/>
    <tag k="addr:postcode" v="80538"/>
    <tag k="addr:street" v="Sternstraße"/>
    <tag k="name" v="Hundesalon und Mode"/>
    <tag k="phone" v="+49 89  21112552"/>
    <tag k="shop" v="hairdresser"/>
    <tag k="website:official" v="http://www.hundesalon-und-mode.de"/>
  </node>
  <node id="291364491" version="12" timestamp="2009-01-15T21:11:43Z" uid="59819" user="Fuss-im-Ohr" changeset="791501" lat="48.140435" lon="11.5913828">
    <tag k="addr:city" v="München"/>
    <tag k="addr:country" v="de"/>
    <tag k="addr:housenumber" v="28"/>
    <tag k="addr:postcode" v="80538"/>
    <tag k="addr:street" v="Sternstraße"/>
    <tag k="name" v="Hundesalon und Mode"/>
    <tag k="phone" v="+49 89 21112552"/>
    <tag k="shop" v="hairdresser"/>
    <tag k="website:official" v="http://www.hundesalon-und-mode.de"/>
  </node>
  <node id="291364491" version="13" timestamp="2009-01-21T20:22:39Z" uid="70696" user="xybot" changeset="822919" lat="48.140435" lon="11.5913828">
    <tag k="addr:city" v="München"/>
    <tag k="addr:country" v="DE"/>
    <tag k="addr:housenumber" v="28"/>
    <tag k="addr:postcode" v="80538"/>
    <tag k="addr:street" v="Sternstraße"/>
    <tag k="created_by" v="xybot"/>
    <tag k="name" v="Hundesalon und Mode"/>
    <tag k="phone" v="+49 89 21112552"/>
    <tag k="shop" v="hairdresser"/>
    <tag k="website:official" v="http://www.hundesalon-und-mode.de"/>
  </node>
  <node id="291364491" version="14" timestamp="2009-01-26T09:33:36Z" uid="59819" user="Fuss-im-Ohr" changeset="838452" lat="48.140435" lon="11.5913828">
    <tag k="addr:city" v="München"/>
    <tag k="addr:country" v="DE"/>
    <tag k="addr:housenumber" v="28"/>
    <tag k="addr:postcode" v="80538"/>
    <tag k="addr:street" v="Sternstraße"/>
    <tag k="name" v="Hundesalon und Mode"/>
    <tag k="phone" v="+49 89 21112552"/>
    <tag k="shop" v="hairdresser"/>
    <tag k="website:official" v="http://www.hundesalon-und-mode.de"/>
  </node>
  <node id="291364491" version="15" timestamp="2010-08-21T08:58:07Z" uid="59819" user="Fuss-im-Ohr" changeset="5549984" lat="48.140435" lon="11.5913828">
    <tag k="addr:city" v="München"/>
    <tag k="addr:country" v="DE"/>
    <tag k="addr:housenumber" v="28"/>
    <tag k="addr:postcode" v="80538"/>
    <tag k="addr:street" v="Sternstraße"/>
    <tag k="name" v="Hundesalon und Mode"/>
    <tag k="phone" v="+49 89 21112552"/>
    <tag k="shop" v="hairdresser"/>
    <tag k="website" v="http://www.hundesalon-und-mode.de"/>
  </node>
  <node id="291364491" version="16" timestamp="2011-09-26T11:38:13Z" uid="38096" user="benelsen" changeset="9401207" lat="48.140367" lon="11.5912233">
    <tag k="addr:city" v="München"/>
    <tag k="addr:country" v="DE"/>
    <tag k="addr:housenumber" v="28"/>
    <tag k="addr:postcode" v="80538"/>
    <tag k="addr:street" v="Sternstraße"/>
    <tag k="name" v="Hundesalon und Mode"/>
    <tag k="phone" v="+49 89 21112552"/>
    <tag k="shop" v="hairdresser"/>
    <tag k="website" v="http://www.hundesalon-und-mode.de"/>
  </node>
  <node id="291364493" version="4" timestamp="2008-09-14T13:35:36Z" uid="6975" user="ulfl" changeset="640534" lat="48.1392472" lon="11.5908727">
    <tag k="name" v="Friseur Cut-4-You"/>
    <tag k="shop" v="hairdresser"/>
    <tag k="street" v="Robert-Koch-Straße. 16"/>
  </node>
  <node id="291364493" version="5" timestamp="2008-09-17T23:43:31Z" uid="59819" user="Fuss-im-Ohr" changeset="658071" lat="48.139121" lon="11.590917">
    <tag k="addr:housenumber" v="16"/>
    <tag k="addr:street" v="Robert-Koch-Straße"/>
    <tag k="amenity" v="barber"/>
    <tag k="name" v="Friseur Cut-4-You"/>
    <tag k="phone" v="+49 89 229543"/>
  </node>
  <node id="291364493" version="6" timestamp="2008-09-21T00:51:05Z" uid="59819" user="Fuss-im-Ohr" changeset="672231" lat="48.139121" lon="11.590917">
    <tag k="addr:city" v="München"/>
    <tag k="addr:housenumber" v="16"/>
    <tag k="addr:postcode" v="80538"/>
    <tag k="addr:street" v="Robert-Koch-Straße"/>
    <tag k="amenity" v="barber"/>
    <tag k="name" v="Friseur Cut-4-You"/>
    <tag k="phone" v="+49 89 229543"/>
  </node>
  <node id="291364493" version="7" timestamp="2008-09-24T03:48:48Z" uid="6975" user="ulfl" changeset="687743" lat="48.139121" lon="11.590917">
    <tag k="addr:city" v="München"/>
    <tag k="addr:housenumber" v="16"/>
    <tag k="addr:postcode" v="80538"/>
    <tag k="addr:street" v="Robert-Koch-Straße"/>
    <tag k="name" v="Friseur Cut-4-You"/>
    <tag k="phone" v="+49 89 229543"/>
    <tag k="shop" v="hairdresser"/>
  </node>
  <node id="291364493" version="8" timestamp="2008-10-23T17:39:04Z" uid="59819" user="Fuss-im-Ohr" changeset="530148" lat="48.1390841" lon="11.5909302">
    <tag k="addr:city" v="München"/>
    <tag k="addr:housenumber" v="16"/>
    <tag k="addr:postcode" v="80538"/>
    <tag k="addr:street" v="Robert-Koch-Straße"/>
    <tag k="name" v="Friseur Cut-4-You"/>
    <tag k="phone" v="+49 89 229543"/>
    <tag k="shop" v="hairdresser"/>
  </node>
  <node id="291364493" version="9" timestamp="2008-12-12T21:20:45Z" uid="8748" user="ToniE" changeset="332961" lat="48.1390841" lon="11.5909302">
    <tag k="addr:city" v="München"/>
    <tag k="addr:country" v="de"/>
    <tag k="addr:housenumber" v="16"/>
    <tag k="addr:postcode" v="80538"/>
    <tag k="addr:street" v="Robert-Koch-Straße"/>
    <tag k="name" v="Friseur Cut-4-You"/>
    <tag k="phone" v="+49 89 229543"/>
    <tag k="shop" v="hairdresser"/>
  </node>
  <node id="291364493" version="10" timestamp="2009-01-21T20:22:40Z" uid="70696" user="xybot" changeset="822919" lat="48.1390841" lon="11.5909302">
    <tag k="addr:city" v="München"/>
    <tag k="addr:country" v="DE"/>
    <tag k="addr:housenumber" v="16"/>
    <tag k="addr:postcode" v="80538"/>
    <tag k="addr:street" v="Robert-Koch-Straße"/>
    <tag k="created_by" v="xybot"/>
    <tag k="name" v="Friseur Cut-4-You"/>
    <tag k="phone" v="+49 89 229543"/>
    <tag k="shop" v="hairdresser"/>
  </node>
  <node id="291364493" version="11" timestamp="2009-01-30T11:58:23Z" uid="59819" user="Fuss-im-Ohr" changeset="855416" lat="48.1390841" lon="11.5909302">
    <tag k="addr:city" v="München"/>
    <tag k="addr:country" v="DE"/>
    <tag k="addr:housenumber" v="16"/>
    <tag k="addr:postcode" v="80538"/>
    <tag k="addr:street" v="Robert-Koch-Straße"/>
    <tag k="name" v="Friseur Cut-4-You"/>
    <tag k="phone" v="+49 89 229543"/>
    <tag k="shop" v="hairdresser"/>
  </node>
  <node id="291364534" version="5" timestamp="2008-09-14T13:35:37Z" uid="6975" user="ulfl" changeset="640534" lat="48.1393937" lon="11.5873735">
    <tag k="addr:housenumber" v="16"/>
    <tag k="addr:street" v="Sankt-Anna-Straße"/>
    <tag k="name" v="Coiffeur Nino"/>
    <tag k="phone" v="+49 89 297102"/>
    <tag k="shop" v="hairdresser"/>
    <tag k="website:official" v="http://coiffeur-nino.de"/>
  </node>
  <node id="291364534" version="6" timestamp="2008-09-15T09:32:03Z" uid="59819" user="Fuss-im-Ohr" changeset="639943" lat="48.1393937" lon="11.5873735">
    <tag k="addr:housenumber" v="16"/>
    <tag k="addr:street" v="Sankt-Anna-Straße"/>
    <tag k="amenity" v="barber"/>
    <tag k="name" v="Coiffeur Nino"/>
    <tag k="phone" v="+49 89 297102"/>
    <tag k="website:official" v="http://coiffeur-nino.de"/>
  </node>
  <node id="291364534" version="7" timestamp="2008-09-21T00:51:03Z" uid="59819" user="Fuss-im-Ohr" changeset="672231" lat="48.1393937" lon="11.5873735">
    <tag k="addr:city" v="München"/>
    <tag k="addr:housenumber" v="16"/>
    <tag k="addr:postcode" v="80538"/>
    <tag k="addr:street" v="Sankt-Anna-Straße"/>
    <tag k="amenity" v="barber"/>
    <tag k="name" v="Coiffeur Nino"/>
    <tag k="phone" v="+49 89 297102"/>
    <tag k="website:official" v="http://coiffeur-nino.de"/>
  </node>
  <node id="291364534" version="8" timestamp="2008-09-24T03:48:49Z" uid="6975" user="ulfl" changeset="687743" lat="48.1393937" lon="11.5873735">
    <tag k="addr:city" v="München"/>
    <tag k="addr:housenumber" v="16"/>
    <tag k="addr:postcode" v="80538"/>
    <tag k="addr:street" v="Sankt-Anna-Straße"/>
    <tag k="name" v="Coiffeur Nino"/>
    <tag k="phone" v="+49 89 297102"/>
    <tag k="shop" v="hairdresser"/>
    <tag k="website:official" v="http://coiffeur-nino.de"/>
  </node>
  <node id="291364534" version="9" timestamp="2008-10-22T23:31:26Z" uid="59819" user="Fuss-im-Ohr" changeset="521915" lat="48.1393633" lon="11.5873556">
    <tag k="addr:city" v="München"/>
    <tag k="addr:housenumber" v="16"/>
    <tag k="addr:postcode" v="80538"/>
    <tag k="addr:street" v="Sankt-Anna-Straße"/>
    <tag k="name" v="Coiffeur Nino"/>
    <tag k="phone" v="+49 89 297102"/>
    <tag k="shop" v="hairdresser"/>
    <tag k="website:official" v="http://coiffeur-nino.de"/>
  </node>
  <node id="291364534" version="10" timestamp="2008-12-12T21:20:53Z" uid="8748" user="ToniE" changeset="332961" lat="48.1393633" lon="11.5873556">
    <tag k="addr:city" v="München"/>
    <tag k="addr:country" v="de"/>
    <tag k="addr:housenumber" v="16"/>
    <tag k="addr:postcode" v="80538"/>
    <tag k="addr:street" v="Sankt-Anna-Straße"/>
    <tag k="name" v="Coiffeur Nino"/>
    <tag k="phone" v="+49 89 297102"/>
    <tag k="shop" v="hairdresser"/>
    <tag k="website:official" v="http://coiffeur-nino.de"/>
  </node>
  <node id="291364534" version="11" timestamp="2009-01-21T20:22:54Z" uid="70696" user="xybot" changeset="822919" lat="48.1393633" lon="11.5873556">
    <tag k="addr:city" v="München"/>
    <tag k="addr:country" v="DE"/>
    <tag k="addr:housenumber" v="16"/>
    <tag k="addr:postcode" v="80538"/>
    <tag k="addr:street" v="Sankt-Anna-Straße"/>
    <tag k="created_by" v="xybot"/>
    <tag k="name" v="Coiffeur Nino"/>
    <tag k="phone" v="+49 89 297102"/>
    <tag k="shop" v="hairdresser"/>
    <tag k="website:official" v="http://coiffeur-nino.de"/>
  </node>
  <node id="291364534" version="12" timestamp="2009-06-08T16:31:16Z" uid="85761" user="klausis" changeset="1460315" lat="48.1393633" lon="11.5873556">
    <tag k="addr:city" v="München"/>
    <tag k="addr:country" v="DE"/>
    <tag k="addr:housenumber" v="16"/>
    <tag k="addr:postcode" v="80538"/>
    <tag k="addr:street" v="Sankt-Anna-Straße"/>
    <tag k="name" v="Coiffeur Nino"/>
    <tag k="phone" v="+49 89 297102"/>
    <tag k="shop" v="hairdresser"/>
    <tag k="website:official" v="http://coiffeur-nino.de"/>
  </node>
  <node id="291364534" version="13" timestamp="2010-08-21T08:58:14Z" uid="59819" user="Fuss-im-Ohr" changeset="5549984" lat="48.1393633" lon="11.5873556">
    <tag k="addr:city" v="München"/>
    <tag k="addr:country" v="DE"/>
    <tag k="addr:housenumber" v="16"/>
    <tag k="addr:postcode" v="80538"/>
    <tag k="addr:street" v="Sankt-Anna-Straße"/>
    <tag k="name" v="Coiffeur Nino"/>
    <tag k="phone" v="+49 89 297102"/>
    <tag k="shop" v="hairdresser"/>
    <tag k="website" v="http://coiffeur-nino.de"/>
  </node>
  <node id="291364534" version="14" timestamp="2010-09-16T07:26:07Z" uid="109029" user="shorty_de" changeset="5792962" lat="48.1393528" lon="11.5873049">
    <tag k="addr:city" v="München"/>
    <tag k="addr:country" v="DE"/>
    <tag k="addr:housenumber" v="16"/>
    <tag k="addr:postcode" v="80538"/>
    <tag k="addr:street" v="Sankt-Anna-Straße"/>
    <tag k="name" v="Coiffeur Nino"/>
    <tag k="phone" v="+49 89 297102"/>
    <tag k="shop" v="hairdresser"/>
    <tag k="website" v="http://coiffeur-nino.de"/>
  </node>
  <node id="291364920" version="2" timestamp="2010-04-05T16:22:24Z" uid="163746" user="anti_bot-nonsense" changeset="4334877" lat="52.6398354" lon="19.0593093"/>
  <node id="291364920" version="3" timestamp="2011-10-30T01:36:30Z" uid="467703" user="Zbigniew Czernik" changeset="9689983" lat="52.6398715" lon="19.0588014"/>
  <node id="291364925" version="2" timestamp="2010-04-05T16:29:17Z" uid="163746" user="anti_bot-nonsense" changeset="4334877" lat="52.639206" lon="19.0638237"/>
  <node id="291365357" version="6" timestamp="2008-09-14T13:35:38Z" uid="6975" user="ulfl" changeset="640534" lat="48.1393704" lon="11.5869762">
    <tag k="addr:housenumber" v="11"/>
    <tag k="addr:street" v="Sankt-Anna-Straße"/>
    <tag k="name" v="Gaby&amp;apos;s Haarstudio"/>
    <tag k="phone" v="+49 89 21112424"/>
    <tag k="shop" v="hairdresser"/>
    <tag k="website:official" v="http://www.gabyshaarstudio.de"/>
  </node>
  <node id="291365357" version="7" timestamp="2008-09-15T09:32:04Z" uid="59819" user="Fuss-im-Ohr" changeset="639943" lat="48.1393704" lon="11.5869762">
    <tag k="addr:housenumber" v="11"/>
    <tag k="addr:street" v="Sankt-Anna-Straße"/>
    <tag k="amenity" v="barber"/>
    <tag k="name" v="Gaby&amp;apos;s Haarstudio"/>
    <tag k="phone" v="+49 89 21112424"/>
    <tag k="website:official" v="http://www.gabyshaarstudio.de"/>
  </node>
  <node id="291365357" version="8" timestamp="2008-09-17T23:42:52Z" uid="59819" user="Fuss-im-Ohr" changeset="658071" lat="48.1394103" lon="11.5869416">
    <tag k="addr:housenumber" v="11"/>
    <tag k="addr:street" v="Sankt-Anna-Straße"/>
    <tag k="amenity" v="barber"/>
    <tag k="name" v="Gaby&amp;apos;s Haarstudio"/>
    <tag k="phone" v="+49 89 21112424"/>
    <tag k="website:official" v="http://www.gabyshaarstudio.de"/>
  </node>
  <node id="291365357" version="9" timestamp="2008-09-21T00:50:35Z" uid="59819" user="Fuss-im-Ohr" changeset="672231" lat="48.1394103" lon="11.5869416">
    <tag k="addr:city" v="München"/>
    <tag k="addr:housenumber" v="11"/>
    <tag k="addr:postcode" v="80538"/>
    <tag k="addr:street" v="Sankt-Anna-Straße"/>
    <tag k="amenity" v="barber"/>
    <tag k="name" v="Gaby&amp;apos;s Haarstudio"/>
    <tag k="phone" v="+49 89 21112424"/>
    <tag k="website:official" v="http://www.gabyshaarstudio.de"/>
  </node>
  <node id="291365357" version="10" timestamp="2008-09-24T03:48:49Z" uid="6975" user="ulfl" changeset="687743" lat="48.1394103" lon="11.5869416">
    <tag k="addr:city" v="München"/>
    <tag k="addr:housenumber" v="11"/>
    <tag k="addr:postcode" v="80538"/>
    <tag k="addr:street" v="Sankt-Anna-Straße"/>
    <tag k="name" v="Gaby&amp;apos\ss Haarstudio"/>
    <tag k="phone" v="+49 89 21112424"/>
    <tag k="shop" v="hairdresser"/>
    <tag k="website:official" v="http://www.gabyshaarstudio.de"/>
  </node>
  <node id="291365357" version="11" timestamp="2008-10-22T22:52:56Z" uid="59819" user="Fuss-im-Ohr" changeset="521915" lat="48.1394461" lon="11.5868911">
    <tag k="addr:city" v="München"/>
    <tag k="addr:housenumber" v="11"/>
    <tag k="addr:postcode" v="80538"/>
    <tag k="addr:street" v="Sankt-Anna-Straße"/>
    <tag k="name" v="Gaby&amp;apos\ss Haarstudio"/>
    <tag k="phone" v="+49 89 21112424"/>
    <tag k="shop" v="hairdresser"/>
    <tag k="website:official" v="http://www.gabyshaarstudio.de"/>
  </node>
  <node id="291365357" version="12" timestamp="2008-12-12T21:20:22Z" uid="8748" user="ToniE" changeset="332961" lat="48.1394461" lon="11.5868911">
    <tag k="addr:city" v="München"/>
    <tag k="addr:country" v="de"/>
    <tag k="addr:housenumber" v="11"/>
    <tag k="addr:postcode" v="80538"/>
    <tag k="addr:street" v="Sankt-Anna-Straße"/>
    <tag k="name" v="Gaby&amp;apos\ss Haarstudio"/>
    <tag k="phone" v="+49 89 21112424"/>
    <tag k="shop" v="hairdresser"/>
    <tag k="website:official" v="http://www.gabyshaarstudio.de"/>
  </node>
  <node id="291365357" version="13" timestamp="2009-01-21T20:23:06Z" uid="70696" user="xybot" changeset="822919" lat="48.1394461" lon="11.5868911">
    <tag k="addr:city" v="München"/>
    <tag k="addr:country" v="DE"/>
    <tag k="addr:housenumber" v="11"/>
    <tag k="addr:postcode" v="80538"/>
    <tag k="addr:street" v="Sankt-Anna-Straße"/>
    <tag k="created_by" v="xybot"/>
    <tag k="name" v="Gaby&amp;apos\ss Haarstudio"/>
    <tag k="phone" v="+49 89 21112424"/>
    <tag k="shop" v="hairdresser"/>
    <tag k="website:official" v="http://www.gabyshaarstudio.de"/>
  </node>
  <node id="291365357" version="14" timestamp="2009-02-02T11:20:28Z" uid="70696" user="xybot" changeset="50224" lat="48.1394461" lon="11.5868911">
    <tag k="addr:city" v="München"/>
    <tag k="addr:country" v="DE"/>
    <tag k="addr:housenumber" v="11"/>
    <tag k="addr:postcode" v="80538"/>
    <tag k="addr:street" v="Sankt-Anna-Straße"/>
    <tag k="created_by" v="xybot"/>
    <tag k="name" v="Gaby&amp;apos;s Haarstudio"/>
    <tag k="phone" v="+49 89 21112424"/>
    <tag k="shop" v="hairdresser"/>
    <tag k="website:official" v="http://www.gabyshaarstudio.de"/>
  </node>
  <node id="291365357" version="15" timestamp="2009-02-03T12:22:38Z" uid="70696" user="xybot" changeset="109763" lat="48.1394461" lon="11.5868911">
    <tag k="addr:city" v="München"/>
    <tag k="addr:country" v="DE"/>
    <tag k="addr:housenumber" v="11"/>
    <tag k="addr:postcode" v="80538"/>
    <tag k="addr:street" v="Sankt-Anna-Straße"/>
    <tag k="name" v="Gaby&apos;s Haarstudio"/>
    <tag k="phone" v="+49 89 21112424"/>
    <tag k="shop" v="hairdresser"/>
    <tag k="website:official" v="http://www.gabyshaarstudio.de"/>
  </node>
  <node id="291365357" version="16" timestamp="2010-08-21T08:58:07Z" uid="59819" user="Fuss-im-Ohr" changeset="5549984" lat="48.1394461" lon="11.5868911">
    <tag k="addr:city" v="München"/>
    <tag k="addr:country" v="DE"/>
    <tag k="addr:housenumber" v="11"/>
    <tag k="addr:postcode" v="80538"/>
    <tag k="addr:street" v="Sankt-Anna-Straße"/>
    <tag k="name" v="Gaby&apos;s Haarstudio"/>
    <tag k="phone" v="+49 89 21112424"/>
    <tag k="shop" v="hairdresser"/>
    <tag k="website" v="http://www.gabyshaarstudio.de"/>
  </node>
  <node id="291365357" version="17" timestamp="2010-09-16T07:26:13Z" uid="109029" user="shorty_de" changeset="5792962" lat="48.1394596" lon="11.5868598">
    <tag k="addr:city" v="München"/>
    <tag k="addr:country" v="DE"/>
    <tag k="addr:housenumber" v="11"/>
    <tag k="addr:postcode" v="80538"/>
    <tag k="addr:street" v="Sankt-Anna-Straße"/>
    <tag k="name" v="Gaby&apos;s Haarstudio"/>
    <tag k="phone" v="+49 89 21112424"/>
    <tag k="shop" v="hairdresser"/>
    <tag k="website" v="http://www.gabyshaarstudio.de"/>
  </node>
  <node id="291367468" version="2" timestamp="2009-09-22T15:39:25Z" uid="58091" user="Andreas M" changeset="2572856" lat="48.2347138" lon="16.2863782"/>
  <node id="291367468" version="3" timestamp="2011-07-03T09:00:59Z" uid="473925" user="caigner" changeset="8615850" lat="48.2347273" lon="16.2863574"/>
  <node id="291367470" version="2" timestamp="2009-09-22T15:39:25Z" uid="58091" user="Andreas M" changeset="2572856" lat="48.2348134" lon="16.2861835"/>
  <node id="291367470" version="3" timestamp="2011-07-03T09:00:59Z" uid="473925" user="caigner" changeset="8615850" lat="48.2349346" lon="16.286174"/>
  <node id="291367471" version="2" timestamp="2009-09-22T15:39:25Z" uid="58091" user="Andreas M" changeset="2572856" lat="48.2349393" lon="16.2859372"/>
  <node id="291367471" version="3" timestamp="2011-07-03T09:01:01Z" uid="473925" user="caigner" changeset="8615850" lat="48.2350703" lon="16.2859031"/>
  <node id="291367473" version="2" timestamp="2009-09-22T15:39:25Z" uid="58091" user="Andreas M" changeset="2572856" lat="48.2350521" lon="16.2857168"/>
  <node id="291367473" version="3" timestamp="2011-07-03T09:00:59Z" uid="473925" user="caigner" changeset="8615850" lat="48.2351607" lon="16.2856306"/>
  <node id="291367473" version="4" timestamp="2011-07-08T09:31:16Z" uid="473925" user="caigner" changeset="8664404" lat="48.2351902" lon="16.2855376"/>
  <node id="291368015" version="3" timestamp="2009-09-22T15:39:25Z" uid="58091" user="Andreas M" changeset="2572856" lat="48.2346373" lon="16.2865277"/>
  <node id="291368015" version="4" timestamp="2011-07-03T09:01:00Z" uid="473925" user="caigner" changeset="8615850" lat="48.2346017" lon="16.2864058"/>
  <node id="291369105" version="2" timestamp="2009-09-22T15:39:25Z" uid="58091" user="Andreas M" changeset="2572856" lat="48.2347793" lon="16.2857441"/>
  <node id="291369105" version="3" timestamp="2011-07-03T09:00:59Z" uid="473925" user="caigner" changeset="8615850" lat="48.2348619" lon="16.2856843"/>
  <node id="291369105" version="4" timestamp="2011-07-08T09:31:16Z" uid="473925" user="caigner" changeset="8664404" lat="48.2347282" lon="16.2855459"/>
  <node id="291369253" version="2" timestamp="2009-07-28T16:31:23Z" uid="59758" user="rendle" changeset="1966832" lat="27.0879846" lon="56.0645243"/>
  <node id="291369254" version="2" timestamp="2009-07-28T16:31:23Z" uid="59758" user="rendle" changeset="1966832" lat="27.0879999" lon="56.0643784"/>
  <node id="291369255" version="2" timestamp="2009-07-28T16:31:24Z" uid="59758" user="rendle" changeset="1966832" lat="27.0878623" lon="56.0642926"/>
  <node id="291369256" version="2" timestamp="2009-07-28T16:31:21Z" uid="59758" user="rendle" changeset="1966832" lat="27.087358" lon="56.0493151"/>
  <node id="291369772" version="2" timestamp="2009-09-22T15:39:25Z" uid="58091" user="Andreas M" changeset="2572856" lat="48.2351305" lon="16.2870038"/>
  <node id="291369772" version="3" timestamp="2011-07-03T09:01:00Z" uid="473925" user="caigner" changeset="8615850" lat="48.2351504" lon="16.2870125"/>
  <node id="291369773" version="2" timestamp="2009-09-22T15:39:25Z" uid="58091" user="Andreas M" changeset="2572856" lat="48.2350136" lon="16.2869961"/>
  <node id="291369773" version="3" timestamp="2011-07-03T09:00:58Z" uid="473925" user="caigner" changeset="8615850" lat="48.2350142" lon="16.2870179"/>
  <node id="291369774" version="2" timestamp="2009-09-22T15:39:25Z" uid="58091" user="Andreas M" changeset="2572856" lat="48.2349258" lon="16.2869618"/>
  <node id="291369774" version="3" timestamp="2011-07-03T09:00:59Z" uid="473925" user="caigner" changeset="8615850" lat="48.2349389" lon="16.2869895"/>
</osm>
