<?xml version='1.0' encoding='UTF-8'?>
<osm version="0.6" generator="libosmium/2.20.0">
  <node id="292510480" version="2" timestamp="2011-01-03T15:19:37Z" uid="65847" user="LKK" changeset="6850827" lat="42.71244" lon="23.264557"/>
  <node id="292510827" version="3" timestamp="2008-10-11T17:57:14Z" uid="33382" user="de_muur" changeset="259750" lat="52.9109993" lon="8.8098999"/>
  <node id="292510827" version="4" timestamp="2010-03-29T14:53:28Z" uid="56809" user="DarkDirk" changeset="4267873" lat="52.9109993" lon="8.8098999"/>
  <node id="292510827" version="5" timestamp="2011-07-31T08:10:57Z" uid="39330" user="chehrlic" changeset="8878355" lat="52.9109993" lon="8.8098999"/>
  <node id="292511232" version="2" timestamp="2008-09-14T16:30:56Z" uid="6975" user="ulfl" changeset="640534" lat="51.2001336" lon="6.6999371">
    <tag k="brand" v="BMW"/>
    <tag k="fon" v="+49 (2131) 71872-0‎"/>
    <tag k="name" v="BMW Autohaus Timmermanns"/>
    <tag k="shop" v="car"/>
  </node>
  <node id="292511232" version="3" timestamp="2008-12-26T21:19:29Z" uid="64482" user="Claas Augner" changeset="618984" lat="51.2001336" lon="6.6999371">
    <tag k="brand" v="BMW"/>
    <tag k="name" v="BMW Autohaus Timmermanns"/>
    <tag k="phone" v="+49 (2131) 71872-0‎"/>
    <tag k="shop" v="car"/>
  </node>
  <node id="292511232" version="4" timestamp="2010-07-29T19:27:24Z" uid="141931" user="Sharlin" changeset="5349495" lat="51.2001336" lon="6.6999371">
    <tag k="brand" v="BMW"/>
    <tag k="name" v="BMW Autohaus Timmermanns"/>
    <tag k="phone" v="+49 (2131) 71872-0‎"/>
    <tag k="shop" v="car"/>
  </node>
  <node id="292512028" version="2" timestamp="2008-09-14T16:30:57Z" uid="6975" user="ulfl" changeset="640534" lat="51.2007413" lon="6.7014477">
    <tag k="brand" v="Peugot"/>
    <tag k="fon" v="+49 (2131) 1248-0"/>
    <tag k="name" v="Peugot Niederrhein"/>
    <tag k="shop" v="car"/>
  </node>
  <node id="292512028" version="3" timestamp="2008-12-26T21:19:32Z" uid="64482" user="Claas Augner" changeset="618984" lat="51.2007413" lon="6.7014477">
    <tag k="brand" v="Peugot"/>
    <tag k="name" v="Peugot Niederrhein"/>
    <tag k="phone" v="+49 (2131) 1248-0"/>
    <tag k="shop" v="car"/>
  </node>
  <node id="292512028" version="4" timestamp="2010-08-01T13:03:03Z" uid="36694" user="neufeind" changeset="5370778" lat="51.2007413" lon="6.7014477">
    <tag k="addr:city" v="Neuss"/>
    <tag k="addr:housenumber" v="41-43"/>
    <tag k="addr:postcode" v="41460"/>
    <tag k="addr:street" v="Hammer Landstraße"/>
    <tag k="brand" v="Peugeot"/>
    <tag k="fax" v="+49 2131 1248299"/>
    <tag k="name" v="Peugeot Niederrhein"/>
    <tag k="phone" v="+49 2131 12480"/>
    <tag k="shop" v="car"/>
    <tag k="website" v="http://www.peugeothaendler.de/site/startseite.php?standortnr=487503"/>
  </node>
  <node id="292512028" version="5" timestamp="2011-10-29T17:57:20Z" uid="141931" user="Sharlin" changeset="9686976" lat="51.2007413" lon="6.7014477"/>
  <node id="292512566" version="2" timestamp="2008-09-14T16:30:56Z" uid="6975" user="ulfl" changeset="640534" lat="51.2020428" lon="6.7046836">
    <tag k="brand" v="Volvo"/>
    <tag k="fon" v="+49 (2131) 9227-0‎"/>
    <tag k="name" v="Auto Centrum Moll"/>
    <tag k="shop" v="car"/>
  </node>
  <node id="292512566" version="3" timestamp="2008-12-26T21:19:30Z" uid="64482" user="Claas Augner" changeset="618984" lat="51.2020428" lon="6.7046836">
    <tag k="brand" v="Volvo"/>
    <tag k="name" v="Auto Centrum Moll"/>
    <tag k="phone" v="+49 (2131) 9227-0‎"/>
    <tag k="shop" v="car"/>
  </node>
  <node id="292512566" version="4" timestamp="2010-02-13T18:03:30Z" uid="141931" user="Sharlin" changeset="3867048" lat="51.2020428" lon="6.7046836">
    <tag k="addr:city" v="Neuss"/>
    <tag k="addr:country" v="DE"/>
    <tag k="addr:housenumber" v="47-49"/>
    <tag k="addr:postcode" v="41460"/>
    <tag k="addr:street" v="Hammer Landstraße"/>
    <tag k="brand" v="Land Rover;Volvo"/>
    <tag k="fax" v="+49 2131 9227 44"/>
    <tag k="name" v="Auto Centrum Moll"/>
    <tag k="operator" v="Moll GmbH &amp; Co. KG"/>
    <tag k="phone" v="+49 2131 9227 0‎"/>
    <tag k="shop" v="car"/>
  </node>
  <node id="292512566" version="5" timestamp="2010-08-01T13:03:03Z" uid="36694" user="neufeind" changeset="5370778" lat="51.2020428" lon="6.7046836">
    <tag k="addr:city" v="Neuss"/>
    <tag k="addr:country" v="DE"/>
    <tag k="addr:housenumber" v="47-49"/>
    <tag k="addr:postcode" v="41460"/>
    <tag k="addr:street" v="Hammer Landstraße"/>
    <tag k="brand" v="Land Rover;Volvo"/>
    <tag k="fax" v="+49 2131 9227 44"/>
    <tag k="name" v="Auto Centrum Moll"/>
    <tag k="operator" v="Moll GmbH &amp; Co. KG"/>
    <tag k="phone" v="+49 2131 9227 0‎"/>
    <tag k="shop" v="car"/>
    <tag k="website" v="http://moll.de/"/>
  </node>
  <node id="292512566" version="6" timestamp="2010-08-02T10:32:47Z" uid="81244" user="rurseekatze" changeset="5379133" lat="51.2020428" lon="6.7046836">
    <tag k="addr:city" v="Neuss"/>
    <tag k="addr:country" v="DE"/>
    <tag k="addr:housenumber" v="47-49"/>
    <tag k="addr:postcode" v="41460"/>
    <tag k="addr:street" v="Hammer Landstraße"/>
    <tag k="brand" v="Land Rover;Volvo"/>
    <tag k="fax" v="+49-2131-922744"/>
    <tag k="name" v="Auto Centrum Moll"/>
    <tag k="operator" v="Moll GmbH &amp; Co. KG"/>
    <tag k="phone" v="+49-2131-92270‎"/>
    <tag k="shop" v="car"/>
    <tag k="website" v="http://moll.de/"/>
  </node>
  <node id="292512566" version="7" timestamp="2011-06-30T14:21:31Z" uid="81244" user="rurseekatze" changeset="8591156" lat="51.2020428" lon="6.7046836"/>
  <node id="292512874" version="2" timestamp="2011-01-03T15:19:35Z" uid="65847" user="LKK" changeset="6850827" lat="42.712376" lon="23.264384"/>
  <node id="292513400" version="2" timestamp="2011-01-03T15:19:37Z" uid="65847" user="LKK" changeset="6850827" lat="42.712346" lon="23.264467"/>
  <node id="292515134" version="2" timestamp="2011-01-03T15:19:37Z" uid="65847" user="LKK" changeset="6850827" lat="42.712378" lon="23.264386"/>
  <node id="292515144" version="2" timestamp="2008-10-16T12:40:49Z" uid="49111" user="Markus B" changeset="369248" lat="49.354909" lon="11.5003132"/>
  <node id="292515144" version="3" timestamp="2008-10-23T19:21:16Z" uid="62236" user="Paulchen Panther" changeset="539141" lat="49.354909" lon="11.5003132"/>
  <node id="292515144" version="4" timestamp="2008-10-23T19:24:04Z" uid="62236" user="Paulchen Panther" changeset="539141" lat="49.354909" lon="11.5003132"/>
  <node id="292515144" version="5" timestamp="2009-04-10T21:47:28Z" uid="49111" user="Markus B" changeset="386726" lat="49.354909" lon="11.5003132"/>
  <node id="292515379" version="2" timestamp="2008-10-16T12:40:50Z" uid="49111" user="Markus B" changeset="369248" lat="49.3560775" lon="11.4986739"/>
  <node id="292515379" version="3" timestamp="2008-10-23T19:21:16Z" uid="62236" user="Paulchen Panther" changeset="539141" lat="49.3560775" lon="11.4986739"/>
  <node id="292515379" version="4" timestamp="2008-10-23T19:24:04Z" uid="62236" user="Paulchen Panther" changeset="539141" lat="49.3560775" lon="11.4986739"/>
  <node id="292515379" version="5" timestamp="2009-04-10T21:47:28Z" uid="49111" user="Markus B" changeset="386726" lat="49.3560775" lon="11.4986739"/>
  <node id="292516378" version="2" timestamp="2011-01-03T15:19:37Z" uid="65847" user="LKK" changeset="6850827" lat="42.712434" lon="23.264551"/>
  <node id="292517054" version="2" timestamp="2011-01-03T15:19:36Z" uid="65847" user="LKK" changeset="6850827" lat="42.712529" lon="23.264103"/>
  <node id="292517236" version="3" timestamp="2008-12-01T20:27:03Z" uid="6269" user="Mueck" changeset="34612" lat="48.0586124" lon="7.834488"/>
  <node id="292517236" version="4" timestamp="2009-01-24T12:14:20Z" uid="11374" user="q_un_go" changeset="833051" lat="48.0586124" lon="7.834488"/>
  <node id="292518856" version="2" timestamp="2011-01-03T15:19:37Z" uid="65847" user="LKK" changeset="6850827" lat="42.712248" lon="23.264913"/>
  <node id="292519168" version="3" timestamp="2010-01-16T18:02:58Z" uid="9581" user="Lobelt" changeset="3634022" lat="50.7807146" lon="10.424196">
    <tag k="power" v="tower"/>
    <tag k="ref" v="176"/>
    <tag k="source" v="interpolation"/>
  </node>
  <node id="292519168" version="4" timestamp="2010-06-07T08:06:39Z" uid="13203" user="bahnpirat" changeset="4925656" lat="50.7807146" lon="10.424196">
    <tag k="fixme" v="Mastnummer mit ref= eintragen und mit source=survey bestätigen"/>
    <tag k="power" v="tower"/>
    <tag k="ref" v="176"/>
    <tag k="source" v="interpolation"/>
  </node>
  <node id="292519168" version="5" timestamp="2010-12-15T13:56:48Z" uid="118011" user="TheoryBug" changeset="6667889" lat="50.7807667" lon="10.424172">
    <tag k="power" v="tower"/>
    <tag k="ref" v="176"/>
    <tag k="source" v="interpolation"/>
  </node>
  <node id="292519548" version="2" timestamp="2011-01-03T15:19:36Z" uid="65847" user="LKK" changeset="6850827" lat="42.712152" lon="23.264827"/>
</osm>
