<?xml version='1.0' encoding='UTF-8'?>
<osm version="0.6" generator="libosmium/2.20.0">
  <node id="293305174" version="2" timestamp="2009-04-16T22:31:22Z" uid="6975" user="ulfl" changeset="598814" lat="44.218861" lon="-76.6439494">
    <tag k="name" v="The Beer Store"/>
    <tag k="shop" v="alcohol"/>
  </node>
  <node id="293305174" version="3" timestamp="2012-01-01T00:12:00Z" uid="1679" user="andrewpmk" changeset="10258640" lat="44.2189196" lon="-76.643972">
    <tag k="name" v="The Beer Store"/>
    <tag k="shop" v="alcohol"/>
  </node>
  <node id="293305187" version="2" timestamp="2009-04-16T22:31:11Z" uid="6975" user="ulfl" changeset="598814" lat="44.2193239" lon="-76.6448231">
    <tag k="name" v="LCBO"/>
    <tag k="shop" v="alcohol"/>
  </node>
  <node id="293305190" version="2" timestamp="2008-12-20T13:30:53Z" uid="6975" user="ulfl" changeset="499085" lat="44.2191597" lon="-76.6449182">
    <tag k="name" v="Rogers&apos; Family Hairstyling and Esthetics"/>
    <tag k="shop" v="hairdresser"/>
  </node>
  <node id="293305195" version="2" timestamp="2008-09-24T04:03:24Z" uid="6975" user="ulfl" changeset="687743" lat="44.2190025" lon="-76.6456349">
    <tag k="amenity" v="hospital"/>
    <tag k="name" v="Amherst Medical Centre"/>
  </node>
  <node id="293305334" version="2" timestamp="2008-12-14T11:54:34Z" uid="6975" user="ulfl" changeset="366940" lat="44.2374088" lon="-76.5921437">
    <tag k="amenity" v="bench"/>
    <tag k="highway" v="bus_stop"/>
  </node>
  <node id="293305334" version="3" timestamp="2009-08-05T05:16:50Z" uid="1679" user="andrewpmk" changeset="2041807" lat="44.2374088" lon="-76.5921437">
    <tag k="amenity" v="bench"/>
    <tag k="highway" v="bus_stop"/>
    <tag k="operator" v="Kingston Transit"/>
    <tag k="shelter" v="no"/>
  </node>
  <node id="293306943" version="2" timestamp="2008-09-14T13:09:15Z" uid="6975" user="ulfl" changeset="640534" lat="24.8107687" lon="67.0580763">
    <tag k="amenity" v="place_of_worship"/>
    <tag k="denomination" v="sunni"/>
    <tag k="ref" v="Sultan Masjid"/>
    <tag k="religion" v="muslim"/>
  </node>
  <node id="293306943" version="3" timestamp="2008-11-29T06:16:27Z" uid="82330" user="khalidsh" changeset="811063" lat="24.8123009" lon="67.0562158">
    <tag k="amenity" v="place_of_worship"/>
    <tag k="created_by" v="Potlatch 0.10f"/>
    <tag k="denomination" v="sunni"/>
    <tag k="ref" v="Sultan Masjid"/>
    <tag k="religion" v="muslim"/>
  </node>
  <node id="293306943" version="4" timestamp="2009-09-02T06:34:04Z" uid="76911" user="drawab" changeset="2345144" lat="24.8108986" lon="67.0581835">
    <tag k="amenity" v="place_of_worship"/>
    <tag k="created_by" v="Potlatch 0.10f"/>
    <tag k="denomination" v="sunni"/>
    <tag k="ref" v="Sultan Masjid"/>
    <tag k="religion" v="muslim"/>
  </node>
  <node id="293309425" version="3" timestamp="2008-10-23T05:32:30Z" uid="6975" user="ulfl" changeset="525020" lat="43.6552921" lon="-79.3812813">
    <tag k="name" v="Sears"/>
    <tag k="shop" v="department_store"/>
  </node>
  <node id="293309425" version="4" timestamp="2009-05-22T17:33:21Z" uid="1679" user="andrewpmk" changeset="1288575" lat="43.6552932" lon="-79.3812848">
    <tag k="addr:city" v="Toronto"/>
    <tag k="addr:housenumber" v="290"/>
    <tag k="addr:postcode" v="M5B 1C8"/>
    <tag k="addr:state" v="ON"/>
    <tag k="addr:street" v="Yonge Street"/>
    <tag k="name" v="Sears Yonge &amp; Dundas"/>
    <tag k="operator" v="Sears "/>
    <tag k="shop" v="department_store"/>
    <tag k="telephone" v="14163497111"/>
  </node>
  <node id="293309425" version="5" timestamp="2009-05-22T17:33:29Z" uid="1679" user="andrewpmk" changeset="1288575" lat="43.6552932" lon="-79.3812848">
    <tag k="addr:city" v="Toronto"/>
    <tag k="addr:housenumber" v="290"/>
    <tag k="addr:postcode" v="M5B 1C8"/>
    <tag k="addr:state" v="ON"/>
    <tag k="addr:street" v="Yonge Street"/>
    <tag k="name" v="Sears Yonge &amp; Dundas"/>
    <tag k="operator" v="Sears "/>
    <tag k="ref" v="01110"/>
    <tag k="shop" v="department_store"/>
    <tag k="telephone" v="14163497111"/>
  </node>
  <node id="293309425" version="6" timestamp="2009-05-22T17:33:48Z" uid="1679" user="andrewpmk" changeset="1288575" lat="43.6552932" lon="-79.3812848">
    <tag k="addr:city" v="Toronto"/>
    <tag k="addr:housenumber" v="290"/>
    <tag k="addr:postcode" v="M5B 1C8"/>
    <tag k="addr:state" v="ON"/>
    <tag k="addr:street" v="Yonge Street"/>
    <tag k="gst_number" v="104765698"/>
    <tag k="name" v="Sears Yonge &amp; Dundas"/>
    <tag k="operator" v="Sears "/>
    <tag k="ref" v="01110"/>
    <tag k="shop" v="department_store"/>
    <tag k="telephone" v="14163497111"/>
  </node>
  <node id="293309425" version="7" timestamp="2009-07-30T08:53:08Z" uid="70696" user="xybot" changeset="1982204" lat="43.6552932" lon="-79.3812848">
    <tag k="addr:city" v="Toronto"/>
    <tag k="addr:housenumber" v="290"/>
    <tag k="addr:postcode" v="M5B 1C8"/>
    <tag k="addr:state" v="ON"/>
    <tag k="addr:street" v="Yonge Street"/>
    <tag k="gst_number" v="104765698"/>
    <tag k="name" v="Sears Yonge &amp; Dundas"/>
    <tag k="operator" v="Sears"/>
    <tag k="ref" v="01110"/>
    <tag k="shop" v="department_store"/>
    <tag k="telephone" v="14163497111"/>
  </node>
  <node id="293309425" version="8" timestamp="2010-08-08T01:48:45Z" uid="1679" user="andrewpmk" changeset="5429252" lat="43.6552932" lon="-79.3812848">
    <tag k="addr:city" v="Toronto"/>
    <tag k="addr:housenumber" v="290"/>
    <tag k="addr:postcode" v="M5B 1C8"/>
    <tag k="addr:state" v="ON"/>
    <tag k="addr:street" v="Yonge Street"/>
    <tag k="gst_number" v="104765698"/>
    <tag k="name" v="Sears Yonge &amp; Dundas"/>
    <tag k="operator" v="Sears"/>
    <tag k="phone" v="14163497111"/>
    <tag k="ref" v="01110"/>
    <tag k="shop" v="department_store"/>
  </node>
  <node id="293309425" version="9" timestamp="2010-11-11T03:23:09Z" uid="290680" user="wheelmap_visitor" changeset="6340864" lat="43.6552932" lon="-79.3812848">
    <tag k="addr:city" v="Toronto"/>
    <tag k="addr:housenumber" v="290"/>
    <tag k="addr:postcode" v="M5B 1C8"/>
    <tag k="addr:state" v="ON"/>
    <tag k="addr:street" v="Yonge Street"/>
    <tag k="gst_number" v="104765698"/>
    <tag k="name" v="Sears Yonge &amp; Dundas"/>
    <tag k="operator" v="Sears"/>
    <tag k="phone" v="14163497111"/>
    <tag k="ref" v="01110"/>
    <tag k="shop" v="department_store"/>
    <tag k="wheelchair" v="yes"/>
  </node>
</osm>
