<?xml version='1.0' encoding='UTF-8'?>
<osm version="0.6" generator="libosmium/2.20.0">
  <node id="293360018" version="1" timestamp="2008-09-03T10:25:07Z" uid="30632" user="antblant" changeset="515077" lat="53.4711229" lon="15.3365227">
    <tag k="name" v="Chociwel"/>
    <tag k="railway" v="station"/>
  </node>
  <node id="293360021" version="1" timestamp="2008-09-03T10:25:07Z" uid="30632" user="antblant" changeset="515077" lat="53.5564748" lon="15.5296594">
    <tag k="name" v="Runowo Pomorskie"/>
    <tag k="railway" v="station"/>
  </node>
  <node id="293360029" version="1" timestamp="2008-09-03T10:25:07Z" uid="30632" user="antblant" changeset="515077" lat="53.6368022" lon="15.6278653">
    <tag k="name" v="Łobez"/>
    <tag k="railway" v="station"/>
  </node>
  <node id="293360030" version="1" timestamp="2008-09-03T10:25:08Z" uid="30632" user="antblant" changeset="515077" lat="53.8697084" lon="15.9527427">
    <tag k="name" v="Rąbino"/>
    <tag k="railway" v="station"/>
  </node>
  <node id="293360031" version="1" timestamp="2008-09-03T10:25:08Z" uid="30632" user="antblant" changeset="515077" lat="54.0104068" lon="15.9777306">
    <tag k="name" v="Białogard"/>
    <tag k="railway" v="station"/>
  </node>
  <node id="293360032" version="1" timestamp="2008-09-03T10:25:08Z" uid="30632" user="antblant" changeset="515077" lat="54.1910717" lon="16.1698009">
    <tag k="name" v="Koszalin"/>
    <tag k="railway" v="station"/>
  </node>
  <node id="293360034" version="1" timestamp="2008-09-03T10:25:08Z" uid="30632" user="antblant" changeset="515077" lat="54.3555927" lon="16.6709893">
    <tag k="name" v="Sławno"/>
    <tag k="railway" v="station"/>
  </node>
  <node id="293360036" version="1" timestamp="2008-09-03T10:25:08Z" uid="30632" user="antblant" changeset="515077" lat="54.4681407" lon="17.0165023">
    <tag k="name" v="Słupsk"/>
    <tag k="railway" v="station"/>
  </node>
  <node id="293360036" version="2" timestamp="2011-02-21T14:12:25Z" uid="383006" user="legolas1293" changeset="7354108" lat="54.4681484" lon="17.0164134">
    <tag k="name" v="Słupsk"/>
    <tag k="railway" v="station"/>
  </node>
  <node id="293360039" version="1" timestamp="2008-09-03T10:25:08Z" uid="30632" user="antblant" changeset="515077" lat="54.5327312" lon="17.751387">
    <tag k="name" v="Lębork"/>
    <tag k="railway" v="station"/>
  </node>
  <node id="293360039" version="2" timestamp="2008-09-22T15:28:32Z" uid="30632" user="antblant" changeset="680284" lat="54.5327312" lon="17.751387">
    <tag k="name" v="Lębork"/>
    <tag k="railway" v="station"/>
  </node>
  <node id="293360039" version="3" timestamp="2008-11-19T14:13:32Z" uid="42123" user="Ropino" changeset="769428" lat="54.5310537" lon="17.7528119"/>
  <node id="293360039" version="4" timestamp="2010-01-30T15:05:30Z" uid="91056" user="Yarl" changeset="3751711" lat="54.5310812" lon="17.752883"/>
  <node id="293360041" version="1" timestamp="2008-09-03T10:25:09Z" uid="30632" user="antblant" changeset="515077" lat="54.6056792" lon="18.2304291">
    <tag k="name" v="Wejherowo"/>
    <tag k="railway" v="station"/>
  </node>
  <node id="293360041" version="2" timestamp="2009-08-17T20:38:41Z" uid="54910" user="Marcin Floryan" changeset="2183153" lat="54.6056792" lon="18.2305201">
    <tag k="name" v="Wejherowo"/>
    <tag k="railway" v="station"/>
  </node>
  <node id="293360041" version="3" timestamp="2010-11-26T18:56:11Z" uid="91056" user="Yarl" changeset="6464262" lat="54.6055953" lon="18.2309304">
    <tag k="name" v="Wejherowo"/>
    <tag k="railway" v="station"/>
  </node>
  <node id="293360776" version="2" timestamp="2008-09-29T23:53:58Z" uid="1066" user="pavel" changeset="720263" lat="49.9353118" lon="14.6705715">
    <tag k="is_in" v="Czech Republic, Europe"/>
    <tag k="name" v="Kunice"/>
    <tag k="place" v="village"/>
    <tag k="source" v="geonames.org,cs.wikipedia.org,nga.mil"/>
  </node>
  <node id="293360776" version="3" timestamp="2008-11-04T13:15:32Z" uid="308" user="MichaelCollinson" changeset="676656" lat="49.9353118" lon="14.6705715">
    <tag k="is_in" v="Czech Republic, Europe"/>
    <tag k="is_in:continent" v="Europe"/>
    <tag k="is_in:country_code" v="cz"/>
    <tag k="name" v="Kunice"/>
    <tag k="place" v="village"/>
    <tag k="source" v="geonames.org,cs.wikipedia.org,nga.mil"/>
  </node>
  <node id="293360776" version="4" timestamp="2009-07-23T13:48:56Z" uid="59136" user="Matus" changeset="1915821" lat="49.9361041" lon="14.6703593">
    <tag k="is_in" v="Czech Republic, Europe"/>
    <tag k="is_in:continent" v="Europe"/>
    <tag k="is_in:country_code" v="cz"/>
    <tag k="name" v="Kunice"/>
    <tag k="place" v="village"/>
    <tag k="source" v="geonames.org,cs.wikipedia.org,nga.mil"/>
  </node>
  <node id="293360776" version="5" timestamp="2012-01-22T14:59:33Z" uid="536216" user="uir-zsj" changeset="10465444" lat="49.9361041" lon="14.6703593"/>
  <node id="293362100" version="1" timestamp="2008-09-03T10:34:30Z" uid="18775" user="drlizau" changeset="514262" lat="-23.4472473" lon="144.2732739"/>
  <node id="293362100" version="2" timestamp="2009-06-09T08:35:44Z" uid="74617" user="JohnSmith" changeset="1466182" lat="-23.4472473" lon="144.2732739"/>
</osm>
