<?xml version='1.0' encoding='UTF-8'?>
<osm version="0.6" generator="libosmium/2.20.0">
  <node id="294723590" version="1" timestamp="2008-09-07T15:08:09Z" uid="38524" user="Kuddy" changeset="565905" lat="49.7400035" lon="6.8946997">
    <tag k="created_by" v="JOSM"/>
    <tag k="name" v="Mammutbaum"/>
    <tag k="tourism" v="attraction"/>
  </node>
  <node id="294723590" version="2" timestamp="2009-02-12T18:55:36Z" uid="38524" user="Kuddy" changeset="379377" lat="49.7400035" lon="6.8946997">
    <tag k="created_by" v="JOSM"/>
    <tag k="name" v="Mammutbaum"/>
    <tag k="natural" v="wood"/>
    <tag k="tourism" v="attraction"/>
  </node>
  <node id="294723590" version="3" timestamp="2009-02-19T19:42:00Z" uid="38524" user="Kuddy" changeset="561678" lat="49.7400035" lon="6.8946997">
    <tag k="created_by" v="JOSM"/>
    <tag k="monument" v="yes"/>
    <tag k="name" v="Mammutbaum"/>
    <tag k="natural" v="wood"/>
  </node>
  <node id="294723590" version="4" timestamp="2009-04-11T19:39:45Z" uid="38524" user="Kuddy" changeset="451121" lat="49.7400035" lon="6.8946997">
    <tag k="created_by" v="JOSM"/>
    <tag k="monument" v="yes"/>
    <tag k="name" v="Mammutbaum"/>
    <tag k="natural" v="tree"/>
  </node>
  <node id="294723595" version="1" timestamp="2008-09-07T15:08:10Z" uid="38524" user="Kuddy" changeset="565905" lat="49.7414265" lon="6.8747044">
    <tag k="created_by" v="JOSM"/>
    <tag k="historic" v="archaeological_site"/>
    <tag k="name" v="Hügelgräber (Wüstung)"/>
  </node>
  <node id="294723595" version="2" timestamp="2009-02-19T19:42:00Z" uid="38524" user="Kuddy" changeset="561678" lat="49.7414265" lon="6.8747044">
    <tag k="created_by" v="JOSM"/>
    <tag k="field" v="yes"/>
    <tag k="historic" v="archaeological_site"/>
    <tag k="name" v="Hügelgräber (Wüstung)"/>
    <tag k="site_type" v="tumulus"/>
  </node>
  <node id="294723601" version="1" timestamp="2008-09-07T15:08:10Z" uid="38524" user="Kuddy" changeset="565905" lat="49.8092535" lon="6.9410165">
    <tag k="created_by" v="JOSM"/>
    <tag k="historic" v="archaeological_site"/>
    <tag k="name" v="Römische Mauerreste (Wüstung)"/>
  </node>
  <node id="294723607" version="1" timestamp="2008-09-07T15:08:11Z" uid="38524" user="Kuddy" changeset="565905" lat="49.8158112" lon="6.9246833">
    <tag k="access" v="private"/>
    <tag k="created_by" v="JOSM"/>
    <tag k="name" v="Breitwieser Mühle"/>
    <tag k="tourism" v="attraction"/>
  </node>
  <node id="294723611" version="1" timestamp="2008-09-07T15:08:11Z" uid="38524" user="Kuddy" changeset="565905" lat="49.8161376" lon="6.9243954">
    <tag k="access" v="private"/>
    <tag k="created_by" v="JOSM"/>
    <tag k="name" v="Stefan Andres-Geburtshaus"/>
    <tag k="tourism" v="attraction"/>
  </node>
  <node id="294723616" version="1" timestamp="2008-09-07T15:08:12Z" uid="38524" user="Kuddy" changeset="565905" lat="49.7511085" lon="6.8714355">
    <tag k="created_by" v="JOSM"/>
    <tag k="name" v="Stein von Bescheid (Menhir)"/>
    <tag k="tourism" v="attraction"/>
  </node>
  <node id="294723616" version="2" timestamp="2008-11-28T10:44:30Z" uid="38524" user="Kuddy" changeset="805404" lat="49.7511085" lon="6.8714355">
    <tag k="created_by" v="JOSM"/>
    <tag k="historic" v="monument"/>
    <tag k="name" v="Stein von Bescheid (Menhir)"/>
  </node>
  <node id="294723616" version="3" timestamp="2009-02-12T18:55:36Z" uid="38524" user="Kuddy" changeset="379377" lat="49.7511085" lon="6.8714355">
    <tag k="created_by" v="JOSM"/>
    <tag k="historic" v="monument"/>
    <tag k="name" v="Stein von Bescheid (Menhir)"/>
    <tag k="tourism" v="attraction"/>
  </node>
  <node id="294723616" version="4" timestamp="2009-02-19T19:41:59Z" uid="38524" user="Kuddy" changeset="561678" lat="49.7511085" lon="6.8714355">
    <tag k="created_by" v="JOSM"/>
    <tag k="historic" v="archaeological_site"/>
    <tag k="megalith_type" v="menhir"/>
    <tag k="name" v="Stein von Bescheid"/>
    <tag k="site_type" v="megalith"/>
  </node>
  <node id="294723618" version="1" timestamp="2008-09-07T15:08:13Z" uid="38524" user="Kuddy" changeset="565905" lat="49.7544135" lon="6.8730509">
    <tag k="created_by" v="JOSM"/>
    <tag k="name" v="Aussichtspunkt an der A1"/>
    <tag k="tourism" v="viewpoint"/>
  </node>
  <node id="294723618" version="2" timestamp="2008-10-09T19:16:45Z" uid="38524" user="Kuddy" changeset="196635" lat="49.7558162" lon="6.8726357">
    <tag k="created_by" v="JOSM"/>
    <tag k="name" v="Aussichtspunkt an der A1"/>
    <tag k="tourism" v="viewpoint"/>
  </node>
  <node id="294723622" version="1" timestamp="2008-09-07T15:08:13Z" uid="38524" user="Kuddy" changeset="565905" lat="49.7675776" lon="6.8629996">
    <tag k="created_by" v="JOSM"/>
    <tag k="historic" v="archaeological_site"/>
    <tag k="name" v="Spuren einer Römerstrasse (Wüstung)"/>
  </node>
  <node id="294723622" version="2" timestamp="2008-10-02T06:54:32Z" uid="70696" user="xybot" changeset="36195" lat="49.7675776" lon="6.8629996">
    <tag k="created_by" v="xybot"/>
    <tag k="historic" v="archaeological_site"/>
    <tag k="name" v="Spuren einer Römerstraße (Wüstung)"/>
  </node>
  <node id="294723626" version="1" timestamp="2008-09-07T15:08:14Z" uid="38524" user="Kuddy" changeset="565905" lat="49.7639038" lon="6.8488768">
    <tag k="created_by" v="JOSM"/>
    <tag k="historic" v="archaeological_site"/>
    <tag k="name" v="Trasse der Weinstrasse"/>
  </node>
  <node id="294723626" version="3" timestamp="2009-05-03T12:12:42Z" uid="16478" user="Raymond" changeset="1060201" lat="49.7639038" lon="6.8488768">
    <tag k="created_by" v="fixbot"/>
    <tag k="historic" v="archaeological_site"/>
    <tag k="name" v="Trasse der Weinstraße"/>
  </node>
  <node id="294723630" version="1" timestamp="2008-09-07T15:08:14Z" uid="38524" user="Kuddy" changeset="565905" lat="49.7796349" lon="6.86554">
    <tag k="created_by" v="JOSM"/>
    <tag k="name" v="Stein von Büdlich (Menhir)"/>
    <tag k="tourism" v="attraction"/>
  </node>
  <node id="294723630" version="5" timestamp="2009-02-19T18:47:55Z" uid="38524" user="Kuddy" changeset="561678" lat="49.7796383" lon="6.8655357">
    <tag k="created_by" v="JOSM"/>
    <tag k="historic" v="archaeological_site"/>
    <tag k="megalith_type" v="menhir"/>
    <tag k="name" v="Stein von Büdlich (Menhir)"/>
    <tag k="site_type" v="megalith"/>
  </node>
  <node id="294723630" version="6" timestamp="2011-08-20T19:42:10Z" uid="499013" user="Plumsklo" changeset="9077187" lat="49.7796383" lon="6.8655357"/>
  <node id="294723633" version="1" timestamp="2008-09-07T15:08:15Z" uid="38524" user="Kuddy" changeset="565905" lat="49.7861284" lon="6.8580211">
    <tag k="created_by" v="JOSM"/>
    <tag k="name" v="Aussichtsturm (Fünfseeenblick)"/>
    <tag k="tourism" v="viewpoint"/>
  </node>
  <node id="294723633" version="2" timestamp="2008-10-09T19:16:44Z" uid="38524" user="Kuddy" changeset="196635" lat="49.7860125" lon="6.8582394">
    <tag k="created_by" v="JOSM"/>
    <tag k="name" v="Aussichtsturm (Fünfseenblick)"/>
    <tag k="tourism" v="viewpoint"/>
  </node>
  <node id="294723633" version="3" timestamp="2009-03-19T18:29:32Z" uid="38524" user="Kuddy" changeset="833052" lat="49.7860125" lon="6.8582394">
    <tag k="created_by" v="JOSM"/>
    <tag k="man_made" v="tower"/>
    <tag k="name" v="Aussichtsturm (Fünfseenblick)"/>
    <tag k="tourism" v="viewpoint"/>
  </node>
  <node id="294723633" version="4" timestamp="2010-06-04T14:36:01Z" uid="131125" user="chris84" changeset="4901609" lat="49.7860125" lon="6.8582394">
    <tag k="height" v="20"/>
    <tag k="man_made" v="tower"/>
    <tag k="name" v="Aussichtsturm (Fünfseenblick)"/>
    <tag k="tourism" v="viewpoint"/>
    <tag k="tower:type" v="observation"/>
  </node>
  <node id="294723633" version="5" timestamp="2011-02-17T11:52:09Z" uid="409073" user="Blutwurst" changeset="7312365" lat="49.7860125" lon="6.8582393">
    <tag k="Name" v="Fünf-Seen-Blick"/>
    <tag k="height" v="20"/>
    <tag k="man_made" v="tower"/>
    <tag k="name" v="Aussichtsturm (Fünfseenblick)"/>
    <tag k="tourism" v="viewpoint"/>
    <tag k="tower:type" v="observation"/>
  </node>
  <node id="294723633" version="6" timestamp="2011-02-17T18:46:04Z" uid="70696" user="xybot" changeset="7315879" lat="49.7860125" lon="6.8582393">
    <tag k="height" v="20"/>
    <tag k="man_made" v="tower"/>
    <tag k="name" v="Fünf-Seen-Blick"/>
    <tag k="tourism" v="viewpoint"/>
    <tag k="tower:type" v="observation"/>
  </node>
  <node id="294723669" version="1" timestamp="2008-09-07T15:08:17Z" uid="38524" user="Kuddy" changeset="565905" lat="49.7683483" lon="6.8921875">
    <tag k="amenity" v="restaurant"/>
    <tag k="created_by" v="JOSM"/>
    <tag k="name" v="Steinesmühle (Robertsmühle)"/>
  </node>
  <node id="294723669" version="2" timestamp="2011-08-04T07:38:03Z" uid="499013" user="Plumsklo" changeset="8916795" lat="49.7683483" lon="6.8921875">
    <tag k="alt_name" v="Landgasthof Sankt Urban"/>
    <tag k="amenity" v="restaurant"/>
    <tag k="name" v="Steinesmühle (Robertsmühle)"/>
    <tag k="old_name" v="Robertsmühle"/>
  </node>
  <node id="294723669" version="3" timestamp="2012-02-02T21:08:16Z" uid="16112" user="Barthwo" changeset="10571426" lat="49.7683483" lon="6.8921875"/>
  <node id="294723680" version="1" timestamp="2008-09-07T15:08:18Z" uid="38524" user="Kuddy" changeset="565905" lat="49.7739222" lon="6.8958229">
    <tag k="access" v="private"/>
    <tag k="created_by" v="JOSM"/>
    <tag k="name" v="Schneidemühle"/>
    <tag k="tourism" v="attraction"/>
  </node>
  <node id="294723686" version="1" timestamp="2008-09-07T15:08:18Z" uid="38524" user="Kuddy" changeset="565905" lat="49.7808082" lon="6.8955617">
    <tag k="access" v="private"/>
    <tag k="created_by" v="JOSM"/>
    <tag k="name" v="Bohnsmühle"/>
    <tag k="tourism" v="attraction"/>
  </node>
  <node id="294723686" version="2" timestamp="2012-02-28T18:54:46Z" uid="461945" user="poppei82" changeset="10821456" lat="49.7808082" lon="6.8955617"/>
  <node id="294723690" version="1" timestamp="2008-09-07T15:08:19Z" uid="38524" user="Kuddy" changeset="565905" lat="49.7825023" lon="6.8969461">
    <tag k="created_by" v="JOSM"/>
    <tag k="historic" v="archaeological_site"/>
    <tag k="name" v="Burgkopf (Ringwall)"/>
  </node>
  <node id="294723690" version="2" timestamp="2009-02-19T18:47:55Z" uid="38524" user="Kuddy" changeset="561678" lat="49.7825023" lon="6.8969461">
    <tag k="created_by" v="JOSM"/>
    <tag k="fortification_type" v="hill_fort"/>
    <tag k="historic" v="archaeological_site"/>
    <tag k="name" v="Burgkopf (Ringwall)"/>
    <tag k="site_type" v="fortification"/>
  </node>
  <node id="294723703" version="1" timestamp="2008-09-07T15:08:20Z" uid="38524" user="Kuddy" changeset="565905" lat="49.7883011" lon="6.8947204">
    <tag k="created_by" v="JOSM"/>
    <tag k="name" v="Der Breitenstein (Menhir)"/>
    <tag k="tourism" v="attraction"/>
  </node>
  <node id="294723703" version="3" timestamp="2008-11-28T10:52:01Z" uid="38524" user="Kuddy" changeset="805404" lat="49.7883028" lon="6.8947157">
    <tag k="created_by" v="Potlatch 0.10b"/>
    <tag k="historic" v="monument"/>
    <tag k="name" v="Der Breitenstein (Menhir)"/>
    <tag k="type" v="megalith"/>
  </node>
  <node id="294723703" version="4" timestamp="2009-04-26T14:18:39Z" uid="38524" user="Kuddy" changeset="974735" lat="49.7882498" lon="6.8946594">
    <tag k="created_by" v="Potlatch 0.10b"/>
    <tag k="historic" v="monument"/>
    <tag k="name" v="Der Breitenstein (Menhir)"/>
    <tag k="type" v="megalith"/>
  </node>
  <node id="294723703" version="5" timestamp="2011-06-15T19:50:35Z" uid="75623" user="KTim" changeset="8450419" lat="49.7882498" lon="6.8946594">
    <tag k="historic" v="monument"/>
    <tag k="name" v="Der Breitenstein (Menhir)"/>
    <tag k="type" v="megalith"/>
  </node>
  <node id="294723703" version="6" timestamp="2011-08-04T12:03:36Z" uid="499013" user="Plumsklo" changeset="8918955" lat="49.7882498" lon="6.8946594"/>
  <node id="294723707" version="1" timestamp="2008-09-07T15:08:21Z" uid="38524" user="Kuddy" changeset="565905" lat="49.8058104" lon="6.8980643">
    <tag k="access" v="private"/>
    <tag k="created_by" v="JOSM"/>
    <tag k="name" v="Leiwener Mühle"/>
    <tag k="tourism" v="attraction"/>
  </node>
  <node id="294723711" version="1" timestamp="2008-09-07T15:08:21Z" uid="38524" user="Kuddy" changeset="565905" lat="49.8399107" lon="6.8759287">
    <tag k="created_by" v="JOSM"/>
    <tag k="name" v="Köwericher Wacken"/>
    <tag k="tourism" v="attraction"/>
  </node>
  <node id="294723711" version="2" timestamp="2008-11-28T10:52:00Z" uid="38524" user="Kuddy" changeset="805404" lat="49.8399107" lon="6.8759287">
    <tag k="created_by" v="JOSM"/>
    <tag k="historic" v="monument"/>
    <tag k="name" v="Köwericher Wacken"/>
  </node>
  <node id="294723716" version="1" timestamp="2008-09-07T15:08:22Z" uid="38524" user="Kuddy" changeset="565905" lat="49.8453063" lon="6.8630365">
    <tag k="access" v="private"/>
    <tag k="created_by" v="JOSM"/>
    <tag k="name" v="Ehemalige Wasserburg"/>
    <tag k="tourism" v="attraction"/>
  </node>
  <node id="294723716" version="2" timestamp="2008-09-07T16:02:40Z" uid="38524" user="Kuddy" changeset="565905" lat="49.8450846" lon="6.8603207">
    <tag k="access" v="private"/>
    <tag k="created_by" v="JOSM"/>
    <tag k="name" v="Ehemalige Wasserburg"/>
    <tag k="tourism" v="attraction"/>
  </node>
  <node id="294724121" version="2" timestamp="2009-07-19T12:18:14Z" uid="43863" user="Rundling" changeset="1872710" lat="52.8596798" lon="9.6331787"/>
  <node id="294724473" version="2" timestamp="2009-07-19T12:18:15Z" uid="43863" user="Rundling" changeset="1872710" lat="52.8597575" lon="9.633153"/>
  <node id="294725326" version="2" timestamp="2008-10-01T01:12:12Z" uid="36809" user="pfoten_weg_!_" changeset="5644" lat="48.0754392" lon="11.5428726"/>
  <node id="294725885" version="2" timestamp="2009-06-06T18:00:12Z" uid="9581" user="Lobelt" changeset="1440930" lat="50.9732205" lon="11.9810989"/>
  <node id="294725894" version="2" timestamp="2009-06-06T18:00:12Z" uid="9581" user="Lobelt" changeset="1440930" lat="50.9723686" lon="11.9756315"/>
  <node id="294725894" version="3" timestamp="2012-03-23T09:36:16Z" uid="212079" user="atz" changeset="11071831" lat="50.9723686" lon="11.9756315"/>
  <node id="294725898" version="2" timestamp="2009-06-06T18:00:12Z" uid="9581" user="Lobelt" changeset="1440930" lat="50.972959" lon="11.9768219"/>
  <node id="294725898" version="3" timestamp="2012-03-23T09:36:16Z" uid="212079" user="atz" changeset="11071831" lat="50.972959" lon="11.9768219"/>
  <node id="294725904" version="3" timestamp="2009-06-06T18:00:11Z" uid="9581" user="Lobelt" changeset="1440930" lat="50.9717616" lon="11.975393"/>
  <node id="294726134" version="4" timestamp="2009-09-29T19:15:43Z" uid="33382" user="de_muur" changeset="2681285" lat="53.5427469" lon="10.2496362">
    <tag k="highway" v="turning_circle"/>
  </node>
  <node id="294726134" version="5" timestamp="2011-04-26T18:29:47Z" uid="445070" user="Kartenluchs" changeset="7977948" lat="53.5428115" lon="10.2496559">
    <tag k="highway" v="turning_circle"/>
  </node>
  <node id="294729682" version="2" timestamp="2009-10-21T18:14:42Z" uid="9581" user="Lobelt" changeset="2915166" lat="50.7327221" lon="12.3696172"/>
  <node id="294729682" version="3" timestamp="2009-12-26T16:35:13Z" uid="43566" user="anbr" changeset="3456105" lat="50.7327157" lon="12.3696147"/>
  <node id="294729682" version="4" timestamp="2010-09-13T22:16:03Z" uid="325629" user="Sannifrosch" changeset="5774309" lat="50.7327533" lon="12.3696494"/>
  <node id="294729682" version="5" timestamp="2011-03-24T20:06:38Z" uid="325629" user="Sannifrosch" changeset="7659400" lat="50.7327533" lon="12.3696779"/>
  <node id="294729687" version="2" timestamp="2009-10-21T18:14:42Z" uid="9581" user="Lobelt" changeset="2915166" lat="50.7326618" lon="12.3699531"/>
  <node id="294729687" version="3" timestamp="2011-03-24T20:07:01Z" uid="325629" user="Sannifrosch" changeset="7659400" lat="50.7327057" lon="12.3699857"/>
  <node id="294729692" version="2" timestamp="2009-10-21T18:14:42Z" uid="9581" user="Lobelt" changeset="2915166" lat="50.7331253" lon="12.3699731"/>
</osm>
