<?xml version='1.0' encoding='UTF-8'?>
<osm version="0.6" generator="libosmium/2.20.0">
  <node id="297560962" version="2" timestamp="2009-02-11T00:43:11Z" uid="20587" user="balrog-kun" changeset="349418" lat="55.7707756" lon="-3.9208333"/>
  <node id="297560962" version="3" timestamp="2010-05-18T08:24:38Z" uid="17857" user="marscot" changeset="4736330" lat="55.7708314" lon="-3.9207506"/>
  <node id="297560962" version="4" timestamp="2011-02-20T09:20:09Z" uid="17857" user="marscot" changeset="7339731" lat="55.7708432" lon="-3.9207737"/>
  <node id="297561023" version="2" timestamp="2009-02-11T00:43:18Z" uid="20587" user="balrog-kun" changeset="349418" lat="55.7707756" lon="-3.9208762"/>
  <node id="297562987" version="2" timestamp="2009-03-25T16:54:51Z" uid="1066" user="pavel" changeset="857378" lat="50.0603894" lon="14.590215"/>
  <node id="297563144" version="3" timestamp="2008-11-26T17:54:00Z" uid="6975" user="ulfl" changeset="797054" lat="52.3153031" lon="9.7211787">
    <tag k="name" v="Stanze"/>
    <tag k="shop" v="garden_centre"/>
  </node>
  <node id="297563144" version="4" timestamp="2011-02-19T10:59:05Z" uid="54626" user="mapserver" changeset="7330389" lat="52.3153031" lon="9.7211787">
    <tag k="name" v="Stanze"/>
    <tag k="shop" v="garden_centre"/>
  </node>
  <node id="297563911" version="2" timestamp="2009-12-07T04:11:39Z" uid="23543" user="jkjk" changeset="3312446" lat="50.0595113" lon="14.592935"/>
  <node id="297563912" version="2" timestamp="2009-12-07T04:11:40Z" uid="23543" user="jkjk" changeset="3312446" lat="50.0595208" lon="14.5930721"/>
  <node id="297563916" version="2" timestamp="2009-12-07T04:11:40Z" uid="23543" user="jkjk" changeset="3312446" lat="50.0595461" lon="14.59332"/>
  <node id="297564805" version="3" timestamp="2008-09-24T05:00:20Z" uid="6975" user="ulfl" changeset="687743" lat="48.3869101" lon="10.4946362">
    <tag k="name" v="Getränke Schmid"/>
    <tag k="shop" v="beverages"/>
  </node>
  <node id="297564805" version="4" timestamp="2009-06-01T07:51:36Z" uid="33360" user="mixi" changeset="1376639" lat="48.3869101" lon="10.4946362">
    <tag k="addr:city" v="Freihalden"/>
    <tag k="addr:housenumber" v="2"/>
    <tag k="addr:postcode" v="89343"/>
    <tag k="addr:street" v="Waldstraße"/>
    <tag k="fax" v="+49-8225-959327"/>
    <tag k="name" v="Getränke Schmid"/>
    <tag k="opening_hours" v="Mo-Th 15:00-18:30, Fr 13:00-18:30, Sa 8:30-13:00, We off"/>
    <tag k="phone" v="+49-8225-3396"/>
    <tag k="shop" v="beverages"/>
  </node>
  <node id="297564805" version="5" timestamp="2009-08-02T13:34:37Z" uid="31231" user="Andre68" changeset="2014407" lat="48.3869101" lon="10.4946362">
    <tag k="addr:city" v="Freihalden"/>
    <tag k="addr:housenumber" v="2"/>
    <tag k="addr:postcode" v="89343"/>
    <tag k="addr:street" v="Waldstraße"/>
    <tag k="fax" v="+49-8225-959327"/>
    <tag k="name" v="Getränke Schmid"/>
    <tag k="opening_hours" v="Mo-Th 15:00-18:30; Fr 13:00-18:30; Sa 8:30-13:00; We off"/>
    <tag k="phone" v="+49-8225-3396"/>
    <tag k="shop" v="beverages"/>
  </node>
  <node id="297564805" version="6" timestamp="2010-11-21T15:16:00Z" uid="290680" user="wheelmap_visitor" changeset="6420115" lat="48.3869101" lon="10.4946362">
    <tag k="addr:city" v="Freihalden"/>
    <tag k="addr:housenumber" v="2"/>
    <tag k="addr:postcode" v="89343"/>
    <tag k="addr:street" v="Waldstraße"/>
    <tag k="fax" v="+49-8225-959327"/>
    <tag k="name" v="Getränke Schmid"/>
    <tag k="opening_hours" v="Mo-Th 15:00-18:30; Fr 13:00-18:30; Sa 8:30-13:00; We off"/>
    <tag k="phone" v="+49-8225-3396"/>
    <tag k="shop" v="beverages"/>
    <tag k="wheelchair" v="yes"/>
  </node>
  <node id="297564809" version="3" timestamp="2008-09-24T05:00:20Z" uid="6975" user="ulfl" changeset="687743" lat="48.3848462" lon="10.492729">
    <tag k="name" v="Getränkevertrieb Singer"/>
    <tag k="shop" v="beverages"/>
  </node>
  <node id="297564809" version="4" timestamp="2009-06-01T07:51:36Z" uid="33360" user="mixi" changeset="1376639" lat="48.3848462" lon="10.492729">
    <tag k="addr:city" v="Freihalden"/>
    <tag k="addr:postcode" v="89343"/>
    <tag k="name" v="Getränkevertrieb Singer"/>
    <tag k="shop" v="beverages"/>
  </node>
  <node id="297564809" version="5" timestamp="2010-11-21T15:16:01Z" uid="290680" user="wheelmap_visitor" changeset="6420115" lat="48.3848462" lon="10.492729">
    <tag k="addr:city" v="Freihalden"/>
    <tag k="addr:postcode" v="89343"/>
    <tag k="name" v="Getränkevertrieb Singer"/>
    <tag k="shop" v="beverages"/>
    <tag k="wheelchair" v="no"/>
  </node>
  <node id="297565403" version="1" timestamp="2008-09-16T20:11:48Z" uid="1066" user="pavel" changeset="648024" lat="50.0269769" lon="14.7588826"/>
  <node id="297565403" version="2" timestamp="2009-07-11T20:57:09Z" uid="1066" user="pavel" changeset="1801700" lat="50.0268478" lon="14.7591068"/>
  <node id="297565403" version="3" timestamp="2009-07-12T22:38:02Z" uid="1066" user="pavel" changeset="1812438" lat="50.0268478" lon="14.7591068"/>
  <node id="297565405" version="1" timestamp="2008-09-16T20:11:48Z" uid="1066" user="pavel" changeset="648024" lat="50.0274168" lon="14.7578451"/>
  <node id="297565405" version="2" timestamp="2009-07-11T20:57:13Z" uid="1066" user="pavel" changeset="1801700" lat="50.0274168" lon="14.7578451"/>
  <node id="297566135" version="2" timestamp="2009-03-25T17:15:12Z" uid="1066" user="pavel" changeset="857378" lat="50.0616036" lon="14.5921325"/>
  <node id="297566135" version="3" timestamp="2012-02-15T21:25:50Z" uid="8007" user="vrabcak" changeset="10696688" lat="50.0616036" lon="14.5921325"/>
</osm>
