<?xml version='1.0' encoding='UTF-8'?>
<osm version="0.6" generator="libosmium/2.20.0">
  <node id="297980336" version="3" timestamp="2008-09-24T03:59:35Z" uid="6975" user="ulfl" changeset="687743" lat="55.6511764" lon="12.6206555">
    <tag k="highway" v="bus_stop"/>
  </node>
  <node id="297980336" version="4" timestamp="2011-06-03T15:32:14Z" uid="279771" user="Ofyles2" changeset="8330581" lat="55.6511764" lon="12.6206287">
    <tag k="highway" v="bus_stop"/>
    <tag k="name" v="Persiensvej"/>
  </node>
  <node id="297980900" version="2" timestamp="2008-10-27T01:07:24Z" uid="68769" user="david lynch" changeset="604401" lat="30.2475295" lon="-97.7212728"/>
  <node id="297980900" version="3" timestamp="2008-11-08T23:29:35Z" uid="68769" user="david lynch" changeset="720676" lat="30.2475295" lon="-97.7212728"/>
  <node id="297980900" version="4" timestamp="2009-02-07T22:51:18Z" uid="68769" user="david lynch" changeset="249425" lat="30.2475295" lon="-97.7212728"/>
  <node id="297980900" version="5" timestamp="2009-02-07T22:52:03Z" uid="68769" user="david lynch" changeset="249425" lat="30.2475295" lon="-97.7212728"/>
  <node id="297980900" version="6" timestamp="2009-02-22T15:21:32Z" uid="75480" user="HJD" changeset="611582" lat="30.2475295" lon="-97.7212728"/>
  <node id="297980900" version="7" timestamp="2009-03-10T07:19:45Z" uid="105002" user="APD" changeset="774679" lat="30.2475295" lon="-97.7212728"/>
  <node id="297980900" version="8" timestamp="2009-03-13T16:51:47Z" uid="68769" user="david lynch" changeset="799711" lat="30.2475295" lon="-97.7212728"/>
  <node id="297980900" version="9" timestamp="2011-08-06T01:09:50Z" uid="119881" user="Clorox" changeset="8933934" lat="30.2471832" lon="-97.7211177"/>
  <node id="297981922" version="2" timestamp="2008-09-24T03:59:36Z" uid="6975" user="ulfl" changeset="687743" lat="48.7102004" lon="9.4237491">
    <tag k="highway" v="bus_stop"/>
  </node>
  <node id="297981922" version="3" timestamp="2008-10-18T17:06:55Z" uid="40234" user="Bernd Rosenau" changeset="424053" lat="48.7102012" lon="9.4237491">
    <tag k="highway" v="bus_stop"/>
  </node>
  <node id="297981986" version="3" timestamp="2008-09-24T03:59:34Z" uid="6975" user="ulfl" changeset="687743" lat="48.7102514" lon="9.4234058">
    <tag k="highway" v="bus_stop"/>
  </node>
  <node id="297981986" version="4" timestamp="2008-10-18T17:08:13Z" uid="40234" user="Bernd Rosenau" changeset="424053" lat="48.7098161" lon="9.423174">
    <tag k="created_by" v="Potlatch 0.10e"/>
    <tag k="highway" v="bus_stop"/>
  </node>
  <node id="297981986" version="5" timestamp="2008-11-09T17:51:21Z" uid="40234" user="Bernd Rosenau" changeset="725253" lat="48.7098187" lon="9.4231667">
    <tag k="amenity" v="bus_stop"/>
    <tag k="created_by" v="Potlatch 0.10f"/>
    <tag k="name" v="Panoramastraße"/>
  </node>
  <node id="297981986" version="6" timestamp="2008-11-21T20:40:56Z" uid="62296" user="NoName0815" changeset="778221" lat="48.7098187" lon="9.4231667">
    <tag k="highway" v="bus_stop"/>
    <tag k="name" v="Panoramastraße"/>
  </node>
  <node id="297981986" version="7" timestamp="2009-08-04T19:14:02Z" uid="40234" user="Bernd Rosenau" changeset="2039039" lat="48.7096359" lon="9.4232169">
    <tag k="bus_lines" v="141;149"/>
    <tag k="highway" v="bus_stop"/>
    <tag k="name" v="Panoramastraße"/>
  </node>
  <node id="297981986" version="8" timestamp="2009-08-11T13:21:13Z" uid="40234" user="Bernd Rosenau" changeset="2108376" lat="48.7096359" lon="9.4232169">
    <tag k="highway" v="bus_stop"/>
    <tag k="lines" v="141;149"/>
    <tag k="name" v="Panoramastraße"/>
  </node>
  <node id="297981986" version="9" timestamp="2010-07-26T05:56:57Z" uid="40234" user="Bernd Rosenau" changeset="5318344" lat="48.7096359" lon="9.4232169">
    <tag k="highway" v="bus_stop"/>
    <tag k="lines" v="141;149"/>
    <tag k="name" v="Panoramastraße"/>
    <tag k="shelter" v="yes"/>
  </node>
  <node id="297982092" version="1" timestamp="2008-09-18T19:37:34Z" uid="26515" user="Simon Ward" changeset="660157" lat="52.2312816" lon="-3.0908581">
    <tag k="accommodation" v="yes"/>
    <tag k="amenity" v="pub"/>
    <tag k="food" v="yes"/>
    <tag k="name" v="The Crown Inn"/>
    <tag k="real_ale" v="yes"/>
  </node>
  <node id="297982950" version="1" timestamp="2008-09-18T19:39:43Z" uid="26515" user="Simon Ward" changeset="660157" lat="52.2343269" lon="-3.1214962">
    <tag k="amenity" v="post_box"/>
    <tag k="ref" v="LD8 245"/>
  </node>
  <node id="297982950" version="2" timestamp="2009-03-13T17:12:47Z" uid="3937" user="southglos" changeset="800306" lat="52.2343269" lon="-3.1214962">
    <tag k="amenity" v="post_box"/>
    <tag k="postal_code" v="LD8"/>
    <tag k="ref" v="LD8 245"/>
  </node>
  <node id="297984288" version="2" timestamp="2011-03-25T00:47:24Z" uid="6269" user="Mueck" changeset="7661499" lat="49.0107437" lon="8.3966903">
    <tag k="amenity" v="restaurant"/>
    <tag k="cuisine" v="african"/>
    <tag k="name" v="Afrika"/>
  </node>
  <node id="297984288" version="3" timestamp="2011-12-15T19:19:04Z" uid="165061" user="keinname" changeset="10126350" lat="49.0107437" lon="8.3966903">
    <tag k="addr:city" v="Karlsruhe"/>
    <tag k="addr:country" v="DE"/>
    <tag k="addr:postcode" v="76131"/>
    <tag k="amenity" v="restaurant"/>
    <tag k="cuisine" v="african"/>
    <tag k="name" v="Afrika"/>
  </node>
  <node id="297984290" version="3" timestamp="2011-03-25T00:47:22Z" uid="6269" user="Mueck" changeset="7661499" lat="49.0106611" lon="8.3965677"/>
  <node id="297984982" version="1" timestamp="2008-09-18T19:44:31Z" uid="67142" user="zottel" changeset="661964" lat="48.8868129" lon="8.6973559">
    <tag k="name" v="Goldstadt Optik"/>
    <tag k="shop" v="optician"/>
  </node>
  <node id="297984982" version="2" timestamp="2008-10-28T16:37:53Z" uid="67142" user="zottel" changeset="610348" lat="48.8868129" lon="8.6973559">
    <tag k="addr:city" v="Pforzheim"/>
    <tag k="addr:housenumber" v="39"/>
    <tag k="addr:postcode" v="75173"/>
    <tag k="addr:street" v="Jahnstrasse"/>
    <tag k="fax" v="+49 7231 23773"/>
    <tag k="name" v="Goldstadt Optik"/>
    <tag k="phone" v="+49 7231 27582"/>
    <tag k="shop" v="optician"/>
    <tag k="url" v="http://www.goldstadtoptik.de/"/>
  </node>
  <node id="297984982" version="3" timestamp="2008-10-31T21:48:05Z" uid="67142" user="zottel" changeset="646537" lat="48.8868129" lon="8.6973559">
    <tag k="addr:city" v="Pforzheim"/>
    <tag k="addr:housenumber" v="39"/>
    <tag k="addr:postcode" v="75173"/>
    <tag k="addr:street" v="Jahnstraße"/>
    <tag k="fax" v="+49 7231 23773"/>
    <tag k="name" v="Goldstadt Optik"/>
    <tag k="phone" v="+49 7231 27582"/>
    <tag k="shop" v="optician"/>
    <tag k="url" v="http://www.goldstadtoptik.de/"/>
  </node>
  <node id="297984982" version="4" timestamp="2010-08-23T20:43:55Z" uid="59808" user="ortylp" changeset="5575018" lat="48.8868129" lon="8.6973559">
    <tag k="addr:city" v="Pforzheim"/>
    <tag k="addr:country" v="DE"/>
    <tag k="addr:housenumber" v="39"/>
    <tag k="addr:postcode" v="75173"/>
    <tag k="addr:street" v="Jahnstraße"/>
    <tag k="fax" v="+49 7231 23773"/>
    <tag k="name" v="Goldstadt Optik"/>
    <tag k="phone" v="+49 7231 27582"/>
    <tag k="shop" v="optician"/>
    <tag k="url" v="http://www.goldstadtoptik.de/"/>
  </node>
  <node id="297984982" version="5" timestamp="2010-09-19T15:35:17Z" uid="65148" user="Pirat Michi" changeset="5820767" lat="48.8868129" lon="8.6973559">
    <tag k="addr:city" v="Pforzheim"/>
    <tag k="addr:country" v="DE"/>
    <tag k="addr:housenumber" v="39"/>
    <tag k="addr:postcode" v="75173"/>
    <tag k="addr:street" v="Jahnstraße"/>
    <tag k="fax" v="+49 7231 23773"/>
    <tag k="name" v="Goldstadt Optik"/>
    <tag k="phone" v="+49 7231 27582"/>
    <tag k="shop" v="optician"/>
    <tag k="website" v="http://www.goldstadtoptik.de/"/>
  </node>
  <node id="297984982" version="6" timestamp="2011-11-30T16:04:02Z" uid="290680" user="wheelmap_visitor" changeset="9999018" lat="48.8868129" lon="8.6973559">
    <tag k="addr:city" v="Pforzheim"/>
    <tag k="addr:country" v="DE"/>
    <tag k="addr:housenumber" v="39"/>
    <tag k="addr:postcode" v="75173"/>
    <tag k="addr:street" v="Jahnstraße"/>
    <tag k="fax" v="+49 7231 23773"/>
    <tag k="name" v="Goldstadt Optik"/>
    <tag k="phone" v="+49 7231 27582"/>
    <tag k="shop" v="optician"/>
    <tag k="website" v="http://www.goldstadtoptik.de/"/>
    <tag k="wheelchair" v="no"/>
  </node>
  <node id="297984982" version="7" timestamp="2012-02-01T08:14:35Z" uid="442210" user="dwausr" changeset="10556583" lat="48.8868129" lon="8.6973559"/>
  <node id="297984984" version="1" timestamp="2008-09-18T19:44:31Z" uid="67142" user="zottel" changeset="661964" lat="48.8892533" lon="8.6981518">
    <tag k="name" v="Emporium"/>
    <tag k="shop" v="clothes"/>
  </node>
  <node id="297984984" version="2" timestamp="2012-01-05T12:10:33Z" uid="442210" user="dwausr" changeset="10299846" lat="48.8892533" lon="8.6981518"/>
  <node id="297985963" version="2" timestamp="2008-09-24T04:17:49Z" uid="6975" user="ulfl" changeset="687743" lat="28.6141566" lon="86.1356357">
    <tag k="ele" v="5135"/>
    <tag k="mountain_pass" v="yes"/>
    <tag k="name:en" v="Lalung La"/>
  </node>
  <node id="297985963" version="3" timestamp="2010-06-06T06:41:12Z" uid="140550" user="Beddhist" changeset="4914784" lat="28.6141566" lon="86.1356357">
    <tag k="ele" v="5022"/>
    <tag k="mountain_pass" v="yes"/>
    <tag k="name:en" v="Lalung La"/>
  </node>
  <node id="297985963" version="4" timestamp="2010-08-17T10:07:00Z" uid="6975" user="ulfl" changeset="5516273" lat="28.6141566" lon="86.1356357">
    <tag k="ele" v="5022"/>
    <tag k="mountain_pass" v="yes"/>
    <tag k="name" v="Lalung La"/>
    <tag k="name:en" v="Lalung La"/>
  </node>
  <node id="297985973" version="1" timestamp="2008-09-18T19:49:01Z" uid="67142" user="zottel" changeset="661964" lat="48.8915001" lon="8.6988239">
    <tag k="name" v="Nordsee"/>
    <tag k="shop" v="fish"/>
  </node>
  <node id="297985973" version="2" timestamp="2011-12-13T10:21:25Z" uid="442210" user="dwausr" changeset="10106307" lat="48.8915001" lon="8.6988239"/>
  <node id="297985974" version="1" timestamp="2008-09-18T19:49:01Z" uid="67142" user="zottel" changeset="661964" lat="48.8911211" lon="8.698867">
    <tag k="name" v="Nordsee"/>
    <tag k="shop" v="fish"/>
  </node>
  <node id="297985974" version="2" timestamp="2012-01-05T12:10:39Z" uid="442210" user="dwausr" changeset="10299846" lat="48.8911211" lon="8.698867"/>
  <node id="297986295" version="2" timestamp="2008-09-24T05:06:32Z" uid="6975" user="ulfl" changeset="687743" lat="60.4502595" lon="22.2601999">
    <tag k="shop" v="florist"/>
  </node>
  <node id="297986295" version="3" timestamp="2010-01-05T16:29:39Z" uid="112530" user="Caballista" changeset="3546802" lat="60.4502595" lon="22.2601999">
    <tag k="addr:city" v="Turku"/>
    <tag k="addr:country" v="FI"/>
    <tag k="shop" v="florist"/>
  </node>
  <node id="297986884" version="1" timestamp="2008-09-18T19:53:57Z" uid="67142" user="zottel" changeset="661964" lat="48.8920254" lon="8.6931358">
    <tag k="name" v="Mükra Elektronik"/>
    <tag k="shop" v="electronics"/>
  </node>
  <node id="297986884" version="2" timestamp="2012-01-04T09:29:03Z" uid="442210" user="dwausr" changeset="10288992" lat="48.8920254" lon="8.6931358"/>
  <node id="297987115" version="2" timestamp="2008-09-24T04:03:26Z" uid="6975" user="ulfl" changeset="687743" lat="55.6646522" lon="37.7699877">
    <tag k="amenity" v="hospital"/>
  </node>
  <node id="297987115" version="3" timestamp="2009-09-08T18:53:16Z" uid="80198" user="SoS" changeset="2417798" lat="55.6646522" lon="37.7699877">
    <tag k="amenity" v="hospital"/>
  </node>
  <node id="297987376" version="32" timestamp="2009-03-25T23:20:41Z" uid="49111" user="Markus B" changeset="861683" lat="47.5144103" lon="8.4660012"/>
  <node id="297987376" version="33" timestamp="2009-04-13T14:32:20Z" uid="37799" user="Adrian Vogt" changeset="488281" lat="47.5144103" lon="8.4660012"/>
  <node id="297987376" version="34" timestamp="2012-02-12T17:07:01Z" uid="178186" user="mdk" changeset="10665215" lat="47.5144025" lon="8.4660162"/>
  <node id="297987683" version="2" timestamp="2008-09-24T03:47:22Z" uid="6975" user="ulfl" changeset="687743" lat="55.6643902" lon="12.602631">
    <tag k="shop" v="bakery"/>
  </node>
  <node id="297987683" version="3" timestamp="2010-12-06T19:55:21Z" uid="35028" user="tagg" changeset="6567051" lat="55.6644431" lon="12.602665">
    <tag k="shop" v="bakery"/>
  </node>
  <node id="297987683" version="4" timestamp="2011-07-12T06:39:45Z" uid="35028" user="tagg" changeset="8700101" lat="55.6644431" lon="12.602665">
    <tag k="addr:housenumber" v="9"/>
    <tag k="addr:street" v="Holmbladsgade"/>
    <tag k="name" v="Jakob&apos;s Bageri"/>
    <tag k="phone" v="+4532950950"/>
    <tag k="shop" v="bakery"/>
  </node>
  <node id="297988015" version="4" timestamp="2009-04-10T04:10:47Z" uid="113393" user="Anjer" changeset="393422" lat="12.1533955" lon="-68.9376962"/>
  <node id="297988032" version="4" timestamp="2009-04-10T04:10:47Z" uid="113393" user="Anjer" changeset="393422" lat="12.1489064" lon="-68.9318972"/>
  <node id="297988949" version="3" timestamp="2008-12-20T02:51:04Z" uid="6975" user="ulfl" changeset="489842" lat="19.6613308" lon="-70.4288691">
    <tag k="layer" v="under"/>
  </node>
  <node id="297988949" version="4" timestamp="2009-09-18T14:03:39Z" uid="85165" user="llibre" changeset="2524730" lat="19.6613308" lon="-70.4288691">
    <tag k="layer" v="under"/>
  </node>
  <node id="297988959" version="3" timestamp="2008-12-20T02:51:03Z" uid="6975" user="ulfl" changeset="489842" lat="19.6612799" lon="-70.4291396">
    <tag k="layer" v="under"/>
  </node>
  <node id="297988959" version="4" timestamp="2009-09-18T14:03:39Z" uid="85165" user="llibre" changeset="2524730" lat="19.6612799" lon="-70.4291396"/>
  <node id="297989019" version="1" timestamp="2008-09-18T20:01:38Z" uid="30632" user="antblant" changeset="660273" lat="53.3666841" lon="14.6545163">
    <tag k="created_by" v="Potlatch 0.10b"/>
  </node>
  <node id="297989019" version="2" timestamp="2008-09-18T20:02:30Z" uid="30632" user="antblant" changeset="660273" lat="53.3666841" lon="14.6545163">
    <tag k="amenity" v="recycling"/>
    <tag k="created_by" v="Potlatch 0.10b"/>
    <tag k="recycling:clothes" v="yes"/>
    <tag k="recycling:glass" v="yes"/>
    <tag k="recycling:paper" v="yes"/>
    <tag k="recycling:plastic" v="yes"/>
  </node>
  <node id="297989019" version="3" timestamp="2008-09-18T20:02:34Z" uid="30632" user="antblant" changeset="660273" lat="53.3666892" lon="14.6545764">
    <tag k="amenity" v="recycling"/>
    <tag k="created_by" v="Potlatch 0.10b"/>
    <tag k="recycling:clothes" v="yes"/>
    <tag k="recycling:glass" v="yes"/>
    <tag k="recycling:paper" v="yes"/>
    <tag k="recycling:plastic" v="yes"/>
  </node>
  <node id="297989019" version="4" timestamp="2009-01-04T10:23:48Z" uid="30632" user="antblant" changeset="731742" lat="53.3667063" lon="14.6544277">
    <tag k="amenity" v="recycling"/>
    <tag k="created_by" v="Potlatch 0.10b"/>
    <tag k="recycling:clothes" v="yes"/>
    <tag k="recycling:glass" v="yes"/>
    <tag k="recycling:paper" v="yes"/>
    <tag k="recycling:plastic" v="yes"/>
  </node>
  <node id="297989019" version="5" timestamp="2009-11-03T14:33:49Z" uid="36809" user="pfoten_weg_!_" changeset="3025069" lat="53.3667063" lon="14.6544277">
    <tag k="amenity" v="recycling"/>
    <tag k="recycling:clothes" v="yes"/>
    <tag k="recycling:glass" v="yes"/>
    <tag k="recycling:paper" v="yes"/>
    <tag k="recycling:plastic" v="yes"/>
  </node>
  <node id="297989064" version="1" timestamp="2008-09-18T20:01:50Z" uid="68089" user="GreenYeti" changeset="662064" lat="47.7719403" lon="8.9962918"/>
  <node id="297989064" version="2" timestamp="2009-03-09T17:17:11Z" uid="33217" user="hollala" changeset="771633" lat="47.7719306" lon="8.9962628"/>
  <node id="297989064" version="3" timestamp="2010-12-02T13:48:53Z" uid="12143" user="slotty" changeset="6514561" lat="47.7719519" lon="8.9962725"/>
  <node id="297989064" version="4" timestamp="2010-12-04T06:10:12Z" uid="110263" user="werner2101" changeset="6534453" lat="47.7719472" lon="8.9962753"/>
  <node id="297989066" version="1" timestamp="2008-09-18T20:01:51Z" uid="68089" user="GreenYeti" changeset="662064" lat="47.7720268" lon="8.9964377"/>
  <node id="297989066" version="2" timestamp="2008-09-18T20:02:25Z" uid="68089" user="GreenYeti" changeset="662064" lat="47.7720268" lon="8.9964377"/>
  <node id="297989067" version="1" timestamp="2008-09-18T20:01:51Z" uid="68089" user="GreenYeti" changeset="662064" lat="47.772096" lon="8.9965235"/>
  <node id="297989067" version="2" timestamp="2008-09-19T09:41:08Z" uid="68089" user="GreenYeti" changeset="662986" lat="47.7721095" lon="8.9964859"/>
  <node id="297989067" version="3" timestamp="2010-09-29T12:07:34Z" uid="71555" user="JochenB" changeset="5911107" lat="47.7721095" lon="8.9964859"/>
  <node id="297989069" version="1" timestamp="2008-09-18T20:01:51Z" uid="68089" user="GreenYeti" changeset="662064" lat="47.7721941" lon="8.9966008"/>
  <node id="297989069" version="2" timestamp="2008-09-18T20:02:25Z" uid="68089" user="GreenYeti" changeset="662064" lat="47.7721941" lon="8.9966008"/>
  <node id="297989070" version="1" timestamp="2008-09-18T20:01:51Z" uid="68089" user="GreenYeti" changeset="662064" lat="47.7723095" lon="8.9966437"/>
  <node id="297989070" version="2" timestamp="2008-09-19T09:41:08Z" uid="68089" user="GreenYeti" changeset="662986" lat="47.7722768" lon="8.9966061"/>
  <node id="297989070" version="3" timestamp="2009-03-09T17:17:19Z" uid="33217" user="hollala" changeset="771633" lat="47.7722768" lon="8.9966061"/>
  <node id="297989071" version="1" timestamp="2008-09-18T20:01:51Z" uid="68089" user="GreenYeti" changeset="662064" lat="47.7722864" lon="8.9967124">
    <tag k="track" v="paved"/>
  </node>
  <node id="297989071" version="2" timestamp="2008-09-18T20:02:25Z" uid="68089" user="GreenYeti" changeset="662064" lat="47.7722864" lon="8.9967124">
    <tag k="track" v="paved"/>
  </node>
  <node id="297989232" version="1" timestamp="2008-09-18T20:02:25Z" uid="68089" user="GreenYeti" changeset="662064" lat="47.7720268" lon="8.9964377"/>
  <node id="297989232" version="2" timestamp="2008-09-19T09:41:08Z" uid="68089" user="GreenYeti" changeset="662986" lat="47.772046" lon="8.9964086"/>
  <node id="297989232" version="3" timestamp="2010-12-02T13:48:54Z" uid="12143" user="slotty" changeset="6514561" lat="47.7720312" lon="8.9964897"/>
  <node id="297989233" version="1" timestamp="2008-09-18T20:02:25Z" uid="68089" user="GreenYeti" changeset="662064" lat="47.7721941" lon="8.9966008"/>
  <node id="297989233" version="2" timestamp="2008-09-18T20:02:47Z" uid="68089" user="GreenYeti" changeset="662064" lat="47.7721941" lon="8.9966008"/>
  <node id="297989236" version="1" timestamp="2008-09-18T20:02:25Z" uid="68089" user="GreenYeti" changeset="662064" lat="47.7722864" lon="8.9967124">
    <tag k="track" v="paved"/>
  </node>
  <node id="297989236" version="2" timestamp="2008-09-18T20:03:54Z" uid="68089" user="GreenYeti" changeset="662064" lat="47.7722864" lon="8.9967124">
    <tag k="track" v="paved"/>
  </node>
  <node id="297989348" version="1" timestamp="2008-09-18T20:02:47Z" uid="68089" user="GreenYeti" changeset="662064" lat="47.7721941" lon="8.9966008"/>
  <node id="297989348" version="2" timestamp="2008-09-19T09:41:08Z" uid="68089" user="GreenYeti" changeset="662986" lat="47.772196" lon="8.9965631"/>
  <node id="297989348" version="3" timestamp="2010-09-29T12:07:39Z" uid="71555" user="JochenB" changeset="5911107" lat="47.772196" lon="8.9965631"/>
</osm>
