<?xml version='1.0' encoding='UTF-8'?>
<osm version="0.6" generator="libosmium/2.20.0">
  <node id="298171937" version="2" timestamp="2010-06-29T19:01:19Z" uid="74617" user="JohnSmith" changeset="5108182" lat="52.3434002" lon="-0.1686473">
    <tag k="fixme" v="sport=football is ambiguous, see http://wiki.osm.org/wiki/Football for more details"/>
    <tag k="sport" v="football"/>
  </node>
  <node id="298173099" version="2" timestamp="2008-10-09T21:38:43Z" uid="49111" user="Markus B" changeset="207794" lat="49.4714575" lon="11.1359656"/>
  <node id="298173099" version="3" timestamp="2011-11-25T21:34:03Z" uid="346758" user="kukuk" changeset="9948927" lat="49.4714887" lon="11.1359381"/>
  <node id="298173099" version="4" timestamp="2011-11-29T10:46:14Z" uid="71557" user="Taroc" changeset="9986340" lat="49.4714887" lon="11.1359381"/>
  <node id="298173724" version="1" timestamp="2008-09-19T16:58:48Z" uid="65847" user="LKK" changeset="666457" lat="50.2210922" lon="8.270018">
    <tag k="amenity" v="restaurant"/>
    <tag k="name" v="Deutsches Haus"/>
  </node>
  <node id="298173724" version="2" timestamp="2010-03-13T13:05:58Z" uid="180581" user="c2695469" changeset="4114427" lat="50.2210731" lon="8.2699848">
    <tag k="amenity" v="restaurant"/>
    <tag k="name" v="Deutsches Haus"/>
  </node>
  <node id="298173724" version="3" timestamp="2011-11-25T05:13:17Z" uid="290680" user="wheelmap_visitor" changeset="9940574" lat="50.2210731" lon="8.2699848">
    <tag k="amenity" v="restaurant"/>
    <tag k="name" v="Deutsches Haus"/>
    <tag k="wheelchair" v="no"/>
  </node>
  <node id="298173730" version="1" timestamp="2008-09-19T16:58:50Z" uid="65847" user="LKK" changeset="666457" lat="50.2208472" lon="8.2701605">
    <tag k="amenity" v="restaurant"/>
    <tag k="name" v="Zum Schwanen"/>
  </node>
  <node id="298173730" version="2" timestamp="2011-12-30T05:56:02Z" uid="290680" user="wheelmap_visitor" changeset="10242031" lat="50.2208472" lon="8.2701605">
    <tag k="amenity" v="restaurant"/>
    <tag k="name" v="Zum Schwanen"/>
    <tag k="wheelchair" v="limited"/>
  </node>
  <node id="298173736" version="1" timestamp="2008-09-19T16:58:51Z" uid="65847" user="LKK" changeset="666457" lat="50.2206166" lon="8.2698062">
    <tag k="amenity" v="pub"/>
    <tag k="name" v="stadtBLICK"/>
  </node>
  <node id="298173736" version="2" timestamp="2010-03-08T22:37:02Z" uid="180581" user="c2695469" changeset="4076902" lat="50.220608" lon="8.2699515">
    <tag k="amenity" v="pub"/>
    <tag k="name" v="stadtBLICK"/>
  </node>
  <node id="298173736" version="3" timestamp="2010-03-12T21:54:10Z" uid="180581" user="c2695469" changeset="4109863" lat="50.2205601" lon="8.2699787">
    <tag k="amenity" v="pub"/>
    <tag k="name" v="stadtBLICK"/>
  </node>
  <node id="298173736" version="4" timestamp="2011-11-07T15:52:19Z" uid="290680" user="wheelmap_visitor" changeset="9762014" lat="50.2205601" lon="8.2699787">
    <tag k="amenity" v="pub"/>
    <tag k="name" v="stadtBLICK"/>
    <tag k="wheelchair" v="no"/>
  </node>
  <node id="298173740" version="1" timestamp="2008-09-19T16:58:52Z" uid="65847" user="LKK" changeset="666457" lat="50.2208316" lon="8.2690893">
    <tag k="amenity" v="pub"/>
    <tag k="name" v="Bergerie"/>
  </node>
  <node id="298173740" version="2" timestamp="2010-03-07T23:35:24Z" uid="180581" user="c2695469" changeset="4067852" lat="50.220756" lon="8.2689403">
    <tag k="amenity" v="pub"/>
    <tag k="name" v="Bergerie"/>
  </node>
  <node id="298173746" version="1" timestamp="2008-09-19T16:58:54Z" uid="65847" user="LKK" changeset="666457" lat="50.2205201" lon="8.2695312">
    <tag k="amenity" v="restaurant"/>
    <tag k="name" v="Zum Stern"/>
  </node>
  <node id="298173746" version="2" timestamp="2008-09-19T19:12:42Z" uid="65847" user="LKK" changeset="666457" lat="50.2204732" lon="8.2695621">
    <tag k="amenity" v="restaurant"/>
    <tag k="name" v="Zum Stern"/>
  </node>
  <node id="298173746" version="3" timestamp="2011-06-19T09:07:36Z" uid="290680" user="wheelmap_visitor" changeset="8480722" lat="50.2204732" lon="8.2695621">
    <tag k="amenity" v="restaurant"/>
    <tag k="name" v="Zum Stern"/>
    <tag k="wheelchair" v="yes"/>
  </node>
  <node id="298173746" version="4" timestamp="2012-01-09T08:47:49Z" uid="550452" user="haf" changeset="10339782" lat="50.2204732" lon="8.2695621">
    <tag k="amenity" v="restaurant"/>
    <tag k="name" v="Zum Stern"/>
    <tag k="wheelchair" v="yes"/>
    <tag k="wheelchair:description" v="leider ohne Behinderenoilete"/>
  </node>
  <node id="298173751" version="1" timestamp="2008-09-19T16:58:54Z" uid="65847" user="LKK" changeset="666457" lat="50.2186144" lon="8.2692762"/>
  <node id="298173759" version="1" timestamp="2008-09-19T16:58:55Z" uid="65847" user="LKK" changeset="666457" lat="50.21881" lon="8.269298"/>
  <node id="298173774" version="1" timestamp="2008-09-19T16:58:56Z" uid="65847" user="LKK" changeset="666457" lat="50.2187069" lon="8.2692966"/>
  <node id="298176817" version="1" timestamp="2008-09-19T17:16:03Z" uid="65847" user="LKK" changeset="666457" lat="50.2148325" lon="8.2686079">
    <tag k="highway" v="bus_stop"/>
    <tag k="name" v="Rauenthal/Kirmsseweg"/>
    <tag k="operator" v="RMV"/>
    <tag k="ref" v="221"/>
  </node>
  <node id="298176817" version="2" timestamp="2008-09-19T18:10:54Z" uid="65847" user="LKK" changeset="666457" lat="50.2148139" lon="8.2686079">
    <tag k="highway" v="bus_stop"/>
    <tag k="name" v="Rauenthal/Kirmsseweg"/>
    <tag k="operator" v="RMV"/>
    <tag k="ref" v="221"/>
  </node>
  <node id="298176817" version="3" timestamp="2008-09-19T19:08:06Z" uid="65847" user="LKK" changeset="666457" lat="50.2147258" lon="8.2685926">
    <tag k="highway" v="bus_stop"/>
    <tag k="name" v="Rauenthal/Kirmsseweg"/>
    <tag k="operator" v="RMV"/>
    <tag k="ref" v="221"/>
  </node>
  <node id="298176817" version="4" timestamp="2008-09-19T19:18:47Z" uid="65847" user="LKK" changeset="666457" lat="50.2147232" lon="8.268473">
    <tag k="highway" v="bus_stop"/>
    <tag k="name" v="Rauenthal/Kirmsseweg"/>
    <tag k="operator" v="RMV"/>
    <tag k="ref" v="221"/>
  </node>
  <node id="298176817" version="5" timestamp="2009-10-02T15:30:44Z" uid="17068" user="De Idstaaner" changeset="2714055" lat="50.2148066" lon="8.2685977">
    <tag k="highway" v="bus_stop"/>
    <tag k="name" v="Rauenthal/Kirmsseweg"/>
    <tag k="operator" v="RMV"/>
    <tag k="ref" v="221"/>
  </node>
  <node id="298176817" version="6" timestamp="2010-05-22T08:42:34Z" uid="271444" user="a3728629" changeset="4772406" lat="50.214832" lon="8.2685837">
    <tag k="highway" v="bus_stop"/>
    <tag k="name" v="Rauenthal/Kirmsseweg"/>
    <tag k="operator" v="RMV"/>
    <tag k="ref" v="221"/>
  </node>
  <node id="298176817" version="7" timestamp="2011-11-01T15:05:44Z" uid="290680" user="wheelmap_visitor" changeset="9709814" lat="50.214832" lon="8.2685837">
    <tag k="highway" v="bus_stop"/>
    <tag k="name" v="Rauenthal/Kirmsseweg"/>
    <tag k="operator" v="RMV"/>
    <tag k="ref" v="221"/>
    <tag k="wheelchair" v="limited"/>
  </node>
  <node id="298176819" version="1" timestamp="2008-09-19T17:16:04Z" uid="65847" user="LKK" changeset="666457" lat="50.2149003" lon="8.2682559">
    <tag k="highway" v="bus_stop"/>
    <tag k="name" v="Rauenthal/Kirmsseweg"/>
    <tag k="operator" v="RMV"/>
    <tag k="ref" v="222"/>
  </node>
  <node id="298176819" version="2" timestamp="2008-09-19T18:10:55Z" uid="65847" user="LKK" changeset="666457" lat="50.2149034" lon="8.2681394">
    <tag k="highway" v="bus_stop"/>
    <tag k="name" v="Rauenthal/Kirmsseweg"/>
    <tag k="operator" v="RMV"/>
    <tag k="ref" v="222"/>
  </node>
  <node id="298176819" version="3" timestamp="2008-09-19T19:08:11Z" uid="65847" user="LKK" changeset="666457" lat="50.214967" lon="8.2681165">
    <tag k="highway" v="bus_stop"/>
    <tag k="name" v="Rauenthal/Kirmsseweg"/>
    <tag k="operator" v="RMV"/>
    <tag k="ref" v="222"/>
  </node>
  <node id="298176819" version="4" timestamp="2008-09-19T19:18:48Z" uid="65847" user="LKK" changeset="666457" lat="50.2149195" lon="8.2679721">
    <tag k="highway" v="bus_stop"/>
    <tag k="name" v="Rauenthal/Kirmsseweg"/>
    <tag k="operator" v="RMV"/>
    <tag k="ref" v="222"/>
  </node>
  <node id="298176819" version="5" timestamp="2009-10-02T15:30:44Z" uid="17068" user="De Idstaaner" changeset="2714055" lat="50.2148506" lon="8.2680231">
    <tag k="highway" v="bus_stop"/>
    <tag k="name" v="Rauenthal/Kirmsseweg"/>
    <tag k="operator" v="RMV"/>
    <tag k="ref" v="222"/>
  </node>
  <node id="298176819" version="6" timestamp="2010-05-22T08:42:24Z" uid="271444" user="a3728629" changeset="4772406" lat="50.2147834" lon="8.2680418">
    <tag k="highway" v="bus_stop"/>
    <tag k="name" v="Rauenthal/Kirmsseweg"/>
    <tag k="operator" v="RMV"/>
    <tag k="ref" v="222"/>
  </node>
  <node id="298176819" version="7" timestamp="2011-11-01T15:05:44Z" uid="290680" user="wheelmap_visitor" changeset="9709814" lat="50.2147834" lon="8.2680418">
    <tag k="highway" v="bus_stop"/>
    <tag k="name" v="Rauenthal/Kirmsseweg"/>
    <tag k="operator" v="RMV"/>
    <tag k="ref" v="222"/>
    <tag k="wheelchair" v="limited"/>
  </node>
  <node id="298176820" version="1" timestamp="2008-09-19T17:16:05Z" uid="65847" user="LKK" changeset="666457" lat="50.2177723" lon="8.2623254">
    <tag k="highway" v="bus_stop"/>
    <tag k="name" v="Wiesbadener Straße"/>
    <tag k="operator" v="RMV"/>
    <tag k="ref" v="223;224;225;230"/>
  </node>
  <node id="298176820" version="2" timestamp="2008-09-19T19:08:12Z" uid="65847" user="LKK" changeset="666457" lat="50.2178468" lon="8.2621848">
    <tag k="highway" v="bus_stop"/>
    <tag k="name" v="Wiesbadener Straße"/>
    <tag k="operator" v="RMV"/>
    <tag k="ref" v="223;224;225;230"/>
  </node>
  <node id="298176820" version="3" timestamp="2009-10-12T15:37:04Z" uid="39762" user="dartial" changeset="2827303" lat="50.2178088" lon="8.2621779">
    <tag k="highway" v="bus_stop"/>
    <tag k="name" v="Wiesbadener Straße"/>
    <tag k="operator" v="RMV"/>
    <tag k="ref" v="223;224;225;230"/>
  </node>
  <node id="298176820" version="4" timestamp="2011-11-14T14:18:26Z" uid="290680" user="wheelmap_visitor" changeset="9821952" lat="50.2178088" lon="8.2621779">
    <tag k="highway" v="bus_stop"/>
    <tag k="name" v="Wiesbadener Straße"/>
    <tag k="operator" v="RMV"/>
    <tag k="ref" v="223;224;225;230"/>
    <tag k="wheelchair" v="yes"/>
  </node>
  <node id="298176821" version="1" timestamp="2008-09-19T17:16:06Z" uid="65847" user="LKK" changeset="666457" lat="50.2176944" lon="8.2626837">
    <tag k="highway" v="bus_stop"/>
    <tag k="name" v="Wiesbadener Straße"/>
    <tag k="operator" v="RMV"/>
    <tag k="ref" v="223;224;225;226;227;230"/>
  </node>
  <node id="298176821" version="2" timestamp="2008-09-19T19:08:09Z" uid="65847" user="LKK" changeset="666457" lat="50.2176417" lon="8.2626934">
    <tag k="highway" v="bus_stop"/>
    <tag k="name" v="Wiesbadener Straße"/>
    <tag k="operator" v="RMV"/>
    <tag k="ref" v="223;224;225;226;227;230"/>
  </node>
  <node id="298176821" version="3" timestamp="2009-10-12T15:37:04Z" uid="39762" user="dartial" changeset="2827303" lat="50.2176825" lon="8.2626757">
    <tag k="highway" v="bus_stop"/>
    <tag k="name" v="Wiesbadener Straße"/>
    <tag k="operator" v="RMV"/>
    <tag k="ref" v="223;224;225;226;227;230"/>
  </node>
  <node id="298176821" version="4" timestamp="2011-11-14T14:18:27Z" uid="290680" user="wheelmap_visitor" changeset="9821952" lat="50.2176825" lon="8.2626757">
    <tag k="highway" v="bus_stop"/>
    <tag k="name" v="Wiesbadener Straße"/>
    <tag k="operator" v="RMV"/>
    <tag k="ref" v="223;224;225;226;227;230"/>
    <tag k="wheelchair" v="yes"/>
  </node>
  <node id="298176822" version="1" timestamp="2008-09-19T17:16:06Z" uid="65847" user="LKK" changeset="666457" lat="50.2177976" lon="8.2604162"/>
  <node id="298176822" version="2" timestamp="2010-03-20T10:45:27Z" uid="180581" user="c2695469" changeset="4178206" lat="50.2178235" lon="8.2604151"/>
  <node id="298176827" version="1" timestamp="2008-09-19T17:16:07Z" uid="65847" user="LKK" changeset="666457" lat="50.2178943" lon="8.2601259"/>
  <node id="298176827" version="2" timestamp="2009-04-06T14:43:24Z" uid="39762" user="dartial" changeset="270863" lat="50.2178943" lon="8.2601259"/>
  <node id="298176827" version="3" timestamp="2010-03-20T10:45:26Z" uid="180581" user="c2695469" changeset="4178206" lat="50.2179669" lon="8.2600765"/>
  <node id="298176828" version="1" timestamp="2008-09-19T17:16:08Z" uid="65847" user="LKK" changeset="666457" lat="50.2191489" lon="8.2671484">
    <tag k="amenity" v="atm"/>
  </node>
  <node id="298176828" version="2" timestamp="2008-09-20T10:42:19Z" uid="65847" user="LKK" changeset="667864" lat="50.2191489" lon="8.2671768">
    <tag k="amenity" v="atm"/>
  </node>
  <node id="298176828" version="3" timestamp="2008-09-21T22:14:44Z" uid="65847" user="LKK" changeset="678349" lat="50.2191489" lon="8.2671768">
    <tag k="amenity" v="bank"/>
    <tag k="atm" v="yes"/>
    <tag k="name" v="Commerzbank"/>
  </node>
  <node id="298176828" version="4" timestamp="2009-11-04T07:58:54Z" uid="17068" user="De Idstaaner" changeset="3030727" lat="50.2191489" lon="8.2671768">
    <tag k="amenity" v="bank"/>
    <tag k="atm" v="yes"/>
    <tag k="name" v="Commerzbank"/>
    <tag k="operator" v="Commerzbank"/>
  </node>
  <node id="298176828" version="5" timestamp="2010-03-20T09:37:03Z" uid="180581" user="c2695469" changeset="4177593" lat="50.219152" lon="8.2672161">
    <tag k="amenity" v="bank"/>
    <tag k="atm" v="yes"/>
    <tag k="name" v="Commerzbank"/>
    <tag k="operator" v="Commerzbank"/>
  </node>
  <node id="298176828" version="6" timestamp="2011-06-19T09:06:34Z" uid="290680" user="wheelmap_visitor" changeset="8480722" lat="50.219152" lon="8.2672161">
    <tag k="amenity" v="bank"/>
    <tag k="atm" v="yes"/>
    <tag k="name" v="Commerzbank"/>
    <tag k="operator" v="Commerzbank"/>
    <tag k="wheelchair" v="no"/>
  </node>
  <node id="298176829" version="1" timestamp="2008-09-19T17:16:09Z" uid="65847" user="LKK" changeset="666457" lat="50.2209767" lon="8.2683731">
    <tag k="amenity" v="atm"/>
  </node>
  <node id="298176829" version="2" timestamp="2008-09-21T22:14:45Z" uid="65847" user="LKK" changeset="678349" lat="50.2209767" lon="8.2683731">
    <tag k="amenity" v="atm"/>
  </node>
  <node id="298178084" version="3" timestamp="2008-12-19T11:20:21Z" uid="67142" user="zottel" changeset="473195" lat="48.8696406" lon="8.7382391"/>
  <node id="298179776" version="2" timestamp="2008-11-28T09:21:19Z" uid="43863" user="Rundling" changeset="803313" lat="52.4100866" lon="9.5767385"/>
  <node id="298179776" version="3" timestamp="2009-11-28T10:24:39Z" uid="34953" user="Langlaeufer" changeset="3234459" lat="52.4100741" lon="9.5767344"/>
  <node id="298179777" version="5" timestamp="2008-11-28T09:21:19Z" uid="43863" user="Rundling" changeset="803313" lat="52.4100426" lon="9.5768955"/>
  <node id="298179872" version="2" timestamp="2008-11-15T21:17:34Z" uid="67142" user="zottel" changeset="754996" lat="48.8726808" lon="8.7283864"/>
  <node id="298179876" version="2" timestamp="2008-11-15T21:17:34Z" uid="67142" user="zottel" changeset="754996" lat="48.8724559" lon="8.7290824"/>
  <node id="298179877" version="2" timestamp="2008-11-15T21:17:34Z" uid="67142" user="zottel" changeset="754996" lat="48.8719848" lon="8.7304316"/>
  <node id="298179879" version="2" timestamp="2008-12-19T11:20:21Z" uid="67142" user="zottel" changeset="473195" lat="48.8693079" lon="8.7401218"/>
  <node id="298179883" version="2" timestamp="2008-12-19T11:20:21Z" uid="67142" user="zottel" changeset="473195" lat="48.8692544" lon="8.740593"/>
  <node id="298179885" version="2" timestamp="2008-12-19T11:20:20Z" uid="67142" user="zottel" changeset="473195" lat="48.8693615" lon="8.7397578"/>
  <node id="298179887" version="2" timestamp="2008-12-19T11:20:20Z" uid="67142" user="zottel" changeset="473195" lat="48.8695435" lon="8.7387727"/>
</osm>
