<?xml version='1.0' encoding='UTF-8'?>
<osm version="0.6" generator="libosmium/2.20.0">
  <node id="298574726" version="2" timestamp="2009-05-17T14:46:09Z" uid="43863" user="Rundling" changeset="1223261" lat="52.8121869" lon="10.062092">
    <tag k="railway" v="level_crossing"/>
  </node>
  <node id="298574726" version="3" timestamp="2010-12-29T17:43:09Z" uid="57645" user="KartoGrapHiti" changeset="6801221" lat="52.8122482" lon="10.0616074">
    <tag k="railway" v="level_crossing"/>
  </node>
  <node id="298574726" version="4" timestamp="2011-02-19T22:23:46Z" uid="16319" user="ipodolsk" changeset="7337230" lat="52.8122373" lon="10.0615749">
    <tag k="railway" v="level_crossing"/>
  </node>
  <node id="298574735" version="3" timestamp="2009-05-16T17:28:43Z" uid="43863" user="Rundling" changeset="1213169" lat="52.7993884" lon="10.0503685"/>
  <node id="298574735" version="4" timestamp="2010-12-29T17:43:38Z" uid="57645" user="KartoGrapHiti" changeset="6801221" lat="52.7988806" lon="10.0496663"/>
  <node id="298574739" version="3" timestamp="2009-05-16T17:28:43Z" uid="43863" user="Rundling" changeset="1213169" lat="52.7967301" lon="10.0485859"/>
  <node id="298574739" version="4" timestamp="2010-12-29T17:46:56Z" uid="57645" user="KartoGrapHiti" changeset="6801221" lat="52.7967301" lon="10.0485859"/>
  <node id="298574740" version="3" timestamp="2009-05-16T17:28:43Z" uid="43863" user="Rundling" changeset="1213169" lat="52.7935451" lon="10.0462045"/>
  <node id="298574740" version="4" timestamp="2009-05-17T14:46:09Z" uid="43863" user="Rundling" changeset="1223261" lat="52.7935964" lon="10.0462469"/>
  <node id="298574740" version="5" timestamp="2010-12-29T17:44:48Z" uid="57645" user="KartoGrapHiti" changeset="6801221" lat="52.7939961" lon="10.0457925"/>
  <node id="298574740" version="6" timestamp="2011-02-19T22:23:32Z" uid="16319" user="ipodolsk" changeset="7337230" lat="52.7939176" lon="10.0457304"/>
  <node id="298575828" version="4" timestamp="2010-05-10T04:46:23Z" uid="4467" user="Rosscoe" changeset="4655908" lat="-38.110879" lon="145.2650472">
    <tag k="highway" v="traffic_signals"/>
  </node>
  <node id="298575948" version="2" timestamp="2008-09-24T05:08:07Z" uid="6975" user="ulfl" changeset="687743" lat="53.6424864" lon="10.0386803">
    <tag k="shop" v="hairdresser"/>
  </node>
  <node id="298575948" version="3" timestamp="2010-07-09T17:23:01Z" uid="51991" user="Wolfgang H" changeset="5175373" lat="53.6424864" lon="10.0386803">
    <tag k="addr:housenumber" v="2"/>
    <tag k="name" v="Lutze Hairstyling"/>
    <tag k="phone" v="538 47 94"/>
    <tag k="shop" v="hairdresser"/>
    <tag k="website" v="www.lUTZE-HAIRSTYLING.de"/>
  </node>
  <node id="298575948" version="4" timestamp="2010-12-06T18:35:16Z" uid="51991" user="Wolfgang H" changeset="6566703" lat="53.6425299" lon="10.0385813">
    <tag k="addr:housenumber" v="2"/>
    <tag k="name" v="Lutze Hairstyling"/>
    <tag k="phone" v="538 47 94"/>
    <tag k="shop" v="hairdresser"/>
    <tag k="website" v="www.lUTZE-HAIRSTYLING.de"/>
  </node>
  <node id="298575948" version="5" timestamp="2011-03-10T17:58:55Z" uid="51991" user="Wolfgang H" changeset="7516406" lat="53.6425299" lon="10.0385813">
    <tag k="addr:housenumber" v="2"/>
    <tag k="addr:street" v="Immenredder"/>
    <tag k="name" v="Lutze Hairstyling"/>
    <tag k="phone" v="538 47 94"/>
    <tag k="shop" v="hairdresser"/>
    <tag k="website" v="www.lUTZE-HAIRSTYLING.de"/>
  </node>
  <node id="298575949" version="2" timestamp="2009-04-15T08:37:00Z" uid="6975" user="ulfl" changeset="553994" lat="53.642446" lon="10.038458">
    <tag k="shop" v="estate_agent"/>
  </node>
  <node id="298575949" version="3" timestamp="2010-07-09T17:23:01Z" uid="51991" user="Wolfgang H" changeset="5175373" lat="53.642446" lon="10.038458">
    <tag k="name" v="Ideen südlich der Langeweile"/>
    <tag k="phone" v="0700-EISPRUNG"/>
    <tag k="shop" v="estate_agent"/>
  </node>
  <node id="298575949" version="4" timestamp="2010-11-05T10:36:36Z" uid="7785" user="StefanDausR" changeset="6294277" lat="53.642445" lon="10.038458">
    <tag k="name" v="Ideen südlich der Langeweile"/>
    <tag k="note" v="phone:vanity=0700-EISPRUNG"/>
    <tag k="shop" v="estate_agent"/>
  </node>
  <node id="298575949" version="5" timestamp="2010-11-30T10:54:53Z" uid="51991" user="Wolfgang H" changeset="6493377" lat="53.642445" lon="10.038458">
    <tag k="name" v="Ideen südlich der Langeweile"/>
    <tag k="note" v="phone:vanity=0700-EISPRUNG"/>
    <tag k="shop" v="vacant"/>
  </node>
  <node id="298575949" version="6" timestamp="2010-12-06T18:35:12Z" uid="51991" user="Wolfgang H" changeset="6566703" lat="53.642512" lon="10.0384336">
    <tag k="name" v="Ideen südlich der Langeweile"/>
    <tag k="note" v="phone:vanity=0700-EISPRUNG"/>
    <tag k="shop" v="vacant"/>
  </node>
  <node id="298575949" version="7" timestamp="2011-03-12T12:47:24Z" uid="51991" user="Wolfgang H" changeset="7532763" lat="53.642512" lon="10.0384336">
    <tag k="note" v="phone:vanity=0700-EISPRUNG"/>
    <tag k="shop" v="vacant"/>
  </node>
  <node id="298578176" version="3" timestamp="2010-03-14T11:13:21Z" uid="19626" user="Swamp" changeset="4123001" lat="-34.838485" lon="148.9130061"/>
  <node id="298578176" version="4" timestamp="2010-12-03T04:06:49Z" uid="74275" user="behemoth14" changeset="6522243" lat="-34.8384222" lon="148.9129582"/>
  <node id="298579405" version="2" timestamp="2008-12-20T13:12:29Z" uid="6975" user="ulfl" changeset="499085" lat="53.6413193" lon="10.0373679">
    <tag k="amenity" v="driving_school"/>
  </node>
  <node id="298579405" version="3" timestamp="2009-11-13T09:16:25Z" uid="51991" user="Wolfgang H" changeset="3104367" lat="53.641319" lon="10.0373679">
    <tag k="amenity" v="driving_school"/>
    <tag k="name" v="Hummelsbüttler Fahrschule"/>
  </node>
  <node id="298579405" version="4" timestamp="2010-07-09T17:23:05Z" uid="51991" user="Wolfgang H" changeset="5175373" lat="53.641319" lon="10.0373679">
    <tag k="addr:housenumber" v="55 d"/>
    <tag k="amenity" v="driving_school"/>
    <tag k="name" v="Hummelsbüttler Fahrschule"/>
    <tag k="opening_hours" v="mo-th18:30-20:00"/>
  </node>
  <node id="298579405" version="5" timestamp="2010-07-16T23:35:28Z" uid="51991" user="Wolfgang H" changeset="5238671" lat="53.641319" lon="10.0373679">
    <tag k="addr:city" v="Hamburg"/>
    <tag k="addr:country" v="DE"/>
    <tag k="addr:housenumber" v="55 d"/>
    <tag k="addr:postcode" v="22339"/>
    <tag k="addr:street" v="Hummelsbütteler Hauptstraße"/>
    <tag k="amenity" v="driving_school"/>
    <tag k="name" v="Hummelsbüttler Fahrschule"/>
    <tag k="opening_hours" v="mo-th18:30-20:00"/>
  </node>
  <node id="298579405" version="6" timestamp="2010-12-02T15:20:56Z" uid="32786" user="Netzwolf" changeset="6515829" lat="53.641319" lon="10.0373679">
    <tag k="addr:city" v="Hamburg"/>
    <tag k="addr:country" v="DE"/>
    <tag k="addr:housenumber" v="55 d"/>
    <tag k="addr:postcode" v="22339"/>
    <tag k="addr:street" v="Hummelsbütteler Hauptstraße"/>
    <tag k="amenity" v="driving_school"/>
    <tag k="name" v="Hummelsbüttler Fahrschule"/>
    <tag k="opening_hours" v="mo-th 18:30-20:00"/>
  </node>
  <node id="298579405" version="7" timestamp="2011-03-10T17:58:44Z" uid="51991" user="Wolfgang H" changeset="7516406" lat="53.641319" lon="10.0373679">
    <tag k="addr:city" v="Hamburg"/>
    <tag k="addr:country" v="DE"/>
    <tag k="addr:housenumber" v="55 d"/>
    <tag k="addr:postcode" v="22339"/>
    <tag k="addr:street" v="Hummelsbüttler Hauptstraße"/>
    <tag k="amenity" v="driving_school"/>
    <tag k="name" v="Hummelsbüttler Fahrschule"/>
    <tag k="opening_hours" v="mo-th 18:30-20:00"/>
  </node>
  <node id="298579409" version="2" timestamp="2008-09-24T05:08:07Z" uid="6975" user="ulfl" changeset="687743" lat="53.6403053" lon="10.0360805">
    <tag k="shop" v="hairdresser"/>
  </node>
  <node id="298579409" version="3" timestamp="2010-07-09T17:23:06Z" uid="51991" user="Wolfgang H" changeset="5175373" lat="53.6403766" lon="10.0361939">
    <tag k="addr:housenumber" v="39"/>
    <tag k="inhaber" v="gabriela Hille"/>
    <tag k="name" v="LA BIOSTETIQUE"/>
    <tag k="phone" v="040-538 38 52"/>
    <tag k="shop" v="hairdresser"/>
  </node>
  <node id="298579409" version="4" timestamp="2010-12-22T21:15:53Z" uid="26299" user="uboot" changeset="6740077" lat="53.6403766" lon="10.0361939">
    <tag k="addr:housenumber" v="39"/>
    <tag k="name" v="LA BIOSTETIQUE"/>
    <tag k="operator" v="Gabriela Hille"/>
    <tag k="phone" v="+49 40-538 38 52"/>
    <tag k="shop" v="hairdresser"/>
  </node>
</osm>
