<?xml version='1.0' encoding='UTF-8'?>
<osm version="0.6" generator="libosmium/2.20.0">
  <node id="300892228" version="2" timestamp="2008-10-23T05:24:00Z" uid="6975" user="ulfl" changeset="525020" lat="61.1984723" lon="28.7763153">
    <tag k="name" v="Osaset"/>
    <tag k="shop" v="car_parts"/>
  </node>
  <node id="300898288" version="2" timestamp="2009-02-03T21:02:08Z" uid="67142" user="zottel" changeset="99016" lat="48.881819" lon="8.6586755">
    <tag k="bus_lines" v="10"/>
    <tag k="highway" v="bus_stop"/>
    <tag k="name" v="Adolf-Richter-Straße"/>
    <tag k="operator" v="SVP"/>
    <tag k="shelter" v="yes"/>
  </node>
  <node id="300898288" version="3" timestamp="2009-02-05T13:28:13Z" uid="64482" user="Claas Augner" changeset="152716" lat="48.881819" lon="8.6586755">
    <tag k="bus_lines" v="10"/>
    <tag k="highway" v="bus_stop"/>
    <tag k="name" v="Adolf-Richter-Straße"/>
    <tag k="operator" v="SVP"/>
    <tag k="shelter" v="yes"/>
    <tag k="uic_ref" v="940581"/>
  </node>
  <node id="300898288" version="4" timestamp="2009-03-08T21:19:13Z" uid="64482" user="Claas Augner" changeset="761780" lat="48.8817448" lon="8.6586191">
    <tag k="bus_lines" v="10"/>
    <tag k="highway" v="bus_stop"/>
    <tag k="name" v="Adolf-Richter-Straße"/>
    <tag k="operator" v="SVP"/>
    <tag k="shelter" v="yes"/>
    <tag k="uic_ref" v="940581"/>
  </node>
  <node id="300898289" version="3" timestamp="2009-02-03T21:02:08Z" uid="67142" user="zottel" changeset="99016" lat="48.8815709" lon="8.6584091">
    <tag k="amenity" v="telephone"/>
    <tag k="operator" v="Deutsche Telekom"/>
  </node>
  <node id="300898289" version="4" timestamp="2010-09-02T17:43:28Z" uid="65148" user="Pirat Michi" changeset="5663913" lat="48.8815709" lon="8.6584091">
    <tag k="amenity" v="telephone"/>
    <tag k="operator" v="Deutsche Telekom AG"/>
  </node>
</osm>
