<?xml version='1.0' encoding='UTF-8'?>
<osm version="0.6" generator="libosmium/2.20.0">
  <node id="301520301" version="1" timestamp="2008-10-02T08:26:07Z" uid="43863" user="Rundling" changeset="23336" lat="53.5825403" lon="6.6683122">
    <tag k="amenity" v="post_box"/>
    <tag k="created_by" v="Merkaartor 0.12"/>
  </node>
  <node id="301520301" version="2" timestamp="2010-01-02T17:00:39Z" uid="99332" user="ekuester" changeset="3520310" lat="53.5825403" lon="6.6683122">
    <tag k="amenity" v="post_box"/>
    <tag k="created_by" v="Merkaartor 0.12"/>
  </node>
  <node id="301520303" version="1" timestamp="2008-10-02T08:26:36Z" uid="27600" user="Islanit" changeset="23194" lat="53.4759878" lon="10.1721926"/>
  <node id="301520303" version="2" timestamp="2009-01-24T07:52:58Z" uid="27600" user="Islanit" changeset="829782" lat="53.4759617" lon="10.1721999"/>
  <node id="301520303" version="3" timestamp="2012-03-07T15:41:41Z" uid="63375" user="Divjo" changeset="10900827" lat="53.4759617" lon="10.1721999"/>
  <node id="301520622" version="1" timestamp="2008-10-02T08:27:33Z" uid="27600" user="Islanit" changeset="23194" lat="53.4775052" lon="10.1791221"/>
  <node id="301520622" version="2" timestamp="2012-03-05T18:24:04Z" uid="63375" user="Divjo" changeset="10882411" lat="53.4775052" lon="10.1791221"/>
  <node id="301520775" version="1" timestamp="2008-10-02T08:29:06Z" uid="27600" user="Islanit" changeset="23194" lat="53.4751398" lon="10.1781407"/>
  <node id="301520775" version="2" timestamp="2010-11-04T12:16:17Z" uid="366862" user="osmeditor" changeset="6288010" lat="53.4751398" lon="10.1781407"/>
  <node id="301520776" version="1" timestamp="2008-10-02T08:29:06Z" uid="27600" user="Islanit" changeset="23194" lat="53.4751602" lon="10.1788359"/>
  <node id="301520776" version="2" timestamp="2010-11-04T12:16:17Z" uid="366862" user="osmeditor" changeset="6288010" lat="53.4751602" lon="10.1788359"/>
  <node id="301520777" version="1" timestamp="2008-10-02T08:29:06Z" uid="27600" user="Islanit" changeset="23194" lat="53.4744451" lon="10.1788445"/>
  <node id="301520777" version="2" timestamp="2010-11-04T12:16:17Z" uid="366862" user="osmeditor" changeset="6288010" lat="53.4744451" lon="10.1788445"/>
  <node id="301520778" version="1" timestamp="2008-10-02T08:29:06Z" uid="27600" user="Islanit" changeset="23194" lat="53.4744246" lon="10.1781407"/>
  <node id="301520778" version="2" timestamp="2010-11-04T12:16:17Z" uid="366862" user="osmeditor" changeset="6288010" lat="53.4744246" lon="10.1781407"/>
  <node id="301520826" version="2" timestamp="2011-01-27T10:57:02Z" uid="4467" user="Rosscoe" changeset="7102313" lat="-42.8786747" lon="147.317929"/>
  <node id="301520827" version="2" timestamp="2011-01-27T10:57:08Z" uid="4467" user="Rosscoe" changeset="7102313" lat="-42.8783602" lon="147.3173291"/>
  <node id="301520828" version="2" timestamp="2011-01-27T10:56:59Z" uid="4467" user="Rosscoe" changeset="7102313" lat="-42.8770344" lon="147.3163841"/>
  <node id="301520830" version="2" timestamp="2011-01-27T10:56:58Z" uid="4467" user="Rosscoe" changeset="7102313" lat="-42.8765449" lon="147.3172338"/>
  <node id="301520830" version="3" timestamp="2011-02-11T06:58:09Z" uid="8219" user="hunsly" changeset="7252381" lat="-42.8766088" lon="147.3170478"/>
  <node id="301520832" version="2" timestamp="2011-01-27T10:57:02Z" uid="4467" user="Rosscoe" changeset="7102313" lat="-42.8773316" lon="147.3178729"/>
  <node id="301520832" version="3" timestamp="2011-02-11T06:58:09Z" uid="8219" user="hunsly" changeset="7252381" lat="-42.8773713" lon="147.3177926"/>
  <node id="301520834" version="2" timestamp="2011-01-27T10:56:59Z" uid="4467" user="Rosscoe" changeset="7102313" lat="-42.877083" lon="147.3185799"/>
  <node id="301520836" version="2" timestamp="2011-01-27T10:56:58Z" uid="4467" user="Rosscoe" changeset="7102313" lat="-42.877876" lon="147.318998"/>
  <node id="301520851" version="4" timestamp="2011-01-27T10:57:10Z" uid="4467" user="Rosscoe" changeset="7102313" lat="-42.8752993" lon="147.3192246"/>
  <node id="301520851" version="5" timestamp="2011-05-05T12:22:11Z" uid="6513" user="Glen" changeset="8057031" lat="-42.8752936" lon="147.319288"/>
  <node id="301520877" version="4" timestamp="2011-01-27T10:57:05Z" uid="4467" user="Rosscoe" changeset="7102313" lat="-42.8764958" lon="147.3208991"/>
  <node id="301520877" version="5" timestamp="2011-05-05T12:22:01Z" uid="6513" user="Glen" changeset="8057031" lat="-42.8764992" lon="147.3209907"/>
  <node id="301521217" version="1" timestamp="2008-10-02T08:33:33Z" uid="43863" user="Rundling" changeset="23336" lat="53.5870456" lon="6.6620569">
    <tag k="created_by" v="Merkaartor 0.12"/>
    <tag k="tourism" v="hotel"/>
  </node>
  <node id="301521217" version="2" timestamp="2008-10-02T10:37:37Z" uid="43863" user="Rundling" changeset="24659" lat="53.5870456" lon="6.6620569">
    <tag k="created_by" v="Merkaartor 0.12"/>
    <tag k="name" v="Hotel Atlantik"/>
    <tag k="tourism" v="hotel"/>
  </node>
  <node id="301521217" version="3" timestamp="2008-10-03T13:01:28Z" uid="43863" user="Rundling" changeset="40919" lat="53.5870456" lon="6.6620568">
    <tag k="created_by" v="Merkaartor 0.12"/>
    <tag k="name" v="Hotel Atlantik"/>
    <tag k="tourism" v="hotel"/>
  </node>
  <node id="301521217" version="4" timestamp="2009-08-14T18:01:28Z" uid="99332" user="ekuester" changeset="2146004" lat="53.5871218" lon="6.6619723">
    <tag k="created_by" v="Merkaartor 0.12"/>
    <tag k="name" v="Hotel Atlantik"/>
    <tag k="tourism" v="hotel"/>
  </node>
  <node id="301521217" version="5" timestamp="2011-05-30T22:19:38Z" uid="169189" user="huehnertod" changeset="8297165" lat="53.5871218" lon="6.6619723"/>
  <node id="301525468" version="1" timestamp="2008-10-02T08:56:06Z" uid="27600" user="Islanit" changeset="23194" lat="53.4933622" lon="10.2070693">
    <tag k="amenity" v="pharmacy"/>
    <tag k="created_by" v="Potlatch 0.10c"/>
  </node>
  <node id="301525468" version="2" timestamp="2009-06-09T06:59:04Z" uid="112195" user="Jochend" changeset="1465532" lat="53.4933622" lon="10.2070693">
    <tag k="amenity" v="pharmacy"/>
    <tag k="created_by" v="Potlatch 0.10c"/>
    <tag k="name" v="Apotheke im Medical-Center"/>
  </node>
  <node id="301525468" version="3" timestamp="2010-02-04T20:22:22Z" uid="63375" user="Divjo" changeset="3793178" lat="53.4933622" lon="10.2070693">
    <tag k="amenity" v="pharmacy"/>
    <tag k="name" v="Apotheke im Medical-Center"/>
  </node>
  <node id="301525468" version="4" timestamp="2011-06-04T11:15:48Z" uid="290680" user="wheelmap_visitor" changeset="8336814" lat="53.4933622" lon="10.2070693">
    <tag k="amenity" v="pharmacy"/>
    <tag k="name" v="Apotheke im Medical-Center"/>
    <tag k="wheelchair" v="limited"/>
  </node>
  <node id="301525480" version="1" timestamp="2008-10-02T08:56:20Z" uid="27600" user="Islanit" changeset="23194" lat="53.4918252" lon="10.2074041">
    <tag k="amenity" v="pharmacy"/>
    <tag k="created_by" v="Potlatch 0.10c"/>
  </node>
  <node id="301525480" version="2" timestamp="2009-06-09T06:59:04Z" uid="112195" user="Jochend" changeset="1465532" lat="53.4918252" lon="10.2074041">
    <tag k="amenity" v="pharmacy"/>
    <tag k="created_by" v="Potlatch 0.10c"/>
    <tag k="name" v="Bille-Apotheke"/>
  </node>
  <node id="301525480" version="3" timestamp="2010-02-04T20:22:19Z" uid="63375" user="Divjo" changeset="3793178" lat="53.4918252" lon="10.2074041">
    <tag k="amenity" v="pharmacy"/>
    <tag k="name" v="Bille-Apotheke"/>
  </node>
  <node id="301525480" version="4" timestamp="2011-06-04T11:14:45Z" uid="290680" user="wheelmap_visitor" changeset="8336814" lat="53.4918252" lon="10.2074041">
    <tag k="amenity" v="pharmacy"/>
    <tag k="name" v="Bille-Apotheke"/>
    <tag k="wheelchair" v="limited"/>
  </node>
  <node id="301525480" version="5" timestamp="2011-10-24T16:38:16Z" uid="290680" user="wheelmap_visitor" changeset="9640163" lat="53.4918252" lon="10.2074041">
    <tag k="amenity" v="pharmacy"/>
    <tag k="name" v="Bille-Apotheke"/>
    <tag k="wheelchair" v="yes"/>
  </node>
  <node id="301525480" version="6" timestamp="2012-03-10T10:18:18Z" uid="63375" user="Divjo" changeset="10929821" lat="53.4918232" lon="10.2074063">
    <tag k="amenity" v="pharmacy"/>
    <tag k="name" v="Bille-Apotheke"/>
    <tag k="wheelchair" v="yes"/>
  </node>
  <node id="301525481" version="1" timestamp="2008-10-02T08:56:56Z" uid="27600" user="Islanit" changeset="23194" lat="53.4895885" lon="10.2088289">
    <tag k="amenity" v="pharmacy"/>
    <tag k="created_by" v="Potlatch 0.10c"/>
  </node>
  <node id="301525481" version="2" timestamp="2009-06-17T14:43:12Z" uid="112195" user="Jochend" changeset="1545942" lat="53.4895885" lon="10.2088289">
    <tag k="amenity" v="pharmacy"/>
    <tag k="created_by" v="Potlatch 0.10c"/>
    <tag k="name" v="Bahnhof Apotheke"/>
  </node>
  <node id="301525481" version="3" timestamp="2010-02-04T20:22:18Z" uid="63375" user="Divjo" changeset="3793178" lat="53.4895885" lon="10.2088289">
    <tag k="amenity" v="pharmacy"/>
    <tag k="name" v="Bahnhof Apotheke"/>
  </node>
  <node id="301525481" version="4" timestamp="2011-06-04T11:12:44Z" uid="290680" user="wheelmap_visitor" changeset="8336814" lat="53.4895885" lon="10.2088289">
    <tag k="amenity" v="pharmacy"/>
    <tag k="name" v="Bahnhof Apotheke"/>
    <tag k="wheelchair" v="no"/>
  </node>
  <node id="301525486" version="1" timestamp="2008-10-02T08:56:58Z" uid="27600" user="Islanit" changeset="23194" lat="53.4882863" lon="10.2099704">
    <tag k="created_by" v="Potlatch 0.10c"/>
  </node>
  <node id="301525486" version="2" timestamp="2008-10-02T08:57:13Z" uid="27600" user="Islanit" changeset="23194" lat="53.4882863" lon="10.2099704">
    <tag k="amenity" v="pharmacy"/>
    <tag k="created_by" v="Potlatch 0.10c"/>
  </node>
  <node id="301525486" version="3" timestamp="2009-06-17T14:43:12Z" uid="112195" user="Jochend" changeset="1545942" lat="53.4882863" lon="10.2099704">
    <tag k="amenity" v="pharmacy"/>
    <tag k="created_by" v="Potlatch 0.10c"/>
    <tag k="name" v="CCB-Apotheke"/>
  </node>
  <node id="301525486" version="4" timestamp="2010-01-05T18:07:04Z" uid="27600" user="Islanit" changeset="3547463" lat="53.4882864" lon="10.2099703">
    <tag k="addr:street" v="Kupferhof"/>
    <tag k="amenity" v="pharmacy"/>
    <tag k="name" v="CCB-Apotheke"/>
  </node>
  <node id="301525486" version="5" timestamp="2011-10-03T11:53:03Z" uid="290680" user="wheelmap_visitor" changeset="9456721" lat="53.4882864" lon="10.2099703">
    <tag k="addr:street" v="Kupferhof"/>
    <tag k="amenity" v="pharmacy"/>
    <tag k="name" v="CCB-Apotheke"/>
    <tag k="wheelchair" v="yes"/>
  </node>
  <node id="301525499" version="1" timestamp="2008-10-02T08:57:15Z" uid="27600" user="Islanit" changeset="23194" lat="53.4880821" lon="10.2125453">
    <tag k="created_by" v="Potlatch 0.10c"/>
  </node>
  <node id="301525499" version="2" timestamp="2008-10-02T08:57:34Z" uid="27600" user="Islanit" changeset="23194" lat="53.4880923" lon="10.2123823">
    <tag k="amenity" v="pharmacy"/>
    <tag k="created_by" v="Potlatch 0.10c"/>
  </node>
  <node id="301525499" version="3" timestamp="2009-06-17T14:43:12Z" uid="112195" user="Jochend" changeset="1545942" lat="53.4880923" lon="10.2123823">
    <tag k="amenity" v="pharmacy"/>
    <tag k="created_by" v="Potlatch 0.10c"/>
    <tag k="name" v="Linden-Apotheke"/>
  </node>
  <node id="301525499" version="4" timestamp="2010-02-04T20:22:20Z" uid="63375" user="Divjo" changeset="3793178" lat="53.4880923" lon="10.2123823">
    <tag k="amenity" v="pharmacy"/>
    <tag k="name" v="Linden-Apotheke"/>
  </node>
  <node id="301525499" version="5" timestamp="2011-10-03T22:13:05Z" uid="290680" user="wheelmap_visitor" changeset="9456721" lat="53.4880923" lon="10.2123823">
    <tag k="amenity" v="pharmacy"/>
    <tag k="name" v="Linden-Apotheke"/>
    <tag k="wheelchair" v="yes"/>
  </node>
  <node id="301525550" version="1" timestamp="2008-10-02T08:57:54Z" uid="27600" user="Islanit" changeset="23194" lat="53.4870658" lon="10.2134895">
    <tag k="created_by" v="Potlatch 0.10c"/>
  </node>
  <node id="301525550" version="2" timestamp="2008-10-02T08:58:07Z" uid="27600" user="Islanit" changeset="23194" lat="53.4870658" lon="10.2134895">
    <tag k="amenity" v="pharmacy"/>
    <tag k="created_by" v="Potlatch 0.10c"/>
  </node>
  <node id="301525550" version="3" timestamp="2009-06-17T14:43:12Z" uid="112195" user="Jochend" changeset="1545942" lat="53.4870658" lon="10.2134895">
    <tag k="amenity" v="pharmacy"/>
    <tag k="created_by" v="Potlatch 0.10c"/>
    <tag k="name" v="Löwen Apotheke"/>
  </node>
  <node id="301525550" version="4" timestamp="2010-02-04T20:22:20Z" uid="63375" user="Divjo" changeset="3793178" lat="53.4870658" lon="10.2134895">
    <tag k="amenity" v="pharmacy"/>
    <tag k="name" v="Löwen Apotheke"/>
  </node>
  <node id="301525550" version="5" timestamp="2010-03-10T11:55:42Z" uid="242218" user="DHf" changeset="4088689" lat="53.4870658" lon="10.2134895">
    <tag k="amenity" v="pharmacy"/>
    <tag k="name" v="Löwen-Apotheke"/>
  </node>
  <node id="301525550" version="6" timestamp="2011-06-04T11:11:42Z" uid="290680" user="wheelmap_visitor" changeset="8336814" lat="53.4870658" lon="10.2134895">
    <tag k="amenity" v="pharmacy"/>
    <tag k="name" v="Löwen-Apotheke"/>
    <tag k="wheelchair" v="limited"/>
  </node>
  <node id="301525550" version="7" timestamp="2011-10-02T20:21:30Z" uid="290680" user="wheelmap_visitor" changeset="9447804" lat="53.4870658" lon="10.2134895">
    <tag k="amenity" v="pharmacy"/>
    <tag k="name" v="Löwen-Apotheke"/>
    <tag k="wheelchair" v="yes"/>
  </node>
  <node id="301525662" version="1" timestamp="2008-10-02T08:58:34Z" uid="27600" user="Islanit" changeset="23194" lat="53.4889962" lon="10.2107944">
    <tag k="created_by" v="Potlatch 0.10c"/>
  </node>
  <node id="301525662" version="2" timestamp="2008-10-02T08:59:06Z" uid="27600" user="Islanit" changeset="23194" lat="53.4889962" lon="10.2107944">
    <tag k="created_by" v="Potlatch 0.10c"/>
    <tag k="name" v="Hasse Haus"/>
    <tag k="tourism" v="attraction"/>
  </node>
  <node id="301525662" version="3" timestamp="2010-02-04T20:22:19Z" uid="63375" user="Divjo" changeset="3793178" lat="53.4889962" lon="10.2107944">
    <tag k="name" v="Hasse Haus"/>
    <tag k="tourism" v="attraction"/>
  </node>
  <node id="301525662" version="4" timestamp="2010-08-19T18:24:22Z" uid="41512" user="Kuddl Klien" changeset="5537685" lat="53.4889963" lon="10.2107944">
    <tag k="name" v="Hasse-Haus"/>
    <tag k="tourism" v="attraction"/>
  </node>
  <node id="301525662" version="5" timestamp="2011-06-04T11:10:41Z" uid="290680" user="wheelmap_visitor" changeset="8336814" lat="53.4889963" lon="10.2107944">
    <tag k="name" v="Hasse-Haus"/>
    <tag k="tourism" v="attraction"/>
    <tag k="wheelchair" v="no"/>
  </node>
  <node id="301525796" version="1" timestamp="2008-10-02T08:59:50Z" uid="27600" user="Islanit" changeset="23194" lat="53.4864683" lon="10.2094469">
    <tag k="created_by" v="Potlatch 0.10c"/>
    <tag k="tourism" v="hotel"/>
  </node>
  <node id="301525796" version="2" timestamp="2008-10-27T13:46:23Z" uid="27600" user="Islanit" changeset="596909" lat="53.4864706" lon="10.2094444">
    <tag k="created_by" v="Potlatch 0.10e"/>
    <tag k="name" v="Ramada Treff"/>
    <tag k="tourism" v="hotel"/>
  </node>
  <node id="301525796" version="3" timestamp="2010-02-04T20:22:17Z" uid="63375" user="Divjo" changeset="3793178" lat="53.4864706" lon="10.2094444">
    <tag k="name" v="Ramada Treff"/>
    <tag k="tourism" v="hotel"/>
  </node>
  <node id="301525796" version="4" timestamp="2011-06-04T12:50:30Z" uid="290680" user="wheelmap_visitor" changeset="8336814" lat="53.4864706" lon="10.2094444">
    <tag k="name" v="Ramada Treff"/>
    <tag k="tourism" v="hotel"/>
    <tag k="wheelchair" v="limited"/>
  </node>
  <node id="301529281" version="4" timestamp="2008-10-23T17:24:32Z" uid="6975" user="ulfl" changeset="530870" lat="50.784598" lon="19.0901921">
    <tag k="is_in" v="Czestochowa"/>
    <tag k="note" v="Komandorska 17"/>
    <tag k="operator" v="Marek Politanski"/>
    <tag k="shop" v="car_repair"/>
  </node>
  <node id="301529281" version="5" timestamp="2011-05-01T12:48:58Z" uid="108298" user="Willer" changeset="8020796" lat="50.7846229" lon="19.0903415">
    <tag k="is_in" v="Czestochowa"/>
    <tag k="note" v="Komandorska 17"/>
    <tag k="operator" v="Marek Politanski"/>
    <tag k="shop" v="car_repair"/>
  </node>
</osm>
