<?xml version='1.0' encoding='UTF-8'?>
<osm version="0.6" generator="libosmium/2.20.0">
  <node id="301840198" version="2" timestamp="2009-01-31T16:50:27Z" uid="20587" user="balrog-kun" changeset="858385" lat="62.0354749" lon="129.6632001"/>
  <node id="301840198" version="3" timestamp="2010-01-27T03:59:47Z" uid="224770" user="LGhost" changeset="3725026" lat="62.0354749" lon="129.6632001"/>
  <node id="301840318" version="1" timestamp="2008-10-03T18:46:38Z" uid="67142" user="zottel" changeset="44549" lat="48.8782129" lon="8.719299"/>
  <node id="301840318" version="2" timestamp="2012-01-02T10:34:24Z" uid="442210" user="dwausr" changeset="10269130" lat="48.8782129" lon="8.719299"/>
  <node id="301840319" version="1" timestamp="2008-10-03T18:46:38Z" uid="67142" user="zottel" changeset="44549" lat="48.8751616" lon="8.7171868"/>
  <node id="301840319" version="2" timestamp="2008-11-14T16:46:34Z" uid="67142" user="zottel" changeset="746508" lat="48.8753016" lon="8.7171555"/>
  <node id="301840319" version="3" timestamp="2009-01-27T16:45:43Z" uid="67142" user="zottel" changeset="843522" lat="48.8755395" lon="8.7170879"/>
  <node id="301840319" version="4" timestamp="2011-11-18T12:34:28Z" uid="442210" user="dwausr" changeset="9863299" lat="48.8755395" lon="8.7170879"/>
  <node id="301840322" version="1" timestamp="2008-10-03T18:46:39Z" uid="67142" user="zottel" changeset="44549" lat="48.8757075" lon="8.7175994"/>
  <node id="301840322" version="2" timestamp="2008-11-14T16:46:34Z" uid="67142" user="zottel" changeset="746508" lat="48.8758146" lon="8.7175681"/>
  <node id="301840322" version="3" timestamp="2009-01-27T16:45:44Z" uid="67142" user="zottel" changeset="843522" lat="48.875811" lon="8.7173233"/>
  <node id="301840322" version="4" timestamp="2011-11-18T12:34:28Z" uid="442210" user="dwausr" changeset="9863299" lat="48.875811" lon="8.7173233"/>
  <node id="301840323" version="1" timestamp="2008-10-03T18:46:39Z" uid="67142" user="zottel" changeset="44549" lat="48.8745735" lon="8.7190258"/>
  <node id="301840323" version="2" timestamp="2009-01-27T16:45:44Z" uid="67142" user="zottel" changeset="843522" lat="48.8745847" lon="8.7190456"/>
  <node id="301840323" version="3" timestamp="2011-11-18T12:34:29Z" uid="442210" user="dwausr" changeset="9863299" lat="48.8745847" lon="8.7190456"/>
  <node id="301840324" version="1" timestamp="2008-10-03T18:46:39Z" uid="67142" user="zottel" changeset="44549" lat="48.8755353" lon="8.7176807"/>
  <node id="301840324" version="2" timestamp="2009-01-27T16:45:44Z" uid="67142" user="zottel" changeset="843522" lat="48.8756122" lon="8.7176076"/>
  <node id="301840324" version="3" timestamp="2011-11-18T12:34:29Z" uid="442210" user="dwausr" changeset="9863299" lat="48.8756122" lon="8.7176076"/>
  <node id="301840325" version="1" timestamp="2008-10-03T18:46:39Z" uid="67142" user="zottel" changeset="44549" lat="48.8786292" lon="8.7217536">
    <tag k="amenity" v="place_of_worship"/>
    <tag k="denomination" v="Gemeinde Gottes"/>
    <tag k="religion" v="christian"/>
  </node>
  <node id="301840325" version="2" timestamp="2008-12-19T15:54:36Z" uid="67142" user="zottel" changeset="475743" lat="48.8786292" lon="8.7217536">
    <tag k="amenity" v="place_of_worship"/>
    <tag k="denomination" v="Gemeinde Gottes"/>
    <tag k="phone" v="+49 7231 788700"/>
    <tag k="religion" v="christian"/>
  </node>
  <node id="301840325" version="3" timestamp="2009-10-04T04:40:14Z" uid="152289" user="cgu66" changeset="2731249" lat="48.8786292" lon="8.7217536">
    <tag k="amenity" v="place_of_worship"/>
    <tag k="denomination" v="church_of_god"/>
    <tag k="denomination:de" v="Gemeinde Gottes"/>
    <tag k="phone" v="+49 7231 788700"/>
    <tag k="religion" v="christian"/>
  </node>
  <node id="301840325" version="4" timestamp="2012-01-03T08:39:47Z" uid="442210" user="dwausr" changeset="10278980" lat="48.8786292" lon="8.7217536"/>
  <node id="301840327" version="1" timestamp="2008-10-03T18:46:40Z" uid="67142" user="zottel" changeset="44549" lat="48.8803082" lon="8.7159888"/>
  <node id="301840327" version="2" timestamp="2011-12-13T11:32:59Z" uid="442210" user="dwausr" changeset="10106749" lat="48.8803082" lon="8.7159888"/>
  <node id="301840328" version="1" timestamp="2008-10-03T18:46:40Z" uid="67142" user="zottel" changeset="44549" lat="48.8806378" lon="8.7167313"/>
  <node id="301840328" version="2" timestamp="2011-12-13T11:33:00Z" uid="442210" user="dwausr" changeset="10106749" lat="48.8806378" lon="8.7167313"/>
  <node id="301840330" version="1" timestamp="2008-10-03T18:46:40Z" uid="67142" user="zottel" changeset="44549" lat="48.8806108" lon="8.7172908"/>
  <node id="301840330" version="2" timestamp="2011-11-14T19:38:40Z" uid="179581" user="Geofreund1" changeset="9827940" lat="48.8805998" lon="8.7172577"/>
  <node id="301840330" version="3" timestamp="2011-12-13T11:33:00Z" uid="442210" user="dwausr" changeset="10106749" lat="48.8805998" lon="8.7172577"/>
  <node id="301840332" version="1" timestamp="2008-10-03T18:46:40Z" uid="67142" user="zottel" changeset="44549" lat="48.8806231" lon="8.717343"/>
  <node id="301840332" version="2" timestamp="2010-05-22T14:06:32Z" uid="77204" user="aps" changeset="4774679" lat="48.8806823" lon="8.7173053"/>
  <node id="301840332" version="3" timestamp="2011-03-22T22:41:27Z" uid="77204" user="aps" changeset="7642249" lat="48.8806295" lon="8.7172504"/>
  <node id="301840332" version="4" timestamp="2011-12-13T11:31:10Z" uid="442210" user="dwausr" changeset="10106749" lat="48.8806294" lon="8.7172506"/>
  <node id="301840333" version="1" timestamp="2008-10-03T18:46:41Z" uid="67142" user="zottel" changeset="44549" lat="48.8808259" lon="8.7139252">
    <tag k="bus_lines" v="5"/>
    <tag k="highway" v="bus_stop"/>
    <tag k="name" v="Kantstraße"/>
    <tag k="operator" v="SVP"/>
  </node>
  <node id="301840333" version="2" timestamp="2009-02-03T23:07:12Z" uid="64482" user="Claas Augner" changeset="118420" lat="48.8808259" lon="8.7139252">
    <tag k="bus_lines" v="5"/>
    <tag k="highway" v="bus_stop"/>
    <tag k="name" v="Kantstraße"/>
    <tag k="operator" v="SVP"/>
    <tag k="uic_ref" v="940683"/>
  </node>
  <node id="301840333" version="3" timestamp="2009-06-20T20:11:52Z" uid="77204" user="aps" changeset="1578245" lat="48.8808259" lon="8.7139252">
    <tag k="bus_lines" v="5"/>
    <tag k="highway" v="bus_stop"/>
    <tag k="operator" v="SVP"/>
  </node>
  <node id="301840334" version="1" timestamp="2008-10-03T18:46:41Z" uid="67142" user="zottel" changeset="44549" lat="48.8818908" lon="8.7138276">
    <tag k="bus_lines" v="5"/>
    <tag k="highway" v="bus_stop"/>
    <tag k="name" v="Kantstraße"/>
    <tag k="operator" v="SVP"/>
    <tag k="shelter" v="yes"/>
  </node>
  <node id="301840334" version="2" timestamp="2009-02-03T23:07:11Z" uid="64482" user="Claas Augner" changeset="118420" lat="48.8818908" lon="8.7138276">
    <tag k="bus_lines" v="5"/>
    <tag k="highway" v="bus_stop"/>
    <tag k="name" v="Kantstraße"/>
    <tag k="operator" v="SVP"/>
    <tag k="shelter" v="yes"/>
    <tag k="uic_ref" v="940683"/>
  </node>
  <node id="301840334" version="3" timestamp="2009-06-20T20:11:52Z" uid="77204" user="aps" changeset="1578245" lat="48.8818907" lon="8.7138276">
    <tag k="bus_lines" v="5"/>
    <tag k="highway" v="bus_stop"/>
    <tag k="operator" v="SVP"/>
    <tag k="shelter" v="yes"/>
  </node>
  <node id="301840335" version="1" timestamp="2008-10-03T18:46:41Z" uid="67142" user="zottel" changeset="44549" lat="48.8822311" lon="8.7137717"/>
  <node id="301840335" version="2" timestamp="2012-01-05T13:44:09Z" uid="442210" user="dwausr" changeset="10300991" lat="48.8822311" lon="8.7137717"/>
  <node id="301840336" version="1" timestamp="2008-10-03T18:46:42Z" uid="67142" user="zottel" changeset="44549" lat="48.8824869" lon="8.7136229"/>
  <node id="301840336" version="2" timestamp="2012-01-05T13:44:09Z" uid="442210" user="dwausr" changeset="10300991" lat="48.8824869" lon="8.7136229"/>
  <node id="301840337" version="1" timestamp="2008-10-03T18:46:42Z" uid="67142" user="zottel" changeset="44549" lat="48.8775525" lon="8.7170441">
    <tag k="bus_lines" v="5"/>
    <tag k="highway" v="bus_stop"/>
    <tag k="name" v="Hochschule / Wildpark"/>
    <tag k="operator" v="SVP"/>
    <tag k="shelter" v="yes"/>
  </node>
  <node id="301840337" version="2" timestamp="2009-02-03T23:07:14Z" uid="64482" user="Claas Augner" changeset="118420" lat="48.8775525" lon="8.7170441">
    <tag k="bus_lines" v="5"/>
    <tag k="highway" v="bus_stop"/>
    <tag k="name" v="Hochschule / Wildpark"/>
    <tag k="operator" v="SVP"/>
    <tag k="shelter" v="yes"/>
    <tag k="uic_ref" v="940917"/>
  </node>
  <node id="301840337" version="3" timestamp="2009-06-20T20:11:50Z" uid="77204" user="aps" changeset="1578245" lat="48.8775524" lon="8.717044">
    <tag k="bus" v="yes"/>
    <tag k="bus_lines" v="5"/>
    <tag k="highway" v="bus_stop"/>
    <tag k="operator" v="SVP"/>
    <tag k="public_transport" v="platform"/>
    <tag k="shelter" v="yes"/>
  </node>
  <node id="301840337" version="4" timestamp="2012-02-19T18:46:43Z" uid="20938" user="Loth" changeset="10732849" lat="48.8775524" lon="8.717044"/>
  <node id="301840338" version="1" timestamp="2008-10-03T18:46:42Z" uid="67142" user="zottel" changeset="44549" lat="48.877462" lon="8.716813">
    <tag k="bus_lines" v="5"/>
    <tag k="highway" v="bus_stop"/>
    <tag k="name" v="Hochschule / Wildpark"/>
    <tag k="operator" v="SVP"/>
  </node>
  <node id="301840338" version="2" timestamp="2009-02-03T23:07:13Z" uid="64482" user="Claas Augner" changeset="118420" lat="48.877462" lon="8.716813">
    <tag k="bus_lines" v="5"/>
    <tag k="highway" v="bus_stop"/>
    <tag k="name" v="Hochschule / Wildpark"/>
    <tag k="operator" v="SVP"/>
    <tag k="uic_ref" v="940917"/>
  </node>
  <node id="301840338" version="3" timestamp="2009-06-20T20:11:50Z" uid="77204" user="aps" changeset="1578245" lat="48.877462" lon="8.7168129">
    <tag k="bus" v="yes"/>
    <tag k="bus_lines" v="5"/>
    <tag k="highway" v="bus_stop"/>
    <tag k="operator" v="SVP"/>
    <tag k="public_transport" v="platform"/>
  </node>
  <node id="301840338" version="4" timestamp="2012-02-19T18:46:43Z" uid="20938" user="Loth" changeset="10732849" lat="48.877462" lon="8.7168129"/>
  <node id="301840339" version="1" timestamp="2008-10-03T18:46:42Z" uid="67142" user="zottel" changeset="44549" lat="48.8829398" lon="8.7127489">
    <tag k="bus_lines" v="5"/>
    <tag k="highway" v="bus_stop"/>
    <tag k="name" v="Max-Planck-Straße"/>
    <tag k="operator" v="SVP Stadtverkehr Pforzheim GmbH &amp; Co. KG"/>
  </node>
  <node id="301840339" version="2" timestamp="2008-11-05T00:40:05Z" uid="67142" user="zottel" changeset="683735" lat="48.8829398" lon="8.7127489">
    <tag k="bus_lines" v="5"/>
    <tag k="highway" v="bus_stop"/>
    <tag k="name" v="Max-Planck-Straße"/>
    <tag k="operator" v="SVP"/>
  </node>
  <node id="301840339" version="3" timestamp="2009-02-03T23:07:13Z" uid="64482" user="Claas Augner" changeset="118420" lat="48.8829398" lon="8.7127489">
    <tag k="bus_lines" v="5"/>
    <tag k="highway" v="bus_stop"/>
    <tag k="name" v="Max-Planck-Straße"/>
    <tag k="operator" v="SVP"/>
    <tag k="uic_ref" v="940710"/>
  </node>
  <node id="301840339" version="4" timestamp="2009-06-20T20:11:54Z" uid="77204" user="aps" changeset="1578245" lat="48.8829397" lon="8.7127489">
    <tag k="bus_lines" v="5"/>
    <tag k="highway" v="bus_stop"/>
    <tag k="operator" v="SVP"/>
    <tag k="public_transport" v="platform"/>
  </node>
  <node id="301844744" version="2" timestamp="2010-06-29T19:00:15Z" uid="74617" user="JohnSmith" changeset="5108182" lat="47.3844864" lon="-0.8686668">
    <tag k="fixme" v="sport=football is ambiguous, see http://wiki.osm.org/wiki/Football for more details"/>
    <tag k="leisure" v="stadium"/>
    <tag k="name" v="Stade municipal"/>
    <tag k="sport" v="football"/>
  </node>
  <node id="301846124" version="7" timestamp="2010-05-09T16:21:12Z" uid="33382" user="de_muur" changeset="4650554" lat="53.0938483" lon="8.9154322"/>
  <node id="301846124" version="8" timestamp="2012-03-25T21:09:48Z" uid="42429" user="42429" changeset="11100054" lat="53.0938275" lon="8.9154023"/>
  <node id="301846653" version="20" timestamp="2009-12-26T10:14:36Z" uid="58091" user="Andreas M" changeset="3453278" lat="48.1639871" lon="16.3257126">
    <tag k="addr:city" v="Wien"/>
    <tag k="amenity" v="car_sharing"/>
    <tag k="colour" v="#FF0000"/>
    <tag k="name" v="CarSharing Standplatz Kabelwerk [3402]"/>
    <tag k="operator" v="CarSharing.at"/>
  </node>
  <node id="301846653" version="21" timestamp="2010-05-22T18:29:24Z" uid="231980" user="boerl2" changeset="4776965" lat="48.1639979" lon="16.3256816">
    <tag k="addr:city" v="Wien"/>
    <tag k="amenity" v="car_sharing"/>
    <tag k="colour" v="#FF0000"/>
    <tag k="name" v="CarSharing Standplatz Kabelwerk [3402]"/>
    <tag k="operator" v="CarSharing.at"/>
  </node>
  <node id="301846653" version="22" timestamp="2010-06-12T21:43:00Z" uid="189538" user="Dichler" changeset="4974213" lat="48.1639979" lon="16.3256816"/>
  <node id="301846653" version="23" timestamp="2011-12-06T13:49:44Z" uid="507210" user="slurm" changeset="10050172" lat="48.1640384" lon="16.3257042"/>
  <node id="301846653" version="24" timestamp="2012-02-01T22:12:46Z" uid="129531" user="almich" changeset="10563150" lat="48.1640271" lon="16.3257419"/>
</osm>
