<?xml version='1.0' encoding='UTF-8'?>
<osm version="0.6" generator="libosmium/2.20.0">
  <node id="304060114" version="1" timestamp="2008-10-12T18:14:23Z" uid="33382" user="de_muur" changeset="285273" lat="53.0607594" lon="9.0255646">
    <tag k="created_by" v="JOSM"/>
  </node>
  <node id="304060114" version="2" timestamp="2010-03-21T08:31:07Z" uid="33382" user="de_muur" changeset="4188054" lat="53.0607408" lon="9.0254496"/>
  <node id="304060114" version="3" timestamp="2010-12-26T10:45:08Z" uid="115883" user="Senior_Spielbergo" changeset="6766826" lat="53.060717" lon="9.0254194"/>
  <node id="304060117" version="1" timestamp="2008-10-12T18:14:23Z" uid="33382" user="de_muur" changeset="285273" lat="53.0607995" lon="9.0261022">
    <tag k="created_by" v="JOSM"/>
  </node>
  <node id="304060117" version="2" timestamp="2010-12-12T11:33:00Z" uid="115883" user="Senior_Spielbergo" changeset="6634794" lat="53.0607647" lon="9.0260732"/>
  <node id="304060119" version="1" timestamp="2008-10-12T18:14:24Z" uid="33382" user="de_muur" changeset="285273" lat="53.0608038" lon="9.026931">
    <tag k="created_by" v="JOSM"/>
  </node>
  <node id="304060119" version="2" timestamp="2010-12-12T11:33:01Z" uid="115883" user="Senior_Spielbergo" changeset="6634794" lat="53.0607493" lon="9.0269336"/>
  <node id="304060120" version="1" timestamp="2008-10-12T18:14:24Z" uid="33382" user="de_muur" changeset="285273" lat="53.0607865" lon="9.0277425">
    <tag k="created_by" v="JOSM"/>
  </node>
  <node id="304060120" version="2" timestamp="2010-12-12T11:33:00Z" uid="115883" user="Senior_Spielbergo" changeset="6634794" lat="53.0607381" lon="9.0276846"/>
  <node id="304060123" version="1" timestamp="2008-10-12T18:14:24Z" uid="33382" user="de_muur" changeset="285273" lat="53.0609167" lon="9.0237393">
    <tag k="amenity" v="police"/>
    <tag k="created_by" v="JOSM"/>
  </node>
  <node id="304060123" version="2" timestamp="2010-01-22T09:44:19Z" uid="115883" user="Senior_Spielbergo" changeset="3681444" lat="53.0609167" lon="9.0237393">
    <tag k="addr:housenumber" v="45"/>
    <tag k="amenity" v="police"/>
    <tag k="phone" v="+49-4207-1285‎"/>
  </node>
  <node id="304060123" version="3" timestamp="2010-01-22T13:30:30Z" uid="115883" user="Senior_Spielbergo" changeset="3683124" lat="53.0609167" lon="9.0237393">
    <tag k="addr:housenumber" v="45"/>
    <tag k="amenity" v="police"/>
    <tag k="phone" v="+49 4207 1285‎"/>
  </node>
  <node id="304060123" version="4" timestamp="2010-01-25T09:58:55Z" uid="115883" user="Senior_Spielbergo" changeset="3709297" lat="53.0609167" lon="9.0237393">
    <tag k="addr:city" v="Oyten"/>
    <tag k="addr:country" v="DE"/>
    <tag k="addr:housenumber" v="45"/>
    <tag k="addr:phone" v="+49 4207 1285‎"/>
    <tag k="addr:postcode" v="28876"/>
    <tag k="addr:street" v="Hauptstraße"/>
    <tag k="amenity" v="police"/>
  </node>
  <node id="304060123" version="5" timestamp="2010-01-25T18:56:40Z" uid="115883" user="Senior_Spielbergo" changeset="3713381" lat="53.0609167" lon="9.0237393">
    <tag k="addr:city" v="Oyten"/>
    <tag k="addr:country" v="DE"/>
    <tag k="addr:housenumber" v="45"/>
    <tag k="addr:phone" v="+49 4207 1285‎"/>
    <tag k="addr:postcode" v="28876"/>
    <tag k="addr:street" v="Hauptstraße"/>
    <tag k="amenity" v="police"/>
    <tag k="name" v="Polizei"/>
  </node>
  <node id="304060123" version="6" timestamp="2010-01-27T12:59:06Z" uid="115883" user="Senior_Spielbergo" changeset="3727728" lat="53.060914" lon="9.0236018">
    <tag k="addr:city" v="Oyten"/>
    <tag k="addr:country" v="DE"/>
    <tag k="addr:housenumber" v="45"/>
    <tag k="addr:phone" v="+49 4207 1285‎"/>
    <tag k="addr:postcode" v="28876"/>
    <tag k="addr:street" v="Hauptstraße"/>
    <tag k="amenity" v="police"/>
    <tag k="name" v="Polizei"/>
  </node>
  <node id="304060123" version="7" timestamp="2010-03-06T12:43:00Z" uid="115883" user="Senior_Spielbergo" changeset="4049711" lat="53.060914" lon="9.0236018">
    <tag k="addr:city" v="Oyten"/>
    <tag k="addr:country" v="DE"/>
    <tag k="addr:housenumber" v="45"/>
    <tag k="addr:phone" v="+49 4207 1285‎"/>
    <tag k="addr:postcode" v="28876"/>
    <tag k="addr:street" v="Hauptstraße"/>
    <tag k="amenity" v="police"/>
    <tag k="name" v="Polizeistation Oyten"/>
  </node>
  <node id="304060123" version="8" timestamp="2010-04-15T15:22:39Z" uid="70696" user="xybot" changeset="4431179" lat="53.060914" lon="9.0236018">
    <tag k="addr:city" v="Oyten"/>
    <tag k="addr:country" v="DE"/>
    <tag k="addr:housenumber" v="45"/>
    <tag k="addr:postcode" v="28876"/>
    <tag k="addr:street" v="Hauptstraße"/>
    <tag k="amenity" v="police"/>
    <tag k="name" v="Polizeistation Oyten"/>
    <tag k="phone" v="+49 4207 1285‎"/>
  </node>
  <node id="304060123" version="9" timestamp="2010-05-22T09:14:14Z" uid="115883" user="Senior_Spielbergo" changeset="4772588" lat="53.060914" lon="9.0236018">
    <tag k="addr:city" v="Oyten"/>
    <tag k="addr:country" v="DE"/>
    <tag k="addr:housenumber" v="45"/>
    <tag k="addr:postcode" v="28876"/>
    <tag k="addr:street" v="Hauptstraße"/>
    <tag k="amenity" v="police"/>
    <tag k="contact:phone" v="+49 4207 1285‎"/>
    <tag k="name" v="Polizeistation Oyten"/>
  </node>
  <node id="304060123" version="10" timestamp="2010-12-26T10:45:09Z" uid="115883" user="Senior_Spielbergo" changeset="6766826" lat="53.060914" lon="9.0236018">
    <tag k="addr:city" v="Oyten"/>
    <tag k="addr:country" v="DE"/>
    <tag k="addr:housenumber" v="45"/>
    <tag k="addr:postcode" v="28876"/>
    <tag k="addr:street" v="Hauptstraße"/>
    <tag k="amenity" v="police"/>
    <tag k="contact:phone" v="+49 4207 1285‎"/>
    <tag k="name" v="Polizeistation Oyten"/>
  </node>
  <node id="304060128" version="1" timestamp="2008-10-12T18:14:24Z" uid="33382" user="de_muur" changeset="285273" lat="53.0608412" lon="9.023532">
    <tag k="created_by" v="JOSM"/>
    <tag k="highway" v="bus_stop"/>
  </node>
  <node id="304060128" version="2" timestamp="2010-02-23T09:34:00Z" uid="115883" user="Senior_Spielbergo" changeset="3951628" lat="53.0608412" lon="9.023532">
    <tag k="highway" v="bus_stop"/>
    <tag k="shelter" v="no"/>
  </node>
  <node id="304060128" version="3" timestamp="2011-09-30T07:36:54Z" uid="290680" user="wheelmap_visitor" changeset="9432437" lat="53.0608412" lon="9.023532">
    <tag k="highway" v="bus_stop"/>
    <tag k="shelter" v="no"/>
    <tag k="wheelchair" v="yes"/>
  </node>
  <node id="304060132" version="1" timestamp="2008-10-12T18:14:25Z" uid="33382" user="de_muur" changeset="285273" lat="53.060787" lon="9.0234533">
    <tag k="created_by" v="JOSM"/>
    <tag k="highway" v="bus_stop"/>
  </node>
  <node id="304060132" version="2" timestamp="2010-02-23T09:34:00Z" uid="115883" user="Senior_Spielbergo" changeset="3951628" lat="53.060787" lon="9.0234533">
    <tag k="highway" v="bus_stop"/>
    <tag k="shelter" v="no"/>
  </node>
  <node id="304060132" version="3" timestamp="2010-12-26T10:45:06Z" uid="115883" user="Senior_Spielbergo" changeset="6766826" lat="53.0607292" lon="9.023459">
    <tag k="highway" v="bus_stop"/>
    <tag k="shelter" v="no"/>
  </node>
  <node id="304060132" version="4" timestamp="2011-09-30T07:36:53Z" uid="290680" user="wheelmap_visitor" changeset="9432437" lat="53.0607292" lon="9.023459">
    <tag k="highway" v="bus_stop"/>
    <tag k="shelter" v="no"/>
    <tag k="wheelchair" v="yes"/>
  </node>
  <node id="304060138" version="1" timestamp="2008-10-12T18:14:25Z" uid="33382" user="de_muur" changeset="285273" lat="53.0607202" lon="9.0234193">
    <tag k="created_by" v="JOSM"/>
    <tag k="name" v="Fehrsenfeld"/>
    <tag k="tourism" v="hotel"/>
  </node>
  <node id="304060138" version="2" timestamp="2008-10-13T16:08:18Z" uid="33382" user="de_muur" changeset="310707" lat="53.0607202" lon="9.0234193">
    <tag k="created_by" v="JOSM"/>
    <tag k="name" v="Fehsenfeld"/>
    <tag k="tourism" v="hotel"/>
  </node>
  <node id="304060138" version="3" timestamp="2010-01-22T09:44:19Z" uid="115883" user="Senior_Spielbergo" changeset="3681444" lat="53.0607202" lon="9.0234193">
    <tag k="addr:housenumber" v="50"/>
    <tag k="name" v="Fehsenfeld"/>
    <tag k="phone" v="+49-4207-70060"/>
    <tag k="tourism" v="hotel"/>
  </node>
  <node id="304060138" version="4" timestamp="2010-01-22T13:30:30Z" uid="115883" user="Senior_Spielbergo" changeset="3683124" lat="53.0607202" lon="9.0234193">
    <tag k="addr:housenumber" v="50"/>
    <tag k="name" v="Fehsenfeld"/>
    <tag k="phone" v="+49 4207 70060"/>
    <tag k="tourism" v="hotel"/>
  </node>
  <node id="304060138" version="5" timestamp="2010-01-25T09:58:55Z" uid="115883" user="Senior_Spielbergo" changeset="3709297" lat="53.0607202" lon="9.0234193">
    <tag k="addr:city" v="Oyten"/>
    <tag k="addr:country" v="DE"/>
    <tag k="addr:housenumber" v="50"/>
    <tag k="addr:phone" v="+49 4207 70060"/>
    <tag k="addr:postcode" v="28876"/>
    <tag k="addr:street" v="Hauptstraße"/>
    <tag k="name" v="Fehsenfeld"/>
    <tag k="tourism" v="hotel"/>
  </node>
  <node id="304060138" version="6" timestamp="2010-01-27T12:59:06Z" uid="115883" user="Senior_Spielbergo" changeset="3727728" lat="53.0606882" lon="9.0233129">
    <tag k="addr:city" v="Oyten"/>
    <tag k="addr:country" v="DE"/>
    <tag k="addr:housenumber" v="50"/>
    <tag k="addr:phone" v="+49 4207 70060"/>
    <tag k="addr:postcode" v="28876"/>
    <tag k="addr:street" v="Hauptstraße"/>
    <tag k="name" v="Fehsenfeld"/>
    <tag k="tourism" v="hotel"/>
  </node>
  <node id="304060138" version="7" timestamp="2010-01-27T18:28:58Z" uid="115883" user="Senior_Spielbergo" changeset="3730322" lat="53.0606512" lon="9.02327">
    <tag k="addr:city" v="Oyten"/>
    <tag k="addr:country" v="DE"/>
    <tag k="addr:housenumber" v="50"/>
    <tag k="addr:phone" v="+49 4207 70060"/>
    <tag k="addr:postcode" v="28876"/>
    <tag k="addr:street" v="Hauptstraße"/>
    <tag k="name" v="Fehsenfeld"/>
    <tag k="tourism" v="hotel"/>
  </node>
  <node id="304060138" version="8" timestamp="2010-02-05T13:13:33Z" uid="115883" user="Senior_Spielbergo" changeset="3797700" lat="53.0606512" lon="9.02327">
    <tag k="addr:city" v="Oyten"/>
    <tag k="addr:country" v="DE"/>
    <tag k="addr:housenumber" v="50"/>
    <tag k="addr:phone" v="+49 4207 70060"/>
    <tag k="addr:postcode" v="28876"/>
    <tag k="addr:street" v="Hauptstraße"/>
    <tag k="name" v="Hotel Fehsenfeld"/>
    <tag k="tourism" v="hotel"/>
  </node>
  <node id="304060138" version="9" timestamp="2010-02-07T19:52:23Z" uid="115883" user="Senior_Spielbergo" changeset="3818235" lat="53.0606512" lon="9.02327">
    <tag k="addr:city" v="Oyten"/>
    <tag k="addr:country" v="DE"/>
    <tag k="addr:housenumber" v="50"/>
    <tag k="addr:phone" v="+49 4207 70060"/>
    <tag k="addr:postcode" v="28876"/>
    <tag k="addr:street" v="Hauptstraße"/>
    <tag k="name" v="Hotel Garni Fehsenfeld"/>
    <tag k="tourism" v="hotel"/>
  </node>
  <node id="304060138" version="10" timestamp="2010-04-15T15:22:39Z" uid="70696" user="xybot" changeset="4431179" lat="53.0606512" lon="9.02327">
    <tag k="addr:city" v="Oyten"/>
    <tag k="addr:country" v="DE"/>
    <tag k="addr:housenumber" v="50"/>
    <tag k="addr:postcode" v="28876"/>
    <tag k="addr:street" v="Hauptstraße"/>
    <tag k="name" v="Hotel Garni Fehsenfeld"/>
    <tag k="phone" v="+49 4207 70060"/>
    <tag k="tourism" v="hotel"/>
  </node>
  <node id="304060138" version="11" timestamp="2010-05-22T09:14:14Z" uid="115883" user="Senior_Spielbergo" changeset="4772588" lat="53.0606512" lon="9.02327">
    <tag k="addr:city" v="Oyten"/>
    <tag k="addr:country" v="DE"/>
    <tag k="addr:housenumber" v="50"/>
    <tag k="addr:postcode" v="28876"/>
    <tag k="addr:street" v="Hauptstraße"/>
    <tag k="contact:phone" v="+49 4207 70060"/>
    <tag k="name" v="Hotel Garni Fehsenfeld"/>
    <tag k="tourism" v="hotel"/>
  </node>
  <node id="304060138" version="12" timestamp="2010-12-26T10:45:11Z" uid="115883" user="Senior_Spielbergo" changeset="6766826" lat="53.0606512" lon="9.02327">
    <tag k="addr:city" v="Oyten"/>
    <tag k="addr:country" v="DE"/>
    <tag k="addr:housenumber" v="50"/>
    <tag k="addr:postcode" v="28876"/>
    <tag k="addr:street" v="Hauptstraße"/>
    <tag k="contact:phone" v="+49 4207 70060"/>
    <tag k="name" v="Hotel Garni Fehsenfeld"/>
    <tag k="tourism" v="hotel"/>
  </node>
  <node id="304060142" version="1" timestamp="2008-10-12T18:14:26Z" uid="33382" user="de_muur" changeset="285273" lat="53.0607605" lon="9.0227152">
    <tag k="amenity" v="pharmacy"/>
    <tag k="created_by" v="JOSM"/>
    <tag k="name" v="Flora Apotheke"/>
  </node>
  <node id="304060142" version="2" timestamp="2010-01-22T09:44:19Z" uid="115883" user="Senior_Spielbergo" changeset="3681444" lat="53.0607605" lon="9.0227152">
    <tag k="amenity" v="pharmacy"/>
    <tag k="email" v="info@flora-apotheke.com"/>
    <tag k="name" v="Flora Apotheke"/>
    <tag k="phone" v="+49-4207-3003"/>
    <tag k="website" v="http://www.flora-apotheke.com/"/>
  </node>
  <node id="304060142" version="3" timestamp="2010-01-22T13:30:30Z" uid="115883" user="Senior_Spielbergo" changeset="3683124" lat="53.0607605" lon="9.0227152">
    <tag k="amenity" v="pharmacy"/>
    <tag k="email" v="info@flora-apotheke.com"/>
    <tag k="name" v="Flora Apotheke"/>
    <tag k="opening_hours" v="Mo-Fr 8:00-12:30, 14:30-18:30; Sa 8:00-12:30"/>
    <tag k="phone" v="+49 4207 3003"/>
    <tag k="website" v="http://www.flora-apotheke.com/"/>
  </node>
  <node id="304060142" version="4" timestamp="2010-01-22T13:38:32Z" uid="115883" user="Senior_Spielbergo" changeset="3683189" lat="53.0607605" lon="9.0227152">
    <tag k="addr:housenumber" v="52"/>
    <tag k="amenity" v="pharmacy"/>
    <tag k="email" v="info@flora-apotheke.com"/>
    <tag k="name" v="Flora Apotheke"/>
    <tag k="opening_hours" v="Mo-Fr 8:00-12:30, 14:30-18:30; Sa 8:00-12:30"/>
    <tag k="phone" v="+49 4207 3003"/>
    <tag k="website" v="http://www.flora-apotheke.com/"/>
  </node>
  <node id="304060142" version="5" timestamp="2010-01-25T09:58:55Z" uid="115883" user="Senior_Spielbergo" changeset="3709297" lat="53.0607605" lon="9.0227152">
    <tag k="addr:city" v="Oyten"/>
    <tag k="addr:country" v="DE"/>
    <tag k="addr:email" v="info@flora-apotheke.com"/>
    <tag k="addr:housenumber" v="52"/>
    <tag k="addr:phone" v="+49 4207 3003"/>
    <tag k="addr:postcode" v="28876"/>
    <tag k="addr:street" v="Hauptstraße"/>
    <tag k="amenity" v="pharmacy"/>
    <tag k="name" v="Flora Apotheke"/>
    <tag k="opening_hours" v="Mo-Fr 8:00-12:30, 14:30-18:30; Sa 8:00-12:30"/>
    <tag k="website" v="http://www.flora-apotheke.com/"/>
  </node>
  <node id="304060142" version="6" timestamp="2010-01-27T12:59:06Z" uid="115883" user="Senior_Spielbergo" changeset="3727728" lat="53.0607099" lon="9.0226531">
    <tag k="addr:city" v="Oyten"/>
    <tag k="addr:country" v="DE"/>
    <tag k="addr:email" v="info@flora-apotheke.com"/>
    <tag k="addr:housenumber" v="52"/>
    <tag k="addr:phone" v="+49 4207 3003"/>
    <tag k="addr:postcode" v="28876"/>
    <tag k="addr:street" v="Hauptstraße"/>
    <tag k="amenity" v="pharmacy"/>
    <tag k="name" v="Flora Apotheke"/>
    <tag k="opening_hours" v="Mo-Fr 8:00-12:30, 14:30-18:30; Sa 8:00-12:30"/>
    <tag k="website" v="http://www.flora-apotheke.com/"/>
  </node>
  <node id="304060142" version="7" timestamp="2010-01-29T21:59:22Z" uid="115883" user="Senior_Spielbergo" changeset="3746940" lat="53.0607099" lon="9.0226531">
    <tag k="addr:city" v="Oyten"/>
    <tag k="addr:country" v="DE"/>
    <tag k="addr:email" v="info@flora-apotheke.com"/>
    <tag k="addr:housenumber" v="52"/>
    <tag k="addr:phone" v="+49 4207 3003"/>
    <tag k="addr:postcode" v="28876"/>
    <tag k="addr:street" v="Hauptstraße"/>
    <tag k="amenity" v="pharmacy"/>
    <tag k="name" v="Flora Apotheke"/>
    <tag k="opening_hours" v="Mo-Sa 8:00-12:30; Mo-Fr 14:30-18:30"/>
    <tag k="website" v="http://www.flora-apotheke.com/"/>
  </node>
  <node id="304060142" version="8" timestamp="2010-04-15T15:22:40Z" uid="70696" user="xybot" changeset="4431179" lat="53.0607099" lon="9.0226531">
    <tag k="addr:city" v="Oyten"/>
    <tag k="addr:country" v="DE"/>
    <tag k="addr:housenumber" v="52"/>
    <tag k="addr:postcode" v="28876"/>
    <tag k="addr:street" v="Hauptstraße"/>
    <tag k="amenity" v="pharmacy"/>
    <tag k="email" v="info@flora-apotheke.com"/>
    <tag k="name" v="Flora Apotheke"/>
    <tag k="opening_hours" v="Mo-Sa 8:00-12:30; Mo-Fr 14:30-18:30"/>
    <tag k="phone" v="+49 4207 3003"/>
    <tag k="website" v="http://www.flora-apotheke.com/"/>
  </node>
  <node id="304060142" version="9" timestamp="2010-05-22T09:14:13Z" uid="115883" user="Senior_Spielbergo" changeset="4772588" lat="53.0607099" lon="9.0226531">
    <tag k="addr:city" v="Oyten"/>
    <tag k="addr:country" v="DE"/>
    <tag k="addr:housenumber" v="52"/>
    <tag k="addr:postcode" v="28876"/>
    <tag k="addr:street" v="Hauptstraße"/>
    <tag k="amenity" v="pharmacy"/>
    <tag k="contact:email" v="info@flora-apotheke.com"/>
    <tag k="contact:phone" v="+49 4207 3003"/>
    <tag k="contact:website" v="http://www.flora-apotheke.com/"/>
    <tag k="name" v="Flora Apotheke"/>
    <tag k="opening_hours" v="Mo-Sa 8:00-12:30; Mo-Fr 14:30-18:30"/>
  </node>
  <node id="304060142" version="10" timestamp="2010-12-26T10:45:07Z" uid="115883" user="Senior_Spielbergo" changeset="6766826" lat="53.0606383" lon="9.0225192">
    <tag k="addr:city" v="Oyten"/>
    <tag k="addr:country" v="DE"/>
    <tag k="addr:housenumber" v="52"/>
    <tag k="addr:postcode" v="28876"/>
    <tag k="addr:street" v="Hauptstraße"/>
    <tag k="amenity" v="pharmacy"/>
    <tag k="contact:email" v="info@flora-apotheke.com"/>
    <tag k="contact:phone" v="+49 4207 3003"/>
    <tag k="contact:website" v="http://www.flora-apotheke.com/"/>
    <tag k="name" v="Flora Apotheke"/>
    <tag k="opening_hours" v="Mo-Sa 8:00-12:30; Mo-Fr 14:30-18:30"/>
  </node>
  <node id="304060424" version="2" timestamp="2010-07-29T09:40:58Z" uid="74617" user="JohnSmith" changeset="5344848" lat="50.9509654" lon="7.0050996">
    <tag k="amenity" v="emergency_phone"/>
    <tag k="emergency" v="phone"/>
  </node>
  <node id="304060424" version="3" timestamp="2011-10-08T13:48:19Z" uid="116044" user="berndw" changeset="9502743" lat="50.9509436" lon="7.005019">
    <tag k="amenity" v="emergency_phone"/>
    <tag k="emergency" v="phone"/>
  </node>
  <node id="304060508" version="2" timestamp="2008-10-20T00:15:47Z" uid="36809" user="pfoten_weg_!_" changeset="459880" lat="47.9814684" lon="11.2828773"/>
  <node id="304060508" version="3" timestamp="2008-10-20T11:01:09Z" uid="36809" user="pfoten_weg_!_" changeset="465300" lat="47.9815008" lon="11.2829096"/>
  <node id="304060508" version="4" timestamp="2011-01-14T02:17:16Z" uid="313675" user="alphax" changeset="6963727" lat="47.9814681" lon="11.2830039"/>
  <node id="304060510" version="2" timestamp="2008-10-20T00:15:47Z" uid="36809" user="pfoten_weg_!_" changeset="459880" lat="47.9813212" lon="11.282509"/>
  <node id="304060510" version="3" timestamp="2008-10-20T11:01:10Z" uid="36809" user="pfoten_weg_!_" changeset="465300" lat="47.9813021" lon="11.2824362"/>
  <node id="304060510" version="4" timestamp="2011-06-17T18:51:45Z" uid="313675" user="alphax" changeset="8467382" lat="47.9813277" lon="11.2825179"/>
  <node id="304060511" version="2" timestamp="2008-10-20T00:15:47Z" uid="36809" user="pfoten_weg_!_" changeset="459880" lat="47.9809864" lon="11.2826232"/>
  <node id="304060511" version="3" timestamp="2008-10-20T11:01:09Z" uid="36809" user="pfoten_weg_!_" changeset="465300" lat="47.9809846" lon="11.2826161"/>
  <node id="304060511" version="4" timestamp="2011-06-17T18:51:58Z" uid="313675" user="alphax" changeset="8467382" lat="47.9810179" lon="11.2826723"/>
  <node id="304060512" version="2" timestamp="2008-10-20T00:15:45Z" uid="36809" user="pfoten_weg_!_" changeset="459880" lat="47.9808157" lon="11.2827014"/>
  <node id="304060512" version="3" timestamp="2008-10-20T11:01:09Z" uid="36809" user="pfoten_weg_!_" changeset="465300" lat="47.980818" lon="11.2827104"/>
  <node id="304060512" version="4" timestamp="2011-06-17T18:51:46Z" uid="313675" user="alphax" changeset="8467382" lat="47.9808171" lon="11.2827768"/>
  <node id="304060514" version="2" timestamp="2008-10-20T00:15:45Z" uid="36809" user="pfoten_weg_!_" changeset="459880" lat="47.9805688" lon="11.2828515"/>
  <node id="304060514" version="3" timestamp="2008-10-20T11:01:08Z" uid="36809" user="pfoten_weg_!_" changeset="465300" lat="47.980573" lon="11.2828673"/>
  <node id="304060514" version="4" timestamp="2011-06-17T18:51:40Z" uid="313675" user="alphax" changeset="8467382" lat="47.9805687" lon="11.2828826"/>
  <node id="304060515" version="2" timestamp="2008-10-20T00:15:45Z" uid="36809" user="pfoten_weg_!_" changeset="459880" lat="47.9804788" lon="11.2829249"/>
  <node id="304060515" version="3" timestamp="2008-10-20T11:01:08Z" uid="36809" user="pfoten_weg_!_" changeset="465300" lat="47.9805042" lon="11.2829091"/>
  <node id="304060515" version="4" timestamp="2008-11-16T22:17:17Z" uid="74324" user="My2World" changeset="763183" lat="47.9805042" lon="11.2829091"/>
  <node id="304060515" version="5" timestamp="2008-11-16T22:18:22Z" uid="74324" user="My2World" changeset="763183" lat="47.9806478" lon="11.2830808"/>
  <node id="304060515" version="6" timestamp="2009-04-23T13:10:00Z" uid="27385" user="KaMu" changeset="912420" lat="47.9805304" lon="11.283109"/>
  <node id="304060517" version="2" timestamp="2008-10-20T11:01:09Z" uid="36809" user="pfoten_weg_!_" changeset="465300" lat="47.9805382" lon="11.2830642"/>
  <node id="304060517" version="3" timestamp="2009-04-23T13:10:00Z" uid="27385" user="KaMu" changeset="912420" lat="47.980665" lon="11.2830877"/>
  <node id="304060518" version="2" timestamp="2008-10-20T00:15:46Z" uid="36809" user="pfoten_weg_!_" changeset="459880" lat="47.9796811" lon="11.2827526"/>
  <node id="304060518" version="3" timestamp="2008-10-20T11:01:19Z" uid="36809" user="pfoten_weg_!_" changeset="465300" lat="47.9796811" lon="11.2827526"/>
  <node id="304060520" version="2" timestamp="2008-10-20T00:15:46Z" uid="36809" user="pfoten_weg_!_" changeset="459880" lat="47.9787172" lon="11.2825749"/>
  <node id="304060520" version="3" timestamp="2008-10-20T11:01:19Z" uid="36809" user="pfoten_weg_!_" changeset="465300" lat="47.9787172" lon="11.2825749"/>
  <node id="304060521" version="2" timestamp="2008-10-20T11:01:19Z" uid="36809" user="pfoten_weg_!_" changeset="465300" lat="47.9789878" lon="11.2825662"/>
  <node id="304060522" version="2" timestamp="2008-10-20T00:15:46Z" uid="36809" user="pfoten_weg_!_" changeset="459880" lat="47.9779808" lon="11.2825566"/>
  <node id="304060522" version="3" timestamp="2008-10-20T11:01:19Z" uid="36809" user="pfoten_weg_!_" changeset="465300" lat="47.9779808" lon="11.2825566"/>
  <node id="304060523" version="2" timestamp="2008-10-20T00:15:46Z" uid="36809" user="pfoten_weg_!_" changeset="459880" lat="47.9770467" lon="11.2816103"/>
  <node id="304060523" version="3" timestamp="2008-10-20T11:01:19Z" uid="36809" user="pfoten_weg_!_" changeset="465300" lat="47.9770467" lon="11.2816103"/>
  <node id="304060524" version="2" timestamp="2008-10-20T11:01:18Z" uid="36809" user="pfoten_weg_!_" changeset="465300" lat="47.9762262" lon="11.2806827"/>
  <node id="304060526" version="2" timestamp="2008-10-20T11:01:19Z" uid="36809" user="pfoten_weg_!_" changeset="465300" lat="47.9755258" lon="11.2799154"/>
  <node id="304060527" version="2" timestamp="2008-10-20T11:01:18Z" uid="36809" user="pfoten_weg_!_" changeset="465300" lat="47.9750898" lon="11.2793956"/>
  <node id="304060528" version="2" timestamp="2008-10-20T11:01:18Z" uid="36809" user="pfoten_weg_!_" changeset="465300" lat="47.9744414" lon="11.2790822"/>
  <node id="304060530" version="2" timestamp="2008-10-20T00:15:46Z" uid="36809" user="pfoten_weg_!_" changeset="459880" lat="47.9740683" lon="11.2789326"/>
  <node id="304060530" version="3" timestamp="2008-10-20T11:01:18Z" uid="36809" user="pfoten_weg_!_" changeset="465300" lat="47.9740683" lon="11.2789326"/>
  <node id="304060532" version="2" timestamp="2008-10-20T00:15:47Z" uid="36809" user="pfoten_weg_!_" changeset="459880" lat="47.9735002" lon="11.2785339"/>
  <node id="304060532" version="3" timestamp="2008-10-20T11:01:18Z" uid="36809" user="pfoten_weg_!_" changeset="465300" lat="47.9735002" lon="11.2785339"/>
  <node id="304060534" version="2" timestamp="2008-10-20T00:15:46Z" uid="36809" user="pfoten_weg_!_" changeset="459880" lat="47.9732291" lon="11.2782415"/>
  <node id="304060534" version="3" timestamp="2008-10-20T11:01:18Z" uid="36809" user="pfoten_weg_!_" changeset="465300" lat="47.9732291" lon="11.2782415"/>
  <node id="304060536" version="2" timestamp="2008-10-20T11:01:17Z" uid="36809" user="pfoten_weg_!_" changeset="465300" lat="47.9730249" lon="11.2778917"/>
  <node id="304060538" version="2" timestamp="2008-10-20T11:01:17Z" uid="36809" user="pfoten_weg_!_" changeset="465300" lat="47.9728514" lon="11.2776156"/>
  <node id="304060539" version="2" timestamp="2008-10-20T11:01:18Z" uid="36809" user="pfoten_weg_!_" changeset="465300" lat="47.972671" lon="11.2773005"/>
  <node id="304060540" version="2" timestamp="2008-10-20T11:01:17Z" uid="36809" user="pfoten_weg_!_" changeset="465300" lat="47.9712144" lon="11.2708792"/>
  <node id="304060541" version="2" timestamp="2008-10-20T00:15:47Z" uid="36809" user="pfoten_weg_!_" changeset="459880" lat="47.9790936" lon="11.2675489"/>
  <node id="304060545" version="2" timestamp="2008-10-20T00:15:48Z" uid="36809" user="pfoten_weg_!_" changeset="459880" lat="47.9800794" lon="11.2672291"/>
  <node id="304060545" version="3" timestamp="2009-08-18T08:32:39Z" uid="72235" user="Basstoelpel" changeset="2186984" lat="47.9800139" lon="11.2673067"/>
  <node id="304060546" version="2" timestamp="2008-10-20T00:15:48Z" uid="36809" user="pfoten_weg_!_" changeset="459880" lat="47.9837176" lon="11.2697471"/>
  <node id="304060546" version="3" timestamp="2011-07-04T20:31:00Z" uid="313675" user="alphax" changeset="8633611" lat="47.9837015" lon="11.2697559"/>
  <node id="304060547" version="2" timestamp="2008-10-20T00:15:48Z" uid="36809" user="pfoten_weg_!_" changeset="459880" lat="47.9856844" lon="11.2700078"/>
  <node id="304060549" version="2" timestamp="2008-10-20T00:15:48Z" uid="36809" user="pfoten_weg_!_" changeset="459880" lat="47.9863694" lon="11.2694393"/>
  <node id="304060549" version="3" timestamp="2010-07-14T06:54:02Z" uid="42393" user="mawi42" changeset="5214214" lat="47.9863139" lon="11.2694857"/>
  <node id="304060550" version="2" timestamp="2008-10-20T00:15:48Z" uid="36809" user="pfoten_weg_!_" changeset="459880" lat="47.9865666" lon="11.2691375"/>
  <node id="304060550" version="3" timestamp="2010-12-19T08:57:29Z" uid="42393" user="mawi42" changeset="6703293" lat="47.9866028" lon="11.2690958"/>
  <node id="304060552" version="2" timestamp="2008-10-20T00:15:47Z" uid="36809" user="pfoten_weg_!_" changeset="459880" lat="47.9888068" lon="11.2732986"/>
  <node id="304060555" version="2" timestamp="2008-10-20T00:15:48Z" uid="36809" user="pfoten_weg_!_" changeset="459880" lat="47.9890134" lon="11.2767404"/>
  <node id="304060556" version="2" timestamp="2008-10-20T00:15:47Z" uid="36809" user="pfoten_weg_!_" changeset="459880" lat="47.9885314" lon="11.27732"/>
  <node id="304060556" version="3" timestamp="2009-07-27T07:17:17Z" uid="42393" user="mawi42" changeset="1952241" lat="47.9885758" lon="11.2773628"/>
  <node id="304061184" version="1" timestamp="2008-10-12T18:18:56Z" uid="66036" user="h4v" changeset="291913" lat="51.7803648" lon="19.4221931"/>
  <node id="304061184" version="2" timestamp="2008-10-21T07:47:11Z" uid="66036" user="h4v" changeset="483354" lat="51.7803648" lon="19.4221931"/>
  <node id="304061184" version="3" timestamp="2008-10-21T18:43:32Z" uid="66036" user="h4v" changeset="495380" lat="51.7803648" lon="19.4221931"/>
  <node id="304061184" version="4" timestamp="2009-07-10T22:21:05Z" uid="73912" user="Jack_lodz" changeset="1793235" lat="51.780363" lon="19.4221267"/>
  <node id="304061184" version="5" timestamp="2009-10-27T21:52:35Z" uid="73912" user="Jack_lodz" changeset="2969412" lat="51.780363" lon="19.4221267"/>
  <node id="304061184" version="6" timestamp="2011-02-23T12:46:13Z" uid="338611" user="marek kleciak" changeset="7372096" lat="51.7805006" lon="19.4222557"/>
  <node id="304061185" version="1" timestamp="2008-10-12T18:18:56Z" uid="66036" user="h4v" changeset="291913" lat="51.7804922" lon="19.4230085"/>
  <node id="304061185" version="2" timestamp="2008-10-21T07:47:11Z" uid="66036" user="h4v" changeset="483354" lat="51.7804922" lon="19.4230085"/>
  <node id="304061185" version="3" timestamp="2008-10-21T18:43:33Z" uid="66036" user="h4v" changeset="495380" lat="51.7804922" lon="19.4230085"/>
  <node id="304061185" version="4" timestamp="2009-07-10T22:21:05Z" uid="73912" user="Jack_lodz" changeset="1793235" lat="51.7804904" lon="19.4229421"/>
  <node id="304061185" version="5" timestamp="2009-10-27T21:52:35Z" uid="73912" user="Jack_lodz" changeset="2969412" lat="51.7804904" lon="19.4229421"/>
  <node id="304061185" version="6" timestamp="2011-02-23T12:46:15Z" uid="338611" user="marek kleciak" changeset="7372096" lat="51.7806461" lon="19.4229501"/>
  <node id="304061188" version="1" timestamp="2008-10-12T18:18:56Z" uid="66036" user="h4v" changeset="291913" lat="51.7807206" lon="19.4242959"/>
  <node id="304061188" version="2" timestamp="2008-10-21T07:47:11Z" uid="66036" user="h4v" changeset="483354" lat="51.7808643" lon="19.4243751"/>
  <node id="304061188" version="3" timestamp="2008-10-21T18:43:33Z" uid="66036" user="h4v" changeset="495380" lat="51.7808643" lon="19.4243751"/>
  <node id="304061188" version="4" timestamp="2009-07-10T22:21:05Z" uid="73912" user="Jack_lodz" changeset="1793235" lat="51.7808625" lon="19.4243087"/>
  <node id="304061188" version="5" timestamp="2009-10-27T21:52:35Z" uid="73912" user="Jack_lodz" changeset="2969412" lat="51.7808625" lon="19.4243087"/>
  <node id="304061188" version="6" timestamp="2011-02-23T12:46:13Z" uid="338611" user="marek kleciak" changeset="7372096" lat="51.7808868" lon="19.424394"/>
  <node id="304061189" version="1" timestamp="2008-10-12T18:18:56Z" uid="66036" user="h4v" changeset="291913" lat="51.7809701" lon="19.4256521"/>
  <node id="304061189" version="2" timestamp="2008-10-21T07:47:11Z" uid="66036" user="h4v" changeset="483354" lat="51.7810608" lon="19.4251476"/>
  <node id="304061189" version="3" timestamp="2008-10-21T18:43:33Z" uid="66036" user="h4v" changeset="495380" lat="51.7810608" lon="19.4251476"/>
  <node id="304061189" version="4" timestamp="2009-07-10T22:21:05Z" uid="73912" user="Jack_lodz" changeset="1793235" lat="51.781059" lon="19.4250811"/>
  <node id="304061189" version="5" timestamp="2009-10-27T21:52:36Z" uid="73912" user="Jack_lodz" changeset="2969412" lat="51.781059" lon="19.4250811"/>
  <node id="304061189" version="6" timestamp="2011-02-23T12:46:12Z" uid="338611" user="marek kleciak" changeset="7372096" lat="51.7810084" lon="19.4249519"/>
  <node id="304061190" version="1" timestamp="2008-10-12T18:18:56Z" uid="66036" user="h4v" changeset="291913" lat="51.7811401" lon="19.4265275"/>
  <node id="304061190" version="2" timestamp="2008-10-21T07:47:11Z" uid="66036" user="h4v" changeset="483354" lat="51.7812041" lon="19.4264437"/>
  <node id="304061190" version="3" timestamp="2008-10-21T18:43:33Z" uid="66036" user="h4v" changeset="495380" lat="51.7812041" lon="19.4264437"/>
  <node id="304061190" version="4" timestamp="2009-07-10T22:21:06Z" uid="73912" user="Jack_lodz" changeset="1793235" lat="51.7812023" lon="19.4263772"/>
  <node id="304061190" version="5" timestamp="2009-10-27T21:52:36Z" uid="73912" user="Jack_lodz" changeset="2969412" lat="51.7812023" lon="19.4263772"/>
  <node id="304061192" version="1" timestamp="2008-10-12T18:18:56Z" uid="66036" user="h4v" changeset="291913" lat="51.7811879" lon="19.4266305"/>
  <node id="304061192" version="2" timestamp="2008-10-21T07:47:11Z" uid="66036" user="h4v" changeset="483354" lat="51.7812519" lon="19.4265638"/>
  <node id="304061192" version="3" timestamp="2008-10-21T18:43:33Z" uid="66036" user="h4v" changeset="495380" lat="51.7812519" lon="19.4265638"/>
  <node id="304061192" version="4" timestamp="2009-07-10T22:21:06Z" uid="73912" user="Jack_lodz" changeset="1793235" lat="51.7812501" lon="19.4264974"/>
  <node id="304061192" version="5" timestamp="2009-10-27T21:52:36Z" uid="73912" user="Jack_lodz" changeset="2969412" lat="51.7812501" lon="19.4264974"/>
  <node id="304061192" version="6" timestamp="2011-02-23T12:46:12Z" uid="338611" user="marek kleciak" changeset="7372096" lat="51.7812398" lon="19.4265049"/>
  <node id="304061193" version="1" timestamp="2008-10-12T18:18:56Z" uid="66036" user="h4v" changeset="291913" lat="51.7812108" lon="19.4267645"/>
  <node id="304061193" version="2" timestamp="2008-10-12T18:19:04Z" uid="66036" user="h4v" changeset="291913" lat="51.7812108" lon="19.4267645"/>
  <node id="304061193" version="3" timestamp="2008-10-16T14:52:41Z" uid="57752" user="Viol8or" changeset="381882" lat="51.7812108" lon="19.4267645"/>
  <node id="304061193" version="4" timestamp="2008-10-21T07:47:11Z" uid="66036" user="h4v" changeset="483354" lat="51.7812732" lon="19.4267355"/>
  <node id="304061193" version="5" timestamp="2008-10-21T07:49:40Z" uid="66036" user="h4v" changeset="483354" lat="51.7812732" lon="19.4267355"/>
  <node id="304061193" version="6" timestamp="2008-10-21T07:50:05Z" uid="66036" user="h4v" changeset="483354" lat="51.7812732" lon="19.4267355"/>
  <node id="304061193" version="7" timestamp="2008-10-21T18:43:33Z" uid="66036" user="h4v" changeset="495380" lat="51.7812732" lon="19.4267355"/>
  <node id="304061193" version="8" timestamp="2009-02-09T22:27:05Z" uid="66036" user="h4v" changeset="309199" lat="51.7812732" lon="19.4267355"/>
  <node id="304061193" version="9" timestamp="2009-07-10T22:21:06Z" uid="73912" user="Jack_lodz" changeset="1793235" lat="51.7812714" lon="19.4266691"/>
  <node id="304061193" version="10" timestamp="2009-10-27T21:52:36Z" uid="73912" user="Jack_lodz" changeset="2969412" lat="51.7812714" lon="19.4266691"/>
  <node id="304061193" version="11" timestamp="2011-02-23T12:46:16Z" uid="338611" user="marek kleciak" changeset="7372096" lat="51.781312" lon="19.4267024"/>
  <node id="304061194" version="1" timestamp="2008-10-12T18:18:56Z" uid="66036" user="h4v" changeset="291913" lat="51.7812091" lon="19.4269223"/>
  <node id="304061194" version="2" timestamp="2008-10-21T07:47:11Z" uid="66036" user="h4v" changeset="483354" lat="51.7812519" lon="19.4269071"/>
  <node id="304061194" version="3" timestamp="2008-10-21T18:43:33Z" uid="66036" user="h4v" changeset="495380" lat="51.7812519" lon="19.4269071"/>
  <node id="304061194" version="4" timestamp="2009-07-10T22:21:06Z" uid="73912" user="Jack_lodz" changeset="1793235" lat="51.7812501" lon="19.4268407"/>
  <node id="304061194" version="5" timestamp="2009-10-27T21:52:37Z" uid="73912" user="Jack_lodz" changeset="2969412" lat="51.7812501" lon="19.4268407"/>
  <node id="304061194" version="6" timestamp="2011-02-23T12:46:13Z" uid="338611" user="marek kleciak" changeset="7372096" lat="51.7812736" lon="19.426936"/>
  <node id="304061196" version="1" timestamp="2008-10-12T18:18:56Z" uid="66036" user="h4v" changeset="291913" lat="51.781241" lon="19.4272657"/>
  <node id="304061196" version="2" timestamp="2008-10-21T07:47:11Z" uid="66036" user="h4v" changeset="483354" lat="51.781241" lon="19.4272657"/>
  <node id="304061196" version="3" timestamp="2008-10-21T18:43:33Z" uid="66036" user="h4v" changeset="495380" lat="51.781241" lon="19.4272657"/>
  <node id="304061196" version="4" timestamp="2009-07-10T22:21:06Z" uid="73912" user="Jack_lodz" changeset="1793235" lat="51.7812392" lon="19.4271993"/>
  <node id="304061196" version="5" timestamp="2009-10-27T21:52:37Z" uid="73912" user="Jack_lodz" changeset="2969412" lat="51.7812392" lon="19.4271993"/>
  <node id="304061196" version="6" timestamp="2011-02-23T12:46:15Z" uid="338611" user="marek kleciak" changeset="7372096" lat="51.7812796" lon="19.4272158"/>
  <node id="304061197" version="1" timestamp="2008-10-12T18:18:56Z" uid="66036" user="h4v" changeset="291913" lat="51.7813472" lon="19.4281583"/>
  <node id="304061197" version="2" timestamp="2008-10-21T07:47:11Z" uid="66036" user="h4v" changeset="483354" lat="51.7813472" lon="19.4281583"/>
  <node id="304061197" version="3" timestamp="2008-10-21T18:43:33Z" uid="66036" user="h4v" changeset="495380" lat="51.7813472" lon="19.4281583"/>
  <node id="304061197" version="4" timestamp="2009-07-10T22:21:06Z" uid="73912" user="Jack_lodz" changeset="1793235" lat="51.7813454" lon="19.4280918"/>
  <node id="304061197" version="5" timestamp="2009-10-27T21:52:37Z" uid="73912" user="Jack_lodz" changeset="2969412" lat="51.7813454" lon="19.4280918"/>
  <node id="304061197" version="6" timestamp="2011-03-09T16:05:50Z" uid="338611" user="marek kleciak" changeset="7504866" lat="51.7814236" lon="19.4282808"/>
  <node id="304061199" version="1" timestamp="2008-10-12T18:18:56Z" uid="66036" user="h4v" changeset="291913" lat="51.7813684" lon="19.4285703"/>
  <node id="304061199" version="2" timestamp="2008-10-21T07:47:11Z" uid="66036" user="h4v" changeset="483354" lat="51.7813684" lon="19.4285703"/>
  <node id="304061199" version="3" timestamp="2008-10-21T18:43:34Z" uid="66036" user="h4v" changeset="495380" lat="51.7813684" lon="19.4285703"/>
  <node id="304061199" version="4" timestamp="2009-07-10T22:21:06Z" uid="73912" user="Jack_lodz" changeset="1793235" lat="51.7813666" lon="19.4285039"/>
  <node id="304061199" version="5" timestamp="2009-10-27T21:52:38Z" uid="73912" user="Jack_lodz" changeset="2969412" lat="51.7813666" lon="19.4285039"/>
  <node id="304061199" version="6" timestamp="2011-03-09T16:05:50Z" uid="338611" user="marek kleciak" changeset="7504866" lat="51.7814397" lon="19.4285411"/>
  <node id="304061200" version="1" timestamp="2008-10-12T18:18:56Z" uid="66036" user="h4v" changeset="291913" lat="51.7813737" lon="19.4288192"/>
  <node id="304061200" version="2" timestamp="2008-10-21T07:47:11Z" uid="66036" user="h4v" changeset="483354" lat="51.7813737" lon="19.4288192"/>
  <node id="304061200" version="3" timestamp="2008-10-21T18:43:34Z" uid="66036" user="h4v" changeset="495380" lat="51.7813737" lon="19.4288192"/>
  <node id="304061200" version="4" timestamp="2009-07-10T22:21:07Z" uid="73912" user="Jack_lodz" changeset="1793235" lat="51.7813719" lon="19.4287528"/>
  <node id="304061200" version="5" timestamp="2009-10-27T21:52:38Z" uid="73912" user="Jack_lodz" changeset="2969412" lat="51.7813719" lon="19.4287528"/>
  <node id="304061200" version="6" timestamp="2011-03-09T16:05:49Z" uid="338611" user="marek kleciak" changeset="7504866" lat="51.7814397" lon="19.4287593"/>
  <node id="304061200" version="7" timestamp="2011-11-25T19:04:30Z" uid="203436" user="rewelator" changeset="9947488" lat="51.7814538" lon="19.4287473"/>
  <node id="304061202" version="1" timestamp="2008-10-12T18:18:56Z" uid="66036" user="h4v" changeset="291913" lat="51.7813163" lon="19.4288535"/>
  <node id="304061202" version="2" timestamp="2008-10-12T18:19:01Z" uid="66036" user="h4v" changeset="291913" lat="51.7813163" lon="19.4288535"/>
  <node id="304061202" version="3" timestamp="2008-10-15T00:30:02Z" uid="57752" user="Viol8or" changeset="360803" lat="51.7813163" lon="19.4288535"/>
  <node id="304061202" version="4" timestamp="2008-10-15T00:45:59Z" uid="57752" user="Viol8or" changeset="360803" lat="51.7813163" lon="19.4288535"/>
  <node id="304061202" version="5" timestamp="2008-10-17T20:07:48Z" uid="57752" user="Viol8or" changeset="396492" lat="51.7813163" lon="19.4288535"/>
  <node id="304061202" version="6" timestamp="2008-10-17T20:59:43Z" uid="57752" user="Viol8or" changeset="396492" lat="51.7813163" lon="19.4288535"/>
  <node id="304061202" version="7" timestamp="2008-10-21T07:47:12Z" uid="66036" user="h4v" changeset="483354" lat="51.7813163" lon="19.4288535"/>
  <node id="304061202" version="8" timestamp="2008-10-21T18:43:26Z" uid="66036" user="h4v" changeset="495380" lat="51.7813163" lon="19.4288535"/>
  <node id="304061202" version="9" timestamp="2008-10-21T18:43:34Z" uid="66036" user="h4v" changeset="495380" lat="51.7813163" lon="19.4288535"/>
  <node id="304061202" version="10" timestamp="2009-02-09T22:30:00Z" uid="66036" user="h4v" changeset="309199" lat="51.7813163" lon="19.4288535"/>
  <node id="304061202" version="11" timestamp="2009-07-10T22:21:07Z" uid="73912" user="Jack_lodz" changeset="1793235" lat="51.7813145" lon="19.428787"/>
  <node id="304061202" version="12" timestamp="2009-08-20T22:01:34Z" uid="66036" user="h4v" changeset="2217631" lat="51.7813145" lon="19.428787">
    <tag k="highway" v="crossing"/>
  </node>
  <node id="304061202" version="13" timestamp="2009-10-27T21:52:28Z" uid="73912" user="Jack_lodz" changeset="2969412" lat="51.7813145" lon="19.428787">
    <tag k="highway" v="crossing"/>
  </node>
  <node id="304061202" version="14" timestamp="2011-03-09T16:05:49Z" uid="338611" user="marek kleciak" changeset="7504866" lat="51.7813653" lon="19.4287627">
    <tag k="highway" v="crossing"/>
  </node>
  <node id="304061203" version="1" timestamp="2008-10-12T18:18:56Z" uid="66036" user="h4v" changeset="291913" lat="51.7812463" lon="19.4288965"/>
  <node id="304061203" version="2" timestamp="2008-10-21T07:47:12Z" uid="66036" user="h4v" changeset="483354" lat="51.7812463" lon="19.4288965"/>
  <node id="304061203" version="3" timestamp="2008-10-21T18:43:34Z" uid="66036" user="h4v" changeset="495380" lat="51.7812463" lon="19.4288965"/>
  <node id="304061203" version="4" timestamp="2009-07-10T22:21:07Z" uid="73912" user="Jack_lodz" changeset="1793235" lat="51.7812445" lon="19.42883"/>
  <node id="304061203" version="5" timestamp="2009-10-27T21:52:38Z" uid="73912" user="Jack_lodz" changeset="2969412" lat="51.7812445" lon="19.42883"/>
  <node id="304061204" version="1" timestamp="2008-10-12T18:18:57Z" uid="66036" user="h4v" changeset="291913" lat="51.781226" lon="19.4289989"/>
  <node id="304061204" version="2" timestamp="2008-10-12T18:19:07Z" uid="66036" user="h4v" changeset="291913" lat="51.781226" lon="19.4289989"/>
  <node id="304061204" version="3" timestamp="2008-10-21T07:47:12Z" uid="66036" user="h4v" changeset="483354" lat="51.781226" lon="19.4289989"/>
  <node id="304061204" version="4" timestamp="2008-10-21T18:43:34Z" uid="66036" user="h4v" changeset="495380" lat="51.781226" lon="19.4289989"/>
  <node id="304061204" version="5" timestamp="2009-07-10T22:21:07Z" uid="73912" user="Jack_lodz" changeset="1793235" lat="51.7812242" lon="19.4289325"/>
  <node id="304061204" version="6" timestamp="2009-10-27T21:52:38Z" uid="73912" user="Jack_lodz" changeset="2969412" lat="51.7812242" lon="19.4289325"/>
  <node id="304061204" version="7" timestamp="2011-03-07T20:36:40Z" uid="66036" user="h4v" changeset="7488528" lat="51.7812242" lon="19.4289325">
    <tag k="highway" v="crossing"/>
  </node>
  <node id="304061204" version="8" timestamp="2011-03-09T16:05:50Z" uid="338611" user="marek kleciak" changeset="7504866" lat="51.7812415" lon="19.4289763">
    <tag k="highway" v="crossing"/>
  </node>
  <node id="304061206" version="1" timestamp="2008-10-12T18:18:57Z" uid="66036" user="h4v" changeset="291913" lat="51.7812091" lon="19.4292741"/>
  <node id="304061206" version="2" timestamp="2008-10-21T07:47:12Z" uid="66036" user="h4v" changeset="483354" lat="51.7812091" lon="19.4292741"/>
  <node id="304061206" version="3" timestamp="2008-10-21T18:43:34Z" uid="66036" user="h4v" changeset="495380" lat="51.7812091" lon="19.4292741"/>
  <node id="304061206" version="4" timestamp="2009-07-10T22:21:07Z" uid="73912" user="Jack_lodz" changeset="1793235" lat="51.7812073" lon="19.4292076"/>
  <node id="304061206" version="5" timestamp="2009-10-27T21:52:38Z" uid="73912" user="Jack_lodz" changeset="2969412" lat="51.7812073" lon="19.4292076"/>
  <node id="304061207" version="1" timestamp="2008-10-12T18:18:57Z" uid="66036" user="h4v" changeset="291913" lat="51.7811772" lon="19.4304242"/>
  <node id="304061207" version="2" timestamp="2008-10-21T07:47:12Z" uid="66036" user="h4v" changeset="483354" lat="51.7811772" lon="19.4304242"/>
  <node id="304061207" version="3" timestamp="2008-10-21T18:43:34Z" uid="66036" user="h4v" changeset="495380" lat="51.7811772" lon="19.4304242"/>
  <node id="304061207" version="4" timestamp="2009-07-10T22:21:08Z" uid="73912" user="Jack_lodz" changeset="1793235" lat="51.7811754" lon="19.4303578"/>
  <node id="304061207" version="5" timestamp="2009-10-27T21:52:38Z" uid="73912" user="Jack_lodz" changeset="2969412" lat="51.7811754" lon="19.4303578"/>
  <node id="304061207" version="6" timestamp="2011-05-22T17:50:05Z" uid="66036" user="h4v" changeset="8218992" lat="51.7811493" lon="19.4303656"/>
  <node id="304061208" version="1" timestamp="2008-10-12T18:18:57Z" uid="66036" user="h4v" changeset="291913" lat="51.7811295" lon="19.4316774"/>
  <node id="304061208" version="2" timestamp="2008-10-21T07:47:12Z" uid="66036" user="h4v" changeset="483354" lat="51.7811295" lon="19.4316774"/>
  <node id="304061208" version="3" timestamp="2008-10-21T18:43:35Z" uid="66036" user="h4v" changeset="495380" lat="51.7811295" lon="19.4316774"/>
  <node id="304061208" version="4" timestamp="2009-07-10T22:21:08Z" uid="73912" user="Jack_lodz" changeset="1793235" lat="51.7811277" lon="19.431611"/>
  <node id="304061208" version="5" timestamp="2009-10-27T21:52:39Z" uid="73912" user="Jack_lodz" changeset="2969412" lat="51.7811277" lon="19.431611"/>
  <node id="304061210" version="1" timestamp="2008-10-12T18:18:57Z" uid="66036" user="h4v" changeset="291913" lat="51.7810923" lon="19.4325872"/>
  <node id="304061210" version="2" timestamp="2008-10-21T07:47:12Z" uid="66036" user="h4v" changeset="483354" lat="51.7810923" lon="19.4325872"/>
  <node id="304061210" version="3" timestamp="2008-10-21T18:43:35Z" uid="66036" user="h4v" changeset="495380" lat="51.7810923" lon="19.4325872"/>
  <node id="304061210" version="4" timestamp="2009-07-10T22:21:08Z" uid="73912" user="Jack_lodz" changeset="1793235" lat="51.7810905" lon="19.4325207"/>
  <node id="304061210" version="5" timestamp="2009-10-27T21:52:39Z" uid="73912" user="Jack_lodz" changeset="2969412" lat="51.7810905" lon="19.4325207"/>
  <node id="304061211" version="1" timestamp="2008-10-12T18:18:57Z" uid="66036" user="h4v" changeset="291913" lat="51.7810871" lon="19.4328362"/>
  <node id="304061211" version="2" timestamp="2008-10-12T18:19:08Z" uid="66036" user="h4v" changeset="291913" lat="51.7810871" lon="19.4328362"/>
  <node id="304061211" version="3" timestamp="2008-10-21T07:47:12Z" uid="66036" user="h4v" changeset="483354" lat="51.7810871" lon="19.4328362"/>
  <node id="304061211" version="4" timestamp="2008-10-21T18:43:35Z" uid="66036" user="h4v" changeset="495380" lat="51.7810871" lon="19.4328362"/>
  <node id="304061211" version="5" timestamp="2009-07-10T22:21:08Z" uid="73912" user="Jack_lodz" changeset="1793235" lat="51.7810853" lon="19.4327698"/>
  <node id="304061211" version="6" timestamp="2009-10-27T21:52:39Z" uid="73912" user="Jack_lodz" changeset="2969412" lat="51.7810853" lon="19.4327698"/>
  <node id="304061211" version="7" timestamp="2010-01-31T23:25:21Z" uid="66036" user="h4v" changeset="3764336" lat="51.7810675" lon="19.4327982"/>
  <node id="304061211" version="8" timestamp="2011-02-28T11:25:05Z" uid="338611" user="marek kleciak" changeset="7419617" lat="51.7810947" lon="19.4327532"/>
  <node id="304061211" version="9" timestamp="2011-05-10T12:12:17Z" uid="66036" user="h4v" changeset="8101658" lat="51.7810947" lon="19.4327532">
    <tag k="highway" v="crossing"/>
  </node>
  <node id="304061212" version="1" timestamp="2008-10-12T18:18:57Z" uid="66036" user="h4v" changeset="291913" lat="51.7810392" lon="19.4333511"/>
  <node id="304061212" version="2" timestamp="2008-10-21T07:47:12Z" uid="66036" user="h4v" changeset="483354" lat="51.7810392" lon="19.4333511"/>
  <node id="304061212" version="3" timestamp="2008-10-21T18:43:35Z" uid="66036" user="h4v" changeset="495380" lat="51.7810392" lon="19.4333511"/>
  <node id="304061212" version="4" timestamp="2009-07-10T22:21:08Z" uid="73912" user="Jack_lodz" changeset="1793235" lat="51.7810374" lon="19.4332847"/>
  <node id="304061212" version="5" timestamp="2009-10-27T21:52:40Z" uid="73912" user="Jack_lodz" changeset="2969412" lat="51.7810374" lon="19.4332847"/>
  <node id="304061212" version="6" timestamp="2011-02-28T11:25:37Z" uid="338611" user="marek kleciak" changeset="7419617" lat="51.781078" lon="19.4333405"/>
  <node id="304061214" version="1" timestamp="2008-10-12T18:18:57Z" uid="66036" user="h4v" changeset="291913" lat="51.7809861" lon="19.4341665"/>
  <node id="304061214" version="2" timestamp="2008-10-21T07:47:12Z" uid="66036" user="h4v" changeset="483354" lat="51.7809861" lon="19.4341665"/>
  <node id="304061214" version="3" timestamp="2008-10-21T18:43:35Z" uid="66036" user="h4v" changeset="495380" lat="51.7809861" lon="19.4341665"/>
  <node id="304061214" version="4" timestamp="2009-07-10T22:21:08Z" uid="73912" user="Jack_lodz" changeset="1793235" lat="51.7809843" lon="19.4341001"/>
  <node id="304061214" version="5" timestamp="2009-07-13T07:28:00Z" uid="73912" user="Jack_lodz" changeset="1814117" lat="51.7809482" lon="19.4341484"/>
  <node id="304061214" version="6" timestamp="2009-10-27T21:52:40Z" uid="73912" user="Jack_lodz" changeset="2969412" lat="51.7809482" lon="19.4341484"/>
  <node id="304061214" version="7" timestamp="2011-02-28T11:25:23Z" uid="338611" user="marek kleciak" changeset="7419617" lat="51.7810616" lon="19.4341396"/>
  <node id="304061215" version="1" timestamp="2008-10-12T18:18:57Z" uid="66036" user="h4v" changeset="291913" lat="51.7808799" lon="19.4349389"/>
  <node id="304061215" version="2" timestamp="2008-10-21T07:47:12Z" uid="66036" user="h4v" changeset="483354" lat="51.7808799" lon="19.4349389"/>
  <node id="304061215" version="3" timestamp="2008-10-21T18:43:35Z" uid="66036" user="h4v" changeset="495380" lat="51.7808799" lon="19.4349389"/>
  <node id="304061215" version="4" timestamp="2009-07-10T22:21:09Z" uid="73912" user="Jack_lodz" changeset="1793235" lat="51.7808781" lon="19.4348725"/>
  <node id="304061215" version="5" timestamp="2009-07-13T07:28:01Z" uid="73912" user="Jack_lodz" changeset="1814117" lat="51.7808685" lon="19.4348694"/>
  <node id="304061215" version="6" timestamp="2009-10-27T21:52:40Z" uid="73912" user="Jack_lodz" changeset="2969412" lat="51.7808685" lon="19.4348694"/>
  <node id="304061215" version="7" timestamp="2011-02-28T11:25:06Z" uid="338611" user="marek kleciak" changeset="7419617" lat="51.7809761" lon="19.4348264"/>
  <node id="304061216" version="1" timestamp="2008-10-12T18:18:57Z" uid="66036" user="h4v" changeset="291913" lat="51.7807684" lon="19.4357629"/>
  <node id="304061216" version="2" timestamp="2008-10-21T07:47:12Z" uid="66036" user="h4v" changeset="483354" lat="51.7807684" lon="19.4357629"/>
  <node id="304061216" version="3" timestamp="2008-10-21T18:43:35Z" uid="66036" user="h4v" changeset="495380" lat="51.7807684" lon="19.4357629"/>
  <node id="304061216" version="4" timestamp="2009-07-10T22:21:09Z" uid="73912" user="Jack_lodz" changeset="1793235" lat="51.7807666" lon="19.4356965"/>
  <node id="304061216" version="5" timestamp="2009-10-27T21:52:41Z" uid="73912" user="Jack_lodz" changeset="2969412" lat="51.7807666" lon="19.4356965"/>
  <node id="304061216" version="6" timestamp="2011-02-28T11:25:11Z" uid="338611" user="marek kleciak" changeset="7419617" lat="51.7808419" lon="19.4357016"/>
  <node id="304062018" version="2" timestamp="2008-12-13T21:26:17Z" uid="6975" user="ulfl" changeset="352865" lat="48.2365816" lon="9.1217856">
    <tag k="amenity" v="recycling"/>
    <tag k="recycling:cans" v="yes"/>
    <tag k="recycling:glass" v="yes"/>
  </node>
  <node id="304062027" version="3" timestamp="2010-07-28T20:02:46Z" uid="74617" user="JohnSmith" changeset="5339329" lat="48.2383992" lon="9.1221023">
    <tag k="emergency" v="fire_hydrant"/>
    <tag k="fire_hydrant" v="up"/>
  </node>
  <node id="304062027" version="4" timestamp="2010-07-30T17:44:05Z" uid="74617" user="JohnSmith" changeset="5356742" lat="48.2383992" lon="9.1221023">
    <tag k="amenity" v="fire_hydrant"/>
    <tag k="emergency" v="fire_hydrant"/>
    <tag k="fire_hydrant" v="up"/>
  </node>
  <node id="304062027" version="5" timestamp="2010-10-11T18:25:34Z" uid="26348" user="Rodolphe Quiédeville" changeset="6014374" lat="48.2383992" lon="9.1221023">
    <tag k="emergency" v="fire_hydrant"/>
    <tag k="fire_hydrant" v="up"/>
  </node>
  <node id="304062027" version="6" timestamp="2010-10-19T08:58:26Z" uid="26348" user="Rodolphe Quiédeville" changeset="6094728" lat="48.2383992" lon="9.1221023">
    <tag k="amenity" v="fire_hydrant"/>
    <tag k="emergency" v="fire_hydrant"/>
    <tag k="fire_hydrant" v="up"/>
  </node>
  <node id="304062027" version="7" timestamp="2011-01-21T13:11:10Z" uid="124837" user="swus" changeset="7040166" lat="48.2383992" lon="9.1221023">
    <tag k="amenity" v="fire_hydrant"/>
    <tag k="emergency" v="fire_hydrant"/>
    <tag k="fire_hydrant:type" v="pillar"/>
  </node>
  <node id="304062027" version="8" timestamp="2011-01-22T01:25:33Z" uid="124837" user="swus" changeset="7046468" lat="48.2383992" lon="9.1221023">
    <tag k="amenity" v="fire_hydrant"/>
    <tag k="emergency" v="fire_hydrant"/>
    <tag k="fire_hydrant" v="up"/>
  </node>
  <node id="304062027" version="9" timestamp="2012-03-23T22:02:48Z" uid="67540" user="Cobra" changeset="11079076" lat="48.2383744" lon="9.1220657">
    <tag k="amenity" v="fire_hydrant"/>
    <tag k="emergency" v="fire_hydrant"/>
    <tag k="fire_hydrant" v="up"/>
    <tag k="odbl" v="clean"/>
  </node>
  <node id="304062083" version="1" timestamp="2008-10-12T18:22:36Z" uid="33382" user="de_muur" changeset="285273" lat="53.0608223" lon="9.0229129">
    <tag k="created_by" v="JOSM"/>
  </node>
  <node id="304062083" version="2" timestamp="2010-03-21T08:31:07Z" uid="33382" user="de_muur" changeset="4188054" lat="53.0608087" lon="9.0229101"/>
  <node id="304062083" version="3" timestamp="2010-12-26T10:45:04Z" uid="115883" user="Senior_Spielbergo" changeset="6766826" lat="53.0607656" lon="9.0228894"/>
  <node id="304062085" version="1" timestamp="2008-10-12T18:22:37Z" uid="33382" user="de_muur" changeset="285273" lat="53.0619107" lon="9.0231455">
    <tag k="created_by" v="JOSM"/>
  </node>
  <node id="304062085" version="2" timestamp="2010-12-26T11:01:12Z" uid="115883" user="Senior_Spielbergo" changeset="6766934" lat="53.0619126" lon="9.0231039"/>
  <node id="304062088" version="1" timestamp="2008-10-12T18:22:37Z" uid="33382" user="de_muur" changeset="285273" lat="53.0633731" lon="9.0234156">
    <tag k="created_by" v="JOSM"/>
  </node>
  <node id="304062088" version="2" timestamp="2010-12-22T16:40:58Z" uid="115883" user="Senior_Spielbergo" changeset="6737314" lat="53.063331" lon="9.0233548"/>
  <node id="304062088" version="3" timestamp="2010-12-26T11:01:12Z" uid="115883" user="Senior_Spielbergo" changeset="6766934" lat="53.0633291" lon="9.0233804"/>
  <node id="304062091" version="1" timestamp="2008-10-12T18:22:38Z" uid="33382" user="de_muur" changeset="285273" lat="53.0644866" lon="9.023615">
    <tag k="created_by" v="JOSM"/>
  </node>
  <node id="304062091" version="2" timestamp="2010-12-26T11:01:12Z" uid="115883" user="Senior_Spielbergo" changeset="6766934" lat="53.0644866" lon="9.0235926"/>
  <node id="304062093" version="1" timestamp="2008-10-12T18:22:38Z" uid="33382" user="de_muur" changeset="285273" lat="53.0631862" lon="9.0214463">
    <tag k="created_by" v="JOSM"/>
  </node>
  <node id="304062093" version="2" timestamp="2010-12-22T16:40:59Z" uid="115883" user="Senior_Spielbergo" changeset="6737314" lat="53.0631637" lon="9.0214603"/>
  <node id="304062096" version="1" timestamp="2008-10-12T18:22:38Z" uid="33382" user="de_muur" changeset="285273" lat="53.0632693" lon="9.0223977">
    <tag k="created_by" v="JOSM"/>
  </node>
  <node id="304062096" version="2" timestamp="2010-12-22T16:41:02Z" uid="115883" user="Senior_Spielbergo" changeset="6737314" lat="53.063244" lon="9.022393"/>
  <node id="304062099" version="1" timestamp="2008-10-12T18:22:38Z" uid="33382" user="de_muur" changeset="285273" lat="53.0635767" lon="9.0249071">
    <tag k="created_by" v="JOSM"/>
  </node>
  <node id="304062099" version="2" timestamp="2010-12-22T16:41:01Z" uid="115883" user="Senior_Spielbergo" changeset="6737314" lat="53.0635458" lon="9.0249258"/>
  <node id="304062101" version="1" timestamp="2008-10-12T18:22:38Z" uid="33382" user="de_muur" changeset="285273" lat="53.0637554" lon="9.0259457">
    <tag k="created_by" v="JOSM"/>
  </node>
  <node id="304062101" version="2" timestamp="2010-12-22T16:41:03Z" uid="115883" user="Senior_Spielbergo" changeset="6737314" lat="53.0637077" lon="9.0258476"/>
  <node id="304062104" version="1" timestamp="2008-10-12T18:22:38Z" uid="33382" user="de_muur" changeset="285273" lat="53.0632443" lon="9.0262033">
    <tag k="created_by" v="JOSM"/>
  </node>
  <node id="304062104" version="2" timestamp="2010-12-22T16:41:01Z" uid="115883" user="Senior_Spielbergo" changeset="6737314" lat="53.0632303" lon="9.0261566"/>
  <node id="304062106" version="1" timestamp="2008-10-12T18:22:39Z" uid="33382" user="de_muur" changeset="285273" lat="53.0656859" lon="9.0238061">
    <tag k="created_by" v="JOSM"/>
  </node>
  <node id="304062109" version="1" timestamp="2008-10-12T18:22:39Z" uid="33382" user="de_muur" changeset="285273" lat="53.0666012" lon="9.0239796">
    <tag k="created_by" v="JOSM"/>
  </node>
  <node id="304062111" version="1" timestamp="2008-10-12T18:22:39Z" uid="33382" user="de_muur" changeset="285273" lat="53.0681268" lon="9.0242428">
    <tag k="created_by" v="JOSM"/>
  </node>
  <node id="304062114" version="1" timestamp="2008-10-12T18:22:39Z" uid="33382" user="de_muur" changeset="285273" lat="53.0688506" lon="9.0243266">
    <tag k="created_by" v="JOSM"/>
  </node>
  <node id="304062116" version="1" timestamp="2008-10-12T18:22:39Z" uid="33382" user="de_muur" changeset="285273" lat="53.0685515" lon="9.0199534">
    <tag k="created_by" v="JOSM"/>
  </node>
  <node id="304062116" version="2" timestamp="2010-12-23T15:32:13Z" uid="115883" user="Senior_Spielbergo" changeset="6746382" lat="53.0685647" lon="9.0199699"/>
  <node id="304062119" version="1" timestamp="2008-10-12T18:22:40Z" uid="33382" user="de_muur" changeset="285273" lat="53.0685096" lon="9.0205755">
    <tag k="created_by" v="JOSM"/>
  </node>
  <node id="304062122" version="1" timestamp="2008-10-12T18:22:40Z" uid="33382" user="de_muur" changeset="285273" lat="53.0685994" lon="9.0219037">
    <tag k="created_by" v="JOSM"/>
  </node>
  <node id="304062124" version="1" timestamp="2008-10-12T18:22:40Z" uid="33382" user="de_muur" changeset="285273" lat="53.0689344" lon="9.0220353">
    <tag k="created_by" v="JOSM"/>
  </node>
  <node id="304062127" version="1" timestamp="2008-10-12T18:22:40Z" uid="33382" user="de_muur" changeset="285273" lat="53.0688746" lon="9.023172">
    <tag k="created_by" v="JOSM"/>
  </node>
  <node id="304062130" version="1" timestamp="2008-10-12T18:22:40Z" uid="33382" user="de_muur" changeset="285273" lat="53.0688566" lon="9.0242189">
    <tag k="created_by" v="JOSM"/>
  </node>
  <node id="304062130" version="2" timestamp="2009-03-22T17:48:30Z" uid="68030" user="Kowa" changeset="845795" lat="53.0688566" lon="9.0242189"/>
  <node id="304062130" version="3" timestamp="2009-03-22T17:48:33Z" uid="68030" user="Kowa" changeset="845795" lat="53.0688566" lon="9.0242189"/>
  <node id="304062130" version="4" timestamp="2009-03-22T17:48:38Z" uid="68030" user="Kowa" changeset="845795" lat="53.0688566" lon="9.0242189"/>
  <node id="304062132" version="1" timestamp="2008-10-12T18:22:41Z" uid="33382" user="de_muur" changeset="285273" lat="53.0691617" lon="9.0219037">
    <tag k="created_by" v="JOSM"/>
  </node>
  <node id="304062135" version="1" timestamp="2008-10-12T18:22:41Z" uid="33382" user="de_muur" changeset="285273" lat="53.0695147" lon="9.0218737">
    <tag k="created_by" v="JOSM"/>
  </node>
  <node id="304062138" version="1" timestamp="2008-10-12T18:22:41Z" uid="33382" user="de_muur" changeset="285273" lat="53.0700471" lon="9.0222327">
    <tag k="created_by" v="JOSM"/>
  </node>
  <node id="304062140" version="1" timestamp="2008-10-12T18:22:41Z" uid="33382" user="de_muur" changeset="285273" lat="53.0703881" lon="9.0224899">
    <tag k="created_by" v="JOSM"/>
  </node>
  <node id="304062144" version="1" timestamp="2008-10-12T18:22:41Z" uid="33382" user="de_muur" changeset="285273" lat="53.0705078" lon="9.0230403">
    <tag k="created_by" v="JOSM"/>
  </node>
  <node id="304062147" version="1" timestamp="2008-10-12T18:22:41Z" uid="33382" user="de_muur" changeset="285273" lat="53.0706155" lon="9.0244103">
    <tag k="created_by" v="JOSM"/>
  </node>
  <node id="304062147" version="2" timestamp="2009-03-22T17:48:30Z" uid="68030" user="Kowa" changeset="845795" lat="53.0706155" lon="9.0244103"/>
  <node id="304062147" version="3" timestamp="2009-03-22T17:48:34Z" uid="68030" user="Kowa" changeset="845795" lat="53.0706155" lon="9.0244103"/>
  <node id="304062147" version="4" timestamp="2009-03-22T17:48:39Z" uid="68030" user="Kowa" changeset="845795" lat="53.0706155" lon="9.0244103"/>
  <node id="304062149" version="1" timestamp="2008-10-12T18:22:42Z" uid="33382" user="de_muur" changeset="285273" lat="53.0706813" lon="9.0245778">
    <tag k="created_by" v="JOSM"/>
  </node>
  <node id="304062149" version="2" timestamp="2009-03-22T17:48:30Z" uid="68030" user="Kowa" changeset="845795" lat="53.0706813" lon="9.0245778"/>
  <node id="304062149" version="3" timestamp="2009-03-22T17:48:34Z" uid="68030" user="Kowa" changeset="845795" lat="53.0706813" lon="9.0245778"/>
  <node id="304062149" version="4" timestamp="2009-03-22T17:48:39Z" uid="68030" user="Kowa" changeset="845795" lat="53.0706813" lon="9.0245778"/>
  <node id="304062152" version="1" timestamp="2008-10-12T18:22:42Z" uid="33382" user="de_muur" changeset="285273" lat="53.0710043" lon="9.0247274">
    <tag k="created_by" v="JOSM"/>
  </node>
  <node id="304062152" version="2" timestamp="2009-03-22T17:48:30Z" uid="68030" user="Kowa" changeset="845795" lat="53.0710043" lon="9.0247274"/>
  <node id="304062152" version="3" timestamp="2009-03-22T17:48:34Z" uid="68030" user="Kowa" changeset="845795" lat="53.0710043" lon="9.0247274"/>
  <node id="304062152" version="4" timestamp="2009-03-22T17:48:39Z" uid="68030" user="Kowa" changeset="845795" lat="53.0710043" lon="9.0247274"/>
  <node id="304062155" version="1" timestamp="2008-10-12T18:22:42Z" uid="33382" user="de_muur" changeset="285273" lat="53.0713992" lon="9.0247932">
    <tag k="created_by" v="JOSM"/>
  </node>
  <node id="304062155" version="2" timestamp="2008-11-03T22:55:17Z" uid="35574" user="Schorse" changeset="669212" lat="53.0714508" lon="9.0248161">
    <tag k="created_by" v="JOSM"/>
  </node>
  <node id="304062155" version="3" timestamp="2009-03-22T17:46:57Z" uid="68030" user="Kowa" changeset="845795" lat="53.0714508" lon="9.0248161"/>
  <node id="304062155" version="4" timestamp="2009-03-22T17:47:55Z" uid="68030" user="Kowa" changeset="845795" lat="53.0714508" lon="9.0248161"/>
  <node id="304062155" version="5" timestamp="2009-03-22T17:48:30Z" uid="68030" user="Kowa" changeset="845795" lat="53.0714508" lon="9.0248161"/>
  <node id="304062155" version="6" timestamp="2009-03-22T17:48:34Z" uid="68030" user="Kowa" changeset="845795" lat="53.0714508" lon="9.0248161"/>
  <node id="304062155" version="7" timestamp="2009-03-22T17:48:39Z" uid="68030" user="Kowa" changeset="845795" lat="53.0714508" lon="9.0248161"/>
  <node id="304062155" version="8" timestamp="2010-12-23T15:55:21Z" uid="115883" user="Senior_Spielbergo" changeset="6746570" lat="53.0714169" lon="9.0247456"/>
  <node id="304062157" version="1" timestamp="2008-10-12T18:22:42Z" uid="33382" user="de_muur" changeset="285273" lat="53.0693771" lon="9.0242428">
    <tag k="created_by" v="JOSM"/>
  </node>
  <node id="304062157" version="2" timestamp="2009-03-22T17:48:30Z" uid="68030" user="Kowa" changeset="845795" lat="53.0693771" lon="9.0242428"/>
  <node id="304062157" version="3" timestamp="2009-03-22T17:48:33Z" uid="68030" user="Kowa" changeset="845795" lat="53.0693771" lon="9.0242428"/>
  <node id="304062157" version="4" timestamp="2009-03-22T17:48:38Z" uid="68030" user="Kowa" changeset="845795" lat="53.0693771" lon="9.0242428"/>
  <node id="304062161" version="1" timestamp="2008-10-12T18:22:42Z" uid="33382" user="de_muur" changeset="285273" lat="53.0698976" lon="9.0243445">
    <tag k="created_by" v="JOSM"/>
  </node>
  <node id="304062161" version="2" timestamp="2009-03-22T17:48:30Z" uid="68030" user="Kowa" changeset="845795" lat="53.0698976" lon="9.0243445"/>
  <node id="304062161" version="3" timestamp="2009-03-22T17:48:34Z" uid="68030" user="Kowa" changeset="845795" lat="53.0698976" lon="9.0243445"/>
  <node id="304062161" version="4" timestamp="2009-03-22T17:48:38Z" uid="68030" user="Kowa" changeset="845795" lat="53.0698976" lon="9.0243445"/>
  <node id="304062275" version="3" timestamp="2009-11-12T02:41:18Z" uid="36809" user="pfoten_weg_!_" changeset="3095231" lat="47.8626539" lon="11.7006614">
    <tag k="power" v="tower"/>
  </node>
  <node id="304062404" version="2" timestamp="2009-01-15T17:35:58Z" uid="67142" user="zottel" changeset="791006" lat="48.8696097" lon="8.7523874"/>
  <node id="304062404" version="3" timestamp="2010-03-12T20:27:09Z" uid="77109" user="eknus" changeset="4108995" lat="48.8696162" lon="8.7523677"/>
  <node id="304062404" version="4" timestamp="2010-12-11T12:27:40Z" uid="77204" user="aps" changeset="6622401" lat="48.8696357" lon="8.7522348"/>
  <node id="304062501" version="2" timestamp="2009-01-15T17:35:49Z" uid="67142" user="zottel" changeset="791006" lat="48.8688139" lon="8.7540401"/>
  <node id="304062501" version="3" timestamp="2012-01-02T10:34:26Z" uid="442210" user="dwausr" changeset="10269130" lat="48.8688139" lon="8.7540401"/>
  <node id="304062620" version="5" timestamp="2011-04-04T19:36:19Z" uid="115477" user="wowik" changeset="7768600" lat="55.7500798" lon="37.4318048"/>
  <node id="304062620" version="6" timestamp="2012-03-29T22:49:20Z" uid="336354" user="esaulenka" changeset="11145638" lat="55.7500785" lon="37.4318048"/>
  <node id="304062623" version="5" timestamp="2011-04-04T19:37:25Z" uid="115477" user="wowik" changeset="7768600" lat="55.7497834" lon="37.4326042"/>
  <node id="304062626" version="4" timestamp="2011-04-04T19:35:47Z" uid="115477" user="wowik" changeset="7768600" lat="55.7493024" lon="37.4347878"/>
  <node id="304062626" version="5" timestamp="2012-03-29T22:49:20Z" uid="336354" user="esaulenka" changeset="11145638" lat="55.7492989" lon="37.4347909"/>
  <node id="304062645" version="2" timestamp="2009-01-15T17:35:50Z" uid="67142" user="zottel" changeset="791006" lat="48.8676838" lon="8.7496232"/>
  <node id="304062645" version="3" timestamp="2012-01-02T10:34:26Z" uid="442210" user="dwausr" changeset="10269130" lat="48.8676838" lon="8.7496232"/>
  <node id="304062663" version="2" timestamp="2009-01-15T17:35:50Z" uid="67142" user="zottel" changeset="791006" lat="48.8677679" lon="8.7501723"/>
  <node id="304062663" version="3" timestamp="2010-03-12T20:27:09Z" uid="77109" user="eknus" changeset="4108995" lat="48.8678237" lon="8.7501744"/>
  <node id="304062663" version="4" timestamp="2012-01-02T10:34:26Z" uid="442210" user="dwausr" changeset="10269130" lat="48.8678237" lon="8.7501744"/>
  <node id="304062664" version="3" timestamp="2011-04-04T19:36:06Z" uid="115477" user="wowik" changeset="7768600" lat="55.749906" lon="37.4325723"/>
  <node id="304062666" version="3" timestamp="2011-04-04T19:36:50Z" uid="115477" user="wowik" changeset="7768600" lat="55.7500534" lon="37.432784"/>
  <node id="304062669" version="5" timestamp="2011-04-04T19:36:46Z" uid="115477" user="wowik" changeset="7768600" lat="55.7500695" lon="37.4329971"/>
  <node id="304062677" version="2" timestamp="2009-01-15T17:35:52Z" uid="67142" user="zottel" changeset="791006" lat="48.8679184" lon="8.7508781"/>
  <node id="304062677" version="3" timestamp="2010-03-12T20:27:09Z" uid="77109" user="eknus" changeset="4108995" lat="48.8679429" lon="8.7508429"/>
  <node id="304062677" version="4" timestamp="2012-01-02T10:34:26Z" uid="442210" user="dwausr" changeset="10269130" lat="48.8679429" lon="8.7508429"/>
  <node id="304062690" version="2" timestamp="2009-01-15T17:35:54Z" uid="67142" user="zottel" changeset="791006" lat="48.8683095" lon="8.752108"/>
  <node id="304062690" version="3" timestamp="2009-04-28T18:31:33Z" uid="63969" user="olvagor" changeset="1007640" lat="48.8682074" lon="8.7518791"/>
  <node id="304062690" version="4" timestamp="2009-04-28T19:44:01Z" uid="63969" user="olvagor" changeset="1008693" lat="48.868227" lon="8.7519337"/>
  <node id="304062690" version="5" timestamp="2012-01-02T10:34:27Z" uid="442210" user="dwausr" changeset="10269130" lat="48.868227" lon="8.7519337"/>
  <node id="304062704" version="2" timestamp="2009-01-15T17:35:55Z" uid="67142" user="zottel" changeset="791006" lat="48.8694052" lon="8.7559362"/>
  <node id="304062704" version="3" timestamp="2012-01-02T10:34:27Z" uid="442210" user="dwausr" changeset="10269130" lat="48.8694052" lon="8.7559362"/>
  <node id="304062963" version="2" timestamp="2008-10-20T11:01:07Z" uid="36809" user="pfoten_weg_!_" changeset="465300" lat="47.9721673" lon="11.2767158"/>
  <node id="304062963" version="3" timestamp="2008-11-16T22:17:18Z" uid="74324" user="My2World" changeset="763183" lat="47.9721673" lon="11.2767158"/>
  <node id="304062963" version="4" timestamp="2008-11-16T22:18:26Z" uid="74324" user="My2World" changeset="763183" lat="47.972311" lon="11.2768875"/>
  <node id="304062963" version="5" timestamp="2008-11-16T22:19:30Z" uid="74324" user="My2World" changeset="763183" lat="47.9724144" lon="11.2769561"/>
  <node id="304062963" version="6" timestamp="2008-11-17T20:57:24Z" uid="62236" user="Paulchen Panther" changeset="762645" lat="47.9724144" lon="11.2769561"/>
  <node id="304062963" version="7" timestamp="2009-04-23T13:03:11Z" uid="27385" user="KaMu" changeset="912334" lat="47.972096" lon="11.2766974"/>
  <node id="304062963" version="8" timestamp="2009-06-11T17:45:29Z" uid="134505" user="StellaPolaris" changeset="1489654" lat="47.972096" lon="11.2766974"/>
  <node id="304062967" version="2" timestamp="2009-11-06T14:35:25Z" uid="36809" user="pfoten_weg_!_" changeset="3048388" lat="54.5386131" lon="22.2380447">
    <tag k="place" v="town"/>
  </node>
  <node id="304062967" version="3" timestamp="2010-07-19T10:01:50Z" uid="29017" user="FrankT" changeset="5259401" lat="54.5386131" lon="22.2380447">
    <tag k="place" v="town"/>
  </node>
  <node id="304063145" version="2" timestamp="2008-10-20T11:01:10Z" uid="36809" user="pfoten_weg_!_" changeset="465300" lat="47.9808253" lon="11.2831813"/>
  <node id="304063145" version="3" timestamp="2008-11-16T22:19:36Z" uid="74324" user="My2World" changeset="763183" lat="47.9808253" lon="11.2831813"/>
  <node id="304063145" version="4" timestamp="2008-11-17T20:57:28Z" uid="62236" user="Paulchen Panther" changeset="762645" lat="47.9808253" lon="11.2831813"/>
  <node id="304063145" version="5" timestamp="2009-04-23T13:10:00Z" uid="27385" user="KaMu" changeset="912420" lat="47.9807642" lon="11.283186"/>
  <node id="304063184" version="2" timestamp="2009-01-13T13:19:16Z" uid="67142" user="zottel" changeset="782124" lat="48.8574025" lon="8.7508885"/>
  <node id="304063184" version="3" timestamp="2010-05-02T15:01:04Z" uid="63969" user="olvagor" changeset="4586001" lat="48.8572124" lon="8.7509796"/>
  <node id="304063197" version="2" timestamp="2009-01-13T13:19:17Z" uid="67142" user="zottel" changeset="782124" lat="48.8579829" lon="8.7505868"/>
  <node id="304063197" version="3" timestamp="2010-05-02T15:01:03Z" uid="63969" user="olvagor" changeset="4586001" lat="48.8579983" lon="8.750579"/>
  <node id="304063282" version="3" timestamp="2009-10-04T14:54:20Z" uid="20587" user="balrog-kun" changeset="2738034" lat="50.7210553" lon="7.0841444"/>
  <node id="304063284" version="3" timestamp="2009-10-04T14:54:20Z" uid="20587" user="balrog-kun" changeset="2738034" lat="50.7209122" lon="7.0845366"/>
  <node id="304063286" version="3" timestamp="2009-10-04T14:54:20Z" uid="20587" user="balrog-kun" changeset="2738034" lat="50.7204722" lon="7.085533"/>
  <node id="304063288" version="3" timestamp="2009-10-04T14:54:20Z" uid="20587" user="balrog-kun" changeset="2738034" lat="50.7202867" lon="7.0854111"/>
  <node id="304063288" version="4" timestamp="2011-12-30T17:06:30Z" uid="55687" user="dschuwa" changeset="10247330" lat="50.7202877" lon="7.0854075"/>
  <node id="304063290" version="2" timestamp="2009-01-13T13:19:17Z" uid="67142" user="zottel" changeset="782124" lat="48.8601998" lon="8.749269"/>
  <node id="304063290" version="3" timestamp="2010-05-02T15:01:04Z" uid="63969" user="olvagor" changeset="4586001" lat="48.8600814" lon="8.7492973"/>
  <node id="304063305" version="4" timestamp="2009-10-04T14:54:22Z" uid="20587" user="balrog-kun" changeset="2738034" lat="50.7205879" lon="7.0882197"/>
  <node id="304063305" version="5" timestamp="2009-12-20T13:06:02Z" uid="49785" user="mike67" changeset="3413343" lat="50.7206715" lon="7.0880328"/>
  <node id="304063307" version="4" timestamp="2009-10-04T14:54:22Z" uid="20587" user="balrog-kun" changeset="2738034" lat="50.7200851" lon="7.0885632"/>
  <node id="304063310" version="4" timestamp="2009-10-04T14:54:22Z" uid="20587" user="balrog-kun" changeset="2738034" lat="50.7199208" lon="7.0886678"/>
  <node id="304063310" version="5" timestamp="2012-01-04T19:31:20Z" uid="55687" user="dschuwa" changeset="10294380" lat="50.7199208" lon="7.0886678"/>
  <node id="304063313" version="4" timestamp="2009-10-04T14:54:21Z" uid="20587" user="balrog-kun" changeset="2738034" lat="50.7197018" lon="7.0888669"/>
  <node id="304063313" version="5" timestamp="2012-01-04T19:31:20Z" uid="55687" user="dschuwa" changeset="10294380" lat="50.7197018" lon="7.0888669"/>
  <node id="304063316" version="4" timestamp="2009-10-04T14:54:21Z" uid="20587" user="balrog-kun" changeset="2738034" lat="50.7193682" lon="7.0890412"/>
  <node id="304063316" version="5" timestamp="2012-01-04T19:31:20Z" uid="55687" user="dschuwa" changeset="10294380" lat="50.7193682" lon="7.0890412"/>
  <node id="304063321" version="4" timestamp="2009-10-04T14:54:21Z" uid="20587" user="balrog-kun" changeset="2738034" lat="50.7189849" lon="7.0891059"/>
  <node id="304063321" version="5" timestamp="2012-01-04T19:31:20Z" uid="55687" user="dschuwa" changeset="10294380" lat="50.7189849" lon="7.0891059"/>
  <node id="304063324" version="6" timestamp="2009-10-04T14:54:21Z" uid="20587" user="balrog-kun" changeset="2738034" lat="50.7186712" lon="7.089086"/>
  <node id="304063324" version="7" timestamp="2011-08-07T08:03:34Z" uid="49785" user="mike67" changeset="8944285" lat="50.7186441" lon="7.089094"/>
  <node id="304063324" version="8" timestamp="2012-01-04T19:31:18Z" uid="55687" user="dschuwa" changeset="10294380" lat="50.7186435" lon="7.0890937"/>
  <node id="304063326" version="3" timestamp="2009-10-04T14:54:21Z" uid="20587" user="balrog-kun" changeset="2738034" lat="50.7200851" lon="7.0889765"/>
  <node id="304063343" version="3" timestamp="2009-01-13T14:36:56Z" uid="67142" user="zottel" changeset="782583" lat="48.8690982" lon="8.7455022"/>
  <node id="304063343" version="4" timestamp="2009-04-28T19:16:48Z" uid="63969" user="olvagor" changeset="1008312" lat="48.8690846" lon="8.7454847"/>
  <node id="304063348" version="5" timestamp="2009-10-04T14:54:22Z" uid="20587" user="balrog-kun" changeset="2738034" lat="50.7184173" lon="7.0899572"/>
  <node id="304063348" version="6" timestamp="2011-08-07T08:03:33Z" uid="49785" user="mike67" changeset="8944285" lat="50.7183864" lon="7.0899638"/>
  <node id="304063348" version="7" timestamp="2012-01-04T19:31:20Z" uid="55687" user="dschuwa" changeset="10294380" lat="50.7183864" lon="7.0899638"/>
  <node id="304063351" version="3" timestamp="2009-10-04T14:54:23Z" uid="20587" user="balrog-kun" changeset="2738034" lat="50.7203375" lon="7.0891809"/>
  <node id="304063351" version="4" timestamp="2011-08-07T08:03:27Z" uid="49785" user="mike67" changeset="8944285" lat="50.7202945" lon="7.0891566"/>
  <node id="304065664" version="5" timestamp="2009-10-04T14:54:51Z" uid="20587" user="balrog-kun" changeset="2738034" lat="50.7197893" lon="7.0887873"/>
  <node id="304066009" version="1" timestamp="2008-10-12T18:35:10Z" uid="33382" user="de_muur" changeset="285273" lat="53.0715577" lon="9.021943">
    <tag k="created_by" v="JOSM"/>
  </node>
  <node id="304066009" version="2" timestamp="2008-11-03T22:55:15Z" uid="35574" user="Schorse" changeset="669212" lat="53.0716207" lon="9.021943">
    <tag k="created_by" v="JOSM"/>
  </node>
  <node id="304066009" version="3" timestamp="2009-03-22T17:46:57Z" uid="68030" user="Kowa" changeset="845795" lat="53.0716207" lon="9.021943"/>
  <node id="304066009" version="4" timestamp="2009-03-22T17:47:55Z" uid="68030" user="Kowa" changeset="845795" lat="53.0716207" lon="9.021943"/>
  <node id="304066009" version="5" timestamp="2009-03-22T17:50:19Z" uid="68030" user="Kowa" changeset="845795" lat="53.0716207" lon="9.021943"/>
  <node id="304066009" version="6" timestamp="2010-03-21T08:31:07Z" uid="33382" user="de_muur" changeset="4188054" lat="53.0715706" lon="9.0218669"/>
  <node id="304066009" version="7" timestamp="2010-12-23T15:32:10Z" uid="115883" user="Senior_Spielbergo" changeset="6746382" lat="53.0715309" lon="9.0218559"/>
  <node id="304066011" version="1" timestamp="2008-10-12T18:35:11Z" uid="33382" user="de_muur" changeset="285273" lat="53.0723541" lon="9.0223382">
    <tag k="created_by" v="JOSM"/>
  </node>
  <node id="304066011" version="2" timestamp="2009-03-22T17:50:19Z" uid="68030" user="Kowa" changeset="845795" lat="53.0723541" lon="9.0223382"/>
  <node id="304066013" version="1" timestamp="2008-10-12T18:35:11Z" uid="33382" user="de_muur" changeset="285273" lat="53.0732412" lon="9.0229297">
    <tag k="created_by" v="JOSM"/>
  </node>
  <node id="304066013" version="2" timestamp="2009-03-22T17:50:19Z" uid="68030" user="Kowa" changeset="845795" lat="53.0732412" lon="9.0229297"/>
  <node id="304066015" version="1" timestamp="2008-10-12T18:35:11Z" uid="33382" user="de_muur" changeset="285273" lat="53.0736146" lon="9.0234099">
    <tag k="created_by" v="JOSM"/>
  </node>
  <node id="304066015" version="2" timestamp="2008-11-03T22:55:15Z" uid="35574" user="Schorse" changeset="669212" lat="53.0735917" lon="9.0234271">
    <tag k="created_by" v="JOSM"/>
  </node>
  <node id="304066015" version="3" timestamp="2009-03-22T17:50:19Z" uid="68030" user="Kowa" changeset="845795" lat="53.0735917" lon="9.0234271"/>
  <node id="304066015" version="4" timestamp="2010-01-21T15:47:20Z" uid="115883" user="Senior_Spielbergo" changeset="3675683" lat="53.0735917" lon="9.0234271">
    <tag k="postal_code" v="28876"/>
  </node>
  <node id="304066018" version="1" timestamp="2008-10-12T18:35:11Z" uid="33382" user="de_muur" changeset="285273" lat="53.0740872" lon="9.0241797">
    <tag k="created_by" v="JOSM"/>
  </node>
  <node id="304066018" version="2" timestamp="2008-11-03T22:55:16Z" uid="35574" user="Schorse" changeset="669212" lat="53.0740528" lon="9.0242714">
    <tag k="created_by" v="JOSM"/>
  </node>
  <node id="304066018" version="3" timestamp="2009-03-22T17:50:19Z" uid="68030" user="Kowa" changeset="845795" lat="53.0740528" lon="9.0242714"/>
  <node id="304066020" version="1" timestamp="2008-10-12T18:35:11Z" uid="33382" user="de_muur" changeset="285273" lat="53.0746284" lon="9.0253077">
    <tag k="created_by" v="JOSM"/>
  </node>
  <node id="304066023" version="1" timestamp="2008-10-12T18:35:12Z" uid="33382" user="de_muur" changeset="285273" lat="53.0750247" lon="9.026512">
    <tag k="created_by" v="JOSM"/>
  </node>
  <node id="304066026" version="1" timestamp="2008-10-12T18:35:12Z" uid="33382" user="de_muur" changeset="285273" lat="53.0751848" lon="9.027015">
    <tag k="created_by" v="JOSM"/>
  </node>
  <node id="304066028" version="1" timestamp="2008-10-12T18:35:12Z" uid="33382" user="de_muur" changeset="285273" lat="53.0754744" lon="9.0273046">
    <tag k="created_by" v="JOSM"/>
  </node>
  <node id="304066030" version="1" timestamp="2008-10-12T18:35:12Z" uid="33382" user="de_muur" changeset="285273" lat="53.076046" lon="9.0278305">
    <tag k="created_by" v="JOSM"/>
  </node>
  <node id="304066032" version="1" timestamp="2008-10-12T18:35:12Z" uid="33382" user="de_muur" changeset="285273" lat="53.0762823" lon="9.0280516">
    <tag k="created_by" v="JOSM"/>
  </node>
  <node id="304066034" version="1" timestamp="2008-10-12T18:35:13Z" uid="33382" user="de_muur" changeset="285273" lat="53.0748418" lon="9.0267864">
    <tag k="created_by" v="JOSM"/>
  </node>
  <node id="304066036" version="1" timestamp="2008-10-12T18:35:13Z" uid="33382" user="de_muur" changeset="285273" lat="53.0740186" lon="9.0264739">
    <tag k="created_by" v="JOSM"/>
  </node>
  <node id="304066038" version="1" timestamp="2008-10-12T18:35:13Z" uid="33382" user="de_muur" changeset="285273" lat="53.0730201" lon="9.0263062">
    <tag k="created_by" v="JOSM"/>
  </node>
  <node id="304066040" version="1" timestamp="2008-10-12T18:35:13Z" uid="33382" user="de_muur" changeset="285273" lat="53.072479" lon="9.0262833">
    <tag k="created_by" v="JOSM"/>
  </node>
  <node id="304066042" version="1" timestamp="2008-10-12T18:35:13Z" uid="33382" user="de_muur" changeset="285273" lat="53.0721208" lon="9.0264129">
    <tag k="created_by" v="JOSM"/>
  </node>
  <node id="304066044" version="1" timestamp="2008-10-12T18:35:14Z" uid="33382" user="de_muur" changeset="285273" lat="53.0715415" lon="9.0266873">
    <tag k="created_by" v="JOSM"/>
  </node>
  <node id="304066044" version="2" timestamp="2008-11-03T22:55:16Z" uid="35574" user="Schorse" changeset="669212" lat="53.0716103" lon="9.0267331">
    <tag k="created_by" v="JOSM"/>
  </node>
  <node id="304066044" version="3" timestamp="2009-03-22T17:46:57Z" uid="68030" user="Kowa" changeset="845795" lat="53.0716103" lon="9.0267331"/>
  <node id="304066044" version="4" timestamp="2009-03-22T17:47:55Z" uid="68030" user="Kowa" changeset="845795" lat="53.0716103" lon="9.0267331"/>
  <node id="304066044" version="5" timestamp="2010-12-23T15:55:18Z" uid="115883" user="Senior_Spielbergo" changeset="6746570" lat="53.0715722" lon="9.0267296"/>
  <node id="304066046" version="1" timestamp="2008-10-12T18:35:14Z" uid="33382" user="de_muur" changeset="285273" lat="53.0723189" lon="9.0269921">
    <tag k="created_by" v="JOSM"/>
  </node>
  <node id="304066048" version="1" timestamp="2008-10-12T18:35:14Z" uid="33382" user="de_muur" changeset="285273" lat="53.0723342" lon="9.027358">
    <tag k="created_by" v="JOSM"/>
  </node>
  <node id="304066050" version="1" timestamp="2008-10-12T18:35:14Z" uid="33382" user="de_muur" changeset="285273" lat="53.0744543" lon="9.0234066">
    <tag k="created_by" v="JOSM"/>
  </node>
  <node id="304066052" version="1" timestamp="2008-10-12T18:35:14Z" uid="33382" user="de_muur" changeset="285273" lat="53.0754552" lon="9.0211018">
    <tag k="created_by" v="JOSM"/>
  </node>
  <node id="304066052" version="2" timestamp="2010-12-23T15:55:18Z" uid="115883" user="Senior_Spielbergo" changeset="6746570" lat="53.075446" lon="9.0210827"/>
  <node id="304066054" version="1" timestamp="2008-10-12T18:35:15Z" uid="33382" user="de_muur" changeset="285273" lat="53.0765879" lon="9.0184677">
    <tag k="created_by" v="JOSM"/>
  </node>
  <node id="304066054" version="2" timestamp="2009-03-22T17:51:06Z" uid="68030" user="Kowa" changeset="845795" lat="53.0765879" lon="9.0184677"/>
  <node id="304066054" version="3" timestamp="2010-12-23T15:37:26Z" uid="115883" user="Senior_Spielbergo" changeset="6746425" lat="53.0765841" lon="9.0184297"/>
  <node id="304066056" version="1" timestamp="2008-10-12T18:35:15Z" uid="33382" user="de_muur" changeset="285273" lat="53.0735688" lon="9.0226159">
    <tag k="created_by" v="JOSM"/>
  </node>
  <node id="304066058" version="1" timestamp="2008-10-12T18:35:15Z" uid="33382" user="de_muur" changeset="285273" lat="53.0737684" lon="9.0226375">
    <tag k="created_by" v="JOSM"/>
  </node>
  <node id="304066060" version="1" timestamp="2008-10-12T18:35:15Z" uid="33382" user="de_muur" changeset="285273" lat="53.0751333" lon="9.024175">
    <tag k="created_by" v="JOSM"/>
  </node>
  <node id="304066062" version="1" timestamp="2008-10-12T18:35:16Z" uid="33382" user="de_muur" changeset="285273" lat="53.0757701" lon="9.0278405">
    <tag k="amenity" v="restaurant"/>
    <tag k="created_by" v="JOSM"/>
    <tag k="name" v="Zur Deepen Wisch"/>
  </node>
  <node id="304066062" version="2" timestamp="2010-07-22T10:57:56Z" uid="322594" user="realturrican" changeset="5286202" lat="53.0757701" lon="9.0278404"/>
  <node id="304066062" version="3" timestamp="2012-02-10T22:18:33Z" uid="134914" user="max60watt" changeset="10647897" lat="53.0757701" lon="9.0278404"/>
  <node id="304066064" version="1" timestamp="2008-10-12T18:35:16Z" uid="33382" user="de_muur" changeset="285273" lat="53.0760841" lon="9.016465">
    <tag k="created_by" v="JOSM"/>
  </node>
  <node id="304066064" version="2" timestamp="2008-11-02T19:02:40Z" uid="33382" user="de_muur" changeset="660029" lat="53.0760676" lon="9.016432">
    <tag k="created_by" v="JOSM"/>
  </node>
  <node id="304066066" version="1" timestamp="2008-10-12T18:35:16Z" uid="33382" user="de_muur" changeset="285273" lat="53.0719206" lon="9.016434">
    <tag k="created_by" v="JOSM"/>
  </node>
  <node id="304066066" version="2" timestamp="2009-03-22T17:51:48Z" uid="68030" user="Kowa" changeset="845795" lat="53.0719206" lon="9.016434"/>
  <node id="304066066" version="3" timestamp="2010-12-23T15:32:12Z" uid="115883" user="Senior_Spielbergo" changeset="6746382" lat="53.0719136" lon="9.0165086"/>
  <node id="304066071" version="1" timestamp="2008-10-12T18:35:16Z" uid="33382" user="de_muur" changeset="285273" lat="53.0711518" lon="9.015917">
    <tag k="created_by" v="JOSM"/>
    <tag k="highway" v="crossing"/>
  </node>
  <node id="304066071" version="2" timestamp="2010-12-23T15:32:12Z" uid="115883" user="Senior_Spielbergo" changeset="6746382" lat="53.0711408" lon="9.0159542">
    <tag k="highway" v="crossing"/>
  </node>
  <node id="304066076" version="1" timestamp="2008-10-12T18:35:16Z" uid="33382" user="de_muur" changeset="285273" lat="53.0697183" lon="9.0149377">
    <tag k="created_by" v="JOSM"/>
  </node>
  <node id="304066076" version="2" timestamp="2009-03-22T17:51:48Z" uid="68030" user="Kowa" changeset="845795" lat="53.0697183" lon="9.0149377"/>
  <node id="304066076" version="3" timestamp="2010-12-23T15:32:12Z" uid="115883" user="Senior_Spielbergo" changeset="6746382" lat="53.0697248" lon="9.0149776"/>
  <node id="304066078" version="1" timestamp="2008-10-12T18:35:17Z" uid="33382" user="de_muur" changeset="285273" lat="53.067331" lon="9.0145427">
    <tag k="created_by" v="JOSM"/>
  </node>
  <node id="304066078" version="2" timestamp="2009-03-22T17:51:48Z" uid="68030" user="Kowa" changeset="845795" lat="53.067331" lon="9.0145427"/>
  <node id="304066078" version="3" timestamp="2010-12-22T17:16:25Z" uid="115883" user="Senior_Spielbergo" changeset="6737649" lat="53.0672822" lon="9.0145508"/>
  <node id="304066078" version="4" timestamp="2010-12-23T15:32:09Z" uid="115883" user="Senior_Spielbergo" changeset="6746382" lat="53.067264" lon="9.0144985"/>
  <node id="304066080" version="1" timestamp="2008-10-12T18:35:17Z" uid="33382" user="de_muur" changeset="285273" lat="53.0642712" lon="9.0154505">
    <tag k="created_by" v="JOSM"/>
  </node>
  <node id="304066080" version="2" timestamp="2009-03-22T17:51:48Z" uid="68030" user="Kowa" changeset="845795" lat="53.0642712" lon="9.0154505"/>
  <node id="304066080" version="3" timestamp="2010-12-23T15:32:07Z" uid="115883" user="Senior_Spielbergo" changeset="6746382" lat="53.0642676" lon="9.0154588"/>
  <node id="304066083" version="1" timestamp="2008-10-12T18:35:17Z" uid="33382" user="de_muur" changeset="285273" lat="53.0711229" lon="9.0217618">
    <tag k="created_by" v="JOSM"/>
    <tag k="highway" v="bus_stop"/>
  </node>
  <node id="304066083" version="2" timestamp="2010-12-23T15:32:10Z" uid="115883" user="Senior_Spielbergo" changeset="6746382" lat="53.0711097" lon="9.0218114">
    <tag k="highway" v="bus_stop"/>
  </node>
  <node id="304066086" version="1" timestamp="2008-10-12T18:35:17Z" uid="33382" user="de_muur" changeset="285273" lat="53.0711351" lon="9.0216899">
    <tag k="created_by" v="JOSM"/>
    <tag k="highway" v="bus_stop"/>
  </node>
  <node id="304066111" version="2" timestamp="2009-11-12T02:41:01Z" uid="36809" user="pfoten_weg_!_" changeset="3095231" lat="47.8605693" lon="11.7029874">
    <tag k="power" v="tower"/>
  </node>
  <node id="304067203" version="10" timestamp="2008-12-29T22:33:56Z" uid="6269" user="Mueck" changeset="661283" lat="49.8725592" lon="11.8811048"/>
  <node id="304067203" version="11" timestamp="2008-12-29T22:41:10Z" uid="6269" user="Mueck" changeset="661283" lat="49.8725592" lon="11.8811048"/>
  <node id="304067203" version="12" timestamp="2008-12-29T22:44:13Z" uid="6269" user="Mueck" changeset="661283" lat="49.8725592" lon="11.8811048"/>
  <node id="304067203" version="13" timestamp="2008-12-29T22:44:53Z" uid="6269" user="Mueck" changeset="661283" lat="49.8725592" lon="11.8811048"/>
  <node id="304067203" version="14" timestamp="2009-05-16T17:11:10Z" uid="89943" user="Bengatzer" changeset="1212936" lat="49.8725592" lon="11.8811048"/>
  <node id="304067203" version="15" timestamp="2012-01-17T21:57:40Z" uid="479256" user="geodreieck4711" changeset="10422736" lat="49.8726502" lon="11.8810271"/>
  <node id="304068632" version="1" timestamp="2008-10-12T18:44:57Z" uid="33382" user="de_muur" changeset="285273" lat="53.0616099" lon="9.004246">
    <tag k="created_by" v="JOSM"/>
  </node>
  <node id="304068632" version="2" timestamp="2010-03-06T20:08:04Z" uid="115883" user="Senior_Spielbergo" changeset="4054248" lat="53.0615627" lon="9.0042776"/>
  <node id="304068632" version="3" timestamp="2010-03-06T20:14:00Z" uid="115883" user="Senior_Spielbergo" changeset="4054316" lat="53.0615491" lon="9.0042776"/>
  <node id="304068635" version="1" timestamp="2008-10-12T18:44:57Z" uid="33382" user="de_muur" changeset="285273" lat="53.0615097" lon="9.0026774">
    <tag k="created_by" v="JOSM"/>
  </node>
  <node id="304068635" version="2" timestamp="2008-11-02T18:46:43Z" uid="33382" user="de_muur" changeset="660029" lat="53.0614938" lon="9.0027252">
    <tag k="created_by" v="JOSM"/>
  </node>
  <node id="304068635" version="3" timestamp="2010-03-06T20:08:04Z" uid="115883" user="Senior_Spielbergo" changeset="4054248" lat="53.061459" lon="9.0027252"/>
  <node id="304068635" version="4" timestamp="2010-03-06T20:14:00Z" uid="115883" user="Senior_Spielbergo" changeset="4054316" lat="53.0614394" lon="9.0027202"/>
  <node id="304068640" version="1" timestamp="2008-10-12T18:44:57Z" uid="33382" user="de_muur" changeset="285273" lat="53.0613874" lon="9.0015315">
    <tag k="created_by" v="JOSM"/>
  </node>
  <node id="304068640" version="2" timestamp="2010-03-06T20:14:00Z" uid="115883" user="Senior_Spielbergo" changeset="4054316" lat="53.0613738" lon="9.0015416"/>
  <node id="304068643" version="1" timestamp="2008-10-12T18:44:57Z" uid="33382" user="de_muur" changeset="285273" lat="53.0600746" lon="9.0017206">
    <tag k="created_by" v="JOSM"/>
  </node>
  <node id="304068643" version="2" timestamp="2010-03-06T20:09:41Z" uid="115883" user="Senior_Spielbergo" changeset="4054265" lat="53.060077" lon="9.0017599"/>
  <node id="304068647" version="1" timestamp="2008-10-12T18:44:58Z" uid="33382" user="de_muur" changeset="285273" lat="53.0617322" lon="9.0026551">
    <tag k="created_by" v="JOSM"/>
  </node>
  <node id="304068647" version="2" timestamp="2008-11-02T18:46:43Z" uid="33382" user="de_muur" changeset="660029" lat="53.0634616" lon="9.002161">
    <tag k="created_by" v="JOSM"/>
  </node>
  <node id="304068648" version="1" timestamp="2008-10-12T18:44:58Z" uid="33382" user="de_muur" changeset="285273" lat="53.0602192" lon="9.0046131">
    <tag k="created_by" v="JOSM"/>
  </node>
  <node id="304068648" version="2" timestamp="2010-03-06T20:08:04Z" uid="115883" user="Senior_Spielbergo" changeset="4054248" lat="53.0602239" lon="9.0046681"/>
  <node id="304068649" version="1" timestamp="2008-10-12T18:44:58Z" uid="33382" user="de_muur" changeset="285273" lat="53.0586506" lon="9.005136">
    <tag k="created_by" v="JOSM"/>
  </node>
  <node id="304068649" version="2" timestamp="2010-03-05T21:13:21Z" uid="115883" user="Senior_Spielbergo" changeset="4044685" lat="53.0586768" lon="9.0051514"/>
  <node id="304068649" version="3" timestamp="2010-03-06T20:08:04Z" uid="115883" user="Senior_Spielbergo" changeset="4054248" lat="53.0586697" lon="9.0051003"/>
  <node id="304068649" version="4" timestamp="2010-03-06T21:55:59Z" uid="115883" user="Senior_Spielbergo" changeset="4055322" lat="53.0586889" lon="9.0050939"/>
  <node id="304068650" version="1" timestamp="2008-10-12T18:44:58Z" uid="33382" user="de_muur" changeset="285273" lat="53.0586643" lon="8.9988668">
    <tag k="created_by" v="JOSM"/>
    <tag k="highway" v="bus_stop"/>
  </node>
  <node id="304068650" version="2" timestamp="2010-02-23T09:33:59Z" uid="115883" user="Senior_Spielbergo" changeset="3951628" lat="53.0586643" lon="8.9988668">
    <tag k="highway" v="bus_stop"/>
    <tag k="shelter" v="no"/>
  </node>
  <node id="304068650" version="3" timestamp="2010-03-12T09:53:24Z" uid="115883" user="Senior_Spielbergo" changeset="4104743" lat="53.058649" lon="8.9988727">
    <tag k="highway" v="bus_stop"/>
    <tag k="shelter" v="no"/>
  </node>
  <node id="304068651" version="1" timestamp="2008-10-12T18:44:59Z" uid="33382" user="de_muur" changeset="285273" lat="53.0585405" lon="8.9989849">
    <tag k="created_by" v="JOSM"/>
    <tag k="highway" v="bus_stop"/>
  </node>
  <node id="304068651" version="2" timestamp="2010-02-23T09:33:59Z" uid="115883" user="Senior_Spielbergo" changeset="3951628" lat="53.0585405" lon="8.9989849">
    <tag k="highway" v="bus_stop"/>
    <tag k="shelter" v="no"/>
  </node>
  <node id="304068651" version="3" timestamp="2010-03-12T14:13:13Z" uid="115883" user="Senior_Spielbergo" changeset="4106619" lat="53.0585243" lon="8.9989579">
    <tag k="highway" v="bus_stop"/>
    <tag k="shelter" v="no"/>
  </node>
  <node id="304068652" version="1" timestamp="2008-10-12T18:44:59Z" uid="33382" user="de_muur" changeset="285273" lat="53.0463958" lon="8.9698662">
    <tag k="created_by" v="JOSM"/>
    <tag k="highway" v="bus_stop"/>
  </node>
  <node id="304068652" version="2" timestamp="2009-08-08T10:13:51Z" uid="109925" user="WanMil" changeset="2074012" lat="53.0463958" lon="8.9698662">
    <tag k="highway" v="bus_stop"/>
  </node>
  <node id="304068652" version="3" timestamp="2010-03-31T15:13:44Z" uid="18483" user="toralf" changeset="4286089" lat="53.0463958" lon="8.9698662">
    <tag k="highway" v="bus_stop"/>
    <tag k="name" v="Von-Thünen-Straße-Nord"/>
  </node>
  <node id="304068654" version="1" timestamp="2008-10-12T18:44:59Z" uid="33382" user="de_muur" changeset="285273" lat="53.0461096" lon="8.9699674">
    <tag k="created_by" v="JOSM"/>
    <tag k="highway" v="bus_stop"/>
  </node>
  <node id="304068654" version="2" timestamp="2009-08-08T10:13:51Z" uid="109925" user="WanMil" changeset="2074012" lat="53.0461096" lon="8.9699674">
    <tag k="highway" v="bus_stop"/>
  </node>
  <node id="304068654" version="3" timestamp="2010-03-31T15:13:45Z" uid="18483" user="toralf" changeset="4286089" lat="53.0461096" lon="8.9699674">
    <tag k="highway" v="bus_stop"/>
    <tag k="name" v="Von-Thünen-Straße-Nord"/>
  </node>
  <node id="304068656" version="1" timestamp="2008-10-12T18:44:59Z" uid="33382" user="de_muur" changeset="285273" lat="53.0434921" lon="8.9701186">
    <tag k="created_by" v="JOSM"/>
    <tag k="highway" v="bus_stop"/>
  </node>
  <node id="304068656" version="2" timestamp="2009-08-08T10:13:51Z" uid="109925" user="WanMil" changeset="2074012" lat="53.0434921" lon="8.9701186">
    <tag k="highway" v="bus_stop"/>
  </node>
  <node id="304068656" version="3" timestamp="2009-10-20T10:49:41Z" uid="68030" user="Kowa" changeset="2901897" lat="53.0434002" lon="8.9701806">
    <tag k="highway" v="bus_stop"/>
    <tag k="name" v="Ricardostraße"/>
  </node>
  <node id="304068656" version="4" timestamp="2010-06-21T12:06:24Z" uid="4473" user="EtricCeline" changeset="5042129" lat="53.0434002" lon="8.9701806">
    <tag k="bus" v="yes"/>
    <tag k="highway" v="bus_stop"/>
    <tag k="name" v="Ricardostraße"/>
    <tag k="public_transport" v="platform"/>
  </node>
  <node id="304068659" version="1" timestamp="2008-10-12T18:45:00Z" uid="33382" user="de_muur" changeset="285273" lat="53.0431641" lon="8.9699953">
    <tag k="created_by" v="JOSM"/>
    <tag k="highway" v="bus_stop"/>
  </node>
  <node id="304068659" version="2" timestamp="2009-08-08T10:13:51Z" uid="109925" user="WanMil" changeset="2074012" lat="53.0431641" lon="8.9699953">
    <tag k="highway" v="bus_stop"/>
  </node>
  <node id="304068659" version="3" timestamp="2009-10-20T10:49:46Z" uid="68030" user="Kowa" changeset="2901897" lat="53.043168" lon="8.9699918">
    <tag k="highway" v="bus_stop"/>
    <tag k="name" v="Ricardostraße"/>
  </node>
  <node id="304068659" version="4" timestamp="2010-06-21T12:06:29Z" uid="4473" user="EtricCeline" changeset="5042129" lat="53.043168" lon="8.9699918">
    <tag k="bus" v="yes"/>
    <tag k="highway" v="bus_stop"/>
    <tag k="name" v="Ricardostraße"/>
    <tag k="public_transport" v="platform"/>
  </node>
  <node id="304068663" version="1" timestamp="2008-10-12T18:45:00Z" uid="33382" user="de_muur" changeset="285273" lat="53.0395708" lon="8.9657553">
    <tag k="created_by" v="JOSM"/>
    <tag k="highway" v="bus_stop"/>
  </node>
  <node id="304068663" version="2" timestamp="2010-03-31T15:13:43Z" uid="18483" user="toralf" changeset="4286089" lat="53.0395708" lon="8.9657553">
    <tag k="highway" v="bus_stop"/>
    <tag k="name" v="Von-Thünen-Straße-Süd"/>
  </node>
  <node id="304068663" version="3" timestamp="2010-06-21T12:06:26Z" uid="4473" user="EtricCeline" changeset="5042129" lat="53.0395708" lon="8.9657553">
    <tag k="bus" v="yes"/>
    <tag k="highway" v="bus_stop"/>
    <tag k="name" v="Von-Thünen-Straße-Süd"/>
    <tag k="public_transport" v="platform"/>
  </node>
  <node id="304068663" version="4" timestamp="2011-10-14T17:54:45Z" uid="290680" user="wheelmap_visitor" changeset="9552229" lat="53.0395708" lon="8.9657553">
    <tag k="bus" v="yes"/>
    <tag k="highway" v="bus_stop"/>
    <tag k="name" v="Von-Thünen-Straße-Süd"/>
    <tag k="public_transport" v="platform"/>
    <tag k="wheelchair" v="yes"/>
  </node>
  <node id="304068667" version="1" timestamp="2008-10-12T18:45:00Z" uid="33382" user="de_muur" changeset="285273" lat="53.0399066" lon="8.9653501">
    <tag k="created_by" v="JOSM"/>
    <tag k="highway" v="bus_stop"/>
  </node>
  <node id="304068667" version="2" timestamp="2010-03-31T15:13:44Z" uid="18483" user="toralf" changeset="4286089" lat="53.0399066" lon="8.9653501">
    <tag k="highway" v="bus_stop"/>
    <tag k="name" v="Von-Thünen-Straße-Süd"/>
  </node>
  <node id="304068667" version="3" timestamp="2010-06-21T12:06:25Z" uid="4473" user="EtricCeline" changeset="5042129" lat="53.0399066" lon="8.9653501">
    <tag k="bus" v="yes"/>
    <tag k="highway" v="bus_stop"/>
    <tag k="name" v="Von-Thünen-Straße-Süd"/>
    <tag k="public_transport" v="platform"/>
  </node>
  <node id="304068667" version="4" timestamp="2011-11-04T06:12:43Z" uid="290680" user="wheelmap_visitor" changeset="9735831" lat="53.0399066" lon="8.9653501">
    <tag k="bus" v="yes"/>
    <tag k="highway" v="bus_stop"/>
    <tag k="name" v="Von-Thünen-Straße-Süd"/>
    <tag k="public_transport" v="platform"/>
    <tag k="wheelchair" v="yes"/>
  </node>
  <node id="304068669" version="1" timestamp="2008-10-12T18:45:01Z" uid="33382" user="de_muur" changeset="285273" lat="53.0398371" lon="8.9646061">
    <tag k="created_by" v="JOSM"/>
    <tag k="shop" v="bakery"/>
  </node>
  <node id="304068669" version="2" timestamp="2011-10-14T17:54:44Z" uid="290680" user="wheelmap_visitor" changeset="9552229" lat="53.0398371" lon="8.9646061">
    <tag k="created_by" v="JOSM"/>
    <tag k="shop" v="bakery"/>
    <tag k="wheelchair" v="yes"/>
  </node>
  <node id="304068672" version="1" timestamp="2008-10-12T18:45:01Z" uid="33382" user="de_muur" changeset="285273" lat="53.0372898" lon="8.9710469">
    <tag k="created_by" v="JOSM"/>
    <tag k="highway" v="bus_stop"/>
  </node>
  <node id="304068672" version="2" timestamp="2009-08-08T10:13:50Z" uid="109925" user="WanMil" changeset="2074012" lat="53.0372898" lon="8.9710469">
    <tag k="highway" v="bus_stop"/>
  </node>
  <node id="304068672" version="3" timestamp="2010-03-31T15:13:45Z" uid="18483" user="toralf" changeset="4286089" lat="53.0372898" lon="8.9710469">
    <tag k="highway" v="bus_stop"/>
    <tag k="name" v="Theodor-Barth-Straße"/>
  </node>
  <node id="304068672" version="4" timestamp="2010-06-21T12:06:18Z" uid="4473" user="EtricCeline" changeset="5042129" lat="53.0372898" lon="8.9710469">
    <tag k="bus" v="yes"/>
    <tag k="highway" v="bus_stop"/>
    <tag k="name" v="Theodor-Barth-Straße"/>
    <tag k="public_transport" v="platform"/>
  </node>
  <node id="304068672" version="5" timestamp="2011-11-04T06:11:41Z" uid="290680" user="wheelmap_visitor" changeset="9735831" lat="53.0372898" lon="8.9710469">
    <tag k="bus" v="yes"/>
    <tag k="highway" v="bus_stop"/>
    <tag k="name" v="Theodor-Barth-Straße"/>
    <tag k="public_transport" v="platform"/>
    <tag k="wheelchair" v="yes"/>
  </node>
  <node id="304068674" version="1" timestamp="2008-10-12T18:45:01Z" uid="33382" user="de_muur" changeset="285273" lat="53.0373361" lon="8.9712148">
    <tag k="created_by" v="JOSM"/>
    <tag k="highway" v="bus_stop"/>
  </node>
  <node id="304068674" version="2" timestamp="2009-08-08T10:13:50Z" uid="109925" user="WanMil" changeset="2074012" lat="53.0373361" lon="8.9712148">
    <tag k="highway" v="bus_stop"/>
  </node>
  <node id="304068674" version="3" timestamp="2010-03-31T15:13:44Z" uid="18483" user="toralf" changeset="4286089" lat="53.0373361" lon="8.9712148">
    <tag k="highway" v="bus_stop"/>
    <tag k="name" v="Theodor-Barth-Straße"/>
  </node>
  <node id="304068674" version="4" timestamp="2010-06-21T12:06:29Z" uid="4473" user="EtricCeline" changeset="5042129" lat="53.0373361" lon="8.9712148">
    <tag k="bus" v="yes"/>
    <tag k="highway" v="bus_stop"/>
    <tag k="name" v="Theodor-Barth-Straße"/>
    <tag k="public_transport" v="platform"/>
  </node>
  <node id="304068674" version="5" timestamp="2011-11-04T06:11:41Z" uid="290680" user="wheelmap_visitor" changeset="9735831" lat="53.0373361" lon="8.9712148">
    <tag k="bus" v="yes"/>
    <tag k="highway" v="bus_stop"/>
    <tag k="name" v="Theodor-Barth-Straße"/>
    <tag k="public_transport" v="platform"/>
    <tag k="wheelchair" v="yes"/>
  </node>
  <node id="304068675" version="1" timestamp="2008-10-12T18:45:02Z" uid="33382" user="de_muur" changeset="285273" lat="53.0385018" lon="8.9747995">
    <tag k="created_by" v="JOSM"/>
    <tag k="highway" v="bus_stop"/>
  </node>
  <node id="304068675" version="2" timestamp="2009-08-08T10:13:50Z" uid="109925" user="WanMil" changeset="2074012" lat="53.0385018" lon="8.9747995">
    <tag k="highway" v="bus_stop"/>
  </node>
  <node id="304068675" version="3" timestamp="2010-03-31T15:13:45Z" uid="18483" user="toralf" changeset="4286089" lat="53.0385018" lon="8.9747995">
    <tag k="highway" v="bus_stop"/>
    <tag k="name" v="In den Ellern"/>
  </node>
  <node id="304068675" version="4" timestamp="2010-06-21T12:06:24Z" uid="4473" user="EtricCeline" changeset="5042129" lat="53.0385018" lon="8.9747995">
    <tag k="bus" v="yes"/>
    <tag k="highway" v="bus_stop"/>
    <tag k="name" v="In den Ellern"/>
    <tag k="public_transport" v="platform"/>
  </node>
  <node id="304068675" version="5" timestamp="2011-11-04T06:11:42Z" uid="290680" user="wheelmap_visitor" changeset="9735831" lat="53.0385018" lon="8.9747995">
    <tag k="bus" v="yes"/>
    <tag k="highway" v="bus_stop"/>
    <tag k="name" v="In den Ellern"/>
    <tag k="public_transport" v="platform"/>
    <tag k="wheelchair" v="yes"/>
  </node>
  <node id="304068676" version="1" timestamp="2008-10-12T18:45:02Z" uid="33382" user="de_muur" changeset="285273" lat="53.0385074" lon="8.974981">
    <tag k="created_by" v="JOSM"/>
    <tag k="highway" v="bus_stop"/>
  </node>
  <node id="304068676" version="2" timestamp="2009-08-08T10:13:50Z" uid="109925" user="WanMil" changeset="2074012" lat="53.0385074" lon="8.974981">
    <tag k="highway" v="bus_stop"/>
  </node>
  <node id="304068676" version="3" timestamp="2010-03-31T15:13:45Z" uid="18483" user="toralf" changeset="4286089" lat="53.0385074" lon="8.974981">
    <tag k="highway" v="bus_stop"/>
    <tag k="name" v="In den Ellern"/>
  </node>
  <node id="304068676" version="4" timestamp="2010-06-21T12:06:28Z" uid="4473" user="EtricCeline" changeset="5042129" lat="53.0385074" lon="8.974981">
    <tag k="bus" v="yes"/>
    <tag k="highway" v="bus_stop"/>
    <tag k="name" v="In den Ellern"/>
    <tag k="public_transport" v="platform"/>
  </node>
  <node id="304068676" version="5" timestamp="2011-11-04T06:11:42Z" uid="290680" user="wheelmap_visitor" changeset="9735831" lat="53.0385074" lon="8.974981">
    <tag k="bus" v="yes"/>
    <tag k="highway" v="bus_stop"/>
    <tag k="name" v="In den Ellern"/>
    <tag k="public_transport" v="platform"/>
    <tag k="wheelchair" v="no"/>
  </node>
  <node id="304069345" version="2" timestamp="2008-10-23T05:14:53Z" uid="6975" user="ulfl" changeset="525020" lat="48.2432097" lon="9.0926867">
    <tag k="name" v="Salon Moser"/>
    <tag k="shop" v="hairdresser"/>
  </node>
  <node id="304069345" version="3" timestamp="2008-10-23T18:59:21Z" uid="6975" user="ulfl" changeset="530870" lat="48.2432097" lon="9.0926867">
    <tag k="name" v="Salon Moser"/>
    <tag k="shop" v="hairdresser"/>
  </node>
  <node id="304069345" version="4" timestamp="2011-10-08T15:27:45Z" uid="290680" user="wheelmap_visitor" changeset="9499106" lat="48.2432097" lon="9.0926867">
    <tag k="name" v="Salon Moser"/>
    <tag k="shop" v="hairdresser"/>
    <tag k="wheelchair" v="limited"/>
  </node>
</osm>
