<?xml version='1.0' encoding='UTF-8'?>
<osm version="0.6" generator="libosmium/2.20.0">
  <node id="304290301" version="3" timestamp="2009-10-03T14:18:29Z" uid="179968" user="Ich_hasse_doitsche_OSM-Korinthenkacker" changeset="2724403" lat="54.5695787" lon="13.4589108">
    <tag k="leisure" v="playground"/>
  </node>
  <node id="304290483" version="4" timestamp="2009-10-03T14:18:29Z" uid="179968" user="Ich_hasse_doitsche_OSM-Korinthenkacker" changeset="2724403" lat="54.56931" lon="13.4588422">
    <tag k="amenity" v="cafe"/>
    <tag k="name" v="Dünenhaus"/>
  </node>
  <node id="304290702" version="3" timestamp="2009-10-03T14:18:29Z" uid="179968" user="Ich_hasse_doitsche_OSM-Korinthenkacker" changeset="2724403" lat="54.5692652" lon="13.4588422">
    <tag k="name" v="Renate&apos;s Strandboutique"/>
    <tag k="shop" v="kiosk"/>
  </node>
  <node id="304290702" version="4" timestamp="2010-08-07T17:47:05Z" uid="30192" user="hubert08" changeset="5426467" lat="54.5691732" lon="13.4588422">
    <tag k="name" v="Renate&apos;s Strandboutique"/>
    <tag k="shop" v="kiosk"/>
  </node>
  <node id="304290702" version="5" timestamp="2011-10-08T19:58:13Z" uid="487238" user="AnneB" changeset="9506231" lat="54.5691732" lon="13.4588422">
    <tag k="addr:city" v="Glowe"/>
    <tag k="name" v="Renate&apos;s Strandboutique"/>
    <tag k="shop" v="kiosk"/>
    <tag k="wheelchair" v="limited"/>
    <tag k="wheelchair:description" v="ebenerdig, recht eng"/>
  </node>
  <node id="304290772" version="3" timestamp="2009-10-03T14:18:29Z" uid="179968" user="Ich_hasse_doitsche_OSM-Korinthenkacker" changeset="2724403" lat="54.569514" lon="13.4595803">
    <tag k="name" v="Ostseeperle"/>
    <tag k="tourism" v="attraction"/>
  </node>
  <node id="304290772" version="4" timestamp="2011-10-08T19:57:06Z" uid="487238" user="AnneB" changeset="9506231" lat="54.569514" lon="13.4595803">
    <tag k="addr:city" v="Glowe"/>
    <tag k="amenity" v="restaurant"/>
    <tag k="name" v="Ostseeperle"/>
    <tag k="tourism" v="attraction"/>
    <tag k="wheelchair" v="limited"/>
    <tag k="wheelchair:description" v="ebenerdig, kein WC, keine unterfahrbaren Tische"/>
  </node>
  <node id="304290772" version="5" timestamp="2012-03-18T19:01:59Z" uid="70400" user="Schwedenhagen" changeset="11022707" lat="54.569514" lon="13.4595803"/>
  <node id="304290998" version="3" timestamp="2009-10-03T14:18:30Z" uid="179968" user="Ich_hasse_doitsche_OSM-Korinthenkacker" changeset="2724403" lat="54.569305" lon="13.4601125">
    <tag k="name" v="Appartments Sandstrand Ostseeperle"/>
    <tag k="tourism" v="hotel"/>
  </node>
  <node id="304290998" version="4" timestamp="2011-10-08T19:53:14Z" uid="487238" user="AnneB" changeset="9506231" lat="54.569305" lon="13.4601125">
    <tag k="name" v="Appartments Sandstrand Ostseeperle"/>
    <tag k="tourism" v="hotel"/>
    <tag k="wheelchair" v="limited"/>
    <tag k="wheelchair:description" v="ohne Stufen, Fahrstühle, W"/>
  </node>
  <node id="304290998" version="5" timestamp="2011-10-08T19:55:40Z" uid="487238" user="AnneB" changeset="9506231" lat="54.569305" lon="13.4601125">
    <tag k="name" v="Appartments Sandstrand Ostseeperle"/>
    <tag k="tourism" v="hotel"/>
    <tag k="wheelchair" v="limited"/>
    <tag k="wheelchair:description" v="ohne Stufen, Fahrstühle, WC, aber schwere Türen, behindertengerechtes Zimmer ist nicht barrierefrei"/>
  </node>
  <node id="304290998" version="6" timestamp="2012-03-18T19:01:36Z" uid="70400" user="Schwedenhagen" changeset="11022707" lat="54.5693482" lon="13.4602104">
    <tag k="name" v="Appartments Sandstrand Ostseeperle"/>
    <tag k="tourism" v="hotel"/>
    <tag k="wheelchair" v="limited"/>
    <tag k="wheelchair:description" v="ohne Stufen, Fahrstühle, WC, aber schwere Türen, behindertengerechtes Zimmer ist nicht barrierefrei"/>
  </node>
  <node id="304291817" version="5" timestamp="2009-10-03T14:18:29Z" uid="179968" user="Ich_hasse_doitsche_OSM-Korinthenkacker" changeset="2724403" lat="54.5688046" lon="13.4583211">
    <tag k="name" v="Hotel Meeresblick"/>
    <tag k="tourism" v="hotel"/>
  </node>
  <node id="304291817" version="6" timestamp="2011-10-07T21:14:55Z" uid="290680" user="wheelmap_visitor" changeset="9490517" lat="54.5688046" lon="13.4583211">
    <tag k="name" v="Hotel Meeresblick"/>
    <tag k="tourism" v="hotel"/>
    <tag k="wheelchair" v="no"/>
  </node>
  <node id="304292376" version="3" timestamp="2009-10-03T14:18:28Z" uid="179968" user="Ich_hasse_doitsche_OSM-Korinthenkacker" changeset="2724403" lat="54.568683" lon="13.4575204">
    <tag k="name" v="Bel Air Hotel"/>
    <tag k="tourism" v="hotel"/>
  </node>
  <node id="304292606" version="3" timestamp="2009-10-03T14:18:30Z" uid="179968" user="Ich_hasse_doitsche_OSM-Korinthenkacker" changeset="2724403" lat="54.569514" lon="13.4583358">
    <tag k="amenity" v="fast_food"/>
    <tag k="name" v="diverse Imbissbuden"/>
  </node>
  <node id="304292784" version="3" timestamp="2009-10-03T14:18:29Z" uid="179968" user="Ich_hasse_doitsche_OSM-Korinthenkacker" changeset="2724403" lat="54.5694891" lon="13.4579581">
    <tag k="amenity" v="toilets"/>
  </node>
  <node id="304292784" version="4" timestamp="2012-02-15T20:39:58Z" uid="290680" user="wheelmap_visitor" changeset="10695599" lat="54.5694891" lon="13.4579581">
    <tag k="amenity" v="toilets"/>
    <tag k="wheelchair" v="yes"/>
  </node>
  <node id="304295589" version="2" timestamp="2009-10-03T14:18:30Z" uid="179968" user="Ich_hasse_doitsche_OSM-Korinthenkacker" changeset="2724403" lat="54.5702405" lon="13.4682321">
    <tag k="name" v="Pension Svantekahs"/>
    <tag k="tourism" v="motel"/>
  </node>
  <node id="304295589" version="3" timestamp="2010-07-20T18:09:49Z" uid="30192" user="hubert08" changeset="5272884" lat="54.5704623" lon="13.468292">
    <tag k="name" v="Pension Svantekahs"/>
    <tag k="tourism" v="motel"/>
  </node>
  <node id="304295632" version="3" timestamp="2009-10-03T14:18:29Z" uid="179968" user="Ich_hasse_doitsche_OSM-Korinthenkacker" changeset="2724403" lat="54.5686084" lon="13.4662236">
    <tag k="amenity" v="recycling"/>
  </node>
  <node id="304295647" version="3" timestamp="2009-10-03T14:18:29Z" uid="179968" user="Ich_hasse_doitsche_OSM-Korinthenkacker" changeset="2724403" lat="54.5688224" lon="13.4657515">
    <tag k="amenity" v="fire_station"/>
    <tag k="name" v="Feuerwehr Glowe"/>
  </node>
  <node id="304297836" version="7" timestamp="2009-01-04T12:10:29Z" uid="6269" user="Mueck" changeset="728840" lat="49.9002352" lon="11.8917742"/>
  <node id="304297836" version="8" timestamp="2009-01-04T12:13:26Z" uid="6269" user="Mueck" changeset="728840" lat="49.9002352" lon="11.8917742"/>
  <node id="304297836" version="9" timestamp="2009-03-15T11:18:47Z" uid="53327" user="GerdTIR" changeset="815615" lat="49.9002525" lon="11.8919083"/>
  <node id="304297836" version="10" timestamp="2011-02-09T19:28:21Z" uid="89943" user="Bengatzer" changeset="7239271" lat="49.9003295" lon="11.891827"/>
  <node id="304297836" version="11" timestamp="2012-01-17T21:57:40Z" uid="479256" user="geodreieck4711" changeset="10422736" lat="49.9003377" lon="11.891894"/>
  <node id="304297836" version="12" timestamp="2012-02-18T17:41:57Z" uid="479256" user="geodreieck4711" changeset="10722535" lat="49.9003451" lon="11.8918501"/>
  <node id="304299192" version="2" timestamp="2010-07-28T21:03:01Z" uid="74617" user="JohnSmith" changeset="5342181" lat="53.7542726" lon="-0.1985267">
    <tag k="emergency" v="ambulance_station"/>
    <tag k="name" v="Preston Ambulance Station"/>
  </node>
</osm>
