<?xml version='1.0' encoding='UTF-8'?>
<osm version="0.6" generator="libosmium/2.20.0">
  <node id="305410608" version="2" timestamp="2009-03-30T15:09:34Z" uid="49111" user="Markus B" changeset="870485" lat="54.1810239" lon="12.0886209">
    <tag k="leisure" v="marina"/>
    <tag k="name" v="Yachthafen Mittelmole"/>
    <tag k="seamark" v="marina"/>
  </node>
  <node id="305410608" version="3" timestamp="2009-03-30T15:13:58Z" uid="49111" user="Markus B" changeset="870485" lat="54.1814815" lon="12.088472">
    <tag k="leisure" v="marina"/>
    <tag k="name" v="Yachthafen Mittelmole"/>
    <tag k="seamark" v="marina"/>
  </node>
  <node id="305410608" version="4" timestamp="2009-08-07T15:13:59Z" uid="19192" user="cbm" changeset="2067075" lat="54.1814815" lon="12.088472">
    <tag k="leisure" v="marina"/>
    <tag k="name" v="Yachthafen Mittelmole"/>
  </node>
  <node id="305410613" version="1" timestamp="2008-10-18T14:32:51Z" uid="3560" user="Firefishy" changeset="412116" lat="51.5436258" lon="-0.2711792">
    <tag k="amenity" v="bus_stop"/>
    <tag k="name" v="North Circular Road"/>
    <tag k="ref" v="K"/>
    <tag k="route" v="18; PR2; N18"/>
  </node>
  <node id="305410613" version="2" timestamp="2008-10-23T17:12:59Z" uid="6975" user="ulfl" changeset="530870" lat="51.5436258" lon="-0.2711792">
    <tag k="highway" v="bus_stop"/>
    <tag k="name" v="North Circular Road"/>
    <tag k="ref" v="K"/>
    <tag k="route" v="18\s PR2\s N18"/>
  </node>
  <node id="305410613" version="3" timestamp="2009-05-23T10:04:26Z" uid="70696" user="xybot" changeset="1293006" lat="51.5436258" lon="-0.2711792">
    <tag k="highway" v="bus_stop"/>
    <tag k="name" v="North Circular Road"/>
    <tag k="ref" v="K"/>
    <tag k="route" v="18; PR2; N18"/>
  </node>
  <node id="305410615" version="1" timestamp="2008-10-18T14:32:51Z" uid="3560" user="Firefishy" changeset="412116" lat="51.5458418" lon="-0.2734278">
    <tag k="amenity" v="bus_stop"/>
    <tag k="name" v="Stonebridge Park Station - Point Place"/>
    <tag k="ref" v="C"/>
    <tag k="route" v="18; N18"/>
  </node>
  <node id="305410615" version="2" timestamp="2008-10-23T17:13:00Z" uid="6975" user="ulfl" changeset="530870" lat="51.5458418" lon="-0.2734278">
    <tag k="highway" v="bus_stop"/>
    <tag k="name" v="Stonebridge Park Station - Point Place"/>
    <tag k="ref" v="C"/>
    <tag k="route" v="18\s N18"/>
  </node>
  <node id="305410615" version="3" timestamp="2009-05-23T10:04:27Z" uid="70696" user="xybot" changeset="1293006" lat="51.5458418" lon="-0.2734278">
    <tag k="highway" v="bus_stop"/>
    <tag k="name" v="Stonebridge Park Station - Point Place"/>
    <tag k="ref" v="C"/>
    <tag k="route" v="18; N18"/>
  </node>
  <node id="305410699" version="2" timestamp="2009-02-24T09:48:16Z" uid="49111" user="Markus B" changeset="649769" lat="48.5836726" lon="13.5088955"/>
  <node id="305410699" version="3" timestamp="2011-02-19T17:32:03Z" uid="317158" user="Laudian" changeset="7334276" lat="48.5836726" lon="13.5088955"/>
  <node id="305411315" version="1" timestamp="2008-10-18T14:35:01Z" uid="12841" user="mateuvic" changeset="415289" lat="42.3678893" lon="1.1397698">
    <tag k="created_by" v="JOSM"/>
    <tag k="is in" v="Soriguera (Pallars Sobirà)"/>
    <tag k="name" v="Tornafort"/>
    <tag k="place" v="hamlet"/>
  </node>
  <node id="305411315" version="2" timestamp="2008-10-23T16:40:39Z" uid="6975" user="ulfl" changeset="530870" lat="42.3678893" lon="1.1397698">
    <tag k="is_in" v="Soriguera (Pallars Sobirà)"/>
    <tag k="name" v="Tornafort"/>
    <tag k="place" v="hamlet"/>
  </node>
  <node id="305411315" version="3" timestamp="2011-10-13T23:36:04Z" uid="399394" user="egrn" changeset="9551902" lat="42.3678893" lon="1.1397698">
    <tag k="ele" v="1303"/>
    <tag k="is_in" v="Soriguera (Pallars Sobirà)"/>
    <tag k="is_in:province_code" v="25"/>
    <tag k="name" v="Tornafort"/>
    <tag k="place" v="hamlet"/>
    <tag k="population" v="36"/>
    <tag k="population:date" v="2009"/>
    <tag k="ref:ine" v="25208001200"/>
    <tag k="source" v="Instituto Geográfico Nacional"/>
    <tag k="source:date" v="2011-06"/>
    <tag k="source:ele" v="MDT5"/>
    <tag k="source:file" v="http://centrodedescargas.cnig.es/CentroDescargas/equipamiento/BD_Municipios-Entidades.zip"/>
    <tag k="source:name" v="Nomenclátor Geográfico de Municipios y Entidades de Población"/>
  </node>
  <node id="305411569" version="1" timestamp="2008-10-18T14:39:17Z" uid="12841" user="mateuvic" changeset="415289" lat="42.3701666" lon="1.1224459">
    <tag k="created_by" v="JOSM"/>
    <tag k="is in" v="Soriguera (Pallars Sobirà)"/>
    <tag k="name" v="Malmercat"/>
    <tag k="place" v="hamlet"/>
  </node>
  <node id="305411569" version="2" timestamp="2008-10-23T16:40:32Z" uid="6975" user="ulfl" changeset="530870" lat="42.3701666" lon="1.1224459">
    <tag k="is_in" v="Soriguera (Pallars Sobirà)"/>
    <tag k="name" v="Malmercat"/>
    <tag k="place" v="hamlet"/>
  </node>
  <node id="305411569" version="3" timestamp="2011-10-13T23:35:10Z" uid="399394" user="egrn" changeset="9551902" lat="42.3701666" lon="1.1224459">
    <tag k="ele" v="956"/>
    <tag k="is_in" v="Soriguera (Pallars Sobirà)"/>
    <tag k="is_in:province_code" v="25"/>
    <tag k="name" v="Malmercat"/>
    <tag k="place" v="hamlet"/>
    <tag k="population" v="23"/>
    <tag k="population:date" v="2009"/>
    <tag k="ref:ine" v="25208000700"/>
    <tag k="source" v="Instituto Geográfico Nacional"/>
    <tag k="source:date" v="2011-06"/>
    <tag k="source:ele" v="MDT5"/>
    <tag k="source:file" v="http://centrodedescargas.cnig.es/CentroDescargas/equipamiento/BD_Municipios-Entidades.zip"/>
    <tag k="source:name" v="Nomenclátor Geográfico de Municipios y Entidades de Población"/>
  </node>
  <node id="305412513" version="6" timestamp="2010-03-06T23:18:54Z" uid="6975" user="ulfl" changeset="4056124" lat="45.787947" lon="10.8726395">
    <tag k="mountain_pass" v="yes"/>
    <tag k="name" v="Bocca di Navene"/>
    <tag k="wikipedia" v="http://it.wikipedia.org/wiki/Passo_Navene"/>
  </node>
  <node id="305412513" version="7" timestamp="2012-01-05T13:30:43Z" uid="66900" user="Fabry" changeset="10300904" lat="45.787947" lon="10.8726395"/>
  <node id="305413793" version="6" timestamp="2010-01-31T18:59:04Z" uid="58091" user="Andreas M" changeset="3762200" lat="48.2276936" lon="16.3662197"/>
  <node id="305413797" version="9" timestamp="2010-01-31T18:59:04Z" uid="58091" user="Andreas M" changeset="3762200" lat="48.2276455" lon="16.3662831"/>
  <node id="305413799" version="8" timestamp="2010-01-31T18:58:47Z" uid="58091" user="Andreas M" changeset="3762200" lat="48.2275478" lon="16.3662254"/>
  <node id="305413799" version="9" timestamp="2011-03-03T23:46:30Z" uid="99800" user="wolfbert" changeset="7450922" lat="48.2275923" lon="16.3661142"/>
  <node id="305413799" version="10" timestamp="2011-03-23T18:29:29Z" uid="298560" user="evod" changeset="7648820" lat="48.2275837" lon="16.3660873"/>
  <node id="305415073" version="10" timestamp="2010-01-31T18:58:48Z" uid="58091" user="Andreas M" changeset="3762200" lat="48.2275965" lon="16.3663228">
    <tag k="highway" v="traffic_signals"/>
  </node>
  <node id="305415073" version="11" timestamp="2011-03-03T23:45:57Z" uid="99800" user="wolfbert" changeset="7450922" lat="48.2276291" lon="16.3661919">
    <tag k="highway" v="traffic_signals"/>
  </node>
  <node id="305417359" version="2" timestamp="2008-12-14T01:57:34Z" uid="6975" user="ulfl" changeset="365670" lat="51.5533375" lon="-0.2948703">
    <tag k="amenity" v="fast_food"/>
    <tag k="name" v="McDonalds"/>
    <tag k="toilets" v="yes"/>
  </node>
  <node id="305417359" version="3" timestamp="2008-12-30T19:29:22Z" uid="67441" user="u14183" changeset="677043" lat="51.5533375" lon="-0.2948703">
    <tag k="amenity" v="fast_food"/>
    <tag k="name" v="McDonalds"/>
  </node>
  <node id="305417359" version="4" timestamp="2009-11-15T00:26:07Z" uid="1185" user="dankarran" changeset="3118386" lat="51.5533375" lon="-0.2948703">
    <tag k="amenity" v="fast_food"/>
    <tag k="name" v="McDonald&apos;s"/>
  </node>
  <node id="305417359" version="5" timestamp="2010-08-06T16:49:19Z" uid="207745" user="NE2" changeset="5418228" lat="51.5533375" lon="-0.2948703">
    <tag k="amenity" v="fast_food"/>
    <tag k="cuisine" v="burger"/>
    <tag k="name" v="McDonald&apos;s"/>
  </node>
  <node id="305417359" version="6" timestamp="2011-11-08T02:25:34Z" uid="290680" user="wheelmap_visitor" changeset="9762014" lat="51.5533375" lon="-0.2948703">
    <tag k="amenity" v="fast_food"/>
    <tag k="cuisine" v="burger"/>
    <tag k="name" v="McDonald&apos;s"/>
    <tag k="wheelchair" v="yes"/>
  </node>
  <node id="305419491" version="2" timestamp="2010-10-15T17:41:20Z" uid="9581" user="Lobelt" changeset="6050974" lat="49.4502768" lon="9.3332476"/>
  <node id="305419491" version="3" timestamp="2012-01-29T16:44:57Z" uid="131968" user="changchun_1" changeset="10532016" lat="49.4502768" lon="9.3332476"/>
  <node id="305419492" version="2" timestamp="2010-10-15T17:41:22Z" uid="9581" user="Lobelt" changeset="6050974" lat="49.4496916" lon="9.3332769"/>
  <node id="305419492" version="3" timestamp="2012-01-29T16:44:57Z" uid="131968" user="changchun_1" changeset="10532016" lat="49.4496916" lon="9.3332769"/>
  <node id="305419493" version="2" timestamp="2010-10-15T17:41:34Z" uid="9581" user="Lobelt" changeset="6050974" lat="49.4492687" lon="9.3334148"/>
  <node id="305419493" version="3" timestamp="2012-01-29T16:44:57Z" uid="131968" user="changchun_1" changeset="10532016" lat="49.4492687" lon="9.3334148"/>
  <node id="305419495" version="2" timestamp="2010-10-15T17:41:25Z" uid="9581" user="Lobelt" changeset="6050974" lat="49.4463106" lon="9.3357313"/>
  <node id="305419495" version="3" timestamp="2012-01-29T16:44:57Z" uid="131968" user="changchun_1" changeset="10532016" lat="49.4463106" lon="9.3357313"/>
  <node id="305419497" version="3" timestamp="2010-10-15T17:41:21Z" uid="9581" user="Lobelt" changeset="6050974" lat="49.4448251" lon="9.3359181"/>
  <node id="305419497" version="4" timestamp="2012-01-29T16:44:58Z" uid="131968" user="changchun_1" changeset="10532016" lat="49.4448251" lon="9.3359181"/>
  <node id="305419499" version="3" timestamp="2010-10-15T17:41:19Z" uid="9581" user="Lobelt" changeset="6050974" lat="49.4433803" lon="9.3368663"/>
  <node id="305419499" version="4" timestamp="2012-01-29T16:44:58Z" uid="131968" user="changchun_1" changeset="10532016" lat="49.4433803" lon="9.3368663"/>
  <node id="305419500" version="3" timestamp="2010-10-15T17:41:22Z" uid="9581" user="Lobelt" changeset="6050974" lat="49.4425469" lon="9.3376174"/>
  <node id="305419500" version="4" timestamp="2012-01-29T16:44:59Z" uid="131968" user="changchun_1" changeset="10532016" lat="49.4425469" lon="9.3376174"/>
  <node id="305419501" version="5" timestamp="2010-10-15T17:41:27Z" uid="9581" user="Lobelt" changeset="6050974" lat="49.4413498" lon="9.3386419"/>
  <node id="305419501" version="6" timestamp="2012-01-29T16:44:59Z" uid="131968" user="changchun_1" changeset="10532016" lat="49.4413498" lon="9.3386419"/>
</osm>
