<?xml version='1.0' encoding='UTF-8'?>
<osm version="0.6" generator="libosmium/2.20.0">
  <node id="307103834" version="2" timestamp="2008-11-26T17:52:15Z" uid="6975" user="ulfl" changeset="797054" lat="48.2120243" lon="9.029164">
    <tag k="name" v="Salon Petra Janssen"/>
    <tag k="shop" v="hairdresser"/>
  </node>
  <node id="307103834" version="3" timestamp="2009-03-24T18:34:32Z" uid="26566" user="Sven Eppler" changeset="852868" lat="48.2120211" lon="9.0291495">
    <tag k="name" v="Salon Petra Janssen"/>
    <tag k="shop" v="hairdresser"/>
  </node>
  <node id="307103834" version="4" timestamp="2010-09-30T12:51:32Z" uid="26566" user="Sven Eppler" changeset="5919760" lat="48.2120081" lon="9.0291229">
    <tag k="name" v="Salon Petra Janssen"/>
    <tag k="shop" v="hairdresser"/>
  </node>
  <node id="307103834" version="5" timestamp="2010-10-24T20:02:16Z" uid="290680" user="wheelmap_visitor" changeset="6154026" lat="48.2120081" lon="9.0291229">
    <tag k="name" v="Salon Petra Janssen"/>
    <tag k="shop" v="hairdresser"/>
    <tag k="wheelchair" v="no"/>
  </node>
  <node id="307103846" version="2" timestamp="2009-01-01T14:30:23Z" uid="6975" user="ulfl" changeset="699648" lat="48.2122906" lon="9.0286957">
    <tag k="name" v="Uhren Meinecke"/>
    <tag k="shop" v="jewelry"/>
  </node>
  <node id="307103846" version="3" timestamp="2009-03-24T18:34:56Z" uid="26566" user="Sven Eppler" changeset="852868" lat="48.2122861" lon="9.0286731">
    <tag k="name" v="Uhren Meinecke"/>
    <tag k="shop" v="jewelry"/>
  </node>
  <node id="307103863" version="2" timestamp="2008-11-26T17:46:49Z" uid="6975" user="ulfl" changeset="797054" lat="48.2117563" lon="9.0277159">
    <tag k="amenity" v="ice_cream"/>
    <tag k="name" v="il Gelato"/>
  </node>
  <node id="307103863" version="3" timestamp="2009-03-24T18:36:39Z" uid="26566" user="Sven Eppler" changeset="852868" lat="48.2116581" lon="9.0279121">
    <tag k="amenity" v="ice_cream"/>
    <tag k="name" v="il Gelato"/>
  </node>
  <node id="307103863" version="4" timestamp="2009-03-25T09:36:50Z" uid="26566" user="Sven Eppler" changeset="855797" lat="48.2116643" lon="9.027889">
    <tag k="amenity" v="ice_cream"/>
    <tag k="name" v="il Gelato"/>
  </node>
  <node id="307103863" version="5" timestamp="2010-12-14T11:36:20Z" uid="26566" user="Sven Eppler" changeset="6657277" lat="48.2116643" lon="9.027889">
    <tag k="amenity" v="fast_food"/>
    <tag k="cuisine" v="noodles"/>
    <tag k="name" v="Pasta Bar"/>
  </node>
  <node id="307103863" version="6" timestamp="2010-12-14T13:15:49Z" uid="26566" user="Sven Eppler" changeset="6658188" lat="48.2116643" lon="9.027889">
    <tag k="amenity" v="fast_food"/>
    <tag k="cuisine" v="pasta"/>
    <tag k="name" v="Pasta Bar"/>
  </node>
  <node id="307103863" version="7" timestamp="2011-02-15T13:13:06Z" uid="290680" user="wheelmap_visitor" changeset="7293585" lat="48.2116643" lon="9.027889">
    <tag k="amenity" v="fast_food"/>
    <tag k="cuisine" v="pasta"/>
    <tag k="name" v="Pasta Bar"/>
    <tag k="wheelchair" v="yes"/>
  </node>
  <node id="307103867" version="2" timestamp="2008-11-26T17:52:15Z" uid="6975" user="ulfl" changeset="797054" lat="48.2116208" lon="9.0276851">
    <tag k="name" v="Hairkiller"/>
    <tag k="shop" v="hairdresser"/>
  </node>
  <node id="307103867" version="3" timestamp="2009-03-24T18:36:41Z" uid="26566" user="Sven Eppler" changeset="852868" lat="48.2115542" lon="9.0278162">
    <tag k="name" v="Hairkiller"/>
    <tag k="shop" v="hairdresser"/>
  </node>
  <node id="307103867" version="4" timestamp="2009-03-25T09:36:51Z" uid="26566" user="Sven Eppler" changeset="855797" lat="48.2115542" lon="9.0278162">
    <tag k="addr:city" v="Albstadt"/>
    <tag k="addr:country" v="DE"/>
    <tag k="addr:housenumber" v="16"/>
    <tag k="addr:postcode" v="72458"/>
    <tag k="addr:street" v="Bahnhofstraße"/>
    <tag k="name" v="Hairkiller"/>
    <tag k="shop" v="hairdresser"/>
  </node>
  <node id="307103867" version="5" timestamp="2010-10-24T20:02:18Z" uid="290680" user="wheelmap_visitor" changeset="6154026" lat="48.2115542" lon="9.0278162">
    <tag k="addr:city" v="Albstadt"/>
    <tag k="addr:country" v="DE"/>
    <tag k="addr:housenumber" v="16"/>
    <tag k="addr:postcode" v="72458"/>
    <tag k="addr:street" v="Bahnhofstraße"/>
    <tag k="name" v="Hairkiller"/>
    <tag k="shop" v="hairdresser"/>
    <tag k="wheelchair" v="no"/>
  </node>
  <node id="307103877" version="2" timestamp="2008-11-26T17:52:14Z" uid="6975" user="ulfl" changeset="797054" lat="48.2122163" lon="9.0276616">
    <tag k="name" v="Velly"/>
    <tag k="shop" v="hairdresser"/>
  </node>
  <node id="307103877" version="3" timestamp="2009-02-15T22:56:53Z" uid="26566" user="Sven Eppler" changeset="478326" lat="48.2120263" lon="9.0276129">
    <tag k="name" v="Velly"/>
    <tag k="shop" v="hairdresser"/>
  </node>
  <node id="307103885" version="2" timestamp="2008-11-26T17:43:36Z" uid="6975" user="ulfl" changeset="797054" lat="48.2122619" lon="9.0273337">
    <tag k="name" v="Bertelsmann"/>
    <tag k="shop" v="books"/>
  </node>
  <node id="307103885" version="3" timestamp="2009-02-15T22:56:53Z" uid="26566" user="Sven Eppler" changeset="478326" lat="48.212058" lon="9.0273198">
    <tag k="name" v="Bertelsmann"/>
    <tag k="shop" v="books"/>
  </node>
  <node id="307103885" version="4" timestamp="2011-10-08T15:42:10Z" uid="290680" user="wheelmap_visitor" changeset="9499106" lat="48.212058" lon="9.0273198">
    <tag k="name" v="Bertelsmann"/>
    <tag k="shop" v="books"/>
    <tag k="wheelchair" v="no"/>
  </node>
  <node id="307106764" version="3" timestamp="2008-10-24T20:39:33Z" uid="6975" user="ulfl" changeset="551307" lat="51.4280651" lon="7.0496547">
    <tag k="Name" v="Hellweg"/>
    <tag k="shop" v="doityourself"/>
  </node>
  <node id="307106764" version="5" timestamp="2009-01-09T14:47:28Z" uid="33160" user="rotbarsch" changeset="760622" lat="51.428076" lon="7.0486508">
    <tag k="created_by" v="Potlatch 0.10f"/>
    <tag k="name" v="Hellweg"/>
    <tag k="shop" v="doityourself"/>
  </node>
  <node id="307106764" version="6" timestamp="2009-01-09T14:47:37Z" uid="33160" user="rotbarsch" changeset="760622" lat="51.4280439" lon="7.0486766">
    <tag k="created_by" v="Potlatch 0.10f"/>
    <tag k="name" v="Hellweg"/>
    <tag k="shop" v="doityourself"/>
  </node>
  <node id="307106764" version="7" timestamp="2010-12-29T16:02:38Z" uid="212204" user="mapmann" changeset="6800249" lat="51.4282279" lon="7.0486308">
    <tag k="name" v="Hellweg"/>
    <tag k="shop" v="doityourself"/>
  </node>
  <node id="307106764" version="8" timestamp="2011-01-06T13:40:46Z" uid="131968" user="changchun_1" changeset="6882459" lat="51.4279743" lon="7.0488612">
    <tag k="addr:city" v="Essen"/>
    <tag k="addr:country" v="DE"/>
    <tag k="addr:housenumber" v="58"/>
    <tag k="addr:postcode" v="45134"/>
    <tag k="addr:street" v="Frankenstraße"/>
    <tag k="name" v="Hellweg"/>
    <tag k="shop" v="doityourself"/>
  </node>
</osm>
