<?xml version='1.0' encoding='UTF-8'?>
<osm version="0.6" generator="libosmium/2.20.0">
  <node id="307180152" version="3" timestamp="2009-08-31T20:51:41Z" uid="36809" user="pfoten_weg_!_" changeset="2331411" lat="48.190593" lon="11.617438">
    <tag k="addr:city" v="München"/>
    <tag k="addr:housenumber" v="6"/>
    <tag k="addr:postcode" v="80939"/>
    <tag k="addr:street" v="Freisinger Landstraße"/>
    <tag k="asb" v="325"/>
    <tag k="man_made" v="MDF"/>
    <tag k="note:de" v="http://wiki.openstreetmap.org/index.php/DE:DSL_Hauptverteiler"/>
    <tag k="onkz" v="89"/>
    <tag k="operator" v="Deutsche Telekom AG"/>
    <tag k="source" v="Deutsche Telekom AG"/>
  </node>
  <node id="307180193" version="4" timestamp="2009-10-12T21:02:08Z" uid="36809" user="pfoten_weg_!_" changeset="2830922" lat="48.041706" lon="11.525603">
    <tag k="addr:city" v="Grünwald"/>
    <tag k="addr:country" v="DE"/>
    <tag k="addr:housenumber" v="13"/>
    <tag k="addr:postcode" v="82031"/>
    <tag k="addr:street" v="Südliche Münchner Straße"/>
    <tag k="asb" v="641"/>
    <tag k="man_made" v="MDF"/>
    <tag k="note:de" v="http://wiki.openstreetmap.org/index.php/DE:DSL_Hauptverteiler"/>
    <tag k="onkz" v="89"/>
    <tag k="operator" v="Deutsche Telekom AG"/>
  </node>
  <node id="307180193" version="5" timestamp="2011-03-21T17:55:26Z" uid="8748" user="ToniE" changeset="7629812" lat="48.041706" lon="11.525603">
    <tag k="addr:city" v="Grünwald"/>
    <tag k="addr:country" v="DE"/>
    <tag k="addr:housenumber" v="13"/>
    <tag k="addr:postcode" v="82031"/>
    <tag k="addr:street" v="Südliche Münchener Straße"/>
    <tag k="asb" v="641"/>
    <tag k="man_made" v="MDF"/>
    <tag k="note:de" v="http://wiki.openstreetmap.org/index.php/DE:DSL_Hauptverteiler"/>
    <tag k="onkz" v="89"/>
    <tag k="operator" v="Deutsche Telekom AG"/>
  </node>
  <node id="307180215" version="3" timestamp="2009-08-31T20:51:28Z" uid="36809" user="pfoten_weg_!_" changeset="2331411" lat="48.124922" lon="11.47574">
    <tag k="addr:city" v="München"/>
    <tag k="addr:housenumber" v="25"/>
    <tag k="addr:postcode" v="80689"/>
    <tag k="addr:street" v="Terofalstraße"/>
    <tag k="asb" v="7"/>
    <tag k="man_made" v="MDF"/>
    <tag k="note:de" v="http://wiki.openstreetmap.org/index.php/DE:DSL_Hauptverteiler"/>
    <tag k="onkz" v="89"/>
    <tag k="operator" v="Deutsche Telekom AG"/>
    <tag k="source" v="Deutsche Telekom AG"/>
  </node>
  <node id="307180215" version="4" timestamp="2010-11-15T13:57:06Z" uid="65148" user="tixuwuoz" changeset="6377564" lat="48.124922" lon="11.47574">
    <tag k="addr:city" v="München"/>
    <tag k="addr:country" v="DE"/>
    <tag k="addr:housenumber" v="25"/>
    <tag k="addr:postcode" v="80689"/>
    <tag k="addr:street" v="Terofalstraße"/>
    <tag k="asb" v="7"/>
    <tag k="man_made" v="MDF"/>
    <tag k="note:de" v="http://wiki.openstreetmap.org/index.php/DE:DSL_Hauptverteiler"/>
    <tag k="onkz" v="89"/>
    <tag k="operator" v="Deutsche Telekom AG"/>
    <tag k="source" v="Deutsche Telekom AG"/>
  </node>
  <node id="307180228" version="4" timestamp="2009-04-22T18:14:50Z" uid="36809" user="pfoten_weg_!_" changeset="903669" lat="48.087143" lon="11.486259">
    <tag k="addr:city" v="München"/>
    <tag k="addr:country" v="DE"/>
    <tag k="addr:housenumber" v="4"/>
    <tag k="addr:postcode" v="81475"/>
    <tag k="addr:street" v="Neurieder Straße"/>
    <tag k="asb" v="75"/>
    <tag k="created_by" v="RambaZamba"/>
    <tag k="man_made" v="MDF"/>
    <tag k="note:de" v="http://wiki.openstreetmap.org/index.php/DE:DSL_Hauptverteiler"/>
    <tag k="onkz" v="89"/>
    <tag k="operator" v="Deutsche Telekom AG"/>
    <tag k="source" v="survey"/>
  </node>
  <node id="307180228" version="5" timestamp="2009-08-12T13:32:34Z" uid="156995" user="HampelZamba" changeset="2118817" lat="48.087143" lon="11.486259">
    <tag k="addr:city" v="München"/>
    <tag k="addr:country" v="DE"/>
    <tag k="addr:housenumber" v="4"/>
    <tag k="addr:postcode" v="81475"/>
    <tag k="addr:street" v="Neurieder Straße"/>
    <tag k="asb" v="75"/>
    <tag k="man_made" v="MDF"/>
    <tag k="note:de" v="http://wiki.openstreetmap.org/index.php/DE:DSL_Hauptverteiler"/>
    <tag k="onkz" v="89"/>
    <tag k="operator" v="Deutsche Telekom AG"/>
    <tag k="source" v="survey"/>
  </node>
  <node id="307180228" version="6" timestamp="2009-08-26T09:24:26Z" uid="36809" user="pfoten_weg_!_" changeset="2265170" lat="48.087143" lon="11.486259">
    <tag k="addr:city" v="München"/>
    <tag k="addr:country" v="DE"/>
    <tag k="addr:housenumber" v="4"/>
    <tag k="addr:postcode" v="81475"/>
    <tag k="addr:street" v="Neurieder Straße"/>
    <tag k="asb" v="75"/>
    <tag k="man_made" v="MDF"/>
    <tag k="note:de" v="http://wiki.openstreetmap.org/index.php/DE:DSL_Hauptverteiler"/>
    <tag k="onkz" v="89"/>
    <tag k="operator" v="Deutsche Telekom AG"/>
    <tag k="source" v="survey"/>
  </node>
  <node id="307180228" version="7" timestamp="2009-10-02T17:39:55Z" uid="86259" user="hasse_osm_korinthenkacker" changeset="2715119" lat="48.087143" lon="11.486259">
    <tag k="addr:city" v="München"/>
    <tag k="addr:country" v="DE"/>
    <tag k="addr:housenumber" v="4"/>
    <tag k="addr:postcode" v="81475"/>
    <tag k="addr:street" v="Neurieder Straße"/>
    <tag k="asb" v="75"/>
    <tag k="man_made" v="MDF"/>
    <tag k="note:de" v="http://wiki.openstreetmap.org/index.php/DE:DSL_Hauptverteiler"/>
    <tag k="onkz" v="89"/>
    <tag k="operator" v="Deutsche Telekom AG"/>
  </node>
  <node id="307180233" version="5" timestamp="2009-09-01T11:16:32Z" uid="36809" user="pfoten_weg_!_" changeset="2336357" lat="48.120811" lon="11.531886">
    <tag k="addr:city" v="München"/>
    <tag k="addr:country" v="DE"/>
    <tag k="addr:housenumber" v="11"/>
    <tag k="addr:postcode" v="81373"/>
    <tag k="addr:street" v="Ortlerstraße"/>
    <tag k="asb" v="760"/>
    <tag k="man_made" v="MDF"/>
    <tag k="note:de" v="http://wiki.openstreetmap.org/index.php/DE:DSL_Hauptverteiler"/>
    <tag k="onkz" v="89"/>
    <tag k="operator" v="Deutsche Telekom AG"/>
    <tag k="source" v="Deutsche Telekom AG"/>
  </node>
  <node id="307180240" version="6" timestamp="2009-09-04T21:03:43Z" uid="36809" user="pfoten_weg_!_" changeset="2374562" lat="48.100212" lon="11.522044">
    <tag k="addr:city" v="München"/>
    <tag k="addr:country" v="DE"/>
    <tag k="addr:housenumber" v="3"/>
    <tag k="addr:postcode" v="81379"/>
    <tag k="addr:street" v="Steinmetzstraße"/>
    <tag k="asb" v="78"/>
    <tag k="man_made" v="MDF"/>
    <tag k="note:de" v="http://wiki.openstreetmap.org/index.php/DE:DSL_Hauptverteiler"/>
    <tag k="onkz" v="89"/>
    <tag k="operator" v="Deutsche Telekom AG"/>
    <tag k="source" v="Deutsche Telekom AG"/>
  </node>
  <node id="307180240" version="7" timestamp="2009-10-13T23:39:23Z" uid="36809" user="pfoten_weg_!_" changeset="2841273" lat="48.100212" lon="11.522044">
    <tag k="addr:city" v="München"/>
    <tag k="addr:country" v="DE"/>
    <tag k="addr:housenumber" v="3"/>
    <tag k="addr:postcode" v="81379"/>
    <tag k="addr:street" v="Steinmetzstraße"/>
    <tag k="asb" v="78"/>
    <tag k="man_made" v="MDF"/>
    <tag k="note:de" v="http://wiki.openstreetmap.org/index.php/DE:DSL_Hauptverteiler"/>
    <tag k="onkz" v="89"/>
    <tag k="operator" v="Deutsche Telekom AG"/>
  </node>
  <node id="307180240" version="8" timestamp="2009-11-25T20:08:54Z" uid="8703" user="rolandg" changeset="3215634" lat="48.1003493" lon="11.5217581">
    <tag k="addr:city" v="München"/>
    <tag k="addr:country" v="DE"/>
    <tag k="addr:housenumber" v="3"/>
    <tag k="addr:postcode" v="81379"/>
    <tag k="addr:street" v="Steinmetzstraße"/>
    <tag k="asb" v="78"/>
    <tag k="man_made" v="MDF"/>
    <tag k="note:de" v="http://wiki.openstreetmap.org/index.php/DE:DSL_Hauptverteiler"/>
    <tag k="onkz" v="89"/>
    <tag k="operator" v="Deutsche Telekom AG"/>
  </node>
  <node id="307180240" version="9" timestamp="2009-11-25T20:09:23Z" uid="8703" user="rolandg" changeset="3215634" lat="48.1002131" lon="11.5220907">
    <tag k="addr:city" v="München"/>
    <tag k="addr:country" v="DE"/>
    <tag k="addr:housenumber" v="3"/>
    <tag k="addr:postcode" v="81379"/>
    <tag k="addr:street" v="Steinmetzstraße"/>
    <tag k="asb" v="78"/>
    <tag k="man_made" v="MDF"/>
    <tag k="note:de" v="http://wiki.openstreetmap.org/index.php/DE:DSL_Hauptverteiler"/>
    <tag k="onkz" v="89"/>
    <tag k="operator" v="Deutsche Telekom AG"/>
  </node>
  <node id="307180244" version="4" timestamp="2009-02-14T01:12:16Z" uid="36809" user="pfoten_weg_!_" changeset="423851" lat="48.078047" lon="11.512251">
    <tag k="addr:city" v="München"/>
    <tag k="addr:country" v="DE"/>
    <tag k="addr:housenumber" v="20"/>
    <tag k="addr:postcode" v="81479"/>
    <tag k="addr:street" v="Plattlinger Straße"/>
    <tag k="asb" v="791"/>
    <tag k="created_by" v="RambaZamba"/>
    <tag k="man_made" v="MDF"/>
    <tag k="note:de" v="http://wiki.openstreetmap.org/index.php/DE:DSL_Hauptverteiler"/>
    <tag k="onkz" v="89"/>
    <tag k="operator" v="Deutsche Telekom AG"/>
    <tag k="source" v="survey"/>
  </node>
  <node id="307180244" version="5" timestamp="2009-08-12T13:32:34Z" uid="156995" user="HampelZamba" changeset="2118817" lat="48.078047" lon="11.512251">
    <tag k="addr:city" v="München"/>
    <tag k="addr:country" v="DE"/>
    <tag k="addr:housenumber" v="20"/>
    <tag k="addr:postcode" v="81479"/>
    <tag k="addr:street" v="Plattlinger Straße"/>
    <tag k="asb" v="791"/>
    <tag k="man_made" v="MDF"/>
    <tag k="note:de" v="http://wiki.openstreetmap.org/index.php/DE:DSL_Hauptverteiler"/>
    <tag k="onkz" v="89"/>
    <tag k="operator" v="Deutsche Telekom AG"/>
    <tag k="source" v="survey"/>
  </node>
  <node id="307180244" version="6" timestamp="2009-08-19T01:41:43Z" uid="36809" user="pfoten_weg_!_" changeset="2196399" lat="48.078047" lon="11.512251">
    <tag k="addr:city" v="München"/>
    <tag k="addr:country" v="DE"/>
    <tag k="addr:housenumber" v="20"/>
    <tag k="addr:postcode" v="81479"/>
    <tag k="addr:street" v="Plattlinger Straße"/>
    <tag k="asb" v="791"/>
    <tag k="man_made" v="MDF"/>
    <tag k="note:de" v="http://wiki.openstreetmap.org/index.php/DE:DSL_Hauptverteiler"/>
    <tag k="onkz" v="89"/>
    <tag k="operator" v="Deutsche Telekom AG"/>
    <tag k="source" v="survey"/>
    <tag k="warnung" v="rumpelzumpel-verbrecher"/>
  </node>
  <node id="307180244" version="7" timestamp="2009-08-19T02:08:02Z" uid="36809" user="pfoten_weg_!_" changeset="2196453" lat="48.078047" lon="11.512251">
    <tag k="addr:city" v="München"/>
    <tag k="addr:country" v="DE"/>
    <tag k="addr:housenumber" v="20"/>
    <tag k="addr:postcode" v="81479"/>
    <tag k="addr:street" v="Plattlinger Straße"/>
    <tag k="asb" v="791"/>
    <tag k="man_made" v="MDF"/>
    <tag k="note:de" v="http://wiki.openstreetmap.org/index.php/DE:DSL_Hauptverteiler"/>
    <tag k="onkz" v="89"/>
    <tag k="operator" v="Deutsche Telekom AG"/>
    <tag k="source" v="survey"/>
  </node>
  <node id="307180244" version="8" timestamp="2009-10-02T20:44:28Z" uid="86259" user="hasse_osm_korinthenkacker" changeset="2717407" lat="48.078047" lon="11.512251">
    <tag k="addr:city" v="München"/>
    <tag k="addr:country" v="DE"/>
    <tag k="addr:housenumber" v="20"/>
    <tag k="addr:postcode" v="81479"/>
    <tag k="addr:street" v="Plattlinger Straße"/>
    <tag k="asb" v="791"/>
    <tag k="man_made" v="MDF"/>
    <tag k="note:de" v="http://wiki.openstreetmap.org/index.php/DE:DSL_Hauptverteiler"/>
    <tag k="onkz" v="89"/>
    <tag k="operator" v="Deutsche Telekom AG"/>
    <tag k="source" v="survey"/>
  </node>
  <node id="307180248" version="4" timestamp="2009-03-22T04:04:49Z" uid="36809" user="pfoten_weg_!_" changeset="843843" lat="48.05882" lon="11.51686">
    <tag k="addr:city" v="Pullach"/>
    <tag k="addr:country" v="DE"/>
    <tag k="addr:housenumber" v="17"/>
    <tag k="addr:postcode" v="82049"/>
    <tag k="addr:street" v="Pater-Rupert-Mayer-Straße"/>
    <tag k="asb" v="793"/>
    <tag k="created_by" v="fixbot"/>
    <tag k="man_made" v="MDF"/>
    <tag k="note:de" v="http://wiki.openstreetmap.org/index.php/DE:DSL_Hauptverteiler"/>
    <tag k="onkz" v="89"/>
    <tag k="operator" v="Deutsche Telekom AG"/>
    <tag k="source" v="Deutsche Telekom AG"/>
  </node>
  <node id="307180248" version="5" timestamp="2009-03-25T16:28:33Z" uid="5164" user="woodpeck" changeset="857476" lat="48.05882" lon="11.51686">
    <tag k="addr:city" v="Pullach"/>
    <tag k="addr:country" v="DE"/>
    <tag k="addr:housenumber" v="17"/>
    <tag k="addr:postcode" v="82049"/>
    <tag k="addr:street" v="Pater-Rupert-Mayer-Straße"/>
    <tag k="asb" v="793"/>
    <tag k="created_by" v="fixbot"/>
    <tag k="man_made" v="MDF"/>
    <tag k="note:de" v="http://wiki.openstreetmap.org/index.php/DE:DSL_Hauptverteiler"/>
    <tag k="onkz" v="89"/>
    <tag k="operator" v="Deutsche Telekom AG"/>
    <tag k="source" v="Deutsche Telekom AG"/>
  </node>
  <node id="307180248" version="6" timestamp="2009-03-27T20:15:56Z" uid="8748" user="ToniE" changeset="863334" lat="48.05882" lon="11.51686">
    <tag k="addr:city" v="Pullach"/>
    <tag k="addr:country" v="DE"/>
    <tag k="addr:housenumber" v="17"/>
    <tag k="addr:postcode" v="82049"/>
    <tag k="addr:street" v="Pater-Rupert-Mayer-Straße"/>
    <tag k="asb" v="793"/>
    <tag k="created_by" v="fixbot"/>
    <tag k="man_made" v="MDF"/>
    <tag k="note:de" v="http://wiki.openstreetmap.org/index.php/DE:DSL_Hauptverteiler"/>
    <tag k="onkz" v="89"/>
    <tag k="operator" v="Deutsche Telekom AG"/>
    <tag k="source" v="Deutsche Telekom AG"/>
  </node>
  <node id="307180248" version="7" timestamp="2009-04-29T21:43:56Z" uid="36809" user="pfoten_weg_!_" changeset="1021591" lat="48.05882" lon="11.51686">
    <tag k="addr:city" v="Pullach"/>
    <tag k="addr:country" v="DE"/>
    <tag k="addr:housenumber" v="17"/>
    <tag k="addr:postcode" v="82049"/>
    <tag k="addr:street" v="Pater-Rupert-Mayer-Straße"/>
    <tag k="asb" v="793"/>
    <tag k="created_by" v="RambaZamba"/>
    <tag k="man_made" v="MDF"/>
    <tag k="note:de" v="http://wiki.openstreetmap.org/index.php/DE:DSL_Hauptverteiler"/>
    <tag k="onkz" v="89"/>
    <tag k="operator" v="Deutsche Telekom AG"/>
    <tag k="source" v="survey"/>
  </node>
  <node id="307180248" version="8" timestamp="2009-06-06T19:36:36Z" uid="36809" user="pfoten_weg_!_" changeset="1441845" lat="48.05882" lon="11.51686">
    <tag k="addr:city" v="Pullach"/>
    <tag k="addr:country" v="DE"/>
    <tag k="addr:housenumber" v="17"/>
    <tag k="addr:postcode" v="82049"/>
    <tag k="addr:street" v="Pater-Rupert-Mayer-Straße"/>
    <tag k="asb" v="793"/>
    <tag k="created_by" v="RambaZamba"/>
    <tag k="man_made" v="MDF"/>
    <tag k="note:de" v="http://wiki.openstreetmap.org/index.php/DE:DSL_Hauptverteiler"/>
    <tag k="onkz" v="89"/>
    <tag k="operator" v="Deutsche Telekom AG"/>
    <tag k="source" v="survey"/>
  </node>
  <node id="307180271" version="3" timestamp="2009-09-01T11:49:42Z" uid="36809" user="pfoten_weg_!_" changeset="2336655" lat="48.07092" lon="11.37746">
    <tag k="addr:city" v="Gauting"/>
    <tag k="addr:housenumber" v="6"/>
    <tag k="addr:postcode" v="82131"/>
    <tag k="addr:street" v="Bahnhofplatz"/>
    <tag k="asb" v="850"/>
    <tag k="man_made" v="MDF"/>
    <tag k="note:de" v="http://wiki.openstreetmap.org/index.php/DE:DSL_Hauptverteiler"/>
    <tag k="onkz" v="89"/>
    <tag k="operator" v="Deutsche Telekom AG"/>
    <tag k="source" v="Deutsche Telekom AG"/>
  </node>
  <node id="307180271" version="4" timestamp="2009-10-12T21:56:16Z" uid="36809" user="pfoten_weg_!_" changeset="2831291" lat="48.07092" lon="11.37746">
    <tag k="addr:city" v="Gauting"/>
    <tag k="addr:housenumber" v="6"/>
    <tag k="addr:postcode" v="82131"/>
    <tag k="addr:street" v="Bahnhofplatz"/>
    <tag k="asb" v="850"/>
    <tag k="man_made" v="MDF"/>
    <tag k="note:de" v="http://wiki.openstreetmap.org/index.php/DE:DSL_Hauptverteiler"/>
    <tag k="onkz" v="89"/>
    <tag k="operator" v="Deutsche Telekom AG"/>
  </node>
  <node id="307180271" version="5" timestamp="2011-07-25T13:21:51Z" uid="482628" user="gumul" changeset="8826194" lat="48.0708462" lon="11.37749">
    <tag k="addr:city" v="Gauting"/>
    <tag k="addr:housenumber" v="6"/>
    <tag k="addr:postcode" v="82131"/>
    <tag k="addr:street" v="Bahnhofplatz"/>
    <tag k="asb" v="850"/>
    <tag k="man_made" v="MDF"/>
    <tag k="note:de" v="http://wiki.openstreetmap.org/index.php/DE:DSL_Hauptverteiler"/>
    <tag k="onkz" v="89"/>
    <tag k="operator" v="Deutsche Telekom AG"/>
  </node>
  <node id="307180274" version="4" timestamp="2009-08-26T09:56:55Z" uid="36809" user="pfoten_weg_!_" changeset="2265457" lat="48.120121" lon="11.430726">
    <tag k="addr:city" v="Gräfelfing"/>
    <tag k="addr:country" v="DE"/>
    <tag k="addr:housenumber" v="18"/>
    <tag k="addr:postcode" v="82166"/>
    <tag k="addr:street" v="Steubstraße"/>
    <tag k="asb" v="851"/>
    <tag k="man_made" v="MDF"/>
    <tag k="note:de" v="http://wiki.openstreetmap.org/index.php/DE:DSL_Hauptverteiler"/>
    <tag k="onkz" v="89"/>
    <tag k="operator" v="Deutsche Telekom AG"/>
    <tag k="source" v="Deutsche Telekom AG"/>
  </node>
  <node id="307180278" version="5" timestamp="2009-09-29T01:06:53Z" uid="36809" user="pfoten_weg_!_" changeset="2671973" lat="48.09591" lon="11.409245">
    <tag k="addr:city" v="Krailling"/>
    <tag k="addr:country" v="DE"/>
    <tag k="addr:housenumber" v="3"/>
    <tag k="addr:postcode" v="82152"/>
    <tag k="addr:street" v="Frühlingstraße"/>
    <tag k="asb" v="857"/>
    <tag k="man_made" v="MDF"/>
    <tag k="note:de" v="http://wiki.openstreetmap.org/index.php/DE:DSL_Hauptverteiler"/>
    <tag k="onkz" v="89"/>
    <tag k="operator" v="Deutsche Telekom AG"/>
    <tag k="source" v="Deutsche Telekom AG"/>
  </node>
  <node id="307181913" version="3" timestamp="2009-11-06T00:29:57Z" uid="36809" user="pfoten_weg_!_" changeset="3044956" lat="52.330097" lon="14.534048">
    <tag k="addr:city" v="Frankfurt (Oder)"/>
    <tag k="addr:housenumber" v="10"/>
    <tag k="addr:postcode" v="15232"/>
    <tag k="addr:street" v="Heinrich-Hildebrand-Straße"/>
    <tag k="asb" v="5"/>
    <tag k="man_made" v="MDF"/>
    <tag k="note:de" v="http://wiki.openstreetmap.org/index.php/DE:DSL_Hauptverteiler"/>
    <tag k="onkz" v="335"/>
    <tag k="operator" v="Deutsche Telekom AG"/>
    <tag k="source" v="Deutsche Telekom AG"/>
  </node>
  <node id="307181913" version="4" timestamp="2011-03-27T07:51:56Z" uid="163437" user="r-michael" changeset="7682852" lat="52.3305801" lon="14.5340856">
    <tag k="addr:city" v="Frankfurt (Oder)"/>
    <tag k="addr:housenumber" v="10"/>
    <tag k="addr:postcode" v="15232"/>
    <tag k="addr:street" v="Heinrich-Hildebrand-Straße"/>
    <tag k="asb" v="5"/>
    <tag k="man_made" v="MDF"/>
    <tag k="note:de" v="http://wiki.openstreetmap.org/index.php/DE:DSL_Hauptverteiler"/>
    <tag k="onkz" v="335"/>
    <tag k="operator" v="Deutsche Telekom AG"/>
    <tag k="source" v="Deutsche Telekom AG"/>
  </node>
  <node id="307181916" version="3" timestamp="2009-11-06T00:30:12Z" uid="36809" user="pfoten_weg_!_" changeset="3044956" lat="52.343375" lon="14.506469">
    <tag k="addr:city" v="Frankfurt (Oder)"/>
    <tag k="addr:housenumber" v="30"/>
    <tag k="addr:postcode" v="15234"/>
    <tag k="addr:street" v="Wieselspring"/>
    <tag k="asb" v="4"/>
    <tag k="man_made" v="MDF"/>
    <tag k="note:de" v="http://wiki.openstreetmap.org/index.php/DE:DSL_Hauptverteiler"/>
    <tag k="onkz" v="335"/>
    <tag k="operator" v="Deutsche Telekom AG"/>
    <tag k="source" v="Deutsche Telekom AG"/>
  </node>
  <node id="307181916" version="4" timestamp="2012-01-27T18:38:20Z" uid="163437" user="r-michael" changeset="10515050" lat="52.343375" lon="14.506469"/>
  <node id="307181921" version="5" timestamp="2009-11-06T00:31:20Z" uid="36809" user="pfoten_weg_!_" changeset="3044956" lat="52.3621165" lon="14.5272507">
    <tag k="addr:city" v="Frankfurt (Oder)"/>
    <tag k="addr:housenumber" v="10"/>
    <tag k="addr:postcode" v="15234"/>
    <tag k="addr:street" v="Spitzkrugring"/>
    <tag k="asb" v="6"/>
    <tag k="man_made" v="MDF"/>
    <tag k="note:de" v="http://wiki.openstreetmap.org/index.php/DE:DSL_Hauptverteiler"/>
    <tag k="onkz" v="335"/>
    <tag k="operator" v="Deutsche Telekom AG"/>
    <tag k="source" v="Deutsche Telekom AG"/>
  </node>
  <node id="307181921" version="6" timestamp="2009-11-17T19:10:02Z" uid="163437" user="r-michael" changeset="3144087" lat="52.3625513" lon="14.5275506">
    <tag k="addr:city" v="Frankfurt (Oder)"/>
    <tag k="addr:housenumber" v="10"/>
    <tag k="addr:postcode" v="15234"/>
    <tag k="addr:street" v="Spitzkrugring"/>
    <tag k="asb" v="6"/>
    <tag k="man_made" v="MDF"/>
    <tag k="note:de" v="http://wiki.openstreetmap.org/index.php/DE:DSL_Hauptverteiler"/>
    <tag k="onkz" v="335"/>
    <tag k="operator" v="Deutsche Telekom AG"/>
    <tag k="source" v="Deutsche Telekom AG"/>
  </node>
  <node id="307182868" version="3" timestamp="2009-10-07T16:16:13Z" uid="86259" user="hasse_osm_korinthenkacker" changeset="2773292" lat="54.786909" lon="9.435253">
    <tag k="addr:city" v="Flensburg"/>
    <tag k="addr:housenumber" v="2"/>
    <tag k="addr:postcode" v="24937"/>
    <tag k="addr:street" v="Rathausstraße"/>
    <tag k="asb" v="2"/>
    <tag k="man_made" v="MDF"/>
    <tag k="note:de" v="http://wiki.openstreetmap.org/index.php/DE:DSL_Hauptverteiler"/>
    <tag k="onkz" v="461"/>
    <tag k="operator" v="Deutsche Telekom AG"/>
    <tag k="source" v="Deutsche Telekom AG"/>
  </node>
  <node id="307182870" version="3" timestamp="2009-10-07T16:16:03Z" uid="86259" user="hasse_osm_korinthenkacker" changeset="2773292" lat="54.76767" lon="9.444089">
    <tag k="addr:city" v="Flensburg"/>
    <tag k="addr:housenumber" v="65"/>
    <tag k="addr:postcode" v="24941"/>
    <tag k="addr:street" v="Eckernförder Landstraße"/>
    <tag k="asb" v="96"/>
    <tag k="man_made" v="MDF"/>
    <tag k="note:de" v="http://wiki.openstreetmap.org/index.php/DE:DSL_Hauptverteiler"/>
    <tag k="onkz" v="461"/>
    <tag k="operator" v="Deutsche Telekom AG"/>
    <tag k="source" v="Deutsche Telekom AG"/>
  </node>
  <node id="307182876" version="3" timestamp="2009-10-07T16:16:06Z" uid="86259" user="hasse_osm_korinthenkacker" changeset="2773292" lat="54.781887" lon="9.422563">
    <tag k="addr:city" v="Flensburg"/>
    <tag k="addr:housenumber" v="18A"/>
    <tag k="addr:postcode" v="24937"/>
    <tag k="addr:street" v="Am Ochsenmarkt"/>
    <tag k="asb" v="5"/>
    <tag k="man_made" v="MDF"/>
    <tag k="note:de" v="http://wiki.openstreetmap.org/index.php/DE:DSL_Hauptverteiler"/>
    <tag k="onkz" v="461"/>
    <tag k="operator" v="Deutsche Telekom AG"/>
    <tag k="source" v="Deutsche Telekom AG"/>
  </node>
  <node id="307183227" version="1" timestamp="2008-10-24T22:34:32Z" uid="36809" user="pfoten_weg_!_" changeset="558349" lat="53.6136811" lon="14.5083806">
    <tag k="railway" v="level_crossing"/>
  </node>
  <node id="307183227" version="2" timestamp="2008-11-25T20:49:51Z" uid="36809" user="pfoten_weg_!_" changeset="792428" lat="53.6136811" lon="14.5083806">
    <tag k="railway" v="level_crossing"/>
  </node>
  <node id="307183233" version="1" timestamp="2008-10-24T22:34:32Z" uid="36809" user="pfoten_weg_!_" changeset="558349" lat="53.6048245" lon="14.5192729">
    <tag k="railway" v="level_crossing"/>
  </node>
  <node id="307183233" version="2" timestamp="2008-11-25T20:49:51Z" uid="36809" user="pfoten_weg_!_" changeset="792428" lat="53.6048245" lon="14.5192729">
    <tag k="railway" v="level_crossing"/>
  </node>
  <node id="307183237" version="1" timestamp="2008-10-24T22:34:32Z" uid="36809" user="pfoten_weg_!_" changeset="558349" lat="53.6051421" lon="14.4398509"/>
  <node id="307183244" version="1" timestamp="2008-10-24T22:34:33Z" uid="36809" user="pfoten_weg_!_" changeset="558349" lat="53.6080689" lon="14.4467559"/>
  <node id="307183249" version="1" timestamp="2008-10-24T22:34:33Z" uid="36809" user="pfoten_weg_!_" changeset="558349" lat="53.5634984" lon="14.4376259"/>
  <node id="307183505" version="3" timestamp="2009-07-07T16:52:23Z" uid="43863" user="Rundling" changeset="1764137" lat="52.9650341" lon="10.556348">
    <tag k="addr:city" v="Uelzen"/>
    <tag k="addr:housenumber" v="2"/>
    <tag k="addr:postcode" v="29525"/>
    <tag k="addr:street" v="Taubenstraße"/>
    <tag k="asb" v="2"/>
    <tag k="man_made" v="MDF"/>
    <tag k="note:de" v="http://wiki.openstreetmap.org/index.php/DE:DSL_Hauptverteiler"/>
    <tag k="onkz" v="581"/>
    <tag k="operator" v="Deutsche Telekom AG"/>
    <tag k="source" v="Deutsche Telekom AG"/>
  </node>
  <node id="307183574" version="3" timestamp="2008-12-21T14:36:26Z" uid="17602" user="B10xyz" changeset="525637" lat="50.1006246" lon="8.2585859">
    <tag k="addr:city" v="Wiesbaden"/>
    <tag k="addr:housenumber" v="2"/>
    <tag k="addr:postcode" v="65193"/>
    <tag k="addr:street" v="Adalbert-Stifter-Straße"/>
    <tag k="asb" v="54"/>
    <tag k="created_by" v="Merkaartor 0.12"/>
    <tag k="man_made" v="MDF"/>
    <tag k="note:de" v="http://wiki.openstreetmap.org/index.php/DE:DSL_Hauptverteiler"/>
    <tag k="onkz" v="611"/>
    <tag k="operator" v="Deutsche Telekom AG"/>
    <tag k="source" v="Deutsche Telekom AG"/>
  </node>
  <node id="307183574" version="4" timestamp="2009-11-27T21:07:11Z" uid="45952" user="plexi32" changeset="3230747" lat="50.1006246" lon="8.2585859">
    <tag k="addr:city" v="Wiesbaden"/>
    <tag k="addr:housenumber" v="2"/>
    <tag k="addr:postcode" v="65193"/>
    <tag k="addr:street" v="Adalbert-Stifter-Straße"/>
    <tag k="asb" v="54"/>
    <tag k="man_made" v="MDF"/>
    <tag k="note:de" v="http://wiki.openstreetmap.org/index.php/DE:DSL_Hauptverteiler"/>
    <tag k="onkz" v="611"/>
    <tag k="operator" v="Deutsche Telekom AG"/>
    <tag k="source" v="Deutsche Telekom AG"/>
  </node>
  <node id="307183831" version="3" timestamp="2011-05-08T09:13:03Z" uid="9581" user="Lobelt" changeset="8080437" lat="49.847196" lon="7.857483">
    <tag k="addr:city" v="Bad Kreuznach"/>
    <tag k="addr:housenumber" v="20-28"/>
    <tag k="addr:postcode" v="55545"/>
    <tag k="addr:street" v="Poststraße"/>
    <tag k="asb" v="2"/>
    <tag k="man_made" v="MDF"/>
    <tag k="note:de" v="http://wiki.openstreetmap.org/index.php/DE:DSL_Hauptverteiler"/>
    <tag k="onkz" v="671"/>
    <tag k="operator" v="Deutsche Telekom AG"/>
    <tag k="source" v="Deutsche Telekom AG"/>
  </node>
  <node id="307183835" version="3" timestamp="2011-05-08T09:12:28Z" uid="9581" user="Lobelt" changeset="8080437" lat="49.837585" lon="7.876893">
    <tag k="addr:city" v="Bad Kreuznach"/>
    <tag k="addr:housenumber" v="69"/>
    <tag k="addr:postcode" v="55543"/>
    <tag k="addr:street" v="Alzeyer Straße"/>
    <tag k="asb" v="6"/>
    <tag k="man_made" v="MDF"/>
    <tag k="note:de" v="http://wiki.openstreetmap.org/index.php/DE:DSL_Hauptverteiler"/>
    <tag k="onkz" v="671"/>
    <tag k="operator" v="Deutsche Telekom AG"/>
    <tag k="source" v="Deutsche Telekom AG"/>
  </node>
  <node id="307184236" version="3" timestamp="2009-01-14T13:44:35Z" uid="6269" user="Mueck" changeset="786789" lat="49.0041875" lon="8.4117224">
    <tag k="addr:city" v="Karlsruhe"/>
    <tag k="addr:housenumber" v="2"/>
    <tag k="addr:postcode" v="76137"/>
    <tag k="addr:street" v="Philipp-Reis-Straße"/>
    <tag k="asb" v="37"/>
    <tag k="created_by" v="Potlatch 0.10f"/>
    <tag k="man_made" v="MDF"/>
    <tag k="note:de" v="http://wiki.openstreetmap.org/index.php/DE:DSL_Hauptverteiler"/>
    <tag k="onkz" v="721"/>
    <tag k="operator" v="Deutsche Telekom AG"/>
    <tag k="source" v="Deutsche Telekom AG"/>
  </node>
  <node id="307184236" version="4" timestamp="2009-06-21T18:13:25Z" uid="85761" user="klausis" changeset="1586466" lat="49.0041875" lon="8.4117224">
    <tag k="addr:city" v="Karlsruhe"/>
    <tag k="addr:housenumber" v="2"/>
    <tag k="addr:postcode" v="76137"/>
    <tag k="addr:street" v="Philipp-Reis-Straße"/>
    <tag k="asb" v="37"/>
    <tag k="man_made" v="MDF"/>
    <tag k="note:de" v="http://wiki.openstreetmap.org/index.php/DE:DSL_Hauptverteiler"/>
    <tag k="onkz" v="721"/>
    <tag k="operator" v="Deutsche Telekom AG"/>
    <tag k="source" v="Deutsche Telekom AG"/>
  </node>
  <node id="307184236" version="5" timestamp="2011-04-16T22:59:52Z" uid="38515" user="Sören" changeset="7883008" lat="49.0041875" lon="8.4117224">
    <tag k="addr:city" v="Karlsruhe"/>
    <tag k="addr:housenumber" v="2"/>
    <tag k="addr:postcode" v="76137"/>
    <tag k="addr:street" v="Philipp-Reis-Straße"/>
    <tag k="asb" v="37"/>
    <tag k="man_made" v="MDF"/>
    <tag k="note:de" v="http://wiki.openstreetmap.org/index.php/DE:DSL_Hauptverteiler"/>
    <tag k="onkz" v="721"/>
    <tag k="operator" v="Deutsche Telekom AG"/>
    <tag k="source" v="Deutsche Telekom AG"/>
  </node>
  <node id="307184608" version="4" timestamp="2009-09-30T16:10:32Z" uid="36809" user="pfoten_weg_!_" changeset="2690373" lat="47.8441224" lon="11.1429946">
    <tag k="addr:city" v="Weilheim"/>
    <tag k="addr:housenumber" v="4"/>
    <tag k="addr:postcode" v="82362"/>
    <tag k="addr:street" v="Bahnhofstraße"/>
    <tag k="asb" v="2"/>
    <tag k="man_made" v="MDF"/>
    <tag k="note:de" v="http://wiki.openstreetmap.org/index.php/DE:DSL_Hauptverteiler"/>
    <tag k="onkz" v="881"/>
    <tag k="operator" v="Deutsche Telekom AG"/>
  </node>
  <node id="307184838" version="3" timestamp="2009-11-27T00:54:01Z" uid="200463" user="harmagedon" changeset="3225073" lat="48.587986" lon="13.099232">
    <tag k="addr:city" v="Würzburg"/>
    <tag k="addr:housenumber" v="10"/>
    <tag k="addr:postcode" v="97084"/>
    <tag k="addr:street" v="Heuchelhofstraße"/>
    <tag k="asb" v="60"/>
    <tag k="man_made" v="MDF"/>
    <tag k="note:de" v="http://wiki.openstreetmap.org/index.php/DE:DSL_Hauptverteiler"/>
    <tag k="onkz" v="931"/>
    <tag k="operator" v="Deutsche Telekom AG"/>
    <tag k="source" v="Deutsche Telekom AG"/>
  </node>
  <node id="307184838" version="4" timestamp="2009-11-29T13:20:51Z" uid="200463" user="harmagedon" changeset="3245181" lat="48.587986" lon="13.099232">
    <tag k="addr:city" v="Würzburg"/>
    <tag k="addr:housenumber" v="10"/>
    <tag k="addr:postcode" v="97084"/>
    <tag k="addr:street" v="Heuchelhofstraße"/>
    <tag k="asb" v="60"/>
    <tag k="man_made" v="MDF"/>
    <tag k="note:de" v="http://wiki.openstreetmap.org/index.php/DE:DSL_Hauptverteiler"/>
    <tag k="onkz" v="931"/>
    <tag k="operator" v="Deutsche Telekom AG"/>
    <tag k="source" v="Deutsche Telekom AG"/>
  </node>
  <node id="307185004" version="1" timestamp="2008-10-24T22:35:59Z" uid="13367" user="nubok" changeset="561842" lat="52.2671053" lon="11.5891079"/>
  <node id="307185007" version="1" timestamp="2008-10-24T22:35:59Z" uid="13367" user="nubok" changeset="561842" lat="52.2668055" lon="11.5892341"/>
  <node id="307185012" version="1" timestamp="2008-10-24T22:35:59Z" uid="13367" user="nubok" changeset="561842" lat="52.2665056" lon="11.5893051"/>
  <node id="307185016" version="1" timestamp="2008-10-24T22:36:00Z" uid="13367" user="nubok" changeset="561842" lat="52.2660243" lon="11.5891315"/>
  <node id="307185021" version="1" timestamp="2008-10-24T22:36:00Z" uid="13367" user="nubok" changeset="561842" lat="52.2651722" lon="11.5887844"/>
  <node id="307185026" version="1" timestamp="2008-10-24T22:36:00Z" uid="13367" user="nubok" changeset="561842" lat="52.2637282" lon="11.5882005"/>
  <node id="307185031" version="1" timestamp="2008-10-24T22:36:00Z" uid="13367" user="nubok" changeset="561842" lat="52.2620397" lon="11.5875298"/>
  <node id="307185037" version="1" timestamp="2008-10-24T22:36:00Z" uid="13367" user="nubok" changeset="561842" lat="52.2607299" lon="11.5869854"/>
  <node id="307185037" version="2" timestamp="2008-12-24T18:57:55Z" uid="69735" user="dirk86" changeset="591016" lat="52.2607299" lon="11.5869854"/>
  <node id="307185042" version="1" timestamp="2008-10-24T22:36:00Z" uid="13367" user="nubok" changeset="561842" lat="52.2599567" lon="11.586654"/>
  <node id="307185046" version="1" timestamp="2008-10-24T22:36:00Z" uid="13367" user="nubok" changeset="561842" lat="52.2595148" lon="11.5864804"/>
  <node id="307185046" version="2" timestamp="2008-12-24T18:57:56Z" uid="69735" user="dirk86" changeset="591016" lat="52.2595148" lon="11.5864804"/>
  <node id="307185050" version="1" timestamp="2008-10-24T22:36:01Z" uid="13367" user="nubok" changeset="561842" lat="52.259286" lon="11.586433"/>
  <node id="307185050" version="2" timestamp="2008-12-24T18:57:55Z" uid="69735" user="dirk86" changeset="591016" lat="52.259286" lon="11.586433"/>
  <node id="307185054" version="1" timestamp="2008-10-24T22:36:01Z" uid="13367" user="nubok" changeset="561842" lat="52.259065" lon="11.5863699"/>
  <node id="307185054" version="2" timestamp="2008-12-24T18:57:56Z" uid="69735" user="dirk86" changeset="591016" lat="52.259065" lon="11.5863699"/>
  <node id="307185059" version="1" timestamp="2008-10-24T22:36:01Z" uid="13367" user="nubok" changeset="561842" lat="52.2587573" lon="11.5863541"/>
  <node id="307185064" version="1" timestamp="2008-10-24T22:36:01Z" uid="13367" user="nubok" changeset="561842" lat="52.2585127" lon="11.5862279"/>
  <node id="307185068" version="1" timestamp="2008-10-24T22:36:01Z" uid="13367" user="nubok" changeset="561842" lat="52.2582997" lon="11.5860149"/>
  <node id="307185068" version="2" timestamp="2008-12-24T18:57:54Z" uid="69735" user="dirk86" changeset="591016" lat="52.2582997" lon="11.5860149"/>
  <node id="307185072" version="1" timestamp="2008-10-24T22:36:01Z" uid="13367" user="nubok" changeset="561842" lat="52.2580866" lon="11.5858807"/>
  <node id="307185076" version="1" timestamp="2008-10-24T22:36:02Z" uid="13367" user="nubok" changeset="561842" lat="52.2577552" lon="11.5857545"/>
  <node id="307185076" version="2" timestamp="2008-12-24T18:57:55Z" uid="69735" user="dirk86" changeset="591016" lat="52.2577552" lon="11.5857545"/>
  <node id="307185079" version="1" timestamp="2008-10-24T22:36:02Z" uid="13367" user="nubok" changeset="561842" lat="52.2573844" lon="11.5856124"/>
  <node id="307185084" version="1" timestamp="2008-10-24T22:36:02Z" uid="13367" user="nubok" changeset="561842" lat="52.1886645" lon="11.643324"/>
  <node id="307185084" version="2" timestamp="2012-01-17T20:39:02Z" uid="13565" user="hadhuey" changeset="10421398" lat="52.1886645" lon="11.643324"/>
  <node id="307185088" version="1" timestamp="2008-10-24T22:36:02Z" uid="13367" user="nubok" changeset="561842" lat="52.1887054" lon="11.6431989"/>
  <node id="307185088" version="2" timestamp="2012-01-17T20:39:02Z" uid="13565" user="hadhuey" changeset="10421398" lat="52.1887054" lon="11.6431989"/>
  <node id="307185092" version="1" timestamp="2008-10-24T22:36:02Z" uid="13367" user="nubok" changeset="561842" lat="52.1887786" lon="11.6429521"/>
  <node id="307185092" version="2" timestamp="2012-01-17T20:39:02Z" uid="13565" user="hadhuey" changeset="10421398" lat="52.1887786" lon="11.6429521"/>
  <node id="307185098" version="1" timestamp="2008-10-24T22:36:02Z" uid="13367" user="nubok" changeset="561842" lat="52.188879" lon="11.6426645"/>
  <node id="307185098" version="2" timestamp="2012-01-17T20:39:02Z" uid="13565" user="hadhuey" changeset="10421398" lat="52.188879" lon="11.6426645"/>
  <node id="307185103" version="1" timestamp="2008-10-24T22:36:02Z" uid="13367" user="nubok" changeset="561842" lat="52.1889666" lon="11.6423743"/>
  <node id="307185103" version="2" timestamp="2012-01-17T20:39:02Z" uid="13565" user="hadhuey" changeset="10421398" lat="52.1889666" lon="11.6423743"/>
  <node id="307185106" version="1" timestamp="2008-10-24T22:36:03Z" uid="13367" user="nubok" changeset="561842" lat="52.1892302" lon="11.6415495"/>
  <node id="307185106" version="2" timestamp="2012-01-17T20:39:02Z" uid="13565" user="hadhuey" changeset="10421398" lat="52.1892302" lon="11.6415495"/>
  <node id="307185111" version="1" timestamp="2008-10-24T22:36:03Z" uid="13367" user="nubok" changeset="561842" lat="52.1893625" lon="11.6411402"/>
  <node id="307185111" version="2" timestamp="2012-01-17T20:39:01Z" uid="13565" user="hadhuey" changeset="10421398" lat="52.1893625" lon="11.6411402"/>
  <node id="307185116" version="1" timestamp="2008-10-24T22:36:03Z" uid="13367" user="nubok" changeset="561842" lat="52.1895001" lon="11.6407855"/>
  <node id="307185116" version="2" timestamp="2012-01-17T20:39:01Z" uid="13565" user="hadhuey" changeset="10421398" lat="52.1895001" lon="11.6407855"/>
  <node id="307185120" version="1" timestamp="2008-10-24T22:36:03Z" uid="13367" user="nubok" changeset="561842" lat="52.1896536" lon="11.6403849"/>
  <node id="307185120" version="2" timestamp="2012-01-17T20:39:03Z" uid="13565" user="hadhuey" changeset="10421398" lat="52.1896536" lon="11.6403849"/>
  <node id="307185123" version="1" timestamp="2008-10-24T22:36:03Z" uid="13367" user="nubok" changeset="561842" lat="52.1897842" lon="11.6399632"/>
  <node id="307185123" version="2" timestamp="2012-01-17T20:39:01Z" uid="13565" user="hadhuey" changeset="10421398" lat="52.1897842" lon="11.6399632"/>
  <node id="307185127" version="1" timestamp="2008-10-24T22:36:04Z" uid="13367" user="nubok" changeset="561842" lat="52.1899554" lon="11.6394127"/>
  <node id="307185127" version="2" timestamp="2012-01-17T20:39:03Z" uid="13565" user="hadhuey" changeset="10421398" lat="52.1899554" lon="11.6394127"/>
  <node id="307185132" version="1" timestamp="2008-10-24T22:36:04Z" uid="13367" user="nubok" changeset="561842" lat="52.1900418" lon="11.6391551"/>
  <node id="307185132" version="2" timestamp="2012-01-17T20:39:02Z" uid="13565" user="hadhuey" changeset="10421398" lat="52.1900418" lon="11.6391551"/>
  <node id="307185136" version="1" timestamp="2008-10-24T22:36:04Z" uid="13367" user="nubok" changeset="561842" lat="52.1901654" lon="11.6386698"/>
  <node id="307185136" version="2" timestamp="2012-01-17T20:39:02Z" uid="13565" user="hadhuey" changeset="10421398" lat="52.1901654" lon="11.6386698"/>
  <node id="307185139" version="1" timestamp="2008-10-24T22:36:04Z" uid="13367" user="nubok" changeset="561842" lat="52.1902606" lon="11.6383857"/>
  <node id="307185139" version="2" timestamp="2012-01-17T20:39:01Z" uid="13565" user="hadhuey" changeset="10421398" lat="52.1902606" lon="11.6383857"/>
  <node id="307185145" version="1" timestamp="2008-10-24T22:36:04Z" uid="13367" user="nubok" changeset="561842" lat="52.1903383" lon="11.6382181"/>
  <node id="307185145" version="2" timestamp="2012-01-17T20:39:03Z" uid="13565" user="hadhuey" changeset="10421398" lat="52.1903383" lon="11.6382181"/>
  <node id="307185150" version="1" timestamp="2008-10-24T22:36:05Z" uid="13367" user="nubok" changeset="561842" lat="52.1905094" lon="11.6377099"/>
  <node id="307185150" version="2" timestamp="2012-01-17T20:39:02Z" uid="13565" user="hadhuey" changeset="10421398" lat="52.1905094" lon="11.6377099"/>
  <node id="307185154" version="1" timestamp="2008-10-24T22:36:05Z" uid="13367" user="nubok" changeset="561842" lat="52.1907071" lon="11.6370782"/>
  <node id="307185154" version="2" timestamp="2012-01-17T20:39:03Z" uid="13565" user="hadhuey" changeset="10421398" lat="52.1907071" lon="11.6370782"/>
  <node id="307185159" version="1" timestamp="2008-10-24T22:36:05Z" uid="13367" user="nubok" changeset="561842" lat="52.1909206" lon="11.6364377"/>
  <node id="307185159" version="2" timestamp="2012-01-17T20:39:01Z" uid="13565" user="hadhuey" changeset="10421398" lat="52.1909206" lon="11.6364377"/>
  <node id="307185164" version="1" timestamp="2008-10-24T22:36:05Z" uid="13367" user="nubok" changeset="561842" lat="52.1912908" lon="11.6353119"/>
  <node id="307185164" version="2" timestamp="2012-01-17T20:39:01Z" uid="13565" user="hadhuey" changeset="10421398" lat="52.1912908" lon="11.6353119"/>
  <node id="307185168" version="1" timestamp="2008-10-24T22:36:05Z" uid="13367" user="nubok" changeset="561842" lat="52.1915216" lon="11.6346301"/>
  <node id="307185168" version="2" timestamp="2012-01-17T20:39:02Z" uid="13565" user="hadhuey" changeset="10421398" lat="52.1915216" lon="11.6346301"/>
  <node id="307185173" version="1" timestamp="2008-10-24T22:36:05Z" uid="13367" user="nubok" changeset="561842" lat="52.1918815" lon="11.6335248"/>
  <node id="307185173" version="2" timestamp="2012-01-17T20:39:03Z" uid="13565" user="hadhuey" changeset="10421398" lat="52.1918815" lon="11.6335248"/>
  <node id="307185177" version="1" timestamp="2008-10-24T22:36:05Z" uid="13367" user="nubok" changeset="561842" lat="52.1921081" lon="11.6328388"/>
  <node id="307185177" version="2" timestamp="2012-01-17T20:39:02Z" uid="13565" user="hadhuey" changeset="10421398" lat="52.1921081" lon="11.6328388"/>
  <node id="307185181" version="1" timestamp="2008-10-24T22:36:06Z" uid="13367" user="nubok" changeset="561842" lat="52.1922542" lon="11.632337"/>
  <node id="307185181" version="2" timestamp="2012-01-17T20:39:03Z" uid="13565" user="hadhuey" changeset="10421398" lat="52.1922542" lon="11.632337"/>
  <node id="307185185" version="1" timestamp="2008-10-24T22:36:06Z" uid="13367" user="nubok" changeset="561842" lat="52.1924714" lon="11.6316938"/>
  <node id="307185185" version="2" timestamp="2012-01-17T20:39:02Z" uid="13565" user="hadhuey" changeset="10421398" lat="52.1924714" lon="11.6316938"/>
  <node id="307185190" version="1" timestamp="2008-10-24T22:36:06Z" uid="13367" user="nubok" changeset="561842" lat="52.1926746" lon="11.6310989"/>
  <node id="307185190" version="2" timestamp="2012-01-17T20:39:02Z" uid="13565" user="hadhuey" changeset="10421398" lat="52.1926746" lon="11.6310989"/>
  <node id="307185194" version="1" timestamp="2008-10-24T22:36:06Z" uid="13367" user="nubok" changeset="561842" lat="52.1927885" lon="11.6307276"/>
  <node id="307185194" version="2" timestamp="2012-01-09T22:48:19Z" uid="13565" user="hadhuey" changeset="10347075" lat="52.1927885" lon="11.6307276"/>
  <node id="307185199" version="1" timestamp="2008-10-24T22:36:06Z" uid="13367" user="nubok" changeset="561842" lat="52.1929646" lon="11.6302207"/>
  <node id="307185199" version="2" timestamp="2012-01-09T22:48:18Z" uid="13565" user="hadhuey" changeset="10347075" lat="52.1929646" lon="11.6302207"/>
  <node id="307185203" version="1" timestamp="2008-10-24T22:36:06Z" uid="13367" user="nubok" changeset="561842" lat="52.1931638" lon="11.6296367"/>
  <node id="307185203" version="2" timestamp="2012-01-09T22:48:19Z" uid="13565" user="hadhuey" changeset="10347075" lat="52.1931638" lon="11.6296367"/>
  <node id="307185208" version="1" timestamp="2008-10-24T22:36:06Z" uid="13367" user="nubok" changeset="561842" lat="52.1935825" lon="11.6283554"/>
  <node id="307185208" version="2" timestamp="2012-03-09T20:31:23Z" uid="390227" user="richtkreiser" changeset="10925081" lat="52.1935825" lon="11.6283554"/>
  <node id="307185212" version="1" timestamp="2008-10-24T22:36:07Z" uid="13367" user="nubok" changeset="561842" lat="52.1938277" lon="11.6276015"/>
  <node id="307185212" version="2" timestamp="2012-03-09T20:31:23Z" uid="390227" user="richtkreiser" changeset="10925081" lat="52.1938277" lon="11.6276015"/>
  <node id="307185217" version="1" timestamp="2008-10-24T22:36:07Z" uid="13367" user="nubok" changeset="561842" lat="52.1939508" lon="11.6272067"/>
  <node id="307185217" version="2" timestamp="2012-03-09T20:31:23Z" uid="390227" user="richtkreiser" changeset="10925081" lat="52.1939508" lon="11.6272067"/>
  <node id="307185221" version="1" timestamp="2008-10-24T22:36:07Z" uid="13367" user="nubok" changeset="561842" lat="52.1940639" lon="11.6267979"/>
  <node id="307185225" version="1" timestamp="2008-10-24T22:36:07Z" uid="13367" user="nubok" changeset="561842" lat="52.1885677" lon="11.643578"/>
  <node id="307185225" version="2" timestamp="2009-01-08T14:34:35Z" uid="13565" user="hadhuey" changeset="756353" lat="52.1885677" lon="11.643578"/>
  <node id="307185225" version="3" timestamp="2009-01-08T14:38:57Z" uid="13565" user="hadhuey" changeset="756353" lat="52.1885677" lon="11.643578"/>
  <node id="307185225" version="4" timestamp="2011-09-13T17:50:15Z" uid="41889" user="Kurt Krampmeier" changeset="9291513" lat="52.1885487" lon="11.643547"/>
  <node id="307185229" version="1" timestamp="2008-10-24T22:36:07Z" uid="13367" user="nubok" changeset="561842" lat="52.2084763" lon="11.6221386"/>
  <node id="307185229" version="2" timestamp="2010-08-01T13:14:25Z" uid="71621" user="begu" changeset="5370860" lat="52.2084964" lon="11.6220404"/>
  <node id="307185234" version="1" timestamp="2008-10-24T22:36:07Z" uid="13367" user="nubok" changeset="561842" lat="52.2523914" lon="11.6067576"/>
  <node id="307185234" version="2" timestamp="2010-03-14T18:24:02Z" uid="13565" user="hadhuey" changeset="4127914" lat="52.252415" lon="11.6067646"/>
  <node id="307185234" version="3" timestamp="2010-12-10T15:10:13Z" uid="69735" user="dirk86" changeset="6606229" lat="52.2524986" lon="11.6067949"/>
  <node id="307185239" version="1" timestamp="2008-10-24T22:36:08Z" uid="13367" user="nubok" changeset="561842" lat="52.2517477" lon="11.606543"/>
  <node id="307185239" version="2" timestamp="2010-12-10T15:10:14Z" uid="69735" user="dirk86" changeset="6606229" lat="52.2518257" lon="11.6064967"/>
  <node id="307185243" version="1" timestamp="2008-10-24T22:36:08Z" uid="13367" user="nubok" changeset="561842" lat="52.2514747" lon="11.6057629"/>
  <node id="307185243" version="2" timestamp="2010-12-10T15:09:57Z" uid="69735" user="dirk86" changeset="6606229" lat="52.2515882" lon="11.6061221"/>
  <node id="307185248" version="1" timestamp="2008-10-24T22:36:08Z" uid="13367" user="nubok" changeset="561842" lat="52.2512601" lon="11.6045926"/>
  <node id="307185248" version="2" timestamp="2010-12-10T15:10:19Z" uid="69735" user="dirk86" changeset="6606229" lat="52.2512885" lon="11.6045463"/>
  <node id="307185252" version="1" timestamp="2008-10-24T22:36:08Z" uid="13367" user="nubok" changeset="561842" lat="52.2509871" lon="11.6039295"/>
  <node id="307185252" version="2" timestamp="2010-12-10T15:10:02Z" uid="69735" user="dirk86" changeset="6606229" lat="52.2509942" lon="11.6038716"/>
  <node id="307185256" version="1" timestamp="2008-10-24T22:36:08Z" uid="13367" user="nubok" changeset="561842" lat="52.2505299" lon="11.6034583"/>
  <node id="307185256" version="2" timestamp="2010-12-10T15:10:18Z" uid="69735" user="dirk86" changeset="6606229" lat="52.2506079" lon="11.6035162"/>
  <node id="307185260" version="1" timestamp="2008-10-24T22:36:08Z" uid="13367" user="nubok" changeset="561842" lat="52.2489197" lon="11.6029715"/>
  <node id="307185260" version="2" timestamp="2011-02-22T21:27:01Z" uid="69735" user="dirk86" changeset="7367756" lat="52.2489312" lon="11.6029433"/>
  <node id="307185265" version="1" timestamp="2008-10-24T22:36:08Z" uid="13367" user="nubok" changeset="561842" lat="52.2471097" lon="11.6024347"/>
  <node id="307185267" version="1" timestamp="2008-10-24T22:36:08Z" uid="13367" user="nubok" changeset="561842" lat="52.2468351" lon="11.60226"/>
  <node id="307185272" version="1" timestamp="2008-10-24T22:36:09Z" uid="13367" user="nubok" changeset="561842" lat="52.2463982" lon="11.6021476"/>
  <node id="307185276" version="1" timestamp="2008-10-24T22:36:09Z" uid="13367" user="nubok" changeset="561842" lat="52.2462359" lon="11.6021976"/>
  <node id="307185279" version="1" timestamp="2008-10-24T22:36:09Z" uid="13367" user="nubok" changeset="561842" lat="52.246161" lon="11.6026594"/>
  <node id="307185283" version="1" timestamp="2008-10-24T22:36:09Z" uid="13367" user="nubok" changeset="561842" lat="52.2461361" lon="11.6030339"/>
  <node id="307185287" version="1" timestamp="2008-10-24T22:36:09Z" uid="13367" user="nubok" changeset="561842" lat="52.2460861" lon="11.6031587"/>
  <node id="307185287" version="2" timestamp="2011-09-17T20:32:05Z" uid="41889" user="Kurt Krampmeier" changeset="9327470" lat="52.2460709" lon="11.6031707"/>
  <node id="307185291" version="1" timestamp="2008-10-24T22:36:09Z" uid="13367" user="nubok" changeset="561842" lat="52.2458365" lon="11.6031337"/>
  <node id="307185291" version="2" timestamp="2011-09-17T20:32:05Z" uid="41889" user="Kurt Krampmeier" changeset="9327470" lat="52.2458499" lon="11.6031613"/>
  <node id="307185296" version="1" timestamp="2008-10-24T22:36:10Z" uid="13367" user="nubok" changeset="561842" lat="52.2458139" lon="11.6030476"/>
  <node id="307185296" version="2" timestamp="2011-09-17T20:32:05Z" uid="41889" user="Kurt Krampmeier" changeset="9327470" lat="52.2458122" lon="11.6031439"/>
  <node id="307185300" version="1" timestamp="2008-10-24T22:36:10Z" uid="13367" user="nubok" changeset="561842" lat="52.245827" lon="11.6028853"/>
  <node id="307185300" version="2" timestamp="2011-09-17T20:32:05Z" uid="41889" user="Kurt Krampmeier" changeset="9327470" lat="52.2458118" lon="11.6028973"/>
  <node id="307185305" version="1" timestamp="2008-10-24T22:36:10Z" uid="13367" user="nubok" changeset="561842" lat="52.2457903" lon="11.6028329"/>
  <node id="307185307" version="1" timestamp="2008-10-24T22:36:10Z" uid="13367" user="nubok" changeset="561842" lat="52.245683" lon="11.6028984"/>
  <node id="307185312" version="1" timestamp="2008-10-24T22:36:10Z" uid="13367" user="nubok" changeset="561842" lat="52.2454971" lon="11.6031863"/>
  <node id="307185317" version="1" timestamp="2008-10-24T22:36:10Z" uid="13367" user="nubok" changeset="561842" lat="52.2453327" lon="11.603292"/>
  <node id="307185322" version="1" timestamp="2008-10-24T22:36:10Z" uid="13367" user="nubok" changeset="561842" lat="52.2452121" lon="11.6033523"/>
  <node id="307185327" version="1" timestamp="2008-10-24T22:36:11Z" uid="13367" user="nubok" changeset="561842" lat="52.244575" lon="11.6038122"/>
  <node id="307185331" version="1" timestamp="2008-10-24T22:36:11Z" uid="13367" user="nubok" changeset="561842" lat="52.2444657" lon="11.6039253"/>
  <node id="307185336" version="1" timestamp="2008-10-24T22:36:11Z" uid="13367" user="nubok" changeset="561842" lat="52.2443753" lon="11.6040082"/>
  <node id="307185341" version="1" timestamp="2008-10-24T22:36:11Z" uid="13367" user="nubok" changeset="561842" lat="52.2442396" lon="11.6040459"/>
  <node id="307185346" version="1" timestamp="2008-10-24T22:36:11Z" uid="13367" user="nubok" changeset="561842" lat="52.2440209" lon="11.6040233"/>
  <node id="307185351" version="1" timestamp="2008-10-24T22:36:11Z" uid="13367" user="nubok" changeset="561842" lat="52.2436817" lon="11.6039743"/>
  <node id="307185356" version="1" timestamp="2008-10-24T22:36:12Z" uid="13367" user="nubok" changeset="561842" lat="52.2434366" lon="11.6039705"/>
  <node id="307185361" version="1" timestamp="2008-10-24T22:36:12Z" uid="13367" user="nubok" changeset="561842" lat="52.2432783" lon="11.6039404"/>
  <node id="307185361" version="2" timestamp="2008-12-27T17:55:41Z" uid="69735" user="dirk86" changeset="636528" lat="52.2432783" lon="11.6039404"/>
  <node id="307185365" version="1" timestamp="2008-10-24T22:36:12Z" uid="13367" user="nubok" changeset="561842" lat="52.2431652" lon="11.6039441"/>
  <node id="307185370" version="1" timestamp="2008-10-24T22:36:12Z" uid="13367" user="nubok" changeset="561842" lat="52.2430484" lon="11.6038838"/>
  <node id="307185370" version="2" timestamp="2008-12-27T17:55:41Z" uid="69735" user="dirk86" changeset="636528" lat="52.2430484" lon="11.6038838"/>
  <node id="307185375" version="1" timestamp="2008-10-24T22:36:12Z" uid="13367" user="nubok" changeset="561842" lat="52.2428976" lon="11.6038612"/>
  <node id="307185379" version="1" timestamp="2008-10-24T22:36:13Z" uid="13367" user="nubok" changeset="561842" lat="52.2427279" lon="11.6038009"/>
  <node id="307185379" version="2" timestamp="2008-12-27T17:55:42Z" uid="69735" user="dirk86" changeset="636528" lat="52.2427279" lon="11.6038009"/>
  <node id="307185384" version="1" timestamp="2008-10-24T22:36:13Z" uid="13367" user="nubok" changeset="561842" lat="52.2426488" lon="11.6038122"/>
  <node id="307185384" version="2" timestamp="2008-12-27T17:55:38Z" uid="69735" user="dirk86" changeset="636528" lat="52.2427381" lon="11.6038539"/>
  <node id="307185384" version="3" timestamp="2011-09-13T23:53:20Z" uid="41889" user="Kurt Krampmeier" changeset="9295266" lat="52.2427106" lon="11.6038524"/>
  <node id="307185387" version="1" timestamp="2008-10-24T22:36:13Z" uid="13367" user="nubok" changeset="561842" lat="52.241274" lon="11.603902"/>
  <node id="307185391" version="1" timestamp="2008-10-24T22:36:13Z" uid="13367" user="nubok" changeset="561842" lat="52.2420071" lon="11.6040587"/>
  <node id="307185396" version="1" timestamp="2008-10-24T22:36:13Z" uid="13367" user="nubok" changeset="561842" lat="52.2426572" lon="11.6041417"/>
  <node id="307185396" version="2" timestamp="2008-12-27T17:55:38Z" uid="69735" user="dirk86" changeset="636528" lat="52.2427274" lon="11.6041938"/>
  <node id="307185396" version="3" timestamp="2011-09-13T23:53:20Z" uid="41889" user="Kurt Krampmeier" changeset="9295266" lat="52.2427039" lon="11.6041926"/>
  <node id="307185400" version="1" timestamp="2008-10-24T22:36:13Z" uid="13367" user="nubok" changeset="561842" lat="52.2024138" lon="11.622378"/>
  <node id="307185400" version="2" timestamp="2011-02-06T23:00:23Z" uid="41889" user="Kurt Krampmeier" changeset="7211278" lat="52.2024138" lon="11.622378"/>
  <node id="307185403" version="1" timestamp="2008-10-24T22:36:13Z" uid="13367" user="nubok" changeset="561842" lat="52.2024291" lon="11.6226475"/>
  <node id="307185403" version="2" timestamp="2011-02-06T23:00:24Z" uid="41889" user="Kurt Krampmeier" changeset="7211278" lat="52.2024291" lon="11.6226475"/>
  <node id="307185408" version="1" timestamp="2008-10-24T22:36:14Z" uid="13367" user="nubok" changeset="561842" lat="52.202424" lon="11.6229424"/>
  <node id="307185408" version="2" timestamp="2011-02-06T23:00:23Z" uid="41889" user="Kurt Krampmeier" changeset="7211278" lat="52.202424" lon="11.6229424"/>
  <node id="307185412" version="1" timestamp="2008-10-24T22:36:14Z" uid="13367" user="nubok" changeset="561842" lat="52.2024697" lon="11.6233289"/>
  <node id="307185412" version="2" timestamp="2011-02-06T23:00:18Z" uid="41889" user="Kurt Krampmeier" changeset="7211278" lat="52.2024753" lon="11.6234984"/>
  <node id="307185416" version="1" timestamp="2008-10-24T22:36:14Z" uid="13367" user="nubok" changeset="561842" lat="52.2025155" lon="11.6236645"/>
  <node id="307185416" version="2" timestamp="2011-02-06T23:00:19Z" uid="41889" user="Kurt Krampmeier" changeset="7211278" lat="52.2025029" lon="11.6236645"/>
  <node id="307185420" version="1" timestamp="2008-10-24T22:36:15Z" uid="13367" user="nubok" changeset="561842" lat="52.2025562" lon="11.6238119"/>
  <node id="307185423" version="1" timestamp="2008-10-24T22:36:15Z" uid="13367" user="nubok" changeset="561842" lat="52.2026681" lon="11.6239441"/>
  <node id="307185423" version="2" timestamp="2011-02-06T23:00:17Z" uid="41889" user="Kurt Krampmeier" changeset="7211278" lat="52.2025926" lon="11.6238825"/>
  <node id="307185428" version="1" timestamp="2008-10-24T22:36:15Z" uid="13367" user="nubok" changeset="561842" lat="52.2027291" lon="11.6240712"/>
  <node id="307185428" version="2" timestamp="2011-02-06T23:00:17Z" uid="41889" user="Kurt Krampmeier" changeset="7211278" lat="52.2026815" lon="11.6239789"/>
  <node id="307185433" version="1" timestamp="2008-10-24T22:36:15Z" uid="13367" user="nubok" changeset="561842" lat="52.2028257" lon="11.6249153"/>
  <node id="307185433" version="2" timestamp="2011-02-06T23:00:21Z" uid="41889" user="Kurt Krampmeier" changeset="7211278" lat="52.2027125" lon="11.6240579"/>
  <node id="307185437" version="1" timestamp="2008-10-24T22:36:15Z" uid="13367" user="nubok" changeset="561842" lat="52.2028969" lon="11.6258255"/>
  <node id="307185437" version="2" timestamp="2011-02-06T23:00:23Z" uid="41889" user="Kurt Krampmeier" changeset="7211278" lat="52.2028969" lon="11.6258255"/>
  <node id="307185441" version="1" timestamp="2008-10-24T22:36:15Z" uid="13367" user="nubok" changeset="561842" lat="52.2029274" lon="11.6261916"/>
  <node id="307185441" version="2" timestamp="2011-02-06T23:00:23Z" uid="41889" user="Kurt Krampmeier" changeset="7211278" lat="52.2029274" lon="11.6261916"/>
  <node id="307185445" version="1" timestamp="2008-10-24T22:36:16Z" uid="13367" user="nubok" changeset="561842" lat="52.202902" lon="11.6262933"/>
  <node id="307185445" version="2" timestamp="2011-02-06T23:00:24Z" uid="41889" user="Kurt Krampmeier" changeset="7211278" lat="52.202902" lon="11.6262933"/>
  <node id="307185450" version="1" timestamp="2008-10-24T22:36:16Z" uid="13367" user="nubok" changeset="561842" lat="52.2425145" lon="11.6110687"/>
  <node id="307185450" version="2" timestamp="2008-12-27T17:55:35Z" uid="69735" user="dirk86" changeset="636528" lat="52.2425655" lon="11.6111729"/>
  <node id="307185454" version="1" timestamp="2008-10-24T22:36:16Z" uid="13367" user="nubok" changeset="561842" lat="52.2422149" lon="11.6111949"/>
  <node id="307185459" version="1" timestamp="2008-10-24T22:36:16Z" uid="13367" user="nubok" changeset="561842" lat="52.2398964" lon="11.6110214"/>
  <node id="307185463" version="1" timestamp="2008-10-24T22:36:16Z" uid="13367" user="nubok" changeset="561842" lat="52.2395336" lon="11.6110372"/>
  <node id="307185468" version="1" timestamp="2008-10-24T22:36:16Z" uid="13367" user="nubok" changeset="561842" lat="52.2385715" lon="11.6113999"/>
  <node id="307185473" version="1" timestamp="2008-10-24T22:36:17Z" uid="13367" user="nubok" changeset="561842" lat="52.2377987" lon="11.6114472"/>
  <node id="307185478" version="1" timestamp="2008-10-24T22:36:17Z" uid="13367" user="nubok" changeset="561842" lat="52.2368839" lon="11.6108795"/>
  <node id="307185482" version="1" timestamp="2008-10-24T22:36:17Z" uid="13367" user="nubok" changeset="561842" lat="52.2320734" lon="11.6079143"/>
  <node id="307185482" version="2" timestamp="2011-05-22T12:03:33Z" uid="390227" user="richtkreiser" changeset="8215435" lat="52.2320718" lon="11.6079806"/>
  <node id="307185486" version="1" timestamp="2008-10-24T22:36:17Z" uid="13367" user="nubok" changeset="561842" lat="52.2304798" lon="11.6069705"/>
  <node id="307185486" version="2" timestamp="2009-11-01T14:28:08Z" uid="13565" user="hadhuey" changeset="3006799" lat="52.2309762" lon="11.6073316"/>
  <node id="307185490" version="1" timestamp="2008-10-24T22:36:17Z" uid="13367" user="nubok" changeset="561842" lat="52.2302779" lon="11.6068494"/>
  <node id="307185490" version="2" timestamp="2009-11-01T14:28:09Z" uid="13565" user="hadhuey" changeset="3006799" lat="52.2303086" lon="11.6068853"/>
  <node id="307185490" version="3" timestamp="2011-05-22T12:03:33Z" uid="390227" user="richtkreiser" changeset="8215435" lat="52.2303086" lon="11.6068853"/>
  <node id="307185494" version="1" timestamp="2008-10-24T22:36:18Z" uid="13367" user="nubok" changeset="561842" lat="52.2301568" lon="11.6068797"/>
  <node id="307185494" version="2" timestamp="2009-04-25T21:01:04Z" uid="13367" user="nubok" changeset="959783" lat="52.2300806" lon="11.6068312"/>
  <node id="307185494" version="3" timestamp="2009-10-13T13:58:06Z" uid="185184" user="Jimmy66" changeset="2836406" lat="52.2300806" lon="11.6068312"/>
  <node id="307185494" version="4" timestamp="2009-11-01T14:25:20Z" uid="13565" user="hadhuey" changeset="3006799" lat="52.2300806" lon="11.6068312"/>
  <node id="307185494" version="5" timestamp="2011-05-22T12:03:33Z" uid="390227" user="richtkreiser" changeset="8215435" lat="52.230106" lon="11.6067882"/>
  <node id="307185498" version="1" timestamp="2008-10-24T22:36:18Z" uid="13367" user="nubok" changeset="561842" lat="52.2301568" lon="11.6070513"/>
  <node id="307185498" version="2" timestamp="2009-11-01T14:27:47Z" uid="13565" user="hadhuey" changeset="3006799" lat="52.2301568" lon="11.6070513"/>
  <node id="307185503" version="1" timestamp="2008-10-24T22:36:18Z" uid="13367" user="nubok" changeset="561842" lat="52.2306716" lon="11.6096253"/>
  <node id="307185503" version="2" timestamp="2009-10-13T13:58:12Z" uid="185184" user="Jimmy66" changeset="2836406" lat="52.2298878" lon="11.609294"/>
  <node id="307185503" version="3" timestamp="2009-11-01T14:26:27Z" uid="13565" user="hadhuey" changeset="3006799" lat="52.2299301" lon="11.6104473"/>
  <node id="307185508" version="1" timestamp="2008-10-24T22:36:18Z" uid="13367" user="nubok" changeset="561842" lat="52.2313277" lon="11.612926"/>
  <node id="307185508" version="2" timestamp="2009-10-13T13:58:12Z" uid="185184" user="Jimmy66" changeset="2836406" lat="52.2298878" lon="11.6127273"/>
  <node id="307185508" version="3" timestamp="2009-11-01T14:26:27Z" uid="13565" user="hadhuey" changeset="3006799" lat="52.2299984" lon="11.6126703"/>
  <node id="307185511" version="1" timestamp="2008-10-24T22:36:18Z" uid="13367" user="nubok" changeset="561842" lat="52.232004" lon="11.6165902"/>
  <node id="307185511" version="2" timestamp="2009-10-13T13:58:12Z" uid="185184" user="Jimmy66" changeset="2836406" lat="52.2298089" lon="11.6162892"/>
  <node id="307185511" version="3" timestamp="2009-11-01T14:26:28Z" uid="13565" user="hadhuey" changeset="3006799" lat="52.2300931" lon="11.616258"/>
  <node id="307185517" version="1" timestamp="2008-10-24T22:36:18Z" uid="13367" user="nubok" changeset="561842" lat="52.2321958" lon="11.6177308"/>
  <node id="307185517" version="2" timestamp="2009-10-13T13:58:12Z" uid="185184" user="Jimmy66" changeset="2836406" lat="52.2298089" lon="11.6175338"/>
  <node id="307185517" version="3" timestamp="2009-11-01T14:26:00Z" uid="13565" user="hadhuey" changeset="3006799" lat="52.2298089" lon="11.6175338"/>
  <node id="307187175" version="3" timestamp="2009-10-07T16:23:45Z" uid="86259" user="hasse_osm_korinthenkacker" changeset="2773374" lat="51.06441" lon="6.192645">
    <tag k="addr:city" v="Hückelhoven"/>
    <tag k="addr:housenumber" v="13"/>
    <tag k="addr:postcode" v="41836"/>
    <tag k="addr:street" v="Hans-Sachs-Straße"/>
    <tag k="asb" v="5"/>
    <tag k="man_made" v="MDF"/>
    <tag k="note:de" v="http://wiki.openstreetmap.org/index.php/DE:DSL_Hauptverteiler"/>
    <tag k="onkz" v="2433"/>
    <tag k="operator" v="Deutsche Telekom AG"/>
    <tag k="source" v="Deutsche Telekom AG"/>
  </node>
  <node id="307187181" version="3" timestamp="2009-10-07T16:24:35Z" uid="86259" user="hasse_osm_korinthenkacker" changeset="2773374" lat="51.053068" lon="6.221892">
    <tag k="addr:city" v="Hückelhoven"/>
    <tag k="addr:housenumber" v="10"/>
    <tag k="addr:postcode" v="41836"/>
    <tag k="addr:street" v="Am Parkhof"/>
    <tag k="asb" v="1"/>
    <tag k="man_made" v="MDF"/>
    <tag k="note:de" v="http://wiki.openstreetmap.org/index.php/DE:DSL_Hauptverteiler"/>
    <tag k="onkz" v="2433"/>
    <tag k="operator" v="Deutsche Telekom AG"/>
    <tag k="source" v="Deutsche Telekom AG"/>
  </node>
  <node id="307187256" version="3" timestamp="2009-10-07T16:45:32Z" uid="86259" user="hasse_osm_korinthenkacker" changeset="2773624" lat="50.962996" lon="6.11045">
    <tag k="addr:city" v="Geilenkirchen"/>
    <tag k="addr:housenumber" v="4"/>
    <tag k="addr:postcode" v="52511"/>
    <tag k="addr:street" v="Stettiner Straße"/>
    <tag k="asb" v="2"/>
    <tag k="man_made" v="MDF"/>
    <tag k="note:de" v="http://wiki.openstreetmap.org/index.php/DE:DSL_Hauptverteiler"/>
    <tag k="onkz" v="2451"/>
    <tag k="operator" v="Deutsche Telekom AG"/>
    <tag k="source" v="Deutsche Telekom AG"/>
  </node>
  <node id="307187256" version="4" timestamp="2009-10-08T17:56:00Z" uid="86259" user="hasse_osm_korinthenkacker" changeset="2785814" lat="50.962996" lon="6.11045">
    <tag k="addr:city" v="Geilenkirchen"/>
    <tag k="addr:housenumber" v="4"/>
    <tag k="addr:postcode" v="52511"/>
    <tag k="addr:street" v="Stettiner Straße"/>
    <tag k="asb" v="2"/>
    <tag k="man_made" v="MDF"/>
    <tag k="note:de" v="http://wiki.openstreetmap.org/index.php/DE:DSL_Hauptverteiler"/>
    <tag k="onkz" v="2451"/>
    <tag k="operator" v="Deutsche Telekom AG"/>
    <tag k="source" v="Deutsche Telekom AG"/>
  </node>
  <node id="307187256" version="5" timestamp="2011-01-26T18:14:37Z" uid="128421" user="Adiac" changeset="7096067" lat="50.9634383" lon="6.1105344">
    <tag k="addr:city" v="Geilenkirchen"/>
    <tag k="addr:housenumber" v="4"/>
    <tag k="addr:postcode" v="52511"/>
    <tag k="addr:street" v="Stettiner Straße"/>
    <tag k="asb" v="2"/>
    <tag k="man_made" v="MDF"/>
    <tag k="note:de" v="http://wiki.openstreetmap.org/index.php/DE:DSL_Hauptverteiler"/>
    <tag k="onkz" v="2451"/>
    <tag k="operator" v="Deutsche Telekom AG"/>
    <tag k="source" v="Deutsche Telekom AG"/>
  </node>
  <node id="307189117" version="3" timestamp="2009-10-08T22:49:42Z" uid="179968" user="Ich_hasse_doitsche_OSM-Korinthenkacker" changeset="2788677" lat="53.055118" lon="14.287042">
    <tag k="addr:city" v="Schwedt/Oder"/>
    <tag k="addr:housenumber" v="26"/>
    <tag k="addr:postcode" v="16303"/>
    <tag k="addr:street" v="Dr.-Theodor-Neubauer-Straße"/>
    <tag k="asb" v="2"/>
    <tag k="man_made" v="MDF"/>
    <tag k="note:de" v="http://wiki.openstreetmap.org/index.php/DE:DSL_Hauptverteiler"/>
    <tag k="onkz" v="3332"/>
    <tag k="operator" v="Deutsche Telekom AG"/>
    <tag k="source" v="Deutsche Telekom AG"/>
  </node>
  <node id="307189122" version="3" timestamp="2009-10-08T22:49:35Z" uid="179968" user="Ich_hasse_doitsche_OSM-Korinthenkacker" changeset="2788677" lat="53.067443" lon="14.254316">
    <tag k="addr:city" v="Schwedt/Oder"/>
    <tag k="addr:housenumber" v="2"/>
    <tag k="addr:postcode" v="16303"/>
    <tag k="addr:street" v="Friedrich-Engels-Straße"/>
    <tag k="asb" v="4"/>
    <tag k="man_made" v="MDF"/>
    <tag k="note:de" v="http://wiki.openstreetmap.org/index.php/DE:DSL_Hauptverteiler"/>
    <tag k="onkz" v="3332"/>
    <tag k="operator" v="Deutsche Telekom AG"/>
    <tag k="source" v="Deutsche Telekom AG"/>
  </node>
  <node id="307189831" version="3" timestamp="2009-10-07T16:56:01Z" uid="86259" user="hasse_osm_korinthenkacker" changeset="2773624" lat="51.151729" lon="14.987071">
    <tag k="addr:city" v="Görlitz"/>
    <tag k="addr:housenumber" v="1"/>
    <tag k="addr:postcode" v="02826"/>
    <tag k="addr:street" v="Postplatz"/>
    <tag k="asb" v="1"/>
    <tag k="man_made" v="MDF"/>
    <tag k="note:de" v="http://wiki.openstreetmap.org/index.php/DE:DSL_Hauptverteiler"/>
    <tag k="onkz" v="3581"/>
    <tag k="operator" v="Deutsche Telekom AG"/>
    <tag k="source" v="Deutsche Telekom AG"/>
  </node>
  <node id="307189831" version="4" timestamp="2009-10-08T20:18:37Z" uid="86259" user="hasse_osm_korinthenkacker" changeset="2785814" lat="51.151729" lon="14.987071">
    <tag k="addr:city" v="Görlitz"/>
    <tag k="addr:housenumber" v="1"/>
    <tag k="addr:postcode" v="02826"/>
    <tag k="addr:street" v="Postplatz"/>
    <tag k="asb" v="1"/>
    <tag k="man_made" v="MDF"/>
    <tag k="note:de" v="http://wiki.openstreetmap.org/index.php/DE:DSL_Hauptverteiler"/>
    <tag k="onkz" v="3581"/>
    <tag k="operator" v="Deutsche Telekom AG"/>
    <tag k="source" v="Deutsche Telekom AG"/>
  </node>
  <node id="307189841" version="3" timestamp="2009-10-07T16:55:07Z" uid="86259" user="hasse_osm_korinthenkacker" changeset="2773624" lat="51.121527" lon="14.981795">
    <tag k="addr:city" v="Görlitz"/>
    <tag k="addr:housenumber" v="1"/>
    <tag k="addr:postcode" v="02827"/>
    <tag k="addr:street" v="Erich-Oppenheimer-Straße"/>
    <tag k="asb" v="2"/>
    <tag k="man_made" v="MDF"/>
    <tag k="note:de" v="http://wiki.openstreetmap.org/index.php/DE:DSL_Hauptverteiler"/>
    <tag k="onkz" v="3581"/>
    <tag k="operator" v="Deutsche Telekom AG"/>
    <tag k="source" v="Deutsche Telekom AG"/>
  </node>
  <node id="307189841" version="4" timestamp="2009-10-08T20:07:47Z" uid="86259" user="hasse_osm_korinthenkacker" changeset="2785814" lat="51.121527" lon="14.981795">
    <tag k="addr:city" v="Görlitz"/>
    <tag k="addr:housenumber" v="1"/>
    <tag k="addr:postcode" v="02827"/>
    <tag k="addr:street" v="Erich-Oppenheimer-Straße"/>
    <tag k="asb" v="2"/>
    <tag k="man_made" v="MDF"/>
    <tag k="note:de" v="http://wiki.openstreetmap.org/index.php/DE:DSL_Hauptverteiler"/>
    <tag k="onkz" v="3581"/>
    <tag k="operator" v="Deutsche Telekom AG"/>
    <tag k="source" v="Deutsche Telekom AG"/>
  </node>
  <node id="307189841" version="5" timestamp="2011-12-05T13:39:44Z" uid="5359" user="user_5359" changeset="10042006" lat="51.121527" lon="14.981795">
    <tag k="addr:city" v="Görlitz"/>
    <tag k="addr:country" v="DE"/>
    <tag k="addr:housenumber" v="1"/>
    <tag k="addr:postcode" v="02827"/>
    <tag k="addr:street" v="Erich-Oppenheimer-Straße"/>
    <tag k="asb" v="2"/>
    <tag k="man_made" v="MDF"/>
    <tag k="note:de" v="http://wiki.openstreetmap.org/index.php/DE:DSL_Hauptverteiler"/>
    <tag k="onkz" v="3581"/>
    <tag k="operator" v="Deutsche Telekom AG"/>
    <tag k="source" v="Deutsche Telekom AG"/>
  </node>
  <node id="307189847" version="3" timestamp="2009-10-07T16:55:19Z" uid="86259" user="hasse_osm_korinthenkacker" changeset="2773624" lat="51.145967" lon="14.951061">
    <tag k="addr:city" v="Görlitz"/>
    <tag k="addr:housenumber" v="10-12"/>
    <tag k="addr:postcode" v="02827"/>
    <tag k="addr:street" v="Rosa-Luxemburg-Straße"/>
    <tag k="asb" v="3"/>
    <tag k="man_made" v="MDF"/>
    <tag k="note:de" v="http://wiki.openstreetmap.org/index.php/DE:DSL_Hauptverteiler"/>
    <tag k="onkz" v="3581"/>
    <tag k="operator" v="Deutsche Telekom AG"/>
    <tag k="source" v="Deutsche Telekom AG"/>
  </node>
  <node id="307189847" version="4" timestamp="2009-10-08T20:10:30Z" uid="86259" user="hasse_osm_korinthenkacker" changeset="2785814" lat="51.145967" lon="14.951061">
    <tag k="addr:city" v="Görlitz"/>
    <tag k="addr:housenumber" v="10-12"/>
    <tag k="addr:postcode" v="02827"/>
    <tag k="addr:street" v="Rosa-Luxemburg-Straße"/>
    <tag k="asb" v="3"/>
    <tag k="man_made" v="MDF"/>
    <tag k="note:de" v="http://wiki.openstreetmap.org/index.php/DE:DSL_Hauptverteiler"/>
    <tag k="onkz" v="3581"/>
    <tag k="operator" v="Deutsche Telekom AG"/>
    <tag k="source" v="Deutsche Telekom AG"/>
  </node>
  <node id="307189857" version="3" timestamp="2009-10-07T16:56:24Z" uid="86259" user="hasse_osm_korinthenkacker" changeset="2773624" lat="51.161634" lon="14.980192">
    <tag k="addr:city" v="Görlitz"/>
    <tag k="addr:housenumber" v="25"/>
    <tag k="addr:postcode" v="02828"/>
    <tag k="addr:street" v="Am Stadtgarten"/>
    <tag k="asb" v="4"/>
    <tag k="man_made" v="MDF"/>
    <tag k="note:de" v="http://wiki.openstreetmap.org/index.php/DE:DSL_Hauptverteiler"/>
    <tag k="onkz" v="3581"/>
    <tag k="operator" v="Deutsche Telekom AG"/>
    <tag k="source" v="Deutsche Telekom AG"/>
  </node>
  <node id="307189857" version="4" timestamp="2009-10-08T20:23:15Z" uid="86259" user="hasse_osm_korinthenkacker" changeset="2785814" lat="51.161634" lon="14.980192">
    <tag k="addr:city" v="Görlitz"/>
    <tag k="addr:housenumber" v="25"/>
    <tag k="addr:postcode" v="02828"/>
    <tag k="addr:street" v="Am Stadtgarten"/>
    <tag k="asb" v="4"/>
    <tag k="man_made" v="MDF"/>
    <tag k="note:de" v="http://wiki.openstreetmap.org/index.php/DE:DSL_Hauptverteiler"/>
    <tag k="onkz" v="3581"/>
    <tag k="operator" v="Deutsche Telekom AG"/>
    <tag k="source" v="Deutsche Telekom AG"/>
  </node>
  <node id="307189872" version="3" timestamp="2009-12-09T17:56:30Z" uid="200463" user="harmagedon" changeset="3335395" lat="50.870579" lon="14.763887">
    <tag k="addr:city" v="Olbersdorf"/>
    <tag k="addr:housenumber" v="2E"/>
    <tag k="addr:postcode" v="02785"/>
    <tag k="addr:street" v="Oberer Viebig"/>
    <tag k="asb" v="3"/>
    <tag k="man_made" v="MDF"/>
    <tag k="note:de" v="http://wiki.openstreetmap.org/index.php/DE:DSL_Hauptverteiler"/>
    <tag k="onkz" v="3583"/>
    <tag k="operator" v="Deutsche Telekom AG"/>
    <tag k="source" v="Deutsche Telekom AG"/>
  </node>
  <node id="307189882" version="3" timestamp="2009-12-09T20:21:20Z" uid="200463" user="harmagedon" changeset="3336536" lat="50.991158" lon="14.606832">
    <tag k="addr:city" v="Ebersbach/Sa."/>
    <tag k="addr:housenumber" v="13"/>
    <tag k="addr:postcode" v="02730"/>
    <tag k="addr:street" v="Friedrich-Ebert-Straße"/>
    <tag k="asb" v="2"/>
    <tag k="man_made" v="MDF"/>
    <tag k="note:de" v="http://wiki.openstreetmap.org/index.php/DE:DSL_Hauptverteiler"/>
    <tag k="onkz" v="3586"/>
    <tag k="operator" v="Deutsche Telekom AG"/>
    <tag k="source" v="Deutsche Telekom AG"/>
  </node>
  <node id="307189887" version="3" timestamp="2009-12-09T20:11:43Z" uid="200463" user="harmagedon" changeset="3336536" lat="50.933826" lon="14.612295">
    <tag k="addr:city" v="Seifhennersdorf"/>
    <tag k="addr:housenumber" v="1A"/>
    <tag k="addr:postcode" v="02782"/>
    <tag k="addr:street" v="Bahnhofstraße"/>
    <tag k="asb" v="4"/>
    <tag k="man_made" v="MDF"/>
    <tag k="note:de" v="http://wiki.openstreetmap.org/index.php/DE:DSL_Hauptverteiler"/>
    <tag k="onkz" v="3586"/>
    <tag k="operator" v="Deutsche Telekom AG"/>
    <tag k="source" v="Deutsche Telekom AG"/>
  </node>
  <node id="307189892" version="3" timestamp="2009-12-09T20:21:23Z" uid="200463" user="harmagedon" changeset="3336536" lat="50.977632" lon="14.621185">
    <tag k="addr:city" v="Neugersdorf"/>
    <tag k="addr:housenumber" v="19"/>
    <tag k="addr:postcode" v="02727"/>
    <tag k="addr:street" v="Weberstraße"/>
    <tag k="asb" v="1"/>
    <tag k="man_made" v="MDF"/>
    <tag k="note:de" v="http://wiki.openstreetmap.org/index.php/DE:DSL_Hauptverteiler"/>
    <tag k="onkz" v="3586"/>
    <tag k="operator" v="Deutsche Telekom AG"/>
    <tag k="source" v="Deutsche Telekom AG"/>
  </node>
  <node id="307189926" version="3" timestamp="2009-10-01T18:50:39Z" uid="86259" user="hasse_osm_korinthenkacker" changeset="2703918" lat="51.022025" lon="14.213162">
    <tag k="addr:city" v="Neustadt"/>
    <tag k="addr:housenumber" v="36A"/>
    <tag k="addr:postcode" v="01844"/>
    <tag k="addr:street" v="Bahnhofstraße"/>
    <tag k="asb" v="2"/>
    <tag k="man_made" v="MDF"/>
    <tag k="note:de" v="http://wiki.openstreetmap.org/index.php/DE:DSL_Hauptverteiler"/>
    <tag k="onkz" v="3596"/>
    <tag k="operator" v="Deutsche Telekom AG"/>
    <tag k="source" v="Deutsche Telekom AG"/>
  </node>
  <node id="307189926" version="4" timestamp="2009-10-01T18:54:24Z" uid="86259" user="hasse_osm_korinthenkacker" changeset="2703918" lat="51.022025" lon="14.213162">
    <tag k="addr:city" v="Neustadt"/>
    <tag k="addr:housenumber" v="36A"/>
    <tag k="addr:postcode" v="01844"/>
    <tag k="addr:street" v="Bahnhofstraße"/>
    <tag k="asb" v="2"/>
    <tag k="man_made" v="MDF"/>
    <tag k="note:de" v="http://wiki.openstreetmap.org/index.php/DE:DSL_Hauptverteiler"/>
    <tag k="onkz" v="3596"/>
    <tag k="operator" v="Deutsche Telekom AG"/>
    <tag k="source" v="Deutsche Telekom AG"/>
  </node>
</osm>
