<?xml version='1.0' encoding='UTF-8'?>
<osm version="0.6" generator="libosmium/2.20.0">
  <node id="307210059" version="3" timestamp="2009-11-05T03:16:15Z" uid="36809" user="pfoten_weg_!_" changeset="3037787" lat="52.727646" lon="14.278777">
    <tag k="addr:city" v="Neulewin"/>
    <tag k="addr:housenumber" v="117"/>
    <tag k="addr:postcode" v="16259"/>
    <tag k="addr:street" v="Neulewin"/>
    <tag k="asb" v="1"/>
    <tag k="man_made" v="MDF"/>
    <tag k="note:de" v="http://wiki.openstreetmap.org/index.php/DE:DSL_Hauptverteiler"/>
    <tag k="onkz" v="33452"/>
    <tag k="operator" v="Deutsche Telekom AG"/>
    <tag k="source" v="Deutsche Telekom AG"/>
  </node>
  <node id="307210059" version="4" timestamp="2010-06-07T09:44:58Z" uid="218309" user="mizim" changeset="4926432" lat="52.7276477" lon="14.2787898">
    <tag k="addr:city" v="Neulewin"/>
    <tag k="addr:housenumber" v="117"/>
    <tag k="addr:postcode" v="16259"/>
    <tag k="addr:street" v="Neulewin"/>
    <tag k="asb" v="1"/>
    <tag k="man_made" v="MDF"/>
    <tag k="note:de" v="http://wiki.openstreetmap.org/index.php/DE:DSL_Hauptverteiler"/>
    <tag k="onkz" v="33452"/>
    <tag k="operator" v="Deutsche Telekom AG"/>
    <tag k="source" v="Deutsche Telekom AG"/>
  </node>
  <node id="307210070" version="3" timestamp="2009-11-06T00:34:15Z" uid="36809" user="pfoten_weg_!_" changeset="3044956" lat="52.715252" lon="14.1384">
    <tag k="addr:city" v="Wriezen"/>
    <tag k="addr:housenumber" v="1"/>
    <tag k="addr:postcode" v="16269"/>
    <tag k="addr:street" v="Poststraße"/>
    <tag k="asb" v="1"/>
    <tag k="man_made" v="MDF"/>
    <tag k="note:de" v="http://wiki.openstreetmap.org/index.php/DE:DSL_Hauptverteiler"/>
    <tag k="onkz" v="33456"/>
    <tag k="operator" v="Deutsche Telekom AG"/>
    <tag k="source" v="Deutsche Telekom AG"/>
  </node>
  <node id="307210070" version="4" timestamp="2012-01-31T20:01:12Z" uid="375185" user="Gegenlicht84" changeset="10552894" lat="52.715252" lon="14.1384">
    <tag k="addr:city" v="Wriezen"/>
    <tag k="addr:housenumber" v="1"/>
    <tag k="addr:postcode" v="16269"/>
    <tag k="addr:street" v="Poststraße"/>
    <tag k="amenity" v="telephone"/>
    <tag k="asb" v="1"/>
    <tag k="man_made" v="MDF"/>
    <tag k="note:de" v="http://wiki.openstreetmap.org/index.php/DE:DSL_Hauptverteiler"/>
    <tag k="onkz" v="33456"/>
    <tag k="operator" v="Deutsche Telekom AG"/>
    <tag k="source" v="Deutsche Telekom AG"/>
  </node>
  <node id="307210075" version="3" timestamp="2009-11-05T03:19:52Z" uid="36809" user="pfoten_weg_!_" changeset="3037787" lat="52.765899" lon="14.16466">
    <tag k="addr:city" v="Oderaue"/>
    <tag k="addr:housenumber" v="3"/>
    <tag k="addr:postcode" v="16259"/>
    <tag k="addr:street" v="Am Dorfplatz"/>
    <tag k="asb" v="1"/>
    <tag k="man_made" v="MDF"/>
    <tag k="note:de" v="http://wiki.openstreetmap.org/index.php/DE:DSL_Hauptverteiler"/>
    <tag k="onkz" v="33457"/>
    <tag k="operator" v="Deutsche Telekom AG"/>
    <tag k="source" v="Deutsche Telekom AG"/>
  </node>
  <node id="307210088" version="3" timestamp="2009-11-06T00:43:58Z" uid="36809" user="pfoten_weg_!_" changeset="3044956" lat="52.574633" lon="14.491928">
    <tag k="addr:city" v="Golzow"/>
    <tag k="addr:housenumber" v="34A"/>
    <tag k="addr:postcode" v="15328"/>
    <tag k="addr:street" v="Hauptstraße"/>
    <tag k="asb" v="1"/>
    <tag k="man_made" v="MDF"/>
    <tag k="note:de" v="http://wiki.openstreetmap.org/index.php/DE:DSL_Hauptverteiler"/>
    <tag k="onkz" v="33472"/>
    <tag k="operator" v="Deutsche Telekom AG"/>
    <tag k="source" v="Deutsche Telekom AG"/>
  </node>
  <node id="307210093" version="4" timestamp="2009-11-06T00:44:07Z" uid="36809" user="pfoten_weg_!_" changeset="3044956" lat="52.612306" lon="14.455766">
    <tag k="addr:city" v="Zechin"/>
    <tag k="addr:postcode" v="15328"/>
    <tag k="addr:street" v="Kienitzer Straße"/>
    <tag k="asb" v="1"/>
    <tag k="man_made" v="MDF"/>
    <tag k="note:de" v="http://wiki.openstreetmap.org/index.php/DE:DSL_Hauptverteiler"/>
    <tag k="onkz" v="33473"/>
    <tag k="operator" v="Deutsche Telekom AG"/>
    <tag k="source" v="Deutsche Telekom AG"/>
  </node>
  <node id="307210102" version="3" timestamp="2009-11-06T00:35:02Z" uid="36809" user="pfoten_weg_!_" changeset="3044956" lat="52.639945" lon="14.35822">
    <tag k="addr:city" v="Letschin"/>
    <tag k="addr:housenumber" v="30B"/>
    <tag k="addr:postcode" v="15324"/>
    <tag k="addr:street" v="Bahnhofstraße"/>
    <tag k="asb" v="1"/>
    <tag k="man_made" v="MDF"/>
    <tag k="note:de" v="http://wiki.openstreetmap.org/index.php/DE:DSL_Hauptverteiler"/>
    <tag k="onkz" v="33475"/>
    <tag k="operator" v="Deutsche Telekom AG"/>
    <tag k="source" v="Deutsche Telekom AG"/>
  </node>
  <node id="307210102" version="4" timestamp="2012-02-04T12:50:30Z" uid="163437" user="r-michael" changeset="10583800" lat="52.6401341" lon="14.3582044">
    <tag k="addr:city" v="Letschin"/>
    <tag k="addr:housenumber" v="30B"/>
    <tag k="addr:postcode" v="15324"/>
    <tag k="addr:street" v="Bahnhofstraße"/>
    <tag k="asb" v="1"/>
    <tag k="man_made" v="MDF"/>
    <tag k="note:de" v="http://wiki.openstreetmap.org/index.php/DE:DSL_Hauptverteiler"/>
    <tag k="onkz" v="33475"/>
    <tag k="operator" v="Deutsche Telekom AG"/>
    <tag k="source" v="Deutsche Telekom AG"/>
  </node>
  <node id="307210117" version="3" timestamp="2009-11-06T00:35:26Z" uid="36809" user="pfoten_weg_!_" changeset="3044956" lat="52.700052" lon="14.407486">
    <tag k="addr:city" v="Letschin"/>
    <tag k="addr:housenumber" v="1"/>
    <tag k="addr:postcode" v="15324"/>
    <tag k="addr:street" v="Alte Bahnhofstraße"/>
    <tag k="asb" v="1"/>
    <tag k="man_made" v="MDF"/>
    <tag k="note:de" v="http://wiki.openstreetmap.org/index.php/DE:DSL_Hauptverteiler"/>
    <tag k="onkz" v="33478"/>
    <tag k="operator" v="Deutsche Telekom AG"/>
    <tag k="source" v="Deutsche Telekom AG"/>
  </node>
  <node id="307210117" version="4" timestamp="2012-02-02T21:17:53Z" uid="111462" user="Posemuckel" changeset="10571538" lat="52.700052" lon="14.407486"/>
  <node id="307210121" version="3" timestamp="2009-11-06T00:45:55Z" uid="36809" user="pfoten_weg_!_" changeset="3044956" lat="52.567988" lon="14.611908">
    <tag k="addr:city" v="Küstriner Vorland"/>
    <tag k="addr:housenumber" v="49A"/>
    <tag k="addr:postcode" v="15328"/>
    <tag k="addr:street" v="Karl-Marx-Straße"/>
    <tag k="asb" v="1"/>
    <tag k="man_made" v="MDF"/>
    <tag k="note:de" v="http://wiki.openstreetmap.org/index.php/DE:DSL_Hauptverteiler"/>
    <tag k="onkz" v="33479"/>
    <tag k="operator" v="Deutsche Telekom AG"/>
    <tag k="source" v="Deutsche Telekom AG"/>
  </node>
  <node id="307210126" version="3" timestamp="2009-11-06T00:39:38Z" uid="36809" user="pfoten_weg_!_" changeset="3044956" lat="52.472805" lon="14.533278">
    <tag k="addr:city" v="Podelzig"/>
    <tag k="addr:housenumber" v="35A"/>
    <tag k="addr:postcode" v="15326"/>
    <tag k="addr:street" v="Hauptstraße"/>
    <tag k="asb" v="1"/>
    <tag k="man_made" v="MDF"/>
    <tag k="note:de" v="http://wiki.openstreetmap.org/index.php/DE:DSL_Hauptverteiler"/>
    <tag k="onkz" v="33601"/>
    <tag k="operator" v="Deutsche Telekom AG"/>
    <tag k="source" v="Deutsche Telekom AG"/>
  </node>
  <node id="307210140" version="3" timestamp="2009-11-06T00:38:00Z" uid="36809" user="pfoten_weg_!_" changeset="3044956" lat="52.427204" lon="14.535083">
    <tag k="addr:city" v="Lebus"/>
    <tag k="addr:housenumber" v="42"/>
    <tag k="addr:postcode" v="15326"/>
    <tag k="addr:street" v="Kietzer Chaussee"/>
    <tag k="asb" v="1"/>
    <tag k="man_made" v="MDF"/>
    <tag k="note:de" v="http://wiki.openstreetmap.org/index.php/DE:DSL_Hauptverteiler"/>
    <tag k="onkz" v="33604"/>
    <tag k="operator" v="Deutsche Telekom AG"/>
    <tag k="source" v="Deutsche Telekom AG"/>
  </node>
  <node id="307210162" version="3" timestamp="2009-11-06T00:28:30Z" uid="36809" user="pfoten_weg_!_" changeset="3044956" lat="52.256736" lon="14.574651">
    <tag k="addr:city" v="Brieskow-Finkenheerd"/>
    <tag k="addr:housenumber" v="22"/>
    <tag k="addr:postcode" v="15295"/>
    <tag k="addr:street" v="Karl-Marx-Straße"/>
    <tag k="asb" v="1"/>
    <tag k="man_made" v="MDF"/>
    <tag k="note:de" v="http://wiki.openstreetmap.org/index.php/DE:DSL_Hauptverteiler"/>
    <tag k="onkz" v="33609"/>
    <tag k="operator" v="Deutsche Telekom AG"/>
    <tag k="source" v="Deutsche Telekom AG"/>
  </node>
  <node id="307210162" version="4" timestamp="2009-11-18T09:35:21Z" uid="163437" user="r-michael" changeset="3148687" lat="52.256736" lon="14.574651">
    <tag k="man_made" v="tower"/>
    <tag k="name" v="Telekom Mobilfunk"/>
    <tag k="operator" v="Deutsche Telekom AG"/>
    <tag k="tower:type" v="communication"/>
  </node>
  <node id="307210162" version="5" timestamp="2009-11-18T11:24:45Z" uid="163437" user="r-michael" changeset="3149436" lat="52.256736" lon="14.574651">
    <tag k="man_made" v="communications_tower"/>
    <tag k="name" v="Telekom Mobilfunk"/>
    <tag k="operator" v="Deutsche Telekom AG"/>
  </node>
  <node id="307210162" version="6" timestamp="2009-11-26T10:41:32Z" uid="163437" user="r-michael" changeset="3219172" lat="52.2572571" lon="14.5745188">
    <tag k="man_made" v="communications_tower"/>
    <tag k="name" v="Telekom Mobilfunk"/>
    <tag k="operator" v="Deutsche Telekom AG"/>
  </node>
  <node id="307210162" version="7" timestamp="2010-09-07T17:17:26Z" uid="163437" user="r-michael" changeset="5710006" lat="52.2572571" lon="14.5745188">
    <tag k="man_made" v="communications_tower"/>
    <tag k="name" v="Telekom Mobilfunk"/>
    <tag k="operator" v="Deutsche Telekom AG"/>
  </node>
  <node id="307212120" version="3" timestamp="2009-12-10T00:36:00Z" uid="200463" user="harmagedon" changeset="3338639" lat="51.239719" lon="15.012435">
    <tag k="addr:city" v="Neißeaue"/>
    <tag k="addr:housenumber" v="39"/>
    <tag k="addr:postcode" v="02829"/>
    <tag k="addr:street" v="Dorfstraße"/>
    <tag k="asb" v="1"/>
    <tag k="man_made" v="MDF"/>
    <tag k="note:de" v="http://wiki.openstreetmap.org/index.php/DE:DSL_Hauptverteiler"/>
    <tag k="onkz" v="35820"/>
    <tag k="operator" v="Deutsche Telekom AG"/>
    <tag k="source" v="Deutsche Telekom AG"/>
  </node>
  <node id="307212126" version="3" timestamp="2009-12-10T00:34:51Z" uid="200463" user="harmagedon" changeset="3338639" lat="51.071544" lon="14.962411">
    <tag k="addr:city" v="Görlitz"/>
    <tag k="addr:housenumber" v="18"/>
    <tag k="addr:postcode" v="02827"/>
    <tag k="addr:street" v="Thomas-Müntzer-Straße"/>
    <tag k="asb" v="1"/>
    <tag k="man_made" v="MDF"/>
    <tag k="note:de" v="http://wiki.openstreetmap.org/index.php/DE:DSL_Hauptverteiler"/>
    <tag k="onkz" v="35822"/>
    <tag k="operator" v="Deutsche Telekom AG"/>
    <tag k="source" v="Deutsche Telekom AG"/>
  </node>
  <node id="307212126" version="4" timestamp="2011-11-08T16:31:14Z" uid="551314" user="alfistibacchus" changeset="9774626" lat="51.071544" lon="14.962411"/>
  <node id="307212131" version="3" timestamp="2009-12-10T00:03:03Z" uid="200463" user="harmagedon" changeset="3338481" lat="51.023889" lon="14.930665">
    <tag k="addr:city" v="Ostritz"/>
    <tag k="addr:housenumber" v="143G"/>
    <tag k="addr:postcode" v="02899"/>
    <tag k="addr:street" v="Görlitzer Straße"/>
    <tag k="asb" v="2"/>
    <tag k="man_made" v="MDF"/>
    <tag k="note:de" v="http://wiki.openstreetmap.org/index.php/DE:DSL_Hauptverteiler"/>
    <tag k="onkz" v="35823"/>
    <tag k="operator" v="Deutsche Telekom AG"/>
    <tag k="source" v="Deutsche Telekom AG"/>
  </node>
  <node id="307212165" version="3" timestamp="2009-12-10T00:00:27Z" uid="200463" user="harmagedon" changeset="3338481" lat="50.94259" lon="14.882127">
    <tag k="addr:city" v="Hirschfelde"/>
    <tag k="addr:housenumber" v="46A"/>
    <tag k="addr:postcode" v="02788"/>
    <tag k="addr:street" v="Zittauer Straße"/>
    <tag k="asb" v="1"/>
    <tag k="man_made" v="MDF"/>
    <tag k="note:de" v="http://wiki.openstreetmap.org/index.php/DE:DSL_Hauptverteiler"/>
    <tag k="onkz" v="35843"/>
    <tag k="operator" v="Deutsche Telekom AG"/>
    <tag k="source" v="Deutsche Telekom AG"/>
  </node>
  <node id="307212170" version="3" timestamp="2009-12-09T20:19:54Z" uid="200463" user="harmagedon" changeset="3336536" lat="51.040681" lon="14.516744">
    <tag k="addr:city" v="Neusalza-Spremberg"/>
    <tag k="addr:housenumber" v="13"/>
    <tag k="addr:postcode" v="02742"/>
    <tag k="addr:street" v="Grenzstraße"/>
    <tag k="asb" v="1"/>
    <tag k="man_made" v="MDF"/>
    <tag k="note:de" v="http://wiki.openstreetmap.org/index.php/DE:DSL_Hauptverteiler"/>
    <tag k="onkz" v="35872"/>
    <tag k="operator" v="Deutsche Telekom AG"/>
    <tag k="source" v="Deutsche Telekom AG"/>
  </node>
  <node id="307212246" version="3" timestamp="2009-12-09T20:16:19Z" uid="200463" user="harmagedon" changeset="3336536" lat="51.048864" lon="14.431509">
    <tag k="addr:city" v="Sohland"/>
    <tag k="addr:housenumber" v="21"/>
    <tag k="addr:postcode" v="02689"/>
    <tag k="addr:street" v="Förstereistraße"/>
    <tag k="asb" v="2"/>
    <tag k="man_made" v="MDF"/>
    <tag k="note:de" v="http://wiki.openstreetmap.org/index.php/DE:DSL_Hauptverteiler"/>
    <tag k="onkz" v="35936"/>
    <tag k="operator" v="Deutsche Telekom AG"/>
    <tag k="source" v="Deutsche Telekom AG"/>
  </node>
  <node id="307212289" version="3" timestamp="2009-12-09T21:02:59Z" uid="200463" user="harmagedon" changeset="3336909" lat="50.966242" lon="14.270491">
    <tag k="addr:city" v="Sebnitz"/>
    <tag k="addr:housenumber" v="42"/>
    <tag k="addr:postcode" v="01855"/>
    <tag k="addr:street" v="Schillerstraße"/>
    <tag k="asb" v="1"/>
    <tag k="man_made" v="MDF"/>
    <tag k="note:de" v="http://wiki.openstreetmap.org/index.php/DE:DSL_Hauptverteiler"/>
    <tag k="onkz" v="35971"/>
    <tag k="operator" v="Deutsche Telekom AG"/>
    <tag k="source" v="Deutsche Telekom AG"/>
  </node>
  <node id="307212298" version="3" timestamp="2009-12-09T21:08:52Z" uid="200463" user="harmagedon" changeset="3336909" lat="50.9227" lon="14.35312">
    <tag k="addr:city" v="Hinterhermsdorf"/>
    <tag k="addr:housenumber" v="35"/>
    <tag k="addr:postcode" v="01855"/>
    <tag k="addr:street" v="Schandauer Straße"/>
    <tag k="asb" v="1"/>
    <tag k="man_made" v="MDF"/>
    <tag k="note:de" v="http://wiki.openstreetmap.org/index.php/DE:DSL_Hauptverteiler"/>
    <tag k="onkz" v="35974"/>
    <tag k="operator" v="Deutsche Telekom AG"/>
    <tag k="source" v="Deutsche Telekom AG"/>
  </node>
  <node id="307212638" version="3" timestamp="2010-11-01T22:13:25Z" uid="9581" user="Lobelt" changeset="6263514" lat="50.811507" lon="11.469457">
    <tag k="addr:city" v="Reinstädt"/>
    <tag k="addr:housenumber" v="59"/>
    <tag k="addr:postcode" v="07768"/>
    <tag k="addr:street" v="Dorfstraße"/>
    <tag k="asb" v="2"/>
    <tag k="man_made" v="MDF"/>
    <tag k="note:de" v="http://wiki.openstreetmap.org/index.php/DE:DSL_Hauptverteiler"/>
    <tag k="onkz" v="36422"/>
    <tag k="operator" v="Deutsche Telekom AG"/>
    <tag k="source" v="Deutsche Telekom AG"/>
  </node>
  <node id="307212643" version="3" timestamp="2010-08-22T20:25:27Z" uid="9581" user="Lobelt" changeset="5565397" lat="50.770623" lon="11.514715">
    <tag k="addr:city" v="Orlamünde"/>
    <tag k="addr:housenumber" v="5B"/>
    <tag k="addr:postcode" v="07768"/>
    <tag k="addr:street" v="Hausberg"/>
    <tag k="asb" v="2"/>
    <tag k="man_made" v="MDF"/>
    <tag k="note:de" v="http://wiki.openstreetmap.org/index.php/DE:DSL_Hauptverteiler"/>
    <tag k="onkz" v="36423"/>
    <tag k="operator" v="Deutsche Telekom AG"/>
    <tag k="source" v="Deutsche Telekom AG"/>
  </node>
  <node id="307212649" version="3" timestamp="2010-11-01T22:10:35Z" uid="9581" user="Lobelt" changeset="6263514" lat="50.804227" lon="11.580048">
    <tag k="addr:city" v="Kahla"/>
    <tag k="addr:housenumber" v="10"/>
    <tag k="addr:postcode" v="07768"/>
    <tag k="addr:street" v="Hohe Straße"/>
    <tag k="asb" v="2"/>
    <tag k="man_made" v="MDF"/>
    <tag k="note:de" v="http://wiki.openstreetmap.org/index.php/DE:DSL_Hauptverteiler"/>
    <tag k="onkz" v="36424"/>
    <tag k="operator" v="Deutsche Telekom AG"/>
    <tag k="source" v="Deutsche Telekom AG"/>
  </node>
  <node id="307212660" version="3" timestamp="2011-05-07T13:21:57Z" uid="9581" user="Lobelt" changeset="8073417" lat="51.00791" lon="11.65971">
    <tag k="addr:city" v="Dornburg Saale"/>
    <tag k="addr:housenumber" v="7"/>
    <tag k="addr:postcode" v="07778"/>
    <tag k="addr:street" v="Apoldaer Straße"/>
    <tag k="asb" v="2"/>
    <tag k="man_made" v="MDF"/>
    <tag k="note:de" v="http://wiki.openstreetmap.org/index.php/DE:DSL_Hauptverteiler"/>
    <tag k="onkz" v="36427"/>
    <tag k="operator" v="Deutsche Telekom AG"/>
    <tag k="source" v="Deutsche Telekom AG"/>
  </node>
  <node id="307212689" version="3" timestamp="2011-05-01T21:52:53Z" uid="9581" user="Lobelt" changeset="8026477" lat="50.904028" lon="11.447095">
    <tag k="addr:city" v="Magdala"/>
    <tag k="addr:housenumber" v="8A"/>
    <tag k="addr:postcode" v="99441"/>
    <tag k="addr:street" v="Blankenhainer Straße"/>
    <tag k="asb" v="2"/>
    <tag k="man_made" v="MDF"/>
    <tag k="note:de" v="http://wiki.openstreetmap.org/index.php/DE:DSL_Hauptverteiler"/>
    <tag k="onkz" v="36454"/>
    <tag k="operator" v="Deutsche Telekom AG"/>
    <tag k="source" v="Deutsche Telekom AG"/>
  </node>
  <node id="307212695" version="2" timestamp="2009-02-10T15:16:42Z" uid="49111" user="Markus B" changeset="321114" lat="45.976322" lon="7.6560343"/>
  <node id="307212695" version="3" timestamp="2011-08-04T20:28:59Z" uid="95702" user="Balgofil" changeset="8923047" lat="45.976322" lon="7.6560343"/>
  <node id="307212697" version="2" timestamp="2009-02-10T15:16:42Z" uid="49111" user="Markus B" changeset="321114" lat="45.9764655" lon="7.657283"/>
  <node id="307212697" version="3" timestamp="2011-08-04T20:28:59Z" uid="95702" user="Balgofil" changeset="8923047" lat="45.9764655" lon="7.657283"/>
  <node id="307212698" version="3" timestamp="2011-05-01T21:52:28Z" uid="9581" user="Lobelt" changeset="8026477" lat="50.861619" lon="11.340134">
    <tag k="addr:city" v="Blankenhain"/>
    <tag k="addr:housenumber" v="4A"/>
    <tag k="addr:postcode" v="99444"/>
    <tag k="addr:street" v="Schulberg"/>
    <tag k="asb" v="2"/>
    <tag k="man_made" v="MDF"/>
    <tag k="note:de" v="http://wiki.openstreetmap.org/index.php/DE:DSL_Hauptverteiler"/>
    <tag k="onkz" v="36459"/>
    <tag k="operator" v="Deutsche Telekom AG"/>
    <tag k="source" v="Deutsche Telekom AG"/>
  </node>
  <node id="307212700" version="2" timestamp="2009-02-10T15:16:42Z" uid="49111" user="Markus B" changeset="321114" lat="45.9764129" lon="7.6585674"/>
  <node id="307212700" version="3" timestamp="2009-02-10T15:34:54Z" uid="49111" user="Markus B" changeset="321114" lat="45.9764129" lon="7.6585674">
    <tag k="note" v="Die Grenze läuft genau durch den Gipfelpunkt"/>
  </node>
  <node id="307212700" version="4" timestamp="2009-08-13T02:40:06Z" uid="13944" user="bass" changeset="2126059" lat="45.9763977" lon="7.6585584">
    <tag k="note" v="Die Grenze läuft genau durch den Gipfelpunkt"/>
  </node>
  <node id="307212700" version="5" timestamp="2010-02-24T17:53:53Z" uid="91490" user="Heinz_V" changeset="3964999" lat="45.9764081" lon="7.6584482">
    <tag k="note" v="Die Grenze läuft genau durch den Gipfelpunkt"/>
  </node>
  <node id="307212700" version="6" timestamp="2011-08-04T20:29:00Z" uid="95702" user="Balgofil" changeset="8923047" lat="45.9764081" lon="7.6584482"/>
  <node id="307212716" version="3" timestamp="2011-05-07T13:21:25Z" uid="9581" user="Lobelt" changeset="8073417" lat="51.030647" lon="11.601383">
    <tag k="addr:city" v="Wormstedt"/>
    <tag k="addr:housenumber" v="77"/>
    <tag k="addr:postcode" v="99510"/>
    <tag k="addr:street" v="Hauptstraße"/>
    <tag k="asb" v="2"/>
    <tag k="man_made" v="MDF"/>
    <tag k="note:de" v="http://wiki.openstreetmap.org/index.php/DE:DSL_Hauptverteiler"/>
    <tag k="onkz" v="36464"/>
    <tag k="operator" v="Deutsche Telekom AG"/>
    <tag k="source" v="Deutsche Telekom AG"/>
  </node>
  <node id="307212725" version="3" timestamp="2011-05-01T19:40:53Z" uid="9581" user="Lobelt" changeset="8025182" lat="50.731203" lon="11.759874">
    <tag k="addr:city" v="Neustadt an der Orla"/>
    <tag k="addr:housenumber" v="9"/>
    <tag k="addr:postcode" v="07806"/>
    <tag k="addr:street" v="Am Stadtweg"/>
    <tag k="asb" v="2"/>
    <tag k="man_made" v="MDF"/>
    <tag k="note:de" v="http://wiki.openstreetmap.org/index.php/DE:DSL_Hauptverteiler"/>
    <tag k="onkz" v="36481"/>
    <tag k="operator" v="Deutsche Telekom AG"/>
    <tag k="source" v="Deutsche Telekom AG"/>
  </node>
  <node id="307212729" version="4" timestamp="2011-05-01T19:39:27Z" uid="9581" user="Lobelt" changeset="8025182" lat="50.737311" lon="11.869485">
    <tag k="addr:city" v="Triptis"/>
    <tag k="addr:postcode" v="07819"/>
    <tag k="addr:street" v="Geraer Straße"/>
    <tag k="asb" v="2"/>
    <tag k="man_made" v="MDF"/>
    <tag k="note:de" v="http://wiki.openstreetmap.org/index.php/DE:DSL_Hauptverteiler"/>
    <tag k="onkz" v="36482"/>
    <tag k="operator" v="Deutsche Telekom AG"/>
    <tag k="source" v="Deutsche Telekom AG"/>
  </node>
  <node id="307212734" version="4" timestamp="2011-05-01T12:28:03Z" uid="9581" user="Lobelt" changeset="8020600" lat="50.609036" lon="11.655404">
    <tag k="addr:city" v="Ziegenrück"/>
    <tag k="addr:postcode" v="07924"/>
    <tag k="addr:street" v="Plothental"/>
    <tag k="asb" v="2"/>
    <tag k="man_made" v="MDF"/>
    <tag k="note:de" v="http://wiki.openstreetmap.org/index.php/DE:DSL_Hauptverteiler"/>
    <tag k="onkz" v="36483"/>
    <tag k="operator" v="Deutsche Telekom AG"/>
    <tag k="source" v="Deutsche Telekom AG"/>
  </node>
  <node id="307212734" version="5" timestamp="2012-02-18T13:11:28Z" uid="606961" user="Naturcamping Plothental" changeset="10720050" lat="50.609036" lon="11.655404"/>
  <node id="307212738" version="4" timestamp="2011-05-01T12:29:39Z" uid="9581" user="Lobelt" changeset="8020600" lat="50.653886" lon="11.716008">
    <tag k="addr:city" v="Knau"/>
    <tag k="addr:postcode" v="07389"/>
    <tag k="addr:street" v="Am Bahnhof"/>
    <tag k="asb" v="2"/>
    <tag k="man_made" v="MDF"/>
    <tag k="note:de" v="http://wiki.openstreetmap.org/index.php/DE:DSL_Hauptverteiler"/>
    <tag k="onkz" v="36484"/>
    <tag k="operator" v="Deutsche Telekom AG"/>
    <tag k="source" v="Deutsche Telekom AG"/>
  </node>
  <node id="307212778" version="3" timestamp="2011-05-01T19:42:58Z" uid="9581" user="Lobelt" changeset="8025182" lat="50.761197" lon="11.955448">
    <tag k="addr:city" v="Niederpöllnitz"/>
    <tag k="addr:housenumber" v="7"/>
    <tag k="addr:postcode" v="07570"/>
    <tag k="addr:street" v="Am Porstendorfer Weg"/>
    <tag k="asb" v="2"/>
    <tag k="man_made" v="MDF"/>
    <tag k="note:de" v="http://wiki.openstreetmap.org/index.php/DE:DSL_Hauptverteiler"/>
    <tag k="onkz" v="36607"/>
    <tag k="operator" v="Deutsche Telekom AG"/>
    <tag k="source" v="Deutsche Telekom AG"/>
  </node>
  <node id="307212778" version="4" timestamp="2011-06-26T10:59:25Z" uid="256706" user="streetmops" changeset="8550623" lat="50.761034" lon="11.9552738">
    <tag k="addr:city" v="Niederpöllnitz"/>
    <tag k="addr:housenumber" v="7"/>
    <tag k="addr:postcode" v="07570"/>
    <tag k="addr:street" v="Am Porstendorfer Weg"/>
    <tag k="asb" v="2"/>
    <tag k="man_made" v="MDF"/>
    <tag k="note:de" v="http://wiki.openstreetmap.org/index.php/DE:DSL_Hauptverteiler"/>
    <tag k="onkz" v="36607"/>
    <tag k="operator" v="Deutsche Telekom AG"/>
    <tag k="source" v="Deutsche Telekom AG"/>
  </node>
  <node id="307212810" version="3" timestamp="2011-05-01T19:39:49Z" uid="9581" user="Lobelt" changeset="8025182" lat="50.699861" lon="11.907381">
    <tag k="addr:city" v="Auma"/>
    <tag k="addr:housenumber" v="2A"/>
    <tag k="addr:postcode" v="07955"/>
    <tag k="addr:street" v="Wöhlsdorfer Straße"/>
    <tag k="asb" v="2"/>
    <tag k="man_made" v="MDF"/>
    <tag k="note:de" v="http://wiki.openstreetmap.org/index.php/DE:DSL_Hauptverteiler"/>
    <tag k="onkz" v="36626"/>
    <tag k="operator" v="Deutsche Telekom AG"/>
    <tag k="source" v="Deutsche Telekom AG"/>
  </node>
  <node id="307212942" version="3" timestamp="2011-05-01T20:45:41Z" uid="9581" user="Lobelt" changeset="8025960" lat="50.618229" lon="11.430233">
    <tag k="addr:city" v="Kaulsdorf"/>
    <tag k="addr:housenumber" v="2A"/>
    <tag k="addr:postcode" v="07338"/>
    <tag k="addr:street" v="Könitzer Straße"/>
    <tag k="asb" v="2"/>
    <tag k="man_made" v="MDF"/>
    <tag k="note:de" v="http://wiki.openstreetmap.org/index.php/DE:DSL_Hauptverteiler"/>
    <tag k="onkz" v="36733"/>
    <tag k="operator" v="Deutsche Telekom AG"/>
    <tag k="source" v="Deutsche Telekom AG"/>
  </node>
  <node id="307212966" version="3" timestamp="2011-05-07T20:04:59Z" uid="9581" user="Lobelt" changeset="8076559" lat="50.589882" lon="11.569742">
    <tag k="addr:city" v="Drognitz"/>
    <tag k="addr:housenumber" v="82"/>
    <tag k="addr:postcode" v="07338"/>
    <tag k="addr:street" v="An der Neumühle"/>
    <tag k="asb" v="2"/>
    <tag k="man_made" v="MDF"/>
    <tag k="note:de" v="http://wiki.openstreetmap.org/index.php/DE:DSL_Hauptverteiler"/>
    <tag k="onkz" v="36737"/>
    <tag k="operator" v="Deutsche Telekom AG"/>
    <tag k="source" v="Deutsche Telekom AG"/>
  </node>
  <node id="307212995" version="3" timestamp="2010-11-01T20:28:31Z" uid="9581" user="Lobelt" changeset="6261297" lat="50.786718" lon="11.317861">
    <tag k="addr:city" v="Remda-Teichel"/>
    <tag k="addr:housenumber" v="2A"/>
    <tag k="addr:postcode" v="07407"/>
    <tag k="addr:street" v="Hinter der Kirche"/>
    <tag k="asb" v="2"/>
    <tag k="man_made" v="MDF"/>
    <tag k="note:de" v="http://wiki.openstreetmap.org/index.php/DE:DSL_Hauptverteiler"/>
    <tag k="onkz" v="36743"/>
    <tag k="operator" v="Deutsche Telekom AG"/>
    <tag k="source" v="Deutsche Telekom AG"/>
  </node>
  <node id="307213000" version="4" timestamp="2011-04-30T21:05:18Z" uid="9581" user="Lobelt" changeset="8015907" lat="50.766004" lon="11.225319">
    <tag k="addr:city" v="Remda-Teichel"/>
    <tag k="addr:postcode" v="07407"/>
    <tag k="addr:street" v="Gewerbepark"/>
    <tag k="asb" v="2"/>
    <tag k="man_made" v="MDF"/>
    <tag k="note:de" v="http://wiki.openstreetmap.org/index.php/DE:DSL_Hauptverteiler"/>
    <tag k="onkz" v="36744"/>
    <tag k="operator" v="Deutsche Telekom AG"/>
    <tag k="source" v="Deutsche Telekom AG"/>
  </node>
  <node id="307213872" version="3" timestamp="2009-08-31T21:57:44Z" uid="36809" user="pfoten_weg_!_" changeset="2331993" lat="54.351191" lon="12.402424">
    <tag k="addr:city" v="Wustrow"/>
    <tag k="addr:housenumber" v="41A"/>
    <tag k="addr:postcode" v="18347"/>
    <tag k="addr:street" v="Ernst-Thälmann-Straße"/>
    <tag k="asb" v="1"/>
    <tag k="man_made" v="MDF"/>
    <tag k="note:de" v="http://wiki.openstreetmap.org/index.php/DE:DSL_Hauptverteiler"/>
    <tag k="onkz" v="38220"/>
    <tag k="operator" v="Deutsche Telekom AG"/>
    <tag k="source" v="Deutsche Telekom AG"/>
  </node>
  <node id="307213916" version="4" timestamp="2009-08-24T21:58:45Z" uid="36809" user="pfoten_weg_!_" changeset="2250603" lat="54.365333" lon="12.707181">
    <tag k="addr:city" v="Barth"/>
    <tag k="addr:housenumber" v="1D"/>
    <tag k="addr:postcode" v="18356"/>
    <tag k="addr:street" v="Mastweg"/>
    <tag k="asb" v="1"/>
    <tag k="man_made" v="MDF"/>
    <tag k="nore:de" v="Warnung"/>
    <tag k="note:de" v="http://wiki.openstreetmap.org/index.php/DE:DSL_Hauptverteiler"/>
    <tag k="onkz" v="38231"/>
    <tag k="operator" v="Deutsche Telekom AG"/>
    <tag k="source" v="Deutsche Telekom AG"/>
  </node>
  <node id="307213916" version="5" timestamp="2009-08-24T22:27:06Z" uid="36809" user="pfoten_weg_!_" changeset="2250749" lat="54.365333" lon="12.707181">
    <tag k="addr:city" v="Barth"/>
    <tag k="addr:housenumber" v="1D"/>
    <tag k="addr:postcode" v="18356"/>
    <tag k="addr:street" v="Mastweg"/>
    <tag k="asb" v="1"/>
    <tag k="man_made" v="MDF"/>
    <tag k="nore:de" v="Warnung"/>
    <tag k="onkz" v="38231"/>
    <tag k="operator" v="Deutsche Telekom AG"/>
    <tag k="source" v="Deutsche Telekom AG"/>
  </node>
  <node id="307213916" version="6" timestamp="2009-08-24T22:29:45Z" uid="36809" user="pfoten_weg_!_" changeset="2250754" lat="54.365333" lon="12.707181">
    <tag k="addr:city" v="Barth"/>
    <tag k="addr:housenumber" v="1D"/>
    <tag k="addr:postcode" v="18356"/>
    <tag k="addr:street" v="Mastweg"/>
    <tag k="asb" v="1"/>
    <tag k="man_made" v="MDF"/>
    <tag k="onkz" v="38231"/>
    <tag k="operator" v="Deutsche Telekom AG"/>
    <tag k="source" v="Deutsche Telekom AG"/>
  </node>
  <node id="307213916" version="7" timestamp="2011-12-21T07:49:36Z" uid="55462" user="Lübeck" changeset="10169359" lat="54.3653067" lon="12.7087441">
    <tag k="addr:city" v="Barth"/>
    <tag k="addr:housenumber" v="1D"/>
    <tag k="addr:postcode" v="18356"/>
    <tag k="addr:street" v="Mastweg"/>
    <tag k="asb" v="1"/>
    <tag k="man_made" v="MDF"/>
    <tag k="onkz" v="38231"/>
    <tag k="operator" v="Deutsche Telekom AG"/>
    <tag k="source" v="Deutsche Telekom AG"/>
  </node>
  <node id="307213925" version="4" timestamp="2009-09-25T15:12:59Z" uid="36809" user="pfoten_weg_!_" changeset="2621317" lat="54.432915" lon="12.703259">
    <tag k="addr:city" v="Zingst"/>
    <tag k="addr:postcode" v="18374"/>
    <tag k="addr:street" v="Hägerende"/>
    <tag k="asb" v="1"/>
    <tag k="man_made" v="MDF"/>
    <tag k="note:de" v="http://wiki.openstreetmap.org/index.php/DE:DSL_Hauptverteiler"/>
    <tag k="onkz" v="38232"/>
    <tag k="operator" v="Deutsche Telekom AG"/>
    <tag k="source" v="Deutsche Telekom AG"/>
  </node>
  <node id="307213925" version="5" timestamp="2009-10-03T08:39:37Z" uid="179968" user="Ich_hasse_doitsche_OSM-Korinthenkacker" changeset="2720861" lat="54.432915" lon="12.703259">
    <tag k="addr:city" v="Zingst"/>
    <tag k="addr:postcode" v="18374"/>
    <tag k="addr:street" v="Hägerende"/>
    <tag k="asb" v="1"/>
    <tag k="man_made" v="MDF"/>
    <tag k="note:de" v="http://wiki.openstreetmap.org/index.php/DE:DSL_Hauptverteiler"/>
    <tag k="onkz" v="38232"/>
    <tag k="operator" v="Deutsche Telekom AG"/>
  </node>
  <node id="307213925" version="6" timestamp="2010-10-10T10:09:17Z" uid="6808" user="wwwFrank" changeset="6000328" lat="54.432915" lon="12.703259">
    <tag k="addr:city" v="Zingst"/>
    <tag k="addr:postcode" v="18374"/>
    <tag k="addr:street" v="Hägerende"/>
    <tag k="asb" v="1"/>
    <tag k="man_made" v="MDF"/>
    <tag k="note:de" v="http://wiki.openstreetmap.org/index.php/DE:DSL_Hauptverteiler"/>
    <tag k="onkz" v="38232"/>
    <tag k="operator" v="Deutsche Telekom AG"/>
  </node>
  <node id="307213930" version="4" timestamp="2009-02-26T22:00:19Z" uid="36809" user="pfoten_weg_!_" changeset="676860" lat="54.446075" lon="12.57631">
    <tag k="addr:city" v="Prerow"/>
    <tag k="addr:housenumber" v="8"/>
    <tag k="addr:postcode" v="18375"/>
    <tag k="addr:street" v="Straßendstraße"/>
    <tag k="asb" v="1"/>
    <tag k="created_by" v="xybot"/>
    <tag k="man_made" v="MDF"/>
    <tag k="note:de" v="http://wiki.openstreetmap.org/index.php/DE:DSL_Hauptverteiler"/>
    <tag k="onkz" v="38233"/>
    <tag k="operator" v="Deutsche Telekom AG"/>
    <tag k="source" v="Deutsche Telekom AG"/>
  </node>
  <node id="307213930" version="5" timestamp="2009-03-20T21:41:31Z" uid="5164" user="woodpeck" changeset="839312" lat="54.446075" lon="12.57631">
    <tag k="addr:city" v="Prerow"/>
    <tag k="addr:housenumber" v="8"/>
    <tag k="addr:postcode" v="18375"/>
    <tag k="addr:street" v="Straßendstraße"/>
    <tag k="asb" v="1"/>
    <tag k="created_by" v="xybot"/>
    <tag k="man_made" v="MDF"/>
    <tag k="note:de" v="http://wiki.openstreetmap.org/index.php/DE:DSL_Hauptverteiler"/>
    <tag k="onkz" v="38233"/>
    <tag k="operator" v="Deutsche Telekom AG"/>
    <tag k="source" v="Deutsche Telekom AG"/>
  </node>
  <node id="307213930" version="6" timestamp="2009-08-26T18:09:07Z" uid="36809" user="pfoten_weg_!_" changeset="2270114" lat="54.446075" lon="12.57631">
    <tag k="addr:city" v="Prerow"/>
    <tag k="addr:housenumber" v="8"/>
    <tag k="addr:postcode" v="18375"/>
    <tag k="addr:street" v="Straßendstraße"/>
    <tag k="asb" v="1"/>
    <tag k="man_made" v="MDF"/>
    <tag k="note:de" v="http://wiki.openstreetmap.org/index.php/DE:DSL_Hauptverteiler"/>
    <tag k="onkz" v="38233"/>
    <tag k="operator" v="Deutsche Telekom AG"/>
    <tag k="source" v="Deutsche Telekom AG"/>
  </node>
  <node id="307213930" version="7" timestamp="2009-10-14T00:40:09Z" uid="36809" user="pfoten_weg_!_" changeset="2841421" lat="54.446075" lon="12.57631">
    <tag k="addr:city" v="Prerow"/>
    <tag k="addr:housenumber" v="8"/>
    <tag k="addr:postcode" v="18375"/>
    <tag k="addr:street" v="Straßendstraße"/>
    <tag k="asb" v="1"/>
    <tag k="man_made" v="MDF"/>
    <tag k="note:de" v="http://wiki.openstreetmap.org/index.php/DE:DSL_Hauptverteiler"/>
    <tag k="onkz" v="38233"/>
    <tag k="operator" v="Deutsche Telekom AG"/>
  </node>
  <node id="307213930" version="8" timestamp="2009-11-20T17:13:44Z" uid="6808" user="wwwFrank" changeset="3170029" lat="54.446075" lon="12.57631">
    <tag k="addr:city" v="Prerow"/>
    <tag k="addr:housenumber" v="8"/>
    <tag k="addr:postcode" v="18375"/>
    <tag k="addr:street" v="Straßendstraße"/>
    <tag k="asb" v="1"/>
    <tag k="man_made" v="MDF"/>
    <tag k="note:de" v="http://wiki.openstreetmap.org/index.php/DE:DSL_Hauptverteiler"/>
    <tag k="onkz" v="38233"/>
    <tag k="operator" v="Deutsche Telekom AG"/>
  </node>
  <node id="307213930" version="9" timestamp="2012-03-27T12:02:11Z" uid="6808" user="wwwFrank" changeset="11115709" lat="54.4458115" lon="12.5764372">
    <tag k="addr:city" v="Prerow"/>
    <tag k="addr:housenumber" v="8"/>
    <tag k="addr:postcode" v="18375"/>
    <tag k="addr:street" v="Straßendstraße"/>
    <tag k="asb" v="1"/>
    <tag k="man_made" v="MDF"/>
    <tag k="note:de" v="http://wiki.openstreetmap.org/index.php/DE:DSL_Hauptverteiler"/>
    <tag k="onkz" v="38233"/>
    <tag k="operator" v="Deutsche Telekom AG"/>
  </node>
  <node id="307213934" version="3" timestamp="2009-07-28T04:07:40Z" uid="36809" user="pfoten_weg_!_" changeset="1961234" lat="54.385641" lon="12.520743">
    <tag k="addr:city" v="Born"/>
    <tag k="addr:housenumber" v="9A"/>
    <tag k="addr:postcode" v="18375"/>
    <tag k="addr:street" v="Am Wald"/>
    <tag k="asb" v="1"/>
    <tag k="created_by" v="fixbot"/>
    <tag k="man_made" v="MDF"/>
    <tag k="note:de" v="http://wiki.openstreetmap.org/index.php/DE:DSL_Hauptverteiler"/>
    <tag k="onkz" v="38234"/>
    <tag k="operator" v="Deutsche Telekom AG"/>
    <tag k="source" v="Deutsche Telekom AG"/>
  </node>
  <node id="307213977" version="4" timestamp="2009-10-03T14:18:51Z" uid="179968" user="Ich_hasse_doitsche_OSM-Korinthenkacker" changeset="2724403" lat="54.524274" lon="13.560627">
    <tag k="addr:city" v="Sagard"/>
    <tag k="addr:postcode" v="18551"/>
    <tag k="addr:street" v="Ernst-Thälmann-Straße"/>
    <tag k="asb" v="2"/>
    <tag k="man_made" v="MDF"/>
    <tag k="note:de" v="http://wiki.openstreetmap.org/index.php/DE:DSL_Hauptverteiler"/>
    <tag k="onkz" v="38302"/>
    <tag k="operator" v="Deutsche Telekom AG"/>
    <tag k="source" v="Deutsche Telekom AG"/>
  </node>
  <node id="307213977" version="5" timestamp="2012-03-27T19:57:03Z" uid="70400" user="Schwedenhagen" changeset="11120114" lat="54.524274" lon="13.560627"/>
  <node id="307213980" version="4" timestamp="2009-10-03T14:18:34Z" uid="179968" user="Ich_hasse_doitsche_OSM-Korinthenkacker" changeset="2724403" lat="54.571494" lon="13.483963">
    <tag k="addr:city" v="Glowe"/>
    <tag k="addr:postcode" v="18551"/>
    <tag k="addr:street" v="Rügen Radio"/>
    <tag k="asb" v="5"/>
    <tag k="man_made" v="MDF"/>
    <tag k="note:de" v="http://wiki.openstreetmap.org/index.php/DE:DSL_Hauptverteiler"/>
    <tag k="onkz" v="38302"/>
    <tag k="operator" v="Deutsche Telekom AG"/>
    <tag k="source" v="Deutsche Telekom AG"/>
  </node>
  <node id="307213986" version="4" timestamp="2009-10-03T14:20:33Z" uid="179968" user="Ich_hasse_doitsche_OSM-Korinthenkacker" changeset="2724403" lat="54.5823014" lon="13.6116891">
    <tag k="addr:city" v="Lohme"/>
    <tag k="addr:postcode" v="18551"/>
    <tag k="addr:street" v="Rügen Radio"/>
    <tag k="asb" v="9"/>
    <tag k="man_made" v="MDF"/>
    <tag k="note" v="FIXME: War vollkommen daneben in Hessen, bitte feinpositionieren"/>
    <tag k="note:de" v="http://wiki.openstreetmap.org/index.php/DE:DSL_Hauptverteiler"/>
    <tag k="onkz" v="38302"/>
    <tag k="operator" v="Deutsche Telekom AG"/>
    <tag k="source" v="Deutsche Telekom AG"/>
  </node>
  <node id="307213986" version="5" timestamp="2012-03-24T14:50:43Z" uid="70400" user="Schwedenhagen" changeset="11085170" lat="54.581284" lon="13.6114484">
    <tag k="addr:city" v="Lohme"/>
    <tag k="addr:postcode" v="18551"/>
    <tag k="addr:street" v="Rügen Radio"/>
    <tag k="asb" v="9"/>
    <tag k="man_made" v="MDF"/>
    <tag k="note" v="FIXME: War vollkommen daneben in Hessen, bitte feinpositionieren"/>
    <tag k="note:de" v="http://wiki.openstreetmap.org/index.php/DE:DSL_Hauptverteiler"/>
    <tag k="onkz" v="38302"/>
    <tag k="operator" v="Deutsche Telekom AG"/>
    <tag k="source" v="Deutsche Telekom AG"/>
  </node>
  <node id="307214152" version="4" timestamp="2009-10-01T15:23:18Z" uid="86259" user="hasse_osm_korinthenkacker" changeset="2701530" lat="53.868868" lon="13.915259">
    <tag k="addr:city" v="Usedom"/>
    <tag k="addr:postcode" v="17406"/>
    <tag k="addr:street" v="Karniner Straße"/>
    <tag k="asb" v="1"/>
    <tag k="man_made" v="MDF"/>
    <tag k="note:de" v="http://wiki.openstreetmap.org/index.php/DE:DSL_Hauptverteiler"/>
    <tag k="onkz" v="38372"/>
    <tag k="operator" v="Deutsche Telekom AG"/>
    <tag k="source" v="Deutsche Telekom AG"/>
  </node>
  <node id="307214170" version="4" timestamp="2009-10-08T21:33:44Z" uid="179968" user="Ich_hasse_doitsche_OSM-Korinthenkacker" changeset="2788120" lat="53.888167" lon="14.146704">
    <tag k="addr:city" v="Zirchow"/>
    <tag k="addr:postcode" v="17419"/>
    <tag k="addr:street" v="Waldweg n.Garz"/>
    <tag k="asb" v="1"/>
    <tag k="man_made" v="MDF"/>
    <tag k="note:de" v="http://wiki.openstreetmap.org/index.php/DE:DSL_Hauptverteiler"/>
    <tag k="onkz" v="38376"/>
    <tag k="operator" v="Deutsche Telekom AG"/>
    <tag k="source" v="Deutsche Telekom AG"/>
  </node>
  <node id="307214178" version="4" timestamp="2009-10-08T21:37:15Z" uid="179968" user="Ich_hasse_doitsche_OSM-Korinthenkacker" changeset="2788120" lat="53.956477" lon="14.150337">
    <tag k="addr:city" v="Ostseebad Heringsdorf"/>
    <tag k="addr:postcode" v="17424"/>
    <tag k="addr:street" v="Schulstraße"/>
    <tag k="asb" v="1"/>
    <tag k="man_made" v="MDF"/>
    <tag k="note:de" v="http://wiki.openstreetmap.org/index.php/DE:DSL_Hauptverteiler"/>
    <tag k="onkz" v="38378"/>
    <tag k="operator" v="Deutsche Telekom AG"/>
    <tag k="source" v="Deutsche Telekom AG"/>
  </node>
  <node id="307214196" version="4" timestamp="2009-10-07T16:26:10Z" uid="86259" user="hasse_osm_korinthenkacker" changeset="2773374" lat="54.632194" lon="13.229884">
    <tag k="addr:city" v="Dranske"/>
    <tag k="addr:postcode" v="18556"/>
    <tag k="addr:street" v="Rosa-Luxemburg-Ring"/>
    <tag k="asb" v="8"/>
    <tag k="man_made" v="MDF"/>
    <tag k="note:de" v="http://wiki.openstreetmap.org/index.php/DE:DSL_Hauptverteiler"/>
    <tag k="onkz" v="38391"/>
    <tag k="operator" v="Deutsche Telekom AG"/>
    <tag k="source" v="Deutsche Telekom AG"/>
  </node>
  <node id="307214201" version="3" timestamp="2009-10-03T14:18:56Z" uid="179968" user="Ich_hasse_doitsche_OSM-Korinthenkacker" changeset="2724403" lat="54.517182" lon="13.622803">
    <tag k="addr:city" v="Sassnitz"/>
    <tag k="addr:housenumber" v="63"/>
    <tag k="addr:postcode" v="18546"/>
    <tag k="addr:street" v="Rügener Ring"/>
    <tag k="asb" v="2"/>
    <tag k="man_made" v="MDF"/>
    <tag k="note:de" v="http://wiki.openstreetmap.org/index.php/DE:DSL_Hauptverteiler"/>
    <tag k="onkz" v="38392"/>
    <tag k="operator" v="Deutsche Telekom AG"/>
    <tag k="source" v="Deutsche Telekom AG"/>
  </node>
  <node id="307214201" version="4" timestamp="2009-12-08T19:32:00Z" uid="76587" user="circusfreunde" changeset="3327306" lat="54.5169493" lon="13.6230376">
    <tag k="addr:city" v="Sassnitz"/>
    <tag k="addr:housenumber" v="63"/>
    <tag k="addr:postcode" v="18546"/>
    <tag k="addr:street" v="Rügener Ring"/>
    <tag k="asb" v="2"/>
    <tag k="man_made" v="MDF"/>
    <tag k="note:de" v="http://wiki.openstreetmap.org/index.php/DE:DSL_Hauptverteiler"/>
    <tag k="onkz" v="38392"/>
    <tag k="operator" v="Deutsche Telekom AG"/>
    <tag k="source" v="Deutsche Telekom AG"/>
  </node>
  <node id="307214201" version="5" timestamp="2009-12-09T13:50:45Z" uid="76587" user="circusfreunde" changeset="3333771" lat="54.5169474" lon="13.6233286">
    <tag k="addr:city" v="Sassnitz"/>
    <tag k="addr:housenumber" v="63"/>
    <tag k="addr:postcode" v="18546"/>
    <tag k="addr:street" v="Rügener Ring"/>
    <tag k="asb" v="2"/>
    <tag k="man_made" v="MDF"/>
    <tag k="note:de" v="http://wiki.openstreetmap.org/index.php/DE:DSL_Hauptverteiler"/>
    <tag k="onkz" v="38392"/>
    <tag k="operator" v="Deutsche Telekom AG"/>
    <tag k="source" v="Deutsche Telekom AG"/>
  </node>
  <node id="307215212" version="3" timestamp="2009-10-01T15:23:09Z" uid="86259" user="hasse_osm_korinthenkacker" changeset="2701530" lat="53.67557" lon="13.547954">
    <tag k="addr:city" v="Friedland"/>
    <tag k="addr:housenumber" v="2"/>
    <tag k="addr:postcode" v="17098"/>
    <tag k="addr:street" v="Wollweberstraße"/>
    <tag k="asb" v="1"/>
    <tag k="man_made" v="MDF"/>
    <tag k="note:de" v="http://wiki.openstreetmap.org/index.php/DE:DSL_Hauptverteiler"/>
    <tag k="onkz" v="39601"/>
    <tag k="operator" v="Deutsche Telekom AG"/>
    <tag k="source" v="Deutsche Telekom AG"/>
  </node>
  <node id="307215233" version="3" timestamp="2009-10-01T15:23:10Z" uid="86259" user="hasse_osm_korinthenkacker" changeset="2701530" lat="53.650495" lon="13.648773">
    <tag k="addr:city" v="Galenbeck"/>
    <tag k="addr:housenumber" v="1A"/>
    <tag k="addr:postcode" v="17099"/>
    <tag k="addr:street" v="Am Torhaus"/>
    <tag k="asb" v="1"/>
    <tag k="man_made" v="MDF"/>
    <tag k="note:de" v="http://wiki.openstreetmap.org/index.php/DE:DSL_Hauptverteiler"/>
    <tag k="onkz" v="39607"/>
    <tag k="operator" v="Deutsche Telekom AG"/>
    <tag k="source" v="Deutsche Telekom AG"/>
  </node>
  <node id="307215242" version="3" timestamp="2009-10-01T15:23:11Z" uid="86259" user="hasse_osm_korinthenkacker" changeset="2701530" lat="53.74939" lon="13.620451">
    <tag k="addr:city" v="Sarnow"/>
    <tag k="addr:housenumber" v="17"/>
    <tag k="addr:postcode" v="17392"/>
    <tag k="addr:street" v="Anklamer Straße"/>
    <tag k="asb" v="1"/>
    <tag k="man_made" v="MDF"/>
    <tag k="note:de" v="http://wiki.openstreetmap.org/index.php/DE:DSL_Hauptverteiler"/>
    <tag k="onkz" v="39722"/>
    <tag k="operator" v="Deutsche Telekom AG"/>
    <tag k="source" v="Deutsche Telekom AG"/>
  </node>
  <node id="307215251" version="3" timestamp="2009-10-01T15:23:16Z" uid="86259" user="hasse_osm_korinthenkacker" changeset="2701530" lat="53.764633" lon="13.790375">
    <tag k="addr:city" v="Ducherow"/>
    <tag k="addr:housenumber" v="40"/>
    <tag k="addr:postcode" v="17398"/>
    <tag k="addr:street" v="Hauptstraße"/>
    <tag k="asb" v="1"/>
    <tag k="man_made" v="MDF"/>
    <tag k="note:de" v="http://wiki.openstreetmap.org/index.php/DE:DSL_Hauptverteiler"/>
    <tag k="onkz" v="39726"/>
    <tag k="operator" v="Deutsche Telekom AG"/>
    <tag k="source" v="Deutsche Telekom AG"/>
  </node>
  <node id="307215254" version="3" timestamp="2009-10-01T15:23:08Z" uid="86259" user="hasse_osm_korinthenkacker" changeset="2701530" lat="53.775135" lon="13.518882">
    <tag k="addr:city" v="Spantekow"/>
    <tag k="addr:housenumber" v="46"/>
    <tag k="addr:postcode" v="17392"/>
    <tag k="addr:street" v="Burgstraße"/>
    <tag k="asb" v="1"/>
    <tag k="man_made" v="MDF"/>
    <tag k="note:de" v="http://wiki.openstreetmap.org/index.php/DE:DSL_Hauptverteiler"/>
    <tag k="onkz" v="39727"/>
    <tag k="operator" v="Deutsche Telekom AG"/>
    <tag k="source" v="Deutsche Telekom AG"/>
  </node>
  <node id="307215264" version="3" timestamp="2009-09-25T14:51:26Z" uid="36809" user="pfoten_weg_!_" changeset="2620894" lat="53.578757" lon="13.939518">
    <tag k="addr:city" v="Jatznick"/>
    <tag k="addr:housenumber" v="7"/>
    <tag k="addr:postcode" v="17309"/>
    <tag k="addr:street" v="Waldstraße"/>
    <tag k="asb" v="1"/>
    <tag k="man_made" v="MDF"/>
    <tag k="note:de" v="http://wiki.openstreetmap.org/index.php/DE:DSL_Hauptverteiler"/>
    <tag k="onkz" v="39741"/>
    <tag k="operator" v="Deutsche Telekom AG"/>
    <tag k="source" v="Deutsche Telekom AG"/>
  </node>
  <node id="307215270" version="4" timestamp="2009-09-25T14:51:25Z" uid="36809" user="pfoten_weg_!_" changeset="2620894" lat="53.49683" lon="14.09295">
    <tag k="addr:city" v="Zerrenthin"/>
    <tag k="addr:postcode" v="17309"/>
    <tag k="addr:street" v="Dorfstraße"/>
    <tag k="asb" v="1"/>
    <tag k="man_made" v="MDF"/>
    <tag k="note:de" v="http://wiki.openstreetmap.org/index.php/DE:DSL_Hauptverteiler"/>
    <tag k="onkz" v="39743"/>
    <tag k="operator" v="Deutsche Telekom AG"/>
    <tag k="source" v="Deutsche Telekom AG"/>
  </node>
  <node id="307215274" version="4" timestamp="2009-09-25T14:51:25Z" uid="36809" user="pfoten_weg_!_" changeset="2620894" lat="53.516108" lon="14.200631">
    <tag k="addr:city" v="Rothenklempenow"/>
    <tag k="addr:postcode" v="17321"/>
    <tag k="addr:street" v="Am Gutshof"/>
    <tag k="asb" v="1"/>
    <tag k="man_made" v="MDF"/>
    <tag k="note:de" v="http://wiki.openstreetmap.org/index.php/DE:DSL_Hauptverteiler"/>
    <tag k="onkz" v="39744"/>
    <tag k="operator" v="Deutsche Telekom AG"/>
    <tag k="source" v="Deutsche Telekom AG"/>
  </node>
  <node id="307215281" version="3" timestamp="2009-10-08T22:54:08Z" uid="179968" user="Ich_hasse_doitsche_OSM-Korinthenkacker" changeset="2788677" lat="53.341708" lon="14.272061">
    <tag k="addr:city" v="Krackow"/>
    <tag k="addr:housenumber" v="10 A"/>
    <tag k="addr:postcode" v="17329"/>
    <tag k="addr:street" v="Nadrenseer Weg"/>
    <tag k="asb" v="1"/>
    <tag k="man_made" v="MDF"/>
    <tag k="note:de" v="http://wiki.openstreetmap.org/index.php/DE:DSL_Hauptverteiler"/>
    <tag k="onkz" v="39746"/>
    <tag k="operator" v="Deutsche Telekom AG"/>
    <tag k="source" v="Deutsche Telekom AG"/>
  </node>
  <node id="307215289" version="3" timestamp="2009-08-26T14:31:44Z" uid="36809" user="pfoten_weg_!_" changeset="2268156" lat="53.570379" lon="14.064356">
    <tag k="addr:city" v="Viereck"/>
    <tag k="addr:housenumber" v="22 A"/>
    <tag k="addr:postcode" v="17309"/>
    <tag k="addr:street" v="Karl-Marx-Straße"/>
    <tag k="asb" v="1"/>
    <tag k="man_made" v="MDF"/>
    <tag k="note:de" v="http://wiki.openstreetmap.org/index.php/DE:DSL_Hauptverteiler"/>
    <tag k="onkz" v="39748"/>
    <tag k="operator" v="Deutsche Telekom AG"/>
    <tag k="source" v="Deutsche Telekom AG"/>
  </node>
  <node id="307215293" version="3" timestamp="2009-10-08T22:54:55Z" uid="179968" user="Ich_hasse_doitsche_OSM-Korinthenkacker" changeset="2788677" lat="53.410577" lon="14.336001">
    <tag k="addr:city" v="Grambow"/>
    <tag k="addr:housenumber" v="9"/>
    <tag k="addr:postcode" v="17322"/>
    <tag k="addr:street" v="MTS-Weg"/>
    <tag k="asb" v="1"/>
    <tag k="man_made" v="MDF"/>
    <tag k="note:de" v="http://wiki.openstreetmap.org/index.php/DE:DSL_Hauptverteiler"/>
    <tag k="onkz" v="39749"/>
    <tag k="operator" v="Deutsche Telekom AG"/>
    <tag k="source" v="Deutsche Telekom AG"/>
  </node>
  <node id="307215296" version="4" timestamp="2009-10-08T22:54:02Z" uid="179968" user="Ich_hasse_doitsche_OSM-Korinthenkacker" changeset="2788677" lat="53.303433" lon="14.240851">
    <tag k="addr:city" v="Penkun"/>
    <tag k="addr:postcode" v="17328"/>
    <tag k="addr:street" v="Bergstraße"/>
    <tag k="asb" v="1"/>
    <tag k="man_made" v="MDF"/>
    <tag k="note:de" v="http://wiki.openstreetmap.org/index.php/DE:DSL_Hauptverteiler"/>
    <tag k="onkz" v="39751"/>
    <tag k="operator" v="Deutsche Telekom AG"/>
    <tag k="source" v="Deutsche Telekom AG"/>
  </node>
  <node id="307215312" version="4" timestamp="2009-09-25T14:51:41Z" uid="36809" user="pfoten_weg_!_" changeset="2620894" lat="53.725132" lon="14.056379">
    <tag k="addr:city" v="Ueckermünde"/>
    <tag k="addr:postcode" v="17373"/>
    <tag k="addr:street" v="Eggesiner Straße"/>
    <tag k="asb" v="1"/>
    <tag k="man_made" v="MDF"/>
    <tag k="note:de" v="http://wiki.openstreetmap.org/index.php/DE:DSL_Hauptverteiler"/>
    <tag k="onkz" v="39771"/>
    <tag k="operator" v="Deutsche Telekom AG"/>
    <tag k="source" v="Deutsche Telekom AG"/>
  </node>
  <node id="307215316" version="4" timestamp="2009-10-01T15:23:11Z" uid="86259" user="hasse_osm_korinthenkacker" changeset="2701530" lat="53.597394" lon="13.813591">
    <tag k="addr:city" v="Rothemühl"/>
    <tag k="addr:postcode" v="17379"/>
    <tag k="addr:street" v="Waldweg"/>
    <tag k="asb" v="1"/>
    <tag k="man_made" v="MDF"/>
    <tag k="note:de" v="http://wiki.openstreetmap.org/index.php/DE:DSL_Hauptverteiler"/>
    <tag k="onkz" v="39772"/>
    <tag k="operator" v="Deutsche Telekom AG"/>
    <tag k="source" v="Deutsche Telekom AG"/>
  </node>
  <node id="307215320" version="3" timestamp="2009-10-01T15:23:19Z" uid="86259" user="hasse_osm_korinthenkacker" changeset="2701530" lat="53.741523" lon="14.257795">
    <tag k="addr:city" v="Altwarp"/>
    <tag k="addr:housenumber" v="143"/>
    <tag k="addr:postcode" v="17375"/>
    <tag k="addr:street" v="Südstraße"/>
    <tag k="asb" v="1"/>
    <tag k="man_made" v="MDF"/>
    <tag k="note:de" v="http://wiki.openstreetmap.org/index.php/DE:DSL_Hauptverteiler"/>
    <tag k="onkz" v="39773"/>
    <tag k="operator" v="Deutsche Telekom AG"/>
    <tag k="source" v="Deutsche Telekom AG"/>
  </node>
  <node id="307215324" version="3" timestamp="2009-10-01T15:23:18Z" uid="86259" user="hasse_osm_korinthenkacker" changeset="2701530" lat="53.767808" lon="13.967656">
    <tag k="addr:city" v="Mönkebude"/>
    <tag k="addr:housenumber" v="3"/>
    <tag k="addr:postcode" v="17375"/>
    <tag k="addr:street" v="Am Kamp"/>
    <tag k="asb" v="1"/>
    <tag k="man_made" v="MDF"/>
    <tag k="note:de" v="http://wiki.openstreetmap.org/index.php/DE:DSL_Hauptverteiler"/>
    <tag k="onkz" v="39774"/>
    <tag k="operator" v="Deutsche Telekom AG"/>
    <tag k="source" v="Deutsche Telekom AG"/>
  </node>
  <node id="307215329" version="4" timestamp="2009-08-26T15:35:57Z" uid="36809" user="pfoten_weg_!_" changeset="2268740" lat="53.666038" lon="14.18769">
    <tag k="addr:city" v="Ahlbeck"/>
    <tag k="addr:postcode" v="17375"/>
    <tag k="addr:street" v="Dorfstraße"/>
    <tag k="asb" v="1"/>
    <tag k="created_by" v="xybot"/>
    <tag k="man_made" v="MDF"/>
    <tag k="note:de" v="http://wiki.openstreetmap.org/index.php/DE:DSL_Hauptverteiler"/>
    <tag k="onkz" v="39775"/>
    <tag k="operator" v="Deutsche Telekom AG"/>
    <tag k="source" v="Deutsche Telekom AG"/>
  </node>
  <node id="307215333" version="4" timestamp="2009-08-26T15:35:56Z" uid="36809" user="pfoten_weg_!_" changeset="2268740" lat="53.666038" lon="14.18769">
    <tag k="addr:city" v="Ahlbeck"/>
    <tag k="addr:postcode" v="17375"/>
    <tag k="addr:street" v="Dorfstraße"/>
    <tag k="asb" v="1"/>
    <tag k="created_by" v="xybot"/>
    <tag k="man_made" v="MDF"/>
    <tag k="note:de" v="http://wiki.openstreetmap.org/index.php/DE:DSL_Hauptverteiler"/>
    <tag k="onkz" v="39776"/>
    <tag k="operator" v="Deutsche Telekom AG"/>
    <tag k="source" v="Deutsche Telekom AG"/>
  </node>
  <node id="307215337" version="4" timestamp="2009-10-01T15:23:17Z" uid="86259" user="hasse_osm_korinthenkacker" changeset="2701530" lat="53.714578" lon="13.858415">
    <tag k="addr:city" v="Lübs"/>
    <tag k="addr:postcode" v="17379"/>
    <tag k="addr:street" v="Weg nach Neuendorf A"/>
    <tag k="asb" v="1"/>
    <tag k="man_made" v="MDF"/>
    <tag k="note:de" v="http://wiki.openstreetmap.org/index.php/DE:DSL_Hauptverteiler"/>
    <tag k="onkz" v="39777"/>
    <tag k="operator" v="Deutsche Telekom AG"/>
    <tag k="source" v="Deutsche Telekom AG"/>
  </node>
  <node id="307215341" version="3" timestamp="2009-10-01T15:23:17Z" uid="86259" user="hasse_osm_korinthenkacker" changeset="2701530" lat="53.660446" lon="13.899289">
    <tag k="addr:city" v="Ferdinandshof"/>
    <tag k="addr:housenumber" v="63 C"/>
    <tag k="addr:postcode" v="17379"/>
    <tag k="addr:street" v="Pasewalker Straße"/>
    <tag k="asb" v="1"/>
    <tag k="man_made" v="MDF"/>
    <tag k="note:de" v="http://wiki.openstreetmap.org/index.php/DE:DSL_Hauptverteiler"/>
    <tag k="onkz" v="39778"/>
    <tag k="operator" v="Deutsche Telekom AG"/>
    <tag k="source" v="Deutsche Telekom AG"/>
  </node>
  <node id="307215341" version="4" timestamp="2012-03-14T10:28:38Z" uid="621293" user="Kleddi" changeset="10976231" lat="53.660446" lon="13.899289">
    <tag k="addr:city" v="Ferdinandshof"/>
    <tag k="addr:housenumber" v="63 C"/>
    <tag k="addr:postcode" v="17379"/>
    <tag k="addr:street" v="Pasewalker Straße"/>
    <tag k="asb" v="1"/>
    <tag k="leisure" v="playground"/>
    <tag k="man_made" v="MDF"/>
    <tag k="note:de" v="http://wiki.openstreetmap.org/index.php/DE:DSL_Hauptverteiler"/>
    <tag k="onkz" v="39778"/>
    <tag k="operator" v="Deutsche Telekom AG"/>
    <tag k="source" v="Deutsche Telekom AG"/>
  </node>
  <node id="307215345" version="3" timestamp="2009-08-26T14:31:44Z" uid="36809" user="pfoten_weg_!_" changeset="2268156" lat="53.677376" lon="14.085292">
    <tag k="addr:city" v="Eggesin"/>
    <tag k="addr:housenumber" v="1"/>
    <tag k="addr:postcode" v="17367"/>
    <tag k="addr:street" v="Waldstraße"/>
    <tag k="asb" v="1"/>
    <tag k="man_made" v="MDF"/>
    <tag k="note:de" v="http://wiki.openstreetmap.org/index.php/DE:DSL_Hauptverteiler"/>
    <tag k="onkz" v="39779"/>
    <tag k="operator" v="Deutsche Telekom AG"/>
    <tag k="source" v="Deutsche Telekom AG"/>
  </node>
  <node id="307215345" version="4" timestamp="2010-08-25T07:55:04Z" uid="256354" user="thot" changeset="5586950" lat="53.6773938" lon="14.0854705">
    <tag k="addr:city" v="Eggesin"/>
    <tag k="addr:housenumber" v="1"/>
    <tag k="addr:postcode" v="17367"/>
    <tag k="addr:street" v="Waldstraße"/>
    <tag k="asb" v="1"/>
    <tag k="man_made" v="MDF"/>
    <tag k="note:de" v="http://wiki.openstreetmap.org/index.php/DE:DSL_Hauptverteiler"/>
    <tag k="onkz" v="39779"/>
    <tag k="operator" v="Deutsche Telekom AG"/>
    <tag k="source" v="Deutsche Telekom AG"/>
  </node>
  <node id="307215412" version="3" timestamp="2009-11-05T03:15:43Z" uid="36809" user="pfoten_weg_!_" changeset="3037787" lat="53.314843" lon="13.988778">
    <tag k="addr:city" v="Drense"/>
    <tag k="addr:housenumber" v="16"/>
    <tag k="addr:postcode" v="17291"/>
    <tag k="addr:street" v="Ziemkendorfer Straße"/>
    <tag k="asb" v="1"/>
    <tag k="man_made" v="MDF"/>
    <tag k="note:de" v="http://wiki.openstreetmap.org/index.php/DE:DSL_Hauptverteiler"/>
    <tag k="onkz" v="39857"/>
    <tag k="operator" v="Deutsche Telekom AG"/>
    <tag k="source" v="Deutsche Telekom AG"/>
  </node>
  <node id="307215415" version="3" timestamp="2009-11-05T03:14:48Z" uid="36809" user="pfoten_weg_!_" changeset="3037787" lat="53.270375" lon="13.938414">
    <tag k="addr:city" v="Uckerfelde"/>
    <tag k="addr:housenumber" v="21 A"/>
    <tag k="addr:postcode" v="17291"/>
    <tag k="addr:street" v="Chausseestraße"/>
    <tag k="asb" v="1"/>
    <tag k="man_made" v="MDF"/>
    <tag k="note:de" v="http://wiki.openstreetmap.org/index.php/DE:DSL_Hauptverteiler"/>
    <tag k="onkz" v="39858"/>
    <tag k="operator" v="Deutsche Telekom AG"/>
    <tag k="source" v="Deutsche Telekom AG"/>
  </node>
  <node id="307215421" version="4" timestamp="2009-11-05T03:08:53Z" uid="36809" user="pfoten_weg_!_" changeset="3037787" lat="53.2086" lon="14.006548">
    <tag k="addr:city" v="Gramzow"/>
    <tag k="addr:postcode" v="17291"/>
    <tag k="addr:street" v="Prenzlauer Straße"/>
    <tag k="asb" v="1"/>
    <tag k="man_made" v="MDF"/>
    <tag k="note:de" v="http://wiki.openstreetmap.org/index.php/DE:DSL_Hauptverteiler"/>
    <tag k="onkz" v="39861"/>
    <tag k="operator" v="Deutsche Telekom AG"/>
    <tag k="source" v="Deutsche Telekom AG"/>
  </node>
  <node id="307215424" version="3" timestamp="2009-11-05T03:56:39Z" uid="36809" user="pfoten_weg_!_" changeset="3037787" lat="53.298948" lon="14.090399">
    <tag k="addr:city" v="Randowtal"/>
    <tag k="addr:housenumber" v="28"/>
    <tag k="addr:postcode" v="17291"/>
    <tag k="addr:street" v="Schmölln Dorfstraße"/>
    <tag k="asb" v="1"/>
    <tag k="man_made" v="MDF"/>
    <tag k="note:de" v="http://wiki.openstreetmap.org/index.php/DE:DSL_Hauptverteiler"/>
    <tag k="onkz" v="39862"/>
    <tag k="operator" v="Deutsche Telekom AG"/>
    <tag k="source" v="Deutsche Telekom AG"/>
  </node>
  <node id="307215428" version="3" timestamp="2009-11-05T03:04:29Z" uid="36809" user="pfoten_weg_!_" changeset="3037787" lat="53.222504" lon="13.882103">
    <tag k="addr:city" v="Oberuckersee"/>
    <tag k="addr:housenumber" v="1A"/>
    <tag k="addr:postcode" v="17291"/>
    <tag k="addr:street" v="Dorfstraße"/>
    <tag k="asb" v="1"/>
    <tag k="man_made" v="MDF"/>
    <tag k="note:de" v="http://wiki.openstreetmap.org/index.php/DE:DSL_Hauptverteiler"/>
    <tag k="onkz" v="39863"/>
    <tag k="operator" v="Deutsche Telekom AG"/>
    <tag k="source" v="Deutsche Telekom AG"/>
  </node>
  <node id="307215431" version="3" timestamp="2009-05-27T11:32:37Z" uid="53938" user="ctheile" changeset="1333562" lat="53.0611204" lon="13.7165106">
    <tag k="addr:city" v="Temmen-Ringenwalde"/>
    <tag k="addr:housenumber" v="10 A"/>
    <tag k="addr:postcode" v="17268"/>
    <tag k="addr:street" v="Templiner Straße"/>
    <tag k="asb" v="1"/>
    <tag k="man_made" v="MDF"/>
    <tag k="note:de" v="http://wiki.openstreetmap.org/index.php/DE:DSL_Hauptverteiler"/>
    <tag k="onkz" v="39881"/>
    <tag k="operator" v="Deutsche Telekom AG"/>
    <tag k="source" v="Deutsche Telekom AG"/>
  </node>
  <node id="307217307" version="1" timestamp="2008-10-24T23:01:31Z" uid="36809" user="pfoten_weg_!_" changeset="558349" lat="48.0373597" lon="11.5023799"/>
  <node id="307217307" version="2" timestamp="2009-03-31T14:39:00Z" uid="36809" user="pfoten_weg_!_" changeset="872494" lat="48.0373597" lon="11.5023799"/>
  <node id="307217307" version="3" timestamp="2009-04-01T06:10:31Z" uid="5164" user="woodpeck" changeset="41055" lat="48.0373597" lon="11.5023799"/>
  <node id="307217307" version="4" timestamp="2009-04-01T18:29:22Z" uid="36809" user="pfoten_weg_!_" changeset="41839" lat="48.0373597" lon="11.5023799"/>
  <node id="307217307" version="5" timestamp="2009-04-02T17:22:43Z" uid="5164" user="woodpeck" changeset="94633" lat="48.0373597" lon="11.5023799"/>
  <node id="307217307" version="6" timestamp="2009-04-03T14:17:17Z" uid="36809" user="pfoten_weg_!_" changeset="123862" lat="48.0373597" lon="11.5023799"/>
  <node id="307217311" version="1" timestamp="2008-10-24T23:01:31Z" uid="36809" user="pfoten_weg_!_" changeset="558349" lat="48.037192" lon="11.5021754"/>
  <node id="307217311" version="2" timestamp="2009-03-31T14:39:00Z" uid="36809" user="pfoten_weg_!_" changeset="872494" lat="48.037192" lon="11.5021754"/>
  <node id="307217311" version="3" timestamp="2009-04-01T06:10:52Z" uid="5164" user="woodpeck" changeset="41055" lat="48.037192" lon="11.5021754"/>
  <node id="307217311" version="4" timestamp="2009-04-01T18:29:21Z" uid="36809" user="pfoten_weg_!_" changeset="41839" lat="48.037192" lon="11.5021754"/>
  <node id="307217311" version="5" timestamp="2009-04-02T17:22:44Z" uid="5164" user="woodpeck" changeset="94633" lat="48.037192" lon="11.5021754"/>
  <node id="307217311" version="6" timestamp="2009-04-03T14:17:17Z" uid="36809" user="pfoten_weg_!_" changeset="123862" lat="48.037192" lon="11.5021754"/>
  <node id="307217314" version="1" timestamp="2008-10-24T23:01:31Z" uid="36809" user="pfoten_weg_!_" changeset="558349" lat="48.0370553" lon="11.5020017"/>
  <node id="307217314" version="2" timestamp="2009-03-31T14:39:01Z" uid="36809" user="pfoten_weg_!_" changeset="872494" lat="48.0370553" lon="11.5020017"/>
  <node id="307217314" version="3" timestamp="2009-04-01T06:10:52Z" uid="5164" user="woodpeck" changeset="41055" lat="48.0370553" lon="11.5020017"/>
  <node id="307217314" version="4" timestamp="2009-04-01T18:29:22Z" uid="36809" user="pfoten_weg_!_" changeset="41839" lat="48.0370553" lon="11.5020017"/>
  <node id="307217314" version="5" timestamp="2009-04-02T17:22:44Z" uid="5164" user="woodpeck" changeset="94633" lat="48.0370553" lon="11.5020017"/>
  <node id="307217314" version="6" timestamp="2009-04-03T14:17:18Z" uid="36809" user="pfoten_weg_!_" changeset="123862" lat="48.0370553" lon="11.5020017"/>
  <node id="307217318" version="1" timestamp="2008-10-24T23:01:32Z" uid="36809" user="pfoten_weg_!_" changeset="558349" lat="48.0369134" lon="11.5018744"/>
  <node id="307217318" version="2" timestamp="2009-03-31T14:39:01Z" uid="36809" user="pfoten_weg_!_" changeset="872494" lat="48.0369134" lon="11.5018744"/>
  <node id="307217318" version="3" timestamp="2009-04-01T06:10:53Z" uid="5164" user="woodpeck" changeset="41055" lat="48.0369134" lon="11.5018744"/>
  <node id="307217318" version="4" timestamp="2009-04-01T18:29:22Z" uid="36809" user="pfoten_weg_!_" changeset="41839" lat="48.0369134" lon="11.5018744"/>
  <node id="307217318" version="5" timestamp="2009-04-02T17:22:44Z" uid="5164" user="woodpeck" changeset="94633" lat="48.0369134" lon="11.5018744"/>
  <node id="307217318" version="6" timestamp="2009-04-03T14:17:18Z" uid="36809" user="pfoten_weg_!_" changeset="123862" lat="48.0369134" lon="11.5018744"/>
  <node id="307217325" version="1" timestamp="2008-10-24T23:01:32Z" uid="36809" user="pfoten_weg_!_" changeset="558349" lat="48.0368024" lon="11.5018898"/>
  <node id="307217325" version="2" timestamp="2009-03-31T14:39:00Z" uid="36809" user="pfoten_weg_!_" changeset="872494" lat="48.0368024" lon="11.5018898"/>
  <node id="307217325" version="3" timestamp="2009-04-01T06:10:53Z" uid="5164" user="woodpeck" changeset="41055" lat="48.0368024" lon="11.5018898"/>
  <node id="307217325" version="4" timestamp="2009-04-01T18:29:22Z" uid="36809" user="pfoten_weg_!_" changeset="41839" lat="48.0368024" lon="11.5018898"/>
  <node id="307217325" version="5" timestamp="2009-04-02T17:22:45Z" uid="5164" user="woodpeck" changeset="94633" lat="48.0368024" lon="11.5018898"/>
  <node id="307217325" version="6" timestamp="2009-04-03T14:17:17Z" uid="36809" user="pfoten_weg_!_" changeset="123862" lat="48.0368024" lon="11.5018898"/>
  <node id="307217329" version="1" timestamp="2008-10-24T23:01:32Z" uid="36809" user="pfoten_weg_!_" changeset="558349" lat="48.0366012" lon="11.5020364"/>
  <node id="307217329" version="2" timestamp="2009-03-31T14:39:02Z" uid="36809" user="pfoten_weg_!_" changeset="872494" lat="48.0366012" lon="11.5020364"/>
  <node id="307217329" version="3" timestamp="2009-04-01T06:10:53Z" uid="5164" user="woodpeck" changeset="41055" lat="48.0366012" lon="11.5020364"/>
  <node id="307217329" version="4" timestamp="2009-04-01T18:29:23Z" uid="36809" user="pfoten_weg_!_" changeset="41839" lat="48.0366012" lon="11.5020364"/>
  <node id="307217329" version="5" timestamp="2009-04-02T17:22:45Z" uid="5164" user="woodpeck" changeset="94633" lat="48.0366012" lon="11.5020364"/>
  <node id="307217329" version="6" timestamp="2009-04-03T14:17:18Z" uid="36809" user="pfoten_weg_!_" changeset="123862" lat="48.0366012" lon="11.5020364"/>
  <node id="307217334" version="1" timestamp="2008-10-24T23:01:32Z" uid="36809" user="pfoten_weg_!_" changeset="558349" lat="48.036418" lon="11.5022487"/>
  <node id="307217334" version="2" timestamp="2009-03-31T14:39:02Z" uid="36809" user="pfoten_weg_!_" changeset="872494" lat="48.036418" lon="11.5022487"/>
  <node id="307217334" version="3" timestamp="2009-04-01T06:10:39Z" uid="5164" user="woodpeck" changeset="41055" lat="48.036418" lon="11.5022487"/>
  <node id="307217334" version="4" timestamp="2009-04-22T13:12:20Z" uid="8748" user="ToniE" changeset="898441" lat="48.036418" lon="11.5022487"/>
  <node id="307217339" version="1" timestamp="2008-10-24T23:01:32Z" uid="36809" user="pfoten_weg_!_" changeset="558349" lat="48.0362967" lon="11.5024802"/>
  <node id="307217339" version="2" timestamp="2009-03-31T14:39:01Z" uid="36809" user="pfoten_weg_!_" changeset="872494" lat="48.0362967" lon="11.5024802"/>
  <node id="307217339" version="3" timestamp="2009-04-01T06:10:39Z" uid="5164" user="woodpeck" changeset="41055" lat="48.0362967" lon="11.5024802"/>
  <node id="307217339" version="4" timestamp="2009-04-22T13:12:20Z" uid="8748" user="ToniE" changeset="898441" lat="48.0362967" lon="11.5024802"/>
  <node id="307217343" version="1" timestamp="2008-10-24T23:01:33Z" uid="36809" user="pfoten_weg_!_" changeset="558349" lat="48.0362399" lon="11.5027465"/>
  <node id="307217343" version="2" timestamp="2009-03-31T14:39:01Z" uid="36809" user="pfoten_weg_!_" changeset="872494" lat="48.0362399" lon="11.5027465"/>
  <node id="307217343" version="3" timestamp="2009-04-01T06:10:39Z" uid="5164" user="woodpeck" changeset="41055" lat="48.0362399" lon="11.5027465"/>
  <node id="307217343" version="4" timestamp="2009-04-22T13:12:20Z" uid="8748" user="ToniE" changeset="898441" lat="48.0362399" lon="11.5027465"/>
  <node id="307217346" version="1" timestamp="2008-10-24T23:01:33Z" uid="36809" user="pfoten_weg_!_" changeset="558349" lat="48.0362167" lon="11.503005"/>
  <node id="307217346" version="2" timestamp="2009-03-31T14:39:03Z" uid="36809" user="pfoten_weg_!_" changeset="872494" lat="48.0362167" lon="11.503005"/>
  <node id="307217346" version="3" timestamp="2009-04-01T06:10:40Z" uid="5164" user="woodpeck" changeset="41055" lat="48.0362167" lon="11.503005"/>
  <node id="307217346" version="4" timestamp="2009-04-22T13:12:20Z" uid="8748" user="ToniE" changeset="898441" lat="48.0362167" lon="11.503005"/>
  <node id="307217350" version="1" timestamp="2008-10-24T23:01:33Z" uid="36809" user="pfoten_weg_!_" changeset="558349" lat="48.0362477" lon="11.503306"/>
  <node id="307217350" version="2" timestamp="2009-03-31T14:39:03Z" uid="36809" user="pfoten_weg_!_" changeset="872494" lat="48.0362477" lon="11.503306"/>
  <node id="307217350" version="3" timestamp="2009-04-01T06:10:40Z" uid="5164" user="woodpeck" changeset="41055" lat="48.0362477" lon="11.503306"/>
  <node id="307217350" version="4" timestamp="2009-04-22T13:12:20Z" uid="8748" user="ToniE" changeset="898441" lat="48.0362477" lon="11.503306"/>
  <node id="307217356" version="1" timestamp="2008-10-24T23:01:34Z" uid="36809" user="pfoten_weg_!_" changeset="558349" lat="48.0363354" lon="11.5034758"/>
  <node id="307217356" version="2" timestamp="2009-03-31T14:39:02Z" uid="36809" user="pfoten_weg_!_" changeset="872494" lat="48.0363354" lon="11.5034758"/>
  <node id="307217356" version="3" timestamp="2009-04-01T06:10:41Z" uid="5164" user="woodpeck" changeset="41055" lat="48.0363354" lon="11.5034758"/>
  <node id="307217356" version="4" timestamp="2009-04-22T13:12:20Z" uid="8748" user="ToniE" changeset="898441" lat="48.0363354" lon="11.5034758"/>
  <node id="307217362" version="1" timestamp="2008-10-24T23:01:34Z" uid="36809" user="pfoten_weg_!_" changeset="558349" lat="48.0364567" lon="11.5036224"/>
  <node id="307217362" version="2" timestamp="2009-03-31T14:39:04Z" uid="36809" user="pfoten_weg_!_" changeset="872494" lat="48.0364567" lon="11.5036224"/>
  <node id="307217362" version="3" timestamp="2009-04-01T06:10:41Z" uid="5164" user="woodpeck" changeset="41055" lat="48.0364567" lon="11.5036224"/>
  <node id="307217362" version="4" timestamp="2009-04-22T13:12:20Z" uid="8748" user="ToniE" changeset="898441" lat="48.0364567" lon="11.5036224"/>
  <node id="307217364" version="1" timestamp="2008-10-24T23:01:34Z" uid="36809" user="pfoten_weg_!_" changeset="558349" lat="48.0366012" lon="11.5037112"/>
  <node id="307217364" version="2" timestamp="2009-03-31T14:39:04Z" uid="36809" user="pfoten_weg_!_" changeset="872494" lat="48.0366012" lon="11.5037112"/>
  <node id="307217364" version="3" timestamp="2009-04-01T06:10:41Z" uid="5164" user="woodpeck" changeset="41055" lat="48.0366012" lon="11.5037112"/>
  <node id="307217364" version="4" timestamp="2009-04-22T13:12:20Z" uid="8748" user="ToniE" changeset="898441" lat="48.0366012" lon="11.5037112"/>
  <node id="307217367" version="1" timestamp="2008-10-24T23:01:34Z" uid="36809" user="pfoten_weg_!_" changeset="558349" lat="48.0367044" lon="11.5037883"/>
  <node id="307217367" version="2" timestamp="2009-03-31T14:39:04Z" uid="36809" user="pfoten_weg_!_" changeset="872494" lat="48.0367044" lon="11.5037883"/>
  <node id="307217367" version="3" timestamp="2009-04-01T06:10:34Z" uid="5164" user="woodpeck" changeset="41055" lat="48.0367044" lon="11.5037883"/>
  <node id="307217367" version="4" timestamp="2009-04-22T13:12:20Z" uid="8748" user="ToniE" changeset="898441" lat="48.0367044" lon="11.5037883"/>
  <node id="307217370" version="1" timestamp="2008-10-24T23:01:34Z" uid="36809" user="pfoten_weg_!_" changeset="558349" lat="48.0367508" lon="11.5039118"/>
  <node id="307217370" version="2" timestamp="2009-03-31T14:39:03Z" uid="36809" user="pfoten_weg_!_" changeset="872494" lat="48.0367508" lon="11.5039118"/>
  <node id="307217370" version="3" timestamp="2009-04-01T06:10:43Z" uid="5164" user="woodpeck" changeset="41055" lat="48.0367508" lon="11.5039118"/>
  <node id="307217370" version="4" timestamp="2009-04-01T18:29:23Z" uid="36809" user="pfoten_weg_!_" changeset="41839" lat="48.0367508" lon="11.5039118"/>
  <node id="307217370" version="5" timestamp="2009-04-02T17:22:46Z" uid="5164" user="woodpeck" changeset="94633" lat="48.0367508" lon="11.5039118"/>
  <node id="307217370" version="6" timestamp="2009-04-03T14:17:18Z" uid="36809" user="pfoten_weg_!_" changeset="123862" lat="48.0367508" lon="11.5039118"/>
  <node id="307217374" version="1" timestamp="2008-10-24T23:01:35Z" uid="36809" user="pfoten_weg_!_" changeset="558349" lat="48.0368411" lon="11.5040662"/>
  <node id="307217374" version="2" timestamp="2009-03-31T14:39:03Z" uid="36809" user="pfoten_weg_!_" changeset="872494" lat="48.0368411" lon="11.5040662"/>
  <node id="307217374" version="3" timestamp="2009-04-01T06:10:44Z" uid="5164" user="woodpeck" changeset="41055" lat="48.0368411" lon="11.5040662"/>
  <node id="307217374" version="4" timestamp="2009-04-01T18:29:23Z" uid="36809" user="pfoten_weg_!_" changeset="41839" lat="48.0368411" lon="11.5040662"/>
  <node id="307217374" version="5" timestamp="2009-04-02T17:22:46Z" uid="5164" user="woodpeck" changeset="94633" lat="48.0368411" lon="11.5040662"/>
  <node id="307217374" version="6" timestamp="2009-04-03T14:17:18Z" uid="36809" user="pfoten_weg_!_" changeset="123862" lat="48.0368411" lon="11.5040662"/>
  <node id="307217377" version="1" timestamp="2008-10-24T23:01:35Z" uid="36809" user="pfoten_weg_!_" changeset="558349" lat="48.0369676" lon="11.5041742"/>
  <node id="307217377" version="2" timestamp="2009-03-31T14:39:05Z" uid="36809" user="pfoten_weg_!_" changeset="872494" lat="48.0369676" lon="11.5041742"/>
  <node id="307217377" version="3" timestamp="2009-04-01T06:10:44Z" uid="5164" user="woodpeck" changeset="41055" lat="48.0369676" lon="11.5041742"/>
  <node id="307217377" version="4" timestamp="2009-04-01T18:29:23Z" uid="36809" user="pfoten_weg_!_" changeset="41839" lat="48.0369676" lon="11.5041742"/>
  <node id="307217377" version="5" timestamp="2009-04-02T17:22:46Z" uid="5164" user="woodpeck" changeset="94633" lat="48.0369676" lon="11.5041742"/>
  <node id="307217377" version="6" timestamp="2009-04-03T14:17:21Z" uid="36809" user="pfoten_weg_!_" changeset="123862" lat="48.0369676" lon="11.5041742"/>
  <node id="307217380" version="1" timestamp="2008-10-24T23:01:35Z" uid="36809" user="pfoten_weg_!_" changeset="558349" lat="48.037063" lon="11.5041742"/>
  <node id="307217380" version="2" timestamp="2009-03-31T14:39:05Z" uid="36809" user="pfoten_weg_!_" changeset="872494" lat="48.037063" lon="11.5041742"/>
  <node id="307217380" version="3" timestamp="2009-04-01T06:10:45Z" uid="5164" user="woodpeck" changeset="41055" lat="48.037063" lon="11.5041742"/>
  <node id="307217380" version="4" timestamp="2009-04-01T18:29:24Z" uid="36809" user="pfoten_weg_!_" changeset="41839" lat="48.037063" lon="11.5041742"/>
  <node id="307217380" version="5" timestamp="2009-04-02T17:22:47Z" uid="5164" user="woodpeck" changeset="94633" lat="48.037063" lon="11.5041742"/>
  <node id="307217380" version="6" timestamp="2009-04-03T14:17:21Z" uid="36809" user="pfoten_weg_!_" changeset="123862" lat="48.037063" lon="11.5041742"/>
  <node id="307217383" version="1" timestamp="2008-10-24T23:01:36Z" uid="36809" user="pfoten_weg_!_" changeset="558349" lat="48.0371817" lon="11.5040314"/>
  <node id="307217383" version="2" timestamp="2009-03-31T14:39:05Z" uid="36809" user="pfoten_weg_!_" changeset="872494" lat="48.0371817" lon="11.5040314"/>
  <node id="307217383" version="3" timestamp="2009-04-01T06:10:45Z" uid="5164" user="woodpeck" changeset="41055" lat="48.0371817" lon="11.5040314"/>
  <node id="307217383" version="4" timestamp="2009-04-01T18:29:24Z" uid="36809" user="pfoten_weg_!_" changeset="41839" lat="48.0371817" lon="11.5040314"/>
  <node id="307217383" version="5" timestamp="2009-04-02T17:22:47Z" uid="5164" user="woodpeck" changeset="94633" lat="48.0371817" lon="11.5040314"/>
  <node id="307217383" version="6" timestamp="2009-04-03T14:17:22Z" uid="36809" user="pfoten_weg_!_" changeset="123862" lat="48.0371817" lon="11.5040314"/>
  <node id="307217386" version="1" timestamp="2008-10-24T23:01:36Z" uid="36809" user="pfoten_weg_!_" changeset="558349" lat="48.0372952" lon="11.5039002"/>
  <node id="307217386" version="2" timestamp="2009-03-31T14:39:04Z" uid="36809" user="pfoten_weg_!_" changeset="872494" lat="48.0372952" lon="11.5039002"/>
  <node id="307217386" version="3" timestamp="2009-04-01T06:10:46Z" uid="5164" user="woodpeck" changeset="41055" lat="48.0372952" lon="11.5039002"/>
  <node id="307217386" version="4" timestamp="2009-04-01T18:29:23Z" uid="36809" user="pfoten_weg_!_" changeset="41839" lat="48.0372952" lon="11.5039002"/>
  <node id="307217386" version="5" timestamp="2009-04-02T17:22:47Z" uid="5164" user="woodpeck" changeset="94633" lat="48.0372952" lon="11.5039002"/>
  <node id="307217386" version="6" timestamp="2009-04-03T14:17:19Z" uid="36809" user="pfoten_weg_!_" changeset="123862" lat="48.0372952" lon="11.5039002"/>
  <node id="307217389" version="1" timestamp="2008-10-24T23:01:36Z" uid="36809" user="pfoten_weg_!_" changeset="558349" lat="48.0374552" lon="11.5037575"/>
  <node id="307217389" version="2" timestamp="2009-03-31T14:39:04Z" uid="36809" user="pfoten_weg_!_" changeset="872494" lat="48.0374552" lon="11.5037575"/>
  <node id="307217389" version="3" timestamp="2009-04-01T06:10:46Z" uid="5164" user="woodpeck" changeset="41055" lat="48.0374552" lon="11.5037575"/>
  <node id="307217389" version="4" timestamp="2009-04-01T18:29:23Z" uid="36809" user="pfoten_weg_!_" changeset="41839" lat="48.0374552" lon="11.5037575"/>
  <node id="307217389" version="5" timestamp="2009-04-02T17:22:48Z" uid="5164" user="woodpeck" changeset="94633" lat="48.0374552" lon="11.5037575"/>
  <node id="307217389" version="6" timestamp="2009-04-03T14:17:19Z" uid="36809" user="pfoten_weg_!_" changeset="123862" lat="48.0374552" lon="11.5037575"/>
  <node id="307217393" version="1" timestamp="2008-10-24T23:01:36Z" uid="36809" user="pfoten_weg_!_" changeset="558349" lat="48.0376203" lon="11.5036263"/>
  <node id="307217393" version="2" timestamp="2009-03-31T14:39:06Z" uid="36809" user="pfoten_weg_!_" changeset="872494" lat="48.0376203" lon="11.5036263"/>
  <node id="307217393" version="3" timestamp="2009-04-01T06:10:47Z" uid="5164" user="woodpeck" changeset="41055" lat="48.0376203" lon="11.5036263"/>
  <node id="307217393" version="4" timestamp="2009-04-01T18:29:25Z" uid="36809" user="pfoten_weg_!_" changeset="41839" lat="48.0376203" lon="11.5036263"/>
  <node id="307217393" version="5" timestamp="2009-04-02T17:22:48Z" uid="5164" user="woodpeck" changeset="94633" lat="48.0376203" lon="11.5036263"/>
  <node id="307217393" version="6" timestamp="2009-04-03T14:17:22Z" uid="36809" user="pfoten_weg_!_" changeset="123862" lat="48.0376203" lon="11.5036263"/>
  <node id="307217397" version="1" timestamp="2008-10-24T23:01:36Z" uid="36809" user="pfoten_weg_!_" changeset="558349" lat="48.0377803" lon="11.5035066"/>
  <node id="307217397" version="2" timestamp="2009-03-31T14:39:06Z" uid="36809" user="pfoten_weg_!_" changeset="872494" lat="48.0377803" lon="11.5035066"/>
  <node id="307217397" version="3" timestamp="2009-04-01T06:10:47Z" uid="5164" user="woodpeck" changeset="41055" lat="48.0377803" lon="11.5035066"/>
  <node id="307217397" version="4" timestamp="2009-04-01T18:29:25Z" uid="36809" user="pfoten_weg_!_" changeset="41839" lat="48.0377803" lon="11.5035066"/>
  <node id="307217397" version="5" timestamp="2009-04-02T17:22:49Z" uid="5164" user="woodpeck" changeset="94633" lat="48.0377803" lon="11.5035066"/>
  <node id="307217397" version="6" timestamp="2009-04-03T14:17:23Z" uid="36809" user="pfoten_weg_!_" changeset="123862" lat="48.0377803" lon="11.5035066"/>
  <node id="307217400" version="1" timestamp="2008-10-24T23:01:37Z" uid="36809" user="pfoten_weg_!_" changeset="558349" lat="48.037997" lon="11.5033137"/>
  <node id="307217400" version="2" timestamp="2009-03-31T14:39:05Z" uid="36809" user="pfoten_weg_!_" changeset="872494" lat="48.037997" lon="11.5033137"/>
  <node id="307217400" version="3" timestamp="2009-04-01T06:10:48Z" uid="5164" user="woodpeck" changeset="41055" lat="48.037997" lon="11.5033137"/>
  <node id="307217400" version="4" timestamp="2009-04-01T18:29:24Z" uid="36809" user="pfoten_weg_!_" changeset="41839" lat="48.037997" lon="11.5033137"/>
  <node id="307217400" version="5" timestamp="2009-04-02T17:22:49Z" uid="5164" user="woodpeck" changeset="94633" lat="48.037997" lon="11.5033137"/>
  <node id="307217400" version="6" timestamp="2009-04-03T14:17:22Z" uid="36809" user="pfoten_weg_!_" changeset="123862" lat="48.037997" lon="11.5033137"/>
  <node id="307217403" version="1" timestamp="2008-10-24T23:01:37Z" uid="36809" user="pfoten_weg_!_" changeset="558349" lat="48.0381415" lon="11.5031015"/>
  <node id="307217403" version="2" timestamp="2009-03-31T14:39:05Z" uid="36809" user="pfoten_weg_!_" changeset="872494" lat="48.0381415" lon="11.5031015"/>
  <node id="307217403" version="3" timestamp="2009-04-01T06:10:48Z" uid="5164" user="woodpeck" changeset="41055" lat="48.0381415" lon="11.5031015"/>
  <node id="307217403" version="4" timestamp="2009-04-01T18:29:24Z" uid="36809" user="pfoten_weg_!_" changeset="41839" lat="48.0381415" lon="11.5031015"/>
  <node id="307217403" version="5" timestamp="2009-04-02T17:22:49Z" uid="5164" user="woodpeck" changeset="94633" lat="48.0381415" lon="11.5031015"/>
  <node id="307217403" version="6" timestamp="2009-04-03T14:17:22Z" uid="36809" user="pfoten_weg_!_" changeset="123862" lat="48.0381415" lon="11.5031015"/>
  <node id="307217406" version="1" timestamp="2008-10-24T23:01:37Z" uid="36809" user="pfoten_weg_!_" changeset="558349" lat="48.0382551" lon="11.5028699"/>
  <node id="307217406" version="2" timestamp="2009-03-31T14:39:06Z" uid="36809" user="pfoten_weg_!_" changeset="872494" lat="48.0382551" lon="11.5028699"/>
  <node id="307217406" version="3" timestamp="2009-04-01T06:10:48Z" uid="5164" user="woodpeck" changeset="41055" lat="48.0382551" lon="11.5028699"/>
  <node id="307217406" version="4" timestamp="2009-04-01T18:29:24Z" uid="36809" user="pfoten_weg_!_" changeset="41839" lat="48.0382551" lon="11.5028699"/>
  <node id="307217406" version="5" timestamp="2009-04-02T17:22:50Z" uid="5164" user="woodpeck" changeset="94633" lat="48.0382551" lon="11.5028699"/>
  <node id="307217406" version="6" timestamp="2009-04-03T14:17:22Z" uid="36809" user="pfoten_weg_!_" changeset="123862" lat="48.0382551" lon="11.5028699"/>
  <node id="307217409" version="1" timestamp="2008-10-24T23:01:37Z" uid="36809" user="pfoten_weg_!_" changeset="558349" lat="48.0383041" lon="11.5027233"/>
  <node id="307217409" version="2" timestamp="2009-03-31T14:38:54Z" uid="36809" user="pfoten_weg_!_" changeset="872494" lat="48.0383041" lon="11.5027233"/>
  <node id="307217409" version="3" timestamp="2011-06-03T19:22:30Z" uid="42393" user="mawi42" changeset="8332714" lat="48.0382863" lon="11.5027804"/>
  <node id="307217412" version="1" timestamp="2008-10-24T23:01:37Z" uid="36809" user="pfoten_weg_!_" changeset="558349" lat="48.0368215" lon="11.5035792"/>
  <node id="307217412" version="2" timestamp="2009-03-31T14:39:09Z" uid="36809" user="pfoten_weg_!_" changeset="872494" lat="48.0368215" lon="11.5035792"/>
  <node id="307217412" version="3" timestamp="2009-04-01T06:10:35Z" uid="5164" user="woodpeck" changeset="41055" lat="48.0368215" lon="11.5035792"/>
  <node id="307217412" version="4" timestamp="2009-04-22T13:12:20Z" uid="8748" user="ToniE" changeset="898441" lat="48.0368215" lon="11.5035792"/>
  <node id="307217416" version="1" timestamp="2008-10-24T23:01:38Z" uid="36809" user="pfoten_weg_!_" changeset="558349" lat="48.0369763" lon="11.5033693"/>
  <node id="307217416" version="2" timestamp="2009-03-31T14:39:08Z" uid="36809" user="pfoten_weg_!_" changeset="872494" lat="48.0369763" lon="11.5033693"/>
  <node id="307217416" version="3" timestamp="2009-04-01T06:10:35Z" uid="5164" user="woodpeck" changeset="41055" lat="48.0369763" lon="11.5033693"/>
  <node id="307217416" version="4" timestamp="2009-04-22T13:12:20Z" uid="8748" user="ToniE" changeset="898441" lat="48.0369763" lon="11.5033693"/>
  <node id="307217420" version="1" timestamp="2008-10-24T23:01:38Z" uid="36809" user="pfoten_weg_!_" changeset="558349" lat="48.0371621" lon="11.5031439"/>
  <node id="307217420" version="2" timestamp="2009-03-31T14:39:09Z" uid="36809" user="pfoten_weg_!_" changeset="872494" lat="48.0371621" lon="11.5031439"/>
  <node id="307217420" version="3" timestamp="2009-04-01T06:10:36Z" uid="5164" user="woodpeck" changeset="41055" lat="48.0371621" lon="11.5031439"/>
  <node id="307217420" version="4" timestamp="2009-04-22T13:12:20Z" uid="8748" user="ToniE" changeset="898441" lat="48.0371621" lon="11.5031439"/>
  <node id="307217425" version="1" timestamp="2008-10-24T23:01:38Z" uid="36809" user="pfoten_weg_!_" changeset="558349" lat="48.0373087" lon="11.5029371"/>
  <node id="307217425" version="2" timestamp="2009-03-31T14:39:08Z" uid="36809" user="pfoten_weg_!_" changeset="872494" lat="48.0373087" lon="11.5029371"/>
  <node id="307217425" version="3" timestamp="2009-04-01T06:10:36Z" uid="5164" user="woodpeck" changeset="41055" lat="48.0373087" lon="11.5029371"/>
  <node id="307217425" version="4" timestamp="2009-04-22T13:12:20Z" uid="8748" user="ToniE" changeset="898441" lat="48.0373087" lon="11.5029371"/>
  <node id="307217430" version="1" timestamp="2008-10-24T23:01:39Z" uid="36809" user="pfoten_weg_!_" changeset="558349" lat="48.0373499" lon="11.502758"/>
  <node id="307217430" version="2" timestamp="2009-03-31T14:39:08Z" uid="36809" user="pfoten_weg_!_" changeset="872494" lat="48.0373499" lon="11.502758"/>
  <node id="307217430" version="3" timestamp="2009-04-01T06:10:29Z" uid="5164" user="woodpeck" changeset="41055" lat="48.0373499" lon="11.502758"/>
  <node id="307217430" version="4" timestamp="2009-04-22T13:12:20Z" uid="8748" user="ToniE" changeset="898441" lat="48.0373499" lon="11.502758"/>
  <node id="307217435" version="1" timestamp="2008-10-24T23:01:39Z" uid="36809" user="pfoten_weg_!_" changeset="558349" lat="48.0374676" lon="11.502579"/>
  <node id="307217435" version="2" timestamp="2009-03-31T14:39:08Z" uid="36809" user="pfoten_weg_!_" changeset="872494" lat="48.0374676" lon="11.502579"/>
  <node id="307217435" version="3" timestamp="2009-04-01T06:10:30Z" uid="5164" user="woodpeck" changeset="41055" lat="48.0374676" lon="11.502579"/>
  <node id="307217435" version="4" timestamp="2009-04-01T18:29:27Z" uid="36809" user="pfoten_weg_!_" changeset="41839" lat="48.0374676" lon="11.502579"/>
  <node id="307217435" version="5" timestamp="2009-04-02T17:22:50Z" uid="5164" user="woodpeck" changeset="94633" lat="48.0374676" lon="11.502579"/>
  <node id="307217435" version="6" timestamp="2009-04-03T14:17:37Z" uid="36809" user="pfoten_weg_!_" changeset="123862" lat="48.0374676" lon="11.502579"/>
  <node id="307217441" version="1" timestamp="2008-10-24T23:01:39Z" uid="36809" user="pfoten_weg_!_" changeset="558349" lat="48.0373396" lon="11.502616"/>
  <node id="307217441" version="2" timestamp="2009-03-31T14:39:07Z" uid="36809" user="pfoten_weg_!_" changeset="872494" lat="48.0373396" lon="11.502616"/>
  <node id="307217441" version="3" timestamp="2009-04-01T06:10:32Z" uid="5164" user="woodpeck" changeset="41055" lat="48.0373396" lon="11.502616"/>
  <node id="307217441" version="4" timestamp="2009-04-01T18:29:27Z" uid="36809" user="pfoten_weg_!_" changeset="41839" lat="48.0373396" lon="11.502616"/>
  <node id="307217441" version="5" timestamp="2009-04-02T17:22:50Z" uid="5164" user="woodpeck" changeset="94633" lat="48.0373396" lon="11.502616"/>
  <node id="307217441" version="6" timestamp="2009-04-03T14:17:36Z" uid="36809" user="pfoten_weg_!_" changeset="123862" lat="48.0373396" lon="11.502616"/>
  <node id="307217446" version="1" timestamp="2008-10-24T23:01:39Z" uid="36809" user="pfoten_weg_!_" changeset="558349" lat="48.0372566" lon="11.5024751"/>
  <node id="307217446" version="2" timestamp="2009-03-31T14:39:08Z" uid="36809" user="pfoten_weg_!_" changeset="872494" lat="48.0372566" lon="11.5024751"/>
  <node id="307217446" version="3" timestamp="2009-04-01T06:10:32Z" uid="5164" user="woodpeck" changeset="41055" lat="48.0372566" lon="11.5024751"/>
  <node id="307217446" version="4" timestamp="2009-04-01T18:29:27Z" uid="36809" user="pfoten_weg_!_" changeset="41839" lat="48.0372566" lon="11.5024751"/>
  <node id="307217446" version="5" timestamp="2009-04-02T17:22:51Z" uid="5164" user="woodpeck" changeset="94633" lat="48.0372566" lon="11.5024751"/>
  <node id="307217446" version="6" timestamp="2009-04-03T14:17:37Z" uid="36809" user="pfoten_weg_!_" changeset="123862" lat="48.0372566" lon="11.5024751"/>
  <node id="307217449" version="1" timestamp="2008-10-24T23:01:39Z" uid="36809" user="pfoten_weg_!_" changeset="558349" lat="48.0372405" lon="11.5022209"/>
  <node id="307217449" version="2" timestamp="2009-03-31T14:39:07Z" uid="36809" user="pfoten_weg_!_" changeset="872494" lat="48.0372405" lon="11.5022209"/>
  <node id="307217449" version="3" timestamp="2009-04-01T06:10:32Z" uid="5164" user="woodpeck" changeset="41055" lat="48.0372405" lon="11.5022209"/>
  <node id="307217449" version="4" timestamp="2009-04-01T18:29:26Z" uid="36809" user="pfoten_weg_!_" changeset="41839" lat="48.0372405" lon="11.5022209"/>
  <node id="307217449" version="5" timestamp="2009-04-02T17:22:51Z" uid="5164" user="woodpeck" changeset="94633" lat="48.0372405" lon="11.5022209"/>
  <node id="307217449" version="6" timestamp="2009-04-03T14:17:36Z" uid="36809" user="pfoten_weg_!_" changeset="123862" lat="48.0372405" lon="11.5022209"/>
  <node id="307217453" version="1" timestamp="2008-10-24T23:01:39Z" uid="36809" user="pfoten_weg_!_" changeset="558349" lat="48.0374401" lon="11.5024641"/>
  <node id="307217453" version="2" timestamp="2009-03-31T14:39:07Z" uid="36809" user="pfoten_weg_!_" changeset="872494" lat="48.0374401" lon="11.5024641"/>
  <node id="307217453" version="3" timestamp="2009-04-01T06:10:31Z" uid="5164" user="woodpeck" changeset="41055" lat="48.0374401" lon="11.5024641"/>
  <node id="307217453" version="4" timestamp="2009-04-01T18:29:27Z" uid="36809" user="pfoten_weg_!_" changeset="41839" lat="48.0374401" lon="11.5024641"/>
  <node id="307217453" version="5" timestamp="2009-04-02T17:22:52Z" uid="5164" user="woodpeck" changeset="94633" lat="48.0374401" lon="11.5024641"/>
  <node id="307217453" version="6" timestamp="2009-04-03T14:17:36Z" uid="36809" user="pfoten_weg_!_" changeset="123862" lat="48.0374401" lon="11.5024641"/>
  <node id="307217456" version="1" timestamp="2008-10-24T23:01:40Z" uid="36809" user="pfoten_weg_!_" changeset="558349" lat="48.0374011" lon="11.5026402"/>
  <node id="307217456" version="2" timestamp="2009-03-31T14:39:06Z" uid="36809" user="pfoten_weg_!_" changeset="872494" lat="48.0374011" lon="11.5026402"/>
  <node id="307217456" version="3" timestamp="2009-04-01T06:10:30Z" uid="5164" user="woodpeck" changeset="41055" lat="48.0374011" lon="11.5026402"/>
  <node id="307217456" version="4" timestamp="2009-04-01T18:29:26Z" uid="36809" user="pfoten_weg_!_" changeset="41839" lat="48.0374011" lon="11.5026402"/>
  <node id="307217456" version="5" timestamp="2009-04-02T17:22:53Z" uid="5164" user="woodpeck" changeset="94633" lat="48.0374011" lon="11.5026402"/>
  <node id="307217456" version="6" timestamp="2009-04-03T14:17:35Z" uid="36809" user="pfoten_weg_!_" changeset="123862" lat="48.0374011" lon="11.5026402"/>
  <node id="307217459" version="1" timestamp="2008-10-24T23:01:40Z" uid="36809" user="pfoten_weg_!_" changeset="558349" lat="48.037685" lon="11.5026131"/>
  <node id="307217459" version="2" timestamp="2009-01-09T22:20:30Z" uid="90746" user="sport_rob" changeset="764677" lat="48.037685" lon="11.5026131"/>
  <node id="307217459" version="3" timestamp="2009-02-08T00:39:18Z" uid="36809" user="pfoten_weg_!_" changeset="277400" lat="48.037685" lon="11.5026131"/>
  <node id="307217459" version="4" timestamp="2009-03-20T21:41:31Z" uid="5164" user="woodpeck" changeset="839312" lat="48.037685" lon="11.5026131"/>
  <node id="307217459" version="5" timestamp="2009-03-22T03:47:30Z" uid="36809" user="pfoten_weg_!_" changeset="843843" lat="48.037685" lon="11.5026131"/>
  <node id="307217459" version="6" timestamp="2009-03-25T16:28:33Z" uid="5164" user="woodpeck" changeset="857476" lat="48.037685" lon="11.5026131"/>
  <node id="307217459" version="7" timestamp="2009-03-27T15:21:18Z" uid="8748" user="ToniE" changeset="862943" lat="48.037685" lon="11.5026131"/>
  <node id="307217463" version="1" timestamp="2008-10-24T23:01:40Z" uid="36809" user="pfoten_weg_!_" changeset="558349" lat="48.0373446" lon="11.5029336"/>
  <node id="307217463" version="2" timestamp="2009-01-09T22:20:30Z" uid="90746" user="sport_rob" changeset="764677" lat="48.0373446" lon="11.5029336"/>
  <node id="307217463" version="3" timestamp="2009-02-08T00:39:19Z" uid="36809" user="pfoten_weg_!_" changeset="277400" lat="48.0373446" lon="11.5029336"/>
  <node id="307217463" version="4" timestamp="2009-03-20T21:41:31Z" uid="5164" user="woodpeck" changeset="839312" lat="48.0373446" lon="11.5029336"/>
  <node id="307217463" version="5" timestamp="2009-03-22T03:47:30Z" uid="36809" user="pfoten_weg_!_" changeset="843843" lat="48.0373446" lon="11.5029336"/>
  <node id="307217463" version="6" timestamp="2009-03-25T16:28:34Z" uid="5164" user="woodpeck" changeset="857476" lat="48.0373446" lon="11.5029336"/>
  <node id="307217463" version="7" timestamp="2009-03-27T15:21:10Z" uid="8748" user="ToniE" changeset="862943" lat="48.0373446" lon="11.5029336">
    <tag k="created_by" v="RambaZamba"/>
    <tag k="source" v="survey"/>
  </node>
  <node id="307217463" version="8" timestamp="2009-03-30T21:04:28Z" uid="36809" user="pfoten_weg_!_" changeset="871597" lat="48.0373446" lon="11.5029336">
    <tag k="created_by" v="RambaZamba"/>
    <tag k="source" v="survey"/>
  </node>
  <node id="307217463" version="9" timestamp="2009-04-01T13:12:36Z" uid="5164" user="woodpeck" changeset="41055" lat="48.0373446" lon="11.5029336"/>
  <node id="307217463" version="10" timestamp="2009-05-03T00:44:47Z" uid="36809" user="pfoten_weg_!_" changeset="1055310" lat="48.0373143" lon="11.5029404"/>
  <node id="307217463" version="11" timestamp="2009-06-09T08:56:48Z" uid="36809" user="pfoten_weg_!_" changeset="1466365" lat="48.0373143" lon="11.5029404">
    <tag k="created_by" v="RambaZamba"/>
  </node>
  <node id="307217463" version="12" timestamp="2009-08-12T13:32:35Z" uid="156995" user="HampelZamba" changeset="2118817" lat="48.0373143" lon="11.5029404"/>
  <node id="307217463" version="13" timestamp="2009-08-25T23:46:16Z" uid="36809" user="pfoten_weg_!_" changeset="2262648" lat="48.0373143" lon="11.5029404"/>
  <node id="307217463" version="14" timestamp="2009-08-26T00:50:47Z" uid="36809" user="pfoten_weg_!_" changeset="2262879" lat="48.0373143" lon="11.5029404"/>
  <node id="307217463" version="15" timestamp="2012-02-12T13:52:09Z" uid="342705" user="KLMB" changeset="10663134" lat="48.0373143" lon="11.5029404"/>
  <node id="307217466" version="1" timestamp="2008-10-24T23:01:40Z" uid="36809" user="pfoten_weg_!_" changeset="558349" lat="48.0376083" lon="11.5024229"/>
  <node id="307217466" version="2" timestamp="2009-01-09T22:20:29Z" uid="90746" user="sport_rob" changeset="764677" lat="48.0376083" lon="11.5024229"/>
  <node id="307217466" version="3" timestamp="2009-02-08T00:39:17Z" uid="36809" user="pfoten_weg_!_" changeset="277400" lat="48.0376083" lon="11.5024229"/>
  <node id="307217466" version="4" timestamp="2009-03-20T21:41:32Z" uid="5164" user="woodpeck" changeset="839312" lat="48.0376083" lon="11.5024229"/>
  <node id="307217466" version="5" timestamp="2009-03-22T03:47:30Z" uid="36809" user="pfoten_weg_!_" changeset="843843" lat="48.0376083" lon="11.5024229"/>
  <node id="307217466" version="6" timestamp="2009-03-25T16:28:35Z" uid="5164" user="woodpeck" changeset="857476" lat="48.0376083" lon="11.5024229"/>
  <node id="307217466" version="7" timestamp="2009-03-27T15:21:18Z" uid="8748" user="ToniE" changeset="862943" lat="48.0376083" lon="11.5024229"/>
  <node id="307217479" version="1" timestamp="2008-10-24T23:01:41Z" uid="36809" user="pfoten_weg_!_" changeset="558349" lat="48.0372888" lon="11.5022207"/>
  <node id="307217479" version="2" timestamp="2009-01-09T22:20:29Z" uid="90746" user="sport_rob" changeset="764677" lat="48.0372888" lon="11.5022207"/>
  <node id="307217479" version="3" timestamp="2009-02-08T00:39:17Z" uid="36809" user="pfoten_weg_!_" changeset="277400" lat="48.0372888" lon="11.5022207"/>
  <node id="307217479" version="4" timestamp="2009-03-20T21:41:32Z" uid="5164" user="woodpeck" changeset="839312" lat="48.0372888" lon="11.5022207"/>
  <node id="307217479" version="5" timestamp="2009-03-22T03:47:30Z" uid="36809" user="pfoten_weg_!_" changeset="843843" lat="48.0372888" lon="11.5022207"/>
  <node id="307217479" version="6" timestamp="2009-03-25T16:28:35Z" uid="5164" user="woodpeck" changeset="857476" lat="48.0372888" lon="11.5022207"/>
  <node id="307217479" version="7" timestamp="2009-03-27T15:21:10Z" uid="8748" user="ToniE" changeset="862943" lat="48.0372888" lon="11.5022207">
    <tag k="created_by" v="RambaZamba"/>
    <tag k="source" v="survey"/>
  </node>
  <node id="307217479" version="8" timestamp="2009-03-30T21:04:29Z" uid="36809" user="pfoten_weg_!_" changeset="871597" lat="48.0372888" lon="11.5022207">
    <tag k="created_by" v="RambaZamba"/>
    <tag k="source" v="survey"/>
  </node>
  <node id="307217479" version="9" timestamp="2009-04-01T15:08:48Z" uid="5164" user="woodpeck" changeset="41055" lat="48.0372888" lon="11.5022207"/>
  <node id="307217479" version="10" timestamp="2009-05-03T00:44:47Z" uid="36809" user="pfoten_weg_!_" changeset="1055310" lat="48.0372585" lon="11.5022275"/>
  <node id="307217479" version="11" timestamp="2009-06-09T08:56:49Z" uid="36809" user="pfoten_weg_!_" changeset="1466365" lat="48.0372585" lon="11.5022275">
    <tag k="created_by" v="RambaZamba"/>
  </node>
  <node id="307217479" version="12" timestamp="2009-08-12T13:32:35Z" uid="156995" user="HampelZamba" changeset="2118817" lat="48.0372585" lon="11.5022275"/>
  <node id="307217479" version="13" timestamp="2009-08-25T23:46:18Z" uid="36809" user="pfoten_weg_!_" changeset="2262648" lat="48.0372585" lon="11.5022275"/>
  <node id="307217479" version="14" timestamp="2009-08-26T00:50:49Z" uid="36809" user="pfoten_weg_!_" changeset="2262879" lat="48.0372585" lon="11.5022275"/>
  <node id="307217479" version="15" timestamp="2012-02-12T13:52:09Z" uid="342705" user="KLMB" changeset="10663134" lat="48.0372585" lon="11.5022275"/>
  <node id="307217482" version="1" timestamp="2008-10-24T23:01:41Z" uid="36809" user="pfoten_weg_!_" changeset="558349" lat="48.0373192" lon="11.5026656"/>
  <node id="307217482" version="2" timestamp="2009-01-09T22:20:30Z" uid="90746" user="sport_rob" changeset="764677" lat="48.0373192" lon="11.5026656"/>
  <node id="307217482" version="3" timestamp="2009-02-08T00:39:17Z" uid="36809" user="pfoten_weg_!_" changeset="277400" lat="48.0373192" lon="11.5026656"/>
  <node id="307217482" version="4" timestamp="2009-03-20T21:41:33Z" uid="5164" user="woodpeck" changeset="839312" lat="48.0373192" lon="11.5026656"/>
  <node id="307217482" version="5" timestamp="2009-03-22T03:47:30Z" uid="36809" user="pfoten_weg_!_" changeset="843843" lat="48.0373192" lon="11.5026656"/>
  <node id="307217482" version="6" timestamp="2009-03-25T16:28:36Z" uid="5164" user="woodpeck" changeset="857476" lat="48.0373192" lon="11.5026656"/>
  <node id="307217482" version="7" timestamp="2009-03-27T15:21:10Z" uid="8748" user="ToniE" changeset="862943" lat="48.0373192" lon="11.5026656">
    <tag k="created_by" v="RambaZamba"/>
    <tag k="source" v="survey"/>
  </node>
  <node id="307217482" version="8" timestamp="2009-03-30T21:04:29Z" uid="36809" user="pfoten_weg_!_" changeset="871597" lat="48.0373192" lon="11.5026656">
    <tag k="created_by" v="RambaZamba"/>
    <tag k="source" v="survey"/>
  </node>
  <node id="307217482" version="9" timestamp="2009-04-02T22:49:42Z" uid="5164" user="woodpeck" changeset="94633" lat="48.0373192" lon="11.5026656"/>
  <node id="307217482" version="10" timestamp="2009-05-03T00:44:48Z" uid="36809" user="pfoten_weg_!_" changeset="1055310" lat="48.0372889" lon="11.5026724"/>
  <node id="307217482" version="11" timestamp="2009-06-09T08:56:49Z" uid="36809" user="pfoten_weg_!_" changeset="1466365" lat="48.0372889" lon="11.5026724">
    <tag k="created_by" v="RambaZamba"/>
  </node>
  <node id="307217482" version="12" timestamp="2009-08-12T13:32:35Z" uid="156995" user="HampelZamba" changeset="2118817" lat="48.0372889" lon="11.5026724"/>
  <node id="307217482" version="13" timestamp="2009-08-25T23:46:19Z" uid="36809" user="pfoten_weg_!_" changeset="2262648" lat="48.0372889" lon="11.5026724"/>
  <node id="307217482" version="14" timestamp="2009-08-26T00:50:49Z" uid="36809" user="pfoten_weg_!_" changeset="2262879" lat="48.0372889" lon="11.5026724"/>
  <node id="307217482" version="15" timestamp="2012-02-12T13:52:10Z" uid="342705" user="KLMB" changeset="10663134" lat="48.0372889" lon="11.5026724"/>
  <node id="307217485" version="1" timestamp="2008-10-24T23:01:41Z" uid="36809" user="pfoten_weg_!_" changeset="558349" lat="48.0372246" lon="11.5024963"/>
  <node id="307217485" version="2" timestamp="2009-01-09T22:20:30Z" uid="90746" user="sport_rob" changeset="764677" lat="48.0372246" lon="11.5024963"/>
  <node id="307217485" version="3" timestamp="2009-02-08T00:39:16Z" uid="36809" user="pfoten_weg_!_" changeset="277400" lat="48.0372246" lon="11.5024963"/>
  <node id="307217485" version="4" timestamp="2009-03-20T21:41:33Z" uid="5164" user="woodpeck" changeset="839312" lat="48.0372246" lon="11.5024963"/>
  <node id="307217485" version="5" timestamp="2009-03-22T03:47:30Z" uid="36809" user="pfoten_weg_!_" changeset="843843" lat="48.0372246" lon="11.5024963"/>
  <node id="307217485" version="6" timestamp="2009-03-25T16:28:36Z" uid="5164" user="woodpeck" changeset="857476" lat="48.0372246" lon="11.5024963"/>
  <node id="307217485" version="7" timestamp="2009-03-27T15:21:10Z" uid="8748" user="ToniE" changeset="862943" lat="48.0372246" lon="11.5024963">
    <tag k="created_by" v="RambaZamba"/>
    <tag k="source" v="survey"/>
  </node>
  <node id="307217485" version="8" timestamp="2009-03-30T21:04:30Z" uid="36809" user="pfoten_weg_!_" changeset="871597" lat="48.0372246" lon="11.5024963">
    <tag k="created_by" v="RambaZamba"/>
    <tag k="source" v="survey"/>
  </node>
  <node id="307217485" version="9" timestamp="2009-04-04T06:41:16Z" uid="5164" user="woodpeck" changeset="176514" lat="48.0372246" lon="11.5024963"/>
  <node id="307217485" version="10" timestamp="2009-05-03T00:44:48Z" uid="36809" user="pfoten_weg_!_" changeset="1055310" lat="48.0371943" lon="11.5025031"/>
  <node id="307217485" version="11" timestamp="2009-06-09T08:56:49Z" uid="36809" user="pfoten_weg_!_" changeset="1466365" lat="48.0371943" lon="11.5025031">
    <tag k="created_by" v="RambaZamba"/>
  </node>
  <node id="307217485" version="12" timestamp="2009-08-12T13:32:35Z" uid="156995" user="HampelZamba" changeset="2118817" lat="48.0371943" lon="11.5025031"/>
  <node id="307217485" version="13" timestamp="2009-08-25T23:46:20Z" uid="36809" user="pfoten_weg_!_" changeset="2262648" lat="48.0371943" lon="11.5025031"/>
  <node id="307217485" version="14" timestamp="2009-08-26T00:50:49Z" uid="36809" user="pfoten_weg_!_" changeset="2262879" lat="48.0371943" lon="11.5025031"/>
  <node id="307217485" version="15" timestamp="2012-02-12T13:52:10Z" uid="342705" user="KLMB" changeset="10663134" lat="48.0371943" lon="11.5025031"/>
  <node id="307217489" version="1" timestamp="2008-10-24T23:01:41Z" uid="36809" user="pfoten_weg_!_" changeset="558349" lat="48.037446" lon="11.5026758"/>
  <node id="307217489" version="2" timestamp="2009-01-09T22:20:30Z" uid="90746" user="sport_rob" changeset="764677" lat="48.037446" lon="11.5026758"/>
  <node id="307217489" version="3" timestamp="2009-02-08T00:39:16Z" uid="36809" user="pfoten_weg_!_" changeset="277400" lat="48.037446" lon="11.5026758"/>
  <node id="307217489" version="4" timestamp="2009-03-20T21:41:33Z" uid="5164" user="woodpeck" changeset="839312" lat="48.037446" lon="11.5026758"/>
  <node id="307217489" version="5" timestamp="2009-03-22T03:47:29Z" uid="36809" user="pfoten_weg_!_" changeset="843843" lat="48.037446" lon="11.5026758"/>
  <node id="307217489" version="6" timestamp="2009-03-25T16:28:37Z" uid="5164" user="woodpeck" changeset="857476" lat="48.037446" lon="11.5026758"/>
  <node id="307217489" version="7" timestamp="2009-03-27T15:21:18Z" uid="8748" user="ToniE" changeset="862943" lat="48.037446" lon="11.5026758"/>
  <node id="307217494" version="1" timestamp="2008-10-24T23:01:42Z" uid="36809" user="pfoten_weg_!_" changeset="558349" lat="48.0385336" lon="11.5033998"/>
  <node id="307217498" version="1" timestamp="2008-10-24T23:01:42Z" uid="36809" user="pfoten_weg_!_" changeset="558349" lat="48.0384539" lon="11.5033234"/>
  <node id="307217501" version="1" timestamp="2008-10-24T23:01:42Z" uid="36809" user="pfoten_weg_!_" changeset="558349" lat="48.0391098" lon="11.5035032"/>
  <node id="307217501" version="2" timestamp="2011-06-03T19:22:30Z" uid="42393" user="mawi42" changeset="8332714" lat="48.0391047" lon="11.5035269"/>
  <node id="307217505" version="1" timestamp="2008-10-24T23:01:42Z" uid="36809" user="pfoten_weg_!_" changeset="558349" lat="48.0391169" lon="11.5036193"/>
  <node id="307217508" version="1" timestamp="2008-10-24T23:01:42Z" uid="36809" user="pfoten_weg_!_" changeset="558349" lat="48.0390975" lon="11.503775"/>
  <node id="307217511" version="1" timestamp="2008-10-24T23:01:42Z" uid="36809" user="pfoten_weg_!_" changeset="558349" lat="48.0391063" lon="11.5038911"/>
  <node id="307217511" version="2" timestamp="2011-06-03T19:33:43Z" uid="42393" user="mawi42" changeset="8332830" lat="48.0391323" lon="11.5039126"/>
  <node id="307217516" version="1" timestamp="2008-10-24T23:01:43Z" uid="36809" user="pfoten_weg_!_" changeset="558349" lat="48.0392633" lon="11.5040336"/>
  <node id="307217516" version="2" timestamp="2011-06-03T19:33:45Z" uid="42393" user="mawi42" changeset="8332830" lat="48.0392633" lon="11.5040336"/>
  <node id="307217520" version="1" timestamp="2008-10-24T23:01:43Z" uid="36809" user="pfoten_weg_!_" changeset="558349" lat="48.0395385" lon="11.5043317"/>
  <node id="307217520" version="2" timestamp="2011-06-03T19:33:42Z" uid="42393" user="mawi42" changeset="8332830" lat="48.0395995" lon="11.5043348"/>
  <node id="307217524" version="1" timestamp="2008-10-24T23:01:43Z" uid="36809" user="pfoten_weg_!_" changeset="558349" lat="48.0396303" lon="11.5043423"/>
  <node id="307217524" version="2" timestamp="2011-06-03T19:33:42Z" uid="42393" user="mawi42" changeset="8332830" lat="48.0396759" lon="11.5043893"/>
  <node id="307217528" version="1" timestamp="2008-10-24T23:01:43Z" uid="36809" user="pfoten_weg_!_" changeset="558349" lat="48.0397467" lon="11.5043396"/>
  <node id="307217531" version="1" timestamp="2008-10-24T23:01:43Z" uid="36809" user="pfoten_weg_!_" changeset="558349" lat="48.0417098" lon="11.5066884"/>
  <node id="307217531" version="2" timestamp="2009-05-03T01:34:45Z" uid="36809" user="pfoten_weg_!_" changeset="1055426" lat="48.0417098" lon="11.5066884">
    <tag k="created_by" v="RambaZamba"/>
    <tag k="source" v="survey"/>
  </node>
  <node id="307217531" version="3" timestamp="2009-08-12T13:32:35Z" uid="156995" user="HampelZamba" changeset="2118817" lat="48.0417098" lon="11.5066884">
    <tag k="source" v="survey"/>
  </node>
  <node id="307217531" version="4" timestamp="2009-08-25T23:46:21Z" uid="36809" user="pfoten_weg_!_" changeset="2262648" lat="48.0417098" lon="11.5066884">
    <tag k="source" v="survey"/>
  </node>
  <node id="307217531" version="5" timestamp="2009-08-26T00:50:50Z" uid="36809" user="pfoten_weg_!_" changeset="2262879" lat="48.0417098" lon="11.5066884">
    <tag k="source" v="survey"/>
  </node>
  <node id="307217531" version="6" timestamp="2009-10-11T23:36:43Z" uid="36809" user="pfoten_weg_!_" changeset="2821194" lat="48.0417098" lon="11.5066884"/>
  <node id="307217531" version="7" timestamp="2011-06-03T19:33:42Z" uid="42393" user="mawi42" changeset="8332830" lat="48.0417181" lon="11.5066653"/>
  <node id="307217536" version="1" timestamp="2008-10-24T23:01:43Z" uid="36809" user="pfoten_weg_!_" changeset="558349" lat="48.0421606" lon="11.5055085"/>
  <node id="307217536" version="2" timestamp="2009-05-03T01:34:45Z" uid="36809" user="pfoten_weg_!_" changeset="1055426" lat="48.0421606" lon="11.5055085">
    <tag k="created_by" v="RambaZamba"/>
    <tag k="source" v="survey"/>
  </node>
  <node id="307217536" version="3" timestamp="2009-08-12T13:32:35Z" uid="156995" user="HampelZamba" changeset="2118817" lat="48.0421606" lon="11.5055085">
    <tag k="source" v="survey"/>
  </node>
  <node id="307217536" version="4" timestamp="2009-08-25T23:46:22Z" uid="36809" user="pfoten_weg_!_" changeset="2262648" lat="48.0421606" lon="11.5055085">
    <tag k="source" v="survey"/>
  </node>
  <node id="307217536" version="5" timestamp="2009-08-26T00:50:50Z" uid="36809" user="pfoten_weg_!_" changeset="2262879" lat="48.0421606" lon="11.5055085">
    <tag k="source" v="survey"/>
  </node>
  <node id="307217536" version="6" timestamp="2009-10-12T20:54:57Z" uid="36809" user="pfoten_weg_!_" changeset="2830922" lat="48.0421606" lon="11.5055085"/>
  <node id="307217539" version="1" timestamp="2008-10-24T23:01:44Z" uid="36809" user="pfoten_weg_!_" changeset="558349" lat="48.0410766" lon="11.5060917"/>
  <node id="307217539" version="2" timestamp="2009-01-09T22:20:30Z" uid="90746" user="sport_rob" changeset="764677" lat="48.0410766" lon="11.5060917"/>
  <node id="307217539" version="3" timestamp="2009-02-08T00:39:15Z" uid="36809" user="pfoten_weg_!_" changeset="277400" lat="48.0410766" lon="11.5060917"/>
  <node id="307217539" version="4" timestamp="2009-03-20T21:41:34Z" uid="5164" user="woodpeck" changeset="839312" lat="48.0410766" lon="11.5060917"/>
  <node id="307217539" version="5" timestamp="2009-03-22T03:47:29Z" uid="36809" user="pfoten_weg_!_" changeset="843843" lat="48.0410766" lon="11.5060917"/>
  <node id="307217539" version="6" timestamp="2009-03-25T16:28:37Z" uid="5164" user="woodpeck" changeset="857476" lat="48.0410766" lon="11.5060917"/>
  <node id="307217539" version="7" timestamp="2009-03-27T15:21:11Z" uid="8748" user="ToniE" changeset="862943" lat="48.0410766" lon="11.5060917">
    <tag k="created_by" v="RambaZamba"/>
    <tag k="source" v="survey"/>
  </node>
  <node id="307217539" version="8" timestamp="2009-03-30T21:04:47Z" uid="36809" user="pfoten_weg_!_" changeset="871597" lat="48.0410766" lon="11.5060917">
    <tag k="created_by" v="RambaZamba"/>
    <tag k="source" v="survey"/>
  </node>
  <node id="307217539" version="9" timestamp="2009-04-02T14:12:19Z" uid="5164" user="woodpeck" changeset="94633" lat="48.0410766" lon="11.5060917"/>
  <node id="307217539" version="10" timestamp="2009-05-03T00:44:48Z" uid="36809" user="pfoten_weg_!_" changeset="1055310" lat="48.0410463" lon="11.5060985"/>
  <node id="307217539" version="11" timestamp="2009-05-03T01:34:36Z" uid="36809" user="pfoten_weg_!_" changeset="1055426" lat="48.0410463" lon="11.5060985">
    <tag k="created_by" v="RambaZamba"/>
    <tag k="source" v="survey"/>
  </node>
  <node id="307217539" version="12" timestamp="2009-08-12T13:32:35Z" uid="156995" user="HampelZamba" changeset="2118817" lat="48.0410463" lon="11.5060985">
    <tag k="source" v="survey"/>
  </node>
  <node id="307217539" version="13" timestamp="2009-08-19T13:21:29Z" uid="36809" user="pfoten_weg_!_" changeset="2201154" lat="48.0410463" lon="11.5060985">
    <tag k="source" v="survey at RambaZamba"/>
  </node>
  <node id="307217539" version="14" timestamp="2009-08-28T19:40:57Z" uid="156995" user="HampelZamba" changeset="2294580" lat="48.0410463" lon="11.5060985"/>
  <node id="307217539" version="15" timestamp="2009-08-31T20:56:24Z" uid="36809" user="pfoten_weg_!_" changeset="2331411" lat="48.0410463" lon="11.5060985"/>
  <node id="307217539" version="16" timestamp="2012-02-12T13:52:10Z" uid="342705" user="KLMB" changeset="10663134" lat="48.0410463" lon="11.5060985"/>
  <node id="307217543" version="1" timestamp="2008-10-24T23:01:44Z" uid="36809" user="pfoten_weg_!_" changeset="558349" lat="48.0412717" lon="11.5064682"/>
  <node id="307217543" version="2" timestamp="2009-01-09T22:20:30Z" uid="90746" user="sport_rob" changeset="764677" lat="48.0412717" lon="11.5064682"/>
  <node id="307217543" version="3" timestamp="2009-02-08T00:39:16Z" uid="36809" user="pfoten_weg_!_" changeset="277400" lat="48.0412717" lon="11.5064682"/>
  <node id="307217543" version="4" timestamp="2009-03-20T21:41:34Z" uid="5164" user="woodpeck" changeset="839312" lat="48.0412717" lon="11.5064682"/>
  <node id="307217543" version="5" timestamp="2009-03-22T03:47:29Z" uid="36809" user="pfoten_weg_!_" changeset="843843" lat="48.0412717" lon="11.5064682"/>
  <node id="307217543" version="6" timestamp="2009-03-25T16:28:38Z" uid="5164" user="woodpeck" changeset="857476" lat="48.0412717" lon="11.5064682"/>
  <node id="307217543" version="7" timestamp="2009-03-27T15:21:10Z" uid="8748" user="ToniE" changeset="862943" lat="48.0412834" lon="11.5065597">
    <tag k="created_by" v="RambaZamba"/>
    <tag k="source" v="survey"/>
  </node>
  <node id="307217543" version="8" timestamp="2009-03-30T21:04:46Z" uid="36809" user="pfoten_weg_!_" changeset="871597" lat="48.0412834" lon="11.5065597">
    <tag k="created_by" v="RambaZamba"/>
    <tag k="source" v="survey"/>
  </node>
  <node id="307217543" version="9" timestamp="2009-04-04T04:29:33Z" uid="5164" user="woodpeck" changeset="176514" lat="48.0412834" lon="11.5065597">
    <tag k="created_by" v="RambaZamba"/>
    <tag k="source" v="survey"/>
  </node>
  <node id="307217543" version="10" timestamp="2009-05-03T00:44:48Z" uid="36809" user="pfoten_weg_!_" changeset="1055310" lat="48.0412531" lon="11.5065665">
    <tag k="created_by" v="RambaZamba"/>
    <tag k="source" v="survey"/>
  </node>
  <node id="307217543" version="11" timestamp="2009-08-12T13:32:35Z" uid="156995" user="HampelZamba" changeset="2118817" lat="48.0412531" lon="11.5065665">
    <tag k="source" v="survey"/>
  </node>
  <node id="307217543" version="12" timestamp="2009-08-19T13:21:28Z" uid="36809" user="pfoten_weg_!_" changeset="2201154" lat="48.0412531" lon="11.5065665">
    <tag k="source" v="survey at RambaZamba"/>
  </node>
  <node id="307217543" version="13" timestamp="2009-08-28T19:40:57Z" uid="156995" user="HampelZamba" changeset="2294580" lat="48.0412531" lon="11.5065665"/>
  <node id="307217543" version="14" timestamp="2009-08-31T20:56:24Z" uid="36809" user="pfoten_weg_!_" changeset="2331411" lat="48.0412531" lon="11.5065665"/>
  <node id="307217543" version="15" timestamp="2012-02-12T13:52:10Z" uid="342705" user="KLMB" changeset="10663134" lat="48.0412531" lon="11.5065665"/>
  <node id="307217546" version="1" timestamp="2008-10-24T23:01:44Z" uid="36809" user="pfoten_weg_!_" changeset="558349" lat="48.0388889" lon="11.5033022"/>
  <node id="307217546" version="2" timestamp="2009-01-09T22:20:30Z" uid="90746" user="sport_rob" changeset="764677" lat="48.0388889" lon="11.5033022"/>
  <node id="307217546" version="3" timestamp="2009-02-08T00:39:16Z" uid="36809" user="pfoten_weg_!_" changeset="277400" lat="48.0388889" lon="11.5033022"/>
  <node id="307217546" version="4" timestamp="2009-03-20T21:41:35Z" uid="5164" user="woodpeck" changeset="839312" lat="48.0388889" lon="11.5033022"/>
  <node id="307217546" version="5" timestamp="2009-03-22T03:47:29Z" uid="36809" user="pfoten_weg_!_" changeset="843843" lat="48.0388889" lon="11.5033022"/>
  <node id="307217546" version="6" timestamp="2009-03-25T16:28:39Z" uid="5164" user="woodpeck" changeset="857476" lat="48.0388889" lon="11.5033022"/>
  <node id="307217546" version="7" timestamp="2009-03-27T15:21:18Z" uid="8748" user="ToniE" changeset="862943" lat="48.0388889" lon="11.5033022"/>
</osm>
