<?xml version='1.0' encoding='UTF-8'?>
<osm version="0.6" generator="libosmium/2.20.0">
  <node id="309420514" version="1" timestamp="2008-11-02T15:51:16Z" uid="3451" user="sascha_silbe" changeset="658554" lat="48.5110072" lon="9.0758898">
    <tag k="addr:housenumber" v="25"/>
    <tag k="source" v="knowledge"/>
  </node>
  <node id="309420514" version="2" timestamp="2011-03-03T20:21:23Z" uid="351497" user="hkoertel" changeset="7449227" lat="48.5110042" lon="9.075901">
    <tag k="addr:housenumber" v="25"/>
    <tag k="source" v="knowledge"/>
  </node>
  <node id="309420516" version="1" timestamp="2008-11-02T15:51:16Z" uid="3451" user="sascha_silbe" changeset="658554" lat="48.5110547" lon="9.0756614">
    <tag k="addr:housenumber" v="23"/>
    <tag k="name" v="La Mancha"/>
    <tag k="source" v="knowledge"/>
  </node>
  <node id="309420516" version="2" timestamp="2009-01-09T20:45:18Z" uid="38525" user="robberknight" changeset="763169" lat="48.5110547" lon="9.0756614">
    <tag k="addr:housenumber" v="23"/>
    <tag k="amenity" v="restaurant"/>
    <tag k="name" v="La Mancha"/>
    <tag k="source" v="knowledge"/>
  </node>
  <node id="309420516" version="3" timestamp="2010-11-07T09:43:49Z" uid="290680" user="wheelmap_visitor" changeset="6308379" lat="48.5110547" lon="9.0756614">
    <tag k="addr:housenumber" v="23"/>
    <tag k="amenity" v="restaurant"/>
    <tag k="name" v="La Mancha"/>
    <tag k="source" v="knowledge"/>
    <tag k="wheelchair" v="limited"/>
  </node>
  <node id="309420516" version="4" timestamp="2011-03-03T20:21:24Z" uid="351497" user="hkoertel" changeset="7449227" lat="48.5110517" lon="9.0756726">
    <tag k="addr:housenumber" v="23"/>
    <tag k="amenity" v="restaurant"/>
    <tag k="name" v="La Mancha"/>
    <tag k="source" v="knowledge"/>
    <tag k="wheelchair" v="limited"/>
  </node>
  <node id="309420517" version="1" timestamp="2008-11-02T15:51:16Z" uid="3451" user="sascha_silbe" changeset="658554" lat="48.5111105" lon="9.0753969">
    <tag k="addr:housenumber" v="21"/>
    <tag k="name" v="Fotostudio Klatt"/>
    <tag k="source" v="knowledge"/>
    <tag k="website" v="http://www.fotostudio-klatt.de/"/>
  </node>
  <node id="309420517" version="2" timestamp="2011-03-03T20:21:23Z" uid="351497" user="hkoertel" changeset="7449227" lat="48.5111014" lon="9.0754116">
    <tag k="addr:housenumber" v="21"/>
    <tag k="name" v="Fotostudio Klatt"/>
    <tag k="source" v="knowledge"/>
    <tag k="website" v="http://www.fotostudio-klatt.de/"/>
  </node>
  <node id="309421063" version="3" timestamp="2010-07-29T09:33:48Z" uid="74617" user="JohnSmith" changeset="5344848" lat="53.8725828" lon="10.7484511">
    <tag k="amenity" v="emergency_phone"/>
    <tag k="emergency" v="phone"/>
  </node>
  <node id="309421063" version="4" timestamp="2012-02-04T15:19:25Z" uid="331559" user="vhl" changeset="10585179" lat="53.8725635" lon="10.7485391">
    <tag k="amenity" v="emergency_phone"/>
    <tag k="emergency" v="phone"/>
  </node>
  <node id="309421350" version="1" timestamp="2008-11-02T15:56:02Z" uid="3451" user="sascha_silbe" changeset="658554" lat="48.4968688" lon="9.2133936">
    <tag k="addr:housenumber" v="30"/>
  </node>
  <node id="309421350" version="2" timestamp="2009-11-20T17:19:18Z" uid="117953" user="joe_d5" changeset="3170076" lat="48.4968919" lon="9.2133471">
    <tag k="addr:housenumber" v="30"/>
  </node>
  <node id="309421350" version="3" timestamp="2010-03-06T07:02:58Z" uid="117953" user="joe_d5" changeset="4046975" lat="48.4965931" lon="9.2129372">
    <tag k="addr:housenumber" v="30"/>
  </node>
  <node id="309421350" version="4" timestamp="2010-11-11T19:45:00Z" uid="116642" user="Johannes69" changeset="6346252" lat="48.4965931" lon="9.2129372">
    <tag k="addr:country" v="DE"/>
    <tag k="addr:housenumber" v="30"/>
  </node>
  <node id="309421350" version="5" timestamp="2012-03-05T17:20:33Z" uid="548288" user="WayneSchlegel" changeset="10881791" lat="48.4965931" lon="9.2129372"/>
  <node id="309421874" version="2" timestamp="2010-05-21T15:58:58Z" uid="256927" user="Timo Müller" changeset="4767287" lat="49.4077489" lon="8.6863221">
    <tag k="addr:city" v="Heidelberg"/>
    <tag k="addr:country" v="DE"/>
    <tag k="addr:housenumber" v="69"/>
    <tag k="addr:street" v="Bergheimer Straße"/>
    <tag k="amenity" v="public_building"/>
    <tag k="name" v="Bürgeramt, Amt für öffentliche Ordnung, Ausgleichsamt, Ausländerrat/Migrationsrat"/>
  </node>
  <node id="309421874" version="3" timestamp="2010-06-19T19:01:59Z" uid="160164" user="mahau" changeset="5026902" lat="49.4077131" lon="8.6863855">
    <tag k="addr:city" v="Heidelberg"/>
    <tag k="addr:country" v="DE"/>
    <tag k="addr:housenumber" v="69"/>
    <tag k="addr:street" v="Bergheimer Straße"/>
    <tag k="amenity" v="public_building"/>
    <tag k="name" v="Bürgeramt, Amt für öffentliche Ordnung, Ausgleichsamt, Ausländerrat/Migrationsrat"/>
  </node>
  <node id="309421874" version="4" timestamp="2010-06-19T19:18:33Z" uid="160164" user="mahau" changeset="5027044" lat="49.4076636" lon="8.6864909">
    <tag k="addr:city" v="Heidelberg"/>
    <tag k="addr:country" v="DE"/>
    <tag k="addr:housenumber" v="69"/>
    <tag k="addr:street" v="Bergheimer Straße"/>
    <tag k="amenity" v="public_building"/>
    <tag k="name" v="Bürgeramt, Amt für öffentliche Ordnung, Ausgleichsamt, Ausländerrat/Migrationsrat"/>
  </node>
  <node id="309421874" version="5" timestamp="2010-11-11T07:22:57Z" uid="290680" user="wheelmap_visitor" changeset="6341475" lat="49.4076636" lon="8.6864909">
    <tag k="addr:city" v="Heidelberg"/>
    <tag k="addr:country" v="DE"/>
    <tag k="addr:housenumber" v="69"/>
    <tag k="addr:street" v="Bergheimer Straße"/>
    <tag k="amenity" v="public_building"/>
    <tag k="name" v="Bürgeramt, Amt für öffentliche Ordnung, Ausgleichsamt, Ausländerrat/Migrationsrat"/>
    <tag k="wheelchair" v="yes"/>
  </node>
  <node id="309421874" version="6" timestamp="2011-01-27T17:53:05Z" uid="55945" user="xeen" changeset="7105809" lat="49.4076636" lon="8.6864909">
    <tag k="addr:city" v="Heidelberg"/>
    <tag k="addr:country" v="DE"/>
    <tag k="addr:housenumber" v="69"/>
    <tag k="addr:street" v="Bergheimer Straße"/>
    <tag k="amenity" v="public_building"/>
    <tag k="name" v="Bürgeramt, Amt für öffentliche Ordnung, Ausgleichsamt, Ausländerrat/Migrationsrat"/>
    <tag k="wheelchair" v="yes"/>
  </node>
  <node id="309425241" version="3" timestamp="2009-03-28T18:00:30Z" uid="58091" user="Andreas M" changeset="865858" lat="48.2168258" lon="16.3931641"/>
  <node id="309425241" version="4" timestamp="2009-12-12T11:00:43Z" uid="58091" user="Andreas M" changeset="3354816" lat="48.2167769" lon="16.393246"/>
  <node id="309425242" version="3" timestamp="2009-03-28T18:05:47Z" uid="58091" user="Andreas M" changeset="865858" lat="48.2163402" lon="16.3940782"/>
  <node id="309425281" version="2" timestamp="2009-01-01T14:21:50Z" uid="6975" user="ulfl" changeset="699648" lat="48.822521" lon="9.9325641">
    <tag k="name" v="MH"/>
    <tag k="shop" v="bicycle"/>
  </node>
  <node id="309425281" version="3" timestamp="2009-07-13T16:35:08Z" uid="76840" user="GerdausLautern" changeset="1818735" lat="48.8218069" lon="9.9325338">
    <tag k="name" v="MH"/>
    <tag k="shop" v="motorbike"/>
  </node>
  <node id="309425281" version="4" timestamp="2010-09-20T21:45:28Z" uid="65148" user="Pirat Michi" changeset="5833288" lat="48.8218069" lon="9.9325338">
    <tag k="name" v="MH"/>
    <tag k="shop" v="motorcycle"/>
  </node>
  <node id="309427000" version="1" timestamp="2008-11-02T16:15:03Z" uid="67142" user="zottel" changeset="657092" lat="48.8496274" lon="8.6997063">
    <tag k="construction_date" v="1782"/>
    <tag k="historic" v="well"/>
    <tag k="name" v="Bechtbrunnen"/>
  </node>
  <node id="309427000" version="2" timestamp="2012-02-06T10:49:22Z" uid="442210" user="dwausr" changeset="10601734" lat="48.8496274" lon="8.6997063"/>
  <node id="309427004" version="1" timestamp="2008-11-02T16:15:03Z" uid="67142" user="zottel" changeset="657092" lat="48.8496684" lon="8.6997123">
    <tag k="amenity" v="park_bench"/>
  </node>
  <node id="309427004" version="2" timestamp="2008-12-21T01:04:47Z" uid="64482" user="Claas Augner" changeset="512587" lat="48.8496684" lon="8.6997123">
    <tag k="amenity" v="bench"/>
  </node>
  <node id="309427004" version="3" timestamp="2012-02-06T10:49:32Z" uid="442210" user="dwausr" changeset="10601734" lat="48.8496684" lon="8.6997123"/>
  <node id="309427006" version="1" timestamp="2008-11-02T16:15:03Z" uid="67142" user="zottel" changeset="657092" lat="48.8497319" lon="8.6996937">
    <tag k="amenity" v="grit_bin"/>
  </node>
  <node id="309427006" version="2" timestamp="2012-02-06T10:49:33Z" uid="442210" user="dwausr" changeset="10601734" lat="48.8497319" lon="8.6996937"/>
  <node id="309427009" version="1" timestamp="2008-11-02T16:15:04Z" uid="67142" user="zottel" changeset="657092" lat="48.849207" lon="8.6996354"/>
  <node id="309427009" version="2" timestamp="2011-11-21T09:27:19Z" uid="442210" user="dwausr" changeset="9894787" lat="48.849207" lon="8.6996354"/>
  <node id="309427011" version="1" timestamp="2008-11-02T16:15:04Z" uid="67142" user="zottel" changeset="657092" lat="48.8477169" lon="8.6974477"/>
  <node id="309427011" version="2" timestamp="2009-08-31T10:56:33Z" uid="63384" user="iaby" changeset="2324766" lat="48.8473909" lon="8.6972602"/>
  <node id="309427011" version="3" timestamp="2011-11-21T09:27:19Z" uid="442210" user="dwausr" changeset="9894787" lat="48.8473909" lon="8.6972602"/>
  <node id="309427015" version="1" timestamp="2008-11-02T16:15:04Z" uid="67142" user="zottel" changeset="657092" lat="48.8477001" lon="8.6974362"/>
  <node id="309427015" version="2" timestamp="2009-08-31T10:56:33Z" uid="63384" user="iaby" changeset="2324766" lat="48.8462563" lon="8.6966623"/>
  <node id="309427015" version="3" timestamp="2011-11-21T09:27:20Z" uid="442210" user="dwausr" changeset="9894787" lat="48.8462563" lon="8.6966623"/>
  <node id="309427016" version="1" timestamp="2008-11-02T16:15:05Z" uid="67142" user="zottel" changeset="657092" lat="48.8476857" lon="8.6974134"/>
  <node id="309427016" version="2" timestamp="2009-08-31T10:56:33Z" uid="63384" user="iaby" changeset="2324766" lat="48.8446847" lon="8.6960746"/>
  <node id="309427016" version="3" timestamp="2011-11-21T09:27:20Z" uid="442210" user="dwausr" changeset="9894787" lat="48.8446847" lon="8.6960746"/>
  <node id="309427018" version="1" timestamp="2008-11-02T16:15:05Z" uid="67142" user="zottel" changeset="657092" lat="48.8484222" lon="8.6953221">
    <tag k="amenity" v="grit_bin"/>
  </node>
  <node id="309427019" version="1" timestamp="2008-11-02T16:15:05Z" uid="67142" user="zottel" changeset="657092" lat="48.8489993" lon="8.6957615"/>
  <node id="309427019" version="2" timestamp="2011-11-21T09:27:20Z" uid="442210" user="dwausr" changeset="9894787" lat="48.8489993" lon="8.6957615"/>
  <node id="309427020" version="1" timestamp="2008-11-02T16:15:05Z" uid="67142" user="zottel" changeset="657092" lat="48.8489864" lon="8.6956402"/>
  <node id="309427021" version="1" timestamp="2008-11-02T16:15:06Z" uid="67142" user="zottel" changeset="657092" lat="48.8510736" lon="8.6986824">
    <tag k="amenity" v="grit_bin"/>
  </node>
  <node id="309427021" version="2" timestamp="2012-02-06T11:48:48Z" uid="442210" user="dwausr" changeset="10602140" lat="48.8510736" lon="8.6986824"/>
  <node id="309427022" version="1" timestamp="2008-11-02T16:15:06Z" uid="67142" user="zottel" changeset="657092" lat="48.8510936" lon="8.6986016">
    <tag k="bus_lines" v="4;42;742"/>
    <tag k="highway" v="bus_stop"/>
    <tag k="name" v="Am Schönblick"/>
    <tag k="operator" v="SVP;Schuhmacher"/>
    <tag k="shelter" v="yes"/>
  </node>
  <node id="309427022" version="2" timestamp="2009-02-03T23:04:36Z" uid="64482" user="Claas Augner" changeset="118420" lat="48.8510936" lon="8.6986016">
    <tag k="bus_lines" v="4;42;742"/>
    <tag k="highway" v="bus_stop"/>
    <tag k="name" v="Am Schönblick"/>
    <tag k="operator" v="SVP;Schuhmacher"/>
    <tag k="shelter" v="yes"/>
    <tag k="uic_ref" v="940283"/>
  </node>
  <node id="309427022" version="3" timestamp="2011-10-10T19:36:54Z" uid="290680" user="wheelmap_visitor" changeset="9518514" lat="48.8510936" lon="8.6986016">
    <tag k="bus_lines" v="4;42;742"/>
    <tag k="highway" v="bus_stop"/>
    <tag k="name" v="Am Schönblick"/>
    <tag k="operator" v="SVP;Schuhmacher"/>
    <tag k="shelter" v="yes"/>
    <tag k="uic_ref" v="940283"/>
    <tag k="wheelchair" v="limited"/>
  </node>
  <node id="309427022" version="4" timestamp="2012-02-06T11:48:45Z" uid="442210" user="dwausr" changeset="10602140" lat="48.8510936" lon="8.6986016"/>
  <node id="309427025" version="1" timestamp="2008-11-02T16:15:06Z" uid="67142" user="zottel" changeset="657092" lat="48.8510997" lon="8.6984263">
    <tag k="bus_lines" v="742"/>
    <tag k="highway" v="bus_stop"/>
    <tag k="name" v="Am Schönblick"/>
    <tag k="operator" v="Schuhmacher"/>
  </node>
  <node id="309427025" version="2" timestamp="2009-02-03T23:04:35Z" uid="64482" user="Claas Augner" changeset="118420" lat="48.8510997" lon="8.6984263">
    <tag k="bus_lines" v="742"/>
    <tag k="highway" v="bus_stop"/>
    <tag k="name" v="Am Schönblick"/>
    <tag k="operator" v="Schuhmacher"/>
    <tag k="uic_ref" v="940283"/>
  </node>
  <node id="309427025" version="3" timestamp="2011-10-10T19:35:53Z" uid="290680" user="wheelmap_visitor" changeset="9518514" lat="48.8510997" lon="8.6984263">
    <tag k="bus_lines" v="742"/>
    <tag k="highway" v="bus_stop"/>
    <tag k="name" v="Am Schönblick"/>
    <tag k="operator" v="Schuhmacher"/>
    <tag k="uic_ref" v="940283"/>
    <tag k="wheelchair" v="no"/>
  </node>
  <node id="309427025" version="4" timestamp="2012-02-06T11:48:45Z" uid="442210" user="dwausr" changeset="10602140" lat="48.8510997" lon="8.6984263"/>
  <node id="309429149" version="1" timestamp="2008-11-02T16:22:12Z" uid="4667" user="MapZ" changeset="658601" lat="49.4833214" lon="8.5057122"/>
  <node id="309429149" version="2" timestamp="2012-03-03T00:52:30Z" uid="136321" user="Teddy73" changeset="10853300" lat="49.4833214" lon="8.5057122"/>
  <node id="309429150" version="1" timestamp="2008-11-02T16:22:13Z" uid="4667" user="MapZ" changeset="658601" lat="49.4833292" lon="8.5056234"/>
  <node id="309429150" version="2" timestamp="2012-03-03T00:52:30Z" uid="136321" user="Teddy73" changeset="10853300" lat="49.4833292" lon="8.5056234"/>
  <node id="309429151" version="1" timestamp="2008-11-02T16:22:13Z" uid="4667" user="MapZ" changeset="658601" lat="49.4831878" lon="8.505533"/>
  <node id="309429151" version="2" timestamp="2010-06-29T15:48:31Z" uid="192174" user="nichtsnutz" changeset="5106858" lat="49.4831561" lon="8.5055203"/>
  <node id="309429151" version="3" timestamp="2010-07-01T18:55:58Z" uid="192174" user="nichtsnutz" changeset="5122817" lat="49.4831452" lon="8.5055171"/>
  <node id="309429151" version="4" timestamp="2012-03-03T00:52:28Z" uid="136321" user="Teddy73" changeset="10853300" lat="49.4831562" lon="8.5054917"/>
  <node id="309429152" version="1" timestamp="2008-11-02T16:22:13Z" uid="4667" user="MapZ" changeset="658601" lat="49.4868571" lon="8.4932611"/>
  <node id="309429152" version="2" timestamp="2009-09-20T07:27:07Z" uid="142422" user="BIGTH" changeset="2541724" lat="49.4868258" lon="8.4933731"/>
  <node id="309429152" version="3" timestamp="2010-06-30T16:43:37Z" uid="192174" user="nichtsnutz" changeset="5114778" lat="49.4868234" lon="8.493378"/>
  <node id="309429152" version="4" timestamp="2010-07-01T18:55:59Z" uid="192174" user="nichtsnutz" changeset="5122817" lat="49.4868218" lon="8.4933827"/>
  <node id="309429152" version="5" timestamp="2011-05-22T20:38:00Z" uid="202726" user="whb" changeset="8220993" lat="49.4868124" lon="8.4933726"/>
</osm>
