<?xml version='1.0' encoding='UTF-8'?>
<osm version="0.6" generator="libosmium/2.20.0">
  <node id="312626854" version="2" timestamp="2009-09-30T15:28:21Z" uid="36809" user="pfoten_weg_!_" changeset="2689684" lat="47.3009573" lon="11.6300562">
    <tag k="amenity" v="cafe"/>
    <tag k="name" v="Milchstern"/>
  </node>
  <node id="312627456" version="3" timestamp="2009-09-30T15:27:41Z" uid="36809" user="pfoten_weg_!_" changeset="2689684" lat="47.2918648" lon="11.6008823">
    <tag k="name" v="M-Preis"/>
    <tag k="shop" v="supermarket"/>
  </node>
  <node id="312627677" version="2" timestamp="2009-09-30T15:27:27Z" uid="36809" user="pfoten_weg_!_" changeset="2689684" lat="47.2936112" lon="11.5895098">
    <tag k="name" v="M-Preis"/>
    <tag k="shop" v="supermarket"/>
  </node>
  <node id="312628075" version="3" timestamp="2009-09-30T14:11:51Z" uid="36809" user="pfoten_weg_!_" changeset="2688850" lat="47.2890703" lon="11.5827291">
    <tag k="name" v="Billa"/>
    <tag k="shop" v="supermarket"/>
  </node>
  <node id="312628543" version="3" timestamp="2009-09-30T15:18:19Z" uid="36809" user="pfoten_weg_!_" changeset="2689684" lat="47.2808142" lon="11.5256946">
    <tag k="name" v="M-Preis"/>
    <tag k="shop" v="supermarket"/>
  </node>
  <node id="312628543" version="4" timestamp="2011-04-17T12:07:31Z" uid="19763" user="leofranz" changeset="7885877" lat="47.2808142" lon="11.5256946">
    <tag k="name" v="M-Preis"/>
    <tag k="shop" v="supermarket"/>
  </node>
  <node id="312628863" version="4" timestamp="2009-09-30T15:08:09Z" uid="36809" user="pfoten_weg_!_" changeset="2689684" lat="47.2761718" lon="11.4575385">
    <tag k="name" v="Metro"/>
    <tag k="shop" v="supermarket"/>
  </node>
  <node id="312628863" version="5" timestamp="2009-12-29T16:14:35Z" uid="110450" user="gosausee" changeset="3482613" lat="47.2761718" lon="11.4575385">
    <tag k="name" v="Metro"/>
    <tag k="shop" v="supermarket"/>
  </node>
  <node id="312629143" version="3" timestamp="2009-09-30T15:20:35Z" uid="36809" user="pfoten_weg_!_" changeset="2689684" lat="47.285938" lon="11.452112">
    <tag k="name" v="M-Preis"/>
    <tag k="shop" v="supermarket"/>
  </node>
  <node id="312629143" version="4" timestamp="2012-01-17T00:29:01Z" uid="45481" user="borisC" changeset="10413823" lat="47.285938" lon="11.452112"/>
</osm>
