<?xml version='1.0' encoding='UTF-8'?>
<osm version="0.6" generator="libosmium/2.20.0">
  <node id="313920049" version="5" timestamp="2009-10-23T11:53:35Z" uid="36809" user="pfoten_weg_!_" changeset="2929138" lat="47.9707829" lon="11.6540887">
    <tag k="addr:city" v="Sauerlach"/>
    <tag k="addr:country" v="DE"/>
    <tag k="addr:housenumber" v="7c"/>
    <tag k="addr:postcode" v="82054"/>
    <tag k="addr:street" v="Tegernseer Landstraße"/>
  </node>
  <node id="313920049" version="6" timestamp="2009-10-23T12:03:07Z" uid="36809" user="pfoten_weg_!_" changeset="2929214" lat="47.9707829" lon="11.6540887">
    <tag k="addr:city" v="Sauerlach"/>
    <tag k="addr:country" v="DE"/>
    <tag k="addr:housenumber" v="7c"/>
    <tag k="addr:postcode" v="82054"/>
    <tag k="addr:street" v="Tegernseer Landstraße"/>
  </node>
  <node id="313920049" version="7" timestamp="2009-10-23T12:08:50Z" uid="36809" user="pfoten_weg_!_" changeset="2929257" lat="47.9707829" lon="11.6540887">
    <tag k="addr:city" v="Sauerlach"/>
    <tag k="addr:country" v="DE"/>
    <tag k="addr:housenumber" v="7c"/>
    <tag k="addr:postcode" v="82054"/>
    <tag k="addr:street" v="Tegernseer Landstraße"/>
  </node>
  <node id="313920049" version="8" timestamp="2009-11-10T16:55:03Z" uid="42393" user="mawi42" changeset="3083322" lat="47.9707043" lon="11.6543793">
    <tag k="addr:city" v="Sauerlach"/>
    <tag k="addr:country" v="DE"/>
    <tag k="addr:housenumber" v="7c"/>
    <tag k="addr:postcode" v="82054"/>
    <tag k="addr:street" v="Tegernseer Landstraße"/>
  </node>
  <node id="313920101" version="5" timestamp="2009-10-23T11:53:34Z" uid="36809" user="pfoten_weg_!_" changeset="2929138" lat="47.9707829" lon="11.6542003">
    <tag k="addr:city" v="Sauerlach"/>
    <tag k="addr:country" v="DE"/>
    <tag k="addr:housenumber" v="7d"/>
    <tag k="addr:postcode" v="82054"/>
    <tag k="addr:street" v="Tegernseer Landstraße"/>
  </node>
  <node id="313920101" version="6" timestamp="2009-10-23T12:03:06Z" uid="36809" user="pfoten_weg_!_" changeset="2929214" lat="47.9707829" lon="11.6542003">
    <tag k="addr:city" v="Sauerlach"/>
    <tag k="addr:country" v="DE"/>
    <tag k="addr:housenumber" v="7d"/>
    <tag k="addr:postcode" v="82054"/>
    <tag k="addr:street" v="Tegernseer Landstraße"/>
  </node>
  <node id="313920101" version="7" timestamp="2009-10-23T12:08:49Z" uid="36809" user="pfoten_weg_!_" changeset="2929257" lat="47.9707829" lon="11.6542003">
    <tag k="addr:city" v="Sauerlach"/>
    <tag k="addr:country" v="DE"/>
    <tag k="addr:housenumber" v="7d"/>
    <tag k="addr:postcode" v="82054"/>
    <tag k="addr:street" v="Tegernseer Landstraße"/>
  </node>
  <node id="313920101" version="8" timestamp="2009-11-10T16:55:03Z" uid="42393" user="mawi42" changeset="3083322" lat="47.9707043" lon="11.6544908">
    <tag k="addr:city" v="Sauerlach"/>
    <tag k="addr:country" v="DE"/>
    <tag k="addr:housenumber" v="7d"/>
    <tag k="addr:postcode" v="82054"/>
    <tag k="addr:street" v="Tegernseer Landstraße"/>
  </node>
  <node id="313920103" version="7" timestamp="2009-10-23T11:53:33Z" uid="36809" user="pfoten_weg_!_" changeset="2929138" lat="47.9707772" lon="11.6542947">
    <tag k="addr:city" v="Sauerlach"/>
    <tag k="addr:country" v="DE"/>
    <tag k="addr:housenumber" v="7e"/>
    <tag k="addr:postcode" v="82054"/>
    <tag k="addr:street" v="Tegernseer Landstraße"/>
  </node>
  <node id="313920103" version="8" timestamp="2009-10-23T12:03:06Z" uid="36809" user="pfoten_weg_!_" changeset="2929214" lat="47.9707772" lon="11.6542947">
    <tag k="addr:city" v="Sauerlach"/>
    <tag k="addr:country" v="DE"/>
    <tag k="addr:housenumber" v="7e"/>
    <tag k="addr:postcode" v="82054"/>
    <tag k="addr:street" v="Tegernseer Landstraße"/>
  </node>
  <node id="313920103" version="9" timestamp="2009-10-23T12:08:48Z" uid="36809" user="pfoten_weg_!_" changeset="2929257" lat="47.9707772" lon="11.6542947">
    <tag k="addr:city" v="Sauerlach"/>
    <tag k="addr:country" v="DE"/>
    <tag k="addr:housenumber" v="7e"/>
    <tag k="addr:postcode" v="82054"/>
    <tag k="addr:street" v="Tegernseer Landstraße"/>
  </node>
  <node id="313920103" version="10" timestamp="2009-11-10T16:55:00Z" uid="42393" user="mawi42" changeset="3083322" lat="47.9707043" lon="11.6546024">
    <tag k="addr:city" v="Sauerlach"/>
    <tag k="addr:country" v="DE"/>
    <tag k="addr:housenumber" v="7e"/>
    <tag k="addr:postcode" v="82054"/>
    <tag k="addr:street" v="Tegernseer Landstraße"/>
  </node>
  <node id="313920123" version="6" timestamp="2009-10-23T11:53:34Z" uid="36809" user="pfoten_weg_!_" changeset="2929138" lat="47.9707714" lon="11.6544063">
    <tag k="addr:city" v="Sauerlach"/>
    <tag k="addr:country" v="DE"/>
    <tag k="addr:housenumber" v="7f"/>
    <tag k="addr:postcode" v="82054"/>
    <tag k="addr:street" v="Tegernseer Landstraße"/>
  </node>
  <node id="313920123" version="7" timestamp="2009-10-23T12:03:07Z" uid="36809" user="pfoten_weg_!_" changeset="2929214" lat="47.9707714" lon="11.6544063">
    <tag k="addr:city" v="Sauerlach"/>
    <tag k="addr:country" v="DE"/>
    <tag k="addr:housenumber" v="7f"/>
    <tag k="addr:postcode" v="82054"/>
    <tag k="addr:street" v="Tegernseer Landstraße"/>
  </node>
  <node id="313920123" version="8" timestamp="2009-10-23T12:08:49Z" uid="36809" user="pfoten_weg_!_" changeset="2929257" lat="47.9707714" lon="11.6544063">
    <tag k="addr:city" v="Sauerlach"/>
    <tag k="addr:country" v="DE"/>
    <tag k="addr:housenumber" v="7f"/>
    <tag k="addr:postcode" v="82054"/>
    <tag k="addr:street" v="Tegernseer Landstraße"/>
  </node>
  <node id="313920123" version="9" timestamp="2009-11-10T16:55:02Z" uid="42393" user="mawi42" changeset="3083322" lat="47.9720892" lon="11.6520361">
    <tag k="addr:city" v="Sauerlach"/>
    <tag k="addr:country" v="DE"/>
    <tag k="addr:housenumber" v="7f"/>
    <tag k="addr:postcode" v="82054"/>
    <tag k="addr:street" v="Tegernseer Landstraße"/>
  </node>
  <node id="313920123" version="10" timestamp="2010-03-10T07:18:02Z" uid="42393" user="mawi42" changeset="4086656" lat="47.9719871" lon="11.6521861">
    <tag k="addr:city" v="Sauerlach"/>
    <tag k="addr:country" v="DE"/>
    <tag k="addr:housenumber" v="8"/>
    <tag k="addr:postcode" v="82054"/>
    <tag k="addr:street" v="Wolfratshausener Straße"/>
  </node>
  <node id="313920357" version="5" timestamp="2009-10-23T11:53:35Z" uid="36809" user="pfoten_weg_!_" changeset="2929138" lat="47.9707714" lon="11.6545179">
    <tag k="addr:city" v="Sauerlach"/>
    <tag k="addr:country" v="DE"/>
    <tag k="addr:housenumber" v="7g"/>
    <tag k="addr:postcode" v="82054"/>
    <tag k="addr:street" v="Tegernseer Landstraße"/>
  </node>
  <node id="313920357" version="6" timestamp="2009-10-23T12:03:08Z" uid="36809" user="pfoten_weg_!_" changeset="2929214" lat="47.9707714" lon="11.6545179">
    <tag k="addr:city" v="Sauerlach"/>
    <tag k="addr:country" v="DE"/>
    <tag k="addr:housenumber" v="7g"/>
    <tag k="addr:postcode" v="82054"/>
    <tag k="addr:street" v="Tegernseer Landstraße"/>
  </node>
  <node id="313920357" version="7" timestamp="2009-10-23T12:08:50Z" uid="36809" user="pfoten_weg_!_" changeset="2929257" lat="47.9707714" lon="11.6545179">
    <tag k="addr:city" v="Sauerlach"/>
    <tag k="addr:country" v="DE"/>
    <tag k="addr:housenumber" v="7g"/>
    <tag k="addr:postcode" v="82054"/>
    <tag k="addr:street" v="Tegernseer Landstraße"/>
  </node>
  <node id="313920357" version="8" timestamp="2009-11-10T16:55:02Z" uid="42393" user="mawi42" changeset="3083322" lat="47.9707043" lon="11.6547998">
    <tag k="addr:city" v="Sauerlach"/>
    <tag k="addr:country" v="DE"/>
    <tag k="addr:housenumber" v="7g"/>
    <tag k="addr:postcode" v="82054"/>
    <tag k="addr:street" v="Tegernseer Landstraße"/>
  </node>
  <node id="313920587" version="4" timestamp="2009-10-23T11:53:37Z" uid="36809" user="pfoten_weg_!_" changeset="2929138" lat="47.9704887" lon="11.6538518">
    <tag k="addr:city" v="Sauerlach"/>
    <tag k="addr:country" v="DE"/>
    <tag k="addr:housenumber" v="9"/>
    <tag k="addr:postcode" v="82054"/>
    <tag k="addr:street" v="Tegernseer Landstraße"/>
  </node>
  <node id="313920587" version="5" timestamp="2009-10-23T12:03:10Z" uid="36809" user="pfoten_weg_!_" changeset="2929214" lat="47.9704887" lon="11.6538518">
    <tag k="addr:city" v="Sauerlach"/>
    <tag k="addr:country" v="DE"/>
    <tag k="addr:housenumber" v="9"/>
    <tag k="addr:postcode" v="82054"/>
    <tag k="addr:street" v="Tegernseer Landstraße"/>
  </node>
  <node id="313920587" version="6" timestamp="2009-10-23T12:08:51Z" uid="36809" user="pfoten_weg_!_" changeset="2929257" lat="47.9704887" lon="11.6538518">
    <tag k="addr:city" v="Sauerlach"/>
    <tag k="addr:country" v="DE"/>
    <tag k="addr:housenumber" v="9"/>
    <tag k="addr:postcode" v="82054"/>
    <tag k="addr:street" v="Tegernseer Landstraße"/>
  </node>
  <node id="313921712" version="4" timestamp="2009-10-23T11:53:29Z" uid="36809" user="pfoten_weg_!_" changeset="2929138" lat="47.9701266" lon="11.6534828">
    <tag k="addr:city" v="Sauerlach"/>
    <tag k="addr:country" v="DE"/>
    <tag k="addr:housenumber" v="14"/>
    <tag k="addr:postcode" v="82054"/>
    <tag k="addr:street" v="Tegernseer Landstraße"/>
  </node>
  <node id="313921712" version="5" timestamp="2009-10-23T12:03:02Z" uid="36809" user="pfoten_weg_!_" changeset="2929214" lat="47.9701266" lon="11.6534828">
    <tag k="addr:city" v="Sauerlach"/>
    <tag k="addr:country" v="DE"/>
    <tag k="addr:housenumber" v="14"/>
    <tag k="addr:postcode" v="82054"/>
    <tag k="addr:street" v="Tegernseer Landstraße"/>
  </node>
  <node id="313921712" version="6" timestamp="2009-10-23T12:08:42Z" uid="36809" user="pfoten_weg_!_" changeset="2929257" lat="47.9701266" lon="11.6534828">
    <tag k="addr:city" v="Sauerlach"/>
    <tag k="addr:country" v="DE"/>
    <tag k="addr:housenumber" v="14"/>
    <tag k="addr:postcode" v="82054"/>
    <tag k="addr:street" v="Tegernseer Landstraße"/>
  </node>
  <node id="313922496" version="4" timestamp="2009-10-23T11:53:30Z" uid="36809" user="pfoten_weg_!_" changeset="2929138" lat="47.971161" lon="11.6532081">
    <tag k="addr:city" v="Sauerlach"/>
    <tag k="addr:country" v="DE"/>
    <tag k="addr:housenumber" v="8"/>
    <tag k="addr:postcode" v="82054"/>
    <tag k="addr:street" v="Tegernseer Landstraße"/>
  </node>
  <node id="313922496" version="5" timestamp="2009-10-23T12:03:03Z" uid="36809" user="pfoten_weg_!_" changeset="2929214" lat="47.971161" lon="11.6532081">
    <tag k="addr:city" v="Sauerlach"/>
    <tag k="addr:country" v="DE"/>
    <tag k="addr:housenumber" v="8"/>
    <tag k="addr:postcode" v="82054"/>
    <tag k="addr:street" v="Tegernseer Landstraße"/>
  </node>
  <node id="313922496" version="6" timestamp="2009-10-23T12:08:46Z" uid="36809" user="pfoten_weg_!_" changeset="2929257" lat="47.971161" lon="11.6532081">
    <tag k="addr:city" v="Sauerlach"/>
    <tag k="addr:country" v="DE"/>
    <tag k="addr:housenumber" v="8"/>
    <tag k="addr:postcode" v="82054"/>
    <tag k="addr:street" v="Tegernseer Landstraße"/>
  </node>
  <node id="313922496" version="7" timestamp="2009-11-10T16:55:01Z" uid="42393" user="mawi42" changeset="3083322" lat="47.9707043" lon="11.6546968">
    <tag k="addr:city" v="Sauerlach"/>
    <tag k="addr:country" v="DE"/>
    <tag k="addr:housenumber" v="7f"/>
    <tag k="addr:postcode" v="82054"/>
    <tag k="addr:street" v="Tegernseer Landstraße"/>
  </node>
  <node id="313922616" version="5" timestamp="2009-10-23T11:53:31Z" uid="36809" user="pfoten_weg_!_" changeset="2929138" lat="47.9716092" lon="11.6533626">
    <tag k="addr:city" v="Sauerlach"/>
    <tag k="addr:country" v="DE"/>
    <tag k="addr:housenumber" v="2"/>
    <tag k="addr:postcode" v="82054"/>
    <tag k="addr:street" v="Tegernseer Landstraße"/>
  </node>
  <node id="313922616" version="6" timestamp="2009-10-23T12:03:04Z" uid="36809" user="pfoten_weg_!_" changeset="2929214" lat="47.9716092" lon="11.6533626">
    <tag k="addr:city" v="Sauerlach"/>
    <tag k="addr:country" v="DE"/>
    <tag k="addr:housenumber" v="2"/>
    <tag k="addr:postcode" v="82054"/>
    <tag k="addr:street" v="Tegernseer Landstraße"/>
  </node>
  <node id="313922616" version="7" timestamp="2009-10-23T12:08:47Z" uid="36809" user="pfoten_weg_!_" changeset="2929257" lat="47.9716092" lon="11.6533626">
    <tag k="addr:city" v="Sauerlach"/>
    <tag k="addr:country" v="DE"/>
    <tag k="addr:housenumber" v="2"/>
    <tag k="addr:postcode" v="82054"/>
    <tag k="addr:street" v="Tegernseer Landstraße"/>
  </node>
  <node id="313922616" version="8" timestamp="2011-06-08T14:59:31Z" uid="42393" user="mawi42" changeset="8380404" lat="47.9716092" lon="11.6533626"/>
  <node id="313923222" version="1" timestamp="2008-11-23T14:14:46Z" uid="61831" user="afrikafan" changeset="785455" lat="52.0942342" lon="10.0714188">
    <tag k="amenity" v="church"/>
    <tag k="created_by" v="Potlatch 0.10f"/>
  </node>
  <node id="313923222" version="2" timestamp="2008-11-23T14:15:39Z" uid="61831" user="afrikafan" changeset="785455" lat="52.0941604" lon="10.0714617">
    <tag k="amenity" v="church"/>
    <tag k="created_by" v="Potlatch 0.10f"/>
  </node>
  <node id="313923222" version="3" timestamp="2008-11-26T15:51:00Z" uid="6975" user="ulfl" changeset="797054" lat="52.0941604" lon="10.0714617">
    <tag k="amenity" v="place_of_worship"/>
  </node>
  <node id="313923222" version="4" timestamp="2009-11-27T11:53:52Z" uid="28783" user="mey2008" changeset="3227369" lat="52.0941604" lon="10.0714617">
    <tag k="amenity" v="place_of_worship"/>
    <tag k="denomination" v="catholic"/>
    <tag k="name" v="Sankt Johannes Evangelist"/>
    <tag k="religion" v="christian"/>
  </node>
  <node id="313923222" version="5" timestamp="2009-11-27T12:11:23Z" uid="28783" user="mey2008" changeset="3227491" lat="52.0941604" lon="10.0714617">
    <tag k="amenity" v="place_of_worship"/>
    <tag k="denomination" v="catholic"/>
    <tag k="name" v="Sankt Johannes"/>
    <tag k="religion" v="christian"/>
  </node>
  <node id="313923222" version="6" timestamp="2011-12-19T17:08:38Z" uid="83311" user="Mickey66" changeset="10157276" lat="52.0941345" lon="10.0714805">
    <tag k="amenity" v="place_of_worship"/>
    <tag k="denomination" v="catholic"/>
    <tag k="name" v="Sankt Johannes"/>
    <tag k="religion" v="christian"/>
  </node>
  <node id="313923431" version="4" timestamp="2009-10-23T11:54:01Z" uid="36809" user="pfoten_weg_!_" changeset="2929138" lat="47.971885" lon="11.6534055">
    <tag k="addr:city" v="Sauerlach"/>
    <tag k="addr:country" v="DE"/>
    <tag k="addr:housenumber" v="2"/>
    <tag k="addr:postcode" v="82054"/>
    <tag k="addr:street" v="Wolfratshausener Straße"/>
    <tag k="amenity" v="library"/>
    <tag k="name" v="Gemeindebücherei"/>
  </node>
  <node id="313923431" version="5" timestamp="2009-10-23T12:03:31Z" uid="36809" user="pfoten_weg_!_" changeset="2929214" lat="47.971885" lon="11.6534055">
    <tag k="addr:city" v="Sauerlach"/>
    <tag k="addr:country" v="DE"/>
    <tag k="addr:housenumber" v="2"/>
    <tag k="addr:postcode" v="82054"/>
    <tag k="addr:street" v="Wolfratshausener Straße"/>
    <tag k="amenity" v="library"/>
    <tag k="name" v="Gemeindebücherei"/>
  </node>
  <node id="313923431" version="6" timestamp="2009-10-23T12:09:22Z" uid="36809" user="pfoten_weg_!_" changeset="2929257" lat="47.971885" lon="11.6534055">
    <tag k="addr:city" v="Sauerlach"/>
    <tag k="addr:country" v="DE"/>
    <tag k="addr:housenumber" v="2"/>
    <tag k="addr:postcode" v="82054"/>
    <tag k="addr:street" v="Wolfratshausener Straße"/>
    <tag k="amenity" v="library"/>
    <tag k="name" v="Gemeindebücherei"/>
  </node>
  <node id="313923922" version="11" timestamp="2009-10-23T11:54:09Z" uid="36809" user="pfoten_weg_!_" changeset="2929138" lat="47.9720776" lon="11.6543966">
    <tag k="addr:city" v="Sauerlach"/>
    <tag k="addr:country" v="DE"/>
    <tag k="addr:housenumber" v="2"/>
    <tag k="addr:postcode" v="82054"/>
    <tag k="addr:street" v="F.-W.-Raiffeisen-Straße"/>
    <tag k="name" v="Denk Trauerhilfe"/>
    <tag k="source" v="survey"/>
  </node>
  <node id="313923922" version="12" timestamp="2009-10-23T12:03:40Z" uid="36809" user="pfoten_weg_!_" changeset="2929214" lat="47.9720776" lon="11.6543966">
    <tag k="addr:city" v="Sauerlach"/>
    <tag k="addr:country" v="DE"/>
    <tag k="addr:housenumber" v="2"/>
    <tag k="addr:postcode" v="82054"/>
    <tag k="addr:street" v="F.-W.-Raiffeisen-Straße"/>
    <tag k="name" v="Denk Trauerhilfe"/>
    <tag k="source" v="survey"/>
  </node>
  <node id="313923922" version="13" timestamp="2009-10-23T12:09:34Z" uid="36809" user="pfoten_weg_!_" changeset="2929257" lat="47.9720776" lon="11.6543966">
    <tag k="addr:city" v="Sauerlach"/>
    <tag k="addr:country" v="DE"/>
    <tag k="addr:housenumber" v="2"/>
    <tag k="addr:postcode" v="82054"/>
    <tag k="addr:street" v="F.-W.-Raiffeisen-Straße"/>
    <tag k="name" v="Denk Trauerhilfe"/>
    <tag k="source" v="survey"/>
  </node>
  <node id="313923936" version="3" timestamp="2009-10-07T16:16:44Z" uid="86259" user="hasse_osm_korinthenkacker" changeset="2773292" lat="48.0887483" lon="11.4726403"/>
  <node id="313924279" version="9" timestamp="2009-10-23T11:54:08Z" uid="36809" user="pfoten_weg_!_" changeset="2929138" lat="47.9720833" lon="11.6545425">
    <tag k="addr:city" v="Sauerlach"/>
    <tag k="addr:country" v="DE"/>
    <tag k="addr:housenumber" v="2"/>
    <tag k="addr:postcode" v="82054"/>
    <tag k="addr:street" v="F.-W.-Raiffeisen-Straße"/>
    <tag k="name" v="Gaigl Metzgerei"/>
    <tag k="source" v="survey"/>
  </node>
  <node id="313924279" version="10" timestamp="2009-10-23T12:03:38Z" uid="36809" user="pfoten_weg_!_" changeset="2929214" lat="47.9720833" lon="11.6545425">
    <tag k="addr:city" v="Sauerlach"/>
    <tag k="addr:country" v="DE"/>
    <tag k="addr:housenumber" v="2"/>
    <tag k="addr:postcode" v="82054"/>
    <tag k="addr:street" v="F.-W.-Raiffeisen-Straße"/>
    <tag k="name" v="Gaigl Metzgerei"/>
    <tag k="source" v="survey"/>
  </node>
  <node id="313924279" version="11" timestamp="2009-10-23T12:09:29Z" uid="36809" user="pfoten_weg_!_" changeset="2929257" lat="47.9720833" lon="11.6545425">
    <tag k="addr:city" v="Sauerlach"/>
    <tag k="addr:country" v="DE"/>
    <tag k="addr:housenumber" v="2"/>
    <tag k="addr:postcode" v="82054"/>
    <tag k="addr:street" v="F.-W.-Raiffeisen-Straße"/>
    <tag k="name" v="Gaigl Metzgerei"/>
    <tag k="source" v="survey"/>
  </node>
  <node id="313924577" version="6" timestamp="2009-10-23T11:54:09Z" uid="36809" user="pfoten_weg_!_" changeset="2929138" lat="47.9718908" lon="11.6538175">
    <tag k="addr:city" v="Sauerlach"/>
    <tag k="addr:country" v="DE"/>
    <tag k="addr:housenumber" v="1"/>
    <tag k="addr:postcode" v="82054"/>
    <tag k="addr:street" v="Münchener Straße"/>
    <tag k="source" v="survey"/>
  </node>
  <node id="313924577" version="7" timestamp="2009-10-23T12:03:39Z" uid="36809" user="pfoten_weg_!_" changeset="2929214" lat="47.9718908" lon="11.6538175">
    <tag k="addr:city" v="Sauerlach"/>
    <tag k="addr:country" v="DE"/>
    <tag k="addr:housenumber" v="1"/>
    <tag k="addr:postcode" v="82054"/>
    <tag k="addr:street" v="Münchener Straße"/>
    <tag k="source" v="survey"/>
  </node>
  <node id="313924577" version="8" timestamp="2009-10-23T12:09:34Z" uid="36809" user="pfoten_weg_!_" changeset="2929257" lat="47.9718908" lon="11.6538175">
    <tag k="addr:city" v="Sauerlach"/>
    <tag k="addr:country" v="DE"/>
    <tag k="addr:housenumber" v="1"/>
    <tag k="addr:postcode" v="82054"/>
    <tag k="addr:street" v="Münchener Straße"/>
    <tag k="source" v="survey"/>
  </node>
  <node id="313924690" version="1" timestamp="2008-11-23T14:25:34Z" uid="58091" user="Andreas M" changeset="785398" lat="48.227601" lon="16.3489204"/>
  <node id="313924690" version="2" timestamp="2011-03-18T18:53:19Z" uid="99800" user="wolfbert" changeset="7598245" lat="48.227601" lon="16.3489204"/>
  <node id="313924692" version="1" timestamp="2008-11-23T14:25:34Z" uid="58091" user="Andreas M" changeset="785398" lat="48.22676" lon="16.3487377"/>
  <node id="313924692" version="2" timestamp="2011-03-18T18:53:19Z" uid="99800" user="wolfbert" changeset="7598245" lat="48.22676" lon="16.3487377"/>
  <node id="313924694" version="1" timestamp="2008-11-23T14:25:34Z" uid="58091" user="Andreas M" changeset="785398" lat="48.2267043" lon="16.3493323"/>
  <node id="313924694" version="2" timestamp="2011-03-18T18:53:19Z" uid="99800" user="wolfbert" changeset="7598245" lat="48.2267043" lon="16.3493323"/>
  <node id="313924697" version="1" timestamp="2008-11-23T14:25:34Z" uid="58091" user="Andreas M" changeset="785398" lat="48.2275453" lon="16.349515"/>
  <node id="313924697" version="2" timestamp="2011-03-18T18:53:19Z" uid="99800" user="wolfbert" changeset="7598245" lat="48.2275453" lon="16.349515"/>
  <node id="313924698" version="1" timestamp="2008-11-23T14:25:34Z" uid="58091" user="Andreas M" changeset="785398" lat="48.2275698" lon="16.3489136"/>
  <node id="313924698" version="2" timestamp="2011-03-18T18:53:12Z" uid="99800" user="wolfbert" changeset="7598245" lat="48.2275429" lon="16.3494121"/>
  <node id="313924700" version="1" timestamp="2008-11-23T14:25:35Z" uid="58091" user="Andreas M" changeset="785398" lat="48.2275901" lon="16.3486824"/>
  <node id="313924700" version="2" timestamp="2008-11-30T14:23:24Z" uid="51552" user="kfg" changeset="815718" lat="48.2275814" lon="16.3487313"/>
  <node id="313924700" version="3" timestamp="2011-03-18T18:53:14Z" uid="99800" user="wolfbert" changeset="7598245" lat="48.2276101" lon="16.3487404"/>
  <node id="313924700" version="4" timestamp="2011-10-21T11:17:23Z" uid="494207" user="ckschwoedi" changeset="9615485" lat="48.2276101" lon="16.3487003"/>
  <node id="313924702" version="1" timestamp="2008-11-23T14:25:35Z" uid="58091" user="Andreas M" changeset="785398" lat="48.2271372" lon="16.3494725"/>
  <node id="313924702" version="2" timestamp="2008-11-25T13:39:21Z" uid="58091" user="Andreas M" changeset="793876" lat="48.2268079" lon="16.3494012"/>
  <node id="313924702" version="3" timestamp="2009-01-09T11:44:57Z" uid="54806" user="_al" changeset="760611" lat="48.2268079" lon="16.3494012"/>
  <node id="313924702" version="4" timestamp="2009-01-09T11:52:24Z" uid="54806" user="_al" changeset="760611" lat="48.2268079" lon="16.3494012"/>
  <node id="313924702" version="5" timestamp="2009-01-09T11:59:52Z" uid="54806" user="_al" changeset="760611" lat="48.2268079" lon="16.3494012"/>
  <node id="313924702" version="6" timestamp="2009-01-09T12:00:00Z" uid="54806" user="_al" changeset="760611" lat="48.2268079" lon="16.3494012"/>
  <node id="313924702" version="7" timestamp="2009-01-16T07:03:40Z" uid="54806" user="_al" changeset="796745" lat="48.2268079" lon="16.3494012"/>
  <node id="313924702" version="8" timestamp="2009-01-16T07:04:02Z" uid="54806" user="_al" changeset="796745" lat="48.2268079" lon="16.3494012"/>
  <node id="313924702" version="9" timestamp="2009-01-19T20:21:41Z" uid="43577" user="dorni74" changeset="812585" lat="48.2268079" lon="16.3494012"/>
  <node id="313924702" version="10" timestamp="2010-02-17T16:25:02Z" uid="28427" user="skunk" changeset="3902056" lat="48.2268089" lon="16.3494526"/>
  <node id="313924704" version="1" timestamp="2008-11-23T14:25:35Z" uid="58091" user="Andreas M" changeset="785398" lat="48.2271418" lon="16.3494272"/>
  <node id="313924704" version="2" timestamp="2008-11-25T13:39:21Z" uid="58091" user="Andreas M" changeset="793876" lat="48.2268124" lon="16.3493577"/>
  <node id="313925247" version="5" timestamp="2009-10-23T11:54:06Z" uid="36809" user="pfoten_weg_!_" changeset="2929138" lat="47.9738273" lon="11.6533111">
    <tag k="addr:city" v="Sauerlach"/>
    <tag k="addr:country" v="DE"/>
    <tag k="addr:housenumber" v="15a"/>
    <tag k="addr:postcode" v="82054"/>
    <tag k="addr:street" v="Münchener Straße"/>
    <tag k="name" v="Sport Engel"/>
    <tag k="source" v="survey"/>
  </node>
  <node id="313925247" version="6" timestamp="2009-10-23T12:03:37Z" uid="36809" user="pfoten_weg_!_" changeset="2929214" lat="47.9738273" lon="11.6533111">
    <tag k="addr:city" v="Sauerlach"/>
    <tag k="addr:country" v="DE"/>
    <tag k="addr:housenumber" v="15a"/>
    <tag k="addr:postcode" v="82054"/>
    <tag k="addr:street" v="Münchener Straße"/>
    <tag k="name" v="Sport Engel"/>
    <tag k="source" v="survey"/>
  </node>
  <node id="313925247" version="7" timestamp="2009-10-23T12:09:28Z" uid="36809" user="pfoten_weg_!_" changeset="2929257" lat="47.9738273" lon="11.6533111">
    <tag k="addr:city" v="Sauerlach"/>
    <tag k="addr:country" v="DE"/>
    <tag k="addr:housenumber" v="15a"/>
    <tag k="addr:postcode" v="82054"/>
    <tag k="addr:street" v="Münchener Straße"/>
    <tag k="name" v="Sport Engel"/>
    <tag k="source" v="survey"/>
  </node>
  <node id="313925247" version="8" timestamp="2010-05-22T06:19:49Z" uid="290723" user="sulagaloh" changeset="4771608" lat="47.9738273" lon="11.653311">
    <tag k="addr:city" v="Sauerlach"/>
    <tag k="addr:country" v="DE"/>
    <tag k="addr:housenumber" v="15a"/>
    <tag k="addr:postcode" v="82054"/>
    <tag k="addr:street" v="Münchener Straße"/>
    <tag k="name" v="Sport Engel"/>
    <tag k="source" v="survey"/>
  </node>
  <node id="313925247" version="9" timestamp="2012-03-16T17:40:49Z" uid="8748" user="ToniE" changeset="11000618" lat="47.9738273" lon="11.653311">
    <tag k="addr:city" v="Sauerlach"/>
    <tag k="addr:country" v="DE"/>
    <tag k="addr:housenumber" v="15a"/>
    <tag k="addr:postcode" v="82054"/>
    <tag k="addr:street" v="Münchener Straße"/>
    <tag k="name" v="Sport Engel"/>
    <tag k="shop" v="sports"/>
    <tag k="source" v="survey"/>
  </node>
  <node id="313925248" version="1" timestamp="2008-11-23T14:31:28Z" uid="36809" user="pfoten_weg_!_" changeset="784011" lat="48.0310813" lon="11.4279017">
    <tag k="created_by" v="RambaZamba"/>
  </node>
  <node id="313925248" version="2" timestamp="2009-04-03T05:32:36Z" uid="36809" user="pfoten_weg_!_" changeset="111830" lat="48.0304717" lon="11.4275273">
    <tag k="created_by" v="RambaZamba"/>
  </node>
  <node id="313925248" version="3" timestamp="2009-04-03T05:54:55Z" uid="36809" user="pfoten_weg_!_" changeset="111830" lat="48.0304717" lon="11.4275273">
    <tag k="created_by" v="RambaZamba"/>
    <tag k="source" v="survey"/>
  </node>
  <node id="313925248" version="4" timestamp="2009-04-04T08:48:14Z" uid="7596" user="ck3d" changeset="160917" lat="48.0304799" lon="11.4274782">
    <tag k="created_by" v="RambaZamba"/>
    <tag k="source" v="survey"/>
  </node>
  <node id="313925248" version="5" timestamp="2009-08-12T13:34:56Z" uid="156995" user="HampelZamba" changeset="2118817" lat="48.0304799" lon="11.4274782">
    <tag k="source" v="survey"/>
  </node>
  <node id="313925248" version="6" timestamp="2009-08-19T13:44:08Z" uid="36809" user="pfoten_weg_!_" changeset="2201154" lat="48.0304799" lon="11.4274782">
    <tag k="source" v="survey at RambaZamba"/>
  </node>
  <node id="313925248" version="7" timestamp="2009-08-28T19:41:20Z" uid="156995" user="HampelZamba" changeset="2294580" lat="48.0304799" lon="11.4274782"/>
  <node id="313925248" version="8" timestamp="2009-08-31T17:38:05Z" uid="36809" user="pfoten_weg_!_" changeset="2328905" lat="48.0304799" lon="11.4274782"/>
  <node id="313925248" version="9" timestamp="2011-06-07T10:45:01Z" uid="137711" user="avus" changeset="8368903" lat="48.0304593" lon="11.4274763"/>
  <node id="313925249" version="1" timestamp="2008-11-23T14:31:28Z" uid="36809" user="pfoten_weg_!_" changeset="784011" lat="48.0220561" lon="11.4203235">
    <tag k="created_by" v="RambaZamba"/>
  </node>
  <node id="313925249" version="2" timestamp="2009-03-30T08:03:42Z" uid="36809" user="pfoten_weg_!_" changeset="869210" lat="48.0220561" lon="11.4203235">
    <tag k="created_by" v="RambaZamba"/>
  </node>
  <node id="313925249" version="3" timestamp="2009-03-31T09:44:14Z" uid="5164" user="woodpeck" changeset="871977" lat="48.0220561" lon="11.4203235">
    <tag k="created_by" v="RambaZamba"/>
  </node>
  <node id="313925249" version="4" timestamp="2009-04-02T19:45:18Z" uid="36809" user="pfoten_weg_!_" changeset="104288" lat="48.0220561" lon="11.4203235">
    <tag k="created_by" v="RambaZamba"/>
  </node>
  <node id="313925249" version="5" timestamp="2009-04-02T22:22:02Z" uid="5164" user="woodpeck" changeset="94633" lat="48.0220561" lon="11.4203235"/>
  <node id="313925249" version="6" timestamp="2009-04-03T05:41:37Z" uid="36809" user="pfoten_weg_!_" changeset="111830" lat="48.0220561" lon="11.4203235"/>
  <node id="313925250" version="1" timestamp="2008-11-23T14:31:28Z" uid="36809" user="pfoten_weg_!_" changeset="784011" lat="48.0295103" lon="11.4268393">
    <tag k="created_by" v="RambaZamba"/>
  </node>
  <node id="313925250" version="2" timestamp="2009-04-03T05:54:55Z" uid="36809" user="pfoten_weg_!_" changeset="111830" lat="48.0295103" lon="11.4268393">
    <tag k="created_by" v="RambaZamba"/>
    <tag k="source" v="survey"/>
  </node>
  <node id="313925250" version="3" timestamp="2009-04-04T08:48:14Z" uid="7596" user="ck3d" changeset="160917" lat="48.0290065" lon="11.4263971">
    <tag k="created_by" v="RambaZamba"/>
    <tag k="source" v="survey"/>
  </node>
  <node id="313925250" version="4" timestamp="2009-08-12T13:34:56Z" uid="156995" user="HampelZamba" changeset="2118817" lat="48.0290065" lon="11.4263971">
    <tag k="source" v="survey"/>
  </node>
  <node id="313925250" version="5" timestamp="2009-08-19T13:44:06Z" uid="36809" user="pfoten_weg_!_" changeset="2201154" lat="48.0290065" lon="11.4263971">
    <tag k="source" v="survey at RambaZamba"/>
  </node>
  <node id="313925250" version="6" timestamp="2009-08-28T19:41:20Z" uid="156995" user="HampelZamba" changeset="2294580" lat="48.0290065" lon="11.4263971"/>
  <node id="313925250" version="7" timestamp="2009-08-31T17:38:05Z" uid="36809" user="pfoten_weg_!_" changeset="2328905" lat="48.0290065" lon="11.4263971"/>
  <node id="313925251" version="1" timestamp="2008-11-23T14:31:28Z" uid="36809" user="pfoten_weg_!_" changeset="784011" lat="48.0397004" lon="11.4352337">
    <tag k="created_by" v="RambaZamba"/>
  </node>
  <node id="313925251" version="2" timestamp="2009-04-03T05:54:55Z" uid="36809" user="pfoten_weg_!_" changeset="111830" lat="48.0397004" lon="11.4352337">
    <tag k="created_by" v="RambaZamba"/>
    <tag k="source" v="survey"/>
  </node>
  <node id="313925251" version="3" timestamp="2009-08-12T13:34:57Z" uid="156995" user="HampelZamba" changeset="2118817" lat="48.0397004" lon="11.4352337">
    <tag k="source" v="survey"/>
  </node>
  <node id="313925251" version="4" timestamp="2009-08-19T13:44:06Z" uid="36809" user="pfoten_weg_!_" changeset="2201154" lat="48.0397004" lon="11.4352337">
    <tag k="source" v="survey at RambaZamba"/>
  </node>
  <node id="313925251" version="5" timestamp="2009-08-28T19:41:20Z" uid="156995" user="HampelZamba" changeset="2294580" lat="48.0397004" lon="11.4352337"/>
  <node id="313925251" version="6" timestamp="2009-08-31T17:38:05Z" uid="36809" user="pfoten_weg_!_" changeset="2328905" lat="48.0397004" lon="11.4352337"/>
  <node id="313925251" version="7" timestamp="2011-06-07T10:45:02Z" uid="137711" user="avus" changeset="8368903" lat="48.0397308" lon="11.4351978"/>
  <node id="313925251" version="8" timestamp="2011-12-31T12:02:06Z" uid="13832" user="Peter14" changeset="10253930" lat="48.0397308" lon="11.4351978"/>
  <node id="313925254" version="1" timestamp="2008-11-23T14:31:29Z" uid="36809" user="pfoten_weg_!_" changeset="784011" lat="48.0189731" lon="11.419463">
    <tag k="created_by" v="RambaZamba"/>
  </node>
  <node id="313925254" version="2" timestamp="2009-03-30T08:03:42Z" uid="36809" user="pfoten_weg_!_" changeset="869210" lat="48.0189731" lon="11.419463">
    <tag k="created_by" v="RambaZamba"/>
  </node>
  <node id="313925254" version="3" timestamp="2009-03-31T09:44:23Z" uid="5164" user="woodpeck" changeset="871977" lat="48.0189731" lon="11.419463">
    <tag k="created_by" v="RambaZamba"/>
  </node>
  <node id="313925254" version="4" timestamp="2009-04-02T19:45:18Z" uid="36809" user="pfoten_weg_!_" changeset="104288" lat="48.0189731" lon="11.419463">
    <tag k="created_by" v="RambaZamba"/>
  </node>
  <node id="313925254" version="5" timestamp="2009-04-03T16:48:03Z" uid="5164" user="woodpeck" changeset="150055" lat="48.0189731" lon="11.419463"/>
  <node id="313925254" version="6" timestamp="2009-04-04T08:48:27Z" uid="7596" user="ck3d" changeset="160917" lat="48.0189731" lon="11.419463"/>
  <node id="313925256" version="1" timestamp="2008-11-23T14:31:29Z" uid="36809" user="pfoten_weg_!_" changeset="784011" lat="48.0214017" lon="11.4198118">
    <tag k="created_by" v="RambaZamba"/>
  </node>
  <node id="313925256" version="2" timestamp="2009-03-30T08:03:43Z" uid="36809" user="pfoten_weg_!_" changeset="869210" lat="48.0214017" lon="11.4198118">
    <tag k="created_by" v="RambaZamba"/>
  </node>
  <node id="313925256" version="3" timestamp="2009-03-31T09:44:14Z" uid="5164" user="woodpeck" changeset="871977" lat="48.0214017" lon="11.4198118">
    <tag k="created_by" v="RambaZamba"/>
  </node>
  <node id="313925256" version="4" timestamp="2009-04-01T16:37:53Z" uid="5164" user="woodpeck" changeset="41055" lat="48.0214017" lon="11.4198118">
    <tag k="created_by" v="RambaZamba"/>
  </node>
  <node id="313925256" version="5" timestamp="2009-04-02T19:45:19Z" uid="36809" user="pfoten_weg_!_" changeset="104288" lat="48.0214017" lon="11.4198118">
    <tag k="created_by" v="RambaZamba"/>
  </node>
  <node id="313925257" version="1" timestamp="2008-11-23T14:31:29Z" uid="36809" user="pfoten_weg_!_" changeset="784011" lat="48.0528003" lon="11.4570604"/>
  <node id="313925257" version="2" timestamp="2009-04-04T22:50:46Z" uid="36809" user="pfoten_weg_!_" changeset="196576" lat="48.0528003" lon="11.4570604">
    <tag k="created_by" v="RambaZamba"/>
    <tag k="source" v="survey"/>
  </node>
  <node id="313925257" version="3" timestamp="2009-08-12T13:34:57Z" uid="156995" user="HampelZamba" changeset="2118817" lat="48.0528003" lon="11.4570604">
    <tag k="source" v="survey"/>
  </node>
  <node id="313925257" version="4" timestamp="2009-08-25T23:56:31Z" uid="36809" user="pfoten_weg_!_" changeset="2262648" lat="48.0528003" lon="11.4570604">
    <tag k="source" v="survey"/>
  </node>
  <node id="313925257" version="5" timestamp="2009-08-26T00:58:50Z" uid="36809" user="pfoten_weg_!_" changeset="2262879" lat="48.0528003" lon="11.4570604">
    <tag k="source" v="survey"/>
  </node>
  <node id="313925257" version="6" timestamp="2009-10-02T17:32:21Z" uid="86259" user="hasse_osm_korinthenkacker" changeset="2715119" lat="48.0528003" lon="11.4570604"/>
  <node id="313925257" version="7" timestamp="2011-12-27T22:05:53Z" uid="13832" user="Peter14" changeset="10220463" lat="48.0528003" lon="11.4570604"/>
  <node id="313925259" version="1" timestamp="2008-11-23T14:31:30Z" uid="36809" user="pfoten_weg_!_" changeset="784011" lat="48.0189235" lon="11.4189605">
    <tag k="created_by" v="RambaZamba"/>
  </node>
  <node id="313925259" version="2" timestamp="2009-03-30T08:03:43Z" uid="36809" user="pfoten_weg_!_" changeset="869210" lat="48.0189235" lon="11.4189605">
    <tag k="created_by" v="RambaZamba"/>
  </node>
  <node id="313925259" version="3" timestamp="2009-03-31T09:44:22Z" uid="5164" user="woodpeck" changeset="871977" lat="48.0189235" lon="11.4189605">
    <tag k="created_by" v="RambaZamba"/>
  </node>
  <node id="313925259" version="4" timestamp="2009-04-02T19:45:19Z" uid="36809" user="pfoten_weg_!_" changeset="104288" lat="48.0189235" lon="11.4189605">
    <tag k="created_by" v="RambaZamba"/>
  </node>
  <node id="313925259" version="5" timestamp="2009-04-02T22:20:43Z" uid="5164" user="woodpeck" changeset="94633" lat="48.0189235" lon="11.4189605"/>
  <node id="313925259" version="6" timestamp="2009-04-03T05:54:54Z" uid="36809" user="pfoten_weg_!_" changeset="111830" lat="48.0189235" lon="11.4189605">
    <tag k="created_by" v="RambaZamba"/>
    <tag k="source" v="survey"/>
  </node>
  <node id="313925259" version="7" timestamp="2009-04-03T06:20:15Z" uid="36809" user="pfoten_weg_!_" changeset="111830" lat="48.0189235" lon="11.4189605">
    <tag k="created_by" v="RambaZamba"/>
    <tag k="source" v="survey"/>
  </node>
  <node id="313925260" version="1" timestamp="2008-11-23T14:31:30Z" uid="36809" user="pfoten_weg_!_" changeset="784011" lat="48.0143048" lon="11.4172794">
    <tag k="created_by" v="RambaZamba"/>
  </node>
  <node id="313925260" version="2" timestamp="2009-03-30T08:03:43Z" uid="36809" user="pfoten_weg_!_" changeset="869210" lat="48.0143048" lon="11.4172794">
    <tag k="created_by" v="RambaZamba"/>
  </node>
  <node id="313925260" version="3" timestamp="2009-03-31T09:44:35Z" uid="5164" user="woodpeck" changeset="871977" lat="48.0143048" lon="11.4172794">
    <tag k="created_by" v="RambaZamba"/>
  </node>
  <node id="313925260" version="4" timestamp="2009-04-02T19:47:40Z" uid="36809" user="pfoten_weg_!_" changeset="104288" lat="48.0143048" lon="11.4172794">
    <tag k="created_by" v="RambaZamba"/>
  </node>
  <node id="313925260" version="5" timestamp="2009-04-04T13:23:25Z" uid="5164" user="woodpeck" changeset="176514" lat="48.0143048" lon="11.4172794"/>
  <node id="313925260" version="6" timestamp="2009-04-05T02:02:20Z" uid="36809" user="pfoten_weg_!_" changeset="199711" lat="48.0143048" lon="11.4172794"/>
  <node id="313925261" version="1" timestamp="2008-11-23T14:31:30Z" uid="36809" user="pfoten_weg_!_" changeset="784011" lat="48.0201744" lon="11.4190718">
    <tag k="created_by" v="RambaZamba"/>
  </node>
  <node id="313925261" version="2" timestamp="2009-03-30T08:03:43Z" uid="36809" user="pfoten_weg_!_" changeset="869210" lat="48.0201744" lon="11.4190718">
    <tag k="created_by" v="RambaZamba"/>
  </node>
  <node id="313925261" version="3" timestamp="2009-03-31T09:44:13Z" uid="5164" user="woodpeck" changeset="871977" lat="48.0201744" lon="11.4190718">
    <tag k="created_by" v="RambaZamba"/>
  </node>
  <node id="313925261" version="4" timestamp="2009-04-02T19:45:19Z" uid="36809" user="pfoten_weg_!_" changeset="104288" lat="48.0201744" lon="11.4190718">
    <tag k="created_by" v="RambaZamba"/>
  </node>
  <node id="313925261" version="5" timestamp="2009-04-03T17:31:33Z" uid="5164" user="woodpeck" changeset="150055" lat="48.0201744" lon="11.4190718"/>
  <node id="313925261" version="6" timestamp="2009-04-04T08:48:28Z" uid="7596" user="ck3d" changeset="160917" lat="48.0201744" lon="11.4190718"/>
  <node id="313925262" version="1" timestamp="2008-11-23T14:31:30Z" uid="36809" user="pfoten_weg_!_" changeset="784011" lat="48.0166754" lon="11.4192667">
    <tag k="created_by" v="RambaZamba"/>
  </node>
  <node id="313925262" version="2" timestamp="2009-03-30T08:03:44Z" uid="36809" user="pfoten_weg_!_" changeset="869210" lat="48.0166754" lon="11.4192667">
    <tag k="created_by" v="RambaZamba"/>
  </node>
  <node id="313925262" version="3" timestamp="2009-03-31T09:44:30Z" uid="5164" user="woodpeck" changeset="871977" lat="48.0166754" lon="11.4192667">
    <tag k="created_by" v="RambaZamba"/>
  </node>
  <node id="313925262" version="4" timestamp="2009-04-02T19:45:19Z" uid="36809" user="pfoten_weg_!_" changeset="104288" lat="48.0166754" lon="11.4192667">
    <tag k="created_by" v="RambaZamba"/>
  </node>
  <node id="313925262" version="5" timestamp="2009-04-03T08:45:53Z" uid="5164" user="woodpeck" changeset="150055" lat="48.0166754" lon="11.4192667"/>
  <node id="313925262" version="6" timestamp="2009-04-03T14:17:13Z" uid="36809" user="pfoten_weg_!_" changeset="123862" lat="48.0166754" lon="11.4192667"/>
  <node id="313925264" version="1" timestamp="2008-11-23T14:31:30Z" uid="36809" user="pfoten_weg_!_" changeset="784011" lat="48.0173082" lon="11.4171971">
    <tag k="created_by" v="RambaZamba"/>
  </node>
  <node id="313925264" version="2" timestamp="2009-03-30T08:03:42Z" uid="36809" user="pfoten_weg_!_" changeset="869210" lat="48.0173082" lon="11.4171971">
    <tag k="created_by" v="RambaZamba"/>
  </node>
  <node id="313925264" version="3" timestamp="2009-03-31T09:44:41Z" uid="5164" user="woodpeck" changeset="871977" lat="48.0173082" lon="11.4171971">
    <tag k="created_by" v="RambaZamba"/>
  </node>
  <node id="313925264" version="4" timestamp="2009-04-02T19:45:17Z" uid="36809" user="pfoten_weg_!_" changeset="104288" lat="48.0173082" lon="11.4171971">
    <tag k="created_by" v="RambaZamba"/>
  </node>
  <node id="313925264" version="5" timestamp="2009-04-03T06:56:25Z" uid="5164" user="woodpeck" changeset="150055" lat="48.0173082" lon="11.4171971"/>
  <node id="313925264" version="6" timestamp="2009-04-03T14:17:13Z" uid="36809" user="pfoten_weg_!_" changeset="123862" lat="48.0173082" lon="11.4171971"/>
  <node id="313925265" version="1" timestamp="2008-11-23T14:31:31Z" uid="36809" user="pfoten_weg_!_" changeset="784011" lat="48.0176859" lon="11.4199448">
    <tag k="created_by" v="RambaZamba"/>
  </node>
  <node id="313925265" version="2" timestamp="2009-03-30T08:03:41Z" uid="36809" user="pfoten_weg_!_" changeset="869210" lat="48.0176859" lon="11.4199448">
    <tag k="created_by" v="RambaZamba"/>
  </node>
  <node id="313925265" version="3" timestamp="2009-03-31T09:44:31Z" uid="5164" user="woodpeck" changeset="871977" lat="48.0176859" lon="11.4199448">
    <tag k="created_by" v="RambaZamba"/>
  </node>
  <node id="313925265" version="4" timestamp="2009-04-02T15:11:54Z" uid="5164" user="woodpeck" changeset="94633" lat="48.0176859" lon="11.4199448">
    <tag k="created_by" v="RambaZamba"/>
  </node>
  <node id="313925265" version="5" timestamp="2009-04-02T19:45:17Z" uid="36809" user="pfoten_weg_!_" changeset="104288" lat="48.0176859" lon="11.4199448">
    <tag k="created_by" v="RambaZamba"/>
  </node>
  <node id="313925267" version="1" timestamp="2008-11-23T14:31:31Z" uid="36809" user="pfoten_weg_!_" changeset="784011" lat="48.0162116" lon="11.4163989">
    <tag k="created_by" v="RambaZamba"/>
  </node>
  <node id="313925267" version="2" timestamp="2009-03-30T08:03:42Z" uid="36809" user="pfoten_weg_!_" changeset="869210" lat="48.0162116" lon="11.4163989">
    <tag k="created_by" v="RambaZamba"/>
  </node>
  <node id="313925267" version="3" timestamp="2009-03-31T09:44:42Z" uid="5164" user="woodpeck" changeset="871977" lat="48.0162116" lon="11.4163989">
    <tag k="created_by" v="RambaZamba"/>
  </node>
  <node id="313925267" version="4" timestamp="2009-04-02T19:45:17Z" uid="36809" user="pfoten_weg_!_" changeset="104288" lat="48.0162116" lon="11.4163989">
    <tag k="created_by" v="RambaZamba"/>
  </node>
  <node id="313925267" version="5" timestamp="2009-04-03T16:17:59Z" uid="5164" user="woodpeck" changeset="150055" lat="48.0162116" lon="11.4163989"/>
  <node id="313925267" version="6" timestamp="2009-04-03T18:14:05Z" uid="36809" user="pfoten_weg_!_" changeset="137388" lat="48.0162116" lon="11.4163989"/>
  <node id="313925273" version="1" timestamp="2008-11-23T14:31:31Z" uid="36809" user="pfoten_weg_!_" changeset="784011" lat="48.011979" lon="11.4177435">
    <tag k="created_by" v="RambaZamba"/>
  </node>
  <node id="313925273" version="2" timestamp="2008-11-23T15:22:32Z" uid="36809" user="pfoten_weg_!_" changeset="784011" lat="48.011979" lon="11.4177435">
    <tag k="created_by" v="RambaZamba"/>
  </node>
  <node id="313925273" version="3" timestamp="2009-03-30T08:03:26Z" uid="36809" user="pfoten_weg_!_" changeset="869210" lat="48.011979" lon="11.4177435">
    <tag k="created_by" v="RambaZamba"/>
  </node>
  <node id="313925273" version="4" timestamp="2009-04-04T08:48:14Z" uid="7596" user="ck3d" changeset="160917" lat="48.0119723" lon="11.4176731">
    <tag k="created_by" v="RambaZamba"/>
  </node>
  <node id="313925273" version="5" timestamp="2009-04-05T10:35:04Z" uid="36809" user="pfoten_weg_!_" changeset="202851" lat="48.0120356" lon="11.4176757">
    <tag k="created_by" v="RambaZamba"/>
  </node>
  <node id="313925273" version="6" timestamp="2009-08-12T13:34:57Z" uid="156995" user="HampelZamba" changeset="2118817" lat="48.0120356" lon="11.4176757"/>
  <node id="313925273" version="7" timestamp="2009-08-26T08:10:09Z" uid="36809" user="pfoten_weg_!_" changeset="2264689" lat="48.0120356" lon="11.4176757"/>
  <node id="313925273" version="8" timestamp="2011-12-31T13:17:16Z" uid="13832" user="Peter14" changeset="10254576" lat="48.0120356" lon="11.4176757"/>
  <node id="313925279" version="1" timestamp="2008-11-23T14:31:31Z" uid="36809" user="pfoten_weg_!_" changeset="784011" lat="48.0273603" lon="11.4251987">
    <tag k="created_by" v="RambaZamba"/>
  </node>
  <node id="313925279" version="2" timestamp="2009-04-03T05:32:36Z" uid="36809" user="pfoten_weg_!_" changeset="111830" lat="48.0273287" lon="11.4251709">
    <tag k="created_by" v="RambaZamba"/>
  </node>
  <node id="313925279" version="3" timestamp="2009-04-03T05:54:56Z" uid="36809" user="pfoten_weg_!_" changeset="111830" lat="48.0273287" lon="11.4251709">
    <tag k="created_by" v="RambaZamba"/>
    <tag k="source" v="survey"/>
  </node>
  <node id="313925279" version="4" timestamp="2009-04-04T08:48:14Z" uid="7596" user="ck3d" changeset="160917" lat="48.0277559" lon="11.4253715">
    <tag k="created_by" v="RambaZamba"/>
    <tag k="source" v="survey"/>
  </node>
  <node id="313925279" version="5" timestamp="2009-08-12T13:34:57Z" uid="156995" user="HampelZamba" changeset="2118817" lat="48.0277559" lon="11.4253715">
    <tag k="source" v="survey"/>
  </node>
  <node id="313925279" version="6" timestamp="2009-08-19T13:44:11Z" uid="36809" user="pfoten_weg_!_" changeset="2201154" lat="48.0277559" lon="11.4253715">
    <tag k="source" v="survey at RambaZamba"/>
  </node>
  <node id="313925279" version="7" timestamp="2009-08-28T19:41:20Z" uid="156995" user="HampelZamba" changeset="2294580" lat="48.0277559" lon="11.4253715"/>
  <node id="313925279" version="8" timestamp="2009-08-31T17:38:05Z" uid="36809" user="pfoten_weg_!_" changeset="2328905" lat="48.0277559" lon="11.4253715"/>
  <node id="313925279" version="9" timestamp="2011-06-07T10:45:01Z" uid="137711" user="avus" changeset="8368903" lat="48.0277644" lon="11.4254056"/>
  <node id="313925284" version="1" timestamp="2008-11-23T14:31:32Z" uid="36809" user="pfoten_weg_!_" changeset="784011" lat="48.0188111" lon="11.4202624">
    <tag k="created_by" v="RambaZamba"/>
  </node>
  <node id="313925284" version="2" timestamp="2009-03-30T08:03:45Z" uid="36809" user="pfoten_weg_!_" changeset="869210" lat="48.0188111" lon="11.4202624">
    <tag k="created_by" v="RambaZamba"/>
  </node>
  <node id="313925284" version="3" timestamp="2009-03-31T09:44:32Z" uid="5164" user="woodpeck" changeset="871977" lat="48.0188111" lon="11.4202624">
    <tag k="created_by" v="RambaZamba"/>
  </node>
  <node id="313925284" version="4" timestamp="2009-04-02T18:41:34Z" uid="5164" user="woodpeck" changeset="94633" lat="48.0188111" lon="11.4202624">
    <tag k="created_by" v="RambaZamba"/>
  </node>
  <node id="313925284" version="5" timestamp="2009-04-02T19:45:21Z" uid="36809" user="pfoten_weg_!_" changeset="104288" lat="48.0188111" lon="11.4202624">
    <tag k="created_by" v="RambaZamba"/>
  </node>
  <node id="313925286" version="1" timestamp="2008-11-23T14:31:32Z" uid="36809" user="pfoten_weg_!_" changeset="784011" lat="48.0254544" lon="11.4234713">
    <tag k="created_by" v="RambaZamba"/>
  </node>
  <node id="313925286" version="2" timestamp="2009-04-03T05:32:36Z" uid="36809" user="pfoten_weg_!_" changeset="111830" lat="48.0254103" lon="11.42344">
    <tag k="created_by" v="RambaZamba"/>
  </node>
  <node id="313925286" version="3" timestamp="2009-04-03T05:54:53Z" uid="36809" user="pfoten_weg_!_" changeset="111830" lat="48.0254103" lon="11.42344">
    <tag k="created_by" v="RambaZamba"/>
    <tag k="source" v="survey"/>
  </node>
  <node id="313925286" version="4" timestamp="2009-04-04T08:48:14Z" uid="7596" user="ck3d" changeset="160917" lat="48.0264208" lon="11.4242057">
    <tag k="created_by" v="RambaZamba"/>
    <tag k="source" v="survey"/>
  </node>
  <node id="313925286" version="5" timestamp="2009-08-12T13:34:57Z" uid="156995" user="HampelZamba" changeset="2118817" lat="48.0264208" lon="11.4242057">
    <tag k="source" v="survey"/>
  </node>
  <node id="313925286" version="6" timestamp="2009-08-19T13:44:05Z" uid="36809" user="pfoten_weg_!_" changeset="2201154" lat="48.0264208" lon="11.4242057">
    <tag k="source" v="survey at RambaZamba"/>
  </node>
  <node id="313925286" version="7" timestamp="2009-08-28T19:41:20Z" uid="156995" user="HampelZamba" changeset="2294580" lat="48.0264208" lon="11.4242057"/>
  <node id="313925286" version="8" timestamp="2009-08-31T17:38:05Z" uid="36809" user="pfoten_weg_!_" changeset="2328905" lat="48.0264208" lon="11.4242057"/>
  <node id="313925286" version="9" timestamp="2011-06-07T10:45:02Z" uid="137711" user="avus" changeset="8368903" lat="48.0263861" lon="11.4242206"/>
  <node id="313925287" version="1" timestamp="2008-11-23T14:31:32Z" uid="36809" user="pfoten_weg_!_" changeset="784011" lat="48.0160336" lon="11.4185764">
    <tag k="created_by" v="RambaZamba"/>
  </node>
  <node id="313925287" version="2" timestamp="2009-03-30T08:03:45Z" uid="36809" user="pfoten_weg_!_" changeset="869210" lat="48.0160336" lon="11.4185764">
    <tag k="created_by" v="RambaZamba"/>
  </node>
  <node id="313925287" version="3" timestamp="2009-03-31T09:44:30Z" uid="5164" user="woodpeck" changeset="871977" lat="48.0160336" lon="11.4185764">
    <tag k="created_by" v="RambaZamba"/>
  </node>
  <node id="313925287" version="4" timestamp="2009-04-01T01:59:36Z" uid="5164" user="woodpeck" changeset="41055" lat="48.0160336" lon="11.4185764">
    <tag k="created_by" v="RambaZamba"/>
  </node>
  <node id="313925287" version="5" timestamp="2009-04-02T19:45:21Z" uid="36809" user="pfoten_weg_!_" changeset="104288" lat="48.0160336" lon="11.4185764">
    <tag k="created_by" v="RambaZamba"/>
  </node>
  <node id="313925289" version="1" timestamp="2008-11-23T14:31:32Z" uid="36809" user="pfoten_weg_!_" changeset="784011" lat="48.0185232" lon="11.42001">
    <tag k="created_by" v="RambaZamba"/>
  </node>
  <node id="313925289" version="2" timestamp="2009-03-30T08:03:45Z" uid="36809" user="pfoten_weg_!_" changeset="869210" lat="48.0185232" lon="11.42001">
    <tag k="created_by" v="RambaZamba"/>
  </node>
  <node id="313925289" version="3" timestamp="2009-03-31T09:44:24Z" uid="5164" user="woodpeck" changeset="871977" lat="48.0185232" lon="11.42001">
    <tag k="created_by" v="RambaZamba"/>
  </node>
  <node id="313925289" version="4" timestamp="2009-04-02T19:45:22Z" uid="36809" user="pfoten_weg_!_" changeset="104288" lat="48.0185232" lon="11.42001">
    <tag k="created_by" v="RambaZamba"/>
  </node>
  <node id="313925289" version="5" timestamp="2009-04-03T22:32:32Z" uid="5164" user="woodpeck" changeset="150055" lat="48.0185232" lon="11.42001"/>
  <node id="313925289" version="6" timestamp="2009-04-04T08:52:48Z" uid="7596" user="ck3d" changeset="160917" lat="48.0185232" lon="11.42001"/>
  <node id="313925290" version="1" timestamp="2008-11-23T14:31:33Z" uid="36809" user="pfoten_weg_!_" changeset="784011" lat="48.0141446" lon="11.4133691">
    <tag k="created_by" v="RambaZamba"/>
  </node>
  <node id="313925290" version="2" timestamp="2009-03-30T08:03:45Z" uid="36809" user="pfoten_weg_!_" changeset="869210" lat="48.0141446" lon="11.4133691">
    <tag k="created_by" v="RambaZamba"/>
  </node>
  <node id="313925290" version="3" timestamp="2009-03-31T09:44:43Z" uid="5164" user="woodpeck" changeset="871977" lat="48.0141446" lon="11.4133691">
    <tag k="created_by" v="RambaZamba"/>
  </node>
  <node id="313925290" version="4" timestamp="2009-04-02T07:34:24Z" uid="5164" user="woodpeck" changeset="94633" lat="48.0141446" lon="11.4133691">
    <tag k="created_by" v="RambaZamba"/>
  </node>
  <node id="313925290" version="5" timestamp="2009-04-02T19:45:22Z" uid="36809" user="pfoten_weg_!_" changeset="104288" lat="48.0141446" lon="11.4133691">
    <tag k="created_by" v="RambaZamba"/>
  </node>
  <node id="313925308" version="1" timestamp="2008-11-23T14:31:36Z" uid="36809" user="pfoten_weg_!_" changeset="784011" lat="48.0171405" lon="11.4196186">
    <tag k="created_by" v="RambaZamba"/>
  </node>
  <node id="313925308" version="2" timestamp="2009-03-30T08:03:44Z" uid="36809" user="pfoten_weg_!_" changeset="869210" lat="48.0171405" lon="11.4196186">
    <tag k="created_by" v="RambaZamba"/>
  </node>
  <node id="313925308" version="3" timestamp="2009-03-31T09:44:31Z" uid="5164" user="woodpeck" changeset="871977" lat="48.0171405" lon="11.4196186">
    <tag k="created_by" v="RambaZamba"/>
  </node>
  <node id="313925308" version="4" timestamp="2009-04-02T09:31:13Z" uid="5164" user="woodpeck" changeset="94633" lat="48.0171405" lon="11.4196186">
    <tag k="created_by" v="RambaZamba"/>
  </node>
  <node id="313925308" version="5" timestamp="2009-04-02T19:45:21Z" uid="36809" user="pfoten_weg_!_" changeset="104288" lat="48.0171405" lon="11.4196186">
    <tag k="created_by" v="RambaZamba"/>
  </node>
  <node id="313925309" version="1" timestamp="2008-11-23T14:31:36Z" uid="36809" user="pfoten_weg_!_" changeset="784011" lat="48.0150633" lon="11.4150256">
    <tag k="created_by" v="RambaZamba"/>
  </node>
  <node id="313925309" version="2" timestamp="2009-03-30T08:03:44Z" uid="36809" user="pfoten_weg_!_" changeset="869210" lat="48.0150633" lon="11.4150256">
    <tag k="created_by" v="RambaZamba"/>
  </node>
  <node id="313925309" version="3" timestamp="2009-03-31T09:44:42Z" uid="5164" user="woodpeck" changeset="871977" lat="48.0150633" lon="11.4150256">
    <tag k="created_by" v="RambaZamba"/>
  </node>
  <node id="313925309" version="4" timestamp="2009-04-02T18:58:01Z" uid="5164" user="woodpeck" changeset="94633" lat="48.0150633" lon="11.4150256">
    <tag k="created_by" v="RambaZamba"/>
  </node>
  <node id="313925309" version="5" timestamp="2009-04-02T19:45:20Z" uid="36809" user="pfoten_weg_!_" changeset="104288" lat="48.0150633" lon="11.4150256">
    <tag k="created_by" v="RambaZamba"/>
  </node>
  <node id="313925310" version="1" timestamp="2008-11-23T14:31:36Z" uid="36809" user="pfoten_weg_!_" changeset="784011" lat="48.0182944" lon="11.4201851">
    <tag k="created_by" v="RambaZamba"/>
  </node>
  <node id="313925310" version="2" timestamp="2009-03-30T08:03:44Z" uid="36809" user="pfoten_weg_!_" changeset="869210" lat="48.0182944" lon="11.4201851">
    <tag k="created_by" v="RambaZamba"/>
  </node>
  <node id="313925310" version="3" timestamp="2009-03-31T09:44:31Z" uid="5164" user="woodpeck" changeset="871977" lat="48.0182944" lon="11.4201851">
    <tag k="created_by" v="RambaZamba"/>
  </node>
  <node id="313925310" version="4" timestamp="2009-04-02T19:45:20Z" uid="36809" user="pfoten_weg_!_" changeset="104288" lat="48.0182944" lon="11.4201851">
    <tag k="created_by" v="RambaZamba"/>
  </node>
  <node id="313925310" version="5" timestamp="2009-04-02T22:01:48Z" uid="5164" user="woodpeck" changeset="94633" lat="48.0182944" lon="11.4201851"/>
  <node id="313925310" version="6" timestamp="2009-04-03T05:54:53Z" uid="36809" user="pfoten_weg_!_" changeset="111830" lat="48.0182944" lon="11.4201851">
    <tag k="created_by" v="RambaZamba"/>
    <tag k="source" v="survey"/>
  </node>
  <node id="313925310" version="7" timestamp="2009-04-03T06:20:15Z" uid="36809" user="pfoten_weg_!_" changeset="111830" lat="48.0182944" lon="11.4201851">
    <tag k="created_by" v="RambaZamba"/>
    <tag k="source" v="survey"/>
  </node>
  <node id="313925311" version="1" timestamp="2008-11-23T14:31:36Z" uid="36809" user="pfoten_weg_!_" changeset="784011" lat="48.0156256" lon="11.4157858">
    <tag k="created_by" v="RambaZamba"/>
  </node>
  <node id="313925311" version="2" timestamp="2009-03-30T08:03:44Z" uid="36809" user="pfoten_weg_!_" changeset="869210" lat="48.0156256" lon="11.4157858">
    <tag k="created_by" v="RambaZamba"/>
  </node>
  <node id="313925311" version="3" timestamp="2009-03-31T09:44:42Z" uid="5164" user="woodpeck" changeset="871977" lat="48.0156256" lon="11.4157858">
    <tag k="created_by" v="RambaZamba"/>
  </node>
  <node id="313925311" version="4" timestamp="2009-04-02T10:39:11Z" uid="5164" user="woodpeck" changeset="94633" lat="48.0156256" lon="11.4157858">
    <tag k="created_by" v="RambaZamba"/>
  </node>
  <node id="313925311" version="5" timestamp="2009-04-02T19:45:20Z" uid="36809" user="pfoten_weg_!_" changeset="104288" lat="48.0156256" lon="11.4157858">
    <tag k="created_by" v="RambaZamba"/>
  </node>
  <node id="313925312" version="1" timestamp="2008-11-23T14:31:37Z" uid="36809" user="pfoten_weg_!_" changeset="784011" lat="48.013559" lon="11.4171885">
    <tag k="created_by" v="RambaZamba"/>
  </node>
  <node id="313925312" version="2" timestamp="2009-03-30T08:03:47Z" uid="36809" user="pfoten_weg_!_" changeset="869210" lat="48.013559" lon="11.4171885">
    <tag k="created_by" v="RambaZamba"/>
  </node>
  <node id="313925313" version="1" timestamp="2008-11-23T14:31:37Z" uid="36809" user="pfoten_weg_!_" changeset="784011" lat="48.02015" lon="11.4203471">
    <tag k="created_by" v="RambaZamba"/>
  </node>
  <node id="313925313" version="2" timestamp="2009-03-30T08:03:47Z" uid="36809" user="pfoten_weg_!_" changeset="869210" lat="48.02015" lon="11.4203471">
    <tag k="created_by" v="RambaZamba"/>
  </node>
  <node id="313925313" version="3" timestamp="2009-03-31T09:44:33Z" uid="5164" user="woodpeck" changeset="871977" lat="48.02015" lon="11.4203471">
    <tag k="created_by" v="RambaZamba"/>
  </node>
  <node id="313925313" version="4" timestamp="2009-04-02T02:20:25Z" uid="5164" user="woodpeck" changeset="94633" lat="48.02015" lon="11.4203471">
    <tag k="created_by" v="RambaZamba"/>
  </node>
  <node id="313925313" version="5" timestamp="2009-04-02T19:45:24Z" uid="36809" user="pfoten_weg_!_" changeset="104288" lat="48.02015" lon="11.4203471">
    <tag k="created_by" v="RambaZamba"/>
  </node>
  <node id="313925314" version="1" timestamp="2008-11-23T14:31:37Z" uid="36809" user="pfoten_weg_!_" changeset="784011" lat="48.0378869" lon="11.4327961">
    <tag k="created_by" v="RambaZamba"/>
  </node>
  <node id="313925314" version="2" timestamp="2009-04-03T05:54:52Z" uid="36809" user="pfoten_weg_!_" changeset="111830" lat="48.0378869" lon="11.4327961">
    <tag k="created_by" v="RambaZamba"/>
    <tag k="source" v="survey"/>
  </node>
  <node id="313925314" version="3" timestamp="2009-08-12T13:34:57Z" uid="156995" user="HampelZamba" changeset="2118817" lat="48.0378869" lon="11.4327961">
    <tag k="source" v="survey"/>
  </node>
  <node id="313925314" version="4" timestamp="2009-08-19T13:43:56Z" uid="36809" user="pfoten_weg_!_" changeset="2201154" lat="48.0378869" lon="11.4327961">
    <tag k="source" v="survey at RambaZamba"/>
  </node>
  <node id="313925314" version="5" timestamp="2009-08-28T19:41:20Z" uid="156995" user="HampelZamba" changeset="2294580" lat="48.0378869" lon="11.4327961"/>
  <node id="313925314" version="6" timestamp="2009-08-31T17:38:04Z" uid="36809" user="pfoten_weg_!_" changeset="2328905" lat="48.0378869" lon="11.4327961"/>
  <node id="313925314" version="7" timestamp="2011-06-07T10:45:01Z" uid="137711" user="avus" changeset="8368903" lat="48.0379248" lon="11.4327801"/>
  <node id="313925314" version="8" timestamp="2011-12-31T12:02:07Z" uid="13832" user="Peter14" changeset="10253930" lat="48.0379248" lon="11.4327801"/>
  <node id="313925315" version="1" timestamp="2008-11-23T14:31:37Z" uid="36809" user="pfoten_weg_!_" changeset="784011" lat="48.0138576" lon="11.4171284">
    <tag k="created_by" v="RambaZamba"/>
  </node>
  <node id="313925315" version="2" timestamp="2009-03-30T08:03:47Z" uid="36809" user="pfoten_weg_!_" changeset="869210" lat="48.0138576" lon="11.4171284">
    <tag k="created_by" v="RambaZamba"/>
  </node>
  <node id="313925316" version="1" timestamp="2008-11-23T14:31:38Z" uid="36809" user="pfoten_weg_!_" changeset="784011" lat="48.0213728" lon="11.4204501">
    <tag k="created_by" v="RambaZamba"/>
  </node>
  <node id="313925316" version="2" timestamp="2009-03-30T08:03:46Z" uid="36809" user="pfoten_weg_!_" changeset="869210" lat="48.0213728" lon="11.4204501">
    <tag k="created_by" v="RambaZamba"/>
  </node>
  <node id="313925316" version="3" timestamp="2009-03-31T09:44:33Z" uid="5164" user="woodpeck" changeset="871977" lat="48.0213728" lon="11.4204501">
    <tag k="created_by" v="RambaZamba"/>
  </node>
  <node id="313925316" version="4" timestamp="2009-04-02T03:16:38Z" uid="5164" user="woodpeck" changeset="94633" lat="48.0213728" lon="11.4204501">
    <tag k="created_by" v="RambaZamba"/>
  </node>
  <node id="313925316" version="5" timestamp="2009-04-02T19:45:23Z" uid="36809" user="pfoten_weg_!_" changeset="104288" lat="48.0213728" lon="11.4204501">
    <tag k="created_by" v="RambaZamba"/>
  </node>
  <node id="313925317" version="1" timestamp="2008-11-23T14:31:38Z" uid="36809" user="pfoten_weg_!_" changeset="784011" lat="48.0371867" lon="11.4321008">
    <tag k="created_by" v="RambaZamba"/>
  </node>
  <node id="313925317" version="2" timestamp="2009-04-03T05:54:52Z" uid="36809" user="pfoten_weg_!_" changeset="111830" lat="48.0371867" lon="11.4321008">
    <tag k="created_by" v="RambaZamba"/>
    <tag k="source" v="survey"/>
  </node>
  <node id="313925317" version="3" timestamp="2009-08-12T13:34:57Z" uid="156995" user="HampelZamba" changeset="2118817" lat="48.0371867" lon="11.4321008">
    <tag k="source" v="survey"/>
  </node>
  <node id="313925317" version="4" timestamp="2009-08-19T13:43:57Z" uid="36809" user="pfoten_weg_!_" changeset="2201154" lat="48.0371867" lon="11.4321008">
    <tag k="source" v="survey at RambaZamba"/>
  </node>
  <node id="313925317" version="5" timestamp="2009-08-28T19:41:20Z" uid="156995" user="HampelZamba" changeset="2294580" lat="48.0371867" lon="11.4321008"/>
  <node id="313925317" version="6" timestamp="2009-08-31T17:38:04Z" uid="36809" user="pfoten_weg_!_" changeset="2328905" lat="48.0371867" lon="11.4321008"/>
  <node id="313925317" version="7" timestamp="2011-06-07T10:45:02Z" uid="137711" user="avus" changeset="8368903" lat="48.0371899" lon="11.4320403"/>
  <node id="313925317" version="8" timestamp="2011-12-31T12:02:07Z" uid="13832" user="Peter14" changeset="10253930" lat="48.0371899" lon="11.4320403"/>
  <node id="313925318" version="1" timestamp="2008-11-23T14:31:38Z" uid="36809" user="pfoten_weg_!_" changeset="784011" lat="48.01922" lon="11.4203042">
    <tag k="created_by" v="RambaZamba"/>
  </node>
  <node id="313925318" version="2" timestamp="2009-03-30T08:03:46Z" uid="36809" user="pfoten_weg_!_" changeset="869210" lat="48.01922" lon="11.4203042">
    <tag k="created_by" v="RambaZamba"/>
  </node>
  <node id="313925318" version="3" timestamp="2009-03-31T09:44:32Z" uid="5164" user="woodpeck" changeset="871977" lat="48.01922" lon="11.4203042">
    <tag k="created_by" v="RambaZamba"/>
  </node>
  <node id="313925318" version="4" timestamp="2009-04-01T20:42:14Z" uid="5164" user="woodpeck" changeset="41055" lat="48.01922" lon="11.4203042">
    <tag k="created_by" v="RambaZamba"/>
  </node>
  <node id="313925318" version="5" timestamp="2009-04-02T19:45:23Z" uid="36809" user="pfoten_weg_!_" changeset="104288" lat="48.01922" lon="11.4203042">
    <tag k="created_by" v="RambaZamba"/>
  </node>
  <node id="313925319" version="1" timestamp="2008-11-23T14:31:38Z" uid="36809" user="pfoten_weg_!_" changeset="784011" lat="48.0145922" lon="11.4142408">
    <tag k="created_by" v="RambaZamba"/>
  </node>
  <node id="313925319" version="2" timestamp="2009-03-30T08:03:47Z" uid="36809" user="pfoten_weg_!_" changeset="869210" lat="48.0145922" lon="11.4142408">
    <tag k="created_by" v="RambaZamba"/>
  </node>
  <node id="313925319" version="3" timestamp="2009-03-31T09:44:43Z" uid="5164" user="woodpeck" changeset="871977" lat="48.0145922" lon="11.4142408">
    <tag k="created_by" v="RambaZamba"/>
  </node>
  <node id="313925319" version="4" timestamp="2009-04-02T19:45:23Z" uid="36809" user="pfoten_weg_!_" changeset="104288" lat="48.0145922" lon="11.4142408">
    <tag k="created_by" v="RambaZamba"/>
  </node>
  <node id="313925319" version="5" timestamp="2009-04-03T21:09:40Z" uid="5164" user="woodpeck" changeset="150055" lat="48.0145922" lon="11.4142408"/>
  <node id="313925319" version="6" timestamp="2009-04-04T08:52:48Z" uid="7596" user="ck3d" changeset="160917" lat="48.0145922" lon="11.4142408"/>
  <node id="313925320" version="1" timestamp="2008-11-23T14:31:39Z" uid="36809" user="pfoten_weg_!_" changeset="784011" lat="48.0187743" lon="11.4187116">
    <tag k="created_by" v="RambaZamba"/>
  </node>
  <node id="313925320" version="2" timestamp="2009-03-30T08:03:48Z" uid="36809" user="pfoten_weg_!_" changeset="869210" lat="48.0187743" lon="11.4187116">
    <tag k="created_by" v="RambaZamba"/>
  </node>
  <node id="313925320" version="3" timestamp="2009-03-31T09:44:21Z" uid="5164" user="woodpeck" changeset="871977" lat="48.0187743" lon="11.4187116">
    <tag k="created_by" v="RambaZamba"/>
  </node>
  <node id="313925320" version="4" timestamp="2009-04-01T18:10:24Z" uid="5164" user="woodpeck" changeset="41055" lat="48.0187743" lon="11.4187116">
    <tag k="created_by" v="RambaZamba"/>
  </node>
  <node id="313925320" version="5" timestamp="2009-04-02T19:45:25Z" uid="36809" user="pfoten_weg_!_" changeset="104288" lat="48.0187743" lon="11.4187116">
    <tag k="created_by" v="RambaZamba"/>
  </node>
  <node id="313925321" version="1" timestamp="2008-11-23T14:31:39Z" uid="36809" user="pfoten_weg_!_" changeset="784011" lat="48.0181829" lon="11.4182996">
    <tag k="created_by" v="RambaZamba"/>
  </node>
  <node id="313925321" version="2" timestamp="2009-03-30T08:03:48Z" uid="36809" user="pfoten_weg_!_" changeset="869210" lat="48.0181829" lon="11.4182996">
    <tag k="created_by" v="RambaZamba"/>
  </node>
  <node id="313925321" version="3" timestamp="2009-03-31T09:44:20Z" uid="5164" user="woodpeck" changeset="871977" lat="48.0181829" lon="11.4182996">
    <tag k="created_by" v="RambaZamba"/>
  </node>
  <node id="313925321" version="4" timestamp="2009-04-02T19:45:25Z" uid="36809" user="pfoten_weg_!_" changeset="104288" lat="48.0181829" lon="11.4182996">
    <tag k="created_by" v="RambaZamba"/>
  </node>
  <node id="313925321" version="5" timestamp="2009-04-03T00:32:28Z" uid="5164" user="woodpeck" changeset="150055" lat="48.0181829" lon="11.4182996"/>
  <node id="313925321" version="6" timestamp="2009-04-03T05:54:51Z" uid="36809" user="pfoten_weg_!_" changeset="111830" lat="48.0181829" lon="11.4182996">
    <tag k="created_by" v="RambaZamba"/>
    <tag k="source" v="survey"/>
  </node>
  <node id="313925321" version="7" timestamp="2009-04-03T06:20:15Z" uid="36809" user="pfoten_weg_!_" changeset="111830" lat="48.0181829" lon="11.4182996">
    <tag k="created_by" v="RambaZamba"/>
    <tag k="source" v="survey"/>
  </node>
  <node id="313925321" version="8" timestamp="2009-04-03T20:51:21Z" uid="5164" user="woodpeck" changeset="150055" lat="48.0181829" lon="11.4182996">
    <tag k="created_by" v="RambaZamba"/>
    <tag k="source" v="survey"/>
  </node>
  <node id="313925321" version="9" timestamp="2009-04-04T08:48:28Z" uid="7596" user="ck3d" changeset="160917" lat="48.0181829" lon="11.4182996">
    <tag k="created_by" v="RambaZamba"/>
    <tag k="source" v="survey"/>
  </node>
  <node id="313925322" version="1" timestamp="2008-11-23T14:31:39Z" uid="36809" user="pfoten_weg_!_" changeset="784011" lat="48.0129966" lon="11.417374">
    <tag k="created_by" v="RambaZamba"/>
  </node>
  <node id="313925322" version="2" timestamp="2009-03-30T08:03:49Z" uid="36809" user="pfoten_weg_!_" changeset="869210" lat="48.0129966" lon="11.417374">
    <tag k="created_by" v="RambaZamba"/>
  </node>
  <node id="313925322" version="3" timestamp="2009-03-31T09:44:36Z" uid="5164" user="woodpeck" changeset="871977" lat="48.0129966" lon="11.417374">
    <tag k="created_by" v="RambaZamba"/>
  </node>
  <node id="313925322" version="4" timestamp="2009-04-02T19:47:41Z" uid="36809" user="pfoten_weg_!_" changeset="104288" lat="48.0129966" lon="11.417374">
    <tag k="created_by" v="RambaZamba"/>
  </node>
  <node id="313925322" version="5" timestamp="2009-04-03T23:04:44Z" uid="5164" user="woodpeck" changeset="176514" lat="48.0129966" lon="11.417374"/>
  <node id="313925322" version="6" timestamp="2009-04-04T08:52:48Z" uid="7596" user="ck3d" changeset="160917" lat="48.0129966" lon="11.417374"/>
  <node id="313925324" version="1" timestamp="2008-11-23T14:31:39Z" uid="36809" user="pfoten_weg_!_" changeset="784011" lat="48.0161503" lon="11.4184658">
    <tag k="created_by" v="RambaZamba"/>
  </node>
  <node id="313925324" version="2" timestamp="2009-03-30T08:03:48Z" uid="36809" user="pfoten_weg_!_" changeset="869210" lat="48.0161503" lon="11.4184658">
    <tag k="created_by" v="RambaZamba"/>
  </node>
  <node id="313925324" version="3" timestamp="2009-03-31T09:44:26Z" uid="5164" user="woodpeck" changeset="871977" lat="48.0161503" lon="11.4184658">
    <tag k="created_by" v="RambaZamba"/>
  </node>
  <node id="313925324" version="4" timestamp="2009-04-02T19:45:24Z" uid="36809" user="pfoten_weg_!_" changeset="104288" lat="48.0161503" lon="11.4184658">
    <tag k="created_by" v="RambaZamba"/>
  </node>
  <node id="313925324" version="5" timestamp="2009-04-04T08:59:00Z" uid="5164" user="woodpeck" changeset="176514" lat="48.0161503" lon="11.4184658"/>
  <node id="313925324" version="6" timestamp="2009-04-05T01:39:37Z" uid="36809" user="pfoten_weg_!_" changeset="199711" lat="48.0161503" lon="11.4184658"/>
  <node id="313925326" version="1" timestamp="2008-11-23T14:31:39Z" uid="36809" user="pfoten_weg_!_" changeset="784011" lat="48.0155495" lon="11.4178348">
    <tag k="created_by" v="RambaZamba"/>
  </node>
  <node id="313925326" version="2" timestamp="2009-03-30T08:03:48Z" uid="36809" user="pfoten_weg_!_" changeset="869210" lat="48.0155495" lon="11.4178348">
    <tag k="created_by" v="RambaZamba"/>
  </node>
  <node id="313925326" version="3" timestamp="2009-03-31T09:44:29Z" uid="5164" user="woodpeck" changeset="871977" lat="48.0155495" lon="11.4178348">
    <tag k="created_by" v="RambaZamba"/>
  </node>
  <node id="313925326" version="4" timestamp="2009-04-02T16:23:04Z" uid="5164" user="woodpeck" changeset="94633" lat="48.0155495" lon="11.4178348">
    <tag k="created_by" v="RambaZamba"/>
  </node>
  <node id="313925326" version="5" timestamp="2009-04-02T19:45:24Z" uid="36809" user="pfoten_weg_!_" changeset="104288" lat="48.0155495" lon="11.4178348">
    <tag k="created_by" v="RambaZamba"/>
  </node>
  <node id="313925327" version="1" timestamp="2008-11-23T14:31:40Z" uid="36809" user="pfoten_weg_!_" changeset="784011" lat="48.0149203" lon="11.4165028">
    <tag k="created_by" v="RambaZamba"/>
  </node>
  <node id="313925327" version="2" timestamp="2008-11-23T20:25:05Z" uid="16268" user="MasterMG" changeset="784534" lat="48.0148357" lon="11.4162543">
    <tag k="created_by" v="RambaZamba"/>
  </node>
  <node id="313925327" version="3" timestamp="2009-03-30T08:03:48Z" uid="36809" user="pfoten_weg_!_" changeset="869210" lat="48.0148357" lon="11.4162543">
    <tag k="created_by" v="RambaZamba"/>
  </node>
  <node id="313925327" version="4" timestamp="2009-03-31T09:03:53Z" uid="5164" user="woodpeck" changeset="871977" lat="48.0148357" lon="11.4162543">
    <tag k="created_by" v="RambaZamba"/>
  </node>
  <node id="313925327" version="5" timestamp="2009-04-02T19:45:25Z" uid="36809" user="pfoten_weg_!_" changeset="104288" lat="48.0148357" lon="11.4162543">
    <tag k="created_by" v="RambaZamba"/>
  </node>
  <node id="313925327" version="6" timestamp="2009-04-03T23:02:11Z" uid="5164" user="woodpeck" changeset="150055" lat="48.0148357" lon="11.4162543">
    <tag k="created_by" v="RambaZamba"/>
  </node>
  <node id="313925327" version="7" timestamp="2009-04-04T08:52:48Z" uid="7596" user="ck3d" changeset="160917" lat="48.0148357" lon="11.4162543">
    <tag k="created_by" v="RambaZamba"/>
  </node>
  <node id="313925329" version="1" timestamp="2008-11-23T14:31:40Z" uid="36809" user="pfoten_weg_!_" changeset="784011" lat="48.0150404" lon="11.4164565">
    <tag k="created_by" v="RambaZamba"/>
  </node>
  <node id="313925329" version="2" timestamp="2008-11-23T20:25:10Z" uid="16268" user="MasterMG" changeset="784534" lat="48.0149558" lon="11.416208">
    <tag k="created_by" v="RambaZamba"/>
  </node>
  <node id="313925329" version="3" timestamp="2009-04-05T01:58:48Z" uid="36809" user="pfoten_weg_!_" changeset="199711" lat="48.0149558" lon="11.416208">
    <tag k="created_by" v="RambaZamba"/>
    <tag k="source" v="survey"/>
  </node>
  <node id="313925329" version="4" timestamp="2009-08-12T13:34:57Z" uid="156995" user="HampelZamba" changeset="2118817" lat="48.0149558" lon="11.416208">
    <tag k="source" v="survey"/>
  </node>
  <node id="313925329" version="5" timestamp="2009-08-19T13:44:02Z" uid="36809" user="pfoten_weg_!_" changeset="2201154" lat="48.0149558" lon="11.416208">
    <tag k="source" v="survey at RambaZamba"/>
  </node>
  <node id="313925329" version="6" timestamp="2009-08-28T19:41:20Z" uid="156995" user="HampelZamba" changeset="2294580" lat="48.0149558" lon="11.416208"/>
  <node id="313925329" version="7" timestamp="2009-08-31T17:38:04Z" uid="36809" user="pfoten_weg_!_" changeset="2328905" lat="48.0149558" lon="11.416208"/>
  <node id="313925329" version="8" timestamp="2011-12-30T18:12:46Z" uid="13832" user="Peter14" changeset="10248072" lat="48.0149558" lon="11.416208"/>
  <node id="313925331" version="1" timestamp="2008-11-23T14:31:40Z" uid="36809" user="pfoten_weg_!_" changeset="784011" lat="48.0143112" lon="11.4166821">
    <tag k="created_by" v="RambaZamba"/>
  </node>
  <node id="313925331" version="2" timestamp="2009-03-30T08:03:46Z" uid="36809" user="pfoten_weg_!_" changeset="869210" lat="48.0143112" lon="11.4166821">
    <tag k="created_by" v="RambaZamba"/>
  </node>
  <node id="313925333" version="1" timestamp="2008-11-23T14:31:40Z" uid="36809" user="pfoten_weg_!_" changeset="784011" lat="48.014403" lon="11.4163474">
    <tag k="created_by" v="RambaZamba"/>
  </node>
  <node id="313925333" version="2" timestamp="2009-03-30T08:03:45Z" uid="36809" user="pfoten_weg_!_" changeset="869210" lat="48.014403" lon="11.4163474">
    <tag k="created_by" v="RambaZamba"/>
  </node>
  <node id="313925336" version="1" timestamp="2008-11-23T14:31:40Z" uid="36809" user="pfoten_weg_!_" changeset="784011" lat="48.0142308" lon="11.4150428">
    <tag k="created_by" v="RambaZamba"/>
  </node>
  <node id="313925336" version="2" timestamp="2009-03-30T08:03:46Z" uid="36809" user="pfoten_weg_!_" changeset="869210" lat="48.0142308" lon="11.4150428">
    <tag k="created_by" v="RambaZamba"/>
  </node>
  <node id="313925338" version="1" timestamp="2008-11-23T14:31:41Z" uid="36809" user="pfoten_weg_!_" changeset="784011" lat="48.0361829" lon="11.4311472">
    <tag k="created_by" v="RambaZamba"/>
  </node>
  <node id="313925338" version="2" timestamp="2009-04-03T05:54:52Z" uid="36809" user="pfoten_weg_!_" changeset="111830" lat="48.0361829" lon="11.4311472">
    <tag k="created_by" v="RambaZamba"/>
    <tag k="source" v="survey"/>
  </node>
  <node id="313925338" version="3" timestamp="2009-04-04T08:48:13Z" uid="7596" user="ck3d" changeset="160917" lat="48.0363307" lon="11.4312004">
    <tag k="created_by" v="RambaZamba"/>
    <tag k="source" v="survey"/>
  </node>
  <node id="313925338" version="4" timestamp="2009-08-12T13:34:57Z" uid="156995" user="HampelZamba" changeset="2118817" lat="48.0363307" lon="11.4312004">
    <tag k="source" v="survey"/>
  </node>
  <node id="313925338" version="5" timestamp="2009-08-19T13:43:58Z" uid="36809" user="pfoten_weg_!_" changeset="2201154" lat="48.0363307" lon="11.4312004">
    <tag k="source" v="survey at RambaZamba"/>
  </node>
  <node id="313925338" version="6" timestamp="2009-08-28T19:41:20Z" uid="156995" user="HampelZamba" changeset="2294580" lat="48.0363307" lon="11.4312004"/>
  <node id="313925338" version="7" timestamp="2009-08-31T17:38:04Z" uid="36809" user="pfoten_weg_!_" changeset="2328905" lat="48.0363307" lon="11.4312004"/>
  <node id="313925338" version="8" timestamp="2011-06-07T10:45:02Z" uid="137711" user="avus" changeset="8368903" lat="48.0363028" lon="11.4312265"/>
  <node id="313925338" version="9" timestamp="2011-12-31T12:02:07Z" uid="13832" user="Peter14" changeset="10253930" lat="48.0363028" lon="11.4312265"/>
  <node id="313925340" version="1" timestamp="2008-11-23T14:31:41Z" uid="36809" user="pfoten_weg_!_" changeset="784011" lat="48.0188977" lon="11.4197488">
    <tag k="created_by" v="RambaZamba"/>
  </node>
  <node id="313925340" version="2" timestamp="2009-03-30T08:03:46Z" uid="36809" user="pfoten_weg_!_" changeset="869210" lat="48.0188977" lon="11.4197488">
    <tag k="created_by" v="RambaZamba"/>
  </node>
  <node id="313925340" version="3" timestamp="2009-03-31T09:44:23Z" uid="5164" user="woodpeck" changeset="871977" lat="48.0188977" lon="11.4197488">
    <tag k="created_by" v="RambaZamba"/>
  </node>
  <node id="313925340" version="4" timestamp="2009-04-02T19:45:22Z" uid="36809" user="pfoten_weg_!_" changeset="104288" lat="48.0188977" lon="11.4197488">
    <tag k="created_by" v="RambaZamba"/>
  </node>
  <node id="313925340" version="5" timestamp="2009-04-04T11:18:59Z" uid="5164" user="woodpeck" changeset="176514" lat="48.0188977" lon="11.4197488"/>
  <node id="313925340" version="6" timestamp="2009-04-05T01:39:37Z" uid="36809" user="pfoten_weg_!_" changeset="199711" lat="48.0188977" lon="11.4197488"/>
  <node id="313925342" version="1" timestamp="2008-11-23T14:31:41Z" uid="36809" user="pfoten_weg_!_" changeset="784011" lat="48.0119334" lon="11.4175306">
    <tag k="created_by" v="RambaZamba"/>
  </node>
  <node id="313925342" version="2" timestamp="2008-11-23T15:22:31Z" uid="36809" user="pfoten_weg_!_" changeset="784011" lat="48.0119334" lon="11.4175306">
    <tag k="created_by" v="RambaZamba"/>
  </node>
  <node id="313925342" version="3" timestamp="2009-03-30T08:03:26Z" uid="36809" user="pfoten_weg_!_" changeset="869210" lat="48.0119334" lon="11.4175306">
    <tag k="created_by" v="RambaZamba"/>
  </node>
  <node id="313925342" version="4" timestamp="2009-04-05T10:35:04Z" uid="36809" user="pfoten_weg_!_" changeset="202851" lat="48.0120155" lon="11.4175087">
    <tag k="created_by" v="RambaZamba"/>
  </node>
  <node id="313925342" version="5" timestamp="2009-08-12T13:34:57Z" uid="156995" user="HampelZamba" changeset="2118817" lat="48.0120155" lon="11.4175087"/>
  <node id="313925342" version="6" timestamp="2009-08-26T08:10:08Z" uid="36809" user="pfoten_weg_!_" changeset="2264689" lat="48.0120155" lon="11.4175087"/>
  <node id="313925342" version="7" timestamp="2011-12-31T13:17:16Z" uid="13832" user="Peter14" changeset="10254576" lat="48.0120155" lon="11.4175087"/>
  <node id="313925345" version="1" timestamp="2008-11-23T14:31:41Z" uid="36809" user="pfoten_weg_!_" changeset="784011" lat="48.0187414" lon="11.4199328">
    <tag k="created_by" v="RambaZamba"/>
  </node>
  <node id="313925345" version="2" timestamp="2009-03-30T08:03:50Z" uid="36809" user="pfoten_weg_!_" changeset="869210" lat="48.0187414" lon="11.4199328">
    <tag k="created_by" v="RambaZamba"/>
  </node>
  <node id="313925345" version="3" timestamp="2009-03-31T09:44:23Z" uid="5164" user="woodpeck" changeset="871977" lat="48.0187414" lon="11.4199328">
    <tag k="created_by" v="RambaZamba"/>
  </node>
  <node id="313925345" version="4" timestamp="2009-04-02T15:48:10Z" uid="5164" user="woodpeck" changeset="94633" lat="48.0187414" lon="11.4199328">
    <tag k="created_by" v="RambaZamba"/>
  </node>
  <node id="313925345" version="5" timestamp="2009-04-02T19:45:27Z" uid="36809" user="pfoten_weg_!_" changeset="104288" lat="48.0187414" lon="11.4199328">
    <tag k="created_by" v="RambaZamba"/>
  </node>
  <node id="313925347" version="1" timestamp="2008-11-23T14:31:41Z" uid="36809" user="pfoten_weg_!_" changeset="784011" lat="48.013033" lon="11.4175984">
    <tag k="created_by" v="RambaZamba"/>
  </node>
  <node id="313925347" version="2" timestamp="2009-03-30T08:03:50Z" uid="36809" user="pfoten_weg_!_" changeset="869210" lat="48.013033" lon="11.4175984">
    <tag k="created_by" v="RambaZamba"/>
  </node>
  <node id="313925347" version="3" timestamp="2009-03-31T09:44:09Z" uid="5164" user="woodpeck" changeset="871977" lat="48.013033" lon="11.4175984">
    <tag k="created_by" v="RambaZamba"/>
  </node>
  <node id="313925347" version="4" timestamp="2009-04-02T19:28:15Z" uid="36809" user="pfoten_weg_!_" changeset="104288" lat="48.013033" lon="11.4175984">
    <tag k="created_by" v="RambaZamba"/>
  </node>
  <node id="313925347" version="5" timestamp="2009-04-04T10:15:41Z" uid="5164" user="woodpeck" changeset="176514" lat="48.013033" lon="11.4175984"/>
  <node id="313925347" version="6" timestamp="2009-04-05T02:02:20Z" uid="36809" user="pfoten_weg_!_" changeset="199711" lat="48.013033" lon="11.4175984"/>
  <node id="313925349" version="1" timestamp="2008-11-23T14:31:42Z" uid="36809" user="pfoten_weg_!_" changeset="784011" lat="48.0405784" lon="11.4368044">
    <tag k="created_by" v="RambaZamba"/>
  </node>
  <node id="313925349" version="2" timestamp="2009-04-03T05:54:50Z" uid="36809" user="pfoten_weg_!_" changeset="111830" lat="48.0405784" lon="11.4368044">
    <tag k="created_by" v="RambaZamba"/>
    <tag k="source" v="survey"/>
  </node>
  <node id="313925349" version="3" timestamp="2009-08-12T13:34:57Z" uid="156995" user="HampelZamba" changeset="2118817" lat="48.0405784" lon="11.4368044">
    <tag k="source" v="survey"/>
  </node>
  <node id="313925349" version="4" timestamp="2009-08-19T13:43:53Z" uid="36809" user="pfoten_weg_!_" changeset="2201154" lat="48.0405784" lon="11.4368044">
    <tag k="source" v="survey at RambaZamba"/>
  </node>
  <node id="313925349" version="5" timestamp="2009-08-28T19:41:20Z" uid="156995" user="HampelZamba" changeset="2294580" lat="48.0405784" lon="11.4368044"/>
  <node id="313925349" version="6" timestamp="2009-08-31T17:38:04Z" uid="36809" user="pfoten_weg_!_" changeset="2328905" lat="48.0405784" lon="11.4368044"/>
  <node id="313925349" version="7" timestamp="2011-06-07T10:45:01Z" uid="137711" user="avus" changeset="8368903" lat="48.0405884" lon="11.4367422"/>
  <node id="313925349" version="8" timestamp="2011-12-31T12:02:07Z" uid="13832" user="Peter14" changeset="10253930" lat="48.0405884" lon="11.4367422"/>
  <node id="313925353" version="1" timestamp="2008-11-23T14:31:42Z" uid="36809" user="pfoten_weg_!_" changeset="784011" lat="48.0172163" lon="11.4194716">
    <tag k="created_by" v="RambaZamba"/>
  </node>
  <node id="313925353" version="2" timestamp="2009-03-30T08:03:51Z" uid="36809" user="pfoten_weg_!_" changeset="869210" lat="48.0172163" lon="11.4194716">
    <tag k="created_by" v="RambaZamba"/>
  </node>
  <node id="313925353" version="3" timestamp="2009-03-31T09:44:25Z" uid="5164" user="woodpeck" changeset="871977" lat="48.0172163" lon="11.4194716">
    <tag k="created_by" v="RambaZamba"/>
  </node>
  <node id="313925353" version="4" timestamp="2009-04-01T19:03:46Z" uid="5164" user="woodpeck" changeset="41055" lat="48.0172163" lon="11.4194716">
    <tag k="created_by" v="RambaZamba"/>
  </node>
  <node id="313925353" version="5" timestamp="2009-04-02T19:45:28Z" uid="36809" user="pfoten_weg_!_" changeset="104288" lat="48.0172163" lon="11.4194716">
    <tag k="created_by" v="RambaZamba"/>
  </node>
  <node id="313925355" version="1" timestamp="2008-11-23T14:31:42Z" uid="36809" user="pfoten_weg_!_" changeset="784011" lat="48.0175801" lon="11.4179906">
    <tag k="created_by" v="RambaZamba"/>
  </node>
  <node id="313925355" version="2" timestamp="2008-12-02T20:30:33Z" uid="42478" user="Peter-Hierholzer" changeset="53276" lat="48.0175801" lon="11.4179906">
    <tag k="created_by" v="RambaZamba"/>
    <tag k="highway" v="motorway_junction"/>
    <tag k="name" v="AD Starnberg"/>
    <tag k="ref" v="4"/>
  </node>
  <node id="313925355" version="3" timestamp="2008-12-02T20:52:34Z" uid="42478" user="Peter-Hierholzer" changeset="53276" lat="48.0175801" lon="11.4179906">
    <tag k="created_by" v="RambaZamba"/>
    <tag k="highway" v="motorway_junction"/>
    <tag k="name" v="Dreieck Starnberg"/>
    <tag k="ref" v="4"/>
  </node>
  <node id="313925355" version="4" timestamp="2009-03-30T08:03:51Z" uid="36809" user="pfoten_weg_!_" changeset="869210" lat="48.0175801" lon="11.4179906">
    <tag k="created_by" v="RambaZamba"/>
    <tag k="highway" v="motorway_junction"/>
    <tag k="name" v="Dreieck Starnberg"/>
    <tag k="ref" v="4"/>
  </node>
  <node id="313925355" version="5" timestamp="2009-03-31T09:03:56Z" uid="5164" user="woodpeck" changeset="871977" lat="48.0175801" lon="11.4179906">
    <tag k="created_by" v="RambaZamba"/>
    <tag k="highway" v="motorway_junction"/>
    <tag k="name" v="Dreieck Starnberg"/>
    <tag k="ref" v="4"/>
  </node>
  <node id="313925355" version="6" timestamp="2009-04-02T19:45:27Z" uid="36809" user="pfoten_weg_!_" changeset="104288" lat="48.0175801" lon="11.4179906">
    <tag k="created_by" v="RambaZamba"/>
    <tag k="highway" v="motorway_junction"/>
    <tag k="name" v="Dreieck Starnberg"/>
    <tag k="ref" v="4"/>
  </node>
  <node id="313925357" version="1" timestamp="2008-11-23T14:31:42Z" uid="36809" user="pfoten_weg_!_" changeset="784011" lat="48.0205732" lon="11.4192803">
    <tag k="created_by" v="RambaZamba"/>
  </node>
  <node id="313925357" version="2" timestamp="2009-03-30T08:03:51Z" uid="36809" user="pfoten_weg_!_" changeset="869210" lat="48.0205732" lon="11.4192803">
    <tag k="created_by" v="RambaZamba"/>
  </node>
  <node id="313925357" version="3" timestamp="2009-03-31T09:44:13Z" uid="5164" user="woodpeck" changeset="871977" lat="48.0205732" lon="11.4192803">
    <tag k="created_by" v="RambaZamba"/>
  </node>
  <node id="313925357" version="4" timestamp="2009-04-02T19:45:27Z" uid="36809" user="pfoten_weg_!_" changeset="104288" lat="48.0205732" lon="11.4192803">
    <tag k="created_by" v="RambaZamba"/>
  </node>
  <node id="313925357" version="5" timestamp="2009-04-04T08:09:53Z" uid="5164" user="woodpeck" changeset="176514" lat="48.0205732" lon="11.4192803"/>
  <node id="313925357" version="6" timestamp="2009-04-04T08:48:28Z" uid="7596" user="ck3d" changeset="160917" lat="48.0205732" lon="11.4192803"/>
  <node id="313925359" version="1" timestamp="2008-11-23T14:31:43Z" uid="36809" user="pfoten_weg_!_" changeset="784011" lat="48.0172497" lon="11.4176287"/>
  <node id="313925359" version="2" timestamp="2009-03-30T08:03:51Z" uid="36809" user="pfoten_weg_!_" changeset="869210" lat="48.0172497" lon="11.4176287"/>
  <node id="313925359" version="3" timestamp="2009-03-31T09:44:18Z" uid="5164" user="woodpeck" changeset="871977" lat="48.0172497" lon="11.4176287"/>
  <node id="313925359" version="4" timestamp="2009-04-02T19:45:27Z" uid="36809" user="pfoten_weg_!_" changeset="104288" lat="48.0172497" lon="11.4176287"/>
  <node id="313925361" version="1" timestamp="2008-11-23T14:31:43Z" uid="36809" user="pfoten_weg_!_" changeset="784011" lat="48.0243235" lon="11.4223899">
    <tag k="created_by" v="RambaZamba"/>
  </node>
  <node id="313925361" version="2" timestamp="2009-04-03T05:54:51Z" uid="36809" user="pfoten_weg_!_" changeset="111830" lat="48.0243235" lon="11.4223899">
    <tag k="created_by" v="RambaZamba"/>
    <tag k="source" v="survey"/>
  </node>
  <node id="313925361" version="3" timestamp="2009-04-04T08:48:13Z" uid="7596" user="ck3d" changeset="160917" lat="48.0251669" lon="11.423">
    <tag k="created_by" v="RambaZamba"/>
    <tag k="source" v="survey"/>
  </node>
  <node id="313925361" version="4" timestamp="2009-04-05T01:58:50Z" uid="36809" user="pfoten_weg_!_" changeset="199711" lat="48.0251611" lon="11.4230506">
    <tag k="created_by" v="RambaZamba"/>
    <tag k="source" v="survey"/>
  </node>
  <node id="313925361" version="5" timestamp="2009-04-05T10:35:04Z" uid="36809" user="pfoten_weg_!_" changeset="202851" lat="48.0251397" lon="11.4230891">
    <tag k="created_by" v="RambaZamba"/>
    <tag k="source" v="survey"/>
  </node>
  <node id="313925361" version="6" timestamp="2009-08-12T13:34:57Z" uid="156995" user="HampelZamba" changeset="2118817" lat="48.0251397" lon="11.4230891">
    <tag k="source" v="survey"/>
  </node>
  <node id="313925361" version="7" timestamp="2009-08-19T13:43:54Z" uid="36809" user="pfoten_weg_!_" changeset="2201154" lat="48.0251397" lon="11.4230891">
    <tag k="source" v="survey at RambaZamba"/>
  </node>
  <node id="313925361" version="8" timestamp="2009-08-28T19:41:20Z" uid="156995" user="HampelZamba" changeset="2294580" lat="48.0251397" lon="11.4230891"/>
  <node id="313925361" version="9" timestamp="2009-08-31T17:38:04Z" uid="36809" user="pfoten_weg_!_" changeset="2328905" lat="48.0251397" lon="11.4230891"/>
  <node id="313925363" version="1" timestamp="2008-11-23T14:31:43Z" uid="36809" user="pfoten_weg_!_" changeset="784011" lat="48.0141159" lon="11.4169396">
    <tag k="created_by" v="RambaZamba"/>
  </node>
  <node id="313925363" version="2" timestamp="2009-03-30T08:03:49Z" uid="36809" user="pfoten_weg_!_" changeset="869210" lat="48.0141159" lon="11.4169396">
    <tag k="created_by" v="RambaZamba"/>
  </node>
  <node id="313925365" version="1" timestamp="2008-11-23T14:31:44Z" uid="36809" user="pfoten_weg_!_" changeset="784011" lat="48.0143801" lon="11.4158496">
    <tag k="created_by" v="RambaZamba"/>
  </node>
  <node id="313925365" version="2" timestamp="2009-03-30T08:03:49Z" uid="36809" user="pfoten_weg_!_" changeset="869210" lat="48.0143801" lon="11.4158496">
    <tag k="created_by" v="RambaZamba"/>
  </node>
  <node id="313925367" version="1" timestamp="2008-11-23T14:31:44Z" uid="36809" user="pfoten_weg_!_" changeset="784011" lat="48.0156966" lon="11.4178304">
    <tag k="created_by" v="RambaZamba"/>
  </node>
  <node id="313925367" version="2" timestamp="2009-03-30T08:03:49Z" uid="36809" user="pfoten_weg_!_" changeset="869210" lat="48.0156966" lon="11.4178304">
    <tag k="created_by" v="RambaZamba"/>
  </node>
  <node id="313925367" version="3" timestamp="2009-03-31T09:44:26Z" uid="5164" user="woodpeck" changeset="871977" lat="48.0156966" lon="11.4178304">
    <tag k="created_by" v="RambaZamba"/>
  </node>
  <node id="313925367" version="4" timestamp="2009-04-02T19:45:26Z" uid="36809" user="pfoten_weg_!_" changeset="104288" lat="48.0156966" lon="11.4178304">
    <tag k="created_by" v="RambaZamba"/>
  </node>
  <node id="313925367" version="5" timestamp="2009-04-03T16:02:18Z" uid="5164" user="woodpeck" changeset="150055" lat="48.0156966" lon="11.4178304"/>
  <node id="313925367" version="6" timestamp="2009-04-03T18:14:05Z" uid="36809" user="pfoten_weg_!_" changeset="137388" lat="48.0156966" lon="11.4178304"/>
  <node id="313925369" version="1" timestamp="2008-11-23T14:31:44Z" uid="36809" user="pfoten_weg_!_" changeset="784011" lat="48.0235543" lon="11.4216431">
    <tag k="created_by" v="RambaZamba"/>
  </node>
  <node id="313925369" version="2" timestamp="2009-03-30T08:03:26Z" uid="36809" user="pfoten_weg_!_" changeset="869210" lat="48.0235543" lon="11.4216431">
    <tag k="created_by" v="RambaZamba"/>
  </node>
  <node id="313925369" version="3" timestamp="2009-04-03T05:54:50Z" uid="36809" user="pfoten_weg_!_" changeset="111830" lat="48.0235543" lon="11.4216431">
    <tag k="created_by" v="RambaZamba"/>
    <tag k="source" v="survey"/>
  </node>
  <node id="313925369" version="4" timestamp="2009-04-04T08:48:13Z" uid="7596" user="ck3d" changeset="160917" lat="48.0244512" lon="11.4222982">
    <tag k="created_by" v="RambaZamba"/>
    <tag k="source" v="survey"/>
  </node>
  <node id="313925369" version="5" timestamp="2009-04-05T01:58:55Z" uid="36809" user="pfoten_weg_!_" changeset="199711" lat="48.0244512" lon="11.4222982">
    <tag k="created_by" v="RambaZamba"/>
    <tag k="source" v="survey"/>
  </node>
  <node id="313925371" version="1" timestamp="2008-11-23T14:31:44Z" uid="36809" user="pfoten_weg_!_" changeset="784011" lat="48.0167168" lon="11.419094">
    <tag k="created_by" v="RambaZamba"/>
  </node>
  <node id="313925371" version="2" timestamp="2009-03-30T08:03:50Z" uid="36809" user="pfoten_weg_!_" changeset="869210" lat="48.0167168" lon="11.419094">
    <tag k="created_by" v="RambaZamba"/>
  </node>
  <node id="313925371" version="3" timestamp="2009-03-31T09:44:26Z" uid="5164" user="woodpeck" changeset="871977" lat="48.0167168" lon="11.419094">
    <tag k="created_by" v="RambaZamba"/>
  </node>
  <node id="313925371" version="4" timestamp="2009-04-02T19:45:26Z" uid="36809" user="pfoten_weg_!_" changeset="104288" lat="48.0167168" lon="11.419094">
    <tag k="created_by" v="RambaZamba"/>
  </node>
  <node id="313925371" version="5" timestamp="2009-04-03T21:36:26Z" uid="5164" user="woodpeck" changeset="150055" lat="48.0167168" lon="11.419094"/>
  <node id="313925371" version="6" timestamp="2009-04-04T08:52:48Z" uid="7596" user="ck3d" changeset="160917" lat="48.0167168" lon="11.419094"/>
  <node id="313925374" version="1" timestamp="2008-11-23T14:31:44Z" uid="36809" user="pfoten_weg_!_" changeset="784011" lat="48.0184721" lon="11.4180158"/>
  <node id="313925374" version="2" timestamp="2009-03-30T08:03:50Z" uid="36809" user="pfoten_weg_!_" changeset="869210" lat="48.0184721" lon="11.4180158"/>
  <node id="313925374" version="3" timestamp="2009-03-31T09:44:17Z" uid="5164" user="woodpeck" changeset="871977" lat="48.0184721" lon="11.4180158"/>
  <node id="313925374" version="4" timestamp="2009-04-02T19:45:26Z" uid="36809" user="pfoten_weg_!_" changeset="104288" lat="48.0184721" lon="11.4180158"/>
  <node id="313925376" version="1" timestamp="2008-11-23T14:31:44Z" uid="36809" user="pfoten_weg_!_" changeset="784011" lat="48.0329237" lon="11.4290775">
    <tag k="created_by" v="RambaZamba"/>
  </node>
  <node id="313925376" version="2" timestamp="2009-04-03T05:54:25Z" uid="36809" user="pfoten_weg_!_" changeset="111830" lat="48.0329237" lon="11.4290775">
    <tag k="created_by" v="RambaZamba"/>
    <tag k="source" v="survey"/>
  </node>
  <node id="313925376" version="3" timestamp="2009-04-04T08:48:11Z" uid="7596" user="ck3d" changeset="160917" lat="48.0329566" lon="11.4290652">
    <tag k="created_by" v="RambaZamba"/>
    <tag k="source" v="survey"/>
  </node>
  <node id="313925376" version="4" timestamp="2009-08-12T13:34:57Z" uid="156995" user="HampelZamba" changeset="2118817" lat="48.0329566" lon="11.4290652">
    <tag k="source" v="survey"/>
  </node>
  <node id="313925376" version="5" timestamp="2009-08-19T13:43:09Z" uid="36809" user="pfoten_weg_!_" changeset="2201154" lat="48.0329566" lon="11.4290652">
    <tag k="source" v="survey at RambaZamba"/>
  </node>
  <node id="313925376" version="6" timestamp="2009-08-28T19:41:20Z" uid="156995" user="HampelZamba" changeset="2294580" lat="48.0329566" lon="11.4290652"/>
  <node id="313925376" version="7" timestamp="2009-08-31T17:38:04Z" uid="36809" user="pfoten_weg_!_" changeset="2328905" lat="48.0329566" lon="11.4290652"/>
  <node id="313925376" version="8" timestamp="2011-12-31T12:02:07Z" uid="13832" user="Peter14" changeset="10253930" lat="48.0329566" lon="11.4290652"/>
  <node id="313925378" version="1" timestamp="2008-11-23T14:31:45Z" uid="36809" user="pfoten_weg_!_" changeset="784011" lat="48.017798" lon="11.419817">
    <tag k="created_by" v="RambaZamba"/>
  </node>
  <node id="313925378" version="2" timestamp="2009-03-30T08:03:52Z" uid="36809" user="pfoten_weg_!_" changeset="869210" lat="48.017798" lon="11.419817">
    <tag k="created_by" v="RambaZamba"/>
  </node>
  <node id="313925378" version="3" timestamp="2009-03-31T09:44:25Z" uid="5164" user="woodpeck" changeset="871977" lat="48.017798" lon="11.419817">
    <tag k="created_by" v="RambaZamba"/>
  </node>
  <node id="313925378" version="4" timestamp="2009-04-02T09:12:32Z" uid="5164" user="woodpeck" changeset="94633" lat="48.017798" lon="11.419817">
    <tag k="created_by" v="RambaZamba"/>
  </node>
  <node id="313925378" version="5" timestamp="2009-04-02T19:45:28Z" uid="36809" user="pfoten_weg_!_" changeset="104288" lat="48.017798" lon="11.419817">
    <tag k="created_by" v="RambaZamba"/>
  </node>
  <node id="313925381" version="1" timestamp="2008-11-23T14:31:45Z" uid="36809" user="pfoten_weg_!_" changeset="784011" lat="48.0192775" lon="11.418667">
    <tag k="created_by" v="RambaZamba"/>
  </node>
  <node id="313925381" version="2" timestamp="2009-03-30T08:03:53Z" uid="36809" user="pfoten_weg_!_" changeset="869210" lat="48.0192775" lon="11.418667">
    <tag k="created_by" v="RambaZamba"/>
  </node>
  <node id="313925381" version="3" timestamp="2009-03-31T09:44:12Z" uid="5164" user="woodpeck" changeset="871977" lat="48.0192775" lon="11.418667">
    <tag k="created_by" v="RambaZamba"/>
  </node>
  <node id="313925381" version="4" timestamp="2009-04-02T19:45:29Z" uid="36809" user="pfoten_weg_!_" changeset="104288" lat="48.0192775" lon="11.418667">
    <tag k="created_by" v="RambaZamba"/>
  </node>
  <node id="313925381" version="5" timestamp="2009-04-03T00:18:04Z" uid="5164" user="woodpeck" changeset="150055" lat="48.0192775" lon="11.418667"/>
  <node id="313925381" version="6" timestamp="2009-04-03T05:54:24Z" uid="36809" user="pfoten_weg_!_" changeset="111830" lat="48.0192775" lon="11.418667">
    <tag k="created_by" v="RambaZamba"/>
    <tag k="source" v="survey"/>
  </node>
  <node id="313925381" version="7" timestamp="2009-04-03T06:20:16Z" uid="36809" user="pfoten_weg_!_" changeset="111830" lat="48.0192775" lon="11.418667">
    <tag k="created_by" v="RambaZamba"/>
    <tag k="source" v="survey"/>
  </node>
  <node id="313925381" version="8" timestamp="2009-04-03T20:51:24Z" uid="5164" user="woodpeck" changeset="150055" lat="48.0192775" lon="11.418667">
    <tag k="created_by" v="RambaZamba"/>
    <tag k="source" v="survey"/>
  </node>
  <node id="313925381" version="9" timestamp="2009-04-04T08:48:28Z" uid="7596" user="ck3d" changeset="160917" lat="48.0192775" lon="11.418667">
    <tag k="created_by" v="RambaZamba"/>
    <tag k="source" v="survey"/>
  </node>
  <node id="313925383" version="1" timestamp="2008-11-23T14:31:45Z" uid="36809" user="pfoten_weg_!_" changeset="784011" lat="48.0197785" lon="11.4184946">
    <tag k="created_by" v="RambaZamba"/>
  </node>
  <node id="313925383" version="2" timestamp="2009-03-30T08:03:52Z" uid="36809" user="pfoten_weg_!_" changeset="869210" lat="48.0197785" lon="11.4184946">
    <tag k="created_by" v="RambaZamba"/>
  </node>
  <node id="313925383" version="3" timestamp="2009-03-31T09:44:40Z" uid="5164" user="woodpeck" changeset="871977" lat="48.0197785" lon="11.4184946">
    <tag k="created_by" v="RambaZamba"/>
  </node>
  <node id="313925383" version="4" timestamp="2009-04-02T19:45:29Z" uid="36809" user="pfoten_weg_!_" changeset="104288" lat="48.0197785" lon="11.4184946">
    <tag k="created_by" v="RambaZamba"/>
  </node>
  <node id="313925383" version="5" timestamp="2009-04-02T21:13:02Z" uid="5164" user="woodpeck" changeset="94633" lat="48.0197785" lon="11.4184946"/>
  <node id="313925383" version="6" timestamp="2009-04-03T05:54:24Z" uid="36809" user="pfoten_weg_!_" changeset="111830" lat="48.0197785" lon="11.4184946">
    <tag k="created_by" v="RambaZamba"/>
    <tag k="source" v="survey"/>
  </node>
  <node id="313925383" version="7" timestamp="2009-04-03T06:20:15Z" uid="36809" user="pfoten_weg_!_" changeset="111830" lat="48.0197785" lon="11.4184946">
    <tag k="created_by" v="RambaZamba"/>
    <tag k="source" v="survey"/>
  </node>
  <node id="313925385" version="1" timestamp="2008-11-23T14:31:45Z" uid="36809" user="pfoten_weg_!_" changeset="784011" lat="48.0156251" lon="11.4173737"/>
  <node id="313925385" version="2" timestamp="2009-03-30T08:03:52Z" uid="36809" user="pfoten_weg_!_" changeset="869210" lat="48.0156251" lon="11.4173737"/>
  <node id="313925385" version="3" timestamp="2009-03-31T09:44:19Z" uid="5164" user="woodpeck" changeset="871977" lat="48.0156251" lon="11.4173737"/>
  <node id="313925385" version="4" timestamp="2009-04-02T19:45:28Z" uid="36809" user="pfoten_weg_!_" changeset="104288" lat="48.0156251" lon="11.4173737"/>
  <node id="313925388" version="1" timestamp="2008-11-23T14:31:46Z" uid="36809" user="pfoten_weg_!_" changeset="784011" lat="48.0157588" lon="11.4176459"/>
  <node id="313925388" version="2" timestamp="2009-03-30T08:03:25Z" uid="36809" user="pfoten_weg_!_" changeset="869210" lat="48.0157588" lon="11.4176459"/>
  <node id="313925388" version="3" timestamp="2009-04-03T05:54:25Z" uid="36809" user="pfoten_weg_!_" changeset="111830" lat="48.0157588" lon="11.4176459">
    <tag k="created_by" v="RambaZamba"/>
    <tag k="source" v="survey"/>
  </node>
  <node id="313925388" version="4" timestamp="2009-04-04T08:48:11Z" uid="7596" user="ck3d" changeset="160917" lat="48.0157128" lon="11.417505">
    <tag k="created_by" v="RambaZamba"/>
    <tag k="source" v="survey"/>
  </node>
  <node id="313925388" version="5" timestamp="2009-04-05T10:35:00Z" uid="36809" user="pfoten_weg_!_" changeset="202851" lat="48.0158512" lon="11.4175477">
    <tag k="created_by" v="RambaZamba"/>
    <tag k="source" v="survey"/>
  </node>
  <node id="313925388" version="6" timestamp="2009-08-12T13:34:57Z" uid="156995" user="HampelZamba" changeset="2118817" lat="48.0158512" lon="11.4175477">
    <tag k="source" v="survey"/>
  </node>
  <node id="313925388" version="7" timestamp="2009-08-19T13:43:11Z" uid="36809" user="pfoten_weg_!_" changeset="2201154" lat="48.0158512" lon="11.4175477">
    <tag k="source" v="survey at RambaZamba"/>
  </node>
  <node id="313925388" version="8" timestamp="2009-08-28T19:41:20Z" uid="156995" user="HampelZamba" changeset="2294580" lat="48.0158512" lon="11.4175477"/>
  <node id="313925388" version="9" timestamp="2009-08-31T17:38:04Z" uid="36809" user="pfoten_weg_!_" changeset="2328905" lat="48.0158512" lon="11.4175477"/>
  <node id="313925388" version="10" timestamp="2011-12-29T19:35:14Z" uid="13832" user="Peter14" changeset="10238914" lat="48.0157929" lon="11.4175623"/>
  <node id="313925388" version="11" timestamp="2011-12-31T09:45:33Z" uid="13832" user="Peter14" changeset="10252888" lat="48.0157929" lon="11.4175623"/>
  <node id="313925390" version="1" timestamp="2008-11-23T14:31:46Z" uid="36809" user="pfoten_weg_!_" changeset="784011" lat="48.0182863" lon="11.4199944">
    <tag k="created_by" v="RambaZamba"/>
  </node>
  <node id="313925390" version="2" timestamp="2009-03-30T08:03:52Z" uid="36809" user="pfoten_weg_!_" changeset="869210" lat="48.0182863" lon="11.4199944">
    <tag k="created_by" v="RambaZamba"/>
  </node>
  <node id="313925390" version="3" timestamp="2009-03-31T09:44:24Z" uid="5164" user="woodpeck" changeset="871977" lat="48.0182863" lon="11.4199944">
    <tag k="created_by" v="RambaZamba"/>
  </node>
  <node id="313925390" version="4" timestamp="2009-04-01T09:50:14Z" uid="5164" user="woodpeck" changeset="41055" lat="48.0182863" lon="11.4199944">
    <tag k="created_by" v="RambaZamba"/>
  </node>
  <node id="313925390" version="5" timestamp="2009-04-02T19:45:28Z" uid="36809" user="pfoten_weg_!_" changeset="104288" lat="48.0182863" lon="11.4199944">
    <tag k="created_by" v="RambaZamba"/>
  </node>
  <node id="313925392" version="1" timestamp="2008-11-23T14:31:46Z" uid="36809" user="pfoten_weg_!_" changeset="784011" lat="48.0184068" lon="11.4182739">
    <tag k="created_by" v="RambaZamba"/>
  </node>
  <node id="313925392" version="2" timestamp="2009-03-30T08:03:53Z" uid="36809" user="pfoten_weg_!_" changeset="869210" lat="48.0184068" lon="11.4182739">
    <tag k="created_by" v="RambaZamba"/>
  </node>
  <node id="313925392" version="3" timestamp="2009-03-31T09:44:12Z" uid="5164" user="woodpeck" changeset="871977" lat="48.0184068" lon="11.4182739">
    <tag k="created_by" v="RambaZamba"/>
  </node>
  <node id="313925392" version="4" timestamp="2009-04-01T17:41:31Z" uid="5164" user="woodpeck" changeset="41055" lat="48.0184068" lon="11.4182739">
    <tag k="created_by" v="RambaZamba"/>
  </node>
  <node id="313925392" version="5" timestamp="2009-04-02T19:45:30Z" uid="36809" user="pfoten_weg_!_" changeset="104288" lat="48.0184068" lon="11.4182739">
    <tag k="created_by" v="RambaZamba"/>
  </node>
  <node id="313925394" version="1" timestamp="2008-11-23T14:31:46Z" uid="36809" user="pfoten_weg_!_" changeset="784011" lat="48.0223143" lon="11.4207848">
    <tag k="created_by" v="RambaZamba"/>
  </node>
  <node id="313925394" version="2" timestamp="2009-03-30T08:03:53Z" uid="36809" user="pfoten_weg_!_" changeset="869210" lat="48.0223143" lon="11.4207848">
    <tag k="created_by" v="RambaZamba"/>
  </node>
  <node id="313925394" version="3" timestamp="2009-03-31T09:44:33Z" uid="5164" user="woodpeck" changeset="871977" lat="48.0223143" lon="11.4207848">
    <tag k="created_by" v="RambaZamba"/>
  </node>
  <node id="313925394" version="4" timestamp="2009-04-02T19:45:30Z" uid="36809" user="pfoten_weg_!_" changeset="104288" lat="48.0223143" lon="11.4207848">
    <tag k="created_by" v="RambaZamba"/>
  </node>
  <node id="313925394" version="5" timestamp="2009-04-03T23:15:02Z" uid="5164" user="woodpeck" changeset="176514" lat="48.0223143" lon="11.4207848"/>
  <node id="313925394" version="6" timestamp="2009-04-04T08:48:28Z" uid="7596" user="ck3d" changeset="160917" lat="48.0223143" lon="11.4207848"/>
  <node id="313925416" version="1" timestamp="2008-11-23T14:31:49Z" uid="36809" user="pfoten_weg_!_" changeset="784011" lat="48.016663" lon="11.4177597">
    <tag k="created_by" v="RambaZamba"/>
  </node>
  <node id="313925416" version="2" timestamp="2009-03-30T08:03:53Z" uid="36809" user="pfoten_weg_!_" changeset="869210" lat="48.016663" lon="11.4177597">
    <tag k="created_by" v="RambaZamba"/>
  </node>
  <node id="313925416" version="3" timestamp="2009-03-31T09:44:38Z" uid="5164" user="woodpeck" changeset="871977" lat="48.016663" lon="11.4177597">
    <tag k="created_by" v="RambaZamba"/>
  </node>
  <node id="313925416" version="4" timestamp="2009-04-02T19:45:30Z" uid="36809" user="pfoten_weg_!_" changeset="104288" lat="48.016663" lon="11.4177597">
    <tag k="created_by" v="RambaZamba"/>
  </node>
  <node id="313925416" version="5" timestamp="2009-04-04T13:23:30Z" uid="5164" user="woodpeck" changeset="176514" lat="48.016663" lon="11.4177597"/>
  <node id="313925416" version="6" timestamp="2009-04-05T01:39:38Z" uid="36809" user="pfoten_weg_!_" changeset="199711" lat="48.016663" lon="11.4177597"/>
  <node id="313925420" version="1" timestamp="2008-11-23T14:31:50Z" uid="36809" user="pfoten_weg_!_" changeset="784011" lat="48.0153617" lon="11.4171324"/>
  <node id="313925420" version="2" timestamp="2009-03-30T08:03:54Z" uid="36809" user="pfoten_weg_!_" changeset="869210" lat="48.0153617" lon="11.4171324"/>
  <node id="313925420" version="3" timestamp="2009-03-31T09:44:27Z" uid="5164" user="woodpeck" changeset="871977" lat="48.0153617" lon="11.4171324"/>
  <node id="313925420" version="4" timestamp="2009-04-02T19:45:31Z" uid="36809" user="pfoten_weg_!_" changeset="104288" lat="48.0153617" lon="11.4171324"/>
  <node id="313925421" version="1" timestamp="2008-11-23T14:31:50Z" uid="36809" user="pfoten_weg_!_" changeset="784011" lat="48.0152494" lon="11.4175907">
    <tag k="created_by" v="RambaZamba"/>
  </node>
  <node id="313925421" version="2" timestamp="2009-03-30T08:03:25Z" uid="36809" user="pfoten_weg_!_" changeset="869210" lat="48.0152494" lon="11.4175907">
    <tag k="created_by" v="RambaZamba"/>
  </node>
  <node id="313925421" version="3" timestamp="2009-04-04T08:48:10Z" uid="7596" user="ck3d" changeset="160917" lat="48.0151661" lon="11.4174531">
    <tag k="created_by" v="RambaZamba"/>
  </node>
  <node id="313925421" version="4" timestamp="2009-04-05T10:35:00Z" uid="36809" user="pfoten_weg_!_" changeset="202851" lat="48.01512" lon="11.4174859">
    <tag k="created_by" v="RambaZamba"/>
  </node>
  <node id="313925421" version="5" timestamp="2009-08-12T13:34:57Z" uid="156995" user="HampelZamba" changeset="2118817" lat="48.01512" lon="11.4174859"/>
  <node id="313925421" version="6" timestamp="2009-08-26T08:10:08Z" uid="36809" user="pfoten_weg_!_" changeset="2264689" lat="48.01512" lon="11.4174859"/>
  <node id="313925421" version="7" timestamp="2011-12-29T19:35:14Z" uid="13832" user="Peter14" changeset="10238914" lat="48.0151928" lon="11.4175136"/>
  <node id="313925421" version="8" timestamp="2011-12-31T09:45:32Z" uid="13832" user="Peter14" changeset="10252888" lat="48.0151775" lon="11.4174908"/>
  <node id="313925421" version="9" timestamp="2011-12-31T13:17:16Z" uid="13832" user="Peter14" changeset="10254576" lat="48.0151775" lon="11.4174908"/>
  <node id="313925422" version="1" timestamp="2008-11-23T14:31:50Z" uid="36809" user="pfoten_weg_!_" changeset="784011" lat="48.0152078" lon="11.4171217"/>
  <node id="313925422" version="2" timestamp="2009-03-30T08:03:54Z" uid="36809" user="pfoten_weg_!_" changeset="869210" lat="48.0152078" lon="11.4171217"/>
  <node id="313925422" version="3" timestamp="2009-03-31T09:44:29Z" uid="5164" user="woodpeck" changeset="871977" lat="48.0152078" lon="11.4171217"/>
  <node id="313925422" version="4" timestamp="2009-04-02T19:45:32Z" uid="36809" user="pfoten_weg_!_" changeset="104288" lat="48.0152078" lon="11.4171217"/>
  <node id="313925423" version="1" timestamp="2008-11-23T14:31:51Z" uid="36809" user="pfoten_weg_!_" changeset="784011" lat="48.0202395" lon="11.4188214">
    <tag k="created_by" v="RambaZamba"/>
  </node>
  <node id="313925423" version="2" timestamp="2009-03-30T08:03:54Z" uid="36809" user="pfoten_weg_!_" changeset="869210" lat="48.0202395" lon="11.4188214">
    <tag k="created_by" v="RambaZamba"/>
  </node>
  <node id="313925423" version="3" timestamp="2009-03-31T09:44:16Z" uid="5164" user="woodpeck" changeset="871977" lat="48.0202395" lon="11.4188214">
    <tag k="created_by" v="RambaZamba"/>
  </node>
  <node id="313925423" version="4" timestamp="2009-04-02T19:45:31Z" uid="36809" user="pfoten_weg_!_" changeset="104288" lat="48.0202395" lon="11.4188214">
    <tag k="created_by" v="RambaZamba"/>
  </node>
  <node id="313925423" version="5" timestamp="2009-04-03T13:20:59Z" uid="5164" user="woodpeck" changeset="150055" lat="48.0202395" lon="11.4188214"/>
  <node id="313925423" version="6" timestamp="2009-04-03T14:17:13Z" uid="36809" user="pfoten_weg_!_" changeset="123862" lat="48.0202395" lon="11.4188214"/>
  <node id="313925424" version="1" timestamp="2008-11-23T14:31:51Z" uid="36809" user="pfoten_weg_!_" changeset="784011" lat="48.0193361" lon="11.4184024">
    <tag k="created_by" v="RambaZamba"/>
  </node>
  <node id="313925424" version="2" timestamp="2009-03-30T08:03:55Z" uid="36809" user="pfoten_weg_!_" changeset="869210" lat="48.0193361" lon="11.4184024">
    <tag k="created_by" v="RambaZamba"/>
  </node>
  <node id="313925424" version="3" timestamp="2009-03-31T09:44:17Z" uid="5164" user="woodpeck" changeset="871977" lat="48.0193361" lon="11.4184024">
    <tag k="created_by" v="RambaZamba"/>
  </node>
  <node id="313925424" version="4" timestamp="2009-04-02T19:45:32Z" uid="36809" user="pfoten_weg_!_" changeset="104288" lat="48.0193361" lon="11.4184024">
    <tag k="created_by" v="RambaZamba"/>
  </node>
  <node id="313925424" version="5" timestamp="2009-04-03T00:31:01Z" uid="5164" user="woodpeck" changeset="150055" lat="48.0193361" lon="11.4184024"/>
  <node id="313925424" version="6" timestamp="2009-04-03T05:54:20Z" uid="36809" user="pfoten_weg_!_" changeset="111830" lat="48.0193361" lon="11.4184024">
    <tag k="created_by" v="RambaZamba"/>
    <tag k="source" v="survey"/>
  </node>
  <node id="313925424" version="7" timestamp="2009-04-03T06:20:16Z" uid="36809" user="pfoten_weg_!_" changeset="111830" lat="48.0193361" lon="11.4184024">
    <tag k="created_by" v="RambaZamba"/>
    <tag k="source" v="survey"/>
  </node>
  <node id="313925424" version="8" timestamp="2009-04-03T20:51:27Z" uid="5164" user="woodpeck" changeset="150055" lat="48.0193361" lon="11.4184024">
    <tag k="created_by" v="RambaZamba"/>
    <tag k="source" v="survey"/>
  </node>
  <node id="313925424" version="9" timestamp="2009-04-04T08:52:49Z" uid="7596" user="ck3d" changeset="160917" lat="48.0193361" lon="11.4184024">
    <tag k="created_by" v="RambaZamba"/>
    <tag k="source" v="survey"/>
  </node>
  <node id="313925425" version="1" timestamp="2008-11-23T14:31:51Z" uid="36809" user="pfoten_weg_!_" changeset="784011" lat="48.0143472" lon="11.4175356">
    <tag k="created_by" v="RambaZamba"/>
  </node>
  <node id="313925425" version="2" timestamp="2009-03-30T08:03:55Z" uid="36809" user="pfoten_weg_!_" changeset="869210" lat="48.0143472" lon="11.4175356">
    <tag k="created_by" v="RambaZamba"/>
  </node>
  <node id="313925425" version="3" timestamp="2009-03-31T09:44:10Z" uid="5164" user="woodpeck" changeset="871977" lat="48.0143472" lon="11.4175356">
    <tag k="created_by" v="RambaZamba"/>
  </node>
  <node id="313925425" version="4" timestamp="2009-04-02T19:28:34Z" uid="36809" user="pfoten_weg_!_" changeset="104288" lat="48.0143472" lon="11.4175356">
    <tag k="created_by" v="RambaZamba"/>
  </node>
  <node id="313925425" version="5" timestamp="2009-04-03T19:38:55Z" uid="5164" user="woodpeck" changeset="150055" lat="48.0143472" lon="11.4175356"/>
  <node id="313925425" version="6" timestamp="2009-04-04T08:48:28Z" uid="7596" user="ck3d" changeset="160917" lat="48.0143472" lon="11.4175356"/>
  <node id="313925426" version="1" timestamp="2008-11-23T14:31:51Z" uid="36809" user="pfoten_weg_!_" changeset="784011" lat="48.0432301" lon="11.4423996">
    <tag k="created_by" v="RambaZamba"/>
  </node>
  <node id="313925426" version="2" timestamp="2009-03-30T08:24:52Z" uid="36809" user="pfoten_weg_!_" changeset="869210" lat="48.0433279" lon="11.4425863">
    <tag k="created_by" v="RambaZamba"/>
  </node>
  <node id="313925426" version="3" timestamp="2009-04-03T05:54:20Z" uid="36809" user="pfoten_weg_!_" changeset="111830" lat="48.0433279" lon="11.4425863">
    <tag k="created_by" v="RambaZamba"/>
    <tag k="source" v="survey"/>
  </node>
  <node id="313925426" version="4" timestamp="2009-08-12T13:34:58Z" uid="156995" user="HampelZamba" changeset="2118817" lat="48.0433279" lon="11.4425863">
    <tag k="source" v="survey"/>
  </node>
  <node id="313925426" version="5" timestamp="2009-08-19T13:43:04Z" uid="36809" user="pfoten_weg_!_" changeset="2201154" lat="48.0433279" lon="11.4425863">
    <tag k="source" v="survey at RambaZamba"/>
  </node>
  <node id="313925426" version="6" timestamp="2009-08-28T19:41:21Z" uid="156995" user="HampelZamba" changeset="2294580" lat="48.0433279" lon="11.4425863"/>
  <node id="313925426" version="7" timestamp="2009-08-31T17:38:03Z" uid="36809" user="pfoten_weg_!_" changeset="2328905" lat="48.0433279" lon="11.4425863"/>
  <node id="313925426" version="8" timestamp="2011-12-30T18:02:59Z" uid="13832" user="Peter14" changeset="10247955" lat="48.0433279" lon="11.4425863"/>
  <node id="313925427" version="1" timestamp="2008-11-23T14:31:52Z" uid="36809" user="pfoten_weg_!_" changeset="784011" lat="48.0151039" lon="11.4173155">
    <tag k="created_by" v="RambaZamba"/>
  </node>
  <node id="313925427" version="2" timestamp="2009-03-30T08:03:25Z" uid="36809" user="pfoten_weg_!_" changeset="869210" lat="48.0151039" lon="11.4173155">
    <tag k="created_by" v="RambaZamba"/>
  </node>
  <node id="313925427" version="3" timestamp="2009-04-04T08:48:09Z" uid="7596" user="ck3d" changeset="160917" lat="48.0150929" lon="11.4172893">
    <tag k="created_by" v="RambaZamba"/>
  </node>
  <node id="313925427" version="4" timestamp="2009-04-05T10:35:00Z" uid="36809" user="pfoten_weg_!_" changeset="202851" lat="48.0150314" lon="11.4173024">
    <tag k="created_by" v="RambaZamba"/>
  </node>
  <node id="313925427" version="5" timestamp="2009-08-12T13:34:58Z" uid="156995" user="HampelZamba" changeset="2118817" lat="48.0150314" lon="11.4173024"/>
  <node id="313925427" version="6" timestamp="2009-08-26T08:10:07Z" uid="36809" user="pfoten_weg_!_" changeset="2264689" lat="48.0150314" lon="11.4173024"/>
  <node id="313925427" version="7" timestamp="2011-12-29T19:35:14Z" uid="13832" user="Peter14" changeset="10238914" lat="48.0151076" lon="11.4173116"/>
  <node id="313925427" version="8" timestamp="2011-12-31T09:45:32Z" uid="13832" user="Peter14" changeset="10252888" lat="48.0151171" lon="11.4173173"/>
  <node id="313925427" version="9" timestamp="2011-12-31T13:17:16Z" uid="13832" user="Peter14" changeset="10254576" lat="48.0151171" lon="11.4173173"/>
  <node id="313925428" version="1" timestamp="2008-11-23T14:31:52Z" uid="36809" user="pfoten_weg_!_" changeset="784011" lat="48.0189809" lon="11.4191922">
    <tag k="created_by" v="RambaZamba"/>
  </node>
  <node id="313925428" version="2" timestamp="2009-03-30T08:03:55Z" uid="36809" user="pfoten_weg_!_" changeset="869210" lat="48.0189809" lon="11.4191922">
    <tag k="created_by" v="RambaZamba"/>
  </node>
  <node id="313925428" version="3" timestamp="2009-03-31T09:44:22Z" uid="5164" user="woodpeck" changeset="871977" lat="48.0189809" lon="11.4191922">
    <tag k="created_by" v="RambaZamba"/>
  </node>
  <node id="313925428" version="4" timestamp="2009-04-01T02:41:41Z" uid="5164" user="woodpeck" changeset="41055" lat="48.0189809" lon="11.4191922">
    <tag k="created_by" v="RambaZamba"/>
  </node>
  <node id="313925428" version="5" timestamp="2009-04-02T19:45:33Z" uid="36809" user="pfoten_weg_!_" changeset="104288" lat="48.0189809" lon="11.4191922">
    <tag k="created_by" v="RambaZamba"/>
  </node>
  <node id="313925429" version="1" timestamp="2008-11-23T14:31:52Z" uid="36809" user="pfoten_weg_!_" changeset="784011" lat="48.0442974" lon="11.4444423">
    <tag k="created_by" v="RambaZamba"/>
  </node>
  <node id="313925429" version="2" timestamp="2009-04-03T05:56:46Z" uid="36809" user="pfoten_weg_!_" changeset="111830" lat="48.0442974" lon="11.4444423">
    <tag k="created_by" v="RambaZamba"/>
    <tag k="source" v="survey"/>
  </node>
  <node id="313925429" version="3" timestamp="2009-04-04T22:39:32Z" uid="36809" user="pfoten_weg_!_" changeset="196576" lat="48.04435" lon="11.4446127">
    <tag k="created_by" v="RambaZamba"/>
    <tag k="source" v="survey"/>
  </node>
  <node id="313925429" version="4" timestamp="2009-08-12T13:34:58Z" uid="156995" user="HampelZamba" changeset="2118817" lat="48.04435" lon="11.4446127">
    <tag k="source" v="survey"/>
  </node>
  <node id="313925429" version="5" timestamp="2009-08-25T23:56:12Z" uid="36809" user="pfoten_weg_!_" changeset="2262648" lat="48.04435" lon="11.4446127">
    <tag k="source" v="survey"/>
  </node>
  <node id="313925429" version="6" timestamp="2009-08-26T00:58:32Z" uid="36809" user="pfoten_weg_!_" changeset="2262879" lat="48.04435" lon="11.4446127">
    <tag k="source" v="survey"/>
  </node>
  <node id="313925429" version="7" timestamp="2009-10-02T17:31:56Z" uid="86259" user="hasse_osm_korinthenkacker" changeset="2715119" lat="48.04435" lon="11.4446127"/>
  <node id="313925429" version="8" timestamp="2011-06-07T10:45:02Z" uid="137711" user="avus" changeset="8368903" lat="48.0443923" lon="11.4446091"/>
  <node id="313925429" version="9" timestamp="2011-12-27T22:05:53Z" uid="13832" user="Peter14" changeset="10220463" lat="48.0443923" lon="11.4446091"/>
  <node id="313925430" version="1" timestamp="2008-11-23T14:31:52Z" uid="36809" user="pfoten_weg_!_" changeset="784011" lat="48.0166661" lon="11.4175071">
    <tag k="created_by" v="RambaZamba"/>
  </node>
  <node id="313925430" version="2" timestamp="2009-03-30T08:03:56Z" uid="36809" user="pfoten_weg_!_" changeset="869210" lat="48.0166661" lon="11.4175071">
    <tag k="created_by" v="RambaZamba"/>
  </node>
  <node id="313925430" version="3" timestamp="2009-03-31T09:44:19Z" uid="5164" user="woodpeck" changeset="871977" lat="48.0166661" lon="11.4175071">
    <tag k="created_by" v="RambaZamba"/>
  </node>
  <node id="313925430" version="4" timestamp="2009-04-02T19:45:33Z" uid="36809" user="pfoten_weg_!_" changeset="104288" lat="48.0166661" lon="11.4175071">
    <tag k="created_by" v="RambaZamba"/>
  </node>
  <node id="313925430" version="5" timestamp="2009-04-03T00:31:16Z" uid="5164" user="woodpeck" changeset="150055" lat="48.0166661" lon="11.4175071"/>
  <node id="313925430" version="6" timestamp="2009-04-03T05:54:20Z" uid="36809" user="pfoten_weg_!_" changeset="111830" lat="48.0166661" lon="11.4175071">
    <tag k="created_by" v="RambaZamba"/>
    <tag k="source" v="survey"/>
  </node>
  <node id="313925430" version="7" timestamp="2009-04-03T06:20:16Z" uid="36809" user="pfoten_weg_!_" changeset="111830" lat="48.0166661" lon="11.4175071">
    <tag k="created_by" v="RambaZamba"/>
    <tag k="source" v="survey"/>
  </node>
  <node id="313925430" version="8" timestamp="2009-04-03T20:51:28Z" uid="5164" user="woodpeck" changeset="150055" lat="48.0166661" lon="11.4175071">
    <tag k="created_by" v="RambaZamba"/>
    <tag k="source" v="survey"/>
  </node>
  <node id="313925430" version="9" timestamp="2009-04-04T08:52:49Z" uid="7596" user="ck3d" changeset="160917" lat="48.0166661" lon="11.4175071">
    <tag k="created_by" v="RambaZamba"/>
    <tag k="source" v="survey"/>
  </node>
  <node id="313925431" version="1" timestamp="2008-11-23T14:31:53Z" uid="36809" user="pfoten_weg_!_" changeset="784011" lat="48.0185217" lon="11.4185056">
    <tag k="created_by" v="RambaZamba"/>
  </node>
  <node id="313925431" version="2" timestamp="2009-03-30T08:03:56Z" uid="36809" user="pfoten_weg_!_" changeset="869210" lat="48.0185217" lon="11.4185056">
    <tag k="created_by" v="RambaZamba"/>
  </node>
  <node id="313925431" version="3" timestamp="2009-03-31T09:44:21Z" uid="5164" user="woodpeck" changeset="871977" lat="48.0185217" lon="11.4185056">
    <tag k="created_by" v="RambaZamba"/>
  </node>
  <node id="313925431" version="4" timestamp="2009-04-02T19:45:33Z" uid="36809" user="pfoten_weg_!_" changeset="104288" lat="48.0185217" lon="11.4185056">
    <tag k="created_by" v="RambaZamba"/>
  </node>
  <node id="313925431" version="5" timestamp="2009-04-03T15:37:46Z" uid="5164" user="woodpeck" changeset="150055" lat="48.0185217" lon="11.4185056"/>
  <node id="313925431" version="6" timestamp="2009-04-04T08:48:28Z" uid="7596" user="ck3d" changeset="160917" lat="48.0185217" lon="11.4185056"/>
  <node id="313925432" version="1" timestamp="2008-11-23T14:31:53Z" uid="36809" user="pfoten_weg_!_" changeset="784011" lat="48.0459072" lon="11.4472342">
    <tag k="created_by" v="RambaZamba"/>
  </node>
  <node id="313925432" version="2" timestamp="2009-04-04T22:50:35Z" uid="36809" user="pfoten_weg_!_" changeset="196576" lat="48.0459072" lon="11.4472342">
    <tag k="created_by" v="RambaZamba"/>
    <tag k="source" v="survey"/>
  </node>
  <node id="313925432" version="3" timestamp="2009-08-12T13:34:58Z" uid="156995" user="HampelZamba" changeset="2118817" lat="48.0459072" lon="11.4472342">
    <tag k="source" v="survey"/>
  </node>
  <node id="313925432" version="4" timestamp="2009-08-25T23:56:13Z" uid="36809" user="pfoten_weg_!_" changeset="2262648" lat="48.0459072" lon="11.4472342">
    <tag k="source" v="survey"/>
  </node>
  <node id="313925432" version="5" timestamp="2009-08-26T00:58:33Z" uid="36809" user="pfoten_weg_!_" changeset="2262879" lat="48.0459072" lon="11.4472342">
    <tag k="source" v="survey"/>
  </node>
  <node id="313925432" version="6" timestamp="2009-10-02T17:31:57Z" uid="86259" user="hasse_osm_korinthenkacker" changeset="2715119" lat="48.0459072" lon="11.4472342"/>
  <node id="313925432" version="7" timestamp="2011-06-07T10:45:01Z" uid="137711" user="avus" changeset="8368903" lat="48.045943" lon="11.4472313"/>
  <node id="313925432" version="8" timestamp="2011-12-27T22:05:53Z" uid="13832" user="Peter14" changeset="10220463" lat="48.045943" lon="11.4472313"/>
  <node id="313925433" version="1" timestamp="2008-11-23T14:31:53Z" uid="36809" user="pfoten_weg_!_" changeset="784011" lat="48.0176533" lon="11.4177433">
    <tag k="created_by" v="RambaZamba"/>
  </node>
  <node id="313925433" version="2" timestamp="2009-03-30T08:03:54Z" uid="36809" user="pfoten_weg_!_" changeset="869210" lat="48.0176533" lon="11.4177433">
    <tag k="created_by" v="RambaZamba"/>
  </node>
  <node id="313925433" version="3" timestamp="2009-03-31T09:44:18Z" uid="5164" user="woodpeck" changeset="871977" lat="48.0176533" lon="11.4177433">
    <tag k="created_by" v="RambaZamba"/>
  </node>
  <node id="313925433" version="4" timestamp="2009-04-02T19:45:32Z" uid="36809" user="pfoten_weg_!_" changeset="104288" lat="48.0176533" lon="11.4177433">
    <tag k="created_by" v="RambaZamba"/>
  </node>
  <node id="313925433" version="5" timestamp="2009-04-03T21:18:10Z" uid="5164" user="woodpeck" changeset="150055" lat="48.0176533" lon="11.4177433"/>
  <node id="313925433" version="6" timestamp="2009-04-04T08:52:49Z" uid="7596" user="ck3d" changeset="160917" lat="48.0176533" lon="11.4177433"/>
  <node id="313925434" version="1" timestamp="2008-11-23T14:31:54Z" uid="36809" user="pfoten_weg_!_" changeset="784011" lat="48.0477433" lon="11.4498091"/>
  <node id="313925434" version="2" timestamp="2009-04-04T22:50:35Z" uid="36809" user="pfoten_weg_!_" changeset="196576" lat="48.0477433" lon="11.4498091">
    <tag k="created_by" v="RambaZamba"/>
    <tag k="source" v="survey"/>
  </node>
  <node id="313925434" version="3" timestamp="2009-08-12T13:34:58Z" uid="156995" user="HampelZamba" changeset="2118817" lat="48.0477433" lon="11.4498091">
    <tag k="source" v="survey"/>
  </node>
  <node id="313925434" version="4" timestamp="2009-08-25T23:56:12Z" uid="36809" user="pfoten_weg_!_" changeset="2262648" lat="48.0477433" lon="11.4498091">
    <tag k="source" v="survey"/>
  </node>
  <node id="313925434" version="5" timestamp="2009-08-26T00:58:33Z" uid="36809" user="pfoten_weg_!_" changeset="2262879" lat="48.0477433" lon="11.4498091">
    <tag k="source" v="survey"/>
  </node>
  <node id="313925434" version="6" timestamp="2009-10-02T17:32:02Z" uid="86259" user="hasse_osm_korinthenkacker" changeset="2715119" lat="48.0477433" lon="11.4498091"/>
  <node id="313925434" version="7" timestamp="2011-12-27T22:05:53Z" uid="13832" user="Peter14" changeset="10220463" lat="48.0477433" lon="11.4498091"/>
  <node id="313925435" version="1" timestamp="2008-11-23T14:31:54Z" uid="36809" user="pfoten_weg_!_" changeset="784011" lat="48.0171881" lon="11.4178752">
    <tag k="created_by" v="RambaZamba"/>
  </node>
  <node id="313925435" version="2" timestamp="2009-03-30T08:03:55Z" uid="36809" user="pfoten_weg_!_" changeset="869210" lat="48.0171881" lon="11.4178752">
    <tag k="created_by" v="RambaZamba"/>
  </node>
  <node id="313925435" version="3" timestamp="2009-03-31T09:44:39Z" uid="5164" user="woodpeck" changeset="871977" lat="48.0171881" lon="11.4178752">
    <tag k="created_by" v="RambaZamba"/>
  </node>
  <node id="313925435" version="4" timestamp="2009-04-02T19:45:32Z" uid="36809" user="pfoten_weg_!_" changeset="104288" lat="48.0171881" lon="11.4178752">
    <tag k="created_by" v="RambaZamba"/>
  </node>
  <node id="313925435" version="5" timestamp="2009-04-03T06:25:30Z" uid="5164" user="woodpeck" changeset="150055" lat="48.0171881" lon="11.4178752"/>
  <node id="313925435" version="6" timestamp="2009-04-03T14:17:14Z" uid="36809" user="pfoten_weg_!_" changeset="123862" lat="48.0171881" lon="11.4178752"/>
  <node id="313925436" version="1" timestamp="2008-11-23T14:31:54Z" uid="36809" user="pfoten_weg_!_" changeset="784011" lat="48.0500521" lon="11.4529749"/>
  <node id="313925436" version="2" timestamp="2009-04-04T22:50:33Z" uid="36809" user="pfoten_weg_!_" changeset="196576" lat="48.0500521" lon="11.4529749">
    <tag k="created_by" v="RambaZamba"/>
    <tag k="source" v="survey"/>
  </node>
  <node id="313925436" version="3" timestamp="2009-08-12T13:34:58Z" uid="156995" user="HampelZamba" changeset="2118817" lat="48.0500521" lon="11.4529749">
    <tag k="source" v="survey"/>
  </node>
  <node id="313925436" version="4" timestamp="2009-08-25T23:56:12Z" uid="36809" user="pfoten_weg_!_" changeset="2262648" lat="48.0500521" lon="11.4529749">
    <tag k="source" v="survey"/>
  </node>
  <node id="313925436" version="5" timestamp="2009-08-26T00:58:33Z" uid="36809" user="pfoten_weg_!_" changeset="2262879" lat="48.0500521" lon="11.4529749">
    <tag k="source" v="survey"/>
  </node>
  <node id="313925436" version="6" timestamp="2009-10-02T17:32:07Z" uid="86259" user="hasse_osm_korinthenkacker" changeset="2715119" lat="48.0500521" lon="11.4529749"/>
  <node id="313925436" version="7" timestamp="2011-06-07T10:45:02Z" uid="137711" user="avus" changeset="8368903" lat="48.0500947" lon="11.4529374"/>
  <node id="313925436" version="8" timestamp="2011-12-27T22:05:53Z" uid="13832" user="Peter14" changeset="10220463" lat="48.0500947" lon="11.4529374"/>
  <node id="313925437" version="1" timestamp="2008-11-23T14:31:54Z" uid="36809" user="pfoten_weg_!_" changeset="784011" lat="48.0540147" lon="11.4590756"/>
  <node id="313925437" version="2" timestamp="2008-11-23T15:03:33Z" uid="36809" user="pfoten_weg_!_" changeset="784011" lat="48.0540147" lon="11.4590756"/>
  <node id="313925438" version="1" timestamp="2008-11-23T14:31:54Z" uid="36809" user="pfoten_weg_!_" changeset="784011" lat="48.0519569" lon="11.45573"/>
  <node id="313925438" version="2" timestamp="2009-04-04T21:56:56Z" uid="36809" user="pfoten_weg_!_" changeset="196576" lat="48.0519569" lon="11.45573"/>
  <node id="313925439" version="1" timestamp="2008-11-23T14:31:55Z" uid="36809" user="pfoten_weg_!_" changeset="784011" lat="48.0368391" lon="11.432244">
    <tag k="created_by" v="RambaZamba"/>
  </node>
  <node id="313925439" version="2" timestamp="2009-04-03T05:56:47Z" uid="36809" user="pfoten_weg_!_" changeset="111830" lat="48.0368391" lon="11.432244">
    <tag k="created_by" v="RambaZamba"/>
    <tag k="source" v="survey"/>
  </node>
  <node id="313925439" version="3" timestamp="2009-08-12T13:34:58Z" uid="156995" user="HampelZamba" changeset="2118817" lat="48.0368391" lon="11.432244">
    <tag k="source" v="survey"/>
  </node>
  <node id="313925439" version="4" timestamp="2009-08-19T13:43:07Z" uid="36809" user="pfoten_weg_!_" changeset="2201154" lat="48.0368391" lon="11.432244">
    <tag k="source" v="survey at RambaZamba"/>
  </node>
  <node id="313925439" version="5" timestamp="2009-08-28T19:41:21Z" uid="156995" user="HampelZamba" changeset="2294580" lat="48.0368391" lon="11.432244"/>
  <node id="313925439" version="6" timestamp="2009-08-31T17:38:04Z" uid="36809" user="pfoten_weg_!_" changeset="2328905" lat="48.0368391" lon="11.432244"/>
  <node id="313925440" version="1" timestamp="2008-11-23T14:31:55Z" uid="36809" user="pfoten_weg_!_" changeset="784011" lat="48.0363536" lon="11.4318356">
    <tag k="created_by" v="RambaZamba"/>
  </node>
  <node id="313925440" version="2" timestamp="2009-04-03T05:56:44Z" uid="36809" user="pfoten_weg_!_" changeset="111830" lat="48.0363536" lon="11.4318356">
    <tag k="created_by" v="RambaZamba"/>
    <tag k="source" v="survey"/>
  </node>
  <node id="313925440" version="3" timestamp="2009-08-12T13:34:58Z" uid="156995" user="HampelZamba" changeset="2118817" lat="48.0363536" lon="11.4318356">
    <tag k="source" v="survey"/>
  </node>
  <node id="313925440" version="4" timestamp="2009-08-19T13:42:52Z" uid="36809" user="pfoten_weg_!_" changeset="2201154" lat="48.0363536" lon="11.4318356">
    <tag k="source" v="survey at RambaZamba"/>
  </node>
  <node id="313925440" version="5" timestamp="2009-08-28T19:41:21Z" uid="156995" user="HampelZamba" changeset="2294580" lat="48.0363536" lon="11.4318356"/>
  <node id="313925440" version="6" timestamp="2009-08-31T17:38:03Z" uid="36809" user="pfoten_weg_!_" changeset="2328905" lat="48.0363536" lon="11.4318356"/>
  <node id="313925441" version="1" timestamp="2008-11-23T14:31:55Z" uid="36809" user="pfoten_weg_!_" changeset="784011" lat="48.03828" lon="11.4334846">
    <tag k="created_by" v="RambaZamba"/>
  </node>
  <node id="313925441" version="2" timestamp="2009-04-03T05:56:45Z" uid="36809" user="pfoten_weg_!_" changeset="111830" lat="48.03828" lon="11.4334846">
    <tag k="created_by" v="RambaZamba"/>
    <tag k="source" v="survey"/>
  </node>
  <node id="313925441" version="3" timestamp="2009-08-12T13:34:58Z" uid="156995" user="HampelZamba" changeset="2118817" lat="48.03828" lon="11.4334846">
    <tag k="source" v="survey"/>
  </node>
  <node id="313925441" version="4" timestamp="2009-08-19T13:42:53Z" uid="36809" user="pfoten_weg_!_" changeset="2201154" lat="48.03828" lon="11.4334846">
    <tag k="source" v="survey at RambaZamba"/>
  </node>
  <node id="313925441" version="5" timestamp="2009-08-28T19:41:21Z" uid="156995" user="HampelZamba" changeset="2294580" lat="48.03828" lon="11.4334846"/>
  <node id="313925441" version="6" timestamp="2009-08-31T17:38:03Z" uid="36809" user="pfoten_weg_!_" changeset="2328905" lat="48.03828" lon="11.4334846"/>
  <node id="313925442" version="1" timestamp="2008-11-23T14:31:55Z" uid="36809" user="pfoten_weg_!_" changeset="784011" lat="48.0357989" lon="11.4313039">
    <tag k="created_by" v="RambaZamba"/>
  </node>
  <node id="313925442" version="2" timestamp="2009-04-03T05:56:45Z" uid="36809" user="pfoten_weg_!_" changeset="111830" lat="48.0357989" lon="11.4313039">
    <tag k="created_by" v="RambaZamba"/>
    <tag k="source" v="survey"/>
  </node>
  <node id="313925442" version="3" timestamp="2009-08-12T13:34:58Z" uid="156995" user="HampelZamba" changeset="2118817" lat="48.0357989" lon="11.4313039">
    <tag k="source" v="survey"/>
  </node>
  <node id="313925442" version="4" timestamp="2009-08-19T13:42:56Z" uid="36809" user="pfoten_weg_!_" changeset="2201154" lat="48.0357989" lon="11.4313039">
    <tag k="source" v="survey at RambaZamba"/>
  </node>
  <node id="313925442" version="5" timestamp="2009-08-28T19:41:21Z" uid="156995" user="HampelZamba" changeset="2294580" lat="48.0357989" lon="11.4313039"/>
  <node id="313925442" version="6" timestamp="2009-08-31T17:38:03Z" uid="36809" user="pfoten_weg_!_" changeset="2328905" lat="48.0357989" lon="11.4313039"/>
  <node id="313925443" version="1" timestamp="2008-11-23T14:31:56Z" uid="36809" user="pfoten_weg_!_" changeset="784011" lat="48.0377869" lon="11.4330685">
    <tag k="created_by" v="RambaZamba"/>
  </node>
  <node id="313925443" version="2" timestamp="2009-04-03T05:56:45Z" uid="36809" user="pfoten_weg_!_" changeset="111830" lat="48.0377869" lon="11.4330685">
    <tag k="created_by" v="RambaZamba"/>
    <tag k="source" v="survey"/>
  </node>
  <node id="313925443" version="3" timestamp="2009-08-12T13:34:58Z" uid="156995" user="HampelZamba" changeset="2118817" lat="48.0377869" lon="11.4330685">
    <tag k="source" v="survey"/>
  </node>
  <node id="313925443" version="4" timestamp="2009-08-19T13:42:57Z" uid="36809" user="pfoten_weg_!_" changeset="2201154" lat="48.0377869" lon="11.4330685">
    <tag k="source" v="survey at RambaZamba"/>
  </node>
  <node id="313925443" version="5" timestamp="2009-08-28T19:41:21Z" uid="156995" user="HampelZamba" changeset="2294580" lat="48.0377869" lon="11.4330685"/>
  <node id="313925443" version="6" timestamp="2009-08-31T17:38:03Z" uid="36809" user="pfoten_weg_!_" changeset="2328905" lat="48.0377869" lon="11.4330685"/>
  <node id="313925445" version="1" timestamp="2008-11-23T14:31:56Z" uid="36809" user="pfoten_weg_!_" changeset="784011" lat="48.0353519" lon="11.4307492">
    <tag k="created_by" v="RambaZamba"/>
  </node>
  <node id="313925445" version="2" timestamp="2009-04-03T05:56:45Z" uid="36809" user="pfoten_weg_!_" changeset="111830" lat="48.0353519" lon="11.4307492">
    <tag k="created_by" v="RambaZamba"/>
    <tag k="source" v="survey"/>
  </node>
  <node id="313925445" version="3" timestamp="2009-08-12T13:34:58Z" uid="156995" user="HampelZamba" changeset="2118817" lat="48.0353519" lon="11.4307492">
    <tag k="source" v="survey"/>
  </node>
  <node id="313925445" version="4" timestamp="2009-08-19T13:42:59Z" uid="36809" user="pfoten_weg_!_" changeset="2201154" lat="48.0353519" lon="11.4307492">
    <tag k="source" v="survey at RambaZamba"/>
  </node>
  <node id="313925445" version="5" timestamp="2009-08-28T19:41:21Z" uid="156995" user="HampelZamba" changeset="2294580" lat="48.0353519" lon="11.4307492"/>
  <node id="313925445" version="6" timestamp="2009-08-31T17:38:03Z" uid="36809" user="pfoten_weg_!_" changeset="2328905" lat="48.0353519" lon="11.4307492"/>
  <node id="313925446" version="1" timestamp="2008-11-23T14:31:56Z" uid="36809" user="pfoten_weg_!_" changeset="784011" lat="48.037286" lon="11.4326293">
    <tag k="created_by" v="RambaZamba"/>
  </node>
  <node id="313925446" version="2" timestamp="2009-04-03T05:56:45Z" uid="36809" user="pfoten_weg_!_" changeset="111830" lat="48.037286" lon="11.4326293">
    <tag k="created_by" v="RambaZamba"/>
    <tag k="source" v="survey"/>
  </node>
  <node id="313925446" version="3" timestamp="2009-08-12T13:34:58Z" uid="156995" user="HampelZamba" changeset="2118817" lat="48.037286" lon="11.4326293">
    <tag k="source" v="survey"/>
  </node>
  <node id="313925446" version="4" timestamp="2009-08-19T13:43:00Z" uid="36809" user="pfoten_weg_!_" changeset="2201154" lat="48.037286" lon="11.4326293">
    <tag k="source" v="survey at RambaZamba"/>
  </node>
  <node id="313925446" version="5" timestamp="2009-08-28T19:41:21Z" uid="156995" user="HampelZamba" changeset="2294580" lat="48.037286" lon="11.4326293"/>
  <node id="313925446" version="6" timestamp="2009-08-31T17:38:03Z" uid="36809" user="pfoten_weg_!_" changeset="2328905" lat="48.037286" lon="11.4326293"/>
  <node id="313925517" version="6" timestamp="2009-10-23T11:54:25Z" uid="36809" user="pfoten_weg_!_" changeset="2929138" lat="47.9766565" lon="11.6521553">
    <tag k="addr:city" v="Sauerlach"/>
    <tag k="addr:country" v="DE"/>
    <tag k="addr:housenumber" v="31"/>
    <tag k="addr:postcode" v="82054"/>
    <tag k="addr:street" v="Münchener Straße"/>
    <tag k="name" v="Vogel Tore"/>
    <tag k="source" v="survey"/>
  </node>
  <node id="313925517" version="7" timestamp="2009-10-23T12:03:55Z" uid="36809" user="pfoten_weg_!_" changeset="2929214" lat="47.9766565" lon="11.6521553">
    <tag k="addr:city" v="Sauerlach"/>
    <tag k="addr:country" v="DE"/>
    <tag k="addr:housenumber" v="31"/>
    <tag k="addr:postcode" v="82054"/>
    <tag k="addr:street" v="Münchener Straße"/>
    <tag k="name" v="Vogel Tore"/>
    <tag k="source" v="survey"/>
  </node>
  <node id="313925517" version="8" timestamp="2009-10-23T12:09:50Z" uid="36809" user="pfoten_weg_!_" changeset="2929257" lat="47.9766565" lon="11.6521553">
    <tag k="addr:city" v="Sauerlach"/>
    <tag k="addr:country" v="DE"/>
    <tag k="addr:housenumber" v="31"/>
    <tag k="addr:postcode" v="82054"/>
    <tag k="addr:street" v="Münchener Straße"/>
    <tag k="name" v="Vogel Tore"/>
    <tag k="source" v="survey"/>
  </node>
  <node id="313925517" version="9" timestamp="2010-06-03T09:10:10Z" uid="290723" user="sulagaloh" changeset="4890520" lat="47.9766324" lon="11.6521296">
    <tag k="addr:city" v="Sauerlach"/>
    <tag k="addr:country" v="DE"/>
    <tag k="addr:housenumber" v="31"/>
    <tag k="addr:postcode" v="82054"/>
    <tag k="addr:street" v="Münchener Straße"/>
    <tag k="name" v="Vogel Tore"/>
    <tag k="source" v="survey"/>
  </node>
  <node id="313925961" version="5" timestamp="2009-10-23T11:55:08Z" uid="36809" user="pfoten_weg_!_" changeset="2929138" lat="47.9779528" lon="11.6525215">
    <tag k="addr:city" v="Sauerlach"/>
    <tag k="addr:country" v="DE"/>
    <tag k="addr:housenumber" v="40"/>
    <tag k="addr:postcode" v="82054"/>
    <tag k="addr:street" v="Münchener Straße"/>
    <tag k="source" v="survey"/>
  </node>
  <node id="313925961" version="6" timestamp="2009-10-23T12:04:55Z" uid="36809" user="pfoten_weg_!_" changeset="2929214" lat="47.9779528" lon="11.6525215">
    <tag k="addr:city" v="Sauerlach"/>
    <tag k="addr:country" v="DE"/>
    <tag k="addr:housenumber" v="40"/>
    <tag k="addr:postcode" v="82054"/>
    <tag k="addr:street" v="Münchener Straße"/>
    <tag k="source" v="survey"/>
  </node>
  <node id="313925961" version="7" timestamp="2009-10-23T12:10:39Z" uid="36809" user="pfoten_weg_!_" changeset="2929257" lat="47.9779528" lon="11.6525215">
    <tag k="addr:city" v="Sauerlach"/>
    <tag k="addr:country" v="DE"/>
    <tag k="addr:housenumber" v="40"/>
    <tag k="addr:postcode" v="82054"/>
    <tag k="addr:street" v="Münchener Straße"/>
    <tag k="source" v="survey"/>
  </node>
  <node id="313925961" version="8" timestamp="2010-05-22T08:28:49Z" uid="290723" user="sulagaloh" changeset="4772323" lat="47.9779527" lon="11.6525215">
    <tag k="addr:city" v="Sauerlach"/>
    <tag k="addr:country" v="DE"/>
    <tag k="addr:housenumber" v="40"/>
    <tag k="addr:postcode" v="82054"/>
    <tag k="addr:street" v="Münchener Straße"/>
    <tag k="amenity" v="school"/>
    <tag k="name" v="Friedrich-von-Aychsteter-Volksschule Sauerlach"/>
    <tag k="source" v="survey"/>
  </node>
  <node id="313925961" version="9" timestamp="2011-12-18T20:57:07Z" uid="290680" user="wheelmap_visitor" changeset="10145307" lat="47.9779527" lon="11.6525215">
    <tag k="addr:city" v="Sauerlach"/>
    <tag k="addr:country" v="DE"/>
    <tag k="addr:housenumber" v="40"/>
    <tag k="addr:postcode" v="82054"/>
    <tag k="addr:street" v="Münchener Straße"/>
    <tag k="amenity" v="school"/>
    <tag k="name" v="Friedrich-von-Aychsteter-Volksschule Sauerlach"/>
    <tag k="source" v="survey"/>
    <tag k="wheelchair" v="yes"/>
  </node>
  <node id="313926282" version="6" timestamp="2009-10-23T11:55:09Z" uid="36809" user="pfoten_weg_!_" changeset="2929138" lat="47.9781391" lon="11.6534608">
    <tag k="addr:city" v="Sauerlach"/>
    <tag k="addr:country" v="DE"/>
    <tag k="addr:housenumber" v="40"/>
    <tag k="addr:postcode" v="82054"/>
    <tag k="addr:street" v="Am Otterloher Feld"/>
    <tag k="source" v="survey"/>
  </node>
  <node id="313926282" version="7" timestamp="2009-10-23T12:04:56Z" uid="36809" user="pfoten_weg_!_" changeset="2929214" lat="47.9781391" lon="11.6534608">
    <tag k="addr:city" v="Sauerlach"/>
    <tag k="addr:country" v="DE"/>
    <tag k="addr:housenumber" v="40"/>
    <tag k="addr:postcode" v="82054"/>
    <tag k="addr:street" v="Am Otterloher Feld"/>
    <tag k="source" v="survey"/>
  </node>
  <node id="313926282" version="8" timestamp="2009-10-23T12:10:39Z" uid="36809" user="pfoten_weg_!_" changeset="2929257" lat="47.9781391" lon="11.6534608">
    <tag k="addr:city" v="Sauerlach"/>
    <tag k="addr:country" v="DE"/>
    <tag k="addr:housenumber" v="40"/>
    <tag k="addr:postcode" v="82054"/>
    <tag k="addr:street" v="Am Otterloher Feld"/>
    <tag k="source" v="survey"/>
  </node>
  <node id="313926943" version="3" timestamp="2010-05-01T18:04:57Z" uid="151899" user="Bikeman2000" changeset="4577787" lat="51.2754837" lon="6.7868131"/>
  <node id="313926943" version="4" timestamp="2011-12-29T17:53:21Z" uid="173844" user="Antikalk" changeset="10237789" lat="51.2754837" lon="6.7868131"/>
  <node id="313926995" version="4" timestamp="2009-10-23T11:55:16Z" uid="36809" user="pfoten_weg_!_" changeset="2929138" lat="47.9783378" lon="11.6538862">
    <tag k="addr:city" v="Sauerlach"/>
    <tag k="addr:country" v="DE"/>
    <tag k="addr:housenumber" v="2"/>
    <tag k="addr:postcode" v="82054"/>
    <tag k="addr:street" v="Am Otterloher Feld"/>
    <tag k="name" v="Sulag Pub"/>
    <tag k="source" v="survey"/>
  </node>
  <node id="313926995" version="5" timestamp="2009-10-23T12:05:00Z" uid="36809" user="pfoten_weg_!_" changeset="2929214" lat="47.9783378" lon="11.6538862">
    <tag k="addr:city" v="Sauerlach"/>
    <tag k="addr:country" v="DE"/>
    <tag k="addr:housenumber" v="2"/>
    <tag k="addr:postcode" v="82054"/>
    <tag k="addr:street" v="Am Otterloher Feld"/>
    <tag k="name" v="Sulag Pub"/>
    <tag k="source" v="survey"/>
  </node>
  <node id="313926995" version="6" timestamp="2009-10-23T12:10:43Z" uid="36809" user="pfoten_weg_!_" changeset="2929257" lat="47.9783378" lon="11.6538862">
    <tag k="addr:city" v="Sauerlach"/>
    <tag k="addr:country" v="DE"/>
    <tag k="addr:housenumber" v="2"/>
    <tag k="addr:postcode" v="82054"/>
    <tag k="addr:street" v="Am Otterloher Feld"/>
    <tag k="name" v="Sulag Pub"/>
    <tag k="source" v="survey"/>
  </node>
  <node id="313926995" version="7" timestamp="2012-03-24T20:50:37Z" uid="290723" user="sulagaloh" changeset="11088893" lat="47.9783378" lon="11.6538862"/>
  <node id="313928575" version="1" timestamp="2008-11-23T14:48:53Z" uid="43863" user="Rundling" changeset="785099" lat="52.9745472" lon="10.557904"/>
  <node id="313928575" version="2" timestamp="2008-11-23T15:32:06Z" uid="43863" user="Rundling" changeset="785099" lat="52.9745472" lon="10.557904"/>
  <node id="313928575" version="3" timestamp="2008-11-24T15:26:36Z" uid="43863" user="Rundling" changeset="789272" lat="52.9745472" lon="10.557904"/>
  <node id="313928576" version="1" timestamp="2008-11-23T14:48:54Z" uid="43863" user="Rundling" changeset="785099" lat="52.9744651" lon="10.5574151"/>
  <node id="313928576" version="2" timestamp="2008-11-23T15:32:06Z" uid="43863" user="Rundling" changeset="785099" lat="52.9744651" lon="10.5574151"/>
  <node id="313928576" version="3" timestamp="2008-11-24T07:10:05Z" uid="43863" user="Rundling" changeset="786380" lat="52.9745041" lon="10.5574898"/>
  <node id="313928578" version="1" timestamp="2008-11-23T14:48:54Z" uid="43863" user="Rundling" changeset="785099" lat="52.9745274" lon="10.5571518"/>
  <node id="313928578" version="2" timestamp="2008-11-23T15:32:06Z" uid="43863" user="Rundling" changeset="785099" lat="52.9745274" lon="10.5571518"/>
  <node id="313928579" version="1" timestamp="2008-11-23T14:48:54Z" uid="43863" user="Rundling" changeset="785099" lat="52.9746944" lon="10.5567757"/>
  <node id="313928579" version="2" timestamp="2008-11-23T15:32:06Z" uid="43863" user="Rundling" changeset="785099" lat="52.9746944" lon="10.5567757"/>
  <node id="313928579" version="3" timestamp="2009-01-16T14:47:17Z" uid="43863" user="Rundling" changeset="794681" lat="52.9746944" lon="10.5567757"/>
  <node id="313928580" version="1" timestamp="2008-11-23T14:48:54Z" uid="43863" user="Rundling" changeset="785099" lat="52.9748869" lon="10.5564937"/>
  <node id="313928580" version="2" timestamp="2008-11-23T15:32:06Z" uid="43863" user="Rundling" changeset="785099" lat="52.9748869" lon="10.5564937"/>
  <node id="313928580" version="3" timestamp="2009-01-16T17:51:41Z" uid="43863" user="Rundling" changeset="796529" lat="52.9749002" lon="10.556641"/>
  <node id="313928581" version="1" timestamp="2008-11-23T14:48:54Z" uid="43863" user="Rundling" changeset="785099" lat="52.9752068" lon="10.5562351"/>
  <node id="313928581" version="2" timestamp="2008-11-23T15:32:06Z" uid="43863" user="Rundling" changeset="785099" lat="52.9752068" lon="10.5562351"/>
  <node id="313928581" version="3" timestamp="2008-11-24T07:10:05Z" uid="43863" user="Rundling" changeset="786380" lat="52.9751558" lon="10.5562351"/>
  <node id="313928581" version="4" timestamp="2008-11-24T15:26:32Z" uid="43863" user="Rundling" changeset="789272" lat="52.9751558" lon="10.5563523"/>
  <node id="313928581" version="5" timestamp="2009-01-16T14:47:17Z" uid="43863" user="Rundling" changeset="794681" lat="52.9751558" lon="10.5563523"/>
  <node id="313928584" version="1" timestamp="2008-11-23T14:48:55Z" uid="43863" user="Rundling" changeset="785099" lat="52.9754984" lon="10.5561458"/>
  <node id="313928584" version="2" timestamp="2008-11-23T15:32:06Z" uid="43863" user="Rundling" changeset="785099" lat="52.9754984" lon="10.5561458"/>
  <node id="313928584" version="3" timestamp="2008-11-24T07:10:05Z" uid="43863" user="Rundling" changeset="786380" lat="52.9754804" lon="10.5560312"/>
  <node id="313928584" version="4" timestamp="2008-11-24T15:26:36Z" uid="43863" user="Rundling" changeset="789272" lat="52.9754804" lon="10.5560312"/>
  <node id="313928586" version="1" timestamp="2008-11-23T14:48:55Z" uid="43863" user="Rundling" changeset="785099" lat="52.9760221" lon="10.556174"/>
  <node id="313928586" version="2" timestamp="2008-11-23T15:32:06Z" uid="43863" user="Rundling" changeset="785099" lat="52.9760138" lon="10.5559988"/>
  <node id="313928586" version="3" timestamp="2008-11-24T07:10:05Z" uid="43863" user="Rundling" changeset="786380" lat="52.9759838" lon="10.5558295"/>
  <node id="313928586" version="4" timestamp="2008-11-24T15:26:36Z" uid="43863" user="Rundling" changeset="789272" lat="52.9759838" lon="10.5558295"/>
  <node id="313928587" version="1" timestamp="2008-11-23T14:48:55Z" uid="43863" user="Rundling" changeset="785099" lat="52.9763193" lon="10.5560282"/>
  <node id="313928587" version="2" timestamp="2008-11-23T15:32:06Z" uid="43863" user="Rundling" changeset="785099" lat="52.9763239" lon="10.5558358"/>
  <node id="313928587" version="3" timestamp="2008-11-24T07:10:05Z" uid="43863" user="Rundling" changeset="786380" lat="52.9763089" lon="10.5557163"/>
  <node id="313928587" version="4" timestamp="2008-11-24T15:26:36Z" uid="43863" user="Rundling" changeset="789272" lat="52.9763089" lon="10.5557163"/>
  <node id="313928588" version="1" timestamp="2008-11-23T14:48:55Z" uid="43863" user="Rundling" changeset="785099" lat="52.976894" lon="10.5557461"/>
  <node id="313928588" version="2" timestamp="2008-11-23T15:32:06Z" uid="43863" user="Rundling" changeset="785099" lat="52.9768769" lon="10.5556212"/>
  <node id="313928588" version="3" timestamp="2008-11-24T07:10:05Z" uid="43863" user="Rundling" changeset="786380" lat="52.9768709" lon="10.5554618"/>
  <node id="313928588" version="4" timestamp="2008-11-24T15:26:32Z" uid="43863" user="Rundling" changeset="789272" lat="52.976875" lon="10.5554719"/>
  <node id="313928588" version="5" timestamp="2008-11-25T08:43:15Z" uid="43863" user="Rundling" changeset="791325" lat="52.9768819" lon="10.5555872"/>
  <node id="313928588" version="6" timestamp="2009-01-16T09:22:33Z" uid="43863" user="Rundling" changeset="794082" lat="52.976898" lon="10.5557141"/>
  <node id="313928588" version="7" timestamp="2009-03-26T16:16:09Z" uid="43863" user="Rundling" changeset="860581" lat="52.9769085" lon="10.5558067"/>
  <node id="313928588" version="8" timestamp="2009-06-13T06:03:30Z" uid="43863" user="Rundling" changeset="1501647" lat="52.9769183" lon="10.5558583"/>
  <node id="313928588" version="9" timestamp="2009-06-16T16:11:25Z" uid="43863" user="Rundling" changeset="1536421" lat="52.9769079" lon="10.5557929"/>
  <node id="313928590" version="1" timestamp="2008-11-23T14:48:55Z" uid="43863" user="Rundling" changeset="785099" lat="52.9785953" lon="10.5543405"/>
  <node id="313928590" version="2" timestamp="2008-12-18T19:24:14Z" uid="43863" user="Rundling" changeset="458488" lat="52.9786195" lon="10.5543368"/>
  <node id="313928591" version="1" timestamp="2008-11-23T14:48:56Z" uid="43863" user="Rundling" changeset="785099" lat="52.9784934" lon="10.5546225"/>
  <node id="313928591" version="2" timestamp="2008-11-23T15:48:40Z" uid="43863" user="Rundling" changeset="785099" lat="52.9784934" lon="10.5546225">
    <tag k="barrier" v="bollard"/>
  </node>
  <node id="313928591" version="3" timestamp="2008-12-18T19:24:14Z" uid="43863" user="Rundling" changeset="458488" lat="52.9785176" lon="10.5546188">
    <tag k="barrier" v="bollard"/>
  </node>
  <node id="313928591" version="4" timestamp="2009-01-16T14:47:16Z" uid="43863" user="Rundling" changeset="794681" lat="52.9784735" lon="10.5544829">
    <tag k="barrier" v="bollard"/>
  </node>
  <node id="313928592" version="1" timestamp="2008-11-23T14:48:56Z" uid="43863" user="Rundling" changeset="785099" lat="52.9768459" lon="10.5551914"/>
  <node id="313928592" version="2" timestamp="2008-11-25T08:43:15Z" uid="43863" user="Rundling" changeset="791325" lat="52.976839" lon="10.5551491"/>
  <node id="313928592" version="3" timestamp="2009-01-16T09:22:33Z" uid="43863" user="Rundling" changeset="794082" lat="52.976839" lon="10.5550957"/>
  <node id="313928592" version="4" timestamp="2009-01-16T14:47:16Z" uid="43863" user="Rundling" changeset="794681" lat="52.976839" lon="10.5552263"/>
  <node id="313928592" version="5" timestamp="2009-02-24T19:39:26Z" uid="43863" user="Rundling" changeset="655981" lat="52.9768542" lon="10.5553963"/>
  <node id="313928593" version="1" timestamp="2008-11-23T14:48:57Z" uid="43863" user="Rundling" changeset="785099" lat="52.9718464" lon="10.5578768"/>
  <node id="313928593" version="2" timestamp="2008-12-23T22:09:55Z" uid="43863" user="Rundling" changeset="574593" lat="52.9718464" lon="10.5578768"/>
  <node id="313928593" version="3" timestamp="2008-12-28T23:02:28Z" uid="43863" user="Rundling" changeset="655201" lat="52.9718464" lon="10.5578768"/>
  <node id="313928593" version="4" timestamp="2009-01-16T17:53:42Z" uid="43863" user="Rundling" changeset="796529" lat="52.9718464" lon="10.5578768"/>
  <node id="313928594" version="1" timestamp="2008-11-23T14:48:59Z" uid="43863" user="Rundling" changeset="785099" lat="52.9720706" lon="10.5578486"/>
  <node id="313928594" version="2" timestamp="2008-11-23T14:52:31Z" uid="43863" user="Rundling" changeset="785099" lat="52.9720706" lon="10.5578486"/>
  <node id="313928595" version="1" timestamp="2008-11-23T14:48:59Z" uid="43863" user="Rundling" changeset="785099" lat="52.972553" lon="10.5574537"/>
  <node id="313928595" version="2" timestamp="2008-12-18T19:24:14Z" uid="43863" user="Rundling" changeset="458488" lat="52.9725508" lon="10.5574239"/>
  <node id="313928595" version="3" timestamp="2009-03-15T18:10:36Z" uid="43863" user="Rundling" changeset="813013" lat="52.9725508" lon="10.5574239"/>
  <node id="313928596" version="1" timestamp="2008-11-23T14:48:59Z" uid="43863" user="Rundling" changeset="785099" lat="52.9731509" lon="10.5570362"/>
  <node id="313928596" version="2" timestamp="2008-12-18T19:24:14Z" uid="43863" user="Rundling" changeset="458488" lat="52.9731487" lon="10.5570064"/>
  <node id="313928596" version="3" timestamp="2009-03-15T18:10:36Z" uid="43863" user="Rundling" changeset="813013" lat="52.9731487" lon="10.5570064"/>
  <node id="313928597" version="1" timestamp="2008-11-23T14:48:59Z" uid="43863" user="Rundling" changeset="785099" lat="52.9736266" lon="10.5568049"/>
  <node id="313928597" version="2" timestamp="2008-12-18T19:24:14Z" uid="43863" user="Rundling" changeset="458488" lat="52.9736244" lon="10.5567751"/>
  <node id="313928597" version="3" timestamp="2009-03-15T18:10:37Z" uid="43863" user="Rundling" changeset="813013" lat="52.9736244" lon="10.5567751"/>
  <node id="313928598" version="1" timestamp="2008-11-23T14:48:59Z" uid="43863" user="Rundling" changeset="785099" lat="52.9740308" lon="10.556771"/>
  <node id="313928598" version="2" timestamp="2008-12-18T19:24:14Z" uid="43863" user="Rundling" changeset="458488" lat="52.9740286" lon="10.5567412"/>
  <node id="313928598" version="3" timestamp="2009-03-15T18:10:37Z" uid="43863" user="Rundling" changeset="813013" lat="52.9740286" lon="10.5567412"/>
  <node id="313928599" version="1" timestamp="2008-11-23T14:49:00Z" uid="43863" user="Rundling" changeset="785099" lat="52.9746661" lon="10.5568839"/>
  <node id="313928599" version="2" timestamp="2008-11-23T15:32:06Z" uid="43863" user="Rundling" changeset="785099" lat="52.9746661" lon="10.5568839"/>
  <node id="313928599" version="3" timestamp="2008-11-24T07:10:04Z" uid="43863" user="Rundling" changeset="786380" lat="52.9746451" lon="10.5568739"/>
  <node id="313928599" version="4" timestamp="2008-11-24T15:26:31Z" uid="43863" user="Rundling" changeset="789272" lat="52.974645" lon="10.5568866"/>
  <node id="313928599" version="5" timestamp="2008-12-18T19:24:13Z" uid="43863" user="Rundling" changeset="458488" lat="52.9745485" lon="10.5568605"/>
  <node id="313928599" version="6" timestamp="2008-12-26T17:23:29Z" uid="4473" user="EtricCeline" changeset="611915" lat="52.9746281" lon="10.5569229"/>
  <node id="313928600" version="1" timestamp="2008-11-23T14:49:00Z" uid="43863" user="Rundling" changeset="785099" lat="52.9737353" lon="10.5566751">
    <tag k="amenity" v="restaurant"/>
    <tag k="name" v="Stadthalle"/>
  </node>
  <node id="313928600" version="2" timestamp="2008-11-24T07:10:05Z" uid="43863" user="Rundling" changeset="786380" lat="52.9736003" lon="10.5566751">
    <tag k="amenity" v="restaurant"/>
    <tag k="name" v="Stadthalle"/>
  </node>
  <node id="313928600" version="3" timestamp="2009-07-10T08:24:09Z" uid="43863" user="Rundling" changeset="1786937" lat="52.9736003" lon="10.5566751">
    <tag k="addr:city" v="Uelzen"/>
    <tag k="addr:country" v="DE"/>
    <tag k="addr:housenumber" v="1"/>
    <tag k="addr:postcode" v="29525"/>
    <tag k="addr:street" v="Am Schützenplatz"/>
    <tag k="amenity" v="restaurant"/>
    <tag k="name" v="Stadthalle"/>
  </node>
  <node id="313928600" version="4" timestamp="2011-03-03T15:29:07Z" uid="43863" user="Rundling" changeset="7446630" lat="52.9736003" lon="10.5566751">
    <tag k="addr:city" v="Uelzen"/>
    <tag k="addr:country" v="DE"/>
    <tag k="addr:housenumber" v="1"/>
    <tag k="addr:postcode" v="29525"/>
    <tag k="addr:street" v="Am Schützenplatz"/>
    <tag k="amenity" v="restaurant"/>
    <tag k="name" v="Stadthalle"/>
  </node>
  <node id="313928601" version="1" timestamp="2008-11-23T14:49:01Z" uid="43863" user="Rundling" changeset="785099" lat="52.9736232" lon="10.5587117"/>
  <node id="313928601" version="2" timestamp="2008-11-23T15:34:48Z" uid="43863" user="Rundling" changeset="785099" lat="52.9736232" lon="10.5587117"/>
  <node id="313928602" version="1" timestamp="2008-11-23T14:49:01Z" uid="43863" user="Rundling" changeset="785099" lat="52.9736707" lon="10.5567823"/>
  <node id="313928602" version="2" timestamp="2008-11-23T15:34:49Z" uid="43863" user="Rundling" changeset="785099" lat="52.9736001" lon="10.5568314"/>
  <node id="313928602" version="3" timestamp="2008-11-24T07:10:05Z" uid="43863" user="Rundling" changeset="786380" lat="52.9736001" lon="10.5568183"/>
  <node id="313928602" version="4" timestamp="2009-01-15T19:49:34Z" uid="43863" user="Rundling" changeset="792363" lat="52.9736001" lon="10.5568183"/>
  <node id="313928603" version="1" timestamp="2008-11-23T14:49:01Z" uid="43863" user="Rundling" changeset="785099" lat="52.9737489" lon="10.5576003">
    <tag k="amenity" v="parking"/>
  </node>
  <node id="313928891" version="1" timestamp="2008-11-23T14:52:26Z" uid="43863" user="Rundling" changeset="785099" lat="52.9724579" lon="10.5575326"/>
  <node id="313928891" version="2" timestamp="2008-11-23T14:56:34Z" uid="43863" user="Rundling" changeset="785099" lat="52.9724413" lon="10.5575199"/>
  <node id="313928891" version="3" timestamp="2009-01-15T19:49:34Z" uid="43863" user="Rundling" changeset="792363" lat="52.9724413" lon="10.5575199"/>
  <node id="313928892" version="1" timestamp="2008-11-23T14:52:27Z" uid="43863" user="Rundling" changeset="785099" lat="52.9728656" lon="10.5577075"/>
  <node id="313928893" version="1" timestamp="2008-11-23T14:52:27Z" uid="43863" user="Rundling" changeset="785099" lat="52.9732495" lon="10.5579614"/>
  <node id="313928894" version="1" timestamp="2008-11-23T14:52:27Z" uid="43863" user="Rundling" changeset="785099" lat="52.9733684" lon="10.5581476"/>
  <node id="313928894" version="2" timestamp="2009-03-15T18:10:37Z" uid="43863" user="Rundling" changeset="813013" lat="52.9733684" lon="10.5581476"/>
  <node id="313928895" version="1" timestamp="2008-11-23T14:52:28Z" uid="43863" user="Rundling" changeset="785099" lat="52.97363" lon="10.5586384"/>
  <node id="313928895" version="2" timestamp="2008-11-23T15:34:49Z" uid="43863" user="Rundling" changeset="785099" lat="52.97363" lon="10.5586384"/>
  <node id="313928895" version="3" timestamp="2009-03-15T18:10:50Z" uid="43863" user="Rundling" changeset="813013" lat="52.9736197" lon="10.5586384"/>
  <node id="313928896" version="1" timestamp="2008-11-23T14:52:28Z" uid="43863" user="Rundling" changeset="785099" lat="52.9719888" lon="10.5577912"/>
  <node id="313928896" version="2" timestamp="2008-12-18T19:24:59Z" uid="43863" user="Rundling" changeset="458488" lat="52.9719888" lon="10.5577912"/>
  <node id="313928897" version="1" timestamp="2008-11-23T14:52:28Z" uid="43863" user="Rundling" changeset="785099" lat="52.974062" lon="10.557055"/>
  <node id="313928897" version="2" timestamp="2008-11-23T14:56:17Z" uid="43863" user="Rundling" changeset="785099" lat="52.974062" lon="10.557055"/>
  <node id="313928898" version="1" timestamp="2008-11-23T14:52:28Z" uid="43863" user="Rundling" changeset="785099" lat="52.975044" lon="10.5571221"/>
  <node id="313928898" version="2" timestamp="2008-11-23T14:56:16Z" uid="43863" user="Rundling" changeset="785099" lat="52.975044" lon="10.5571221"/>
  <node id="313928899" version="1" timestamp="2008-11-23T14:52:28Z" uid="43863" user="Rundling" changeset="785099" lat="52.9719415" lon="10.5577301"/>
  <node id="313928899" version="2" timestamp="2008-12-25T13:52:42Z" uid="4473" user="EtricCeline" changeset="598562" lat="52.9719415" lon="10.5577301"/>
  <node id="313928900" version="1" timestamp="2008-11-23T14:52:28Z" uid="43863" user="Rundling" changeset="785099" lat="52.9731272" lon="10.55918"/>
  <node id="313928959" version="1" timestamp="2008-11-23T14:53:28Z" uid="43863" user="Rundling" changeset="785099" lat="52.9729403" lon="10.5578542"/>
  <node id="313928959" version="2" timestamp="2009-05-17T12:31:07Z" uid="43863" user="Rundling" changeset="1221585" lat="52.9729816" lon="10.5578088"/>
  <node id="313928959" version="3" timestamp="2009-07-02T11:53:43Z" uid="43863" user="Rundling" changeset="1709546" lat="52.9729928" lon="10.5580009"/>
  <node id="313928960" version="1" timestamp="2008-11-23T14:53:29Z" uid="43863" user="Rundling" changeset="785099" lat="52.9724987" lon="10.5583281"/>
  <node id="313928960" version="2" timestamp="2009-05-17T12:31:07Z" uid="43863" user="Rundling" changeset="1221585" lat="52.9724675" lon="10.5583729"/>
  <node id="313928960" version="3" timestamp="2009-07-02T11:53:43Z" uid="43863" user="Rundling" changeset="1709546" lat="52.9726436" lon="10.558362"/>
  <node id="313928962" version="1" timestamp="2008-11-23T14:53:29Z" uid="43863" user="Rundling" changeset="785099" lat="52.9730694" lon="10.5589994"/>
  <node id="313928962" version="2" timestamp="2009-05-17T12:31:07Z" uid="43863" user="Rundling" changeset="1221585" lat="52.9731275" lon="10.5591716"/>
  <node id="313928964" version="1" timestamp="2008-11-23T14:53:29Z" uid="43863" user="Rundling" changeset="785099" lat="52.9734975" lon="10.558644"/>
  <node id="313928964" version="2" timestamp="2009-05-17T12:31:07Z" uid="43863" user="Rundling" changeset="1221585" lat="52.9735288" lon="10.5587982"/>
  <node id="313929478" version="1" timestamp="2008-11-23T14:56:15Z" uid="43863" user="Rundling" changeset="785099" lat="52.9734792" lon="10.5584627">
    <tag k="amenity" v="telephone"/>
  </node>
  <node id="313929478" version="2" timestamp="2009-07-17T14:59:30Z" uid="43863" user="Rundling" changeset="1855210" lat="52.9735446" lon="10.5586745">
    <tag k="amenity" v="telephone"/>
  </node>
  <node id="313929776" version="2" timestamp="2009-10-07T16:16:44Z" uid="86259" user="hasse_osm_korinthenkacker" changeset="2773292" lat="48.0888226" lon="11.4758606">
    <tag k="amenity" v="recycling"/>
    <tag k="recycling:glass" v="yes"/>
  </node>
  <node id="313929777" version="5" timestamp="2009-09-01T11:22:36Z" uid="36809" user="pfoten_weg_!_" changeset="2336416" lat="48.0902355" lon="11.4722473">
    <tag k="highway" v="bus_stop"/>
    <tag k="name" v="Starnberg Straße"/>
    <tag k="shelter" v="yes"/>
  </node>
  <node id="313929777" version="6" timestamp="2011-10-25T07:23:55Z" uid="482628" user="gumul" changeset="9649764" lat="48.0902355" lon="11.4722473"/>
  <node id="313929778" version="2" timestamp="2009-10-07T16:16:45Z" uid="86259" user="hasse_osm_korinthenkacker" changeset="2773292" lat="48.0956759" lon="11.4723451">
    <tag k="amenity" v="recycling"/>
    <tag k="recycling:batteries" v="yes"/>
    <tag k="recycling:clothes" v="yes"/>
    <tag k="recycling:glass" v="yes"/>
  </node>
  <node id="313929779" version="2" timestamp="2009-10-07T16:16:45Z" uid="86259" user="hasse_osm_korinthenkacker" changeset="2773292" lat="48.0935224" lon="11.4722286">
    <tag k="amenity" v="recycling"/>
    <tag k="recycling:glass" v="yes"/>
  </node>
  <node id="313929779" version="3" timestamp="2011-11-17T10:47:31Z" uid="554744" user="Catweazle2011" changeset="9852904" lat="48.0935636" lon="11.4722071">
    <tag k="amenity" v="recycling"/>
    <tag k="recycling:glass" v="yes"/>
  </node>
  <node id="313929780" version="2" timestamp="2009-10-07T16:16:45Z" uid="86259" user="hasse_osm_korinthenkacker" changeset="2773292" lat="48.0932536" lon="11.47213">
    <tag k="amenity" v="telephone"/>
    <tag k="operator" v="T-Com"/>
  </node>
  <node id="313929781" version="2" timestamp="2009-10-07T16:16:44Z" uid="86259" user="hasse_osm_korinthenkacker" changeset="2773292" lat="48.0916736" lon="11.4712041">
    <tag k="amenity" v="recycling"/>
    <tag k="recycling:glass" v="yes"/>
  </node>
</osm>
