<?xml version='1.0' encoding='UTF-8'?>
<osm version="0.6" generator="libosmium/2.20.0">
  <node id="314210054" version="1" timestamp="2008-11-24T11:24:22Z" uid="43863" user="Rundling" changeset="786918" lat="52.9755698" lon="10.5636343"/>
  <node id="314210054" version="2" timestamp="2009-06-15T18:24:12Z" uid="43863" user="Rundling" changeset="1527761" lat="52.9756035" lon="10.5635828"/>
  <node id="314210054" version="3" timestamp="2009-06-16T11:39:56Z" uid="43863" user="Rundling" changeset="1534282" lat="52.975566" lon="10.5637956"/>
  <node id="314210054" version="4" timestamp="2009-06-16T14:59:20Z" uid="43863" user="Rundling" changeset="1535880" lat="52.9755059" lon="10.5637595"/>
  <node id="314210054" version="5" timestamp="2009-06-17T08:05:10Z" uid="43863" user="Rundling" changeset="1542736" lat="52.9753264" lon="10.563864"/>
  <node id="314210054" version="6" timestamp="2009-06-25T06:25:56Z" uid="43863" user="Rundling" changeset="1618657" lat="52.9752258" lon="10.5637425"/>
  <node id="314210055" version="1" timestamp="2008-11-24T11:24:23Z" uid="43863" user="Rundling" changeset="786918" lat="52.9772938" lon="10.5647314"/>
  <node id="314210055" version="2" timestamp="2009-03-14T14:50:18Z" uid="43863" user="Rundling" changeset="805878" lat="52.9773148" lon="10.5646704"/>
  <node id="314210055" version="3" timestamp="2009-06-15T18:24:12Z" uid="43863" user="Rundling" changeset="1527761" lat="52.9773182" lon="10.5645248"/>
  <node id="314210055" version="4" timestamp="2009-06-16T14:59:20Z" uid="43863" user="Rundling" changeset="1535880" lat="52.9773247" lon="10.5645564"/>
  <node id="314210055" version="5" timestamp="2009-06-17T08:05:10Z" uid="43863" user="Rundling" changeset="1542736" lat="52.9773247" lon="10.5646726"/>
  <node id="314210056" version="1" timestamp="2008-11-24T11:24:23Z" uid="43863" user="Rundling" changeset="786918" lat="52.9810854" lon="10.5641784"/>
  <node id="314210056" version="2" timestamp="2009-03-14T14:50:29Z" uid="43863" user="Rundling" changeset="805878" lat="52.9810854" lon="10.5641784"/>
  <node id="314210057" version="1" timestamp="2008-11-24T11:24:23Z" uid="43863" user="Rundling" changeset="786918" lat="52.9819177" lon="10.563893"/>
  <node id="314210057" version="2" timestamp="2009-03-14T14:50:29Z" uid="43863" user="Rundling" changeset="805878" lat="52.9819177" lon="10.563893"/>
  <node id="314210059" version="1" timestamp="2008-11-24T11:24:23Z" uid="43863" user="Rundling" changeset="786918" lat="52.9822131" lon="10.5637949"/>
  <node id="314210059" version="2" timestamp="2009-03-14T14:50:29Z" uid="43863" user="Rundling" changeset="805878" lat="52.9822131" lon="10.5637949"/>
  <node id="314210060" version="1" timestamp="2008-11-24T11:24:23Z" uid="43863" user="Rundling" changeset="786918" lat="52.9826481" lon="10.5637503"/>
  <node id="314210060" version="2" timestamp="2011-02-06T16:44:06Z" uid="43863" user="Rundling" changeset="7205990" lat="52.9826394" lon="10.5636873"/>
  <node id="314210061" version="1" timestamp="2008-11-24T11:24:23Z" uid="43863" user="Rundling" changeset="786918" lat="52.982734" lon="10.5637771"/>
  <node id="314210061" version="2" timestamp="2009-03-14T14:50:30Z" uid="43863" user="Rundling" changeset="805878" lat="52.982734" lon="10.5637771"/>
  <node id="314210062" version="1" timestamp="2008-11-24T11:24:23Z" uid="43863" user="Rundling" changeset="786918" lat="52.9828253" lon="10.5638484"/>
  <node id="314210062" version="2" timestamp="2009-03-14T14:50:30Z" uid="43863" user="Rundling" changeset="805878" lat="52.9828253" lon="10.5638484"/>
  <node id="314210063" version="1" timestamp="2008-11-24T11:24:24Z" uid="43863" user="Rundling" changeset="786918" lat="52.9829327" lon="10.5639554"/>
  <node id="314210063" version="2" timestamp="2009-03-14T14:50:30Z" uid="43863" user="Rundling" changeset="805878" lat="52.9829327" lon="10.5639554"/>
  <node id="314210064" version="1" timestamp="2008-11-24T11:24:24Z" uid="43863" user="Rundling" changeset="786918" lat="52.9830616" lon="10.5641071"/>
  <node id="314210064" version="2" timestamp="2009-02-16T17:25:11Z" uid="43863" user="Rundling" changeset="490934" lat="52.9830877" lon="10.5641119"/>
  <node id="314210064" version="3" timestamp="2011-02-06T16:44:14Z" uid="43863" user="Rundling" changeset="7205990" lat="52.9831091" lon="10.5640636"/>
  <node id="314210065" version="1" timestamp="2008-11-24T11:24:24Z" uid="43863" user="Rundling" changeset="786918" lat="52.9846618" lon="10.5672913"/>
  <node id="314210065" version="2" timestamp="2009-02-16T17:25:11Z" uid="43863" user="Rundling" changeset="490934" lat="52.9846994" lon="10.5673009"/>
  <node id="314210065" version="3" timestamp="2011-02-06T16:44:40Z" uid="43863" user="Rundling" changeset="7205990" lat="52.9846793" lon="10.5673464"/>
  <node id="314210066" version="1" timestamp="2008-11-24T11:24:24Z" uid="43863" user="Rundling" changeset="786918" lat="52.9856659" lon="10.5684866"/>
  <node id="314210066" version="2" timestamp="2009-02-16T15:48:55Z" uid="43863" user="Rundling" changeset="490934" lat="52.9856696" lon="10.5684764"/>
  <node id="314210066" version="3" timestamp="2009-02-16T17:25:12Z" uid="43863" user="Rundling" changeset="490934" lat="52.9856696" lon="10.5684764"/>
  <node id="314211011" version="4" timestamp="2010-07-12T12:27:18Z" uid="115477" user="wowik" changeset="5198326" lat="57.3356999" lon="38.2411999">
    <tag k="addr:city" v="Семендяевское сельское поселение"/>
    <tag k="addr:country" v="RU"/>
    <tag k="addr:district" v="Калязинский район"/>
    <tag k="addr:postcode" v="171580"/>
    <tag k="addr:region" v="Тверская область"/>
    <tag k="cladr:code" v="6901100302400"/>
    <tag k="cladr:name" v="Сосенки"/>
    <tag k="cladr:suffix" v="Деревня"/>
    <tag k="name" v="Сосенки"/>
    <tag k="place" v="hamlet"/>
  </node>
  <node id="314211011" version="5" timestamp="2010-07-12T12:44:09Z" uid="115477" user="wowik" changeset="5198326" lat="57.3357545" lon="38.2408232">
    <tag k="addr:city" v="Семендяевское сельское поселение"/>
    <tag k="addr:country" v="RU"/>
    <tag k="addr:district" v="Калязинский район"/>
    <tag k="addr:postcode" v="171580"/>
    <tag k="addr:region" v="Тверская область"/>
    <tag k="cladr:code" v="6901100302400"/>
    <tag k="cladr:name" v="Сосенки"/>
    <tag k="cladr:suffix" v="Деревня"/>
    <tag k="name" v="Сосенки"/>
    <tag k="old_name" v="Собакино"/>
    <tag k="place" v="hamlet"/>
  </node>
  <node id="314211011" version="6" timestamp="2011-08-09T04:44:57Z" uid="297358" user="patashnik" changeset="8963432" lat="57.3357545" lon="38.2408232">
    <tag k="addr:city" v="Семендяевское сельское поселение"/>
    <tag k="addr:country" v="RU"/>
    <tag k="addr:district" v="Калязинский район"/>
    <tag k="addr:region" v="Тверская область"/>
    <tag k="cladr:code" v="6901100302400"/>
    <tag k="name" v="Сосенки"/>
    <tag k="old_name" v="Собакино"/>
    <tag k="place" v="hamlet"/>
  </node>
  <node id="314211013" version="5" timestamp="2010-07-12T12:11:32Z" uid="115477" user="wowik" changeset="5198326" lat="57.3154126" lon="38.2290644">
    <tag k="addr:city" v="Семендяевское сельское поселение"/>
    <tag k="addr:country" v="RU"/>
    <tag k="addr:district" v="Калязинский район"/>
    <tag k="addr:postcode" v="171580"/>
    <tag k="addr:region" v="Тверская область"/>
    <tag k="cladr:code" v="6901100300800"/>
    <tag k="cladr:name" v="Запрудье"/>
    <tag k="cladr:suffix" v="Деревня"/>
    <tag k="name" v="Запрудье"/>
    <tag k="place" v="hamlet"/>
  </node>
  <node id="314211013" version="6" timestamp="2011-08-09T04:44:57Z" uid="297358" user="patashnik" changeset="8963432" lat="57.3154126" lon="38.2290644">
    <tag k="addr:city" v="Семендяевское сельское поселение"/>
    <tag k="addr:country" v="RU"/>
    <tag k="addr:district" v="Калязинский район"/>
    <tag k="addr:region" v="Тверская область"/>
    <tag k="cladr:code" v="6901100300800"/>
    <tag k="name" v="Запрудье"/>
    <tag k="place" v="hamlet"/>
  </node>
  <node id="314211016" version="4" timestamp="2010-07-12T17:56:39Z" uid="115477" user="wowik" changeset="5201169" lat="57.3047471" lon="38.2250331">
    <tag k="addr:city" v="Семендяевское сельское поселение"/>
    <tag k="addr:country" v="RU"/>
    <tag k="addr:district" v="Калязинский район"/>
    <tag k="addr:postcode" v="171580"/>
    <tag k="addr:region" v="Тверская область"/>
    <tag k="cladr:code" v="6901100300100"/>
    <tag k="cladr:name" v="Семендяево"/>
    <tag k="cladr:suffix" v="Село"/>
    <tag k="name" v="Семендяево"/>
    <tag k="place" v="village"/>
  </node>
  <node id="314211016" version="5" timestamp="2010-11-30T15:37:32Z" uid="115477" user="wowik" changeset="6495348" lat="57.3047472" lon="38.225033">
    <tag k="addr:city" v="Семендяевское сельское поселение"/>
    <tag k="addr:country" v="RU"/>
    <tag k="addr:district" v="Калязинский район"/>
    <tag k="addr:postcode" v="171580"/>
    <tag k="addr:region" v="Тверская область"/>
    <tag k="cladr:code" v="6901100300100"/>
    <tag k="cladr:name" v="Семендяево"/>
    <tag k="cladr:suffix" v="Село"/>
    <tag k="name" v="Семендяево"/>
    <tag k="place" v="hamlet"/>
  </node>
  <node id="314211016" version="6" timestamp="2011-08-09T04:44:57Z" uid="297358" user="patashnik" changeset="8963432" lat="57.3047472" lon="38.225033">
    <tag k="addr:city" v="Семендяевское сельское поселение"/>
    <tag k="addr:country" v="RU"/>
    <tag k="addr:district" v="Калязинский район"/>
    <tag k="addr:region" v="Тверская область"/>
    <tag k="cladr:code" v="6901100300100"/>
    <tag k="name" v="Семендяево"/>
    <tag k="place" v="hamlet"/>
  </node>
  <node id="314211020" version="4" timestamp="2010-07-12T14:18:45Z" uid="115477" user="wowik" changeset="5199477" lat="57.261063" lon="38.0547038">
    <tag k="addr:country" v="RU"/>
    <tag k="addr:district" v="Андреапольский район"/>
    <tag k="addr:postcode" v="172816"/>
    <tag k="addr:region" v="Тверская область"/>
    <tag k="cladr:code" v="6900200012100"/>
    <tag k="cladr:name" v="Малахово"/>
    <tag k="cladr:suffix" v="Деревня"/>
    <tag k="name" v="Малахово"/>
    <tag k="place" v="village"/>
  </node>
  <node id="314211020" version="5" timestamp="2010-11-30T15:37:55Z" uid="115477" user="wowik" changeset="6495353" lat="57.2610631" lon="38.0547037">
    <tag k="addr:country" v="RU"/>
    <tag k="addr:district" v="Андреапольский район"/>
    <tag k="addr:postcode" v="172816"/>
    <tag k="addr:region" v="Тверская область"/>
    <tag k="cladr:code" v="6900200012100"/>
    <tag k="cladr:name" v="Малахово"/>
    <tag k="cladr:suffix" v="Деревня"/>
    <tag k="name" v="Малахово"/>
    <tag k="place" v="hamlet"/>
  </node>
  <node id="314211020" version="6" timestamp="2011-08-09T04:44:57Z" uid="297358" user="patashnik" changeset="8963432" lat="57.2610631" lon="38.0547037">
    <tag k="addr:country" v="RU"/>
    <tag k="addr:district" v="Андреапольский район"/>
    <tag k="addr:region" v="Тверская область"/>
    <tag k="cladr:code" v="6900200012100"/>
    <tag k="name" v="Малахово"/>
    <tag k="place" v="hamlet"/>
  </node>
  <node id="314211022" version="4" timestamp="2010-11-30T15:37:39Z" uid="115477" user="wowik" changeset="6495349" lat="57.2503001" lon="38.0136999">
    <tag k="addr:city" v="Семендяевское сельское поселение"/>
    <tag k="addr:country" v="RU"/>
    <tag k="addr:district" v="Калязинский район"/>
    <tag k="addr:postcode" v="171554"/>
    <tag k="addr:region" v="Тверская область"/>
    <tag k="cladr:code" v="6901100305500"/>
    <tag k="cladr:name" v="Леонтьевское"/>
    <tag k="cladr:suffix" v="Деревня"/>
    <tag k="name" v="Леонтьевское"/>
    <tag k="place" v="hamlet"/>
  </node>
  <node id="314211022" version="5" timestamp="2011-08-09T04:45:00Z" uid="297358" user="patashnik" changeset="8963432" lat="57.2503001" lon="38.0136999">
    <tag k="addr:city" v="Семендяевское сельское поселение"/>
    <tag k="addr:country" v="RU"/>
    <tag k="addr:district" v="Калязинский район"/>
    <tag k="addr:region" v="Тверская область"/>
    <tag k="cladr:code" v="6901100305500"/>
    <tag k="name" v="Леонтьевское"/>
    <tag k="place" v="hamlet"/>
  </node>
  <node id="314211024" version="4" timestamp="2010-06-30T13:39:17Z" uid="115477" user="wowik" changeset="5112785" lat="57.2417406" lon="37.9220306">
    <tag k="addr:city" v="Алферовское сельское поселение"/>
    <tag k="addr:country" v="RU"/>
    <tag k="addr:district" v="Калязинский район"/>
    <tag k="addr:postcode" v="171571"/>
    <tag k="addr:region" v="Тверская область"/>
    <tag k="cladr:code" v="6901100606000"/>
    <tag k="cladr:name" v="Лесная Поляна"/>
    <tag k="cladr:suffix" v="Деревня"/>
    <tag k="name" v="Лесная поляна"/>
    <tag k="place" v="village"/>
  </node>
  <node id="314211024" version="5" timestamp="2010-07-08T12:12:31Z" uid="115477" user="wowik" changeset="5165738" lat="57.2417406" lon="37.9220306">
    <tag k="addr:city" v="Алферовское сельское поселение"/>
    <tag k="addr:country" v="RU"/>
    <tag k="addr:district" v="Калязинский район"/>
    <tag k="addr:postcode" v="171571"/>
    <tag k="addr:region" v="Тверская область"/>
    <tag k="cladr:code" v="6901100606000"/>
    <tag k="cladr:name" v="Лесная Поляна"/>
    <tag k="cladr:suffix" v="Деревня"/>
    <tag k="name" v="Лесная поляна"/>
    <tag k="old_name" v="лесничество Пригородное"/>
    <tag k="place" v="village"/>
  </node>
  <node id="314211024" version="6" timestamp="2010-11-25T18:23:35Z" uid="115477" user="wowik" changeset="6456458" lat="57.2417406" lon="37.9220306">
    <tag k="addr:city" v="Алферовское сельское поселение"/>
    <tag k="addr:country" v="RU"/>
    <tag k="addr:district" v="Калязинский район"/>
    <tag k="addr:postcode" v="171571"/>
    <tag k="addr:region" v="Тверская область"/>
    <tag k="cladr:code" v="6901100606000"/>
    <tag k="cladr:name" v="Лесная Поляна"/>
    <tag k="cladr:suffix" v="Деревня"/>
    <tag k="name" v="Лесная Поляна"/>
    <tag k="old_name" v="лесничество Пригородное"/>
    <tag k="place" v="village"/>
  </node>
  <node id="314211024" version="7" timestamp="2010-11-30T15:32:53Z" uid="115477" user="wowik" changeset="6495323" lat="57.2417407" lon="37.9220305">
    <tag k="addr:city" v="Алферовское сельское поселение"/>
    <tag k="addr:country" v="RU"/>
    <tag k="addr:district" v="Калязинский район"/>
    <tag k="addr:postcode" v="171571"/>
    <tag k="addr:region" v="Тверская область"/>
    <tag k="cladr:code" v="6901100606000"/>
    <tag k="cladr:name" v="Лесная Поляна"/>
    <tag k="cladr:suffix" v="Деревня"/>
    <tag k="name" v="Лесная Поляна"/>
    <tag k="old_name" v="лесничество Пригородное"/>
    <tag k="place" v="hamlet"/>
  </node>
  <node id="314211024" version="8" timestamp="2011-08-09T04:45:00Z" uid="297358" user="patashnik" changeset="8963432" lat="57.2417407" lon="37.9220305">
    <tag k="addr:city" v="Алферовское сельское поселение"/>
    <tag k="addr:country" v="RU"/>
    <tag k="addr:district" v="Калязинский район"/>
    <tag k="addr:region" v="Тверская область"/>
    <tag k="cladr:code" v="6901100606000"/>
    <tag k="name" v="Лесная Поляна"/>
    <tag k="old_name" v="лесничество Пригородное"/>
    <tag k="place" v="hamlet"/>
  </node>
  <node id="314211075" version="2" timestamp="2011-02-04T17:14:37Z" uid="115477" user="wowik" changeset="7185118" lat="57.2504585" lon="38.0090833"/>
  <node id="314211076" version="2" timestamp="2011-02-04T17:14:08Z" uid="115477" user="wowik" changeset="7185118" lat="57.2506219" lon="38.011283"/>
  <node id="314211079" version="2" timestamp="2011-02-04T17:14:03Z" uid="115477" user="wowik" changeset="7185118" lat="57.2506769" lon="38.0165816"/>
  <node id="314211080" version="2" timestamp="2011-02-04T17:14:02Z" uid="115477" user="wowik" changeset="7185118" lat="57.2504288" lon="38.0166543"/>
  <node id="314211082" version="2" timestamp="2011-02-04T17:14:06Z" uid="115477" user="wowik" changeset="7185118" lat="57.2497178" lon="38.0152305"/>
  <node id="314211084" version="2" timestamp="2011-02-04T17:14:23Z" uid="115477" user="wowik" changeset="7185118" lat="57.2480462" lon="38.0152398"/>
  <node id="314211086" version="2" timestamp="2011-02-04T17:14:31Z" uid="115477" user="wowik" changeset="7185118" lat="57.2479722" lon="38.0117832"/>
  <node id="314211088" version="2" timestamp="2011-02-04T17:14:29Z" uid="115477" user="wowik" changeset="7185118" lat="57.2469752" lon="38.0100275"/>
  <node id="314211090" version="2" timestamp="2011-02-04T17:13:58Z" uid="115477" user="wowik" changeset="7185118" lat="57.2480878" lon="38.007439"/>
  <node id="314211092" version="2" timestamp="2011-02-04T17:14:02Z" uid="115477" user="wowik" changeset="7185118" lat="57.2485621" lon="38.0069771"/>
  <node id="314211094" version="2" timestamp="2011-02-04T17:14:05Z" uid="115477" user="wowik" changeset="7185118" lat="57.2501565" lon="38.0066436"/>
  <node id="314213830" version="6" timestamp="2011-04-11T16:13:46Z" uid="4467" user="Rosscoe" changeset="7834558" lat="-41.5431487" lon="147.2031938"/>
  <node id="314213839" version="5" timestamp="2011-04-11T16:13:37Z" uid="4467" user="Rosscoe" changeset="7834558" lat="-41.5503305" lon="147.2108256"/>
  <node id="314213844" version="5" timestamp="2011-04-11T16:13:47Z" uid="4467" user="Rosscoe" changeset="7834558" lat="-41.5539831" lon="147.214724"/>
  <node id="314213861" version="3" timestamp="2011-04-11T16:14:06Z" uid="4467" user="Rosscoe" changeset="7834558" lat="-41.53711" lon="147.2041603"/>
  <node id="314213873" version="3" timestamp="2011-04-11T16:13:39Z" uid="4467" user="Rosscoe" changeset="7834558" lat="-41.5519653" lon="147.2168625"/>
  <node id="314213891" version="3" timestamp="2011-04-11T16:13:41Z" uid="4467" user="Rosscoe" changeset="7834558" lat="-41.5520293" lon="147.2150512"/>
  <node id="314213904" version="2" timestamp="2009-11-09T13:56:15Z" uid="4467" user="Rosscoe" changeset="3073572" lat="-41.5443152" lon="147.2085004"/>
  <node id="314213904" version="3" timestamp="2011-04-11T16:13:58Z" uid="4467" user="Rosscoe" changeset="7834558" lat="-41.544438" lon="147.2083881"/>
  <node id="314213911" version="2" timestamp="2009-11-09T13:56:15Z" uid="4467" user="Rosscoe" changeset="3073572" lat="-41.5416832" lon="147.206156"/>
  <node id="314213911" version="3" timestamp="2010-12-06T05:56:36Z" uid="46482" user="Leon K" changeset="6559563" lat="-41.5416133" lon="147.2061277"/>
  <node id="314213911" version="4" timestamp="2011-04-11T16:13:49Z" uid="4467" user="Rosscoe" changeset="7834558" lat="-41.5416844" lon="147.2059722"/>
  <node id="314213915" version="2" timestamp="2011-04-11T16:13:37Z" uid="4467" user="Rosscoe" changeset="7834558" lat="-41.5381578" lon="147.2031598"/>
  <node id="314213923" version="2" timestamp="2011-04-11T16:14:05Z" uid="4467" user="Rosscoe" changeset="7834558" lat="-41.5378272" lon="147.2031411"/>
  <node id="314213930" version="3" timestamp="2011-04-11T16:13:43Z" uid="4467" user="Rosscoe" changeset="7834558" lat="-41.5373764" lon="147.2035781"/>
  <node id="314213944" version="3" timestamp="2011-04-11T16:13:44Z" uid="4467" user="Rosscoe" changeset="7834558" lat="-41.5447405" lon="147.2077354"/>
  <node id="314213951" version="3" timestamp="2011-04-11T16:13:38Z" uid="4467" user="Rosscoe" changeset="7834558" lat="-41.5429917" lon="147.2051995"/>
  <node id="314213971" version="3" timestamp="2011-04-11T16:13:41Z" uid="4467" user="Rosscoe" changeset="7834558" lat="-41.5440248" lon="147.2060315"/>
  <node id="314213980" version="3" timestamp="2011-04-11T16:13:46Z" uid="4467" user="Rosscoe" changeset="7834558" lat="-41.5438581" lon="147.2062039">
    <tag k="aeroway" v="aerodrome"/>
    <tag k="closest_town" v="Launceston, Tasmania"/>
    <tag k="ele" v="171"/>
    <tag k="iata" v="LST"/>
    <tag k="icao" v="YMLT"/>
    <tag k="name" v="Launceston Airport"/>
    <tag k="name:en" v="Launceston Airport"/>
    <tag k="name_1" v="Launceston"/>
    <tag k="operator" v="Australia Pacific Airports"/>
    <tag k="source" v="wikipedia"/>
    <tag k="type" v="Public"/>
    <tag k="wikipedia:en" v="Launceston_Airport"/>
  </node>
  <node id="314214327" version="1" timestamp="2008-11-24T11:33:24Z" uid="52053" user="JimBanne" changeset="789619" lat="51.520093" lon="6.3442004">
    <tag k="created_by" v="Potlatch 0.10f"/>
    <tag k="highway" v="bus stop"/>
    <tag k="line" v="SL5;SB30;31"/>
    <tag k="name" v="Stettiner Straße"/>
    <tag k="shelter" v="yes"/>
  </node>
  <node id="314214327" version="2" timestamp="2008-11-26T16:06:56Z" uid="6975" user="ulfl" changeset="797054" lat="51.520093" lon="6.3442004">
    <tag k="highway" v="bus_stop"/>
    <tag k="line" v="SL5\sSB30\s31"/>
    <tag k="name" v="Stettiner Straße"/>
    <tag k="shelter" v="yes"/>
  </node>
  <node id="314214327" version="3" timestamp="2008-12-30T14:58:34Z" uid="52053" user="JimBanne" changeset="676236" lat="51.5200932" lon="6.344194">
    <tag k="created_by" v="Potlatch 0.10f"/>
    <tag k="highway" v="bus_stop"/>
    <tag k="line" v="SL5;SB30"/>
    <tag k="name" v="Stettiner Straße"/>
    <tag k="shelter" v="yes"/>
  </node>
  <node id="314214327" version="4" timestamp="2010-04-10T17:49:53Z" uid="52053" user="JimBanne" changeset="4385123" lat="51.5200932" lon="6.344194">
    <tag k="highway" v="bus_stop"/>
    <tag k="line" v="SL5;SB30;31"/>
    <tag k="name" v="Stettiner Straße"/>
    <tag k="shelter" v="yes"/>
  </node>
  <node id="314214327" version="5" timestamp="2010-09-29T15:06:46Z" uid="100952" user="elmarburke" changeset="5912491" lat="51.5200895" lon="6.34404">
    <tag k="highway" v="bus_stop"/>
    <tag k="line" v="SL5;SB30;31"/>
    <tag k="name" v="Stettiner Straße"/>
    <tag k="shelter" v="yes"/>
  </node>
  <node id="314214327" version="6" timestamp="2010-12-01T09:13:06Z" uid="52053" user="JimBanne" changeset="6501472" lat="51.5200708" lon="6.3440838">
    <tag k="highway" v="bus_stop"/>
    <tag k="line" v="SL5;SB30;31"/>
    <tag k="name" v="Stettiner Straße"/>
    <tag k="shelter" v="yes"/>
  </node>
  <node id="314214327" version="7" timestamp="2011-09-21T20:05:42Z" uid="80537" user="Dr S Görg" changeset="9363491" lat="51.5201864" lon="6.3438771">
    <tag k="highway" v="bus_stop"/>
    <tag k="line" v="SL5;SB30;31"/>
    <tag k="name" v="Stettiner Straße"/>
    <tag k="shelter" v="yes"/>
  </node>
  <node id="314214535" version="4" timestamp="2011-01-11T14:08:54Z" uid="115477" user="wowik" changeset="6937090" lat="57.2421008" lon="37.8245853"/>
  <node id="314214535" version="5" timestamp="2011-04-03T21:53:47Z" uid="314211" user="OldIvantey" changeset="7759606" lat="57.2421446" lon="37.8246837"/>
  <node id="314214536" version="4" timestamp="2011-01-11T14:08:55Z" uid="115477" user="wowik" changeset="6937090" lat="57.242364" lon="37.8242663"/>
  <node id="314214536" version="5" timestamp="2011-04-03T21:53:43Z" uid="314211" user="OldIvantey" changeset="7759606" lat="57.2423671" lon="37.824382"/>
  <node id="314214537" version="2" timestamp="2011-01-11T14:08:54Z" uid="115477" user="wowik" changeset="6937090" lat="57.2424092" lon="37.8165241"/>
  <node id="314214554" version="2" timestamp="2010-07-01T09:35:40Z" uid="115477" user="wowik" changeset="5118987" lat="57.2351629" lon="37.7786666"/>
  <node id="314214555" version="2" timestamp="2010-07-01T09:35:43Z" uid="115477" user="wowik" changeset="5118987" lat="57.2329332" lon="37.7905113"/>
  <node id="314214603" version="2" timestamp="2010-03-14T20:27:55Z" uid="163746" user="anti_bot-nonsense" changeset="4128666" lat="52.3993172" lon="16.9177245"/>
  <node id="314214604" version="2" timestamp="2010-03-14T20:27:53Z" uid="163746" user="anti_bot-nonsense" changeset="4128666" lat="52.3984719" lon="16.9159237"/>
  <node id="314214605" version="2" timestamp="2010-03-14T20:27:54Z" uid="163746" user="anti_bot-nonsense" changeset="4128666" lat="52.3974333" lon="16.913747"/>
  <node id="314214607" version="2" timestamp="2010-03-14T20:27:52Z" uid="163746" user="anti_bot-nonsense" changeset="4128666" lat="52.3966966" lon="16.9122232"/>
  <node id="314214607" version="3" timestamp="2011-04-10T02:11:55Z" uid="338611" user="marek kleciak" changeset="7818880" lat="52.3966905" lon="16.9122591"/>
  <node id="314214608" version="2" timestamp="2010-03-14T20:27:52Z" uid="163746" user="anti_bot-nonsense" changeset="4128666" lat="52.3966966" lon="16.9120649"/>
  <node id="314214608" version="3" timestamp="2011-04-10T02:11:55Z" uid="338611" user="marek kleciak" changeset="7818880" lat="52.3966843" lon="16.9121411"/>
  <node id="314214612" version="2" timestamp="2010-03-14T20:27:53Z" uid="163746" user="anti_bot-nonsense" changeset="4128666" lat="52.3969624" lon="16.9118274"/>
  <node id="314214614" version="2" timestamp="2010-03-14T20:27:53Z" uid="163746" user="anti_bot-nonsense" changeset="4128666" lat="52.3975178" lon="16.9119857"/>
  <node id="314214615" version="2" timestamp="2010-03-14T20:27:54Z" uid="163746" user="anti_bot-nonsense" changeset="4128666" lat="52.398339" lon="16.9137667"/>
  <node id="314214615" version="3" timestamp="2012-03-15T12:23:12Z" uid="19417" user="xjr" changeset="10987802" lat="52.3983206" lon="16.9136764"/>
  <node id="314214617" version="2" timestamp="2010-03-14T20:27:54Z" uid="163746" user="anti_bot-nonsense" changeset="4128666" lat="52.3990997" lon="16.915429"/>
  <node id="314214617" version="3" timestamp="2012-03-15T12:23:13Z" uid="19417" user="xjr" changeset="10987802" lat="52.3991487" lon="16.915419"/>
  <node id="314214618" version="2" timestamp="2010-03-14T20:27:55Z" uid="163746" user="anti_bot-nonsense" changeset="4128666" lat="52.4008991" lon="16.9176058"/>
  <node id="314214634" version="2" timestamp="2010-03-15T23:38:00Z" uid="163746" user="anti_bot-nonsense" changeset="4139871" lat="52.3935396" lon="16.9204285"/>
  <node id="314214638" version="2" timestamp="2010-03-15T23:37:52Z" uid="163746" user="anti_bot-nonsense" changeset="4139871" lat="52.3938466" lon="16.918164"/>
  <node id="314218347" version="5" timestamp="2011-01-27T09:36:26Z" uid="4467" user="Rosscoe" changeset="7101587" lat="-41.4836174" lon="147.1517834"/>
  <node id="314218505" version="2" timestamp="2011-01-27T09:36:24Z" uid="4467" user="Rosscoe" changeset="7101587" lat="-41.4843326" lon="147.1519128"/>
  <node id="314218516" version="2" timestamp="2011-01-27T09:36:26Z" uid="4467" user="Rosscoe" changeset="7101587" lat="-41.4846369" lon="147.1517222"/>
  <node id="314218520" version="2" timestamp="2011-01-27T09:36:25Z" uid="4467" user="Rosscoe" changeset="7101587" lat="-41.4850981" lon="147.1516989"/>
  <node id="314218692" version="2" timestamp="2010-03-14T20:27:50Z" uid="163746" user="anti_bot-nonsense" changeset="4128666" lat="52.3919926" lon="16.9178488"/>
  <node id="314218694" version="2" timestamp="2010-03-14T20:27:50Z" uid="163746" user="anti_bot-nonsense" changeset="4128666" lat="52.3919365" lon="16.9174878"/>
  <node id="314218696" version="2" timestamp="2010-03-14T20:27:50Z" uid="163746" user="anti_bot-nonsense" changeset="4128666" lat="52.3911118" lon="16.9143194"/>
  <node id="314218705" version="2" timestamp="2010-03-15T23:37:51Z" uid="163746" user="anti_bot-nonsense" changeset="4139871" lat="52.3895248" lon="16.9158638"/>
  <node id="314218710" version="2" timestamp="2010-03-15T23:37:52Z" uid="163746" user="anti_bot-nonsense" changeset="4139871" lat="52.3908182" lon="16.9169041"/>
  <node id="314218712" version="2" timestamp="2010-03-15T23:37:52Z" uid="163746" user="anti_bot-nonsense" changeset="4139871" lat="52.390579" lon="16.9186942"/>
  <node id="314218714" version="2" timestamp="2010-03-15T23:37:59Z" uid="163746" user="anti_bot-nonsense" changeset="4139871" lat="52.3904957" lon="16.9192407"/>
  <node id="314218721" version="2" timestamp="2010-03-15T23:37:52Z" uid="163746" user="anti_bot-nonsense" changeset="4139871" lat="52.3913965" lon="16.9173693"/>
  <node id="314218722" version="2" timestamp="2010-03-15T23:38:00Z" uid="163746" user="anti_bot-nonsense" changeset="4139871" lat="52.3911418" lon="16.9195652"/>
  <node id="314218727" version="2" timestamp="2010-03-15T23:37:59Z" uid="163746" user="anti_bot-nonsense" changeset="4139871" lat="52.3910949" lon="16.9197871"/>
  <node id="314218735" version="2" timestamp="2010-03-14T20:27:49Z" uid="163746" user="anti_bot-nonsense" changeset="4128666" lat="52.3891404" lon="16.9155592"/>
  <node id="314218736" version="2" timestamp="2010-03-14T20:27:49Z" uid="163746" user="anti_bot-nonsense" changeset="4128666" lat="52.3894023" lon="16.9127535"/>
  <node id="314218824" version="2" timestamp="2010-03-14T20:27:49Z" uid="163746" user="anti_bot-nonsense" changeset="4128666" lat="52.3903559" lon="16.913627"/>
  <node id="314218831" version="2" timestamp="2010-03-15T23:37:51Z" uid="163746" user="anti_bot-nonsense" changeset="4139871" lat="52.3900593" lon="16.9162936"/>
</osm>
