<?xml version='1.0' encoding='UTF-8'?>
<osm version="0.6" generator="libosmium/2.20.0">
  <node id="314901126" version="6" timestamp="2009-10-23T11:52:35Z" uid="36809" user="pfoten_weg_!_" changeset="2929138" lat="47.9501562" lon="11.6663904">
    <tag k="addr:city" v="Sauerlach"/>
    <tag k="addr:country" v="DE"/>
    <tag k="addr:housenumber" v="12"/>
    <tag k="addr:postcode" v="82054"/>
    <tag k="addr:street" v="Kleefeldstraße"/>
  </node>
  <node id="314901126" version="7" timestamp="2009-10-23T12:02:24Z" uid="36809" user="pfoten_weg_!_" changeset="2929214" lat="47.9501562" lon="11.6663904">
    <tag k="addr:city" v="Sauerlach"/>
    <tag k="addr:country" v="DE"/>
    <tag k="addr:housenumber" v="12"/>
    <tag k="addr:postcode" v="82054"/>
    <tag k="addr:street" v="Kleefeldstraße"/>
  </node>
  <node id="314901126" version="8" timestamp="2009-10-23T12:07:57Z" uid="36809" user="pfoten_weg_!_" changeset="2929257" lat="47.9501562" lon="11.6663904">
    <tag k="addr:city" v="Sauerlach"/>
    <tag k="addr:country" v="DE"/>
    <tag k="addr:housenumber" v="12"/>
    <tag k="addr:postcode" v="82054"/>
    <tag k="addr:street" v="Kleefeldstraße"/>
  </node>
  <node id="314903165" version="5" timestamp="2009-10-23T11:52:35Z" uid="36809" user="pfoten_weg_!_" changeset="2929138" lat="47.9485616" lon="11.6484532">
    <tag k="addr:city" v="Lochhofen"/>
    <tag k="addr:country" v="DE"/>
    <tag k="addr:housenumber" v="2"/>
    <tag k="addr:postcode" v="82054"/>
    <tag k="addr:street" v="Mitterfeldstraße"/>
  </node>
  <node id="314903165" version="6" timestamp="2009-10-23T12:02:24Z" uid="36809" user="pfoten_weg_!_" changeset="2929214" lat="47.9485616" lon="11.6484532">
    <tag k="addr:city" v="Lochhofen"/>
    <tag k="addr:country" v="DE"/>
    <tag k="addr:housenumber" v="2"/>
    <tag k="addr:postcode" v="82054"/>
    <tag k="addr:street" v="Mitterfeldstraße"/>
  </node>
  <node id="314903165" version="7" timestamp="2009-10-23T12:07:56Z" uid="36809" user="pfoten_weg_!_" changeset="2929257" lat="47.9485616" lon="11.6484532">
    <tag k="addr:city" v="Lochhofen"/>
    <tag k="addr:country" v="DE"/>
    <tag k="addr:housenumber" v="2"/>
    <tag k="addr:postcode" v="82054"/>
    <tag k="addr:street" v="Mitterfeldstraße"/>
  </node>
  <node id="314903801" version="4" timestamp="2009-10-23T11:52:35Z" uid="36809" user="pfoten_weg_!_" changeset="2929138" lat="47.9479327" lon="11.6500961">
    <tag k="addr:city" v="Sauerlach"/>
    <tag k="addr:country" v="DE"/>
    <tag k="addr:housenumber" v="1"/>
    <tag k="addr:postcode" v="82054"/>
    <tag k="addr:street" v="Bavariastraße"/>
  </node>
  <node id="314903801" version="5" timestamp="2009-10-23T12:02:23Z" uid="36809" user="pfoten_weg_!_" changeset="2929214" lat="47.9479327" lon="11.6500961">
    <tag k="addr:city" v="Sauerlach"/>
    <tag k="addr:country" v="DE"/>
    <tag k="addr:housenumber" v="1"/>
    <tag k="addr:postcode" v="82054"/>
    <tag k="addr:street" v="Bavariastraße"/>
  </node>
  <node id="314903801" version="6" timestamp="2009-10-23T12:07:56Z" uid="36809" user="pfoten_weg_!_" changeset="2929257" lat="47.9479327" lon="11.6500961">
    <tag k="addr:city" v="Sauerlach"/>
    <tag k="addr:country" v="DE"/>
    <tag k="addr:housenumber" v="1"/>
    <tag k="addr:postcode" v="82054"/>
    <tag k="addr:street" v="Bavariastraße"/>
  </node>
  <node id="314903801" version="7" timestamp="2010-01-19T18:06:53Z" uid="42393" user="mawi42" changeset="3660678" lat="47.9476108" lon="11.6499951">
    <tag k="addr:city" v="Sauerlach"/>
    <tag k="addr:country" v="DE"/>
    <tag k="addr:housenumber" v="1"/>
    <tag k="addr:postcode" v="82054"/>
    <tag k="addr:street" v="Bavariastraße"/>
  </node>
  <node id="314906493" version="1" timestamp="2008-11-26T12:48:36Z" uid="43863" user="Rundling" changeset="795746" lat="53.0209039" lon="10.4219354"/>
  <node id="314906493" version="2" timestamp="2010-03-21T16:38:40Z" uid="161619" user="FvGordon" changeset="4193293" lat="53.0208873" lon="10.421921"/>
  <node id="314906493" version="3" timestamp="2012-03-14T10:49:08Z" uid="81732" user="zahilb" changeset="10976452" lat="53.020869" lon="10.4218711"/>
  <node id="314906494" version="1" timestamp="2008-11-26T12:48:36Z" uid="43863" user="Rundling" changeset="795746" lat="53.017793" lon="10.419773">
    <tag k="created_by" v="JOSM"/>
  </node>
  <node id="314906494" version="2" timestamp="2010-05-12T13:43:20Z" uid="38735" user="GPS-Wolf" changeset="4677263" lat="53.0178336" lon="10.4196681"/>
  <node id="314906494" version="3" timestamp="2012-03-24T21:33:58Z" uid="123364" user="Tronikon" changeset="11089302" lat="53.0178387" lon="10.4196119"/>
  <node id="314906495" version="1" timestamp="2008-11-26T12:48:36Z" uid="43863" user="Rundling" changeset="795746" lat="53.0175808" lon="10.419821">
    <tag k="railway" v="level_crossing"/>
  </node>
  <node id="314906495" version="2" timestamp="2008-12-02T20:33:43Z" uid="43863" user="Rundling" changeset="53627" lat="53.0175767" lon="10.4197939">
    <tag k="railway" v="level_crossing"/>
  </node>
  <node id="314906495" version="3" timestamp="2010-01-15T21:26:04Z" uid="211756" user="Menion Leah" changeset="3627572" lat="53.0176496" lon="10.4197986">
    <tag k="railway" v="level_crossing"/>
  </node>
  <node id="314906495" version="4" timestamp="2010-05-12T13:43:24Z" uid="38735" user="GPS-Wolf" changeset="4677263" lat="53.0176383" lon="10.4196899">
    <tag k="railway" v="level_crossing"/>
  </node>
  <node id="314906495" version="5" timestamp="2010-12-28T12:59:14Z" uid="231013" user="Guitarmaen" changeset="6787902" lat="53.0176383" lon="10.4196899">
    <tag k="railway" v="level_crossing"/>
  </node>
  <node id="314906495" version="6" timestamp="2012-03-24T21:33:58Z" uid="123364" user="Tronikon" changeset="11089302" lat="53.0176671" lon="10.4196955">
    <tag k="railway" v="level_crossing"/>
  </node>
  <node id="314906496" version="1" timestamp="2008-11-26T12:48:36Z" uid="43863" user="Rundling" changeset="795746" lat="53.018162" lon="10.4252229">
    <tag k="railway" v="level_crossing"/>
  </node>
  <node id="314906496" version="2" timestamp="2008-12-02T20:33:43Z" uid="43863" user="Rundling" changeset="53627" lat="53.0181719" lon="10.4252394">
    <tag k="railway" v="level_crossing"/>
  </node>
  <node id="314906496" version="3" timestamp="2008-12-30T21:25:16Z" uid="43863" user="Rundling" changeset="675772" lat="53.0181719" lon="10.4252394">
    <tag k="railway" v="level_crossing"/>
  </node>
  <node id="314906496" version="4" timestamp="2010-01-15T21:26:01Z" uid="211756" user="Menion Leah" changeset="3627572" lat="53.0183466" lon="10.4248626">
    <tag k="railway" v="level_crossing"/>
  </node>
  <node id="314906496" version="5" timestamp="2010-12-28T12:59:14Z" uid="231013" user="Guitarmaen" changeset="6787902" lat="53.0183466" lon="10.4248626">
    <tag k="railway" v="level_crossing"/>
  </node>
  <node id="314906496" version="6" timestamp="2011-01-28T11:36:58Z" uid="214512" user="Steve8x8" changeset="7112084" lat="53.0184011" lon="10.4250358">
    <tag k="railway" v="level_crossing"/>
  </node>
  <node id="314906496" version="7" timestamp="2012-03-24T21:34:09Z" uid="123364" user="Tronikon" changeset="11089302" lat="53.0184011" lon="10.4250358"/>
  <node id="314907378" version="1" timestamp="2008-11-26T12:49:51Z" uid="43863" user="Rundling" changeset="795746" lat="52.9674437" lon="10.5610163">
    <tag k="amenity" v="telephone"/>
  </node>
</osm>
