<?xml version='1.0' encoding='UTF-8'?>
<osm version="0.6" generator="libosmium/2.20.0">
  <node id="315290299" version="2" timestamp="2010-07-18T08:52:26Z" uid="4467" user="Rosscoe" changeset="5248902" lat="-34.9239746" lon="138.6132914"/>
  <node id="315290299" version="3" timestamp="2010-10-04T10:03:47Z" uid="354530" user="kingutd" changeset="5951917" lat="-34.9239746" lon="138.6132914"/>
  <node id="315290299" version="4" timestamp="2011-07-10T07:34:53Z" uid="428465" user="markinspace" changeset="8680565" lat="-34.9239746" lon="138.6132914"/>
  <node id="315290301" version="2" timestamp="2010-07-18T08:49:44Z" uid="4467" user="Rosscoe" changeset="5248902" lat="-34.924059" lon="138.6135145"/>
  <node id="315290301" version="3" timestamp="2010-10-04T10:03:47Z" uid="354530" user="kingutd" changeset="5951917" lat="-34.924059" lon="138.6135145"/>
  <node id="315290301" version="4" timestamp="2011-07-10T07:34:54Z" uid="428465" user="markinspace" changeset="8680565" lat="-34.924059" lon="138.6135145"/>
  <node id="315290302" version="3" timestamp="2010-07-18T08:50:02Z" uid="4467" user="Rosscoe" changeset="5248902" lat="-34.9240689" lon="138.6136717"/>
  <node id="315290302" version="4" timestamp="2010-10-04T10:03:47Z" uid="354530" user="kingutd" changeset="5951917" lat="-34.9240689" lon="138.6136717"/>
  <node id="315290302" version="5" timestamp="2011-07-10T07:34:54Z" uid="428465" user="markinspace" changeset="8680565" lat="-34.9240689" lon="138.6136717"/>
  <node id="315290303" version="3" timestamp="2010-07-18T08:51:24Z" uid="4467" user="Rosscoe" changeset="5248902" lat="-34.9240056" lon="138.6137334"/>
  <node id="315290303" version="4" timestamp="2010-10-04T10:03:47Z" uid="354530" user="kingutd" changeset="5951917" lat="-34.9240056" lon="138.6137334"/>
  <node id="315290303" version="5" timestamp="2011-07-10T07:34:53Z" uid="428465" user="markinspace" changeset="8680565" lat="-34.9240056" lon="138.6137334"/>
  <node id="315290305" version="3" timestamp="2010-07-18T08:51:44Z" uid="4467" user="Rosscoe" changeset="5248902" lat="-34.9238726" lon="138.6136864"/>
  <node id="315290305" version="4" timestamp="2010-10-04T10:03:47Z" uid="354530" user="kingutd" changeset="5951917" lat="-34.9238726" lon="138.6136864"/>
  <node id="315290305" version="5" timestamp="2011-07-10T07:34:54Z" uid="428465" user="markinspace" changeset="8680565" lat="-34.9238726" lon="138.6136864"/>
  <node id="315290307" version="2" timestamp="2010-07-18T08:49:02Z" uid="4467" user="Rosscoe" changeset="5248902" lat="-34.9238127" lon="138.6135317"/>
  <node id="315290307" version="3" timestamp="2010-10-04T10:03:48Z" uid="354530" user="kingutd" changeset="5951917" lat="-34.9238127" lon="138.6135317"/>
  <node id="315290307" version="4" timestamp="2011-07-10T07:34:54Z" uid="428465" user="markinspace" changeset="8680565" lat="-34.9238127" lon="138.6135317"/>
  <node id="315290308" version="2" timestamp="2010-07-18T08:49:25Z" uid="4467" user="Rosscoe" changeset="5248902" lat="-34.9238127" lon="138.6133343"/>
  <node id="315290308" version="3" timestamp="2010-10-04T10:03:48Z" uid="354530" user="kingutd" changeset="5951917" lat="-34.9238127" lon="138.6133343"/>
  <node id="315290308" version="4" timestamp="2011-07-10T07:34:54Z" uid="428465" user="markinspace" changeset="8680565" lat="-34.9238127" lon="138.6133343"/>
  <node id="315290309" version="2" timestamp="2010-07-18T08:50:40Z" uid="4467" user="Rosscoe" changeset="5248902" lat="-34.9238901" lon="138.6132485"/>
  <node id="315290309" version="3" timestamp="2010-10-04T10:03:48Z" uid="354530" user="kingutd" changeset="5951917" lat="-34.9238901" lon="138.6132485"/>
  <node id="315290309" version="4" timestamp="2011-07-10T07:34:54Z" uid="428465" user="markinspace" changeset="8680565" lat="-34.9238901" lon="138.6132485"/>
  <node id="315292526" version="2" timestamp="2008-12-04T19:51:50Z" uid="6975" user="ulfl" changeset="107048" lat="48.7121125" lon="9.4448399">
    <tag k="ele" v="338.000000"/>
    <tag k="highway" v="bus_stop"/>
    <tag k="name" v="Neuffenstraße"/>
  </node>
  <node id="315292526" version="3" timestamp="2009-01-08T21:12:15Z" uid="40234" user="Bernd Rosenau" changeset="757972" lat="48.7121149" lon="9.4448321">
    <tag k="created_by" v="Potlatch 0.10f"/>
    <tag k="ele" v="338"/>
    <tag k="highway" v="bus_stop"/>
    <tag k="name" v="Neuffenstraße"/>
  </node>
  <node id="315292526" version="4" timestamp="2009-04-10T07:23:58Z" uid="40234" user="Bernd Rosenau" changeset="377977" lat="48.7122222" lon="9.4449406">
    <tag k="created_by" v="Potlatch 0.10f"/>
    <tag k="ele" v="338"/>
    <tag k="highway" v="bus_stop"/>
    <tag k="name" v="Neuffenstraße"/>
  </node>
  <node id="315292526" version="5" timestamp="2009-06-20T17:40:06Z" uid="85761" user="klausis" changeset="1576823" lat="48.7122222" lon="9.4449406">
    <tag k="ele" v="338"/>
    <tag k="highway" v="bus_stop"/>
    <tag k="name" v="Neuffenstraße"/>
  </node>
  <node id="315292526" version="6" timestamp="2010-12-23T05:52:23Z" uid="40234" user="Bernd Rosenau" changeset="6742334" lat="48.7120746" lon="9.4449309">
    <tag k="ele" v="338"/>
    <tag k="highway" v="bus_stop"/>
    <tag k="name" v="Neuffenstraße"/>
  </node>
  <node id="315292550" version="2" timestamp="2008-12-04T19:51:39Z" uid="6975" user="ulfl" changeset="107048" lat="48.7117727" lon="9.448007">
    <tag k="ele" v="339.000000"/>
    <tag k="highway" v="bus_stop"/>
    <tag k="name" v="Bus Siegenbergplatz"/>
  </node>
  <node id="315292550" version="3" timestamp="2009-01-08T21:12:32Z" uid="40234" user="Bernd Rosenau" changeset="757972" lat="48.7117751" lon="9.4479992">
    <tag k="created_by" v="Potlatch 0.10f"/>
    <tag k="ele" v="339"/>
    <tag k="highway" v="bus_stop"/>
    <tag k="name" v="Bus Siegenbergplatz"/>
  </node>
  <node id="315292550" version="4" timestamp="2009-03-14T19:38:13Z" uid="40234" user="Bernd Rosenau" changeset="808130" lat="48.7117764" lon="9.4480019">
    <tag k="created_by" v="Potlatch 0.10f"/>
    <tag k="ele" v="339"/>
    <tag k="highway" v="bus_stop"/>
    <tag k="name" v="Siegenbergplatz"/>
  </node>
  <node id="315292550" version="5" timestamp="2009-06-20T17:40:11Z" uid="85761" user="klausis" changeset="1576823" lat="48.7117764" lon="9.4480019">
    <tag k="ele" v="339"/>
    <tag k="highway" v="bus_stop"/>
    <tag k="name" v="Siegenbergplatz"/>
  </node>
  <node id="315292550" version="6" timestamp="2009-12-23T11:18:54Z" uid="40234" user="Bernd Rosenau" changeset="3433717" lat="48.7119336" lon="9.4479749">
    <tag k="ele" v="339"/>
    <tag k="highway" v="bus_stop"/>
    <tag k="name" v="Siegenbergplatz"/>
  </node>
  <node id="315292550" version="7" timestamp="2011-06-02T22:17:34Z" uid="464616" user="MoTaBi" changeset="8324965" lat="48.7118255" lon="9.4478751">
    <tag k="ele" v="339"/>
    <tag k="highway" v="bus_stop"/>
    <tag k="name" v="Siegenbergplatz"/>
  </node>
  <node id="315292550" version="8" timestamp="2011-06-03T07:18:49Z" uid="464616" user="MoTaBi" changeset="8326540" lat="48.7118078" lon="9.4478429">
    <tag k="ele" v="339"/>
    <tag k="highway" v="bus_stop"/>
    <tag k="name" v="Siegenbergplatz"/>
  </node>
  <node id="315292582" version="2" timestamp="2008-12-04T19:51:50Z" uid="6975" user="ulfl" changeset="107048" lat="48.7101529" lon="9.4513029">
    <tag k="ele" v="321.000000"/>
    <tag k="highway" v="bus_stop"/>
    <tag k="name" v="Schönblick"/>
  </node>
  <node id="315292582" version="3" timestamp="2009-01-08T21:13:08Z" uid="40234" user="Bernd Rosenau" changeset="757972" lat="48.7101553" lon="9.4512951">
    <tag k="created_by" v="Potlatch 0.10f"/>
    <tag k="ele" v="321"/>
    <tag k="highway" v="bus_stop"/>
    <tag k="name" v="Schönblick"/>
  </node>
  <node id="315292582" version="4" timestamp="2009-01-08T21:13:17Z" uid="40234" user="Bernd Rosenau" changeset="757972" lat="48.7102062" lon="9.4512608">
    <tag k="created_by" v="Potlatch 0.10f"/>
    <tag k="ele" v="321"/>
    <tag k="highway" v="bus_stop"/>
    <tag k="name" v="Schönblick"/>
  </node>
  <node id="315292582" version="5" timestamp="2009-05-25T15:41:37Z" uid="40234" user="Bernd Rosenau" changeset="1317489" lat="48.7102062" lon="9.4512608">
    <tag k="created_by" v="Potlatch 0.10f"/>
    <tag k="ele" v="321"/>
    <tag k="highway" v="bus_stop"/>
    <tag k="name" v="Schoenblick"/>
  </node>
  <node id="315292582" version="6" timestamp="2009-06-20T17:40:11Z" uid="85761" user="klausis" changeset="1576823" lat="48.7102062" lon="9.4512608">
    <tag k="ele" v="321"/>
    <tag k="highway" v="bus_stop"/>
    <tag k="name" v="Schoenblick"/>
  </node>
  <node id="315292582" version="7" timestamp="2009-12-28T19:54:16Z" uid="40234" user="Bernd Rosenau" changeset="3475269" lat="48.7102062" lon="9.4512608">
    <tag k="ele" v="321"/>
    <tag k="highway" v="bus_stop"/>
    <tag k="name" v="Schönblick"/>
  </node>
  <node id="315292582" version="8" timestamp="2010-04-10T21:32:42Z" uid="40234" user="Bernd Rosenau" changeset="4387544" lat="48.7102062" lon="9.4512608">
    <tag k="ele" v="321"/>
    <tag k="highway" v="bus_stop"/>
    <tag k="lines" v="142;148"/>
    <tag k="name" v="Schönblick"/>
  </node>
  <node id="315292612" version="2" timestamp="2008-12-04T19:51:40Z" uid="6975" user="ulfl" changeset="107048" lat="48.7103851" lon="9.4518351">
    <tag k="ele" v="322.000000"/>
    <tag k="highway" v="bus_stop"/>
    <tag k="name" v="Bus Schönblick 2"/>
  </node>
  <node id="315292612" version="3" timestamp="2009-01-08T21:13:13Z" uid="40234" user="Bernd Rosenau" changeset="757972" lat="48.7104611" lon="9.4517672">
    <tag k="created_by" v="Potlatch 0.10f"/>
    <tag k="ele" v="322.000000"/>
    <tag k="highway" v="bus_stop"/>
    <tag k="name" v="Bus Schönblick 2"/>
  </node>
  <node id="315292612" version="4" timestamp="2009-01-08T21:13:21Z" uid="40234" user="Bernd Rosenau" changeset="757972" lat="48.7104611" lon="9.4517672">
    <tag k="created_by" v="Potlatch 0.10f"/>
    <tag k="ele" v="322"/>
    <tag k="highway" v="bus_stop"/>
    <tag k="name" v="Bus Schönblick 2"/>
  </node>
  <node id="315292612" version="5" timestamp="2009-05-25T15:41:37Z" uid="40234" user="Bernd Rosenau" changeset="1317489" lat="48.7104611" lon="9.4517672">
    <tag k="created_by" v="Potlatch 0.10f"/>
    <tag k="ele" v="322"/>
    <tag k="highway" v="bus_stop"/>
    <tag k="name" v="Schoenblick "/>
  </node>
  <node id="315292612" version="6" timestamp="2009-05-26T14:10:57Z" uid="70696" user="xybot" changeset="1325438" lat="48.7104611" lon="9.4517672">
    <tag k="ele" v="322"/>
    <tag k="highway" v="bus_stop"/>
    <tag k="name" v="Schoenblick"/>
  </node>
  <node id="315292612" version="7" timestamp="2009-12-28T19:54:17Z" uid="40234" user="Bernd Rosenau" changeset="3475269" lat="48.7104611" lon="9.4517672">
    <tag k="ele" v="322"/>
    <tag k="highway" v="bus_stop"/>
    <tag k="name" v="Schönbllick"/>
  </node>
  <node id="315292612" version="8" timestamp="2010-04-10T21:32:41Z" uid="40234" user="Bernd Rosenau" changeset="4387544" lat="48.7104611" lon="9.4517672">
    <tag k="ele" v="322"/>
    <tag k="highway" v="bus_stop"/>
    <tag k="lines" v="142;148"/>
    <tag k="name" v="Schönbllick"/>
  </node>
  <node id="315292612" version="9" timestamp="2010-05-25T16:24:44Z" uid="40234" user="Bernd Rosenau" changeset="4805195" lat="48.7104611" lon="9.4517672">
    <tag k="ele" v="322"/>
    <tag k="highway" v="bus_stop"/>
    <tag k="lines" v="142;148"/>
    <tag k="name" v="Schönblick"/>
  </node>
  <node id="315293609" version="2" timestamp="2008-12-04T19:51:50Z" uid="6975" user="ulfl" changeset="107048" lat="48.7111554" lon="9.4664606">
    <tag k="ele" v="267.000000"/>
    <tag k="highway" v="bus_stop"/>
    <tag k="name" v="Bus Blumenstraße/Wilhelmstraße"/>
  </node>
  <node id="315293609" version="3" timestamp="2009-01-01T06:42:44Z" uid="40234" user="Bernd Rosenau" changeset="701812" lat="48.7111557" lon="9.466453">
    <tag k="created_by" v="Potlatch 0.10f"/>
    <tag k="ele" v="267.000000"/>
    <tag k="highway" v="bus_stop"/>
    <tag k="name" v="lumenstraße/Wilhelmstraße"/>
  </node>
  <node id="315293609" version="4" timestamp="2009-01-08T21:20:38Z" uid="40234" user="Bernd Rosenau" changeset="757972" lat="48.7111577" lon="9.4664528">
    <tag k="created_by" v="Potlatch 0.10f"/>
    <tag k="ele" v="267"/>
    <tag k="highway" v="bus_stop"/>
    <tag k="name" v="lumenstraße/Wilhelmstraße"/>
  </node>
  <node id="315293609" version="5" timestamp="2009-06-20T17:39:44Z" uid="85761" user="klausis" changeset="1576823" lat="48.7111577" lon="9.4664528">
    <tag k="ele" v="267"/>
    <tag k="highway" v="bus_stop"/>
    <tag k="name" v="lumenstraße/Wilhelmstraße"/>
  </node>
  <node id="315293688" version="2" timestamp="2008-12-04T19:51:57Z" uid="6975" user="ulfl" changeset="107048" lat="48.7133641" lon="9.4651989">
    <tag k="ele" v="276.000000"/>
    <tag k="highway" v="bus_stop"/>
    <tag k="name" v="Bus Blumenstraße"/>
  </node>
  <node id="315293688" version="3" timestamp="2008-12-14T17:07:45Z" uid="40234" user="Bernd Rosenau" changeset="380601" lat="48.7133688" lon="9.4651937">
    <tag k="created_by" v="Potlatch 0.10f"/>
    <tag k="ele" v="276.000000"/>
    <tag k="highway" v="bus_stop"/>
    <tag k="name" v="Blumenstraße"/>
  </node>
  <node id="315293688" version="4" timestamp="2009-01-07T20:33:40Z" uid="40234" user="Bernd Rosenau" changeset="753331" lat="48.7134005" lon="9.4653113">
    <tag k="created_by" v="Potlatch 0.10f"/>
    <tag k="ele" v="276.000000"/>
    <tag k="highway" v="bus_stop"/>
    <tag k="name" v="Blumenstraße"/>
  </node>
  <node id="315293688" version="5" timestamp="2009-01-08T21:21:26Z" uid="40234" user="Bernd Rosenau" changeset="757972" lat="48.7134061" lon="9.4653113">
    <tag k="created_by" v="Potlatch 0.10f"/>
    <tag k="ele" v="276"/>
    <tag k="highway" v="bus_stop"/>
    <tag k="name" v="Blumenstraße"/>
  </node>
  <node id="315293688" version="6" timestamp="2009-06-20T17:39:45Z" uid="85761" user="klausis" changeset="1576823" lat="48.7134061" lon="9.4653113">
    <tag k="ele" v="276"/>
    <tag k="highway" v="bus_stop"/>
    <tag k="name" v="Blumenstraße"/>
  </node>
  <node id="315293822" version="2" timestamp="2008-12-04T19:56:52Z" uid="6975" user="ulfl" changeset="107048" lat="48.7127921" lon="9.465834">
    <tag k="ele" v="273.000000"/>
    <tag k="name" v="Gästehaus Ullrich"/>
    <tag k="tourism" v="hotel"/>
    <tag k="wpt_description" v="28-NOV-08 13:56:32"/>
    <tag k="wpt_symbol" v="Flag, Blue"/>
  </node>
  <node id="315293822" version="3" timestamp="2008-12-14T17:39:02Z" uid="40234" user="Bernd Rosenau" changeset="380601" lat="48.7127931" lon="9.4658289">
    <tag k="created_by" v="Potlatch 0.10f"/>
    <tag k="ele" v="273.000000"/>
    <tag k="name" v="Gästehaus Ullrich"/>
    <tag k="tourism" v="hotel"/>
  </node>
  <node id="315293822" version="4" timestamp="2009-01-08T21:21:19Z" uid="40234" user="Bernd Rosenau" changeset="757972" lat="48.7128058" lon="9.4658005">
    <tag k="created_by" v="Potlatch 0.10f"/>
    <tag k="ele" v="273"/>
    <tag k="name" v="Gästehaus Ullrich"/>
    <tag k="tourism" v="hotel"/>
  </node>
  <node id="315293822" version="5" timestamp="2009-06-20T17:35:31Z" uid="85761" user="klausis" changeset="1576823" lat="48.7128058" lon="9.4658005">
    <tag k="ele" v="273"/>
    <tag k="name" v="Gästehaus Ullrich"/>
    <tag k="tourism" v="hotel"/>
  </node>
  <node id="315293822" version="6" timestamp="2011-10-05T22:11:17Z" uid="290680" user="wheelmap_visitor" changeset="9474855" lat="48.7128058" lon="9.4658005">
    <tag k="ele" v="273"/>
    <tag k="name" v="Gästehaus Ullrich"/>
    <tag k="tourism" v="hotel"/>
    <tag k="wheelchair" v="no"/>
  </node>
  <node id="315293885" version="2" timestamp="2008-12-04T19:51:49Z" uid="6975" user="ulfl" changeset="107048" lat="48.7125373" lon="9.4758247">
    <tag k="ele" v="293.000000"/>
    <tag k="highway" v="bus_stop"/>
    <tag k="name" v="Bus Steinäcker"/>
  </node>
  <node id="315293885" version="3" timestamp="2008-12-14T17:06:59Z" uid="40234" user="Bernd Rosenau" changeset="380601" lat="48.712542" lon="9.4758195">
    <tag k="created_by" v="Potlatch 0.10f"/>
    <tag k="ele" v="293.000000"/>
    <tag k="highway" v="bus_stop"/>
    <tag k="name" v="Steinäcker"/>
  </node>
  <node id="315293885" version="4" timestamp="2009-01-08T21:23:37Z" uid="40234" user="Bernd Rosenau" changeset="757972" lat="48.7125453" lon="9.475817">
    <tag k="created_by" v="Potlatch 0.10f"/>
    <tag k="ele" v="293"/>
    <tag k="highway" v="bus_stop"/>
    <tag k="name" v="Steinäcker"/>
  </node>
  <node id="315293885" version="5" timestamp="2009-06-20T17:35:32Z" uid="85761" user="klausis" changeset="1576823" lat="48.7125453" lon="9.475817">
    <tag k="ele" v="293"/>
    <tag k="highway" v="bus_stop"/>
    <tag k="name" v="Steinäcker"/>
  </node>
  <node id="315293885" version="6" timestamp="2010-09-21T18:01:14Z" uid="43022" user="TimoGerhards" changeset="5839062" lat="48.712466" lon="9.4759782">
    <tag k="ele" v="293"/>
    <tag k="highway" v="bus_stop"/>
    <tag k="name" v="Steinäcker"/>
  </node>
  <node id="315294133" version="2" timestamp="2008-12-04T19:51:54Z" uid="6975" user="ulfl" changeset="107048" lat="48.7146837" lon="9.5234007">
    <tag k="ele" v="282.991577"/>
    <tag k="highway" v="bus_stop"/>
    <tag k="name" v="Bus Rathaus"/>
  </node>
  <node id="315294133" version="3" timestamp="2009-01-02T16:50:33Z" uid="40234" user="Bernd Rosenau" changeset="713721" lat="48.714686" lon="9.5233929">
    <tag k="created_by" v="Potlatch 0.10f"/>
    <tag k="ele" v="282.991577"/>
    <tag k="highway" v="bus_stop"/>
    <tag k="name" v="Rathaus"/>
  </node>
  <node id="315294133" version="4" timestamp="2009-04-08T11:40:55Z" uid="79857" user="RDSantiago" changeset="317694" lat="48.714686" lon="9.5233929">
    <tag k="created_by" v="Potlatch 0.10f"/>
    <tag k="ele" v="282.991577"/>
    <tag k="highway" v="bus_stop"/>
    <tag k="name" v="Bus Haltestelle Rathaus"/>
  </node>
  <node id="315294133" version="5" timestamp="2009-07-02T11:16:42Z" uid="85761" user="klausis" changeset="1709212" lat="48.714686" lon="9.5233929">
    <tag k="ele" v="282.991577"/>
    <tag k="highway" v="bus_stop"/>
    <tag k="name" v="Bus Haltestelle Rathaus"/>
  </node>
  <node id="315294133" version="6" timestamp="2009-07-11T22:01:12Z" uid="12982" user="Michael Schulze" changeset="1802144" lat="48.714686" lon="9.5233929">
    <tag k="highway" v="bus_stop"/>
    <tag k="name" v="Rathaus"/>
  </node>
  <node id="315294133" version="7" timestamp="2009-08-10T17:33:00Z" uid="155318" user="tiger10" changeset="2100459" lat="48.7146905" lon="9.5232885">
    <tag k="highway" v="bus_stop"/>
    <tag k="name" v="Rathaus"/>
  </node>
  <node id="315294133" version="8" timestamp="2011-10-08T15:15:32Z" uid="290680" user="wheelmap_visitor" changeset="9499106" lat="48.7146905" lon="9.5232885">
    <tag k="highway" v="bus_stop"/>
    <tag k="name" v="Rathaus"/>
    <tag k="wheelchair" v="yes"/>
  </node>
  <node id="315295709" version="1" timestamp="2008-11-28T16:17:18Z" uid="17602" user="B10xyz" changeset="804044" lat="45.4347616" lon="12.334564"/>
  <node id="315295709" version="2" timestamp="2010-05-16T12:44:53Z" uid="17602" user="B10xyz" changeset="4716621" lat="45.4348212" lon="12.3344997"/>
  <node id="315295709" version="3" timestamp="2011-03-15T09:06:40Z" uid="45347" user="eriosw" changeset="7564201" lat="45.4348014" lon="12.3345191"/>
  <node id="315295710" version="1" timestamp="2008-11-28T16:17:18Z" uid="17602" user="B10xyz" changeset="804044" lat="45.4347897" lon="12.3345596"/>
  <node id="315295710" version="2" timestamp="2010-05-16T12:44:53Z" uid="17602" user="B10xyz" changeset="4716621" lat="45.4348493" lon="12.3344953"/>
  <node id="315295710" version="3" timestamp="2011-03-15T09:06:40Z" uid="45347" user="eriosw" changeset="7564201" lat="45.4348302" lon="12.3345132"/>
  <node id="315295712" version="1" timestamp="2008-11-28T16:17:19Z" uid="17602" user="B10xyz" changeset="804044" lat="45.4347926" lon="12.3346109"/>
  <node id="315295712" version="2" timestamp="2010-05-16T12:44:53Z" uid="17602" user="B10xyz" changeset="4716621" lat="45.4348522" lon="12.3345466"/>
  <node id="315295712" version="3" timestamp="2011-03-15T09:06:40Z" uid="45347" user="eriosw" changeset="7564201" lat="45.4348332" lon="12.3345673"/>
  <node id="315295713" version="1" timestamp="2008-11-28T16:17:19Z" uid="17602" user="B10xyz" changeset="804044" lat="45.4347616" lon="12.3346122"/>
  <node id="315295713" version="2" timestamp="2010-05-16T12:44:53Z" uid="17602" user="B10xyz" changeset="4716621" lat="45.4348212" lon="12.3345479"/>
  <node id="315295713" version="3" timestamp="2011-03-15T09:06:41Z" uid="45347" user="eriosw" changeset="7564201" lat="45.4348024" lon="12.3345658"/>
  <node id="315297201" version="2" timestamp="2008-12-04T19:51:50Z" uid="6975" user="ulfl" changeset="107048" lat="48.7157936" lon="9.5261816">
    <tag k="ele" v="279.000000"/>
    <tag k="highway" v="bus_stop"/>
    <tag k="name" v="Bus Bahnhof"/>
  </node>
  <node id="315297201" version="3" timestamp="2009-08-10T18:19:17Z" uid="155318" user="tiger10" changeset="2100991" lat="48.715796" lon="9.526145">
    <tag k="ele" v="279.000000"/>
    <tag k="highway" v="bus_stop"/>
    <tag k="name" v="Bus Bahnhof"/>
  </node>
  <node id="315297201" version="4" timestamp="2011-10-04T13:15:50Z" uid="290680" user="wheelmap_visitor" changeset="9466302" lat="48.715796" lon="9.526145">
    <tag k="ele" v="279.000000"/>
    <tag k="highway" v="bus_stop"/>
    <tag k="name" v="Bus Bahnhof"/>
    <tag k="wheelchair" v="no"/>
  </node>
  <node id="315299192" version="2" timestamp="2008-12-20T12:42:09Z" uid="6975" user="ulfl" changeset="499085" lat="48.7101812" lon="9.462315">
    <tag k="ele" v="271.000000"/>
    <tag k="name" v="Backhaus Zoller"/>
    <tag k="shop" v="bakery"/>
  </node>
  <node id="315299192" version="3" timestamp="2009-01-08T21:17:36Z" uid="40234" user="Bernd Rosenau" changeset="757972" lat="48.7101836" lon="9.4623072">
    <tag k="created_by" v="Potlatch 0.10f"/>
    <tag k="ele" v="271"/>
    <tag k="name" v="Backhaus Zoller"/>
    <tag k="shop" v="bakery"/>
  </node>
  <node id="315299192" version="4" timestamp="2009-06-20T17:34:48Z" uid="85761" user="klausis" changeset="1576823" lat="48.7101836" lon="9.4623072">
    <tag k="ele" v="271"/>
    <tag k="name" v="Backhaus Zoller"/>
    <tag k="shop" v="bakery"/>
  </node>
  <node id="315299192" version="5" timestamp="2011-06-03T08:35:31Z" uid="464616" user="MoTaBi" changeset="8327098" lat="48.7100721" lon="9.4622755">
    <tag k="ele" v="271"/>
    <tag k="name" v="Backhaus Zoller"/>
    <tag k="shop" v="bakery"/>
  </node>
  <node id="315299192" version="6" timestamp="2011-10-05T22:02:32Z" uid="290680" user="wheelmap_visitor" changeset="9474855" lat="48.7100721" lon="9.4622755">
    <tag k="ele" v="271"/>
    <tag k="name" v="Backhaus Zoller"/>
    <tag k="shop" v="bakery"/>
    <tag k="wheelchair" v="yes"/>
  </node>
  <node id="315299364" version="2" timestamp="2008-12-04T19:51:54Z" uid="6975" user="ulfl" changeset="107048" lat="48.709292" lon="9.4646152">
    <tag k="ele" v="270.975342"/>
    <tag k="highway" v="bus_stop"/>
    <tag k="name" v="Bus Ulmer Str"/>
  </node>
  <node id="315299364" version="3" timestamp="2008-12-18T09:26:11Z" uid="70696" user="xybot" changeset="465787" lat="48.709292" lon="9.4646152">
    <tag k="created_by" v="xybot"/>
    <tag k="ele" v="270.975342"/>
    <tag k="highway" v="bus_stop"/>
    <tag k="name" v="Bus Ulmer Straße"/>
  </node>
  <node id="315299364" version="4" timestamp="2009-01-08T21:19:59Z" uid="40234" user="Bernd Rosenau" changeset="757972" lat="48.7092547" lon="9.4646246">
    <tag k="created_by" v="Potlatch 0.10f"/>
    <tag k="ele" v="270"/>
    <tag k="highway" v="bus_stop"/>
    <tag k="name" v="Bus Ulmer Straße"/>
  </node>
  <node id="315299364" version="5" timestamp="2009-06-20T17:34:34Z" uid="85761" user="klausis" changeset="1576823" lat="48.7092547" lon="9.4646246">
    <tag k="ele" v="270"/>
    <tag k="highway" v="bus_stop"/>
    <tag k="name" v="Bus Ulmer Straße"/>
  </node>
  <node id="315299364" version="6" timestamp="2010-07-18T18:12:55Z" uid="40234" user="Bernd Rosenau" changeset="5253910" lat="48.7092547" lon="9.4646246">
    <tag k="ele" v="270"/>
    <tag k="highway" v="bus_stop"/>
    <tag k="name" v="Ulmer Straße"/>
  </node>
  <node id="315299700" version="5" timestamp="2010-07-18T08:50:08Z" uid="4467" user="Rosscoe" changeset="5248902" lat="-34.923938" lon="138.6137142"/>
  <node id="315299701" version="4" timestamp="2010-07-18T08:51:29Z" uid="4467" user="Rosscoe" changeset="5248902" lat="-34.9239895" lon="138.613409"/>
  <node id="315299702" version="7" timestamp="2010-07-18T08:51:48Z" uid="4467" user="Rosscoe" changeset="5248902" lat="-34.9239753" lon="138.6133447"/>
  <node id="315299743" version="7" timestamp="2010-07-18T08:53:14Z" uid="4467" user="Rosscoe" changeset="5248902" lat="-34.9240673" lon="138.6132814"/>
</osm>
