<?xml version='1.0' encoding='UTF-8'?>
<osm version="0.6" generator="libosmium/2.20.0">
  <node id="315881939" version="3" timestamp="2008-12-09T23:27:42Z" uid="6975" user="ulfl" changeset="299549" lat="48.1963369" lon="11.5447691">
    <tag k="name" v="Friseursalon Uschi"/>
    <tag k="shop" v="hairdresser"/>
  </node>
  <node id="315881939" version="4" timestamp="2009-02-22T14:57:34Z" uid="72235" user="Basstoelpel" changeset="609327" lat="48.1963355" lon="11.5447663">
    <tag k="addr:housenumber" v="6"/>
    <tag k="addr:postcode" v="80935"/>
    <tag k="addr:street" v="Hyazinthenstraße"/>
    <tag k="name" v="Friseursalon Uschi"/>
    <tag k="shop" v="hairdresser"/>
  </node>
  <node id="315881939" version="5" timestamp="2009-12-20T11:23:16Z" uid="72235" user="Basstoelpel" changeset="3412650" lat="48.1963355" lon="11.5447663">
    <tag k="addr:housenumber" v="6"/>
    <tag k="addr:postcode" v="80935"/>
    <tag k="addr:street" v="Hyazinthenstraße"/>
    <tag k="name" v="Friseursalon Uschi"/>
    <tag k="shop" v="hairdresser"/>
  </node>
  <node id="315886287" version="3" timestamp="2009-09-30T12:42:14Z" uid="36809" user="pfoten_weg_!_" changeset="2687909" lat="48.1761192" lon="11.2560211">
    <tag k="addr:city" v="Fürstenfeldbruck"/>
    <tag k="addr:country" v="DE"/>
    <tag k="addr:housenumber" v="8"/>
    <tag k="addr:postcode" v="82256"/>
    <tag k="addr:street" v="Leonhardsplatz"/>
    <tag k="amenity" v="pharmacy"/>
    <tag k="name" v="Sankt Nepomuk Apotheke"/>
  </node>
  <node id="315887160" version="5" timestamp="2010-07-29T09:40:20Z" uid="74617" user="JohnSmith" changeset="5344848" lat="48.7063504" lon="9.1631986">
    <tag k="amenity" v="emergency_phone"/>
    <tag k="emergency" v="phone"/>
    <tag k="operator" v="Autobahnmeisterei"/>
    <tag k="source" v="Photo"/>
  </node>
  <node id="315887162" version="4" timestamp="2010-07-29T09:26:29Z" uid="74617" user="JohnSmith" changeset="5344848" lat="48.7016389" lon="9.1791731">
    <tag k="amenity" v="emergency_phone"/>
    <tag k="emergency" v="phone"/>
    <tag k="operator" v="Autobahnmeisterei"/>
    <tag k="source" v="Photo"/>
  </node>
  <node id="315888115" version="6" timestamp="2009-10-02T19:48:09Z" uid="86259" user="hasse_osm_korinthenkacker" changeset="2716821" lat="47.9106821" lon="11.675922">
    <tag k="addr:city" v="Otterfing"/>
    <tag k="addr:country" v="DE"/>
    <tag k="addr:housenumber" v="18"/>
    <tag k="addr:postcode" v="83624"/>
    <tag k="addr:street" v="Marsstraße"/>
  </node>
  <node id="315888115" version="7" timestamp="2010-05-20T08:24:21Z" uid="42393" user="mawi42" changeset="4754798" lat="47.9106864" lon="11.6759308">
    <tag k="addr:city" v="Otterfing"/>
    <tag k="addr:country" v="DE"/>
    <tag k="addr:housenumber" v="18"/>
    <tag k="addr:postcode" v="83624"/>
    <tag k="addr:street" v="Marsstraße"/>
  </node>
  <node id="315888454" version="6" timestamp="2009-10-02T19:48:10Z" uid="86259" user="hasse_osm_korinthenkacker" changeset="2716821" lat="47.9105498" lon="11.6764542">
    <tag k="addr:city" v="Otterfing"/>
    <tag k="addr:country" v="DE"/>
    <tag k="addr:housenumber" v="20"/>
    <tag k="addr:postcode" v="83624"/>
    <tag k="addr:street" v="Marsstraße"/>
  </node>
  <node id="315888459" version="6" timestamp="2009-10-02T19:48:09Z" uid="86259" user="hasse_osm_korinthenkacker" changeset="2716821" lat="47.9105153" lon="11.6763512">
    <tag k="addr:city" v="Otterfing"/>
    <tag k="addr:country" v="DE"/>
    <tag k="addr:housenumber" v="22"/>
    <tag k="addr:postcode" v="83624"/>
    <tag k="addr:street" v="Marsstraße"/>
  </node>
  <node id="315888543" version="5" timestamp="2009-10-02T19:48:11Z" uid="86259" user="hasse_osm_korinthenkacker" changeset="2716821" lat="47.9111878" lon="11.6762066">
    <tag k="addr:city" v="Otterfing"/>
    <tag k="addr:country" v="DE"/>
    <tag k="addr:housenumber" v="10b"/>
    <tag k="addr:postcode" v="83624"/>
    <tag k="addr:street" v="Im Kirchwinkel"/>
  </node>
  <node id="315888543" version="6" timestamp="2009-12-26T19:31:57Z" uid="42393" user="mawi42" changeset="3457618" lat="47.9111902" lon="11.6761686">
    <tag k="addr:city" v="Otterfing"/>
    <tag k="addr:country" v="DE"/>
    <tag k="addr:housenumber" v="10b"/>
    <tag k="addr:postcode" v="83624"/>
    <tag k="addr:street" v="Im Kirchwinkel"/>
  </node>
  <node id="315888543" version="7" timestamp="2010-06-28T19:27:05Z" uid="42393" user="mawi42" changeset="5100330" lat="47.9111902" lon="11.6761686">
    <tag k="addr:city" v="Otterfing"/>
    <tag k="addr:country" v="DE"/>
    <tag k="addr:housenumber" v="10b"/>
    <tag k="addr:postcode" v="83624"/>
    <tag k="addr:street" v="Im Kirchwinkel"/>
  </node>
  <node id="315888882" version="4" timestamp="2009-10-02T19:48:12Z" uid="86259" user="hasse_osm_korinthenkacker" changeset="2716821" lat="47.9112382" lon="11.6769175">
    <tag k="addr:city" v="Otterfing"/>
    <tag k="addr:country" v="DE"/>
    <tag k="addr:housenumber" v="15"/>
    <tag k="addr:postcode" v="83624"/>
    <tag k="addr:street" v="Im Kirchwinkel"/>
  </node>
  <node id="315888882" version="5" timestamp="2010-08-30T13:01:43Z" uid="42393" user="mawi42" changeset="5635986" lat="47.9112599" lon="11.6769449">
    <tag k="addr:city" v="Otterfing"/>
    <tag k="addr:country" v="DE"/>
    <tag k="addr:housenumber" v="15"/>
    <tag k="addr:postcode" v="83624"/>
    <tag k="addr:street" v="Im Kirchwinkel"/>
  </node>
  <node id="315888940" version="6" timestamp="2009-10-02T19:48:11Z" uid="86259" user="hasse_osm_korinthenkacker" changeset="2716821" lat="47.910849" lon="11.6764284">
    <tag k="addr:city" v="Otterfing"/>
    <tag k="addr:country" v="DE"/>
    <tag k="addr:housenumber" v="14"/>
    <tag k="addr:postcode" v="83624"/>
    <tag k="addr:street" v="Im Kirchwinkel"/>
  </node>
  <node id="315889036" version="11" timestamp="2010-12-13T21:28:30Z" uid="49111" user="Markus B" changeset="6653072" lat="48.8434359" lon="9.206451"/>
  <node id="315889037" version="11" timestamp="2010-12-13T21:28:48Z" uid="49111" user="Markus B" changeset="6653072" lat="48.8439336" lon="9.2072075"/>
  <node id="315889106" version="2" timestamp="2009-05-01T01:10:14Z" uid="36809" user="pfoten_weg_!_" changeset="1032053" lat="47.6947466" lon="11.1517285"/>
  <node id="315889108" version="5" timestamp="2010-12-13T21:28:48Z" uid="49111" user="Markus B" changeset="6653072" lat="48.8417377" lon="9.2062945"/>
  <node id="315889110" version="5" timestamp="2010-10-16T08:56:17Z" uid="9581" user="Lobelt" changeset="6055726" lat="49.2589566" lon="8.8487288"/>
  <node id="315889110" version="6" timestamp="2011-01-30T16:30:44Z" uid="131968" user="changchun_1" changeset="7136121" lat="49.2589729" lon="8.8487188"/>
  <node id="315889110" version="7" timestamp="2012-01-13T16:28:51Z" uid="131968" user="changchun_1" changeset="10379966" lat="49.2589179" lon="8.8488482"/>
  <node id="315889249" version="3" timestamp="2009-08-25T02:01:54Z" uid="36809" user="pfoten_weg_!_" changeset="2251508" lat="47.6792103" lon="11.2711021"/>
  <node id="315889249" version="4" timestamp="2011-06-07T08:47:48Z" uid="446587" user="Feu" changeset="8368012" lat="47.6794278" lon="11.2714536"/>
  <node id="315889251" version="3" timestamp="2009-08-25T02:01:54Z" uid="36809" user="pfoten_weg_!_" changeset="2251508" lat="47.6808977" lon="11.2745597"/>
  <node id="315889251" version="4" timestamp="2011-06-07T08:47:38Z" uid="446587" user="Feu" changeset="8368012" lat="47.6809808" lon="11.2745977"/>
  <node id="315889289" version="4" timestamp="2009-05-01T01:11:12Z" uid="36809" user="pfoten_weg_!_" changeset="1032055" lat="47.6990908" lon="11.1467074"/>
  <node id="315889290" version="4" timestamp="2009-05-01T01:11:12Z" uid="36809" user="pfoten_weg_!_" changeset="1032055" lat="47.6983283" lon="11.14439"/>
  <node id="315889291" version="4" timestamp="2009-05-01T01:11:12Z" uid="36809" user="pfoten_weg_!_" changeset="1032055" lat="47.6982821" lon="11.1439436"/>
  <node id="315889292" version="4" timestamp="2009-05-01T01:11:12Z" uid="36809" user="pfoten_weg_!_" changeset="1032055" lat="47.6982994" lon="11.1431712"/>
  <node id="315889293" version="4" timestamp="2009-05-01T01:11:12Z" uid="36809" user="pfoten_weg_!_" changeset="1032055" lat="47.6981665" lon="11.1422442"/>
  <node id="315889294" version="4" timestamp="2009-05-01T01:11:12Z" uid="36809" user="pfoten_weg_!_" changeset="1032055" lat="47.6977044" lon="11.1409567"/>
  <node id="315889295" version="7" timestamp="2009-05-01T01:11:12Z" uid="36809" user="pfoten_weg_!_" changeset="1032055" lat="47.6987326" lon="11.1398667"/>
  <node id="315889300" version="4" timestamp="2009-02-16T10:17:40Z" uid="36809" user="pfoten_weg_!_" changeset="490038" lat="47.6995876" lon="11.1392058"/>
  <node id="315889300" version="5" timestamp="2009-03-20T21:46:41Z" uid="5164" user="woodpeck" changeset="839312" lat="47.6995876" lon="11.1392058"/>
  <node id="315889300" version="6" timestamp="2009-05-01T00:39:10Z" uid="36809" user="pfoten_weg_!_" changeset="1031974" lat="47.6995876" lon="11.1392058"/>
  <node id="315889381" version="6" timestamp="2009-10-02T19:48:04Z" uid="86259" user="hasse_osm_korinthenkacker" changeset="2716821" lat="47.9110209" lon="11.6756487">
    <tag k="addr:city" v="Otterfing"/>
    <tag k="addr:country" v="DE"/>
    <tag k="addr:housenumber" v="6b"/>
    <tag k="addr:postcode" v="83624"/>
    <tag k="addr:street" v="Im Kirchwinkel"/>
  </node>
  <node id="315889381" version="7" timestamp="2009-12-26T19:31:57Z" uid="42393" user="mawi42" changeset="3457618" lat="47.9110212" lon="11.6756241">
    <tag k="addr:city" v="Otterfing"/>
    <tag k="addr:country" v="DE"/>
    <tag k="addr:housenumber" v="6b"/>
    <tag k="addr:postcode" v="83624"/>
    <tag k="addr:street" v="Im Kirchwinkel"/>
  </node>
  <node id="315889381" version="8" timestamp="2010-06-28T19:27:06Z" uid="42393" user="mawi42" changeset="5100330" lat="47.9110212" lon="11.6756241">
    <tag k="addr:city" v="Otterfing"/>
    <tag k="addr:country" v="DE"/>
    <tag k="addr:housenumber" v="6b"/>
    <tag k="addr:postcode" v="83624"/>
    <tag k="addr:street" v="Im Kirchwinkel"/>
  </node>
  <node id="315889494" version="3" timestamp="2010-12-13T21:28:37Z" uid="49111" user="Markus B" changeset="6653072" lat="48.840298" lon="9.207591"/>
  <node id="315889496" version="3" timestamp="2010-12-13T21:28:27Z" uid="49111" user="Markus B" changeset="6653072" lat="48.8399453" lon="9.2073824"/>
  <node id="315889736" version="4" timestamp="2009-10-02T19:48:09Z" uid="86259" user="hasse_osm_korinthenkacker" changeset="2716821" lat="47.9101969" lon="11.6759648">
    <tag k="addr:city" v="Otterfing"/>
    <tag k="addr:country" v="DE"/>
    <tag k="addr:housenumber" v="23"/>
    <tag k="addr:postcode" v="83624"/>
    <tag k="addr:street" v="Im Kirchwinkel"/>
  </node>
  <node id="315889874" version="4" timestamp="2009-01-05T18:36:39Z" uid="9581" user="Lobelt" changeset="738895" lat="50.8675321" lon="11.6070984"/>
</osm>
