<?xml version='1.0' encoding='UTF-8'?>
<osm version="0.6" generator="libosmium/2.20.0">
  <node id="315890141" version="6" timestamp="2009-10-02T19:48:10Z" uid="86259" user="hasse_osm_korinthenkacker" changeset="2716821" lat="47.910107" lon="11.6767686">
    <tag k="addr:city" v="Otterfing"/>
    <tag k="addr:country" v="DE"/>
    <tag k="addr:housenumber" v="24"/>
    <tag k="addr:postcode" v="83624"/>
    <tag k="addr:street" v="Im Kirchwinkel"/>
    <tag k="name" v="Pfarrheim"/>
  </node>
  <node id="315890141" version="7" timestamp="2010-09-10T06:19:04Z" uid="42393" user="mawi42" changeset="5738456" lat="47.910107" lon="11.6767686">
    <tag k="addr:city" v="Otterfing"/>
    <tag k="addr:country" v="DE"/>
    <tag k="addr:housenumber" v="24"/>
    <tag k="addr:postcode" v="83624"/>
    <tag k="addr:street" v="Im Kirchwinkel"/>
  </node>
  <node id="315890598" version="3" timestamp="2010-07-29T09:02:26Z" uid="74617" user="JohnSmith" changeset="5344848" lat="48.6935715" lon="9.2233139">
    <tag k="amenity" v="emergency_phone"/>
    <tag k="emergency" v="phone"/>
    <tag k="operator" v="Autobahnmeisterei"/>
  </node>
  <node id="315890598" version="4" timestamp="2011-06-13T17:40:02Z" uid="45948" user="Thilo87" changeset="8429057" lat="48.6935525" lon="9.2233254">
    <tag k="amenity" v="emergency_phone"/>
    <tag k="emergency" v="phone"/>
    <tag k="operator" v="Autobahnmeisterei"/>
  </node>
  <node id="315890600" version="3" timestamp="2010-07-29T08:58:53Z" uid="74617" user="JohnSmith" changeset="5344848" lat="48.6938221" lon="9.2231873">
    <tag k="amenity" v="emergency_phone"/>
    <tag k="emergency" v="phone"/>
    <tag k="operator" v="Autobahnmeisterei"/>
  </node>
  <node id="315890600" version="4" timestamp="2011-06-13T17:40:02Z" uid="45948" user="Thilo87" changeset="8429057" lat="48.6938888" lon="9.2230679">
    <tag k="amenity" v="emergency_phone"/>
    <tag k="emergency" v="phone"/>
    <tag k="operator" v="Autobahnmeisterei"/>
  </node>
  <node id="315890601" version="8" timestamp="2010-07-29T09:07:59Z" uid="74617" user="JohnSmith" changeset="5344848" lat="48.6954645" lon="9.2647712">
    <tag k="amenity" v="emergency_phone"/>
    <tag k="emergency" v="phone"/>
    <tag k="operator" v="Autobahnmeisterei"/>
    <tag k="source" v="Photo"/>
  </node>
  <node id="315890601" version="9" timestamp="2011-07-02T19:31:13Z" uid="24748" user="mabapla" changeset="8611387" lat="48.6954047" lon="9.2647611">
    <tag k="amenity" v="emergency_phone"/>
    <tag k="emergency" v="phone"/>
    <tag k="operator" v="Autobahnmeisterei"/>
    <tag k="source" v="Photo"/>
  </node>
  <node id="315890732" version="3" timestamp="2009-02-16T10:13:36Z" uid="36809" user="pfoten_weg_!_" changeset="490038" lat="47.6892985" lon="11.128065"/>
  <node id="315890732" version="4" timestamp="2009-03-20T21:46:41Z" uid="5164" user="woodpeck" changeset="839312" lat="47.6892985" lon="11.128065"/>
  <node id="315890732" version="5" timestamp="2009-05-01T00:39:10Z" uid="36809" user="pfoten_weg_!_" changeset="1031974" lat="47.6892985" lon="11.128065"/>
  <node id="315890733" version="3" timestamp="2009-02-16T10:13:36Z" uid="36809" user="pfoten_weg_!_" changeset="490038" lat="47.6894718" lon="11.1301249"/>
  <node id="315890733" version="4" timestamp="2009-03-20T21:46:42Z" uid="5164" user="woodpeck" changeset="839312" lat="47.6894718" lon="11.1301249"/>
  <node id="315890733" version="5" timestamp="2009-05-01T00:39:10Z" uid="36809" user="pfoten_weg_!_" changeset="1031974" lat="47.6894718" lon="11.1301249"/>
  <node id="315890734" version="3" timestamp="2009-02-16T10:13:35Z" uid="36809" user="pfoten_weg_!_" changeset="490038" lat="47.6909162" lon="11.1313866"/>
  <node id="315890734" version="4" timestamp="2009-03-20T21:46:42Z" uid="5164" user="woodpeck" changeset="839312" lat="47.6909162" lon="11.1313866"/>
  <node id="315890734" version="5" timestamp="2009-05-01T00:39:10Z" uid="36809" user="pfoten_weg_!_" changeset="1031974" lat="47.6909162" lon="11.1313866"/>
  <node id="315890735" version="3" timestamp="2009-02-16T10:13:35Z" uid="36809" user="pfoten_weg_!_" changeset="490038" lat="47.6913553" lon="11.1320389"/>
  <node id="315890735" version="4" timestamp="2009-03-20T21:46:43Z" uid="5164" user="woodpeck" changeset="839312" lat="47.6913553" lon="11.1320389"/>
  <node id="315890735" version="5" timestamp="2009-05-01T00:39:10Z" uid="36809" user="pfoten_weg_!_" changeset="1031974" lat="47.6913553" lon="11.1320389"/>
  <node id="315890736" version="3" timestamp="2009-02-16T10:13:34Z" uid="36809" user="pfoten_weg_!_" changeset="490038" lat="47.6916095" lon="11.1325711"/>
  <node id="315890736" version="4" timestamp="2009-03-20T21:46:43Z" uid="5164" user="woodpeck" changeset="839312" lat="47.6916095" lon="11.1325711"/>
  <node id="315890736" version="5" timestamp="2009-05-01T00:39:10Z" uid="36809" user="pfoten_weg_!_" changeset="1031974" lat="47.6916095" lon="11.1325711"/>
  <node id="315890737" version="3" timestamp="2009-02-16T10:13:34Z" uid="36809" user="pfoten_weg_!_" changeset="490038" lat="47.6921064" lon="11.133498"/>
  <node id="315890737" version="4" timestamp="2009-03-20T21:46:43Z" uid="5164" user="woodpeck" changeset="839312" lat="47.6921064" lon="11.133498"/>
  <node id="315890737" version="5" timestamp="2009-05-01T00:39:10Z" uid="36809" user="pfoten_weg_!_" changeset="1031974" lat="47.6921064" lon="11.133498"/>
  <node id="315890738" version="3" timestamp="2009-02-16T10:13:33Z" uid="36809" user="pfoten_weg_!_" changeset="490038" lat="47.6926668" lon="11.1346482"/>
  <node id="315890738" version="4" timestamp="2009-03-20T21:46:44Z" uid="5164" user="woodpeck" changeset="839312" lat="47.6926668" lon="11.1346482"/>
  <node id="315890738" version="5" timestamp="2009-05-01T00:39:10Z" uid="36809" user="pfoten_weg_!_" changeset="1031974" lat="47.6926668" lon="11.1346482"/>
  <node id="315890739" version="3" timestamp="2009-02-16T10:13:33Z" uid="36809" user="pfoten_weg_!_" changeset="490038" lat="47.6933427" lon="11.1360215"/>
  <node id="315890739" version="4" timestamp="2009-03-20T21:46:44Z" uid="5164" user="woodpeck" changeset="839312" lat="47.6933427" lon="11.1360215"/>
  <node id="315890739" version="5" timestamp="2009-05-01T00:39:10Z" uid="36809" user="pfoten_weg_!_" changeset="1031974" lat="47.6933427" lon="11.1360215"/>
  <node id="315890740" version="3" timestamp="2009-02-16T10:13:33Z" uid="36809" user="pfoten_weg_!_" changeset="490038" lat="47.6934352" lon="11.1372746"/>
  <node id="315890740" version="4" timestamp="2009-03-20T21:46:45Z" uid="5164" user="woodpeck" changeset="839312" lat="47.6934352" lon="11.1372746"/>
  <node id="315890740" version="5" timestamp="2009-05-01T00:39:09Z" uid="36809" user="pfoten_weg_!_" changeset="1031974" lat="47.6934352" lon="11.1372746"/>
  <node id="315890741" version="3" timestamp="2009-02-16T10:13:33Z" uid="36809" user="pfoten_weg_!_" changeset="490038" lat="47.6943422" lon="11.1372488"/>
  <node id="315890741" version="4" timestamp="2009-03-20T21:46:45Z" uid="5164" user="woodpeck" changeset="839312" lat="47.6943422" lon="11.1372488"/>
  <node id="315890741" version="5" timestamp="2009-05-01T00:39:10Z" uid="36809" user="pfoten_weg_!_" changeset="1031974" lat="47.6943422" lon="11.1372488"/>
  <node id="315890742" version="3" timestamp="2009-02-16T10:13:32Z" uid="36809" user="pfoten_weg_!_" changeset="490038" lat="47.694787" lon="11.1376351"/>
  <node id="315890742" version="4" timestamp="2009-03-20T21:46:45Z" uid="5164" user="woodpeck" changeset="839312" lat="47.694787" lon="11.1376351"/>
  <node id="315890742" version="5" timestamp="2009-05-01T00:39:09Z" uid="36809" user="pfoten_weg_!_" changeset="1031974" lat="47.694787" lon="11.1376351"/>
  <node id="315890743" version="3" timestamp="2009-02-16T10:13:33Z" uid="36809" user="pfoten_weg_!_" changeset="490038" lat="47.6953243" lon="11.1377037"/>
  <node id="315890743" version="4" timestamp="2009-03-20T21:46:46Z" uid="5164" user="woodpeck" changeset="839312" lat="47.6953243" lon="11.1377037"/>
  <node id="315890743" version="5" timestamp="2009-05-01T00:39:09Z" uid="36809" user="pfoten_weg_!_" changeset="1031974" lat="47.6953243" lon="11.1377037"/>
  <node id="315890744" version="3" timestamp="2009-02-16T10:13:35Z" uid="36809" user="pfoten_weg_!_" changeset="490038" lat="47.695411" lon="11.1378067"/>
  <node id="315890744" version="4" timestamp="2009-03-20T21:46:46Z" uid="5164" user="woodpeck" changeset="839312" lat="47.695411" lon="11.1378067"/>
  <node id="315890744" version="5" timestamp="2009-05-01T00:39:10Z" uid="36809" user="pfoten_weg_!_" changeset="1031974" lat="47.695411" lon="11.1378067"/>
  <node id="315890745" version="3" timestamp="2009-02-16T10:13:35Z" uid="36809" user="pfoten_weg_!_" changeset="490038" lat="47.6955381" lon="11.1383646"/>
  <node id="315890745" version="4" timestamp="2009-03-20T21:46:47Z" uid="5164" user="woodpeck" changeset="839312" lat="47.6955381" lon="11.1383646"/>
  <node id="315890745" version="5" timestamp="2009-05-01T00:39:10Z" uid="36809" user="pfoten_weg_!_" changeset="1031974" lat="47.6955381" lon="11.1383646"/>
  <node id="315890746" version="3" timestamp="2009-02-16T10:13:34Z" uid="36809" user="pfoten_weg_!_" changeset="490038" lat="47.6959887" lon="11.1386221"/>
  <node id="315890746" version="4" timestamp="2009-03-20T21:46:47Z" uid="5164" user="woodpeck" changeset="839312" lat="47.6959887" lon="11.1386221"/>
  <node id="315890746" version="5" timestamp="2009-05-01T00:39:10Z" uid="36809" user="pfoten_weg_!_" changeset="1031974" lat="47.6959887" lon="11.1386221"/>
  <node id="315890747" version="3" timestamp="2009-02-16T10:13:35Z" uid="36809" user="pfoten_weg_!_" changeset="490038" lat="47.6966819" lon="11.1388539"/>
  <node id="315890747" version="4" timestamp="2009-03-20T21:46:47Z" uid="5164" user="woodpeck" changeset="839312" lat="47.6966819" lon="11.1388539"/>
  <node id="315890747" version="5" timestamp="2009-05-01T00:39:10Z" uid="36809" user="pfoten_weg_!_" changeset="1031974" lat="47.6966819" lon="11.1388539"/>
  <node id="315890748" version="3" timestamp="2009-02-16T10:13:34Z" uid="36809" user="pfoten_weg_!_" changeset="490038" lat="47.6975946" lon="11.1395663"/>
  <node id="315890748" version="4" timestamp="2009-03-20T21:46:48Z" uid="5164" user="woodpeck" changeset="839312" lat="47.6975946" lon="11.1395663"/>
  <node id="315890748" version="5" timestamp="2009-05-01T00:39:10Z" uid="36809" user="pfoten_weg_!_" changeset="1031974" lat="47.6975946" lon="11.1395663"/>
  <node id="315890749" version="3" timestamp="2009-02-16T10:13:34Z" uid="36809" user="pfoten_weg_!_" changeset="490038" lat="47.697895" lon="11.1398238"/>
  <node id="315890749" version="4" timestamp="2009-03-20T21:46:48Z" uid="5164" user="woodpeck" changeset="839312" lat="47.697895" lon="11.1398238"/>
  <node id="315890749" version="5" timestamp="2009-05-01T00:39:10Z" uid="36809" user="pfoten_weg_!_" changeset="1031974" lat="47.697895" lon="11.1398238"/>
  <node id="315890797" version="6" timestamp="2009-10-02T19:48:12Z" uid="86259" user="hasse_osm_korinthenkacker" changeset="2716821" lat="47.9101928" lon="11.6778264">
    <tag k="addr:city" v="Otterfing"/>
    <tag k="addr:country" v="DE"/>
    <tag k="addr:housenumber" v="19"/>
    <tag k="addr:postcode" v="83624"/>
    <tag k="addr:street" v="Bahnhofstraße"/>
  </node>
  <node id="315890928" version="5" timestamp="2009-10-02T19:48:12Z" uid="86259" user="hasse_osm_korinthenkacker" changeset="2716821" lat="47.9101641" lon="11.6777319">
    <tag k="addr:city" v="Otterfing"/>
    <tag k="addr:country" v="DE"/>
    <tag k="addr:housenumber" v="19"/>
    <tag k="addr:postcode" v="83624"/>
    <tag k="addr:street" v="Im Kirchwinkel"/>
  </node>
  <node id="315891216" version="5" timestamp="2009-05-01T21:04:20Z" uid="20587" user="balrog-kun" changeset="1042396" lat="53.6557819" lon="15.4120071">
    <tag k="created_by" v="Potlatch 0.10f"/>
    <tag k="is_in" v="gmina Radowo Małe, powiat łobeski, województwo zachodniopomorskie, Poland"/>
    <tag k="is_in:country" v="Poland"/>
    <tag k="is_in:county" v="powiat łobeski"/>
    <tag k="is_in:municipality" v="gmina Radowo Małe"/>
    <tag k="is_in:province" v="województwo zachodniopomorskie"/>
    <tag k="name" v="Pogorzelica"/>
    <tag k="place" v="village"/>
    <tag k="teryt:rm" v="01"/>
    <tag k="teryt:simc" v="0782209"/>
    <tag k="teryt:stan_na" v="2009-01-01"/>
    <tag k="teryt:terc" v="3218032"/>
    <tag k="teryt:updated_by" v="teryt2osm combine.py v. 43"/>
    <tag k="wikipedia" v="Pogorzelica, Łobez County"/>
  </node>
  <node id="315891216" version="6" timestamp="2009-11-03T12:08:38Z" uid="36809" user="pfoten_weg_!_" changeset="3023908" lat="53.6557819" lon="15.4120071">
    <tag k="is_in" v="gmina Radowo Małe, powiat łobeski, województwo zachodniopomorskie, Poland"/>
    <tag k="is_in:country" v="Poland"/>
    <tag k="is_in:county" v="powiat łobeski"/>
    <tag k="is_in:municipality" v="gmina Radowo Małe"/>
    <tag k="is_in:province" v="województwo zachodniopomorskie"/>
    <tag k="name" v="Pogorzelica"/>
    <tag k="place" v="village"/>
    <tag k="teryt:rm" v="01"/>
    <tag k="teryt:simc" v="0782209"/>
    <tag k="teryt:stan_na" v="2009-01-01"/>
    <tag k="teryt:terc" v="3218032"/>
    <tag k="teryt:updated_by" v="teryt2osm combine.py v. 43"/>
    <tag k="wikipedia" v="Pogorzelica, Łobez County"/>
  </node>
  <node id="315891216" version="7" timestamp="2010-04-11T04:38:56Z" uid="20587" user="balrog-kun" changeset="4389130" lat="53.6559673" lon="15.41208">
    <tag k="is_in" v="gmina Radowo Małe, powiat łobeski, województwo zachodniopomorskie, Poland"/>
    <tag k="is_in:country" v="Poland"/>
    <tag k="is_in:county" v="powiat łobeski"/>
    <tag k="is_in:municipality" v="gmina Radowo Małe"/>
    <tag k="is_in:province" v="województwo zachodniopomorskie"/>
    <tag k="name" v="Pogorzelica"/>
    <tag k="place" v="village"/>
    <tag k="teryt:rm" v="01"/>
    <tag k="teryt:simc" v="0782209"/>
    <tag k="teryt:stan_na" v="2009-01-01"/>
    <tag k="teryt:terc" v="3218032"/>
    <tag k="teryt:updated_by" v="teryt2osm combine.py v. 43"/>
    <tag k="wikipedia" v="Pogorzelica, Łobez County"/>
  </node>
  <node id="315891568" version="5" timestamp="2009-05-01T21:04:53Z" uid="20587" user="balrog-kun" changeset="1042396" lat="53.6380767" lon="15.4037674">
    <tag k="addr:postcode" v="72-314"/>
    <tag k="is_in" v="gmina Radowo Małe, powiat łobeski, województwo zachodniopomorskie, Poland"/>
    <tag k="is_in:country" v="Poland"/>
    <tag k="is_in:county" v="powiat łobeski"/>
    <tag k="is_in:municipality" v="gmina Radowo Małe"/>
    <tag k="is_in:province" v="województwo zachodniopomorskie"/>
    <tag k="name" v="Orle"/>
    <tag k="place" v="village"/>
    <tag k="teryt:rm" v="01"/>
    <tag k="teryt:simc" v="0782190"/>
    <tag k="teryt:stan_na" v="2009-01-01"/>
    <tag k="teryt:terc" v="3218032"/>
    <tag k="teryt:updated_by" v="teryt2osm combine.py v. 43"/>
    <tag k="wikipedia" v="Orle, West Pomeranian Voivodeship"/>
  </node>
  <node id="315891568" version="6" timestamp="2010-04-11T04:38:57Z" uid="20587" user="balrog-kun" changeset="4389130" lat="53.6372407" lon="15.4045932">
    <tag k="addr:postcode" v="72-314"/>
    <tag k="is_in" v="gmina Radowo Małe, powiat łobeski, województwo zachodniopomorskie, Poland"/>
    <tag k="is_in:country" v="Poland"/>
    <tag k="is_in:county" v="powiat łobeski"/>
    <tag k="is_in:municipality" v="gmina Radowo Małe"/>
    <tag k="is_in:province" v="województwo zachodniopomorskie"/>
    <tag k="name" v="Orle"/>
    <tag k="place" v="village"/>
    <tag k="teryt:rm" v="01"/>
    <tag k="teryt:simc" v="0782190"/>
    <tag k="teryt:stan_na" v="2009-01-01"/>
    <tag k="teryt:terc" v="3218032"/>
    <tag k="teryt:updated_by" v="teryt2osm combine.py v. 43"/>
    <tag k="wikipedia" v="Orle, West Pomeranian Voivodeship"/>
  </node>
  <node id="315891738" version="2" timestamp="2009-05-01T21:06:28Z" uid="20587" user="balrog-kun" changeset="1042396" lat="53.6510002" lon="15.3672035">
    <tag k="created_by" v="Potlatch 0.10f"/>
    <tag k="is_in" v="gmina Radowo Małe, powiat łobeski, województwo zachodniopomorskie, Poland"/>
    <tag k="is_in:county" v="powiat łobeski"/>
    <tag k="is_in:municipality" v="gmina Radowo Małe"/>
    <tag k="is_in:province" v="województwo zachodniopomorskie"/>
    <tag k="name" v="Zelmowo"/>
    <tag k="place" v="village"/>
    <tag k="wikipedia" v="Żelmowo"/>
  </node>
  <node id="315891738" version="3" timestamp="2009-11-03T12:08:06Z" uid="36809" user="pfoten_weg_!_" changeset="3023908" lat="53.6510002" lon="15.3672035">
    <tag k="is_in" v="gmina Radowo Małe, powiat łobeski, województwo zachodniopomorskie, Poland"/>
    <tag k="is_in:county" v="powiat łobeski"/>
    <tag k="is_in:municipality" v="gmina Radowo Małe"/>
    <tag k="is_in:province" v="województwo zachodniopomorskie"/>
    <tag k="name" v="Zelmowo"/>
    <tag k="place" v="village"/>
    <tag k="wikipedia" v="Żelmowo"/>
  </node>
  <node id="315891738" version="4" timestamp="2010-04-11T04:38:57Z" uid="20587" user="balrog-kun" changeset="4389130" lat="53.6508861" lon="15.3674665">
    <tag k="is_in" v="gmina Radowo Małe, powiat łobeski, województwo zachodniopomorskie, Poland"/>
    <tag k="is_in:county" v="powiat łobeski"/>
    <tag k="is_in:municipality" v="gmina Radowo Małe"/>
    <tag k="is_in:province" v="województwo zachodniopomorskie"/>
    <tag k="name" v="Zelmowo"/>
    <tag k="place" v="village"/>
    <tag k="wikipedia" v="Żelmowo"/>
  </node>
  <node id="315892016" version="7" timestamp="2009-02-16T10:26:48Z" uid="36809" user="pfoten_weg_!_" changeset="490038" lat="47.7053176" lon="11.1809796"/>
  <node id="315892016" version="8" timestamp="2009-06-17T21:58:57Z" uid="36809" user="pfoten_weg_!_" changeset="1550007" lat="47.7053176" lon="11.1809796">
    <tag k="created_by" v="RambaZamba"/>
  </node>
  <node id="315892016" version="9" timestamp="2009-08-12T13:35:34Z" uid="156995" user="HampelZamba" changeset="2118817" lat="47.7053176" lon="11.1809796"/>
  <node id="315892016" version="10" timestamp="2009-08-12T18:04:09Z" uid="42537" user="XBear" changeset="2121799" lat="47.7053176" lon="11.1809796"/>
  <node id="315892017" version="5" timestamp="2009-05-01T01:00:22Z" uid="36809" user="pfoten_weg_!_" changeset="1032026" lat="47.7065767" lon="11.1815117"/>
  <node id="315892019" version="5" timestamp="2009-05-01T01:00:22Z" uid="36809" user="pfoten_weg_!_" changeset="1032026" lat="47.7073507" lon="11.1811083"/>
  <node id="315892020" version="5" timestamp="2009-05-01T01:00:22Z" uid="36809" user="pfoten_weg_!_" changeset="1032026" lat="47.7082344" lon="11.1803959"/>
  <node id="315892022" version="5" timestamp="2009-05-01T01:00:22Z" uid="36809" user="pfoten_weg_!_" changeset="1032026" lat="47.7093606" lon="11.1797608"/>
  <node id="315892025" version="5" timestamp="2009-05-01T01:00:22Z" uid="36809" user="pfoten_weg_!_" changeset="1032026" lat="47.7108911" lon="11.1794175"/>
  <node id="315892026" version="11" timestamp="2009-05-01T01:00:22Z" uid="36809" user="pfoten_weg_!_" changeset="1032026" lat="47.7119965" lon="11.179216"/>
  <node id="315892146" version="4" timestamp="2009-10-02T19:49:06Z" uid="86259" user="hasse_osm_korinthenkacker" changeset="2716821" lat="47.9118825" lon="11.6788487">
    <tag k="addr:city" v="Otterfing"/>
    <tag k="addr:country" v="DE"/>
    <tag k="addr:housenumber" v="15"/>
    <tag k="addr:postcode" v="83624"/>
    <tag k="addr:street" v="Jahnsteig"/>
  </node>
  <node id="315892146" version="5" timestamp="2010-01-04T08:59:59Z" uid="42393" user="mawi42" changeset="3535328" lat="47.9118805" lon="11.678682">
    <tag k="addr:city" v="Otterfing"/>
    <tag k="addr:country" v="DE"/>
    <tag k="addr:housenumber" v="15"/>
    <tag k="addr:postcode" v="83624"/>
    <tag k="addr:street" v="Jahnsteig"/>
  </node>
  <node id="315892147" version="2" timestamp="2009-05-01T21:06:03Z" uid="20587" user="balrog-kun" changeset="1042396" lat="53.6350233" lon="15.3747566">
    <tag k="is_in" v="gmina Radowo Małe, powiat łobeski, województwo zachodniopomorskie, Poland"/>
    <tag k="is_in:county" v="powiat łobeski"/>
    <tag k="is_in:municipality" v="gmina Radowo Małe"/>
    <tag k="is_in:province" v="województwo zachodniopomorskie"/>
    <tag k="name" v="Dargomysl"/>
    <tag k="place" v="village"/>
    <tag k="wikipedia" v="Dargomyśl, Łobez County"/>
  </node>
  <node id="315892147" version="3" timestamp="2010-04-11T04:38:57Z" uid="20587" user="balrog-kun" changeset="4389130" lat="53.6347553" lon="15.3749226">
    <tag k="is_in" v="gmina Radowo Małe, powiat łobeski, województwo zachodniopomorskie, Poland"/>
    <tag k="is_in:county" v="powiat łobeski"/>
    <tag k="is_in:municipality" v="gmina Radowo Małe"/>
    <tag k="is_in:province" v="województwo zachodniopomorskie"/>
    <tag k="name" v="Dargomysl"/>
    <tag k="place" v="village"/>
    <tag k="wikipedia" v="Dargomyśl, Łobez County"/>
  </node>
  <node id="315892175" version="7" timestamp="2009-10-02T19:49:09Z" uid="86259" user="hasse_osm_korinthenkacker" changeset="2716821" lat="47.912482" lon="11.6801213">
    <tag k="addr:city" v="Otterfing"/>
    <tag k="addr:country" v="DE"/>
    <tag k="addr:housenumber" v="31"/>
    <tag k="addr:postcode" v="83624"/>
    <tag k="addr:street" v="Jahnsteig"/>
  </node>
  <node id="315892175" version="8" timestamp="2009-12-03T13:10:27Z" uid="42393" user="mawi42" changeset="3280415" lat="47.9124766" lon="11.6801099">
    <tag k="addr:city" v="Otterfing"/>
    <tag k="addr:country" v="DE"/>
    <tag k="addr:housenumber" v="31"/>
    <tag k="addr:postcode" v="83624"/>
    <tag k="addr:street" v="Jahnsteig"/>
  </node>
  <node id="315892175" version="9" timestamp="2011-08-07T08:12:35Z" uid="42393" user="mawi42" changeset="8944296" lat="47.9124753" lon="11.6800994">
    <tag k="addr:city" v="Otterfing"/>
    <tag k="addr:country" v="DE"/>
    <tag k="addr:housenumber" v="31"/>
    <tag k="addr:postcode" v="83624"/>
    <tag k="addr:street" v="Jahnsteig"/>
  </node>
  <node id="315892221" version="3" timestamp="2009-01-05T18:36:45Z" uid="9581" user="Lobelt" changeset="738895" lat="50.8686461" lon="11.606478"/>
  <node id="315892253" version="6" timestamp="2009-10-02T19:49:10Z" uid="86259" user="hasse_osm_korinthenkacker" changeset="2716821" lat="47.912597" lon="11.6805591">
    <tag k="addr:city" v="Otterfing"/>
    <tag k="addr:country" v="DE"/>
    <tag k="addr:housenumber" v="35"/>
    <tag k="addr:postcode" v="83624"/>
    <tag k="addr:street" v="Jahnsteig"/>
  </node>
  <node id="315892253" version="7" timestamp="2009-12-03T13:12:53Z" uid="42393" user="mawi42" changeset="3280415" lat="47.9125899" lon="11.6805444">
    <tag k="addr:city" v="Otterfing"/>
    <tag k="addr:country" v="DE"/>
    <tag k="addr:housenumber" v="35"/>
    <tag k="addr:postcode" v="83624"/>
    <tag k="addr:street" v="Jahnsteig"/>
  </node>
  <node id="315892299" version="6" timestamp="2009-10-02T19:49:07Z" uid="86259" user="hasse_osm_korinthenkacker" changeset="2716821" lat="47.9123151" lon="11.6795806">
    <tag k="addr:city" v="Otterfing"/>
    <tag k="addr:country" v="DE"/>
    <tag k="addr:housenumber" v="25"/>
    <tag k="addr:postcode" v="83624"/>
    <tag k="addr:street" v="Jahnsteig"/>
  </node>
  <node id="315892299" version="7" timestamp="2011-08-07T08:12:37Z" uid="42393" user="mawi42" changeset="8944296" lat="47.9123162" lon="11.6796051">
    <tag k="addr:city" v="Otterfing"/>
    <tag k="addr:country" v="DE"/>
    <tag k="addr:housenumber" v="25"/>
    <tag k="addr:postcode" v="83624"/>
    <tag k="addr:street" v="Jahnsteig"/>
  </node>
  <node id="315892317" version="6" timestamp="2009-10-02T19:49:09Z" uid="86259" user="hasse_osm_korinthenkacker" changeset="2716821" lat="47.9124072" lon="11.6799068">
    <tag k="addr:city" v="Otterfing"/>
    <tag k="addr:country" v="DE"/>
    <tag k="addr:housenumber" v="29"/>
    <tag k="addr:postcode" v="83624"/>
    <tag k="addr:street" v="Jahnsteig"/>
  </node>
  <node id="315892317" version="7" timestamp="2011-08-07T08:12:36Z" uid="42393" user="mawi42" changeset="8944296" lat="47.9124092" lon="11.6799236">
    <tag k="addr:city" v="Otterfing"/>
    <tag k="addr:country" v="DE"/>
    <tag k="addr:housenumber" v="29"/>
    <tag k="addr:postcode" v="83624"/>
    <tag k="addr:street" v="Jahnsteig"/>
  </node>
  <node id="315892533" version="5" timestamp="2009-10-02T19:49:07Z" uid="86259" user="hasse_osm_korinthenkacker" changeset="2716821" lat="47.9123957" lon="11.6798295">
    <tag k="addr:city" v="Otterfing"/>
    <tag k="addr:country" v="DE"/>
    <tag k="addr:housenumber" v="27"/>
    <tag k="addr:postcode" v="83624"/>
    <tag k="addr:street" v="Jahnsteig"/>
  </node>
  <node id="315892533" version="6" timestamp="2011-08-07T08:12:36Z" uid="42393" user="mawi42" changeset="8944296" lat="47.9123949" lon="11.6798264">
    <tag k="addr:city" v="Otterfing"/>
    <tag k="addr:country" v="DE"/>
    <tag k="addr:housenumber" v="27"/>
    <tag k="addr:postcode" v="83624"/>
    <tag k="addr:street" v="Jahnsteig"/>
  </node>
  <node id="315892596" version="5" timestamp="2009-10-02T19:49:07Z" uid="86259" user="hasse_osm_korinthenkacker" changeset="2716821" lat="47.9123036" lon="11.6795034">
    <tag k="addr:city" v="Otterfing"/>
    <tag k="addr:country" v="DE"/>
    <tag k="addr:housenumber" v="23"/>
    <tag k="addr:postcode" v="83624"/>
    <tag k="addr:street" v="Jahnsteig"/>
  </node>
  <node id="315892596" version="6" timestamp="2011-08-07T08:12:36Z" uid="42393" user="mawi42" changeset="8944296" lat="47.9122996" lon="11.6795072">
    <tag k="addr:city" v="Otterfing"/>
    <tag k="addr:country" v="DE"/>
    <tag k="addr:housenumber" v="23"/>
    <tag k="addr:postcode" v="83624"/>
    <tag k="addr:street" v="Jahnsteig"/>
  </node>
  <node id="315892688" version="9" timestamp="2009-02-16T10:24:19Z" uid="36809" user="pfoten_weg_!_" changeset="490038" lat="47.712952" lon="11.1589806"/>
  <node id="315892688" version="10" timestamp="2009-05-01T00:25:25Z" uid="36809" user="pfoten_weg_!_" changeset="1031946" lat="47.712952" lon="11.1589806"/>
  <node id="315892688" version="11" timestamp="2009-05-01T00:28:22Z" uid="36809" user="pfoten_weg_!_" changeset="1031956" lat="47.712952" lon="11.1589806"/>
  <node id="315892688" version="12" timestamp="2009-06-17T21:58:40Z" uid="36809" user="pfoten_weg_!_" changeset="1550007" lat="47.712952" lon="11.1589806">
    <tag k="created_by" v="RambaZamba"/>
  </node>
  <node id="315892688" version="13" timestamp="2009-06-17T23:31:45Z" uid="36809" user="pfoten_weg_!_" changeset="1550598" lat="47.712952" lon="11.1589806">
    <tag k="created_by" v="RambaZamba"/>
  </node>
  <node id="315892688" version="14" timestamp="2009-08-12T13:35:34Z" uid="156995" user="HampelZamba" changeset="2118817" lat="47.712952" lon="11.1589806"/>
  <node id="315892688" version="15" timestamp="2009-08-25T01:09:44Z" uid="36809" user="pfoten_weg_!_" changeset="2251292" lat="47.712952" lon="11.1589806"/>
  <node id="315892688" version="16" timestamp="2010-12-02T16:46:49Z" uid="342705" user="KLMB" changeset="6516637" lat="47.712955" lon="11.1588431"/>
  <node id="315892688" version="17" timestamp="2012-02-16T23:24:30Z" uid="342705" user="KLMB" changeset="10706900" lat="47.71296" lon="11.1586938"/>
  <node id="315892688" version="18" timestamp="2012-03-26T23:00:48Z" uid="148776" user="meridianeum" changeset="11111660" lat="47.712989" lon="11.1586762"/>
  <node id="315892830" version="3" timestamp="2009-10-02T19:49:08Z" uid="86259" user="hasse_osm_korinthenkacker" changeset="2716821" lat="47.9120551" lon="11.6802134">
    <tag k="addr:city" v="Otterfing"/>
    <tag k="addr:country" v="DE"/>
    <tag k="addr:housenumber" v="28"/>
    <tag k="addr:postcode" v="83624"/>
    <tag k="addr:street" v="Jahnsteig"/>
  </node>
  <node id="315892830" version="4" timestamp="2011-04-17T13:47:44Z" uid="42393" user="mawi42" changeset="7886530" lat="47.9121124" lon="11.6802023">
    <tag k="addr:city" v="Otterfing"/>
    <tag k="addr:country" v="DE"/>
    <tag k="addr:housenumber" v="28"/>
    <tag k="addr:postcode" v="83624"/>
    <tag k="addr:street" v="Jahnsteig"/>
  </node>
  <node id="315892879" version="3" timestamp="2009-10-02T19:49:09Z" uid="86259" user="hasse_osm_korinthenkacker" changeset="2716821" lat="47.9121492" lon="11.6804892">
    <tag k="addr:city" v="Otterfing"/>
    <tag k="addr:country" v="DE"/>
    <tag k="addr:housenumber" v="30"/>
    <tag k="addr:postcode" v="83624"/>
    <tag k="addr:street" v="Jahnsteig"/>
  </node>
  <node id="315892879" version="4" timestamp="2009-12-03T13:16:11Z" uid="42393" user="mawi42" changeset="3280415" lat="47.9121369" lon="11.6804827">
    <tag k="addr:city" v="Otterfing"/>
    <tag k="addr:country" v="DE"/>
    <tag k="addr:housenumber" v="30"/>
    <tag k="addr:postcode" v="83624"/>
    <tag k="addr:street" v="Jahnsteig"/>
  </node>
  <node id="315892879" version="5" timestamp="2011-01-09T12:13:00Z" uid="42393" user="mawi42" changeset="6913939" lat="47.9121513" lon="11.6805256">
    <tag k="addr:city" v="Otterfing"/>
    <tag k="addr:country" v="DE"/>
    <tag k="addr:housenumber" v="30"/>
    <tag k="addr:postcode" v="83624"/>
    <tag k="addr:street" v="Jahnsteig"/>
  </node>
  <node id="315892889" version="3" timestamp="2009-10-02T19:49:10Z" uid="86259" user="hasse_osm_korinthenkacker" changeset="2716821" lat="47.912224" lon="11.6807295">
    <tag k="addr:city" v="Otterfing"/>
    <tag k="addr:country" v="DE"/>
    <tag k="addr:housenumber" v="32"/>
    <tag k="addr:postcode" v="83624"/>
    <tag k="addr:street" v="Jahnsteig"/>
  </node>
  <node id="315892889" version="4" timestamp="2009-12-03T13:16:13Z" uid="42393" user="mawi42" changeset="3280415" lat="47.9122627" lon="11.6806973">
    <tag k="addr:city" v="Otterfing"/>
    <tag k="addr:country" v="DE"/>
    <tag k="addr:housenumber" v="32"/>
    <tag k="addr:postcode" v="83624"/>
    <tag k="addr:street" v="Jahnsteig"/>
  </node>
  <node id="315893399" version="5" timestamp="2009-05-01T00:22:43Z" uid="36809" user="pfoten_weg_!_" changeset="1031941" lat="47.7123522" lon="11.1599511"/>
  <node id="315893400" version="4" timestamp="2009-05-01T00:22:43Z" uid="36809" user="pfoten_weg_!_" changeset="1031941" lat="47.7121616" lon="11.1620539"/>
  <node id="315893702" version="7" timestamp="2009-05-01T00:22:43Z" uid="36809" user="pfoten_weg_!_" changeset="1031941" lat="47.7123099" lon="11.1604181"/>
  <node id="315893732" version="3" timestamp="2009-05-01T00:22:43Z" uid="36809" user="pfoten_weg_!_" changeset="1031941" lat="47.7111972" lon="11.1612814"/>
  <node id="315893733" version="3" timestamp="2009-05-01T00:22:43Z" uid="36809" user="pfoten_weg_!_" changeset="1031941" lat="47.7105157" lon="11.1610926"/>
  <node id="315893734" version="3" timestamp="2009-05-01T00:22:43Z" uid="36809" user="pfoten_weg_!_" changeset="1031941" lat="47.7100999" lon="11.1611956"/>
  <node id="315894216" version="1" timestamp="2008-11-30T19:14:01Z" uid="82906" user="mapmap" changeset="817170" lat="50.0445163" lon="8.4344602">
    <tag k="created_by" v="Potlatch 0.10f"/>
    <tag k="shop" v="backery"/>
  </node>
  <node id="315894216" version="2" timestamp="2008-12-04T20:27:40Z" uid="6975" user="ulfl" changeset="107048" lat="50.0445163" lon="8.4344602">
    <tag k="shop" v="bakery"/>
  </node>
  <node id="315894216" version="3" timestamp="2010-11-12T08:40:25Z" uid="290680" user="wheelmap_visitor" changeset="6349194" lat="50.0445163" lon="8.4344602">
    <tag k="shop" v="bakery"/>
    <tag k="wheelchair" v="no"/>
  </node>
  <node id="315894295" version="7" timestamp="2009-10-02T19:45:12Z" uid="86259" user="hasse_osm_korinthenkacker" changeset="2716821" lat="47.8977493" lon="11.6665294">
    <tag k="addr:city" v="Otterfing"/>
    <tag k="addr:country" v="DE"/>
    <tag k="addr:housenumber" v="2b"/>
    <tag k="addr:postcode" v="83624"/>
    <tag k="addr:street" v="Palnkam"/>
  </node>
  <node id="315894295" version="8" timestamp="2010-11-25T09:48:28Z" uid="42393" user="mawi42" changeset="6453118" lat="47.8977493" lon="11.6665294">
    <tag k="addr:city" v="Otterfing"/>
    <tag k="addr:country" v="DE"/>
    <tag k="addr:housenumber" v="7"/>
    <tag k="addr:postcode" v="83624"/>
    <tag k="addr:street" v="Palnkam"/>
  </node>
  <node id="315894301" version="7" timestamp="2009-10-02T19:45:11Z" uid="86259" user="hasse_osm_korinthenkacker" changeset="2716821" lat="47.8975134" lon="11.6664693">
    <tag k="addr:city" v="Otterfing"/>
    <tag k="addr:country" v="DE"/>
    <tag k="addr:housenumber" v="2d"/>
    <tag k="addr:postcode" v="83624"/>
    <tag k="addr:street" v="Palnkam"/>
  </node>
  <node id="315894301" version="8" timestamp="2010-11-25T09:48:28Z" uid="42393" user="mawi42" changeset="6453118" lat="47.8975117" lon="11.6664712">
    <tag k="addr:city" v="Otterfing"/>
    <tag k="addr:country" v="DE"/>
    <tag k="addr:housenumber" v="11"/>
    <tag k="addr:postcode" v="83624"/>
    <tag k="addr:street" v="Palnkam"/>
  </node>
  <node id="315894506" version="6" timestamp="2009-10-02T19:45:12Z" uid="86259" user="hasse_osm_korinthenkacker" changeset="2716821" lat="47.8983674" lon="11.6660743">
    <tag k="addr:city" v="Otterfing"/>
    <tag k="addr:country" v="DE"/>
    <tag k="addr:housenumber" v="1"/>
    <tag k="addr:postcode" v="83624"/>
    <tag k="addr:street" v="Palnkam"/>
  </node>
  <node id="315894506" version="7" timestamp="2010-09-25T14:53:08Z" uid="42393" user="mawi42" changeset="5871572" lat="47.8983821" lon="11.6659379">
    <tag k="addr:city" v="Otterfing"/>
    <tag k="addr:country" v="DE"/>
    <tag k="addr:housenumber" v="1"/>
    <tag k="addr:postcode" v="83624"/>
    <tag k="addr:street" v="Palnkam"/>
  </node>
  <node id="315894662" version="6" timestamp="2009-10-02T19:45:12Z" uid="86259" user="hasse_osm_korinthenkacker" changeset="2716821" lat="47.8980538" lon="11.6659995">
    <tag k="addr:city" v="Otterfing"/>
    <tag k="addr:country" v="DE"/>
    <tag k="addr:housenumber" v="1a"/>
    <tag k="addr:postcode" v="83624"/>
    <tag k="addr:street" v="Palnkam"/>
  </node>
  <node id="315894662" version="7" timestamp="2010-09-25T14:53:08Z" uid="42393" user="mawi42" changeset="5871572" lat="47.8980701" lon="11.6659888">
    <tag k="addr:city" v="Otterfing"/>
    <tag k="addr:country" v="DE"/>
    <tag k="addr:housenumber" v="1a"/>
    <tag k="addr:postcode" v="83624"/>
    <tag k="addr:street" v="Palnkam"/>
  </node>
  <node id="315894662" version="8" timestamp="2010-11-25T09:50:39Z" uid="42393" user="mawi42" changeset="6453118" lat="47.89807" lon="11.6659888">
    <tag k="addr:city" v="Otterfing"/>
    <tag k="addr:country" v="DE"/>
    <tag k="addr:housenumber" v="2"/>
    <tag k="addr:postcode" v="83624"/>
    <tag k="addr:street" v="Palnkam"/>
  </node>
  <node id="315894792" version="5" timestamp="2009-10-02T19:45:07Z" uid="86259" user="hasse_osm_korinthenkacker" changeset="2716821" lat="47.8970035" lon="11.6635246">
    <tag k="addr:city" v="Otterfing"/>
    <tag k="addr:country" v="DE"/>
    <tag k="addr:housenumber" v="10r"/>
    <tag k="addr:postcode" v="83624"/>
    <tag k="addr:street" v="Palnkam"/>
  </node>
  <node id="315894792" version="6" timestamp="2010-12-02T10:41:38Z" uid="42393" user="mawi42" changeset="6513160" lat="47.8970236" lon="11.6635938">
    <tag k="addr:city" v="Otterfing"/>
    <tag k="addr:country" v="DE"/>
    <tag k="addr:housenumber" v="10r"/>
    <tag k="addr:postcode" v="83624"/>
    <tag k="addr:street" v="Palnkam"/>
  </node>
  <node id="315895668" version="4" timestamp="2009-10-02T19:45:12Z" uid="86259" user="hasse_osm_korinthenkacker" changeset="2716821" lat="47.8982346" lon="11.6663431">
    <tag k="addr:city" v="Otterfing"/>
    <tag k="addr:country" v="DE"/>
    <tag k="addr:housenumber" v="4"/>
    <tag k="addr:postcode" v="83624"/>
    <tag k="addr:street" v="Palnkam"/>
  </node>
  <node id="315895668" version="5" timestamp="2010-01-23T14:17:36Z" uid="42393" user="mawi42" changeset="3691869" lat="47.8981846" lon="11.6664553">
    <tag k="addr:city" v="Otterfing"/>
    <tag k="addr:country" v="DE"/>
    <tag k="addr:housenumber" v="4"/>
    <tag k="addr:postcode" v="83624"/>
    <tag k="addr:street" v="Palnkam"/>
  </node>
  <node id="315895668" version="6" timestamp="2010-09-25T14:53:08Z" uid="42393" user="mawi42" changeset="5871572" lat="47.8981996" lon="11.6664099">
    <tag k="addr:city" v="Otterfing"/>
    <tag k="addr:country" v="DE"/>
    <tag k="addr:housenumber" v="4"/>
    <tag k="addr:postcode" v="83624"/>
    <tag k="addr:street" v="Palnkam"/>
  </node>
  <node id="315895668" version="7" timestamp="2010-11-25T09:48:27Z" uid="42393" user="mawi42" changeset="6453118" lat="47.8981996" lon="11.6664099">
    <tag k="addr:city" v="Otterfing"/>
    <tag k="addr:country" v="DE"/>
    <tag k="addr:housenumber" v="3"/>
    <tag k="addr:postcode" v="83624"/>
    <tag k="addr:street" v="Palnkam"/>
  </node>
  <node id="315895699" version="1" timestamp="2008-11-30T19:22:19Z" uid="17602" user="B10xyz" changeset="813472" lat="45.4848811" lon="12.4181901">
    <tag k="addr:housenumber" v="314"/>
  </node>
  <node id="315895699" version="2" timestamp="2009-01-07T13:59:17Z" uid="17602" user="B10xyz" changeset="751360" lat="45.4848479" lon="12.4180887">
    <tag k="addr:housenumber" v="314"/>
  </node>
  <node id="315895701" version="1" timestamp="2008-11-30T19:22:19Z" uid="17602" user="B10xyz" changeset="813472" lat="45.4848562" lon="12.4181267">
    <tag k="amenity" v="restaurant"/>
    <tag k="name" v="Leon Coronato"/>
  </node>
  <node id="315895701" version="2" timestamp="2008-11-30T21:03:35Z" uid="17602" user="B10xyz" changeset="814698" lat="45.4848385" lon="12.418043">
    <tag k="amenity" v="restaurant"/>
    <tag k="name" v="Leon Coronato"/>
  </node>
  <node id="315895701" version="3" timestamp="2009-01-07T13:59:17Z" uid="17602" user="B10xyz" changeset="751360" lat="45.4848195" lon="12.4179686">
    <tag k="amenity" v="restaurant"/>
    <tag k="name" v="Leon Coronato"/>
  </node>
  <node id="315895820" version="6" timestamp="2009-10-02T19:45:06Z" uid="86259" user="hasse_osm_korinthenkacker" changeset="2716821" lat="47.896027" lon="11.6641839">
    <tag k="addr:city" v="Otterfing"/>
    <tag k="addr:country" v="DE"/>
    <tag k="addr:housenumber" v="8a"/>
    <tag k="addr:postcode" v="83624"/>
    <tag k="addr:street" v="Palnkam"/>
  </node>
  <node id="315895820" version="7" timestamp="2010-12-02T09:01:21Z" uid="42393" user="mawi42" changeset="6512110" lat="47.896027" lon="11.6641839">
    <tag k="addr:city" v="Otterfing"/>
    <tag k="addr:country" v="DE"/>
    <tag k="addr:housenumber" v="33"/>
    <tag k="addr:postcode" v="83624"/>
    <tag k="addr:street" v="Palnkam"/>
  </node>
  <node id="315895904" version="4" timestamp="2009-10-02T19:45:05Z" uid="86259" user="hasse_osm_korinthenkacker" changeset="2716821" lat="47.896232" lon="11.6633219">
    <tag k="addr:city" v="Otterfing"/>
    <tag k="addr:country" v="DE"/>
    <tag k="addr:housenumber" v="8"/>
    <tag k="addr:postcode" v="83624"/>
    <tag k="addr:street" v="Palnkam"/>
  </node>
  <node id="315895904" version="5" timestamp="2009-11-07T13:50:03Z" uid="42393" user="mawi42" changeset="3055826" lat="47.8961544" lon="11.6634366">
    <tag k="addr:city" v="Otterfing"/>
    <tag k="addr:country" v="DE"/>
    <tag k="addr:housenumber" v="8"/>
    <tag k="addr:postcode" v="83624"/>
    <tag k="addr:street" v="Palnkam"/>
  </node>
  <node id="315895904" version="6" timestamp="2010-12-02T09:01:22Z" uid="42393" user="mawi42" changeset="6512110" lat="47.8961544" lon="11.6634366">
    <tag k="addr:city" v="Otterfing"/>
    <tag k="addr:country" v="DE"/>
    <tag k="addr:housenumber" v="39"/>
    <tag k="addr:postcode" v="83624"/>
    <tag k="addr:street" v="Palnkam"/>
  </node>
  <node id="315896133" version="4" timestamp="2010-07-29T09:30:26Z" uid="74617" user="JohnSmith" changeset="5344848" lat="48.6944266" lon="9.2857314">
    <tag k="amenity" v="emergency_phone"/>
    <tag k="emergency" v="phone"/>
    <tag k="operator" v="Autobahnmeisterei"/>
    <tag k="source" v="Photo"/>
  </node>
  <node id="315896137" version="4" timestamp="2010-07-29T09:15:42Z" uid="74617" user="JohnSmith" changeset="5344848" lat="48.694801" lon="9.285837">
    <tag k="amenity" v="emergency_phone"/>
    <tag k="emergency" v="phone"/>
    <tag k="operator" v="Autobahnmeisterei"/>
    <tag k="source" v="Photo"/>
  </node>
  <node id="315896301" version="3" timestamp="2009-10-17T23:27:27Z" uid="36809" user="pfoten_weg_!_" changeset="2879001" lat="47.6631315" lon="11.3358981"/>
  <node id="315896306" version="4" timestamp="2009-10-17T23:32:10Z" uid="36809" user="pfoten_weg_!_" changeset="2879001" lat="47.6650598" lon="11.3442567"/>
  <node id="315896310" version="4" timestamp="2009-10-17T23:32:09Z" uid="36809" user="pfoten_weg_!_" changeset="2879001" lat="47.665429" lon="11.3462733"/>
  <node id="315896314" version="3" timestamp="2009-10-17T23:32:16Z" uid="36809" user="pfoten_weg_!_" changeset="2879001" lat="47.6646623" lon="11.3526754"/>
  <node id="315896317" version="4" timestamp="2009-10-17T23:32:15Z" uid="36809" user="pfoten_weg_!_" changeset="2879001" lat="47.663173" lon="11.3560561"/>
  <node id="315896321" version="3" timestamp="2009-10-17T23:32:15Z" uid="36809" user="pfoten_weg_!_" changeset="2879001" lat="47.6623977" lon="11.3577398"/>
  <node id="315896339" version="3" timestamp="2009-10-17T23:32:13Z" uid="36809" user="pfoten_weg_!_" changeset="2879001" lat="47.6641235" lon="11.35424"/>
  <node id="315896358" version="3" timestamp="2009-10-17T23:32:18Z" uid="36809" user="pfoten_weg_!_" changeset="2879001" lat="47.6653114" lon="11.3508487"/>
  <node id="315896358" version="4" timestamp="2010-12-23T08:18:48Z" uid="62236" user="Paulchen Panther" changeset="6742920" lat="47.66532" lon="11.3508296"/>
  <node id="315896367" version="3" timestamp="2009-10-17T23:32:18Z" uid="36809" user="pfoten_weg_!_" changeset="2879001" lat="47.6655495" lon="11.3491461"/>
  <node id="315896372" version="3" timestamp="2009-10-17T23:32:10Z" uid="36809" user="pfoten_weg_!_" changeset="2879001" lat="47.6655961" lon="11.3477449"/>
  <node id="315896378" version="3" timestamp="2009-10-17T23:32:10Z" uid="36809" user="pfoten_weg_!_" changeset="2879001" lat="47.6655706" lon="11.3469447"/>
  <node id="315896383" version="3" timestamp="2009-10-17T23:32:11Z" uid="36809" user="pfoten_weg_!_" changeset="2879001" lat="47.6654648" lon="11.3460455"/>
  <node id="315896389" version="3" timestamp="2009-10-17T23:32:12Z" uid="36809" user="pfoten_weg_!_" changeset="2879001" lat="47.6653326" lon="11.3452235"/>
  <node id="315896393" version="3" timestamp="2009-10-17T23:32:12Z" uid="36809" user="pfoten_weg_!_" changeset="2879001" lat="47.6650717" lon="11.344007"/>
  <node id="315896398" version="3" timestamp="2009-10-17T23:32:05Z" uid="36809" user="pfoten_weg_!_" changeset="2879001" lat="47.6646689" lon="11.3421696"/>
  <node id="315896404" version="3" timestamp="2009-10-17T23:32:06Z" uid="36809" user="pfoten_weg_!_" changeset="2879001" lat="47.664389" lon="11.3410302"/>
  <node id="315896410" version="3" timestamp="2009-10-17T23:32:05Z" uid="36809" user="pfoten_weg_!_" changeset="2879001" lat="47.6639616" lon="11.3390008"/>
  <node id="315896415" version="3" timestamp="2009-10-17T23:27:28Z" uid="36809" user="pfoten_weg_!_" changeset="2879001" lat="47.6636153" lon="11.3374443"/>
  <node id="315896421" version="7" timestamp="2009-10-17T23:27:28Z" uid="36809" user="pfoten_weg_!_" changeset="2879001" lat="47.6633095" lon="11.3361679"/>
  <node id="315896428" version="6" timestamp="2009-10-17T23:27:28Z" uid="36809" user="pfoten_weg_!_" changeset="2879001" lat="47.6632566" lon="11.3358013"/>
  <node id="315896433" version="3" timestamp="2009-10-17T23:27:29Z" uid="36809" user="pfoten_weg_!_" changeset="2879001" lat="47.6631471" lon="11.3353312">
    <tag k="amenity" v="parking"/>
  </node>
  <node id="315896433" version="4" timestamp="2011-12-30T07:24:26Z" uid="290680" user="wheelmap_visitor" changeset="10242031" lat="47.6631471" lon="11.3353312">
    <tag k="amenity" v="parking"/>
    <tag k="wheelchair" v="yes"/>
  </node>
  <node id="315896439" version="5" timestamp="2009-10-17T23:27:29Z" uid="36809" user="pfoten_weg_!_" changeset="2879001" lat="47.6629219" lon="11.3348543"/>
  <node id="315896446" version="6" timestamp="2009-10-17T23:27:29Z" uid="36809" user="pfoten_weg_!_" changeset="2879001" lat="47.6625601" lon="11.3344602"/>
  <node id="315896453" version="3" timestamp="2009-10-17T23:27:30Z" uid="36809" user="pfoten_weg_!_" changeset="2879001" lat="47.6618225" lon="11.333503"/>
  <node id="315896463" version="3" timestamp="2009-10-17T23:27:27Z" uid="36809" user="pfoten_weg_!_" changeset="2879001" lat="47.6611455" lon="11.3325837"/>
  <node id="315896468" version="3" timestamp="2009-10-17T23:27:26Z" uid="36809" user="pfoten_weg_!_" changeset="2879001" lat="47.6608677" lon="11.3321665"/>
  <node id="315896474" version="3" timestamp="2009-10-17T23:27:23Z" uid="36809" user="pfoten_weg_!_" changeset="2879001" lat="47.6604932" lon="11.3313297"/>
  <node id="315896478" version="3" timestamp="2009-10-17T23:27:23Z" uid="36809" user="pfoten_weg_!_" changeset="2879001" lat="47.6600254" lon="11.3299291"/>
  <node id="315896481" version="3" timestamp="2009-10-17T23:27:26Z" uid="36809" user="pfoten_weg_!_" changeset="2879001" lat="47.6595676" lon="11.3284799"/>
  <node id="315896502" version="4" timestamp="2009-10-17T23:26:34Z" uid="36809" user="pfoten_weg_!_" changeset="2879001" lat="47.655942" lon="11.317318"/>
  <node id="315896502" version="5" timestamp="2010-06-06T00:53:10Z" uid="107037" user="ulfm" changeset="4913679" lat="47.6558849" lon="11.3172239"/>
  <node id="315896502" version="6" timestamp="2012-03-28T18:37:03Z" uid="148776" user="meridianeum" changeset="11129839" lat="47.6558849" lon="11.3172239"/>
  <node id="315896509" version="3" timestamp="2009-10-17T23:31:12Z" uid="36809" user="pfoten_weg_!_" changeset="2879001" lat="47.7014754" lon="11.321235"/>
  <node id="315896509" version="4" timestamp="2011-04-22T07:44:37Z" uid="7596" user="ck3d" changeset="7931725" lat="47.7014932" lon="11.3211343"/>
  <node id="315896512" version="3" timestamp="2009-10-17T23:30:57Z" uid="36809" user="pfoten_weg_!_" changeset="2879001" lat="47.6970771" lon="11.3156781"/>
  <node id="315896512" version="4" timestamp="2011-04-22T07:44:41Z" uid="7596" user="ck3d" changeset="7931725" lat="47.6970914" lon="11.3156304"/>
  <node id="315896516" version="3" timestamp="2009-10-17T23:30:58Z" uid="36809" user="pfoten_weg_!_" changeset="2879001" lat="47.6966267" lon="11.3153858"/>
  <node id="315896516" version="4" timestamp="2011-04-22T07:44:53Z" uid="7596" user="ck3d" changeset="7931725" lat="47.6966695" lon="11.3153646"/>
  <node id="315896519" version="3" timestamp="2009-10-17T23:30:58Z" uid="36809" user="pfoten_weg_!_" changeset="2879001" lat="47.6964292" lon="11.3154095"/>
  <node id="315896519" version="4" timestamp="2011-04-22T07:44:39Z" uid="7596" user="ck3d" changeset="7931725" lat="47.6963864" lon="11.3153353"/>
  <node id="315896522" version="3" timestamp="2009-10-17T23:30:57Z" uid="36809" user="pfoten_weg_!_" changeset="2879001" lat="47.6964371" lon="11.3142005"/>
  <node id="315896526" version="3" timestamp="2009-10-17T23:30:55Z" uid="36809" user="pfoten_weg_!_" changeset="2879001" lat="47.6940744" lon="11.3116957"/>
  <node id="315896531" version="3" timestamp="2009-10-17T23:30:46Z" uid="36809" user="pfoten_weg_!_" changeset="2879001" lat="47.6929603" lon="11.3100917"/>
  <node id="315896536" version="3" timestamp="2009-10-17T23:30:52Z" uid="36809" user="pfoten_weg_!_" changeset="2879001" lat="47.6936715" lon="11.3097677"/>
  <node id="315896542" version="3" timestamp="2009-10-17T23:30:51Z" uid="36809" user="pfoten_weg_!_" changeset="2879001" lat="47.694193" lon="11.3093805"/>
  <node id="315896545" version="3" timestamp="2009-10-17T23:30:46Z" uid="36809" user="pfoten_weg_!_" changeset="2879001" lat="47.6916802" lon="11.3085271"/>
  <node id="315896548" version="3" timestamp="2009-10-17T23:30:46Z" uid="36809" user="pfoten_weg_!_" changeset="2879001" lat="47.6917598" lon="11.3083764"/>
  <node id="315896548" version="4" timestamp="2011-07-10T15:44:47Z" uid="42478" user="Peter-Hierholzer" changeset="8684904" lat="47.6917836" lon="11.3083176"/>
  <node id="315896552" version="3" timestamp="2009-10-17T23:30:45Z" uid="36809" user="pfoten_weg_!_" changeset="2879001" lat="47.6923912" lon="11.3090014"/>
  <node id="315896552" version="4" timestamp="2011-07-10T15:44:47Z" uid="42478" user="Peter-Hierholzer" changeset="8684904" lat="47.6924031" lon="11.3089485"/>
  <node id="315896555" version="3" timestamp="2009-10-17T23:30:50Z" uid="36809" user="pfoten_weg_!_" changeset="2879001" lat="47.6930548" lon="11.3085826"/>
  <node id="315896555" version="4" timestamp="2011-07-10T15:44:47Z" uid="42478" user="Peter-Hierholzer" changeset="8684904" lat="47.6928252" lon="11.3083532"/>
  <node id="315896558" version="3" timestamp="2009-10-17T23:30:51Z" uid="36809" user="pfoten_weg_!_" changeset="2879001" lat="47.6935122" lon="11.3090658"/>
  <node id="315896561" version="3" timestamp="2009-10-17T23:30:49Z" uid="36809" user="pfoten_weg_!_" changeset="2879001" lat="47.6936991" lon="11.3096199"/>
  <node id="315896565" version="3" timestamp="2009-10-17T23:30:47Z" uid="36809" user="pfoten_weg_!_" changeset="2879001" lat="47.6943105" lon="11.3098149"/>
  <node id="315896568" version="3" timestamp="2009-10-17T23:30:53Z" uid="36809" user="pfoten_weg_!_" changeset="2879001" lat="47.6944181" lon="11.3103943"/>
  <node id="315896572" version="3" timestamp="2009-10-17T23:30:55Z" uid="36809" user="pfoten_weg_!_" changeset="2879001" lat="47.6949195" lon="11.3104471"/>
  <node id="315896577" version="3" timestamp="2009-10-17T23:30:53Z" uid="36809" user="pfoten_weg_!_" changeset="2879001" lat="47.6948997" lon="11.3099127"/>
  <node id="315896580" version="3" timestamp="2009-10-17T23:30:52Z" uid="36809" user="pfoten_weg_!_" changeset="2879001" lat="47.6942466" lon="11.3095663"/>
  <node id="315896584" version="3" timestamp="2009-10-17T23:30:58Z" uid="36809" user="pfoten_weg_!_" changeset="2879001" lat="47.6957851" lon="11.3133811"/>
  <node id="315896590" version="3" timestamp="2009-10-17T23:30:53Z" uid="36809" user="pfoten_weg_!_" changeset="2879001" lat="47.6963288" lon="11.3095515"/>
  <node id="315896594" version="3" timestamp="2009-10-17T23:31:01Z" uid="36809" user="pfoten_weg_!_" changeset="2879001" lat="47.7012297" lon="11.3103832"/>
  <node id="315896598" version="3" timestamp="2009-10-17T23:30:59Z" uid="36809" user="pfoten_weg_!_" changeset="2879001" lat="47.6986188" lon="11.306906"/>
  <node id="315896602" version="3" timestamp="2009-10-17T23:31:01Z" uid="36809" user="pfoten_weg_!_" changeset="2879001" lat="47.7002903" lon="11.306845"/>
  <node id="315896607" version="3" timestamp="2009-10-17T23:31:00Z" uid="36809" user="pfoten_weg_!_" changeset="2879001" lat="47.6971791" lon="11.3077845"/>
  <node id="315896611" version="3" timestamp="2009-10-17T23:31:00Z" uid="36809" user="pfoten_weg_!_" changeset="2879001" lat="47.6988262" lon="11.3053566"/>
  <node id="315896615" version="3" timestamp="2009-10-17T23:30:45Z" uid="36809" user="pfoten_weg_!_" changeset="2879001" lat="47.6990946" lon="11.3042708"/>
  <node id="315896619" version="3" timestamp="2009-10-17T23:30:59Z" uid="36809" user="pfoten_weg_!_" changeset="2879001" lat="47.698021" lon="11.3075405"/>
  <node id="315896625" version="3" timestamp="2009-10-17T23:30:39Z" uid="36809" user="pfoten_weg_!_" changeset="2879001" lat="47.6922003" lon="11.2941396"/>
  <node id="315896625" version="4" timestamp="2011-07-10T15:44:47Z" uid="42478" user="Peter-Hierholzer" changeset="8684904" lat="47.6918885" lon="11.2930514"/>
  <node id="315896631" version="3" timestamp="2009-10-17T23:28:53Z" uid="36809" user="pfoten_weg_!_" changeset="2879001" lat="47.6905184" lon="11.2911289"/>
  <node id="315896631" version="4" timestamp="2011-07-10T15:44:47Z" uid="42478" user="Peter-Hierholzer" changeset="8684904" lat="47.6904107" lon="11.2912183"/>
  <node id="315896636" version="3" timestamp="2009-10-17T23:30:36Z" uid="36809" user="pfoten_weg_!_" changeset="2879001" lat="47.6904847" lon="11.2953842"/>
  <node id="315896639" version="3" timestamp="2009-10-17T23:30:40Z" uid="36809" user="pfoten_weg_!_" changeset="2879001" lat="47.6922003" lon="11.2980753"/>
  <node id="315896639" version="4" timestamp="2011-07-10T15:44:47Z" uid="42478" user="Peter-Hierholzer" changeset="8684904" lat="47.6922079" lon="11.2979473"/>
  <node id="315896642" version="3" timestamp="2009-10-17T23:28:54Z" uid="36809" user="pfoten_weg_!_" changeset="2879001" lat="47.6918639" lon="11.2927604"/>
  <node id="315896642" version="4" timestamp="2011-07-10T15:44:47Z" uid="42478" user="Peter-Hierholzer" changeset="8684904" lat="47.691953" lon="11.2926501"/>
  <node id="315896646" version="3" timestamp="2009-10-17T23:28:53Z" uid="36809" user="pfoten_weg_!_" changeset="2879001" lat="47.6913762" lon="11.2932313"/>
  <node id="315896646" version="4" timestamp="2011-07-10T15:44:47Z" uid="42478" user="Peter-Hierholzer" changeset="8684904" lat="47.691495" lon="11.2931431"/>
  <node id="315896651" version="3" timestamp="2009-10-17T23:30:36Z" uid="36809" user="pfoten_weg_!_" changeset="2879001" lat="47.6912416" lon="11.2940555"/>
  <node id="315896651" version="4" timestamp="2011-07-10T15:44:47Z" uid="42478" user="Peter-Hierholzer" changeset="8684904" lat="47.691781" lon="11.2931879"/>
  <node id="315896656" version="3" timestamp="2009-10-17T23:30:37Z" uid="36809" user="pfoten_weg_!_" changeset="2879001" lat="47.6908548" lon="11.2972343"/>
  <node id="315896659" version="3" timestamp="2009-10-17T23:30:42Z" uid="36809" user="pfoten_weg_!_" changeset="2879001" lat="47.6920994" lon="11.3009851"/>
  <node id="315896662" version="3" timestamp="2009-10-17T23:30:41Z" uid="36809" user="pfoten_weg_!_" changeset="2879001" lat="47.6924358" lon="11.3004132"/>
  <node id="315896665" version="3" timestamp="2009-10-17T23:30:36Z" uid="36809" user="pfoten_weg_!_" changeset="2879001" lat="47.6908548" lon="11.2960065"/>
  <node id="315896667" version="3" timestamp="2009-10-17T23:28:33Z" uid="36809" user="pfoten_weg_!_" changeset="2879001" lat="47.6961865" lon="11.2712483"/>
  <node id="315896667" version="4" timestamp="2011-07-10T15:44:47Z" uid="42478" user="Peter-Hierholzer" changeset="8684904" lat="47.6962776" lon="11.2714777"/>
  <node id="315896669" version="3" timestamp="2009-10-17T23:28:54Z" uid="36809" user="pfoten_weg_!_" changeset="2879001" lat="47.6973639" lon="11.2732498"/>
  <node id="315896671" version="3" timestamp="2009-10-17T23:28:55Z" uid="36809" user="pfoten_weg_!_" changeset="2879001" lat="47.6989406" lon="11.2745458"/>
  <node id="315896673" version="3" timestamp="2009-10-17T23:29:54Z" uid="36809" user="pfoten_weg_!_" changeset="2879001" lat="47.7031775" lon="11.2791013"/>
  <node id="315896676" version="3" timestamp="2009-10-17T23:29:55Z" uid="36809" user="pfoten_weg_!_" changeset="2879001" lat="47.7037373" lon="11.2785846"/>
  <node id="315896678" version="3" timestamp="2009-10-17T23:29:55Z" uid="36809" user="pfoten_weg_!_" changeset="2879001" lat="47.7037803" lon="11.2791013"/>
  <node id="315896722" version="3" timestamp="2009-10-17T23:29:57Z" uid="36809" user="pfoten_weg_!_" changeset="2879001" lat="47.7057696" lon="11.2821843"/>
  <node id="315896722" version="4" timestamp="2011-07-10T15:44:48Z" uid="42478" user="Peter-Hierholzer" changeset="8684904" lat="47.7059279" lon="11.2822361"/>
  <node id="315896727" version="3" timestamp="2009-10-17T23:30:07Z" uid="36809" user="pfoten_weg_!_" changeset="2879001" lat="47.7087563" lon="11.2825276"/>
  <node id="315896727" version="4" timestamp="2011-07-10T15:44:48Z" uid="42478" user="Peter-Hierholzer" changeset="8684904" lat="47.7087563" lon="11.2825652"/>
  <node id="315896730" version="3" timestamp="2009-10-17T23:29:57Z" uid="36809" user="pfoten_weg_!_" changeset="2879001" lat="47.7067849" lon="11.2826348"/>
  <node id="315896734" version="5" timestamp="2009-10-17T23:30:15Z" uid="36809" user="pfoten_weg_!_" changeset="2879001" lat="47.7114237" lon="11.2863739"/>
  <node id="315896737" version="3" timestamp="2009-10-17T23:30:12Z" uid="36809" user="pfoten_weg_!_" changeset="2879001" lat="47.7107918" lon="11.2853804"/>
  <node id="315896740" version="3" timestamp="2009-10-17T23:30:13Z" uid="36809" user="pfoten_weg_!_" changeset="2879001" lat="47.7106075" lon="11.2836513"/>
  <node id="315896745" version="3" timestamp="2009-10-17T23:30:15Z" uid="36809" user="pfoten_weg_!_" changeset="2879001" lat="47.7120118" lon="11.2866706"/>
  <node id="315896745" version="4" timestamp="2009-12-24T19:19:40Z" uid="64756" user="alegria6208" changeset="3444734" lat="47.7120118" lon="11.2866706"/>
  <node id="315896748" version="3" timestamp="2009-10-17T23:30:23Z" uid="36809" user="pfoten_weg_!_" changeset="2879001" lat="47.7138712" lon="11.2874278"/>
  <node id="315896748" version="4" timestamp="2009-12-24T19:19:33Z" uid="64756" user="alegria6208" changeset="3444734" lat="47.7139349" lon="11.2873703"/>
  <node id="315896754" version="3" timestamp="2009-10-17T23:30:24Z" uid="36809" user="pfoten_weg_!_" changeset="2879001" lat="47.7155925" lon="11.2867937"/>
  <node id="315896754" version="4" timestamp="2009-12-24T19:19:41Z" uid="64756" user="alegria6208" changeset="3444734" lat="47.7155925" lon="11.2867937"/>
  <node id="315896760" version="3" timestamp="2009-10-17T23:30:26Z" uid="36809" user="pfoten_weg_!_" changeset="2879001" lat="47.717554" lon="11.2861826"/>
  <node id="315896760" version="4" timestamp="2009-12-24T19:19:34Z" uid="64756" user="alegria6208" changeset="3444734" lat="47.7175813" lon="11.2860947"/>
  <node id="315896760" version="5" timestamp="2010-08-01T19:34:02Z" uid="4957" user="kunkelt" changeset="5374036" lat="47.7175799" lon="11.2860706"/>
  <node id="315896768" version="3" timestamp="2009-10-17T23:30:26Z" uid="36809" user="pfoten_weg_!_" changeset="2879001" lat="47.7174174" lon="11.2868066"/>
  <node id="315896773" version="3" timestamp="2009-10-17T23:30:27Z" uid="36809" user="pfoten_weg_!_" changeset="2879001" lat="47.7179092" lon="11.2872984"/>
  <node id="315896830" version="3" timestamp="2009-10-17T23:30:31Z" uid="36809" user="pfoten_weg_!_" changeset="2879001" lat="47.7224713" lon="11.2870246"/>
  <node id="315896835" version="3" timestamp="2009-10-17T23:30:29Z" uid="36809" user="pfoten_weg_!_" changeset="2879001" lat="47.7217788" lon="11.2862529"/>
  <node id="315896835" version="4" timestamp="2011-07-10T15:44:48Z" uid="42478" user="Peter-Hierholzer" changeset="8684904" lat="47.7218936" lon="11.2861588"/>
  <node id="315896840" version="3" timestamp="2009-10-17T23:30:29Z" uid="36809" user="pfoten_weg_!_" changeset="2879001" lat="47.7217788" lon="11.2867871"/>
  <node id="315896840" version="4" timestamp="2011-07-10T15:44:48Z" uid="42478" user="Peter-Hierholzer" changeset="8684904" lat="47.72185" lon="11.2866871"/>
  <node id="315896844" version="3" timestamp="2009-10-17T23:30:30Z" uid="36809" user="pfoten_weg_!_" changeset="2879001" lat="47.7205916" lon="11.286431"/>
  <node id="315896846" version="3" timestamp="2009-10-17T23:30:30Z" uid="36809" user="pfoten_weg_!_" changeset="2879001" lat="47.7197606" lon="11.2867674"/>
  <node id="315896849" version="3" timestamp="2009-10-17T23:46:52Z" uid="36809" user="pfoten_weg_!_" changeset="2879001" lat="47.7251738" lon="11.2900289"/>
  <node id="315896851" version="3" timestamp="2009-10-17T23:48:53Z" uid="36809" user="pfoten_weg_!_" changeset="2879001" lat="47.7257003" lon="11.2957204"/>
  <node id="315896851" version="4" timestamp="2011-07-10T15:44:48Z" uid="42478" user="Peter-Hierholzer" changeset="8684904" lat="47.7257307" lon="11.2957392"/>
  <node id="315896854" version="3" timestamp="2009-10-17T23:48:54Z" uid="36809" user="pfoten_weg_!_" changeset="2879001" lat="47.7256891" lon="11.2986334"/>
  <node id="315896854" version="4" timestamp="2009-12-24T18:18:03Z" uid="64756" user="alegria6208" changeset="3444377" lat="47.7256891" lon="11.2986334"/>
  <node id="315896856" version="3" timestamp="2009-10-17T23:47:12Z" uid="36809" user="pfoten_weg_!_" changeset="2879001" lat="47.7283668" lon="11.2917991"/>
  <node id="315896856" version="4" timestamp="2011-07-10T15:44:48Z" uid="42478" user="Peter-Hierholzer" changeset="8684904" lat="47.7283668" lon="11.2917088"/>
  <node id="315896859" version="3" timestamp="2009-10-17T23:48:56Z" uid="36809" user="pfoten_weg_!_" changeset="2879001" lat="47.7280867" lon="11.2948577"/>
  <node id="315896859" version="4" timestamp="2011-07-10T15:44:48Z" uid="42478" user="Peter-Hierholzer" changeset="8684904" lat="47.7280386" lon="11.2947184"/>
  <node id="315896861" version="3" timestamp="2009-10-17T23:48:57Z" uid="36809" user="pfoten_weg_!_" changeset="2879001" lat="47.7279523" lon="11.2966503"/>
  <node id="315896861" version="4" timestamp="2011-07-10T15:44:48Z" uid="42478" user="Peter-Hierholzer" changeset="8684904" lat="47.7278637" lon="11.2967933"/>
  <node id="315896863" version="3" timestamp="2009-10-17T23:48:56Z" uid="36809" user="pfoten_weg_!_" changeset="2879001" lat="47.7281764" lon="11.2960005"/>
  <node id="315896863" version="4" timestamp="2011-07-10T15:44:48Z" uid="42478" user="Peter-Hierholzer" changeset="8684904" lat="47.7281156" lon="11.2958499"/>
  <node id="315896866" version="3" timestamp="2009-10-17T23:48:58Z" uid="36809" user="pfoten_weg_!_" changeset="2879001" lat="47.7284789" lon="11.2971993"/>
  <node id="315896866" version="4" timestamp="2011-07-10T15:44:48Z" uid="42478" user="Peter-Hierholzer" changeset="8684904" lat="47.7283928" lon="11.2973499"/>
  <node id="315896869" version="3" timestamp="2009-10-17T23:49:00Z" uid="36809" user="pfoten_weg_!_" changeset="2879001" lat="47.7247816" lon="11.302958"/>
  <node id="315896869" version="4" timestamp="2011-07-10T15:44:48Z" uid="42478" user="Peter-Hierholzer" changeset="8684904" lat="47.7248348" lon="11.3029128"/>
  <node id="315896871" version="3" timestamp="2009-10-17T23:31:14Z" uid="36809" user="pfoten_weg_!_" changeset="2879001" lat="47.7218575" lon="11.305983"/>
  <node id="315896871" version="4" timestamp="2011-07-10T15:44:48Z" uid="42478" user="Peter-Hierholzer" changeset="8684904" lat="47.7218448" lon="11.3066794"/>
  <node id="315896873" version="3" timestamp="2009-10-17T23:31:16Z" uid="36809" user="pfoten_weg_!_" changeset="2879001" lat="47.7232691" lon="11.3115849"/>
  <node id="315896876" version="3" timestamp="2009-10-17T23:31:17Z" uid="36809" user="pfoten_weg_!_" changeset="2879001" lat="47.722384" lon="11.3136576"/>
  <node id="315896876" version="4" timestamp="2011-07-10T15:44:48Z" uid="42478" user="Peter-Hierholzer" changeset="8684904" lat="47.7224552" lon="11.3136047"/>
  <node id="315896878" version="3" timestamp="2009-10-17T23:31:16Z" uid="36809" user="pfoten_weg_!_" changeset="2879001" lat="47.721779" lon="11.3130974"/>
  <node id="315896881" version="3" timestamp="2009-10-17T23:31:43Z" uid="36809" user="pfoten_weg_!_" changeset="2879001" lat="47.7208715" lon="11.3159431"/>
  <node id="315896881" version="4" timestamp="2011-07-10T15:44:48Z" uid="42478" user="Peter-Hierholzer" changeset="8684904" lat="47.7208596" lon="11.3155843"/>
  <node id="315896883" version="3" timestamp="2009-10-17T23:31:43Z" uid="36809" user="pfoten_weg_!_" changeset="2879001" lat="47.7209388" lon="11.3164809"/>
  <node id="315896883" version="4" timestamp="2011-07-10T15:44:49Z" uid="42478" user="Peter-Hierholzer" changeset="8684904" lat="47.720828" lon="11.3166221"/>
  <node id="315896887" version="3" timestamp="2009-10-17T23:31:41Z" uid="36809" user="pfoten_weg_!_" changeset="2879001" lat="47.7189893" lon="11.3214217"/>
  <node id="315896887" version="4" timestamp="2011-07-10T15:44:49Z" uid="42478" user="Peter-Hierholzer" changeset="8684904" lat="47.7190805" lon="11.3213539"/>
  <node id="315896890" version="3" timestamp="2009-10-17T23:31:41Z" uid="36809" user="pfoten_weg_!_" changeset="2879001" lat="47.718642" lon="11.3230687"/>
  <node id="315896890" version="4" timestamp="2011-07-10T15:44:49Z" uid="42478" user="Peter-Hierholzer" changeset="8684904" lat="47.7186699" lon="11.3229934"/>
  <node id="315896892" version="3" timestamp="2009-10-17T23:31:41Z" uid="36809" user="pfoten_weg_!_" changeset="2879001" lat="47.7152809" lon="11.3254103"/>
  <node id="315897464" version="3" timestamp="2009-10-02T19:45:08Z" uid="86259" user="hasse_osm_korinthenkacker" changeset="2716821" lat="47.8956795" lon="11.6655192">
    <tag k="addr:city" v="Otterfing"/>
    <tag k="addr:country" v="DE"/>
    <tag k="addr:housenumber" v="11"/>
    <tag k="addr:postcode" v="83624"/>
    <tag k="addr:street" v="Gambsweg"/>
  </node>
  <node id="315897464" version="4" timestamp="2009-11-07T14:18:27Z" uid="42393" user="mawi42" changeset="3055826" lat="47.8956537" lon="11.6655738">
    <tag k="addr:city" v="Otterfing"/>
    <tag k="addr:country" v="DE"/>
    <tag k="addr:housenumber" v="11"/>
    <tag k="addr:postcode" v="83624"/>
    <tag k="addr:street" v="Gambsweg"/>
  </node>
  <node id="315897780" version="3" timestamp="2009-10-02T19:45:08Z" uid="86259" user="hasse_osm_korinthenkacker" changeset="2716821" lat="47.8956853" lon="11.6657681">
    <tag k="addr:city" v="Otterfing"/>
    <tag k="addr:country" v="DE"/>
    <tag k="addr:housenumber" v="13"/>
    <tag k="addr:postcode" v="83624"/>
    <tag k="addr:street" v="Gambsweg"/>
  </node>
  <node id="315897780" version="4" timestamp="2009-11-07T14:18:26Z" uid="42393" user="mawi42" changeset="3055826" lat="47.8956249" lon="11.6658313">
    <tag k="addr:city" v="Otterfing"/>
    <tag k="addr:country" v="DE"/>
    <tag k="addr:housenumber" v="13"/>
    <tag k="addr:postcode" v="83624"/>
    <tag k="addr:street" v="Gambsweg"/>
  </node>
  <node id="315898049" version="3" timestamp="2009-10-02T19:45:08Z" uid="86259" user="hasse_osm_korinthenkacker" changeset="2716821" lat="47.8956853" lon="11.6660084">
    <tag k="addr:city" v="Otterfing"/>
    <tag k="addr:country" v="DE"/>
    <tag k="addr:housenumber" v="15"/>
    <tag k="addr:postcode" v="83624"/>
    <tag k="addr:street" v="Gambsweg"/>
  </node>
  <node id="315898049" version="4" timestamp="2009-11-07T14:18:26Z" uid="42393" user="mawi42" changeset="3055826" lat="47.8956422" lon="11.6661488">
    <tag k="addr:city" v="Otterfing"/>
    <tag k="addr:country" v="DE"/>
    <tag k="addr:housenumber" v="15"/>
    <tag k="addr:postcode" v="83624"/>
    <tag k="addr:street" v="Gambsweg"/>
  </node>
  <node id="315898238" version="4" timestamp="2009-10-02T19:45:08Z" uid="86259" user="hasse_osm_korinthenkacker" changeset="2716821" lat="47.8961996" lon="11.6657975">
    <tag k="addr:city" v="Otterfing"/>
    <tag k="addr:country" v="DE"/>
    <tag k="addr:housenumber" v="3"/>
    <tag k="addr:postcode" v="83624"/>
    <tag k="addr:street" v="Gambsweg"/>
  </node>
  <node id="315898241" version="4" timestamp="2009-10-02T19:45:07Z" uid="86259" user="hasse_osm_korinthenkacker" changeset="2716821" lat="47.896186" lon="11.6653733">
    <tag k="addr:city" v="Otterfing"/>
    <tag k="addr:country" v="DE"/>
    <tag k="addr:housenumber" v="4"/>
    <tag k="addr:postcode" v="83624"/>
    <tag k="addr:street" v="Gambsweg"/>
  </node>
  <node id="315898241" version="5" timestamp="2009-11-07T14:18:26Z" uid="42393" user="mawi42" changeset="3055826" lat="47.8961947" lon="11.6654279">
    <tag k="addr:city" v="Otterfing"/>
    <tag k="addr:country" v="DE"/>
    <tag k="addr:housenumber" v="4"/>
    <tag k="addr:postcode" v="83624"/>
    <tag k="addr:street" v="Gambsweg"/>
  </node>
  <node id="315898464" version="5" timestamp="2009-10-02T19:45:08Z" uid="86259" user="hasse_osm_korinthenkacker" changeset="2716821" lat="47.8959407" lon="11.6660379">
    <tag k="addr:city" v="Otterfing"/>
    <tag k="addr:country" v="DE"/>
    <tag k="addr:housenumber" v="7"/>
    <tag k="addr:postcode" v="83624"/>
    <tag k="addr:street" v="Gambsweg"/>
  </node>
  <node id="315899402" version="5" timestamp="2009-10-02T19:45:06Z" uid="86259" user="hasse_osm_korinthenkacker" changeset="2716821" lat="47.8962435" lon="11.6628756">
    <tag k="addr:city" v="Otterfing"/>
    <tag k="addr:country" v="DE"/>
    <tag k="addr:housenumber" v="2"/>
    <tag k="addr:postcode" v="83624"/>
    <tag k="addr:street" v="Prüglweg"/>
  </node>
  <node id="315899402" version="6" timestamp="2009-11-07T13:50:03Z" uid="42393" user="mawi42" changeset="3055826" lat="47.896281" lon="11.6626899">
    <tag k="addr:city" v="Otterfing"/>
    <tag k="addr:country" v="DE"/>
    <tag k="addr:housenumber" v="2"/>
    <tag k="addr:postcode" v="83624"/>
    <tag k="addr:street" v="Prüglweg"/>
  </node>
  <node id="315899402" version="7" timestamp="2010-12-02T08:26:02Z" uid="42393" user="mawi42" changeset="6512104" lat="47.8962848" lon="11.6627085">
    <tag k="addr:city" v="Otterfing"/>
    <tag k="addr:country" v="DE"/>
    <tag k="addr:housenumber" v="2"/>
    <tag k="addr:postcode" v="83624"/>
    <tag k="addr:street" v="Prüglweg"/>
  </node>
  <node id="315899499" version="4" timestamp="2009-10-02T19:45:06Z" uid="86259" user="hasse_osm_korinthenkacker" changeset="2716821" lat="47.8960018" lon="11.6630902">
    <tag k="addr:city" v="Otterfing"/>
    <tag k="addr:country" v="DE"/>
    <tag k="addr:housenumber" v="3"/>
    <tag k="addr:postcode" v="83624"/>
    <tag k="addr:street" v="Prüglweg"/>
  </node>
  <node id="315899499" version="5" timestamp="2009-11-07T13:50:52Z" uid="42393" user="mawi42" changeset="3055826" lat="47.8958782" lon="11.6632735">
    <tag k="addr:city" v="Otterfing"/>
    <tag k="addr:country" v="DE"/>
    <tag k="addr:housenumber" v="3"/>
    <tag k="addr:postcode" v="83624"/>
    <tag k="addr:street" v="Prüglweg"/>
  </node>
  <node id="315899638" version="5" timestamp="2009-10-02T19:45:06Z" uid="86259" user="hasse_osm_korinthenkacker" changeset="2716821" lat="47.8962435" lon="11.6627726">
    <tag k="addr:city" v="Otterfing"/>
    <tag k="addr:country" v="DE"/>
    <tag k="addr:housenumber" v="4"/>
    <tag k="addr:postcode" v="83624"/>
    <tag k="addr:street" v="Prüglweg"/>
  </node>
  <node id="315899638" version="6" timestamp="2009-11-07T13:50:02Z" uid="42393" user="mawi42" changeset="3055826" lat="47.896281" lon="11.662604">
    <tag k="addr:city" v="Otterfing"/>
    <tag k="addr:country" v="DE"/>
    <tag k="addr:housenumber" v="4"/>
    <tag k="addr:postcode" v="83624"/>
    <tag k="addr:street" v="Prüglweg"/>
  </node>
  <node id="315899638" version="7" timestamp="2010-12-02T08:26:02Z" uid="42393" user="mawi42" changeset="6512104" lat="47.8962839" lon="11.6625885">
    <tag k="addr:city" v="Otterfing"/>
    <tag k="addr:country" v="DE"/>
    <tag k="addr:housenumber" v="4"/>
    <tag k="addr:postcode" v="83624"/>
    <tag k="addr:street" v="Prüglweg"/>
  </node>
  <node id="315899954" version="4" timestamp="2009-10-02T19:45:05Z" uid="86259" user="hasse_osm_korinthenkacker" changeset="2716821" lat="47.8957659" lon="11.6633047">
    <tag k="addr:city" v="Otterfing"/>
    <tag k="addr:country" v="DE"/>
    <tag k="addr:housenumber" v="5"/>
    <tag k="addr:postcode" v="83624"/>
    <tag k="addr:street" v="Prüglweg"/>
  </node>
  <node id="315899954" version="5" timestamp="2009-11-07T13:50:52Z" uid="42393" user="mawi42" changeset="3055826" lat="47.8952509" lon="11.6637885">
    <tag k="addr:city" v="Otterfing"/>
    <tag k="addr:country" v="DE"/>
    <tag k="addr:housenumber" v="5"/>
    <tag k="addr:postcode" v="83624"/>
    <tag k="addr:street" v="Prüglweg"/>
  </node>
</osm>
