<?xml version='1.0' encoding='UTF-8'?>
<osm version="0.6" generator="libosmium/2.20.0">
  <node id="315960782" version="5" timestamp="2009-10-02T19:45:39Z" uid="86259" user="hasse_osm_korinthenkacker" changeset="2716821" lat="47.889885" lon="11.6822236">
    <tag k="addr:city" v="Holzkirchen"/>
    <tag k="addr:country" v="DE"/>
    <tag k="addr:housenumber" v="2a"/>
    <tag k="addr:postcode" v="83607"/>
    <tag k="addr:street" v="Inselkam"/>
  </node>
  <node id="315960813" version="5" timestamp="2009-10-02T19:45:33Z" uid="86259" user="hasse_osm_korinthenkacker" changeset="2716821" lat="47.8881486" lon="11.6850172">
    <tag k="addr:city" v="Holzkirchen"/>
    <tag k="addr:country" v="DE"/>
    <tag k="addr:housenumber" v="1"/>
    <tag k="addr:postcode" v="83607"/>
    <tag k="addr:street" v="Maitz"/>
  </node>
  <node id="315961051" version="5" timestamp="2009-10-02T19:45:33Z" uid="86259" user="hasse_osm_korinthenkacker" changeset="2716821" lat="47.8876306" lon="11.6849142">
    <tag k="addr:city" v="Holzkirchen"/>
    <tag k="addr:country" v="DE"/>
    <tag k="addr:housenumber" v="2"/>
    <tag k="addr:postcode" v="83607"/>
    <tag k="addr:street" v="Maitz"/>
  </node>
  <node id="315962518" version="3" timestamp="2011-04-22T23:46:18Z" uid="16922" user="amai" changeset="7939645" lat="49.9036069" lon="8.8400113"/>
  <node id="315962518" version="4" timestamp="2012-02-11T23:42:14Z" uid="131968" user="changchun_1" changeset="10658694" lat="49.9036069" lon="8.8400113"/>
  <node id="315962520" version="3" timestamp="2011-04-22T23:46:18Z" uid="16922" user="amai" changeset="7939645" lat="49.903478" lon="8.8399909"/>
  <node id="315962520" version="4" timestamp="2012-02-11T23:42:14Z" uid="131968" user="changchun_1" changeset="10658694" lat="49.903478" lon="8.8399909"/>
  <node id="315962538" version="4" timestamp="2009-10-02T19:45:39Z" uid="86259" user="hasse_osm_korinthenkacker" changeset="2716821" lat="47.891255" lon="11.6815724">
    <tag k="addr:city" v="Holzkirchen"/>
    <tag k="addr:country" v="DE"/>
    <tag k="addr:housenumber" v="1"/>
    <tag k="addr:postcode" v="83607"/>
    <tag k="addr:street" v="Teufelsgraben"/>
  </node>
  <node id="315962812" version="4" timestamp="2009-10-02T19:45:39Z" uid="86259" user="hasse_osm_korinthenkacker" changeset="2716821" lat="47.8915716" lon="11.6813406">
    <tag k="addr:city" v="Holzkirchen"/>
    <tag k="addr:country" v="DE"/>
    <tag k="addr:housenumber" v="2"/>
    <tag k="addr:postcode" v="83607"/>
    <tag k="addr:street" v="Teufelsgraben"/>
  </node>
  <node id="315962812" version="5" timestamp="2011-02-07T15:28:39Z" uid="42393" user="mawi42" changeset="7217142" lat="47.8915932" lon="11.6812564">
    <tag k="addr:city" v="Holzkirchen"/>
    <tag k="addr:country" v="DE"/>
    <tag k="addr:housenumber" v="2"/>
    <tag k="addr:postcode" v="83607"/>
    <tag k="addr:street" v="Teufelsgraben"/>
  </node>
  <node id="315963182" version="4" timestamp="2009-10-02T19:45:39Z" uid="86259" user="hasse_osm_korinthenkacker" changeset="2716821" lat="47.8917903" lon="11.6809287">
    <tag k="addr:city" v="Holzkirchen"/>
    <tag k="addr:country" v="DE"/>
    <tag k="addr:housenumber" v="3"/>
    <tag k="addr:postcode" v="83607"/>
    <tag k="addr:street" v="Teufelsgraben"/>
  </node>
  <node id="315963299" version="3" timestamp="2009-10-02T19:45:39Z" uid="86259" user="hasse_osm_korinthenkacker" changeset="2716821" lat="47.8919572" lon="11.6806025">
    <tag k="addr:city" v="Holzkirchen"/>
    <tag k="addr:country" v="DE"/>
    <tag k="addr:housenumber" v="4"/>
    <tag k="addr:postcode" v="83607"/>
    <tag k="addr:street" v="Teufelsgraben"/>
  </node>
  <node id="315963299" version="4" timestamp="2011-02-07T15:19:48Z" uid="42393" user="mawi42" changeset="7217142" lat="47.8918881" lon="11.6806556">
    <tag k="addr:city" v="Holzkirchen"/>
    <tag k="addr:country" v="DE"/>
    <tag k="addr:housenumber" v="4"/>
    <tag k="addr:postcode" v="83607"/>
    <tag k="addr:street" v="Teufelsgraben"/>
  </node>
  <node id="315963299" version="5" timestamp="2011-02-07T15:28:39Z" uid="42393" user="mawi42" changeset="7217142" lat="47.8918852" lon="11.6806364">
    <tag k="addr:city" v="Holzkirchen"/>
    <tag k="addr:country" v="DE"/>
    <tag k="addr:housenumber" v="4"/>
    <tag k="addr:postcode" v="83607"/>
    <tag k="addr:street" v="Teufelsgraben"/>
  </node>
  <node id="315963395" version="3" timestamp="2009-10-02T19:45:39Z" uid="86259" user="hasse_osm_korinthenkacker" changeset="2716821" lat="47.892078" lon="11.6809287">
    <tag k="addr:city" v="Holzkirchen"/>
    <tag k="addr:country" v="DE"/>
    <tag k="addr:housenumber" v="5"/>
    <tag k="addr:postcode" v="83607"/>
    <tag k="addr:street" v="Teufelsgraben"/>
  </node>
  <node id="315963395" version="4" timestamp="2011-02-07T15:28:38Z" uid="42393" user="mawi42" changeset="7217142" lat="47.8919892" lon="11.6811165">
    <tag k="addr:city" v="Holzkirchen"/>
    <tag k="addr:country" v="DE"/>
    <tag k="addr:housenumber" v="5"/>
    <tag k="addr:postcode" v="83607"/>
    <tag k="addr:street" v="Teufelsgraben"/>
  </node>
  <node id="315963739" version="2" timestamp="2010-06-29T19:01:34Z" uid="74617" user="JohnSmith" changeset="5108182" lat="55.6614024" lon="38.0395987">
    <tag k="fixme" v="sport=football is ambiguous, see http://wiki.osm.org/wiki/Football for more details"/>
    <tag k="sport" v="football"/>
  </node>
  <node id="315963739" version="3" timestamp="2011-09-01T07:41:44Z" uid="397326" user="trolleway" changeset="9181984" lat="55.6614024" lon="38.0395987"/>
  <node id="315963765" version="3" timestamp="2009-10-02T19:45:40Z" uid="86259" user="hasse_osm_korinthenkacker" changeset="2716821" lat="47.8919054" lon="11.6812291">
    <tag k="addr:city" v="Holzkirchen"/>
    <tag k="addr:country" v="DE"/>
    <tag k="addr:housenumber" v="6"/>
    <tag k="addr:postcode" v="83607"/>
    <tag k="addr:street" v="Teufelsgraben"/>
  </node>
  <node id="315963765" version="4" timestamp="2011-02-07T15:28:40Z" uid="42393" user="mawi42" changeset="7217142" lat="47.8918162" lon="11.6813096">
    <tag k="addr:city" v="Holzkirchen"/>
    <tag k="addr:country" v="DE"/>
    <tag k="addr:housenumber" v="6"/>
    <tag k="addr:postcode" v="83607"/>
    <tag k="addr:street" v="Teufelsgraben"/>
  </node>
  <node id="315967100" version="5" timestamp="2009-10-02T19:45:37Z" uid="86259" user="hasse_osm_korinthenkacker" changeset="2716821" lat="47.8968404" lon="11.6761898">
    <tag k="addr:city" v="Otterfing"/>
    <tag k="addr:country" v="DE"/>
    <tag k="addr:housenumber" v="96r"/>
    <tag k="addr:postcode" v="83624"/>
    <tag k="addr:street" v="Tegernseer Straße"/>
  </node>
  <node id="315967209" version="5" timestamp="2009-10-02T19:45:38Z" uid="86259" user="hasse_osm_korinthenkacker" changeset="2716821" lat="47.8976457" lon="11.6764131">
    <tag k="addr:city" v="Otterfing"/>
    <tag k="addr:country" v="DE"/>
    <tag k="addr:housenumber" v="92"/>
    <tag k="addr:postcode" v="83624"/>
    <tag k="addr:street" v="Tegernseer Straße"/>
  </node>
  <node id="315967472" version="1" timestamp="2008-11-30T22:15:52Z" uid="36809" user="pfoten_weg_!_" changeset="815286" lat="48.0161242" lon="11.4774683"/>
  <node id="315967472" version="2" timestamp="2008-11-30T22:16:40Z" uid="36809" user="pfoten_weg_!_" changeset="815286" lat="48.0161233" lon="11.4774688"/>
  <node id="315967472" version="3" timestamp="2009-10-14T00:00:35Z" uid="36809" user="pfoten_weg_!_" changeset="2841349" lat="48.0161233" lon="11.4774688"/>
  <node id="315967474" version="1" timestamp="2008-11-30T22:15:52Z" uid="36809" user="pfoten_weg_!_" changeset="815286" lat="48.015817" lon="11.4770683"/>
  <node id="315967474" version="2" timestamp="2009-10-14T00:00:35Z" uid="36809" user="pfoten_weg_!_" changeset="2841349" lat="48.015817" lon="11.4770683"/>
  <node id="315967475" version="1" timestamp="2008-11-30T22:15:52Z" uid="36809" user="pfoten_weg_!_" changeset="815286" lat="48.0158558" lon="11.4758734"/>
  <node id="315967475" version="2" timestamp="2009-10-14T00:00:39Z" uid="36809" user="pfoten_weg_!_" changeset="2841349" lat="48.0158558" lon="11.4758734"/>
  <node id="315967476" version="1" timestamp="2008-11-30T22:15:52Z" uid="36809" user="pfoten_weg_!_" changeset="815286" lat="48.0158405" lon="11.4774461"/>
  <node id="315967476" version="2" timestamp="2008-11-30T22:16:40Z" uid="36809" user="pfoten_weg_!_" changeset="815286" lat="48.0158397" lon="11.4774454"/>
  <node id="315967476" version="3" timestamp="2009-10-14T00:00:35Z" uid="36809" user="pfoten_weg_!_" changeset="2841349" lat="48.0158397" lon="11.4774454"/>
  <node id="315967477" version="1" timestamp="2008-11-30T22:15:52Z" uid="36809" user="pfoten_weg_!_" changeset="815286" lat="48.0161699" lon="11.4756312"/>
  <node id="315967477" version="2" timestamp="2009-10-14T00:00:38Z" uid="36809" user="pfoten_weg_!_" changeset="2841349" lat="48.0161699" lon="11.4756312"/>
  <node id="315967478" version="1" timestamp="2008-11-30T22:15:53Z" uid="36809" user="pfoten_weg_!_" changeset="815286" lat="48.0158023" lon="11.4759905"/>
  <node id="315967478" version="2" timestamp="2009-10-14T00:00:37Z" uid="36809" user="pfoten_weg_!_" changeset="2841349" lat="48.0158023" lon="11.4759905"/>
  <node id="315967479" version="1" timestamp="2008-11-30T22:15:53Z" uid="36809" user="pfoten_weg_!_" changeset="815286" lat="48.0158712" lon="11.4765694"/>
  <node id="315967479" version="2" timestamp="2008-11-30T22:16:41Z" uid="36809" user="pfoten_weg_!_" changeset="815286" lat="48.0158721" lon="11.4765689"/>
  <node id="315967479" version="3" timestamp="2009-10-14T00:00:37Z" uid="36809" user="pfoten_weg_!_" changeset="2841349" lat="48.0158721" lon="11.4765689"/>
  <node id="315967480" version="1" timestamp="2008-11-30T22:15:53Z" uid="36809" user="pfoten_weg_!_" changeset="815286" lat="48.0158398" lon="11.4764853"/>
  <node id="315967480" version="2" timestamp="2009-10-14T00:00:37Z" uid="36809" user="pfoten_weg_!_" changeset="2841349" lat="48.0158398" lon="11.4764853"/>
  <node id="315967481" version="1" timestamp="2008-11-30T22:15:53Z" uid="36809" user="pfoten_weg_!_" changeset="815286" lat="48.0161561" lon="11.4755899"/>
  <node id="315967481" version="2" timestamp="2009-10-14T00:00:38Z" uid="36809" user="pfoten_weg_!_" changeset="2841349" lat="48.0161561" lon="11.4755899"/>
  <node id="315967482" version="1" timestamp="2008-11-30T22:15:53Z" uid="36809" user="pfoten_weg_!_" changeset="815286" lat="48.016232" lon="11.4765186"/>
  <node id="315967482" version="2" timestamp="2009-10-14T00:00:36Z" uid="36809" user="pfoten_weg_!_" changeset="2841349" lat="48.016232" lon="11.4765186"/>
  <node id="315967483" version="1" timestamp="2008-11-30T22:15:54Z" uid="36809" user="pfoten_weg_!_" changeset="815286" lat="48.0157644" lon="11.4770629"/>
  <node id="315967483" version="2" timestamp="2009-10-14T00:00:36Z" uid="36809" user="pfoten_weg_!_" changeset="2841349" lat="48.0157644" lon="11.4770629"/>
  <node id="315967484" version="1" timestamp="2008-11-30T22:15:54Z" uid="36809" user="pfoten_weg_!_" changeset="815286" lat="48.0162595" lon="11.4756345"/>
  <node id="315967484" version="2" timestamp="2009-04-01T01:36:44Z" uid="36809" user="pfoten_weg_!_" changeset="12397" lat="48.0162686" lon="11.4756363"/>
  <node id="315967484" version="3" timestamp="2009-10-14T00:00:37Z" uid="36809" user="pfoten_weg_!_" changeset="2841349" lat="48.0162686" lon="11.4756363"/>
  <node id="315967485" version="1" timestamp="2008-11-30T22:15:54Z" uid="36809" user="pfoten_weg_!_" changeset="815286" lat="48.015995" lon="11.4770111">
    <tag k="created_by" v="RambaZamba"/>
    <tag k="name" v="Aldi"/>
    <tag k="shop" v="supermarket"/>
    <tag k="source" v="survey"/>
  </node>
  <node id="315967485" version="2" timestamp="2009-08-12T13:35:41Z" uid="156995" user="HampelZamba" changeset="2118817" lat="48.015995" lon="11.4770111">
    <tag k="name" v="Aldi"/>
    <tag k="shop" v="supermarket"/>
    <tag k="source" v="survey"/>
  </node>
  <node id="315967485" version="3" timestamp="2009-08-19T13:05:30Z" uid="36809" user="pfoten_weg_!_" changeset="2201154" lat="48.015995" lon="11.4770111">
    <tag k="name" v="Aldi"/>
    <tag k="shop" v="supermarket"/>
    <tag k="source" v="survey at RambaZamba"/>
  </node>
  <node id="315967485" version="4" timestamp="2009-08-28T19:41:26Z" uid="156995" user="HampelZamba" changeset="2294580" lat="48.015995" lon="11.4770111">
    <tag k="name" v="Aldi"/>
    <tag k="shop" v="supermarket"/>
  </node>
  <node id="315967485" version="5" timestamp="2009-08-28T21:27:37Z" uid="36809" user="pfoten_weg_!_" changeset="2295609" lat="48.015995" lon="11.4770111">
    <tag k="discovered_by" v="RambaZamba"/>
    <tag k="name" v="Aldi"/>
    <tag k="shop" v="supermarket"/>
    <tag k="source" v="survey"/>
  </node>
  <node id="315967485" version="6" timestamp="2009-08-30T04:54:31Z" uid="156995" user="HampelZamba" changeset="2308696" lat="48.015995" lon="11.4770111">
    <tag k="name" v="Aldi"/>
    <tag k="shop" v="supermarket"/>
    <tag k="source" v="survey"/>
  </node>
  <node id="315967485" version="7" timestamp="2009-08-31T17:40:18Z" uid="36809" user="pfoten_weg_!_" changeset="2328905" lat="48.015995" lon="11.4770111">
    <tag k="name" v="Aldi"/>
    <tag k="shop" v="supermarket"/>
    <tag k="source" v="survey"/>
  </node>
  <node id="315967485" version="8" timestamp="2009-10-11T23:33:03Z" uid="36809" user="pfoten_weg_!_" changeset="2821194" lat="48.015995" lon="11.4770111">
    <tag k="name" v="Aldi"/>
    <tag k="shop" v="supermarket"/>
  </node>
  <node id="315967485" version="9" timestamp="2011-07-09T17:23:21Z" uid="179033" user="Radeln" changeset="8676485" lat="48.015995" lon="11.4770111"/>
  <node id="315967486" version="1" timestamp="2008-11-30T22:15:54Z" uid="36809" user="pfoten_weg_!_" changeset="815286" lat="48.0161548" lon="11.4765916"/>
  <node id="315967486" version="2" timestamp="2008-11-30T22:16:41Z" uid="36809" user="pfoten_weg_!_" changeset="815286" lat="48.0161556" lon="11.4765923"/>
  <node id="315967486" version="3" timestamp="2009-10-14T00:00:36Z" uid="36809" user="pfoten_weg_!_" changeset="2841349" lat="48.0161556" lon="11.4765923"/>
  <node id="315967487" version="1" timestamp="2008-11-30T22:15:54Z" uid="36809" user="pfoten_weg_!_" changeset="815286" lat="48.0159883" lon="11.4757218"/>
  <node id="315967487" version="2" timestamp="2009-10-14T00:00:39Z" uid="36809" user="pfoten_weg_!_" changeset="2841349" lat="48.0159883" lon="11.4757218"/>
  <node id="315967589" version="6" timestamp="2009-10-02T19:45:38Z" uid="86259" user="hasse_osm_korinthenkacker" changeset="2716821" lat="47.8988599" lon="11.6775032">
    <tag k="addr:city" v="Otterfing"/>
    <tag k="addr:country" v="DE"/>
    <tag k="addr:housenumber" v="75"/>
    <tag k="addr:postcode" v="83624"/>
    <tag k="addr:street" v="Tegernseer Straße"/>
  </node>
  <node id="315968285" version="2" timestamp="2011-02-22T21:37:42Z" uid="20587" user="balrog-kun" changeset="7366074" lat="52.3048087" lon="21.0511122"/>
  <node id="315968285" version="3" timestamp="2011-04-15T00:29:06Z" uid="165509" user="koszatek" changeset="7866135" lat="52.3048087" lon="21.0511122"/>
  <node id="315968288" version="2" timestamp="2011-02-22T21:37:47Z" uid="20587" user="balrog-kun" changeset="7366074" lat="52.3049122" lon="21.0512655"/>
  <node id="315968288" version="3" timestamp="2011-04-15T00:29:06Z" uid="165509" user="koszatek" changeset="7866135" lat="52.3049122" lon="21.0512655"/>
  <node id="315968299" version="6" timestamp="2009-10-02T19:45:37Z" uid="86259" user="hasse_osm_korinthenkacker" changeset="2716821" lat="47.8970303" lon="11.677297">
    <tag k="addr:city" v="Otterfing"/>
    <tag k="addr:country" v="DE"/>
    <tag k="addr:housenumber" v="87"/>
    <tag k="addr:street" v="Tegernseer Straße"/>
  </node>
  <node id="315968372" version="1" timestamp="2008-11-30T22:18:46Z" uid="36809" user="pfoten_weg_!_" changeset="815286" lat="48.0194916" lon="11.4804584"/>
  <node id="315968372" version="2" timestamp="2009-03-29T21:19:44Z" uid="36809" user="pfoten_weg_!_" changeset="869093" lat="48.0194916" lon="11.4804584"/>
  <node id="315968374" version="1" timestamp="2008-11-30T22:18:46Z" uid="36809" user="pfoten_weg_!_" changeset="815286" lat="48.0194992" lon="11.480458"/>
  <node id="315968374" version="2" timestamp="2009-03-30T00:40:44Z" uid="36809" user="pfoten_weg_!_" changeset="869093" lat="48.0194992" lon="11.480458">
    <tag k="created_by" v="RambaZamba"/>
    <tag k="source" v="survey"/>
  </node>
  <node id="315968374" version="3" timestamp="2009-07-09T18:26:34Z" uid="36809" user="pfoten_weg_!_" changeset="1783173" lat="48.0195189" lon="11.480424">
    <tag k="source" v="survey"/>
  </node>
  <node id="315968374" version="4" timestamp="2009-10-02T17:31:29Z" uid="86259" user="hasse_osm_korinthenkacker" changeset="2715119" lat="48.0195189" lon="11.480424"/>
  <node id="315968374" version="5" timestamp="2011-09-18T09:08:40Z" uid="163280" user="xxlbiker" changeset="9330450" lat="48.0195189" lon="11.480424"/>
  <node id="315968376" version="1" timestamp="2008-11-30T22:18:46Z" uid="36809" user="pfoten_weg_!_" changeset="815286" lat="48.0195182" lon="11.4804962"/>
  <node id="315968376" version="2" timestamp="2009-03-30T00:40:45Z" uid="36809" user="pfoten_weg_!_" changeset="869093" lat="48.0195182" lon="11.4804962">
    <tag k="created_by" v="RambaZamba"/>
    <tag k="source" v="survey"/>
  </node>
  <node id="315968376" version="3" timestamp="2009-07-09T18:26:34Z" uid="36809" user="pfoten_weg_!_" changeset="1783173" lat="48.0195477" lon="11.4804971">
    <tag k="source" v="survey"/>
  </node>
  <node id="315968376" version="4" timestamp="2009-10-02T17:31:29Z" uid="86259" user="hasse_osm_korinthenkacker" changeset="2715119" lat="48.0195477" lon="11.4804971"/>
  <node id="315968376" version="5" timestamp="2011-09-18T09:08:40Z" uid="163280" user="xxlbiker" changeset="9330450" lat="48.0195477" lon="11.4804971"/>
  <node id="315968489" version="7" timestamp="2009-10-02T19:45:38Z" uid="86259" user="hasse_osm_korinthenkacker" changeset="2716821" lat="47.8971396" lon="11.6776489">
    <tag k="addr:city" v="Otterfing"/>
    <tag k="addr:country" v="DE"/>
    <tag k="addr:housenumber" v="85"/>
    <tag k="addr:street" v="Tegernseer Straße"/>
  </node>
  <node id="315968489" version="8" timestamp="2009-11-14T11:11:33Z" uid="42393" user="mawi42" changeset="3111876" lat="47.8971305" lon="11.6776792">
    <tag k="addr:city" v="Otterfing"/>
    <tag k="addr:country" v="DE"/>
    <tag k="addr:housenumber" v="85"/>
    <tag k="addr:street" v="Tegernseer Straße"/>
  </node>
  <node id="315968489" version="9" timestamp="2012-02-18T10:01:02Z" uid="42393" user="mawi42" changeset="10718263" lat="47.8971354" lon="11.6776473">
    <tag k="addr:city" v="Otterfing"/>
    <tag k="addr:country" v="DE"/>
    <tag k="addr:housenumber" v="85"/>
    <tag k="addr:street" v="Tegernseer Straße"/>
  </node>
  <node id="315968617" version="6" timestamp="2009-10-02T19:45:37Z" uid="86259" user="hasse_osm_korinthenkacker" changeset="2716821" lat="47.8974791" lon="11.6773914">
    <tag k="addr:city" v="Otterfing"/>
    <tag k="addr:country" v="DE"/>
    <tag k="addr:housenumber" v="83"/>
    <tag k="addr:street" v="Tegernseer Straße"/>
  </node>
  <node id="315969283" version="5" timestamp="2009-10-02T19:47:51Z" uid="86259" user="hasse_osm_korinthenkacker" changeset="2716821" lat="47.9073752" lon="11.6751153">
    <tag k="addr:city" v="Otterfing"/>
    <tag k="addr:country" v="DE"/>
    <tag k="addr:housenumber" v="18"/>
    <tag k="addr:postcode" v="83624"/>
    <tag k="addr:street" v="Tegernseer Straße"/>
  </node>
  <node id="315969283" version="6" timestamp="2011-06-03T15:05:27Z" uid="42393" user="mawi42" changeset="8330341" lat="47.9073752" lon="11.6751152">
    <tag k="addr:city" v="Otterfing"/>
    <tag k="addr:country" v="DE"/>
    <tag k="addr:housenumber" v="18"/>
    <tag k="addr:postcode" v="83624"/>
    <tag k="addr:street" v="Tegernseer Straße"/>
    <tag k="opening_hours" v="Mo-Sa 7:00-20:00"/>
  </node>
  <node id="315969283" version="7" timestamp="2011-06-03T17:06:16Z" uid="42393" user="mawi42" changeset="8331494" lat="47.9073753" lon="11.6751152">
    <tag k="addr:city" v="Otterfing"/>
    <tag k="addr:country" v="DE"/>
    <tag k="addr:housenumber" v="18"/>
    <tag k="addr:postcode" v="83624"/>
    <tag k="addr:street" v="Tegernseer Straße"/>
    <tag k="name" v="Penny"/>
    <tag k="opening_hours" v="Mo-Sa 7:00-20:00"/>
  </node>
  <node id="315969777" version="8" timestamp="2009-10-02T19:47:58Z" uid="86259" user="hasse_osm_korinthenkacker" changeset="2716821" lat="47.9087755" lon="11.6737668">
    <tag k="addr:city" v="Otterfing"/>
    <tag k="addr:country" v="DE"/>
    <tag k="addr:housenumber" v="8"/>
    <tag k="addr:postcode" v="83624"/>
    <tag k="addr:street" v="Christerweg"/>
  </node>
  <node id="315969777" version="9" timestamp="2009-12-05T08:32:37Z" uid="42393" user="mawi42" changeset="3293574" lat="47.90881" lon="11.6737473">
    <tag k="addr:city" v="Otterfing"/>
    <tag k="addr:country" v="DE"/>
    <tag k="addr:housenumber" v="8"/>
    <tag k="addr:postcode" v="83624"/>
    <tag k="addr:street" v="Christerweg"/>
  </node>
  <node id="315969777" version="10" timestamp="2010-12-21T18:49:27Z" uid="42393" user="mawi42" changeset="6728647" lat="47.908784" lon="11.6737666">
    <tag k="addr:city" v="Otterfing"/>
    <tag k="addr:country" v="DE"/>
    <tag k="addr:housenumber" v="8"/>
    <tag k="addr:postcode" v="83624"/>
    <tag k="addr:street" v="Christerweg"/>
  </node>
  <node id="315969841" version="8" timestamp="2009-10-02T19:47:49Z" uid="86259" user="hasse_osm_korinthenkacker" changeset="2716821" lat="47.908516" lon="11.6732874">
    <tag k="addr:city" v="Otterfing"/>
    <tag k="addr:country" v="DE"/>
    <tag k="addr:housenumber" v="12"/>
    <tag k="addr:postcode" v="83624"/>
    <tag k="addr:street" v="Christerweg"/>
  </node>
  <node id="315969881" version="8" timestamp="2009-10-02T19:47:49Z" uid="86259" user="hasse_osm_korinthenkacker" changeset="2716821" lat="47.9084548" lon="11.6733362">
    <tag k="addr:city" v="Otterfing"/>
    <tag k="addr:country" v="DE"/>
    <tag k="addr:housenumber" v="14"/>
    <tag k="addr:postcode" v="83624"/>
    <tag k="addr:street" v="Christerweg"/>
  </node>
  <node id="315969942" version="7" timestamp="2009-10-02T19:47:49Z" uid="86259" user="hasse_osm_korinthenkacker" changeset="2716821" lat="47.9083919" lon="11.6733705">
    <tag k="addr:city" v="Otterfing"/>
    <tag k="addr:country" v="DE"/>
    <tag k="addr:housenumber" v="16"/>
    <tag k="addr:postcode" v="83624"/>
    <tag k="addr:street" v="Christerweg"/>
  </node>
</osm>
