<?xml version='1.0' encoding='UTF-8'?>
<osm version="0.6" generator="libosmium/2.20.0">
  <node id="315970006" version="5" timestamp="2009-10-02T19:47:58Z" uid="86259" user="hasse_osm_korinthenkacker" changeset="2716821" lat="47.9089155" lon="11.6741859">
    <tag k="addr:city" v="Otterfing"/>
    <tag k="addr:country" v="DE"/>
    <tag k="addr:housenumber" v="2"/>
    <tag k="addr:postcode" v="83624"/>
    <tag k="addr:street" v="Christerweg"/>
  </node>
  <node id="315970006" version="6" timestamp="2009-12-05T08:32:37Z" uid="42393" user="mawi42" changeset="3293574" lat="47.9089485" lon="11.6741657">
    <tag k="addr:city" v="Otterfing"/>
    <tag k="addr:country" v="DE"/>
    <tag k="addr:housenumber" v="2"/>
    <tag k="addr:postcode" v="83624"/>
    <tag k="addr:street" v="Christerweg"/>
  </node>
  <node id="315970006" version="7" timestamp="2010-12-21T18:49:27Z" uid="42393" user="mawi42" changeset="6728647" lat="47.908914" lon="11.6741884">
    <tag k="addr:city" v="Otterfing"/>
    <tag k="addr:country" v="DE"/>
    <tag k="addr:housenumber" v="2"/>
    <tag k="addr:postcode" v="83624"/>
    <tag k="addr:street" v="Christerweg"/>
  </node>
  <node id="315970070" version="7" timestamp="2009-10-02T19:47:58Z" uid="86259" user="hasse_osm_korinthenkacker" changeset="2716821" lat="47.9088867" lon="11.6741001">
    <tag k="addr:city" v="Otterfing"/>
    <tag k="addr:country" v="DE"/>
    <tag k="addr:housenumber" v="4"/>
    <tag k="addr:postcode" v="83624"/>
    <tag k="addr:street" v="Christerweg"/>
  </node>
  <node id="315970070" version="8" timestamp="2009-12-05T08:32:36Z" uid="42393" user="mawi42" changeset="3293574" lat="47.9089251" lon="11.6740987">
    <tag k="addr:city" v="Otterfing"/>
    <tag k="addr:country" v="DE"/>
    <tag k="addr:housenumber" v="4"/>
    <tag k="addr:postcode" v="83624"/>
    <tag k="addr:street" v="Christerweg"/>
  </node>
  <node id="315970070" version="9" timestamp="2010-12-21T18:49:27Z" uid="42393" user="mawi42" changeset="6728647" lat="47.9088943" lon="11.6741214">
    <tag k="addr:city" v="Otterfing"/>
    <tag k="addr:country" v="DE"/>
    <tag k="addr:housenumber" v="4"/>
    <tag k="addr:postcode" v="83624"/>
    <tag k="addr:street" v="Christerweg"/>
  </node>
  <node id="315970287" version="1" timestamp="2008-11-30T22:30:05Z" uid="30632" user="antblant" changeset="815096" lat="53.3675168" lon="14.6583173"/>
  <node id="315970287" version="2" timestamp="2008-12-16T11:46:10Z" uid="30632" user="antblant" changeset="411715" lat="53.3675168" lon="14.6583173"/>
  <node id="315970287" version="3" timestamp="2008-12-16T11:46:30Z" uid="30632" user="antblant" changeset="411715" lat="53.3675168" lon="14.6583173"/>
  <node id="315970287" version="4" timestamp="2008-12-16T11:46:56Z" uid="30632" user="antblant" changeset="411715" lat="53.3675168" lon="14.6583173"/>
  <node id="315970287" version="5" timestamp="2008-12-16T11:47:05Z" uid="30632" user="antblant" changeset="411715" lat="53.3675168" lon="14.6583173"/>
  <node id="315970287" version="6" timestamp="2009-01-04T10:23:48Z" uid="30632" user="antblant" changeset="731742" lat="53.3675418" lon="14.6579636"/>
  <node id="315970287" version="7" timestamp="2010-06-09T18:17:00Z" uid="30632" user="antblant" changeset="4947611" lat="53.3675418" lon="14.6579636"/>
  <node id="315970292" version="1" timestamp="2008-11-30T22:30:05Z" uid="30632" user="antblant" changeset="815096" lat="53.3674844" lon="14.6579341"/>
  <node id="315970292" version="2" timestamp="2008-12-16T11:46:10Z" uid="30632" user="antblant" changeset="411715" lat="53.3674844" lon="14.6579341"/>
  <node id="315970292" version="3" timestamp="2008-12-16T11:46:10Z" uid="30632" user="antblant" changeset="411715" lat="53.3674844" lon="14.6579341"/>
  <node id="315970292" version="4" timestamp="2008-12-16T11:46:30Z" uid="30632" user="antblant" changeset="411715" lat="53.3674844" lon="14.6579341"/>
  <node id="315970292" version="5" timestamp="2008-12-16T11:46:56Z" uid="30632" user="antblant" changeset="411715" lat="53.3674996" lon="14.6579303"/>
  <node id="315970292" version="6" timestamp="2008-12-16T11:47:05Z" uid="30632" user="antblant" changeset="411715" lat="53.3674945" lon="14.6579303"/>
  <node id="315970292" version="7" timestamp="2009-01-04T10:23:48Z" uid="30632" user="antblant" changeset="731742" lat="53.3675298" lon="14.6577479"/>
  <node id="315970292" version="8" timestamp="2010-06-09T18:16:51Z" uid="30632" user="antblant" changeset="4947611" lat="53.3675298" lon="14.6577479"/>
  <node id="315970294" version="1" timestamp="2008-11-30T22:30:06Z" uid="30632" user="antblant" changeset="815096" lat="53.3675257" lon="14.6576884"/>
  <node id="315970294" version="2" timestamp="2008-12-01T14:28:15Z" uid="30632" user="antblant" changeset="9908" lat="53.3675257" lon="14.6576884"/>
  <node id="315970298" version="1" timestamp="2008-11-30T22:30:06Z" uid="30632" user="antblant" changeset="815096" lat="53.3678924" lon="14.6578914"/>
  <node id="315970298" version="2" timestamp="2008-12-16T11:45:51Z" uid="30632" user="antblant" changeset="411715" lat="53.3678924" lon="14.6578914"/>
  <node id="315970298" version="3" timestamp="2008-12-16T11:45:51Z" uid="30632" user="antblant" changeset="411715" lat="53.3678924" lon="14.6578914"/>
  <node id="315970298" version="4" timestamp="2008-12-16T11:45:54Z" uid="30632" user="antblant" changeset="411715" lat="53.3678924" lon="14.6578914"/>
  <node id="315970298" version="5" timestamp="2008-12-16T11:46:38Z" uid="30632" user="antblant" changeset="411715" lat="53.3678924" lon="14.6578914"/>
  <node id="315970298" version="6" timestamp="2008-12-16T11:46:45Z" uid="30632" user="antblant" changeset="411715" lat="53.3678924" lon="14.6578914"/>
  <node id="315970298" version="7" timestamp="2008-12-16T11:47:40Z" uid="30632" user="antblant" changeset="411715" lat="53.3678924" lon="14.6578914"/>
  <node id="315970298" version="8" timestamp="2008-12-16T11:47:58Z" uid="30632" user="antblant" changeset="411715" lat="53.3678924" lon="14.6578914"/>
  <node id="315970298" version="9" timestamp="2008-12-16T11:48:11Z" uid="30632" user="antblant" changeset="411715" lat="53.3678924" lon="14.6578914"/>
  <node id="315970298" version="10" timestamp="2008-12-16T11:48:20Z" uid="30632" user="antblant" changeset="411715" lat="53.3678924" lon="14.6578914"/>
  <node id="315970298" version="11" timestamp="2008-12-16T11:48:33Z" uid="30632" user="antblant" changeset="411715" lat="53.3678924" lon="14.6578914"/>
  <node id="315970298" version="12" timestamp="2008-12-16T11:48:45Z" uid="30632" user="antblant" changeset="411715" lat="53.3678924" lon="14.6578914"/>
  <node id="315970298" version="13" timestamp="2008-12-16T11:48:50Z" uid="30632" user="antblant" changeset="411715" lat="53.3678924" lon="14.6578914"/>
  <node id="315970298" version="14" timestamp="2009-01-04T10:23:48Z" uid="30632" user="antblant" changeset="731742" lat="53.3679178" lon="14.6576652"/>
  <node id="315970298" version="15" timestamp="2009-01-25T21:38:50Z" uid="30632" user="antblant" changeset="835919" lat="53.3679178" lon="14.6576652"/>
  <node id="315970302" version="1" timestamp="2008-11-30T22:30:06Z" uid="30632" user="antblant" changeset="815096" lat="53.36754" lon="14.6579244"/>
  <node id="315970302" version="2" timestamp="2008-12-01T14:28:16Z" uid="30632" user="antblant" changeset="9908" lat="53.36754" lon="14.6579244"/>
  <node id="315970305" version="1" timestamp="2008-11-30T22:30:06Z" uid="30632" user="antblant" changeset="815096" lat="53.3675246" lon="14.6576875"/>
  <node id="315970305" version="2" timestamp="2008-12-01T14:28:16Z" uid="30632" user="antblant" changeset="9908" lat="53.3675246" lon="14.6576875"/>
  <node id="315970307" version="1" timestamp="2008-11-30T22:30:06Z" uid="30632" user="antblant" changeset="815096" lat="53.3676312" lon="14.6582993"/>
  <node id="315970307" version="2" timestamp="2008-12-16T11:46:10Z" uid="30632" user="antblant" changeset="411715" lat="53.3676312" lon="14.6582993"/>
  <node id="315970307" version="3" timestamp="2008-12-16T11:46:30Z" uid="30632" user="antblant" changeset="411715" lat="53.3676312" lon="14.6582993"/>
  <node id="315970307" version="4" timestamp="2008-12-16T11:46:56Z" uid="30632" user="antblant" changeset="411715" lat="53.367643" lon="14.6582908"/>
  <node id="315970307" version="5" timestamp="2008-12-16T11:47:05Z" uid="30632" user="antblant" changeset="411715" lat="53.367643" lon="14.6582908"/>
  <node id="315970307" version="6" timestamp="2009-01-04T10:23:48Z" uid="30632" user="antblant" changeset="731742" lat="53.3676621" lon="14.6579447"/>
  <node id="315970307" version="7" timestamp="2010-06-09T18:16:44Z" uid="30632" user="antblant" changeset="4947611" lat="53.3676621" lon="14.6579447"/>
  <node id="315970308" version="1" timestamp="2008-11-30T22:30:07Z" uid="30632" user="antblant" changeset="815096" lat="53.3675968" lon="14.6579209"/>
  <node id="315970308" version="2" timestamp="2008-12-16T11:45:51Z" uid="30632" user="antblant" changeset="411715" lat="53.3675968" lon="14.6579209"/>
  <node id="315970308" version="3" timestamp="2008-12-16T11:45:51Z" uid="30632" user="antblant" changeset="411715" lat="53.3675968" lon="14.6579209"/>
  <node id="315970308" version="4" timestamp="2008-12-16T11:45:54Z" uid="30632" user="antblant" changeset="411715" lat="53.3675968" lon="14.6579209"/>
  <node id="315970308" version="5" timestamp="2008-12-16T11:46:03Z" uid="30632" user="antblant" changeset="411715" lat="53.3675507" lon="14.6579295"/>
  <node id="315970308" version="6" timestamp="2008-12-16T11:46:10Z" uid="30632" user="antblant" changeset="411715" lat="53.3675507" lon="14.6579295"/>
  <node id="315970308" version="7" timestamp="2008-12-16T11:46:10Z" uid="30632" user="antblant" changeset="411715" lat="53.3675507" lon="14.6579295"/>
  <node id="315970308" version="8" timestamp="2008-12-16T11:46:38Z" uid="30632" user="antblant" changeset="411715" lat="53.3675507" lon="14.6579295"/>
  <node id="315970308" version="9" timestamp="2008-12-16T11:46:45Z" uid="30632" user="antblant" changeset="411715" lat="53.3675507" lon="14.6579295"/>
  <node id="315970308" version="10" timestamp="2008-12-16T11:48:45Z" uid="30632" user="antblant" changeset="411715" lat="53.3675507" lon="14.6579295"/>
  <node id="315970308" version="11" timestamp="2008-12-16T11:48:45Z" uid="30632" user="antblant" changeset="411715" lat="53.3675507" lon="14.6579295"/>
  <node id="315970308" version="12" timestamp="2009-01-04T10:26:22Z" uid="30632" user="antblant" changeset="731742" lat="53.3675507" lon="14.6579295"/>
  <node id="315970309" version="1" timestamp="2008-11-30T22:30:07Z" uid="30632" user="antblant" changeset="815096" lat="53.367582" lon="14.6564839"/>
  <node id="315970309" version="2" timestamp="2009-01-04T10:23:52Z" uid="30632" user="antblant" changeset="731742" lat="53.367582" lon="14.6564839"/>
  <node id="315970310" version="1" timestamp="2008-11-30T22:30:07Z" uid="30632" user="antblant" changeset="815096" lat="53.3675995" lon="14.6571614"/>
  <node id="315970310" version="2" timestamp="2009-01-04T10:23:52Z" uid="30632" user="antblant" changeset="731742" lat="53.3675995" lon="14.6571614"/>
  <node id="315970321" version="6" timestamp="2009-10-02T19:47:58Z" uid="86259" user="hasse_osm_korinthenkacker" changeset="2716821" lat="47.9088522" lon="11.6740142">
    <tag k="addr:city" v="Otterfing"/>
    <tag k="addr:country" v="DE"/>
    <tag k="addr:housenumber" v="6"/>
    <tag k="addr:postcode" v="83624"/>
    <tag k="addr:street" v="Christerweg"/>
  </node>
  <node id="315970321" version="7" timestamp="2009-12-05T08:32:36Z" uid="42393" user="mawi42" changeset="3293574" lat="47.9089035" lon="11.6740343">
    <tag k="addr:city" v="Otterfing"/>
    <tag k="addr:country" v="DE"/>
    <tag k="addr:housenumber" v="6"/>
    <tag k="addr:postcode" v="83624"/>
    <tag k="addr:street" v="Christerweg"/>
  </node>
  <node id="315970321" version="8" timestamp="2010-12-21T18:49:27Z" uid="42393" user="mawi42" changeset="6728647" lat="47.9088668" lon="11.6740476">
    <tag k="addr:city" v="Otterfing"/>
    <tag k="addr:country" v="DE"/>
    <tag k="addr:housenumber" v="6"/>
    <tag k="addr:postcode" v="83624"/>
    <tag k="addr:street" v="Christerweg"/>
  </node>
  <node id="315970918" version="5" timestamp="2009-10-02T19:49:37Z" uid="86259" user="hasse_osm_korinthenkacker" changeset="2716821" lat="47.9112455" lon="11.695899">
    <tag k="addr:city" v="Otterfing"/>
    <tag k="addr:country" v="DE"/>
    <tag k="addr:housenumber" v="105"/>
    <tag k="addr:postcode" v="83624"/>
    <tag k="addr:street" v="Kreuzstraße"/>
  </node>
  <node id="315970956" version="4" timestamp="2009-10-02T19:49:37Z" uid="86259" user="hasse_osm_korinthenkacker" changeset="2716821" lat="47.911234" lon="11.696165">
    <tag k="addr:city" v="Otterfing"/>
    <tag k="addr:country" v="DE"/>
    <tag k="addr:housenumber" v="109"/>
    <tag k="addr:postcode" v="83624"/>
    <tag k="addr:street" v="Kreuzstraße"/>
  </node>
  <node id="315971013" version="4" timestamp="2009-10-02T19:49:36Z" uid="86259" user="hasse_osm_korinthenkacker" changeset="2716821" lat="47.9109866" lon="11.6962509">
    <tag k="addr:city" v="Otterfing"/>
    <tag k="addr:country" v="DE"/>
    <tag k="addr:housenumber" v="110"/>
    <tag k="addr:postcode" v="83624"/>
    <tag k="addr:street" v="Kreuzstraße"/>
  </node>
  <node id="315971228" version="4" timestamp="2009-10-02T19:49:33Z" uid="86259" user="hasse_osm_korinthenkacker" changeset="2716821" lat="47.9124136" lon="11.6845762">
    <tag k="addr:city" v="Otterfing"/>
    <tag k="addr:country" v="DE"/>
    <tag k="addr:housenumber" v="12"/>
    <tag k="addr:postcode" v="83624"/>
    <tag k="addr:street" v="Markweg"/>
    <tag k="source" v="survey"/>
  </node>
  <node id="315971228" version="5" timestamp="2009-10-23T11:37:23Z" uid="36809" user="pfoten_weg_!_" changeset="2928981" lat="47.9124136" lon="11.6845762">
    <tag k="addr:city" v="Otterfing"/>
    <tag k="addr:country" v="DE"/>
    <tag k="addr:housenumber" v="12"/>
    <tag k="addr:postcode" v="83624"/>
    <tag k="addr:street" v="Markweg"/>
  </node>
  <node id="315971503" version="4" timestamp="2009-10-02T19:49:19Z" uid="86259" user="hasse_osm_korinthenkacker" changeset="2716821" lat="47.9121775" lon="11.6836595">
    <tag k="addr:city" v="Otterfing"/>
    <tag k="addr:country" v="DE"/>
    <tag k="addr:housenumber" v="7"/>
    <tag k="addr:postcode" v="83624"/>
    <tag k="addr:street" v="Markweg"/>
    <tag k="source" v="survey"/>
  </node>
  <node id="315971503" version="5" timestamp="2009-10-23T11:36:34Z" uid="36809" user="pfoten_weg_!_" changeset="2928981" lat="47.9121775" lon="11.6836595">
    <tag k="addr:city" v="Otterfing"/>
    <tag k="addr:country" v="DE"/>
    <tag k="addr:housenumber" v="7"/>
    <tag k="addr:postcode" v="83624"/>
    <tag k="addr:street" v="Markweg"/>
  </node>
  <node id="315971735" version="4" timestamp="2009-10-02T19:49:19Z" uid="86259" user="hasse_osm_korinthenkacker" changeset="2716821" lat="47.9122983" lon="11.6832647">
    <tag k="addr:city" v="Otterfing"/>
    <tag k="addr:country" v="DE"/>
    <tag k="addr:housenumber" v="5"/>
    <tag k="addr:postcode" v="83624"/>
    <tag k="addr:street" v="Markweg"/>
    <tag k="source" v="survey"/>
  </node>
  <node id="315971735" version="5" timestamp="2009-10-23T11:36:33Z" uid="36809" user="pfoten_weg_!_" changeset="2928981" lat="47.9122983" lon="11.6832647">
    <tag k="addr:city" v="Otterfing"/>
    <tag k="addr:country" v="DE"/>
    <tag k="addr:housenumber" v="5"/>
    <tag k="addr:postcode" v="83624"/>
    <tag k="addr:street" v="Markweg"/>
  </node>
  <node id="315971735" version="6" timestamp="2010-12-08T08:03:57Z" uid="42393" user="mawi42" changeset="6582536" lat="47.9121759" lon="11.6832204">
    <tag k="addr:city" v="Otterfing"/>
    <tag k="addr:country" v="DE"/>
    <tag k="addr:housenumber" v="5"/>
    <tag k="addr:postcode" v="83624"/>
    <tag k="addr:street" v="Markweg"/>
  </node>
  <node id="315971782" version="4" timestamp="2009-10-02T19:49:19Z" uid="86259" user="hasse_osm_korinthenkacker" changeset="2716821" lat="47.9122753" lon="11.6831617">
    <tag k="addr:city" v="Otterfing"/>
    <tag k="addr:country" v="DE"/>
    <tag k="addr:housenumber" v="5r"/>
    <tag k="addr:postcode" v="83624"/>
    <tag k="addr:street" v="Markweg"/>
    <tag k="source" v="survey"/>
  </node>
  <node id="315971782" version="5" timestamp="2009-10-23T11:36:34Z" uid="36809" user="pfoten_weg_!_" changeset="2928981" lat="47.9122753" lon="11.6831617">
    <tag k="addr:city" v="Otterfing"/>
    <tag k="addr:country" v="DE"/>
    <tag k="addr:housenumber" v="5r"/>
    <tag k="addr:postcode" v="83624"/>
    <tag k="addr:street" v="Markweg"/>
  </node>
  <node id="315971782" version="6" timestamp="2010-12-08T08:03:58Z" uid="42393" user="mawi42" changeset="6582536" lat="47.9121508" lon="11.6831318">
    <tag k="addr:city" v="Otterfing"/>
    <tag k="addr:country" v="DE"/>
    <tag k="addr:housenumber" v="5r"/>
    <tag k="addr:postcode" v="83624"/>
    <tag k="addr:street" v="Markweg"/>
  </node>
  <node id="315971802" version="4" timestamp="2009-10-02T19:49:19Z" uid="86259" user="hasse_osm_korinthenkacker" changeset="2716821" lat="47.9119762" lon="11.6834192">
    <tag k="addr:city" v="Otterfing"/>
    <tag k="addr:country" v="DE"/>
    <tag k="addr:housenumber" v="3"/>
    <tag k="addr:postcode" v="83624"/>
    <tag k="addr:street" v="Markweg"/>
    <tag k="source" v="survey"/>
  </node>
  <node id="315971802" version="5" timestamp="2009-10-23T11:36:32Z" uid="36809" user="pfoten_weg_!_" changeset="2928981" lat="47.9119762" lon="11.6834192">
    <tag k="addr:city" v="Otterfing"/>
    <tag k="addr:country" v="DE"/>
    <tag k="addr:housenumber" v="3"/>
    <tag k="addr:postcode" v="83624"/>
    <tag k="addr:street" v="Markweg"/>
  </node>
  <node id="315971846" version="4" timestamp="2009-10-02T19:49:18Z" uid="86259" user="hasse_osm_korinthenkacker" changeset="2716821" lat="47.911723" lon="11.6831016">
    <tag k="addr:city" v="Otterfing"/>
    <tag k="addr:country" v="DE"/>
    <tag k="addr:housenumber" v="1"/>
    <tag k="addr:postcode" v="83624"/>
    <tag k="addr:street" v="Markweg"/>
    <tag k="source" v="survey"/>
  </node>
  <node id="315971846" version="5" timestamp="2009-10-23T11:36:31Z" uid="36809" user="pfoten_weg_!_" changeset="2928981" lat="47.911723" lon="11.6831016">
    <tag k="addr:city" v="Otterfing"/>
    <tag k="addr:country" v="DE"/>
    <tag k="addr:housenumber" v="1"/>
    <tag k="addr:postcode" v="83624"/>
    <tag k="addr:street" v="Markweg"/>
  </node>
  <node id="315971992" version="2" timestamp="2010-08-11T14:50:00Z" uid="33382" user="de_muur" changeset="5463548" lat="53.4342018" lon="10.3820398"/>
  <node id="315971993" version="3" timestamp="2010-08-11T14:50:02Z" uid="33382" user="de_muur" changeset="5463548" lat="53.434183" lon="10.3821566"/>
  <node id="315972030" version="2" timestamp="2010-11-09T20:08:20Z" uid="33382" user="de_muur" changeset="6331014" lat="53.439358" lon="10.372506"/>
  <node id="315972032" version="2" timestamp="2010-11-09T20:08:22Z" uid="33382" user="de_muur" changeset="6331014" lat="53.4420047" lon="10.3715903"/>
  <node id="315972192" version="3" timestamp="2009-10-02T19:49:18Z" uid="86259" user="hasse_osm_korinthenkacker" changeset="2716821" lat="47.9118381" lon="11.6827411">
    <tag k="addr:city" v="Otterfing"/>
    <tag k="addr:country" v="DE"/>
    <tag k="addr:housenumber" v="4"/>
    <tag k="addr:postcode" v="83624"/>
    <tag k="addr:street" v="Andräweg"/>
    <tag k="source" v="survey"/>
  </node>
  <node id="315972192" version="4" timestamp="2009-10-23T11:36:29Z" uid="36809" user="pfoten_weg_!_" changeset="2928981" lat="47.9118381" lon="11.6827411">
    <tag k="addr:city" v="Otterfing"/>
    <tag k="addr:country" v="DE"/>
    <tag k="addr:housenumber" v="4"/>
    <tag k="addr:postcode" v="83624"/>
    <tag k="addr:street" v="Andräweg"/>
  </node>
  <node id="315972222" version="3" timestamp="2009-10-02T19:49:18Z" uid="86259" user="hasse_osm_korinthenkacker" changeset="2716821" lat="47.9120107" lon="11.6828699">
    <tag k="addr:city" v="Otterfing"/>
    <tag k="addr:country" v="DE"/>
    <tag k="addr:housenumber" v="5"/>
    <tag k="addr:postcode" v="83624"/>
    <tag k="addr:street" v="Andräweg"/>
    <tag k="source" v="survey"/>
  </node>
  <node id="315972222" version="4" timestamp="2009-10-23T11:36:29Z" uid="36809" user="pfoten_weg_!_" changeset="2928981" lat="47.9120107" lon="11.6828699">
    <tag k="addr:city" v="Otterfing"/>
    <tag k="addr:country" v="DE"/>
    <tag k="addr:housenumber" v="5"/>
    <tag k="addr:postcode" v="83624"/>
    <tag k="addr:street" v="Andräweg"/>
  </node>
  <node id="315972814" version="3" timestamp="2009-10-02T19:49:18Z" uid="86259" user="hasse_osm_korinthenkacker" changeset="2716821" lat="47.9120107" lon="11.6826124">
    <tag k="addr:city" v="Otterfing"/>
    <tag k="addr:country" v="DE"/>
    <tag k="addr:housenumber" v="7"/>
    <tag k="addr:postcode" v="83624"/>
    <tag k="addr:street" v="Andräweg"/>
    <tag k="source" v="survey"/>
  </node>
  <node id="315972814" version="4" timestamp="2009-10-23T11:36:30Z" uid="36809" user="pfoten_weg_!_" changeset="2928981" lat="47.9120107" lon="11.6826124">
    <tag k="addr:city" v="Otterfing"/>
    <tag k="addr:country" v="DE"/>
    <tag k="addr:housenumber" v="7"/>
    <tag k="addr:postcode" v="83624"/>
    <tag k="addr:street" v="Andräweg"/>
  </node>
  <node id="315972909" version="3" timestamp="2009-10-02T19:49:31Z" uid="86259" user="hasse_osm_korinthenkacker" changeset="2716821" lat="47.914214" lon="11.6816597">
    <tag k="addr:city" v="Otterfing"/>
    <tag k="addr:country" v="DE"/>
    <tag k="addr:housenumber" v="17"/>
    <tag k="addr:postcode" v="83624"/>
    <tag k="addr:street" v="Argeter Weg"/>
    <tag k="source" v="survey"/>
  </node>
  <node id="315972909" version="4" timestamp="2009-10-23T11:37:10Z" uid="36809" user="pfoten_weg_!_" changeset="2928981" lat="47.914214" lon="11.6816597">
    <tag k="addr:city" v="Otterfing"/>
    <tag k="addr:country" v="DE"/>
    <tag k="addr:housenumber" v="17"/>
    <tag k="addr:postcode" v="83624"/>
    <tag k="addr:street" v="Argeter Weg"/>
  </node>
  <node id="315972909" version="5" timestamp="2009-10-31T07:22:37Z" uid="42393" user="mawi42" changeset="2995213" lat="47.9142037" lon="11.6817123">
    <tag k="addr:city" v="Otterfing"/>
    <tag k="addr:country" v="DE"/>
    <tag k="addr:housenumber" v="17"/>
    <tag k="addr:postcode" v="83624"/>
    <tag k="addr:street" v="Argeter Weg"/>
  </node>
  <node id="315972911" version="5" timestamp="2009-10-02T19:49:32Z" uid="86259" user="hasse_osm_korinthenkacker" changeset="2716821" lat="47.9150167" lon="11.6820562">
    <tag k="addr:city" v="Otterfing"/>
    <tag k="addr:country" v="DE"/>
    <tag k="addr:housenumber" v="25"/>
    <tag k="addr:postcode" v="83624"/>
    <tag k="addr:street" v="Argeter Weg"/>
    <tag k="source" v="survey"/>
  </node>
  <node id="315972911" version="6" timestamp="2009-10-23T11:37:15Z" uid="36809" user="pfoten_weg_!_" changeset="2928981" lat="47.9150167" lon="11.6820562">
    <tag k="addr:city" v="Otterfing"/>
    <tag k="addr:country" v="DE"/>
    <tag k="addr:housenumber" v="25"/>
    <tag k="addr:postcode" v="83624"/>
    <tag k="addr:street" v="Argeter Weg"/>
  </node>
  <node id="315972911" version="7" timestamp="2011-08-07T08:05:38Z" uid="42393" user="mawi42" changeset="8944296" lat="47.9150045" lon="11.6821039">
    <tag k="addr:city" v="Otterfing"/>
    <tag k="addr:country" v="DE"/>
    <tag k="addr:housenumber" v="25"/>
    <tag k="addr:postcode" v="83624"/>
    <tag k="addr:street" v="Argeter Weg"/>
  </node>
  <node id="315972917" version="1" timestamp="2008-11-30T22:44:07Z" uid="49111" user="Markus B" changeset="815654" lat="49.5584242" lon="11.3441882"/>
  <node id="315972917" version="2" timestamp="2011-01-07T11:07:58Z" uid="82877" user="Wankmann" changeset="6891438" lat="49.5584634" lon="11.3441541"/>
  <node id="315972918" version="1" timestamp="2008-11-30T22:44:07Z" uid="49111" user="Markus B" changeset="815654" lat="49.5584234" lon="11.3445485"/>
  <node id="315972918" version="2" timestamp="2009-03-07T19:56:28Z" uid="89943" user="Bengatzer" changeset="754814" lat="49.5584261" lon="11.3444945"/>
  <node id="315972918" version="3" timestamp="2010-07-31T18:21:32Z" uid="82877" user="Wankmann" changeset="5364749" lat="49.5584261" lon="11.3445106"/>
  <node id="315972918" version="4" timestamp="2011-01-07T11:07:00Z" uid="82877" user="Wankmann" changeset="6891438" lat="49.5584687" lon="11.3444811"/>
  <node id="315972919" version="1" timestamp="2008-11-30T22:44:07Z" uid="49111" user="Markus B" changeset="815654" lat="49.5583317" lon="11.3444895">
    <tag k="amenity" v="recycling"/>
    <tag k="recycling:clothes" v="yes"/>
    <tag k="recycling:glass" v="yes"/>
  </node>
  <node id="315972920" version="1" timestamp="2008-11-30T22:44:07Z" uid="49111" user="Markus B" changeset="815654" lat="49.5583417" lon="11.3455098"/>
  <node id="315972920" version="2" timestamp="2010-06-04T07:28:24Z" uid="82877" user="Wankmann" changeset="4898569" lat="49.5583005" lon="11.3455128"/>
  <node id="315972920" version="3" timestamp="2011-01-07T11:06:51Z" uid="82877" user="Wankmann" changeset="6891438" lat="49.5583984" lon="11.3454373"/>
  <node id="315972921" version="1" timestamp="2008-11-30T22:44:07Z" uid="49111" user="Markus B" changeset="815654" lat="49.55769" lon="11.3481992"/>
  <node id="315972921" version="2" timestamp="2010-07-24T00:33:25Z" uid="11636" user="Hantilles" changeset="5300097" lat="49.55769" lon="11.3481992">
    <tag k="noexit" v="yes"/>
  </node>
  <node id="315972921" version="3" timestamp="2011-01-07T11:07:09Z" uid="82877" user="Wankmann" changeset="6891438" lat="49.5577517" lon="11.3480549">
    <tag k="noexit" v="yes"/>
  </node>
  <node id="315972921" version="4" timestamp="2011-11-13T19:38:26Z" uid="82877" user="Wankmann" changeset="9818155" lat="49.5577186" lon="11.3481856">
    <tag k="noexit" v="yes"/>
  </node>
  <node id="315972922" version="1" timestamp="2008-11-30T22:44:07Z" uid="49111" user="Markus B" changeset="815654" lat="49.5564529" lon="11.3454232"/>
  <node id="315972922" version="2" timestamp="2009-07-29T22:53:12Z" uid="12281" user="neo" changeset="1980365" lat="49.5563442" lon="11.3453845"/>
  <node id="315972922" version="3" timestamp="2009-10-09T18:04:05Z" uid="82877" user="Wankmann" changeset="2796575" lat="49.5563442" lon="11.3453845"/>
  <node id="315972922" version="4" timestamp="2010-01-16T11:55:30Z" uid="82877" user="Wankmann" changeset="3630750" lat="49.5564403" lon="11.3452686"/>
  <node id="315972922" version="5" timestamp="2011-01-02T17:25:05Z" uid="82877" user="Wankmann" changeset="6840837" lat="49.5564639" lon="11.3452358"/>
  <node id="315972922" version="6" timestamp="2011-01-03T07:58:02Z" uid="82877" user="Wankmann" changeset="6846884" lat="49.5564699" lon="11.3452944"/>
  <node id="315972922" version="7" timestamp="2011-01-07T11:08:19Z" uid="82877" user="Wankmann" changeset="6891438" lat="49.5564903" lon="11.3452892"/>
  <node id="315972923" version="1" timestamp="2008-11-30T22:44:07Z" uid="49111" user="Markus B" changeset="815654" lat="49.5592942" lon="11.3447876"/>
  <node id="315972923" version="2" timestamp="2009-03-07T19:56:28Z" uid="89943" user="Bengatzer" changeset="754814" lat="49.5593723" lon="11.3447593"/>
  <node id="315972923" version="3" timestamp="2010-06-05T19:35:33Z" uid="82877" user="Wankmann" changeset="4911596" lat="49.5593704" lon="11.3447474"/>
  <node id="315972923" version="4" timestamp="2011-01-07T11:06:32Z" uid="82877" user="Wankmann" changeset="6891438" lat="49.5593534" lon="11.3447179"/>
  <node id="315972924" version="1" timestamp="2008-11-30T22:44:07Z" uid="49111" user="Markus B" changeset="815654" lat="49.558039" lon="11.3467089"/>
  <node id="315972924" version="2" timestamp="2009-01-01T17:38:44Z" uid="9364" user="keichwa" changeset="699869" lat="49.5580413" lon="11.3466151"/>
  <node id="315972924" version="3" timestamp="2010-06-04T07:28:12Z" uid="82877" user="Wankmann" changeset="4898569" lat="49.5579609" lon="11.3465577"/>
  <node id="315972924" version="4" timestamp="2011-01-07T11:08:07Z" uid="82877" user="Wankmann" changeset="6891438" lat="49.5579949" lon="11.3466594"/>
  <node id="315972925" version="1" timestamp="2008-11-30T22:44:08Z" uid="49111" user="Markus B" changeset="815654" lat="49.5580513" lon="11.3468604"/>
  <node id="315972925" version="2" timestamp="2009-01-01T17:38:44Z" uid="9364" user="keichwa" changeset="699869" lat="49.5580513" lon="11.3468099"/>
  <node id="315972925" version="3" timestamp="2010-06-04T07:28:29Z" uid="82877" user="Wankmann" changeset="4898569" lat="49.5579788" lon="11.346822"/>
  <node id="315972926" version="1" timestamp="2008-11-30T22:44:08Z" uid="49111" user="Markus B" changeset="815654" lat="49.5560676" lon="11.3566632"/>
  <node id="315972927" version="1" timestamp="2008-11-30T22:44:08Z" uid="49111" user="Markus B" changeset="815654" lat="49.557702" lon="11.3495286"/>
  <node id="315972927" version="2" timestamp="2009-01-01T17:45:36Z" uid="9364" user="keichwa" changeset="699869" lat="49.5576268" lon="11.3498276"/>
  <node id="315972927" version="3" timestamp="2010-06-04T07:28:16Z" uid="82877" user="Wankmann" changeset="4898569" lat="49.5575729" lon="11.3498102"/>
  <node id="315972927" version="4" timestamp="2011-01-07T11:07:46Z" uid="82877" user="Wankmann" changeset="6891438" lat="49.5576069" lon="11.3498627"/>
  <node id="315972928" version="1" timestamp="2008-11-30T22:44:08Z" uid="49111" user="Markus B" changeset="815654" lat="49.5577627" lon="11.3486061"/>
  <node id="315972928" version="2" timestamp="2010-06-04T07:28:22Z" uid="82877" user="Wankmann" changeset="4898569" lat="49.5576876" lon="11.3486398"/>
  <node id="315972928" version="3" timestamp="2011-01-07T11:08:08Z" uid="82877" user="Wankmann" changeset="6891438" lat="49.5577621" lon="11.3486956"/>
  <node id="315972929" version="1" timestamp="2008-11-30T22:44:08Z" uid="49111" user="Markus B" changeset="815654" lat="49.55762" lon="11.3481198"/>
  <node id="315972929" version="2" timestamp="2010-06-04T07:28:19Z" uid="82877" user="Wankmann" changeset="4898569" lat="49.557599" lon="11.3481231"/>
  <node id="315972929" version="3" timestamp="2011-01-07T11:08:29Z" uid="82877" user="Wankmann" changeset="6891438" lat="49.5576756" lon="11.3480805"/>
  <node id="315972929" version="4" timestamp="2011-01-31T20:15:27Z" uid="82877" user="Wankmann" changeset="7148645" lat="49.5576855" lon="11.3480653"/>
  <node id="315972930" version="1" timestamp="2008-11-30T22:44:08Z" uid="49111" user="Markus B" changeset="815654" lat="49.5576152" lon="11.3482982"/>
  <node id="315972930" version="2" timestamp="2010-06-04T07:28:30Z" uid="82877" user="Wankmann" changeset="4898569" lat="49.5575984" lon="11.3482596"/>
  <node id="315972930" version="3" timestamp="2011-01-07T11:07:28Z" uid="82877" user="Wankmann" changeset="6891438" lat="49.557675" lon="11.348217"/>
  <node id="315972930" version="4" timestamp="2011-01-31T20:15:27Z" uid="82877" user="Wankmann" changeset="7148645" lat="49.5576849" lon="11.3482018"/>
  <node id="315972931" version="1" timestamp="2008-11-30T22:44:08Z" uid="49111" user="Markus B" changeset="815654" lat="49.5574736" lon="11.3482891"/>
  <node id="315972931" version="2" timestamp="2010-06-04T07:28:26Z" uid="82877" user="Wankmann" changeset="4898569" lat="49.5574473" lon="11.3482581"/>
  <node id="315972931" version="3" timestamp="2011-01-07T11:07:47Z" uid="82877" user="Wankmann" changeset="6891438" lat="49.5575239" lon="11.3482155"/>
  <node id="315972931" version="4" timestamp="2011-01-31T20:15:26Z" uid="82877" user="Wankmann" changeset="7148645" lat="49.5575338" lon="11.3482003"/>
  <node id="315972932" version="1" timestamp="2008-11-30T22:44:09Z" uid="49111" user="Markus B" changeset="815654" lat="49.5574784" lon="11.3481107"/>
  <node id="315972932" version="2" timestamp="2010-06-04T07:28:12Z" uid="82877" user="Wankmann" changeset="4898569" lat="49.5574481" lon="11.3480483"/>
  <node id="315972932" version="3" timestamp="2011-01-07T11:07:18Z" uid="82877" user="Wankmann" changeset="6891438" lat="49.5575247" lon="11.3480057"/>
  <node id="315972932" version="4" timestamp="2011-01-31T20:15:28Z" uid="82877" user="Wankmann" changeset="7148645" lat="49.5575346" lon="11.3479905"/>
  <node id="315972933" version="1" timestamp="2008-11-30T22:44:09Z" uid="49111" user="Markus B" changeset="815654" lat="49.55735" lon="11.3536975"/>
  <node id="315972933" version="2" timestamp="2011-01-07T11:07:37Z" uid="82877" user="Wankmann" changeset="6891438" lat="49.5573202" lon="11.3536745"/>
  <node id="315972934" version="1" timestamp="2008-11-30T22:44:09Z" uid="49111" user="Markus B" changeset="815654" lat="49.5573525" lon="11.3537835"/>
  <node id="315972934" version="2" timestamp="2011-01-07T11:06:43Z" uid="82877" user="Wankmann" changeset="6891438" lat="49.5573227" lon="11.3537605"/>
  <node id="315972935" version="1" timestamp="2008-11-30T22:44:09Z" uid="49111" user="Markus B" changeset="815654" lat="49.5572873" lon="11.3537882"/>
  <node id="315972935" version="2" timestamp="2011-01-07T11:06:59Z" uid="82877" user="Wankmann" changeset="6891438" lat="49.5572575" lon="11.3537652"/>
  <node id="315972936" version="1" timestamp="2008-11-30T22:44:09Z" uid="49111" user="Markus B" changeset="815654" lat="49.5572847" lon="11.3537021"/>
  <node id="315972936" version="2" timestamp="2011-01-07T11:06:31Z" uid="82877" user="Wankmann" changeset="6891438" lat="49.5572549" lon="11.3536791"/>
  <node id="315972937" version="1" timestamp="2008-11-30T22:44:09Z" uid="49111" user="Markus B" changeset="815654" lat="49.5549868" lon="11.3569942">
    <tag k="amenity" v="parking"/>
  </node>
  <node id="315972937" version="2" timestamp="2010-05-07T19:21:15Z" uid="82877" user="Wankmann" changeset="4632997" lat="49.5546816" lon="11.3571438">
    <tag k="amenity" v="parking"/>
  </node>
  <node id="315972937" version="3" timestamp="2011-09-15T12:58:20Z" uid="82877" user="Wankmann" changeset="9307972" lat="49.554679" lon="11.357031">
    <tag k="amenity" v="parking"/>
  </node>
  <node id="315972938" version="1" timestamp="2008-11-30T22:44:09Z" uid="49111" user="Markus B" changeset="815654" lat="49.5558108" lon="11.3567685">
    <tag k="amenity" v="parking"/>
  </node>
  <node id="315972939" version="1" timestamp="2008-11-30T22:44:10Z" uid="49111" user="Markus B" changeset="815654" lat="49.5571285" lon="11.3539289"/>
  <node id="315972939" version="2" timestamp="2009-12-15T17:25:00Z" uid="82877" user="Wankmann" changeset="3381258" lat="49.5570969" lon="11.3538916"/>
  <node id="315972940" version="1" timestamp="2008-11-30T22:44:10Z" uid="49111" user="Markus B" changeset="815654" lat="49.5568191" lon="11.3556583"/>
  <node id="315972940" version="2" timestamp="2009-01-01T17:45:35Z" uid="9364" user="keichwa" changeset="699869" lat="49.5568072" lon="11.3556339"/>
  <node id="315972940" version="3" timestamp="2009-12-15T17:25:00Z" uid="82877" user="Wankmann" changeset="3381258" lat="49.5567976" lon="11.3555868"/>
  <node id="315972941" version="1" timestamp="2008-11-30T22:44:10Z" uid="49111" user="Markus B" changeset="815654" lat="49.5566862" lon="11.3559021"/>
  <node id="315972941" version="2" timestamp="2009-01-01T17:45:35Z" uid="9364" user="keichwa" changeset="699869" lat="49.5566545" lon="11.3558899"/>
  <node id="315972941" version="3" timestamp="2011-09-16T06:08:43Z" uid="82877" user="Wankmann" changeset="9313305" lat="49.5566623" lon="11.3558417"/>
  <node id="315972942" version="1" timestamp="2008-11-30T22:44:10Z" uid="49111" user="Markus B" changeset="815654" lat="49.5567664" lon="11.3557915"/>
  <node id="315972942" version="2" timestamp="2009-01-01T17:45:34Z" uid="9364" user="keichwa" changeset="699869" lat="49.5567426" lon="11.3557732"/>
  <node id="315972943" version="1" timestamp="2008-11-30T22:44:10Z" uid="49111" user="Markus B" changeset="815654" lat="49.5564774" lon="11.3560386"/>
  <node id="315972943" version="2" timestamp="2011-09-16T06:08:43Z" uid="82877" user="Wankmann" changeset="9313305" lat="49.5564421" lon="11.3560158"/>
  <node id="315972944" version="1" timestamp="2008-11-30T22:44:10Z" uid="49111" user="Markus B" changeset="815654" lat="49.5562307" lon="11.3564157"/>
  <node id="315972944" version="2" timestamp="2011-09-16T06:08:43Z" uid="82877" user="Wankmann" changeset="9313305" lat="49.5562177" lon="11.3563695"/>
  <node id="315972945" version="1" timestamp="2008-11-30T22:44:10Z" uid="49111" user="Markus B" changeset="815654" lat="49.556353" lon="11.3562825"/>
  <node id="315972945" version="2" timestamp="2011-09-16T06:08:43Z" uid="82877" user="Wankmann" changeset="9313305" lat="49.5563308" lon="11.3562222"/>
  <node id="315972946" version="1" timestamp="2008-11-30T22:44:10Z" uid="49111" user="Markus B" changeset="815654" lat="49.5564078" lon="11.3561979"/>
  <node id="315972946" version="2" timestamp="2011-09-16T06:08:43Z" uid="82877" user="Wankmann" changeset="9313305" lat="49.5563987" lon="11.3561236"/>
  <node id="315972947" version="1" timestamp="2008-11-30T22:44:10Z" uid="49111" user="Markus B" changeset="815654" lat="49.55593" lon="11.3594808"/>
  <node id="315972948" version="1" timestamp="2008-11-30T22:44:11Z" uid="49111" user="Markus B" changeset="815654" lat="49.5561046" lon="11.3590517"/>
  <node id="315972949" version="1" timestamp="2008-11-30T22:44:11Z" uid="49111" user="Markus B" changeset="815654" lat="49.5561248" lon="11.3592077"/>
  <node id="315972950" version="1" timestamp="2008-11-30T22:44:11Z" uid="49111" user="Markus B" changeset="815654" lat="49.5560363" lon="11.3594574"/>
  <node id="315972951" version="1" timestamp="2008-11-30T22:44:11Z" uid="49111" user="Markus B" changeset="815654" lat="49.5558504" lon="11.3609896"/>
  <node id="315972952" version="1" timestamp="2008-11-30T22:44:11Z" uid="49111" user="Markus B" changeset="815654" lat="49.5559487" lon="11.3628292"/>
  <node id="315972952" version="2" timestamp="2010-03-30T19:34:49Z" uid="82877" user="Wankmann" changeset="4279950" lat="49.5558514" lon="11.3629164"/>
  <node id="315972952" version="3" timestamp="2011-12-17T10:25:23Z" uid="82877" user="Wankmann" changeset="10137154" lat="49.5558514" lon="11.3629164"/>
  <node id="315972953" version="1" timestamp="2008-11-30T22:44:11Z" uid="49111" user="Markus B" changeset="815654" lat="49.5559487" lon="11.3635425"/>
  <node id="315972953" version="2" timestamp="2010-03-30T19:34:49Z" uid="82877" user="Wankmann" changeset="4279950" lat="49.5560254" lon="11.3634635"/>
  <node id="315972953" version="3" timestamp="2011-12-17T10:25:23Z" uid="82877" user="Wankmann" changeset="10137154" lat="49.5560254" lon="11.3634635"/>
  <node id="315972954" version="1" timestamp="2008-11-30T22:44:11Z" uid="49111" user="Markus B" changeset="815654" lat="49.5559162" lon="11.3632026"/>
  <node id="315972954" version="2" timestamp="2011-12-17T10:25:23Z" uid="82877" user="Wankmann" changeset="10137154" lat="49.5559162" lon="11.3632026"/>
  <node id="315972955" version="1" timestamp="2008-11-30T22:44:11Z" uid="49111" user="Markus B" changeset="815654" lat="49.5565552" lon="11.3645183"/>
  <node id="315972955" version="2" timestamp="2010-03-30T19:34:52Z" uid="82877" user="Wankmann" changeset="4279950" lat="49.5565552" lon="11.3645183"/>
  <node id="315972956" version="1" timestamp="2008-11-30T22:44:11Z" uid="49111" user="Markus B" changeset="815654" lat="49.5567218" lon="11.3645746"/>
  <node id="315972956" version="2" timestamp="2010-03-30T19:34:52Z" uid="82877" user="Wankmann" changeset="4279950" lat="49.5567218" lon="11.3645746"/>
  <node id="315972957" version="1" timestamp="2008-11-30T22:44:12Z" uid="49111" user="Markus B" changeset="815654" lat="49.5563795" lon="11.3642932"/>
  <node id="315972957" version="2" timestamp="2010-03-30T19:34:52Z" uid="82877" user="Wankmann" changeset="4279950" lat="49.5563795" lon="11.3642932"/>
  <node id="315972958" version="1" timestamp="2008-11-30T22:44:12Z" uid="49111" user="Markus B" changeset="815654" lat="49.5560841" lon="11.3580816"/>
  <node id="315972958" version="2" timestamp="2010-03-30T19:34:53Z" uid="82877" user="Wankmann" changeset="4279950" lat="49.5560671" lon="11.3580669"/>
  <node id="315972959" version="1" timestamp="2008-11-30T22:44:12Z" uid="49111" user="Markus B" changeset="815654" lat="49.5559242" lon="11.3572823"/>
  <node id="315972960" version="1" timestamp="2008-11-30T22:44:12Z" uid="49111" user="Markus B" changeset="815654" lat="49.5594391" lon="11.3657971"/>
  <node id="315972960" version="2" timestamp="2009-12-28T18:49:29Z" uid="82877" user="Wankmann" changeset="3474622" lat="49.5594391" lon="11.3657971"/>
  <node id="315972960" version="3" timestamp="2011-12-17T10:25:17Z" uid="82877" user="Wankmann" changeset="10137154" lat="49.5594596" lon="11.3659751"/>
  <node id="315972961" version="1" timestamp="2008-11-30T22:44:12Z" uid="49111" user="Markus B" changeset="815654" lat="49.5595877" lon="11.3661066"/>
  <node id="315972961" version="2" timestamp="2009-12-28T18:49:29Z" uid="82877" user="Wankmann" changeset="3474622" lat="49.5595877" lon="11.3661066"/>
  <node id="315972961" version="3" timestamp="2011-12-17T10:25:23Z" uid="82877" user="Wankmann" changeset="10137154" lat="49.5595877" lon="11.3661066"/>
  <node id="315972962" version="1" timestamp="2008-11-30T22:44:12Z" uid="49111" user="Markus B" changeset="815654" lat="49.5620315" lon="11.3647838"/>
  <node id="315972962" version="2" timestamp="2008-12-14T16:55:02Z" uid="62236" user="Paulchen Panther" changeset="372292" lat="49.5620315" lon="11.3647838"/>
  <node id="315972962" version="3" timestamp="2008-12-14T16:55:16Z" uid="62236" user="Paulchen Panther" changeset="372292" lat="49.5620315" lon="11.3647838"/>
  <node id="315972962" version="4" timestamp="2008-12-17T20:44:01Z" uid="62236" user="Paulchen Panther" changeset="447619" lat="49.5620315" lon="11.3647838"/>
  <node id="315972962" version="5" timestamp="2008-12-17T20:44:15Z" uid="62236" user="Paulchen Panther" changeset="447619" lat="49.5620315" lon="11.3647838"/>
  <node id="315972962" version="6" timestamp="2008-12-17T20:44:27Z" uid="62236" user="Paulchen Panther" changeset="447619" lat="49.5620315" lon="11.3647838"/>
  <node id="315972962" version="7" timestamp="2009-05-13T13:21:55Z" uid="41113" user="cycling_zno" changeset="1175212" lat="49.5620315" lon="11.3647838"/>
  <node id="315972963" version="1" timestamp="2008-11-30T22:44:12Z" uid="49111" user="Markus B" changeset="815654" lat="49.5617622" lon="11.3648796"/>
  <node id="315972963" version="2" timestamp="2008-12-14T16:55:02Z" uid="62236" user="Paulchen Panther" changeset="372292" lat="49.5617622" lon="11.3648796"/>
  <node id="315972963" version="3" timestamp="2008-12-14T16:55:16Z" uid="62236" user="Paulchen Panther" changeset="372292" lat="49.5617622" lon="11.3648796"/>
  <node id="315972963" version="4" timestamp="2008-12-17T20:44:01Z" uid="62236" user="Paulchen Panther" changeset="447619" lat="49.5617622" lon="11.3648796"/>
  <node id="315972963" version="5" timestamp="2008-12-17T20:44:15Z" uid="62236" user="Paulchen Panther" changeset="447619" lat="49.5617622" lon="11.3648796"/>
  <node id="315972963" version="6" timestamp="2008-12-17T20:44:27Z" uid="62236" user="Paulchen Panther" changeset="447619" lat="49.5617622" lon="11.3648796"/>
  <node id="315972963" version="7" timestamp="2009-05-13T13:21:55Z" uid="41113" user="cycling_zno" changeset="1175212" lat="49.5617622" lon="11.3648796"/>
  <node id="315972964" version="1" timestamp="2008-11-30T22:44:13Z" uid="49111" user="Markus B" changeset="815654" lat="49.5621766" lon="11.3646347"/>
  <node id="315972964" version="2" timestamp="2008-12-14T16:55:02Z" uid="62236" user="Paulchen Panther" changeset="372292" lat="49.5621766" lon="11.3646347"/>
  <node id="315972964" version="3" timestamp="2008-12-14T16:55:16Z" uid="62236" user="Paulchen Panther" changeset="372292" lat="49.5621766" lon="11.3646347"/>
  <node id="315972964" version="4" timestamp="2008-12-17T20:44:01Z" uid="62236" user="Paulchen Panther" changeset="447619" lat="49.5621766" lon="11.3646347"/>
  <node id="315972964" version="5" timestamp="2008-12-17T20:44:15Z" uid="62236" user="Paulchen Panther" changeset="447619" lat="49.5621766" lon="11.3646347"/>
  <node id="315972964" version="6" timestamp="2008-12-17T20:44:27Z" uid="62236" user="Paulchen Panther" changeset="447619" lat="49.5621766" lon="11.3646347"/>
  <node id="315972964" version="7" timestamp="2009-05-13T13:21:55Z" uid="41113" user="cycling_zno" changeset="1175212" lat="49.5621766" lon="11.3646347"/>
  <node id="315972965" version="1" timestamp="2008-11-30T22:44:13Z" uid="49111" user="Markus B" changeset="815654" lat="49.560985" lon="11.3661725"/>
  <node id="315972965" version="2" timestamp="2008-12-14T16:55:02Z" uid="62236" user="Paulchen Panther" changeset="372292" lat="49.560985" lon="11.3661725"/>
  <node id="315972965" version="3" timestamp="2008-12-14T16:55:16Z" uid="62236" user="Paulchen Panther" changeset="372292" lat="49.560985" lon="11.3661725"/>
  <node id="315972965" version="4" timestamp="2008-12-17T20:44:01Z" uid="62236" user="Paulchen Panther" changeset="447619" lat="49.560985" lon="11.3661725"/>
  <node id="315972965" version="5" timestamp="2008-12-17T20:44:14Z" uid="62236" user="Paulchen Panther" changeset="447619" lat="49.560985" lon="11.3661725"/>
  <node id="315972965" version="6" timestamp="2008-12-17T20:44:27Z" uid="62236" user="Paulchen Panther" changeset="447619" lat="49.560985" lon="11.3661725"/>
  <node id="315972965" version="7" timestamp="2009-05-13T13:21:54Z" uid="41113" user="cycling_zno" changeset="1175212" lat="49.560985" lon="11.3661725"/>
  <node id="315972966" version="1" timestamp="2008-11-30T22:44:13Z" uid="49111" user="Markus B" changeset="815654" lat="49.5610427" lon="11.369613"/>
  <node id="315972966" version="2" timestamp="2008-12-14T16:55:17Z" uid="62236" user="Paulchen Panther" changeset="372292" lat="49.5610427" lon="11.369613"/>
  <node id="315972966" version="3" timestamp="2008-12-14T16:56:26Z" uid="62236" user="Paulchen Panther" changeset="372292" lat="49.5610245" lon="11.3696671"/>
  <node id="315972966" version="4" timestamp="2008-12-14T16:56:40Z" uid="62236" user="Paulchen Panther" changeset="372292" lat="49.5610245" lon="11.3696671"/>
  <node id="315972966" version="5" timestamp="2008-12-30T12:00:34Z" uid="44217" user="kjon" changeset="670651" lat="49.5610245" lon="11.3696671"/>
  <node id="315972966" version="6" timestamp="2009-01-11T16:24:08Z" uid="9364" user="keichwa" changeset="772995" lat="49.5610245" lon="11.3696671"/>
  <node id="315972966" version="7" timestamp="2009-01-11T16:44:05Z" uid="9364" user="keichwa" changeset="772995" lat="49.5610245" lon="11.3696671"/>
  <node id="315972966" version="8" timestamp="2009-01-11T16:45:55Z" uid="9364" user="keichwa" changeset="772995" lat="49.5610245" lon="11.3696671"/>
  <node id="315972966" version="9" timestamp="2009-03-23T22:40:33Z" uid="104868" user="peterjk71" changeset="851801" lat="49.5610245" lon="11.3696671"/>
  <node id="315972966" version="10" timestamp="2009-05-13T13:14:04Z" uid="41113" user="cycling_zno" changeset="1175159" lat="49.5610378" lon="11.3695926"/>
  <node id="315972966" version="11" timestamp="2011-01-20T23:07:37Z" uid="82877" user="Wankmann" changeset="7035893" lat="49.5610787" lon="11.3696055"/>
  <node id="315972967" version="1" timestamp="2008-11-30T22:44:13Z" uid="49111" user="Markus B" changeset="815654" lat="49.5609384" lon="11.3695414"/>
  <node id="315972967" version="2" timestamp="2008-12-14T16:55:18Z" uid="62236" user="Paulchen Panther" changeset="372292" lat="49.5609384" lon="11.3695414"/>
  <node id="315972967" version="3" timestamp="2008-12-14T16:56:26Z" uid="62236" user="Paulchen Panther" changeset="372292" lat="49.5609076" lon="11.3695813"/>
  <node id="315972967" version="4" timestamp="2008-12-14T16:56:40Z" uid="62236" user="Paulchen Panther" changeset="372292" lat="49.5609076" lon="11.3695813"/>
  <node id="315972967" version="5" timestamp="2008-12-30T12:00:34Z" uid="44217" user="kjon" changeset="670651" lat="49.5609076" lon="11.3695813"/>
  <node id="315972967" version="6" timestamp="2009-01-11T16:24:08Z" uid="9364" user="keichwa" changeset="772995" lat="49.5609076" lon="11.3695813"/>
  <node id="315972967" version="7" timestamp="2009-01-11T16:44:05Z" uid="9364" user="keichwa" changeset="772995" lat="49.5609076" lon="11.3695813"/>
  <node id="315972967" version="8" timestamp="2009-01-11T16:45:55Z" uid="9364" user="keichwa" changeset="772995" lat="49.5609076" lon="11.3695813"/>
  <node id="315972967" version="9" timestamp="2009-03-23T22:40:34Z" uid="104868" user="peterjk71" changeset="851801" lat="49.5609076" lon="11.3695813"/>
  <node id="315972967" version="10" timestamp="2009-05-13T13:14:04Z" uid="41113" user="cycling_zno" changeset="1175159" lat="49.5609875" lon="11.3695467"/>
  <node id="315972967" version="11" timestamp="2010-02-14T18:52:50Z" uid="49111" user="Markus B" changeset="3877199" lat="49.5609639" lon="11.3696195"/>
  <node id="315972967" version="12" timestamp="2011-01-20T23:07:29Z" uid="82877" user="Wankmann" changeset="7035893" lat="49.5610017" lon="11.3696292"/>
  <node id="315972968" version="1" timestamp="2008-11-30T22:44:13Z" uid="49111" user="Markus B" changeset="815654" lat="49.5547418" lon="11.3756158"/>
  <node id="315972968" version="2" timestamp="2009-04-30T18:18:43Z" uid="62236" user="Paulchen Panther" changeset="1029056" lat="49.5547281" lon="11.375669"/>
  <node id="315972968" version="3" timestamp="2010-04-28T19:38:04Z" uid="82877" user="Wankmann" changeset="4552872" lat="49.5547362" lon="11.3756167"/>
  <node id="315972968" version="4" timestamp="2011-01-21T17:55:31Z" uid="82877" user="Wankmann" changeset="7042763" lat="49.5547079" lon="11.3756358"/>
  <node id="315972969" version="1" timestamp="2008-11-30T22:44:13Z" uid="49111" user="Markus B" changeset="815654" lat="49.554936" lon="11.3755697"/>
  <node id="315972969" version="2" timestamp="2009-04-30T18:18:43Z" uid="62236" user="Paulchen Panther" changeset="1029056" lat="49.5548617" lon="11.3755831"/>
  <node id="315972969" version="3" timestamp="2010-04-28T19:38:04Z" uid="82877" user="Wankmann" changeset="4552872" lat="49.5548552" lon="11.3755582"/>
  <node id="315972969" version="4" timestamp="2010-12-11T20:09:32Z" uid="82877" user="Wankmann" changeset="6628999" lat="49.5548456" lon="11.3756099"/>
  <node id="315972970" version="1" timestamp="2008-11-30T22:44:13Z" uid="49111" user="Markus B" changeset="815654" lat="49.5550435" lon="11.3753211"/>
  <node id="315972970" version="2" timestamp="2009-04-30T18:18:43Z" uid="62236" user="Paulchen Panther" changeset="1029056" lat="49.5549341" lon="11.3753686"/>
  <node id="315972970" version="3" timestamp="2010-04-28T19:38:04Z" uid="82877" user="Wankmann" changeset="4552872" lat="49.554947" lon="11.3753985"/>
  <node id="315972970" version="4" timestamp="2010-12-11T20:09:32Z" uid="82877" user="Wankmann" changeset="6628999" lat="49.5549709" lon="11.3755018"/>
  <node id="315972974" version="1" timestamp="2008-11-30T22:44:14Z" uid="49111" user="Markus B" changeset="815654" lat="49.5549838" lon="11.374856"/>
  <node id="315972974" version="2" timestamp="2009-04-30T18:18:44Z" uid="62236" user="Paulchen Panther" changeset="1029056" lat="49.5549838" lon="11.374856"/>
  <node id="315972976" version="1" timestamp="2008-11-30T22:44:14Z" uid="49111" user="Markus B" changeset="815654" lat="49.5550405" lon="11.3749849"/>
  <node id="315972976" version="2" timestamp="2009-04-30T18:18:43Z" uid="62236" user="Paulchen Panther" changeset="1029056" lat="49.554806" lon="11.3747248"/>
  <node id="315972976" version="3" timestamp="2010-12-11T20:09:33Z" uid="82877" user="Wankmann" changeset="6628999" lat="49.5549018" lon="11.3746787"/>
  <node id="315972976" version="4" timestamp="2011-01-21T20:05:41Z" uid="82877" user="Wankmann" changeset="7044021" lat="49.5549246" lon="11.3745907"/>
  <node id="315972978" version="1" timestamp="2008-11-30T22:44:14Z" uid="49111" user="Markus B" changeset="815654" lat="49.5548033" lon="11.3716548"/>
  <node id="315972978" version="2" timestamp="2009-04-30T18:19:34Z" uid="62236" user="Paulchen Panther" changeset="1029056" lat="49.5547058" lon="11.371695"/>
  <node id="315972978" version="3" timestamp="2010-12-11T20:09:36Z" uid="82877" user="Wankmann" changeset="6628999" lat="49.5547776" lon="11.3715751"/>
  <node id="315972980" version="1" timestamp="2008-11-30T22:44:14Z" uid="49111" user="Markus B" changeset="815654" lat="49.5544807" lon="11.3704723"/>
  <node id="315972980" version="2" timestamp="2009-04-30T18:19:34Z" uid="62236" user="Paulchen Panther" changeset="1029056" lat="49.5543773" lon="11.3705363"/>
  <node id="315972980" version="3" timestamp="2010-12-11T20:09:35Z" uid="82877" user="Wankmann" changeset="6628999" lat="49.5544731" lon="11.370361"/>
  <node id="315972983" version="1" timestamp="2008-11-30T22:44:14Z" uid="49111" user="Markus B" changeset="815654" lat="49.5545632" lon="11.3688588"/>
  <node id="315972983" version="2" timestamp="2009-04-30T18:19:34Z" uid="62236" user="Paulchen Panther" changeset="1029056" lat="49.5544775" lon="11.3689999"/>
  <node id="315972983" version="3" timestamp="2010-12-11T20:09:33Z" uid="82877" user="Wankmann" changeset="6628999" lat="49.5545074" lon="11.368963"/>
  <node id="315972985" version="1" timestamp="2008-11-30T22:44:14Z" uid="49111" user="Markus B" changeset="815654" lat="49.5547137" lon="11.3689859"/>
  <node id="315972985" version="2" timestamp="2009-04-30T18:19:35Z" uid="62236" user="Paulchen Panther" changeset="1029056" lat="49.5546613" lon="11.3690514"/>
  <node id="315972985" version="3" timestamp="2010-12-11T20:09:32Z" uid="82877" user="Wankmann" changeset="6628999" lat="49.5546972" lon="11.3689684"/>
  <node id="315972985" version="4" timestamp="2011-01-21T17:55:30Z" uid="82877" user="Wankmann" changeset="7042763" lat="49.5546995" lon="11.3689369"/>
  <node id="315972989" version="1" timestamp="2008-11-30T22:44:14Z" uid="49111" user="Markus B" changeset="815654" lat="49.5552192" lon="11.3693782"/>
  <node id="315972992" version="1" timestamp="2008-11-30T22:44:14Z" uid="49111" user="Markus B" changeset="815654" lat="49.5553446" lon="11.3671182"/>
  <node id="315972992" version="2" timestamp="2009-04-30T18:19:41Z" uid="62236" user="Paulchen Panther" changeset="1029056" lat="49.5553239" lon="11.3670602"/>
  <node id="315972996" version="1" timestamp="2008-11-30T22:44:15Z" uid="49111" user="Markus B" changeset="815654" lat="49.5554916" lon="11.3667314"/>
  <node id="315972996" version="2" timestamp="2009-01-11T15:03:53Z" uid="9364" user="keichwa" changeset="772995" lat="49.5554916" lon="11.366642"/>
  <node id="315972996" version="3" timestamp="2010-04-28T19:41:10Z" uid="82877" user="Wankmann" changeset="4552909" lat="49.5554087" lon="11.3666981"/>
  <node id="315972998" version="1" timestamp="2008-11-30T22:44:15Z" uid="49111" user="Markus B" changeset="815654" lat="49.5550363" lon="11.3653776"/>
  <node id="315972998" version="2" timestamp="2009-01-11T15:03:53Z" uid="9364" user="keichwa" changeset="772995" lat="49.5551233" lon="11.3654894"/>
  <node id="315972998" version="3" timestamp="2011-03-23T18:36:00Z" uid="82877" user="Wankmann" changeset="7648884" lat="49.5550829" lon="11.3655128"/>
  <node id="315972999" version="1" timestamp="2008-11-30T22:44:15Z" uid="49111" user="Markus B" changeset="815654" lat="49.5552478" lon="11.3661125"/>
  <node id="315972999" version="2" timestamp="2009-01-11T15:03:53Z" uid="9364" user="keichwa" changeset="772995" lat="49.5552696" lon="11.3660566"/>
  <node id="315973001" version="1" timestamp="2008-11-30T22:44:15Z" uid="49111" user="Markus B" changeset="815654" lat="49.5552227" lon="11.3637862"/>
  <node id="315973001" version="2" timestamp="2009-01-11T15:03:52Z" uid="9364" user="keichwa" changeset="772995" lat="49.5551574" lon="11.3637527"/>
  <node id="315973001" version="3" timestamp="2010-03-30T19:37:09Z" uid="82877" user="Wankmann" changeset="4279950" lat="49.5550649" lon="11.3633133"/>
  <node id="315973004" version="1" timestamp="2008-11-30T22:44:15Z" uid="49111" user="Markus B" changeset="815654" lat="49.5550865" lon="11.3643885"/>
  <node id="315973004" version="2" timestamp="2009-05-13T13:03:13Z" uid="41113" user="cycling_zno" changeset="1175051" lat="49.5551165" lon="11.3640928"/>
  <node id="315973007" version="1" timestamp="2008-11-30T22:44:15Z" uid="49111" user="Markus B" changeset="815654" lat="49.5551116" lon="11.3647145"/>
  <node id="315973007" version="2" timestamp="2009-01-11T15:03:53Z" uid="9364" user="keichwa" changeset="772995" lat="49.5550536" lon="11.3648374"/>
  <node id="315973007" version="3" timestamp="2011-03-23T18:35:49Z" uid="82877" user="Wankmann" changeset="7648884" lat="49.5550283" lon="11.3648374"/>
  <node id="315973010" version="1" timestamp="2008-11-30T22:44:15Z" uid="49111" user="Markus B" changeset="815654" lat="49.5549624" lon="11.3619756"/>
  <node id="315973012" version="1" timestamp="2008-11-30T22:44:16Z" uid="49111" user="Markus B" changeset="815654" lat="49.5550138" lon="11.3621635"/>
  <node id="315973012" version="2" timestamp="2009-05-13T13:03:13Z" uid="41113" user="cycling_zno" changeset="1175051" lat="49.5549913" lon="11.3621747"/>
  <node id="315973014" version="1" timestamp="2008-11-30T22:44:16Z" uid="49111" user="Markus B" changeset="815654" lat="49.5550578" lon="11.3624601"/>
  <node id="315973014" version="2" timestamp="2010-03-30T19:37:25Z" uid="82877" user="Wankmann" changeset="4279950" lat="49.5550578" lon="11.3624601"/>
  <node id="315973017" version="1" timestamp="2008-11-30T22:44:16Z" uid="49111" user="Markus B" changeset="815654" lat="49.555022" lon="11.3627308"/>
  <node id="315973017" version="2" timestamp="2009-01-01T17:50:00Z" uid="9364" user="keichwa" changeset="699869" lat="49.5550141" lon="11.3626942"/>
  <node id="315973017" version="3" timestamp="2009-05-13T13:03:13Z" uid="41113" user="cycling_zno" changeset="1175051" lat="49.5549654" lon="11.3626306"/>
  <node id="315973020" version="1" timestamp="2008-11-30T22:44:16Z" uid="49111" user="Markus B" changeset="815654" lat="49.5554414" lon="11.3615704"/>
  <node id="315973020" version="2" timestamp="2011-12-17T10:25:23Z" uid="82877" user="Wankmann" changeset="10137154" lat="49.5554414" lon="11.3615704"/>
  <node id="315973022" version="1" timestamp="2008-11-30T22:44:16Z" uid="49111" user="Markus B" changeset="815654" lat="49.5553518" lon="11.3614212"/>
  <node id="315973022" version="2" timestamp="2009-01-11T14:57:07Z" uid="9364" user="keichwa" changeset="772995" lat="49.5553235" lon="11.3614742"/>
  <node id="315973022" version="3" timestamp="2009-05-13T13:03:13Z" uid="41113" user="cycling_zno" changeset="1175051" lat="49.5553647" lon="11.3615004"/>
  <node id="315973022" version="4" timestamp="2010-03-30T19:37:18Z" uid="82877" user="Wankmann" changeset="4279950" lat="49.5553085" lon="11.361468"/>
  <node id="315973025" version="1" timestamp="2008-11-30T22:44:16Z" uid="49111" user="Markus B" changeset="815654" lat="49.555022" lon="11.361587"/>
  <node id="315973025" version="2" timestamp="2009-01-11T14:57:05Z" uid="9364" user="keichwa" changeset="772995" lat="49.5550524" lon="11.361562"/>
  <node id="315973025" version="3" timestamp="2009-05-13T13:03:13Z" uid="41113" user="cycling_zno" changeset="1175051" lat="49.5551348" lon="11.3616181"/>
  <node id="315973028" version="1" timestamp="2008-11-30T22:44:16Z" uid="49111" user="Markus B" changeset="815654" lat="49.5552658" lon="11.3615152"/>
  <node id="315973028" version="2" timestamp="2009-05-13T13:03:13Z" uid="41113" user="cycling_zno" changeset="1175051" lat="49.5552883" lon="11.3615526"/>
  <node id="315973030" version="1" timestamp="2008-11-30T22:44:17Z" uid="49111" user="Markus B" changeset="815654" lat="49.5550771" lon="11.3616992"/>
  <node id="315973032" version="1" timestamp="2008-11-30T22:44:17Z" uid="49111" user="Markus B" changeset="815654" lat="49.5550802" lon="11.3617588"/>
  <node id="315973032" version="2" timestamp="2010-03-30T19:37:24Z" uid="82877" user="Wankmann" changeset="4279950" lat="49.5550802" lon="11.3617588"/>
  <node id="315973035" version="1" timestamp="2008-11-30T22:44:17Z" uid="49111" user="Markus B" changeset="815654" lat="49.5550543" lon="11.3618058"/>
  <node id="315973035" version="2" timestamp="2010-03-30T19:37:24Z" uid="82877" user="Wankmann" changeset="4279950" lat="49.5550543" lon="11.3618058"/>
  <node id="315973038" version="1" timestamp="2008-11-30T22:44:17Z" uid="49111" user="Markus B" changeset="815654" lat="49.5550132" lon="11.3617986"/>
  <node id="315973038" version="2" timestamp="2010-03-30T19:37:21Z" uid="82877" user="Wankmann" changeset="4279950" lat="49.5550132" lon="11.3617986"/>
  <node id="315973041" version="1" timestamp="2008-11-30T22:44:17Z" uid="49111" user="Markus B" changeset="815654" lat="49.5548993" lon="11.3617841"/>
  <node id="315973042" version="1" timestamp="2008-11-30T22:44:17Z" uid="49111" user="Markus B" changeset="815654" lat="49.554884" lon="11.361804"/>
  <node id="315973043" version="1" timestamp="2008-11-30T22:44:17Z" uid="49111" user="Markus B" changeset="815654" lat="49.5548864" lon="11.3618312"/>
  <node id="315973044" version="1" timestamp="2008-11-30T22:44:17Z" uid="49111" user="Markus B" changeset="815654" lat="49.5549944" lon="11.3621281"/>
  <node id="315973045" version="1" timestamp="2008-11-30T22:44:18Z" uid="49111" user="Markus B" changeset="815654" lat="49.5550391" lon="11.3622875"/>
  <node id="315973045" version="2" timestamp="2009-05-13T13:03:14Z" uid="41113" user="cycling_zno" changeset="1175051" lat="49.5550166" lon="11.3622987"/>
  <node id="315973046" version="1" timestamp="2008-11-30T22:44:18Z" uid="49111" user="Markus B" changeset="815654" lat="49.5549827" lon="11.3620358"/>
  <node id="315973047" version="1" timestamp="2008-11-30T22:44:18Z" uid="49111" user="Markus B" changeset="815654" lat="49.5549944" lon="11.3617787"/>
  <node id="315973048" version="1" timestamp="2008-11-30T22:44:18Z" uid="49111" user="Markus B" changeset="815654" lat="49.5550179" lon="11.3616175"/>
  <node id="315973048" version="2" timestamp="2009-05-13T13:03:14Z" uid="41113" user="cycling_zno" changeset="1175051" lat="49.5550516" lon="11.3616587"/>
  <node id="315973048" version="3" timestamp="2010-03-30T19:37:21Z" uid="82877" user="Wankmann" changeset="4279950" lat="49.5550516" lon="11.3616587"/>
  <node id="315973049" version="1" timestamp="2008-11-30T22:44:18Z" uid="49111" user="Markus B" changeset="815654" lat="49.5549739" lon="11.360483"/>
  <node id="315973049" version="2" timestamp="2009-11-06T02:41:20Z" uid="149968" user="HoMa" changeset="3045356" lat="49.5549739" lon="11.360483"/>
  <node id="315973049" version="3" timestamp="2010-08-16T06:26:30Z" uid="82877" user="Wankmann" changeset="5506480" lat="49.5550644" lon="11.3605647"/>
  <node id="315973049" version="4" timestamp="2011-12-17T10:25:17Z" uid="82877" user="Wankmann" changeset="10137154" lat="49.5549719" lon="11.3605102"/>
  <node id="315973050" version="1" timestamp="2008-11-30T22:44:18Z" uid="49111" user="Markus B" changeset="815654" lat="49.5553346" lon="11.3605851"/>
  <node id="315973051" version="1" timestamp="2008-11-30T22:44:18Z" uid="49111" user="Markus B" changeset="815654" lat="49.5552919" lon="11.3605564"/>
  <node id="315973052" version="1" timestamp="2008-11-30T22:44:18Z" uid="49111" user="Markus B" changeset="815654" lat="49.5552654" lon="11.36065"/>
  <node id="315973053" version="1" timestamp="2008-11-30T22:44:19Z" uid="49111" user="Markus B" changeset="815654" lat="49.5553081" lon="11.3606788"/>
  <node id="315973054" version="1" timestamp="2008-11-30T22:44:19Z" uid="49111" user="Markus B" changeset="815654" lat="49.5553517" lon="11.3606253">
    <tag k="amenity" v="toilets"/>
  </node>
  <node id="315973055" version="1" timestamp="2008-11-30T22:44:19Z" uid="49111" user="Markus B" changeset="815654" lat="49.5560186" lon="11.3568779"/>
  <node id="315973058" version="1" timestamp="2008-11-30T22:44:19Z" uid="49111" user="Markus B" changeset="815654" lat="49.5546257" lon="11.3732909"/>
  <node id="315973058" version="2" timestamp="2008-12-14T16:54:55Z" uid="62236" user="Paulchen Panther" changeset="372292" lat="49.5546257" lon="11.3732909"/>
  <node id="315973058" version="3" timestamp="2008-12-14T16:55:09Z" uid="62236" user="Paulchen Panther" changeset="372292" lat="49.5546257" lon="11.3732909"/>
  <node id="315973058" version="4" timestamp="2008-12-17T20:43:57Z" uid="62236" user="Paulchen Panther" changeset="447619" lat="49.5546257" lon="11.3732909"/>
  <node id="315973058" version="5" timestamp="2008-12-17T20:44:13Z" uid="62236" user="Paulchen Panther" changeset="447619" lat="49.5546257" lon="11.3732909"/>
  <node id="315973058" version="6" timestamp="2008-12-17T20:44:24Z" uid="62236" user="Paulchen Panther" changeset="447619" lat="49.5546257" lon="11.3732909"/>
  <node id="315973058" version="7" timestamp="2009-05-13T13:21:53Z" uid="41113" user="cycling_zno" changeset="1175212" lat="49.5546257" lon="11.3732909"/>
  <node id="315973058" version="8" timestamp="2011-12-15T16:08:33Z" uid="82877" user="Wankmann" changeset="10125132" lat="49.5546257" lon="11.3732909"/>
  <node id="315973060" version="1" timestamp="2008-11-30T22:44:19Z" uid="49111" user="Markus B" changeset="815654" lat="49.5555347" lon="11.3731653"/>
  <node id="315973060" version="2" timestamp="2008-12-14T16:54:56Z" uid="62236" user="Paulchen Panther" changeset="372292" lat="49.5555347" lon="11.3731653"/>
  <node id="315973060" version="3" timestamp="2008-12-14T16:55:10Z" uid="62236" user="Paulchen Panther" changeset="372292" lat="49.5555347" lon="11.3731653"/>
  <node id="315973060" version="4" timestamp="2008-12-17T20:43:58Z" uid="62236" user="Paulchen Panther" changeset="447619" lat="49.5555347" lon="11.3731653"/>
  <node id="315973060" version="5" timestamp="2008-12-17T20:44:13Z" uid="62236" user="Paulchen Panther" changeset="447619" lat="49.5555347" lon="11.3731653"/>
  <node id="315973060" version="6" timestamp="2008-12-17T20:44:25Z" uid="62236" user="Paulchen Panther" changeset="447619" lat="49.5555347" lon="11.3731653"/>
  <node id="315973060" version="7" timestamp="2009-05-13T13:21:53Z" uid="41113" user="cycling_zno" changeset="1175212" lat="49.5555347" lon="11.3731653"/>
  <node id="315973060" version="8" timestamp="2011-12-15T16:08:34Z" uid="82877" user="Wankmann" changeset="10125132" lat="49.5555347" lon="11.3731653"/>
  <node id="315973064" version="1" timestamp="2008-11-30T22:44:19Z" uid="49111" user="Markus B" changeset="815654" lat="49.5548377" lon="11.3732218"/>
  <node id="315973064" version="2" timestamp="2008-12-14T16:54:55Z" uid="62236" user="Paulchen Panther" changeset="372292" lat="49.5548377" lon="11.3732218"/>
  <node id="315973064" version="3" timestamp="2008-12-14T16:55:10Z" uid="62236" user="Paulchen Panther" changeset="372292" lat="49.5548377" lon="11.3732218"/>
  <node id="315973064" version="4" timestamp="2008-12-17T20:43:58Z" uid="62236" user="Paulchen Panther" changeset="447619" lat="49.5548377" lon="11.3732218"/>
  <node id="315973064" version="5" timestamp="2008-12-17T20:44:13Z" uid="62236" user="Paulchen Panther" changeset="447619" lat="49.5548377" lon="11.3732218"/>
  <node id="315973064" version="6" timestamp="2008-12-17T20:44:24Z" uid="62236" user="Paulchen Panther" changeset="447619" lat="49.5548377" lon="11.3732218"/>
  <node id="315973064" version="7" timestamp="2009-05-13T13:21:53Z" uid="41113" user="cycling_zno" changeset="1175212" lat="49.5548377" lon="11.3732218"/>
  <node id="315973064" version="8" timestamp="2011-12-15T16:08:34Z" uid="82877" user="Wankmann" changeset="10125132" lat="49.5548377" lon="11.3732218"/>
  <node id="315973066" version="1" timestamp="2008-11-30T22:44:20Z" uid="49111" user="Markus B" changeset="815654" lat="49.5545173" lon="11.373203">
    <tag k="historic" v="wayside_cross"/>
  </node>
  <node id="315973068" version="1" timestamp="2008-11-30T22:44:20Z" uid="49111" user="Markus B" changeset="815654" lat="49.5544821" lon="11.3732844">
    <tag k="amenity" v="bench"/>
  </node>
  <node id="315973069" version="1" timestamp="2008-11-30T22:44:20Z" uid="49111" user="Markus B" changeset="815654" lat="49.5534313" lon="11.3751122"/>
  <node id="315973070" version="1" timestamp="2008-11-30T22:44:20Z" uid="49111" user="Markus B" changeset="815654" lat="49.5533022" lon="11.3750941"/>
  <node id="315973071" version="1" timestamp="2008-11-30T22:44:20Z" uid="49111" user="Markus B" changeset="815654" lat="49.5531907" lon="11.3751122"/>
  <node id="315973071" version="2" timestamp="2011-01-21T09:18:23Z" uid="82877" user="Wankmann" changeset="7038221" lat="49.5531907" lon="11.3751122"/>
  <node id="315973072" version="1" timestamp="2008-11-30T22:44:20Z" uid="49111" user="Markus B" changeset="815654" lat="49.5531085" lon="11.3751665"/>
  <node id="315973072" version="2" timestamp="2011-01-21T20:05:40Z" uid="82877" user="Wankmann" changeset="7044021" lat="49.5531152" lon="11.3751973"/>
  <node id="315973073" version="1" timestamp="2008-11-30T22:44:20Z" uid="49111" user="Markus B" changeset="815654" lat="49.5529793" lon="11.3753203"/>
  <node id="315973073" version="2" timestamp="2011-01-21T20:05:21Z" uid="82877" user="Wankmann" changeset="7044021" lat="49.5529948" lon="11.3753579"/>
  <node id="315973074" version="1" timestamp="2008-11-30T22:44:20Z" uid="49111" user="Markus B" changeset="815654" lat="49.5528502" lon="11.375628"/>
  <node id="315973074" version="2" timestamp="2011-01-21T20:05:23Z" uid="82877" user="Wankmann" changeset="7044021" lat="49.5529012" lon="11.3755271"/>
  <node id="315973075" version="1" timestamp="2008-11-30T22:44:21Z" uid="49111" user="Markus B" changeset="815654" lat="49.5526858" lon="11.3757365"/>
  <node id="315973076" version="1" timestamp="2008-11-30T22:44:21Z" uid="49111" user="Markus B" changeset="815654" lat="49.5524158" lon="11.3759537"/>
  <node id="315973077" version="1" timestamp="2008-11-30T22:44:21Z" uid="49111" user="Markus B" changeset="815654" lat="49.5521986" lon="11.3761618"/>
  <node id="315973078" version="1" timestamp="2008-11-30T22:44:21Z" uid="49111" user="Markus B" changeset="815654" lat="49.5520636" lon="11.3762342"/>
  <node id="315973078" version="2" timestamp="2010-12-11T20:03:50Z" uid="82877" user="Wankmann" changeset="6628929" lat="49.5521067" lon="11.3762176"/>
  <node id="315973078" version="3" timestamp="2011-01-04T08:41:18Z" uid="82877" user="Wankmann" changeset="6858107" lat="49.5521343" lon="11.3762176"/>
  <node id="315973079" version="1" timestamp="2008-11-30T22:44:21Z" uid="49111" user="Markus B" changeset="815654" lat="49.5519403" lon="11.376198"/>
  <node id="315973080" version="1" timestamp="2008-11-30T22:44:22Z" uid="49111" user="Markus B" changeset="815654" lat="49.5517583" lon="11.3761347"/>
  <node id="315973081" version="1" timestamp="2008-11-30T22:44:22Z" uid="49111" user="Markus B" changeset="815654" lat="49.5516996" lon="11.3760623"/>
  <node id="315973082" version="1" timestamp="2008-11-30T22:44:22Z" uid="49111" user="Markus B" changeset="815654" lat="49.5516292" lon="11.3759809"/>
  <node id="315973082" version="2" timestamp="2010-12-11T20:03:50Z" uid="82877" user="Wankmann" changeset="6628929" lat="49.5516615" lon="11.3759477"/>
  <node id="315973084" version="1" timestamp="2008-11-30T22:44:22Z" uid="49111" user="Markus B" changeset="815654" lat="49.5515939" lon="11.3758632"/>
  <node id="315973084" version="2" timestamp="2010-12-11T20:03:50Z" uid="82877" user="Wankmann" changeset="6628929" lat="49.5516154" lon="11.3758134"/>
  <node id="315973086" version="1" timestamp="2008-11-30T22:44:22Z" uid="49111" user="Markus B" changeset="815654" lat="49.5515352" lon="11.3753384"/>
  <node id="315973089" version="1" timestamp="2008-11-30T22:44:22Z" uid="49111" user="Markus B" changeset="815654" lat="49.5513591" lon="11.3750036"/>
  <node id="315973089" version="2" timestamp="2009-01-11T15:26:07Z" uid="9364" user="keichwa" changeset="772995" lat="49.5513509" lon="11.3750918"/>
  <node id="315973090" version="1" timestamp="2008-11-30T22:44:23Z" uid="49111" user="Markus B" changeset="815654" lat="49.5511654" lon="11.3748679"/>
  <node id="315973090" version="2" timestamp="2009-01-11T15:26:07Z" uid="9364" user="keichwa" changeset="772995" lat="49.5511572" lon="11.3749561"/>
  <node id="315973091" version="1" timestamp="2008-11-30T22:44:23Z" uid="49111" user="Markus B" changeset="815654" lat="49.5504081" lon="11.375067"/>
  <node id="315973091" version="2" timestamp="2009-01-11T15:26:06Z" uid="9364" user="keichwa" changeset="772995" lat="49.5505961" lon="11.3751048"/>
  <node id="315973092" version="1" timestamp="2008-11-30T22:44:23Z" uid="49111" user="Markus B" changeset="815654" lat="49.5501733" lon="11.3751484"/>
  <node id="315973092" version="2" timestamp="2011-01-21T20:05:31Z" uid="82877" user="Wankmann" changeset="7044021" lat="49.5502546" lon="11.3752267"/>
  <node id="315973093" version="1" timestamp="2008-11-30T22:44:23Z" uid="49111" user="Markus B" changeset="815654" lat="49.5499284" lon="11.3753224"/>
  <node id="315973093" version="2" timestamp="2009-01-11T15:26:05Z" uid="9364" user="keichwa" changeset="772995" lat="49.5499938" lon="11.3753224"/>
  <node id="315973094" version="1" timestamp="2008-11-30T22:44:23Z" uid="49111" user="Markus B" changeset="815654" lat="49.5492105" lon="11.3750941"/>
  <node id="315973094" version="2" timestamp="2009-01-11T15:26:05Z" uid="9364" user="keichwa" changeset="772995" lat="49.5492841" lon="11.3750689"/>
  <node id="315973095" version="1" timestamp="2008-11-30T22:44:23Z" uid="49111" user="Markus B" changeset="815654" lat="49.5487057" lon="11.3754922"/>
  <node id="315973096" version="1" timestamp="2008-11-30T22:44:23Z" uid="49111" user="Markus B" changeset="815654" lat="49.5486058" lon="11.375637"/>
  <node id="315973096" version="2" timestamp="2009-01-11T15:31:36Z" uid="9364" user="keichwa" changeset="772995" lat="49.5486467" lon="11.3756244"/>
  <node id="315973097" version="1" timestamp="2008-11-30T22:44:24Z" uid="49111" user="Markus B" changeset="815654" lat="49.5482653" lon="11.3755827"/>
  <node id="315973097" version="2" timestamp="2009-01-11T15:31:36Z" uid="9364" user="keichwa" changeset="772995" lat="49.5481917" lon="11.3755449"/>
  <node id="315973098" version="1" timestamp="2008-11-30T22:44:24Z" uid="49111" user="Markus B" changeset="815654" lat="49.5478074" lon="11.3762704"/>
  <node id="315973099" version="1" timestamp="2008-11-30T22:44:24Z" uid="49111" user="Markus B" changeset="815654" lat="49.5474728" lon="11.3763338"/>
  <node id="315973100" version="1" timestamp="2008-11-30T22:44:24Z" uid="49111" user="Markus B" changeset="815654" lat="49.5467213" lon="11.3761075"/>
  <node id="315973100" version="2" timestamp="2009-12-24T13:11:52Z" uid="150381" user="howideosm" changeset="3442081" lat="49.5467213" lon="11.3761075"/>
  <node id="315973100" version="3" timestamp="2010-04-28T12:25:56Z" uid="82877" user="Wankmann" changeset="4549103" lat="49.5466375" lon="11.3761075"/>
  <node id="315973101" version="1" timestamp="2008-11-30T22:44:24Z" uid="49111" user="Markus B" changeset="815654" lat="49.5465158" lon="11.3761528"/>
  <node id="315973102" version="1" timestamp="2008-11-30T22:44:24Z" uid="49111" user="Markus B" changeset="815654" lat="49.5463104" lon="11.3765687"/>
  <node id="315973102" version="2" timestamp="2010-04-28T12:25:56Z" uid="82877" user="Wankmann" changeset="4549103" lat="49.5463707" lon="11.3763156"/>
  <node id="315973103" version="1" timestamp="2008-11-30T22:44:25Z" uid="49111" user="Markus B" changeset="815654" lat="49.5459874" lon="11.3770938"/>
  <node id="315973103" version="2" timestamp="2010-04-28T12:25:57Z" uid="82877" user="Wankmann" changeset="4549103" lat="49.5459371" lon="11.3769905"/>
  <node id="315973103" version="3" timestamp="2010-05-13T05:10:30Z" uid="82877" user="Wankmann" changeset="4682531" lat="49.5459575" lon="11.3769365"/>
  <node id="315973104" version="1" timestamp="2008-11-30T22:44:25Z" uid="49111" user="Markus B" changeset="815654" lat="49.5451831" lon="11.3766233"/>
  <node id="315973104" version="2" timestamp="2009-01-11T15:40:17Z" uid="9364" user="keichwa" changeset="772995" lat="49.5452197" lon="11.3766072"/>
  <node id="315973104" version="3" timestamp="2009-03-29T17:50:57Z" uid="110481" user="knuddi" changeset="868926" lat="49.5452197" lon="11.3766072"/>
  <node id="315973107" version="1" timestamp="2008-11-30T22:44:25Z" uid="49111" user="Markus B" changeset="815654" lat="49.5451655" lon="11.3758723"/>
  <node id="315973110" version="1" timestamp="2008-11-30T22:44:25Z" uid="49111" user="Markus B" changeset="815654" lat="49.544731" lon="11.3755284"/>
  <node id="315973110" version="2" timestamp="2010-07-23T19:33:38Z" uid="82877" user="Wankmann" changeset="5298194" lat="49.5447137" lon="11.3755071"/>
  <node id="315973114" version="1" timestamp="2008-11-30T22:44:25Z" uid="49111" user="Markus B" changeset="815654" lat="49.5447252" lon="11.374524"/>
  <node id="315973117" version="1" timestamp="2008-11-30T22:44:26Z" uid="49111" user="Markus B" changeset="815654" lat="49.5441263" lon="11.3735016"/>
  <node id="315973117" version="2" timestamp="2008-11-30T23:09:13Z" uid="49111" user="Markus B" changeset="815654" lat="49.5441472" lon="11.3735391"/>
  <node id="315973117" version="3" timestamp="2009-11-07T04:04:37Z" uid="149968" user="HoMa" changeset="3053362" lat="49.5441077" lon="11.3733453"/>
  <node id="315973120" version="1" timestamp="2008-11-30T22:44:26Z" uid="49111" user="Markus B" changeset="815654" lat="49.5434041" lon="11.3742707"/>
  <node id="315973120" version="2" timestamp="2009-11-07T04:04:38Z" uid="149968" user="HoMa" changeset="3053362" lat="49.5434507" lon="11.3742258"/>
  <node id="315973120" version="3" timestamp="2011-01-21T20:05:24Z" uid="82877" user="Wankmann" changeset="7044021" lat="49.5434482" lon="11.3742372"/>
  <node id="315973123" version="1" timestamp="2008-11-30T22:44:26Z" uid="49111" user="Markus B" changeset="815654" lat="49.5432162" lon="11.3742435"/>
  <node id="315973123" version="2" timestamp="2011-01-21T20:05:43Z" uid="82877" user="Wankmann" changeset="7044021" lat="49.5432027" lon="11.3741867"/>
  <node id="315973124" version="1" timestamp="2008-11-30T22:44:26Z" uid="49111" user="Markus B" changeset="815654" lat="49.5430795" lon="11.3743403"/>
  <node id="315973124" version="2" timestamp="2011-01-21T20:05:18Z" uid="82877" user="Wankmann" changeset="7044021" lat="49.5430709" lon="11.3743289"/>
  <node id="315973126" version="1" timestamp="2008-11-30T22:44:26Z" uid="49111" user="Markus B" changeset="815654" lat="49.5425569" lon="11.3743899"/>
  <node id="315973126" version="2" timestamp="2009-01-11T15:44:34Z" uid="9364" user="keichwa" changeset="772995" lat="49.5425134" lon="11.3744621"/>
  <node id="315973126" version="3" timestamp="2011-01-21T20:05:27Z" uid="82877" user="Wankmann" changeset="7044021" lat="49.5425109" lon="11.3744735"/>
  <node id="315973127" version="1" timestamp="2008-11-30T22:44:27Z" uid="49111" user="Markus B" changeset="815654" lat="49.5420772" lon="11.3751122"/>
  <node id="315973127" version="2" timestamp="2009-01-11T15:44:33Z" uid="9364" user="keichwa" changeset="772995" lat="49.5420973" lon="11.37504"/>
  <node id="315973127" version="3" timestamp="2009-06-15T12:02:18Z" uid="49111" user="Markus B" changeset="1524285" lat="49.5420973" lon="11.37504"/>
  <node id="315973128" version="1" timestamp="2008-11-30T22:44:27Z" uid="49111" user="Markus B" changeset="815654" lat="49.5419108" lon="11.3751233"/>
  <node id="315973128" version="2" timestamp="2011-01-21T20:05:36Z" uid="82877" user="Wankmann" changeset="7044021" lat="49.5419083" lon="11.3751347"/>
  <node id="315973129" version="1" timestamp="2008-11-30T22:44:27Z" uid="49111" user="Markus B" changeset="815654" lat="49.5407032" lon="11.3765238"/>
  <node id="315973129" version="2" timestamp="2010-04-23T06:38:55Z" uid="82877" user="Wankmann" changeset="4500923" lat="49.5407273" lon="11.3765127"/>
  <node id="315973129" version="3" timestamp="2011-01-21T20:05:17Z" uid="82877" user="Wankmann" changeset="7044021" lat="49.5407248" lon="11.3765241"/>
  <node id="315973130" version="1" timestamp="2008-11-30T22:44:27Z" uid="49111" user="Markus B" changeset="815654" lat="49.5403744" lon="11.3762252"/>
  <node id="315973130" version="2" timestamp="2009-01-11T15:47:36Z" uid="9364" user="keichwa" changeset="772995" lat="49.5405016" lon="11.3762716"/>
  <node id="315973130" version="3" timestamp="2010-05-29T19:57:18Z" uid="82877" user="Wankmann" changeset="4845939" lat="49.5404797" lon="11.3763315"/>
  <node id="315973131" version="1" timestamp="2008-11-30T22:44:27Z" uid="49111" user="Markus B" changeset="815654" lat="49.5398812" lon="11.376388"/>
  <node id="315973131" version="2" timestamp="2009-06-15T12:01:55Z" uid="49111" user="Markus B" changeset="1524285" lat="49.5396906" lon="11.3762374"/>
  <node id="315973131" version="3" timestamp="2011-01-21T20:05:27Z" uid="82877" user="Wankmann" changeset="7044021" lat="49.5397616" lon="11.3762131"/>
  <node id="315973132" version="1" timestamp="2008-11-30T22:44:28Z" uid="49111" user="Markus B" changeset="815654" lat="49.539294" lon="11.3760171"/>
  <node id="315973132" version="2" timestamp="2008-12-01T01:07:04Z" uid="49111" user="Markus B" changeset="24386" lat="49.5393646" lon="11.3760977"/>
  <node id="315973133" version="1" timestamp="2008-11-30T22:44:28Z" uid="49111" user="Markus B" changeset="815654" lat="49.5384778" lon="11.3762252"/>
  <node id="315973133" version="2" timestamp="2009-01-11T15:47:37Z" uid="9364" user="keichwa" changeset="772995" lat="49.5385649" lon="11.376122"/>
  <node id="315973133" version="3" timestamp="2009-06-13T19:24:12Z" uid="49111" user="Markus B" changeset="1507938" lat="49.538567" lon="11.3761445"/>
  <node id="315973134" version="1" timestamp="2008-11-30T22:44:28Z" uid="49111" user="Markus B" changeset="815654" lat="49.5381608" lon="11.3765419"/>
  <node id="315973134" version="2" timestamp="2009-06-13T19:24:37Z" uid="49111" user="Markus B" changeset="1507938" lat="49.5381608" lon="11.3765419"/>
  <node id="315973135" version="1" timestamp="2008-11-30T22:44:28Z" uid="49111" user="Markus B" changeset="815654" lat="49.5379435" lon="11.3774196"/>
  <node id="315973135" version="2" timestamp="2009-11-07T04:04:36Z" uid="149968" user="HoMa" changeset="3053362" lat="49.5379702" lon="11.3773878"/>
  <node id="315973136" version="1" timestamp="2008-11-30T22:44:28Z" uid="49111" user="Markus B" changeset="815654" lat="49.537873" lon="11.3783697"/>
  <node id="315973136" version="2" timestamp="2009-06-15T12:01:55Z" uid="49111" user="Markus B" changeset="1524285" lat="49.5379217" lon="11.3784031"/>
  <node id="315973136" version="3" timestamp="2009-11-07T04:04:36Z" uid="149968" user="HoMa" changeset="3053362" lat="49.5378095" lon="11.3784171"/>
  <node id="315973137" version="1" timestamp="2008-11-30T22:44:28Z" uid="49111" user="Markus B" changeset="815654" lat="49.5377262" lon="11.3788492"/>
  <node id="315973137" version="2" timestamp="2009-06-15T12:01:55Z" uid="49111" user="Markus B" changeset="1524285" lat="49.5378724" lon="11.3788993"/>
  <node id="315973137" version="3" timestamp="2009-11-07T04:04:36Z" uid="149968" user="HoMa" changeset="3053362" lat="49.5377025" lon="11.3787684"/>
  <node id="315973138" version="1" timestamp="2008-11-30T22:44:28Z" uid="49111" user="Markus B" changeset="815654" lat="49.5086612" lon="11.408114"/>
  <node id="315973138" version="2" timestamp="2009-03-21T22:45:38Z" uid="104868" user="peterjk71" changeset="842514" lat="49.5086612" lon="11.408114"/>
  <node id="315973138" version="3" timestamp="2009-03-21T22:45:39Z" uid="104868" user="peterjk71" changeset="842514" lat="49.5086612" lon="11.408114"/>
  <node id="315973138" version="4" timestamp="2009-03-21T22:47:38Z" uid="104868" user="peterjk71" changeset="842514" lat="49.5086612" lon="11.408114"/>
  <node id="315973138" version="5" timestamp="2009-03-21T22:47:39Z" uid="104868" user="peterjk71" changeset="842514" lat="49.5086612" lon="11.408114"/>
  <node id="315973138" version="6" timestamp="2009-09-01T07:22:09Z" uid="121036" user="TheFish" changeset="2334178" lat="49.5086612" lon="11.408114"/>
  <node id="315973138" version="7" timestamp="2011-02-21T20:12:48Z" uid="82877" user="Wankmann" changeset="7357632" lat="49.5087263" lon="11.40806"/>
  <node id="315973139" version="1" timestamp="2008-11-30T22:44:28Z" uid="49111" user="Markus B" changeset="815654" lat="49.5087542" lon="11.4077799"/>
  <node id="315973139" version="2" timestamp="2009-03-21T22:45:38Z" uid="104868" user="peterjk71" changeset="842514" lat="49.5087542" lon="11.4077799"/>
  <node id="315973139" version="3" timestamp="2009-03-21T22:47:38Z" uid="104868" user="peterjk71" changeset="842514" lat="49.5087542" lon="11.4077799"/>
  <node id="315973139" version="4" timestamp="2009-09-01T07:22:09Z" uid="121036" user="TheFish" changeset="2334178" lat="49.5087542" lon="11.4077799"/>
  <node id="315973139" version="5" timestamp="2011-02-21T20:13:01Z" uid="82877" user="Wankmann" changeset="7357632" lat="49.5088193" lon="11.4077259"/>
  <node id="315973140" version="1" timestamp="2008-11-30T22:44:29Z" uid="49111" user="Markus B" changeset="815654" lat="49.5086664" lon="11.4077162"/>
  <node id="315973140" version="2" timestamp="2009-03-21T22:45:38Z" uid="104868" user="peterjk71" changeset="842514" lat="49.5086664" lon="11.4077162"/>
  <node id="315973140" version="3" timestamp="2009-03-21T22:47:38Z" uid="104868" user="peterjk71" changeset="842514" lat="49.5086664" lon="11.4077162"/>
  <node id="315973140" version="4" timestamp="2009-09-01T07:22:09Z" uid="121036" user="TheFish" changeset="2334178" lat="49.5086664" lon="11.4077162"/>
  <node id="315973140" version="5" timestamp="2011-02-21T20:12:50Z" uid="82877" user="Wankmann" changeset="7357632" lat="49.5087315" lon="11.4076622"/>
  <node id="315973141" version="1" timestamp="2008-11-30T22:44:29Z" uid="49111" user="Markus B" changeset="815654" lat="49.5085708" lon="11.4080463"/>
  <node id="315973141" version="2" timestamp="2009-03-21T22:45:38Z" uid="104868" user="peterjk71" changeset="842514" lat="49.5085708" lon="11.4080463"/>
  <node id="315973141" version="3" timestamp="2009-03-21T22:47:38Z" uid="104868" user="peterjk71" changeset="842514" lat="49.5085708" lon="11.4080463"/>
  <node id="315973141" version="4" timestamp="2009-09-01T07:22:10Z" uid="121036" user="TheFish" changeset="2334178" lat="49.5085708" lon="11.4080463"/>
  <node id="315973141" version="5" timestamp="2011-02-21T20:13:13Z" uid="82877" user="Wankmann" changeset="7357632" lat="49.5086359" lon="11.4079923"/>
  <node id="315973142" version="1" timestamp="2008-11-30T22:44:29Z" uid="49111" user="Markus B" changeset="815654" lat="49.5086139" lon="11.4084324"/>
  <node id="315973142" version="2" timestamp="2009-03-21T22:45:25Z" uid="104868" user="peterjk71" changeset="842514" lat="49.5086139" lon="11.4084324"/>
  <node id="315973142" version="3" timestamp="2009-03-21T22:45:26Z" uid="104868" user="peterjk71" changeset="842514" lat="49.5086139" lon="11.4084324"/>
  <node id="315973143" version="1" timestamp="2008-11-30T22:44:29Z" uid="49111" user="Markus B" changeset="815654" lat="49.5085176" lon="11.4083697"/>
  <node id="315973143" version="2" timestamp="2009-03-21T22:45:26Z" uid="104868" user="peterjk71" changeset="842514" lat="49.5085176" lon="11.4083697"/>
  <node id="315973144" version="1" timestamp="2008-11-30T22:44:29Z" uid="49111" user="Markus B" changeset="815654" lat="49.5084486" lon="11.408621"/>
  <node id="315973144" version="2" timestamp="2009-03-21T22:45:26Z" uid="104868" user="peterjk71" changeset="842514" lat="49.5084486" lon="11.408621"/>
  <node id="315973145" version="1" timestamp="2008-11-30T22:44:29Z" uid="49111" user="Markus B" changeset="815654" lat="49.5085449" lon="11.4086838"/>
  <node id="315973145" version="2" timestamp="2009-03-21T22:45:26Z" uid="104868" user="peterjk71" changeset="842514" lat="49.5085449" lon="11.4086838"/>
  <node id="315973147" version="1" timestamp="2008-11-30T22:44:29Z" uid="49111" user="Markus B" changeset="815654" lat="49.5094515" lon="11.405752"/>
  <node id="315973147" version="2" timestamp="2009-03-09T19:44:14Z" uid="89943" user="Bengatzer" changeset="773149" lat="49.5093929" lon="11.4057561"/>
  <node id="315973147" version="3" timestamp="2011-08-17T18:58:24Z" uid="70581" user="rsl" changeset="9050731" lat="49.5094472" lon="11.4056945"/>
  <node id="315973150" version="1" timestamp="2008-11-30T22:44:29Z" uid="49111" user="Markus B" changeset="815654" lat="49.5091735" lon="11.4065969"/>
  <node id="315973150" version="2" timestamp="2009-03-09T19:44:14Z" uid="89943" user="Bengatzer" changeset="773149" lat="49.5091149" lon="11.406601"/>
  <node id="315973150" version="3" timestamp="2011-08-17T18:58:24Z" uid="70581" user="rsl" changeset="9050731" lat="49.5091692" lon="11.4065394"/>
  <node id="315973153" version="1" timestamp="2008-11-30T22:44:30Z" uid="49111" user="Markus B" changeset="815654" lat="49.5089525" lon="11.4064244"/>
  <node id="315973153" version="2" timestamp="2009-03-09T19:44:13Z" uid="89943" user="Bengatzer" changeset="773149" lat="49.5088939" lon="11.4064285"/>
  <node id="315973153" version="3" timestamp="2011-08-17T18:58:24Z" uid="70581" user="rsl" changeset="9050731" lat="49.5089482" lon="11.4063669"/>
  <node id="315973156" version="1" timestamp="2008-11-30T22:44:30Z" uid="49111" user="Markus B" changeset="815654" lat="49.5092305" lon="11.4055795"/>
  <node id="315973156" version="2" timestamp="2009-03-09T19:44:13Z" uid="89943" user="Bengatzer" changeset="773149" lat="49.5091719" lon="11.4055836"/>
  <node id="315973156" version="3" timestamp="2011-08-17T18:58:24Z" uid="70581" user="rsl" changeset="9050731" lat="49.5092262" lon="11.405522"/>
  <node id="315973158" version="1" timestamp="2008-11-30T22:44:30Z" uid="49111" user="Markus B" changeset="815654" lat="49.5088967" lon="11.4069785">
    <tag k="amenity" v="parking"/>
  </node>
  <node id="315973158" version="2" timestamp="2011-08-17T18:58:24Z" uid="70581" user="rsl" changeset="9050731" lat="49.5089053" lon="11.4064022"/>
  <node id="315973159" version="1" timestamp="2008-11-30T22:44:30Z" uid="49111" user="Markus B" changeset="815654" lat="49.5089835" lon="11.4077033"/>
  <node id="315973159" version="3" timestamp="2008-12-17T20:26:07Z" uid="62236" user="Paulchen Panther" changeset="447619" lat="49.5089835" lon="11.4077033"/>
  <node id="315973159" version="4" timestamp="2008-12-17T20:26:43Z" uid="62236" user="Paulchen Panther" changeset="447619" lat="49.5089835" lon="11.4077033"/>
  <node id="315973159" version="5" timestamp="2008-12-20T07:54:02Z" uid="62236" user="Paulchen Panther" changeset="489763" lat="49.5089835" lon="11.4077033"/>
  <node id="315973159" version="6" timestamp="2008-12-21T08:41:36Z" uid="62236" user="Paulchen Panther" changeset="512396" lat="49.5089835" lon="11.4077033"/>
  <node id="315973159" version="7" timestamp="2008-12-21T09:01:22Z" uid="62236" user="Paulchen Panther" changeset="512396" lat="49.5089835" lon="11.4077033"/>
  <node id="315973159" version="8" timestamp="2008-12-21T16:12:13Z" uid="62236" user="Paulchen Panther" changeset="515424" lat="49.5089835" lon="11.4077033"/>
  <node id="315973159" version="9" timestamp="2008-12-21T16:17:04Z" uid="62236" user="Paulchen Panther" changeset="515424" lat="49.5089835" lon="11.4077033"/>
  <node id="315973159" version="10" timestamp="2009-01-11T18:34:24Z" uid="9364" user="keichwa" changeset="772995" lat="49.5089835" lon="11.4077033"/>
  <node id="315973159" version="11" timestamp="2009-03-10T12:25:03Z" uid="104868" user="peterjk71" changeset="776328" lat="49.5089835" lon="11.4077033"/>
  <node id="315973159" version="12" timestamp="2009-03-11T19:18:58Z" uid="104868" user="peterjk71" changeset="790949" lat="49.5089835" lon="11.4077033"/>
  <node id="315973159" version="13" timestamp="2009-03-15T18:54:06Z" uid="104868" user="peterjk71" changeset="814089" lat="49.5089835" lon="11.4077033"/>
  <node id="315973159" version="14" timestamp="2009-03-21T16:59:54Z" uid="104868" user="peterjk71" changeset="839584" lat="49.5089835" lon="11.4077033"/>
  <node id="315973159" version="15" timestamp="2009-03-22T10:31:26Z" uid="104868" user="peterjk71" changeset="842857" lat="49.5089835" lon="11.4077033"/>
  <node id="315973159" version="16" timestamp="2011-02-21T20:12:50Z" uid="82877" user="Wankmann" changeset="7357632" lat="49.509016" lon="11.4076455"/>
  <node id="315973160" version="1" timestamp="2008-11-30T22:44:30Z" uid="49111" user="Markus B" changeset="815654" lat="49.5088192" lon="11.4078695"/>
  <node id="315973161" version="1" timestamp="2008-11-30T22:44:30Z" uid="49111" user="Markus B" changeset="815654" lat="49.5087263" lon="11.4082235"/>
  <node id="315973162" version="1" timestamp="2008-11-30T22:44:30Z" uid="49111" user="Markus B" changeset="815654" lat="49.5087871" lon="11.4084283"/>
  <node id="315973162" version="3" timestamp="2008-12-17T20:26:07Z" uid="62236" user="Paulchen Panther" changeset="447619" lat="49.5087871" lon="11.4084283"/>
  <node id="315973162" version="4" timestamp="2008-12-17T20:26:43Z" uid="62236" user="Paulchen Panther" changeset="447619" lat="49.5087871" lon="11.4084283"/>
  <node id="315973162" version="5" timestamp="2008-12-20T07:54:02Z" uid="62236" user="Paulchen Panther" changeset="489763" lat="49.5087871" lon="11.4084283"/>
  <node id="315973162" version="6" timestamp="2008-12-21T08:41:36Z" uid="62236" user="Paulchen Panther" changeset="512396" lat="49.5087871" lon="11.4084283"/>
  <node id="315973162" version="7" timestamp="2008-12-21T09:01:22Z" uid="62236" user="Paulchen Panther" changeset="512396" lat="49.5087871" lon="11.4084283"/>
  <node id="315973162" version="8" timestamp="2008-12-21T16:12:13Z" uid="62236" user="Paulchen Panther" changeset="515424" lat="49.5087871" lon="11.4084283"/>
  <node id="315973162" version="9" timestamp="2008-12-21T16:17:04Z" uid="62236" user="Paulchen Panther" changeset="515424" lat="49.5087871" lon="11.4084283"/>
  <node id="315973162" version="10" timestamp="2009-01-11T18:34:24Z" uid="9364" user="keichwa" changeset="772995" lat="49.5087871" lon="11.4084283"/>
  <node id="315973162" version="11" timestamp="2009-03-10T12:25:03Z" uid="104868" user="peterjk71" changeset="776328" lat="49.5087871" lon="11.4084283"/>
  <node id="315973162" version="12" timestamp="2009-03-11T19:18:58Z" uid="104868" user="peterjk71" changeset="790949" lat="49.5087871" lon="11.4084283"/>
  <node id="315973162" version="13" timestamp="2009-03-15T18:54:06Z" uid="104868" user="peterjk71" changeset="814089" lat="49.5087871" lon="11.4084283"/>
  <node id="315973162" version="14" timestamp="2009-03-21T16:59:54Z" uid="104868" user="peterjk71" changeset="839584" lat="49.5087871" lon="11.4084283"/>
  <node id="315973162" version="15" timestamp="2009-03-22T10:31:26Z" uid="104868" user="peterjk71" changeset="842857" lat="49.5087871" lon="11.4084283"/>
  <node id="315973163" version="1" timestamp="2008-11-30T22:44:30Z" uid="49111" user="Markus B" changeset="815654" lat="49.5086849" lon="11.4084661"/>
  <node id="315973165" version="1" timestamp="2008-11-30T22:44:31Z" uid="49111" user="Markus B" changeset="815654" lat="49.5085971" lon="11.4087723"/>
  <node id="315973166" version="1" timestamp="2008-11-30T22:44:31Z" uid="49111" user="Markus B" changeset="815654" lat="49.5086693" lon="11.4089634"/>
  <node id="315973166" version="3" timestamp="2008-12-17T20:26:07Z" uid="62236" user="Paulchen Panther" changeset="447619" lat="49.5086693" lon="11.4089634"/>
  <node id="315973166" version="4" timestamp="2008-12-17T20:26:43Z" uid="62236" user="Paulchen Panther" changeset="447619" lat="49.5086693" lon="11.4089634"/>
  <node id="315973166" version="5" timestamp="2008-12-20T07:54:02Z" uid="62236" user="Paulchen Panther" changeset="489763" lat="49.5086693" lon="11.4089634"/>
  <node id="315973166" version="6" timestamp="2008-12-21T08:41:36Z" uid="62236" user="Paulchen Panther" changeset="512396" lat="49.5086693" lon="11.4089634"/>
  <node id="315973166" version="7" timestamp="2008-12-21T09:01:22Z" uid="62236" user="Paulchen Panther" changeset="512396" lat="49.5086693" lon="11.4089634"/>
  <node id="315973166" version="8" timestamp="2008-12-21T16:12:13Z" uid="62236" user="Paulchen Panther" changeset="515424" lat="49.5086693" lon="11.4089634"/>
  <node id="315973166" version="9" timestamp="2008-12-21T16:17:04Z" uid="62236" user="Paulchen Panther" changeset="515424" lat="49.5086693" lon="11.4089634"/>
  <node id="315973166" version="10" timestamp="2009-01-11T18:34:25Z" uid="9364" user="keichwa" changeset="772995" lat="49.5086693" lon="11.4089634"/>
  <node id="315973166" version="11" timestamp="2009-03-10T12:25:03Z" uid="104868" user="peterjk71" changeset="776328" lat="49.5086693" lon="11.4089634"/>
  <node id="315973166" version="12" timestamp="2009-03-11T19:18:58Z" uid="104868" user="peterjk71" changeset="790949" lat="49.5086693" lon="11.4089634"/>
  <node id="315973166" version="13" timestamp="2009-03-15T18:54:07Z" uid="104868" user="peterjk71" changeset="814089" lat="49.5086693" lon="11.4089634"/>
  <node id="315973166" version="14" timestamp="2009-03-21T16:59:54Z" uid="104868" user="peterjk71" changeset="839584" lat="49.5086693" lon="11.4089634"/>
  <node id="315973166" version="15" timestamp="2009-03-22T10:31:27Z" uid="104868" user="peterjk71" changeset="842857" lat="49.5086693" lon="11.4089634"/>
  <node id="315973166" version="16" timestamp="2010-08-31T14:15:00Z" uid="49111" user="Markus B" changeset="5645869" lat="49.5086538" lon="11.4089455"/>
  <node id="315973167" version="1" timestamp="2008-11-30T22:44:31Z" uid="49111" user="Markus B" changeset="815654" lat="49.5086772" lon="11.408661">
    <tag k="amenity" v="parking"/>
  </node>
  <node id="315973167" version="2" timestamp="2011-10-30T17:14:39Z" uid="290680" user="wheelmap_visitor" changeset="9690785" lat="49.5086772" lon="11.408661">
    <tag k="amenity" v="parking"/>
    <tag k="wheelchair" v="yes"/>
  </node>
  <node id="315973168" version="1" timestamp="2008-11-30T22:44:31Z" uid="49111" user="Markus B" changeset="815654" lat="49.508872" lon="11.4075639"/>
  <node id="315973168" version="2" timestamp="2009-03-09T19:44:15Z" uid="89943" user="Bengatzer" changeset="773149" lat="49.5088267" lon="11.4075311"/>
  <node id="315973168" version="3" timestamp="2011-02-21T20:12:54Z" uid="82877" user="Wankmann" changeset="7357632" lat="49.5088843" lon="11.4074964"/>
  <node id="315973169" version="1" timestamp="2008-11-30T22:44:31Z" uid="49111" user="Markus B" changeset="815654" lat="49.5091393" lon="11.4067457"/>
  <node id="315973169" version="2" timestamp="2009-03-09T19:44:15Z" uid="89943" user="Bengatzer" changeset="773149" lat="49.5086892" lon="11.4074101"/>
  <node id="315973169" version="3" timestamp="2009-11-06T01:57:51Z" uid="149968" user="HoMa" changeset="3045263" lat="49.508697" lon="11.4073953"/>
  <node id="315973169" version="4" timestamp="2011-02-21T20:13:14Z" uid="82877" user="Wankmann" changeset="7357632" lat="49.5087245" lon="11.4073375"/>
  <node id="315973170" version="1" timestamp="2008-11-30T22:44:32Z" uid="49111" user="Markus B" changeset="815654" lat="49.5101991" lon="11.4036549"/>
  <node id="315973170" version="3" timestamp="2008-12-17T20:26:07Z" uid="62236" user="Paulchen Panther" changeset="447619" lat="49.5101991" lon="11.4036549"/>
  <node id="315973170" version="4" timestamp="2008-12-17T20:26:43Z" uid="62236" user="Paulchen Panther" changeset="447619" lat="49.5101991" lon="11.4036549"/>
  <node id="315973170" version="5" timestamp="2008-12-20T07:54:02Z" uid="62236" user="Paulchen Panther" changeset="489763" lat="49.5101991" lon="11.4036549"/>
  <node id="315973170" version="6" timestamp="2008-12-21T08:41:36Z" uid="62236" user="Paulchen Panther" changeset="512396" lat="49.5101991" lon="11.4036549"/>
  <node id="315973170" version="7" timestamp="2008-12-21T09:01:22Z" uid="62236" user="Paulchen Panther" changeset="512396" lat="49.5101991" lon="11.4036549"/>
  <node id="315973170" version="8" timestamp="2008-12-21T16:12:13Z" uid="62236" user="Paulchen Panther" changeset="515424" lat="49.5101991" lon="11.4036549"/>
  <node id="315973170" version="9" timestamp="2008-12-21T16:17:04Z" uid="62236" user="Paulchen Panther" changeset="515424" lat="49.5101991" lon="11.4036549"/>
  <node id="315973170" version="10" timestamp="2009-01-11T18:34:24Z" uid="9364" user="keichwa" changeset="772995" lat="49.5101991" lon="11.4036549"/>
  <node id="315973170" version="11" timestamp="2009-03-10T12:25:03Z" uid="104868" user="peterjk71" changeset="776328" lat="49.5101991" lon="11.4036549"/>
  <node id="315973170" version="12" timestamp="2009-03-11T19:18:57Z" uid="104868" user="peterjk71" changeset="790949" lat="49.5101991" lon="11.4036549"/>
  <node id="315973170" version="13" timestamp="2009-03-15T18:54:05Z" uid="104868" user="peterjk71" changeset="814089" lat="49.5101991" lon="11.4036549"/>
  <node id="315973170" version="14" timestamp="2009-03-21T16:59:53Z" uid="104868" user="peterjk71" changeset="839584" lat="49.5101991" lon="11.4036549"/>
  <node id="315973170" version="15" timestamp="2009-03-22T10:31:25Z" uid="104868" user="peterjk71" changeset="842857" lat="49.5101991" lon="11.4036549"/>
  <node id="315973170" version="16" timestamp="2009-06-30T17:50:45Z" uid="49111" user="Markus B" changeset="1694068" lat="49.5101991" lon="11.4036549"/>
  <node id="315973171" version="1" timestamp="2008-11-30T22:44:32Z" uid="49111" user="Markus B" changeset="815654" lat="49.5102703" lon="11.4033424"/>
  <node id="315973171" version="2" timestamp="2009-06-30T17:50:43Z" uid="49111" user="Markus B" changeset="1694068" lat="49.5102014" lon="11.4032582"/>
  <node id="315973171" version="3" timestamp="2009-09-04T22:00:39Z" uid="149968" user="HoMa" changeset="2375100" lat="49.5100509" lon="11.4032419"/>
  <node id="315973171" version="4" timestamp="2009-09-04T23:03:42Z" uid="149968" user="HoMa" changeset="2375518" lat="49.5101937" lon="11.4032354"/>
  <node id="315973171" version="5" timestamp="2009-09-06T11:05:01Z" uid="149968" user="HoMa" changeset="2389663" lat="49.5101937" lon="11.4032354"/>
  <node id="315973172" version="1" timestamp="2008-11-30T22:44:32Z" uid="49111" user="Markus B" changeset="815654" lat="49.5103664" lon="11.4031559"/>
  <node id="315973172" version="2" timestamp="2009-06-30T17:50:43Z" uid="49111" user="Markus B" changeset="1694068" lat="49.5104136" lon="11.4030086"/>
  <node id="315973172" version="3" timestamp="2009-08-18T18:48:52Z" uid="149968" user="HoMa" changeset="2193401" lat="49.5104136" lon="11.4030086"/>
  <node id="315973172" version="4" timestamp="2009-09-04T22:00:39Z" uid="149968" user="HoMa" changeset="2375100" lat="49.5103195" lon="11.4030698"/>
  <node id="315973172" version="5" timestamp="2009-09-04T23:03:42Z" uid="149968" user="HoMa" changeset="2375518" lat="49.5103809" lon="11.403011"/>
  <node id="315973172" version="6" timestamp="2009-09-06T11:04:48Z" uid="149968" user="HoMa" changeset="2389663" lat="49.5103867" lon="11.4029813"/>
  <node id="315973173" version="1" timestamp="2008-11-30T22:44:32Z" uid="49111" user="Markus B" changeset="815654" lat="49.5099582" lon="11.4048029"/>
  <node id="315973173" version="3" timestamp="2008-12-17T20:26:07Z" uid="62236" user="Paulchen Panther" changeset="447619" lat="49.5099582" lon="11.4048029"/>
  <node id="315973173" version="4" timestamp="2008-12-17T20:26:43Z" uid="62236" user="Paulchen Panther" changeset="447619" lat="49.5099582" lon="11.4048029"/>
  <node id="315973173" version="5" timestamp="2008-12-20T07:54:02Z" uid="62236" user="Paulchen Panther" changeset="489763" lat="49.5099582" lon="11.4048029"/>
  <node id="315973173" version="6" timestamp="2008-12-21T08:41:36Z" uid="62236" user="Paulchen Panther" changeset="512396" lat="49.5099582" lon="11.4048029"/>
  <node id="315973173" version="7" timestamp="2008-12-21T09:01:22Z" uid="62236" user="Paulchen Panther" changeset="512396" lat="49.5099582" lon="11.4048029"/>
  <node id="315973173" version="8" timestamp="2008-12-21T16:12:13Z" uid="62236" user="Paulchen Panther" changeset="515424" lat="49.5099582" lon="11.4048029"/>
  <node id="315973173" version="9" timestamp="2008-12-21T16:17:04Z" uid="62236" user="Paulchen Panther" changeset="515424" lat="49.5099582" lon="11.4048029"/>
  <node id="315973173" version="10" timestamp="2009-01-11T18:34:24Z" uid="9364" user="keichwa" changeset="772995" lat="49.5099582" lon="11.4048029"/>
  <node id="315973173" version="11" timestamp="2009-03-10T12:25:03Z" uid="104868" user="peterjk71" changeset="776328" lat="49.5099582" lon="11.4048029"/>
  <node id="315973173" version="12" timestamp="2009-03-11T19:18:57Z" uid="104868" user="peterjk71" changeset="790949" lat="49.5099582" lon="11.4048029"/>
  <node id="315973173" version="13" timestamp="2009-03-15T18:54:06Z" uid="104868" user="peterjk71" changeset="814089" lat="49.5099582" lon="11.4048029"/>
  <node id="315973173" version="14" timestamp="2009-03-21T16:59:54Z" uid="104868" user="peterjk71" changeset="839584" lat="49.5099582" lon="11.4048029"/>
  <node id="315973173" version="15" timestamp="2009-03-22T10:31:26Z" uid="104868" user="peterjk71" changeset="842857" lat="49.5099582" lon="11.4048029"/>
  <node id="315973173" version="16" timestamp="2009-09-04T22:00:39Z" uid="149968" user="HoMa" changeset="2375100" lat="49.5100595" lon="11.404317"/>
  <node id="315973173" version="17" timestamp="2009-09-04T23:03:42Z" uid="149968" user="HoMa" changeset="2375518" lat="49.510104" lon="11.404249"/>
  <node id="315973174" version="1" timestamp="2008-11-30T22:44:32Z" uid="49111" user="Markus B" changeset="815654" lat="49.5101841" lon="11.4040407"/>
  <node id="315973174" version="3" timestamp="2008-12-17T20:26:07Z" uid="62236" user="Paulchen Panther" changeset="447619" lat="49.5101841" lon="11.4040407"/>
  <node id="315973174" version="4" timestamp="2008-12-17T20:26:43Z" uid="62236" user="Paulchen Panther" changeset="447619" lat="49.5101841" lon="11.4040407"/>
  <node id="315973174" version="5" timestamp="2008-12-20T07:54:02Z" uid="62236" user="Paulchen Panther" changeset="489763" lat="49.5101841" lon="11.4040407"/>
  <node id="315973174" version="6" timestamp="2008-12-21T08:41:36Z" uid="62236" user="Paulchen Panther" changeset="512396" lat="49.5101841" lon="11.4040407"/>
  <node id="315973174" version="7" timestamp="2008-12-21T09:01:22Z" uid="62236" user="Paulchen Panther" changeset="512396" lat="49.5101841" lon="11.4040407"/>
  <node id="315973174" version="8" timestamp="2008-12-21T16:12:13Z" uid="62236" user="Paulchen Panther" changeset="515424" lat="49.5101841" lon="11.4040407"/>
  <node id="315973174" version="9" timestamp="2008-12-21T16:17:04Z" uid="62236" user="Paulchen Panther" changeset="515424" lat="49.5101841" lon="11.4040407"/>
  <node id="315973174" version="10" timestamp="2009-01-11T18:34:24Z" uid="9364" user="keichwa" changeset="772995" lat="49.5101841" lon="11.4040407"/>
  <node id="315973174" version="11" timestamp="2009-03-10T12:25:03Z" uid="104868" user="peterjk71" changeset="776328" lat="49.5101841" lon="11.4040407"/>
  <node id="315973174" version="12" timestamp="2009-03-11T19:18:57Z" uid="104868" user="peterjk71" changeset="790949" lat="49.5101841" lon="11.4040407"/>
  <node id="315973174" version="13" timestamp="2009-03-15T18:54:05Z" uid="104868" user="peterjk71" changeset="814089" lat="49.5101841" lon="11.4040407"/>
  <node id="315973174" version="14" timestamp="2009-03-21T16:59:54Z" uid="104868" user="peterjk71" changeset="839584" lat="49.5101841" lon="11.4040407"/>
  <node id="315973174" version="15" timestamp="2009-03-22T10:31:26Z" uid="104868" user="peterjk71" changeset="842857" lat="49.5101841" lon="11.4040407"/>
  <node id="315973174" version="16" timestamp="2009-06-30T17:50:43Z" uid="49111" user="Markus B" changeset="1694068" lat="49.5102083" lon="11.4039543"/>
  <node id="315973174" version="17" timestamp="2009-08-18T18:48:52Z" uid="149968" user="HoMa" changeset="2193401" lat="49.5102083" lon="11.4039543"/>
  <node id="315973174" version="18" timestamp="2009-09-04T22:00:39Z" uid="149968" user="HoMa" changeset="2375100" lat="49.5101834" lon="11.4037859"/>
  <node id="315973174" version="19" timestamp="2009-09-04T23:03:42Z" uid="149968" user="HoMa" changeset="2375518" lat="49.5102678" lon="11.4037548"/>
  <node id="315973174" version="20" timestamp="2009-09-06T11:04:48Z" uid="149968" user="HoMa" changeset="2389663" lat="49.5102567" lon="11.4038182"/>
  <node id="315973175" version="1" timestamp="2008-11-30T22:44:32Z" uid="49111" user="Markus B" changeset="815654" lat="49.5108521" lon="11.4100421"/>
  <node id="315973175" version="2" timestamp="2009-03-09T19:44:22Z" uid="89943" user="Bengatzer" changeset="773149" lat="49.5107336" lon="11.410064"/>
  <node id="315973175" version="3" timestamp="2009-03-22T10:34:58Z" uid="104868" user="peterjk71" changeset="842857" lat="49.5107336" lon="11.410064"/>
  <node id="315973176" version="1" timestamp="2008-11-30T22:44:33Z" uid="49111" user="Markus B" changeset="815654" lat="49.5111041" lon="11.4097571"/>
  <node id="315973176" version="2" timestamp="2009-03-09T19:44:22Z" uid="89943" user="Bengatzer" changeset="773149" lat="49.5112748" lon="11.4095673"/>
  <node id="315973176" version="3" timestamp="2009-03-22T10:34:58Z" uid="104868" user="peterjk71" changeset="842857" lat="49.5112748" lon="11.4095673"/>
  <node id="315973176" version="4" timestamp="2010-09-19T19:11:06Z" uid="202858" user="kellerma" changeset="5823224" lat="49.5112776" lon="11.4095833"/>
  <node id="315973177" version="1" timestamp="2008-11-30T22:44:33Z" uid="49111" user="Markus B" changeset="815654" lat="49.5117459" lon="11.4093751"/>
  <node id="315973177" version="2" timestamp="2009-03-22T10:34:59Z" uid="104868" user="peterjk71" changeset="842857" lat="49.5117459" lon="11.4093751"/>
  <node id="315973178" version="1" timestamp="2008-11-30T22:44:33Z" uid="49111" user="Markus B" changeset="815654" lat="49.5173158" lon="11.4117103"/>
  <node id="315973178" version="2" timestamp="2009-01-11T18:06:01Z" uid="9364" user="keichwa" changeset="772995" lat="49.5173158" lon="11.4116594"/>
  <node id="315973178" version="3" timestamp="2009-12-30T17:07:39Z" uid="149968" user="HoMa" changeset="3491672" lat="49.5173296" lon="11.4116082"/>
  <node id="315973179" version="1" timestamp="2008-11-30T22:44:34Z" uid="49111" user="Markus B" changeset="815654" lat="49.5163561" lon="11.414348"/>
  <node id="315973180" version="1" timestamp="2008-11-30T22:44:34Z" uid="49111" user="Markus B" changeset="815654" lat="49.5157566" lon="11.4159837"/>
  <node id="315973180" version="2" timestamp="2011-04-25T09:07:17Z" uid="202858" user="kellerma" changeset="7960841" lat="49.5157964" lon="11.4159784"/>
  <node id="315973182" version="1" timestamp="2008-11-30T22:44:34Z" uid="49111" user="Markus B" changeset="815654" lat="49.5152781" lon="11.4170206"/>
  <node id="315973182" version="2" timestamp="2011-04-25T09:07:18Z" uid="202858" user="kellerma" changeset="7960841" lat="49.5152868" lon="11.4170259"/>
  <node id="315973183" version="1" timestamp="2008-11-30T22:44:34Z" uid="49111" user="Markus B" changeset="815654" lat="49.537409" lon="11.379372"/>
  <node id="315973183" version="2" timestamp="2009-06-15T12:01:55Z" uid="49111" user="Markus B" changeset="1524285" lat="49.5376798" lon="11.3792468"/>
  <node id="315973183" version="3" timestamp="2009-11-07T04:04:36Z" uid="149968" user="HoMa" changeset="3053362" lat="49.5375433" lon="11.379144"/>
  <node id="315973185" version="1" timestamp="2008-11-30T22:44:35Z" uid="49111" user="Markus B" changeset="815654" lat="49.5372578" lon="11.3794164"/>
  <node id="315973185" version="2" timestamp="2009-06-13T19:24:12Z" uid="49111" user="Markus B" changeset="1507938" lat="49.5372912" lon="11.3795161"/>
  <node id="315973185" version="3" timestamp="2009-06-15T12:01:56Z" uid="49111" user="Markus B" changeset="1524285" lat="49.5374916" lon="11.3795662"/>
  <node id="315973185" version="4" timestamp="2009-11-07T04:04:37Z" uid="149968" user="HoMa" changeset="3053362" lat="49.537346" lon="11.3794316"/>
  <node id="315973187" version="1" timestamp="2008-11-30T22:44:35Z" uid="49111" user="Markus B" changeset="815654" lat="49.536869" lon="11.3791834"/>
  <node id="315973187" version="2" timestamp="2009-01-11T16:05:04Z" uid="9364" user="keichwa" changeset="772995" lat="49.5370967" lon="11.3793846"/>
  <node id="315973187" version="3" timestamp="2009-06-13T19:24:12Z" uid="49111" user="Markus B" changeset="1507938" lat="49.5371009" lon="11.3796967"/>
  <node id="315973187" version="4" timestamp="2009-06-15T12:01:56Z" uid="49111" user="Markus B" changeset="1524285" lat="49.5373934" lon="11.3797969"/>
  <node id="315973187" version="5" timestamp="2009-11-07T04:04:37Z" uid="149968" user="HoMa" changeset="3053362" lat="49.5371774" lon="11.37958"/>
  <node id="315973189" version="1" timestamp="2008-11-30T22:44:35Z" uid="49111" user="Markus B" changeset="815654" lat="49.5363506" lon="11.3791279"/>
  <node id="315973189" version="2" timestamp="2009-01-11T16:05:03Z" uid="9364" user="keichwa" changeset="772995" lat="49.5363238" lon="11.3792414"/>
  <node id="315973189" version="3" timestamp="2009-06-13T19:24:12Z" uid="49111" user="Markus B" changeset="1507938" lat="49.5363175" lon="11.37928"/>
  <node id="315973189" version="4" timestamp="2009-11-07T04:04:36Z" uid="149968" user="HoMa" changeset="3053362" lat="49.5362253" lon="11.3793548"/>
  <node id="315973191" version="1" timestamp="2008-11-30T22:44:35Z" uid="49111" user="Markus B" changeset="815654" lat="49.5359834" lon="11.3794608"/>
  <node id="315973191" version="2" timestamp="2009-01-11T16:05:01Z" uid="9364" user="keichwa" changeset="772995" lat="49.5360035" lon="11.3793834"/>
  <node id="315973191" version="3" timestamp="2009-11-07T04:04:35Z" uid="149968" user="HoMa" changeset="3053362" lat="49.535938" lon="11.3793684"/>
  <node id="315973193" version="1" timestamp="2008-11-30T22:44:36Z" uid="49111" user="Markus B" changeset="815654" lat="49.5354433" lon="11.3793498"/>
  <node id="315973193" version="2" timestamp="2009-11-07T04:04:35Z" uid="149968" user="HoMa" changeset="3053362" lat="49.5355962" lon="11.3794022"/>
  <node id="315973196" version="1" timestamp="2008-11-30T22:44:36Z" uid="49111" user="Markus B" changeset="815654" lat="49.5353281" lon="11.3794386"/>
  <node id="315973196" version="2" timestamp="2009-11-07T04:04:35Z" uid="149968" user="HoMa" changeset="3053362" lat="49.5353863" lon="11.3794349"/>
  <node id="315973196" version="3" timestamp="2010-05-29T19:57:04Z" uid="82877" user="Wankmann" changeset="4845939" lat="49.5353012" lon="11.3794836"/>
  <node id="315973196" version="4" timestamp="2012-03-26T20:47:44Z" uid="17099" user="matmai" changeset="11110583" lat="49.5353114" lon="11.3795307"/>
  <node id="315973198" version="1" timestamp="2008-11-30T22:44:36Z" uid="49111" user="Markus B" changeset="815654" lat="49.5352057" lon="11.3796826"/>
  <node id="315973198" version="2" timestamp="2009-11-07T04:04:35Z" uid="149968" user="HoMa" changeset="3053362" lat="49.5352591" lon="11.3796265"/>
  <node id="315973200" version="1" timestamp="2008-11-30T22:44:36Z" uid="49111" user="Markus B" changeset="815654" lat="49.5351481" lon="11.3806035"/>
  <node id="315973200" version="2" timestamp="2009-01-11T16:05:03Z" uid="9364" user="keichwa" changeset="772995" lat="49.5351715" lon="11.3805571"/>
  <node id="315973200" version="3" timestamp="2009-06-15T12:01:56Z" uid="49111" user="Markus B" changeset="1524285" lat="49.5351877" lon="11.3802232"/>
  <node id="315973200" version="4" timestamp="2009-11-07T04:04:35Z" uid="149968" user="HoMa" changeset="3053362" lat="49.5351731" lon="11.3807056"/>
  <node id="315973200" version="5" timestamp="2012-03-26T20:47:50Z" uid="17099" user="matmai" changeset="11110583" lat="49.5351731" lon="11.3807056"/>
  <node id="315973202" version="1" timestamp="2008-11-30T22:44:36Z" uid="49111" user="Markus B" changeset="815654" lat="49.5351913" lon="11.3807255"/>
  <node id="315973202" version="2" timestamp="2009-06-15T12:01:56Z" uid="49111" user="Markus B" changeset="1524285" lat="49.5351317" lon="11.3802998"/>
  <node id="315973202" version="3" timestamp="2009-11-07T04:04:35Z" uid="149968" user="HoMa" changeset="3053362" lat="49.5351171" lon="11.3807822"/>
  <node id="315973202" version="4" timestamp="2012-03-26T20:47:44Z" uid="17099" user="matmai" changeset="11110583" lat="49.5351069" lon="11.380739"/>
  <node id="315973204" version="1" timestamp="2008-11-30T22:44:36Z" uid="49111" user="Markus B" changeset="815654" lat="49.5351697" lon="11.3808587"/>
  <node id="315973204" version="2" timestamp="2009-01-11T16:05:04Z" uid="9364" user="keichwa" changeset="772995" lat="49.5351463" lon="11.3808123"/>
  <node id="315973204" version="3" timestamp="2009-06-15T12:02:18Z" uid="49111" user="Markus B" changeset="1524285" lat="49.5351463" lon="11.3808123"/>
  <node id="315973205" version="1" timestamp="2008-11-30T22:44:36Z" uid="49111" user="Markus B" changeset="815654" lat="49.5349537" lon="11.380781"/>
  <node id="315973205" version="2" timestamp="2009-01-11T16:05:02Z" uid="9364" user="keichwa" changeset="772995" lat="49.534957" lon="11.3808429"/>
  <node id="315973205" version="3" timestamp="2009-06-15T12:01:55Z" uid="49111" user="Markus B" changeset="1524285" lat="49.5349408" lon="11.3802086"/>
  <node id="315973205" version="4" timestamp="2009-11-07T04:04:35Z" uid="149968" user="HoMa" changeset="3053362" lat="49.5349602" lon="11.3807396"/>
  <node id="315973205" version="5" timestamp="2010-05-29T19:57:03Z" uid="82877" user="Wankmann" changeset="4845939" lat="49.5349772" lon="11.3807958"/>
  <node id="315973205" version="6" timestamp="2012-03-26T20:47:44Z" uid="17099" user="matmai" changeset="11110583" lat="49.534967" lon="11.3809528"/>
  <node id="315973206" version="1" timestamp="2008-11-30T22:44:37Z" uid="49111" user="Markus B" changeset="815654" lat="49.5349969" lon="11.3820791"/>
  <node id="315973206" version="2" timestamp="2009-01-11T16:11:49Z" uid="9364" user="keichwa" changeset="772995" lat="49.5350092" lon="11.3816436"/>
  <node id="315973206" version="3" timestamp="2009-11-06T02:15:52Z" uid="149968" user="HoMa" changeset="3045317" lat="49.5350092" lon="11.3816436"/>
  <node id="315973206" version="4" timestamp="2009-11-07T04:04:35Z" uid="149968" user="HoMa" changeset="3053362" lat="49.5349874" lon="11.3816137"/>
  <node id="315973206" version="5" timestamp="2012-03-26T20:47:44Z" uid="17099" user="matmai" changeset="11110583" lat="49.534939" lon="11.3815234"/>
  <node id="315973207" version="1" timestamp="2008-11-30T22:44:37Z" uid="49111" user="Markus B" changeset="815654" lat="49.5349033" lon="11.3822344"/>
  <node id="315973207" version="2" timestamp="2008-12-01T01:07:04Z" uid="49111" user="Markus B" changeset="24386" lat="49.534918" lon="11.3822628"/>
  <node id="315973207" version="3" timestamp="2009-11-06T02:15:51Z" uid="149968" user="HoMa" changeset="3045317" lat="49.534918" lon="11.3822628"/>
  <node id="315973207" version="4" timestamp="2009-11-07T04:04:39Z" uid="149968" user="HoMa" changeset="3053362" lat="49.5349853" lon="11.3820008"/>
  <node id="315973207" version="5" timestamp="2012-03-26T20:47:44Z" uid="17099" user="matmai" changeset="11110583" lat="49.5349649" lon="11.3822088"/>
  <node id="315973208" version="1" timestamp="2008-11-30T22:44:37Z" uid="49111" user="Markus B" changeset="815654" lat="49.5348457" lon="11.3829778"/>
  <node id="315973208" version="2" timestamp="2009-11-06T02:15:50Z" uid="149968" user="HoMa" changeset="3045317" lat="49.5348457" lon="11.3829778"/>
  <node id="315973208" version="3" timestamp="2009-11-07T04:04:39Z" uid="149968" user="HoMa" changeset="3053362" lat="49.5348445" lon="11.3828821"/>
  <node id="315973208" version="4" timestamp="2012-03-26T20:47:44Z" uid="17099" user="matmai" changeset="11110583" lat="49.5348369" lon="11.3832274"/>
  <node id="315973209" version="1" timestamp="2008-11-30T22:44:37Z" uid="49111" user="Markus B" changeset="815654" lat="49.5346441" lon="11.3835103"/>
  <node id="315973209" version="2" timestamp="2009-11-06T02:15:50Z" uid="149968" user="HoMa" changeset="3045317" lat="49.5346441" lon="11.3835103"/>
  <node id="315973209" version="3" timestamp="2009-11-07T04:04:39Z" uid="149968" user="HoMa" changeset="3053362" lat="49.5346781" lon="11.3836337"/>
  <node id="315973209" version="4" timestamp="2012-03-26T20:47:44Z" uid="17099" user="matmai" changeset="11110583" lat="49.5347112" lon="11.3837161"/>
  <node id="315973210" version="1" timestamp="2008-11-30T22:44:38Z" uid="49111" user="Markus B" changeset="815654" lat="49.5341761" lon="11.3851634"/>
  <node id="315973210" version="2" timestamp="2009-11-06T02:15:49Z" uid="149968" user="HoMa" changeset="3045317" lat="49.5341761" lon="11.3851634"/>
  <node id="315973210" version="3" timestamp="2009-11-07T04:04:39Z" uid="149968" user="HoMa" changeset="3053362" lat="49.5341106" lon="11.385111"/>
  <node id="315973210" version="4" timestamp="2012-03-26T20:47:44Z" uid="17099" user="matmai" changeset="11110583" lat="49.5341466" lon="11.385222"/>
  <node id="315973211" version="1" timestamp="2008-11-30T22:44:38Z" uid="49111" user="Markus B" changeset="815654" lat="49.5337225" lon="11.3860399"/>
  <node id="315973211" version="2" timestamp="2009-11-06T02:15:48Z" uid="149968" user="HoMa" changeset="3045317" lat="49.5337225" lon="11.3860399"/>
  <node id="315973211" version="3" timestamp="2009-11-07T04:04:39Z" uid="149968" user="HoMa" changeset="3053362" lat="49.5337007" lon="11.3857931"/>
  <node id="315973211" version="4" timestamp="2012-03-26T20:47:44Z" uid="17099" user="matmai" changeset="11110583" lat="49.5338484" lon="11.385721"/>
  <node id="315973212" version="1" timestamp="2008-11-30T22:44:38Z" uid="49111" user="Markus B" changeset="815654" lat="49.5332689" lon="11.3864393"/>
  <node id="315973212" version="2" timestamp="2009-11-06T02:15:47Z" uid="149968" user="HoMa" changeset="3045317" lat="49.5332689" lon="11.3864393"/>
  <node id="315973212" version="3" timestamp="2009-11-07T04:04:39Z" uid="149968" user="HoMa" changeset="3053362" lat="49.5333938" lon="11.3860969"/>
  <node id="315973212" version="4" timestamp="2012-03-26T20:47:45Z" uid="17099" user="matmai" changeset="11110583" lat="49.5334982" lon="11.3861024"/>
  <node id="315973213" version="1" timestamp="2008-11-30T22:44:38Z" uid="49111" user="Markus B" changeset="815654" lat="49.532808" lon="11.3862507"/>
  <node id="315973213" version="2" timestamp="2008-11-30T23:24:23Z" uid="49111" user="Markus B" changeset="815654" lat="49.5329069" lon="11.3862887"/>
  <node id="315973213" version="3" timestamp="2009-11-06T02:15:47Z" uid="149968" user="HoMa" changeset="3045317" lat="49.5329069" lon="11.3862887"/>
  <node id="315973213" version="4" timestamp="2009-11-07T04:04:39Z" uid="149968" user="HoMa" changeset="3053362" lat="49.5330056" lon="11.3862755"/>
  <node id="315973213" version="5" timestamp="2012-03-26T20:47:45Z" uid="17099" user="matmai" changeset="11110583" lat="49.533002" lon="11.3863976"/>
  <node id="315973216" version="1" timestamp="2008-11-30T22:44:38Z" uid="49111" user="Markus B" changeset="815654" lat="49.5325272" lon="11.3868831"/>
  <node id="315973216" version="2" timestamp="2009-11-06T02:15:46Z" uid="149968" user="HoMa" changeset="3045317" lat="49.5325272" lon="11.3868831"/>
  <node id="315973216" version="3" timestamp="2009-11-07T04:04:39Z" uid="149968" user="HoMa" changeset="3053362" lat="49.532566" lon="11.3868719"/>
  <node id="315973216" version="4" timestamp="2012-03-26T20:47:45Z" uid="17099" user="matmai" changeset="11110583" lat="49.5325696" lon="11.3870273"/>
  <node id="315973220" version="1" timestamp="2008-11-30T22:44:38Z" uid="49111" user="Markus B" changeset="815654" lat="49.5314687" lon="11.3891575"/>
  <node id="315973220" version="2" timestamp="2009-11-06T02:15:45Z" uid="149968" user="HoMa" changeset="3045317" lat="49.5314687" lon="11.3891575"/>
  <node id="315973220" version="3" timestamp="2009-11-07T04:04:38Z" uid="149968" user="HoMa" changeset="3053362" lat="49.5314268" lon="11.3891215"/>
  <node id="315973220" version="4" timestamp="2012-03-26T20:47:45Z" uid="17099" user="matmai" changeset="11110583" lat="49.5315024" lon="11.389116"/>
  <node id="315973221" version="1" timestamp="2008-11-30T22:44:38Z" uid="49111" user="Markus B" changeset="815654" lat="49.5309934" lon="11.3895014"/>
  <node id="315973221" version="2" timestamp="2009-11-06T02:15:45Z" uid="149968" user="HoMa" changeset="3045317" lat="49.5309934" lon="11.3895014"/>
  <node id="315973221" version="3" timestamp="2009-11-07T04:04:38Z" uid="149968" user="HoMa" changeset="3053362" lat="49.5309757" lon="11.3893443"/>
  <node id="315973221" version="4" timestamp="2012-03-26T20:47:45Z" uid="17099" user="matmai" changeset="11110583" lat="49.5310441" lon="11.3893831"/>
  <node id="315973222" version="1" timestamp="2008-11-30T22:44:38Z" uid="49111" user="Markus B" changeset="815654" lat="49.5297693" lon="11.3891353"/>
  <node id="315973222" version="2" timestamp="2009-11-06T02:15:42Z" uid="149968" user="HoMa" changeset="3045317" lat="49.5297693" lon="11.3891353"/>
  <node id="315973222" version="3" timestamp="2009-11-07T04:04:38Z" uid="149968" user="HoMa" changeset="3053362" lat="49.5298735" lon="11.3890825"/>
  <node id="315973222" version="4" timestamp="2012-03-26T20:47:45Z" uid="17099" user="matmai" changeset="11110583" lat="49.5297726" lon="11.3890492"/>
  <node id="315973223" version="1" timestamp="2008-11-30T22:44:39Z" uid="49111" user="Markus B" changeset="815654" lat="49.5293876" lon="11.3890798"/>
  <node id="315973223" version="2" timestamp="2009-11-06T02:15:41Z" uid="149968" user="HoMa" changeset="3045317" lat="49.5293876" lon="11.3890798"/>
  <node id="315973223" version="3" timestamp="2012-03-26T20:47:45Z" uid="17099" user="matmai" changeset="11110583" lat="49.5293912" lon="11.3891852"/>
  <node id="315973224" version="1" timestamp="2008-11-30T22:44:39Z" uid="49111" user="Markus B" changeset="815654" lat="49.5292364" lon="11.3901671"/>
  <node id="315973224" version="2" timestamp="2008-11-30T23:24:23Z" uid="49111" user="Markus B" changeset="815654" lat="49.529187" lon="11.3903765"/>
  <node id="315973224" version="3" timestamp="2009-01-11T16:31:43Z" uid="9364" user="keichwa" changeset="772995" lat="49.5292666" lon="11.3902538"/>
  <node id="315973224" version="4" timestamp="2009-11-06T02:15:40Z" uid="149968" user="HoMa" changeset="3045317" lat="49.5292666" lon="11.3902538"/>
  <node id="315973224" version="5" timestamp="2009-11-07T04:04:39Z" uid="149968" user="HoMa" changeset="3053362" lat="49.5292027" lon="11.3903343"/>
  <node id="315973224" version="6" timestamp="2009-12-20T19:25:20Z" uid="60957" user="mini-titan" changeset="3416268" lat="49.5291923" lon="11.3903745"/>
  <node id="315973224" version="7" timestamp="2010-05-01T18:21:17Z" uid="82877" user="Wankmann" changeset="4577951" lat="49.5290547" lon="11.39061"/>
  <node id="315973224" version="8" timestamp="2010-05-29T19:07:09Z" uid="73317" user="kanu_guenni" changeset="4845238" lat="49.5290976" lon="11.390389"/>
  <node id="315973224" version="9" timestamp="2010-05-29T19:47:53Z" uid="82877" user="Wankmann" changeset="4845939" lat="49.5291389" lon="11.390389"/>
  <node id="315973225" version="1" timestamp="2008-11-30T22:44:39Z" uid="49111" user="Markus B" changeset="815654" lat="49.5282715" lon="11.3903113"/>
  <node id="315973225" version="2" timestamp="2009-11-06T02:15:57Z" uid="149968" user="HoMa" changeset="3045317" lat="49.5282715" lon="11.3903113"/>
  <node id="315973226" version="1" timestamp="2008-11-30T22:44:39Z" uid="49111" user="Markus B" changeset="815654" lat="49.528113" lon="11.3904001"/>
  <node id="315973226" version="2" timestamp="2009-11-06T02:15:38Z" uid="149968" user="HoMa" changeset="3045317" lat="49.528113" lon="11.3904001"/>
  <node id="315973226" version="3" timestamp="2010-05-29T19:18:25Z" uid="73317" user="kanu_guenni" changeset="4845623" lat="49.528113" lon="11.3904001"/>
  <node id="315973226" version="4" timestamp="2011-12-16T08:59:29Z" uid="82877" user="Wankmann" changeset="10129488" lat="49.5282388" lon="11.3902475"/>
  <node id="315973227" version="1" timestamp="2008-11-30T22:44:39Z" uid="49111" user="Markus B" changeset="815654" lat="49.5279762" lon="11.3905776"/>
  <node id="315973227" version="2" timestamp="2009-11-06T02:15:38Z" uid="149968" user="HoMa" changeset="3045317" lat="49.5279762" lon="11.3905776"/>
  <node id="315973227" version="3" timestamp="2010-05-29T19:18:25Z" uid="73317" user="kanu_guenni" changeset="4845623" lat="49.5279762" lon="11.3905776"/>
  <node id="315973228" version="1" timestamp="2008-11-30T22:44:39Z" uid="49111" user="Markus B" changeset="815654" lat="49.5278322" lon="11.3911434"/>
  <node id="315973228" version="2" timestamp="2009-11-06T02:15:37Z" uid="149968" user="HoMa" changeset="3045317" lat="49.5278322" lon="11.3911434"/>
  <node id="315973228" version="3" timestamp="2010-05-29T19:18:25Z" uid="73317" user="kanu_guenni" changeset="4845623" lat="49.5278322" lon="11.3911434"/>
  <node id="315973229" version="1" timestamp="2008-11-30T22:44:39Z" uid="49111" user="Markus B" changeset="815654" lat="49.5276089" lon="11.3929407"/>
  <node id="315973229" version="2" timestamp="2009-11-06T02:15:35Z" uid="149968" user="HoMa" changeset="3045317" lat="49.5276089" lon="11.3929407"/>
  <node id="315973229" version="3" timestamp="2010-05-01T18:21:17Z" uid="82877" user="Wankmann" changeset="4577951" lat="49.5276201" lon="11.3928308"/>
  <node id="315973229" version="4" timestamp="2010-05-29T19:18:25Z" uid="73317" user="kanu_guenni" changeset="4845623" lat="49.5276201" lon="11.3928308"/>
  <node id="315973230" version="1" timestamp="2008-11-30T22:44:39Z" uid="49111" user="Markus B" changeset="815654" lat="49.5273929" lon="11.3930739"/>
  <node id="315973230" version="2" timestamp="2009-11-06T02:15:34Z" uid="149968" user="HoMa" changeset="3045317" lat="49.5273929" lon="11.3930739"/>
  <node id="315973230" version="3" timestamp="2010-05-29T19:18:25Z" uid="73317" user="kanu_guenni" changeset="4845623" lat="49.5273929" lon="11.3930739"/>
  <node id="315973231" version="1" timestamp="2008-11-30T22:44:39Z" uid="49111" user="Markus B" changeset="815654" lat="49.5265791" lon="11.393906"/>
  <node id="315973231" version="2" timestamp="2009-01-11T17:00:31Z" uid="9364" user="keichwa" changeset="772995" lat="49.5266083" lon="11.393906"/>
  <node id="315973231" version="3" timestamp="2009-11-06T02:15:30Z" uid="149968" user="HoMa" changeset="3045317" lat="49.5266083" lon="11.393906"/>
  <node id="315973231" version="4" timestamp="2010-05-29T19:18:24Z" uid="73317" user="kanu_guenni" changeset="4845623" lat="49.5266083" lon="11.393906"/>
  <node id="315973232" version="1" timestamp="2008-11-30T22:44:39Z" uid="49111" user="Markus B" changeset="815654" lat="49.5262047" lon="11.3938727"/>
  <node id="315973232" version="2" timestamp="2009-01-11T17:00:32Z" uid="9364" user="keichwa" changeset="772995" lat="49.5262506" lon="11.393847"/>
  <node id="315973232" version="3" timestamp="2009-12-20T19:25:18Z" uid="60957" user="mini-titan" changeset="3416268" lat="49.5263079" lon="11.3937784"/>
  <node id="315973233" version="1" timestamp="2008-11-30T22:44:40Z" uid="49111" user="Markus B" changeset="815654" lat="49.5259454" lon="11.3934622"/>
  <node id="315973233" version="2" timestamp="2009-01-11T17:00:33Z" uid="9364" user="keichwa" changeset="772995" lat="49.5258661" lon="11.3934107"/>
  <node id="315973233" version="3" timestamp="2009-12-20T19:25:18Z" uid="60957" user="mini-titan" changeset="3416268" lat="49.5258279" lon="11.3933225"/>
  <node id="315973234" version="1" timestamp="2008-11-30T22:44:40Z" uid="49111" user="Markus B" changeset="815654" lat="49.525679" lon="11.3935065"/>
  <node id="315973234" version="2" timestamp="2009-01-11T17:00:33Z" uid="9364" user="keichwa" changeset="772995" lat="49.5255788" lon="11.3935322"/>
  <node id="315973235" version="1" timestamp="2008-11-30T22:44:40Z" uid="49111" user="Markus B" changeset="815654" lat="49.5251172" lon="11.394494"/>
  <node id="315973235" version="2" timestamp="2008-12-01T01:07:04Z" uid="49111" user="Markus B" changeset="24386" lat="49.5251362" lon="11.3944857"/>
  <node id="315973235" version="3" timestamp="2010-05-29T19:29:47Z" uid="73317" user="kanu_guenni" changeset="4845740" lat="49.5251699" lon="11.3944767"/>
  <node id="315973236" version="1" timestamp="2008-11-30T22:44:40Z" uid="49111" user="Markus B" changeset="815654" lat="49.5251676" lon="11.3950598"/>
  <node id="315973236" version="2" timestamp="2010-05-29T19:29:47Z" uid="73317" user="kanu_guenni" changeset="4845740" lat="49.5252256" lon="11.3950453"/>
  <node id="315973241" version="1" timestamp="2008-11-30T22:44:40Z" uid="49111" user="Markus B" changeset="815654" lat="49.5260246" lon="11.3954148"/>
  <node id="315973241" version="2" timestamp="2009-01-11T17:00:34Z" uid="9364" user="keichwa" changeset="772995" lat="49.5259787" lon="11.3954405"/>
  <node id="315973241" version="3" timestamp="2009-12-20T19:25:18Z" uid="60957" user="mini-titan" changeset="3416268" lat="49.5259532" lon="11.3955778"/>
  <node id="315973241" version="4" timestamp="2010-05-29T19:29:46Z" uid="73317" user="kanu_guenni" changeset="4845740" lat="49.5259847" lon="11.3955389"/>
  <node id="315973241" version="5" timestamp="2011-04-17T10:10:25Z" uid="82877" user="Wankmann" changeset="7884939" lat="49.5260358" lon="11.3956964"/>
  <node id="315973242" version="1" timestamp="2008-11-30T22:44:40Z" uid="49111" user="Markus B" changeset="815654" lat="49.5274505" lon="11.3956811"/>
  <node id="315973242" version="2" timestamp="2009-01-11T17:00:33Z" uid="9364" user="keichwa" changeset="772995" lat="49.5272376" lon="11.3956039"/>
  <node id="315973242" version="3" timestamp="2009-12-20T19:25:20Z" uid="60957" user="mini-titan" changeset="3416268" lat="49.5271358" lon="11.3956627"/>
  <node id="315973243" version="1" timestamp="2008-11-30T22:44:40Z" uid="49111" user="Markus B" changeset="815654" lat="49.5274145" lon="11.3954592"/>
  <node id="315973243" version="2" timestamp="2009-01-11T17:00:34Z" uid="9364" user="keichwa" changeset="772995" lat="49.5275899" lon="11.3954914"/>
  <node id="315973243" version="3" timestamp="2009-12-20T19:25:20Z" uid="60957" user="mini-titan" changeset="3416268" lat="49.5275644" lon="11.3957071"/>
  <node id="315973244" version="1" timestamp="2008-11-30T22:44:40Z" uid="49111" user="Markus B" changeset="815654" lat="49.5289628" lon="11.3951707"/>
  <node id="315973244" version="2" timestamp="2009-12-20T19:25:20Z" uid="60957" user="mini-titan" changeset="3416268" lat="49.5291219" lon="11.3953668"/>
  <node id="315973245" version="1" timestamp="2008-11-30T22:44:41Z" uid="49111" user="Markus B" changeset="815654" lat="49.530439" lon="11.3980442"/>
  <node id="315973245" version="2" timestamp="2009-01-11T17:30:42Z" uid="9364" user="keichwa" changeset="772995" lat="49.5305684" lon="11.3980066"/>
  <node id="315973245" version="3" timestamp="2009-12-20T19:25:23Z" uid="60957" user="mini-titan" changeset="3416268" lat="49.5305684" lon="11.3980066"/>
  <node id="315973246" version="1" timestamp="2008-11-30T22:44:41Z" uid="49111" user="Markus B" changeset="815654" lat="49.5302518" lon="11.3997417"/>
  <node id="315973246" version="2" timestamp="2009-01-11T17:30:21Z" uid="9364" user="keichwa" changeset="772995" lat="49.5302858" lon="11.3993268"/>
  <node id="315973246" version="3" timestamp="2010-05-29T19:30:25Z" uid="73317" user="kanu_guenni" changeset="4845740" lat="49.5303371" lon="11.3995622"/>
  <node id="315973247" version="1" timestamp="2008-11-30T22:44:41Z" uid="49111" user="Markus B" changeset="815654" lat="49.5277458" lon="11.401883"/>
  <node id="315973247" version="2" timestamp="2009-01-11T17:49:10Z" uid="9364" user="keichwa" changeset="772995" lat="49.5277458" lon="11.401883"/>
  <node id="315973247" version="3" timestamp="2010-05-29T19:31:37Z" uid="73317" user="kanu_guenni" changeset="4845740" lat="49.5277257" lon="11.4017187"/>
  <node id="315973248" version="1" timestamp="2008-11-30T22:44:41Z" uid="49111" user="Markus B" changeset="815654" lat="49.5259382" lon="11.4020494"/>
  <node id="315973248" version="2" timestamp="2008-12-01T01:07:04Z" uid="49111" user="Markus B" changeset="24386" lat="49.5259833" lon="11.4020421"/>
  <node id="315973248" version="3" timestamp="2009-01-11T17:49:10Z" uid="9364" user="keichwa" changeset="772995" lat="49.5259833" lon="11.4020421"/>
  <node id="315973248" version="4" timestamp="2010-05-29T19:31:36Z" uid="73317" user="kanu_guenni" changeset="4845740" lat="49.5259429" lon="11.4022229"/>
  <node id="315973249" version="1" timestamp="2008-11-30T22:44:41Z" uid="49111" user="Markus B" changeset="815654" lat="49.5229495" lon="11.4024488"/>
  <node id="315973249" version="2" timestamp="2008-12-01T01:07:04Z" uid="49111" user="Markus B" changeset="24386" lat="49.5227294" lon="11.4026808"/>
  <node id="315973249" version="3" timestamp="2009-01-11T17:48:10Z" uid="9364" user="keichwa" changeset="772995" lat="49.5227294" lon="11.4026808"/>
  <node id="315973250" version="1" timestamp="2008-11-30T22:44:41Z" uid="49111" user="Markus B" changeset="815654" lat="49.5577809" lon="11.3481499"/>
  <node id="315973250" version="2" timestamp="2010-06-04T07:28:30Z" uid="82877" user="Wankmann" changeset="4898569" lat="49.5577186" lon="11.3481449"/>
  <node id="315973250" version="3" timestamp="2011-01-07T11:07:53Z" uid="82877" user="Wankmann" changeset="6891438" lat="49.5577803" lon="11.3481941"/>
  <node id="315973251" version="1" timestamp="2008-11-30T22:44:41Z" uid="49111" user="Markus B" changeset="815654" lat="49.5579547" lon="11.3472554"/>
  <node id="315973251" version="2" timestamp="2010-06-04T07:28:26Z" uid="82877" user="Wankmann" changeset="4898569" lat="49.5578936" lon="11.3473182"/>
  <node id="315973252" version="1" timestamp="2008-11-30T22:44:41Z" uid="49111" user="Markus B" changeset="815654" lat="49.5577492" lon="11.3492363"/>
  <node id="315973252" version="2" timestamp="2009-01-01T17:45:34Z" uid="9364" user="keichwa" changeset="699869" lat="49.5577057" lon="11.3492607"/>
  <node id="315973252" version="3" timestamp="2010-06-04T07:28:11Z" uid="82877" user="Wankmann" changeset="4898569" lat="49.5576222" lon="11.3492637"/>
  <node id="315973252" version="4" timestamp="2011-01-07T11:07:42Z" uid="82877" user="Wankmann" changeset="6891438" lat="49.5577073" lon="11.3493392"/>
  <node id="315973253" version="1" timestamp="2008-11-30T22:44:42Z" uid="49111" user="Markus B" changeset="815654" lat="49.5577577" lon="11.3500499"/>
  <node id="315973253" version="2" timestamp="2010-06-04T07:28:27Z" uid="82877" user="Wankmann" changeset="4898569" lat="49.5577414" lon="11.3500499"/>
  <node id="315973253" version="3" timestamp="2011-01-07T11:08:03Z" uid="82877" user="Wankmann" changeset="6891438" lat="49.5577181" lon="11.3498705"/>
  <node id="315973254" version="1" timestamp="2008-11-30T22:44:42Z" uid="49111" user="Markus B" changeset="815654" lat="49.5576951" lon="11.3501406"/>
  <node id="315973254" version="2" timestamp="2010-06-04T07:28:17Z" uid="82877" user="Wankmann" changeset="4898569" lat="49.5576788" lon="11.3501406"/>
  <node id="315973254" version="3" timestamp="2011-01-07T11:07:05Z" uid="82877" user="Wankmann" changeset="6891438" lat="49.5576555" lon="11.3499612"/>
  <node id="315973255" version="1" timestamp="2008-11-30T22:44:42Z" uid="49111" user="Markus B" changeset="815654" lat="49.5577603" lon="11.3501359"/>
  <node id="315973255" version="2" timestamp="2010-06-04T07:28:15Z" uid="82877" user="Wankmann" changeset="4898569" lat="49.557744" lon="11.3501359"/>
  <node id="315973255" version="3" timestamp="2011-01-07T11:07:23Z" uid="82877" user="Wankmann" changeset="6891438" lat="49.5577207" lon="11.3499565"/>
  <node id="315973256" version="1" timestamp="2008-11-30T22:44:42Z" uid="49111" user="Markus B" changeset="815654" lat="49.5576925" lon="11.3500545"/>
  <node id="315973256" version="2" timestamp="2010-06-04T07:28:18Z" uid="82877" user="Wankmann" changeset="4898569" lat="49.5576762" lon="11.3500545"/>
  <node id="315973256" version="3" timestamp="2011-01-07T11:06:55Z" uid="82877" user="Wankmann" changeset="6891438" lat="49.5576529" lon="11.3498751"/>
  <node id="315973257" version="1" timestamp="2008-11-30T22:44:42Z" uid="49111" user="Markus B" changeset="815654" lat="49.5577606" lon="11.3481185">
    <tag k="amenity" v="bench"/>
  </node>
  <node id="315973258" version="1" timestamp="2008-11-30T22:44:42Z" uid="49111" user="Markus B" changeset="815654" lat="49.5580762" lon="11.3464996"/>
  <node id="315973258" version="2" timestamp="2009-07-29T22:53:11Z" uid="12281" user="neo" changeset="1980365" lat="49.5580762" lon="11.3464996"/>
  <node id="315973258" version="3" timestamp="2010-06-04T07:28:25Z" uid="82877" user="Wankmann" changeset="4898569" lat="49.5579762" lon="11.3465087"/>
  <node id="315973258" version="4" timestamp="2011-01-07T11:08:24Z" uid="82877" user="Wankmann" changeset="6891438" lat="49.5580422" lon="11.3465317"/>
  <node id="315973259" version="1" timestamp="2008-11-30T22:44:42Z" uid="49111" user="Markus B" changeset="815654" lat="49.5573572" lon="11.3465644"/>
  <node id="315973259" version="2" timestamp="2009-07-29T22:53:12Z" uid="12281" user="neo" changeset="1980365" lat="49.5573572" lon="11.3465644"/>
  <node id="315973260" version="1" timestamp="2008-11-30T22:44:42Z" uid="49111" user="Markus B" changeset="815654" lat="49.5580314" lon="11.3469334">
    <tag k="amenity" v="bench"/>
  </node>
  <node id="315973261" version="1" timestamp="2008-11-30T22:44:42Z" uid="49111" user="Markus B" changeset="815654" lat="49.5576848" lon="11.3493873">
    <tag k="amenity" v="bench"/>
  </node>
  <node id="315973262" version="1" timestamp="2008-11-30T22:44:43Z" uid="49111" user="Markus B" changeset="815654" lat="49.5576591" lon="11.3494863">
    <tag k="historic" v="wayside_cross"/>
  </node>
  <node id="315973263" version="1" timestamp="2008-11-30T22:44:43Z" uid="49111" user="Markus B" changeset="815654" lat="49.5573211" lon="11.3521711"/>
  <node id="315973263" version="2" timestamp="2009-01-01T17:45:35Z" uid="9364" user="keichwa" changeset="699869" lat="49.5572934" lon="11.3521406"/>
  <node id="315973264" version="1" timestamp="2008-11-30T22:44:43Z" uid="49111" user="Markus B" changeset="815654" lat="49.5575094" lon="11.351175"/>
  <node id="315973264" version="2" timestamp="2009-01-01T17:45:35Z" uid="9364" user="keichwa" changeset="699869" lat="49.5574856" lon="11.3511567"/>
  <node id="315973265" version="1" timestamp="2008-11-30T22:44:43Z" uid="49111" user="Markus B" changeset="815654" lat="49.5575312" lon="11.3504008">
    <tag k="amenity" v="bench"/>
  </node>
  <node id="315973266" version="1" timestamp="2008-11-30T22:44:43Z" uid="49111" user="Markus B" changeset="815654" lat="49.5574283" lon="11.3519656">
    <tag k="amenity" v="bench"/>
  </node>
  <node id="315973267" version="1" timestamp="2008-11-30T22:44:43Z" uid="49111" user="Markus B" changeset="815654" lat="49.5571194" lon="11.3537274">
    <tag k="amenity" v="bench"/>
  </node>
  <node id="315973268" version="1" timestamp="2008-11-30T22:44:43Z" uid="49111" user="Markus B" changeset="815654" lat="49.5577307" lon="11.3501898"/>
  <node id="315973268" version="2" timestamp="2009-02-16T21:09:26Z" uid="49111" user="Markus B" changeset="491405" lat="49.5577307" lon="11.3501898"/>
  <node id="315973268" version="3" timestamp="2009-02-16T21:13:32Z" uid="49111" user="Markus B" changeset="491405" lat="49.5577307" lon="11.3501898"/>
  <node id="315973268" version="4" timestamp="2009-12-15T17:25:01Z" uid="82877" user="Wankmann" changeset="3381258" lat="49.557682" lon="11.3501898"/>
  <node id="315973268" version="5" timestamp="2011-01-07T11:06:38Z" uid="82877" user="Wankmann" changeset="6891438" lat="49.5576654" lon="11.3500309"/>
  <node id="315973269" version="1" timestamp="2008-11-30T22:44:43Z" uid="49111" user="Markus B" changeset="815654" lat="49.5573296" lon="11.3535798"/>
  <node id="315973269" version="2" timestamp="2009-02-16T21:09:27Z" uid="49111" user="Markus B" changeset="491405" lat="49.5573296" lon="11.3535798"/>
  <node id="315973269" version="3" timestamp="2009-02-16T21:13:32Z" uid="49111" user="Markus B" changeset="491405" lat="49.5573296" lon="11.3535798"/>
  <node id="315973269" version="4" timestamp="2009-12-15T17:25:01Z" uid="82877" user="Wankmann" changeset="3381258" lat="49.5572809" lon="11.3535798"/>
  <node id="315973269" version="5" timestamp="2011-09-16T06:08:43Z" uid="82877" user="Wankmann" changeset="9313305" lat="49.5572694" lon="11.3535846"/>
  <node id="315973270" version="1" timestamp="2008-11-30T22:44:43Z" uid="49111" user="Markus B" changeset="815654" lat="49.5573129" lon="11.3538575"/>
  <node id="315973270" version="2" timestamp="2009-02-16T21:09:39Z" uid="49111" user="Markus B" changeset="491405" lat="49.5573129" lon="11.3538575"/>
  <node id="315973270" version="3" timestamp="2009-02-16T21:13:39Z" uid="49111" user="Markus B" changeset="491405" lat="49.5573129" lon="11.3538575"/>
  <node id="315973270" version="4" timestamp="2009-12-15T17:25:01Z" uid="82877" user="Wankmann" changeset="3381258" lat="49.5572224" lon="11.353879"/>
  <node id="315973270" version="5" timestamp="2011-09-16T06:08:43Z" uid="82877" user="Wankmann" changeset="9313305" lat="49.5572459" lon="11.3537655"/>
  <node id="315973271" version="1" timestamp="2008-11-30T22:44:44Z" uid="49111" user="Markus B" changeset="815654" lat="49.5566549" lon="11.3568788"/>
  <node id="315973271" version="2" timestamp="2009-02-16T21:09:39Z" uid="49111" user="Markus B" changeset="491405" lat="49.5566549" lon="11.3568788"/>
  <node id="315973271" version="3" timestamp="2009-02-16T21:13:39Z" uid="49111" user="Markus B" changeset="491405" lat="49.5566549" lon="11.3568788"/>
  <node id="315973271" version="4" timestamp="2009-12-15T17:25:01Z" uid="82877" user="Wankmann" changeset="3381258" lat="49.5565644" lon="11.3569003"/>
  <node id="315973272" version="1" timestamp="2008-11-30T22:44:44Z" uid="49111" user="Markus B" changeset="815654" lat="49.5571311" lon="11.3542837"/>
  <node id="315973272" version="2" timestamp="2009-12-15T17:25:00Z" uid="82877" user="Wankmann" changeset="3381258" lat="49.5569785" lon="11.3546534"/>
  <node id="315973272" version="3" timestamp="2011-01-07T11:07:51Z" uid="82877" user="Wankmann" changeset="6891438" lat="49.5569934" lon="11.3547092"/>
  <node id="315973273" version="1" timestamp="2008-11-30T22:44:44Z" uid="49111" user="Markus B" changeset="815654" lat="49.5571452" lon="11.3541203"/>
  <node id="315973273" version="2" timestamp="2009-12-15T17:25:00Z" uid="82877" user="Wankmann" changeset="3381258" lat="49.5570412" lon="11.3541706"/>
  <node id="315973273" version="3" timestamp="2011-01-07T11:08:11Z" uid="82877" user="Wankmann" changeset="6891438" lat="49.5570752" lon="11.3543379"/>
  <node id="315973274" version="1" timestamp="2008-11-30T22:44:44Z" uid="49111" user="Markus B" changeset="815654" lat="49.5557482" lon="11.3564552"/>
  <node id="315973274" version="2" timestamp="2009-01-01T17:45:34Z" uid="9364" user="keichwa" changeset="699869" lat="49.5557086" lon="11.3563026"/>
  <node id="315973275" version="1" timestamp="2008-11-30T22:44:44Z" uid="49111" user="Markus B" changeset="815654" lat="49.5552135" lon="11.3569495"/>
  <node id="315973275" version="2" timestamp="2010-07-12T19:28:54Z" uid="82877" user="Wankmann" changeset="5201963" lat="49.5552246" lon="11.3568178"/>
  <node id="315973276" version="1" timestamp="2008-11-30T22:44:44Z" uid="49111" user="Markus B" changeset="815654" lat="49.5552733" lon="11.3566064"/>
  <node id="315973276" version="2" timestamp="2010-05-05T19:35:41Z" uid="82877" user="Wankmann" changeset="4616101" lat="49.5552389" lon="11.3565982"/>
  <node id="315973276" version="3" timestamp="2011-09-16T06:12:52Z" uid="82877" user="Wankmann" changeset="9313328" lat="49.5552365" lon="11.356577"/>
  <node id="315973277" version="1" timestamp="2008-11-30T22:44:44Z" uid="49111" user="Markus B" changeset="815654" lat="49.5551912" lon="11.3565804"/>
  <node id="315973277" version="2" timestamp="2010-05-05T19:35:40Z" uid="82877" user="Wankmann" changeset="4616101" lat="49.5551568" lon="11.3565722"/>
  <node id="315973277" version="3" timestamp="2011-09-16T06:12:52Z" uid="82877" user="Wankmann" changeset="9313328" lat="49.5551531" lon="11.3565635"/>
  <node id="315973278" version="1" timestamp="2008-11-30T22:44:44Z" uid="49111" user="Markus B" changeset="815654" lat="49.5551785" lon="11.3566756"/>
  <node id="315973278" version="2" timestamp="2010-05-05T19:35:32Z" uid="82877" user="Wankmann" changeset="4616101" lat="49.5551441" lon="11.3566674"/>
  <node id="315973278" version="3" timestamp="2011-09-16T06:12:52Z" uid="82877" user="Wankmann" changeset="9313328" lat="49.5551465" lon="11.3566601"/>
  <node id="315973279" version="1" timestamp="2008-11-30T22:44:45Z" uid="49111" user="Markus B" changeset="815654" lat="49.5552606" lon="11.3567017"/>
  <node id="315973279" version="2" timestamp="2010-05-05T19:35:30Z" uid="82877" user="Wankmann" changeset="4616101" lat="49.5552262" lon="11.3566935"/>
  <node id="315973279" version="3" timestamp="2011-09-16T06:12:52Z" uid="82877" user="Wankmann" changeset="9313328" lat="49.5552299" lon="11.3566738"/>
  <node id="315973280" version="1" timestamp="2008-11-30T22:44:45Z" uid="49111" user="Markus B" changeset="815654" lat="49.555906" lon="11.3569961"/>
  <node id="315973280" version="2" timestamp="2010-04-17T14:53:42Z" uid="82877" user="Wankmann" changeset="4448519" lat="49.555906" lon="11.3569961"/>
  <node id="315973281" version="1" timestamp="2008-11-30T22:44:45Z" uid="49111" user="Markus B" changeset="815654" lat="49.5559071" lon="11.3571461"/>
  <node id="315973281" version="2" timestamp="2010-04-17T14:53:42Z" uid="82877" user="Wankmann" changeset="4448519" lat="49.5559071" lon="11.3571461"/>
  <node id="315973282" version="1" timestamp="2008-11-30T22:44:45Z" uid="49111" user="Markus B" changeset="815654" lat="49.5556674" lon="11.3571504"/>
  <node id="315973282" version="2" timestamp="2010-04-17T14:53:42Z" uid="82877" user="Wankmann" changeset="4448519" lat="49.5556674" lon="11.3571504"/>
  <node id="315973283" version="1" timestamp="2008-11-30T22:44:45Z" uid="49111" user="Markus B" changeset="815654" lat="49.5556663" lon="11.3570004"/>
  <node id="315973283" version="2" timestamp="2010-04-17T14:53:41Z" uid="82877" user="Wankmann" changeset="4448519" lat="49.5556663" lon="11.3570004"/>
  <node id="315973284" version="1" timestamp="2008-11-30T22:44:45Z" uid="49111" user="Markus B" changeset="815654" lat="49.5561569" lon="11.3570259"/>
  <node id="315973285" version="1" timestamp="2008-11-30T22:44:45Z" uid="49111" user="Markus B" changeset="815654" lat="49.5560809" lon="11.357029"/>
  <node id="315973286" version="1" timestamp="2008-11-30T22:44:45Z" uid="49111" user="Markus B" changeset="815654" lat="49.5560831" lon="11.3571533"/>
  <node id="315973287" version="1" timestamp="2008-11-30T22:44:45Z" uid="49111" user="Markus B" changeset="815654" lat="49.5561591" lon="11.3571501"/>
  <node id="315973288" version="1" timestamp="2008-11-30T22:44:46Z" uid="49111" user="Markus B" changeset="815654" lat="49.5548975" lon="11.3626149"/>
  <node id="315973288" version="2" timestamp="2009-05-13T13:03:13Z" uid="41113" user="cycling_zno" changeset="1175051" lat="49.5548788" lon="11.3626561"/>
  <node id="315973289" version="1" timestamp="2008-11-30T22:44:46Z" uid="49111" user="Markus B" changeset="815654" lat="49.5556412" lon="11.3675784"/>
  <node id="315973290" version="1" timestamp="2008-11-30T22:44:46Z" uid="49111" user="Markus B" changeset="815654" lat="49.5555956" lon="11.3676188"/>
  <node id="315973291" version="1" timestamp="2008-11-30T22:44:46Z" uid="49111" user="Markus B" changeset="815654" lat="49.5556123" lon="11.3676637"/>
  <node id="315973292" version="1" timestamp="2008-11-30T22:44:46Z" uid="49111" user="Markus B" changeset="815654" lat="49.555658" lon="11.3676232"/>
  <node id="315973293" version="1" timestamp="2008-11-30T22:44:46Z" uid="49111" user="Markus B" changeset="815654" lat="49.5548059" lon="11.3690035"/>
  <node id="315973294" version="1" timestamp="2008-11-30T22:44:46Z" uid="49111" user="Markus B" changeset="815654" lat="49.5547791" lon="11.3690345"/>
  <node id="315973295" version="1" timestamp="2008-11-30T22:44:46Z" uid="49111" user="Markus B" changeset="815654" lat="49.5547743" lon="11.3689385"/>
  <node id="315973297" version="1" timestamp="2008-11-30T22:44:47Z" uid="49111" user="Markus B" changeset="815654" lat="49.5547475" lon="11.3689696"/>
  <node id="315973300" version="1" timestamp="2008-11-30T22:44:47Z" uid="49111" user="Markus B" changeset="815654" lat="49.5552379" lon="11.3690934"/>
  <node id="315973300" version="2" timestamp="2010-05-05T19:07:40Z" uid="82877" user="Wankmann" changeset="4615775" lat="49.5552379" lon="11.3690934"/>
  <node id="315973303" version="1" timestamp="2008-11-30T22:44:47Z" uid="49111" user="Markus B" changeset="815654" lat="49.5552777" lon="11.3691465"/>
  <node id="315973303" version="2" timestamp="2010-05-05T19:07:40Z" uid="82877" user="Wankmann" changeset="4615775" lat="49.5552777" lon="11.3691465"/>
  <node id="315973307" version="1" timestamp="2008-11-30T22:44:47Z" uid="49111" user="Markus B" changeset="815654" lat="49.5552159" lon="11.3691325"/>
  <node id="315973307" version="2" timestamp="2010-05-05T19:07:40Z" uid="82877" user="Wankmann" changeset="4615775" lat="49.5552159" lon="11.3691325"/>
  <node id="315973308" version="1" timestamp="2008-11-30T22:44:47Z" uid="49111" user="Markus B" changeset="815654" lat="49.5552557" lon="11.3691856"/>
  <node id="315973308" version="2" timestamp="2010-05-05T19:07:41Z" uid="82877" user="Wankmann" changeset="4615775" lat="49.5552557" lon="11.3691856"/>
  <node id="315973309" version="1" timestamp="2008-11-30T22:44:47Z" uid="49111" user="Markus B" changeset="815654" lat="49.5552049" lon="11.3678422"/>
  <node id="315973310" version="1" timestamp="2008-11-30T22:44:47Z" uid="49111" user="Markus B" changeset="815654" lat="49.5552216" lon="11.367887"/>
  <node id="315973311" version="1" timestamp="2008-11-30T22:44:48Z" uid="49111" user="Markus B" changeset="815654" lat="49.5551592" lon="11.3678826"/>
  <node id="315973312" version="1" timestamp="2008-11-30T22:44:48Z" uid="49111" user="Markus B" changeset="815654" lat="49.5551759" lon="11.3679274"/>
  <node id="315973313" version="1" timestamp="2008-11-30T22:44:48Z" uid="49111" user="Markus B" changeset="815654" lat="49.5538069" lon="11.3753487">
    <tag k="amenity" v="recycling"/>
    <tag k="recycling:clothes" v="yes"/>
    <tag k="recycling:glass" v="yes"/>
  </node>
  <node id="315973313" version="2" timestamp="2011-01-21T17:55:31Z" uid="82877" user="Wankmann" changeset="7042763" lat="49.5537277" lon="11.3754206">
    <tag k="amenity" v="recycling"/>
    <tag k="recycling:clothes" v="yes"/>
    <tag k="recycling:glass" v="yes"/>
  </node>
  <node id="315973313" version="3" timestamp="2011-01-23T15:35:43Z" uid="82877" user="Wankmann" changeset="7062699" lat="49.5537277" lon="11.3754206">
    <tag k="amenity" v="recycling"/>
    <tag k="recycling:clothes" v="yes"/>
    <tag k="recycling:glass" v="yes"/>
  </node>
  <node id="315973314" version="1" timestamp="2008-11-30T22:44:48Z" uid="49111" user="Markus B" changeset="815654" lat="49.5538148" lon="11.3751537">
    <tag k="fire-hydrant" v="up"/>
  </node>
  <node id="315973314" version="2" timestamp="2008-12-31T08:34:49Z" uid="78442" user="jjKlaus" changeset="683265" lat="49.5538148" lon="11.3751537">
    <tag k="fire_hydrant" v="up"/>
  </node>
  <node id="315973314" version="3" timestamp="2010-02-14T19:28:23Z" uid="78442" user="jjKlaus" changeset="3877550" lat="49.5538148" lon="11.3751537">
    <tag k="amenity" v="fire_hydrant"/>
    <tag k="fire_hydrant" v="up"/>
  </node>
  <node id="315973314" version="4" timestamp="2010-07-28T20:07:41Z" uid="74617" user="JohnSmith" changeset="5339329" lat="49.5538148" lon="11.3751537">
    <tag k="emergency" v="fire_hydrant"/>
    <tag k="fire_hydrant" v="up"/>
  </node>
  <node id="315973314" version="5" timestamp="2010-07-30T17:48:26Z" uid="74617" user="JohnSmith" changeset="5356742" lat="49.5538148" lon="11.3751537">
    <tag k="amenity" v="fire_hydrant"/>
    <tag k="emergency" v="fire_hydrant"/>
    <tag k="fire_hydrant" v="up"/>
  </node>
  <node id="315973314" version="6" timestamp="2010-10-12T15:40:02Z" uid="26348" user="Rodolphe Quiédeville" changeset="6022037" lat="49.5538148" lon="11.3751537">
    <tag k="emergency" v="fire_hydrant"/>
    <tag k="fire_hydrant" v="up"/>
  </node>
  <node id="315973314" version="7" timestamp="2010-10-19T09:04:47Z" uid="26348" user="Rodolphe Quiédeville" changeset="6094812" lat="49.5538148" lon="11.3751537">
    <tag k="amenity" v="fire_hydrant"/>
    <tag k="emergency" v="fire_hydrant"/>
    <tag k="fire_hydrant" v="up"/>
  </node>
  <node id="315973314" version="8" timestamp="2011-01-21T13:15:23Z" uid="124837" user="swus" changeset="7040166" lat="49.5538148" lon="11.3751537">
    <tag k="amenity" v="fire_hydrant"/>
    <tag k="emergency" v="fire_hydrant"/>
    <tag k="fire_hydrant:type" v="pillar"/>
  </node>
  <node id="315973314" version="9" timestamp="2011-01-21T20:05:18Z" uid="82877" user="Wankmann" changeset="7044021" lat="49.5538269" lon="11.375143">
    <tag k="amenity" v="fire_hydrant"/>
    <tag k="emergency" v="fire_hydrant"/>
    <tag k="fire_hydrant:type" v="pillar"/>
  </node>
  <node id="315973314" version="10" timestamp="2011-01-22T01:22:40Z" uid="124837" user="swus" changeset="7046468" lat="49.5538269" lon="11.375143">
    <tag k="amenity" v="fire_hydrant"/>
    <tag k="emergency" v="fire_hydrant"/>
    <tag k="fire_hydrant" v="up"/>
    <tag k="fire_hydrant:type" v="pillar"/>
  </node>
  <node id="315973314" version="11" timestamp="2011-01-23T14:50:16Z" uid="82877" user="Wankmann" changeset="7062154" lat="49.5543607" lon="11.375389">
    <tag k="amenity" v="fire_hydrant"/>
    <tag k="emergency" v="fire_hydrant"/>
    <tag k="fire_hydrant:diameter" v="fixme"/>
    <tag k="fire_hydrant:position" v="green"/>
    <tag k="fire_hydrant:type" v="pillar"/>
  </node>
  <node id="315973314" version="12" timestamp="2011-12-15T16:09:34Z" uid="82877" user="Wankmann" changeset="10125145" lat="49.5543607" lon="11.375389"/>
  <node id="315973315" version="1" timestamp="2008-11-30T22:44:48Z" uid="49111" user="Markus B" changeset="815654" lat="49.5525146" lon="11.3757241">
    <tag k="amenity" v="place_of_worship"/>
  </node>
  <node id="315973315" version="2" timestamp="2009-01-11T15:12:03Z" uid="9364" user="keichwa" changeset="772995" lat="49.5525146" lon="11.3757241">
    <tag k="amenity" v="place_of_worship"/>
    <tag k="note" v="kl. kapelle"/>
    <tag k="religion" v="christian"/>
  </node>
  <node id="315973315" version="3" timestamp="2011-01-04T08:41:19Z" uid="82877" user="Wankmann" changeset="6858107" lat="49.5525146" lon="11.3757241">
    <tag k="amenity" v="place_of_worship"/>
    <tag k="building" v="chapel"/>
    <tag k="note" v="kl. kapelle"/>
    <tag k="religion" v="christian"/>
  </node>
  <node id="315973315" version="4" timestamp="2011-01-04T08:43:33Z" uid="82877" user="Wankmann" changeset="6858123" lat="49.5525146" lon="11.3757241">
    <tag k="amenity" v="place_of_worship"/>
    <tag k="building" v="chapel"/>
    <tag k="denomination" v="roman_catholic"/>
    <tag k="note" v="kl. kapelle"/>
    <tag k="religion" v="christian"/>
  </node>
  <node id="315973315" version="5" timestamp="2011-01-21T09:18:21Z" uid="82877" user="Wankmann" changeset="7038221" lat="49.5525336" lon="11.3757417">
    <tag k="amenity" v="place_of_worship"/>
    <tag k="building" v="chapel"/>
    <tag k="denomination" v="roman_catholic"/>
    <tag k="note" v="kl. kapelle"/>
    <tag k="religion" v="christian"/>
  </node>
  <node id="315973315" version="6" timestamp="2011-01-21T20:05:43Z" uid="82877" user="Wankmann" changeset="7044021" lat="49.5525336" lon="11.3757417">
    <tag k="amenity" v="place_of_worship"/>
    <tag k="building" v="chapel"/>
    <tag k="denomination" v="roman_catholic"/>
    <tag k="note" v="kl. kapelle"/>
    <tag k="religion" v="christian"/>
  </node>
  <node id="315973316" version="1" timestamp="2008-11-30T22:44:48Z" uid="49111" user="Markus B" changeset="815654" lat="49.5529198" lon="11.3756963">
    <tag k="amenity" v="drinking_water"/>
    <tag k="name" v="Dorfbrunnen"/>
  </node>
  <node id="315973316" version="2" timestamp="2009-12-10T16:15:45Z" uid="82877" user="Wankmann" changeset="3342787" lat="49.5529198" lon="11.3756962">
    <tag k="amenity" v="drinking_water"/>
    <tag k="name" v="Dorfbrunnen"/>
  </node>
  <node id="315973316" version="3" timestamp="2011-01-21T09:18:21Z" uid="82877" user="Wankmann" changeset="7038221" lat="49.5529213" lon="11.375661"/>
  <node id="315973316" version="4" timestamp="2011-01-21T20:05:27Z" uid="82877" user="Wankmann" changeset="7044021" lat="49.5529701" lon="11.3756696"/>
  <node id="315973317" version="1" timestamp="2008-11-30T22:44:48Z" uid="49111" user="Markus B" changeset="815654" lat="49.5517433" lon="11.3758285">
    <tag k="amenity" v="fire_station"/>
  </node>
  <node id="315973317" version="2" timestamp="2009-10-26T14:08:21Z" uid="82877" user="Wankmann" changeset="2956472" lat="49.5517439" lon="11.3758257">
    <tag k="amenity" v="fire_station"/>
  </node>
  <node id="315973317" version="3" timestamp="2010-12-11T20:03:51Z" uid="82877" user="Wankmann" changeset="6628929" lat="49.5517978" lon="11.3756077">
    <tag k="amenity" v="fire_station"/>
  </node>
  <node id="315973317" version="4" timestamp="2011-01-21T15:29:16Z" uid="82877" user="Wankmann" changeset="7041314" lat="49.5517978" lon="11.3756077">
    <tag k="amenity" v="fire_station"/>
  </node>
  <node id="315973318" version="1" timestamp="2008-11-30T22:44:48Z" uid="49111" user="Markus B" changeset="815654" lat="49.5462138" lon="11.3765718"/>
  <node id="315973318" version="2" timestamp="2009-01-11T15:40:17Z" uid="9364" user="keichwa" changeset="772995" lat="49.5462504" lon="11.3765154"/>
  <node id="315973318" version="3" timestamp="2010-04-07T18:25:01Z" uid="82877" user="Wankmann" changeset="4357287" lat="49.546254" lon="11.3763908"/>
  <node id="315973318" version="4" timestamp="2010-04-28T12:25:57Z" uid="82877" user="Wankmann" changeset="4549103" lat="49.5462506" lon="11.3765096"/>
  <node id="315973318" version="5" timestamp="2010-05-13T05:10:35Z" uid="82877" user="Wankmann" changeset="4682531" lat="49.546217" lon="11.3764803"/>
  <node id="315973319" version="1" timestamp="2008-11-30T22:44:48Z" uid="49111" user="Markus B" changeset="815654" lat="49.5462197" lon="11.3767172"/>
  <node id="315973319" version="2" timestamp="2010-04-28T12:25:57Z" uid="82877" user="Wankmann" changeset="4549103" lat="49.5461795" lon="11.3765881"/>
  <node id="315973320" version="1" timestamp="2008-11-30T22:44:49Z" uid="49111" user="Markus B" changeset="815654" lat="49.5461312" lon="11.37699"/>
  <node id="315973320" version="2" timestamp="2010-04-28T12:25:57Z" uid="82877" user="Wankmann" changeset="4549103" lat="49.546091" lon="11.3767421"/>
  <node id="315973321" version="1" timestamp="2008-11-30T22:44:49Z" uid="49111" user="Markus B" changeset="815654" lat="49.5458481" lon="11.3769172"/>
  <node id="315973321" version="2" timestamp="2010-05-13T05:10:35Z" uid="82877" user="Wankmann" changeset="4682531" lat="49.54587" lon="11.3770612"/>
  <node id="315973322" version="1" timestamp="2008-11-30T22:44:49Z" uid="49111" user="Markus B" changeset="815654" lat="49.5455059" lon="11.3767718"/>
  <node id="315973322" version="2" timestamp="2010-05-13T05:10:31Z" uid="82877" user="Wankmann" changeset="4682531" lat="49.5454957" lon="11.3768236"/>
  <node id="315973323" version="1" timestamp="2008-11-30T22:44:49Z" uid="49111" user="Markus B" changeset="815654" lat="49.5453202" lon="11.3767994"/>
  <node id="315973323" version="2" timestamp="2010-05-13T05:10:33Z" uid="82877" user="Wankmann" changeset="4682531" lat="49.5453494" lon="11.3767319"/>
  <node id="315973324" version="1" timestamp="2008-11-30T22:44:49Z" uid="49111" user="Markus B" changeset="815654" lat="49.5459303" lon="11.3773208"/>
  <node id="315973324" version="2" timestamp="2010-05-13T05:10:37Z" uid="82877" user="Wankmann" changeset="4682531" lat="49.5459303" lon="11.3773208"/>
  <node id="315973325" version="1" timestamp="2008-11-30T22:44:49Z" uid="49111" user="Markus B" changeset="815654" lat="49.5449687" lon="11.3758104"/>
  <node id="315973326" version="1" timestamp="2008-11-30T22:44:49Z" uid="49111" user="Markus B" changeset="815654" lat="49.5448234" lon="11.3757409"/>
  <node id="315973327" version="1" timestamp="2008-11-30T22:44:49Z" uid="49111" user="Markus B" changeset="815654" lat="49.544678" lon="11.3753471"/>
  <node id="315973327" version="2" timestamp="2009-01-11T15:42:41Z" uid="9364" user="keichwa" changeset="772995" lat="49.5446937" lon="11.3754035"/>
  <node id="315973328" version="1" timestamp="2008-11-30T22:44:49Z" uid="49111" user="Markus B" changeset="815654" lat="49.5444125" lon="11.3737949"/>
  <node id="315973328" version="2" timestamp="2009-11-07T04:04:38Z" uid="149968" user="HoMa" changeset="3053362" lat="49.5444125" lon="11.3737715"/>
  <node id="315973329" version="1" timestamp="2008-11-30T22:44:50Z" uid="49111" user="Markus B" changeset="815654" lat="49.5438112" lon="11.3739957"/>
  <node id="315973329" version="2" timestamp="2009-01-11T15:44:34Z" uid="9364" user="keichwa" changeset="772995" lat="49.5438012" lon="11.3739338"/>
  <node id="315973329" version="3" timestamp="2011-01-21T20:05:41Z" uid="82877" user="Wankmann" changeset="7044021" lat="49.5437987" lon="11.3739452"/>
  <node id="315973330" version="1" timestamp="2008-11-30T22:44:50Z" uid="49111" user="Markus B" changeset="815654" lat="49.5428973" lon="11.3744096"/>
  <node id="315973330" version="2" timestamp="2009-01-11T15:44:34Z" uid="9364" user="keichwa" changeset="772995" lat="49.5428705" lon="11.3744354"/>
  <node id="315973330" version="3" timestamp="2011-01-21T20:05:42Z" uid="82877" user="Wankmann" changeset="7044021" lat="49.542868" lon="11.3744468"/>
  <node id="315973331" version="1" timestamp="2008-11-30T22:44:50Z" uid="49111" user="Markus B" changeset="815654" lat="49.5422982" lon="11.3747921"/>
  <node id="315973331" version="2" timestamp="2009-01-11T15:44:34Z" uid="9364" user="keichwa" changeset="772995" lat="49.5423317" lon="11.3747818"/>
  <node id="315973331" version="3" timestamp="2009-06-15T12:01:55Z" uid="49111" user="Markus B" changeset="1524285" lat="49.5422884" lon="11.3746816"/>
  <node id="315973331" version="4" timestamp="2010-05-29T19:47:48Z" uid="82877" user="Wankmann" changeset="4845939" lat="49.5422738" lon="11.3746292"/>
  <node id="315973331" version="5" timestamp="2011-01-21T20:05:24Z" uid="82877" user="Wankmann" changeset="7044021" lat="49.5422713" lon="11.3746406"/>
  <node id="315973332" version="1" timestamp="2008-11-30T22:44:50Z" uid="49111" user="Markus B" changeset="815654" lat="49.5421634" lon="11.3748522"/>
  <node id="315973332" version="2" timestamp="2010-05-29T19:57:18Z" uid="82877" user="Wankmann" changeset="4845939" lat="49.5421197" lon="11.3747848"/>
  <node id="315973332" version="3" timestamp="2011-01-21T20:05:25Z" uid="82877" user="Wankmann" changeset="7044021" lat="49.5421172" lon="11.3747962"/>
  <node id="315973333" version="1" timestamp="2008-11-30T22:44:50Z" uid="49111" user="Markus B" changeset="815654" lat="49.5415357" lon="11.3757212"/>
  <node id="315973333" version="2" timestamp="2009-06-15T12:01:55Z" uid="49111" user="Markus B" changeset="1524285" lat="49.541553" lon="11.3758347"/>
  <node id="315973333" version="3" timestamp="2010-05-29T19:57:05Z" uid="82877" user="Wankmann" changeset="4845939" lat="49.5415378" lon="11.3756849"/>
  <node id="315973333" version="4" timestamp="2011-01-21T20:05:34Z" uid="82877" user="Wankmann" changeset="7044021" lat="49.5415353" lon="11.3756963"/>
  <node id="315973334" version="1" timestamp="2008-11-30T22:44:50Z" uid="49111" user="Markus B" changeset="815654" lat="49.5410533" lon="11.3762022"/>
  <node id="315973334" version="2" timestamp="2009-06-15T12:01:55Z" uid="49111" user="Markus B" changeset="1524285" lat="49.5411053" lon="11.3764826"/>
  <node id="315973334" version="3" timestamp="2010-05-29T19:47:52Z" uid="82877" user="Wankmann" changeset="4845939" lat="49.5410324" lon="11.3763796"/>
  <node id="315973334" version="4" timestamp="2011-01-21T20:05:36Z" uid="82877" user="Wankmann" changeset="7044021" lat="49.5410299" lon="11.376391"/>
  <node id="315973335" version="1" timestamp="2008-11-30T22:44:50Z" uid="49111" user="Markus B" changeset="815654" lat="49.5438684" lon="11.3725372"/>
  <node id="315973375" version="3" timestamp="2009-10-02T19:49:16Z" uid="86259" user="hasse_osm_korinthenkacker" changeset="2716821" lat="47.9119014" lon="11.6822948">
    <tag k="addr:city" v="Otterfing"/>
    <tag k="addr:country" v="DE"/>
    <tag k="addr:housenumber" v="3"/>
    <tag k="addr:postcode" v="83624"/>
    <tag k="addr:street" v="Argeter Weg"/>
    <tag k="source" v="survey"/>
  </node>
  <node id="315973375" version="4" timestamp="2009-10-23T11:36:26Z" uid="36809" user="pfoten_weg_!_" changeset="2928981" lat="47.9119014" lon="11.6822948">
    <tag k="addr:city" v="Otterfing"/>
    <tag k="addr:country" v="DE"/>
    <tag k="addr:housenumber" v="3"/>
    <tag k="addr:postcode" v="83624"/>
    <tag k="addr:street" v="Argeter Weg"/>
  </node>
  <node id="315973522" version="3" timestamp="2009-10-02T19:49:16Z" uid="86259" user="hasse_osm_korinthenkacker" changeset="2716821" lat="47.9119359" lon="11.6823892">
    <tag k="addr:city" v="Otterfing"/>
    <tag k="addr:country" v="DE"/>
    <tag k="addr:housenumber" v="4"/>
    <tag k="addr:postcode" v="83624"/>
    <tag k="addr:street" v="Argeter Weg"/>
    <tag k="source" v="survey"/>
  </node>
  <node id="315973522" version="4" timestamp="2009-10-23T11:36:26Z" uid="36809" user="pfoten_weg_!_" changeset="2928981" lat="47.9119359" lon="11.6823892">
    <tag k="addr:city" v="Otterfing"/>
    <tag k="addr:country" v="DE"/>
    <tag k="addr:housenumber" v="4"/>
    <tag k="addr:postcode" v="83624"/>
    <tag k="addr:street" v="Argeter Weg"/>
  </node>
  <node id="315973525" version="5" timestamp="2009-10-02T19:49:35Z" uid="86259" user="hasse_osm_korinthenkacker" changeset="2716821" lat="47.9178437" lon="11.6811677">
    <tag k="addr:city" v="Otterfing"/>
    <tag k="addr:country" v="DE"/>
    <tag k="addr:housenumber" v="50"/>
    <tag k="addr:postcode" v="83624"/>
    <tag k="addr:street" v="Argeter Weg"/>
    <tag k="source" v="survey"/>
  </node>
  <node id="315973525" version="6" timestamp="2009-10-23T11:37:32Z" uid="36809" user="pfoten_weg_!_" changeset="2928981" lat="47.9178437" lon="11.6811677">
    <tag k="addr:city" v="Otterfing"/>
    <tag k="addr:country" v="DE"/>
    <tag k="addr:housenumber" v="50"/>
    <tag k="addr:postcode" v="83624"/>
    <tag k="addr:street" v="Argeter Weg"/>
  </node>
  <node id="315973888" version="3" timestamp="2008-12-13T21:51:19Z" uid="6975" user="ulfl" changeset="352865" lat="41.5127269" lon="20.9503197">
    <tag k="railway" v="station"/>
  </node>
  <node id="315973891" version="6" timestamp="2009-10-02T19:49:26Z" uid="86259" user="hasse_osm_korinthenkacker" changeset="2716821" lat="47.9142285" lon="11.6794383">
    <tag k="addr:city" v="Otterfing"/>
    <tag k="addr:country" v="DE"/>
    <tag k="addr:housenumber" v="12"/>
    <tag k="addr:postcode" v="83624"/>
    <tag k="addr:street" v="Alois-Eberl-Straße"/>
    <tag k="source" v="survey"/>
  </node>
  <node id="315973891" version="7" timestamp="2009-10-23T11:37:02Z" uid="36809" user="pfoten_weg_!_" changeset="2928981" lat="47.9142285" lon="11.6794383">
    <tag k="addr:city" v="Otterfing"/>
    <tag k="addr:country" v="DE"/>
    <tag k="addr:housenumber" v="12"/>
    <tag k="addr:postcode" v="83624"/>
    <tag k="addr:street" v="Alois-Eberl-Straße"/>
  </node>
  <node id="315973892" version="5" timestamp="2009-10-02T19:49:27Z" uid="86259" user="hasse_osm_korinthenkacker" changeset="2716821" lat="47.9142401" lon="11.6795156">
    <tag k="addr:city" v="Otterfing"/>
    <tag k="addr:country" v="DE"/>
    <tag k="addr:housenumber" v="14"/>
    <tag k="addr:postcode" v="83624"/>
    <tag k="addr:street" v="Alois-Eberl-Straße"/>
    <tag k="source" v="survey"/>
  </node>
  <node id="315973892" version="6" timestamp="2009-10-23T11:37:02Z" uid="36809" user="pfoten_weg_!_" changeset="2928981" lat="47.9142401" lon="11.6795156">
    <tag k="addr:city" v="Otterfing"/>
    <tag k="addr:country" v="DE"/>
    <tag k="addr:housenumber" v="14"/>
    <tag k="addr:postcode" v="83624"/>
    <tag k="addr:street" v="Alois-Eberl-Straße"/>
  </node>
  <node id="315973923" version="4" timestamp="2009-10-02T19:49:26Z" uid="86259" user="hasse_osm_korinthenkacker" changeset="2716821" lat="47.9142516" lon="11.6795842">
    <tag k="addr:city" v="Otterfing"/>
    <tag k="addr:country" v="DE"/>
    <tag k="addr:housenumber" v="16"/>
    <tag k="addr:postcode" v="83624"/>
    <tag k="addr:street" v="Alois-Eberl-Straße"/>
    <tag k="source" v="survey"/>
  </node>
  <node id="315973923" version="5" timestamp="2009-10-23T11:37:01Z" uid="36809" user="pfoten_weg_!_" changeset="2928981" lat="47.9142516" lon="11.6795842">
    <tag k="addr:city" v="Otterfing"/>
    <tag k="addr:country" v="DE"/>
    <tag k="addr:housenumber" v="16"/>
    <tag k="addr:postcode" v="83624"/>
    <tag k="addr:street" v="Alois-Eberl-Straße"/>
  </node>
  <node id="315974041" version="2" timestamp="2009-07-11T11:53:29Z" uid="123517" user="Qichina" changeset="1796373" lat="51.9362461" lon="0.6400875"/>
  <node id="315974041" version="3" timestamp="2010-08-07T07:53:03Z" uid="66869" user="Simon Daw" changeset="5422541" lat="51.9362461" lon="0.6400875"/>
  <node id="315974041" version="4" timestamp="2012-01-27T12:30:49Z" uid="585258" user="Andrew Cordle" changeset="10511767" lat="51.9362475" lon="0.6399897"/>
  <node id="315974056" version="2" timestamp="2009-07-11T11:53:29Z" uid="123517" user="Qichina" changeset="1796373" lat="51.9350141" lon="0.640159"/>
  <node id="315974056" version="3" timestamp="2010-08-07T07:53:03Z" uid="66869" user="Simon Daw" changeset="5422541" lat="51.9350141" lon="0.640159"/>
  <node id="315974056" version="4" timestamp="2012-01-27T12:30:49Z" uid="585258" user="Andrew Cordle" changeset="10511767" lat="51.935022" lon="0.6400478"/>
  <node id="315974073" version="5" timestamp="2009-10-02T19:49:25Z" uid="86259" user="hasse_osm_korinthenkacker" changeset="2716821" lat="47.9144587" lon="11.6793439">
    <tag k="addr:city" v="Otterfing"/>
    <tag k="addr:country" v="DE"/>
    <tag k="addr:housenumber" v="20"/>
    <tag k="addr:postcode" v="83624"/>
    <tag k="addr:street" v="Alois-Eberl-Straße"/>
    <tag k="source" v="survey"/>
  </node>
  <node id="315974073" version="6" timestamp="2009-10-23T11:37:00Z" uid="36809" user="pfoten_weg_!_" changeset="2928981" lat="47.9144587" lon="11.6793439">
    <tag k="addr:city" v="Otterfing"/>
    <tag k="addr:country" v="DE"/>
    <tag k="addr:housenumber" v="20"/>
    <tag k="addr:postcode" v="83624"/>
    <tag k="addr:street" v="Alois-Eberl-Straße"/>
  </node>
  <node id="315974112" version="5" timestamp="2009-10-02T19:49:28Z" uid="86259" user="hasse_osm_korinthenkacker" changeset="2716821" lat="47.9144759" lon="11.6794297">
    <tag k="addr:city" v="Otterfing"/>
    <tag k="addr:country" v="DE"/>
    <tag k="addr:housenumber" v="22"/>
    <tag k="addr:postcode" v="83624"/>
    <tag k="addr:street" v="Alois-Eberl-Straße"/>
    <tag k="source" v="survey"/>
  </node>
  <node id="315974112" version="6" timestamp="2009-10-23T11:37:03Z" uid="36809" user="pfoten_weg_!_" changeset="2928981" lat="47.9144759" lon="11.6794297">
    <tag k="addr:city" v="Otterfing"/>
    <tag k="addr:country" v="DE"/>
    <tag k="addr:housenumber" v="22"/>
    <tag k="addr:postcode" v="83624"/>
    <tag k="addr:street" v="Alois-Eberl-Straße"/>
  </node>
  <node id="315974154" version="5" timestamp="2009-10-02T19:49:28Z" uid="86259" user="hasse_osm_korinthenkacker" changeset="2716821" lat="47.9144874" lon="11.679507">
    <tag k="addr:city" v="Otterfing"/>
    <tag k="addr:country" v="DE"/>
    <tag k="addr:housenumber" v="24"/>
    <tag k="addr:postcode" v="83624"/>
    <tag k="addr:street" v="Alois-Eberl-Straße"/>
    <tag k="source" v="survey"/>
  </node>
  <node id="315974154" version="6" timestamp="2009-10-23T11:37:03Z" uid="36809" user="pfoten_weg_!_" changeset="2928981" lat="47.9144874" lon="11.679507">
    <tag k="addr:city" v="Otterfing"/>
    <tag k="addr:country" v="DE"/>
    <tag k="addr:housenumber" v="24"/>
    <tag k="addr:postcode" v="83624"/>
    <tag k="addr:street" v="Alois-Eberl-Straße"/>
  </node>
  <node id="315974255" version="4" timestamp="2009-10-02T19:49:25Z" uid="86259" user="hasse_osm_korinthenkacker" changeset="2716821" lat="47.9146857" lon="11.6788187">
    <tag k="addr:city" v="Otterfing"/>
    <tag k="addr:country" v="DE"/>
    <tag k="addr:housenumber" v="30"/>
    <tag k="addr:postcode" v="83624"/>
    <tag k="addr:street" v="Alois-Eberl-Straße"/>
    <tag k="source" v="survey"/>
  </node>
  <node id="315974255" version="5" timestamp="2009-10-23T11:36:59Z" uid="36809" user="pfoten_weg_!_" changeset="2928981" lat="47.9146857" lon="11.6788187">
    <tag k="addr:city" v="Otterfing"/>
    <tag k="addr:country" v="DE"/>
    <tag k="addr:housenumber" v="30"/>
    <tag k="addr:postcode" v="83624"/>
    <tag k="addr:street" v="Alois-Eberl-Straße"/>
  </node>
  <node id="315974262" version="4" timestamp="2009-10-02T19:49:25Z" uid="86259" user="hasse_osm_korinthenkacker" changeset="2716821" lat="47.9146915" lon="11.6789131">
    <tag k="addr:city" v="Otterfing"/>
    <tag k="addr:country" v="DE"/>
    <tag k="addr:housenumber" v="32"/>
    <tag k="addr:postcode" v="83624"/>
    <tag k="addr:street" v="Alois-Eberl-Straße"/>
    <tag k="source" v="survey"/>
  </node>
  <node id="315974262" version="5" timestamp="2009-10-23T11:37:00Z" uid="36809" user="pfoten_weg_!_" changeset="2928981" lat="47.9146915" lon="11.6789131">
    <tag k="addr:city" v="Otterfing"/>
    <tag k="addr:country" v="DE"/>
    <tag k="addr:housenumber" v="32"/>
    <tag k="addr:postcode" v="83624"/>
    <tag k="addr:street" v="Alois-Eberl-Straße"/>
  </node>
  <node id="315974354" version="3" timestamp="2009-10-02T19:49:29Z" uid="86259" user="hasse_osm_korinthenkacker" changeset="2716821" lat="47.9147433" lon="11.6792392">
    <tag k="addr:city" v="Otterfing"/>
    <tag k="addr:country" v="DE"/>
    <tag k="addr:housenumber" v="36"/>
    <tag k="addr:postcode" v="83624"/>
    <tag k="addr:street" v="Alois-Eberl-Straße"/>
    <tag k="source" v="survey"/>
  </node>
  <node id="315974354" version="4" timestamp="2009-10-23T11:37:05Z" uid="36809" user="pfoten_weg_!_" changeset="2928981" lat="47.9147433" lon="11.6792392">
    <tag k="addr:city" v="Otterfing"/>
    <tag k="addr:country" v="DE"/>
    <tag k="addr:housenumber" v="36"/>
    <tag k="addr:postcode" v="83624"/>
    <tag k="addr:street" v="Alois-Eberl-Straße"/>
  </node>
  <node id="315974369" version="3" timestamp="2009-10-02T19:49:29Z" uid="86259" user="hasse_osm_korinthenkacker" changeset="2716821" lat="47.914749" lon="11.6793079">
    <tag k="addr:city" v="Otterfing"/>
    <tag k="addr:country" v="DE"/>
    <tag k="addr:housenumber" v="38"/>
    <tag k="addr:postcode" v="83624"/>
    <tag k="addr:street" v="Alois-Eberl-Straße"/>
    <tag k="source" v="survey"/>
  </node>
  <node id="315974369" version="4" timestamp="2009-10-23T11:37:05Z" uid="36809" user="pfoten_weg_!_" changeset="2928981" lat="47.914749" lon="11.6793079">
    <tag k="addr:city" v="Otterfing"/>
    <tag k="addr:country" v="DE"/>
    <tag k="addr:housenumber" v="38"/>
    <tag k="addr:postcode" v="83624"/>
    <tag k="addr:street" v="Alois-Eberl-Straße"/>
  </node>
  <node id="315974425" version="5" timestamp="2009-10-02T19:49:24Z" uid="86259" user="hasse_osm_korinthenkacker" changeset="2716821" lat="47.9142039" lon="11.6789013">
    <tag k="addr:city" v="Otterfing"/>
    <tag k="addr:country" v="DE"/>
    <tag k="addr:housenumber" v="6"/>
    <tag k="addr:postcode" v="83624"/>
    <tag k="addr:street" v="Alois-Eberl-Straße"/>
    <tag k="source" v="survey"/>
  </node>
  <node id="315974425" version="6" timestamp="2009-10-23T11:36:56Z" uid="36809" user="pfoten_weg_!_" changeset="2928981" lat="47.9142039" lon="11.6789013">
    <tag k="addr:city" v="Otterfing"/>
    <tag k="addr:country" v="DE"/>
    <tag k="addr:housenumber" v="6"/>
    <tag k="addr:postcode" v="83624"/>
    <tag k="addr:street" v="Alois-Eberl-Straße"/>
  </node>
  <node id="315974460" version="5" timestamp="2009-10-02T19:49:24Z" uid="86259" user="hasse_osm_korinthenkacker" changeset="2716821" lat="47.9142212" lon="11.6790043">
    <tag k="addr:city" v="Otterfing"/>
    <tag k="addr:country" v="DE"/>
    <tag k="addr:housenumber" v="8"/>
    <tag k="addr:postcode" v="83624"/>
    <tag k="addr:street" v="Alois-Eberl-Straße"/>
    <tag k="source" v="survey"/>
  </node>
  <node id="315974460" version="6" timestamp="2009-10-23T11:36:57Z" uid="36809" user="pfoten_weg_!_" changeset="2928981" lat="47.9142212" lon="11.6790043">
    <tag k="addr:city" v="Otterfing"/>
    <tag k="addr:country" v="DE"/>
    <tag k="addr:housenumber" v="8"/>
    <tag k="addr:postcode" v="83624"/>
    <tag k="addr:street" v="Alois-Eberl-Straße"/>
  </node>
  <node id="315977109" version="4" timestamp="2010-01-10T18:59:44Z" uid="9581" user="Lobelt" changeset="3590402" lat="49.482798" lon="8.698563"/>
  <node id="315977784" version="6" timestamp="2009-10-02T19:46:56Z" uid="86259" user="hasse_osm_korinthenkacker" changeset="2716821" lat="47.9210922" lon="11.6515679">
    <tag k="addr:city" v="Otterfing"/>
    <tag k="addr:country" v="DE"/>
    <tag k="addr:housenumber" v="2"/>
    <tag k="addr:postcode" v="83624"/>
    <tag k="addr:street" v="Fohlenweide"/>
  </node>
  <node id="315977976" version="2" timestamp="2009-07-11T11:53:21Z" uid="123517" user="Qichina" changeset="1796373" lat="51.9356776" lon="0.6420458"/>
  <node id="315977976" version="3" timestamp="2010-08-07T07:53:02Z" uid="66869" user="Simon Daw" changeset="5422541" lat="51.9356776" lon="0.6420458"/>
  <node id="315977998" version="2" timestamp="2009-07-11T11:53:23Z" uid="123517" user="Qichina" changeset="1796373" lat="51.9373251" lon="0.6405093"/>
  <node id="315977998" version="3" timestamp="2010-08-07T07:53:02Z" uid="66869" user="Simon Daw" changeset="5422541" lat="51.9373251" lon="0.6405093"/>
  <node id="315978030" version="4" timestamp="2009-10-02T19:46:56Z" uid="86259" user="hasse_osm_korinthenkacker" changeset="2716821" lat="47.9205975" lon="11.651216">
    <tag k="addr:city" v="Otterfing"/>
    <tag k="addr:country" v="DE"/>
    <tag k="addr:housenumber" v="1"/>
    <tag k="addr:postcode" v="83624"/>
    <tag k="addr:street" v="Fohlenweide"/>
  </node>
  <node id="315978096" version="5" timestamp="2009-10-02T19:46:57Z" uid="86259" user="hasse_osm_korinthenkacker" changeset="2716821" lat="47.9211037" lon="11.6514134">
    <tag k="addr:city" v="Otterfing"/>
    <tag k="addr:country" v="DE"/>
    <tag k="addr:housenumber" v="2a"/>
    <tag k="addr:postcode" v="83624"/>
    <tag k="addr:street" v="Fohlenweide"/>
  </node>
  <node id="315978330" version="6" timestamp="2009-10-02T19:46:56Z" uid="86259" user="hasse_osm_korinthenkacker" changeset="2716821" lat="47.9205745" lon="11.6505122">
    <tag k="addr:city" v="Otterfing"/>
    <tag k="addr:country" v="DE"/>
    <tag k="addr:housenumber" v="3"/>
    <tag k="addr:postcode" v="83624"/>
    <tag k="addr:street" v="Fohlenweide"/>
  </node>
  <node id="315978640" version="6" timestamp="2009-10-02T19:46:56Z" uid="86259" user="hasse_osm_korinthenkacker" changeset="2716821" lat="47.9209714" lon="11.650701">
    <tag k="addr:city" v="Otterfing"/>
    <tag k="addr:country" v="DE"/>
    <tag k="addr:housenumber" v="5"/>
    <tag k="addr:postcode" v="83624"/>
    <tag k="addr:street" v="Fohlenweide"/>
  </node>
  <node id="315979543" version="9" timestamp="2009-10-02T19:49:35Z" uid="86259" user="hasse_osm_korinthenkacker" changeset="2716821" lat="47.9227938" lon="11.6496418">
    <tag k="addr:city" v="Heigenkam"/>
    <tag k="addr:country" v="DE"/>
    <tag k="addr:housenumber" v="1"/>
    <tag k="addr:postcode" v="83624"/>
    <tag k="addr:street" v="Heigenkam"/>
  </node>
  <node id="315979543" version="10" timestamp="2009-11-13T18:50:04Z" uid="42393" user="mawi42" changeset="3108047" lat="47.9227975" lon="11.6496385">
    <tag k="addr:city" v="Otterfing"/>
    <tag k="addr:country" v="DE"/>
    <tag k="addr:housenumber" v="1"/>
    <tag k="addr:postcode" v="83624"/>
    <tag k="addr:street" v="Heigenkam"/>
  </node>
  <node id="315979679" version="1" timestamp="2008-11-30T23:09:09Z" uid="49111" user="Markus B" changeset="815654" lat="49.5452642" lon="11.3761099"/>
  <node id="315979680" version="1" timestamp="2008-11-30T23:09:09Z" uid="49111" user="Markus B" changeset="815654" lat="49.5452165" lon="11.3763061"/>
  <node id="315979681" version="1" timestamp="2008-11-30T23:09:09Z" uid="49111" user="Markus B" changeset="815654" lat="49.5451635" lon="11.376069">
    <tag k="historic" v="archaeological_site"/>
    <tag k="name" v="Kalkbrennofen"/>
  </node>
  <node id="315979682" version="1" timestamp="2008-11-30T23:09:09Z" uid="49111" user="Markus B" changeset="815654" lat="49.5448346" lon="11.3755294">
    <tag k="amenity" v="bench"/>
  </node>
  <node id="315979683" version="1" timestamp="2008-11-30T23:09:09Z" uid="49111" user="Markus B" changeset="815654" lat="49.5446224" lon="11.3756929"/>
  <node id="315979683" version="2" timestamp="2009-11-06T02:20:44Z" uid="149968" user="HoMa" changeset="3045325" lat="49.5446224" lon="11.3756929"/>
  <node id="315979684" version="1" timestamp="2008-11-30T23:09:09Z" uid="49111" user="Markus B" changeset="815654" lat="49.5439018" lon="11.3725197">
    <tag k="amenity" v="bench"/>
  </node>
  <node id="315979685" version="1" timestamp="2008-11-30T23:09:09Z" uid="49111" user="Markus B" changeset="815654" lat="49.5441502" lon="11.3736898">
    <tag k="amenity" v="bench"/>
  </node>
  <node id="315979686" version="1" timestamp="2008-11-30T23:09:10Z" uid="49111" user="Markus B" changeset="815654" lat="49.5438457" lon="11.3725578">
    <tag k="historic" v="wayside_cross"/>
  </node>
  <node id="315979687" version="1" timestamp="2008-11-30T23:09:10Z" uid="49111" user="Markus B" changeset="815654" lat="49.5441411" lon="11.3730386"/>
  <node id="315979688" version="1" timestamp="2008-11-30T23:09:10Z" uid="49111" user="Markus B" changeset="815654" lat="49.5441533" lon="11.3728832"/>
  <node id="315979689" version="1" timestamp="2008-11-30T23:09:10Z" uid="49111" user="Markus B" changeset="815654" lat="49.5441046" lon="11.37276"/>
  <node id="315979690" version="1" timestamp="2008-11-30T23:09:10Z" uid="49111" user="Markus B" changeset="815654" lat="49.5442593" lon="11.3726796">
    <tag k="alt" v="ca.560"/>
    <tag k="name" v="Monte Velo"/>
    <tag k="note" v="Gipfehlfahne aus Stahl"/>
    <tag k="sport" v="climbing"/>
    <tag k="tourism" v="viewpoint"/>
  </node>
  <node id="315979690" version="2" timestamp="2008-11-30T23:24:24Z" uid="49111" user="Markus B" changeset="815654" lat="49.5442593" lon="11.3726796">
    <tag k="name" v="Monte Velo"/>
    <tag k="natural" v="cliff"/>
    <tag k="note" v="Gipfehlfahne aus Stahl"/>
    <tag k="sport" v="climbing"/>
    <tag k="tourism" v="viewpoint"/>
  </node>
  <node id="315979690" version="3" timestamp="2009-04-05T11:56:04Z" uid="99736" user="aschnell" changeset="239861" lat="49.5442592" lon="11.3726796">
    <tag k="created_by" v="Merkaartor 0.12"/>
    <tag k="name" v="Monte Velo"/>
    <tag k="natural" v="cliff"/>
    <tag k="note" v="Gipfelfahne aus Stahl"/>
    <tag k="sport" v="climbing"/>
    <tag k="tourism" v="viewpoint"/>
  </node>
  <node id="315979690" version="4" timestamp="2010-07-22T17:27:27Z" uid="82877" user="Wankmann" changeset="5289430" lat="49.5441064" lon="11.3726935">
    <tag k="name" v="Monte Velo"/>
    <tag k="natural" v="cliff"/>
    <tag k="note" v="Gipfelfahne aus Stahl"/>
    <tag k="sport" v="climbing"/>
    <tag k="tourism" v="viewpoint"/>
  </node>
  <node id="315979692" version="1" timestamp="2008-11-30T23:09:11Z" uid="49111" user="Markus B" changeset="815654" lat="49.5440325" lon="11.3731503"/>
  <node id="315979693" version="1" timestamp="2008-11-30T23:09:11Z" uid="49111" user="Markus B" changeset="815654" lat="49.5441331" lon="11.3733177"/>
  <node id="315979693" version="2" timestamp="2009-11-07T04:04:37Z" uid="149968" user="HoMa" changeset="3053362" lat="49.5440719" lon="11.373242"/>
  <node id="315979694" version="1" timestamp="2008-11-30T23:09:11Z" uid="49111" user="Markus B" changeset="815654" lat="49.5439284" lon="11.3728513"/>
  <node id="315979695" version="1" timestamp="2008-11-30T23:09:11Z" uid="49111" user="Markus B" changeset="815654" lat="49.5438618" lon="11.3724904">
    <tag k="tourism" v="viewpoint"/>
  </node>
  <node id="315979697" version="1" timestamp="2008-11-30T23:09:11Z" uid="49111" user="Markus B" changeset="815654" lat="49.5435894" lon="11.3724834">
    <tag k="alt" v="ca.560"/>
    <tag k="sport" v="climbing"/>
    <tag k="tourism" v="viewpoint"/>
  </node>
  <node id="315979697" version="2" timestamp="2008-11-30T23:24:24Z" uid="49111" user="Markus B" changeset="815654" lat="49.5435566" lon="11.3725002">
    <tag k="natural" v="cliff"/>
    <tag k="sport" v="climbing"/>
  </node>
  <node id="315979698" version="1" timestamp="2008-11-30T23:09:11Z" uid="49111" user="Markus B" changeset="815654" lat="49.5437128" lon="11.3724486">
    <tag k="alt" v="ca.560"/>
    <tag k="sport" v="climbing"/>
    <tag k="tourism" v="viewpoint"/>
  </node>
  <node id="315979698" version="2" timestamp="2008-11-30T23:24:24Z" uid="49111" user="Markus B" changeset="815654" lat="49.5437128" lon="11.3724486">
    <tag k="natural" v="clif"/>
    <tag k="sport" v="climbing"/>
  </node>
  <node id="315979698" version="3" timestamp="2009-03-30T20:05:27Z" uid="95702" user="Balgofil" changeset="870890" lat="49.5437149" lon="11.3724436">
    <tag k="created_by" v="Potlatch 0.10f"/>
    <tag k="natural" v="cliff"/>
    <tag k="sport" v="climbing"/>
  </node>
  <node id="315979698" version="4" timestamp="2010-11-01T20:03:20Z" uid="202858" user="kellerma" changeset="6260991" lat="49.5437149" lon="11.3724436">
    <tag k="natural" v="cliff"/>
    <tag k="sport" v="climbing"/>
  </node>
  <node id="315979699" version="1" timestamp="2008-11-30T23:09:11Z" uid="49111" user="Markus B" changeset="815654" lat="49.5439641" lon="11.3724417">
    <tag k="alt" v="ca.560"/>
    <tag k="sport" v="climbing"/>
    <tag k="tourism" v="viewpoint"/>
  </node>
  <node id="315979699" version="2" timestamp="2008-11-30T23:24:24Z" uid="49111" user="Markus B" changeset="815654" lat="49.5439641" lon="11.3724417">
    <tag k="natural" v="cliff"/>
    <tag k="sport" v="climbing"/>
  </node>
  <node id="315979700" version="1" timestamp="2008-11-30T23:09:11Z" uid="49111" user="Markus B" changeset="815654" lat="49.5349104" lon="11.3802383"/>
  <node id="315979700" version="2" timestamp="2009-06-13T19:24:12Z" uid="49111" user="Markus B" changeset="1507938" lat="49.5349461" lon="11.3802383"/>
  <node id="315979700" version="3" timestamp="2009-06-15T12:02:18Z" uid="49111" user="Markus B" changeset="1524285" lat="49.5349461" lon="11.3802383"/>
  <node id="315979702" version="5" timestamp="2009-10-02T19:46:57Z" uid="86259" user="hasse_osm_korinthenkacker" changeset="2716821" lat="47.9219943" lon="11.6551864">
    <tag k="addr:city" v="Otterfing"/>
    <tag k="addr:country" v="DE"/>
    <tag k="addr:housenumber" v="23"/>
    <tag k="addr:postcode" v="83624"/>
    <tag k="addr:street" v="Heigenkamer Weg"/>
  </node>
  <node id="315979702" version="6" timestamp="2009-11-13T18:58:45Z" uid="42393" user="mawi42" changeset="3108047" lat="47.9220498" lon="11.6551746">
    <tag k="addr:city" v="Otterfing"/>
    <tag k="addr:country" v="DE"/>
    <tag k="addr:housenumber" v="23"/>
    <tag k="addr:postcode" v="83624"/>
    <tag k="addr:street" v="Heigenkamer Weg"/>
  </node>
  <node id="315979712" version="5" timestamp="2009-10-02T19:46:57Z" uid="86259" user="hasse_osm_korinthenkacker" changeset="2716821" lat="47.9219541" lon="11.6541307">
    <tag k="addr:city" v="Otterfing"/>
    <tag k="addr:country" v="DE"/>
    <tag k="addr:housenumber" v="27"/>
    <tag k="addr:postcode" v="83624"/>
    <tag k="addr:street" v="Heigenkamer Weg"/>
  </node>
  <node id="315979751" version="5" timestamp="2009-10-02T19:46:57Z" uid="86259" user="hasse_osm_korinthenkacker" changeset="2716821" lat="47.9220749" lon="11.6538646">
    <tag k="addr:city" v="Otterfing"/>
    <tag k="addr:country" v="DE"/>
    <tag k="addr:housenumber" v="29"/>
    <tag k="addr:postcode" v="83624"/>
    <tag k="addr:street" v="Heigenkamer Weg"/>
  </node>
  <node id="315979751" version="6" timestamp="2009-11-13T18:58:46Z" uid="42393" user="mawi42" changeset="3108047" lat="47.9220498" lon="11.6538699">
    <tag k="addr:city" v="Otterfing"/>
    <tag k="addr:country" v="DE"/>
    <tag k="addr:housenumber" v="29"/>
    <tag k="addr:postcode" v="83624"/>
    <tag k="addr:street" v="Heigenkamer Weg"/>
  </node>
  <node id="315979751" version="7" timestamp="2011-01-19T19:06:10Z" uid="42393" user="mawi42" changeset="7023544" lat="47.9220679" lon="11.6538381">
    <tag k="addr:city" v="Otterfing"/>
    <tag k="addr:country" v="DE"/>
    <tag k="addr:housenumber" v="29"/>
    <tag k="addr:postcode" v="83624"/>
    <tag k="addr:street" v="Heigenkamer Weg"/>
  </node>
</osm>
