<?xml version='1.0' encoding='UTF-8'?>
<osm version="0.6" generator="libosmium/2.20.0">
  <node id="315901289" version="5" timestamp="2009-10-02T19:45:11Z" uid="86259" user="hasse_osm_korinthenkacker" changeset="2716821" lat="47.8977449" lon="11.6653062">
    <tag k="addr:city" v="Otterfing"/>
    <tag k="addr:country" v="DE"/>
    <tag k="addr:housenumber" v="2"/>
    <tag k="addr:postcode" v="83624"/>
    <tag k="addr:street" v="Wirtsanger"/>
  </node>
  <node id="315901319" version="6" timestamp="2009-10-02T19:45:11Z" uid="86259" user="hasse_osm_korinthenkacker" changeset="2716821" lat="47.8976644" lon="11.6653405">
    <tag k="addr:city" v="Otterfing"/>
    <tag k="addr:country" v="DE"/>
    <tag k="addr:housenumber" v="4"/>
    <tag k="addr:postcode" v="83624"/>
    <tag k="addr:street" v="Wirtsanger"/>
  </node>
  <node id="315901326" version="1" timestamp="2008-11-30T19:42:34Z" uid="8619" user="cetest" changeset="814389" lat="52.0284137" lon="4.3616681"/>
  <node id="315901326" version="2" timestamp="2009-08-23T21:27:25Z" uid="105512" user="datalogg" changeset="2237009" lat="52.0284794" lon="4.3617564"/>
  <node id="315901326" version="3" timestamp="2011-09-11T22:37:48Z" uid="191979" user="It&apos;s so funny" changeset="9276095" lat="52.0284794" lon="4.3617564"/>
  <node id="315901327" version="1" timestamp="2008-11-30T19:42:35Z" uid="8619" user="cetest" changeset="814389" lat="52.0301818" lon="4.356991"/>
  <node id="315901328" version="1" timestamp="2008-11-30T19:42:35Z" uid="8619" user="cetest" changeset="814389" lat="52.030441" lon="4.3570415"/>
  <node id="315901330" version="1" timestamp="2008-11-30T19:42:36Z" uid="8619" user="cetest" changeset="814389" lat="52.0275566" lon="4.3602815"/>
  <node id="315901332" version="1" timestamp="2008-11-30T19:42:36Z" uid="8619" user="cetest" changeset="814389" lat="52.0288009" lon="4.3589578"/>
  <node id="315901333" version="1" timestamp="2008-11-30T19:42:37Z" uid="8619" user="cetest" changeset="814389" lat="52.0234248" lon="4.3646627"/>
  <node id="315901334" version="1" timestamp="2008-11-30T19:42:37Z" uid="8619" user="cetest" changeset="814389" lat="52.0266898" lon="4.3614855"/>
  <node id="315901335" version="1" timestamp="2008-11-30T19:42:38Z" uid="8619" user="cetest" changeset="814389" lat="52.028345" lon="4.3592969"/>
  <node id="315901336" version="6" timestamp="2009-10-02T19:45:10Z" uid="86259" user="hasse_osm_korinthenkacker" changeset="2716821" lat="47.8975147" lon="11.6653834">
    <tag k="addr:city" v="Otterfing"/>
    <tag k="addr:country" v="DE"/>
    <tag k="addr:housenumber" v="6"/>
    <tag k="addr:postcode" v="83624"/>
    <tag k="addr:street" v="Wirtsanger"/>
  </node>
  <node id="315901478" version="8" timestamp="2009-10-02T19:45:10Z" uid="86259" user="hasse_osm_korinthenkacker" changeset="2716821" lat="47.8974421" lon="11.6654154">
    <tag k="addr:city" v="Otterfing"/>
    <tag k="addr:country" v="DE"/>
    <tag k="addr:housenumber" v="8"/>
    <tag k="addr:postcode" v="83624"/>
    <tag k="addr:street" v="Wirtsanger"/>
  </node>
  <node id="315901599" version="5" timestamp="2009-10-02T19:45:34Z" uid="86259" user="hasse_osm_korinthenkacker" changeset="2716821" lat="47.898028" lon="11.6683005">
    <tag k="addr:city" v="Otterfing"/>
    <tag k="addr:country" v="DE"/>
    <tag k="addr:housenumber" v="1"/>
    <tag k="addr:postcode" v="83624"/>
    <tag k="addr:street" v="Arberstein"/>
  </node>
  <node id="315901599" version="6" timestamp="2012-02-18T10:24:33Z" uid="42393" user="mawi42" changeset="10718500" lat="47.8980384" lon="11.6683171">
    <tag k="addr:city" v="Otterfing"/>
    <tag k="addr:country" v="DE"/>
    <tag k="addr:housenumber" v="1"/>
    <tag k="addr:postcode" v="83624"/>
    <tag k="addr:street" v="Arberstein"/>
  </node>
  <node id="315901774" version="2" timestamp="2009-02-01T22:41:30Z" uid="67142" user="zottel" changeset="50569" lat="48.9029791" lon="8.7129255"/>
  <node id="315901774" version="3" timestamp="2012-01-05T08:40:25Z" uid="442210" user="dwausr" changeset="10298332" lat="48.9029791" lon="8.7129255"/>
  <node id="315901775" version="2" timestamp="2009-02-01T22:41:30Z" uid="67142" user="zottel" changeset="50569" lat="48.9029398" lon="8.7128354"/>
  <node id="315901775" version="3" timestamp="2009-10-16T21:24:30Z" uid="63969" user="olvagor" changeset="2869257" lat="48.9029465" lon="8.7128673"/>
  <node id="315903486" version="5" timestamp="2009-10-02T19:45:11Z" uid="86259" user="hasse_osm_korinthenkacker" changeset="2716821" lat="47.8991184" lon="11.6645146">
    <tag k="addr:city" v="Otterfing"/>
    <tag k="addr:country" v="DE"/>
    <tag k="addr:housenumber" v="12"/>
    <tag k="addr:postcode" v="83624"/>
    <tag k="addr:street" v="Erlacher Weg"/>
  </node>
  <node id="315903486" version="6" timestamp="2010-09-25T12:58:26Z" uid="42393" user="mawi42" changeset="5870538" lat="47.8990969" lon="11.664537">
    <tag k="addr:city" v="Otterfing"/>
    <tag k="addr:country" v="DE"/>
    <tag k="addr:housenumber" v="12"/>
    <tag k="addr:postcode" v="83624"/>
    <tag k="addr:street" v="Erlacher Weg"/>
  </node>
  <node id="315903486" version="7" timestamp="2011-01-05T12:18:58Z" uid="42393" user="mawi42" changeset="6870979" lat="47.8991071" lon="11.6645346">
    <tag k="addr:city" v="Otterfing"/>
    <tag k="addr:country" v="DE"/>
    <tag k="addr:housenumber" v="12"/>
    <tag k="addr:postcode" v="83624"/>
    <tag k="addr:street" v="Erlacher Weg"/>
  </node>
  <node id="315903528" version="5" timestamp="2009-10-02T19:45:11Z" uid="86259" user="hasse_osm_korinthenkacker" changeset="2716821" lat="47.8993859" lon="11.6641941">
    <tag k="addr:city" v="Otterfing"/>
    <tag k="addr:country" v="DE"/>
    <tag k="addr:housenumber" v="14"/>
    <tag k="addr:postcode" v="83624"/>
    <tag k="addr:street" v="Erlacher Weg"/>
  </node>
  <node id="315903528" version="6" timestamp="2010-09-25T12:58:26Z" uid="42393" user="mawi42" changeset="5870538" lat="47.8993612" lon="11.6642178">
    <tag k="addr:city" v="Otterfing"/>
    <tag k="addr:country" v="DE"/>
    <tag k="addr:housenumber" v="14"/>
    <tag k="addr:postcode" v="83624"/>
    <tag k="addr:street" v="Erlacher Weg"/>
  </node>
  <node id="315903528" version="7" timestamp="2010-12-02T08:17:22Z" uid="42393" user="mawi42" changeset="6511966" lat="47.8994045" lon="11.6642092">
    <tag k="addr:city" v="Otterfing"/>
    <tag k="addr:country" v="DE"/>
    <tag k="addr:housenumber" v="14"/>
    <tag k="addr:postcode" v="83624"/>
    <tag k="addr:street" v="Erlacher Weg"/>
  </node>
  <node id="315903528" version="8" timestamp="2011-01-05T10:27:52Z" uid="42393" user="mawi42" changeset="6869922" lat="47.8993764" lon="11.6642189">
    <tag k="addr:city" v="Otterfing"/>
    <tag k="addr:country" v="DE"/>
    <tag k="addr:housenumber" v="14"/>
    <tag k="addr:postcode" v="83624"/>
    <tag k="addr:street" v="Erlacher Weg"/>
  </node>
  <node id="315903647" version="5" timestamp="2009-10-02T19:45:11Z" uid="86259" user="hasse_osm_korinthenkacker" changeset="2716821" lat="47.8989486" lon="11.6633272">
    <tag k="addr:city" v="Otterfing"/>
    <tag k="addr:country" v="DE"/>
    <tag k="addr:housenumber" v="17"/>
    <tag k="addr:postcode" v="83624"/>
    <tag k="addr:street" v="Erlacher Weg"/>
  </node>
  <node id="315903647" version="6" timestamp="2011-01-05T10:27:48Z" uid="42393" user="mawi42" changeset="6869922" lat="47.8989846" lon="11.6633272">
    <tag k="addr:city" v="Otterfing"/>
    <tag k="addr:country" v="DE"/>
    <tag k="addr:housenumber" v="17"/>
    <tag k="addr:postcode" v="83624"/>
    <tag k="addr:street" v="Erlacher Weg"/>
  </node>
  <node id="315903889" version="5" timestamp="2009-10-02T19:45:11Z" uid="86259" user="hasse_osm_korinthenkacker" changeset="2716821" lat="47.8992305" lon="11.6633358">
    <tag k="addr:city" v="Otterfing"/>
    <tag k="addr:country" v="DE"/>
    <tag k="addr:housenumber" v="19"/>
    <tag k="addr:postcode" v="83624"/>
    <tag k="addr:street" v="Erlacher Weg"/>
  </node>
  <node id="315903889" version="6" timestamp="2011-01-05T12:18:54Z" uid="42393" user="mawi42" changeset="6870979" lat="47.8992521" lon="11.6633573">
    <tag k="addr:city" v="Otterfing"/>
    <tag k="addr:country" v="DE"/>
    <tag k="addr:housenumber" v="19"/>
    <tag k="addr:postcode" v="83624"/>
    <tag k="addr:street" v="Erlacher Weg"/>
  </node>
  <node id="315903961" version="2" timestamp="2010-07-29T09:10:22Z" uid="74617" user="JohnSmith" changeset="5344848" lat="48.6654123" lon="9.3680607">
    <tag k="amenity" v="emergency_phone"/>
    <tag k="emergency" v="phone"/>
    <tag k="operator" v="Straßenmeisterei"/>
  </node>
  <node id="315903962" version="3" timestamp="2010-07-29T09:32:07Z" uid="74617" user="JohnSmith" changeset="5344848" lat="48.6579966" lon="9.3802252">
    <tag k="amenity" v="emergency_phone"/>
    <tag k="emergency" v="phone"/>
    <tag k="operator" v="Straßenmeisterei"/>
    <tag k="source" v="Photo"/>
  </node>
  <node id="315903964" version="3" timestamp="2010-07-29T09:28:38Z" uid="74617" user="JohnSmith" changeset="5344848" lat="48.6530155" lon="9.3972505">
    <tag k="amenity" v="emergency_phone"/>
    <tag k="emergency" v="phone"/>
    <tag k="operator" v="Straßenmeisterei"/>
  </node>
  <node id="315904673" version="7" timestamp="2009-10-02T19:48:53Z" uid="86259" user="hasse_osm_korinthenkacker" changeset="2716821" lat="47.9134181" lon="11.6746839">
    <tag k="addr:city" v="Otterfing"/>
    <tag k="addr:country" v="DE"/>
    <tag k="addr:housenumber" v="4a"/>
    <tag k="addr:postcode" v="83624"/>
    <tag k="addr:street" v="Nordsiedlung"/>
    <tag k="source" v="survey"/>
  </node>
  <node id="315904673" version="8" timestamp="2009-10-23T11:35:42Z" uid="36809" user="pfoten_weg_!_" changeset="2928981" lat="47.9134181" lon="11.6746839">
    <tag k="addr:city" v="Otterfing"/>
    <tag k="addr:country" v="DE"/>
    <tag k="addr:housenumber" v="4a"/>
    <tag k="addr:postcode" v="83624"/>
    <tag k="addr:street" v="Nordsiedlung"/>
  </node>
  <node id="315904673" version="9" timestamp="2010-05-23T14:11:36Z" uid="42393" user="mawi42" changeset="4783522" lat="47.9134531" lon="11.6747008">
    <tag k="addr:city" v="Otterfing"/>
    <tag k="addr:country" v="DE"/>
    <tag k="addr:housenumber" v="4a"/>
    <tag k="addr:postcode" v="83624"/>
    <tag k="addr:street" v="Nordsiedlung"/>
  </node>
  <node id="315904687" version="4" timestamp="2011-06-17T10:50:16Z" uid="115477" user="wowik" changeset="8463348" lat="56.1405761" lon="37.4927434"/>
  <node id="315905045" version="6" timestamp="2009-10-02T19:48:52Z" uid="86259" user="hasse_osm_korinthenkacker" changeset="2716821" lat="47.9141026" lon="11.6742033">
    <tag k="addr:city" v="Otterfing"/>
    <tag k="addr:country" v="DE"/>
    <tag k="addr:housenumber" v="8a"/>
    <tag k="addr:postcode" v="83624"/>
    <tag k="addr:street" v="Nordsiedlung"/>
    <tag k="source" v="survey"/>
  </node>
  <node id="315905045" version="7" timestamp="2009-10-23T11:35:40Z" uid="36809" user="pfoten_weg_!_" changeset="2928981" lat="47.9141026" lon="11.6742033">
    <tag k="addr:city" v="Otterfing"/>
    <tag k="addr:country" v="DE"/>
    <tag k="addr:housenumber" v="8a"/>
    <tag k="addr:postcode" v="83624"/>
    <tag k="addr:street" v="Nordsiedlung"/>
  </node>
  <node id="315905046" version="7" timestamp="2009-10-02T19:49:00Z" uid="86259" user="hasse_osm_korinthenkacker" changeset="2716821" lat="47.9144306" lon="11.6738428">
    <tag k="addr:city" v="Otterfing"/>
    <tag k="addr:country" v="DE"/>
    <tag k="addr:housenumber" v="10"/>
    <tag k="addr:postcode" v="83624"/>
    <tag k="addr:street" v="Nordsiedlung"/>
  </node>
  <node id="315905047" version="6" timestamp="2009-10-02T19:49:01Z" uid="86259" user="hasse_osm_korinthenkacker" changeset="2716821" lat="47.9144075" lon="11.6740488">
    <tag k="addr:city" v="Otterfing"/>
    <tag k="addr:country" v="DE"/>
    <tag k="addr:housenumber" v="10a"/>
    <tag k="addr:postcode" v="83624"/>
    <tag k="addr:street" v="Nordsiedlung"/>
  </node>
  <node id="315905109" version="4" timestamp="2010-07-29T09:12:00Z" uid="74617" user="JohnSmith" changeset="5344848" lat="48.6307074" lon="9.4581756">
    <tag k="amenity" v="emergency_phone"/>
    <tag k="emergency" v="phone"/>
    <tag k="operator" v="Autobahnmeisterei"/>
    <tag k="source" v="Photo"/>
  </node>
  <node id="315905110" version="4" timestamp="2010-07-29T09:34:07Z" uid="74617" user="JohnSmith" changeset="5344848" lat="48.6310225" lon="9.4580187">
    <tag k="amenity" v="emergency_phone"/>
    <tag k="emergency" v="phone"/>
    <tag k="operator" v="Autobahnmeisterei"/>
    <tag k="source" v="Photo"/>
  </node>
  <node id="315905111" version="4" timestamp="2010-07-29T09:41:23Z" uid="74617" user="JohnSmith" changeset="5344848" lat="48.6297035" lon="9.4774286">
    <tag k="amenity" v="emergency_phone"/>
    <tag k="emergency" v="phone"/>
    <tag k="operator" v="Straßenmeisterei"/>
    <tag k="source" v="Photo"/>
  </node>
  <node id="315905112" version="4" timestamp="2010-07-29T09:29:59Z" uid="74617" user="JohnSmith" changeset="5344848" lat="48.6300159" lon="9.4774419">
    <tag k="amenity" v="emergency_phone"/>
    <tag k="emergency" v="phone"/>
    <tag k="operator" v="Straßenmeisterei"/>
    <tag k="source" v="Photo"/>
  </node>
  <node id="315905441" version="6" timestamp="2009-10-02T19:48:55Z" uid="86259" user="hasse_osm_korinthenkacker" changeset="2716821" lat="47.9125495" lon="11.6759053">
    <tag k="addr:city" v="Otterfing"/>
    <tag k="addr:country" v="DE"/>
    <tag k="addr:housenumber" v="12"/>
    <tag k="addr:postcode" v="83624"/>
    <tag k="addr:street" v="Killerweg"/>
    <tag k="source" v="survey"/>
  </node>
  <node id="315905441" version="7" timestamp="2009-10-23T11:35:49Z" uid="36809" user="pfoten_weg_!_" changeset="2928981" lat="47.9125495" lon="11.6759053">
    <tag k="addr:city" v="Otterfing"/>
    <tag k="addr:country" v="DE"/>
    <tag k="addr:housenumber" v="12"/>
    <tag k="addr:postcode" v="83624"/>
    <tag k="addr:street" v="Killerweg"/>
  </node>
  <node id="315905688" version="2" timestamp="2009-06-17T21:38:48Z" uid="36809" user="pfoten_weg_!_" changeset="1550007" lat="47.6113376" lon="11.072298">
    <tag k="created_by" v="RambaZamba"/>
  </node>
  <node id="315905688" version="3" timestamp="2009-08-12T13:35:34Z" uid="156995" user="HampelZamba" changeset="2118817" lat="47.6113376" lon="11.072298"/>
  <node id="315905688" version="4" timestamp="2009-08-25T00:43:24Z" uid="36809" user="pfoten_weg_!_" changeset="2251292" lat="47.6113376" lon="11.072298"/>
  <node id="315905689" version="2" timestamp="2009-06-17T21:38:48Z" uid="36809" user="pfoten_weg_!_" changeset="1550007" lat="47.611174" lon="11.074447">
    <tag k="created_by" v="RambaZamba"/>
  </node>
  <node id="315905689" version="3" timestamp="2009-08-12T13:35:34Z" uid="156995" user="HampelZamba" changeset="2118817" lat="47.611174" lon="11.074447"/>
  <node id="315905689" version="4" timestamp="2009-08-25T00:43:24Z" uid="36809" user="pfoten_weg_!_" changeset="2251292" lat="47.611174" lon="11.074447"/>
  <node id="315905690" version="2" timestamp="2009-06-17T21:38:48Z" uid="36809" user="pfoten_weg_!_" changeset="1550007" lat="47.6111368" lon="11.0690708">
    <tag k="created_by" v="RambaZamba"/>
  </node>
  <node id="315905690" version="3" timestamp="2009-08-12T13:35:34Z" uid="156995" user="HampelZamba" changeset="2118817" lat="47.6111368" lon="11.0690708"/>
  <node id="315905690" version="4" timestamp="2009-08-25T00:43:23Z" uid="36809" user="pfoten_weg_!_" changeset="2251292" lat="47.6111368" lon="11.0690708"/>
  <node id="315905691" version="2" timestamp="2009-06-17T21:38:48Z" uid="36809" user="pfoten_weg_!_" changeset="1550007" lat="47.6112855" lon="11.068751">
    <tag k="created_by" v="RambaZamba"/>
  </node>
  <node id="315905691" version="3" timestamp="2009-08-12T13:35:34Z" uid="156995" user="HampelZamba" changeset="2118817" lat="47.6112855" lon="11.068751"/>
  <node id="315905691" version="4" timestamp="2009-08-25T00:43:24Z" uid="36809" user="pfoten_weg_!_" changeset="2251292" lat="47.6112855" lon="11.068751"/>
  <node id="315905692" version="2" timestamp="2009-06-17T21:38:48Z" uid="36809" user="pfoten_weg_!_" changeset="1550007" lat="47.6140443" lon="11.0704687">
    <tag k="created_by" v="RambaZamba"/>
  </node>
  <node id="315905692" version="3" timestamp="2009-08-12T13:35:34Z" uid="156995" user="HampelZamba" changeset="2118817" lat="47.6140443" lon="11.0704687"/>
  <node id="315905692" version="4" timestamp="2009-08-25T00:43:25Z" uid="36809" user="pfoten_weg_!_" changeset="2251292" lat="47.6140443" lon="11.0704687"/>
  <node id="315905694" version="2" timestamp="2009-06-17T21:38:48Z" uid="36809" user="pfoten_weg_!_" changeset="1550007" lat="47.6145573" lon="11.0705803">
    <tag k="created_by" v="RambaZamba"/>
  </node>
  <node id="315905694" version="3" timestamp="2009-08-12T13:35:34Z" uid="156995" user="HampelZamba" changeset="2118817" lat="47.6145573" lon="11.0705803"/>
  <node id="315905694" version="4" timestamp="2009-08-25T00:43:25Z" uid="36809" user="pfoten_weg_!_" changeset="2251292" lat="47.6145573" lon="11.0705803"/>
  <node id="315905695" version="2" timestamp="2009-06-17T21:38:48Z" uid="36809" user="pfoten_weg_!_" changeset="1550007" lat="47.6144384" lon="11.0686618">
    <tag k="created_by" v="RambaZamba"/>
  </node>
  <node id="315905695" version="3" timestamp="2009-08-12T13:35:34Z" uid="156995" user="HampelZamba" changeset="2118817" lat="47.6144384" lon="11.0686618"/>
  <node id="315905695" version="4" timestamp="2009-08-25T00:43:25Z" uid="36809" user="pfoten_weg_!_" changeset="2251292" lat="47.6144384" lon="11.0686618"/>
  <node id="315905696" version="2" timestamp="2009-06-17T21:38:47Z" uid="36809" user="pfoten_weg_!_" changeset="1550007" lat="47.6132858" lon="11.0658807">
    <tag k="created_by" v="RambaZamba"/>
  </node>
  <node id="315905696" version="3" timestamp="2009-08-12T13:35:34Z" uid="156995" user="HampelZamba" changeset="2118817" lat="47.6132858" lon="11.0658807"/>
  <node id="315905696" version="4" timestamp="2009-08-25T00:43:22Z" uid="36809" user="pfoten_weg_!_" changeset="2251292" lat="47.6132858" lon="11.0658807"/>
  <node id="315905697" version="2" timestamp="2009-06-17T21:38:47Z" uid="36809" user="pfoten_weg_!_" changeset="1550007" lat="47.6137096" lon="11.0663641">
    <tag k="created_by" v="RambaZamba"/>
  </node>
  <node id="315905697" version="3" timestamp="2009-08-12T13:35:34Z" uid="156995" user="HampelZamba" changeset="2118817" lat="47.6137096" lon="11.0663641"/>
  <node id="315905697" version="4" timestamp="2009-08-25T00:43:22Z" uid="36809" user="pfoten_weg_!_" changeset="2251292" lat="47.6137096" lon="11.0663641"/>
  <node id="315905698" version="2" timestamp="2009-06-17T21:38:47Z" uid="36809" user="pfoten_weg_!_" changeset="1550007" lat="47.609788" lon="11.0686301">
    <tag k="created_by" v="RambaZamba"/>
  </node>
  <node id="315905698" version="3" timestamp="2009-08-12T13:35:34Z" uid="156995" user="HampelZamba" changeset="2118817" lat="47.609788" lon="11.0686301"/>
  <node id="315905698" version="4" timestamp="2009-08-25T00:43:23Z" uid="36809" user="pfoten_weg_!_" changeset="2251292" lat="47.609788" lon="11.0686301"/>
  <node id="315905699" version="2" timestamp="2009-06-17T21:38:47Z" uid="36809" user="pfoten_weg_!_" changeset="1550007" lat="47.6106214" lon="11.0708143">
    <tag k="created_by" v="RambaZamba"/>
  </node>
  <node id="315905699" version="3" timestamp="2009-08-12T13:35:35Z" uid="156995" user="HampelZamba" changeset="2118817" lat="47.6106214" lon="11.0708143"/>
  <node id="315905699" version="4" timestamp="2009-08-25T00:43:22Z" uid="36809" user="pfoten_weg_!_" changeset="2251292" lat="47.6106214" lon="11.0708143"/>
  <node id="315905703" version="2" timestamp="2009-06-17T21:38:47Z" uid="36809" user="pfoten_weg_!_" changeset="1550007" lat="47.6110512" lon="11.0702836">
    <tag k="created_by" v="RambaZamba"/>
  </node>
  <node id="315905703" version="3" timestamp="2009-08-12T13:35:35Z" uid="156995" user="HampelZamba" changeset="2118817" lat="47.6110512" lon="11.0702836"/>
  <node id="315905703" version="4" timestamp="2009-08-25T00:43:23Z" uid="36809" user="pfoten_weg_!_" changeset="2251292" lat="47.6110512" lon="11.0702836"/>
  <node id="315905709" version="2" timestamp="2009-06-17T21:38:47Z" uid="36809" user="pfoten_weg_!_" changeset="1550007" lat="47.6103363" lon="11.069538">
    <tag k="created_by" v="RambaZamba"/>
  </node>
  <node id="315905709" version="3" timestamp="2009-08-12T13:35:35Z" uid="156995" user="HampelZamba" changeset="2118817" lat="47.6103363" lon="11.069538"/>
  <node id="315905709" version="4" timestamp="2009-08-25T00:43:23Z" uid="36809" user="pfoten_weg_!_" changeset="2251292" lat="47.6103363" lon="11.069538"/>
  <node id="315905715" version="2" timestamp="2009-06-17T21:38:47Z" uid="36809" user="pfoten_weg_!_" changeset="1550007" lat="47.6109108" lon="11.0699283">
    <tag k="created_by" v="RambaZamba"/>
  </node>
  <node id="315905715" version="3" timestamp="2009-08-12T13:35:35Z" uid="156995" user="HampelZamba" changeset="2118817" lat="47.6109108" lon="11.0699283"/>
  <node id="315905715" version="4" timestamp="2009-08-25T00:43:20Z" uid="36809" user="pfoten_weg_!_" changeset="2251292" lat="47.6109108" lon="11.0699283"/>
  <node id="315905723" version="2" timestamp="2009-06-17T21:38:47Z" uid="36809" user="pfoten_weg_!_" changeset="1550007" lat="47.610481" lon="11.068959">
    <tag k="created_by" v="RambaZamba"/>
  </node>
  <node id="315905723" version="3" timestamp="2009-08-12T13:35:35Z" uid="156995" user="HampelZamba" changeset="2118817" lat="47.610481" lon="11.068959"/>
  <node id="315905723" version="4" timestamp="2009-08-25T00:43:21Z" uid="36809" user="pfoten_weg_!_" changeset="2251292" lat="47.610481" lon="11.068959"/>
  <node id="315905726" version="2" timestamp="2009-06-17T21:38:47Z" uid="36809" user="pfoten_weg_!_" changeset="1550007" lat="47.61006" lon="11.0703581">
    <tag k="created_by" v="RambaZamba"/>
  </node>
  <node id="315905726" version="3" timestamp="2009-08-12T13:35:35Z" uid="156995" user="HampelZamba" changeset="2118817" lat="47.61006" lon="11.0703581"/>
  <node id="315905726" version="4" timestamp="2009-08-25T00:43:21Z" uid="36809" user="pfoten_weg_!_" changeset="2251292" lat="47.61006" lon="11.0703581"/>
  <node id="315905727" version="2" timestamp="2009-06-17T21:38:47Z" uid="36809" user="pfoten_weg_!_" changeset="1550007" lat="47.6112486" lon="11.0762704">
    <tag k="created_by" v="RambaZamba"/>
  </node>
  <node id="315905727" version="3" timestamp="2009-08-12T13:35:35Z" uid="156995" user="HampelZamba" changeset="2118817" lat="47.6112486" lon="11.0762704"/>
  <node id="315905727" version="4" timestamp="2009-08-25T00:43:22Z" uid="36809" user="pfoten_weg_!_" changeset="2251292" lat="47.6112486" lon="11.0762704"/>
  <node id="315905728" version="2" timestamp="2009-06-17T21:38:53Z" uid="36809" user="pfoten_weg_!_" changeset="1550007" lat="47.6101082" lon="11.0757441">
    <tag k="created_by" v="RambaZamba"/>
  </node>
  <node id="315905728" version="3" timestamp="2009-08-12T13:35:35Z" uid="156995" user="HampelZamba" changeset="2118817" lat="47.6101082" lon="11.0757441"/>
  <node id="315905728" version="4" timestamp="2009-08-25T00:43:39Z" uid="36809" user="pfoten_weg_!_" changeset="2251292" lat="47.6101082" lon="11.0757441"/>
  <node id="315905729" version="2" timestamp="2009-06-17T21:38:53Z" uid="36809" user="pfoten_weg_!_" changeset="1550007" lat="47.6096073" lon="11.0747136">
    <tag k="created_by" v="RambaZamba"/>
  </node>
  <node id="315905729" version="3" timestamp="2009-08-12T13:35:35Z" uid="156995" user="HampelZamba" changeset="2118817" lat="47.6096073" lon="11.0747136"/>
  <node id="315905729" version="4" timestamp="2009-08-25T00:43:39Z" uid="36809" user="pfoten_weg_!_" changeset="2251292" lat="47.6096073" lon="11.0747136"/>
  <node id="315905730" version="2" timestamp="2009-06-17T21:38:52Z" uid="36809" user="pfoten_weg_!_" changeset="1550007" lat="47.6085437" lon="11.0741012">
    <tag k="created_by" v="RambaZamba"/>
  </node>
  <node id="315905730" version="3" timestamp="2009-08-12T13:35:35Z" uid="156995" user="HampelZamba" changeset="2118817" lat="47.6085437" lon="11.0741012"/>
  <node id="315905730" version="4" timestamp="2009-08-25T00:43:39Z" uid="36809" user="pfoten_weg_!_" changeset="2251292" lat="47.6085437" lon="11.0741012"/>
  <node id="315905731" version="2" timestamp="2009-06-17T21:38:52Z" uid="36809" user="pfoten_weg_!_" changeset="1550007" lat="47.6080863" lon="11.0739283">
    <tag k="created_by" v="RambaZamba"/>
  </node>
  <node id="315905731" version="3" timestamp="2009-08-12T13:35:35Z" uid="156995" user="HampelZamba" changeset="2118817" lat="47.6080863" lon="11.0739283"/>
  <node id="315905731" version="4" timestamp="2009-08-25T00:43:39Z" uid="36809" user="pfoten_weg_!_" changeset="2251292" lat="47.6080863" lon="11.0739283"/>
  <node id="315905732" version="2" timestamp="2009-06-17T21:38:52Z" uid="36809" user="pfoten_weg_!_" changeset="1550007" lat="47.6088319" lon="11.0752265">
    <tag k="created_by" v="RambaZamba"/>
  </node>
  <node id="315905732" version="3" timestamp="2009-08-12T13:35:35Z" uid="156995" user="HampelZamba" changeset="2118817" lat="47.6088319" lon="11.0752265"/>
  <node id="315905732" version="4" timestamp="2009-08-25T00:43:38Z" uid="36809" user="pfoten_weg_!_" changeset="2251292" lat="47.6088319" lon="11.0752265"/>
  <node id="315905733" version="2" timestamp="2009-06-17T21:38:52Z" uid="36809" user="pfoten_weg_!_" changeset="1550007" lat="47.6093758" lon="11.0752879">
    <tag k="created_by" v="RambaZamba"/>
  </node>
  <node id="315905733" version="3" timestamp="2009-08-12T13:35:35Z" uid="156995" user="HampelZamba" changeset="2118817" lat="47.6093758" lon="11.0752879"/>
  <node id="315905733" version="4" timestamp="2009-08-25T00:43:38Z" uid="36809" user="pfoten_weg_!_" changeset="2251292" lat="47.6093758" lon="11.0752879"/>
  <node id="315905734" version="2" timestamp="2009-06-17T21:38:52Z" uid="36809" user="pfoten_weg_!_" changeset="1550007" lat="47.6096389" lon="11.0770467">
    <tag k="created_by" v="RambaZamba"/>
  </node>
  <node id="315905734" version="3" timestamp="2009-08-12T13:35:35Z" uid="156995" user="HampelZamba" changeset="2118817" lat="47.6096389" lon="11.0770467"/>
  <node id="315905734" version="4" timestamp="2009-08-25T00:43:38Z" uid="36809" user="pfoten_weg_!_" changeset="2251292" lat="47.6096389" lon="11.0770467"/>
  <node id="315905736" version="2" timestamp="2009-06-17T21:38:53Z" uid="36809" user="pfoten_weg_!_" changeset="1550007" lat="47.6091477" lon="11.0766607">
    <tag k="created_by" v="RambaZamba"/>
  </node>
  <node id="315905736" version="3" timestamp="2009-08-12T13:35:35Z" uid="156995" user="HampelZamba" changeset="2118817" lat="47.6091477" lon="11.0766607"/>
  <node id="315905736" version="4" timestamp="2009-08-25T00:43:40Z" uid="36809" user="pfoten_weg_!_" changeset="2251292" lat="47.6091477" lon="11.0766607"/>
  <node id="315905743" version="2" timestamp="2009-06-17T21:38:53Z" uid="36809" user="pfoten_weg_!_" changeset="1550007" lat="47.6094854" lon="11.0770949">
    <tag k="created_by" v="RambaZamba"/>
  </node>
  <node id="315905743" version="3" timestamp="2009-08-12T13:35:35Z" uid="156995" user="HampelZamba" changeset="2118817" lat="47.6094854" lon="11.0770949"/>
  <node id="315905743" version="4" timestamp="2009-08-25T00:43:40Z" uid="36809" user="pfoten_weg_!_" changeset="2251292" lat="47.6094854" lon="11.0770949"/>
  <node id="315905747" version="2" timestamp="2009-06-17T21:38:51Z" uid="36809" user="pfoten_weg_!_" changeset="1550007" lat="47.6107003" lon="11.0759634">
    <tag k="created_by" v="RambaZamba"/>
  </node>
  <node id="315905747" version="3" timestamp="2009-08-12T13:35:35Z" uid="156995" user="HampelZamba" changeset="2118817" lat="47.6107003" lon="11.0759634"/>
  <node id="315905747" version="4" timestamp="2009-08-25T00:43:35Z" uid="36809" user="pfoten_weg_!_" changeset="2251292" lat="47.6107003" lon="11.0759634"/>
  <node id="315905748" version="2" timestamp="2009-06-17T21:38:51Z" uid="36809" user="pfoten_weg_!_" changeset="1550007" lat="47.6111345" lon="11.0757835">
    <tag k="created_by" v="RambaZamba"/>
  </node>
  <node id="315905748" version="3" timestamp="2009-08-12T13:35:35Z" uid="156995" user="HampelZamba" changeset="2118817" lat="47.6111345" lon="11.0757835"/>
  <node id="315905748" version="4" timestamp="2009-08-25T00:43:34Z" uid="36809" user="pfoten_weg_!_" changeset="2251292" lat="47.6111345" lon="11.0757835"/>
  <node id="315905748" version="5" timestamp="2011-06-14T04:25:52Z" uid="446587" user="Feu" changeset="8433506" lat="47.6111937" lon="11.0756992"/>
  <node id="315905749" version="2" timestamp="2009-06-17T21:38:51Z" uid="36809" user="pfoten_weg_!_" changeset="1550007" lat="47.6105994" lon="11.0765116">
    <tag k="created_by" v="RambaZamba"/>
  </node>
  <node id="315905749" version="3" timestamp="2009-08-12T13:35:36Z" uid="156995" user="HampelZamba" changeset="2118817" lat="47.6105994" lon="11.0765116"/>
  <node id="315905749" version="4" timestamp="2009-08-25T00:43:35Z" uid="36809" user="pfoten_weg_!_" changeset="2251292" lat="47.6105994" lon="11.0765116"/>
  <node id="315905750" version="2" timestamp="2009-06-17T21:38:51Z" uid="36809" user="pfoten_weg_!_" changeset="1550007" lat="47.6101609" lon="11.0764721">
    <tag k="created_by" v="RambaZamba"/>
  </node>
  <node id="315905750" version="3" timestamp="2009-08-12T13:35:36Z" uid="156995" user="HampelZamba" changeset="2118817" lat="47.6101609" lon="11.0764721"/>
  <node id="315905750" version="4" timestamp="2009-08-25T00:43:34Z" uid="36809" user="pfoten_weg_!_" changeset="2251292" lat="47.6101609" lon="11.0764721"/>
  <node id="315905751" version="2" timestamp="2009-06-17T21:38:51Z" uid="36809" user="pfoten_weg_!_" changeset="1550007" lat="47.6088287" lon="11.0739185">
    <tag k="created_by" v="RambaZamba"/>
  </node>
  <node id="315905751" version="3" timestamp="2009-08-12T13:35:36Z" uid="156995" user="HampelZamba" changeset="2118817" lat="47.6088287" lon="11.0739185"/>
  <node id="315905751" version="4" timestamp="2009-08-25T00:43:34Z" uid="36809" user="pfoten_weg_!_" changeset="2251292" lat="47.6088287" lon="11.0739185"/>
  <node id="315905752" version="2" timestamp="2009-06-17T21:38:52Z" uid="36809" user="pfoten_weg_!_" changeset="1550007" lat="47.6089029" lon="11.0743683">
    <tag k="created_by" v="RambaZamba"/>
  </node>
  <node id="315905752" version="3" timestamp="2009-08-12T13:35:36Z" uid="156995" user="HampelZamba" changeset="2118817" lat="47.6089029" lon="11.0743683"/>
  <node id="315905752" version="4" timestamp="2009-08-25T00:43:37Z" uid="36809" user="pfoten_weg_!_" changeset="2251292" lat="47.6089029" lon="11.0743683"/>
  <node id="315905753" version="2" timestamp="2009-06-17T21:38:52Z" uid="36809" user="pfoten_weg_!_" changeset="1550007" lat="47.6091599" lon="11.0746402">
    <tag k="created_by" v="RambaZamba"/>
  </node>
  <node id="315905753" version="3" timestamp="2009-08-12T13:35:36Z" uid="156995" user="HampelZamba" changeset="2118817" lat="47.6091599" lon="11.0746402"/>
  <node id="315905753" version="4" timestamp="2009-08-25T00:43:38Z" uid="36809" user="pfoten_weg_!_" changeset="2251292" lat="47.6091599" lon="11.0746402"/>
  <node id="315905754" version="2" timestamp="2009-06-17T21:38:52Z" uid="36809" user="pfoten_weg_!_" changeset="1550007" lat="47.6082453" lon="11.0727962">
    <tag k="created_by" v="RambaZamba"/>
  </node>
  <node id="315905754" version="3" timestamp="2009-08-12T13:35:36Z" uid="156995" user="HampelZamba" changeset="2118817" lat="47.6082453" lon="11.0727962"/>
  <node id="315905754" version="4" timestamp="2009-08-25T00:43:36Z" uid="36809" user="pfoten_weg_!_" changeset="2251292" lat="47.6082453" lon="11.0727962"/>
  <node id="315905755" version="2" timestamp="2009-06-17T21:38:52Z" uid="36809" user="pfoten_weg_!_" changeset="1550007" lat="47.6078498" lon="11.0727369">
    <tag k="created_by" v="RambaZamba"/>
  </node>
  <node id="315905755" version="3" timestamp="2009-08-12T13:35:36Z" uid="156995" user="HampelZamba" changeset="2118817" lat="47.6078498" lon="11.0727369"/>
  <node id="315905755" version="4" timestamp="2009-08-25T00:43:37Z" uid="36809" user="pfoten_weg_!_" changeset="2251292" lat="47.6078498" lon="11.0727369"/>
  <node id="315905756" version="2" timestamp="2009-06-17T21:38:52Z" uid="36809" user="pfoten_weg_!_" changeset="1550007" lat="47.6080328" lon="11.0731126">
    <tag k="created_by" v="RambaZamba"/>
  </node>
  <node id="315905756" version="3" timestamp="2009-08-12T13:35:36Z" uid="156995" user="HampelZamba" changeset="2118817" lat="47.6080328" lon="11.0731126"/>
  <node id="315905756" version="4" timestamp="2009-08-25T00:43:36Z" uid="36809" user="pfoten_weg_!_" changeset="2251292" lat="47.6080328" lon="11.0731126"/>
  <node id="315905757" version="2" timestamp="2009-06-17T21:38:52Z" uid="36809" user="pfoten_weg_!_" changeset="1550007" lat="47.607872" lon="11.0799342">
    <tag k="created_by" v="RambaZamba"/>
  </node>
  <node id="315905757" version="3" timestamp="2009-08-12T13:35:36Z" uid="156995" user="HampelZamba" changeset="2118817" lat="47.607872" lon="11.0799342"/>
  <node id="315905757" version="4" timestamp="2009-08-25T00:43:36Z" uid="36809" user="pfoten_weg_!_" changeset="2251292" lat="47.607872" lon="11.0799342"/>
  <node id="315905758" version="2" timestamp="2009-06-17T21:38:51Z" uid="36809" user="pfoten_weg_!_" changeset="1550007" lat="47.6090936" lon="11.0815915">
    <tag k="created_by" v="RambaZamba"/>
  </node>
  <node id="315905758" version="3" timestamp="2009-08-12T13:35:36Z" uid="156995" user="HampelZamba" changeset="2118817" lat="47.6090936" lon="11.0815915"/>
  <node id="315905758" version="4" timestamp="2009-08-25T00:43:35Z" uid="36809" user="pfoten_weg_!_" changeset="2251292" lat="47.6090936" lon="11.0815915"/>
  <node id="315905759" version="2" timestamp="2009-06-17T21:38:52Z" uid="36809" user="pfoten_weg_!_" changeset="1550007" lat="47.6092047" lon="11.0825739">
    <tag k="created_by" v="RambaZamba"/>
  </node>
  <node id="315905759" version="3" timestamp="2009-08-12T13:35:36Z" uid="156995" user="HampelZamba" changeset="2118817" lat="47.6092047" lon="11.0825739"/>
  <node id="315905759" version="4" timestamp="2009-08-25T00:43:36Z" uid="36809" user="pfoten_weg_!_" changeset="2251292" lat="47.6092047" lon="11.0825739"/>
  <node id="315905760" version="2" timestamp="2009-06-17T21:38:50Z" uid="36809" user="pfoten_weg_!_" changeset="1550007" lat="47.6083589" lon="11.0809423">
    <tag k="created_by" v="RambaZamba"/>
  </node>
  <node id="315905760" version="3" timestamp="2009-08-12T13:35:36Z" uid="156995" user="HampelZamba" changeset="2118817" lat="47.6083589" lon="11.0809423"/>
  <node id="315905760" version="4" timestamp="2009-08-25T00:43:31Z" uid="36809" user="pfoten_weg_!_" changeset="2251292" lat="47.6083589" lon="11.0809423"/>
  <node id="315905761" version="2" timestamp="2009-06-17T21:38:50Z" uid="36809" user="pfoten_weg_!_" changeset="1550007" lat="47.607966" lon="11.0810277">
    <tag k="created_by" v="RambaZamba"/>
  </node>
  <node id="315905761" version="3" timestamp="2009-08-12T13:35:36Z" uid="156995" user="HampelZamba" changeset="2118817" lat="47.607966" lon="11.0810277"/>
  <node id="315905761" version="4" timestamp="2009-08-25T00:43:30Z" uid="36809" user="pfoten_weg_!_" changeset="2251292" lat="47.607966" lon="11.0810277"/>
  <node id="315905762" version="2" timestamp="2009-06-17T21:38:50Z" uid="36809" user="pfoten_weg_!_" changeset="1550007" lat="47.6015465" lon="11.0924276">
    <tag k="created_by" v="RambaZamba"/>
  </node>
  <node id="315905762" version="3" timestamp="2009-08-12T13:35:36Z" uid="156995" user="HampelZamba" changeset="2118817" lat="47.6015465" lon="11.0924276"/>
  <node id="315905762" version="4" timestamp="2009-08-25T00:43:31Z" uid="36809" user="pfoten_weg_!_" changeset="2251292" lat="47.6015465" lon="11.0924276"/>
  <node id="315905763" version="2" timestamp="2009-06-17T21:38:50Z" uid="36809" user="pfoten_weg_!_" changeset="1550007" lat="47.6020336" lon="11.0910105">
    <tag k="created_by" v="RambaZamba"/>
  </node>
  <node id="315905763" version="3" timestamp="2009-08-12T13:35:36Z" uid="156995" user="HampelZamba" changeset="2118817" lat="47.6020336" lon="11.0910105"/>
  <node id="315905763" version="4" timestamp="2009-08-25T00:43:31Z" uid="36809" user="pfoten_weg_!_" changeset="2251292" lat="47.6020336" lon="11.0910105"/>
  <node id="315905764" version="2" timestamp="2009-06-17T21:38:49Z" uid="36809" user="pfoten_weg_!_" changeset="1550007" lat="47.6003763" lon="11.0883369">
    <tag k="created_by" v="RambaZamba"/>
  </node>
  <node id="315905764" version="3" timestamp="2009-08-12T13:35:36Z" uid="156995" user="HampelZamba" changeset="2118817" lat="47.6003763" lon="11.0883369"/>
  <node id="315905764" version="4" timestamp="2009-08-25T00:43:29Z" uid="36809" user="pfoten_weg_!_" changeset="2251292" lat="47.6003763" lon="11.0883369"/>
  <node id="315905765" version="2" timestamp="2009-06-17T21:38:49Z" uid="36809" user="pfoten_weg_!_" changeset="1550007" lat="47.5994996" lon="11.0869009">
    <tag k="created_by" v="RambaZamba"/>
  </node>
  <node id="315905765" version="3" timestamp="2009-08-12T13:35:36Z" uid="156995" user="HampelZamba" changeset="2118817" lat="47.5994996" lon="11.0869009"/>
  <node id="315905765" version="4" timestamp="2009-08-25T00:43:29Z" uid="36809" user="pfoten_weg_!_" changeset="2251292" lat="47.5994996" lon="11.0869009"/>
  <node id="315905766" version="2" timestamp="2009-06-17T21:38:50Z" uid="36809" user="pfoten_weg_!_" changeset="1550007" lat="47.6030896" lon="11.0814213">
    <tag k="created_by" v="RambaZamba"/>
  </node>
  <node id="315905766" version="3" timestamp="2009-08-12T13:35:36Z" uid="156995" user="HampelZamba" changeset="2118817" lat="47.6030896" lon="11.0814213"/>
  <node id="315905766" version="4" timestamp="2009-08-25T00:43:30Z" uid="36809" user="pfoten_weg_!_" changeset="2251292" lat="47.6030896" lon="11.0814213"/>
  <node id="315905767" version="2" timestamp="2009-06-17T21:38:50Z" uid="36809" user="pfoten_weg_!_" changeset="1550007" lat="47.6025279" lon="11.0825526">
    <tag k="created_by" v="RambaZamba"/>
  </node>
  <node id="315905767" version="3" timestamp="2009-08-12T13:35:36Z" uid="156995" user="HampelZamba" changeset="2118817" lat="47.6025279" lon="11.0825526"/>
  <node id="315905767" version="4" timestamp="2009-08-25T00:43:30Z" uid="36809" user="pfoten_weg_!_" changeset="2251292" lat="47.6025279" lon="11.0825526"/>
  <node id="315905768" version="2" timestamp="2009-06-17T21:38:51Z" uid="36809" user="pfoten_weg_!_" changeset="1550007" lat="47.6014643" lon="11.0829692">
    <tag k="created_by" v="RambaZamba"/>
  </node>
  <node id="315905768" version="3" timestamp="2009-08-12T13:35:36Z" uid="156995" user="HampelZamba" changeset="2118817" lat="47.6014643" lon="11.0829692"/>
  <node id="315905768" version="4" timestamp="2009-08-25T00:43:33Z" uid="36809" user="pfoten_weg_!_" changeset="2251292" lat="47.6014643" lon="11.0829692"/>
  <node id="315905769" version="2" timestamp="2009-06-17T21:38:50Z" uid="36809" user="pfoten_weg_!_" changeset="1550007" lat="47.6014695" lon="11.0839789">
    <tag k="created_by" v="RambaZamba"/>
  </node>
  <node id="315905769" version="3" timestamp="2009-08-12T13:35:36Z" uid="156995" user="HampelZamba" changeset="2118817" lat="47.6014695" lon="11.0839789"/>
  <node id="315905769" version="4" timestamp="2009-08-25T00:43:32Z" uid="36809" user="pfoten_weg_!_" changeset="2251292" lat="47.6014695" lon="11.0839789"/>
  <node id="315905770" version="2" timestamp="2009-06-17T21:38:51Z" uid="36809" user="pfoten_weg_!_" changeset="1550007" lat="47.6007149" lon="11.0849706">
    <tag k="created_by" v="RambaZamba"/>
  </node>
  <node id="315905770" version="3" timestamp="2009-08-12T13:35:37Z" uid="156995" user="HampelZamba" changeset="2118817" lat="47.6007149" lon="11.0849706"/>
  <node id="315905770" version="4" timestamp="2009-08-25T00:43:33Z" uid="36809" user="pfoten_weg_!_" changeset="2251292" lat="47.6007149" lon="11.0849706"/>
  <node id="315905771" version="2" timestamp="2009-06-17T21:38:51Z" uid="36809" user="pfoten_weg_!_" changeset="1550007" lat="47.6022029" lon="11.087973">
    <tag k="created_by" v="RambaZamba"/>
  </node>
  <node id="315905771" version="3" timestamp="2009-08-12T13:35:37Z" uid="156995" user="HampelZamba" changeset="2118817" lat="47.6022029" lon="11.087973"/>
  <node id="315905771" version="4" timestamp="2009-08-25T00:43:33Z" uid="36809" user="pfoten_weg_!_" changeset="2251292" lat="47.6022029" lon="11.087973"/>
  <node id="315905772" version="2" timestamp="2009-06-17T21:38:50Z" uid="36809" user="pfoten_weg_!_" changeset="1550007" lat="47.6015007" lon="11.0883241">
    <tag k="created_by" v="RambaZamba"/>
  </node>
  <node id="315905772" version="3" timestamp="2009-08-12T13:35:37Z" uid="156995" user="HampelZamba" changeset="2118817" lat="47.6015007" lon="11.0883241"/>
  <node id="315905772" version="4" timestamp="2009-08-25T00:43:32Z" uid="36809" user="pfoten_weg_!_" changeset="2251292" lat="47.6015007" lon="11.0883241"/>
  <node id="315905773" version="3" timestamp="2009-06-17T21:38:50Z" uid="36809" user="pfoten_weg_!_" changeset="1550007" lat="47.6046328" lon="11.0897002">
    <tag k="created_by" v="RambaZamba"/>
  </node>
  <node id="315905773" version="4" timestamp="2009-08-12T13:35:37Z" uid="156995" user="HampelZamba" changeset="2118817" lat="47.6046328" lon="11.0897002"/>
  <node id="315905773" version="5" timestamp="2009-08-25T00:43:32Z" uid="36809" user="pfoten_weg_!_" changeset="2251292" lat="47.6046328" lon="11.0897002"/>
  <node id="315905778" version="2" timestamp="2009-06-17T21:38:49Z" uid="36809" user="pfoten_weg_!_" changeset="1550007" lat="47.6044179" lon="11.0852397">
    <tag k="created_by" v="RambaZamba"/>
  </node>
  <node id="315905778" version="3" timestamp="2009-08-12T13:35:37Z" uid="156995" user="HampelZamba" changeset="2118817" lat="47.6044179" lon="11.0852397"/>
  <node id="315905778" version="4" timestamp="2009-08-25T00:43:27Z" uid="36809" user="pfoten_weg_!_" changeset="2251292" lat="47.6044179" lon="11.0852397"/>
  <node id="315905779" version="2" timestamp="2009-06-17T21:38:49Z" uid="36809" user="pfoten_weg_!_" changeset="1550007" lat="47.6040167" lon="11.0846964">
    <tag k="created_by" v="RambaZamba"/>
  </node>
  <node id="315905779" version="3" timestamp="2009-08-12T13:35:37Z" uid="156995" user="HampelZamba" changeset="2118817" lat="47.6040167" lon="11.0846964"/>
  <node id="315905779" version="4" timestamp="2009-08-25T00:43:27Z" uid="36809" user="pfoten_weg_!_" changeset="2251292" lat="47.6040167" lon="11.0846964"/>
  <node id="315905780" version="2" timestamp="2009-06-17T21:38:48Z" uid="36809" user="pfoten_weg_!_" changeset="1550007" lat="47.6038077" lon="11.0861257">
    <tag k="created_by" v="RambaZamba"/>
  </node>
  <node id="315905780" version="3" timestamp="2009-08-12T13:35:37Z" uid="156995" user="HampelZamba" changeset="2118817" lat="47.6038077" lon="11.0861257"/>
  <node id="315905780" version="4" timestamp="2009-08-25T00:43:25Z" uid="36809" user="pfoten_weg_!_" changeset="2251292" lat="47.6038077" lon="11.0861257"/>
  <node id="315905781" version="2" timestamp="2009-06-17T21:38:49Z" uid="36809" user="pfoten_weg_!_" changeset="1550007" lat="47.6034232" lon="11.0851979">
    <tag k="created_by" v="RambaZamba"/>
  </node>
  <node id="315905781" version="3" timestamp="2009-08-12T13:35:37Z" uid="156995" user="HampelZamba" changeset="2118817" lat="47.6034232" lon="11.0851979"/>
  <node id="315905781" version="4" timestamp="2009-08-25T00:43:26Z" uid="36809" user="pfoten_weg_!_" changeset="2251292" lat="47.6034232" lon="11.0851979"/>
  <node id="315905786" version="2" timestamp="2009-06-17T21:38:49Z" uid="36809" user="pfoten_weg_!_" changeset="1550007" lat="47.603465" lon="11.0874297">
    <tag k="created_by" v="RambaZamba"/>
  </node>
  <node id="315905786" version="3" timestamp="2009-08-12T13:35:37Z" uid="156995" user="HampelZamba" changeset="2118817" lat="47.603465" lon="11.0874297"/>
  <node id="315905786" version="4" timestamp="2009-08-25T00:43:28Z" uid="36809" user="pfoten_weg_!_" changeset="2251292" lat="47.603465" lon="11.0874297"/>
  <node id="315905790" version="2" timestamp="2009-06-17T21:38:49Z" uid="36809" user="pfoten_weg_!_" changeset="1550007" lat="47.6041588" lon="11.086201">
    <tag k="created_by" v="RambaZamba"/>
  </node>
  <node id="315905790" version="3" timestamp="2009-08-12T13:35:37Z" uid="156995" user="HampelZamba" changeset="2118817" lat="47.6041588" lon="11.086201"/>
  <node id="315905790" version="4" timestamp="2009-08-25T00:43:27Z" uid="36809" user="pfoten_weg_!_" changeset="2251292" lat="47.6041588" lon="11.086201"/>
  <node id="315905791" version="2" timestamp="2009-06-17T21:38:49Z" uid="36809" user="pfoten_weg_!_" changeset="1550007" lat="47.603582" lon="11.0889342">
    <tag k="created_by" v="RambaZamba"/>
  </node>
  <node id="315905791" version="3" timestamp="2009-08-12T13:35:37Z" uid="156995" user="HampelZamba" changeset="2118817" lat="47.603582" lon="11.0889342"/>
  <node id="315905791" version="4" timestamp="2009-08-25T00:43:28Z" uid="36809" user="pfoten_weg_!_" changeset="2251292" lat="47.603582" lon="11.0889342"/>
  <node id="315905793" version="2" timestamp="2009-06-17T21:38:31Z" uid="36809" user="pfoten_weg_!_" changeset="1550007" lat="47.6045767" lon="11.0887838">
    <tag k="created_by" v="RambaZamba"/>
  </node>
  <node id="315905793" version="3" timestamp="2009-08-12T13:35:37Z" uid="156995" user="HampelZamba" changeset="2118817" lat="47.6045767" lon="11.0887838"/>
  <node id="315905793" version="4" timestamp="2009-08-25T00:42:52Z" uid="36809" user="pfoten_weg_!_" changeset="2251292" lat="47.6045767" lon="11.0887838"/>
  <node id="315906514" version="3" timestamp="2009-10-02T19:48:55Z" uid="86259" user="hasse_osm_korinthenkacker" changeset="2716821" lat="47.9124175" lon="11.6762995">
    <tag k="addr:city" v="Otterfing"/>
    <tag k="addr:country" v="DE"/>
    <tag k="addr:housenumber" v="1a"/>
    <tag k="addr:postcode" v="83624"/>
    <tag k="addr:street" v="Jupiterstraße"/>
    <tag k="source" v="survey"/>
  </node>
  <node id="315906514" version="4" timestamp="2009-10-17T17:46:49Z" uid="42393" user="mawi42" changeset="2876548" lat="47.912419" lon="11.6763146">
    <tag k="addr:city" v="Otterfing"/>
    <tag k="addr:country" v="DE"/>
    <tag k="addr:housenumber" v="1a"/>
    <tag k="addr:postcode" v="83624"/>
    <tag k="addr:street" v="Jupiterstraße"/>
    <tag k="source" v="survey"/>
  </node>
  <node id="315906514" version="5" timestamp="2009-10-21T17:13:55Z" uid="42393" user="mawi42" changeset="2914305" lat="47.9123718" lon="11.6763378">
    <tag k="addr:city" v="Otterfing"/>
    <tag k="addr:country" v="DE"/>
    <tag k="addr:housenumber" v="1a"/>
    <tag k="addr:postcode" v="83624"/>
    <tag k="addr:street" v="Jupiterstraße"/>
    <tag k="source" v="survey"/>
  </node>
  <node id="315906514" version="6" timestamp="2009-10-23T11:35:47Z" uid="36809" user="pfoten_weg_!_" changeset="2928981" lat="47.9123718" lon="11.6763378">
    <tag k="addr:city" v="Otterfing"/>
    <tag k="addr:country" v="DE"/>
    <tag k="addr:housenumber" v="1a"/>
    <tag k="addr:postcode" v="83624"/>
    <tag k="addr:street" v="Jupiterstraße"/>
  </node>
  <node id="315906514" version="7" timestamp="2010-01-02T08:53:28Z" uid="42393" user="mawi42" changeset="3516417" lat="47.9123914" lon="11.6763194">
    <tag k="addr:city" v="Otterfing"/>
    <tag k="addr:country" v="DE"/>
    <tag k="addr:housenumber" v="1a"/>
    <tag k="addr:postcode" v="83624"/>
    <tag k="addr:street" v="Jupiterstraße"/>
  </node>
  <node id="315906519" version="4" timestamp="2009-10-02T19:48:56Z" uid="86259" user="hasse_osm_korinthenkacker" changeset="2716821" lat="47.9124578" lon="11.6764798">
    <tag k="addr:city" v="Otterfing"/>
    <tag k="addr:country" v="DE"/>
    <tag k="addr:housenumber" v="3a"/>
    <tag k="addr:postcode" v="83624"/>
    <tag k="addr:street" v="Jupiterstraße"/>
    <tag k="source" v="survey"/>
  </node>
  <node id="315906519" version="5" timestamp="2009-10-17T17:46:49Z" uid="42393" user="mawi42" changeset="2876548" lat="47.9124535" lon="11.6764605">
    <tag k="addr:city" v="Otterfing"/>
    <tag k="addr:country" v="DE"/>
    <tag k="addr:housenumber" v="3a"/>
    <tag k="addr:postcode" v="83624"/>
    <tag k="addr:street" v="Jupiterstraße"/>
    <tag k="source" v="survey"/>
  </node>
  <node id="315906519" version="6" timestamp="2009-10-21T17:13:55Z" uid="42393" user="mawi42" changeset="2914305" lat="47.9123948" lon="11.6764323">
    <tag k="addr:city" v="Otterfing"/>
    <tag k="addr:country" v="DE"/>
    <tag k="addr:housenumber" v="3a"/>
    <tag k="addr:postcode" v="83624"/>
    <tag k="addr:street" v="Jupiterstraße"/>
    <tag k="source" v="survey"/>
  </node>
  <node id="315906519" version="7" timestamp="2009-10-23T11:35:50Z" uid="36809" user="pfoten_weg_!_" changeset="2928981" lat="47.9123948" lon="11.6764323">
    <tag k="addr:city" v="Otterfing"/>
    <tag k="addr:country" v="DE"/>
    <tag k="addr:housenumber" v="3a"/>
    <tag k="addr:postcode" v="83624"/>
    <tag k="addr:street" v="Jupiterstraße"/>
  </node>
  <node id="315906519" version="8" timestamp="2010-01-02T08:53:30Z" uid="42393" user="mawi42" changeset="3516417" lat="47.9124148" lon="11.6764159">
    <tag k="addr:city" v="Otterfing"/>
    <tag k="addr:country" v="DE"/>
    <tag k="addr:housenumber" v="3a"/>
    <tag k="addr:postcode" v="83624"/>
    <tag k="addr:street" v="Jupiterstraße"/>
  </node>
  <node id="315906630" version="5" timestamp="2009-10-02T19:48:56Z" uid="86259" user="hasse_osm_korinthenkacker" changeset="2716821" lat="47.9125671" lon="11.676866">
    <tag k="addr:city" v="Otterfing"/>
    <tag k="addr:country" v="DE"/>
    <tag k="addr:housenumber" v="9"/>
    <tag k="addr:postcode" v="83624"/>
    <tag k="addr:street" v="Jupiterstraße"/>
    <tag k="source" v="survey"/>
  </node>
  <node id="315906630" version="6" timestamp="2009-10-21T17:13:55Z" uid="42393" user="mawi42" changeset="2914305" lat="47.9125214" lon="11.6768872">
    <tag k="addr:city" v="Otterfing"/>
    <tag k="addr:country" v="DE"/>
    <tag k="addr:housenumber" v="9"/>
    <tag k="addr:postcode" v="83624"/>
    <tag k="addr:street" v="Jupiterstraße"/>
    <tag k="source" v="survey"/>
  </node>
  <node id="315906630" version="7" timestamp="2009-10-23T11:35:51Z" uid="36809" user="pfoten_weg_!_" changeset="2928981" lat="47.9125214" lon="11.6768872">
    <tag k="addr:city" v="Otterfing"/>
    <tag k="addr:country" v="DE"/>
    <tag k="addr:housenumber" v="9"/>
    <tag k="addr:postcode" v="83624"/>
    <tag k="addr:street" v="Jupiterstraße"/>
  </node>
  <node id="315906630" version="8" timestamp="2010-01-02T08:53:29Z" uid="42393" user="mawi42" changeset="3516417" lat="47.9125461" lon="11.6768505">
    <tag k="addr:city" v="Otterfing"/>
    <tag k="addr:country" v="DE"/>
    <tag k="addr:housenumber" v="9"/>
    <tag k="addr:postcode" v="83624"/>
    <tag k="addr:street" v="Jupiterstraße"/>
  </node>
  <node id="315906630" version="9" timestamp="2010-11-19T13:57:13Z" uid="42393" user="mawi42" changeset="6407210" lat="47.9125481" lon="11.6768575">
    <tag k="addr:city" v="Otterfing"/>
    <tag k="addr:country" v="DE"/>
    <tag k="addr:housenumber" v="9"/>
    <tag k="addr:postcode" v="83624"/>
    <tag k="addr:street" v="Jupiterstraße"/>
  </node>
  <node id="315906637" version="5" timestamp="2009-10-02T19:48:56Z" uid="86259" user="hasse_osm_korinthenkacker" changeset="2716821" lat="47.9125901" lon="11.6769518">
    <tag k="addr:city" v="Otterfing"/>
    <tag k="addr:country" v="DE"/>
    <tag k="addr:housenumber" v="11"/>
    <tag k="addr:postcode" v="83624"/>
    <tag k="addr:street" v="Jupiterstraße"/>
    <tag k="source" v="survey"/>
  </node>
  <node id="315906637" version="6" timestamp="2009-10-21T17:13:55Z" uid="42393" user="mawi42" changeset="2914305" lat="47.9125387" lon="11.6769472">
    <tag k="addr:city" v="Otterfing"/>
    <tag k="addr:country" v="DE"/>
    <tag k="addr:housenumber" v="11"/>
    <tag k="addr:postcode" v="83624"/>
    <tag k="addr:street" v="Jupiterstraße"/>
    <tag k="source" v="survey"/>
  </node>
  <node id="315906637" version="7" timestamp="2009-10-23T11:35:51Z" uid="36809" user="pfoten_weg_!_" changeset="2928981" lat="47.9125387" lon="11.6769472">
    <tag k="addr:city" v="Otterfing"/>
    <tag k="addr:country" v="DE"/>
    <tag k="addr:housenumber" v="11"/>
    <tag k="addr:postcode" v="83624"/>
    <tag k="addr:street" v="Jupiterstraße"/>
  </node>
  <node id="315906637" version="8" timestamp="2010-01-02T08:53:29Z" uid="42393" user="mawi42" changeset="3516417" lat="47.9125586" lon="11.6768961">
    <tag k="addr:city" v="Otterfing"/>
    <tag k="addr:country" v="DE"/>
    <tag k="addr:housenumber" v="11"/>
    <tag k="addr:postcode" v="83624"/>
    <tag k="addr:street" v="Jupiterstraße"/>
  </node>
  <node id="315906637" version="9" timestamp="2010-11-19T13:57:13Z" uid="42393" user="mawi42" changeset="6407210" lat="47.9125629" lon="11.6769111">
    <tag k="addr:city" v="Otterfing"/>
    <tag k="addr:country" v="DE"/>
    <tag k="addr:housenumber" v="11"/>
    <tag k="addr:postcode" v="83624"/>
    <tag k="addr:street" v="Jupiterstraße"/>
  </node>
  <node id="315906880" version="1" timestamp="2008-11-30T20:06:11Z" uid="16922" user="amai" changeset="814672" lat="49.016057" lon="8.4437458">
    <tag k="railway" v="level_crossing"/>
  </node>
  <node id="315906880" version="2" timestamp="2009-02-23T21:07:42Z" uid="6893" user="[HEK]the_other" changeset="638434" lat="49.016057" lon="8.4437458"/>
  <node id="315906880" version="3" timestamp="2011-02-08T23:27:01Z" uid="6269" user="Mueck" changeset="7232039" lat="49.0160892" lon="8.4437895"/>
  <node id="315906880" version="4" timestamp="2011-10-24T10:24:24Z" uid="442210" user="dwausr" changeset="9641906" lat="49.0160892" lon="8.4437895"/>
  <node id="315907112" version="3" timestamp="2009-10-02T19:48:58Z" uid="86259" user="hasse_osm_korinthenkacker" changeset="2716821" lat="47.9127109" lon="11.677381">
    <tag k="addr:city" v="Otterfing"/>
    <tag k="addr:country" v="DE"/>
    <tag k="addr:housenumber" v="17"/>
    <tag k="addr:postcode" v="83624"/>
    <tag k="addr:street" v="Jupiterstraße"/>
    <tag k="source" v="survey"/>
  </node>
  <node id="315907112" version="4" timestamp="2009-10-17T17:46:47Z" uid="42393" user="mawi42" changeset="2876548" lat="47.9127067" lon="11.6773703">
    <tag k="addr:city" v="Otterfing"/>
    <tag k="addr:country" v="DE"/>
    <tag k="addr:housenumber" v="17"/>
    <tag k="addr:postcode" v="83624"/>
    <tag k="addr:street" v="Jupiterstraße"/>
    <tag k="source" v="survey"/>
  </node>
  <node id="315907112" version="5" timestamp="2009-10-21T17:13:57Z" uid="42393" user="mawi42" changeset="2914305" lat="47.9126595" lon="11.6773678">
    <tag k="addr:city" v="Otterfing"/>
    <tag k="addr:country" v="DE"/>
    <tag k="addr:housenumber" v="17"/>
    <tag k="addr:postcode" v="83624"/>
    <tag k="addr:street" v="Jupiterstraße"/>
    <tag k="source" v="survey"/>
  </node>
  <node id="315907112" version="6" timestamp="2009-10-23T11:35:57Z" uid="36809" user="pfoten_weg_!_" changeset="2928981" lat="47.9126595" lon="11.6773678">
    <tag k="addr:city" v="Otterfing"/>
    <tag k="addr:country" v="DE"/>
    <tag k="addr:housenumber" v="17"/>
    <tag k="addr:postcode" v="83624"/>
    <tag k="addr:street" v="Jupiterstraße"/>
  </node>
  <node id="315907112" version="7" timestamp="2010-01-02T08:53:29Z" uid="42393" user="mawi42" changeset="3516417" lat="47.9126737" lon="11.6773547">
    <tag k="addr:city" v="Otterfing"/>
    <tag k="addr:country" v="DE"/>
    <tag k="addr:housenumber" v="17"/>
    <tag k="addr:postcode" v="83624"/>
    <tag k="addr:street" v="Jupiterstraße"/>
  </node>
  <node id="315907112" version="8" timestamp="2010-11-19T13:59:52Z" uid="42393" user="mawi42" changeset="6407210" lat="47.9126811" lon="11.6773497">
    <tag k="addr:city" v="Otterfing"/>
    <tag k="addr:country" v="DE"/>
    <tag k="addr:housenumber" v="17"/>
    <tag k="addr:postcode" v="83624"/>
    <tag k="addr:street" v="Jupiterstraße"/>
  </node>
  <node id="315907139" version="3" timestamp="2009-10-02T19:48:58Z" uid="86259" user="hasse_osm_korinthenkacker" changeset="2716821" lat="47.9127282" lon="11.6774668">
    <tag k="addr:city" v="Otterfing"/>
    <tag k="addr:country" v="DE"/>
    <tag k="addr:housenumber" v="19"/>
    <tag k="addr:postcode" v="83624"/>
    <tag k="addr:street" v="Jupiterstraße"/>
    <tag k="source" v="survey"/>
  </node>
  <node id="315907139" version="4" timestamp="2009-10-17T17:46:48Z" uid="42393" user="mawi42" changeset="2876548" lat="47.9127239" lon="11.677439">
    <tag k="addr:city" v="Otterfing"/>
    <tag k="addr:country" v="DE"/>
    <tag k="addr:housenumber" v="19"/>
    <tag k="addr:postcode" v="83624"/>
    <tag k="addr:street" v="Jupiterstraße"/>
    <tag k="source" v="survey"/>
  </node>
  <node id="315907139" version="5" timestamp="2009-10-21T17:13:57Z" uid="42393" user="mawi42" changeset="2914305" lat="47.9126825" lon="11.6774536">
    <tag k="addr:city" v="Otterfing"/>
    <tag k="addr:country" v="DE"/>
    <tag k="addr:housenumber" v="19"/>
    <tag k="addr:postcode" v="83624"/>
    <tag k="addr:street" v="Jupiterstraße"/>
    <tag k="source" v="survey"/>
  </node>
  <node id="315907139" version="6" timestamp="2009-10-23T11:35:57Z" uid="36809" user="pfoten_weg_!_" changeset="2928981" lat="47.9126825" lon="11.6774536">
    <tag k="addr:city" v="Otterfing"/>
    <tag k="addr:country" v="DE"/>
    <tag k="addr:housenumber" v="19"/>
    <tag k="addr:postcode" v="83624"/>
    <tag k="addr:street" v="Jupiterstraße"/>
  </node>
  <node id="315907139" version="7" timestamp="2010-01-02T08:53:29Z" uid="42393" user="mawi42" changeset="3516417" lat="47.9126899" lon="11.6774084">
    <tag k="addr:city" v="Otterfing"/>
    <tag k="addr:country" v="DE"/>
    <tag k="addr:housenumber" v="19"/>
    <tag k="addr:postcode" v="83624"/>
    <tag k="addr:street" v="Jupiterstraße"/>
  </node>
  <node id="315907139" version="8" timestamp="2010-11-19T13:59:52Z" uid="42393" user="mawi42" changeset="6407210" lat="47.912695" lon="11.6774047">
    <tag k="addr:city" v="Otterfing"/>
    <tag k="addr:country" v="DE"/>
    <tag k="addr:housenumber" v="19"/>
    <tag k="addr:postcode" v="83624"/>
    <tag k="addr:street" v="Jupiterstraße"/>
  </node>
  <node id="315907556" version="5" timestamp="2009-10-02T19:49:07Z" uid="86259" user="hasse_osm_korinthenkacker" changeset="2716821" lat="47.9125671" lon="11.6785912">
    <tag k="addr:city" v="Otterfing"/>
    <tag k="addr:country" v="DE"/>
    <tag k="addr:housenumber" v="24"/>
    <tag k="addr:postcode" v="83624"/>
    <tag k="addr:street" v="Jupiterstraße"/>
    <tag k="source" v="survey"/>
  </node>
  <node id="315907556" version="6" timestamp="2009-10-23T11:36:06Z" uid="36809" user="pfoten_weg_!_" changeset="2928981" lat="47.9125671" lon="11.6785912">
    <tag k="addr:city" v="Otterfing"/>
    <tag k="addr:country" v="DE"/>
    <tag k="addr:housenumber" v="24"/>
    <tag k="addr:postcode" v="83624"/>
    <tag k="addr:street" v="Jupiterstraße"/>
  </node>
  <node id="315907556" version="7" timestamp="2010-01-04T09:11:23Z" uid="42393" user="mawi42" changeset="3535328" lat="47.9125673" lon="11.678564">
    <tag k="addr:city" v="Otterfing"/>
    <tag k="addr:country" v="DE"/>
    <tag k="addr:housenumber" v="24"/>
    <tag k="addr:postcode" v="83624"/>
    <tag k="addr:street" v="Jupiterstraße"/>
  </node>
  <node id="315907674" version="5" timestamp="2009-10-02T19:49:07Z" uid="86259" user="hasse_osm_korinthenkacker" changeset="2716821" lat="47.9126085" lon="11.6790485">
    <tag k="addr:city" v="Otterfing"/>
    <tag k="addr:country" v="DE"/>
    <tag k="addr:housenumber" v="26"/>
    <tag k="addr:postcode" v="83624"/>
    <tag k="addr:street" v="Jupiterstraße"/>
    <tag k="source" v="survey"/>
  </node>
  <node id="315907674" version="6" timestamp="2009-10-23T11:36:07Z" uid="36809" user="pfoten_weg_!_" changeset="2928981" lat="47.9126085" lon="11.6790485">
    <tag k="addr:city" v="Otterfing"/>
    <tag k="addr:country" v="DE"/>
    <tag k="addr:housenumber" v="26"/>
    <tag k="addr:postcode" v="83624"/>
    <tag k="addr:street" v="Jupiterstraße"/>
  </node>
  <node id="315907800" version="5" timestamp="2009-10-02T19:49:07Z" uid="86259" user="hasse_osm_korinthenkacker" changeset="2716821" lat="47.91262" lon="11.6791343">
    <tag k="addr:city" v="Otterfing"/>
    <tag k="addr:country" v="DE"/>
    <tag k="addr:housenumber" v="26a"/>
    <tag k="addr:postcode" v="83624"/>
    <tag k="addr:street" v="Jupiterstraße"/>
    <tag k="source" v="survey"/>
  </node>
  <node id="315907800" version="6" timestamp="2009-10-23T11:36:07Z" uid="36809" user="pfoten_weg_!_" changeset="2928981" lat="47.91262" lon="11.6791343">
    <tag k="addr:city" v="Otterfing"/>
    <tag k="addr:country" v="DE"/>
    <tag k="addr:housenumber" v="26a"/>
    <tag k="addr:postcode" v="83624"/>
    <tag k="addr:street" v="Jupiterstraße"/>
  </node>
  <node id="315907816" version="5" timestamp="2009-10-02T19:49:08Z" uid="86259" user="hasse_osm_korinthenkacker" changeset="2716821" lat="47.9126661" lon="11.679366">
    <tag k="addr:city" v="Otterfing"/>
    <tag k="addr:country" v="DE"/>
    <tag k="addr:housenumber" v="28"/>
    <tag k="addr:postcode" v="83624"/>
    <tag k="addr:street" v="Jupiterstraße"/>
    <tag k="source" v="survey"/>
  </node>
  <node id="315907816" version="6" timestamp="2009-10-23T11:36:07Z" uid="36809" user="pfoten_weg_!_" changeset="2928981" lat="47.9126661" lon="11.679366">
    <tag k="addr:city" v="Otterfing"/>
    <tag k="addr:country" v="DE"/>
    <tag k="addr:housenumber" v="28"/>
    <tag k="addr:postcode" v="83624"/>
    <tag k="addr:street" v="Jupiterstraße"/>
  </node>
  <node id="315907910" version="3" timestamp="2010-07-29T09:28:48Z" uid="74617" user="JohnSmith" changeset="5344848" lat="48.6287842" lon="9.5002015">
    <tag k="amenity" v="emergency_phone"/>
    <tag k="emergency" v="phone"/>
    <tag k="operator" v="Straßenmeisterei"/>
    <tag k="source" v="Photo"/>
  </node>
  <node id="315908107" version="6" timestamp="2009-10-02T19:49:08Z" uid="86259" user="hasse_osm_korinthenkacker" changeset="2716821" lat="47.912683" lon="11.6794645">
    <tag k="addr:city" v="Otterfing"/>
    <tag k="addr:country" v="DE"/>
    <tag k="addr:housenumber" v="30"/>
    <tag k="addr:postcode" v="83624"/>
    <tag k="addr:street" v="Jupiterstraße"/>
    <tag k="source" v="survey"/>
  </node>
  <node id="315908107" version="7" timestamp="2009-10-23T11:36:08Z" uid="36809" user="pfoten_weg_!_" changeset="2928981" lat="47.912683" lon="11.6794645">
    <tag k="addr:city" v="Otterfing"/>
    <tag k="addr:country" v="DE"/>
    <tag k="addr:housenumber" v="30"/>
    <tag k="addr:postcode" v="83624"/>
    <tag k="addr:street" v="Jupiterstraße"/>
  </node>
  <node id="315908175" version="4" timestamp="2009-10-02T19:49:08Z" uid="86259" user="hasse_osm_korinthenkacker" changeset="2716821" lat="47.9127175" lon="11.6796877">
    <tag k="addr:city" v="Otterfing"/>
    <tag k="addr:country" v="DE"/>
    <tag k="addr:housenumber" v="32"/>
    <tag k="addr:postcode" v="83624"/>
    <tag k="addr:street" v="Jupiterstraße"/>
    <tag k="source" v="survey"/>
  </node>
  <node id="315908175" version="5" timestamp="2009-10-23T11:36:08Z" uid="36809" user="pfoten_weg_!_" changeset="2928981" lat="47.9127175" lon="11.6796877">
    <tag k="addr:city" v="Otterfing"/>
    <tag k="addr:country" v="DE"/>
    <tag k="addr:housenumber" v="32"/>
    <tag k="addr:postcode" v="83624"/>
    <tag k="addr:street" v="Jupiterstraße"/>
  </node>
  <node id="315908184" version="1" timestamp="2008-11-30T20:12:36Z" uid="7591" user="sadam" changeset="814358" lat="34.7129878" lon="-82.7921486">
    <tag k="created_by" v="Potlatch 0.10f"/>
    <tag k="manmade" v="water_tower"/>
  </node>
  <node id="315908184" version="2" timestamp="2008-12-04T19:38:27Z" uid="6975" user="ulfl" changeset="107048" lat="34.7129878" lon="-82.7921486">
    <tag k="man_made" v="water_tower"/>
  </node>
  <node id="315908263" version="4" timestamp="2009-10-02T19:49:23Z" uid="86259" user="hasse_osm_korinthenkacker" changeset="2716821" lat="47.9132373" lon="11.6826237">
    <tag k="addr:city" v="Otterfing"/>
    <tag k="addr:country" v="DE"/>
    <tag k="addr:housenumber" v="36"/>
    <tag k="addr:postcode" v="83624"/>
    <tag k="addr:street" v="Jupiterstraße"/>
    <tag k="source" v="survey"/>
  </node>
  <node id="315908263" version="5" timestamp="2009-10-23T11:36:45Z" uid="36809" user="pfoten_weg_!_" changeset="2928981" lat="47.9132373" lon="11.6826237">
    <tag k="addr:city" v="Otterfing"/>
    <tag k="addr:country" v="DE"/>
    <tag k="addr:housenumber" v="36"/>
    <tag k="addr:postcode" v="83624"/>
    <tag k="addr:street" v="Jupiterstraße"/>
  </node>
  <node id="315908263" version="6" timestamp="2010-01-03T08:37:09Z" uid="42393" user="mawi42" changeset="3525780" lat="47.9132373" lon="11.6826237">
    <tag k="addr:city" v="Otterfing"/>
    <tag k="addr:country" v="DE"/>
    <tag k="addr:housenumber" v="36"/>
    <tag k="addr:postcode" v="83624"/>
    <tag k="addr:street" v="Jupiterstraße"/>
  </node>
  <node id="315908270" version="5" timestamp="2009-10-02T19:49:14Z" uid="86259" user="hasse_osm_korinthenkacker" changeset="2716821" lat="47.9127808" lon="11.6800653">
    <tag k="addr:city" v="Otterfing"/>
    <tag k="addr:country" v="DE"/>
    <tag k="addr:housenumber" v="38"/>
    <tag k="addr:postcode" v="83624"/>
    <tag k="addr:street" v="Jupiterstraße"/>
    <tag k="source" v="survey"/>
  </node>
  <node id="315908270" version="6" timestamp="2009-10-23T11:36:16Z" uid="36809" user="pfoten_weg_!_" changeset="2928981" lat="47.9127808" lon="11.6800653">
    <tag k="addr:city" v="Otterfing"/>
    <tag k="addr:country" v="DE"/>
    <tag k="addr:housenumber" v="38"/>
    <tag k="addr:postcode" v="83624"/>
    <tag k="addr:street" v="Jupiterstraße"/>
  </node>
  <node id="315908650" version="6" timestamp="2009-10-02T19:49:13Z" uid="86259" user="hasse_osm_korinthenkacker" changeset="2716821" lat="47.9128444" lon="11.6804475">
    <tag k="addr:city" v="Otterfing"/>
    <tag k="addr:country" v="DE"/>
    <tag k="addr:housenumber" v="40"/>
    <tag k="addr:postcode" v="83624"/>
    <tag k="addr:street" v="Jupiterstraße"/>
    <tag k="source" v="survey"/>
  </node>
  <node id="315908650" version="7" timestamp="2009-10-23T11:36:15Z" uid="36809" user="pfoten_weg_!_" changeset="2928981" lat="47.9128444" lon="11.6804475">
    <tag k="addr:city" v="Otterfing"/>
    <tag k="addr:country" v="DE"/>
    <tag k="addr:housenumber" v="40"/>
    <tag k="addr:postcode" v="83624"/>
    <tag k="addr:street" v="Jupiterstraße"/>
  </node>
  <node id="315908684" version="6" timestamp="2009-10-02T19:49:14Z" uid="86259" user="hasse_osm_korinthenkacker" changeset="2716821" lat="47.9130397" lon="11.6807348">
    <tag k="addr:city" v="Otterfing"/>
    <tag k="addr:country" v="DE"/>
    <tag k="addr:housenumber" v="42"/>
    <tag k="addr:postcode" v="83624"/>
    <tag k="addr:street" v="Jupiterstraße"/>
    <tag k="source" v="survey"/>
  </node>
  <node id="315908684" version="7" timestamp="2009-10-23T11:36:19Z" uid="36809" user="pfoten_weg_!_" changeset="2928981" lat="47.9130397" lon="11.6807348">
    <tag k="addr:city" v="Otterfing"/>
    <tag k="addr:country" v="DE"/>
    <tag k="addr:housenumber" v="42"/>
    <tag k="addr:postcode" v="83624"/>
    <tag k="addr:street" v="Jupiterstraße"/>
  </node>
  <node id="315908984" version="6" timestamp="2009-10-02T19:49:14Z" uid="86259" user="hasse_osm_korinthenkacker" changeset="2716821" lat="47.9131375" lon="11.6799108">
    <tag k="addr:city" v="Otterfing"/>
    <tag k="addr:country" v="DE"/>
    <tag k="addr:housenumber" v="35"/>
    <tag k="addr:postcode" v="83624"/>
    <tag k="addr:street" v="Jupiterstraße"/>
    <tag k="source" v="survey"/>
  </node>
  <node id="315908984" version="7" timestamp="2009-10-23T11:36:17Z" uid="36809" user="pfoten_weg_!_" changeset="2928981" lat="47.9131375" lon="11.6799108">
    <tag k="addr:city" v="Otterfing"/>
    <tag k="addr:country" v="DE"/>
    <tag k="addr:housenumber" v="35"/>
    <tag k="addr:postcode" v="83624"/>
    <tag k="addr:street" v="Jupiterstraße"/>
  </node>
  <node id="315909118" version="5" timestamp="2009-10-02T19:49:14Z" uid="86259" user="hasse_osm_korinthenkacker" changeset="2716821" lat="47.9131605" lon="11.6800052">
    <tag k="addr:city" v="Otterfing"/>
    <tag k="addr:country" v="DE"/>
    <tag k="addr:housenumber" v="37"/>
    <tag k="addr:postcode" v="83624"/>
    <tag k="addr:street" v="Jupiterstraße"/>
    <tag k="source" v="survey"/>
  </node>
  <node id="315909118" version="6" timestamp="2009-10-23T11:36:17Z" uid="36809" user="pfoten_weg_!_" changeset="2928981" lat="47.9131605" lon="11.6800052">
    <tag k="addr:city" v="Otterfing"/>
    <tag k="addr:country" v="DE"/>
    <tag k="addr:housenumber" v="37"/>
    <tag k="addr:postcode" v="83624"/>
    <tag k="addr:street" v="Jupiterstraße"/>
  </node>
  <node id="315909341" version="6" timestamp="2009-10-02T19:49:12Z" uid="86259" user="hasse_osm_korinthenkacker" changeset="2716821" lat="47.9130972" lon="11.6796619">
    <tag k="addr:city" v="Otterfing"/>
    <tag k="addr:country" v="DE"/>
    <tag k="addr:housenumber" v="33"/>
    <tag k="addr:postcode" v="83624"/>
    <tag k="addr:street" v="Jupiterstraße"/>
    <tag k="source" v="survey"/>
  </node>
  <node id="315909341" version="7" timestamp="2009-10-23T11:36:14Z" uid="36809" user="pfoten_weg_!_" changeset="2928981" lat="47.9130972" lon="11.6796619">
    <tag k="addr:city" v="Otterfing"/>
    <tag k="addr:country" v="DE"/>
    <tag k="addr:housenumber" v="33"/>
    <tag k="addr:postcode" v="83624"/>
    <tag k="addr:street" v="Jupiterstraße"/>
  </node>
  <node id="315909652" version="5" timestamp="2009-10-02T19:49:11Z" uid="86259" user="hasse_osm_korinthenkacker" changeset="2716821" lat="47.9130799" lon="11.6795761">
    <tag k="addr:city" v="Otterfing"/>
    <tag k="addr:country" v="DE"/>
    <tag k="addr:housenumber" v="31"/>
    <tag k="addr:postcode" v="83624"/>
    <tag k="addr:street" v="Jupiterstraße"/>
    <tag k="source" v="survey"/>
  </node>
  <node id="315909652" version="6" timestamp="2009-10-23T11:36:12Z" uid="36809" user="pfoten_weg_!_" changeset="2928981" lat="47.9130799" lon="11.6795761">
    <tag k="addr:city" v="Otterfing"/>
    <tag k="addr:country" v="DE"/>
    <tag k="addr:housenumber" v="31"/>
    <tag k="addr:postcode" v="83624"/>
    <tag k="addr:street" v="Jupiterstraße"/>
  </node>
  <node id="315909693" version="3" timestamp="2010-07-29T09:34:06Z" uid="74617" user="JohnSmith" changeset="5344848" lat="48.6288918" lon="9.5220576">
    <tag k="amenity" v="emergency_phone"/>
    <tag k="emergency" v="phone"/>
    <tag k="operator" v="Straßenmeisterei"/>
  </node>
  <node id="315909696" version="2" timestamp="2010-07-29T09:00:02Z" uid="74617" user="JohnSmith" changeset="5344848" lat="48.6316834" lon="9.5383282">
    <tag k="amenity" v="emergency_phone"/>
    <tag k="emergency" v="phone"/>
    <tag k="operator" v="Straßenmeisterei"/>
  </node>
  <node id="315909697" version="2" timestamp="2010-07-29T09:09:47Z" uid="74617" user="JohnSmith" changeset="5344848" lat="48.6319161" lon="9.5378639">
    <tag k="amenity" v="emergency_phone"/>
    <tag k="emergency" v="phone"/>
    <tag k="operator" v="Straßenmeisterei"/>
  </node>
  <node id="315909867" version="5" timestamp="2009-10-02T19:49:11Z" uid="86259" user="hasse_osm_korinthenkacker" changeset="2716821" lat="47.9130109" lon="11.6792843">
    <tag k="addr:city" v="Otterfing"/>
    <tag k="addr:country" v="DE"/>
    <tag k="addr:housenumber" v="29"/>
    <tag k="addr:postcode" v="83624"/>
    <tag k="addr:street" v="Jupiterstraße"/>
    <tag k="source" v="survey"/>
  </node>
  <node id="315909867" version="6" timestamp="2009-10-23T11:36:11Z" uid="36809" user="pfoten_weg_!_" changeset="2928981" lat="47.9130109" lon="11.6792843">
    <tag k="addr:city" v="Otterfing"/>
    <tag k="addr:country" v="DE"/>
    <tag k="addr:housenumber" v="29"/>
    <tag k="addr:postcode" v="83624"/>
    <tag k="addr:street" v="Jupiterstraße"/>
  </node>
  <node id="315909868" version="5" timestamp="2009-10-02T19:49:11Z" uid="86259" user="hasse_osm_korinthenkacker" changeset="2716821" lat="47.9129994" lon="11.6791898">
    <tag k="addr:city" v="Otterfing"/>
    <tag k="addr:country" v="DE"/>
    <tag k="addr:housenumber" v="10"/>
    <tag k="addr:postcode" v="83624"/>
    <tag k="addr:street" v="Orionstraße"/>
    <tag k="source" v="survey"/>
  </node>
  <node id="315909868" version="6" timestamp="2009-10-23T11:36:11Z" uid="36809" user="pfoten_weg_!_" changeset="2928981" lat="47.9129994" lon="11.6791898">
    <tag k="addr:city" v="Otterfing"/>
    <tag k="addr:country" v="DE"/>
    <tag k="addr:housenumber" v="10"/>
    <tag k="addr:postcode" v="83624"/>
    <tag k="addr:street" v="Orionstraße"/>
  </node>
</osm>
