<?xml version='1.0' encoding='UTF-8'?>
<osm version="0.6" generator="libosmium/2.20.0">
  <node id="316010052" version="6" timestamp="2009-10-02T20:14:18Z" uid="86259" user="hasse_osm_korinthenkacker" changeset="2717163" lat="47.8763018" lon="11.7326744">
    <tag k="addr:city" v="Oberlaindern"/>
    <tag k="addr:country" v="DE"/>
    <tag k="addr:housenumber" v="15"/>
    <tag k="addr:postcode" v="83626"/>
    <tag k="addr:street" v="Am Marschallfeld"/>
  </node>
  <node id="316010052" version="7" timestamp="2010-12-22T08:32:42Z" uid="42393" user="mawi42" changeset="6732961" lat="47.8762824" lon="11.7327436">
    <tag k="addr:city" v="Oberlaindern"/>
    <tag k="addr:country" v="DE"/>
    <tag k="addr:housenumber" v="15"/>
    <tag k="addr:postcode" v="83626"/>
    <tag k="addr:street" v="Am Marschallfeld"/>
  </node>
  <node id="316010114" version="7" timestamp="2009-10-19T18:56:47Z" uid="36809" user="pfoten_weg_!_" changeset="2897356" lat="47.8769549" lon="11.7301396">
    <tag k="addr:city" v="Oberlaindern"/>
    <tag k="addr:country" v="DE"/>
    <tag k="addr:housenumber" v="16"/>
    <tag k="addr:postcode" v="83626"/>
    <tag k="addr:street" v="Am Marschallfeld"/>
  </node>
  <node id="316010126" version="6" timestamp="2009-10-02T20:14:17Z" uid="86259" user="hasse_osm_korinthenkacker" changeset="2717163" lat="47.87625" lon="11.7320392">
    <tag k="addr:city" v="Oberlaindern"/>
    <tag k="addr:country" v="DE"/>
    <tag k="addr:housenumber" v="17"/>
    <tag k="addr:postcode" v="83626"/>
    <tag k="addr:street" v="Am Marschallfeld"/>
  </node>
  <node id="316010128" version="7" timestamp="2009-10-19T18:56:47Z" uid="36809" user="pfoten_weg_!_" changeset="2897356" lat="47.8769434" lon="11.7298993">
    <tag k="addr:city" v="Oberlaindern"/>
    <tag k="addr:country" v="DE"/>
    <tag k="addr:housenumber" v="18"/>
    <tag k="addr:postcode" v="83626"/>
    <tag k="addr:street" v="Am Marschallfeld"/>
  </node>
  <node id="316010231" version="6" timestamp="2009-10-02T20:14:17Z" uid="86259" user="hasse_osm_korinthenkacker" changeset="2717163" lat="47.8762615" lon="11.7316702">
    <tag k="addr:city" v="Oberlaindern"/>
    <tag k="addr:country" v="DE"/>
    <tag k="addr:housenumber" v="19"/>
    <tag k="addr:postcode" v="83626"/>
    <tag k="addr:street" v="Am Marschallfeld"/>
  </node>
  <node id="316010263" version="8" timestamp="2009-10-02T20:14:19Z" uid="86259" user="hasse_osm_korinthenkacker" changeset="2717163" lat="47.8769225" lon="11.7331025">
    <tag k="addr:city" v="Oberlaindern"/>
    <tag k="addr:country" v="DE"/>
    <tag k="addr:housenumber" v="2"/>
    <tag k="addr:postcode" v="83626"/>
    <tag k="addr:street" v="Am Marschallfeld"/>
    <tag k="name" v="C&amp;C Teppichwäscherei"/>
  </node>
  <node id="316010263" version="9" timestamp="2010-12-22T08:32:41Z" uid="42393" user="mawi42" changeset="6732961" lat="47.8768157" lon="11.7329657">
    <tag k="addr:city" v="Oberlaindern"/>
    <tag k="addr:country" v="DE"/>
    <tag k="addr:housenumber" v="2"/>
    <tag k="addr:postcode" v="83626"/>
    <tag k="addr:street" v="Am Marschallfeld"/>
    <tag k="name" v="C&amp;C Teppichwäscherei"/>
  </node>
  <node id="316010267" version="8" timestamp="2009-10-02T20:14:19Z" uid="86259" user="hasse_osm_korinthenkacker" changeset="2717163" lat="47.8769341" lon="11.7329737">
    <tag k="addr:city" v="Oberlaindern"/>
    <tag k="addr:country" v="DE"/>
    <tag k="addr:housenumber" v="2a"/>
    <tag k="addr:postcode" v="83626"/>
    <tag k="addr:street" v="Am Marschallfeld"/>
    <tag k="name" v="Gebäudereinigungsservice Coskun"/>
  </node>
  <node id="316010267" version="9" timestamp="2010-12-22T08:32:41Z" uid="42393" user="mawi42" changeset="6732961" lat="47.8768589" lon="11.7328782">
    <tag k="addr:city" v="Oberlaindern"/>
    <tag k="addr:country" v="DE"/>
    <tag k="addr:housenumber" v="2a"/>
    <tag k="addr:postcode" v="83626"/>
    <tag k="addr:street" v="Am Marschallfeld"/>
    <tag k="name" v="Gebäudereinigungsservice Coskun"/>
  </node>
  <node id="316010366" version="7" timestamp="2009-10-19T18:56:44Z" uid="36809" user="pfoten_weg_!_" changeset="2897356" lat="47.8769434" lon="11.7295645">
    <tag k="addr:city" v="Oberlaindern"/>
    <tag k="addr:country" v="DE"/>
    <tag k="addr:housenumber" v="20"/>
    <tag k="addr:postcode" v="83626"/>
    <tag k="addr:street" v="Am Marschallfeld"/>
  </node>
  <node id="316010429" version="6" timestamp="2009-10-02T20:14:19Z" uid="86259" user="hasse_osm_korinthenkacker" changeset="2717163" lat="47.8767105" lon="11.7328718">
    <tag k="addr:city" v="Oberlaindern"/>
    <tag k="addr:country" v="DE"/>
    <tag k="addr:housenumber" v="4"/>
    <tag k="addr:postcode" v="83626"/>
    <tag k="addr:street" v="Am Marschallfeld"/>
  </node>
  <node id="316010429" version="7" timestamp="2010-12-22T08:32:41Z" uid="42393" user="mawi42" changeset="6732961" lat="47.8766455" lon="11.7327506">
    <tag k="addr:city" v="Oberlaindern"/>
    <tag k="addr:country" v="DE"/>
    <tag k="addr:housenumber" v="4"/>
    <tag k="addr:postcode" v="83626"/>
    <tag k="addr:street" v="Am Marschallfeld"/>
  </node>
  <node id="316010431" version="6" timestamp="2009-10-02T20:14:19Z" uid="86259" user="hasse_osm_korinthenkacker" changeset="2717163" lat="47.8765896" lon="11.7326744">
    <tag k="addr:city" v="Oberlaindern"/>
    <tag k="addr:country" v="DE"/>
    <tag k="addr:housenumber" v="4a"/>
    <tag k="addr:postcode" v="83626"/>
    <tag k="addr:street" v="Am Marschallfeld"/>
  </node>
  <node id="316010431" version="7" timestamp="2010-12-22T08:32:42Z" uid="42393" user="mawi42" changeset="6732961" lat="47.8765315" lon="11.7324896">
    <tag k="addr:city" v="Oberlaindern"/>
    <tag k="addr:country" v="DE"/>
    <tag k="addr:housenumber" v="4a"/>
    <tag k="addr:postcode" v="83626"/>
    <tag k="addr:street" v="Am Marschallfeld"/>
  </node>
  <node id="316010468" version="6" timestamp="2009-10-02T20:14:19Z" uid="86259" user="hasse_osm_korinthenkacker" changeset="2717163" lat="47.8763593" lon="11.7331293">
    <tag k="addr:city" v="Oberlaindern"/>
    <tag k="addr:country" v="DE"/>
    <tag k="addr:housenumber" v="5"/>
    <tag k="addr:postcode" v="83626"/>
    <tag k="addr:street" v="Am Marschallfeld"/>
  </node>
  <node id="316010470" version="4" timestamp="2008-12-04T19:47:54Z" uid="6975" user="ulfl" changeset="107048" lat="54.5396268" lon="25.6500046">
    <tag k="historic" v="castle"/>
    <tag k="name" v="Medininkų pilis"/>
    <tag k="tourism" v="attraction"/>
  </node>
  <node id="316010470" version="5" timestamp="2009-03-15T09:50:52Z" uid="60129" user="Tomas Straupis" changeset="815765" lat="54.5396268" lon="25.6500046">
    <tag k="historic" v="ruins"/>
    <tag k="name" v="Medininkų pilis"/>
    <tag k="tourism" v="attraction"/>
  </node>
  <node id="316010470" version="6" timestamp="2011-05-15T10:58:44Z" uid="60129" user="Tomas Straupis" changeset="8150330" lat="54.5396268" lon="25.6500046">
    <tag k="historic" v="ruins"/>
    <tag k="name" v="Medininkų pilis"/>
    <tag k="tourism" v="attraction"/>
    <tag k="wikipedia:en" v="Medininkai_Castle"/>
    <tag k="wikipedia:lt" v="Medininkų_pilis"/>
  </node>
  <node id="316010552" version="6" timestamp="2009-10-19T18:56:42Z" uid="36809" user="pfoten_weg_!_" changeset="2897356" lat="47.8761981" lon="11.7299364">
    <tag k="addr:city" v="Oberlaindern"/>
    <tag k="addr:country" v="DE"/>
    <tag k="addr:housenumber" v="25"/>
    <tag k="addr:postcode" v="83626"/>
    <tag k="addr:street" v="Am Marschallfeld"/>
  </node>
  <node id="316010552" version="7" timestamp="2010-12-22T08:13:31Z" uid="42393" user="mawi42" changeset="6732961" lat="47.8762461" lon="11.7301183">
    <tag k="addr:city" v="Oberlaindern"/>
    <tag k="addr:country" v="DE"/>
    <tag k="addr:housenumber" v="25"/>
    <tag k="addr:postcode" v="83626"/>
    <tag k="addr:street" v="Am Marschallfeld"/>
  </node>
  <node id="316010560" version="5" timestamp="2009-10-02T20:14:19Z" uid="86259" user="hasse_osm_korinthenkacker" changeset="2717163" lat="47.8767332" lon="11.7333697">
    <tag k="addr:city" v="Valley"/>
    <tag k="addr:country" v="DE"/>
    <tag k="addr:housenumber" v="3"/>
    <tag k="addr:postcode" v="83626"/>
    <tag k="addr:street" v="Am Marschallfeld"/>
  </node>
  <node id="316010560" version="6" timestamp="2010-12-22T08:32:41Z" uid="42393" user="mawi42" changeset="6732961" lat="47.8766311" lon="11.7333187">
    <tag k="addr:city" v="Valley"/>
    <tag k="addr:country" v="DE"/>
    <tag k="addr:housenumber" v="3"/>
    <tag k="addr:postcode" v="83626"/>
    <tag k="addr:street" v="Am Marschallfeld"/>
  </node>
  <node id="316010575" version="6" timestamp="2009-10-19T18:56:43Z" uid="36809" user="pfoten_weg_!_" changeset="2897356" lat="47.8762212" lon="11.7303827">
    <tag k="addr:city" v="Oberlaindern"/>
    <tag k="addr:country" v="DE"/>
    <tag k="addr:housenumber" v="23"/>
    <tag k="addr:postcode" v="83626"/>
    <tag k="addr:street" v="Am Marschallfeld"/>
  </node>
  <node id="316010575" version="7" timestamp="2010-12-22T08:21:47Z" uid="42393" user="mawi42" changeset="6732961" lat="47.8762976" lon="11.7304342">
    <tag k="addr:city" v="Oberlaindern"/>
    <tag k="addr:country" v="DE"/>
    <tag k="addr:housenumber" v="23"/>
    <tag k="addr:postcode" v="83626"/>
    <tag k="addr:street" v="Am Marschallfeld"/>
  </node>
  <node id="316010696" version="6" timestamp="2009-10-19T18:56:45Z" uid="36809" user="pfoten_weg_!_" changeset="2897356" lat="47.8765839" lon="11.7292841">
    <tag k="addr:city" v="Oberlaindern"/>
    <tag k="addr:country" v="DE"/>
    <tag k="addr:housenumber" v="24"/>
    <tag k="addr:postcode" v="83626"/>
    <tag k="addr:street" v="Am Marschallfeld"/>
  </node>
  <node id="316010788" version="6" timestamp="2009-10-02T20:14:19Z" uid="86259" user="hasse_osm_korinthenkacker" changeset="2717163" lat="47.8765896" lon="11.7322967">
    <tag k="addr:city" v="Oberlaindern"/>
    <tag k="addr:country" v="DE"/>
    <tag k="addr:housenumber" v="6"/>
    <tag k="addr:postcode" v="83626"/>
    <tag k="addr:street" v="Am Marschallfeld"/>
  </node>
  <node id="316010794" version="6" timestamp="2009-10-02T20:14:19Z" uid="86259" user="hasse_osm_korinthenkacker" changeset="2717163" lat="47.876722" lon="11.7323225">
    <tag k="addr:city" v="Oberlaindern"/>
    <tag k="addr:country" v="DE"/>
    <tag k="addr:housenumber" v="6a"/>
    <tag k="addr:postcode" v="83626"/>
    <tag k="addr:street" v="Am Marschallfeld"/>
  </node>
  <node id="316010799" version="6" timestamp="2009-10-02T20:14:19Z" uid="86259" user="hasse_osm_korinthenkacker" changeset="2717163" lat="47.8769696" lon="11.7323053">
    <tag k="addr:city" v="Oberlaindern"/>
    <tag k="addr:country" v="DE"/>
    <tag k="addr:housenumber" v="6b"/>
    <tag k="addr:postcode" v="83626"/>
    <tag k="addr:street" v="Am Marschallfeld"/>
  </node>
  <node id="316010799" version="7" timestamp="2010-12-22T08:32:41Z" uid="42393" user="mawi42" changeset="6732961" lat="47.8768747" lon="11.7320135">
    <tag k="addr:city" v="Oberlaindern"/>
    <tag k="addr:country" v="DE"/>
    <tag k="addr:housenumber" v="6b"/>
    <tag k="addr:postcode" v="83626"/>
    <tag k="addr:street" v="Am Marschallfeld"/>
  </node>
  <node id="316010832" version="6" timestamp="2009-10-02T20:14:17Z" uid="86259" user="hasse_osm_korinthenkacker" changeset="2717163" lat="47.8760772" lon="11.7333696">
    <tag k="addr:city" v="Oberlaindern"/>
    <tag k="addr:country" v="DE"/>
    <tag k="addr:housenumber" v="7"/>
    <tag k="addr:postcode" v="83626"/>
    <tag k="addr:street" v="Am Marschallfeld"/>
  </node>
  <node id="316010847" version="6" timestamp="2009-10-19T18:56:43Z" uid="36809" user="pfoten_weg_!_" changeset="2897356" lat="47.8761866" lon="11.7295845">
    <tag k="addr:city" v="Oberlaindern"/>
    <tag k="addr:country" v="DE"/>
    <tag k="addr:housenumber" v="27"/>
    <tag k="addr:postcode" v="83626"/>
    <tag k="addr:street" v="Am Marschallfeld"/>
  </node>
  <node id="316010847" version="7" timestamp="2010-12-22T08:13:32Z" uid="42393" user="mawi42" changeset="6732961" lat="47.8761875" lon="11.7296875">
    <tag k="addr:city" v="Oberlaindern"/>
    <tag k="addr:country" v="DE"/>
    <tag k="addr:housenumber" v="27"/>
    <tag k="addr:postcode" v="83626"/>
    <tag k="addr:street" v="Am Marschallfeld"/>
  </node>
  <node id="316010964" version="6" timestamp="2009-10-02T20:14:17Z" uid="86259" user="hasse_osm_korinthenkacker" changeset="2717163" lat="47.8766184" lon="11.7315242">
    <tag k="addr:city" v="Oberlaindern"/>
    <tag k="addr:country" v="DE"/>
    <tag k="addr:housenumber" v="8"/>
    <tag k="addr:postcode" v="83626"/>
    <tag k="addr:street" v="Am Marschallfeld"/>
  </node>
  <node id="316010964" version="7" timestamp="2010-12-22T08:21:48Z" uid="42393" user="mawi42" changeset="6732961" lat="47.8766199" lon="11.7314787">
    <tag k="addr:city" v="Oberlaindern"/>
    <tag k="addr:country" v="DE"/>
    <tag k="addr:housenumber" v="8"/>
    <tag k="addr:postcode" v="83626"/>
    <tag k="addr:street" v="Am Marschallfeld"/>
  </node>
  <node id="316010974" version="6" timestamp="2009-10-02T20:14:17Z" uid="86259" user="hasse_osm_korinthenkacker" changeset="2717163" lat="47.8769465" lon="11.7315328">
    <tag k="addr:city" v="Oberlaindern"/>
    <tag k="addr:country" v="DE"/>
    <tag k="addr:housenumber" v="8a"/>
    <tag k="addr:postcode" v="83626"/>
    <tag k="addr:street" v="Am Marschallfeld"/>
  </node>
  <node id="316010974" version="7" timestamp="2010-12-22T08:21:48Z" uid="42393" user="mawi42" changeset="6732961" lat="47.87697" lon="11.7314218">
    <tag k="addr:city" v="Oberlaindern"/>
    <tag k="addr:country" v="DE"/>
    <tag k="addr:housenumber" v="8a"/>
    <tag k="addr:postcode" v="83626"/>
    <tag k="addr:street" v="Am Marschallfeld"/>
  </node>
  <node id="316011008" version="6" timestamp="2009-10-02T20:14:17Z" uid="86259" user="hasse_osm_korinthenkacker" changeset="2717163" lat="47.8760657" lon="11.7330949">
    <tag k="addr:city" v="Oberlaindern"/>
    <tag k="addr:country" v="DE"/>
    <tag k="addr:housenumber" v="9"/>
    <tag k="addr:postcode" v="83626"/>
    <tag k="addr:street" v="Am Marschallfeld"/>
  </node>
  <node id="316011008" version="7" timestamp="2010-12-22T08:32:42Z" uid="42393" user="mawi42" changeset="6732961" lat="47.8760813" lon="11.7331502">
    <tag k="addr:city" v="Oberlaindern"/>
    <tag k="addr:country" v="DE"/>
    <tag k="addr:housenumber" v="9"/>
    <tag k="addr:postcode" v="83626"/>
    <tag k="addr:street" v="Am Marschallfeld"/>
  </node>
  <node id="316011021" version="5" timestamp="2009-10-19T18:56:39Z" uid="36809" user="pfoten_weg_!_" changeset="2897356" lat="47.8761835" lon="11.7291783">
    <tag k="addr:city" v="Oberlaindern"/>
    <tag k="addr:country" v="DE"/>
    <tag k="addr:housenumber" v="29"/>
    <tag k="addr:postcode" v="83626"/>
    <tag k="addr:street" v="Am Marschallfeld"/>
  </node>
  <node id="316011021" version="6" timestamp="2010-09-17T13:21:18Z" uid="42393" user="mawi42" changeset="5803486" lat="47.8760699" lon="11.7292725">
    <tag k="addr:city" v="Oberlaindern"/>
    <tag k="addr:country" v="DE"/>
    <tag k="addr:housenumber" v="29"/>
    <tag k="addr:postcode" v="83626"/>
    <tag k="addr:street" v="Am Marschallfeld"/>
  </node>
  <node id="316011021" version="7" timestamp="2010-12-22T08:21:48Z" uid="42393" user="mawi42" changeset="6732961" lat="47.8760853" lon="11.7292921">
    <tag k="addr:city" v="Oberlaindern"/>
    <tag k="addr:country" v="DE"/>
    <tag k="addr:housenumber" v="29"/>
    <tag k="addr:postcode" v="83626"/>
    <tag k="addr:street" v="Am Marschallfeld"/>
  </node>
  <node id="316011996" version="6" timestamp="2009-10-02T19:48:49Z" uid="86259" user="hasse_osm_korinthenkacker" changeset="2716821" lat="47.9114856" lon="11.6736396">
    <tag k="addr:city" v="Otterfing"/>
    <tag k="addr:country" v="DE"/>
    <tag k="addr:housenumber" v="25"/>
    <tag k="addr:postcode" v="83624"/>
    <tag k="addr:street" v="Münchner Straße"/>
  </node>
  <node id="316011996" version="7" timestamp="2009-10-21T17:13:59Z" uid="42393" user="mawi42" changeset="2914305" lat="47.9114398" lon="11.673617">
    <tag k="addr:city" v="Otterfing"/>
    <tag k="addr:country" v="DE"/>
    <tag k="addr:housenumber" v="25"/>
    <tag k="addr:postcode" v="83624"/>
    <tag k="addr:street" v="Münchner Straße"/>
  </node>
  <node id="316012014" version="5" timestamp="2009-10-02T19:48:49Z" uid="86259" user="hasse_osm_korinthenkacker" changeset="2716821" lat="47.9114511" lon="11.6735538">
    <tag k="addr:city" v="Otterfing"/>
    <tag k="addr:country" v="DE"/>
    <tag k="addr:housenumber" v="25a"/>
    <tag k="addr:postcode" v="83624"/>
    <tag k="addr:street" v="Münchner Straße"/>
  </node>
  <node id="316012014" version="6" timestamp="2009-10-21T17:13:59Z" uid="42393" user="mawi42" changeset="2914305" lat="47.9114111" lon="11.6735483">
    <tag k="addr:city" v="Otterfing"/>
    <tag k="addr:country" v="DE"/>
    <tag k="addr:housenumber" v="25a"/>
    <tag k="addr:postcode" v="83624"/>
    <tag k="addr:street" v="Münchner Straße"/>
  </node>
  <node id="316012064" version="6" timestamp="2009-10-02T19:48:49Z" uid="86259" user="hasse_osm_korinthenkacker" changeset="2716821" lat="47.9115224" lon="11.67306">
    <tag k="addr:city" v="Otterfing"/>
    <tag k="addr:country" v="DE"/>
    <tag k="addr:housenumber" v="27"/>
    <tag k="addr:postcode" v="83624"/>
    <tag k="addr:street" v="Münchner Straße"/>
  </node>
  <node id="316012657" version="1" timestamp="2008-12-01T08:23:27Z" uid="1066" user="pavel" changeset="15337" lat="50.0919533" lon="14.6362184"/>
  <node id="316012658" version="1" timestamp="2008-12-01T08:23:27Z" uid="1066" user="pavel" changeset="15337" lat="50.0912616" lon="14.6353443"/>
  <node id="316012659" version="1" timestamp="2008-12-01T08:23:27Z" uid="1066" user="pavel" changeset="15337" lat="50.0912055" lon="14.63468"/>
  <node id="316012660" version="1" timestamp="2008-12-01T08:23:28Z" uid="1066" user="pavel" changeset="15337" lat="50.0911308" lon="14.6339923"/>
  <node id="316012661" version="1" timestamp="2008-12-01T08:23:28Z" uid="1066" user="pavel" changeset="15337" lat="50.0910747" lon="14.6335961"/>
  <node id="316012662" version="1" timestamp="2008-12-01T08:23:28Z" uid="1066" user="pavel" changeset="15337" lat="50.0910223" lon="14.6333746"/>
  <node id="316012663" version="1" timestamp="2008-12-01T08:23:28Z" uid="1066" user="pavel" changeset="15337" lat="50.0908765" lon="14.6331823"/>
  <node id="316012664" version="1" timestamp="2008-12-01T08:23:28Z" uid="1066" user="pavel" changeset="15337" lat="50.0915831" lon="14.6331473"/>
  <node id="316012665" version="1" timestamp="2008-12-01T08:23:28Z" uid="1066" user="pavel" changeset="15337" lat="50.0918187" lon="14.6330832"/>
  <node id="316012666" version="1" timestamp="2008-12-01T08:23:28Z" uid="1066" user="pavel" changeset="15337" lat="50.0920019" lon="14.6329842"/>
  <node id="316012667" version="1" timestamp="2008-12-01T08:23:28Z" uid="1066" user="pavel" changeset="15337" lat="50.0920841" lon="14.6329142"/>
  <node id="316012668" version="1" timestamp="2008-12-01T08:23:29Z" uid="1066" user="pavel" changeset="15337" lat="50.0921552" lon="14.6329783"/>
  <node id="316012669" version="1" timestamp="2008-12-01T08:23:29Z" uid="1066" user="pavel" changeset="15337" lat="50.0939962" lon="14.6285274"/>
  <node id="316012669" version="2" timestamp="2011-04-25T20:50:52Z" uid="1066" user="pavel" changeset="7968782" lat="50.0939962" lon="14.6285274"/>
  <node id="316012670" version="1" timestamp="2008-12-01T08:23:29Z" uid="1066" user="pavel" changeset="15337" lat="50.09409" lon="14.6282148"/>
  <node id="316012670" version="2" timestamp="2011-04-25T20:50:52Z" uid="1066" user="pavel" changeset="7968782" lat="50.09409" lon="14.6282148"/>
  <node id="316012671" version="1" timestamp="2008-12-01T08:23:29Z" uid="1066" user="pavel" changeset="15337" lat="50.0943844" lon="14.627534"/>
  <node id="316012671" version="2" timestamp="2011-04-25T20:50:52Z" uid="1066" user="pavel" changeset="7968782" lat="50.0943844" lon="14.627534"/>
  <node id="316012672" version="1" timestamp="2008-12-01T08:23:29Z" uid="1066" user="pavel" changeset="15337" lat="50.0944911" lon="14.6272819"/>
  <node id="316012672" version="2" timestamp="2011-04-25T20:50:52Z" uid="1066" user="pavel" changeset="7968782" lat="50.0944911" lon="14.6272819"/>
  <node id="316012947" version="5" timestamp="2009-10-02T19:48:01Z" uid="86259" user="hasse_osm_korinthenkacker" changeset="2716821" lat="47.9095641" lon="11.6743518">
    <tag k="addr:city" v="Otterfing"/>
    <tag k="addr:country" v="DE"/>
    <tag k="addr:housenumber" v="6"/>
    <tag k="addr:postcode" v="83624"/>
    <tag k="addr:street" v="Berghamer Straße"/>
  </node>
  <node id="316012947" version="6" timestamp="2012-03-24T21:11:08Z" uid="42393" user="mawi42" changeset="11089105" lat="47.9095641" lon="11.6743518">
    <tag k="addr:city" v="Otterfing"/>
    <tag k="addr:country" v="DE"/>
    <tag k="addr:housenumber" v="3"/>
    <tag k="addr:postcode" v="83624"/>
    <tag k="addr:street" v="Berghamer Straße"/>
  </node>
  <node id="316012958" version="7" timestamp="2009-10-02T19:47:59Z" uid="86259" user="hasse_osm_korinthenkacker" changeset="2716821" lat="47.9094605" lon="11.6740771">
    <tag k="addr:city" v="Otterfing"/>
    <tag k="addr:country" v="DE"/>
    <tag k="addr:housenumber" v="6"/>
    <tag k="addr:postcode" v="83624"/>
    <tag k="addr:street" v="Berghamer Straße"/>
  </node>
  <node id="316013143" version="8" timestamp="2009-10-02T19:47:58Z" uid="86259" user="hasse_osm_korinthenkacker" changeset="2716821" lat="47.9091916" lon="11.6737653">
    <tag k="addr:city" v="Otterfing"/>
    <tag k="addr:country" v="DE"/>
    <tag k="addr:housenumber" v="7"/>
    <tag k="addr:postcode" v="83624"/>
    <tag k="addr:street" v="Berghamer Straße"/>
  </node>
  <node id="316013143" version="9" timestamp="2009-11-04T08:40:12Z" uid="42393" user="mawi42" changeset="3030889" lat="47.9092305" lon="11.6737599">
    <tag k="addr:city" v="Otterfing"/>
    <tag k="addr:country" v="DE"/>
    <tag k="addr:housenumber" v="7"/>
    <tag k="addr:postcode" v="83624"/>
    <tag k="addr:street" v="Berghamer Straße"/>
  </node>
  <node id="316013143" version="10" timestamp="2011-05-29T12:36:27Z" uid="42393" user="mawi42" changeset="8280479" lat="47.9092161" lon="11.6737921">
    <tag k="addr:city" v="Otterfing"/>
    <tag k="addr:country" v="DE"/>
    <tag k="addr:housenumber" v="7"/>
    <tag k="addr:postcode" v="83624"/>
    <tag k="addr:street" v="Berghamer Straße"/>
  </node>
  <node id="316013219" version="8" timestamp="2009-10-02T19:47:58Z" uid="86259" user="hasse_osm_korinthenkacker" changeset="2716821" lat="47.9091226" lon="11.6736022">
    <tag k="addr:city" v="Otterfing"/>
    <tag k="addr:country" v="DE"/>
    <tag k="addr:housenumber" v="7a"/>
    <tag k="addr:postcode" v="83624"/>
    <tag k="addr:street" v="Berghamer Straße"/>
  </node>
  <node id="316013219" version="9" timestamp="2009-11-04T08:40:12Z" uid="42393" user="mawi42" changeset="3030889" lat="47.9091557" lon="11.6735968">
    <tag k="addr:city" v="Otterfing"/>
    <tag k="addr:country" v="DE"/>
    <tag k="addr:housenumber" v="7a"/>
    <tag k="addr:postcode" v="83624"/>
    <tag k="addr:street" v="Berghamer Straße"/>
  </node>
  <node id="316013219" version="10" timestamp="2011-05-29T12:36:27Z" uid="42393" user="mawi42" changeset="8280479" lat="47.9091363" lon="11.6736172">
    <tag k="addr:city" v="Otterfing"/>
    <tag k="addr:country" v="DE"/>
    <tag k="addr:housenumber" v="7a"/>
    <tag k="addr:postcode" v="83624"/>
    <tag k="addr:street" v="Berghamer Straße"/>
  </node>
  <node id="316013296" version="2" timestamp="2010-03-26T01:34:37Z" uid="163746" user="anti_bot-nonsense" changeset="4234506" lat="52.2397523" lon="16.8283617"/>
  <node id="316013296" version="3" timestamp="2011-12-29T04:40:58Z" uid="467703" user="Zbigniew Czernik" changeset="10232171" lat="52.2395824" lon="16.8283605"/>
  <node id="316013297" version="2" timestamp="2010-03-26T01:31:52Z" uid="163746" user="anti_bot-nonsense" changeset="4234506" lat="52.2389163" lon="16.8279602"/>
  <node id="316013298" version="2" timestamp="2010-03-26T01:32:16Z" uid="163746" user="anti_bot-nonsense" changeset="4234506" lat="52.2377262" lon="16.8272054"/>
  <node id="316013299" version="2" timestamp="2010-03-26T01:33:33Z" uid="163746" user="anti_bot-nonsense" changeset="4234506" lat="52.2371755" lon="16.8266594"/>
  <node id="316013360" version="8" timestamp="2009-10-02T19:47:57Z" uid="86259" user="hasse_osm_korinthenkacker" changeset="2716821" lat="47.9090651" lon="11.673319">
    <tag k="addr:city" v="Otterfing"/>
    <tag k="addr:country" v="DE"/>
    <tag k="addr:housenumber" v="9"/>
    <tag k="addr:postcode" v="83624"/>
    <tag k="addr:street" v="Berghamer Straße"/>
  </node>
  <node id="316013373" version="8" timestamp="2009-10-02T19:47:57Z" uid="86259" user="hasse_osm_korinthenkacker" changeset="2716821" lat="47.9090248" lon="11.6732418">
    <tag k="addr:city" v="Otterfing"/>
    <tag k="addr:country" v="DE"/>
    <tag k="addr:housenumber" v="9a"/>
    <tag k="addr:postcode" v="83624"/>
    <tag k="addr:street" v="Berghamer Straße"/>
  </node>
  <node id="316013377" version="8" timestamp="2009-10-02T19:47:57Z" uid="86259" user="hasse_osm_korinthenkacker" changeset="2716821" lat="47.9088234" lon="11.6731559">
    <tag k="addr:city" v="Otterfing"/>
    <tag k="addr:country" v="DE"/>
    <tag k="addr:housenumber" v="11"/>
    <tag k="addr:postcode" v="83624"/>
    <tag k="addr:street" v="Berghamer Straße"/>
  </node>
  <node id="316013381" version="9" timestamp="2009-10-02T19:47:57Z" uid="86259" user="hasse_osm_korinthenkacker" changeset="2716821" lat="47.9088752" lon="11.6730701">
    <tag k="addr:city" v="Otterfing"/>
    <tag k="addr:country" v="DE"/>
    <tag k="addr:housenumber" v="11a"/>
    <tag k="addr:postcode" v="83624"/>
    <tag k="addr:street" v="Berghamer Straße"/>
  </node>
  <node id="316013401" version="8" timestamp="2009-10-02T19:47:41Z" uid="86259" user="hasse_osm_korinthenkacker" changeset="2716821" lat="47.9087544" lon="11.6727783">
    <tag k="addr:city" v="Otterfing"/>
    <tag k="addr:country" v="DE"/>
    <tag k="addr:housenumber" v="13"/>
    <tag k="addr:postcode" v="83624"/>
    <tag k="addr:street" v="Berghamer Straße"/>
  </node>
  <node id="316013404" version="9" timestamp="2009-10-02T19:47:41Z" uid="86259" user="hasse_osm_korinthenkacker" changeset="2716821" lat="47.9086483" lon="11.6725235">
    <tag k="addr:city" v="Otterfing"/>
    <tag k="addr:country" v="DE"/>
    <tag k="addr:housenumber" v="15"/>
    <tag k="addr:postcode" v="83624"/>
    <tag k="addr:street" v="Berghamer Straße"/>
  </node>
  <node id="316013430" version="1" timestamp="2008-12-01T08:30:32Z" uid="1066" user="pavel" changeset="15337" lat="50.0696659" lon="14.5070243"/>
  <node id="316013430" version="2" timestamp="2009-03-04T16:10:56Z" uid="3516" user="BiIbo" changeset="734836" lat="50.0696473" lon="14.507077"/>
  <node id="316013431" version="1" timestamp="2008-12-01T08:30:32Z" uid="1066" user="pavel" changeset="15337" lat="50.0695622" lon="14.5071354"/>
  <node id="316013432" version="1" timestamp="2008-12-01T08:30:32Z" uid="1066" user="pavel" changeset="15337" lat="50.0694131" lon="14.507196"/>
  <node id="316013433" version="1" timestamp="2008-12-01T08:30:32Z" uid="1066" user="pavel" changeset="15337" lat="50.0692641" lon="14.5072263"/>
  <node id="316013434" version="1" timestamp="2008-12-01T08:30:33Z" uid="1066" user="pavel" changeset="15337" lat="50.0684265" lon="14.5078577"/>
  <node id="316013434" version="2" timestamp="2009-03-04T16:04:54Z" uid="3516" user="BiIbo" changeset="734836" lat="50.0683902" lon="14.5079188"/>
  <node id="316013434" version="3" timestamp="2011-05-20T13:59:27Z" uid="25867" user="adamos" changeset="8199000" lat="50.0683821" lon="14.5079435"/>
  <node id="316013435" version="1" timestamp="2008-12-01T08:30:33Z" uid="1066" user="pavel" changeset="15337" lat="50.0692057" lon="14.5070445"/>
  <node id="316013436" version="1" timestamp="2008-12-01T08:30:33Z" uid="1066" user="pavel" changeset="15337" lat="50.068799" lon="14.5061609"/>
  <node id="316013437" version="1" timestamp="2008-12-01T08:30:33Z" uid="1066" user="pavel" changeset="15337" lat="50.0685382" lon="14.5060651"/>
  <node id="316013438" version="1" timestamp="2008-12-01T08:30:33Z" uid="1066" user="pavel" changeset="15337" lat="50.0683833" lon="14.5057513"/>
  <node id="316013439" version="1" timestamp="2008-12-01T08:30:33Z" uid="1066" user="pavel" changeset="15337" lat="50.0679097" lon="14.5058125"/>
  <node id="316013439" version="2" timestamp="2008-12-19T11:51:51Z" uid="84326" user="Mike Crash" changeset="486663" lat="50.0679097" lon="14.5058125"/>
  <node id="316013439" version="3" timestamp="2008-12-19T11:52:13Z" uid="84326" user="Mike Crash" changeset="486663" lat="50.0679097" lon="14.5058125"/>
  <node id="316013440" version="1" timestamp="2008-12-01T08:30:33Z" uid="1066" user="pavel" changeset="15337" lat="50.0683245" lon="14.5057097"/>
  <node id="316013441" version="1" timestamp="2008-12-01T08:30:34Z" uid="1066" user="pavel" changeset="15337" lat="50.070305" lon="14.5144619"/>
  <node id="316013442" version="1" timestamp="2008-12-01T08:30:34Z" uid="1066" user="pavel" changeset="15337" lat="50.0702517" lon="14.5144807"/>
  <node id="316013443" version="1" timestamp="2008-12-01T08:30:34Z" uid="1066" user="pavel" changeset="15337" lat="50.0702566" lon="14.5145486"/>
  <node id="316013444" version="1" timestamp="2008-12-01T08:30:34Z" uid="1066" user="pavel" changeset="15337" lat="50.0703074" lon="14.5147297"/>
  <node id="316013445" version="1" timestamp="2008-12-01T08:30:34Z" uid="1066" user="pavel" changeset="15337" lat="50.0703292" lon="14.5152238"/>
  <node id="316013446" version="1" timestamp="2008-12-01T08:30:34Z" uid="1066" user="pavel" changeset="15337" lat="50.0704236" lon="14.5155821"/>
  <node id="316013447" version="1" timestamp="2008-12-01T08:30:34Z" uid="1066" user="pavel" changeset="15337" lat="50.0704866" lon="14.5159178"/>
  <node id="316013448" version="1" timestamp="2008-12-01T08:30:35Z" uid="1066" user="pavel" changeset="15337" lat="50.0706221" lon="14.5154501"/>
  <node id="316013449" version="1" timestamp="2008-12-01T08:30:35Z" uid="1066" user="pavel" changeset="15337" lat="50.0707504" lon="14.5155142"/>
  <node id="316013450" version="1" timestamp="2008-12-01T08:30:35Z" uid="1066" user="pavel" changeset="15337" lat="50.0710385" lon="14.5161856"/>
  <node id="316013450" version="2" timestamp="2012-02-11T12:01:09Z" uid="8007" user="vrabcak" changeset="10651870" lat="50.0710385" lon="14.5161856"/>
  <node id="316013451" version="1" timestamp="2008-12-01T08:30:35Z" uid="1066" user="pavel" changeset="15337" lat="50.0711015" lon="14.5162686"/>
  <node id="316013451" version="2" timestamp="2012-02-11T12:01:09Z" uid="8007" user="vrabcak" changeset="10651870" lat="50.0711015" lon="14.5162686"/>
  <node id="316013452" version="1" timestamp="2008-12-01T08:30:35Z" uid="1066" user="pavel" changeset="15337" lat="50.071162" lon="14.5162686"/>
  <node id="316013452" version="2" timestamp="2012-02-11T12:01:10Z" uid="8007" user="vrabcak" changeset="10651870" lat="50.071162" lon="14.5162686"/>
  <node id="316013453" version="1" timestamp="2008-12-01T08:30:35Z" uid="1066" user="pavel" changeset="15337" lat="50.0711814" lon="14.5161215"/>
  <node id="316013453" version="2" timestamp="2012-02-11T12:01:10Z" uid="8007" user="vrabcak" changeset="10651870" lat="50.0711814" lon="14.5161215"/>
  <node id="316013454" version="1" timestamp="2008-12-01T08:30:35Z" uid="1066" user="pavel" changeset="15337" lat="50.0712734" lon="14.5159631"/>
  <node id="316013454" version="2" timestamp="2012-02-11T12:01:10Z" uid="8007" user="vrabcak" changeset="10651870" lat="50.0712734" lon="14.5159631"/>
  <node id="316013455" version="1" timestamp="2008-12-01T08:30:36Z" uid="1066" user="pavel" changeset="15337" lat="50.0714525" lon="14.5157632"/>
  <node id="316013455" version="2" timestamp="2012-02-11T12:01:10Z" uid="8007" user="vrabcak" changeset="10651870" lat="50.0714525" lon="14.5157632"/>
  <node id="316013456" version="1" timestamp="2008-12-01T08:30:36Z" uid="1066" user="pavel" changeset="15337" lat="50.0714646" lon="14.5156538"/>
  <node id="316013456" version="2" timestamp="2012-02-11T12:01:10Z" uid="8007" user="vrabcak" changeset="10651870" lat="50.0714646" lon="14.5156538"/>
  <node id="316013457" version="1" timestamp="2008-12-01T08:30:36Z" uid="1066" user="pavel" changeset="15337" lat="50.0714622" lon="14.5154878"/>
  <node id="316013457" version="2" timestamp="2012-02-11T12:01:10Z" uid="8007" user="vrabcak" changeset="10651870" lat="50.0714622" lon="14.5154878"/>
  <node id="316013458" version="1" timestamp="2008-12-01T08:30:36Z" uid="1066" user="pavel" changeset="15337" lat="50.0712588" lon="14.5165628"/>
  <node id="316013458" version="2" timestamp="2012-02-11T12:01:10Z" uid="8007" user="vrabcak" changeset="10651870" lat="50.0712588" lon="14.5165628"/>
  <node id="316013459" version="1" timestamp="2008-12-01T08:30:36Z" uid="1066" user="pavel" changeset="15337" lat="50.0713387" lon="14.5166194"/>
  <node id="316013459" version="2" timestamp="2012-02-11T12:01:10Z" uid="8007" user="vrabcak" changeset="10651870" lat="50.0713387" lon="14.5166194"/>
  <node id="316013460" version="1" timestamp="2008-12-01T08:30:36Z" uid="1066" user="pavel" changeset="15337" lat="50.0714089" lon="14.5165666"/>
  <node id="316013460" version="2" timestamp="2012-02-11T12:01:10Z" uid="8007" user="vrabcak" changeset="10651870" lat="50.0714089" lon="14.5165666"/>
  <node id="316013461" version="1" timestamp="2008-12-01T08:30:37Z" uid="1066" user="pavel" changeset="15337" lat="50.0713992" lon="14.5164459"/>
  <node id="316013461" version="2" timestamp="2012-02-11T12:01:10Z" uid="8007" user="vrabcak" changeset="10651870" lat="50.0713992" lon="14.5164459"/>
  <node id="316013462" version="1" timestamp="2008-12-01T08:30:37Z" uid="1066" user="pavel" changeset="15337" lat="50.0713799" lon="14.5161441"/>
  <node id="316013462" version="2" timestamp="2012-02-11T12:01:10Z" uid="8007" user="vrabcak" changeset="10651870" lat="50.0713799" lon="14.5161441"/>
  <node id="316013463" version="1" timestamp="2008-12-01T08:30:37Z" uid="1066" user="pavel" changeset="15337" lat="50.0714477" lon="14.5160196"/>
  <node id="316013463" version="2" timestamp="2012-02-11T12:01:10Z" uid="8007" user="vrabcak" changeset="10651870" lat="50.0714477" lon="14.5160196"/>
  <node id="316013464" version="1" timestamp="2008-12-01T08:30:37Z" uid="1066" user="pavel" changeset="15337" lat="50.0717115" lon="14.5157933"/>
  <node id="316013464" version="2" timestamp="2012-02-11T12:01:10Z" uid="8007" user="vrabcak" changeset="10651870" lat="50.0717115" lon="14.5157933"/>
  <node id="316013465" version="1" timestamp="2008-12-01T08:30:37Z" uid="1066" user="pavel" changeset="15337" lat="50.0714175" lon="14.5181131"/>
  <node id="316013466" version="1" timestamp="2008-12-01T08:30:37Z" uid="1066" user="pavel" changeset="15337" lat="50.0711396" lon="14.5182141"/>
  <node id="316013468" version="1" timestamp="2008-12-01T08:30:38Z" uid="1066" user="pavel" changeset="15337" lat="50.0710192" lon="14.5182719"/>
  <node id="316013469" version="1" timestamp="2008-12-01T08:30:38Z" uid="1066" user="pavel" changeset="15337" lat="50.0709482" lon="14.5183392"/>
  <node id="316013470" version="1" timestamp="2008-12-01T08:30:38Z" uid="1066" user="pavel" changeset="15337" lat="50.0708247" lon="14.5184691"/>
  <node id="316013471" version="1" timestamp="2008-12-01T08:30:38Z" uid="1066" user="pavel" changeset="15337" lat="50.0707197" lon="14.5185653"/>
  <node id="316013472" version="1" timestamp="2008-12-01T08:30:38Z" uid="1066" user="pavel" changeset="15337" lat="50.0705685" lon="14.5186519"/>
  <node id="316013473" version="1" timestamp="2008-12-01T08:30:38Z" uid="1066" user="pavel" changeset="15337" lat="50.0700127" lon="14.5188972"/>
  <node id="316013474" version="1" timestamp="2008-12-01T08:30:39Z" uid="1066" user="pavel" changeset="15337" lat="50.0696361" lon="14.5193157"/>
  <node id="316013475" version="1" timestamp="2008-12-01T08:30:39Z" uid="1066" user="pavel" changeset="15337" lat="50.0692532" lon="14.5197534"/>
  <node id="316013476" version="1" timestamp="2008-12-01T08:30:39Z" uid="1066" user="pavel" changeset="15337" lat="50.0692687" lon="14.5202536"/>
  <node id="316013477" version="1" timestamp="2008-12-01T08:30:39Z" uid="1066" user="pavel" changeset="15337" lat="50.0690773" lon="14.5211098"/>
  <node id="316013478" version="1" timestamp="2008-12-01T08:30:39Z" uid="1066" user="pavel" changeset="15337" lat="50.0689568" lon="14.52174"/>
  <node id="316013479" version="1" timestamp="2008-12-01T08:30:40Z" uid="1066" user="pavel" changeset="15337" lat="50.0689692" lon="14.5219564"/>
  <node id="316013480" version="1" timestamp="2008-12-01T08:30:40Z" uid="1066" user="pavel" changeset="15337" lat="50.0690371" lon="14.522144"/>
  <node id="316013481" version="1" timestamp="2008-12-01T08:30:40Z" uid="1066" user="pavel" changeset="15337" lat="50.0691791" lon="14.5224663"/>
  <node id="316013481" version="2" timestamp="2008-12-01T08:34:19Z" uid="1066" user="pavel" changeset="15337" lat="50.0691952" lon="14.5225249"/>
  <node id="316013481" version="3" timestamp="2011-11-21T14:58:01Z" uid="527259" user="Vratislav Filler" changeset="9897995" lat="50.0689423" lon="14.5226812"/>
  <node id="316013482" version="1" timestamp="2008-12-01T08:30:40Z" uid="1066" user="pavel" changeset="15337" lat="50.0675449" lon="14.5256635"/>
  <node id="316013482" version="2" timestamp="2012-02-11T12:01:11Z" uid="8007" user="vrabcak" changeset="10651870" lat="50.0675449" lon="14.5256635"/>
  <node id="316013483" version="1" timestamp="2008-12-01T08:30:40Z" uid="1066" user="pavel" changeset="15337" lat="50.0676292" lon="14.5272764"/>
  <node id="316013483" version="2" timestamp="2012-02-11T12:01:11Z" uid="8007" user="vrabcak" changeset="10651870" lat="50.0676292" lon="14.5272764"/>
  <node id="316014044" version="2" timestamp="2010-03-26T01:33:00Z" uid="163746" user="anti_bot-nonsense" changeset="4234506" lat="52.2688988" lon="16.8162098"/>
  <node id="316014045" version="2" timestamp="2010-03-26T01:34:10Z" uid="163746" user="anti_bot-nonsense" changeset="4234506" lat="52.2720194" lon="16.8149751"/>
  <node id="316014046" version="2" timestamp="2010-03-26T01:34:27Z" uid="163746" user="anti_bot-nonsense" changeset="4234506" lat="52.2736832" lon="16.8143136"/>
  <node id="316014047" version="2" timestamp="2010-03-26T01:31:38Z" uid="163746" user="anti_bot-nonsense" changeset="4234506" lat="52.275185" lon="16.8135492"/>
  <node id="316014048" version="2" timestamp="2010-03-26T01:34:14Z" uid="163746" user="anti_bot-nonsense" changeset="4234506" lat="52.2770915" lon="16.8130494"/>
  <node id="316014049" version="2" timestamp="2010-03-26T01:31:22Z" uid="163746" user="anti_bot-nonsense" changeset="4234506" lat="52.2783865" lon="16.8128142"/>
  <node id="316014049" version="3" timestamp="2011-04-06T06:15:28Z" uid="345946" user="sasza" changeset="7781467" lat="52.2783865" lon="16.812923"/>
  <node id="316014050" version="2" timestamp="2010-03-26T01:31:43Z" uid="163746" user="anti_bot-nonsense" changeset="4234506" lat="52.2802122" lon="16.8129759"/>
  <node id="316014051" version="2" timestamp="2010-03-26T01:33:05Z" uid="163746" user="anti_bot-nonsense" changeset="4234506" lat="52.2835396" lon="16.8133287"/>
  <node id="316014052" version="2" timestamp="2010-03-26T01:35:02Z" uid="163746" user="anti_bot-nonsense" changeset="4234506" lat="52.2864444" lon="16.8135933"/>
  <node id="316014053" version="2" timestamp="2010-03-26T01:32:23Z" uid="163746" user="anti_bot-nonsense" changeset="4234506" lat="52.2875685" lon="16.8136814"/>
  <node id="316014054" version="2" timestamp="2010-03-26T01:32:41Z" uid="163746" user="anti_bot-nonsense" changeset="4234506" lat="52.288216" lon="16.8135786"/>
  <node id="316014055" version="2" timestamp="2010-03-26T01:33:56Z" uid="163746" user="anti_bot-nonsense" changeset="4234506" lat="52.2912737" lon="16.8106827"/>
  <node id="316014056" version="2" timestamp="2010-03-26T01:32:26Z" uid="163746" user="anti_bot-nonsense" changeset="4234506" lat="52.2919661" lon="16.8100947"/>
  <node id="316014057" version="2" timestamp="2010-03-26T01:33:41Z" uid="163746" user="anti_bot-nonsense" changeset="4234506" lat="52.2942234" lon="16.8088598"/>
  <node id="316014058" version="2" timestamp="2010-03-26T01:34:00Z" uid="163746" user="anti_bot-nonsense" changeset="4234506" lat="52.2967865" lon="16.8075368"/>
  <node id="316014059" version="2" timestamp="2010-03-26T01:35:07Z" uid="163746" user="anti_bot-nonsense" changeset="4234506" lat="52.2970383" lon="16.8074046"/>
  <node id="316014060" version="2" timestamp="2010-03-26T01:33:25Z" uid="163746" user="anti_bot-nonsense" changeset="4234506" lat="52.2991876" lon="16.8071547"/>
  <node id="316014061" version="2" timestamp="2010-03-26T01:34:29Z" uid="163746" user="anti_bot-nonsense" changeset="4234506" lat="52.3015348" lon="16.8069342"/>
  <node id="316014062" version="2" timestamp="2010-03-26T01:34:47Z" uid="163746" user="anti_bot-nonsense" changeset="4234506" lat="52.3026499" lon="16.8068166"/>
  <node id="316014063" version="2" timestamp="2010-03-26T01:32:06Z" uid="163746" user="anti_bot-nonsense" changeset="4234506" lat="52.3038371" lon="16.8067577"/>
  <node id="316014064" version="2" timestamp="2010-03-26T01:34:33Z" uid="163746" user="anti_bot-nonsense" changeset="4234506" lat="52.3065079" lon="16.8070664"/>
  <node id="316014065" version="2" timestamp="2010-03-26T01:31:48Z" uid="163746" user="anti_bot-nonsense" changeset="4234506" lat="52.3076771" lon="16.8072429"/>
  <node id="316014066" version="3" timestamp="2010-03-26T01:32:12Z" uid="163746" user="anti_bot-nonsense" changeset="4234506" lat="52.3102259" lon="16.8077264"/>
  <node id="316014067" version="2" timestamp="2010-03-26T01:33:30Z" uid="163746" user="anti_bot-nonsense" changeset="4234506" lat="52.3107797" lon="16.8078162"/>
  <node id="316014068" version="2" timestamp="2010-03-26T01:31:26Z" uid="163746" user="anti_bot-nonsense" changeset="4234506" lat="52.311814" lon="16.8079338"/>
  <node id="316014069" version="2" timestamp="2010-03-26T01:32:48Z" uid="163746" user="anti_bot-nonsense" changeset="4234506" lat="52.3127492" lon="16.8076251"/>
  <node id="316014070" version="2" timestamp="2010-03-26T01:33:10Z" uid="163746" user="anti_bot-nonsense" changeset="4234506" lat="52.314431" lon="16.8069636"/>
  <node id="316014071" version="2" timestamp="2010-03-26T01:34:17Z" uid="163746" user="anti_bot-nonsense" changeset="4234506" lat="52.3154292" lon="16.806699"/>
  <node id="316014072" version="2" timestamp="2010-03-26T01:32:54Z" uid="163746" user="anti_bot-nonsense" changeset="4234506" lat="52.3167061" lon="16.8065225"/>
  <node id="316014073" version="2" timestamp="2010-03-26T01:34:03Z" uid="163746" user="anti_bot-nonsense" changeset="4234506" lat="52.3176685" lon="16.8063609"/>
  <node id="316014074" version="2" timestamp="2010-03-26T01:34:20Z" uid="163746" user="anti_bot-nonsense" changeset="4234506" lat="52.318199" lon="16.8065814"/>
  <node id="316014132" version="1" timestamp="2008-12-01T08:34:15Z" uid="1066" user="pavel" changeset="15337" lat="50.0686093" lon="14.5239363"/>
  <node id="316014132" version="2" timestamp="2010-12-18T17:28:39Z" uid="17615" user="Petr Dlouhý" changeset="6698261" lat="50.0686105" lon="14.523959"/>
  <node id="316014133" version="1" timestamp="2008-12-01T08:34:15Z" uid="1066" user="pavel" changeset="15337" lat="50.0684267" lon="14.5232"/>
  <node id="316014134" version="1" timestamp="2008-12-01T08:34:15Z" uid="1066" user="pavel" changeset="15337" lat="50.0684106" lon="14.5229574"/>
  <node id="316014135" version="1" timestamp="2008-12-01T08:34:15Z" uid="1066" user="pavel" changeset="15337" lat="50.0684912" lon="14.5227649"/>
  <node id="316014136" version="1" timestamp="2008-12-01T08:34:15Z" uid="1066" user="pavel" changeset="15337" lat="50.0686362" lon="14.5226896"/>
  <node id="316014137" version="1" timestamp="2008-12-01T08:34:16Z" uid="1066" user="pavel" changeset="15337" lat="50.0689423" lon="14.5226812"/>
  <node id="316014137" version="2" timestamp="2011-11-21T14:58:02Z" uid="527259" user="Vratislav Filler" changeset="9897995" lat="50.0689423" lon="14.5226812"/>
  <node id="316014138" version="1" timestamp="2008-12-01T08:34:16Z" uid="1066" user="pavel" changeset="15337" lat="50.0699734" lon="14.521878"/>
  <node id="316014139" version="1" timestamp="2008-12-01T08:34:16Z" uid="1066" user="pavel" changeset="15337" lat="50.0685393" lon="14.5226965"/>
  <node id="316014140" version="1" timestamp="2008-12-01T08:34:16Z" uid="1066" user="pavel" changeset="15337" lat="50.0685293" lon="14.5224287"/>
  <node id="316014141" version="1" timestamp="2008-12-01T08:34:16Z" uid="1066" user="pavel" changeset="15337" lat="50.0683972" lon="14.5221411"/>
  <node id="316014142" version="1" timestamp="2008-12-01T08:34:16Z" uid="1066" user="pavel" changeset="15337" lat="50.0682922" lon="14.5217748"/>
  <node id="316014143" version="1" timestamp="2008-12-01T08:34:16Z" uid="1066" user="pavel" changeset="15337" lat="50.0682436" lon="14.5214357"/>
  <node id="316014144" version="1" timestamp="2008-12-01T08:34:16Z" uid="1066" user="pavel" changeset="15337" lat="50.0682125" lon="14.5209452"/>
  <node id="316014145" version="1" timestamp="2008-12-01T08:34:17Z" uid="1066" user="pavel" changeset="15337" lat="50.0682922" lon="14.5206848"/>
  <node id="316014146" version="1" timestamp="2008-12-01T08:34:17Z" uid="1066" user="pavel" changeset="15337" lat="50.068574" lon="14.5204456"/>
  <node id="316014147" version="1" timestamp="2008-12-01T08:34:17Z" uid="1066" user="pavel" changeset="15337" lat="50.0683564" lon="14.5201883"/>
  <node id="316014148" version="1" timestamp="2008-12-01T08:34:17Z" uid="1066" user="pavel" changeset="15337" lat="50.0682747" lon="14.5199793"/>
  <node id="316014149" version="1" timestamp="2008-12-01T08:34:17Z" uid="1066" user="pavel" changeset="15337" lat="50.0683836" lon="14.5197038"/>
  <node id="316014150" version="1" timestamp="2008-12-01T08:34:17Z" uid="1066" user="pavel" changeset="15337" lat="50.0684594" lon="14.5189832"/>
  <node id="316014151" version="1" timestamp="2008-12-01T08:34:17Z" uid="1066" user="pavel" changeset="15337" lat="50.0684302" lon="14.5185836"/>
  <node id="316014152" version="1" timestamp="2008-12-01T08:34:17Z" uid="1066" user="pavel" changeset="15337" lat="50.0684535" lon="14.5182536"/>
  <node id="316014153" version="1" timestamp="2008-12-01T08:34:18Z" uid="1066" user="pavel" changeset="15337" lat="50.0686828" lon="14.5178751"/>
  <node id="316014155" version="1" timestamp="2008-12-01T08:34:18Z" uid="1066" user="pavel" changeset="15337" lat="50.0688947" lon="14.5170849"/>
  <node id="316014156" version="1" timestamp="2008-12-01T08:34:18Z" uid="1066" user="pavel" changeset="15337" lat="50.0691784" lon="14.5155892"/>
  <node id="316014157" version="1" timestamp="2008-12-01T08:34:18Z" uid="1066" user="pavel" changeset="15337" lat="50.0691434" lon="14.5151623"/>
  <node id="316014158" version="1" timestamp="2008-12-01T08:34:18Z" uid="1066" user="pavel" changeset="15337" lat="50.0690249" lon="14.5146082"/>
  <node id="316014164" version="6" timestamp="2009-10-02T19:47:59Z" uid="86259" user="hasse_osm_korinthenkacker" changeset="2716821" lat="47.9097439" lon="11.6738168">
    <tag k="addr:city" v="Otterfing"/>
    <tag k="addr:country" v="DE"/>
    <tag k="addr:housenumber" v="10"/>
    <tag k="addr:postcode" v="83624"/>
    <tag k="addr:street" v="Berghamer Straße"/>
  </node>
  <node id="316014164" version="7" timestamp="2009-11-04T08:40:12Z" uid="42393" user="mawi42" changeset="3030889" lat="47.9097655" lon="11.6738457">
    <tag k="addr:city" v="Otterfing"/>
    <tag k="addr:country" v="DE"/>
    <tag k="addr:housenumber" v="10"/>
    <tag k="addr:postcode" v="83624"/>
    <tag k="addr:street" v="Berghamer Straße"/>
  </node>
  <node id="316014327" version="2" timestamp="2010-03-26T01:33:15Z" uid="163746" user="anti_bot-nonsense" changeset="4234506" lat="52.2978347" lon="16.7762485"/>
  <node id="316014328" version="2" timestamp="2010-03-26T01:31:38Z" uid="163746" user="anti_bot-nonsense" changeset="4234506" lat="52.2978537" lon="16.7768572"/>
  <node id="316014329" version="2" timestamp="2010-03-26T01:33:00Z" uid="163746" user="anti_bot-nonsense" changeset="4234506" lat="52.2975004" lon="16.7777158"/>
  <node id="316014330" version="2" timestamp="2010-03-26T01:33:19Z" uid="163746" user="anti_bot-nonsense" changeset="4234506" lat="52.2971853" lon="16.7781216"/>
  <node id="316014331" version="2" timestamp="2010-03-26T01:34:27Z" uid="163746" user="anti_bot-nonsense" changeset="4234506" lat="52.296746" lon="16.778746"/>
  <node id="316014332" version="2" timestamp="2010-03-26T01:32:38Z" uid="163746" user="anti_bot-nonsense" changeset="4234506" lat="52.296068" lon="16.7796358"/>
  <node id="316014333" version="2" timestamp="2010-03-26T01:33:53Z" uid="163746" user="anti_bot-nonsense" changeset="4234506" lat="52.2953231" lon="16.7805568"/>
  <node id="316014334" version="2" timestamp="2010-03-26T01:34:10Z" uid="163746" user="anti_bot-nonsense" changeset="4234506" lat="52.2948073" lon="16.7808222"/>
  <node id="316014335" version="2" timestamp="2010-03-26T01:35:16Z" uid="163746" user="anti_bot-nonsense" changeset="4234506" lat="52.2944254" lon="16.7814466"/>
  <node id="316014336" version="2" timestamp="2010-03-26T01:32:27Z" uid="163746" user="anti_bot-nonsense" changeset="4234506" lat="52.294368" lon="16.7808847"/>
  <node id="316014337" version="2" timestamp="2010-03-26T01:33:43Z" uid="163746" user="anti_bot-nonsense" changeset="4234506" lat="52.2941866" lon="16.7808847"/>
  <node id="316014338" version="2" timestamp="2010-03-26T01:34:02Z" uid="163746" user="anti_bot-nonsense" changeset="4234506" lat="52.2939383" lon="16.7811656"/>
  <node id="316014339" version="2" timestamp="2010-03-26T01:35:09Z" uid="163746" user="anti_bot-nonsense" changeset="4234506" lat="52.2938333" lon="16.7816027"/>
  <node id="316014340" version="2" timestamp="2010-03-26T01:33:27Z" uid="163746" user="anti_bot-nonsense" changeset="4234506" lat="52.2935563" lon="16.7818993"/>
  <node id="316014341" version="2" timestamp="2010-03-26T01:34:30Z" uid="163746" user="anti_bot-nonsense" changeset="4234506" lat="52.2933749" lon="16.7823676"/>
  <node id="316014342" version="2" timestamp="2010-03-26T01:34:50Z" uid="163746" user="anti_bot-nonsense" changeset="4234506" lat="52.2934035" lon="16.7816495"/>
  <node id="316014343" version="2" timestamp="2010-03-26T01:32:10Z" uid="163746" user="anti_bot-nonsense" changeset="4234506" lat="52.2934417" lon="16.7806661"/>
  <node id="316014344" version="2" timestamp="2010-03-26T01:34:35Z" uid="163746" user="anti_bot-nonsense" changeset="4234506" lat="52.2935849" lon="16.7798232"/>
  <node id="316014345" version="2" timestamp="2010-03-26T01:31:49Z" uid="163746" user="anti_bot-nonsense" changeset="4234506" lat="52.2939192" lon="16.7792924"/>
  <node id="316014346" version="2" timestamp="2010-03-26T01:32:14Z" uid="163746" user="anti_bot-nonsense" changeset="4234506" lat="52.2944826" lon="16.7788397"/>
  <node id="316014347" version="2" timestamp="2010-03-26T01:33:31Z" uid="163746" user="anti_bot-nonsense" changeset="4234506" lat="52.2950747" lon="16.7785587"/>
  <node id="316014348" version="2" timestamp="2010-03-26T01:31:27Z" uid="163746" user="anti_bot-nonsense" changeset="4234506" lat="52.2953803" lon="16.7779656"/>
  <node id="316014349" version="2" timestamp="2010-03-26T01:32:52Z" uid="163746" user="anti_bot-nonsense" changeset="4234506" lat="52.2953326" lon="16.7775909"/>
  <node id="316014350" version="2" timestamp="2010-03-26T01:33:11Z" uid="163746" user="anti_bot-nonsense" changeset="4234506" lat="52.2955236" lon="16.7772787"/>
  <node id="316014351" version="2" timestamp="2010-03-26T01:34:18Z" uid="163746" user="anti_bot-nonsense" changeset="4234506" lat="52.2962589" lon="16.7769353"/>
  <node id="316014352" version="2" timestamp="2010-03-26T01:32:56Z" uid="163746" user="anti_bot-nonsense" changeset="4234506" lat="52.2966791" lon="16.777107"/>
  <node id="316014353" version="2" timestamp="2010-03-26T01:34:05Z" uid="163746" user="anti_bot-nonsense" changeset="4234506" lat="52.297147" lon="16.7762016"/>
  <node id="316014354" version="2" timestamp="2010-03-26T01:34:22Z" uid="163746" user="anti_bot-nonsense" changeset="4234506" lat="52.2974335" lon="16.7760923"/>
  <node id="316014355" version="2" timestamp="2010-03-26T01:31:31Z" uid="163746" user="anti_bot-nonsense" changeset="4234506" lat="52.29178" lon="16.7865979"/>
  <node id="316014356" version="2" timestamp="2010-03-26T01:33:48Z" uid="163746" user="anti_bot-nonsense" changeset="4234506" lat="52.2914744" lon="16.7864107"/>
  <node id="316014357" version="2" timestamp="2010-03-26T01:34:55Z" uid="163746" user="anti_bot-nonsense" changeset="4234506" lat="52.2909587" lon="16.7864574"/>
  <node id="316014358" version="2" timestamp="2010-03-26T01:35:12Z" uid="163746" user="anti_bot-nonsense" changeset="4234506" lat="52.2913407" lon="16.7878312"/>
  <node id="316014359" version="2" timestamp="2010-03-26T01:32:31Z" uid="163746" user="anti_bot-nonsense" changeset="4234506" lat="52.2922098" lon="16.7882839"/>
  <node id="316014360" version="2" timestamp="2010-03-26T01:34:58Z" uid="163746" user="anti_bot-nonsense" changeset="4234506" lat="52.2920474" lon="16.7888302"/>
  <node id="316014361" version="2" timestamp="2010-03-26T01:32:18Z" uid="163746" user="anti_bot-nonsense" changeset="4234506" lat="52.2917131" lon="16.7894078"/>
  <node id="316014362" version="2" timestamp="2010-03-26T01:32:35Z" uid="163746" user="anti_bot-nonsense" changeset="4234506" lat="52.2917131" lon="16.7898449"/>
  <node id="316014363" version="2" timestamp="2010-03-26T01:33:52Z" uid="163746" user="anti_bot-nonsense" changeset="4234506" lat="52.2914935" lon="16.7903132"/>
  <node id="316014364" version="2" timestamp="2010-03-26T01:31:56Z" uid="163746" user="anti_bot-nonsense" changeset="4234506" lat="52.2912643" lon="16.7904537"/>
  <node id="316014365" version="2" timestamp="2010-03-26T01:33:14Z" uid="163746" user="anti_bot-nonsense" changeset="4234506" lat="52.290911" lon="16.7910156"/>
  <node id="316014366" version="2" timestamp="2010-03-26T01:33:35Z" uid="163746" user="anti_bot-nonsense" changeset="4234506" lat="52.2907295" lon="16.7913278"/>
  <node id="316014367" version="2" timestamp="2010-03-26T01:34:38Z" uid="163746" user="anti_bot-nonsense" changeset="4234506" lat="52.290634" lon="16.7912498"/>
  <node id="316014368" version="2" timestamp="2010-03-26T01:33:18Z" uid="163746" user="anti_bot-nonsense" changeset="4234506" lat="52.2904907" lon="16.7909064"/>
  <node id="316014369" version="2" timestamp="2010-03-26T01:34:26Z" uid="163746" user="anti_bot-nonsense" changeset="4234506" lat="52.2906722" lon="16.7902663"/>
  <node id="316014370" version="2" timestamp="2010-03-26T01:34:42Z" uid="163746" user="anti_bot-nonsense" changeset="4234506" lat="52.2912356" lon="16.7891736"/>
  <node id="316014371" version="2" timestamp="2010-03-26T01:32:02Z" uid="163746" user="anti_bot-nonsense" changeset="4234506" lat="52.2921524" lon="16.7882214"/>
  <node id="316014372" version="2" timestamp="2010-03-26T01:34:09Z" uid="163746" user="anti_bot-nonsense" changeset="4234506" lat="52.2889915" lon="16.7902195"/>
  <node id="316014373" version="2" timestamp="2010-03-26T01:35:15Z" uid="163746" user="anti_bot-nonsense" changeset="4234506" lat="52.2895071" lon="16.7913278"/>
  <node id="316014375" version="2" timestamp="2010-03-26T01:32:59Z" uid="163746" user="anti_bot-nonsense" changeset="4234506" lat="52.2895262" lon="16.7919366"/>
  <node id="316014376" version="2" timestamp="2010-03-26T01:31:20Z" uid="163746" user="anti_bot-nonsense" changeset="4234506" lat="52.289383" lon="16.7926078"/>
  <node id="316014377" version="2" timestamp="2010-03-26T01:32:40Z" uid="163746" user="anti_bot-nonsense" changeset="4234506" lat="52.2890583" lon="16.7932635"/>
  <node id="316014378" version="2" timestamp="2010-03-26T01:33:04Z" uid="163746" user="anti_bot-nonsense" changeset="4234506" lat="52.2887431" lon="16.7937474"/>
  <node id="316014379" version="2" timestamp="2010-03-26T01:34:13Z" uid="163746" user="anti_bot-nonsense" changeset="4234506" lat="52.2885807" lon="16.7944342"/>
  <node id="316014380" version="2" timestamp="2010-03-26T01:32:22Z" uid="163746" user="anti_bot-nonsense" changeset="4234506" lat="52.2883229" lon="16.7948714"/>
  <node id="316014381" version="2" timestamp="2010-03-26T01:33:37Z" uid="163746" user="anti_bot-nonsense" changeset="4234506" lat="52.2880842" lon="16.7952928"/>
  <node id="316014382" version="2" timestamp="2010-03-26T01:33:56Z" uid="163746" user="anti_bot-nonsense" changeset="4234506" lat="52.287855" lon="16.7956518"/>
  <node id="316014383" version="2" timestamp="2010-03-26T01:35:02Z" uid="163746" user="anti_bot-nonsense" changeset="4234506" lat="52.2874348" lon="16.7962138"/>
  <node id="316014384" version="2" timestamp="2010-03-26T01:33:41Z" uid="163746" user="anti_bot-nonsense" changeset="4234506" lat="52.2871769" lon="16.7967134"/>
  <node id="316014385" version="2" timestamp="2010-03-26T01:34:46Z" uid="163746" user="anti_bot-nonsense" changeset="4234506" lat="52.287005" lon="16.7974314"/>
  <node id="316014386" version="2" timestamp="2010-03-26T01:35:06Z" uid="163746" user="anti_bot-nonsense" changeset="4234506" lat="52.2865848" lon="16.7976187"/>
  <node id="316014387" version="2" timestamp="2010-03-26T01:32:25Z" uid="163746" user="anti_bot-nonsense" changeset="4234506" lat="52.2858591" lon="16.7979153"/>
  <node id="316014388" version="2" timestamp="2010-03-26T01:34:28Z" uid="163746" user="anti_bot-nonsense" changeset="4234506" lat="52.2858782" lon="16.7988988"/>
  <node id="316014389" version="2" timestamp="2010-03-26T01:31:42Z" uid="163746" user="anti_bot-nonsense" changeset="4234506" lat="52.2857254" lon="16.7990549"/>
  <node id="316014390" version="2" timestamp="2010-03-26T01:32:06Z" uid="163746" user="anti_bot-nonsense" changeset="4234506" lat="52.2857062" lon="16.7993202"/>
  <node id="316014391" version="2" timestamp="2010-03-26T01:33:24Z" uid="163746" user="anti_bot-nonsense" changeset="4234506" lat="52.2857826" lon="16.7994451"/>
  <node id="316014392" version="2" timestamp="2010-03-26T01:31:46Z" uid="163746" user="anti_bot-nonsense" changeset="4234506" lat="52.2857254" lon="16.7997261"/>
  <node id="316014393" version="2" timestamp="2010-03-26T01:33:08Z" uid="163746" user="anti_bot-nonsense" changeset="4234506" lat="52.2856012" lon="16.7998354"/>
  <node id="316014394" version="2" timestamp="2010-03-26T01:33:28Z" uid="163746" user="anti_bot-nonsense" changeset="4234506" lat="52.2855057" lon="16.800007"/>
  <node id="316014395" version="2" timestamp="2010-03-26T01:34:33Z" uid="163746" user="anti_bot-nonsense" changeset="4234506" lat="52.285267" lon="16.8002256"/>
  <node id="316014396" version="2" timestamp="2010-03-26T01:32:46Z" uid="163746" user="anti_bot-nonsense" changeset="4234506" lat="52.2847799" lon="16.8006939"/>
  <node id="316014397" version="2" timestamp="2010-03-26T01:33:59Z" uid="163746" user="anti_bot-nonsense" changeset="4234506" lat="52.2842738" lon="16.8013183"/>
  <node id="316014398" version="2" timestamp="2010-03-26T01:34:16Z" uid="163746" user="anti_bot-nonsense" changeset="4234506" lat="52.2839586" lon="16.8018023"/>
  <node id="316014399" version="2" timestamp="2010-03-26T01:31:24Z" uid="163746" user="anti_bot-nonsense" changeset="4234506" lat="52.2835671" lon="16.8016461"/>
  <node id="316014400" version="2" timestamp="2010-03-26T01:34:48Z" uid="163746" user="anti_bot-nonsense" changeset="4234506" lat="52.2831468" lon="16.8013183"/>
  <node id="316014401" version="2" timestamp="2010-03-26T01:32:07Z" uid="163746" user="anti_bot-nonsense" changeset="4234506" lat="52.2828222" lon="16.8003973"/>
  <node id="316014402" version="2" timestamp="2010-03-26T01:32:26Z" uid="163746" user="anti_bot-nonsense" changeset="4234506" lat="52.2841592" lon="16.7989456"/>
  <node id="316014403" version="2" timestamp="2010-03-26T01:33:42Z" uid="163746" user="anti_bot-nonsense" changeset="4234506" lat="52.2851142" lon="16.7982899"/>
  <node id="316014404" version="2" timestamp="2010-03-26T01:31:43Z" uid="163746" user="anti_bot-nonsense" changeset="4234506" lat="52.2853911" lon="16.7978373"/>
  <node id="316014405" version="2" timestamp="2010-03-26T01:33:06Z" uid="163746" user="anti_bot-nonsense" changeset="4234506" lat="52.2855248" lon="16.7971973"/>
  <node id="316014406" version="2" timestamp="2010-03-26T01:33:25Z" uid="163746" user="anti_bot-nonsense" changeset="4234506" lat="52.2858113" lon="16.7965728"/>
  <node id="316014407" version="2" timestamp="2010-03-26T01:34:29Z" uid="163746" user="anti_bot-nonsense" changeset="4234506" lat="52.2861264" lon="16.7964167"/>
  <node id="316014408" version="2" timestamp="2010-03-26T01:33:10Z" uid="163746" user="anti_bot-nonsense" changeset="4234506" lat="52.2861551" lon="16.7961982"/>
  <node id="316014409" version="2" timestamp="2010-03-26T01:34:18Z" uid="163746" user="anti_bot-nonsense" changeset="4234506" lat="52.2858782" lon="16.796167"/>
  <node id="316014410" version="2" timestamp="2010-03-26T01:34:34Z" uid="163746" user="anti_bot-nonsense" changeset="4234506" lat="52.2861169" lon="16.7956986"/>
  <node id="316014411" version="2" timestamp="2010-03-26T01:31:48Z" uid="163746" user="anti_bot-nonsense" changeset="4234506" lat="52.2865657" lon="16.7948557"/>
  <node id="316014412" version="2" timestamp="2010-03-26T01:34:00Z" uid="163746" user="anti_bot-nonsense" changeset="4234506" lat="52.2868713" lon="16.7946528"/>
  <node id="316014413" version="2" timestamp="2010-03-26T01:35:07Z" uid="163746" user="anti_bot-nonsense" changeset="4234506" lat="52.2871196" lon="16.7940753"/>
  <node id="316014414" version="2" timestamp="2010-03-26T01:31:26Z" uid="163746" user="anti_bot-nonsense" changeset="4234506" lat="52.2873965" lon="16.7938567"/>
  <node id="316014415" version="2" timestamp="2010-03-26T01:32:49Z" uid="163746" user="anti_bot-nonsense" changeset="4234506" lat="52.2874157" lon="16.7931698"/>
  <node id="316014416" version="2" timestamp="2010-03-26T01:35:12Z" uid="163746" user="anti_bot-nonsense" changeset="4234506" lat="52.2877213" lon="16.7929045"/>
  <node id="316014417" version="2" timestamp="2010-03-26T01:32:29Z" uid="163746" user="anti_bot-nonsense" changeset="4234506" lat="52.2887718" lon="16.7902819"/>
  <node id="316014419" version="2" timestamp="2010-03-26T01:34:03Z" uid="163746" user="anti_bot-nonsense" changeset="4234506" lat="52.287769" lon="16.811184"/>
  <node id="316014420" version="2" timestamp="2010-03-26T01:32:12Z" uid="163746" user="anti_bot-nonsense" changeset="4234506" lat="52.2866422" lon="16.8098414"/>
  <node id="316014421" version="2" timestamp="2010-03-26T01:33:30Z" uid="163746" user="anti_bot-nonsense" changeset="4234506" lat="52.2859545" lon="16.8089673"/>
  <node id="316014422" version="2" timestamp="2010-03-26T01:33:46Z" uid="163746" user="anti_bot-nonsense" changeset="4234506" lat="52.2847799" lon="16.8058453"/>
  <node id="316014423" version="2" timestamp="2010-03-26T01:34:53Z" uid="163746" user="anti_bot-nonsense" changeset="4234506" lat="52.2839491" lon="16.8039252"/>
  <node id="316014424" version="2" timestamp="2010-03-26T01:33:33Z" uid="163746" user="anti_bot-nonsense" changeset="4234506" lat="52.2831755" lon="16.8035506"/>
  <node id="316014425" version="2" timestamp="2010-03-26T01:34:37Z" uid="163746" user="anti_bot-nonsense" changeset="4234506" lat="52.2837772" lon="16.8018647"/>
  <node id="316014426" version="2" timestamp="2010-03-26T01:34:56Z" uid="163746" user="anti_bot-nonsense" changeset="4234506" lat="52.2828222" lon="16.8034413"/>
  <node id="316014427" version="2" timestamp="2010-03-26T01:32:16Z" uid="163746" user="anti_bot-nonsense" changeset="4234506" lat="52.2820869" lon="16.8038004"/>
  <node id="316014428" version="2" timestamp="2010-03-26T01:34:21Z" uid="163746" user="anti_bot-nonsense" changeset="4234506" lat="52.281084" lon="16.8044872"/>
  <node id="316014429" version="2" timestamp="2010-03-26T01:31:29Z" uid="163746" user="anti_bot-nonsense" changeset="4234506" lat="52.2796038" lon="16.8062823"/>
  <node id="316014430" version="2" timestamp="2010-03-26T01:31:52Z" uid="163746" user="anti_bot-nonsense" changeset="4234506" lat="52.2792601" lon="16.8067663"/>
  <node id="316014431" version="2" timestamp="2010-03-26T01:33:13Z" uid="163746" user="anti_bot-nonsense" changeset="4234506" lat="52.2789545" lon="16.8074219"/>
  <node id="316014432" version="2" timestamp="2010-03-26T01:31:35Z" uid="163746" user="anti_bot-nonsense" changeset="4234506" lat="52.278391" lon="16.8091546"/>
  <node id="316014433" version="2" timestamp="2010-03-26T01:32:59Z" uid="163746" user="anti_bot-nonsense" changeset="4234506" lat="52.2776938" lon="16.8111059"/>
  <node id="316014434" version="2" timestamp="2010-03-26T01:33:18Z" uid="163746" user="anti_bot-nonsense" changeset="4234506" lat="52.2768917" lon="16.8126513"/>
  <node id="316014435" version="2" timestamp="2010-03-26T01:34:24Z" uid="163746" user="anti_bot-nonsense" changeset="4234506" lat="52.2768758" lon="16.8131059"/>
  <node id="316014488" version="3" timestamp="2009-10-02T19:46:49Z" uid="86259" user="hasse_osm_korinthenkacker" changeset="2716821" lat="47.9080492" lon="11.6660371">
    <tag k="addr:city" v="Otterfing"/>
    <tag k="addr:country" v="DE"/>
    <tag k="addr:housenumber" v="10"/>
    <tag k="addr:postcode" v="83624"/>
    <tag k="addr:street" v="Bergham"/>
  </node>
  <node id="316014488" version="4" timestamp="2011-01-16T08:50:21Z" uid="42393" user="mawi42" changeset="6984812" lat="47.9079845" lon="11.6660371">
    <tag k="addr:city" v="Otterfing"/>
    <tag k="addr:country" v="DE"/>
    <tag k="addr:housenumber" v="10"/>
    <tag k="addr:postcode" v="83624"/>
    <tag k="addr:street" v="Bergham"/>
  </node>
  <node id="316014488" version="5" timestamp="2011-08-14T17:28:11Z" uid="505348" user="CTSL" changeset="9018609" lat="47.9079845" lon="11.6660371">
    <tag k="addr:city" v="Otterfing"/>
    <tag k="addr:country" v="DE"/>
    <tag k="addr:housenumber" v="37"/>
    <tag k="addr:old housenumber" v="10"/>
    <tag k="addr:postcode" v="83624"/>
    <tag k="addr:street" v="Bergham"/>
  </node>
  <node id="316014488" version="6" timestamp="2011-10-02T10:06:18Z" uid="92274" user="adjuva" changeset="9448586" lat="47.9079845" lon="11.6660371">
    <tag k="addr:city" v="Otterfing"/>
    <tag k="addr:country" v="DE"/>
    <tag k="addr:housenumber" v="37"/>
    <tag k="addr:old_housenumber" v="10"/>
    <tag k="addr:postcode" v="83624"/>
    <tag k="addr:street" v="Bergham"/>
  </node>
  <node id="316014558" version="3" timestamp="2009-10-02T19:46:50Z" uid="86259" user="hasse_osm_korinthenkacker" changeset="2716821" lat="47.9080664" lon="11.6661573">
    <tag k="addr:city" v="Otterfing"/>
    <tag k="addr:country" v="DE"/>
    <tag k="addr:housenumber" v="10a"/>
    <tag k="addr:postcode" v="83624"/>
    <tag k="addr:street" v="Bergham"/>
  </node>
  <node id="316014558" version="4" timestamp="2011-01-16T08:50:22Z" uid="42393" user="mawi42" changeset="6984812" lat="47.9080146" lon="11.6661712">
    <tag k="addr:city" v="Otterfing"/>
    <tag k="addr:country" v="DE"/>
    <tag k="addr:housenumber" v="10a"/>
    <tag k="addr:postcode" v="83624"/>
    <tag k="addr:street" v="Bergham"/>
  </node>
  <node id="316014558" version="5" timestamp="2011-08-14T17:28:11Z" uid="505348" user="CTSL" changeset="9018609" lat="47.9080146" lon="11.6661712">
    <tag k="addr:city" v="Otterfing"/>
    <tag k="addr:country" v="DE"/>
    <tag k="addr:housenumber" v="35"/>
    <tag k="addr:old housenumber" v="10a"/>
    <tag k="addr:postcode" v="83624"/>
    <tag k="addr:street" v="Bergham"/>
  </node>
  <node id="316014558" version="6" timestamp="2011-10-02T10:06:17Z" uid="92274" user="adjuva" changeset="9448586" lat="47.9080146" lon="11.6661712">
    <tag k="addr:city" v="Otterfing"/>
    <tag k="addr:country" v="DE"/>
    <tag k="addr:housenumber" v="35"/>
    <tag k="addr:old_housenumber" v="10a"/>
    <tag k="addr:postcode" v="83624"/>
    <tag k="addr:street" v="Bergham"/>
  </node>
  <node id="316014566" version="5" timestamp="2009-10-02T19:46:51Z" uid="86259" user="hasse_osm_korinthenkacker" changeset="2716821" lat="47.9081198" lon="11.6668286">
    <tag k="addr:city" v="Otterfing"/>
    <tag k="addr:country" v="DE"/>
    <tag k="addr:housenumber" v="8b"/>
    <tag k="addr:postcode" v="83624"/>
    <tag k="addr:street" v="Bergham"/>
  </node>
  <node id="316014566" version="6" timestamp="2011-08-14T17:28:12Z" uid="505348" user="CTSL" changeset="9018609" lat="47.9081198" lon="11.6668286">
    <tag k="addr:city" v="Otterfing"/>
    <tag k="addr:country" v="DE"/>
    <tag k="addr:housenumber" v="31"/>
    <tag k="addr:old housenumber" v="8b"/>
    <tag k="addr:postcode" v="83624"/>
    <tag k="addr:street" v="Bergham"/>
  </node>
  <node id="316014566" version="7" timestamp="2011-10-02T10:06:17Z" uid="92274" user="adjuva" changeset="9448586" lat="47.9081198" lon="11.6668286">
    <tag k="addr:city" v="Otterfing"/>
    <tag k="addr:country" v="DE"/>
    <tag k="addr:housenumber" v="31"/>
    <tag k="addr:old_housenumber" v="8b"/>
    <tag k="addr:postcode" v="83624"/>
    <tag k="addr:street" v="Bergham"/>
  </node>
  <node id="316014650" version="2" timestamp="2009-01-06T10:41:30Z" uid="9581" user="Lobelt" changeset="743811" lat="51.719831" lon="14.3731913"/>
  <node id="316014650" version="3" timestamp="2009-03-08T18:05:38Z" uid="99378" user="Mittagsgast" changeset="762992" lat="51.7198311" lon="14.3731912"/>
  <node id="316014650" version="4" timestamp="2011-08-30T20:39:40Z" uid="235372" user="miraculixOSM" changeset="9171281" lat="51.7198311" lon="14.3731912"/>
  <node id="316014692" version="2" timestamp="2009-01-06T10:42:05Z" uid="9581" user="Lobelt" changeset="743811" lat="51.719831" lon="14.3731913"/>
  <node id="316014695" version="2" timestamp="2009-01-06T10:41:30Z" uid="9581" user="Lobelt" changeset="743811" lat="51.7197996" lon="14.373191"/>
  <node id="316014695" version="3" timestamp="2009-03-08T18:05:32Z" uid="99378" user="Mittagsgast" changeset="762992" lat="51.7197995" lon="14.3731911"/>
  <node id="316014695" version="4" timestamp="2011-08-30T20:39:41Z" uid="235372" user="miraculixOSM" changeset="9171281" lat="51.7197995" lon="14.3731911"/>
  <node id="316014848" version="2" timestamp="2010-03-26T01:34:11Z" uid="163746" user="anti_bot-nonsense" changeset="4234506" lat="52.2856189" lon="16.7584311"/>
  <node id="316014849" version="2" timestamp="2010-03-26T01:31:17Z" uid="163746" user="anti_bot-nonsense" changeset="4234506" lat="52.2882203" lon="16.756297"/>
  <node id="316014850" version="2" timestamp="2010-03-26T01:31:39Z" uid="163746" user="anti_bot-nonsense" changeset="4234506" lat="52.2922942" lon="16.7530236"/>
  <node id="316014852" version="2" timestamp="2010-03-26T01:35:00Z" uid="163746" user="anti_bot-nonsense" changeset="4234506" lat="52.2758278" lon="16.7764324"/>
  <node id="316014853" version="2" timestamp="2010-03-26T01:32:20Z" uid="163746" user="anti_bot-nonsense" changeset="4234506" lat="52.2792166" lon="16.7890891"/>
  <node id="316014854" version="2" timestamp="2010-03-26T01:32:38Z" uid="163746" user="anti_bot-nonsense" changeset="4234506" lat="52.2792462" lon="16.789194"/>
  <node id="316014855" version="2" timestamp="2010-03-26T01:33:55Z" uid="163746" user="anti_bot-nonsense" changeset="4234506" lat="52.2804072" lon="16.7932951"/>
  <node id="316014856" version="2" timestamp="2010-03-26T01:32:24Z" uid="163746" user="anti_bot-nonsense" changeset="4234506" lat="52.2815777" lon="16.7967917"/>
  <node id="316014857" version="2" timestamp="2010-03-26T01:33:39Z" uid="163746" user="anti_bot-nonsense" changeset="4234506" lat="52.2818906" lon="16.798738"/>
  <node id="316014858" version="2" timestamp="2010-03-26T01:33:58Z" uid="163746" user="anti_bot-nonsense" changeset="4234506" lat="52.2825464" lon="16.8016905"/>
  <node id="316014859" version="2" timestamp="2010-03-26T01:35:03Z" uid="163746" user="anti_bot-nonsense" changeset="4234506" lat="52.2830903" lon="16.8035242"/>
  <node id="316014860" version="2" timestamp="2010-03-26T01:33:20Z" uid="163746" user="anti_bot-nonsense" changeset="4234506" lat="52.277259" lon="16.7902932"/>
  <node id="316014861" version="2" timestamp="2010-03-26T01:34:27Z" uid="163746" user="anti_bot-nonsense" changeset="4234506" lat="52.2742217" lon="16.792091"/>
  <node id="316014862" version="2" timestamp="2010-03-26T01:34:44Z" uid="163746" user="anti_bot-nonsense" changeset="4234506" lat="52.2723348" lon="16.7931631"/>
  <node id="316014863" version="2" timestamp="2010-03-26T01:32:04Z" uid="163746" user="anti_bot-nonsense" changeset="4234506" lat="52.2748373" lon="16.7811721"/>
  <node id="316014869" version="2" timestamp="2010-03-26T01:32:43Z" uid="163746" user="anti_bot-nonsense" changeset="4234506" lat="52.2696897" lon="16.8015015"/>
  <node id="316014870" version="2" timestamp="2010-03-26T01:33:06Z" uid="163746" user="anti_bot-nonsense" changeset="4234506" lat="52.2704469" lon="16.7995565"/>
  <node id="316014870" version="3" timestamp="2011-04-06T06:15:28Z" uid="345946" user="sasza" changeset="7781467" lat="52.2703755" lon="16.7996148"/>
  <node id="316014871" version="2" timestamp="2010-03-26T01:34:15Z" uid="163746" user="anti_bot-nonsense" changeset="4234506" lat="52.2719614" lon="16.7952245"/>
  <node id="316015085" version="2" timestamp="2010-03-26T01:32:57Z" uid="163746" user="anti_bot-nonsense" changeset="4234506" lat="52.2623574" lon="16.7489822"/>
  <node id="316015086" version="2" timestamp="2010-03-26T01:33:14Z" uid="163746" user="anti_bot-nonsense" changeset="4234506" lat="52.2629321" lon="16.7491625"/>
  <node id="316015087" version="2" timestamp="2010-03-26T01:34:23Z" uid="163746" user="anti_bot-nonsense" changeset="4234506" lat="52.2638203" lon="16.7494093"/>
  <node id="316015101" version="2" timestamp="2010-03-26T01:33:19Z" uid="163746" user="anti_bot-nonsense" changeset="4234506" lat="52.264575" lon="16.749637"/>
  <node id="316015102" version="2" timestamp="2010-03-26T01:33:38Z" uid="163746" user="anti_bot-nonsense" changeset="4234506" lat="52.2653526" lon="16.7498755"/>
  <node id="316015103" version="2" timestamp="2010-03-26T01:34:43Z" uid="163746" user="anti_bot-nonsense" changeset="4234506" lat="52.2659332" lon="16.7502964"/>
  <node id="316015104" version="2" timestamp="2010-03-26T01:33:09Z" uid="163746" user="anti_bot-nonsense" changeset="4234506" lat="52.2671466" lon="16.7512311"/>
  <node id="316015105" version="2" timestamp="2010-03-26T01:34:17Z" uid="163746" user="anti_bot-nonsense" changeset="4234506" lat="52.2681505" lon="16.7520016"/>
  <node id="316015106" version="2" timestamp="2010-03-26T01:34:33Z" uid="163746" user="anti_bot-nonsense" changeset="4234506" lat="52.2684168" lon="16.7522798"/>
  <node id="316015107" version="2" timestamp="2010-03-26T01:31:47Z" uid="163746" user="anti_bot-nonsense" changeset="4234506" lat="52.268526" lon="16.752658"/>
  <node id="316015108" version="2" timestamp="2010-03-26T01:34:00Z" uid="163746" user="anti_bot-nonsense" changeset="4234506" lat="52.2686394" lon="16.7529933"/>
  <node id="316015109" version="2" timestamp="2010-03-26T01:35:07Z" uid="163746" user="anti_bot-nonsense" changeset="4234506" lat="52.2688708" lon="16.7532145"/>
  <node id="316015110" version="2" timestamp="2010-03-26T01:31:25Z" uid="163746" user="anti_bot-nonsense" changeset="4234506" lat="52.2696957" lon="16.7534214"/>
  <node id="316015111" version="2" timestamp="2010-03-26T01:32:47Z" uid="163746" user="anti_bot-nonsense" changeset="4234506" lat="52.2699096" lon="16.7534214"/>
  <node id="316015112" version="2" timestamp="2010-03-26T01:35:11Z" uid="163746" user="anti_bot-nonsense" changeset="4234506" lat="52.2701976" lon="16.7535783"/>
  <node id="316015113" version="2" timestamp="2010-03-26T01:32:28Z" uid="163746" user="anti_bot-nonsense" changeset="4234506" lat="52.2705294" lon="16.753878"/>
  <node id="316015114" version="2" timestamp="2010-03-26T01:32:54Z" uid="163746" user="anti_bot-nonsense" changeset="4234506" lat="52.2707957" lon="16.7539921"/>
  <node id="316015115" version="2" timestamp="2010-03-26T01:34:03Z" uid="163746" user="anti_bot-nonsense" changeset="4234506" lat="52.2712016" lon="16.7543275"/>
  <node id="316015116" version="2" timestamp="2010-03-26T01:32:11Z" uid="163746" user="anti_bot-nonsense" changeset="4234506" lat="52.2720003" lon="16.7549483"/>
  <node id="316015117" version="2" timestamp="2010-03-26T01:33:29Z" uid="163746" user="anti_bot-nonsense" changeset="4234506" lat="52.2727337" lon="16.7554905"/>
  <node id="316015118" version="2" timestamp="2010-03-26T01:33:45Z" uid="163746" user="anti_bot-nonsense" changeset="4234506" lat="52.273755" lon="16.7563681"/>
  <node id="316015119" version="2" timestamp="2010-03-26T01:34:53Z" uid="163746" user="anti_bot-nonsense" changeset="4234506" lat="52.2741915" lon="16.7568532"/>
  <node id="316015120" version="2" timestamp="2010-03-26T01:33:32Z" uid="163746" user="anti_bot-nonsense" changeset="4234506" lat="52.2747371" lon="16.7575952"/>
  <node id="316015125" version="2" timestamp="2010-03-26T01:31:29Z" uid="163746" user="anti_bot-nonsense" changeset="4234506" lat="52.2749903" lon="16.7579734"/>
  <node id="316015126" version="2" timestamp="2010-03-26T01:31:51Z" uid="163746" user="anti_bot-nonsense" changeset="4234506" lat="52.2753089" lon="16.7586012"/>
  <node id="316015290" version="2" timestamp="2009-01-06T10:41:31Z" uid="9581" user="Lobelt" changeset="743811" lat="51.7198539" lon="14.3751758"/>
  <node id="316015290" version="3" timestamp="2010-09-18T20:41:15Z" uid="235372" user="miraculixOSM" changeset="5814957" lat="51.7198545" lon="14.3751743"/>
  <node id="316015290" version="4" timestamp="2011-08-30T20:39:41Z" uid="235372" user="miraculixOSM" changeset="9171281" lat="51.7198545" lon="14.3751743"/>
  <node id="316015291" version="2" timestamp="2009-01-06T10:42:05Z" uid="9581" user="Lobelt" changeset="743811" lat="51.7197406" lon="14.375131"/>
  <node id="316015321" version="2" timestamp="2009-01-06T10:41:31Z" uid="9581" user="Lobelt" changeset="743811" lat="51.7197406" lon="14.375131"/>
  <node id="316015321" version="3" timestamp="2010-09-18T20:41:15Z" uid="235372" user="miraculixOSM" changeset="5814957" lat="51.7197394" lon="14.3751283"/>
  <node id="316015321" version="4" timestamp="2011-08-30T20:39:41Z" uid="235372" user="miraculixOSM" changeset="9171281" lat="51.7197394" lon="14.3751283"/>
  <node id="316015324" version="2" timestamp="2009-01-06T10:41:31Z" uid="9581" user="Lobelt" changeset="743811" lat="51.7197779" lon="14.3748392"/>
  <node id="316015324" version="3" timestamp="2009-03-08T18:06:04Z" uid="99378" user="Mittagsgast" changeset="762992" lat="51.7197777" lon="14.3748402"/>
  <node id="316015324" version="4" timestamp="2010-09-18T20:41:17Z" uid="235372" user="miraculixOSM" changeset="5814957" lat="51.7197778" lon="14.3748414"/>
  <node id="316015324" version="5" timestamp="2011-08-30T20:39:41Z" uid="235372" user="miraculixOSM" changeset="9171281" lat="51.7197778" lon="14.3748414"/>
  <node id="316015531" version="2" timestamp="2010-03-26T01:31:36Z" uid="163746" user="anti_bot-nonsense" changeset="4234506" lat="52.2551417" lon="16.8253208"/>
  <node id="316015532" version="2" timestamp="2010-03-26T01:33:50Z" uid="163746" user="anti_bot-nonsense" changeset="4234506" lat="52.2552152" lon="16.8235957"/>
  <node id="316015533" version="2" timestamp="2010-03-26T01:34:57Z" uid="163746" user="anti_bot-nonsense" changeset="4234506" lat="52.2553522" lon="16.8216795"/>
  <node id="316015534" version="2" timestamp="2010-03-26T01:35:14Z" uid="163746" user="anti_bot-nonsense" changeset="4234506" lat="52.2554424" lon="16.8200963"/>
  <node id="316015535" version="2" timestamp="2010-03-26T01:32:35Z" uid="163746" user="anti_bot-nonsense" changeset="4234506" lat="52.2555259" lon="16.8184149"/>
  <node id="316015536" version="2" timestamp="2010-03-26T01:35:01Z" uid="163746" user="anti_bot-nonsense" changeset="4234506" lat="52.2555927" lon="16.8169736"/>
  <node id="316015537" version="2" timestamp="2010-03-26T01:32:22Z" uid="163746" user="anti_bot-nonsense" changeset="4234506" lat="52.2556661" lon="16.8152102"/>
  <node id="316015538" version="2" timestamp="2010-03-26T01:32:40Z" uid="163746" user="anti_bot-nonsense" changeset="4234506" lat="52.2556995" lon="16.8138454"/>
  <node id="316015539" version="2" timestamp="2010-03-26T01:33:55Z" uid="163746" user="anti_bot-nonsense" changeset="4234506" lat="52.255469" lon="16.8118964"/>
  <node id="316015540" version="2" timestamp="2010-03-26T01:32:00Z" uid="163746" user="anti_bot-nonsense" changeset="4234506" lat="52.2553588" lon="16.810548"/>
  <node id="316015541" version="2" timestamp="2010-03-26T01:33:18Z" uid="163746" user="anti_bot-nonsense" changeset="4234506" lat="52.2550582" lon="16.8075945"/>
  <node id="316015542" version="2" timestamp="2010-03-26T01:33:37Z" uid="163746" user="anti_bot-nonsense" changeset="4234506" lat="52.2550148" lon="16.8070977"/>
  <node id="316015562" version="2" timestamp="2010-03-26T01:32:06Z" uid="163746" user="anti_bot-nonsense" changeset="4234506" lat="52.2588023" lon="16.7831478"/>
  <node id="316015563" version="2" timestamp="2010-03-26T01:33:24Z" uid="163746" user="anti_bot-nonsense" changeset="4234506" lat="52.258819" lon="16.7826019"/>
  <node id="316015564" version="2" timestamp="2010-03-26T01:31:20Z" uid="163746" user="anti_bot-nonsense" changeset="4234506" lat="52.2584516" lon="16.7793318"/>
  <node id="316015565" version="2" timestamp="2010-03-26T01:32:41Z" uid="163746" user="anti_bot-nonsense" changeset="4234506" lat="52.2582044" lon="16.7774101"/>
  <node id="316015566" version="2" timestamp="2010-03-26T01:33:04Z" uid="163746" user="anti_bot-nonsense" changeset="4234506" lat="52.2580107" lon="16.7762255"/>
  <node id="316015567" version="2" timestamp="2010-03-26T01:34:13Z" uid="163746" user="anti_bot-nonsense" changeset="4234506" lat="52.2575131" lon="16.7748879"/>
  <node id="316015568" version="2" timestamp="2010-03-26T01:32:46Z" uid="163746" user="anti_bot-nonsense" changeset="4234506" lat="52.2573695" lon="16.7744894"/>
  <node id="316015569" version="2" timestamp="2010-03-26T01:33:59Z" uid="163746" user="anti_bot-nonsense" changeset="4234506" lat="52.2573327" lon="16.7740691"/>
  <node id="316015570" version="2" timestamp="2010-03-26T01:34:17Z" uid="163746" user="anti_bot-nonsense" changeset="4234506" lat="52.2573094" lon="16.7733538"/>
  <node id="316015571" version="2" timestamp="2010-03-26T01:31:25Z" uid="163746" user="anti_bot-nonsense" changeset="4234506" lat="52.2573794" lon="16.7718908"/>
  <node id="316015572" version="2" timestamp="2010-03-26T01:33:41Z" uid="163746" user="anti_bot-nonsense" changeset="4234506" lat="52.2575164" lon="16.7704877"/>
  <node id="316015573" version="2" timestamp="2010-03-26T01:34:47Z" uid="163746" user="anti_bot-nonsense" changeset="4234506" lat="52.2577268" lon="16.7698763"/>
  <node id="316015574" version="2" timestamp="2010-03-26T01:35:06Z" uid="163746" user="anti_bot-nonsense" changeset="4234506" lat="52.2585651" lon="16.7684405"/>
  <node id="316015575" version="2" timestamp="2010-03-26T01:32:25Z" uid="163746" user="anti_bot-nonsense" changeset="4234506" lat="52.2584382" lon="16.7679055"/>
  <node id="316015576" version="2" timestamp="2010-03-26T01:34:52Z" uid="163746" user="anti_bot-nonsense" changeset="4234506" lat="52.2583781" lon="16.7674578"/>
  <node id="316015577" version="2" timestamp="2010-03-26T01:32:11Z" uid="163746" user="anti_bot-nonsense" changeset="4234506" lat="52.2585952" lon="16.7669119"/>
  <node id="316015578" version="2" timestamp="2010-03-26T01:32:28Z" uid="163746" user="anti_bot-nonsense" changeset="4234506" lat="52.258996" lon="16.7661695"/>
  <node id="316015579" version="2" timestamp="2010-03-26T01:33:45Z" uid="163746" user="anti_bot-nonsense" changeset="4234506" lat="52.2600213" lon="16.7642477"/>
  <node id="316015580" version="2" timestamp="2010-03-26T01:31:47Z" uid="163746" user="anti_bot-nonsense" changeset="4234506" lat="52.2609064" lon="16.7625281"/>
  <node id="316015581" version="2" timestamp="2010-03-26T01:33:08Z" uid="163746" user="anti_bot-nonsense" changeset="4234506" lat="52.2615877" lon="16.7611905"/>
  <node id="316015582" version="2" timestamp="2010-03-26T01:33:29Z" uid="163746" user="anti_bot-nonsense" changeset="4234506" lat="52.2628168" lon="16.7587558"/>
  <node id="316015601" version="2" timestamp="2010-03-26T01:34:40Z" uid="163746" user="anti_bot-nonsense" changeset="4234506" lat="52.2634179" lon="16.7581115"/>
  <node id="316015602" version="2" timestamp="2010-03-26T01:34:59Z" uid="163746" user="anti_bot-nonsense" changeset="4234506" lat="52.2636985" lon="16.7562827"/>
  <node id="316015603" version="2" timestamp="2010-03-26T01:32:20Z" uid="163746" user="anti_bot-nonsense" changeset="4234506" lat="52.263949" lon="16.7552891"/>
  <node id="316015604" version="2" timestamp="2010-03-26T01:34:23Z" uid="163746" user="anti_bot-nonsense" changeset="4234506" lat="52.2639924" lon="16.7549178"/>
  <node id="316015605" version="2" timestamp="2010-03-26T01:31:32Z" uid="163746" user="anti_bot-nonsense" changeset="4234506" lat="52.2644667" lon="16.7531218"/>
  <node id="316015606" version="2" timestamp="2010-03-26T01:31:58Z" uid="163746" user="anti_bot-nonsense" changeset="4234506" lat="52.2645668" lon="16.752483"/>
  <node id="316015607" version="2" timestamp="2010-03-26T01:33:16Z" uid="163746" user="anti_bot-nonsense" changeset="4234506" lat="52.2653818" lon="16.7500536"/>
  <node id="316015608" version="2" timestamp="2010-03-26T01:31:39Z" uid="163746" user="anti_bot-nonsense" changeset="4234506" lat="52.2653969" lon="16.7499076"/>
  <node id="316015609" version="2" timestamp="2010-03-26T01:33:01Z" uid="163746" user="anti_bot-nonsense" changeset="4234506" lat="52.2657424" lon="16.7472764"/>
  <node id="316015610" version="2" timestamp="2010-03-26T01:33:20Z" uid="163746" user="anti_bot-nonsense" changeset="4234506" lat="52.2659045" lon="16.7464868"/>
  <node id="316015611" version="2" timestamp="2010-03-26T01:34:27Z" uid="163746" user="anti_bot-nonsense" changeset="4234506" lat="52.2662185" lon="16.7436669"/>
  <node id="316015612" version="2" timestamp="2010-03-26T01:32:38Z" uid="163746" user="anti_bot-nonsense" changeset="4234506" lat="52.2664255" lon="16.7425108"/>
  <node id="316015613" version="2" timestamp="2010-03-26T01:33:54Z" uid="163746" user="anti_bot-nonsense" changeset="4234506" lat="52.2665739" lon="16.7414222"/>
  <node id="316015614" version="2" timestamp="2010-03-26T01:34:11Z" uid="163746" user="anti_bot-nonsense" changeset="4234506" lat="52.2666843" lon="16.7402322"/>
  <node id="316015615" version="2" timestamp="2010-03-26T01:31:17Z" uid="163746" user="anti_bot-nonsense" changeset="4234506" lat="52.2666774" lon="16.7372319"/>
  <node id="316015616" version="2" timestamp="2010-03-26T01:35:12Z" uid="163746" user="anti_bot-nonsense" changeset="4234506" lat="52.2671133" lon="16.7314944"/>
  <node id="316015617" version="2" timestamp="2010-03-26T01:32:30Z" uid="163746" user="anti_bot-nonsense" changeset="4234506" lat="52.2673119" lon="16.7307424"/>
  <node id="316015618" version="2" timestamp="2010-03-26T01:32:55Z" uid="163746" user="anti_bot-nonsense" changeset="4234506" lat="52.2676099" lon="16.7297255"/>
  <node id="316015619" version="2" timestamp="2010-03-26T01:34:04Z" uid="163746" user="anti_bot-nonsense" changeset="4234506" lat="52.2683654" lon="16.7271578"/>
  <node id="316015620" version="2" timestamp="2010-03-26T01:32:13Z" uid="163746" user="anti_bot-nonsense" changeset="4234506" lat="52.2690214" lon="16.7248892"/>
  <node id="316015621" version="2" timestamp="2010-03-26T01:33:31Z" uid="163746" user="anti_bot-nonsense" changeset="4234506" lat="52.2698839" lon="16.7219753"/>
  <node id="316015622" version="2" timestamp="2010-03-26T01:33:47Z" uid="163746" user="anti_bot-nonsense" changeset="4234506" lat="52.2705374" lon="16.7199374"/>
  <node id="316015623" version="2" timestamp="2010-03-26T01:34:54Z" uid="163746" user="anti_bot-nonsense" changeset="4234506" lat="52.2707648" lon="16.7194973"/>
  <node id="316015624" version="2" timestamp="2010-03-26T01:33:34Z" uid="163746" user="anti_bot-nonsense" changeset="4234506" lat="52.2714339" lon="16.7184505"/>
  <node id="316015625" version="2" timestamp="2010-03-26T01:34:38Z" uid="163746" user="anti_bot-nonsense" changeset="4234506" lat="52.2722546" lon="16.7171261"/>
  <node id="316015626" version="2" timestamp="2010-03-26T01:34:57Z" uid="163746" user="anti_bot-nonsense" changeset="4234506" lat="52.2729002" lon="16.7160878"/>
  <node id="316015675" version="4" timestamp="2009-01-06T10:42:04Z" uid="9581" user="Lobelt" changeset="743811" lat="51.7197725" lon="14.3748478"/>
  <node id="316015831" version="1" timestamp="2008-12-01T08:59:22Z" uid="1066" user="pavel" changeset="15337" lat="49.9118922" lon="14.7168827"/>
  <node id="316015832" version="1" timestamp="2008-12-01T08:59:22Z" uid="1066" user="pavel" changeset="15337" lat="49.9121281" lon="14.7154357"/>
  <node id="316015833" version="1" timestamp="2008-12-01T08:59:22Z" uid="1066" user="pavel" changeset="15337" lat="49.9123286" lon="14.7141536"/>
  <node id="316015834" version="1" timestamp="2008-12-01T08:59:22Z" uid="1066" user="pavel" changeset="15337" lat="49.9122225" lon="14.7135492"/>
  <node id="316015835" version="1" timestamp="2008-12-01T08:59:23Z" uid="1066" user="pavel" changeset="15337" lat="49.9122225" lon="14.7132195"/>
  <node id="316015836" version="1" timestamp="2008-12-01T08:59:23Z" uid="1066" user="pavel" changeset="15337" lat="49.9119512" lon="14.7129814"/>
  <node id="316015837" version="1" timestamp="2008-12-01T08:59:23Z" uid="1066" user="pavel" changeset="15337" lat="49.9116092" lon="14.7127433"/>
  <node id="316015838" version="1" timestamp="2008-12-01T08:59:23Z" uid="1066" user="pavel" changeset="15337" lat="49.9112907" lon="14.7128349"/>
  <node id="316015838" version="2" timestamp="2009-12-26T22:18:27Z" uid="84326" user="Mike Crash" changeset="3458853" lat="49.9112907" lon="14.7128349"/>
  <node id="316015839" version="1" timestamp="2008-12-01T08:59:23Z" uid="1066" user="pavel" changeset="15337" lat="49.9107835" lon="14.7140621"/>
  <node id="316015840" version="1" timestamp="2008-12-01T08:59:23Z" uid="1066" user="pavel" changeset="15337" lat="49.9109251" lon="14.7139155"/>
  <node id="316015841" version="1" timestamp="2008-12-01T08:59:23Z" uid="1066" user="pavel" changeset="15337" lat="49.9113733" lon="14.7137507"/>
  <node id="316015842" version="1" timestamp="2008-12-01T08:59:24Z" uid="1066" user="pavel" changeset="15337" lat="49.911503" lon="14.7145566"/>
  <node id="316015843" version="1" timestamp="2008-12-01T08:59:24Z" uid="1066" user="pavel" changeset="15337" lat="49.9116917" lon="14.714465"/>
  <node id="316015844" version="1" timestamp="2008-12-01T08:59:24Z" uid="1066" user="pavel" changeset="15337" lat="49.9113969" lon="14.7169376"/>
  <node id="316015845" version="1" timestamp="2008-12-01T08:59:24Z" uid="1066" user="pavel" changeset="15337" lat="49.9112907" lon="14.7177801"/>
  <node id="316015846" version="1" timestamp="2008-12-01T08:59:24Z" uid="1066" user="pavel" changeset="15337" lat="49.9089435" lon="14.7137873"/>
  <node id="316015847" version="1" timestamp="2008-12-01T08:59:24Z" uid="1066" user="pavel" changeset="15337" lat="49.9091204" lon="14.7135492"/>
  <node id="316015848" version="1" timestamp="2008-12-01T08:59:24Z" uid="1066" user="pavel" changeset="15337" lat="49.9091086" lon="14.7133294"/>
  <node id="316015848" version="2" timestamp="2010-09-27T18:36:07Z" uid="84326" user="Mike Crash" changeset="5894301" lat="49.9092035" lon="14.7134454"/>
  <node id="316015849" version="1" timestamp="2008-12-01T08:59:25Z" uid="1066" user="pavel" changeset="15337" lat="49.9089671" lon="14.7129814"/>
  <node id="316015850" version="1" timestamp="2008-12-01T08:59:25Z" uid="1066" user="pavel" changeset="15337" lat="49.9088963" lon="14.7126701"/>
  <node id="316015851" version="1" timestamp="2008-12-01T08:59:25Z" uid="1066" user="pavel" changeset="15337" lat="49.9088963" lon="14.7124503"/>
  <node id="316015852" version="1" timestamp="2008-12-01T08:59:25Z" uid="1066" user="pavel" changeset="15337" lat="49.9091322" lon="14.7120657"/>
  <node id="316015853" version="1" timestamp="2008-12-01T08:59:25Z" uid="1066" user="pavel" changeset="15337" lat="49.9094507" lon="14.7117177"/>
  <node id="316015854" version="1" timestamp="2008-12-01T08:59:26Z" uid="1066" user="pavel" changeset="15337" lat="49.9100051" lon="14.711333"/>
  <node id="316015855" version="1" timestamp="2008-12-01T08:59:26Z" uid="1066" user="pavel" changeset="15337" lat="49.9102999" lon="14.7114246"/>
  <node id="316015855" version="2" timestamp="2011-07-23T20:06:18Z" uid="17615" user="Petr Dlouhý" changeset="8809609" lat="49.9102509" lon="14.7113941"/>
  <node id="316015856" version="1" timestamp="2008-12-01T08:59:26Z" uid="1066" user="pavel" changeset="15337" lat="49.9104769" lon="14.7114246"/>
  <node id="316015857" version="1" timestamp="2008-12-01T08:59:26Z" uid="1066" user="pavel" changeset="15337" lat="49.9110194" lon="14.710985"/>
  <node id="316015857" version="2" timestamp="2009-12-26T22:17:44Z" uid="84326" user="Mike Crash" changeset="3458853" lat="49.9109942" lon="14.7110086"/>
  <node id="316015858" version="1" timestamp="2008-12-01T08:59:26Z" uid="1066" user="pavel" changeset="15337" lat="49.907469" lon="14.7139522"/>
  <node id="316015858" version="2" timestamp="2009-03-07T13:34:46Z" uid="104598" user="firedragon" changeset="754339" lat="49.907469" lon="14.7139522"/>
  <node id="316015858" version="3" timestamp="2009-03-07T13:35:05Z" uid="104598" user="firedragon" changeset="754339" lat="49.907469" lon="14.7139522"/>
  <node id="316015858" version="4" timestamp="2009-03-07T13:36:29Z" uid="104598" user="firedragon" changeset="754339" lat="49.907469" lon="14.7139522"/>
  <node id="316015858" version="5" timestamp="2009-03-07T13:39:41Z" uid="104598" user="firedragon" changeset="754339" lat="49.907469" lon="14.7139522"/>
  <node id="316015858" version="6" timestamp="2009-03-07T13:41:40Z" uid="104598" user="firedragon" changeset="754339" lat="49.907469" lon="14.7139522"/>
  <node id="316015858" version="7" timestamp="2009-03-07T13:45:27Z" uid="104598" user="firedragon" changeset="754339" lat="49.907469" lon="14.7139522"/>
  <node id="316015858" version="8" timestamp="2009-03-07T13:46:16Z" uid="104598" user="firedragon" changeset="754339" lat="49.907469" lon="14.7139522"/>
  <node id="316015858" version="9" timestamp="2009-03-07T14:07:01Z" uid="104598" user="firedragon" changeset="754339" lat="49.907469" lon="14.7139522"/>
  <node id="316015858" version="10" timestamp="2009-03-07T14:08:05Z" uid="104598" user="firedragon" changeset="754339" lat="49.907469" lon="14.7139522"/>
  <node id="316015858" version="11" timestamp="2009-03-07T14:17:01Z" uid="104598" user="firedragon" changeset="754339" lat="49.907469" lon="14.7139522"/>
  <node id="316015859" version="1" timestamp="2008-12-01T08:59:26Z" uid="1066" user="pavel" changeset="15337" lat="49.9074455" lon="14.7124686"/>
  <node id="316015859" version="2" timestamp="2009-03-07T13:34:46Z" uid="104598" user="firedragon" changeset="754339" lat="49.9074148" lon="14.709007"/>
  <node id="316015859" version="3" timestamp="2009-03-07T13:35:05Z" uid="104598" user="firedragon" changeset="754339" lat="49.90747" lon="14.7087238"/>
  <node id="316015859" version="4" timestamp="2009-03-07T13:36:29Z" uid="104598" user="firedragon" changeset="754339" lat="49.90747" lon="14.70905"/>
  <node id="316015859" version="5" timestamp="2009-03-07T13:39:41Z" uid="104598" user="firedragon" changeset="754339" lat="49.90747" lon="14.70905"/>
  <node id="316015859" version="6" timestamp="2009-03-07T13:41:40Z" uid="104598" user="firedragon" changeset="754339" lat="49.90747" lon="14.70905"/>
  <node id="316015859" version="7" timestamp="2009-03-07T13:45:27Z" uid="104598" user="firedragon" changeset="754339" lat="49.90747" lon="14.70905"/>
  <node id="316015859" version="8" timestamp="2009-03-07T13:46:16Z" uid="104598" user="firedragon" changeset="754339" lat="49.90747" lon="14.70905"/>
  <node id="316015859" version="9" timestamp="2009-03-07T14:07:02Z" uid="104598" user="firedragon" changeset="754339" lat="49.90747" lon="14.70905"/>
  <node id="316015859" version="10" timestamp="2009-03-07T14:08:05Z" uid="104598" user="firedragon" changeset="754339" lat="49.90747" lon="14.70905"/>
  <node id="316015859" version="11" timestamp="2009-03-07T14:17:01Z" uid="104598" user="firedragon" changeset="754339" lat="49.90747" lon="14.70905"/>
  <node id="316015859" version="12" timestamp="2009-03-19T06:30:16Z" uid="8007" user="vrabcak" changeset="832495" lat="49.9074612" lon="14.7120868"/>
  <node id="316015860" version="1" timestamp="2008-12-01T08:59:26Z" uid="1066" user="pavel" changeset="15337" lat="49.9067377" lon="14.7136591"/>
  <node id="316015860" version="2" timestamp="2009-03-07T13:38:45Z" uid="104598" user="firedragon" changeset="754339" lat="49.9067377" lon="14.7136591"/>
  <node id="316015861" version="1" timestamp="2008-12-01T08:59:26Z" uid="1066" user="pavel" changeset="15337" lat="49.9067377" lon="14.7114612"/>
  <node id="316015861" version="2" timestamp="2009-03-07T13:38:45Z" uid="104598" user="firedragon" changeset="754339" lat="49.9067377" lon="14.7114612"/>
  <node id="316015862" version="1" timestamp="2008-12-01T08:59:27Z" uid="1066" user="pavel" changeset="15337" lat="49.9058058" lon="14.7145383"/>
  <node id="316015862" version="2" timestamp="2009-03-07T14:11:18Z" uid="104598" user="firedragon" changeset="754339" lat="49.9058058" lon="14.7145383"/>
  <node id="316015863" version="1" timestamp="2008-12-01T08:59:27Z" uid="1066" user="pavel" changeset="15337" lat="49.9050155" lon="14.7146848"/>
  <node id="316015863" version="2" timestamp="2009-03-07T14:11:19Z" uid="104598" user="firedragon" changeset="754339" lat="49.9050155" lon="14.7146848"/>
  <node id="316015864" version="1" timestamp="2008-12-01T08:59:27Z" uid="1066" user="pavel" changeset="15337" lat="49.9076814" lon="14.7153991"/>
  <node id="316015864" version="2" timestamp="2009-03-07T14:11:46Z" uid="104598" user="firedragon" changeset="754339" lat="49.9076814" lon="14.7153991"/>
  <node id="316015865" version="1" timestamp="2008-12-01T08:59:27Z" uid="1066" user="pavel" changeset="15337" lat="49.9076696" lon="14.7158021"/>
  <node id="316015865" version="2" timestamp="2009-03-07T14:11:46Z" uid="104598" user="firedragon" changeset="754339" lat="49.9076696" lon="14.7158021"/>
  <node id="316015867" version="1" timestamp="2008-12-01T08:59:27Z" uid="1066" user="pavel" changeset="15337" lat="49.9077639" lon="14.7163332"/>
  <node id="316015867" version="2" timestamp="2009-03-07T14:11:46Z" uid="104598" user="firedragon" changeset="754339" lat="49.9077639" lon="14.7163332"/>
  <node id="316015868" version="1" timestamp="2008-12-01T08:59:27Z" uid="1066" user="pavel" changeset="15337" lat="49.9077521" lon="14.7171391"/>
  <node id="316015868" version="2" timestamp="2009-03-07T14:11:46Z" uid="104598" user="firedragon" changeset="754339" lat="49.9077521" lon="14.7171391"/>
  <node id="316015869" version="1" timestamp="2008-12-01T08:59:28Z" uid="1066" user="pavel" changeset="15337" lat="49.9072213" lon="14.7187875"/>
  <node id="316015869" version="2" timestamp="2009-03-07T14:11:46Z" uid="104598" user="firedragon" changeset="754339" lat="49.9072213" lon="14.7187875"/>
  <node id="316015870" version="1" timestamp="2008-12-01T08:59:28Z" uid="1066" user="pavel" changeset="15337" lat="49.9069028" lon="14.719337"/>
  <node id="316015870" version="2" timestamp="2009-03-07T14:11:46Z" uid="104598" user="firedragon" changeset="754339" lat="49.9069028" lon="14.719337"/>
  <node id="316015870" version="3" timestamp="2011-07-23T19:30:18Z" uid="17615" user="Petr Dlouhý" changeset="8809299" lat="49.9068408" lon="14.7193501"/>
  <node id="316015871" version="1" timestamp="2008-12-01T08:59:28Z" uid="1066" user="pavel" changeset="15337" lat="49.792925" lon="14.5865631"/>
  <node id="316015872" version="1" timestamp="2008-12-01T08:59:28Z" uid="1066" user="pavel" changeset="15337" lat="49.7928883" lon="14.5867904"/>
  <node id="316015872" version="2" timestamp="2011-07-05T04:03:38Z" uid="72020" user="Petr1868" changeset="8635536" lat="49.7928905" lon="14.5866838"/>
  <node id="316015873" version="1" timestamp="2008-12-01T08:59:28Z" uid="1066" user="pavel" changeset="15337" lat="49.794698" lon="14.5651894"/>
  <node id="316015874" version="1" timestamp="2008-12-01T08:59:28Z" uid="1066" user="pavel" changeset="15337" lat="49.7943164" lon="14.5646209"/>
  <node id="316015875" version="1" timestamp="2008-12-01T08:59:28Z" uid="1066" user="pavel" changeset="15337" lat="49.7946793" lon="14.5654257"/>
  <node id="316015875" version="2" timestamp="2010-03-24T15:24:34Z" uid="95101" user="Parkis" changeset="4221952" lat="49.7946793" lon="14.5654257"/>
  <node id="316015876" version="1" timestamp="2008-12-01T08:59:28Z" uid="1066" user="pavel" changeset="15337" lat="49.7944973" lon="14.5654224"/>
  <node id="316015876" version="2" timestamp="2010-03-24T15:24:36Z" uid="95101" user="Parkis" changeset="4221952" lat="49.7944973" lon="14.5654224"/>
  <node id="316015877" version="1" timestamp="2008-12-01T08:59:29Z" uid="1066" user="pavel" changeset="15337" lat="49.7944395" lon="14.565502"/>
  <node id="316015877" version="2" timestamp="2010-03-24T15:24:43Z" uid="95101" user="Parkis" changeset="4221952" lat="49.7944395" lon="14.565502"/>
  <node id="316015878" version="1" timestamp="2008-12-01T08:59:29Z" uid="1066" user="pavel" changeset="15337" lat="49.7943753" lon="14.5656678"/>
  <node id="316015878" version="2" timestamp="2010-03-24T15:24:45Z" uid="95101" user="Parkis" changeset="4221952" lat="49.7943753" lon="14.5656678"/>
  <node id="316015879" version="1" timestamp="2008-12-01T08:59:29Z" uid="1066" user="pavel" changeset="15337" lat="49.794523" lon="14.5659463"/>
  <node id="316015879" version="2" timestamp="2010-03-24T15:24:41Z" uid="95101" user="Parkis" changeset="4221952" lat="49.794523" lon="14.5659463"/>
  <node id="316015880" version="1" timestamp="2008-12-01T08:59:29Z" uid="1066" user="pavel" changeset="15337" lat="49.7946022" lon="14.5661718"/>
  <node id="316015880" version="2" timestamp="2010-03-24T15:24:43Z" uid="95101" user="Parkis" changeset="4221952" lat="49.7946022" lon="14.5661718"/>
  <node id="316015881" version="1" timestamp="2008-12-01T08:59:29Z" uid="1066" user="pavel" changeset="15337" lat="49.7947392" lon="14.5664006"/>
  <node id="316015881" version="2" timestamp="2010-03-24T15:24:39Z" uid="95101" user="Parkis" changeset="4221952" lat="49.7947392" lon="14.5664006"/>
  <node id="316015882" version="1" timestamp="2008-12-01T08:59:29Z" uid="1066" user="pavel" changeset="15337" lat="49.7948955" lon="14.5663708"/>
  <node id="316015882" version="2" timestamp="2010-03-24T15:24:41Z" uid="95101" user="Parkis" changeset="4221952" lat="49.7948955" lon="14.5663708"/>
  <node id="316015883" version="1" timestamp="2008-12-01T08:59:29Z" uid="1066" user="pavel" changeset="15337" lat="49.7949319" lon="14.5662581"/>
  <node id="316015883" version="2" timestamp="2010-03-24T15:24:36Z" uid="95101" user="Parkis" changeset="4221952" lat="49.7949319" lon="14.5662581"/>
  <node id="316015884" version="1" timestamp="2008-12-01T08:59:29Z" uid="1066" user="pavel" changeset="15337" lat="49.794797" lon="14.5659132"/>
  <node id="316015884" version="2" timestamp="2010-03-24T15:24:37Z" uid="95101" user="Parkis" changeset="4221952" lat="49.794797" lon="14.5659132"/>
  <node id="316015885" version="1" timestamp="2008-12-01T08:59:30Z" uid="1066" user="pavel" changeset="15337" lat="49.7947884" lon="14.5657076"/>
  <node id="316015885" version="2" timestamp="2010-03-24T15:24:44Z" uid="95101" user="Parkis" changeset="4221952" lat="49.7947884" lon="14.5657076"/>
  <node id="316015886" version="1" timestamp="2008-12-01T08:59:30Z" uid="1066" user="pavel" changeset="15337" lat="49.7940199" lon="14.564275"/>
  <node id="316015886" version="2" timestamp="2010-03-24T15:24:46Z" uid="95101" user="Parkis" changeset="4221952" lat="49.7940199" lon="14.564275"/>
  <node id="316015887" version="1" timestamp="2008-12-01T08:59:30Z" uid="1066" user="pavel" changeset="15337" lat="49.7938144" lon="14.564464"/>
  <node id="316015887" version="2" timestamp="2010-03-24T15:24:42Z" uid="95101" user="Parkis" changeset="4221952" lat="49.7938144" lon="14.564464"/>
  <node id="316015888" version="1" timestamp="2008-12-01T08:59:30Z" uid="1066" user="pavel" changeset="15337" lat="49.7939857" lon="14.5648885"/>
  <node id="316015888" version="2" timestamp="2010-03-24T15:24:40Z" uid="95101" user="Parkis" changeset="4221952" lat="49.7939857" lon="14.5648885"/>
  <node id="316015889" version="1" timestamp="2008-12-01T08:59:30Z" uid="1066" user="pavel" changeset="15337" lat="49.7941141" lon="14.5648619"/>
  <node id="316015889" version="2" timestamp="2010-03-24T15:24:35Z" uid="95101" user="Parkis" changeset="4221952" lat="49.7941141" lon="14.5648619"/>
  <node id="316015890" version="1" timestamp="2008-12-01T08:59:30Z" uid="1066" user="pavel" changeset="15337" lat="49.7942511" lon="14.5646729"/>
  <node id="316015890" version="2" timestamp="2010-03-24T15:24:37Z" uid="95101" user="Parkis" changeset="4221952" lat="49.7942511" lon="14.5646729"/>
  <node id="316015891" version="1" timestamp="2008-12-01T08:59:30Z" uid="1066" user="pavel" changeset="15337" lat="49.7886154" lon="14.5628609"/>
  <node id="316015892" version="1" timestamp="2008-12-01T08:59:31Z" uid="1066" user="pavel" changeset="15337" lat="49.7884611" lon="14.5624724"/>
  <node id="316015893" version="1" timestamp="2008-12-01T08:59:31Z" uid="1066" user="pavel" changeset="15337" lat="49.7883936" lon="14.5621685"/>
  <node id="316015894" version="1" timestamp="2008-12-01T08:59:31Z" uid="1066" user="pavel" changeset="15337" lat="49.7899248" lon="14.5648318"/>
  <node id="316015895" version="1" timestamp="2008-12-01T08:59:31Z" uid="1066" user="pavel" changeset="15337" lat="49.7901422" lon="14.5644566"/>
  <node id="316015896" version="1" timestamp="2008-12-01T08:59:31Z" uid="1066" user="pavel" changeset="15337" lat="49.7901981" lon="14.5642834"/>
  <node id="316015897" version="1" timestamp="2008-12-01T08:59:31Z" uid="1066" user="pavel" changeset="15337" lat="49.791441" lon="14.5676037"/>
  <node id="316015897" version="2" timestamp="2009-06-22T13:57:29Z" uid="1066" user="pavel" changeset="1593950" lat="49.7913726" lon="14.5678193"/>
  <node id="316015898" version="1" timestamp="2008-12-01T08:59:31Z" uid="1066" user="pavel" changeset="15337" lat="49.7915841" lon="14.5678205"/>
  <node id="316015898" version="2" timestamp="2009-06-22T13:57:29Z" uid="1066" user="pavel" changeset="1593950" lat="49.7915304" lon="14.5680058"/>
  <node id="316015899" version="1" timestamp="2008-12-01T08:59:31Z" uid="1066" user="pavel" changeset="15337" lat="49.7916712" lon="14.5680615"/>
  <node id="316015899" version="2" timestamp="2009-06-22T13:57:29Z" uid="1066" user="pavel" changeset="1593950" lat="49.7916712" lon="14.5682695"/>
  <node id="316015900" version="1" timestamp="2008-12-01T08:59:32Z" uid="1066" user="pavel" changeset="15337" lat="49.792144" lon="14.5686156"/>
  <node id="316015901" version="1" timestamp="2008-12-01T08:59:32Z" uid="1066" user="pavel" changeset="15337" lat="49.7925172" lon="14.5690877"/>
  <node id="316015902" version="1" timestamp="2008-12-01T08:59:32Z" uid="1066" user="pavel" changeset="15337" lat="49.7928003" lon="14.5693094"/>
  <node id="316015903" version="1" timestamp="2008-12-01T08:59:32Z" uid="1066" user="pavel" changeset="15337" lat="49.7924756" lon="14.5709722"/>
  <node id="316015904" version="1" timestamp="2008-12-01T08:59:32Z" uid="1066" user="pavel" changeset="15337" lat="49.7922729" lon="14.5711874"/>
  <node id="316015905" version="1" timestamp="2008-12-01T08:59:32Z" uid="1066" user="pavel" changeset="15337" lat="49.7921803" lon="14.5714699"/>
  <node id="316015906" version="1" timestamp="2008-12-01T08:59:32Z" uid="1066" user="pavel" changeset="15337" lat="49.791065" lon="14.5751737"/>
  <node id="316015907" version="1" timestamp="2008-12-01T08:59:32Z" uid="1066" user="pavel" changeset="15337" lat="49.789914" lon="14.5761776"/>
  <node id="316015908" version="1" timestamp="2008-12-01T08:59:33Z" uid="1066" user="pavel" changeset="15337" lat="49.7848473" lon="14.5890706"/>
  <node id="316015909" version="1" timestamp="2008-12-01T08:59:33Z" uid="1066" user="pavel" changeset="15337" lat="49.7831863" lon="14.5957994"/>
  <node id="316015910" version="1" timestamp="2008-12-01T08:59:33Z" uid="1066" user="pavel" changeset="15337" lat="49.7771924" lon="14.5750988"/>
  <node id="316015911" version="1" timestamp="2008-12-01T08:59:33Z" uid="1066" user="pavel" changeset="15337" lat="49.7770823" lon="14.5748993"/>
  <node id="316015912" version="1" timestamp="2008-12-01T08:59:33Z" uid="1066" user="pavel" changeset="15337" lat="49.7770509" lon="14.5747727"/>
  <node id="316015913" version="1" timestamp="2008-12-01T08:59:33Z" uid="1066" user="pavel" changeset="15337" lat="49.7770729" lon="14.5744125"/>
  <node id="316015914" version="1" timestamp="2008-12-01T08:59:33Z" uid="1066" user="pavel" changeset="15337" lat="49.7789053" lon="14.5717259"/>
  <node id="316015915" version="1" timestamp="2008-12-01T08:59:34Z" uid="1066" user="pavel" changeset="15337" lat="49.7790373" lon="14.5717113"/>
  <node id="316015916" version="1" timestamp="2008-12-01T08:59:34Z" uid="1066" user="pavel" changeset="15337" lat="49.7792541" lon="14.5718427"/>
  <node id="316015917" version="1" timestamp="2008-12-01T08:59:34Z" uid="1066" user="pavel" changeset="15337" lat="49.7795464" lon="14.5720082"/>
  <node id="316015917" version="2" timestamp="2009-04-14T16:04:46Z" uid="86504" user="Thomas8122" changeset="537397" lat="49.7795464" lon="14.5720082"/>
  <node id="316015969" version="1" timestamp="2008-12-01T09:00:10Z" uid="1066" user="pavel" changeset="15337" lat="50.0681797" lon="14.5299604"/>
  <node id="316015970" version="1" timestamp="2008-12-01T09:00:10Z" uid="1066" user="pavel" changeset="15337" lat="50.0680776" lon="14.5291823"/>
  <node id="316015970" version="2" timestamp="2009-03-20T15:19:47Z" uid="3516" user="BiIbo" changeset="835371" lat="50.0680995" lon="14.5291803"/>
  <node id="316015971" version="1" timestamp="2008-12-01T09:00:10Z" uid="1066" user="pavel" changeset="15337" lat="50.0680991" lon="14.5290735"/>
  <node id="316015971" version="2" timestamp="2009-03-20T15:19:47Z" uid="3516" user="BiIbo" changeset="835371" lat="50.0681223" lon="14.5289991"/>
  <node id="316015972" version="1" timestamp="2008-12-01T09:00:10Z" uid="1066" user="pavel" changeset="15337" lat="50.0682495" lon="14.5287639"/>
  <node id="316015972" version="2" timestamp="2009-03-20T15:19:47Z" uid="3516" user="BiIbo" changeset="835371" lat="50.0682534" lon="14.5287478"/>
  <node id="316015973" version="1" timestamp="2008-12-01T09:00:10Z" uid="1066" user="pavel" changeset="15337" lat="50.0680132" lon="14.5280026"/>
  <node id="316015974" version="1" timestamp="2008-12-01T09:00:11Z" uid="1066" user="pavel" changeset="15337" lat="50.0684213" lon="14.5276261"/>
  <node id="316015975" version="1" timestamp="2008-12-01T09:00:11Z" uid="1066" user="pavel" changeset="15337" lat="50.0695169" lon="14.5307302"/>
  <node id="316015976" version="1" timestamp="2008-12-01T09:00:11Z" uid="1066" user="pavel" changeset="15337" lat="50.0696995" lon="14.530521"/>
  <node id="316015977" version="1" timestamp="2008-12-01T09:00:11Z" uid="1066" user="pavel" changeset="15337" lat="50.0697049" lon="14.5303369"/>
  <node id="316015977" version="2" timestamp="2009-03-20T13:59:21Z" uid="3516" user="BiIbo" changeset="835371" lat="50.0697244" lon="14.5303166"/>
  <node id="316015978" version="1" timestamp="2008-12-01T09:00:11Z" uid="1066" user="pavel" changeset="15337" lat="50.069098" lon="14.5284962"/>
  <node id="316015979" version="1" timestamp="2008-12-01T09:00:11Z" uid="1066" user="pavel" changeset="15337" lat="50.0687812" lon="14.5277265"/>
  <node id="316015979" version="2" timestamp="2009-03-20T13:59:22Z" uid="3516" user="BiIbo" changeset="835371" lat="50.0689199" lon="14.5283221"/>
  <node id="316016000" version="2" timestamp="2010-03-26T01:32:10Z" uid="163746" user="anti_bot-nonsense" changeset="4234506" lat="52.3144395" lon="16.8359632"/>
  <node id="316016001" version="2" timestamp="2010-03-26T01:33:27Z" uid="163746" user="anti_bot-nonsense" changeset="4234506" lat="52.3162743" lon="16.839428"/>
  <node id="316016002" version="2" timestamp="2010-03-26T01:33:44Z" uid="163746" user="anti_bot-nonsense" changeset="4234506" lat="52.3145065" lon="16.8359694"/>
  <node id="316016003" version="2" timestamp="2010-03-26T01:34:51Z" uid="163746" user="anti_bot-nonsense" changeset="4234506" lat="52.3122781" lon="16.8388897"/>
  <node id="316016004" version="2" timestamp="2010-03-26T01:33:07Z" uid="163746" user="anti_bot-nonsense" changeset="4234506" lat="52.3122206" lon="16.8396702"/>
  <node id="316016005" version="2" timestamp="2010-03-26T01:34:15Z" uid="163746" user="anti_bot-nonsense" changeset="4234506" lat="52.3119575" lon="16.8403027"/>
  <node id="316016006" version="2" timestamp="2010-03-26T01:34:31Z" uid="163746" user="anti_bot-nonsense" changeset="4234506" lat="52.3114066" lon="16.8404238"/>
  <node id="316016007" version="2" timestamp="2010-03-26T01:31:46Z" uid="163746" user="anti_bot-nonsense" changeset="4234506" lat="52.3111188" lon="16.8411236"/>
  <node id="316016008" version="2" timestamp="2010-03-26T01:34:19Z" uid="163746" user="anti_bot-nonsense" changeset="4234506" lat="52.3117355" lon="16.8424424"/>
  <node id="316016010" version="2" timestamp="2010-03-26T01:31:49Z" uid="163746" user="anti_bot-nonsense" changeset="4234506" lat="52.3115546" lon="16.8429673"/>
  <node id="316016011" version="2" timestamp="2010-03-26T01:33:11Z" uid="163746" user="anti_bot-nonsense" changeset="4234506" lat="52.3129688" lon="16.8451205"/>
  <node id="316016012" version="2" timestamp="2010-03-26T01:35:09Z" uid="163746" user="anti_bot-nonsense" changeset="4234506" lat="52.3133224" lon="16.8444476"/>
  <node id="316016013" version="2" timestamp="2010-03-26T01:32:27Z" uid="163746" user="anti_bot-nonsense" changeset="4234506" lat="52.3145475" lon="16.8431961"/>
  <node id="316016014" version="2" timestamp="2010-03-26T01:32:52Z" uid="163746" user="anti_bot-nonsense" changeset="4234506" lat="52.3146791" lon="16.8428058"/>
  <node id="316016015" version="2" timestamp="2010-03-26T01:34:02Z" uid="163746" user="anti_bot-nonsense" changeset="4234506" lat="52.3151231" lon="16.8423752"/>
  <node id="316017628" version="4" timestamp="2009-10-02T19:46:49Z" uid="86259" user="hasse_osm_korinthenkacker" changeset="2716821" lat="47.9083023" lon="11.6660457">
    <tag k="addr:city" v="Otterfing"/>
    <tag k="addr:country" v="DE"/>
    <tag k="addr:housenumber" v="13"/>
    <tag k="addr:postcode" v="83624"/>
    <tag k="addr:street" v="Bergham"/>
  </node>
  <node id="316017628" version="5" timestamp="2010-12-01T14:37:06Z" uid="42393" user="mawi42" changeset="6504251" lat="47.9083066" lon="11.6659465">
    <tag k="addr:city" v="Otterfing"/>
    <tag k="addr:country" v="DE"/>
    <tag k="addr:housenumber" v="13"/>
    <tag k="addr:postcode" v="83624"/>
    <tag k="addr:street" v="Bergham"/>
  </node>
  <node id="316017628" version="6" timestamp="2011-08-14T17:28:09Z" uid="505348" user="CTSL" changeset="9018609" lat="47.9083066" lon="11.6659465">
    <tag k="addr:city" v="Otterfing"/>
    <tag k="addr:country" v="DE"/>
    <tag k="addr:housenumber" v="41"/>
    <tag k="addr:old housenumber" v="13"/>
    <tag k="addr:postcode" v="83624"/>
    <tag k="addr:street" v="Bergham"/>
  </node>
  <node id="316017628" version="7" timestamp="2011-10-02T10:06:18Z" uid="92274" user="adjuva" changeset="9448586" lat="47.9083066" lon="11.6659465">
    <tag k="addr:city" v="Otterfing"/>
    <tag k="addr:country" v="DE"/>
    <tag k="addr:housenumber" v="41"/>
    <tag k="addr:old_housenumber" v="13"/>
    <tag k="addr:postcode" v="83624"/>
    <tag k="addr:street" v="Bergham"/>
  </node>
  <node id="316017762" version="4" timestamp="2009-10-02T19:46:50Z" uid="86259" user="hasse_osm_korinthenkacker" changeset="2716821" lat="47.9083253" lon="11.6663375">
    <tag k="addr:city" v="Otterfing"/>
    <tag k="addr:country" v="DE"/>
    <tag k="addr:housenumber" v="14"/>
    <tag k="addr:postcode" v="83624"/>
    <tag k="addr:street" v="Bergham"/>
  </node>
  <node id="316017762" version="5" timestamp="2011-08-14T17:28:09Z" uid="505348" user="CTSL" changeset="9018609" lat="47.9083254" lon="11.6662011">
    <tag k="addr:city" v="Otterfing"/>
    <tag k="addr:country" v="DE"/>
    <tag k="addr:housenumber" v="39"/>
    <tag k="addr:old housenumber" v="14"/>
    <tag k="addr:postcode" v="83624"/>
    <tag k="addr:street" v="Bergham"/>
  </node>
  <node id="316017762" version="6" timestamp="2011-10-02T10:06:18Z" uid="92274" user="adjuva" changeset="9448586" lat="47.9083254" lon="11.6662011">
    <tag k="addr:city" v="Otterfing"/>
    <tag k="addr:country" v="DE"/>
    <tag k="addr:housenumber" v="39"/>
    <tag k="addr:old_housenumber" v="14"/>
    <tag k="addr:postcode" v="83624"/>
    <tag k="addr:street" v="Bergham"/>
  </node>
  <node id="316017852" version="4" timestamp="2009-10-02T19:46:49Z" uid="86259" user="hasse_osm_korinthenkacker" changeset="2716821" lat="47.9085842" lon="11.6659513">
    <tag k="addr:city" v="Otterfing"/>
    <tag k="addr:country" v="DE"/>
    <tag k="addr:housenumber" v="14a"/>
    <tag k="addr:postcode" v="83624"/>
    <tag k="addr:street" v="Bergham"/>
  </node>
  <node id="316017852" version="5" timestamp="2010-12-01T14:37:07Z" uid="42393" user="mawi42" changeset="6504251" lat="47.9085776" lon="11.665748">
    <tag k="addr:city" v="Otterfing"/>
    <tag k="addr:country" v="DE"/>
    <tag k="addr:housenumber" v="14a"/>
    <tag k="addr:postcode" v="83624"/>
    <tag k="addr:street" v="Bergham"/>
  </node>
  <node id="316017852" version="6" timestamp="2011-08-14T17:28:09Z" uid="505348" user="CTSL" changeset="9018609" lat="47.9085776" lon="11.665748">
    <tag k="addr:city" v="Otterfing"/>
    <tag k="addr:country" v="DE"/>
    <tag k="addr:housenumber" v="43"/>
    <tag k="addr:old housenumber" v="14a"/>
    <tag k="addr:postcode" v="83624"/>
    <tag k="addr:street" v="Bergham"/>
  </node>
  <node id="316017852" version="7" timestamp="2011-10-02T10:06:18Z" uid="92274" user="adjuva" changeset="9448586" lat="47.9085776" lon="11.665748">
    <tag k="addr:city" v="Otterfing"/>
    <tag k="addr:country" v="DE"/>
    <tag k="addr:housenumber" v="43"/>
    <tag k="addr:old_housenumber" v="14a"/>
    <tag k="addr:postcode" v="83624"/>
    <tag k="addr:street" v="Bergham"/>
  </node>
  <node id="316017867" version="6" timestamp="2009-10-02T19:46:51Z" uid="86259" user="hasse_osm_korinthenkacker" changeset="2716821" lat="47.9085629" lon="11.6668372">
    <tag k="addr:city" v="Otterfing"/>
    <tag k="addr:country" v="DE"/>
    <tag k="addr:housenumber" v="15"/>
    <tag k="addr:postcode" v="83624"/>
    <tag k="addr:street" v="Bergham"/>
  </node>
  <node id="316017867" version="7" timestamp="2011-08-14T17:28:09Z" uid="505348" user="CTSL" changeset="9018609" lat="47.9085629" lon="11.6668372">
    <tag k="addr:city" v="Otterfing"/>
    <tag k="addr:country" v="DE"/>
    <tag k="addr:housenumber" v="34"/>
    <tag k="addr:old housenumber" v="15"/>
    <tag k="addr:postcode" v="83624"/>
    <tag k="addr:street" v="Bergham"/>
  </node>
  <node id="316017867" version="8" timestamp="2011-10-02T10:06:17Z" uid="92274" user="adjuva" changeset="9448586" lat="47.9085629" lon="11.6668372">
    <tag k="addr:city" v="Otterfing"/>
    <tag k="addr:country" v="DE"/>
    <tag k="addr:housenumber" v="34"/>
    <tag k="addr:old_housenumber" v="15"/>
    <tag k="addr:postcode" v="83624"/>
    <tag k="addr:street" v="Bergham"/>
  </node>
  <node id="316017872" version="6" timestamp="2009-10-02T19:46:51Z" uid="86259" user="hasse_osm_korinthenkacker" changeset="2716821" lat="47.909328" lon="11.6667427">
    <tag k="addr:city" v="Otterfing"/>
    <tag k="addr:country" v="DE"/>
    <tag k="addr:housenumber" v="15a"/>
    <tag k="addr:postcode" v="83624"/>
    <tag k="addr:street" v="Bergham"/>
  </node>
  <node id="316017872" version="7" timestamp="2011-08-14T17:28:10Z" uid="505348" user="CTSL" changeset="9018609" lat="47.909328" lon="11.6667427">
    <tag k="addr:city" v="Otterfing"/>
    <tag k="addr:country" v="DE"/>
    <tag k="addr:housenumber" v="36"/>
    <tag k="addr:old housenumber" v="15a"/>
    <tag k="addr:postcode" v="83624"/>
    <tag k="addr:street" v="Bergham"/>
  </node>
  <node id="316017872" version="8" timestamp="2011-10-02T10:06:17Z" uid="92274" user="adjuva" changeset="9448586" lat="47.909328" lon="11.6667427">
    <tag k="addr:city" v="Otterfing"/>
    <tag k="addr:country" v="DE"/>
    <tag k="addr:housenumber" v="36"/>
    <tag k="addr:old_housenumber" v="15a"/>
    <tag k="addr:postcode" v="83624"/>
    <tag k="addr:street" v="Bergham"/>
  </node>
  <node id="316017886" version="6" timestamp="2009-10-02T19:47:30Z" uid="86259" user="hasse_osm_korinthenkacker" changeset="2716821" lat="47.9085629" lon="11.6675667">
    <tag k="addr:city" v="Otterfing"/>
    <tag k="addr:country" v="DE"/>
    <tag k="addr:housenumber" v="16"/>
    <tag k="addr:postcode" v="83624"/>
    <tag k="addr:street" v="Bergham"/>
  </node>
  <node id="316017886" version="7" timestamp="2011-08-14T17:28:10Z" uid="505348" user="CTSL" changeset="9018609" lat="47.9085629" lon="11.6675667">
    <tag k="addr:city" v="Otterfing"/>
    <tag k="addr:country" v="DE"/>
    <tag k="addr:housenumber" v="30"/>
    <tag k="addr:old housenumber" v="16"/>
    <tag k="addr:postcode" v="83624"/>
    <tag k="addr:street" v="Bergham"/>
  </node>
  <node id="316017886" version="8" timestamp="2011-10-02T10:06:17Z" uid="92274" user="adjuva" changeset="9448586" lat="47.9085629" lon="11.6675667">
    <tag k="addr:city" v="Otterfing"/>
    <tag k="addr:country" v="DE"/>
    <tag k="addr:housenumber" v="30"/>
    <tag k="addr:old_housenumber" v="16"/>
    <tag k="addr:postcode" v="83624"/>
    <tag k="addr:street" v="Bergham"/>
  </node>
  <node id="316017987" version="6" timestamp="2009-10-02T19:46:51Z" uid="86259" user="hasse_osm_korinthenkacker" changeset="2716821" lat="47.9085398" lon="11.6674551">
    <tag k="addr:city" v="Otterfing"/>
    <tag k="addr:country" v="DE"/>
    <tag k="addr:housenumber" v="16a"/>
    <tag k="addr:postcode" v="83624"/>
    <tag k="addr:street" v="Bergham"/>
  </node>
  <node id="316017987" version="7" timestamp="2011-08-14T17:28:10Z" uid="505348" user="CTSL" changeset="9018609" lat="47.9085398" lon="11.6674551">
    <tag k="addr:city" v="Otterfing"/>
    <tag k="addr:country" v="DE"/>
    <tag k="addr:housenumber" v="32"/>
    <tag k="addr:old housenumber" v="16a"/>
    <tag k="addr:postcode" v="83624"/>
    <tag k="addr:street" v="Bergham"/>
  </node>
  <node id="316017987" version="8" timestamp="2011-10-02T10:06:17Z" uid="92274" user="adjuva" changeset="9448586" lat="47.9085398" lon="11.6674551">
    <tag k="addr:city" v="Otterfing"/>
    <tag k="addr:country" v="DE"/>
    <tag k="addr:housenumber" v="32"/>
    <tag k="addr:old_housenumber" v="16a"/>
    <tag k="addr:postcode" v="83624"/>
    <tag k="addr:street" v="Bergham"/>
  </node>
  <node id="316018025" version="6" timestamp="2009-10-02T19:47:40Z" uid="86259" user="hasse_osm_korinthenkacker" changeset="2716821" lat="47.9086952" lon="11.6684594">
    <tag k="addr:city" v="Otterfing"/>
    <tag k="addr:country" v="DE"/>
    <tag k="addr:housenumber" v="17"/>
    <tag k="addr:postcode" v="83624"/>
    <tag k="addr:street" v="Bergham"/>
  </node>
  <node id="316018025" version="7" timestamp="2010-12-01T14:49:51Z" uid="42393" user="mawi42" changeset="6504251" lat="47.9086752" lon="11.6684676">
    <tag k="addr:city" v="Otterfing"/>
    <tag k="addr:country" v="DE"/>
    <tag k="addr:housenumber" v="17"/>
    <tag k="addr:postcode" v="83624"/>
    <tag k="addr:street" v="Bergham"/>
  </node>
  <node id="316018025" version="8" timestamp="2011-08-14T17:28:12Z" uid="505348" user="CTSL" changeset="9018609" lat="47.9086752" lon="11.6684676">
    <tag k="addr:city" v="Otterfing"/>
    <tag k="addr:country" v="DE"/>
    <tag k="addr:housenumber" v="24"/>
    <tag k="addr:old housenumber" v="17"/>
    <tag k="addr:postcode" v="83624"/>
    <tag k="addr:street" v="Bergham"/>
  </node>
  <node id="316018025" version="9" timestamp="2011-10-02T10:06:16Z" uid="92274" user="adjuva" changeset="9448586" lat="47.9086752" lon="11.6684676">
    <tag k="addr:city" v="Otterfing"/>
    <tag k="addr:country" v="DE"/>
    <tag k="addr:housenumber" v="24"/>
    <tag k="addr:old_housenumber" v="17"/>
    <tag k="addr:postcode" v="83624"/>
    <tag k="addr:street" v="Bergham"/>
  </node>
  <node id="316018225" version="5" timestamp="2009-10-02T19:47:40Z" uid="86259" user="hasse_osm_korinthenkacker" changeset="2716821" lat="47.9086779" lon="11.6681332">
    <tag k="addr:city" v="Otterfing"/>
    <tag k="addr:country" v="DE"/>
    <tag k="addr:housenumber" v="17a"/>
    <tag k="addr:postcode" v="83624"/>
    <tag k="addr:street" v="Bergham"/>
  </node>
  <node id="316018225" version="6" timestamp="2011-02-18T08:58:15Z" uid="42393" user="mawi42" changeset="7320281" lat="47.9086782" lon="11.6681557">
    <tag k="addr:city" v="Otterfing"/>
    <tag k="addr:country" v="DE"/>
    <tag k="addr:housenumber" v="17a"/>
    <tag k="addr:postcode" v="83624"/>
    <tag k="addr:street" v="Bergham"/>
  </node>
  <node id="316018225" version="7" timestamp="2011-08-14T17:28:10Z" uid="505348" user="CTSL" changeset="9018609" lat="47.9086782" lon="11.6681557">
    <tag k="addr:city" v="Otterfing"/>
    <tag k="addr:country" v="DE"/>
    <tag k="addr:housenumber" v="26"/>
    <tag k="addr:old housenumber" v="17a"/>
    <tag k="addr:postcode" v="83624"/>
    <tag k="addr:street" v="Bergham"/>
  </node>
  <node id="316018225" version="8" timestamp="2011-10-02T10:06:16Z" uid="92274" user="adjuva" changeset="9448586" lat="47.9086782" lon="11.6681557">
    <tag k="addr:city" v="Otterfing"/>
    <tag k="addr:country" v="DE"/>
    <tag k="addr:housenumber" v="26"/>
    <tag k="addr:old_housenumber" v="17a"/>
    <tag k="addr:postcode" v="83624"/>
    <tag k="addr:street" v="Bergham"/>
  </node>
  <node id="316018226" version="6" timestamp="2009-10-02T19:47:40Z" uid="86259" user="hasse_osm_korinthenkacker" changeset="2716821" lat="47.9086779" lon="11.6680216">
    <tag k="addr:city" v="Otterfing"/>
    <tag k="addr:country" v="DE"/>
    <tag k="addr:housenumber" v="17b"/>
    <tag k="addr:postcode" v="83624"/>
    <tag k="addr:street" v="Bergham"/>
  </node>
  <node id="316018226" version="7" timestamp="2011-02-18T08:58:15Z" uid="42393" user="mawi42" changeset="7320281" lat="47.9086782" lon="11.6680405">
    <tag k="addr:city" v="Otterfing"/>
    <tag k="addr:country" v="DE"/>
    <tag k="addr:housenumber" v="17b"/>
    <tag k="addr:postcode" v="83624"/>
    <tag k="addr:street" v="Bergham"/>
  </node>
  <node id="316018226" version="8" timestamp="2011-08-14T17:28:08Z" uid="505348" user="CTSL" changeset="9018609" lat="47.9086782" lon="11.6680405">
    <tag k="addr:city" v="Otterfing"/>
    <tag k="addr:country" v="DE"/>
    <tag k="addr:housenumber" v="28"/>
    <tag k="addr:old housenumber" v="17b"/>
    <tag k="addr:postcode" v="83624"/>
    <tag k="addr:street" v="Bergham"/>
  </node>
  <node id="316018226" version="9" timestamp="2011-10-02T10:06:16Z" uid="92274" user="adjuva" changeset="9448586" lat="47.9086782" lon="11.6680405">
    <tag k="addr:city" v="Otterfing"/>
    <tag k="addr:country" v="DE"/>
    <tag k="addr:housenumber" v="28"/>
    <tag k="addr:old_housenumber" v="17b"/>
    <tag k="addr:postcode" v="83624"/>
    <tag k="addr:street" v="Bergham"/>
  </node>
  <node id="316018325" version="5" timestamp="2009-10-02T19:47:30Z" uid="86259" user="hasse_osm_korinthenkacker" changeset="2716821" lat="47.9083023" lon="11.6679511">
    <tag k="addr:city" v="Otterfing"/>
    <tag k="addr:country" v="DE"/>
    <tag k="addr:housenumber" v="19a"/>
    <tag k="addr:postcode" v="83624"/>
    <tag k="addr:street" v="Bergham"/>
  </node>
  <node id="316018325" version="6" timestamp="2011-02-18T12:11:00Z" uid="42393" user="mawi42" changeset="7321862" lat="47.9082306" lon="11.6679653">
    <tag k="addr:city" v="Otterfing"/>
    <tag k="addr:country" v="DE"/>
    <tag k="addr:housenumber" v="19a"/>
    <tag k="addr:postcode" v="83624"/>
    <tag k="addr:street" v="Bergham"/>
  </node>
  <node id="316018325" version="7" timestamp="2011-08-14T17:28:10Z" uid="505348" user="CTSL" changeset="9018609" lat="47.9082306" lon="11.6679653">
    <tag k="addr:city" v="Otterfing"/>
    <tag k="addr:country" v="DE"/>
    <tag k="addr:housenumber" v="25"/>
    <tag k="addr:old housenumber" v="19a"/>
    <tag k="addr:postcode" v="83624"/>
    <tag k="addr:street" v="Bergham"/>
  </node>
  <node id="316018325" version="8" timestamp="2011-10-02T10:06:16Z" uid="92274" user="adjuva" changeset="9448586" lat="47.9082306" lon="11.6679653">
    <tag k="addr:city" v="Otterfing"/>
    <tag k="addr:country" v="DE"/>
    <tag k="addr:housenumber" v="25"/>
    <tag k="addr:old_housenumber" v="19a"/>
    <tag k="addr:postcode" v="83624"/>
    <tag k="addr:street" v="Bergham"/>
  </node>
  <node id="316018571" version="5" timestamp="2009-10-02T19:47:30Z" uid="86259" user="hasse_osm_korinthenkacker" changeset="2716821" lat="47.9079824" lon="11.6679473">
    <tag k="addr:city" v="Otterfing"/>
    <tag k="addr:country" v="DE"/>
    <tag k="addr:housenumber" v="19b"/>
    <tag k="addr:postcode" v="83624"/>
    <tag k="addr:street" v="Bergham"/>
  </node>
  <node id="316018571" version="6" timestamp="2011-02-18T12:11:00Z" uid="42393" user="mawi42" changeset="7321862" lat="47.9080741" lon="11.667979">
    <tag k="addr:city" v="Otterfing"/>
    <tag k="addr:country" v="DE"/>
    <tag k="addr:housenumber" v="19b"/>
    <tag k="addr:postcode" v="83624"/>
    <tag k="addr:street" v="Bergham"/>
  </node>
  <node id="316018571" version="7" timestamp="2011-08-14T17:28:12Z" uid="505348" user="CTSL" changeset="9018609" lat="47.9080741" lon="11.667979">
    <tag k="addr:city" v="Otterfing"/>
    <tag k="addr:country" v="DE"/>
    <tag k="addr:housenumber" v="51"/>
    <tag k="addr:old housenumber" v="19b"/>
    <tag k="addr:postcode" v="83624"/>
    <tag k="addr:street" v="Bergham"/>
  </node>
  <node id="316018571" version="8" timestamp="2011-10-02T10:06:19Z" uid="92274" user="adjuva" changeset="9448586" lat="47.9080741" lon="11.667979">
    <tag k="addr:city" v="Otterfing"/>
    <tag k="addr:country" v="DE"/>
    <tag k="addr:housenumber" v="51"/>
    <tag k="addr:old_housenumber" v="19b"/>
    <tag k="addr:postcode" v="83624"/>
    <tag k="addr:street" v="Bergham"/>
  </node>
  <node id="316018691" version="6" timestamp="2009-10-02T19:46:50Z" uid="86259" user="hasse_osm_korinthenkacker" changeset="2716821" lat="47.9075848" lon="11.6674551">
    <tag k="addr:city" v="Otterfing"/>
    <tag k="addr:country" v="DE"/>
    <tag k="addr:housenumber" v="12"/>
    <tag k="addr:postcode" v="83624"/>
    <tag k="addr:street" v="Bergham"/>
  </node>
  <node id="316018691" version="7" timestamp="2011-08-14T17:28:11Z" uid="505348" user="CTSL" changeset="9018609" lat="47.9075848" lon="11.6674551">
    <tag k="addr:city" v="Otterfing"/>
    <tag k="addr:country" v="DE"/>
    <tag k="addr:housenumber" v="52"/>
    <tag k="addr:old housenumber" v="12"/>
    <tag k="addr:postcode" v="83624"/>
    <tag k="addr:street" v="Bergham"/>
  </node>
  <node id="316018691" version="8" timestamp="2011-10-02T10:06:19Z" uid="92274" user="adjuva" changeset="9448586" lat="47.9075848" lon="11.6674551">
    <tag k="addr:city" v="Otterfing"/>
    <tag k="addr:country" v="DE"/>
    <tag k="addr:housenumber" v="52"/>
    <tag k="addr:old_housenumber" v="12"/>
    <tag k="addr:postcode" v="83624"/>
    <tag k="addr:street" v="Bergham"/>
  </node>
  <node id="316018772" version="5" timestamp="2009-10-02T19:46:50Z" uid="86259" user="hasse_osm_korinthenkacker" changeset="2716821" lat="47.9073255" lon="11.667424">
    <tag k="addr:city" v="Otterfing"/>
    <tag k="addr:country" v="DE"/>
    <tag k="addr:housenumber" v="11"/>
    <tag k="addr:postcode" v="83624"/>
    <tag k="addr:street" v="Bergham"/>
  </node>
  <node id="316018772" version="6" timestamp="2011-08-14T17:28:13Z" uid="505348" user="CTSL" changeset="9018609" lat="47.9073255" lon="11.667424">
    <tag k="addr:city" v="Otterfing"/>
    <tag k="addr:country" v="DE"/>
    <tag k="addr:housenumber" v="54"/>
    <tag k="addr:old housenumber" v="11"/>
    <tag k="addr:postcode" v="83624"/>
    <tag k="addr:street" v="Bergham"/>
  </node>
  <node id="316018772" version="7" timestamp="2011-10-02T10:06:19Z" uid="92274" user="adjuva" changeset="9448586" lat="47.9073255" lon="11.667424">
    <tag k="addr:city" v="Otterfing"/>
    <tag k="addr:country" v="DE"/>
    <tag k="addr:housenumber" v="54"/>
    <tag k="addr:old_housenumber" v="11"/>
    <tag k="addr:postcode" v="83624"/>
    <tag k="addr:street" v="Bergham"/>
  </node>
  <node id="316019821" version="2" timestamp="2010-10-24T05:45:32Z" uid="4467" user="Rosscoe" changeset="6153373" lat="-37.7933282" lon="144.9587493"/>
  <node id="316019821" version="3" timestamp="2011-05-04T01:28:55Z" uid="6513" user="Glen" changeset="8045176" lat="-37.7933321" lon="144.9587064"/>
  <node id="316019822" version="4" timestamp="2010-10-24T05:45:50Z" uid="4467" user="Rosscoe" changeset="6153373" lat="-37.7934462" lon="144.958851">
    <tag k="barrier" v="gate"/>
  </node>
  <node id="316019824" version="2" timestamp="2010-10-23T22:25:01Z" uid="4467" user="Rosscoe" changeset="6152276" lat="-37.7892932" lon="144.9590152"/>
  <node id="316019827" version="2" timestamp="2010-10-23T22:25:06Z" uid="4467" user="Rosscoe" changeset="6152276" lat="-37.7898011" lon="144.959261"/>
  <node id="316019828" version="2" timestamp="2010-10-23T22:24:52Z" uid="4467" user="Rosscoe" changeset="6152276" lat="-37.792005" lon="144.9584823"/>
  <node id="316019837" version="3" timestamp="2010-10-23T22:24:58Z" uid="4467" user="Rosscoe" changeset="6152276" lat="-37.7920107" lon="144.9586682"/>
  <node id="316019838" version="2" timestamp="2010-10-23T22:24:48Z" uid="4467" user="Rosscoe" changeset="6152276" lat="-37.7906264" lon="144.958493"/>
  <node id="316019841" version="2" timestamp="2010-10-23T22:25:11Z" uid="4467" user="Rosscoe" changeset="6152276" lat="-37.7906124" lon="144.9586615"/>
  <node id="316019842" version="2" timestamp="2010-10-23T22:24:56Z" uid="4467" user="Rosscoe" changeset="6152276" lat="-37.7884318" lon="144.9591165"/>
  <node id="316019843" version="2" timestamp="2010-10-23T22:25:28Z" uid="4467" user="Rosscoe" changeset="6152276" lat="-37.7884267" lon="144.958932"/>
  <node id="316019844" version="2" timestamp="2010-10-23T22:25:16Z" uid="4467" user="Rosscoe" changeset="6152276" lat="-37.787644" lon="144.9591975"/>
  <node id="316019845" version="2" timestamp="2010-10-23T22:24:59Z" uid="4467" user="Rosscoe" changeset="6152276" lat="-37.7876327" lon="144.9590232"/>
  <node id="316019846" version="2" timestamp="2010-10-23T22:25:30Z" uid="4467" user="Rosscoe" changeset="6152276" lat="-37.7877413" lon="144.9591178"/>
  <node id="316019847" version="2" timestamp="2010-10-23T22:25:30Z" uid="4467" user="Rosscoe" changeset="6152276" lat="-37.7877263" lon="144.958952"/>
  <node id="316019848" version="2" timestamp="2010-10-23T22:25:30Z" uid="4467" user="Rosscoe" changeset="6152276" lat="-37.7876693" lon="144.9589633"/>
  <node id="316019850" version="2" timestamp="2010-10-23T22:25:17Z" uid="4467" user="Rosscoe" changeset="6152276" lat="-37.786569" lon="144.9593442"/>
  <node id="316019852" version="2" timestamp="2010-10-23T22:24:50Z" uid="4467" user="Rosscoe" changeset="6152276" lat="-37.7865541" lon="144.9591524"/>
  <node id="316019853" version="2" timestamp="2010-10-23T22:25:21Z" uid="4467" user="Rosscoe" changeset="6152276" lat="-37.7865417" lon="144.9589923"/>
  <node id="316019869" version="2" timestamp="2010-10-23T22:25:16Z" uid="4467" user="Rosscoe" changeset="6152276" lat="-37.7855628" lon="144.9594519"/>
  <node id="316019870" version="2" timestamp="2010-10-23T22:25:00Z" uid="4467" user="Rosscoe" changeset="6152276" lat="-37.7855732" lon="144.9595934"/>
  <node id="316019873" version="2" timestamp="2010-10-23T22:25:30Z" uid="4467" user="Rosscoe" changeset="6152276" lat="-37.7856539" lon="144.9596122"/>
  <node id="316019874" version="2" timestamp="2010-10-23T22:25:30Z" uid="4467" user="Rosscoe" changeset="6152276" lat="-37.7857464" lon="144.9593592"/>
  <node id="316019984" version="5" timestamp="2010-05-04T04:21:30Z" uid="4467" user="Rosscoe" changeset="4601071" lat="-36.913063" lon="174.64472">
    <tag k="highway" v="mini_roundabout"/>
  </node>
</osm>
