<?xml version='1.0' encoding='UTF-8'?>
<osm version="0.6" generator="libosmium/2.20.0">
  <node id="316130278" version="3" timestamp="2009-10-02T19:47:20Z" uid="86259" user="hasse_osm_korinthenkacker" changeset="2716821" lat="47.9046696" lon="11.6732895">
    <tag k="addr:city" v="Otterfing"/>
    <tag k="addr:country" v="DE"/>
    <tag k="addr:housenumber" v="35"/>
    <tag k="addr:postcode" v="83624"/>
    <tag k="addr:street" v="Lipizzanerstraße"/>
    <tag k="source" v="survey"/>
  </node>
  <node id="316130278" version="4" timestamp="2009-10-23T11:33:16Z" uid="36809" user="pfoten_weg_!_" changeset="2928981" lat="47.9046696" lon="11.6732895">
    <tag k="addr:city" v="Otterfing"/>
    <tag k="addr:country" v="DE"/>
    <tag k="addr:housenumber" v="35"/>
    <tag k="addr:postcode" v="83624"/>
    <tag k="addr:street" v="Lipizzanerstraße"/>
  </node>
  <node id="316130278" version="5" timestamp="2009-11-09T15:47:19Z" uid="42393" user="mawi42" changeset="3074442" lat="47.9046285" lon="11.6732952">
    <tag k="addr:city" v="Otterfing"/>
    <tag k="addr:country" v="DE"/>
    <tag k="addr:housenumber" v="35"/>
    <tag k="addr:postcode" v="83624"/>
    <tag k="addr:street" v="Lipizzanerstraße"/>
  </node>
  <node id="316130897" version="2" timestamp="2008-12-04T19:57:26Z" uid="6975" user="ulfl" changeset="107048" lat="50.3109968" lon="7.4675647">
    <tag k="amenity" v="kindergarten"/>
  </node>
  <node id="316130897" version="3" timestamp="2008-12-23T16:24:55Z" uid="75939" user="sani" changeset="568167" lat="50.3109934" lon="7.4676568">
    <tag k="amenity" v="kindergarten"/>
    <tag k="name" v="Untern Regenbogen"/>
  </node>
  <node id="316130897" version="4" timestamp="2009-10-31T11:51:02Z" uid="75939" user="sani" changeset="2996614" lat="50.3109666" lon="7.4676268">
    <tag k="amenity" v="kindergarten"/>
    <tag k="name" v="Untern Regenbogen"/>
  </node>
  <node id="316131251" version="2" timestamp="2008-12-04T19:55:25Z" uid="6975" user="ulfl" changeset="107048" lat="50.3084863" lon="7.4573938">
    <tag k="amenity" v="fire_station"/>
  </node>
  <node id="316131251" version="3" timestamp="2008-12-23T20:29:31Z" uid="75939" user="sani" changeset="577251" lat="50.3083898" lon="7.4575617">
    <tag k="amenity" v="fire_station"/>
  </node>
  <node id="316131251" version="4" timestamp="2009-08-08T19:58:38Z" uid="44217" user="kjon" changeset="2079223" lat="50.3083199" lon="7.4575218">
    <tag k="amenity" v="fire_station"/>
  </node>
  <node id="316131334" version="5" timestamp="2009-10-02T19:49:04Z" uid="86259" user="hasse_osm_korinthenkacker" changeset="2716821" lat="47.9181056" lon="11.6745826">
    <tag k="addr:city" v="Otterfing"/>
    <tag k="addr:country" v="DE"/>
    <tag k="addr:housenumber" v="7"/>
    <tag k="addr:postcode" v="83624"/>
    <tag k="addr:street" v="Gewerbering"/>
  </node>
  <node id="316131395" version="5" timestamp="2009-10-02T19:49:04Z" uid="86259" user="hasse_osm_korinthenkacker" changeset="2716821" lat="47.9182734" lon="11.6749023">
    <tag k="addr:city" v="Otterfing"/>
    <tag k="addr:country" v="DE"/>
    <tag k="addr:housenumber" v="8"/>
    <tag k="addr:postcode" v="83624"/>
    <tag k="addr:street" v="Gewerbering"/>
  </node>
  <node id="316131395" version="6" timestamp="2011-01-23T10:58:28Z" uid="42393" user="mawi42" changeset="7059618" lat="47.918259" lon="11.6749345">
    <tag k="addr:city" v="Otterfing"/>
    <tag k="addr:country" v="DE"/>
    <tag k="addr:housenumber" v="8"/>
    <tag k="addr:postcode" v="83624"/>
    <tag k="addr:street" v="Gewerbering"/>
  </node>
  <node id="316131395" version="7" timestamp="2011-01-23T12:12:22Z" uid="42393" user="mawi42" changeset="7060361" lat="47.9182752" lon="11.6749226">
    <tag k="addr:city" v="Otterfing"/>
    <tag k="addr:country" v="DE"/>
    <tag k="addr:housenumber" v="8"/>
    <tag k="addr:postcode" v="83624"/>
    <tag k="addr:street" v="Gewerbering"/>
  </node>
  <node id="316132254" version="4" timestamp="2009-10-02T19:49:05Z" uid="86259" user="hasse_osm_korinthenkacker" changeset="2716821" lat="47.9186702" lon="11.6748519">
    <tag k="addr:city" v="Otterfing"/>
    <tag k="addr:country" v="DE"/>
    <tag k="addr:housenumber" v="7"/>
    <tag k="addr:postcode" v="83624"/>
    <tag k="addr:street" v="Keltenschanz"/>
  </node>
  <node id="316132254" version="5" timestamp="2011-01-23T10:58:27Z" uid="42393" user="mawi42" changeset="7059618" lat="47.9186492" lon="11.674995">
    <tag k="addr:city" v="Otterfing"/>
    <tag k="addr:country" v="DE"/>
    <tag k="addr:housenumber" v="7"/>
    <tag k="addr:postcode" v="83624"/>
    <tag k="addr:street" v="Keltenschanz"/>
  </node>
  <node id="316132921" version="5" timestamp="2009-10-02T19:49:29Z" uid="86259" user="hasse_osm_korinthenkacker" changeset="2716821" lat="47.9153947" lon="11.6788068">
    <tag k="addr:city" v="Otterfing"/>
    <tag k="addr:country" v="DE"/>
    <tag k="addr:housenumber" v="1"/>
    <tag k="addr:postcode" v="83624"/>
    <tag k="addr:street" v="Lehrer-Holl-Straße"/>
  </node>
  <node id="316132921" version="6" timestamp="2009-10-30T09:12:12Z" uid="42393" user="mawi42" changeset="2987542" lat="47.9153971" lon="11.6788176">
    <tag k="addr:city" v="Otterfing"/>
    <tag k="addr:country" v="DE"/>
    <tag k="addr:housenumber" v="1"/>
    <tag k="addr:postcode" v="83624"/>
    <tag k="addr:street" v="Lehrer-Holl-Straße"/>
  </node>
  <node id="316132933" version="4" timestamp="2009-10-02T19:49:02Z" uid="86259" user="hasse_osm_korinthenkacker" changeset="2716821" lat="47.9162612" lon="11.6774389">
    <tag k="addr:city" v="Otterfing"/>
    <tag k="addr:country" v="DE"/>
    <tag k="addr:housenumber" v="6"/>
    <tag k="addr:postcode" v="83624"/>
    <tag k="addr:street" v="Lehrer-Holl-Straße"/>
  </node>
  <node id="316132933" version="5" timestamp="2010-07-22T17:26:40Z" uid="42393" user="mawi42" changeset="5289422" lat="47.9162613" lon="11.6774389">
    <tag k="addr:city" v="Otterfing"/>
    <tag k="addr:country" v="DE"/>
    <tag k="addr:housenumber" v="6"/>
    <tag k="addr:postcode" v="83624"/>
    <tag k="addr:street" v="Lehrer-Holl-Straße"/>
    <tag k="name" v="IST"/>
    <tag k="website" v="http://www.ist-tech.de/"/>
  </node>
  <node id="316132934" version="5" timestamp="2009-10-02T19:49:02Z" uid="86259" user="hasse_osm_korinthenkacker" changeset="2716821" lat="47.9162439" lon="11.6768638">
    <tag k="addr:city" v="Otterfing"/>
    <tag k="addr:country" v="DE"/>
    <tag k="addr:housenumber" v="8"/>
    <tag k="addr:postcode" v="83624"/>
    <tag k="addr:street" v="Lehrer-Holl-Straße"/>
  </node>
  <node id="316134403" version="5" timestamp="2009-10-02T19:48:50Z" uid="86259" user="hasse_osm_korinthenkacker" changeset="2716821" lat="47.911853" lon="11.6731614">
    <tag k="addr:city" v="Otterfing"/>
    <tag k="addr:country" v="DE"/>
    <tag k="addr:housenumber" v="3"/>
    <tag k="addr:postcode" v="83624"/>
    <tag k="addr:street" v="Bäckeranger"/>
    <tag k="source" v="survey"/>
  </node>
  <node id="316134403" version="6" timestamp="2009-10-21T17:13:56Z" uid="42393" user="mawi42" changeset="2914305" lat="47.9118253" lon="11.6731793">
    <tag k="addr:city" v="Otterfing"/>
    <tag k="addr:country" v="DE"/>
    <tag k="addr:housenumber" v="3"/>
    <tag k="addr:postcode" v="83624"/>
    <tag k="addr:street" v="Bäckeranger"/>
    <tag k="source" v="survey"/>
  </node>
  <node id="316134403" version="7" timestamp="2009-10-23T11:35:23Z" uid="36809" user="pfoten_weg_!_" changeset="2928981" lat="47.9118253" lon="11.6731793">
    <tag k="addr:city" v="Otterfing"/>
    <tag k="addr:country" v="DE"/>
    <tag k="addr:housenumber" v="3"/>
    <tag k="addr:postcode" v="83624"/>
    <tag k="addr:street" v="Bäckeranger"/>
  </node>
  <node id="316134762" version="6" timestamp="2009-10-02T19:48:40Z" uid="86259" user="hasse_osm_korinthenkacker" changeset="2716821" lat="47.9119508" lon="11.6720027">
    <tag k="addr:city" v="Otterfing"/>
    <tag k="addr:country" v="DE"/>
    <tag k="addr:housenumber" v="9"/>
    <tag k="addr:postcode" v="83624"/>
    <tag k="addr:street" v="Bäckeranger"/>
    <tag k="source" v="survey"/>
  </node>
  <node id="316134762" version="7" timestamp="2009-10-23T11:34:53Z" uid="36809" user="pfoten_weg_!_" changeset="2928981" lat="47.9119508" lon="11.6720027">
    <tag k="addr:city" v="Otterfing"/>
    <tag k="addr:country" v="DE"/>
    <tag k="addr:housenumber" v="9"/>
    <tag k="addr:postcode" v="83624"/>
    <tag k="addr:street" v="Bäckeranger"/>
  </node>
  <node id="316136010" version="5" timestamp="2008-12-04T20:27:09Z" uid="6975" user="ulfl" changeset="107048" lat="57.7165188" lon="12.025175">
    <tag k="name" v="Solrosgatan"/>
    <tag k="railway" v="tram_stop"/>
  </node>
  <node id="316136010" version="6" timestamp="2011-06-05T20:17:59Z" uid="25408" user="Zawaq" changeset="8353679" lat="57.7165188" lon="12.025175"/>
  <node id="316136173" version="4" timestamp="2009-10-02T19:48:51Z" uid="86259" user="hasse_osm_korinthenkacker" changeset="2716821" lat="47.9128903" lon="11.6733535">
    <tag k="addr:city" v="Otterfing"/>
    <tag k="addr:country" v="DE"/>
    <tag k="addr:housenumber" v="6b"/>
    <tag k="addr:postcode" v="83624"/>
    <tag k="addr:street" v="Bäckeranger"/>
  </node>
  <node id="316136495" version="5" timestamp="2009-10-02T19:48:41Z" uid="86259" user="hasse_osm_korinthenkacker" changeset="2716821" lat="47.9127349" lon="11.6728901">
    <tag k="addr:city" v="Otterfing"/>
    <tag k="addr:country" v="DE"/>
    <tag k="addr:housenumber" v="8"/>
    <tag k="addr:postcode" v="83624"/>
    <tag k="addr:street" v="Bäckeranger"/>
  </node>
  <node id="316136622" version="3" timestamp="2008-12-04T20:27:08Z" uid="6975" user="ulfl" changeset="107048" lat="57.7135716" lon="12.0242256">
    <tag k="name" v="Sanatoriegatan"/>
    <tag k="railway" v="tram_stop"/>
  </node>
  <node id="316136622" version="4" timestamp="2011-06-05T20:17:59Z" uid="25408" user="Zawaq" changeset="8353679" lat="57.7135716" lon="12.0242256"/>
  <node id="316137086" version="3" timestamp="2008-12-04T20:27:10Z" uid="6975" user="ulfl" changeset="107048" lat="57.7010648" lon="12.0165506">
    <tag k="name" v="Bögatan"/>
    <tag k="railway" v="tram_stop"/>
  </node>
  <node id="316137086" version="4" timestamp="2011-01-01T12:39:22Z" uid="4992" user="johnrobot" changeset="6827335" lat="57.7011061" lon="12.0165191">
    <tag k="name" v="Bögatan"/>
    <tag k="railway" v="tram_stop"/>
  </node>
  <node id="316137086" version="5" timestamp="2011-06-05T20:39:22Z" uid="25408" user="Zawaq" changeset="8353679" lat="57.7011097" lon="12.0164613">
    <tag k="name" v="Bögatan"/>
    <tag k="railway" v="tram_stop"/>
  </node>
  <node id="316137581" version="3" timestamp="2008-12-04T20:27:08Z" uid="6975" user="ulfl" changeset="107048" lat="57.699839" lon="12.0032888">
    <tag k="name" v="Bäckeliden"/>
    <tag k="railway" v="tram_stop"/>
  </node>
  <node id="316137581" version="4" timestamp="2011-06-05T20:39:22Z" uid="25408" user="Zawaq" changeset="8353679" lat="57.6999149" lon="12.0033283">
    <tag k="name" v="Bäckeliden"/>
    <tag k="railway" v="tram_stop"/>
  </node>
  <node id="316137723" version="5" timestamp="2008-12-04T20:27:10Z" uid="6975" user="ulfl" changeset="107048" lat="57.6985644" lon="11.9993177">
    <tag k="name" v="Sankt Sigfrids plan"/>
    <tag k="railway" v="tram_stop"/>
  </node>
  <node id="316137723" version="6" timestamp="2011-06-05T20:39:23Z" uid="25408" user="Zawaq" changeset="8353679" lat="57.6985884" lon="11.9992447">
    <tag k="name" v="Sankt Sigfrids plan"/>
    <tag k="railway" v="tram_stop"/>
  </node>
  <node id="316137723" version="7" timestamp="2011-10-03T13:59:30Z" uid="35601" user="magol" changeset="9460418" lat="57.698613" lon="11.9993133">
    <tag k="name" v="Sankt Sigfrids plan"/>
    <tag k="railway" v="tram_stop"/>
  </node>
  <node id="316138193" version="17" timestamp="2010-05-25T08:22:13Z" uid="4467" user="Rosscoe" changeset="4801346" lat="-37.9922646" lon="145.1927763"/>
  <node id="316138194" version="21" timestamp="2010-05-25T08:21:06Z" uid="4467" user="Rosscoe" changeset="4801346" lat="-37.9924333" lon="145.1927491"/>
  <node id="316138197" version="3" timestamp="2010-05-25T09:10:04Z" uid="4467" user="Rosscoe" changeset="4801669" lat="-37.9914977" lon="145.1926836"/>
  <node id="316138379" version="4" timestamp="2008-12-04T19:20:44Z" uid="6975" user="ulfl" changeset="107048" lat="51.5155042" lon="-0.2046769">
    <tag k="amenity" v="bank"/>
    <tag k="name" v="Abbey National"/>
  </node>
  <node id="316138379" version="5" timestamp="2010-02-14T18:09:52Z" uid="64172" user="Pop" changeset="3876719" lat="51.5155042" lon="-0.204677">
    <tag k="amenity" v="bank"/>
    <tag k="name" v="Santander"/>
  </node>
  <node id="316139150" version="2" timestamp="2010-07-29T09:27:33Z" uid="74617" user="JohnSmith" changeset="5344848" lat="48.4430281" lon="10.2096118">
    <tag k="amenity" v="emergency_phone"/>
    <tag k="emergency" v="phone"/>
    <tag k="operator" v="Straßenmeisterei"/>
    <tag k="source" v="Photo"/>
  </node>
  <node id="316139152" version="2" timestamp="2010-07-29T09:24:52Z" uid="74617" user="JohnSmith" changeset="5344848" lat="48.4322944" lon="10.2208208">
    <tag k="amenity" v="emergency_phone"/>
    <tag k="emergency" v="phone"/>
    <tag k="operator" v="Straßenmeisterei"/>
    <tag k="source" v="Photo"/>
  </node>
  <node id="316139152" version="3" timestamp="2010-11-30T06:38:38Z" uid="212111" user="okilimu" changeset="6491861" lat="48.4330541" lon="10.2196387">
    <tag k="amenity" v="emergency_phone"/>
    <tag k="emergency" v="phone"/>
    <tag k="operator" v="Straßenmeisterei"/>
    <tag k="source" v="survey"/>
  </node>
  <node id="316139153" version="2" timestamp="2010-07-29T09:30:01Z" uid="74617" user="JohnSmith" changeset="5344848" lat="48.428829" lon="10.2380592">
    <tag k="amenity" v="emergency_phone"/>
    <tag k="emergency" v="phone"/>
    <tag k="operator" v="Straßenmeisterei"/>
    <tag k="source" v="Photo"/>
  </node>
  <node id="316139155" version="3" timestamp="2010-07-29T09:17:57Z" uid="74617" user="JohnSmith" changeset="5344848" lat="48.4291286" lon="10.2380083">
    <tag k="amenity" v="emergency_phone"/>
    <tag k="emergency" v="phone"/>
    <tag k="operator" v="Straßenmeisterei"/>
    <tag k="source" v="Photo"/>
  </node>
  <node id="316139157" version="2" timestamp="2010-07-29T09:15:11Z" uid="74617" user="JohnSmith" changeset="5344848" lat="48.4292401" lon="10.2526484">
    <tag k="amenity" v="emergency_phone"/>
    <tag k="emergency" v="phone"/>
    <tag k="operator" v="Straßenmeisterei"/>
    <tag k="source" v="Photo"/>
  </node>
  <node id="316139159" version="2" timestamp="2010-07-29T08:58:29Z" uid="74617" user="JohnSmith" changeset="5344848" lat="48.4296635" lon="10.2679887">
    <tag k="amenity" v="emergency_phone"/>
    <tag k="emergency" v="phone"/>
    <tag k="operator" v="Straßenmeisterei"/>
    <tag k="source" v="Photo"/>
  </node>
  <node id="316139169" version="2" timestamp="2010-07-29T09:16:22Z" uid="74617" user="JohnSmith" changeset="5344848" lat="48.4320815" lon="10.2942569">
    <tag k="amenity" v="emergency_phone"/>
    <tag k="emergency" v="phone"/>
    <tag k="operator" v="Straßenmeisterei"/>
    <tag k="source" v="Photo"/>
  </node>
  <node id="316139171" version="2" timestamp="2010-07-29T08:59:58Z" uid="74617" user="JohnSmith" changeset="5344848" lat="48.4368986" lon="10.3206931">
    <tag k="amenity" v="emergency_phone"/>
    <tag k="emergency" v="phone"/>
    <tag k="operator" v="Straßenmeisterei"/>
    <tag k="source" v="Photo"/>
  </node>
</osm>
