<?xml version='1.0' encoding='UTF-8'?>
<osm version="0.6" generator="libosmium/2.20.0">
  <node id="316462997" version="2" timestamp="2011-01-30T17:32:46Z" uid="9581" user="Lobelt" changeset="7136895" lat="49.3623434" lon="8.7843119"/>
  <node id="316463048" version="2" timestamp="2010-03-23T22:28:34Z" uid="9581" user="Lobelt" changeset="4217024" lat="49.3485905" lon="8.7778858"/>
  <node id="316463048" version="3" timestamp="2012-02-04T02:33:14Z" uid="131968" user="changchun_1" changeset="10580903" lat="49.3485905" lon="8.7778858"/>
  <node id="316463049" version="2" timestamp="2010-03-23T22:28:34Z" uid="9581" user="Lobelt" changeset="4217024" lat="49.3513332" lon="8.7777985"/>
  <node id="316463049" version="3" timestamp="2012-03-18T21:20:34Z" uid="136321" user="Teddy73" changeset="11024064" lat="49.3513332" lon="8.7777985"/>
  <node id="316463835" version="2" timestamp="2010-07-29T09:08:47Z" uid="74617" user="JohnSmith" changeset="5344848" lat="48.3819163" lon="11.0836147">
    <tag k="amenity" v="emergency_phone"/>
    <tag k="emergency" v="phone"/>
    <tag k="operator" v="Straßenmeisterei"/>
    <tag k="source" v="Photo"/>
  </node>
  <node id="316463841" version="2" timestamp="2010-07-29T09:40:28Z" uid="74617" user="JohnSmith" changeset="5344848" lat="48.3695441" lon="11.1035011">
    <tag k="amenity" v="emergency_phone"/>
    <tag k="emergency" v="phone"/>
    <tag k="operator" v="Straßenmeisterei"/>
    <tag k="source" v="Photo"/>
  </node>
  <node id="316463842" version="2" timestamp="2010-07-29T09:20:20Z" uid="74617" user="JohnSmith" changeset="5344848" lat="48.3501805" lon="11.1362212">
    <tag k="amenity" v="emergency_phone"/>
    <tag k="emergency" v="phone"/>
    <tag k="operator" v="Straßenmeisterei"/>
    <tag k="source" v="Photo"/>
  </node>
  <node id="316463842" version="3" timestamp="2011-03-03T10:45:59Z" uid="48185" user="Hans Loderer" changeset="7444669" lat="48.350159" lon="11.1361652">
    <tag k="amenity" v="emergency_phone"/>
    <tag k="emergency" v="phone"/>
    <tag k="operator" v="Straßenmeisterei"/>
    <tag k="source" v="Photo"/>
  </node>
  <node id="316463848" version="2" timestamp="2010-07-29T08:57:42Z" uid="74617" user="JohnSmith" changeset="5344848" lat="48.3432358" lon="11.1491677">
    <tag k="amenity" v="emergency_phone"/>
    <tag k="emergency" v="phone"/>
    <tag k="operator" v="Straßenmeisterei"/>
    <tag k="source" v="Photo"/>
  </node>
  <node id="316463851" version="2" timestamp="2010-07-29T09:36:55Z" uid="74617" user="JohnSmith" changeset="5344848" lat="48.3287278" lon="11.1679545">
    <tag k="amenity" v="emergency_phone"/>
    <tag k="emergency" v="phone"/>
    <tag k="operator" v="Straßenmeisterei"/>
    <tag k="source" v="Photo"/>
  </node>
  <node id="316464785" version="2" timestamp="2008-12-10T06:42:01Z" uid="27600" user="Islanit" changeset="302174" lat="51.4506632" lon="7.0206926"/>
  <node id="316464785" version="3" timestamp="2008-12-10T06:42:09Z" uid="27600" user="Islanit" changeset="302174" lat="51.4506632" lon="7.0206926"/>
  <node id="316464785" version="4" timestamp="2010-11-14T12:43:31Z" uid="212204" user="mapmann" changeset="6366303" lat="51.45061" lon="7.0208585"/>
  <node id="316464786" version="2" timestamp="2008-12-10T06:42:01Z" uid="27600" user="Islanit" changeset="302174" lat="51.450683" lon="7.0205972"/>
  <node id="316464786" version="3" timestamp="2008-12-10T06:42:09Z" uid="27600" user="Islanit" changeset="302174" lat="51.450683" lon="7.0205972"/>
  <node id="316464786" version="4" timestamp="2008-12-10T06:42:09Z" uid="27600" user="Islanit" changeset="302174" lat="51.450683" lon="7.0205972"/>
  <node id="316464786" version="5" timestamp="2008-12-10T06:42:35Z" uid="27600" user="Islanit" changeset="302174" lat="51.450683" lon="7.0205972"/>
  <node id="316464786" version="6" timestamp="2009-01-16T20:10:20Z" uid="74746" user="vogelfreier" changeset="797339" lat="51.450683" lon="7.0205972"/>
  <node id="316464786" version="7" timestamp="2010-11-14T12:43:27Z" uid="212204" user="mapmann" changeset="6366303" lat="51.4506206" lon="7.0207046"/>
  <node id="316464786" version="8" timestamp="2012-03-30T15:56:22Z" uid="74746" user="vogelfreier" changeset="11156509" lat="51.4506244" lon="7.0206997"/>
  <node id="316464790" version="2" timestamp="2008-12-10T06:42:35Z" uid="27600" user="Islanit" changeset="302174" lat="51.4506822" lon="7.0205615"/>
  <node id="316464790" version="3" timestamp="2010-07-04T18:54:15Z" uid="74746" user="vogelfreier" changeset="5135779" lat="51.4506822" lon="7.0205615">
    <tag k="highway" v="turning_circle"/>
  </node>
  <node id="316464790" version="4" timestamp="2010-12-04T13:32:00Z" uid="74746" user="vogelfreier" changeset="6537748" lat="51.4506159" lon="7.0206638">
    <tag k="highway" v="turning_circle"/>
  </node>
  <node id="316464796" version="2" timestamp="2008-12-10T06:41:41Z" uid="27600" user="Islanit" changeset="302174" lat="51.4504981" lon="7.0197905"/>
  <node id="316464796" version="3" timestamp="2009-01-21T16:25:13Z" uid="74746" user="vogelfreier" changeset="820194" lat="51.4504981" lon="7.0197905"/>
  <node id="316464796" version="4" timestamp="2010-07-04T18:29:22Z" uid="74746" user="vogelfreier" changeset="5135779" lat="51.4504199" lon="7.0196956"/>
  <node id="316464796" version="5" timestamp="2010-12-04T13:31:26Z" uid="74746" user="vogelfreier" changeset="6537748" lat="51.4503718" lon="7.0196648"/>
  <node id="316464797" version="2" timestamp="2008-12-10T06:41:41Z" uid="27600" user="Islanit" changeset="302174" lat="51.4505926" lon="7.0196481"/>
  <node id="316464797" version="3" timestamp="2008-12-10T06:41:41Z" uid="27600" user="Islanit" changeset="302174" lat="51.4505926" lon="7.0196481"/>
  <node id="316464797" version="4" timestamp="2009-01-21T16:25:14Z" uid="74746" user="vogelfreier" changeset="820194" lat="51.4505926" lon="7.0196481"/>
  <node id="316464797" version="5" timestamp="2010-07-04T18:29:22Z" uid="74746" user="vogelfreier" changeset="5135779" lat="51.4505837" lon="7.0196044"/>
  <node id="316464797" version="6" timestamp="2010-12-04T13:31:30Z" uid="74746" user="vogelfreier" changeset="6537748" lat="51.4505748" lon="7.0195456"/>
  <node id="316464801" version="2" timestamp="2008-12-10T06:41:41Z" uid="27600" user="Islanit" changeset="302174" lat="51.4506579" lon="7.0195229"/>
  <node id="316464801" version="3" timestamp="2010-07-04T18:20:53Z" uid="74746" user="vogelfreier" changeset="5135636" lat="51.4506106" lon="7.0194006"/>
  <node id="316464802" version="2" timestamp="2008-12-10T06:41:41Z" uid="27600" user="Islanit" changeset="302174" lat="51.4504529" lon="7.0191061"/>
  <node id="316464802" version="3" timestamp="2010-07-04T18:20:53Z" uid="74746" user="vogelfreier" changeset="5135636" lat="51.4504134" lon="7.0189258"/>
  <node id="316464803" version="2" timestamp="2008-12-10T06:41:41Z" uid="27600" user="Islanit" changeset="302174" lat="51.4503089" lon="7.0194252"/>
  <node id="316464803" version="3" timestamp="2010-07-04T18:18:51Z" uid="74746" user="vogelfreier" changeset="5135636" lat="51.4502897" lon="7.0194381"/>
  <node id="316464803" version="4" timestamp="2010-07-04T18:20:53Z" uid="74746" user="vogelfreier" changeset="5135636" lat="51.4502345" lon="7.0191377"/>
  <node id="316464803" version="5" timestamp="2010-07-04T18:29:42Z" uid="74746" user="vogelfreier" changeset="5135779" lat="51.4502594" lon="7.0191591"/>
  <node id="316464804" version="2" timestamp="2008-12-10T06:41:41Z" uid="27600" user="Islanit" changeset="302174" lat="51.4504225" lon="7.0199071"/>
  <node id="316464804" version="3" timestamp="2010-07-04T18:18:51Z" uid="74746" user="vogelfreier" changeset="5135636" lat="51.4504117" lon="7.0199183"/>
  <node id="316464804" version="4" timestamp="2010-07-04T18:20:53Z" uid="74746" user="vogelfreier" changeset="5135636" lat="51.4503566" lon="7.0197171"/>
  <node id="316464804" version="5" timestamp="2010-12-04T13:31:52Z" uid="74746" user="vogelfreier" changeset="6537748" lat="51.4503349" lon="7.0196605"/>
  <node id="316465102" version="3" timestamp="2010-07-29T09:12:39Z" uid="74617" user="JohnSmith" changeset="5344848" lat="48.1830692" lon="9.7816187">
    <tag k="amenity" v="emergency_phone"/>
    <tag k="emergency" v="phone"/>
  </node>
  <node id="316465895" version="2" timestamp="2010-07-29T09:03:04Z" uid="74617" user="JohnSmith" changeset="5344848" lat="48.2933544" lon="11.2356392">
    <tag k="amenity" v="emergency_phone"/>
    <tag k="emergency" v="phone"/>
    <tag k="operator" v="Straßenmeisterei"/>
    <tag k="source" v="Photo"/>
  </node>
  <node id="316465895" version="3" timestamp="2011-03-03T10:55:59Z" uid="48185" user="Hans Loderer" changeset="7444669" lat="48.2934714" lon="11.2356913">
    <tag k="amenity" v="emergency_phone"/>
    <tag k="emergency" v="phone"/>
    <tag k="operator" v="Straßenmeisterei"/>
    <tag k="source" v="Photo"/>
  </node>
  <node id="316465903" version="2" timestamp="2009-09-30T13:39:45Z" uid="36809" user="pfoten_weg_!_" changeset="2688655" lat="48.2790267" lon="11.2733366">
    <tag k="amenity" v="emergency_phone"/>
    <tag k="operator" v="Straßenmeisterei"/>
  </node>
  <node id="316465903" version="3" timestamp="2010-07-29T09:15:53Z" uid="74617" user="JohnSmith" changeset="5344848" lat="48.2790267" lon="11.2733366">
    <tag k="amenity" v="emergency_phone"/>
    <tag k="emergency" v="phone"/>
    <tag k="operator" v="Straßenmeisterei"/>
  </node>
  <node id="316467937" version="3" timestamp="2009-08-26T09:49:50Z" uid="36809" user="pfoten_weg_!_" changeset="2265457" lat="48.1062905" lon="11.5215888">
    <tag k="highway" v="bus_stop"/>
    <tag k="network" v="MVV"/>
    <tag k="operator" v="MVG"/>
  </node>
  <node id="316467937" version="4" timestamp="2010-02-06T22:34:46Z" uid="224490" user="Kietob" changeset="3809701" lat="48.1064914" lon="11.5220658">
    <tag k="highway" v="bus_stop"/>
    <tag k="name" v="Höglwörther Str."/>
    <tag k="network" v="MVV"/>
    <tag k="operator" v="MVG"/>
  </node>
  <node id="316467937" version="5" timestamp="2010-02-08T13:06:05Z" uid="70696" user="xybot" changeset="3822866" lat="48.1064914" lon="11.5220658">
    <tag k="highway" v="bus_stop"/>
    <tag k="name" v="Höglwörther Straße"/>
    <tag k="network" v="MVV"/>
    <tag k="operator" v="MVG"/>
  </node>
  <node id="316467937" version="6" timestamp="2010-04-24T02:01:42Z" uid="46472" user="sendelhorst" changeset="4508783" lat="48.1064914" lon="11.5220658">
    <tag k="bus_routes" v="132"/>
    <tag k="highway" v="bus_stop"/>
    <tag k="name" v="Höglwörther Straße"/>
    <tag k="network" v="MVV"/>
    <tag k="operator" v="MVG"/>
  </node>
  <node id="316467937" version="7" timestamp="2010-04-27T16:30:20Z" uid="224490" user="Geo-Tobi" changeset="4542571" lat="48.1063156" lon="11.52166">
    <tag k="highway" v="bus_stop"/>
    <tag k="name" v="Höglwörther Straße"/>
    <tag k="network" v="MVV"/>
    <tag k="operator" v="MVG"/>
    <tag k="ref" v="132"/>
  </node>
  <node id="316467937" version="8" timestamp="2010-04-27T19:33:42Z" uid="46472" user="sendelhorst" changeset="4544211" lat="48.1063156" lon="11.52166">
    <tag k="bus_routes" v="132"/>
    <tag k="highway" v="bus_stop"/>
    <tag k="name" v="Höglwörther Straße"/>
    <tag k="network" v="MVV"/>
    <tag k="operator" v="Münchner Verkehrsgesellschaft mbH"/>
    <tag k="ref" v="132"/>
  </node>
  <node id="316467938" version="3" timestamp="2009-08-26T09:49:49Z" uid="36809" user="pfoten_weg_!_" changeset="2265457" lat="48.1090344" lon="11.5263869">
    <tag k="highway" v="bus_stop"/>
    <tag k="network" v="MVV"/>
    <tag k="operator" v="MVG"/>
  </node>
  <node id="316467938" version="4" timestamp="2010-01-26T21:48:58Z" uid="224490" user="Kietob" changeset="3723782" lat="48.1090344" lon="11.5263869">
    <tag k="highway" v="bus_stop"/>
    <tag k="name" v="Grünstraße"/>
    <tag k="network" v="MVV"/>
    <tag k="operator" v="MVG"/>
    <tag k="ref" v="132"/>
  </node>
  <node id="316467938" version="5" timestamp="2010-01-31T15:54:12Z" uid="224490" user="Kietob" changeset="3760403" lat="48.1090367" lon="11.5263572">
    <tag k="highway" v="bus_stop"/>
    <tag k="name" v="Grünstraße"/>
    <tag k="network" v="MVV"/>
    <tag k="operator" v="MVG"/>
    <tag k="ref" v="132"/>
  </node>
  <node id="316467938" version="6" timestamp="2010-04-24T02:01:46Z" uid="46472" user="sendelhorst" changeset="4508783" lat="48.1090367" lon="11.5263572">
    <tag k="bus_routes" v="132"/>
    <tag k="highway" v="bus_stop"/>
    <tag k="name" v="Grünstraße"/>
    <tag k="network" v="MVV"/>
    <tag k="operator" v="MVG"/>
    <tag k="ref" v="132"/>
  </node>
  <node id="316467938" version="7" timestamp="2010-04-27T16:40:47Z" uid="224490" user="Geo-Tobi" changeset="4542626" lat="48.1090367" lon="11.5263572">
    <tag k="highway" v="bus_stop"/>
    <tag k="name" v="Grünstraße"/>
    <tag k="network" v="MVV"/>
    <tag k="operator" v="MVG"/>
    <tag k="ref" v="132"/>
  </node>
  <node id="316467938" version="8" timestamp="2010-04-27T19:33:41Z" uid="46472" user="sendelhorst" changeset="4544211" lat="48.1090367" lon="11.5263572">
    <tag k="bus_routes" v="132"/>
    <tag k="highway" v="bus_stop"/>
    <tag k="name" v="Grünstraße"/>
    <tag k="network" v="MVV"/>
    <tag k="operator" v="Münchner Verkehrsgesellschaft mbH"/>
    <tag k="ref" v="132"/>
  </node>
  <node id="316467939" version="3" timestamp="2009-08-26T09:49:34Z" uid="36809" user="pfoten_weg_!_" changeset="2265457" lat="48.1092187" lon="11.5261256">
    <tag k="highway" v="bus_stop"/>
    <tag k="network" v="MVV"/>
    <tag k="operator" v="MVG"/>
  </node>
  <node id="316467939" version="4" timestamp="2010-01-26T21:48:58Z" uid="224490" user="Kietob" changeset="3723782" lat="48.1092187" lon="11.5261256">
    <tag k="highway" v="bus_stop"/>
    <tag k="name" v="Grünstraße"/>
    <tag k="network" v="MVV"/>
    <tag k="operator" v="MVG"/>
    <tag k="ref" v="132"/>
  </node>
  <node id="316467939" version="5" timestamp="2010-01-31T15:54:12Z" uid="224490" user="Kietob" changeset="3760403" lat="48.1092027" lon="11.5261988">
    <tag k="highway" v="bus_stop"/>
    <tag k="name" v="Grünstraße"/>
    <tag k="network" v="MVV"/>
    <tag k="operator" v="MVG"/>
    <tag k="ref" v="132"/>
  </node>
  <node id="316467939" version="6" timestamp="2010-04-24T02:01:47Z" uid="46472" user="sendelhorst" changeset="4508783" lat="48.1092027" lon="11.5261988">
    <tag k="bus_routes" v="132"/>
    <tag k="highway" v="bus_stop"/>
    <tag k="name" v="Grünstraße"/>
    <tag k="network" v="MVV"/>
    <tag k="operator" v="MVG"/>
    <tag k="ref" v="132"/>
  </node>
  <node id="316467939" version="7" timestamp="2010-04-27T19:33:30Z" uid="46472" user="sendelhorst" changeset="4544211" lat="48.1092027" lon="11.5261988">
    <tag k="bus_routes" v="132"/>
    <tag k="highway" v="bus_stop"/>
    <tag k="name" v="Grünstraße"/>
    <tag k="network" v="MVV"/>
    <tag k="operator" v="Münchner Verkehrsgesellschaft mbH"/>
    <tag k="ref" v="132"/>
  </node>
  <node id="316469984" version="3" timestamp="2011-05-31T13:38:13Z" uid="115477" user="wowik" changeset="8301336" lat="55.8087261" lon="37.5082803"/>
  <node id="316469987" version="3" timestamp="2011-05-31T13:38:15Z" uid="115477" user="wowik" changeset="8301336" lat="55.8097271" lon="37.5081034"/>
  <node id="316469991" version="3" timestamp="2011-05-31T13:38:14Z" uid="115477" user="wowik" changeset="8301336" lat="55.8094824" lon="37.5077187"/>
  <node id="316469995" version="3" timestamp="2011-05-31T13:39:18Z" uid="115477" user="wowik" changeset="8301336" lat="55.8094588" lon="37.5071401"/>
  <node id="316469995" version="4" timestamp="2011-08-09T13:53:37Z" uid="65083" user="deep125" changeset="8967438" lat="55.8094461" lon="37.5071095"/>
  <node id="316469999" version="3" timestamp="2011-05-31T13:39:16Z" uid="115477" user="wowik" changeset="8301336" lat="55.8094758" lon="37.5071194"/>
  <node id="316469999" version="4" timestamp="2011-08-09T13:53:37Z" uid="65083" user="deep125" changeset="8967438" lat="55.8094695" lon="37.5070791"/>
</osm>
