<?xml version='1.0' encoding='UTF-8'?>
<osm version="0.6" generator="libosmium/2.20.0">
  <node id="316590112" version="2" timestamp="2009-12-23T08:33:15Z" uid="4467" user="Rosscoe" changeset="3432686" lat="-40.9601425" lon="148.0084079">
    <tag k="name" v="Gladstone Hall"/>
    <tag k="tourism" v="camp_site"/>
  </node>
  <node id="316590186" version="3" timestamp="2009-11-05T13:36:08Z" uid="4467" user="Rosscoe" changeset="3040439" lat="-41.0637401" lon="148.2938699">
    <tag k="name" v="Policemans Point Campground - Bay of Fires Cons Area"/>
    <tag k="tourism" v="camp_site"/>
  </node>
  <node id="316590186" version="4" timestamp="2011-03-05T09:57:21Z" uid="79620" user="CraigRat" changeset="7461331" lat="-41.0634693" lon="148.2940277">
    <tag k="name" v="Policemans Point Campground - Bay of Fires Cons Area"/>
    <tag k="tourism" v="camp_site"/>
  </node>
  <node id="316590186" version="5" timestamp="2012-01-18T11:18:14Z" uid="78837" user="modellerau" changeset="10426382" lat="-41.0634601" lon="148.2939791">
    <tag k="name" v="Policemans Point Campground - Bay of Fires Cons Area"/>
    <tag k="tourism" v="camp_site"/>
  </node>
  <node id="316590245" version="3" timestamp="2009-11-11T01:45:04Z" uid="4467" user="Rosscoe" changeset="3086934" lat="-41.9880216" lon="148.2880471">
    <tag k="name" v="Friendly Beaches Campground - Freycinet NP"/>
    <tag k="tourism" v="camp_site"/>
  </node>
  <node id="316590245" version="4" timestamp="2012-01-18T11:18:23Z" uid="78837" user="modellerau" changeset="10426382" lat="-41.9880216" lon="148.2880471">
    <tag k="name" v="Friendly Beaches Campground - Freycinet NP"/>
    <tag k="tourism" v="camp_site"/>
  </node>
  <node id="316590248" version="3" timestamp="2009-11-11T01:41:17Z" uid="4467" user="Rosscoe" changeset="3086934" lat="-42.0879952" lon="148.2361625">
    <tag k="name" v="River and Rocks Campground"/>
    <tag k="tourism" v="camp_site"/>
  </node>
  <node id="316590248" version="4" timestamp="2012-01-18T11:18:22Z" uid="78837" user="modellerau" changeset="10426382" lat="-42.0869837" lon="148.2325133">
    <tag k="name" v="River and Rocks Campground"/>
    <tag k="tourism" v="camp_site"/>
  </node>
  <node id="316590279" version="3" timestamp="2010-03-16T07:11:12Z" uid="4467" user="Rosscoe" changeset="4141070" lat="-41.5902354" lon="147.1250863">
    <tag k="name" v="Longford Riverside Caravan Park"/>
    <tag k="tourism" v="caravan_site"/>
  </node>
  <node id="316590279" version="4" timestamp="2011-07-23T23:49:44Z" uid="46482" user="Leon K" changeset="8811132" lat="-41.5902354" lon="147.1250863"/>
  <node id="316590364" version="2" timestamp="2010-03-05T06:17:26Z" uid="4467" user="Rosscoe" changeset="4038293" lat="-42.0301573" lon="147.4908017">
    <tag k="name" v="Ross Caravan Park"/>
    <tag k="source" v="survey"/>
    <tag k="tourism" v="caravan_site"/>
  </node>
  <node id="316590405" version="2" timestamp="2009-11-07T04:43:05Z" uid="4467" user="Rosscoe" changeset="3053399" lat="-42.1115141" lon="146.9307274">
    <tag k="name" v="Lagoon of Islands"/>
    <tag k="tourism" v="camp_site"/>
  </node>
  <node id="316590405" version="3" timestamp="2012-01-18T11:18:15Z" uid="78837" user="modellerau" changeset="10426382" lat="-42.1116235" lon="146.9345614">
    <tag k="name" v="Lagoon of Islands"/>
    <tag k="tourism" v="camp_site"/>
  </node>
  <node id="316590461" version="2" timestamp="2011-03-18T16:42:16Z" uid="4467" user="Rosscoe" changeset="7597015" lat="-42.900001" lon="147.669998">
    <tag k="name" v="Primrose Sands RSLA Club"/>
    <tag k="tourism" v="camp_site"/>
  </node>
  <node id="316590465" version="2" timestamp="2009-11-07T04:34:15Z" uid="4467" user="Rosscoe" changeset="3053391" lat="-42.1335174" lon="147.1685009">
    <tag k="name" v="Dago Point Campground"/>
    <tag k="tourism" v="camp_site"/>
  </node>
  <node id="316590465" version="3" timestamp="2010-03-05T01:26:16Z" uid="4467" user="Rosscoe" changeset="4037871" lat="-42.132376" lon="147.1656037">
    <tag k="name" v="Dago Point Campground"/>
    <tag k="source" v="survey"/>
    <tag k="tourism" v="camp_site"/>
  </node>
  <node id="316590465" version="4" timestamp="2010-03-05T06:17:26Z" uid="4467" user="Rosscoe" changeset="4038293" lat="-42.1328176" lon="147.1662287">
    <tag k="name" v="Dago Point Campground"/>
    <tag k="source" v="survey"/>
    <tag k="tourism" v="camp_site"/>
  </node>
  <node id="316590465" version="5" timestamp="2012-01-18T11:18:10Z" uid="78837" user="modellerau" changeset="10426382" lat="-42.1328176" lon="147.1662287">
    <tag k="name" v="Dago Point Campground"/>
    <tag k="source" v="survey"/>
    <tag k="tourism" v="camp_site"/>
  </node>
  <node id="316590470" version="2" timestamp="2010-03-05T01:12:57Z" uid="4467" user="Rosscoe" changeset="4037841" lat="-42.3841747" lon="147.0098922">
    <tag k="name" v="Bothwell Caravan Park"/>
    <tag k="source" v="survey"/>
    <tag k="tourism" v="caravan_site"/>
  </node>
  <node id="316590483" version="2" timestamp="2009-11-09T06:37:16Z" uid="4467" user="Rosscoe" changeset="3070944" lat="-42.957514" lon="147.7034157">
    <tag k="name" v="Lime Bay Campground"/>
    <tag k="tourism" v="camp_site"/>
  </node>
  <node id="316590483" version="3" timestamp="2012-01-18T07:00:46Z" uid="78837" user="modellerau" changeset="10424792" lat="-42.957514" lon="147.7034157">
    <tag k="name" v="Lime Bay Campground"/>
    <tag k="tourism" v="camp_site"/>
  </node>
  <node id="316590486" version="2" timestamp="2010-03-04T10:52:51Z" uid="4467" user="Rosscoe" changeset="4031561" lat="-43.0904398" lon="147.0111409">
    <tag k="name" v="Franklin Foreshore Reserve"/>
    <tag k="tourism" v="camp_site"/>
  </node>
  <node id="316590486" version="3" timestamp="2012-01-18T07:00:50Z" uid="78837" user="modellerau" changeset="10424792" lat="-43.0919584" lon="147.0100516">
    <tag k="name" v="Franklin Foreshore Reserve"/>
    <tag k="tourism" v="camp_site"/>
  </node>
  <node id="316590487" version="2" timestamp="2010-03-04T23:15:21Z" uid="4467" user="Rosscoe" changeset="4037403" lat="-43.1563809" lon="147.0750167">
    <tag k="name" v="Cygnet Holiday Park"/>
    <tag k="source" v="survey"/>
    <tag k="tourism" v="caravan_site"/>
  </node>
  <node id="316590487" version="3" timestamp="2011-02-26T23:55:41Z" uid="4467" user="Rosscoe" changeset="7405856" lat="-43.1564417" lon="147.0745901">
    <tag k="name" v="Cygnet Holiday Park"/>
    <tag k="source" v="survey"/>
    <tag k="tourism" v="caravan_site"/>
  </node>
  <node id="316590491" version="2" timestamp="2010-03-04T11:06:37Z" uid="4467" user="Rosscoe" changeset="4031561" lat="-43.5829264" lon="146.8960849">
    <tag k="name" v="Boltons Green Campground - Southwest NP"/>
    <tag k="tourism" v="camp_site"/>
  </node>
  <node id="316590491" version="3" timestamp="2012-01-18T06:36:52Z" uid="78837" user="modellerau" changeset="10424727" lat="-43.5828775" lon="146.8950995">
    <tag k="name" v="Boltons Green Campground - Southwest NP"/>
    <tag k="tourism" v="camp_site"/>
  </node>
  <node id="316590529" version="2" timestamp="2010-03-04T10:43:36Z" uid="4467" user="Rosscoe" changeset="4031561" lat="-43.2998708" lon="147.3209897">
    <tag k="name" v="The Neck Campground"/>
    <tag k="tourism" v="camp_site"/>
  </node>
  <node id="316590529" version="3" timestamp="2012-01-18T07:00:52Z" uid="78837" user="modellerau" changeset="10424792" lat="-43.2971602" lon="147.3171843">
    <tag k="name" v="The Neck Campground"/>
    <tag k="tourism" v="camp_site"/>
  </node>
  <node id="316590534" version="2" timestamp="2009-11-09T04:24:45Z" uid="4467" user="Rosscoe" changeset="3070649" lat="-43.5408984" lon="146.8934215">
    <tag k="name" v="Gilhams Beach Campground - Recherche Bay Nature Rec Area"/>
    <tag k="tourism" v="camp_site"/>
  </node>
  <node id="316590536" version="2" timestamp="2010-03-04T11:04:31Z" uid="4467" user="Rosscoe" changeset="4031561" lat="-43.4223666" lon="146.9732896">
    <tag k="name" v="Southport Tavern"/>
    <tag k="tourism" v="caravan_site"/>
  </node>
  <node id="316590536" version="3" timestamp="2010-03-04T23:40:43Z" uid="4467" user="Rosscoe" changeset="4037514" lat="-43.4241272" lon="146.9729599">
    <tag k="name" v="Southport Tavern"/>
    <tag k="tourism" v="caravan_site"/>
  </node>
  <node id="316590537" version="2" timestamp="2009-11-09T04:24:45Z" uid="4467" user="Rosscoe" changeset="3070649" lat="-43.580272" lon="146.8884446">
    <tag k="name" v="Cockle Creek Campground - Recherche Bay Nature Rec Area"/>
    <tag k="tourism" v="camp_site"/>
  </node>
  <node id="316590537" version="3" timestamp="2010-03-04T11:06:06Z" uid="4467" user="Rosscoe" changeset="4031561" lat="-43.5810922" lon="146.8884889">
    <tag k="name" v="Cockle Creek Campground - Recherche Bay Nature Rec Area"/>
    <tag k="tourism" v="camp_site"/>
  </node>
  <node id="316590537" version="4" timestamp="2012-01-18T06:36:52Z" uid="78837" user="modellerau" changeset="10424727" lat="-43.578276" lon="146.8869096">
    <tag k="name" v="Cockle Creek Campground - Recherche Bay Nature Rec Area"/>
    <tag k="tourism" v="camp_site"/>
  </node>
  <node id="316590540" version="2" timestamp="2009-11-02T01:11:44Z" uid="4467" user="Rosscoe" changeset="3013028" lat="-42.0954482" lon="145.6760731">
    <tag k="name" v="Lake Burbury Campground"/>
    <tag k="tourism" v="camp_site"/>
  </node>
  <node id="316590540" version="3" timestamp="2012-01-18T06:36:52Z" uid="78837" user="modellerau" changeset="10424727" lat="-42.0954482" lon="145.6760731">
    <tag k="name" v="Lake Burbury Campground"/>
    <tag k="tourism" v="camp_site"/>
  </node>
  <node id="316590541" version="2" timestamp="2009-12-24T13:26:21Z" uid="4467" user="Rosscoe" changeset="3442183" lat="-42.119998" lon="146.179992">
    <tag k="created_by" v="www.campsaustraliawide.com"/>
    <tag k="name" v="Cynthia Bay Campground - Cradle Mt - Lake St Clair NP"/>
    <tag k="tourism" v="camp_site"/>
  </node>
  <node id="316590550" version="2" timestamp="2010-03-04T10:42:53Z" uid="4467" user="Rosscoe" changeset="4031561" lat="-43.3640513" lon="147.3563949">
    <tag k="name" v="Adventure Bay Holiday Village"/>
    <tag k="tourism" v="caravan_site"/>
  </node>
  <node id="316590550" version="3" timestamp="2010-04-17T02:47:40Z" uid="4467" user="Rosscoe" changeset="4444034" lat="-43.3640513" lon="147.356395">
    <tag k="name" v="Adventure Bay Holiday Village"/>
    <tag k="source" v="survey"/>
    <tag k="tourism" v="caravan_site"/>
  </node>
  <node id="316590550" version="4" timestamp="2012-01-18T07:00:44Z" uid="78837" user="modellerau" changeset="10424792" lat="-43.3641567" lon="147.3556702">
    <tag k="name" v="Adventure Bay Holiday Village"/>
    <tag k="source" v="survey"/>
    <tag k="tourism" v="caravan_site"/>
  </node>
  <node id="316590554" version="2" timestamp="2010-03-04T10:42:47Z" uid="4467" user="Rosscoe" changeset="4031561" lat="-43.3656424" lon="147.3342935">
    <tag k="name" v="Capt James Cook Memorial Caravan Park"/>
    <tag k="tourism" v="caravan_site"/>
  </node>
  <node id="316590554" version="3" timestamp="2012-01-18T07:00:50Z" uid="78837" user="modellerau" changeset="10424792" lat="-43.364965" lon="147.3335687">
    <tag k="name" v="Capt James Cook Memorial Caravan Park"/>
    <tag k="tourism" v="caravan_site"/>
  </node>
  <node id="316590555" version="2" timestamp="2009-12-24T13:26:16Z" uid="4467" user="Rosscoe" changeset="3442183" lat="-42.1503574" lon="146.217328">
    <tag k="name" v="Lake King William"/>
    <tag k="tourism" v="camp_site"/>
  </node>
  <node id="316590555" version="3" timestamp="2012-01-18T11:26:52Z" uid="78837" user="modellerau" changeset="10426446" lat="-42.1463032" lon="146.2184783">
    <tag k="name" v="Lake King William"/>
    <tag k="tourism" v="camp_site"/>
  </node>
  <node id="316590561" version="2" timestamp="2009-11-02T08:54:23Z" uid="4467" user="Rosscoe" changeset="3014482" lat="-41.2758924" lon="145.6135635">
    <tag k="name" v="Hellyer Gorge Rest Area"/>
    <tag k="tourism" v="camp_site"/>
  </node>
  <node id="316590561" version="3" timestamp="2010-10-10T06:37:53Z" uid="276071" user="Dave- Tas" changeset="5999016" lat="-41.2728908" lon="145.6153913">
    <tag k="name" v="Hellyer Gorge Rest Area"/>
    <tag k="tourism" v="camp_site"/>
  </node>
  <node id="316590561" version="4" timestamp="2012-01-18T11:18:20Z" uid="78837" user="modellerau" changeset="10426382" lat="-41.2735545" lon="145.6150277">
    <tag k="name" v="Hellyer Gorge Rest Area"/>
    <tag k="tourism" v="camp_site"/>
  </node>
  <node id="316590562" version="2" timestamp="2010-03-05T00:16:45Z" uid="4467" user="Rosscoe" changeset="4037689" lat="-42.7753246" lon="147.0670521">
    <tag k="name" v="New Norfolk Caravan Park"/>
    <tag k="source" v="survey"/>
    <tag k="tourism" v="caravan_site"/>
  </node>
  <node id="316590562" version="3" timestamp="2012-01-18T09:28:57Z" uid="78837" user="modellerau" changeset="10425629" lat="-42.775962" lon="147.0665535">
    <tag k="name" v="New Norfolk Caravan Park"/>
    <tag k="source" v="survey"/>
    <tag k="tourism" v="caravan_site"/>
  </node>
  <node id="316590592" version="2" timestamp="2010-03-05T07:08:22Z" uid="4467" user="Rosscoe" changeset="4038432" lat="-41.4449583" lon="145.5311453">
    <tag k="name" v="Waratah Caravan Park"/>
    <tag k="source" v="survey"/>
    <tag k="tourism" v="caravan_site"/>
  </node>
  <node id="316590602" version="2" timestamp="2009-10-26T13:53:24Z" uid="4467" user="Rosscoe" changeset="2956351" lat="-42.1420955" lon="145.2646803">
    <tag k="name" v="Ocean Beach Coastal Reserve"/>
    <tag k="tourism" v="camp_site"/>
  </node>
  <node id="316590602" version="3" timestamp="2010-02-06T08:33:55Z" uid="4467" user="Rosscoe" changeset="3803199" lat="-42.1437916" lon="145.2655779">
    <tag k="name" v="Ocean Beach Coastal Reserve"/>
    <tag k="tourism" v="camp_site"/>
  </node>
  <node id="316590617" version="3" timestamp="2010-02-07T01:13:13Z" uid="4467" user="Rosscoe" changeset="3810452" lat="-42.2207305" lon="145.2292908">
    <tag k="name" v="Macquarie Heads Campground"/>
    <tag k="source" v="survey"/>
    <tag k="tourism" v="camp_site"/>
  </node>
  <node id="316590636" version="2" timestamp="2009-12-24T13:26:16Z" uid="4467" user="Rosscoe" changeset="3442183" lat="-42.3888592" lon="146.5051907">
    <tag k="name" v="Wayatinah Campground"/>
    <tag k="tourism" v="camp_site"/>
  </node>
  <node id="316590636" version="3" timestamp="2010-12-12T23:03:33Z" uid="373799" user="andrewmfarrow" changeset="6643204" lat="-42.3858934" lon="146.506279">
    <tag k="name" v="Wayatinah Campground"/>
    <tag k="tourism" v="camp_site"/>
  </node>
  <node id="316590636" version="4" timestamp="2012-01-18T11:18:11Z" uid="78837" user="modellerau" changeset="10426382" lat="-42.3858934" lon="146.506279">
    <tag k="name" v="Wayatinah Campground"/>
    <tag k="tourism" v="camp_site"/>
  </node>
  <node id="316590695" version="2" timestamp="2010-03-05T01:08:30Z" uid="4467" user="Rosscoe" changeset="4037832" lat="-42.5593672" lon="146.8305624">
    <tag k="name" v="Hamilton Common"/>
    <tag k="source" v="survey"/>
    <tag k="tourism" v="camp_site"/>
  </node>
  <node id="316590695" version="3" timestamp="2012-01-18T11:18:20Z" uid="78837" user="modellerau" changeset="10426382" lat="-42.5593672" lon="146.8305624">
    <tag k="name" v="Hamilton Common"/>
    <tag k="source" v="survey"/>
    <tag k="tourism" v="camp_site"/>
  </node>
  <node id="316590697" version="2" timestamp="2011-04-12T07:31:06Z" uid="4467" user="Rosscoe" changeset="7839941" lat="-41.509998" lon="147.059997">
    <tag k="name" v="South Esk Lions Park"/>
    <tag k="tourism" v="camp_site"/>
  </node>
  <node id="316590697" version="3" timestamp="2011-11-19T03:17:46Z" uid="46482" user="Leon K" changeset="9869868" lat="-41.5097417" lon="147.0585255">
    <tag k="name" v="South Esk Lions Park"/>
    <tag k="tourism" v="camp_site"/>
  </node>
  <node id="316590697" version="4" timestamp="2012-01-18T11:18:12Z" uid="78837" user="modellerau" changeset="10426382" lat="-41.5097417" lon="147.0585255">
    <tag k="name" v="South Esk Lions Park"/>
    <tag k="tourism" v="camp_site"/>
  </node>
  <node id="316590706" version="3" timestamp="2010-02-11T07:33:44Z" uid="4467" user="Rosscoe" changeset="3846076" lat="-41.4510296" lon="145.6209577">
    <tag k="name" v="Fossey River Rest Area"/>
    <tag k="source" v="survey"/>
    <tag k="tourism" v="camp_site"/>
  </node>
  <node id="316590706" version="4" timestamp="2012-01-18T11:18:15Z" uid="78837" user="modellerau" changeset="10426382" lat="-41.4510296" lon="145.6209577">
    <tag k="name" v="Fossey River Rest Area"/>
    <tag k="source" v="survey"/>
    <tag k="tourism" v="camp_site"/>
  </node>
  <node id="316590717" version="2" timestamp="2010-03-05T10:07:39Z" uid="4467" user="Rosscoe" changeset="4039313" lat="-41.651377" lon="145.078969">
    <tag k="name" v="Corinna Campground"/>
    <tag k="source" v="survey"/>
    <tag k="tourism" v="camp_site"/>
  </node>
  <node id="316590728" version="2" timestamp="2009-11-01T15:20:07Z" uid="4467" user="Rosscoe" changeset="3007236" lat="-41.7319548" lon="145.1348383">
    <tag k="name" v="Reece Dam"/>
    <tag k="tourism" v="camp_site"/>
  </node>
  <node id="316590742" version="2" timestamp="2009-11-02T00:38:39Z" uid="4467" user="Rosscoe" changeset="3012903" lat="-41.6845818" lon="145.6584555">
    <tag k="name" v="Tullabardine Dam"/>
    <tag k="tourism" v="camp_site"/>
  </node>
  <node id="316590742" version="3" timestamp="2012-01-18T11:18:23Z" uid="78837" user="modellerau" changeset="10426382" lat="-41.6845818" lon="145.6584555">
    <tag k="name" v="Tullabardine Dam"/>
    <tag k="tourism" v="camp_site"/>
  </node>
  <node id="316590766" version="2" timestamp="2009-11-02T00:46:19Z" uid="4467" user="Rosscoe" changeset="3012922" lat="-41.6933014" lon="145.651981">
    <tag k="name" v="Mackintosh Dam"/>
    <tag k="tourism" v="camp_site"/>
  </node>
  <node id="316590828" version="2" timestamp="2010-02-06T10:34:01Z" uid="4467" user="Rosscoe" changeset="3803789" lat="-41.5512335" lon="146.3596518">
    <tag k="name" v="Mole Creek Caravan Park"/>
    <tag k="tourism" v="caravan_site"/>
  </node>
  <node id="316590829" version="4" timestamp="2010-02-11T07:33:45Z" uid="4467" user="Rosscoe" changeset="3846076" lat="-41.5275897" lon="146.6530616">
    <tag k="name" v="Deloraine Apex Caravan Park"/>
    <tag k="tourism" v="caravan_site"/>
  </node>
  <node id="316590830" version="2" timestamp="2011-04-12T16:25:00Z" uid="4467" user="Rosscoe" changeset="7844178" lat="-41.52" lon="146.660003">
    <tag k="name" v="Deloraine East Overnight Park"/>
    <tag k="tourism" v="camp_site"/>
  </node>
  <node id="316590830" version="3" timestamp="2012-01-18T11:18:17Z" uid="78837" user="modellerau" changeset="10426382" lat="-41.5223632" lon="146.6607135">
    <tag k="name" v="Deloraine East Overnight Park"/>
    <tag k="tourism" v="camp_site"/>
  </node>
  <node id="316590845" version="2" timestamp="2010-02-11T01:59:25Z" uid="4467" user="Rosscoe" changeset="3845244" lat="-41.2770216" lon="146.2329165">
    <tag k="name" v="Alma Reserve"/>
    <tag k="source" v="survey"/>
    <tag k="tourism" v="picnic_site"/>
  </node>
  <node id="316590857" version="2" timestamp="2010-03-06T10:12:26Z" uid="4467" user="Rosscoe" changeset="4048350" lat="-41.1508717" lon="146.1638698">
    <tag k="name" v="Ulverstone Apex Caravan Park"/>
    <tag k="source" v="survey"/>
    <tag k="tourism" v="caravan_site"/>
  </node>
  <node id="316590861" version="2" timestamp="2010-03-16T07:57:18Z" uid="4467" user="Rosscoe" changeset="4141266" lat="-41.229999" lon="146.399993">
    <tag k="created_by" v="www.campsaustraliawide.com"/>
    <tag k="name" v="Bells Parade Rest Area"/>
    <tag k="tourism" v="camp_site"/>
  </node>
  <node id="316590867" version="2" timestamp="2009-11-11T01:19:29Z" uid="36809" user="pfoten_weg_!_" changeset="3086939" lat="-41.159999" lon="146.559997">
    <tag k="name" v="Port Sorell Lions Caravan Park"/>
    <tag k="tourism" v="caravan_site"/>
  </node>
  <node id="316590867" version="3" timestamp="2009-11-11T09:54:24Z" uid="36809" user="pfoten_weg_!_" changeset="3088543" lat="-41.159999" lon="146.559997">
    <tag k="name" v="Port Sorell Lions Caravan Park"/>
    <tag k="tourism" v="caravan_site"/>
  </node>
  <node id="316590867" version="4" timestamp="2009-12-21T08:42:34Z" uid="4467" user="Rosscoe" changeset="3418653" lat="-41.1629142" lon="146.5556073">
    <tag k="name" v="Port Sorell Lions Caravan Park"/>
    <tag k="tourism" v="caravan_site"/>
  </node>
  <node id="316590867" version="5" timestamp="2009-12-21T13:27:20Z" uid="4467" user="Rosscoe" changeset="3420142" lat="-41.1649693" lon="146.5549741">
    <tag k="name" v="Port Sorell Lions Caravan Park"/>
    <tag k="tourism" v="caravan_site"/>
  </node>
  <node id="316590867" version="6" timestamp="2010-02-11T08:44:05Z" uid="4467" user="Rosscoe" changeset="3846391" lat="-41.1649693" lon="146.554974">
    <tag k="name" v="Port Sorell Lions Caravan Park"/>
    <tag k="source" v="survey"/>
    <tag k="tourism" v="caravan_site"/>
  </node>
  <node id="316590867" version="7" timestamp="2010-03-05T10:26:56Z" uid="4467" user="Rosscoe" changeset="4039483" lat="-41.162848" lon="146.5555756">
    <tag k="name" v="Port Sorell Lions Caravan Park"/>
    <tag k="source" v="survey"/>
    <tag k="tourism" v="caravan_site"/>
  </node>
  <node id="316590867" version="8" timestamp="2010-03-05T10:27:30Z" uid="4467" user="Rosscoe" changeset="4039487" lat="-41.1641033" lon="146.5558246">
    <tag k="name" v="Port Sorell Lions Caravan Park"/>
    <tag k="source" v="survey"/>
    <tag k="tourism" v="caravan_site"/>
  </node>
  <node id="316590867" version="9" timestamp="2010-03-21T04:13:24Z" uid="4467" user="Rosscoe" changeset="4187208" lat="-41.1645518" lon="146.5553976">
    <tag k="addr:city" v="Port Sorell"/>
    <tag k="addr:country" v="AU"/>
    <tag k="addr:housenumber" v="42"/>
    <tag k="addr:postcode" v="7307"/>
    <tag k="addr:state" v="TAS"/>
    <tag k="addr:street" v="Meredith Street"/>
    <tag k="name" v="Port Sorell Lions Caravan Park"/>
    <tag k="source" v="survey"/>
    <tag k="tourism" v="caravan_site"/>
  </node>
  <node id="316590869" version="2" timestamp="2009-11-11T01:19:29Z" uid="36809" user="pfoten_weg_!_" changeset="3086939" lat="-41.159999" lon="146.550003">
    <tag k="name" v="Camp Boomerang"/>
    <tag k="tourism" v="camp_site"/>
  </node>
  <node id="316590869" version="3" timestamp="2009-11-11T09:54:23Z" uid="36809" user="pfoten_weg_!_" changeset="3088543" lat="-41.159999" lon="146.550003">
    <tag k="name" v="Camp Boomerang"/>
    <tag k="tourism" v="camp_site"/>
  </node>
  <node id="316590869" version="4" timestamp="2010-02-11T08:44:05Z" uid="4467" user="Rosscoe" changeset="3846391" lat="-41.1649418" lon="146.5480756">
    <tag k="name" v="Camp Boomerang"/>
    <tag k="tourism" v="camp_site"/>
  </node>
  <node id="316590869" version="5" timestamp="2012-01-18T11:18:10Z" uid="78837" user="modellerau" changeset="10426382" lat="-41.1649418" lon="146.5480756">
    <tag k="name" v="Camp Boomerang"/>
    <tag k="tourism" v="camp_site"/>
  </node>
  <node id="316590875" version="3" timestamp="2010-02-15T04:03:24Z" uid="4467" user="Rosscoe" changeset="3880172" lat="-40.8435265" lon="145.3167746">
    <tag k="name" v="Black River Campground"/>
    <tag k="source" v="survey"/>
    <tag k="tourism" v="camp_site"/>
  </node>
  <node id="316590876" version="2" timestamp="2009-10-26T11:31:16Z" uid="4467" user="Rosscoe" changeset="2955220" lat="-40.7439645" lon="144.9795844">
    <tag k="name" v="Montagu Park"/>
    <tag k="tourism" v="camp_site"/>
  </node>
  <node id="316590876" version="3" timestamp="2010-03-05T07:51:00Z" uid="4467" user="Rosscoe" changeset="4038609" lat="-40.7439645" lon="144.979584">
    <tag k="name" v="Montagu Park"/>
    <tag k="source" v="survey"/>
    <tag k="tourism" v="camp_site"/>
  </node>
  <node id="316590877" version="2" timestamp="2010-03-05T07:31:31Z" uid="4467" user="Rosscoe" changeset="4038523" lat="-40.909999" lon="144.679992">
    <tag k="name" v="Green Point Campground"/>
    <tag k="source" v="survey"/>
    <tag k="tourism" v="camp_site"/>
  </node>
  <node id="316590878" version="2" timestamp="2010-03-05T07:20:25Z" uid="4467" user="Rosscoe" changeset="4038487" lat="-41.0447963" lon="144.6668925">
    <tag k="name" v="Manuka Campground"/>
    <tag k="source" v="survey"/>
    <tag k="tourism" v="camp_site"/>
  </node>
  <node id="316590878" version="3" timestamp="2011-01-02T22:22:24Z" uid="46482" user="Leon K" changeset="6844534" lat="-41.0451005" lon="144.6671103">
    <tag k="name" v="Manuka Campground"/>
    <tag k="source" v="survey"/>
    <tag k="tourism" v="camp_site"/>
  </node>
  <node id="316590879" version="2" timestamp="2010-03-05T07:20:25Z" uid="4467" user="Rosscoe" changeset="4038487" lat="-41.0479977" lon="144.6681347">
    <tag k="name" v="Peppermint Campground"/>
    <tag k="source" v="survey"/>
    <tag k="tourism" v="camp_site"/>
  </node>
  <node id="316590879" version="3" timestamp="2010-03-05T07:48:02Z" uid="4467" user="Rosscoe" changeset="4038599" lat="-41.0481063" lon="144.6678864">
    <tag k="name" v="Peppermint Campground"/>
    <tag k="source" v="survey"/>
    <tag k="tourism" v="camp_site"/>
  </node>
  <node id="316590903" version="3" timestamp="2010-03-06T09:39:02Z" uid="4467" user="Rosscoe" changeset="4048088" lat="-40.9892314" lon="145.7407916">
    <tag k="name" v="Beach Retreat Tourist Park"/>
    <tag k="source" v="survey"/>
    <tag k="tourism" v="caravan_site"/>
  </node>
  <node id="316590906" version="2" timestamp="2010-02-15T03:57:02Z" uid="4467" user="Rosscoe" changeset="3880164" lat="-40.8859985" lon="145.4645102">
    <tag k="name" v="Rocky Cape Caravan Park"/>
    <tag k="source" v="survey"/>
    <tag k="tourism" v="caravan_site"/>
  </node>
  <node id="316590912" version="2" timestamp="2010-02-15T04:03:24Z" uid="4467" user="Rosscoe" changeset="3880172" lat="-40.8590751" lon="145.3994734">
    <tag k="name" v="Crystal Creek Caravan Park"/>
    <tag k="tourism" v="caravan_site"/>
  </node>
  <node id="316590913" version="2" timestamp="2009-10-25T03:20:55Z" uid="4467" user="Rosscoe" changeset="2942904" lat="-40.8510688" lon="145.3525539">
    <tag k="name" v="Peggs Beach Campground"/>
    <tag k="tourism" v="camp_site"/>
  </node>
  <node id="316590913" version="3" timestamp="2010-02-15T04:03:24Z" uid="4467" user="Rosscoe" changeset="3880172" lat="-40.8513215" lon="145.3525141">
    <tag k="name" v="Peggs Beach Campground"/>
    <tag k="source" v="survey"/>
    <tag k="tourism" v="camp_site"/>
  </node>
  <node id="316590914" version="2" timestamp="2010-02-15T03:57:03Z" uid="4467" user="Rosscoe" changeset="3880164" lat="-41.1579019" lon="146.2529146">
    <tag k="amenity" v="parking"/>
    <tag k="name" v="Leith Foreshore"/>
  </node>
  <node id="316590915" version="4" timestamp="2010-02-06T11:58:49Z" uid="4467" user="Rosscoe" changeset="3804410" lat="-41.7768401" lon="145.5348367">
    <tag k="name" v="Rosebery Caravan Park"/>
    <tag k="tourism" v="caravan_site"/>
  </node>
  <node id="316590915" version="5" timestamp="2011-12-28T03:49:48Z" uid="575626" user="jasonawaddell" changeset="10221842" lat="-41.7768401" lon="145.5348367">
    <tag k="name" v="Rosebery Caravan Park"/>
    <tag k="phone" v="+61 03 64731366"/>
    <tag k="tourism" v="caravan_site"/>
  </node>
  <node id="316590920" version="2" timestamp="2009-11-11T01:19:30Z" uid="36809" user="pfoten_weg_!_" changeset="3086939" lat="-41.159999" lon="146.570007">
    <tag k="name" v="Bakers Point Campground (3) - Narawntapu NP"/>
    <tag k="tourism" v="camp_site"/>
  </node>
  <node id="316590920" version="3" timestamp="2009-11-11T09:54:24Z" uid="36809" user="pfoten_weg_!_" changeset="3088543" lat="-41.159999" lon="146.570007">
    <tag k="name" v="Bakers Point Campground (3) - Narawntapu NP"/>
    <tag k="tourism" v="camp_site"/>
  </node>
  <node id="316590920" version="4" timestamp="2009-12-21T08:42:34Z" uid="4467" user="Rosscoe" changeset="3418653" lat="-41.1602101" lon="146.5695143">
    <tag k="name" v="Bakers Point Campground (3) - Narawntapu NP"/>
    <tag k="tourism" v="camp_site"/>
  </node>
  <node id="316590920" version="5" timestamp="2009-12-21T13:27:21Z" uid="4467" user="Rosscoe" changeset="3420142" lat="-41.161937" lon="146.5687066">
    <tag k="name" v="Bakers Point Campground (3) - Narawntapu NP"/>
    <tag k="tourism" v="camp_site"/>
  </node>
  <node id="316590920" version="6" timestamp="2010-01-27T01:18:31Z" uid="4467" user="Rosscoe" changeset="3724792" lat="-41.162035" lon="146.5684615">
    <tag k="name" v="Bakers Point Campground (3) - Narawntapu NP"/>
    <tag k="tourism" v="camp_site"/>
  </node>
  <node id="316590920" version="7" timestamp="2010-01-27T04:08:31Z" uid="4467" user="Rosscoe" changeset="3725035" lat="-41.1618101" lon="146.5693259">
    <tag k="name" v="Bakers Point Campground (3) - Narawntapu NP"/>
    <tag k="tourism" v="camp_site"/>
  </node>
  <node id="316590920" version="8" timestamp="2010-01-27T04:15:31Z" uid="4467" user="Rosscoe" changeset="3725044" lat="-41.1618101" lon="146.5693259">
    <tag k="name" v="Bakers Point Campground"/>
    <tag k="source" v="survey"/>
    <tag k="tourism" v="camp_site"/>
  </node>
  <node id="316590921" version="2" timestamp="2009-11-11T01:19:30Z" uid="36809" user="pfoten_weg_!_" changeset="3086939" lat="-41.150001" lon="146.600006">
    <tag k="name" v="Springlawn Campground - Narawntapu NP"/>
    <tag k="tourism" v="camp_site"/>
  </node>
  <node id="316590921" version="3" timestamp="2009-11-11T09:54:25Z" uid="36809" user="pfoten_weg_!_" changeset="3088543" lat="-41.150001" lon="146.600006">
    <tag k="name" v="Springlawn Campground - Narawntapu NP"/>
    <tag k="tourism" v="camp_site"/>
  </node>
  <node id="316590921" version="4" timestamp="2010-01-27T01:18:31Z" uid="4467" user="Rosscoe" changeset="3724792" lat="-41.1479912" lon="146.6022609">
    <tag k="name" v="Springlawn Campground - Narawntapu NP"/>
    <tag k="tourism" v="camp_site"/>
  </node>
  <node id="316590921" version="5" timestamp="2010-01-27T04:08:33Z" uid="4467" user="Rosscoe" changeset="3725035" lat="-41.1477707" lon="146.6026523">
    <tag k="name" v="Springlawn Campground - Narawntapu NP"/>
    <tag k="tourism" v="camp_site"/>
  </node>
  <node id="316590921" version="6" timestamp="2012-01-18T11:18:23Z" uid="78837" user="modellerau" changeset="10426382" lat="-41.1477707" lon="146.6026523">
    <tag k="name" v="Springlawn Campground - Narawntapu NP"/>
    <tag k="tourism" v="camp_site"/>
  </node>
  <node id="316590922" version="2" timestamp="2010-01-27T03:40:11Z" uid="4467" user="Rosscoe" changeset="3725008" lat="-41.1994005" lon="146.8222747">
    <tag k="name" v="Beaconsfield Recreation Ground"/>
    <tag k="source" v="survey"/>
    <tag k="tourism" v="camp_site"/>
  </node>
  <node id="316590922" version="3" timestamp="2012-01-18T11:18:13Z" uid="78837" user="modellerau" changeset="10426382" lat="-41.1994005" lon="146.8222747">
    <tag k="name" v="Beaconsfield Recreation Ground"/>
    <tag k="source" v="survey"/>
    <tag k="tourism" v="camp_site"/>
  </node>
  <node id="316590923" version="3" timestamp="2010-01-27T03:11:44Z" uid="4467" user="Rosscoe" changeset="3724955" lat="-41.215628" lon="146.9153928">
    <tag k="name" v="Batman Bridge"/>
    <tag k="source" v="survey"/>
    <tag k="tourism" v="camp_site"/>
  </node>
  <node id="316590923" version="4" timestamp="2012-01-18T11:18:20Z" uid="78837" user="modellerau" changeset="10426382" lat="-41.215628" lon="146.9153928">
    <tag k="name" v="Batman Bridge"/>
    <tag k="source" v="survey"/>
    <tag k="tourism" v="camp_site"/>
  </node>
  <node id="316590924" version="2" timestamp="2010-02-06T10:58:01Z" uid="4467" user="Rosscoe" changeset="3803975" lat="-41.109595" lon="146.8381639">
    <tag k="name" v="George Town Rest Area"/>
    <tag k="source" v="survey"/>
    <tag k="tourism" v="camp_site"/>
  </node>
  <node id="316590924" version="3" timestamp="2011-04-12T08:13:14Z" uid="4467" user="Rosscoe" changeset="7840223" lat="-41.1093936" lon="146.8379287">
    <tag k="name" v="George Town Rest Area"/>
    <tag k="source" v="survey"/>
    <tag k="tourism" v="camp_site"/>
  </node>
  <node id="316590924" version="4" timestamp="2012-01-18T11:18:10Z" uid="78837" user="modellerau" changeset="10426382" lat="-41.1093936" lon="146.8379287">
    <tag k="name" v="George Town Rest Area"/>
    <tag k="source" v="survey"/>
    <tag k="tourism" v="camp_site"/>
  </node>
  <node id="316590927" version="2" timestamp="2011-04-12T07:31:33Z" uid="4467" user="Rosscoe" changeset="7839941" lat="-41.029998" lon="146.949996">
    <tag k="name" v="Beechford Campground"/>
    <tag k="tourism" v="camp_site"/>
  </node>
  <node id="316590929" version="2" timestamp="2009-11-11T01:19:31Z" uid="36809" user="pfoten_weg_!_" changeset="3086939" lat="-41.150001" lon="146.61">
    <tag k="name" v="Horseyards Campground - Narawntapu NP"/>
    <tag k="tourism" v="camp_site"/>
  </node>
  <node id="316590929" version="3" timestamp="2009-11-11T09:54:27Z" uid="36809" user="pfoten_weg_!_" changeset="3088543" lat="-41.150001" lon="146.61">
    <tag k="name" v="Horseyards Campground - Narawntapu NP"/>
    <tag k="tourism" v="camp_site"/>
  </node>
  <node id="316590929" version="4" timestamp="2010-01-27T01:18:31Z" uid="4467" user="Rosscoe" changeset="3724792" lat="-41.1557362" lon="146.609902">
    <tag k="name" v="Horseyards Campground - Narawntapu NP"/>
    <tag k="tourism" v="camp_site"/>
  </node>
  <node id="316590929" version="5" timestamp="2012-01-18T11:18:21Z" uid="78837" user="modellerau" changeset="10426382" lat="-41.1541248" lon="146.6088067">
    <tag k="name" v="Horseyards Campground - Narawntapu NP"/>
    <tag k="tourism" v="camp_site"/>
  </node>
  <node id="316590945" version="4" timestamp="2010-01-27T03:29:35Z" uid="4467" user="Rosscoe" changeset="3724988" lat="-41.2537889" lon="146.9654156">
    <tag k="name" v="Paper Beach Reserve"/>
    <tag k="tourism" v="camp_site"/>
  </node>
  <node id="316590945" version="5" timestamp="2012-01-18T11:18:16Z" uid="78837" user="modellerau" changeset="10426382" lat="-41.2533752" lon="146.9654559">
    <tag k="name" v="Paper Beach Reserve"/>
    <tag k="tourism" v="camp_site"/>
  </node>
  <node id="316590960" version="3" timestamp="2010-01-27T03:47:23Z" uid="4467" user="Rosscoe" changeset="3725013" lat="-41.0856464" lon="146.7467353">
    <tag k="name" v="Greens Beach Caravan Park"/>
    <tag k="source" v="survey"/>
    <tag k="tourism" v="caravan_site"/>
  </node>
  <node id="316592756" version="2" timestamp="2011-02-16T09:47:02Z" uid="4467" user="Rosscoe" changeset="7302261" lat="-32.9805168" lon="121.6471118">
    <tag k="name" v="Salmon Gums Caravan Park"/>
    <tag k="tourism" v="caravan_site"/>
  </node>
  <node id="316592765" version="3" timestamp="2010-05-07T09:55:09Z" uid="4467" user="Rosscoe" changeset="4628535" lat="-33.799999" lon="121.870002">
    <tag k="created_by" v="www.campsaustraliawide.com"/>
    <tag k="name" v="Esperance North RA"/>
    <tag k="tourism" v="camp_site"/>
  </node>
  <node id="316592771" version="2" timestamp="2011-04-09T11:17:27Z" uid="4467" user="Rosscoe" changeset="7812264" lat="-33.86" lon="123.010002">
    <tag k="created_by" v="www.campsaustraliawide.com"/>
    <tag k="name" v="Thomas River Campground - Cape Arid NP"/>
    <tag k="tourism" v="camp_site"/>
  </node>
  <node id="316592859" version="8" timestamp="2011-04-16T11:25:29Z" uid="4467" user="Rosscoe" changeset="7877472" lat="-31.6873567" lon="115.7805264"/>
  <node id="316593176" version="2" timestamp="2011-04-05T05:52:08Z" uid="4467" user="Rosscoe" changeset="7771645" lat="-32.5504101" lon="116.0079944">
    <tag k="name" v="Whittakers Scarp Mill"/>
    <tag k="tourism" v="camp_site"/>
  </node>
  <node id="316593305" version="6" timestamp="2011-04-16T11:25:29Z" uid="4467" user="Rosscoe" changeset="7877472" lat="-31.6873521" lon="115.7806588"/>
  <node id="316593566" version="2" timestamp="2010-02-14T04:27:59Z" uid="115684" user="jVviJ11dNx" changeset="3870424" lat="-36.3727023" lon="145.4137628"/>
  <node id="316593619" version="2" timestamp="2010-02-16T06:42:52Z" uid="9719" user="dvaey" changeset="3889609" lat="-36.3742381" lon="145.3991545"/>
  <node id="316593619" version="3" timestamp="2010-03-01T03:39:25Z" uid="11111" user="lakeyboy" changeset="4005384" lat="-36.3742381" lon="145.3991545"/>
  <node id="316593624" version="2" timestamp="2010-02-16T06:42:52Z" uid="9719" user="dvaey" changeset="3889609" lat="-36.3741506" lon="145.3991732"/>
  <node id="316593624" version="3" timestamp="2010-03-01T03:39:25Z" uid="11111" user="lakeyboy" changeset="4005384" lat="-36.3743698" lon="145.3991506"/>
  <node id="316593628" version="2" timestamp="2010-02-16T06:42:53Z" uid="9719" user="dvaey" changeset="3889609" lat="-36.3740513" lon="145.3991974"/>
  <node id="316593628" version="3" timestamp="2010-03-01T03:39:25Z" uid="11111" user="lakeyboy" changeset="4005384" lat="-36.3740319" lon="145.3992164"/>
  <node id="316593634" version="2" timestamp="2010-02-16T06:42:53Z" uid="9719" user="dvaey" changeset="3889609" lat="-36.3739778" lon="145.3992229"/>
  <node id="316593634" version="3" timestamp="2010-03-01T03:39:25Z" uid="11111" user="lakeyboy" changeset="4005384" lat="-36.3739865" lon="145.3992244"/>
  <node id="316593640" version="2" timestamp="2010-02-16T06:42:38Z" uid="9719" user="dvaey" changeset="3889609" lat="-36.3738947" lon="145.3992832"/>
  <node id="316593640" version="3" timestamp="2010-03-01T03:38:28Z" uid="11111" user="lakeyboy" changeset="4005384" lat="-36.3739098" lon="145.399278"/>
  <node id="316593640" version="4" timestamp="2010-03-01T03:39:07Z" uid="11111" user="lakeyboy" changeset="4005384" lat="-36.3739077" lon="145.399266"/>
  <node id="316593645" version="2" timestamp="2010-02-16T06:42:18Z" uid="9719" user="dvaey" changeset="3889609" lat="-36.3739822" lon="145.3993784"/>
  <node id="316593645" version="3" timestamp="2010-03-01T03:38:30Z" uid="11111" user="lakeyboy" changeset="4005384" lat="-36.3740038" lon="145.3993746"/>
  <node id="316593645" version="4" timestamp="2010-03-01T03:38:34Z" uid="11111" user="lakeyboy" changeset="4005384" lat="-36.3740481" lon="145.3993357"/>
  <node id="316593650" version="2" timestamp="2010-02-16T06:42:38Z" uid="9719" user="dvaey" changeset="3889609" lat="-36.3738634" lon="145.3994562"/>
  <node id="316593650" version="3" timestamp="2010-02-16T06:43:18Z" uid="9719" user="dvaey" changeset="3889609" lat="-36.3738375" lon="145.3994549"/>
  <node id="316593650" version="4" timestamp="2010-03-01T03:39:07Z" uid="11111" user="lakeyboy" changeset="4005384" lat="-36.3738386" lon="145.399439"/>
  <node id="316593656" version="2" timestamp="2010-02-16T06:42:01Z" uid="9719" user="dvaey" changeset="3889609" lat="-36.3738893" lon="145.3996198"/>
  <node id="316593656" version="3" timestamp="2010-02-16T06:42:30Z" uid="9719" user="dvaey" changeset="3889609" lat="-36.3738774" lon="145.3996265"/>
  <node id="316593656" version="4" timestamp="2010-02-16T06:43:18Z" uid="9719" user="dvaey" changeset="3889609" lat="-36.3738828" lon="145.3996829"/>
  <node id="316593656" version="5" timestamp="2010-03-01T03:38:53Z" uid="11111" user="lakeyboy" changeset="4005384" lat="-36.3739379" lon="145.3999821"/>
  <node id="316593667" version="2" timestamp="2010-02-16T06:42:30Z" uid="9719" user="dvaey" changeset="3889609" lat="-36.3739411" lon="145.3994549"/>
  <node id="316593667" version="3" timestamp="2010-03-01T03:40:38Z" uid="11111" user="lakeyboy" changeset="4005384" lat="-36.3739444" lon="145.3994403"/>
  <node id="316593670" version="2" timestamp="2011-04-20T10:41:45Z" uid="4467" user="Rosscoe" changeset="7914933" lat="-29.4038977" lon="121.4280635">
    <tag k="name" v="Niagara Dam"/>
    <tag k="tourism" v="camp_site"/>
  </node>
  <node id="316593674" version="2" timestamp="2011-04-20T10:41:47Z" uid="4467" user="Rosscoe" changeset="7914933" lat="-28.8788395" lon="121.4478169">
    <tag k="name" v="Malcolm Dam"/>
    <tag k="tourism" v="camp_site"/>
  </node>
  <node id="316593874" version="3" timestamp="2010-08-28T13:37:38Z" uid="4467" user="Rosscoe" changeset="5616156" lat="-28.3500765" lon="114.629939">
    <tag k="amenity" v="parking"/>
    <tag k="name" v="Northampton Lions Park"/>
  </node>
  <node id="316593909" version="2" timestamp="2009-11-15T04:46:52Z" uid="74617" user="JohnSmith" changeset="3119077" lat="-24.79" lon="113.639999">
    <tag k="name" v="Miaboolya Beach"/>
    <tag k="tourism" v="camp_site"/>
  </node>
  <node id="316594036" version="2" timestamp="2011-02-12T04:46:00Z" uid="4467" user="Rosscoe" changeset="7261402" lat="-20.6997235" lon="118.299586">
    <tag k="name" v="Herbert Parker RA (Yule River)"/>
    <tag k="tourism" v="camp_site"/>
  </node>
  <node id="316594040" version="2" timestamp="2011-02-19T07:11:10Z" uid="4467" user="Rosscoe" changeset="7328887" lat="-20.8477617" lon="118.0681993">
    <tag k="name" v="Peawah River"/>
    <tag k="tourism" v="camp_site"/>
  </node>
  <node id="316594043" version="3" timestamp="2011-02-12T05:58:17Z" uid="4467" user="Rosscoe" changeset="7261572" lat="-20.8402223" lon="117.836041"/>
  <node id="316594047" version="2" timestamp="2011-02-19T07:11:14Z" uid="4467" user="Rosscoe" changeset="7328887" lat="-20.944275" lon="117.6125954">
    <tag k="name" v="Sherlock River"/>
    <tag k="tourism" v="camp_site"/>
  </node>
  <node id="316594052" version="2" timestamp="2011-03-20T07:32:32Z" uid="4467" user="Rosscoe" changeset="7613222" lat="-21.343727" lon="117.2438225">
    <tag k="name" v="Snake Creek Campground - Millstream Chichester NP"/>
    <tag k="source" v="survey"/>
    <tag k="tourism" v="camp_site"/>
  </node>
  <node id="316594060" version="2" timestamp="2010-12-13T15:51:46Z" uid="4467" user="Rosscoe" changeset="6649016" lat="-20.768671" lon="116.9509778">
    <tag k="amenity" v="parking"/>
    <tag k="name" v="Nickol River"/>
  </node>
  <node id="316594079" version="2" timestamp="2010-12-29T12:48:40Z" uid="4467" user="Rosscoe" changeset="6798217" lat="-20.8515017" lon="116.3411125">
    <tag k="name" v="Forty Mile Beach"/>
    <tag k="tourism" v="camp_site"/>
  </node>
  <node id="316594089" version="4" timestamp="2010-12-30T07:48:52Z" uid="4467" user="Rosscoe" changeset="6806323" lat="-21.6153032" lon="115.9219309">
    <tag k="name" v="Robe River"/>
    <tag k="note" v="24 hour camping allowed. Dirty water dump station."/>
    <tag k="tourism" v="camp_site"/>
  </node>
  <node id="316594109" version="4" timestamp="2010-10-03T01:12:48Z" uid="4467" user="Rosscoe" changeset="5940619" lat="-22.4707392" lon="118.5556751"/>
  <node id="316594112" version="3" timestamp="2010-10-03T01:07:00Z" uid="4467" user="Rosscoe" changeset="5940619" lat="-22.3898519" lon="118.2609446"/>
  <node id="316594188" version="5" timestamp="2011-04-16T11:25:29Z" uid="4467" user="Rosscoe" changeset="7877472" lat="-31.6872989" lon="115.7783994"/>
  <node id="316594196" version="2" timestamp="2011-05-24T09:02:16Z" uid="4467" user="Rosscoe" changeset="8233304" lat="-17.3181027" lon="123.6407368">
    <tag k="name" v="Derby Showground"/>
    <tag k="tourism" v="camp_site"/>
  </node>
  <node id="316594206" version="2" timestamp="2011-05-24T09:02:21Z" uid="4467" user="Rosscoe" changeset="8233304" lat="-17.9608757" lon="124.8359244">
    <tag k="name" v="Ellendale RA"/>
    <tag k="tourism" v="camp_site"/>
  </node>
  <node id="316594272" version="2" timestamp="2011-02-12T08:43:05Z" uid="4467" user="Rosscoe" changeset="7262299" lat="-22.0091402" lon="118.8152">
    <tag k="name" v="Bea Bea Creek"/>
    <tag k="tourism" v="camp_site"/>
  </node>
  <node id="316594279" version="2" timestamp="2010-10-03T11:10:43Z" uid="4467" user="Rosscoe" changeset="5942948" lat="-22.68" lon="117.900001">
    <tag k="name" v="RIP Lookout"/>
    <tag k="tourism" v="camp_site"/>
  </node>
  <node id="316594324" version="2" timestamp="2011-05-24T09:02:29Z" uid="4467" user="Rosscoe" changeset="8233304" lat="-17.7310244" lon="123.6514412">
    <tag k="amenity" v="parking"/>
    <tag k="name" v="Fitzroy River (Willare Bridge)"/>
  </node>
  <node id="316594393" version="2" timestamp="2011-02-08T15:19:58Z" uid="4467" user="Rosscoe" changeset="7227575" lat="-29.2786984" lon="114.9178786">
    <tag k="name" v="Dongara-Denison Tourist Park"/>
    <tag k="tourism" v="caravan_site"/>
  </node>
  <node id="316594655" version="2" timestamp="2010-10-03T01:14:17Z" uid="4467" user="Rosscoe" changeset="5940619" lat="-22.479999" lon="118.550003">
    <tag k="created_by" v="www.campsaustraliawide.com"/>
    <tag k="name" v="Fortescue Campground - Karijini NP"/>
    <tag k="tourism" v="camp_site"/>
  </node>
  <node id="316594658" version="2" timestamp="2010-10-03T00:59:27Z" uid="4467" user="Rosscoe" changeset="5940619" lat="-22.409999" lon="118.269996">
    <tag k="created_by" v="www.campsaustraliawide.com"/>
    <tag k="name" v="Joffre Campground - Karijini NP"/>
    <tag k="tourism" v="camp_site"/>
  </node>
  <node id="316595222" version="1" timestamp="2008-12-04T11:27:12Z" uid="7617" user="Franc" changeset="107422" lat="-33.8648119" lon="151.2086769"/>
  <node id="316595222" version="2" timestamp="2010-03-15T09:37:35Z" uid="20949" user="Ebenezer" changeset="4133035" lat="-33.8646267" lon="151.2084255"/>
  <node id="316595225" version="1" timestamp="2008-12-04T11:27:13Z" uid="7617" user="Franc" changeset="107422" lat="-33.8659756" lon="151.2073437"/>
  <node id="316595225" version="2" timestamp="2008-12-08T11:02:21Z" uid="7617" user="Franc" changeset="261141" lat="-33.8659745" lon="151.207316"/>
  <node id="316595225" version="3" timestamp="2010-01-19T08:22:52Z" uid="20949" user="Ebenezer" changeset="3656769" lat="-33.8659748" lon="151.2072821"/>
  <node id="316595225" version="4" timestamp="2011-02-06T08:12:59Z" uid="4467" user="Rosscoe" changeset="7200553" lat="-33.8659349" lon="151.2072442"/>
  <node id="316595229" version="1" timestamp="2008-12-04T11:27:14Z" uid="7617" user="Franc" changeset="107422" lat="-33.8660049" lon="151.2076975"/>
  <node id="316595229" version="2" timestamp="2011-02-06T08:12:57Z" uid="4467" user="Rosscoe" changeset="7200553" lat="-33.865964" lon="151.2076836"/>
  <node id="316595232" version="1" timestamp="2008-12-04T11:27:14Z" uid="7617" user="Franc" changeset="107422" lat="-33.8661277" lon="151.2076858"/>
  <node id="316595232" version="2" timestamp="2011-02-06T08:12:59Z" uid="4467" user="Rosscoe" changeset="7200553" lat="-33.8661371" lon="151.2076681"/>
  <node id="316595235" version="1" timestamp="2008-12-04T11:27:15Z" uid="7617" user="Franc" changeset="107422" lat="-33.8647505" lon="151.208791">
    <tag k="amenity" v="telephone"/>
  </node>
  <node id="316595235" version="2" timestamp="2010-03-15T09:37:24Z" uid="20949" user="Ebenezer" changeset="4133035" lat="-33.8647505" lon="151.2087909">
    <tag k="amenity" v="telephone"/>
  </node>
  <node id="316595235" version="3" timestamp="2012-02-20T03:08:44Z" uid="7523" user="inas" changeset="10736976" lat="-33.8647505" lon="151.2087909"/>
  <node id="316595239" version="1" timestamp="2008-12-04T11:27:16Z" uid="7617" user="Franc" changeset="107422" lat="-33.8648704" lon="151.2087705">
    <tag k="amenity" v="post_box"/>
  </node>
  <node id="316595239" version="2" timestamp="2012-02-20T03:08:44Z" uid="7523" user="inas" changeset="10736976" lat="-33.8648704" lon="151.2087705"/>
  <node id="316595242" version="1" timestamp="2008-12-04T11:27:16Z" uid="7617" user="Franc" changeset="107422" lat="-33.8642627" lon="151.2089282"/>
  <node id="316595242" version="2" timestamp="2009-08-16T07:35:31Z" uid="4467" user="Rosscoe" changeset="2161001" lat="-33.8642661" lon="151.2089553"/>
  <node id="316595242" version="3" timestamp="2010-03-15T09:37:36Z" uid="20949" user="Ebenezer" changeset="4133035" lat="-33.8641857" lon="151.2088707"/>
  <node id="316595242" version="4" timestamp="2011-02-06T08:13:01Z" uid="4467" user="Rosscoe" changeset="7200553" lat="-33.8641969" lon="151.2088653"/>
  <node id="316595246" version="1" timestamp="2008-12-04T11:27:17Z" uid="7617" user="Franc" changeset="107422" lat="-33.8642389" lon="151.2086594"/>
  <node id="316595246" version="2" timestamp="2010-03-15T09:37:35Z" uid="20949" user="Ebenezer" changeset="4133035" lat="-33.8641812" lon="151.2085837"/>
  <node id="316595249" version="1" timestamp="2008-12-04T11:27:18Z" uid="7617" user="Franc" changeset="107422" lat="-33.863695" lon="151.2087617"/>
  <node id="316595249" version="2" timestamp="2010-03-15T09:37:36Z" uid="20949" user="Ebenezer" changeset="4133035" lat="-33.8636266" lon="151.2087151"/>
  <node id="316595249" version="3" timestamp="2010-07-27T13:36:48Z" uid="4467" user="Rosscoe" changeset="5329516" lat="-33.8635958" lon="151.2087089"/>
  <node id="316595249" version="4" timestamp="2010-08-01T08:44:21Z" uid="7617" user="Franc" changeset="5368668" lat="-33.8635882" lon="151.2087544"/>
  <node id="316595249" version="5" timestamp="2011-06-17T12:39:38Z" uid="7617" user="Franc" changeset="8464443" lat="-33.863599" lon="151.2087544"/>
  <node id="316595257" version="1" timestamp="2008-12-04T11:27:18Z" uid="7617" user="Franc" changeset="107422" lat="-33.8642272" lon="151.2081887"/>
  <node id="316595257" version="2" timestamp="2010-03-15T09:37:36Z" uid="20949" user="Ebenezer" changeset="4133035" lat="-33.8641745" lon="151.2081868"/>
  <node id="316595257" version="3" timestamp="2010-09-13T09:41:18Z" uid="237525" user="aharvey" changeset="5767967" lat="-33.8641745" lon="151.2081868"/>
  <node id="316595261" version="1" timestamp="2008-12-04T11:27:19Z" uid="7617" user="Franc" changeset="107422" lat="-33.864081" lon="151.2082705"/>
  <node id="316595261" version="2" timestamp="2010-03-15T09:37:36Z" uid="20949" user="Ebenezer" changeset="4133035" lat="-33.8640298" lon="151.2082565"/>
  <node id="316595261" version="3" timestamp="2011-05-22T20:21:06Z" uid="20949" user="Ebenezer" changeset="8220809" lat="-33.8640298" lon="151.2082565"/>
  <node id="316595265" version="1" timestamp="2008-12-04T11:27:20Z" uid="7617" user="Franc" changeset="107422" lat="-33.8640868" lon="151.2086828"/>
  <node id="316595265" version="2" timestamp="2010-03-15T09:37:35Z" uid="20949" user="Ebenezer" changeset="4133035" lat="-33.8640342" lon="151.2086293"/>
  <node id="316595265" version="3" timestamp="2011-05-22T20:21:04Z" uid="20949" user="Ebenezer" changeset="8220809" lat="-33.8639599" lon="151.2086453"/>
  <node id="316595268" version="1" timestamp="2008-12-04T11:27:20Z" uid="7617" user="Franc" changeset="107422" lat="-33.8642769" lon="151.2060806"/>
  <node id="316595268" version="2" timestamp="2010-01-19T08:22:46Z" uid="20949" user="Ebenezer" changeset="3656769" lat="-33.8641663" lon="151.206059"/>
  <node id="316595268" version="3" timestamp="2010-06-16T20:57:58Z" uid="20949" user="Ebenezer" changeset="5004343" lat="-33.8642506" lon="151.2060548"/>
  <node id="316595268" version="4" timestamp="2011-02-06T08:12:59Z" uid="4467" user="Rosscoe" changeset="7200553" lat="-33.8642646" lon="151.2060228"/>
  <node id="316595272" version="1" timestamp="2008-12-04T11:27:21Z" uid="7617" user="Franc" changeset="107422" lat="-33.8646716" lon="151.2060689"/>
  <node id="316595272" version="2" timestamp="2011-01-23T22:19:11Z" uid="5715" user="Hoylen Sue" changeset="7068085" lat="-33.864512" lon="151.206062"/>
  <node id="316595272" version="3" timestamp="2011-02-06T08:12:57Z" uid="4467" user="Rosscoe" changeset="7200553" lat="-33.8646782" lon="151.2060048"/>
  <node id="316595747" version="1" timestamp="2008-12-04T11:29:03Z" uid="49111" user="Markus B" changeset="112913" lat="49.588703" lon="11.3406177"/>
  <node id="316595747" version="2" timestamp="2008-12-04T11:29:23Z" uid="49111" user="Markus B" changeset="112913" lat="49.588703" lon="11.3406177"/>
  <node id="316595747" version="3" timestamp="2008-12-04T11:29:23Z" uid="49111" user="Markus B" changeset="112913" lat="49.588703" lon="11.3406177"/>
  <node id="316595748" version="1" timestamp="2008-12-04T11:29:03Z" uid="49111" user="Markus B" changeset="112913" lat="49.5885917" lon="11.3392702"/>
  <node id="316595748" version="2" timestamp="2008-12-04T11:29:23Z" uid="49111" user="Markus B" changeset="112913" lat="49.5885917" lon="11.3392702"/>
  <node id="316595749" version="1" timestamp="2008-12-04T11:29:03Z" uid="49111" user="Markus B" changeset="112913" lat="49.5874677" lon="11.3387123"/>
  <node id="316595749" version="2" timestamp="2008-12-04T11:29:23Z" uid="49111" user="Markus B" changeset="112913" lat="49.5874677" lon="11.3387123"/>
  <node id="316595751" version="1" timestamp="2008-12-04T11:29:03Z" uid="49111" user="Markus B" changeset="112913" lat="49.5865051" lon="11.3399568"/>
  <node id="316595751" version="2" timestamp="2008-12-04T11:29:23Z" uid="49111" user="Markus B" changeset="112913" lat="49.5865051" lon="11.3399568"/>
  <node id="316595751" version="3" timestamp="2011-01-20T10:33:31Z" uid="82877" user="Wankmann" changeset="7028935" lat="49.5865481" lon="11.3404471"/>
  <node id="316595752" version="1" timestamp="2008-12-04T11:29:03Z" uid="49111" user="Markus B" changeset="112913" lat="49.5870782" lon="11.3411155"/>
  <node id="316595752" version="2" timestamp="2008-12-04T11:29:23Z" uid="49111" user="Markus B" changeset="112913" lat="49.5870782" lon="11.3411155"/>
  <node id="316595752" version="3" timestamp="2011-01-20T10:33:31Z" uid="82877" user="Wankmann" changeset="7028935" lat="49.5872135" lon="11.3409863"/>
  <node id="316596682" version="1" timestamp="2008-12-04T11:30:37Z" uid="49111" user="Markus B" changeset="112913" lat="49.5871339" lon="11.3395792"/>
  <node id="316596682" version="2" timestamp="2011-01-20T10:19:42Z" uid="82877" user="Wankmann" changeset="7028800" lat="49.5872077" lon="11.3395123"/>
  <node id="316596683" version="1" timestamp="2008-12-04T11:30:37Z" uid="49111" user="Markus B" changeset="112913" lat="49.5872006" lon="11.3397165"/>
  <node id="316596683" version="2" timestamp="2011-01-20T10:19:49Z" uid="82877" user="Wankmann" changeset="7028800" lat="49.5872657" lon="11.3396326"/>
  <node id="316596684" version="1" timestamp="2008-12-04T11:30:37Z" uid="49111" user="Markus B" changeset="112913" lat="49.587106" lon="11.3398195"/>
  <node id="316596684" version="2" timestamp="2011-01-20T10:19:47Z" uid="82877" user="Wankmann" changeset="7028800" lat="49.5871234" lon="11.3397959"/>
  <node id="316596685" version="1" timestamp="2008-12-04T11:30:37Z" uid="49111" user="Markus B" changeset="112913" lat="49.5870448" lon="11.3397165"/>
  <node id="316596685" version="2" timestamp="2011-01-20T10:19:35Z" uid="82877" user="Wankmann" changeset="7028800" lat="49.5870654" lon="11.3396755"/>
  <node id="316597010" version="1" timestamp="2008-12-04T11:31:22Z" uid="49111" user="Markus B" changeset="112913" lat="49.5869836" lon="11.3397165"/>
  <node id="316597010" version="2" timestamp="2011-01-20T10:19:56Z" uid="82877" user="Wankmann" changeset="7028800" lat="49.5869868" lon="11.3397362"/>
  <node id="316597011" version="1" timestamp="2008-12-04T11:31:22Z" uid="49111" user="Markus B" changeset="112913" lat="49.5870504" lon="11.3398796"/>
  <node id="316597011" version="2" timestamp="2011-01-20T10:19:43Z" uid="82877" user="Wankmann" changeset="7028800" lat="49.5870534" lon="11.3398726"/>
  <node id="316597014" version="1" timestamp="2008-12-04T11:31:22Z" uid="49111" user="Markus B" changeset="112913" lat="49.5869335" lon="11.3400083"/>
  <node id="316597014" version="2" timestamp="2011-01-20T10:19:45Z" uid="82877" user="Wankmann" changeset="7028800" lat="49.5869387" lon="11.3400058"/>
  <node id="316597015" version="1" timestamp="2008-12-04T11:31:22Z" uid="49111" user="Markus B" changeset="112913" lat="49.5868835" lon="11.3398796"/>
  <node id="316597015" version="2" timestamp="2011-01-20T10:19:54Z" uid="82877" user="Wankmann" changeset="7028800" lat="49.5868721" lon="11.3398694"/>
  <node id="316597382" version="1" timestamp="2008-12-04T11:32:07Z" uid="49111" user="Markus B" changeset="112913" lat="49.5873342" lon="11.3398967"/>
  <node id="316597382" version="2" timestamp="2011-01-20T10:19:36Z" uid="82877" user="Wankmann" changeset="7028800" lat="49.5873419" lon="11.3398827"/>
  <node id="316597382" version="3" timestamp="2011-01-20T10:33:25Z" uid="82877" user="Wankmann" changeset="7028935" lat="49.5873656" lon="11.3398368"/>
  <node id="316597384" version="1" timestamp="2008-12-04T11:32:07Z" uid="49111" user="Markus B" changeset="112913" lat="49.5873119" lon="11.3400169"/>
  <node id="316597384" version="2" timestamp="2011-01-20T10:19:44Z" uid="82877" user="Wankmann" changeset="7028800" lat="49.587307" lon="11.3400201"/>
  <node id="316597384" version="3" timestamp="2011-01-20T10:33:27Z" uid="82877" user="Wankmann" changeset="7028935" lat="49.5873317" lon="11.3400005"/>
  <node id="316597386" version="1" timestamp="2008-12-04T11:32:07Z" uid="49111" user="Markus B" changeset="112913" lat="49.5872062" lon="11.3399654"/>
  <node id="316597386" version="2" timestamp="2011-01-20T10:19:48Z" uid="82877" user="Wankmann" changeset="7028800" lat="49.5872041" lon="11.339958"/>
  <node id="316597386" version="3" timestamp="2011-01-20T10:33:29Z" uid="82877" user="Wankmann" changeset="7028935" lat="49.5872062" lon="11.3399386"/>
  <node id="316597388" version="1" timestamp="2008-12-04T11:32:07Z" uid="49111" user="Markus B" changeset="112913" lat="49.5872396" lon="11.3398023"/>
  <node id="316597388" version="2" timestamp="2011-01-20T10:19:34Z" uid="82877" user="Wankmann" changeset="7028800" lat="49.587239" lon="11.3398206"/>
  <node id="316597388" version="3" timestamp="2011-01-20T10:33:24Z" uid="82877" user="Wankmann" changeset="7028935" lat="49.5872401" lon="11.3397749"/>
  <node id="316597606" version="2" timestamp="2011-01-01T22:56:09Z" uid="30201" user="rrankin" changeset="6833603" lat="-36.247231" lon="147.8338235">
    <tag k="name" v="Nariel Creek Recreation Reserve"/>
    <tag k="source" v="survey"/>
    <tag k="tourism" v="camp_site"/>
  </node>
  <node id="316597619" version="1" timestamp="2008-12-04T11:32:30Z" uid="49111" user="Markus B" changeset="112913" lat="49.587924" lon="11.3397594"/>
  <node id="316597619" version="2" timestamp="2011-01-20T10:19:47Z" uid="82877" user="Wankmann" changeset="7028800" lat="49.5879264" lon="11.3397597"/>
  <node id="316597619" version="3" timestamp="2011-01-20T10:33:29Z" uid="82877" user="Wankmann" changeset="7028935" lat="49.5879647" lon="11.3397567"/>
  <node id="316597620" version="1" timestamp="2008-12-04T11:32:30Z" uid="49111" user="Markus B" changeset="112913" lat="49.5880575" lon="11.3398195"/>
  <node id="316597620" version="2" timestamp="2011-01-20T10:19:46Z" uid="82877" user="Wankmann" changeset="7028800" lat="49.5880545" lon="11.339819"/>
  <node id="316597620" version="3" timestamp="2011-01-20T10:33:28Z" uid="82877" user="Wankmann" changeset="7028935" lat="49.5881528" lon="11.3397736"/>
  <node id="316597622" version="1" timestamp="2008-12-04T11:32:30Z" uid="49111" user="Markus B" changeset="112913" lat="49.5880798" lon="11.3396736"/>
  <node id="316597622" version="2" timestamp="2011-01-20T10:19:53Z" uid="82877" user="Wankmann" changeset="7028800" lat="49.5880829" lon="11.3396733"/>
  <node id="316597622" version="3" timestamp="2011-01-20T10:33:30Z" uid="82877" user="Wankmann" changeset="7028935" lat="49.5881594" lon="11.3395997"/>
  <node id="316597623" version="1" timestamp="2008-12-04T11:32:30Z" uid="49111" user="Markus B" changeset="112913" lat="49.5879574" lon="11.3396135"/>
  <node id="316597623" version="2" timestamp="2011-01-20T10:19:40Z" uid="82877" user="Wankmann" changeset="7028800" lat="49.5879548" lon="11.339614"/>
  <node id="316597623" version="3" timestamp="2011-01-20T10:33:25Z" uid="82877" user="Wankmann" changeset="7028935" lat="49.5879713" lon="11.3395828"/>
  <node id="316597729" version="2" timestamp="2010-04-21T10:35:17Z" uid="74617" user="JohnSmith" changeset="4485117" lat="-37.4513519" lon="145.6920019">
    <tag k="name" v="Silver Gum Reserve"/>
    <tag k="tourism" v="camp_site"/>
  </node>
  <node id="316597750" version="2" timestamp="2009-12-31T13:14:20Z" uid="4467" user="Rosscoe" changeset="3500530" lat="-36.0947701" lon="145.441676">
    <tag k="name" v="Numurkah Caravan Park"/>
    <tag k="tourism" v="caravan_site"/>
  </node>
  <node id="316597784" version="1" timestamp="2008-12-04T11:32:55Z" uid="49111" user="Markus B" changeset="112913" lat="49.5884804" lon="11.3404031"/>
  <node id="316597784" version="2" timestamp="2011-01-20T10:19:43Z" uid="82877" user="Wankmann" changeset="7028800" lat="49.5884809" lon="11.3403968"/>
  <node id="316597784" version="3" timestamp="2011-01-20T10:33:27Z" uid="82877" user="Wankmann" changeset="7028935" lat="49.5885151" lon="11.3403772"/>
  <node id="316597784" version="4" timestamp="2011-12-10T19:00:59Z" uid="82877" user="Wankmann" changeset="10083895" lat="49.5885116" lon="11.3403811"/>
  <node id="316597785" version="1" timestamp="2008-12-04T11:32:55Z" uid="49111" user="Markus B" changeset="112913" lat="49.5884415" lon="11.3405405"/>
  <node id="316597785" version="2" timestamp="2011-01-20T10:19:51Z" uid="82877" user="Wankmann" changeset="7028800" lat="49.5884442" lon="11.3405348"/>
  <node id="316597785" version="3" timestamp="2011-01-20T10:33:29Z" uid="82877" user="Wankmann" changeset="7028935" lat="49.5884941" lon="11.3405249"/>
  <node id="316597785" version="4" timestamp="2011-12-10T19:00:59Z" uid="82877" user="Wankmann" changeset="10083895" lat="49.5884964" lon="11.3405305"/>
  <node id="316597786" version="1" timestamp="2008-12-04T11:32:55Z" uid="49111" user="Markus B" changeset="112913" lat="49.5885194" lon="11.3405748"/>
  <node id="316597786" version="2" timestamp="2011-01-20T10:19:46Z" uid="82877" user="Wankmann" changeset="7028800" lat="49.5885245" lon="11.3405855"/>
  <node id="316597786" version="3" timestamp="2011-01-20T10:33:28Z" uid="82877" user="Wankmann" changeset="7028935" lat="49.5885958" lon="11.3405593"/>
  <node id="316597786" version="4" timestamp="2011-12-10T19:00:59Z" uid="82877" user="Wankmann" changeset="10083895" lat="49.5885993" lon="11.3405554"/>
  <node id="316597787" version="1" timestamp="2008-12-04T11:32:55Z" uid="49111" user="Markus B" changeset="112913" lat="49.5885694" lon="11.3404461"/>
  <node id="316597787" version="2" timestamp="2011-01-20T10:19:57Z" uid="82877" user="Wankmann" changeset="7028800" lat="49.5885611" lon="11.3404475"/>
  <node id="316597787" version="3" timestamp="2011-01-20T10:33:32Z" uid="82877" user="Wankmann" changeset="7028935" lat="49.5886167" lon="11.3404116"/>
  <node id="316597787" version="4" timestamp="2011-12-10T19:00:59Z" uid="82877" user="Wankmann" changeset="10083895" lat="49.5886144" lon="11.340406"/>
  <node id="316597836" version="2" timestamp="2009-11-13T08:43:09Z" uid="4467" user="Rosscoe" changeset="3104225" lat="-35.9303468" lon="145.7000416">
    <tag k="name" v="Horseshoe Beach - Cobram Regional Park"/>
    <tag k="tourism" v="camp_site"/>
  </node>
  <node id="316597909" version="2" timestamp="2011-04-02T00:33:57Z" uid="4467" user="Rosscoe" changeset="7740529" lat="-35.80844" lon="144.2214045">
    <tag k="name" v="Cohuna Apex Park"/>
    <tag k="tourism" v="picnic_site"/>
  </node>
  <node id="316597912" version="1" timestamp="2008-12-04T11:33:16Z" uid="49111" user="Markus B" changeset="112913" lat="49.5883469" lon="11.339459"/>
  <node id="316597912" version="2" timestamp="2011-01-20T10:19:56Z" uid="82877" user="Wankmann" changeset="7028800" lat="49.5883904" lon="11.3394563"/>
  <node id="316597912" version="3" timestamp="2011-12-10T19:00:59Z" uid="82877" user="Wankmann" changeset="10083895" lat="49.5882716" lon="11.3394615"/>
  <node id="316597914" version="1" timestamp="2008-12-04T11:33:16Z" uid="49111" user="Markus B" changeset="112913" lat="49.5883524" lon="11.3395792"/>
  <node id="316597914" version="2" timestamp="2011-01-20T10:19:36Z" uid="82877" user="Wankmann" changeset="7028800" lat="49.5883883" lon="11.3395933"/>
  <node id="316597914" version="3" timestamp="2011-12-10T19:00:59Z" uid="82877" user="Wankmann" changeset="10083895" lat="49.5882691" lon="11.3395986"/>
  <node id="316597916" version="1" timestamp="2008-12-04T11:33:16Z" uid="49111" user="Markus B" changeset="112913" lat="49.5882411" lon="11.3395534"/>
  <node id="316597916" version="2" timestamp="2011-01-20T10:19:45Z" uid="82877" user="Wankmann" changeset="7028800" lat="49.5882659" lon="11.339589"/>
  <node id="316597916" version="3" timestamp="2011-12-10T19:00:59Z" uid="82877" user="Wankmann" changeset="10083895" lat="49.5882607" lon="11.3395982"/>
  <node id="316597917" version="1" timestamp="2008-12-04T11:33:16Z" uid="49111" user="Markus B" changeset="112913" lat="49.5882467" lon="11.3393903"/>
  <node id="316597917" version="2" timestamp="2011-01-20T10:19:54Z" uid="82877" user="Wankmann" changeset="7028800" lat="49.5882679" lon="11.3394519"/>
  <node id="316597917" version="3" timestamp="2011-12-10T19:00:59Z" uid="82877" user="Wankmann" changeset="10083895" lat="49.5882631" lon="11.3394612"/>
  <node id="316597927" version="2" timestamp="2010-03-19T16:41:39Z" uid="74617" user="JohnSmith" changeset="4171707" lat="-36.119998" lon="144.720001">
    <tag k="name" v="Wharparilla Flora Reserve RA"/>
    <tag k="tourism" v="camp_site"/>
  </node>
  <node id="316597931" version="2" timestamp="2010-03-19T16:41:39Z" uid="74617" user="JohnSmith" changeset="4171707" lat="-36.139999" lon="144.740005">
    <tag k="amenity" v="parking"/>
    <tag k="name" v="Echuca Lions Park"/>
  </node>
  <node id="316597949" version="2" timestamp="2009-07-11T03:36:42Z" uid="19626" user="Swamp" changeset="1793817" lat="-35.8200424" lon="145.5625253">
    <tag k="created_by" v="www.campsaustraliawide.com"/>
    <tag k="name" v="Finley Beach - Tocumwal Regional Park"/>
    <tag k="tourism" v="camp_site"/>
  </node>
  <node id="316597955" version="2" timestamp="2010-05-28T05:22:05Z" uid="74617" user="JohnSmith" changeset="4827639" lat="-35.8802481" lon="145.628047">
    <tag k="name" v="Dead River Beach - Murray River Reserve"/>
    <tag k="tourism" v="camp_site"/>
  </node>
  <node id="316598015" version="3" timestamp="2011-02-01T08:13:26Z" uid="19626" user="Swamp" changeset="7152361" lat="-35.6705256" lon="143.87346">
    <tag k="amenity" v="parking"/>
    <tag k="name" v="Ibis Rookery"/>
  </node>
  <node id="316598031" version="3" timestamp="2011-01-30T11:06:29Z" uid="19626" user="Swamp" changeset="7132458" lat="-35.7368245" lon="143.9140719">
    <tag k="name" v="Kerang Caravan &amp; Tourist Park"/>
    <tag k="tourism" v="caravan_site"/>
  </node>
  <node id="316598062" version="1" timestamp="2008-12-04T11:33:36Z" uid="49111" user="Markus B" changeset="112913" lat="49.5874955" lon="11.3389097"/>
  <node id="316598062" version="2" timestamp="2011-01-20T10:19:46Z" uid="82877" user="Wankmann" changeset="7028800" lat="49.5875264" lon="11.3388789"/>
  <node id="316598063" version="1" timestamp="2008-12-04T11:33:36Z" uid="49111" user="Markus B" changeset="112913" lat="49.58749" lon="11.3390813"/>
  <node id="316598063" version="2" timestamp="2011-01-20T10:19:57Z" uid="82877" user="Wankmann" changeset="7028800" lat="49.5875223" lon="11.3390419"/>
  <node id="316598065" version="1" timestamp="2008-12-04T11:33:36Z" uid="49111" user="Markus B" changeset="112913" lat="49.5873843" lon="11.3390642"/>
  <node id="316598065" version="2" timestamp="2011-01-20T10:19:55Z" uid="82877" user="Wankmann" changeset="7028800" lat="49.5873694" lon="11.3390328"/>
  <node id="316598067" version="1" timestamp="2008-12-04T11:33:36Z" uid="49111" user="Markus B" changeset="112913" lat="49.5873843" lon="11.3389097"/>
  <node id="316598067" version="2" timestamp="2011-01-20T10:19:36Z" uid="82877" user="Wankmann" changeset="7028800" lat="49.5873735" lon="11.3388698"/>
  <node id="316598077" version="2" timestamp="2010-12-31T15:18:31Z" uid="4467" user="Rosscoe" changeset="6820737" lat="-34.3086318" lon="142.1862323">
    <tag k="amenity" v="parking"/>
    <tag k="name" v="Red Cliffs RA"/>
    <tag k="source" v="nearmap"/>
  </node>
  <node id="316598189" version="2" timestamp="2009-08-08T10:28:43Z" uid="18775" user="drlizau" changeset="2074150" lat="-35.0565865" lon="143.2193125">
    <tag k="fireplace" v="yes"/>
    <tag k="name" v="Piangil RA"/>
    <tag k="tourism" v="picnic_site"/>
  </node>
  <node id="316598189" version="3" timestamp="2009-08-08T10:32:08Z" uid="18775" user="drlizau" changeset="2074198" lat="-35.0565865" lon="143.2193125">
    <tag k="fireplace" v="yes"/>
    <tag k="name" v="Piangil West Rest Area"/>
    <tag k="tourism" v="picnic_site"/>
  </node>
  <node id="316598194" version="2" timestamp="2009-08-08T10:32:08Z" uid="18775" user="drlizau" changeset="2074198" lat="-35.060001" lon="143.220001">
    <tag k="created_by" v="www.campsaustraliawide.com"/>
    <tag k="name" v="Piangil West RA"/>
    <tag k="tourism" v="camp_site"/>
  </node>
  <node id="316598211" version="2" timestamp="2009-08-08T10:10:40Z" uid="18775" user="drlizau" changeset="2073993" lat="-35.169998" lon="141.809997">
    <tag k="created_by" v="www.campsaustraliawide.com"/>
    <tag k="name" v="Underbool RA"/>
    <tag k="tourism" v="camp_site"/>
  </node>
  <node id="316598228" version="1" timestamp="2008-12-04T11:33:56Z" uid="49111" user="Markus B" changeset="112913" lat="49.5872229" lon="11.3393388"/>
  <node id="316598228" version="2" timestamp="2011-01-20T10:19:44Z" uid="82877" user="Wankmann" changeset="7028800" lat="49.5872256" lon="11.3393382"/>
  <node id="316598228" version="3" timestamp="2011-01-20T10:33:27Z" uid="82877" user="Wankmann" changeset="7028935" lat="49.5872784" lon="11.3392935"/>
  <node id="316598229" version="1" timestamp="2008-12-04T11:33:56Z" uid="49111" user="Markus B" changeset="112913" lat="49.5871672" lon="11.3394504"/>
  <node id="316598229" version="2" timestamp="2011-01-20T10:19:53Z" uid="82877" user="Wankmann" changeset="7028800" lat="49.5871682" lon="11.339444"/>
  <node id="316598229" version="3" timestamp="2011-01-20T10:33:30Z" uid="82877" user="Wankmann" changeset="7028935" lat="49.5872447" lon="11.3393557"/>
  <node id="316598230" version="1" timestamp="2008-12-04T11:33:56Z" uid="49111" user="Markus B" changeset="112913" lat="49.587106" lon="11.339356"/>
  <node id="316598230" version="2" timestamp="2011-01-20T10:19:48Z" uid="82877" user="Wankmann" changeset="7028800" lat="49.5871005" lon="11.3393566"/>
  <node id="316598230" version="3" timestamp="2011-01-20T10:33:29Z" uid="82877" user="Wankmann" changeset="7028935" lat="49.5871769" lon="11.3392682"/>
  <node id="316598231" version="1" timestamp="2008-12-04T11:33:56Z" uid="49111" user="Markus B" changeset="112913" lat="49.5871561" lon="11.3392444"/>
  <node id="316598231" version="2" timestamp="2011-01-20T10:19:36Z" uid="82877" user="Wankmann" changeset="7028800" lat="49.5871579" lon="11.3392508"/>
  <node id="316598231" version="3" timestamp="2011-01-20T10:33:24Z" uid="82877" user="Wankmann" changeset="7028935" lat="49.5872106" lon="11.339206"/>
  <node id="316598233" version="2" timestamp="2010-05-03T22:44:25Z" uid="18775" user="drlizau" changeset="4600001" lat="-35.0528529" lon="142.8840265">
    <tag k="name" v="Manangatang RA"/>
    <tag k="tourism" v="picnic_site"/>
  </node>
  <node id="316598233" version="3" timestamp="2010-05-03T23:00:23Z" uid="18775" user="drlizau" changeset="4600001" lat="-35.0531403" lon="142.8830759">
    <tag k="name" v="Manangatang RA"/>
    <tag k="tourism" v="picnic_site"/>
  </node>
  <node id="316598584" version="1" timestamp="2008-12-04T11:34:32Z" uid="49111" user="Markus B" changeset="112913" lat="49.5878238" lon="11.3395878"/>
  <node id="316598584" version="2" timestamp="2011-01-20T10:19:42Z" uid="82877" user="Wankmann" changeset="7028800" lat="49.5878224" lon="11.3395719"/>
  <node id="316598584" version="3" timestamp="2011-01-20T10:33:26Z" uid="82877" user="Wankmann" changeset="7028935" lat="49.587873" lon="11.3395484"/>
  <node id="316598587" version="1" timestamp="2008-12-04T11:34:32Z" uid="49111" user="Markus B" changeset="112913" lat="49.5878127" lon="11.339768"/>
  <node id="316598587" version="2" timestamp="2011-01-20T10:19:55Z" uid="82877" user="Wankmann" changeset="7028800" lat="49.5878149" lon="11.3397637"/>
  <node id="316598587" version="3" timestamp="2011-01-20T10:33:31Z" uid="82877" user="Wankmann" changeset="7028935" lat="49.587868" lon="11.3396702"/>
  <node id="316598588" version="1" timestamp="2008-12-04T11:34:32Z" uid="49111" user="Markus B" changeset="112913" lat="49.5877237" lon="11.3397508"/>
  <node id="316598588" version="2" timestamp="2011-01-20T10:19:54Z" uid="82877" user="Wankmann" changeset="7028800" lat="49.5877084" lon="11.3397538"/>
  <node id="316598588" version="3" timestamp="2011-01-20T10:33:30Z" uid="82877" user="Wankmann" changeset="7028935" lat="49.5877598" lon="11.3396596"/>
  <node id="316598590" version="1" timestamp="2008-12-04T11:34:32Z" uid="49111" user="Markus B" changeset="112913" lat="49.5877014" lon="11.3395448"/>
  <node id="316598590" version="2" timestamp="2011-01-20T10:19:36Z" uid="82877" user="Wankmann" changeset="7028800" lat="49.5877159" lon="11.339562"/>
  <node id="316598590" version="3" timestamp="2011-01-20T10:33:24Z" uid="82877" user="Wankmann" changeset="7028935" lat="49.5877648" lon="11.3395395"/>
  <node id="316598641" version="4" timestamp="2010-04-28T15:37:07Z" uid="74617" user="JohnSmith" changeset="4550481" lat="-36.7374503" lon="144.2715111">
    <tag k="leisure" v="stadium"/>
    <tag k="name" v="Bendigo Showgrounds"/>
  </node>
  <node id="316598641" version="5" timestamp="2010-08-01T03:02:23Z" uid="9261" user="Craig Feuerherdt" changeset="5367340" lat="-36.7374503" lon="144.2715111">
    <tag k="leisure" v="stadium"/>
    <tag k="name" v="Bendigo Showgrounds"/>
  </node>
  <node id="316598844" version="3" timestamp="2011-04-02T02:13:10Z" uid="4467" user="Rosscoe" changeset="7740744" lat="-38.330944" lon="143.5934214">
    <tag k="name" v="Central Caravan Park"/>
    <tag k="tourism" v="caravan_site"/>
  </node>
  <node id="316598851" version="1" timestamp="2008-12-04T11:34:53Z" uid="49111" user="Markus B" changeset="112913" lat="49.58749" lon="11.3391843"/>
  <node id="316598851" version="2" timestamp="2011-01-20T10:19:48Z" uid="82877" user="Wankmann" changeset="7028800" lat="49.5874509" lon="11.339146"/>
  <node id="316598852" version="1" timestamp="2008-12-04T11:34:53Z" uid="49111" user="Markus B" changeset="112913" lat="49.58749" lon="11.3393303"/>
  <node id="316598852" version="2" timestamp="2011-01-20T10:19:47Z" uid="82877" user="Wankmann" changeset="7028800" lat="49.5874675" lon="11.3393248"/>
  <node id="316598854" version="1" timestamp="2008-12-04T11:34:53Z" uid="49111" user="Markus B" changeset="112913" lat="49.5874009" lon="11.3393217"/>
  <node id="316598854" version="2" timestamp="2011-01-20T10:19:54Z" uid="82877" user="Wankmann" changeset="7028800" lat="49.5873936" lon="11.3393411"/>
  <node id="316598855" version="1" timestamp="2008-12-04T11:34:53Z" uid="49111" user="Markus B" changeset="112913" lat="49.5873898" lon="11.3391929"/>
  <node id="316598855" version="2" timestamp="2011-01-20T10:19:41Z" uid="82877" user="Wankmann" changeset="7028800" lat="49.5873771" lon="11.3391622"/>
  <node id="316599255" version="1" timestamp="2008-12-04T11:35:15Z" uid="49111" user="Markus B" changeset="112913" lat="49.5872173" lon="11.3405405"/>
  <node id="316599255" version="2" timestamp="2011-01-20T10:19:45Z" uid="82877" user="Wankmann" changeset="7028800" lat="49.5871792" lon="11.3405213"/>
  <node id="316599256" version="1" timestamp="2008-12-04T11:35:15Z" uid="49111" user="Markus B" changeset="112913" lat="49.5871839" lon="11.3406778"/>
  <node id="316599256" version="2" timestamp="2011-01-20T10:19:44Z" uid="82877" user="Wankmann" changeset="7028800" lat="49.5871731" lon="11.3407136"/>
  <node id="316599258" version="1" timestamp="2008-12-04T11:35:15Z" uid="49111" user="Markus B" changeset="112913" lat="49.5870727" lon="11.3406263"/>
  <node id="316599258" version="2" timestamp="2011-01-20T10:19:47Z" uid="82877" user="Wankmann" changeset="7028800" lat="49.5870301" lon="11.3407029"/>
  <node id="316599259" version="1" timestamp="2008-12-04T11:35:15Z" uid="49111" user="Markus B" changeset="112913" lat="49.5870727" lon="11.3404804"/>
  <node id="316599259" version="2" timestamp="2011-01-20T10:19:35Z" uid="82877" user="Wankmann" changeset="7028800" lat="49.5870881" lon="11.3405145"/>
  <node id="316599364" version="1" timestamp="2008-12-04T11:35:30Z" uid="49111" user="Markus B" changeset="112913" lat="49.5872173" lon="11.3401027"/>
  <node id="316599364" version="2" timestamp="2011-01-20T10:19:43Z" uid="82877" user="Wankmann" changeset="7028800" lat="49.5872221" lon="11.3401"/>
  <node id="316599364" version="3" timestamp="2011-01-20T10:33:26Z" uid="82877" user="Wankmann" changeset="7028935" lat="49.5872655" lon="11.3400283"/>
  <node id="316599365" version="1" timestamp="2008-12-04T11:35:30Z" uid="49111" user="Markus B" changeset="112913" lat="49.5872062" lon="11.3401971"/>
  <node id="316599365" version="2" timestamp="2011-01-20T10:19:51Z" uid="82877" user="Wankmann" changeset="7028800" lat="49.5872044" lon="11.3401855"/>
  <node id="316599365" version="3" timestamp="2011-01-20T10:33:29Z" uid="82877" user="Wankmann" changeset="7028935" lat="49.587264" lon="11.3401057"/>
  <node id="316599366" version="1" timestamp="2008-12-04T11:35:30Z" uid="49111" user="Markus B" changeset="112913" lat="49.587145" lon="11.3401456"/>
  <node id="316599366" version="2" timestamp="2011-01-20T10:19:46Z" uid="82877" user="Wankmann" changeset="7028800" lat="49.5871375" lon="11.3401526"/>
  <node id="316599366" version="3" timestamp="2011-01-20T10:33:28Z" uid="82877" user="Wankmann" changeset="7028935" lat="49.5871864" lon="11.3401022"/>
  <node id="316599367" version="1" timestamp="2008-12-04T11:35:30Z" uid="49111" user="Markus B" changeset="112913" lat="49.5871506" lon="11.3400598"/>
  <node id="316599367" version="2" timestamp="2011-01-20T10:19:56Z" uid="82877" user="Wankmann" changeset="7028800" lat="49.5871551" lon="11.3400671"/>
  <node id="316599367" version="3" timestamp="2011-01-20T10:33:31Z" uid="82877" user="Wankmann" changeset="7028935" lat="49.5871879" lon="11.3400247"/>
  <node id="316599506" version="1" timestamp="2008-12-04T11:35:53Z" uid="49111" user="Markus B" changeset="112913" lat="49.5882245" lon="11.3399568"/>
  <node id="316599506" version="2" timestamp="2011-01-20T10:19:44Z" uid="82877" user="Wankmann" changeset="7028800" lat="49.5882266" lon="11.3399426"/>
  <node id="316599506" version="3" timestamp="2011-01-20T10:33:27Z" uid="82877" user="Wankmann" changeset="7028935" lat="49.5882811" lon="11.3399156"/>
  <node id="316599508" version="1" timestamp="2008-12-04T11:35:53Z" uid="49111" user="Markus B" changeset="112913" lat="49.5882133" lon="11.3400942"/>
  <node id="316599508" version="2" timestamp="2011-01-20T10:19:50Z" uid="82877" user="Wankmann" changeset="7028800" lat="49.5882124" lon="11.3400952"/>
  <node id="316599508" version="3" timestamp="2011-01-20T10:33:29Z" uid="82877" user="Wankmann" changeset="7028935" lat="49.5882681" lon="11.3401529"/>
  <node id="316599509" version="1" timestamp="2008-12-04T11:35:53Z" uid="49111" user="Markus B" changeset="112913" lat="49.5881243" lon="11.340077"/>
  <node id="316599509" version="2" timestamp="2011-01-20T10:19:36Z" uid="82877" user="Wankmann" changeset="7028800" lat="49.5881166" lon="11.3400741"/>
  <node id="316599509" version="3" timestamp="2011-01-20T10:33:24Z" uid="82877" user="Wankmann" changeset="7028935" lat="49.5881255" lon="11.3400449"/>
  <node id="316599510" version="1" timestamp="2008-12-04T11:35:53Z" uid="49111" user="Markus B" changeset="112913" lat="49.5881243" lon="11.3399053"/>
  <node id="316599510" version="2" timestamp="2011-01-20T10:19:56Z" uid="82877" user="Wankmann" changeset="7028800" lat="49.5881308" lon="11.3399214"/>
  <node id="316599510" version="3" timestamp="2011-01-20T10:33:31Z" uid="82877" user="Wankmann" changeset="7028935" lat="49.5881336" lon="11.3398963"/>
  <node id="316599627" version="1" timestamp="2008-12-04T11:36:11Z" uid="49111" user="Markus B" changeset="112913" lat="49.5882356" lon="11.3403688"/>
  <node id="316599627" version="2" timestamp="2011-01-20T10:19:43Z" uid="82877" user="Wankmann" changeset="7028800" lat="49.5882352" lon="11.3403723"/>
  <node id="316599627" version="3" timestamp="2011-01-20T10:33:32Z" uid="82877" user="Wankmann" changeset="7028935" lat="49.5882352" lon="11.3403723"/>
  <node id="316599628" version="1" timestamp="2008-12-04T11:36:11Z" uid="49111" user="Markus B" changeset="112913" lat="49.5882245" lon="11.3405319"/>
  <node id="316599628" version="2" timestamp="2011-01-20T10:19:42Z" uid="82877" user="Wankmann" changeset="7028800" lat="49.5882254" lon="11.3405218"/>
  <node id="316599628" version="3" timestamp="2011-01-20T10:33:32Z" uid="82877" user="Wankmann" changeset="7028935" lat="49.5882254" lon="11.3405218"/>
  <node id="316599629" version="1" timestamp="2008-12-04T11:36:11Z" uid="49111" user="Markus B" changeset="112913" lat="49.5881354" lon="11.3404976"/>
  <node id="316599629" version="2" timestamp="2011-01-20T10:19:48Z" uid="82877" user="Wankmann" changeset="7028800" lat="49.5881303" lon="11.340507"/>
  <node id="316599629" version="3" timestamp="2011-01-20T10:33:32Z" uid="82877" user="Wankmann" changeset="7028935" lat="49.5881303" lon="11.340507"/>
  <node id="316599630" version="1" timestamp="2008-12-04T11:36:11Z" uid="49111" user="Markus B" changeset="112913" lat="49.5881354" lon="11.3403602"/>
  <node id="316599630" version="2" timestamp="2011-01-20T10:19:46Z" uid="82877" user="Wankmann" changeset="7028800" lat="49.5881401" lon="11.3403574"/>
  <node id="316599630" version="3" timestamp="2011-01-20T10:33:32Z" uid="82877" user="Wankmann" changeset="7028935" lat="49.5881401" lon="11.3403574"/>
  <node id="316599870" version="1" timestamp="2008-12-04T11:36:46Z" uid="49111" user="Markus B" changeset="112913" lat="49.5884248" lon="11.3397251"/>
  <node id="316599870" version="2" timestamp="2011-01-20T10:19:43Z" uid="82877" user="Wankmann" changeset="7028800" lat="49.5884173" lon="11.3397285"/>
  <node id="316599870" version="3" timestamp="2011-01-20T10:33:27Z" uid="82877" user="Wankmann" changeset="7028935" lat="49.5884164" lon="11.3397145"/>
  <node id="316599871" version="1" timestamp="2008-12-04T11:36:46Z" uid="49111" user="Markus B" changeset="112913" lat="49.5884136" lon="11.339871"/>
  <node id="316599871" version="2" timestamp="2011-01-20T10:19:51Z" uid="82877" user="Wankmann" changeset="7028800" lat="49.5883614" lon="11.3398762"/>
  <node id="316599871" version="3" timestamp="2011-01-20T10:33:29Z" uid="82877" user="Wankmann" changeset="7028935" lat="49.5883933" lon="11.3398741"/>
  <node id="316599872" version="1" timestamp="2008-12-04T11:36:46Z" uid="49111" user="Markus B" changeset="112913" lat="49.5885138" lon="11.3398796"/>
  <node id="316599872" version="2" timestamp="2011-01-20T10:19:45Z" uid="82877" user="Wankmann" changeset="7028800" lat="49.5884178" lon="11.3399004"/>
  <node id="316599872" version="3" timestamp="2011-01-20T10:33:28Z" uid="82877" user="Wankmann" changeset="7028935" lat="49.5884526" lon="11.339875"/>
  <node id="316599873" version="1" timestamp="2008-12-04T11:36:46Z" uid="49111" user="Markus B" changeset="112913" lat="49.5885361" lon="11.3397165"/>
  <node id="316599873" version="2" timestamp="2011-01-20T10:19:55Z" uid="82877" user="Wankmann" changeset="7028800" lat="49.5884567" lon="11.3396847"/>
  <node id="316599873" version="3" timestamp="2011-01-20T10:33:31Z" uid="82877" user="Wankmann" changeset="7028935" lat="49.588454" lon="11.3396586"/>
  <node id="316599979" version="1" timestamp="2008-12-04T11:37:10Z" uid="49111" user="Markus B" changeset="112913" lat="49.5881466" lon="11.3392788"/>
  <node id="316599979" version="2" timestamp="2011-01-20T10:19:57Z" uid="82877" user="Wankmann" changeset="7028800" lat="49.588207" lon="11.3392632"/>
  <node id="316599981" version="1" timestamp="2008-12-04T11:37:10Z" uid="49111" user="Markus B" changeset="112913" lat="49.5881354" lon="11.3394504"/>
  <node id="316599981" version="2" timestamp="2011-01-20T10:19:42Z" uid="82877" user="Wankmann" changeset="7028800" lat="49.5882038" lon="11.3394351"/>
  <node id="316599984" version="1" timestamp="2008-12-04T11:37:10Z" uid="49111" user="Markus B" changeset="112913" lat="49.5880687" lon="11.3394247"/>
  <node id="316599984" version="2" timestamp="2011-01-20T10:19:35Z" uid="82877" user="Wankmann" changeset="7028800" lat="49.5880611" lon="11.3394286"/>
  <node id="316599986" version="1" timestamp="2008-12-04T11:37:10Z" uid="49111" user="Markus B" changeset="112913" lat="49.5880575" lon="11.339253"/>
  <node id="316599986" version="2" timestamp="2011-01-20T10:19:42Z" uid="82877" user="Wankmann" changeset="7028800" lat="49.5880644" lon="11.3392568"/>
</osm>
