<?xml version='1.0' encoding='UTF-8'?>
<osm version="0.6" generator="libosmium/2.20.0">
  <node id="316750398" version="4" timestamp="2009-10-02T19:49:19Z" uid="86259" user="hasse_osm_korinthenkacker" changeset="2716821" lat="47.9116036" lon="11.6834698">
    <tag k="addr:city" v="Otterfing"/>
    <tag k="addr:country" v="DE"/>
    <tag k="addr:housenumber" v="4"/>
    <tag k="addr:postcode" v="83624"/>
    <tag k="addr:street" v="Markweg"/>
    <tag k="source" v="survey"/>
  </node>
  <node id="316750398" version="5" timestamp="2009-10-23T11:36:31Z" uid="36809" user="pfoten_weg_!_" changeset="2928981" lat="47.9116036" lon="11.6834698">
    <tag k="addr:city" v="Otterfing"/>
    <tag k="addr:country" v="DE"/>
    <tag k="addr:housenumber" v="4"/>
    <tag k="addr:postcode" v="83624"/>
    <tag k="addr:street" v="Markweg"/>
  </node>
  <node id="316750398" version="6" timestamp="2010-02-01T16:00:47Z" uid="42393" user="mawi42" changeset="3768728" lat="47.9115419" lon="11.683438">
    <tag k="addr:city" v="Otterfing"/>
    <tag k="addr:country" v="DE"/>
    <tag k="addr:housenumber" v="4"/>
    <tag k="addr:postcode" v="83624"/>
    <tag k="addr:street" v="Markweg"/>
  </node>
  <node id="316751046" version="5" timestamp="2009-05-01T20:51:36Z" uid="20587" user="balrog-kun" changeset="1042242" lat="52.5438646" lon="16.9454508">
    <tag k="addr:postcode" v="62-003"/>
    <tag k="created_by" v="Merkaartor 0.12"/>
    <tag k="is_in" v="gmina Suchy Las, powiat poznański, województwo wielkopolskie, Poland"/>
    <tag k="is_in:country" v="Poland"/>
    <tag k="is_in:county" v="powiat poznański"/>
    <tag k="is_in:municipality" v="gmina Suchy Las"/>
    <tag k="is_in:province" v="województwo wielkopolskie"/>
    <tag k="name" v="Biedrusko"/>
    <tag k="place" v="village"/>
    <tag k="population" v="2200"/>
    <tag k="source:population" v="wikipedia"/>
    <tag k="teryt:rm" v="01"/>
    <tag k="teryt:simc" v="0595329"/>
    <tag k="teryt:stan_na" v="2009-01-01"/>
    <tag k="teryt:terc" v="3021152"/>
    <tag k="teryt:updated_by" v="teryt2osm combine.py v. 43"/>
    <tag k="wikipedia" v="Biedrusko"/>
  </node>
  <node id="316751046" version="6" timestamp="2010-04-05T17:41:01Z" uid="163746" user="anti_bot-nonsense" changeset="4334877" lat="52.5438646" lon="16.9454508">
    <tag k="addr:postcode" v="62-003"/>
    <tag k="is_in" v="gmina Suchy Las, powiat poznański, województwo wielkopolskie, Poland"/>
    <tag k="is_in:country" v="Poland"/>
    <tag k="is_in:county" v="powiat poznański"/>
    <tag k="is_in:municipality" v="gmina Suchy Las"/>
    <tag k="is_in:province" v="województwo wielkopolskie"/>
    <tag k="name" v="Biedrusko"/>
    <tag k="place" v="village"/>
    <tag k="population" v="2200"/>
    <tag k="source:population" v="wikipedia"/>
    <tag k="teryt:rm" v="01"/>
    <tag k="teryt:simc" v="0595329"/>
    <tag k="teryt:stan_na" v="2009-01-01"/>
    <tag k="teryt:terc" v="3021152"/>
    <tag k="wikipedia" v="Biedrusko"/>
  </node>
  <node id="316751046" version="7" timestamp="2010-04-11T04:38:58Z" uid="20587" user="balrog-kun" changeset="4389130" lat="52.5435362" lon="16.9458586">
    <tag k="addr:postcode" v="62-003"/>
    <tag k="is_in" v="gmina Suchy Las, powiat poznański, województwo wielkopolskie, Poland"/>
    <tag k="is_in:country" v="Poland"/>
    <tag k="is_in:county" v="powiat poznański"/>
    <tag k="is_in:municipality" v="gmina Suchy Las"/>
    <tag k="is_in:province" v="województwo wielkopolskie"/>
    <tag k="name" v="Biedrusko"/>
    <tag k="place" v="village"/>
    <tag k="population" v="2200"/>
    <tag k="source:population" v="wikipedia"/>
    <tag k="teryt:rm" v="01"/>
    <tag k="teryt:simc" v="0595329"/>
    <tag k="teryt:stan_na" v="2009-01-01"/>
    <tag k="teryt:terc" v="3021152"/>
    <tag k="wikipedia" v="Biedrusko"/>
  </node>
  <node id="316751047" version="6" timestamp="2009-05-01T20:52:26Z" uid="20587" user="balrog-kun" changeset="1042242" lat="52.5456456" lon="16.993305">
    <tag k="addr:postcode" v="62-005"/>
    <tag k="created_by" v="Merkaartor 0.12"/>
    <tag k="is_in" v="gmina Czerwonak, powiat poznański, województwo wielkopolskie, Poland"/>
    <tag k="is_in:country" v="Poland"/>
    <tag k="is_in:county" v="powiat poznański"/>
    <tag k="is_in:municipality" v="gmina Czerwonak"/>
    <tag k="is_in:province" v="województwo wielkopolskie"/>
    <tag k="name" v="Bolechowo"/>
    <tag k="place" v="village"/>
    <tag k="population" v="1250"/>
    <tag k="source:population" v="wikipedia"/>
    <tag k="teryt:rm" v="01"/>
    <tag k="teryt:simc" v="0581913"/>
    <tag k="teryt:stan_na" v="2009-01-01"/>
    <tag k="teryt:terc" v="3021042"/>
    <tag k="teryt:updated_by" v="teryt2osm combine.py v. 43"/>
    <tag k="wikipedia" v="Bolechowo, Greater Poland Voivodeship"/>
  </node>
  <node id="316751047" version="7" timestamp="2010-04-05T16:06:17Z" uid="163746" user="anti_bot-nonsense" changeset="4334877" lat="52.5456456" lon="16.993305">
    <tag k="addr:postcode" v="62-005"/>
    <tag k="is_in" v="gmina Czerwonak, powiat poznański, województwo wielkopolskie, Poland"/>
    <tag k="is_in:country" v="Poland"/>
    <tag k="is_in:county" v="powiat poznański"/>
    <tag k="is_in:municipality" v="gmina Czerwonak"/>
    <tag k="is_in:province" v="województwo wielkopolskie"/>
    <tag k="name" v="Bolechowo"/>
    <tag k="place" v="village"/>
    <tag k="population" v="1250"/>
    <tag k="source:population" v="wikipedia"/>
    <tag k="teryt:rm" v="01"/>
    <tag k="teryt:simc" v="0581913"/>
    <tag k="teryt:stan_na" v="2009-01-01"/>
    <tag k="teryt:terc" v="3021042"/>
    <tag k="wikipedia" v="Bolechowo, Greater Poland Voivodeship"/>
  </node>
  <node id="316751047" version="8" timestamp="2010-04-11T04:38:58Z" uid="20587" user="balrog-kun" changeset="4389130" lat="52.5450019" lon="16.9914945">
    <tag k="addr:postcode" v="62-005"/>
    <tag k="is_in" v="gmina Czerwonak, powiat poznański, województwo wielkopolskie, Poland"/>
    <tag k="is_in:country" v="Poland"/>
    <tag k="is_in:county" v="powiat poznański"/>
    <tag k="is_in:municipality" v="gmina Czerwonak"/>
    <tag k="is_in:province" v="województwo wielkopolskie"/>
    <tag k="name" v="Bolechowo"/>
    <tag k="place" v="village"/>
    <tag k="population" v="1250"/>
    <tag k="source:population" v="wikipedia"/>
    <tag k="teryt:rm" v="01"/>
    <tag k="teryt:simc" v="0581913"/>
    <tag k="teryt:stan_na" v="2009-01-01"/>
    <tag k="teryt:terc" v="3021042"/>
    <tag k="wikipedia" v="Bolechowo, Greater Poland Voivodeship"/>
  </node>
  <node id="316751048" version="6" timestamp="2009-05-01T20:53:34Z" uid="20587" user="balrog-kun" changeset="1042242" lat="52.5435181" lon="16.9666462">
    <tag k="addr:postcode" v="62-005"/>
    <tag k="created_by" v="Merkaartor 0.12"/>
    <tag k="is_in" v="gmina Czerwonak, powiat poznański, województwo wielkopolskie, Poland"/>
    <tag k="is_in:country" v="Poland"/>
    <tag k="is_in:county" v="powiat poznański"/>
    <tag k="is_in:municipality" v="gmina Czerwonak"/>
    <tag k="is_in:province" v="województwo wielkopolskie"/>
    <tag k="name" v="Promnice"/>
    <tag k="place" v="village"/>
    <tag k="population" v="450"/>
    <tag k="source:population" v="wikipedia"/>
    <tag k="teryt:rm" v="01"/>
    <tag k="teryt:simc" v="0582090"/>
    <tag k="teryt:stan_na" v="2009-01-01"/>
    <tag k="teryt:terc" v="3021042"/>
    <tag k="teryt:updated_by" v="teryt2osm combine.py v. 43"/>
    <tag k="wikipedia" v="Promnice"/>
  </node>
  <node id="316751048" version="7" timestamp="2010-04-05T16:34:59Z" uid="163746" user="anti_bot-nonsense" changeset="4334877" lat="52.5435181" lon="16.9666462">
    <tag k="addr:postcode" v="62-005"/>
    <tag k="is_in" v="gmina Czerwonak, powiat poznański, województwo wielkopolskie, Poland"/>
    <tag k="is_in:country" v="Poland"/>
    <tag k="is_in:county" v="powiat poznański"/>
    <tag k="is_in:municipality" v="gmina Czerwonak"/>
    <tag k="is_in:province" v="województwo wielkopolskie"/>
    <tag k="name" v="Promnice"/>
    <tag k="place" v="village"/>
    <tag k="population" v="450"/>
    <tag k="source:population" v="wikipedia"/>
    <tag k="teryt:rm" v="01"/>
    <tag k="teryt:simc" v="0582090"/>
    <tag k="teryt:stan_na" v="2009-01-01"/>
    <tag k="teryt:terc" v="3021042"/>
    <tag k="wikipedia" v="Promnice"/>
  </node>
  <node id="316751048" version="8" timestamp="2010-04-11T04:38:58Z" uid="20587" user="balrog-kun" changeset="4389130" lat="52.5428497" lon="16.9664913">
    <tag k="addr:postcode" v="62-005"/>
    <tag k="is_in" v="gmina Czerwonak, powiat poznański, województwo wielkopolskie, Poland"/>
    <tag k="is_in:country" v="Poland"/>
    <tag k="is_in:county" v="powiat poznański"/>
    <tag k="is_in:municipality" v="gmina Czerwonak"/>
    <tag k="is_in:province" v="województwo wielkopolskie"/>
    <tag k="name" v="Promnice"/>
    <tag k="place" v="village"/>
    <tag k="population" v="450"/>
    <tag k="source:population" v="wikipedia"/>
    <tag k="teryt:rm" v="01"/>
    <tag k="teryt:simc" v="0582090"/>
    <tag k="teryt:stan_na" v="2009-01-01"/>
    <tag k="teryt:terc" v="3021042"/>
    <tag k="wikipedia" v="Promnice"/>
  </node>
  <node id="316751049" version="3" timestamp="2009-05-01T20:54:40Z" uid="20587" user="balrog-kun" changeset="1042242" lat="52.5723249" lon="17.0053964">
    <tag k="addr:postcode" v="62-095"/>
    <tag k="created_by" v="Merkaartor 0.12"/>
    <tag k="is_in" v="gmina Murowana Goślina, powiat poznański, województwo wielkopolskie, Poland"/>
    <tag k="is_in:county" v="powiat poznański"/>
    <tag k="is_in:municipality" v="gmina Murowana Goślina"/>
    <tag k="is_in:province" v="województwo wielkopolskie"/>
    <tag k="name" v="Murowana Goślina"/>
    <tag k="place" v="village"/>
    <tag k="population" v="10230"/>
    <tag k="source:population" v="wikipedia"/>
    <tag k="teryt:terc" v="3021114"/>
    <tag k="wikipedia" v="Murowana Goślina"/>
  </node>
  <node id="316751049" version="4" timestamp="2009-12-22T13:49:55Z" uid="203293" user="mard91" changeset="3427302" lat="52.572325" lon="17.0053963">
    <tag k="addr:postcode" v="62-095"/>
    <tag k="is_in" v="gmina Murowana Goślina, powiat poznański, województwo wielkopolskie, Poland"/>
    <tag k="is_in:county" v="powiat poznański"/>
    <tag k="is_in:municipality" v="gmina Murowana Goślina"/>
    <tag k="is_in:province" v="województwo wielkopolskie"/>
    <tag k="name" v="Murowana Goślina"/>
    <tag k="place" v="town"/>
    <tag k="population" v="10230"/>
    <tag k="source:population" v="wikipedia"/>
    <tag k="teryt:terc" v="3021114"/>
    <tag k="wikipedia" v="Murowana Goślina"/>
  </node>
  <node id="316751049" version="5" timestamp="2010-04-11T04:38:58Z" uid="20587" user="balrog-kun" changeset="4389130" lat="52.5727075" lon="17.0064684">
    <tag k="addr:postcode" v="62-095"/>
    <tag k="is_in" v="gmina Murowana Goślina, powiat poznański, województwo wielkopolskie, Poland"/>
    <tag k="is_in:county" v="powiat poznański"/>
    <tag k="is_in:municipality" v="gmina Murowana Goślina"/>
    <tag k="is_in:province" v="województwo wielkopolskie"/>
    <tag k="name" v="Murowana Goślina"/>
    <tag k="place" v="town"/>
    <tag k="population" v="10230"/>
    <tag k="source:population" v="wikipedia"/>
    <tag k="teryt:terc" v="3021114"/>
    <tag k="wikipedia" v="Murowana Goślina"/>
  </node>
  <node id="316751049" version="6" timestamp="2010-04-27T04:12:35Z" uid="30632" user="antblant" changeset="4537887" lat="52.5727075" lon="17.0064684">
    <tag k="addr:postcode" v="62-095"/>
    <tag k="is_in" v="gmina Murowana Goślina, powiat poznański, województwo wielkopolskie, Poland"/>
    <tag k="is_in:county" v="powiat poznański"/>
    <tag k="is_in:municipality" v="gmina Murowana Goślina"/>
    <tag k="is_in:province" v="województwo wielkopolskie"/>
    <tag k="name" v="Murowana Goślina"/>
    <tag k="place" v="town"/>
    <tag k="population" v="10230"/>
    <tag k="source:population" v="wikipedia"/>
    <tag k="teryt:simc" v="0971152"/>
    <tag k="teryt:terc" v="3021114"/>
    <tag k="wikipedia" v="Murowana Goślina"/>
  </node>
  <node id="316751049" version="7" timestamp="2010-07-26T02:02:21Z" uid="20587" user="balrog-kun" changeset="5317852" lat="52.5727075" lon="17.0064684">
    <tag k="addr:postcode" v="62-095"/>
    <tag k="is_in" v="gmina Murowana Goślina, powiat poznański, województwo wielkopolskie, Poland"/>
    <tag k="is_in:county" v="powiat poznański"/>
    <tag k="is_in:municipality" v="gmina Murowana Goślina"/>
    <tag k="is_in:province" v="województwo wielkopolskie"/>
    <tag k="name" v="Murowana Goślina"/>
    <tag k="name:de" v="Murowana Goslin"/>
    <tag k="place" v="town"/>
    <tag k="population" v="10230"/>
    <tag k="source:population" v="wikipedia"/>
    <tag k="teryt:simc" v="0971152"/>
    <tag k="teryt:terc" v="3021114"/>
    <tag k="wikipedia" v="Murowana Goślina"/>
  </node>
  <node id="316752705" version="2" timestamp="2010-04-05T16:53:07Z" uid="163746" user="anti_bot-nonsense" changeset="4334877" lat="52.5517334" lon="16.9348128"/>
  <node id="316752706" version="2" timestamp="2010-04-05T17:17:34Z" uid="163746" user="anti_bot-nonsense" changeset="4334877" lat="52.5466522" lon="16.93197"/>
  <node id="316752707" version="2" timestamp="2010-04-05T17:41:10Z" uid="163746" user="anti_bot-nonsense" changeset="4334877" lat="52.5449625" lon="16.9335315"/>
  <node id="316752708" version="2" timestamp="2010-04-05T16:06:31Z" uid="163746" user="anti_bot-nonsense" changeset="4334877" lat="52.5443061" lon="16.9372952"/>
  <node id="316752709" version="2" timestamp="2010-04-05T16:35:15Z" uid="163746" user="anti_bot-nonsense" changeset="4334877" lat="52.5485363" lon="16.9397175"/>
  <node id="316752710" version="2" timestamp="2010-04-05T16:58:48Z" uid="163746" user="anti_bot-nonsense" changeset="4334877" lat="52.5493508" lon="16.9382361"/>
  <node id="316752711" version="2" timestamp="2010-04-05T17:23:47Z" uid="163746" user="anti_bot-nonsense" changeset="4334877" lat="52.5496547" lon="16.9384363"/>
  <node id="316752852" version="2" timestamp="2008-12-20T18:24:05Z" uid="49111" user="Markus B" changeset="497566" lat="49.5105331" lon="11.2769288">
    <tag k="amenity" v="parking"/>
    <tag k="created_by" v="Potlatch 0.10f"/>
  </node>
  <node id="316752852" version="3" timestamp="2008-12-20T18:24:28Z" uid="49111" user="Markus B" changeset="497566" lat="49.5105331" lon="11.2769288">
    <tag k="created_by" v="Potlatch 0.10f"/>
  </node>
  <node id="316752852" version="4" timestamp="2009-05-17T15:37:43Z" uid="70581" user="rsl" changeset="1224077" lat="49.510377" lon="11.2775838">
    <tag k="amenity" v="school"/>
    <tag k="name" v="VHS Lauf"/>
  </node>
  <node id="316752852" version="5" timestamp="2009-08-02T21:35:51Z" uid="70581" user="rsl" changeset="2020094" lat="49.510377" lon="11.2775838">
    <tag k="amenity" v="school"/>
    <tag k="name" v="VHS Unteres Pegnitztal"/>
  </node>
  <node id="316752852" version="6" timestamp="2009-12-01T18:08:33Z" uid="63375" user="Divjo" changeset="3266111" lat="49.5103007" lon="11.2776215">
    <tag k="amenity" v="school"/>
    <tag k="name" v="VHS Unteres Pegnitztal"/>
  </node>
  <node id="316752852" version="7" timestamp="2009-12-04T19:25:27Z" uid="63375" user="Divjo" changeset="3290640" lat="49.5106641" lon="11.2774166">
    <tag k="amenity" v="school"/>
    <tag k="name" v="VHS Unteres Pegnitztal"/>
  </node>
  <node id="316752852" version="8" timestamp="2009-12-05T08:25:16Z" uid="63375" user="Divjo" changeset="3293590" lat="49.5104658" lon="11.2773958">
    <tag k="amenity" v="school"/>
    <tag k="name" v="VHS Unteres Pegnitztal"/>
  </node>
  <node id="316752852" version="9" timestamp="2009-12-05T08:25:22Z" uid="63375" user="Divjo" changeset="3293590" lat="49.5104937" lon="11.2773636">
    <tag k="amenity" v="school"/>
    <tag k="name" v="VHS Unteres Pegnitztal"/>
  </node>
  <node id="316752852" version="10" timestamp="2010-10-25T11:28:16Z" uid="290680" user="wheelmap_visitor" changeset="6168926" lat="49.5104937" lon="11.2773636">
    <tag k="amenity" v="school"/>
    <tag k="name" v="VHS Unteres Pegnitztal"/>
    <tag k="wheelchair" v="yes"/>
  </node>
  <node id="316753040" version="2" timestamp="2008-12-09T23:10:25Z" uid="6975" user="ulfl" changeset="299549" lat="27.7" lon="90.783333">
    <tag k="gns:dsg" v="ADM1"/>
    <tag k="gns:uni" v="276646"/>
    <tag k="is_in:country" v="Bhutan"/>
    <tag k="is_in:country_code" v="bt"/>
    <tag k="loc_name" v="བུམ་ཐང་"/>
    <tag k="name" v="Bumthang Dzongkhag"/>
    <tag k="place" v="county"/>
    <tag k="source" v="GNS"/>
    <tag k="website" v="www.dzongkhag.gov.bt"/>
  </node>
  <node id="316753049" version="2" timestamp="2008-12-09T23:10:26Z" uid="6975" user="ulfl" changeset="299549" lat="26.933333" lon="90.1">
    <tag k="alt_name" v="Chirang Dzongkhag"/>
    <tag k="gns:dsg" v="ADM1"/>
    <tag k="gns:uni" v="276650"/>
    <tag k="is_in:country" v="Bhutan"/>
    <tag k="is_in:country_code" v="bt"/>
    <tag k="loc_name" v="རྩི་རང་"/>
    <tag k="name" v="Tsirang Dzongkhag"/>
    <tag k="place" v="county"/>
    <tag k="source" v="GNS"/>
    <tag k="website" v="www.dzongkhag.gov.bt"/>
  </node>
  <node id="316753050" version="2" timestamp="2008-12-09T23:10:26Z" uid="6975" user="ulfl" changeset="299549" lat="27.75" lon="91.183333">
    <tag k="alt_name" v="Lhuntshi Dzongkhag"/>
    <tag k="gns:dsg" v="ADM1"/>
    <tag k="gns:uni" v="276657"/>
    <tag k="is_in:country" v="Bhutan"/>
    <tag k="is_in:country_code" v="bt"/>
    <tag k="loc_name" v="ལྷུན་རྩེ་"/>
    <tag k="name" v="Lhuntse Dzongkhag"/>
    <tag k="place" v="county"/>
    <tag k="source" v="GNS"/>
    <tag k="website" v="www.dzongkhag.gov.bt"/>
  </node>
  <node id="316753052" version="2" timestamp="2008-12-09T23:10:25Z" uid="6975" user="ulfl" changeset="299549" lat="27.333333" lon="89.183333">
    <tag k="alt_name" v="Ha Dzongkhag"/>
    <tag k="gns:dsg" v="ADM1"/>
    <tag k="gns:uni" v="276655"/>
    <tag k="is_in:country" v="Bhutan"/>
    <tag k="is_in:country_code" v="bt"/>
    <tag k="loc_name" v="ཧད་ / ཧཱ་"/>
    <tag k="name" v="Haa Dzongkhag"/>
    <tag k="old_name" v="Has ཧས "/>
    <tag k="place" v="county"/>
    <tag k="population" v="11648"/>
    <tag k="source" v="GNS"/>
    <tag k="website" v="www.dzongkhag.gov.bt"/>
  </node>
  <node id="316753052" version="3" timestamp="2008-12-22T00:09:22Z" uid="70696" user="xybot" changeset="544501" lat="27.333333" lon="89.183333">
    <tag k="alt_name" v="Ha Dzongkhag"/>
    <tag k="created_by" v="xybot"/>
    <tag k="gns:dsg" v="ADM1"/>
    <tag k="gns:uni" v="276655"/>
    <tag k="is_in:country" v="Bhutan"/>
    <tag k="is_in:country_code" v="bt"/>
    <tag k="loc_name" v="ཧད་ / ཧཱ་"/>
    <tag k="name" v="Haa Dzongkhag"/>
    <tag k="old_name" v="Has ཧས"/>
    <tag k="place" v="county"/>
    <tag k="population" v="11648"/>
    <tag k="source" v="GNS"/>
    <tag k="website" v="www.dzongkhag.gov.bt"/>
  </node>
  <node id="316753054" version="2" timestamp="2008-12-09T23:10:25Z" uid="6975" user="ulfl" changeset="299549" lat="26.916667" lon="91.616667">
    <tag k="gns:dsg" v="ADM1"/>
    <tag k="gns:uni" v="276673"/>
    <tag k="is_in:country" v="Bhutan"/>
    <tag k="is_in:country_code" v="bt"/>
    <tag k="loc_name" v="བསཾ་གྲུབ་ལྗོངས་མཁར་"/>
    <tag k="name" v="Samdrup Jongkhar Dzongkhag"/>
    <tag k="place" v="county"/>
    <tag k="source" v="GNS"/>
    <tag k="website" v="www.dzongkhag.gov.bt"/>
  </node>
  <node id="316753055" version="2" timestamp="2008-12-09T23:10:25Z" uid="6975" user="ulfl" changeset="299549" lat="27.333333" lon="91.733333">
    <tag k="alt_name" v="Tashigang Dzongkhag"/>
    <tag k="gns:dsg" v="ADM1"/>
    <tag k="gns:uni" v="276697"/>
    <tag k="is_in:country" v="Bhutan"/>
    <tag k="is_in:country_code" v="bt"/>
    <tag k="loc_name" v="བཀྲ་ཤིས་སྒང་"/>
    <tag k="name" v="Tashigang Dzongkhag"/>
    <tag k="place" v="county"/>
    <tag k="source" v="GNS"/>
    <tag k="website" v="www.dzongkhag.gov.bt"/>
  </node>
  <node id="316753056" version="2" timestamp="2008-12-09T23:10:27Z" uid="6975" user="ulfl" changeset="299549" lat="27.5" lon="90.133333">
    <tag k="alt_name" v="Wangdi Phodrang Dzongkhag"/>
    <tag k="gns:dsg" v="ADM1"/>
    <tag k="gns:uni" v="276704"/>
    <tag k="is_in:country" v="Bhutan"/>
    <tag k="is_in:country_code" v="bt"/>
    <tag k="loc_name" v="དབང་འདུས་ཕོ་བྲང་"/>
    <tag k="name" v="Wangdue Phodrang Dzongkhag"/>
    <tag k="place" v="county"/>
    <tag k="source" v="GNS"/>
    <tag k="website" v="www.dzongkhag.gov.bt"/>
  </node>
  <node id="316753057" version="2" timestamp="2008-12-09T23:10:27Z" uid="6975" user="ulfl" changeset="299549" lat="27.516667" lon="89.4">
    <tag k="gns:dsg" v="ADM1"/>
    <tag k="gns:uni" v="276660"/>
    <tag k="is_in:country" v="Bhutan"/>
    <tag k="is_in:country_code" v="bt"/>
    <tag k="loc_name" v="སྤ་གྲོ་"/>
    <tag k="name" v="Paro Dzongkhag"/>
    <tag k="place" v="county"/>
    <tag k="population" v="20000"/>
    <tag k="source" v="GNS"/>
    <tag k="website" v="www.dzongkhag.gov.bt"/>
  </node>
  <node id="316753058" version="2" timestamp="2008-12-09T23:10:27Z" uid="6975" user="ulfl" changeset="299549" lat="28" lon="89.933333">
    <tag k="gns:dsg" v="ADM1"/>
    <tag k="gns:uni" v="276666"/>
    <tag k="is_in:country" v="Bhutan"/>
    <tag k="is_in:country_code" v="bt"/>
    <tag k="loc_name" v="སྤུ་ན་ཁ་"/>
    <tag k="name" v="Punakha Dzongkhag"/>
    <tag k="place" v="county"/>
    <tag k="source" v="GNS"/>
    <tag k="website" v="www.dzongkhag.gov.bt"/>
  </node>
  <node id="316753059" version="2" timestamp="2008-12-09T23:10:27Z" uid="6975" user="ulfl" changeset="299549" lat="27" lon="91.366667">
    <tag k="alt_name" v="Pemagatsel Dzongkhag"/>
    <tag k="gns:dsg" v="ADM1"/>
    <tag k="gns:uni" v="276662"/>
    <tag k="is_in:country" v="Bhutan"/>
    <tag k="is_in:country_code" v="bt"/>
    <tag k="loc_name" v="པདྨ་དགའ་ཚལ་"/>
    <tag k="name" v="Pemagatshel Dzongkhag"/>
    <tag k="old_name" v="Pemagatsel"/>
    <tag k="place" v="county"/>
    <tag k="source" v="GNS"/>
    <tag k="website" v="www.dzongkhag.gov.bt"/>
  </node>
  <node id="316753060" version="2" timestamp="2008-12-09T23:10:26Z" uid="6975" user="ulfl" changeset="299549" lat="27.35" lon="90.533333">
    <tag k="alt_name" v="Tongsa Dzongkhag"/>
    <tag k="gns:dsg" v="ADM1"/>
    <tag k="gns:uni" v="276701"/>
    <tag k="is_in:country" v="Bhutan"/>
    <tag k="is_in:country_code" v="bt"/>
    <tag k="loc_name" v="ཀྲོང་གསར་"/>
    <tag k="name" v="Trongsa Dzongkhag"/>
    <tag k="place" v="county"/>
    <tag k="source" v="GNS"/>
    <tag k="website" v="www.dzongkhag.gov.bt"/>
  </node>
  <node id="316753061" version="2" timestamp="2008-12-09T23:10:26Z" uid="6975" user="ulfl" changeset="299549" lat="27.083333" lon="90.85">
    <tag k="alt_name" v="Shemgang Dzongkhag"/>
    <tag k="gns:dsg" v="ADM1"/>
    <tag k="gns:uni" v="276696"/>
    <tag k="is_in:country" v="Bhutan"/>
    <tag k="is_in:country_code" v="bt"/>
    <tag k="loc_name" v="གཞལ་སྒང་"/>
    <tag k="name" v="Zhemgang Dzongkhag"/>
    <tag k="place" v="county"/>
    <tag k="source" v="GNS"/>
    <tag k="website" v="www.dzongkhag.gov.bt"/>
  </node>
  <node id="316753062" version="2" timestamp="2008-12-09T23:10:26Z" uid="6975" user="ulfl" changeset="299549" lat="27.25" lon="91.233333">
    <tag k="gns:dsg" v="ADM1"/>
    <tag k="gns:uni" v="276659"/>
    <tag k="is_in:country" v="Bhutan"/>
    <tag k="is_in:country_code" v="bt"/>
    <tag k="loc_name" v="མོང་སྒར་"/>
    <tag k="name" v="Mongar Dzongkhag"/>
    <tag k="place" v="county"/>
    <tag k="source" v="GNS"/>
    <tag k="website" v="www.dzongkhag.gov.bt"/>
  </node>
  <node id="316753062" version="3" timestamp="2012-01-01T13:02:35Z" uid="386496" user="LodruD" changeset="10261129" lat="27.2609645" lon="91.2349638">
    <tag k="gns:dsg" v="ADM1"/>
    <tag k="gns:uni" v="276659"/>
    <tag k="is_in:country" v="Bhutan"/>
    <tag k="is_in:country_code" v="bt"/>
    <tag k="loc_name" v="མོང་སྒར་"/>
    <tag k="name" v="Mongar Dzongkhag"/>
    <tag k="place" v="county"/>
    <tag k="source" v="GNS"/>
    <tag k="website" v="www.dzongkhag.gov.bt"/>
  </node>
  <node id="316753063" version="2" timestamp="2008-12-09T23:10:27Z" uid="6975" user="ulfl" changeset="299549" lat="27" lon="89.55">
    <tag k="alt_name" v="Chhukha Dzongkhag"/>
    <tag k="gns:dsg" v="ADM1"/>
    <tag k="gns:uni" v="276647"/>
    <tag k="is_in:country" v="Bhutan"/>
    <tag k="is_in:country_code" v="bt"/>
    <tag k="loc_name" v="ཆུ་ཁ་"/>
    <tag k="name" v="Chukha Dzongkhag"/>
    <tag k="place" v="county"/>
    <tag k="source" v="GNS"/>
    <tag k="website" v="www.dzongkhag.gov.bt"/>
  </node>
  <node id="316753064" version="2" timestamp="2008-12-09T23:10:28Z" uid="6975" user="ulfl" changeset="299549" lat="27.033333" lon="89.083333">
    <tag k="alt_name" v="Samchi Dzongkhag"/>
    <tag k="gns:dsg" v="ADM1"/>
    <tag k="gns:uni" v="276672"/>
    <tag k="is_in:country" v="Bhutan"/>
    <tag k="is_in:country_code" v="bt"/>
    <tag k="loc_name" v="བསམ་རྩེ་"/>
    <tag k="name" v="Samtse Dzongkhag"/>
    <tag k="place" v="county"/>
    <tag k="source" v="GNS"/>
    <tag k="website" v="www.dzongkhag.gov.bt"/>
  </node>
  <node id="316753066" version="2" timestamp="2008-12-09T23:10:28Z" uid="6975" user="ulfl" changeset="299549" lat="27.6" lon="89.666667">
    <tag k="gns:dsg" v="ADM1"/>
    <tag k="gns:uni" v="276699"/>
    <tag k="is_in:country" v="Bhutan"/>
    <tag k="is_in:country_code" v="bt"/>
    <tag k="loc_name" v="ཐིམ་ཕུག་"/>
    <tag k="name" v="Thimphu Dzongkhag"/>
    <tag k="place" v="county"/>
    <tag k="source" v="GNS"/>
    <tag k="website" v="www.dzongkhag.gov.bt"/>
  </node>
  <node id="316753274" version="3" timestamp="2009-01-29T12:50:14Z" uid="9581" user="Lobelt" changeset="851909" lat="51.477097" lon="13.19845">
    <tag k="created_by" v="Potlatch 0.10f"/>
    <tag k="man_made" v="windmill"/>
  </node>
  <node id="316753274" version="4" timestamp="2010-01-05T14:35:10Z" uid="109035" user="Teddy80" changeset="3545872" lat="51.477097" lon="13.19845">
    <tag k="man_made" v="windmill"/>
  </node>
  <node id="316753285" version="5" timestamp="2009-10-02T19:48:08Z" uid="86259" user="hasse_osm_korinthenkacker" changeset="2716821" lat="47.9095619" lon="11.6778029">
    <tag k="addr:city" v="Otterfing"/>
    <tag k="addr:country" v="DE"/>
    <tag k="addr:housenumber" v="14"/>
    <tag k="addr:postcode" v="83624"/>
    <tag k="addr:street" v="Bahnhofstraße"/>
  </node>
  <node id="316753285" version="6" timestamp="2011-05-26T07:49:33Z" uid="42393" user="mawi42" changeset="8250976" lat="47.909562" lon="11.6778028">
    <tag k="addr:city" v="Otterfing"/>
    <tag k="addr:country" v="DE"/>
    <tag k="addr:housenumber" v="14"/>
    <tag k="addr:postcode" v="83624"/>
    <tag k="addr:street" v="Bahnhofstraße"/>
    <tag k="opening_hours" v="Mo-Fr 8:30-12:15,14:00-18:00;Sa 8:30-12:00"/>
  </node>
  <node id="316753285" version="7" timestamp="2011-05-29T14:55:04Z" uid="42393" user="mawi42" changeset="8281799" lat="47.909562" lon="11.6778028">
    <tag k="addr:city" v="Otterfing"/>
    <tag k="addr:country" v="DE"/>
    <tag k="addr:housenumber" v="14"/>
    <tag k="addr:postcode" v="83624"/>
    <tag k="addr:street" v="Bahnhofstraße"/>
  </node>
  <node id="316753760" version="2" timestamp="2010-04-05T16:29:44Z" uid="163746" user="anti_bot-nonsense" changeset="4334877" lat="52.5478986" lon="16.9692176"/>
  <node id="316753761" version="2" timestamp="2010-04-05T16:54:08Z" uid="163746" user="anti_bot-nonsense" changeset="4334877" lat="52.548298" lon="16.9693853"/>
  <node id="316753762" version="2" timestamp="2010-04-05T17:19:01Z" uid="163746" user="anti_bot-nonsense" changeset="4334877" lat="52.5483788" lon="16.9694192"/>
  <node id="316753763" version="2" timestamp="2010-04-05T17:42:31Z" uid="163746" user="anti_bot-nonsense" changeset="4334877" lat="52.5495091" lon="16.9698846"/>
  <node id="316753764" version="2" timestamp="2010-04-05T16:08:29Z" uid="163746" user="anti_bot-nonsense" changeset="4334877" lat="52.5503002" lon="16.970443"/>
  <node id="316753765" version="2" timestamp="2010-04-05T16:36:25Z" uid="163746" user="anti_bot-nonsense" changeset="4334877" lat="52.5510443" lon="16.9709704"/>
  <node id="316753766" version="2" timestamp="2010-04-05T17:00:22Z" uid="163746" user="anti_bot-nonsense" changeset="4334877" lat="52.5514891" lon="16.9711829"/>
  <node id="316753767" version="2" timestamp="2010-04-05T17:25:15Z" uid="163746" user="anti_bot-nonsense" changeset="4334877" lat="52.551984" lon="16.9714192"/>
  <node id="316753768" version="2" timestamp="2010-04-05T17:49:24Z" uid="163746" user="anti_bot-nonsense" changeset="4334877" lat="52.554143" lon="16.9654639"/>
  <node id="316753769" version="2" timestamp="2010-04-05T16:17:08Z" uid="163746" user="anti_bot-nonsense" changeset="4334877" lat="52.5533802" lon="16.9671081"/>
  <node id="316753770" version="2" timestamp="2010-04-05T16:43:23Z" uid="163746" user="anti_bot-nonsense" changeset="4334877" lat="52.5515811" lon="16.9668444"/>
  <node id="316753771" version="2" timestamp="2010-04-05T17:08:25Z" uid="163746" user="anti_bot-nonsense" changeset="4334877" lat="52.5513268" lon="16.9666428"/>
  <node id="316753772" version="2" timestamp="2010-04-05T17:32:31Z" uid="163746" user="anti_bot-nonsense" changeset="4334877" lat="52.5507712" lon="16.9667513"/>
  <node id="316753773" version="2" timestamp="2010-04-05T15:56:53Z" uid="163746" user="anti_bot-nonsense" changeset="4334877" lat="52.549754" lon="16.9666738"/>
  <node id="316753774" version="2" timestamp="2010-04-05T16:25:25Z" uid="163746" user="anti_bot-nonsense" changeset="4334877" lat="52.5490759" lon="16.9668289"/>
  <node id="316753775" version="2" timestamp="2010-04-05T16:50:49Z" uid="163746" user="anti_bot-nonsense" changeset="4334877" lat="52.5481811" lon="16.9668289"/>
  <node id="316753776" version="2" timestamp="2010-04-05T17:15:08Z" uid="163746" user="anti_bot-nonsense" changeset="4334877" lat="52.5480963" lon="16.9674183"/>
  <node id="316753777" version="2" timestamp="2010-04-05T17:39:06Z" uid="163746" user="anti_bot-nonsense" changeset="4334877" lat="52.5475689" lon="16.9673873"/>
  <node id="316753778" version="2" timestamp="2010-04-05T16:04:00Z" uid="163746" user="anti_bot-nonsense" changeset="4334877" lat="52.5477101" lon="16.9649986"/>
  <node id="316753779" version="2" timestamp="2010-04-05T16:32:54Z" uid="163746" user="anti_bot-nonsense" changeset="4334877" lat="52.5489911" lon="16.9650606"/>
  <node id="316753780" version="2" timestamp="2010-04-05T16:56:20Z" uid="163746" user="anti_bot-nonsense" changeset="4334877" lat="52.5503002" lon="16.9650761"/>
  <node id="316753781" version="2" timestamp="2010-04-05T17:21:25Z" uid="163746" user="anti_bot-nonsense" changeset="4334877" lat="52.5515718" lon="16.9651537"/>
  <node id="316753782" version="2" timestamp="2010-04-05T17:44:57Z" uid="163746" user="anti_bot-nonsense" changeset="4334877" lat="52.5531446" lon="16.9652933"/>
  <node id="316753783" version="2" timestamp="2010-04-05T16:11:34Z" uid="163746" user="anti_bot-nonsense" changeset="4334877" lat="52.5540582" lon="16.9653863"/>
  <node id="316753791" version="2" timestamp="2010-04-05T17:35:21Z" uid="163746" user="anti_bot-nonsense" changeset="4334877" lat="52.5570412" lon="16.9755914"/>
  <node id="316753794" version="2" timestamp="2010-04-05T17:33:59Z" uid="163746" user="anti_bot-nonsense" changeset="4334877" lat="52.558731" lon="16.9783943"/>
  <node id="316753796" version="2" timestamp="2010-04-05T16:26:32Z" uid="163746" user="anti_bot-nonsense" changeset="4334877" lat="52.5588088" lon="16.9785233"/>
  <node id="316753797" version="2" timestamp="2010-04-05T16:51:51Z" uid="163746" user="anti_bot-nonsense" changeset="4334877" lat="52.5610336" lon="16.9822398"/>
  <node id="316753799" version="2" timestamp="2010-04-05T17:39:54Z" uid="163746" user="anti_bot-nonsense" changeset="4334877" lat="52.5475798" lon="16.967454"/>
  <node id="316753800" version="2" timestamp="2010-04-05T16:04:58Z" uid="163746" user="anti_bot-nonsense" changeset="4334877" lat="52.5475007" lon="16.9687563"/>
  <node id="316753801" version="2" timestamp="2010-04-05T16:33:59Z" uid="163746" user="anti_bot-nonsense" changeset="4334877" lat="52.5479464" lon="16.9691352"/>
  <node id="316753802" version="2" timestamp="2010-04-05T16:57:20Z" uid="163746" user="anti_bot-nonsense" changeset="4334877" lat="52.5478026" lon="16.971716"/>
  <node id="316753803" version="2" timestamp="2010-04-05T17:22:27Z" uid="163746" user="anti_bot-nonsense" changeset="4334877" lat="52.5478098" lon="16.9720713"/>
  <node id="316753804" version="2" timestamp="2010-04-05T17:46:16Z" uid="163746" user="anti_bot-nonsense" changeset="4334877" lat="52.5482843" lon="16.9726632"/>
  <node id="316753805" version="2" timestamp="2010-04-05T16:13:07Z" uid="163746" user="anti_bot-nonsense" changeset="4334877" lat="52.5497148" lon="16.9729355"/>
  <node id="316753805" version="3" timestamp="2011-07-21T16:50:57Z" uid="175746" user="RafalR" changeset="8790392" lat="52.5496883" lon="16.972857"/>
  <node id="316753806" version="2" timestamp="2010-04-05T16:40:27Z" uid="163746" user="anti_bot-nonsense" changeset="4334877" lat="52.5510663" lon="16.9731841"/>
  <node id="316753806" version="3" timestamp="2011-07-21T16:50:42Z" uid="175746" user="RafalR" changeset="8790392" lat="52.5511219" lon="16.9730327"/>
  <node id="316753807" version="2" timestamp="2010-04-05T17:05:28Z" uid="163746" user="anti_bot-nonsense" changeset="4334877" lat="52.5512317" lon="16.9734919"/>
  <node id="316753808" version="2" timestamp="2010-04-05T17:28:55Z" uid="163746" user="anti_bot-nonsense" changeset="4334877" lat="52.5536039" lon="16.9740484"/>
  <node id="316753809" version="2" timestamp="2010-04-05T15:53:27Z" uid="163746" user="anti_bot-nonsense" changeset="4334877" lat="52.5553796" lon="16.9744627"/>
  <node id="316753810" version="2" timestamp="2010-04-05T16:22:03Z" uid="163746" user="anti_bot-nonsense" changeset="4334877" lat="52.5563789" lon="16.9748297"/>
  <node id="316753811" version="2" timestamp="2010-04-05T16:47:21Z" uid="163746" user="anti_bot-nonsense" changeset="4334877" lat="52.5569396" lon="16.9746521"/>
  <node id="316753812" version="2" timestamp="2010-04-05T17:12:05Z" uid="163746" user="anti_bot-nonsense" changeset="4334877" lat="52.557335" lon="16.970769"/>
  <node id="316753813" version="2" timestamp="2010-04-05T17:36:32Z" uid="163746" user="anti_bot-nonsense" changeset="4334877" lat="52.5572559" lon="16.9703072"/>
  <node id="316753814" version="2" timestamp="2010-04-05T16:00:57Z" uid="163746" user="anti_bot-nonsense" changeset="4334877" lat="52.5577807" lon="16.9677263"/>
  <node id="316753815" version="2" timestamp="2010-04-05T16:29:12Z" uid="163746" user="anti_bot-nonsense" changeset="4334877" lat="52.5584277" lon="16.9638905"/>
  <node id="316753816" version="2" timestamp="2010-04-05T16:53:55Z" uid="163746" user="anti_bot-nonsense" changeset="4334877" lat="52.5585354" lon="16.9628013"/>
  <node id="316753827" version="2" timestamp="2010-04-05T16:28:08Z" uid="163746" user="anti_bot-nonsense" changeset="4334877" lat="52.558327" lon="16.9623988"/>
  <node id="316753829" version="2" timestamp="2010-04-05T17:17:34Z" uid="163746" user="anti_bot-nonsense" changeset="4334877" lat="52.5578598" lon="16.9622923"/>
  <node id="316753831" version="2" timestamp="2010-04-05T16:06:31Z" uid="163746" user="anti_bot-nonsense" changeset="4334877" lat="52.557529" lon="16.9637603"/>
  <node id="316753833" version="2" timestamp="2010-04-05T16:58:48Z" uid="163746" user="anti_bot-nonsense" changeset="4334877" lat="52.5560985" lon="16.9637603"/>
  <node id="316753835" version="2" timestamp="2010-04-05T17:47:54Z" uid="163746" user="anti_bot-nonsense" changeset="4334877" lat="52.5555305" lon="16.9637721"/>
  <node id="316753837" version="2" timestamp="2010-04-05T16:42:06Z" uid="163746" user="anti_bot-nonsense" changeset="4334877" lat="52.5547829" lon="16.9655006"/>
  <node id="316753839" version="2" timestamp="2010-04-05T17:30:38Z" uid="163746" user="anti_bot-nonsense" changeset="4334877" lat="52.5541791" lon="16.9654295"/>
  <node id="316753841" version="2" timestamp="2010-04-05T16:23:54Z" uid="163746" user="anti_bot-nonsense" changeset="4334877" lat="52.5527125" lon="16.9685432"/>
  <node id="316753843" version="2" timestamp="2010-04-05T17:13:26Z" uid="163746" user="anti_bot-nonsense" changeset="4334877" lat="52.55254" lon="16.9680223"/>
  <node id="316753845" version="2" timestamp="2010-04-05T16:02:54Z" uid="163746" user="anti_bot-nonsense" changeset="4334877" lat="52.551965" lon="16.9673948"/>
  <node id="316753847" version="2" timestamp="2010-04-05T16:55:09Z" uid="163746" user="anti_bot-nonsense" changeset="4334877" lat="52.5508219" lon="16.9670515"/>
  <node id="316753848" version="2" timestamp="2010-04-05T17:19:57Z" uid="163746" user="anti_bot-nonsense" changeset="4334877" lat="52.55075" lon="16.9675843"/>
  <node id="316753849" version="2" timestamp="2010-04-05T17:43:27Z" uid="163746" user="anti_bot-nonsense" changeset="4334877" lat="52.5482196" lon="16.9674422"/>
  <node id="316753851" version="2" timestamp="2010-04-05T16:37:36Z" uid="163746" user="anti_bot-nonsense" changeset="4334877" lat="52.5481189" lon="16.9714438"/>
  <node id="316753852" version="2" timestamp="2010-04-05T17:01:44Z" uid="163746" user="anti_bot-nonsense" changeset="4334877" lat="52.5542007" lon="16.9653467"/>
  <node id="316753853" version="2" timestamp="2010-04-05T17:26:22Z" uid="163746" user="anti_bot-nonsense" changeset="4334877" lat="52.554708" lon="16.9654045"/>
  <node id="316753854" version="2" timestamp="2010-04-05T17:50:38Z" uid="163746" user="anti_bot-nonsense" changeset="4334877" lat="52.553898" lon="16.9646819"/>
  <node id="316753855" version="2" timestamp="2010-04-05T16:18:40Z" uid="163746" user="anti_bot-nonsense" changeset="4334877" lat="52.556688" lon="16.9748652"/>
  <node id="316753856" version="2" timestamp="2010-04-05T17:47:25Z" uid="163746" user="anti_bot-nonsense" changeset="4334877" lat="52.5571552" lon="16.970982"/>
  <node id="316753857" version="2" timestamp="2010-04-05T16:14:30Z" uid="163746" user="anti_bot-nonsense" changeset="4334877" lat="52.5577668" lon="16.9676563"/>
  <node id="316753858" version="2" timestamp="2010-04-05T16:41:30Z" uid="163746" user="anti_bot-nonsense" changeset="4334877" lat="52.5579891" lon="16.9664477"/>
  <node id="316753859" version="2" timestamp="2010-04-05T17:06:32Z" uid="163746" user="anti_bot-nonsense" changeset="4334877" lat="52.5581975" lon="16.9650144"/>
  <node id="316753860" version="2" timestamp="2010-04-05T17:29:57Z" uid="163746" user="anti_bot-nonsense" changeset="4334877" lat="52.5549705" lon="16.964825"/>
  <node id="316753863" version="2" timestamp="2010-04-05T16:48:16Z" uid="163746" user="anti_bot-nonsense" changeset="4334877" lat="52.55733" lon="16.9649634"/>
  <node id="316753867" version="2" timestamp="2010-04-05T16:30:34Z" uid="163746" user="anti_bot-nonsense" changeset="4334877" lat="52.5572583" lon="16.9662994"/>
  <node id="316753868" version="2" timestamp="2010-04-05T16:54:42Z" uid="163746" user="anti_bot-nonsense" changeset="4334877" lat="52.5574461" lon="16.9638245"/>
  <node id="316753869" version="2" timestamp="2010-04-05T17:19:27Z" uid="163746" user="anti_bot-nonsense" changeset="4334877" lat="52.5578193" lon="16.962143"/>
  <node id="316753869" version="3" timestamp="2012-03-06T13:34:12Z" uid="467703" user="Zbigniew Czernik" changeset="10890070" lat="52.5578458" lon="16.9621897"/>
  <node id="316753928" version="2" timestamp="2010-04-05T17:12:04Z" uid="163746" user="anti_bot-nonsense" changeset="4334877" lat="52.559095" lon="16.9778686"/>
  <node id="316753929" version="2" timestamp="2010-04-05T17:36:30Z" uid="163746" user="anti_bot-nonsense" changeset="4334877" lat="52.5594803" lon="16.9771071"/>
  <node id="316753930" version="2" timestamp="2010-04-05T16:00:56Z" uid="163746" user="anti_bot-nonsense" changeset="4334877" lat="52.5596729" lon="16.9763245"/>
  <node id="316753931" version="2" timestamp="2010-04-05T16:29:11Z" uid="163746" user="anti_bot-nonsense" changeset="4334877" lat="52.5596859" lon="16.9758379"/>
  <node id="316753932" version="2" timestamp="2010-04-05T16:53:54Z" uid="163746" user="anti_bot-nonsense" changeset="4334877" lat="52.5598656" lon="16.9756687"/>
  <node id="316753933" version="2" timestamp="2010-04-05T17:18:38Z" uid="163746" user="anti_bot-nonsense" changeset="4334877" lat="52.5601996" lon="16.9757745"/>
  <node id="316753934" version="2" timestamp="2010-04-05T17:42:09Z" uid="163746" user="anti_bot-nonsense" changeset="4334877" lat="52.5607354" lon="16.9757423"/>
  <node id="316753935" version="2" timestamp="2010-04-05T16:07:44Z" uid="163746" user="anti_bot-nonsense" changeset="4334877" lat="52.5608031" lon="16.9757383"/>
  <node id="316753936" version="2" timestamp="2010-04-05T16:36:07Z" uid="163746" user="anti_bot-nonsense" changeset="4334877" lat="52.560906" lon="16.9757321"/>
  <node id="316753937" version="2" timestamp="2010-04-05T17:00:02Z" uid="163746" user="anti_bot-nonsense" changeset="4334877" lat="52.5621776" lon="16.9754995"/>
  <node id="316753938" version="2" timestamp="2010-04-05T17:24:51Z" uid="163746" user="anti_bot-nonsense" changeset="4334877" lat="52.5641684" lon="16.9749706"/>
  <node id="316753939" version="2" timestamp="2010-04-05T17:48:59Z" uid="163746" user="anti_bot-nonsense" changeset="4334877" lat="52.5657098" lon="16.9746534"/>
  <node id="316753940" version="2" timestamp="2010-04-05T16:16:24Z" uid="163746" user="anti_bot-nonsense" changeset="4334877" lat="52.566704" lon="16.9742407"/>
  <node id="316753941" version="2" timestamp="2010-04-05T16:42:59Z" uid="163746" user="anti_bot-nonsense" changeset="4334877" lat="52.5672896" lon="16.9739977"/>
  <node id="316753942" version="2" timestamp="2010-04-05T17:07:45Z" uid="163746" user="anti_bot-nonsense" changeset="4334877" lat="52.5688694" lon="16.9735111"/>
  <node id="316753943" version="2" timestamp="2010-04-05T17:31:59Z" uid="163746" user="anti_bot-nonsense" changeset="4334877" lat="52.5702823" lon="16.9732362"/>
  <node id="316753944" version="2" timestamp="2010-04-05T15:56:29Z" uid="163746" user="anti_bot-nonsense" changeset="4334877" lat="52.5712328" lon="16.9727919"/>
  <node id="316753945" version="2" timestamp="2010-04-05T16:25:01Z" uid="163746" user="anti_bot-nonsense" changeset="4334877" lat="52.5722603" lon="16.9720093"/>
  <node id="316753946" version="2" timestamp="2010-04-05T16:49:59Z" uid="163746" user="anti_bot-nonsense" changeset="4334877" lat="52.575086" lon="16.9699997"/>
  <node id="316753947" version="2" timestamp="2010-04-05T17:14:24Z" uid="163746" user="anti_bot-nonsense" changeset="4334877" lat="52.5766274" lon="16.9688787"/>
  <node id="316753948" version="2" timestamp="2010-04-05T17:38:46Z" uid="163746" user="anti_bot-nonsense" changeset="4334877" lat="52.5785411" lon="16.9676729"/>
  <node id="316753949" version="2" timestamp="2010-04-05T16:03:39Z" uid="163746" user="anti_bot-nonsense" changeset="4334877" lat="52.5801081" lon="16.966975"/>
  <node id="316753950" version="2" timestamp="2010-04-05T16:32:30Z" uid="163746" user="anti_bot-nonsense" changeset="4334877" lat="52.5813284" lon="16.9663826"/>
  <node id="316753950" version="3" timestamp="2012-02-26T23:55:46Z" uid="467703" user="Zbigniew Czernik" changeset="10804546" lat="52.5813959" lon="16.9663683"/>
  <node id="316753951" version="2" timestamp="2010-04-05T16:55:53Z" uid="163746" user="anti_bot-nonsense" changeset="4334877" lat="52.5815981" lon="16.9665518"/>
  <node id="316753952" version="2" timestamp="2010-04-05T16:14:59Z" uid="163746" user="anti_bot-nonsense" changeset="4334877" lat="52.5818035" lon="16.9680537"/>
  <node id="316753953" version="2" timestamp="2010-04-05T16:42:05Z" uid="163746" user="anti_bot-nonsense" changeset="4334877" lat="52.5818935" lon="16.9688363"/>
  <node id="316753953" version="3" timestamp="2012-02-26T23:55:46Z" uid="467703" user="Zbigniew Czernik" changeset="10804546" lat="52.5818828" lon="16.968707"/>
  <node id="316753954" version="2" timestamp="2010-04-05T17:06:57Z" uid="163746" user="anti_bot-nonsense" changeset="4334877" lat="52.5827669" lon="16.9705709"/>
  <node id="316753955" version="2" timestamp="2010-04-05T17:30:37Z" uid="163746" user="anti_bot-nonsense" changeset="4334877" lat="52.5830232" lon="16.9708349"/>
  <node id="316753956" version="2" timestamp="2010-04-05T15:54:49Z" uid="163746" user="anti_bot-nonsense" changeset="4334877" lat="52.5833589" lon="16.9709104"/>
  <node id="316753956" version="3" timestamp="2012-02-26T23:55:46Z" uid="467703" user="Zbigniew Czernik" changeset="10804546" lat="52.583372" lon="16.970862"/>
  <node id="316753957" version="2" timestamp="2010-04-05T16:23:53Z" uid="163746" user="anti_bot-nonsense" changeset="4334877" lat="52.5836003" lon="16.9711634"/>
  <node id="316753957" version="3" timestamp="2012-02-26T23:55:46Z" uid="467703" user="Zbigniew Czernik" changeset="10804546" lat="52.5835785" lon="16.9711598"/>
  <node id="316753958" version="2" timestamp="2010-04-05T16:48:53Z" uid="163746" user="anti_bot-nonsense" changeset="4334877" lat="52.5837046" lon="16.971552"/>
  <node id="316753959" version="2" timestamp="2010-04-05T17:13:25Z" uid="163746" user="anti_bot-nonsense" changeset="4334877" lat="52.5837458" lon="16.9716804"/>
  <node id="316753959" version="3" timestamp="2012-02-26T23:55:46Z" uid="467703" user="Zbigniew Czernik" changeset="10804546" lat="52.5837458" lon="16.9716804"/>
  <node id="316753965" version="2" timestamp="2010-03-21T00:22:05Z" uid="30632" user="antblant" changeset="4186435" lat="52.5648152" lon="16.9626854">
    <tag k="created_by" v="Merkaartor 0.12"/>
  </node>
  <node id="316753966" version="2" timestamp="2010-04-05T16:09:26Z" uid="163746" user="anti_bot-nonsense" changeset="4334877" lat="52.5586015" lon="16.9622363"/>
  <node id="316753966" version="3" timestamp="2011-01-09T16:55:12Z" uid="309867" user="Damian_Lisu" changeset="6917507" lat="52.5586015" lon="16.9622363"/>
  <node id="316753967" version="2" timestamp="2010-04-05T16:37:35Z" uid="163746" user="anti_bot-nonsense" changeset="4334877" lat="52.5599799" lon="16.9624668"/>
  <node id="316753967" version="3" timestamp="2012-03-06T13:34:13Z" uid="467703" user="Zbigniew Czernik" changeset="10890070" lat="52.5599799" lon="16.9624668"/>
  <node id="316753968" version="2" timestamp="2010-04-05T17:01:40Z" uid="163746" user="anti_bot-nonsense" changeset="4334877" lat="52.5616088" lon="16.962649"/>
  <node id="316753968" version="3" timestamp="2012-03-06T13:34:13Z" uid="467703" user="Zbigniew Czernik" changeset="10890070" lat="52.5616088" lon="16.962649"/>
  <node id="316753969" version="2" timestamp="2010-04-05T17:26:21Z" uid="163746" user="anti_bot-nonsense" changeset="4334877" lat="52.5623676" lon="16.962717"/>
  <node id="316753970" version="2" timestamp="2010-04-05T17:50:37Z" uid="163746" user="anti_bot-nonsense" changeset="4334877" lat="52.5626924" lon="16.9627461"/>
  <node id="316753970" version="3" timestamp="2012-03-06T13:34:14Z" uid="467703" user="Zbigniew Czernik" changeset="10890070" lat="52.5626924" lon="16.9627461"/>
  <node id="316753971" version="2" timestamp="2010-03-21T00:22:01Z" uid="30632" user="antblant" changeset="4186435" lat="52.5648152" lon="16.9626854"/>
  <node id="316753972" version="2" timestamp="2010-04-05T16:44:25Z" uid="163746" user="anti_bot-nonsense" changeset="4334877" lat="52.5660756" lon="16.9626975"/>
  <node id="316753972" version="3" timestamp="2012-03-06T13:34:14Z" uid="467703" user="Zbigniew Czernik" changeset="10890070" lat="52.5660756" lon="16.9626975"/>
  <node id="316753973" version="2" timestamp="2010-04-05T17:09:48Z" uid="163746" user="anti_bot-nonsense" changeset="4334877" lat="52.566658" lon="16.9626368"/>
  <node id="316753973" version="3" timestamp="2012-03-06T13:34:14Z" uid="467703" user="Zbigniew Czernik" changeset="10890070" lat="52.566658" lon="16.9626368"/>
  <node id="316753978" version="2" timestamp="2010-04-05T17:16:08Z" uid="163746" user="anti_bot-nonsense" changeset="4334877" lat="52.567513" lon="16.9626368"/>
  <node id="316753978" version="3" timestamp="2012-03-06T13:34:14Z" uid="467703" user="Zbigniew Czernik" changeset="10890070" lat="52.567513" lon="16.9626368"/>
  <node id="316753979" version="2" timestamp="2010-04-05T17:39:54Z" uid="163746" user="anti_bot-nonsense" changeset="4334877" lat="52.5684344" lon="16.9626854"/>
  <node id="316753979" version="3" timestamp="2012-03-06T13:34:14Z" uid="467703" user="Zbigniew Czernik" changeset="10890070" lat="52.5684344" lon="16.9626854"/>
  <node id="316753980" version="2" timestamp="2010-04-05T16:04:57Z" uid="163746" user="anti_bot-nonsense" changeset="4334877" lat="52.5697685" lon="16.9623213"/>
  <node id="316753980" version="3" timestamp="2012-03-06T13:34:14Z" uid="467703" user="Zbigniew Czernik" changeset="10890070" lat="52.5697685" lon="16.9623213"/>
  <node id="316753981" version="2" timestamp="2010-04-05T16:33:55Z" uid="163746" user="anti_bot-nonsense" changeset="4334877" lat="52.5714049" lon="16.9616657"/>
  <node id="316753981" version="3" timestamp="2012-03-06T13:34:14Z" uid="467703" user="Zbigniew Czernik" changeset="10890070" lat="52.5714049" lon="16.9616657"/>
  <node id="316753982" version="2" timestamp="2010-04-05T16:57:19Z" uid="163746" user="anti_bot-nonsense" changeset="4334877" lat="52.57198" lon="16.961416"/>
  <node id="316753983" version="2" timestamp="2010-04-05T17:22:26Z" uid="163746" user="anti_bot-nonsense" changeset="4334877" lat="52.5733066" lon="16.9608403"/>
  <node id="316753983" version="3" timestamp="2012-03-06T13:34:14Z" uid="467703" user="Zbigniew Czernik" changeset="10890070" lat="52.5733066" lon="16.9608403"/>
  <node id="316753984" version="2" timestamp="2010-04-05T16:54:39Z" uid="163746" user="anti_bot-nonsense" changeset="4334877" lat="52.5750904" lon="16.9600755"/>
  <node id="316753984" version="3" timestamp="2012-03-06T13:34:14Z" uid="467703" user="Zbigniew Czernik" changeset="10890070" lat="52.5750904" lon="16.9600755"/>
  <node id="316753985" version="2" timestamp="2010-04-05T17:19:26Z" uid="163746" user="anti_bot-nonsense" changeset="4334877" lat="52.5756064" lon="16.959857"/>
  <node id="316753985" version="3" timestamp="2012-03-06T13:34:14Z" uid="467703" user="Zbigniew Czernik" changeset="10890070" lat="52.5756064" lon="16.959857"/>
  <node id="316753986" version="2" timestamp="2010-04-05T17:42:57Z" uid="163746" user="anti_bot-nonsense" changeset="4334877" lat="52.576174" lon="16.9598813"/>
  <node id="316753986" version="3" timestamp="2012-03-06T13:34:14Z" uid="467703" user="Zbigniew Czernik" changeset="10890070" lat="52.576174" lon="16.9598813"/>
  <node id="316753987" version="2" timestamp="2010-04-05T16:08:59Z" uid="163746" user="anti_bot-nonsense" changeset="4334877" lat="52.5766605" lon="16.9600998"/>
  <node id="316753987" version="3" timestamp="2012-03-06T13:34:14Z" uid="467703" user="Zbigniew Czernik" changeset="10890070" lat="52.5766605" lon="16.9600998"/>
  <node id="316753988" version="2" timestamp="2010-04-05T16:37:00Z" uid="163746" user="anti_bot-nonsense" changeset="4334877" lat="52.5776481" lon="16.9608524"/>
  <node id="316753988" version="3" timestamp="2012-03-06T13:34:14Z" uid="467703" user="Zbigniew Czernik" changeset="10890070" lat="52.5776481" lon="16.9608524"/>
  <node id="316753989" version="2" timestamp="2010-04-05T17:01:01Z" uid="163746" user="anti_bot-nonsense" changeset="4334877" lat="52.5784295" lon="16.9616536"/>
  <node id="316753989" version="3" timestamp="2012-03-06T13:34:14Z" uid="467703" user="Zbigniew Czernik" changeset="10890070" lat="52.5784295" lon="16.9616536"/>
  <node id="316753990" version="2" timestamp="2010-04-05T17:25:51Z" uid="163746" user="anti_bot-nonsense" changeset="4334877" lat="52.579572" lon="16.9630132"/>
  <node id="316753990" version="3" timestamp="2012-03-06T13:34:14Z" uid="467703" user="Zbigniew Czernik" changeset="10890070" lat="52.579572" lon="16.9630132"/>
  <node id="316753991" version="2" timestamp="2010-04-05T17:49:59Z" uid="163746" user="anti_bot-nonsense" changeset="4334877" lat="52.5806923" lon="16.9648704"/>
  <node id="316753991" version="3" timestamp="2012-02-26T23:55:46Z" uid="467703" user="Zbigniew Czernik" changeset="10804546" lat="52.5806466" lon="16.9647736"/>
  <node id="316753991" version="4" timestamp="2012-03-06T13:34:14Z" uid="467703" user="Zbigniew Czernik" changeset="10890070" lat="52.5806466" lon="16.9647736"/>
  <node id="316753992" version="2" timestamp="2010-04-05T16:18:06Z" uid="163746" user="anti_bot-nonsense" changeset="4334877" lat="52.5807466" lon="16.9649783"/>
  <node id="316753992" version="3" timestamp="2012-02-26T23:55:46Z" uid="467703" user="Zbigniew Czernik" changeset="10804546" lat="52.5807139" lon="16.964921"/>
  <node id="316753993" version="2" timestamp="2010-04-05T16:43:57Z" uid="163746" user="anti_bot-nonsense" changeset="4334877" lat="52.5813705" lon="16.9662178"/>
  <node id="316753993" version="3" timestamp="2012-02-26T23:55:46Z" uid="467703" user="Zbigniew Czernik" changeset="10804546" lat="52.5813509" lon="16.9662536"/>
  <node id="316754063" version="5" timestamp="2009-05-01T20:51:08Z" uid="20587" user="balrog-kun" changeset="1042242" lat="52.5812973" lon="16.9671957">
    <tag k="created_by" v="Merkaartor 0.12"/>
    <tag k="is_in" v="gmina Murowana Goślina, powiat poznański, województwo wielkopolskie, Poland"/>
    <tag k="is_in:country" v="Poland"/>
    <tag k="is_in:county" v="powiat poznański"/>
    <tag k="is_in:municipality" v="gmina Murowana Goślina"/>
    <tag k="is_in:province" v="województwo wielkopolskie"/>
    <tag k="name" v="Mściszewo"/>
    <tag k="place" v="village"/>
    <tag k="population" v="292"/>
    <tag k="source:population" v="wikipedia"/>
    <tag k="teryt:rm" v="01"/>
    <tag k="teryt:simc" v="0589955"/>
    <tag k="teryt:stan_na" v="2009-01-01"/>
    <tag k="teryt:terc" v="3021115"/>
    <tag k="teryt:updated_by" v="teryt2osm combine.py v. 43"/>
    <tag k="wikipedia" v="Mściszewo"/>
  </node>
  <node id="316754063" version="6" timestamp="2010-04-11T04:38:58Z" uid="20587" user="balrog-kun" changeset="4389130" lat="52.5842051" lon="16.969171">
    <tag k="is_in" v="gmina Murowana Goślina, powiat poznański, województwo wielkopolskie, Poland"/>
    <tag k="is_in:country" v="Poland"/>
    <tag k="is_in:county" v="powiat poznański"/>
    <tag k="is_in:municipality" v="gmina Murowana Goślina"/>
    <tag k="is_in:province" v="województwo wielkopolskie"/>
    <tag k="name" v="Mściszewo"/>
    <tag k="place" v="village"/>
    <tag k="population" v="292"/>
    <tag k="source:population" v="wikipedia"/>
    <tag k="teryt:rm" v="01"/>
    <tag k="teryt:simc" v="0589955"/>
    <tag k="teryt:stan_na" v="2009-01-01"/>
    <tag k="teryt:terc" v="3021115"/>
    <tag k="teryt:updated_by" v="teryt2osm combine.py v. 43"/>
    <tag k="wikipedia" v="Mściszewo"/>
  </node>
  <node id="316754063" version="7" timestamp="2012-03-06T19:57:16Z" uid="467703" user="Zbigniew Czernik" changeset="10893883" lat="52.5837987" lon="16.9713537">
    <tag k="is_in" v="gmina Murowana Goślina, powiat poznański, województwo wielkopolskie, Poland"/>
    <tag k="is_in:country" v="Poland"/>
    <tag k="is_in:county" v="powiat poznański"/>
    <tag k="is_in:municipality" v="gmina Murowana Goślina"/>
    <tag k="is_in:province" v="województwo wielkopolskie"/>
    <tag k="name" v="Mściszewo"/>
    <tag k="place" v="village"/>
    <tag k="population" v="292"/>
    <tag k="source:population" v="wikipedia"/>
    <tag k="teryt:rm" v="01"/>
    <tag k="teryt:simc" v="0589955"/>
    <tag k="teryt:stan_na" v="2009-01-01"/>
    <tag k="teryt:terc" v="3021115"/>
    <tag k="teryt:updated_by" v="teryt2osm combine.py v. 43"/>
    <tag k="wikipedia" v="Mściszewo"/>
  </node>
  <node id="316754399" version="5" timestamp="2009-10-02T19:46:45Z" uid="86259" user="hasse_osm_korinthenkacker" changeset="2716821" lat="47.9023746" lon="11.641534">
    <tag k="addr:city" v="Erlach"/>
    <tag k="addr:country" v="DE"/>
    <tag k="addr:housenumber" v="1a"/>
    <tag k="addr:postcode" v="83623"/>
    <tag k="addr:street" v="Jasberger Weg"/>
    <tag k="source" v="survey"/>
  </node>
  <node id="316754399" version="6" timestamp="2009-10-23T11:31:44Z" uid="36809" user="pfoten_weg_!_" changeset="2928981" lat="47.9023746" lon="11.641534">
    <tag k="addr:city" v="Erlach"/>
    <tag k="addr:country" v="DE"/>
    <tag k="addr:housenumber" v="1a"/>
    <tag k="addr:postcode" v="83623"/>
    <tag k="addr:street" v="Jasberger Weg"/>
  </node>
  <node id="316754399" version="7" timestamp="2011-02-07T19:31:35Z" uid="329528" user="Skubiduhh" changeset="7219799" lat="47.9023746" lon="11.641534">
    <tag k="addr:city" v="Erlach"/>
    <tag k="addr:country" v="DE"/>
    <tag k="addr:housenumber" v="1a"/>
    <tag k="addr:postcode" v="83623"/>
    <tag k="addr:street" v="Jasberger Weg"/>
  </node>
  <node id="316755481" version="2" timestamp="2010-04-05T16:46:09Z" uid="163746" user="anti_bot-nonsense" changeset="4334877" lat="52.5628974" lon="17.0014361"/>
  <node id="316755482" version="2" timestamp="2010-04-05T17:11:09Z" uid="163746" user="anti_bot-nonsense" changeset="4334877" lat="52.560156" lon="16.9996961"/>
  <node id="316755483" version="2" timestamp="2010-04-05T17:35:44Z" uid="163746" user="anti_bot-nonsense" changeset="4334877" lat="52.5596517" lon="17.0000173"/>
  <node id="316755484" version="2" timestamp="2010-04-05T15:59:38Z" uid="163746" user="anti_bot-nonsense" changeset="4334877" lat="52.5590171" lon="17.0009944"/>
  <node id="316755485" version="2" timestamp="2010-04-05T16:28:08Z" uid="163746" user="anti_bot-nonsense" changeset="4334877" lat="52.5615958" lon="17.0042736"/>
  <node id="316755486" version="2" timestamp="2010-04-05T16:53:07Z" uid="163746" user="anti_bot-nonsense" changeset="4334877" lat="52.5617341" lon="17.0044743"/>
  <node id="316755504" version="5" timestamp="2009-05-01T20:53:16Z" uid="20587" user="balrog-kun" changeset="1042242" lat="52.5581094" lon="17.0325996">
    <tag k="addr:postcode" v="62-095"/>
    <tag k="created_by" v="Merkaartor 0.12"/>
    <tag k="is_in" v="gmina Murowana Goślina, powiat poznański, województwo wielkopolskie, Poland"/>
    <tag k="is_in:country" v="Poland"/>
    <tag k="is_in:county" v="powiat poznański"/>
    <tag k="is_in:municipality" v="gmina Murowana Goślina"/>
    <tag k="is_in:province" v="województwo wielkopolskie"/>
    <tag k="name" v="Rakownia"/>
    <tag k="place" v="village"/>
    <tag k="teryt:rm" v="01"/>
    <tag k="teryt:simc" v="0590013"/>
    <tag k="teryt:stan_na" v="2009-01-01"/>
    <tag k="teryt:terc" v="3021115"/>
    <tag k="teryt:updated_by" v="teryt2osm combine.py v. 43"/>
    <tag k="wikipedia" v="Rakownia"/>
  </node>
  <node id="316755504" version="6" timestamp="2010-04-05T17:22:52Z" uid="163746" user="anti_bot-nonsense" changeset="4334877" lat="52.5581094" lon="17.0325996">
    <tag k="addr:postcode" v="62-095"/>
    <tag k="is_in" v="gmina Murowana Goślina, powiat poznański, województwo wielkopolskie, Poland"/>
    <tag k="is_in:country" v="Poland"/>
    <tag k="is_in:county" v="powiat poznański"/>
    <tag k="is_in:municipality" v="gmina Murowana Goślina"/>
    <tag k="is_in:province" v="województwo wielkopolskie"/>
    <tag k="name" v="Rakownia"/>
    <tag k="place" v="village"/>
    <tag k="teryt:rm" v="01"/>
    <tag k="teryt:simc" v="0590013"/>
    <tag k="teryt:stan_na" v="2009-01-01"/>
    <tag k="teryt:terc" v="3021115"/>
    <tag k="wikipedia" v="Rakownia"/>
  </node>
  <node id="316755504" version="7" timestamp="2010-04-11T04:38:58Z" uid="20587" user="balrog-kun" changeset="4389130" lat="52.5596066" lon="17.0337157">
    <tag k="addr:postcode" v="62-095"/>
    <tag k="is_in" v="gmina Murowana Goślina, powiat poznański, województwo wielkopolskie, Poland"/>
    <tag k="is_in:country" v="Poland"/>
    <tag k="is_in:county" v="powiat poznański"/>
    <tag k="is_in:municipality" v="gmina Murowana Goślina"/>
    <tag k="is_in:province" v="województwo wielkopolskie"/>
    <tag k="name" v="Rakownia"/>
    <tag k="place" v="village"/>
    <tag k="teryt:rm" v="01"/>
    <tag k="teryt:simc" v="0590013"/>
    <tag k="teryt:stan_na" v="2009-01-01"/>
    <tag k="teryt:terc" v="3021115"/>
    <tag k="wikipedia" v="Rakownia"/>
  </node>
  <node id="316755945" version="2" timestamp="2008-12-13T21:22:19Z" uid="6975" user="ulfl" changeset="352865" lat="50.2179718" lon="8.4035435">
    <tag k="amenity" v="recycling"/>
    <tag k="recycling:bottles" v="yes"/>
    <tag k="recycling:glass" v="yes"/>
    <tag k="source" v="survey"/>
  </node>
  <node id="316755945" version="3" timestamp="2009-09-28T07:07:06Z" uid="46169" user="wolter" changeset="2661268" lat="50.2179718" lon="8.4035435">
    <tag k="amenity" v="recycling"/>
    <tag k="recycling:glass" v="yes"/>
    <tag k="source" v="survey"/>
  </node>
  <node id="316756792" version="7" timestamp="2011-04-21T00:47:25Z" uid="4467" user="Rosscoe" changeset="7921438" lat="-37.716841" lon="145.0429299">
    <tag k="highway" v="traffic_signals"/>
  </node>
  <node id="316756799" version="6" timestamp="2011-04-21T00:47:07Z" uid="4467" user="Rosscoe" changeset="7921438" lat="-37.7169571" lon="145.0428352">
    <tag k="highway" v="traffic_signals"/>
  </node>
  <node id="316756803" version="3" timestamp="2011-04-21T00:47:34Z" uid="4467" user="Rosscoe" changeset="7921438" lat="-37.7161789" lon="145.041763"/>
  <node id="316756804" version="2" timestamp="2011-04-21T00:47:02Z" uid="4467" user="Rosscoe" changeset="7921438" lat="-37.7165383" lon="145.0424241"/>
  <node id="316756804" version="3" timestamp="2012-03-29T11:57:35Z" uid="211804" user="KenS" changeset="11137433" lat="-37.7162664" lon="145.0419917"/>
  <node id="316756820" version="2" timestamp="2011-04-21T00:47:29Z" uid="4467" user="Rosscoe" changeset="7921438" lat="-37.7166497" lon="145.0423691"/>
  <node id="316756820" version="3" timestamp="2012-03-29T11:57:35Z" uid="211804" user="KenS" changeset="11137433" lat="-37.7163343" lon="145.0419286"/>
  <node id="316757062" version="2" timestamp="2010-05-12T06:37:14Z" uid="4467" user="Rosscoe" changeset="4674627" lat="-37.7152668" lon="145.0379961"/>
  <node id="316757186" version="12" timestamp="2010-05-11T02:16:34Z" uid="4467" user="Rosscoe" changeset="4665116" lat="-37.7127547" lon="145.0043502">
    <tag k="direction" v="clockwise"/>
    <tag k="highway" v="mini_roundabout"/>
  </node>
  <node id="316757219" version="2" timestamp="2008-12-12T10:21:57Z" uid="19626" user="Swamp" changeset="334293" lat="-34.1939023" lon="140.4287504"/>
  <node id="316757219" version="3" timestamp="2010-09-21T08:47:52Z" uid="22094" user="Chadzopkyo" changeset="5835289" lat="-34.1944417" lon="140.4289355"/>
  <node id="316757225" version="2" timestamp="2008-12-12T10:21:58Z" uid="19626" user="Swamp" changeset="334293" lat="-34.1934392" lon="140.449097"/>
  <node id="316757225" version="3" timestamp="2010-09-21T08:41:17Z" uid="22094" user="Chadzopkyo" changeset="5835252" lat="-34.1946747" lon="140.4507656"/>
  <node id="316757226" version="2" timestamp="2008-12-12T10:21:59Z" uid="19626" user="Swamp" changeset="334293" lat="-34.1962254" lon="140.4549732"/>
  <node id="316757226" version="3" timestamp="2010-09-21T08:41:14Z" uid="22094" user="Chadzopkyo" changeset="5835252" lat="-34.196921" lon="140.4551481"/>
  <node id="316757248" version="5" timestamp="2010-05-11T02:16:34Z" uid="4467" user="Rosscoe" changeset="4665116" lat="-37.7138861" lon="145.0041207"/>
  <node id="316757257" version="3" timestamp="2010-05-18T13:55:41Z" uid="4467" user="Rosscoe" changeset="4739077" lat="-37.7142867" lon="145.0078864"/>
  <node id="316757258" version="5" timestamp="2010-05-11T02:16:33Z" uid="4467" user="Rosscoe" changeset="4665116" lat="-37.7149459" lon="145.0039424"/>
  <node id="316757291" version="9" timestamp="2010-05-11T02:16:34Z" uid="4467" user="Rosscoe" changeset="4665116" lat="-37.7125779" lon="145.0029423"/>
  <node id="316757957" version="6" timestamp="2010-05-11T02:16:33Z" uid="4467" user="Rosscoe" changeset="4665116" lat="-37.7115547" lon="145.003059"/>
  <node id="316758314" version="2" timestamp="2010-01-04T11:06:28Z" uid="18775" user="drlizau" changeset="3536167" lat="-34.1769785" lon="139.9858036"/>
  <node id="316758315" version="2" timestamp="2010-01-04T11:06:28Z" uid="18775" user="drlizau" changeset="3536167" lat="-34.1761289" lon="139.9858846"/>
  <node id="316758324" version="1" timestamp="2008-12-05T11:15:38Z" uid="64977" user="CLoeser" changeset="123488" lat="54.0830977" lon="13.4193092">
    <tag k="created_by" v="Potlatch 0.10f"/>
    <tag k="name" v="Erich-Weinert-Grundschule"/>
  </node>
  <node id="316758324" version="2" timestamp="2008-12-05T11:16:22Z" uid="64977" user="CLoeser" changeset="123488" lat="54.0830977" lon="13.4193092">
    <tag k="amenity" v="school"/>
    <tag k="created_by" v="Potlatch 0.10f"/>
    <tag k="name" v="Erich-Weinert-Grundschule"/>
  </node>
  <node id="316758439" version="2" timestamp="2010-04-05T16:55:42Z" uid="163746" user="anti_bot-nonsense" changeset="4334877" lat="52.5422826" lon="17.0496883"/>
  <node id="316758440" version="2" timestamp="2010-04-05T17:20:38Z" uid="163746" user="anti_bot-nonsense" changeset="4334877" lat="52.5432771" lon="17.0486902"/>
  <node id="316758441" version="2" timestamp="2010-04-05T17:44:10Z" uid="163746" user="anti_bot-nonsense" changeset="4334877" lat="52.5440229" lon="17.0476732"/>
  <node id="316758442" version="2" timestamp="2010-04-05T16:10:17Z" uid="163746" user="anti_bot-nonsense" changeset="4334877" lat="52.5447399" lon="17.0464373"/>
  <node id="316758443" version="2" timestamp="2010-04-05T16:38:19Z" uid="163746" user="anti_bot-nonsense" changeset="4334877" lat="52.5451967" lon="17.0456769"/>
  <node id="316758444" version="2" timestamp="2010-04-05T17:02:56Z" uid="163746" user="anti_bot-nonsense" changeset="4334877" lat="52.5462606" lon="17.044251"/>
  <node id="316758445" version="2" timestamp="2010-04-05T17:27:10Z" uid="163746" user="anti_bot-nonsense" changeset="4334877" lat="52.5474633" lon="17.0429868"/>
  <node id="316758446" version="2" timestamp="2010-04-05T17:51:14Z" uid="163746" user="anti_bot-nonsense" changeset="4334877" lat="52.5495622" lon="17.041019"/>
  <node id="316758447" version="2" timestamp="2010-04-05T16:19:27Z" uid="163746" user="anti_bot-nonsense" changeset="4334877" lat="52.5511927" lon="17.0394695"/>
  <node id="316758448" version="2" timestamp="2010-04-05T16:45:03Z" uid="163746" user="anti_bot-nonsense" changeset="4334877" lat="52.5518461" lon="17.0390417"/>
  <node id="316758449" version="2" timestamp="2010-04-05T17:10:31Z" uid="163746" user="anti_bot-nonsense" changeset="4334877" lat="52.5529563" lon="17.0385759"/>
  <node id="316758450" version="2" timestamp="2010-04-05T17:34:47Z" uid="163746" user="anti_bot-nonsense" changeset="4334877" lat="52.5533321" lon="17.0384334"/>
  <node id="316758451" version="2" timestamp="2010-04-05T15:58:40Z" uid="163746" user="anti_bot-nonsense" changeset="4334877" lat="52.5537426" lon="17.0381292"/>
  <node id="316758452" version="2" timestamp="2010-04-05T16:27:26Z" uid="163746" user="anti_bot-nonsense" changeset="4334877" lat="52.554766" lon="17.0374258"/>
  <node id="316758453" version="2" timestamp="2010-04-05T16:52:28Z" uid="163746" user="anti_bot-nonsense" changeset="4334877" lat="52.5550205" lon="17.0373592"/>
  <node id="316758648" version="1" timestamp="2008-12-05T11:17:00Z" uid="64977" user="CLoeser" changeset="123488" lat="54.0835307" lon="13.4192148"/>
  <node id="316758648" version="2" timestamp="2008-12-05T11:17:20Z" uid="64977" user="CLoeser" changeset="123488" lat="54.0835307" lon="13.4192148"/>
  <node id="316758649" version="1" timestamp="2008-12-05T11:17:00Z" uid="64977" user="CLoeser" changeset="123488" lat="54.084206" lon="13.4201187"/>
  <node id="316758649" version="2" timestamp="2008-12-05T11:17:01Z" uid="64977" user="CLoeser" changeset="123488" lat="54.084206" lon="13.4201187"/>
  <node id="316758649" version="3" timestamp="2008-12-05T11:17:20Z" uid="64977" user="CLoeser" changeset="123488" lat="54.084206" lon="13.4201187"/>
  <node id="316758649" version="4" timestamp="2008-12-05T11:17:29Z" uid="64977" user="CLoeser" changeset="123488" lat="54.084206" lon="13.4201187"/>
  <node id="316758649" version="5" timestamp="2008-12-05T11:17:50Z" uid="64977" user="CLoeser" changeset="123488" lat="54.084206" lon="13.4201187"/>
  <node id="316758649" version="6" timestamp="2008-12-05T20:53:19Z" uid="64977" user="CLoeser" changeset="138290" lat="54.084206" lon="13.4201187"/>
  <node id="316758649" version="7" timestamp="2008-12-06T08:06:44Z" uid="64977" user="CLoeser" changeset="210550" lat="54.084206" lon="13.4201187"/>
  <node id="316758649" version="8" timestamp="2008-12-06T08:08:31Z" uid="64977" user="CLoeser" changeset="210550" lat="54.084206" lon="13.4201187"/>
  <node id="316758649" version="9" timestamp="2008-12-06T08:10:36Z" uid="64977" user="CLoeser" changeset="210550" lat="54.084206" lon="13.4201187"/>
  <node id="316758649" version="10" timestamp="2008-12-06T08:13:51Z" uid="64977" user="CLoeser" changeset="210550" lat="54.084206" lon="13.4201187"/>
  <node id="316758649" version="11" timestamp="2009-04-05T13:41:59Z" uid="64977" user="CLoeser" changeset="233712" lat="54.084206" lon="13.4201187"/>
  <node id="316758649" version="12" timestamp="2009-04-05T13:43:06Z" uid="64977" user="CLoeser" changeset="233712" lat="54.084206" lon="13.4201187"/>
  <node id="316758649" version="13" timestamp="2009-04-05T13:43:22Z" uid="64977" user="CLoeser" changeset="233712" lat="54.084206" lon="13.4201187"/>
  <node id="316758649" version="14" timestamp="2009-04-05T13:44:07Z" uid="64977" user="CLoeser" changeset="233712" lat="54.084206" lon="13.4201187"/>
  <node id="316758649" version="15" timestamp="2009-04-05T13:52:15Z" uid="64977" user="CLoeser" changeset="233712" lat="54.084206" lon="13.4201187"/>
  <node id="316758653" version="5" timestamp="2009-05-01T20:50:06Z" uid="20587" user="balrog-kun" changeset="1042242" lat="52.5757277" lon="17.0522238">
    <tag k="addr:postcode" v="62-095"/>
    <tag k="created_by" v="Merkaartor 0.12"/>
    <tag k="is_in" v="gmina Murowana Goślina, powiat poznański, województwo wielkopolskie, Poland"/>
    <tag k="is_in:country" v="Poland"/>
    <tag k="is_in:county" v="powiat poznański"/>
    <tag k="is_in:municipality" v="gmina Murowana Goślina"/>
    <tag k="is_in:province" v="województwo wielkopolskie"/>
    <tag k="name" v="Boduszewo"/>
    <tag k="place" v="village"/>
    <tag k="population" v="240"/>
    <tag k="source:population" v="wikipedia"/>
    <tag k="teryt:rm" v="01"/>
    <tag k="teryt:simc" v="0589790"/>
    <tag k="teryt:stan_na" v="2009-01-01"/>
    <tag k="teryt:terc" v="3021115"/>
    <tag k="teryt:updated_by" v="teryt2osm combine.py v. 43"/>
    <tag k="wikipedia" v="Boduszewo"/>
  </node>
  <node id="316758653" version="6" timestamp="2010-04-11T04:38:58Z" uid="20587" user="balrog-kun" changeset="4389130" lat="52.5754914" lon="17.0515477">
    <tag k="addr:postcode" v="62-095"/>
    <tag k="is_in" v="gmina Murowana Goślina, powiat poznański, województwo wielkopolskie, Poland"/>
    <tag k="is_in:country" v="Poland"/>
    <tag k="is_in:county" v="powiat poznański"/>
    <tag k="is_in:municipality" v="gmina Murowana Goślina"/>
    <tag k="is_in:province" v="województwo wielkopolskie"/>
    <tag k="name" v="Boduszewo"/>
    <tag k="place" v="village"/>
    <tag k="population" v="240"/>
    <tag k="source:population" v="wikipedia"/>
    <tag k="teryt:rm" v="01"/>
    <tag k="teryt:simc" v="0589790"/>
    <tag k="teryt:stan_na" v="2009-01-01"/>
    <tag k="teryt:terc" v="3021115"/>
    <tag k="teryt:updated_by" v="teryt2osm combine.py v. 43"/>
    <tag k="wikipedia" v="Boduszewo"/>
  </node>
  <node id="316758659" version="1" timestamp="2008-12-05T11:17:20Z" uid="64977" user="CLoeser" changeset="123488" lat="54.0840341" lon="13.4198757"/>
  <node id="316758659" version="2" timestamp="2008-12-05T11:17:29Z" uid="64977" user="CLoeser" changeset="123488" lat="54.0840341" lon="13.4198757">
    <tag k="barrier" v="bollard"/>
  </node>
  <node id="316758660" version="1" timestamp="2008-12-05T11:17:20Z" uid="64977" user="CLoeser" changeset="123488" lat="54.0828342" lon="13.4182353"/>
  <node id="316758660" version="2" timestamp="2008-12-05T11:17:21Z" uid="64977" user="CLoeser" changeset="123488" lat="54.0828342" lon="13.4182353"/>
  <node id="316758660" version="3" timestamp="2008-12-05T11:17:29Z" uid="64977" user="CLoeser" changeset="123488" lat="54.0828342" lon="13.4182353"/>
  <node id="316758660" version="4" timestamp="2008-12-05T11:17:50Z" uid="64977" user="CLoeser" changeset="123488" lat="54.0828342" lon="13.4182353"/>
  <node id="316758660" version="5" timestamp="2008-12-05T20:53:19Z" uid="64977" user="CLoeser" changeset="138290" lat="54.0828342" lon="13.4182353"/>
  <node id="316758660" version="6" timestamp="2008-12-08T17:33:04Z" uid="64977" user="CLoeser" changeset="258482" lat="54.0828342" lon="13.4182353"/>
  <node id="316758660" version="7" timestamp="2008-12-08T17:33:43Z" uid="64977" user="CLoeser" changeset="258482" lat="54.0828342" lon="13.4182353"/>
  <node id="316758660" version="8" timestamp="2008-12-08T17:34:08Z" uid="64977" user="CLoeser" changeset="258482" lat="54.0828342" lon="13.4182353"/>
  <node id="316758660" version="9" timestamp="2008-12-08T17:34:24Z" uid="64977" user="CLoeser" changeset="258482" lat="54.0828342" lon="13.4182353"/>
  <node id="316758660" version="10" timestamp="2008-12-08T17:34:34Z" uid="64977" user="CLoeser" changeset="258482" lat="54.0828342" lon="13.4182353"/>
  <node id="316758660" version="11" timestamp="2008-12-08T17:34:52Z" uid="64977" user="CLoeser" changeset="258482" lat="54.0828342" lon="13.4182353"/>
  <node id="316758660" version="12" timestamp="2008-12-08T17:35:27Z" uid="64977" user="CLoeser" changeset="258482" lat="54.0828342" lon="13.4182353"/>
  <node id="316758660" version="13" timestamp="2009-02-10T21:03:16Z" uid="35560" user="HeikoE" changeset="331671" lat="54.0827538" lon="13.4181966"/>
  <node id="316758660" version="14" timestamp="2009-03-24T12:21:38Z" uid="64977" user="CLoeser" changeset="854393" lat="54.0827538" lon="13.4181966"/>
  <node id="316758690" version="2" timestamp="2010-01-03T05:20:53Z" uid="18775" user="drlizau" changeset="3525389" lat="-34.1803113" lon="139.9854506"/>
  <node id="316758774" version="1" timestamp="2008-12-05T11:19:15Z" uid="64977" user="CLoeser" changeset="123488" lat="54.0874929" lon="13.4163481"/>
  <node id="316758774" version="2" timestamp="2008-12-05T11:21:40Z" uid="64977" user="CLoeser" changeset="123488" lat="54.0874929" lon="13.4163481"/>
  <node id="316758774" version="3" timestamp="2008-12-05T11:22:35Z" uid="64977" user="CLoeser" changeset="123488" lat="54.0874929" lon="13.4163481"/>
  <node id="316758774" version="4" timestamp="2008-12-05T11:22:50Z" uid="64977" user="CLoeser" changeset="123488" lat="54.0874929" lon="13.4163481"/>
  <node id="316758774" version="5" timestamp="2008-12-05T11:23:10Z" uid="64977" user="CLoeser" changeset="123488" lat="54.0874929" lon="13.4163481"/>
  <node id="316758774" version="6" timestamp="2008-12-05T11:23:27Z" uid="64977" user="CLoeser" changeset="123488" lat="54.0874929" lon="13.4163481"/>
  <node id="316758774" version="7" timestamp="2008-12-05T11:23:34Z" uid="64977" user="CLoeser" changeset="123488" lat="54.0874929" lon="13.4163481"/>
  <node id="316758774" version="8" timestamp="2008-12-05T11:23:51Z" uid="64977" user="CLoeser" changeset="123488" lat="54.0874929" lon="13.4163481"/>
  <node id="316758774" version="9" timestamp="2008-12-05T11:23:56Z" uid="64977" user="CLoeser" changeset="123488" lat="54.0874929" lon="13.4163481"/>
  <node id="316758774" version="10" timestamp="2008-12-05T15:21:48Z" uid="64977" user="CLoeser" changeset="127523" lat="54.0874929" lon="13.4163481"/>
  <node id="316758774" version="11" timestamp="2008-12-05T15:22:05Z" uid="64977" user="CLoeser" changeset="127523" lat="54.0874929" lon="13.4163481"/>
  <node id="316758774" version="12" timestamp="2008-12-05T20:51:17Z" uid="64977" user="CLoeser" changeset="138290" lat="54.0874807" lon="13.416416"/>
  <node id="316758774" version="13" timestamp="2008-12-05T20:51:22Z" uid="64977" user="CLoeser" changeset="138290" lat="54.0874807" lon="13.416416"/>
  <node id="316758774" version="14" timestamp="2008-12-05T20:51:38Z" uid="64977" user="CLoeser" changeset="138290" lat="54.0874807" lon="13.416416"/>
  <node id="316758774" version="15" timestamp="2008-12-05T20:51:46Z" uid="64977" user="CLoeser" changeset="138290" lat="54.0874807" lon="13.416416"/>
  <node id="316758774" version="16" timestamp="2008-12-05T20:52:25Z" uid="64977" user="CLoeser" changeset="138290" lat="54.0874807" lon="13.416416"/>
  <node id="316758774" version="17" timestamp="2008-12-05T20:52:35Z" uid="64977" user="CLoeser" changeset="138290" lat="54.0874807" lon="13.416416"/>
  <node id="316758774" version="18" timestamp="2008-12-05T20:52:48Z" uid="64977" user="CLoeser" changeset="138290" lat="54.0874807" lon="13.416416"/>
  <node id="316758774" version="19" timestamp="2008-12-08T17:12:21Z" uid="64977" user="CLoeser" changeset="258482" lat="54.0874807" lon="13.416416"/>
  <node id="316758774" version="20" timestamp="2008-12-08T17:12:52Z" uid="64977" user="CLoeser" changeset="258482" lat="54.0874807" lon="13.416416"/>
  <node id="316758774" version="21" timestamp="2008-12-08T17:13:10Z" uid="64977" user="CLoeser" changeset="258482" lat="54.0874807" lon="13.416416"/>
  <node id="316758774" version="22" timestamp="2008-12-08T17:13:32Z" uid="64977" user="CLoeser" changeset="258482" lat="54.0874807" lon="13.416416"/>
  <node id="316758774" version="23" timestamp="2008-12-08T17:13:49Z" uid="64977" user="CLoeser" changeset="258482" lat="54.0874807" lon="13.416416"/>
  <node id="316758774" version="24" timestamp="2008-12-28T18:38:29Z" uid="67020" user="Nibbler" changeset="652285" lat="54.087556" lon="13.4164049"/>
  <node id="316758774" version="25" timestamp="2009-02-10T23:36:49Z" uid="67020" user="Nibbler" changeset="342839" lat="54.0874681" lon="13.4165819"/>
  <node id="316758775" version="1" timestamp="2008-12-05T11:19:15Z" uid="64977" user="CLoeser" changeset="123488" lat="54.0888209" lon="13.4110995"/>
  <node id="316758775" version="2" timestamp="2008-12-05T11:19:34Z" uid="64977" user="CLoeser" changeset="123488" lat="54.0888209" lon="13.4110995">
    <tag k="highway" v="traffic_signals"/>
  </node>
  <node id="316758775" version="3" timestamp="2008-12-28T18:38:34Z" uid="67020" user="Nibbler" changeset="652285" lat="54.0888209" lon="13.4110995">
    <tag k="highway" v="traffic_signals"/>
  </node>
  <node id="316759832" version="2" timestamp="2010-04-05T16:13:16Z" uid="163746" user="anti_bot-nonsense" changeset="4334877" lat="52.5713902" lon="17.0609541"/>
  <node id="316759871" version="2" timestamp="2010-04-05T17:38:08Z" uid="163746" user="anti_bot-nonsense" changeset="4334877" lat="52.5688894" lon="17.0608936"/>
  <node id="316759872" version="2" timestamp="2010-04-05T17:10:52Z" uid="163746" user="anti_bot-nonsense" changeset="4334877" lat="52.5673982" lon="17.0609079"/>
  <node id="316759874" version="2" timestamp="2010-04-05T15:59:12Z" uid="163746" user="anti_bot-nonsense" changeset="4334877" lat="52.5667703" lon="17.0609941"/>
  <node id="316759879" version="2" timestamp="2010-04-05T16:06:10Z" uid="163746" user="anti_bot-nonsense" changeset="4334877" lat="52.5656454" lon="17.0611806"/>
  <node id="316759881" version="2" timestamp="2010-04-05T16:58:23Z" uid="163746" user="anti_bot-nonsense" changeset="4334877" lat="52.5630379" lon="17.0616399"/>
</osm>
