<?xml version='1.0' encoding='UTF-8'?>
<osm version="0.6" generator="libosmium/2.20.0">
  <node id="316920097" version="3" timestamp="2010-10-07T20:00:06Z" uid="9581" user="Lobelt" changeset="5981056" lat="49.6047669" lon="8.7493866"/>
  <node id="316920097" version="4" timestamp="2011-02-16T21:37:32Z" uid="60824" user="Carsten Güse" changeset="7308004" lat="49.6047774" lon="8.7493704"/>
  <node id="316921197" version="5" timestamp="2009-10-02T19:48:28Z" uid="86259" user="hasse_osm_korinthenkacker" changeset="2716821" lat="47.9109649" lon="11.6801903">
    <tag k="addr:city" v="Otterfing"/>
    <tag k="addr:country" v="DE"/>
    <tag k="addr:housenumber" v="39r"/>
    <tag k="addr:postcode" v="83624"/>
    <tag k="addr:street" v="Bahnhofstraße"/>
  </node>
  <node id="316921197" version="6" timestamp="2010-08-30T17:12:32Z" uid="42393" user="mawi42" changeset="5637951" lat="47.9108667" lon="11.6799814">
    <tag k="addr:city" v="Otterfing"/>
    <tag k="addr:country" v="DE"/>
    <tag k="addr:housenumber" v="39r"/>
    <tag k="addr:postcode" v="83624"/>
    <tag k="addr:street" v="Bahnhofstraße"/>
  </node>
  <node id="316922012" version="3" timestamp="2008-12-13T22:28:57Z" uid="6975" user="ulfl" changeset="352865" lat="51.5203433" lon="9.9622027">
    <tag k="GoeVB:id" v="50332"/>
    <tag k="highway" v="bus_stop"/>
    <tag k="line" v="7"/>
    <tag k="name" v="Alfred-Delp-Weg"/>
    <tag k="note" v="see http://wiki.openstreetmap.org/wiki/Göttingen/ÖPNV#Datenimport_der_GöVB-Haltestellen"/>
    <tag k="note:de" v="siehe http://wiki.openstreetmap.org/wiki/Göttingen/ÖPNV#Datenimport_der_GöVB-Haltestellen"/>
    <tag k="shelter" v="no"/>
    <tag k="source" v="donation from public transport services GoeVB.de"/>
    <tag k="source:de" v="Datenspende der GoeVB.de"/>
  </node>
  <node id="316922012" version="4" timestamp="2011-06-05T01:26:08Z" uid="205608" user="Maneaxel" changeset="8344559" lat="51.5203433" lon="9.9622027">
    <tag k="GoeVB:id" v="50332"/>
    <tag k="highway" v="bus_stop"/>
    <tag k="line" v="7"/>
    <tag k="name" v="Alfred-Delp-Weg"/>
    <tag k="note" v="see http://wiki.openstreetmap.org/wiki/Göttingen/ÖPNV#Datenimport_der_GöVB-Haltestellen"/>
    <tag k="note:de" v="siehe http://wiki.openstreetmap.org/wiki/Göttingen/ÖPNV#Datenimport_der_GöVB-Haltestellen"/>
    <tag k="shelter" v="no"/>
    <tag k="source" v="donation from public transport services GoeVB.de"/>
    <tag k="source:de" v="Datenspende der GoeVB.de"/>
  </node>
  <node id="316922012" version="5" timestamp="2011-07-19T07:22:46Z" uid="38286" user="t_u_b_o" changeset="8765533" lat="51.5203433" lon="9.9622027">
    <tag k="GoeVB:id" v="50332"/>
    <tag k="highway" v="bus_stop"/>
    <tag k="line" v="7"/>
    <tag k="name" v="Alfred-Delp-Weg"/>
    <tag k="note" v="see http://wiki.openstreetmap.org/wiki/Göttingen/ÖPNV#Datenimport_der_GöVB-Haltestellen"/>
    <tag k="note:de" v="siehe http://wiki.openstreetmap.org/wiki/Göttingen/ÖPNV#Datenimport_der_GöVB-Haltestellen"/>
    <tag k="shelter" v="no"/>
    <tag k="source" v="donation from public transport services GoeVB.de"/>
    <tag k="source:de" v="Datenspende der GoeVB.de"/>
    <tag k="uic_ref" v="308744"/>
  </node>
  <node id="316922012" version="6" timestamp="2012-02-16T14:15:54Z" uid="38286" user="t_u_b_o" changeset="10702037" lat="51.5204387" lon="9.9622239">
    <tag k="GoeVB:id" v="50332"/>
    <tag k="highway" v="bus_stop"/>
    <tag k="line" v="7"/>
    <tag k="name" v="Alfred-Delp-Weg"/>
    <tag k="note" v="see http://wiki.openstreetmap.org/wiki/Göttingen/ÖPNV#Datenimport_der_GöVB-Haltestellen"/>
    <tag k="note:de" v="siehe http://wiki.openstreetmap.org/wiki/Göttingen/ÖPNV#Datenimport_der_GöVB-Haltestellen"/>
    <tag k="shelter" v="no"/>
    <tag k="source" v="donation from public transport services GoeVB.de"/>
    <tag k="source:de" v="Datenspende der GoeVB.de"/>
    <tag k="uic_ref" v="308744"/>
  </node>
  <node id="316922727" version="3" timestamp="2009-05-23T22:45:52Z" uid="36809" user="pfoten_weg_!_" changeset="1300555" lat="48.0950664" lon="11.55269"/>
  <node id="316922729" version="3" timestamp="2009-05-23T22:45:52Z" uid="36809" user="pfoten_weg_!_" changeset="1300555" lat="48.094886" lon="11.5525644"/>
  <node id="316922730" version="3" timestamp="2009-05-23T22:45:52Z" uid="36809" user="pfoten_weg_!_" changeset="1300555" lat="48.0949367" lon="11.5524011"/>
  <node id="316922731" version="3" timestamp="2009-05-23T22:45:52Z" uid="36809" user="pfoten_weg_!_" changeset="1300555" lat="48.0951171" lon="11.5525267"/>
  <node id="316926747" version="4" timestamp="2010-09-26T21:03:14Z" uid="9581" user="Lobelt" changeset="5885792" lat="50.9386296" lon="11.3413107"/>
  <node id="316926747" version="5" timestamp="2012-03-28T13:56:45Z" uid="110639" user="aighes" changeset="11127353" lat="50.9386075" lon="11.3412873"/>
  <node id="316926749" version="6" timestamp="2010-09-26T21:03:17Z" uid="9581" user="Lobelt" changeset="5885792" lat="50.9383249" lon="11.3427"/>
  <node id="316926749" version="7" timestamp="2012-03-28T13:56:45Z" uid="110639" user="aighes" changeset="11127353" lat="50.9383618" lon="11.3423998"/>
  <node id="316926813" version="2" timestamp="2010-09-26T21:03:16Z" uid="9581" user="Lobelt" changeset="5885792" lat="50.9333389" lon="11.3866017"/>
  <node id="316929119" version="4" timestamp="2009-10-02T19:48:29Z" uid="86259" user="hasse_osm_korinthenkacker" changeset="2716821" lat="47.9110743" lon="11.6805422">
    <tag k="addr:city" v="Otterfing"/>
    <tag k="addr:country" v="DE"/>
    <tag k="addr:housenumber" v="41"/>
    <tag k="addr:postcode" v="83624"/>
    <tag k="addr:street" v="Bahnhofstraße"/>
  </node>
  <node id="316929119" version="5" timestamp="2010-08-30T17:12:31Z" uid="42393" user="mawi42" changeset="5637951" lat="47.9109961" lon="11.6803354">
    <tag k="addr:city" v="Otterfing"/>
    <tag k="addr:country" v="DE"/>
    <tag k="addr:housenumber" v="41"/>
    <tag k="addr:postcode" v="83624"/>
    <tag k="addr:street" v="Bahnhofstraße"/>
  </node>
  <node id="316929170" version="4" timestamp="2009-10-02T19:48:29Z" uid="86259" user="hasse_osm_korinthenkacker" changeset="2716821" lat="47.9112296" lon="11.6809198">
    <tag k="addr:city" v="Otterfing"/>
    <tag k="addr:country" v="DE"/>
    <tag k="addr:housenumber" v="43r"/>
    <tag k="addr:postcode" v="83624"/>
    <tag k="addr:street" v="Bahnhofstraße"/>
  </node>
  <node id="316929342" version="5" timestamp="2009-10-02T19:48:27Z" uid="86259" user="hasse_osm_korinthenkacker" changeset="2716821" lat="47.9101883" lon="11.6798641">
    <tag k="addr:city" v="Otterfing"/>
    <tag k="addr:country" v="DE"/>
    <tag k="addr:housenumber" v="24a"/>
    <tag k="addr:postcode" v="83624"/>
    <tag k="addr:street" v="Bahnhofstraße"/>
  </node>
  <node id="316929397" version="5" timestamp="2009-10-02T19:48:26Z" uid="86259" user="hasse_osm_korinthenkacker" changeset="2716821" lat="47.9101595" lon="11.6794006">
    <tag k="addr:city" v="Otterfing"/>
    <tag k="addr:country" v="DE"/>
    <tag k="addr:housenumber" v="24"/>
    <tag k="addr:postcode" v="83624"/>
    <tag k="addr:street" v="Bahnhofstraße"/>
  </node>
  <node id="316929495" version="5" timestamp="2009-10-02T19:48:25Z" uid="86259" user="hasse_osm_korinthenkacker" changeset="2716821" lat="47.9099064" lon="11.6794693">
    <tag k="addr:city" v="Otterfing"/>
    <tag k="addr:country" v="DE"/>
    <tag k="addr:housenumber" v="24b"/>
    <tag k="addr:postcode" v="83624"/>
    <tag k="addr:street" v="Bahnhofstraße"/>
  </node>
  <node id="316929702" version="5" timestamp="2009-10-02T19:48:25Z" uid="86259" user="hasse_osm_korinthenkacker" changeset="2716821" lat="47.9099236" lon="11.6800014">
    <tag k="addr:city" v="Otterfing"/>
    <tag k="addr:country" v="DE"/>
    <tag k="addr:housenumber" v="26r"/>
    <tag k="addr:postcode" v="83624"/>
    <tag k="addr:street" v="Bahnhofstraße"/>
  </node>
</osm>
