<?xml version='1.0' encoding='UTF-8'?>
<osm version="0.6" generator="libosmium/2.20.0">
  <node id="317200043" version="4" timestamp="2009-10-02T20:03:02Z" uid="86259" user="hasse_osm_korinthenkacker" changeset="2717024" lat="47.8746176" lon="11.701119">
    <tag k="addr:city" v="Holzkirchen"/>
    <tag k="addr:country" v="DE"/>
    <tag k="addr:housenumber" v="12"/>
    <tag k="addr:postcode" v="83607"/>
    <tag k="addr:street" v="Thanner Straße"/>
  </node>
  <node id="317200193" version="4" timestamp="2009-10-02T20:03:02Z" uid="86259" user="hasse_osm_korinthenkacker" changeset="2717024" lat="47.8744103" lon="11.7010933">
    <tag k="addr:city" v="Holzkirchen"/>
    <tag k="addr:country" v="DE"/>
    <tag k="addr:housenumber" v="14"/>
    <tag k="addr:postcode" v="83607"/>
    <tag k="addr:street" v="Thanner Straße"/>
  </node>
  <node id="317200193" version="5" timestamp="2010-06-16T13:24:09Z" uid="42393" user="mawi42" changeset="5000496" lat="47.8744367" lon="11.7009569">
    <tag k="addr:city" v="Holzkirchen"/>
    <tag k="addr:country" v="DE"/>
    <tag k="addr:housenumber" v="14"/>
    <tag k="addr:postcode" v="83607"/>
    <tag k="addr:street" v="Thanner Straße"/>
  </node>
  <node id="317200592" version="5" timestamp="2009-10-02T20:03:02Z" uid="86259" user="hasse_osm_korinthenkacker" changeset="2717024" lat="47.8740556" lon="11.7009866">
    <tag k="addr:city" v="Holzkirchen"/>
    <tag k="addr:country" v="DE"/>
    <tag k="addr:housenumber" v="16"/>
    <tag k="addr:postcode" v="83607"/>
    <tag k="addr:street" v="Thanner Straße"/>
  </node>
  <node id="317200592" version="6" timestamp="2010-10-05T15:05:44Z" uid="42393" user="mawi42" changeset="5961899" lat="47.8740556" lon="11.7009866">
    <tag k="addr:city" v="Holzkirchen"/>
    <tag k="addr:country" v="DE"/>
    <tag k="addr:housenumber" v="16"/>
    <tag k="addr:postcode" v="83607"/>
    <tag k="addr:street" v="Thanner Straße"/>
  </node>
  <node id="317200661" version="5" timestamp="2009-10-02T20:03:02Z" uid="86259" user="hasse_osm_korinthenkacker" changeset="2717024" lat="47.8740499" lon="11.7008921">
    <tag k="addr:city" v="Holzkirchen"/>
    <tag k="addr:country" v="DE"/>
    <tag k="addr:housenumber" v="16a"/>
    <tag k="addr:postcode" v="83607"/>
    <tag k="addr:street" v="Thanner Straße"/>
  </node>
  <node id="317200661" version="6" timestamp="2010-10-05T15:05:43Z" uid="42393" user="mawi42" changeset="5961899" lat="47.8740499" lon="11.7008921">
    <tag k="addr:city" v="Holzkirchen"/>
    <tag k="addr:country" v="DE"/>
    <tag k="addr:housenumber" v="16a"/>
    <tag k="addr:postcode" v="83607"/>
    <tag k="addr:street" v="Thanner Straße"/>
  </node>
  <node id="317200755" version="5" timestamp="2009-10-02T20:03:02Z" uid="86259" user="hasse_osm_korinthenkacker" changeset="2717024" lat="47.8740441" lon="11.7008063">
    <tag k="addr:city" v="Holzkirchen"/>
    <tag k="addr:country" v="DE"/>
    <tag k="addr:housenumber" v="16b"/>
    <tag k="addr:postcode" v="83607"/>
    <tag k="addr:street" v="Thanner Straße"/>
  </node>
  <node id="317200755" version="6" timestamp="2010-10-05T15:05:43Z" uid="42393" user="mawi42" changeset="5961899" lat="47.8740441" lon="11.7008063">
    <tag k="addr:city" v="Holzkirchen"/>
    <tag k="addr:country" v="DE"/>
    <tag k="addr:housenumber" v="16b"/>
    <tag k="addr:postcode" v="83607"/>
    <tag k="addr:street" v="Thanner Straße"/>
  </node>
  <node id="317200845" version="5" timestamp="2009-10-02T20:03:02Z" uid="86259" user="hasse_osm_korinthenkacker" changeset="2717024" lat="47.8740384" lon="11.7007205">
    <tag k="addr:city" v="Holzkirchen"/>
    <tag k="addr:country" v="DE"/>
    <tag k="addr:housenumber" v="16c"/>
    <tag k="addr:postcode" v="83607"/>
    <tag k="addr:street" v="Thanner Straße"/>
  </node>
  <node id="317200845" version="6" timestamp="2010-10-05T15:05:43Z" uid="42393" user="mawi42" changeset="5961899" lat="47.8740384" lon="11.7007205">
    <tag k="addr:city" v="Holzkirchen"/>
    <tag k="addr:country" v="DE"/>
    <tag k="addr:housenumber" v="16c"/>
    <tag k="addr:postcode" v="83607"/>
    <tag k="addr:street" v="Thanner Straße"/>
  </node>
  <node id="317200925" version="5" timestamp="2009-10-02T20:03:02Z" uid="86259" user="hasse_osm_korinthenkacker" changeset="2717024" lat="47.8740326" lon="11.7006347">
    <tag k="addr:city" v="Holzkirchen"/>
    <tag k="addr:country" v="DE"/>
    <tag k="addr:housenumber" v="16d"/>
    <tag k="addr:postcode" v="83607"/>
    <tag k="addr:street" v="Thanner Straße"/>
  </node>
  <node id="317200925" version="6" timestamp="2010-10-05T15:05:43Z" uid="42393" user="mawi42" changeset="5961899" lat="47.8740326" lon="11.7006347">
    <tag k="addr:city" v="Holzkirchen"/>
    <tag k="addr:country" v="DE"/>
    <tag k="addr:housenumber" v="16d"/>
    <tag k="addr:postcode" v="83607"/>
    <tag k="addr:street" v="Thanner Straße"/>
  </node>
  <node id="317201283" version="7" timestamp="2009-10-02T20:02:57Z" uid="86259" user="hasse_osm_korinthenkacker" changeset="2717024" lat="47.8741362" lon="11.7003772">
    <tag k="addr:city" v="Holzkirchen"/>
    <tag k="addr:country" v="DE"/>
    <tag k="addr:housenumber" v="18"/>
    <tag k="addr:postcode" v="83607"/>
    <tag k="addr:street" v="Thanner Straße"/>
  </node>
  <node id="317201283" version="8" timestamp="2010-10-05T15:05:44Z" uid="42393" user="mawi42" changeset="5961899" lat="47.8741362" lon="11.7003772">
    <tag k="addr:city" v="Holzkirchen"/>
    <tag k="addr:country" v="DE"/>
    <tag k="addr:housenumber" v="18"/>
    <tag k="addr:postcode" v="83607"/>
    <tag k="addr:street" v="Thanner Straße"/>
  </node>
  <node id="317201461" version="6" timestamp="2009-10-02T20:02:57Z" uid="86259" user="hasse_osm_korinthenkacker" changeset="2717024" lat="47.8740844" lon="11.7004029">
    <tag k="addr:city" v="Holzkirchen"/>
    <tag k="addr:country" v="DE"/>
    <tag k="addr:housenumber" v="18a"/>
    <tag k="addr:postcode" v="83607"/>
    <tag k="addr:street" v="Thanner Straße"/>
  </node>
  <node id="317201461" version="7" timestamp="2010-10-05T15:05:44Z" uid="42393" user="mawi42" changeset="5961899" lat="47.8740844" lon="11.7004029">
    <tag k="addr:city" v="Holzkirchen"/>
    <tag k="addr:country" v="DE"/>
    <tag k="addr:housenumber" v="18a"/>
    <tag k="addr:postcode" v="83607"/>
    <tag k="addr:street" v="Thanner Straße"/>
  </node>
  <node id="317201528" version="6" timestamp="2009-10-02T20:02:57Z" uid="86259" user="hasse_osm_korinthenkacker" changeset="2717024" lat="47.8740326" lon="11.7004287">
    <tag k="addr:city" v="Holzkirchen"/>
    <tag k="addr:country" v="DE"/>
    <tag k="addr:housenumber" v="18b"/>
    <tag k="addr:postcode" v="83607"/>
    <tag k="addr:street" v="Thanner Straße"/>
  </node>
  <node id="317201528" version="7" timestamp="2010-10-05T14:59:40Z" uid="42393" user="mawi42" changeset="5961899" lat="47.8740306" lon="11.7004453">
    <tag k="addr:city" v="Holzkirchen"/>
    <tag k="addr:country" v="DE"/>
    <tag k="addr:housenumber" v="18b"/>
    <tag k="addr:postcode" v="83607"/>
    <tag k="addr:street" v="Thanner Straße"/>
  </node>
  <node id="317201528" version="8" timestamp="2010-10-05T15:05:44Z" uid="42393" user="mawi42" changeset="5961899" lat="47.8740306" lon="11.7004453">
    <tag k="addr:city" v="Holzkirchen"/>
    <tag k="addr:country" v="DE"/>
    <tag k="addr:housenumber" v="18b"/>
    <tag k="addr:postcode" v="83607"/>
    <tag k="addr:street" v="Thanner Straße"/>
  </node>
  <node id="317202159" version="6" timestamp="2009-10-02T20:03:02Z" uid="86259" user="hasse_osm_korinthenkacker" changeset="2717024" lat="47.8739808" lon="11.700463">
    <tag k="addr:city" v="Holzkirchen"/>
    <tag k="addr:country" v="DE"/>
    <tag k="addr:housenumber" v="18c"/>
    <tag k="addr:postcode" v="83607"/>
    <tag k="addr:street" v="Thanner Straße"/>
  </node>
  <node id="317202159" version="7" timestamp="2010-10-05T14:59:40Z" uid="42393" user="mawi42" changeset="5961899" lat="47.8739722" lon="11.7004822">
    <tag k="addr:city" v="Holzkirchen"/>
    <tag k="addr:country" v="DE"/>
    <tag k="addr:housenumber" v="18c"/>
    <tag k="addr:postcode" v="83607"/>
    <tag k="addr:street" v="Thanner Straße"/>
  </node>
  <node id="317202159" version="8" timestamp="2010-10-05T15:05:44Z" uid="42393" user="mawi42" changeset="5961899" lat="47.8739722" lon="11.7004822">
    <tag k="addr:city" v="Holzkirchen"/>
    <tag k="addr:country" v="DE"/>
    <tag k="addr:housenumber" v="18c"/>
    <tag k="addr:postcode" v="83607"/>
    <tag k="addr:street" v="Thanner Straße"/>
  </node>
  <node id="317207424" version="3" timestamp="2009-10-17T23:36:32Z" uid="36809" user="pfoten_weg_!_" changeset="2879001" lat="47.6934125" lon="11.4058863">
    <tag k="amenity" v="restaurant"/>
    <tag k="building" v="yes"/>
    <tag k="name" v="Rabenkopf"/>
  </node>
  <node id="317207424" version="4" timestamp="2009-11-26T17:28:49Z" uid="64756" user="alegria6208" changeset="3221870" lat="47.6934125" lon="11.4058863">
    <tag k="amenity" v="restaurant"/>
    <tag k="building" v="yes"/>
    <tag k="name" v="Rabenkopf"/>
  </node>
  <node id="317208879" version="1" timestamp="2008-12-07T15:44:50Z" uid="22528" user="saintman" changeset="238819" lat="55.5684017" lon="37.5853483">
    <tag k="created_by" v="Potlatch 0.10f"/>
  </node>
  <node id="317208879" version="2" timestamp="2008-12-07T15:45:26Z" uid="22528" user="saintman" changeset="238819" lat="55.5684017" lon="37.5853483">
    <tag k="created_by" v="Potlatch 0.10f"/>
    <tag k="name" v="Перекрёсток"/>
    <tag k="undefined" v="supermarket"/>
  </node>
  <node id="317208879" version="3" timestamp="2008-12-07T15:45:40Z" uid="22528" user="saintman" changeset="238819" lat="55.5684017" lon="37.5853483">
    <tag k="amenity" v="supermarket"/>
    <tag k="created_by" v="Potlatch 0.10f"/>
    <tag k="name" v="Перекрёсток"/>
  </node>
  <node id="317208879" version="4" timestamp="2008-12-09T23:29:56Z" uid="6975" user="ulfl" changeset="299549" lat="55.5684017" lon="37.5853483">
    <tag k="name" v="Перекрёсток"/>
    <tag k="shop" v="supermarket"/>
  </node>
  <node id="317208879" version="5" timestamp="2011-09-06T20:56:01Z" uid="126304" user="TarzanASG" changeset="9231433" lat="55.5684017" lon="37.5853483">
    <tag k="addr:country" v="RU"/>
    <tag k="alt_name" v="Перекресток"/>
    <tag k="name" v="Перекрёсток"/>
    <tag k="operator" v="X5 Retail Group"/>
    <tag k="shop" v="supermarket"/>
    <tag k="website" v="http://www.perekrestok.ru/"/>
  </node>
  <node id="317209540" version="2" timestamp="2009-10-20T16:19:18Z" uid="9581" user="Lobelt" changeset="2904708" lat="50.4683744" lon="11.9491076"/>
  <node id="317209541" version="2" timestamp="2009-10-20T16:19:18Z" uid="9581" user="Lobelt" changeset="2904708" lat="50.4683524" lon="11.9488438"/>
  <node id="317209542" version="2" timestamp="2009-10-20T16:19:17Z" uid="9581" user="Lobelt" changeset="2904708" lat="50.4684381" lon="11.948609"/>
  <node id="317209543" version="2" timestamp="2009-10-20T16:19:17Z" uid="9581" user="Lobelt" changeset="2904708" lat="50.4686053" lon="11.9497697"/>
  <node id="317209547" version="3" timestamp="2009-10-20T16:19:18Z" uid="9581" user="Lobelt" changeset="2904708" lat="50.4687535" lon="11.950196"/>
  <node id="317209549" version="3" timestamp="2009-10-20T16:19:18Z" uid="9581" user="Lobelt" changeset="2904708" lat="50.4764241" lon="11.9553054"/>
  <node id="317209557" version="2" timestamp="2009-10-20T16:19:18Z" uid="9581" user="Lobelt" changeset="2904708" lat="50.4632538" lon="11.9562461"/>
  <node id="317209558" version="2" timestamp="2009-10-20T16:19:18Z" uid="9581" user="Lobelt" changeset="2904708" lat="50.4631062" lon="11.9562845"/>
</osm>
