<?xml version='1.0' encoding='UTF-8'?>
<osm version="0.6" generator="libosmium/2.20.0">
  <node id="317590079" version="1" timestamp="2008-12-09T15:56:18Z" uid="43863" user="Rundling" changeset="284435" lat="52.9522793" lon="10.5748979"/>
  <node id="317590368" version="2" timestamp="2009-01-14T11:05:25Z" uid="9581" user="Lobelt" changeset="787373" lat="50.6844383" lon="11.7834942">
    <tag k="created_by" v="Potlatch 0.10f"/>
    <tag k="man_made" v="windmill"/>
  </node>
  <node id="317590368" version="3" timestamp="2011-06-11T08:50:44Z" uid="192395" user="BBO" changeset="8403966" lat="50.6844383" lon="11.7834942"/>
  <node id="317590949" version="1" timestamp="2008-12-09T15:59:26Z" uid="43863" user="Rundling" changeset="284435" lat="53.0840859" lon="10.5667137"/>
  <node id="317590949" version="2" timestamp="2009-06-06T11:17:51Z" uid="43863" user="Rundling" changeset="1437083" lat="53.084131" lon="10.5667362"/>
  <node id="317590949" version="3" timestamp="2010-05-07T20:07:59Z" uid="38735" user="GPS-Wolf" changeset="4633457" lat="53.0840929" lon="10.5667247"/>
  <node id="317591091" version="2" timestamp="2008-12-09T23:23:00Z" uid="6975" user="ulfl" changeset="299549" lat="48.7084528" lon="9.4640349">
    <tag k="ele" v="264.000000"/>
    <tag k="highway" v="bus_stop"/>
    <tag k="name" v="Bahnhof"/>
  </node>
  <node id="317591091" version="3" timestamp="2009-02-02T01:28:11Z" uid="24748" user="mabapla" changeset="73138" lat="48.7084528" lon="9.4640349">
    <tag k="ele" v="264"/>
    <tag k="highway" v="bus_stop"/>
    <tag k="name" v="Bahnhof"/>
  </node>
  <node id="317591091" version="4" timestamp="2011-06-02T22:01:49Z" uid="464616" user="MoTaBi" changeset="8324890" lat="48.7081761" lon="9.4637897">
    <tag k="ele" v="264"/>
    <tag k="highway" v="bus_stop"/>
    <tag k="name" v="Bahnhof"/>
  </node>
  <node id="317591628" version="2" timestamp="2008-12-09T23:29:56Z" uid="6975" user="ulfl" changeset="299549" lat="48.7153396" lon="9.4638375">
    <tag k="ele" v="271.000000"/>
    <tag k="name" v="Gefako Getränkemarkt"/>
    <tag k="shop" v="supermarket"/>
  </node>
  <node id="317591628" version="3" timestamp="2009-01-08T21:27:00Z" uid="40234" user="Bernd Rosenau" changeset="757972" lat="48.7153316" lon="9.4637406">
    <tag k="created_by" v="Potlatch 0.10f"/>
    <tag k="ele" v="271.000000"/>
    <tag k="name" v="Gefako Getränkemarkt"/>
    <tag k="shop" v="supermarket"/>
  </node>
  <node id="317591628" version="4" timestamp="2009-01-08T21:27:14Z" uid="40234" user="Bernd Rosenau" changeset="757972" lat="48.7153316" lon="9.4637406">
    <tag k="created_by" v="Potlatch 0.10f"/>
    <tag k="ele" v="271"/>
    <tag k="name" v="Gefako Getränkemarkt"/>
    <tag k="shop" v="supermarket"/>
  </node>
  <node id="317591628" version="5" timestamp="2009-03-14T19:44:44Z" uid="40234" user="Bernd Rosenau" changeset="808130" lat="48.715333" lon="9.4637347">
    <tag k="created_by" v="Potlatch 0.10f"/>
    <tag k="ele" v="271"/>
    <tag k="name" v="Gefako Getränkemarkt"/>
    <tag k="shop" v="beverages"/>
  </node>
  <node id="317591628" version="6" timestamp="2009-06-20T17:34:50Z" uid="85761" user="klausis" changeset="1576823" lat="48.715333" lon="9.4637347">
    <tag k="ele" v="271"/>
    <tag k="name" v="Gefako Getränkemarkt"/>
    <tag k="shop" v="beverages"/>
  </node>
  <node id="317591631" version="1" timestamp="2008-12-09T16:04:27Z" uid="43863" user="Rundling" changeset="284435" lat="52.9862953" lon="10.544129"/>
  <node id="317591631" version="2" timestamp="2009-03-18T09:50:59Z" uid="43863" user="Rundling" changeset="826607" lat="52.9862953" lon="10.544129"/>
  <node id="317591631" version="3" timestamp="2009-03-19T18:39:21Z" uid="43863" user="Rundling" changeset="833119" lat="52.9863197" lon="10.544129"/>
  <node id="317591631" version="4" timestamp="2009-07-07T14:56:57Z" uid="43863" user="Rundling" changeset="1763157" lat="52.986344" lon="10.5443596"/>
  <node id="317591631" version="5" timestamp="2009-07-26T11:16:26Z" uid="43863" user="Rundling" changeset="1943415" lat="52.986328" lon="10.5441113"/>
  <node id="317591688" version="2" timestamp="2008-12-09T23:22:59Z" uid="6975" user="ulfl" changeset="299549" lat="48.715753" lon="9.463683">
    <tag k="ele" v="267.000000"/>
    <tag k="highway" v="bus_stop"/>
    <tag k="name" v="Schorndorfer Straße"/>
  </node>
  <node id="317591688" version="3" timestamp="2009-01-07T20:34:05Z" uid="40234" user="Bernd Rosenau" changeset="753331" lat="48.7157563" lon="9.4635775">
    <tag k="created_by" v="Potlatch 0.10f"/>
    <tag k="ele" v="267.000000"/>
    <tag k="highway" v="bus_stop"/>
    <tag k="name" v="Schorndorfer Straße"/>
  </node>
  <node id="317591688" version="4" timestamp="2009-01-08T21:26:55Z" uid="40234" user="Bernd Rosenau" changeset="757972" lat="48.7157563" lon="9.4635689">
    <tag k="created_by" v="Potlatch 0.10f"/>
    <tag k="ele" v="267"/>
    <tag k="highway" v="bus_stop"/>
    <tag k="name" v="Schorndorfer Straße"/>
  </node>
  <node id="317591688" version="5" timestamp="2009-06-20T17:34:50Z" uid="85761" user="klausis" changeset="1576823" lat="48.7157563" lon="9.4635689">
    <tag k="ele" v="267"/>
    <tag k="highway" v="bus_stop"/>
    <tag k="name" v="Schorndorfer Straße"/>
  </node>
  <node id="317591859" version="2" timestamp="2008-12-09T23:23:01Z" uid="6975" user="ulfl" changeset="299549" lat="48.7160305" lon="9.4638118">
    <tag k="ele" v="270.000000"/>
    <tag k="highway" v="bus_stop"/>
    <tag k="name" v="Bus Schorndorfer Straße 1"/>
  </node>
  <node id="317591859" version="3" timestamp="2008-12-14T17:37:56Z" uid="40234" user="Bernd Rosenau" changeset="380601" lat="48.7160325" lon="9.4638033">
    <tag k="created_by" v="Potlatch 0.10f"/>
    <tag k="ele" v="270.000000"/>
    <tag k="highway" v="bus_stop"/>
    <tag k="name" v="Schorndorfer Straße 1"/>
  </node>
  <node id="317591859" version="4" timestamp="2009-01-08T21:26:45Z" uid="40234" user="Bernd Rosenau" changeset="757972" lat="48.7160338" lon="9.4638007">
    <tag k="created_by" v="Potlatch 0.10f"/>
    <tag k="ele" v="270"/>
    <tag k="highway" v="bus_stop"/>
    <tag k="name" v="Schorndorfer Straße 1"/>
  </node>
  <node id="317591859" version="5" timestamp="2009-06-20T17:34:52Z" uid="85761" user="klausis" changeset="1576823" lat="48.7160338" lon="9.4638007">
    <tag k="ele" v="270"/>
    <tag k="highway" v="bus_stop"/>
    <tag k="name" v="Schorndorfer Straße 1"/>
  </node>
  <node id="317592025" version="2" timestamp="2008-12-09T23:22:58Z" uid="6975" user="ulfl" changeset="299549" lat="48.7153113" lon="9.4751758">
    <tag k="ele" v="350.043213"/>
    <tag k="highway" v="bus_stop"/>
    <tag k="name" v="Bus Risshalde"/>
  </node>
  <node id="317592025" version="3" timestamp="2009-01-01T06:44:42Z" uid="40234" user="Bernd Rosenau" changeset="701812" lat="48.7153126" lon="9.4751734">
    <tag k="created_by" v="Potlatch 0.10f"/>
    <tag k="ele" v="350.043213"/>
    <tag k="highway" v="bus_stop"/>
    <tag k="name" v="Risshalde"/>
  </node>
  <node id="317592025" version="4" timestamp="2009-01-08T21:24:04Z" uid="40234" user="Bernd Rosenau" changeset="757972" lat="48.7153146" lon="9.4751732">
    <tag k="created_by" v="Potlatch 0.10f"/>
    <tag k="ele" v="350"/>
    <tag k="highway" v="bus_stop"/>
    <tag k="name" v="Risshalde"/>
  </node>
  <node id="317592025" version="5" timestamp="2009-06-20T17:34:52Z" uid="85761" user="klausis" changeset="1576823" lat="48.7153146" lon="9.4751732">
    <tag k="ele" v="350"/>
    <tag k="highway" v="bus_stop"/>
    <tag k="name" v="Risshalde"/>
  </node>
  <node id="317592366" version="1" timestamp="2008-12-09T16:09:06Z" uid="33382" user="de_muur" changeset="276015" lat="53.0482761" lon="8.9500848">
    <tag k="created_by" v="JOSM"/>
    <tag k="highway" v="bus_stop"/>
    <tag k="name" v="Am Grossen Kuhkamp"/>
  </node>
  <node id="317592366" version="2" timestamp="2010-02-27T12:15:16Z" uid="61005" user="nkbre" changeset="3987869" lat="53.0482761" lon="8.9500848">
    <tag k="highway" v="bus_stop"/>
    <tag k="name" v="Am Großen Kuhkamp"/>
  </node>
  <node id="317592366" version="3" timestamp="2010-06-20T13:50:35Z" uid="4473" user="EtricCeline" changeset="5033148" lat="53.0482761" lon="8.9500848">
    <tag k="bus" v="yes"/>
    <tag k="highway" v="bus_stop"/>
    <tag k="name" v="Am Großen Kuhkamp"/>
    <tag k="public_transport" v="platform"/>
  </node>
  <node id="317592840" version="1" timestamp="2008-12-09T16:13:56Z" uid="43863" user="Rundling" changeset="284435" lat="53.0770942" lon="10.5756626"/>
  <node id="317592840" version="2" timestamp="2010-06-11T20:21:16Z" uid="43863" user="Rundling" changeset="4965518" lat="53.0770708" lon="10.5756702"/>
  <node id="317593463" version="1" timestamp="2008-12-09T16:16:47Z" uid="43863" user="Rundling" changeset="284435" lat="52.9244875" lon="10.7568942"/>
  <node id="317593463" version="2" timestamp="2011-01-10T16:26:03Z" uid="43863" user="Rundling" changeset="6927880" lat="52.9245063" lon="10.7569137"/>
  <node id="317593464" version="1" timestamp="2008-12-09T16:16:47Z" uid="43863" user="Rundling" changeset="284435" lat="52.924266" lon="10.7574062"/>
  <node id="317593464" version="2" timestamp="2011-01-10T16:26:02Z" uid="43863" user="Rundling" changeset="6927880" lat="52.9242613" lon="10.7573007"/>
  <node id="317593465" version="1" timestamp="2008-12-09T16:16:47Z" uid="43863" user="Rundling" changeset="284435" lat="52.924252" lon="10.7575856"/>
  <node id="317593465" version="2" timestamp="2011-01-10T16:26:02Z" uid="43863" user="Rundling" changeset="6927880" lat="52.9242544" lon="10.7574996"/>
  <node id="317594552" version="1" timestamp="2008-12-09T16:22:51Z" uid="43863" user="Rundling" changeset="284435" lat="52.8863632" lon="10.6598709"/>
  <node id="317594552" version="2" timestamp="2010-11-01T16:18:04Z" uid="292562" user="WMWDe" changeset="6256828" lat="52.8862641" lon="10.6599783"/>
  <node id="317595435" version="1" timestamp="2008-12-09T16:26:32Z" uid="43863" user="Rundling" changeset="284435" lat="52.9390739" lon="10.5779781"/>
  <node id="317595435" version="2" timestamp="2010-10-25T21:23:02Z" uid="292562" user="WMWDe" changeset="6177664" lat="52.9388976" lon="10.5780125"/>
  <node id="317595435" version="3" timestamp="2010-10-26T21:02:56Z" uid="292562" user="WMWDe" changeset="6186780" lat="52.93889" lon="10.5780316"/>
  <node id="317595435" version="4" timestamp="2010-11-01T16:24:35Z" uid="292562" user="WMWDe" changeset="6256956" lat="52.9389123" lon="10.5780177"/>
  <node id="317599582" version="2" timestamp="2011-04-28T16:52:59Z" uid="43967" user="railsnail" changeset="7996350" lat="46.5089776" lon="12.9898826"/>
  <node id="317599662" version="6" timestamp="2008-12-09T22:53:33Z" uid="6975" user="ulfl" changeset="299549" lat="-34.6151364" lon="-58.4282056">
    <tag k="amenity" v="education"/>
    <tag k="name" v="Colegio Sagrado Corazon"/>
  </node>
  <node id="317599662" version="7" timestamp="2011-04-29T18:07:26Z" uid="446761" user="rafafinkel" changeset="8005427" lat="-34.6151364" lon="-58.4282056">
    <tag k="amenity" v="education"/>
    <tag k="name" v="Colegio Sagrado Corazon"/>
  </node>
</osm>
