<?xml version='1.0' encoding='UTF-8'?>
<osm version="0.6" generator="libosmium/2.20.0">
  <node id="318322888" version="6" timestamp="2009-10-02T19:46:35Z" uid="86259" user="hasse_osm_korinthenkacker" changeset="2716821" lat="47.8841155" lon="11.7125317">
    <tag k="addr:city" v="Holzkirchen"/>
    <tag k="addr:country" v="DE"/>
    <tag k="addr:housenumber" v="23"/>
    <tag k="addr:postcode" v="83607"/>
    <tag k="addr:street" v="Rudolf-Diesel-Ring"/>
    <tag k="source" v="survey"/>
  </node>
  <node id="318322927" version="1" timestamp="2008-12-13T12:27:05Z" uid="58091" user="Andreas M" changeset="344092" lat="48.195939" lon="16.3401097"/>
  <node id="318322927" version="2" timestamp="2011-07-23T21:11:43Z" uid="494207" user="ckschwoedi" changeset="8810110" lat="48.1961585" lon="16.3407816"/>
  <node id="318322929" version="1" timestamp="2008-12-13T12:27:05Z" uid="58091" user="Andreas M" changeset="344092" lat="48.1962354" lon="16.3416812"/>
  <node id="318322929" version="2" timestamp="2011-04-21T11:03:38Z" uid="23292" user="Marko Knöbl" changeset="7924366" lat="48.1962508" lon="16.3416948"/>
  <node id="318322929" version="3" timestamp="2011-07-23T21:11:45Z" uid="494207" user="ckschwoedi" changeset="8810110" lat="48.1962508" lon="16.3416948"/>
  <node id="318322931" version="1" timestamp="2008-12-13T12:27:05Z" uid="58091" user="Andreas M" changeset="344092" lat="48.1959465" lon="16.3398888"/>
  <node id="318322931" version="2" timestamp="2011-07-23T21:11:43Z" uid="494207" user="ckschwoedi" changeset="8810110" lat="48.1960349" lon="16.3400859"/>
  <node id="318322933" version="1" timestamp="2008-12-13T12:27:05Z" uid="58091" user="Andreas M" changeset="344092" lat="48.1962808" lon="16.3417117"/>
  <node id="318322933" version="2" timestamp="2011-07-23T21:11:43Z" uid="494207" user="ckschwoedi" changeset="8810110" lat="48.1963013" lon="16.3415406"/>
  <node id="318322933" version="3" timestamp="2012-03-18T18:40:45Z" uid="54806" user="_al" changeset="11022520" lat="48.1963016" lon="16.3414845"/>
  <node id="318322937" version="1" timestamp="2008-12-13T12:27:06Z" uid="58091" user="Andreas M" changeset="344092" lat="48.1963886" lon="16.3416749"/>
  <node id="318322937" version="2" timestamp="2010-12-15T16:51:25Z" uid="49642" user="realadry" changeset="6669332" lat="48.1963886" lon="16.3416551"/>
  <node id="318322937" version="3" timestamp="2011-07-23T21:11:43Z" uid="494207" user="ckschwoedi" changeset="8810110" lat="48.1964141" lon="16.341648"/>
  <node id="318322937" version="4" timestamp="2012-03-18T18:40:45Z" uid="54806" user="_al" changeset="11022520" lat="48.196449" lon="16.341608"/>
  <node id="318322940" version="6" timestamp="2009-10-02T19:46:35Z" uid="86259" user="hasse_osm_korinthenkacker" changeset="2716821" lat="47.8839946" lon="11.7128836">
    <tag k="addr:city" v="Holzkirchen"/>
    <tag k="addr:country" v="DE"/>
    <tag k="addr:housenumber" v="23a"/>
    <tag k="addr:postcode" v="83607"/>
    <tag k="addr:street" v="Rudolf-Diesel-Ring"/>
    <tag k="source" v="survey"/>
  </node>
  <node id="318323688" version="4" timestamp="2009-10-02T19:46:34Z" uid="86259" user="hasse_osm_korinthenkacker" changeset="2716821" lat="47.8842939" lon="11.7121618">
    <tag k="addr:city" v="Holzkirchen"/>
    <tag k="addr:country" v="DE"/>
    <tag k="addr:housenumber" v="17"/>
    <tag k="addr:postcode" v="83607"/>
    <tag k="addr:street" v="Rudolf-Diesel-Ring"/>
    <tag k="source" v="survey"/>
  </node>
  <node id="318323756" version="6" timestamp="2009-10-02T19:46:35Z" uid="86259" user="hasse_osm_korinthenkacker" changeset="2716821" lat="47.8841558" lon="11.711579">
    <tag k="addr:city" v="Holzkirchen"/>
    <tag k="addr:country" v="DE"/>
    <tag k="addr:housenumber" v="15"/>
    <tag k="addr:postcode" v="83607"/>
    <tag k="addr:street" v="Rudolf-Diesel-Ring"/>
    <tag k="source" v="survey"/>
  </node>
  <node id="318323875" version="6" timestamp="2009-10-02T19:46:04Z" uid="86259" user="hasse_osm_korinthenkacker" changeset="2716821" lat="47.8836492" lon="11.7106941">
    <tag k="addr:city" v="Holzkirchen"/>
    <tag k="addr:country" v="DE"/>
    <tag k="addr:housenumber" v="13"/>
    <tag k="addr:postcode" v="83607"/>
    <tag k="addr:street" v="Rudolf-Diesel-Ring"/>
    <tag k="source" v="survey"/>
  </node>
  <node id="318324208" version="2" timestamp="2010-05-25T21:16:53Z" uid="9581" user="Lobelt" changeset="4808350" lat="49.459898" lon="8.4276883">
    <tag k="name" v="Schillerschule"/>
    <tag k="railway" v="tram_stop"/>
  </node>
  <node id="318324208" version="3" timestamp="2011-01-22T07:19:34Z" uid="290680" user="wheelmap_visitor" changeset="7047393" lat="49.459898" lon="8.4276883">
    <tag k="name" v="Schillerschule"/>
    <tag k="railway" v="tram_stop"/>
    <tag k="wheelchair" v="yes"/>
  </node>
  <node id="318324208" version="4" timestamp="2011-04-05T16:04:14Z" uid="245137" user="maurice2010" changeset="7776213" lat="49.4598928" lon="8.4276776">
    <tag k="name" v="Schillerschule"/>
    <tag k="railway" v="tram_stop"/>
    <tag k="wheelchair" v="yes"/>
  </node>
  <node id="318324220" version="6" timestamp="2009-10-02T20:04:08Z" uid="86259" user="hasse_osm_korinthenkacker" changeset="2717024" lat="47.8826674" lon="11.7115879">
    <tag k="addr:city" v="Holzkirchen"/>
    <tag k="addr:country" v="DE"/>
    <tag k="addr:housenumber" v="4"/>
    <tag k="addr:postcode" v="83607"/>
    <tag k="addr:street" v="Rudolf-Diesel-Ring"/>
    <tag k="name" v="ALDI"/>
    <tag k="shop" v="supermarket"/>
  </node>
  <node id="318324220" version="7" timestamp="2010-12-27T16:51:23Z" uid="42393" user="mawi42" changeset="6779651" lat="47.8826672" lon="11.7115449">
    <tag k="addr:city" v="Holzkirchen"/>
    <tag k="addr:country" v="DE"/>
    <tag k="addr:housenumber" v="4"/>
    <tag k="addr:postcode" v="83607"/>
    <tag k="addr:street" v="Rudolf-Diesel-Ring"/>
    <tag k="name" v="ALDI"/>
    <tag k="shop" v="supermarket"/>
  </node>
  <node id="318324220" version="8" timestamp="2011-04-04T22:06:26Z" uid="418282" user="Norbert18" changeset="7770121" lat="47.8826672" lon="11.7115449">
    <tag k="addr:city" v="Holzkirchen"/>
    <tag k="addr:country" v="DE"/>
    <tag k="addr:housenumber" v="4"/>
    <tag k="addr:postcode" v="83607"/>
    <tag k="addr:street" v="Rudolf-Diesel-Ring"/>
    <tag k="name" v="ALDI"/>
    <tag k="shop" v="supermarket"/>
  </node>
  <node id="318324776" version="5" timestamp="2009-10-02T20:04:07Z" uid="86259" user="hasse_osm_korinthenkacker" changeset="2717024" lat="47.879207" lon="11.7159379">
    <tag k="addr:city" v="Holzkirchen"/>
    <tag k="addr:country" v="DE"/>
    <tag k="addr:housenumber" v="1"/>
    <tag k="addr:postcode" v="83607"/>
    <tag k="addr:street" v="Gewerbering"/>
  </node>
  <node id="318324780" version="6" timestamp="2009-10-02T20:04:07Z" uid="86259" user="hasse_osm_korinthenkacker" changeset="2717024" lat="47.8793912" lon="11.7160666">
    <tag k="addr:city" v="Holzkirchen"/>
    <tag k="addr:country" v="DE"/>
    <tag k="addr:housenumber" v="3"/>
    <tag k="addr:postcode" v="83607"/>
    <tag k="addr:street" v="Gewerbering"/>
  </node>
  <node id="318324837" version="6" timestamp="2009-10-02T20:04:08Z" uid="86259" user="hasse_osm_korinthenkacker" changeset="2717024" lat="47.8801063" lon="11.716394">
    <tag k="addr:city" v="Holzkirchen"/>
    <tag k="addr:country" v="DE"/>
    <tag k="addr:housenumber" v="5"/>
    <tag k="addr:postcode" v="83607"/>
    <tag k="addr:street" v="Gewerbering"/>
  </node>
  <node id="318324895" version="6" timestamp="2009-10-02T20:04:07Z" uid="86259" user="hasse_osm_korinthenkacker" changeset="2717024" lat="47.8789756" lon="11.7167305">
    <tag k="addr:city" v="Holzkirchen"/>
    <tag k="addr:country" v="DE"/>
    <tag k="addr:housenumber" v="2"/>
    <tag k="addr:postcode" v="83607"/>
    <tag k="addr:street" v="Gewerbering"/>
  </node>
  <node id="318324958" version="6" timestamp="2009-10-02T20:04:06Z" uid="86259" user="hasse_osm_korinthenkacker" changeset="2717024" lat="47.8785612" lon="11.7168078">
    <tag k="addr:city" v="Holzkirchen"/>
    <tag k="addr:country" v="DE"/>
    <tag k="addr:housenumber" v="2a"/>
    <tag k="addr:postcode" v="83607"/>
    <tag k="addr:street" v="Gewerbering"/>
  </node>
  <node id="318325050" version="7" timestamp="2009-10-02T20:04:07Z" uid="86259" user="hasse_osm_korinthenkacker" changeset="2717024" lat="47.879465" lon="11.7166704">
    <tag k="addr:city" v="Holzkirchen"/>
    <tag k="addr:country" v="DE"/>
    <tag k="addr:housenumber" v="4"/>
    <tag k="addr:postcode" v="83607"/>
    <tag k="addr:street" v="Gewerbering"/>
  </node>
  <node id="318325062" version="8" timestamp="2009-10-02T20:04:09Z" uid="86259" user="hasse_osm_korinthenkacker" changeset="2717024" lat="47.8796952" lon="11.7169794">
    <tag k="addr:city" v="Holzkirchen"/>
    <tag k="addr:country" v="DE"/>
    <tag k="addr:housenumber" v="6"/>
    <tag k="addr:postcode" v="83607"/>
    <tag k="addr:street" v="Gewerbering"/>
  </node>
  <node id="318325073" version="6" timestamp="2009-10-02T20:04:10Z" uid="86259" user="hasse_osm_korinthenkacker" changeset="2717024" lat="47.8799427" lon="11.7169279">
    <tag k="addr:city" v="Holzkirchen"/>
    <tag k="addr:country" v="DE"/>
    <tag k="addr:housenumber" v="8a"/>
    <tag k="addr:postcode" v="83607"/>
    <tag k="addr:street" v="Gewerbering"/>
  </node>
  <node id="318325086" version="6" timestamp="2009-10-02T20:04:10Z" uid="86259" user="hasse_osm_korinthenkacker" changeset="2717024" lat="47.8798909" lon="11.7171682">
    <tag k="addr:city" v="Holzkirchen"/>
    <tag k="addr:country" v="DE"/>
    <tag k="addr:housenumber" v="8"/>
    <tag k="addr:postcode" v="83607"/>
    <tag k="addr:street" v="Gewerbering"/>
  </node>
  <node id="318325156" version="7" timestamp="2009-10-02T20:04:09Z" uid="86259" user="hasse_osm_korinthenkacker" changeset="2717024" lat="47.8802197" lon="11.7170562">
    <tag k="addr:city" v="Holzkirchen"/>
    <tag k="addr:country" v="DE"/>
    <tag k="addr:housenumber" v="10"/>
    <tag k="addr:postcode" v="83607"/>
    <tag k="addr:street" v="Gewerbering"/>
  </node>
  <node id="318325184" version="7" timestamp="2009-10-02T20:04:09Z" uid="86259" user="hasse_osm_korinthenkacker" changeset="2717024" lat="47.8801679" lon="11.7172708">
    <tag k="addr:city" v="Holzkirchen"/>
    <tag k="addr:country" v="DE"/>
    <tag k="addr:housenumber" v="10a"/>
    <tag k="addr:postcode" v="83607"/>
    <tag k="addr:street" v="Gewerbering"/>
  </node>
  <node id="318325788" version="2" timestamp="2011-02-22T21:24:54Z" uid="20587" user="balrog-kun" changeset="7366074" lat="52.5841606" lon="20.7662441"/>
  <node id="318325791" version="3" timestamp="2011-02-22T21:24:41Z" uid="20587" user="balrog-kun" changeset="7366074" lat="52.5840121" lon="20.7666643"/>
  <node id="318325983" version="4" timestamp="2009-10-02T20:04:08Z" uid="86259" user="hasse_osm_korinthenkacker" changeset="2717024" lat="47.8809142" lon="11.7165614">
    <tag k="addr:city" v="Holzkirchen"/>
    <tag k="addr:country" v="DE"/>
    <tag k="addr:housenumber" v="14b"/>
    <tag k="addr:postcode" v="83607"/>
    <tag k="addr:street" v="Gewerbering"/>
  </node>
  <node id="318326034" version="4" timestamp="2009-10-02T20:04:10Z" uid="86259" user="hasse_osm_korinthenkacker" changeset="2717024" lat="47.8807703" lon="11.7175485">
    <tag k="addr:city" v="Holzkirchen"/>
    <tag k="addr:country" v="DE"/>
    <tag k="addr:housenumber" v="12a"/>
    <tag k="addr:postcode" v="83607"/>
    <tag k="addr:street" v="Gewerbering"/>
  </node>
  <node id="318326270" version="5" timestamp="2009-10-02T20:04:10Z" uid="86259" user="hasse_osm_korinthenkacker" changeset="2717024" lat="47.8803938" lon="11.7173164">
    <tag k="addr:city" v="Holzkirchen"/>
    <tag k="addr:country" v="DE"/>
    <tag k="addr:housenumber" v="12"/>
    <tag k="addr:postcode" v="83607"/>
    <tag k="addr:street" v="Gewerbering"/>
  </node>
  <node id="318326340" version="5" timestamp="2009-10-02T20:04:09Z" uid="86259" user="hasse_osm_korinthenkacker" changeset="2717024" lat="47.8818156" lon="11.7151674">
    <tag k="addr:city" v="Holzkirchen"/>
    <tag k="addr:country" v="DE"/>
    <tag k="addr:housenumber" v="10"/>
    <tag k="addr:postcode" v="83607"/>
    <tag k="addr:street" v="Raiffeisenstraße"/>
  </node>
  <node id="318326345" version="3" timestamp="2010-04-03T12:48:45Z" uid="20587" user="balrog-kun" changeset="4312260" lat="51.5292053" lon="20.0491177"/>
  <node id="318326531" version="2" timestamp="2010-04-03T12:48:45Z" uid="20587" user="balrog-kun" changeset="4312260" lat="51.5237612" lon="20.072083"/>
  <node id="318326532" version="2" timestamp="2010-04-03T12:48:45Z" uid="20587" user="balrog-kun" changeset="4312260" lat="51.5203308" lon="20.1010223"/>
  <node id="318326549" version="2" timestamp="2010-04-03T12:48:43Z" uid="20587" user="balrog-kun" changeset="4312260" lat="51.475447" lon="20.156718"/>
  <node id="318326550" version="2" timestamp="2010-04-03T12:48:43Z" uid="20587" user="balrog-kun" changeset="4312260" lat="51.473806" lon="20.1605692"/>
  <node id="318326551" version="2" timestamp="2010-04-03T12:48:43Z" uid="20587" user="balrog-kun" changeset="4312260" lat="51.4728064" lon="20.1646146"/>
  <node id="318326552" version="2" timestamp="2010-04-03T12:48:43Z" uid="20587" user="balrog-kun" changeset="4312260" lat="51.4725461" lon="20.1681225"/>
  <node id="318326553" version="2" timestamp="2010-04-03T12:48:43Z" uid="20587" user="balrog-kun" changeset="4312260" lat="51.4726536" lon="20.1708011"/>
  <node id="318326554" version="2" timestamp="2010-04-03T12:48:43Z" uid="20587" user="balrog-kun" changeset="4312260" lat="51.4730591" lon="20.1749695"/>
  <node id="318326555" version="2" timestamp="2010-04-03T12:48:43Z" uid="20587" user="balrog-kun" changeset="4312260" lat="51.4786272" lon="20.2224687"/>
  <node id="318326557" version="2" timestamp="2010-04-03T12:48:43Z" uid="20587" user="balrog-kun" changeset="4312260" lat="51.4807961" lon="20.2411947"/>
  <node id="318326558" version="2" timestamp="2010-04-03T12:48:43Z" uid="20587" user="balrog-kun" changeset="4312260" lat="51.4817426" lon="20.2521617"/>
  <node id="318326588" version="5" timestamp="2009-10-02T19:46:34Z" uid="86259" user="hasse_osm_korinthenkacker" changeset="2716821" lat="47.8832146" lon="11.7136016">
    <tag k="addr:city" v="Holzkirchen"/>
    <tag k="addr:country" v="DE"/>
    <tag k="addr:housenumber" v="20"/>
    <tag k="addr:postcode" v="83607"/>
    <tag k="addr:street" v="Raiffeisenstraße"/>
  </node>
  <node id="318326623" version="5" timestamp="2009-10-02T20:04:09Z" uid="86259" user="hasse_osm_korinthenkacker" changeset="2717024" lat="47.8820746" lon="11.7149099">
    <tag k="addr:city" v="Holzkirchen"/>
    <tag k="addr:country" v="DE"/>
    <tag k="addr:housenumber" v="12"/>
    <tag k="addr:postcode" v="83607"/>
    <tag k="addr:street" v="Raiffeisenstraße"/>
  </node>
  <node id="318326646" version="6" timestamp="2009-10-02T20:04:09Z" uid="86259" user="hasse_osm_korinthenkacker" changeset="2717024" lat="47.8823567" lon="11.7147211">
    <tag k="addr:city" v="Holzkirchen"/>
    <tag k="addr:country" v="DE"/>
    <tag k="addr:housenumber" v="14"/>
    <tag k="addr:postcode" v="83607"/>
    <tag k="addr:street" v="Raiffeisenstraße"/>
  </node>
  <node id="318326663" version="5" timestamp="2009-10-02T20:04:09Z" uid="86259" user="hasse_osm_korinthenkacker" changeset="2717024" lat="47.8826444" lon="11.7143345">
    <tag k="addr:city" v="Holzkirchen"/>
    <tag k="addr:country" v="DE"/>
    <tag k="addr:housenumber" v="16"/>
    <tag k="addr:postcode" v="83607"/>
    <tag k="addr:street" v="Raiffeisenstraße"/>
  </node>
  <node id="318326681" version="5" timestamp="2009-10-02T20:04:08Z" uid="86259" user="hasse_osm_korinthenkacker" changeset="2717024" lat="47.8829437" lon="11.7140083">
    <tag k="addr:city" v="Holzkirchen"/>
    <tag k="addr:country" v="DE"/>
    <tag k="addr:housenumber" v="18"/>
    <tag k="addr:postcode" v="83607"/>
    <tag k="addr:street" v="Raiffeisenstraße"/>
  </node>
  <node id="318326798" version="3" timestamp="2010-07-19T00:31:30Z" uid="4467" user="Rosscoe" changeset="5256776" lat="-27.4229858" lon="153.024576"/>
  <node id="318326904" version="2" timestamp="2010-04-03T12:48:44Z" uid="20587" user="balrog-kun" changeset="4312260" lat="51.4787893" lon="20.3485087"/>
  <node id="318328622" version="1" timestamp="2008-12-13T13:00:13Z" uid="52053" user="JimBanne" changeset="358198" lat="51.520999" lon="6.3387138">
    <tag k="created_by" v="Potlatch 0.10f"/>
    <tag k="highway" v="bus stop"/>
  </node>
  <node id="318328622" version="2" timestamp="2008-12-13T13:00:34Z" uid="52053" user="JimBanne" changeset="358198" lat="51.520999" lon="6.3387138">
    <tag k="created_by" v="Potlatch 0.10f"/>
    <tag k="highway" v="bus stop"/>
    <tag k="line" v="SL4\sSB30\s32\s67"/>
  </node>
  <node id="318328622" version="3" timestamp="2008-12-13T13:00:59Z" uid="52053" user="JimBanne" changeset="358198" lat="51.520999" lon="6.3387138">
    <tag k="created_by" v="Potlatch 0.10f"/>
    <tag k="highway" v="bus stop"/>
    <tag k="line" v="SL4\sSB30\s32\s67"/>
    <tag k="name" v="Fuerstenberger Str."/>
    <tag k="shelter" v="yes"/>
  </node>
  <node id="318328622" version="4" timestamp="2008-12-14T03:02:12Z" uid="6975" user="ulfl" changeset="365670" lat="51.520999" lon="6.3387138">
    <tag k="highway" v="bus_stop"/>
    <tag k="line" v="SL4\\sSB30\\s32\\s67"/>
    <tag k="name" v="Fuerstenberger Str."/>
    <tag k="shelter" v="yes"/>
  </node>
  <node id="318328622" version="5" timestamp="2008-12-18T09:29:53Z" uid="70696" user="xybot" changeset="465787" lat="51.520999" lon="6.3387138">
    <tag k="created_by" v="xybot"/>
    <tag k="highway" v="bus_stop"/>
    <tag k="line" v="SL4\\sSB30\\s32\\s67"/>
    <tag k="name" v="Fuerstenberger Straße"/>
    <tag k="shelter" v="yes"/>
  </node>
  <node id="318328622" version="6" timestamp="2008-12-30T14:57:23Z" uid="52053" user="JimBanne" changeset="676236" lat="51.5210008" lon="6.3387176">
    <tag k="created_by" v="Potlatch 0.10f"/>
    <tag k="highway" v="bus_stop"/>
    <tag k="line" v="SL4;SB30"/>
    <tag k="name" v="Fuerstenberger Straße"/>
    <tag k="shelter" v="yes"/>
  </node>
  <node id="318328622" version="7" timestamp="2010-08-05T00:31:54Z" uid="24920" user="Schusch" changeset="5404228" lat="51.5210008" lon="6.3387176">
    <tag k="highway" v="bus_stop"/>
    <tag k="line" v="SL4;SB30"/>
    <tag k="name" v="Fuerstenberger Straße"/>
    <tag k="shelter" v="yes"/>
  </node>
  <node id="318328622" version="8" timestamp="2010-12-01T08:59:22Z" uid="52053" user="JimBanne" changeset="6501364" lat="51.5210051" lon="6.3390573">
    <tag k="highway" v="bus_stop"/>
    <tag k="line" v="SL4;SB30"/>
    <tag k="name" v="Fuerstenberger Straße"/>
    <tag k="shelter" v="yes"/>
  </node>
  <node id="318328622" version="9" timestamp="2010-12-01T09:13:05Z" uid="52053" user="JimBanne" changeset="6501472" lat="51.5210051" lon="6.3390574">
    <tag k="highway" v="bus_stop"/>
    <tag k="line" v="SL4;SB30,67"/>
    <tag k="name" v="Fuerstenberger Straße"/>
    <tag k="shelter" v="yes"/>
  </node>
  <node id="318328622" version="10" timestamp="2011-08-31T05:19:52Z" uid="153031" user="ajoessen" changeset="9173143" lat="51.5210051" lon="6.3390574">
    <tag k="highway" v="bus_stop"/>
    <tag k="line" v="SL4;SB30,67"/>
    <tag k="name" v="Fürstenberger Straße"/>
    <tag k="shelter" v="yes"/>
  </node>
  <node id="318328622" version="11" timestamp="2011-09-21T20:05:41Z" uid="80537" user="Dr S Görg" changeset="9363491" lat="51.520997" lon="6.3391987">
    <tag k="highway" v="bus_stop"/>
    <tag k="line" v="SL4;SB30,67"/>
    <tag k="name" v="Fürstenberger Straße"/>
    <tag k="shelter" v="yes"/>
  </node>
  <node id="318328887" version="5" timestamp="2009-10-02T19:45:44Z" uid="86259" user="hasse_osm_korinthenkacker" changeset="2716821" lat="47.8857959" lon="11.691786">
    <tag k="addr:city" v="Holzkirchen"/>
    <tag k="addr:country" v="DE"/>
    <tag k="addr:housenumber" v="62"/>
    <tag k="addr:postcode" v="83607"/>
    <tag k="addr:street" v="Münchner Straße"/>
  </node>
  <node id="318328887" version="6" timestamp="2011-06-08T14:48:16Z" uid="42393" user="mawi42" changeset="8380269" lat="47.8857959" lon="11.691786">
    <tag k="addr:city" v="Holzkirchen"/>
    <tag k="addr:country" v="DE"/>
    <tag k="addr:housenumber" v="62"/>
    <tag k="addr:postcode" v="83607"/>
    <tag k="addr:street" v="Münchner Straße"/>
    <tag k="opening_hours" v="Mo-Sa 07:00-20:00"/>
  </node>
  <node id="318328887" version="7" timestamp="2011-06-09T08:06:47Z" uid="42393" user="mawi42" changeset="8386083" lat="47.8857959" lon="11.6917859">
    <tag k="addr:city" v="Holzkirchen"/>
    <tag k="addr:country" v="DE"/>
    <tag k="addr:housenumber" v="62"/>
    <tag k="addr:postcode" v="83607"/>
    <tag k="addr:street" v="Münchner Straße"/>
  </node>
  <node id="318329735" version="4" timestamp="2009-10-02T19:45:44Z" uid="86259" user="hasse_osm_korinthenkacker" changeset="2716821" lat="47.8863024" lon="11.6917603">
    <tag k="addr:city" v="Holzkirchen"/>
    <tag k="addr:country" v="DE"/>
    <tag k="addr:housenumber" v="3a"/>
    <tag k="addr:postcode" v="83607"/>
    <tag k="addr:street" v="Reitschulweg"/>
  </node>
  <node id="318329880" version="4" timestamp="2009-10-02T19:45:44Z" uid="86259" user="hasse_osm_korinthenkacker" changeset="2716821" lat="47.8862391" lon="11.6912024">
    <tag k="addr:city" v="Holzkirchen"/>
    <tag k="addr:country" v="DE"/>
    <tag k="addr:housenumber" v="3"/>
    <tag k="addr:postcode" v="83607"/>
    <tag k="addr:street" v="Reitschulweg"/>
  </node>
  <node id="318329884" version="5" timestamp="2009-10-02T19:45:46Z" uid="86259" user="hasse_osm_korinthenkacker" changeset="2716821" lat="47.8878214" lon="11.6906916">
    <tag k="addr:city" v="Holzkirchen"/>
    <tag k="addr:country" v="DE"/>
    <tag k="addr:housenumber" v="7"/>
    <tag k="addr:postcode" v="83607"/>
    <tag k="addr:street" v="Reitschulweg"/>
  </node>
</osm>
