<?xml version='1.0' encoding='UTF-8'?>
<osm version="0.6" generator="libosmium/2.20.0">
  <node id="318421752" version="1" timestamp="2008-12-13T18:47:58Z" uid="46145" user="Jacques_N" changeset="357835" lat="28.0914948" lon="-17.1106091">
    <tag k="name" v="Bar Heladeria La Botellita"/>
    <tag k="shop" v="icecream"/>
  </node>
  <node id="318421752" version="2" timestamp="2008-12-14T11:43:35Z" uid="6975" user="ulfl" changeset="366940" lat="28.0914948" lon="-17.1106091">
    <tag k="amenity" v="ice_cream"/>
    <tag k="name" v="Bar Heladeria La Botellita"/>
  </node>
  <node id="318423427" version="5" timestamp="2009-10-02T19:45:27Z" uid="86259" user="hasse_osm_korinthenkacker" changeset="2716821" lat="47.8852896" lon="11.6861102">
    <tag k="addr:city" v="Holzkirchen"/>
    <tag k="addr:country" v="DE"/>
    <tag k="addr:housenumber" v="18"/>
    <tag k="addr:postcode" v="83607"/>
    <tag k="addr:street" v="Kohlstattstraße"/>
  </node>
  <node id="318423440" version="5" timestamp="2009-10-02T19:45:28Z" uid="86259" user="hasse_osm_korinthenkacker" changeset="2716821" lat="47.8854163" lon="11.686402">
    <tag k="addr:city" v="Holzkirchen"/>
    <tag k="addr:country" v="DE"/>
    <tag k="addr:housenumber" v="16"/>
    <tag k="addr:postcode" v="83607"/>
    <tag k="addr:street" v="Kohlstattstraße"/>
  </node>
  <node id="318423444" version="5" timestamp="2009-10-02T19:45:27Z" uid="86259" user="hasse_osm_korinthenkacker" changeset="2716821" lat="47.8855314" lon="11.6866852">
    <tag k="addr:city" v="Holzkirchen"/>
    <tag k="addr:country" v="DE"/>
    <tag k="addr:housenumber" v="14"/>
    <tag k="addr:postcode" v="83607"/>
    <tag k="addr:street" v="Kohlstattstraße"/>
  </node>
  <node id="318423465" version="4" timestamp="2009-10-02T19:45:31Z" uid="86259" user="hasse_osm_korinthenkacker" changeset="2716821" lat="47.8856695" lon="11.6870457">
    <tag k="addr:city" v="Holzkirchen"/>
    <tag k="addr:country" v="DE"/>
    <tag k="addr:housenumber" v="12"/>
    <tag k="addr:postcode" v="83607"/>
    <tag k="addr:street" v="Kohlstattstraße"/>
  </node>
  <node id="318423495" version="5" timestamp="2009-10-02T19:45:30Z" uid="86259" user="hasse_osm_korinthenkacker" changeset="2716821" lat="47.885894" lon="11.686814">
    <tag k="addr:city" v="Holzkirchen"/>
    <tag k="addr:country" v="DE"/>
    <tag k="addr:housenumber" v="1"/>
    <tag k="addr:postcode" v="83607"/>
    <tag k="addr:street" v="Meilerstraße"/>
  </node>
  <node id="318423510" version="5" timestamp="2009-10-02T19:45:29Z" uid="86259" user="hasse_osm_korinthenkacker" changeset="2716821" lat="47.8860667" lon="11.6866681">
    <tag k="addr:city" v="Holzkirchen"/>
    <tag k="addr:country" v="DE"/>
    <tag k="addr:housenumber" v="5"/>
    <tag k="addr:postcode" v="83607"/>
    <tag k="addr:street" v="Meilerstraße"/>
  </node>
  <node id="318423527" version="5" timestamp="2009-10-02T19:45:28Z" uid="86259" user="hasse_osm_korinthenkacker" changeset="2716821" lat="47.8859573" lon="11.6860243">
    <tag k="addr:city" v="Holzkirchen"/>
    <tag k="addr:country" v="DE"/>
    <tag k="addr:housenumber" v="11"/>
    <tag k="addr:postcode" v="83607"/>
    <tag k="addr:street" v="Meilerstraße"/>
  </node>
  <node id="318423539" version="5" timestamp="2009-10-02T19:45:26Z" uid="86259" user="hasse_osm_korinthenkacker" changeset="2716821" lat="47.8859343" lon="11.6858098">
    <tag k="addr:city" v="Holzkirchen"/>
    <tag k="addr:country" v="DE"/>
    <tag k="addr:housenumber" v="15"/>
    <tag k="addr:postcode" v="83607"/>
    <tag k="addr:street" v="Meilerstraße"/>
  </node>
  <node id="318423553" version="5" timestamp="2009-10-02T19:45:25Z" uid="86259" user="hasse_osm_korinthenkacker" changeset="2716821" lat="47.8854466" lon="11.6858806">
    <tag k="addr:city" v="Holzkirchen"/>
    <tag k="addr:country" v="DE"/>
    <tag k="addr:housenumber" v="13"/>
    <tag k="addr:postcode" v="83607"/>
    <tag k="addr:street" v="Am Hüllfeld"/>
  </node>
  <node id="318423590" version="7" timestamp="2009-10-02T19:45:28Z" uid="86259" user="hasse_osm_korinthenkacker" changeset="2716821" lat="47.8857352" lon="11.686331">
    <tag k="addr:city" v="Holzkirchen"/>
    <tag k="addr:country" v="DE"/>
    <tag k="addr:housenumber" v="3"/>
    <tag k="addr:postcode" v="83607"/>
    <tag k="addr:street" v="Am Hüllfeld"/>
  </node>
  <node id="318423590" version="8" timestamp="2010-10-06T15:56:44Z" uid="42393" user="mawi42" changeset="5970581" lat="47.8857417" lon="11.6863423">
    <tag k="addr:city" v="Holzkirchen"/>
    <tag k="addr:country" v="DE"/>
    <tag k="addr:housenumber" v="3"/>
    <tag k="addr:postcode" v="83607"/>
    <tag k="addr:street" v="Am Hüllfeld"/>
  </node>
  <node id="318424071" version="4" timestamp="2009-10-02T19:45:24Z" uid="86259" user="hasse_osm_korinthenkacker" changeset="2716821" lat="47.8852263" lon="11.6857926">
    <tag k="addr:city" v="Holzkirchen"/>
    <tag k="addr:country" v="DE"/>
    <tag k="addr:housenumber" v="20a"/>
    <tag k="addr:postcode" v="83607"/>
    <tag k="addr:street" v="Kohlstattstraße"/>
  </node>
  <node id="318424425" version="4" timestamp="2009-10-02T19:45:30Z" uid="86259" user="hasse_osm_korinthenkacker" changeset="2716821" lat="47.8857329" lon="11.6869771">
    <tag k="addr:city" v="Holzkirchen"/>
    <tag k="addr:country" v="DE"/>
    <tag k="addr:housenumber" v="12a"/>
    <tag k="addr:postcode" v="83607"/>
    <tag k="addr:street" v="Kohlstattstraße"/>
  </node>
  <node id="318424647" version="4" timestamp="2009-10-02T19:45:26Z" uid="86259" user="hasse_osm_korinthenkacker" changeset="2716821" lat="47.8855947" lon="11.6866337">
    <tag k="addr:city" v="Holzkirchen"/>
    <tag k="addr:country" v="DE"/>
    <tag k="addr:housenumber" v="14a"/>
    <tag k="addr:postcode" v="83607"/>
    <tag k="addr:street" v="Kohlstattstraße"/>
  </node>
  <node id="318424776" version="5" timestamp="2009-10-02T19:45:26Z" uid="86259" user="hasse_osm_korinthenkacker" changeset="2716821" lat="47.8854738" lon="11.6863591">
    <tag k="addr:city" v="Holzkirchen"/>
    <tag k="addr:country" v="DE"/>
    <tag k="addr:housenumber" v="16a"/>
    <tag k="addr:postcode" v="83607"/>
    <tag k="addr:street" v="Kohlstattstraße"/>
  </node>
  <node id="318424958" version="4" timestamp="2009-10-02T19:45:26Z" uid="86259" user="hasse_osm_korinthenkacker" changeset="2716821" lat="47.8853587" lon="11.6860673">
    <tag k="addr:city" v="Holzkirchen"/>
    <tag k="addr:country" v="DE"/>
    <tag k="addr:housenumber" v="18a"/>
    <tag k="addr:postcode" v="83607"/>
    <tag k="addr:street" v="Kohlstattstraße"/>
  </node>
  <node id="318425159" version="2" timestamp="2009-02-14T15:55:36Z" uid="64977" user="CLoeser" changeset="421710" lat="53.954612" lon="9.5090281"/>
  <node id="318425160" version="2" timestamp="2009-02-14T15:55:36Z" uid="64977" user="CLoeser" changeset="421710" lat="53.9548027" lon="9.5091268"/>
  <node id="318425161" version="2" timestamp="2009-02-14T15:55:36Z" uid="64977" user="CLoeser" changeset="421710" lat="53.9556907" lon="9.5104948"/>
  <node id="318425162" version="2" timestamp="2009-02-14T15:55:36Z" uid="64977" user="CLoeser" changeset="421710" lat="53.9564083" lon="9.5115463"/>
  <node id="318425163" version="2" timestamp="2009-02-14T15:55:36Z" uid="64977" user="CLoeser" changeset="421710" lat="53.9565643" lon="9.5120921"/>
  <node id="318425163" version="3" timestamp="2011-04-09T18:26:18Z" uid="75388" user="Svalbard" changeset="7815908" lat="53.9565521" lon="9.5119471"/>
  <node id="318425164" version="2" timestamp="2009-02-14T15:55:36Z" uid="64977" user="CLoeser" changeset="421710" lat="53.9566737" lon="9.5124666"/>
  <node id="318425164" version="3" timestamp="2009-02-14T17:51:53Z" uid="64977" user="CLoeser" changeset="421710" lat="53.9566737" lon="9.5124666"/>
  <node id="318425166" version="2" timestamp="2009-02-14T17:51:53Z" uid="64977" user="CLoeser" changeset="421710" lat="53.9572757" lon="9.5168032"/>
  <node id="318425167" version="2" timestamp="2009-02-14T17:51:53Z" uid="64977" user="CLoeser" changeset="421710" lat="53.9579736" lon="9.5165741"/>
  <node id="318425167" version="3" timestamp="2011-05-22T14:28:34Z" uid="75388" user="Svalbard" changeset="8216837" lat="53.9579736" lon="9.5165741"/>
  <node id="318425168" version="2" timestamp="2009-02-14T17:51:53Z" uid="64977" user="CLoeser" changeset="421710" lat="53.958858" lon="9.5162651"/>
  <node id="318425168" version="3" timestamp="2011-05-22T14:28:34Z" uid="75388" user="Svalbard" changeset="8216837" lat="53.958858" lon="9.5162651"/>
  <node id="318425169" version="2" timestamp="2009-02-14T17:51:53Z" uid="64977" user="CLoeser" changeset="421710" lat="53.9590018" lon="9.5162225"/>
  <node id="318425170" version="2" timestamp="2009-02-14T17:51:53Z" uid="64977" user="CLoeser" changeset="421710" lat="53.9608345" lon="9.5156578"/>
  <node id="318425174" version="3" timestamp="2009-01-20T19:58:22Z" uid="64977" user="CLoeser" changeset="818427" lat="53.957345" lon="9.5166294"/>
  <node id="318425174" version="4" timestamp="2009-01-30T11:27:00Z" uid="64977" user="CLoeser" changeset="856421" lat="53.957345" lon="9.5166294"/>
  <node id="318425174" version="5" timestamp="2011-04-09T18:26:36Z" uid="75388" user="Svalbard" changeset="7815908" lat="53.957345" lon="9.5166294"/>
  <node id="318425175" version="3" timestamp="2009-01-20T19:58:23Z" uid="64977" user="CLoeser" changeset="818427" lat="53.9573811" lon="9.5167596"/>
  <node id="318425175" version="4" timestamp="2009-01-30T11:27:00Z" uid="64977" user="CLoeser" changeset="856421" lat="53.9573811" lon="9.5167596"/>
  <node id="318425175" version="5" timestamp="2009-02-14T17:51:53Z" uid="64977" user="CLoeser" changeset="421710" lat="53.9573811" lon="9.5167596"/>
  <node id="318425245" version="3" timestamp="2009-01-24T09:59:05Z" uid="27600" user="Islanit" changeset="831359" lat="48.2398554" lon="12.6907546"/>
  <node id="318425246" version="3" timestamp="2009-01-24T09:59:06Z" uid="27600" user="Islanit" changeset="831359" lat="48.2395639" lon="12.6910808"/>
  <node id="318425250" version="3" timestamp="2009-01-24T09:59:06Z" uid="27600" user="Islanit" changeset="831359" lat="48.2384263" lon="12.6891754"/>
  <node id="318425262" version="5" timestamp="2009-10-02T19:45:30Z" uid="86259" user="hasse_osm_korinthenkacker" changeset="2716821" lat="47.8859516" lon="11.6867453">
    <tag k="addr:city" v="Holzkirchen"/>
    <tag k="addr:country" v="DE"/>
    <tag k="addr:housenumber" v="3"/>
    <tag k="addr:postcode" v="83607"/>
    <tag k="addr:street" v="Meilerstraße"/>
  </node>
  <node id="318425284" version="5" timestamp="2009-10-02T19:45:29Z" uid="86259" user="hasse_osm_korinthenkacker" changeset="2716821" lat="47.88613" lon="11.6866166">
    <tag k="addr:city" v="Holzkirchen"/>
    <tag k="addr:country" v="DE"/>
    <tag k="addr:housenumber" v="7"/>
    <tag k="addr:postcode" v="83607"/>
    <tag k="addr:street" v="Meilerstraße"/>
  </node>
  <node id="318425563" version="5" timestamp="2009-10-02T19:45:29Z" uid="86259" user="hasse_osm_korinthenkacker" changeset="2716821" lat="47.8859861" lon="11.6861188">
    <tag k="addr:city" v="Holzkirchen"/>
    <tag k="addr:country" v="DE"/>
    <tag k="addr:housenumber" v="9"/>
    <tag k="addr:postcode" v="83607"/>
    <tag k="addr:street" v="Meilerstraße"/>
  </node>
  <node id="318425567" version="6" timestamp="2009-10-02T19:45:25Z" uid="86259" user="hasse_osm_korinthenkacker" changeset="2716821" lat="47.8859286" lon="11.6859213">
    <tag k="addr:city" v="Holzkirchen"/>
    <tag k="addr:country" v="DE"/>
    <tag k="addr:housenumber" v="13"/>
    <tag k="addr:postcode" v="83607"/>
    <tag k="addr:street" v="Meilerstraße"/>
  </node>
  <node id="318425569" version="5" timestamp="2009-10-02T19:45:25Z" uid="86259" user="hasse_osm_korinthenkacker" changeset="2716821" lat="47.8858998" lon="11.6857154">
    <tag k="addr:city" v="Holzkirchen"/>
    <tag k="addr:country" v="DE"/>
    <tag k="addr:housenumber" v="17"/>
    <tag k="addr:postcode" v="83607"/>
    <tag k="addr:street" v="Meilerstraße"/>
  </node>
  <node id="318426499" version="3" timestamp="2009-01-24T09:59:09Z" uid="27600" user="Islanit" changeset="831359" lat="48.2402499" lon="12.7052257"/>
  <node id="318426502" version="3" timestamp="2009-01-24T09:59:09Z" uid="27600" user="Islanit" changeset="831359" lat="48.2398154" lon="12.7042472"/>
  <node id="318426523" version="4" timestamp="2009-01-24T09:59:09Z" uid="27600" user="Islanit" changeset="831359" lat="48.2399412" lon="12.702728"/>
  <node id="318426524" version="4" timestamp="2009-01-24T09:59:09Z" uid="27600" user="Islanit" changeset="831359" lat="48.240227" lon="12.702831"/>
  <node id="318426920" version="2" timestamp="2008-12-19T15:51:46Z" uid="64977" user="CLoeser" changeset="484554" lat="53.9392669" lon="9.5293497"/>
  <node id="318426920" version="3" timestamp="2008-12-19T15:51:47Z" uid="64977" user="CLoeser" changeset="484554" lat="53.9392669" lon="9.5293497"/>
  <node id="318426920" version="4" timestamp="2008-12-19T15:52:03Z" uid="64977" user="CLoeser" changeset="484554" lat="53.9392669" lon="9.5293497"/>
  <node id="318426921" version="2" timestamp="2008-12-19T15:51:46Z" uid="64977" user="CLoeser" changeset="484554" lat="53.9393688" lon="9.5298929"/>
  <node id="318426921" version="3" timestamp="2008-12-19T15:52:03Z" uid="64977" user="CLoeser" changeset="484554" lat="53.9393688" lon="9.5298929"/>
  <node id="318426923" version="2" timestamp="2008-12-19T15:51:46Z" uid="64977" user="CLoeser" changeset="484554" lat="53.9394537" lon="9.5314888"/>
  <node id="318426923" version="3" timestamp="2008-12-19T15:52:03Z" uid="64977" user="CLoeser" changeset="484554" lat="53.9394537" lon="9.5314888"/>
  <node id="318426926" version="2" timestamp="2008-12-19T15:51:46Z" uid="64977" user="CLoeser" changeset="484554" lat="53.9395895" lon="9.5319302"/>
  <node id="318426926" version="3" timestamp="2008-12-19T15:52:03Z" uid="64977" user="CLoeser" changeset="484554" lat="53.9395895" lon="9.5319302"/>
  <node id="318426928" version="2" timestamp="2008-12-19T15:51:29Z" uid="64977" user="CLoeser" changeset="484554" lat="53.9395725" lon="9.5321848"/>
  <node id="318426928" version="3" timestamp="2008-12-19T15:51:46Z" uid="64977" user="CLoeser" changeset="484554" lat="53.9395725" lon="9.5321848"/>
  <node id="318426928" version="4" timestamp="2008-12-19T15:52:03Z" uid="64977" user="CLoeser" changeset="484554" lat="53.9395725" lon="9.5321848"/>
  <node id="318426928" version="5" timestamp="2008-12-19T15:54:35Z" uid="64977" user="CLoeser" changeset="484554" lat="53.9395725" lon="9.5321848"/>
  <node id="318426928" version="6" timestamp="2008-12-19T15:54:44Z" uid="64977" user="CLoeser" changeset="484554" lat="53.9395725" lon="9.5321848"/>
  <node id="318426929" version="2" timestamp="2008-12-19T15:51:46Z" uid="64977" user="CLoeser" changeset="484554" lat="53.9394045" lon="9.5324159"/>
  <node id="318426929" version="3" timestamp="2008-12-19T15:52:03Z" uid="64977" user="CLoeser" changeset="484554" lat="53.9394045" lon="9.5324159"/>
  <node id="318426931" version="2" timestamp="2008-12-19T15:51:46Z" uid="64977" user="CLoeser" changeset="484554" lat="53.9393787" lon="9.5326622"/>
  <node id="318426931" version="3" timestamp="2008-12-19T15:52:03Z" uid="64977" user="CLoeser" changeset="484554" lat="53.9393787" lon="9.5326622"/>
  <node id="318426933" version="2" timestamp="2008-12-19T15:51:29Z" uid="64977" user="CLoeser" changeset="484554" lat="53.9398002" lon="9.5322092"/>
  <node id="318426934" version="2" timestamp="2008-12-19T15:51:29Z" uid="64977" user="CLoeser" changeset="484554" lat="53.9402218" lon="9.5321934"/>
  <node id="318427858" version="7" timestamp="2009-10-02T19:45:28Z" uid="86259" user="hasse_osm_korinthenkacker" changeset="2716821" lat="47.8857007" lon="11.6862538">
    <tag k="addr:city" v="Holzkirchen"/>
    <tag k="addr:country" v="DE"/>
    <tag k="addr:housenumber" v="5"/>
    <tag k="addr:postcode" v="83607"/>
    <tag k="addr:street" v="Am Hüllfeld"/>
  </node>
  <node id="318427874" version="8" timestamp="2009-10-02T19:45:28Z" uid="86259" user="hasse_osm_korinthenkacker" changeset="2716821" lat="47.8856661" lon="11.6861765">
    <tag k="addr:city" v="Holzkirchen"/>
    <tag k="addr:country" v="DE"/>
    <tag k="addr:housenumber" v="7"/>
    <tag k="addr:postcode" v="83607"/>
    <tag k="addr:street" v="Am Hüllfeld"/>
  </node>
  <node id="318427874" version="9" timestamp="2010-10-06T15:57:17Z" uid="42393" user="mawi42" changeset="5970581" lat="47.8856679" lon="11.6861746">
    <tag k="addr:city" v="Holzkirchen"/>
    <tag k="addr:country" v="DE"/>
    <tag k="addr:housenumber" v="7"/>
    <tag k="addr:postcode" v="83607"/>
    <tag k="addr:street" v="Am Hüllfeld"/>
  </node>
  <node id="318427888" version="8" timestamp="2009-10-02T19:45:28Z" uid="86259" user="hasse_osm_korinthenkacker" changeset="2716821" lat="47.8856373" lon="11.6860993">
    <tag k="addr:city" v="Holzkirchen"/>
    <tag k="addr:country" v="DE"/>
    <tag k="addr:housenumber" v="9"/>
    <tag k="addr:postcode" v="83607"/>
    <tag k="addr:street" v="Am Hüllfeld"/>
  </node>
  <node id="318427888" version="9" timestamp="2010-10-06T15:57:17Z" uid="42393" user="mawi42" changeset="5970581" lat="47.8856342" lon="11.6860989">
    <tag k="addr:city" v="Holzkirchen"/>
    <tag k="addr:country" v="DE"/>
    <tag k="addr:housenumber" v="9"/>
    <tag k="addr:postcode" v="83607"/>
    <tag k="addr:street" v="Am Hüllfeld"/>
  </node>
  <node id="318427900" version="8" timestamp="2009-10-02T19:45:28Z" uid="86259" user="hasse_osm_korinthenkacker" changeset="2716821" lat="47.8856028" lon="11.686022">
    <tag k="addr:city" v="Holzkirchen"/>
    <tag k="addr:country" v="DE"/>
    <tag k="addr:housenumber" v="11"/>
    <tag k="addr:postcode" v="83607"/>
    <tag k="addr:street" v="Am Hüllfeld"/>
  </node>
  <node id="318427900" version="9" timestamp="2010-10-06T15:57:17Z" uid="42393" user="mawi42" changeset="5970581" lat="47.8856005" lon="11.6860144">
    <tag k="addr:city" v="Holzkirchen"/>
    <tag k="addr:country" v="DE"/>
    <tag k="addr:housenumber" v="11"/>
    <tag k="addr:postcode" v="83607"/>
    <tag k="addr:street" v="Am Hüllfeld"/>
  </node>
  <node id="318427960" version="5" timestamp="2009-10-02T19:45:28Z" uid="86259" user="hasse_osm_korinthenkacker" changeset="2716821" lat="47.8857697" lon="11.6864083">
    <tag k="addr:city" v="Holzkirchen"/>
    <tag k="addr:country" v="DE"/>
    <tag k="addr:housenumber" v="1"/>
    <tag k="addr:postcode" v="83607"/>
    <tag k="addr:street" v="Am Hüllfeld"/>
  </node>
  <node id="318427960" version="6" timestamp="2010-10-06T15:56:44Z" uid="42393" user="mawi42" changeset="5970581" lat="47.885775" lon="11.6864227">
    <tag k="addr:city" v="Holzkirchen"/>
    <tag k="addr:country" v="DE"/>
    <tag k="addr:housenumber" v="1"/>
    <tag k="addr:postcode" v="83607"/>
    <tag k="addr:street" v="Am Hüllfeld"/>
  </node>
  <node id="318428069" version="2" timestamp="2008-12-19T15:50:44Z" uid="64977" user="CLoeser" changeset="484554" lat="53.9375861" lon="9.5274985"/>
  <node id="318428069" version="3" timestamp="2008-12-26T07:22:10Z" uid="41914" user="TheBo" changeset="607616" lat="53.9375861" lon="9.5274985"/>
  <node id="318428071" version="2" timestamp="2008-12-19T15:50:44Z" uid="64977" user="CLoeser" changeset="484554" lat="53.937992" lon="9.526009"/>
  <node id="318428602" version="4" timestamp="2009-01-24T09:59:08Z" uid="27600" user="Islanit" changeset="831359" lat="48.2427822" lon="12.6973207"/>
  <node id="318428603" version="4" timestamp="2009-01-24T09:59:08Z" uid="27600" user="Islanit" changeset="831359" lat="48.2419362" lon="12.6973293"/>
  <node id="318429213" version="4" timestamp="2009-10-02T19:45:25Z" uid="86259" user="hasse_osm_korinthenkacker" changeset="2716821" lat="47.8855042" lon="11.6858205">
    <tag k="addr:city" v="Holzkirchen"/>
    <tag k="addr:country" v="DE"/>
    <tag k="addr:housenumber" v="15"/>
    <tag k="addr:postcode" v="83607"/>
    <tag k="addr:street" v="Am Hüllfeld"/>
  </node>
  <node id="318429215" version="3" timestamp="2009-01-24T09:59:08Z" uid="27600" user="Islanit" changeset="831359" lat="48.2428165" lon="12.6983936"/>
  <node id="318429216" version="3" timestamp="2009-01-24T09:59:08Z" uid="27600" user="Islanit" changeset="831359" lat="48.2418276" lon="12.6984537"/>
  <node id="318429469" version="3" timestamp="2009-01-24T09:59:07Z" uid="27600" user="Islanit" changeset="831359" lat="48.2428336" lon="12.699518"/>
  <node id="318429470" version="3" timestamp="2009-01-24T09:59:07Z" uid="27600" user="Islanit" changeset="831359" lat="48.2418218" lon="12.6993892"/>
  <node id="318429682" version="4" timestamp="2009-10-02T19:45:25Z" uid="86259" user="hasse_osm_korinthenkacker" changeset="2716821" lat="47.8855618" lon="11.6857604">
    <tag k="addr:city" v="Holzkirchen"/>
    <tag k="addr:country" v="DE"/>
    <tag k="addr:housenumber" v="17"/>
    <tag k="addr:postcode" v="83607"/>
    <tag k="addr:street" v="Am Hüllfeld"/>
  </node>
</osm>
