<?xml version='1.0' encoding='UTF-8'?>
<osm version="0.6" generator="libosmium/2.20.0">
  <node id="318710013" version="5" timestamp="2010-12-19T23:23:28Z" uid="6269" user="Mueck" changeset="6711092" lat="53.4853251" lon="8.6029181"/>
  <node id="318710013" version="6" timestamp="2012-03-03T00:14:48Z" uid="45882" user="smarties" changeset="10853720" lat="53.4853251" lon="8.6029181"/>
  <node id="318711636" version="14" timestamp="2010-01-30T07:40:16Z" uid="99207" user="Lar Kiesel" changeset="3748642" lat="33.0021233" lon="-80.0983742">
    <tag k="highway" v="motorway_junction"/>
    <tag k="name" v="College Park Rd, Goose Greek; Ladson"/>
    <tag k="ref" v="203"/>
  </node>
  <node id="318711636" version="15" timestamp="2011-04-06T23:03:41Z" uid="207745" user="NE2" changeset="7788882" lat="33.0021233" lon="-80.0983742">
    <tag k="exit_to" v="College Park Rd, Goose Greek; Ladson"/>
    <tag k="highway" v="motorway_junction"/>
    <tag k="ref" v="203"/>
  </node>
  <node id="318711845" version="4" timestamp="2009-10-02T20:02:41Z" uid="86259" user="hasse_osm_korinthenkacker" changeset="2717024" lat="47.8819418" lon="11.6666592">
    <tag k="addr:city" v="Holzkirchen"/>
    <tag k="addr:country" v="DE"/>
    <tag k="addr:housenumber" v="2"/>
    <tag k="addr:postcode" v="83607"/>
    <tag k="addr:street" v="Holzhäuslerweg"/>
  </node>
  <node id="318711845" version="5" timestamp="2010-12-15T18:53:52Z" uid="42393" user="mawi42" changeset="6670333" lat="47.8819552" lon="11.6665684">
    <tag k="addr:city" v="Holzkirchen"/>
    <tag k="addr:country" v="DE"/>
    <tag k="addr:housenumber" v="2"/>
    <tag k="addr:postcode" v="83607"/>
    <tag k="addr:street" v="Holzhäuslerweg"/>
  </node>
  <node id="318711861" version="4" timestamp="2009-10-02T20:02:42Z" uid="86259" user="hasse_osm_korinthenkacker" changeset="2717024" lat="47.8815926" lon="11.6666877">
    <tag k="addr:city" v="Holzkirchen"/>
    <tag k="addr:country" v="DE"/>
    <tag k="addr:housenumber" v="4"/>
    <tag k="addr:postcode" v="83607"/>
    <tag k="addr:street" v="Holzhäuslerweg"/>
  </node>
  <node id="318711861" version="5" timestamp="2010-12-15T18:36:51Z" uid="42393" user="mawi42" changeset="6670200" lat="47.8814002" lon="11.6666996">
    <tag k="addr:city" v="Holzkirchen"/>
    <tag k="addr:country" v="DE"/>
    <tag k="addr:housenumber" v="4"/>
    <tag k="addr:postcode" v="83607"/>
    <tag k="addr:street" v="Holzhäuslerweg"/>
  </node>
  <node id="318711861" version="6" timestamp="2010-12-15T18:50:47Z" uid="42393" user="mawi42" changeset="6670333" lat="47.8814002" lon="11.6666996">
    <tag k="addr:city" v="Holzkirchen"/>
    <tag k="addr:country" v="DE"/>
    <tag k="addr:housenumber" v="4"/>
    <tag k="addr:postcode" v="83607"/>
    <tag k="addr:street" v="Holzhäuslerweg"/>
  </node>
  <node id="318711870" version="4" timestamp="2009-10-02T20:02:42Z" uid="86259" user="hasse_osm_korinthenkacker" changeset="2717024" lat="47.8815926" lon="11.6665761">
    <tag k="addr:city" v="Holzkirchen"/>
    <tag k="addr:country" v="DE"/>
    <tag k="addr:housenumber" v="4a"/>
    <tag k="addr:postcode" v="83607"/>
    <tag k="addr:street" v="Holzhäuslerweg"/>
  </node>
  <node id="318711870" version="5" timestamp="2010-12-15T18:36:52Z" uid="42393" user="mawi42" changeset="6670200" lat="47.8814155" lon="11.6665869">
    <tag k="addr:city" v="Holzkirchen"/>
    <tag k="addr:country" v="DE"/>
    <tag k="addr:housenumber" v="4a"/>
    <tag k="addr:postcode" v="83607"/>
    <tag k="addr:street" v="Holzhäuslerweg"/>
  </node>
  <node id="318711870" version="6" timestamp="2010-12-15T18:50:47Z" uid="42393" user="mawi42" changeset="6670333" lat="47.8814155" lon="11.6665869">
    <tag k="addr:city" v="Holzkirchen"/>
    <tag k="addr:country" v="DE"/>
    <tag k="addr:housenumber" v="4a"/>
    <tag k="addr:postcode" v="83607"/>
    <tag k="addr:street" v="Holzhäuslerweg"/>
  </node>
  <node id="318711871" version="5" timestamp="2009-10-02T20:02:42Z" uid="86259" user="hasse_osm_korinthenkacker" changeset="2717024" lat="47.8815869" lon="11.6664302">
    <tag k="addr:city" v="Holzkirchen"/>
    <tag k="addr:country" v="DE"/>
    <tag k="addr:housenumber" v="4b"/>
    <tag k="addr:postcode" v="83607"/>
    <tag k="addr:street" v="Holzhäuslerweg"/>
  </node>
  <node id="318711871" version="6" timestamp="2010-12-15T18:36:51Z" uid="42393" user="mawi42" changeset="6670200" lat="47.8814307" lon="11.6664637">
    <tag k="addr:city" v="Holzkirchen"/>
    <tag k="addr:country" v="DE"/>
    <tag k="addr:housenumber" v="4b"/>
    <tag k="addr:postcode" v="83607"/>
    <tag k="addr:street" v="Holzhäuslerweg"/>
  </node>
  <node id="318711871" version="7" timestamp="2010-12-15T18:50:47Z" uid="42393" user="mawi42" changeset="6670333" lat="47.8814307" lon="11.6664637">
    <tag k="addr:city" v="Holzkirchen"/>
    <tag k="addr:country" v="DE"/>
    <tag k="addr:housenumber" v="4b"/>
    <tag k="addr:postcode" v="83607"/>
    <tag k="addr:street" v="Holzhäuslerweg"/>
  </node>
  <node id="318713442" version="2" timestamp="2009-06-09T04:03:06Z" uid="74617" user="JohnSmith" changeset="1464580" lat="-32.2544041" lon="148.6099055"/>
  <node id="318713442" version="3" timestamp="2010-08-28T07:00:58Z" uid="67896" user="mrpulley" changeset="5613333" lat="-32.2544455" lon="148.6099025"/>
  <node id="318713442" version="4" timestamp="2011-04-01T11:46:23Z" uid="4467" user="Rosscoe" changeset="7734832" lat="-32.2544147" lon="148.6099746"/>
  <node id="318713448" version="3" timestamp="2011-04-01T11:46:33Z" uid="4467" user="Rosscoe" changeset="7734832" lat="-32.2523667" lon="148.6103526"/>
  <node id="318713448" version="4" timestamp="2011-05-05T06:41:56Z" uid="22094" user="Chadzopkyo" changeset="8054761" lat="-32.2523294" lon="148.6103596"/>
  <node id="318713453" version="4" timestamp="2011-04-01T11:46:29Z" uid="4467" user="Rosscoe" changeset="7734832" lat="-32.2502976" lon="148.6107441"/>
  <node id="318713453" version="5" timestamp="2011-05-05T06:42:08Z" uid="22094" user="Chadzopkyo" changeset="8054761" lat="-32.2502751" lon="148.6107483"/>
  <node id="318713457" version="3" timestamp="2011-04-01T11:47:33Z" uid="4467" user="Rosscoe" changeset="7734832" lat="-32.2520979" lon="148.6084541"/>
  <node id="318713457" version="4" timestamp="2011-05-05T06:42:04Z" uid="22094" user="Chadzopkyo" changeset="8054761" lat="-32.2520744" lon="148.6084585"/>
  <node id="318713461" version="4" timestamp="2011-04-01T11:46:49Z" uid="4467" user="Rosscoe" changeset="7734832" lat="-32.2593758" lon="148.6021016"/>
  <node id="318713601" version="26" timestamp="2011-02-18T21:12:41Z" uid="49111" user="Markus B" changeset="7326552" lat="49.0428355" lon="11.4689168"/>
  <node id="318713605" version="26" timestamp="2011-02-18T21:12:29Z" uid="49111" user="Markus B" changeset="7326552" lat="49.0433889" lon="11.4674756"/>
  <node id="318713607" version="26" timestamp="2011-02-18T21:12:45Z" uid="49111" user="Markus B" changeset="7326552" lat="49.043554" lon="11.4678844"/>
  <node id="318713609" version="26" timestamp="2011-02-18T21:12:39Z" uid="49111" user="Markus B" changeset="7326552" lat="49.042792" lon="11.4688533"/>
  <node id="318713611" version="26" timestamp="2011-02-18T21:12:36Z" uid="49111" user="Markus B" changeset="7326552" lat="49.0429329" lon="11.4687046"/>
  <node id="318713613" version="26" timestamp="2011-02-18T21:12:48Z" uid="49111" user="Markus B" changeset="7326552" lat="49.0435343" lon="11.4675619"/>
  <node id="318713620" version="2" timestamp="2011-02-18T21:12:36Z" uid="49111" user="Markus B" changeset="7326552" lat="49.041027" lon="11.4695199"/>
  <node id="318713621" version="2" timestamp="2011-02-18T21:12:47Z" uid="49111" user="Markus B" changeset="7326552" lat="49.0411125" lon="11.469257"/>
  <node id="318713622" version="2" timestamp="2011-02-18T21:12:29Z" uid="49111" user="Markus B" changeset="7326552" lat="49.0412692" lon="11.4690169"/>
  <node id="318713654" version="2" timestamp="2011-02-18T21:21:59Z" uid="49111" user="Markus B" changeset="7326636" lat="49.0455802" lon="11.4653799"/>
  <node id="318713655" version="26" timestamp="2011-02-18T21:21:46Z" uid="49111" user="Markus B" changeset="7326636" lat="49.045934" lon="11.4653653"/>
  <node id="318714186" version="4" timestamp="2009-10-02T20:02:59Z" uid="86259" user="hasse_osm_korinthenkacker" changeset="2717024" lat="47.8777176" lon="11.6981567">
    <tag k="addr:city" v="Holzkirchen"/>
    <tag k="addr:country" v="DE"/>
    <tag k="addr:housenumber" v="2a"/>
    <tag k="addr:postcode" v="83607"/>
    <tag k="addr:street" v="Roggersdorfer Straße"/>
  </node>
  <node id="318714186" version="5" timestamp="2010-10-26T14:58:00Z" uid="42393" user="mawi42" changeset="6183547" lat="47.8777597" lon="11.6974959">
    <tag k="addr:city" v="Holzkirchen"/>
    <tag k="addr:country" v="DE"/>
    <tag k="addr:housenumber" v="2a"/>
    <tag k="addr:postcode" v="83607"/>
    <tag k="addr:street" v="Roggersdorfer Straße"/>
  </node>
  <node id="318714186" version="6" timestamp="2011-08-15T09:49:12Z" uid="42393" user="mawi42" changeset="9024727" lat="47.877678" lon="11.6978113">
    <tag k="addr:city" v="Holzkirchen"/>
    <tag k="addr:country" v="DE"/>
    <tag k="addr:housenumber" v="2a"/>
    <tag k="addr:postcode" v="83607"/>
    <tag k="addr:street" v="Roggersdorfer Straße"/>
  </node>
  <node id="318714217" version="4" timestamp="2009-10-02T20:02:59Z" uid="86259" user="hasse_osm_korinthenkacker" changeset="2717024" lat="47.8776543" lon="11.6981309">
    <tag k="addr:city" v="Holzkirchen"/>
    <tag k="addr:country" v="DE"/>
    <tag k="addr:housenumber" v="2b"/>
    <tag k="addr:postcode" v="83607"/>
    <tag k="addr:street" v="Roggersdorfer Straße"/>
  </node>
  <node id="318714217" version="5" timestamp="2010-10-26T15:00:40Z" uid="42393" user="mawi42" changeset="6183547" lat="47.8777507" lon="11.6975763">
    <tag k="addr:city" v="Holzkirchen"/>
    <tag k="addr:country" v="DE"/>
    <tag k="addr:housenumber" v="2b"/>
    <tag k="addr:postcode" v="83607"/>
    <tag k="addr:street" v="Roggersdorfer Straße"/>
  </node>
  <node id="318714217" version="6" timestamp="2011-08-15T09:49:12Z" uid="42393" user="mawi42" changeset="9024727" lat="47.8777208" lon="11.6978327">
    <tag k="addr:city" v="Holzkirchen"/>
    <tag k="addr:country" v="DE"/>
    <tag k="addr:housenumber" v="2b"/>
    <tag k="addr:postcode" v="83607"/>
    <tag k="addr:street" v="Roggersdorfer Straße"/>
  </node>
  <node id="318714458" version="4" timestamp="2009-10-02T20:02:58Z" uid="86259" user="hasse_osm_korinthenkacker" changeset="2717024" lat="47.8777003" lon="11.697985">
    <tag k="addr:city" v="Holzkirchen"/>
    <tag k="addr:country" v="DE"/>
    <tag k="addr:housenumber" v="2c"/>
    <tag k="addr:postcode" v="83607"/>
    <tag k="addr:street" v="Roggersdorfer Straße"/>
  </node>
  <node id="318714458" version="5" timestamp="2010-10-26T15:00:39Z" uid="42393" user="mawi42" changeset="6183547" lat="47.8777552" lon="11.6975415">
    <tag k="addr:city" v="Holzkirchen"/>
    <tag k="addr:country" v="DE"/>
    <tag k="addr:housenumber" v="2c"/>
    <tag k="addr:postcode" v="83607"/>
    <tag k="addr:street" v="Roggersdorfer Straße"/>
  </node>
  <node id="318714458" version="6" timestamp="2011-08-15T09:49:12Z" uid="42393" user="mawi42" changeset="9024727" lat="47.8777138" lon="11.6976826">
    <tag k="addr:city" v="Holzkirchen"/>
    <tag k="addr:country" v="DE"/>
    <tag k="addr:housenumber" v="2c"/>
    <tag k="addr:postcode" v="83607"/>
    <tag k="addr:street" v="Roggersdorfer Straße"/>
  </node>
  <node id="318715092" version="4" timestamp="2009-10-02T20:02:59Z" uid="86259" user="hasse_osm_korinthenkacker" changeset="2717024" lat="47.8777406" lon="11.6977018">
    <tag k="addr:city" v="Holzkirchen"/>
    <tag k="addr:country" v="DE"/>
    <tag k="addr:housenumber" v="4"/>
    <tag k="addr:postcode" v="83607"/>
    <tag k="addr:street" v="Roggersdorfer Straße"/>
  </node>
  <node id="318715092" version="5" timestamp="2010-10-26T15:00:40Z" uid="42393" user="mawi42" changeset="6183547" lat="47.8777687" lon="11.6973403">
    <tag k="addr:city" v="Holzkirchen"/>
    <tag k="addr:country" v="DE"/>
    <tag k="addr:housenumber" v="4"/>
    <tag k="addr:postcode" v="83607"/>
    <tag k="addr:street" v="Roggersdorfer Straße"/>
  </node>
  <node id="318715092" version="6" timestamp="2011-08-15T09:49:13Z" uid="42393" user="mawi42" changeset="9024727" lat="47.8778576" lon="11.69735">
    <tag k="addr:city" v="Holzkirchen"/>
    <tag k="addr:country" v="DE"/>
    <tag k="addr:housenumber" v="4"/>
    <tag k="addr:postcode" v="83607"/>
    <tag k="addr:street" v="Roggersdorfer Straße"/>
  </node>
  <node id="318715295" version="3" timestamp="2011-04-01T11:47:07Z" uid="4467" user="Rosscoe" changeset="7734832" lat="-32.2515287" lon="148.6043017"/>
  <node id="318715295" version="4" timestamp="2011-05-05T06:41:45Z" uid="22094" user="Chadzopkyo" changeset="8054761" lat="-32.2515171" lon="148.6043039"/>
  <node id="318715299" version="3" timestamp="2011-04-01T11:47:05Z" uid="4467" user="Rosscoe" changeset="7734832" lat="-32.2494615" lon="148.6046807"/>
  <node id="318715299" version="4" timestamp="2011-05-05T06:41:54Z" uid="22094" user="Chadzopkyo" changeset="8054761" lat="-32.2494574" lon="148.6046815"/>
  <node id="318715302" version="2" timestamp="2011-04-01T11:47:15Z" uid="4467" user="Rosscoe" changeset="7734832" lat="-32.2532894" lon="148.6186956"/>
  <node id="318715392" version="3" timestamp="2009-03-25T23:34:04Z" uid="49111" user="Markus B" changeset="861683" lat="47.4842755" lon="8.405419"/>
  <node id="318715392" version="4" timestamp="2009-04-08T18:57:29Z" uid="37799" user="Adrian Vogt" changeset="327621" lat="47.4842755" lon="8.405419"/>
  <node id="318715392" version="5" timestamp="2009-04-12T11:11:02Z" uid="68913" user="Xango" changeset="455230" lat="47.4842755" lon="8.405419"/>
  <node id="318715392" version="6" timestamp="2009-04-14T00:00:24Z" uid="68913" user="Xango" changeset="534966" lat="47.4842755" lon="8.405419"/>
  <node id="318715392" version="7" timestamp="2009-04-14T00:42:16Z" uid="68913" user="Xango" changeset="534966" lat="47.4842755" lon="8.405419"/>
  <node id="318715393" version="3" timestamp="2009-03-25T23:34:04Z" uid="49111" user="Markus B" changeset="861683" lat="47.4842523" lon="8.4060456"/>
  <node id="318715393" version="4" timestamp="2009-04-08T18:57:29Z" uid="37799" user="Adrian Vogt" changeset="327621" lat="47.4842523" lon="8.4060456"/>
  <node id="318715393" version="5" timestamp="2009-04-12T11:11:02Z" uid="68913" user="Xango" changeset="455230" lat="47.4842523" lon="8.4060456"/>
  <node id="318715393" version="6" timestamp="2009-04-14T00:00:24Z" uid="68913" user="Xango" changeset="534966" lat="47.4842523" lon="8.4060456"/>
  <node id="318715393" version="7" timestamp="2009-04-14T00:42:16Z" uid="68913" user="Xango" changeset="534966" lat="47.4842523" lon="8.4060456"/>
  <node id="318715394" version="3" timestamp="2009-03-25T23:34:04Z" uid="49111" user="Markus B" changeset="861683" lat="47.4844321" lon="8.4067236"/>
  <node id="318715394" version="4" timestamp="2009-04-08T18:57:29Z" uid="37799" user="Adrian Vogt" changeset="327621" lat="47.4844321" lon="8.4067236"/>
  <node id="318715394" version="5" timestamp="2009-04-12T11:11:02Z" uid="68913" user="Xango" changeset="455230" lat="47.4844321" lon="8.4067236"/>
  <node id="318715394" version="6" timestamp="2009-04-14T00:00:24Z" uid="68913" user="Xango" changeset="534966" lat="47.4844321" lon="8.4067236"/>
  <node id="318715394" version="7" timestamp="2009-04-14T00:42:17Z" uid="68913" user="Xango" changeset="534966" lat="47.4844321" lon="8.4067236"/>
  <node id="318715396" version="3" timestamp="2009-03-25T23:34:04Z" uid="49111" user="Markus B" changeset="861683" lat="47.4845017" lon="8.4072386"/>
  <node id="318715396" version="4" timestamp="2009-04-08T18:57:29Z" uid="37799" user="Adrian Vogt" changeset="327621" lat="47.4845017" lon="8.4072386"/>
  <node id="318715396" version="5" timestamp="2009-04-12T11:11:02Z" uid="68913" user="Xango" changeset="455230" lat="47.4845017" lon="8.4072386"/>
  <node id="318715396" version="6" timestamp="2009-04-14T00:00:24Z" uid="68913" user="Xango" changeset="534966" lat="47.4845017" lon="8.4072386"/>
  <node id="318715396" version="7" timestamp="2009-04-14T00:42:17Z" uid="68913" user="Xango" changeset="534966" lat="47.4845017" lon="8.4072386"/>
</osm>
