<?xml version='1.0' encoding='UTF-8'?>
<osm version="0.6" generator="libosmium/2.20.0">
  <node id="319123009" version="10" timestamp="2010-04-26T08:39:35Z" uid="4467" user="Rosscoe" changeset="4529525" lat="-37.993221" lon="145.2098466"/>
  <node id="319123326" version="6" timestamp="2010-05-25T13:15:17Z" uid="4467" user="Rosscoe" changeset="4803553" lat="-37.9988196" lon="145.2100993"/>
  <node id="319123327" version="4" timestamp="2010-05-25T13:14:33Z" uid="4467" user="Rosscoe" changeset="4803553" lat="-37.9987545" lon="145.2095725"/>
  <node id="319123328" version="4" timestamp="2010-05-25T13:14:21Z" uid="4467" user="Rosscoe" changeset="4803553" lat="-37.9977744" lon="145.2097596"/>
  <node id="319123329" version="4" timestamp="2010-05-25T13:14:47Z" uid="4467" user="Rosscoe" changeset="4803553" lat="-37.9978224" lon="145.2102845"/>
  <node id="319123330" version="4" timestamp="2010-05-25T13:14:51Z" uid="4467" user="Rosscoe" changeset="4803553" lat="-37.9981127" lon="145.2102347"/>
  <node id="319123331" version="4" timestamp="2010-05-25T13:15:10Z" uid="4467" user="Rosscoe" changeset="4803553" lat="-37.9982541" lon="145.2114187"/>
  <node id="319123337" version="4" timestamp="2010-05-25T13:15:21Z" uid="4467" user="Rosscoe" changeset="4803553" lat="-37.9985517" lon="145.2101525"/>
  <node id="319123914" version="3" timestamp="2010-07-28T09:17:59Z" uid="4467" user="Rosscoe" changeset="5336198" lat="-37.9997165" lon="145.2170066"/>
  <node id="319123972" version="3" timestamp="2010-07-28T09:18:17Z" uid="4467" user="Rosscoe" changeset="5336198" lat="-37.9988752" lon="145.217167"/>
  <node id="319123973" version="3" timestamp="2010-07-28T09:18:40Z" uid="4467" user="Rosscoe" changeset="5336198" lat="-37.997805" lon="145.2173658"/>
  <node id="319124030" version="2" timestamp="2010-07-28T09:18:33Z" uid="4467" user="Rosscoe" changeset="5336198" lat="-37.9976413" lon="145.2172543"/>
  <node id="319124074" version="9" timestamp="2010-05-25T13:15:00Z" uid="4467" user="Rosscoe" changeset="4803553" lat="-37.9997233" lon="145.2085768"/>
  <node id="319127548" version="5" timestamp="2009-11-06T00:31:55Z" uid="36809" user="pfoten_weg_!_" changeset="3044956" lat="52.3431043" lon="14.5544735">
    <tag k="amenity" v="place_of_worship"/>
    <tag k="denomination" v="lutheran"/>
    <tag k="name" v="Marienkirche"/>
    <tag k="religion" v="christian"/>
  </node>
  <node id="319127548" version="6" timestamp="2010-08-07T22:04:09Z" uid="49785" user="mike67" changeset="5428276" lat="52.3431043" lon="14.5544735">
    <tag k="amenity" v="place_of_worship"/>
    <tag k="denomination" v="lutheran"/>
    <tag k="name" v="Marienkirche"/>
    <tag k="religion" v="christian"/>
  </node>
  <node id="319127549" version="3" timestamp="2009-11-06T00:31:57Z" uid="36809" user="pfoten_weg_!_" changeset="3044956" lat="52.3442519" lon="14.5541764">
    <tag k="amenity" v="townhall"/>
  </node>
  <node id="319127549" version="4" timestamp="2010-07-08T09:03:10Z" uid="163437" user="r-michael" changeset="5164465" lat="52.3442208" lon="14.5542494">
    <tag k="amenity" v="townhall"/>
    <tag k="name" v="Rathaus"/>
  </node>
  <node id="319127549" version="5" timestamp="2010-11-03T10:24:41Z" uid="290680" user="wheelmap_visitor" changeset="6273485" lat="52.3442208" lon="14.5542494">
    <tag k="amenity" v="townhall"/>
    <tag k="name" v="Rathaus"/>
    <tag k="wheelchair" v="yes"/>
  </node>
  <node id="319127549" version="6" timestamp="2011-01-19T16:33:02Z" uid="163437" user="r-michael" changeset="7022111" lat="52.3442208" lon="14.5542494">
    <tag k="amenity" v="townhall"/>
    <tag k="name" v="Rathaus"/>
    <tag k="name:pl" v="Ratusz"/>
    <tag k="wheelchair" v="yes"/>
  </node>
  <node id="319127549" version="7" timestamp="2011-11-02T14:51:25Z" uid="91778" user="Gerd Stowczynski" changeset="9722686" lat="52.3442208" lon="14.5542494">
    <tag k="addr:city" v="Frankfurt(Oder)"/>
    <tag k="addr:housenumber" v="1"/>
    <tag k="addr:postcode" v="15234"/>
    <tag k="addr:street" v="Marktstraße"/>
    <tag k="amenity" v="public_building"/>
    <tag k="name" v="Rathaus"/>
    <tag k="name:pl" v="Ratusz"/>
    <tag k="phone" v="0335552-0"/>
    <tag k="website" v="http://www.frankfurtoder-barrierefrei.de"/>
    <tag k="wheelchair" v="yes"/>
    <tag k="wheelchair:description" v="behindertengerecht"/>
  </node>
  <node id="319127549" version="8" timestamp="2011-11-02T16:26:46Z" uid="163437" user="r-michael" changeset="9723458" lat="52.3442208" lon="14.5542494">
    <tag k="amenity" v="public_building"/>
    <tag k="name" v="Rathaus"/>
    <tag k="name:pl" v="Ratusz"/>
    <tag k="wheelchair" v="yes"/>
  </node>
  <node id="319127629" version="4" timestamp="2009-11-06T00:32:02Z" uid="36809" user="pfoten_weg_!_" changeset="3044956" lat="52.3447443" lon="14.5505636">
    <tag k="amenity" v="cafe"/>
    <tag k="name" v="Eiscafé"/>
  </node>
  <node id="319127629" version="5" timestamp="2010-11-16T15:59:39Z" uid="163437" user="r-michael" changeset="6385971" lat="52.3447568" lon="14.5505449">
    <tag k="amenity" v="cafe"/>
    <tag k="name" v="Eiscafé"/>
  </node>
  <node id="319127629" version="6" timestamp="2011-06-23T14:55:07Z" uid="244980" user="wind" changeset="8522575" lat="52.3447568" lon="14.5505449">
    <tag k="amenity" v="cafe"/>
    <tag k="cuisine" v="ice_cream"/>
    <tag k="name" v="Eiscafé"/>
  </node>
  <node id="319127629" version="7" timestamp="2011-10-08T17:23:52Z" uid="290680" user="wheelmap_visitor" changeset="9499106" lat="52.3447568" lon="14.5505449">
    <tag k="amenity" v="cafe"/>
    <tag k="cuisine" v="ice_cream"/>
    <tag k="name" v="Eiscafé"/>
    <tag k="wheelchair" v="limited"/>
  </node>
  <node id="319127629" version="8" timestamp="2012-03-04T09:17:38Z" uid="163437" user="r-michael" changeset="10866020" lat="52.3447714" lon="14.5505436">
    <tag k="amenity" v="cafe"/>
    <tag k="cuisine" v="ice_cream"/>
    <tag k="name" v="Eiscafé"/>
    <tag k="wheelchair" v="limited"/>
  </node>
  <node id="319127728" version="1" timestamp="2008-12-16T03:26:27Z" uid="68769" user="david lynch" changeset="417386" lat="31.7110684" lon="-98.5927485"/>
  <node id="319127728" version="2" timestamp="2008-12-16T03:26:29Z" uid="68769" user="david lynch" changeset="417386" lat="31.7110684" lon="-98.5927485"/>
  <node id="319127728" version="3" timestamp="2008-12-21T04:00:14Z" uid="77990" user="varmint" changeset="516340" lat="31.7110684" lon="-98.5927485"/>
  <node id="319127728" version="4" timestamp="2012-03-28T07:05:17Z" uid="262151" user="ToeBee" changeset="11123727" lat="31.7110684" lon="-98.5927485"/>
</osm>
