<?xml version='1.0' encoding='UTF-8'?>
<osm version="0.6" generator="libosmium/2.20.0">
  <node id="320131014" version="2" timestamp="2009-01-01T13:41:19Z" uid="6975" user="ulfl" changeset="699648" lat="37.4218173" lon="141.0327876">
    <tag k="power" v="generator"/>
    <tag k="power_source" v="nuclear"/>
  </node>
  <node id="320131014" version="3" timestamp="2011-03-11T16:31:33Z" uid="63969" user="olvagor" changeset="7525002" lat="37.4218173" lon="141.0327876">
    <tag k="name:de" v="Kernkraftwerk Fukushima Daiichi"/>
    <tag k="name:en" v="Fukushima I Nuclear Power Plant"/>
    <tag k="name:fr" v="Centrale nucléaire de Fukushima Daiichi"/>
    <tag k="power" v="generator"/>
    <tag k="power_source" v="nuclear"/>
    <tag k="wikipedia:de" v="Kernkraftwerk Fukushima Daiichi"/>
    <tag k="wikipedia:en" v="Fukushima I Nuclear Power Plant"/>
    <tag k="wikipedia:fr" v="Centrale nucléaire de Fukushima Daiichi"/>
  </node>
  <node id="320131014" version="4" timestamp="2011-03-12T07:57:29Z" uid="39240" user="Seehundeführer" changeset="7530362" lat="37.4218173" lon="141.0327876">
    <tag k="name:de" v="Kernkraftwerk Fukushima Daiichi"/>
    <tag k="name:en" v="Fukushima I Nuclear Power Plant"/>
    <tag k="name:fr" v="Centrale nucléaire de Fukushima Daiichi"/>
    <tag k="power" v="generator"/>
    <tag k="power_source" v="nuclear"/>
    <tag k="wikipedia" v="http://en.wikipedia.org/wiki/Fukushima_I_Nuclear_Power_Plant"/>
    <tag k="wikipedia:de" v="Kernkraftwerk Fukushima Daiichi"/>
    <tag k="wikipedia:en" v="Fukushima I Nuclear Power Plant"/>
    <tag k="wikipedia:fr" v="Centrale nucléaire de Fukushima Daiichi"/>
  </node>
  <node id="320131014" version="5" timestamp="2011-03-12T11:50:07Z" uid="49785" user="mike67" changeset="7532268" lat="37.4229216" lon="141.0329314">
    <tag k="name:de" v="Kernkraftwerk Fukushima Daiichi"/>
    <tag k="name:en" v="Fukushima I Nuclear Power Plant"/>
    <tag k="name:fr" v="Centrale nucléaire de Fukushima Daiichi"/>
    <tag k="power" v="generator"/>
    <tag k="power_source" v="nuclear"/>
    <tag k="wikipedia" v="http://en.wikipedia.org/wiki/Fukushima_I_Nuclear_Power_Plant"/>
    <tag k="wikipedia:de" v="Kernkraftwerk Fukushima Daiichi"/>
    <tag k="wikipedia:en" v="Fukushima I Nuclear Power Plant"/>
    <tag k="wikipedia:fr" v="Centrale nucléaire de Fukushima Daiichi"/>
  </node>
  <node id="320131014" version="6" timestamp="2011-03-12T13:24:35Z" uid="51722" user="Chris Parker" changeset="7533099" lat="37.4229216" lon="141.0329314">
    <tag k="name" v="Fukushima-Daiichi plant"/>
    <tag k="name:de" v="Kernkraftwerk Fukushima Daiichi"/>
    <tag k="name:en" v="Fukushima I Nuclear Power Plant"/>
    <tag k="name:fr" v="Centrale nucléaire de Fukushima Daiichi"/>
    <tag k="power" v="generator"/>
    <tag k="power_source" v="nuclear"/>
    <tag k="wikipedia" v="http://en.wikipedia.org/wiki/Fukushima_I_Nuclear_Power_Plant"/>
    <tag k="wikipedia:de" v="Kernkraftwerk Fukushima Daiichi"/>
    <tag k="wikipedia:en" v="Fukushima I Nuclear Power Plant"/>
    <tag k="wikipedia:fr" v="Centrale nucléaire de Fukushima Daiichi"/>
  </node>
  <node id="320131014" version="7" timestamp="2011-03-12T13:26:46Z" uid="51722" user="Chris Parker" changeset="7533099" lat="37.4229216" lon="141.0329314">
    <tag k="name:de" v="Kernkraftwerk Fukushima Daiichi"/>
    <tag k="name:en" v="Fukushima I Nuclear Power Plant"/>
    <tag k="name:fr" v="Centrale nucléaire de Fukushima Daiichi"/>
    <tag k="power" v="generator"/>
    <tag k="power_source" v="nuclear"/>
    <tag k="wikipedia" v="http://en.wikipedia.org/wiki/Fukushima_I_Nuclear_Power_Plant"/>
    <tag k="wikipedia:de" v="Kernkraftwerk Fukushima Daiichi"/>
    <tag k="wikipedia:en" v="Fukushima I Nuclear Power Plant"/>
    <tag k="wikipedia:fr" v="Centrale nucléaire de Fukushima Daiichi"/>
  </node>
  <node id="320131014" version="8" timestamp="2011-03-12T13:29:23Z" uid="51722" user="Chris Parker" changeset="7533099" lat="37.4229216" lon="141.0329314">
    <tag k="name" v="http://en.wikipedia.org/wiki/Fukushima_I_Nuclear_Power_Plant"/>
    <tag k="name:de" v="Kernkraftwerk Fukushima Daiichi"/>
    <tag k="name:en" v="Fukushima I Nuclear Power Plant"/>
    <tag k="name:fr" v="Centrale nucléaire de Fukushima Daiichi"/>
    <tag k="power" v="generator"/>
    <tag k="power_source" v="nuclear"/>
    <tag k="wikipedia" v="http://en.wikipedia.org/wiki/Fukushima_I_Nuclear_Power_Plant"/>
    <tag k="wikipedia:de" v="Kernkraftwerk Fukushima Daiichi"/>
    <tag k="wikipedia:en" v="Fukushima I Nuclear Power Plant"/>
    <tag k="wikipedia:fr" v="Centrale nucléaire de Fukushima Daiichi"/>
  </node>
  <node id="320131014" version="9" timestamp="2011-03-12T14:56:00Z" uid="49785" user="mike67" changeset="7534054" lat="37.4230192" lon="141.0330178">
    <tag k="description" v="Block 1"/>
    <tag k="name:de" v="Kernkraftwerk Fukushima Daiichi"/>
    <tag k="name:en" v="Fukushima I Nuclear Power Plant"/>
    <tag k="name:fr" v="Centrale nucléaire de Fukushima Daiichi"/>
    <tag k="power" v="generator"/>
    <tag k="power_source" v="nuclear"/>
    <tag k="wikipedia" v="http://en.wikipedia.org/wiki/Fukushima_I_Nuclear_Power_Plant"/>
    <tag k="wikipedia:de" v="Kernkraftwerk Fukushima Daiichi"/>
    <tag k="wikipedia:en" v="Fukushima I Nuclear Power Plant"/>
    <tag k="wikipedia:fr" v="Centrale nucléaire de Fukushima Daiichi"/>
  </node>
  <node id="320131014" version="10" timestamp="2011-03-12T16:59:57Z" uid="300002" user="neic" changeset="7535489" lat="37.4230192" lon="141.0330178">
    <tag k="description" v="Block 1"/>
    <tag k="generator:output:electricity" v="460 MW"/>
    <tag k="generator:source" v="nuclear"/>
    <tag k="name:de" v="Kernkraftwerk Fukushima Daiichi"/>
    <tag k="name:en" v="Fukushima I Nuclear Power Plant"/>
    <tag k="name:fr" v="Centrale nucléaire de Fukushima Daiichi"/>
    <tag k="power" v="generator"/>
    <tag k="wikipedia" v="http://en.wikipedia.org/wiki/Fukushima_I_Nuclear_Power_Plant"/>
    <tag k="wikipedia:de" v="Kernkraftwerk Fukushima Daiichi"/>
    <tag k="wikipedia:en" v="Fukushima I Nuclear Power Plant"/>
    <tag k="wikipedia:fr" v="Centrale nucléaire de Fukushima Daiichi"/>
  </node>
  <node id="320131014" version="11" timestamp="2011-03-13T00:21:17Z" uid="49785" user="mike67" changeset="7539904" lat="37.4230194" lon="141.0329001">
    <tag k="description" v="Block 1"/>
    <tag k="generator:output:electricity" v="460 MW"/>
    <tag k="generator:source" v="nuclear"/>
    <tag k="name:de" v="Kernkraftwerk Fukushima Daiichi"/>
    <tag k="name:en" v="Fukushima I Nuclear Power Plant"/>
    <tag k="name:fr" v="Centrale nucléaire de Fukushima Daiichi"/>
    <tag k="power" v="generator"/>
    <tag k="wikipedia" v="http://en.wikipedia.org/wiki/Fukushima_I_Nuclear_Power_Plant"/>
    <tag k="wikipedia:de" v="Kernkraftwerk Fukushima Daiichi"/>
    <tag k="wikipedia:en" v="Fukushima I Nuclear Power Plant"/>
    <tag k="wikipedia:fr" v="Centrale nucléaire de Fukushima Daiichi"/>
  </node>
  <node id="320131014" version="12" timestamp="2011-03-13T01:01:52Z" uid="49785" user="mike67" changeset="7539904" lat="37.4229981" lon="141.0328518">
    <tag k="description" v="Block 1"/>
    <tag k="generator:output:electricity" v="460 MW"/>
    <tag k="generator:source" v="nuclear"/>
    <tag k="name:de" v="Kernkraftwerk Fukushima Daiichi"/>
    <tag k="name:en" v="Fukushima I Nuclear Power Plant"/>
    <tag k="name:fr" v="Centrale nucléaire de Fukushima Daiichi"/>
    <tag k="power" v="generator"/>
    <tag k="wikipedia" v="http://en.wikipedia.org/wiki/Fukushima_I_Nuclear_Power_Plant"/>
    <tag k="wikipedia:de" v="Kernkraftwerk Fukushima Daiichi"/>
    <tag k="wikipedia:en" v="Fukushima I Nuclear Power Plant"/>
    <tag k="wikipedia:fr" v="Centrale nucléaire de Fukushima Daiichi"/>
  </node>
  <node id="320131014" version="13" timestamp="2011-03-13T12:41:18Z" uid="49785" user="mike67" changeset="7544239" lat="37.4229982" lon="141.0328517">
    <tag k="description" v="Unit 1"/>
    <tag k="generator:output:electricity" v="460 MW"/>
    <tag k="generator:source" v="nuclear"/>
    <tag k="name:de" v="Kernkraftwerk Fukushima Daiichi"/>
    <tag k="name:en" v="Fukushima I Nuclear Power Plant"/>
    <tag k="name:fr" v="Centrale nucléaire de Fukushima Daiichi"/>
    <tag k="power" v="generator"/>
    <tag k="wikipedia" v="http://en.wikipedia.org/wiki/Fukushima_I_Nuclear_Power_Plant"/>
    <tag k="wikipedia:de" v="Kernkraftwerk Fukushima Daiichi"/>
    <tag k="wikipedia:en" v="Fukushima I Nuclear Power Plant"/>
    <tag k="wikipedia:fr" v="Centrale nucléaire de Fukushima Daiichi"/>
  </node>
  <node id="320131014" version="14" timestamp="2011-03-13T22:13:39Z" uid="18069" user="Claudius Henrichs" changeset="7551222" lat="37.4229982" lon="141.0328517">
    <tag k="description" v="Unit 1"/>
    <tag k="generator:output:electricity" v="460 MW"/>
    <tag k="generator:source" v="nuclear"/>
    <tag k="name:de" v="Kernkraftwerk Fukushima Daiichi"/>
    <tag k="name:en" v="Fukushima I Nuclear Power Plant"/>
    <tag k="name:fr" v="Centrale nucléaire de Fukushima Daiichi"/>
    <tag k="power" v="generator"/>
    <tag k="wikipedia" v="http://en.wikipedia.org/wiki/Fukushima_I_Nuclear_Power_Plant"/>
    <tag k="wikipedia:de" v="Kernkraftwerk Fukushima Daiichi"/>
    <tag k="wikipedia:en" v="Fukushima I Nuclear Power Plant"/>
    <tag k="wikipedia:fr" v="Centrale nucléaire de Fukushima Daiichi"/>
  </node>
  <node id="320131205" version="10" timestamp="2010-05-10T20:36:55Z" uid="9581" user="Lobelt" changeset="4663404" lat="51.3207027" lon="9.5816092">
    <tag k="power" v="tower"/>
  </node>
  <node id="320131685" version="1" timestamp="2008-12-20T10:27:16Z" uid="43863" user="Rundling" changeset="494954" lat="52.9214124" lon="10.3871159"/>
  <node id="320131685" version="2" timestamp="2011-01-23T22:50:27Z" uid="57645" user="KartoGrapHiti" changeset="7068341" lat="52.9215809" lon="10.3865968"/>
  <node id="320131687" version="1" timestamp="2008-12-20T10:27:16Z" uid="43863" user="Rundling" changeset="494954" lat="52.9236893" lon="10.3654866"/>
  <node id="320131687" version="2" timestamp="2011-01-23T22:50:34Z" uid="57645" user="KartoGrapHiti" changeset="7068341" lat="52.9225577" lon="10.3646879"/>
  <node id="320131690" version="1" timestamp="2008-12-20T10:27:16Z" uid="43863" user="Rundling" changeset="494954" lat="52.9230684" lon="10.3689198"/>
  <node id="320131690" version="2" timestamp="2011-01-23T22:50:34Z" uid="57645" user="KartoGrapHiti" changeset="7068341" lat="52.9224184" lon="10.3688"/>
  <node id="320131693" version="1" timestamp="2008-12-20T10:27:16Z" uid="43863" user="Rundling" changeset="494954" lat="52.9225509" lon="10.3757863"/>
  <node id="320131693" version="2" timestamp="2011-01-23T22:50:35Z" uid="57645" user="KartoGrapHiti" changeset="7068341" lat="52.9219972" lon="10.3750675"/>
  <node id="320131695" version="1" timestamp="2008-12-20T10:27:16Z" uid="43863" user="Rundling" changeset="494954" lat="52.9220334" lon="10.3811078"/>
  <node id="320131695" version="2" timestamp="2011-01-23T22:50:27Z" uid="57645" user="KartoGrapHiti" changeset="7068341" lat="52.9215278" lon="10.3801494"/>
  <node id="320131698" version="1" timestamp="2008-12-20T10:27:16Z" uid="43863" user="Rundling" changeset="494954" lat="52.9215816" lon="10.3875865"/>
  <node id="320131698" version="2" timestamp="2011-01-23T22:50:27Z" uid="57645" user="KartoGrapHiti" changeset="7068341" lat="52.9232669" lon="10.3910607"/>
  <node id="320131701" version="1" timestamp="2008-12-20T10:27:17Z" uid="43863" user="Rundling" changeset="494954" lat="52.9214821" lon="10.3863481"/>
  <node id="320131701" version="2" timestamp="2011-01-23T22:50:28Z" uid="57645" user="KartoGrapHiti" changeset="7068341" lat="52.9204227" lon="10.3879455"/>
  <node id="320131703" version="1" timestamp="2008-12-20T10:27:17Z" uid="43863" user="Rundling" changeset="494954" lat="52.9432759" lon="10.4301558"/>
  <node id="320131705" version="1" timestamp="2008-12-20T10:27:17Z" uid="43863" user="Rundling" changeset="494954" lat="52.9434876" lon="10.4358107">
    <tag k="created_by" v="JOSM"/>
  </node>
  <node id="320131705" version="2" timestamp="2011-02-19T20:39:12Z" uid="43863" user="Rundling" changeset="7336250" lat="52.9434772" lon="10.4355386"/>
  <node id="320131707" version="1" timestamp="2008-12-20T10:27:17Z" uid="27600" user="Islanit" changeset="490705" lat="49.7121476" lon="8.6924231"/>
  <node id="320131707" version="2" timestamp="2011-03-17T21:50:25Z" uid="6270" user="mikes" changeset="7590401" lat="49.7121476" lon="8.6924231">
    <tag k="TMC:cid_58:tabcd_1:Class" v="Point"/>
    <tag k="TMC:cid_58:tabcd_1:LCLversion" v="9.00"/>
    <tag k="TMC:cid_58:tabcd_1:LocationCode" v="53667"/>
    <tag k="TMC:cid_58:tabcd_1:PrevLocationCode" v="53668"/>
  </node>
  <node id="320131707" version="3" timestamp="2011-03-18T19:05:36Z" uid="218283" user="TMCbot" changeset="7598345" lat="49.7121476" lon="8.6924231">
    <tag k="TMC:cid_58:tabcd_1:Class" v="Point"/>
    <tag k="TMC:cid_58:tabcd_1:LCLversion" v="9.00"/>
    <tag k="TMC:cid_58:tabcd_1:LocationCode" v="53667"/>
    <tag k="TMC:cid_58:tabcd_1:NextLocationCode" v="53668"/>
  </node>
  <node id="320131707" version="4" timestamp="2011-04-03T17:08:31Z" uid="6270" user="mikes" changeset="7756568" lat="49.7121476" lon="8.6924231"/>
  <node id="320131708" version="1" timestamp="2008-12-20T10:27:17Z" uid="43863" user="Rundling" changeset="494954" lat="52.938074" lon="10.4347824"/>
  <node id="320131708" version="2" timestamp="2008-12-20T10:29:07Z" uid="43863" user="Rundling" changeset="494954" lat="52.9380923" lon="10.4347134"/>
  <node id="320131708" version="3" timestamp="2011-02-19T20:39:14Z" uid="43863" user="Rundling" changeset="7336250" lat="52.9380923" lon="10.4347134"/>
  <node id="320131710" version="1" timestamp="2008-12-20T10:27:17Z" uid="43863" user="Rundling" changeset="494954" lat="52.9400022" lon="10.4323102"/>
  <node id="320131710" version="2" timestamp="2008-12-20T10:29:07Z" uid="43863" user="Rundling" changeset="494954" lat="52.9400283" lon="10.4322412"/>
  <node id="320131713" version="1" timestamp="2008-12-20T10:27:17Z" uid="43863" user="Rundling" changeset="494954" lat="52.9416833" lon="10.4309753"/>
  <node id="320131713" version="2" timestamp="2008-12-20T10:29:07Z" uid="43863" user="Rundling" changeset="494954" lat="52.941699" lon="10.4309149"/>
  <node id="320131716" version="1" timestamp="2008-12-20T10:27:17Z" uid="43863" user="Rundling" changeset="494954" lat="52.9374661" lon="10.4349717"/>
  <node id="320131716" version="2" timestamp="2011-02-19T20:39:10Z" uid="43863" user="Rundling" changeset="7336250" lat="52.9368595" lon="10.4359954"/>
  <node id="320131718" version="1" timestamp="2008-12-20T10:27:17Z" uid="43863" user="Rundling" changeset="494954" lat="52.9400261" lon="10.4322099"/>
  <node id="320131721" version="1" timestamp="2008-12-20T10:27:18Z" uid="43863" user="Rundling" changeset="494954" lat="52.9416889" lon="10.4308975"/>
  <node id="320131723" version="1" timestamp="2008-12-20T10:27:18Z" uid="43863" user="Rundling" changeset="494954" lat="52.9444374" lon="10.4296686"/>
  <node id="320131725" version="1" timestamp="2008-12-20T10:27:18Z" uid="43863" user="Rundling" changeset="494954" lat="52.9360583" lon="10.4370467"/>
  <node id="320131725" version="2" timestamp="2009-06-05T08:20:23Z" uid="42429" user="FK270673" changeset="1427352" lat="52.9360583" lon="10.4370467"/>
  <node id="320131727" version="1" timestamp="2008-12-20T10:27:18Z" uid="43863" user="Rundling" changeset="494954" lat="52.954464" lon="10.4260136"/>
  <node id="320131727" version="2" timestamp="2011-02-27T07:16:13Z" uid="409082" user="Zacko" changeset="7407289" lat="52.954464" lon="10.4260136"/>
  <node id="320131727" version="3" timestamp="2011-03-18T21:57:19Z" uid="409082" user="Zacko" changeset="7599858" lat="52.9544391" lon="10.4260301"/>
  <node id="320131730" version="1" timestamp="2008-12-20T10:27:18Z" uid="43863" user="Rundling" changeset="494954" lat="52.9196032" lon="10.4213389">
    <tag k="created_by" v="JOSM"/>
  </node>
  <node id="320131730" version="2" timestamp="2011-03-19T18:49:56Z" uid="409082" user="Zacko" changeset="7608501" lat="52.9196252" lon="10.4216456"/>
  <node id="320131733" version="1" timestamp="2008-12-20T10:27:18Z" uid="43863" user="Rundling" changeset="494954" lat="52.9207076" lon="10.431208">
    <tag k="created_by" v="JOSM"/>
  </node>
  <node id="320131735" version="1" timestamp="2008-12-20T10:27:18Z" uid="43863" user="Rundling" changeset="494954" lat="52.9206097" lon="10.4307679">
    <tag k="created_by" v="JOSM"/>
  </node>
  <node id="320131737" version="1" timestamp="2008-12-20T10:27:19Z" uid="43863" user="Rundling" changeset="494954" lat="52.9200911" lon="10.4283045">
    <tag k="created_by" v="JOSM"/>
  </node>
  <node id="320131737" version="2" timestamp="2011-03-19T18:49:55Z" uid="409082" user="Zacko" changeset="7608501" lat="52.9200647" lon="10.4283118"/>
  <node id="320131738" version="1" timestamp="2008-12-20T10:27:19Z" uid="43863" user="Rundling" changeset="494954" lat="52.9195206" lon="10.4259967">
    <tag k="created_by" v="JOSM"/>
  </node>
  <node id="320131739" version="1" timestamp="2008-12-20T10:27:19Z" uid="43863" user="Rundling" changeset="494954" lat="52.9194239" lon="10.4244755">
    <tag k="created_by" v="JOSM"/>
  </node>
  <node id="320131739" version="2" timestamp="2011-03-19T18:49:54Z" uid="409082" user="Zacko" changeset="7608501" lat="52.9194988" lon="10.4244755"/>
  <node id="320131910" version="1" timestamp="2008-12-20T10:29:07Z" uid="43863" user="Rundling" changeset="494954" lat="52.9380656" lon="10.4347012"/>
  <node id="320131910" version="2" timestamp="2009-06-05T08:20:22Z" uid="42429" user="FK270673" changeset="1427352" lat="52.9380656" lon="10.4347012"/>
  <node id="320132096" version="2" timestamp="2009-01-01T13:14:21Z" uid="6975" user="ulfl" changeset="699648" lat="51.179102" lon="6.4524164">
    <tag k="amenity" v="parking"/>
  </node>
  <node id="320132096" version="3" timestamp="2009-01-15T15:19:16Z" uid="14786" user="BroadwayLamb" changeset="791822" lat="51.179102" lon="6.4524164">
    <tag k="amenity" v="parking"/>
  </node>
  <node id="320133114" version="1" timestamp="2008-12-20T10:36:59Z" uid="19626" user="Swamp" changeset="500793" lat="-34.7398575" lon="146.7832702">
    <tag k="highway" v="bus_stop"/>
    <tag k="source" v="survey"/>
  </node>
  <node id="320133116" version="1" timestamp="2008-12-20T10:37:00Z" uid="19626" user="Swamp" changeset="500793" lat="-34.7409143" lon="146.7858766"/>
  <node id="320133117" version="1" timestamp="2008-12-20T10:37:01Z" uid="19626" user="Swamp" changeset="500793" lat="-34.7418453" lon="146.7899272"/>
  <node id="320133118" version="1" timestamp="2008-12-20T10:37:02Z" uid="19626" user="Swamp" changeset="500793" lat="-34.7461082" lon="146.7890615"/>
  <node id="320133121" version="1" timestamp="2008-12-20T10:37:02Z" uid="19626" user="Swamp" changeset="500793" lat="-34.7454712" lon="146.7862522"/>
  <node id="320133127" version="1" timestamp="2008-12-20T10:37:03Z" uid="19626" user="Swamp" changeset="500793" lat="-34.7442953" lon="146.7865462"/>
  <node id="320133131" version="1" timestamp="2008-12-20T10:37:04Z" uid="19626" user="Swamp" changeset="500793" lat="-34.7439849" lon="146.7852233"/>
  <node id="320133134" version="1" timestamp="2008-12-20T10:37:05Z" uid="19626" user="Swamp" changeset="500793" lat="-34.7399383" lon="146.7826115"/>
  <node id="320133136" version="1" timestamp="2008-12-20T10:37:05Z" uid="19626" user="Swamp" changeset="500793" lat="-34.7416135" lon="146.7823225"/>
  <node id="320133136" version="2" timestamp="2010-12-20T13:02:17Z" uid="19626" user="Swamp" changeset="6715772" lat="-34.741614" lon="146.7823253"/>
  <node id="320133139" version="1" timestamp="2008-12-20T10:37:06Z" uid="19626" user="Swamp" changeset="500793" lat="-34.7425073" lon="146.7821727"/>
  <node id="320133142" version="1" timestamp="2008-12-20T10:37:07Z" uid="19626" user="Swamp" changeset="500793" lat="-34.7416971" lon="146.7823273"/>
  <node id="320133142" version="2" timestamp="2010-12-20T13:02:17Z" uid="19626" user="Swamp" changeset="6715772" lat="-34.7416944" lon="146.7823115"/>
  <node id="320133785" version="1" timestamp="2008-12-20T10:41:41Z" uid="58091" user="Andreas M" changeset="504586" lat="48.2354557" lon="16.3793694"/>
  <node id="320133785" version="2" timestamp="2010-12-27T16:06:49Z" uid="136033" user="peter_wien" changeset="6779251" lat="48.2354757" lon="16.3793059"/>
  <node id="320133785" version="3" timestamp="2011-03-31T21:21:00Z" uid="232372" user="wosm20" changeset="7730316" lat="48.2354868" lon="16.3792859"/>
  <node id="320133785" version="4" timestamp="2012-03-30T16:57:32Z" uid="99800" user="wolfbert" changeset="11157446" lat="48.2354868" lon="16.3792859"/>
  <node id="320134431" version="1" timestamp="2008-12-20T10:49:58Z" uid="19626" user="Swamp" changeset="500793" lat="-34.7424661" lon="146.7947826"/>
  <node id="320134436" version="1" timestamp="2008-12-20T10:49:58Z" uid="19626" user="Swamp" changeset="500793" lat="-34.7445294" lon="146.7947783"/>
  <node id="320134522" version="2" timestamp="2009-03-25T22:58:03Z" uid="49111" user="Markus B" changeset="861683" lat="47.5150049" lon="7.5041003"/>
  <node id="320134522" version="3" timestamp="2009-05-08T16:18:48Z" uid="42220" user="longsch" changeset="1119130" lat="47.5150558" lon="7.5044346"/>
  <node id="320134522" version="4" timestamp="2009-08-19T05:05:45Z" uid="159725" user="cozac" changeset="2196865" lat="47.5150558" lon="7.5044346"/>
  <node id="320134522" version="5" timestamp="2011-03-27T15:07:38Z" uid="107257" user="FrViPofm" changeset="7686505" lat="47.5150558" lon="7.5044346"/>
  <node id="320135306" version="2" timestamp="2009-01-03T14:12:21Z" uid="6975" user="ulfl" changeset="720285" lat="48.1503757" lon="11.533862">
    <tag k="name" v="Rossmann"/>
    <tag k="shop" v="chemist"/>
    <tag k="source" v="survey"/>
  </node>
  <node id="320135306" version="3" timestamp="2010-04-10T22:09:19Z" uid="516" user="kammann" changeset="4387706" lat="48.1503757" lon="11.533862">
    <tag k="addr:city" v="München"/>
    <tag k="addr:country" v="DE"/>
    <tag k="addr:housenumber" v="20"/>
    <tag k="addr:postcode" v="80634"/>
    <tag k="addr:street" v="Donnersbergerstraße"/>
    <tag k="name" v="Rossmann"/>
    <tag k="opening_hours" v="Mo-Fr 09:00-19:00; Sa 08:30-14:00"/>
    <tag k="phone" v="+4913998224"/>
    <tag k="shop" v="chemist"/>
    <tag k="source" v="survey"/>
  </node>
  <node id="320135306" version="4" timestamp="2011-06-02T15:58:28Z" uid="64008" user="E-Malte" changeset="8321282" lat="48.1503757" lon="11.533862"/>
  <node id="320135830" version="1" timestamp="2008-12-20T11:00:28Z" uid="58091" user="Andreas M" changeset="504586" lat="48.2502776" lon="16.375776"/>
  <node id="320135830" version="2" timestamp="2009-01-19T22:00:25Z" uid="43577" user="dorni74" changeset="812585" lat="48.2502776" lon="16.375776"/>
  <node id="320135830" version="3" timestamp="2009-01-19T22:01:36Z" uid="43577" user="dorni74" changeset="812585" lat="48.2502776" lon="16.375776"/>
  <node id="320135830" version="4" timestamp="2009-01-26T08:17:05Z" uid="54806" user="_al" changeset="838745" lat="48.2502776" lon="16.375776"/>
  <node id="320135830" version="5" timestamp="2009-01-26T08:26:40Z" uid="54806" user="_al" changeset="838745" lat="48.2502776" lon="16.375776"/>
  <node id="320135830" version="6" timestamp="2009-01-26T08:28:33Z" uid="54806" user="_al" changeset="838745" lat="48.2502776" lon="16.375776"/>
  <node id="320135830" version="7" timestamp="2009-01-26T08:28:57Z" uid="54806" user="_al" changeset="838745" lat="48.2502776" lon="16.375776"/>
  <node id="320135830" version="8" timestamp="2009-01-26T08:33:14Z" uid="54806" user="_al" changeset="838745" lat="48.2502776" lon="16.375776"/>
  <node id="320135830" version="9" timestamp="2009-01-26T14:02:35Z" uid="54806" user="_al" changeset="839783" lat="48.2502776" lon="16.375776"/>
  <node id="320135830" version="10" timestamp="2009-01-26T14:02:52Z" uid="54806" user="_al" changeset="839783" lat="48.2502776" lon="16.375776"/>
  <node id="320135830" version="11" timestamp="2011-08-12T23:06:46Z" uid="56501" user="Rudolf_H" changeset="9000868" lat="48.2502729" lon="16.3756933"/>
  <node id="320135830" version="12" timestamp="2012-03-29T20:34:23Z" uid="99800" user="wolfbert" changeset="11144149" lat="48.2502729" lon="16.3756933"/>
  <node id="320135831" version="1" timestamp="2008-12-20T11:00:28Z" uid="58091" user="Andreas M" changeset="504586" lat="48.2505554" lon="16.3763934"/>
  <node id="320135831" version="2" timestamp="2012-03-29T20:34:23Z" uid="99800" user="wolfbert" changeset="11144149" lat="48.2505554" lon="16.3763934"/>
  <node id="320137633" version="1" timestamp="2008-12-20T11:10:47Z" uid="58091" user="Andreas M" changeset="504586" lat="48.2478238" lon="16.3790925"/>
  <node id="320137633" version="2" timestamp="2012-03-29T20:34:15Z" uid="99800" user="wolfbert" changeset="11144149" lat="48.2480253" lon="16.3794506"/>
  <node id="320137636" version="1" timestamp="2008-12-20T11:10:47Z" uid="58091" user="Andreas M" changeset="504586" lat="48.2483729" lon="16.380405"/>
  <node id="320137636" version="2" timestamp="2011-03-27T19:25:56Z" uid="232372" user="wosm20" changeset="7690064" lat="48.2483825" lon="16.3802572"/>
  <node id="320137638" version="1" timestamp="2008-12-20T11:10:47Z" uid="58091" user="Andreas M" changeset="504586" lat="48.2480343" lon="16.3807787"/>
  <node id="320137638" version="2" timestamp="2011-03-27T19:26:23Z" uid="232372" user="wosm20" changeset="7690064" lat="48.2475055" lon="16.3810888"/>
  <node id="320137639" version="1" timestamp="2008-12-20T11:10:48Z" uid="58091" user="Andreas M" changeset="504586" lat="48.2486243" lon="16.3802779"/>
  <node id="320137639" version="2" timestamp="2011-03-27T19:26:28Z" uid="232372" user="wosm20" changeset="7690064" lat="48.2486243" lon="16.3802779"/>
  <node id="320137640" version="1" timestamp="2008-12-20T11:10:48Z" uid="58091" user="Andreas M" changeset="504586" lat="48.248691" lon="16.3804243"/>
  <node id="320138512" version="1" timestamp="2008-12-20T11:18:26Z" uid="58091" user="Andreas M" changeset="504586" lat="48.23599" lon="16.3681054"/>
  <node id="320138512" version="2" timestamp="2009-07-24T09:28:24Z" uid="104947" user="My Friend" changeset="1923349" lat="48.23599" lon="16.3681054"/>
  <node id="320138512" version="3" timestamp="2011-03-07T15:22:32Z" uid="99800" user="wolfbert" changeset="7485181" lat="48.2360272" lon="16.3681105"/>
  <node id="320138514" version="1" timestamp="2008-12-20T11:18:26Z" uid="58091" user="Andreas M" changeset="504586" lat="48.235256" lon="16.3681106"/>
  <node id="320138514" version="2" timestamp="2010-07-23T13:08:07Z" uid="323033" user="mbue" changeset="5295497" lat="48.2352521" lon="16.3681147"/>
  <node id="320138514" version="3" timestamp="2010-07-28T17:10:50Z" uid="323033" user="mbue" changeset="5339824" lat="48.2352251" lon="16.3681218"/>
  <node id="320138514" version="4" timestamp="2011-03-22T17:41:45Z" uid="298560" user="evod" changeset="7639222" lat="48.2352723" lon="16.3681025"/>
</osm>
