<?xml version='1.0' encoding='UTF-8'?>
<osm version="0.6" generator="libosmium/2.20.0">
  <node id="320170169" version="5" timestamp="2009-10-19T18:50:38Z" uid="36809" user="pfoten_weg_!_" changeset="2897310" lat="47.9012649" lon="11.6328335">
    <tag k="addr:city" v="Steingau"/>
    <tag k="addr:country" v="DE"/>
    <tag k="addr:housenumber" v="1"/>
    <tag k="addr:street" v="Kanzlerweg"/>
    <tag k="postal_code" v="83623"/>
    <tag k="source" v="survey"/>
  </node>
  <node id="320170169" version="6" timestamp="2009-10-23T11:31:28Z" uid="36809" user="pfoten_weg_!_" changeset="2928981" lat="47.9012649" lon="11.6328335">
    <tag k="addr:city" v="Steingau"/>
    <tag k="addr:country" v="DE"/>
    <tag k="addr:housenumber" v="1"/>
    <tag k="addr:street" v="Kanzlerweg"/>
    <tag k="postal_code" v="83623"/>
  </node>
  <node id="320170169" version="7" timestamp="2011-02-07T19:32:38Z" uid="329528" user="Skubiduhh" changeset="7219799" lat="47.9012649" lon="11.6328335">
    <tag k="addr:city" v="Steingau"/>
    <tag k="addr:country" v="DE"/>
    <tag k="addr:housenumber" v="1"/>
    <tag k="addr:street" v="Kanzlerweg"/>
    <tag k="postal_code" v="83623"/>
  </node>
  <node id="320170180" version="5" timestamp="2009-10-19T18:50:38Z" uid="36809" user="pfoten_weg_!_" changeset="2897310" lat="47.901098" lon="11.6325502">
    <tag k="addr:city" v="Steingau"/>
    <tag k="addr:country" v="DE"/>
    <tag k="addr:housenumber" v="2"/>
    <tag k="addr:street" v="Kanzlerweg"/>
    <tag k="postal_code" v="83623"/>
    <tag k="source" v="survey"/>
  </node>
  <node id="320170180" version="6" timestamp="2009-10-23T11:31:27Z" uid="36809" user="pfoten_weg_!_" changeset="2928981" lat="47.901098" lon="11.6325502">
    <tag k="addr:city" v="Steingau"/>
    <tag k="addr:country" v="DE"/>
    <tag k="addr:housenumber" v="2"/>
    <tag k="addr:street" v="Kanzlerweg"/>
    <tag k="postal_code" v="83623"/>
  </node>
  <node id="320170180" version="7" timestamp="2011-02-07T19:32:40Z" uid="329528" user="Skubiduhh" changeset="7219799" lat="47.901098" lon="11.6325502">
    <tag k="addr:city" v="Steingau"/>
    <tag k="addr:country" v="DE"/>
    <tag k="addr:housenumber" v="2"/>
    <tag k="addr:street" v="Kanzlerweg"/>
    <tag k="postal_code" v="83623"/>
  </node>
  <node id="320170220" version="1" timestamp="2008-12-20T13:55:05Z" uid="58091" user="Andreas M" changeset="504586" lat="48.2534888" lon="16.2787285"/>
  <node id="320170222" version="1" timestamp="2008-12-20T13:55:06Z" uid="58091" user="Andreas M" changeset="504586" lat="48.2526396" lon="16.2792959"/>
  <node id="320170224" version="1" timestamp="2008-12-20T13:55:06Z" uid="58091" user="Andreas M" changeset="504586" lat="48.2535178" lon="16.2778896"/>
  <node id="320170226" version="1" timestamp="2008-12-20T13:55:06Z" uid="58091" user="Andreas M" changeset="504586" lat="48.2533855" lon="16.2779672"/>
  <node id="320170626" version="3" timestamp="2009-08-28T19:46:57Z" uid="74617" user="JohnSmith" changeset="2294693" lat="-17.8275344" lon="145.6264896"/>
  <node id="320170631" version="3" timestamp="2009-08-28T19:46:57Z" uid="74617" user="JohnSmith" changeset="2294693" lat="-17.8281018" lon="145.6262007"/>
  <node id="320170845" version="5" timestamp="2009-10-19T18:50:33Z" uid="36809" user="pfoten_weg_!_" changeset="2897310" lat="47.9008564" lon="11.6328506">
    <tag k="addr:city" v="Steingau"/>
    <tag k="addr:country" v="DE"/>
    <tag k="addr:housenumber" v="3"/>
    <tag k="addr:street" v="Kanzlerweg"/>
    <tag k="postal_code" v="83623"/>
    <tag k="source" v="survey"/>
  </node>
  <node id="320170845" version="6" timestamp="2009-10-23T11:31:24Z" uid="36809" user="pfoten_weg_!_" changeset="2928981" lat="47.9008564" lon="11.6328506">
    <tag k="addr:city" v="Steingau"/>
    <tag k="addr:country" v="DE"/>
    <tag k="addr:housenumber" v="3"/>
    <tag k="addr:street" v="Kanzlerweg"/>
    <tag k="postal_code" v="83623"/>
  </node>
  <node id="320170845" version="7" timestamp="2011-02-07T19:32:38Z" uid="329528" user="Skubiduhh" changeset="7219799" lat="47.9008564" lon="11.6328506">
    <tag k="addr:city" v="Steingau"/>
    <tag k="addr:country" v="DE"/>
    <tag k="addr:housenumber" v="3"/>
    <tag k="addr:street" v="Kanzlerweg"/>
    <tag k="postal_code" v="83623"/>
  </node>
  <node id="320170894" version="5" timestamp="2009-10-19T18:50:32Z" uid="36809" user="pfoten_weg_!_" changeset="2897310" lat="47.9007816" lon="11.6325073">
    <tag k="addr:city" v="Steingau"/>
    <tag k="addr:country" v="DE"/>
    <tag k="addr:housenumber" v="4"/>
    <tag k="addr:street" v="Kanzlerweg"/>
    <tag k="postal_code" v="83623"/>
    <tag k="source" v="survey"/>
  </node>
  <node id="320170894" version="6" timestamp="2009-10-23T11:31:21Z" uid="36809" user="pfoten_weg_!_" changeset="2928981" lat="47.9007816" lon="11.6325073">
    <tag k="addr:city" v="Steingau"/>
    <tag k="addr:country" v="DE"/>
    <tag k="addr:housenumber" v="4"/>
    <tag k="addr:street" v="Kanzlerweg"/>
    <tag k="postal_code" v="83623"/>
  </node>
  <node id="320170894" version="7" timestamp="2011-02-07T19:32:40Z" uid="329528" user="Skubiduhh" changeset="7219799" lat="47.9007816" lon="11.6325073">
    <tag k="addr:city" v="Steingau"/>
    <tag k="addr:country" v="DE"/>
    <tag k="addr:housenumber" v="4"/>
    <tag k="addr:street" v="Kanzlerweg"/>
    <tag k="postal_code" v="83623"/>
  </node>
  <node id="320172365" version="14" timestamp="2009-02-16T09:02:25Z" uid="9581" user="Lobelt" changeset="476707" lat="51.5853895" lon="14.0089951"/>
  <node id="320172365" version="15" timestamp="2011-03-08T11:44:56Z" uid="352869" user="Hans Wurst" changeset="7493186" lat="51.585361" lon="14.0090363"/>
  <node id="320172453" version="2" timestamp="2009-07-05T11:04:59Z" uid="59758" user="rendle" changeset="1737781" lat="8.6393599" lon="-9.6965613"/>
  <node id="320173264" version="1" timestamp="2008-12-20T14:02:53Z" uid="58091" user="Andreas M" changeset="504586" lat="48.2181335" lon="16.3317351"/>
  <node id="320173264" version="2" timestamp="2009-01-12T09:07:58Z" uid="54806" user="_al" changeset="776320" lat="48.2181335" lon="16.3317351"/>
  <node id="320173264" version="3" timestamp="2009-03-13T05:49:43Z" uid="104047" user="e9426086" changeset="799098" lat="48.2181335" lon="16.3317351"/>
  <node id="320173264" version="4" timestamp="2009-03-13T15:28:49Z" uid="104047" user="e9426086" changeset="799681" lat="48.2181335" lon="16.3317351"/>
  <node id="320173264" version="5" timestamp="2009-03-28T07:38:20Z" uid="104047" user="e9426086" changeset="866286" lat="48.2181335" lon="16.3317351"/>
  <node id="320173264" version="6" timestamp="2012-02-12T20:42:31Z" uid="129531" user="almich" changeset="10667964" lat="48.2181335" lon="16.3317351"/>
  <node id="320173266" version="1" timestamp="2008-12-20T14:02:53Z" uid="58091" user="Andreas M" changeset="504586" lat="48.2175067" lon="16.3316859"/>
  <node id="320173266" version="2" timestamp="2009-03-13T05:49:43Z" uid="104047" user="e9426086" changeset="799098" lat="48.2175067" lon="16.3316859"/>
  <node id="320173266" version="3" timestamp="2009-03-13T15:28:49Z" uid="104047" user="e9426086" changeset="799681" lat="48.2175067" lon="16.3316859"/>
  <node id="320173266" version="4" timestamp="2012-02-12T20:57:14Z" uid="129531" user="almich" changeset="10668157" lat="48.2175336" lon="16.3316144"/>
  <node id="320173267" version="1" timestamp="2008-12-20T14:02:53Z" uid="58091" user="Andreas M" changeset="504586" lat="48.2169358" lon="16.3316465"/>
  <node id="320173267" version="2" timestamp="2012-02-12T20:57:14Z" uid="129531" user="almich" changeset="10668157" lat="48.2171058" lon="16.331547"/>
  <node id="320173269" version="1" timestamp="2008-12-20T14:02:53Z" uid="58091" user="Andreas M" changeset="504586" lat="48.2174378" lon="16.3323064"/>
  <node id="320173269" version="2" timestamp="2012-02-12T20:57:14Z" uid="129531" user="almich" changeset="10668157" lat="48.2174741" lon="16.3322551"/>
  <node id="320173517" version="4" timestamp="2009-08-24T23:13:59Z" uid="36809" user="pfoten_weg_!_" changeset="2251012" lat="48.036655" lon="11.2191715">
    <tag k="amenity" v="place_of_worship"/>
    <tag k="denomination" v="catholic"/>
    <tag k="name" v="Stankt Peter und Paul"/>
    <tag k="religion" v="christian"/>
  </node>
  <node id="320173892" version="4" timestamp="2009-02-16T09:02:25Z" uid="9581" user="Lobelt" changeset="476707" lat="51.5853213" lon="14.0095751"/>
  <node id="320173892" version="5" timestamp="2011-03-08T11:44:56Z" uid="352869" user="Hans Wurst" changeset="7493186" lat="51.5852928" lon="14.0096117"/>
  <node id="320173892" version="6" timestamp="2012-03-08T21:37:33Z" uid="28234" user="derandi" changeset="10914067" lat="51.5852928" lon="14.0096117"/>
  <node id="320173894" version="3" timestamp="2009-02-16T09:02:25Z" uid="9581" user="Lobelt" changeset="476707" lat="51.5850509" lon="14.0106288"/>
  <node id="320173894" version="4" timestamp="2009-09-23T10:19:53Z" uid="16019" user="Thommse" changeset="2593633" lat="51.5850382" lon="14.0105922"/>
  <node id="320173894" version="5" timestamp="2009-11-17T18:46:13Z" uid="198343" user="jamax" changeset="3143879" lat="51.58516" lon="14.0106048"/>
  <node id="320173894" version="6" timestamp="2009-11-30T06:21:35Z" uid="16019" user="Thommse" changeset="3253169" lat="51.585019" lon="14.0106079"/>
  <node id="320173894" version="7" timestamp="2012-03-08T21:37:34Z" uid="28234" user="derandi" changeset="10914067" lat="51.585019" lon="14.0106079"/>
  <node id="320174909" version="5" timestamp="2009-10-19T18:50:39Z" uid="36809" user="pfoten_weg_!_" changeset="2897310" lat="47.9010405" lon="11.633357">
    <tag k="addr:city" v="Steingau"/>
    <tag k="addr:country" v="DE"/>
    <tag k="addr:housenumber" v="1a"/>
    <tag k="addr:street" v="Otterfinger StraÃŸe"/>
    <tag k="postal_code" v="83623"/>
    <tag k="source" v="survey"/>
  </node>
  <node id="320174909" version="6" timestamp="2009-10-23T11:31:29Z" uid="36809" user="pfoten_weg_!_" changeset="2928981" lat="47.9010405" lon="11.633357">
    <tag k="addr:city" v="Steingau"/>
    <tag k="addr:country" v="DE"/>
    <tag k="addr:housenumber" v="1a"/>
    <tag k="addr:street" v="Otterfinger StraÃŸe"/>
    <tag k="postal_code" v="83623"/>
  </node>
  <node id="320174909" version="7" timestamp="2011-02-07T19:32:38Z" uid="329528" user="Skubiduhh" changeset="7219799" lat="47.9010405" lon="11.633357">
    <tag k="addr:city" v="Steingau"/>
    <tag k="addr:country" v="DE"/>
    <tag k="addr:housenumber" v="1a"/>
    <tag k="addr:street" v="Otterfinger StraÃŸe"/>
    <tag k="postal_code" v="83623"/>
  </node>
  <node id="320175454" version="4" timestamp="2009-10-19T18:50:41Z" uid="36809" user="pfoten_weg_!_" changeset="2897310" lat="47.9014721" lon="11.6341724">
    <tag k="addr:city" v="Steingau"/>
    <tag k="addr:country" v="DE"/>
    <tag k="addr:housenumber" v="2"/>
    <tag k="addr:street" v="Otterfinger StraÃŸe"/>
    <tag k="postal_code" v="83623"/>
    <tag k="source" v="survey"/>
  </node>
  <node id="320175454" version="5" timestamp="2009-10-23T11:31:31Z" uid="36809" user="pfoten_weg_!_" changeset="2928981" lat="47.9014721" lon="11.6341724">
    <tag k="addr:city" v="Steingau"/>
    <tag k="addr:country" v="DE"/>
    <tag k="addr:housenumber" v="2"/>
    <tag k="addr:street" v="Otterfinger StraÃŸe"/>
    <tag k="postal_code" v="83623"/>
  </node>
  <node id="320175454" version="6" timestamp="2011-02-07T19:32:37Z" uid="329528" user="Skubiduhh" changeset="7219799" lat="47.9014721" lon="11.6341724">
    <tag k="addr:city" v="Steingau"/>
    <tag k="addr:country" v="DE"/>
    <tag k="addr:housenumber" v="2"/>
    <tag k="addr:street" v="Otterfinger StraÃŸe"/>
    <tag k="postal_code" v="83623"/>
  </node>
  <node id="320175610" version="4" timestamp="2009-10-19T18:50:40Z" uid="36809" user="pfoten_weg_!_" changeset="2897310" lat="47.9011211" lon="11.6335545">
    <tag k="addr:city" v="Steingau"/>
    <tag k="addr:country" v="DE"/>
    <tag k="addr:housenumber" v="1"/>
    <tag k="addr:street" v="FraÃŸhauser StraÃŸe"/>
    <tag k="postal_code" v="83623"/>
    <tag k="source" v="survey"/>
  </node>
  <node id="320175610" version="5" timestamp="2009-10-23T11:31:30Z" uid="36809" user="pfoten_weg_!_" changeset="2928981" lat="47.9011211" lon="11.6335545">
    <tag k="addr:city" v="Steingau"/>
    <tag k="addr:country" v="DE"/>
    <tag k="addr:housenumber" v="1"/>
    <tag k="addr:street" v="FraÃŸhauser StraÃŸe"/>
    <tag k="postal_code" v="83623"/>
  </node>
  <node id="320175610" version="6" timestamp="2010-12-01T19:28:31Z" uid="42393" user="mawi42" changeset="6507383" lat="47.9012042" lon="11.6335515">
    <tag k="addr:city" v="Steingau"/>
    <tag k="addr:country" v="DE"/>
    <tag k="addr:housenumber" v="1"/>
    <tag k="addr:street" v="FraÃŸhauser StraÃŸe"/>
    <tag k="postal_code" v="83623"/>
  </node>
  <node id="320175610" version="7" timestamp="2011-02-07T19:32:38Z" uid="329528" user="Skubiduhh" changeset="7219799" lat="47.9012042" lon="11.6335515">
    <tag k="addr:city" v="Steingau"/>
    <tag k="addr:country" v="DE"/>
    <tag k="addr:housenumber" v="1"/>
    <tag k="addr:street" v="FraÃŸhauser StraÃŸe"/>
    <tag k="postal_code" v="83623"/>
  </node>
  <node id="320175721" version="4" timestamp="2009-10-19T18:50:35Z" uid="36809" user="pfoten_weg_!_" changeset="2897310" lat="47.9012131" lon="11.6322498">
    <tag k="addr:city" v="Steingau"/>
    <tag k="addr:country" v="DE"/>
    <tag k="addr:housenumber" v="3"/>
    <tag k="addr:street" v="FraÃŸhauser StraÃŸe"/>
    <tag k="postal_code" v="83623"/>
    <tag k="source" v="survey"/>
  </node>
  <node id="320175721" version="5" timestamp="2009-10-23T11:31:26Z" uid="36809" user="pfoten_weg_!_" changeset="2928981" lat="47.9012131" lon="11.6322498">
    <tag k="addr:city" v="Steingau"/>
    <tag k="addr:country" v="DE"/>
    <tag k="addr:housenumber" v="3"/>
    <tag k="addr:street" v="FraÃŸhauser StraÃŸe"/>
    <tag k="postal_code" v="83623"/>
  </node>
  <node id="320175721" version="6" timestamp="2011-02-07T19:32:40Z" uid="329528" user="Skubiduhh" changeset="7219799" lat="47.9012131" lon="11.6322498">
    <tag k="addr:city" v="Steingau"/>
    <tag k="addr:country" v="DE"/>
    <tag k="addr:housenumber" v="3"/>
    <tag k="addr:street" v="FraÃŸhauser StraÃŸe"/>
    <tag k="postal_code" v="83623"/>
  </node>
  <node id="320175783" version="1" timestamp="2008-12-20T14:09:45Z" uid="7617" user="Franc" changeset="496725" lat="-34.0208899" lon="151.1189482"/>
  <node id="320175783" version="2" timestamp="2012-02-29T10:38:59Z" uid="7523" user="inas" changeset="10826611" lat="-34.0208899" lon="151.1189482"/>
  <node id="320175784" version="1" timestamp="2008-12-20T14:09:45Z" uid="7617" user="Franc" changeset="496725" lat="-34.0200188" lon="151.1193591"/>
  <node id="320175784" version="2" timestamp="2012-02-29T10:39:00Z" uid="7523" user="inas" changeset="10826611" lat="-34.0200188" lon="151.1193591"/>
  <node id="320175785" version="1" timestamp="2008-12-20T14:09:46Z" uid="7617" user="Franc" changeset="496725" lat="-34.0196429" lon="151.1194013">
    <tag k="highway" v="gate"/>
  </node>
  <node id="320175785" version="2" timestamp="2009-02-13T22:06:05Z" uid="3516" user="BiIbo" changeset="411090" lat="-34.0196429" lon="151.1194013">
    <tag k="barrier" v="gate"/>
  </node>
  <node id="320175785" version="3" timestamp="2012-02-29T10:39:00Z" uid="7523" user="inas" changeset="10826611" lat="-34.0196429" lon="151.1194013"/>
  <node id="320175786" version="1" timestamp="2008-12-20T14:09:47Z" uid="7617" user="Franc" changeset="496725" lat="-34.019534" lon="151.1193697"/>
  <node id="320175786" version="2" timestamp="2012-02-29T10:39:00Z" uid="7523" user="inas" changeset="10826611" lat="-34.019534" lon="151.1193697"/>
  <node id="320175787" version="1" timestamp="2008-12-20T14:09:48Z" uid="7617" user="Franc" changeset="496725" lat="-34.0208794" lon="151.1188077"/>
  <node id="320175787" version="2" timestamp="2012-02-29T10:39:00Z" uid="7523" user="inas" changeset="10826611" lat="-34.0208794" lon="151.1188077"/>
  <node id="320175791" version="1" timestamp="2008-12-20T14:09:48Z" uid="7617" user="Franc" changeset="496725" lat="-34.0208196" lon="151.1189131"/>
  <node id="320175791" version="2" timestamp="2012-02-29T10:39:00Z" uid="7523" user="inas" changeset="10826611" lat="-34.0208196" lon="151.1189131"/>
  <node id="320175792" version="1" timestamp="2008-12-20T14:09:49Z" uid="7617" user="Franc" changeset="496725" lat="-34.0208758" lon="151.1191133"/>
  <node id="320175792" version="2" timestamp="2012-02-29T10:39:00Z" uid="7523" user="inas" changeset="10826611" lat="-34.0208758" lon="151.1191133"/>
  <node id="320175793" version="1" timestamp="2008-12-20T14:09:49Z" uid="7617" user="Franc" changeset="496725" lat="-34.0213219" lon="151.1189376"/>
  <node id="320175793" version="2" timestamp="2012-02-29T10:39:00Z" uid="7523" user="inas" changeset="10826611" lat="-34.0213219" lon="151.1189376"/>
  <node id="320175794" version="1" timestamp="2008-12-20T14:09:50Z" uid="7617" user="Franc" changeset="496725" lat="-34.0211533" lon="151.1188182"/>
  <node id="320175794" version="2" timestamp="2012-02-29T10:39:00Z" uid="7523" user="inas" changeset="10826611" lat="-34.0211533" lon="151.1188182"/>
  <node id="320175795" version="1" timestamp="2008-12-20T14:09:51Z" uid="7617" user="Franc" changeset="496725" lat="-34.0198326" lon="151.1194048"/>
  <node id="320175795" version="2" timestamp="2012-02-29T10:39:01Z" uid="7523" user="inas" changeset="10826611" lat="-34.0198326" lon="151.1194048"/>
  <node id="320175796" version="1" timestamp="2008-12-20T14:09:51Z" uid="7617" user="Franc" changeset="496725" lat="-34.020644" lon="151.117371"/>
  <node id="320175796" version="2" timestamp="2010-04-15T11:14:50Z" uid="7617" user="Franc" changeset="4429995" lat="-34.0206068" lon="151.1173795"/>
  <node id="320175796" version="3" timestamp="2012-02-29T10:39:01Z" uid="7523" user="inas" changeset="10826611" lat="-34.0206068" lon="151.1173795"/>
  <node id="320175798" version="1" timestamp="2008-12-20T14:09:52Z" uid="7617" user="Franc" changeset="496725" lat="-34.0209566" lon="151.1185618"/>
  <node id="320175798" version="2" timestamp="2012-02-29T10:39:01Z" uid="7523" user="inas" changeset="10826611" lat="-34.0209566" lon="151.1185618"/>
  <node id="320175799" version="4" timestamp="2009-10-19T18:50:45Z" uid="36809" user="pfoten_weg_!_" changeset="2897310" lat="47.9020302" lon="11.6349106">
    <tag k="addr:city" v="Steingau"/>
    <tag k="addr:country" v="DE"/>
    <tag k="addr:housenumber" v="2"/>
    <tag k="addr:street" v="FraÃŸhauser StraÃŸe"/>
    <tag k="postal_code" v="83623"/>
    <tag k="source" v="survey"/>
  </node>
  <node id="320175799" version="5" timestamp="2009-10-23T11:31:33Z" uid="36809" user="pfoten_weg_!_" changeset="2928981" lat="47.9020302" lon="11.6349106">
    <tag k="addr:city" v="Steingau"/>
    <tag k="addr:country" v="DE"/>
    <tag k="addr:housenumber" v="2"/>
    <tag k="addr:street" v="FraÃŸhauser StraÃŸe"/>
    <tag k="postal_code" v="83623"/>
  </node>
  <node id="320175799" version="6" timestamp="2011-02-07T19:32:41Z" uid="329528" user="Skubiduhh" changeset="7219799" lat="47.9020302" lon="11.6349106">
    <tag k="addr:city" v="Steingau"/>
    <tag k="addr:country" v="DE"/>
    <tag k="addr:housenumber" v="2"/>
    <tag k="addr:street" v="FraÃŸhauser StraÃŸe"/>
    <tag k="postal_code" v="83623"/>
  </node>
  <node id="320175800" version="1" timestamp="2008-12-20T14:09:53Z" uid="7617" user="Franc" changeset="496725" lat="-34.0210655" lon="151.1186356"/>
  <node id="320175800" version="2" timestamp="2012-02-29T10:39:01Z" uid="7523" user="inas" changeset="10826611" lat="-34.0210655" lon="151.1186356"/>
  <node id="320175802" version="1" timestamp="2008-12-20T14:09:54Z" uid="7617" user="Franc" changeset="496725" lat="-34.0220631" lon="151.1178452"/>
  <node id="320175802" version="2" timestamp="2012-02-29T10:39:01Z" uid="7523" user="inas" changeset="10826611" lat="-34.0220631" lon="151.1178452"/>
  <node id="320175803" version="1" timestamp="2008-12-20T14:09:55Z" uid="7617" user="Franc" changeset="496725" lat="-34.0215713" lon="151.1174975"/>
  <node id="320175803" version="2" timestamp="2012-02-29T10:39:01Z" uid="7523" user="inas" changeset="10826611" lat="-34.0215713" lon="151.1174975"/>
  <node id="320175807" version="1" timestamp="2008-12-20T14:09:55Z" uid="7617" user="Franc" changeset="496725" lat="-34.0208372" lon="151.1172516"/>
  <node id="320175807" version="2" timestamp="2010-04-15T11:14:47Z" uid="7617" user="Franc" changeset="4429995" lat="-34.0205275" lon="151.1169167"/>
  <node id="320175807" version="3" timestamp="2012-02-29T10:39:01Z" uid="7523" user="inas" changeset="10826611" lat="-34.0205275" lon="151.1169167"/>
  <node id="320175808" version="1" timestamp="2008-12-20T14:09:56Z" uid="7617" user="Franc" changeset="496725" lat="-34.0207283" lon="151.1178101"/>
  <node id="320175808" version="2" timestamp="2010-04-15T11:14:50Z" uid="7617" user="Franc" changeset="4429995" lat="-34.0207071" lon="151.11781"/>
  <node id="320175808" version="3" timestamp="2012-02-29T10:39:01Z" uid="7523" user="inas" changeset="10826611" lat="-34.0207071" lon="151.11781"/>
  <node id="320175809" version="1" timestamp="2008-12-20T14:09:57Z" uid="7617" user="Franc" changeset="496725" lat="-34.0212201" lon="151.1186707"/>
  <node id="320175809" version="2" timestamp="2012-02-29T10:39:01Z" uid="7523" user="inas" changeset="10826611" lat="-34.0212201" lon="151.1186707"/>
  <node id="320175810" version="1" timestamp="2008-12-20T14:09:57Z" uid="7617" user="Franc" changeset="496725" lat="-34.0213781" lon="151.1186391"/>
  <node id="320175810" version="2" timestamp="2012-02-29T10:39:01Z" uid="7523" user="inas" changeset="10826611" lat="-34.0213781" lon="151.1186391"/>
  <node id="320175811" version="1" timestamp="2008-12-20T14:09:58Z" uid="7617" user="Franc" changeset="496725" lat="-34.0199977" lon="151.1156464"/>
  <node id="320175812" version="1" timestamp="2008-12-20T14:09:59Z" uid="7617" user="Franc" changeset="496725" lat="-34.019239" lon="151.1154637"/>
  <node id="320175812" version="2" timestamp="2008-12-21T05:28:22Z" uid="7617" user="Franc" changeset="509418" lat="-34.0192249" lon="151.1154778"/>
  <node id="320175812" version="3" timestamp="2012-03-01T09:50:33Z" uid="7523" user="inas" changeset="10835906" lat="-34.0192249" lon="151.1154778"/>
  <node id="320175813" version="1" timestamp="2008-12-20T14:10:00Z" uid="7617" user="Franc" changeset="496725" lat="-34.0190247" lon="151.1159344"/>
  <node id="320175813" version="2" timestamp="2008-12-21T05:28:22Z" uid="7617" user="Franc" changeset="509418" lat="-34.0190106" lon="151.1159485"/>
  <node id="320175813" version="3" timestamp="2012-03-01T09:50:33Z" uid="7523" user="inas" changeset="10835906" lat="-34.0190106" lon="151.1159485"/>
  <node id="320175814" version="1" timestamp="2008-12-20T14:10:00Z" uid="7617" user="Franc" changeset="496725" lat="-34.0192214" lon="151.1160784"/>
  <node id="320175814" version="2" timestamp="2008-12-21T05:28:24Z" uid="7617" user="Franc" changeset="509418" lat="-34.0192073" lon="151.1160925"/>
  <node id="320175814" version="3" timestamp="2012-03-01T09:50:33Z" uid="7523" user="inas" changeset="10835906" lat="-34.0192073" lon="151.1160925"/>
  <node id="320175815" version="1" timestamp="2008-12-20T14:10:01Z" uid="7617" user="Franc" changeset="496725" lat="-34.0194497" lon="151.1156112"/>
  <node id="320175815" version="2" timestamp="2008-12-21T05:28:23Z" uid="7617" user="Franc" changeset="509418" lat="-34.0194356" lon="151.1156253"/>
  <node id="320175815" version="3" timestamp="2012-03-01T09:50:33Z" uid="7523" user="inas" changeset="10835906" lat="-34.0194356" lon="151.1156253"/>
  <node id="320175816" version="1" timestamp="2008-12-20T14:10:02Z" uid="7617" user="Franc" changeset="496725" lat="-34.0193128" lon="151.1154216"/>
  <node id="320175816" version="2" timestamp="2008-12-21T05:28:24Z" uid="7617" user="Franc" changeset="509418" lat="-34.019294" lon="151.1154404"/>
  <node id="320175816" version="3" timestamp="2008-12-21T05:54:13Z" uid="7617" user="Franc" changeset="509418" lat="-34.019294" lon="151.1154232"/>
  <node id="320175817" version="1" timestamp="2008-12-20T14:10:02Z" uid="7617" user="Franc" changeset="496725" lat="-34.0192425" lon="151.1155656"/>
  <node id="320175817" version="2" timestamp="2012-03-01T09:50:33Z" uid="7523" user="inas" changeset="10835906" lat="-34.0192425" lon="151.1155656"/>
  <node id="320175818" version="1" timestamp="2008-12-20T14:10:03Z" uid="7617" user="Franc" changeset="496725" lat="-34.0193619" lon="151.1156604"/>
  <node id="320175818" version="2" timestamp="2012-03-01T09:50:33Z" uid="7523" user="inas" changeset="10835906" lat="-34.0193619" lon="151.1156604"/>
  <node id="320175820" version="1" timestamp="2008-12-20T14:10:04Z" uid="7617" user="Franc" changeset="496725" lat="-34.0194357" lon="151.1155234"/>
  <node id="320175820" version="2" timestamp="2008-12-21T05:28:25Z" uid="7617" user="Franc" changeset="509418" lat="-34.0194169" lon="151.1155422"/>
  <node id="320175820" version="3" timestamp="2008-12-21T05:54:14Z" uid="7617" user="Franc" changeset="509418" lat="-34.0194169" lon="151.115525"/>
  <node id="320175821" version="1" timestamp="2008-12-20T14:10:04Z" uid="7617" user="Franc" changeset="496725" lat="-33.9417635" lon="151.2579028"/>
  <node id="320175821" version="2" timestamp="2010-09-19T09:31:07Z" uid="7617" user="Franc" changeset="5817899" lat="-33.9418146" lon="151.2578806"/>
  <node id="320175822" version="1" timestamp="2008-12-20T14:10:05Z" uid="7617" user="Franc" changeset="496725" lat="-33.9418825" lon="151.2580964"/>
  <node id="320175822" version="2" timestamp="2009-11-25T10:57:16Z" uid="7617" user="Franc" changeset="3211095" lat="-33.9418932" lon="151.2581177"/>
  <node id="320175822" version="3" timestamp="2010-09-19T09:32:01Z" uid="7617" user="Franc" changeset="5817899" lat="-33.9419443" lon="151.2580955"/>
  <node id="320175823" version="1" timestamp="2008-12-20T14:10:06Z" uid="7617" user="Franc" changeset="496725" lat="-33.9419585" lon="151.258031"/>
  <node id="320175823" version="2" timestamp="2009-11-25T10:57:16Z" uid="7617" user="Franc" changeset="3211095" lat="-33.9419692" lon="151.2580552"/>
  <node id="320175823" version="3" timestamp="2010-09-19T09:31:23Z" uid="7617" user="Franc" changeset="5817899" lat="-33.9420203" lon="151.258033"/>
  <node id="320175824" version="1" timestamp="2008-12-20T14:10:06Z" uid="7617" user="Franc" changeset="496725" lat="-33.9418395" lon="151.2578375"/>
  <node id="320175824" version="2" timestamp="2010-09-19T09:30:52Z" uid="7617" user="Franc" changeset="5817899" lat="-33.9418906" lon="151.2578153"/>
  <node id="320175825" version="1" timestamp="2008-12-20T14:10:07Z" uid="7617" user="Franc" changeset="496725" lat="-33.9420207" lon="151.2580375"/>
  <node id="320175825" version="2" timestamp="2009-11-25T10:57:15Z" uid="7617" user="Franc" changeset="3211095" lat="-33.94201" lon="151.2580432"/>
  <node id="320175825" version="3" timestamp="2010-09-19T09:31:48Z" uid="7617" user="Franc" changeset="5817899" lat="-33.9420437" lon="151.2580247"/>
  <node id="320175826" version="1" timestamp="2008-12-20T14:10:08Z" uid="7617" user="Franc" changeset="496725" lat="-33.9420997" lon="151.2579715"/>
  <node id="320175826" version="2" timestamp="2009-11-25T10:57:16Z" uid="7617" user="Franc" changeset="3211095" lat="-33.9420869" lon="151.25798"/>
  <node id="320175826" version="3" timestamp="2010-09-19T09:31:12Z" uid="7617" user="Franc" changeset="5817899" lat="-33.9421206" lon="151.2579615"/>
  <node id="320175827" version="1" timestamp="2008-12-20T14:10:08Z" uid="7617" user="Franc" changeset="496725" lat="-33.9419484" lon="151.2577266"/>
  <node id="320175827" version="2" timestamp="2009-11-25T10:57:16Z" uid="7617" user="Franc" changeset="3211095" lat="-33.9419441" lon="151.2577373"/>
  <node id="320175827" version="3" timestamp="2010-09-19T09:30:36Z" uid="7617" user="Franc" changeset="5817899" lat="-33.9419778" lon="151.2577188"/>
  <node id="320175828" version="1" timestamp="2008-12-20T14:10:09Z" uid="7617" user="Franc" changeset="496725" lat="-33.9418694" lon="151.2577927"/>
  <node id="320175828" version="2" timestamp="2009-11-25T10:57:16Z" uid="7617" user="Franc" changeset="3211095" lat="-33.9418651" lon="151.2578034"/>
  <node id="320175828" version="3" timestamp="2010-09-19T09:31:31Z" uid="7617" user="Franc" changeset="5817899" lat="-33.9418988" lon="151.2577849"/>
  <node id="320175848" version="1" timestamp="2008-12-20T14:10:11Z" uid="7617" user="Franc" changeset="496725" lat="-33.9420557" lon="151.2576262"/>
  <node id="320175848" version="2" timestamp="2009-11-25T10:57:15Z" uid="7617" user="Franc" changeset="3211095" lat="-33.94205" lon="151.2576461"/>
  <node id="320175848" version="3" timestamp="2010-09-19T09:31:37Z" uid="7617" user="Franc" changeset="5817899" lat="-33.9420827" lon="151.2576301"/>
  <node id="320175849" version="1" timestamp="2008-12-20T14:10:11Z" uid="7617" user="Franc" changeset="496725" lat="-33.942128" lon="151.2579372"/>
  <node id="320175849" version="2" timestamp="2009-11-25T10:57:15Z" uid="7617" user="Franc" changeset="3211095" lat="-33.9421209" lon="151.2579521"/>
  <node id="320175849" version="3" timestamp="2010-09-19T09:31:03Z" uid="7617" user="Franc" changeset="5817899" lat="-33.9421536" lon="151.2579361"/>
  <node id="320175850" version="1" timestamp="2008-12-20T14:10:12Z" uid="7617" user="Franc" changeset="496725" lat="-33.9419767" lon="151.2576923"/>
  <node id="320175850" version="2" timestamp="2009-11-25T10:57:15Z" uid="7617" user="Franc" changeset="3211095" lat="-33.9419788" lon="151.2577072"/>
  <node id="320175850" version="3" timestamp="2010-09-19T09:31:55Z" uid="7617" user="Franc" changeset="5817899" lat="-33.9420115" lon="151.2576912"/>
  <node id="320175851" version="1" timestamp="2008-12-20T14:10:13Z" uid="7617" user="Franc" changeset="496725" lat="-33.942207" lon="151.2578711"/>
  <node id="320175851" version="2" timestamp="2009-11-25T10:57:15Z" uid="7617" user="Franc" changeset="3211095" lat="-33.9421999" lon="151.257886"/>
  <node id="320175851" version="3" timestamp="2010-09-19T09:31:19Z" uid="7617" user="Franc" changeset="5817899" lat="-33.9422326" lon="151.25787"/>
  <node id="320175852" version="1" timestamp="2008-12-20T14:10:13Z" uid="7617" user="Franc" changeset="496725" lat="-33.9420855" lon="151.2576178"/>
  <node id="320175852" version="2" timestamp="2009-11-25T10:57:15Z" uid="7617" user="Franc" changeset="3211095" lat="-33.9420834" lon="151.2576306"/>
  <node id="320175852" version="3" timestamp="2010-09-19T09:30:47Z" uid="7617" user="Franc" changeset="5817899" lat="-33.9421304" lon="151.2576133"/>
  <node id="320175853" version="1" timestamp="2008-12-20T14:10:14Z" uid="7617" user="Franc" changeset="496725" lat="-33.942305" lon="151.2577923"/>
  <node id="320175853" version="2" timestamp="2009-11-25T10:57:15Z" uid="7617" user="Franc" changeset="3211095" lat="-33.9423029" lon="151.2578051"/>
  <node id="320175853" version="3" timestamp="2010-09-19T09:31:43Z" uid="7617" user="Franc" changeset="5817899" lat="-33.9423499" lon="151.2577878"/>
  <node id="320175854" version="1" timestamp="2008-12-20T14:10:15Z" uid="7617" user="Franc" changeset="496725" lat="-33.942229" lon="151.2578577"/>
  <node id="320175854" version="2" timestamp="2009-11-25T10:57:15Z" uid="7617" user="Franc" changeset="3211095" lat="-33.9422269" lon="151.2578705"/>
  <node id="320175854" version="3" timestamp="2010-09-19T09:31:08Z" uid="7617" user="Franc" changeset="5817899" lat="-33.9422739" lon="151.2578532"/>
  <node id="320175855" version="1" timestamp="2008-12-20T14:10:16Z" uid="7617" user="Franc" changeset="496725" lat="-33.9421615" lon="151.2575525"/>
  <node id="320175855" version="2" timestamp="2009-11-25T10:57:15Z" uid="7617" user="Franc" changeset="3211095" lat="-33.9421594" lon="151.2575653"/>
  <node id="320175855" version="3" timestamp="2010-09-19T09:32:02Z" uid="7617" user="Franc" changeset="5817899" lat="-33.9422064" lon="151.257548"/>
  <node id="320175856" version="1" timestamp="2008-12-20T14:10:16Z" uid="7617" user="Franc" changeset="496725" lat="-33.9423396" lon="151.2577709"/>
  <node id="320175856" version="2" timestamp="2009-11-25T10:57:15Z" uid="7617" user="Franc" changeset="3211095" lat="-33.9423389" lon="151.2577268"/>
  <node id="320175857" version="1" timestamp="2008-12-20T14:10:17Z" uid="7617" user="Franc" changeset="496725" lat="-33.9421961" lon="151.2575311"/>
  <node id="320175857" version="2" timestamp="2009-11-25T10:57:15Z" uid="7617" user="Franc" changeset="3211095" lat="-33.9422025" lon="151.2575162"/>
  <node id="320175858" version="1" timestamp="2008-12-20T14:10:18Z" uid="7617" user="Franc" changeset="496725" lat="-33.9422721" lon="151.2574657"/>
  <node id="320175858" version="2" timestamp="2009-11-25T10:57:15Z" uid="7617" user="Franc" changeset="3211095" lat="-33.9422884" lon="151.2574415"/>
  <node id="320175859" version="1" timestamp="2008-12-20T14:10:18Z" uid="7617" user="Franc" changeset="496725" lat="-33.9424156" lon="151.2577055"/>
  <node id="320175859" version="2" timestamp="2009-11-25T10:57:15Z" uid="7617" user="Franc" changeset="3211095" lat="-33.9424177" lon="151.2576565"/>
  <node id="320175860" version="1" timestamp="2008-12-20T14:10:19Z" uid="7617" user="Franc" changeset="496725" lat="-33.9423326" lon="151.2574147"/>
  <node id="320175860" version="2" timestamp="2009-11-25T10:57:15Z" uid="7617" user="Franc" changeset="3211095" lat="-33.9423511" lon="151.2573841"/>
  <node id="320175861" version="1" timestamp="2008-12-20T14:10:20Z" uid="7617" user="Franc" changeset="496725" lat="-33.9424078" lon="151.2575272"/>
  <node id="320175861" version="2" timestamp="2009-11-25T10:57:15Z" uid="7617" user="Franc" changeset="3211095" lat="-33.9424241" lon="151.2575151"/>
  <node id="320175862" version="1" timestamp="2008-12-20T14:10:20Z" uid="7617" user="Franc" changeset="496725" lat="-33.9425018" lon="151.2574489"/>
  <node id="320175862" version="2" timestamp="2009-11-25T10:57:15Z" uid="7617" user="Franc" changeset="3211095" lat="-33.9425139" lon="151.2574418"/>
  <node id="320175863" version="1" timestamp="2008-12-20T14:10:21Z" uid="7617" user="Franc" changeset="496725" lat="-33.9424266" lon="151.2573364"/>
  <node id="320175863" version="2" timestamp="2009-11-25T10:57:15Z" uid="7617" user="Franc" changeset="3211095" lat="-33.9424358" lon="151.2573158"/>
  <node id="320175864" version="1" timestamp="2008-12-20T14:10:22Z" uid="7617" user="Franc" changeset="496725" lat="-33.9425393" lon="151.2573942"/>
  <node id="320175864" version="2" timestamp="2009-11-25T10:57:15Z" uid="7617" user="Franc" changeset="3211095" lat="-33.9425457" lon="151.2573928"/>
  <node id="320175865" version="1" timestamp="2008-12-20T14:10:22Z" uid="7617" user="Franc" changeset="496725" lat="-33.9425581" lon="151.2572034"/>
  <node id="320175865" version="2" timestamp="2009-11-25T10:57:15Z" uid="7617" user="Franc" changeset="3211095" lat="-33.9425645" lon="151.2571963"/>
  <node id="320175869" version="1" timestamp="2008-12-20T14:10:23Z" uid="7617" user="Franc" changeset="496725" lat="-33.9424641" lon="151.2572817"/>
  <node id="320175869" version="2" timestamp="2009-11-25T10:57:15Z" uid="7617" user="Franc" changeset="3211095" lat="-33.9424726" lon="151.2572753"/>
  <node id="320175877" version="1" timestamp="2008-12-20T14:10:24Z" uid="7617" user="Franc" changeset="496725" lat="-33.9426333" lon="151.2573159"/>
  <node id="320175877" version="2" timestamp="2009-11-25T10:57:15Z" uid="7617" user="Franc" changeset="3211095" lat="-33.9426575" lon="151.2573365"/>
  <node id="320175878" version="1" timestamp="2008-12-20T14:10:24Z" uid="7617" user="Franc" changeset="496725" lat="-33.9425379" lon="151.2574508"/>
  <node id="320175878" version="2" timestamp="2009-11-25T10:57:15Z" uid="7617" user="Franc" changeset="3211095" lat="-33.9425443" lon="151.2574565"/>
  <node id="320175879" version="1" timestamp="2008-12-20T14:10:25Z" uid="7617" user="Franc" changeset="496725" lat="-33.9426188" lon="151.2575778"/>
  <node id="320175879" version="2" timestamp="2009-11-25T10:57:15Z" uid="7617" user="Franc" changeset="3211095" lat="-33.9426081" lon="151.2576076"/>
  <node id="320175880" version="1" timestamp="2008-12-20T14:10:26Z" uid="7617" user="Franc" changeset="496725" lat="-33.9426406" lon="151.2573682"/>
  <node id="320175880" version="2" timestamp="2009-11-25T10:57:14Z" uid="7617" user="Franc" changeset="3211095" lat="-33.9426577" lon="151.257354"/>
  <node id="320175881" version="4" timestamp="2009-10-19T18:50:41Z" uid="36809" user="pfoten_weg_!_" changeset="2897310" lat="47.9015929" lon="11.6336489">
    <tag k="addr:city" v="Steingau"/>
    <tag k="addr:country" v="DE"/>
    <tag k="addr:housenumber" v="4"/>
    <tag k="addr:street" v="FraÃŸhauser StraÃŸe"/>
    <tag k="postal_code" v="83623"/>
    <tag k="source" v="survey"/>
  </node>
  <node id="320175881" version="5" timestamp="2009-10-23T11:31:31Z" uid="36809" user="pfoten_weg_!_" changeset="2928981" lat="47.9015929" lon="11.6336489">
    <tag k="addr:city" v="Steingau"/>
    <tag k="addr:country" v="DE"/>
    <tag k="addr:housenumber" v="4"/>
    <tag k="addr:street" v="FraÃŸhauser StraÃŸe"/>
    <tag k="postal_code" v="83623"/>
  </node>
  <node id="320175881" version="6" timestamp="2010-12-01T19:03:44Z" uid="42393" user="mawi42" changeset="6506891" lat="47.9016221" lon="11.6337289">
    <tag k="addr:city" v="Steingau"/>
    <tag k="addr:country" v="DE"/>
    <tag k="addr:housenumber" v="4"/>
    <tag k="addr:street" v="FraÃŸhauser StraÃŸe"/>
    <tag k="postal_code" v="83623"/>
  </node>
  <node id="320175881" version="7" timestamp="2011-02-07T19:32:37Z" uid="329528" user="Skubiduhh" changeset="7219799" lat="47.9016221" lon="11.6337289">
    <tag k="addr:city" v="Steingau"/>
    <tag k="addr:country" v="DE"/>
    <tag k="addr:housenumber" v="4"/>
    <tag k="addr:street" v="FraÃŸhauser StraÃŸe"/>
    <tag k="postal_code" v="83623"/>
  </node>
  <node id="320175884" version="1" timestamp="2008-12-20T14:10:26Z" uid="7617" user="Franc" changeset="496725" lat="-33.942723" lon="151.2574923"/>
  <node id="320175884" version="2" timestamp="2009-11-25T10:57:15Z" uid="7617" user="Franc" changeset="3211095" lat="-33.9427166" lon="151.2575086"/>
  <node id="320175889" version="1" timestamp="2008-12-20T14:10:27Z" uid="7617" user="Franc" changeset="496725" lat="-33.9417138" lon="151.2580605"/>
  <node id="320175889" version="2" timestamp="2010-09-19T09:31:03Z" uid="7617" user="Franc" changeset="5817899" lat="-33.9417468" lon="151.2580427"/>
  <node id="320175893" version="1" timestamp="2008-12-20T14:10:28Z" uid="7617" user="Franc" changeset="496725" lat="-33.9416198" lon="151.2581388"/>
  <node id="320175893" version="2" timestamp="2009-11-25T10:57:16Z" uid="7617" user="Franc" changeset="3211095" lat="-33.9416241" lon="151.2581289"/>
  <node id="320175893" version="3" timestamp="2010-09-19T09:31:43Z" uid="7617" user="Franc" changeset="5817899" lat="-33.9416598" lon="151.2581145"/>
  <node id="320175898" version="1" timestamp="2008-12-20T14:10:28Z" uid="7617" user="Franc" changeset="496725" lat="-33.9415446" lon="151.2580263"/>
  <node id="320175898" version="2" timestamp="2009-11-25T10:57:16Z" uid="7617" user="Franc" changeset="3211095" lat="-33.9415688" lon="151.2580377"/>
  <node id="320175898" version="3" timestamp="2010-09-19T09:31:49Z" uid="7617" user="Franc" changeset="5817899" lat="-33.9416066" lon="151.258021"/>
  <node id="320175901" version="1" timestamp="2008-12-20T14:10:29Z" uid="7617" user="Franc" changeset="496725" lat="-33.9416386" lon="151.257948"/>
  <node id="320175901" version="2" timestamp="2009-11-25T10:57:16Z" uid="7617" user="Franc" changeset="3211095" lat="-33.9416571" lon="151.2579693"/>
  <node id="320175901" version="3" timestamp="2010-09-19T09:31:32Z" uid="7617" user="Franc" changeset="5817899" lat="-33.9416937" lon="151.2579491"/>
  <node id="320175912" version="1" timestamp="2008-12-20T14:10:50Z" uid="58091" user="Andreas M" changeset="504586" lat="48.2313263" lon="16.2951271"/>
  <node id="320175912" version="2" timestamp="2011-10-24T17:38:59Z" uid="473925" user="caigner" changeset="9645562" lat="48.2314527" lon="16.2952448"/>
  <node id="320175913" version="1" timestamp="2008-12-20T14:10:50Z" uid="58091" user="Andreas M" changeset="504586" lat="48.2315548" lon="16.2953502"/>
  <node id="320175913" version="2" timestamp="2011-10-24T17:38:59Z" uid="473925" user="caigner" changeset="9645562" lat="48.2315732" lon="16.2953033"/>
  <node id="320175914" version="1" timestamp="2008-12-20T14:10:50Z" uid="58091" user="Andreas M" changeset="504586" lat="48.2317834" lon="16.2956504"/>
  <node id="320175914" version="2" timestamp="2011-10-24T17:38:59Z" uid="473925" user="caigner" changeset="9645562" lat="48.2316321" lon="16.2953501"/>
  <node id="320175916" version="1" timestamp="2008-12-20T14:10:50Z" uid="58091" user="Andreas M" changeset="504586" lat="48.2318748" lon="16.2958735"/>
  <node id="320175916" version="2" timestamp="2009-03-14T16:17:18Z" uid="104047" user="e9426086" changeset="809780" lat="48.2318748" lon="16.2958735"/>
  <node id="320175916" version="3" timestamp="2009-03-14T16:20:36Z" uid="104047" user="e9426086" changeset="809780" lat="48.2318748" lon="16.2958735"/>
  <node id="320175916" version="4" timestamp="2009-06-12T10:52:54Z" uid="56986" user="alice23" changeset="1495314" lat="48.2318985" lon="16.2958197"/>
  <node id="320175916" version="5" timestamp="2011-10-24T17:38:59Z" uid="473925" user="caigner" changeset="9645562" lat="48.231946" lon="16.2958216"/>
  <node id="320175950" version="4" timestamp="2009-10-19T18:50:39Z" uid="36809" user="pfoten_weg_!_" changeset="2897310" lat="47.901685" lon="11.632988">
    <tag k="addr:city" v="Steingau"/>
    <tag k="addr:country" v="DE"/>
    <tag k="addr:housenumber" v="6"/>
    <tag k="addr:street" v="FraÃŸhauser StraÃŸe"/>
    <tag k="postal_code" v="83623"/>
    <tag k="source" v="survey"/>
  </node>
  <node id="320175950" version="5" timestamp="2009-10-23T11:31:28Z" uid="36809" user="pfoten_weg_!_" changeset="2928981" lat="47.901685" lon="11.632988">
    <tag k="addr:city" v="Steingau"/>
    <tag k="addr:country" v="DE"/>
    <tag k="addr:housenumber" v="6"/>
    <tag k="addr:street" v="FraÃŸhauser StraÃŸe"/>
    <tag k="postal_code" v="83623"/>
  </node>
  <node id="320175950" version="6" timestamp="2011-02-07T19:32:37Z" uid="329528" user="Skubiduhh" changeset="7219799" lat="47.901685" lon="11.632988">
    <tag k="addr:city" v="Steingau"/>
    <tag k="addr:country" v="DE"/>
    <tag k="addr:housenumber" v="6"/>
    <tag k="addr:street" v="FraÃŸhauser StraÃŸe"/>
    <tag k="postal_code" v="83623"/>
  </node>
  <node id="320176583" version="3" timestamp="2009-10-19T18:50:42Z" uid="36809" user="pfoten_weg_!_" changeset="2897310" lat="47.9020647" lon="11.632061">
    <tag k="addr:city" v="Steingau"/>
    <tag k="addr:country" v="DE"/>
    <tag k="addr:housenumber" v="8"/>
    <tag k="addr:street" v="FraÃŸhauser StraÃŸe"/>
    <tag k="postal_code" v="83623"/>
    <tag k="source" v="survey"/>
  </node>
  <node id="320176583" version="4" timestamp="2009-10-23T11:31:32Z" uid="36809" user="pfoten_weg_!_" changeset="2928981" lat="47.9020647" lon="11.632061">
    <tag k="addr:city" v="Steingau"/>
    <tag k="addr:country" v="DE"/>
    <tag k="addr:housenumber" v="8"/>
    <tag k="addr:street" v="FraÃŸhauser StraÃŸe"/>
    <tag k="postal_code" v="83623"/>
  </node>
  <node id="320176583" version="5" timestamp="2011-02-07T19:32:36Z" uid="329528" user="Skubiduhh" changeset="7219799" lat="47.9020647" lon="11.632061">
    <tag k="addr:city" v="Steingau"/>
    <tag k="addr:country" v="DE"/>
    <tag k="addr:housenumber" v="8"/>
    <tag k="addr:street" v="FraÃŸhauser StraÃŸe"/>
    <tag k="postal_code" v="83623"/>
  </node>
  <node id="320176596" version="3" timestamp="2009-10-19T18:50:30Z" uid="36809" user="pfoten_weg_!_" changeset="2897310" lat="47.9020187" lon="11.6309109">
    <tag k="addr:city" v="Steingau"/>
    <tag k="addr:country" v="DE"/>
    <tag k="addr:housenumber" v="14"/>
    <tag k="addr:street" v="FraÃŸhauser StraÃŸe"/>
    <tag k="postal_code" v="83623"/>
    <tag k="source" v="survey"/>
  </node>
  <node id="320176596" version="4" timestamp="2009-10-23T11:31:19Z" uid="36809" user="pfoten_weg_!_" changeset="2928981" lat="47.9020187" lon="11.6309109">
    <tag k="addr:city" v="Steingau"/>
    <tag k="addr:country" v="DE"/>
    <tag k="addr:housenumber" v="14"/>
    <tag k="addr:street" v="FraÃŸhauser StraÃŸe"/>
    <tag k="postal_code" v="83623"/>
  </node>
  <node id="320176596" version="5" timestamp="2010-12-21T19:36:46Z" uid="42393" user="mawi42" changeset="6729210" lat="47.9020632" lon="11.630832">
    <tag k="addr:city" v="Steingau"/>
    <tag k="addr:country" v="DE"/>
    <tag k="addr:housenumber" v="14"/>
    <tag k="addr:street" v="FraÃŸhauser StraÃŸe"/>
    <tag k="postal_code" v="83623"/>
  </node>
  <node id="320176596" version="6" timestamp="2011-02-07T19:32:36Z" uid="329528" user="Skubiduhh" changeset="7219799" lat="47.9020632" lon="11.630832">
    <tag k="addr:city" v="Steingau"/>
    <tag k="addr:country" v="DE"/>
    <tag k="addr:housenumber" v="14"/>
    <tag k="addr:street" v="FraÃŸhauser StraÃŸe"/>
    <tag k="postal_code" v="83623"/>
  </node>
  <node id="320176687" version="1" timestamp="2008-12-20T14:13:10Z" uid="58091" user="Andreas M" changeset="504586" lat="48.2350118" lon="16.2842767"/>
  <node id="320176687" version="2" timestamp="2011-07-08T09:31:18Z" uid="473925" user="caigner" changeset="8664404" lat="48.2350496" lon="16.2842398"/>
  <node id="320176688" version="1" timestamp="2008-12-20T14:13:11Z" uid="58091" user="Andreas M" changeset="504586" lat="48.2344782" lon="16.2838157"/>
  <node id="320177117" version="3" timestamp="2009-10-19T18:50:30Z" uid="36809" user="pfoten_weg_!_" changeset="2897310" lat="47.9017885" lon="11.6310396">
    <tag k="addr:city" v="Steingau"/>
    <tag k="addr:country" v="DE"/>
    <tag k="addr:housenumber" v="12"/>
    <tag k="addr:street" v="FraÃŸhauser StraÃŸe"/>
    <tag k="postal_code" v="83623"/>
    <tag k="source" v="survey"/>
  </node>
  <node id="320177117" version="4" timestamp="2009-10-23T11:31:19Z" uid="36809" user="pfoten_weg_!_" changeset="2928981" lat="47.9017885" lon="11.6310396">
    <tag k="addr:city" v="Steingau"/>
    <tag k="addr:country" v="DE"/>
    <tag k="addr:housenumber" v="12"/>
    <tag k="addr:street" v="FraÃŸhauser StraÃŸe"/>
    <tag k="postal_code" v="83623"/>
  </node>
  <node id="320177117" version="5" timestamp="2011-02-07T19:32:35Z" uid="329528" user="Skubiduhh" changeset="7219799" lat="47.9017885" lon="11.6310396">
    <tag k="addr:city" v="Steingau"/>
    <tag k="addr:country" v="DE"/>
    <tag k="addr:housenumber" v="12"/>
    <tag k="addr:street" v="FraÃŸhauser StraÃŸe"/>
    <tag k="postal_code" v="83623"/>
  </node>
  <node id="320177279" version="3" timestamp="2009-02-16T09:02:24Z" uid="9581" user="Lobelt" changeset="476707" lat="51.5862257" lon="14.0057355"/>
  <node id="320177279" version="4" timestamp="2012-02-10T08:26:23Z" uid="5294" user="lutz" changeset="10641229" lat="51.5862287" lon="14.0057365"/>
  <node id="320177279" version="5" timestamp="2012-03-08T21:37:09Z" uid="28234" user="derandi" changeset="10914067" lat="51.5861993" lon="14.0057497"/>
  <node id="320177280" version="2" timestamp="2009-05-25T17:58:48Z" uid="30632" user="antblant" changeset="1318983" lat="53.4456616" lon="14.5238035">
    <tag k="name" v="Rajski OgrÃ³d"/>
    <tag k="shop" v="outdoor"/>
  </node>
  <node id="320177286" version="3" timestamp="2009-02-19T18:46:42Z" uid="30632" user="antblant" changeset="556130" lat="53.4464806" lon="14.5260265">
    <tag k="leisure" v="garden"/>
    <tag k="name" v="RÃ³Å¼anka"/>
    <tag k="name:de" v="Rosengarten"/>
    <tag k="opening_hours" v="fixme"/>
  </node>
  <node id="320177625" version="3" timestamp="2009-10-19T18:50:35Z" uid="36809" user="pfoten_weg_!_" changeset="2897310" lat="47.9011498" lon="11.6318464">
    <tag k="addr:city" v="Steingau"/>
    <tag k="addr:country" v="DE"/>
    <tag k="addr:housenumber" v="5"/>
    <tag k="addr:street" v="FraÃŸhauser StraÃŸe"/>
    <tag k="postal_code" v="83623"/>
    <tag k="source" v="survey"/>
  </node>
  <node id="320177625" version="4" timestamp="2009-10-23T11:31:26Z" uid="36809" user="pfoten_weg_!_" changeset="2928981" lat="47.9011498" lon="11.6318464">
    <tag k="addr:city" v="Steingau"/>
    <tag k="addr:country" v="DE"/>
    <tag k="addr:housenumber" v="5"/>
    <tag k="addr:street" v="FraÃŸhauser StraÃŸe"/>
    <tag k="postal_code" v="83623"/>
  </node>
  <node id="320177625" version="5" timestamp="2011-02-07T19:32:40Z" uid="329528" user="Skubiduhh" changeset="7219799" lat="47.9011498" lon="11.6318464">
    <tag k="addr:city" v="Steingau"/>
    <tag k="addr:country" v="DE"/>
    <tag k="addr:housenumber" v="5"/>
    <tag k="addr:street" v="FraÃŸhauser StraÃŸe"/>
    <tag k="postal_code" v="83623"/>
  </node>
  <node id="320177626" version="1" timestamp="2008-12-20T14:18:03Z" uid="58091" user="Andreas M" changeset="504586" lat="48.2257105" lon="16.2881877"/>
  <node id="320177626" version="2" timestamp="2011-11-16T23:54:58Z" uid="473925" user="caigner" changeset="9850151" lat="48.225756" lon="16.2881172"/>
  <node id="320177627" version="3" timestamp="2009-10-19T18:50:28Z" uid="36809" user="pfoten_weg_!_" changeset="2897310" lat="47.901098" lon="11.6315975">
    <tag k="addr:city" v="Steingau"/>
    <tag k="addr:country" v="DE"/>
    <tag k="addr:housenumber" v="7"/>
    <tag k="addr:street" v="FraÃŸhauser StraÃŸe"/>
    <tag k="postal_code" v="83623"/>
    <tag k="source" v="survey"/>
  </node>
  <node id="320177627" version="4" timestamp="2009-10-23T11:31:17Z" uid="36809" user="pfoten_weg_!_" changeset="2928981" lat="47.901098" lon="11.6315975">
    <tag k="addr:city" v="Steingau"/>
    <tag k="addr:country" v="DE"/>
    <tag k="addr:housenumber" v="7"/>
    <tag k="addr:street" v="FraÃŸhauser StraÃŸe"/>
    <tag k="postal_code" v="83623"/>
  </node>
  <node id="320177627" version="5" timestamp="2010-03-03T08:16:57Z" uid="42393" user="mawi42" changeset="4022693" lat="47.9010623" lon="11.631576">
    <tag k="addr:city" v="Steingau"/>
    <tag k="addr:country" v="DE"/>
    <tag k="addr:housenumber" v="7"/>
    <tag k="addr:street" v="FraÃŸhauser StraÃŸe"/>
    <tag k="postal_code" v="83623"/>
  </node>
  <node id="320177627" version="6" timestamp="2011-02-07T19:32:41Z" uid="329528" user="Skubiduhh" changeset="7219799" lat="47.9010623" lon="11.631576">
    <tag k="addr:city" v="Steingau"/>
    <tag k="addr:country" v="DE"/>
    <tag k="addr:housenumber" v="7"/>
    <tag k="addr:street" v="FraÃŸhauser StraÃŸe"/>
    <tag k="postal_code" v="83623"/>
  </node>
  <node id="320177628" version="4" timestamp="2009-10-19T18:50:23Z" uid="36809" user="pfoten_weg_!_" changeset="2897310" lat="47.901075" lon="11.6314945">
    <tag k="addr:city" v="Steingau"/>
    <tag k="addr:country" v="DE"/>
    <tag k="addr:housenumber" v="7a"/>
    <tag k="addr:street" v="FraÃŸhauser StraÃŸe"/>
    <tag k="postal_code" v="83623"/>
    <tag k="source" v="survey"/>
  </node>
  <node id="320177628" version="5" timestamp="2009-10-23T11:31:13Z" uid="36809" user="pfoten_weg_!_" changeset="2928981" lat="47.901075" lon="11.6314945">
    <tag k="addr:city" v="Steingau"/>
    <tag k="addr:country" v="DE"/>
    <tag k="addr:housenumber" v="7a"/>
    <tag k="addr:street" v="FraÃŸhauser StraÃŸe"/>
    <tag k="postal_code" v="83623"/>
  </node>
  <node id="320177628" version="6" timestamp="2010-03-03T08:16:58Z" uid="42393" user="mawi42" changeset="4022693" lat="47.9010488" lon="11.6315009">
    <tag k="addr:city" v="Steingau"/>
    <tag k="addr:country" v="DE"/>
    <tag k="addr:housenumber" v="7a"/>
    <tag k="addr:street" v="FraÃŸhauser StraÃŸe"/>
    <tag k="postal_code" v="83623"/>
  </node>
  <node id="320177628" version="7" timestamp="2011-02-07T19:32:41Z" uid="329528" user="Skubiduhh" changeset="7219799" lat="47.9010488" lon="11.6315009">
    <tag k="addr:city" v="Steingau"/>
    <tag k="addr:country" v="DE"/>
    <tag k="addr:housenumber" v="7a"/>
    <tag k="addr:street" v="FraÃŸhauser StraÃŸe"/>
    <tag k="postal_code" v="83623"/>
  </node>
  <node id="320177882" version="4" timestamp="2009-10-19T18:50:36Z" uid="36809" user="pfoten_weg_!_" changeset="2897310" lat="47.9015354" lon="11.6321812">
    <tag k="addr:city" v="Steingau"/>
    <tag k="addr:country" v="DE"/>
    <tag k="addr:housenumber" v="9"/>
    <tag k="addr:street" v="FraÃŸhauser StraÃŸe"/>
    <tag k="postal_code" v="83623"/>
    <tag k="source" v="survey"/>
  </node>
  <node id="320177882" version="5" timestamp="2009-10-23T11:31:27Z" uid="36809" user="pfoten_weg_!_" changeset="2928981" lat="47.9015354" lon="11.6321812">
    <tag k="addr:city" v="Steingau"/>
    <tag k="addr:country" v="DE"/>
    <tag k="addr:housenumber" v="9"/>
    <tag k="addr:street" v="FraÃŸhauser StraÃŸe"/>
    <tag k="postal_code" v="83623"/>
  </node>
  <node id="320177882" version="6" timestamp="2011-02-07T19:32:36Z" uid="329528" user="Skubiduhh" changeset="7219799" lat="47.9015354" lon="11.6321812">
    <tag k="addr:city" v="Steingau"/>
    <tag k="addr:country" v="DE"/>
    <tag k="addr:housenumber" v="9"/>
    <tag k="addr:street" v="FraÃŸhauser StraÃŸe"/>
    <tag k="postal_code" v="83623"/>
  </node>
  <node id="320178253" version="3" timestamp="2009-08-28T19:46:59Z" uid="74617" user="JohnSmith" changeset="2294693" lat="-17.832621" lon="145.6338255"/>
  <node id="320178255" version="3" timestamp="2009-08-28T19:46:59Z" uid="74617" user="JohnSmith" changeset="2294693" lat="-17.8312075" lon="145.6362605"/>
  <node id="320178259" version="3" timestamp="2009-08-28T19:46:59Z" uid="74617" user="JohnSmith" changeset="2294693" lat="-17.8296495" lon="145.6381796"/>
  <node id="320178260" version="4" timestamp="2009-10-19T18:50:43Z" uid="36809" user="pfoten_weg_!_" changeset="2897310" lat="47.9022201" lon="11.6319923">
    <tag k="addr:city" v="Steingau"/>
    <tag k="addr:country" v="DE"/>
    <tag k="addr:housenumber" v="8a"/>
    <tag k="addr:street" v="FraÃŸhauser StraÃŸe"/>
    <tag k="postal_code" v="83623"/>
    <tag k="source" v="survey"/>
  </node>
  <node id="320178260" version="5" timestamp="2009-10-23T11:31:32Z" uid="36809" user="pfoten_weg_!_" changeset="2928981" lat="47.9022201" lon="11.6319923">
    <tag k="addr:city" v="Steingau"/>
    <tag k="addr:country" v="DE"/>
    <tag k="addr:housenumber" v="8a"/>
    <tag k="addr:street" v="FraÃŸhauser StraÃŸe"/>
    <tag k="postal_code" v="83623"/>
  </node>
  <node id="320178260" version="6" timestamp="2011-02-07T19:32:36Z" uid="329528" user="Skubiduhh" changeset="7219799" lat="47.9022201" lon="11.6319923">
    <tag k="addr:city" v="Steingau"/>
    <tag k="addr:country" v="DE"/>
    <tag k="addr:housenumber" v="8a"/>
    <tag k="addr:street" v="FraÃŸhauser StraÃŸe"/>
    <tag k="postal_code" v="83623"/>
  </node>
  <node id="320178273" version="3" timestamp="2009-08-28T19:46:59Z" uid="74617" user="JohnSmith" changeset="2294693" lat="-17.8314035" lon="145.6370963"/>
  <node id="320178356" version="1" timestamp="2008-12-20T14:19:52Z" uid="58091" user="Andreas M" changeset="504586" lat="48.2346909" lon="16.2952435"/>
  <node id="320178356" version="2" timestamp="2011-10-24T12:17:30Z" uid="473925" user="caigner" changeset="9642891" lat="48.2347293" lon="16.2951481"/>
  <node id="320178357" version="1" timestamp="2008-12-20T14:19:52Z" uid="58091" user="Andreas M" changeset="504586" lat="48.2353574" lon="16.2955939"/>
  <node id="320178357" version="2" timestamp="2011-10-24T12:17:30Z" uid="473925" user="caigner" changeset="9642891" lat="48.2353776" lon="16.2954792"/>
  <node id="320178360" version="1" timestamp="2008-12-20T14:19:52Z" uid="58091" user="Andreas M" changeset="504586" lat="48.235815" lon="16.2957692"/>
  <node id="320178360" version="2" timestamp="2011-10-24T12:17:31Z" uid="473925" user="caigner" changeset="9642891" lat="48.2358727" lon="16.2956934"/>
  <node id="320178440" version="3" timestamp="2009-08-28T19:46:59Z" uid="74617" user="JohnSmith" changeset="2294693" lat="-17.834633" lon="145.6392217"/>
  <node id="320178598" version="3" timestamp="2009-08-28T19:46:59Z" uid="74617" user="JohnSmith" changeset="2294693" lat="-17.8359949" lon="145.6402019"/>
  <node id="320178620" version="3" timestamp="2009-08-28T19:46:59Z" uid="74617" user="JohnSmith" changeset="2294693" lat="-17.8371608" lon="145.6399233"/>
  <node id="320178808" version="3" timestamp="2009-08-28T19:46:59Z" uid="74617" user="JohnSmith" changeset="2294693" lat="-17.8415356" lon="145.6375915"/>
  <node id="320178833" version="3" timestamp="2009-10-19T18:50:26Z" uid="36809" user="pfoten_weg_!_" changeset="2897310" lat="47.901403" lon="11.6316576">
    <tag k="addr:city" v="Steingau"/>
    <tag k="addr:country" v="DE"/>
    <tag k="addr:housenumber" v="11"/>
    <tag k="addr:street" v="FraÃŸhauser StraÃŸe"/>
    <tag k="postal_code" v="83623"/>
    <tag k="source" v="survey"/>
  </node>
  <node id="320178833" version="4" timestamp="2009-10-23T11:31:16Z" uid="36809" user="pfoten_weg_!_" changeset="2928981" lat="47.901403" lon="11.6316576">
    <tag k="addr:city" v="Steingau"/>
    <tag k="addr:country" v="DE"/>
    <tag k="addr:housenumber" v="11"/>
    <tag k="addr:street" v="FraÃŸhauser StraÃŸe"/>
    <tag k="postal_code" v="83623"/>
  </node>
  <node id="320178833" version="5" timestamp="2011-02-07T19:32:36Z" uid="329528" user="Skubiduhh" changeset="7219799" lat="47.901403" lon="11.6316576">
    <tag k="addr:city" v="Steingau"/>
    <tag k="addr:country" v="DE"/>
    <tag k="addr:housenumber" v="11"/>
    <tag k="addr:street" v="FraÃŸhauser StraÃŸe"/>
    <tag k="postal_code" v="83623"/>
  </node>
  <node id="320178835" version="4" timestamp="2009-10-19T18:50:27Z" uid="36809" user="pfoten_weg_!_" changeset="2897310" lat="47.9015469" lon="11.6315889">
    <tag k="addr:city" v="Steingau"/>
    <tag k="addr:country" v="DE"/>
    <tag k="addr:housenumber" v="13"/>
    <tag k="addr:street" v="FraÃŸhauser StraÃŸe"/>
    <tag k="postal_code" v="83623"/>
    <tag k="source" v="survey"/>
  </node>
  <node id="320178835" version="5" timestamp="2009-10-23T11:31:17Z" uid="36809" user="pfoten_weg_!_" changeset="2928981" lat="47.9015469" lon="11.6315889">
    <tag k="addr:city" v="Steingau"/>
    <tag k="addr:country" v="DE"/>
    <tag k="addr:housenumber" v="13"/>
    <tag k="addr:street" v="FraÃŸhauser StraÃŸe"/>
    <tag k="postal_code" v="83623"/>
  </node>
  <node id="320178835" version="6" timestamp="2011-02-07T19:32:36Z" uid="329528" user="Skubiduhh" changeset="7219799" lat="47.9015469" lon="11.6315889">
    <tag k="addr:city" v="Steingau"/>
    <tag k="addr:country" v="DE"/>
    <tag k="addr:housenumber" v="13"/>
    <tag k="addr:street" v="FraÃŸhauser StraÃŸe"/>
    <tag k="postal_code" v="83623"/>
  </node>
  <node id="320178938" version="1" timestamp="2008-12-20T14:20:57Z" uid="58091" user="Andreas M" changeset="504586" lat="48.2319226" lon="16.3097031"/>
  <node id="320179020" version="3" timestamp="2009-08-28T19:46:59Z" uid="74617" user="JohnSmith" changeset="2294693" lat="-17.8430832" lon="145.6464235"/>
  <node id="320179523" version="1" timestamp="2008-12-20T14:22:35Z" uid="58091" user="Andreas M" changeset="504586" lat="48.2521284" lon="16.2805423"/>
  <node id="320179523" version="2" timestamp="2011-02-07T15:02:18Z" uid="321862" user="DanX" changeset="7216851" lat="48.2521422" lon="16.2804825"/>
  <node id="320179525" version="1" timestamp="2008-12-20T14:22:35Z" uid="58091" user="Andreas M" changeset="504586" lat="48.2519385" lon="16.2800973"/>
  <node id="320179525" version="2" timestamp="2011-02-07T15:02:20Z" uid="321862" user="DanX" changeset="7216851" lat="48.2519875" lon="16.2800882"/>
  <node id="320179528" version="1" timestamp="2008-12-20T14:22:35Z" uid="58091" user="Andreas M" changeset="504586" lat="48.2517486" lon="16.2797965"/>
  <node id="320179528" version="2" timestamp="2011-02-07T15:02:19Z" uid="321862" user="DanX" changeset="7216851" lat="48.251774" lon="16.2797358"/>
  <node id="320179530" version="1" timestamp="2008-12-20T14:22:35Z" uid="58091" user="Andreas M" changeset="504586" lat="48.2515775" lon="16.2800848"/>
  <node id="320179532" version="1" timestamp="2008-12-20T14:22:36Z" uid="58091" user="Andreas M" changeset="504586" lat="48.2513313" lon="16.28063"/>
  <node id="320179534" version="1" timestamp="2008-12-20T14:22:36Z" uid="58091" user="Andreas M" changeset="504586" lat="48.2512145" lon="16.2809559"/>
  <node id="320179534" version="2" timestamp="2011-02-07T15:02:20Z" uid="321862" user="DanX" changeset="7216851" lat="48.2512563" lon="16.2808904"/>
</osm>
