<?xml version='1.0' encoding='UTF-8'?>
<osm version="0.6" generator="libosmium/2.20.0">
  <node id="321510076" version="1" timestamp="2008-12-24T18:50:01Z" uid="26515" user="Simon Ward" changeset="584642" lat="53.4735883" lon="-2.2274461"/>
  <node id="321510077" version="1" timestamp="2008-12-24T18:50:01Z" uid="26515" user="Simon Ward" changeset="584642" lat="53.4731147" lon="-2.2270115"/>
  <node id="321510078" version="1" timestamp="2008-12-24T18:50:02Z" uid="26515" user="Simon Ward" changeset="584642" lat="53.4725042" lon="-2.2282481"/>
  <node id="321510079" version="1" timestamp="2008-12-24T18:50:02Z" uid="26515" user="Simon Ward" changeset="584642" lat="53.472508" lon="-2.2283887"/>
  <node id="321510080" version="1" timestamp="2008-12-24T18:50:02Z" uid="26515" user="Simon Ward" changeset="584642" lat="53.4731033" lon="-2.2290502"/>
  <node id="321510081" version="1" timestamp="2008-12-24T18:50:02Z" uid="26515" user="Simon Ward" changeset="584642" lat="53.4731851" lon="-2.2287786"/>
  <node id="321510082" version="1" timestamp="2008-12-24T18:50:02Z" uid="26515" user="Simon Ward" changeset="584642" lat="53.4732398" lon="-2.2288266"/>
  <node id="321510083" version="1" timestamp="2008-12-24T18:50:03Z" uid="26515" user="Simon Ward" changeset="584642" lat="53.4731787" lon="-2.2290193"/>
  <node id="321510084" version="1" timestamp="2008-12-24T18:50:03Z" uid="26515" user="Simon Ward" changeset="584642" lat="53.4733573" lon="-2.2292038"/>
  <node id="321510085" version="1" timestamp="2008-12-24T18:50:03Z" uid="26515" user="Simon Ward" changeset="584642" lat="53.4737053" lon="-2.2292507"/>
  <node id="321510086" version="1" timestamp="2008-12-24T18:50:03Z" uid="26515" user="Simon Ward" changeset="584642" lat="53.4738077" lon="-2.2291913"/>
  <node id="321511276" version="1" timestamp="2008-12-24T19:02:27Z" uid="26515" user="Simon Ward" changeset="584642" lat="53.473653" lon="-2.2273382"/>
  <node id="321511276" version="2" timestamp="2009-03-23T15:55:17Z" uid="4951" user="PeterIto" changeset="848879" lat="53.473653" lon="-2.2273382"/>
  <node id="321511429" version="1" timestamp="2008-12-24T19:05:32Z" uid="26515" user="Simon Ward" changeset="584642" lat="53.4727578" lon="-2.2263495">
    <tag k="amenity" v="fast_food"/>
    <tag k="cuisine" v="sandwich"/>
    <tag k="name" v="The Upper Crust"/>
  </node>
  <node id="321512317" version="1" timestamp="2008-12-24T19:17:14Z" uid="26515" user="Simon Ward" changeset="584642" lat="53.4733119" lon="-2.2269156"/>
  <node id="321512318" version="1" timestamp="2008-12-24T19:17:14Z" uid="26515" user="Simon Ward" changeset="584642" lat="53.4727065" lon="-2.2263955"/>
  <node id="321512319" version="1" timestamp="2008-12-24T19:17:14Z" uid="26515" user="Simon Ward" changeset="584642" lat="53.4726603" lon="-2.2263035"/>
  <node id="321512320" version="1" timestamp="2008-12-24T19:17:15Z" uid="26515" user="Simon Ward" changeset="584642" lat="53.4732093" lon="-2.2258811"/>
  <node id="321512321" version="1" timestamp="2008-12-24T19:17:15Z" uid="26515" user="Simon Ward" changeset="584642" lat="53.4732808" lon="-2.2261435"/>
  <node id="321512324" version="1" timestamp="2008-12-24T19:17:15Z" uid="26515" user="Simon Ward" changeset="584642" lat="53.4733732" lon="-2.2267143"/>
  <node id="321512326" version="1" timestamp="2008-12-24T19:17:15Z" uid="26515" user="Simon Ward" changeset="584642" lat="53.4729781" lon="-2.2263788"/>
  <node id="321512399" version="1" timestamp="2008-12-24T19:20:01Z" uid="26515" user="Simon Ward" changeset="584642" lat="53.4732685" lon="-2.2256248"/>
  <node id="321512399" version="2" timestamp="2008-12-24T19:24:34Z" uid="26515" user="Simon Ward" changeset="584642" lat="53.4732751" lon="-2.22562"/>
  <node id="321512400" version="1" timestamp="2008-12-24T19:20:01Z" uid="26515" user="Simon Ward" changeset="584642" lat="53.4733851" lon="-2.225547"/>
  <node id="321512401" version="1" timestamp="2008-12-24T19:20:01Z" uid="26515" user="Simon Ward" changeset="584642" lat="53.4734425" lon="-2.2254755"/>
  <node id="321512402" version="1" timestamp="2008-12-24T19:20:01Z" uid="26515" user="Simon Ward" changeset="584642" lat="53.4734647" lon="-2.2252858"/>
  <node id="321512746" version="2" timestamp="2010-08-24T17:23:45Z" uid="143719" user="DarkoS" changeset="5581887" lat="45.8103531" lon="15.9842276">
    <tag k="amenity" v="hospital"/>
    <tag k="created_by" v="Merkaartor 0.13"/>
    <tag k="name" v="Traumatološka Bolnica"/>
  </node>
  <node id="321512747" version="2" timestamp="2010-08-24T17:23:45Z" uid="143719" user="DarkoS" changeset="5581887" lat="45.8104353" lon="15.9849464">
    <tag k="amenity" v="hospital"/>
    <tag k="created_by" v="Merkaartor 0.13"/>
    <tag k="name" v="Hitna Pomoć"/>
  </node>
  <node id="321513057" version="2" timestamp="2009-06-04T13:43:33Z" uid="74617" user="JohnSmith" changeset="1420918" lat="-31.9165495" lon="148.3733015"/>
  <node id="321513241" version="2" timestamp="2009-06-04T13:42:28Z" uid="74617" user="JohnSmith" changeset="1420905" lat="-31.9408483" lon="148.3519941"/>
  <node id="321513246" version="2" timestamp="2009-06-04T13:43:33Z" uid="74617" user="JohnSmith" changeset="1420918" lat="-31.916657" lon="148.3732409"/>
  <node id="321514132" version="4" timestamp="2009-10-02T19:45:23Z" uid="86259" user="hasse_osm_korinthenkacker" changeset="2716821" lat="47.8848277" lon="11.6844797">
    <tag k="addr:city" v="Holzkirchen"/>
    <tag k="addr:country" v="DE"/>
    <tag k="addr:housenumber" v="1"/>
    <tag k="addr:postcode" v="83607"/>
    <tag k="addr:street" v="Amselweg"/>
  </node>
  <node id="321514132" version="5" timestamp="2011-04-09T19:14:55Z" uid="42393" user="mawi42" changeset="7816319" lat="47.8848451" lon="11.6844156">
    <tag k="addr:city" v="Holzkirchen"/>
    <tag k="addr:country" v="DE"/>
    <tag k="addr:housenumber" v="1"/>
    <tag k="addr:postcode" v="83607"/>
    <tag k="addr:street" v="Amselweg"/>
  </node>
  <node id="321514138" version="4" timestamp="2009-10-02T19:45:23Z" uid="86259" user="hasse_osm_korinthenkacker" changeset="2716821" lat="47.8848104" lon="11.6843767">
    <tag k="addr:city" v="Holzkirchen"/>
    <tag k="addr:country" v="DE"/>
    <tag k="addr:housenumber" v="3"/>
    <tag k="addr:postcode" v="83607"/>
    <tag k="addr:street" v="Amselweg"/>
  </node>
  <node id="321514138" version="5" timestamp="2011-04-09T19:14:56Z" uid="42393" user="mawi42" changeset="7816319" lat="47.8848273" lon="11.6843244">
    <tag k="addr:city" v="Holzkirchen"/>
    <tag k="addr:country" v="DE"/>
    <tag k="addr:housenumber" v="3"/>
    <tag k="addr:postcode" v="83607"/>
    <tag k="addr:street" v="Amselweg"/>
  </node>
  <node id="321514143" version="4" timestamp="2009-10-02T19:45:22Z" uid="86259" user="hasse_osm_korinthenkacker" changeset="2716821" lat="47.8847989" lon="11.6842737">
    <tag k="addr:city" v="Holzkirchen"/>
    <tag k="addr:country" v="DE"/>
    <tag k="addr:housenumber" v="5"/>
    <tag k="addr:postcode" v="83607"/>
    <tag k="addr:street" v="Amselweg"/>
  </node>
  <node id="321514143" version="5" timestamp="2011-04-09T19:14:58Z" uid="42393" user="mawi42" changeset="7816319" lat="47.8848129" lon="11.6842171">
    <tag k="addr:city" v="Holzkirchen"/>
    <tag k="addr:country" v="DE"/>
    <tag k="addr:housenumber" v="5"/>
    <tag k="addr:postcode" v="83607"/>
    <tag k="addr:street" v="Amselweg"/>
  </node>
  <node id="321514145" version="4" timestamp="2009-10-02T19:45:22Z" uid="86259" user="hasse_osm_korinthenkacker" changeset="2716821" lat="47.8847816" lon="11.6841707">
    <tag k="addr:city" v="Holzkirchen"/>
    <tag k="addr:country" v="DE"/>
    <tag k="addr:housenumber" v="7"/>
    <tag k="addr:postcode" v="83607"/>
    <tag k="addr:street" v="Amselweg"/>
  </node>
  <node id="321514145" version="5" timestamp="2011-04-09T19:14:59Z" uid="42393" user="mawi42" changeset="7816319" lat="47.8847949" lon="11.6841313">
    <tag k="addr:city" v="Holzkirchen"/>
    <tag k="addr:country" v="DE"/>
    <tag k="addr:housenumber" v="7"/>
    <tag k="addr:postcode" v="83607"/>
    <tag k="addr:street" v="Amselweg"/>
  </node>
  <node id="321514158" version="7" timestamp="2009-10-02T19:45:24Z" uid="86259" user="hasse_osm_korinthenkacker" changeset="2716821" lat="47.8854724" lon="11.6842651">
    <tag k="addr:city" v="Holzkirchen"/>
    <tag k="addr:country" v="DE"/>
    <tag k="addr:housenumber" v="31"/>
    <tag k="addr:postcode" v="83607"/>
    <tag k="addr:street" v="Amselweg"/>
  </node>
  <node id="321514158" version="8" timestamp="2011-04-09T19:14:59Z" uid="42393" user="mawi42" changeset="7816319" lat="47.8854999" lon="11.684142">
    <tag k="addr:city" v="Holzkirchen"/>
    <tag k="addr:country" v="DE"/>
    <tag k="addr:housenumber" v="31"/>
    <tag k="addr:postcode" v="83607"/>
    <tag k="addr:street" v="Amselweg"/>
  </node>
  <node id="321514158" version="9" timestamp="2011-04-09T19:18:00Z" uid="42393" user="mawi42" changeset="7816356" lat="47.8854915" lon="11.684136">
    <tag k="addr:city" v="Holzkirchen"/>
    <tag k="addr:country" v="DE"/>
    <tag k="addr:housenumber" v="31"/>
    <tag k="addr:postcode" v="83607"/>
    <tag k="addr:street" v="Amselweg"/>
  </node>
  <node id="321514159" version="8" timestamp="2009-10-02T19:45:24Z" uid="86259" user="hasse_osm_korinthenkacker" changeset="2716821" lat="47.8854608" lon="11.6841793">
    <tag k="addr:city" v="Holzkirchen"/>
    <tag k="addr:country" v="DE"/>
    <tag k="addr:housenumber" v="33"/>
    <tag k="addr:postcode" v="83607"/>
    <tag k="addr:street" v="Amselweg"/>
  </node>
  <node id="321514159" version="9" timestamp="2011-04-09T19:14:59Z" uid="42393" user="mawi42" changeset="7816319" lat="47.8854856" lon="11.6840937">
    <tag k="addr:city" v="Holzkirchen"/>
    <tag k="addr:country" v="DE"/>
    <tag k="addr:housenumber" v="33"/>
    <tag k="addr:postcode" v="83607"/>
    <tag k="addr:street" v="Amselweg"/>
  </node>
  <node id="321514159" version="10" timestamp="2011-04-09T19:18:00Z" uid="42393" user="mawi42" changeset="7816356" lat="47.8854807" lon="11.6840743">
    <tag k="addr:city" v="Holzkirchen"/>
    <tag k="addr:country" v="DE"/>
    <tag k="addr:housenumber" v="33"/>
    <tag k="addr:postcode" v="83607"/>
    <tag k="addr:street" v="Amselweg"/>
  </node>
  <node id="321514160" version="8" timestamp="2009-10-02T19:45:24Z" uid="86259" user="hasse_osm_korinthenkacker" changeset="2716821" lat="47.8854436" lon="11.6840935">
    <tag k="addr:city" v="Holzkirchen"/>
    <tag k="addr:country" v="DE"/>
    <tag k="addr:housenumber" v="35"/>
    <tag k="addr:postcode" v="83607"/>
    <tag k="addr:street" v="Amselweg"/>
  </node>
  <node id="321514160" version="9" timestamp="2011-04-09T19:15:03Z" uid="42393" user="mawi42" changeset="7816319" lat="47.8854711" lon="11.6840079">
    <tag k="addr:city" v="Holzkirchen"/>
    <tag k="addr:country" v="DE"/>
    <tag k="addr:housenumber" v="35"/>
    <tag k="addr:postcode" v="83607"/>
    <tag k="addr:street" v="Amselweg"/>
  </node>
  <node id="321514160" version="10" timestamp="2011-04-09T19:17:59Z" uid="42393" user="mawi42" changeset="7816356" lat="47.8854682" lon="11.6840072">
    <tag k="addr:city" v="Holzkirchen"/>
    <tag k="addr:country" v="DE"/>
    <tag k="addr:housenumber" v="35"/>
    <tag k="addr:postcode" v="83607"/>
    <tag k="addr:street" v="Amselweg"/>
  </node>
  <node id="321514161" version="7" timestamp="2009-10-02T19:45:24Z" uid="86259" user="hasse_osm_korinthenkacker" changeset="2716821" lat="47.8854263" lon="11.683999">
    <tag k="addr:city" v="Holzkirchen"/>
    <tag k="addr:country" v="DE"/>
    <tag k="addr:housenumber" v="37"/>
    <tag k="addr:postcode" v="83607"/>
    <tag k="addr:street" v="Amselweg"/>
  </node>
  <node id="321514161" version="8" timestamp="2011-04-09T19:15:04Z" uid="42393" user="mawi42" changeset="7816319" lat="47.8854533" lon="11.6839327">
    <tag k="addr:city" v="Holzkirchen"/>
    <tag k="addr:country" v="DE"/>
    <tag k="addr:housenumber" v="37"/>
    <tag k="addr:postcode" v="83607"/>
    <tag k="addr:street" v="Amselweg"/>
  </node>
  <node id="321514263" version="5" timestamp="2009-10-02T19:45:23Z" uid="86259" user="hasse_osm_korinthenkacker" changeset="2716821" lat="47.8850119" lon="11.6844282">
    <tag k="addr:city" v="Holzkirchen"/>
    <tag k="addr:country" v="DE"/>
    <tag k="addr:housenumber" v="11"/>
    <tag k="addr:postcode" v="83607"/>
    <tag k="addr:street" v="Amselweg"/>
  </node>
  <node id="321514263" version="6" timestamp="2011-04-09T19:15:05Z" uid="42393" user="mawi42" changeset="7816319" lat="47.8850574" lon="11.684319">
    <tag k="addr:city" v="Holzkirchen"/>
    <tag k="addr:country" v="DE"/>
    <tag k="addr:housenumber" v="11"/>
    <tag k="addr:postcode" v="83607"/>
    <tag k="addr:street" v="Amselweg"/>
  </node>
  <node id="321514272" version="5" timestamp="2009-10-02T19:45:23Z" uid="86259" user="hasse_osm_korinthenkacker" changeset="2716821" lat="47.8849946" lon="11.6843424">
    <tag k="addr:city" v="Holzkirchen"/>
    <tag k="addr:country" v="DE"/>
    <tag k="addr:housenumber" v="13"/>
    <tag k="addr:postcode" v="83607"/>
    <tag k="addr:street" v="Amselweg"/>
  </node>
  <node id="321514272" version="6" timestamp="2011-04-09T19:15:05Z" uid="42393" user="mawi42" changeset="7816319" lat="47.8850468" lon="11.6842493">
    <tag k="addr:city" v="Holzkirchen"/>
    <tag k="addr:country" v="DE"/>
    <tag k="addr:housenumber" v="13"/>
    <tag k="addr:postcode" v="83607"/>
    <tag k="addr:street" v="Amselweg"/>
  </node>
  <node id="321514281" version="5" timestamp="2009-10-02T19:45:23Z" uid="86259" user="hasse_osm_korinthenkacker" changeset="2716821" lat="47.8849773" lon="11.684248">
    <tag k="addr:city" v="Holzkirchen"/>
    <tag k="addr:country" v="DE"/>
    <tag k="addr:housenumber" v="15"/>
    <tag k="addr:postcode" v="83607"/>
    <tag k="addr:street" v="Amselweg"/>
  </node>
  <node id="321514281" version="6" timestamp="2011-04-09T19:14:54Z" uid="42393" user="mawi42" changeset="7816319" lat="47.8850359" lon="11.6841796">
    <tag k="addr:city" v="Holzkirchen"/>
    <tag k="addr:country" v="DE"/>
    <tag k="addr:housenumber" v="15"/>
    <tag k="addr:postcode" v="83607"/>
    <tag k="addr:street" v="Amselweg"/>
  </node>
  <node id="321514289" version="5" timestamp="2009-10-02T19:45:23Z" uid="86259" user="hasse_osm_korinthenkacker" changeset="2716821" lat="47.8849601" lon="11.6841535">
    <tag k="addr:city" v="Holzkirchen"/>
    <tag k="addr:country" v="DE"/>
    <tag k="addr:housenumber" v="17"/>
    <tag k="addr:postcode" v="83607"/>
    <tag k="addr:street" v="Amselweg"/>
  </node>
  <node id="321514289" version="6" timestamp="2011-04-09T19:14:55Z" uid="42393" user="mawi42" changeset="7816319" lat="47.8850214" lon="11.6841098">
    <tag k="addr:city" v="Holzkirchen"/>
    <tag k="addr:country" v="DE"/>
    <tag k="addr:housenumber" v="17"/>
    <tag k="addr:postcode" v="83607"/>
    <tag k="addr:street" v="Amselweg"/>
  </node>
  <node id="321514297" version="5" timestamp="2009-10-02T19:45:23Z" uid="86259" user="hasse_osm_korinthenkacker" changeset="2716821" lat="47.8849486" lon="11.6840591">
    <tag k="addr:city" v="Holzkirchen"/>
    <tag k="addr:country" v="DE"/>
    <tag k="addr:housenumber" v="19"/>
    <tag k="addr:postcode" v="83607"/>
    <tag k="addr:street" v="Amselweg"/>
  </node>
  <node id="321514297" version="6" timestamp="2011-04-09T19:14:55Z" uid="42393" user="mawi42" changeset="7816319" lat="47.8850107" lon="11.6840347">
    <tag k="addr:city" v="Holzkirchen"/>
    <tag k="addr:country" v="DE"/>
    <tag k="addr:housenumber" v="19"/>
    <tag k="addr:postcode" v="83607"/>
    <tag k="addr:street" v="Amselweg"/>
  </node>
  <node id="321514374" version="5" timestamp="2009-10-02T19:45:23Z" uid="86259" user="hasse_osm_korinthenkacker" changeset="2716821" lat="47.88515" lon="11.6839905">
    <tag k="addr:city" v="Holzkirchen"/>
    <tag k="addr:country" v="DE"/>
    <tag k="addr:housenumber" v="29"/>
    <tag k="addr:postcode" v="83607"/>
    <tag k="addr:street" v="Amselweg"/>
  </node>
  <node id="321514374" version="6" timestamp="2011-04-09T19:14:56Z" uid="42393" user="mawi42" changeset="7816319" lat="47.885205" lon="11.6839382">
    <tag k="addr:city" v="Holzkirchen"/>
    <tag k="addr:country" v="DE"/>
    <tag k="addr:housenumber" v="29"/>
    <tag k="addr:postcode" v="83607"/>
    <tag k="addr:street" v="Amselweg"/>
  </node>
  <node id="321514375" version="5" timestamp="2009-10-02T19:45:23Z" uid="86259" user="hasse_osm_korinthenkacker" changeset="2716821" lat="47.8851673" lon="11.6840849">
    <tag k="addr:city" v="Holzkirchen"/>
    <tag k="addr:country" v="DE"/>
    <tag k="addr:housenumber" v="27"/>
    <tag k="addr:postcode" v="83607"/>
    <tag k="addr:street" v="Amselweg"/>
  </node>
  <node id="321514375" version="6" timestamp="2011-04-09T19:14:57Z" uid="42393" user="mawi42" changeset="7816319" lat="47.8852204" lon="11.6840132">
    <tag k="addr:city" v="Holzkirchen"/>
    <tag k="addr:country" v="DE"/>
    <tag k="addr:housenumber" v="27"/>
    <tag k="addr:postcode" v="83607"/>
    <tag k="addr:street" v="Amselweg"/>
  </node>
  <node id="321514376" version="5" timestamp="2009-10-02T19:45:24Z" uid="86259" user="hasse_osm_korinthenkacker" changeset="2716821" lat="47.8851788" lon="11.6841793">
    <tag k="addr:city" v="Holzkirchen"/>
    <tag k="addr:country" v="DE"/>
    <tag k="addr:housenumber" v="25"/>
    <tag k="addr:postcode" v="83607"/>
    <tag k="addr:street" v="Amselweg"/>
  </node>
  <node id="321514376" version="6" timestamp="2011-04-09T19:14:56Z" uid="42393" user="mawi42" changeset="7816319" lat="47.8852365" lon="11.6840937">
    <tag k="addr:city" v="Holzkirchen"/>
    <tag k="addr:country" v="DE"/>
    <tag k="addr:housenumber" v="25"/>
    <tag k="addr:postcode" v="83607"/>
    <tag k="addr:street" v="Amselweg"/>
  </node>
  <node id="321514377" version="5" timestamp="2009-10-02T19:45:24Z" uid="86259" user="hasse_osm_korinthenkacker" changeset="2716821" lat="47.8851903" lon="11.6842737">
    <tag k="addr:city" v="Holzkirchen"/>
    <tag k="addr:country" v="DE"/>
    <tag k="addr:housenumber" v="23"/>
    <tag k="addr:postcode" v="83607"/>
    <tag k="addr:street" v="Amselweg"/>
  </node>
  <node id="321514377" version="6" timestamp="2011-04-09T19:15:00Z" uid="42393" user="mawi42" changeset="7816319" lat="47.8852473" lon="11.6841661">
    <tag k="addr:city" v="Holzkirchen"/>
    <tag k="addr:country" v="DE"/>
    <tag k="addr:housenumber" v="23"/>
    <tag k="addr:postcode" v="83607"/>
    <tag k="addr:street" v="Amselweg"/>
  </node>
  <node id="321514378" version="5" timestamp="2009-10-02T19:45:23Z" uid="86259" user="hasse_osm_korinthenkacker" changeset="2716821" lat="47.8852018" lon="11.6843681">
    <tag k="addr:city" v="Holzkirchen"/>
    <tag k="addr:country" v="DE"/>
    <tag k="addr:housenumber" v="21"/>
    <tag k="addr:postcode" v="83607"/>
    <tag k="addr:street" v="Amselweg"/>
  </node>
  <node id="321514378" version="6" timestamp="2011-04-09T19:15:01Z" uid="42393" user="mawi42" changeset="7816319" lat="47.885259" lon="11.6842291">
    <tag k="addr:city" v="Holzkirchen"/>
    <tag k="addr:country" v="DE"/>
    <tag k="addr:housenumber" v="21"/>
    <tag k="addr:postcode" v="83607"/>
    <tag k="addr:street" v="Amselweg"/>
  </node>
  <node id="321514424" version="5" timestamp="2009-10-02T19:45:21Z" uid="86259" user="hasse_osm_korinthenkacker" changeset="2716821" lat="47.885409" lon="11.6839046">
    <tag k="addr:city" v="Holzkirchen"/>
    <tag k="addr:country" v="DE"/>
    <tag k="addr:housenumber" v="39"/>
    <tag k="addr:postcode" v="83607"/>
    <tag k="addr:street" v="Amselweg"/>
  </node>
  <node id="321514424" version="6" timestamp="2011-04-09T19:15:01Z" uid="42393" user="mawi42" changeset="7816319" lat="47.8854461" lon="11.6838577">
    <tag k="addr:city" v="Holzkirchen"/>
    <tag k="addr:country" v="DE"/>
    <tag k="addr:housenumber" v="39"/>
    <tag k="addr:postcode" v="83607"/>
    <tag k="addr:street" v="Amselweg"/>
  </node>
  <node id="321514424" version="7" timestamp="2011-04-09T19:18:00Z" uid="42393" user="mawi42" changeset="7816356" lat="47.885443" lon="11.6838678">
    <tag k="addr:city" v="Holzkirchen"/>
    <tag k="addr:country" v="DE"/>
    <tag k="addr:housenumber" v="39"/>
    <tag k="addr:postcode" v="83607"/>
    <tag k="addr:street" v="Amselweg"/>
  </node>
  <node id="321514534" version="5" timestamp="2009-10-02T19:45:21Z" uid="86259" user="hasse_osm_korinthenkacker" changeset="2716821" lat="47.8855932" lon="11.6839475">
    <tag k="addr:city" v="Holzkirchen"/>
    <tag k="addr:country" v="DE"/>
    <tag k="addr:housenumber" v="41"/>
    <tag k="addr:postcode" v="83607"/>
    <tag k="addr:street" v="Amselweg"/>
  </node>
  <node id="321514534" version="6" timestamp="2011-04-09T19:15:01Z" uid="42393" user="mawi42" changeset="7816319" lat="47.8855932" lon="11.6839153">
    <tag k="addr:city" v="Holzkirchen"/>
    <tag k="addr:country" v="DE"/>
    <tag k="addr:housenumber" v="41"/>
    <tag k="addr:postcode" v="83607"/>
    <tag k="addr:street" v="Amselweg"/>
  </node>
  <node id="321514542" version="4" timestamp="2009-10-02T19:45:21Z" uid="86259" user="hasse_osm_korinthenkacker" changeset="2716821" lat="47.8856565" lon="11.6839218">
    <tag k="addr:city" v="Holzkirchen"/>
    <tag k="addr:country" v="DE"/>
    <tag k="addr:housenumber" v="43"/>
    <tag k="addr:postcode" v="83607"/>
    <tag k="addr:street" v="Amselweg"/>
  </node>
  <node id="321514542" version="5" timestamp="2011-04-09T19:15:01Z" uid="42393" user="mawi42" changeset="7816319" lat="47.8856421" lon="11.6838896">
    <tag k="addr:city" v="Holzkirchen"/>
    <tag k="addr:country" v="DE"/>
    <tag k="addr:housenumber" v="43"/>
    <tag k="addr:postcode" v="83607"/>
    <tag k="addr:street" v="Amselweg"/>
  </node>
  <node id="321514570" version="2" timestamp="2009-06-04T13:36:21Z" uid="74617" user="JohnSmith" changeset="1420853" lat="-31.7421921" lon="148.2962026"/>
  <node id="321514616" version="4" timestamp="2009-10-02T19:45:24Z" uid="86259" user="hasse_osm_korinthenkacker" changeset="2716821" lat="47.8858868" lon="11.6840763">
    <tag k="addr:city" v="Holzkirchen"/>
    <tag k="addr:country" v="DE"/>
    <tag k="addr:housenumber" v="45"/>
    <tag k="addr:postcode" v="83607"/>
    <tag k="addr:street" v="Amselweg"/>
  </node>
  <node id="321514616" version="5" timestamp="2011-04-09T19:19:05Z" uid="42393" user="mawi42" changeset="7816366" lat="47.8858659" lon="11.6839712">
    <tag k="addr:city" v="Holzkirchen"/>
    <tag k="addr:country" v="DE"/>
    <tag k="addr:housenumber" v="45"/>
    <tag k="addr:postcode" v="83607"/>
    <tag k="addr:street" v="Amselweg"/>
  </node>
  <node id="321514617" version="4" timestamp="2009-10-02T19:45:21Z" uid="86259" user="hasse_osm_korinthenkacker" changeset="2716821" lat="47.8858004" lon="11.6836214">
    <tag k="addr:city" v="Holzkirchen"/>
    <tag k="addr:country" v="DE"/>
    <tag k="addr:housenumber" v="47"/>
    <tag k="addr:postcode" v="83607"/>
    <tag k="addr:street" v="Amselweg"/>
  </node>
  <node id="321514617" version="5" timestamp="2011-04-09T19:19:06Z" uid="42393" user="mawi42" changeset="7816366" lat="47.8857795" lon="11.6835211">
    <tag k="addr:city" v="Holzkirchen"/>
    <tag k="addr:country" v="DE"/>
    <tag k="addr:housenumber" v="47"/>
    <tag k="addr:postcode" v="83607"/>
    <tag k="addr:street" v="Amselweg"/>
  </node>
  <node id="321516926" version="2" timestamp="2011-04-02T09:15:21Z" uid="4467" user="Rosscoe" changeset="7742172" lat="-31.9460444" lon="148.6084686"/>
</osm>
