<?xml version='1.0' encoding='UTF-8'?>
<osm version="0.6" generator="libosmium/2.20.0">
  <node id="321720394" version="1" timestamp="2008-12-26T09:30:22Z" uid="4467" user="Rosscoe" changeset="607845" lat="-20.3367733" lon="148.5965604">
    <tag k="addr:city" v="Strathdickie"/>
    <tag k="addr:country" v="AU"/>
    <tag k="addr:housenumber" v="10"/>
    <tag k="addr:postcode" v="4800"/>
    <tag k="addr:street" v="Staniland Drive"/>
  </node>
  <node id="321720394" version="2" timestamp="2008-12-26T10:58:53Z" uid="4467" user="Rosscoe" changeset="613582" lat="-20.3367413" lon="148.5966989">
    <tag k="addr:city" v="Strathdickie"/>
    <tag k="addr:country" v="AU"/>
    <tag k="addr:housenumber" v="10"/>
    <tag k="addr:postcode" v="4800"/>
    <tag k="addr:street" v="Staniland Drive"/>
  </node>
  <node id="321720394" version="3" timestamp="2009-01-18T07:23:00Z" uid="4467" user="Rosscoe" changeset="806275" lat="-20.3367413" lon="148.5966989">
    <tag k="addr:city" v="Strathdickie"/>
    <tag k="addr:country" v="AU"/>
    <tag k="addr:housenumber" v="10"/>
    <tag k="addr:postcode" v="4800"/>
    <tag k="addr:street" v="Staniland Drive"/>
    <tag k="source" v="survey"/>
  </node>
  <node id="321720396" version="1" timestamp="2008-12-26T09:30:22Z" uid="4467" user="Rosscoe" changeset="607845" lat="-20.3358757" lon="148.59645">
    <tag k="addr:city" v="Strathdickie"/>
    <tag k="addr:country" v="AU"/>
    <tag k="addr:housenumber" v="20"/>
    <tag k="addr:postcode" v="4800"/>
    <tag k="addr:street" v="Staniland Drive"/>
  </node>
  <node id="321720396" version="2" timestamp="2008-12-26T10:58:53Z" uid="4467" user="Rosscoe" changeset="613582" lat="-20.3358544" lon="148.5966152">
    <tag k="addr:city" v="Strathdickie"/>
    <tag k="addr:country" v="AU"/>
    <tag k="addr:housenumber" v="20"/>
    <tag k="addr:postcode" v="4800"/>
    <tag k="addr:street" v="Staniland Drive"/>
  </node>
  <node id="321720396" version="3" timestamp="2009-01-18T07:22:58Z" uid="4467" user="Rosscoe" changeset="806275" lat="-20.3358544" lon="148.5966152">
    <tag k="addr:city" v="Strathdickie"/>
    <tag k="addr:country" v="AU"/>
    <tag k="addr:housenumber" v="20"/>
    <tag k="addr:postcode" v="4800"/>
    <tag k="addr:street" v="Staniland Drive"/>
    <tag k="source" v="survey"/>
  </node>
  <node id="321720396" version="4" timestamp="2011-01-03T10:22:47Z" uid="4467" user="Rosscoe" changeset="6847769" lat="-20.3353544" lon="148.596592">
    <tag k="addr:city" v="Strathdickie"/>
    <tag k="addr:country" v="AU"/>
    <tag k="addr:housenumber" v="20"/>
    <tag k="addr:postcode" v="4800"/>
    <tag k="addr:street" v="Staniland Drive"/>
    <tag k="source" v="survey"/>
  </node>
  <node id="321720397" version="1" timestamp="2008-12-26T09:30:23Z" uid="4467" user="Rosscoe" changeset="607845" lat="-20.3349817" lon="148.5963289">
    <tag k="addr:city" v="Strathdickie"/>
    <tag k="addr:country" v="AU"/>
    <tag k="addr:housenumber" v="30"/>
    <tag k="addr:postcode" v="4800"/>
    <tag k="addr:street" v="Staniland Drive"/>
  </node>
  <node id="321720397" version="2" timestamp="2008-12-26T10:58:54Z" uid="4467" user="Rosscoe" changeset="613582" lat="-20.3349871" lon="148.5964674">
    <tag k="addr:city" v="Strathdickie"/>
    <tag k="addr:country" v="AU"/>
    <tag k="addr:housenumber" v="30"/>
    <tag k="addr:postcode" v="4800"/>
    <tag k="addr:street" v="Staniland Drive"/>
  </node>
  <node id="321720397" version="3" timestamp="2009-01-18T07:22:59Z" uid="4467" user="Rosscoe" changeset="806275" lat="-20.3349871" lon="148.5964674">
    <tag k="addr:city" v="Strathdickie"/>
    <tag k="addr:country" v="AU"/>
    <tag k="addr:housenumber" v="30"/>
    <tag k="addr:postcode" v="4800"/>
    <tag k="addr:street" v="Staniland Drive"/>
    <tag k="source" v="survey"/>
  </node>
  <node id="321720397" version="4" timestamp="2011-01-03T10:23:22Z" uid="4467" user="Rosscoe" changeset="6847769" lat="-20.3346683" lon="148.5965601">
    <tag k="addr:city" v="Strathdickie"/>
    <tag k="addr:country" v="AU"/>
    <tag k="addr:housenumber" v="30"/>
    <tag k="addr:postcode" v="4800"/>
    <tag k="addr:street" v="Staniland Drive"/>
    <tag k="source" v="survey"/>
  </node>
  <node id="321720398" version="1" timestamp="2008-12-26T09:30:24Z" uid="4467" user="Rosscoe" changeset="607845" lat="-20.3337387" lon="148.5961508">
    <tag k="addr:city" v="Strathdickie"/>
    <tag k="addr:country" v="AU"/>
    <tag k="addr:housenumber" v="44"/>
    <tag k="addr:postcode" v="4800"/>
    <tag k="addr:street" v="Staniland Drive"/>
  </node>
  <node id="321720398" version="2" timestamp="2008-12-26T10:58:55Z" uid="4467" user="Rosscoe" changeset="613582" lat="-20.33376" lon="148.5962574">
    <tag k="addr:city" v="Strathdickie"/>
    <tag k="addr:country" v="AU"/>
    <tag k="addr:housenumber" v="44"/>
    <tag k="addr:postcode" v="4800"/>
    <tag k="addr:street" v="Staniland Drive"/>
  </node>
  <node id="321720398" version="3" timestamp="2009-01-18T07:22:48Z" uid="4467" user="Rosscoe" changeset="806275" lat="-20.33376" lon="148.5962574">
    <tag k="addr:city" v="Strathdickie"/>
    <tag k="addr:country" v="AU"/>
    <tag k="addr:housenumber" v="44"/>
    <tag k="addr:postcode" v="4800"/>
    <tag k="addr:street" v="Staniland Drive"/>
    <tag k="source" v="survey"/>
  </node>
  <node id="321720398" version="4" timestamp="2011-01-03T10:22:37Z" uid="4467" user="Rosscoe" changeset="6847769" lat="-20.3337383" lon="148.5965974">
    <tag k="addr:city" v="Strathdickie"/>
    <tag k="addr:country" v="AU"/>
    <tag k="addr:housenumber" v="44"/>
    <tag k="addr:postcode" v="4800"/>
    <tag k="addr:street" v="Staniland Drive"/>
    <tag k="source" v="survey"/>
  </node>
  <node id="321720399" version="1" timestamp="2008-12-26T09:30:25Z" uid="4467" user="Rosscoe" changeset="607845" lat="-20.3335535" lon="148.5961152">
    <tag k="addr:city" v="Strathdickie"/>
    <tag k="addr:country" v="AU"/>
    <tag k="addr:housenumber" v="46"/>
    <tag k="addr:postcode" v="4800"/>
    <tag k="addr:street" v="Staniland Drive"/>
  </node>
  <node id="321720399" version="2" timestamp="2008-12-26T10:58:56Z" uid="4467" user="Rosscoe" changeset="613582" lat="-20.3335322" lon="148.5962484">
    <tag k="addr:city" v="Strathdickie"/>
    <tag k="addr:country" v="AU"/>
    <tag k="addr:housenumber" v="46"/>
    <tag k="addr:postcode" v="4800"/>
    <tag k="addr:street" v="Staniland Drive"/>
  </node>
  <node id="321720399" version="3" timestamp="2009-01-18T07:22:48Z" uid="4467" user="Rosscoe" changeset="806275" lat="-20.3335322" lon="148.5962484">
    <tag k="addr:city" v="Strathdickie"/>
    <tag k="addr:country" v="AU"/>
    <tag k="addr:housenumber" v="46"/>
    <tag k="addr:postcode" v="4800"/>
    <tag k="addr:street" v="Staniland Drive"/>
    <tag k="source" v="survey"/>
  </node>
  <node id="321720399" version="4" timestamp="2011-01-03T10:23:12Z" uid="4467" user="Rosscoe" changeset="6847769" lat="-20.3331337" lon="148.5962793">
    <tag k="addr:city" v="Strathdickie"/>
    <tag k="addr:country" v="AU"/>
    <tag k="addr:housenumber" v="46"/>
    <tag k="addr:postcode" v="4800"/>
    <tag k="addr:street" v="Staniland Drive"/>
    <tag k="source" v="survey"/>
  </node>
  <node id="321720400" version="1" timestamp="2008-12-26T09:30:26Z" uid="4467" user="Rosscoe" changeset="607845" lat="-20.3333683" lon="148.596076">
    <tag k="addr:city" v="Strathdickie"/>
    <tag k="addr:country" v="AU"/>
    <tag k="addr:housenumber" v="48"/>
    <tag k="addr:postcode" v="4800"/>
    <tag k="addr:street" v="Staniland Drive"/>
  </node>
  <node id="321720400" version="2" timestamp="2008-12-26T10:58:57Z" uid="4467" user="Rosscoe" changeset="613582" lat="-20.3333523" lon="148.5961666">
    <tag k="addr:city" v="Strathdickie"/>
    <tag k="addr:country" v="AU"/>
    <tag k="addr:housenumber" v="48"/>
    <tag k="addr:postcode" v="4800"/>
    <tag k="addr:street" v="Staniland Drive"/>
  </node>
  <node id="321720400" version="3" timestamp="2009-01-18T07:22:47Z" uid="4467" user="Rosscoe" changeset="806275" lat="-20.3333523" lon="148.5961666">
    <tag k="addr:city" v="Strathdickie"/>
    <tag k="addr:country" v="AU"/>
    <tag k="addr:housenumber" v="48"/>
    <tag k="addr:postcode" v="4800"/>
    <tag k="addr:street" v="Staniland Drive"/>
    <tag k="source" v="survey"/>
  </node>
  <node id="321720400" version="4" timestamp="2011-01-03T10:23:27Z" uid="4467" user="Rosscoe" changeset="6847769" lat="-20.3327364" lon="148.5960198">
    <tag k="addr:city" v="Strathdickie"/>
    <tag k="addr:country" v="AU"/>
    <tag k="addr:housenumber" v="48"/>
    <tag k="addr:postcode" v="4800"/>
    <tag k="addr:street" v="Staniland Drive"/>
    <tag k="source" v="survey"/>
  </node>
  <node id="321720403" version="1" timestamp="2008-12-26T09:30:27Z" uid="4467" user="Rosscoe" changeset="607845" lat="-20.3319009" lon="148.5949755">
    <tag k="addr:city" v="Strathdickie"/>
    <tag k="addr:country" v="AU"/>
    <tag k="addr:housenumber" v="68"/>
    <tag k="addr:postcode" v="4800"/>
    <tag k="addr:street" v="Staniland Drive"/>
  </node>
  <node id="321720403" version="2" timestamp="2008-12-26T10:58:58Z" uid="4467" user="Rosscoe" changeset="613582" lat="-20.3317624" lon="148.5950927">
    <tag k="addr:city" v="Strathdickie"/>
    <tag k="addr:country" v="AU"/>
    <tag k="addr:housenumber" v="68"/>
    <tag k="addr:postcode" v="4800"/>
    <tag k="addr:street" v="Staniland Drive"/>
  </node>
  <node id="321720403" version="3" timestamp="2009-01-18T07:22:46Z" uid="4467" user="Rosscoe" changeset="806275" lat="-20.3317624" lon="148.5950927">
    <tag k="addr:city" v="Strathdickie"/>
    <tag k="addr:country" v="AU"/>
    <tag k="addr:housenumber" v="68"/>
    <tag k="addr:postcode" v="4800"/>
    <tag k="addr:street" v="Staniland Drive"/>
    <tag k="source" v="survey"/>
  </node>
  <node id="321720403" version="4" timestamp="2011-01-03T10:23:36Z" uid="4467" user="Rosscoe" changeset="6847769" lat="-20.3317479" lon="148.5952627">
    <tag k="addr:city" v="Strathdickie"/>
    <tag k="addr:country" v="AU"/>
    <tag k="addr:housenumber" v="68"/>
    <tag k="addr:postcode" v="4800"/>
    <tag k="addr:street" v="Staniland Drive"/>
    <tag k="source" v="survey"/>
  </node>
  <node id="321721726" version="1" timestamp="2008-12-26T09:38:21Z" uid="33382" user="de_muur" changeset="609935" lat="53.5630301" lon="10.3365756">
    <tag k="created_by" v="JOSM"/>
  </node>
  <node id="321721726" version="2" timestamp="2009-02-02T13:10:02Z" uid="42123" user="Ropino" changeset="62884" lat="53.5630518" lon="10.336573">
    <tag k="created_by" v="JOSM"/>
  </node>
  <node id="321721726" version="3" timestamp="2011-04-02T16:13:34Z" uid="56190" user="kmvar" changeset="7745357" lat="53.5630518" lon="10.336573"/>
  <node id="321721726" version="4" timestamp="2012-03-12T10:01:01Z" uid="63375" user="Divjo" changeset="10952803" lat="53.5634455" lon="10.3349948"/>
  <node id="321721726" version="5" timestamp="2012-03-18T15:37:42Z" uid="418724" user="wintersportler" changeset="11020172" lat="53.5634455" lon="10.3349948"/>
  <node id="321721727" version="1" timestamp="2008-12-26T09:38:21Z" uid="33382" user="de_muur" changeset="609935" lat="53.5626664" lon="10.3354414">
    <tag k="created_by" v="JOSM"/>
  </node>
  <node id="321721727" version="2" timestamp="2011-04-02T16:15:52Z" uid="56190" user="kmvar" changeset="7745357" lat="53.5626664" lon="10.3354414"/>
  <node id="321721728" version="1" timestamp="2008-12-26T09:38:21Z" uid="33382" user="de_muur" changeset="609935" lat="53.5623193" lon="10.3348134">
    <tag k="created_by" v="JOSM"/>
  </node>
  <node id="321721728" version="2" timestamp="2011-04-02T16:15:44Z" uid="56190" user="kmvar" changeset="7745357" lat="53.5623193" lon="10.3348134"/>
  <node id="321721729" version="1" timestamp="2008-12-26T09:38:21Z" uid="33382" user="de_muur" changeset="609935" lat="53.5639163" lon="10.3329361">
    <tag k="created_by" v="JOSM"/>
  </node>
  <node id="321721729" version="2" timestamp="2011-04-02T16:13:57Z" uid="56190" user="kmvar" changeset="7745357" lat="53.5639163" lon="10.3329361"/>
  <node id="321721729" version="3" timestamp="2012-03-12T10:01:02Z" uid="63375" user="Divjo" changeset="10952803" lat="53.563844" lon="10.3328955"/>
  <node id="321721730" version="1" timestamp="2008-12-26T09:38:21Z" uid="33382" user="de_muur" changeset="609935" lat="53.5639173" lon="10.3329362">
    <tag k="created_by" v="JOSM"/>
  </node>
  <node id="321721730" version="2" timestamp="2011-04-02T16:11:33Z" uid="56190" user="kmvar" changeset="7745357" lat="53.5639173" lon="10.3329362"/>
  <node id="321721730" version="3" timestamp="2012-03-12T10:01:11Z" uid="63375" user="Divjo" changeset="10952803" lat="53.5639173" lon="10.3329362"/>
  <node id="321721731" version="1" timestamp="2008-12-26T09:38:21Z" uid="33382" user="de_muur" changeset="609935" lat="53.5634738" lon="10.334901">
    <tag k="created_by" v="JOSM"/>
  </node>
  <node id="321721731" version="2" timestamp="2009-02-02T13:10:03Z" uid="42123" user="Ropino" changeset="62884" lat="53.5634273" lon="10.3348853">
    <tag k="created_by" v="JOSM"/>
  </node>
  <node id="321721731" version="3" timestamp="2009-05-05T14:32:52Z" uid="33382" user="de_muur" changeset="1087499" lat="53.5634678" lon="10.3348923">
    <tag k="created_by" v="JOSM"/>
  </node>
  <node id="321721731" version="4" timestamp="2011-04-02T16:14:30Z" uid="56190" user="kmvar" changeset="7745357" lat="53.5634678" lon="10.3348923"/>
  <node id="321721731" version="5" timestamp="2012-03-12T10:01:02Z" uid="63375" user="Divjo" changeset="10952803" lat="53.5633982" lon="10.3348562"/>
  <node id="321723617" version="2" timestamp="2010-01-01T05:51:31Z" uid="74617" user="JohnSmith" changeset="3505411" lat="-28.1778226" lon="153.5215191"/>
  <node id="321723621" version="2" timestamp="2010-06-01T10:01:38Z" uid="4467" user="Rosscoe" changeset="4873206" lat="-28.1802645" lon="153.5205971"/>
  <node id="321723622" version="2" timestamp="2010-06-01T10:04:31Z" uid="4467" user="Rosscoe" changeset="4873206" lat="-28.179721" lon="153.5208205"/>
  <node id="321723623" version="2" timestamp="2010-01-01T05:51:30Z" uid="74617" user="JohnSmith" changeset="3505411" lat="-28.179381" lon="153.5210788"/>
  <node id="321723623" version="3" timestamp="2010-06-01T10:05:56Z" uid="4467" user="Rosscoe" changeset="4873206" lat="-28.1797942" lon="153.5208983"/>
  <node id="321723624" version="2" timestamp="2010-01-01T05:51:29Z" uid="74617" user="JohnSmith" changeset="3505411" lat="-28.1802696" lon="153.520694"/>
  <node id="321723624" version="3" timestamp="2010-06-01T10:03:57Z" uid="4467" user="Rosscoe" changeset="4873206" lat="-28.1803403" lon="153.5206689"/>
  <node id="321723785" version="1" timestamp="2008-12-26T09:59:10Z" uid="43863" user="Rundling" changeset="611363" lat="52.879594" lon="10.8008547"/>
  <node id="321724005" version="1" timestamp="2008-12-26T10:02:51Z" uid="33382" user="de_muur" changeset="609935" lat="53.5641393" lon="10.3320123">
    <tag k="created_by" v="JOSM"/>
  </node>
  <node id="321724005" version="2" timestamp="2011-04-02T16:15:55Z" uid="56190" user="kmvar" changeset="7745357" lat="53.5641393" lon="10.3320123"/>
  <node id="321724005" version="3" timestamp="2012-03-12T10:01:02Z" uid="63375" user="Divjo" changeset="10952803" lat="53.564067" lon="10.3319988"/>
  <node id="321724006" version="1" timestamp="2008-12-26T10:02:52Z" uid="33382" user="de_muur" changeset="609935" lat="53.5641403" lon="10.3320126">
    <tag k="created_by" v="JOSM"/>
  </node>
  <node id="321724006" version="2" timestamp="2011-04-02T16:14:09Z" uid="56190" user="kmvar" changeset="7745357" lat="53.5641403" lon="10.3320126"/>
  <node id="321724006" version="3" timestamp="2012-03-12T10:01:11Z" uid="63375" user="Divjo" changeset="10952803" lat="53.5641403" lon="10.3320126"/>
  <node id="321724007" version="1" timestamp="2008-12-26T10:02:52Z" uid="33382" user="de_muur" changeset="609935" lat="53.5620361" lon="10.3335043">
    <tag k="created_by" v="JOSM"/>
  </node>
  <node id="321724007" version="2" timestamp="2011-04-02T16:11:57Z" uid="56190" user="kmvar" changeset="7745357" lat="53.5620361" lon="10.3335043"/>
  <node id="321724008" version="1" timestamp="2008-12-26T10:02:52Z" uid="33382" user="de_muur" changeset="609935" lat="53.5619343" lon="10.3327181">
    <tag k="created_by" v="JOSM"/>
  </node>
  <node id="321724008" version="2" timestamp="2011-04-02T16:13:54Z" uid="56190" user="kmvar" changeset="7745357" lat="53.5619343" lon="10.3327181"/>
  <node id="321724009" version="1" timestamp="2008-12-26T10:02:52Z" uid="33382" user="de_muur" changeset="609935" lat="53.5622486" lon="10.3313039">
    <tag k="created_by" v="JOSM"/>
  </node>
  <node id="321724009" version="2" timestamp="2011-04-02T16:11:28Z" uid="56190" user="kmvar" changeset="7745357" lat="53.5622486" lon="10.3313039"/>
  <node id="321724010" version="1" timestamp="2008-12-26T10:02:52Z" uid="33382" user="de_muur" changeset="609935" lat="53.5627084" lon="10.3309312">
    <tag k="created_by" v="JOSM"/>
  </node>
  <node id="321724010" version="2" timestamp="2011-04-02T16:14:26Z" uid="56190" user="kmvar" changeset="7745357" lat="53.5627084" lon="10.3309312"/>
  <node id="321724011" version="1" timestamp="2008-12-26T10:02:52Z" uid="33382" user="de_muur" changeset="609935" lat="53.5616184" lon="10.3288118">
    <tag k="created_by" v="JOSM"/>
  </node>
  <node id="321724011" version="2" timestamp="2011-04-02T16:12:34Z" uid="56190" user="kmvar" changeset="7745357" lat="53.5616184" lon="10.3288118"/>
  <node id="321724012" version="1" timestamp="2008-12-26T10:02:53Z" uid="33382" user="de_muur" changeset="609935" lat="53.5625061" lon="10.3284313">
    <tag k="created_by" v="JOSM"/>
  </node>
  <node id="321724012" version="2" timestamp="2011-04-02T16:15:08Z" uid="56190" user="kmvar" changeset="7745357" lat="53.5625061" lon="10.3284313"/>
  <node id="321724013" version="1" timestamp="2008-12-26T10:02:53Z" uid="33382" user="de_muur" changeset="609935" lat="53.5633163" lon="10.3299743">
    <tag k="created_by" v="JOSM"/>
  </node>
  <node id="321724013" version="2" timestamp="2011-04-02T16:13:25Z" uid="56190" user="kmvar" changeset="7745357" lat="53.5633163" lon="10.3299743"/>
  <node id="321724014" version="1" timestamp="2008-12-26T10:02:53Z" uid="33382" user="de_muur" changeset="609935" lat="53.5637814" lon="10.3314609">
    <tag k="created_by" v="JOSM"/>
  </node>
  <node id="321724014" version="2" timestamp="2011-04-02T16:15:47Z" uid="56190" user="kmvar" changeset="7745357" lat="53.5637814" lon="10.3314609"/>
  <node id="321724015" version="1" timestamp="2008-12-26T10:02:53Z" uid="33382" user="de_muur" changeset="609935" lat="53.5632459" lon="10.3316582">
    <tag k="created_by" v="JOSM"/>
  </node>
  <node id="321724015" version="2" timestamp="2011-04-02T16:14:01Z" uid="56190" user="kmvar" changeset="7745357" lat="53.5632459" lon="10.3316582"/>
  <node id="321724016" version="1" timestamp="2008-12-26T10:02:53Z" uid="33382" user="de_muur" changeset="609935" lat="53.5624779" lon="10.3316653">
    <tag k="created_by" v="JOSM"/>
  </node>
  <node id="321724016" version="2" timestamp="2011-04-02T16:15:28Z" uid="56190" user="kmvar" changeset="7745357" lat="53.5624779" lon="10.3316653"/>
  <node id="321724017" version="1" timestamp="2008-12-26T10:02:54Z" uid="33382" user="de_muur" changeset="609935" lat="53.5622595" lon="10.3325741">
    <tag k="created_by" v="JOSM"/>
  </node>
  <node id="321724017" version="2" timestamp="2011-04-02T16:13:46Z" uid="56190" user="kmvar" changeset="7745357" lat="53.5622595" lon="10.3325741"/>
  <node id="321724018" version="1" timestamp="2008-12-26T10:02:54Z" uid="33382" user="de_muur" changeset="609935" lat="53.561606" lon="10.3265711">
    <tag k="created_by" v="JOSM"/>
  </node>
  <node id="321724018" version="2" timestamp="2011-04-02T16:11:14Z" uid="56190" user="kmvar" changeset="7745357" lat="53.561606" lon="10.3265711"/>
  <node id="321724018" version="3" timestamp="2012-03-22T13:34:34Z" uid="349191" user="Glühwürmchen" changeset="11061000" lat="53.561606" lon="10.3265711"/>
  <node id="321724019" version="1" timestamp="2008-12-26T10:02:54Z" uid="33382" user="de_muur" changeset="609935" lat="53.5613401" lon="10.3261064">
    <tag k="created_by" v="JOSM"/>
  </node>
  <node id="321724019" version="2" timestamp="2011-04-02T16:14:19Z" uid="56190" user="kmvar" changeset="7745357" lat="53.5613401" lon="10.3261064"/>
  <node id="321724019" version="3" timestamp="2012-03-22T13:34:39Z" uid="349191" user="Glühwürmchen" changeset="11061000" lat="53.5613401" lon="10.3261064"/>
  <node id="321724020" version="1" timestamp="2008-12-26T10:02:55Z" uid="33382" user="de_muur" changeset="609935" lat="53.5610523" lon="10.3256857">
    <tag k="created_by" v="JOSM"/>
  </node>
  <node id="321724020" version="2" timestamp="2011-04-02T16:12:18Z" uid="56190" user="kmvar" changeset="7745357" lat="53.5610523" lon="10.3256857"/>
  <node id="321724020" version="3" timestamp="2012-03-22T13:34:34Z" uid="349191" user="Glühwürmchen" changeset="11061000" lat="53.5610523" lon="10.3256857"/>
  <node id="321724021" version="1" timestamp="2008-12-26T10:02:55Z" uid="33382" user="de_muur" changeset="609935" lat="53.5605708" lon="10.3251315">
    <tag k="created_by" v="JOSM"/>
  </node>
  <node id="321724021" version="2" timestamp="2011-04-02T16:14:59Z" uid="56190" user="kmvar" changeset="7745357" lat="53.5605708" lon="10.3251315"/>
  <node id="321724021" version="3" timestamp="2012-03-22T13:34:34Z" uid="349191" user="Glühwürmchen" changeset="11061000" lat="53.5605708" lon="10.3251315"/>
  <node id="321724023" version="1" timestamp="2008-12-26T10:02:55Z" uid="33382" user="de_muur" changeset="609935" lat="53.560175" lon="10.3245431">
    <tag k="created_by" v="JOSM"/>
  </node>
  <node id="321724023" version="2" timestamp="2011-04-02T16:15:35Z" uid="56190" user="kmvar" changeset="7745357" lat="53.560175" lon="10.3245431"/>
  <node id="321724023" version="3" timestamp="2012-03-22T13:34:35Z" uid="349191" user="Glühwürmchen" changeset="11061000" lat="53.560175" lon="10.3245431"/>
  <node id="321724024" version="1" timestamp="2008-12-26T10:02:56Z" uid="33382" user="de_muur" changeset="609935" lat="53.559337" lon="10.3232996">
    <tag k="created_by" v="JOSM"/>
  </node>
  <node id="321724024" version="2" timestamp="2010-08-30T06:40:31Z" uid="33382" user="de_muur" changeset="5633119" lat="53.5596941" lon="10.3237533"/>
  <node id="321724024" version="3" timestamp="2012-03-22T13:34:36Z" uid="349191" user="Glühwürmchen" changeset="11061000" lat="53.5596941" lon="10.3237533"/>
  <node id="321724025" version="1" timestamp="2008-12-26T10:02:56Z" uid="33382" user="de_muur" changeset="609935" lat="53.5588815" lon="10.3224935">
    <tag k="created_by" v="JOSM"/>
  </node>
  <node id="321724025" version="2" timestamp="2011-04-02T16:15:19Z" uid="56190" user="kmvar" changeset="7745357" lat="53.5588815" lon="10.3224935"/>
  <node id="321724026" version="1" timestamp="2008-12-26T10:02:56Z" uid="33382" user="de_muur" changeset="609935" lat="53.5580631" lon="10.3233453">
    <tag k="created_by" v="JOSM"/>
  </node>
  <node id="321724026" version="2" timestamp="2011-04-02T16:13:39Z" uid="56190" user="kmvar" changeset="7745357" lat="53.5580631" lon="10.3233453"/>
  <node id="321724027" version="1" timestamp="2008-12-26T10:02:56Z" uid="33382" user="de_muur" changeset="609935" lat="53.5572475" lon="10.3220551">
    <tag k="created_by" v="JOSM"/>
  </node>
  <node id="321724027" version="2" timestamp="2011-04-02T16:15:57Z" uid="56190" user="kmvar" changeset="7745357" lat="53.5572475" lon="10.3220551"/>
  <node id="321724028" version="1" timestamp="2008-12-26T10:02:56Z" uid="33382" user="de_muur" changeset="609935" lat="53.5563961" lon="10.320841">
    <tag k="created_by" v="JOSM"/>
  </node>
  <node id="321724028" version="2" timestamp="2011-04-02T16:14:11Z" uid="56190" user="kmvar" changeset="7745357" lat="53.5563961" lon="10.320841"/>
  <node id="321724029" version="1" timestamp="2008-12-26T10:02:56Z" uid="33382" user="de_muur" changeset="609935" lat="53.5559494" lon="10.3192326">
    <tag k="created_by" v="JOSM"/>
  </node>
  <node id="321724029" version="2" timestamp="2011-04-02T16:12:03Z" uid="56190" user="kmvar" changeset="7745357" lat="53.5559494" lon="10.3192326"/>
  <node id="321724030" version="1" timestamp="2008-12-26T10:02:57Z" uid="33382" user="de_muur" changeset="609935" lat="53.5565402" lon="10.3186739">
    <tag k="created_by" v="JOSM"/>
  </node>
  <node id="321724030" version="2" timestamp="2011-04-02T16:14:50Z" uid="56190" user="kmvar" changeset="7745357" lat="53.5565402" lon="10.3186739"/>
  <node id="321724031" version="1" timestamp="2008-12-26T10:02:57Z" uid="33382" user="de_muur" changeset="609935" lat="53.5569461" lon="10.31939">
    <tag k="created_by" v="JOSM"/>
  </node>
  <node id="321724031" version="2" timestamp="2011-04-02T16:13:06Z" uid="56190" user="kmvar" changeset="7745357" lat="53.5569461" lon="10.31939"/>
  <node id="321724032" version="1" timestamp="2008-12-26T10:02:57Z" uid="33382" user="de_muur" changeset="609935" lat="53.5580849" lon="10.3213397">
    <tag k="created_by" v="JOSM"/>
  </node>
  <node id="321724032" version="2" timestamp="2011-04-02T16:12:51Z" uid="56190" user="kmvar" changeset="7745357" lat="53.5580849" lon="10.3213397"/>
  <node id="321724033" version="1" timestamp="2008-12-26T10:02:57Z" uid="33382" user="de_muur" changeset="609935" lat="53.559942" lon="10.3208854">
    <tag k="created_by" v="JOSM"/>
  </node>
  <node id="321724033" version="2" timestamp="2011-04-02T16:15:18Z" uid="56190" user="kmvar" changeset="7745357" lat="53.559942" lon="10.3208854"/>
  <node id="321724033" version="3" timestamp="2012-03-22T13:34:37Z" uid="349191" user="Glühwürmchen" changeset="11061000" lat="53.559942" lon="10.3208854"/>
  <node id="321724034" version="1" timestamp="2008-12-26T10:02:57Z" uid="33382" user="de_muur" changeset="609935" lat="53.5599429" lon="10.320885">
    <tag k="created_by" v="JOSM"/>
  </node>
  <node id="321724034" version="2" timestamp="2011-04-02T16:13:37Z" uid="56190" user="kmvar" changeset="7745357" lat="53.5599429" lon="10.320885"/>
  <node id="321724034" version="3" timestamp="2012-03-22T13:34:32Z" uid="349191" user="Glühwürmchen" changeset="11061000" lat="53.5599429" lon="10.320885"/>
  <node id="321724035" version="1" timestamp="2008-12-26T10:02:57Z" uid="33382" user="de_muur" changeset="609935" lat="53.5606297" lon="10.319864">
    <tag k="created_by" v="JOSM"/>
  </node>
  <node id="321724035" version="2" timestamp="2011-04-02T16:15:55Z" uid="56190" user="kmvar" changeset="7745357" lat="53.5606297" lon="10.319864"/>
  <node id="321724036" version="1" timestamp="2008-12-26T10:02:58Z" uid="33382" user="de_muur" changeset="609935" lat="53.5611528" lon="10.3213618">
    <tag k="created_by" v="JOSM"/>
  </node>
  <node id="321724036" version="2" timestamp="2011-04-02T16:14:10Z" uid="56190" user="kmvar" changeset="7745357" lat="53.5611528" lon="10.3213618"/>
  <node id="321724037" version="1" timestamp="2008-12-26T10:02:58Z" uid="33382" user="de_muur" changeset="609935" lat="53.5602311" lon="10.3219636">
    <tag k="created_by" v="JOSM"/>
  </node>
  <node id="321724037" version="2" timestamp="2011-04-02T16:11:58Z" uid="56190" user="kmvar" changeset="7745357" lat="53.5602311" lon="10.3219636"/>
  <node id="321724038" version="1" timestamp="2008-12-26T10:02:58Z" uid="33382" user="de_muur" changeset="609935" lat="53.5598477" lon="10.3204897">
    <tag k="created_by" v="JOSM"/>
  </node>
  <node id="321724038" version="2" timestamp="2011-04-02T16:14:48Z" uid="56190" user="kmvar" changeset="7745357" lat="53.5598477" lon="10.3204897"/>
  <node id="321724039" version="1" timestamp="2008-12-26T10:02:58Z" uid="33382" user="de_muur" changeset="609935" lat="53.5596286" lon="10.3197673">
    <tag k="created_by" v="JOSM"/>
  </node>
  <node id="321724039" version="2" timestamp="2011-04-02T16:13:03Z" uid="56190" user="kmvar" changeset="7745357" lat="53.5596286" lon="10.3197673"/>
  <node id="321724039" version="3" timestamp="2012-03-22T13:34:38Z" uid="349191" user="Glühwürmchen" changeset="11061000" lat="53.5596286" lon="10.3197673"/>
  <node id="321724040" version="1" timestamp="2008-12-26T10:02:58Z" uid="33382" user="de_muur" changeset="609935" lat="53.5596273" lon="10.3197673">
    <tag k="created_by" v="JOSM"/>
  </node>
  <node id="321724040" version="2" timestamp="2011-04-02T16:14:27Z" uid="56190" user="kmvar" changeset="7745357" lat="53.5596273" lon="10.3197673"/>
  <node id="321724041" version="1" timestamp="2008-12-26T10:02:58Z" uid="33382" user="de_muur" changeset="609935" lat="53.5608747" lon="10.3186706">
    <tag k="created_by" v="JOSM"/>
  </node>
  <node id="321724041" version="2" timestamp="2011-04-02T16:12:36Z" uid="56190" user="kmvar" changeset="7745357" lat="53.5608747" lon="10.3186706"/>
  <node id="321724042" version="1" timestamp="2008-12-26T10:02:59Z" uid="33382" user="de_muur" changeset="609935" lat="53.5606252" lon="10.3179959">
    <tag k="created_by" v="JOSM"/>
  </node>
  <node id="321724042" version="2" timestamp="2011-04-02T16:15:09Z" uid="56190" user="kmvar" changeset="7745357" lat="53.5606252" lon="10.3179959"/>
  <node id="321724043" version="1" timestamp="2008-12-26T10:02:59Z" uid="33382" user="de_muur" changeset="609935" lat="53.5593889" lon="10.3189815">
    <tag k="created_by" v="JOSM"/>
  </node>
  <node id="321724043" version="2" timestamp="2011-04-02T16:13:25Z" uid="56190" user="kmvar" changeset="7745357" lat="53.5593889" lon="10.3189815"/>
  <node id="321724043" version="3" timestamp="2012-03-22T13:34:33Z" uid="349191" user="Glühwürmchen" changeset="11061000" lat="53.5593889" lon="10.3189815"/>
  <node id="321724044" version="1" timestamp="2008-12-26T10:02:59Z" uid="33382" user="de_muur" changeset="609935" lat="53.5578679" lon="10.314006">
    <tag k="created_by" v="JOSM"/>
  </node>
  <node id="321724044" version="2" timestamp="2011-04-02T16:15:48Z" uid="56190" user="kmvar" changeset="7745357" lat="53.5578679" lon="10.314006"/>
  <node id="321724045" version="1" timestamp="2008-12-26T10:02:59Z" uid="33382" user="de_muur" changeset="609935" lat="53.5577844" lon="10.3168849">
    <tag k="created_by" v="JOSM"/>
  </node>
  <node id="321724045" version="2" timestamp="2011-04-02T16:14:01Z" uid="56190" user="kmvar" changeset="7745357" lat="53.5577844" lon="10.3168849"/>
  <node id="321724045" version="3" timestamp="2012-03-22T13:34:33Z" uid="349191" user="Glühwürmchen" changeset="11061000" lat="53.5577844" lon="10.3168849"/>
  <node id="321724046" version="1" timestamp="2008-12-26T10:03:00Z" uid="33382" user="de_muur" changeset="609935" lat="53.5575038" lon="10.3170636">
    <tag k="created_by" v="JOSM"/>
  </node>
  <node id="321724046" version="2" timestamp="2011-04-02T16:11:42Z" uid="56190" user="kmvar" changeset="7745357" lat="53.5575038" lon="10.3170636"/>
  <node id="321724046" version="3" timestamp="2012-03-22T13:34:34Z" uid="349191" user="Glühwürmchen" changeset="11061000" lat="53.5575038" lon="10.3170636"/>
  <node id="321724047" version="1" timestamp="2008-12-26T10:03:00Z" uid="33382" user="de_muur" changeset="609935" lat="53.5562966" lon="10.3177917">
    <tag k="created_by" v="JOSM"/>
  </node>
  <node id="321724047" version="2" timestamp="2011-04-02T16:14:40Z" uid="56190" user="kmvar" changeset="7745357" lat="53.5562966" lon="10.3177917"/>
  <node id="321724047" version="3" timestamp="2012-03-22T13:34:34Z" uid="349191" user="Glühwürmchen" changeset="11061000" lat="53.5562966" lon="10.3177917"/>
  <node id="321724048" version="1" timestamp="2008-12-26T10:03:00Z" uid="33382" user="de_muur" changeset="609935" lat="53.5546569" lon="10.3143643">
    <tag k="created_by" v="JOSM"/>
  </node>
  <node id="321724048" version="2" timestamp="2011-04-02T16:11:15Z" uid="56190" user="kmvar" changeset="7745357" lat="53.5546569" lon="10.3143643"/>
  <node id="321724049" version="1" timestamp="2008-12-26T10:03:00Z" uid="33382" user="de_muur" changeset="609935" lat="53.5555995" lon="10.3152461">
    <tag k="created_by" v="JOSM"/>
  </node>
  <node id="321724049" version="2" timestamp="2008-12-26T17:22:11Z" uid="33382" user="de_muur" changeset="611721" lat="53.5554787" lon="10.3147495">
    <tag k="created_by" v="JOSM"/>
  </node>
  <node id="321724049" version="3" timestamp="2011-04-02T16:14:20Z" uid="56190" user="kmvar" changeset="7745357" lat="53.5554787" lon="10.3147495"/>
  <node id="321724049" version="4" timestamp="2012-03-22T13:34:34Z" uid="349191" user="Glühwürmchen" changeset="11061000" lat="53.5554787" lon="10.3147495"/>
  <node id="321724050" version="1" timestamp="2008-12-26T10:03:00Z" uid="33382" user="de_muur" changeset="609935" lat="53.5558582" lon="10.3162136">
    <tag k="created_by" v="JOSM"/>
  </node>
  <node id="321724050" version="2" timestamp="2011-04-02T16:12:20Z" uid="56190" user="kmvar" changeset="7745357" lat="53.5558582" lon="10.3162136"/>
  <node id="321725050" version="2" timestamp="2009-06-06T13:12:02Z" uid="59758" user="rendle" changeset="1437994" lat="51.0441847" lon="3.9440584"/>
  <node id="321725051" version="2" timestamp="2009-06-06T13:12:07Z" uid="59758" user="rendle" changeset="1437994" lat="51.043984" lon="3.9440835"/>
  <node id="321725052" version="2" timestamp="2009-06-06T13:12:07Z" uid="59758" user="rendle" changeset="1437994" lat="51.0440781" lon="3.9451183"/>
  <node id="321725058" version="2" timestamp="2009-06-06T13:12:41Z" uid="59758" user="rendle" changeset="1437994" lat="51.044699" lon="3.9445099"/>
  <node id="321725114" version="4" timestamp="2009-04-12T07:48:09Z" uid="59758" user="rendle" changeset="454244" lat="51.036155" lon="3.9345802"/>
  <node id="321725114" version="5" timestamp="2009-04-12T07:51:27Z" uid="59758" user="rendle" changeset="454244" lat="51.036155" lon="3.9345802"/>
  <node id="321725114" version="6" timestamp="2009-04-12T07:52:05Z" uid="59758" user="rendle" changeset="454244" lat="51.036155" lon="3.9345802"/>
  <node id="321725114" version="7" timestamp="2009-04-12T07:52:47Z" uid="59758" user="rendle" changeset="454244" lat="51.036155" lon="3.9345802"/>
  <node id="321725114" version="8" timestamp="2011-08-07T17:41:11Z" uid="51650" user="Hotbelgo" changeset="8949851" lat="51.0361524" lon="3.9345823"/>
  <node id="321725114" version="9" timestamp="2011-09-08T21:29:59Z" uid="310392" user="meet00" changeset="9249865" lat="51.0361851" lon="3.9345795"/>
  <node id="321725515" version="7" timestamp="2010-04-30T04:06:48Z" uid="4467" user="Rosscoe" changeset="4562972" lat="-37.8693386" lon="144.7857937"/>
  <node id="321725543" version="6" timestamp="2010-04-30T04:06:48Z" uid="4467" user="Rosscoe" changeset="4562972" lat="-37.8692431" lon="144.7846668"/>
  <node id="321725565" version="1" timestamp="2008-12-26T10:13:21Z" uid="33382" user="de_muur" changeset="609935" lat="53.5605889" lon="10.3229532">
    <tag k="created_by" v="JOSM"/>
  </node>
  <node id="321725565" version="2" timestamp="2011-04-02T16:13:58Z" uid="56190" user="kmvar" changeset="7745357" lat="53.5605889" lon="10.3229532"/>
  <node id="321725566" version="1" timestamp="2008-12-26T10:13:21Z" uid="33382" user="de_muur" changeset="609935" lat="53.5608743" lon="10.3239475">
    <tag k="created_by" v="JOSM"/>
  </node>
  <node id="321725566" version="2" timestamp="2011-04-02T16:11:34Z" uid="56190" user="kmvar" changeset="7745357" lat="53.5608743" lon="10.3239475"/>
  <node id="321725567" version="1" timestamp="2008-12-26T10:13:21Z" uid="33382" user="de_muur" changeset="609935" lat="53.5615788" lon="10.3248081">
    <tag k="created_by" v="JOSM"/>
  </node>
  <node id="321725567" version="2" timestamp="2011-04-02T16:14:31Z" uid="56190" user="kmvar" changeset="7745357" lat="53.5615788" lon="10.3248081"/>
  <node id="321725568" version="1" timestamp="2008-12-26T10:13:22Z" uid="33382" user="de_muur" changeset="609935" lat="53.5619746" lon="10.3243226">
    <tag k="created_by" v="JOSM"/>
  </node>
  <node id="321725568" version="2" timestamp="2011-04-02T16:14:22Z" uid="56190" user="kmvar" changeset="7745357" lat="53.5619746" lon="10.3243226"/>
  <node id="321725569" version="1" timestamp="2008-12-26T10:13:22Z" uid="33382" user="de_muur" changeset="609935" lat="53.562378" lon="10.3255476">
    <tag k="created_by" v="JOSM"/>
  </node>
  <node id="321725569" version="2" timestamp="2011-04-02T16:12:24Z" uid="56190" user="kmvar" changeset="7745357" lat="53.562378" lon="10.3255476"/>
  <node id="321725569" version="3" timestamp="2012-03-22T13:34:09Z" uid="349191" user="Glühwürmchen" changeset="11061000" lat="53.562378" lon="10.3255476"/>
  <node id="321725570" version="1" timestamp="2008-12-26T10:13:22Z" uid="33382" user="de_muur" changeset="609935" lat="53.5620076" lon="10.3260512">
    <tag k="created_by" v="JOSM"/>
  </node>
  <node id="321725570" version="2" timestamp="2011-04-02T16:15:02Z" uid="56190" user="kmvar" changeset="7745357" lat="53.5620076" lon="10.3260512"/>
  <node id="321725571" version="1" timestamp="2008-12-26T10:13:22Z" uid="33382" user="de_muur" changeset="609935" lat="53.562615" lon="10.3271119">
    <tag k="created_by" v="JOSM"/>
  </node>
  <node id="321725571" version="2" timestamp="2011-04-02T16:13:18Z" uid="56190" user="kmvar" changeset="7745357" lat="53.562615" lon="10.3271119"/>
  <node id="321725572" version="1" timestamp="2008-12-26T10:13:22Z" uid="33382" user="de_muur" changeset="609935" lat="53.5628911" lon="10.3281108">
    <tag k="created_by" v="JOSM"/>
  </node>
  <node id="321725572" version="2" timestamp="2011-04-02T16:15:42Z" uid="56190" user="kmvar" changeset="7745357" lat="53.5628911" lon="10.3281108"/>
  <node id="321725573" version="1" timestamp="2008-12-26T10:13:22Z" uid="33382" user="de_muur" changeset="609935" lat="53.5623176" lon="10.327412">
    <tag k="created_by" v="JOSM"/>
  </node>
  <node id="321725573" version="2" timestamp="2011-04-02T16:13:57Z" uid="56190" user="kmvar" changeset="7745357" lat="53.5623176" lon="10.327412"/>
  <node id="321725574" version="1" timestamp="2008-12-26T10:13:22Z" uid="33382" user="de_muur" changeset="609935" lat="53.5621812" lon="10.3272753">
    <tag k="created_by" v="JOSM"/>
  </node>
  <node id="321725574" version="2" timestamp="2011-04-02T16:11:32Z" uid="56190" user="kmvar" changeset="7745357" lat="53.5621812" lon="10.3272753"/>
  <node id="321725575" version="1" timestamp="2008-12-26T10:13:23Z" uid="33382" user="de_muur" changeset="609935" lat="53.5617938" lon="10.3269034">
    <tag k="created_by" v="JOSM"/>
  </node>
  <node id="321725575" version="2" timestamp="2011-04-02T16:14:29Z" uid="56190" user="kmvar" changeset="7745357" lat="53.5617938" lon="10.3269034"/>
  <node id="321725576" version="1" timestamp="2008-12-26T10:13:23Z" uid="33382" user="de_muur" changeset="609935" lat="53.5638584" lon="10.3294373">
    <tag k="created_by" v="JOSM"/>
  </node>
  <node id="321725576" version="2" timestamp="2011-04-02T16:11:05Z" uid="56190" user="kmvar" changeset="7745357" lat="53.5638584" lon="10.3294373"/>
  <node id="321725577" version="1" timestamp="2008-12-26T10:13:23Z" uid="33382" user="de_muur" changeset="609935" lat="53.5643587" lon="10.3303345">
    <tag k="created_by" v="JOSM"/>
  </node>
  <node id="321725577" version="2" timestamp="2011-04-02T16:14:15Z" uid="56190" user="kmvar" changeset="7745357" lat="53.5643587" lon="10.3303345"/>
  <node id="321725577" version="3" timestamp="2012-03-22T13:34:09Z" uid="349191" user="Glühwürmchen" changeset="11061000" lat="53.564373" lon="10.3303547"/>
  <node id="321725577" version="4" timestamp="2012-03-29T15:26:22Z" uid="349191" user="Glühwürmchen" changeset="11139329" lat="53.5643588" lon="10.330341"/>
  <node id="321725578" version="1" timestamp="2008-12-26T10:13:23Z" uid="33382" user="de_muur" changeset="609935" lat="53.5644461" lon="10.3307419">
    <tag k="created_by" v="JOSM"/>
  </node>
  <node id="321725578" version="2" timestamp="2011-04-02T16:12:08Z" uid="56190" user="kmvar" changeset="7745357" lat="53.5644461" lon="10.3307419"/>
  <node id="321725578" version="3" timestamp="2012-03-12T10:01:02Z" uid="63375" user="Divjo" changeset="10952803" lat="53.5643749" lon="10.3306773"/>
  <node id="321725579" version="1" timestamp="2008-12-26T10:13:23Z" uid="33382" user="de_muur" changeset="609935" lat="53.5642906" lon="10.3313852">
    <tag k="created_by" v="JOSM"/>
  </node>
  <node id="321725579" version="2" timestamp="2011-04-02T16:14:52Z" uid="56190" user="kmvar" changeset="7745357" lat="53.5642906" lon="10.3313852"/>
  <node id="321725579" version="3" timestamp="2012-03-12T10:01:02Z" uid="63375" user="Divjo" changeset="10952803" lat="53.5642081" lon="10.3313582"/>
  <node id="321725580" version="1" timestamp="2008-12-26T10:13:23Z" uid="33382" user="de_muur" changeset="609935" lat="53.5642919" lon="10.3313851">
    <tag k="created_by" v="JOSM"/>
  </node>
  <node id="321725580" version="2" timestamp="2011-04-02T16:13:09Z" uid="56190" user="kmvar" changeset="7745357" lat="53.5642919" lon="10.3313851"/>
  <node id="321725580" version="3" timestamp="2012-03-12T10:01:11Z" uid="63375" user="Divjo" changeset="10952803" lat="53.5642919" lon="10.3313851"/>
  <node id="321725581" version="1" timestamp="2008-12-26T10:13:24Z" uid="33382" user="de_muur" changeset="609935" lat="53.5628517" lon="10.3269034">
    <tag k="created_by" v="JOSM"/>
  </node>
  <node id="321725581" version="2" timestamp="2008-12-26T17:42:58Z" uid="33382" user="de_muur" changeset="611721" lat="53.5628517" lon="10.3269034">
    <tag k="created_by" v="JOSM"/>
  </node>
  <node id="321725581" version="3" timestamp="2011-04-02T16:15:30Z" uid="56190" user="kmvar" changeset="7745357" lat="53.5628517" lon="10.3269034"/>
  <node id="321725582" version="1" timestamp="2008-12-26T10:13:24Z" uid="33382" user="de_muur" changeset="609935" lat="53.5641302" lon="10.3255565">
    <tag k="created_by" v="JOSM"/>
  </node>
  <node id="321725582" version="2" timestamp="2011-04-02T16:13:49Z" uid="56190" user="kmvar" changeset="7745357" lat="53.5641302" lon="10.3255565"/>
  <node id="321725583" version="1" timestamp="2008-12-26T10:13:24Z" uid="33382" user="de_muur" changeset="609935" lat="53.5644514" lon="10.3262663">
    <tag k="created_by" v="JOSM"/>
  </node>
  <node id="321725583" version="2" timestamp="2011-04-02T16:11:20Z" uid="56190" user="kmvar" changeset="7745357" lat="53.5644514" lon="10.3262663"/>
  <node id="321725584" version="1" timestamp="2008-12-26T10:13:24Z" uid="33382" user="de_muur" changeset="609935" lat="53.5644492" lon="10.3267856">
    <tag k="created_by" v="JOSM"/>
  </node>
  <node id="321725584" version="2" timestamp="2011-04-02T16:13:33Z" uid="56190" user="kmvar" changeset="7745357" lat="53.5644492" lon="10.3267856"/>
  <node id="321725585" version="1" timestamp="2008-12-26T10:13:24Z" uid="33382" user="de_muur" changeset="609935" lat="53.5645335" lon="10.3271015">
    <tag k="created_by" v="JOSM"/>
  </node>
  <node id="321725585" version="2" timestamp="2011-04-02T16:15:52Z" uid="56190" user="kmvar" changeset="7745357" lat="53.5645335" lon="10.3271015"/>
  <node id="321725586" version="1" timestamp="2008-12-26T10:13:24Z" uid="33382" user="de_muur" changeset="609935" lat="53.564656" lon="10.3277498">
    <tag k="created_by" v="JOSM"/>
  </node>
  <node id="321725586" version="2" timestamp="2011-04-02T16:14:06Z" uid="56190" user="kmvar" changeset="7745357" lat="53.564656" lon="10.3277498"/>
  <node id="321725587" version="1" timestamp="2008-12-26T10:13:25Z" uid="33382" user="de_muur" changeset="609935" lat="53.5648231" lon="10.32823">
    <tag k="created_by" v="JOSM"/>
  </node>
  <node id="321725587" version="2" timestamp="2011-04-02T16:11:53Z" uid="56190" user="kmvar" changeset="7745357" lat="53.5648231" lon="10.32823"/>
  <node id="321725588" version="1" timestamp="2008-12-26T10:13:25Z" uid="33382" user="de_muur" changeset="609935" lat="53.5648049" lon="10.3290198">
    <tag k="created_by" v="JOSM"/>
  </node>
  <node id="321725588" version="2" timestamp="2011-04-02T16:14:43Z" uid="56190" user="kmvar" changeset="7745357" lat="53.5648049" lon="10.3290198"/>
  <node id="321725588" version="3" timestamp="2012-03-12T10:01:02Z" uid="63375" user="Divjo" changeset="10952803" lat="53.5647474" lon="10.3290152"/>
  <node id="321725589" version="1" timestamp="2008-12-26T10:13:25Z" uid="33382" user="de_muur" changeset="609935" lat="53.5645093" lon="10.330478">
    <tag k="created_by" v="JOSM"/>
  </node>
  <node id="321725589" version="2" timestamp="2011-04-02T16:12:57Z" uid="56190" user="kmvar" changeset="7745357" lat="53.5645093" lon="10.330478"/>
  <node id="321725589" version="3" timestamp="2012-03-12T10:01:02Z" uid="63375" user="Divjo" changeset="10952803" lat="53.5644436" lon="10.3304042"/>
  <node id="321725636" version="5" timestamp="2010-04-30T04:06:48Z" uid="4467" user="Rosscoe" changeset="4562972" lat="-37.8691495" lon="144.7835437"/>
  <node id="321725699" version="1" timestamp="2008-12-26T10:15:23Z" uid="65847" user="LKK" changeset="611763" lat="50.0409103" lon="8.0567236"/>
  <node id="321725699" version="2" timestamp="2009-06-03T19:37:07Z" uid="131157" user="PeterJohann" changeset="1416283" lat="50.0407787" lon="8.0566448"/>
  <node id="321725699" version="3" timestamp="2010-01-06T03:03:03Z" uid="201359" user="wambacher" changeset="3550700" lat="50.0408611" lon="8.0559389"/>
  <node id="321725699" version="4" timestamp="2010-01-06T04:10:04Z" uid="201359" user="wambacher" changeset="3550733" lat="50.0409486" lon="8.0558342"/>
  <node id="321725699" version="5" timestamp="2011-12-21T19:20:30Z" uid="201359" user="wambacher" changeset="10174483" lat="50.0411579" lon="8.0554431"/>
  <node id="321725699" version="6" timestamp="2012-01-06T16:35:29Z" uid="201359" user="wambacher" changeset="10312689" lat="50.0402685" lon="8.0565736"/>
  <node id="321725700" version="1" timestamp="2008-12-26T10:15:24Z" uid="65847" user="LKK" changeset="611763" lat="50.039822" lon="8.0652125"/>
  <node id="321725700" version="2" timestamp="2008-12-26T10:59:20Z" uid="65847" user="LKK" changeset="611763" lat="50.0391235" lon="8.063663"/>
  <node id="321725700" version="3" timestamp="2009-05-22T12:57:58Z" uid="3836" user="Jannis" changeset="1285885" lat="50.0391235" lon="8.063663"/>
  <node id="321725701" version="4" timestamp="2010-04-30T04:06:48Z" uid="4467" user="Rosscoe" changeset="4562972" lat="-37.8690573" lon="144.7824244"/>
  <node id="321725703" version="5" timestamp="2010-04-30T04:27:41Z" uid="4467" user="Rosscoe" changeset="4563001" lat="-37.8722171" lon="144.7808778"/>
  <node id="321725739" version="3" timestamp="2010-04-30T04:06:48Z" uid="4467" user="Rosscoe" changeset="4562972" lat="-37.8689636" lon="144.781299"/>
  <node id="321725815" version="3" timestamp="2009-12-16T08:31:59Z" uid="4467" user="Rosscoe" changeset="3385067" lat="-37.868585" lon="144.7768023"/>
  <node id="321725816" version="3" timestamp="2009-12-16T07:25:44Z" uid="4467" user="Rosscoe" changeset="3384848" lat="-37.8629158" lon="144.7775555"/>
  <node id="321725922" version="3" timestamp="2009-12-16T07:25:44Z" uid="4467" user="Rosscoe" changeset="3384848" lat="-37.8654015" lon="144.7772243"/>
  <node id="321725923" version="2" timestamp="2009-12-16T07:25:43Z" uid="4467" user="Rosscoe" changeset="3384848" lat="-37.8665027" lon="144.7770766">
    <tag k="highway" v="turning_circle"/>
  </node>
  <node id="321726416" version="2" timestamp="2010-02-14T16:03:42Z" uid="74617" user="JohnSmith" changeset="3875130" lat="-27.4245086" lon="153.0363872"/>
  <node id="321726416" version="3" timestamp="2011-06-19T08:59:57Z" uid="22094" user="Chadzopkyo" changeset="8481371" lat="-27.4245195" lon="153.0363626"/>
  <node id="321726417" version="3" timestamp="2010-07-22T01:36:42Z" uid="4467" user="Rosscoe" changeset="5283627" lat="-27.4237149" lon="153.0397087"/>
  <node id="321726420" version="3" timestamp="2010-01-31T13:52:55Z" uid="74617" user="JohnSmith" changeset="3759269" lat="-27.4236012" lon="153.0422266"/>
  <node id="321726420" version="4" timestamp="2010-07-22T01:37:05Z" uid="4467" user="Rosscoe" changeset="5283627" lat="-27.4235965" lon="153.0421778"/>
  <node id="321726421" version="2" timestamp="2010-07-22T01:36:30Z" uid="4467" user="Rosscoe" changeset="5283627" lat="-27.4247425" lon="153.0419768"/>
  <node id="321726424" version="3" timestamp="2010-01-31T13:52:51Z" uid="74617" user="JohnSmith" changeset="3759269" lat="-27.4244225" lon="153.0395348"/>
  <node id="321726424" version="4" timestamp="2010-07-22T01:36:47Z" uid="4467" user="Rosscoe" changeset="5283627" lat="-27.4243993" lon="153.039565"/>
  <node id="321726878" version="9" timestamp="2009-12-12T15:08:11Z" uid="4467" user="Rosscoe" changeset="3356332" lat="-37.816869" lon="144.8494604"/>
  <node id="321726879" version="9" timestamp="2009-12-12T15:08:22Z" uid="4467" user="Rosscoe" changeset="3356332" lat="-37.8167747" lon="144.8496407"/>
  <node id="321726897" version="13" timestamp="2009-12-12T15:08:10Z" uid="4467" user="Rosscoe" changeset="3356332" lat="-37.8229923" lon="144.8486559"/>
  <node id="321726897" version="14" timestamp="2010-07-20T07:05:54Z" uid="11111" user="lakeyboy" changeset="5267795" lat="-37.8230003" lon="144.848652"/>
  <node id="321726899" version="8" timestamp="2009-12-12T15:08:10Z" uid="4467" user="Rosscoe" changeset="3356332" lat="-37.8210686" lon="144.8490587"/>
  <node id="321727091" version="6" timestamp="2009-12-12T15:08:10Z" uid="4467" user="Rosscoe" changeset="3356332" lat="-37.8199901" lon="144.8492815"/>
  <node id="321727096" version="2" timestamp="2009-01-01T13:15:12Z" uid="6975" user="ulfl" changeset="699648" lat="20.7289026" lon="-88.5829909">
    <tag k="amenity" v="atm"/>
  </node>
  <node id="321727096" version="3" timestamp="2009-05-01T14:03:05Z" uid="33355" user="hinste" changeset="1036964" lat="20.7289009" lon="-88.5832352">
    <tag k="amenity" v="atm"/>
  </node>
  <node id="321727096" version="4" timestamp="2010-02-17T21:18:47Z" uid="194843" user="feuerstein" changeset="3904652" lat="20.7288745" lon="-88.5832088">
    <tag k="amenity" v="atm"/>
  </node>
  <node id="321727130" version="5" timestamp="2009-12-12T15:08:10Z" uid="4467" user="Rosscoe" changeset="3356332" lat="-37.8189012" lon="144.8495339"/>
  <node id="321727777" version="6" timestamp="2009-12-12T15:08:10Z" uid="4467" user="Rosscoe" changeset="3356332" lat="-37.8178253" lon="144.8497631"/>
  <node id="321728300" version="2" timestamp="2009-12-12T15:08:09Z" uid="4467" user="Rosscoe" changeset="3356332" lat="-37.8241719" lon="144.8472381">
    <tag k="traffic_calming" v="hump"/>
  </node>
  <node id="321728302" version="2" timestamp="2009-12-12T15:08:09Z" uid="4467" user="Rosscoe" changeset="3356332" lat="-37.8241899" lon="144.8477217"/>
  <node id="321728303" version="2" timestamp="2009-12-12T15:08:09Z" uid="4467" user="Rosscoe" changeset="3356332" lat="-37.8240843" lon="144.8482232"/>
  <node id="321728304" version="3" timestamp="2009-12-12T15:08:09Z" uid="4467" user="Rosscoe" changeset="3356332" lat="-37.8239921" lon="144.848532"/>
  <node id="321729009" version="2" timestamp="2009-01-01T13:15:12Z" uid="6975" user="ulfl" changeset="699648" lat="20.8770821" lon="-87.6359647">
    <tag k="amenity" v="atm"/>
  </node>
  <node id="321729067" version="8" timestamp="2009-12-12T15:08:07Z" uid="4467" user="Rosscoe" changeset="3356332" lat="-37.822483" lon="144.8351648"/>
  <node id="321729074" version="8" timestamp="2009-12-12T15:08:07Z" uid="4467" user="Rosscoe" changeset="3356332" lat="-37.824689" lon="144.8347889"/>
  <node id="321729095" version="7" timestamp="2009-12-12T15:08:07Z" uid="4467" user="Rosscoe" changeset="3356332" lat="-37.8209613" lon="144.8348124"/>
  <node id="321729096" version="9" timestamp="2009-12-12T15:08:07Z" uid="4467" user="Rosscoe" changeset="3356332" lat="-37.8206711" lon="144.8353494">
    <tag k="highway" v="traffic_signals"/>
  </node>
  <node id="321729136" version="7" timestamp="2009-12-12T15:08:07Z" uid="4467" user="Rosscoe" changeset="3356332" lat="-37.8225277" lon="144.8351571"/>
  <node id="321729318" version="4" timestamp="2009-12-12T15:08:06Z" uid="4467" user="Rosscoe" changeset="3356332" lat="-37.822104" lon="144.8309155"/>
  <node id="321729318" version="5" timestamp="2010-07-29T13:31:21Z" uid="4467" user="Rosscoe" changeset="5346747" lat="-37.8221228" lon="144.8308755"/>
  <node id="321729329" version="5" timestamp="2009-12-12T15:08:21Z" uid="4467" user="Rosscoe" changeset="3356332" lat="-37.8223419" lon="144.8352644"/>
  <node id="321729341" version="2" timestamp="2009-12-12T15:08:21Z" uid="4467" user="Rosscoe" changeset="3356332" lat="-37.8224157" lon="144.8353935"/>
  <node id="321729342" version="3" timestamp="2009-12-12T15:08:07Z" uid="4467" user="Rosscoe" changeset="3356332" lat="-37.8225028" lon="144.8356946"/>
  <node id="321729409" version="5" timestamp="2009-12-12T15:08:07Z" uid="4467" user="Rosscoe" changeset="3356332" lat="-37.8235996" lon="144.8349745"/>
  <node id="321729412" version="3" timestamp="2009-12-12T15:08:06Z" uid="4467" user="Rosscoe" changeset="3356332" lat="-37.8244259" lon="144.8321592"/>
  <node id="321729439" version="3" timestamp="2009-12-12T15:08:06Z" uid="4467" user="Rosscoe" changeset="3356332" lat="-37.8233362" lon="144.8323403"/>
  <node id="321729440" version="3" timestamp="2009-12-12T15:08:06Z" uid="4467" user="Rosscoe" changeset="3356332" lat="-37.822281" lon="144.8325138"/>
  <node id="321729572" version="2" timestamp="2009-12-12T15:08:20Z" uid="4467" user="Rosscoe" changeset="3356332" lat="-37.8221919" lon="144.83075"/>
  <node id="321729587" version="3" timestamp="2009-12-12T15:08:07Z" uid="4467" user="Rosscoe" changeset="3356332" lat="-37.8209251" lon="144.835435"/>
  <node id="321729594" version="2" timestamp="2008-12-29T15:35:32Z" uid="49111" user="Markus B" changeset="659731" lat="49.3592145" lon="11.2460089"/>
  <node id="321729600" version="2" timestamp="2008-12-29T15:35:32Z" uid="49111" user="Markus B" changeset="659731" lat="49.3584866" lon="11.245274"/>
  <node id="321729628" version="2" timestamp="2009-12-12T15:08:08Z" uid="4467" user="Rosscoe" changeset="3356332" lat="-37.8207725" lon="144.8355527"/>
  <node id="321729629" version="2" timestamp="2009-12-12T15:08:08Z" uid="4467" user="Rosscoe" changeset="3356332" lat="-37.8206506" lon="144.8357002"/>
  <node id="321729630" version="4" timestamp="2009-12-12T15:08:08Z" uid="4467" user="Rosscoe" changeset="3356332" lat="-37.8205206" lon="144.8358722"/>
  <node id="321729976" version="1" timestamp="2008-12-26T10:47:21Z" uid="7617" user="Franc" changeset="608500" lat="-33.2458627" lon="151.4779714">
    <tag k="highway" v="turning_circle"/>
  </node>
  <node id="321729977" version="1" timestamp="2008-12-26T10:47:22Z" uid="7617" user="Franc" changeset="608500" lat="-33.2453823" lon="151.4781503"/>
  <node id="321729978" version="1" timestamp="2008-12-26T10:47:23Z" uid="7617" user="Franc" changeset="608500" lat="-33.2487459" lon="151.4822462">
    <tag k="highway" v="turning_circle"/>
  </node>
  <node id="321729979" version="1" timestamp="2008-12-26T10:47:23Z" uid="7617" user="Franc" changeset="608500" lat="-33.2481902" lon="151.4828332"/>
  <node id="321729980" version="1" timestamp="2008-12-26T10:47:24Z" uid="7617" user="Franc" changeset="608500" lat="-33.246857" lon="151.4818694">
    <tag k="highway" v="turning_circle"/>
  </node>
  <node id="321729982" version="1" timestamp="2008-12-26T10:47:25Z" uid="7617" user="Franc" changeset="608500" lat="-33.2475224" lon="151.4822656"/>
  <node id="321729983" version="1" timestamp="2008-12-26T10:47:25Z" uid="7617" user="Franc" changeset="608500" lat="-33.2481801" lon="151.4811905"/>
  <node id="321729984" version="1" timestamp="2008-12-26T10:47:26Z" uid="7617" user="Franc" changeset="608500" lat="-33.2470978" lon="151.4796823"/>
  <node id="321729989" version="1" timestamp="2008-12-26T10:47:27Z" uid="7617" user="Franc" changeset="608500" lat="-33.2466854" lon="151.4797168"/>
  <node id="321729992" version="1" timestamp="2008-12-26T10:47:27Z" uid="7617" user="Franc" changeset="608500" lat="-33.2464395" lon="151.4798578"/>
  <node id="321729995" version="1" timestamp="2008-12-26T10:47:28Z" uid="7617" user="Franc" changeset="608500" lat="-33.2461466" lon="151.4793362"/>
  <node id="321729996" version="1" timestamp="2008-12-26T10:47:29Z" uid="7617" user="Franc" changeset="608500" lat="-33.2458873" lon="151.4789418"/>
  <node id="321729997" version="1" timestamp="2008-12-26T10:47:29Z" uid="7617" user="Franc" changeset="608500" lat="-33.2468801" lon="151.4791032">
    <tag k="highway" v="turning_circle"/>
  </node>
  <node id="321729998" version="1" timestamp="2008-12-26T10:47:30Z" uid="7617" user="Franc" changeset="608500" lat="-33.2478842" lon="151.4816843"/>
  <node id="321729999" version="1" timestamp="2008-12-26T10:47:31Z" uid="7617" user="Franc" changeset="608500" lat="-33.2469254" lon="151.4806522"/>
</osm>
