<?xml version='1.0' encoding='UTF-8'?>
<osm version="0.6" generator="libosmium/2.20.0">
  <node id="324672930" version="6" timestamp="2010-07-29T09:40:29Z" uid="74617" user="JohnSmith" changeset="5344848" lat="52.4702492" lon="7.1818376">
    <tag k="amenity" v="emergency_phone"/>
    <tag k="emergency" v="phone"/>
    <tag k="operator" v="Björn-Steiger-Stiftung"/>
  </node>
  <node id="324672930" version="7" timestamp="2010-08-25T14:05:48Z" uid="47126" user="NAVSTAR" changeset="5590105" lat="52.470098" lon="7.1812839">
    <tag k="amenity" v="emergency_phone"/>
    <tag k="emergency" v="phone"/>
    <tag k="operator" v="Björn-Steiger-Stiftung"/>
  </node>
  <node id="324674079" version="4" timestamp="2009-04-15T08:57:30Z" uid="6975" user="ulfl" changeset="553994" lat="53.4824147" lon="-2.2471152">
    <tag k="name" v="Craven&apos;s Shoe Repairs"/>
    <tag k="shop" v="shoe_repair"/>
  </node>
  <node id="324679447" version="2" timestamp="2009-04-15T08:32:28Z" uid="6975" user="ulfl" changeset="553994" lat="53.2558844" lon="-1.9143647">
    <tag k="amenity" v="fast_food"/>
    <tag k="cuisine" v="Fish and Chips"/>
  </node>
  <node id="324679447" version="3" timestamp="2009-05-22T14:30:48Z" uid="12200" user="Chapworthy" changeset="1286826" lat="53.2557503" lon="-1.9141467">
    <tag k="amenity" v="fast_food"/>
    <tag k="cuisine" v="Fish and Chips"/>
  </node>
  <node id="324679447" version="4" timestamp="2010-07-05T09:07:39Z" uid="212111" user="okilimu" changeset="5140164" lat="53.2557503" lon="-1.9141467">
    <tag k="amenity" v="fast_food"/>
    <tag k="cuisine" v="fish_and_chips"/>
  </node>
  <node id="324679447" version="5" timestamp="2012-01-03T11:55:10Z" uid="210880" user="BeerOfTheTrip" changeset="10280428" lat="53.2557503" lon="-1.9141467"/>
</osm>
