<?xml version='1.0' encoding='UTF-8'?>
<osm version="0.6" generator="libosmium/2.20.0">
  <node id="326160557" version="6" timestamp="2009-10-02T19:45:54Z" uid="86259" user="hasse_osm_korinthenkacker" changeset="2716821" lat="47.8878296" lon="11.6967982">
    <tag k="addr:city" v="Holzkirchen"/>
    <tag k="addr:country" v="DE"/>
    <tag k="addr:housenumber" v="17a"/>
    <tag k="addr:postcode" v="83607"/>
    <tag k="addr:street" v="Erlkamer Straße"/>
  </node>
  <node id="326161631" version="5" timestamp="2009-10-02T19:45:54Z" uid="86259" user="hasse_osm_korinthenkacker" changeset="2716821" lat="47.8877835" lon="11.696515">
    <tag k="addr:city" v="Holzkirchen"/>
    <tag k="addr:country" v="DE"/>
    <tag k="addr:housenumber" v="17b"/>
    <tag k="addr:postcode" v="83607"/>
    <tag k="addr:street" v="Erlkamer Straße"/>
  </node>
  <node id="326164499" version="3" timestamp="2009-09-30T12:40:45Z" uid="36809" user="pfoten_weg_!_" changeset="2687886" lat="47.0637722" lon="11.4878588"/>
  <node id="326164499" version="4" timestamp="2011-07-24T18:44:21Z" uid="109705" user="gscholz" changeset="8819785" lat="47.0637612" lon="11.4878264"/>
  <node id="326164499" version="5" timestamp="2012-02-24T01:49:08Z" uid="45481" user="borisC" changeset="10774342" lat="47.0637369" lon="11.4878143"/>
  <node id="326164504" version="6" timestamp="2009-09-30T12:40:46Z" uid="36809" user="pfoten_weg_!_" changeset="2687886" lat="47.0629858" lon="11.4874131"/>
  <node id="326164504" version="7" timestamp="2010-06-10T07:37:27Z" uid="74027" user="katzlbt" changeset="4951804" lat="47.0629858" lon="11.4874131"/>
  <node id="326164504" version="8" timestamp="2010-06-10T08:17:51Z" uid="74027" user="katzlbt" changeset="4952035" lat="47.0629858" lon="11.4874131"/>
  <node id="326164504" version="9" timestamp="2011-07-24T18:44:21Z" uid="109705" user="gscholz" changeset="8819785" lat="47.0629905" lon="11.4873807"/>
  <node id="326164504" version="10" timestamp="2012-02-26T14:35:22Z" uid="606250" user="katzlmacher" changeset="10798917" lat="47.0629905" lon="11.4873807"/>
  <node id="326164512" version="6" timestamp="2009-09-30T12:40:44Z" uid="36809" user="pfoten_weg_!_" changeset="2687886" lat="47.0609308" lon="11.4861476"/>
  <node id="326164512" version="7" timestamp="2012-02-19T13:06:29Z" uid="45481" user="borisC" changeset="10729742" lat="47.0609308" lon="11.4861476"/>
  <node id="326166491" version="4" timestamp="2009-10-02T19:45:56Z" uid="86259" user="hasse_osm_korinthenkacker" changeset="2716821" lat="47.8884565" lon="11.6972184">
    <tag k="addr:city" v="Holzkirchen"/>
    <tag k="addr:country" v="DE"/>
    <tag k="addr:housenumber" v="21"/>
    <tag k="addr:postcode" v="83607"/>
    <tag k="addr:street" v="Erlkamer Straße"/>
  </node>
  <node id="326166491" version="5" timestamp="2011-05-01T08:02:42Z" uid="42393" user="mawi42" changeset="8018409" lat="47.8884457" lon="11.6970923">
    <tag k="addr:city" v="Holzkirchen"/>
    <tag k="addr:country" v="DE"/>
    <tag k="addr:housenumber" v="21"/>
    <tag k="addr:postcode" v="83607"/>
    <tag k="addr:street" v="Erlkamer Straße"/>
  </node>
  <node id="326168755" version="5" timestamp="2009-10-02T19:45:56Z" uid="86259" user="hasse_osm_korinthenkacker" changeset="2716821" lat="47.8890051" lon="11.6972049">
    <tag k="addr:city" v="Holzkirchen"/>
    <tag k="addr:country" v="DE"/>
    <tag k="addr:housenumber" v="23"/>
    <tag k="addr:postcode" v="83607"/>
    <tag k="addr:street" v="Erlkamer Straße"/>
  </node>
  <node id="326168988" version="5" timestamp="2009-10-02T19:45:56Z" uid="86259" user="hasse_osm_korinthenkacker" changeset="2716821" lat="47.8889878" lon="11.6970933">
    <tag k="addr:city" v="Holzkirchen"/>
    <tag k="addr:country" v="DE"/>
    <tag k="addr:housenumber" v="23a"/>
    <tag k="addr:postcode" v="83607"/>
    <tag k="addr:street" v="Erlkamer Straße"/>
  </node>
</osm>
