<?xml version='1.0' encoding='UTF-8'?>
<osm version="0.6" generator="libosmium/2.20.0">
  <node id="326838203" version="1" timestamp="2009-01-05T08:35:14Z" uid="58091" user="Andreas M" changeset="735458" lat="48.1882237" lon="16.3422253">
    <tag k="name" v="Margareteng端rtel"/>
    <tag k="railway" v="tram_stop"/>
  </node>
  <node id="326838203" version="2" timestamp="2010-02-26T12:45:24Z" uid="28427" user="skunk" changeset="3979877" lat="48.1882862" lon="16.3420545">
    <tag k="construction" v="tram_stop"/>
    <tag k="name" v="Margareteng端rtel"/>
    <tag k="railway" v="construction"/>
  </node>
  <node id="326838203" version="3" timestamp="2010-05-17T12:49:51Z" uid="28427" user="skunk" changeset="4728491" lat="48.1882862" lon="16.3420545">
    <tag k="name" v="Margareteng端rtel"/>
    <tag k="railway" v="tram_stop"/>
  </node>
  <node id="326838203" version="4" timestamp="2012-01-26T10:24:09Z" uid="129531" user="almich" changeset="10501651" lat="48.1882862" lon="16.3420545"/>
  <node id="326838209" version="1" timestamp="2009-01-05T08:35:14Z" uid="58091" user="Andreas M" changeset="735458" lat="48.1841301" lon="16.3459896">
    <tag k="name" v="Arbeitergasse/Margareteng端rtel"/>
    <tag k="railway" v="tram_stop"/>
  </node>
  <node id="326838209" version="2" timestamp="2012-01-26T12:43:59Z" uid="129531" user="almich" changeset="10502768" lat="48.1841301" lon="16.3459896"/>
  <node id="326838213" version="1" timestamp="2009-01-05T08:35:14Z" uid="58091" user="Andreas M" changeset="735458" lat="48.1805553" lon="16.3588925">
    <tag k="name" v="Matzleinsdorfer Platz"/>
    <tag k="railway" v="tram_stop"/>
  </node>
  <node id="326838213" version="2" timestamp="2011-07-22T19:32:13Z" uid="99692" user="that" changeset="8800686" lat="48.1805188" lon="16.3585455">
    <tag k="name" v="Matzleinsdorfer Platz"/>
    <tag k="railway" v="tram_stop"/>
  </node>
  <node id="326838213" version="3" timestamp="2011-07-25T22:02:23Z" uid="290680" user="wheelmap_visitor" changeset="8827936" lat="48.1805188" lon="16.3585455">
    <tag k="name" v="Matzleinsdorfer Platz"/>
    <tag k="railway" v="tram_stop"/>
    <tag k="wheelchair" v="yes"/>
  </node>
  <node id="326838213" version="4" timestamp="2011-07-26T21:29:52Z" uid="99692" user="that" changeset="8840269" lat="48.1805285" lon="16.3585402">
    <tag k="name" v="Matzleinsdorfer Platz"/>
    <tag k="railway" v="tram_stop"/>
    <tag k="wheelchair" v="yes"/>
  </node>
  <node id="326838213" version="5" timestamp="2012-02-12T21:54:08Z" uid="129531" user="almich" changeset="10668699" lat="48.1805285" lon="16.3585402"/>
  <node id="326838215" version="1" timestamp="2009-01-05T08:35:14Z" uid="58091" user="Andreas M" changeset="735458" lat="48.1807447" lon="16.3594925">
    <tag k="name" v="Matzleinsdorfer Platz"/>
    <tag k="railway" v="tram_stop"/>
  </node>
  <node id="326838215" version="2" timestamp="2011-07-22T19:32:13Z" uid="99692" user="that" changeset="8800686" lat="48.180843" lon="16.3594632">
    <tag k="name" v="Matzleinsdorfer Platz"/>
    <tag k="railway" v="tram_stop"/>
  </node>
  <node id="326838215" version="3" timestamp="2011-07-25T22:03:24Z" uid="290680" user="wheelmap_visitor" changeset="8827936" lat="48.180843" lon="16.3594632">
    <tag k="name" v="Matzleinsdorfer Platz"/>
    <tag k="railway" v="tram_stop"/>
    <tag k="wheelchair" v="yes"/>
  </node>
  <node id="326838215" version="4" timestamp="2011-07-26T21:29:52Z" uid="99692" user="that" changeset="8840269" lat="48.1808729" lon="16.3594799">
    <tag k="name" v="Matzleinsdorfer Platz"/>
    <tag k="railway" v="tram_stop"/>
    <tag k="wheelchair" v="yes"/>
  </node>
  <node id="326838215" version="5" timestamp="2012-02-12T21:54:08Z" uid="129531" user="almich" changeset="10668699" lat="48.1808729" lon="16.3594799"/>
</osm>
