<?xml version='1.0' encoding='UTF-8'?>
<osm version="0.6" generator="libosmium/2.20.0">
  <node id="326892123" version="1" timestamp="2009-01-05T09:23:01Z" uid="58091" user="Andreas M" changeset="735458" lat="48.1747786" lon="16.4145543">
    <tag k="name" v="Gottschalkgasse/Enkplatz"/>
    <tag k="railway" v="tram_stop"/>
  </node>
  <node id="326892123" version="2" timestamp="2010-01-12T16:46:06Z" uid="78656" user="Walter SchlÃ¶gl" changeset="3604399" lat="48.1748089" lon="16.4146299">
    <tag k="name" v="Gottschalkgasse/Enkplatz"/>
    <tag k="railway" v="tram_stop"/>
  </node>
  <node id="326892123" version="3" timestamp="2011-04-22T06:31:09Z" uid="411359" user="Thomas Passauer" changeset="7931253" lat="48.1748853" lon="16.4145623">
    <tag k="name" v="Gottschalkgasse/Enkplatz"/>
    <tag k="railway" v="tram_stop"/>
  </node>
  <node id="326892123" version="4" timestamp="2011-10-23T22:21:50Z" uid="290680" user="wheelmap_visitor" changeset="9629390" lat="48.1748853" lon="16.4145623">
    <tag k="name" v="Gottschalkgasse/Enkplatz"/>
    <tag k="railway" v="tram_stop"/>
    <tag k="wheelchair" v="yes"/>
  </node>
</osm>
