<?xml version='1.0' encoding='UTF-8'?>
<osm version="0.6" generator="libosmium/2.20.0">
  <node id="326870606" version="7" timestamp="2009-10-02T20:02:42Z" uid="86259" user="hasse_osm_korinthenkacker" changeset="2717024" lat="47.8814755" lon="11.6780404">
    <tag k="addr:city" v="Holzkirchen"/>
    <tag k="addr:country" v="DE"/>
    <tag k="addr:housenumber" v="85"/>
    <tag k="addr:postcode" v="83607"/>
    <tag k="addr:street" v="Roggersdorfer Straße"/>
  </node>
  <node id="326870606" version="8" timestamp="2010-12-15T18:17:41Z" uid="42393" user="mawi42" changeset="6670022" lat="47.8814548" lon="11.6780314">
    <tag k="addr:city" v="Holzkirchen"/>
    <tag k="addr:country" v="DE"/>
    <tag k="addr:housenumber" v="85"/>
    <tag k="addr:postcode" v="83607"/>
    <tag k="addr:street" v="Roggersdorfer Straße"/>
  </node>
  <node id="326871064" version="6" timestamp="2009-10-02T20:02:42Z" uid="86259" user="hasse_osm_korinthenkacker" changeset="2717024" lat="47.881395" lon="11.6784095">
    <tag k="addr:city" v="Holzkirchen"/>
    <tag k="addr:country" v="DE"/>
    <tag k="addr:housenumber" v="83"/>
    <tag k="addr:postcode" v="83607"/>
    <tag k="addr:street" v="Roggersdorfer Straße"/>
  </node>
  <node id="326871918" version="3" timestamp="2009-02-01T18:30:03Z" uid="6975" user="ulfl" changeset="27333" lat="48.087724" lon="17.2617546">
    <tag k="amenity" v="place_of_worship"/>
    <tag k="building" v="church"/>
  </node>
  <node id="326871918" version="4" timestamp="2009-04-23T06:36:45Z" uid="44943" user="Jožo Schwarz" changeset="909036" lat="48.087724" lon="17.2617546">
    <tag k="amenity" v="place_of_worship"/>
    <tag k="building" v="church"/>
    <tag k="is_in" v="Dunajská Lužná"/>
    <tag k="name" v="Evanjelický kostol"/>
    <tag k="religion" v="christian"/>
  </node>
  <node id="326871918" version="5" timestamp="2010-08-28T16:30:03Z" uid="300784" user="AlfonZ" changeset="5617811" lat="48.087724" lon="17.2617546">
    <tag k="amenity" v="place_of_worship"/>
    <tag k="building" v="church"/>
    <tag k="denomination" v="lutheran"/>
    <tag k="is_in" v="Dunajská Lužná"/>
    <tag k="name" v="Evanjelický kostol"/>
    <tag k="religion" v="christian"/>
  </node>
  <node id="326872250" version="6" timestamp="2009-10-02T20:02:43Z" uid="86259" user="hasse_osm_korinthenkacker" changeset="2717024" lat="47.8814237" lon="11.6787528">
    <tag k="addr:city" v="Holzkirchen"/>
    <tag k="addr:country" v="DE"/>
    <tag k="addr:housenumber" v="81"/>
    <tag k="addr:postcode" v="83607"/>
    <tag k="addr:street" v="Roggersdorfer Straße"/>
  </node>
  <node id="326872530" version="5" timestamp="2009-10-02T20:02:42Z" uid="86259" user="hasse_osm_korinthenkacker" changeset="2717024" lat="47.8813892" lon="11.6790618">
    <tag k="addr:city" v="Holzkirchen"/>
    <tag k="addr:country" v="DE"/>
    <tag k="addr:housenumber" v="79"/>
    <tag k="addr:postcode" v="83607"/>
    <tag k="addr:street" v="Roggersdorfer Straße"/>
  </node>
  <node id="326872530" version="6" timestamp="2010-12-15T18:17:39Z" uid="42393" user="mawi42" changeset="6670022" lat="47.8813486" lon="11.6790903">
    <tag k="addr:city" v="Holzkirchen"/>
    <tag k="addr:country" v="DE"/>
    <tag k="addr:housenumber" v="79"/>
    <tag k="addr:postcode" v="83607"/>
    <tag k="addr:street" v="Roggersdorfer Straße"/>
  </node>
  <node id="326876448" version="2" timestamp="2009-02-01T18:25:40Z" uid="6975" user="ulfl" changeset="27333" lat="47.6451816" lon="-122.1352854">
    <tag k="highway" v="bus_stop"/>
  </node>
</osm>
