<?xml version='1.0' encoding='UTF-8'?>
<osm version="0.6" generator="libosmium/2.20.0">
  <node id="327172276" version="6" timestamp="2009-10-20T11:53:08Z" uid="36809" user="pfoten_weg_!_" changeset="2902112" lat="47.9037479" lon="11.6046821">
    <tag k="addr:city" v="Baiernrain"/>
    <tag k="addr:country" v="DE"/>
    <tag k="addr:housenumber" v="1"/>
    <tag k="addr:postcode" v="83623"/>
    <tag k="addr:street" v="Franz-Hanfstaengl-Weg"/>
    <tag k="source" v="survey"/>
  </node>
  <node id="327172276" version="7" timestamp="2011-02-07T19:35:55Z" uid="329528" user="Skubiduhh" changeset="7219799" lat="47.9037479" lon="11.6046821">
    <tag k="addr:city" v="Baiernrain"/>
    <tag k="addr:country" v="DE"/>
    <tag k="addr:housenumber" v="1"/>
    <tag k="addr:postcode" v="83623"/>
    <tag k="addr:street" v="Franz-Hanfstaengl-Weg"/>
    <tag k="source" v="survey"/>
  </node>
  <node id="327173119" version="5" timestamp="2009-10-20T11:53:14Z" uid="36809" user="pfoten_weg_!_" changeset="2902112" lat="47.9040068" lon="11.604665">
    <tag k="addr:city" v="Baiernrain"/>
    <tag k="addr:country" v="DE"/>
    <tag k="addr:housenumber" v="3"/>
    <tag k="addr:postcode" v="83623"/>
    <tag k="addr:street" v="Franz-Hanfstaengl-Weg"/>
    <tag k="source" v="survey"/>
  </node>
  <node id="327173119" version="6" timestamp="2011-02-07T19:35:55Z" uid="329528" user="Skubiduhh" changeset="7219799" lat="47.9040068" lon="11.604665">
    <tag k="addr:city" v="Baiernrain"/>
    <tag k="addr:country" v="DE"/>
    <tag k="addr:housenumber" v="3"/>
    <tag k="addr:postcode" v="83623"/>
    <tag k="addr:street" v="Franz-Hanfstaengl-Weg"/>
    <tag k="source" v="survey"/>
  </node>
  <node id="327173587" version="6" timestamp="2009-10-20T11:53:09Z" uid="36809" user="pfoten_weg_!_" changeset="2902112" lat="47.9042773" lon="11.6046478">
    <tag k="addr:city" v="Baiernrain"/>
    <tag k="addr:country" v="DE"/>
    <tag k="addr:housenumber" v="5"/>
    <tag k="addr:postcode" v="83623"/>
    <tag k="addr:street" v="Franz-Hanfstaengl-Weg"/>
    <tag k="source" v="survey"/>
  </node>
  <node id="327173587" version="7" timestamp="2011-02-07T19:35:55Z" uid="329528" user="Skubiduhh" changeset="7219799" lat="47.9042773" lon="11.6046478">
    <tag k="addr:city" v="Baiernrain"/>
    <tag k="addr:country" v="DE"/>
    <tag k="addr:housenumber" v="5"/>
    <tag k="addr:postcode" v="83623"/>
    <tag k="addr:street" v="Franz-Hanfstaengl-Weg"/>
    <tag k="source" v="survey"/>
  </node>
  <node id="327173656" version="6" timestamp="2009-10-20T11:53:13Z" uid="36809" user="pfoten_weg_!_" changeset="2902112" lat="47.9042715" lon="11.6045277">
    <tag k="addr:city" v="Baiernrain"/>
    <tag k="addr:country" v="DE"/>
    <tag k="addr:housenumber" v="5a"/>
    <tag k="addr:postcode" v="83623"/>
    <tag k="addr:street" v="Franz-Hanfstaengl-Weg"/>
    <tag k="source" v="survey"/>
  </node>
  <node id="327173656" version="7" timestamp="2011-02-07T19:35:56Z" uid="329528" user="Skubiduhh" changeset="7219799" lat="47.9042715" lon="11.6045277">
    <tag k="addr:city" v="Baiernrain"/>
    <tag k="addr:country" v="DE"/>
    <tag k="addr:housenumber" v="5a"/>
    <tag k="addr:postcode" v="83623"/>
    <tag k="addr:street" v="Franz-Hanfstaengl-Weg"/>
    <tag k="source" v="survey"/>
  </node>
  <node id="327174553" version="5" timestamp="2009-10-20T11:53:12Z" uid="36809" user="pfoten_weg_!_" changeset="2902112" lat="47.904233" lon="11.6052322">
    <tag k="addr:city" v="Dietramszell"/>
    <tag k="addr:country" v="DE"/>
    <tag k="addr:housenumber" v="36"/>
    <tag k="addr:postcode" v="83623"/>
    <tag k="addr:street" v="Lehrer-Vogl-Weg"/>
    <tag k="source" v="survey"/>
  </node>
  <node id="327174553" version="6" timestamp="2011-02-07T19:35:56Z" uid="329528" user="Skubiduhh" changeset="7219799" lat="47.904233" lon="11.6052322">
    <tag k="addr:city" v="Dietramszell"/>
    <tag k="addr:country" v="DE"/>
    <tag k="addr:housenumber" v="36"/>
    <tag k="addr:postcode" v="83623"/>
    <tag k="addr:street" v="Lehrer-Vogl-Weg"/>
    <tag k="source" v="survey"/>
  </node>
  <node id="327175530" version="3" timestamp="2009-10-20T11:53:15Z" uid="36809" user="pfoten_weg_!_" changeset="2902112" lat="47.9041927" lon="11.6055412">
    <tag k="addr:city" v="Dietramszell"/>
    <tag k="addr:country" v="DE"/>
    <tag k="addr:housenumber" v="34"/>
    <tag k="addr:postcode" v="83623"/>
    <tag k="addr:street" v="Lehrer-Vogl-Weg"/>
    <tag k="source" v="survey"/>
  </node>
  <node id="327175530" version="4" timestamp="2011-02-07T19:35:56Z" uid="329528" user="Skubiduhh" changeset="7219799" lat="47.9041927" lon="11.6055412">
    <tag k="addr:city" v="Dietramszell"/>
    <tag k="addr:country" v="DE"/>
    <tag k="addr:housenumber" v="34"/>
    <tag k="addr:postcode" v="83623"/>
    <tag k="addr:street" v="Lehrer-Vogl-Weg"/>
    <tag k="source" v="survey"/>
  </node>
  <node id="327177694" version="3" timestamp="2009-10-20T11:53:10Z" uid="36809" user="pfoten_weg_!_" changeset="2902112" lat="47.9038302" lon="11.6051206">
    <tag k="addr:city" v="Dietramszell"/>
    <tag k="addr:country" v="DE"/>
    <tag k="addr:housenumber" v="35"/>
    <tag k="addr:postcode" v="83623"/>
    <tag k="addr:street" v="Lehrer-Vogl-Weg"/>
    <tag k="source" v="survey"/>
  </node>
  <node id="327177694" version="4" timestamp="2011-02-07T19:35:55Z" uid="329528" user="Skubiduhh" changeset="7219799" lat="47.9038302" lon="11.6051206">
    <tag k="addr:city" v="Dietramszell"/>
    <tag k="addr:country" v="DE"/>
    <tag k="addr:housenumber" v="35"/>
    <tag k="addr:postcode" v="83623"/>
    <tag k="addr:street" v="Lehrer-Vogl-Weg"/>
    <tag k="source" v="survey"/>
  </node>
  <node id="327177695" version="4" timestamp="2009-10-20T11:53:07Z" uid="36809" user="pfoten_weg_!_" changeset="2902112" lat="47.9037497" lon="11.6055069">
    <tag k="addr:city" v="Dietramszell"/>
    <tag k="addr:country" v="DE"/>
    <tag k="addr:housenumber" v="33"/>
    <tag k="addr:postcode" v="83623"/>
    <tag k="addr:street" v="Lehrer-Vogl-Weg"/>
    <tag k="source" v="survey"/>
  </node>
  <node id="327177695" version="5" timestamp="2011-02-07T19:35:55Z" uid="329528" user="Skubiduhh" changeset="7219799" lat="47.9037497" lon="11.6055069">
    <tag k="addr:city" v="Dietramszell"/>
    <tag k="addr:country" v="DE"/>
    <tag k="addr:housenumber" v="33"/>
    <tag k="addr:postcode" v="83623"/>
    <tag k="addr:street" v="Lehrer-Vogl-Weg"/>
    <tag k="source" v="survey"/>
  </node>
  <node id="327177872" version="4" timestamp="2009-10-20T11:53:17Z" uid="36809" user="pfoten_weg_!_" changeset="2902112" lat="47.9038187" lon="11.6060991">
    <tag k="addr:city" v="Baiernrain"/>
    <tag k="addr:country" v="DE"/>
    <tag k="addr:housenumber" v="29"/>
    <tag k="addr:postcode" v="83623"/>
    <tag k="addr:street" v="Argeter Weg"/>
    <tag k="source" v="survey"/>
  </node>
  <node id="327177872" version="5" timestamp="2011-02-07T19:35:54Z" uid="329528" user="Skubiduhh" changeset="7219799" lat="47.9038187" lon="11.6060991">
    <tag k="addr:city" v="Baiernrain"/>
    <tag k="addr:country" v="DE"/>
    <tag k="addr:housenumber" v="29"/>
    <tag k="addr:postcode" v="83623"/>
    <tag k="addr:street" v="Argeter Weg"/>
    <tag k="source" v="survey"/>
  </node>
  <node id="327178289" version="1" timestamp="2009-01-05T14:15:22Z" uid="20587" user="balrog-kun" changeset="737820" lat="52.2461403" lon="21.023177"/>
  <node id="327178289" version="2" timestamp="2010-05-27T12:17:41Z" uid="20587" user="balrog-kun" changeset="4821472" lat="52.2456521" lon="21.0236754"/>
  <node id="327178291" version="1" timestamp="2009-01-05T14:15:23Z" uid="20587" user="balrog-kun" changeset="737820" lat="52.2470265" lon="21.0216819"/>
  <node id="327178291" version="2" timestamp="2010-05-27T12:17:28Z" uid="20587" user="balrog-kun" changeset="4821472" lat="52.246712" lon="21.0218736"/>
  <node id="327178293" version="1" timestamp="2009-01-05T14:15:23Z" uid="20587" user="balrog-kun" changeset="737820" lat="52.2523699" lon="21.0206397"/>
  <node id="327178293" version="2" timestamp="2011-11-07T12:42:52Z" uid="550476" user="fishcrosser" changeset="9763949" lat="52.252338" lon="21.0205025"/>
  <node id="327178295" version="1" timestamp="2009-01-05T14:15:23Z" uid="20587" user="balrog-kun" changeset="737820" lat="52.2524127" lon="21.0211708"/>
  <node id="327178297" version="1" timestamp="2009-01-05T14:15:23Z" uid="20587" user="balrog-kun" changeset="737820" lat="52.2146217" lon="20.9792138">
    <tag k="amenity" v="pharmacy"/>
  </node>
  <node id="327178297" version="2" timestamp="2009-01-05T22:04:41Z" uid="20587" user="balrog-kun" changeset="739335" lat="52.2146758" lon="20.9792379">
    <tag k="amenity" v="pharmacy"/>
  </node>
  <node id="327178299" version="1" timestamp="2009-01-05T14:15:23Z" uid="20587" user="balrog-kun" changeset="737820" lat="52.2196848" lon="20.9836879">
    <tag k="amenity" v="pharmacy"/>
  </node>
  <node id="327178299" version="2" timestamp="2009-01-06T10:16:35Z" uid="20587" user="balrog-kun" changeset="743955" lat="52.2196848" lon="20.9836879">
    <tag k="amenity" v="pharmacy"/>
    <tag k="name" v="Świat Zdrowia"/>
  </node>
  <node id="327178299" version="3" timestamp="2009-01-11T01:05:11Z" uid="20587" user="balrog-kun" changeset="769936" lat="52.2197896" lon="20.9837744">
    <tag k="amenity" v="pharmacy"/>
    <tag k="name" v="Świat Zdrowia"/>
  </node>
  <node id="327178299" version="4" timestamp="2009-10-04T02:17:23Z" uid="20587" user="balrog-kun" changeset="2730989" lat="52.2197896" lon="20.9837744">
    <tag k="amenity" v="pharmacy"/>
    <tag k="name" v="Miko - Świat Zdrowia"/>
  </node>
</osm>
