<?xml version='1.0' encoding='UTF-8'?>
<osm version="0.6" generator="libosmium/2.20.0">
  <node id="327534330" version="2" timestamp="2009-02-06T15:43:46Z" uid="20587" user="balrog-kun" changeset="198712" lat="52.2262943" lon="20.9952139">
    <tag k="name" v="Plac Starynkiewicza"/>
    <tag k="railway" v="tram_stop"/>
  </node>
  <node id="327534330" version="3" timestamp="2009-05-28T12:55:29Z" uid="128018" user="Tomek" changeset="1342512" lat="52.2262942" lon="20.9952139">
    <tag k="name" v="PL.STARYNKIEWICZA 03"/>
    <tag k="railway" v="tram_stop"/>
  </node>
  <node id="327534330" version="4" timestamp="2009-06-21T14:20:20Z" uid="20587" user="balrog-kun" changeset="1583765" lat="52.2262942" lon="20.9952139">
    <tag k="name" v="Pl.Starynkiewicza 03"/>
    <tag k="railway" v="tram_stop"/>
  </node>
  <node id="327534330" version="5" timestamp="2009-08-08T15:03:48Z" uid="20587" user="balrog-kun" changeset="2076575" lat="52.2262942" lon="20.9952139">
    <tag k="name" v="Plac Starynkiewicza 03"/>
    <tag k="railway" v="tram_stop"/>
  </node>
  <node id="327534330" version="6" timestamp="2009-10-16T11:49:42Z" uid="20587" user="balrog-kun" changeset="2863860" lat="52.2262942" lon="20.9952139">
    <tag k="name" v="Plac Starynkiewicza 03"/>
    <tag k="railway" v="tram_stop"/>
    <tag k="tactile_paving" v="yes"/>
  </node>
  <node id="327534330" version="7" timestamp="2009-10-28T13:21:29Z" uid="20587" user="balrog-kun" changeset="2973177" lat="52.2262942" lon="20.9952139">
    <tag k="information" v="schedule"/>
    <tag k="information:voice" v="yes"/>
    <tag k="name" v="Plac Starynkiewicza 03"/>
    <tag k="railway" v="tram_stop"/>
    <tag k="tactile_paving" v="yes"/>
  </node>
  <node id="327534330" version="8" timestamp="2010-01-12T13:53:25Z" uid="20587" user="balrog-kun" changeset="3603234" lat="52.2262942" lon="20.9952139">
    <tag k="information" v="schedule"/>
    <tag k="information:voice" v="yes"/>
    <tag k="name" v="Plac Starynkiewicza 03"/>
    <tag k="railway" v="tram_stop"/>
    <tag k="tactile_paving" v="yes"/>
    <tag k="tactile_paving:slab_size" v="40x40"/>
    <tag k="ztm:ciąg_ulicy" v="Al. Jerozolimskie"/>
  </node>
  <node id="327534330" version="9" timestamp="2010-01-15T17:57:50Z" uid="20587" user="balrog-kun" changeset="3626110" lat="52.2262905" lon="20.9952215">
    <tag k="information" v="schedule"/>
    <tag k="information:voice" v="yes"/>
    <tag k="name" v="Plac Starynkiewicza 03"/>
    <tag k="railway" v="tram_stop"/>
    <tag k="tactile_paving" v="yes"/>
    <tag k="tactile_paving:slab_size" v="40x40"/>
    <tag k="ztm:ciąg_ulicy" v="Al. Jerozolimskie"/>
  </node>
  <node id="327537747" version="4" timestamp="2010-11-03T16:18:35Z" uid="33382" user="de_muur" changeset="6277379" lat="53.2182061" lon="9.5629272">
    <tag k="TMC:cid_58:tabcd_1:Class" v="Point"/>
    <tag k="TMC:cid_58:tabcd_1:Direction" v="both"/>
    <tag k="TMC:cid_58:tabcd_1:LCLversion" v="8.00"/>
    <tag k="TMC:cid_58:tabcd_1:LocationCode" v="25053"/>
    <tag k="TMC:cid_58:tabcd_1:NextLocationCode" v="25054"/>
    <tag k="TMC:cid_58:tabcd_1:PrevLocationCode" v="25052"/>
  </node>
  <node id="327537747" version="5" timestamp="2012-02-25T23:33:44Z" uid="45882" user="smarties" changeset="10793329" lat="53.2182061" lon="9.5629272"/>
  <node id="327537820" version="3" timestamp="2010-11-03T16:18:34Z" uid="33382" user="de_muur" changeset="6277379" lat="53.2208493" lon="9.5679937"/>
  <node id="327537820" version="4" timestamp="2012-02-25T23:33:44Z" uid="45882" user="smarties" changeset="10793329" lat="53.2208493" lon="9.5679937"/>
</osm>
