<?xml version='1.0' encoding='UTF-8'?>
<osm version="0.6" generator="libosmium/2.20.0">
  <node id="329091650" version="4" timestamp="2009-11-06T00:32:34Z" uid="36809" user="pfoten_weg_!_" changeset="3044956" lat="52.3463804" lon="14.5534578">
    <tag k="addr:city" v="Frankfurt (Oder)"/>
    <tag k="addr:country" v="DE"/>
    <tag k="addr:housenumber" v="3"/>
    <tag k="addr:postcode" v="15230"/>
    <tag k="addr:street" v="Kleine Oderstraße"/>
  </node>
  <node id="329091650" version="5" timestamp="2011-01-08T10:51:05Z" uid="163437" user="r-michael" changeset="6902020" lat="52.3462857" lon="14.5534705">
    <tag k="addr:city" v="Frankfurt (Oder)"/>
    <tag k="addr:country" v="DE"/>
    <tag k="addr:housenumber" v="3"/>
    <tag k="addr:postcode" v="15230"/>
    <tag k="addr:street" v="Kleine Oderstraße"/>
  </node>
  <node id="329091650" version="6" timestamp="2012-03-23T19:29:00Z" uid="163437" user="r-michael" changeset="11077512" lat="52.3462706" lon="14.5531213">
    <tag k="addr:city" v="Frankfurt (Oder)"/>
    <tag k="addr:country" v="DE"/>
    <tag k="addr:housenumber" v="3"/>
    <tag k="addr:postcode" v="15230"/>
    <tag k="addr:street" v="Kleine Oderstraße"/>
  </node>
  <node id="329091658" version="5" timestamp="2009-11-06T00:32:35Z" uid="36809" user="pfoten_weg_!_" changeset="3044956" lat="52.3467803" lon="14.5541226">
    <tag k="addr:city" v="Frankfurt (Oder)"/>
    <tag k="addr:country" v="DE"/>
    <tag k="addr:housenumber" v="48"/>
    <tag k="addr:postcode" v="15230"/>
    <tag k="addr:street" v="Große Oderstraße"/>
  </node>
</osm>
