<?xml version='1.0' encoding='UTF-8'?>
<osm version="0.6" generator="libosmium/2.20.0">
  <node id="329372561" version="2" timestamp="2009-01-27T16:39:20Z" uid="9581" user="Lobelt" changeset="843580" lat="51.6748934" lon="14.2712215">
    <tag k="name" v="Windkraftanlage 1"/>
    <tag k="power" v="generator"/>
    <tag k="power_source" v="wind"/>
  </node>
  <node id="329372561" version="3" timestamp="2011-06-04T02:58:09Z" uid="297482" user="don-vip" changeset="8335705" lat="51.6748934" lon="14.2712215">
    <tag k="generator:source" v="wind"/>
    <tag k="name" v="Windkraftanlage 1"/>
    <tag k="power" v="generator"/>
    <tag k="power_source" v="wind"/>
  </node>
  <node id="329372561" version="4" timestamp="2012-02-13T23:12:32Z" uid="590907" user="cbdavis" changeset="10678814" lat="51.6748934" lon="14.2712215">
    <tag k="generator:source" v="wind"/>
    <tag k="name" v="Windkraftanlage 1"/>
    <tag k="power" v="generator"/>
  </node>
  <node id="329372561" version="5" timestamp="2012-02-15T09:05:12Z" uid="590907" user="cbdavis" changeset="10690119" lat="51.6748934" lon="14.2712215">
    <tag k="generator:source" v="wind"/>
    <tag k="name" v="Windkraftanlage 1"/>
    <tag k="power" v="generator"/>
    <tag k="power_source" v="wind"/>
  </node>
  <node id="329372606" version="2" timestamp="2009-01-27T16:39:20Z" uid="9581" user="Lobelt" changeset="843580" lat="51.6744679" lon="14.2780519">
    <tag k="name" v="Windkraftanlage 2"/>
    <tag k="power" v="generator"/>
    <tag k="power_source" v="wind"/>
  </node>
  <node id="329372606" version="3" timestamp="2011-06-04T02:58:09Z" uid="297482" user="don-vip" changeset="8335705" lat="51.6744679" lon="14.2780519">
    <tag k="generator:source" v="wind"/>
    <tag k="name" v="Windkraftanlage 2"/>
    <tag k="power" v="generator"/>
    <tag k="power_source" v="wind"/>
  </node>
  <node id="329372606" version="4" timestamp="2012-02-13T23:12:32Z" uid="590907" user="cbdavis" changeset="10678814" lat="51.6744679" lon="14.2780519">
    <tag k="generator:source" v="wind"/>
    <tag k="name" v="Windkraftanlage 2"/>
    <tag k="power" v="generator"/>
  </node>
  <node id="329372606" version="5" timestamp="2012-02-15T09:05:13Z" uid="590907" user="cbdavis" changeset="10690119" lat="51.6744679" lon="14.2780519">
    <tag k="generator:source" v="wind"/>
    <tag k="name" v="Windkraftanlage 2"/>
    <tag k="power" v="generator"/>
    <tag k="power_source" v="wind"/>
  </node>
  <node id="329378480" version="4" timestamp="2009-04-25T20:27:10Z" uid="13367" user="nubok" changeset="958600" lat="52.1944722" lon="11.5967181"/>
  <node id="329378480" version="5" timestamp="2009-08-11T20:19:56Z" uid="90262" user="ClickKlack" changeset="2112679" lat="52.1944987" lon="11.5967142"/>
  <node id="329378484" version="4" timestamp="2009-04-25T20:27:10Z" uid="13367" user="nubok" changeset="958600" lat="52.194584" lon="11.5966292"/>
</osm>
