<?xml version='1.0' encoding='UTF-8'?>
<osm version="0.6" generator="libosmium/2.20.0">
  <node id="329700489" version="4" timestamp="2009-10-23T12:11:37Z" uid="36809" user="pfoten_weg_!_" changeset="2929257" lat="47.9853833" lon="11.7067102">
    <tag k="addr:city" v="Hofolding"/>
    <tag k="addr:country" v="DE"/>
    <tag k="addr:housenumber" v="32"/>
    <tag k="addr:postcode" v="85649"/>
    <tag k="addr:street" v="Fichtenstraße"/>
  </node>
  <node id="329700524" version="2" timestamp="2010-06-29T19:01:38Z" uid="74617" user="JohnSmith" changeset="5108182" lat="38.6860833" lon="-9.3338352"/>
  <node id="329700524" version="3" timestamp="2012-01-11T11:59:19Z" uid="568360" user="salvadorlobo" changeset="10359769" lat="38.6861017" lon="-9.3338478"/>
  <node id="329700526" version="2" timestamp="2010-06-29T19:02:04Z" uid="74617" user="JohnSmith" changeset="5108182" lat="38.6852878" lon="-9.3341785"/>
  <node id="329700526" version="3" timestamp="2012-01-11T11:59:19Z" uid="568360" user="salvadorlobo" changeset="10359769" lat="38.6852913" lon="-9.3341698"/>
  <node id="329700529" version="2" timestamp="2010-06-29T19:02:49Z" uid="74617" user="JohnSmith" changeset="5108182" lat="38.6851328" lon="-9.3335133"/>
  <node id="329700529" version="3" timestamp="2012-01-11T11:59:19Z" uid="568360" user="salvadorlobo" changeset="10359769" lat="38.6851323" lon="-9.333513"/>
  <node id="329700531" version="2" timestamp="2010-06-29T19:00:39Z" uid="74617" user="JohnSmith" changeset="5108182" lat="38.6859494" lon="-9.3331753"/>
  <node id="329700531" version="3" timestamp="2012-01-11T11:59:19Z" uid="568360" user="salvadorlobo" changeset="10359769" lat="38.6859427" lon="-9.333191"/>
  <node id="329700868" version="4" timestamp="2009-10-23T12:11:35Z" uid="36809" user="pfoten_weg_!_" changeset="2929257" lat="47.9853833" lon="11.7065986">
    <tag k="addr:city" v="Hofolding"/>
    <tag k="addr:country" v="DE"/>
    <tag k="addr:housenumber" v="30"/>
    <tag k="addr:postcode" v="85649"/>
    <tag k="addr:street" v="Fichtenstraße"/>
  </node>
  <node id="329701146" version="4" timestamp="2009-10-23T12:11:39Z" uid="36809" user="pfoten_weg_!_" changeset="2929257" lat="47.9853719" lon="11.7062467">
    <tag k="addr:city" v="Hofolding"/>
    <tag k="addr:country" v="DE"/>
    <tag k="addr:housenumber" v="28"/>
    <tag k="addr:postcode" v="85649"/>
    <tag k="addr:street" v="Fichtenstraße"/>
  </node>
  <node id="329701806" version="4" timestamp="2009-10-23T12:11:38Z" uid="36809" user="pfoten_weg_!_" changeset="2929257" lat="47.9851019" lon="11.7062553">
    <tag k="addr:city" v="Hofolding"/>
    <tag k="addr:country" v="DE"/>
    <tag k="addr:housenumber" v="1"/>
    <tag k="addr:postcode" v="85649"/>
    <tag k="addr:street" v="Zedernstraße"/>
  </node>
  <node id="329701909" version="3" timestamp="2009-10-23T12:11:36Z" uid="36809" user="pfoten_weg_!_" changeset="2929257" lat="47.9851306" lon="11.7065214">
    <tag k="addr:city" v="Hofolding"/>
    <tag k="addr:country" v="DE"/>
    <tag k="addr:housenumber" v="3"/>
    <tag k="addr:postcode" v="85649"/>
    <tag k="addr:street" v="Zedernstraße"/>
  </node>
  <node id="329702189" version="4" timestamp="2009-10-23T12:11:35Z" uid="36809" user="pfoten_weg_!_" changeset="2929257" lat="47.9851478" lon="11.7068647">
    <tag k="addr:city" v="Hofolding"/>
    <tag k="addr:country" v="DE"/>
    <tag k="addr:housenumber" v="5"/>
    <tag k="addr:postcode" v="85649"/>
    <tag k="addr:street" v="Zedernstraße"/>
  </node>
  <node id="329702313" version="4" timestamp="2009-10-23T12:11:38Z" uid="36809" user="pfoten_weg_!_" changeset="2929257" lat="47.9851478" lon="11.7071479">
    <tag k="addr:city" v="Hofolding"/>
    <tag k="addr:country" v="DE"/>
    <tag k="addr:housenumber" v="7"/>
    <tag k="addr:postcode" v="85649"/>
    <tag k="addr:street" v="Zedernstraße"/>
  </node>
  <node id="329703232" version="3" timestamp="2009-10-23T12:11:28Z" uid="36809" user="pfoten_weg_!_" changeset="2929257" lat="47.985211" lon="11.7058261">
    <tag k="addr:city" v="Hofolding"/>
    <tag k="addr:country" v="DE"/>
    <tag k="addr:housenumber" v="2"/>
    <tag k="addr:postcode" v="85649"/>
    <tag k="addr:street" v="Zedernstraße"/>
  </node>
  <node id="329703232" version="4" timestamp="2011-01-20T11:37:37Z" uid="16696" user="Hike39" changeset="7029527" lat="47.9851126" lon="11.7058261">
    <tag k="addr:city" v="Hofolding"/>
    <tag k="addr:country" v="DE"/>
    <tag k="addr:housenumber" v="2"/>
    <tag k="addr:postcode" v="85649"/>
    <tag k="addr:street" v="Zedernstraße"/>
  </node>
  <node id="329703257" version="4" timestamp="2009-10-23T12:11:28Z" uid="36809" user="pfoten_weg_!_" changeset="2929257" lat="47.9849008" lon="11.7058347">
    <tag k="addr:city" v="Hofolding"/>
    <tag k="addr:country" v="DE"/>
    <tag k="addr:housenumber" v="4"/>
    <tag k="addr:postcode" v="85649"/>
    <tag k="addr:street" v="Zedernstraße"/>
  </node>
  <node id="329703683" version="5" timestamp="2009-10-23T12:11:32Z" uid="36809" user="pfoten_weg_!_" changeset="2929257" lat="47.9848146" lon="11.7062124">
    <tag k="addr:city" v="Hofolding"/>
    <tag k="addr:country" v="DE"/>
    <tag k="addr:housenumber" v="6"/>
    <tag k="addr:postcode" v="85649"/>
    <tag k="addr:street" v="Zedernstraße"/>
  </node>
  <node id="329703718" version="4" timestamp="2009-10-23T12:11:31Z" uid="36809" user="pfoten_weg_!_" changeset="2929257" lat="47.9848204" lon="11.7063411">
    <tag k="addr:city" v="Hofolding"/>
    <tag k="addr:country" v="DE"/>
    <tag k="addr:housenumber" v="8"/>
    <tag k="addr:postcode" v="85649"/>
    <tag k="addr:street" v="Zedernstraße"/>
  </node>
  <node id="329704334" version="5" timestamp="2009-10-23T12:11:33Z" uid="36809" user="pfoten_weg_!_" changeset="2929257" lat="47.9848318" lon="11.70659">
    <tag k="addr:city" v="Hofolding"/>
    <tag k="addr:country" v="DE"/>
    <tag k="addr:housenumber" v="10"/>
    <tag k="addr:postcode" v="85649"/>
    <tag k="addr:street" v="Zedernstraße"/>
  </node>
  <node id="329704334" version="6" timestamp="2010-05-02T15:28:18Z" uid="8748" user="ToniE" changeset="4586288" lat="47.9848341" lon="11.7065208">
    <tag k="addr:city" v="Hofolding"/>
    <tag k="addr:country" v="DE"/>
    <tag k="addr:housenumber" v="10"/>
    <tag k="addr:postcode" v="85649"/>
    <tag k="addr:street" v="Zedernstraße"/>
  </node>
  <node id="329704436" version="4" timestamp="2009-10-23T12:11:32Z" uid="36809" user="pfoten_weg_!_" changeset="2929257" lat="47.9848376" lon="11.7067188">
    <tag k="addr:city" v="Hofolding"/>
    <tag k="addr:country" v="DE"/>
    <tag k="addr:housenumber" v="12"/>
    <tag k="addr:postcode" v="85649"/>
    <tag k="addr:street" v="Zedernstraße"/>
  </node>
  <node id="329704436" version="5" timestamp="2010-05-02T15:28:20Z" uid="8748" user="ToniE" changeset="4586288" lat="47.9848469" lon="11.7068225">
    <tag k="addr:city" v="Hofolding"/>
    <tag k="addr:country" v="DE"/>
    <tag k="addr:housenumber" v="12"/>
    <tag k="addr:postcode" v="85649"/>
    <tag k="addr:street" v="Zedernstraße"/>
  </node>
  <node id="329705375" version="3" timestamp="2009-10-23T12:11:34Z" uid="36809" user="pfoten_weg_!_" changeset="2929257" lat="47.9848548" lon="11.7070535">
    <tag k="addr:city" v="Hofolding"/>
    <tag k="addr:country" v="DE"/>
    <tag k="addr:housenumber" v="14"/>
    <tag k="addr:postcode" v="85649"/>
    <tag k="addr:street" v="Zedernstraße"/>
  </node>
  <node id="329705714" version="3" timestamp="2009-10-23T12:11:39Z" uid="36809" user="pfoten_weg_!_" changeset="2929257" lat="47.9848548" lon="11.7071737">
    <tag k="addr:city" v="Hofolding"/>
    <tag k="addr:country" v="DE"/>
    <tag k="addr:housenumber" v="16"/>
    <tag k="addr:postcode" v="85649"/>
    <tag k="addr:street" v="Zedernstraße"/>
  </node>
  <node id="329706350" version="3" timestamp="2009-10-23T12:11:40Z" uid="36809" user="pfoten_weg_!_" changeset="2929257" lat="47.9848778" lon="11.7075857">
    <tag k="addr:city" v="Hofolding"/>
    <tag k="addr:country" v="DE"/>
    <tag k="addr:housenumber" v="18"/>
    <tag k="addr:postcode" v="85649"/>
    <tag k="addr:street" v="Zedernstraße"/>
  </node>
  <node id="329706637" version="3" timestamp="2009-10-23T12:11:40Z" uid="36809" user="pfoten_weg_!_" changeset="2929257" lat="47.985165" lon="11.7075771">
    <tag k="addr:city" v="Hofolding"/>
    <tag k="addr:country" v="DE"/>
    <tag k="addr:housenumber" v="20"/>
    <tag k="addr:postcode" v="85649"/>
    <tag k="addr:street" v="Zedernstraße"/>
  </node>
</osm>
