<?xml version='1.0' encoding='UTF-8'?>
<osm version="0.6" generator="libosmium/2.20.0">
  <node id="332790022" version="1" timestamp="2009-01-18T00:16:52Z" uid="4467" user="Rosscoe" changeset="803646" lat="-20.2809924" lon="148.7327144">
    <tag k="addr:city" v="Jubilee Pocket"/>
    <tag k="addr:country" v="AU"/>
    <tag k="addr:housenumber" v="2571"/>
    <tag k="addr:postcode" v="4802"/>
    <tag k="addr:street" v="Shute Harbour Road"/>
    <tag k="created_by" v="Potlatch 0.10f"/>
    <tag k="source" v="survey"/>
  </node>
  <node id="332790022" version="2" timestamp="2009-01-25T04:35:19Z" uid="4467" user="Rosscoe" changeset="835181" lat="-20.2810401" lon="148.7327008">
    <tag k="addr:city" v="Jubilee Pocket"/>
    <tag k="addr:country" v="AU"/>
    <tag k="addr:housenumber" v="2571"/>
    <tag k="addr:postcode" v="4802"/>
    <tag k="addr:street" v="Shute Harbour Road"/>
    <tag k="created_by" v="Potlatch 0.10f"/>
    <tag k="source" v="survey"/>
  </node>
  <node id="332790029" version="1" timestamp="2009-01-18T00:16:54Z" uid="4467" user="Rosscoe" changeset="803646" lat="-20.2809924" lon="148.7330234">
    <tag k="created_by" v="Potlatch 0.10f"/>
  </node>
  <node id="332790029" version="2" timestamp="2009-01-18T00:17:04Z" uid="4467" user="Rosscoe" changeset="803646" lat="-20.2809924" lon="148.7330234">
    <tag k="addr:city" v="Jubilee Pocket"/>
    <tag k="addr:country" v="AU"/>
    <tag k="addr:housenumber" v="2573"/>
    <tag k="addr:postcode" v="4802"/>
    <tag k="addr:street" v="Shute Harbour Road"/>
    <tag k="created_by" v="Potlatch 0.10f"/>
    <tag k="source" v="survey"/>
  </node>
  <node id="332790029" version="3" timestamp="2009-01-18T00:17:45Z" uid="4467" user="Rosscoe" changeset="803646" lat="-20.2810165" lon="148.7330406">
    <tag k="addr:city" v="Jubilee Pocket"/>
    <tag k="addr:country" v="AU"/>
    <tag k="addr:housenumber" v="2573"/>
    <tag k="addr:postcode" v="4802"/>
    <tag k="addr:street" v="Shute Harbour Road"/>
    <tag k="created_by" v="Potlatch 0.10f"/>
    <tag k="source" v="survey"/>
  </node>
  <node id="332790029" version="4" timestamp="2009-01-25T04:35:18Z" uid="4467" user="Rosscoe" changeset="835181" lat="-20.2810809" lon="148.7330325">
    <tag k="addr:city" v="Jubilee Pocket"/>
    <tag k="addr:country" v="AU"/>
    <tag k="addr:housenumber" v="2573"/>
    <tag k="addr:postcode" v="4802"/>
    <tag k="addr:street" v="Shute Harbour Road"/>
    <tag k="created_by" v="Potlatch 0.10f"/>
    <tag k="source" v="survey"/>
  </node>
  <node id="332790037" version="1" timestamp="2009-01-18T00:17:20Z" uid="4467" user="Rosscoe" changeset="803646" lat="-20.2810165" lon="148.733341">
    <tag k="addr:city" v="Jubilee Pocket"/>
    <tag k="addr:country" v="AU"/>
    <tag k="addr:housenumber" v="2575"/>
    <tag k="addr:postcode" v="4802"/>
    <tag k="addr:street" v="Shute Harbour Road"/>
    <tag k="created_by" v="Potlatch 0.10f"/>
    <tag k="source" v="survey"/>
  </node>
  <node id="332790037" version="2" timestamp="2009-01-25T04:35:17Z" uid="4467" user="Rosscoe" changeset="835181" lat="-20.2811172" lon="148.7333281">
    <tag k="addr:city" v="Jubilee Pocket"/>
    <tag k="addr:country" v="AU"/>
    <tag k="addr:housenumber" v="2575"/>
    <tag k="addr:postcode" v="4802"/>
    <tag k="addr:street" v="Shute Harbour Road"/>
    <tag k="created_by" v="Potlatch 0.10f"/>
    <tag k="source" v="survey"/>
  </node>
  <node id="332790045" version="1" timestamp="2009-01-18T00:17:33Z" uid="4467" user="Rosscoe" changeset="803646" lat="-20.2810729" lon="148.7337444">
    <tag k="addr:city" v="Jubilee Pocket"/>
    <tag k="addr:country" v="AU"/>
    <tag k="addr:housenumber" v="2579"/>
    <tag k="addr:postcode" v="4802"/>
    <tag k="addr:street" v="Shute Harbour Road"/>
    <tag k="created_by" v="Potlatch 0.10f"/>
    <tag k="source" v="survey"/>
  </node>
  <node id="332790045" version="2" timestamp="2009-01-25T04:35:16Z" uid="4467" user="Rosscoe" changeset="835181" lat="-20.2811684" lon="148.7337444">
    <tag k="addr:city" v="Jubilee Pocket"/>
    <tag k="addr:country" v="AU"/>
    <tag k="addr:housenumber" v="2579"/>
    <tag k="addr:postcode" v="4802"/>
    <tag k="addr:street" v="Shute Harbour Road"/>
    <tag k="created_by" v="Potlatch 0.10f"/>
    <tag k="source" v="survey"/>
  </node>
  <node id="332790121" version="1" timestamp="2009-01-18T00:19:04Z" uid="4467" user="Rosscoe" changeset="803646" lat="-20.2772728" lon="148.7536399">
    <tag k="created_by" v="Potlatch 0.10f"/>
    <tag k="name" v="Flametree Village Van Park"/>
    <tag k="source" v="survey"/>
    <tag k="tourism" v="caravan_site"/>
  </node>
  <node id="332790121" version="2" timestamp="2009-01-30T00:12:43Z" uid="4467" user="Rosscoe" changeset="853721" lat="-20.2772742" lon="148.753638">
    <tag k="addr:country" v="AU"/>
    <tag k="addr:housenumber" v="2955"/>
    <tag k="addr:postcode" v="4802"/>
    <tag k="addr:street" v="Shute Harbour Road"/>
    <tag k="created_by" v="Potlatch 0.10f"/>
    <tag k="name" v="Flametree Village Van Park"/>
    <tag k="source" v="survey"/>
    <tag k="tourism" v="caravan_site"/>
  </node>
  <node id="332790156" version="5" timestamp="2010-04-08T05:14:57Z" uid="30201" user="rrankin" changeset="4361025" lat="-33.7019731" lon="150.5808171"/>
  <node id="332790182" version="4" timestamp="2010-04-08T05:14:57Z" uid="30201" user="rrankin" changeset="4361025" lat="-33.7021042" lon="150.5813425"/>
  <node id="332790182" version="5" timestamp="2010-04-09T06:35:53Z" uid="47167" user="MCH" changeset="4369942" lat="-33.7021108" lon="150.5813437"/>
  <node id="332790183" version="4" timestamp="2010-04-08T05:14:57Z" uid="30201" user="rrankin" changeset="4361025" lat="-33.7020673" lon="150.5807607"/>
  <node id="332790185" version="3" timestamp="2010-04-08T05:14:55Z" uid="30201" user="rrankin" changeset="4361025" lat="-33.7018976" lon="150.5752621"/>
  <node id="332790581" version="1" timestamp="2009-01-18T00:24:05Z" uid="4467" user="Rosscoe" changeset="803646" lat="-20.3229885" lon="148.6356742">
    <tag k="created_by" v="Potlatch 0.10f"/>
  </node>
  <node id="332790581" version="2" timestamp="2009-01-18T00:24:25Z" uid="4467" user="Rosscoe" changeset="803646" lat="-20.3229885" lon="148.6356742">
    <tag k="addr:city" v="Sugarloaf"/>
    <tag k="addr:country" v="AU"/>
    <tag k="addr:housenumber" v="1247"/>
    <tag k="addr:postcode" v="4802"/>
    <tag k="addr:street" v="Gregory Cannon Valley Road"/>
    <tag k="created_by" v="Potlatch 0.10f"/>
    <tag k="source" v="survey"/>
  </node>
  <node id="332790581" version="3" timestamp="2009-01-18T00:24:40Z" uid="4467" user="Rosscoe" changeset="803646" lat="-20.3229885" lon="148.6356742">
    <tag k="addr:city" v="Sugarloaf"/>
    <tag k="addr:country" v="AU"/>
    <tag k="addr:housenumber" v="1247"/>
    <tag k="addr:postcode" v="4802"/>
    <tag k="addr:street" v="Sugarloaf Road"/>
    <tag k="created_by" v="Potlatch 0.10f"/>
    <tag k="source" v="survey"/>
  </node>
  <node id="332790642" version="1" timestamp="2009-01-18T00:25:23Z" uid="4467" user="Rosscoe" changeset="803646" lat="-20.3200346" lon="148.6548917">
    <tag k="addr:city" v="Cannon Valley"/>
    <tag k="addr:country" v="AU"/>
    <tag k="addr:housenumber" v="1406"/>
    <tag k="addr:postcode" v="4802"/>
    <tag k="addr:street" v="Shute Harbour Road"/>
    <tag k="created_by" v="Potlatch 0.10f"/>
    <tag k="source" v="survey"/>
  </node>
  <node id="332790642" version="2" timestamp="2009-01-18T00:25:41Z" uid="4467" user="Rosscoe" changeset="803646" lat="-20.3201151" lon="148.6550205">
    <tag k="addr:city" v="Cannon Valley"/>
    <tag k="addr:country" v="AU"/>
    <tag k="addr:housenumber" v="1406"/>
    <tag k="addr:postcode" v="4802"/>
    <tag k="addr:street" v="Shute Harbour Road"/>
    <tag k="created_by" v="Potlatch 0.10f"/>
    <tag k="source" v="survey"/>
  </node>
  <node id="332790642" version="3" timestamp="2009-01-18T00:27:10Z" uid="4467" user="Rosscoe" changeset="803646" lat="-20.3200748" lon="148.6546771">
    <tag k="addr:city" v="Cannon Valley"/>
    <tag k="addr:country" v="AU"/>
    <tag k="addr:housenumber" v="1406"/>
    <tag k="addr:postcode" v="4802"/>
    <tag k="addr:street" v="Shute Harbour Road"/>
    <tag k="created_by" v="Potlatch 0.10f"/>
    <tag k="source" v="survey"/>
  </node>
  <node id="332790696" version="1" timestamp="2009-01-18T00:25:54Z" uid="4467" user="Rosscoe" changeset="803646" lat="-20.3155673" lon="148.6563938">
    <tag k="created_by" v="Potlatch 0.10f"/>
  </node>
  <node id="332790696" version="2" timestamp="2009-01-18T00:26:29Z" uid="4467" user="Rosscoe" changeset="803646" lat="-20.3155673" lon="148.6563938">
    <tag k="addr:city" v="Cannon Valley"/>
    <tag k="addr:country" v="AU"/>
    <tag k="addr:housenumber" v="1462"/>
    <tag k="addr:postcode" v="4802"/>
    <tag k="addr:street" v="Shute Harbour Road"/>
    <tag k="created_by" v="Potlatch 0.10f"/>
    <tag k="source" v="survey"/>
  </node>
  <node id="332790696" version="3" timestamp="2009-01-18T00:27:14Z" uid="4467" user="Rosscoe" changeset="803646" lat="-20.3156076" lon="148.6561363">
    <tag k="addr:city" v="Cannon Valley"/>
    <tag k="addr:country" v="AU"/>
    <tag k="addr:housenumber" v="1462"/>
    <tag k="addr:postcode" v="4802"/>
    <tag k="addr:street" v="Shute Harbour Road"/>
    <tag k="created_by" v="Potlatch 0.10f"/>
    <tag k="source" v="survey"/>
  </node>
  <node id="332790699" version="1" timestamp="2009-01-18T00:25:56Z" uid="4467" user="Rosscoe" changeset="803646" lat="-20.3149637" lon="148.6565225">
    <tag k="created_by" v="Potlatch 0.10f"/>
  </node>
  <node id="332790699" version="2" timestamp="2009-01-18T00:26:06Z" uid="4467" user="Rosscoe" changeset="803646" lat="-20.3149637" lon="148.6565225">
    <tag k="addr:city" v="Cannon Valley"/>
    <tag k="addr:country" v="AU"/>
    <tag k="addr:housenumber" v="1464"/>
    <tag k="addr:postcode" v="4802"/>
    <tag k="addr:street" v="Shute Harbour Road"/>
    <tag k="created_by" v="Potlatch 0.10f"/>
  </node>
  <node id="332790699" version="3" timestamp="2009-01-18T00:26:46Z" uid="4467" user="Rosscoe" changeset="803646" lat="-20.3149637" lon="148.6565225">
    <tag k="addr:city" v="Cannon Valley"/>
    <tag k="addr:country" v="AU"/>
    <tag k="addr:housenumber" v="1464"/>
    <tag k="addr:postcode" v="4802"/>
    <tag k="addr:street" v="Shute Harbour Road"/>
    <tag k="created_by" v="Potlatch 0.10f"/>
    <tag k="source" v="survey"/>
  </node>
  <node id="332790699" version="4" timestamp="2009-01-18T00:27:19Z" uid="4467" user="Rosscoe" changeset="803646" lat="-20.3151246" lon="148.6563079">
    <tag k="addr:city" v="Cannon Valley"/>
    <tag k="addr:country" v="AU"/>
    <tag k="addr:housenumber" v="1464"/>
    <tag k="addr:postcode" v="4802"/>
    <tag k="addr:street" v="Shute Harbour Road"/>
    <tag k="created_by" v="Potlatch 0.10f"/>
    <tag k="source" v="survey"/>
  </node>
  <node id="332792168" version="8" timestamp="2009-07-23T02:17:00Z" uid="123700" user="Mala" changeset="1910715" lat="12.1821283" lon="-68.9967467">
    <tag k="capital_city" v="Willemstad"/>
    <tag k="country_code_fips" v="NT"/>
    <tag k="country_code_iso3166_1_alpha_2" v="AN"/>
    <tag k="geonames:id" v="3513447"/>
    <tag k="int_name" v="Netherlands Antilles"/>
    <tag k="is_in:sea" v="Caribbean Sea"/>
    <tag k="name" v="De Nederlandse Antillen"/>
    <tag k="name:ar" v="جزر الأنتيل"/>
    <tag k="name:cy" v="Antilles yr Iseldiroedd"/>
    <tag k="name:da" v="Nederlandske Antiller"/>
    <tag k="name:en" v="Netherlands Antilles"/>
    <tag k="name:eo" v="Nederlandaj Antiloj"/>
    <tag k="name:es" v="Antillas Neerlandesas;Antillas Holandesas;Indias Occidentales Holandesas"/>
    <tag k="name:fr" v="Antilles néerlandaises"/>
    <tag k="name:hu" v="Holland Antillák"/>
    <tag k="name:it" v="Antille olandesi;Antille nederlandesi"/>
    <tag k="name:pl" v="Antyle Holenderskie"/>
    <tag k="place" v="country"/>
    <tag k="watch:hakan" v="countries"/>
    <tag k="wikipedia" v="Netherlands Antilles"/>
  </node>
  <node id="332792168" version="9" timestamp="2009-08-12T20:58:38Z" uid="111159" user="MaZderMind" changeset="2124086" lat="12.1821283" lon="-68.9967467">
    <tag k="capital_city" v="Willemstad"/>
    <tag k="country_code_fips" v="NT"/>
    <tag k="country_code_iso3166_1_alpha_2" v="AN"/>
    <tag k="geonames:id" v="3513447"/>
    <tag k="int_name" v="Netherlands Antilles"/>
    <tag k="is_in:sea" v="Caribbean Sea"/>
    <tag k="name" v="De Nederlandse Antillen"/>
    <tag k="name:ar" v="جزر الأنتيل"/>
    <tag k="name:cy" v="Antilles yr Iseldiroedd"/>
    <tag k="name:da" v="Nederlandske Antiller"/>
    <tag k="name:de" v="Niederländische Antillen"/>
    <tag k="name:en" v="Netherlands Antilles"/>
    <tag k="name:eo" v="Nederlandaj Antiloj"/>
    <tag k="name:es" v="Antillas Neerlandesas;Antillas Holandesas;Indias Occidentales Holandesas"/>
    <tag k="name:fr" v="Antilles néerlandaises"/>
    <tag k="name:hu" v="Holland Antillák"/>
    <tag k="name:it" v="Antille olandesi;Antille nederlandesi"/>
    <tag k="name:pl" v="Antyle Holenderskie"/>
    <tag k="place" v="country"/>
    <tag k="watch:hakan" v="countries"/>
    <tag k="wikipedia" v="Netherlands Antilles"/>
  </node>
  <node id="332792168" version="10" timestamp="2009-08-12T22:42:26Z" uid="137" user="simone" changeset="2124826" lat="12.1821301" lon="-68.9967475">
    <tag k="capital_city" v="Willemstad"/>
    <tag k="country_code_fips" v="NT"/>
    <tag k="country_code_iso3166_1_alpha_2" v="AN"/>
    <tag k="geonames:id" v="3513447"/>
    <tag k="int_name" v="Netherlands Antilles"/>
    <tag k="is_in:sea" v="Caribbean Sea"/>
    <tag k="name" v="De Nederlandse Antillen"/>
    <tag k="name:ar" v="جزر الأنتيل"/>
    <tag k="name:cy" v="Antilles yr Iseldiroedd"/>
    <tag k="name:da" v="Nederlandske Antiller"/>
    <tag k="name:de" v="Niederländische Antillen"/>
    <tag k="name:en" v="Netherlands Antilles"/>
    <tag k="name:eo" v="Nederlandaj Antiloj"/>
    <tag k="name:es" v="Antillas Neerlandesas;Antillas Holandesas;Indias Occidentales Holandesas"/>
    <tag k="name:fr" v="Antilles néerlandaises"/>
    <tag k="name:hu" v="Holland Antillák"/>
    <tag k="name:it" v="Antille Olandesi"/>
    <tag k="name:pl" v="Antyle Holenderskie"/>
    <tag k="place" v="country"/>
    <tag k="watch:hakan" v="countries"/>
    <tag k="wikipedia" v="Netherlands Antilles"/>
  </node>
  <node id="332792168" version="11" timestamp="2009-08-13T00:22:37Z" uid="38239" user="Daeron" changeset="2125398" lat="12.1821301" lon="-68.9967475">
    <tag k="capital_city" v="Willemstad"/>
    <tag k="country_code_fips" v="NT"/>
    <tag k="country_code_iso3166_1_alpha_2" v="AN"/>
    <tag k="geonames:id" v="3513447"/>
    <tag k="int_name" v="Netherlands Antilles"/>
    <tag k="is_in:sea" v="Caribbean Sea"/>
    <tag k="name" v="De Nederlandse Antillen"/>
    <tag k="name:ar" v="جزر الأنتيل"/>
    <tag k="name:cy" v="Antilles yr Iseldiroedd"/>
    <tag k="name:da" v="Nederlandske Antiller"/>
    <tag k="name:de" v="Niederländische Antillen"/>
    <tag k="name:en" v="Netherlands Antilles"/>
    <tag k="name:eo" v="Nederlandaj Antiloj"/>
    <tag k="name:es" v="Antillas Neerlandesas;Antillas Holandesas;Indias Occidentales Holandesas"/>
    <tag k="name:fi" v="Alankomaiden Antillit"/>
    <tag k="name:fr" v="Antilles néerlandaises"/>
    <tag k="name:hu" v="Holland Antillák"/>
    <tag k="name:it" v="Antille Olandesi"/>
    <tag k="name:pl" v="Antyle Holenderskie"/>
    <tag k="place" v="country"/>
    <tag k="watch:hakan" v="countries"/>
    <tag k="wikipedia" v="Netherlands Antilles"/>
  </node>
  <node id="332792168" version="12" timestamp="2009-08-13T02:13:14Z" uid="48796" user="Ldp" changeset="2125999" lat="12.1821301" lon="-68.9967475">
    <tag k="capital_city" v="Willemstad"/>
    <tag k="country_code_fips" v="NT"/>
    <tag k="country_code_iso3166_1_alpha_2" v="AN"/>
    <tag k="geonames:id" v="3513447"/>
    <tag k="int_name" v="Netherlands Antilles"/>
    <tag k="is_in:sea" v="Caribbean Sea"/>
    <tag k="name" v="De Nederlandse Antillen"/>
    <tag k="name:ar" v="جزر الأنتيل"/>
    <tag k="name:cy" v="Antilles yr Iseldiroedd"/>
    <tag k="name:da" v="Nederlandske Antiller"/>
    <tag k="name:de" v="Niederländische Antillen"/>
    <tag k="name:en" v="Netherlands Antilles"/>
    <tag k="name:eo" v="Nederlandaj Antiloj"/>
    <tag k="name:es" v="Antillas Neerlandesas;Antillas Holandesas;Indias Occidentales Holandesas"/>
    <tag k="name:fi" v="Alankomaiden Antillit"/>
    <tag k="name:fr" v="Antilles néerlandaises"/>
    <tag k="name:fy" v="de Nederlânske Antillen"/>
    <tag k="name:hu" v="Holland Antillák"/>
    <tag k="name:it" v="Antille Olandesi"/>
    <tag k="name:pl" v="Antyle Holenderskie"/>
    <tag k="place" v="country"/>
    <tag k="watch:hakan" v="countries"/>
    <tag k="wikipedia" v="Netherlands Antilles"/>
  </node>
  <node id="332792168" version="13" timestamp="2009-08-13T02:31:45Z" uid="24965" user="Ævar Arnfjörð Bjarmason" changeset="2126066" lat="12.1821301" lon="-68.9967475">
    <tag k="capital_city" v="Willemstad"/>
    <tag k="country_code_fips" v="NT"/>
    <tag k="country_code_iso3166_1_alpha_2" v="AN"/>
    <tag k="geonames:id" v="3513447"/>
    <tag k="int_name" v="Netherlands Antilles"/>
    <tag k="is_in:sea" v="Caribbean Sea"/>
    <tag k="name" v="De Nederlandse Antillen"/>
    <tag k="name:ar" v="جزر الأنتيل"/>
    <tag k="name:cy" v="Antilles yr Iseldiroedd"/>
    <tag k="name:da" v="Nederlandske Antiller"/>
    <tag k="name:de" v="Niederländische Antillen"/>
    <tag k="name:en" v="Netherlands Antilles"/>
    <tag k="name:eo" v="Nederlandaj Antiloj"/>
    <tag k="name:es" v="Antillas Neerlandesas;Antillas Holandesas;Indias Occidentales Holandesas"/>
    <tag k="name:fi" v="Alankomaiden Antillit"/>
    <tag k="name:fr" v="Antilles néerlandaises"/>
    <tag k="name:fy" v="de Nederlânske Antillen"/>
    <tag k="name:hu" v="Holland Antillák"/>
    <tag k="name:is" v="Hollensku Antillaeyjar"/>
    <tag k="name:it" v="Antille Olandesi"/>
    <tag k="name:pl" v="Antyle Holenderskie"/>
    <tag k="place" v="country"/>
    <tag k="watch:hakan" v="countries"/>
    <tag k="wikipedia" v="Netherlands Antilles"/>
  </node>
  <node id="332792168" version="14" timestamp="2009-08-13T02:54:28Z" uid="48796" user="Ldp" changeset="2126139" lat="12.1821301" lon="-68.9967475">
    <tag k="capital_city" v="Willemstad"/>
    <tag k="country_code_fips" v="NT"/>
    <tag k="country_code_iso3166_1_alpha_2" v="AN"/>
    <tag k="geonames:id" v="3513447"/>
    <tag k="int_name" v="Netherlands Antilles"/>
    <tag k="is_in:sea" v="Caribbean Sea"/>
    <tag k="name" v="De Nederlandse Antillen"/>
    <tag k="name:af" v="Nederlands-Antille"/>
    <tag k="name:ar" v="جزر الأنتيل"/>
    <tag k="name:cy" v="Antilles yr Iseldiroedd"/>
    <tag k="name:da" v="Nederlandske Antiller"/>
    <tag k="name:de" v="Niederländische Antillen"/>
    <tag k="name:en" v="Netherlands Antilles"/>
    <tag k="name:eo" v="Nederlandaj Antiloj"/>
    <tag k="name:es" v="Antillas Neerlandesas;Antillas Holandesas;Indias Occidentales Holandesas"/>
    <tag k="name:fi" v="Alankomaiden Antillit"/>
    <tag k="name:fr" v="Antilles néerlandaises"/>
    <tag k="name:fy" v="de Nederlânske Antillen"/>
    <tag k="name:hu" v="Holland Antillák"/>
    <tag k="name:is" v="Hollensku Antillaeyjar"/>
    <tag k="name:it" v="Antille Olandesi"/>
    <tag k="name:pl" v="Antyle Holenderskie"/>
    <tag k="place" v="country"/>
    <tag k="watch:hakan" v="countries"/>
    <tag k="wikipedia" v="Netherlands Antilles"/>
  </node>
  <node id="332792168" version="15" timestamp="2009-08-13T03:36:43Z" uid="48796" user="Ldp" changeset="2126285" lat="12.1821301" lon="-68.9967475">
    <tag k="capital_city" v="Willemstad"/>
    <tag k="country_code_fips" v="NT"/>
    <tag k="country_code_iso3166_1_alpha_2" v="AN"/>
    <tag k="geonames:id" v="3513447"/>
    <tag k="int_name" v="Netherlands Antilles"/>
    <tag k="is_in:sea" v="Caribbean Sea"/>
    <tag k="name" v="De Nederlandse Antillen"/>
    <tag k="name:af" v="Nederlands-Antille"/>
    <tag k="name:ar" v="جزر الأنتيل"/>
    <tag k="name:cy" v="Antilles yr Iseldiroedd"/>
    <tag k="name:da" v="Nederlandske Antiller"/>
    <tag k="name:de" v="Niederländische Antillen"/>
    <tag k="name:en" v="Netherlands Antilles"/>
    <tag k="name:eo" v="Nederlandaj Antiloj"/>
    <tag k="name:es" v="Antillas Neerlandesas;Antillas Holandesas;Indias Occidentales Holandesas"/>
    <tag k="name:fi" v="Alankomaiden Antillit"/>
    <tag k="name:fr" v="Antilles néerlandaises"/>
    <tag k="name:fy" v="de Nederlânske Antillen"/>
    <tag k="name:hu" v="Holland Antillák"/>
    <tag k="name:is" v="Hollensku Antillaeyjar"/>
    <tag k="name:it" v="Antille Olandesi"/>
    <tag k="name:pl" v="Antyle Holenderskie"/>
    <tag k="name:sv" v="Nederländska Antillerna"/>
    <tag k="place" v="country"/>
    <tag k="watch:hakan" v="countries"/>
    <tag k="wikipedia" v="Netherlands Antilles"/>
  </node>
  <node id="332792168" version="16" timestamp="2009-08-13T06:04:54Z" uid="17497" user="katpatuka" changeset="2127021" lat="12.1821343" lon="-68.9967491">
    <tag k="capital_city" v="Willemstad"/>
    <tag k="country_code_fips" v="NT"/>
    <tag k="country_code_iso3166_1_alpha_2" v="AN"/>
    <tag k="geonames:id" v="3513447"/>
    <tag k="int_name" v="Netherlands Antilles"/>
    <tag k="is_in:sea" v="Caribbean Sea"/>
    <tag k="name" v="De Nederlandse Antillen"/>
    <tag k="name:af" v="Nederlands-Antille"/>
    <tag k="name:ar" v="جزر الأنتيل"/>
    <tag k="name:cy" v="Antilles yr Iseldiroedd"/>
    <tag k="name:da" v="Nederlandske Antiller"/>
    <tag k="name:de" v="Niederländische Antillen"/>
    <tag k="name:en" v="Netherlands Antilles"/>
    <tag k="name:eo" v="Nederlandaj Antiloj"/>
    <tag k="name:es" v="Antillas Neerlandesas;Antillas Holandesas;Indias Occidentales Holandesas"/>
    <tag k="name:fi" v="Alankomaiden Antillit"/>
    <tag k="name:fr" v="Antilles néerlandaises"/>
    <tag k="name:fy" v="de Nederlânske Antillen"/>
    <tag k="name:hu" v="Holland Antillák"/>
    <tag k="name:is" v="Hollensku Antillaeyjar"/>
    <tag k="name:it" v="Antille Olandesi"/>
    <tag k="name:pl" v="Antyle Holenderskie"/>
    <tag k="name:sv" v="Nederländska Antillerna"/>
    <tag k="name:tr" v="Hollanda Antilleri"/>
    <tag k="place" v="country"/>
    <tag k="watch:hakan" v="countries"/>
    <tag k="wikipedia" v="Netherlands Antilles"/>
  </node>
  <node id="332792168" version="17" timestamp="2009-08-13T12:06:56Z" uid="152380" user="Rimael" changeset="2130575" lat="12.1821359" lon="-68.9967577">
    <tag k="capital_city" v="Willemstad"/>
    <tag k="country_code_fips" v="NT"/>
    <tag k="country_code_iso3166_1_alpha_2" v="AN"/>
    <tag k="geonames:id" v="3513447"/>
    <tag k="int_name" v="Netherlands Antilles"/>
    <tag k="is_in:sea" v="Caribbean Sea"/>
    <tag k="name" v="De Nederlandse Antillen"/>
    <tag k="name:af" v="Nederlands-Antille"/>
    <tag k="name:ar" v="جزر الأنتيل"/>
    <tag k="name:br" v="Antilhez Nederlandat"/>
    <tag k="name:cy" v="Antilles yr Iseldiroedd"/>
    <tag k="name:da" v="Nederlandske Antiller"/>
    <tag k="name:de" v="Niederländische Antillen"/>
    <tag k="name:en" v="Netherlands Antilles"/>
    <tag k="name:eo" v="Nederlandaj Antiloj"/>
    <tag k="name:es" v="Antillas Neerlandesas;Antillas Holandesas;Indias Occidentales Holandesas"/>
    <tag k="name:fi" v="Alankomaiden Antillit"/>
    <tag k="name:fr" v="Antilles néerlandaises"/>
    <tag k="name:fy" v="de Nederlânske Antillen"/>
    <tag k="name:hu" v="Holland Antillák"/>
    <tag k="name:is" v="Hollensku Antillaeyjar"/>
    <tag k="name:it" v="Antille Olandesi"/>
    <tag k="name:pl" v="Antyle Holenderskie"/>
    <tag k="name:sv" v="Nederländska Antillerna"/>
    <tag k="name:tr" v="Hollanda Antilleri"/>
    <tag k="place" v="country"/>
    <tag k="watch:hakan" v="countries"/>
    <tag k="wikipedia" v="Netherlands Antilles"/>
  </node>
  <node id="332792168" version="18" timestamp="2009-08-13T15:45:42Z" uid="48796" user="Ldp" changeset="2133168" lat="12.1821359" lon="-68.9967577">
    <tag k="capital_city" v="Willemstad"/>
    <tag k="country_code_fips" v="NT"/>
    <tag k="country_code_iso3166_1_alpha_2" v="AN"/>
    <tag k="geonames:id" v="3513447"/>
    <tag k="int_name" v="Netherlands Antilles"/>
    <tag k="is_in:sea" v="Caribbean Sea"/>
    <tag k="name" v="De Nederlandse Antillen"/>
    <tag k="name:af" v="Nederlands-Antille"/>
    <tag k="name:ar" v="جزر الأنتيل"/>
    <tag k="name:br" v="Antilhez Nederlandat"/>
    <tag k="name:cy" v="Antilles yr Iseldiroedd"/>
    <tag k="name:da" v="Nederlandske Antiller"/>
    <tag k="name:de" v="Niederländische Antillen"/>
    <tag k="name:en" v="Netherlands Antilles"/>
    <tag k="name:eo" v="Nederlandaj Antiloj"/>
    <tag k="name:es" v="Antillas Neerlandesas;Antillas Holandesas;Indias Occidentales Holandesas"/>
    <tag k="name:fi" v="Alankomaiden Antillit"/>
    <tag k="name:fr" v="Antilles néerlandaises"/>
    <tag k="name:fy" v="de Nederlânske Antillen"/>
    <tag k="name:hu" v="Holland Antillák"/>
    <tag k="name:is" v="Hollensku Antillaeyjar"/>
    <tag k="name:it" v="Antille Olandesi"/>
    <tag k="name:li" v="Nederlandse Antille"/>
    <tag k="name:pl" v="Antyle Holenderskie"/>
    <tag k="name:sv" v="Nederländska Antillerna"/>
    <tag k="name:tr" v="Hollanda Antilleri"/>
    <tag k="place" v="country"/>
    <tag k="watch:hakan" v="countries"/>
    <tag k="wikipedia" v="Netherlands Antilles"/>
  </node>
  <node id="332792168" version="19" timestamp="2009-08-14T07:28:09Z" uid="38291" user="talba" changeset="2139382" lat="12.1821359" lon="-68.9967577">
    <tag k="capital_city" v="Willemstad"/>
    <tag k="country_code_fips" v="NT"/>
    <tag k="country_code_iso3166_1_alpha_2" v="AN"/>
    <tag k="geonames:id" v="3513447"/>
    <tag k="int_name" v="Netherlands Antilles"/>
    <tag k="is_in:sea" v="Caribbean Sea"/>
    <tag k="name" v="De Nederlandse Antillen"/>
    <tag k="name:af" v="Nederlands-Antille"/>
    <tag k="name:ar" v="جزر الأنتيل"/>
    <tag k="name:br" v="Antilhez Nederlandat"/>
    <tag k="name:cy" v="Antilles yr Iseldiroedd"/>
    <tag k="name:da" v="Nederlandske Antiller"/>
    <tag k="name:de" v="Niederländische Antillen"/>
    <tag k="name:en" v="Netherlands Antilles"/>
    <tag k="name:eo" v="Nederlandaj Antiloj"/>
    <tag k="name:es" v="Antillas Neerlandesas;Antillas Holandesas;Indias Occidentales Holandesas"/>
    <tag k="name:fi" v="Alankomaiden Antillit"/>
    <tag k="name:fr" v="Antilles néerlandaises"/>
    <tag k="name:fy" v="de Nederlânske Antillen"/>
    <tag k="name:he" v="האנטילים ההולנדיים"/>
    <tag k="name:hu" v="Holland Antillák"/>
    <tag k="name:is" v="Hollensku Antillaeyjar"/>
    <tag k="name:it" v="Antille Olandesi"/>
    <tag k="name:li" v="Nederlandse Antille"/>
    <tag k="name:pl" v="Antyle Holenderskie"/>
    <tag k="name:sv" v="Nederländska Antillerna"/>
    <tag k="name:tr" v="Hollanda Antilleri"/>
    <tag k="place" v="country"/>
    <tag k="watch:hakan" v="countries"/>
    <tag k="wikipedia" v="Netherlands Antilles"/>
  </node>
  <node id="332792168" version="20" timestamp="2009-08-14T20:26:56Z" uid="12494" user="Aleksandr Dezhin" changeset="2147664" lat="12.1821359" lon="-68.9967577">
    <tag k="capital_city" v="Willemstad"/>
    <tag k="country_code_fips" v="NT"/>
    <tag k="country_code_iso3166_1_alpha_2" v="AN"/>
    <tag k="geonames:id" v="3513447"/>
    <tag k="int_name" v="Netherlands Antilles"/>
    <tag k="is_in:sea" v="Caribbean Sea"/>
    <tag k="name" v="De Nederlandse Antillen"/>
    <tag k="name:af" v="Nederlands-Antille"/>
    <tag k="name:ar" v="جزر الأنتيل"/>
    <tag k="name:br" v="Antilhez Nederlandat"/>
    <tag k="name:cy" v="Antilles yr Iseldiroedd"/>
    <tag k="name:da" v="Nederlandske Antiller"/>
    <tag k="name:de" v="Niederländische Antillen"/>
    <tag k="name:en" v="Netherlands Antilles"/>
    <tag k="name:eo" v="Nederlandaj Antiloj"/>
    <tag k="name:es" v="Antillas Neerlandesas;Antillas Holandesas;Indias Occidentales Holandesas"/>
    <tag k="name:fi" v="Alankomaiden Antillit"/>
    <tag k="name:fr" v="Antilles néerlandaises"/>
    <tag k="name:fy" v="de Nederlânske Antillen"/>
    <tag k="name:he" v="האנטילים ההולנדיים"/>
    <tag k="name:hu" v="Holland Antillák"/>
    <tag k="name:is" v="Hollensku Antillaeyjar"/>
    <tag k="name:it" v="Antille Olandesi"/>
    <tag k="name:li" v="Nederlandse Antille"/>
    <tag k="name:pl" v="Antyle Holenderskie"/>
    <tag k="name:ru" v="Нидерландские Антильские острова"/>
    <tag k="name:sv" v="Nederländska Antillerna"/>
    <tag k="name:tr" v="Hollanda Antilleri"/>
    <tag k="place" v="country"/>
    <tag k="watch:hakan" v="countries"/>
    <tag k="wikipedia" v="Netherlands Antilles"/>
  </node>
  <node id="332792168" version="21" timestamp="2009-08-15T09:05:47Z" uid="61891" user="stephankn" changeset="2151298" lat="12.1821359" lon="-68.9967577">
    <tag k="capital_city" v="Willemstad"/>
    <tag k="country_code_fips" v="NT"/>
    <tag k="country_code_iso3166_1_alpha_2" v="AN"/>
    <tag k="geonames:id" v="3513447"/>
    <tag k="int_name" v="Netherlands Antilles"/>
    <tag k="is_in:sea" v="Caribbean Sea"/>
    <tag k="name" v="De Nederlandse Antillen"/>
    <tag k="name:af" v="Nederlands-Antille"/>
    <tag k="name:ar" v="جزر الأنتيل"/>
    <tag k="name:br" v="Antilhez Nederlandat"/>
    <tag k="name:cy" v="Antilles yr Iseldiroedd"/>
    <tag k="name:da" v="Nederlandske Antiller"/>
    <tag k="name:de" v="Niederländische Antillen"/>
    <tag k="name:en" v="Netherlands Antilles"/>
    <tag k="name:eo" v="Nederlandaj Antiloj"/>
    <tag k="name:es" v="Antillas Neerlandesas;Antillas Holandesas;Indias Occidentales Holandesas"/>
    <tag k="name:fi" v="Alankomaiden Antillit"/>
    <tag k="name:fr" v="Antilles néerlandaises"/>
    <tag k="name:fy" v="de Nederlânske Antillen"/>
    <tag k="name:he" v="האנטילים ההולנדיים"/>
    <tag k="name:hu" v="Holland Antillák"/>
    <tag k="name:is" v="Hollensku Antillaeyjar"/>
    <tag k="name:it" v="Antille Olandesi"/>
    <tag k="name:li" v="Nederlandse Antille"/>
    <tag k="name:pl" v="Antyle Holenderskie"/>
    <tag k="name:ru" v="Нидерландские Антильские острова"/>
    <tag k="name:sv" v="Nederländska Antillerna"/>
    <tag k="name:th" v="เนเธอร์แลนด์แอนทิลลิส"/>
    <tag k="name:tr" v="Hollanda Antilleri"/>
    <tag k="place" v="country"/>
    <tag k="watch:hakan" v="countries"/>
    <tag k="wikipedia" v="Netherlands Antilles"/>
  </node>
  <node id="332792168" version="22" timestamp="2009-08-15T10:16:30Z" uid="9176" user="Maarten Deen" changeset="2152053" lat="12.1821427" lon="-68.9967663">
    <tag k="capital_city" v="Willemstad"/>
    <tag k="country_code_fips" v="NT"/>
    <tag k="country_code_iso3166_1_alpha_2" v="AN"/>
    <tag k="geonames:id" v="3513447"/>
    <tag k="int_name" v="Netherlands Antilles"/>
    <tag k="is_in:sea" v="Caribbean Sea"/>
    <tag k="name" v="De Nederlandse Antillen"/>
    <tag k="name:af" v="Nederlands-Antille"/>
    <tag k="name:ar" v="جزر الأنتيل"/>
    <tag k="name:br" v="Antilhez Nederlandat"/>
    <tag k="name:ca" v="Antilles Neerlandeses"/>
    <tag k="name:cy" v="Antilles yr Iseldiroedd"/>
    <tag k="name:da" v="Nederlandske Antiller"/>
    <tag k="name:de" v="Niederländische Antillen"/>
    <tag k="name:en" v="Netherlands Antilles"/>
    <tag k="name:eo" v="Nederlandaj Antiloj"/>
    <tag k="name:es" v="Antillas Neerlandesas;Antillas Holandesas;Indias Occidentales Holandesas"/>
    <tag k="name:fi" v="Alankomaiden Antillit"/>
    <tag k="name:fr" v="Antilles néerlandaises"/>
    <tag k="name:fy" v="de Nederlânske Antillen"/>
    <tag k="name:he" v="האנטילים ההולנדיים"/>
    <tag k="name:hu" v="Holland Antillák"/>
    <tag k="name:is" v="Hollensku Antillaeyjar"/>
    <tag k="name:it" v="Antille Olandesi"/>
    <tag k="name:li" v="Nederlandse Antille"/>
    <tag k="name:pl" v="Antyle Holenderskie"/>
    <tag k="name:ru" v="Нидерландские Антильские острова"/>
    <tag k="name:sv" v="Nederländska Antillerna"/>
    <tag k="name:th" v="เนเธอร์แลนด์แอนทิลลิส"/>
    <tag k="name:tr" v="Hollanda Antilleri"/>
    <tag k="place" v="country"/>
    <tag k="watch:hakan" v="countries"/>
    <tag k="wikipedia" v="Netherlands Antilles"/>
  </node>
  <node id="332792168" version="23" timestamp="2009-08-15T16:10:42Z" uid="5553" user="dkt" changeset="2155640" lat="12.182144" lon="-68.9967701">
    <tag k="capital_city" v="Willemstad"/>
    <tag k="country_code_fips" v="NT"/>
    <tag k="country_code_iso3166_1_alpha_2" v="AN"/>
    <tag k="geonames:id" v="3513447"/>
    <tag k="int_name" v="Netherlands Antilles"/>
    <tag k="is_in:sea" v="Caribbean Sea"/>
    <tag k="name" v="De Nederlandse Antillen"/>
    <tag k="name:af" v="Nederlands-Antille"/>
    <tag k="name:ar" v="جزر الأنتيل"/>
    <tag k="name:br" v="Antilhez Nederlandat"/>
    <tag k="name:ca" v="Antilles Neerlandeses"/>
    <tag k="name:cy" v="Antilles yr Iseldiroedd"/>
    <tag k="name:da" v="Nederlandske Antiller"/>
    <tag k="name:de" v="Niederländische Antillen"/>
    <tag k="name:en" v="Netherlands Antilles"/>
    <tag k="name:eo" v="Nederlandaj Antiloj"/>
    <tag k="name:es" v="Antillas Neerlandesas;Antillas Holandesas;Indias Occidentales Holandesas"/>
    <tag k="name:fi" v="Alankomaiden Antillit"/>
    <tag k="name:fr" v="Antilles néerlandaises"/>
    <tag k="name:fy" v="de Nederlânske Antillen"/>
    <tag k="name:he" v="האנטילים ההולנדיים"/>
    <tag k="name:hu" v="Holland Antillák"/>
    <tag k="name:is" v="Hollensku Antillaeyjar"/>
    <tag k="name:it" v="Antille Olandesi"/>
    <tag k="name:li" v="Nederlandse Antille"/>
    <tag k="name:pl" v="Antyle Holenderskie"/>
    <tag k="name:ru" v="Нидерландские Антильские острова"/>
    <tag k="name:sv" v="Nederländska Antillerna"/>
    <tag k="name:th" v="เนเธอร์แลนด์แอนทิลลิส"/>
    <tag k="name:tr" v="Hollanda Antilleri"/>
    <tag k="name:zh" v="荷属安的列斯"/>
    <tag k="place" v="country"/>
    <tag k="watch:hakan" v="countries"/>
    <tag k="wikipedia" v="Netherlands Antilles"/>
  </node>
  <node id="332792168" version="24" timestamp="2009-08-15T20:30:01Z" uid="140069" user="kebil" changeset="2158298" lat="12.1821448" lon="-68.9967784">
    <tag k="capital_city" v="Willemstad"/>
    <tag k="country_code_fips" v="NT"/>
    <tag k="country_code_iso3166_1_alpha_2" v="AN"/>
    <tag k="geonames:id" v="3513447"/>
    <tag k="int_name" v="Netherlands Antilles"/>
    <tag k="is_in:sea" v="Caribbean Sea"/>
    <tag k="name" v="De Nederlandse Antillen"/>
    <tag k="name:af" v="Nederlands-Antille"/>
    <tag k="name:ar" v="جزر الأنتيل"/>
    <tag k="name:br" v="Antilhez Nederlandat"/>
    <tag k="name:ca" v="Antilles Neerlandeses"/>
    <tag k="name:cy" v="Antilles yr Iseldiroedd"/>
    <tag k="name:da" v="Nederlandske Antiller"/>
    <tag k="name:de" v="Niederländische Antillen"/>
    <tag k="name:en" v="Netherlands Antilles"/>
    <tag k="name:eo" v="Nederlandaj Antiloj"/>
    <tag k="name:es" v="Antillas Neerlandesas;Antillas Holandesas;Indias Occidentales Holandesas"/>
    <tag k="name:fi" v="Alankomaiden Antillit"/>
    <tag k="name:fr" v="Antilles néerlandaises"/>
    <tag k="name:fy" v="de Nederlânske Antillen"/>
    <tag k="name:he" v="האנטילים ההולנדיים"/>
    <tag k="name:hu" v="Holland Antillák"/>
    <tag k="name:is" v="Hollensku Antillaeyjar"/>
    <tag k="name:it" v="Antille Olandesi"/>
    <tag k="name:li" v="Nederlandse Antille"/>
    <tag k="name:lt" v="Olandijos Antilai"/>
    <tag k="name:pl" v="Antyle Holenderskie"/>
    <tag k="name:ru" v="Нидерландские Антильские острова"/>
    <tag k="name:sv" v="Nederländska Antillerna"/>
    <tag k="name:th" v="เนเธอร์แลนด์แอนทิลลิส"/>
    <tag k="name:tr" v="Hollanda Antilleri"/>
    <tag k="name:zh" v="荷属安的列斯"/>
    <tag k="place" v="country"/>
    <tag k="watch:hakan" v="countries"/>
    <tag k="wikipedia" v="Netherlands Antilles"/>
  </node>
  <node id="332792168" version="25" timestamp="2009-08-16T07:14:35Z" uid="33377" user="Victor LP" changeset="2160824" lat="12.1821448" lon="-68.9967784">
    <tag k="capital_city" v="Willemstad"/>
    <tag k="country_code_fips" v="NT"/>
    <tag k="country_code_iso3166_1_alpha_2" v="AN"/>
    <tag k="geonames:id" v="3513447"/>
    <tag k="int_name" v="Netherlands Antilles"/>
    <tag k="is_in:sea" v="Caribbean Sea"/>
    <tag k="name" v="De Nederlandse Antillen"/>
    <tag k="name:af" v="Nederlands-Antille"/>
    <tag k="name:ar" v="جزر الأنتيل"/>
    <tag k="name:br" v="Antilhez Nederlandat"/>
    <tag k="name:ca" v="Antilles Neerlandeses"/>
    <tag k="name:cy" v="Antilles yr Iseldiroedd"/>
    <tag k="name:da" v="Nederlandske Antiller"/>
    <tag k="name:de" v="Niederländische Antillen"/>
    <tag k="name:el" v="Ολλανδικές Αντίλλες"/>
    <tag k="name:en" v="Netherlands Antilles"/>
    <tag k="name:eo" v="Nederlandaj Antiloj"/>
    <tag k="name:es" v="Antillas Neerlandesas;Antillas Holandesas;Indias Occidentales Holandesas"/>
    <tag k="name:fi" v="Alankomaiden Antillit"/>
    <tag k="name:fr" v="Antilles néerlandaises"/>
    <tag k="name:fy" v="de Nederlânske Antillen"/>
    <tag k="name:he" v="האנטילים ההולנדיים"/>
    <tag k="name:hu" v="Holland Antillák"/>
    <tag k="name:is" v="Hollensku Antillaeyjar"/>
    <tag k="name:it" v="Antille Olandesi"/>
    <tag k="name:li" v="Nederlandse Antille"/>
    <tag k="name:lt" v="Olandijos Antilai"/>
    <tag k="name:pl" v="Antyle Holenderskie"/>
    <tag k="name:ru" v="Нидерландские Антильские острова"/>
    <tag k="name:sv" v="Nederländska Antillerna"/>
    <tag k="name:th" v="เนเธอร์แลนด์แอนทิลลิส"/>
    <tag k="name:tr" v="Hollanda Antilleri"/>
    <tag k="name:zh" v="荷属安的列斯"/>
    <tag k="place" v="country"/>
    <tag k="watch:hakan" v="countries"/>
    <tag k="wikipedia" v="Netherlands Antilles"/>
  </node>
  <node id="332792168" version="26" timestamp="2009-08-16T07:47:02Z" uid="18069" user="Claudius Henrichs" changeset="2161110" lat="12.1821448" lon="-68.9967784">
    <tag k="capital_city" v="Willemstad"/>
    <tag k="country_code_fips" v="NT"/>
    <tag k="country_code_iso3166_1_alpha_2" v="AN"/>
    <tag k="geonames:id" v="3513447"/>
    <tag k="int_name" v="Netherlands Antilles"/>
    <tag k="is_in:sea" v="Caribbean Sea"/>
    <tag k="name" v="De Nederlandse Antillen"/>
    <tag k="name:af" v="Nederlands-Antille"/>
    <tag k="name:ar" v="جزر الأنتيل"/>
    <tag k="name:br" v="Antilhez Nederlandat"/>
    <tag k="name:ca" v="Antilles Neerlandeses"/>
    <tag k="name:cy" v="Antilles yr Iseldiroedd"/>
    <tag k="name:da" v="Nederlandske Antiller"/>
    <tag k="name:de" v="Niederländische Antillen"/>
    <tag k="name:el" v="Ολλανδικές Αντίλλες"/>
    <tag k="name:en" v="Netherlands Antilles"/>
    <tag k="name:eo" v="Nederlandaj Antiloj"/>
    <tag k="name:es" v="Antillas Neerlandesas;Antillas Holandesas;Indias Occidentales Holandesas"/>
    <tag k="name:fa" v="آنتیل هلند"/>
    <tag k="name:fi" v="Alankomaiden Antillit"/>
    <tag k="name:fr" v="Antilles néerlandaises"/>
    <tag k="name:fy" v="de Nederlânske Antillen"/>
    <tag k="name:he" v="האנטילים ההולנדיים"/>
    <tag k="name:hu" v="Holland Antillák"/>
    <tag k="name:is" v="Hollensku Antillaeyjar"/>
    <tag k="name:it" v="Antille Olandesi"/>
    <tag k="name:li" v="Nederlandse Antille"/>
    <tag k="name:lt" v="Olandijos Antilai"/>
    <tag k="name:pl" v="Antyle Holenderskie"/>
    <tag k="name:ru" v="Нидерландские Антильские острова"/>
    <tag k="name:sv" v="Nederländska Antillerna"/>
    <tag k="name:th" v="เนเธอร์แลนด์แอนทิลลิส"/>
    <tag k="name:tr" v="Hollanda Antilleri"/>
    <tag k="name:zh" v="荷属安的列斯"/>
    <tag k="place" v="country"/>
    <tag k="watch:hakan" v="countries"/>
    <tag k="wikipedia" v="Netherlands Antilles"/>
  </node>
  <node id="332792168" version="27" timestamp="2009-08-16T12:36:01Z" uid="17497" user="katpatuka" changeset="2164822" lat="12.182149" lon="-68.99678">
    <tag k="capital_city" v="Willemstad"/>
    <tag k="country_code_fips" v="NT"/>
    <tag k="country_code_iso3166_1_alpha_2" v="AN"/>
    <tag k="geonames:id" v="3513447"/>
    <tag k="int_name" v="Netherlands Antilles"/>
    <tag k="is_in:sea" v="Caribbean Sea"/>
    <tag k="name" v="De Nederlandse Antillen"/>
    <tag k="name:af" v="Nederlands-Antille"/>
    <tag k="name:ar" v="جزر الأنتيل"/>
    <tag k="name:br" v="Antilhez Nederlandat"/>
    <tag k="name:ca" v="Antilles Neerlandeses"/>
    <tag k="name:cy" v="Antilles yr Iseldiroedd"/>
    <tag k="name:da" v="Nederlandske Antiller"/>
    <tag k="name:de" v="Niederländische Antillen"/>
    <tag k="name:el" v="Ολλανδικές Αντίλλες"/>
    <tag k="name:en" v="Netherlands Antilles"/>
    <tag k="name:eo" v="Nederlandaj Antiloj"/>
    <tag k="name:es" v="Antillas Neerlandesas;Antillas Holandesas;Indias Occidentales Holandesas"/>
    <tag k="name:fa" v="آنتیل هلند"/>
    <tag k="name:fi" v="Alankomaiden Antillit"/>
    <tag k="name:fr" v="Antilles néerlandaises"/>
    <tag k="name:fy" v="de Nederlânske Antillen"/>
    <tag k="name:he" v="האנטילים ההולנדיים"/>
    <tag k="name:hu" v="Holland Antillák"/>
    <tag k="name:is" v="Hollensku Antillaeyjar"/>
    <tag k="name:it" v="Antille Olandesi"/>
    <tag k="name:li" v="Nederlandse Antille"/>
    <tag k="name:lt" v="Olandijos Antilai"/>
    <tag k="name:mn" v="Нидерландын Антиллийн Арлууд"/>
    <tag k="name:pl" v="Antyle Holenderskie"/>
    <tag k="name:ru" v="Нидерландские Антильские острова"/>
    <tag k="name:sv" v="Nederländska Antillerna"/>
    <tag k="name:th" v="เนเธอร์แลนด์แอนทิลลิส"/>
    <tag k="name:tr" v="Hollanda Antilleri"/>
    <tag k="name:zh" v="荷属安的列斯"/>
    <tag k="place" v="country"/>
    <tag k="watch:hakan" v="countries"/>
    <tag k="wikipedia" v="Netherlands Antilles"/>
  </node>
  <node id="332792168" version="28" timestamp="2009-08-16T15:35:32Z" uid="48796" user="Ldp" changeset="2166861" lat="12.182149" lon="-68.99678">
    <tag k="capital_city" v="Willemstad"/>
    <tag k="country_code_fips" v="NT"/>
    <tag k="country_code_iso3166_1_alpha_2" v="AN"/>
    <tag k="geonames:id" v="3513447"/>
    <tag k="int_name" v="Netherlands Antilles"/>
    <tag k="is_in:sea" v="Caribbean Sea"/>
    <tag k="name" v="De Nederlandse Antillen"/>
    <tag k="name:af" v="Nederlands-Antille"/>
    <tag k="name:ar" v="جزر الأنتيل"/>
    <tag k="name:br" v="Antilhez Nederlandat"/>
    <tag k="name:ca" v="Antilles Neerlandeses"/>
    <tag k="name:cy" v="Antilles yr Iseldiroedd"/>
    <tag k="name:da" v="Nederlandske Antiller"/>
    <tag k="name:de" v="Niederländische Antillen"/>
    <tag k="name:el" v="Ολλανδικές Αντίλλες"/>
    <tag k="name:en" v="Netherlands Antilles"/>
    <tag k="name:eo" v="Nederlandaj Antiloj"/>
    <tag k="name:es" v="Antillas Neerlandesas;Antillas Holandesas;Indias Occidentales Holandesas"/>
    <tag k="name:et" v="Hollandi Antillid"/>
    <tag k="name:fa" v="آنتیل هلند"/>
    <tag k="name:fi" v="Alankomaiden Antillit"/>
    <tag k="name:fr" v="Antilles néerlandaises"/>
    <tag k="name:fy" v="de Nederlânske Antillen"/>
    <tag k="name:he" v="האנטילים ההולנדיים"/>
    <tag k="name:hu" v="Holland Antillák"/>
    <tag k="name:is" v="Hollensku Antillaeyjar"/>
    <tag k="name:it" v="Antille Olandesi"/>
    <tag k="name:li" v="Nederlandse Antille"/>
    <tag k="name:lt" v="Olandijos Antilai"/>
    <tag k="name:mn" v="Нидерландын Антиллийн Арлууд"/>
    <tag k="name:pl" v="Antyle Holenderskie"/>
    <tag k="name:ru" v="Нидерландские Антильские острова"/>
    <tag k="name:sv" v="Nederländska Antillerna"/>
    <tag k="name:th" v="เนเธอร์แลนด์แอนทิลลิส"/>
    <tag k="name:tr" v="Hollanda Antilleri"/>
    <tag k="name:zh" v="荷属安的列斯"/>
    <tag k="place" v="country"/>
    <tag k="watch:hakan" v="countries"/>
    <tag k="wikipedia" v="Netherlands Antilles"/>
  </node>
  <node id="332792168" version="29" timestamp="2009-08-17T04:12:57Z" uid="3834" user="StefanB" changeset="2173087" lat="12.182149" lon="-68.99678">
    <tag k="capital_city" v="Willemstad"/>
    <tag k="country_code_fips" v="NT"/>
    <tag k="country_code_iso3166_1_alpha_2" v="AN"/>
    <tag k="geonames:id" v="3513447"/>
    <tag k="int_name" v="Netherlands Antilles"/>
    <tag k="is_in:sea" v="Caribbean Sea"/>
    <tag k="name" v="De Nederlandse Antillen"/>
    <tag k="name:af" v="Nederlands-Antille"/>
    <tag k="name:ar" v="جزر الأنتيل"/>
    <tag k="name:br" v="Antilhez Nederlandat"/>
    <tag k="name:ca" v="Antilles Neerlandeses"/>
    <tag k="name:cy" v="Antilles yr Iseldiroedd"/>
    <tag k="name:da" v="Nederlandske Antiller"/>
    <tag k="name:de" v="Niederländische Antillen"/>
    <tag k="name:el" v="Ολλανδικές Αντίλλες"/>
    <tag k="name:en" v="Netherlands Antilles"/>
    <tag k="name:eo" v="Nederlandaj Antiloj"/>
    <tag k="name:es" v="Antillas Neerlandesas;Antillas Holandesas;Indias Occidentales Holandesas"/>
    <tag k="name:et" v="Hollandi Antillid"/>
    <tag k="name:fa" v="آنتیل هلند"/>
    <tag k="name:fi" v="Alankomaiden Antillit"/>
    <tag k="name:fr" v="Antilles néerlandaises"/>
    <tag k="name:fy" v="de Nederlânske Antillen"/>
    <tag k="name:he" v="האנטילים ההולנדיים"/>
    <tag k="name:hu" v="Holland Antillák"/>
    <tag k="name:is" v="Hollensku Antillaeyjar"/>
    <tag k="name:it" v="Antille Olandesi"/>
    <tag k="name:li" v="Nederlandse Antille"/>
    <tag k="name:lt" v="Olandijos Antilai"/>
    <tag k="name:mn" v="Нидерландын Антиллийн Арлууд"/>
    <tag k="name:pl" v="Antyle Holenderskie"/>
    <tag k="name:ru" v="Нидерландские Антильские острова"/>
    <tag k="name:sl" v="Nizozemski Antili"/>
    <tag k="name:sv" v="Nederländska Antillerna"/>
    <tag k="name:th" v="เนเธอร์แลนด์แอนทิลลิส"/>
    <tag k="name:tr" v="Hollanda Antilleri"/>
    <tag k="name:zh" v="荷属安的列斯"/>
    <tag k="place" v="country"/>
    <tag k="watch:hakan" v="countries"/>
    <tag k="wikipedia" v="Netherlands Antilles"/>
  </node>
  <node id="332792168" version="30" timestamp="2009-08-17T21:31:32Z" uid="48796" user="Ldp" changeset="2183725" lat="12.182149" lon="-68.99678">
    <tag k="capital_city" v="Willemstad"/>
    <tag k="country_code_fips" v="NT"/>
    <tag k="country_code_iso3166_1_alpha_2" v="AN"/>
    <tag k="geonames:id" v="3513447"/>
    <tag k="int_name" v="Netherlands Antilles"/>
    <tag k="is_in:sea" v="Caribbean Sea"/>
    <tag k="name" v="De Nederlandse Antillen"/>
    <tag k="name:af" v="Nederlands-Antille"/>
    <tag k="name:ar" v="جزر الأنتيل"/>
    <tag k="name:br" v="Antilhez Nederlandat"/>
    <tag k="name:ca" v="Antilles Neerlandeses"/>
    <tag k="name:cy" v="Antilles yr Iseldiroedd"/>
    <tag k="name:da" v="Nederlandske Antiller"/>
    <tag k="name:de" v="Niederländische Antillen"/>
    <tag k="name:el" v="Ολλανδικές Αντίλλες"/>
    <tag k="name:en" v="Netherlands Antilles"/>
    <tag k="name:eo" v="Nederlandaj Antiloj"/>
    <tag k="name:es" v="Antillas Neerlandesas;Antillas Holandesas;Indias Occidentales Holandesas"/>
    <tag k="name:et" v="Hollandi Antillid"/>
    <tag k="name:fa" v="آنتیل هلند"/>
    <tag k="name:fi" v="Alankomaiden Antillit"/>
    <tag k="name:fr" v="Antilles néerlandaises"/>
    <tag k="name:fy" v="de Nederlânske Antillen"/>
    <tag k="name:he" v="האנטילים ההולנדיים"/>
    <tag k="name:hu" v="Holland Antillák"/>
    <tag k="name:id" v="Antillen Belanda"/>
    <tag k="name:is" v="Hollensku Antillaeyjar"/>
    <tag k="name:it" v="Antille Olandesi"/>
    <tag k="name:li" v="Nederlandse Antille"/>
    <tag k="name:lt" v="Olandijos Antilai"/>
    <tag k="name:mn" v="Нидерландын Антиллийн Арлууд"/>
    <tag k="name:pl" v="Antyle Holenderskie"/>
    <tag k="name:ru" v="Нидерландские Антильские острова"/>
    <tag k="name:sl" v="Nizozemski Antili"/>
    <tag k="name:sv" v="Nederländska Antillerna"/>
    <tag k="name:th" v="เนเธอร์แลนด์แอนทิลลิส"/>
    <tag k="name:tr" v="Hollanda Antilleri"/>
    <tag k="name:zh" v="荷属安的列斯"/>
    <tag k="place" v="country"/>
    <tag k="watch:hakan" v="countries"/>
    <tag k="wikipedia" v="Netherlands Antilles"/>
  </node>
  <node id="332792168" version="31" timestamp="2009-08-18T10:15:47Z" uid="48796" user="Ldp" changeset="2187980" lat="12.182149" lon="-68.99678">
    <tag k="capital_city" v="Willemstad"/>
    <tag k="country_code_fips" v="NT"/>
    <tag k="country_code_iso3166_1_alpha_2" v="AN"/>
    <tag k="geonames:id" v="3513447"/>
    <tag k="int_name" v="Netherlands Antilles"/>
    <tag k="is_in:sea" v="Caribbean Sea"/>
    <tag k="name" v="De Nederlandse Antillen"/>
    <tag k="name:af" v="Nederlands-Antille"/>
    <tag k="name:ar" v="جزر الأنتيل"/>
    <tag k="name:br" v="Antilhez Nederlandat"/>
    <tag k="name:ca" v="Antilles Neerlandeses"/>
    <tag k="name:cy" v="Antilles yr Iseldiroedd"/>
    <tag k="name:da" v="Nederlandske Antiller"/>
    <tag k="name:de" v="Niederländische Antillen"/>
    <tag k="name:el" v="Ολλανδικές Αντίλλες"/>
    <tag k="name:en" v="Netherlands Antilles"/>
    <tag k="name:eo" v="Nederlandaj Antiloj"/>
    <tag k="name:es" v="Antillas Neerlandesas;Antillas Holandesas;Indias Occidentales Holandesas"/>
    <tag k="name:et" v="Hollandi Antillid"/>
    <tag k="name:fa" v="آنتیل هلند"/>
    <tag k="name:fi" v="Alankomaiden Antillit"/>
    <tag k="name:fr" v="Antilles néerlandaises"/>
    <tag k="name:fy" v="de Nederlânske Antillen"/>
    <tag k="name:he" v="האנטילים ההולנדיים"/>
    <tag k="name:hu" v="Holland Antillák"/>
    <tag k="name:id" v="Antillen Belanda"/>
    <tag k="name:is" v="Hollensku Antillaeyjar"/>
    <tag k="name:it" v="Antille Olandesi"/>
    <tag k="name:li" v="Nederlandse Antille"/>
    <tag k="name:lt" v="Olandijos Antilai"/>
    <tag k="name:mn" v="Нидерландын Антиллийн Арлууд"/>
    <tag k="name:pl" v="Antyle Holenderskie"/>
    <tag k="name:ru" v="Нидерландские Антильские острова"/>
    <tag k="name:sl" v="Nizozemski Antili"/>
    <tag k="name:sv" v="Nederländska Antillerna"/>
    <tag k="name:th" v="เนเธอร์แลนด์แอนทิลลิส"/>
    <tag k="name:tr" v="Hollanda Antilleri"/>
    <tag k="name:vi" v="Antille thuộc Hà Lan"/>
    <tag k="name:zh" v="荷属安的列斯"/>
    <tag k="place" v="country"/>
    <tag k="watch:hakan" v="countries"/>
    <tag k="wikipedia" v="Netherlands Antilles"/>
  </node>
  <node id="332792168" version="32" timestamp="2009-08-18T14:57:07Z" uid="9176" user="Maarten Deen" changeset="2190950" lat="12.1821493" lon="-68.9967811">
    <tag k="capital_city" v="Willemstad"/>
    <tag k="country_code_fips" v="NT"/>
    <tag k="country_code_iso3166_1_alpha_2" v="AN"/>
    <tag k="geonames:id" v="3513447"/>
    <tag k="int_name" v="Netherlands Antilles"/>
    <tag k="is_in:sea" v="Caribbean Sea"/>
    <tag k="name" v="De Nederlandse Antillen"/>
    <tag k="name:af" v="Nederlands-Antille"/>
    <tag k="name:ar" v="جزر الأنتيل"/>
    <tag k="name:br" v="Antilhez Nederlandat"/>
    <tag k="name:ca" v="Antilles Neerlandeses"/>
    <tag k="name:cy" v="Antilles yr Iseldiroedd"/>
    <tag k="name:da" v="Nederlandske Antiller"/>
    <tag k="name:de" v="Niederländische Antillen"/>
    <tag k="name:el" v="Ολλανδικές Αντίλλες"/>
    <tag k="name:en" v="Netherlands Antilles"/>
    <tag k="name:eo" v="Nederlandaj Antiloj"/>
    <tag k="name:es" v="Antillas Neerlandesas;Antillas Holandesas;Indias Occidentales Holandesas"/>
    <tag k="name:et" v="Hollandi Antillid"/>
    <tag k="name:eu" v="Holandarren Antillak"/>
    <tag k="name:fa" v="آنتیل هلند"/>
    <tag k="name:fi" v="Alankomaiden Antillit"/>
    <tag k="name:fr" v="Antilles néerlandaises"/>
    <tag k="name:fy" v="de Nederlânske Antillen"/>
    <tag k="name:he" v="האנטילים ההולנדיים"/>
    <tag k="name:hu" v="Holland Antillák"/>
    <tag k="name:id" v="Antillen Belanda"/>
    <tag k="name:is" v="Hollensku Antillaeyjar"/>
    <tag k="name:it" v="Antille Olandesi"/>
    <tag k="name:li" v="Nederlandse Antille"/>
    <tag k="name:lt" v="Olandijos Antilai"/>
    <tag k="name:mn" v="Нидерландын Антиллийн Арлууд"/>
    <tag k="name:pl" v="Antyle Holenderskie"/>
    <tag k="name:ru" v="Нидерландские Антильские острова"/>
    <tag k="name:sl" v="Nizozemski Antili"/>
    <tag k="name:sv" v="Nederländska Antillerna"/>
    <tag k="name:th" v="เนเธอร์แลนด์แอนทิลลิส"/>
    <tag k="name:tr" v="Hollanda Antilleri"/>
    <tag k="name:vi" v="Antille thuộc Hà Lan"/>
    <tag k="name:zh" v="荷属安的列斯"/>
    <tag k="place" v="country"/>
    <tag k="watch:hakan" v="countries"/>
    <tag k="wikipedia" v="Netherlands Antilles"/>
  </node>
  <node id="332792168" version="33" timestamp="2009-08-18T16:10:35Z" uid="17752" user="Yuri Nazarov" changeset="2191739" lat="12.1821493" lon="-68.9967811">
    <tag k="capital_city" v="Willemstad"/>
    <tag k="country_code_fips" v="NT"/>
    <tag k="country_code_iso3166_1_alpha_2" v="AN"/>
    <tag k="geonames:id" v="3513447"/>
    <tag k="int_name" v="Netherlands Antilles"/>
    <tag k="is_in:sea" v="Caribbean Sea"/>
    <tag k="name" v="De Nederlandse Antillen"/>
    <tag k="name:af" v="Nederlands-Antille"/>
    <tag k="name:ar" v="جزر الأنتيل"/>
    <tag k="name:br" v="Antilhez Nederlandat"/>
    <tag k="name:ca" v="Antilles Neerlandeses"/>
    <tag k="name:cy" v="Antilles yr Iseldiroedd"/>
    <tag k="name:da" v="Nederlandske Antiller"/>
    <tag k="name:de" v="Niederländische Antillen"/>
    <tag k="name:el" v="Ολλανδικές Αντίλλες"/>
    <tag k="name:en" v="Netherlands Antilles"/>
    <tag k="name:eo" v="Nederlandaj Antiloj"/>
    <tag k="name:es" v="Antillas Neerlandesas;Antillas Holandesas;Indias Occidentales Holandesas"/>
    <tag k="name:et" v="Hollandi Antillid"/>
    <tag k="name:eu" v="Holandarren Antillak"/>
    <tag k="name:fa" v="آنتیل هلند"/>
    <tag k="name:fi" v="Alankomaiden Antillit"/>
    <tag k="name:fr" v="Antilles néerlandaises"/>
    <tag k="name:fy" v="de Nederlânske Antillen"/>
    <tag k="name:he" v="האנטילים ההולנדיים"/>
    <tag k="name:hu" v="Holland Antillák"/>
    <tag k="name:id" v="Antillen Belanda"/>
    <tag k="name:is" v="Hollensku Antillaeyjar"/>
    <tag k="name:it" v="Antille Olandesi"/>
    <tag k="name:li" v="Nederlandse Antille"/>
    <tag k="name:lt" v="Olandijos Antilai"/>
    <tag k="name:mn" v="Нидерландын Антиллийн Арлууд"/>
    <tag k="name:pl" v="Antyle Holenderskie"/>
    <tag k="name:ru" v="Нидерландские Антилы"/>
    <tag k="name:sl" v="Nizozemski Antili"/>
    <tag k="name:sv" v="Nederländska Antillerna"/>
    <tag k="name:th" v="เนเธอร์แลนด์แอนทิลลิส"/>
    <tag k="name:tr" v="Hollanda Antilleri"/>
    <tag k="name:vi" v="Antille thuộc Hà Lan"/>
    <tag k="name:zh" v="荷属安的列斯"/>
    <tag k="place" v="country"/>
    <tag k="watch:hakan" v="countries"/>
    <tag k="wikipedia" v="Netherlands Antilles"/>
  </node>
  <node id="332792168" version="34" timestamp="2009-08-18T19:14:15Z" uid="1379" user="AndrewMcCarthy" changeset="2194043" lat="12.1821493" lon="-68.9967811">
    <tag k="capital_city" v="Willemstad"/>
    <tag k="country_code_fips" v="NT"/>
    <tag k="country_code_iso3166_1_alpha_2" v="AN"/>
    <tag k="geonames:id" v="3513447"/>
    <tag k="int_name" v="Netherlands Antilles"/>
    <tag k="is_in:sea" v="Caribbean Sea"/>
    <tag k="name" v="De Nederlandse Antillen"/>
    <tag k="name:af" v="Nederlands-Antille"/>
    <tag k="name:ar" v="جزر الأنتيل"/>
    <tag k="name:br" v="Antilhez Nederlandat"/>
    <tag k="name:ca" v="Antilles Neerlandeses"/>
    <tag k="name:cy" v="Antilles yr Iseldiroedd"/>
    <tag k="name:da" v="Nederlandske Antiller"/>
    <tag k="name:de" v="Niederländische Antillen"/>
    <tag k="name:el" v="Ολλανδικές Αντίλλες"/>
    <tag k="name:en" v="Netherlands Antilles"/>
    <tag k="name:eo" v="Nederlandaj Antiloj"/>
    <tag k="name:es" v="Antillas Neerlandesas;Antillas Holandesas;Indias Occidentales Holandesas"/>
    <tag k="name:et" v="Hollandi Antillid"/>
    <tag k="name:eu" v="Holandarren Antillak"/>
    <tag k="name:fa" v="آنتیل هلند"/>
    <tag k="name:fi" v="Alankomaiden Antillit"/>
    <tag k="name:fr" v="Antilles néerlandaises"/>
    <tag k="name:fy" v="de Nederlânske Antillen"/>
    <tag k="name:ga" v="Aintillí na hÍsiltíre"/>
    <tag k="name:he" v="האנטילים ההולנדיים"/>
    <tag k="name:hu" v="Holland Antillák"/>
    <tag k="name:id" v="Antillen Belanda"/>
    <tag k="name:is" v="Hollensku Antillaeyjar"/>
    <tag k="name:it" v="Antille Olandesi"/>
    <tag k="name:li" v="Nederlandse Antille"/>
    <tag k="name:lt" v="Olandijos Antilai"/>
    <tag k="name:mn" v="Нидерландын Антиллийн Арлууд"/>
    <tag k="name:pl" v="Antyle Holenderskie"/>
    <tag k="name:ru" v="Нидерландские Антилы"/>
    <tag k="name:sl" v="Nizozemski Antili"/>
    <tag k="name:sv" v="Nederländska Antillerna"/>
    <tag k="name:th" v="เนเธอร์แลนด์แอนทิลลิส"/>
    <tag k="name:tr" v="Hollanda Antilleri"/>
    <tag k="name:vi" v="Antille thuộc Hà Lan"/>
    <tag k="name:zh" v="荷属安的列斯"/>
    <tag k="place" v="country"/>
    <tag k="watch:hakan" v="countries"/>
    <tag k="wikipedia" v="Netherlands Antilles"/>
  </node>
  <node id="332792168" version="35" timestamp="2009-08-18T20:29:31Z" uid="48796" user="Ldp" changeset="2195025" lat="12.1821493" lon="-68.9967811">
    <tag k="capital_city" v="Willemstad"/>
    <tag k="country_code_fips" v="NT"/>
    <tag k="country_code_iso3166_1_alpha_2" v="AN"/>
    <tag k="geonames:id" v="3513447"/>
    <tag k="int_name" v="Netherlands Antilles"/>
    <tag k="is_in:sea" v="Caribbean Sea"/>
    <tag k="name" v="De Nederlandse Antillen"/>
    <tag k="name:af" v="Nederlands-Antille"/>
    <tag k="name:ar" v="جزر الأنتيل"/>
    <tag k="name:br" v="Antilhez Nederlandat"/>
    <tag k="name:ca" v="Antilles Neerlandeses"/>
    <tag k="name:cy" v="Antilles yr Iseldiroedd"/>
    <tag k="name:da" v="Nederlandske Antiller"/>
    <tag k="name:de" v="Niederländische Antillen"/>
    <tag k="name:el" v="Ολλανδικές Αντίλλες"/>
    <tag k="name:en" v="Netherlands Antilles"/>
    <tag k="name:eo" v="Nederlandaj Antiloj"/>
    <tag k="name:es" v="Antillas Neerlandesas;Antillas Holandesas;Indias Occidentales Holandesas"/>
    <tag k="name:et" v="Hollandi Antillid"/>
    <tag k="name:eu" v="Holandarren Antillak"/>
    <tag k="name:fa" v="آنتیل هلند"/>
    <tag k="name:fi" v="Alankomaiden Antillit"/>
    <tag k="name:fr" v="Antilles néerlandaises"/>
    <tag k="name:fy" v="de Nederlânske Antillen"/>
    <tag k="name:ga" v="Aintillí na hÍsiltíre"/>
    <tag k="name:he" v="האנטילים ההולנדיים"/>
    <tag k="name:hu" v="Holland Antillák"/>
    <tag k="name:id" v="Antillen Belanda"/>
    <tag k="name:is" v="Hollensku Antillaeyjar"/>
    <tag k="name:it" v="Antille Olandesi"/>
    <tag k="name:la" v="Antillae Nederlandiae"/>
    <tag k="name:li" v="Nederlandse Antille"/>
    <tag k="name:lt" v="Olandijos Antilai"/>
    <tag k="name:mn" v="Нидерландын Антиллийн Арлууд"/>
    <tag k="name:pl" v="Antyle Holenderskie"/>
    <tag k="name:ru" v="Нидерландские Антилы"/>
    <tag k="name:sl" v="Nizozemski Antili"/>
    <tag k="name:sv" v="Nederländska Antillerna"/>
    <tag k="name:th" v="เนเธอร์แลนด์แอนทิลลิส"/>
    <tag k="name:tr" v="Hollanda Antilleri"/>
    <tag k="name:vi" v="Antille thuộc Hà Lan"/>
    <tag k="name:zh" v="荷属安的列斯"/>
    <tag k="place" v="country"/>
    <tag k="watch:hakan" v="countries"/>
    <tag k="wikipedia" v="Netherlands Antilles"/>
  </node>
  <node id="332792168" version="36" timestamp="2009-08-21T14:40:42Z" uid="48796" user="Ldp" changeset="2224854" lat="12.1821493" lon="-68.9967811">
    <tag k="capital_city" v="Willemstad"/>
    <tag k="country_code_fips" v="NT"/>
    <tag k="country_code_iso3166_1_alpha_2" v="AN"/>
    <tag k="geonames:id" v="3513447"/>
    <tag k="int_name" v="Netherlands Antilles"/>
    <tag k="is_in:sea" v="Caribbean Sea"/>
    <tag k="name" v="De Nederlandse Antillen"/>
    <tag k="name:af" v="Nederlandse Antille"/>
    <tag k="name:an" v="Antillas Neerlandesas"/>
    <tag k="name:ar" v="جزر الأنتيل"/>
    <tag k="name:be-x-old" v="Нідэрляндзкія Антылы"/>
    <tag k="name:bg" v="Холандски Антили"/>
    <tag k="name:bpy" v="নেদারল্যান্ড এন্টিল্লেস"/>
    <tag k="name:br" v="Antilhez Nederlandat"/>
    <tag k="name:bs" v="Holandski Antili"/>
    <tag k="name:ca" v="Antilles Neerlandeses"/>
    <tag k="name:cs" v="Nizozemské Antily"/>
    <tag k="name:cy" v="Antilles yr Iseldiroedd"/>
    <tag k="name:da" v="Nederlandske Antiller"/>
    <tag k="name:de" v="Niederländische Antillen"/>
    <tag k="name:dsb" v="Nižozemske Antile"/>
    <tag k="name:dv" v="ނެދަލޭންޑު އެންޓިލޭ"/>
    <tag k="name:el" v="Ολλανδικές Αντίλλες"/>
    <tag k="name:en" v="Netherlands Antilles"/>
    <tag k="name:eo" v="Nederlandaj Antiloj"/>
    <tag k="name:es" v="Antillas Neerlandesas;Antillas Holandesas;Indias Occidentales Holandesas"/>
    <tag k="name:et" v="Hollandi Antillid"/>
    <tag k="name:eu" v="Holandarren Antillak"/>
    <tag k="name:fa" v="آنتیل هلند"/>
    <tag k="name:fi" v="Alankomaiden Antillit"/>
    <tag k="name:fo" v="Niðurlendsku Antillurnar"/>
    <tag k="name:fr" v="Antilles néerlandaises"/>
    <tag k="name:frp" v="Antiles nêrlandêses"/>
    <tag k="name:fy" v="Nederlânske Antillen"/>
    <tag k="name:ga" v="Aintillí na hÍsiltíre"/>
    <tag k="name:gl" v="Antillas Neerlandesas"/>
    <tag k="name:he" v="האנטילים ההולנדיים"/>
    <tag k="name:hi" v="नीदरलैंड एंटीलीज़"/>
    <tag k="name:hr" v="Nizozemski Antili"/>
    <tag k="name:hu" v="Holland Antillák"/>
    <tag k="name:ia" v="Antillas Nederlandese"/>
    <tag k="name:id" v="Antillen Belanda"/>
    <tag k="name:io" v="Nederlandana Antili"/>
    <tag k="name:is" v="Hollensku Antillaeyjar"/>
    <tag k="name:it" v="Antille Olandesi"/>
    <tag k="name:ja" v="オランダ領アンティル"/>
    <tag k="name:jv" v="Antillen Walanda"/>
    <tag k="name:ka" v="ნიდერლანდის ანტილები"/>
    <tag k="name:kk" v="Антийлер"/>
    <tag k="name:ko" v="네덜란드령 안틸레스"/>
    <tag k="name:kw" v="Antillys Iseldiryek"/>
    <tag k="name:la" v="Antillae Nederlandiae"/>
    <tag k="name:lb" v="Hollännesch Antillen"/>
    <tag k="name:li" v="Nederlandse Antille"/>
    <tag k="name:lij" v="Antille Olandeixi"/>
    <tag k="name:lmo" v="Antil Ulandes"/>
    <tag k="name:ln" v="Antiya ya Holanda"/>
    <tag k="name:lt" v="Nyderlandų Antilai"/>
    <tag k="name:lv" v="Nīderlandes Antiļas"/>
    <tag k="name:mn" v="Нидерландын Антиллийн Арлууд"/>
    <tag k="name:mr" v="नेदरलँड्स अँटिल्स"/>
    <tag k="name:ms" v="Antillen Belanda"/>
    <tag k="name:nn" v="Dei nederlandske Antillane"/>
    <tag k="name:no" v="De nederlandske Antillene"/>
    <tag k="name:nov" v="Nederlandani Antiles"/>
    <tag k="name:pap" v="Antias Hulandes"/>
    <tag k="name:pl" v="Antyle Holenderskie"/>
    <tag k="name:pms" v="Antile Olandèise"/>
    <tag k="name:pt" v="Antilhas Holandesas"/>
    <tag k="name:ro" v="Antilele Olandeze"/>
    <tag k="name:ru" v="Нидерландские Антилы"/>
    <tag k="name:sah" v="Недерланд Антиллара"/>
    <tag k="name:sh" v="Nizozemski Antili"/>
    <tag k="name:simple" v="Netherlands Antilles"/>
    <tag k="name:sk" v="Holandské Antily"/>
    <tag k="name:sl" v="Nizozemski Antili"/>
    <tag k="name:sr" v="Холандски Антили"/>
    <tag k="name:sv" v="Nederländska Antillerna"/>
    <tag k="name:sw" v="Antili za Kiholanzi"/>
    <tag k="name:ta" v="நெதர்லாந்து அண்டிலிசு"/>
    <tag k="name:tg" v="Антил Ҳоланд"/>
    <tag k="name:th" v="เนเธอร์แลนด์แอนทิลลิส"/>
    <tag k="name:tr" v="Hollanda Antilleri"/>
    <tag k="name:uk" v="Нідерландські Антильські острови"/>
    <tag k="name:vec" v="Antiłe Ołandexi"/>
    <tag k="name:vi" v="Antille thuộc Hà Lan"/>
    <tag k="name:wuu" v="荷属安地列斯"/>
    <tag k="name:zh" v="荷属安的列斯"/>
    <tag k="name:zh-min-nan" v="Kē-tē-kok Antilles"/>
    <tag k="place" v="country"/>
    <tag k="watch:hakan" v="countries"/>
    <tag k="wikipedia" v="Netherlands Antilles"/>
  </node>
  <node id="332792168" version="37" timestamp="2009-08-26T16:49:13Z" uid="29431" user="jekhor" changeset="2269408" lat="12.1821493" lon="-68.9967811">
    <tag k="capital_city" v="Willemstad"/>
    <tag k="country_code_fips" v="NT"/>
    <tag k="country_code_iso3166_1_alpha_2" v="AN"/>
    <tag k="geonames:id" v="3513447"/>
    <tag k="int_name" v="Netherlands Antilles"/>
    <tag k="is_in:sea" v="Caribbean Sea"/>
    <tag k="name" v="De Nederlandse Antillen"/>
    <tag k="name:af" v="Nederlandse Antille"/>
    <tag k="name:an" v="Antillas Neerlandesas"/>
    <tag k="name:ar" v="جزر الأنتيل"/>
    <tag k="name:be" v="Нідэрландскія Антылы"/>
    <tag k="name:be-x-old" v="Нідэрляндзкія Антылы"/>
    <tag k="name:bg" v="Холандски Антили"/>
    <tag k="name:bpy" v="নেদারল্যান্ড এন্টিল্লেস"/>
    <tag k="name:br" v="Antilhez Nederlandat"/>
    <tag k="name:bs" v="Holandski Antili"/>
    <tag k="name:ca" v="Antilles Neerlandeses"/>
    <tag k="name:cs" v="Nizozemské Antily"/>
    <tag k="name:cy" v="Antilles yr Iseldiroedd"/>
    <tag k="name:da" v="Nederlandske Antiller"/>
    <tag k="name:de" v="Niederländische Antillen"/>
    <tag k="name:dsb" v="Nižozemske Antile"/>
    <tag k="name:dv" v="ނެދަލޭންޑު އެންޓިލޭ"/>
    <tag k="name:el" v="Ολλανδικές Αντίλλες"/>
    <tag k="name:en" v="Netherlands Antilles"/>
    <tag k="name:eo" v="Nederlandaj Antiloj"/>
    <tag k="name:es" v="Antillas Neerlandesas;Antillas Holandesas;Indias Occidentales Holandesas"/>
    <tag k="name:et" v="Hollandi Antillid"/>
    <tag k="name:eu" v="Holandarren Antillak"/>
    <tag k="name:fa" v="آنتیل هلند"/>
    <tag k="name:fi" v="Alankomaiden Antillit"/>
    <tag k="name:fo" v="Niðurlendsku Antillurnar"/>
    <tag k="name:fr" v="Antilles néerlandaises"/>
    <tag k="name:frp" v="Antiles nêrlandêses"/>
    <tag k="name:fy" v="Nederlânske Antillen"/>
    <tag k="name:ga" v="Aintillí na hÍsiltíre"/>
    <tag k="name:gl" v="Antillas Neerlandesas"/>
    <tag k="name:he" v="האנטילים ההולנדיים"/>
    <tag k="name:hi" v="नीदरलैंड एंटीलीज़"/>
    <tag k="name:hr" v="Nizozemski Antili"/>
    <tag k="name:hu" v="Holland Antillák"/>
    <tag k="name:ia" v="Antillas Nederlandese"/>
    <tag k="name:id" v="Antillen Belanda"/>
    <tag k="name:io" v="Nederlandana Antili"/>
    <tag k="name:is" v="Hollensku Antillaeyjar"/>
    <tag k="name:it" v="Antille Olandesi"/>
    <tag k="name:ja" v="オランダ領アンティル"/>
    <tag k="name:jv" v="Antillen Walanda"/>
    <tag k="name:ka" v="ნიდერლანდის ანტილები"/>
    <tag k="name:kk" v="Антийлер"/>
    <tag k="name:ko" v="네덜란드령 안틸레스"/>
    <tag k="name:kw" v="Antillys Iseldiryek"/>
    <tag k="name:la" v="Antillae Nederlandiae"/>
    <tag k="name:lb" v="Hollännesch Antillen"/>
    <tag k="name:li" v="Nederlandse Antille"/>
    <tag k="name:lij" v="Antille Olandeixi"/>
    <tag k="name:lmo" v="Antil Ulandes"/>
    <tag k="name:ln" v="Antiya ya Holanda"/>
    <tag k="name:lt" v="Nyderlandų Antilai"/>
    <tag k="name:lv" v="Nīderlandes Antiļas"/>
    <tag k="name:mn" v="Нидерландын Антиллийн Арлууд"/>
    <tag k="name:mr" v="नेदरलँड्स अँटिल्स"/>
    <tag k="name:ms" v="Antillen Belanda"/>
    <tag k="name:nn" v="Dei nederlandske Antillane"/>
    <tag k="name:no" v="De nederlandske Antillene"/>
    <tag k="name:nov" v="Nederlandani Antiles"/>
    <tag k="name:pap" v="Antias Hulandes"/>
    <tag k="name:pl" v="Antyle Holenderskie"/>
    <tag k="name:pms" v="Antile Olandèise"/>
    <tag k="name:pt" v="Antilhas Holandesas"/>
    <tag k="name:ro" v="Antilele Olandeze"/>
    <tag k="name:ru" v="Нидерландские Антилы"/>
    <tag k="name:sah" v="Недерланд Антиллара"/>
    <tag k="name:sh" v="Nizozemski Antili"/>
    <tag k="name:simple" v="Netherlands Antilles"/>
    <tag k="name:sk" v="Holandské Antily"/>
    <tag k="name:sl" v="Nizozemski Antili"/>
    <tag k="name:sr" v="Холандски Антили"/>
    <tag k="name:sv" v="Nederländska Antillerna"/>
    <tag k="name:sw" v="Antili za Kiholanzi"/>
    <tag k="name:ta" v="நெதர்லாந்து அண்டிலிசு"/>
    <tag k="name:tg" v="Антил Ҳоланд"/>
    <tag k="name:th" v="เนเธอร์แลนด์แอนทิลลิส"/>
    <tag k="name:tr" v="Hollanda Antilleri"/>
    <tag k="name:uk" v="Нідерландські Антильські острови"/>
    <tag k="name:vec" v="Antiłe Ołandexi"/>
    <tag k="name:vi" v="Antille thuộc Hà Lan"/>
    <tag k="name:wuu" v="荷属安地列斯"/>
    <tag k="name:zh" v="荷属安的列斯"/>
    <tag k="name:zh-min-nan" v="Kē-tē-kok Antilles"/>
    <tag k="place" v="country"/>
    <tag k="watch:hakan" v="countries"/>
    <tag k="wikipedia" v="Netherlands Antilles"/>
  </node>
  <node id="332792168" version="38" timestamp="2009-08-29T22:23:34Z" uid="22556" user="Lafriks" changeset="2307443" lat="12.1821493" lon="-68.9967811">
    <tag k="capital_city" v="Willemstad"/>
    <tag k="country_code_fips" v="NT"/>
    <tag k="country_code_iso3166_1_alpha_2" v="AN"/>
    <tag k="geonames:id" v="3513447"/>
    <tag k="int_name" v="Netherlands Antilles"/>
    <tag k="is_in:sea" v="Caribbean Sea"/>
    <tag k="name" v="De Nederlandse Antillen"/>
    <tag k="name:af" v="Nederlandse Antille"/>
    <tag k="name:an" v="Antillas Neerlandesas"/>
    <tag k="name:ar" v="جزر الأنتيل"/>
    <tag k="name:be" v="Нідэрландскія Антылы"/>
    <tag k="name:be-x-old" v="Нідэрляндзкія Антылы"/>
    <tag k="name:bg" v="Холандски Антили"/>
    <tag k="name:bpy" v="নেদারল্যান্ড এন্টিল্লেস"/>
    <tag k="name:br" v="Antilhez Nederlandat"/>
    <tag k="name:bs" v="Holandski Antili"/>
    <tag k="name:ca" v="Antilles Neerlandeses"/>
    <tag k="name:cs" v="Nizozemské Antily"/>
    <tag k="name:cy" v="Antilles yr Iseldiroedd"/>
    <tag k="name:da" v="Nederlandske Antiller"/>
    <tag k="name:de" v="Niederländische Antillen"/>
    <tag k="name:dsb" v="Nižozemske Antile"/>
    <tag k="name:dv" v="ނެދަލޭންޑު އެންޓިލޭ"/>
    <tag k="name:el" v="Ολλανδικές Αντίλλες"/>
    <tag k="name:en" v="Netherlands Antilles"/>
    <tag k="name:eo" v="Nederlandaj Antiloj"/>
    <tag k="name:es" v="Antillas Neerlandesas;Antillas Holandesas;Indias Occidentales Holandesas"/>
    <tag k="name:et" v="Hollandi Antillid"/>
    <tag k="name:eu" v="Holandarren Antillak"/>
    <tag k="name:fa" v="آنتیل هلند"/>
    <tag k="name:fi" v="Alankomaiden Antillit"/>
    <tag k="name:fo" v="Niðurlendsku Antillurnar"/>
    <tag k="name:fr" v="Antilles néerlandaises"/>
    <tag k="name:frp" v="Antiles nêrlandêses"/>
    <tag k="name:fy" v="Nederlânske Antillen"/>
    <tag k="name:ga" v="Aintillí na hÍsiltíre"/>
    <tag k="name:gl" v="Antillas Neerlandesas"/>
    <tag k="name:he" v="האנטילים ההולנדיים"/>
    <tag k="name:hi" v="नीदरलैंड एंटीलीज़"/>
    <tag k="name:hr" v="Nizozemski Antili"/>
    <tag k="name:hu" v="Holland Antillák"/>
    <tag k="name:ia" v="Antillas Nederlandese"/>
    <tag k="name:id" v="Antillen Belanda"/>
    <tag k="name:io" v="Nederlandana Antili"/>
    <tag k="name:is" v="Hollensku Antillaeyjar"/>
    <tag k="name:it" v="Antille Olandesi"/>
    <tag k="name:ja" v="オランダ領アンティル"/>
    <tag k="name:jv" v="Antillen Walanda"/>
    <tag k="name:ka" v="ნიდერლანდის ანტილები"/>
    <tag k="name:kk" v="Антийлер"/>
    <tag k="name:ko" v="네덜란드령 안틸레스"/>
    <tag k="name:kw" v="Antillys Iseldiryek"/>
    <tag k="name:la" v="Antillae Nederlandiae"/>
    <tag k="name:lb" v="Hollännesch Antillen"/>
    <tag k="name:li" v="Nederlandse Antille"/>
    <tag k="name:lij" v="Antille Olandeixi"/>
    <tag k="name:lmo" v="Antil Ulandes"/>
    <tag k="name:ln" v="Antiya ya Holanda"/>
    <tag k="name:lt" v="Nyderlandų Antilai"/>
    <tag k="name:lv" v="Antiļas"/>
    <tag k="name:mn" v="Нидерландын Антиллийн Арлууд"/>
    <tag k="name:mr" v="नेदरलँड्स अँटिल्स"/>
    <tag k="name:ms" v="Antillen Belanda"/>
    <tag k="name:nn" v="Dei nederlandske Antillane"/>
    <tag k="name:no" v="De nederlandske Antillene"/>
    <tag k="name:nov" v="Nederlandani Antiles"/>
    <tag k="name:pap" v="Antias Hulandes"/>
    <tag k="name:pl" v="Antyle Holenderskie"/>
    <tag k="name:pms" v="Antile Olandèise"/>
    <tag k="name:pt" v="Antilhas Holandesas"/>
    <tag k="name:ro" v="Antilele Olandeze"/>
    <tag k="name:ru" v="Нидерландские Антилы"/>
    <tag k="name:sah" v="Недерланд Антиллара"/>
    <tag k="name:sh" v="Nizozemski Antili"/>
    <tag k="name:simple" v="Netherlands Antilles"/>
    <tag k="name:sk" v="Holandské Antily"/>
    <tag k="name:sl" v="Nizozemski Antili"/>
    <tag k="name:sr" v="Холандски Антили"/>
    <tag k="name:sv" v="Nederländska Antillerna"/>
    <tag k="name:sw" v="Antili za Kiholanzi"/>
    <tag k="name:ta" v="நெதர்லாந்து அண்டிலிசு"/>
    <tag k="name:tg" v="Антил Ҳоланд"/>
    <tag k="name:th" v="เนเธอร์แลนด์แอนทิลลิส"/>
    <tag k="name:tr" v="Hollanda Antilleri"/>
    <tag k="name:uk" v="Нідерландські Антильські острови"/>
    <tag k="name:vec" v="Antiłe Ołandexi"/>
    <tag k="name:vi" v="Antille thuộc Hà Lan"/>
    <tag k="name:wuu" v="荷属安地列斯"/>
    <tag k="name:zh" v="荷属安的列斯"/>
    <tag k="name:zh-min-nan" v="Kē-tē-kok Antilles"/>
    <tag k="official_name:lv" v="Nīderlandes Antiļas"/>
    <tag k="place" v="country"/>
    <tag k="watch:hakan" v="countries"/>
    <tag k="wikipedia" v="Netherlands Antilles"/>
  </node>
  <node id="332792168" version="39" timestamp="2009-09-22T05:54:16Z" uid="140069" user="kebil" changeset="2565161" lat="12.1821493" lon="-68.9967811">
    <tag k="capital_city" v="Willemstad"/>
    <tag k="country_code_fips" v="NT"/>
    <tag k="country_code_iso3166_1_alpha_2" v="AN"/>
    <tag k="geonames:id" v="3513447"/>
    <tag k="int_name" v="Netherlands Antilles"/>
    <tag k="is_in:sea" v="Caribbean Sea"/>
    <tag k="name" v="De Nederlandse Antillen"/>
    <tag k="name:af" v="Nederlandse Antille"/>
    <tag k="name:an" v="Antillas Neerlandesas"/>
    <tag k="name:ar" v="جزر الأنتيل"/>
    <tag k="name:be" v="Нідэрландскія Антылы"/>
    <tag k="name:be-x-old" v="Нідэрляндзкія Антылы"/>
    <tag k="name:bg" v="Холандски Антили"/>
    <tag k="name:bpy" v="নেদারল্যান্ড এন্টিল্লেস"/>
    <tag k="name:br" v="Antilhez Nederlandat"/>
    <tag k="name:bs" v="Holandski Antili"/>
    <tag k="name:ca" v="Antilles Neerlandeses"/>
    <tag k="name:cs" v="Nizozemské Antily"/>
    <tag k="name:cy" v="Antilles yr Iseldiroedd"/>
    <tag k="name:da" v="Nederlandske Antiller"/>
    <tag k="name:de" v="Niederländische Antillen"/>
    <tag k="name:dsb" v="Nižozemske Antile"/>
    <tag k="name:dv" v="ނެދަލޭންޑު އެންޓިލޭ"/>
    <tag k="name:el" v="Ολλανδικές Αντίλλες"/>
    <tag k="name:en" v="Netherlands Antilles"/>
    <tag k="name:eo" v="Nederlandaj Antiloj"/>
    <tag k="name:es" v="Antillas Neerlandesas;Antillas Holandesas;Indias Occidentales Holandesas"/>
    <tag k="name:et" v="Hollandi Antillid"/>
    <tag k="name:eu" v="Holandarren Antillak"/>
    <tag k="name:fa" v="آنتیل هلند"/>
    <tag k="name:fi" v="Alankomaiden Antillit"/>
    <tag k="name:fo" v="Niðurlendsku Antillurnar"/>
    <tag k="name:fr" v="Antilles néerlandaises"/>
    <tag k="name:frp" v="Antiles nêrlandêses"/>
    <tag k="name:fy" v="Nederlânske Antillen"/>
    <tag k="name:ga" v="Aintillí na hÍsiltíre"/>
    <tag k="name:gl" v="Antillas Neerlandesas"/>
    <tag k="name:he" v="האנטילים ההולנדיים"/>
    <tag k="name:hi" v="नीदरलैंड एंटीलीज़"/>
    <tag k="name:hr" v="Nizozemski Antili"/>
    <tag k="name:hu" v="Holland Antillák"/>
    <tag k="name:ia" v="Antillas Nederlandese"/>
    <tag k="name:id" v="Antillen Belanda"/>
    <tag k="name:io" v="Nederlandana Antili"/>
    <tag k="name:is" v="Hollensku Antillaeyjar"/>
    <tag k="name:it" v="Antille Olandesi"/>
    <tag k="name:ja" v="オランダ領アンティル"/>
    <tag k="name:jv" v="Antillen Walanda"/>
    <tag k="name:ka" v="ნიდერლანდის ანტილები"/>
    <tag k="name:kk" v="Антийлер"/>
    <tag k="name:ko" v="네덜란드령 안틸레스"/>
    <tag k="name:kw" v="Antillys Iseldiryek"/>
    <tag k="name:la" v="Antillae Nederlandiae"/>
    <tag k="name:lb" v="Hollännesch Antillen"/>
    <tag k="name:li" v="Nederlandse Antille"/>
    <tag k="name:lij" v="Antille Olandeixi"/>
    <tag k="name:lmo" v="Antil Ulandes"/>
    <tag k="name:ln" v="Antiya ya Holanda"/>
    <tag k="name:lt" v="Olandijos Antilai"/>
    <tag k="name:lv" v="Antiļas"/>
    <tag k="name:mn" v="Нидерландын Антиллийн Арлууд"/>
    <tag k="name:mr" v="नेदरलँड्स अँटिल्स"/>
    <tag k="name:ms" v="Antillen Belanda"/>
    <tag k="name:nn" v="Dei nederlandske Antillane"/>
    <tag k="name:no" v="De nederlandske Antillene"/>
    <tag k="name:nov" v="Nederlandani Antiles"/>
    <tag k="name:pap" v="Antias Hulandes"/>
    <tag k="name:pl" v="Antyle Holenderskie"/>
    <tag k="name:pms" v="Antile Olandèise"/>
    <tag k="name:pt" v="Antilhas Holandesas"/>
    <tag k="name:ro" v="Antilele Olandeze"/>
    <tag k="name:ru" v="Нидерландские Антилы"/>
    <tag k="name:sah" v="Недерланд Антиллара"/>
    <tag k="name:sh" v="Nizozemski Antili"/>
    <tag k="name:simple" v="Netherlands Antilles"/>
    <tag k="name:sk" v="Holandské Antily"/>
    <tag k="name:sl" v="Nizozemski Antili"/>
    <tag k="name:sr" v="Холандски Антили"/>
    <tag k="name:sv" v="Nederländska Antillerna"/>
    <tag k="name:sw" v="Antili za Kiholanzi"/>
    <tag k="name:ta" v="நெதர்லாந்து அண்டிலிசு"/>
    <tag k="name:tg" v="Антил Ҳоланд"/>
    <tag k="name:th" v="เนเธอร์แลนด์แอนทิลลิส"/>
    <tag k="name:tr" v="Hollanda Antilleri"/>
    <tag k="name:uk" v="Нідерландські Антильські острови"/>
    <tag k="name:vec" v="Antiłe Ołandexi"/>
    <tag k="name:vi" v="Antille thuộc Hà Lan"/>
    <tag k="name:wuu" v="荷属安地列斯"/>
    <tag k="name:zh" v="荷属安的列斯"/>
    <tag k="name:zh-min-nan" v="Kē-tē-kok Antilles"/>
    <tag k="official_name:lv" v="Nīderlandes Antiļas"/>
    <tag k="place" v="country"/>
    <tag k="watch:hakan" v="countries"/>
    <tag k="wikipedia" v="Netherlands Antilles"/>
  </node>
  <node id="332792168" version="40" timestamp="2010-08-08T17:53:35Z" uid="207745" user="NE2" changeset="5435557" lat="12.1821493" lon="-68.9967811">
    <tag k="capital_city" v="Willemstad"/>
    <tag k="country_code_fips" v="NT"/>
    <tag k="country_code_iso3166_1_alpha_2" v="AN"/>
    <tag k="geonames:id" v="3513447"/>
    <tag k="int_name" v="Netherlands Antilles"/>
    <tag k="is_in:sea" v="Caribbean Sea"/>
    <tag k="name" v="De Nederlandse Antillen"/>
    <tag k="name:af" v="Nederlandse Antille"/>
    <tag k="name:an" v="Antillas Neerlandesas"/>
    <tag k="name:ar" v="جزر الأنتيل"/>
    <tag k="name:be" v="Нідэрландскія Антылы"/>
    <tag k="name:be-x-old" v="Нідэрляндзкія Антылы"/>
    <tag k="name:bg" v="Холандски Антили"/>
    <tag k="name:bpy" v="নেদারল্যান্ড এন্টিল্লেস"/>
    <tag k="name:br" v="Antilhez Nederlandat"/>
    <tag k="name:bs" v="Holandski Antili"/>
    <tag k="name:ca" v="Antilles Neerlandeses"/>
    <tag k="name:cs" v="Nizozemské Antily"/>
    <tag k="name:cy" v="Antilles yr Iseldiroedd"/>
    <tag k="name:da" v="Nederlandske Antiller"/>
    <tag k="name:de" v="Niederländische Antillen"/>
    <tag k="name:dsb" v="Nižozemske Antile"/>
    <tag k="name:dv" v="ނެދަލޭންޑު އެންޓިލޭ"/>
    <tag k="name:el" v="Ολλανδικές Αντίλλες"/>
    <tag k="name:en" v="Netherlands Antilles"/>
    <tag k="name:eo" v="Nederlandaj Antiloj"/>
    <tag k="name:es" v="Antillas Neerlandesas;Antillas Holandesas;Indias Occidentales Holandesas"/>
    <tag k="name:et" v="Hollandi Antillid"/>
    <tag k="name:eu" v="Holandarren Antillak"/>
    <tag k="name:fa" v="آنتیل هلند"/>
    <tag k="name:fi" v="Alankomaiden Antillit"/>
    <tag k="name:fo" v="Niðurlendsku Antillurnar"/>
    <tag k="name:fr" v="Antilles néerlandaises"/>
    <tag k="name:frp" v="Antiles nêrlandêses"/>
    <tag k="name:fy" v="Nederlânske Antillen"/>
    <tag k="name:ga" v="Aintillí na hÍsiltíre"/>
    <tag k="name:gl" v="Antillas Neerlandesas"/>
    <tag k="name:he" v="האנטילים ההולנדיים"/>
    <tag k="name:hi" v="नीदरलैंड एंटीलीज़"/>
    <tag k="name:hr" v="Nizozemski Antili"/>
    <tag k="name:hu" v="Holland Antillák"/>
    <tag k="name:ia" v="Antillas Nederlandese"/>
    <tag k="name:id" v="Antillen Belanda"/>
    <tag k="name:io" v="Nederlandana Antili"/>
    <tag k="name:is" v="Hollensku Antillaeyjar"/>
    <tag k="name:it" v="Antille Olandesi"/>
    <tag k="name:ja" v="オランダ領アンティル"/>
    <tag k="name:jv" v="Antillen Walanda"/>
    <tag k="name:ka" v="ნიდერლანდის ანტილები"/>
    <tag k="name:kk" v="Антийлер"/>
    <tag k="name:ko" v="네덜란드령 안틸레스"/>
    <tag k="name:kw" v="Antillys Iseldiryek"/>
    <tag k="name:la" v="Antillae Nederlandiae"/>
    <tag k="name:lb" v="Hollännesch Antillen"/>
    <tag k="name:li" v="Nederlandse Antille"/>
    <tag k="name:lij" v="Antille Olandeixi"/>
    <tag k="name:lmo" v="Antil Ulandes"/>
    <tag k="name:ln" v="Antiya ya Holanda"/>
    <tag k="name:lt" v="Olandijos Antilai"/>
    <tag k="name:lv" v="Antiļas"/>
    <tag k="name:mn" v="Нидерландын Антиллийн Арлууд"/>
    <tag k="name:mr" v="नेदरलँड्स अँटिल्स"/>
    <tag k="name:ms" v="Antillen Belanda"/>
    <tag k="name:nn" v="Dei nederlandske Antillane"/>
    <tag k="name:no" v="De nederlandske Antillene"/>
    <tag k="name:nov" v="Nederlandani Antiles"/>
    <tag k="name:pap" v="Antias Hulandes"/>
    <tag k="name:pl" v="Antyle Holenderskie"/>
    <tag k="name:pms" v="Antile Olandèise"/>
    <tag k="name:pt" v="Antilhas Holandesas"/>
    <tag k="name:ro" v="Antilele Olandeze"/>
    <tag k="name:ru" v="Нидерландские Антилы"/>
    <tag k="name:sah" v="Недерланд Антиллара"/>
    <tag k="name:sh" v="Nizozemski Antili"/>
    <tag k="name:simple" v="Netherlands Antilles"/>
    <tag k="name:sk" v="Holandské Antily"/>
    <tag k="name:sl" v="Nizozemski Antili"/>
    <tag k="name:sr" v="Холандски Антили"/>
    <tag k="name:sv" v="Nederländska Antillerna"/>
    <tag k="name:sw" v="Antili za Kiholanzi"/>
    <tag k="name:ta" v="நெதர்லாந்து அண்டிலிசு"/>
    <tag k="name:tg" v="Антил Ҳоланд"/>
    <tag k="name:th" v="เนเธอร์แลนด์แอนทิลลิส"/>
    <tag k="name:tr" v="Hollanda Antilleri"/>
    <tag k="name:uk" v="Нідерландські Антильські острови"/>
    <tag k="name:vec" v="Antiłe Ołandexi"/>
    <tag k="name:vi" v="Antille thuộc Hà Lan"/>
    <tag k="name:wuu" v="荷属安地列斯"/>
    <tag k="name:zh" v="荷属安的列斯"/>
    <tag k="name:zh-min-nan" v="Kē-tē-kok Antilles"/>
    <tag k="official_name:lv" v="Nīderlandes Antiļas"/>
    <tag k="place" v="country"/>
    <tag k="wikipedia" v="Netherlands Antilles"/>
  </node>
  <node id="332792168" version="41" timestamp="2010-12-14T18:21:05Z" uid="141913" user="Pauluzz" changeset="6660821" lat="12.1821493" lon="-68.9967811">
    <tag k="capital_city" v="Willemstad"/>
    <tag k="country_code_fips" v="NT"/>
    <tag k="country_code_iso3166_1_alpha_2" v="AN"/>
    <tag k="geonames:id" v="3513447"/>
    <tag k="int_name" v="Netherlands Antilles"/>
    <tag k="is_in:sea" v="Caribbean Sea"/>
    <tag k="name" v="De Nederlandse Antillen"/>
    <tag k="name:af" v="Nederlandse Antille"/>
    <tag k="name:an" v="Antillas Neerlandesas"/>
    <tag k="name:ar" v="جزر الأنتيل"/>
    <tag k="name:be" v="Нідэрландскія Антылы"/>
    <tag k="name:be-x-old" v="Нідэрляндзкія Антылы"/>
    <tag k="name:bg" v="Холандски Антили"/>
    <tag k="name:bpy" v="নেদারল্যান্ড এন্টিল্লেস"/>
    <tag k="name:br" v="Antilhez Nederlandat"/>
    <tag k="name:bs" v="Holandski Antili"/>
    <tag k="name:ca" v="Antilles Neerlandeses"/>
    <tag k="name:cs" v="Nizozemské Antily"/>
    <tag k="name:cy" v="Antilles yr Iseldiroedd"/>
    <tag k="name:da" v="Nederlandske Antiller"/>
    <tag k="name:de" v="Niederländische Antillen"/>
    <tag k="name:dsb" v="Nižozemske Antile"/>
    <tag k="name:dv" v="ނެދަލޭންޑު އެންޓިލޭ"/>
    <tag k="name:el" v="Ολλανδικές Αντίλλες"/>
    <tag k="name:en" v="Netherlands Antilles"/>
    <tag k="name:eo" v="Nederlandaj Antiloj"/>
    <tag k="name:es" v="Antillas Neerlandesas;Antillas Holandesas;Indias Occidentales Holandesas"/>
    <tag k="name:et" v="Hollandi Antillid"/>
    <tag k="name:eu" v="Holandarren Antillak"/>
    <tag k="name:fa" v="آنتیل هلند"/>
    <tag k="name:fi" v="Alankomaiden Antillit"/>
    <tag k="name:fo" v="Niðurlendsku Antillurnar"/>
    <tag k="name:fr" v="Antilles néerlandaises"/>
    <tag k="name:frp" v="Antiles nêrlandêses"/>
    <tag k="name:fy" v="Nederlânske Antillen"/>
    <tag k="name:ga" v="Aintillí na hÍsiltíre"/>
    <tag k="name:gl" v="Antillas Neerlandesas"/>
    <tag k="name:he" v="האנטילים ההולנדיים"/>
    <tag k="name:hi" v="नीदरलैंड एंटीलीज़"/>
    <tag k="name:hr" v="Nizozemski Antili"/>
    <tag k="name:hu" v="Holland Antillák"/>
    <tag k="name:ia" v="Antillas Nederlandese"/>
    <tag k="name:id" v="Antillen Belanda"/>
    <tag k="name:io" v="Nederlandana Antili"/>
    <tag k="name:is" v="Hollensku Antillaeyjar"/>
    <tag k="name:it" v="Antille Olandesi"/>
    <tag k="name:ja" v="オランダ領アンティル"/>
    <tag k="name:jv" v="Antillen Walanda"/>
    <tag k="name:ka" v="ნიდერლანდის ანტილები"/>
    <tag k="name:kk" v="Антийлер"/>
    <tag k="name:ko" v="네덜란드령 안틸레스"/>
    <tag k="name:kw" v="Antillys Iseldiryek"/>
    <tag k="name:la" v="Antillae Nederlandiae"/>
    <tag k="name:lb" v="Hollännesch Antillen"/>
    <tag k="name:li" v="Nederlandse Antille"/>
    <tag k="name:lij" v="Antille Olandeixi"/>
    <tag k="name:lmo" v="Antil Ulandes"/>
    <tag k="name:ln" v="Antiya ya Holanda"/>
    <tag k="name:lt" v="Olandijos Antilai"/>
    <tag k="name:lv" v="Antiļas"/>
    <tag k="name:mn" v="Нидерландын Антиллийн Арлууд"/>
    <tag k="name:mr" v="नेदरलँड्स अँटिल्स"/>
    <tag k="name:ms" v="Antillen Belanda"/>
    <tag k="name:nn" v="Dei nederlandske Antillane"/>
    <tag k="name:no" v="De nederlandske Antillene"/>
    <tag k="name:nov" v="Nederlandani Antiles"/>
    <tag k="name:pap" v="Antias Hulandes"/>
    <tag k="name:pl" v="Antyle Holenderskie"/>
    <tag k="name:pms" v="Antile Olandèise"/>
    <tag k="name:pt" v="Antilhas Holandesas"/>
    <tag k="name:ro" v="Antilele Olandeze"/>
    <tag k="name:ru" v="Нидерландские Антилы"/>
    <tag k="name:sah" v="Недерланд Антиллара"/>
    <tag k="name:sh" v="Nizozemski Antili"/>
    <tag k="name:simple" v="Netherlands Antilles"/>
    <tag k="name:sk" v="Holandské Antily"/>
    <tag k="name:sl" v="Nizozemski Antili"/>
    <tag k="name:sr" v="Холандски Антили"/>
    <tag k="name:sv" v="Nederländska Antillerna"/>
    <tag k="name:sw" v="Antili za Kiholanzi"/>
    <tag k="name:ta" v="நெதர்லாந்து அண்டிலிசு"/>
    <tag k="name:tg" v="Антил Ҳоланд"/>
    <tag k="name:th" v="เนเธอร์แลนด์แอนทิลลิส"/>
    <tag k="name:tr" v="Hollanda Antilleri"/>
    <tag k="name:uk" v="Нідерландські Антильські острови"/>
    <tag k="name:vec" v="Antiłe Ołandexi"/>
    <tag k="name:vi" v="Antille thuộc Hà Lan"/>
    <tag k="name:wuu" v="荷属安地列斯"/>
    <tag k="name:zh" v="荷属安的列斯"/>
    <tag k="name:zh-min-nan" v="Kē-tē-kok Antilles"/>
    <tag k="official_name:lv" v="Nīderlandes Antiļas"/>
    <tag k="place:former" v="country"/>
    <tag k="wikipedia" v="Netherlands Antilles"/>
  </node>
  <node id="332792168" version="42" timestamp="2010-12-23T21:11:51Z" uid="141913" user="Pauluzz" changeset="6749792" lat="12.1821493" lon="-68.9967811">
    <tag k="aeroway" v="Netherlands Antilles"/>
    <tag k="former_capital_city" v="NT"/>
    <tag k="former_country_code_iso3166_1_alpha_2" v="AN"/>
    <tag k="geonames:id" v="3513447"/>
    <tag k="is_in:sea" v="Caribbean Sea"/>
    <tag k="name" v="De Nederlandse Antillen"/>
    <tag k="name:af" v="Nederlandse Antille"/>
    <tag k="name:an" v="Antillas Neerlandesas"/>
    <tag k="name:ar" v="جزر الأنتيل"/>
    <tag k="name:be" v="Нідэрландскія Антылы"/>
    <tag k="name:be-x-old" v="Нідэрляндзкія Антылы"/>
    <tag k="name:bg" v="Холандски Антили"/>
    <tag k="name:bpy" v="নেদারল্যান্ড এন্টিল্লেস"/>
    <tag k="name:br" v="Antilhez Nederlandat"/>
    <tag k="name:bs" v="Holandski Antili"/>
    <tag k="name:ca" v="Antilles Neerlandeses"/>
    <tag k="name:cs" v="Nizozemské Antily"/>
    <tag k="name:cy" v="Antilles yr Iseldiroedd"/>
    <tag k="name:da" v="Nederlandske Antiller"/>
    <tag k="name:de" v="Niederländische Antillen"/>
    <tag k="name:dsb" v="Nižozemske Antile"/>
    <tag k="name:dv" v="ނެދަލޭންޑު އެންޓިލޭ"/>
    <tag k="name:el" v="Ολλανδικές Αντίλλες"/>
    <tag k="name:en" v="Netherlands Antilles"/>
    <tag k="name:eo" v="Nederlandaj Antiloj"/>
    <tag k="name:es" v="Antillas Neerlandesas;Antillas Holandesas;Indias Occidentales Holandesas"/>
    <tag k="name:et" v="Hollandi Antillid"/>
    <tag k="name:eu" v="Holandarren Antillak"/>
    <tag k="name:fa" v="آنتیل هلند"/>
    <tag k="name:fi" v="Alankomaiden Antillit"/>
    <tag k="name:fo" v="Niðurlendsku Antillurnar"/>
    <tag k="name:fr" v="Antilles néerlandaises"/>
    <tag k="name:frp" v="Antiles nêrlandêses"/>
    <tag k="name:fy" v="Nederlânske Antillen"/>
    <tag k="name:ga" v="Aintillí na hÍsiltíre"/>
    <tag k="name:gl" v="Antillas Neerlandesas"/>
    <tag k="name:he" v="האנטילים ההולנדיים"/>
    <tag k="name:hi" v="नीदरलैंड एंटीलीज़"/>
    <tag k="name:hr" v="Nizozemski Antili"/>
    <tag k="name:hu" v="Holland Antillák"/>
    <tag k="name:ia" v="Antillas Nederlandese"/>
    <tag k="name:id" v="Antillen Belanda"/>
    <tag k="name:io" v="Nederlandana Antili"/>
    <tag k="name:is" v="Hollensku Antillaeyjar"/>
    <tag k="name:it" v="Antille Olandesi"/>
    <tag k="name:ja" v="オランダ領アンティル"/>
    <tag k="name:jv" v="Antillen Walanda"/>
    <tag k="name:ka" v="ნიდერლანდის ანტილები"/>
    <tag k="name:kk" v="Антийлер"/>
    <tag k="name:ko" v="네덜란드령 안틸레스"/>
    <tag k="name:kw" v="Antillys Iseldiryek"/>
    <tag k="name:la" v="Antillae Nederlandiae"/>
    <tag k="name:lb" v="Hollännesch Antillen"/>
    <tag k="name:li" v="Nederlandse Antille"/>
    <tag k="name:lij" v="Antille Olandeixi"/>
    <tag k="name:lmo" v="Antil Ulandes"/>
    <tag k="name:ln" v="Antiya ya Holanda"/>
    <tag k="name:lt" v="Olandijos Antilai"/>
    <tag k="name:lv" v="Antiļas"/>
    <tag k="name:mn" v="Нидерландын Антиллийн Арлууд"/>
    <tag k="name:mr" v="नेदरलँड्स अँटिल्स"/>
    <tag k="name:ms" v="Antillen Belanda"/>
    <tag k="name:nn" v="Dei nederlandske Antillane"/>
    <tag k="name:no" v="De nederlandske Antillene"/>
    <tag k="name:nov" v="Nederlandani Antiles"/>
    <tag k="name:pap" v="Antias Hulandes"/>
    <tag k="name:pl" v="Antyle Holenderskie"/>
    <tag k="name:pms" v="Antile Olandèise"/>
    <tag k="name:pt" v="Antilhas Holandesas"/>
    <tag k="name:ro" v="Antilele Olandeze"/>
    <tag k="name:ru" v="Нидерландские Антилы"/>
    <tag k="name:sah" v="Недерланд Антиллара"/>
    <tag k="name:sh" v="Nizozemski Antili"/>
    <tag k="name:simple" v="Netherlands Antilles"/>
    <tag k="name:sk" v="Holandské Antily"/>
    <tag k="name:sl" v="Nizozemski Antili"/>
    <tag k="name:sr" v="Холандски Антили"/>
    <tag k="name:sv" v="Nederländska Antillerna"/>
    <tag k="name:sw" v="Antili za Kiholanzi"/>
    <tag k="name:ta" v="நெதர்லாந்து அண்டிலிசு"/>
    <tag k="name:tg" v="Антил Ҳоланд"/>
    <tag k="name:th" v="เนเธอร์แลนด์แอนทิลลิส"/>
    <tag k="name:tr" v="Hollanda Antilleri"/>
    <tag k="name:uk" v="Нідерландські Антильські острови"/>
    <tag k="name:vec" v="Antiłe Ołandexi"/>
    <tag k="name:vi" v="Antille thuộc Hà Lan"/>
    <tag k="name:wuu" v="荷属安地列斯"/>
    <tag k="name:zh" v="荷属安的列斯"/>
    <tag k="name:zh-min-nan" v="Kē-tē-kok Antilles"/>
    <tag k="official_name:lv" v="Nīderlandes Antiļas"/>
    <tag k="wikipedia" v="Netherlands Antilles"/>
  </node>
  <node id="332792741" version="2" timestamp="2010-05-01T02:48:49Z" uid="4467" user="Rosscoe" changeset="4571328" lat="-27.5858359" lon="151.916139">
    <tag k="direction" v="clockwise"/>
    <tag k="highway" v="mini_roundabout"/>
  </node>
  <node id="332792765" version="2" timestamp="2009-08-10T06:46:08Z" uid="4467" user="Rosscoe" changeset="2093517" lat="-27.5547992" lon="151.9366861"/>
  <node id="332792765" version="3" timestamp="2010-07-31T01:06:56Z" uid="62457" user="cybercrypt" changeset="5359202" lat="-27.5547992" lon="151.9366861"/>
  <node id="332792765" version="4" timestamp="2010-08-04T13:18:25Z" uid="62457" user="cybercrypt" changeset="5398792" lat="-27.5547645" lon="151.9366787"/>
  <node id="332792770" version="6" timestamp="2010-05-01T13:51:02Z" uid="4467" user="Rosscoe" changeset="4575172" lat="-27.5621242" lon="151.9322881"/>
  <node id="332792770" version="7" timestamp="2010-08-02T03:13:45Z" uid="62457" user="cybercrypt" changeset="5376636" lat="-27.5621262" lon="151.9323051"/>
  <node id="332792773" version="3" timestamp="2010-05-01T13:51:07Z" uid="4467" user="Rosscoe" changeset="4575172" lat="-27.5623976" lon="151.9320801"/>
  <node id="332792773" version="4" timestamp="2010-08-02T03:06:00Z" uid="62457" user="cybercrypt" changeset="5376636" lat="-27.5623976" lon="151.9320801"/>
  <node id="332792774" version="7" timestamp="2010-05-01T13:51:05Z" uid="4467" user="Rosscoe" changeset="4575172" lat="-27.5626194" lon="151.9321741"/>
  <node id="332792774" version="8" timestamp="2010-08-02T02:58:46Z" uid="62457" user="cybercrypt" changeset="5376636" lat="-27.5625352" lon="151.9322609"/>
  <node id="332792774" version="9" timestamp="2010-08-02T03:07:26Z" uid="62457" user="cybercrypt" changeset="5376636" lat="-27.5625352" lon="151.9322609"/>
  <node id="332792774" version="10" timestamp="2010-08-02T03:09:17Z" uid="62457" user="cybercrypt" changeset="5376636" lat="-27.5625346" lon="151.9322669"/>
  <node id="332792779" version="2" timestamp="2009-08-10T06:46:07Z" uid="4467" user="Rosscoe" changeset="2093517" lat="-27.5551392" lon="151.9391309"/>
  <node id="332792779" version="3" timestamp="2010-07-31T01:06:56Z" uid="62457" user="cybercrypt" changeset="5359202" lat="-27.5551392" lon="151.9391309"/>
  <node id="332792779" version="4" timestamp="2010-08-04T13:18:25Z" uid="62457" user="cybercrypt" changeset="5398792" lat="-27.5550962" lon="151.939074"/>
  <node id="332792819" version="3" timestamp="2010-04-16T15:06:40Z" uid="4467" user="Rosscoe" changeset="4439473" lat="-27.5908115" lon="151.952611"/>
  <node id="332792871" version="2" timestamp="2010-04-16T15:06:39Z" uid="4467" user="Rosscoe" changeset="4439473" lat="-27.5939661" lon="151.9543972"/>
  <node id="332792872" version="3" timestamp="2010-04-16T15:06:39Z" uid="4467" user="Rosscoe" changeset="4439473" lat="-27.5932646" lon="151.9545238"/>
  <node id="332795466" version="1" timestamp="2009-01-18T01:16:08Z" uid="7617" user="Franc" changeset="804434" lat="-33.8327627" lon="151.1648474">
    <tag k="highway" v="turning_circle"/>
  </node>
  <node id="332795466" version="2" timestamp="2010-03-12T08:33:09Z" uid="7617" user="Franc" changeset="4104261" lat="-33.8327315" lon="151.1648353">
    <tag k="highway" v="turning_circle"/>
  </node>
  <node id="332795467" version="1" timestamp="2009-01-18T01:16:08Z" uid="7617" user="Franc" changeset="804434" lat="-33.8330941" lon="151.1653224"/>
  <node id="332795467" version="2" timestamp="2009-01-20T05:09:23Z" uid="7617" user="Franc" changeset="817534" lat="-33.8331087" lon="151.1653384"/>
  <node id="332795467" version="3" timestamp="2010-03-12T08:33:10Z" uid="7617" user="Franc" changeset="4104261" lat="-33.8330775" lon="151.1653263"/>
  <node id="332795469" version="1" timestamp="2009-01-18T01:16:09Z" uid="7617" user="Franc" changeset="804434" lat="-33.8306944" lon="151.1628045">
    <tag k="highway" v="turning_circle"/>
  </node>
  <node id="332795469" version="2" timestamp="2010-03-12T08:33:10Z" uid="7617" user="Franc" changeset="4104261" lat="-33.8306446" lon="151.1627759">
    <tag k="highway" v="turning_circle"/>
  </node>
  <node id="332795530" version="3" timestamp="2009-03-25T22:32:49Z" uid="20587" user="balrog-kun" changeset="857772" lat="37.3796495" lon="-5.9658907"/>
  <node id="332795530" version="4" timestamp="2009-11-25T19:10:28Z" uid="161725" user="Alberto Molina" changeset="3215145" lat="37.3796534" lon="-5.9659229"/>
  <node id="332795530" version="5" timestamp="2010-08-17T17:34:31Z" uid="161725" user="Alberto Molina" changeset="5519789" lat="37.3796598" lon="-5.9659757"/>
  <node id="332795660" version="2" timestamp="2009-03-25T22:32:29Z" uid="20587" user="balrog-kun" changeset="857772" lat="37.3802916" lon="-5.9658279"/>
  <node id="332795660" version="3" timestamp="2009-11-25T19:10:28Z" uid="161725" user="Alberto Molina" changeset="3215145" lat="37.3802938" lon="-5.9658462"/>
  <node id="332795660" version="4" timestamp="2010-08-17T17:34:35Z" uid="161725" user="Alberto Molina" changeset="5519789" lat="37.3803001" lon="-5.9658976"/>
  <node id="332795837" version="1" timestamp="2009-01-18T01:20:41Z" uid="7617" user="Franc" changeset="804434" lat="-33.8293049" lon="151.1665982"/>
  <node id="332795837" version="2" timestamp="2010-03-12T08:33:12Z" uid="7617" user="Franc" changeset="4104261" lat="-33.8292663" lon="151.1665534">
    <tag k="highway" v="turning_circle"/>
  </node>
  <node id="332795838" version="1" timestamp="2009-01-18T01:20:41Z" uid="7617" user="Franc" changeset="804434" lat="-33.8287884" lon="151.1671645"/>
  <node id="332795840" version="1" timestamp="2009-01-18T01:20:42Z" uid="7617" user="Franc" changeset="804434" lat="-33.8297454" lon="151.1656727"/>
  <node id="332795842" version="1" timestamp="2009-01-18T01:20:43Z" uid="7617" user="Franc" changeset="804434" lat="-33.826895" lon="151.171661"/>
  <node id="332795842" version="2" timestamp="2010-01-01T14:09:36Z" uid="7617" user="Franc" changeset="3508229" lat="-33.8269478" lon="151.1718176"/>
  <node id="332795883" version="2" timestamp="2009-03-25T22:32:40Z" uid="20587" user="balrog-kun" changeset="857772" lat="37.3790648" lon="-5.965969"/>
  <node id="332795883" version="3" timestamp="2009-09-29T22:23:56Z" uid="161725" user="Alberto Molina" changeset="2683032" lat="37.3790828" lon="-5.965978"/>
  <node id="332795883" version="4" timestamp="2009-11-25T19:10:27Z" uid="161725" user="Alberto Molina" changeset="3215145" lat="37.3790844" lon="-5.965991"/>
  <node id="332795883" version="5" timestamp="2010-08-17T17:34:36Z" uid="161725" user="Alberto Molina" changeset="5519789" lat="37.379057" lon="-5.9660493"/>
  <node id="332797415" version="3" timestamp="2009-03-28T20:07:55Z" uid="34428" user="usm78-gis" changeset="865258" lat="59.939485" lon="30.6848233"/>
  <node id="332797416" version="3" timestamp="2009-03-28T20:07:55Z" uid="34428" user="usm78-gis" changeset="865258" lat="59.9384106" lon="30.6860489"/>
  <node id="332797417" version="3" timestamp="2009-03-28T20:07:55Z" uid="34428" user="usm78-gis" changeset="865258" lat="59.9371059" lon="30.6866617"/>
  <node id="332797418" version="3" timestamp="2009-03-28T20:07:55Z" uid="34428" user="usm78-gis" changeset="865258" lat="59.9353407" lon="30.6883469"/>
  <node id="332797419" version="3" timestamp="2009-03-28T20:07:55Z" uid="34428" user="usm78-gis" changeset="865258" lat="59.9338056" lon="30.6900322"/>
  <node id="332797420" version="3" timestamp="2009-03-28T20:07:55Z" uid="34428" user="usm78-gis" changeset="865258" lat="59.9326543" lon="30.6911046"/>
  <node id="332797421" version="3" timestamp="2009-03-28T20:07:55Z" uid="34428" user="usm78-gis" changeset="865258" lat="59.9319635" lon="30.6927898"/>
  <node id="332797422" version="3" timestamp="2009-03-28T20:07:55Z" uid="34428" user="usm78-gis" changeset="865258" lat="59.9305818" lon="30.6946282"/>
  <node id="332797423" version="3" timestamp="2009-03-28T20:07:55Z" uid="34428" user="usm78-gis" changeset="865258" lat="59.9300445" lon="30.6967731"/>
  <node id="332797503" version="2" timestamp="2009-12-09T11:01:13Z" uid="74617" user="JohnSmith" changeset="3332634" lat="-27.1660434" lon="152.9804481"/>
  <node id="332797506" version="4" timestamp="2009-12-09T11:01:13Z" uid="74617" user="JohnSmith" changeset="3332634" lat="-27.1691575" lon="152.981177"/>
  <node id="332797507" version="4" timestamp="2009-12-09T11:01:13Z" uid="74617" user="JohnSmith" changeset="3332634" lat="-27.1694344" lon="152.980984"/>
  <node id="332797508" version="2" timestamp="2009-12-09T11:01:13Z" uid="74617" user="JohnSmith" changeset="3332634" lat="-27.1673542" lon="152.9801434"/>
  <node id="332798677" version="2" timestamp="2009-03-21T22:23:14Z" uid="34428" user="usm78-gis" changeset="844942" lat="61.5421" lon="29.77991"/>
  <node id="332798678" version="2" timestamp="2009-03-21T22:23:15Z" uid="34428" user="usm78-gis" changeset="844942" lat="61.54212" lon="29.77989"/>
  <node id="332798679" version="2" timestamp="2009-03-21T22:23:15Z" uid="34428" user="usm78-gis" changeset="844942" lat="61.54208" lon="29.77985"/>
  <node id="332798680" version="2" timestamp="2009-03-21T22:23:15Z" uid="34428" user="usm78-gis" changeset="844942" lat="61.54202" lon="29.77993"/>
  <node id="332798681" version="2" timestamp="2009-03-21T22:23:15Z" uid="34428" user="usm78-gis" changeset="844942" lat="61.54132" lon="29.78221"/>
  <node id="332798682" version="2" timestamp="2009-03-21T22:23:15Z" uid="34428" user="usm78-gis" changeset="844942" lat="61.54019" lon="29.78569"/>
  <node id="332798683" version="2" timestamp="2009-03-21T22:23:15Z" uid="34428" user="usm78-gis" changeset="844942" lat="61.54001" lon="29.78935"/>
  <node id="332798684" version="2" timestamp="2009-03-21T22:23:15Z" uid="34428" user="usm78-gis" changeset="844942" lat="61.53963" lon="29.79098"/>
  <node id="332798685" version="2" timestamp="2009-03-21T22:23:15Z" uid="34428" user="usm78-gis" changeset="844942" lat="61.53883" lon="29.79213"/>
  <node id="332798686" version="2" timestamp="2009-03-21T22:23:15Z" uid="34428" user="usm78-gis" changeset="844942" lat="61.5375" lon="29.79279"/>
  <node id="332798687" version="2" timestamp="2009-03-21T22:23:15Z" uid="34428" user="usm78-gis" changeset="844942" lat="61.53543" lon="29.7929"/>
  <node id="332798688" version="2" timestamp="2009-03-21T22:23:15Z" uid="34428" user="usm78-gis" changeset="844942" lat="61.53252" lon="29.79326"/>
  <node id="332798689" version="2" timestamp="2009-03-21T22:23:16Z" uid="34428" user="usm78-gis" changeset="844942" lat="61.53091" lon="29.79348"/>
  <node id="332798690" version="2" timestamp="2009-03-21T22:23:16Z" uid="34428" user="usm78-gis" changeset="844942" lat="61.52952" lon="29.79258"/>
  <node id="332798691" version="2" timestamp="2009-03-21T22:23:16Z" uid="34428" user="usm78-gis" changeset="844942" lat="61.52814" lon="29.79161"/>
  <node id="332798692" version="2" timestamp="2009-03-21T22:23:16Z" uid="34428" user="usm78-gis" changeset="844942" lat="61.52759" lon="29.79159"/>
  <node id="332798693" version="2" timestamp="2009-03-21T22:23:16Z" uid="34428" user="usm78-gis" changeset="844942" lat="61.52707" lon="29.79202"/>
  <node id="332798694" version="2" timestamp="2009-03-21T22:23:16Z" uid="34428" user="usm78-gis" changeset="844942" lat="61.52579" lon="29.79409"/>
  <node id="332798695" version="2" timestamp="2009-03-21T22:23:16Z" uid="34428" user="usm78-gis" changeset="844942" lat="61.5257" lon="29.79435"/>
  <node id="332798696" version="2" timestamp="2009-03-21T22:23:16Z" uid="34428" user="usm78-gis" changeset="844942" lat="61.52538" lon="29.7963"/>
  <node id="332798697" version="2" timestamp="2009-03-21T22:23:16Z" uid="34428" user="usm78-gis" changeset="844942" lat="61.52531" lon="29.79732"/>
  <node id="332798698" version="2" timestamp="2009-03-21T22:23:16Z" uid="34428" user="usm78-gis" changeset="844942" lat="61.52493" lon="29.79892"/>
  <node id="332798699" version="2" timestamp="2009-03-21T22:23:16Z" uid="34428" user="usm78-gis" changeset="844942" lat="61.52436" lon="29.80068"/>
  <node id="332798700" version="2" timestamp="2009-03-21T22:23:16Z" uid="34428" user="usm78-gis" changeset="844942" lat="61.52429" lon="29.80094"/>
  <node id="332798701" version="2" timestamp="2009-03-21T22:23:16Z" uid="34428" user="usm78-gis" changeset="844942" lat="61.5242" lon="29.80248"/>
  <node id="332798702" version="2" timestamp="2009-03-21T22:23:16Z" uid="34428" user="usm78-gis" changeset="844942" lat="61.52425" lon="29.8027"/>
  <node id="332798703" version="2" timestamp="2009-03-21T22:23:17Z" uid="34428" user="usm78-gis" changeset="844942" lat="61.5244" lon="29.8039"/>
  <node id="332798704" version="2" timestamp="2009-03-21T22:23:17Z" uid="34428" user="usm78-gis" changeset="844942" lat="61.52433" lon="29.80444"/>
  <node id="332798705" version="2" timestamp="2009-03-21T22:23:17Z" uid="34428" user="usm78-gis" changeset="844942" lat="61.52396" lon="29.8057"/>
  <node id="332798706" version="2" timestamp="2009-03-21T22:23:17Z" uid="34428" user="usm78-gis" changeset="844942" lat="61.52376" lon="29.80607"/>
  <node id="332798707" version="2" timestamp="2009-03-21T22:23:17Z" uid="34428" user="usm78-gis" changeset="844942" lat="61.52201" lon="29.80719"/>
  <node id="332798708" version="2" timestamp="2009-03-21T22:23:17Z" uid="34428" user="usm78-gis" changeset="844942" lat="61.51976" lon="29.80807"/>
  <node id="332798709" version="2" timestamp="2009-03-21T22:23:17Z" uid="34428" user="usm78-gis" changeset="844942" lat="61.51877" lon="29.80855"/>
  <node id="332798710" version="2" timestamp="2009-03-21T22:23:17Z" uid="34428" user="usm78-gis" changeset="844942" lat="61.5177" lon="29.81027"/>
  <node id="332798711" version="2" timestamp="2009-03-21T22:23:17Z" uid="34428" user="usm78-gis" changeset="844942" lat="61.51726" lon="29.81127"/>
  <node id="332798712" version="2" timestamp="2009-03-21T22:23:17Z" uid="34428" user="usm78-gis" changeset="844942" lat="61.5168" lon="29.81208"/>
  <node id="332798713" version="2" timestamp="2009-03-21T22:23:17Z" uid="34428" user="usm78-gis" changeset="844942" lat="61.51596" lon="29.81497"/>
  <node id="332798714" version="2" timestamp="2009-03-21T22:23:17Z" uid="34428" user="usm78-gis" changeset="844942" lat="61.51513" lon="29.81726"/>
  <node id="332798715" version="2" timestamp="2009-03-21T22:23:17Z" uid="34428" user="usm78-gis" changeset="844942" lat="61.51357" lon="29.82034"/>
  <node id="332798716" version="2" timestamp="2009-03-21T22:23:18Z" uid="34428" user="usm78-gis" changeset="844942" lat="61.51194" lon="29.82377"/>
  <node id="332798717" version="2" timestamp="2009-03-21T22:23:18Z" uid="34428" user="usm78-gis" changeset="844942" lat="61.51042" lon="29.82559"/>
  <node id="332798718" version="2" timestamp="2009-03-21T22:23:18Z" uid="34428" user="usm78-gis" changeset="844942" lat="61.50814" lon="29.82735"/>
  <node id="332798719" version="2" timestamp="2009-03-21T22:23:18Z" uid="34428" user="usm78-gis" changeset="844942" lat="61.50741" lon="29.82835"/>
  <node id="332798720" version="2" timestamp="2009-03-21T22:23:18Z" uid="34428" user="usm78-gis" changeset="844942" lat="61.50672" lon="29.82965"/>
  <node id="332798721" version="2" timestamp="2009-03-21T22:23:18Z" uid="34428" user="usm78-gis" changeset="844942" lat="61.50619" lon="29.83088"/>
  <node id="332798722" version="2" timestamp="2009-03-21T22:23:18Z" uid="34428" user="usm78-gis" changeset="844942" lat="61.50473" lon="29.83319"/>
  <node id="332798723" version="2" timestamp="2009-03-21T22:23:18Z" uid="34428" user="usm78-gis" changeset="844942" lat="61.50326" lon="29.83621"/>
  <node id="332798724" version="2" timestamp="2009-03-21T22:23:18Z" uid="34428" user="usm78-gis" changeset="844942" lat="61.50219" lon="29.83962"/>
  <node id="332798725" version="2" timestamp="2009-03-21T22:23:18Z" uid="34428" user="usm78-gis" changeset="844942" lat="61.50113" lon="29.84284"/>
  <node id="332798726" version="2" timestamp="2009-03-21T22:23:18Z" uid="34428" user="usm78-gis" changeset="844942" lat="61.49978" lon="29.84395"/>
  <node id="332798727" version="2" timestamp="2009-03-21T22:23:18Z" uid="34428" user="usm78-gis" changeset="844942" lat="61.49838" lon="29.84443"/>
  <node id="332798728" version="2" timestamp="2009-03-21T22:23:18Z" uid="34428" user="usm78-gis" changeset="844942" lat="61.49824" lon="29.84451"/>
  <node id="332798729" version="2" timestamp="2009-03-21T22:23:18Z" uid="34428" user="usm78-gis" changeset="844942" lat="61.49782" lon="29.84497"/>
  <node id="332798730" version="2" timestamp="2009-03-21T22:23:18Z" uid="34428" user="usm78-gis" changeset="844942" lat="61.49735" lon="29.84591"/>
  <node id="332798731" version="2" timestamp="2009-03-21T22:23:18Z" uid="34428" user="usm78-gis" changeset="844942" lat="61.4959" lon="29.85052"/>
  <node id="332798732" version="2" timestamp="2009-03-21T22:23:19Z" uid="34428" user="usm78-gis" changeset="844942" lat="61.49425" lon="29.85651"/>
  <node id="332798733" version="2" timestamp="2009-03-21T22:23:19Z" uid="34428" user="usm78-gis" changeset="844942" lat="61.49375" lon="29.85996"/>
  <node id="332798734" version="2" timestamp="2009-03-21T22:23:19Z" uid="34428" user="usm78-gis" changeset="844942" lat="61.49305" lon="29.86607"/>
  <node id="332798735" version="2" timestamp="2009-03-21T22:23:19Z" uid="34428" user="usm78-gis" changeset="844942" lat="61.49302" lon="29.86644"/>
  <node id="332798736" version="2" timestamp="2009-03-21T22:23:19Z" uid="34428" user="usm78-gis" changeset="844942" lat="61.49301" lon="29.8672"/>
  <node id="332798743" version="2" timestamp="2009-03-21T22:23:19Z" uid="34428" user="usm78-gis" changeset="844942" lat="61.4936" lon="29.87084"/>
  <node id="332798749" version="2" timestamp="2009-03-21T22:23:19Z" uid="34428" user="usm78-gis" changeset="844942" lat="61.49401" lon="29.87309"/>
  <node id="332798750" version="2" timestamp="2009-03-21T22:23:19Z" uid="34428" user="usm78-gis" changeset="844942" lat="61.49404" lon="29.8751"/>
  <node id="332798751" version="2" timestamp="2009-03-21T22:23:19Z" uid="34428" user="usm78-gis" changeset="844942" lat="61.49344" lon="29.8785"/>
  <node id="332798752" version="2" timestamp="2009-03-21T22:23:19Z" uid="34428" user="usm78-gis" changeset="844942" lat="61.4917" lon="29.88688"/>
  <node id="332798753" version="2" timestamp="2009-03-21T22:23:19Z" uid="34428" user="usm78-gis" changeset="844942" lat="61.49113" lon="29.88903"/>
  <node id="332798754" version="2" timestamp="2009-03-21T22:23:19Z" uid="34428" user="usm78-gis" changeset="844942" lat="61.48978" lon="29.8918"/>
  <node id="332798755" version="2" timestamp="2009-03-21T22:23:19Z" uid="34428" user="usm78-gis" changeset="844942" lat="61.48853" lon="29.89353"/>
  <node id="332798756" version="2" timestamp="2009-03-21T22:23:19Z" uid="34428" user="usm78-gis" changeset="844942" lat="61.48841" lon="29.89377"/>
  <node id="332798757" version="2" timestamp="2009-03-21T22:23:19Z" uid="34428" user="usm78-gis" changeset="844942" lat="61.48804" lon="29.89483"/>
  <node id="332798758" version="2" timestamp="2009-03-21T22:23:19Z" uid="34428" user="usm78-gis" changeset="844942" lat="61.48766" lon="29.89721"/>
  <node id="332798759" version="2" timestamp="2009-03-21T22:23:19Z" uid="34428" user="usm78-gis" changeset="844942" lat="61.48786" lon="29.90139"/>
  <node id="332798760" version="2" timestamp="2009-03-21T22:23:19Z" uid="34428" user="usm78-gis" changeset="844942" lat="61.48798" lon="29.90371"/>
  <node id="332798761" version="2" timestamp="2009-03-21T22:23:19Z" uid="34428" user="usm78-gis" changeset="844942" lat="61.48774" lon="29.90726"/>
  <node id="332798762" version="2" timestamp="2009-03-21T22:23:19Z" uid="34428" user="usm78-gis" changeset="844942" lat="61.48696" lon="29.9119"/>
  <node id="332798763" version="2" timestamp="2009-03-21T22:23:19Z" uid="34428" user="usm78-gis" changeset="844942" lat="61.48676" lon="29.9155"/>
  <node id="332798763" version="3" timestamp="2010-07-29T11:12:23Z" uid="53613" user="Soitanen" changeset="5345805" lat="61.4868109" lon="29.9139755"/>
  <node id="332798764" version="2" timestamp="2009-03-21T22:23:19Z" uid="34428" user="usm78-gis" changeset="844942" lat="61.48671" lon="29.91652"/>
  <node id="332798764" version="3" timestamp="2010-07-29T11:12:21Z" uid="53613" user="Soitanen" changeset="5345805" lat="61.4867755" lon="29.9149955"/>
  <node id="332798765" version="2" timestamp="2009-03-21T22:23:19Z" uid="34428" user="usm78-gis" changeset="844942" lat="61.4866" lon="29.91652"/>
  <node id="332798765" version="3" timestamp="2010-07-29T11:12:38Z" uid="53613" user="Soitanen" changeset="5345805" lat="61.4867383" lon="29.915895"/>
  <node id="332798766" version="2" timestamp="2009-03-21T22:23:20Z" uid="34428" user="usm78-gis" changeset="844942" lat="61.48625" lon="29.91548"/>
  <node id="332798766" version="3" timestamp="2010-07-29T11:12:32Z" uid="53613" user="Soitanen" changeset="5345805" lat="61.4864174" lon="29.914855"/>
  <node id="332798767" version="2" timestamp="2009-03-21T22:23:20Z" uid="34428" user="usm78-gis" changeset="844942" lat="61.48422" lon="29.91065"/>
  <node id="332798767" version="3" timestamp="2010-07-29T11:12:49Z" uid="53613" user="Soitanen" changeset="5345805" lat="61.4841909" lon="29.9103146"/>
  <node id="332798768" version="2" timestamp="2009-03-21T22:23:20Z" uid="34428" user="usm78-gis" changeset="844942" lat="61.48274" lon="29.90785"/>
  <node id="332798768" version="3" timestamp="2010-07-29T11:12:51Z" uid="53613" user="Soitanen" changeset="5345805" lat="61.4823106" lon="29.9080177"/>
  <node id="332798769" version="2" timestamp="2009-03-21T22:23:20Z" uid="34428" user="usm78-gis" changeset="844942" lat="61.47823" lon="29.90454"/>
  <node id="332798769" version="3" timestamp="2010-02-18T00:29:48Z" uid="34428" user="usm78-gis" changeset="3905955" lat="61.4792427" lon="29.9051239"/>
  <node id="332798769" version="4" timestamp="2010-07-29T11:12:24Z" uid="53613" user="Soitanen" changeset="5345805" lat="61.4793592" lon="29.9049971"/>
  <node id="332798770" version="2" timestamp="2009-03-21T22:23:20Z" uid="34428" user="usm78-gis" changeset="844942" lat="61.47717" lon="29.90392"/>
  <node id="332798770" version="3" timestamp="2010-02-18T00:29:48Z" uid="34428" user="usm78-gis" changeset="3905955" lat="61.4780132" lon="29.9028923"/>
  <node id="332798770" version="4" timestamp="2010-07-29T11:12:21Z" uid="53613" user="Soitanen" changeset="5345805" lat="61.4781733" lon="29.9028923"/>
  <node id="332798771" version="2" timestamp="2009-03-21T22:23:20Z" uid="34428" user="usm78-gis" changeset="844942" lat="61.47695" lon="29.90127"/>
  <node id="332798771" version="3" timestamp="2010-07-29T11:12:37Z" uid="53613" user="Soitanen" changeset="5345805" lat="61.4766406" lon="29.9010223"/>
  <node id="332798772" version="2" timestamp="2009-03-21T22:23:20Z" uid="34428" user="usm78-gis" changeset="844942" lat="61.47425" lon="29.90101"/>
  <node id="332798773" version="2" timestamp="2009-03-21T22:23:20Z" uid="34428" user="usm78-gis" changeset="844942" lat="61.47242" lon="29.901"/>
  <node id="332798773" version="3" timestamp="2010-07-29T11:12:50Z" uid="53613" user="Soitanen" changeset="5345805" lat="61.4723902" lon="29.9005395"/>
  <node id="332798774" version="2" timestamp="2009-03-21T22:23:20Z" uid="34428" user="usm78-gis" changeset="844942" lat="61.47079" lon="29.89896"/>
  <node id="332798774" version="3" timestamp="2010-07-29T11:12:42Z" uid="53613" user="Soitanen" changeset="5345805" lat="61.471502" lon="29.8992644"/>
  <node id="332798775" version="2" timestamp="2009-03-21T22:23:20Z" uid="34428" user="usm78-gis" changeset="844942" lat="61.47033" lon="29.89841"/>
  <node id="332798775" version="3" timestamp="2010-07-29T11:12:19Z" uid="53613" user="Soitanen" changeset="5345805" lat="61.4705462" lon="29.89745"/>
  <node id="332798776" version="2" timestamp="2009-03-21T22:23:20Z" uid="34428" user="usm78-gis" changeset="844942" lat="61.469" lon="29.89631"/>
  <node id="332798776" version="3" timestamp="2010-07-29T11:12:50Z" uid="53613" user="Soitanen" changeset="5345805" lat="61.4694064" lon="29.8943041"/>
  <node id="332798777" version="2" timestamp="2009-03-21T22:23:20Z" uid="34428" user="usm78-gis" changeset="844942" lat="61.46874" lon="29.89519"/>
  <node id="332798777" version="3" timestamp="2010-07-29T11:12:22Z" uid="53613" user="Soitanen" changeset="5345805" lat="61.4689376" lon="29.892466"/>
  <node id="332798778" version="2" timestamp="2009-03-21T22:23:20Z" uid="34428" user="usm78-gis" changeset="844942" lat="61.46836" lon="29.89386"/>
  <node id="332798778" version="3" timestamp="2010-07-29T11:12:19Z" uid="53613" user="Soitanen" changeset="5345805" lat="61.4690236" lon="29.8917292"/>
  <node id="332798779" version="2" timestamp="2009-03-21T22:23:20Z" uid="34428" user="usm78-gis" changeset="844942" lat="61.46848" lon="29.8923"/>
  <node id="332798779" version="3" timestamp="2010-07-29T11:12:33Z" uid="53613" user="Soitanen" changeset="5345805" lat="61.4693188" lon="29.8908014"/>
  <node id="332798780" version="2" timestamp="2009-03-21T22:23:20Z" uid="34428" user="usm78-gis" changeset="844942" lat="61.46989" lon="29.88925"/>
  <node id="332798781" version="2" timestamp="2009-03-21T22:23:20Z" uid="34428" user="usm78-gis" changeset="844942" lat="61.47036" lon="29.88719"/>
  <node id="332798782" version="2" timestamp="2009-03-21T22:23:20Z" uid="34428" user="usm78-gis" changeset="844942" lat="61.47034" lon="29.88635"/>
  <node id="332798783" version="2" timestamp="2009-03-21T22:23:21Z" uid="34428" user="usm78-gis" changeset="844942" lat="61.47006" lon="29.88393"/>
  <node id="332798783" version="3" timestamp="2010-07-29T11:12:18Z" uid="53613" user="Soitanen" changeset="5345805" lat="61.4699799" lon="29.8838538"/>
  <node id="332798784" version="2" timestamp="2009-03-21T22:23:21Z" uid="34428" user="usm78-gis" changeset="844942" lat="61.46977" lon="29.88115"/>
  <node id="332798784" version="3" timestamp="2010-07-29T11:12:20Z" uid="53613" user="Soitanen" changeset="5345805" lat="61.4696574" lon="29.8810911"/>
  <node id="332798785" version="2" timestamp="2009-03-21T22:23:21Z" uid="34428" user="usm78-gis" changeset="844942" lat="61.46914" lon="29.87828"/>
  <node id="332798785" version="3" timestamp="2010-07-29T11:12:37Z" uid="53613" user="Soitanen" changeset="5345805" lat="61.4688234" lon="29.8779117"/>
  <node id="332798786" version="2" timestamp="2009-03-21T22:23:21Z" uid="34428" user="usm78-gis" changeset="844942" lat="61.46907" lon="29.87803"/>
  <node id="332798786" version="3" timestamp="2010-07-29T11:12:25Z" uid="53613" user="Soitanen" changeset="5345805" lat="61.4684367" lon="29.8772051"/>
  <node id="332798787" version="2" timestamp="2009-03-21T22:23:21Z" uid="34428" user="usm78-gis" changeset="844942" lat="61.46755" lon="29.87429"/>
  <node id="332798787" version="3" timestamp="2010-02-18T00:29:34Z" uid="34428" user="usm78-gis" changeset="3905955" lat="61.4665356" lon="29.8749115"/>
  <node id="332798787" version="4" timestamp="2010-07-29T11:12:43Z" uid="53613" user="Soitanen" changeset="5345805" lat="61.4663597" lon="29.8749806"/>
  <node id="332798788" version="2" timestamp="2009-03-21T22:23:21Z" uid="34428" user="usm78-gis" changeset="844942" lat="61.46239" lon="29.86766"/>
  <node id="332798788" version="3" timestamp="2010-02-18T00:29:34Z" uid="34428" user="usm78-gis" changeset="3905955" lat="61.4630095" lon="29.8694183"/>
  <node id="332798788" version="4" timestamp="2010-07-29T11:12:42Z" uid="53613" user="Soitanen" changeset="5345805" lat="61.4631502" lon="29.8694625"/>
  <node id="332798789" version="2" timestamp="2009-03-21T22:23:21Z" uid="34428" user="usm78-gis" changeset="844942" lat="61.46262" lon="29.86305"/>
  <node id="332798789" version="3" timestamp="2010-07-29T11:12:19Z" uid="53613" user="Soitanen" changeset="5345805" lat="61.4624159" lon="29.86305"/>
  <node id="332798790" version="2" timestamp="2009-03-21T22:23:21Z" uid="34428" user="usm78-gis" changeset="844942" lat="61.4624" lon="29.86189"/>
  <node id="332798790" version="3" timestamp="2010-07-29T11:12:51Z" uid="53613" user="Soitanen" changeset="5345805" lat="61.4624845" lon="29.8619637"/>
  <node id="332798791" version="2" timestamp="2009-03-21T22:23:21Z" uid="34428" user="usm78-gis" changeset="844942" lat="61.46241" lon="29.85877"/>
  <node id="332798791" version="3" timestamp="2010-07-29T11:12:23Z" uid="53613" user="Soitanen" changeset="5345805" lat="61.4625226" lon="29.8585932"/>
  <node id="332798792" version="2" timestamp="2009-03-21T22:23:21Z" uid="34428" user="usm78-gis" changeset="844942" lat="61.46264" lon="29.85523"/>
  <node id="332798792" version="3" timestamp="2010-07-29T11:12:19Z" uid="53613" user="Soitanen" changeset="5345805" lat="61.4627667" lon="29.8557603"/>
  <node id="332798793" version="2" timestamp="2009-03-21T22:23:21Z" uid="34428" user="usm78-gis" changeset="844942" lat="61.46288" lon="29.85427"/>
  <node id="332798793" version="3" timestamp="2010-07-29T11:12:32Z" uid="53613" user="Soitanen" changeset="5345805" lat="61.4630067" lon="29.8548003"/>
  <node id="332798794" version="2" timestamp="2009-03-21T22:23:21Z" uid="34428" user="usm78-gis" changeset="844942" lat="61.46322" lon="29.85344"/>
  <node id="332798794" version="3" timestamp="2010-07-29T11:12:23Z" uid="53613" user="Soitanen" changeset="5345805" lat="61.4633467" lon="29.8539703"/>
  <node id="332798796" version="2" timestamp="2009-03-21T22:23:22Z" uid="34428" user="usm78-gis" changeset="844942" lat="61.4635" lon="29.85289"/>
  <node id="332798796" version="3" timestamp="2010-07-29T11:12:40Z" uid="53613" user="Soitanen" changeset="5345805" lat="61.4639715" lon="29.8528458"/>
  <node id="332798797" version="2" timestamp="2009-03-21T22:23:22Z" uid="34428" user="usm78-gis" changeset="844942" lat="61.46385" lon="29.85209"/>
  <node id="332798797" version="3" timestamp="2010-07-29T11:12:18Z" uid="53613" user="Soitanen" changeset="5345805" lat="61.4641385" lon="29.8520311"/>
  <node id="332798798" version="2" timestamp="2009-03-21T22:23:22Z" uid="34428" user="usm78-gis" changeset="844942" lat="61.46409" lon="29.85117"/>
  <node id="332798798" version="3" timestamp="2010-07-29T11:12:49Z" uid="53613" user="Soitanen" changeset="5345805" lat="61.4641393" lon="29.8509638"/>
  <node id="332798799" version="2" timestamp="2009-03-21T22:23:22Z" uid="34428" user="usm78-gis" changeset="844942" lat="61.46397" lon="29.84686"/>
  <node id="332798799" version="3" timestamp="2010-07-29T11:12:21Z" uid="53613" user="Soitanen" changeset="5345805" lat="61.4640474" lon="29.8461676"/>
  <node id="332798800" version="2" timestamp="2009-03-21T22:23:22Z" uid="34428" user="usm78-gis" changeset="844942" lat="61.46438" lon="29.8442"/>
  <node id="332798800" version="3" timestamp="2010-07-29T11:12:24Z" uid="53613" user="Soitanen" changeset="5345805" lat="61.4643519" lon="29.8443326"/>
  <node id="332798801" version="2" timestamp="2009-03-21T22:23:22Z" uid="34428" user="usm78-gis" changeset="844942" lat="61.46451" lon="29.84293"/>
  <node id="332798801" version="3" timestamp="2010-07-29T11:12:42Z" uid="53613" user="Soitanen" changeset="5345805" lat="61.4644537" lon="29.8418694"/>
  <node id="332798802" version="2" timestamp="2009-03-21T22:23:22Z" uid="34428" user="usm78-gis" changeset="844942" lat="61.46437" lon="29.83927"/>
  <node id="332798802" version="3" timestamp="2010-07-29T11:12:38Z" uid="53613" user="Soitanen" changeset="5345805" lat="61.4643348" lon="29.8395057"/>
  <node id="332798803" version="2" timestamp="2009-03-21T22:23:22Z" uid="34428" user="usm78-gis" changeset="844942" lat="61.46475" lon="29.83601"/>
  <node id="332798803" version="3" timestamp="2010-07-29T11:12:16Z" uid="53613" user="Soitanen" changeset="5345805" lat="61.4646585" lon="29.8359953"/>
  <node id="332798804" version="2" timestamp="2009-03-21T22:23:22Z" uid="34428" user="usm78-gis" changeset="844942" lat="61.46537" lon="29.83073"/>
  <node id="332798804" version="3" timestamp="2010-07-29T11:12:50Z" uid="53613" user="Soitanen" changeset="5345805" lat="61.4652574" lon="29.8310099"/>
  <node id="332798805" version="2" timestamp="2009-03-21T22:23:22Z" uid="34428" user="usm78-gis" changeset="844942" lat="61.46545" lon="29.82988"/>
  <node id="332798805" version="3" timestamp="2010-07-29T11:12:23Z" uid="53613" user="Soitanen" changeset="5345805" lat="61.4653726" lon="29.8299389"/>
  <node id="332798806" version="2" timestamp="2009-03-21T22:23:22Z" uid="34428" user="usm78-gis" changeset="844942" lat="61.46515" lon="29.82825"/>
  <node id="332798806" version="3" timestamp="2010-07-29T11:12:20Z" uid="53613" user="Soitanen" changeset="5345805" lat="61.4650304" lon="29.8281322"/>
  <node id="332798807" version="2" timestamp="2009-03-21T22:23:22Z" uid="34428" user="usm78-gis" changeset="844942" lat="61.46438" lon="29.82652"/>
  <node id="332798807" version="3" timestamp="2010-07-29T11:12:33Z" uid="53613" user="Soitanen" changeset="5345805" lat="61.4642674" lon="29.8267115"/>
  <node id="332798808" version="2" timestamp="2009-03-21T22:23:22Z" uid="34428" user="usm78-gis" changeset="844942" lat="61.46301" lon="29.82484"/>
  <node id="332798808" version="3" timestamp="2010-07-29T11:12:23Z" uid="53613" user="Soitanen" changeset="5345805" lat="61.4629605" lon="29.8250003"/>
  <node id="332798809" version="2" timestamp="2009-03-21T22:23:22Z" uid="34428" user="usm78-gis" changeset="844942" lat="61.46234" lon="29.82381"/>
  <node id="332798809" version="3" timestamp="2010-07-29T11:12:41Z" uid="53613" user="Soitanen" changeset="5345805" lat="61.4622229" lon="29.8238571"/>
  <node id="332798810" version="2" timestamp="2009-03-21T22:23:23Z" uid="34428" user="usm78-gis" changeset="844942" lat="61.46186" lon="29.82391"/>
  <node id="332798810" version="3" timestamp="2010-07-29T11:12:33Z" uid="53613" user="Soitanen" changeset="5345805" lat="61.461842" lon="29.8240608"/>
  <node id="332798811" version="2" timestamp="2009-03-21T22:23:23Z" uid="34428" user="usm78-gis" changeset="844942" lat="61.46139" lon="29.82497"/>
  <node id="332798813" version="2" timestamp="2009-03-21T22:23:23Z" uid="34428" user="usm78-gis" changeset="844942" lat="61.46101" lon="29.82551"/>
  <node id="332798813" version="3" timestamp="2010-07-29T11:12:21Z" uid="53613" user="Soitanen" changeset="5345805" lat="61.4607307" lon="29.8256986"/>
  <node id="332798815" version="2" timestamp="2009-03-21T22:23:23Z" uid="34428" user="usm78-gis" changeset="844942" lat="61.45956" lon="29.82566"/>
  <node id="332798816" version="2" timestamp="2009-03-21T22:23:23Z" uid="34428" user="usm78-gis" changeset="844942" lat="61.45844" lon="29.8248"/>
  <node id="332798816" version="3" timestamp="2010-07-29T11:12:37Z" uid="53613" user="Soitanen" changeset="5345805" lat="61.4585285" lon="29.8247243"/>
  <node id="332798817" version="2" timestamp="2009-03-21T22:23:23Z" uid="34428" user="usm78-gis" changeset="844942" lat="61.45706" lon="29.82332"/>
  <node id="332798817" version="3" timestamp="2010-07-29T11:12:51Z" uid="53613" user="Soitanen" changeset="5345805" lat="61.4571374" lon="29.8231874"/>
  <node id="332798818" version="2" timestamp="2009-03-21T22:23:23Z" uid="34428" user="usm78-gis" changeset="844942" lat="61.45681" lon="29.82308"/>
  <node id="332798819" version="2" timestamp="2009-03-21T22:23:23Z" uid="34428" user="usm78-gis" changeset="844942" lat="61.45618" lon="29.8232"/>
  <node id="332798819" version="3" timestamp="2010-07-29T11:12:20Z" uid="53613" user="Soitanen" changeset="5345805" lat="61.4562152" lon="29.8234062"/>
  <node id="332798820" version="2" timestamp="2009-03-21T22:23:23Z" uid="34428" user="usm78-gis" changeset="844942" lat="61.45594" lon="29.82345"/>
  <node id="332798820" version="3" timestamp="2010-07-29T11:12:19Z" uid="53613" user="Soitanen" changeset="5345805" lat="61.4558696" lon="29.8237594"/>
  <node id="332798821" version="2" timestamp="2009-03-21T22:23:23Z" uid="34428" user="usm78-gis" changeset="844942" lat="61.45495" lon="29.82492"/>
  <node id="332798821" version="3" timestamp="2010-07-29T11:12:33Z" uid="53613" user="Soitanen" changeset="5345805" lat="61.455351" lon="29.8244675"/>
  <node id="332798822" version="2" timestamp="2009-03-21T22:23:23Z" uid="34428" user="usm78-gis" changeset="844942" lat="61.45441" lon="29.82527"/>
  <node id="332798822" version="3" timestamp="2010-07-29T11:12:24Z" uid="53613" user="Soitanen" changeset="5345805" lat="61.4544505" lon="29.8252323"/>
  <node id="332798823" version="2" timestamp="2009-03-21T22:23:23Z" uid="34428" user="usm78-gis" changeset="844942" lat="61.45312" lon="29.8252"/>
  <node id="332798824" version="2" timestamp="2009-03-21T22:23:23Z" uid="34428" user="usm78-gis" changeset="844942" lat="61.4527" lon="29.82581"/>
  <node id="332798824" version="3" timestamp="2010-07-29T11:12:32Z" uid="53613" user="Soitanen" changeset="5345805" lat="61.4525829" lon="29.8262437"/>
  <node id="332798825" version="2" timestamp="2009-03-21T22:23:24Z" uid="34428" user="usm78-gis" changeset="844942" lat="61.45209" lon="29.8275"/>
  <node id="332798826" version="2" timestamp="2009-03-21T22:23:24Z" uid="34428" user="usm78-gis" changeset="844942" lat="61.4519" lon="29.82794"/>
  <node id="332798826" version="3" timestamp="2010-07-29T11:12:41Z" uid="53613" user="Soitanen" changeset="5345805" lat="61.4513954" lon="29.8279117"/>
  <node id="332798827" version="2" timestamp="2009-03-21T22:23:24Z" uid="34428" user="usm78-gis" changeset="844942" lat="61.45114" lon="29.82861"/>
  <node id="332798827" version="3" timestamp="2010-07-29T11:12:19Z" uid="53613" user="Soitanen" changeset="5345805" lat="61.4510319" lon="29.8282423"/>
  <node id="332798828" version="2" timestamp="2009-03-21T22:23:24Z" uid="34428" user="usm78-gis" changeset="844942" lat="61.45006" lon="29.82956"/>
  <node id="332798828" version="3" timestamp="2010-07-29T11:12:18Z" uid="53613" user="Soitanen" changeset="5345805" lat="61.4499771" lon="29.8292281"/>
  <node id="332798829" version="2" timestamp="2009-03-21T22:23:24Z" uid="34428" user="usm78-gis" changeset="844942" lat="61.44876" lon="29.83006"/>
  <node id="332798829" version="3" timestamp="2010-07-29T11:12:25Z" uid="53613" user="Soitanen" changeset="5345805" lat="61.4487744" lon="29.8296603"/>
  <node id="332798830" version="2" timestamp="2009-03-21T22:23:24Z" uid="34428" user="usm78-gis" changeset="844942" lat="61.44848" lon="29.83019"/>
  <node id="332798830" version="3" timestamp="2010-07-29T11:12:22Z" uid="53613" user="Soitanen" changeset="5345805" lat="61.4484378" lon="29.8297186"/>
  <node id="332798831" version="2" timestamp="2009-03-21T22:23:24Z" uid="34428" user="usm78-gis" changeset="844942" lat="61.44712" lon="29.82948"/>
  <node id="332798831" version="3" timestamp="2010-07-29T11:12:40Z" uid="53613" user="Soitanen" changeset="5345805" lat="61.4471313" lon="29.8291029"/>
  <node id="332798832" version="2" timestamp="2009-03-21T22:23:24Z" uid="34428" user="usm78-gis" changeset="844942" lat="61.44625" lon="29.82886"/>
  <node id="332798832" version="3" timestamp="2010-07-29T11:12:42Z" uid="53613" user="Soitanen" changeset="5345805" lat="61.4462444" lon="29.8284004"/>
  <node id="332798833" version="2" timestamp="2009-03-21T22:23:24Z" uid="34428" user="usm78-gis" changeset="844942" lat="61.44603" lon="29.82879"/>
  <node id="332798833" version="3" timestamp="2010-07-29T11:12:20Z" uid="53613" user="Soitanen" changeset="5345805" lat="61.4459737" lon="29.8285072"/>
  <node id="332798834" version="2" timestamp="2009-03-21T22:23:24Z" uid="34428" user="usm78-gis" changeset="844942" lat="61.446" lon="29.82882"/>
  <node id="332798834" version="3" timestamp="2010-07-29T11:12:17Z" uid="53613" user="Soitanen" changeset="5345805" lat="61.445831" lon="29.8284547"/>
  <node id="332798835" version="2" timestamp="2009-03-21T22:23:24Z" uid="34428" user="usm78-gis" changeset="844942" lat="61.44592" lon="29.82888"/>
  <node id="332798835" version="3" timestamp="2010-07-29T11:12:24Z" uid="53613" user="Soitanen" changeset="5345805" lat="61.4454412" lon="29.828279"/>
  <node id="332798836" version="2" timestamp="2009-03-21T22:23:24Z" uid="34428" user="usm78-gis" changeset="844942" lat="61.44519" lon="29.82859"/>
  <node id="332798836" version="3" timestamp="2010-07-29T11:12:23Z" uid="53613" user="Soitanen" changeset="5345805" lat="61.4448731" lon="29.8280008"/>
  <node id="332798837" version="2" timestamp="2009-03-21T22:23:24Z" uid="34428" user="usm78-gis" changeset="844942" lat="61.44278" lon="29.82723"/>
  <node id="332798837" version="3" timestamp="2010-07-29T11:12:41Z" uid="53613" user="Soitanen" changeset="5345805" lat="61.4432729" lon="29.8265487"/>
  <node id="332798838" version="2" timestamp="2009-03-21T22:23:24Z" uid="34428" user="usm78-gis" changeset="844942" lat="61.44251" lon="29.82707"/>
  <node id="332798838" version="3" timestamp="2010-07-29T11:12:37Z" uid="53613" user="Soitanen" changeset="5345805" lat="61.4427037" lon="29.8261677"/>
  <node id="332798839" version="2" timestamp="2009-03-21T22:23:24Z" uid="34428" user="usm78-gis" changeset="844942" lat="61.442" lon="29.82695"/>
  <node id="332798839" version="3" timestamp="2010-07-29T11:12:51Z" uid="53613" user="Soitanen" changeset="5345805" lat="61.4421761" lon="29.8261582"/>
  <node id="332798840" version="2" timestamp="2009-03-21T22:23:24Z" uid="34428" user="usm78-gis" changeset="844942" lat="61.4412" lon="29.82615"/>
  <node id="332798840" version="3" timestamp="2010-07-29T11:12:41Z" uid="53613" user="Soitanen" changeset="5345805" lat="61.4418162" lon="29.8261316"/>
  <node id="332798841" version="2" timestamp="2009-03-21T22:23:24Z" uid="34428" user="usm78-gis" changeset="844942" lat="61.44112" lon="29.82595"/>
  <node id="332798841" version="3" timestamp="2010-07-29T11:12:19Z" uid="53613" user="Soitanen" changeset="5345805" lat="61.4414545" lon="29.8257106"/>
  <node id="332798842" version="2" timestamp="2009-03-21T22:23:24Z" uid="34428" user="usm78-gis" changeset="844942" lat="61.44056" lon="29.82413"/>
  <node id="332798842" version="3" timestamp="2010-07-29T11:12:50Z" uid="53613" user="Soitanen" changeset="5345805" lat="61.4408505" lon="29.8241484"/>
  <node id="332798843" version="2" timestamp="2009-03-21T22:23:24Z" uid="34428" user="usm78-gis" changeset="844942" lat="61.4399" lon="29.82317"/>
  <node id="332798843" version="3" timestamp="2010-07-29T11:12:23Z" uid="53613" user="Soitanen" changeset="5345805" lat="61.4398296" lon="29.822857"/>
  <node id="332798844" version="2" timestamp="2009-03-21T22:23:24Z" uid="34428" user="usm78-gis" changeset="844942" lat="61.43879" lon="29.82335"/>
  <node id="332798844" version="3" timestamp="2010-07-29T11:12:21Z" uid="53613" user="Soitanen" changeset="5345805" lat="61.4387548" lon="29.823037"/>
  <node id="332798845" version="2" timestamp="2009-03-21T22:23:25Z" uid="34428" user="usm78-gis" changeset="844942" lat="61.43758" lon="29.82358"/>
  <node id="332798846" version="2" timestamp="2009-03-21T22:23:25Z" uid="34428" user="usm78-gis" changeset="844942" lat="61.436" lon="29.82407"/>
  <node id="332798847" version="2" timestamp="2009-03-21T22:23:25Z" uid="34428" user="usm78-gis" changeset="844942" lat="61.43489" lon="29.82444"/>
  <node id="332798848" version="2" timestamp="2009-03-21T22:23:25Z" uid="34428" user="usm78-gis" changeset="844942" lat="61.43301" lon="29.82507"/>
  <node id="332798848" version="3" timestamp="2011-03-25T17:02:21Z" uid="53613" user="Soitanen" changeset="7667308" lat="61.4330064" lon="29.8251232"/>
  <node id="332798849" version="2" timestamp="2009-03-21T22:23:25Z" uid="34428" user="usm78-gis" changeset="844942" lat="61.43235" lon="29.82512"/>
  <node id="332798849" version="3" timestamp="2011-03-25T17:02:28Z" uid="53613" user="Soitanen" changeset="7667308" lat="61.4323427" lon="29.8250137"/>
  <node id="332798850" version="2" timestamp="2009-03-21T22:23:25Z" uid="34428" user="usm78-gis" changeset="844942" lat="61.4312693" lon="29.824384"/>
  <node id="332798850" version="3" timestamp="2010-07-29T11:12:20Z" uid="53613" user="Soitanen" changeset="5345805" lat="61.4314609" lon="29.8245608"/>
  <node id="332798850" version="4" timestamp="2011-03-25T17:02:20Z" uid="53613" user="Soitanen" changeset="7667308" lat="61.4314609" lon="29.8246596"/>
  <node id="332798851" version="2" timestamp="2009-03-21T22:23:39Z" uid="34428" user="usm78-gis" changeset="844942" lat="61.4306728" lon="29.8239048"/>
  <node id="332799145" version="2" timestamp="2009-04-04T20:05:24Z" uid="34428" user="usm78-gis" changeset="181835" lat="60.3285651" lon="29.2468777"/>
  <node id="332799145" version="3" timestamp="2009-04-13T16:22:49Z" uid="34428" user="usm78-gis" changeset="487804" lat="60.3281827" lon="29.2468777"/>
  <node id="332799145" version="4" timestamp="2009-04-13T16:32:27Z" uid="34428" user="usm78-gis" changeset="487804" lat="60.3284279" lon="29.2471752"/>
  <node id="332799145" version="5" timestamp="2009-04-13T16:32:33Z" uid="34428" user="usm78-gis" changeset="487804" lat="60.3284279" lon="29.2471752"/>
  <node id="332799145" version="6" timestamp="2010-01-10T20:27:47Z" uid="143266" user="Sergey Astakhov" changeset="3591239" lat="60.3285336" lon="29.2471574"/>
  <node id="332799145" version="7" timestamp="2010-12-16T23:17:34Z" uid="34428" user="usm78-gis" changeset="6682503" lat="60.3286185" lon="29.2469515"/>
  <node id="332799155" version="2" timestamp="2009-04-04T20:05:18Z" uid="34428" user="usm78-gis" changeset="181835" lat="60.3277344" lon="29.2446709"/>
  <node id="332799155" version="3" timestamp="2009-04-13T16:22:50Z" uid="34428" user="usm78-gis" changeset="487804" lat="60.327352" lon="29.2446709"/>
  <node id="332799155" version="4" timestamp="2009-04-13T16:32:28Z" uid="34428" user="usm78-gis" changeset="487804" lat="60.327352" lon="29.2446709"/>
  <node id="332799155" version="5" timestamp="2010-12-16T23:18:49Z" uid="34428" user="usm78-gis" changeset="6682503" lat="60.3275898" lon="29.2446366"/>
  <node id="332799157" version="2" timestamp="2009-04-04T20:06:33Z" uid="34428" user="usm78-gis" changeset="181835" lat="60.3275297" lon="29.2434897"/>
  <node id="332799157" version="3" timestamp="2009-04-13T16:22:50Z" uid="34428" user="usm78-gis" changeset="487804" lat="60.3271473" lon="29.2434897"/>
  <node id="332799157" version="4" timestamp="2009-04-13T16:32:29Z" uid="34428" user="usm78-gis" changeset="487804" lat="60.3271473" lon="29.2434897"/>
  <node id="332799157" version="5" timestamp="2010-12-16T23:17:31Z" uid="34428" user="usm78-gis" changeset="6682503" lat="60.3273342" lon="29.2436956"/>
  <node id="332799159" version="2" timestamp="2009-04-04T20:06:52Z" uid="34428" user="usm78-gis" changeset="181835" lat="60.3275005" lon="29.2421313"/>
  <node id="332799159" version="3" timestamp="2009-04-13T16:22:51Z" uid="34428" user="usm78-gis" changeset="487804" lat="60.3271181" lon="29.2421313"/>
  <node id="332799159" version="4" timestamp="2009-04-13T16:32:29Z" uid="34428" user="usm78-gis" changeset="487804" lat="60.3271181" lon="29.2421313"/>
  <node id="332799163" version="2" timestamp="2009-04-04T20:05:49Z" uid="34428" user="usm78-gis" changeset="181835" lat="60.3272666" lon="29.2414225"/>
  <node id="332799163" version="3" timestamp="2009-04-13T16:22:51Z" uid="34428" user="usm78-gis" changeset="487804" lat="60.3268842" lon="29.2414225"/>
  <node id="332799163" version="4" timestamp="2009-04-13T16:32:30Z" uid="34428" user="usm78-gis" changeset="487804" lat="60.3268842" lon="29.2414225"/>
  <node id="332799165" version="2" timestamp="2009-04-04T20:06:12Z" uid="34428" user="usm78-gis" changeset="181835" lat="60.3267989" lon="29.2408319"/>
  <node id="332799165" version="3" timestamp="2009-04-13T16:22:52Z" uid="34428" user="usm78-gis" changeset="487804" lat="60.3264165" lon="29.2408319"/>
  <node id="332799165" version="4" timestamp="2009-04-13T16:32:30Z" uid="34428" user="usm78-gis" changeset="487804" lat="60.3264165" lon="29.2408319"/>
  <node id="332799166" version="2" timestamp="2009-04-04T20:05:58Z" uid="34428" user="usm78-gis" changeset="181835" lat="60.3260094" lon="29.2397098"/>
  <node id="332799166" version="3" timestamp="2009-04-13T16:22:52Z" uid="34428" user="usm78-gis" changeset="487804" lat="60.325627" lon="29.2397098"/>
  <node id="332799166" version="4" timestamp="2009-04-13T16:32:31Z" uid="34428" user="usm78-gis" changeset="487804" lat="60.325627" lon="29.2397098"/>
  <node id="332799167" version="2" timestamp="2009-04-04T20:06:04Z" uid="34428" user="usm78-gis" changeset="181835" lat="60.325717" lon="29.2391782"/>
  <node id="332799167" version="3" timestamp="2009-04-13T16:22:53Z" uid="34428" user="usm78-gis" changeset="487804" lat="60.3253346" lon="29.2391782"/>
  <node id="332799167" version="4" timestamp="2009-04-13T16:32:31Z" uid="34428" user="usm78-gis" changeset="487804" lat="60.3253346" lon="29.2391782"/>
  <node id="332799168" version="2" timestamp="2009-04-04T20:06:19Z" uid="34428" user="usm78-gis" changeset="181835" lat="60.3251614" lon="29.2372882"/>
  <node id="332799168" version="3" timestamp="2009-04-13T16:22:53Z" uid="34428" user="usm78-gis" changeset="487804" lat="60.324779" lon="29.2372882"/>
  <node id="332799168" version="4" timestamp="2009-04-13T16:32:32Z" uid="34428" user="usm78-gis" changeset="487804" lat="60.324779" lon="29.2372882"/>
  <node id="332799169" version="2" timestamp="2009-04-04T20:06:23Z" uid="34428" user="usm78-gis" changeset="181835" lat="60.3244304" lon="29.2357526"/>
  <node id="332799169" version="3" timestamp="2009-04-13T16:22:54Z" uid="34428" user="usm78-gis" changeset="487804" lat="60.324048" lon="29.2357526"/>
  <node id="332799169" version="4" timestamp="2009-04-13T16:32:32Z" uid="34428" user="usm78-gis" changeset="487804" lat="60.324048" lon="29.2357526"/>
  <node id="332799170" version="2" timestamp="2009-04-04T20:05:41Z" uid="34428" user="usm78-gis" changeset="181835" lat="60.3240503" lon="29.2345714"/>
  <node id="332799170" version="3" timestamp="2009-04-13T16:22:54Z" uid="34428" user="usm78-gis" changeset="487804" lat="60.3236678" lon="29.2345714"/>
  <node id="332799170" version="4" timestamp="2009-04-13T16:32:33Z" uid="34428" user="usm78-gis" changeset="487804" lat="60.3236678" lon="29.2345714"/>
  <node id="332799174" version="2" timestamp="2009-04-04T20:06:48Z" uid="34428" user="usm78-gis" changeset="181835" lat="60.3236994" lon="29.2339217"/>
  <node id="332799174" version="3" timestamp="2009-04-13T16:22:55Z" uid="34428" user="usm78-gis" changeset="487804" lat="60.3233169" lon="29.2339217"/>
  <node id="332799174" version="4" timestamp="2009-04-13T16:32:33Z" uid="34428" user="usm78-gis" changeset="487804" lat="60.3233169" lon="29.2339217"/>
  <node id="332799174" version="5" timestamp="2010-08-13T20:37:12Z" uid="34428" user="usm78-gis" changeset="5485600" lat="60.3231642" lon="29.2334976"/>
  <node id="332799175" version="2" timestamp="2009-04-04T20:06:55Z" uid="34428" user="usm78-gis" changeset="181835" lat="60.3232607" lon="29.2331539"/>
  <node id="332799175" version="3" timestamp="2009-04-13T16:22:55Z" uid="34428" user="usm78-gis" changeset="487804" lat="60.3228782" lon="29.2331539"/>
  <node id="332799175" version="4" timestamp="2009-04-13T16:32:33Z" uid="34428" user="usm78-gis" changeset="487804" lat="60.3228782" lon="29.2331539"/>
  <node id="332799176" version="2" timestamp="2009-04-04T20:06:15Z" uid="34428" user="usm78-gis" changeset="181835" lat="60.323056" lon="29.2319136"/>
  <node id="332799176" version="3" timestamp="2009-04-13T16:22:56Z" uid="34428" user="usm78-gis" changeset="487804" lat="60.3226735" lon="29.2319136"/>
  <node id="332799176" version="4" timestamp="2009-04-13T16:32:33Z" uid="34428" user="usm78-gis" changeset="487804" lat="60.3226735" lon="29.2319136"/>
  <node id="332799177" version="2" timestamp="2009-04-04T20:05:36Z" uid="34428" user="usm78-gis" changeset="181835" lat="60.3229976" lon="29.2311458"/>
  <node id="332799177" version="3" timestamp="2009-04-13T16:22:56Z" uid="34428" user="usm78-gis" changeset="487804" lat="60.3226151" lon="29.2311458"/>
  <node id="332799177" version="4" timestamp="2009-04-13T16:32:34Z" uid="34428" user="usm78-gis" changeset="487804" lat="60.3226151" lon="29.2311458"/>
  <node id="332799178" version="2" timestamp="2009-04-04T20:05:45Z" uid="34428" user="usm78-gis" changeset="181835" lat="60.3231145" lon="29.2298465"/>
  <node id="332799178" version="3" timestamp="2009-04-13T16:22:57Z" uid="34428" user="usm78-gis" changeset="487804" lat="60.322732" lon="29.2298465"/>
  <node id="332799178" version="4" timestamp="2009-04-13T16:32:34Z" uid="34428" user="usm78-gis" changeset="487804" lat="60.322732" lon="29.2298465"/>
  <node id="332799179" version="2" timestamp="2009-04-04T20:05:15Z" uid="34428" user="usm78-gis" changeset="181835" lat="60.3229683" lon="29.2283109"/>
  <node id="332799179" version="3" timestamp="2009-04-13T16:22:57Z" uid="34428" user="usm78-gis" changeset="487804" lat="60.3225858" lon="29.2283109"/>
  <node id="332799179" version="4" timestamp="2009-04-13T16:32:35Z" uid="34428" user="usm78-gis" changeset="487804" lat="60.3225858" lon="29.2283109"/>
  <node id="332799180" version="2" timestamp="2009-04-04T20:05:26Z" uid="34428" user="usm78-gis" changeset="181835" lat="60.3225004" lon="29.227425"/>
  <node id="332799180" version="3" timestamp="2009-04-13T16:22:58Z" uid="34428" user="usm78-gis" changeset="487804" lat="60.3221179" lon="29.227425"/>
  <node id="332799180" version="4" timestamp="2009-04-13T16:32:35Z" uid="34428" user="usm78-gis" changeset="487804" lat="60.3221179" lon="29.227425"/>
  <node id="332799181" version="2" timestamp="2009-04-04T20:06:32Z" uid="34428" user="usm78-gis" changeset="181835" lat="60.3219157" lon="29.2278975"/>
  <node id="332799181" version="3" timestamp="2009-04-13T16:22:58Z" uid="34428" user="usm78-gis" changeset="487804" lat="60.3215332" lon="29.2278975"/>
  <node id="332799181" version="4" timestamp="2009-04-13T16:32:36Z" uid="34428" user="usm78-gis" changeset="487804" lat="60.3215332" lon="29.2278975"/>
  <node id="332799181" version="5" timestamp="2010-12-16T23:17:17Z" uid="34428" user="usm78-gis" changeset="6682503" lat="60.3214519" lon="29.2274051"/>
  <node id="332799182" version="2" timestamp="2009-04-04T20:06:47Z" uid="34428" user="usm78-gis" changeset="181835" lat="60.3212723" lon="29.2280746"/>
  <node id="332799182" version="3" timestamp="2009-04-13T16:22:58Z" uid="34428" user="usm78-gis" changeset="487804" lat="60.3208898" lon="29.2280746"/>
  <node id="332799182" version="4" timestamp="2009-04-13T16:32:36Z" uid="34428" user="usm78-gis" changeset="487804" lat="60.3208898" lon="29.2280746"/>
  <node id="332799182" version="5" timestamp="2010-12-16T23:17:36Z" uid="34428" user="usm78-gis" changeset="6682503" lat="60.3208378" lon="29.2277945"/>
  <node id="332799183" version="2" timestamp="2009-04-04T20:06:37Z" uid="34428" user="usm78-gis" changeset="181835" lat="60.320278" lon="29.2287243"/>
  <node id="332799183" version="3" timestamp="2009-04-13T16:22:59Z" uid="34428" user="usm78-gis" changeset="487804" lat="60.3198955" lon="29.2287243"/>
  <node id="332799183" version="4" timestamp="2009-04-13T16:32:36Z" uid="34428" user="usm78-gis" changeset="487804" lat="60.3198955" lon="29.2287243"/>
  <node id="332799183" version="5" timestamp="2010-12-16T23:19:02Z" uid="34428" user="usm78-gis" changeset="6682503" lat="60.3200342" lon="29.228199"/>
  <node id="332799184" version="2" timestamp="2009-04-04T20:06:42Z" uid="34428" user="usm78-gis" changeset="181835" lat="60.3196931" lon="29.2280156"/>
  <node id="332799184" version="3" timestamp="2009-04-13T16:23:00Z" uid="34428" user="usm78-gis" changeset="487804" lat="60.3193106" lon="29.2280156"/>
  <node id="332799184" version="4" timestamp="2009-04-13T16:32:37Z" uid="34428" user="usm78-gis" changeset="487804" lat="60.3193106" lon="29.2280156"/>
  <node id="332799185" version="2" timestamp="2009-04-04T20:06:39Z" uid="34428" user="usm78-gis" changeset="181835" lat="60.3186402" lon="29.2277793"/>
  <node id="332799185" version="3" timestamp="2009-04-13T16:23:00Z" uid="34428" user="usm78-gis" changeset="487804" lat="60.3182577" lon="29.2277793"/>
  <node id="332799185" version="4" timestamp="2009-04-13T16:32:37Z" uid="34428" user="usm78-gis" changeset="487804" lat="60.3182577" lon="29.2277793"/>
  <node id="332799185" version="5" timestamp="2010-12-16T23:17:37Z" uid="34428" user="usm78-gis" changeset="6682503" lat="60.3183097" lon="29.2274291"/>
  <node id="332799186" version="2" timestamp="2009-04-04T20:05:14Z" uid="34428" user="usm78-gis" changeset="181835" lat="60.3180846" lon="29.2271297"/>
  <node id="332799186" version="3" timestamp="2009-04-13T16:23:00Z" uid="34428" user="usm78-gis" changeset="487804" lat="60.3177021" lon="29.2271297"/>
  <node id="332799186" version="4" timestamp="2009-04-13T16:32:37Z" uid="34428" user="usm78-gis" changeset="487804" lat="60.3177021" lon="29.2271297"/>
  <node id="332799187" version="2" timestamp="2009-04-04T20:05:27Z" uid="34428" user="usm78-gis" changeset="181835" lat="60.3174411" lon="29.2260666"/>
  <node id="332799187" version="3" timestamp="2009-04-13T16:23:01Z" uid="34428" user="usm78-gis" changeset="487804" lat="60.3170586" lon="29.2260666"/>
  <node id="332799187" version="4" timestamp="2009-04-13T16:32:37Z" uid="34428" user="usm78-gis" changeset="487804" lat="60.3170586" lon="29.2260666"/>
  <node id="332799187" version="5" timestamp="2010-12-16T23:17:31Z" uid="34428" user="usm78-gis" changeset="6682503" lat="60.3173187" lon="29.2262067"/>
  <node id="332799188" version="2" timestamp="2009-04-04T20:05:35Z" uid="34428" user="usm78-gis" changeset="181835" lat="60.3168562" lon="29.2250035"/>
  <node id="332799188" version="3" timestamp="2009-04-13T16:23:01Z" uid="34428" user="usm78-gis" changeset="487804" lat="60.3164737" lon="29.2250035"/>
  <node id="332799188" version="4" timestamp="2009-04-13T16:32:37Z" uid="34428" user="usm78-gis" changeset="487804" lat="60.3164737" lon="29.2250035"/>
  <node id="332799188" version="5" timestamp="2010-12-16T23:17:19Z" uid="34428" user="usm78-gis" changeset="6682503" lat="60.3168725" lon="29.2250385"/>
  <node id="332799195" version="2" timestamp="2009-04-04T20:05:34Z" uid="34428" user="usm78-gis" changeset="181835" lat="60.3164468" lon="29.2240585"/>
  <node id="332799195" version="3" timestamp="2009-04-13T16:23:01Z" uid="34428" user="usm78-gis" changeset="487804" lat="60.3160643" lon="29.2240585"/>
  <node id="332799195" version="4" timestamp="2009-04-13T16:32:37Z" uid="34428" user="usm78-gis" changeset="487804" lat="60.3160643" lon="29.2240585"/>
  <node id="332799195" version="5" timestamp="2010-12-16T23:18:51Z" uid="34428" user="usm78-gis" changeset="6682503" lat="60.3161857" lon="29.2237433"/>
  <node id="332799199" version="2" timestamp="2009-04-04T20:06:12Z" uid="34428" user="usm78-gis" changeset="181835" lat="60.3158911" lon="29.2231725"/>
  <node id="332799199" version="3" timestamp="2009-04-13T16:23:01Z" uid="34428" user="usm78-gis" changeset="487804" lat="60.3155086" lon="29.2231725"/>
  <node id="332799199" version="4" timestamp="2009-04-13T16:32:38Z" uid="34428" user="usm78-gis" changeset="487804" lat="60.3155086" lon="29.2231725"/>
  <node id="332799200" version="2" timestamp="2009-04-04T20:06:28Z" uid="34428" user="usm78-gis" changeset="181835" lat="60.3151013" lon="29.2229363"/>
  <node id="332799200" version="3" timestamp="2009-04-13T16:23:02Z" uid="34428" user="usm78-gis" changeset="487804" lat="60.3147187" lon="29.2229363"/>
  <node id="332799200" version="4" timestamp="2009-04-13T16:32:38Z" uid="34428" user="usm78-gis" changeset="487804" lat="60.3147187" lon="29.2229363"/>
  <node id="332799201" version="2" timestamp="2009-04-04T20:06:33Z" uid="34428" user="usm78-gis" changeset="181835" lat="60.3145456" lon="29.2231135"/>
  <node id="332799201" version="3" timestamp="2009-04-13T16:23:02Z" uid="34428" user="usm78-gis" changeset="487804" lat="60.314163" lon="29.2231135"/>
  <node id="332799201" version="4" timestamp="2009-04-13T16:32:38Z" uid="34428" user="usm78-gis" changeset="487804" lat="60.314163" lon="29.2231135"/>
  <node id="332799202" version="2" timestamp="2009-04-04T20:06:50Z" uid="34428" user="usm78-gis" changeset="181835" lat="60.3141361" lon="29.2221685"/>
  <node id="332799202" version="3" timestamp="2009-04-13T16:23:02Z" uid="34428" user="usm78-gis" changeset="487804" lat="60.3137535" lon="29.2221685"/>
  <node id="332799202" version="4" timestamp="2009-04-13T16:32:38Z" uid="34428" user="usm78-gis" changeset="487804" lat="60.3137535" lon="29.2221685"/>
  <node id="332799203" version="2" timestamp="2009-04-04T20:05:17Z" uid="34428" user="usm78-gis" changeset="181835" lat="60.3136681" lon="29.2217551"/>
  <node id="332799203" version="3" timestamp="2009-04-13T16:23:02Z" uid="34428" user="usm78-gis" changeset="487804" lat="60.3132855" lon="29.2217551"/>
  <node id="332799203" version="4" timestamp="2009-04-13T16:32:38Z" uid="34428" user="usm78-gis" changeset="487804" lat="60.3132855" lon="29.2217551"/>
  <node id="332799204" version="2" timestamp="2009-04-04T20:05:30Z" uid="34428" user="usm78-gis" changeset="181835" lat="60.3129953" lon="29.2224047"/>
  <node id="332799204" version="3" timestamp="2009-04-13T16:23:03Z" uid="34428" user="usm78-gis" changeset="487804" lat="60.3126127" lon="29.2224047"/>
  <node id="332799204" version="4" timestamp="2009-04-13T16:32:38Z" uid="34428" user="usm78-gis" changeset="487804" lat="60.3126127" lon="29.2224047"/>
  <node id="332799205" version="2" timestamp="2009-04-04T20:05:38Z" uid="34428" user="usm78-gis" changeset="181835" lat="60.3127028" lon="29.2229363"/>
  <node id="332799205" version="3" timestamp="2009-04-13T16:23:03Z" uid="34428" user="usm78-gis" changeset="487804" lat="60.3123202" lon="29.2229363"/>
  <node id="332799205" version="4" timestamp="2009-04-13T16:32:38Z" uid="34428" user="usm78-gis" changeset="487804" lat="60.3123202" lon="29.2229363"/>
  <node id="332799206" version="2" timestamp="2009-04-04T20:05:48Z" uid="34428" user="usm78-gis" changeset="181835" lat="60.312498" lon="29.2241175"/>
  <node id="332799206" version="3" timestamp="2009-04-13T16:23:03Z" uid="34428" user="usm78-gis" changeset="487804" lat="60.3121154" lon="29.2241175"/>
  <node id="332799206" version="4" timestamp="2009-04-13T16:32:39Z" uid="34428" user="usm78-gis" changeset="487804" lat="60.3121154" lon="29.2241175"/>
  <node id="332799207" version="2" timestamp="2009-04-04T20:06:21Z" uid="34428" user="usm78-gis" changeset="181835" lat="60.312147" lon="29.2242947"/>
  <node id="332799207" version="3" timestamp="2009-04-13T16:23:03Z" uid="34428" user="usm78-gis" changeset="487804" lat="60.3117644" lon="29.2242947"/>
  <node id="332799207" version="4" timestamp="2009-04-13T16:32:39Z" uid="34428" user="usm78-gis" changeset="487804" lat="60.3117644" lon="29.2242947"/>
  <node id="332799208" version="2" timestamp="2009-04-04T20:06:18Z" uid="34428" user="usm78-gis" changeset="181835" lat="60.311328" lon="29.2238222"/>
  <node id="332799208" version="3" timestamp="2009-04-13T16:23:03Z" uid="34428" user="usm78-gis" changeset="487804" lat="60.3109454" lon="29.2238222"/>
  <node id="332799208" version="4" timestamp="2009-04-13T16:32:39Z" uid="34428" user="usm78-gis" changeset="487804" lat="60.3109454" lon="29.2238222"/>
  <node id="332799212" version="2" timestamp="2009-04-04T20:05:40Z" uid="34428" user="usm78-gis" changeset="181835" lat="60.3105674" lon="29.2232907"/>
  <node id="332799212" version="3" timestamp="2009-04-13T16:23:04Z" uid="34428" user="usm78-gis" changeset="487804" lat="60.3101848" lon="29.2232907"/>
  <node id="332799212" version="4" timestamp="2009-04-13T16:32:39Z" uid="34428" user="usm78-gis" changeset="487804" lat="60.3101848" lon="29.2232907"/>
  <node id="332799213" version="2" timestamp="2009-04-04T20:05:55Z" uid="34428" user="usm78-gis" changeset="181835" lat="60.3097776" lon="29.2229954"/>
  <node id="332799213" version="3" timestamp="2009-04-13T16:23:04Z" uid="34428" user="usm78-gis" changeset="487804" lat="60.309395" lon="29.2229954"/>
  <node id="332799213" version="4" timestamp="2009-04-13T16:32:39Z" uid="34428" user="usm78-gis" changeset="487804" lat="60.309395" lon="29.2229954"/>
  <node id="332799214" version="2" timestamp="2009-04-04T20:06:06Z" uid="34428" user="usm78-gis" changeset="181835" lat="60.3092803" lon="29.2227001"/>
  <node id="332799214" version="3" timestamp="2009-04-13T16:23:04Z" uid="34428" user="usm78-gis" changeset="487804" lat="60.3088977" lon="29.2227001"/>
  <node id="332799214" version="4" timestamp="2009-04-13T16:32:39Z" uid="34428" user="usm78-gis" changeset="487804" lat="60.3088977" lon="29.2227001"/>
  <node id="332799215" version="2" timestamp="2009-04-04T20:05:59Z" uid="34428" user="usm78-gis" changeset="181835" lat="60.3087829" lon="29.2223457"/>
  <node id="332799215" version="3" timestamp="2009-04-13T16:23:04Z" uid="34428" user="usm78-gis" changeset="487804" lat="60.3084003" lon="29.2223457"/>
  <node id="332799215" version="4" timestamp="2009-04-13T16:32:40Z" uid="34428" user="usm78-gis" changeset="487804" lat="60.3084003" lon="29.2223457"/>
  <node id="332799216" version="2" timestamp="2009-04-04T20:06:44Z" uid="34428" user="usm78-gis" changeset="181835" lat="60.3083148" lon="29.2221685"/>
  <node id="332799216" version="3" timestamp="2009-04-13T16:23:04Z" uid="34428" user="usm78-gis" changeset="487804" lat="60.3079322" lon="29.2221685"/>
  <node id="332799216" version="4" timestamp="2009-04-13T16:32:40Z" uid="34428" user="usm78-gis" changeset="487804" lat="60.3079322" lon="29.2221685"/>
  <node id="332799217" version="2" timestamp="2009-04-04T20:06:45Z" uid="34428" user="usm78-gis" changeset="181835" lat="60.3077882" lon="29.2222866"/>
  <node id="332799217" version="3" timestamp="2009-04-13T16:23:04Z" uid="34428" user="usm78-gis" changeset="487804" lat="60.3074056" lon="29.2222866"/>
  <node id="332799217" version="4" timestamp="2009-04-13T16:32:40Z" uid="34428" user="usm78-gis" changeset="487804" lat="60.3074056" lon="29.2222866"/>
  <node id="332799218" version="2" timestamp="2009-04-04T20:06:54Z" uid="34428" user="usm78-gis" changeset="181835" lat="60.3072324" lon="29.2224638"/>
  <node id="332799218" version="3" timestamp="2009-04-13T16:23:05Z" uid="34428" user="usm78-gis" changeset="487804" lat="60.3068498" lon="29.2224638"/>
  <node id="332799218" version="4" timestamp="2009-04-13T16:32:41Z" uid="34428" user="usm78-gis" changeset="487804" lat="60.3068498" lon="29.2224638"/>
  <node id="332799219" version="2" timestamp="2009-04-04T20:05:21Z" uid="34428" user="usm78-gis" changeset="181835" lat="60.306852" lon="29.2231135"/>
  <node id="332799219" version="3" timestamp="2009-04-13T16:23:05Z" uid="34428" user="usm78-gis" changeset="487804" lat="60.3064693" lon="29.2231135"/>
  <node id="332799219" version="4" timestamp="2009-04-13T16:32:41Z" uid="34428" user="usm78-gis" changeset="487804" lat="60.3064693" lon="29.2231135"/>
  <node id="332799220" version="2" timestamp="2009-04-04T20:05:32Z" uid="34428" user="usm78-gis" changeset="181835" lat="60.3060037" lon="29.223586"/>
  <node id="332799220" version="3" timestamp="2009-04-13T16:23:05Z" uid="34428" user="usm78-gis" changeset="487804" lat="60.305621" lon="29.223586"/>
  <node id="332799220" version="4" timestamp="2009-04-13T16:32:41Z" uid="34428" user="usm78-gis" changeset="487804" lat="60.305621" lon="29.223586"/>
  <node id="332799221" version="2" timestamp="2009-04-04T20:05:40Z" uid="34428" user="usm78-gis" changeset="181835" lat="60.3057111" lon="29.22459"/>
  <node id="332799221" version="3" timestamp="2009-04-13T16:23:05Z" uid="34428" user="usm78-gis" changeset="487804" lat="60.3053284" lon="29.22459"/>
  <node id="332799221" version="4" timestamp="2009-04-13T16:32:42Z" uid="34428" user="usm78-gis" changeset="487804" lat="60.3053284" lon="29.22459"/>
  <node id="332799222" version="2" timestamp="2009-04-04T20:05:52Z" uid="34428" user="usm78-gis" changeset="181835" lat="60.3049504" lon="29.2256531"/>
  <node id="332799222" version="3" timestamp="2009-04-13T16:23:06Z" uid="34428" user="usm78-gis" changeset="487804" lat="60.3045677" lon="29.2256531"/>
  <node id="332799222" version="4" timestamp="2009-04-13T16:32:42Z" uid="34428" user="usm78-gis" changeset="487804" lat="60.3045677" lon="29.2256531"/>
  <node id="332799223" version="2" timestamp="2009-04-04T20:06:05Z" uid="34428" user="usm78-gis" changeset="181835" lat="60.3046285" lon="29.22648"/>
  <node id="332799223" version="3" timestamp="2009-04-13T16:23:06Z" uid="34428" user="usm78-gis" changeset="487804" lat="60.3042458" lon="29.22648"/>
  <node id="332799223" version="4" timestamp="2009-04-13T16:32:43Z" uid="34428" user="usm78-gis" changeset="487804" lat="60.3042458" lon="29.22648"/>
  <node id="332799224" version="2" timestamp="2009-04-04T20:06:20Z" uid="34428" user="usm78-gis" changeset="181835" lat="60.3045115" lon="29.227484"/>
  <node id="332799224" version="3" timestamp="2009-04-13T16:23:06Z" uid="34428" user="usm78-gis" changeset="487804" lat="60.3041288" lon="29.227484"/>
  <node id="332799224" version="4" timestamp="2009-04-13T16:32:43Z" uid="34428" user="usm78-gis" changeset="487804" lat="60.3041288" lon="29.227484"/>
  <node id="332799232" version="2" timestamp="2009-04-04T20:06:09Z" uid="34428" user="usm78-gis" changeset="181835" lat="60.3041604" lon="29.2284881"/>
  <node id="332799232" version="3" timestamp="2009-04-13T16:23:06Z" uid="34428" user="usm78-gis" changeset="487804" lat="60.3037777" lon="29.2284881"/>
  <node id="332799232" version="4" timestamp="2009-04-13T16:32:43Z" uid="34428" user="usm78-gis" changeset="487804" lat="60.3037777" lon="29.2284881"/>
  <node id="332799233" version="2" timestamp="2009-04-04T20:06:53Z" uid="34428" user="usm78-gis" changeset="181835" lat="60.303663" lon="29.2290787"/>
  <node id="332799233" version="3" timestamp="2009-04-13T16:23:06Z" uid="34428" user="usm78-gis" changeset="487804" lat="60.3032803" lon="29.2290787"/>
  <node id="332799233" version="4" timestamp="2009-04-13T16:32:44Z" uid="34428" user="usm78-gis" changeset="487804" lat="60.3032803" lon="29.2290787"/>
  <node id="332799234" version="2" timestamp="2009-04-04T20:06:27Z" uid="34428" user="usm78-gis" changeset="181835" lat="60.303107" lon="29.2295512"/>
  <node id="332799234" version="3" timestamp="2009-04-13T16:23:07Z" uid="34428" user="usm78-gis" changeset="487804" lat="60.3027243" lon="29.2295512"/>
  <node id="332799234" version="4" timestamp="2009-04-13T16:32:45Z" uid="34428" user="usm78-gis" changeset="487804" lat="60.3027243" lon="29.2295512"/>
  <node id="332799235" version="2" timestamp="2009-04-04T20:05:31Z" uid="34428" user="usm78-gis" changeset="181835" lat="60.302317" lon="29.2305552"/>
  <node id="332799235" version="3" timestamp="2009-04-13T16:23:07Z" uid="34428" user="usm78-gis" changeset="487804" lat="60.3019343" lon="29.2305552"/>
  <node id="332799235" version="4" timestamp="2009-04-13T16:32:45Z" uid="34428" user="usm78-gis" changeset="487804" lat="60.3019343" lon="29.2305552"/>
  <node id="332799236" version="2" timestamp="2009-04-04T20:05:18Z" uid="34428" user="usm78-gis" changeset="181835" lat="60.3007077" lon="29.2310868"/>
  <node id="332799236" version="3" timestamp="2009-04-13T16:23:07Z" uid="34428" user="usm78-gis" changeset="487804" lat="60.300325" lon="29.2310868"/>
  <node id="332799236" version="4" timestamp="2009-04-13T16:32:46Z" uid="34428" user="usm78-gis" changeset="487804" lat="60.300325" lon="29.2310868"/>
  <node id="332799237" version="2" timestamp="2009-04-04T20:05:52Z" uid="34428" user="usm78-gis" changeset="181835" lat="60.2998591" lon="29.2315593"/>
  <node id="332799237" version="3" timestamp="2009-04-13T16:23:08Z" uid="34428" user="usm78-gis" changeset="487804" lat="60.2994764" lon="29.2315593"/>
  <node id="332799237" version="4" timestamp="2009-04-13T16:32:46Z" uid="34428" user="usm78-gis" changeset="487804" lat="60.2994764" lon="29.2315593"/>
  <node id="332799239" version="2" timestamp="2009-04-04T20:06:16Z" uid="34428" user="usm78-gis" changeset="181835" lat="60.2985422" lon="29.2310277"/>
  <node id="332799239" version="3" timestamp="2009-04-13T16:23:08Z" uid="34428" user="usm78-gis" changeset="487804" lat="60.2981595" lon="29.2310277"/>
  <node id="332799239" version="4" timestamp="2009-04-13T16:32:46Z" uid="34428" user="usm78-gis" changeset="487804" lat="60.2981595" lon="29.2310277"/>
  <node id="332799240" version="2" timestamp="2009-04-04T20:06:00Z" uid="34428" user="usm78-gis" changeset="181835" lat="60.2931279" lon="29.2256531"/>
  <node id="332799240" version="3" timestamp="2009-04-13T16:23:08Z" uid="34428" user="usm78-gis" changeset="487804" lat="60.2927451" lon="29.2256531"/>
  <node id="332799240" version="4" timestamp="2009-04-13T16:32:47Z" uid="34428" user="usm78-gis" changeset="487804" lat="60.2927451" lon="29.2256531"/>
  <node id="332799241" version="2" timestamp="2009-04-04T20:06:49Z" uid="34428" user="usm78-gis" changeset="181835" lat="60.292162" lon="29.2246491"/>
  <node id="332799241" version="3" timestamp="2009-04-13T16:23:09Z" uid="34428" user="usm78-gis" changeset="487804" lat="60.2917792" lon="29.2246491"/>
  <node id="332799241" version="4" timestamp="2009-04-13T16:32:47Z" uid="34428" user="usm78-gis" changeset="487804" lat="60.2917792" lon="29.2246491"/>
  <node id="332799242" version="2" timestamp="2009-04-04T20:06:34Z" uid="34428" user="usm78-gis" changeset="181835" lat="60.293684" lon="29.2202785"/>
  <node id="332799242" version="3" timestamp="2009-04-13T16:23:09Z" uid="34428" user="usm78-gis" changeset="487804" lat="60.2933012" lon="29.2202785"/>
  <node id="332799242" version="4" timestamp="2009-04-13T16:32:48Z" uid="34428" user="usm78-gis" changeset="487804" lat="60.2933012" lon="29.2202785"/>
  <node id="332799243" version="2" timestamp="2009-04-04T20:05:32Z" uid="34428" user="usm78-gis" changeset="181835" lat="60.2936255" lon="29.2183886"/>
  <node id="332799243" version="3" timestamp="2009-04-13T16:23:09Z" uid="34428" user="usm78-gis" changeset="487804" lat="60.2932427" lon="29.2183886"/>
  <node id="332799243" version="4" timestamp="2009-04-13T16:32:48Z" uid="34428" user="usm78-gis" changeset="487804" lat="60.2932427" lon="29.2183886"/>
  <node id="332799244" version="2" timestamp="2009-04-04T20:05:20Z" uid="34428" user="usm78-gis" changeset="181835" lat="60.2929816" lon="29.2179161"/>
  <node id="332799244" version="3" timestamp="2009-04-13T16:23:09Z" uid="34428" user="usm78-gis" changeset="487804" lat="60.2925988" lon="29.2179161"/>
  <node id="332799244" version="4" timestamp="2009-04-13T16:32:48Z" uid="34428" user="usm78-gis" changeset="487804" lat="60.2925988" lon="29.2179161"/>
  <node id="332799245" version="2" timestamp="2009-04-04T20:05:53Z" uid="34428" user="usm78-gis" changeset="181835" lat="60.2928938" lon="29.2167348"/>
  <node id="332799245" version="3" timestamp="2009-04-13T16:23:10Z" uid="34428" user="usm78-gis" changeset="487804" lat="60.292511" lon="29.2167348"/>
  <node id="332799245" version="4" timestamp="2009-04-13T16:32:48Z" uid="34428" user="usm78-gis" changeset="487804" lat="60.292511" lon="29.2167348"/>
  <node id="332799246" version="2" timestamp="2009-04-04T20:05:42Z" uid="34428" user="usm78-gis" changeset="181835" lat="60.2926011" lon="29.2160852"/>
  <node id="332799246" version="3" timestamp="2009-04-13T16:23:10Z" uid="34428" user="usm78-gis" changeset="487804" lat="60.2922183" lon="29.2160852"/>
  <node id="332799246" version="4" timestamp="2009-04-13T16:32:49Z" uid="34428" user="usm78-gis" changeset="487804" lat="60.2922183" lon="29.2160852"/>
  <node id="332799247" version="2" timestamp="2009-04-04T20:06:00Z" uid="34428" user="usm78-gis" changeset="181835" lat="60.2923084" lon="29.2154355"/>
  <node id="332799247" version="3" timestamp="2009-04-13T16:23:10Z" uid="34428" user="usm78-gis" changeset="487804" lat="60.2919256" lon="29.2154355"/>
  <node id="332799247" version="4" timestamp="2009-04-13T16:32:49Z" uid="34428" user="usm78-gis" changeset="487804" lat="60.2919256" lon="29.2154355"/>
  <node id="332799248" version="2" timestamp="2009-04-04T20:05:51Z" uid="34428" user="usm78-gis" changeset="181835" lat="60.2916644" lon="29.2147858"/>
  <node id="332799248" version="3" timestamp="2009-04-13T16:23:11Z" uid="34428" user="usm78-gis" changeset="487804" lat="60.2912816" lon="29.2147858"/>
  <node id="332799248" version="4" timestamp="2009-04-13T16:32:50Z" uid="34428" user="usm78-gis" changeset="487804" lat="60.2912816" lon="29.2147858"/>
  <node id="332799249" version="2" timestamp="2009-04-04T20:05:29Z" uid="34428" user="usm78-gis" changeset="181835" lat="60.2914595" lon="29.2136046"/>
  <node id="332799249" version="3" timestamp="2009-04-13T16:23:11Z" uid="34428" user="usm78-gis" changeset="487804" lat="60.2910767" lon="29.2136046"/>
  <node id="332799249" version="4" timestamp="2009-04-13T16:32:50Z" uid="34428" user="usm78-gis" changeset="487804" lat="60.2910767" lon="29.2136046"/>
  <node id="332799250" version="2" timestamp="2009-04-04T20:05:16Z" uid="34428" user="usm78-gis" changeset="181835" lat="60.2921328" lon="29.2121871"/>
  <node id="332799250" version="3" timestamp="2009-04-13T16:23:11Z" uid="34428" user="usm78-gis" changeset="487804" lat="60.29175" lon="29.2121871"/>
  <node id="332799250" version="4" timestamp="2009-04-13T16:32:51Z" uid="34428" user="usm78-gis" changeset="487804" lat="60.29175" lon="29.2121871"/>
  <node id="332799251" version="2" timestamp="2009-04-04T20:06:51Z" uid="34428" user="usm78-gis" changeset="181835" lat="60.2929816" lon="29.2110059"/>
  <node id="332799251" version="3" timestamp="2009-04-13T16:23:11Z" uid="34428" user="usm78-gis" changeset="487804" lat="60.2925988" lon="29.2110059"/>
  <node id="332799251" version="4" timestamp="2009-04-13T16:32:51Z" uid="34428" user="usm78-gis" changeset="487804" lat="60.2925988" lon="29.2110059"/>
  <node id="332799253" version="2" timestamp="2009-04-04T20:06:17Z" uid="34428" user="usm78-gis" changeset="181835" lat="60.2937426" lon="29.2100018"/>
  <node id="332799253" version="3" timestamp="2009-04-13T16:23:12Z" uid="34428" user="usm78-gis" changeset="487804" lat="60.2933598" lon="29.2100018"/>
  <node id="332799253" version="4" timestamp="2009-04-13T16:32:52Z" uid="34428" user="usm78-gis" changeset="487804" lat="60.2933598" lon="29.2100018"/>
  <node id="332799254" version="2" timestamp="2009-04-04T20:06:01Z" uid="34428" user="usm78-gis" changeset="181835" lat="60.2944158" lon="29.2091159"/>
  <node id="332799254" version="3" timestamp="2009-04-13T16:23:12Z" uid="34428" user="usm78-gis" changeset="487804" lat="60.294033" lon="29.2091159"/>
  <node id="332799254" version="4" timestamp="2009-04-13T16:32:52Z" uid="34428" user="usm78-gis" changeset="487804" lat="60.294033" lon="29.2091159"/>
  <node id="332799255" version="2" timestamp="2009-04-04T20:05:49Z" uid="34428" user="usm78-gis" changeset="181835" lat="60.294767" lon="29.2074031"/>
  <node id="332799255" version="3" timestamp="2009-04-13T16:23:12Z" uid="34428" user="usm78-gis" changeset="487804" lat="60.2943842" lon="29.2074031"/>
  <node id="332799255" version="4" timestamp="2009-04-13T16:32:53Z" uid="34428" user="usm78-gis" changeset="487804" lat="60.2943842" lon="29.2074031"/>
  <node id="332799256" version="2" timestamp="2009-04-04T20:05:43Z" uid="34428" user="usm78-gis" changeset="181835" lat="60.2954694" lon="29.2056313"/>
  <node id="332799256" version="3" timestamp="2009-04-13T16:23:13Z" uid="34428" user="usm78-gis" changeset="487804" lat="60.2950866" lon="29.2056313"/>
  <node id="332799256" version="4" timestamp="2009-04-13T16:32:53Z" uid="34428" user="usm78-gis" changeset="487804" lat="60.2950866" lon="29.2056313"/>
  <node id="332799257" version="2" timestamp="2009-04-04T20:05:33Z" uid="34428" user="usm78-gis" changeset="181835" lat="60.2962595" lon="29.2036232"/>
  <node id="332799257" version="3" timestamp="2009-04-13T16:23:13Z" uid="34428" user="usm78-gis" changeset="487804" lat="60.2958767" lon="29.2036232"/>
  <node id="332799257" version="4" timestamp="2009-04-13T16:32:54Z" uid="34428" user="usm78-gis" changeset="487804" lat="60.2958767" lon="29.2036232"/>
  <node id="332799259" version="2" timestamp="2009-04-04T20:06:56Z" uid="34428" user="usm78-gis" changeset="181835" lat="60.2970204" lon="29.2022057"/>
  <node id="332799259" version="3" timestamp="2009-04-13T16:23:14Z" uid="34428" user="usm78-gis" changeset="487804" lat="60.2966376" lon="29.2022057"/>
  <node id="332799259" version="4" timestamp="2009-04-13T16:32:54Z" uid="34428" user="usm78-gis" changeset="487804" lat="60.2966376" lon="29.2022057"/>
  <node id="332799260" version="2" timestamp="2009-04-04T20:06:38Z" uid="34428" user="usm78-gis" changeset="181835" lat="60.2971082" lon="29.2010245"/>
  <node id="332799260" version="3" timestamp="2009-04-13T16:23:14Z" uid="34428" user="usm78-gis" changeset="487804" lat="60.2967254" lon="29.2010245"/>
  <node id="332799260" version="4" timestamp="2009-04-13T16:32:54Z" uid="34428" user="usm78-gis" changeset="487804" lat="60.2967254" lon="29.2010245"/>
  <node id="332799261" version="2" timestamp="2009-04-04T20:06:25Z" uid="34428" user="usm78-gis" changeset="181835" lat="60.2981032" lon="29.1990755"/>
  <node id="332799261" version="3" timestamp="2009-04-13T16:23:14Z" uid="34428" user="usm78-gis" changeset="487804" lat="60.2977204" lon="29.1990755"/>
  <node id="332799261" version="4" timestamp="2009-04-13T16:32:55Z" uid="34428" user="usm78-gis" changeset="487804" lat="60.2977204" lon="29.1990755"/>
  <node id="332799262" version="2" timestamp="2009-04-04T20:06:10Z" uid="34428" user="usm78-gis" changeset="181835" lat="60.2985715" lon="29.1988392"/>
  <node id="332799262" version="3" timestamp="2009-04-13T16:23:15Z" uid="34428" user="usm78-gis" changeset="487804" lat="60.2981888" lon="29.1988392"/>
  <node id="332799262" version="4" timestamp="2009-04-13T16:32:56Z" uid="34428" user="usm78-gis" changeset="487804" lat="60.2981888" lon="29.1988392"/>
  <node id="332799263" version="2" timestamp="2009-04-04T20:06:02Z" uid="34428" user="usm78-gis" changeset="181835" lat="60.2989226" lon="29.1983077"/>
  <node id="332799263" version="3" timestamp="2009-04-13T16:23:15Z" uid="34428" user="usm78-gis" changeset="487804" lat="60.2985399" lon="29.1983077"/>
  <node id="332799263" version="4" timestamp="2009-04-13T16:32:57Z" uid="34428" user="usm78-gis" changeset="487804" lat="60.2985399" lon="29.1983077"/>
  <node id="332799264" version="2" timestamp="2009-04-04T20:06:10Z" uid="34428" user="usm78-gis" changeset="181835" lat="60.29863" lon="29.1970674"/>
  <node id="332799264" version="3" timestamp="2009-04-13T16:23:16Z" uid="34428" user="usm78-gis" changeset="487804" lat="60.2982473" lon="29.1970674"/>
  <node id="332799264" version="4" timestamp="2009-04-13T16:32:57Z" uid="34428" user="usm78-gis" changeset="487804" lat="60.2982473" lon="29.1970674"/>
  <node id="332799265" version="2" timestamp="2009-04-04T20:06:14Z" uid="34428" user="usm78-gis" changeset="181835" lat="60.2990982" lon="29.1960633"/>
  <node id="332799265" version="3" timestamp="2009-04-13T16:23:16Z" uid="34428" user="usm78-gis" changeset="487804" lat="60.2987155" lon="29.1960633"/>
  <node id="332799265" version="4" timestamp="2009-04-13T16:32:58Z" uid="34428" user="usm78-gis" changeset="487804" lat="60.2987155" lon="29.1960633"/>
  <node id="332799266" version="2" timestamp="2009-04-04T20:06:29Z" uid="34428" user="usm78-gis" changeset="181835" lat="60.2997713" lon="29.1949412"/>
  <node id="332799266" version="3" timestamp="2009-04-13T16:23:16Z" uid="34428" user="usm78-gis" changeset="487804" lat="60.2993886" lon="29.1949412"/>
  <node id="332799266" version="4" timestamp="2009-04-13T16:32:58Z" uid="34428" user="usm78-gis" changeset="487804" lat="60.2993886" lon="29.1949412"/>
  <node id="332799267" version="2" timestamp="2009-04-04T20:06:41Z" uid="34428" user="usm78-gis" changeset="181835" lat="60.3003273" lon="29.1933465"/>
  <node id="332799267" version="3" timestamp="2009-04-13T16:23:17Z" uid="34428" user="usm78-gis" changeset="487804" lat="60.2999446" lon="29.1933465"/>
  <node id="332799267" version="4" timestamp="2009-04-13T16:32:58Z" uid="34428" user="usm78-gis" changeset="487804" lat="60.2999446" lon="29.1933465"/>
  <node id="332799268" version="2" timestamp="2009-04-04T20:05:13Z" uid="34428" user="usm78-gis" changeset="181835" lat="60.3005321" lon="29.1913975"/>
  <node id="332799268" version="3" timestamp="2009-04-13T16:23:17Z" uid="34428" user="usm78-gis" changeset="487804" lat="60.3001494" lon="29.1913975"/>
  <node id="332799268" version="4" timestamp="2009-04-13T16:32:59Z" uid="34428" user="usm78-gis" changeset="487804" lat="60.3001494" lon="29.1913975"/>
  <node id="332799269" version="2" timestamp="2009-04-04T20:05:23Z" uid="34428" user="usm78-gis" changeset="181835" lat="60.300854" lon="29.1900391"/>
  <node id="332799269" version="3" timestamp="2009-04-13T16:23:17Z" uid="34428" user="usm78-gis" changeset="487804" lat="60.3004713" lon="29.1900391"/>
  <node id="332799269" version="4" timestamp="2009-04-13T16:33:00Z" uid="34428" user="usm78-gis" changeset="487804" lat="60.3004713" lon="29.1900391"/>
  <node id="332799270" version="2" timestamp="2009-04-04T20:05:35Z" uid="34428" user="usm78-gis" changeset="181835" lat="60.3011465" lon="29.18809"/>
  <node id="332799270" version="3" timestamp="2009-04-13T16:23:18Z" uid="34428" user="usm78-gis" changeset="487804" lat="60.3007638" lon="29.18809"/>
  <node id="332799270" version="4" timestamp="2009-04-13T16:33:00Z" uid="34428" user="usm78-gis" changeset="487804" lat="60.3007638" lon="29.18809"/>
  <node id="332799271" version="2" timestamp="2009-04-04T20:05:45Z" uid="34428" user="usm78-gis" changeset="181835" lat="60.3011173" lon="29.1872041"/>
  <node id="332799271" version="3" timestamp="2009-04-13T16:23:18Z" uid="34428" user="usm78-gis" changeset="487804" lat="60.3007346" lon="29.1872041"/>
  <node id="332799271" version="4" timestamp="2009-04-13T16:33:01Z" uid="34428" user="usm78-gis" changeset="487804" lat="60.3007346" lon="29.1872041"/>
  <node id="332799272" version="2" timestamp="2009-04-04T20:05:57Z" uid="34428" user="usm78-gis" changeset="181835" lat="60.3012343" lon="29.1863773"/>
  <node id="332799272" version="3" timestamp="2009-04-13T16:23:18Z" uid="34428" user="usm78-gis" changeset="487804" lat="60.3008516" lon="29.1863773"/>
  <node id="332799272" version="4" timestamp="2009-04-13T16:33:01Z" uid="34428" user="usm78-gis" changeset="487804" lat="60.3008516" lon="29.1863773"/>
  <node id="332799274" version="2" timestamp="2009-04-04T20:06:24Z" uid="34428" user="usm78-gis" changeset="181835" lat="60.3015562" lon="29.1859048"/>
  <node id="332799274" version="3" timestamp="2009-04-13T16:23:19Z" uid="34428" user="usm78-gis" changeset="487804" lat="60.3011735" lon="29.1859048"/>
  <node id="332799274" version="4" timestamp="2009-04-13T16:33:02Z" uid="34428" user="usm78-gis" changeset="487804" lat="60.3011735" lon="29.1859048"/>
  <node id="332799275" version="2" timestamp="2009-04-04T20:06:36Z" uid="34428" user="usm78-gis" changeset="181835" lat="60.3022585" lon="29.1846054"/>
  <node id="332799275" version="3" timestamp="2009-04-13T16:23:19Z" uid="34428" user="usm78-gis" changeset="487804" lat="60.3018758" lon="29.1846054"/>
  <node id="332799275" version="4" timestamp="2009-04-13T16:33:02Z" uid="34428" user="usm78-gis" changeset="487804" lat="60.3018758" lon="29.1846054"/>
  <node id="332799276" version="2" timestamp="2009-04-04T20:05:15Z" uid="34428" user="usm78-gis" changeset="181835" lat="60.3028144" lon="29.184192"/>
  <node id="332799276" version="3" timestamp="2009-04-13T16:23:19Z" uid="34428" user="usm78-gis" changeset="487804" lat="60.3024317" lon="29.184192"/>
  <node id="332799276" version="4" timestamp="2009-04-13T16:33:03Z" uid="34428" user="usm78-gis" changeset="487804" lat="60.3024317" lon="29.184192"/>
  <node id="332799277" version="2" timestamp="2009-04-04T20:06:43Z" uid="34428" user="usm78-gis" changeset="181835" lat="60.3034581" lon="29.1843692"/>
  <node id="332799277" version="3" timestamp="2009-04-13T16:23:20Z" uid="34428" user="usm78-gis" changeset="487804" lat="60.3030754" lon="29.1843692"/>
  <node id="332799277" version="4" timestamp="2009-04-13T16:33:04Z" uid="34428" user="usm78-gis" changeset="487804" lat="60.3030754" lon="29.1843692"/>
  <node id="332799278" version="2" timestamp="2009-04-04T20:06:30Z" uid="34428" user="usm78-gis" changeset="181835" lat="60.3038678" lon="29.1854323"/>
  <node id="332799278" version="3" timestamp="2009-04-13T16:23:20Z" uid="34428" user="usm78-gis" changeset="487804" lat="60.3034851" lon="29.1854323"/>
  <node id="332799278" version="4" timestamp="2009-04-13T16:33:04Z" uid="34428" user="usm78-gis" changeset="487804" lat="60.3034851" lon="29.1854323"/>
  <node id="332799279" version="2" timestamp="2009-04-04T20:05:43Z" uid="34428" user="usm78-gis" changeset="181835" lat="60.3046578" lon="29.1864954"/>
  <node id="332799279" version="3" timestamp="2009-04-13T16:23:21Z" uid="34428" user="usm78-gis" changeset="487804" lat="60.3042751" lon="29.1864954"/>
  <node id="332799279" version="4" timestamp="2009-04-13T16:33:05Z" uid="34428" user="usm78-gis" changeset="487804" lat="60.3042751" lon="29.1864954"/>
  <node id="332799280" version="2" timestamp="2009-04-04T20:05:56Z" uid="34428" user="usm78-gis" changeset="181835" lat="60.3050967" lon="29.1862591"/>
  <node id="332799280" version="3" timestamp="2009-04-13T16:23:21Z" uid="34428" user="usm78-gis" changeset="487804" lat="60.304714" lon="29.1862591"/>
  <node id="332799280" version="4" timestamp="2009-04-13T16:33:05Z" uid="34428" user="usm78-gis" changeset="487804" lat="60.304714" lon="29.1862591"/>
  <node id="332799281" version="2" timestamp="2009-04-04T20:06:26Z" uid="34428" user="usm78-gis" changeset="181835" lat="60.305243" lon="29.1853732"/>
  <node id="332799281" version="3" timestamp="2009-04-13T16:23:21Z" uid="34428" user="usm78-gis" changeset="487804" lat="60.3048603" lon="29.1853732"/>
  <node id="332799281" version="4" timestamp="2009-04-13T16:33:06Z" uid="34428" user="usm78-gis" changeset="487804" lat="60.3048603" lon="29.1853732"/>
  <node id="332799282" version="2" timestamp="2009-04-04T20:06:36Z" uid="34428" user="usm78-gis" changeset="181835" lat="60.3057111" lon="29.1843692"/>
  <node id="332799282" version="3" timestamp="2009-04-13T16:23:22Z" uid="34428" user="usm78-gis" changeset="487804" lat="60.3053284" lon="29.1843692"/>
  <node id="332799282" version="4" timestamp="2009-04-13T16:33:06Z" uid="34428" user="usm78-gis" changeset="487804" lat="60.3053284" lon="29.1843692"/>
  <node id="332799283" version="2" timestamp="2009-04-04T20:06:57Z" uid="34428" user="usm78-gis" changeset="181835" lat="60.3056233" lon="29.1831879"/>
  <node id="332799283" version="3" timestamp="2009-04-13T16:23:22Z" uid="34428" user="usm78-gis" changeset="487804" lat="60.3052406" lon="29.1831879"/>
  <node id="332799283" version="4" timestamp="2009-04-13T16:33:07Z" uid="34428" user="usm78-gis" changeset="487804" lat="60.3052406" lon="29.1831879"/>
  <node id="332799283" version="5" timestamp="2010-08-13T20:37:11Z" uid="34428" user="usm78-gis" changeset="5485600" lat="60.3053361" lon="29.1821468"/>
  <node id="332799284" version="2" timestamp="2009-04-04T20:05:25Z" uid="34428" user="usm78-gis" changeset="181835" lat="60.3063254" lon="29.180353"/>
  <node id="332799284" version="3" timestamp="2009-04-13T16:23:23Z" uid="34428" user="usm78-gis" changeset="487804" lat="60.3059427" lon="29.180353"/>
  <node id="332799284" version="4" timestamp="2009-04-13T16:33:07Z" uid="34428" user="usm78-gis" changeset="487804" lat="60.3059427" lon="29.180353"/>
  <node id="332799285" version="2" timestamp="2009-04-04T20:05:28Z" uid="34428" user="usm78-gis" changeset="181835" lat="60.3070568" lon="29.178404"/>
  <node id="332799285" version="3" timestamp="2009-04-13T16:23:23Z" uid="34428" user="usm78-gis" changeset="487804" lat="60.3066742" lon="29.178404"/>
  <node id="332799285" version="4" timestamp="2009-04-13T16:33:08Z" uid="34428" user="usm78-gis" changeset="487804" lat="60.3066742" lon="29.178404"/>
  <node id="332799285" version="5" timestamp="2010-08-13T20:37:11Z" uid="34428" user="usm78-gis" changeset="5485600" lat="60.3067506" lon="29.1785582"/>
  <node id="332799286" version="2" timestamp="2009-04-04T20:05:44Z" uid="34428" user="usm78-gis" changeset="181835" lat="60.3075542" lon="29.1773999"/>
  <node id="332799286" version="3" timestamp="2009-04-13T16:23:24Z" uid="34428" user="usm78-gis" changeset="487804" lat="60.3071716" lon="29.1773999"/>
  <node id="332799286" version="4" timestamp="2009-04-13T16:33:09Z" uid="34428" user="usm78-gis" changeset="487804" lat="60.3071716" lon="29.1773999"/>
  <node id="332799286" version="5" timestamp="2010-08-13T20:37:06Z" uid="34428" user="usm78-gis" changeset="5485600" lat="60.3073626" lon="29.1768986"/>
  <node id="332799287" version="2" timestamp="2009-04-04T20:05:46Z" uid="34428" user="usm78-gis" changeset="181835" lat="60.3086659" lon="29.1753328"/>
  <node id="332799287" version="3" timestamp="2009-04-13T16:23:24Z" uid="34428" user="usm78-gis" changeset="487804" lat="60.3082833" lon="29.1753328"/>
  <node id="332799287" version="4" timestamp="2009-04-13T16:33:09Z" uid="34428" user="usm78-gis" changeset="487804" lat="60.3082833" lon="29.1753328"/>
  <node id="332799288" version="2" timestamp="2009-04-04T20:05:58Z" uid="34428" user="usm78-gis" changeset="181835" lat="60.309251" lon="29.1733837"/>
  <node id="332799288" version="3" timestamp="2009-04-13T16:23:24Z" uid="34428" user="usm78-gis" changeset="487804" lat="60.3088684" lon="29.1733837"/>
  <node id="332799288" version="4" timestamp="2009-04-13T16:33:10Z" uid="34428" user="usm78-gis" changeset="487804" lat="60.3088684" lon="29.1733837"/>
  <node id="332799288" version="5" timestamp="2010-08-13T20:37:03Z" uid="34428" user="usm78-gis" changeset="5485600" lat="60.3088684" lon="29.173885"/>
  <node id="332799289" version="2" timestamp="2009-04-04T20:06:13Z" uid="34428" user="usm78-gis" changeset="181835" lat="60.3094558" lon="29.1719663"/>
  <node id="332799289" version="3" timestamp="2009-04-13T16:23:25Z" uid="34428" user="usm78-gis" changeset="487804" lat="60.3090732" lon="29.1719663"/>
  <node id="332799289" version="4" timestamp="2009-04-13T16:33:10Z" uid="34428" user="usm78-gis" changeset="487804" lat="60.3090732" lon="29.1719663"/>
  <node id="332799289" version="5" timestamp="2010-08-13T20:37:08Z" uid="34428" user="usm78-gis" changeset="5485600" lat="60.3091496" lon="29.1728531"/>
  <node id="332799290" version="2" timestamp="2009-04-04T20:06:29Z" uid="34428" user="usm78-gis" changeset="181835" lat="60.3100409" lon="29.1711985"/>
  <node id="332799290" version="3" timestamp="2009-04-13T16:23:25Z" uid="34428" user="usm78-gis" changeset="487804" lat="60.3096583" lon="29.1711985"/>
  <node id="332799290" version="4" timestamp="2009-04-13T16:33:11Z" uid="34428" user="usm78-gis" changeset="487804" lat="60.3096583" lon="29.1711985"/>
  <node id="332799290" version="5" timestamp="2010-08-13T20:37:12Z" uid="34428" user="usm78-gis" changeset="5485600" lat="60.3095246" lon="29.1707744"/>
  <node id="332799291" version="2" timestamp="2009-04-04T20:06:39Z" uid="34428" user="usm78-gis" changeset="181835" lat="60.310977" lon="29.1719663"/>
  <node id="332799291" version="3" timestamp="2009-04-13T16:23:26Z" uid="34428" user="usm78-gis" changeset="487804" lat="60.3105944" lon="29.1719663"/>
  <node id="332799291" version="4" timestamp="2009-04-13T16:33:11Z" uid="34428" user="usm78-gis" changeset="487804" lat="60.3105944" lon="29.1719663"/>
  <node id="332799291" version="5" timestamp="2010-08-13T20:37:03Z" uid="34428" user="usm78-gis" changeset="5485600" lat="60.3105944" lon="29.1715807"/>
  <node id="332799292" version="2" timestamp="2009-04-04T20:05:12Z" uid="34428" user="usm78-gis" changeset="181835" lat="60.312381" lon="29.1727931"/>
  <node id="332799292" version="3" timestamp="2009-04-13T16:23:26Z" uid="34428" user="usm78-gis" changeset="487804" lat="60.3119984" lon="29.1727931"/>
  <node id="332799292" version="4" timestamp="2009-04-13T16:33:12Z" uid="34428" user="usm78-gis" changeset="487804" lat="60.3119984" lon="29.1727931"/>
  <node id="332799292" version="5" timestamp="2010-08-13T20:37:11Z" uid="34428" user="usm78-gis" changeset="5485600" lat="60.3122467" lon="29.1724846"/>
  <node id="332799293" version="2" timestamp="2009-04-04T20:05:26Z" uid="34428" user="usm78-gis" changeset="181835" lat="60.3130831" lon="29.1725569"/>
  <node id="332799293" version="3" timestamp="2009-04-13T16:23:26Z" uid="34428" user="usm78-gis" changeset="487804" lat="60.3127005" lon="29.1725569"/>
  <node id="332799293" version="4" timestamp="2009-04-13T16:33:12Z" uid="34428" user="usm78-gis" changeset="487804" lat="60.3127005" lon="29.1725569"/>
  <node id="332799293" version="5" timestamp="2010-08-13T20:37:02Z" uid="34428" user="usm78-gis" changeset="5485600" lat="60.3125668" lon="29.1722484"/>
  <node id="332799294" version="2" timestamp="2009-04-04T20:05:39Z" uid="34428" user="usm78-gis" changeset="181835" lat="60.3139898" lon="29.1717891"/>
  <node id="332799294" version="3" timestamp="2009-04-13T16:23:26Z" uid="34428" user="usm78-gis" changeset="487804" lat="60.3136072" lon="29.1717891"/>
  <node id="332799294" version="4" timestamp="2009-04-13T16:33:13Z" uid="34428" user="usm78-gis" changeset="487804" lat="60.3136072" lon="29.1717891"/>
  <node id="332799294" version="5" timestamp="2010-08-13T20:37:08Z" uid="34428" user="usm78-gis" changeset="5485600" lat="60.3133017" lon="29.1715192"/>
  <node id="332799295" version="2" timestamp="2009-04-04T20:05:54Z" uid="34428" user="usm78-gis" changeset="181835" lat="60.3144286" lon="29.1700763"/>
  <node id="332799295" version="3" timestamp="2009-04-13T16:23:27Z" uid="34428" user="usm78-gis" changeset="487804" lat="60.314046" lon="29.1700763"/>
  <node id="332799295" version="4" timestamp="2009-04-13T16:33:14Z" uid="34428" user="usm78-gis" changeset="487804" lat="60.314046" lon="29.1700763"/>
  <node id="332799296" version="2" timestamp="2009-04-04T20:06:03Z" uid="34428" user="usm78-gis" changeset="181835" lat="60.3146333" lon="29.167832"/>
  <node id="332799296" version="3" timestamp="2009-04-13T16:23:27Z" uid="34428" user="usm78-gis" changeset="487804" lat="60.3142507" lon="29.167832"/>
  <node id="332799296" version="4" timestamp="2009-04-13T16:33:15Z" uid="34428" user="usm78-gis" changeset="487804" lat="60.3142507" lon="29.167832"/>
  <node id="332799297" version="2" timestamp="2009-04-04T20:06:07Z" uid="34428" user="usm78-gis" changeset="181835" lat="60.3146626" lon="29.165942"/>
  <node id="332799297" version="3" timestamp="2009-04-13T16:23:27Z" uid="34428" user="usm78-gis" changeset="487804" lat="60.31428" lon="29.165942"/>
  <node id="332799297" version="4" timestamp="2009-04-13T16:33:15Z" uid="34428" user="usm78-gis" changeset="487804" lat="60.31428" lon="29.165942"/>
  <node id="332799298" version="2" timestamp="2009-04-04T20:06:22Z" uid="34428" user="usm78-gis" changeset="181835" lat="60.3141361" lon="29.1645836"/>
  <node id="332799298" version="3" timestamp="2009-04-13T16:23:28Z" uid="34428" user="usm78-gis" changeset="487804" lat="60.3137535" lon="29.1645836"/>
  <node id="332799298" version="4" timestamp="2009-04-13T16:33:16Z" uid="34428" user="usm78-gis" changeset="487804" lat="60.3137535" lon="29.1645836"/>
  <node id="332799299" version="2" timestamp="2009-04-04T20:06:17Z" uid="34428" user="usm78-gis" changeset="181835" lat="60.3129075" lon="29.1626936"/>
  <node id="332799299" version="3" timestamp="2009-04-13T16:23:28Z" uid="34428" user="usm78-gis" changeset="487804" lat="60.3125249" lon="29.1626936"/>
  <node id="332799299" version="4" timestamp="2009-04-13T16:33:16Z" uid="34428" user="usm78-gis" changeset="487804" lat="60.3125249" lon="29.1626936"/>
  <node id="332799299" version="5" timestamp="2010-08-13T20:37:06Z" uid="34428" user="usm78-gis" changeset="5485600" lat="60.3134988" lon="29.1640431"/>
  <node id="332799300" version="2" timestamp="2009-04-04T20:06:31Z" uid="34428" user="usm78-gis" changeset="181835" lat="60.3129953" lon="29.1618667"/>
  <node id="332799300" version="3" timestamp="2009-04-13T16:23:29Z" uid="34428" user="usm78-gis" changeset="487804" lat="60.3126127" lon="29.1618667"/>
  <node id="332799300" version="4" timestamp="2009-04-13T16:33:17Z" uid="34428" user="usm78-gis" changeset="487804" lat="60.3126127" lon="29.1618667"/>
  <node id="332799301" version="2" timestamp="2009-04-04T20:06:43Z" uid="34428" user="usm78-gis" changeset="181835" lat="60.3129953" lon="29.160154"/>
  <node id="332799301" version="3" timestamp="2009-04-13T16:23:29Z" uid="34428" user="usm78-gis" changeset="487804" lat="60.3126127" lon="29.160154"/>
  <node id="332799301" version="4" timestamp="2009-04-13T16:33:18Z" uid="34428" user="usm78-gis" changeset="487804" lat="60.3126127" lon="29.160154"/>
  <node id="332799302" version="2" timestamp="2009-04-04T20:05:19Z" uid="34428" user="usm78-gis" changeset="181835" lat="60.3132586" lon="29.1583231"/>
  <node id="332799302" version="3" timestamp="2009-04-13T16:23:30Z" uid="34428" user="usm78-gis" changeset="487804" lat="60.312876" lon="29.1583231"/>
  <node id="332799302" version="4" timestamp="2009-04-13T16:33:18Z" uid="34428" user="usm78-gis" changeset="487804" lat="60.312876" lon="29.1583231"/>
  <node id="332799303" version="2" timestamp="2009-04-04T20:05:29Z" uid="34428" user="usm78-gis" changeset="181835" lat="60.3132293" lon="29.1564922"/>
  <node id="332799303" version="3" timestamp="2009-04-13T16:23:30Z" uid="34428" user="usm78-gis" changeset="487804" lat="60.3128467" lon="29.1564922"/>
  <node id="332799303" version="4" timestamp="2009-04-13T16:33:19Z" uid="34428" user="usm78-gis" changeset="487804" lat="60.3128467" lon="29.1564922"/>
  <node id="332799304" version="2" timestamp="2009-04-04T20:05:37Z" uid="34428" user="usm78-gis" changeset="181835" lat="60.3132001" lon="29.1546022"/>
  <node id="332799304" version="3" timestamp="2009-04-13T16:23:31Z" uid="34428" user="usm78-gis" changeset="487804" lat="60.3128175" lon="29.1546022"/>
  <node id="332799304" version="4" timestamp="2009-04-13T16:33:20Z" uid="34428" user="usm78-gis" changeset="487804" lat="60.3128175" lon="29.1546022"/>
  <node id="332799305" version="2" timestamp="2009-04-04T20:05:50Z" uid="34428" user="usm78-gis" changeset="181835" lat="60.3131416" lon="29.1532438"/>
  <node id="332799305" version="3" timestamp="2009-04-13T16:23:31Z" uid="34428" user="usm78-gis" changeset="487804" lat="60.312759" lon="29.1532438"/>
  <node id="332799305" version="4" timestamp="2009-04-13T16:33:20Z" uid="34428" user="usm78-gis" changeset="487804" lat="60.312759" lon="29.1532438"/>
  <node id="332799309" version="2" timestamp="2009-04-04T20:06:40Z" uid="34428" user="usm78-gis" changeset="181835" lat="60.3132878" lon="29.1521807"/>
  <node id="332799309" version="3" timestamp="2009-04-13T16:23:31Z" uid="34428" user="usm78-gis" changeset="487804" lat="60.3129052" lon="29.1521807"/>
  <node id="332799309" version="4" timestamp="2009-04-13T16:33:21Z" uid="34428" user="usm78-gis" changeset="487804" lat="60.3129052" lon="29.1521807"/>
  <node id="332799310" version="2" timestamp="2009-04-04T20:05:22Z" uid="34428" user="usm78-gis" changeset="181835" lat="60.3135218" lon="29.1511176"/>
  <node id="332799310" version="3" timestamp="2009-04-13T16:23:32Z" uid="34428" user="usm78-gis" changeset="487804" lat="60.3131392" lon="29.1511176"/>
  <node id="332799310" version="4" timestamp="2009-04-13T16:33:22Z" uid="34428" user="usm78-gis" changeset="487804" lat="60.3131392" lon="29.1511176"/>
  <node id="332799311" version="2" timestamp="2009-04-04T20:06:46Z" uid="34428" user="usm78-gis" changeset="181835" lat="60.3140483" lon="29.1501726"/>
  <node id="332799311" version="3" timestamp="2009-04-13T16:23:32Z" uid="34428" user="usm78-gis" changeset="487804" lat="60.3136657" lon="29.1501726"/>
  <node id="332799311" version="4" timestamp="2009-04-13T16:33:22Z" uid="34428" user="usm78-gis" changeset="487804" lat="60.3136657" lon="29.1501726"/>
  <node id="332799312" version="2" timestamp="2009-04-04T20:06:03Z" uid="34428" user="usm78-gis" changeset="181835" lat="60.3140191" lon="29.1490504"/>
  <node id="332799312" version="3" timestamp="2009-04-13T16:23:33Z" uid="34428" user="usm78-gis" changeset="487804" lat="60.3136365" lon="29.1490504"/>
  <node id="332799312" version="4" timestamp="2009-04-13T16:33:23Z" uid="34428" user="usm78-gis" changeset="487804" lat="60.3136365" lon="29.1490504"/>
  <node id="332799313" version="2" timestamp="2009-04-04T20:05:37Z" uid="34428" user="usm78-gis" changeset="181835" lat="60.3142531" lon="29.147692"/>
  <node id="332799313" version="3" timestamp="2009-04-13T16:23:33Z" uid="34428" user="usm78-gis" changeset="487804" lat="60.3138705" lon="29.147692"/>
  <node id="332799313" version="4" timestamp="2009-04-13T16:33:23Z" uid="34428" user="usm78-gis" changeset="487804" lat="60.3138705" lon="29.147692"/>
  <node id="332799314" version="2" timestamp="2009-04-04T20:05:54Z" uid="34428" user="usm78-gis" changeset="181835" lat="60.3152183" lon="29.1446799"/>
  <node id="332799314" version="3" timestamp="2009-04-13T16:23:33Z" uid="34428" user="usm78-gis" changeset="487804" lat="60.3148357" lon="29.1446799"/>
  <node id="332799314" version="4" timestamp="2009-04-13T16:33:23Z" uid="34428" user="usm78-gis" changeset="487804" lat="60.3148357" lon="29.1446799"/>
</osm>
