<?xml version='1.0' encoding='UTF-8'?>
<osm version="0.6" generator="libosmium/2.20.0">
  <node id="333151614" version="2" timestamp="2010-06-12T09:03:39Z" uid="151899" user="Bikeman2000" changeset="4968553" lat="49.753119" lon="11.4049089"/>
  <node id="333151614" version="3" timestamp="2011-07-15T07:41:41Z" uid="51230" user="gerzap" changeset="8728663" lat="49.7530768" lon="11.4048938"/>
  <node id="333151614" version="4" timestamp="2012-02-22T15:37:11Z" uid="89943" user="Bengatzer" changeset="10760175" lat="49.7530768" lon="11.4048938"/>
  <node id="333151617" version="2" timestamp="2010-06-12T09:03:38Z" uid="151899" user="Bikeman2000" changeset="4968553" lat="49.752275" lon="11.4044785"/>
  <node id="333151617" version="3" timestamp="2011-07-15T07:41:41Z" uid="51230" user="gerzap" changeset="8728663" lat="49.7523496" lon="11.4045036"/>
  <node id="333151617" version="4" timestamp="2012-02-22T15:37:11Z" uid="89943" user="Bengatzer" changeset="10760175" lat="49.7523496" lon="11.4045036"/>
  <node id="333151619" version="2" timestamp="2010-06-12T09:03:41Z" uid="151899" user="Bikeman2000" changeset="4968553" lat="49.7516162" lon="11.405185"/>
  <node id="333151619" version="3" timestamp="2011-07-15T07:41:41Z" uid="51230" user="gerzap" changeset="8728663" lat="49.7516584" lon="11.4052252"/>
  <node id="333151619" version="4" timestamp="2012-02-22T15:37:11Z" uid="89943" user="Bengatzer" changeset="10760175" lat="49.7516584" lon="11.4052252"/>
  <node id="333151622" version="2" timestamp="2010-06-12T09:03:38Z" uid="151899" user="Bikeman2000" changeset="4968553" lat="49.7522813" lon="11.4058861"/>
  <node id="333151622" version="3" timestamp="2011-07-15T07:41:41Z" uid="51230" user="gerzap" changeset="8728663" lat="49.7522943" lon="11.4057254"/>
  <node id="333151622" version="4" timestamp="2012-02-22T15:37:11Z" uid="89943" user="Bengatzer" changeset="10760175" lat="49.7522943" lon="11.4057254"/>
  <node id="333151624" version="2" timestamp="2010-06-12T09:03:45Z" uid="151899" user="Bikeman2000" changeset="4968553" lat="49.7523358" lon="11.4056626"/>
  <node id="333151629" version="2" timestamp="2010-06-12T09:03:38Z" uid="151899" user="Bikeman2000" changeset="4968553" lat="49.7530823" lon="11.4042654"/>
  <node id="333151629" version="3" timestamp="2011-07-15T07:41:41Z" uid="51230" user="gerzap" changeset="8728663" lat="49.7530927" lon="11.4042453"/>
  <node id="333151629" version="4" timestamp="2012-02-22T15:37:11Z" uid="89943" user="Bengatzer" changeset="10760175" lat="49.7530927" lon="11.4042453"/>
  <node id="333153940" version="1" timestamp="2009-01-18T17:54:35Z" uid="58091" user="Andreas M" changeset="807796" lat="48.1940215" lon="16.3864976">
    <tag k="addr:city" v="Wien"/>
    <tag k="addr:housenumber" v="1"/>
    <tag k="addr:postcode" v="1030"/>
    <tag k="addr:street" v="Fasangasse"/>
    <tag k="amenity" v="bank"/>
    <tag k="atm" v="yes"/>
    <tag k="name" v="Erste Bank"/>
  </node>
  <node id="333153940" version="2" timestamp="2009-02-07T21:50:30Z" uid="66904" user="OSchlÃ¼ter" changeset="248893" lat="48.1940215" lon="16.3864976">
    <tag k="addr:city" v="Wien"/>
    <tag k="addr:country" v="AT"/>
    <tag k="addr:housenumber" v="1"/>
    <tag k="addr:postcode" v="1030"/>
    <tag k="addr:street" v="Fasangasse"/>
    <tag k="amenity" v="bank"/>
    <tag k="atm" v="yes"/>
    <tag k="name" v="Erste Bank"/>
  </node>
  <node id="333153940" version="3" timestamp="2010-01-26T00:02:13Z" uid="124234" user="kiwien" changeset="3716047" lat="48.1940216" lon="16.3864975">
    <tag k="addr:city" v="Wien"/>
    <tag k="addr:country" v="AT"/>
    <tag k="addr:housenumber" v="1"/>
    <tag k="addr:postcode" v="1030"/>
    <tag k="addr:street" v="Fasangasse"/>
    <tag k="amenity" v="bank"/>
    <tag k="atm" v="yes"/>
    <tag k="name" v="Erste Bank"/>
    <tag k="operator" v="Erste Bank"/>
  </node>
  <node id="333153940" version="4" timestamp="2011-08-13T13:43:17Z" uid="290680" user="wheelmap_visitor" changeset="9003023" lat="48.1940216" lon="16.3864975">
    <tag k="addr:city" v="Wien"/>
    <tag k="addr:country" v="AT"/>
    <tag k="addr:housenumber" v="1"/>
    <tag k="addr:postcode" v="1030"/>
    <tag k="addr:street" v="Fasangasse"/>
    <tag k="amenity" v="bank"/>
    <tag k="atm" v="yes"/>
    <tag k="name" v="Erste Bank"/>
    <tag k="operator" v="Erste Bank"/>
    <tag k="wheelchair" v="yes"/>
  </node>
  <node id="333156749" version="1" timestamp="2009-01-18T17:58:47Z" uid="58091" user="Andreas M" changeset="807796" lat="48.1969593" lon="16.37067">
    <tag k="name" v="Computerstudio Wehsner"/>
    <tag k="shop" v="computer"/>
  </node>
  <node id="333156749" version="2" timestamp="2010-05-03T08:30:38Z" uid="38255" user="BearT" changeset="4592659" lat="48.1975526" lon="16.3701027">
    <tag k="addr:city" v="Wien"/>
    <tag k="addr:country" v="AT"/>
    <tag k="addr:housenumber" v="14"/>
    <tag k="addr:postcode" v="1040"/>
    <tag k="addr:street" v="Karlsgasse"/>
    <tag k="name" v="Computerstudio Wehsner"/>
    <tag k="shop" v="computer"/>
    <tag k="url" v="http://www.wehsner.at/"/>
  </node>
  <node id="333156749" version="3" timestamp="2010-09-20T12:49:43Z" uid="65148" user="Pirat Michi" changeset="5828900" lat="48.1975526" lon="16.3701027">
    <tag k="addr:city" v="Wien"/>
    <tag k="addr:country" v="AT"/>
    <tag k="addr:housenumber" v="14"/>
    <tag k="addr:postcode" v="1040"/>
    <tag k="addr:street" v="Karlsgasse"/>
    <tag k="name" v="Computerstudio Wehsner"/>
    <tag k="shop" v="computer"/>
    <tag k="website" v="http://www.wehsner.at/"/>
  </node>
  <node id="333156749" version="4" timestamp="2010-12-15T16:53:29Z" uid="54806" user="_al" changeset="6669244" lat="48.1975682" lon="16.3700176">
    <tag k="addr:city" v="Wien"/>
    <tag k="addr:country" v="AT"/>
    <tag k="addr:housenumber" v="14"/>
    <tag k="addr:postcode" v="1040"/>
    <tag k="addr:street" v="Karlsgasse"/>
    <tag k="name" v="Computerstudio Wehsner"/>
    <tag k="shop" v="computer"/>
    <tag k="website" v="http://www.wehsner.at/"/>
  </node>
  <node id="333156749" version="5" timestamp="2011-08-31T19:47:55Z" uid="28205" user="kelvan" changeset="9179412" lat="48.1975682" lon="16.3700176">
    <tag k="addr:city" v="Wien"/>
    <tag k="addr:country" v="AT"/>
    <tag k="addr:housenumber" v="14"/>
    <tag k="addr:postcode" v="1040"/>
    <tag k="addr:street" v="Karlsgasse"/>
    <tag k="name" v="Computerstudio Wehsner"/>
    <tag k="shop" v="computer"/>
    <tag k="website" v="http://www.wehsner.at/"/>
    <tag k="wheelchair" v="no"/>
  </node>
</osm>
