<?xml version='1.0' encoding='UTF-8'?>
<osm version="0.6" generator="libosmium/2.20.0">
  <node id="333690559" version="1" timestamp="2009-01-19T15:52:53Z" uid="58091" user="Andreas M" changeset="812902" lat="48.2094087" lon="16.3554463">
    <tag k="amenity" v="atm"/>
  </node>
  <node id="333690559" version="2" timestamp="2009-03-14T17:27:13Z" uid="28205" user="kelvan" changeset="807787" lat="48.2094087" lon="16.3554463">
    <tag k="amenity" v="bank"/>
    <tag k="atm" v="yes"/>
    <tag k="name" v="immo-Bank"/>
    <tag k="note" v="Volksbank"/>
  </node>
  <node id="333690559" version="3" timestamp="2009-05-29T15:58:51Z" uid="26818" user="David &amp; Christine Schmitt" changeset="1351960" lat="48.2094087" lon="16.3554463">
    <tag k="amenity" v="bank"/>
    <tag k="atm" v="yes"/>
    <tag k="name" v="immo-Bank"/>
    <tag k="note" v="Volksbank"/>
    <tag k="operator" v="Volksbank"/>
  </node>
  <node id="333690559" version="4" timestamp="2009-08-23T19:43:24Z" uid="51552" user="kfg" changeset="2235478" lat="48.2094087" lon="16.3554463">
    <tag k="amenity" v="bank"/>
    <tag k="atm" v="yes"/>
    <tag k="name" v="immo-Bank"/>
    <tag k="operator" v="Volksbank"/>
  </node>
  <node id="333690725" version="1" timestamp="2009-01-19T15:53:18Z" uid="58091" user="Andreas M" changeset="812902" lat="48.2087854" lon="16.3548054">
    <tag k="amenity" v="atm"/>
  </node>
  <node id="333690725" version="2" timestamp="2009-06-07T21:20:56Z" uid="124234" user="kiwien" changeset="1453940" lat="48.2087829" lon="16.3548048">
    <tag k="amenity" v="bank"/>
    <tag k="atm" v="yes"/>
    <tag k="name" v="ÖVK - Österr. Verkehrskreditbank"/>
  </node>
  <node id="333690725" version="3" timestamp="2010-01-11T19:16:27Z" uid="124234" user="kiwien" changeset="3598285" lat="48.208783" lon="16.3548047">
    <tag k="amenity" v="bank"/>
    <tag k="atm" v="yes"/>
    <tag k="name" v="ÖVK - Österr. Verkehrskreditbank"/>
    <tag k="operator" v="ÖVK - Österr. Verkehrskreditbank"/>
  </node>
  <node id="333690725" version="4" timestamp="2011-12-02T08:08:48Z" uid="26818" user="David &amp; Christine Schmitt" changeset="10014813" lat="48.2087885" lon="16.3547152">
    <tag k="amenity" v="bank"/>
    <tag k="atm" v="yes"/>
    <tag k="name" v="ÖVK - Österr. Verkehrskreditbank"/>
    <tag k="operator" v="ÖVK - Österr. Verkehrskreditbank"/>
  </node>
  <node id="333691130" version="1" timestamp="2009-01-19T15:54:25Z" uid="58091" user="Andreas M" changeset="812902" lat="48.2091858" lon="16.3508722">
    <tag k="amenity" v="atm"/>
  </node>
  <node id="333691130" version="2" timestamp="2009-01-19T23:34:26Z" uid="54806" user="_al" changeset="814150" lat="48.2092123" lon="16.3508665">
    <tag k="addr:city" v="Wien"/>
    <tag k="addr:housenumber" v="23"/>
    <tag k="addr:postcode" v="1080"/>
    <tag k="addr:street" v="Josefstädter Straße"/>
    <tag k="amenity" v="bank"/>
    <tag k="atm" v="yes"/>
    <tag k="created_by" v="Potlatch 0.10f"/>
    <tag k="description" v="Filiale Josefstadt"/>
    <tag k="name" v="Bank Austria"/>
    <tag k="ref" v="50345, 52095"/>
  </node>
  <node id="333691130" version="3" timestamp="2009-02-08T20:33:01Z" uid="66904" user="OSchlüter" changeset="281431" lat="48.2092123" lon="16.3508665">
    <tag k="addr:city" v="Wien"/>
    <tag k="addr:country" v="AT"/>
    <tag k="addr:housenumber" v="23"/>
    <tag k="addr:postcode" v="1080"/>
    <tag k="addr:street" v="Josefstädter Straße"/>
    <tag k="amenity" v="bank"/>
    <tag k="atm" v="yes"/>
    <tag k="created_by" v="Potlatch 0.10f"/>
    <tag k="description" v="Filiale Josefstadt"/>
    <tag k="name" v="Bank Austria"/>
    <tag k="ref" v="50345, 52095"/>
  </node>
  <node id="333691130" version="4" timestamp="2009-05-29T15:33:04Z" uid="26818" user="David &amp; Christine Schmitt" changeset="1351818" lat="48.2092123" lon="16.3508665">
    <tag k="addr:city" v="Wien"/>
    <tag k="addr:country" v="AT"/>
    <tag k="addr:housenumber" v="23"/>
    <tag k="addr:postcode" v="1080"/>
    <tag k="addr:street" v="Josefstädter Straße"/>
    <tag k="amenity" v="bank"/>
    <tag k="atm" v="yes"/>
    <tag k="created_by" v="Potlatch 0.10f"/>
    <tag k="description" v="Filiale Josefstadt"/>
    <tag k="name" v="Bank Austria"/>
    <tag k="operator" v="Bank Austria"/>
    <tag k="ref" v="50345, 52095"/>
  </node>
  <node id="333691130" version="5" timestamp="2011-01-22T23:41:44Z" uid="13786" user="robotnic" changeset="7056708" lat="48.2093208" lon="16.3507917">
    <tag k="addr:city" v="Wien"/>
    <tag k="addr:country" v="AT"/>
    <tag k="addr:housenumber" v="23"/>
    <tag k="addr:postcode" v="1080"/>
    <tag k="addr:street" v="Josefstädter Straße"/>
    <tag k="amenity" v="bank"/>
    <tag k="atm" v="yes"/>
    <tag k="description" v="Filiale Josefstadt"/>
    <tag k="name" v="Bank Austria"/>
    <tag k="operator" v="Bank Austria"/>
    <tag k="ref" v="50345, 52095"/>
  </node>
  <node id="333691130" version="6" timestamp="2011-07-16T11:14:41Z" uid="290680" user="wheelmap_visitor" changeset="8737165" lat="48.2093208" lon="16.3507917">
    <tag k="addr:city" v="Wien"/>
    <tag k="addr:country" v="AT"/>
    <tag k="addr:housenumber" v="23"/>
    <tag k="addr:postcode" v="1080"/>
    <tag k="addr:street" v="Josefstädter Straße"/>
    <tag k="amenity" v="bank"/>
    <tag k="atm" v="yes"/>
    <tag k="description" v="Filiale Josefstadt"/>
    <tag k="name" v="Bank Austria"/>
    <tag k="operator" v="Bank Austria"/>
    <tag k="ref" v="50345, 52095"/>
    <tag k="wheelchair" v="no"/>
  </node>
  <node id="333691130" version="7" timestamp="2011-12-07T16:42:39Z" uid="26818" user="David &amp; Christine Schmitt" changeset="10059121" lat="48.2093747" lon="16.3507157">
    <tag k="addr:city" v="Wien"/>
    <tag k="addr:country" v="AT"/>
    <tag k="addr:housenumber" v="23"/>
    <tag k="addr:postcode" v="1080"/>
    <tag k="addr:street" v="Josefstädter Straße"/>
    <tag k="amenity" v="bank"/>
    <tag k="atm" v="yes"/>
    <tag k="description" v="Filiale Josefstadt"/>
    <tag k="name" v="Bank Austria"/>
    <tag k="operator" v="Bank Austria"/>
    <tag k="ref" v="50345, 52095"/>
    <tag k="wheelchair" v="no"/>
  </node>
  <node id="333692933" version="1" timestamp="2009-01-19T15:57:34Z" uid="58091" user="Andreas M" changeset="812902" lat="48.2104568" lon="16.3519927">
    <tag k="amenity" v="restaurant"/>
    <tag k="name" v="Schnattl"/>
  </node>
  <node id="333692933" version="2" timestamp="2011-01-23T22:53:45Z" uid="13786" user="robotnic" changeset="7068365" lat="48.2105015" lon="16.3519927">
    <tag k="amenity" v="restaurant"/>
    <tag k="name" v="Schnattl"/>
  </node>
  <node id="333692933" version="3" timestamp="2011-11-18T23:26:51Z" uid="26818" user="David &amp; Christine Schmitt" changeset="9868893" lat="48.2105082" lon="16.3519505">
    <tag k="amenity" v="restaurant"/>
    <tag k="name" v="Schnattl"/>
  </node>
  <node id="333692933" version="4" timestamp="2011-12-02T08:08:47Z" uid="26818" user="David &amp; Christine Schmitt" changeset="10014813" lat="48.2105058" lon="16.3519279">
    <tag k="amenity" v="restaurant"/>
    <tag k="name" v="Schnattl"/>
  </node>
  <node id="333692935" version="1" timestamp="2009-01-19T15:57:34Z" uid="58091" user="Andreas M" changeset="812902" lat="48.210483" lon="16.3522823">
    <tag k="name" v="Bezirksmuseum Josefstadt"/>
    <tag k="tourism" v="museum"/>
  </node>
  <node id="333692935" version="2" timestamp="2011-01-23T22:53:45Z" uid="13786" user="robotnic" changeset="7068365" lat="48.2105398" lon="16.3522509">
    <tag k="name" v="Bezirksmuseum Josefstadt"/>
    <tag k="tourism" v="museum"/>
  </node>
  <node id="333692935" version="3" timestamp="2011-12-02T08:08:40Z" uid="26818" user="David &amp; Christine Schmitt" changeset="10014813" lat="48.2105199" lon="16.3522574">
    <tag k="name" v="Bezirksmuseum Josefstadt"/>
    <tag k="tourism" v="museum"/>
  </node>
  <node id="333693539" version="1" timestamp="2009-01-19T15:59:01Z" uid="58091" user="Andreas M" changeset="812902" lat="48.2119369" lon="16.3521314">
    <tag k="amenity" v="cafe"/>
    <tag k="name" v="Café Merkur"/>
  </node>
  <node id="333693539" version="2" timestamp="2010-03-07T15:09:06Z" uid="58091" user="Andreas M" changeset="4061818" lat="48.2119915" lon="16.3520168">
    <tag k="amenity" v="cafe"/>
    <tag k="name" v="Café Merkur"/>
  </node>
  <node id="333693539" version="3" timestamp="2012-01-07T11:47:57Z" uid="290680" user="wheelmap_visitor" changeset="10318920" lat="48.2119915" lon="16.3520168">
    <tag k="amenity" v="cafe"/>
    <tag k="name" v="Café Merkur"/>
    <tag k="wheelchair" v="limited"/>
  </node>
  <node id="333695858" version="1" timestamp="2009-01-19T16:08:11Z" uid="58091" user="Andreas M" changeset="812902" lat="48.2196384" lon="16.3725315">
    <tag k="amenity" v="restaurant"/>
    <tag k="cuisine" v="japanese"/>
    <tag k="name" v="Tokori"/>
    <tag k="url" v="http://www.tokori.at"/>
  </node>
  <node id="333695858" version="2" timestamp="2010-09-20T12:48:10Z" uid="65148" user="Pirat Michi" changeset="5828900" lat="48.2196384" lon="16.3725315">
    <tag k="amenity" v="restaurant"/>
    <tag k="cuisine" v="japanese"/>
    <tag k="name" v="Tokori"/>
    <tag k="website" v="http://www.tokori.at"/>
  </node>
  <node id="333695858" version="3" timestamp="2011-03-20T15:27:47Z" uid="38456" user="MikeGr" changeset="7617637" lat="48.2196384" lon="16.3725314">
    <tag k="amenity" v="restaurant"/>
    <tag k="cuisine" v="japanese"/>
    <tag k="name" v="Tokori"/>
    <tag k="smoking" v="no"/>
    <tag k="website" v="http://www.tokori.at"/>
  </node>
  <node id="333695858" version="4" timestamp="2011-03-20T15:35:50Z" uid="38456" user="MikeGr" changeset="7617637" lat="48.2196384" lon="16.3725314">
    <tag k="addr:city" v="Wien"/>
    <tag k="addr:housenumber" v="2"/>
    <tag k="addr:postcode" v="1020"/>
    <tag k="addr:street" v="Franz-Hochedlinger-Gasse"/>
    <tag k="amenity" v="restaurant"/>
    <tag k="cuisine" v="japanese"/>
    <tag k="name" v="Tokori"/>
    <tag k="smoking" v="no"/>
    <tag k="website" v="http://www.tokori.at"/>
  </node>
  <node id="333695858" version="5" timestamp="2011-03-20T15:44:34Z" uid="38456" user="MikeGr" changeset="7617637" lat="48.2196384" lon="16.3725314">
    <tag k="addr:city" v="Wien"/>
    <tag k="addr:country" v="AT"/>
    <tag k="addr:housenumber" v="2"/>
    <tag k="addr:postcode" v="1020"/>
    <tag k="addr:street" v="Franz-Hochedlinger-Gasse"/>
    <tag k="amenity" v="restaurant"/>
    <tag k="cuisine" v="japanese"/>
    <tag k="name" v="Tokori"/>
    <tag k="smoking" v="no"/>
    <tag k="website" v="http://www.tokori.at"/>
  </node>
  <node id="333697181" version="2" timestamp="2009-03-08T09:44:44Z" uid="27600" user="Islanit" changeset="760719" lat="53.4733282" lon="10.2117418"/>
  <node id="333697182" version="2" timestamp="2009-03-08T09:44:44Z" uid="27600" user="Islanit" changeset="760719" lat="53.4775682" lon="10.1872801"/>
  <node id="333697337" version="2" timestamp="2009-04-30T09:20:00Z" uid="27600" user="Islanit" changeset="1024496" lat="53.4698032" lon="10.1554369"/>
  <node id="333697338" version="2" timestamp="2009-04-30T09:20:00Z" uid="27600" user="Islanit" changeset="1024496" lat="53.4762401" lon="10.1738047"/>
</osm>
