<?xml version='1.0' encoding='UTF-8'?>
<osm version="0.6" generator="libosmium/2.20.0">
  <node id="334029190" version="1" timestamp="2009-01-20T10:35:55Z" uid="20587" user="balrog-kun" changeset="815696" lat="52.2389025" lon="21.0199286">
    <tag k="name" v="Vega"/>
    <tag k="note" v="restaurant of fast_food?"/>
  </node>
  <node id="334029190" version="2" timestamp="2009-05-21T10:13:11Z" uid="20587" user="balrog-kun" changeset="1274011" lat="52.2389025" lon="21.0199286">
    <tag k="amenity" v="fast_food"/>
    <tag k="cuisine" v="vegetarian"/>
    <tag k="name" v="Vega"/>
    <tag k="note" v="restaurant or fast_food?"/>
  </node>
  <node id="334029190" version="3" timestamp="2010-01-06T12:58:09Z" uid="20587" user="balrog-kun" changeset="3553254" lat="52.2388839" lon="21.0198677">
    <tag k="amenity" v="fast_food"/>
    <tag k="cuisine" v="vegetarian"/>
    <tag k="name" v="Vega"/>
    <tag k="note" v="restaurant or fast_food?"/>
  </node>
  <node id="334029190" version="4" timestamp="2010-01-10T10:26:20Z" uid="20587" user="balrog-kun" changeset="3585409" lat="52.2388839" lon="21.0198677">
    <tag k="amenity" v="fast_food"/>
    <tag k="cuisine" v="vegetarian"/>
    <tag k="name" v="Vega"/>
    <tag k="note" v="restaurant or fast_food?"/>
  </node>
</osm>
