<?xml version='1.0' encoding='UTF-8'?>
<osm version="0.6" generator="libosmium/2.20.0">
  <node id="335430081" version="3" timestamp="2009-09-01T21:03:11Z" uid="36809" user="pfoten_weg_!_" changeset="2343001" lat="47.8918819" lon="11.8340523">
    <tag k="addr:city" v="Westerham"/>
    <tag k="addr:country" v="DE"/>
    <tag k="addr:housenumber" v="12"/>
    <tag k="addr:postcode" v="83620"/>
    <tag k="addr:street" v="Fischerstraße"/>
  </node>
  <node id="335430081" version="4" timestamp="2010-10-28T06:05:24Z" uid="140803" user="ThomasStr" changeset="6204717" lat="47.8918819" lon="11.8340523">
    <tag k="addr:city" v="Feldkirchen-Westerham"/>
    <tag k="addr:country" v="DE"/>
    <tag k="addr:housenumber" v="12"/>
    <tag k="addr:postcode" v="83620"/>
    <tag k="addr:street" v="Fischerstraße"/>
  </node>
  <node id="335430268" version="4" timestamp="2009-09-01T21:03:05Z" uid="36809" user="pfoten_weg_!_" changeset="2343001" lat="47.8918589" lon="11.8341725">
    <tag k="addr:city" v="Westerham"/>
    <tag k="addr:country" v="DE"/>
    <tag k="addr:housenumber" v="12a"/>
    <tag k="addr:postcode" v="83620"/>
    <tag k="addr:street" v="Fischerstraße"/>
  </node>
  <node id="335430268" version="5" timestamp="2010-10-28T06:05:48Z" uid="140803" user="ThomasStr" changeset="6204717" lat="47.8918589" lon="11.8341725">
    <tag k="addr:city" v="Feldkirchen-Westerham"/>
    <tag k="addr:country" v="DE"/>
    <tag k="addr:housenumber" v="12a"/>
    <tag k="addr:postcode" v="83620"/>
    <tag k="addr:street" v="Fischerstraße"/>
  </node>
  <node id="335431691" version="3" timestamp="2009-09-01T21:04:16Z" uid="36809" user="pfoten_weg_!_" changeset="2343001" lat="47.8931135" lon="11.8321297"/>
  <node id="335432107" version="5" timestamp="2009-09-01T21:04:16Z" uid="36809" user="pfoten_weg_!_" changeset="2343001" lat="47.8930042" lon="11.8316147"/>
  <node id="335432593" version="2" timestamp="2009-09-01T21:04:12Z" uid="36809" user="pfoten_weg_!_" changeset="2343001" lat="47.8926761" lon="11.8304303"/>
  <node id="335432593" version="3" timestamp="2010-12-15T01:47:10Z" uid="118289" user="LarsTragl" changeset="6664234" lat="47.892678" lon="11.830409"/>
  <node id="335433260" version="2" timestamp="2010-06-01T18:26:21Z" uid="151899" user="Bikeman2000" changeset="4877057" lat="49.747015" lon="11.4438377"/>
  <node id="335433260" version="3" timestamp="2012-02-15T00:47:13Z" uid="479256" user="geodreieck4711" changeset="10688640" lat="49.747015" lon="11.4438377"/>
  <node id="335433281" version="2" timestamp="2010-05-31T21:57:51Z" uid="151899" user="Bikeman2000" changeset="4868981" lat="49.7526279" lon="11.4592643"/>
  <node id="335433281" version="3" timestamp="2012-02-03T16:06:18Z" uid="89943" user="Bengatzer" changeset="10576694" lat="49.7526279" lon="11.4592643"/>
  <node id="335433288" version="2" timestamp="2010-05-31T21:57:53Z" uid="151899" user="Bikeman2000" changeset="4868981" lat="49.7520734" lon="11.4607808"/>
  <node id="335433288" version="3" timestamp="2012-02-03T16:06:18Z" uid="89943" user="Bengatzer" changeset="10576694" lat="49.7520734" lon="11.4607808"/>
  <node id="335433296" version="2" timestamp="2010-05-31T21:57:52Z" uid="151899" user="Bikeman2000" changeset="4868981" lat="49.7520792" lon="11.4711255"/>
  <node id="335433296" version="3" timestamp="2010-10-13T18:43:37Z" uid="51230" user="gerzap" changeset="6032102" lat="49.752097" lon="11.4711289"/>
  <node id="335433296" version="4" timestamp="2011-01-13T14:37:53Z" uid="51230" user="gerzap" changeset="6957681" lat="49.7521168" lon="11.4711519"/>
  <node id="335434235" version="2" timestamp="2009-09-01T21:00:22Z" uid="36809" user="pfoten_weg_!_" changeset="2343001" lat="47.893125" lon="11.8319237"/>
  <node id="335434235" version="3" timestamp="2010-12-15T01:47:08Z" uid="118289" user="LarsTragl" changeset="6664234" lat="47.8931153" lon="11.8319411"/>
  <node id="335435367" version="2" timestamp="2009-05-24T11:56:16Z" uid="20587" user="balrog-kun" changeset="1304739" lat="52.2010891" lon="20.9168719">
    <tag k="traffic_calming" v="bump"/>
  </node>
  <node id="335435562" version="5" timestamp="2009-09-01T20:59:58Z" uid="36809" user="pfoten_weg_!_" changeset="2343001" lat="47.8928776" lon="11.8318637"/>
  <node id="335435562" version="6" timestamp="2010-12-15T01:47:24Z" uid="118289" user="LarsTragl" changeset="6664234" lat="47.8929492" lon="11.8318811"/>
  <node id="335435563" version="5" timestamp="2009-09-01T20:59:58Z" uid="36809" user="pfoten_weg_!_" changeset="2343001" lat="47.8927049" lon="11.8319237"/>
  <node id="335435563" version="6" timestamp="2010-12-15T01:47:21Z" uid="118289" user="LarsTragl" changeset="6664234" lat="47.8928094" lon="11.8318947"/>
  <node id="335435565" version="5" timestamp="2009-09-01T20:59:57Z" uid="36809" user="pfoten_weg_!_" changeset="2343001" lat="47.8926128" lon="11.8319152"/>
  <node id="335435565" version="6" timestamp="2010-12-15T01:47:03Z" uid="118289" user="LarsTragl" changeset="6664234" lat="47.892696" lon="11.8318552"/>
  <node id="335435844" version="4" timestamp="2009-09-01T21:00:54Z" uid="36809" user="pfoten_weg_!_" changeset="2343001" lat="47.8925725" lon="11.831692">
    <tag k="addr:city" v="Westerham"/>
    <tag k="addr:country" v="DE"/>
    <tag k="addr:housenumber" v="46"/>
    <tag k="addr:postcode" v="83620"/>
    <tag k="addr:street" v="Naringer Straße"/>
  </node>
  <node id="335435844" version="5" timestamp="2010-10-28T06:05:55Z" uid="140803" user="ThomasStr" changeset="6204717" lat="47.8925725" lon="11.831692">
    <tag k="addr:city" v="Feldkirchen-Westerham"/>
    <tag k="addr:country" v="DE"/>
    <tag k="addr:housenumber" v="46"/>
    <tag k="addr:postcode" v="83620"/>
    <tag k="addr:street" v="Naringer Straße"/>
  </node>
  <node id="335435923" version="3" timestamp="2009-09-01T21:01:07Z" uid="36809" user="pfoten_weg_!_" changeset="2343001" lat="47.8927855" lon="11.8305333">
    <tag k="addr:city" v="Westerham"/>
    <tag k="addr:country" v="DE"/>
    <tag k="addr:housenumber" v="6"/>
    <tag k="addr:postcode" v="83620"/>
    <tag k="addr:street" v="Försterweg"/>
  </node>
  <node id="335435923" version="4" timestamp="2010-10-28T06:05:14Z" uid="140803" user="ThomasStr" changeset="6204717" lat="47.8927855" lon="11.8305333">
    <tag k="addr:city" v="Feldkirchen-Westerham"/>
    <tag k="addr:country" v="DE"/>
    <tag k="addr:housenumber" v="6"/>
    <tag k="addr:postcode" v="83620"/>
    <tag k="addr:street" v="Försterweg"/>
  </node>
  <node id="335435966" version="3" timestamp="2009-09-01T21:01:06Z" uid="36809" user="pfoten_weg_!_" changeset="2343001" lat="47.8927107" lon="11.8309624">
    <tag k="addr:city" v="Westerham"/>
    <tag k="addr:country" v="DE"/>
    <tag k="addr:housenumber" v="4"/>
    <tag k="addr:postcode" v="83620"/>
    <tag k="addr:street" v="Försterweg"/>
  </node>
  <node id="335435966" version="4" timestamp="2010-10-28T06:05:50Z" uid="140803" user="ThomasStr" changeset="6204717" lat="47.8927107" lon="11.8309624">
    <tag k="addr:city" v="Feldkirchen-Westerham"/>
    <tag k="addr:country" v="DE"/>
    <tag k="addr:housenumber" v="4"/>
    <tag k="addr:postcode" v="83620"/>
    <tag k="addr:street" v="Försterweg"/>
  </node>
  <node id="335436000" version="3" timestamp="2009-09-01T21:01:03Z" uid="36809" user="pfoten_weg_!_" changeset="2343001" lat="47.8926474" lon="11.8313315">
    <tag k="addr:city" v="Westerham"/>
    <tag k="addr:country" v="DE"/>
    <tag k="addr:housenumber" v="2"/>
    <tag k="addr:postcode" v="83620"/>
    <tag k="addr:street" v="Försterweg"/>
  </node>
  <node id="335436000" version="4" timestamp="2010-10-28T06:05:10Z" uid="140803" user="ThomasStr" changeset="6204717" lat="47.8926474" lon="11.8313315">
    <tag k="addr:city" v="Feldkirchen-Westerham"/>
    <tag k="addr:country" v="DE"/>
    <tag k="addr:housenumber" v="2"/>
    <tag k="addr:postcode" v="83620"/>
    <tag k="addr:street" v="Försterweg"/>
  </node>
  <node id="335436944" version="4" timestamp="2009-09-01T21:00:41Z" uid="36809" user="pfoten_weg_!_" changeset="2343001" lat="47.8930099" lon="11.831692"/>
  <node id="335439293" version="2" timestamp="2010-09-20T17:03:13Z" uid="23543" user="jkjk" changeset="5830682" lat="49.3129532" lon="17.4072438"/>
  <node id="335439293" version="3" timestamp="2012-03-14T09:21:57Z" uid="408643" user="marram" changeset="10975736" lat="49.3129674" lon="17.4073018"/>
  <node id="335439298" version="2" timestamp="2010-09-20T17:03:15Z" uid="23543" user="jkjk" changeset="5830682" lat="49.3133469" lon="17.4071896"/>
  <node id="335439300" version="2" timestamp="2010-09-20T17:03:15Z" uid="23543" user="jkjk" changeset="5830682" lat="49.3136129" lon="17.40735"/>
  <node id="335439304" version="2" timestamp="2010-09-20T17:03:14Z" uid="23543" user="jkjk" changeset="5830682" lat="49.3139422" lon="17.4076034"/>
  <node id="335439308" version="2" timestamp="2010-09-20T17:03:14Z" uid="23543" user="jkjk" changeset="5830682" lat="49.3141002" lon="17.4078905"/>
  <node id="335439310" version="2" timestamp="2010-09-20T17:03:14Z" uid="23543" user="jkjk" changeset="5830682" lat="49.3141518" lon="17.4083085"/>
  <node id="335439322" version="2" timestamp="2010-09-20T17:03:14Z" uid="23543" user="jkjk" changeset="5830682" lat="49.3141121" lon="17.4088254"/>
  <node id="335439325" version="2" timestamp="2010-09-20T17:03:14Z" uid="23543" user="jkjk" changeset="5830682" lat="49.3140767" lon="17.4090458"/>
  <node id="335439332" version="2" timestamp="2010-09-20T17:03:14Z" uid="23543" user="jkjk" changeset="5830682" lat="49.3141543" lon="17.4085725"/>
  <node id="335439398" version="3" timestamp="2009-09-01T20:58:09Z" uid="36809" user="pfoten_weg_!_" changeset="2343001" lat="47.8931711" lon="11.8314088">
    <tag k="addr:city" v="Westerham"/>
    <tag k="addr:country" v="DE"/>
    <tag k="addr:housenumber" v="27"/>
    <tag k="addr:postcode" v="83620"/>
    <tag k="addr:street" v="Im Hacken"/>
  </node>
  <node id="335439398" version="4" timestamp="2010-10-28T06:05:21Z" uid="140803" user="ThomasStr" changeset="6204717" lat="47.8931711" lon="11.8314088">
    <tag k="addr:city" v="Feldkirchen-Westerham"/>
    <tag k="addr:country" v="DE"/>
    <tag k="addr:housenumber" v="27"/>
    <tag k="addr:postcode" v="83620"/>
    <tag k="addr:street" v="Im Hacken"/>
  </node>
  <node id="335439843" version="4" timestamp="2009-09-01T20:58:01Z" uid="36809" user="pfoten_weg_!_" changeset="2343001" lat="47.8932229" lon="11.8310483">
    <tag k="addr:city" v="Westerham"/>
    <tag k="addr:country" v="DE"/>
    <tag k="addr:housenumber" v="25a"/>
    <tag k="addr:postcode" v="83620"/>
    <tag k="addr:street" v="Im Hacken"/>
  </node>
  <node id="335439843" version="5" timestamp="2010-10-28T06:05:49Z" uid="140803" user="ThomasStr" changeset="6204717" lat="47.8932229" lon="11.8310483">
    <tag k="addr:city" v="Feldkirchen-Westerham"/>
    <tag k="addr:country" v="DE"/>
    <tag k="addr:housenumber" v="25a"/>
    <tag k="addr:postcode" v="83620"/>
    <tag k="addr:street" v="Im Hacken"/>
  </node>
  <node id="335439888" version="3" timestamp="2009-09-01T20:59:25Z" uid="36809" user="pfoten_weg_!_" changeset="2343001" lat="47.8932401" lon="11.8309367">
    <tag k="addr:city" v="Westerham"/>
    <tag k="addr:country" v="DE"/>
    <tag k="addr:housenumber" v="25"/>
    <tag k="addr:postcode" v="83620"/>
    <tag k="addr:street" v="Im Hacken"/>
  </node>
  <node id="335439888" version="4" timestamp="2010-10-28T06:06:00Z" uid="140803" user="ThomasStr" changeset="6204717" lat="47.8932401" lon="11.8309367">
    <tag k="addr:city" v="Feldkirchen-Westerham"/>
    <tag k="addr:country" v="DE"/>
    <tag k="addr:housenumber" v="25"/>
    <tag k="addr:postcode" v="83620"/>
    <tag k="addr:street" v="Im Hacken"/>
  </node>
</osm>
