<?xml version='1.0' encoding='UTF-8'?>
<osm version="0.6" generator="libosmium/2.20.0">
  <node id="335980323" version="7" timestamp="2011-05-08T09:12:45Z" uid="9581" user="Lobelt" changeset="8080437" lat="49.8421129" lon="7.8581844">
    <tag k="amenity" v="cinema"/>
    <tag k="name" v="Cineplex"/>
    <tag k="phone" v="sdd"/>
    <tag k="wheelchair" v="yes"/>
    <tag k="wheelchair:description" v="Nur Kinosaal 2+3 barrierefrei"/>
  </node>
  <node id="335980323" version="8" timestamp="2011-10-19T14:47:30Z" uid="290680" user="wheelmap_visitor" changeset="9596105" lat="49.8421129" lon="7.8581844">
    <tag k="amenity" v="cinema"/>
    <tag k="name" v="Cineplex"/>
    <tag k="phone" v="sdd"/>
    <tag k="wheelchair" v="limited"/>
    <tag k="wheelchair:description" v="Nur Kinosaal 2+3 barrierefrei"/>
  </node>
  <node id="335980323" version="9" timestamp="2011-10-19T15:10:22Z" uid="290680" user="wheelmap_visitor" changeset="9596105" lat="49.8421129" lon="7.8581844">
    <tag k="amenity" v="cinema"/>
    <tag k="name" v="Cineplex"/>
    <tag k="phone" v="sdd"/>
    <tag k="wheelchair" v="yes"/>
    <tag k="wheelchair:description" v="Nur Kinosaal 2+3 barrierefrei"/>
  </node>
  <node id="335980323" version="10" timestamp="2012-01-13T11:00:25Z" uid="290680" user="wheelmap_visitor" changeset="10376509" lat="49.8421129" lon="7.8581844">
    <tag k="amenity" v="cinema"/>
    <tag k="name" v="Cineplex"/>
    <tag k="phone" v="sdd"/>
    <tag k="wheelchair" v="limited"/>
    <tag k="wheelchair:description" v="Nur Kinosaal 2+3 barrierefrei"/>
  </node>
  <node id="335980323" version="11" timestamp="2012-01-13T11:00:29Z" uid="290680" user="wheelmap_visitor" changeset="10376509" lat="49.8421129" lon="7.8581844">
    <tag k="amenity" v="cinema"/>
    <tag k="name" v="Cineplex"/>
    <tag k="phone" v="sdd"/>
    <tag k="wheelchair" v="yes"/>
    <tag k="wheelchair:description" v="Nur Kinosaal 2+3 barrierefrei"/>
  </node>
</osm>
