<?xml version='1.0' encoding='UTF-8'?>
<osm version="0.6" generator="libosmium/2.20.0">
  <node id="335940704" version="2" timestamp="2010-05-22T21:54:55Z" uid="9581" user="Lobelt" changeset="4778777" lat="49.6834204" lon="6.647403"/>
  <node id="335940707" version="2" timestamp="2010-05-22T21:54:53Z" uid="9581" user="Lobelt" changeset="4778777" lat="49.683172" lon="6.6477239"/>
  <node id="335940710" version="2" timestamp="2010-05-22T21:54:54Z" uid="9581" user="Lobelt" changeset="4778777" lat="49.6831152" lon="6.6479012"/>
  <node id="335940712" version="2" timestamp="2010-05-22T21:54:55Z" uid="9581" user="Lobelt" changeset="4778777" lat="49.6831065" lon="6.6480348"/>
  <node id="335941022" version="3" timestamp="2009-02-01T17:28:23Z" uid="6975" user="ulfl" changeset="27333" lat="-23.5816153" lon="-46.579612">
    <tag k="name" v="Ninim"/>
    <tag k="shop" v="car_repair"/>
  </node>
  <node id="335944230" version="2" timestamp="2009-05-17T05:57:36Z" uid="9581" user="Lobelt" changeset="1217745" lat="49.3293273" lon="8.709349">
    <tag k="amenity" v="shelter"/>
  </node>
  <node id="335945284" version="4" timestamp="2010-01-08T03:34:36Z" uid="23543" user="jkjk" changeset="3567513" lat="25.2297856" lon="55.3776853"/>
  <node id="335945287" version="4" timestamp="2010-01-08T03:34:35Z" uid="23543" user="jkjk" changeset="3567513" lat="25.2294975" lon="55.3776172"/>
  <node id="335945296" version="5" timestamp="2009-03-29T21:35:39Z" uid="36809" user="pfoten_weg_!_" changeset="869093" lat="48.0202811" lon="11.4772618"/>
  <node id="335945499" version="4" timestamp="2009-03-29T21:35:35Z" uid="36809" user="pfoten_weg_!_" changeset="869093" lat="48.0198851" lon="11.4782023"/>
  <node id="335945550" version="5" timestamp="2009-03-29T21:35:35Z" uid="36809" user="pfoten_weg_!_" changeset="869093" lat="48.0198964" lon="11.4781974"/>
  <node id="335945551" version="6" timestamp="2009-03-29T21:35:36Z" uid="36809" user="pfoten_weg_!_" changeset="869093" lat="48.0199022" lon="11.4776824"/>
  <node id="335945553" version="8" timestamp="2009-03-29T21:35:36Z" uid="36809" user="pfoten_weg_!_" changeset="869093" lat="48.0204325" lon="11.4777162"/>
  <node id="335946141" version="11" timestamp="2009-01-27T22:26:05Z" uid="68769" user="david lynch" changeset="845496" lat="30.2009293" lon="-97.8669119"/>
  <node id="335946141" version="12" timestamp="2009-01-27T22:26:38Z" uid="68769" user="david lynch" changeset="845496" lat="30.2009293" lon="-97.8669119"/>
  <node id="335946141" version="13" timestamp="2011-07-26T17:24:45Z" uid="207745" user="NE2" changeset="8837814" lat="30.2009166" lon="-97.8669077"/>
  <node id="335946239" version="3" timestamp="2009-03-29T22:36:12Z" uid="36809" user="pfoten_weg_!_" changeset="869093" lat="48.0179789" lon="11.4795878">
    <tag k="created_by" v="Potlatch 0.10f"/>
  </node>
  <node id="335946287" version="2" timestamp="2009-10-21T22:52:52Z" uid="36809" user="pfoten_weg_!_" changeset="2917503" lat="48.0189796" lon="11.7189434">
    <tag k="amenity" v="bicycle_parking"/>
  </node>
  <node id="335946287" version="3" timestamp="2009-10-30T16:56:43Z" uid="8748" user="ToniE" changeset="2990626" lat="48.0190621" lon="11.7189523">
    <tag k="amenity" v="bicycle_parking"/>
    <tag k="covered" v="yes"/>
  </node>
  <node id="335946941" version="4" timestamp="2009-03-29T22:36:02Z" uid="36809" user="pfoten_weg_!_" changeset="869093" lat="48.0190755" lon="11.4804461"/>
  <node id="335947139" version="2" timestamp="2009-10-21T22:53:28Z" uid="36809" user="pfoten_weg_!_" changeset="2917503" lat="48.0201285" lon="11.7267798">
    <tag k="bus_lines" v="413,414"/>
    <tag k="highway" v="bus_stop"/>
    <tag k="name" v="Schmiedstraße"/>
    <tag k="operator" v="MVG"/>
    <tag k="shelter" v="no"/>
    <tag k="website:official" v="http://www.mvv-muenchen.de"/>
  </node>
  <node id="335947139" version="3" timestamp="2010-04-28T18:52:22Z" uid="8748" user="ToniE" changeset="4552319" lat="48.0201285" lon="11.7267798">
    <tag k="bus" v="yes"/>
    <tag k="bus_lines" v="413,414"/>
    <tag k="highway" v="bus_stop"/>
    <tag k="name" v="Schmiedstraße"/>
    <tag k="operator" v="MVG"/>
    <tag k="public_transport" v="platform"/>
    <tag k="shelter" v="no"/>
    <tag k="website:official" v="http://www.mvv-muenchen.de"/>
  </node>
  <node id="335947139" version="4" timestamp="2010-08-17T20:29:23Z" uid="8748" user="ToniE" changeset="5521381" lat="48.0201285" lon="11.7267798">
    <tag k="bus" v="yes"/>
    <tag k="bus_lines" v="413,414"/>
    <tag k="highway" v="bus_stop"/>
    <tag k="name" v="Schmiedstraße"/>
    <tag k="network" v="MVV"/>
    <tag k="operator" v="MVG"/>
    <tag k="public_transport" v="platform"/>
    <tag k="shelter" v="no"/>
    <tag k="website:official" v="http://www.mvv-muenchen.de"/>
  </node>
  <node id="335947408" version="2" timestamp="2009-03-23T20:44:57Z" uid="36809" user="pfoten_weg_!_" changeset="849581" lat="48.0190047" lon="11.4805985"/>
  <node id="335947408" version="3" timestamp="2009-03-25T16:34:16Z" uid="5164" user="woodpeck" changeset="857476" lat="48.0190047" lon="11.4805985"/>
  <node id="335947408" version="4" timestamp="2009-03-27T16:34:26Z" uid="8748" user="ToniE" changeset="862943" lat="48.0190047" lon="11.4805985"/>
  <node id="335948265" version="10" timestamp="2010-01-08T03:34:36Z" uid="23543" user="jkjk" changeset="3567513" lat="25.2318632" lon="55.3764654"/>
  <node id="335948268" version="8" timestamp="2010-01-08T03:34:38Z" uid="23543" user="jkjk" changeset="3567513" lat="25.2315997" lon="55.3774335"/>
  <node id="335948365" version="4" timestamp="2010-01-08T03:34:36Z" uid="23543" user="jkjk" changeset="3567513" lat="25.2304249" lon="55.3763446"/>
  <node id="335948403" version="12" timestamp="2010-01-08T03:34:35Z" uid="23543" user="jkjk" changeset="3567513" lat="25.2281066" lon="55.376839"/>
  <node id="335949857" version="2" timestamp="2009-02-01T18:21:03Z" uid="6975" user="ulfl" changeset="27333" lat="50.8179845" lon="12.9362521">
    <tag k="name" v="Voigt"/>
    <tag k="opening_hours" v="Mo-Fr 06:30-17:00\s Sa 06:30-11:00"/>
    <tag k="shop" v="bakery"/>
    <tag k="user" v="oleg"/>
  </node>
  <node id="335949857" version="3" timestamp="2009-02-02T11:44:06Z" uid="70696" user="xybot" changeset="50224" lat="50.8179845" lon="12.9362521">
    <tag k="name" v="Voigt"/>
    <tag k="opening_hours" v="Mo-Fr 06:30-17:00; Sa 06:30-11:00"/>
    <tag k="shop" v="bakery"/>
    <tag k="user" v="oleg"/>
  </node>
  <node id="335949857" version="4" timestamp="2009-08-03T12:35:04Z" uid="31231" user="Andre68" changeset="2025045" lat="50.8179845" lon="12.9362521">
    <tag k="name" v="Voigt"/>
    <tag k="opening_hours" v="Mo-Fr 06:30-17:00; Sa 06:30-11:00"/>
    <tag k="shop" v="bakery"/>
    <tag k="user" v="oleg"/>
  </node>
  <node id="335949857" version="5" timestamp="2009-12-20T18:32:11Z" uid="59991" user="mpeter89" changeset="3415053" lat="50.8179743" lon="12.9363138">
    <tag k="name" v="Voigt"/>
    <tag k="opening_hours" v="Mo-Fr 06:30-17:00; Sa 06:30-11:00"/>
    <tag k="shop" v="bakery"/>
    <tag k="user" v="oleg"/>
  </node>
  <node id="335949857" version="6" timestamp="2009-12-22T22:52:45Z" uid="59991" user="mpeter89" changeset="3430887" lat="50.8179635" lon="12.9364404">
    <tag k="name" v="Voigt"/>
    <tag k="opening_hours" v="Mo-Fr 06:30-17:00; Sa 06:30-11:00"/>
    <tag k="shop" v="bakery"/>
    <tag k="user" v="oleg"/>
  </node>
  <node id="335949857" version="7" timestamp="2010-06-22T18:23:16Z" uid="59991" user="mpeter89" changeset="5053350" lat="50.8179465" lon="12.9363866">
    <tag k="description" v="Bäckerei Konditorei Stehcafè"/>
    <tag k="name" v="Voigt"/>
    <tag k="opening_hours" v="Mo-Fr 06:30-17:00; Sa 06:30-11:00"/>
    <tag k="operator" v="Werner Voigt"/>
    <tag k="shop" v="bakery"/>
    <tag k="user" v="oleg"/>
  </node>
  <node id="335949857" version="8" timestamp="2010-08-06T21:19:05Z" uid="207745" user="NE2" changeset="5420608" lat="50.8179465" lon="12.9363866">
    <tag k="description" v="Bäckerei Konditorei Stehcafè"/>
    <tag k="name" v="Voigt"/>
    <tag k="opening_hours" v="Mo-Fr 06:30-17:00; Sa 06:30-11:00"/>
    <tag k="operator" v="Werner Voigt"/>
    <tag k="shop" v="bakery"/>
  </node>
  <node id="335949857" version="9" timestamp="2011-10-29T10:53:18Z" uid="290680" user="wheelmap_visitor" changeset="9681686" lat="50.8179465" lon="12.9363866">
    <tag k="description" v="Bäckerei Konditorei Stehcafè"/>
    <tag k="name" v="Voigt"/>
    <tag k="opening_hours" v="Mo-Fr 06:30-17:00; Sa 06:30-11:00"/>
    <tag k="operator" v="Werner Voigt"/>
    <tag k="shop" v="bakery"/>
    <tag k="wheelchair" v="no"/>
  </node>
</osm>
