<?xml version='1.0' encoding='UTF-8'?>
<osm version="0.6" generator="libosmium/2.20.0">
  <node id="336390330" version="1" timestamp="2009-01-25T16:19:22Z" uid="58091" user="Andreas M" changeset="836609" lat="48.2536092" lon="16.3649512">
    <tag k="amenity" v="cafe"/>
    <tag k="name" v="Patisserie Marx"/>
  </node>
  <node id="336390330" version="2" timestamp="2009-07-01T07:42:17Z" uid="43577" user="dorni74" changeset="1698277" lat="48.2535317" lon="16.3651507">
    <tag k="amenity" v="cafe"/>
    <tag k="name" v="Patisserie Marx"/>
  </node>
  <node id="336390330" version="3" timestamp="2011-01-07T19:42:39Z" uid="135339" user="mplusplus" changeset="6896533" lat="48.2535653" lon="16.3650185">
    <tag k="amenity" v="cafe"/>
    <tag k="name" v="Patisserie Marx"/>
  </node>
  <node id="336391235" version="1" timestamp="2009-01-25T16:20:07Z" uid="58091" user="Andreas M" changeset="836609" lat="48.2549442" lon="16.3658006">
    <tag k="name" v="Tullnerfelder Bäckerei"/>
    <tag k="shop" v="bakery"/>
  </node>
  <node id="336391235" version="2" timestamp="2009-07-07T14:18:18Z" uid="43577" user="dorni74" changeset="1762857" lat="48.2549821" lon="16.3658911">
    <tag k="name" v="Tullnerfelder Bäckerei"/>
    <tag k="shop" v="bakery"/>
  </node>
  <node id="336391366" version="5" timestamp="2010-12-29T20:33:05Z" uid="43863" user="Rundling" changeset="6803026" lat="53.1693897" lon="10.6103657"/>
  <node id="336391928" version="4" timestamp="2010-05-12T18:10:21Z" uid="9581" user="Lobelt" changeset="4679503" lat="49.4487582" lon="8.4100402"/>
  <node id="336391928" version="5" timestamp="2012-02-14T20:46:57Z" uid="183436" user="mtb" changeset="10687071" lat="49.4487582" lon="8.4100402">
    <tag k="odbl" v="clean"/>
  </node>
  <node id="336391930" version="4" timestamp="2010-05-12T18:10:21Z" uid="9581" user="Lobelt" changeset="4679503" lat="49.4488401" lon="8.410221"/>
  <node id="336391930" version="5" timestamp="2012-02-14T20:46:57Z" uid="183436" user="mtb" changeset="10687071" lat="49.4488401" lon="8.410221">
    <tag k="odbl" v="clean"/>
  </node>
  <node id="336391933" version="4" timestamp="2010-05-12T18:10:21Z" uid="9581" user="Lobelt" changeset="4679503" lat="49.4489468" lon="8.4105606"/>
  <node id="336391933" version="5" timestamp="2012-02-14T20:46:57Z" uid="183436" user="mtb" changeset="10687071" lat="49.4489468" lon="8.4105606">
    <tag k="odbl" v="clean"/>
  </node>
  <node id="336391934" version="4" timestamp="2010-05-12T18:10:22Z" uid="9581" user="Lobelt" changeset="4679503" lat="49.449032" lon="8.4106576"/>
  <node id="336391934" version="5" timestamp="2012-02-14T20:46:57Z" uid="183436" user="mtb" changeset="10687071" lat="49.449032" lon="8.4106576">
    <tag k="odbl" v="clean"/>
  </node>
  <node id="336391937" version="4" timestamp="2010-05-12T18:10:22Z" uid="9581" user="Lobelt" changeset="4679503" lat="49.4498173" lon="8.4112991"/>
  <node id="336391937" version="5" timestamp="2012-02-14T20:46:57Z" uid="183436" user="mtb" changeset="10687071" lat="49.4498173" lon="8.4112991">
    <tag k="odbl" v="clean"/>
  </node>
  <node id="336391940" version="4" timestamp="2010-05-12T18:10:22Z" uid="9581" user="Lobelt" changeset="4679503" lat="49.4504106" lon="8.4117746"/>
  <node id="336391940" version="5" timestamp="2010-09-21T20:55:12Z" uid="183436" user="mtb" changeset="5840845" lat="49.4503907" lon="8.4117547"/>
  <node id="336391955" version="5" timestamp="2010-05-10T18:54:29Z" uid="9581" user="Lobelt" changeset="4662267" lat="49.4541945" lon="8.4148891"/>
  <node id="336391955" version="6" timestamp="2012-02-14T20:46:57Z" uid="183436" user="mtb" changeset="10687071" lat="49.4541945" lon="8.4148891">
    <tag k="odbl" v="clean"/>
  </node>
  <node id="336391959" version="5" timestamp="2010-05-10T18:54:31Z" uid="9581" user="Lobelt" changeset="4662267" lat="49.4559708" lon="8.4163333"/>
  <node id="336391959" version="6" timestamp="2012-02-14T20:46:57Z" uid="183436" user="mtb" changeset="10687071" lat="49.4559708" lon="8.4163333">
    <tag k="odbl" v="clean"/>
  </node>
  <node id="336392270" version="1" timestamp="2009-01-25T16:21:26Z" uid="58091" user="Andreas M" changeset="836609" lat="48.2559615" lon="16.3662797">
    <tag k="amenity" v="restaurant"/>
    <tag k="cuisine" v="chinese"/>
    <tag k="name" v="Lecun"/>
  </node>
  <node id="336392270" version="2" timestamp="2009-01-25T16:21:41Z" uid="58091" user="Andreas M" changeset="836609" lat="48.2559615" lon="16.3662797">
    <tag k="amenity" v="restaurant"/>
    <tag k="cuisine" v="chinese"/>
    <tag k="name" v="Lecun"/>
  </node>
  <node id="336393462" version="1" timestamp="2009-01-25T16:22:19Z" uid="58091" user="Andreas M" changeset="836609" lat="48.2579022" lon="16.3669448">
    <tag k="amenity" v="restaurant"/>
    <tag k="name" v="Plachutta"/>
  </node>
  <node id="336393462" version="2" timestamp="2011-02-22T11:26:34Z" uid="412447" user="döbling" changeset="7361872" lat="48.2579646" lon="16.3668394">
    <tag k="amenity" v="restaurant"/>
    <tag k="name" v="Plachutta"/>
  </node>
  <node id="336394436" version="1" timestamp="2009-01-25T16:23:00Z" uid="58091" user="Andreas M" changeset="836609" lat="48.2603633" lon="16.3672083">
    <tag k="amenity" v="restaurant"/>
    <tag k="cuisine" v="chinese"/>
    <tag k="name" v="Bing"/>
  </node>
  <node id="336394916" version="1" timestamp="2009-01-25T16:23:30Z" uid="58091" user="Andreas M" changeset="836609" lat="48.2600717" lon="16.3664596">
    <tag k="amenity" v="pub"/>
    <tag k="name" v="Refresh Your Night"/>
  </node>
  <node id="336395959" version="1" timestamp="2009-01-25T16:24:49Z" uid="58091" user="Andreas M" changeset="836609" lat="48.2598497" lon="16.3663354">
    <tag k="amenity" v="cafe"/>
    <tag k="name" v="Nußdorfer Café/Konditorei"/>
    <tag k="shop" v="bakery"/>
  </node>
  <node id="336395959" version="2" timestamp="2010-11-07T09:22:32Z" uid="78656" user="Walter Schlögl" changeset="6309244" lat="48.2598497" lon="16.3663354">
    <tag k="amenity" v="cafe"/>
    <tag k="cuisine" v="cake"/>
    <tag k="name" v="Nußdorfer Café/Konditorei"/>
    <tag k="shop" v="bakery"/>
  </node>
  <node id="336396634" version="1" timestamp="2009-01-25T16:25:21Z" uid="58091" user="Andreas M" changeset="836609" lat="48.2603024" lon="16.3666296">
    <tag k="amenity" v="cafe"/>
    <tag k="name" v="Café/Konditorei am Platzl"/>
    <tag k="shop" v="bakery"/>
  </node>
  <node id="336396634" version="2" timestamp="2010-11-07T09:22:54Z" uid="78656" user="Walter Schlögl" changeset="6309246" lat="48.2603024" lon="16.3666296">
    <tag k="amenity" v="cafe"/>
    <tag k="cuisine" v="cake"/>
    <tag k="name" v="Café/Konditorei am Platzl"/>
    <tag k="shop" v="bakery"/>
  </node>
  <node id="336397892" version="1" timestamp="2009-01-25T16:26:52Z" uid="58091" user="Andreas M" changeset="836609" lat="48.2594172" lon="16.366721">
    <tag k="amenity" v="cafe"/>
    <tag k="name" v="Nußdorfer Café/Konditorei"/>
    <tag k="shop" v="bakery"/>
  </node>
  <node id="336397892" version="2" timestamp="2009-06-12T11:15:27Z" uid="16645" user="roli-d" changeset="1495444" lat="48.2594172" lon="16.366721">
    <tag k="amenity" v="cafe"/>
    <tag k="name" v="Nußdorfer Café/Konditorei"/>
    <tag k="shop" v="bakery"/>
  </node>
  <node id="336397899" version="1" timestamp="2009-01-25T16:26:52Z" uid="58091" user="Andreas M" changeset="836609" lat="48.2592394" lon="16.3645792">
    <tag k="amenity" v="cafe"/>
    <tag k="name" v="Café/Konditorei Holzer"/>
    <tag k="shop" v="bakery"/>
  </node>
  <node id="336397899" version="2" timestamp="2010-11-07T09:23:48Z" uid="78656" user="Walter Schlögl" changeset="6309256" lat="48.2592394" lon="16.3645792">
    <tag k="amenity" v="cafe"/>
    <tag k="cuisine" v="cake"/>
    <tag k="name" v="Café/Konditorei Holzer"/>
    <tag k="shop" v="bakery"/>
  </node>
  <node id="336397899" version="3" timestamp="2011-08-11T01:27:59Z" uid="56501" user="Rudolf_H" changeset="8981824" lat="48.2592363" lon="16.364533">
    <tag k="amenity" v="cafe"/>
    <tag k="cuisine" v="cake"/>
    <tag k="name" v="Café/Konditorei Holzer"/>
    <tag k="shop" v="bakery"/>
  </node>
</osm>
