<?xml version='1.0' encoding='UTF-8'?>
<osm version="0.6" generator="libosmium/2.20.0">
  <node id="337660124" version="1" timestamp="2009-01-26T16:38:22Z" uid="92538" user="osm-ukraine" changeset="839185" lat="48.08613" lon="39.48727">
    <tag k="place" v="village"/>
  </node>
  <node id="337660124" version="3" timestamp="2009-02-01T16:47:08Z" uid="6975" user="ulfl" changeset="27333" lat="48.08613" lon="39.48727">
    <tag k="is_in" v="Луганська обл., Україна"/>
    <tag k="place" v="village"/>
  </node>
  <node id="337660153" version="1" timestamp="2009-01-26T16:38:24Z" uid="92538" user="osm-ukraine" changeset="839185" lat="48.0851" lon="39.74407">
    <tag k="name" v="Олександрівка"/>
    <tag k="place" v="village"/>
  </node>
  <node id="337660153" version="3" timestamp="2009-02-01T16:47:04Z" uid="6975" user="ulfl" changeset="27333" lat="48.0851" lon="39.74407">
    <tag k="is_in" v="Луганська обл., Україна"/>
    <tag k="name" v="Олександрівка"/>
    <tag k="place" v="village"/>
  </node>
  <node id="337660153" version="4" timestamp="2011-07-15T11:10:52Z" uid="211300" user="yashka" changeset="8730186" lat="48.0851" lon="39.74407">
    <tag k="is_in" v="Луганська обл., Україна"/>
    <tag k="name" v="Олександрівка"/>
    <tag k="name:ru" v="Александровка"/>
    <tag k="place" v="village"/>
  </node>
  <node id="337660153" version="5" timestamp="2011-12-06T18:29:43Z" uid="29320" user="Komяpa" changeset="10052059" lat="48.0851" lon="39.74407">
    <tag k="is_in" v="Луганська обл., Україна"/>
    <tag k="name" v="Олександрівка"/>
    <tag k="name:be" v="Аляксандраўка"/>
    <tag k="name:ru" v="Александровка"/>
    <tag k="place" v="village"/>
  </node>
  <node id="337660153" version="6" timestamp="2011-12-21T16:06:41Z" uid="29320" user="Komяpa" changeset="10172443" lat="48.0851" lon="39.74407">
    <tag k="is_in" v="Луганська обл., Україна"/>
    <tag k="name" v="Олександрівка"/>
    <tag k="name:be" v="Аляксандраўка"/>
    <tag k="name:ru" v="Александровка"/>
    <tag k="name:uk" v="Олександрівка"/>
    <tag k="place" v="village"/>
  </node>
  <node id="337660247" version="1" timestamp="2009-01-26T16:38:30Z" uid="92538" user="osm-ukraine" changeset="839185" lat="48.07926" lon="39.64588">
    <tag k="name" v="Свердловськ"/>
    <tag k="place" v="town"/>
  </node>
  <node id="337660247" version="3" timestamp="2009-02-01T16:47:21Z" uid="6975" user="ulfl" changeset="27333" lat="48.07926" lon="39.64588">
    <tag k="is_in" v="Луганська обл., Україна"/>
    <tag k="name" v="Свердловськ"/>
    <tag k="place" v="town"/>
  </node>
  <node id="337660247" version="4" timestamp="2011-05-05T22:21:57Z" uid="143614" user="aspas" changeset="8061571" lat="48.0811324" lon="39.642561">
    <tag k="is_in" v="Луганська обл., Україна"/>
    <tag k="name" v="Свердловськ"/>
    <tag k="place" v="town"/>
  </node>
  <node id="337660247" version="5" timestamp="2011-05-10T16:52:41Z" uid="189858" user="Vort" changeset="8104052" lat="48.0811324" lon="39.642561">
    <tag k="is_in" v="Луганська обл., Україна"/>
    <tag k="name" v="Свердловськ"/>
    <tag k="place" v="town"/>
    <tag k="population" v="73000"/>
  </node>
  <node id="337660247" version="6" timestamp="2011-07-15T11:11:10Z" uid="211300" user="yashka" changeset="8730186" lat="48.0811324" lon="39.642561">
    <tag k="is_in" v="Луганська обл., Україна"/>
    <tag k="name" v="Свердловськ"/>
    <tag k="name:ru" v="Свердловск"/>
    <tag k="place" v="town"/>
    <tag k="population" v="73000"/>
  </node>
  <node id="337660358" version="1" timestamp="2009-01-26T16:38:32Z" uid="92538" user="osm-ukraine" changeset="839185" lat="48.0772" lon="39.47868">
    <tag k="name" v="Новодар&apos;Ївка"/>
    <tag k="place" v="village"/>
  </node>
  <node id="337660358" version="3" timestamp="2009-02-01T16:47:10Z" uid="6975" user="ulfl" changeset="27333" lat="48.0772" lon="39.47868">
    <tag k="is_in" v="Луганська обл., Україна"/>
    <tag k="name" v="Новодар&apos;Ївка"/>
    <tag k="place" v="village"/>
  </node>
  <node id="337660358" version="4" timestamp="2011-03-18T15:01:22Z" uid="324641" user="Larry0ua" changeset="7595968" lat="48.0772" lon="39.47868">
    <tag k="is_in" v="Луганська обл., Україна"/>
    <tag k="name" v="Новодар&apos;ївка"/>
    <tag k="place" v="village"/>
  </node>
  <node id="337660358" version="5" timestamp="2011-07-15T11:11:07Z" uid="211300" user="yashka" changeset="8730186" lat="48.0772" lon="39.47868">
    <tag k="is_in" v="Луганська обл., Україна"/>
    <tag k="name" v="Новодар&apos;ївка"/>
    <tag k="name:ru" v="Новодарьевка"/>
    <tag k="place" v="village"/>
  </node>
  <node id="337660367" version="1" timestamp="2009-01-26T16:38:32Z" uid="92538" user="osm-ukraine" changeset="839185" lat="48.07617" lon="39.7736">
    <tag k="name" v="Червонопартизанськ"/>
    <tag k="place" v="town"/>
  </node>
  <node id="337660367" version="3" timestamp="2009-02-01T16:47:08Z" uid="6975" user="ulfl" changeset="27333" lat="48.07617" lon="39.7736">
    <tag k="is_in" v="Луганська обл., Україна"/>
    <tag k="name" v="Червонопартизанськ"/>
    <tag k="place" v="town"/>
  </node>
  <node id="337660367" version="4" timestamp="2011-07-15T11:11:13Z" uid="211300" user="yashka" changeset="8730186" lat="48.07617" lon="39.7736">
    <tag k="is_in" v="Луганська обл., Україна"/>
    <tag k="name" v="Червонопартизанськ"/>
    <tag k="name:ru" v="Червонопартизанск"/>
    <tag k="place" v="town"/>
  </node>
  <node id="337660384" version="1" timestamp="2009-01-26T16:38:33Z" uid="92538" user="osm-ukraine" changeset="839185" lat="48.07548" lon="39.55421">
    <tag k="name" v="Ленінське"/>
    <tag k="place" v="village"/>
  </node>
  <node id="337660384" version="3" timestamp="2009-02-01T16:47:05Z" uid="6975" user="ulfl" changeset="27333" lat="48.07548" lon="39.55421">
    <tag k="is_in" v="Луганська обл., Україна"/>
    <tag k="name" v="Ленінське"/>
    <tag k="place" v="village"/>
  </node>
  <node id="337660384" version="4" timestamp="2011-07-15T11:11:03Z" uid="211300" user="yashka" changeset="8730186" lat="48.07548" lon="39.55421">
    <tag k="is_in" v="Луганська обл., Україна"/>
    <tag k="name" v="Ленінське"/>
    <tag k="name:ru" v="Ленинское"/>
    <tag k="place" v="village"/>
  </node>
  <node id="337660393" version="1" timestamp="2009-01-26T16:38:33Z" uid="92538" user="osm-ukraine" changeset="839185" lat="48.07514" lon="39.5161">
    <tag k="name" v="Валянівськ"/>
    <tag k="place" v="village"/>
  </node>
  <node id="337660393" version="3" timestamp="2009-02-01T16:47:03Z" uid="6975" user="ulfl" changeset="27333" lat="48.07514" lon="39.5161">
    <tag k="is_in" v="Луганська обл., Україна"/>
    <tag k="name" v="Валянівськ"/>
    <tag k="place" v="village"/>
  </node>
  <node id="337660393" version="4" timestamp="2010-03-19T18:26:10Z" uid="66590" user="iONiX" changeset="4172731" lat="48.0751167" lon="39.5162047">
    <tag k="is_in" v="Луганська обл., Україна"/>
    <tag k="name" v="Валянівськ"/>
    <tag k="place" v="village"/>
  </node>
  <node id="337660393" version="5" timestamp="2011-07-15T11:10:54Z" uid="211300" user="yashka" changeset="8730186" lat="48.0751167" lon="39.5162047">
    <tag k="is_in" v="Луганська обл., Україна"/>
    <tag k="name" v="Валянівськ"/>
    <tag k="name:ru" v="Валяновск"/>
    <tag k="place" v="village"/>
  </node>
  <node id="337660821" version="1" timestamp="2009-01-26T16:38:47Z" uid="92538" user="osm-ukraine" changeset="839185" lat="48.06175" lon="39.71729">
    <tag k="name" v="Ананьївка"/>
    <tag k="place" v="village"/>
  </node>
  <node id="337660821" version="3" timestamp="2009-02-01T16:47:12Z" uid="6975" user="ulfl" changeset="27333" lat="48.06175" lon="39.71729">
    <tag k="is_in" v="Луганська обл., Україна"/>
    <tag k="name" v="Ананьївка"/>
    <tag k="place" v="village"/>
  </node>
  <node id="337660821" version="4" timestamp="2011-07-15T11:10:52Z" uid="211300" user="yashka" changeset="8730186" lat="48.06175" lon="39.71729">
    <tag k="is_in" v="Луганська обл., Україна"/>
    <tag k="name" v="Ананьївка"/>
    <tag k="name:ru" v="Ананьевка"/>
    <tag k="place" v="village"/>
  </node>
  <node id="337661351" version="1" timestamp="2009-01-26T16:39:15Z" uid="92538" user="osm-ukraine" changeset="839185" lat="48.04767" lon="39.45362">
    <tag k="name" v="Дзержинський"/>
    <tag k="place" v="town"/>
  </node>
  <node id="337661351" version="3" timestamp="2009-02-01T16:47:03Z" uid="6975" user="ulfl" changeset="27333" lat="48.04767" lon="39.45362">
    <tag k="is_in" v="Луганська обл., Україна"/>
    <tag k="name" v="Дзержинський"/>
    <tag k="place" v="town"/>
  </node>
  <node id="337661351" version="4" timestamp="2011-07-15T11:10:57Z" uid="211300" user="yashka" changeset="8730186" lat="48.04767" lon="39.45362">
    <tag k="is_in" v="Луганська обл., Україна"/>
    <tag k="name" v="Дзержинський"/>
    <tag k="name:ru" v="Дзержинский"/>
    <tag k="place" v="town"/>
  </node>
  <node id="337661614" version="1" timestamp="2009-01-26T16:39:24Z" uid="92538" user="osm-ukraine" changeset="839185" lat="48.03978" lon="39.58855">
    <tag k="name" v="Уткине"/>
    <tag k="place" v="village"/>
  </node>
  <node id="337661614" version="3" timestamp="2009-02-01T16:47:07Z" uid="6975" user="ulfl" changeset="27333" lat="48.03978" lon="39.58855">
    <tag k="is_in" v="Луганська обл., Україна"/>
    <tag k="name" v="Уткине"/>
    <tag k="place" v="village"/>
  </node>
  <node id="337661614" version="4" timestamp="2011-07-15T11:11:12Z" uid="211300" user="yashka" changeset="8730186" lat="48.03978" lon="39.58855">
    <tag k="is_in" v="Луганська обл., Україна"/>
    <tag k="name" v="Уткине"/>
    <tag k="name:ru" v="Уткино"/>
    <tag k="place" v="village"/>
  </node>
  <node id="337661618" version="1" timestamp="2009-01-26T16:39:24Z" uid="92538" user="osm-ukraine" changeset="839185" lat="48.03978" lon="39.56314">
    <tag k="name" v="Шахтарське"/>
    <tag k="place" v="village"/>
  </node>
  <node id="337661618" version="3" timestamp="2009-02-01T16:47:08Z" uid="6975" user="ulfl" changeset="27333" lat="48.03978" lon="39.56314">
    <tag k="is_in" v="Луганська обл., Україна"/>
    <tag k="name" v="Шахтарське"/>
    <tag k="place" v="village"/>
  </node>
  <node id="337661618" version="4" timestamp="2011-07-15T11:11:13Z" uid="211300" user="yashka" changeset="8730186" lat="48.03978" lon="39.56314">
    <tag k="is_in" v="Луганська обл., Україна"/>
    <tag k="name" v="Шахтарське"/>
    <tag k="name:ru" v="Шахтёрское"/>
    <tag k="place" v="village"/>
  </node>
  <node id="337661682" version="1" timestamp="2009-01-26T16:39:25Z" uid="92538" user="osm-ukraine" changeset="839185" lat="48.03806" lon="39.76124">
    <tag k="name" v="Панченкове"/>
    <tag k="place" v="village"/>
  </node>
  <node id="337661682" version="3" timestamp="2009-02-01T16:47:17Z" uid="6975" user="ulfl" changeset="27333" lat="48.03806" lon="39.76124">
    <tag k="is_in" v="Луганська обл., Україна"/>
    <tag k="name" v="Панченкове"/>
    <tag k="place" v="village"/>
  </node>
  <node id="337661682" version="4" timestamp="2011-07-15T11:11:08Z" uid="211300" user="yashka" changeset="8730186" lat="48.03806" lon="39.76124">
    <tag k="is_in" v="Луганська обл., Україна"/>
    <tag k="name" v="Панченкове"/>
    <tag k="name:ru" v="Панченково"/>
    <tag k="place" v="village"/>
  </node>
  <node id="337661758" version="1" timestamp="2009-01-26T16:39:27Z" uid="92538" user="osm-ukraine" changeset="839185" lat="48.03532" lon="39.55936">
    <tag k="name" v="Матвіївка"/>
    <tag k="place" v="village"/>
  </node>
  <node id="337661758" version="3" timestamp="2009-02-01T16:47:21Z" uid="6975" user="ulfl" changeset="27333" lat="48.03532" lon="39.55936">
    <tag k="is_in" v="Луганська обл., Україна"/>
    <tag k="name" v="Матвіївка"/>
    <tag k="place" v="village"/>
  </node>
  <node id="337661758" version="4" timestamp="2011-07-15T11:11:05Z" uid="211300" user="yashka" changeset="8730186" lat="48.03532" lon="39.55936">
    <tag k="is_in" v="Луганська обл., Україна"/>
    <tag k="name" v="Матвіївка"/>
    <tag k="name:ru" v="Матвеевка"/>
    <tag k="place" v="village"/>
  </node>
  <node id="337662014" version="1" timestamp="2009-01-26T16:39:34Z" uid="92538" user="osm-ukraine" changeset="839185" lat="48.02845" lon="39.52228">
    <tag k="name" v="Киселеве"/>
    <tag k="place" v="village"/>
  </node>
  <node id="337662014" version="3" timestamp="2009-02-01T16:47:16Z" uid="6975" user="ulfl" changeset="27333" lat="48.02845" lon="39.52228">
    <tag k="is_in" v="Луганська обл., Україна"/>
    <tag k="name" v="Киселеве"/>
    <tag k="place" v="village"/>
  </node>
  <node id="337662014" version="4" timestamp="2011-07-15T11:11:01Z" uid="211300" user="yashka" changeset="8730186" lat="48.02845" lon="39.52228">
    <tag k="is_in" v="Луганська обл., Україна"/>
    <tag k="name" v="Киселеве"/>
    <tag k="name:ru" v="Киселёво"/>
    <tag k="place" v="village"/>
  </node>
  <node id="337662014" version="5" timestamp="2011-12-06T18:28:29Z" uid="29320" user="Komяpa" changeset="10052059" lat="48.02845" lon="39.52228">
    <tag k="is_in" v="Луганська обл., Україна"/>
    <tag k="name" v="Киселеве"/>
    <tag k="name:be" v="Кісялёва"/>
    <tag k="name:ru" v="Киселёво"/>
    <tag k="place" v="village"/>
  </node>
  <node id="337662075" version="1" timestamp="2009-01-26T16:39:36Z" uid="92538" user="osm-ukraine" changeset="839185" lat="48.02742" lon="39.63283">
    <tag k="name" v="Кондрюче"/>
    <tag k="place" v="village"/>
  </node>
  <node id="337662075" version="3" timestamp="2009-02-01T16:47:06Z" uid="6975" user="ulfl" changeset="27333" lat="48.02742" lon="39.63283">
    <tag k="is_in" v="Луганська обл., Україна"/>
    <tag k="name" v="Кондрюче"/>
    <tag k="place" v="village"/>
  </node>
  <node id="337662075" version="4" timestamp="2011-07-15T11:11:02Z" uid="211300" user="yashka" changeset="8730186" lat="48.02742" lon="39.63283">
    <tag k="is_in" v="Луганська обл., Україна"/>
    <tag k="name" v="Кондрюче"/>
    <tag k="name:ru" v="Кондрючее"/>
    <tag k="place" v="village"/>
  </node>
  <node id="337662175" version="1" timestamp="2009-01-26T16:39:38Z" uid="92538" user="osm-ukraine" changeset="839185" lat="48.02467" lon="39.5422">
    <tag k="name" v="Антракоп"/>
    <tag k="place" v="village"/>
  </node>
  <node id="337662175" version="3" timestamp="2009-02-01T16:47:19Z" uid="6975" user="ulfl" changeset="27333" lat="48.02467" lon="39.5422">
    <tag k="is_in" v="Луганська обл., Україна"/>
    <tag k="name" v="Антракоп"/>
    <tag k="place" v="village"/>
  </node>
  <node id="337662175" version="4" timestamp="2011-07-15T11:10:52Z" uid="211300" user="yashka" changeset="8730186" lat="48.02467" lon="39.5422">
    <tag k="is_in" v="Луганська обл., Україна"/>
    <tag k="name" v="Антракоп"/>
    <tag k="name:ru" v="Антрокоп"/>
    <tag k="place" v="village"/>
  </node>
  <node id="337662425" version="1" timestamp="2009-01-26T16:39:45Z" uid="92538" user="osm-ukraine" changeset="839185" lat="48.01781" lon="39.56966">
    <tag k="name" v="Ритикове"/>
    <tag k="place" v="village"/>
  </node>
  <node id="337662425" version="3" timestamp="2009-02-01T16:47:20Z" uid="6975" user="ulfl" changeset="27333" lat="48.01781" lon="39.56966">
    <tag k="is_in" v="Луганська обл., Україна"/>
    <tag k="name" v="Ритикове"/>
    <tag k="place" v="village"/>
  </node>
  <node id="337662425" version="4" timestamp="2011-07-15T11:11:10Z" uid="211300" user="yashka" changeset="8730186" lat="48.01781" lon="39.56966">
    <tag k="is_in" v="Луганська обл., Україна"/>
    <tag k="name" v="Ритикове"/>
    <tag k="name:ru" v="Рытиково"/>
    <tag k="place" v="village"/>
  </node>
  <node id="337662447" version="1" timestamp="2009-01-26T16:39:45Z" uid="92538" user="osm-ukraine" changeset="839185" lat="48.01712" lon="39.59129">
    <tag k="name" v="Калінінський"/>
    <tag k="place" v="village"/>
  </node>
  <node id="337662447" version="3" timestamp="2009-02-01T16:47:21Z" uid="6975" user="ulfl" changeset="27333" lat="48.01712" lon="39.59129">
    <tag k="is_in" v="Луганська обл., Україна"/>
    <tag k="name" v="Калінінський"/>
    <tag k="place" v="village"/>
  </node>
  <node id="337662447" version="4" timestamp="2011-07-15T11:11:00Z" uid="211300" user="yashka" changeset="8730186" lat="48.01712" lon="39.59129">
    <tag k="is_in" v="Луганська обл., Україна"/>
    <tag k="name" v="Калінінський"/>
    <tag k="name:ru" v="Калининский"/>
    <tag k="place" v="village"/>
  </node>
  <node id="337662626" version="1" timestamp="2009-01-26T16:39:50Z" uid="92538" user="osm-ukraine" changeset="839185" lat="48.01231" lon="39.53705">
    <tag k="name" v="Березівка"/>
    <tag k="place" v="village"/>
  </node>
  <node id="337662626" version="3" timestamp="2009-02-01T16:47:24Z" uid="6975" user="ulfl" changeset="27333" lat="48.01231" lon="39.53705">
    <tag k="is_in" v="Луганська обл., Україна"/>
    <tag k="name" v="Березівка"/>
    <tag k="place" v="village"/>
  </node>
  <node id="337662626" version="4" timestamp="2011-07-15T11:10:53Z" uid="211300" user="yashka" changeset="8730186" lat="48.01231" lon="39.53705">
    <tag k="is_in" v="Луганська обл., Україна"/>
    <tag k="name" v="Березівка"/>
    <tag k="name:ru" v="Березовка"/>
    <tag k="place" v="village"/>
  </node>
  <node id="337662626" version="5" timestamp="2011-12-06T18:26:47Z" uid="29320" user="Komяpa" changeset="10052059" lat="48.01231" lon="39.53705">
    <tag k="is_in" v="Луганська обл., Україна"/>
    <tag k="name" v="Березівка"/>
    <tag k="name:be" v="Беразоўка"/>
    <tag k="name:ru" v="Березовка"/>
    <tag k="place" v="village"/>
  </node>
  <node id="337662730" version="1" timestamp="2009-01-26T16:39:52Z" uid="92538" user="osm-ukraine" changeset="839185" lat="48.01025" lon="39.37088">
    <tag k="name" v="Улянівка"/>
    <tag k="place" v="village"/>
  </node>
  <node id="337662730" version="3" timestamp="2009-02-01T16:47:17Z" uid="6975" user="ulfl" changeset="27333" lat="48.01025" lon="39.37088">
    <tag k="is_in" v="Луганська обл., Україна"/>
    <tag k="name" v="Улянівка"/>
    <tag k="place" v="village"/>
  </node>
  <node id="337662730" version="4" timestamp="2011-07-15T11:11:11Z" uid="211300" user="yashka" changeset="8730186" lat="48.01025" lon="39.37088">
    <tag k="is_in" v="Луганська обл., Україна"/>
    <tag k="name" v="Улянівка"/>
    <tag k="name:ru" v="Ульяновка"/>
    <tag k="place" v="village"/>
  </node>
  <node id="337662730" version="5" timestamp="2011-12-21T16:07:34Z" uid="29320" user="Komяpa" changeset="10172443" lat="48.01025" lon="39.37088">
    <tag k="is_in" v="Луганська обл., Україна"/>
    <tag k="name" v="Улянівка"/>
    <tag k="name:be" v="Ульянаўка"/>
    <tag k="name:ru" v="Ульяновка"/>
    <tag k="place" v="village"/>
  </node>
  <node id="337663136" version="1" timestamp="2009-01-26T16:40:06Z" uid="92538" user="osm-ukraine" changeset="839185" lat="48.00133" lon="39.47491">
    <tag k="name" v="Нагольно-Тарасівка"/>
    <tag k="place" v="village"/>
  </node>
  <node id="337663136" version="3" timestamp="2009-02-01T16:47:22Z" uid="6975" user="ulfl" changeset="27333" lat="48.00133" lon="39.47491">
    <tag k="is_in" v="Луганська обл., Україна"/>
    <tag k="name" v="Нагольно-Тарасівка"/>
    <tag k="place" v="village"/>
  </node>
  <node id="337663136" version="4" timestamp="2011-07-15T11:11:06Z" uid="211300" user="yashka" changeset="8730186" lat="48.00133" lon="39.47491">
    <tag k="is_in" v="Луганська обл., Україна"/>
    <tag k="name" v="Нагольно-Тарасівка"/>
    <tag k="name:ru" v="Нагольно-Тарасовка"/>
    <tag k="place" v="village"/>
  </node>
  <node id="337663821" version="1" timestamp="2009-01-26T16:40:39Z" uid="92538" user="osm-ukraine" changeset="839185" lat="47.98347" lon="39.65309">
    <tag k="name" v="Хмельницький"/>
    <tag k="place" v="village"/>
  </node>
  <node id="337663821" version="3" timestamp="2009-02-01T16:47:16Z" uid="6975" user="ulfl" changeset="27333" lat="47.98347" lon="39.65309">
    <tag k="is_in" v="Луганська обл., Україна"/>
    <tag k="name" v="Хмельницький"/>
    <tag k="place" v="village"/>
  </node>
  <node id="337663821" version="4" timestamp="2011-07-15T11:11:12Z" uid="211300" user="yashka" changeset="8730186" lat="47.98347" lon="39.65309">
    <tag k="is_in" v="Луганська обл., Україна"/>
    <tag k="name" v="Хмельницький"/>
    <tag k="name:ru" v="Хмельницкий"/>
    <tag k="place" v="village"/>
  </node>
  <node id="337664013" version="1" timestamp="2009-01-26T16:40:48Z" uid="92538" user="osm-ukraine" changeset="839185" lat="47.97729" lon="39.54494">
    <tag k="name" v="Іващенко"/>
    <tag k="place" v="village"/>
  </node>
  <node id="337664013" version="3" timestamp="2009-02-01T16:47:23Z" uid="6975" user="ulfl" changeset="27333" lat="47.97729" lon="39.54494">
    <tag k="is_in" v="Луганська обл., Україна"/>
    <tag k="name" v="Іващенко"/>
    <tag k="place" v="village"/>
  </node>
  <node id="337664013" version="4" timestamp="2011-07-15T11:10:59Z" uid="211300" user="yashka" changeset="8730186" lat="47.97729" lon="39.54494">
    <tag k="is_in" v="Луганська обл., Україна"/>
    <tag k="name" v="Іващенко"/>
    <tag k="name:ru" v="Иващенко"/>
    <tag k="place" v="village"/>
  </node>
  <node id="337664145" version="1" timestamp="2009-01-26T16:40:53Z" uid="92538" user="osm-ukraine" changeset="839185" lat="47.97386" lon="39.43439">
    <tag k="name" v="Дар&apos;Ївка"/>
    <tag k="place" v="village"/>
  </node>
  <node id="337664145" version="3" timestamp="2009-02-01T16:47:15Z" uid="6975" user="ulfl" changeset="27333" lat="47.97386" lon="39.43439">
    <tag k="is_in" v="Луганська обл., Україна"/>
    <tag k="name" v="Дар&apos;Ївка"/>
    <tag k="place" v="village"/>
  </node>
  <node id="337664145" version="4" timestamp="2011-03-18T15:01:23Z" uid="324641" user="Larry0ua" changeset="7595968" lat="47.97386" lon="39.43439">
    <tag k="is_in" v="Луганська обл., Україна"/>
    <tag k="name" v="Дар&apos;ївка"/>
    <tag k="place" v="village"/>
  </node>
  <node id="337664145" version="5" timestamp="2011-07-15T11:10:57Z" uid="211300" user="yashka" changeset="8730186" lat="47.97386" lon="39.43439">
    <tag k="is_in" v="Луганська обл., Україна"/>
    <tag k="name" v="Дар&apos;ївка"/>
    <tag k="name:ru" v="Дарьевка"/>
    <tag k="place" v="village"/>
  </node>
  <node id="337664403" version="1" timestamp="2009-01-26T16:41:02Z" uid="92538" user="osm-ukraine" changeset="839185" lat="47.96699" lon="39.38152">
    <tag k="name" v="Новодар&apos;Ївка"/>
    <tag k="place" v="village"/>
  </node>
  <node id="337664403" version="3" timestamp="2009-02-01T16:47:11Z" uid="6975" user="ulfl" changeset="27333" lat="47.96699" lon="39.38152">
    <tag k="is_in" v="Луганська обл., Україна"/>
    <tag k="name" v="Новодар&apos;Ївка"/>
    <tag k="place" v="village"/>
  </node>
  <node id="337664403" version="4" timestamp="2011-03-18T15:01:23Z" uid="324641" user="Larry0ua" changeset="7595968" lat="47.96699" lon="39.38152">
    <tag k="is_in" v="Луганська обл., Україна"/>
    <tag k="name" v="Новодар&apos;ївка"/>
    <tag k="place" v="village"/>
  </node>
  <node id="337664403" version="5" timestamp="2011-07-15T11:11:07Z" uid="211300" user="yashka" changeset="8730186" lat="47.96699" lon="39.38152">
    <tag k="is_in" v="Луганська обл., Україна"/>
    <tag k="name" v="Новодар&apos;ївка"/>
    <tag k="name:ru" v="Новодарьевка"/>
    <tag k="place" v="village"/>
  </node>
  <node id="337664979" version="1" timestamp="2009-01-26T16:41:21Z" uid="92538" user="osm-ukraine" changeset="839185" lat="47.95257" lon="39.73755">
    <tag k="name" v="Бірюкове"/>
    <tag k="place" v="village"/>
  </node>
  <node id="337664979" version="3" timestamp="2009-02-01T16:47:07Z" uid="6975" user="ulfl" changeset="27333" lat="47.95257" lon="39.73755">
    <tag k="is_in" v="Луганська обл., Україна"/>
    <tag k="name" v="Бірюкове"/>
    <tag k="place" v="village"/>
  </node>
  <node id="337664979" version="4" timestamp="2011-06-19T16:56:15Z" uid="143614" user="aspas" changeset="8486332" lat="47.9525945" lon="39.7374453">
    <tag k="is_in" v="Луганська обл., Україна"/>
    <tag k="name" v="Бірюкове"/>
    <tag k="place" v="village"/>
  </node>
  <node id="337664979" version="5" timestamp="2011-07-15T11:10:53Z" uid="211300" user="yashka" changeset="8730186" lat="47.9525945" lon="39.7374453">
    <tag k="is_in" v="Луганська обл., Україна"/>
    <tag k="name" v="Бірюкове"/>
    <tag k="name:ru" v="Бирюково"/>
    <tag k="place" v="village"/>
  </node>
  <node id="337665138" version="1" timestamp="2009-01-26T16:41:28Z" uid="92538" user="osm-ukraine" changeset="839185" lat="47.94777" lon="39.59713">
    <tag k="name" v="Карпове-Кріпенське"/>
    <tag k="place" v="village"/>
  </node>
  <node id="337665138" version="3" timestamp="2009-02-01T16:47:28Z" uid="6975" user="ulfl" changeset="27333" lat="47.94777" lon="39.59713">
    <tag k="is_in" v="Луганська обл., Україна"/>
    <tag k="name" v="Карпове-Кріпенське"/>
    <tag k="place" v="village"/>
  </node>
  <node id="337665138" version="4" timestamp="2011-07-15T11:11:00Z" uid="211300" user="yashka" changeset="8730186" lat="47.94777" lon="39.59713">
    <tag k="is_in" v="Луганська обл., Україна"/>
    <tag k="name" v="Карпове-Кріпенське"/>
    <tag k="name:ru" v="Карпово-Крепенское"/>
    <tag k="place" v="village"/>
  </node>
  <node id="337665749" version="1" timestamp="2009-01-26T16:41:47Z" uid="92538" user="osm-ukraine" changeset="839185" lat="47.92614" lon="39.71592">
    <tag k="name" v="Братське"/>
    <tag k="place" v="village"/>
  </node>
  <node id="337665749" version="3" timestamp="2009-02-01T16:47:17Z" uid="6975" user="ulfl" changeset="27333" lat="47.92614" lon="39.71592">
    <tag k="is_in" v="Луганська обл., Україна"/>
    <tag k="name" v="Братське"/>
    <tag k="place" v="village"/>
  </node>
  <node id="337665749" version="4" timestamp="2011-07-15T11:10:54Z" uid="211300" user="yashka" changeset="8730186" lat="47.92614" lon="39.71592">
    <tag k="is_in" v="Луганська обл., Україна"/>
    <tag k="name" v="Братське"/>
    <tag k="name:ru" v="Братское"/>
    <tag k="place" v="village"/>
  </node>
  <node id="337666060" version="1" timestamp="2009-01-26T16:41:55Z" uid="92538" user="osm-ukraine" changeset="839185" lat="47.91721" lon="39.49036">
    <tag k="name" v="Зеленопілля"/>
    <tag k="place" v="village"/>
  </node>
  <node id="337666060" version="3" timestamp="2009-02-01T16:47:09Z" uid="6975" user="ulfl" changeset="27333" lat="47.91721" lon="39.49036">
    <tag k="is_in" v="Луганська обл., Україна"/>
    <tag k="name" v="Зеленопілля"/>
    <tag k="place" v="village"/>
  </node>
  <node id="337666060" version="4" timestamp="2011-07-15T11:10:58Z" uid="211300" user="yashka" changeset="8730186" lat="47.91721" lon="39.49036">
    <tag k="is_in" v="Луганська обл., Україна"/>
    <tag k="name" v="Зеленопілля"/>
    <tag k="name:ru" v="Зеленополье"/>
    <tag k="place" v="village"/>
  </node>
  <node id="337666805" version="1" timestamp="2009-01-26T16:42:18Z" uid="92538" user="osm-ukraine" changeset="839185" lat="47.89146" lon="39.61086">
    <tag k="name" v="Дар&apos;Їно-Єрмаківка"/>
    <tag k="place" v="village"/>
  </node>
  <node id="337666805" version="3" timestamp="2009-02-01T16:47:25Z" uid="6975" user="ulfl" changeset="27333" lat="47.89146" lon="39.61086">
    <tag k="is_in" v="Луганська обл., Україна"/>
    <tag k="name" v="Дар&apos;Їно-Єрмаківка"/>
    <tag k="place" v="village"/>
  </node>
  <node id="337666805" version="4" timestamp="2011-03-18T15:01:24Z" uid="324641" user="Larry0ua" changeset="7595968" lat="47.89146" lon="39.61086">
    <tag k="is_in" v="Луганська обл., Україна"/>
    <tag k="name" v="Дар&apos;їно-Єрмаківка"/>
    <tag k="place" v="village"/>
  </node>
  <node id="337666805" version="5" timestamp="2011-07-15T11:10:57Z" uid="211300" user="yashka" changeset="8730186" lat="47.89146" lon="39.61086">
    <tag k="is_in" v="Луганська обл., Україна"/>
    <tag k="name" v="Дар&apos;їно-Єрмаківка"/>
    <tag k="name:ru" v="Дарьино-Ермаковка"/>
    <tag k="place" v="village"/>
  </node>
  <node id="337667062" version="1" timestamp="2009-01-26T16:42:33Z" uid="92538" user="osm-ukraine" changeset="839185" lat="47.88219" lon="39.51027">
    <tag k="name" v="Верхньотузлове"/>
    <tag k="place" v="village"/>
  </node>
  <node id="337667062" version="3" timestamp="2009-02-01T16:47:28Z" uid="6975" user="ulfl" changeset="27333" lat="47.88219" lon="39.51027">
    <tag k="is_in" v="Луганська обл., Україна"/>
    <tag k="name" v="Верхньотузлове"/>
    <tag k="place" v="village"/>
  </node>
  <node id="337667062" version="4" timestamp="2011-07-15T11:10:55Z" uid="211300" user="yashka" changeset="8730186" lat="47.88219" lon="39.51027">
    <tag k="is_in" v="Луганська обл., Україна"/>
    <tag k="name" v="Верхньотузлове"/>
    <tag k="name:ru" v="Верхнетузлово"/>
    <tag k="place" v="village"/>
  </node>
  <node id="337667062" version="5" timestamp="2011-09-21T20:26:17Z" uid="311318" user="luiswoo" changeset="9363753" lat="47.8833224" lon="39.5106921">
    <tag k="is_in" v="Луганська обл., Україна"/>
    <tag k="name" v="Верхньотузлове"/>
    <tag k="name:ru" v="Верхнетузлово"/>
    <tag k="place" v="village"/>
  </node>
  <node id="337667208" version="1" timestamp="2009-01-26T16:42:39Z" uid="92538" user="osm-ukraine" changeset="839185" lat="47.87876" lon="39.46667">
    <tag k="name" v="Любиме"/>
    <tag k="place" v="village"/>
  </node>
  <node id="337667208" version="3" timestamp="2009-02-01T16:47:28Z" uid="6975" user="ulfl" changeset="27333" lat="47.87876" lon="39.46667">
    <tag k="is_in" v="Луганська обл., Україна"/>
    <tag k="name" v="Любиме"/>
    <tag k="place" v="village"/>
  </node>
  <node id="337667208" version="4" timestamp="2011-07-15T11:11:04Z" uid="211300" user="yashka" changeset="8730186" lat="47.87876" lon="39.46667">
    <tag k="is_in" v="Луганська обл., Україна"/>
    <tag k="name" v="Любиме"/>
    <tag k="name:ru" v="Любимое"/>
    <tag k="place" v="village"/>
  </node>
  <node id="337667481" version="1" timestamp="2009-01-26T16:42:49Z" uid="92538" user="osm-ukraine" changeset="839185" lat="47.87224" lon="39.5161">
    <tag k="name" v="Новоборовиці"/>
    <tag k="place" v="village"/>
  </node>
  <node id="337667481" version="3" timestamp="2009-02-01T16:47:28Z" uid="6975" user="ulfl" changeset="27333" lat="47.87224" lon="39.5161">
    <tag k="is_in" v="Луганська обл., Україна"/>
    <tag k="name" v="Новоборовиці"/>
    <tag k="place" v="village"/>
  </node>
  <node id="337667481" version="4" timestamp="2011-07-15T11:11:07Z" uid="211300" user="yashka" changeset="8730186" lat="47.87224" lon="39.5161">
    <tag k="is_in" v="Луганська обл., Україна"/>
    <tag k="name" v="Новоборовиці"/>
    <tag k="name:ru" v="Новоборовицы"/>
    <tag k="place" v="village"/>
  </node>
  <node id="337667481" version="5" timestamp="2011-09-21T20:26:17Z" uid="311318" user="luiswoo" changeset="9363753" lat="47.8661316" lon="39.5052454">
    <tag k="is_in" v="Луганська обл., Україна"/>
    <tag k="name" v="Новоборовиці"/>
    <tag k="name:ru" v="Новоборовицы"/>
    <tag k="place" v="village"/>
  </node>
  <node id="337668159" version="3" timestamp="2009-04-15T06:32:27Z" uid="6975" user="ulfl" changeset="553994" lat="59.366604" lon="16.5057606">
    <tag k="highway" v="turning_circle"/>
  </node>
  <node id="337668210" version="3" timestamp="2009-04-15T06:32:26Z" uid="6975" user="ulfl" changeset="553994" lat="59.3676454" lon="16.5000343">
    <tag k="highway" v="turning_circle"/>
  </node>
</osm>
