<?xml version='1.0' encoding='UTF-8'?>
<osm version="0.6" generator="libosmium/2.20.0">
  <node id="337919652" version="4" timestamp="2009-10-04T14:54:57Z" uid="20587" user="balrog-kun" changeset="2738034" lat="50.7197376" lon="7.0866511">
    <tag k="highway" v="bus_stop"/>
    <tag k="name" v="Clemens-August-Platz"/>
  </node>
  <node id="337919652" version="5" timestamp="2011-08-02T21:29:13Z" uid="498918" user="VRS Haltestellen-Import" changeset="8905430" lat="50.7197376" lon="7.0866511">
    <tag k="VRS:gemeinde" v="BONN"/>
    <tag k="VRS:ortsteil" v="Poppelsdorf"/>
    <tag k="VRS:ref" v="62457"/>
    <tag k="highway" v="bus_stop"/>
    <tag k="name" v="Clemens-August-Platz"/>
  </node>
  <node id="337919652" version="6" timestamp="2011-10-14T20:32:52Z" uid="290680" user="wheelmap_visitor" changeset="9552229" lat="50.7197376" lon="7.0866511">
    <tag k="VRS:gemeinde" v="BONN"/>
    <tag k="VRS:ortsteil" v="Poppelsdorf"/>
    <tag k="VRS:ref" v="62457"/>
    <tag k="highway" v="bus_stop"/>
    <tag k="name" v="Clemens-August-Platz"/>
    <tag k="wheelchair" v="yes"/>
  </node>
  <node id="337919655" version="6" timestamp="2009-10-04T14:54:56Z" uid="20587" user="balrog-kun" changeset="2738034" lat="50.7183281" lon="7.086346">
    <tag k="highway" v="bus_stop"/>
    <tag k="name" v="Im Wingert"/>
  </node>
  <node id="337919655" version="7" timestamp="2011-08-02T21:29:36Z" uid="498918" user="VRS Haltestellen-Import" changeset="8905430" lat="50.7183281" lon="7.086346">
    <tag k="VRS:gemeinde" v="BONN"/>
    <tag k="VRS:ortsteil" v="Poppelsdorf"/>
    <tag k="VRS:ref" v="62455"/>
    <tag k="highway" v="bus_stop"/>
    <tag k="name" v="Im Wingert"/>
  </node>
  <node id="337919655" version="8" timestamp="2011-10-14T20:32:53Z" uid="290680" user="wheelmap_visitor" changeset="9552229" lat="50.7183281" lon="7.086346">
    <tag k="VRS:gemeinde" v="BONN"/>
    <tag k="VRS:ortsteil" v="Poppelsdorf"/>
    <tag k="VRS:ref" v="62455"/>
    <tag k="highway" v="bus_stop"/>
    <tag k="name" v="Im Wingert"/>
    <tag k="wheelchair" v="yes"/>
  </node>
</osm>
