<?xml version='1.0' encoding='UTF-8'?>
<osm version="0.6" generator="libosmium/2.20.0">
  <node id="338605272" version="2" timestamp="2010-07-29T09:27:16Z" uid="74617" user="JohnSmith" changeset="5344848" lat="47.795654" lon="7.836128">
    <tag k="amenity" v="emergency_phone"/>
    <tag k="emergency" v="phone"/>
  </node>
  <node id="338605272" version="3" timestamp="2011-01-30T18:02:26Z" uid="183436" user="mtb" changeset="7137351" lat="47.795654" lon="7.836128">
    <tag k="amenity" v="emergency_phone"/>
    <tag k="emergency" v="phone"/>
    <tag k="name" v="NRT 21"/>
    <tag k="operator" v="Björn-Steiger-Stiftung"/>
  </node>
  <node id="338605272" version="4" timestamp="2012-01-29T23:41:44Z" uid="11374" user="q_un_go" changeset="10535892" lat="47.795654" lon="7.836128"/>
  <node id="338605969" version="2" timestamp="2010-07-29T09:17:30Z" uid="74617" user="JohnSmith" changeset="5344848" lat="47.8099723" lon="7.773759">
    <tag k="amenity" v="emergency_phone"/>
    <tag k="emergency" v="phone"/>
  </node>
  <node id="338606035" version="2" timestamp="2010-07-29T09:39:24Z" uid="74617" user="JohnSmith" changeset="5344848" lat="47.8659139" lon="7.7485983">
    <tag k="amenity" v="emergency_phone"/>
    <tag k="emergency" v="phone"/>
  </node>
  <node id="338606359" version="2" timestamp="2010-09-17T20:16:21Z" uid="33382" user="de_muur" changeset="5806927" lat="53.0693797" lon="9.1244196"/>
  <node id="338606359" version="3" timestamp="2012-03-04T12:17:09Z" uid="45882" user="smarties" changeset="10867635" lat="53.0693797" lon="9.1244196"/>
  <node id="338606369" version="2" timestamp="2010-09-17T20:15:16Z" uid="33382" user="de_muur" changeset="5806927" lat="53.0681049" lon="9.1206916"/>
  <node id="338606369" version="3" timestamp="2012-01-13T00:45:43Z" uid="45882" user="smarties" changeset="10375018" lat="53.0681049" lon="9.1206916"/>
  <node id="338606369" version="4" timestamp="2012-03-04T12:17:09Z" uid="45882" user="smarties" changeset="10867635" lat="53.0681049" lon="9.1206916"/>
  <node id="338606804" version="3" timestamp="2010-12-12T17:36:00Z" uid="23543" user="jkjk" changeset="6639119" lat="38.9707175" lon="125.8354652"/>
  <node id="338608513" version="2" timestamp="2009-02-18T14:49:25Z" uid="58091" user="Andreas M" changeset="531056" lat="48.2181312" lon="16.3996955">
    <tag k="addr:city" v="Wien"/>
    <tag k="addr:country" v="AT"/>
    <tag k="addr:housenumber" v="15"/>
    <tag k="addr:postcode" v="1020"/>
    <tag k="addr:street" v="Ausstellungsstraße"/>
    <tag k="amenity" v="pharmacy"/>
    <tag k="created_by" v="Potlatch 0.10b"/>
    <tag k="name" v="Prater-Apotheke"/>
  </node>
  <node id="338608513" version="3" timestamp="2009-03-13T20:23:42Z" uid="99800" user="wolfbert" changeset="803311" lat="48.2182233" lon="16.3996264">
    <tag k="addr:city" v="Wien"/>
    <tag k="addr:country" v="AT"/>
    <tag k="addr:housenumber" v="15"/>
    <tag k="addr:postcode" v="1020"/>
    <tag k="addr:street" v="Ausstellungsstraße"/>
    <tag k="amenity" v="pharmacy"/>
    <tag k="created_by" v="Potlatch 0.10b"/>
    <tag k="name" v="Prater-Apotheke"/>
  </node>
  <node id="338608513" version="4" timestamp="2009-03-30T16:27:26Z" uid="58091" user="Andreas M" changeset="869666" lat="48.2182058" lon="16.3996596">
    <tag k="addr:city" v="Wien"/>
    <tag k="addr:country" v="AT"/>
    <tag k="addr:housenumber" v="15"/>
    <tag k="addr:postcode" v="1020"/>
    <tag k="addr:street" v="Ausstellungsstraße"/>
    <tag k="amenity" v="pharmacy"/>
    <tag k="created_by" v="Potlatch 0.10b"/>
    <tag k="name" v="Prater-Apotheke"/>
  </node>
  <node id="338608513" version="5" timestamp="2011-02-27T13:38:13Z" uid="99800" user="wolfbert" changeset="7410754" lat="48.2182058" lon="16.3996596">
    <tag k="addr:city" v="Wien"/>
    <tag k="addr:country" v="AT"/>
    <tag k="addr:housenumber" v="15"/>
    <tag k="addr:postcode" v="1020"/>
    <tag k="addr:street" v="Ausstellungsstraße"/>
    <tag k="amenity" v="pharmacy"/>
    <tag k="name" v="Prater-Apotheke"/>
  </node>
</osm>
