<?xml version='1.0' encoding='UTF-8'?>
<osm version="0.6" generator="libosmium/2.20.0">
  <node id="339140036" version="1" timestamp="2009-01-30T16:15:42Z" uid="20587" user="balrog-kun" changeset="854603" lat="52.1752233" lon="21.0093163">
    <tag k="highway" v="crossing"/>
  </node>
  <node id="339140248" version="3" timestamp="2009-10-27T20:56:30Z" uid="9581" user="Lobelt" changeset="2968953" lat="51.1140707" lon="12.4195642">
    <tag k="railway" v="level_crossing"/>
  </node>
  <node id="339140249" version="3" timestamp="2009-10-27T20:56:30Z" uid="9581" user="Lobelt" changeset="2968953" lat="51.0858889" lon="12.4249841"/>
  <node id="339140251" version="3" timestamp="2009-10-27T20:56:30Z" uid="9581" user="Lobelt" changeset="2968953" lat="51.0857468" lon="12.4250423"/>
  <node id="339140489" version="1" timestamp="2009-01-30T16:18:41Z" uid="20587" user="balrog-kun" changeset="854603" lat="52.1779223" lon="21.0253961"/>
  <node id="339140489" version="2" timestamp="2011-11-10T17:21:14Z" uid="550476" user="fishcrosser" changeset="9790459" lat="52.1778763" lon="21.0250957"/>
  <node id="339140489" version="3" timestamp="2011-11-15T23:12:29Z" uid="550476" user="fishcrosser" changeset="9840117" lat="52.1776778" lon="21.0268062"/>
  <node id="339140489" version="4" timestamp="2011-11-15T23:17:41Z" uid="550476" user="fishcrosser" changeset="9840164" lat="52.1778358" lon="21.0266113"/>
  <node id="339140489" version="5" timestamp="2011-11-16T09:24:27Z" uid="550476" user="fishcrosser" changeset="9842483" lat="52.1796021" lon="21.0252812"/>
  <node id="339140934" version="1" timestamp="2009-01-30T16:20:34Z" uid="20587" user="balrog-kun" changeset="854603" lat="52.2297417" lon="21.0099563">
    <tag k="amenity" v="grit_bin"/>
  </node>
  <node id="339141273" version="2" timestamp="2010-06-09T05:33:25Z" uid="27600" user="Islanit" changeset="4942359" lat="53.4876827" lon="10.2034114"/>
  <node id="339141273" version="3" timestamp="2010-06-09T05:33:45Z" uid="27600" user="Islanit" changeset="4942359" lat="53.4876827" lon="10.2034114">
    <tag k="highway" v="traffic_signals"/>
  </node>
  <node id="339141273" version="4" timestamp="2010-10-11T08:23:49Z" uid="94579" user="Cali42" changeset="6009497" lat="53.4876493" lon="10.2033551">
    <tag k="highway" v="traffic_signals"/>
  </node>
  <node id="339141273" version="5" timestamp="2012-02-29T13:36:49Z" uid="46145" user="Jacques_N" changeset="10827970" lat="53.4876489" lon="10.2033552">
    <tag k="highway" v="traffic_signals"/>
  </node>
  <node id="339141274" version="2" timestamp="2010-06-09T05:33:57Z" uid="27600" user="Islanit" changeset="4942359" lat="53.4875641" lon="10.2035275"/>
  <node id="339141274" version="3" timestamp="2012-02-29T13:41:11Z" uid="46145" user="Jacques_N" changeset="10828016" lat="53.4875628" lon="10.2035269"/>
  <node id="339141708" version="1" timestamp="2009-01-30T16:25:03Z" uid="30632" user="antblant" changeset="855969" lat="53.3666254" lon="14.6537848"/>
  <node id="339141708" version="2" timestamp="2009-05-18T19:51:47Z" uid="30632" user="antblant" changeset="1242210" lat="53.3666378" lon="14.6537837"/>
  <node id="339141708" version="3" timestamp="2009-05-18T19:52:02Z" uid="30632" user="antblant" changeset="1242210" lat="53.3666327" lon="14.6537837"/>
  <node id="339141708" version="4" timestamp="2010-06-10T10:22:24Z" uid="30632" user="antblant" changeset="4952746" lat="53.3666087" lon="14.6538453"/>
  <node id="339141713" version="1" timestamp="2009-01-30T16:25:03Z" uid="30632" user="antblant" changeset="855969" lat="53.3665993" lon="14.6529742"/>
  <node id="339141713" version="2" timestamp="2010-06-10T10:22:22Z" uid="30632" user="antblant" changeset="4952746" lat="53.3665823" lon="14.6532419"/>
  <node id="339141716" version="1" timestamp="2009-01-30T16:25:03Z" uid="30632" user="antblant" changeset="855969" lat="53.3670609" lon="14.6529324"/>
  <node id="339141716" version="2" timestamp="2010-06-10T10:22:11Z" uid="30632" user="antblant" changeset="4952746" lat="53.3670086" lon="14.6531835"/>
  <node id="339141719" version="1" timestamp="2009-01-30T16:25:03Z" uid="30632" user="antblant" changeset="855969" lat="53.3670871" lon="14.6537429"/>
  <node id="339141719" version="2" timestamp="2010-06-10T10:22:18Z" uid="30632" user="antblant" changeset="4952746" lat="53.367032" lon="14.6538069"/>
  <node id="339141721" version="1" timestamp="2009-01-30T16:25:04Z" uid="30632" user="antblant" changeset="855969" lat="53.3666278" lon="14.6537229"/>
  <node id="339141721" version="2" timestamp="2010-06-10T10:22:12Z" uid="30632" user="antblant" changeset="4952746" lat="53.3666038" lon="14.6537845"/>
  <node id="339141933" version="1" timestamp="2009-01-30T16:26:18Z" uid="58091" user="Andreas M" changeset="854885" lat="48.2202602" lon="16.3944749">
    <tag k="railway" v="subway_entrance"/>
    <tag k="wheelchair" v="no"/>
  </node>
  <node id="339141933" version="2" timestamp="2009-02-19T11:46:46Z" uid="49642" user="realadry" changeset="562469" lat="48.2202652" lon="16.3944739">
    <tag k="created_by" v="Potlatch 0.10f"/>
    <tag k="railway" v="subway_entrance"/>
    <tag k="ref" v="U1"/>
    <tag k="wheelchair" v="no"/>
  </node>
  <node id="339141933" version="3" timestamp="2009-03-13T20:49:52Z" uid="99800" user="wolfbert" changeset="803311" lat="48.2202949" lon="16.3944496">
    <tag k="created_by" v="Potlatch 0.10f"/>
    <tag k="railway" v="subway_entrance"/>
    <tag k="ref" v="U1"/>
    <tag k="wheelchair" v="no"/>
  </node>
  <node id="339141933" version="4" timestamp="2009-03-20T18:33:26Z" uid="58091" user="Andreas M" changeset="837012" lat="48.2202847" lon="16.3944518">
    <tag k="created_by" v="Potlatch 0.10f"/>
    <tag k="railway" v="subway_entrance"/>
    <tag k="ref" v="U1"/>
    <tag k="wheelchair" v="no"/>
  </node>
  <node id="339141933" version="5" timestamp="2009-07-23T05:36:33Z" uid="56501" user="Rudolf_H" changeset="1911469" lat="48.2202847" lon="16.3944518">
    <tag k="railway" v="subway_entrance"/>
    <tag k="ref" v="U1"/>
    <tag k="wheelchair" v="no"/>
  </node>
  <node id="339141933" version="6" timestamp="2012-01-15T18:14:17Z" uid="390669" user="KrilleOSM" changeset="10401313" lat="48.2202847" lon="16.3944518">
    <tag k="name" v="Praterstern"/>
    <tag k="railway" v="subway_entrance"/>
    <tag k="ref" v="U1"/>
    <tag k="wheelchair" v="no"/>
  </node>
  <node id="339141933" version="7" timestamp="2012-03-10T12:01:59Z" uid="99800" user="wolfbert" changeset="10930830" lat="48.2203036" lon="16.3944858">
    <tag k="name" v="Praterstern"/>
    <tag k="railway" v="subway_entrance"/>
    <tag k="ref" v="U1"/>
    <tag k="wheelchair" v="no"/>
  </node>
  <node id="339141934" version="1" timestamp="2009-01-30T16:26:19Z" uid="58091" user="Andreas M" changeset="854885" lat="48.2199386" lon="16.3947883">
    <tag k="railway" v="subway_entrance"/>
    <tag k="wheelchair" v="no"/>
  </node>
  <node id="339141934" version="2" timestamp="2009-02-19T11:46:35Z" uid="49642" user="realadry" changeset="562469" lat="48.2199393" lon="16.3947829">
    <tag k="created_by" v="Potlatch 0.10f"/>
    <tag k="railway" v="subway_entrance"/>
    <tag k="ref" v="U1"/>
    <tag k="wheelchair" v="no"/>
  </node>
  <node id="339141934" version="3" timestamp="2009-03-13T20:24:08Z" uid="99800" user="wolfbert" changeset="803311" lat="48.2200212" lon="16.3947214">
    <tag k="created_by" v="Potlatch 0.10f"/>
    <tag k="railway" v="subway_entrance"/>
    <tag k="ref" v="U1"/>
    <tag k="wheelchair" v="no"/>
  </node>
  <node id="339141934" version="4" timestamp="2009-03-13T20:49:51Z" uid="99800" user="wolfbert" changeset="803311" lat="48.2200644" lon="16.3947417">
    <tag k="created_by" v="Potlatch 0.10f"/>
    <tag k="railway" v="subway_entrance"/>
    <tag k="ref" v="U1"/>
    <tag k="wheelchair" v="no"/>
  </node>
  <node id="339141934" version="5" timestamp="2009-03-20T18:33:25Z" uid="58091" user="Andreas M" changeset="837012" lat="48.2199797" lon="16.3947527">
    <tag k="created_by" v="Potlatch 0.10f"/>
    <tag k="railway" v="subway_entrance"/>
    <tag k="ref" v="U1"/>
    <tag k="wheelchair" v="no"/>
  </node>
  <node id="339141934" version="6" timestamp="2012-01-15T18:14:17Z" uid="390669" user="KrilleOSM" changeset="10401313" lat="48.2199797" lon="16.3947527">
    <tag k="name" v="Praterstern"/>
    <tag k="railway" v="subway_entrance"/>
    <tag k="ref" v="U1"/>
    <tag k="wheelchair" v="no"/>
  </node>
  <node id="339141934" version="7" timestamp="2012-03-10T12:01:59Z" uid="99800" user="wolfbert" changeset="10930830" lat="48.2199971" lon="16.3947837">
    <tag k="name" v="Praterstern"/>
    <tag k="railway" v="subway_entrance"/>
    <tag k="ref" v="U1"/>
    <tag k="wheelchair" v="no"/>
  </node>
  <node id="339141935" version="1" timestamp="2009-01-30T16:26:19Z" uid="58091" user="Andreas M" changeset="854885" lat="48.2183247" lon="16.3940091">
    <tag k="bicycle" v="yes"/>
    <tag k="railway" v="subway_entrance"/>
    <tag k="wheelchair" v="yes"/>
  </node>
  <node id="339141935" version="2" timestamp="2009-02-18T14:00:09Z" uid="58091" user="Andreas M" changeset="531056" lat="48.2183613" lon="16.3945702">
    <tag k="bicycle" v="yes"/>
    <tag k="railway" v="subway_entrance"/>
    <tag k="wheelchair" v="yes"/>
  </node>
  <node id="339141935" version="3" timestamp="2009-03-13T20:23:58Z" uid="99800" user="wolfbert" changeset="803311" lat="48.2184432" lon="16.3945087">
    <tag k="bicycle" v="yes"/>
    <tag k="railway" v="subway_entrance"/>
    <tag k="wheelchair" v="yes"/>
  </node>
  <node id="339141935" version="4" timestamp="2009-03-20T18:33:25Z" uid="58091" user="Andreas M" changeset="837012" lat="48.2184277" lon="16.3945824">
    <tag k="bicycle" v="yes"/>
    <tag k="railway" v="subway_entrance"/>
    <tag k="wheelchair" v="yes"/>
  </node>
  <node id="339141935" version="5" timestamp="2009-07-23T05:36:33Z" uid="56501" user="Rudolf_H" changeset="1911469" lat="48.2184277" lon="16.3945824">
    <tag k="bicycle" v="yes"/>
    <tag k="railway" v="subway_entrance"/>
    <tag k="ref" v="U2"/>
    <tag k="wheelchair" v="yes"/>
  </node>
  <node id="339141935" version="6" timestamp="2011-08-13T13:52:43Z" uid="99800" user="wolfbert" changeset="9005685" lat="48.2183496" lon="16.3947505">
    <tag k="bicycle" v="yes"/>
    <tag k="railway" v="subway_entrance"/>
    <tag k="ref" v="U2"/>
    <tag k="wheelchair" v="yes"/>
  </node>
  <node id="339141935" version="7" timestamp="2011-09-25T14:57:45Z" uid="365718" user="Martin Ladstätter" changeset="9393224" lat="48.2183496" lon="16.3947505">
    <tag k="bicycle" v="yes"/>
    <tag k="name" v="U-Bahn Eingang"/>
    <tag k="railway" v="subway_entrance"/>
    <tag k="ref" v="U2"/>
    <tag k="wheelchair" v="yes"/>
  </node>
  <node id="339141935" version="8" timestamp="2012-01-15T18:14:16Z" uid="390669" user="KrilleOSM" changeset="10401313" lat="48.2183496" lon="16.3947505">
    <tag k="bicycle" v="yes"/>
    <tag k="name" v="Praterstern"/>
    <tag k="railway" v="subway_entrance"/>
    <tag k="ref" v="U2"/>
    <tag k="wheelchair" v="yes"/>
  </node>
  <node id="339141935" version="9" timestamp="2012-03-10T15:15:02Z" uid="99800" user="wolfbert" changeset="10932830" lat="48.2183592" lon="16.3947072">
    <tag k="bicycle" v="yes"/>
    <tag k="name" v="Praterstern"/>
    <tag k="railway" v="subway_entrance"/>
    <tag k="ref" v="U2"/>
    <tag k="wheelchair" v="yes"/>
  </node>
  <node id="339141936" version="1" timestamp="2009-01-30T16:26:19Z" uid="58091" user="Andreas M" changeset="854885" lat="48.2196677" lon="16.3931114">
    <tag k="bicycle" v="yes"/>
    <tag k="railway" v="subway_entrance"/>
    <tag k="wheelchair" v="yes"/>
  </node>
  <node id="339141936" version="2" timestamp="2009-02-19T11:46:53Z" uid="49642" user="realadry" changeset="562469" lat="48.2196705" lon="16.3931092">
    <tag k="bicycle" v="yes"/>
    <tag k="created_by" v="Potlatch 0.10f"/>
    <tag k="railway" v="subway_entrance"/>
    <tag k="ref" v="U1"/>
    <tag k="wheelchair" v="yes"/>
  </node>
  <node id="339141936" version="3" timestamp="2009-07-23T05:36:33Z" uid="56501" user="Rudolf_H" changeset="1911469" lat="48.2196705" lon="16.3931092">
    <tag k="bicycle" v="yes"/>
    <tag k="railway" v="subway_entrance"/>
    <tag k="ref" v="U1"/>
    <tag k="wheelchair" v="yes"/>
  </node>
  <node id="339141936" version="4" timestamp="2012-02-23T15:22:06Z" uid="99800" user="wolfbert" changeset="10769096" lat="48.2197545" lon="16.3931865">
    <tag k="bicycle" v="yes"/>
    <tag k="railway" v="subway_entrance"/>
    <tag k="ref" v="U1"/>
    <tag k="wheelchair" v="yes"/>
  </node>
  <node id="339141936" version="5" timestamp="2012-03-10T12:02:03Z" uid="99800" user="wolfbert" changeset="10930830" lat="48.2197545" lon="16.3931865">
    <tag k="bicycle" v="yes"/>
    <tag k="railway" v="subway_entrance"/>
    <tag k="ref" v="U1,U2"/>
    <tag k="wheelchair" v="yes"/>
  </node>
  <node id="339141936" version="6" timestamp="2012-03-10T15:15:19Z" uid="99800" user="wolfbert" changeset="10932830" lat="48.2197409" lon="16.3931651">
    <tag k="bicycle" v="yes"/>
    <tag k="railway" v="subway_entrance"/>
    <tag k="ref" v="U1,U2"/>
    <tag k="wheelchair" v="yes"/>
  </node>
  <node id="339141989" version="2" timestamp="2009-07-04T21:01:55Z" uid="9581" user="Lobelt" changeset="1733755" lat="50.9280855" lon="11.579343">
    <tag k="barrier" v="lift gate"/>
  </node>
  <node id="339141989" version="3" timestamp="2009-07-25T08:12:17Z" uid="67602" user="Nop" changeset="1931713" lat="50.9280855" lon="11.579343">
    <tag k="barrier" v="lift_gate"/>
  </node>
  <node id="339142593" version="1" timestamp="2009-01-30T16:28:40Z" uid="58091" user="Andreas M" changeset="854885" lat="48.2084603" lon="16.3538886">
    <tag k="addr:city" v="Wien"/>
    <tag k="addr:housenumber" v="4-6"/>
    <tag k="addr:postcode" v="1080"/>
    <tag k="addr:street" v="Josefsgasse"/>
    <tag k="name" v="Hotel Josefshof"/>
    <tag k="tourism" v="hotel"/>
  </node>
  <node id="339142593" version="2" timestamp="2009-01-30T19:43:47Z" uid="58091" user="Andreas M" changeset="856351" lat="48.2084603" lon="16.3538886">
    <tag k="addr:city" v="Wien"/>
    <tag k="addr:housenumber" v="4-6"/>
    <tag k="addr:postcode" v="1080"/>
    <tag k="addr:street" v="Josefsgasse"/>
    <tag k="name" v="Hotel Josefshof"/>
    <tag k="operator" v="Mercure"/>
    <tag k="tourism" v="hotel"/>
    <tag k="url" v="http://www.josefshof.com"/>
  </node>
  <node id="339142593" version="3" timestamp="2010-09-20T12:48:20Z" uid="65148" user="Pirat Michi" changeset="5828900" lat="48.2084603" lon="16.3538886">
    <tag k="addr:city" v="Wien"/>
    <tag k="addr:housenumber" v="4-6"/>
    <tag k="addr:postcode" v="1080"/>
    <tag k="addr:street" v="Josefsgasse"/>
    <tag k="name" v="Hotel Josefshof"/>
    <tag k="operator" v="Mercure"/>
    <tag k="tourism" v="hotel"/>
    <tag k="website" v="http://www.josefshof.com"/>
  </node>
  <node id="339142593" version="4" timestamp="2011-03-11T07:32:21Z" uid="3486" user="priwo" changeset="7520784" lat="48.2086239" lon="16.3538835">
    <tag k="addr:city" v="Wien"/>
    <tag k="addr:housenumber" v="4-6"/>
    <tag k="addr:postcode" v="1080"/>
    <tag k="addr:street" v="Josefsgasse"/>
    <tag k="name" v="Hotel Josefshof"/>
    <tag k="operator" v="Mercure"/>
    <tag k="tourism" v="hotel"/>
    <tag k="website" v="http://www.josefshof.com"/>
  </node>
  <node id="339142593" version="5" timestamp="2011-03-11T07:33:05Z" uid="3486" user="priwo" changeset="7520784" lat="48.2085703" lon="16.3539667">
    <tag k="addr:city" v="Wien"/>
    <tag k="addr:housenumber" v="4-6"/>
    <tag k="addr:postcode" v="1080"/>
    <tag k="addr:street" v="Josefsgasse"/>
    <tag k="name" v="Hotel Josefshof"/>
    <tag k="operator" v="Mercure"/>
    <tag k="tourism" v="hotel"/>
    <tag k="website" v="http://www.josefshof.com"/>
  </node>
  <node id="339143593" version="2" timestamp="2009-12-09T14:50:19Z" uid="200463" user="harmagedon" changeset="3334003" lat="48.9593837" lon="13.1190329"/>
  <node id="339143595" version="2" timestamp="2009-12-09T14:50:20Z" uid="200463" user="harmagedon" changeset="3334003" lat="48.9593661" lon="13.1195801"/>
  <node id="339143596" version="2" timestamp="2009-12-09T14:50:19Z" uid="200463" user="harmagedon" changeset="3334003" lat="48.9592533" lon="13.120256"/>
  <node id="339143599" version="2" timestamp="2009-12-09T14:50:27Z" uid="200463" user="harmagedon" changeset="3334003" lat="48.9592041" lon="13.1206637"/>
  <node id="339143600" version="2" timestamp="2009-12-09T14:50:22Z" uid="200463" user="harmagedon" changeset="3334003" lat="48.9591653" lon="13.1212323"/>
  <node id="339143602" version="2" timestamp="2009-12-09T14:50:22Z" uid="200463" user="harmagedon" changeset="3334003" lat="48.9591266" lon="13.121758"/>
  <node id="339143603" version="2" timestamp="2009-12-09T14:50:25Z" uid="200463" user="harmagedon" changeset="3334003" lat="48.9590702" lon="13.1219404"/>
  <node id="339143605" version="2" timestamp="2009-12-09T14:50:25Z" uid="200463" user="harmagedon" changeset="3334003" lat="48.9590677" lon="13.1220614"/>
  <node id="339145255" version="2" timestamp="2010-04-12T19:00:28Z" uid="151899" user="Bikeman2000" changeset="4407537" lat="51.1771517" lon="6.8051695"/>
  <node id="339145255" version="3" timestamp="2011-12-17T15:51:42Z" uid="12614" user="rabenkind" changeset="10139243" lat="51.1771517" lon="6.8051695"/>
  <node id="339145374" version="1" timestamp="2009-01-30T16:36:58Z" uid="30632" user="antblant" changeset="855969" lat="53.3677529" lon="14.6494312"/>
  <node id="339145374" version="2" timestamp="2009-01-30T16:42:31Z" uid="30632" user="antblant" changeset="855969" lat="53.3677529" lon="14.6494312"/>
  <node id="339145374" version="3" timestamp="2009-01-30T16:42:32Z" uid="30632" user="antblant" changeset="855969" lat="53.3677529" lon="14.6494312"/>
  <node id="339145374" version="4" timestamp="2010-06-09T18:16:52Z" uid="30632" user="antblant" changeset="4947611" lat="53.3677529" lon="14.6494312"/>
  <node id="339145375" version="1" timestamp="2009-01-30T16:36:58Z" uid="30632" user="antblant" changeset="855969" lat="53.3679238" lon="14.6494015"/>
  <node id="339145375" version="2" timestamp="2009-01-30T16:42:31Z" uid="30632" user="antblant" changeset="855969" lat="53.3679238" lon="14.6494015"/>
  <node id="339145375" version="3" timestamp="2010-06-09T18:17:12Z" uid="30632" user="antblant" changeset="4947611" lat="53.3679238" lon="14.6494015"/>
  <node id="339145376" version="1" timestamp="2009-01-30T16:36:59Z" uid="30632" user="antblant" changeset="855969" lat="53.3679199" lon="14.6492699"/>
  <node id="339145376" version="2" timestamp="2009-01-30T16:42:31Z" uid="30632" user="antblant" changeset="855969" lat="53.3679199" lon="14.6492699"/>
  <node id="339145376" version="3" timestamp="2010-06-09T18:16:46Z" uid="30632" user="antblant" changeset="4947611" lat="53.3679199" lon="14.6492699"/>
  <node id="339145377" version="1" timestamp="2009-01-30T16:36:59Z" uid="30632" user="antblant" changeset="855969" lat="53.3678472" lon="14.6492797"/>
  <node id="339145377" version="2" timestamp="2009-01-30T16:42:31Z" uid="30632" user="antblant" changeset="855969" lat="53.3678472" lon="14.6492797"/>
  <node id="339145377" version="3" timestamp="2010-06-09T18:17:08Z" uid="30632" user="antblant" changeset="4947611" lat="53.3678472" lon="14.6492797"/>
  <node id="339145378" version="1" timestamp="2009-01-30T16:36:59Z" uid="30632" user="antblant" changeset="855969" lat="53.3678158" lon="14.6487366"/>
  <node id="339145378" version="2" timestamp="2009-01-30T16:42:31Z" uid="30632" user="antblant" changeset="855969" lat="53.3678158" lon="14.6487366"/>
  <node id="339145378" version="3" timestamp="2010-06-09T18:17:13Z" uid="30632" user="antblant" changeset="4947611" lat="53.3678158" lon="14.6487366"/>
  <node id="339145381" version="1" timestamp="2009-01-30T16:37:00Z" uid="30632" user="antblant" changeset="855969" lat="53.3678845" lon="14.6487168"/>
  <node id="339145381" version="2" timestamp="2009-01-30T16:42:31Z" uid="30632" user="antblant" changeset="855969" lat="53.3678845" lon="14.6487168"/>
  <node id="339145381" version="3" timestamp="2010-06-09T18:17:23Z" uid="30632" user="antblant" changeset="4947611" lat="53.3678845" lon="14.6487168"/>
  <node id="339145384" version="1" timestamp="2009-01-30T16:37:00Z" uid="30632" user="antblant" changeset="855969" lat="53.3678766" lon="14.6485884"/>
  <node id="339145384" version="2" timestamp="2009-01-30T16:42:31Z" uid="30632" user="antblant" changeset="855969" lat="53.3678766" lon="14.6485884"/>
  <node id="339145384" version="3" timestamp="2010-06-09T18:17:25Z" uid="30632" user="antblant" changeset="4947611" lat="53.3678766" lon="14.6485884"/>
  <node id="339145388" version="1" timestamp="2009-01-30T16:37:00Z" uid="30632" user="antblant" changeset="855969" lat="53.3676984" lon="14.6486258"/>
  <node id="339145388" version="2" timestamp="2009-01-30T16:42:32Z" uid="30632" user="antblant" changeset="855969" lat="53.3676984" lon="14.6486258"/>
  <node id="339145388" version="3" timestamp="2010-06-09T18:17:39Z" uid="30632" user="antblant" changeset="4947611" lat="53.3676984" lon="14.6486258"/>
  <node id="339145391" version="1" timestamp="2009-01-30T16:37:01Z" uid="30632" user="antblant" changeset="855969" lat="53.3678701" lon="14.6493388"/>
  <node id="339145391" version="2" timestamp="2009-01-30T16:45:20Z" uid="30632" user="antblant" changeset="855969" lat="53.3678733" lon="14.6493371">
    <tag k="addr:housenumber" v="8"/>
    <tag k="addr:street" v="Beżowa"/>
    <tag k="created_by" v="Potlatch 0.10f"/>
  </node>
  <node id="339145391" version="3" timestamp="2009-11-03T14:33:19Z" uid="36809" user="pfoten_weg_!_" changeset="3025069" lat="53.3678733" lon="14.6493371">
    <tag k="addr:housenumber" v="8"/>
    <tag k="addr:street" v="Beżowa"/>
  </node>
  <node id="339145391" version="4" timestamp="2010-06-09T18:17:19Z" uid="30632" user="antblant" changeset="4947611" lat="53.3678733" lon="14.6493371">
    <tag k="addr:housenumber" v="8"/>
    <tag k="addr:street" v="Beżowa"/>
  </node>
  <node id="339145394" version="1" timestamp="2009-01-30T16:37:01Z" uid="30632" user="antblant" changeset="855969" lat="53.367763" lon="14.6490202"/>
  <node id="339145394" version="2" timestamp="2009-01-30T16:45:13Z" uid="30632" user="antblant" changeset="855969" lat="53.3677658" lon="14.6490195">
    <tag k="addr:housenumber" v="6"/>
    <tag k="addr:street" v="Beżowa"/>
    <tag k="created_by" v="Potlatch 0.10f"/>
  </node>
  <node id="339145394" version="3" timestamp="2009-11-03T14:33:18Z" uid="36809" user="pfoten_weg_!_" changeset="3025069" lat="53.3677658" lon="14.6490195">
    <tag k="addr:housenumber" v="6"/>
    <tag k="addr:street" v="Beżowa"/>
  </node>
  <node id="339145394" version="4" timestamp="2010-06-09T18:17:20Z" uid="30632" user="antblant" changeset="4947611" lat="53.3677658" lon="14.6490195">
    <tag k="addr:housenumber" v="6"/>
    <tag k="addr:street" v="Beżowa"/>
  </node>
  <node id="339145396" version="1" timestamp="2009-01-30T16:37:01Z" uid="30632" user="antblant" changeset="855969" lat="53.3678233" lon="14.6486638"/>
  <node id="339145396" version="2" timestamp="2009-01-30T16:45:09Z" uid="30632" user="antblant" changeset="855969" lat="53.3678272" lon="14.648659">
    <tag k="addr:housenumber" v="4"/>
    <tag k="addr:street" v="Beżowa"/>
    <tag k="created_by" v="Potlatch 0.10f"/>
  </node>
  <node id="339145396" version="3" timestamp="2009-11-03T14:33:13Z" uid="36809" user="pfoten_weg_!_" changeset="3025069" lat="53.3678272" lon="14.648659">
    <tag k="addr:housenumber" v="4"/>
    <tag k="addr:street" v="Beżowa"/>
  </node>
  <node id="339145396" version="4" timestamp="2010-06-09T18:17:09Z" uid="30632" user="antblant" changeset="4947611" lat="53.3678272" lon="14.648659">
    <tag k="addr:housenumber" v="4"/>
    <tag k="addr:street" v="Beżowa"/>
  </node>
  <node id="339145398" version="1" timestamp="2009-01-30T16:37:01Z" uid="30632" user="antblant" changeset="855969" lat="53.3680379" lon="14.6493913"/>
  <node id="339145398" version="2" timestamp="2009-01-30T16:42:32Z" uid="30632" user="antblant" changeset="855969" lat="53.3680379" lon="14.6493913"/>
  <node id="339145398" version="3" timestamp="2009-01-30T16:42:32Z" uid="30632" user="antblant" changeset="855969" lat="53.3680379" lon="14.6493913"/>
  <node id="339145398" version="4" timestamp="2010-06-09T18:17:36Z" uid="30632" user="antblant" changeset="4947611" lat="53.3680379" lon="14.6493913"/>
  <node id="339145400" version="1" timestamp="2009-01-30T16:37:02Z" uid="30632" user="antblant" changeset="855969" lat="53.3683041" lon="14.6493444"/>
  <node id="339145400" version="2" timestamp="2009-01-30T16:42:32Z" uid="30632" user="antblant" changeset="855969" lat="53.3683041" lon="14.6493444"/>
  <node id="339145400" version="3" timestamp="2010-06-09T18:17:31Z" uid="30632" user="antblant" changeset="4947611" lat="53.3683041" lon="14.6493444"/>
  <node id="339145402" version="1" timestamp="2009-01-30T16:37:02Z" uid="30632" user="antblant" changeset="855969" lat="53.3682929" lon="14.6491661"/>
  <node id="339145402" version="2" timestamp="2009-01-30T16:42:32Z" uid="30632" user="antblant" changeset="855969" lat="53.3682929" lon="14.6491661"/>
  <node id="339145402" version="3" timestamp="2010-06-09T18:16:49Z" uid="30632" user="antblant" changeset="4947611" lat="53.3682929" lon="14.6491661"/>
  <node id="339145403" version="1" timestamp="2009-01-30T16:37:02Z" uid="30632" user="antblant" changeset="855969" lat="53.3680267" lon="14.6492131"/>
  <node id="339145403" version="2" timestamp="2009-01-30T16:42:32Z" uid="30632" user="antblant" changeset="855969" lat="53.3680267" lon="14.6492131"/>
  <node id="339145403" version="3" timestamp="2010-06-09T18:17:10Z" uid="30632" user="antblant" changeset="4947611" lat="53.3680267" lon="14.6492131"/>
  <node id="339145405" version="1" timestamp="2009-01-30T16:37:02Z" uid="30632" user="antblant" changeset="855969" lat="53.3680547" lon="14.6487431"/>
  <node id="339145405" version="2" timestamp="2009-01-30T16:42:50Z" uid="30632" user="antblant" changeset="855969" lat="53.3680547" lon="14.6487431"/>
  <node id="339145405" version="3" timestamp="2009-01-30T16:42:51Z" uid="30632" user="antblant" changeset="855969" lat="53.3680547" lon="14.6487431"/>
  <node id="339145405" version="4" timestamp="2010-06-09T18:16:59Z" uid="30632" user="antblant" changeset="4947611" lat="53.3680547" lon="14.6487431"/>
  <node id="339145407" version="1" timestamp="2009-01-30T16:37:03Z" uid="30632" user="antblant" changeset="855969" lat="53.3683737" lon="14.6486804"/>
  <node id="339145407" version="2" timestamp="2009-01-30T16:42:50Z" uid="30632" user="antblant" changeset="855969" lat="53.3683737" lon="14.6486804"/>
  <node id="339145407" version="3" timestamp="2009-01-30T16:42:59Z" uid="30632" user="antblant" changeset="855969" lat="53.3683737" lon="14.6486804"/>
  <node id="339145407" version="4" timestamp="2009-01-30T16:42:59Z" uid="30632" user="antblant" changeset="855969" lat="53.3683737" lon="14.6486804"/>
  <node id="339145407" version="5" timestamp="2010-06-09T18:17:26Z" uid="30632" user="antblant" changeset="4947611" lat="53.3683737" lon="14.6486804"/>
  <node id="339145408" version="1" timestamp="2009-01-30T16:37:03Z" uid="30632" user="antblant" changeset="855969" lat="53.3683634" lon="14.6484921"/>
  <node id="339145408" version="2" timestamp="2009-01-30T16:42:51Z" uid="30632" user="antblant" changeset="855969" lat="53.3683634" lon="14.6484921"/>
  <node id="339145408" version="3" timestamp="2010-06-09T18:17:14Z" uid="30632" user="antblant" changeset="4947611" lat="53.3683634" lon="14.6484921"/>
  <node id="339145410" version="1" timestamp="2009-01-30T16:37:03Z" uid="30632" user="antblant" changeset="855969" lat="53.3680415" lon="14.6485547"/>
  <node id="339145410" version="2" timestamp="2009-01-30T16:42:51Z" uid="30632" user="antblant" changeset="855969" lat="53.3680415" lon="14.6485547"/>
  <node id="339145410" version="3" timestamp="2010-06-09T18:17:41Z" uid="30632" user="antblant" changeset="4947611" lat="53.3680415" lon="14.6485547"/>
  <node id="339145412" version="1" timestamp="2009-01-30T16:37:03Z" uid="30632" user="antblant" changeset="855969" lat="53.36838" lon="14.6487952"/>
  <node id="339145412" version="2" timestamp="2009-01-30T16:42:59Z" uid="30632" user="antblant" changeset="855969" lat="53.36838" lon="14.6487952"/>
  <node id="339145412" version="3" timestamp="2010-06-09T18:17:30Z" uid="30632" user="antblant" changeset="4947611" lat="53.36838" lon="14.6487952"/>
  <node id="339145414" version="1" timestamp="2009-01-30T16:37:03Z" uid="30632" user="antblant" changeset="855969" lat="53.36845" lon="14.6487806"/>
  <node id="339145414" version="2" timestamp="2009-01-30T16:42:59Z" uid="30632" user="antblant" changeset="855969" lat="53.36845" lon="14.6487806"/>
  <node id="339145414" version="3" timestamp="2010-06-09T18:16:47Z" uid="30632" user="antblant" changeset="4947611" lat="53.36845" lon="14.6487806"/>
  <node id="339145416" version="1" timestamp="2009-01-30T16:37:04Z" uid="30632" user="antblant" changeset="855969" lat="53.368437" lon="14.6485131"/>
  <node id="339145416" version="2" timestamp="2009-01-30T16:42:59Z" uid="30632" user="antblant" changeset="855969" lat="53.368437" lon="14.6485131"/>
  <node id="339145416" version="3" timestamp="2010-06-09T18:16:42Z" uid="30632" user="antblant" changeset="4947611" lat="53.368437" lon="14.6485131"/>
  <node id="339145418" version="1" timestamp="2009-01-30T16:37:04Z" uid="30632" user="antblant" changeset="855969" lat="53.3683647" lon="14.6485168"/>
  <node id="339145418" version="2" timestamp="2009-01-30T16:42:50Z" uid="30632" user="antblant" changeset="855969" lat="53.3683647" lon="14.6485168"/>
  <node id="339145418" version="3" timestamp="2009-01-30T16:42:59Z" uid="30632" user="antblant" changeset="855969" lat="53.3683647" lon="14.6485168"/>
  <node id="339145418" version="4" timestamp="2010-06-09T18:17:10Z" uid="30632" user="antblant" changeset="4947611" lat="53.3683647" lon="14.6485168"/>
  <node id="339145419" version="1" timestamp="2009-01-30T16:37:04Z" uid="30632" user="antblant" changeset="855969" lat="53.3680894" lon="14.6492847"/>
  <node id="339145419" version="2" timestamp="2009-01-30T16:45:24Z" uid="30632" user="antblant" changeset="855969" lat="53.3680936" lon="14.649277">
    <tag k="addr:housenumber" v="10"/>
    <tag k="addr:street" v="Beżowa"/>
    <tag k="created_by" v="Potlatch 0.10f"/>
  </node>
  <node id="339145419" version="3" timestamp="2009-11-03T14:33:19Z" uid="36809" user="pfoten_weg_!_" changeset="3025069" lat="53.3680936" lon="14.649277">
    <tag k="addr:housenumber" v="10"/>
    <tag k="addr:street" v="Beżowa"/>
  </node>
  <node id="339145419" version="4" timestamp="2010-06-09T18:17:31Z" uid="30632" user="antblant" changeset="4947611" lat="53.3680936" lon="14.649277">
    <tag k="addr:housenumber" v="10"/>
    <tag k="addr:street" v="Beżowa"/>
  </node>
  <node id="339145421" version="1" timestamp="2009-01-30T16:37:04Z" uid="30632" user="antblant" changeset="855969" lat="53.3682391" lon="14.6492584"/>
  <node id="339145421" version="2" timestamp="2009-01-30T16:45:33Z" uid="30632" user="antblant" changeset="855969" lat="53.3682369" lon="14.6492513">
    <tag k="addr:housenumber" v="12"/>
    <tag k="addr:street" v="Beżowa"/>
    <tag k="created_by" v="Potlatch 0.10f"/>
  </node>
  <node id="339145421" version="3" timestamp="2009-11-03T14:33:20Z" uid="36809" user="pfoten_weg_!_" changeset="3025069" lat="53.3682369" lon="14.6492513">
    <tag k="addr:housenumber" v="12"/>
    <tag k="addr:street" v="Beżowa"/>
  </node>
  <node id="339145421" version="4" timestamp="2010-06-09T18:17:20Z" uid="30632" user="antblant" changeset="4947611" lat="53.3682369" lon="14.6492513">
    <tag k="addr:housenumber" v="12"/>
    <tag k="addr:street" v="Beżowa"/>
  </node>
  <node id="339145423" version="1" timestamp="2009-01-30T16:37:05Z" uid="30632" user="antblant" changeset="855969" lat="53.368087" lon="14.6486334"/>
  <node id="339145423" version="2" timestamp="2009-01-30T16:45:47Z" uid="30632" user="antblant" changeset="855969" lat="53.3680884" lon="14.6486333">
    <tag k="addr:housenumber" v="16"/>
    <tag k="addr:street" v="Beżowa"/>
    <tag k="created_by" v="Potlatch 0.10f"/>
  </node>
  <node id="339145423" version="3" timestamp="2009-11-03T14:33:12Z" uid="36809" user="pfoten_weg_!_" changeset="3025069" lat="53.3680884" lon="14.6486333">
    <tag k="addr:housenumber" v="16"/>
    <tag k="addr:street" v="Beżowa"/>
  </node>
  <node id="339145423" version="4" timestamp="2010-06-09T18:16:32Z" uid="30632" user="antblant" changeset="4947611" lat="53.3680884" lon="14.6486333">
    <tag k="addr:housenumber" v="16"/>
    <tag k="addr:street" v="Beżowa"/>
  </node>
  <node id="339145424" version="1" timestamp="2009-01-30T16:37:05Z" uid="30632" user="antblant" changeset="855969" lat="53.3682487" lon="14.648599"/>
  <node id="339145424" version="2" timestamp="2009-01-30T16:45:40Z" uid="30632" user="antblant" changeset="855969" lat="53.3682472" lon="14.6485989">
    <tag k="addr:housenumber" v="18"/>
    <tag k="addr:street" v="Beżowa"/>
    <tag k="created_by" v="Potlatch 0.10f"/>
  </node>
  <node id="339145424" version="3" timestamp="2009-11-03T14:33:18Z" uid="36809" user="pfoten_weg_!_" changeset="3025069" lat="53.3682472" lon="14.6485989">
    <tag k="addr:housenumber" v="18"/>
    <tag k="addr:street" v="Beżowa"/>
  </node>
  <node id="339145424" version="4" timestamp="2010-06-09T18:17:21Z" uid="30632" user="antblant" changeset="4947611" lat="53.3682472" lon="14.6485989">
    <tag k="addr:housenumber" v="18"/>
    <tag k="addr:street" v="Beżowa"/>
  </node>
  <node id="339145426" version="1" timestamp="2009-01-30T16:37:05Z" uid="30632" user="antblant" changeset="855969" lat="53.368402" lon="14.6486274"/>
  <node id="339145426" version="2" timestamp="2009-01-30T16:45:36Z" uid="30632" user="antblant" changeset="855969" lat="53.3684008" lon="14.6486247">
    <tag k="addr:housenumber" v="20"/>
    <tag k="addr:street" v="Beżowa"/>
    <tag k="created_by" v="Potlatch 0.10f"/>
  </node>
  <node id="339145426" version="3" timestamp="2009-11-03T14:33:17Z" uid="36809" user="pfoten_weg_!_" changeset="3025069" lat="53.3684008" lon="14.6486247">
    <tag k="addr:housenumber" v="20"/>
    <tag k="addr:street" v="Beżowa"/>
  </node>
  <node id="339145426" version="4" timestamp="2010-06-09T18:16:35Z" uid="30632" user="antblant" changeset="4947611" lat="53.3684008" lon="14.6486247">
    <tag k="addr:housenumber" v="20"/>
    <tag k="addr:street" v="Beżowa"/>
  </node>
  <node id="339145428" version="1" timestamp="2009-01-30T16:37:05Z" uid="30632" user="antblant" changeset="855969" lat="53.3681876" lon="14.6479763"/>
  <node id="339145428" version="2" timestamp="2009-01-30T16:43:00Z" uid="30632" user="antblant" changeset="855969" lat="53.3681876" lon="14.6479763"/>
  <node id="339145428" version="3" timestamp="2009-01-30T16:43:00Z" uid="30632" user="antblant" changeset="855969" lat="53.3681876" lon="14.6479763"/>
  <node id="339145428" version="4" timestamp="2010-06-09T18:17:37Z" uid="30632" user="antblant" changeset="4947611" lat="53.3681876" lon="14.6479763"/>
  <node id="339145429" version="1" timestamp="2009-01-30T16:37:05Z" uid="30632" user="antblant" changeset="855969" lat="53.3684594" lon="14.6479241"/>
  <node id="339145429" version="2" timestamp="2009-01-30T16:43:00Z" uid="30632" user="antblant" changeset="855969" lat="53.3684594" lon="14.6479241"/>
  <node id="339145429" version="3" timestamp="2010-06-09T18:16:50Z" uid="30632" user="antblant" changeset="4947611" lat="53.3684594" lon="14.6479241"/>
  <node id="339145431" version="1" timestamp="2009-01-30T16:37:05Z" uid="30632" user="antblant" changeset="855969" lat="53.3684462" lon="14.6477316"/>
  <node id="339145431" version="2" timestamp="2009-01-30T16:43:00Z" uid="30632" user="antblant" changeset="855969" lat="53.3684462" lon="14.6477316"/>
  <node id="339145431" version="3" timestamp="2010-06-09T18:17:16Z" uid="30632" user="antblant" changeset="4947611" lat="53.3684462" lon="14.6477316"/>
  <node id="339145432" version="1" timestamp="2009-01-30T16:37:06Z" uid="30632" user="antblant" changeset="855969" lat="53.3681744" lon="14.6477838"/>
  <node id="339145432" version="2" timestamp="2009-01-30T16:43:00Z" uid="30632" user="antblant" changeset="855969" lat="53.3681744" lon="14.6477838"/>
  <node id="339145432" version="3" timestamp="2010-06-09T18:16:51Z" uid="30632" user="antblant" changeset="4947611" lat="53.3681744" lon="14.6477838"/>
  <node id="339145434" version="1" timestamp="2009-01-30T16:37:06Z" uid="30632" user="antblant" changeset="855969" lat="53.3682478" lon="14.6478743"/>
  <node id="339145434" version="2" timestamp="2009-01-30T16:44:49Z" uid="30632" user="antblant" changeset="855969" lat="53.3682472" lon="14.647878">
    <tag k="addr:housenumber" v="17"/>
    <tag k="addr:street" v="Beżowa"/>
    <tag k="created_by" v="Potlatch 0.10f"/>
  </node>
  <node id="339145434" version="3" timestamp="2009-11-03T14:33:16Z" uid="36809" user="pfoten_weg_!_" changeset="3025069" lat="53.3682472" lon="14.647878">
    <tag k="addr:housenumber" v="17"/>
    <tag k="addr:street" v="Beżowa"/>
  </node>
  <node id="339145434" version="4" timestamp="2010-06-09T18:17:17Z" uid="30632" user="antblant" changeset="4947611" lat="53.3682472" lon="14.647878">
    <tag k="addr:housenumber" v="17"/>
    <tag k="addr:street" v="Beżowa"/>
  </node>
  <node id="339145435" version="1" timestamp="2009-01-30T16:37:06Z" uid="30632" user="antblant" changeset="855969" lat="53.3683868" lon="14.6478365"/>
  <node id="339145435" version="2" timestamp="2009-01-30T16:45:06Z" uid="30632" user="antblant" changeset="855969" lat="53.3683855" lon="14.6478436">
    <tag k="addr:housenumber" v="19"/>
    <tag k="addr:street" v="Beżowa"/>
    <tag k="created_by" v="Potlatch 0.10f"/>
  </node>
  <node id="339145435" version="3" timestamp="2009-11-03T14:33:14Z" uid="36809" user="pfoten_weg_!_" changeset="3025069" lat="53.3683855" lon="14.6478436">
    <tag k="addr:housenumber" v="19"/>
    <tag k="addr:street" v="Beżowa"/>
  </node>
  <node id="339145435" version="4" timestamp="2010-06-09T18:17:38Z" uid="30632" user="antblant" changeset="4947611" lat="53.3683855" lon="14.6478436">
    <tag k="addr:housenumber" v="19"/>
    <tag k="addr:street" v="Beżowa"/>
  </node>
  <node id="339145437" version="1" timestamp="2009-01-30T16:37:06Z" uid="30632" user="antblant" changeset="855969" lat="53.3679797" lon="14.6472724"/>
  <node id="339145437" version="2" timestamp="2009-01-30T16:43:20Z" uid="30632" user="antblant" changeset="855969" lat="53.3679797" lon="14.6472724"/>
  <node id="339145437" version="3" timestamp="2010-06-09T18:17:27Z" uid="30632" user="antblant" changeset="4947611" lat="53.3679797" lon="14.6472724"/>
  <node id="339145439" version="1" timestamp="2009-01-30T16:37:07Z" uid="30632" user="antblant" changeset="855969" lat="53.3678015" lon="14.6473098"/>
  <node id="339145439" version="2" timestamp="2009-01-30T16:43:20Z" uid="30632" user="antblant" changeset="855969" lat="53.3678015" lon="14.6473098"/>
  <node id="339145439" version="3" timestamp="2010-06-09T18:16:44Z" uid="30632" user="antblant" changeset="4947611" lat="53.3678015" lon="14.6473098"/>
  <node id="339145440" version="1" timestamp="2009-01-30T16:37:07Z" uid="30632" user="antblant" changeset="855969" lat="53.3680269" lon="14.6480855"/>
  <node id="339145440" version="2" timestamp="2009-01-30T16:43:20Z" uid="30632" user="antblant" changeset="855969" lat="53.3680269" lon="14.6480855"/>
  <node id="339145440" version="3" timestamp="2010-06-09T18:17:28Z" uid="30632" user="antblant" changeset="4947611" lat="53.3680269" lon="14.6480855"/>
  <node id="339145442" version="1" timestamp="2009-01-30T16:37:07Z" uid="30632" user="antblant" changeset="855969" lat="53.3679188" lon="14.6474205"/>
  <node id="339145442" version="2" timestamp="2009-01-30T16:43:20Z" uid="30632" user="antblant" changeset="855969" lat="53.3679188" lon="14.6474205"/>
  <node id="339145442" version="3" timestamp="2010-06-09T18:16:45Z" uid="30632" user="antblant" changeset="4947611" lat="53.3679188" lon="14.6474205"/>
  <node id="339145443" version="1" timestamp="2009-01-30T16:37:07Z" uid="30632" user="antblant" changeset="855969" lat="53.367856" lon="14.6481151"/>
  <node id="339145443" version="2" timestamp="2009-01-30T16:43:20Z" uid="30632" user="antblant" changeset="855969" lat="53.367856" lon="14.6481151"/>
  <node id="339145443" version="3" timestamp="2009-01-30T16:43:20Z" uid="30632" user="antblant" changeset="855969" lat="53.367856" lon="14.6481151"/>
  <node id="339145443" version="4" timestamp="2010-06-09T18:17:08Z" uid="30632" user="antblant" changeset="4947611" lat="53.367856" lon="14.6481151"/>
  <node id="339145445" version="1" timestamp="2009-01-30T16:37:07Z" uid="30632" user="antblant" changeset="855969" lat="53.3679876" lon="14.6474008"/>
  <node id="339145445" version="2" timestamp="2009-01-30T16:43:20Z" uid="30632" user="antblant" changeset="855969" lat="53.3679876" lon="14.6474008"/>
  <node id="339145445" version="3" timestamp="2010-06-09T18:16:57Z" uid="30632" user="antblant" changeset="4947611" lat="53.3679876" lon="14.6474008"/>
  <node id="339145446" version="1" timestamp="2009-01-30T16:37:07Z" uid="30632" user="antblant" changeset="855969" lat="53.3679503" lon="14.6479637"/>
  <node id="339145446" version="2" timestamp="2009-01-30T16:43:20Z" uid="30632" user="antblant" changeset="855969" lat="53.3679503" lon="14.6479637"/>
  <node id="339145446" version="3" timestamp="2010-06-09T18:17:02Z" uid="30632" user="antblant" changeset="4947611" lat="53.3679503" lon="14.6479637"/>
  <node id="339145448" version="1" timestamp="2009-01-30T16:37:08Z" uid="30632" user="antblant" changeset="855969" lat="53.3680229" lon="14.6479538"/>
  <node id="339145448" version="2" timestamp="2009-01-30T16:43:20Z" uid="30632" user="antblant" changeset="855969" lat="53.3680229" lon="14.6479538"/>
  <node id="339145448" version="3" timestamp="2010-06-09T18:16:58Z" uid="30632" user="antblant" changeset="4947611" lat="53.3680229" lon="14.6479538"/>
  <node id="339145450" version="1" timestamp="2009-01-30T16:37:08Z" uid="30632" user="antblant" changeset="855969" lat="53.3683386" lon="14.6475325"/>
  <node id="339145450" version="2" timestamp="2009-01-30T16:43:23Z" uid="30632" user="antblant" changeset="855969" lat="53.3683386" lon="14.6475325"/>
  <node id="339145450" version="3" timestamp="2009-01-30T16:43:24Z" uid="30632" user="antblant" changeset="855969" lat="53.3683386" lon="14.6475325"/>
  <node id="339145450" version="4" timestamp="2010-06-09T18:17:24Z" uid="30632" user="antblant" changeset="4947611" lat="53.3683386" lon="14.6475325"/>
  <node id="339145451" version="1" timestamp="2009-01-30T16:37:08Z" uid="30632" user="antblant" changeset="855969" lat="53.3683658" lon="14.6473582"/>
  <node id="339145451" version="2" timestamp="2009-01-30T16:43:23Z" uid="30632" user="antblant" changeset="855969" lat="53.3683658" lon="14.6473582"/>
  <node id="339145451" version="3" timestamp="2010-06-09T18:17:44Z" uid="30632" user="antblant" changeset="4947611" lat="53.3683658" lon="14.6473582"/>
  <node id="339145453" version="1" timestamp="2009-01-30T16:37:08Z" uid="30632" user="antblant" changeset="855969" lat="53.36811" lon="14.6472464"/>
  <node id="339145453" version="2" timestamp="2009-01-30T16:43:23Z" uid="30632" user="antblant" changeset="855969" lat="53.36811" lon="14.6472464"/>
  <node id="339145453" version="3" timestamp="2010-06-09T18:17:34Z" uid="30632" user="antblant" changeset="4947611" lat="53.36811" lon="14.6472464"/>
  <node id="339145455" version="1" timestamp="2009-01-30T16:37:08Z" uid="30632" user="antblant" changeset="855969" lat="53.3680829" lon="14.6474207"/>
  <node id="339145455" version="2" timestamp="2009-01-30T16:43:23Z" uid="30632" user="antblant" changeset="855969" lat="53.3680829" lon="14.6474207"/>
  <node id="339145455" version="3" timestamp="2010-06-09T18:16:52Z" uid="30632" user="antblant" changeset="4947611" lat="53.3680829" lon="14.6474207"/>
  <node id="339145456" version="1" timestamp="2009-01-30T16:37:09Z" uid="30632" user="antblant" changeset="855969" lat="53.3678794" lon="14.6476908"/>
  <node id="339145456" version="2" timestamp="2009-01-30T16:44:18Z" uid="30632" user="antblant" changeset="855969" lat="53.3678836" lon="14.6476977">
    <tag k="addr:housenumber" v="7"/>
    <tag k="addr:street" v="Beżowa"/>
    <tag k="created_by" v="Potlatch 0.10f"/>
  </node>
  <node id="339145456" version="3" timestamp="2009-11-03T14:33:11Z" uid="36809" user="pfoten_weg_!_" changeset="3025069" lat="53.3678836" lon="14.6476977">
    <tag k="addr:housenumber" v="7"/>
    <tag k="addr:street" v="Beżowa"/>
  </node>
  <node id="339145456" version="4" timestamp="2010-06-09T18:17:35Z" uid="30632" user="antblant" changeset="4947611" lat="53.3678836" lon="14.6476977">
    <tag k="addr:housenumber" v="7"/>
    <tag k="addr:street" v="Beżowa"/>
  </node>
  <node id="339145458" version="1" timestamp="2009-01-30T16:37:09Z" uid="30632" user="antblant" changeset="855969" lat="53.3679454" lon="14.6473355"/>
  <node id="339145458" version="2" timestamp="2009-01-30T16:44:22Z" uid="30632" user="antblant" changeset="855969" lat="53.3679502" lon="14.6473372">
    <tag k="addr:housenumber" v="5"/>
    <tag k="addr:street" v="Beżowa"/>
    <tag k="created_by" v="Potlatch 0.10f"/>
  </node>
  <node id="339145458" version="3" timestamp="2009-11-03T14:32:34Z" uid="36809" user="pfoten_weg_!_" changeset="3025069" lat="53.3679502" lon="14.6473372">
    <tag k="addr:housenumber" v="5"/>
    <tag k="addr:street" v="Beżowa"/>
  </node>
  <node id="339145458" version="4" timestamp="2010-06-09T18:16:53Z" uid="30632" user="antblant" changeset="4947611" lat="53.3679502" lon="14.6473372">
    <tag k="addr:housenumber" v="5"/>
    <tag k="addr:street" v="Beżowa"/>
  </node>
  <node id="339145460" version="1" timestamp="2009-01-30T16:37:09Z" uid="30632" user="antblant" changeset="855969" lat="53.3679871" lon="14.64802"/>
  <node id="339145460" version="2" timestamp="2009-01-30T16:44:30Z" uid="30632" user="antblant" changeset="855969" lat="53.3679911" lon="14.6480239">
    <tag k="addr:housenumber" v="9"/>
    <tag k="addr:street" v="Beżowa"/>
    <tag k="created_by" v="Potlatch 0.10f"/>
  </node>
  <node id="339145460" version="3" timestamp="2009-11-03T14:33:11Z" uid="36809" user="pfoten_weg_!_" changeset="3025069" lat="53.3679911" lon="14.6480239">
    <tag k="addr:housenumber" v="9"/>
    <tag k="addr:street" v="Beżowa"/>
  </node>
  <node id="339145460" version="4" timestamp="2010-06-09T18:16:39Z" uid="30632" user="antblant" changeset="4947611" lat="53.3679911" lon="14.6480239">
    <tag k="addr:housenumber" v="9"/>
    <tag k="addr:street" v="Beżowa"/>
  </node>
  <node id="339145461" version="1" timestamp="2009-01-30T16:37:09Z" uid="30632" user="antblant" changeset="855969" lat="53.3681401" lon="14.6473443"/>
  <node id="339145461" version="2" timestamp="2009-01-30T16:44:34Z" uid="30632" user="antblant" changeset="855969" lat="53.3681396" lon="14.6473458">
    <tag k="addr:housenumber" v="13"/>
    <tag k="addr:street" v="Beżowa"/>
    <tag k="created_by" v="Potlatch 0.10f"/>
  </node>
  <node id="339145461" version="3" timestamp="2009-11-03T14:32:35Z" uid="36809" user="pfoten_weg_!_" changeset="3025069" lat="53.3681396" lon="14.6473458">
    <tag k="addr:housenumber" v="13"/>
    <tag k="addr:street" v="Beżowa"/>
  </node>
  <node id="339145461" version="4" timestamp="2010-06-09T18:17:03Z" uid="30632" user="antblant" changeset="4947611" lat="53.3681396" lon="14.6473458">
    <tag k="addr:housenumber" v="13"/>
    <tag k="addr:street" v="Beżowa"/>
  </node>
  <node id="339145463" version="1" timestamp="2009-01-30T16:37:10Z" uid="30632" user="antblant" changeset="855969" lat="53.3682878" lon="14.64742"/>
  <node id="339145463" version="2" timestamp="2009-01-30T16:44:45Z" uid="30632" user="antblant" changeset="855969" lat="53.368283" lon="14.6474231">
    <tag k="addr:housenumber" v="15"/>
    <tag k="addr:street" v="Beżowa"/>
    <tag k="created_by" v="Potlatch 0.10f"/>
  </node>
  <node id="339145463" version="3" timestamp="2009-11-03T14:32:35Z" uid="36809" user="pfoten_weg_!_" changeset="3025069" lat="53.368283" lon="14.6474231">
    <tag k="addr:housenumber" v="15"/>
    <tag k="addr:street" v="Beżowa"/>
  </node>
  <node id="339145463" version="4" timestamp="2010-06-09T18:17:29Z" uid="30632" user="antblant" changeset="4947611" lat="53.368283" lon="14.6474231">
    <tag k="addr:housenumber" v="15"/>
    <tag k="addr:street" v="Beżowa"/>
  </node>
  <node id="339146577" version="1" timestamp="2009-01-30T16:40:09Z" uid="30632" user="antblant" changeset="855969" lat="53.3679994" lon="14.6503715"/>
  <node id="339146577" version="2" timestamp="2009-01-30T16:42:27Z" uid="30632" user="antblant" changeset="855969" lat="53.3679994" lon="14.6503715"/>
  <node id="339146577" version="3" timestamp="2009-01-30T16:42:27Z" uid="30632" user="antblant" changeset="855969" lat="53.3679994" lon="14.6503715"/>
  <node id="339146577" version="4" timestamp="2010-06-09T18:17:19Z" uid="30632" user="antblant" changeset="4947611" lat="53.3679994" lon="14.6503715"/>
  <node id="339146579" version="1" timestamp="2009-01-30T16:40:09Z" uid="30632" user="antblant" changeset="855969" lat="53.3675834" lon="14.6504452"/>
  <node id="339146579" version="2" timestamp="2009-01-30T16:42:27Z" uid="30632" user="antblant" changeset="855969" lat="53.3675834" lon="14.6504452"/>
  <node id="339146579" version="3" timestamp="2010-06-09T18:17:44Z" uid="30632" user="antblant" changeset="4947611" lat="53.3675834" lon="14.6504452"/>
  <node id="339146582" version="1" timestamp="2009-01-30T16:40:09Z" uid="30632" user="antblant" changeset="855969" lat="53.3675698" lon="14.6502481"/>
  <node id="339146582" version="2" timestamp="2009-01-30T16:42:26Z" uid="30632" user="antblant" changeset="855969" lat="53.3675698" lon="14.6502481"/>
  <node id="339146582" version="3" timestamp="2009-01-30T16:42:26Z" uid="30632" user="antblant" changeset="855969" lat="53.3675698" lon="14.6502481"/>
  <node id="339146582" version="4" timestamp="2009-01-30T16:42:27Z" uid="30632" user="antblant" changeset="855969" lat="53.3675698" lon="14.6502481"/>
  <node id="339146582" version="5" timestamp="2010-06-09T18:17:39Z" uid="30632" user="antblant" changeset="4947611" lat="53.3675698" lon="14.6502481"/>
  <node id="339146585" version="1" timestamp="2009-01-30T16:40:09Z" uid="30632" user="antblant" changeset="855969" lat="53.3679868" lon="14.6501731"/>
  <node id="339146585" version="2" timestamp="2009-01-30T16:42:27Z" uid="30632" user="antblant" changeset="855969" lat="53.3679868" lon="14.6501731"/>
  <node id="339146585" version="3" timestamp="2010-06-09T18:16:47Z" uid="30632" user="antblant" changeset="4947611" lat="53.3679868" lon="14.6501731"/>
  <node id="339146588" version="1" timestamp="2009-01-30T16:40:09Z" uid="30632" user="antblant" changeset="855969" lat="53.3674393" lon="14.6502744"/>
  <node id="339146588" version="2" timestamp="2009-01-30T16:42:25Z" uid="30632" user="antblant" changeset="855969" lat="53.3674393" lon="14.6502744"/>
  <node id="339146588" version="3" timestamp="2009-01-30T16:42:26Z" uid="30632" user="antblant" changeset="855969" lat="53.3674393" lon="14.6502744"/>
  <node id="339146588" version="4" timestamp="2010-06-09T18:16:40Z" uid="30632" user="antblant" changeset="4947611" lat="53.3674393" lon="14.6502744"/>
  <node id="339146590" version="1" timestamp="2009-01-30T16:40:09Z" uid="30632" user="antblant" changeset="855969" lat="53.367454" lon="14.6504485"/>
  <node id="339146590" version="2" timestamp="2009-01-30T16:42:26Z" uid="30632" user="antblant" changeset="855969" lat="53.367454" lon="14.6504485"/>
  <node id="339146590" version="3" timestamp="2010-06-09T18:17:09Z" uid="30632" user="antblant" changeset="4947611" lat="53.367454" lon="14.6504485"/>
  <node id="339146594" version="1" timestamp="2009-01-30T16:40:10Z" uid="30632" user="antblant" changeset="855969" lat="53.3675823" lon="14.6504228"/>
  <node id="339146594" version="2" timestamp="2009-01-30T16:42:26Z" uid="30632" user="antblant" changeset="855969" lat="53.3675823" lon="14.6504228"/>
  <node id="339146594" version="3" timestamp="2009-01-30T16:42:27Z" uid="30632" user="antblant" changeset="855969" lat="53.3675823" lon="14.6504228"/>
  <node id="339146594" version="4" timestamp="2010-06-09T18:17:31Z" uid="30632" user="antblant" changeset="4947611" lat="53.3675823" lon="14.6504228"/>
  <node id="339146600" version="1" timestamp="2009-01-30T16:40:10Z" uid="30632" user="antblant" changeset="855969" lat="53.3674276" lon="14.6501544"/>
  <node id="339146600" version="2" timestamp="2009-01-30T16:42:25Z" uid="30632" user="antblant" changeset="855969" lat="53.3674276" lon="14.6501544"/>
  <node id="339146600" version="3" timestamp="2009-01-30T16:42:25Z" uid="30632" user="antblant" changeset="855969" lat="53.3674276" lon="14.6501544"/>
  <node id="339146600" version="4" timestamp="2010-06-09T18:17:42Z" uid="30632" user="antblant" changeset="4947611" lat="53.3674276" lon="14.6501544"/>
  <node id="339146601" version="1" timestamp="2009-01-30T16:40:10Z" uid="30632" user="antblant" changeset="855969" lat="53.3673243" lon="14.650174"/>
  <node id="339146601" version="2" timestamp="2009-01-30T16:42:25Z" uid="30632" user="antblant" changeset="855969" lat="53.3673243" lon="14.650174"/>
  <node id="339146601" version="3" timestamp="2010-06-09T18:16:55Z" uid="30632" user="antblant" changeset="4947611" lat="53.3673243" lon="14.650174"/>
  <node id="339146603" version="1" timestamp="2009-01-30T16:40:10Z" uid="30632" user="antblant" changeset="855969" lat="53.3673403" lon="14.6503925"/>
  <node id="339146603" version="2" timestamp="2009-01-30T16:42:25Z" uid="30632" user="antblant" changeset="855969" lat="53.3673403" lon="14.6503925"/>
  <node id="339146603" version="3" timestamp="2010-06-09T18:17:21Z" uid="30632" user="antblant" changeset="4947611" lat="53.3673403" lon="14.6503925"/>
  <node id="339146604" version="1" timestamp="2009-01-30T16:40:10Z" uid="30632" user="antblant" changeset="855969" lat="53.3674473" lon="14.6503636"/>
  <node id="339146604" version="2" timestamp="2009-01-30T16:42:25Z" uid="30632" user="antblant" changeset="855969" lat="53.3674473" lon="14.6503636"/>
  <node id="339146604" version="3" timestamp="2009-01-30T16:42:26Z" uid="30632" user="antblant" changeset="855969" lat="53.3674473" lon="14.6503636"/>
  <node id="339146604" version="4" timestamp="2010-06-09T18:16:49Z" uid="30632" user="antblant" changeset="4947611" lat="53.3674473" lon="14.6503636"/>
  <node id="339146609" version="1" timestamp="2009-01-30T16:40:10Z" uid="30632" user="antblant" changeset="855969" lat="53.3673723" lon="14.6502771"/>
  <node id="339146609" version="2" timestamp="2009-01-30T16:46:39Z" uid="30632" user="antblant" changeset="855969" lat="53.3673766" lon="14.6502726">
    <tag k="addr:housenumber" v="44"/>
    <tag k="addr:street" v="Brązowa"/>
    <tag k="created_by" v="Potlatch 0.10f"/>
  </node>
  <node id="339146609" version="3" timestamp="2009-01-30T16:46:57Z" uid="30632" user="antblant" changeset="855969" lat="53.3673766" lon="14.6502726">
    <tag k="addr:housenumber" v="58"/>
    <tag k="addr:street" v="Brązowa"/>
    <tag k="created_by" v="Potlatch 0.10f"/>
  </node>
  <node id="339146609" version="4" timestamp="2009-11-03T14:33:23Z" uid="36809" user="pfoten_weg_!_" changeset="3025069" lat="53.3673766" lon="14.6502726">
    <tag k="addr:housenumber" v="58"/>
    <tag k="addr:street" v="Brązowa"/>
  </node>
  <node id="339146609" version="5" timestamp="2010-06-09T18:17:33Z" uid="30632" user="antblant" changeset="4947611" lat="53.3673766" lon="14.6502726">
    <tag k="addr:housenumber" v="58"/>
    <tag k="addr:street" v="Brązowa"/>
  </node>
  <node id="339146610" version="1" timestamp="2009-01-30T16:40:11Z" uid="30632" user="antblant" changeset="855969" lat="53.3675064" lon="14.6503554"/>
  <node id="339146610" version="2" timestamp="2009-01-30T16:46:36Z" uid="30632" user="antblant" changeset="855969" lat="53.3675097" lon="14.6503499">
    <tag k="addr:housenumber" v="44"/>
    <tag k="addr:street" v="Brązowa"/>
    <tag k="created_by" v="Potlatch 0.10f"/>
  </node>
  <node id="339146610" version="3" timestamp="2009-01-30T16:46:53Z" uid="30632" user="antblant" changeset="855969" lat="53.3675097" lon="14.6503499">
    <tag k="addr:housenumber" v="56"/>
    <tag k="addr:street" v="Brązowa"/>
    <tag k="created_by" v="Potlatch 0.10f"/>
  </node>
  <node id="339146610" version="4" timestamp="2009-11-03T14:33:39Z" uid="36809" user="pfoten_weg_!_" changeset="3025069" lat="53.3675097" lon="14.6503499">
    <tag k="addr:housenumber" v="56"/>
    <tag k="addr:street" v="Brązowa"/>
  </node>
  <node id="339146610" version="5" timestamp="2010-06-09T18:17:38Z" uid="30632" user="antblant" changeset="4947611" lat="53.3675097" lon="14.6503499">
    <tag k="addr:housenumber" v="56"/>
    <tag k="addr:street" v="Brązowa"/>
  </node>
  <node id="339146612" version="1" timestamp="2009-01-30T16:40:11Z" uid="30632" user="antblant" changeset="855969" lat="53.3676417" lon="14.6503513"/>
  <node id="339146612" version="2" timestamp="2009-01-30T16:46:32Z" uid="30632" user="antblant" changeset="855969" lat="53.3676429" lon="14.6503499">
    <tag k="addr:housenumber" v="46"/>
    <tag k="addr:street" v="Brązowa"/>
    <tag k="created_by" v="Potlatch 0.10f"/>
  </node>
  <node id="339146612" version="3" timestamp="2009-01-30T16:46:47Z" uid="30632" user="antblant" changeset="855969" lat="53.3676429" lon="14.6503499">
    <tag k="addr:housenumber" v="54"/>
    <tag k="addr:street" v="Brązowa"/>
    <tag k="created_by" v="Potlatch 0.10f"/>
  </node>
  <node id="339146612" version="4" timestamp="2009-11-03T14:33:39Z" uid="36809" user="pfoten_weg_!_" changeset="3025069" lat="53.3676429" lon="14.6503499">
    <tag k="addr:housenumber" v="54"/>
    <tag k="addr:street" v="Brązowa"/>
  </node>
  <node id="339146612" version="5" timestamp="2010-06-09T18:17:27Z" uid="30632" user="antblant" changeset="4947611" lat="53.3676429" lon="14.6503499">
    <tag k="addr:housenumber" v="54"/>
    <tag k="addr:street" v="Brązowa"/>
  </node>
  <node id="339146614" version="1" timestamp="2009-01-30T16:40:11Z" uid="30632" user="antblant" changeset="855969" lat="53.3677831" lon="14.6503204"/>
  <node id="339146614" version="2" timestamp="2009-01-30T16:46:29Z" uid="30632" user="antblant" changeset="855969" lat="53.3677863" lon="14.6503156">
    <tag k="addr:housenumber" v="48"/>
    <tag k="addr:street" v="Brązowa"/>
    <tag k="created_by" v="Potlatch 0.10f"/>
  </node>
  <node id="339146614" version="3" timestamp="2009-01-30T16:46:42Z" uid="30632" user="antblant" changeset="855969" lat="53.3677863" lon="14.6503156">
    <tag k="addr:housenumber" v="52"/>
    <tag k="addr:street" v="Brązowa"/>
    <tag k="created_by" v="Potlatch 0.10f"/>
  </node>
  <node id="339146614" version="4" timestamp="2009-11-03T14:33:40Z" uid="36809" user="pfoten_weg_!_" changeset="3025069" lat="53.3677863" lon="14.6503156">
    <tag k="addr:housenumber" v="52"/>
    <tag k="addr:street" v="Brązowa"/>
  </node>
  <node id="339146614" version="5" timestamp="2010-06-09T18:16:43Z" uid="30632" user="antblant" changeset="4947611" lat="53.3677863" lon="14.6503156">
    <tag k="addr:housenumber" v="52"/>
    <tag k="addr:street" v="Brązowa"/>
  </node>
  <node id="339146615" version="1" timestamp="2009-01-30T16:40:11Z" uid="30632" user="antblant" changeset="855969" lat="53.3679184" lon="14.6502956"/>
  <node id="339146615" version="2" timestamp="2009-01-30T16:46:18Z" uid="30632" user="antblant" changeset="855969" lat="53.3679194" lon="14.6502898">
    <tag k="addr:housenumber" v="16"/>
    <tag k="addr:street" v="Beżowa"/>
    <tag k="created_by" v="Potlatch 0.10f"/>
  </node>
  <node id="339146615" version="3" timestamp="2009-01-30T16:46:24Z" uid="30632" user="antblant" changeset="855969" lat="53.3679194" lon="14.6502898">
    <tag k="addr:housenumber" v="50"/>
    <tag k="addr:street" v="Brązowa"/>
    <tag k="created_by" v="Potlatch 0.10f"/>
  </node>
  <node id="339146615" version="4" timestamp="2009-11-03T14:33:41Z" uid="36809" user="pfoten_weg_!_" changeset="3025069" lat="53.3679194" lon="14.6502898">
    <tag k="addr:housenumber" v="50"/>
    <tag k="addr:street" v="Brązowa"/>
  </node>
  <node id="339146615" version="5" timestamp="2010-06-09T18:17:06Z" uid="30632" user="antblant" changeset="4947611" lat="53.3679194" lon="14.6502898">
    <tag k="addr:housenumber" v="50"/>
    <tag k="addr:street" v="Brązowa"/>
  </node>
  <node id="339146782" version="2" timestamp="2010-04-12T19:00:29Z" uid="151899" user="Bikeman2000" changeset="4407537" lat="51.1744847" lon="6.8043648"/>
  <node id="339146782" version="3" timestamp="2011-12-14T18:52:27Z" uid="12614" user="rabenkind" changeset="10118386" lat="51.1744847" lon="6.8043648"/>
  <node id="339146784" version="2" timestamp="2010-04-12T19:00:30Z" uid="151899" user="Bikeman2000" changeset="4407537" lat="51.1741619" lon="6.8034046"/>
  <node id="339146784" version="3" timestamp="2011-12-14T18:52:27Z" uid="12614" user="rabenkind" changeset="10118386" lat="51.1741619" lon="6.8034046"/>
  <node id="339146785" version="2" timestamp="2010-04-12T19:00:30Z" uid="151899" user="Bikeman2000" changeset="4407537" lat="51.1739298" lon="6.8035923"/>
  <node id="339146785" version="3" timestamp="2011-12-14T18:52:27Z" uid="12614" user="rabenkind" changeset="10118386" lat="51.1739298" lon="6.8035923"/>
  <node id="339147718" version="2" timestamp="2009-12-09T14:48:19Z" uid="200463" user="harmagedon" changeset="3334003" lat="48.9607644" lon="13.1072473"/>
  <node id="339147718" version="3" timestamp="2011-09-17T10:21:59Z" uid="85636" user="LonelyPixel" changeset="9322632" lat="48.9607732" lon="13.107154"/>
  <node id="339147720" version="2" timestamp="2009-12-09T14:48:19Z" uid="200463" user="harmagedon" changeset="3334003" lat="48.9616802" lon="13.1077408"/>
  <node id="339147720" version="3" timestamp="2011-07-16T08:01:27Z" uid="149876" user="dbusse" changeset="8737353" lat="48.961614" lon="13.1077471"/>
  <node id="339147720" version="4" timestamp="2011-09-17T10:21:59Z" uid="85636" user="LonelyPixel" changeset="9322632" lat="48.9610938" lon="13.1073331"/>
  <node id="339147723" version="2" timestamp="2009-12-09T14:48:19Z" uid="200463" user="harmagedon" changeset="3334003" lat="48.9614759" lon="13.1085133"/>
  <node id="339147723" version="3" timestamp="2011-07-16T08:01:27Z" uid="149876" user="dbusse" changeset="8737353" lat="48.961538" lon="13.1080341"/>
  <node id="339147723" version="4" timestamp="2011-09-17T10:22:00Z" uid="85636" user="LonelyPixel" changeset="9322632" lat="48.9615356" lon="13.108006"/>
  <node id="339147725" version="2" timestamp="2009-12-09T14:48:20Z" uid="200463" user="harmagedon" changeset="3334003" lat="48.9612293" lon="13.1091141"/>
  <node id="339147725" version="3" timestamp="2011-07-16T08:01:27Z" uid="149876" user="dbusse" changeset="8737353" lat="48.961279" lon="13.1088083"/>
  <node id="339147727" version="2" timestamp="2009-12-09T14:48:20Z" uid="200463" user="harmagedon" changeset="3334003" lat="48.9611096" lon="13.1093823"/>
  <node id="339147730" version="2" timestamp="2009-12-09T14:48:22Z" uid="200463" user="harmagedon" changeset="3334003" lat="48.961342" lon="13.1094681"/>
  <node id="339147730" version="3" timestamp="2011-09-17T10:22:00Z" uid="85636" user="LonelyPixel" changeset="9322632" lat="48.9613219" lon="13.1095038"/>
  <node id="339147733" version="2" timestamp="2009-12-09T14:48:23Z" uid="200463" user="harmagedon" changeset="3334003" lat="48.961173" lon="13.1101441"/>
  <node id="339147736" version="2" timestamp="2009-12-09T14:48:23Z" uid="200463" user="harmagedon" changeset="3334003" lat="48.9609405" lon="13.110026"/>
  <node id="339147736" version="3" timestamp="2011-07-16T08:01:27Z" uid="149876" user="dbusse" changeset="8737353" lat="48.9608763" lon="13.1099976"/>
  <node id="339147738" version="2" timestamp="2009-12-09T14:48:23Z" uid="200463" user="harmagedon" changeset="3334003" lat="48.9607996" lon="13.1106698"/>
  <node id="339147738" version="3" timestamp="2011-07-16T08:01:27Z" uid="149876" user="dbusse" changeset="8737353" lat="48.9608058" lon="13.110446"/>
  <node id="339147742" version="2" timestamp="2009-12-09T14:48:24Z" uid="200463" user="harmagedon" changeset="3334003" lat="48.9607115" lon="13.1109648"/>
  <node id="339147742" version="3" timestamp="2011-07-16T08:01:27Z" uid="149876" user="dbusse" changeset="8737353" lat="48.9606411" lon="13.1109806"/>
  <node id="339147743" version="2" timestamp="2009-12-09T14:48:14Z" uid="200463" user="harmagedon" changeset="3334003" lat="48.9597923" lon="13.1128906"/>
  <node id="339147743" version="3" timestamp="2011-07-16T08:01:27Z" uid="149876" user="dbusse" changeset="8737353" lat="48.9597902" lon="13.1127645"/>
  <node id="339147746" version="2" timestamp="2009-12-09T14:48:15Z" uid="200463" user="harmagedon" changeset="3334003" lat="48.9592428" lon="13.1123381"/>
  <node id="339147746" version="3" timestamp="2011-07-16T08:01:27Z" uid="149876" user="dbusse" changeset="8737353" lat="48.9592511" lon="13.1122687"/>
  <node id="339147746" version="4" timestamp="2011-09-17T10:21:58Z" uid="85636" user="LonelyPixel" changeset="9322632" lat="48.9591044" lon="13.1122317"/>
  <node id="339147747" version="2" timestamp="2009-12-09T14:48:11Z" uid="200463" user="harmagedon" changeset="3334003" lat="48.9593344" lon="13.1116783"/>
  <node id="339147747" version="3" timestamp="2011-09-17T10:21:58Z" uid="85636" user="LonelyPixel" changeset="9322632" lat="48.9592982" lon="13.1116674"/>
  <node id="339147750" version="2" timestamp="2009-12-09T14:48:08Z" uid="200463" user="harmagedon" changeset="3334003" lat="48.9591759" lon="13.1116193"/>
  <node id="339147750" version="3" timestamp="2011-09-17T10:21:59Z" uid="85636" user="LonelyPixel" changeset="9322632" lat="48.9591358" lon="13.1116109"/>
  <node id="339147751" version="2" timestamp="2009-12-09T14:48:09Z" uid="200463" user="harmagedon" changeset="3334003" lat="48.9592851" lon="13.1110614"/>
  <node id="339147751" version="3" timestamp="2011-09-17T10:21:59Z" uid="85636" user="LonelyPixel" changeset="9322632" lat="48.9592555" lon="13.1111073"/>
  <node id="339147753" version="2" timestamp="2009-12-09T14:48:07Z" uid="200463" user="harmagedon" changeset="3334003" lat="48.9593872" lon="13.1109004"/>
  <node id="339147753" version="3" timestamp="2011-09-17T10:21:59Z" uid="85636" user="LonelyPixel" changeset="9322632" lat="48.9593781" lon="13.1109207"/>
  <node id="339147754" version="2" timestamp="2009-12-09T14:48:08Z" uid="200463" user="harmagedon" changeset="3334003" lat="48.9598698" lon="13.1114476"/>
  <node id="339147754" version="3" timestamp="2011-09-17T10:21:59Z" uid="85636" user="LonelyPixel" changeset="9322632" lat="48.9597486" lon="13.1113461"/>
  <node id="339147756" version="2" timestamp="2009-12-09T14:48:08Z" uid="200463" user="harmagedon" changeset="3334003" lat="48.9600494" lon="13.1111526"/>
  <node id="339147756" version="3" timestamp="2011-09-17T10:21:59Z" uid="85636" user="LonelyPixel" changeset="9322632" lat="48.9601277" lon="13.1108034"/>
  <node id="339147758" version="2" timestamp="2009-12-09T14:48:10Z" uid="200463" user="harmagedon" changeset="3334003" lat="48.9602819" lon="13.1113779"/>
  <node id="339147758" version="3" timestamp="2011-09-17T10:22:17Z" uid="85636" user="LonelyPixel" changeset="9322632" lat="48.9602819" lon="13.1113779"/>
  <node id="339147759" version="2" timestamp="2009-12-09T14:48:10Z" uid="200463" user="harmagedon" changeset="3334003" lat="48.9603981" lon="13.1111043"/>
  <node id="339147759" version="3" timestamp="2011-09-17T10:22:17Z" uid="85636" user="LonelyPixel" changeset="9322632" lat="48.9603981" lon="13.1111043"/>
  <node id="339147760" version="2" timestamp="2009-12-09T14:48:10Z" uid="200463" user="harmagedon" changeset="3334003" lat="48.9601586" lon="13.1108468"/>
  <node id="339147760" version="3" timestamp="2011-09-17T10:21:59Z" uid="85636" user="LonelyPixel" changeset="9322632" lat="48.9602588" lon="13.1103867"/>
  <node id="339147762" version="2" timestamp="2009-12-09T14:48:10Z" uid="200463" user="harmagedon" changeset="3334003" lat="48.9605108" lon="13.1096559"/>
  <node id="339147762" version="3" timestamp="2011-09-17T10:21:59Z" uid="85636" user="LonelyPixel" changeset="9322632" lat="48.9605325" lon="13.1097659"/>
  <node id="339147763" version="2" timestamp="2009-12-09T14:48:22Z" uid="200463" user="harmagedon" changeset="3334003" lat="48.960701" lon="13.1097364"/>
  <node id="339147763" version="3" timestamp="2011-09-17T10:21:59Z" uid="85636" user="LonelyPixel" changeset="9322632" lat="48.9608432" lon="13.1099829"/>
  <node id="339147765" version="2" timestamp="2009-12-09T14:48:22Z" uid="200463" user="harmagedon" changeset="3334003" lat="48.9607785" lon="13.1095486"/>
  <node id="339147765" version="3" timestamp="2011-09-17T10:22:17Z" uid="85636" user="LonelyPixel" changeset="9322632" lat="48.9607785" lon="13.1095486"/>
  <node id="339147766" version="2" timestamp="2009-12-09T14:48:21Z" uid="200463" user="harmagedon" changeset="3334003" lat="48.9609687" lon="13.109613"/>
  <node id="339147766" version="3" timestamp="2011-09-17T10:21:59Z" uid="85636" user="LonelyPixel" changeset="9322632" lat="48.9609458" lon="13.1096052"/>
  <node id="339147768" version="2" timestamp="2009-12-09T14:48:18Z" uid="200463" user="harmagedon" changeset="3334003" lat="48.9610321" lon="13.1093233"/>
  <node id="339147768" version="3" timestamp="2011-09-17T10:21:59Z" uid="85636" user="LonelyPixel" changeset="9322632" lat="48.9610227" lon="13.1093144"/>
  <node id="339147769" version="2" timestamp="2009-12-09T14:48:17Z" uid="200463" user="harmagedon" changeset="3334003" lat="48.9607504" lon="13.1091409"/>
  <node id="339147769" version="3" timestamp="2011-09-17T10:21:59Z" uid="85636" user="LonelyPixel" changeset="9322632" lat="48.9607691" lon="13.1091668"/>
  <node id="339147771" version="2" timestamp="2009-12-09T14:48:18Z" uid="200463" user="harmagedon" changeset="3334003" lat="48.960775" lon="13.1079178"/>
  <node id="339147771" version="3" timestamp="2011-09-17T10:21:59Z" uid="85636" user="LonelyPixel" changeset="9322632" lat="48.9607349" lon="13.1078991"/>
  <node id="339147773" version="2" timestamp="2009-12-09T14:48:18Z" uid="200463" user="harmagedon" changeset="3334003" lat="48.9606306" lon="13.1078427"/>
  <node id="339147773" version="3" timestamp="2011-09-17T10:21:59Z" uid="85636" user="LonelyPixel" changeset="9322632" lat="48.9606351" lon="13.1078774"/>
  <node id="339147777" version="2" timestamp="2009-12-09T14:48:13Z" uid="200463" user="harmagedon" changeset="3334003" lat="48.9597433" lon="13.1129264"/>
  <node id="339147777" version="3" timestamp="2012-03-11T23:39:10Z" uid="479256" user="geodreieck4711" changeset="10949854" lat="48.9597487" lon="13.1129332"/>
  <node id="339147777" version="4" timestamp="2012-03-12T23:14:45Z" uid="479256" user="geodreieck4711" changeset="10961785" lat="48.9597446" lon="13.112932"/>
  <node id="339147778" version="2" timestamp="2009-12-09T14:48:14Z" uid="200463" user="harmagedon" changeset="3334003" lat="48.9594964" lon="13.1126761"/>
  <node id="339147778" version="3" timestamp="2012-03-12T23:14:45Z" uid="479256" user="geodreieck4711" changeset="10961785" lat="48.9594772" lon="13.1127035"/>
  <node id="339147780" version="2" timestamp="2009-12-09T14:48:11Z" uid="200463" user="harmagedon" changeset="3334003" lat="48.9591583" lon="13.1124937"/>
  <node id="339147780" version="3" timestamp="2012-03-12T23:14:45Z" uid="479256" user="geodreieck4711" changeset="10961785" lat="48.9591523" lon="13.1125266"/>
  <node id="339147781" version="2" timestamp="2009-12-09T14:48:12Z" uid="200463" user="harmagedon" changeset="3334003" lat="48.9586722" lon="13.1123327"/>
  <node id="339147783" version="2" timestamp="2009-12-09T14:48:12Z" uid="200463" user="harmagedon" changeset="3334003" lat="48.9583059" lon="13.1122362"/>
  <node id="339147784" version="2" timestamp="2009-12-09T14:48:12Z" uid="200463" user="harmagedon" changeset="3334003" lat="48.957862" lon="13.112204"/>
  <node id="339147786" version="2" timestamp="2009-12-09T14:48:03Z" uid="200463" user="harmagedon" changeset="3334003" lat="48.9574746" lon="13.1121718"/>
  <node id="339147787" version="2" timestamp="2009-12-09T14:48:04Z" uid="200463" user="harmagedon" changeset="3334003" lat="48.9571928" lon="13.1120753"/>
  <node id="339147789" version="2" timestamp="2009-12-09T14:48:03Z" uid="200463" user="harmagedon" changeset="3334003" lat="48.9565799" lon="13.11185"/>
  <node id="339147790" version="2" timestamp="2009-12-09T14:48:05Z" uid="200463" user="harmagedon" changeset="3334003" lat="48.9563474" lon="13.111807"/>
  <node id="339147792" version="2" timestamp="2009-12-09T14:48:05Z" uid="200463" user="harmagedon" changeset="3334003" lat="48.9561079" lon="13.1118607"/>
  <node id="339147793" version="2" timestamp="2009-12-09T14:48:05Z" uid="200463" user="harmagedon" changeset="3334003" lat="48.9559106" lon="13.1118392"/>
  <node id="339147795" version="2" timestamp="2009-12-09T14:48:04Z" uid="200463" user="harmagedon" changeset="3334003" lat="48.9556853" lon="13.1119036"/>
  <node id="339147797" version="2" timestamp="2009-12-09T14:48:04Z" uid="200463" user="harmagedon" changeset="3334003" lat="48.9554879" lon="13.111968"/>
  <node id="339147800" version="2" timestamp="2009-12-09T14:48:05Z" uid="200463" user="harmagedon" changeset="3334003" lat="48.9552766" lon="13.1119036"/>
  <node id="339147805" version="2" timestamp="2009-12-09T14:35:09Z" uid="200463" user="harmagedon" changeset="3334003" lat="48.9542973" lon="13.1114101"/>
  <node id="339147808" version="2" timestamp="2009-12-09T14:35:10Z" uid="200463" user="harmagedon" changeset="3334003" lat="48.9541212" lon="13.1112384"/>
  <node id="339147810" version="2" timestamp="2009-12-09T14:35:10Z" uid="200463" user="harmagedon" changeset="3334003" lat="48.9540225" lon="13.1109273"/>
  <node id="339147812" version="2" timestamp="2009-12-09T14:35:06Z" uid="200463" user="harmagedon" changeset="3334003" lat="48.9539345" lon="13.1104928"/>
  <node id="339147813" version="2" timestamp="2009-12-09T14:35:06Z" uid="200463" user="harmagedon" changeset="3334003" lat="48.9538218" lon="13.1102782"/>
  <node id="339147815" version="2" timestamp="2009-12-09T14:35:02Z" uid="200463" user="harmagedon" changeset="3334003" lat="48.9535153" lon="13.1100529"/>
  <node id="339147833" version="2" timestamp="2009-12-09T14:50:15Z" uid="200463" user="harmagedon" changeset="3334003" lat="48.956682" lon="13.1222945">
    <tag k="highway" v="bus_stop"/>
  </node>
  <node id="339147837" version="2" timestamp="2009-12-09T14:37:27Z" uid="200463" user="harmagedon" changeset="3334003" lat="48.9542903" lon="13.1312316">
    <tag k="highway" v="bus_stop"/>
  </node>
  <node id="339147846" version="2" timestamp="2009-12-09T14:37:27Z" uid="200463" user="harmagedon" changeset="3334003" lat="48.9543445" lon="13.1311721"/>
  <node id="339147846" version="3" timestamp="2012-03-11T23:39:10Z" uid="479256" user="geodreieck4711" changeset="10949854" lat="48.9543532" lon="13.1311758"/>
  <node id="339147846" version="4" timestamp="2012-03-12T23:14:45Z" uid="479256" user="geodreieck4711" changeset="10961785" lat="48.9543043" lon="13.1311702"/>
  <node id="339147878" version="2" timestamp="2009-12-09T14:37:27Z" uid="200463" user="harmagedon" changeset="3334003" lat="48.9541458" lon="13.1310331"/>
  <node id="339147880" version="2" timestamp="2009-12-09T14:37:27Z" uid="200463" user="harmagedon" changeset="3334003" lat="48.9537724" lon="13.130781"/>
  <node id="339147883" version="2" timestamp="2009-12-09T14:37:25Z" uid="200463" user="harmagedon" changeset="3334003" lat="48.95354" lon="13.1305825"/>
  <node id="339147884" version="2" timestamp="2009-12-09T14:37:25Z" uid="200463" user="harmagedon" changeset="3334003" lat="48.9533392" lon="13.1303625"/>
  <node id="339147886" version="2" timestamp="2009-12-09T14:37:24Z" uid="200463" user="harmagedon" changeset="3334003" lat="48.9531384" lon="13.1301909"/>
  <node id="339147887" version="2" timestamp="2009-12-09T14:37:24Z" uid="200463" user="harmagedon" changeset="3334003" lat="48.9529235" lon="13.1300729"/>
  <node id="339147889" version="2" timestamp="2009-12-09T14:37:24Z" uid="200463" user="harmagedon" changeset="3334003" lat="48.9527544" lon="13.1299495"/>
  <node id="339147890" version="2" timestamp="2009-12-09T14:37:24Z" uid="200463" user="harmagedon" changeset="3334003" lat="48.9523916" lon="13.1296384"/>
  <node id="339147892" version="2" timestamp="2009-12-09T14:37:08Z" uid="200463" user="harmagedon" changeset="3334003" lat="48.9521309" lon="13.129456"/>
  <node id="339147894" version="2" timestamp="2009-12-09T14:37:09Z" uid="200463" user="harmagedon" changeset="3334003" lat="48.9519054" lon="13.1294131"/>
  <node id="339147895" version="2" timestamp="2009-12-09T14:37:08Z" uid="200463" user="harmagedon" changeset="3334003" lat="48.9517116" lon="13.1293755"/>
  <node id="339147897" version="2" timestamp="2009-12-09T14:37:09Z" uid="200463" user="harmagedon" changeset="3334003" lat="48.9514439" lon="13.1292468"/>
  <node id="339147899" version="2" timestamp="2009-12-09T14:37:09Z" uid="200463" user="harmagedon" changeset="3334003" lat="48.9512361" lon="13.1291663"/>
  <node id="339147900" version="2" timestamp="2009-12-09T14:37:10Z" uid="200463" user="harmagedon" changeset="3334003" lat="48.9509719" lon="13.1290912"/>
  <node id="339147902" version="2" timestamp="2009-12-09T14:37:03Z" uid="200463" user="harmagedon" changeset="3334003" lat="48.9506478" lon="13.1289356"/>
  <node id="339147905" version="2" timestamp="2009-12-09T14:37:03Z" uid="200463" user="harmagedon" changeset="3334003" lat="48.9502638" lon="13.1287479"/>
  <node id="339147909" version="2" timestamp="2009-12-09T14:37:04Z" uid="200463" user="harmagedon" changeset="3334003" lat="48.9501299" lon="13.1287479"/>
  <node id="339147912" version="2" timestamp="2009-12-09T14:37:06Z" uid="200463" user="harmagedon" changeset="3334003" lat="48.9500172" lon="13.1287532"/>
  <node id="339147917" version="2" timestamp="2009-12-09T14:37:06Z" uid="200463" user="harmagedon" changeset="3334003" lat="48.9498974" lon="13.1286996"/>
  <node id="339147919" version="2" timestamp="2009-12-09T14:36:25Z" uid="200463" user="harmagedon" changeset="3334003" lat="48.9497917" lon="13.128603"/>
  <node id="339147921" version="2" timestamp="2009-12-09T14:36:26Z" uid="200463" user="harmagedon" changeset="3334003" lat="48.9496649" lon="13.1284153"/>
  <node id="339147923" version="2" timestamp="2009-12-09T14:36:15Z" uid="200463" user="harmagedon" changeset="3334003" lat="48.9495627" lon="13.1281578"/>
  <node id="339147936" version="2" timestamp="2009-12-09T14:37:04Z" uid="200463" user="harmagedon" changeset="3334003" lat="48.950151" lon="13.1289517"/>
  <node id="339147938" version="2" timestamp="2009-12-09T14:37:04Z" uid="200463" user="harmagedon" changeset="3334003" lat="48.9498903" lon="13.1294774"/>
  <node id="339147941" version="2" timestamp="2009-12-09T14:37:05Z" uid="200463" user="harmagedon" changeset="3334003" lat="48.9498516" lon="13.1294828"/>
  <node id="339147942" version="2" timestamp="2009-12-09T14:37:05Z" uid="200463" user="harmagedon" changeset="3334003" lat="48.9497424" lon="13.1293916"/>
  <node id="339147944" version="2" timestamp="2009-12-09T14:37:05Z" uid="200463" user="harmagedon" changeset="3334003" lat="48.949753" lon="13.129295"/>
  <node id="339148243" version="5" timestamp="2010-01-28T22:32:20Z" uid="9581" user="Lobelt" changeset="3739726" lat="49.4370895" lon="8.7780738"/>
  <node id="339148243" version="6" timestamp="2012-02-14T15:59:52Z" uid="131968" user="changchun_1" changeset="10684226" lat="49.4370895" lon="8.7780738"/>
  <node id="339149824" version="2" timestamp="2009-12-09T14:40:53Z" uid="200463" user="harmagedon" changeset="3334003" lat="48.9497178" lon="13.1428134"/>
  <node id="339149824" version="3" timestamp="2011-07-16T07:48:07Z" uid="149876" user="dbusse" changeset="8737272" lat="48.9496698" lon="13.1427932"/>
  <node id="339149828" version="2" timestamp="2009-12-09T14:40:37Z" uid="200463" user="harmagedon" changeset="3334003" lat="48.94945" lon="13.1427705"/>
  <node id="339149828" version="3" timestamp="2011-07-16T07:48:10Z" uid="149876" user="dbusse" changeset="8737272" lat="48.94945" lon="13.1427705"/>
  <node id="339149831" version="2" timestamp="2009-12-09T14:40:36Z" uid="200463" user="harmagedon" changeset="3334003" lat="48.9489497" lon="13.142631"/>
  <node id="339149835" version="2" timestamp="2009-12-09T14:40:34Z" uid="200463" user="harmagedon" changeset="3334003" lat="48.9486256" lon="13.1425237"/>
  <node id="339149850" version="3" timestamp="2009-12-09T14:40:33Z" uid="200463" user="harmagedon" changeset="3334003" lat="48.948372" lon="13.1425988"/>
  <node id="339149852" version="2" timestamp="2009-12-09T14:40:30Z" uid="200463" user="harmagedon" changeset="3334003" lat="48.948076" lon="13.1428348"/>
  <node id="339149854" version="2" timestamp="2009-12-09T14:40:30Z" uid="200463" user="harmagedon" changeset="3334003" lat="48.9477801" lon="13.1430172"/>
  <node id="339149856" version="2" timestamp="2009-12-09T14:40:18Z" uid="200463" user="harmagedon" changeset="3334003" lat="48.945631" lon="13.1440043"/>
  <node id="339149858" version="2" timestamp="2009-12-09T14:40:15Z" uid="200463" user="harmagedon" changeset="3334003" lat="48.9453069" lon="13.1441116"/>
  <node id="339149862" version="2" timestamp="2009-12-09T14:40:15Z" uid="200463" user="harmagedon" changeset="3334003" lat="48.9449474" lon="13.1440901"/>
  <node id="339149864" version="2" timestamp="2009-12-09T14:39:42Z" uid="200463" user="harmagedon" changeset="3334003" lat="48.9421922" lon="13.1435644"/>
  <node id="339149865" version="2" timestamp="2009-12-09T14:39:40Z" uid="200463" user="harmagedon" changeset="3334003" lat="48.9413043" lon="13.1434142"/>
  <node id="339149868" version="2" timestamp="2009-12-09T14:39:37Z" uid="200463" user="harmagedon" changeset="3334003" lat="48.9388448" lon="13.1432533"/>
  <node id="339149869" version="2" timestamp="2009-12-09T14:39:31Z" uid="200463" user="harmagedon" changeset="3334003" lat="48.9376467" lon="13.1431031"/>
  <node id="339149871" version="2" timestamp="2009-12-09T14:39:30Z" uid="200463" user="harmagedon" changeset="3334003" lat="48.9368292" lon="13.1429528"/>
  <node id="339149873" version="2" timestamp="2009-12-09T14:39:25Z" uid="200463" user="harmagedon" changeset="3334003" lat="48.9357509" lon="13.1427597"/>
  <node id="339149874" version="2" timestamp="2009-12-09T14:39:24Z" uid="200463" user="harmagedon" changeset="3334003" lat="48.9349897" lon="13.1426632"/>
  <node id="339149876" version="2" timestamp="2009-12-09T14:39:24Z" uid="200463" user="harmagedon" changeset="3334003" lat="48.933855" lon="13.1425988"/>
  <node id="339149877" version="2" timestamp="2009-12-09T14:38:15Z" uid="200463" user="harmagedon" changeset="3334003" lat="48.9320647" lon="13.1425773"/>
  <node id="339149879" version="2" timestamp="2009-12-09T14:38:14Z" uid="200463" user="harmagedon" changeset="3334003" lat="48.930507" lon="13.1425988"/>
  <node id="339149880" version="2" timestamp="2009-12-09T14:38:13Z" uid="200463" user="harmagedon" changeset="3334003" lat="48.9289634" lon="13.1425881"/>
  <node id="339149881" version="2" timestamp="2009-12-09T14:38:10Z" uid="200463" user="harmagedon" changeset="3334003" lat="48.9269051" lon="13.1424593"/>
  <node id="339149882" version="2" timestamp="2009-12-09T14:38:10Z" uid="200463" user="harmagedon" changeset="3334003" lat="48.9259887" lon="13.14247"/>
  <node id="339149884" version="2" timestamp="2009-12-09T14:38:08Z" uid="200463" user="harmagedon" changeset="3334003" lat="48.9248114" lon="13.1426954"/>
  <node id="339149884" version="3" timestamp="2011-07-12T03:55:39Z" uid="149876" user="dbusse" changeset="8699380" lat="48.9248146" lon="13.1426708"/>
  <node id="339149885" version="2" timestamp="2009-12-09T14:38:09Z" uid="200463" user="harmagedon" changeset="3334003" lat="48.9238527" lon="13.1430816"/>
  <node id="339149886" version="2" timestamp="2009-12-09T14:38:08Z" uid="200463" user="harmagedon" changeset="3334003" lat="48.9232747" lon="13.1434034"/>
  <node id="339149889" version="2" timestamp="2009-12-09T14:38:08Z" uid="200463" user="harmagedon" changeset="3334003" lat="48.9226614" lon="13.1438541"/>
  <node id="339149890" version="2" timestamp="2009-12-09T14:38:07Z" uid="200463" user="harmagedon" changeset="3334003" lat="48.9222666" lon="13.1442296"/>
  <node id="339149890" version="3" timestamp="2011-07-12T03:55:39Z" uid="149876" user="dbusse" changeset="8699380" lat="48.9222828" lon="13.1441742"/>
  <node id="339149892" version="2" timestamp="2009-12-09T14:37:57Z" uid="200463" user="harmagedon" changeset="3334003" lat="48.9218154" lon="13.1447446"/>
  <node id="339149893" version="2" timestamp="2009-12-09T14:38:01Z" uid="200463" user="harmagedon" changeset="3334003" lat="48.9211457" lon="13.1458925"/>
  <node id="339149895" version="2" timestamp="2009-12-09T14:38:00Z" uid="200463" user="harmagedon" changeset="3334003" lat="48.9206662" lon="13.146665"/>
  <node id="339149896" version="2" timestamp="2009-12-09T14:38:00Z" uid="200463" user="harmagedon" changeset="3334003" lat="48.9203138" lon="13.1470405"/>
  <node id="339149898" version="2" timestamp="2009-12-09T14:38:00Z" uid="200463" user="harmagedon" changeset="3334003" lat="48.9199825" lon="13.1473088"/>
  <node id="339149899" version="2" timestamp="2009-12-09T14:38:01Z" uid="200463" user="harmagedon" changeset="3334003" lat="48.919651" lon="13.1477057"/>
  <node id="339149901" version="2" timestamp="2009-12-09T14:37:59Z" uid="200463" user="harmagedon" changeset="3334003" lat="48.9191787" lon="13.1484138"/>
  <node id="339149902" version="2" timestamp="2009-12-09T14:37:59Z" uid="200463" user="harmagedon" changeset="3334003" lat="48.9187627" lon="13.148843"/>
  <node id="339149904" version="2" timestamp="2009-12-09T14:37:58Z" uid="200463" user="harmagedon" changeset="3334003" lat="48.9182551" lon="13.1490897"/>
  <node id="339149905" version="2" timestamp="2009-12-09T14:37:58Z" uid="200463" user="harmagedon" changeset="3334003" lat="48.9177122" lon="13.1493365"/>
  <node id="339149906" version="2" timestamp="2009-12-09T14:37:59Z" uid="200463" user="harmagedon" changeset="3334003" lat="48.9171694" lon="13.1497549"/>
  <node id="339149908" version="2" timestamp="2009-12-09T14:37:59Z" uid="200463" user="harmagedon" changeset="3334003" lat="48.916697" lon="13.1503665"/>
  <node id="339149909" version="2" timestamp="2009-12-09T14:38:01Z" uid="200463" user="harmagedon" changeset="3334003" lat="48.9162528" lon="13.1510531"/>
  <node id="339149912" version="2" timestamp="2009-12-09T14:38:03Z" uid="200463" user="harmagedon" changeset="3334003" lat="48.9157804" lon="13.1519543"/>
  <node id="339149913" version="2" timestamp="2009-12-09T14:38:02Z" uid="200463" user="harmagedon" changeset="3334003" lat="48.9153432" lon="13.1530165"/>
  <node id="339149915" version="2" timestamp="2009-12-09T14:38:02Z" uid="200463" user="harmagedon" changeset="3334003" lat="48.9149907" lon="13.1539177"/>
  <node id="339149916" version="2" timestamp="2009-12-09T14:38:03Z" uid="200463" user="harmagedon" changeset="3334003" lat="48.9147017" lon="13.1546795"/>
  <node id="339149917" version="2" timestamp="2009-12-09T14:38:01Z" uid="200463" user="harmagedon" changeset="3334003" lat="48.9144196" lon="13.1552266"/>
  <node id="339149919" version="2" timestamp="2009-12-09T14:38:02Z" uid="200463" user="harmagedon" changeset="3334003" lat="48.9140388" lon="13.1559133"/>
</osm>
