<?xml version='1.0' encoding='UTF-8'?>
<osm version="0.6" generator="libosmium/2.20.0">
  <node id="340258147" version="2" timestamp="2009-10-29T19:38:29Z" uid="36809" user="pfoten_weg_!_" changeset="2983914" lat="52.1578202" lon="8.8444068">
    <tag k="amenity" v="fuel"/>
    <tag k="name" v="Westfalen"/>
  </node>
  <node id="340258147" version="3" timestamp="2010-12-20T09:17:47Z" uid="84334" user="wegsam" changeset="6713968" lat="52.1578302" lon="8.8442928">
    <tag k="amenity" v="fuel"/>
    <tag k="name" v="Westfalen"/>
  </node>
  <node id="340258203" version="4" timestamp="2009-10-29T19:38:23Z" uid="36809" user="pfoten_weg_!_" changeset="2983914" lat="52.1484622" lon="8.8472993">
    <tag k="amenity" v="fuel"/>
    <tag k="name" v="Aral"/>
  </node>
  <node id="340258203" version="5" timestamp="2011-02-21T15:18:07Z" uid="213209" user="gero_08" changeset="7354798" lat="52.1484623" lon="8.8472993">
    <tag k="amenity" v="fuel"/>
    <tag k="name" v="Joiss"/>
  </node>
  <node id="340259082" version="2" timestamp="2009-10-29T19:38:34Z" uid="36809" user="pfoten_weg_!_" changeset="2983914" lat="52.1598" lon="8.8471792">
    <tag k="name" v="Marktkauf"/>
    <tag k="shop" v="supermarket"/>
  </node>
  <node id="340259082" version="3" timestamp="2010-05-31T07:12:01Z" uid="133412" user="osm-schroenko" changeset="4860294" lat="52.1598" lon="8.8471792">
    <tag k="name" v="Marktkauf"/>
    <tag k="shop" v="supermarket"/>
  </node>
</osm>
