<?xml version='1.0' encoding='UTF-8'?>
<osm version="0.6" generator="libosmium/2.20.0">
  <node id="340939090" version="1" timestamp="2009-02-05T10:20:20Z" uid="4660" user="alv" changeset="153869" lat="60.1715935" lon="24.9572953">
    <tag k="amenity" v="barber"/>
  </node>
  <node id="340939090" version="2" timestamp="2009-02-07T16:31:50Z" uid="6975" user="ulfl" changeset="238208" lat="60.1715935" lon="24.9572953">
    <tag k="shop" v="hairdresser"/>
  </node>
  <node id="340939090" version="3" timestamp="2009-12-27T19:36:50Z" uid="112530" user="Caballista" changeset="3466188" lat="60.1715935" lon="24.9572953">
    <tag k="addr:city" v="Helsinki"/>
    <tag k="addr:country" v="FI"/>
    <tag k="addr:postcode" v="00170"/>
    <tag k="shop" v="hairdresser"/>
  </node>
  <node id="340939090" version="4" timestamp="2010-12-02T00:03:06Z" uid="38239" user="Daeron" changeset="6510291" lat="60.1715751" lon="24.9572929">
    <tag k="addr:city" v="Helsinki"/>
    <tag k="addr:country" v="FI"/>
    <tag k="addr:postcode" v="00170"/>
    <tag k="shop" v="hairdresser"/>
  </node>
  <node id="340939090" version="5" timestamp="2011-07-27T16:27:02Z" uid="38239" user="Daeron" changeset="8845283" lat="60.1715751" lon="24.9572929"/>
</osm>
