<?xml version='1.0' encoding='UTF-8'?>
<osm version="0.6" generator="libosmium/2.20.0">
  <node id="341483282" version="2" timestamp="2009-02-07T16:34:13Z" uid="6975" user="ulfl" changeset="238208" lat="47.337892" lon="8.6739983">
    <tag k="highway" v="bus_stop"/>
    <tag k="name" v="Maur, Kirche"/>
    <tag k="operator" v="VBZ"/>
  </node>
  <node id="341483282" version="3" timestamp="2010-01-24T15:24:22Z" uid="52921" user="t-i" changeset="3702074" lat="47.337892" lon="8.6739983">
    <tag k="ZVV:zone" v="30"/>
    <tag k="highway" v="bus_stop"/>
    <tag k="name" v="Kirche"/>
    <tag k="nat_name" v="Maur, Kirche"/>
    <tag k="operator" v="VBZ"/>
  </node>
  <node id="341483282" version="4" timestamp="2010-11-10T22:04:52Z" uid="368211" user="DidokImportCH" changeset="6340055" lat="47.337892" lon="8.673998">
    <tag k="ZVV:zone" v="30"/>
    <tag k="ele" v="460"/>
    <tag k="highway" v="bus_stop"/>
    <tag k="name" v="Kirche"/>
    <tag k="nat_name" v="Maur, Kirche"/>
    <tag k="operator" v="VBZ"/>
    <tag k="uic_name" v="Maur, Kirche"/>
    <tag k="uic_ref" v="8590714"/>
  </node>
  <node id="341483282" version="5" timestamp="2011-08-21T14:14:51Z" uid="52921" user="t-i" changeset="9084609" lat="47.337892" lon="8.673998"/>
  <node id="341483284" version="2" timestamp="2009-02-07T16:34:12Z" uid="6975" user="ulfl" changeset="238208" lat="47.3376811" lon="8.6739259">
    <tag k="highway" v="bus_stop"/>
    <tag k="name" v="Maur, Kirche"/>
    <tag k="operator" v="VBZ"/>
  </node>
  <node id="341483284" version="3" timestamp="2010-01-24T15:24:22Z" uid="52921" user="t-i" changeset="3702074" lat="47.3376811" lon="8.6739259">
    <tag k="ZVV:zone" v="30"/>
    <tag k="highway" v="bus_stop"/>
    <tag k="name" v="Kirche"/>
    <tag k="nat_name" v="Maur, Kirche"/>
    <tag k="operator" v="VBZ"/>
  </node>
  <node id="341483284" version="4" timestamp="2010-11-10T22:04:51Z" uid="368211" user="DidokImportCH" changeset="6340055" lat="47.337681" lon="8.673926">
    <tag k="ZVV:zone" v="30"/>
    <tag k="ele" v="460"/>
    <tag k="highway" v="bus_stop"/>
    <tag k="name" v="Kirche"/>
    <tag k="nat_name" v="Maur, Kirche"/>
    <tag k="operator" v="VBZ"/>
    <tag k="uic_name" v="Maur, Kirche"/>
    <tag k="uic_ref" v="8590714"/>
  </node>
  <node id="341483284" version="5" timestamp="2011-08-21T14:14:51Z" uid="52921" user="t-i" changeset="9084609" lat="47.337681" lon="8.673926"/>
  <node id="341483292" version="2" timestamp="2009-02-07T16:34:13Z" uid="6975" user="ulfl" changeset="238208" lat="47.3403821" lon="8.6686044">
    <tag k="highway" v="bus_stop"/>
    <tag k="name" v="Maur, Dorf"/>
    <tag k="operator" v="VBZ"/>
  </node>
  <node id="341483292" version="3" timestamp="2010-01-24T15:24:23Z" uid="52921" user="t-i" changeset="3702074" lat="47.3403821" lon="8.6686044">
    <tag k="ZVV:zone" v="30"/>
    <tag k="highway" v="bus_stop"/>
    <tag k="name" v="Dorf"/>
    <tag k="nat_name" v="Maur, Dorf"/>
    <tag k="operator" v="VBZ"/>
  </node>
  <node id="341483292" version="4" timestamp="2010-11-10T22:04:53Z" uid="368211" user="DidokImportCH" changeset="6340055" lat="47.340382" lon="8.668604">
    <tag k="ZVV:zone" v="30"/>
    <tag k="ele" v="455"/>
    <tag k="highway" v="bus_stop"/>
    <tag k="name" v="Dorf"/>
    <tag k="nat_name" v="Maur, Dorf"/>
    <tag k="operator" v="VBZ"/>
    <tag k="uic_name" v="Maur, Dorf"/>
    <tag k="uic_ref" v="8590713"/>
  </node>
  <node id="341483292" version="5" timestamp="2011-08-21T14:14:51Z" uid="52921" user="t-i" changeset="9084609" lat="47.340382" lon="8.668604"/>
  <node id="341483294" version="2" timestamp="2009-02-07T16:34:13Z" uid="6975" user="ulfl" changeset="238208" lat="47.3401604" lon="8.6690926">
    <tag k="highway" v="bus_stop"/>
    <tag k="name" v="Maur, Dorf"/>
    <tag k="operator" v="VBZ"/>
  </node>
  <node id="341483294" version="3" timestamp="2010-01-24T15:24:23Z" uid="52921" user="t-i" changeset="3702074" lat="47.3401604" lon="8.6690926">
    <tag k="ZVV:zone" v="30"/>
    <tag k="highway" v="bus_stop"/>
    <tag k="name" v="Dorf"/>
    <tag k="nat_name" v="Maur, Dorf"/>
    <tag k="operator" v="VBZ"/>
  </node>
  <node id="341483294" version="4" timestamp="2010-11-10T22:04:53Z" uid="368211" user="DidokImportCH" changeset="6340055" lat="47.34016" lon="8.669093">
    <tag k="ZVV:zone" v="30"/>
    <tag k="ele" v="455"/>
    <tag k="highway" v="bus_stop"/>
    <tag k="name" v="Dorf"/>
    <tag k="nat_name" v="Maur, Dorf"/>
    <tag k="operator" v="VBZ"/>
    <tag k="uic_name" v="Maur, Dorf"/>
    <tag k="uic_ref" v="8590713"/>
  </node>
  <node id="341483294" version="5" timestamp="2010-12-05T15:41:44Z" uid="52921" user="t-i" changeset="6552126" lat="47.3401954" lon="8.6690682">
    <tag k="ZVV:zone" v="30"/>
    <tag k="ele" v="455"/>
    <tag k="highway" v="bus_stop"/>
    <tag k="name" v="Dorf"/>
    <tag k="nat_name" v="Maur, Dorf"/>
    <tag k="operator" v="VBZ"/>
    <tag k="uic_name" v="Maur, Dorf"/>
    <tag k="uic_ref" v="8590713"/>
  </node>
  <node id="341483294" version="6" timestamp="2011-01-23T00:21:07Z" uid="52921" user="t-i" changeset="7056978" lat="47.3401954" lon="8.6690682">
    <tag k="ZVV:zone" v="30"/>
    <tag k="ele" v="455"/>
    <tag k="highway" v="bus_stop"/>
    <tag k="name" v="Dorf"/>
    <tag k="operator" v="VBZ"/>
    <tag k="uic_name" v="Maur, Dorf"/>
    <tag k="uic_ref" v="8590713"/>
  </node>
  <node id="341483294" version="7" timestamp="2011-08-21T14:14:51Z" uid="52921" user="t-i" changeset="9084609" lat="47.3401954" lon="8.6690682"/>
  <node id="341483300" version="2" timestamp="2009-02-07T16:34:05Z" uid="6975" user="ulfl" changeset="238208" lat="47.3431212" lon="8.6609172">
    <tag k="highway" v="bus_stop"/>
    <tag k="name" v="Maur, Platten"/>
    <tag k="operator" v="VBZ"/>
  </node>
  <node id="341483300" version="3" timestamp="2010-01-24T15:24:23Z" uid="52921" user="t-i" changeset="3702074" lat="47.3431212" lon="8.6609172">
    <tag k="ZVV:zone" v="30"/>
    <tag k="highway" v="bus_stop"/>
    <tag k="name" v="Platten"/>
    <tag k="nat_name" v="Maur, Platten"/>
    <tag k="operator" v="VBZ"/>
  </node>
  <node id="341483300" version="4" timestamp="2010-11-10T22:04:47Z" uid="368211" user="DidokImportCH" changeset="6340055" lat="47.343121" lon="8.660917">
    <tag k="ZVV:zone" v="30"/>
    <tag k="ele" v="513"/>
    <tag k="highway" v="bus_stop"/>
    <tag k="name" v="Platten"/>
    <tag k="nat_name" v="Maur, Platten"/>
    <tag k="operator" v="VBZ"/>
    <tag k="uic_name" v="Maur, Platten"/>
    <tag k="uic_ref" v="8590715"/>
  </node>
  <node id="341483300" version="5" timestamp="2011-08-21T14:14:52Z" uid="52921" user="t-i" changeset="9084609" lat="47.343121" lon="8.660917"/>
  <node id="341483301" version="2" timestamp="2009-02-07T16:34:05Z" uid="6975" user="ulfl" changeset="238208" lat="47.3435864" lon="8.6606034">
    <tag k="highway" v="bus_stop"/>
    <tag k="name" v="Maur, Platten"/>
    <tag k="operator" v="VBZ"/>
  </node>
  <node id="341483301" version="3" timestamp="2010-01-24T15:24:23Z" uid="52921" user="t-i" changeset="3702074" lat="47.3435864" lon="8.6606034">
    <tag k="ZVV:zone" v="30"/>
    <tag k="highway" v="bus_stop"/>
    <tag k="name" v="Platten"/>
    <tag k="nat_name" v="Maur, Platten"/>
    <tag k="operator" v="VBZ"/>
  </node>
  <node id="341483301" version="4" timestamp="2010-11-10T22:04:46Z" uid="368211" user="DidokImportCH" changeset="6340055" lat="47.343586" lon="8.660603">
    <tag k="ZVV:zone" v="30"/>
    <tag k="ele" v="513"/>
    <tag k="highway" v="bus_stop"/>
    <tag k="name" v="Platten"/>
    <tag k="nat_name" v="Maur, Platten"/>
    <tag k="operator" v="VBZ"/>
    <tag k="uic_name" v="Maur, Platten"/>
    <tag k="uic_ref" v="8590715"/>
  </node>
  <node id="341483301" version="5" timestamp="2011-08-21T14:14:52Z" uid="52921" user="t-i" changeset="9084609" lat="47.343586" lon="8.660603"/>
  <node id="341485067" version="2" timestamp="2009-02-07T16:33:48Z" uid="6975" user="ulfl" changeset="238208" lat="47.3466815" lon="8.651213">
    <tag k="highway" v="bus_stop"/>
    <tag k="name" v="Ebmatingen, Benkelsteg"/>
    <tag k="operator" v="VBZ"/>
  </node>
  <node id="341485067" version="3" timestamp="2010-11-10T22:05:33Z" uid="368211" user="DidokImportCH" changeset="6340055" lat="47.346682" lon="8.651213">
    <tag k="ele" v="586"/>
    <tag k="highway" v="bus_stop"/>
    <tag k="name" v="Ebmatingen, Benkelsteg"/>
    <tag k="operator" v="VBZ"/>
    <tag k="uic_name" v="Ebmatingen, Benkelsteg"/>
    <tag k="uic_ref" v="8590595"/>
  </node>
  <node id="341485067" version="4" timestamp="2011-08-21T13:31:49Z" uid="52921" user="t-i" changeset="9084215" lat="47.346682" lon="8.651213"/>
  <node id="341485069" version="2" timestamp="2009-02-07T16:33:47Z" uid="6975" user="ulfl" changeset="238208" lat="47.3462671" lon="8.6512586">
    <tag k="highway" v="bus_stop"/>
    <tag k="name" v="Ebmatingen, Benkelsteg"/>
    <tag k="operator" v="VBZ"/>
  </node>
  <node id="341485069" version="3" timestamp="2010-11-10T22:05:32Z" uid="368211" user="DidokImportCH" changeset="6340055" lat="47.346267" lon="8.651259">
    <tag k="ele" v="586"/>
    <tag k="highway" v="bus_stop"/>
    <tag k="name" v="Ebmatingen, Benkelsteg"/>
    <tag k="operator" v="VBZ"/>
    <tag k="uic_name" v="Ebmatingen, Benkelsteg"/>
    <tag k="uic_ref" v="8590595"/>
  </node>
  <node id="341485069" version="4" timestamp="2011-08-21T13:31:49Z" uid="52921" user="t-i" changeset="9084215" lat="47.346267" lon="8.651259"/>
  <node id="341485072" version="2" timestamp="2009-02-07T16:33:49Z" uid="6975" user="ulfl" changeset="238208" lat="47.3461526" lon="8.6516126">
    <tag k="highway" v="bus_stop"/>
    <tag k="name" v="Ebmatingen, Benkelsteg"/>
    <tag k="operator" v="VBZ"/>
  </node>
  <node id="341485072" version="3" timestamp="2010-11-10T22:05:41Z" uid="368211" user="DidokImportCH" changeset="6340055" lat="47.346153" lon="8.651613">
    <tag k="ele" v="586"/>
    <tag k="highway" v="bus_stop"/>
    <tag k="name" v="Ebmatingen, Benkelsteg"/>
    <tag k="operator" v="VBZ"/>
    <tag k="uic_name" v="Ebmatingen, Benkelsteg"/>
    <tag k="uic_ref" v="8590595"/>
  </node>
  <node id="341485072" version="4" timestamp="2011-08-21T13:31:49Z" uid="52921" user="t-i" changeset="9084215" lat="47.346153" lon="8.651613"/>
  <node id="341485958" version="2" timestamp="2009-02-07T16:33:57Z" uid="6975" user="ulfl" changeset="238208" lat="47.3512737" lon="8.6411788">
    <tag k="highway" v="bus_stop"/>
    <tag k="name" v="Ebmatingen"/>
    <tag k="operator" v="VBZ"/>
  </node>
  <node id="341485958" version="3" timestamp="2010-11-10T22:06:40Z" uid="368211" user="DidokImportCH" changeset="6340055" lat="47.351274" lon="8.641179">
    <tag k="ele" v="608"/>
    <tag k="highway" v="bus_stop"/>
    <tag k="name" v="Ebmatingen"/>
    <tag k="operator" v="VBZ"/>
    <tag k="uic_name" v="Ebmatingen, Dorf"/>
    <tag k="uic_ref" v="8591828"/>
  </node>
  <node id="341485958" version="4" timestamp="2011-11-20T02:00:31Z" uid="52921" user="t-i" changeset="9879616" lat="47.351274" lon="8.641179"/>
  <node id="341485960" version="2" timestamp="2009-02-07T16:33:57Z" uid="6975" user="ulfl" changeset="238208" lat="47.3513991" lon="8.6412244">
    <tag k="highway" v="bus_stop"/>
    <tag k="name" v="Ebmatingen"/>
    <tag k="operator" v="VBZ"/>
  </node>
  <node id="341485960" version="3" timestamp="2010-11-10T22:06:41Z" uid="368211" user="DidokImportCH" changeset="6340055" lat="47.351399" lon="8.641224">
    <tag k="ele" v="608"/>
    <tag k="highway" v="bus_stop"/>
    <tag k="name" v="Ebmatingen"/>
    <tag k="operator" v="VBZ"/>
    <tag k="uic_name" v="Ebmatingen, Dorf"/>
    <tag k="uic_ref" v="8591828"/>
  </node>
  <node id="341485960" version="4" timestamp="2011-11-20T02:00:31Z" uid="52921" user="t-i" changeset="9879616" lat="47.351399" lon="8.641224"/>
  <node id="341486700" version="2" timestamp="2009-02-07T16:34:09Z" uid="6975" user="ulfl" changeset="238208" lat="47.3548772" lon="8.6337196">
    <tag k="highway" v="bus_stop"/>
    <tag k="name" v="Ebmatingen, Leeacherstrasse"/>
    <tag k="operator" v="VBZ"/>
  </node>
  <node id="341486700" version="3" timestamp="2010-11-10T22:04:50Z" uid="368211" user="DidokImportCH" changeset="6340055" lat="47.354877" lon="8.63372">
    <tag k="ele" v="624"/>
    <tag k="highway" v="bus_stop"/>
    <tag k="name" v="Ebmatingen, Leeacherstrasse"/>
    <tag k="operator" v="VBZ"/>
    <tag k="uic_name" v="Ebmatingen, Leeacherstrasse"/>
    <tag k="uic_ref" v="8590596"/>
  </node>
  <node id="341486700" version="4" timestamp="2011-11-20T02:00:31Z" uid="52921" user="t-i" changeset="9879616" lat="47.354877" lon="8.63372"/>
  <node id="341486702" version="2" timestamp="2009-02-07T16:34:08Z" uid="6975" user="ulfl" changeset="238208" lat="47.3546319" lon="8.6352029">
    <tag k="highway" v="bus_stop"/>
    <tag k="name" v="Ebmatingen, Leeacherstrasse"/>
    <tag k="operator" v="VBZ"/>
  </node>
  <node id="341486702" version="3" timestamp="2010-05-05T22:13:36Z" uid="52921" user="t-i" changeset="4617658" lat="47.3546386" lon="8.6352349">
    <tag k="highway" v="bus_stop"/>
    <tag k="name" v="Ebmatingen, Leeacherstrasse"/>
    <tag k="operator" v="VBZ"/>
  </node>
  <node id="341486702" version="4" timestamp="2010-11-10T22:04:49Z" uid="368211" user="DidokImportCH" changeset="6340055" lat="47.354639" lon="8.635235">
    <tag k="ele" v="624"/>
    <tag k="highway" v="bus_stop"/>
    <tag k="name" v="Ebmatingen, Leeacherstrasse"/>
    <tag k="operator" v="VBZ"/>
    <tag k="uic_name" v="Ebmatingen, Leeacherstrasse"/>
    <tag k="uic_ref" v="8590596"/>
  </node>
  <node id="341486702" version="5" timestamp="2011-11-20T02:00:31Z" uid="52921" user="t-i" changeset="9879616" lat="47.354639" lon="8.635235"/>
  <node id="341487607" version="2" timestamp="2009-02-07T16:34:00Z" uid="6975" user="ulfl" changeset="238208" lat="47.3570339" lon="8.6281889">
    <tag k="highway" v="bus_stop"/>
    <tag k="name" v="Binz, Post"/>
  </node>
  <node id="341487607" version="3" timestamp="2009-02-07T22:16:31Z" uid="52921" user="t-i" changeset="247483" lat="47.3570387" lon="8.6281845">
    <tag k="created_by" v="Potlatch 0.10f"/>
    <tag k="highway" v="bus_stop"/>
    <tag k="name" v="Binz, Post"/>
    <tag k="operator" v="VBZ"/>
  </node>
  <node id="341487607" version="4" timestamp="2010-11-10T22:05:03Z" uid="368211" user="DidokImportCH" changeset="6340055" lat="47.357039" lon="8.628184">
    <tag k="ele" v="629"/>
    <tag k="highway" v="bus_stop"/>
    <tag k="name" v="Binz, Post"/>
    <tag k="operator" v="VBZ"/>
    <tag k="uic_name" v="Binz bei Maur, Post"/>
    <tag k="uic_ref" v="8591826"/>
  </node>
  <node id="341487607" version="5" timestamp="2011-05-11T18:05:39Z" uid="453025" user="YCC Esslingen (Youth Computer Club)" changeset="8114422" lat="47.3571576" lon="8.6280227">
    <tag k="ele" v="629"/>
    <tag k="highway" v="bus_stop"/>
    <tag k="name" v="Binz, Post"/>
    <tag k="operator" v="VBZ"/>
    <tag k="uic_name" v="Binz bei Maur, Post"/>
    <tag k="uic_ref" v="8591826"/>
  </node>
  <node id="341487607" version="6" timestamp="2012-01-04T17:43:14Z" uid="52921" user="t-i" changeset="10293375" lat="47.3571576" lon="8.6280227"/>
  <node id="341487609" version="2" timestamp="2009-02-07T16:33:59Z" uid="6975" user="ulfl" changeset="238208" lat="47.3569377" lon="8.6281084">
    <tag k="highway" v="bus_stop"/>
    <tag k="name" v="Binz, Post"/>
  </node>
  <node id="341487609" version="3" timestamp="2009-02-07T22:16:17Z" uid="52921" user="t-i" changeset="247483" lat="47.3569398" lon="8.6281073">
    <tag k="created_by" v="Potlatch 0.10f"/>
    <tag k="highway" v="bus_stop"/>
    <tag k="name" v="Binz, Post"/>
    <tag k="operator" v="VBZ"/>
  </node>
  <node id="341487609" version="4" timestamp="2010-11-10T22:05:02Z" uid="368211" user="DidokImportCH" changeset="6340055" lat="47.35694" lon="8.628107">
    <tag k="ele" v="629"/>
    <tag k="highway" v="bus_stop"/>
    <tag k="name" v="Binz, Post"/>
    <tag k="operator" v="VBZ"/>
    <tag k="uic_name" v="Binz bei Maur, Post"/>
    <tag k="uic_ref" v="8591826"/>
  </node>
  <node id="341487609" version="5" timestamp="2011-05-11T18:05:38Z" uid="453025" user="YCC Esslingen (Youth Computer Club)" changeset="8114422" lat="47.3570704" lon="8.6279825">
    <tag k="ele" v="629"/>
    <tag k="highway" v="bus_stop"/>
    <tag k="name" v="Binz, Post"/>
    <tag k="operator" v="VBZ"/>
    <tag k="uic_name" v="Binz bei Maur, Post"/>
    <tag k="uic_ref" v="8591826"/>
  </node>
  <node id="341487609" version="6" timestamp="2012-01-04T17:43:14Z" uid="52921" user="t-i" changeset="10293375" lat="47.3570704" lon="8.6279825"/>
  <node id="341488135" version="2" timestamp="2009-02-07T16:33:57Z" uid="6975" user="ulfl" changeset="238208" lat="47.3592235" lon="8.6245143">
    <tag k="highway" v="bus_stop"/>
    <tag k="name" v="Binz, Friedlimatt"/>
    <tag k="operator" v="VBZ"/>
  </node>
  <node id="341488135" version="3" timestamp="2010-11-10T22:08:20Z" uid="368211" user="DidokImportCH" changeset="6340055" lat="47.359223" lon="8.624514">
    <tag k="ele" v="632"/>
    <tag k="highway" v="bus_stop"/>
    <tag k="name" v="Binz, Friedlimatt"/>
    <tag k="operator" v="VBZ"/>
    <tag k="uic_name" v="Binz bei Maur, Fridlimatt"/>
    <tag k="uic_ref" v="8590505"/>
  </node>
  <node id="341488135" version="4" timestamp="2012-01-04T17:43:14Z" uid="52921" user="t-i" changeset="10293375" lat="47.359223" lon="8.624514"/>
  <node id="341488136" version="2" timestamp="2009-02-07T16:33:57Z" uid="6975" user="ulfl" changeset="238208" lat="47.3592453" lon="8.6247503">
    <tag k="highway" v="bus_stop"/>
    <tag k="name" v="Binz, Friedlimatt"/>
    <tag k="operator" v="VBZ"/>
  </node>
  <node id="341488136" version="3" timestamp="2010-11-10T22:08:19Z" uid="368211" user="DidokImportCH" changeset="6340055" lat="47.359245" lon="8.62475">
    <tag k="ele" v="632"/>
    <tag k="highway" v="bus_stop"/>
    <tag k="name" v="Binz, Friedlimatt"/>
    <tag k="operator" v="VBZ"/>
    <tag k="uic_name" v="Binz bei Maur, Fridlimatt"/>
    <tag k="uic_ref" v="8590505"/>
  </node>
  <node id="341488136" version="4" timestamp="2012-01-04T17:43:14Z" uid="52921" user="t-i" changeset="10293375" lat="47.359245" lon="8.62475"/>
  <node id="341488659" version="2" timestamp="2009-02-07T16:33:49Z" uid="6975" user="ulfl" changeset="238208" lat="47.362572" lon="8.6181011">
    <tag k="highway" v="bus_stop"/>
    <tag k="name" v="Pfaffhausen, Müseren"/>
    <tag k="operator" v="VBZ"/>
  </node>
  <node id="341488659" version="3" timestamp="2010-11-10T22:04:01Z" uid="368211" user="DidokImportCH" changeset="6340055" lat="47.362572" lon="8.618101">
    <tag k="ele" v="621"/>
    <tag k="highway" v="bus_stop"/>
    <tag k="name" v="Pfaffhausen, Müseren"/>
    <tag k="operator" v="VBZ"/>
    <tag k="uic_name" v="Pfaffhausen, Müseren"/>
    <tag k="uic_ref" v="8591832"/>
  </node>
  <node id="341488659" version="4" timestamp="2011-09-19T15:38:31Z" uid="52921" user="t-i" changeset="9343692" lat="47.362572" lon="8.618101"/>
  <node id="341488661" version="2" timestamp="2009-02-07T16:33:49Z" uid="6975" user="ulfl" changeset="238208" lat="47.3627282" lon="8.6176478">
    <tag k="highway" v="bus_stop"/>
    <tag k="name" v="Pfaffhausen, Müseren"/>
    <tag k="operator" v="VBZ"/>
  </node>
  <node id="341488661" version="3" timestamp="2010-05-30T20:20:35Z" uid="194843" user="feuerstein" changeset="4856987" lat="47.3627024" lon="8.617648">
    <tag k="highway" v="bus_stop"/>
    <tag k="name" v="Pfaffhausen, Müseren"/>
    <tag k="operator" v="VBZ"/>
  </node>
  <node id="341488661" version="4" timestamp="2010-11-10T22:04:02Z" uid="368211" user="DidokImportCH" changeset="6340055" lat="47.362702" lon="8.617648">
    <tag k="ele" v="621"/>
    <tag k="highway" v="bus_stop"/>
    <tag k="name" v="Pfaffhausen, Müseren"/>
    <tag k="operator" v="VBZ"/>
    <tag k="uic_name" v="Pfaffhausen, Müseren"/>
    <tag k="uic_ref" v="8591832"/>
  </node>
  <node id="341488661" version="5" timestamp="2011-09-19T15:38:31Z" uid="52921" user="t-i" changeset="9343692" lat="47.362702" lon="8.617648"/>
</osm>
