<?xml version='1.0' encoding='UTF-8'?>
<osm version="0.6" generator="libosmium/2.20.0">
  <node id="341972056" version="1" timestamp="2009-02-06T13:08:37Z" uid="52921" user="t-i" changeset="191519" lat="47.3405457" lon="8.6521357">
    <tag k="amenity" v="bus_stop"/>
    <tag k="created_by" v="Merkaartor 0.13"/>
    <tag k="name" v="Ebmatingen, Looren"/>
    <tag k="operator" v="VBZ"/>
  </node>
  <node id="341972056" version="2" timestamp="2009-02-07T16:34:04Z" uid="6975" user="ulfl" changeset="238208" lat="47.3405457" lon="8.6521357">
    <tag k="highway" v="bus_stop"/>
    <tag k="name" v="Ebmatingen, Looren"/>
    <tag k="operator" v="VBZ"/>
  </node>
  <node id="341972056" version="3" timestamp="2010-11-10T22:04:19Z" uid="368211" user="DidokImportCH" changeset="6340055" lat="47.340546" lon="8.652136">
    <tag k="ele" v="625"/>
    <tag k="highway" v="bus_stop"/>
    <tag k="name" v="Ebmatingen, Looren"/>
    <tag k="operator" v="VBZ"/>
    <tag k="uic_name" v="Ebmatingen, Looren"/>
    <tag k="uic_ref" v="8590597"/>
  </node>
  <node id="341972056" version="4" timestamp="2011-08-21T13:31:49Z" uid="52921" user="t-i" changeset="9084215" lat="47.340546" lon="8.652136"/>
  <node id="341972058" version="1" timestamp="2009-02-06T13:08:37Z" uid="52921" user="t-i" changeset="191519" lat="47.340782" lon="8.6522322">
    <tag k="amenity" v="bus_stop"/>
    <tag k="created_by" v="Merkaartor 0.13"/>
    <tag k="name" v="Ebmatingen, Looren"/>
    <tag k="operator" v="VBZ"/>
  </node>
  <node id="341972058" version="2" timestamp="2009-02-07T16:34:04Z" uid="6975" user="ulfl" changeset="238208" lat="47.340782" lon="8.6522322">
    <tag k="highway" v="bus_stop"/>
    <tag k="name" v="Ebmatingen, Looren"/>
    <tag k="operator" v="VBZ"/>
  </node>
  <node id="341972058" version="3" timestamp="2010-11-10T22:04:17Z" uid="368211" user="DidokImportCH" changeset="6340055" lat="47.340782" lon="8.652232">
    <tag k="ele" v="625"/>
    <tag k="highway" v="bus_stop"/>
    <tag k="name" v="Ebmatingen, Looren"/>
    <tag k="operator" v="VBZ"/>
    <tag k="uic_name" v="Ebmatingen, Looren"/>
    <tag k="uic_ref" v="8590597"/>
  </node>
  <node id="341972058" version="4" timestamp="2011-08-21T13:31:50Z" uid="52921" user="t-i" changeset="9084215" lat="47.340782" lon="8.652232"/>
</osm>
