<?xml version='1.0' encoding='UTF-8'?>
<osm version="0.6" generator="libosmium/2.20.0">
  <node id="344490451" version="1" timestamp="2009-02-11T18:59:43Z" uid="58091" user="Andreas M" changeset="357524" lat="48.2261031" lon="16.3622868">
    <tag k="addr:city" v="Wien"/>
    <tag k="addr:housenumber" v="4"/>
    <tag k="addr:postcode" v="1090"/>
    <tag k="addr:street" v="Nordbergstraße"/>
    <tag k="name" v="Hotel Mozart"/>
    <tag k="tourism" v="hotel"/>
  </node>
  <node id="344490451" version="2" timestamp="2009-03-04T19:50:07Z" uid="38255" user="BearT" changeset="735980" lat="48.2261031" lon="16.3622868">
    <tag k="addr:city" v="Wien"/>
    <tag k="addr:housenumber" v="4"/>
    <tag k="addr:postcode" v="1090"/>
    <tag k="addr:street" v="Nordbergstraße"/>
    <tag k="name" v="Hotel Mozart"/>
    <tag k="tourism" v="hotel"/>
  </node>
  <node id="344490662" version="1" timestamp="2009-02-11T19:00:50Z" uid="58091" user="Andreas M" changeset="357524" lat="48.2247154" lon="16.3640198">
    <tag k="addr:city" v="Wien"/>
    <tag k="addr:housenumber" v="12"/>
    <tag k="addr:postcode" v="1090"/>
    <tag k="addr:street" v="Glasergasse"/>
    <tag k="amenity" v="pub"/>
    <tag k="name" v="Karibische Bar"/>
  </node>
  <node id="344490662" version="2" timestamp="2011-03-09T19:42:20Z" uid="99800" user="wolfbert" changeset="7507728" lat="48.2247742" lon="16.3639711">
    <tag k="addr:city" v="Wien"/>
    <tag k="addr:housenumber" v="12"/>
    <tag k="addr:postcode" v="1090"/>
    <tag k="addr:street" v="Glasergasse"/>
    <tag k="amenity" v="pub"/>
    <tag k="name" v="Karibische Bar"/>
  </node>
  <node id="344490662" version="3" timestamp="2012-03-27T21:42:09Z" uid="298560" user="evod" changeset="11121337" lat="48.224797" lon="16.3639869">
    <tag k="addr:city" v="Wien"/>
    <tag k="addr:housenumber" v="12"/>
    <tag k="addr:postcode" v="1090"/>
    <tag k="addr:street" v="Glasergasse"/>
    <tag k="amenity" v="pub"/>
    <tag k="name" v="Karibische Bar"/>
  </node>
  <node id="344490680" version="1" timestamp="2009-02-11T19:00:55Z" uid="38524" user="Kuddy" changeset="355845" lat="49.8211649" lon="6.9023609">
    <tag k="created_by" v="JOSM"/>
    <tag k="name" v="Im Grünen"/>
    <tag k="tourism" v="camp_site"/>
  </node>
  <node id="344490680" version="2" timestamp="2009-03-29T14:50:01Z" uid="38524" user="Kuddy" changeset="867011" lat="49.8208711" lon="6.902859">
    <tag k="created_by" v="JOSM"/>
    <tag k="name" v="Im Grünen"/>
    <tag k="tourism" v="camp_site"/>
  </node>
  <node id="344490680" version="3" timestamp="2010-05-27T14:20:18Z" uid="233101" user="Osprey" changeset="4822495" lat="49.8208711" lon="6.902859">
    <tag k="name" v="Campingplatz Trittenheim"/>
    <tag k="tourism" v="camp_site"/>
    <tag k="website" v="www.camping-trittenheim.de"/>
  </node>
  <node id="344491374" version="1" timestamp="2009-02-11T19:02:34Z" uid="58091" user="Andreas M" changeset="357524" lat="48.2199105" lon="16.3721566">
    <tag k="addr:city" v="Wien"/>
    <tag k="addr:housenumber" v="10"/>
    <tag k="addr:postcode" v="1020"/>
    <tag k="addr:street" v="Untere Augartenstraße"/>
    <tag k="amenity" v="restaurant"/>
    <tag k="cuisine" v="pizza"/>
    <tag k="name" v="Pizzeria Abeillo"/>
    <tag k="url" v="http://pizzeria-arbaillo.at/"/>
  </node>
  <node id="344491374" version="2" timestamp="2010-09-20T12:48:11Z" uid="65148" user="Pirat Michi" changeset="5828900" lat="48.2199105" lon="16.3721566">
    <tag k="addr:city" v="Wien"/>
    <tag k="addr:housenumber" v="10"/>
    <tag k="addr:postcode" v="1020"/>
    <tag k="addr:street" v="Untere Augartenstraße"/>
    <tag k="amenity" v="restaurant"/>
    <tag k="cuisine" v="pizza"/>
    <tag k="name" v="Pizzeria Abeillo"/>
    <tag k="website" v="http://pizzeria-arbaillo.at/"/>
  </node>
  <node id="344491374" version="3" timestamp="2011-03-20T15:27:47Z" uid="38456" user="MikeGr" changeset="7617637" lat="48.2199105" lon="16.3721566">
    <tag k="addr:city" v="Wien"/>
    <tag k="addr:housenumber" v="10"/>
    <tag k="addr:postcode" v="1020"/>
    <tag k="addr:street" v="Untere Augartenstraße"/>
    <tag k="amenity" v="restaurant"/>
    <tag k="cuisine" v="pizza"/>
    <tag k="name" v="Pizzeria Abeillo"/>
    <tag k="smoking" v="yes"/>
    <tag k="website" v="http://pizzeria-arbaillo.at/"/>
  </node>
  <node id="344491374" version="4" timestamp="2011-03-20T15:44:34Z" uid="38456" user="MikeGr" changeset="7617637" lat="48.2199105" lon="16.3721566">
    <tag k="addr:city" v="Wien"/>
    <tag k="addr:country" v="AT"/>
    <tag k="addr:housenumber" v="10"/>
    <tag k="addr:postcode" v="1020"/>
    <tag k="addr:street" v="Untere Augartenstraße"/>
    <tag k="amenity" v="restaurant"/>
    <tag k="cuisine" v="pizza"/>
    <tag k="name" v="Pizzeria Abeillo"/>
    <tag k="smoking" v="yes"/>
    <tag k="website" v="http://pizzeria-arbaillo.at/"/>
  </node>
  <node id="344491882" version="2" timestamp="2009-03-08T14:19:36Z" uid="6975" user="ulfl" changeset="757880" lat="48.1329155" lon="11.5922336">
    <tag k="name" v="Zoo Hecker"/>
    <tag k="shop" v="pet"/>
  </node>
  <node id="344491882" version="3" timestamp="2011-06-25T12:43:20Z" uid="64164" user="osmkurt" changeset="8541563" lat="48.1329048" lon="11.5922175">
    <tag k="name" v="Zoo Hecker"/>
    <tag k="shop" v="pet"/>
  </node>
  <node id="344491882" version="4" timestamp="2011-12-21T13:58:37Z" uid="109029" user="shorty_de" changeset="10171820" lat="48.1329422" lon="11.5922869">
    <tag k="addr:city" v="München"/>
    <tag k="addr:country" v="DE"/>
    <tag k="addr:housenumber" v="12"/>
    <tag k="addr:postcode" v="81667"/>
    <tag k="addr:street" v="Innere Wiener Straße"/>
    <tag k="name" v="Zoo Hecker"/>
    <tag k="shop" v="pet"/>
  </node>
  <node id="344492355" version="1" timestamp="2009-02-11T19:05:57Z" uid="58091" user="Andreas M" changeset="357524" lat="48.231" lon="16.3665364">
    <tag k="addr:city" v="Wien"/>
    <tag k="addr:housenumber" v="51"/>
    <tag k="addr:postcode" v="1200"/>
    <tag k="addr:street" v="Klosterneuburger Straße"/>
    <tag k="amenity" v="restaurant"/>
    <tag k="cuisine" v="regional"/>
    <tag k="name" v="Schnitzelmeister"/>
    <tag k="url" v="http://schnitzelmeister.at/"/>
  </node>
  <node id="344492355" version="2" timestamp="2010-09-20T12:47:38Z" uid="65148" user="Pirat Michi" changeset="5828900" lat="48.231" lon="16.3665364">
    <tag k="addr:city" v="Wien"/>
    <tag k="addr:housenumber" v="51"/>
    <tag k="addr:postcode" v="1200"/>
    <tag k="addr:street" v="Klosterneuburger Straße"/>
    <tag k="amenity" v="restaurant"/>
    <tag k="cuisine" v="regional"/>
    <tag k="name" v="Schnitzelmeister"/>
    <tag k="website" v="http://schnitzelmeister.at/"/>
  </node>
  <node id="344492522" version="1" timestamp="2009-02-11T19:07:39Z" uid="58091" user="Andreas M" changeset="357524" lat="48.2307905" lon="16.3740809">
    <tag k="addr:city" v="Wien"/>
    <tag k="addr:housenumber" v="49"/>
    <tag k="addr:postcode" v="1200"/>
    <tag k="addr:street" v="Wallensteinstraße"/>
    <tag k="amenity" v="restaurant"/>
    <tag k="cuisine" v="regional"/>
    <tag k="name" v="Gasthaus Haller"/>
    <tag k="url" v="http://gasthaus-haller.at/"/>
  </node>
  <node id="344492522" version="2" timestamp="2009-10-24T17:25:02Z" uid="38385" user="finbref" changeset="2939990" lat="48.2308491" lon="16.3740644">
    <tag k="addr:city" v="Wien"/>
    <tag k="addr:housenumber" v="49"/>
    <tag k="addr:postcode" v="1200"/>
    <tag k="addr:street" v="Wallensteinstraße"/>
    <tag k="amenity" v="restaurant"/>
    <tag k="cuisine" v="regional"/>
    <tag k="name" v="Gasthaus Haller"/>
    <tag k="url" v="http://gasthaus-haller.at/"/>
  </node>
  <node id="344492522" version="3" timestamp="2010-09-20T12:47:45Z" uid="65148" user="Pirat Michi" changeset="5828900" lat="48.2308491" lon="16.3740644">
    <tag k="addr:city" v="Wien"/>
    <tag k="addr:housenumber" v="49"/>
    <tag k="addr:postcode" v="1200"/>
    <tag k="addr:street" v="Wallensteinstraße"/>
    <tag k="amenity" v="restaurant"/>
    <tag k="cuisine" v="regional"/>
    <tag k="name" v="Gasthaus Haller"/>
    <tag k="website" v="http://gasthaus-haller.at/"/>
  </node>
  <node id="344492522" version="4" timestamp="2010-12-26T18:20:19Z" uid="5359" user="user_5359" changeset="6770778" lat="48.2308491" lon="16.3740644">
    <tag k="addr:city" v="Wien"/>
    <tag k="addr:country" v="AT"/>
    <tag k="addr:housenumber" v="49"/>
    <tag k="addr:postcode" v="1200"/>
    <tag k="addr:street" v="Wallensteinstraße"/>
    <tag k="amenity" v="restaurant"/>
    <tag k="cuisine" v="regional"/>
    <tag k="name" v="Gasthaus Haller"/>
    <tag k="website" v="http://gasthaus-haller.at/"/>
  </node>
  <node id="344493483" version="1" timestamp="2009-02-11T19:10:29Z" uid="38524" user="Kuddy" changeset="355845" lat="49.8491161" lon="6.8930417">
    <tag k="created_by" v="JOSM"/>
    <tag k="name" v="Camping Neumagen-Dhron"/>
    <tag k="tourism" v="camp_site"/>
  </node>
  <node id="344493485" version="1" timestamp="2009-02-11T19:10:29Z" uid="38524" user="Kuddy" changeset="355845" lat="49.842912" lon="6.8572456">
    <tag k="created_by" v="JOSM"/>
    <tag k="name" v="Camping Klüsserath"/>
    <tag k="tourism" v="camp_site"/>
  </node>
  <node id="344493485" version="2" timestamp="2011-08-01T20:15:53Z" uid="44217" user="kjon" changeset="8894145" lat="49.842912" lon="6.8572456"/>
  <node id="344493487" version="1" timestamp="2009-02-11T19:10:30Z" uid="38524" user="Kuddy" changeset="355845" lat="49.7995642" lon="6.926368">
    <tag k="created_by" v="JOSM"/>
    <tag k="name" v="Camping Moselhöhe"/>
    <tag k="tourism" v="camp_site"/>
  </node>
  <node id="344493487" version="2" timestamp="2011-08-17T21:51:00Z" uid="499013" user="Plumsklo" changeset="9052130" lat="49.7999499" lon="6.9274366">
    <tag k="name" v="Camping Moselhöhe"/>
    <tag k="tourism" v="camp_site"/>
  </node>
  <node id="344493487" version="3" timestamp="2011-08-17T21:57:58Z" uid="499013" user="Plumsklo" changeset="9052368" lat="49.7999499" lon="6.9274366"/>
  <node id="344494339" version="2" timestamp="2009-11-06T18:47:07Z" uid="36809" user="pfoten_weg_!_" changeset="3050704" lat="54.3057764" lon="21.571614"/>
  <node id="344494341" version="2" timestamp="2009-11-06T18:47:08Z" uid="36809" user="pfoten_weg_!_" changeset="3050704" lat="54.3059331" lon="21.5734041"/>
  <node id="344494343" version="2" timestamp="2009-11-06T18:47:09Z" uid="36809" user="pfoten_weg_!_" changeset="3050704" lat="54.3057503" lon="21.575239"/>
  <node id="344494345" version="2" timestamp="2009-11-06T18:48:27Z" uid="36809" user="pfoten_weg_!_" changeset="3050704" lat="54.3057503" lon="21.5773425"/>
  <node id="344494347" version="2" timestamp="2009-11-06T18:47:38Z" uid="36809" user="pfoten_weg_!_" changeset="3050704" lat="54.304758" lon="21.5789088"/>
  <node id="344494349" version="2" timestamp="2009-11-06T18:47:39Z" uid="36809" user="pfoten_weg_!_" changeset="3050704" lat="54.3032174" lon="21.5778795"/>
  <node id="344494351" version="2" timestamp="2009-11-06T18:47:37Z" uid="36809" user="pfoten_weg_!_" changeset="3050704" lat="54.3019117" lon="21.5779243"/>
  <node id="344494353" version="2" timestamp="2009-11-06T18:47:35Z" uid="36809" user="pfoten_weg_!_" changeset="3050704" lat="54.3005276" lon="21.5773872"/>
  <node id="344494355" version="2" timestamp="2009-11-06T18:46:52Z" uid="36809" user="pfoten_weg_!_" changeset="3050704" lat="54.2995352" lon="21.5771187"/>
  <node id="344494358" version="2" timestamp="2009-11-06T18:46:54Z" uid="36809" user="pfoten_weg_!_" changeset="3050704" lat="54.2980465" lon="21.5743887"/>
  <node id="344494360" version="2" timestamp="2009-11-06T18:46:56Z" uid="36809" user="pfoten_weg_!_" changeset="3050704" lat="54.2968452" lon="21.574523"/>
  <node id="344494362" version="2" timestamp="2009-11-06T18:46:55Z" uid="36809" user="pfoten_weg_!_" changeset="3050704" lat="54.295487" lon="21.5732699"/>
  <node id="344494365" version="2" timestamp="2009-11-06T18:46:55Z" uid="36809" user="pfoten_weg_!_" changeset="3050704" lat="54.2946512" lon="21.5730909"/>
  <node id="344494367" version="2" timestamp="2009-11-06T18:46:25Z" uid="36809" user="pfoten_weg_!_" changeset="3050704" lat="54.2940505" lon="21.5737174"/>
  <node id="344494369" version="2" timestamp="2009-11-06T18:46:25Z" uid="36809" user="pfoten_weg_!_" changeset="3050704" lat="54.293946" lon="21.5758208"/>
  <node id="344494370" version="2" timestamp="2009-11-06T18:47:18Z" uid="36809" user="pfoten_weg_!_" changeset="3050704" lat="54.2942072" lon="21.5780138"/>
  <node id="344494371" version="2" timestamp="2009-11-06T18:47:34Z" uid="36809" user="pfoten_weg_!_" changeset="3050704" lat="54.2947818" lon="21.5794459"/>
  <node id="344494372" version="2" timestamp="2009-11-06T18:47:33Z" uid="36809" user="pfoten_weg_!_" changeset="3050704" lat="54.2947818" lon="21.5811913"/>
  <node id="344494373" version="2" timestamp="2009-11-06T18:47:17Z" uid="36809" user="pfoten_weg_!_" changeset="3050704" lat="54.2938415" lon="21.5828472"/>
  <node id="344494374" version="2" timestamp="2009-11-06T18:47:16Z" uid="36809" user="pfoten_weg_!_" changeset="3050704" lat="54.293084" lon="21.5841898"/>
  <node id="344494376" version="2" timestamp="2009-11-06T18:47:13Z" uid="36809" user="pfoten_weg_!_" changeset="3050704" lat="54.2933191" lon="21.586338"/>
  <node id="344494377" version="2" timestamp="2009-11-06T18:47:15Z" uid="36809" user="pfoten_weg_!_" changeset="3050704" lat="54.2941027" lon="21.5862485"/>
  <node id="344494378" version="2" timestamp="2009-11-06T18:47:39Z" uid="36809" user="pfoten_weg_!_" changeset="3050704" lat="54.295043" lon="21.5885756"/>
  <node id="344494379" version="2" timestamp="2009-11-06T18:47:40Z" uid="36809" user="pfoten_weg_!_" changeset="3050704" lat="54.2960094" lon="21.5909028"/>
  <node id="344494380" version="2" timestamp="2009-11-06T18:47:43Z" uid="36809" user="pfoten_weg_!_" changeset="3050704" lat="54.297263" lon="21.5909476"/>
  <node id="344494381" version="2" timestamp="2009-11-06T18:47:44Z" uid="36809" user="pfoten_weg_!_" changeset="3050704" lat="54.2983599" lon="21.5909923"/>
  <node id="344494382" version="2" timestamp="2009-11-06T18:47:45Z" uid="36809" user="pfoten_weg_!_" changeset="3050704" lat="54.2992479" lon="21.5913951"/>
  <node id="344494383" version="2" timestamp="2009-11-06T18:47:51Z" uid="36809" user="pfoten_weg_!_" changeset="3050704" lat="54.3003448" lon="21.5906343"/>
  <node id="344494384" version="2" timestamp="2009-11-06T18:47:52Z" uid="36809" user="pfoten_weg_!_" changeset="3050704" lat="54.3012588" lon="21.5897392"/>
  <node id="344494385" version="2" timestamp="2009-11-06T18:47:53Z" uid="36809" user="pfoten_weg_!_" changeset="3050704" lat="54.3020683" lon="21.5895602"/>
  <node id="344494386" version="2" timestamp="2009-11-06T18:47:54Z" uid="36809" user="pfoten_weg_!_" changeset="3050704" lat="54.3025906" lon="21.5893812"/>
  <node id="344494387" version="2" timestamp="2009-11-06T18:47:48Z" uid="36809" user="pfoten_weg_!_" changeset="3050704" lat="54.3024078" lon="21.5905001"/>
  <node id="344494388" version="2" timestamp="2009-11-06T18:47:50Z" uid="36809" user="pfoten_weg_!_" changeset="3050704" lat="54.3024339" lon="21.5921559"/>
  <node id="344494402" version="2" timestamp="2009-11-06T18:47:57Z" uid="36809" user="pfoten_weg_!_" changeset="3050704" lat="54.3012588" lon="21.5918427"/>
  <node id="344494405" version="2" timestamp="2009-11-06T18:47:56Z" uid="36809" user="pfoten_weg_!_" changeset="3050704" lat="54.3005015" lon="21.5914399"/>
  <node id="344494407" version="2" timestamp="2009-11-06T18:47:58Z" uid="36809" user="pfoten_weg_!_" changeset="3050704" lat="54.3001358" lon="21.5924245"/>
  <node id="344494411" version="2" timestamp="2009-11-06T18:47:47Z" uid="36809" user="pfoten_weg_!_" changeset="3050704" lat="54.2997441" lon="21.5934986"/>
  <node id="344494414" version="2" timestamp="2009-11-06T18:48:01Z" uid="36809" user="pfoten_weg_!_" changeset="3050704" lat="54.3006581" lon="21.5945279"/>
  <node id="344494416" version="2" timestamp="2009-11-06T18:48:02Z" uid="36809" user="pfoten_weg_!_" changeset="3050704" lat="54.3018594" lon="21.5955572"/>
  <node id="344494418" version="2" timestamp="2009-11-06T18:48:04Z" uid="36809" user="pfoten_weg_!_" changeset="3050704" lat="54.3027995" lon="21.5973026"/>
  <node id="344494420" version="2" timestamp="2009-11-06T18:48:04Z" uid="36809" user="pfoten_weg_!_" changeset="3050704" lat="54.3036091" lon="21.598511"/>
  <node id="344494421" version="2" timestamp="2009-11-06T18:48:06Z" uid="36809" user="pfoten_weg_!_" changeset="3050704" lat="54.3039746" lon="21.5984662"/>
  <node id="344494424" version="2" timestamp="2009-11-06T18:48:45Z" uid="36809" user="pfoten_weg_!_" changeset="3050704" lat="54.304288" lon="21.599227"/>
  <node id="344494426" version="2" timestamp="2009-11-06T18:48:44Z" uid="36809" user="pfoten_weg_!_" changeset="3050704" lat="54.3048364" lon="21.5995851"/>
  <node id="344494428" version="2" timestamp="2009-11-06T18:48:08Z" uid="36809" user="pfoten_weg_!_" changeset="3050704" lat="54.3047058" lon="21.59869"/>
  <node id="344494429" version="2" timestamp="2009-11-06T18:48:07Z" uid="36809" user="pfoten_weg_!_" changeset="3050704" lat="54.3040707" lon="21.5979471"/>
  <node id="344494431" version="2" timestamp="2009-11-06T18:48:09Z" uid="36809" user="pfoten_weg_!_" changeset="3050704" lat="54.3046055" lon="21.597231"/>
  <node id="344494433" version="2" timestamp="2009-11-06T18:48:10Z" uid="36809" user="pfoten_weg_!_" changeset="3050704" lat="54.3046831" lon="21.5954935"/>
  <node id="344494435" version="2" timestamp="2009-11-06T18:47:59Z" uid="36809" user="pfoten_weg_!_" changeset="3050704" lat="54.3052029" lon="21.5933652"/>
  <node id="344494437" version="2" timestamp="2009-11-06T18:48:28Z" uid="36809" user="pfoten_weg_!_" changeset="3050704" lat="54.3054628" lon="21.5928703"/>
  <node id="344494439" version="2" timestamp="2009-11-06T18:48:29Z" uid="36809" user="pfoten_weg_!_" changeset="3050704" lat="54.3067045" lon="21.5933652"/>
  <node id="344494441" version="2" timestamp="2009-11-06T18:48:25Z" uid="36809" user="pfoten_weg_!_" changeset="3050704" lat="54.3076575" lon="21.5929693"/>
  <node id="344494443" version="2" timestamp="2009-11-06T18:48:24Z" uid="36809" user="pfoten_weg_!_" changeset="3050704" lat="54.3084371" lon="21.5918804"/>
  <node id="344494445" version="2" timestamp="2009-11-06T18:48:24Z" uid="36809" user="pfoten_weg_!_" changeset="3050704" lat="54.3094766" lon="21.5901976"/>
  <node id="344494447" version="2" timestamp="2009-11-06T18:48:20Z" uid="36809" user="pfoten_weg_!_" changeset="3050704" lat="54.3088414" lon="21.5923753"/>
  <node id="344494449" version="2" timestamp="2009-11-06T18:48:21Z" uid="36809" user="pfoten_weg_!_" changeset="3050704" lat="54.3086681" lon="21.5938107"/>
  <node id="344494452" version="2" timestamp="2009-11-06T18:48:18Z" uid="36809" user="pfoten_weg_!_" changeset="3050704" lat="54.3088703" lon="21.59485"/>
  <node id="344494454" version="2" timestamp="2009-11-06T18:48:17Z" uid="36809" user="pfoten_weg_!_" changeset="3050704" lat="54.3082639" lon="21.5961864"/>
  <node id="344494456" version="2" timestamp="2009-11-06T18:48:15Z" uid="36809" user="pfoten_weg_!_" changeset="3050704" lat="54.3082061" lon="21.5977207"/>
  <node id="344494458" version="2" timestamp="2009-11-06T18:48:15Z" uid="36809" user="pfoten_weg_!_" changeset="3050704" lat="54.3086681" lon="21.5989085"/>
  <node id="344494461" version="2" timestamp="2009-11-06T18:48:55Z" uid="36809" user="pfoten_weg_!_" changeset="3050704" lat="54.3095344" lon="21.5995025"/>
  <node id="344494463" version="2" timestamp="2009-11-06T18:48:14Z" uid="36809" user="pfoten_weg_!_" changeset="3050704" lat="54.3100253" lon="21.5988096"/>
  <node id="344494465" version="2" timestamp="2009-11-06T18:48:11Z" uid="36809" user="pfoten_weg_!_" changeset="3050704" lat="54.310083" lon="21.5967803"/>
  <node id="344494467" version="2" timestamp="2009-11-06T18:48:11Z" uid="36809" user="pfoten_weg_!_" changeset="3050704" lat="54.3111802" lon="21.5979682"/>
  <node id="344494470" version="2" timestamp="2009-11-06T18:49:07Z" uid="36809" user="pfoten_weg_!_" changeset="3050704" lat="54.3111225" lon="21.6001954"/>
  <node id="344494472" version="2" timestamp="2009-11-06T18:49:09Z" uid="36809" user="pfoten_weg_!_" changeset="3050704" lat="54.3121042" lon="21.6015812"/>
  <node id="344494474" version="2" timestamp="2009-11-06T18:49:08Z" uid="36809" user="pfoten_weg_!_" changeset="3050704" lat="54.3114112" lon="21.603462"/>
  <node id="344494476" version="2" timestamp="2009-11-06T18:49:05Z" uid="36809" user="pfoten_weg_!_" changeset="3050704" lat="54.3120176" lon="21.6040559"/>
  <node id="344494478" version="2" timestamp="2009-11-06T18:49:04Z" uid="36809" user="pfoten_weg_!_" changeset="3050704" lat="54.3113246" lon="21.6059367"/>
  <node id="344494480" version="2" timestamp="2009-11-06T18:48:52Z" uid="36809" user="pfoten_weg_!_" changeset="3050704" lat="54.3099098" lon="21.6064316"/>
  <node id="344494483" version="2" timestamp="2009-11-06T18:48:50Z" uid="36809" user="pfoten_weg_!_" changeset="3050704" lat="54.3085815" lon="21.6057882"/>
  <node id="344494485" version="2" timestamp="2009-11-06T18:48:51Z" uid="36809" user="pfoten_weg_!_" changeset="3050704" lat="54.3083794" lon="21.6050458"/>
  <node id="344494487" version="2" timestamp="2009-11-06T18:48:53Z" uid="36809" user="pfoten_weg_!_" changeset="3050704" lat="54.3076575" lon="21.6045509"/>
  <node id="344494490" version="2" timestamp="2009-11-06T18:48:48Z" uid="36809" user="pfoten_weg_!_" changeset="3050704" lat="54.3066468" lon="21.6039074"/>
  <node id="344494492" version="2" timestamp="2009-11-06T18:48:46Z" uid="36809" user="pfoten_weg_!_" changeset="3050704" lat="54.3058382" lon="21.6024721"/>
  <node id="344494494" version="2" timestamp="2009-11-06T18:48:31Z" uid="36809" user="pfoten_weg_!_" changeset="3050704" lat="54.3041921" lon="21.6027196"/>
  <node id="344494497" version="2" timestamp="2009-11-06T18:48:32Z" uid="36809" user="pfoten_weg_!_" changeset="3050704" lat="54.3029215" lon="21.603462"/>
  <node id="344494500" version="2" timestamp="2009-11-06T18:48:39Z" uid="36809" user="pfoten_weg_!_" changeset="3050704" lat="54.3021128" lon="21.6037095"/>
  <node id="344494502" version="2" timestamp="2009-11-06T18:48:38Z" uid="36809" user="pfoten_weg_!_" changeset="3050704" lat="54.3011886" lon="21.6024226"/>
  <node id="344494505" version="2" timestamp="2009-11-06T18:48:37Z" uid="36809" user="pfoten_weg_!_" changeset="3050704" lat="54.3000045" lon="21.6015812"/>
  <node id="344494507" version="2" timestamp="2009-11-06T18:48:34Z" uid="36809" user="pfoten_weg_!_" changeset="3050704" lat="54.2987914" lon="21.6012348"/>
  <node id="344494509" version="2" timestamp="2009-11-06T18:48:33Z" uid="36809" user="pfoten_weg_!_" changeset="3050704" lat="54.2971162" lon="21.6007893"/>
  <node id="344494511" version="2" timestamp="2009-11-06T18:48:44Z" uid="36809" user="pfoten_weg_!_" changeset="3050704" lat="54.2969429" lon="21.5997499"/>
  <node id="344494514" version="2" timestamp="2009-11-06T18:48:41Z" uid="36809" user="pfoten_weg_!_" changeset="3050704" lat="54.2957009" lon="21.599651"/>
  <node id="344494516" version="2" timestamp="2009-11-06T18:48:40Z" uid="36809" user="pfoten_weg_!_" changeset="3050704" lat="54.2950654" lon="21.5997499"/>
  <node id="344494518" version="2" timestamp="2009-11-06T18:47:30Z" uid="36809" user="pfoten_weg_!_" changeset="3050704" lat="54.2940255" lon="21.5976217"/>
  <node id="344494520" version="2" timestamp="2009-11-06T18:47:23Z" uid="36809" user="pfoten_weg_!_" changeset="3050704" lat="54.2936789" lon="21.5972257"/>
  <node id="344494523" version="2" timestamp="2009-11-06T18:47:25Z" uid="36809" user="pfoten_weg_!_" changeset="3050704" lat="54.2938233" lon="21.5960379"/>
  <node id="344494525" version="2" timestamp="2009-11-06T18:47:24Z" uid="36809" user="pfoten_weg_!_" changeset="3050704" lat="54.294401" lon="21.59485"/>
  <node id="344494527" version="2" timestamp="2009-11-06T18:47:19Z" uid="36809" user="pfoten_weg_!_" changeset="3050704" lat="54.2941122" lon="21.5931672"/>
  <node id="344494530" version="2" timestamp="2009-11-06T18:47:27Z" uid="36809" user="pfoten_weg_!_" changeset="3050704" lat="54.2931589" lon="21.5918804"/>
  <node id="344494532" version="2" timestamp="2009-11-06T18:47:27Z" uid="36809" user="pfoten_weg_!_" changeset="3050704" lat="54.2916279" lon="21.5918309"/>
  <node id="344494535" version="2" timestamp="2009-11-06T18:47:28Z" uid="36809" user="pfoten_weg_!_" changeset="3050704" lat="54.2915124" lon="21.5899996"/>
  <node id="344494537" version="2" timestamp="2009-11-06T18:47:29Z" uid="36809" user="pfoten_weg_!_" changeset="3050704" lat="54.2908479" lon="21.5902966"/>
  <node id="344494541" version="2" timestamp="2009-11-06T18:47:12Z" uid="36809" user="pfoten_weg_!_" changeset="3050704" lat="54.2906457" lon="21.5864855"/>
  <node id="344494543" version="2" timestamp="2009-11-06T18:47:11Z" uid="36809" user="pfoten_weg_!_" changeset="3050704" lat="54.2897502" lon="21.5831694"/>
  <node id="344494546" version="2" timestamp="2009-11-06T18:47:10Z" uid="36809" user="pfoten_weg_!_" changeset="3050704" lat="54.2894613" lon="21.5806452"/>
  <node id="344494548" version="2" timestamp="2009-11-06T18:46:17Z" uid="36809" user="pfoten_weg_!_" changeset="3050704" lat="54.2897791" lon="21.5759433"/>
  <node id="344494550" version="2" timestamp="2009-11-06T18:46:18Z" uid="36809" user="pfoten_weg_!_" changeset="3050704" lat="54.2902413" lon="21.5719838"/>
  <node id="344494552" version="2" timestamp="2009-11-06T18:46:23Z" uid="36809" user="pfoten_weg_!_" changeset="3050704" lat="54.2903857" lon="21.5692121"/>
  <node id="344494555" version="2" timestamp="2009-11-06T18:46:10Z" uid="36809" user="pfoten_weg_!_" changeset="3050704" lat="54.289808" lon="21.565995"/>
  <node id="344494557" version="2" timestamp="2009-11-06T18:46:01Z" uid="36809" user="pfoten_weg_!_" changeset="3050704" lat="54.2889124" lon="21.5653021"/>
  <node id="344494559" version="2" timestamp="2009-11-06T18:46:02Z" uid="36809" user="pfoten_weg_!_" changeset="3050704" lat="54.2884502" lon="21.5635203"/>
  <node id="344494561" version="2" timestamp="2009-11-06T18:46:04Z" uid="36809" user="pfoten_weg_!_" changeset="3050704" lat="54.287699" lon="21.5631739"/>
  <node id="344494563" version="2" timestamp="2009-11-06T18:46:08Z" uid="36809" user="pfoten_weg_!_" changeset="3050704" lat="54.2874101" lon="21.5638668"/>
  <node id="344494565" version="2" timestamp="2009-11-06T18:46:09Z" uid="36809" user="pfoten_weg_!_" changeset="3050704" lat="54.2870923" lon="21.5628769"/>
  <node id="344494567" version="2" timestamp="2009-11-06T18:46:05Z" uid="36809" user="pfoten_weg_!_" changeset="3050704" lat="54.2874679" lon="21.5597588"/>
  <node id="344494570" version="2" timestamp="2009-11-06T18:46:03Z" uid="36809" user="pfoten_weg_!_" changeset="3050704" lat="54.2886813" lon="21.5588184"/>
  <node id="344494572" version="2" timestamp="2009-11-06T18:46:12Z" uid="36809" user="pfoten_weg_!_" changeset="3050704" lat="54.2904724" lon="21.5586204"/>
  <node id="344494576" version="2" timestamp="2009-11-06T18:46:15Z" uid="36809" user="pfoten_weg_!_" changeset="3050704" lat="54.2906457" lon="21.5600557"/>
  <node id="344494578" version="2" timestamp="2009-11-06T18:46:14Z" uid="36809" user="pfoten_weg_!_" changeset="3050704" lat="54.2917146" lon="21.5606497"/>
  <node id="344494580" version="2" timestamp="2009-11-06T18:46:16Z" uid="36809" user="pfoten_weg_!_" changeset="3050704" lat="54.2925812" lon="21.5610456"/>
  <node id="344494582" version="2" timestamp="2009-11-06T18:46:28Z" uid="36809" user="pfoten_weg_!_" changeset="3050704" lat="54.2953254" lon="21.5600062"/>
  <node id="344494585" version="2" timestamp="2009-11-06T18:46:28Z" uid="36809" user="pfoten_weg_!_" changeset="3050704" lat="54.2970296" lon="21.5599567"/>
  <node id="344494587" version="2" timestamp="2009-11-06T18:46:29Z" uid="36809" user="pfoten_weg_!_" changeset="3050704" lat="54.2990803" lon="21.5607981"/>
  <node id="344494588" version="2" timestamp="2009-11-06T18:46:36Z" uid="36809" user="pfoten_weg_!_" changeset="3050704" lat="54.3009287" lon="21.5615405"/>
  <node id="344494589" version="2" timestamp="2009-11-06T18:46:36Z" uid="36809" user="pfoten_weg_!_" changeset="3050704" lat="54.301593" lon="21.5609466"/>
  <node id="344494590" version="2" timestamp="2009-11-06T18:46:31Z" uid="36809" user="pfoten_weg_!_" changeset="3050704" lat="54.3016796" lon="21.5590164"/>
  <node id="344494591" version="2" timestamp="2009-11-06T18:46:30Z" uid="36809" user="pfoten_weg_!_" changeset="3050704" lat="54.3019684" lon="21.5558487"/>
  <node id="344494592" version="2" timestamp="2009-11-06T18:46:27Z" uid="36809" user="pfoten_weg_!_" changeset="3050704" lat="54.3028926" lon="21.5551063"/>
  <node id="344494593" version="2" timestamp="2009-11-06T18:46:35Z" uid="36809" user="pfoten_weg_!_" changeset="3050704" lat="54.3030947" lon="21.5572346"/>
  <node id="344494594" version="2" timestamp="2009-11-06T18:46:34Z" uid="36809" user="pfoten_weg_!_" changeset="3050704" lat="54.3030659" lon="21.5633718"/>
  <node id="344494595" version="2" timestamp="2009-11-06T18:46:57Z" uid="36809" user="pfoten_weg_!_" changeset="3050704" lat="54.3034702" lon="21.5669849"/>
  <node id="344494596" version="2" timestamp="2009-11-06T18:47:01Z" uid="36809" user="pfoten_weg_!_" changeset="3050704" lat="54.30399" lon="21.5692616"/>
  <node id="344494597" version="2" timestamp="2009-11-06T18:46:59Z" uid="36809" user="pfoten_weg_!_" changeset="3050704" lat="54.3039322" lon="21.5705485"/>
  <node id="344494598" version="2" timestamp="2009-11-06T18:46:58Z" uid="36809" user="pfoten_weg_!_" changeset="3050704" lat="54.3046253" lon="21.5717363"/>
  <node id="344494599" version="2" timestamp="2009-11-06T18:51:12Z" uid="36809" user="pfoten_weg_!_" changeset="3050704" lat="54.3167237" lon="21.6037095"/>
  <node id="344494600" version="2" timestamp="2009-11-06T18:49:15Z" uid="36809" user="pfoten_weg_!_" changeset="3050704" lat="54.3163772" lon="21.6037095"/>
  <node id="344494601" version="2" timestamp="2009-11-06T18:49:13Z" uid="36809" user="pfoten_weg_!_" changeset="3050704" lat="54.3163772" lon="21.6027196"/>
  <node id="344494602" version="2" timestamp="2009-11-06T18:49:10Z" uid="36809" user="pfoten_weg_!_" changeset="3050704" lat="54.315973" lon="21.6016802"/>
  <node id="344494603" version="2" timestamp="2009-11-06T18:48:26Z" uid="36809" user="pfoten_weg_!_" changeset="3050704" lat="54.3158864" lon="21.5984631"/>
  <node id="344494604" version="2" timestamp="2009-11-06T18:51:15Z" uid="36809" user="pfoten_weg_!_" changeset="3050704" lat="54.3166948" lon="21.5982156"/>
  <node id="344494605" version="2" timestamp="2009-11-06T18:51:16Z" uid="36809" user="pfoten_weg_!_" changeset="3050704" lat="54.3168391" lon="21.5967308"/>
  <node id="344494606" version="2" timestamp="2009-11-06T18:51:13Z" uid="36809" user="pfoten_weg_!_" changeset="3050704" lat="54.317763" lon="21.5958399"/>
  <node id="344494607" version="2" timestamp="2009-11-06T18:51:14Z" uid="36809" user="pfoten_weg_!_" changeset="3050704" lat="54.3183404" lon="21.5963349"/>
  <node id="344494608" version="2" timestamp="2009-11-06T18:51:17Z" uid="36809" user="pfoten_weg_!_" changeset="3050704" lat="54.3189177" lon="21.5978197"/>
  <node id="344494609" version="2" timestamp="2009-11-06T18:51:18Z" uid="36809" user="pfoten_weg_!_" changeset="3050704" lat="54.3182249" lon="21.5992055"/>
  <node id="344494610" version="2" timestamp="2009-11-06T18:51:18Z" uid="36809" user="pfoten_weg_!_" changeset="3050704" lat="54.3172433" lon="21.6018782"/>
  <node id="344494611" version="2" timestamp="2009-11-06T18:47:06Z" uid="36809" user="pfoten_weg_!_" changeset="3050704" lat="54.303037" lon="21.5676778"/>
  <node id="344494612" version="2" timestamp="2009-11-06T18:46:37Z" uid="36809" user="pfoten_weg_!_" changeset="3050704" lat="54.3024883" lon="21.565995"/>
  <node id="344494613" version="2" timestamp="2009-11-06T18:46:39Z" uid="36809" user="pfoten_weg_!_" changeset="3050704" lat="54.3016796" lon="21.5652526"/>
  <node id="344494614" version="2" timestamp="2009-11-06T18:46:38Z" uid="36809" user="pfoten_weg_!_" changeset="3050704" lat="54.3010442" lon="21.565797"/>
  <node id="344494615" version="2" timestamp="2009-11-06T18:47:03Z" uid="36809" user="pfoten_weg_!_" changeset="3050704" lat="54.3011309" lon="21.5668859"/>
  <node id="344494616" version="2" timestamp="2009-11-06T18:47:04Z" uid="36809" user="pfoten_weg_!_" changeset="3050704" lat="54.3019107" lon="21.5682717"/>
  <node id="344494617" version="2" timestamp="2009-11-06T18:47:05Z" uid="36809" user="pfoten_weg_!_" changeset="3050704" lat="54.3026904" lon="21.5682222"/>
  <node id="344494619" version="2" timestamp="2009-11-06T18:46:41Z" uid="36809" user="pfoten_weg_!_" changeset="3050704" lat="54.2974628" lon="21.5702515"/>
  <node id="344494620" version="2" timestamp="2009-11-06T18:46:51Z" uid="36809" user="pfoten_weg_!_" changeset="3050704" lat="54.2974051" lon="21.5693606"/>
  <node id="344494621" version="2" timestamp="2009-11-06T18:46:44Z" uid="36809" user="pfoten_weg_!_" changeset="3050704" lat="54.2968563" lon="21.5688162"/>
  <node id="344494622" version="2" timestamp="2009-11-06T18:46:43Z" uid="36809" user="pfoten_weg_!_" changeset="3050704" lat="54.2963941" lon="21.5693606"/>
  <node id="344494623" version="2" timestamp="2009-11-06T18:46:43Z" uid="36809" user="pfoten_weg_!_" changeset="3050704" lat="54.2965674" lon="21.5703505"/>
  <node id="344494624" version="2" timestamp="2009-11-06T18:46:41Z" uid="36809" user="pfoten_weg_!_" changeset="3050704" lat="54.2971162" lon="21.5708454"/>
  <node id="344494625" version="2" timestamp="2009-11-06T18:49:01Z" uid="36809" user="pfoten_weg_!_" changeset="3050704" lat="54.3077152" lon="21.599156"/>
  <node id="344494626" version="2" timestamp="2009-11-06T18:48:58Z" uid="36809" user="pfoten_weg_!_" changeset="3050704" lat="54.3068778" lon="21.5994035"/>
  <node id="344494627" version="2" timestamp="2009-11-06T18:49:00Z" uid="36809" user="pfoten_weg_!_" changeset="3050704" lat="54.3067912" lon="21.6010368"/>
  <node id="344494628" version="2" timestamp="2009-11-06T18:48:57Z" uid="36809" user="pfoten_weg_!_" changeset="3050704" lat="54.3074553" lon="21.6022741"/>
  <node id="344494629" version="2" timestamp="2009-11-06T18:48:58Z" uid="36809" user="pfoten_weg_!_" changeset="3050704" lat="54.3082061" lon="21.6020267"/>
  <node id="344494630" version="2" timestamp="2009-11-06T18:49:02Z" uid="36809" user="pfoten_weg_!_" changeset="3050704" lat="54.3082927" lon="21.6007398"/>
  <node id="344494631" version="2" timestamp="2009-11-06T18:49:04Z" uid="36809" user="pfoten_weg_!_" changeset="3050704" lat="54.3087548" lon="21.5998984"/>
  <node id="344494632" version="2" timestamp="2009-11-06T18:49:03Z" uid="36809" user="pfoten_weg_!_" changeset="3050704" lat="54.3084949" lon="21.5992055"/>
  <node id="344495115" version="2" timestamp="2009-11-06T18:51:22Z" uid="36809" user="pfoten_weg_!_" changeset="3050704" lat="54.3541338" lon="21.6052042"/>
  <node id="344495115" version="3" timestamp="2012-02-03T06:24:33Z" uid="383137" user="ErshKUS" changeset="10573558" lat="54.3539446" lon="21.6050294"/>
  <node id="344495124" version="2" timestamp="2009-11-06T18:51:23Z" uid="36809" user="pfoten_weg_!_" changeset="3050704" lat="54.3540415" lon="21.6064316"/>
  <node id="344495124" version="3" timestamp="2012-02-03T06:24:34Z" uid="383137" user="ErshKUS" changeset="10573558" lat="54.3538523" lon="21.6062568"/>
  <node id="344495134" version="2" timestamp="2009-11-06T18:51:30Z" uid="36809" user="pfoten_weg_!_" changeset="3050704" lat="54.3531646" lon="21.6076591"/>
  <node id="344495134" version="3" timestamp="2012-02-03T06:24:34Z" uid="383137" user="ErshKUS" changeset="10573558" lat="54.3529754" lon="21.6074843"/>
  <node id="344495140" version="2" timestamp="2009-11-06T18:51:30Z" uid="36809" user="pfoten_weg_!_" changeset="3050704" lat="54.3526801" lon="21.6089261"/>
  <node id="344495140" version="3" timestamp="2012-02-03T06:24:34Z" uid="383137" user="ErshKUS" changeset="10573558" lat="54.3524909" lon="21.6087513"/>
  <node id="344495145" version="2" timestamp="2009-11-06T18:51:37Z" uid="36809" user="pfoten_weg_!_" changeset="3050704" lat="54.3522647" lon="21.610312"/>
  <node id="344495145" version="3" timestamp="2012-02-03T06:24:34Z" uid="383137" user="ErshKUS" changeset="10573558" lat="54.3520755" lon="21.6101372"/>
  <node id="344495152" version="2" timestamp="2009-11-06T18:51:40Z" uid="36809" user="pfoten_weg_!_" changeset="3050704" lat="54.3515032" lon="21.6111435"/>
  <node id="344495152" version="3" timestamp="2012-02-03T06:24:34Z" uid="383137" user="ErshKUS" changeset="10573558" lat="54.351314" lon="21.6109687"/>
  <node id="344495156" version="2" timestamp="2009-11-06T18:51:39Z" uid="36809" user="pfoten_weg_!_" changeset="3050704" lat="54.3504416" lon="21.6111435"/>
  <node id="344495156" version="3" timestamp="2012-02-03T06:24:34Z" uid="383137" user="ErshKUS" changeset="10573558" lat="54.3502523" lon="21.6109687"/>
  <node id="344495158" version="2" timestamp="2009-11-06T18:51:38Z" uid="36809" user="pfoten_weg_!_" changeset="3050704" lat="54.3494031" lon="21.6107475"/>
  <node id="344495158" version="3" timestamp="2012-02-03T06:24:34Z" uid="383137" user="ErshKUS" changeset="10573558" lat="54.3492138" lon="21.6105727"/>
  <node id="344495159" version="2" timestamp="2009-11-06T18:51:19Z" uid="36809" user="pfoten_weg_!_" changeset="3050704" lat="54.3483416" lon="21.6095201"/>
  <node id="344495159" version="3" timestamp="2012-02-03T06:24:34Z" uid="383137" user="ErshKUS" changeset="10573558" lat="54.3481523" lon="21.6093453"/>
  <node id="344495164" version="2" timestamp="2009-11-06T18:51:21Z" uid="36809" user="pfoten_weg_!_" changeset="3050704" lat="54.3479261" lon="21.6082134"/>
  <node id="344495164" version="3" timestamp="2012-02-03T06:24:34Z" uid="383137" user="ErshKUS" changeset="10573558" lat="54.3477368" lon="21.6080386"/>
  <node id="344495165" version="2" timestamp="2009-11-06T18:51:22Z" uid="36809" user="pfoten_weg_!_" changeset="3050704" lat="54.3481569" lon="21.6063524"/>
  <node id="344495165" version="3" timestamp="2012-02-03T06:24:34Z" uid="383137" user="ErshKUS" changeset="10573558" lat="54.3479676" lon="21.6061776"/>
  <node id="344495166" version="2" timestamp="2009-11-06T18:51:20Z" uid="36809" user="pfoten_weg_!_" changeset="3050704" lat="54.348757" lon="21.6047686"/>
  <node id="344495166" version="3" timestamp="2012-02-03T06:24:34Z" uid="383137" user="ErshKUS" changeset="10573558" lat="54.3485677" lon="21.6045938"/>
  <node id="344495167" version="2" timestamp="2009-11-06T18:51:33Z" uid="36809" user="pfoten_weg_!_" changeset="3050704" lat="54.3495185" lon="21.6036996"/>
  <node id="344495167" version="3" timestamp="2012-02-03T06:24:34Z" uid="383137" user="ErshKUS" changeset="10573558" lat="54.3493292" lon="21.6035248"/>
  <node id="344495168" version="2" timestamp="2009-11-06T18:51:31Z" uid="36809" user="pfoten_weg_!_" changeset="3050704" lat="54.3505801" lon="21.6036996"/>
  <node id="344495168" version="3" timestamp="2012-02-03T06:24:34Z" uid="383137" user="ErshKUS" changeset="10573558" lat="54.3503908" lon="21.6035248"/>
  <node id="344495169" version="2" timestamp="2009-11-06T18:51:32Z" uid="36809" user="pfoten_weg_!_" changeset="3050704" lat="54.3513647" lon="21.6040163"/>
  <node id="344495169" version="3" timestamp="2012-02-03T06:24:34Z" uid="383137" user="ErshKUS" changeset="10573558" lat="54.3511755" lon="21.6038415"/>
  <node id="344495170" version="2" timestamp="2009-11-06T18:51:34Z" uid="36809" user="pfoten_weg_!_" changeset="3050704" lat="54.3512955" lon="21.6050062"/>
  <node id="344495170" version="3" timestamp="2012-02-03T06:24:34Z" uid="383137" user="ErshKUS" changeset="10573558" lat="54.3511063" lon="21.6048314"/>
  <node id="344495171" version="2" timestamp="2009-11-06T18:51:25Z" uid="36809" user="pfoten_weg_!_" changeset="3050704" lat="54.3517801" lon="21.6054813"/>
  <node id="344495171" version="3" timestamp="2012-02-03T06:24:35Z" uid="383137" user="ErshKUS" changeset="10573558" lat="54.3515909" lon="21.6053065"/>
  <node id="344495172" version="2" timestamp="2009-11-06T18:51:24Z" uid="36809" user="pfoten_weg_!_" changeset="3050704" lat="54.352357" lon="21.6058377"/>
  <node id="344495172" version="3" timestamp="2012-02-03T06:24:35Z" uid="383137" user="ErshKUS" changeset="10573558" lat="54.3521678" lon="21.6056629"/>
  <node id="344495173" version="2" timestamp="2009-11-06T18:51:27Z" uid="36809" user="pfoten_weg_!_" changeset="3050704" lat="54.3526339" lon="21.6052834"/>
  <node id="344495173" version="3" timestamp="2012-02-03T06:24:35Z" uid="383137" user="ErshKUS" changeset="10573558" lat="54.3524447" lon="21.6051086"/>
  <node id="344495174" version="2" timestamp="2009-11-06T18:51:26Z" uid="36809" user="pfoten_weg_!_" changeset="3050704" lat="54.3524262" lon="21.6044123"/>
  <node id="344495174" version="3" timestamp="2012-02-03T06:24:35Z" uid="383137" user="ErshKUS" changeset="10573558" lat="54.352237" lon="21.6042375"/>
  <node id="344495177" version="2" timestamp="2009-11-06T18:51:28Z" uid="36809" user="pfoten_weg_!_" changeset="3050704" lat="54.3525877" lon="21.6038579"/>
  <node id="344495177" version="3" timestamp="2012-02-03T06:24:35Z" uid="383137" user="ErshKUS" changeset="10573558" lat="54.3523985" lon="21.6036831"/>
  <node id="344495184" version="2" timestamp="2009-11-06T18:51:29Z" uid="36809" user="pfoten_weg_!_" changeset="3050704" lat="54.3531646" lon="21.6040955"/>
  <node id="344495184" version="3" timestamp="2012-02-03T06:24:35Z" uid="383137" user="ErshKUS" changeset="10573558" lat="54.3529754" lon="21.6039207"/>
  <node id="344495185" version="2" timestamp="2009-11-06T18:51:28Z" uid="36809" user="pfoten_weg_!_" changeset="3050704" lat="54.35358" lon="21.6046498"/>
  <node id="344495185" version="3" timestamp="2012-02-03T06:24:35Z" uid="383137" user="ErshKUS" changeset="10573558" lat="54.3533908" lon="21.604475"/>
  <node id="344495450" version="1" timestamp="2009-02-11T19:15:05Z" uid="38524" user="Kuddy" changeset="355845" lat="49.6380255" lon="6.8012651">
    <tag k="created_by" v="JOSM"/>
    <tag k="name" v="Camping Hochwald"/>
    <tag k="tourism" v="camp_site"/>
  </node>
  <node id="344495450" version="2" timestamp="2009-10-02T13:30:53Z" uid="16112" user="Barthwo" changeset="2712473" lat="49.6380255" lon="6.8012651">
    <tag k="created_by" v="JOSM"/>
    <tag k="name" v="Camping Hochwald"/>
    <tag k="tourism" v="camp_site"/>
  </node>
  <node id="344496522" version="3" timestamp="2010-10-16T20:11:02Z" uid="9581" user="Lobelt" changeset="6061073" lat="49.5272709" lon="9.7355513"/>
  <node id="344496522" version="4" timestamp="2012-02-01T16:27:14Z" uid="41431" user="Rosty" changeset="10559958" lat="49.5272709" lon="9.7355513"/>
  <node id="344497991" version="2" timestamp="2009-02-14T17:57:26Z" uid="64977" user="CLoeser" changeset="421710" lat="53.9888429" lon="9.5279511"/>
  <node id="344497991" version="3" timestamp="2011-01-14T19:30:33Z" uid="75388" user="Svalbard" changeset="6970386" lat="53.9889356" lon="9.5279511"/>
  <node id="344497993" version="2" timestamp="2009-02-14T17:57:26Z" uid="64977" user="CLoeser" changeset="421710" lat="53.9888957" lon="9.5294327"/>
  <node id="344498005" version="2" timestamp="2009-02-14T17:57:27Z" uid="64977" user="CLoeser" changeset="421710" lat="53.9891396" lon="9.5300972"/>
  <node id="344498005" version="3" timestamp="2010-10-24T15:25:57Z" uid="75388" user="Svalbard" changeset="6157966" lat="53.9890576" lon="9.5298728"/>
  <node id="344498007" version="2" timestamp="2009-02-14T17:57:27Z" uid="64977" user="CLoeser" changeset="421710" lat="53.9893751" lon="9.5305514"/>
  <node id="344498668" version="2" timestamp="2009-03-08T14:11:19Z" uid="6975" user="ulfl" changeset="757880" lat="43.674396" lon="-79.8214255">
    <tag k="name" v="Mount Pleasant Go Commter Station"/>
    <tag k="railway" v="station"/>
  </node>
  <node id="344498668" version="3" timestamp="2009-04-15T04:49:39Z" uid="1679" user="andrewpmk" changeset="546427" lat="43.674396" lon="-79.8214255">
    <tag k="name" v="Mount Pleasant"/>
    <tag k="operator" v="GO Transit"/>
    <tag k="railway" v="station"/>
  </node>
  <node id="344498668" version="4" timestamp="2010-01-01T02:49:40Z" uid="192980" user="macboy97" changeset="3504889" lat="43.6749251" lon="-79.8209872">
    <tag k="name" v="Mount Pleasant"/>
    <tag k="operator" v="GO Transit"/>
    <tag k="railway" v="station"/>
  </node>
</osm>
