<?xml version='1.0' encoding='UTF-8'?>
<osm version="0.6" generator="libosmium/2.20.0">
  <node id="344720380" version="1" timestamp="2009-02-12T18:34:31Z" uid="68769" user="david lynch" changeset="381968" lat="30.2255636" lon="-97.7364249"/>
  <node id="344720380" version="2" timestamp="2009-02-12T18:34:39Z" uid="68769" user="david lynch" changeset="381968" lat="30.2255784" lon="-97.7363906"/>
  <node id="344720380" version="3" timestamp="2009-02-12T18:34:48Z" uid="68769" user="david lynch" changeset="381968" lat="30.2255784" lon="-97.7363906"/>
  <node id="344720380" version="4" timestamp="2009-02-12T18:35:22Z" uid="68769" user="david lynch" changeset="381968" lat="30.2255784" lon="-97.7363906"/>
  <node id="344720380" version="5" timestamp="2009-02-12T18:35:25Z" uid="68769" user="david lynch" changeset="381968" lat="30.2255784" lon="-97.7363906"/>
  <node id="344720406" version="2" timestamp="2009-03-29T22:27:54Z" uid="34428" user="usm78-gis" changeset="870330" lat="60.543401" lon="29.4925856">
    <tag k="created_by" v="Potlatch 0.10f"/>
    <tag k="is_in" v="Ленинградская область"/>
    <tag k="name" v="Красносельское"/>
    <tag k="name:fi" v="KyyrÃ¶lÃ¤"/>
    <tag k="place" v="village"/>
  </node>
  <node id="344720406" version="3" timestamp="2009-04-01T00:23:29Z" uid="34428" user="usm78-gis" changeset="27604" lat="60.543401" lon="29.4925856">
    <tag k="is_in" v="Ленинградская область"/>
    <tag k="name" v="Красносельское"/>
    <tag k="name:fi" v="Kyyrölä"/>
    <tag k="place" v="village"/>
  </node>
  <node id="344720406" version="4" timestamp="2009-09-24T14:04:30Z" uid="30590" user="KekcuHa" changeset="2606035" lat="60.543401" lon="29.4925856">
    <tag k="addr:country" v="RU"/>
    <tag k="addr:district" v="Выборгский район"/>
    <tag k="addr:postcode" v="188836"/>
    <tag k="addr:region" v="Ленинградская область"/>
    <tag k="cladr:code" v="4700600001400"/>
    <tag k="cladr:name" v="Красносельское"/>
    <tag k="cladr:suffix" v="Поселок"/>
    <tag k="is_in" v="Ленинградская область"/>
    <tag k="name" v="Красносельское"/>
    <tag k="name:fi" v="Kyyrola"/>
    <tag k="place" v="village"/>
  </node>
  <node id="344720406" version="5" timestamp="2011-08-09T23:06:59Z" uid="297358" user="patashnik" changeset="8972296" lat="60.543401" lon="29.4925856">
    <tag k="addr:country" v="RU"/>
    <tag k="addr:district" v="Выборгский район"/>
    <tag k="addr:region" v="Ленинградская область"/>
    <tag k="cladr:code" v="4700600001400"/>
    <tag k="is_in" v="Ленинградская область"/>
    <tag k="name" v="Красносельское"/>
    <tag k="name:fi" v="Kyyrola"/>
    <tag k="place" v="village"/>
  </node>
  <node id="344720410" version="1" timestamp="2009-02-12T18:34:48Z" uid="68769" user="david lynch" changeset="381968" lat="30.225749" lon="-97.7363906"/>
  <node id="344720410" version="2" timestamp="2009-02-12T18:35:22Z" uid="68769" user="david lynch" changeset="381968" lat="30.225749" lon="-97.7363906"/>
  <node id="344720410" version="3" timestamp="2009-02-12T18:35:25Z" uid="68769" user="david lynch" changeset="381968" lat="30.225749" lon="-97.7363906"/>
  <node id="344720456" version="1" timestamp="2009-02-12T18:35:17Z" uid="68769" user="david lynch" changeset="381968" lat="30.2268985" lon="-97.7375579"/>
  <node id="344720456" version="2" timestamp="2009-02-12T18:35:25Z" uid="68769" user="david lynch" changeset="381968" lat="30.2268985" lon="-97.7375579"/>
  <node id="344720472" version="1" timestamp="2009-02-12T18:35:22Z" uid="68769" user="david lynch" changeset="381968" lat="30.2265648" lon="-97.7373862"/>
  <node id="344720472" version="2" timestamp="2009-02-12T18:35:25Z" uid="68769" user="david lynch" changeset="381968" lat="30.2265648" lon="-97.7373862"/>
  <node id="344720472" version="3" timestamp="2010-02-05T05:38:33Z" uid="199564" user="geothinker" changeset="3795526" lat="30.2265349" lon="-97.7373408"/>
  <node id="344725150" version="1" timestamp="2009-02-12T18:49:42Z" uid="38524" user="Kuddy" changeset="379377" lat="49.7120097" lon="6.8652964">
    <tag k="created_by" v="JOSM"/>
    <tag k="historic" v="monument"/>
    <tag k="name" v="Stein von Beuren (Menhir)"/>
    <tag k="tourism" v="attraction"/>
  </node>
  <node id="344725150" version="2" timestamp="2009-02-19T19:37:03Z" uid="38524" user="Kuddy" changeset="561678" lat="49.7120097" lon="6.8652964">
    <tag k="created_by" v="JOSM"/>
    <tag k="historic" v="archaeological_site"/>
    <tag k="megalith_type" v="menhir"/>
    <tag k="name" v="Stein von Beuren"/>
    <tag k="site_type" v="megalith"/>
  </node>
  <node id="344725150" version="3" timestamp="2010-05-27T16:07:24Z" uid="176940" user="deejay_1" changeset="4823531" lat="49.710797" lon="6.8637315">
    <tag k="historic" v="archaeological_site"/>
    <tag k="megalith_type" v="menhir"/>
    <tag k="name" v="Stein von Beuren"/>
    <tag k="site_type" v="megalith"/>
  </node>
  <node id="344725152" version="1" timestamp="2009-02-12T18:49:43Z" uid="38524" user="Kuddy" changeset="379377" lat="49.7226104" lon="6.8416275">
    <tag k="created_by" v="JOSM"/>
    <tag k="historic" v="monument"/>
    <tag k="name" v="Menhir"/>
    <tag k="tourism" v="attraction"/>
  </node>
  <node id="344725152" version="2" timestamp="2009-02-19T19:42:00Z" uid="38524" user="Kuddy" changeset="561678" lat="49.7226104" lon="6.8416275">
    <tag k="created_by" v="JOSM"/>
    <tag k="historic" v="archaeological_site"/>
    <tag k="megalith_type" v="menhir"/>
    <tag k="name" v="Menhir"/>
    <tag k="site_type" v="megalith"/>
  </node>
  <node id="344725152" version="3" timestamp="2009-09-23T16:25:07Z" uid="176940" user="deejay_1" changeset="2597274" lat="49.7211676" lon="6.8406786">
    <tag k="created_by" v="JOSM"/>
    <tag k="historic" v="archaeological_site"/>
    <tag k="megalith_type" v="menhir"/>
    <tag k="name" v="Menhir"/>
    <tag k="site_type" v="megalith"/>
  </node>
  <node id="344725152" version="4" timestamp="2009-09-29T17:15:04Z" uid="176940" user="deejay_1" changeset="2679585" lat="49.7214148" lon="6.8408434">
    <tag k="created_by" v="JOSM"/>
    <tag k="historic" v="archaeological_site"/>
    <tag k="megalith_type" v="menhir"/>
    <tag k="name" v="Menhir"/>
    <tag k="site_type" v="megalith"/>
  </node>
  <node id="344725152" version="5" timestamp="2009-09-29T17:21:35Z" uid="176940" user="deejay_1" changeset="2679585" lat="49.7215424" lon="6.8407833">
    <tag k="created_by" v="JOSM"/>
    <tag k="historic" v="archaeological_site"/>
    <tag k="megalith_type" v="menhir"/>
    <tag k="name" v="Menhir"/>
    <tag k="site_type" v="megalith"/>
  </node>
  <node id="344728193" version="1" timestamp="2009-02-12T18:59:47Z" uid="38524" user="Kuddy" changeset="379377" lat="49.8969121" lon="7.0799186">
    <tag k="created_by" v="JOSM"/>
    <tag k="historic" v="monument"/>
    <tag k="name" v="Uhrenstein (Menhir)"/>
    <tag k="tourism" v="attraction"/>
  </node>
  <node id="344728193" version="2" timestamp="2009-02-19T19:14:03Z" uid="38524" user="Kuddy" changeset="561678" lat="49.8969121" lon="7.0799186">
    <tag k="created_by" v="JOSM"/>
    <tag k="historic" v="archaeological_site"/>
    <tag k="megalith_type" v="menhir"/>
    <tag k="name" v="Uhrenstein"/>
    <tag k="site_type" v="megalith"/>
  </node>
  <node id="344729893" version="1" timestamp="2009-02-12T19:05:50Z" uid="38524" user="Kuddy" changeset="379377" lat="49.8389005" lon="6.6335329">
    <tag k="amenity" v="fountain"/>
    <tag k="created_by" v="JOSM"/>
    <tag k="name" v="Mühlensteinbrunnen"/>
  </node>
</osm>
