<?xml version='1.0' encoding='UTF-8'?>
<osm version="0.6" generator="libosmium/2.20.0">
  <node id="345403249" version="1" timestamp="2009-02-14T23:07:27Z" uid="98061" user="manels" changeset="446158" lat="41.5350552" lon="2.1113819"/>
  <node id="345403249" version="2" timestamp="2009-02-14T23:09:38Z" uid="98061" user="manels" changeset="446158" lat="41.5350552" lon="2.1113819"/>
  <node id="345403249" version="3" timestamp="2009-02-16T22:48:10Z" uid="98061" user="manels" changeset="501704" lat="41.5350552" lon="2.1113819"/>
  <node id="345403475" version="23" timestamp="2011-02-16T11:34:14Z" uid="6269" user="Mueck" changeset="7302866" lat="49.0021431" lon="8.3117818"/>
  <node id="345403476" version="3" timestamp="2011-02-16T11:34:14Z" uid="6269" user="Mueck" changeset="7302866" lat="49.0019893" lon="8.3117644"/>
  <node id="345403477" version="3" timestamp="2011-02-16T11:34:13Z" uid="6269" user="Mueck" changeset="7302866" lat="49.0019322" lon="8.3118061"/>
  <node id="345403478" version="3" timestamp="2011-02-16T11:34:13Z" uid="6269" user="Mueck" changeset="7302866" lat="49.0017991" lon="8.3119353"/>
  <node id="345403479" version="3" timestamp="2011-02-16T11:34:13Z" uid="6269" user="Mueck" changeset="7302866" lat="49.0014407" lon="8.3122963"/>
  <node id="345403480" version="3" timestamp="2011-02-16T11:34:12Z" uid="6269" user="Mueck" changeset="7302866" lat="49.00134" lon="8.3123485"/>
  <node id="345403481" version="3" timestamp="2011-02-16T11:34:14Z" uid="6269" user="Mueck" changeset="7302866" lat="49.0012285" lon="8.3123668"/>
  <node id="345403482" version="3" timestamp="2011-02-16T11:34:38Z" uid="6269" user="Mueck" changeset="7302866" lat="49.0012766" lon="8.3125555"/>
  <node id="345403483" version="3" timestamp="2011-02-16T11:34:38Z" uid="6269" user="Mueck" changeset="7302866" lat="49.0011302" lon="8.312504"/>
  <node id="345403484" version="4" timestamp="2011-02-16T11:34:14Z" uid="6269" user="Mueck" changeset="7302866" lat="49.0011415" lon="8.3123317"/>
  <node id="345403498" version="1" timestamp="2009-02-14T23:08:19Z" uid="98061" user="manels" changeset="446158" lat="41.5278668" lon="2.1147832"/>
  <node id="345403498" version="2" timestamp="2009-02-14T23:08:20Z" uid="98061" user="manels" changeset="446158" lat="41.5278668" lon="2.1147832"/>
  <node id="345403498" version="3" timestamp="2009-02-16T23:04:11Z" uid="98061" user="manels" changeset="501704" lat="41.5278668" lon="2.1147832"/>
  <node id="345404930" version="1" timestamp="2009-02-14T23:11:38Z" uid="98061" user="manels" changeset="446158" lat="41.5376613" lon="2.1086203"/>
  <node id="345404930" version="2" timestamp="2009-02-14T23:11:39Z" uid="98061" user="manels" changeset="446158" lat="41.5376613" lon="2.1086203"/>
  <node id="345404930" version="3" timestamp="2009-02-15T17:37:06Z" uid="98061" user="manels" changeset="458165" lat="41.5376613" lon="2.1086203"/>
  <node id="345404930" version="4" timestamp="2009-02-15T18:57:09Z" uid="98061" user="manels" changeset="458165" lat="41.5376613" lon="2.1086203"/>
  <node id="345404930" version="5" timestamp="2009-02-15T18:59:30Z" uid="98061" user="manels" changeset="458165" lat="41.5376613" lon="2.1086203"/>
  <node id="345404930" version="6" timestamp="2009-02-15T19:06:36Z" uid="98061" user="manels" changeset="458165" lat="41.5376613" lon="2.1086203"/>
  <node id="345404930" version="7" timestamp="2009-02-15T19:09:08Z" uid="98061" user="manels" changeset="458165" lat="41.5376613" lon="2.1086203"/>
  <node id="345404930" version="8" timestamp="2009-02-15T19:36:31Z" uid="98061" user="manels" changeset="458165" lat="41.5376613" lon="2.1086203"/>
  <node id="345404930" version="9" timestamp="2009-02-16T22:32:45Z" uid="98061" user="manels" changeset="501704" lat="41.5376613" lon="2.1086203"/>
  <node id="345404930" version="10" timestamp="2009-02-16T22:33:40Z" uid="98061" user="manels" changeset="501704" lat="41.5376613" lon="2.1086203"/>
  <node id="345404930" version="11" timestamp="2009-02-16T22:48:07Z" uid="98061" user="manels" changeset="501704" lat="41.5376613" lon="2.1086203"/>
  <node id="345404930" version="12" timestamp="2009-02-16T23:04:07Z" uid="98061" user="manels" changeset="501704" lat="41.5376613" lon="2.1086203"/>
  <node id="345404930" version="13" timestamp="2009-02-16T23:20:41Z" uid="98061" user="manels" changeset="501704" lat="41.5376613" lon="2.1086203"/>
  <node id="345404930" version="14" timestamp="2009-02-17T12:39:52Z" uid="98061" user="manels" changeset="523525" lat="41.5376613" lon="2.1086203"/>
  <node id="345404930" version="15" timestamp="2009-02-26T21:58:39Z" uid="98061" user="manels" changeset="680090" lat="41.5376613" lon="2.1086203"/>
  <node id="345404930" version="16" timestamp="2009-03-23T12:28:15Z" uid="110063" user="PoKeD" changeset="851183" lat="41.5376613" lon="2.1086203"/>
  <node id="345404931" version="1" timestamp="2009-02-14T23:11:38Z" uid="98061" user="manels" changeset="446158" lat="41.5312709" lon="2.1116394"/>
  <node id="345404931" version="2" timestamp="2009-02-16T23:20:41Z" uid="98061" user="manels" changeset="501704" lat="41.5312709" lon="2.1116394"/>
  <node id="345405226" version="4" timestamp="2009-08-18T06:59:41Z" uid="43967" user="railsnail" changeset="2185912" lat="47.0001851" lon="12.5423265"/>
  <node id="345405226" version="5" timestamp="2011-05-30T18:59:53Z" uid="45481" user="borisC" changeset="8295086" lat="47.0000045" lon="12.5423344"/>
  <node id="345406456" version="2" timestamp="2011-02-16T11:34:12Z" uid="6269" user="Mueck" changeset="7302866" lat="49.002041" lon="8.3118757"/>
  <node id="345406457" version="2" timestamp="2011-02-16T11:34:13Z" uid="6269" user="Mueck" changeset="7302866" lat="49.0020307" lon="8.3120749"/>
  <node id="345406896" version="1" timestamp="2009-02-14T23:17:00Z" uid="98061" user="manels" changeset="446158" lat="41.5302107" lon="2.1108927"/>
  <node id="345406896" version="2" timestamp="2009-02-15T17:55:43Z" uid="98061" user="manels" changeset="458165" lat="41.5302107" lon="2.1108927"/>
  <node id="345406896" version="3" timestamp="2009-02-16T23:22:10Z" uid="98061" user="manels" changeset="501704" lat="41.5302107" lon="2.1108927"/>
  <node id="345406896" version="4" timestamp="2009-02-17T12:39:51Z" uid="98061" user="manels" changeset="523525" lat="41.5302107" lon="2.1108927"/>
  <node id="345406897" version="1" timestamp="2009-02-14T23:17:00Z" uid="98061" user="manels" changeset="446158" lat="41.5355949" lon="2.1082749"/>
  <node id="345406897" version="2" timestamp="2009-02-15T17:55:44Z" uid="98061" user="manels" changeset="458165" lat="41.5355949" lon="2.1082749"/>
  <node id="345406897" version="3" timestamp="2009-02-16T23:22:10Z" uid="98061" user="manels" changeset="501704" lat="41.5355949" lon="2.1082749"/>
  <node id="345406897" version="4" timestamp="2009-02-17T12:39:51Z" uid="98061" user="manels" changeset="523525" lat="41.5355949" lon="2.1082749"/>
  <node id="345407122" version="6" timestamp="2010-10-22T10:20:13Z" uid="7617" user="Franc" changeset="6134759" lat="-33.839692" lon="151.2160584"/>
  <node id="345407727" version="1" timestamp="2009-02-14T23:18:49Z" uid="98061" user="manels" changeset="446158" lat="41.5327165" lon="2.1071505"/>
  <node id="345407727" version="2" timestamp="2009-02-14T23:19:13Z" uid="98061" user="manels" changeset="446158" lat="41.5327165" lon="2.1071505"/>
  <node id="345407727" version="3" timestamp="2009-02-14T23:20:10Z" uid="98061" user="manels" changeset="446158" lat="41.5327165" lon="2.1071505"/>
  <node id="345407727" version="4" timestamp="2009-02-16T11:28:53Z" uid="98061" user="manels" changeset="483897" lat="41.5327165" lon="2.1071505"/>
  <node id="345407924" version="1" timestamp="2009-02-14T23:19:14Z" uid="98061" user="manels" changeset="446158" lat="41.5326458" lon="2.1071794"/>
  <node id="345407924" version="2" timestamp="2009-02-14T23:20:10Z" uid="98061" user="manels" changeset="446158" lat="41.5326458" lon="2.1071794"/>
  <node id="345407924" version="3" timestamp="2009-02-15T13:00:59Z" uid="98061" user="manels" changeset="450497" lat="41.5326458" lon="2.1071794"/>
  <node id="345407924" version="4" timestamp="2009-02-15T13:08:21Z" uid="98061" user="manels" changeset="450497" lat="41.5326458" lon="2.1071794"/>
  <node id="345407924" version="5" timestamp="2009-02-15T17:26:22Z" uid="98061" user="manels" changeset="458165" lat="41.5326458" lon="2.1071794"/>
  <node id="345407924" version="6" timestamp="2009-02-16T11:28:53Z" uid="98061" user="manels" changeset="483897" lat="41.5326458" lon="2.1071794"/>
  <node id="345407924" version="7" timestamp="2011-09-29T22:15:27Z" uid="243992" user="josepmunoz" changeset="9431437" lat="41.5326768" lon="2.107175"/>
  <node id="345408652" version="1" timestamp="2009-02-14T23:20:38Z" uid="36809" user="pfoten_weg_!_" changeset="445466" lat="48.0707075" lon="11.5153509">
    <tag k="barrier" v="gate"/>
    <tag k="created_by" v="RambaZamba"/>
    <tag k="source" v="survey"/>
  </node>
  <node id="345408652" version="2" timestamp="2009-03-27T20:16:09Z" uid="8748" user="ToniE" changeset="863334" lat="48.0707075" lon="11.5153509">
    <tag k="barrier" v="gate"/>
    <tag k="created_by" v="RambaZamba"/>
    <tag k="source" v="survey"/>
  </node>
  <node id="345408655" version="1" timestamp="2009-02-14T23:20:38Z" uid="36809" user="pfoten_weg_!_" changeset="445466" lat="48.0783395" lon="11.5067499">
    <tag k="addr:city" v="München"/>
    <tag k="addr:country" v="DE"/>
    <tag k="addr:housenumber" v="103"/>
    <tag k="addr:postcode" v="81477"/>
    <tag k="addr:street" v="Herterichstraße"/>
    <tag k="amenity" v="post_office"/>
    <tag k="created_by" v="RambaZamba"/>
    <tag k="name" v="Filiale Deutsche Post"/>
    <tag k="source" v="survey"/>
  </node>
  <node id="345408655" version="2" timestamp="2009-08-12T13:38:52Z" uid="156995" user="HampelZamba" changeset="2118817" lat="48.0783395" lon="11.5067499">
    <tag k="addr:city" v="München"/>
    <tag k="addr:country" v="DE"/>
    <tag k="addr:housenumber" v="103"/>
    <tag k="addr:postcode" v="81477"/>
    <tag k="addr:street" v="Herterichstraße"/>
    <tag k="amenity" v="post_office"/>
    <tag k="name" v="Filiale Deutsche Post"/>
    <tag k="source" v="survey"/>
  </node>
  <node id="345408655" version="3" timestamp="2009-08-19T00:59:24Z" uid="36809" user="pfoten_weg_!_" changeset="2196309" lat="48.0783395" lon="11.5067499">
    <tag k="addr:city" v="München"/>
    <tag k="addr:country" v="DE"/>
    <tag k="addr:housenumber" v="103"/>
    <tag k="addr:postcode" v="81477"/>
    <tag k="addr:street" v="Herterichstraße"/>
    <tag k="amenity" v="post_office"/>
    <tag k="name" v="Filiale Deutsche Post"/>
    <tag k="source" v="survey"/>
  </node>
  <node id="345408658" version="1" timestamp="2009-02-14T23:20:38Z" uid="36809" user="pfoten_weg_!_" changeset="445466" lat="48.0787299" lon="11.5046035">
    <tag k="addr:city" v="München"/>
    <tag k="addr:country" v="DE"/>
    <tag k="addr:housenumber" v="111"/>
    <tag k="addr:postcode" v="81477"/>
    <tag k="addr:street" v="Herterichstraße"/>
    <tag k="amenity" v="fuel"/>
    <tag k="created_by" v="RambaZamba"/>
    <tag k="name" v="Agip"/>
    <tag k="source" v="survey"/>
  </node>
  <node id="345408658" version="2" timestamp="2009-07-26T03:16:30Z" uid="36809" user="pfoten_weg_!_" changeset="1940209" lat="48.0787299" lon="11.5046035">
    <tag k="addr:city" v="München"/>
    <tag k="addr:country" v="DE"/>
    <tag k="addr:housenumber" v="111"/>
    <tag k="addr:postcode" v="81477"/>
    <tag k="addr:street" v="Herterichstraße"/>
    <tag k="amenity" v="fuel"/>
    <tag k="discovered_by" v="RambaZamba"/>
    <tag k="name" v="Agip"/>
    <tag k="source" v="survey"/>
  </node>
  <node id="345408658" version="3" timestamp="2009-08-12T13:38:52Z" uid="156995" user="HampelZamba" changeset="2118817" lat="48.0787299" lon="11.5046035">
    <tag k="addr:city" v="München"/>
    <tag k="addr:country" v="DE"/>
    <tag k="addr:housenumber" v="111"/>
    <tag k="addr:postcode" v="81477"/>
    <tag k="addr:street" v="Herterichstraße"/>
    <tag k="amenity" v="fuel"/>
    <tag k="name" v="Agip"/>
    <tag k="source" v="survey"/>
  </node>
  <node id="345408658" version="4" timestamp="2009-08-19T02:00:11Z" uid="36809" user="pfoten_weg_!_" changeset="2196399" lat="48.0787299" lon="11.5046035">
    <tag k="addr:city" v="München"/>
    <tag k="addr:country" v="DE"/>
    <tag k="addr:housenumber" v="111"/>
    <tag k="addr:postcode" v="81477"/>
    <tag k="addr:street" v="Herterichstraße"/>
    <tag k="amenity" v="fuel"/>
    <tag k="name" v="Agip"/>
    <tag k="source" v="survey"/>
    <tag k="warnung" v="rumpelzumpel-verbrecher"/>
  </node>
  <node id="345408658" version="5" timestamp="2009-08-19T02:24:17Z" uid="36809" user="pfoten_weg_!_" changeset="2196453" lat="48.0787299" lon="11.5046035">
    <tag k="addr:city" v="München"/>
    <tag k="addr:country" v="DE"/>
    <tag k="addr:housenumber" v="111"/>
    <tag k="addr:postcode" v="81477"/>
    <tag k="addr:street" v="Herterichstraße"/>
    <tag k="amenity" v="fuel"/>
    <tag k="name" v="Agip"/>
    <tag k="source" v="survey"/>
  </node>
  <node id="345408658" version="6" timestamp="2009-10-02T20:44:35Z" uid="86259" user="hasse_osm_korinthenkacker" changeset="2717407" lat="48.0787299" lon="11.5046035">
    <tag k="addr:city" v="München"/>
    <tag k="addr:country" v="DE"/>
    <tag k="addr:housenumber" v="111"/>
    <tag k="addr:postcode" v="81477"/>
    <tag k="addr:street" v="Herterichstraße"/>
    <tag k="amenity" v="fuel"/>
    <tag k="name" v="Agip"/>
    <tag k="source" v="survey"/>
  </node>
  <node id="345408661" version="1" timestamp="2009-02-14T23:20:38Z" uid="36809" user="pfoten_weg_!_" changeset="445466" lat="48.0827822" lon="11.5040341">
    <tag k="addr:city" v="München"/>
    <tag k="addr:country" v="DE"/>
    <tag k="addr:housenumber" v="177"/>
    <tag k="addr:postcode" v="81477"/>
    <tag k="addr:street" v="Drygalski-Allee"/>
    <tag k="amenity" v="bank"/>
    <tag k="atm" v="yes"/>
    <tag k="name" v="Stadtsparkasse München"/>
    <tag k="source" v="survey"/>
  </node>
  <node id="345408661" version="2" timestamp="2009-02-15T13:00:41Z" uid="36809" user="pfoten_weg_!_" changeset="463903" lat="48.0827822" lon="11.5040341">
    <tag k="addr:city" v="München"/>
    <tag k="addr:country" v="DE"/>
    <tag k="addr:housenumber" v="177"/>
    <tag k="addr:postcode" v="81477"/>
    <tag k="addr:street" v="Drygalski-Allee"/>
    <tag k="amenity" v="bank"/>
    <tag k="atm" v="yes"/>
    <tag k="created_by" v="RambaZamba"/>
    <tag k="name" v="Stadtsparkasse München"/>
    <tag k="source" v="survey"/>
  </node>
  <node id="345408661" version="3" timestamp="2009-03-24T00:42:51Z" uid="36809" user="pfoten_weg_!_" changeset="853978" lat="48.0827812" lon="11.5040312">
    <tag k="addr:city" v="München"/>
    <tag k="addr:country" v="DE"/>
    <tag k="addr:housenumber" v="177"/>
    <tag k="addr:postcode" v="81477"/>
    <tag k="addr:street" v="Drygalski-Allee"/>
    <tag k="amenity" v="bank"/>
    <tag k="atm" v="yes"/>
    <tag k="created_by" v="RambaZamba"/>
    <tag k="name" v="Stadtsparkasse München"/>
    <tag k="source" v="survey"/>
  </node>
  <node id="345408661" version="4" timestamp="2009-04-22T17:15:37Z" uid="36809" user="pfoten_weg_!_" changeset="902567" lat="48.0827797" lon="11.5040267">
    <tag k="addr:city" v="München"/>
    <tag k="addr:country" v="DE"/>
    <tag k="addr:housenumber" v="177"/>
    <tag k="addr:postcode" v="81477"/>
    <tag k="addr:street" v="Drygalski-Allee"/>
    <tag k="amenity" v="bank"/>
    <tag k="atm" v="yes"/>
    <tag k="created_by" v="RambaZamba"/>
    <tag k="name" v="Stadtsparkasse München"/>
    <tag k="source" v="survey"/>
  </node>
  <node id="345408661" version="5" timestamp="2009-07-26T03:16:30Z" uid="36809" user="pfoten_weg_!_" changeset="1940209" lat="48.0827797" lon="11.5040267">
    <tag k="addr:city" v="München"/>
    <tag k="addr:country" v="DE"/>
    <tag k="addr:housenumber" v="177"/>
    <tag k="addr:postcode" v="81477"/>
    <tag k="addr:street" v="Drygalski-Allee"/>
    <tag k="amenity" v="bank"/>
    <tag k="atm" v="yes"/>
    <tag k="discovered_by" v="RambaZamba"/>
    <tag k="name" v="Stadtsparkasse München"/>
    <tag k="source" v="survey"/>
  </node>
  <node id="345408661" version="6" timestamp="2009-08-12T13:38:52Z" uid="156995" user="HampelZamba" changeset="2118817" lat="48.0827797" lon="11.5040267">
    <tag k="addr:city" v="München"/>
    <tag k="addr:country" v="DE"/>
    <tag k="addr:housenumber" v="177"/>
    <tag k="addr:postcode" v="81477"/>
    <tag k="addr:street" v="Drygalski-Allee"/>
    <tag k="amenity" v="bank"/>
    <tag k="atm" v="yes"/>
    <tag k="name" v="Stadtsparkasse München"/>
    <tag k="source" v="survey"/>
  </node>
  <node id="345408661" version="7" timestamp="2009-08-18T08:31:26Z" uid="155922" user="Zeitlupe" changeset="2186983" lat="48.0827797" lon="11.5039348">
    <tag k="addr:city" v="München"/>
    <tag k="addr:country" v="DE"/>
    <tag k="addr:housenumber" v="177"/>
    <tag k="addr:postcode" v="81477"/>
    <tag k="addr:street" v="Drygalski-Allee"/>
    <tag k="amenity" v="bank"/>
    <tag k="atm" v="yes"/>
    <tag k="name" v="Stadtsparkasse München"/>
    <tag k="source" v="survey"/>
  </node>
  <node id="345408661" version="8" timestamp="2009-08-19T00:59:24Z" uid="36809" user="pfoten_weg_!_" changeset="2196309" lat="48.0827797" lon="11.5039348">
    <tag k="addr:city" v="München"/>
    <tag k="addr:country" v="DE"/>
    <tag k="addr:housenumber" v="177"/>
    <tag k="addr:postcode" v="81477"/>
    <tag k="addr:street" v="Drygalski-Allee"/>
    <tag k="amenity" v="bank"/>
    <tag k="atm" v="yes"/>
    <tag k="name" v="Stadtsparkasse München"/>
    <tag k="source" v="survey"/>
  </node>
  <node id="345408664" version="1" timestamp="2009-02-14T23:20:39Z" uid="36809" user="pfoten_weg_!_" changeset="445466" lat="48.0830792" lon="11.5032622">
    <tag k="barrier" v="gate"/>
    <tag k="created_by" v="RambaZamba"/>
    <tag k="source" v="survey"/>
  </node>
  <node id="345408664" version="2" timestamp="2009-07-26T03:16:31Z" uid="36809" user="pfoten_weg_!_" changeset="1940209" lat="48.0830792" lon="11.5032622">
    <tag k="barrier" v="gate"/>
    <tag k="discovered_by" v="RambaZamba"/>
    <tag k="source" v="survey"/>
  </node>
  <node id="345408664" version="3" timestamp="2009-08-12T13:38:53Z" uid="156995" user="HampelZamba" changeset="2118817" lat="48.0830792" lon="11.5032622">
    <tag k="barrier" v="gate"/>
    <tag k="source" v="survey"/>
  </node>
  <node id="345408664" version="4" timestamp="2009-08-19T02:00:12Z" uid="36809" user="pfoten_weg_!_" changeset="2196399" lat="48.0830792" lon="11.5032622">
    <tag k="barrier" v="gate"/>
    <tag k="source" v="survey"/>
    <tag k="warnung" v="rumpelzumpel-verbrecher"/>
  </node>
  <node id="345408664" version="5" timestamp="2009-08-19T02:24:18Z" uid="36809" user="pfoten_weg_!_" changeset="2196453" lat="48.0830792" lon="11.5032622">
    <tag k="barrier" v="gate"/>
    <tag k="source" v="survey"/>
  </node>
  <node id="345408664" version="6" timestamp="2009-10-12T22:01:19Z" uid="36809" user="pfoten_weg_!_" changeset="2831291" lat="48.0830792" lon="11.5032622">
    <tag k="barrier" v="gate"/>
  </node>
  <node id="345408664" version="7" timestamp="2009-10-15T21:54:07Z" uid="36809" user="pfoten_weg_!_" changeset="2859935" lat="48.0830792" lon="11.5032622">
    <tag k="barrier" v="gate"/>
  </node>
  <node id="345408667" version="1" timestamp="2009-02-14T23:20:39Z" uid="36809" user="pfoten_weg_!_" changeset="445466" lat="48.0803439" lon="11.4992145">
    <tag k="barrier" v="gate"/>
    <tag k="created_by" v="RambaZamba"/>
    <tag k="source" v="survey"/>
  </node>
  <node id="345408667" version="2" timestamp="2009-07-26T03:16:30Z" uid="36809" user="pfoten_weg_!_" changeset="1940209" lat="48.0803439" lon="11.4992145">
    <tag k="barrier" v="gate"/>
    <tag k="discovered_by" v="RambaZamba"/>
    <tag k="source" v="survey"/>
  </node>
  <node id="345408667" version="3" timestamp="2009-08-12T13:38:53Z" uid="156995" user="HampelZamba" changeset="2118817" lat="48.0803439" lon="11.4992145">
    <tag k="barrier" v="gate"/>
    <tag k="source" v="survey"/>
  </node>
  <node id="345408667" version="4" timestamp="2009-08-19T02:00:11Z" uid="36809" user="pfoten_weg_!_" changeset="2196399" lat="48.0803439" lon="11.4992145">
    <tag k="barrier" v="gate"/>
    <tag k="source" v="survey"/>
    <tag k="warnung" v="rumpelzumpel-verbrecher"/>
  </node>
  <node id="345408667" version="5" timestamp="2009-08-19T02:24:18Z" uid="36809" user="pfoten_weg_!_" changeset="2196453" lat="48.0803439" lon="11.4992145">
    <tag k="barrier" v="gate"/>
    <tag k="source" v="survey"/>
  </node>
  <node id="345408667" version="6" timestamp="2009-10-12T21:57:48Z" uid="36809" user="pfoten_weg_!_" changeset="2831291" lat="48.0803439" lon="11.4992145">
    <tag k="barrier" v="gate"/>
  </node>
  <node id="345408670" version="1" timestamp="2009-02-14T23:20:39Z" uid="36809" user="pfoten_weg_!_" changeset="445466" lat="48.0853509" lon="11.4906025">
    <tag k="addr:city" v="München"/>
    <tag k="addr:country" v="DE"/>
    <tag k="addr:housenumber" v="28"/>
    <tag k="addr:postcode" v="81476"/>
    <tag k="addr:street" v="Liesl-Karlstadt-Straße"/>
    <tag k="amenity" v="bank"/>
    <tag k="atm" v="yes"/>
    <tag k="created_by" v="RambaZamba"/>
    <tag k="name" v="Raiffeisenbank München Süd eG"/>
  </node>
  <node id="345408670" version="2" timestamp="2009-02-15T13:00:43Z" uid="36809" user="pfoten_weg_!_" changeset="463903" lat="48.0853509" lon="11.4906025">
    <tag k="addr:city" v="München"/>
    <tag k="addr:country" v="DE"/>
    <tag k="addr:housenumber" v="28"/>
    <tag k="addr:postcode" v="81476"/>
    <tag k="addr:street" v="Liesl-Karlstadt-Straße"/>
    <tag k="amenity" v="bank"/>
    <tag k="atm" v="yes"/>
    <tag k="created_by" v="RambaZamba"/>
    <tag k="name" v="Raiffeisenbank München Süd eG"/>
    <tag k="source" v="survey"/>
  </node>
  <node id="345408670" version="3" timestamp="2009-08-12T13:38:53Z" uid="156995" user="HampelZamba" changeset="2118817" lat="48.0853509" lon="11.4906025">
    <tag k="addr:city" v="München"/>
    <tag k="addr:country" v="DE"/>
    <tag k="addr:housenumber" v="28"/>
    <tag k="addr:postcode" v="81476"/>
    <tag k="addr:street" v="Liesl-Karlstadt-Straße"/>
    <tag k="amenity" v="bank"/>
    <tag k="atm" v="yes"/>
    <tag k="name" v="Raiffeisenbank München Süd eG"/>
    <tag k="source" v="survey"/>
  </node>
  <node id="345408670" version="4" timestamp="2009-08-26T09:21:31Z" uid="36809" user="pfoten_weg_!_" changeset="2265170" lat="48.0853509" lon="11.4906025">
    <tag k="addr:city" v="München"/>
    <tag k="addr:country" v="DE"/>
    <tag k="addr:housenumber" v="28"/>
    <tag k="addr:postcode" v="81476"/>
    <tag k="addr:street" v="Liesl-Karlstadt-Straße"/>
    <tag k="amenity" v="bank"/>
    <tag k="atm" v="yes"/>
    <tag k="name" v="Raiffeisenbank München Süd eG"/>
    <tag k="source" v="survey"/>
  </node>
  <node id="345408670" version="5" timestamp="2009-10-02T20:44:36Z" uid="86259" user="hasse_osm_korinthenkacker" changeset="2717407" lat="48.0853509" lon="11.4906025">
    <tag k="addr:city" v="München"/>
    <tag k="addr:country" v="DE"/>
    <tag k="addr:housenumber" v="28"/>
    <tag k="addr:postcode" v="81476"/>
    <tag k="addr:street" v="Liesl-Karlstadt-Straße"/>
    <tag k="amenity" v="bank"/>
    <tag k="atm" v="yes"/>
    <tag k="name" v="Raiffeisenbank München Süd eG"/>
    <tag k="source" v="survey"/>
  </node>
  <node id="345408673" version="1" timestamp="2009-02-14T23:20:39Z" uid="36809" user="pfoten_weg_!_" changeset="445466" lat="48.0903744" lon="11.5026281">
    <tag k="barrier" v="gate"/>
    <tag k="created_by" v="RambaZamba"/>
    <tag k="source" v="survey"/>
  </node>
  <node id="345408673" version="2" timestamp="2009-05-12T22:23:40Z" uid="36809" user="pfoten_weg_!_" changeset="1170265" lat="48.0903744" lon="11.5026281">
    <tag k="barrier" v="gate"/>
    <tag k="created_by" v="RambaZamba"/>
    <tag k="source" v="survey"/>
  </node>
  <node id="345408676" version="1" timestamp="2009-02-14T23:20:39Z" uid="36809" user="pfoten_weg_!_" changeset="445466" lat="48.0921352" lon="11.5034934">
    <tag k="addr:city" v="München"/>
    <tag k="addr:country" v="DE"/>
    <tag k="addr:housenumber" v="33"/>
    <tag k="addr:postcode" v="81477"/>
    <tag k="addr:street" v="Drygalski-Allee"/>
    <tag k="amenity" v="police"/>
    <tag k="created_by" v="RambaZamba"/>
    <tag k="name" v="Polizeiinspektion 34"/>
    <tag k="source" v="survey"/>
  </node>
  <node id="345408676" version="2" timestamp="2009-03-24T00:30:26Z" uid="36809" user="pfoten_weg_!_" changeset="853978" lat="48.0921343" lon="11.5034852">
    <tag k="addr:city" v="München"/>
    <tag k="addr:country" v="DE"/>
    <tag k="addr:housenumber" v="33"/>
    <tag k="addr:postcode" v="81477"/>
    <tag k="addr:street" v="Drygalski-Allee"/>
    <tag k="amenity" v="police"/>
    <tag k="created_by" v="RambaZamba"/>
    <tag k="name" v="Polizeiinspektion 34"/>
    <tag k="source" v="survey"/>
  </node>
  <node id="345408676" version="3" timestamp="2009-03-30T21:37:40Z" uid="36809" user="pfoten_weg_!_" changeset="871597" lat="48.0921343" lon="11.5034852">
    <tag k="addr:city" v="München"/>
    <tag k="addr:country" v="DE"/>
    <tag k="addr:housenumber" v="33"/>
    <tag k="addr:postcode" v="81477"/>
    <tag k="addr:street" v="Drygalski-Allee"/>
    <tag k="amenity" v="police"/>
    <tag k="created_by" v="RambaZamba"/>
    <tag k="name" v="Polizeiinspektion 34"/>
    <tag k="source" v="survey"/>
  </node>
  <node id="345408679" version="1" timestamp="2009-02-14T23:20:40Z" uid="36809" user="pfoten_weg_!_" changeset="445466" lat="48.0886012" lon="11.4961886">
    <tag k="addr:city" v="München"/>
    <tag k="addr:country" v="DE"/>
    <tag k="addr:housenumber" v="1"/>
    <tag k="addr:postcode" v="81476"/>
    <tag k="addr:street" v="Fritz-Baer-Straße"/>
    <tag k="amenity" v="restaurant"/>
    <tag k="created_by" v="RambaZamba"/>
    <tag k="name" v="Griechische Taverne Olympia"/>
  </node>
  <node id="345408679" version="2" timestamp="2009-02-15T13:00:37Z" uid="36809" user="pfoten_weg_!_" changeset="463903" lat="48.0886012" lon="11.4961886">
    <tag k="addr:city" v="München"/>
    <tag k="addr:country" v="DE"/>
    <tag k="addr:housenumber" v="1"/>
    <tag k="addr:postcode" v="81476"/>
    <tag k="addr:street" v="Fritz-Baer-Straße"/>
    <tag k="amenity" v="restaurant"/>
    <tag k="created_by" v="RambaZamba"/>
    <tag k="name" v="Griechische Taverne Olympia"/>
    <tag k="source" v="survey"/>
  </node>
  <node id="345408679" version="3" timestamp="2009-04-01T22:41:15Z" uid="36809" user="pfoten_weg_!_" changeset="41839" lat="48.0885639" lon="11.4961105">
    <tag k="addr:city" v="München"/>
    <tag k="addr:country" v="DE"/>
    <tag k="addr:housenumber" v="1"/>
    <tag k="addr:postcode" v="81476"/>
    <tag k="addr:street" v="Fritz-Baer-Straße"/>
    <tag k="amenity" v="restaurant"/>
    <tag k="created_by" v="RambaZamba"/>
    <tag k="name" v="Griechische Taverne Olympia"/>
    <tag k="source" v="survey"/>
  </node>
  <node id="345408679" version="4" timestamp="2009-04-21T19:25:23Z" uid="106615" user="matafumar" changeset="886547" lat="48.0885695" lon="11.4961085">
    <tag k="addr:city" v="München"/>
    <tag k="addr:country" v="DE"/>
    <tag k="addr:housenumber" v="1"/>
    <tag k="addr:postcode" v="81476"/>
    <tag k="addr:street" v="Fritz-Baer-Straße"/>
    <tag k="amenity" v="restaurant"/>
    <tag k="created_by" v="RambaZamba"/>
    <tag k="name" v="Griechische Taverne Olympia"/>
    <tag k="source" v="survey"/>
  </node>
  <node id="345408679" version="5" timestamp="2009-04-21T19:48:14Z" uid="106615" user="matafumar" changeset="886801" lat="48.0885746" lon="11.496101">
    <tag k="addr:city" v="München"/>
    <tag k="addr:country" v="DE"/>
    <tag k="addr:housenumber" v="1"/>
    <tag k="addr:postcode" v="81476"/>
    <tag k="addr:street" v="Fritz-Baer-Straße"/>
    <tag k="amenity" v="restaurant"/>
    <tag k="created_by" v="RambaZamba"/>
    <tag k="name" v="Griechische Taverne Olympia"/>
    <tag k="source" v="survey"/>
  </node>
  <node id="345408679" version="6" timestamp="2009-08-12T13:38:53Z" uid="156995" user="HampelZamba" changeset="2118817" lat="48.0885746" lon="11.496101">
    <tag k="addr:city" v="München"/>
    <tag k="addr:country" v="DE"/>
    <tag k="addr:housenumber" v="1"/>
    <tag k="addr:postcode" v="81476"/>
    <tag k="addr:street" v="Fritz-Baer-Straße"/>
    <tag k="amenity" v="restaurant"/>
    <tag k="name" v="Griechische Taverne Olympia"/>
    <tag k="source" v="survey"/>
  </node>
  <node id="345408679" version="7" timestamp="2009-08-26T09:21:27Z" uid="36809" user="pfoten_weg_!_" changeset="2265170" lat="48.0885746" lon="11.496101">
    <tag k="addr:city" v="München"/>
    <tag k="addr:country" v="DE"/>
    <tag k="addr:housenumber" v="1"/>
    <tag k="addr:postcode" v="81476"/>
    <tag k="addr:street" v="Fritz-Baer-Straße"/>
    <tag k="amenity" v="restaurant"/>
    <tag k="name" v="Griechische Taverne Olympia"/>
    <tag k="source" v="survey"/>
  </node>
  <node id="345408679" version="8" timestamp="2009-10-02T20:43:58Z" uid="86259" user="hasse_osm_korinthenkacker" changeset="2717407" lat="48.0885746" lon="11.496101">
    <tag k="addr:city" v="München"/>
    <tag k="addr:country" v="DE"/>
    <tag k="addr:housenumber" v="1"/>
    <tag k="addr:postcode" v="81476"/>
    <tag k="addr:street" v="Fritz-Baer-Straße"/>
    <tag k="amenity" v="restaurant"/>
    <tag k="name" v="Griechische Taverne Olympia"/>
    <tag k="source" v="survey"/>
  </node>
  <node id="345408682" version="1" timestamp="2009-02-14T23:20:40Z" uid="36809" user="pfoten_weg_!_" changeset="445466" lat="48.0810957" lon="11.487896">
    <tag k="created_by" v="RambaZamba"/>
  </node>
  <node id="345408682" version="2" timestamp="2009-02-15T13:00:37Z" uid="36809" user="pfoten_weg_!_" changeset="463903" lat="48.0810957" lon="11.487896">
    <tag k="created_by" v="RambaZamba"/>
    <tag k="source" v="survey"/>
  </node>
  <node id="345408682" version="3" timestamp="2009-04-22T18:10:06Z" uid="36809" user="pfoten_weg_!_" changeset="903608" lat="48.0813578" lon="11.4878839">
    <tag k="created_by" v="RambaZamba"/>
    <tag k="source" v="survey"/>
  </node>
  <node id="345408682" version="4" timestamp="2009-08-12T13:38:53Z" uid="156995" user="HampelZamba" changeset="2118817" lat="48.0813578" lon="11.4878839">
    <tag k="source" v="survey"/>
  </node>
  <node id="345408682" version="5" timestamp="2009-08-25T23:53:40Z" uid="36809" user="pfoten_weg_!_" changeset="2262648" lat="48.0813578" lon="11.4878839">
    <tag k="source" v="survey"/>
  </node>
  <node id="345408682" version="6" timestamp="2009-08-26T00:56:37Z" uid="36809" user="pfoten_weg_!_" changeset="2262879" lat="48.0813578" lon="11.4878839">
    <tag k="source" v="survey"/>
  </node>
  <node id="345408682" version="7" timestamp="2009-10-02T17:38:05Z" uid="86259" user="hasse_osm_korinthenkacker" changeset="2715119" lat="48.0813578" lon="11.4878839"/>
  <node id="345408682" version="8" timestamp="2011-12-20T03:24:35Z" uid="13832" user="Peter14" changeset="10160740" lat="48.0813578" lon="11.4878839"/>
  <node id="345408685" version="1" timestamp="2009-02-14T23:20:40Z" uid="36809" user="pfoten_weg_!_" changeset="445466" lat="48.0770384" lon="11.4868638">
    <tag k="created_by" v="RambaZamba"/>
  </node>
  <node id="345408685" version="2" timestamp="2009-02-15T13:00:38Z" uid="36809" user="pfoten_weg_!_" changeset="463903" lat="48.0770384" lon="11.4868638">
    <tag k="created_by" v="RambaZamba"/>
    <tag k="source" v="survey"/>
  </node>
  <node id="345408685" version="3" timestamp="2009-08-12T13:38:53Z" uid="156995" user="HampelZamba" changeset="2118817" lat="48.0770384" lon="11.4868638">
    <tag k="source" v="survey"/>
  </node>
  <node id="345408685" version="4" timestamp="2009-08-25T23:53:41Z" uid="36809" user="pfoten_weg_!_" changeset="2262648" lat="48.0770384" lon="11.4868638">
    <tag k="source" v="survey"/>
  </node>
  <node id="345408685" version="5" timestamp="2009-08-26T00:56:37Z" uid="36809" user="pfoten_weg_!_" changeset="2262879" lat="48.0770384" lon="11.4868638">
    <tag k="source" v="survey"/>
  </node>
  <node id="345408685" version="6" timestamp="2009-10-02T17:36:56Z" uid="86259" user="hasse_osm_korinthenkacker" changeset="2715119" lat="48.0770384" lon="11.4868638"/>
  <node id="345408685" version="7" timestamp="2011-12-20T03:24:35Z" uid="13832" user="Peter14" changeset="10160740" lat="48.0770384" lon="11.4868638"/>
  <node id="345408688" version="1" timestamp="2009-02-14T23:20:40Z" uid="36809" user="pfoten_weg_!_" changeset="445466" lat="48.0792837" lon="11.4877072">
    <tag k="created_by" v="RambaZamba"/>
  </node>
  <node id="345408688" version="2" timestamp="2009-02-15T13:00:32Z" uid="36809" user="pfoten_weg_!_" changeset="463903" lat="48.0792837" lon="11.4877072">
    <tag k="created_by" v="RambaZamba"/>
    <tag k="source" v="survey"/>
  </node>
  <node id="345408688" version="3" timestamp="2009-08-12T13:38:53Z" uid="156995" user="HampelZamba" changeset="2118817" lat="48.0792837" lon="11.4877072">
    <tag k="source" v="survey"/>
  </node>
  <node id="345408688" version="4" timestamp="2009-08-25T23:53:37Z" uid="36809" user="pfoten_weg_!_" changeset="2262648" lat="48.0792837" lon="11.4877072">
    <tag k="source" v="survey"/>
  </node>
  <node id="345408688" version="5" timestamp="2009-08-26T00:56:34Z" uid="36809" user="pfoten_weg_!_" changeset="2262879" lat="48.0792837" lon="11.4877072">
    <tag k="source" v="survey"/>
  </node>
  <node id="345408688" version="6" timestamp="2009-10-02T17:37:48Z" uid="86259" user="hasse_osm_korinthenkacker" changeset="2715119" lat="48.0792837" lon="11.4877072"/>
  <node id="345408688" version="7" timestamp="2011-12-20T03:24:35Z" uid="13832" user="Peter14" changeset="10160740" lat="48.0792837" lon="11.4877072"/>
  <node id="345408691" version="1" timestamp="2009-02-14T23:20:41Z" uid="36809" user="pfoten_weg_!_" changeset="445466" lat="48.0805853" lon="11.4878789">
    <tag k="created_by" v="RambaZamba"/>
  </node>
  <node id="345408691" version="2" timestamp="2009-02-15T13:00:33Z" uid="36809" user="pfoten_weg_!_" changeset="463903" lat="48.0805853" lon="11.4878789">
    <tag k="created_by" v="RambaZamba"/>
    <tag k="source" v="survey"/>
  </node>
  <node id="345408691" version="3" timestamp="2009-04-22T18:10:06Z" uid="36809" user="pfoten_weg_!_" changeset="903608" lat="48.0806256" lon="11.4878729">
    <tag k="created_by" v="RambaZamba"/>
    <tag k="source" v="survey"/>
  </node>
  <node id="345408691" version="4" timestamp="2009-08-12T13:38:53Z" uid="156995" user="HampelZamba" changeset="2118817" lat="48.0806256" lon="11.4878729">
    <tag k="source" v="survey"/>
  </node>
  <node id="345408691" version="5" timestamp="2009-08-25T23:53:37Z" uid="36809" user="pfoten_weg_!_" changeset="2262648" lat="48.0806256" lon="11.4878729">
    <tag k="source" v="survey"/>
  </node>
  <node id="345408691" version="6" timestamp="2009-08-26T00:56:34Z" uid="36809" user="pfoten_weg_!_" changeset="2262879" lat="48.0806256" lon="11.4878729">
    <tag k="source" v="survey"/>
  </node>
  <node id="345408691" version="7" timestamp="2009-10-02T17:38:00Z" uid="86259" user="hasse_osm_korinthenkacker" changeset="2715119" lat="48.0806256" lon="11.4878729"/>
  <node id="345408691" version="8" timestamp="2011-12-19T21:12:37Z" uid="13832" user="Peter14" changeset="10159195" lat="48.0806256" lon="11.4878729"/>
  <node id="345408695" version="1" timestamp="2009-02-14T23:20:41Z" uid="36809" user="pfoten_weg_!_" changeset="445466" lat="48.0800693" lon="11.487836">
    <tag k="created_by" v="RambaZamba"/>
  </node>
  <node id="345408695" version="2" timestamp="2009-02-15T13:00:34Z" uid="36809" user="pfoten_weg_!_" changeset="463903" lat="48.0800693" lon="11.487836">
    <tag k="created_by" v="RambaZamba"/>
    <tag k="source" v="survey"/>
  </node>
  <node id="345408695" version="3" timestamp="2009-08-12T13:38:53Z" uid="156995" user="HampelZamba" changeset="2118817" lat="48.0800693" lon="11.487836">
    <tag k="source" v="survey"/>
  </node>
  <node id="345408695" version="4" timestamp="2009-08-25T23:53:37Z" uid="36809" user="pfoten_weg_!_" changeset="2262648" lat="48.0800693" lon="11.487836">
    <tag k="source" v="survey"/>
  </node>
  <node id="345408695" version="5" timestamp="2009-08-26T00:56:34Z" uid="36809" user="pfoten_weg_!_" changeset="2262879" lat="48.0800693" lon="11.487836">
    <tag k="source" v="survey"/>
  </node>
  <node id="345408695" version="6" timestamp="2009-10-02T17:37:52Z" uid="86259" user="hasse_osm_korinthenkacker" changeset="2715119" lat="48.0800693" lon="11.487836"/>
  <node id="345408695" version="7" timestamp="2011-12-19T21:12:37Z" uid="13832" user="Peter14" changeset="10159195" lat="48.0800693" lon="11.487836"/>
  <node id="345408698" version="1" timestamp="2009-02-14T23:20:41Z" uid="36809" user="pfoten_weg_!_" changeset="445466" lat="48.0800695" lon="11.4880835">
    <tag k="created_by" v="RambaZamba"/>
  </node>
  <node id="345408698" version="2" timestamp="2009-02-15T13:00:34Z" uid="36809" user="pfoten_weg_!_" changeset="463903" lat="48.0800695" lon="11.4880835">
    <tag k="created_by" v="RambaZamba"/>
    <tag k="source" v="survey"/>
  </node>
  <node id="345408698" version="3" timestamp="2009-08-12T13:38:53Z" uid="156995" user="HampelZamba" changeset="2118817" lat="48.0800695" lon="11.4880835">
    <tag k="source" v="survey"/>
  </node>
  <node id="345408698" version="4" timestamp="2009-08-25T23:53:39Z" uid="36809" user="pfoten_weg_!_" changeset="2262648" lat="48.0800695" lon="11.4880835">
    <tag k="source" v="survey"/>
  </node>
  <node id="345408698" version="5" timestamp="2009-08-26T00:56:35Z" uid="36809" user="pfoten_weg_!_" changeset="2262879" lat="48.0800695" lon="11.4880835">
    <tag k="source" v="survey"/>
  </node>
  <node id="345408698" version="6" timestamp="2009-10-02T17:37:52Z" uid="86259" user="hasse_osm_korinthenkacker" changeset="2715119" lat="48.0800695" lon="11.4880835"/>
  <node id="345408698" version="7" timestamp="2011-12-20T03:24:35Z" uid="13832" user="Peter14" changeset="10160740" lat="48.0800695" lon="11.4880835"/>
  <node id="345408701" version="1" timestamp="2009-02-14T23:20:41Z" uid="36809" user="pfoten_weg_!_" changeset="445466" lat="48.0781245" lon="11.4876373">
    <tag k="created_by" v="RambaZamba"/>
  </node>
  <node id="345408701" version="2" timestamp="2009-02-15T13:00:35Z" uid="36809" user="pfoten_weg_!_" changeset="463903" lat="48.0781245" lon="11.4876373">
    <tag k="created_by" v="RambaZamba"/>
    <tag k="source" v="survey"/>
  </node>
  <node id="345408701" version="3" timestamp="2009-07-14T09:19:39Z" uid="36809" user="pfoten_weg_!_" changeset="1825139" lat="48.0781739" lon="11.4876521">
    <tag k="source" v="survey"/>
  </node>
  <node id="345408701" version="4" timestamp="2009-10-02T17:37:29Z" uid="86259" user="hasse_osm_korinthenkacker" changeset="2715119" lat="48.0781739" lon="11.4876521"/>
  <node id="345408701" version="5" timestamp="2011-12-20T03:24:35Z" uid="13832" user="Peter14" changeset="10160740" lat="48.0781739" lon="11.4876521"/>
  <node id="345408703" version="1" timestamp="2009-02-14T23:20:41Z" uid="36809" user="pfoten_weg_!_" changeset="445466" lat="48.0782155" lon="11.4873743">
    <tag k="created_by" v="RambaZamba"/>
  </node>
  <node id="345408703" version="2" timestamp="2009-02-15T13:00:36Z" uid="36809" user="pfoten_weg_!_" changeset="463903" lat="48.0782155" lon="11.4873743">
    <tag k="created_by" v="RambaZamba"/>
    <tag k="source" v="survey"/>
  </node>
  <node id="345408703" version="3" timestamp="2009-08-12T13:38:53Z" uid="156995" user="HampelZamba" changeset="2118817" lat="48.0782155" lon="11.4873743">
    <tag k="source" v="survey"/>
  </node>
  <node id="345408703" version="4" timestamp="2009-08-25T23:53:39Z" uid="36809" user="pfoten_weg_!_" changeset="2262648" lat="48.0782155" lon="11.4873743">
    <tag k="source" v="survey"/>
  </node>
  <node id="345408703" version="5" timestamp="2009-08-26T00:56:36Z" uid="36809" user="pfoten_weg_!_" changeset="2262879" lat="48.0782155" lon="11.4873743">
    <tag k="source" v="survey"/>
  </node>
  <node id="345408703" version="6" timestamp="2009-10-02T17:37:15Z" uid="86259" user="hasse_osm_korinthenkacker" changeset="2715119" lat="48.0782155" lon="11.4873743"/>
  <node id="345408703" version="7" timestamp="2011-12-20T03:24:36Z" uid="13832" user="Peter14" changeset="10160740" lat="48.0782155" lon="11.4873743"/>
  <node id="345408706" version="1" timestamp="2009-02-14T23:20:42Z" uid="36809" user="pfoten_weg_!_" changeset="445466" lat="48.0774773" lon="11.4873725">
    <tag k="created_by" v="RambaZamba"/>
  </node>
  <node id="345408706" version="2" timestamp="2009-02-15T13:00:27Z" uid="36809" user="pfoten_weg_!_" changeset="463903" lat="48.0774773" lon="11.4873725">
    <tag k="created_by" v="RambaZamba"/>
    <tag k="source" v="survey"/>
  </node>
  <node id="345408706" version="3" timestamp="2009-07-14T09:19:39Z" uid="36809" user="pfoten_weg_!_" changeset="1825139" lat="48.0775575" lon="11.4874168">
    <tag k="source" v="survey"/>
  </node>
  <node id="345408706" version="4" timestamp="2009-10-02T17:37:14Z" uid="86259" user="hasse_osm_korinthenkacker" changeset="2715119" lat="48.0775575" lon="11.4874168"/>
  <node id="345408706" version="5" timestamp="2011-12-20T03:24:36Z" uid="13832" user="Peter14" changeset="10160740" lat="48.0775575" lon="11.4874168"/>
  <node id="345408709" version="1" timestamp="2009-02-14T23:20:42Z" uid="36809" user="pfoten_weg_!_" changeset="445466" lat="48.0765829" lon="11.4866064">
    <tag k="created_by" v="RambaZamba"/>
  </node>
  <node id="345408709" version="2" timestamp="2009-02-15T13:00:26Z" uid="36809" user="pfoten_weg_!_" changeset="463903" lat="48.0765829" lon="11.4866064">
    <tag k="created_by" v="RambaZamba"/>
    <tag k="source" v="survey"/>
  </node>
  <node id="345408709" version="3" timestamp="2009-03-30T19:12:50Z" uid="13832" user="Peter14" changeset="870114" lat="48.0765829" lon="11.4866064">
    <tag k="created_by" v="RambaZamba"/>
    <tag k="source" v="survey"/>
  </node>
  <node id="345408709" version="4" timestamp="2009-04-02T00:02:39Z" uid="5164" user="woodpeck" changeset="94633" lat="48.0765829" lon="11.4866064">
    <tag k="created_by" v="RambaZamba"/>
    <tag k="source" v="survey"/>
  </node>
  <node id="345408709" version="5" timestamp="2009-08-12T13:38:53Z" uid="156995" user="HampelZamba" changeset="2118817" lat="48.0765829" lon="11.4866064">
    <tag k="source" v="survey"/>
  </node>
  <node id="345408709" version="6" timestamp="2009-08-25T23:53:35Z" uid="36809" user="pfoten_weg_!_" changeset="2262648" lat="48.0765829" lon="11.4866064">
    <tag k="source" v="survey"/>
  </node>
  <node id="345408709" version="7" timestamp="2009-08-26T00:56:32Z" uid="36809" user="pfoten_weg_!_" changeset="2262879" lat="48.0765829" lon="11.4866064">
    <tag k="source" v="survey"/>
  </node>
  <node id="345408709" version="8" timestamp="2009-10-02T17:36:44Z" uid="86259" user="hasse_osm_korinthenkacker" changeset="2715119" lat="48.0765829" lon="11.4866064"/>
  <node id="345408709" version="9" timestamp="2011-12-20T03:24:36Z" uid="13832" user="Peter14" changeset="10160740" lat="48.0765829" lon="11.4866064"/>
  <node id="345408712" version="1" timestamp="2009-02-14T23:20:42Z" uid="36809" user="pfoten_weg_!_" changeset="445466" lat="48.0792206" lon="11.4879561">
    <tag k="created_by" v="RambaZamba"/>
  </node>
  <node id="345408712" version="2" timestamp="2009-02-15T13:00:32Z" uid="36809" user="pfoten_weg_!_" changeset="463903" lat="48.0792206" lon="11.4879561">
    <tag k="created_by" v="RambaZamba"/>
    <tag k="source" v="survey"/>
  </node>
  <node id="345408712" version="3" timestamp="2009-07-14T09:19:39Z" uid="36809" user="pfoten_weg_!_" changeset="1825139" lat="48.0792663" lon="11.4879801">
    <tag k="source" v="survey"/>
  </node>
  <node id="345408712" version="4" timestamp="2009-10-02T17:37:49Z" uid="86259" user="hasse_osm_korinthenkacker" changeset="2715119" lat="48.0792663" lon="11.4879801"/>
  <node id="345408712" version="5" timestamp="2011-12-20T03:24:36Z" uid="13832" user="Peter14" changeset="10160740" lat="48.0792663" lon="11.4879801"/>
  <node id="345408714" version="1" timestamp="2009-02-14T23:20:42Z" uid="36809" user="pfoten_weg_!_" changeset="445466" lat="48.0807688" lon="11.4881192">
    <tag k="created_by" v="RambaZamba"/>
  </node>
  <node id="345408714" version="2" timestamp="2009-02-15T13:00:31Z" uid="36809" user="pfoten_weg_!_" changeset="463903" lat="48.0807688" lon="11.4881192">
    <tag k="created_by" v="RambaZamba"/>
    <tag k="source" v="survey"/>
  </node>
  <node id="345408714" version="3" timestamp="2009-04-22T18:10:06Z" uid="36809" user="pfoten_weg_!_" changeset="903608" lat="48.0806398" lon="11.4881222">
    <tag k="created_by" v="RambaZamba"/>
    <tag k="source" v="survey"/>
  </node>
  <node id="345408714" version="4" timestamp="2009-08-12T13:38:53Z" uid="156995" user="HampelZamba" changeset="2118817" lat="48.0806398" lon="11.4881222">
    <tag k="source" v="survey"/>
  </node>
  <node id="345408714" version="5" timestamp="2009-08-25T23:53:36Z" uid="36809" user="pfoten_weg_!_" changeset="2262648" lat="48.0806398" lon="11.4881222">
    <tag k="source" v="survey"/>
  </node>
  <node id="345408714" version="6" timestamp="2009-08-26T00:56:33Z" uid="36809" user="pfoten_weg_!_" changeset="2262879" lat="48.0806398" lon="11.4881222">
    <tag k="source" v="survey"/>
  </node>
  <node id="345408714" version="7" timestamp="2009-10-02T17:38:01Z" uid="86259" user="hasse_osm_korinthenkacker" changeset="2715119" lat="48.0806398" lon="11.4881222"/>
  <node id="345408714" version="8" timestamp="2011-12-20T03:24:36Z" uid="13832" user="Peter14" changeset="10160740" lat="48.0806398" lon="11.4881222"/>
  <node id="345408717" version="1" timestamp="2009-02-14T23:20:43Z" uid="36809" user="pfoten_weg_!_" changeset="445466" lat="48.0841855" lon="11.4880836">
    <tag k="created_by" v="RambaZamba"/>
  </node>
  <node id="345408717" version="2" timestamp="2009-02-15T13:00:30Z" uid="36809" user="pfoten_weg_!_" changeset="463903" lat="48.0841855" lon="11.4880836">
    <tag k="created_by" v="RambaZamba"/>
    <tag k="source" v="survey"/>
  </node>
  <node id="345408717" version="3" timestamp="2009-04-22T18:10:08Z" uid="36809" user="pfoten_weg_!_" changeset="903608" lat="48.0841855" lon="11.4880836">
    <tag k="created_by" v="RambaZamba"/>
    <tag k="source" v="survey"/>
  </node>
  <node id="345408720" version="1" timestamp="2009-02-14T23:20:43Z" uid="36809" user="pfoten_weg_!_" changeset="445466" lat="48.0764682" lon="11.4868897">
    <tag k="created_by" v="RambaZamba"/>
  </node>
  <node id="345408720" version="2" timestamp="2009-02-15T13:00:23Z" uid="36809" user="pfoten_weg_!_" changeset="463903" lat="48.0764682" lon="11.4868897">
    <tag k="created_by" v="RambaZamba"/>
    <tag k="source" v="survey"/>
  </node>
  <node id="345408720" version="3" timestamp="2009-03-30T19:12:55Z" uid="13832" user="Peter14" changeset="870114" lat="48.0764682" lon="11.4868897">
    <tag k="created_by" v="RambaZamba"/>
    <tag k="source" v="survey"/>
  </node>
  <node id="345408720" version="4" timestamp="2009-04-02T05:50:03Z" uid="5164" user="woodpeck" changeset="94633" lat="48.0764682" lon="11.4868897">
    <tag k="created_by" v="RambaZamba"/>
    <tag k="source" v="survey"/>
  </node>
  <node id="345408720" version="5" timestamp="2009-04-13T09:14:13Z" uid="7596" user="ck3d" changeset="467821" lat="48.0764682" lon="11.4868897">
    <tag k="created_by" v="RambaZamba"/>
    <tag k="source" v="survey"/>
  </node>
  <node id="345408723" version="1" timestamp="2009-02-14T23:20:43Z" uid="36809" user="pfoten_weg_!_" changeset="445466" lat="48.0769719" lon="11.4871563">
    <tag k="created_by" v="RambaZamba"/>
  </node>
  <node id="345408723" version="2" timestamp="2009-02-15T13:00:22Z" uid="36809" user="pfoten_weg_!_" changeset="463903" lat="48.0769719" lon="11.4871563">
    <tag k="created_by" v="RambaZamba"/>
    <tag k="source" v="survey"/>
  </node>
  <node id="345408723" version="3" timestamp="2009-08-12T13:38:54Z" uid="156995" user="HampelZamba" changeset="2118817" lat="48.0769719" lon="11.4871563">
    <tag k="source" v="survey"/>
  </node>
  <node id="345408723" version="4" timestamp="2009-08-25T23:53:34Z" uid="36809" user="pfoten_weg_!_" changeset="2262648" lat="48.0769719" lon="11.4871563">
    <tag k="source" v="survey"/>
  </node>
  <node id="345408723" version="5" timestamp="2009-08-26T00:56:31Z" uid="36809" user="pfoten_weg_!_" changeset="2262879" lat="48.0769719" lon="11.4871563">
    <tag k="source" v="survey"/>
  </node>
  <node id="345408723" version="6" timestamp="2009-10-02T17:36:57Z" uid="86259" user="hasse_osm_korinthenkacker" changeset="2715119" lat="48.0769719" lon="11.4871563"/>
  <node id="345408723" version="7" timestamp="2011-12-20T03:24:36Z" uid="13832" user="Peter14" changeset="10160740" lat="48.0769719" lon="11.4871563"/>
  <node id="345408725" version="1" timestamp="2009-02-14T23:20:43Z" uid="36809" user="pfoten_weg_!_" changeset="445466" lat="48.0788478" lon="11.4875871">
    <tag k="created_by" v="RambaZamba"/>
  </node>
  <node id="345408725" version="2" timestamp="2009-02-15T13:00:22Z" uid="36809" user="pfoten_weg_!_" changeset="463903" lat="48.0788478" lon="11.4875871">
    <tag k="created_by" v="RambaZamba"/>
    <tag k="source" v="survey"/>
  </node>
  <node id="345408725" version="3" timestamp="2009-08-12T13:38:54Z" uid="156995" user="HampelZamba" changeset="2118817" lat="48.0788478" lon="11.4875871">
    <tag k="source" v="survey"/>
  </node>
  <node id="345408725" version="4" timestamp="2009-08-25T23:53:34Z" uid="36809" user="pfoten_weg_!_" changeset="2262648" lat="48.0788478" lon="11.4875871">
    <tag k="source" v="survey"/>
  </node>
  <node id="345408725" version="5" timestamp="2009-08-26T00:56:30Z" uid="36809" user="pfoten_weg_!_" changeset="2262879" lat="48.0788478" lon="11.4875871">
    <tag k="source" v="survey"/>
  </node>
  <node id="345408725" version="6" timestamp="2009-10-02T17:37:37Z" uid="86259" user="hasse_osm_korinthenkacker" changeset="2715119" lat="48.0788478" lon="11.4875871"/>
  <node id="345408725" version="7" timestamp="2011-12-20T03:24:36Z" uid="13832" user="Peter14" changeset="10160740" lat="48.0788478" lon="11.4875871"/>
  <node id="345408729" version="1" timestamp="2009-02-14T23:20:43Z" uid="36809" user="pfoten_weg_!_" changeset="445466" lat="48.0813824" lon="11.4881192">
    <tag k="created_by" v="RambaZamba"/>
  </node>
  <node id="345408729" version="2" timestamp="2009-02-15T13:00:25Z" uid="36809" user="pfoten_weg_!_" changeset="463903" lat="48.0813824" lon="11.4881192">
    <tag k="created_by" v="RambaZamba"/>
    <tag k="source" v="survey"/>
  </node>
  <node id="345408729" version="3" timestamp="2009-08-12T13:38:54Z" uid="156995" user="HampelZamba" changeset="2118817" lat="48.0813824" lon="11.4881192">
    <tag k="source" v="survey"/>
  </node>
  <node id="345408729" version="4" timestamp="2009-08-25T23:53:34Z" uid="36809" user="pfoten_weg_!_" changeset="2262648" lat="48.0813824" lon="11.4881192">
    <tag k="source" v="survey"/>
  </node>
  <node id="345408729" version="5" timestamp="2009-08-26T00:56:31Z" uid="36809" user="pfoten_weg_!_" changeset="2262879" lat="48.0813824" lon="11.4881192">
    <tag k="source" v="survey"/>
  </node>
  <node id="345408729" version="6" timestamp="2009-10-02T17:38:06Z" uid="86259" user="hasse_osm_korinthenkacker" changeset="2715119" lat="48.0813824" lon="11.4881192"/>
  <node id="345408729" version="7" timestamp="2011-12-19T21:12:37Z" uid="13832" user="Peter14" changeset="10159195" lat="48.0813824" lon="11.4881192"/>
  <node id="345408732" version="1" timestamp="2009-02-14T23:20:44Z" uid="36809" user="pfoten_weg_!_" changeset="445466" lat="48.079676" lon="11.4880397">
    <tag k="created_by" v="RambaZamba"/>
  </node>
  <node id="345408732" version="2" timestamp="2009-02-15T13:00:24Z" uid="36809" user="pfoten_weg_!_" changeset="463903" lat="48.079676" lon="11.4880397">
    <tag k="created_by" v="RambaZamba"/>
    <tag k="source" v="survey"/>
  </node>
  <node id="345408732" version="3" timestamp="2009-07-14T09:19:39Z" uid="36809" user="pfoten_weg_!_" changeset="1825139" lat="48.0796229" lon="11.4880415">
    <tag k="source" v="survey"/>
  </node>
  <node id="345408732" version="4" timestamp="2009-10-02T17:37:52Z" uid="86259" user="hasse_osm_korinthenkacker" changeset="2715119" lat="48.0796229" lon="11.4880415"/>
  <node id="345408732" version="5" timestamp="2011-12-20T03:24:36Z" uid="13832" user="Peter14" changeset="10160740" lat="48.0796229" lon="11.4880415"/>
  <node id="345408735" version="1" timestamp="2009-02-14T23:20:44Z" uid="36809" user="pfoten_weg_!_" changeset="445466" lat="48.0821212" lon="11.4878776">
    <tag k="created_by" v="RambaZamba"/>
  </node>
  <node id="345408735" version="2" timestamp="2009-02-15T13:00:24Z" uid="36809" user="pfoten_weg_!_" changeset="463903" lat="48.0821212" lon="11.4878776">
    <tag k="created_by" v="RambaZamba"/>
    <tag k="source" v="survey"/>
  </node>
  <node id="345408735" version="3" timestamp="2009-04-22T18:10:08Z" uid="36809" user="pfoten_weg_!_" changeset="903608" lat="48.0821212" lon="11.4878776">
    <tag k="created_by" v="RambaZamba"/>
    <tag k="source" v="survey"/>
  </node>
  <node id="345408738" version="1" timestamp="2009-02-14T23:20:44Z" uid="36809" user="pfoten_weg_!_" changeset="445466" lat="48.0776061" lon="11.4871299">
    <tag k="created_by" v="RambaZamba"/>
  </node>
  <node id="345408738" version="2" timestamp="2009-02-15T13:00:21Z" uid="36809" user="pfoten_weg_!_" changeset="463903" lat="48.0776061" lon="11.4871299">
    <tag k="created_by" v="RambaZamba"/>
    <tag k="source" v="survey"/>
  </node>
  <node id="345408738" version="3" timestamp="2009-08-12T13:38:54Z" uid="156995" user="HampelZamba" changeset="2118817" lat="48.0776061" lon="11.4871299">
    <tag k="source" v="survey"/>
  </node>
  <node id="345408738" version="4" timestamp="2009-08-25T23:53:33Z" uid="36809" user="pfoten_weg_!_" changeset="2262648" lat="48.0776061" lon="11.4871299">
    <tag k="source" v="survey"/>
  </node>
  <node id="345408738" version="5" timestamp="2009-08-26T00:56:30Z" uid="36809" user="pfoten_weg_!_" changeset="2262879" lat="48.0776061" lon="11.4871299">
    <tag k="source" v="survey"/>
  </node>
  <node id="345408738" version="6" timestamp="2009-10-02T17:37:14Z" uid="86259" user="hasse_osm_korinthenkacker" changeset="2715119" lat="48.0776061" lon="11.4871299"/>
  <node id="345408738" version="7" timestamp="2011-12-20T03:24:36Z" uid="13832" user="Peter14" changeset="10160740" lat="48.0776061" lon="11.4871299"/>
</osm>
