<?xml version='1.0' encoding='UTF-8'?>
<osm version="0.6" generator="libosmium/2.20.0">
  <node id="346411772" version="4" timestamp="2010-04-05T16:38:21Z" uid="163746" user="anti_bot-nonsense" changeset="4334877" lat="52.6377563" lon="19.0519158">
    <tag k="highway" v="bus_stop"/>
    <tag k="name" v="Zbiegniewskiej - Fredry"/>
  </node>
  <node id="346412203" version="3" timestamp="2010-04-05T17:07:20Z" uid="163746" user="anti_bot-nonsense" changeset="4334877" lat="52.6378604" lon="19.0507056">
    <tag k="highway" v="bus_stop"/>
    <tag k="name" v="Zbiegniewskiej - Fredry"/>
  </node>
  <node id="346412633" version="1" timestamp="2009-02-16T23:33:42Z" uid="4467" user="Rosscoe" changeset="499474" lat="-21.1299477" lon="149.162747">
    <tag k="created_by" v="Potlatch 0.10f"/>
  </node>
  <node id="346412633" version="2" timestamp="2009-02-17T10:00:57Z" uid="4467" user="Rosscoe" changeset="511330" lat="-21.1299477" lon="149.162747">
    <tag k="amenity" v="fast_food"/>
    <tag k="created_by" v="Potlatch 0.10f"/>
  </node>
  <node id="346412633" version="3" timestamp="2009-06-04T01:51:38Z" uid="4467" user="Rosscoe" changeset="1418010" lat="-21.1299553" lon="149.1627485">
    <tag k="amenity" v="fast_food"/>
    <tag k="created_by" v="Potlatch 0.10f"/>
    <tag k="name" v="MacDonalds"/>
  </node>
  <node id="346412633" version="4" timestamp="2010-08-22T02:38:23Z" uid="4467" user="Rosscoe" changeset="5557382" lat="-21.1299593" lon="149.1627122">
    <tag k="addr:city" v="Mackay"/>
    <tag k="addr:country" v="AU"/>
    <tag k="addr:housenumber" v="1"/>
    <tag k="addr:postcode" v="4740"/>
    <tag k="addr:state" v="Qld"/>
    <tag k="addr:street" v="Kay Court"/>
    <tag k="amenity" v="fast_food"/>
    <tag k="name" v="MacDonalds"/>
    <tag k="opening_hours" v="Su-Tu 06:00-22:00; We-Th 06:00-23:00; Fr-Sa 06:00-24:00"/>
    <tag k="source" v="nearmap;knowledge"/>
  </node>
  <node id="346412633" version="5" timestamp="2010-08-22T02:42:26Z" uid="4467" user="Rosscoe" changeset="5557385" lat="-21.1299593" lon="149.1627122">
    <tag k="addr:city" v="Mackay"/>
    <tag k="addr:country" v="AU"/>
    <tag k="addr:housenumber" v="1"/>
    <tag k="addr:postcode" v="4740"/>
    <tag k="addr:state" v="Qld"/>
    <tag k="addr:street" v="Kay Court"/>
    <tag k="amenity" v="fast_food"/>
    <tag k="name" v="MacDonalds"/>
    <tag k="opening_hours" v="Su-Th 06:00-23:00; Fr-Sa 06:00-24:00"/>
    <tag k="source" v="nearmap;knowledge"/>
  </node>
  <node id="346412633" version="6" timestamp="2010-12-26T21:13:12Z" uid="31075" user="wieland" changeset="6772301" lat="-21.1299593" lon="149.1627122">
    <tag k="addr:city" v="Mackay"/>
    <tag k="addr:country" v="AU"/>
    <tag k="addr:housenumber" v="1"/>
    <tag k="addr:postcode" v="4740"/>
    <tag k="addr:state" v="Qld"/>
    <tag k="addr:street" v="Kay Court"/>
    <tag k="amenity" v="fast_food"/>
    <tag k="cuisine" v="burger"/>
    <tag k="name" v="McDonald&apos;s"/>
    <tag k="opening_hours" v="Su-Th 06:00-23:00; Fr-Sa 06:00-24:00"/>
    <tag k="source" v="nearmap;knowledge"/>
  </node>
  <node id="346413098" version="1" timestamp="2009-02-16T23:35:21Z" uid="4467" user="Rosscoe" changeset="499474" lat="-21.1226461" lon="149.1597515">
    <tag k="created_by" v="Potlatch 0.10f"/>
  </node>
  <node id="346413098" version="2" timestamp="2009-02-17T07:35:15Z" uid="4467" user="Rosscoe" changeset="511330" lat="-21.1226461" lon="149.1597515">
    <tag k="created_by" v="Potlatch 0.10f"/>
    <tag k="name" v="Bunnings"/>
    <tag k="shop" v="doityourself"/>
  </node>
  <node id="346413098" version="3" timestamp="2011-05-12T08:56:24Z" uid="4467" user="Rosscoe" changeset="8119856" lat="-21.1226461" lon="149.1597515">
    <tag k="name" v="Bunnings"/>
    <tag k="shop" v="doityourself"/>
  </node>
  <node id="346413448" version="1" timestamp="2009-02-16T23:36:16Z" uid="4467" user="Rosscoe" changeset="499474" lat="-21.1210928" lon="149.1604639"/>
  <node id="346413448" version="2" timestamp="2010-08-25T06:15:59Z" uid="4467" user="Rosscoe" changeset="5586324" lat="-21.1210905" lon="149.1604699"/>
  <node id="346413449" version="1" timestamp="2009-02-16T23:36:16Z" uid="4467" user="Rosscoe" changeset="499474" lat="-21.1242954" lon="149.1599747"/>
  <node id="346413449" version="2" timestamp="2010-08-25T06:15:51Z" uid="4467" user="Rosscoe" changeset="5586324" lat="-21.1243042" lon="149.159957"/>
  <node id="346413451" version="1" timestamp="2009-02-16T23:36:16Z" uid="4467" user="Rosscoe" changeset="499474" lat="-21.1249359" lon="149.1591507"/>
  <node id="346413452" version="1" timestamp="2009-02-16T23:36:16Z" uid="4467" user="Rosscoe" changeset="499474" lat="-21.1231264" lon="149.1577603"/>
  <node id="346413453" version="1" timestamp="2009-02-16T23:36:16Z" uid="4467" user="Rosscoe" changeset="499474" lat="-21.1223258" lon="149.1572882"/>
  <node id="346413454" version="1" timestamp="2009-02-16T23:36:16Z" uid="4467" user="Rosscoe" changeset="499474" lat="-21.1214291" lon="149.1571766"/>
  <node id="346413454" version="2" timestamp="2012-02-18T06:42:49Z" uid="603720" user="Andergrove1" changeset="10717308" lat="-21.1214075" lon="149.1570245"/>
  <node id="346413455" version="1" timestamp="2009-02-16T23:36:16Z" uid="4467" user="Rosscoe" changeset="499474" lat="-21.1206444" lon="149.1573311"/>
  <node id="346413455" version="2" timestamp="2012-02-18T06:42:49Z" uid="603720" user="Andergrove1" changeset="10717308" lat="-21.1206321" lon="149.1572517"/>
  <node id="346413544" version="1" timestamp="2009-02-16T23:36:29Z" uid="4467" user="Rosscoe" changeset="499474" lat="-21.1240712" lon="149.1586357">
    <tag k="created_by" v="Potlatch 0.10f"/>
  </node>
  <node id="346413544" version="2" timestamp="2009-02-17T07:35:14Z" uid="4467" user="Rosscoe" changeset="511330" lat="-21.1240712" lon="149.1586357">
    <tag k="created_by" v="Potlatch 0.10f"/>
    <tag k="name" v="Autobahn"/>
    <tag k="operator" v="Autobahn"/>
    <tag k="shop" v="car"/>
  </node>
  <node id="346413544" version="3" timestamp="2011-05-12T08:56:57Z" uid="4467" user="Rosscoe" changeset="8119856" lat="-21.1240712" lon="149.1586357">
    <tag k="name" v="Autobahn"/>
    <tag k="operator" v="Autobahn"/>
    <tag k="shop" v="car"/>
  </node>
  <node id="346413964" version="2" timestamp="2010-07-18T04:01:19Z" uid="4467" user="Rosscoe" changeset="5247721" lat="-37.917414" lon="145.1315675"/>
  <node id="346414344" version="4" timestamp="2010-04-05T16:01:22Z" uid="163746" user="anti_bot-nonsense" changeset="4334877" lat="52.6393084" lon="19.049813">
    <tag k="highway" v="bus_stop"/>
    <tag k="name" v="Kaliska - Zbiegniewskiej"/>
  </node>
  <node id="346414792" version="3" timestamp="2010-04-05T16:05:52Z" uid="163746" user="anti_bot-nonsense" changeset="4334877" lat="52.6394542" lon="19.049607">
    <tag k="highway" v="bus_stop"/>
    <tag k="name" v="Kaliska - Zbiegniewskiej"/>
  </node>
  <node id="346415592" version="2" timestamp="2009-04-16T22:46:52Z" uid="6975" user="ulfl" changeset="598814" lat="47.2863509" lon="8.8567048">
    <tag k="name" v="Foto Jutzi"/>
    <tag k="shop" v="photography"/>
  </node>
  <node id="346415592" version="3" timestamp="2010-04-01T19:35:30Z" uid="118856" user="staehler" changeset="4297229" lat="47.2863509" lon="8.8567048">
    <tag k="name" v="Foto Jutzi"/>
    <tag k="shop" v="photo"/>
  </node>
  <node id="346415851" version="3" timestamp="2010-04-05T16:33:48Z" uid="163746" user="anti_bot-nonsense" changeset="4334877" lat="52.6424334" lon="19.0530745">
    <tag k="highway" v="bus_stop"/>
    <tag k="name" v="Kaliska - Dziewińska"/>
  </node>
  <node id="346416130" version="2" timestamp="2010-07-18T06:06:37Z" uid="4467" user="Rosscoe" changeset="5248095" lat="-37.9028031" lon="145.1526502"/>
  <node id="346417044" version="3" timestamp="2010-04-05T15:56:51Z" uid="163746" user="anti_bot-nonsense" changeset="4334877" lat="52.6432406" lon="19.0535638">
    <tag k="highway" v="bus_stop"/>
    <tag k="name" v="Kaliska - Dziewińska"/>
  </node>
</osm>
