<?xml version='1.0' encoding='UTF-8'?>
<osm version="0.6" generator="libosmium/2.20.0">
  <node id="346872089" version="1" timestamp="2009-02-17T17:12:26Z" uid="43967" user="railsnail" changeset="516910" lat="47.0001964" lon="12.4709053"/>
  <node id="346872089" version="2" timestamp="2009-02-17T17:12:28Z" uid="43967" user="railsnail" changeset="516910" lat="47.0001964" lon="12.4709053"/>
  <node id="346872089" version="3" timestamp="2009-02-17T17:12:31Z" uid="43967" user="railsnail" changeset="516910" lat="47.0001964" lon="12.4709053"/>
  <node id="346872089" version="4" timestamp="2009-02-17T17:12:43Z" uid="43967" user="railsnail" changeset="516910" lat="47.0001964" lon="12.4709053"/>
  <node id="346872089" version="5" timestamp="2009-09-20T17:14:19Z" uid="43967" user="railsnail" changeset="2548468" lat="47.0003436" lon="12.471025"/>
  <node id="346872089" version="6" timestamp="2010-09-13T20:16:05Z" uid="144382" user="SHuehne" changeset="5773322" lat="47.0003342" lon="12.4710216"/>
  <node id="346872089" version="7" timestamp="2011-08-11T14:22:36Z" uid="81244" user="rurseekatze" changeset="8986070" lat="47.0003231" lon="12.4710135"/>
  <node id="346872122" version="1" timestamp="2009-02-17T17:12:31Z" uid="43967" user="railsnail" changeset="516910" lat="47.0004996" lon="12.4690597"/>
  <node id="346872122" version="2" timestamp="2009-02-17T17:12:37Z" uid="43967" user="railsnail" changeset="516910" lat="47.0004996" lon="12.4690597"/>
  <node id="346872122" version="3" timestamp="2009-07-29T11:47:04Z" uid="50840" user="dachstein" changeset="1974944" lat="47.000593" lon="12.4692575"/>
  <node id="346872122" version="4" timestamp="2010-09-13T20:15:58Z" uid="144382" user="SHuehne" changeset="5773322" lat="47.0005342" lon="12.4692885"/>
  <node id="346872122" version="5" timestamp="2011-08-11T14:22:36Z" uid="81244" user="rurseekatze" changeset="8986070" lat="47.0005372" lon="12.4693085"/>
  <node id="346872569" version="1" timestamp="2009-02-17T17:13:36Z" uid="43967" user="railsnail" changeset="516910" lat="46.9988391" lon="12.4826819"/>
  <node id="346872569" version="2" timestamp="2009-02-17T17:13:39Z" uid="43967" user="railsnail" changeset="516910" lat="46.9988391" lon="12.4826819"/>
  <node id="346872569" version="3" timestamp="2009-09-20T17:14:07Z" uid="43967" user="railsnail" changeset="2548468" lat="46.9988391" lon="12.4826819"/>
  <node id="346872569" version="4" timestamp="2009-09-20T17:57:48Z" uid="43967" user="railsnail" changeset="2548468" lat="46.9988334" lon="12.4826207"/>
  <node id="346872569" version="5" timestamp="2011-08-04T16:33:28Z" uid="77910" user="TSchlotfeldt" changeset="8921240" lat="46.998849" lon="12.4825932"/>
  <node id="346872569" version="6" timestamp="2011-08-11T14:22:36Z" uid="81244" user="rurseekatze" changeset="8986070" lat="46.9988623" lon="12.4825889"/>
  <node id="346875581" version="2" timestamp="2010-06-17T16:17:36Z" uid="43967" user="railsnail" changeset="5010048" lat="44.3866914" lon="7.5590386"/>
  <node id="346875581" version="3" timestamp="2011-09-06T10:18:03Z" uid="67289" user="Gautama" changeset="9225556" lat="44.3866849" lon="7.5590375"/>
  <node id="346875628" version="2" timestamp="2010-06-17T16:17:37Z" uid="43967" user="railsnail" changeset="5010048" lat="44.3858535" lon="7.5632424"/>
  <node id="346875628" version="3" timestamp="2010-10-10T19:46:36Z" uid="113023" user="glaucos" changeset="6005881" lat="44.3857944" lon="7.5632404"/>
  <node id="346875628" version="4" timestamp="2011-08-01T21:54:33Z" uid="22290" user="Ale_Zena_IT" changeset="8895919" lat="44.3857944" lon="7.5632404">
    <tag k="highway" v="traffic_signals"/>
  </node>
  <node id="346878399" version="1" timestamp="2009-02-17T17:23:53Z" uid="58091" user="Andreas M" changeset="518785" lat="48.2203871" lon="16.4036172">
    <tag k="addr:housenumber" v="4"/>
  </node>
  <node id="346878399" version="2" timestamp="2009-02-17T17:39:03Z" uid="58091" user="Andreas M" changeset="518785" lat="48.2203635" lon="16.4036243">
    <tag k="addr:housenumber" v="4"/>
  </node>
  <node id="346878399" version="3" timestamp="2009-02-18T17:05:03Z" uid="58091" user="Andreas M" changeset="544027" lat="48.2203635" lon="16.4036243">
    <tag k="addr:housenumber" v="4"/>
  </node>
  <node id="346878404" version="1" timestamp="2009-02-17T17:23:53Z" uid="58091" user="Andreas M" changeset="518785" lat="48.220298" lon="16.4030878">
    <tag k="addr:housenumber" v="2"/>
  </node>
  <node id="346878404" version="2" timestamp="2009-02-17T17:39:03Z" uid="58091" user="Andreas M" changeset="518785" lat="48.2202744" lon="16.4030949">
    <tag k="addr:housenumber" v="2"/>
  </node>
  <node id="346878404" version="3" timestamp="2009-02-18T17:05:04Z" uid="58091" user="Andreas M" changeset="544027" lat="48.2202744" lon="16.4030949">
    <tag k="addr:housenumber" v="2"/>
  </node>
  <node id="346878408" version="1" timestamp="2009-02-17T17:23:54Z" uid="58091" user="Andreas M" changeset="518785" lat="48.2206815" lon="16.4052974">
    <tag k="addr:housenumber" v="8"/>
  </node>
  <node id="346878408" version="2" timestamp="2009-02-17T17:39:03Z" uid="58091" user="Andreas M" changeset="518785" lat="48.2206485" lon="16.4053116">
    <tag k="addr:housenumber" v="8"/>
  </node>
  <node id="346878408" version="3" timestamp="2009-02-18T17:05:04Z" uid="58091" user="Andreas M" changeset="544027" lat="48.2206485" lon="16.4053116">
    <tag k="addr:housenumber" v="8"/>
  </node>
  <node id="346878411" version="1" timestamp="2009-02-17T17:23:54Z" uid="58091" user="Andreas M" changeset="518785" lat="48.2207705" lon="16.4058269">
    <tag k="addr:housenumber" v="10"/>
  </node>
  <node id="346878411" version="2" timestamp="2009-02-17T17:39:04Z" uid="58091" user="Andreas M" changeset="518785" lat="48.2207375" lon="16.405841">
    <tag k="addr:housenumber" v="10"/>
  </node>
  <node id="346878411" version="3" timestamp="2009-02-18T17:05:04Z" uid="58091" user="Andreas M" changeset="544027" lat="48.2207375" lon="16.405841">
    <tag k="addr:housenumber" v="10"/>
  </node>
  <node id="346878415" version="1" timestamp="2009-02-17T17:23:54Z" uid="58091" user="Andreas M" changeset="518785" lat="48.2205308" lon="16.404529">
    <tag k="addr:city" v="Wien"/>
    <tag k="addr:housenumber" v="6"/>
    <tag k="addr:postcode" v="1020"/>
    <tag k="addr:street" v="Jungstraße"/>
  </node>
  <node id="346878415" version="2" timestamp="2009-02-17T17:39:04Z" uid="58091" user="Andreas M" changeset="518785" lat="48.2205072" lon="16.4045573">
    <tag k="addr:city" v="Wien"/>
    <tag k="addr:housenumber" v="6"/>
    <tag k="addr:postcode" v="1020"/>
    <tag k="addr:street" v="Jungstraße"/>
  </node>
  <node id="346878415" version="3" timestamp="2009-03-13T15:47:11Z" uid="99800" user="wolfbert" changeset="799838" lat="48.2205819" lon="16.4044323">
    <tag k="addr:city" v="Wien"/>
    <tag k="addr:housenumber" v="6"/>
    <tag k="addr:postcode" v="1020"/>
    <tag k="addr:street" v="Jungstraße"/>
  </node>
  <node id="346878415" version="4" timestamp="2009-03-15T19:49:33Z" uid="58091" user="Andreas M" changeset="815744" lat="48.2205819" lon="16.4044323">
    <tag k="addr:city" v="Wien"/>
    <tag k="addr:country" v="AT"/>
    <tag k="addr:housenumber" v="6"/>
    <tag k="addr:postcode" v="1020"/>
    <tag k="addr:street" v="Jungstraße"/>
  </node>
  <node id="346878415" version="5" timestamp="2011-03-09T22:11:47Z" uid="99800" user="wolfbert" changeset="7509333" lat="48.2205764" lon="16.4044199">
    <tag k="addr:city" v="Wien"/>
    <tag k="addr:country" v="AT"/>
    <tag k="addr:housenumber" v="6"/>
    <tag k="addr:postcode" v="1020"/>
    <tag k="addr:street" v="Jungstraße"/>
  </node>
  <node id="346878415" version="6" timestamp="2011-03-11T21:45:21Z" uid="99800" user="wolfbert" changeset="7527892" lat="48.2205642" lon="16.4044668">
    <tag k="addr:city" v="Wien"/>
    <tag k="addr:country" v="AT"/>
    <tag k="addr:housenumber" v="6"/>
    <tag k="addr:postcode" v="1020"/>
    <tag k="addr:street" v="Jungstraße"/>
  </node>
  <node id="346878415" version="7" timestamp="2012-02-26T18:14:35Z" uid="99800" user="wolfbert" changeset="10801411" lat="48.2205642" lon="16.4044668"/>
  <node id="346878417" version="1" timestamp="2009-02-17T17:23:54Z" uid="58091" user="Andreas M" changeset="518785" lat="48.2196935" lon="16.4046215">
    <tag k="addr:housenumber" v="12"/>
  </node>
  <node id="346878417" version="2" timestamp="2009-03-13T15:47:32Z" uid="99800" user="wolfbert" changeset="799838" lat="48.2197725" lon="16.4045318">
    <tag k="addr:housenumber" v="12"/>
  </node>
  <node id="346878417" version="3" timestamp="2009-03-15T19:49:31Z" uid="58091" user="Andreas M" changeset="815744" lat="48.2197725" lon="16.4045318">
    <tag k="addr:city" v="Wien"/>
    <tag k="addr:country" v="AT"/>
    <tag k="addr:housenumber" v="12"/>
    <tag k="addr:postcode" v="1020"/>
    <tag k="addr:street" v="Feuerbachstraße"/>
  </node>
  <node id="346878417" version="4" timestamp="2009-06-01T11:47:09Z" uid="58091" user="Andreas M" changeset="1378863" lat="48.2197704" lon="16.404445">
    <tag k="addr:city" v="Wien"/>
    <tag k="addr:country" v="AT"/>
    <tag k="addr:housenumber" v="12"/>
    <tag k="addr:postcode" v="1020"/>
    <tag k="addr:street" v="Feuerbachstraße"/>
  </node>
  <node id="346878417" version="5" timestamp="2012-03-23T10:54:25Z" uid="99800" user="wolfbert" changeset="11072525" lat="48.2197704" lon="16.404445"/>
  <node id="346878421" version="1" timestamp="2009-02-17T17:23:54Z" uid="58091" user="Andreas M" changeset="518785" lat="48.2203518" lon="16.4038009">
    <tag k="addr:housenumber" v="2"/>
  </node>
  <node id="346878421" version="2" timestamp="2009-02-18T17:04:54Z" uid="58091" user="Andreas M" changeset="544027" lat="48.220322" lon="16.4038456">
    <tag k="addr:housenumber" v="2"/>
  </node>
  <node id="346878421" version="3" timestamp="2009-03-13T15:47:32Z" uid="99800" user="wolfbert" changeset="799838" lat="48.220401" lon="16.4037559">
    <tag k="addr:housenumber" v="2"/>
  </node>
  <node id="346878421" version="4" timestamp="2009-03-15T19:49:29Z" uid="58091" user="Andreas M" changeset="815744" lat="48.220401" lon="16.4037559">
    <tag k="addr:city" v="Wien"/>
    <tag k="addr:country" v="AT"/>
    <tag k="addr:housenumber" v="2"/>
    <tag k="addr:postcode" v="1020"/>
    <tag k="addr:street" v="Feuerbachstraße"/>
  </node>
  <node id="346878421" version="5" timestamp="2009-06-01T11:47:09Z" uid="58091" user="Andreas M" changeset="1378863" lat="48.2204374" lon="16.4036241">
    <tag k="addr:city" v="Wien"/>
    <tag k="addr:country" v="AT"/>
    <tag k="addr:housenumber" v="2"/>
    <tag k="addr:postcode" v="1020"/>
    <tag k="addr:street" v="Feuerbachstraße"/>
  </node>
  <node id="346878421" version="6" timestamp="2011-03-09T08:44:30Z" uid="99800" user="wolfbert" changeset="7501703" lat="48.2204285" lon="16.4036174">
    <tag k="addr:city" v="Wien"/>
    <tag k="addr:country" v="AT"/>
    <tag k="addr:housenumber" v="2"/>
    <tag k="addr:postcode" v="1020"/>
    <tag k="addr:street" v="Feuerbachstraße"/>
  </node>
  <node id="346878421" version="7" timestamp="2012-03-23T10:54:25Z" uid="99800" user="wolfbert" changeset="11072525" lat="48.2204285" lon="16.4036174"/>
  <node id="346878423" version="1" timestamp="2009-02-17T17:23:54Z" uid="58091" user="Andreas M" changeset="518785" lat="48.2198354" lon="16.4048968">
    <tag k="addr:housenumber" v="5"/>
  </node>
  <node id="346878423" version="2" timestamp="2009-03-13T15:47:32Z" uid="99800" user="wolfbert" changeset="799838" lat="48.2199101" lon="16.4047718">
    <tag k="addr:housenumber" v="5"/>
  </node>
  <node id="346878423" version="3" timestamp="2009-03-15T19:49:30Z" uid="58091" user="Andreas M" changeset="815744" lat="48.2199101" lon="16.4047718">
    <tag k="addr:city" v="Wien"/>
    <tag k="addr:country" v="AT"/>
    <tag k="addr:housenumber" v="5"/>
    <tag k="addr:postcode" v="1020"/>
    <tag k="addr:street" v="Feuerbachstraße"/>
  </node>
  <node id="346878423" version="4" timestamp="2011-03-09T22:11:49Z" uid="99800" user="wolfbert" changeset="7509333" lat="48.2199153" lon="16.4047981">
    <tag k="addr:city" v="Wien"/>
    <tag k="addr:country" v="AT"/>
    <tag k="addr:housenumber" v="5"/>
    <tag k="addr:postcode" v="1020"/>
    <tag k="addr:street" v="Feuerbachstraße"/>
  </node>
  <node id="346878423" version="5" timestamp="2011-03-11T21:45:27Z" uid="99800" user="wolfbert" changeset="7527892" lat="48.2199126" lon="16.4048103">
    <tag k="addr:city" v="Wien"/>
    <tag k="addr:country" v="AT"/>
    <tag k="addr:housenumber" v="5"/>
    <tag k="addr:postcode" v="1020"/>
    <tag k="addr:street" v="Feuerbachstraße"/>
  </node>
  <node id="346878423" version="6" timestamp="2012-02-28T17:20:04Z" uid="99800" user="wolfbert" changeset="10820736" lat="48.2199126" lon="16.4048103"/>
  <node id="346878427" version="1" timestamp="2009-02-17T17:23:55Z" uid="58091" user="Andreas M" changeset="518785" lat="48.2204159" lon="16.4041954">
    <tag k="addr:housenumber" v="1"/>
  </node>
  <node id="346878427" version="2" timestamp="2009-02-19T16:18:45Z" uid="58091" user="Andreas M" changeset="554467" lat="48.2203514" lon="16.4042574">
    <tag k="addr:housenumber" v="1"/>
  </node>
  <node id="346878427" version="3" timestamp="2009-03-13T15:47:32Z" uid="99800" user="wolfbert" changeset="799838" lat="48.2204261" lon="16.4041324">
    <tag k="addr:housenumber" v="1"/>
  </node>
  <node id="346878427" version="4" timestamp="2009-03-15T19:49:32Z" uid="58091" user="Andreas M" changeset="815744" lat="48.2204261" lon="16.4041324">
    <tag k="addr:city" v="Wien"/>
    <tag k="addr:country" v="AT"/>
    <tag k="addr:housenumber" v="1"/>
    <tag k="addr:postcode" v="1020"/>
    <tag k="addr:street" v="Feuerbachstraße"/>
  </node>
  <node id="346878427" version="5" timestamp="2011-03-09T22:11:45Z" uid="99800" user="wolfbert" changeset="7509333" lat="48.2204313" lon="16.4041587">
    <tag k="addr:city" v="Wien"/>
    <tag k="addr:country" v="AT"/>
    <tag k="addr:housenumber" v="1"/>
    <tag k="addr:postcode" v="1020"/>
    <tag k="addr:street" v="Feuerbachstraße"/>
  </node>
  <node id="346878427" version="6" timestamp="2011-03-11T21:45:22Z" uid="99800" user="wolfbert" changeset="7527892" lat="48.2203322" lon="16.4043034">
    <tag k="addr:city" v="Wien"/>
    <tag k="addr:country" v="AT"/>
    <tag k="addr:housenumber" v="1"/>
    <tag k="addr:postcode" v="1020"/>
    <tag k="addr:street" v="Feuerbachstraße"/>
  </node>
  <node id="346878427" version="7" timestamp="2012-02-26T18:14:35Z" uid="99800" user="wolfbert" changeset="10801411" lat="48.2203322" lon="16.4043034"/>
  <node id="346878432" version="1" timestamp="2009-02-17T17:23:55Z" uid="58091" user="Andreas M" changeset="518785" lat="48.2223288" lon="16.403611">
    <tag k="addr:city" v="Wien"/>
    <tag k="addr:housenumber" v="158"/>
    <tag k="addr:postcode" v="1020"/>
    <tag k="addr:street" v="Vorgartenstraße"/>
  </node>
  <node id="346878432" version="2" timestamp="2009-02-17T19:00:38Z" uid="58091" user="Andreas M" changeset="518785" lat="48.2223356" lon="16.4036084">
    <tag k="addr:city" v="Wien"/>
    <tag k="addr:housenumber" v="158"/>
    <tag k="addr:postcode" v="1020"/>
    <tag k="addr:street" v="Vorgartenstraße"/>
  </node>
  <node id="346878432" version="3" timestamp="2009-03-06T20:10:04Z" uid="99800" user="wolfbert" changeset="748449" lat="48.2223927" lon="16.4034956">
    <tag k="addr:city" v="Wien"/>
    <tag k="addr:housenumber" v="158"/>
    <tag k="addr:postcode" v="1020"/>
    <tag k="addr:street" v="Vorgartenstraße"/>
  </node>
  <node id="346878432" version="4" timestamp="2009-03-13T15:19:20Z" uid="99800" user="wolfbert" changeset="799838" lat="48.2223808" lon="16.4035134">
    <tag k="addr:city" v="Wien"/>
    <tag k="addr:housenumber" v="158"/>
    <tag k="addr:postcode" v="1020"/>
    <tag k="addr:street" v="Vorgartenstraße"/>
  </node>
  <node id="346878432" version="5" timestamp="2009-03-15T19:36:11Z" uid="58091" user="Andreas M" changeset="815744" lat="48.2223808" lon="16.4035134">
    <tag k="addr:city" v="Wien"/>
    <tag k="addr:country" v="AT"/>
    <tag k="addr:housenumber" v="158"/>
    <tag k="addr:postcode" v="1020"/>
    <tag k="addr:street" v="Vorgartenstraße"/>
  </node>
  <node id="346878432" version="6" timestamp="2012-02-22T16:46:41Z" uid="99800" user="wolfbert" changeset="10760808" lat="48.2223808" lon="16.4035134">
    <tag k="addr:city" v="Wien"/>
    <tag k="addr:country" v="AT"/>
    <tag k="addr:housenumber" v="158"/>
    <tag k="addr:postcode" v="1020"/>
    <tag k="addr:street" v="Vorgartenstraße"/>
    <tag k="odbl" v="clean"/>
  </node>
  <node id="346878432" version="7" timestamp="2012-02-28T17:20:03Z" uid="99800" user="wolfbert" changeset="10820736" lat="48.2223808" lon="16.4035134"/>
  <node id="346878434" version="1" timestamp="2009-02-17T17:23:55Z" uid="58091" user="Andreas M" changeset="518785" lat="48.2219195" lon="16.4040962">
    <tag k="addr:city" v="Wien"/>
    <tag k="addr:housenumber" v="160"/>
    <tag k="addr:postcode" v="1020"/>
    <tag k="addr:street" v="Vorgartenstraße"/>
  </node>
  <node id="346878434" version="2" timestamp="2009-02-17T19:00:37Z" uid="58091" user="Andreas M" changeset="518785" lat="48.2219212" lon="16.404132">
    <tag k="addr:city" v="Wien"/>
    <tag k="addr:housenumber" v="160"/>
    <tag k="addr:postcode" v="1020"/>
    <tag k="addr:street" v="Vorgartenstraße"/>
  </node>
  <node id="346878434" version="3" timestamp="2009-03-06T20:10:04Z" uid="99800" user="wolfbert" changeset="748449" lat="48.2219783" lon="16.4040192">
    <tag k="addr:city" v="Wien"/>
    <tag k="addr:housenumber" v="160"/>
    <tag k="addr:postcode" v="1020"/>
    <tag k="addr:street" v="Vorgartenstraße"/>
  </node>
  <node id="346878434" version="4" timestamp="2009-03-07T15:28:54Z" uid="99800" user="wolfbert" changeset="750534" lat="48.2219835" lon="16.4040282">
    <tag k="addr:city" v="Wien"/>
    <tag k="addr:housenumber" v="160"/>
    <tag k="addr:postcode" v="1020"/>
    <tag k="addr:street" v="Vorgartenstraße"/>
  </node>
  <node id="346878434" version="5" timestamp="2009-03-13T21:12:37Z" uid="99800" user="wolfbert" changeset="803311" lat="48.2219743" lon="16.4040005">
    <tag k="addr:city" v="Wien"/>
    <tag k="addr:housenumber" v="160"/>
    <tag k="addr:postcode" v="1020"/>
    <tag k="addr:street" v="Vorgartenstraße"/>
  </node>
  <node id="346878434" version="6" timestamp="2009-03-15T19:36:11Z" uid="58091" user="Andreas M" changeset="815744" lat="48.2219743" lon="16.4040005">
    <tag k="addr:city" v="Wien"/>
    <tag k="addr:country" v="AT"/>
    <tag k="addr:housenumber" v="160"/>
    <tag k="addr:postcode" v="1020"/>
    <tag k="addr:street" v="Vorgartenstraße"/>
  </node>
  <node id="346878434" version="7" timestamp="2011-02-25T14:26:59Z" uid="99800" user="wolfbert" changeset="7390913" lat="48.221962" lon="16.4040219">
    <tag k="addr:city" v="Wien"/>
    <tag k="addr:country" v="AT"/>
    <tag k="addr:housenumber" v="160"/>
    <tag k="addr:postcode" v="1020"/>
    <tag k="addr:street" v="Vorgartenstraße"/>
  </node>
  <node id="346878434" version="8" timestamp="2012-02-22T16:46:42Z" uid="99800" user="wolfbert" changeset="10760808" lat="48.221962" lon="16.4040219">
    <tag k="addr:city" v="Wien"/>
    <tag k="addr:country" v="AT"/>
    <tag k="addr:housenumber" v="160"/>
    <tag k="addr:postcode" v="1020"/>
    <tag k="addr:street" v="Vorgartenstraße"/>
    <tag k="odbl" v="clean"/>
  </node>
  <node id="346878434" version="9" timestamp="2012-02-28T17:20:03Z" uid="99800" user="wolfbert" changeset="10820736" lat="48.221962" lon="16.4040219"/>
  <node id="346878436" version="1" timestamp="2009-02-17T17:23:55Z" uid="58091" user="Andreas M" changeset="518785" lat="48.221452" lon="16.4047484">
    <tag k="addr:city" v="Wien"/>
    <tag k="addr:housenumber" v="162"/>
    <tag k="addr:postcode" v="1020"/>
    <tag k="addr:street" v="Vorgartenstraße"/>
  </node>
  <node id="346878436" version="2" timestamp="2009-02-17T19:00:36Z" uid="58091" user="Andreas M" changeset="518785" lat="48.2214673" lon="16.4047484">
    <tag k="addr:city" v="Wien"/>
    <tag k="addr:housenumber" v="162"/>
    <tag k="addr:postcode" v="1020"/>
    <tag k="addr:street" v="Vorgartenstraße"/>
  </node>
  <node id="346878436" version="3" timestamp="2009-03-07T15:28:54Z" uid="99800" user="wolfbert" changeset="750534" lat="48.2215166" lon="16.4046359">
    <tag k="addr:city" v="Wien"/>
    <tag k="addr:housenumber" v="162"/>
    <tag k="addr:postcode" v="1020"/>
    <tag k="addr:street" v="Vorgartenstraße"/>
  </node>
  <node id="346878436" version="4" timestamp="2009-03-13T21:12:37Z" uid="99800" user="wolfbert" changeset="803311" lat="48.2215012" lon="16.4046174">
    <tag k="addr:city" v="Wien"/>
    <tag k="addr:housenumber" v="162"/>
    <tag k="addr:postcode" v="1020"/>
    <tag k="addr:street" v="Vorgartenstraße"/>
  </node>
  <node id="346878436" version="5" timestamp="2009-03-15T19:36:11Z" uid="58091" user="Andreas M" changeset="815744" lat="48.2215012" lon="16.4046174">
    <tag k="addr:city" v="Wien"/>
    <tag k="addr:country" v="AT"/>
    <tag k="addr:housenumber" v="162"/>
    <tag k="addr:postcode" v="1020"/>
    <tag k="addr:street" v="Vorgartenstraße"/>
  </node>
  <node id="346878436" version="6" timestamp="2012-02-22T16:46:42Z" uid="99800" user="wolfbert" changeset="10760808" lat="48.2215012" lon="16.4046174">
    <tag k="addr:city" v="Wien"/>
    <tag k="addr:country" v="AT"/>
    <tag k="addr:housenumber" v="162"/>
    <tag k="addr:postcode" v="1020"/>
    <tag k="addr:street" v="Vorgartenstraße"/>
    <tag k="odbl" v="clean"/>
  </node>
  <node id="346878436" version="7" timestamp="2012-02-28T17:20:04Z" uid="99800" user="wolfbert" changeset="10820736" lat="48.2215012" lon="16.4046174"/>
  <node id="346878437" version="1" timestamp="2009-02-17T17:23:55Z" uid="58091" user="Andreas M" changeset="518785" lat="48.2210448" lon="16.4052848">
    <tag k="addr:city" v="Wien"/>
    <tag k="addr:housenumber" v="164"/>
    <tag k="addr:postcode" v="1020"/>
    <tag k="addr:street" v="Vorgartenstraße"/>
  </node>
  <node id="346878437" version="2" timestamp="2009-02-17T19:00:39Z" uid="58091" user="Andreas M" changeset="518785" lat="48.2210516" lon="16.4052797">
    <tag k="addr:city" v="Wien"/>
    <tag k="addr:housenumber" v="164"/>
    <tag k="addr:postcode" v="1020"/>
    <tag k="addr:street" v="Vorgartenstraße"/>
  </node>
  <node id="346878437" version="3" timestamp="2009-03-06T20:10:02Z" uid="99800" user="wolfbert" changeset="748449" lat="48.2211087" lon="16.4051669">
    <tag k="addr:city" v="Wien"/>
    <tag k="addr:housenumber" v="164"/>
    <tag k="addr:postcode" v="1020"/>
    <tag k="addr:street" v="Vorgartenstraße"/>
  </node>
  <node id="346878437" version="4" timestamp="2009-03-13T21:12:39Z" uid="99800" user="wolfbert" changeset="803311" lat="48.2210995" lon="16.405153">
    <tag k="addr:city" v="Wien"/>
    <tag k="addr:housenumber" v="164"/>
    <tag k="addr:postcode" v="1020"/>
    <tag k="addr:street" v="Vorgartenstraße"/>
  </node>
  <node id="346878437" version="5" timestamp="2009-03-15T19:36:11Z" uid="58091" user="Andreas M" changeset="815744" lat="48.2210995" lon="16.405153">
    <tag k="addr:city" v="Wien"/>
    <tag k="addr:country" v="AT"/>
    <tag k="addr:housenumber" v="164"/>
    <tag k="addr:postcode" v="1020"/>
    <tag k="addr:street" v="Vorgartenstraße"/>
  </node>
  <node id="346878437" version="6" timestamp="2012-02-22T16:46:42Z" uid="99800" user="wolfbert" changeset="10760808" lat="48.2210995" lon="16.405153">
    <tag k="addr:city" v="Wien"/>
    <tag k="addr:country" v="AT"/>
    <tag k="addr:housenumber" v="164"/>
    <tag k="addr:postcode" v="1020"/>
    <tag k="addr:street" v="Vorgartenstraße"/>
    <tag k="odbl" v="clean"/>
  </node>
  <node id="346878437" version="7" timestamp="2012-02-28T17:20:04Z" uid="99800" user="wolfbert" changeset="10820736" lat="48.2210995" lon="16.405153"/>
  <node id="346878440" version="1" timestamp="2009-02-17T17:23:56Z" uid="58091" user="Andreas M" changeset="518785" lat="48.220951" lon="16.4045593">
    <tag k="addr:city" v="Wien"/>
    <tag k="addr:housenumber" v="7"/>
    <tag k="addr:postcode" v="1020"/>
    <tag k="addr:street" v="Jungstraße"/>
  </node>
  <node id="346878440" version="2" timestamp="2009-02-17T19:00:38Z" uid="58091" user="Andreas M" changeset="518785" lat="48.2209323" lon="16.4045823">
    <tag k="addr:city" v="Wien"/>
    <tag k="addr:housenumber" v="7"/>
    <tag k="addr:postcode" v="1020"/>
    <tag k="addr:street" v="Jungstraße"/>
  </node>
  <node id="346878440" version="3" timestamp="2009-03-06T20:10:05Z" uid="99800" user="wolfbert" changeset="748449" lat="48.2209894" lon="16.4044695">
    <tag k="addr:city" v="Wien"/>
    <tag k="addr:housenumber" v="7"/>
    <tag k="addr:postcode" v="1020"/>
    <tag k="addr:street" v="Jungstraße"/>
  </node>
  <node id="346878440" version="4" timestamp="2009-03-13T21:12:39Z" uid="99800" user="wolfbert" changeset="803311" lat="48.2209802" lon="16.4044556">
    <tag k="addr:city" v="Wien"/>
    <tag k="addr:housenumber" v="7"/>
    <tag k="addr:postcode" v="1020"/>
    <tag k="addr:street" v="Jungstraße"/>
  </node>
  <node id="346878440" version="5" timestamp="2009-03-15T19:36:13Z" uid="58091" user="Andreas M" changeset="815744" lat="48.2209802" lon="16.4044556">
    <tag k="addr:city" v="Wien"/>
    <tag k="addr:country" v="AT"/>
    <tag k="addr:housenumber" v="7"/>
    <tag k="addr:postcode" v="1020"/>
    <tag k="addr:street" v="Jungstraße"/>
  </node>
  <node id="346878440" version="6" timestamp="2012-02-22T16:46:42Z" uid="99800" user="wolfbert" changeset="10760808" lat="48.2209802" lon="16.4044556">
    <tag k="addr:city" v="Wien"/>
    <tag k="addr:country" v="AT"/>
    <tag k="addr:housenumber" v="7"/>
    <tag k="addr:postcode" v="1020"/>
    <tag k="addr:street" v="Jungstraße"/>
    <tag k="odbl" v="clean"/>
  </node>
  <node id="346878440" version="7" timestamp="2012-02-28T17:20:04Z" uid="99800" user="wolfbert" changeset="10820736" lat="48.2209802" lon="16.4044556"/>
  <node id="346878443" version="1" timestamp="2009-02-17T17:23:56Z" uid="58091" user="Andreas M" changeset="518785" lat="48.2209803" lon="16.4047792">
    <tag k="addr:city" v="Wien"/>
    <tag k="addr:housenumber" v="9"/>
    <tag k="addr:postcode" v="1020"/>
    <tag k="addr:street" v="Jungstraße"/>
  </node>
  <node id="346878443" version="2" timestamp="2009-02-17T19:00:38Z" uid="58091" user="Andreas M" changeset="518785" lat="48.2209695" lon="16.4047999">
    <tag k="addr:city" v="Wien"/>
    <tag k="addr:housenumber" v="9"/>
    <tag k="addr:postcode" v="1020"/>
    <tag k="addr:street" v="Jungstraße"/>
  </node>
  <node id="346878443" version="3" timestamp="2009-03-06T20:10:04Z" uid="99800" user="wolfbert" changeset="748449" lat="48.2210266" lon="16.4046871">
    <tag k="addr:city" v="Wien"/>
    <tag k="addr:housenumber" v="9"/>
    <tag k="addr:postcode" v="1020"/>
    <tag k="addr:street" v="Jungstraße"/>
  </node>
  <node id="346878443" version="4" timestamp="2009-03-13T21:12:40Z" uid="99800" user="wolfbert" changeset="803311" lat="48.2210174" lon="16.4046732">
    <tag k="addr:city" v="Wien"/>
    <tag k="addr:housenumber" v="9"/>
    <tag k="addr:postcode" v="1020"/>
    <tag k="addr:street" v="Jungstraße"/>
  </node>
  <node id="346878443" version="5" timestamp="2009-03-15T19:36:12Z" uid="58091" user="Andreas M" changeset="815744" lat="48.2210174" lon="16.4046732">
    <tag k="addr:city" v="Wien"/>
    <tag k="addr:country" v="AT"/>
    <tag k="addr:housenumber" v="9"/>
    <tag k="addr:postcode" v="1020"/>
    <tag k="addr:street" v="Jungstraße"/>
  </node>
  <node id="346878443" version="6" timestamp="2012-02-22T16:46:43Z" uid="99800" user="wolfbert" changeset="10760808" lat="48.2210174" lon="16.4046732">
    <tag k="addr:city" v="Wien"/>
    <tag k="addr:country" v="AT"/>
    <tag k="addr:housenumber" v="9"/>
    <tag k="addr:postcode" v="1020"/>
    <tag k="addr:street" v="Jungstraße"/>
    <tag k="odbl" v="clean"/>
  </node>
  <node id="346878443" version="7" timestamp="2012-02-28T17:20:05Z" uid="99800" user="wolfbert" changeset="10820736" lat="48.2210174" lon="16.4046732"/>
  <node id="346878444" version="1" timestamp="2009-02-17T17:23:56Z" uid="58091" user="Andreas M" changeset="518785" lat="48.2210125" lon="16.4050386">
    <tag k="addr:city" v="Wien"/>
    <tag k="addr:housenumber" v="11"/>
    <tag k="addr:postcode" v="1020"/>
    <tag k="addr:street" v="Jungstraße"/>
  </node>
  <node id="346878444" version="2" timestamp="2009-02-17T19:00:40Z" uid="58091" user="Andreas M" changeset="518785" lat="48.2210105" lon="16.4050394">
    <tag k="addr:city" v="Wien"/>
    <tag k="addr:housenumber" v="11"/>
    <tag k="addr:postcode" v="1020"/>
    <tag k="addr:street" v="Jungstraße"/>
  </node>
  <node id="346878444" version="3" timestamp="2009-03-06T20:10:02Z" uid="99800" user="wolfbert" changeset="748449" lat="48.2210676" lon="16.4049266">
    <tag k="addr:city" v="Wien"/>
    <tag k="addr:housenumber" v="11"/>
    <tag k="addr:postcode" v="1020"/>
    <tag k="addr:street" v="Jungstraße"/>
  </node>
  <node id="346878444" version="4" timestamp="2009-03-13T21:12:40Z" uid="99800" user="wolfbert" changeset="803311" lat="48.2210584" lon="16.4049127">
    <tag k="addr:city" v="Wien"/>
    <tag k="addr:housenumber" v="11"/>
    <tag k="addr:postcode" v="1020"/>
    <tag k="addr:street" v="Jungstraße"/>
  </node>
  <node id="346878444" version="5" timestamp="2009-03-15T19:36:12Z" uid="58091" user="Andreas M" changeset="815744" lat="48.2210584" lon="16.4049127">
    <tag k="addr:city" v="Wien"/>
    <tag k="addr:country" v="AT"/>
    <tag k="addr:housenumber" v="11"/>
    <tag k="addr:postcode" v="1020"/>
    <tag k="addr:street" v="Jungstraße"/>
  </node>
  <node id="346878444" version="6" timestamp="2012-02-22T16:46:41Z" uid="99800" user="wolfbert" changeset="10760808" lat="48.2210584" lon="16.4049127">
    <tag k="addr:city" v="Wien"/>
    <tag k="addr:country" v="AT"/>
    <tag k="addr:housenumber" v="11"/>
    <tag k="addr:postcode" v="1020"/>
    <tag k="addr:street" v="Jungstraße"/>
    <tag k="odbl" v="clean"/>
  </node>
  <node id="346878444" version="7" timestamp="2012-02-28T17:20:03Z" uid="99800" user="wolfbert" changeset="10820736" lat="48.2210584" lon="16.4049127"/>
  <node id="346878447" version="1" timestamp="2009-02-17T17:23:56Z" uid="58091" user="Andreas M" changeset="518785" lat="48.220702" lon="16.4037766">
    <tag k="addr:city" v="Wien"/>
    <tag k="addr:housenumber" v="1"/>
    <tag k="addr:postcode" v="1020"/>
    <tag k="addr:street" v="Jungstraße"/>
  </node>
  <node id="346878447" version="2" timestamp="2009-02-17T17:39:04Z" uid="58091" user="Andreas M" changeset="518785" lat="48.2207916" lon="16.4036138">
    <tag k="addr:city" v="Wien"/>
    <tag k="addr:housenumber" v="1"/>
    <tag k="addr:postcode" v="1020"/>
    <tag k="addr:street" v="Jungstraße"/>
  </node>
  <node id="346878447" version="3" timestamp="2009-03-13T15:47:12Z" uid="99800" user="wolfbert" changeset="799838" lat="48.2208343" lon="16.4035465">
    <tag k="addr:city" v="Wien"/>
    <tag k="addr:housenumber" v="1"/>
    <tag k="addr:postcode" v="1020"/>
    <tag k="addr:street" v="Jungstraße"/>
  </node>
  <node id="346878447" version="4" timestamp="2009-03-13T21:12:40Z" uid="99800" user="wolfbert" changeset="803311" lat="48.2208343" lon="16.4035465">
    <tag k="addr:city" v="Wien"/>
    <tag k="addr:housenumber" v="1"/>
    <tag k="addr:postcode" v="1020"/>
    <tag k="addr:street" v="Jungstraße"/>
  </node>
  <node id="346878450" version="1" timestamp="2009-02-17T17:23:56Z" uid="58091" user="Andreas M" changeset="518785" lat="48.2192601" lon="16.4048982">
    <tag k="addr:city" v="Wien"/>
    <tag k="addr:housenumber" v="1"/>
    <tag k="addr:postcode" v="1020"/>
    <tag k="addr:street" v="Ilgplatz"/>
  </node>
  <node id="346878450" version="2" timestamp="2009-02-17T17:52:41Z" uid="58091" user="Andreas M" changeset="518785" lat="48.2192306" lon="16.4048834">
    <tag k="addr:city" v="Wien"/>
    <tag k="addr:housenumber" v="1"/>
    <tag k="addr:postcode" v="1020"/>
    <tag k="addr:street" v="Ilgplatz"/>
  </node>
  <node id="346878450" version="3" timestamp="2009-02-17T18:10:08Z" uid="58091" user="Andreas M" changeset="518785" lat="48.21922" lon="16.4048516">
    <tag k="addr:city" v="Wien"/>
    <tag k="addr:housenumber" v="1"/>
    <tag k="addr:postcode" v="1020"/>
    <tag k="addr:street" v="Ilgplatz"/>
  </node>
  <node id="346878450" version="4" timestamp="2009-03-13T20:23:32Z" uid="99800" user="wolfbert" changeset="803311" lat="48.2192865" lon="16.4047709">
    <tag k="addr:city" v="Wien"/>
    <tag k="addr:housenumber" v="1"/>
    <tag k="addr:postcode" v="1020"/>
    <tag k="addr:street" v="Ilgplatz"/>
  </node>
  <node id="346878450" version="5" timestamp="2009-03-15T19:49:37Z" uid="58091" user="Andreas M" changeset="815744" lat="48.2192865" lon="16.4047709">
    <tag k="addr:city" v="Wien"/>
    <tag k="addr:country" v="AT"/>
    <tag k="addr:housenumber" v="1"/>
    <tag k="addr:postcode" v="1020"/>
    <tag k="addr:street" v="Ilgplatz"/>
  </node>
  <node id="346878450" version="6" timestamp="2009-06-01T08:01:34Z" uid="58091" user="Andreas M" changeset="1376724" lat="48.219253" lon="16.4047513">
    <tag k="addr:city" v="Wien"/>
    <tag k="addr:country" v="AT"/>
    <tag k="addr:housenumber" v="1"/>
    <tag k="addr:postcode" v="1020"/>
    <tag k="addr:street" v="Ilgplatz"/>
  </node>
  <node id="346878450" version="7" timestamp="2011-03-09T08:44:21Z" uid="99800" user="wolfbert" changeset="7501703" lat="48.2192432" lon="16.4047945">
    <tag k="addr:city" v="Wien"/>
    <tag k="addr:country" v="AT"/>
    <tag k="addr:housenumber" v="1"/>
    <tag k="addr:postcode" v="1020"/>
    <tag k="addr:street" v="Ilgplatz"/>
  </node>
  <node id="346878450" version="8" timestamp="2012-03-25T17:13:28Z" uid="99800" user="wolfbert" changeset="11097326" lat="48.2192432" lon="16.4047945"/>
  <node id="346878451" version="1" timestamp="2009-02-17T17:23:56Z" uid="58091" user="Andreas M" changeset="518785" lat="48.2193503" lon="16.4047529">
    <tag k="addr:city" v="Wien"/>
    <tag k="addr:housenumber" v="2"/>
    <tag k="addr:postcode" v="1020"/>
    <tag k="addr:street" v="Ilgplatz"/>
  </node>
  <node id="346878451" version="2" timestamp="2009-02-17T17:52:41Z" uid="58091" user="Andreas M" changeset="518785" lat="48.219311" lon="16.4047308">
    <tag k="addr:city" v="Wien"/>
    <tag k="addr:housenumber" v="2"/>
    <tag k="addr:postcode" v="1020"/>
    <tag k="addr:street" v="Ilgplatz"/>
  </node>
  <node id="346878451" version="3" timestamp="2009-03-13T20:23:32Z" uid="99800" user="wolfbert" changeset="803311" lat="48.2193775" lon="16.4046501">
    <tag k="addr:city" v="Wien"/>
    <tag k="addr:housenumber" v="2"/>
    <tag k="addr:postcode" v="1020"/>
    <tag k="addr:street" v="Ilgplatz"/>
  </node>
  <node id="346878451" version="4" timestamp="2009-03-15T19:49:38Z" uid="58091" user="Andreas M" changeset="815744" lat="48.2193775" lon="16.4046501">
    <tag k="addr:city" v="Wien"/>
    <tag k="addr:country" v="AT"/>
    <tag k="addr:housenumber" v="2"/>
    <tag k="addr:postcode" v="1020"/>
    <tag k="addr:street" v="Ilgplatz"/>
  </node>
  <node id="346878451" version="5" timestamp="2009-06-01T08:01:35Z" uid="58091" user="Andreas M" changeset="1376724" lat="48.2193403" lon="16.4046194">
    <tag k="addr:city" v="Wien"/>
    <tag k="addr:country" v="AT"/>
    <tag k="addr:housenumber" v="2"/>
    <tag k="addr:postcode" v="1020"/>
    <tag k="addr:street" v="Ilgplatz"/>
  </node>
  <node id="346878451" version="6" timestamp="2011-03-09T08:44:38Z" uid="99800" user="wolfbert" changeset="7501703" lat="48.2193469" lon="16.4046443">
    <tag k="addr:city" v="Wien"/>
    <tag k="addr:country" v="AT"/>
    <tag k="addr:housenumber" v="2"/>
    <tag k="addr:postcode" v="1020"/>
    <tag k="addr:street" v="Ilgplatz"/>
  </node>
  <node id="346878451" version="7" timestamp="2012-03-25T17:13:29Z" uid="99800" user="wolfbert" changeset="11097326" lat="48.2193469" lon="16.4046443"/>
  <node id="346878454" version="1" timestamp="2009-02-17T17:23:57Z" uid="58091" user="Andreas M" changeset="518785" lat="48.2195867" lon="16.4047006">
    <tag k="addr:city" v="Wien"/>
    <tag k="addr:housenumber" v="3"/>
    <tag k="addr:postcode" v="1020"/>
    <tag k="addr:street" v="Ilgplatz"/>
  </node>
  <node id="346878454" version="2" timestamp="2009-03-13T15:47:32Z" uid="99800" user="wolfbert" changeset="799838" lat="48.2196657" lon="16.4046109">
    <tag k="addr:city" v="Wien"/>
    <tag k="addr:housenumber" v="3"/>
    <tag k="addr:postcode" v="1020"/>
    <tag k="addr:street" v="Ilgplatz"/>
  </node>
  <node id="346878454" version="3" timestamp="2009-03-15T19:49:34Z" uid="58091" user="Andreas M" changeset="815744" lat="48.2196657" lon="16.4046109">
    <tag k="addr:city" v="Wien"/>
    <tag k="addr:country" v="AT"/>
    <tag k="addr:housenumber" v="3"/>
    <tag k="addr:postcode" v="1020"/>
    <tag k="addr:street" v="Ilgplatz"/>
  </node>
  <node id="346878454" version="4" timestamp="2009-06-01T11:47:09Z" uid="58091" user="Andreas M" changeset="1378863" lat="48.2196529" lon="16.4045627">
    <tag k="addr:city" v="Wien"/>
    <tag k="addr:country" v="AT"/>
    <tag k="addr:housenumber" v="3"/>
    <tag k="addr:postcode" v="1020"/>
    <tag k="addr:street" v="Ilgplatz"/>
  </node>
  <node id="346878454" version="5" timestamp="2011-03-11T21:45:20Z" uid="99800" user="wolfbert" changeset="7527892" lat="48.2196502" lon="16.4045892">
    <tag k="addr:city" v="Wien"/>
    <tag k="addr:country" v="AT"/>
    <tag k="addr:housenumber" v="3"/>
    <tag k="addr:postcode" v="1020"/>
    <tag k="addr:street" v="Ilgplatz"/>
  </node>
  <node id="346878454" version="6" timestamp="2012-03-23T10:54:26Z" uid="99800" user="wolfbert" changeset="11072525" lat="48.2196502" lon="16.4045892"/>
  <node id="346878457" version="1" timestamp="2009-02-17T17:23:57Z" uid="58091" user="Andreas M" changeset="518785" lat="48.2197235" lon="16.4049658">
    <tag k="addr:city" v="Wien"/>
    <tag k="addr:housenumber" v="4"/>
    <tag k="addr:postcode" v="1020"/>
    <tag k="addr:street" v="Ilgplatz"/>
  </node>
  <node id="346878457" version="2" timestamp="2009-02-17T17:52:42Z" uid="58091" user="Andreas M" changeset="518785" lat="48.2197432" lon="16.4049769">
    <tag k="addr:city" v="Wien"/>
    <tag k="addr:housenumber" v="4"/>
    <tag k="addr:postcode" v="1020"/>
    <tag k="addr:street" v="Ilgplatz"/>
  </node>
  <node id="346878457" version="3" timestamp="2009-02-17T18:10:08Z" uid="58091" user="Andreas M" changeset="518785" lat="48.2197467" lon="16.405014">
    <tag k="addr:city" v="Wien"/>
    <tag k="addr:housenumber" v="4"/>
    <tag k="addr:postcode" v="1020"/>
    <tag k="addr:street" v="Ilgplatz"/>
  </node>
  <node id="346878457" version="4" timestamp="2009-03-13T15:47:33Z" uid="99800" user="wolfbert" changeset="799838" lat="48.2198214" lon="16.404889">
    <tag k="addr:city" v="Wien"/>
    <tag k="addr:housenumber" v="4"/>
    <tag k="addr:postcode" v="1020"/>
    <tag k="addr:street" v="Ilgplatz"/>
  </node>
  <node id="346878457" version="5" timestamp="2009-03-15T19:49:38Z" uid="58091" user="Andreas M" changeset="815744" lat="48.2198214" lon="16.404889">
    <tag k="addr:city" v="Wien"/>
    <tag k="addr:country" v="AT"/>
    <tag k="addr:housenumber" v="4"/>
    <tag k="addr:postcode" v="1020"/>
    <tag k="addr:street" v="Ilgplatz"/>
  </node>
  <node id="346878457" version="6" timestamp="2011-03-09T22:11:49Z" uid="99800" user="wolfbert" changeset="7509333" lat="48.2198288" lon="16.4049089">
    <tag k="addr:city" v="Wien"/>
    <tag k="addr:country" v="AT"/>
    <tag k="addr:housenumber" v="4"/>
    <tag k="addr:postcode" v="1020"/>
    <tag k="addr:street" v="Ilgplatz"/>
  </node>
  <node id="346878457" version="7" timestamp="2011-03-11T21:45:26Z" uid="99800" user="wolfbert" changeset="7527892" lat="48.2198152" lon="16.4049721">
    <tag k="addr:city" v="Wien"/>
    <tag k="addr:country" v="AT"/>
    <tag k="addr:housenumber" v="4"/>
    <tag k="addr:postcode" v="1020"/>
    <tag k="addr:street" v="Ilgplatz"/>
  </node>
  <node id="346878457" version="8" timestamp="2012-02-28T17:20:04Z" uid="99800" user="wolfbert" changeset="10820736" lat="48.2198152" lon="16.4049721"/>
  <node id="346878461" version="1" timestamp="2009-02-17T17:23:57Z" uid="58091" user="Andreas M" changeset="518785" lat="48.2197285" lon="16.4051227">
    <tag k="addr:city" v="Wien"/>
    <tag k="addr:housenumber" v="5"/>
    <tag k="addr:postcode" v="1020"/>
    <tag k="addr:street" v="Ilgplatz"/>
  </node>
  <node id="346878461" version="2" timestamp="2009-02-17T17:52:42Z" uid="58091" user="Andreas M" changeset="518785" lat="48.2197408" lon="16.4051337">
    <tag k="addr:city" v="Wien"/>
    <tag k="addr:housenumber" v="5"/>
    <tag k="addr:postcode" v="1020"/>
    <tag k="addr:street" v="Ilgplatz"/>
  </node>
  <node id="346878461" version="3" timestamp="2009-02-17T18:10:08Z" uid="58091" user="Andreas M" changeset="518785" lat="48.2197266" lon="16.4052026">
    <tag k="addr:city" v="Wien"/>
    <tag k="addr:housenumber" v="5"/>
    <tag k="addr:postcode" v="1020"/>
    <tag k="addr:street" v="Ilgplatz"/>
  </node>
  <node id="346878461" version="4" timestamp="2009-03-13T15:47:34Z" uid="99800" user="wolfbert" changeset="799838" lat="48.2198013" lon="16.4050776">
    <tag k="addr:city" v="Wien"/>
    <tag k="addr:housenumber" v="5"/>
    <tag k="addr:postcode" v="1020"/>
    <tag k="addr:street" v="Ilgplatz"/>
  </node>
  <node id="346878461" version="5" timestamp="2009-03-15T19:49:38Z" uid="58091" user="Andreas M" changeset="815744" lat="48.2198013" lon="16.4050776">
    <tag k="addr:city" v="Wien"/>
    <tag k="addr:country" v="AT"/>
    <tag k="addr:housenumber" v="5"/>
    <tag k="addr:postcode" v="1020"/>
    <tag k="addr:street" v="Ilgplatz"/>
  </node>
  <node id="346878461" version="6" timestamp="2011-03-09T22:11:49Z" uid="99800" user="wolfbert" changeset="7509333" lat="48.2198108" lon="16.405091">
    <tag k="addr:city" v="Wien"/>
    <tag k="addr:country" v="AT"/>
    <tag k="addr:housenumber" v="5"/>
    <tag k="addr:postcode" v="1020"/>
    <tag k="addr:street" v="Ilgplatz"/>
  </node>
  <node id="346878461" version="7" timestamp="2011-03-11T21:45:20Z" uid="99800" user="wolfbert" changeset="7527892" lat="48.2198189" lon="16.4051155">
    <tag k="addr:city" v="Wien"/>
    <tag k="addr:country" v="AT"/>
    <tag k="addr:housenumber" v="5"/>
    <tag k="addr:postcode" v="1020"/>
    <tag k="addr:street" v="Ilgplatz"/>
  </node>
  <node id="346878461" version="8" timestamp="2011-05-25T20:51:11Z" uid="439883" user="romge" changeset="8248637" lat="48.2198189" lon="16.4051155"/>
  <node id="346878464" version="1" timestamp="2009-02-17T17:23:57Z" uid="58091" user="Andreas M" changeset="518785" lat="48.2195245" lon="16.4054252">
    <tag k="addr:city" v="Wien"/>
    <tag k="addr:housenumber" v="6"/>
    <tag k="addr:postcode" v="1020"/>
    <tag k="addr:street" v="Ilgplatz"/>
  </node>
  <node id="346878464" version="2" timestamp="2009-02-17T17:52:42Z" uid="58091" user="Andreas M" changeset="518785" lat="48.2194656" lon="16.4056241">
    <tag k="addr:city" v="Wien"/>
    <tag k="addr:housenumber" v="6"/>
    <tag k="addr:postcode" v="1020"/>
    <tag k="addr:street" v="Ilgplatz"/>
  </node>
  <node id="346878464" version="3" timestamp="2009-03-13T20:23:30Z" uid="99800" user="wolfbert" changeset="803311" lat="48.2195296" lon="16.4055721">
    <tag k="addr:city" v="Wien"/>
    <tag k="addr:housenumber" v="6"/>
    <tag k="addr:postcode" v="1020"/>
    <tag k="addr:street" v="Ilgplatz"/>
  </node>
  <node id="346878464" version="4" timestamp="2009-03-15T19:49:29Z" uid="58091" user="Andreas M" changeset="815744" lat="48.2195296" lon="16.4055721">
    <tag k="addr:city" v="Wien"/>
    <tag k="addr:country" v="AT"/>
    <tag k="addr:housenumber" v="6"/>
    <tag k="addr:postcode" v="1020"/>
    <tag k="addr:street" v="Ilgplatz"/>
  </node>
  <node id="346878464" version="5" timestamp="2011-03-09T22:11:48Z" uid="99800" user="wolfbert" changeset="7509333" lat="48.2195483" lon="16.4055589">
    <tag k="addr:city" v="Wien"/>
    <tag k="addr:country" v="AT"/>
    <tag k="addr:housenumber" v="6"/>
    <tag k="addr:postcode" v="1020"/>
    <tag k="addr:street" v="Ilgplatz"/>
  </node>
  <node id="346878464" version="6" timestamp="2012-03-17T18:38:02Z" uid="99800" user="wolfbert" changeset="11011075" lat="48.2195483" lon="16.4055589"/>
  <node id="346878471" version="1" timestamp="2009-02-17T17:23:57Z" uid="58091" user="Andreas M" changeset="518785" lat="48.2193976" lon="16.4054177">
    <tag k="addr:city" v="Wien"/>
    <tag k="addr:housenumber" v="7"/>
    <tag k="addr:postcode" v="1020"/>
    <tag k="addr:street" v="Ilgplatz"/>
  </node>
  <node id="346878471" version="2" timestamp="2009-02-17T17:52:42Z" uid="58091" user="Andreas M" changeset="518785" lat="48.2193264" lon="16.4055835">
    <tag k="addr:city" v="Wien"/>
    <tag k="addr:housenumber" v="7"/>
    <tag k="addr:postcode" v="1020"/>
    <tag k="addr:street" v="Ilgplatz"/>
  </node>
  <node id="346878471" version="3" timestamp="2009-03-13T20:23:29Z" uid="99800" user="wolfbert" changeset="803311" lat="48.2193904" lon="16.4055315">
    <tag k="addr:city" v="Wien"/>
    <tag k="addr:housenumber" v="7"/>
    <tag k="addr:postcode" v="1020"/>
    <tag k="addr:street" v="Ilgplatz"/>
  </node>
  <node id="346878471" version="4" timestamp="2009-03-15T19:49:28Z" uid="58091" user="Andreas M" changeset="815744" lat="48.2193904" lon="16.4055315">
    <tag k="addr:city" v="Wien"/>
    <tag k="addr:country" v="AT"/>
    <tag k="addr:housenumber" v="7"/>
    <tag k="addr:postcode" v="1020"/>
    <tag k="addr:street" v="Ilgplatz"/>
  </node>
  <node id="346878471" version="5" timestamp="2011-03-09T22:11:48Z" uid="99800" user="wolfbert" changeset="7509333" lat="48.2193969" lon="16.4054928">
    <tag k="addr:city" v="Wien"/>
    <tag k="addr:country" v="AT"/>
    <tag k="addr:housenumber" v="7"/>
    <tag k="addr:postcode" v="1020"/>
    <tag k="addr:street" v="Ilgplatz"/>
  </node>
  <node id="346878471" version="6" timestamp="2012-03-17T18:38:03Z" uid="99800" user="wolfbert" changeset="11011075" lat="48.2193969" lon="16.4054928"/>
  <node id="346878473" version="1" timestamp="2009-02-17T17:23:58Z" uid="58091" user="Andreas M" changeset="518785" lat="48.2192906" lon="16.4053131">
    <tag k="addr:city" v="Wien"/>
    <tag k="addr:housenumber" v="8"/>
    <tag k="addr:postcode" v="1020"/>
    <tag k="addr:street" v="Ilgplatz"/>
  </node>
  <node id="346878473" version="2" timestamp="2009-02-17T17:52:42Z" uid="58091" user="Andreas M" changeset="518785" lat="48.2192218" lon="16.4054494">
    <tag k="addr:city" v="Wien"/>
    <tag k="addr:housenumber" v="8"/>
    <tag k="addr:postcode" v="1020"/>
    <tag k="addr:street" v="Ilgplatz"/>
  </node>
  <node id="346878473" version="3" timestamp="2009-03-13T20:23:29Z" uid="99800" user="wolfbert" changeset="803311" lat="48.2192858" lon="16.4053974">
    <tag k="addr:city" v="Wien"/>
    <tag k="addr:housenumber" v="8"/>
    <tag k="addr:postcode" v="1020"/>
    <tag k="addr:street" v="Ilgplatz"/>
  </node>
  <node id="346878473" version="4" timestamp="2009-03-15T19:49:28Z" uid="58091" user="Andreas M" changeset="815744" lat="48.2192858" lon="16.4053974">
    <tag k="addr:city" v="Wien"/>
    <tag k="addr:country" v="AT"/>
    <tag k="addr:housenumber" v="8"/>
    <tag k="addr:postcode" v="1020"/>
    <tag k="addr:street" v="Ilgplatz"/>
  </node>
  <node id="346878473" version="5" timestamp="2011-03-09T22:11:47Z" uid="99800" user="wolfbert" changeset="7509333" lat="48.2192459" lon="16.4052399">
    <tag k="addr:city" v="Wien"/>
    <tag k="addr:country" v="AT"/>
    <tag k="addr:housenumber" v="8"/>
    <tag k="addr:postcode" v="1020"/>
    <tag k="addr:street" v="Ilgplatz"/>
  </node>
  <node id="346878473" version="6" timestamp="2012-03-17T18:38:03Z" uid="99800" user="wolfbert" changeset="11011075" lat="48.2192459" lon="16.4052399"/>
  <node id="346878478" version="1" timestamp="2009-02-17T17:23:58Z" uid="58091" user="Andreas M" changeset="518785" lat="48.2195663" lon="16.4038856">
    <tag k="addr:housenumber" v="13"/>
  </node>
  <node id="346878478" version="2" timestamp="2009-03-13T15:47:30Z" uid="99800" user="wolfbert" changeset="799838" lat="48.2196453" lon="16.4037959">
    <tag k="addr:housenumber" v="13"/>
  </node>
  <node id="346878478" version="3" timestamp="2009-03-21T13:17:45Z" uid="58091" user="Andreas M" changeset="840918" lat="48.2196453" lon="16.4037959">
    <tag k="addr:city" v="Wien"/>
    <tag k="addr:country" v="AT"/>
    <tag k="addr:housenumber" v="13"/>
    <tag k="addr:postcode" v="1020"/>
    <tag k="addr:street" v="Obermüllnerstraße"/>
  </node>
  <node id="346878478" version="4" timestamp="2012-03-23T10:54:25Z" uid="99800" user="wolfbert" changeset="11072525" lat="48.2196453" lon="16.4037959"/>
  <node id="346878484" version="1" timestamp="2009-02-17T17:23:58Z" uid="58091" user="Andreas M" changeset="518785" lat="48.2195668" lon="16.4044327">
    <tag k="addr:housenumber" v="17"/>
  </node>
  <node id="346878484" version="2" timestamp="2009-03-13T15:47:31Z" uid="99800" user="wolfbert" changeset="799838" lat="48.2196458" lon="16.404343">
    <tag k="addr:housenumber" v="17"/>
  </node>
  <node id="346878484" version="3" timestamp="2009-03-21T13:17:46Z" uid="58091" user="Andreas M" changeset="840918" lat="48.2196458" lon="16.404343">
    <tag k="addr:city" v="Wien"/>
    <tag k="addr:country" v="AT"/>
    <tag k="addr:housenumber" v="17"/>
    <tag k="addr:postcode" v="1020"/>
    <tag k="addr:street" v="Obermüllnerstraße"/>
  </node>
  <node id="346878484" version="4" timestamp="2012-03-23T10:54:25Z" uid="99800" user="wolfbert" changeset="11072525" lat="48.2196458" lon="16.404343"/>
  <node id="346878486" version="1" timestamp="2009-02-17T17:23:58Z" uid="58091" user="Andreas M" changeset="518785" lat="48.2195641" lon="16.4014578">
    <tag k="addr:housenumber" v="1"/>
  </node>
  <node id="346878486" version="2" timestamp="2009-02-17T17:39:04Z" uid="58091" user="Andreas M" changeset="518785" lat="48.2195876" lon="16.4014861">
    <tag k="addr:housenumber" v="1"/>
  </node>
  <node id="346878486" version="3" timestamp="2009-03-13T15:47:31Z" uid="99800" user="wolfbert" changeset="799838" lat="48.2196623" lon="16.40139">
    <tag k="addr:housenumber" v="1"/>
  </node>
  <node id="346878486" version="4" timestamp="2009-03-21T13:17:46Z" uid="58091" user="Andreas M" changeset="840918" lat="48.2196623" lon="16.40139">
    <tag k="addr:city" v="Wien"/>
    <tag k="addr:country" v="AT"/>
    <tag k="addr:housenumber" v="1"/>
    <tag k="addr:postcode" v="1020"/>
    <tag k="addr:street" v="Obermüllnerstraße"/>
  </node>
  <node id="346878486" version="5" timestamp="2012-03-24T07:48:26Z" uid="99800" user="wolfbert" changeset="11081408" lat="48.2196623" lon="16.40139"/>
  <node id="346878489" version="1" timestamp="2009-02-17T17:23:58Z" uid="58091" user="Andreas M" changeset="518785" lat="48.2195656" lon="16.403182">
    <tag k="addr:housenumber" v="11"/>
  </node>
  <node id="346878489" version="2" timestamp="2009-02-17T17:39:04Z" uid="58091" user="Andreas M" changeset="518785" lat="48.2195892" lon="16.4032103">
    <tag k="addr:housenumber" v="11"/>
  </node>
  <node id="346878489" version="3" timestamp="2009-03-13T15:47:31Z" uid="99800" user="wolfbert" changeset="799838" lat="48.2196639" lon="16.4031142">
    <tag k="addr:housenumber" v="11"/>
  </node>
  <node id="346878489" version="4" timestamp="2009-03-21T13:17:46Z" uid="58091" user="Andreas M" changeset="840918" lat="48.2196639" lon="16.4031142">
    <tag k="addr:city" v="Wien"/>
    <tag k="addr:country" v="AT"/>
    <tag k="addr:housenumber" v="11"/>
    <tag k="addr:postcode" v="1020"/>
    <tag k="addr:street" v="Obermüllnerstraße"/>
  </node>
  <node id="346878489" version="5" timestamp="2009-05-31T15:33:46Z" uid="58091" user="Andreas M" changeset="1370272" lat="48.2196444" lon="16.4029855">
    <tag k="addr:city" v="Wien"/>
    <tag k="addr:country" v="AT"/>
    <tag k="addr:housenumber" v="11"/>
    <tag k="addr:postcode" v="1020"/>
    <tag k="addr:street" v="Obermüllnerstraße"/>
  </node>
  <node id="346878489" version="6" timestamp="2012-03-24T07:48:26Z" uid="99800" user="wolfbert" changeset="11081408" lat="48.2196444" lon="16.4029855"/>
  <node id="346878494" version="1" timestamp="2009-02-17T17:23:59Z" uid="58091" user="Andreas M" changeset="518785" lat="48.21936" lon="16.4039679">
    <tag k="addr:housenumber" v="4"/>
  </node>
  <node id="346878494" version="2" timestamp="2009-02-17T17:52:42Z" uid="58091" user="Andreas M" changeset="518785" lat="48.2193477" lon="16.4039901">
    <tag k="addr:housenumber" v="4"/>
  </node>
  <node id="346878494" version="3" timestamp="2009-03-13T20:23:30Z" uid="99800" user="wolfbert" changeset="803311" lat="48.2194142" lon="16.4039094">
    <tag k="addr:housenumber" v="4"/>
  </node>
  <node id="346878494" version="4" timestamp="2009-03-21T13:17:45Z" uid="58091" user="Andreas M" changeset="840918" lat="48.2194142" lon="16.4039094">
    <tag k="addr:city" v="Wien"/>
    <tag k="addr:country" v="AT"/>
    <tag k="addr:housenumber" v="4"/>
    <tag k="addr:postcode" v="1020"/>
    <tag k="addr:street" v="Obermüllnerstraße"/>
  </node>
  <node id="346878494" version="5" timestamp="2009-06-01T08:01:34Z" uid="58091" user="Andreas M" changeset="1376724" lat="48.2193826" lon="16.4038926">
    <tag k="addr:city" v="Wien"/>
    <tag k="addr:country" v="AT"/>
    <tag k="addr:housenumber" v="4"/>
    <tag k="addr:postcode" v="1020"/>
    <tag k="addr:street" v="Obermüllnerstraße"/>
  </node>
  <node id="346878494" version="6" timestamp="2011-03-09T08:44:40Z" uid="99800" user="wolfbert" changeset="7501703" lat="48.2193728" lon="16.4039358">
    <tag k="addr:city" v="Wien"/>
    <tag k="addr:country" v="AT"/>
    <tag k="addr:housenumber" v="4"/>
    <tag k="addr:postcode" v="1020"/>
    <tag k="addr:street" v="Obermüllnerstraße"/>
  </node>
  <node id="346878494" version="7" timestamp="2012-03-25T17:13:31Z" uid="99800" user="wolfbert" changeset="11097326" lat="48.2193728" lon="16.4039358"/>
  <node id="346878495" version="1" timestamp="2009-02-17T17:23:59Z" uid="58091" user="Andreas M" changeset="518785" lat="48.2193605" lon="16.404515">
    <tag k="addr:housenumber" v="8"/>
  </node>
  <node id="346878495" version="2" timestamp="2009-02-17T17:52:43Z" uid="58091" user="Andreas M" changeset="518785" lat="48.2193482" lon="16.4045371">
    <tag k="addr:housenumber" v="8"/>
  </node>
  <node id="346878495" version="3" timestamp="2009-03-13T20:23:30Z" uid="99800" user="wolfbert" changeset="803311" lat="48.2194147" lon="16.4044564">
    <tag k="addr:housenumber" v="8"/>
  </node>
  <node id="346878495" version="4" timestamp="2009-03-21T13:17:45Z" uid="58091" user="Andreas M" changeset="840918" lat="48.2194147" lon="16.4044564">
    <tag k="addr:city" v="Wien"/>
    <tag k="addr:country" v="AT"/>
    <tag k="addr:housenumber" v="8"/>
    <tag k="addr:postcode" v="1020"/>
    <tag k="addr:street" v="Obermüllnerstraße"/>
  </node>
  <node id="346878495" version="5" timestamp="2009-06-01T08:01:34Z" uid="58091" user="Andreas M" changeset="1376724" lat="48.2193737" lon="16.4044843">
    <tag k="addr:city" v="Wien"/>
    <tag k="addr:country" v="AT"/>
    <tag k="addr:housenumber" v="8"/>
    <tag k="addr:postcode" v="1020"/>
    <tag k="addr:street" v="Obermüllnerstraße"/>
  </node>
  <node id="346878495" version="6" timestamp="2011-03-09T08:44:33Z" uid="99800" user="wolfbert" changeset="7501703" lat="48.219373" lon="16.4044637">
    <tag k="addr:city" v="Wien"/>
    <tag k="addr:country" v="AT"/>
    <tag k="addr:housenumber" v="8"/>
    <tag k="addr:postcode" v="1020"/>
    <tag k="addr:street" v="Obermüllnerstraße"/>
  </node>
  <node id="346878495" version="7" timestamp="2012-03-25T17:13:32Z" uid="99800" user="wolfbert" changeset="11097326" lat="48.219373" lon="16.4044637"/>
  <node id="346878500" version="1" timestamp="2009-02-17T17:23:59Z" uid="58091" user="Andreas M" changeset="518785" lat="48.2193259" lon="16.4016052">
    <tag k="addr:city" v="Wien"/>
    <tag k="addr:housenumber" v="2"/>
    <tag k="addr:postcode" v="1020"/>
    <tag k="addr:street" v="Obermüllnerstraße"/>
  </node>
  <node id="346878500" version="2" timestamp="2009-03-13T20:23:46Z" uid="99800" user="wolfbert" changeset="803311" lat="48.2193848" lon="16.4015437">
    <tag k="addr:city" v="Wien"/>
    <tag k="addr:housenumber" v="2"/>
    <tag k="addr:postcode" v="1020"/>
    <tag k="addr:street" v="Obermüllnerstraße"/>
  </node>
  <node id="346878500" version="3" timestamp="2009-03-15T19:49:13Z" uid="58091" user="Andreas M" changeset="815744" lat="48.2193848" lon="16.4015437">
    <tag k="addr:city" v="Wien"/>
    <tag k="addr:country" v="AT"/>
    <tag k="addr:housenumber" v="2"/>
    <tag k="addr:postcode" v="1020"/>
    <tag k="addr:street" v="Obermüllnerstraße"/>
  </node>
  <node id="346878500" version="4" timestamp="2009-05-31T14:55:24Z" uid="58091" user="Andreas M" changeset="1369912" lat="48.2193788" lon="16.4014514">
    <tag k="addr:city" v="Wien"/>
    <tag k="addr:country" v="AT"/>
    <tag k="addr:housenumber" v="2"/>
    <tag k="addr:postcode" v="1020"/>
    <tag k="addr:street" v="Obermüllnerstraße"/>
  </node>
  <node id="346878500" version="5" timestamp="2012-03-24T19:30:07Z" uid="99800" user="wolfbert" changeset="11088098" lat="48.2193788" lon="16.4014514"/>
  <node id="346878503" version="1" timestamp="2009-02-17T17:23:59Z" uid="58091" user="Andreas M" changeset="518785" lat="48.219323" lon="16.4019905">
    <tag k="addr:city" v="Wien"/>
    <tag k="addr:housenumber" v="2a"/>
    <tag k="addr:postcode" v="1020"/>
    <tag k="addr:street" v="Obermüllnerstraße"/>
  </node>
  <node id="346878503" version="2" timestamp="2009-03-13T20:23:46Z" uid="99800" user="wolfbert" changeset="803311" lat="48.2193819" lon="16.401929">
    <tag k="addr:city" v="Wien"/>
    <tag k="addr:housenumber" v="2a"/>
    <tag k="addr:postcode" v="1020"/>
    <tag k="addr:street" v="Obermüllnerstraße"/>
  </node>
  <node id="346878503" version="3" timestamp="2009-03-15T19:49:14Z" uid="58091" user="Andreas M" changeset="815744" lat="48.2193819" lon="16.401929">
    <tag k="addr:city" v="Wien"/>
    <tag k="addr:country" v="AT"/>
    <tag k="addr:housenumber" v="2a"/>
    <tag k="addr:postcode" v="1020"/>
    <tag k="addr:street" v="Obermüllnerstraße"/>
  </node>
  <node id="346878503" version="4" timestamp="2012-03-24T19:30:07Z" uid="99800" user="wolfbert" changeset="11088098" lat="48.2193819" lon="16.401929"/>
  <node id="346878506" version="1" timestamp="2009-02-17T17:23:59Z" uid="58091" user="Andreas M" changeset="518785" lat="48.2193202" lon="16.4023588">
    <tag k="addr:city" v="Wien"/>
    <tag k="addr:housenumber" v="2b"/>
    <tag k="addr:postcode" v="1020"/>
    <tag k="addr:street" v="Obermüllnerstraße"/>
  </node>
  <node id="346878506" version="2" timestamp="2009-03-13T20:23:40Z" uid="99800" user="wolfbert" changeset="803311" lat="48.2193816" lon="16.4022858">
    <tag k="addr:city" v="Wien"/>
    <tag k="addr:housenumber" v="2b"/>
    <tag k="addr:postcode" v="1020"/>
    <tag k="addr:street" v="Obermüllnerstraße"/>
  </node>
  <node id="346878506" version="3" timestamp="2009-03-15T19:49:12Z" uid="58091" user="Andreas M" changeset="815744" lat="48.2193816" lon="16.4022858">
    <tag k="addr:city" v="Wien"/>
    <tag k="addr:country" v="AT"/>
    <tag k="addr:housenumber" v="2b"/>
    <tag k="addr:postcode" v="1020"/>
    <tag k="addr:street" v="Obermüllnerstraße"/>
  </node>
  <node id="346878506" version="4" timestamp="2012-03-24T19:30:07Z" uid="99800" user="wolfbert" changeset="11088098" lat="48.2193816" lon="16.4022858"/>
</osm>
