<?xml version='1.0' encoding='UTF-8'?>
<osm version="0.6" generator="libosmium/2.20.0">
  <node id="347671025" version="4" timestamp="2009-12-06T00:53:10Z" uid="30201" user="rrankin" changeset="3299967" lat="-33.8286593" lon="151.0641483"/>
  <node id="347671771" version="4" timestamp="2009-12-07T02:35:05Z" uid="30201" user="rrankin" changeset="3312226" lat="-33.8262207" lon="151.0637646"/>
  <node id="347671982" version="2" timestamp="2009-12-07T02:35:04Z" uid="30201" user="rrankin" changeset="3312226" lat="-33.8272731" lon="151.0625315"/>
  <node id="347671983" version="2" timestamp="2009-12-07T02:35:04Z" uid="30201" user="rrankin" changeset="3312226" lat="-33.8273858" lon="151.0626124"/>
  <node id="347673256" version="2" timestamp="2009-06-01T06:35:56Z" uid="49111" user="Markus B" changeset="1376009" lat="47.2640944" lon="7.5396627">
    <tag k="amenity" v="parking"/>
  </node>
  <node id="347673258" version="2" timestamp="2009-06-01T06:35:56Z" uid="49111" user="Markus B" changeset="1376009" lat="47.2638461" lon="7.5387359">
    <tag k="name" v="Oase Balmberg"/>
    <tag k="tourism" v="hotel"/>
  </node>
  <node id="347673397" version="2" timestamp="2009-12-07T02:35:01Z" uid="30201" user="rrankin" changeset="3312226" lat="-33.8291926" lon="151.0605453"/>
  <node id="347673398" version="2" timestamp="2009-12-07T02:35:01Z" uid="30201" user="rrankin" changeset="3312226" lat="-33.8292138" lon="151.0606737"/>
  <node id="347673399" version="2" timestamp="2009-12-07T02:35:01Z" uid="30201" user="rrankin" changeset="3312226" lat="-33.8290917" lon="151.0608408"/>
  <node id="347673407" version="2" timestamp="2009-12-07T02:35:01Z" uid="30201" user="rrankin" changeset="3312226" lat="-33.8284171" lon="151.0615149"/>
  <node id="347673411" version="2" timestamp="2009-12-07T02:35:01Z" uid="30201" user="rrankin" changeset="3312226" lat="-33.8281761" lon="151.0613228"/>
  <node id="347674343" version="1" timestamp="2009-02-19T20:18:51Z" uid="4667" user="MapZ" changeset="558735" lat="49.4980474" lon="8.657065">
    <tag k="addr:city" v="Hirschberg-Leutershausen"/>
    <tag k="addr:housenumber" v="2"/>
    <tag k="addr:postcode" v="69493"/>
    <tag k="addr:street" v="Beethovenstraße"/>
  </node>
  <node id="347674343" version="2" timestamp="2010-05-21T20:21:16Z" uid="9581" user="Lobelt" changeset="4769304" lat="49.4958587" lon="8.6568825"/>
  <node id="347674343" version="3" timestamp="2012-01-10T08:02:56Z" uid="442210" user="dwausr" changeset="10349020" lat="49.4958587" lon="8.6568825"/>
  <node id="347674343" version="4" timestamp="2012-03-27T13:46:57Z" uid="442210" user="dwausr" changeset="11116588" lat="49.4958587" lon="8.6568825"/>
  <node id="347674345" version="1" timestamp="2009-02-19T20:18:51Z" uid="4667" user="MapZ" changeset="558735" lat="49.4957818" lon="8.6570811">
    <tag k="addr:city" v="Hirschberg-Leutershausen"/>
    <tag k="addr:housenumber" v="24"/>
    <tag k="addr:postcode" v="69493"/>
    <tag k="addr:street" v="Beethovenstraße"/>
  </node>
  <node id="347674345" version="2" timestamp="2010-05-21T20:21:27Z" uid="9581" user="Lobelt" changeset="4769304" lat="49.4957588" lon="8.6568794"/>
  <node id="347674345" version="3" timestamp="2012-01-10T08:02:56Z" uid="442210" user="dwausr" changeset="10349020" lat="49.4957588" lon="8.6568794"/>
  <node id="347674345" version="4" timestamp="2012-03-27T13:46:57Z" uid="442210" user="dwausr" changeset="11116588" lat="49.4957588" lon="8.6568794"/>
  <node id="347674347" version="1" timestamp="2009-02-19T20:18:51Z" uid="4667" user="MapZ" changeset="558735" lat="49.4987786" lon="8.6610795">
    <tag k="addr:city" v="Hirschberg-Leutershausen"/>
    <tag k="addr:housenumber" v="9"/>
    <tag k="addr:postcode" v="69493"/>
    <tag k="addr:street" v="Hölderlinstraße"/>
  </node>
  <node id="347674347" version="2" timestamp="2010-04-27T21:08:04Z" uid="9581" user="Lobelt" changeset="4545117" lat="49.4984731" lon="8.6610286"/>
  <node id="347674347" version="3" timestamp="2012-01-11T09:23:05Z" uid="442210" user="dwausr" changeset="10358781" lat="49.4984731" lon="8.6610286"/>
  <node id="347674347" version="4" timestamp="2012-03-27T13:46:57Z" uid="442210" user="dwausr" changeset="11116588" lat="49.4984731" lon="8.6610286"/>
  <node id="347674349" version="1" timestamp="2009-02-19T20:18:52Z" uid="4667" user="MapZ" changeset="558735" lat="49.4977457" lon="8.6609211">
    <tag k="addr:city" v="Hirschberg-Leutershausen"/>
    <tag k="addr:housenumber" v="21"/>
    <tag k="addr:postcode" v="69493"/>
    <tag k="addr:street" v="Hölderlinstraße"/>
  </node>
  <node id="347674349" version="2" timestamp="2010-04-27T21:08:03Z" uid="9581" user="Lobelt" changeset="4545117" lat="49.4972454" lon="8.661009">
    <tag k="addr:city" v="Hirschberg-Leutershausen"/>
    <tag k="addr:housenumber" v="23"/>
    <tag k="addr:postcode" v="69493"/>
    <tag k="addr:street" v="Hölderlinstraße"/>
  </node>
  <node id="347674349" version="3" timestamp="2010-05-30T14:05:41Z" uid="9581" user="Lobelt" changeset="4852350" lat="49.4972754" lon="8.6610081"/>
  <node id="347674349" version="4" timestamp="2012-01-10T08:02:56Z" uid="442210" user="dwausr" changeset="10349020" lat="49.4972754" lon="8.6610081"/>
  <node id="347674349" version="5" timestamp="2012-03-27T13:46:58Z" uid="442210" user="dwausr" changeset="11116588" lat="49.4972754" lon="8.6610081"/>
  <node id="347674351" version="1" timestamp="2009-02-19T20:18:52Z" uid="4667" user="MapZ" changeset="558735" lat="49.4977313" lon="8.6608007">
    <tag k="addr:city" v="Hirschberg-Leutershausen"/>
    <tag k="addr:housenumber" v="22"/>
    <tag k="addr:postcode" v="69493"/>
    <tag k="addr:street" v="Hölderlinstraße"/>
  </node>
  <node id="347674351" version="2" timestamp="2010-04-14T19:27:07Z" uid="9581" user="Lobelt" changeset="4425463" lat="49.4977201" lon="8.6606951"/>
  <node id="347674351" version="3" timestamp="2012-01-11T09:23:05Z" uid="442210" user="dwausr" changeset="10358781" lat="49.4977201" lon="8.6606951"/>
  <node id="347674351" version="4" timestamp="2012-03-27T13:46:58Z" uid="442210" user="dwausr" changeset="11116588" lat="49.4977201" lon="8.6606951"/>
  <node id="347675088" version="3" timestamp="2009-12-06T00:53:10Z" uid="30201" user="rrankin" changeset="3299967" lat="-33.8288786" lon="151.0642053"/>
  <node id="347675089" version="3" timestamp="2009-12-06T00:53:10Z" uid="30201" user="rrankin" changeset="3299967" lat="-33.8290141" lon="151.0641796"/>
  <node id="347675090" version="3" timestamp="2009-12-06T00:53:10Z" uid="30201" user="rrankin" changeset="3299967" lat="-33.8291139" lon="151.0641453"/>
  <node id="347675091" version="3" timestamp="2009-12-06T00:53:10Z" uid="30201" user="rrankin" changeset="3299967" lat="-33.8297128" lon="151.0639478"/>
  <node id="347675092" version="3" timestamp="2009-12-06T00:53:10Z" uid="30201" user="rrankin" changeset="3299967" lat="-33.8305826" lon="151.0636474"/>
  <node id="347675093" version="3" timestamp="2009-12-06T00:53:09Z" uid="30201" user="rrankin" changeset="3299967" lat="-33.83126" lon="151.0633899"/>
  <node id="347675094" version="3" timestamp="2009-12-06T00:53:09Z" uid="30201" user="rrankin" changeset="3299967" lat="-33.8314739" lon="151.0628664"/>
  <node id="347675095" version="3" timestamp="2009-12-06T00:53:09Z" uid="30201" user="rrankin" changeset="3299967" lat="-33.8317305" lon="151.0623085"/>
  <node id="347675096" version="3" timestamp="2009-12-06T00:53:09Z" uid="30201" user="rrankin" changeset="3299967" lat="-33.8319658" lon="151.0617763"/>
  <node id="347675097" version="3" timestamp="2009-12-06T00:53:09Z" uid="30201" user="rrankin" changeset="3299967" lat="-33.8320684" lon="151.0616081"/>
  <node id="347675098" version="3" timestamp="2009-12-06T00:53:09Z" uid="30201" user="rrankin" changeset="3299967" lat="-33.8320952" lon="151.061433"/>
  <node id="347675099" version="3" timestamp="2009-12-06T00:53:09Z" uid="30201" user="rrankin" changeset="3299967" lat="-33.8320694" lon="151.0612772"/>
  <node id="347675100" version="3" timestamp="2009-12-06T00:53:09Z" uid="30201" user="rrankin" changeset="3299967" lat="-33.8319776" lon="151.0611099"/>
  <node id="347675101" version="3" timestamp="2009-12-06T00:53:09Z" uid="30201" user="rrankin" changeset="3299967" lat="-33.8318403" lon="151.0610158"/>
  <node id="347675102" version="3" timestamp="2009-12-06T00:53:09Z" uid="30201" user="rrankin" changeset="3299967" lat="-33.8316664" lon="151.0609524"/>
  <node id="347675103" version="4" timestamp="2009-12-06T00:53:09Z" uid="30201" user="rrankin" changeset="3299967" lat="-33.8316375" lon="151.0609362"/>
  <node id="347675104" version="3" timestamp="2009-12-06T00:53:12Z" uid="30201" user="rrankin" changeset="3299967" lat="-33.8315364" lon="151.0608989"/>
  <node id="347675105" version="3" timestamp="2009-12-06T00:53:09Z" uid="30201" user="rrankin" changeset="3299967" lat="-33.8316406" lon="151.0607479"/>
  <node id="347675565" version="2" timestamp="2010-09-12T16:52:53Z" uid="9581" user="Lobelt" changeset="5761626" lat="49.4430545" lon="8.1900324"/>
  <node id="347675565" version="3" timestamp="2012-03-19T22:54:07Z" uid="328555" user="peb12345" changeset="11036033" lat="49.4430545" lon="8.1900324"/>
  <node id="347675567" version="3" timestamp="2010-09-12T16:52:47Z" uid="9581" user="Lobelt" changeset="5761626" lat="49.4431395" lon="8.1903339"/>
  <node id="347675569" version="2" timestamp="2010-09-12T16:52:51Z" uid="9581" user="Lobelt" changeset="5761626" lat="49.4432076" lon="8.1905275"/>
  <node id="347675571" version="2" timestamp="2010-09-12T16:52:56Z" uid="9581" user="Lobelt" changeset="5761626" lat="49.4435562" lon="8.1915672"/>
  <node id="347675957" version="4" timestamp="2009-12-06T00:53:09Z" uid="30201" user="rrankin" changeset="3299967" lat="-33.831243" lon="151.0610173"/>
  <node id="347675959" version="4" timestamp="2009-12-06T00:53:09Z" uid="30201" user="rrankin" changeset="3299967" lat="-33.8310105" lon="151.0612028"/>
  <node id="347675973" version="4" timestamp="2009-12-07T04:27:23Z" uid="30201" user="rrankin" changeset="3312476" lat="-33.8291479" lon="151.0641347"/>
  <node id="347676360" version="2" timestamp="2009-12-06T00:53:09Z" uid="30201" user="rrankin" changeset="3299967" lat="-33.8314846" lon="151.0608523"/>
  <node id="347676425" version="1" timestamp="2009-02-19T20:23:12Z" uid="4667" user="MapZ" changeset="558735" lat="49.4970891" lon="8.6606493">
    <tag k="addr:city" v="Hirschberg-Leutershausen"/>
    <tag k="addr:housenumber" v="24"/>
    <tag k="addr:postcode" v="69493"/>
    <tag k="addr:street" v="Hölderlinstraße"/>
    <tag k="leisure" v="sports_centre"/>
    <tag k="name" v="Heinrich-Beck-Halle"/>
    <tag k="sport" v="multi"/>
  </node>
  <node id="347676425" version="2" timestamp="2011-09-26T20:36:33Z" uid="475266" user="Lobelt_2" changeset="9405727" lat="49.4970891" lon="8.6606493"/>
  <node id="347676427" version="1" timestamp="2009-02-19T20:23:12Z" uid="4667" user="MapZ" changeset="558735" lat="49.4957736" lon="8.6606904">
    <tag k="addr:city" v="Hirschberg-Leutershausen"/>
    <tag k="addr:housenumber" v="38"/>
    <tag k="addr:postcode" v="69493"/>
    <tag k="addr:street" v="Hölderlinstraße"/>
  </node>
  <node id="347676427" version="2" timestamp="2010-05-21T20:21:33Z" uid="9581" user="Lobelt" changeset="4769304" lat="49.495826" lon="8.6606889"/>
  <node id="347676427" version="3" timestamp="2012-01-10T08:02:56Z" uid="442210" user="dwausr" changeset="10349020" lat="49.495826" lon="8.6606889"/>
  <node id="347676427" version="4" timestamp="2012-03-27T13:46:58Z" uid="442210" user="dwausr" changeset="11116588" lat="49.495826" lon="8.6606889"/>
  <node id="347676429" version="1" timestamp="2009-02-19T20:23:13Z" uid="4667" user="MapZ" changeset="558735" lat="49.4958625" lon="8.6608774">
    <tag k="addr:city" v="Hirschberg-Leutershausen"/>
    <tag k="addr:housenumber" v="43"/>
    <tag k="addr:postcode" v="69493"/>
    <tag k="addr:street" v="Hölderlinstraße"/>
  </node>
  <node id="347676429" version="2" timestamp="2010-05-30T14:05:43Z" uid="9581" user="Lobelt" changeset="4852350" lat="49.4972776" lon="8.6611336"/>
  <node id="347676429" version="3" timestamp="2012-01-10T08:02:57Z" uid="442210" user="dwausr" changeset="10349020" lat="49.4972776" lon="8.6611336"/>
  <node id="347676429" version="4" timestamp="2012-03-27T13:46:58Z" uid="442210" user="dwausr" changeset="11116588" lat="49.4972776" lon="8.6611336"/>
  <node id="347676430" version="1" timestamp="2009-02-19T20:23:13Z" uid="4667" user="MapZ" changeset="558735" lat="49.4966299" lon="8.6607451"/>
  <node id="347676430" version="2" timestamp="2009-02-22T11:30:26Z" uid="4667" user="MapZ" changeset="614317" lat="49.4966299" lon="8.6607451">
    <tag k="addr:housenumber" v="22"/>
    <tag k="addr:street" v="Johann-Sebastian-Bach-Straße"/>
  </node>
  <node id="347676430" version="3" timestamp="2009-02-22T11:32:22Z" uid="4667" user="MapZ" changeset="614317" lat="49.4966299" lon="8.6607451">
    <tag k="addr:city" v="Hirschberg-Leutershausen"/>
    <tag k="addr:housenumber" v="22"/>
    <tag k="addr:postcode" v="69493"/>
    <tag k="addr:street" v="Johann-Sebastian-Bach-Straße"/>
  </node>
  <node id="347676430" version="4" timestamp="2010-05-21T20:21:14Z" uid="9581" user="Lobelt" changeset="4769304" lat="49.4966736" lon="8.6607432"/>
  <node id="347676430" version="5" timestamp="2012-01-10T08:02:57Z" uid="442210" user="dwausr" changeset="10349020" lat="49.4966736" lon="8.6607432"/>
  <node id="347676430" version="6" timestamp="2012-03-27T13:46:58Z" uid="442210" user="dwausr" changeset="11116588" lat="49.4966736" lon="8.6607432"/>
  <node id="347676893" version="3" timestamp="2009-12-06T00:53:09Z" uid="30201" user="rrankin" changeset="3299967" lat="-33.8320348" lon="151.0605393"/>
  <node id="347676894" version="3" timestamp="2009-12-06T00:53:09Z" uid="30201" user="rrankin" changeset="3299967" lat="-33.8317893" lon="151.0606136"/>
  <node id="347677946" version="3" timestamp="2009-03-08T13:45:42Z" uid="6975" user="ulfl" changeset="757880" lat="52.4304046" lon="-0.2743845">
    <tag k="highway" v="bus_stop"/>
    <tag k="source" v="survey"/>
  </node>
  <node id="347678186" version="7" timestamp="2009-05-01T20:02:34Z" uid="20587" user="balrog-kun" changeset="1041684" lat="50.1803424" lon="18.9681028">
    <tag k="is_in" v="Katowice, województwo śląskie, Poland"/>
    <tag k="is_in:city" v="Katowice"/>
    <tag k="is_in:country" v="Poland"/>
    <tag k="is_in:county" v="powiat katowice"/>
    <tag k="is_in:municipality" v="gmina Miasto Katowice"/>
    <tag k="is_in:province" v="województwo śląskie"/>
    <tag k="is_in:town" v="Katowice"/>
    <tag k="name" v="Podlesie"/>
    <tag k="place" v="suburb"/>
    <tag k="population" v="46"/>
    <tag k="source:population" v="wikipedia"/>
    <tag k="teryt:rm" v="99"/>
    <tag k="teryt:simc" v="0937764"/>
    <tag k="teryt:stan_na" v="2009-01-01"/>
    <tag k="teryt:sympod" v="0937474"/>
    <tag k="teryt:terc" v="2469011"/>
    <tag k="teryt:updated_by" v="teryt2osm combine.py v. 43"/>
    <tag k="wikipedia" v="Podlesie, Katowice"/>
  </node>
  <node id="347678186" version="8" timestamp="2009-05-07T18:45:29Z" uid="115021" user="Jajcuś" changeset="1110433" lat="50.1803424" lon="18.9681028">
    <tag k="is_in" v="Katowice, województwo śląskie, Poland"/>
    <tag k="is_in:city" v="Katowice"/>
    <tag k="is_in:country" v="Poland"/>
    <tag k="is_in:province" v="województwo śląskie"/>
    <tag k="name" v="Podlesie"/>
    <tag k="place" v="suburb"/>
    <tag k="population" v="46"/>
    <tag k="source:population" v="wikipedia"/>
    <tag k="teryt:rm" v="99"/>
    <tag k="teryt:simc" v="0937764"/>
    <tag k="teryt:stan_na" v="2009-01-01"/>
    <tag k="teryt:sympod" v="0937474"/>
    <tag k="teryt:terc" v="2469011"/>
    <tag k="teryt:updated_by" v="teryt2osm combine.py v. 47M"/>
    <tag k="wikipedia" v="Podlesie, Katowice"/>
  </node>
  <node id="347678186" version="9" timestamp="2009-05-08T18:42:09Z" uid="115021" user="Jajcuś" changeset="1120509" lat="50.1803424" lon="18.9681028">
    <tag k="is_in" v="Katowice, województwo śląskie, Poland"/>
    <tag k="is_in:city" v="Katowice"/>
    <tag k="is_in:country" v="Poland"/>
    <tag k="is_in:county" v="powiat m. Katowice"/>
    <tag k="is_in:municipality" v="gmina m. Katowice"/>
    <tag k="is_in:province" v="województwo śląskie"/>
    <tag k="name" v="Podlesie"/>
    <tag k="place" v="suburb"/>
    <tag k="population" v="46"/>
    <tag k="source:population" v="wikipedia"/>
    <tag k="teryt:rm" v="99"/>
    <tag k="teryt:simc" v="0937764"/>
    <tag k="teryt:stan_na" v="2009-01-01"/>
    <tag k="teryt:sympod" v="0937474"/>
    <tag k="teryt:terc" v="2469011"/>
    <tag k="teryt:updated_by" v="teryt2osm combine.py v. 49"/>
    <tag k="wikipedia" v="Podlesie, Katowice"/>
  </node>
  <node id="347678186" version="10" timestamp="2009-06-16T14:36:17Z" uid="20587" user="balrog-kun" changeset="1535698" lat="50.1803424" lon="18.9681028">
    <tag k="is_in" v="Katowice, województwo śląskie, Poland"/>
    <tag k="is_in:city" v="Katowice"/>
    <tag k="is_in:country" v="Poland"/>
    <tag k="is_in:county" v="powiat m. Katowice"/>
    <tag k="is_in:municipality" v="gmina m. Katowice"/>
    <tag k="is_in:province" v="województwo śląskie"/>
    <tag k="is_in:town" v="Katowice"/>
    <tag k="name" v="Podlesie"/>
    <tag k="place" v="suburb"/>
    <tag k="population" v="46"/>
    <tag k="source:population" v="wikipedia"/>
    <tag k="teryt:rm" v="99"/>
    <tag k="teryt:simc" v="0937764"/>
    <tag k="teryt:stan_na" v="2009-01-01"/>
    <tag k="teryt:sympod" v="0937474"/>
    <tag k="teryt:terc" v="2469011"/>
    <tag k="teryt:updated_by" v="teryt2osm combine.py v. 49"/>
    <tag k="wikipedia" v="Podlesie, Katowice"/>
  </node>
  <node id="347678186" version="11" timestamp="2011-04-25T06:23:55Z" uid="309867" user="Damian_Lisu" changeset="7959464" lat="50.1803424" lon="18.9681028">
    <tag k="is_in" v="Katowice, Poland"/>
    <tag k="is_in:city" v="Katowice"/>
    <tag k="is_in:country" v="Poland"/>
    <tag k="is_in:county" v="powiat m. Katowice"/>
    <tag k="is_in:municipality" v="gmina m. Katowice"/>
    <tag k="is_in:province" v="województwo śląskie"/>
    <tag k="is_in:town" v="Katowice"/>
    <tag k="name" v="Podlesie"/>
    <tag k="place" v="suburb"/>
    <tag k="population" v="46"/>
    <tag k="source:population" v="wikipedia"/>
    <tag k="teryt:rm" v="99"/>
    <tag k="teryt:simc" v="0937764"/>
    <tag k="teryt:stan_na" v="2009-01-01"/>
    <tag k="teryt:sympod" v="0937474"/>
    <tag k="teryt:terc" v="2469011"/>
    <tag k="teryt:updated_by" v="teryt2osm combine.py v. 49"/>
    <tag k="wikipedia" v="Podlesie, Katowice"/>
  </node>
  <node id="347678189" version="6" timestamp="2009-05-01T20:01:27Z" uid="20587" user="balrog-kun" changeset="1041684" lat="50.1891766" lon="18.9868985">
    <tag k="is_in" v="Katowice, województwo śląskie, Poland"/>
    <tag k="is_in:city" v="Katowice"/>
    <tag k="is_in:country" v="Poland"/>
    <tag k="is_in:county" v="powiat katowice"/>
    <tag k="is_in:municipality" v="gmina Miasto Katowice"/>
    <tag k="is_in:province" v="województwo śląskie"/>
    <tag k="is_in:town" v="Katowice"/>
    <tag k="name" v="Kostuchna"/>
    <tag k="place" v="suburb"/>
    <tag k="population" v="76"/>
    <tag k="source:population" v="wikipedia"/>
    <tag k="teryt:rm" v="99"/>
    <tag k="teryt:simc" v="0937675"/>
    <tag k="teryt:stan_na" v="2009-01-01"/>
    <tag k="teryt:sympod" v="0937474"/>
    <tag k="teryt:terc" v="2469011"/>
    <tag k="teryt:updated_by" v="teryt2osm combine.py v. 43"/>
    <tag k="wikipedia" v="Kostuchna"/>
  </node>
  <node id="347678189" version="7" timestamp="2009-05-07T18:45:28Z" uid="115021" user="Jajcuś" changeset="1110433" lat="50.1891766" lon="18.9868985">
    <tag k="is_in" v="Katowice, województwo śląskie, Poland"/>
    <tag k="is_in:city" v="Katowice"/>
    <tag k="is_in:country" v="Poland"/>
    <tag k="is_in:province" v="województwo śląskie"/>
    <tag k="name" v="Kostuchna"/>
    <tag k="place" v="suburb"/>
    <tag k="population" v="76"/>
    <tag k="source:population" v="wikipedia"/>
    <tag k="teryt:rm" v="99"/>
    <tag k="teryt:simc" v="0937675"/>
    <tag k="teryt:stan_na" v="2009-01-01"/>
    <tag k="teryt:sympod" v="0937474"/>
    <tag k="teryt:terc" v="2469011"/>
    <tag k="teryt:updated_by" v="teryt2osm combine.py v. 47M"/>
    <tag k="wikipedia" v="Kostuchna"/>
  </node>
  <node id="347678189" version="8" timestamp="2009-05-08T18:42:11Z" uid="115021" user="Jajcuś" changeset="1120509" lat="50.1891766" lon="18.9868985">
    <tag k="is_in" v="Katowice, województwo śląskie, Poland"/>
    <tag k="is_in:city" v="Katowice"/>
    <tag k="is_in:country" v="Poland"/>
    <tag k="is_in:county" v="powiat m. Katowice"/>
    <tag k="is_in:municipality" v="gmina m. Katowice"/>
    <tag k="is_in:province" v="województwo śląskie"/>
    <tag k="name" v="Kostuchna"/>
    <tag k="place" v="suburb"/>
    <tag k="population" v="76"/>
    <tag k="source:population" v="wikipedia"/>
    <tag k="teryt:rm" v="99"/>
    <tag k="teryt:simc" v="0937675"/>
    <tag k="teryt:stan_na" v="2009-01-01"/>
    <tag k="teryt:sympod" v="0937474"/>
    <tag k="teryt:terc" v="2469011"/>
    <tag k="teryt:updated_by" v="teryt2osm combine.py v. 49"/>
    <tag k="wikipedia" v="Kostuchna"/>
  </node>
  <node id="347678189" version="9" timestamp="2009-06-16T14:36:17Z" uid="20587" user="balrog-kun" changeset="1535698" lat="50.1891766" lon="18.9868985">
    <tag k="is_in" v="Katowice, województwo śląskie, Poland"/>
    <tag k="is_in:city" v="Katowice"/>
    <tag k="is_in:country" v="Poland"/>
    <tag k="is_in:county" v="powiat m. Katowice"/>
    <tag k="is_in:municipality" v="gmina m. Katowice"/>
    <tag k="is_in:province" v="województwo śląskie"/>
    <tag k="is_in:town" v="Katowice"/>
    <tag k="name" v="Kostuchna"/>
    <tag k="place" v="suburb"/>
    <tag k="population" v="76"/>
    <tag k="source:population" v="wikipedia"/>
    <tag k="teryt:rm" v="99"/>
    <tag k="teryt:simc" v="0937675"/>
    <tag k="teryt:stan_na" v="2009-01-01"/>
    <tag k="teryt:sympod" v="0937474"/>
    <tag k="teryt:terc" v="2469011"/>
    <tag k="teryt:updated_by" v="teryt2osm combine.py v. 49"/>
    <tag k="wikipedia" v="Kostuchna"/>
  </node>
  <node id="347678189" version="10" timestamp="2011-04-25T06:23:53Z" uid="309867" user="Damian_Lisu" changeset="7959464" lat="50.1891766" lon="18.9868985">
    <tag k="is_in" v="Katowice, Poland"/>
    <tag k="is_in:city" v="Katowice"/>
    <tag k="is_in:country" v="Poland"/>
    <tag k="is_in:county" v="powiat m. Katowice"/>
    <tag k="is_in:municipality" v="gmina m. Katowice"/>
    <tag k="is_in:province" v="województwo śląskie"/>
    <tag k="is_in:town" v="Katowice"/>
    <tag k="name" v="Kostuchna"/>
    <tag k="place" v="suburb"/>
    <tag k="population" v="76"/>
    <tag k="source:population" v="wikipedia"/>
    <tag k="teryt:rm" v="99"/>
    <tag k="teryt:simc" v="0937675"/>
    <tag k="teryt:stan_na" v="2009-01-01"/>
    <tag k="teryt:sympod" v="0937474"/>
    <tag k="teryt:terc" v="2469011"/>
    <tag k="teryt:updated_by" v="teryt2osm combine.py v. 49"/>
    <tag k="wikipedia" v="Kostuchna"/>
  </node>
  <node id="347679018" version="1" timestamp="2009-02-19T20:30:08Z" uid="4667" user="MapZ" changeset="558735" lat="49.5104961" lon="8.6556573">
    <tag k="addr:city" v="Hirschberg-Leutershausen"/>
    <tag k="addr:housenumber" v="1"/>
    <tag k="addr:postcode" v="69493"/>
    <tag k="addr:street" v="Landstraße"/>
    <tag k="name" v="Autohaus Bontenakel"/>
    <tag k="shop" v="car"/>
  </node>
  <node id="347679018" version="2" timestamp="2009-05-10T18:52:50Z" uid="9581" user="Lobelt" changeset="1143737" lat="49.5106208" lon="8.6556135">
    <tag k="addr:city" v="Hirschberg-Leutershausen"/>
    <tag k="addr:housenumber" v="1"/>
    <tag k="addr:postcode" v="69493"/>
    <tag k="addr:street" v="Landstraße"/>
    <tag k="name" v="Autohaus Bontenakel"/>
    <tag k="shop" v="car"/>
  </node>
  <node id="347679018" version="3" timestamp="2012-03-05T14:25:01Z" uid="604523" user="673a" changeset="10879954" lat="49.510544" lon="8.6554179">
    <tag k="addr:city" v="Hirschberg-Leutershausen"/>
    <tag k="addr:housenumber" v="1"/>
    <tag k="addr:postcode" v="69493"/>
    <tag k="addr:street" v="Landstraße"/>
    <tag k="name" v="Autohaus Bontenakel"/>
    <tag k="shop" v="car"/>
  </node>
  <node id="347679020" version="1" timestamp="2009-02-19T20:30:09Z" uid="4667" user="MapZ" changeset="558735" lat="49.5005663" lon="8.6564824"/>
  <node id="347679020" version="2" timestamp="2009-03-26T20:40:40Z" uid="9581" user="Lobelt" changeset="861331" lat="49.5008275" lon="8.6564631"/>
  <node id="347679020" version="3" timestamp="2009-05-21T20:16:16Z" uid="9581" user="Lobelt" changeset="1280424" lat="49.5009767" lon="8.6564514"/>
  <node id="347679020" version="4" timestamp="2009-08-28T16:30:44Z" uid="9581" user="Lobelt" changeset="2292282" lat="49.5010775" lon="8.6564195"/>
  <node id="347679020" version="5" timestamp="2010-03-03T00:33:47Z" uid="9581" user="Lobelt" changeset="4021691" lat="49.5012302" lon="8.6564025"/>
  <node id="347679022" version="1" timestamp="2009-02-19T20:30:09Z" uid="4667" user="MapZ" changeset="558735" lat="49.500384" lon="8.6565262">
    <tag k="addr:city" v="Hirschberg-Leutershausen"/>
    <tag k="addr:housenumber" v="30"/>
    <tag k="addr:postcode" v="69493"/>
    <tag k="addr:street" v="Lindenstraße"/>
    <tag k="shop" v="car_repair"/>
  </node>
  <node id="347679022" version="2" timestamp="2012-01-26T11:14:29Z" uid="442210" user="dwausr" changeset="10501965" lat="49.500384" lon="8.6565262"/>
  <node id="347679022" version="3" timestamp="2012-03-27T13:44:01Z" uid="442210" user="dwausr" changeset="11116588" lat="49.500384" lon="8.6565262">
    <tag k="addr:city" v="Hirschberg-Leutershausen"/>
    <tag k="addr:housenumber" v="30"/>
    <tag k="addr:postcode" v="69493"/>
    <tag k="addr:street" v="Lindenstraße"/>
    <tag k="shop" v="car_repair"/>
  </node>
</osm>
