<?xml version='1.0' encoding='UTF-8'?>
<osm version="0.6" generator="libosmium/2.20.0">
  <node id="348128758" version="5" timestamp="2009-08-02T21:55:22Z" uid="20587" user="balrog-kun" changeset="2020184" lat="52.3775716" lon="16.9075136">
    <tag k="layer" v="2"/>
    <tag k="name" v="Wspólna"/>
    <tag k="railway" v="tram_stop"/>
  </node>
  <node id="348128758" version="6" timestamp="2009-09-09T19:18:29Z" uid="88909" user="miko101" changeset="2429149" lat="52.3775695" lon="16.9075146">
    <tag k="layer" v="2"/>
    <tag k="name" v="Wspólna"/>
    <tag k="railway" v="tram_stop"/>
  </node>
  <node id="348128758" version="7" timestamp="2009-09-11T16:42:19Z" uid="88909" user="miko101" changeset="2448646" lat="52.3775584" lon="16.9075339">
    <tag k="layer" v="2"/>
    <tag k="name" v="Wspólna"/>
    <tag k="railway" v="tram_stop"/>
  </node>
  <node id="348128758" version="8" timestamp="2009-09-13T09:52:33Z" uid="19417" user="xjr" changeset="2467314" lat="52.377558" lon="16.907535">
    <tag k="layer" v="2"/>
    <tag k="name" v="Wspólna"/>
    <tag k="railway" v="tram_stop"/>
  </node>
  <node id="348128758" version="9" timestamp="2011-02-13T21:00:49Z" uid="88909" user="miko101" changeset="7280546" lat="52.377558" lon="16.907535"/>
  <node id="348129751" version="2" timestamp="2009-06-26T17:52:53Z" uid="1066" user="pavel" changeset="1643268" lat="50.1085184" lon="14.3517983"/>
  <node id="348129751" version="3" timestamp="2010-12-05T21:44:04Z" uid="17615" user="Petr Dlouhý" changeset="6557325" lat="50.1085114" lon="14.3516734"/>
</osm>
