<?xml version='1.0' encoding='UTF-8'?>
<osm version="0.6" generator="libosmium/2.20.0">
  <node id="349280438" version="2" timestamp="2010-07-29T09:07:08Z" uid="74617" user="JohnSmith" changeset="5344848" lat="48.5415003" lon="8.8029163">
    <tag k="amenity" v="emergency_phone"/>
    <tag k="emergency" v="phone"/>
  </node>
  <node id="349280552" version="2" timestamp="2010-07-29T09:11:44Z" uid="74617" user="JohnSmith" changeset="5344848" lat="51.0624968" lon="13.3336552">
    <tag k="amenity" v="emergency_phone"/>
    <tag k="emergency" v="phone"/>
    <tag k="operator" v="Autobahnmeisterei"/>
  </node>
  <node id="349280554" version="2" timestamp="2010-07-29T09:41:09Z" uid="74617" user="JohnSmith" changeset="5344848" lat="51.0627623" lon="13.3340683">
    <tag k="amenity" v="emergency_phone"/>
    <tag k="emergency" v="phone"/>
    <tag k="operator" v="Autobahnmeisterei"/>
  </node>
  <node id="349280559" version="2" timestamp="2010-07-29T09:29:45Z" uid="74617" user="JohnSmith" changeset="5344848" lat="51.0591525" lon="13.3837626">
    <tag k="amenity" v="emergency_phone"/>
    <tag k="emergency" v="phone"/>
    <tag k="operator" v="Autobahnmeisterei"/>
  </node>
  <node id="349280560" version="2" timestamp="2010-07-29T09:20:43Z" uid="74617" user="JohnSmith" changeset="5344848" lat="51.05859" lon="13.3837906">
    <tag k="amenity" v="emergency_phone"/>
    <tag k="emergency" v="phone"/>
    <tag k="operator" v="Autobahnmeisterei"/>
  </node>
  <node id="349280561" version="2" timestamp="2010-07-29T09:26:59Z" uid="74617" user="JohnSmith" changeset="5344848" lat="51.0601065" lon="13.404591">
    <tag k="amenity" v="emergency_phone"/>
    <tag k="emergency" v="phone"/>
    <tag k="operator" v="Autobahnmeisterei"/>
  </node>
  <node id="349280562" version="2" timestamp="2010-07-29T09:06:36Z" uid="74617" user="JohnSmith" changeset="5344848" lat="51.0595666" lon="13.4047879">
    <tag k="amenity" v="emergency_phone"/>
    <tag k="emergency" v="phone"/>
    <tag k="operator" v="Autobahnmeisterei"/>
  </node>
  <node id="349280563" version="2" timestamp="2010-07-29T09:14:50Z" uid="74617" user="JohnSmith" changeset="5344848" lat="51.0577468" lon="13.4323789">
    <tag k="amenity" v="emergency_phone"/>
    <tag k="emergency" v="phone"/>
    <tag k="operator" v="Autobahnmeisterei"/>
  </node>
  <node id="349280565" version="2" timestamp="2010-07-29T09:11:24Z" uid="74617" user="JohnSmith" changeset="5344848" lat="51.0580325" lon="13.4324412">
    <tag k="amenity" v="emergency_phone"/>
    <tag k="emergency" v="phone"/>
    <tag k="operator" v="Autobahnmeisterei"/>
  </node>
  <node id="349280566" version="2" timestamp="2010-07-29T09:33:17Z" uid="74617" user="JohnSmith" changeset="5344848" lat="51.0604952" lon="13.4531715">
    <tag k="amenity" v="emergency_phone"/>
    <tag k="emergency" v="phone"/>
    <tag k="operator" v="Autobahnmeisterei"/>
  </node>
  <node id="349280568" version="2" timestamp="2010-07-29T09:29:18Z" uid="74617" user="JohnSmith" changeset="5344848" lat="51.0608733" lon="13.4531563">
    <tag k="amenity" v="emergency_phone"/>
    <tag k="emergency" v="phone"/>
    <tag k="operator" v="Autobahnmeisterei"/>
  </node>
  <node id="349280570" version="2" timestamp="2010-07-29T09:17:23Z" uid="74617" user="JohnSmith" changeset="5344848" lat="51.0591546" lon="13.4762153">
    <tag k="amenity" v="emergency_phone"/>
    <tag k="emergency" v="phone"/>
    <tag k="operator" v="Autobahnmeisterei"/>
  </node>
  <node id="349280571" version="2" timestamp="2010-07-29T09:24:17Z" uid="74617" user="JohnSmith" changeset="5344848" lat="51.0596338" lon="13.4761886">
    <tag k="amenity" v="emergency_phone"/>
    <tag k="emergency" v="phone"/>
    <tag k="operator" v="Autobahnmeisterei"/>
  </node>
  <node id="349280572" version="2" timestamp="2010-07-29T09:14:31Z" uid="74617" user="JohnSmith" changeset="5344848" lat="51.0599649" lon="13.4972936">
    <tag k="amenity" v="emergency_phone"/>
    <tag k="emergency" v="phone"/>
    <tag k="operator" v="Autobahnmeisterei"/>
  </node>
  <node id="349280574" version="2" timestamp="2010-07-29T08:58:02Z" uid="74617" user="JohnSmith" changeset="5344848" lat="51.0603299" lon="13.4969921">
    <tag k="amenity" v="emergency_phone"/>
    <tag k="emergency" v="phone"/>
    <tag k="operator" v="Autobahnmeisterei"/>
  </node>
  <node id="349280576" version="2" timestamp="2010-07-29T09:30:25Z" uid="74617" user="JohnSmith" changeset="5344848" lat="51.0603782" lon="13.5180801">
    <tag k="amenity" v="emergency_phone"/>
    <tag k="emergency" v="phone"/>
    <tag k="operator" v="Autobahnmeisterei"/>
  </node>
  <node id="349280577" version="2" timestamp="2010-07-29T09:38:51Z" uid="74617" user="JohnSmith" changeset="5344848" lat="51.0607542" lon="13.518244">
    <tag k="amenity" v="emergency_phone"/>
    <tag k="emergency" v="phone"/>
    <tag k="operator" v="Autobahnmeisterei"/>
  </node>
  <node id="349280579" version="2" timestamp="2010-07-29T09:25:21Z" uid="74617" user="JohnSmith" changeset="5344848" lat="51.0610521" lon="13.5470899">
    <tag k="amenity" v="emergency_phone"/>
    <tag k="emergency" v="phone"/>
    <tag k="operator" v="Autobahnmeisterei"/>
  </node>
  <node id="349280581" version="2" timestamp="2010-07-29T09:21:34Z" uid="74617" user="JohnSmith" changeset="5344848" lat="51.0614109" lon="13.5471091">
    <tag k="amenity" v="emergency_phone"/>
    <tag k="emergency" v="phone"/>
    <tag k="operator" v="Autobahnmeisterei"/>
  </node>
  <node id="349280583" version="2" timestamp="2010-07-29T09:08:15Z" uid="74617" user="JohnSmith" changeset="5344848" lat="51.0616295" lon="13.570774">
    <tag k="amenity" v="emergency_phone"/>
    <tag k="emergency" v="phone"/>
    <tag k="operator" v="Autobahnmeisterei"/>
  </node>
  <node id="349280585" version="2" timestamp="2010-07-29T09:02:06Z" uid="74617" user="JohnSmith" changeset="5344848" lat="51.0620239" lon="13.5707976">
    <tag k="amenity" v="emergency_phone"/>
    <tag k="emergency" v="phone"/>
    <tag k="operator" v="Autobahnmeisterei"/>
  </node>
  <node id="349280586" version="2" timestamp="2010-07-29T09:27:42Z" uid="74617" user="JohnSmith" changeset="5344848" lat="51.0537906" lon="13.6038291">
    <tag k="amenity" v="emergency_phone"/>
    <tag k="emergency" v="phone"/>
    <tag k="operator" v="Autobahnmeisterei"/>
  </node>
  <node id="349280588" version="2" timestamp="2010-07-29T09:25:03Z" uid="74617" user="JohnSmith" changeset="5344848" lat="51.053783" lon="13.6045368">
    <tag k="amenity" v="emergency_phone"/>
    <tag k="emergency" v="phone"/>
    <tag k="operator" v="Autobahnmeisterei"/>
  </node>
  <node id="349281273" version="4" timestamp="2009-11-06T01:51:36Z" uid="36809" user="pfoten_weg_!_" changeset="3045160" lat="47.6953191" lon="11.3686059"/>
  <node id="349281273" version="5" timestamp="2009-11-26T16:00:25Z" uid="64756" user="alegria6208" changeset="3221229" lat="47.6952384" lon="11.3687858"/>
  <node id="349281277" version="3" timestamp="2009-11-06T01:52:28Z" uid="36809" user="pfoten_weg_!_" changeset="3045160" lat="47.694018" lon="11.3710563"/>
  <node id="349281277" version="4" timestamp="2009-11-26T16:00:25Z" uid="64756" user="alegria6208" changeset="3221229" lat="47.694018" lon="11.3709483"/>
  <node id="349281650" version="1" timestamp="2009-02-22T20:39:27Z" uid="20587" user="balrog-kun" changeset="616326" lat="52.2453764" lon="21.0831862">
    <tag k="name" v="Rondo Wiatraczna 05"/>
    <tag k="railway" v="tram_stop"/>
  </node>
  <node id="349281650" version="2" timestamp="2009-10-14T10:19:42Z" uid="20587" user="balrog-kun" changeset="2844081" lat="52.2453764" lon="21.0831862">
    <tag k="name" v="Rondo Wiatraczna 05"/>
    <tag k="railway" v="tram_stop"/>
    <tag k="tactile_paving" v="yes"/>
  </node>
  <node id="349281650" version="3" timestamp="2009-10-28T13:10:28Z" uid="20587" user="balrog-kun" changeset="2973097" lat="52.2453764" lon="21.0831862">
    <tag k="name" v="Rondo Wiatraczna 05"/>
    <tag k="railway" v="tram_stop"/>
    <tag k="tactile_paving" v="no"/>
  </node>
  <node id="349281650" version="4" timestamp="2009-11-27T13:44:27Z" uid="20587" user="balrog-kun" changeset="3228126" lat="52.24537" lon="21.0831851">
    <tag k="name" v="Rondo Wiatraczna 05"/>
    <tag k="railway" v="tram_stop"/>
    <tag k="tactile_paving" v="no"/>
  </node>
  <node id="349281650" version="5" timestamp="2010-01-12T13:53:52Z" uid="20587" user="balrog-kun" changeset="3603234" lat="52.24537" lon="21.0831851">
    <tag k="name" v="Rondo Wiatraczna 05"/>
    <tag k="railway" v="tram_stop"/>
    <tag k="tactile_paving" v="no"/>
  </node>
  <node id="349281650" version="6" timestamp="2010-01-13T14:45:15Z" uid="20587" user="balrog-kun" changeset="3610428" lat="52.24537" lon="21.0831851">
    <tag k="name" v="Rondo Wiatraczna 05"/>
    <tag k="railway" v="tram_stop"/>
    <tag k="tactile_paving" v="no"/>
    <tag k="ztm:ciąg_ulicy" v="Grochowska"/>
  </node>
  <node id="349281650" version="7" timestamp="2010-05-27T12:18:03Z" uid="20587" user="balrog-kun" changeset="4821472" lat="52.2453854" lon="21.0831474">
    <tag k="name" v="Rondo Wiatraczna 05"/>
    <tag k="railway" v="tram_stop"/>
    <tag k="tactile_paving" v="no"/>
    <tag k="ztm:ciąg_ulicy" v="Grochowska"/>
  </node>
  <node id="349281650" version="8" timestamp="2011-10-07T11:36:10Z" uid="373244" user="Tomekg" changeset="9492727" lat="52.2453854" lon="21.0831474">
    <tag k="name" v="Wiatraczna 05"/>
    <tag k="railway" v="tram_stop"/>
    <tag k="tactile_paving" v="no"/>
    <tag k="ztm:ciąg_ulicy" v="Grochowska"/>
  </node>
  <node id="349281651" version="1" timestamp="2009-02-22T20:39:27Z" uid="20587" user="balrog-kun" changeset="616326" lat="52.2453087" lon="21.0834512">
    <tag k="name" v="Rondo Wiatraczna 04"/>
    <tag k="railway" v="tram_stop"/>
  </node>
  <node id="349281651" version="2" timestamp="2009-10-14T10:19:43Z" uid="20587" user="balrog-kun" changeset="2844081" lat="52.2453087" lon="21.0834512">
    <tag k="name" v="Rondo Wiatraczna 04"/>
    <tag k="railway" v="tram_stop"/>
    <tag k="tactile_paving" v="yes"/>
  </node>
  <node id="349281651" version="3" timestamp="2009-10-28T13:10:28Z" uid="20587" user="balrog-kun" changeset="2973097" lat="52.2453087" lon="21.0834512">
    <tag k="name" v="Rondo Wiatraczna 04"/>
    <tag k="railway" v="tram_stop"/>
    <tag k="tactile_paving" v="no"/>
  </node>
  <node id="349281651" version="4" timestamp="2010-01-12T13:53:52Z" uid="20587" user="balrog-kun" changeset="3603234" lat="52.2453087" lon="21.0834512">
    <tag k="name" v="Rondo Wiatraczna 04"/>
    <tag k="railway" v="tram_stop"/>
    <tag k="tactile_paving" v="no"/>
  </node>
  <node id="349281651" version="5" timestamp="2010-01-13T14:45:15Z" uid="20587" user="balrog-kun" changeset="3610428" lat="52.2453087" lon="21.0834512">
    <tag k="name" v="Rondo Wiatraczna 04"/>
    <tag k="railway" v="tram_stop"/>
    <tag k="tactile_paving" v="no"/>
    <tag k="ztm:ciąg_ulicy" v="Grochowska"/>
  </node>
  <node id="349281651" version="6" timestamp="2010-01-15T23:11:15Z" uid="20587" user="balrog-kun" changeset="3628241" lat="52.245321" lon="21.0834299">
    <tag k="name" v="Rondo Wiatraczna 04"/>
    <tag k="railway" v="tram_stop"/>
    <tag k="tactile_paving" v="no"/>
    <tag k="ztm:ciąg_ulicy" v="Grochowska"/>
  </node>
  <node id="349281651" version="7" timestamp="2010-05-27T12:17:26Z" uid="20587" user="balrog-kun" changeset="4821472" lat="52.2453417" lon="21.0833829">
    <tag k="name" v="Rondo Wiatraczna 04"/>
    <tag k="railway" v="tram_stop"/>
    <tag k="tactile_paving" v="no"/>
    <tag k="ztm:ciąg_ulicy" v="Grochowska"/>
  </node>
  <node id="349281651" version="8" timestamp="2011-10-07T11:36:09Z" uid="373244" user="Tomekg" changeset="9492727" lat="52.2453417" lon="21.0833829">
    <tag k="name" v="Wiatraczna 04"/>
    <tag k="railway" v="tram_stop"/>
    <tag k="tactile_paving" v="no"/>
    <tag k="ztm:ciąg_ulicy" v="Grochowska"/>
  </node>
  <node id="349281652" version="1" timestamp="2009-02-22T20:39:27Z" uid="20587" user="balrog-kun" changeset="616326" lat="52.2460276" lon="21.0756449">
    <tag k="amenity" v="citymap_post"/>
    <tag k="note" v="TODO: tourism=information?"/>
    <tag k="operator" v="MSI"/>
  </node>
  <node id="349281652" version="2" timestamp="2009-05-13T22:07:28Z" uid="20587" user="balrog-kun" changeset="1181113" lat="52.2460055" lon="21.0753117">
    <tag k="amenity" v="citymap_post"/>
    <tag k="note" v="TODO: tourism=information?"/>
    <tag k="operator" v="MSI"/>
  </node>
  <node id="349281653" version="1" timestamp="2009-02-22T20:39:27Z" uid="20587" user="balrog-kun" changeset="616326" lat="52.2458707" lon="21.0745533">
    <tag k="name" v="Międzyborska 03"/>
    <tag k="railway" v="tram_stop"/>
  </node>
  <node id="349281653" version="2" timestamp="2009-02-22T20:44:22Z" uid="20587" user="balrog-kun" changeset="616326" lat="52.2458707" lon="21.0745533">
    <tag k="name" v="Międzyborska 04"/>
    <tag k="railway" v="tram_stop"/>
  </node>
  <node id="349281653" version="3" timestamp="2009-05-13T22:07:28Z" uid="20587" user="balrog-kun" changeset="1181113" lat="52.2458707" lon="21.0745533">
    <tag k="highway" v="crossing"/>
    <tag k="name" v="Międzyborska 04"/>
    <tag k="railway" v="tram_stop"/>
  </node>
  <node id="349281653" version="4" timestamp="2009-05-30T16:54:42Z" uid="128018" user="Tomek" changeset="1361079" lat="52.2458707" lon="21.0745533">
    <tag k="highway" v="crossing"/>
    <tag k="name" v="Międzyborska 04"/>
    <tag k="railway" v="tram_stop"/>
  </node>
  <node id="349281653" version="5" timestamp="2009-10-16T11:49:50Z" uid="20587" user="balrog-kun" changeset="2863860" lat="52.2458707" lon="21.0745533">
    <tag k="highway" v="crossing"/>
    <tag k="name" v="Międzyborska 04"/>
    <tag k="railway" v="tram_stop"/>
    <tag k="tactile_paving" v="yes"/>
  </node>
  <node id="349281653" version="6" timestamp="2009-10-28T13:10:28Z" uid="20587" user="balrog-kun" changeset="2973097" lat="52.2458707" lon="21.0745533">
    <tag k="highway" v="crossing"/>
    <tag k="name" v="Międzyborska 04"/>
    <tag k="railway" v="tram_stop"/>
    <tag k="tactile_paving" v="no"/>
  </node>
  <node id="349281653" version="7" timestamp="2010-01-11T23:48:06Z" uid="20587" user="balrog-kun" changeset="3600236" lat="52.2458707" lon="21.0745533">
    <tag k="highway" v="crossing"/>
    <tag k="name" v="Międzyborska 04"/>
    <tag k="old_name" v="Kino &quot;1 Maj&quot;"/>
    <tag k="railway" v="tram_stop"/>
    <tag k="tactile_paving" v="no"/>
  </node>
  <node id="349281653" version="8" timestamp="2010-01-12T13:53:51Z" uid="20587" user="balrog-kun" changeset="3603234" lat="52.2458707" lon="21.0745533">
    <tag k="highway" v="crossing"/>
    <tag k="name" v="Międzyborska 04"/>
    <tag k="old_name" v="Kino &quot;1 Maj&quot;"/>
    <tag k="railway" v="tram_stop"/>
    <tag k="tactile_paving" v="no"/>
  </node>
  <node id="349281653" version="9" timestamp="2010-01-13T14:45:15Z" uid="20587" user="balrog-kun" changeset="3610428" lat="52.2458707" lon="21.0745533">
    <tag k="highway" v="crossing"/>
    <tag k="name" v="Międzyborska 04"/>
    <tag k="old_name" v="Kino &quot;1 Maj&quot;"/>
    <tag k="railway" v="tram_stop"/>
    <tag k="tactile_paving" v="no"/>
    <tag k="ztm:ciąg_ulicy" v="Grochowska"/>
  </node>
  <node id="349281653" version="10" timestamp="2010-01-15T23:44:54Z" uid="20587" user="balrog-kun" changeset="3628425" lat="52.2458884" lon="21.0745583">
    <tag k="highway" v="crossing"/>
  </node>
  <node id="349281655" version="1" timestamp="2009-02-22T20:39:28Z" uid="20587" user="balrog-kun" changeset="616326" lat="52.2456122" lon="21.078896">
    <tag k="name" v="Kickiego 01"/>
    <tag k="railway" v="tram_stop"/>
  </node>
  <node id="349281655" version="2" timestamp="2009-05-30T16:54:41Z" uid="128018" user="Tomek" changeset="1361079" lat="52.2456122" lon="21.0788959">
    <tag k="name" v="Kickiego 01"/>
    <tag k="railway" v="tram_stop"/>
  </node>
  <node id="349281655" version="3" timestamp="2009-10-16T11:49:50Z" uid="20587" user="balrog-kun" changeset="2863860" lat="52.2456122" lon="21.0788959">
    <tag k="name" v="Kickiego 01"/>
    <tag k="railway" v="tram_stop"/>
    <tag k="tactile_paving" v="yes"/>
  </node>
  <node id="349281655" version="4" timestamp="2009-10-28T13:10:28Z" uid="20587" user="balrog-kun" changeset="2973097" lat="52.2456122" lon="21.0788959">
    <tag k="name" v="Kickiego 01"/>
    <tag k="railway" v="tram_stop"/>
    <tag k="tactile_paving" v="no"/>
  </node>
  <node id="349281655" version="5" timestamp="2010-01-12T13:53:52Z" uid="20587" user="balrog-kun" changeset="3603234" lat="52.2456122" lon="21.0788959">
    <tag k="name" v="Kickiego 01"/>
    <tag k="railway" v="tram_stop"/>
    <tag k="tactile_paving" v="no"/>
  </node>
  <node id="349281655" version="6" timestamp="2010-01-13T14:45:15Z" uid="20587" user="balrog-kun" changeset="3610428" lat="52.2456122" lon="21.0788959">
    <tag k="name" v="Kickiego 01"/>
    <tag k="railway" v="tram_stop"/>
    <tag k="tactile_paving" v="no"/>
    <tag k="ztm:ciąg_ulicy" v="Grochowska"/>
  </node>
  <node id="349281655" version="7" timestamp="2010-01-15T23:44:54Z" uid="20587" user="balrog-kun" changeset="3628425" lat="52.2456224" lon="21.0789044">
    <tag k="name" v="Kickiego 01"/>
    <tag k="railway" v="tram_stop"/>
    <tag k="tactile_paving" v="no"/>
    <tag k="ztm:ciąg_ulicy" v="Grochowska"/>
  </node>
  <node id="349281655" version="8" timestamp="2011-10-07T11:22:37Z" uid="373244" user="Tomekg" changeset="9492727" lat="52.2456378" lon="21.0788394">
    <tag k="name" v="Kickiego 01"/>
    <tag k="railway" v="tram_stop"/>
    <tag k="tactile_paving" v="no"/>
    <tag k="ztm:ciąg_ulicy" v="Grochowska"/>
  </node>
  <node id="349281656" version="1" timestamp="2009-02-22T20:39:28Z" uid="20587" user="balrog-kun" changeset="616326" lat="52.2455878" lon="21.0792952">
    <tag k="name" v="Kickiego 02"/>
    <tag k="railway" v="tram_stop"/>
  </node>
  <node id="349281656" version="2" timestamp="2009-05-30T16:54:41Z" uid="128018" user="Tomek" changeset="1361079" lat="52.2455878" lon="21.0792952">
    <tag k="name" v="Kickiego 02"/>
    <tag k="railway" v="tram_stop"/>
  </node>
  <node id="349281656" version="3" timestamp="2009-10-16T11:49:51Z" uid="20587" user="balrog-kun" changeset="2863860" lat="52.2455878" lon="21.0792952">
    <tag k="name" v="Kickiego 02"/>
    <tag k="railway" v="tram_stop"/>
    <tag k="tactile_paving" v="yes"/>
  </node>
  <node id="349281656" version="4" timestamp="2009-10-28T13:10:28Z" uid="20587" user="balrog-kun" changeset="2973097" lat="52.2455878" lon="21.0792952">
    <tag k="name" v="Kickiego 02"/>
    <tag k="railway" v="tram_stop"/>
    <tag k="tactile_paving" v="no"/>
  </node>
  <node id="349281656" version="5" timestamp="2010-01-12T13:53:51Z" uid="20587" user="balrog-kun" changeset="3603234" lat="52.2455878" lon="21.0792952">
    <tag k="name" v="Kickiego 02"/>
    <tag k="railway" v="tram_stop"/>
    <tag k="tactile_paving" v="no"/>
  </node>
  <node id="349281656" version="6" timestamp="2010-01-13T14:45:15Z" uid="20587" user="balrog-kun" changeset="3610428" lat="52.2455878" lon="21.0792952">
    <tag k="name" v="Kickiego 02"/>
    <tag k="railway" v="tram_stop"/>
    <tag k="tactile_paving" v="no"/>
    <tag k="ztm:ciąg_ulicy" v="Grochowska"/>
  </node>
  <node id="349281656" version="7" timestamp="2010-01-15T23:44:54Z" uid="20587" user="balrog-kun" changeset="3628425" lat="52.2455986" lon="21.0792952"/>
  <node id="349281656" version="8" timestamp="2011-10-07T11:22:37Z" uid="373244" user="Tomekg" changeset="9492727" lat="52.2455984" lon="21.0795118"/>
  <node id="349281847" version="2" timestamp="2010-07-29T08:57:46Z" uid="74617" user="JohnSmith" changeset="5344848" lat="51.0391244" lon="13.610997">
    <tag k="amenity" v="emergency_phone"/>
    <tag k="emergency" v="phone"/>
    <tag k="operator" v="Autobahnmeisterei"/>
  </node>
  <node id="349281849" version="2" timestamp="2010-07-29T09:40:12Z" uid="74617" user="JohnSmith" changeset="5344848" lat="51.0373622" lon="13.6138635">
    <tag k="amenity" v="emergency_phone"/>
    <tag k="emergency" v="phone"/>
    <tag k="operator" v="Autobahnmeisterei"/>
  </node>
  <node id="349281851" version="3" timestamp="2010-07-29T09:26:22Z" uid="74617" user="JohnSmith" changeset="5344848" lat="51.0368835" lon="13.6286673">
    <tag k="amenity" v="emergency_phone"/>
    <tag k="emergency" v="phone"/>
    <tag k="operator" v="Autobahnmeisterei"/>
  </node>
  <node id="349281853" version="3" timestamp="2010-07-29T09:23:30Z" uid="74617" user="JohnSmith" changeset="5344848" lat="51.0365097" lon="13.6284976">
    <tag k="amenity" v="emergency_phone"/>
    <tag k="emergency" v="phone"/>
    <tag k="operator" v="Autobahnmeisterei"/>
  </node>
  <node id="349281855" version="2" timestamp="2010-07-29T09:10:24Z" uid="74617" user="JohnSmith" changeset="5344848" lat="51.0356461" lon="13.6498008">
    <tag k="amenity" v="emergency_phone"/>
    <tag k="emergency" v="phone"/>
    <tag k="operator" v="Autobahnmeisterei"/>
  </node>
  <node id="349281857" version="2" timestamp="2010-07-29T09:41:17Z" uid="74617" user="JohnSmith" changeset="5344848" lat="51.0360238" lon="13.6497287">
    <tag k="amenity" v="emergency_phone"/>
    <tag k="emergency" v="phone"/>
    <tag k="operator" v="Autobahnmeisterei"/>
  </node>
  <node id="349281859" version="2" timestamp="2010-07-29T09:27:28Z" uid="74617" user="JohnSmith" changeset="5344848" lat="51.028807" lon="13.6747212">
    <tag k="amenity" v="emergency_phone"/>
    <tag k="emergency" v="phone"/>
    <tag k="operator" v="Autobahnmeisterei"/>
  </node>
  <node id="349281860" version="8" timestamp="2009-12-14T19:45:05Z" uid="9581" user="Lobelt" changeset="3374487" lat="49.5385876" lon="8.6607928"/>
  <node id="349281860" version="9" timestamp="2011-01-03T10:48:25Z" uid="297419" user="Dresl" changeset="6848000" lat="49.5385693" lon="8.6606944"/>
  <node id="349281862" version="2" timestamp="2010-07-29T09:01:44Z" uid="74617" user="JohnSmith" changeset="5344848" lat="51.0283387" lon="13.6741288">
    <tag k="amenity" v="emergency_phone"/>
    <tag k="emergency" v="phone"/>
    <tag k="operator" v="Autobahnmeisterei"/>
  </node>
  <node id="349281975" version="2" timestamp="2010-12-09T02:37:44Z" uid="6269" user="Mueck" changeset="6591496" lat="53.5850537" lon="8.5980151"/>
  <node id="349282698" version="2" timestamp="2010-12-21T00:39:50Z" uid="6269" user="Mueck" changeset="6721616" lat="53.5810179" lon="8.6203297"/>
  <node id="349282698" version="3" timestamp="2012-03-04T19:44:25Z" uid="45882" user="smarties" changeset="10873020" lat="53.5810179" lon="8.6203297"/>
  <node id="349282699" version="2" timestamp="2010-12-21T00:39:47Z" uid="6269" user="Mueck" changeset="6721616" lat="53.5809974" lon="8.6204252"/>
  <node id="349282699" version="3" timestamp="2012-03-04T19:44:25Z" uid="45882" user="smarties" changeset="10873020" lat="53.5809974" lon="8.6204252"/>
  <node id="349282700" version="6" timestamp="2009-12-14T19:45:05Z" uid="9581" user="Lobelt" changeset="3374487" lat="49.5385666" lon="8.6620944"/>
  <node id="349282701" version="6" timestamp="2009-12-14T19:45:06Z" uid="9581" user="Lobelt" changeset="3374487" lat="49.5389634" lon="8.6616604"/>
  <node id="349282701" version="7" timestamp="2011-01-03T10:48:27Z" uid="297419" user="Dresl" changeset="6848000" lat="49.5389659" lon="8.6616456"/>
  <node id="349282703" version="6" timestamp="2009-12-14T19:45:06Z" uid="9581" user="Lobelt" changeset="3374487" lat="49.539455" lon="8.6614491"/>
  <node id="349282705" version="6" timestamp="2009-12-14T19:45:06Z" uid="9581" user="Lobelt" changeset="3374487" lat="49.538976" lon="8.6608944"/>
  <node id="349282705" version="7" timestamp="2011-01-03T10:48:29Z" uid="297419" user="Dresl" changeset="6848000" lat="49.5386789" lon="8.6608096"/>
  <node id="349282862" version="1" timestamp="2009-02-22T20:44:20Z" uid="20587" user="balrog-kun" changeset="616326" lat="52.2464313" lon="21.0679292">
    <tag k="amenity" v="post_box"/>
  </node>
  <node id="349282870" version="1" timestamp="2009-02-22T20:44:20Z" uid="20587" user="balrog-kun" changeset="616326" lat="52.2461422" lon="21.0699578">
    <tag k="name" v="Praga Południe Ratusz 03"/>
    <tag k="railway" v="tram_stop"/>
  </node>
  <node id="349282870" version="2" timestamp="2009-05-30T16:51:56Z" uid="128018" user="Tomek" changeset="1361045" lat="52.2461422" lon="21.0699577">
    <tag k="name" v="PRAGA PŁD.-RATUSZ 03"/>
    <tag k="railway" v="tram_stop"/>
  </node>
  <node id="349282870" version="3" timestamp="2009-05-30T16:54:42Z" uid="128018" user="Tomek" changeset="1361079" lat="52.2461422" lon="21.0699577">
    <tag k="name" v="PRAGA PŁD.-RATUSZ 03"/>
    <tag k="railway" v="tram_stop"/>
  </node>
  <node id="349282870" version="4" timestamp="2009-06-25T15:37:01Z" uid="20587" user="balrog-kun" changeset="1624061" lat="52.2461422" lon="21.0699577">
    <tag k="name" v="Praga Południe-Ratusz 03"/>
    <tag k="railway" v="tram_stop"/>
  </node>
  <node id="349282870" version="5" timestamp="2009-10-16T11:49:50Z" uid="20587" user="balrog-kun" changeset="2863860" lat="52.2461422" lon="21.0699577">
    <tag k="name" v="Praga Południe-Ratusz 03"/>
    <tag k="railway" v="tram_stop"/>
    <tag k="tactile_paving" v="yes"/>
  </node>
  <node id="349282870" version="6" timestamp="2009-11-23T17:33:29Z" uid="20587" user="balrog-kun" changeset="3197568" lat="52.2461422" lon="21.0699577">
    <tag k="name" v="Praga Południe-Ratusz 03"/>
    <tag k="railway" v="tram_stop"/>
    <tag k="tactile_paving" v="no"/>
  </node>
  <node id="349282870" version="7" timestamp="2010-01-11T23:48:06Z" uid="20587" user="balrog-kun" changeset="3600236" lat="52.2461422" lon="21.0699577">
    <tag k="name" v="Praga Południe-Ratusz 03"/>
    <tag k="old_name" v="Instytut Weterynarii"/>
    <tag k="railway" v="tram_stop"/>
    <tag k="tactile_paving" v="no"/>
  </node>
  <node id="349282870" version="8" timestamp="2010-01-12T13:53:51Z" uid="20587" user="balrog-kun" changeset="3603234" lat="52.2461422" lon="21.0699577">
    <tag k="name" v="Praga Południe-Ratusz 03"/>
    <tag k="old_name" v="Instytut Weterynarii"/>
    <tag k="railway" v="tram_stop"/>
    <tag k="tactile_paving" v="no"/>
  </node>
  <node id="349282870" version="9" timestamp="2010-01-13T14:45:14Z" uid="20587" user="balrog-kun" changeset="3610428" lat="52.2461422" lon="21.0699577">
    <tag k="name" v="Praga Południe-Ratusz 03"/>
    <tag k="old_name" v="Instytut Weterynarii"/>
    <tag k="railway" v="tram_stop"/>
    <tag k="tactile_paving" v="no"/>
    <tag k="ztm:ciąg_ulicy" v="Grochowska"/>
  </node>
  <node id="349282870" version="10" timestamp="2010-01-15T23:44:53Z" uid="20587" user="balrog-kun" changeset="3628425" lat="52.246152" lon="21.069963">
    <tag k="name" v="Praga Południe-Ratusz 03"/>
    <tag k="old_name" v="Instytut Weterynarii"/>
    <tag k="railway" v="tram_stop"/>
    <tag k="tactile_paving" v="no"/>
    <tag k="ztm:ciąg_ulicy" v="Grochowska"/>
  </node>
  <node id="349282870" version="11" timestamp="2010-06-19T02:58:47Z" uid="20587" user="balrog-kun" changeset="5020735" lat="52.2461622" lon="21.069963">
    <tag k="name" v="Praga Południe-Ratusz 03"/>
    <tag k="old_name" v="Instytut Weterynarii"/>
    <tag k="railway" v="tram_stop"/>
    <tag k="tactile_paving" v="no"/>
    <tag k="ztm:ciąg_ulicy" v="Grochowska"/>
  </node>
  <node id="349282877" version="1" timestamp="2009-02-22T20:44:21Z" uid="20587" user="balrog-kun" changeset="616326" lat="52.2461929" lon="21.0692122">
    <tag k="name" v="Praga Południe Ratusz 04"/>
    <tag k="railway" v="tram_stop"/>
  </node>
  <node id="349282877" version="2" timestamp="2009-05-30T16:51:56Z" uid="128018" user="Tomek" changeset="1361045" lat="52.2461929" lon="21.0692122">
    <tag k="name" v="PRAGA PŁD.-RATUSZ 04"/>
    <tag k="railway" v="tram_stop"/>
  </node>
  <node id="349282877" version="3" timestamp="2009-05-30T16:54:42Z" uid="128018" user="Tomek" changeset="1361079" lat="52.2461929" lon="21.0692122">
    <tag k="name" v="PRAGA PŁD.-RATUSZ 04"/>
    <tag k="railway" v="tram_stop"/>
  </node>
  <node id="349282877" version="4" timestamp="2009-06-25T15:37:00Z" uid="20587" user="balrog-kun" changeset="1624061" lat="52.2461929" lon="21.0692122">
    <tag k="name" v="Praga Południe-Ratusz 04"/>
    <tag k="railway" v="tram_stop"/>
  </node>
  <node id="349282877" version="5" timestamp="2009-10-16T11:49:50Z" uid="20587" user="balrog-kun" changeset="2863860" lat="52.2461929" lon="21.0692122">
    <tag k="name" v="Praga Południe-Ratusz 04"/>
    <tag k="railway" v="tram_stop"/>
    <tag k="tactile_paving" v="yes"/>
  </node>
  <node id="349282877" version="6" timestamp="2009-11-23T17:33:29Z" uid="20587" user="balrog-kun" changeset="3197568" lat="52.2461929" lon="21.0692122">
    <tag k="name" v="Praga Południe-Ratusz 04"/>
    <tag k="railway" v="tram_stop"/>
    <tag k="tactile_paving" v="no"/>
  </node>
  <node id="349282877" version="7" timestamp="2010-01-11T23:48:06Z" uid="20587" user="balrog-kun" changeset="3600236" lat="52.2461929" lon="21.0692122">
    <tag k="name" v="Praga Południe-Ratusz 04"/>
    <tag k="old_name" v="Instytut Weterynarii"/>
    <tag k="railway" v="tram_stop"/>
    <tag k="tactile_paving" v="no"/>
  </node>
  <node id="349282877" version="8" timestamp="2010-01-12T13:53:50Z" uid="20587" user="balrog-kun" changeset="3603234" lat="52.2461929" lon="21.0692122">
    <tag k="name" v="Praga Południe-Ratusz 04"/>
    <tag k="old_name" v="Instytut Weterynarii"/>
    <tag k="railway" v="tram_stop"/>
    <tag k="tactile_paving" v="no"/>
  </node>
  <node id="349282877" version="9" timestamp="2010-01-13T14:45:14Z" uid="20587" user="balrog-kun" changeset="3610428" lat="52.2461929" lon="21.0692122">
    <tag k="name" v="Praga Południe-Ratusz 04"/>
    <tag k="old_name" v="Instytut Weterynarii"/>
    <tag k="railway" v="tram_stop"/>
    <tag k="tactile_paving" v="no"/>
    <tag k="ztm:ciąg_ulicy" v="Grochowska"/>
  </node>
  <node id="349282877" version="10" timestamp="2010-01-15T23:44:53Z" uid="20587" user="balrog-kun" changeset="3628425" lat="52.2462027" lon="21.0692175"/>
  <node id="349282877" version="11" timestamp="2010-06-19T02:58:52Z" uid="20587" user="balrog-kun" changeset="5020735" lat="52.2462135" lon="21.0692195"/>
  <node id="349282878" version="1" timestamp="2009-02-22T20:44:21Z" uid="20587" user="balrog-kun" changeset="616326" lat="52.2456663" lon="21.074437">
    <tag k="highway" v="bus_stop"/>
    <tag k="name" v="Międzyborska 02"/>
  </node>
  <node id="349282878" version="2" timestamp="2009-05-13T22:07:28Z" uid="20587" user="balrog-kun" changeset="1181113" lat="52.2457155" lon="21.0742411">
    <tag k="highway" v="bus_stop"/>
    <tag k="name" v="Międzyborska 02"/>
  </node>
  <node id="349282879" version="1" timestamp="2009-02-22T20:44:21Z" uid="20587" user="balrog-kun" changeset="616326" lat="52.2460024" lon="21.0689023">
    <tag k="amenity" v="post_box"/>
  </node>
  <node id="349282879" version="2" timestamp="2009-06-06T17:01:23Z" uid="20587" user="balrog-kun" changeset="1440346" lat="52.2457038" lon="21.073868">
    <tag k="amenity" v="post_box"/>
  </node>
  <node id="349282880" version="1" timestamp="2009-02-22T20:44:21Z" uid="20587" user="balrog-kun" changeset="616326" lat="52.2462189" lon="21.0716638">
    <tag k="amenity" v="post_box"/>
  </node>
  <node id="349282889" version="2" timestamp="2009-10-17T23:37:50Z" uid="36809" user="pfoten_weg_!_" changeset="2879001" lat="47.699808" lon="11.422796"/>
  <node id="349282889" version="3" timestamp="2009-11-26T13:37:13Z" uid="64756" user="alegria6208" changeset="3220259" lat="47.6998543" lon="11.4229237"/>
  <node id="349282889" version="4" timestamp="2011-04-22T18:51:29Z" uid="361746" user="raupach" changeset="7937571" lat="47.6998822" lon="11.4228795"/>
  <node id="349282890" version="3" timestamp="2009-10-17T23:37:52Z" uid="36809" user="pfoten_weg_!_" changeset="2879001" lat="47.6996806" lon="11.422418"/>
  <node id="349282890" version="4" timestamp="2009-11-26T13:37:13Z" uid="64756" user="alegria6208" changeset="3220259" lat="47.6996938" lon="11.4226538"/>
  <node id="349282890" version="5" timestamp="2011-04-22T18:51:36Z" uid="361746" user="raupach" changeset="7937571" lat="47.6997384" lon="11.4226234"/>
  <node id="349282891" version="3" timestamp="2009-10-17T23:37:51Z" uid="36809" user="pfoten_weg_!_" changeset="2879001" lat="47.6995872" lon="11.4218621"/>
  <node id="349282891" version="4" timestamp="2009-11-26T13:37:13Z" uid="64756" user="alegria6208" changeset="3220259" lat="47.6995343" lon="11.4219063"/>
  <node id="349282891" version="5" timestamp="2011-04-22T18:51:35Z" uid="361746" user="raupach" changeset="7937571" lat="47.699592" lon="11.4219008"/>
  <node id="349282892" version="2" timestamp="2009-10-17T23:37:52Z" uid="36809" user="pfoten_weg_!_" changeset="2879001" lat="47.699401" lon="11.420897"/>
  <node id="349282892" version="3" timestamp="2009-11-26T13:37:13Z" uid="64756" user="alegria6208" changeset="3220259" lat="47.6994671" lon="11.4213638"/>
  <node id="349282893" version="3" timestamp="2009-10-17T23:37:51Z" uid="36809" user="pfoten_weg_!_" changeset="2879001" lat="47.6992444" lon="11.4203334"/>
  <node id="349282893" version="4" timestamp="2009-11-26T13:37:13Z" uid="64756" user="alegria6208" changeset="3220259" lat="47.6992609" lon="11.4205005"/>
  <node id="349282894" version="3" timestamp="2009-10-17T23:37:46Z" uid="36809" user="pfoten_weg_!_" changeset="2879001" lat="47.6991275" lon="11.4201249"/>
  <node id="349282894" version="4" timestamp="2009-11-26T13:37:11Z" uid="64756" user="alegria6208" changeset="3220259" lat="47.6991672" lon="11.4203067"/>
  <node id="349282895" version="3" timestamp="2009-10-17T23:37:46Z" uid="36809" user="pfoten_weg_!_" changeset="2879001" lat="47.6988704" lon="11.4198122"/>
  <node id="349282895" version="4" timestamp="2009-11-26T13:37:11Z" uid="64756" user="alegria6208" changeset="3220259" lat="47.6988605" lon="11.4198761"/>
  <node id="349282896" version="3" timestamp="2009-10-17T23:37:44Z" uid="36809" user="pfoten_weg_!_" changeset="2879001" lat="47.6986445" lon="11.4195806"/>
  <node id="349282896" version="4" timestamp="2009-11-26T13:37:11Z" uid="64756" user="alegria6208" changeset="3220259" lat="47.6986511" lon="11.4196248"/>
  <node id="349282897" version="3" timestamp="2009-10-17T23:37:38Z" uid="36809" user="pfoten_weg_!_" changeset="2879001" lat="47.6984419" lon="11.4195343"/>
  <node id="349282897" version="4" timestamp="2009-11-26T13:37:11Z" uid="64756" user="alegria6208" changeset="3220259" lat="47.6984617" lon="11.4195883"/>
  <node id="349282898" version="2" timestamp="2009-10-17T23:37:38Z" uid="36809" user="pfoten_weg_!_" changeset="2879001" lat="47.698374" lon="11.419553"/>
  <node id="349282898" version="3" timestamp="2009-11-26T13:37:11Z" uid="64756" user="alegria6208" changeset="3220259" lat="47.698288" lon="11.4195727"/>
  <node id="349282899" version="3" timestamp="2009-10-17T23:37:37Z" uid="36809" user="pfoten_weg_!_" changeset="2879001" lat="47.698216" lon="11.4195111"/>
  <node id="349282899" version="4" timestamp="2009-11-26T13:37:11Z" uid="64756" user="alegria6208" changeset="3220259" lat="47.6981598" lon="11.4195013"/>
  <node id="349282900" version="3" timestamp="2009-10-17T23:37:39Z" uid="36809" user="pfoten_weg_!_" changeset="2879001" lat="47.6980835" lon="11.4193606"/>
  <node id="349282901" version="2" timestamp="2009-10-17T23:37:40Z" uid="36809" user="pfoten_weg_!_" changeset="2879001" lat="47.698017" lon="11.419086"/>
  <node id="349282902" version="3" timestamp="2009-10-17T23:37:36Z" uid="36809" user="pfoten_weg_!_" changeset="2879001" lat="47.69799" lon="11.4186541"/>
  <node id="349282903" version="3" timestamp="2009-10-17T23:37:35Z" uid="36809" user="pfoten_weg_!_" changeset="2879001" lat="47.6979667" lon="11.4178319"/>
  <node id="349282905" version="3" timestamp="2009-10-17T23:37:26Z" uid="36809" user="pfoten_weg_!_" changeset="2879001" lat="47.6979667" lon="11.4171139"/>
  <node id="349282906" version="3" timestamp="2009-10-17T23:37:27Z" uid="36809" user="pfoten_weg_!_" changeset="2879001" lat="47.6979511" lon="11.4166506"/>
  <node id="349282907" version="3" timestamp="2009-10-17T23:37:26Z" uid="36809" user="pfoten_weg_!_" changeset="2879001" lat="47.6979178" lon="11.4164205"/>
  <node id="349282907" version="4" timestamp="2009-11-26T13:37:10Z" uid="64756" user="alegria6208" changeset="3220259" lat="47.6979145" lon="11.4164549"/>
  <node id="349282908" version="4" timestamp="2009-10-17T23:37:30Z" uid="36809" user="pfoten_weg_!_" changeset="2879001" lat="47.6986211" lon="11.4168128">
    <tag k="leisure" v="pitch"/>
    <tag k="sport" v="soccer"/>
  </node>
  <node id="349282908" version="5" timestamp="2009-11-26T14:05:11Z" uid="64756" user="alegria6208" changeset="3220463" lat="47.6986211" lon="11.4168128">
    <tag k="leisure" v="pitch"/>
    <tag k="sport" v="soccer"/>
  </node>
  <node id="349282911" version="4" timestamp="2009-10-17T23:37:47Z" uid="36809" user="pfoten_weg_!_" changeset="2879001" lat="47.6993701" lon="11.4180786">
    <tag k="sport" v="tennis"/>
  </node>
  <node id="349282911" version="5" timestamp="2009-11-26T13:30:37Z" uid="64756" user="alegria6208" changeset="3220219" lat="47.6990963" lon="11.4179634">
    <tag k="sport" v="tennis"/>
  </node>
  <node id="349282911" version="6" timestamp="2009-11-26T14:05:10Z" uid="64756" user="alegria6208" changeset="3220463" lat="47.6990963" lon="11.4179634">
    <tag k="sport" v="tennis"/>
  </node>
  <node id="349282912" version="4" timestamp="2009-10-17T23:37:31Z" uid="36809" user="pfoten_weg_!_" changeset="2879001" lat="47.6992604" lon="11.4164124">
    <tag k="sport" v="tennis"/>
  </node>
  <node id="349282912" version="5" timestamp="2009-11-26T14:05:11Z" uid="64756" user="alegria6208" changeset="3220463" lat="47.6992604" lon="11.4164124">
    <tag k="sport" v="tennis"/>
  </node>
  <node id="349282913" version="3" timestamp="2009-10-17T23:37:16Z" uid="36809" user="pfoten_weg_!_" changeset="2879001" lat="47.6968682" lon="11.4168475">
    <tag k="leisure" v="water_park"/>
    <tag k="sport" v="swimming"/>
  </node>
  <node id="349282913" version="4" timestamp="2009-11-26T14:16:08Z" uid="64756" user="alegria6208" changeset="3220560" lat="47.6968837" lon="11.4170778">
    <tag k="leisure" v="water_park"/>
    <tag k="sport" v="swimming"/>
  </node>
  <node id="349282915" version="3" timestamp="2009-10-17T23:37:16Z" uid="36809" user="pfoten_weg_!_" changeset="2879001" lat="47.6968448" lon="11.4156778">
    <tag k="leisure" v="water_park"/>
    <tag k="sport" v="swimming"/>
  </node>
  <node id="349282915" version="4" timestamp="2009-11-26T14:16:08Z" uid="64756" user="alegria6208" changeset="3220560" lat="47.6964883" lon="11.4160693"/>
  <node id="349282985" version="5" timestamp="2010-10-03T20:16:46Z" uid="9581" user="Lobelt" changeset="5948350" lat="49.5379976" lon="8.6654561"/>
  <node id="349282986" version="4" timestamp="2010-10-03T20:16:41Z" uid="9581" user="Lobelt" changeset="5948350" lat="49.5382699" lon="8.6653445"/>
  <node id="349282987" version="6" timestamp="2010-10-03T20:16:28Z" uid="9581" user="Lobelt" changeset="5948350" lat="49.5384473" lon="8.6650778"/>
  <node id="349282988" version="5" timestamp="2010-10-03T20:16:32Z" uid="9581" user="Lobelt" changeset="5948350" lat="49.5387004" lon="8.6645903"/>
  <node id="349282989" version="5" timestamp="2010-10-03T20:16:49Z" uid="9581" user="Lobelt" changeset="5948350" lat="49.5389292" lon="8.6641833"/>
  <node id="349283044" version="4" timestamp="2010-10-03T20:16:51Z" uid="9581" user="Lobelt" changeset="5948350" lat="49.5401857" lon="8.6658313"/>
  <node id="349283082" version="5" timestamp="2010-10-03T20:16:50Z" uid="9581" user="Lobelt" changeset="5948350" lat="49.5381395" lon="8.6654281"/>
  <node id="349284430" version="2" timestamp="2010-07-29T09:27:30Z" uid="74617" user="JohnSmith" changeset="5344848" lat="51.0233095" lon="13.6868571">
    <tag k="amenity" v="emergency_phone"/>
    <tag k="emergency" v="phone"/>
    <tag k="operator" v="Autobahnmeisterei"/>
  </node>
  <node id="349284431" version="2" timestamp="2010-07-29T09:34:01Z" uid="74617" user="JohnSmith" changeset="5344848" lat="51.0234022" lon="13.6874359">
    <tag k="amenity" v="emergency_phone"/>
    <tag k="emergency" v="phone"/>
    <tag k="operator" v="Autobahnmeisterei"/>
  </node>
  <node id="349284432" version="2" timestamp="2010-07-29T09:24:46Z" uid="74617" user="JohnSmith" changeset="5344848" lat="51.0216085" lon="13.688709">
    <tag k="amenity" v="emergency_phone"/>
    <tag k="emergency" v="phone"/>
    <tag k="operator" v="Autobahnmeisterei"/>
  </node>
  <node id="349284433" version="2" timestamp="2010-07-29T09:29:55Z" uid="74617" user="JohnSmith" changeset="5344848" lat="51.0215788" lon="13.6881671">
    <tag k="amenity" v="emergency_phone"/>
    <tag k="emergency" v="phone"/>
    <tag k="operator" v="Autobahnmeisterei"/>
  </node>
  <node id="349284434" version="2" timestamp="2010-07-29T09:11:55Z" uid="74617" user="JohnSmith" changeset="5344848" lat="51.0132104" lon="13.7174875">
    <tag k="amenity" v="emergency_phone"/>
    <tag k="emergency" v="phone"/>
    <tag k="operator" v="Autobahnmeisterei"/>
  </node>
  <node id="349284435" version="2" timestamp="2010-07-29T09:17:50Z" uid="74617" user="JohnSmith" changeset="5344848" lat="51.0126654" lon="13.7171756">
    <tag k="amenity" v="emergency_phone"/>
    <tag k="emergency" v="phone"/>
    <tag k="operator" v="Autobahnmeisterei"/>
  </node>
  <node id="349284475" version="2" timestamp="2009-03-08T13:58:01Z" uid="6975" user="ulfl" changeset="757880" lat="50.8143697" lon="-0.5059889">
    <tag k="name" v="Rustington Museum"/>
    <tag k="tourism" v="museum"/>
  </node>
  <node id="349284557" version="2" timestamp="2009-10-17T23:37:29Z" uid="36809" user="pfoten_weg_!_" changeset="2879001" lat="47.697911" lon="11.41632"/>
  <node id="349284558" version="3" timestamp="2009-10-17T23:37:23Z" uid="36809" user="pfoten_weg_!_" changeset="2879001" lat="47.6979447" lon="11.415852"/>
  <node id="349284559" version="3" timestamp="2009-10-17T23:37:22Z" uid="36809" user="pfoten_weg_!_" changeset="2879001" lat="47.6980823" lon="11.4151066"/>
  <node id="349284560" version="3" timestamp="2009-10-17T23:37:09Z" uid="36809" user="pfoten_weg_!_" changeset="2879001" lat="47.6981844" lon="11.4144734"/>
  <node id="349284563" version="3" timestamp="2009-10-17T23:37:10Z" uid="36809" user="pfoten_weg_!_" changeset="2879001" lat="47.6982465" lon="11.4137016"/>
  <node id="349284563" version="4" timestamp="2009-11-26T16:00:32Z" uid="64756" user="alegria6208" changeset="3221229" lat="47.6982723" lon="11.4136172"/>
  <node id="349284567" version="3" timestamp="2009-10-17T23:37:10Z" uid="36809" user="pfoten_weg_!_" changeset="2879001" lat="47.6982465" lon="11.4127188"/>
  <node id="349284567" version="4" timestamp="2009-11-26T16:00:32Z" uid="64756" user="alegria6208" changeset="3221229" lat="47.6982258" lon="11.4127879"/>
  <node id="349284571" version="3" timestamp="2009-10-17T23:37:04Z" uid="36809" user="pfoten_weg_!_" changeset="2879001" lat="47.6982554" lon="11.4117689"/>
  <node id="349284571" version="4" timestamp="2009-11-26T16:00:32Z" uid="64756" user="alegria6208" changeset="3221229" lat="47.6982812" lon="11.4117075"/>
  <node id="349284574" version="3" timestamp="2009-10-17T23:37:04Z" uid="36809" user="pfoten_weg_!_" changeset="2879001" lat="47.6982465" lon="11.4113137"/>
  <node id="349284574" version="4" timestamp="2009-11-26T16:00:32Z" uid="64756" user="alegria6208" changeset="3221229" lat="47.6982827" lon="11.4112676"/>
  <node id="349284581" version="3" timestamp="2009-10-17T23:37:05Z" uid="36809" user="pfoten_weg_!_" changeset="2879001" lat="47.6982332" lon="11.4109575"/>
  <node id="349284585" version="3" timestamp="2009-10-17T23:37:05Z" uid="36809" user="pfoten_weg_!_" changeset="2879001" lat="47.6981311" lon="11.4105486"/>
  <node id="349284590" version="3" timestamp="2009-10-17T23:37:06Z" uid="36809" user="pfoten_weg_!_" changeset="2879001" lat="47.698069" lon="11.4101989"/>
  <node id="349284593" version="3" timestamp="2009-10-17T23:37:06Z" uid="36809" user="pfoten_weg_!_" changeset="2879001" lat="47.6979669" lon="11.4093678"/>
  <node id="349284595" version="3" timestamp="2009-10-17T23:36:49Z" uid="36809" user="pfoten_weg_!_" changeset="2879001" lat="47.6978782" lon="11.4089193"/>
  <node id="349284598" version="2" timestamp="2009-10-17T23:36:50Z" uid="36809" user="pfoten_weg_!_" changeset="2879001" lat="47.6978" lon="11.408695"/>
  <node id="349284600" version="3" timestamp="2009-10-17T23:36:50Z" uid="36809" user="pfoten_weg_!_" changeset="2879001" lat="47.6976119" lon="11.4081805"/>
  <node id="349284602" version="3" timestamp="2009-10-17T23:36:52Z" uid="36809" user="pfoten_weg_!_" changeset="2879001" lat="47.6974877" lon="11.4078111"/>
  <node id="349284604" version="3" timestamp="2009-10-17T23:36:51Z" uid="36809" user="pfoten_weg_!_" changeset="2879001" lat="47.6974344" lon="11.4075736"/>
  <node id="349284605" version="3" timestamp="2009-10-17T23:36:52Z" uid="36809" user="pfoten_weg_!_" changeset="2879001" lat="47.6974078" lon="11.4069997"/>
  <node id="349284607" version="2" timestamp="2009-10-17T23:36:38Z" uid="36809" user="pfoten_weg_!_" changeset="2879001" lat="47.697382" lon="11.406531"/>
  <node id="349284608" version="3" timestamp="2009-10-17T23:36:37Z" uid="36809" user="pfoten_weg_!_" changeset="2879001" lat="47.6973191" lon="11.4059509"/>
  <node id="349284609" version="3" timestamp="2009-10-17T23:36:38Z" uid="36809" user="pfoten_weg_!_" changeset="2879001" lat="47.6973324" lon="11.4057332"/>
  <node id="349284610" version="3" timestamp="2009-10-17T23:36:39Z" uid="36809" user="pfoten_weg_!_" changeset="2879001" lat="47.6973812" lon="11.4055617"/>
  <node id="349284611" version="3" timestamp="2009-10-17T23:36:39Z" uid="36809" user="pfoten_weg_!_" changeset="2879001" lat="47.6974749" lon="11.405286"/>
  <node id="349284611" version="4" timestamp="2009-11-26T14:16:07Z" uid="64756" user="alegria6208" changeset="3220560" lat="47.6974848" lon="11.4053253"/>
  <node id="349284614" version="3" timestamp="2009-10-17T23:37:43Z" uid="36809" user="pfoten_weg_!_" changeset="2879001" lat="47.6982509" lon="11.4199682"/>
  <node id="349284616" version="3" timestamp="2009-10-17T23:37:43Z" uid="36809" user="pfoten_weg_!_" changeset="2879001" lat="47.6980779" lon="11.4195262"/>
  <node id="349284616" version="4" timestamp="2009-11-26T16:00:33Z" uid="64756" user="alegria6208" changeset="3221229" lat="47.6979849" lon="11.4195416"/>
  <node id="349284618" version="3" timestamp="2009-10-17T23:37:42Z" uid="36809" user="pfoten_weg_!_" changeset="2879001" lat="47.697998" lon="11.4193019"/>
  <node id="349284618" version="4" timestamp="2009-11-26T16:00:33Z" uid="64756" user="alegria6208" changeset="3221229" lat="47.6978482" lon="11.4193019"/>
  <node id="349284620" version="3" timestamp="2009-10-17T23:37:42Z" uid="36809" user="pfoten_weg_!_" changeset="2879001" lat="47.6979004" lon="11.4189391"/>
  <node id="349284620" version="4" timestamp="2009-11-26T16:00:32Z" uid="64756" user="alegria6208" changeset="3221229" lat="47.6977196" lon="11.4189391"/>
  <node id="349284625" version="3" timestamp="2009-10-17T23:37:37Z" uid="36809" user="pfoten_weg_!_" changeset="2879001" lat="47.6978338" lon="11.4180882"/>
  <node id="349284625" version="4" timestamp="2009-11-26T16:00:32Z" uid="64756" user="alegria6208" changeset="3221229" lat="47.6976271" lon="11.4182955"/>
  <node id="349284628" version="3" timestamp="2009-10-17T23:37:25Z" uid="36809" user="pfoten_weg_!_" changeset="2879001" lat="47.6978027" lon="11.4173692"/>
  <node id="349284628" version="4" timestamp="2009-11-26T16:00:32Z" uid="64756" user="alegria6208" changeset="3221229" lat="47.6976684" lon="11.4173538"/>
  <node id="349284631" version="3" timestamp="2009-10-17T23:37:25Z" uid="36809" user="pfoten_weg_!_" changeset="2879001" lat="47.6978161" lon="11.4168481"/>
  <node id="349284631" version="4" timestamp="2009-11-26T16:00:32Z" uid="64756" user="alegria6208" changeset="3221229" lat="47.6977076" lon="11.416802"/>
  <node id="349284636" version="3" timestamp="2009-10-17T23:37:24Z" uid="36809" user="pfoten_weg_!_" changeset="2879001" lat="47.6978382" lon="11.4160235"/>
  <node id="349284636" version="4" timestamp="2009-11-26T16:00:32Z" uid="64756" user="alegria6208" changeset="3221229" lat="47.6977762" lon="11.4159621"/>
  <node id="349284639" version="3" timestamp="2009-10-17T23:37:23Z" uid="36809" user="pfoten_weg_!_" changeset="2879001" lat="47.6979891" lon="11.414889"/>
  <node id="349284639" version="4" timestamp="2009-11-26T16:00:32Z" uid="64756" user="alegria6208" changeset="3221229" lat="47.6979374" lon="11.4148353"/>
  <node id="349284642" version="3" timestamp="2009-10-17T23:37:11Z" uid="36809" user="pfoten_weg_!_" changeset="2879001" lat="47.6980867" lon="11.4142425"/>
  <node id="349284644" version="3" timestamp="2009-10-17T23:37:11Z" uid="36809" user="pfoten_weg_!_" changeset="2879001" lat="47.6981444" lon="11.4135037"/>
  <node id="349284645" version="3" timestamp="2009-10-17T23:37:11Z" uid="36809" user="pfoten_weg_!_" changeset="2879001" lat="47.6981577" lon="11.4125341"/>
  <node id="349284645" version="4" timestamp="2009-11-26T16:00:32Z" uid="64756" user="alegria6208" changeset="3221229" lat="47.6981009" lon="11.4126646"/>
  <node id="349284647" version="3" timestamp="2009-10-17T23:37:06Z" uid="36809" user="pfoten_weg_!_" changeset="2879001" lat="47.6981444" lon="11.4116633"/>
  <node id="349284647" version="4" timestamp="2009-11-26T16:00:32Z" uid="64756" user="alegria6208" changeset="3221229" lat="47.6981702" lon="11.4116172"/>
  <node id="349284648" version="3" timestamp="2009-10-17T23:37:07Z" uid="36809" user="pfoten_weg_!_" changeset="2879001" lat="47.6981489" lon="11.4111752"/>
  <node id="349284648" version="4" timestamp="2009-11-26T16:00:32Z" uid="64756" user="alegria6208" changeset="3221229" lat="47.6981747" lon="11.4111445"/>
  <node id="349284649" version="3" timestamp="2009-10-17T23:37:07Z" uid="36809" user="pfoten_weg_!_" changeset="2879001" lat="47.6981356" lon="11.4109113"/>
  <node id="349284649" version="4" timestamp="2009-11-26T16:00:32Z" uid="64756" user="alegria6208" changeset="3221229" lat="47.6981149" lon="11.4108806"/>
  <node id="349284650" version="3" timestamp="2009-10-17T23:37:08Z" uid="36809" user="pfoten_weg_!_" changeset="2879001" lat="47.6980246" lon="11.4104166"/>
  <node id="349284650" version="4" timestamp="2009-11-26T16:00:32Z" uid="64756" user="alegria6208" changeset="3221229" lat="47.6979678" lon="11.41024"/>
  <node id="349284651" version="3" timestamp="2009-10-17T23:37:08Z" uid="36809" user="pfoten_weg_!_" changeset="2879001" lat="47.697927" lon="11.4096646"/>
  <node id="349284651" version="4" timestamp="2009-11-26T16:00:32Z" uid="64756" user="alegria6208" changeset="3221229" lat="47.6978908" lon="11.4096032"/>
  <node id="349284652" version="3" timestamp="2009-10-17T23:36:55Z" uid="36809" user="pfoten_weg_!_" changeset="2879001" lat="47.6978604" lon="11.4092227"/>
  <node id="349284652" version="4" timestamp="2009-11-26T16:00:32Z" uid="64756" user="alegria6208" changeset="3221229" lat="47.6977932" lon="11.4090999"/>
  <node id="349284655" version="3" timestamp="2009-10-17T23:36:56Z" uid="36809" user="pfoten_weg_!_" changeset="2879001" lat="47.6977672" lon="11.4088401"/>
  <node id="349284655" version="4" timestamp="2009-11-26T16:00:32Z" uid="64756" user="alegria6208" changeset="3221229" lat="47.697669" lon="11.4087326"/>
  <node id="349284658" version="3" timestamp="2009-10-17T23:36:56Z" uid="36809" user="pfoten_weg_!_" changeset="2879001" lat="47.6976119" lon="11.4083981"/>
  <node id="349284658" version="4" timestamp="2009-11-26T16:00:32Z" uid="64756" user="alegria6208" changeset="3221229" lat="47.6974517" lon="11.4082062"/>
  <node id="349284660" version="3" timestamp="2009-10-17T23:36:54Z" uid="36809" user="pfoten_weg_!_" changeset="2879001" lat="47.6974788" lon="11.4080156"/>
  <node id="349284660" version="4" timestamp="2009-11-26T16:00:31Z" uid="64756" user="alegria6208" changeset="3221229" lat="47.69736" lon="11.4078774"/>
  <node id="349284663" version="3" timestamp="2009-10-17T23:36:54Z" uid="36809" user="pfoten_weg_!_" changeset="2879001" lat="47.6973767" lon="11.4076725"/>
  <node id="349284663" version="4" timestamp="2009-11-26T16:00:31Z" uid="64756" user="alegria6208" changeset="3221229" lat="47.6973199" lon="11.4075343"/>
  <node id="349284667" version="3" timestamp="2009-10-17T23:36:55Z" uid="36809" user="pfoten_weg_!_" changeset="2879001" lat="47.6973457" lon="11.4071514"/>
  <node id="349284667" version="4" timestamp="2009-11-26T16:00:32Z" uid="64756" user="alegria6208" changeset="3221229" lat="47.6972837" lon="11.4070132"/>
  <node id="349284668" version="3" timestamp="2009-10-17T23:36:40Z" uid="36809" user="pfoten_weg_!_" changeset="2879001" lat="47.6973102" lon="11.4064852"/>
  <node id="349284668" version="4" timestamp="2009-11-26T16:00:31Z" uid="64756" user="alegria6208" changeset="3221229" lat="47.697274" lon="11.40637"/>
  <node id="349284669" version="3" timestamp="2009-10-17T23:36:40Z" uid="36809" user="pfoten_weg_!_" changeset="2879001" lat="47.6972569" lon="11.4059377"/>
  <node id="349284669" version="4" timestamp="2009-11-26T16:00:31Z" uid="64756" user="alegria6208" changeset="3221229" lat="47.6972052" lon="11.4058686"/>
  <node id="349284670" version="3" timestamp="2009-10-17T23:36:41Z" uid="36809" user="pfoten_weg_!_" changeset="2879001" lat="47.6971593" lon="11.4049614"/>
  <node id="349284670" version="4" timestamp="2009-11-26T14:16:07Z" uid="64756" user="alegria6208" changeset="3220560" lat="47.6969785" lon="11.4051149"/>
  <node id="349284719" version="2" timestamp="2010-07-29T09:02:01Z" uid="74617" user="JohnSmith" changeset="5344848" lat="51.0081477" lon="13.7278622">
    <tag k="amenity" v="emergency_phone"/>
    <tag k="emergency" v="phone"/>
    <tag k="operator" v="Autobahnmeisterei"/>
  </node>
  <node id="349284723" version="2" timestamp="2010-07-29T09:30:06Z" uid="74617" user="JohnSmith" changeset="5344848" lat="51.008815" lon="13.7269043">
    <tag k="amenity" v="emergency_phone"/>
    <tag k="emergency" v="phone"/>
    <tag k="operator" v="Autobahnmeisterei"/>
  </node>
  <node id="349285857" version="2" timestamp="2010-07-29T08:58:55Z" uid="74617" user="JohnSmith" changeset="5344848" lat="51.0694584" lon="13.3222055">
    <tag k="amenity" v="emergency_phone"/>
    <tag k="emergency" v="phone"/>
    <tag k="operator" v="Autobahnmeisterei"/>
  </node>
  <node id="349285859" version="2" timestamp="2010-07-29T09:30:20Z" uid="74617" user="JohnSmith" changeset="5344848" lat="51.0698563" lon="13.3227332">
    <tag k="amenity" v="emergency_phone"/>
    <tag k="emergency" v="phone"/>
    <tag k="operator" v="Autobahnmeisterei"/>
  </node>
  <node id="349285861" version="2" timestamp="2010-07-29T09:27:35Z" uid="74617" user="JohnSmith" changeset="5344848" lat="51.0796494" lon="13.2991093">
    <tag k="amenity" v="emergency_phone"/>
    <tag k="emergency" v="phone"/>
    <tag k="operator" v="Autobahnmeisterei"/>
  </node>
  <node id="349285863" version="2" timestamp="2010-07-29T09:15:33Z" uid="74617" user="JohnSmith" changeset="5344848" lat="51.0800154" lon="13.2995127">
    <tag k="amenity" v="emergency_phone"/>
    <tag k="emergency" v="phone"/>
    <tag k="operator" v="Autobahnmeisterei"/>
  </node>
  <node id="349285864" version="2" timestamp="2010-07-29T09:01:57Z" uid="74617" user="JohnSmith" changeset="5344848" lat="51.0856713" lon="13.2684776">
    <tag k="amenity" v="emergency_phone"/>
    <tag k="emergency" v="phone"/>
    <tag k="operator" v="Autobahnmeisterei"/>
  </node>
  <node id="349285865" version="2" timestamp="2010-07-29T09:12:04Z" uid="74617" user="JohnSmith" changeset="5344848" lat="51.0860647" lon="13.2689687">
    <tag k="amenity" v="emergency_phone"/>
    <tag k="emergency" v="phone"/>
    <tag k="operator" v="Autobahnmeisterei"/>
  </node>
  <node id="349285866" version="2" timestamp="2010-07-29T09:34:12Z" uid="74617" user="JohnSmith" changeset="5344848" lat="51.0895403" lon="13.2487405">
    <tag k="amenity" v="emergency_phone"/>
    <tag k="emergency" v="phone"/>
    <tag k="operator" v="Autobahnmeisterei"/>
  </node>
  <node id="349285868" version="2" timestamp="2010-07-29T09:30:03Z" uid="74617" user="JohnSmith" changeset="5344848" lat="51.0887389" lon="13.2483445">
    <tag k="amenity" v="emergency_phone"/>
    <tag k="emergency" v="phone"/>
    <tag k="operator" v="Autobahnmeisterei"/>
  </node>
  <node id="349285870" version="2" timestamp="2010-07-29T09:18:00Z" uid="74617" user="JohnSmith" changeset="5344848" lat="51.0920047" lon="13.2259721">
    <tag k="amenity" v="emergency_phone"/>
    <tag k="emergency" v="phone"/>
    <tag k="operator" v="Autobahnmeisterei"/>
  </node>
  <node id="349285872" version="2" timestamp="2010-07-29T09:15:13Z" uid="74617" user="JohnSmith" changeset="5344848" lat="51.0925094" lon="13.2265078">
    <tag k="amenity" v="emergency_phone"/>
    <tag k="emergency" v="phone"/>
    <tag k="operator" v="Autobahnmeisterei"/>
  </node>
  <node id="349285874" version="2" timestamp="2010-07-29T08:58:33Z" uid="74617" user="JohnSmith" changeset="5344848" lat="51.1016903" lon="13.2047947">
    <tag k="amenity" v="emergency_phone"/>
    <tag k="emergency" v="phone"/>
    <tag k="operator" v="Autobahnmeisterei"/>
  </node>
  <node id="349285876" version="2" timestamp="2010-07-29T09:41:08Z" uid="74617" user="JohnSmith" changeset="5344848" lat="51.1021189" lon="13.2053255">
    <tag k="amenity" v="emergency_phone"/>
    <tag k="emergency" v="phone"/>
    <tag k="operator" v="Autobahnmeisterei"/>
  </node>
  <node id="349285878" version="2" timestamp="2010-07-29T09:27:20Z" uid="74617" user="JohnSmith" changeset="5344848" lat="51.1163116" lon="13.1731151">
    <tag k="amenity" v="emergency_phone"/>
    <tag k="emergency" v="phone"/>
    <tag k="operator" v="Autobahnmeisterei"/>
  </node>
  <node id="349285880" version="2" timestamp="2010-07-29T09:24:35Z" uid="74617" user="JohnSmith" changeset="5344848" lat="51.116463" lon="13.1737643">
    <tag k="amenity" v="emergency_phone"/>
    <tag k="emergency" v="phone"/>
    <tag k="operator" v="Autobahnmeisterei"/>
  </node>
  <node id="349286105" version="2" timestamp="2009-08-26T12:21:08Z" uid="33382" user="de_muur" changeset="2266881" lat="53.0783519" lon="8.9669448">
    <tag k="traffic_calming" v="hump"/>
  </node>
  <node id="349286195" version="2" timestamp="2010-07-29T09:08:35Z" uid="74617" user="JohnSmith" changeset="5344848" lat="51.1312723" lon="13.164875">
    <tag k="amenity" v="emergency_phone"/>
    <tag k="emergency" v="phone"/>
    <tag k="operator" v="Autobahnmeisterei"/>
  </node>
  <node id="349286201" version="2" timestamp="2010-07-29T09:30:17Z" uid="74617" user="JohnSmith" changeset="5344848" lat="51.1306983" lon="13.1636309">
    <tag k="amenity" v="emergency_phone"/>
    <tag k="emergency" v="phone"/>
    <tag k="operator" v="Autobahnmeisterei"/>
  </node>
  <node id="349286207" version="2" timestamp="2010-07-29T08:58:51Z" uid="74617" user="JohnSmith" changeset="5344848" lat="51.1483342" lon="13.1442667">
    <tag k="amenity" v="emergency_phone"/>
    <tag k="emergency" v="phone"/>
    <tag k="operator" v="Autobahnmeisterei"/>
  </node>
  <node id="349286212" version="2" timestamp="2010-07-29T09:09:48Z" uid="74617" user="JohnSmith" changeset="5344848" lat="51.1475154" lon="13.1424719">
    <tag k="amenity" v="emergency_phone"/>
    <tag k="emergency" v="phone"/>
    <tag k="operator" v="Autobahnmeisterei"/>
  </node>
  <node id="349286218" version="2" timestamp="2010-07-29T09:22:54Z" uid="74617" user="JohnSmith" changeset="5344848" lat="51.1579315" lon="13.1113579">
    <tag k="amenity" v="emergency_phone"/>
    <tag k="emergency" v="phone"/>
    <tag k="operator" v="Autobahnmeisterei"/>
  </node>
  <node id="349286225" version="2" timestamp="2010-07-29T09:09:23Z" uid="74617" user="JohnSmith" changeset="5344848" lat="51.1587501" lon="13.1122977">
    <tag k="amenity" v="emergency_phone"/>
    <tag k="emergency" v="phone"/>
    <tag k="operator" v="Autobahnmeisterei"/>
  </node>
  <node id="349287157" version="3" timestamp="2009-10-17T23:36:34Z" uid="36809" user="pfoten_weg_!_" changeset="2879001" lat="47.6971309" lon="11.4054154"/>
  <node id="349287157" version="4" timestamp="2009-11-26T14:16:07Z" uid="64756" user="alegria6208" changeset="3220560" lat="47.6969424" lon="11.405494"/>
  <node id="349287181" version="2" timestamp="2009-10-17T23:34:24Z" uid="36809" user="pfoten_weg_!_" changeset="2879001" lat="47.6775213" lon="11.3996146">
    <tag k="name" v="Pessenbach"/>
    <tag k="place" v="hamlet"/>
  </node>
  <node id="349287181" version="3" timestamp="2009-11-26T17:12:48Z" uid="64756" user="alegria6208" changeset="3221736" lat="47.677069" lon="11.4001064">
    <tag k="name" v="Pessenbach"/>
    <tag k="place" v="hamlet"/>
  </node>
  <node id="349287551" version="2" timestamp="2010-07-29T09:01:09Z" uid="74617" user="JohnSmith" changeset="5344848" lat="51.1664058" lon="13.0872787">
    <tag k="amenity" v="emergency_phone"/>
    <tag k="emergency" v="phone"/>
    <tag k="operator" v="Autobahnmeisterei"/>
  </node>
  <node id="349287553" version="2" timestamp="2010-07-29T09:34:34Z" uid="74617" user="JohnSmith" changeset="5344848" lat="51.1669504" lon="13.087764">
    <tag k="amenity" v="emergency_phone"/>
    <tag k="emergency" v="phone"/>
    <tag k="operator" v="Autobahnmeisterei"/>
  </node>
  <node id="349287558" version="2" timestamp="2010-07-29T09:41:46Z" uid="74617" user="JohnSmith" changeset="5344848" lat="51.167256" lon="13.0604289">
    <tag k="amenity" v="emergency_phone"/>
    <tag k="emergency" v="phone"/>
    <tag k="operator" v="Autobahnmeisterei"/>
  </node>
  <node id="349287560" version="2" timestamp="2010-07-29T09:38:45Z" uid="74617" user="JohnSmith" changeset="5344848" lat="51.1677349" lon="13.0606788">
    <tag k="amenity" v="emergency_phone"/>
    <tag k="emergency" v="phone"/>
    <tag k="operator" v="Autobahnmeisterei"/>
  </node>
  <node id="349287564" version="2" timestamp="2010-07-29T09:21:29Z" uid="74617" user="JohnSmith" changeset="5344848" lat="51.1755228" lon="13.0345539">
    <tag k="amenity" v="emergency_phone"/>
    <tag k="emergency" v="phone"/>
    <tag k="operator" v="Autobahnmeisterei"/>
  </node>
  <node id="349287567" version="2" timestamp="2010-07-29T09:15:38Z" uid="74617" user="JohnSmith" changeset="5344848" lat="51.1758498" lon="13.0350886">
    <tag k="amenity" v="emergency_phone"/>
    <tag k="emergency" v="phone"/>
    <tag k="operator" v="Autobahnmeisterei"/>
  </node>
  <node id="349287569" version="2" timestamp="2010-07-29T09:12:08Z" uid="74617" user="JohnSmith" changeset="5344848" lat="51.1861841" lon="13.0166587">
    <tag k="amenity" v="emergency_phone"/>
    <tag k="emergency" v="phone"/>
    <tag k="operator" v="Autobahnmeisterei"/>
  </node>
  <node id="349287573" version="2" timestamp="2010-07-29T09:38:21Z" uid="74617" user="JohnSmith" changeset="5344848" lat="51.186545" lon="13.0171329">
    <tag k="amenity" v="emergency_phone"/>
    <tag k="emergency" v="phone"/>
    <tag k="operator" v="Autobahnmeisterei"/>
  </node>
  <node id="349287573" version="3" timestamp="2011-06-09T21:03:24Z" uid="120153" user="ulmtuelp" changeset="8392407" lat="51.1879659" lon="13.0125989">
    <tag k="amenity" v="emergency_phone"/>
    <tag k="emergency" v="phone"/>
    <tag k="operator" v="Autobahnmeisterei"/>
  </node>
  <node id="349287576" version="2" timestamp="2010-07-29T09:15:17Z" uid="74617" user="JohnSmith" changeset="5344848" lat="51.1923858" lon="12.991142">
    <tag k="amenity" v="emergency_phone"/>
    <tag k="emergency" v="phone"/>
    <tag k="operator" v="Autobahnmeisterei"/>
  </node>
  <node id="349287579" version="2" timestamp="2010-07-29T09:07:30Z" uid="74617" user="JohnSmith" changeset="5344848" lat="51.1930835" lon="12.9918017">
    <tag k="amenity" v="emergency_phone"/>
    <tag k="emergency" v="phone"/>
    <tag k="operator" v="Autobahnmeisterei"/>
  </node>
  <node id="349287583" version="2" timestamp="2010-07-29T09:33:53Z" uid="74617" user="JohnSmith" changeset="5344848" lat="51.2047381" lon="12.960331">
    <tag k="amenity" v="emergency_phone"/>
    <tag k="emergency" v="phone"/>
    <tag k="operator" v="Autobahnmeisterei"/>
  </node>
  <node id="349287588" version="2" timestamp="2010-07-29T09:16:28Z" uid="74617" user="JohnSmith" changeset="5344848" lat="51.2050243" lon="12.9608449">
    <tag k="amenity" v="emergency_phone"/>
    <tag k="emergency" v="phone"/>
    <tag k="operator" v="Autobahnmeisterei"/>
  </node>
  <node id="349287593" version="2" timestamp="2010-07-29T09:03:37Z" uid="74617" user="JohnSmith" changeset="5344848" lat="51.2162056" lon="12.9393776">
    <tag k="amenity" v="emergency_phone"/>
    <tag k="emergency" v="phone"/>
    <tag k="operator" v="Autobahnmeisterei"/>
  </node>
  <node id="349287600" version="2" timestamp="2010-07-29T09:09:26Z" uid="74617" user="JohnSmith" changeset="5344848" lat="51.2165323" lon="12.9397501">
    <tag k="amenity" v="emergency_phone"/>
    <tag k="emergency" v="phone"/>
    <tag k="operator" v="Autobahnmeisterei"/>
  </node>
  <node id="349289929" version="1" timestamp="2009-02-22T21:04:44Z" uid="20587" user="balrog-kun" changeset="616326" lat="52.2473334" lon="21.0548295">
    <tag k="amenity" v="post_box"/>
  </node>
  <node id="349289941" version="1" timestamp="2009-02-22T21:04:48Z" uid="20587" user="balrog-kun" changeset="616326" lat="52.250038" lon="21.0420844">
    <tag k="amenity" v="bank"/>
    <tag k="name" v="Bank Zachodni WBK"/>
  </node>
  <node id="349289941" version="2" timestamp="2011-08-16T12:05:50Z" uid="373244" user="Tomaszg" changeset="9035613" lat="52.250101" lon="21.0420145">
    <tag k="amenity" v="bank"/>
    <tag k="name" v="Bank Zachodni WBK"/>
  </node>
  <node id="349289943" version="1" timestamp="2009-02-22T21:04:49Z" uid="20587" user="balrog-kun" changeset="616326" lat="52.2465686" lon="21.0631662">
    <tag k="name" v="Gocławska 04"/>
    <tag k="railway" v="tram_stop"/>
  </node>
  <node id="349289943" version="2" timestamp="2009-05-30T16:54:43Z" uid="128018" user="Tomek" changeset="1361079" lat="52.2465685" lon="21.0631661">
    <tag k="name" v="Gocławska 04"/>
    <tag k="railway" v="tram_stop"/>
  </node>
  <node id="349289943" version="3" timestamp="2009-10-28T13:10:27Z" uid="20587" user="balrog-kun" changeset="2973097" lat="52.2465685" lon="21.0631661">
    <tag k="name" v="Gocławska 04"/>
    <tag k="railway" v="tram_stop"/>
    <tag k="tactile_paving" v="no"/>
  </node>
  <node id="349289943" version="4" timestamp="2010-01-12T13:53:50Z" uid="20587" user="balrog-kun" changeset="3603234" lat="52.2465685" lon="21.0631661">
    <tag k="name" v="Gocławska 04"/>
    <tag k="railway" v="tram_stop"/>
    <tag k="tactile_paving" v="no"/>
  </node>
  <node id="349289943" version="5" timestamp="2010-01-13T14:45:14Z" uid="20587" user="balrog-kun" changeset="3610428" lat="52.2465685" lon="21.0631661">
    <tag k="name" v="Gocławska 04"/>
    <tag k="railway" v="tram_stop"/>
    <tag k="tactile_paving" v="no"/>
    <tag k="ztm:ciąg_ulicy" v="Grochowska"/>
  </node>
  <node id="349289943" version="6" timestamp="2010-01-15T23:44:53Z" uid="20587" user="balrog-kun" changeset="3628425" lat="52.2465758" lon="21.0631683"/>
  <node id="349289943" version="7" timestamp="2010-06-19T02:58:48Z" uid="20587" user="balrog-kun" changeset="5020735" lat="52.2465888" lon="21.0631729"/>
  <node id="349289945" version="1" timestamp="2009-02-22T21:04:50Z" uid="20587" user="balrog-kun" changeset="616326" lat="52.2469155" lon="21.0582876">
    <tag k="name" v="Bliska 04"/>
    <tag k="railway" v="tram_stop"/>
  </node>
  <node id="349289945" version="2" timestamp="2009-05-30T16:54:44Z" uid="128018" user="Tomek" changeset="1361079" lat="52.2469155" lon="21.0582875">
    <tag k="name" v="Bliska 04"/>
    <tag k="railway" v="tram_stop"/>
  </node>
  <node id="349289945" version="3" timestamp="2009-10-28T13:10:27Z" uid="20587" user="balrog-kun" changeset="2973097" lat="52.2469155" lon="21.0582875">
    <tag k="name" v="Bliska 04"/>
    <tag k="railway" v="tram_stop"/>
    <tag k="tactile_paving" v="yes"/>
  </node>
  <node id="349289945" version="4" timestamp="2009-11-23T17:33:29Z" uid="20587" user="balrog-kun" changeset="3197568" lat="52.2469155" lon="21.0582875">
    <tag k="name" v="Bliska 04"/>
    <tag k="railway" v="tram_stop"/>
    <tag k="tactile_paving" v="no"/>
  </node>
  <node id="349289945" version="5" timestamp="2010-01-12T13:53:50Z" uid="20587" user="balrog-kun" changeset="3603234" lat="52.2469155" lon="21.0582875">
    <tag k="name" v="Bliska 04"/>
    <tag k="railway" v="tram_stop"/>
    <tag k="tactile_paving" v="no"/>
  </node>
  <node id="349289945" version="6" timestamp="2010-01-13T14:45:14Z" uid="20587" user="balrog-kun" changeset="3610428" lat="52.2469155" lon="21.0582875">
    <tag k="name" v="Bliska 04"/>
    <tag k="railway" v="tram_stop"/>
    <tag k="tactile_paving" v="no"/>
    <tag k="ztm:ciąg_ulicy" v="Grochowska"/>
  </node>
  <node id="349289945" version="7" timestamp="2010-01-15T23:44:52Z" uid="20587" user="balrog-kun" changeset="3628425" lat="52.2469238" lon="21.058292"/>
  <node id="349289946" version="1" timestamp="2009-02-22T21:04:50Z" uid="20587" user="balrog-kun" changeset="616326" lat="52.2485431" lon="21.0424235"/>
  <node id="349289946" version="2" timestamp="2011-09-22T20:52:26Z" uid="373244" user="Tomekg" changeset="9372213" lat="52.2485431" lon="21.0424235"/>
  <node id="349289948" version="1" timestamp="2009-02-22T21:04:51Z" uid="20587" user="balrog-kun" changeset="616326" lat="52.2483626" lon="21.0428985"/>
  <node id="349289948" version="2" timestamp="2011-09-22T20:52:26Z" uid="373244" user="Tomekg" changeset="9372213" lat="52.2483626" lon="21.0428985"/>
  <node id="349289950" version="1" timestamp="2009-02-22T21:04:51Z" uid="20587" user="balrog-kun" changeset="616326" lat="52.2490972" lon="21.042985"/>
  <node id="349289950" version="2" timestamp="2011-09-22T20:52:26Z" uid="373244" user="Tomekg" changeset="9372213" lat="52.2490972" lon="21.042985"/>
  <node id="349289952" version="1" timestamp="2009-02-22T21:04:52Z" uid="20587" user="balrog-kun" changeset="616326" lat="52.2489167" lon="21.04346"/>
  <node id="349289952" version="2" timestamp="2011-09-22T20:52:26Z" uid="373244" user="Tomekg" changeset="9372213" lat="52.2489167" lon="21.04346"/>
  <node id="349289954" version="1" timestamp="2009-02-22T21:04:52Z" uid="20587" user="balrog-kun" changeset="616326" lat="52.2491058" lon="21.0431994">
    <tag k="highway" v="crossing"/>
  </node>
  <node id="349289954" version="2" timestamp="2009-10-10T10:17:44Z" uid="20587" user="balrog-kun" changeset="2801987" lat="52.2491058" lon="21.0431994">
    <tag k="highway" v="crossing"/>
    <tag k="traffic_signals:sound" v="yes"/>
    <tag k="traffic_signals:vibration" v="no"/>
  </node>
  <node id="349289954" version="3" timestamp="2011-08-16T11:54:08Z" uid="373244" user="Tomaszg" changeset="9035613" lat="52.2491538" lon="21.0431983">
    <tag k="highway" v="crossing"/>
    <tag k="traffic_signals:sound" v="yes"/>
    <tag k="traffic_signals:vibration" v="no"/>
  </node>
  <node id="349289956" version="1" timestamp="2009-02-22T21:04:53Z" uid="20587" user="balrog-kun" changeset="616326" lat="52.2493674" lon="21.0435295">
    <tag k="highway" v="crossing"/>
  </node>
  <node id="349289956" version="2" timestamp="2009-10-10T10:17:44Z" uid="20587" user="balrog-kun" changeset="2801987" lat="52.2493674" lon="21.0435295">
    <tag k="highway" v="crossing"/>
    <tag k="traffic_signals:sound" v="yes"/>
    <tag k="traffic_signals:vibration" v="no"/>
  </node>
  <node id="349289956" version="3" timestamp="2011-08-16T11:54:08Z" uid="373244" user="Tomaszg" changeset="9035613" lat="52.2493856" lon="21.0434516">
    <tag k="highway" v="crossing"/>
    <tag k="traffic_signals:sound" v="yes"/>
    <tag k="traffic_signals:vibration" v="no"/>
  </node>
  <node id="349289958" version="1" timestamp="2009-02-22T21:04:53Z" uid="20587" user="balrog-kun" changeset="616326" lat="52.2492637" lon="21.0432829"/>
  <node id="349289958" version="2" timestamp="2009-05-27T19:58:39Z" uid="128018" user="Tomek" changeset="1337526" lat="52.2492637" lon="21.0432829"/>
  <node id="349289958" version="3" timestamp="2010-01-16T00:36:06Z" uid="20587" user="balrog-kun" changeset="3628643" lat="52.2492737" lon="21.0433046"/>
  <node id="349289958" version="4" timestamp="2011-08-16T11:54:08Z" uid="373244" user="Tomaszg" changeset="9035613" lat="52.2492697" lon="21.0433249">
    <tag k="highway" v="crossing"/>
  </node>
  <node id="349289958" version="5" timestamp="2011-08-19T23:45:29Z" uid="373244" user="Tomaszg" changeset="9070333" lat="52.2492697" lon="21.0433249">
    <tag k="highway" v="crossing"/>
  </node>
  <node id="349289958" version="6" timestamp="2011-09-22T21:00:53Z" uid="373244" user="Tomekg" changeset="9372213" lat="52.2492697" lon="21.0433249">
    <tag k="highway" v="crossing"/>
  </node>
  <node id="349289960" version="1" timestamp="2009-02-22T21:04:54Z" uid="20587" user="balrog-kun" changeset="616326" lat="52.2496614" lon="21.0430516"/>
  <node id="349289960" version="2" timestamp="2010-01-16T00:36:06Z" uid="20587" user="balrog-kun" changeset="3628643" lat="52.2496452" lon="21.0430834"/>
  <node id="349289960" version="3" timestamp="2011-08-16T11:54:09Z" uid="373244" user="Tomaszg" changeset="9035613" lat="52.2496699" lon="21.0430699"/>
  <node id="349289960" version="4" timestamp="2011-08-16T12:05:54Z" uid="373244" user="Tomaszg" changeset="9035613" lat="52.2496669" lon="21.0430669">
    <tag k="highway" v="crossing"/>
  </node>
  <node id="349289960" version="5" timestamp="2011-09-22T20:45:19Z" uid="373244" user="Tomekg" changeset="9372213" lat="52.2496841" lon="21.0430238">
    <tag k="highway" v="crossing"/>
  </node>
  <node id="349289963" version="1" timestamp="2009-02-22T21:04:54Z" uid="20587" user="balrog-kun" changeset="616326" lat="52.2507237" lon="21.0404343">
    <tag k="highway" v="crossing"/>
  </node>
  <node id="349289963" version="2" timestamp="2011-08-16T12:21:09Z" uid="373244" user="Tomaszg" changeset="9035613" lat="52.2507444" lon="21.0404154">
    <tag k="highway" v="crossing"/>
  </node>
  <node id="349289963" version="3" timestamp="2011-08-31T14:23:48Z" uid="373244" user="Tomaszg" changeset="9176738" lat="52.2507444" lon="21.0404154">
    <tag k="highway" v="traffic_signals"/>
  </node>
  <node id="349289963" version="4" timestamp="2011-09-27T23:36:13Z" uid="373244" user="Tomekg" changeset="9415672" lat="52.2507463" lon="21.0404079">
    <tag k="highway" v="crossing"/>
  </node>
  <node id="349289964" version="1" timestamp="2009-02-22T21:04:54Z" uid="20587" user="balrog-kun" changeset="616326" lat="52.2496604" lon="21.0414601">
    <tag k="highway" v="crossing"/>
  </node>
  <node id="349289964" version="2" timestamp="2011-09-22T20:52:24Z" uid="373244" user="Tomekg" changeset="9372213" lat="52.2496705" lon="21.0414293">
    <tag k="highway" v="crossing"/>
  </node>
  <node id="349289964" version="3" timestamp="2011-09-22T21:00:53Z" uid="373244" user="Tomekg" changeset="9372213" lat="52.2496703" lon="21.0414297">
    <tag k="highway" v="crossing"/>
  </node>
  <node id="349289965" version="1" timestamp="2009-02-22T21:04:55Z" uid="20587" user="balrog-kun" changeset="616326" lat="52.2490854" lon="21.0430222">
    <tag k="amenity" v="post_box"/>
  </node>
  <node id="349289965" version="2" timestamp="2011-09-22T20:52:24Z" uid="373244" user="Tomekg" changeset="9372213" lat="52.24907" lon="21.0429275">
    <tag k="amenity" v="post_box"/>
  </node>
  <node id="349289967" version="1" timestamp="2009-02-22T21:04:55Z" uid="20587" user="balrog-kun" changeset="616326" lat="52.2490393" lon="21.0431372"/>
  <node id="349289967" version="2" timestamp="2011-09-22T20:52:26Z" uid="373244" user="Tomekg" changeset="9372213" lat="52.2490393" lon="21.0431372"/>
  <node id="349289969" version="1" timestamp="2009-02-22T21:04:56Z" uid="20587" user="balrog-kun" changeset="616326" lat="52.2489794" lon="21.0432949"/>
  <node id="349289969" version="2" timestamp="2011-09-22T20:52:26Z" uid="373244" user="Tomekg" changeset="9372213" lat="52.2489794" lon="21.0432949"/>
  <node id="349289971" version="1" timestamp="2009-02-22T21:04:56Z" uid="20587" user="balrog-kun" changeset="616326" lat="52.2487248" lon="21.0430369"/>
  <node id="349289971" version="2" timestamp="2011-09-22T20:52:26Z" uid="373244" user="Tomekg" changeset="9372213" lat="52.2487248" lon="21.0430369"/>
  <node id="349289974" version="1" timestamp="2009-02-22T21:04:57Z" uid="20587" user="balrog-kun" changeset="616326" lat="52.2487847" lon="21.0428792"/>
  <node id="349289974" version="2" timestamp="2011-09-22T20:52:26Z" uid="373244" user="Tomekg" changeset="9372213" lat="52.2487847" lon="21.0428792"/>
  <node id="349289978" version="1" timestamp="2009-02-22T21:04:58Z" uid="20587" user="balrog-kun" changeset="616326" lat="52.2485455" lon="21.0433012"/>
  <node id="349289978" version="2" timestamp="2011-09-22T21:00:52Z" uid="373244" user="Tomekg" changeset="9372213" lat="52.2485948" lon="21.0432824"/>
  <node id="349289981" version="1" timestamp="2009-02-22T21:04:58Z" uid="20587" user="balrog-kun" changeset="616326" lat="52.2483655" lon="21.0437885"/>
  <node id="349289981" version="2" timestamp="2011-09-22T21:00:52Z" uid="373244" user="Tomekg" changeset="9372213" lat="52.2483706" lon="21.0438785"/>
  <node id="349289982" version="1" timestamp="2009-02-22T21:04:58Z" uid="20587" user="balrog-kun" changeset="616326" lat="52.2488615" lon="21.0436124"/>
  <node id="349289982" version="2" timestamp="2011-09-22T21:00:52Z" uid="373244" user="Tomekg" changeset="9372213" lat="52.2488758" lon="21.0435557"/>
  <node id="349289983" version="1" timestamp="2009-02-22T21:04:59Z" uid="20587" user="balrog-kun" changeset="616326" lat="52.2486815" lon="21.0440998"/>
  <node id="349289983" version="2" timestamp="2011-09-22T21:00:52Z" uid="373244" user="Tomekg" changeset="9372213" lat="52.2486313" lon="21.0441906"/>
  <node id="349289985" version="1" timestamp="2009-02-22T21:04:59Z" uid="20587" user="balrog-kun" changeset="616326" lat="52.2492437" lon="21.0425992"/>
  <node id="349289985" version="2" timestamp="2011-09-22T20:52:25Z" uid="373244" user="Tomekg" changeset="9372213" lat="52.2492437" lon="21.0425992"/>
  <node id="349289986" version="1" timestamp="2009-02-22T21:05:00Z" uid="20587" user="balrog-kun" changeset="616326" lat="52.2486896" lon="21.0420377"/>
  <node id="349289986" version="2" timestamp="2011-09-22T20:52:25Z" uid="373244" user="Tomekg" changeset="9372213" lat="52.2486896" lon="21.0420377"/>
  <node id="349289989" version="1" timestamp="2009-02-22T21:05:00Z" uid="20587" user="balrog-kun" changeset="616326" lat="52.2493351" lon="21.0423584"/>
  <node id="349289989" version="2" timestamp="2011-09-22T20:52:24Z" uid="373244" user="Tomekg" changeset="9372213" lat="52.2493956" lon="21.0422086"/>
  <node id="349289991" version="1" timestamp="2009-02-22T21:05:00Z" uid="20587" user="balrog-kun" changeset="616326" lat="52.2487811" lon="21.0417969"/>
  <node id="349289991" version="2" timestamp="2011-09-22T20:52:26Z" uid="373244" user="Tomekg" changeset="9372213" lat="52.2487811" lon="21.0417969"/>
  <node id="349289994" version="1" timestamp="2009-02-22T21:05:01Z" uid="20587" user="balrog-kun" changeset="616326" lat="52.2489059" lon="21.0419234"/>
  <node id="349289994" version="2" timestamp="2011-09-22T20:52:24Z" uid="373244" user="Tomekg" changeset="9372213" lat="52.2492843" lon="21.0420997"/>
  <node id="349289995" version="1" timestamp="2009-02-22T21:05:01Z" uid="20587" user="balrog-kun" changeset="616326" lat="52.2494752" lon="21.0419895"/>
  <node id="349289995" version="2" timestamp="2011-09-22T20:52:24Z" uid="373244" user="Tomekg" changeset="9372213" lat="52.2495277" lon="21.0418674"/>
  <node id="349289996" version="1" timestamp="2009-02-22T21:05:01Z" uid="20587" user="balrog-kun" changeset="616326" lat="52.249046" lon="21.0415546"/>
  <node id="349289996" version="2" timestamp="2011-09-22T20:52:26Z" uid="373244" user="Tomekg" changeset="9372213" lat="52.249046" lon="21.0415546"/>
  <node id="349289999" version="1" timestamp="2009-02-22T21:05:02Z" uid="20587" user="balrog-kun" changeset="616326" lat="52.2496282" lon="21.0415868"/>
  <node id="349289999" version="2" timestamp="2011-09-22T20:52:24Z" uid="373244" user="Tomekg" changeset="9372213" lat="52.2496586" lon="21.0415478"/>
</osm>
