<?xml version='1.0' encoding='UTF-8'?>
<osm version="0.6" generator="libosmium/2.20.0">
  <node id="34930518" version="2" timestamp="2008-06-23T18:58:01Z" uid="27600" user="Islanit" changeset="274556" lat="46.9266159" lon="15.6668516"/>
  <node id="34930521" version="2" timestamp="2008-06-23T18:58:01Z" uid="27600" user="Islanit" changeset="274556" lat="46.919728" lon="15.670302"/>
  <node id="34930544" version="2" timestamp="2008-06-23T18:58:02Z" uid="27600" user="Islanit" changeset="274556" lat="46.879655" lon="15.6582686"/>
  <node id="34932121" version="1" timestamp="2007-09-06T20:57:42Z" uid="6454" user="B10xxx" changeset="364362" lat="50.044136" lon="8.4760765"/>
  <node id="34932121" version="2" timestamp="2009-04-16T21:10:03Z" uid="18675" user="JeLuF" changeset="597345" lat="50.044136" lon="8.4760765"/>
  <node id="34932132" version="1" timestamp="2007-09-06T20:51:57Z" uid="6454" user="B10xxx" changeset="364362" lat="50.049527" lon="8.4684619">
    <tag k="created_by" v="JOSM"/>
    <tag k="railway" v="crossing"/>
  </node>
  <node id="34932132" version="2" timestamp="2008-05-26T23:49:33Z" uid="23785" user="Simon Kokolakis" changeset="529808" lat="50.0495636" lon="8.4684044">
    <tag k="created_by" v="JOSM"/>
    <tag k="railway" v="crossing"/>
  </node>
  <node id="34932132" version="3" timestamp="2009-08-06T09:19:12Z" uid="8464" user="MichaH" changeset="2054084" lat="50.0495636" lon="8.4684044">
    <tag k="railway" v="crossing"/>
  </node>
  <node id="34932132" version="4" timestamp="2009-09-11T18:42:51Z" uid="26869" user="Ailatix" changeset="2450007" lat="50.0495636" lon="8.4684044">
    <tag k="railway" v="level_crossing"/>
  </node>
  <node id="34936558" version="2" timestamp="2008-07-03T20:39:17Z" uid="6975" user="ulfl" changeset="386611" lat="48.9292485" lon="8.6800561">
    <tag k="highway" v="bus_stop"/>
    <tag k="name" v="Gengenbachtal"/>
  </node>
  <node id="34936558" version="3" timestamp="2008-11-14T10:08:54Z" uid="77204" user="aps" changeset="745913" lat="48.9292485" lon="8.680056">
    <tag k="bus_lines" v="731"/>
    <tag k="created_by" v="Merkaartor 0.12"/>
    <tag k="highway" v="bus_stop"/>
    <tag k="name" v="Gengenbachtal"/>
    <tag k="operator" v="S端dwestBus"/>
    <tag k="shelter" v="no"/>
  </node>
  <node id="34936558" version="4" timestamp="2009-02-03T23:09:59Z" uid="64482" user="Claas Augner" changeset="118420" lat="48.9292485" lon="8.680056">
    <tag k="bus_lines" v="731"/>
    <tag k="highway" v="bus_stop"/>
    <tag k="name" v="Gengenbachtal"/>
    <tag k="operator" v="S端dwestBus"/>
    <tag k="shelter" v="no"/>
    <tag k="uic_ref" v="720943"/>
  </node>
  <node id="34936558" version="5" timestamp="2011-09-23T08:23:02Z" uid="442210" user="dwausr" changeset="9374742" lat="48.9292485" lon="8.680056"/>
  <node id="34936560" version="2" timestamp="2008-07-03T20:39:19Z" uid="6975" user="ulfl" changeset="386611" lat="48.92971" lon="8.6798133">
    <tag k="highway" v="bus_stop"/>
    <tag k="name" v="Gengenbachtal"/>
  </node>
  <node id="34936560" version="3" timestamp="2008-11-14T10:08:39Z" uid="77204" user="aps" changeset="745913" lat="48.92971" lon="8.6798133">
    <tag k="bus_lines" v="731"/>
    <tag k="created_by" v="Merkaartor 0.12"/>
    <tag k="highway" v="bus_stop"/>
    <tag k="name" v="Gengenbachtal"/>
    <tag k="operator" v="S端dwestBus"/>
    <tag k="shelter" v="no"/>
  </node>
  <node id="34936560" version="4" timestamp="2009-02-03T23:10:01Z" uid="64482" user="Claas Augner" changeset="118420" lat="48.92971" lon="8.6798133">
    <tag k="bus_lines" v="731"/>
    <tag k="highway" v="bus_stop"/>
    <tag k="name" v="Gengenbachtal"/>
    <tag k="operator" v="S端dwestBus"/>
    <tag k="shelter" v="no"/>
    <tag k="uic_ref" v="720943"/>
  </node>
  <node id="34936560" version="5" timestamp="2011-09-23T09:39:23Z" uid="442210" user="dwausr" changeset="9375230" lat="48.92971" lon="8.6798133"/>
  <node id="34937504" version="5" timestamp="2010-10-30T06:29:49Z" uid="33382" user="de_muur" changeset="6224101" lat="52.90802" lon="9.2634936"/>
  <node id="34937504" version="6" timestamp="2011-04-15T18:02:54Z" uid="431336" user="bison166" changeset="7871980" lat="52.9079302" lon="9.2634454"/>
  <node id="34937504" version="7" timestamp="2012-02-08T15:22:32Z" uid="45882" user="smarties" changeset="10625539" lat="52.9079302" lon="9.2634454"/>
  <node id="34937630" version="4" timestamp="2010-10-30T06:29:49Z" uid="33382" user="de_muur" changeset="6224101" lat="52.90893" lon="9.2534652">
    <tag k="name" v="Verden"/>
    <tag k="traffic_sign" v="city_limit"/>
  </node>
  <node id="34937630" version="5" timestamp="2012-02-08T15:22:27Z" uid="45882" user="smarties" changeset="10625539" lat="52.90893" lon="9.2534652"/>
</osm>
