<?xml version='1.0' encoding='UTF-8'?>
<osm version="0.6" generator="libosmium/2.20.0">
  <node id="350152920" version="1" timestamp="2009-02-23T15:50:52Z" uid="20587" user="balrog-kun" changeset="639782" lat="52.2426087" lon="21.0950769">
    <tag k="addr:city" v="Warszawa@Warszawa Praga"/>
    <tag k="addr:housenumber" v="31"/>
    <tag k="addr:street" v="Karczewska"/>
    <tag k="source" v="http://ump.waw.pl/ retrieved 13:05:59 02/23/09 (UMP-Warszawa/src/WARSZAWA_PRAGA.ulice.txt)"/>
  </node>
  <node id="350152920" version="2" timestamp="2010-06-18T13:11:35Z" uid="20587" user="balrog-kun" changeset="5016212" lat="52.2426087" lon="21.0950769">
    <tag k="addr:city" v="Warszawa@Warszawa Praga"/>
    <tag k="addr:housenumber" v="31"/>
    <tag k="addr:street" v="Karczewska"/>
    <tag k="source" v="http://ump.waw.pl/ retrieved 13:05:59 02/23/09 (UMP-Warszawa/src/WARSZAWA_PRAGA.ulice.txt)"/>
  </node>
  <node id="350152925" version="1" timestamp="2009-02-23T15:50:53Z" uid="20587" user="balrog-kun" changeset="639782" lat="52.2383162" lon="21.0880264">
    <tag k="addr:city" v="Warszawa@Warszawa Praga"/>
    <tag k="addr:housenumber" v="2"/>
    <tag k="addr:street" v="Darłowska"/>
    <tag k="source" v="http://ump.waw.pl/ retrieved 13:05:59 02/23/09 (UMP-Warszawa/src/WARSZAWA_PRAGA.ulice.txt)"/>
  </node>
  <node id="350152928" version="1" timestamp="2009-02-23T15:50:53Z" uid="20587" user="balrog-kun" changeset="639782" lat="52.2418389" lon="21.0882928">
    <tag k="addr:city" v="Warszawa@Warszawa Praga"/>
    <tag k="addr:housenumber" v="29"/>
    <tag k="addr:street" v="Korytnicka"/>
    <tag k="source" v="http://ump.waw.pl/ retrieved 13:05:59 02/23/09 (UMP-Warszawa/src/WARSZAWA_PRAGA.ulice.txt)"/>
  </node>
  <node id="350152935" version="1" timestamp="2009-02-23T15:50:53Z" uid="20587" user="balrog-kun" changeset="639782" lat="52.2425132" lon="21.0844072">
    <tag k="addr:city" v="Warszawa@Warszawa Praga"/>
    <tag k="addr:housenumber" v="70"/>
    <tag k="addr:street" v="Stanów Zjednoczonych"/>
    <tag k="source" v="http://ump.waw.pl/ retrieved 13:05:59 02/23/09 (UMP-Warszawa/src/WARSZAWA_PRAGA.ulice.txt)"/>
  </node>
  <node id="350152935" version="2" timestamp="2011-12-09T14:55:27Z" uid="441027" user="muzzy" changeset="10073605" lat="52.2425132" lon="21.0844072">
    <tag k="addr:city" v="Warszawa@Warszawa Praga"/>
    <tag k="addr:housenumber" v="70"/>
    <tag k="addr:street" v="Aleja Stanów Zjednoczonych"/>
    <tag k="source" v="http://ump.waw.pl/ retrieved 13:05:59 02/23/09 (UMP-Warszawa/src/WARSZAWA_PRAGA.ulice.txt)"/>
  </node>
  <node id="350152940" version="1" timestamp="2009-02-23T15:50:53Z" uid="20587" user="balrog-kun" changeset="639782" lat="52.2426926" lon="21.0918991">
    <tag k="addr:city" v="Warszawa@Warszawa Praga"/>
    <tag k="addr:housenumber" v="45"/>
    <tag k="addr:street" v="Majdańska"/>
    <tag k="source" v="http://ump.waw.pl/ retrieved 13:05:59 02/23/09 (UMP-Warszawa/src/WARSZAWA_PRAGA.ulice.txt)"/>
  </node>
  <node id="350152946" version="1" timestamp="2009-02-23T15:50:54Z" uid="20587" user="balrog-kun" changeset="639782" lat="52.2418992" lon="21.0858496">
    <tag k="addr:city" v="Warszawa@Warszawa Praga"/>
    <tag k="addr:housenumber" v="16"/>
    <tag k="addr:street" v="Kruszewskiego"/>
    <tag k="source" v="http://ump.waw.pl/ retrieved 13:05:59 02/23/09 (UMP-Warszawa/src/WARSZAWA_PRAGA.ulice.txt)"/>
  </node>
  <node id="350152946" version="2" timestamp="2011-12-09T14:55:12Z" uid="441027" user="muzzy" changeset="10073605" lat="52.2418992" lon="21.0858496">
    <tag k="addr:city" v="Warszawa@Warszawa Praga"/>
    <tag k="addr:housenumber" v="16"/>
    <tag k="addr:street" v="Ignacego Kruszewskiego"/>
    <tag k="source" v="http://ump.waw.pl/ retrieved 13:05:59 02/23/09 (UMP-Warszawa/src/WARSZAWA_PRAGA.ulice.txt)"/>
  </node>
  <node id="350152950" version="1" timestamp="2009-02-23T15:50:54Z" uid="20587" user="balrog-kun" changeset="639782" lat="52.2397146" lon="21.087176">
    <tag k="addr:city" v="Warszawa@Warszawa Praga"/>
    <tag k="addr:housenumber" v="12"/>
    <tag k="addr:street" v="Majdańska"/>
    <tag k="source" v="http://ump.waw.pl/ retrieved 13:05:59 02/23/09 (UMP-Warszawa/src/WARSZAWA_PRAGA.ulice.txt)"/>
  </node>
  <node id="350152954" version="1" timestamp="2009-02-23T15:50:54Z" uid="20587" user="balrog-kun" changeset="639782" lat="52.240878" lon="21.0893375">
    <tag k="addr:city" v="Warszawa@Warszawa Praga"/>
    <tag k="addr:housenumber" v="20"/>
    <tag k="addr:street" v="Majdańska"/>
    <tag k="source" v="http://ump.waw.pl/ retrieved 13:05:59 02/23/09 (UMP-Warszawa/src/WARSZAWA_PRAGA.ulice.txt)"/>
  </node>
  <node id="350152968" version="1" timestamp="2009-02-23T15:50:55Z" uid="20587" user="balrog-kun" changeset="639782" lat="52.238008" lon="21.088663">
    <tag k="addr:city" v="Warszawa@Warszawa Praga"/>
    <tag k="addr:housenumber" v="2"/>
    <tag k="addr:street" v="Zgierska"/>
    <tag k="source" v="http://ump.waw.pl/ retrieved 13:05:59 02/23/09 (UMP-Warszawa/src/WARSZAWA_PRAGA.ulice.txt)"/>
  </node>
  <node id="350152974" version="1" timestamp="2009-02-23T15:50:55Z" uid="20587" user="balrog-kun" changeset="639782" lat="52.2373462" lon="21.0874916">
    <tag k="addr:city" v="Warszawa@Warszawa Praga"/>
    <tag k="addr:housenumber" v="4"/>
    <tag k="addr:street" v="Grenadierów"/>
    <tag k="source" v="http://ump.waw.pl/ retrieved 13:05:59 02/23/09 (UMP-Warszawa/src/WARSZAWA_PRAGA.ulice.txt)"/>
  </node>
  <node id="350152979" version="1" timestamp="2009-02-23T15:50:55Z" uid="20587" user="balrog-kun" changeset="639782" lat="52.2373179" lon="21.0904992">
    <tag k="addr:city" v="Warszawa@Warszawa Praga"/>
    <tag k="addr:housenumber" v="10"/>
    <tag k="addr:street" v="Białowieska"/>
    <tag k="source" v="http://ump.waw.pl/ retrieved 13:05:59 02/23/09 (UMP-Warszawa/src/WARSZAWA_PRAGA.ulice.txt)"/>
  </node>
  <node id="350152979" version="2" timestamp="2009-02-24T08:59:22Z" uid="20587" user="balrog-kun" changeset="647074" lat="52.2373947" lon="21.0906577">
    <tag k="addr:city" v="Warszawa@Warszawa Praga"/>
    <tag k="addr:housenumber" v="10"/>
    <tag k="addr:street" v="Białowieska"/>
    <tag k="source" v="http://ump.waw.pl/ retrieved 13:05:59 02/23/09 (UMP-Warszawa/src/WARSZAWA_PRAGA.ulice.txt)"/>
  </node>
  <node id="350152983" version="1" timestamp="2009-02-23T15:50:55Z" uid="20587" user="balrog-kun" changeset="639782" lat="52.2428463" lon="21.0877879">
    <tag k="addr:city" v="Warszawa@Warszawa Praga"/>
    <tag k="addr:housenumber" v="36"/>
    <tag k="addr:street" v="Igańska"/>
    <tag k="source" v="http://ump.waw.pl/ retrieved 13:05:59 02/23/09 (UMP-Warszawa/src/WARSZAWA_PRAGA.ulice.txt)"/>
  </node>
  <node id="350152988" version="1" timestamp="2009-02-23T15:50:55Z" uid="20587" user="balrog-kun" changeset="639782" lat="52.2431472" lon="21.086731">
    <tag k="addr:city" v="Warszawa@Warszawa Praga"/>
    <tag k="addr:housenumber" v="31"/>
    <tag k="addr:street" v="Czapelska"/>
    <tag k="source" v="http://ump.waw.pl/ retrieved 13:05:59 02/23/09 (UMP-Warszawa/src/WARSZAWA_PRAGA.ulice.txt)"/>
  </node>
  <node id="350152996" version="1" timestamp="2009-02-23T15:50:56Z" uid="20587" user="balrog-kun" changeset="639782" lat="52.2390331" lon="21.0856599">
    <tag k="addr:city" v="Warszawa@Warszawa Praga"/>
    <tag k="addr:housenumber" v="4"/>
    <tag k="addr:street" v="Majdańska"/>
    <tag k="source" v="http://ump.waw.pl/ retrieved 13:05:59 02/23/09 (UMP-Warszawa/src/WARSZAWA_PRAGA.ulice.txt)"/>
  </node>
  <node id="350153000" version="1" timestamp="2009-02-23T15:50:56Z" uid="20587" user="balrog-kun" changeset="639782" lat="52.2380515" lon="21.0973106">
    <tag k="addr:city" v="Warszawa@Warszawa Praga"/>
    <tag k="addr:housenumber" v="3"/>
    <tag k="addr:street" v="Mlądzka"/>
    <tag k="source" v="http://ump.waw.pl/ retrieved 13:05:59 02/23/09 (UMP-Warszawa/src/WARSZAWA_PRAGA.ulice.txt)"/>
  </node>
  <node id="350153005" version="1" timestamp="2009-02-23T15:50:56Z" uid="20587" user="balrog-kun" changeset="639782" lat="52.2403936" lon="21.0933327">
    <tag k="addr:city" v="Warszawa@Warszawa Praga"/>
    <tag k="addr:housenumber" v="9"/>
    <tag k="addr:street" v="Zagójska"/>
    <tag k="source" v="http://ump.waw.pl/ retrieved 13:05:59 02/23/09 (UMP-Warszawa/src/WARSZAWA_PRAGA.ulice.txt)"/>
  </node>
  <node id="350153012" version="1" timestamp="2009-02-23T15:50:56Z" uid="20587" user="balrog-kun" changeset="639782" lat="52.2408477" lon="21.0946987">
    <tag k="addr:city" v="Warszawa@Warszawa Praga"/>
    <tag k="addr:housenumber" v="18"/>
    <tag k="addr:street" v="Karczewska"/>
    <tag k="source" v="http://ump.waw.pl/ retrieved 13:05:59 02/23/09 (UMP-Warszawa/src/WARSZAWA_PRAGA.ulice.txt)"/>
  </node>
  <node id="350153016" version="1" timestamp="2009-02-23T15:50:57Z" uid="20587" user="balrog-kun" changeset="639782" lat="52.2402948" lon="21.0907187">
    <tag k="addr:city" v="Warszawa@Warszawa Praga"/>
    <tag k="addr:housenumber" v="7"/>
    <tag k="addr:street" v="Igańska"/>
    <tag k="source" v="http://ump.waw.pl/ retrieved 13:05:59 02/23/09 (UMP-Warszawa/src/WARSZAWA_PRAGA.ulice.txt)"/>
  </node>
  <node id="350153021" version="1" timestamp="2009-02-23T15:50:57Z" uid="20587" user="balrog-kun" changeset="639782" lat="52.2433379" lon="21.087105">
    <tag k="addr:city" v="Warszawa@Warszawa Praga"/>
    <tag k="addr:housenumber" v="33"/>
    <tag k="addr:street" v="Czapelska"/>
    <tag k="source" v="http://ump.waw.pl/ retrieved 13:05:59 02/23/09 (UMP-Warszawa/src/WARSZAWA_PRAGA.ulice.txt)"/>
  </node>
  <node id="350153026" version="1" timestamp="2009-02-23T15:50:57Z" uid="20587" user="balrog-kun" changeset="639782" lat="52.2402191" lon="21.0880328">
    <tag k="addr:city" v="Warszawa@Warszawa Praga"/>
    <tag k="addr:housenumber" v="14"/>
    <tag k="addr:street" v="Majdańska"/>
    <tag k="source" v="http://ump.waw.pl/ retrieved 13:05:59 02/23/09 (UMP-Warszawa/src/WARSZAWA_PRAGA.ulice.txt)"/>
  </node>
  <node id="350153032" version="1" timestamp="2009-02-23T15:50:57Z" uid="20587" user="balrog-kun" changeset="639782" lat="52.2428628" lon="21.0861596">
    <tag k="addr:city" v="Warszawa@Warszawa Praga"/>
    <tag k="addr:housenumber" v="27"/>
    <tag k="addr:street" v="Czapelska"/>
    <tag k="source" v="http://ump.waw.pl/ retrieved 13:05:59 02/23/09 (UMP-Warszawa/src/WARSZAWA_PRAGA.ulice.txt)"/>
  </node>
  <node id="350153038" version="1" timestamp="2009-02-23T15:50:57Z" uid="20587" user="balrog-kun" changeset="639782" lat="52.2411131" lon="21.0862463">
    <tag k="addr:city" v="Warszawa@Warszawa Praga"/>
    <tag k="addr:housenumber" v="10"/>
    <tag k="addr:street" v="Kruszewskiego"/>
    <tag k="source" v="http://ump.waw.pl/ retrieved 13:05:59 02/23/09 (UMP-Warszawa/src/WARSZAWA_PRAGA.ulice.txt)"/>
  </node>
  <node id="350153038" version="2" timestamp="2011-12-09T14:55:09Z" uid="441027" user="muzzy" changeset="10073605" lat="52.2411131" lon="21.0862463">
    <tag k="addr:city" v="Warszawa@Warszawa Praga"/>
    <tag k="addr:housenumber" v="10"/>
    <tag k="addr:street" v="Ignacego Kruszewskiego"/>
    <tag k="source" v="http://ump.waw.pl/ retrieved 13:05:59 02/23/09 (UMP-Warszawa/src/WARSZAWA_PRAGA.ulice.txt)"/>
  </node>
  <node id="350153044" version="1" timestamp="2009-02-23T15:50:57Z" uid="20587" user="balrog-kun" changeset="639782" lat="52.239021" lon="21.0938997">
    <tag k="addr:city" v="Warszawa@Warszawa Praga"/>
    <tag k="addr:housenumber" v="34"/>
    <tag k="addr:street" v="Białowieska"/>
    <tag k="source" v="http://ump.waw.pl/ retrieved 13:05:59 02/23/09 (UMP-Warszawa/src/WARSZAWA_PRAGA.ulice.txt)"/>
  </node>
  <node id="350153054" version="1" timestamp="2009-02-23T15:50:58Z" uid="20587" user="balrog-kun" changeset="639782" lat="52.2390307" lon="21.086368">
    <tag k="addr:city" v="Warszawa@Warszawa Praga"/>
    <tag k="addr:housenumber" v="7"/>
    <tag k="addr:street" v="Darłowska"/>
    <tag k="source" v="http://ump.waw.pl/ retrieved 13:05:59 02/23/09 (UMP-Warszawa/src/WARSZAWA_PRAGA.ulice.txt)"/>
  </node>
  <node id="350153064" version="1" timestamp="2009-02-23T15:50:59Z" uid="20587" user="balrog-kun" changeset="639782" lat="52.2399594" lon="21.0943187">
    <tag k="addr:city" v="Warszawa@Warszawa Praga"/>
    <tag k="addr:housenumber" v="62"/>
    <tag k="addr:street" v="Łukowska"/>
    <tag k="source" v="http://ump.waw.pl/ retrieved 13:05:59 02/23/09 (UMP-Warszawa/src/WARSZAWA_PRAGA.ulice.txt)"/>
  </node>
  <node id="350153076" version="1" timestamp="2009-02-23T15:50:59Z" uid="20587" user="balrog-kun" changeset="639782" lat="52.2385053" lon="21.0880368">
    <tag k="addr:city" v="Warszawa@Warszawa Praga"/>
    <tag k="addr:housenumber" v="8"/>
    <tag k="addr:street" v="Kutnowska"/>
    <tag k="source" v="http://ump.waw.pl/ retrieved 13:05:59 02/23/09 (UMP-Warszawa/src/WARSZAWA_PRAGA.ulice.txt)"/>
  </node>
  <node id="350153086" version="1" timestamp="2009-02-23T15:51:00Z" uid="20587" user="balrog-kun" changeset="639782" lat="52.2408449" lon="21.0899691">
    <tag k="addr:city" v="Warszawa@Warszawa Praga"/>
    <tag k="addr:housenumber" v="9"/>
    <tag k="addr:street" v="Igańska"/>
    <tag k="source" v="http://ump.waw.pl/ retrieved 13:05:59 02/23/09 (UMP-Warszawa/src/WARSZAWA_PRAGA.ulice.txt)"/>
  </node>
  <node id="350153093" version="1" timestamp="2009-02-23T15:51:00Z" uid="20587" user="balrog-kun" changeset="639782" lat="52.2407124" lon="21.0896789">
    <tag k="addr:city" v="Warszawa@Warszawa Praga"/>
    <tag k="addr:housenumber" v="19"/>
    <tag k="addr:street" v="Szczawnicka"/>
    <tag k="source" v="http://ump.waw.pl/ retrieved 13:05:59 02/23/09 (UMP-Warszawa/src/WARSZAWA_PRAGA.ulice.txt)"/>
  </node>
  <node id="350153100" version="1" timestamp="2009-02-23T15:51:00Z" uid="20587" user="balrog-kun" changeset="639782" lat="52.2388492" lon="21.0970199">
    <tag k="addr:city" v="Warszawa@Warszawa Praga"/>
    <tag k="addr:housenumber" v="35"/>
    <tag k="addr:street" v="Łukowska"/>
    <tag k="source" v="http://ump.waw.pl/ retrieved 13:05:59 02/23/09 (UMP-Warszawa/src/WARSZAWA_PRAGA.ulice.txt)"/>
  </node>
  <node id="350153108" version="1" timestamp="2009-02-23T15:51:01Z" uid="20587" user="balrog-kun" changeset="639782" lat="52.2432752" lon="21.0867012">
    <tag k="addr:city" v="Warszawa@Warszawa Praga"/>
    <tag k="addr:housenumber" v="27"/>
    <tag k="addr:street" v="Igańska"/>
    <tag k="source" v="http://ump.waw.pl/ retrieved 13:05:59 02/23/09 (UMP-Warszawa/src/WARSZAWA_PRAGA.ulice.txt)"/>
  </node>
  <node id="350153115" version="1" timestamp="2009-02-23T15:51:01Z" uid="20587" user="balrog-kun" changeset="639782" lat="52.2429326" lon="21.0870429">
    <tag k="addr:city" v="Warszawa@Warszawa Praga"/>
    <tag k="addr:housenumber" v="30"/>
    <tag k="addr:street" v="Czapelska"/>
    <tag k="source" v="http://ump.waw.pl/ retrieved 13:05:59 02/23/09 (UMP-Warszawa/src/WARSZAWA_PRAGA.ulice.txt)"/>
  </node>
  <node id="350153120" version="1" timestamp="2009-02-23T15:51:01Z" uid="20587" user="balrog-kun" changeset="639782" lat="52.2410913" lon="21.0948112">
    <tag k="addr:city" v="Warszawa@Warszawa Praga"/>
    <tag k="addr:housenumber" v="63"/>
    <tag k="addr:street" v="Sulejkowska"/>
    <tag k="source" v="http://ump.waw.pl/ retrieved 13:05:59 02/23/09 (UMP-Warszawa/src/WARSZAWA_PRAGA.ulice.txt)"/>
  </node>
  <node id="350153125" version="1" timestamp="2009-02-23T15:51:01Z" uid="20587" user="balrog-kun" changeset="639782" lat="52.2381715" lon="21.0908413">
    <tag k="addr:city" v="Warszawa@Warszawa Praga"/>
    <tag k="addr:housenumber" v="17"/>
    <tag k="addr:street" v="Białowieska"/>
    <tag k="source" v="http://ump.waw.pl/ retrieved 13:05:59 02/23/09 (UMP-Warszawa/src/WARSZAWA_PRAGA.ulice.txt)"/>
  </node>
  <node id="350153131" version="1" timestamp="2009-02-23T15:51:01Z" uid="20587" user="balrog-kun" changeset="639782" lat="52.2373765" lon="21.0934709">
    <tag k="addr:city" v="Warszawa@Warszawa Praga"/>
    <tag k="addr:housenumber" v="21"/>
    <tag k="addr:street" v="Gedymina"/>
    <tag k="source" v="http://ump.waw.pl/ retrieved 13:05:59 02/23/09 (UMP-Warszawa/src/WARSZAWA_PRAGA.ulice.txt)"/>
  </node>
  <node id="350153137" version="1" timestamp="2009-02-23T15:51:01Z" uid="20587" user="balrog-kun" changeset="639782" lat="52.2389668" lon="21.0872249">
    <tag k="addr:city" v="Warszawa@Warszawa Praga"/>
    <tag k="addr:housenumber" v="14"/>
    <tag k="addr:street" v="Darłowska"/>
    <tag k="source" v="http://ump.waw.pl/ retrieved 13:05:59 02/23/09 (UMP-Warszawa/src/WARSZAWA_PRAGA.ulice.txt)"/>
  </node>
  <node id="350153144" version="1" timestamp="2009-02-23T15:51:02Z" uid="20587" user="balrog-kun" changeset="639782" lat="52.2383738" lon="21.0942158">
    <tag k="addr:city" v="Warszawa@Warszawa Praga"/>
    <tag k="addr:housenumber" v="28"/>
    <tag k="addr:street" v="Białowieska"/>
    <tag k="source" v="http://ump.waw.pl/ retrieved 13:05:59 02/23/09 (UMP-Warszawa/src/WARSZAWA_PRAGA.ulice.txt)"/>
  </node>
  <node id="350153150" version="1" timestamp="2009-02-23T15:51:02Z" uid="20587" user="balrog-kun" changeset="639782" lat="52.2432808" lon="21.0864312">
    <tag k="addr:city" v="Warszawa@Warszawa Praga"/>
    <tag k="addr:housenumber" v="24"/>
    <tag k="addr:street" v="Męcińska"/>
    <tag k="source" v="http://ump.waw.pl/ retrieved 13:05:59 02/23/09 (UMP-Warszawa/src/WARSZAWA_PRAGA.ulice.txt)"/>
  </node>
  <node id="350153154" version="1" timestamp="2009-02-23T15:51:02Z" uid="20587" user="balrog-kun" changeset="639782" lat="52.2435845" lon="21.0871374">
    <tag k="addr:city" v="Warszawa@Warszawa Praga"/>
    <tag k="addr:housenumber" v="30"/>
    <tag k="addr:street" v="Męcińska"/>
    <tag k="source" v="http://ump.waw.pl/ retrieved 13:05:59 02/23/09 (UMP-Warszawa/src/WARSZAWA_PRAGA.ulice.txt)"/>
  </node>
  <node id="350153162" version="1" timestamp="2009-02-23T15:51:02Z" uid="20587" user="balrog-kun" changeset="639782" lat="52.2414929" lon="21.090618">
    <tag k="addr:city" v="Warszawa@Warszawa Praga"/>
    <tag k="addr:housenumber" v="26"/>
    <tag k="addr:street" v="Majdańska"/>
    <tag k="source" v="http://ump.waw.pl/ retrieved 13:05:59 02/23/09 (UMP-Warszawa/src/WARSZAWA_PRAGA.ulice.txt)"/>
  </node>
  <node id="350153171" version="1" timestamp="2009-02-23T15:51:02Z" uid="20587" user="balrog-kun" changeset="639782" lat="52.2425355" lon="21.0849909">
    <tag k="addr:city" v="Warszawa@Warszawa Praga"/>
    <tag k="addr:housenumber" v="18"/>
    <tag k="addr:street" v="Męcińska"/>
    <tag k="source" v="http://ump.waw.pl/ retrieved 13:05:59 02/23/09 (UMP-Warszawa/src/WARSZAWA_PRAGA.ulice.txt)"/>
  </node>
  <node id="350153175" version="1" timestamp="2009-02-23T15:51:03Z" uid="20587" user="balrog-kun" changeset="639782" lat="52.2412795" lon="21.0892275">
    <tag k="addr:city" v="Warszawa@Warszawa Praga"/>
    <tag k="addr:housenumber" v="13"/>
    <tag k="addr:street" v="Igańska"/>
    <tag k="source" v="http://ump.waw.pl/ retrieved 13:05:59 02/23/09 (UMP-Warszawa/src/WARSZAWA_PRAGA.ulice.txt)"/>
  </node>
  <node id="350153183" version="1" timestamp="2009-02-23T15:51:03Z" uid="20587" user="balrog-kun" changeset="639782" lat="52.2409365" lon="21.0873439">
    <tag k="addr:city" v="Warszawa@Warszawa Praga"/>
    <tag k="addr:housenumber" v="20"/>
    <tag k="addr:street" v="Korytnicka"/>
    <tag k="source" v="http://ump.waw.pl/ retrieved 13:05:59 02/23/09 (UMP-Warszawa/src/WARSZAWA_PRAGA.ulice.txt)"/>
  </node>
  <node id="350153192" version="1" timestamp="2009-02-23T15:51:03Z" uid="20587" user="balrog-kun" changeset="639782" lat="52.2412987" lon="21.0867282">
    <tag k="addr:city" v="Warszawa@Warszawa Praga"/>
    <tag k="addr:housenumber" v="8"/>
    <tag k="addr:street" v="Kruszewskiego"/>
    <tag k="source" v="http://ump.waw.pl/ retrieved 13:05:59 02/23/09 (UMP-Warszawa/src/WARSZAWA_PRAGA.ulice.txt)"/>
  </node>
  <node id="350153192" version="2" timestamp="2011-12-09T14:55:28Z" uid="441027" user="muzzy" changeset="10073605" lat="52.2412987" lon="21.0867282">
    <tag k="addr:city" v="Warszawa@Warszawa Praga"/>
    <tag k="addr:housenumber" v="8"/>
    <tag k="addr:street" v="Ignacego Kruszewskiego"/>
    <tag k="source" v="http://ump.waw.pl/ retrieved 13:05:59 02/23/09 (UMP-Warszawa/src/WARSZAWA_PRAGA.ulice.txt)"/>
  </node>
  <node id="350153202" version="1" timestamp="2009-02-23T15:51:04Z" uid="20587" user="balrog-kun" changeset="639782" lat="52.238521" lon="21.0957484">
    <tag k="addr:city" v="Warszawa@Warszawa Praga"/>
    <tag k="addr:housenumber" v="1"/>
    <tag k="addr:street" v="Okuniewska"/>
    <tag k="source" v="http://ump.waw.pl/ retrieved 13:05:59 02/23/09 (UMP-Warszawa/src/WARSZAWA_PRAGA.ulice.txt)"/>
  </node>
  <node id="350153202" version="2" timestamp="2010-06-05T21:18:15Z" uid="20587" user="balrog-kun" changeset="4912646" lat="52.238521" lon="21.0957484">
    <tag k="addr:city" v="Warszawa@Warszawa Praga"/>
    <tag k="addr:housenumber" v="1"/>
    <tag k="addr:street" v="Okuniewska"/>
    <tag k="source" v="http://ump.waw.pl/ retrieved 13:05:59 02/23/09 (UMP-Warszawa/src/WARSZAWA_PRAGA.ulice.txt)"/>
  </node>
  <node id="350153206" version="1" timestamp="2009-02-23T15:51:04Z" uid="20587" user="balrog-kun" changeset="639782" lat="52.2386731" lon="21.091808">
    <tag k="addr:city" v="Warszawa@Warszawa Praga"/>
    <tag k="addr:housenumber" v="19"/>
    <tag k="addr:street" v="Białowieska"/>
    <tag k="source" v="http://ump.waw.pl/ retrieved 13:05:59 02/23/09 (UMP-Warszawa/src/WARSZAWA_PRAGA.ulice.txt)"/>
  </node>
  <node id="350153214" version="1" timestamp="2009-02-23T15:51:04Z" uid="20587" user="balrog-kun" changeset="639782" lat="52.2399482" lon="21.0908818">
    <tag k="addr:city" v="Warszawa@Warszawa Praga"/>
    <tag k="addr:housenumber" v="30"/>
    <tag k="addr:street" v="Kutnowska"/>
    <tag k="source" v="http://ump.waw.pl/ retrieved 13:05:59 02/23/09 (UMP-Warszawa/src/WARSZAWA_PRAGA.ulice.txt)"/>
  </node>
  <node id="350153219" version="1" timestamp="2009-02-23T15:51:04Z" uid="20587" user="balrog-kun" changeset="639782" lat="52.2393699" lon="21.0945655">
    <tag k="addr:city" v="Warszawa@Warszawa Praga"/>
    <tag k="addr:housenumber" v="42"/>
    <tag k="addr:street" v="Białowieska"/>
    <tag k="source" v="http://ump.waw.pl/ retrieved 13:05:59 02/23/09 (UMP-Warszawa/src/WARSZAWA_PRAGA.ulice.txt)"/>
  </node>
  <node id="350153225" version="1" timestamp="2009-02-23T15:51:04Z" uid="20587" user="balrog-kun" changeset="639782" lat="52.2411083" lon="21.0924438">
    <tag k="addr:city" v="Warszawa@Warszawa Praga"/>
    <tag k="addr:housenumber" v="5"/>
    <tag k="addr:street" v="Zagójska"/>
    <tag k="source" v="http://ump.waw.pl/ retrieved 13:05:59 02/23/09 (UMP-Warszawa/src/WARSZAWA_PRAGA.ulice.txt)"/>
  </node>
  <node id="350153231" version="1" timestamp="2009-02-23T15:51:04Z" uid="20587" user="balrog-kun" changeset="639782" lat="52.2412536" lon="21.0950921">
    <tag k="addr:city" v="Warszawa@Warszawa Praga"/>
    <tag k="addr:housenumber" v="74"/>
    <tag k="addr:street" v="Sulejkowska"/>
    <tag k="source" v="http://ump.waw.pl/ retrieved 13:05:59 02/23/09 (UMP-Warszawa/src/WARSZAWA_PRAGA.ulice.txt)"/>
  </node>
  <node id="350153231" version="2" timestamp="2010-06-18T13:11:32Z" uid="20587" user="balrog-kun" changeset="5016212" lat="52.2413849" lon="21.0948127">
    <tag k="addr:city" v="Warszawa@Warszawa Praga"/>
    <tag k="addr:housenumber" v="74"/>
    <tag k="addr:street" v="Sulejkowska"/>
    <tag k="source" v="http://ump.waw.pl/ retrieved 13:05:59 02/23/09 (UMP-Warszawa/src/WARSZAWA_PRAGA.ulice.txt)"/>
  </node>
  <node id="350153236" version="1" timestamp="2009-02-23T15:51:04Z" uid="20587" user="balrog-kun" changeset="639782" lat="52.2402959" lon="21.0874783">
    <tag k="addr:city" v="Warszawa@Warszawa Praga"/>
    <tag k="addr:housenumber" v="2"/>
    <tag k="addr:street" v="Kruszewskiego"/>
    <tag k="source" v="http://ump.waw.pl/ retrieved 13:05:59 02/23/09 (UMP-Warszawa/src/WARSZAWA_PRAGA.ulice.txt)"/>
  </node>
  <node id="350153236" version="2" timestamp="2009-08-06T01:54:42Z" uid="20587" user="balrog-kun" changeset="2051674" lat="52.2403475" lon="21.0874141">
    <tag k="addr:city" v="Warszawa@Warszawa Praga"/>
    <tag k="addr:housenumber" v="2"/>
    <tag k="addr:street" v="Kruszewskiego"/>
    <tag k="source" v="http://ump.waw.pl/ retrieved 13:05:59 02/23/09 (UMP-Warszawa/src/WARSZAWA_PRAGA.ulice.txt)"/>
  </node>
  <node id="350153236" version="3" timestamp="2011-12-09T14:55:14Z" uid="441027" user="muzzy" changeset="10073605" lat="52.2403475" lon="21.0874141">
    <tag k="addr:city" v="Warszawa@Warszawa Praga"/>
    <tag k="addr:housenumber" v="2"/>
    <tag k="addr:street" v="Ignacego Kruszewskiego"/>
    <tag k="source" v="http://ump.waw.pl/ retrieved 13:05:59 02/23/09 (UMP-Warszawa/src/WARSZAWA_PRAGA.ulice.txt)"/>
  </node>
  <node id="350153243" version="1" timestamp="2009-02-23T15:51:05Z" uid="20587" user="balrog-kun" changeset="639782" lat="52.2396041" lon="21.0876055">
    <tag k="addr:city" v="Warszawa@Warszawa Praga"/>
    <tag k="addr:housenumber" v="1"/>
    <tag k="addr:street" v="Szczawnicka"/>
    <tag k="source" v="http://ump.waw.pl/ retrieved 13:05:59 02/23/09 (UMP-Warszawa/src/WARSZAWA_PRAGA.ulice.txt)"/>
  </node>
  <node id="350153249" version="1" timestamp="2009-02-23T15:51:05Z" uid="20587" user="balrog-kun" changeset="639782" lat="52.2389331" lon="21.094297">
    <tag k="addr:city" v="Warszawa@Warszawa Praga"/>
    <tag k="addr:housenumber" v="22"/>
    <tag k="addr:street" v="Zagójska"/>
    <tag k="source" v="http://ump.waw.pl/ retrieved 13:05:59 02/23/09 (UMP-Warszawa/src/WARSZAWA_PRAGA.ulice.txt)"/>
  </node>
  <node id="350153256" version="1" timestamp="2009-02-23T15:51:05Z" uid="20587" user="balrog-kun" changeset="639782" lat="52.2388578" lon="21.0935685">
    <tag k="addr:city" v="Warszawa@Warszawa Praga"/>
    <tag k="addr:housenumber" v="30"/>
    <tag k="addr:street" v="Białowieska"/>
    <tag k="source" v="http://ump.waw.pl/ retrieved 13:05:59 02/23/09 (UMP-Warszawa/src/WARSZAWA_PRAGA.ulice.txt)"/>
  </node>
  <node id="350153269" version="1" timestamp="2009-02-23T15:51:05Z" uid="20587" user="balrog-kun" changeset="639782" lat="52.239064" lon="21.0874222">
    <tag k="addr:city" v="Warszawa@Warszawa Praga"/>
    <tag k="addr:housenumber" v="4"/>
    <tag k="addr:street" v="Szczawnicka"/>
    <tag k="source" v="http://ump.waw.pl/ retrieved 13:05:59 02/23/09 (UMP-Warszawa/src/WARSZAWA_PRAGA.ulice.txt)"/>
  </node>
  <node id="350153277" version="1" timestamp="2009-02-23T15:51:05Z" uid="20587" user="balrog-kun" changeset="639782" lat="52.2386326" lon="21.0976622">
    <tag k="addr:city" v="Warszawa@Warszawa Praga"/>
    <tag k="addr:housenumber" v="5"/>
    <tag k="addr:street" v="Mlądzka"/>
    <tag k="source" v="http://ump.waw.pl/ retrieved 13:05:59 02/23/09 (UMP-Warszawa/src/WARSZAWA_PRAGA.ulice.txt)"/>
  </node>
  <node id="350153277" version="2" timestamp="2010-06-05T21:18:13Z" uid="20587" user="balrog-kun" changeset="4912646" lat="52.2383664" lon="21.0975062">
    <tag k="addr:city" v="Warszawa@Warszawa Praga"/>
    <tag k="addr:housenumber" v="5"/>
    <tag k="addr:street" v="Mlądzka"/>
    <tag k="source" v="http://ump.waw.pl/ retrieved 13:05:59 02/23/09 (UMP-Warszawa/src/WARSZAWA_PRAGA.ulice.txt)"/>
  </node>
  <node id="350153283" version="1" timestamp="2009-02-23T15:51:06Z" uid="20587" user="balrog-kun" changeset="639782" lat="52.2424573" lon="21.0926397">
    <tag k="addr:city" v="Warszawa@Warszawa Praga"/>
    <tag k="addr:housenumber" v="36"/>
    <tag k="addr:street" v="Majdańska"/>
    <tag k="source" v="http://ump.waw.pl/ retrieved 13:05:59 02/23/09 (UMP-Warszawa/src/WARSZAWA_PRAGA.ulice.txt)"/>
  </node>
  <node id="350153287" version="1" timestamp="2009-02-23T15:51:06Z" uid="20587" user="balrog-kun" changeset="639782" lat="52.242932" lon="21.097726">
    <tag k="addr:city" v="Warszawa@Warszawa Praga"/>
    <tag k="addr:housenumber" v="153"/>
    <tag k="addr:street" v="Grochowska"/>
    <tag k="source" v="http://ump.waw.pl/ retrieved 13:05:59 02/23/09 (UMP-Warszawa/src/WARSZAWA_PRAGA.ulice.txt)"/>
  </node>
  <node id="350153293" version="1" timestamp="2009-02-23T15:51:06Z" uid="20587" user="balrog-kun" changeset="639782" lat="52.24021" lon="21.090584">
    <tag k="addr:city" v="Warszawa@Warszawa Praga"/>
    <tag k="addr:housenumber" v="23"/>
    <tag k="addr:street" v="Kutnowska"/>
    <tag k="source" v="http://ump.waw.pl/ retrieved 13:05:59 02/23/09 (UMP-Warszawa/src/WARSZAWA_PRAGA.ulice.txt)"/>
  </node>
  <node id="350153299" version="1" timestamp="2009-02-23T15:51:06Z" uid="20587" user="balrog-kun" changeset="639782" lat="52.2432097" lon="21.0875791">
    <tag k="addr:city" v="Warszawa@Warszawa Praga"/>
    <tag k="addr:housenumber" v="32"/>
    <tag k="addr:street" v="Czapelska"/>
    <tag k="source" v="http://ump.waw.pl/ retrieved 13:05:59 02/23/09 (UMP-Warszawa/src/WARSZAWA_PRAGA.ulice.txt)"/>
  </node>
  <node id="350153299" version="2" timestamp="2009-04-27T20:46:17Z" uid="20587" user="balrog-kun" changeset="997244" lat="52.2431367" lon="21.0873721">
    <tag k="addr:city" v="Warszawa@Warszawa Praga"/>
    <tag k="addr:housenumber" v="32"/>
    <tag k="addr:street" v="Czapelska"/>
    <tag k="source" v="http://ump.waw.pl/ retrieved 13:05:59 02/23/09 (UMP-Warszawa/src/WARSZAWA_PRAGA.ulice.txt)"/>
  </node>
  <node id="350153305" version="1" timestamp="2009-02-23T15:51:06Z" uid="20587" user="balrog-kun" changeset="639782" lat="52.2387725" lon="21.0878145">
    <tag k="addr:city" v="Warszawa@Warszawa Praga"/>
    <tag k="addr:housenumber" v="7"/>
    <tag k="addr:street" v="Kutnowska"/>
    <tag k="source" v="http://ump.waw.pl/ retrieved 13:05:59 02/23/09 (UMP-Warszawa/src/WARSZAWA_PRAGA.ulice.txt)"/>
  </node>
  <node id="350153307" version="1" timestamp="2009-02-23T15:51:07Z" uid="20587" user="balrog-kun" changeset="639782" lat="52.2410648" lon="21.0957781">
    <tag k="addr:city" v="Warszawa@Warszawa Praga"/>
    <tag k="addr:housenumber" v="19"/>
    <tag k="addr:street" v="Omulewska"/>
    <tag k="source" v="http://ump.waw.pl/ retrieved 13:05:59 02/23/09 (UMP-Warszawa/src/WARSZAWA_PRAGA.ulice.txt)"/>
  </node>
  <node id="350153307" version="2" timestamp="2010-06-18T13:11:35Z" uid="20587" user="balrog-kun" changeset="5016212" lat="52.2410648" lon="21.0957781">
    <tag k="addr:city" v="Warszawa@Warszawa Praga"/>
    <tag k="addr:housenumber" v="19"/>
    <tag k="addr:street" v="Omulewska"/>
    <tag k="source" v="http://ump.waw.pl/ retrieved 13:05:59 02/23/09 (UMP-Warszawa/src/WARSZAWA_PRAGA.ulice.txt)"/>
  </node>
  <node id="350153310" version="1" timestamp="2009-02-23T15:51:07Z" uid="20587" user="balrog-kun" changeset="639782" lat="52.2411244" lon="21.0956155">
    <tag k="addr:city" v="Warszawa@Warszawa Praga"/>
    <tag k="addr:housenumber" v="70"/>
    <tag k="addr:street" v="Sulejkowska"/>
    <tag k="source" v="http://ump.waw.pl/ retrieved 13:05:59 02/23/09 (UMP-Warszawa/src/WARSZAWA_PRAGA.ulice.txt)"/>
  </node>
  <node id="350153310" version="2" timestamp="2010-06-18T13:11:31Z" uid="20587" user="balrog-kun" changeset="5016212" lat="52.2412147" lon="21.0954832">
    <tag k="addr:city" v="Warszawa@Warszawa Praga"/>
    <tag k="addr:housenumber" v="70"/>
    <tag k="addr:street" v="Sulejkowska"/>
    <tag k="source" v="http://ump.waw.pl/ retrieved 13:05:59 02/23/09 (UMP-Warszawa/src/WARSZAWA_PRAGA.ulice.txt)"/>
  </node>
  <node id="350153315" version="1" timestamp="2009-02-23T15:51:07Z" uid="20587" user="balrog-kun" changeset="639782" lat="52.2416471" lon="21.0887686">
    <tag k="addr:city" v="Warszawa@Warszawa Praga"/>
    <tag k="addr:housenumber" v="15"/>
    <tag k="addr:street" v="Igańska"/>
    <tag k="source" v="http://ump.waw.pl/ retrieved 13:05:59 02/23/09 (UMP-Warszawa/src/WARSZAWA_PRAGA.ulice.txt)"/>
  </node>
  <node id="350153318" version="1" timestamp="2009-02-23T15:51:07Z" uid="20587" user="balrog-kun" changeset="639782" lat="52.2441182" lon="21.0887132">
    <tag k="addr:city" v="Warszawa@Warszawa Praga"/>
    <tag k="addr:housenumber" v="39"/>
    <tag k="addr:street" v="Czapelska"/>
    <tag k="source" v="http://ump.waw.pl/ retrieved 13:05:59 02/23/09 (UMP-Warszawa/src/WARSZAWA_PRAGA.ulice.txt)"/>
  </node>
  <node id="350153325" version="1" timestamp="2009-02-23T15:51:07Z" uid="20587" user="balrog-kun" changeset="639782" lat="52.2363761" lon="21.0934319">
    <tag k="addr:city" v="Warszawa@Warszawa Praga"/>
    <tag k="addr:housenumber" v="17"/>
    <tag k="addr:street" v="Gedymina"/>
    <tag k="source" v="http://ump.waw.pl/ retrieved 13:05:59 02/23/09 (UMP-Warszawa/src/WARSZAWA_PRAGA.ulice.txt)"/>
  </node>
  <node id="350153332" version="1" timestamp="2009-02-23T15:51:07Z" uid="20587" user="balrog-kun" changeset="639782" lat="52.2375306" lon="21.0896875">
    <tag k="addr:city" v="Warszawa@Warszawa Praga"/>
    <tag k="addr:housenumber" v="7"/>
    <tag k="addr:street" v="Białowieska"/>
    <tag k="source" v="http://ump.waw.pl/ retrieved 13:05:59 02/23/09 (UMP-Warszawa/src/WARSZAWA_PRAGA.ulice.txt)"/>
  </node>
  <node id="350153341" version="1" timestamp="2009-02-23T15:51:07Z" uid="20587" user="balrog-kun" changeset="639782" lat="52.2410204" lon="21.0905295">
    <tag k="addr:city" v="Warszawa@Warszawa Praga"/>
    <tag k="addr:housenumber" v="12"/>
    <tag k="addr:street" v="Igańska"/>
    <tag k="source" v="http://ump.waw.pl/ retrieved 13:05:59 02/23/09 (UMP-Warszawa/src/WARSZAWA_PRAGA.ulice.txt)"/>
  </node>
  <node id="350153350" version="1" timestamp="2009-02-23T15:51:08Z" uid="20587" user="balrog-kun" changeset="639782" lat="52.2369157" lon="21.0897763">
    <tag k="addr:city" v="Warszawa@Warszawa Praga"/>
    <tag k="addr:housenumber" v="6"/>
    <tag k="addr:street" v="Białowieska"/>
    <tag k="source" v="http://ump.waw.pl/ retrieved 13:05:59 02/23/09 (UMP-Warszawa/src/WARSZAWA_PRAGA.ulice.txt)"/>
  </node>
  <node id="350153358" version="1" timestamp="2009-02-23T15:51:08Z" uid="20587" user="balrog-kun" changeset="639782" lat="52.2401988" lon="21.091611">
    <tag k="addr:city" v="Warszawa@Warszawa Praga"/>
    <tag k="addr:housenumber" v="6"/>
    <tag k="addr:street" v="Igańska"/>
    <tag k="source" v="http://ump.waw.pl/ retrieved 13:05:59 02/23/09 (UMP-Warszawa/src/WARSZAWA_PRAGA.ulice.txt)"/>
  </node>
  <node id="350153388" version="1" timestamp="2009-02-23T15:51:08Z" uid="20587" user="balrog-kun" changeset="639782" lat="52.2387664" lon="21.0959092">
    <tag k="addr:city" v="Warszawa@Warszawa Praga"/>
    <tag k="addr:housenumber" v="5"/>
    <tag k="addr:street" v="Okuniewska"/>
    <tag k="source" v="http://ump.waw.pl/ retrieved 13:05:59 02/23/09 (UMP-Warszawa/src/WARSZAWA_PRAGA.ulice.txt)"/>
  </node>
  <node id="350153388" version="2" timestamp="2010-06-05T21:18:16Z" uid="20587" user="balrog-kun" changeset="4912646" lat="52.2387664" lon="21.0959092">
    <tag k="addr:city" v="Warszawa@Warszawa Praga"/>
    <tag k="addr:housenumber" v="5"/>
    <tag k="addr:street" v="Okuniewska"/>
    <tag k="source" v="http://ump.waw.pl/ retrieved 13:05:59 02/23/09 (UMP-Warszawa/src/WARSZAWA_PRAGA.ulice.txt)"/>
  </node>
  <node id="350153395" version="1" timestamp="2009-02-23T15:51:08Z" uid="20587" user="balrog-kun" changeset="639782" lat="52.2407155" lon="21.0868969">
    <tag k="addr:city" v="Warszawa@Warszawa Praga"/>
    <tag k="addr:housenumber" v="6"/>
    <tag k="addr:street" v="Kruszewskiego"/>
    <tag k="source" v="http://ump.waw.pl/ retrieved 13:05:59 02/23/09 (UMP-Warszawa/src/WARSZAWA_PRAGA.ulice.txt)"/>
  </node>
  <node id="350153395" version="2" timestamp="2011-12-09T14:55:25Z" uid="441027" user="muzzy" changeset="10073605" lat="52.2407155" lon="21.0868969">
    <tag k="addr:city" v="Warszawa@Warszawa Praga"/>
    <tag k="addr:housenumber" v="6"/>
    <tag k="addr:street" v="Ignacego Kruszewskiego"/>
    <tag k="source" v="http://ump.waw.pl/ retrieved 13:05:59 02/23/09 (UMP-Warszawa/src/WARSZAWA_PRAGA.ulice.txt)"/>
  </node>
  <node id="350153405" version="1" timestamp="2009-02-23T15:51:09Z" uid="20587" user="balrog-kun" changeset="639782" lat="52.2391307" lon="21.0940485">
    <tag k="addr:city" v="Warszawa@Warszawa Praga"/>
    <tag k="addr:housenumber" v="18"/>
    <tag k="addr:street" v="Zagójska"/>
    <tag k="source" v="http://ump.waw.pl/ retrieved 13:05:59 02/23/09 (UMP-Warszawa/src/WARSZAWA_PRAGA.ulice.txt)"/>
  </node>
  <node id="350153410" version="1" timestamp="2009-02-23T15:51:09Z" uid="20587" user="balrog-kun" changeset="639782" lat="52.2385601" lon="21.0869244">
    <tag k="addr:city" v="Warszawa@Warszawa Praga"/>
    <tag k="addr:housenumber" v="5"/>
    <tag k="addr:street" v="Darłowska"/>
    <tag k="source" v="http://ump.waw.pl/ retrieved 13:05:59 02/23/09 (UMP-Warszawa/src/WARSZAWA_PRAGA.ulice.txt)"/>
  </node>
  <node id="350153416" version="1" timestamp="2009-02-23T15:51:09Z" uid="20587" user="balrog-kun" changeset="639782" lat="52.2393153" lon="21.0920002">
    <tag k="addr:city" v="Warszawa@Warszawa Praga"/>
    <tag k="addr:housenumber" v="3"/>
    <tag k="addr:street" v="Igańska"/>
    <tag k="source" v="http://ump.waw.pl/ retrieved 13:05:59 02/23/09 (UMP-Warszawa/src/WARSZAWA_PRAGA.ulice.txt)"/>
  </node>
  <node id="350153418" version="1" timestamp="2009-02-23T15:51:09Z" uid="20587" user="balrog-kun" changeset="639782" lat="52.2380732" lon="21.0875567">
    <tag k="addr:city" v="Warszawa@Warszawa Praga"/>
    <tag k="addr:housenumber" v="3"/>
    <tag k="addr:street" v="Darłowska"/>
    <tag k="source" v="http://ump.waw.pl/ retrieved 13:05:59 02/23/09 (UMP-Warszawa/src/WARSZAWA_PRAGA.ulice.txt)"/>
  </node>
  <node id="350153422" version="1" timestamp="2009-02-23T15:51:09Z" uid="20587" user="balrog-kun" changeset="639782" lat="52.2374165" lon="21.0938685">
    <tag k="addr:city" v="Warszawa@Warszawa Praga"/>
    <tag k="addr:housenumber" v="28"/>
    <tag k="addr:street" v="Gedymina"/>
    <tag k="source" v="http://ump.waw.pl/ retrieved 13:05:59 02/23/09 (UMP-Warszawa/src/WARSZAWA_PRAGA.ulice.txt)"/>
  </node>
  <node id="350153427" version="1" timestamp="2009-02-23T15:51:09Z" uid="20587" user="balrog-kun" changeset="639782" lat="52.239231" lon="21.0942922">
    <tag k="addr:city" v="Warszawa@Warszawa Praga"/>
    <tag k="addr:housenumber" v="38"/>
    <tag k="addr:street" v="Białowieska"/>
    <tag k="source" v="http://ump.waw.pl/ retrieved 13:05:59 02/23/09 (UMP-Warszawa/src/WARSZAWA_PRAGA.ulice.txt)"/>
  </node>
  <node id="350153430" version="1" timestamp="2009-02-23T15:51:09Z" uid="20587" user="balrog-kun" changeset="639782" lat="52.2386475" lon="21.0931484">
    <tag k="addr:city" v="Warszawa@Warszawa Praga"/>
    <tag k="addr:housenumber" v="26"/>
    <tag k="addr:street" v="Białowieska"/>
    <tag k="source" v="http://ump.waw.pl/ retrieved 13:05:59 02/23/09 (UMP-Warszawa/src/WARSZAWA_PRAGA.ulice.txt)"/>
  </node>
  <node id="350153436" version="1" timestamp="2009-02-23T15:51:10Z" uid="20587" user="balrog-kun" changeset="639782" lat="52.2367028" lon="21.0893726">
    <tag k="addr:city" v="Warszawa@Warszawa Praga"/>
    <tag k="addr:housenumber" v="4"/>
    <tag k="addr:street" v="Białowieska"/>
    <tag k="source" v="http://ump.waw.pl/ retrieved 13:05:59 02/23/09 (UMP-Warszawa/src/WARSZAWA_PRAGA.ulice.txt)"/>
  </node>
  <node id="350153442" version="1" timestamp="2009-02-23T15:51:10Z" uid="20587" user="balrog-kun" changeset="639782" lat="52.2400435" lon="21.0941876">
    <tag k="addr:city" v="Warszawa@Warszawa Praga"/>
    <tag k="addr:housenumber" v="6"/>
    <tag k="addr:street" v="Karczewska"/>
    <tag k="source" v="http://ump.waw.pl/ retrieved 13:05:59 02/23/09 (UMP-Warszawa/src/WARSZAWA_PRAGA.ulice.txt)"/>
  </node>
  <node id="350153447" version="1" timestamp="2009-02-23T15:51:10Z" uid="20587" user="balrog-kun" changeset="639782" lat="52.2427432" lon="21.0914473">
    <tag k="addr:city" v="Warszawa@Warszawa Praga"/>
    <tag k="addr:housenumber" v="4"/>
    <tag k="addr:street" v="Ostrołęcka"/>
    <tag k="source" v="http://ump.waw.pl/ retrieved 13:05:59 02/23/09 (UMP-Warszawa/src/WARSZAWA_PRAGA.ulice.txt)"/>
  </node>
  <node id="350153453" version="1" timestamp="2009-02-23T15:51:10Z" uid="20587" user="balrog-kun" changeset="639782" lat="52.2399058" lon="21.0911823">
    <tag k="addr:city" v="Warszawa@Warszawa Praga"/>
    <tag k="addr:housenumber" v="5"/>
    <tag k="addr:street" v="Igańska"/>
    <tag k="source" v="http://ump.waw.pl/ retrieved 13:05:59 02/23/09 (UMP-Warszawa/src/WARSZAWA_PRAGA.ulice.txt)"/>
  </node>
  <node id="350153457" version="1" timestamp="2009-02-23T15:51:10Z" uid="20587" user="balrog-kun" changeset="639782" lat="52.2420034" lon="21.0883603">
    <tag k="addr:city" v="Warszawa@Warszawa Praga"/>
    <tag k="addr:housenumber" v="17"/>
    <tag k="addr:street" v="Igańska"/>
    <tag k="source" v="http://ump.waw.pl/ retrieved 13:05:59 02/23/09 (UMP-Warszawa/src/WARSZAWA_PRAGA.ulice.txt)"/>
  </node>
  <node id="350153459" version="1" timestamp="2009-02-23T15:51:10Z" uid="20587" user="balrog-kun" changeset="639782" lat="52.2426982" lon="21.086577">
    <tag k="addr:city" v="Warszawa@Warszawa Praga"/>
    <tag k="addr:housenumber" v="28"/>
    <tag k="addr:street" v="Czapelska"/>
    <tag k="source" v="http://ump.waw.pl/ retrieved 13:05:59 02/23/09 (UMP-Warszawa/src/WARSZAWA_PRAGA.ulice.txt)"/>
  </node>
  <node id="350153464" version="1" timestamp="2009-02-23T15:51:10Z" uid="20587" user="balrog-kun" changeset="639782" lat="52.2395069" lon="21.0915585">
    <tag k="addr:city" v="Warszawa@Warszawa Praga"/>
    <tag k="addr:housenumber" v="20"/>
    <tag k="addr:street" v="Zgierska"/>
    <tag k="source" v="http://ump.waw.pl/ retrieved 13:05:59 02/23/09 (UMP-Warszawa/src/WARSZAWA_PRAGA.ulice.txt)"/>
  </node>
  <node id="350153467" version="1" timestamp="2009-02-23T15:51:10Z" uid="20587" user="balrog-kun" changeset="639782" lat="52.2373672" lon="21.0893766">
    <tag k="addr:city" v="Warszawa@Warszawa Praga"/>
    <tag k="addr:housenumber" v="5"/>
    <tag k="addr:street" v="Białowieska"/>
    <tag k="source" v="http://ump.waw.pl/ retrieved 13:05:59 02/23/09 (UMP-Warszawa/src/WARSZAWA_PRAGA.ulice.txt)"/>
  </node>
  <node id="350153474" version="1" timestamp="2009-02-23T15:51:11Z" uid="20587" user="balrog-kun" changeset="639782" lat="52.2383212" lon="21.0902988">
    <tag k="addr:city" v="Warszawa@Warszawa Praga"/>
    <tag k="addr:housenumber" v="26"/>
    <tag k="addr:street" v="Budrysów"/>
    <tag k="source" v="http://ump.waw.pl/ retrieved 13:05:59 02/23/09 (UMP-Warszawa/src/WARSZAWA_PRAGA.ulice.txt)"/>
  </node>
  <node id="350153477" version="1" timestamp="2009-02-23T15:51:11Z" uid="20587" user="balrog-kun" changeset="639782" lat="52.2377951" lon="21.0901931">
    <tag k="addr:city" v="Warszawa@Warszawa Praga"/>
    <tag k="addr:housenumber" v="13"/>
    <tag k="addr:street" v="Białowieska"/>
    <tag k="source" v="http://ump.waw.pl/ retrieved 13:05:59 02/23/09 (UMP-Warszawa/src/WARSZAWA_PRAGA.ulice.txt)"/>
  </node>
  <node id="350153484" version="1" timestamp="2009-02-23T15:51:11Z" uid="20587" user="balrog-kun" changeset="639782" lat="52.2371614" lon="21.0992114">
    <tag k="addr:city" v="Warszawa@Warszawa Praga"/>
    <tag k="addr:housenumber" v="40"/>
    <tag k="addr:street" v="Zamieniecka"/>
    <tag k="source" v="http://ump.waw.pl/ retrieved 13:05:59 02/23/09 (UMP-Warszawa/src/WARSZAWA_PRAGA.ulice.txt)"/>
  </node>
  <node id="350153486" version="1" timestamp="2009-02-23T15:51:11Z" uid="20587" user="balrog-kun" changeset="639782" lat="52.2403517" lon="21.0913681">
    <tag k="addr:city" v="Warszawa@Warszawa Praga"/>
    <tag k="addr:housenumber" v="8"/>
    <tag k="addr:street" v="Igańska"/>
    <tag k="source" v="http://ump.waw.pl/ retrieved 13:05:59 02/23/09 (UMP-Warszawa/src/WARSZAWA_PRAGA.ulice.txt)"/>
  </node>
  <node id="350153492" version="1" timestamp="2009-02-23T15:51:11Z" uid="20587" user="balrog-kun" changeset="639782" lat="52.239603" lon="21.0923771">
    <tag k="addr:city" v="Warszawa@Warszawa Praga"/>
    <tag k="addr:housenumber" v="2"/>
    <tag k="addr:street" v="Igańska"/>
    <tag k="source" v="http://ump.waw.pl/ retrieved 13:05:59 02/23/09 (UMP-Warszawa/src/WARSZAWA_PRAGA.ulice.txt)"/>
  </node>
  <node id="350153496" version="1" timestamp="2009-02-23T15:51:11Z" uid="20587" user="balrog-kun" changeset="639782" lat="52.2439506" lon="21.0890085">
    <tag k="addr:city" v="Warszawa@Warszawa Praga"/>
    <tag k="addr:housenumber" v="40"/>
    <tag k="addr:street" v="Czapelska"/>
    <tag k="source" v="http://ump.waw.pl/ retrieved 13:05:59 02/23/09 (UMP-Warszawa/src/WARSZAWA_PRAGA.ulice.txt)"/>
  </node>
  <node id="350153496" version="2" timestamp="2009-04-27T20:46:17Z" uid="20587" user="balrog-kun" changeset="997244" lat="52.2432938" lon="21.0876975">
    <tag k="addr:city" v="Warszawa@Warszawa Praga"/>
    <tag k="addr:housenumber" v="36"/>
    <tag k="addr:street" v="Czapelska"/>
    <tag k="source" v="http://ump.waw.pl/ retrieved 13:05:59 02/23/09 (UMP-Warszawa/src/WARSZAWA_PRAGA.ulice.txt)"/>
  </node>
  <node id="350153502" version="1" timestamp="2009-02-23T15:51:11Z" uid="20587" user="balrog-kun" changeset="639782" lat="52.2434308" lon="21.0894006">
    <tag k="addr:city" v="Warszawa@Warszawa Praga"/>
    <tag k="addr:housenumber" v="39"/>
    <tag k="addr:street" v="Krypska"/>
    <tag k="source" v="http://ump.waw.pl/ retrieved 13:05:59 02/23/09 (UMP-Warszawa/src/WARSZAWA_PRAGA.ulice.txt)"/>
  </node>
  <node id="350153507" version="1" timestamp="2009-02-23T15:51:12Z" uid="20587" user="balrog-kun" changeset="639782" lat="52.2354807" lon="21.0960709">
    <tag k="addr:city" v="Warszawa@Warszawa Praga"/>
    <tag k="addr:housenumber" v="13"/>
    <tag k="addr:street" v="Łukiska"/>
    <tag k="source" v="http://ump.waw.pl/ retrieved 13:05:59 02/23/09 (UMP-Warszawa/src/WARSZAWA_PRAGA.ulice.txt)"/>
  </node>
  <node id="350153513" version="1" timestamp="2009-02-23T15:51:12Z" uid="20587" user="balrog-kun" changeset="639782" lat="52.2430004" lon="21.0973976">
    <tag k="addr:city" v="Warszawa@Warszawa Praga"/>
    <tag k="addr:housenumber" v="155"/>
    <tag k="addr:street" v="Grochowska"/>
    <tag k="source" v="http://ump.waw.pl/ retrieved 13:05:59 02/23/09 (UMP-Warszawa/src/WARSZAWA_PRAGA.ulice.txt)"/>
  </node>
  <node id="350153518" version="1" timestamp="2009-02-23T15:51:12Z" uid="20587" user="balrog-kun" changeset="639782" lat="52.2361678" lon="21.0933745">
    <tag k="addr:city" v="Warszawa@Warszawa Praga"/>
    <tag k="addr:housenumber" v="13"/>
    <tag k="addr:street" v="Gedymina"/>
    <tag k="source" v="http://ump.waw.pl/ retrieved 13:05:59 02/23/09 (UMP-Warszawa/src/WARSZAWA_PRAGA.ulice.txt)"/>
  </node>
  <node id="350153524" version="1" timestamp="2009-02-23T15:51:12Z" uid="20587" user="balrog-kun" changeset="639782" lat="52.2411686" lon="21.0890123">
    <tag k="addr:city" v="Warszawa@Warszawa Praga"/>
    <tag k="addr:housenumber" v="21"/>
    <tag k="addr:street" v="Majdańska"/>
    <tag k="source" v="http://ump.waw.pl/ retrieved 13:05:59 02/23/09 (UMP-Warszawa/src/WARSZAWA_PRAGA.ulice.txt)"/>
  </node>
  <node id="350153528" version="1" timestamp="2009-02-23T15:51:12Z" uid="20587" user="balrog-kun" changeset="639782" lat="52.2382616" lon="21.0971305">
    <tag k="addr:city" v="Warszawa@Warszawa Praga"/>
    <tag k="addr:housenumber" v="37"/>
    <tag k="addr:street" v="Łukowska"/>
    <tag k="source" v="http://ump.waw.pl/ retrieved 13:05:59 02/23/09 (UMP-Warszawa/src/WARSZAWA_PRAGA.ulice.txt)"/>
  </node>
  <node id="350153533" version="1" timestamp="2009-02-23T15:51:12Z" uid="20587" user="balrog-kun" changeset="639782" lat="52.2371138" lon="21.0934896">
    <tag k="addr:city" v="Warszawa@Warszawa Praga"/>
    <tag k="addr:housenumber" v="19"/>
    <tag k="addr:street" v="Gedymina"/>
    <tag k="source" v="http://ump.waw.pl/ retrieved 13:05:59 02/23/09 (UMP-Warszawa/src/WARSZAWA_PRAGA.ulice.txt)"/>
  </node>
  <node id="350153535" version="1" timestamp="2009-02-23T15:51:12Z" uid="20587" user="balrog-kun" changeset="639782" lat="52.2415315" lon="21.0855746">
    <tag k="addr:city" v="Warszawa@Warszawa Praga"/>
    <tag k="addr:housenumber" v="15"/>
    <tag k="addr:street" v="Krypska"/>
    <tag k="source" v="http://ump.waw.pl/ retrieved 13:05:59 02/23/09 (UMP-Warszawa/src/WARSZAWA_PRAGA.ulice.txt)"/>
  </node>
  <node id="350153540" version="1" timestamp="2009-02-23T15:51:12Z" uid="20587" user="balrog-kun" changeset="639782" lat="52.2369799" lon="21.0921331">
    <tag k="addr:city" v="Warszawa@Warszawa Praga"/>
    <tag k="addr:housenumber" v="18"/>
    <tag k="addr:street" v="Budrysów"/>
    <tag k="source" v="http://ump.waw.pl/ retrieved 13:05:59 02/23/09 (UMP-Warszawa/src/WARSZAWA_PRAGA.ulice.txt)"/>
  </node>
  <node id="350153540" version="2" timestamp="2009-02-24T08:59:23Z" uid="20587" user="balrog-kun" changeset="647074" lat="52.2369516" lon="21.0922388">
    <tag k="addr:city" v="Warszawa@Warszawa Praga"/>
    <tag k="addr:housenumber" v="18"/>
    <tag k="addr:street" v="Budrysów"/>
    <tag k="source" v="http://ump.waw.pl/ retrieved 13:05:59 02/23/09 (UMP-Warszawa/src/WARSZAWA_PRAGA.ulice.txt)"/>
  </node>
  <node id="350153542" version="1" timestamp="2009-02-23T15:51:13Z" uid="20587" user="balrog-kun" changeset="639782" lat="52.2421545" lon="21.0854775">
    <tag k="addr:city" v="Warszawa@Warszawa Praga"/>
    <tag k="addr:housenumber" v="18"/>
    <tag k="addr:street" v="Kruszewskiego"/>
    <tag k="source" v="http://ump.waw.pl/ retrieved 13:05:59 02/23/09 (UMP-Warszawa/src/WARSZAWA_PRAGA.ulice.txt)"/>
  </node>
  <node id="350153542" version="2" timestamp="2011-12-09T14:55:13Z" uid="441027" user="muzzy" changeset="10073605" lat="52.2421545" lon="21.0854775">
    <tag k="addr:city" v="Warszawa@Warszawa Praga"/>
    <tag k="addr:housenumber" v="18"/>
    <tag k="addr:street" v="Ignacego Kruszewskiego"/>
    <tag k="source" v="http://ump.waw.pl/ retrieved 13:05:59 02/23/09 (UMP-Warszawa/src/WARSZAWA_PRAGA.ulice.txt)"/>
  </node>
  <node id="350153546" version="1" timestamp="2009-02-23T15:51:13Z" uid="20587" user="balrog-kun" changeset="639782" lat="52.2427565" lon="21.0872999">
    <tag k="addr:city" v="Warszawa@Warszawa Praga"/>
    <tag k="addr:housenumber" v="21"/>
    <tag k="addr:street" v="Igańska"/>
    <tag k="source" v="http://ump.waw.pl/ retrieved 13:05:59 02/23/09 (UMP-Warszawa/src/WARSZAWA_PRAGA.ulice.txt)"/>
  </node>
  <node id="350153548" version="1" timestamp="2009-02-23T15:51:13Z" uid="20587" user="balrog-kun" changeset="639782" lat="52.2396833" lon="21.0911462">
    <tag k="addr:city" v="Warszawa@Warszawa Praga"/>
    <tag k="addr:housenumber" v="19"/>
    <tag k="addr:street" v="Zgierska"/>
    <tag k="source" v="http://ump.waw.pl/ retrieved 13:05:59 02/23/09 (UMP-Warszawa/src/WARSZAWA_PRAGA.ulice.txt)"/>
  </node>
  <node id="350153551" version="1" timestamp="2009-02-23T15:51:13Z" uid="20587" user="balrog-kun" changeset="639782" lat="52.2398516" lon="21.0947496">
    <tag k="addr:city" v="Warszawa@Warszawa Praga"/>
    <tag k="addr:housenumber" v="66"/>
    <tag k="addr:street" v="Łukowska"/>
    <tag k="source" v="http://ump.waw.pl/ retrieved 13:05:59 02/23/09 (UMP-Warszawa/src/WARSZAWA_PRAGA.ulice.txt)"/>
  </node>
  <node id="350153555" version="1" timestamp="2009-02-23T15:51:13Z" uid="20587" user="balrog-kun" changeset="639782" lat="52.2382657" lon="21.0883027">
    <tag k="addr:city" v="Warszawa@Warszawa Praga"/>
    <tag k="addr:housenumber" v="5"/>
    <tag k="addr:street" v="Zgierska"/>
    <tag k="source" v="http://ump.waw.pl/ retrieved 13:05:59 02/23/09 (UMP-Warszawa/src/WARSZAWA_PRAGA.ulice.txt)"/>
  </node>
  <node id="350153559" version="1" timestamp="2009-02-23T15:51:13Z" uid="20587" user="balrog-kun" changeset="639782" lat="52.2381441" lon="21.091942">
    <tag k="addr:city" v="Warszawa@Warszawa Praga"/>
    <tag k="addr:housenumber" v="22"/>
    <tag k="addr:street" v="Białowieska"/>
    <tag k="source" v="http://ump.waw.pl/ retrieved 13:05:59 02/23/09 (UMP-Warszawa/src/WARSZAWA_PRAGA.ulice.txt)"/>
  </node>
  <node id="350153559" version="2" timestamp="2009-02-24T08:59:24Z" uid="20587" user="balrog-kun" changeset="647074" lat="52.2381441" lon="21.091942">
    <tag k="addr:city" v="Warszawa@Warszawa Praga"/>
    <tag k="addr:housenumber" v="22"/>
    <tag k="addr:street" v="Białowieska"/>
    <tag k="source" v="http://ump.waw.pl/ retrieved 13:05:59 02/23/09 (UMP-Warszawa/src/WARSZAWA_PRAGA.ulice.txt)"/>
  </node>
  <node id="350153562" version="1" timestamp="2009-02-23T15:51:13Z" uid="20587" user="balrog-kun" changeset="639782" lat="52.2405368" lon="21.0877885">
    <tag k="addr:city" v="Warszawa@Warszawa Praga"/>
    <tag k="addr:housenumber" v="17"/>
    <tag k="addr:street" v="Majdańska"/>
    <tag k="source" v="http://ump.waw.pl/ retrieved 13:05:59 02/23/09 (UMP-Warszawa/src/WARSZAWA_PRAGA.ulice.txt)"/>
  </node>
  <node id="350153566" version="1" timestamp="2009-02-23T15:51:13Z" uid="20587" user="balrog-kun" changeset="639782" lat="52.2399698" lon="21.0985123">
    <tag k="addr:city" v="Warszawa@Warszawa Praga"/>
    <tag k="addr:housenumber" v="19"/>
    <tag k="addr:street" v="Mlądzka"/>
    <tag k="source" v="http://ump.waw.pl/ retrieved 13:05:59 02/23/09 (UMP-Warszawa/src/WARSZAWA_PRAGA.ulice.txt)"/>
  </node>
  <node id="350153570" version="1" timestamp="2009-02-23T15:51:14Z" uid="20587" user="balrog-kun" changeset="639782" lat="52.2377471" lon="21.0909119">
    <tag k="addr:city" v="Warszawa@Warszawa Praga"/>
    <tag k="addr:housenumber" v="20"/>
    <tag k="addr:street" v="Budrysów"/>
    <tag k="source" v="http://ump.waw.pl/ retrieved 13:05:59 02/23/09 (UMP-Warszawa/src/WARSZAWA_PRAGA.ulice.txt)"/>
  </node>
  <node id="350153570" version="2" timestamp="2009-02-24T08:59:23Z" uid="20587" user="balrog-kun" changeset="647074" lat="52.2376541" lon="21.0912156">
    <tag k="addr:city" v="Warszawa@Warszawa Praga"/>
    <tag k="addr:housenumber" v="20"/>
    <tag k="addr:street" v="Budrysów"/>
    <tag k="source" v="http://ump.waw.pl/ retrieved 13:05:59 02/23/09 (UMP-Warszawa/src/WARSZAWA_PRAGA.ulice.txt)"/>
  </node>
  <node id="350153574" version="1" timestamp="2009-02-23T15:51:14Z" uid="20587" user="balrog-kun" changeset="639782" lat="52.2392934" lon="21.098073">
    <tag k="addr:city" v="Warszawa@Warszawa Praga"/>
    <tag k="addr:housenumber" v="15"/>
    <tag k="addr:street" v="Mlądzka"/>
    <tag k="source" v="http://ump.waw.pl/ retrieved 13:05:59 02/23/09 (UMP-Warszawa/src/WARSZAWA_PRAGA.ulice.txt)"/>
  </node>
  <node id="350153578" version="1" timestamp="2009-02-23T15:51:14Z" uid="20587" user="balrog-kun" changeset="639782" lat="52.2369996" lon="21.0879753">
    <tag k="addr:city" v="Warszawa@Warszawa Praga"/>
    <tag k="addr:housenumber" v="2"/>
    <tag k="addr:street" v="Grenadierów"/>
    <tag k="source" v="http://ump.waw.pl/ retrieved 13:05:59 02/23/09 (UMP-Warszawa/src/WARSZAWA_PRAGA.ulice.txt)"/>
  </node>
  <node id="350153580" version="1" timestamp="2009-02-23T15:51:14Z" uid="20587" user="balrog-kun" changeset="639782" lat="52.2417301" lon="21.0952029">
    <tag k="addr:city" v="Warszawa@Warszawa Praga"/>
    <tag k="addr:housenumber" v="26"/>
    <tag k="addr:street" v="Karczewska"/>
    <tag k="source" v="http://ump.waw.pl/ retrieved 13:05:59 02/23/09 (UMP-Warszawa/src/WARSZAWA_PRAGA.ulice.txt)"/>
  </node>
  <node id="350153580" version="2" timestamp="2010-06-18T13:11:33Z" uid="20587" user="balrog-kun" changeset="5016212" lat="52.2417852" lon="21.0951146">
    <tag k="addr:city" v="Warszawa@Warszawa Praga"/>
    <tag k="addr:housenumber" v="26"/>
    <tag k="addr:street" v="Karczewska"/>
    <tag k="source" v="http://ump.waw.pl/ retrieved 13:05:59 02/23/09 (UMP-Warszawa/src/WARSZAWA_PRAGA.ulice.txt)"/>
  </node>
  <node id="350153585" version="1" timestamp="2009-02-23T15:51:14Z" uid="20587" user="balrog-kun" changeset="639782" lat="52.2412729" lon="21.0902105">
    <tag k="addr:city" v="Warszawa@Warszawa Praga"/>
    <tag k="addr:housenumber" v="24"/>
    <tag k="addr:street" v="Majdańska"/>
    <tag k="source" v="http://ump.waw.pl/ retrieved 13:05:59 02/23/09 (UMP-Warszawa/src/WARSZAWA_PRAGA.ulice.txt)"/>
  </node>
  <node id="350153588" version="1" timestamp="2009-02-23T15:51:14Z" uid="20587" user="balrog-kun" changeset="639782" lat="52.2361279" lon="21.0937232">
    <tag k="addr:city" v="Warszawa@Warszawa Praga"/>
    <tag k="addr:housenumber" v="18"/>
    <tag k="addr:street" v="Gedymina"/>
    <tag k="source" v="http://ump.waw.pl/ retrieved 13:05:59 02/23/09 (UMP-Warszawa/src/WARSZAWA_PRAGA.ulice.txt)"/>
  </node>
  <node id="350153592" version="1" timestamp="2009-02-23T15:51:14Z" uid="20587" user="balrog-kun" changeset="639782" lat="52.2431242" lon="21.0873822">
    <tag k="addr:city" v="Warszawa@Warszawa Praga"/>
    <tag k="addr:housenumber" v="36"/>
    <tag k="addr:street" v="Igańska"/>
    <tag k="source" v="http://ump.waw.pl/ retrieved 13:05:59 02/23/09 (UMP-Warszawa/src/WARSZAWA_PRAGA.ulice.txt)"/>
  </node>
  <node id="350153592" version="2" timestamp="2009-04-27T20:46:17Z" uid="20587" user="balrog-kun" changeset="997244" lat="52.243009" lon="21.0875641">
    <tag k="addr:city" v="Warszawa@Warszawa Praga"/>
    <tag k="addr:housenumber" v="36"/>
    <tag k="addr:street" v="Igańska"/>
    <tag k="source" v="http://ump.waw.pl/ retrieved 13:05:59 02/23/09 (UMP-Warszawa/src/WARSZAWA_PRAGA.ulice.txt)"/>
  </node>
  <node id="350153596" version="1" timestamp="2009-02-23T15:51:15Z" uid="20587" user="balrog-kun" changeset="639782" lat="52.2376001" lon="21.0909062">
    <tag k="addr:city" v="Warszawa@Warszawa Praga"/>
    <tag k="addr:housenumber" v="12"/>
    <tag k="addr:street" v="Białowieska"/>
    <tag k="source" v="http://ump.waw.pl/ retrieved 13:05:59 02/23/09 (UMP-Warszawa/src/WARSZAWA_PRAGA.ulice.txt)"/>
  </node>
  <node id="350153596" version="2" timestamp="2009-02-24T08:59:23Z" uid="20587" user="balrog-kun" changeset="647074" lat="52.2377942" lon="21.0914279">
    <tag k="addr:city" v="Warszawa@Warszawa Praga"/>
    <tag k="addr:housenumber" v="12"/>
    <tag k="addr:street" v="Białowieska"/>
    <tag k="source" v="http://ump.waw.pl/ retrieved 13:05:59 02/23/09 (UMP-Warszawa/src/WARSZAWA_PRAGA.ulice.txt)"/>
  </node>
  <node id="350153600" version="1" timestamp="2009-02-23T15:51:15Z" uid="20587" user="balrog-kun" changeset="639782" lat="52.2370623" lon="21.0939075">
    <tag k="addr:city" v="Warszawa@Warszawa Praga"/>
    <tag k="addr:housenumber" v="24"/>
    <tag k="addr:street" v="Gedymina"/>
    <tag k="source" v="http://ump.waw.pl/ retrieved 13:05:59 02/23/09 (UMP-Warszawa/src/WARSZAWA_PRAGA.ulice.txt)"/>
  </node>
  <node id="350153604" version="1" timestamp="2009-02-23T15:51:15Z" uid="20587" user="balrog-kun" changeset="639782" lat="52.2430833" lon="21.0953942">
    <tag k="addr:city" v="Warszawa@Warszawa Praga"/>
    <tag k="addr:housenumber" v="33"/>
    <tag k="addr:street" v="Karczewska"/>
    <tag k="source" v="http://ump.waw.pl/ retrieved 13:05:59 02/23/09 (UMP-Warszawa/src/WARSZAWA_PRAGA.ulice.txt)"/>
  </node>
  <node id="350153604" version="2" timestamp="2010-06-18T13:11:34Z" uid="20587" user="balrog-kun" changeset="5016212" lat="52.2430833" lon="21.0953942">
    <tag k="addr:city" v="Warszawa@Warszawa Praga"/>
    <tag k="addr:housenumber" v="33"/>
    <tag k="addr:street" v="Karczewska"/>
    <tag k="source" v="http://ump.waw.pl/ retrieved 13:05:59 02/23/09 (UMP-Warszawa/src/WARSZAWA_PRAGA.ulice.txt)"/>
  </node>
  <node id="350153609" version="1" timestamp="2009-02-23T15:51:15Z" uid="20587" user="balrog-kun" changeset="639782" lat="52.2364799" lon="21.0938286">
    <tag k="addr:city" v="Warszawa@Warszawa Praga"/>
    <tag k="addr:housenumber" v="20"/>
    <tag k="addr:street" v="Gedymina"/>
    <tag k="source" v="http://ump.waw.pl/ retrieved 13:05:59 02/23/09 (UMP-Warszawa/src/WARSZAWA_PRAGA.ulice.txt)"/>
  </node>
  <node id="350153612" version="1" timestamp="2009-02-23T15:51:15Z" uid="20587" user="balrog-kun" changeset="639782" lat="52.2415487" lon="21.0885213">
    <tag k="addr:city" v="Warszawa@Warszawa Praga"/>
    <tag k="addr:housenumber" v="28"/>
    <tag k="addr:street" v="Korytnicka"/>
    <tag k="source" v="http://ump.waw.pl/ retrieved 13:05:59 02/23/09 (UMP-Warszawa/src/WARSZAWA_PRAGA.ulice.txt)"/>
  </node>
  <node id="350153615" version="1" timestamp="2009-02-23T15:51:15Z" uid="20587" user="balrog-kun" changeset="639782" lat="52.2405907" lon="21.0903536">
    <tag k="addr:city" v="Warszawa@Warszawa Praga"/>
    <tag k="addr:housenumber" v="7"/>
    <tag k="addr:street" v="Igańska"/>
    <tag k="source" v="http://ump.waw.pl/ retrieved 13:05:59 02/23/09 (UMP-Warszawa/src/WARSZAWA_PRAGA.ulice.txt)"/>
  </node>
  <node id="350153619" version="1" timestamp="2009-02-23T15:51:15Z" uid="20587" user="balrog-kun" changeset="639782" lat="52.2417863" lon="21.086975">
    <tag k="addr:city" v="Warszawa@Warszawa Praga"/>
    <tag k="addr:housenumber" v="24"/>
    <tag k="addr:street" v="Krypska"/>
    <tag k="source" v="http://ump.waw.pl/ retrieved 13:05:59 02/23/09 (UMP-Warszawa/src/WARSZAWA_PRAGA.ulice.txt)"/>
  </node>
  <node id="350153623" version="1" timestamp="2009-02-23T15:51:15Z" uid="20587" user="balrog-kun" changeset="639782" lat="52.2414011" lon="21.0950014">
    <tag k="addr:city" v="Warszawa@Warszawa Praga"/>
    <tag k="addr:housenumber" v="18"/>
    <tag k="addr:street" v="Karczewska"/>
    <tag k="source" v="http://ump.waw.pl/ retrieved 13:05:59 02/23/09 (UMP-Warszawa/src/WARSZAWA_PRAGA.ulice.txt)"/>
  </node>
  <node id="350153623" version="2" timestamp="2010-06-18T13:11:33Z" uid="20587" user="balrog-kun" changeset="5016212" lat="52.2414073" lon="21.0948723">
    <tag k="addr:city" v="Warszawa@Warszawa Praga"/>
    <tag k="addr:housenumber" v="18"/>
    <tag k="addr:street" v="Karczewska"/>
    <tag k="source" v="http://ump.waw.pl/ retrieved 13:05:59 02/23/09 (UMP-Warszawa/src/WARSZAWA_PRAGA.ulice.txt)"/>
  </node>
  <node id="350153626" version="1" timestamp="2009-02-23T15:51:16Z" uid="20587" user="balrog-kun" changeset="639782" lat="52.239848" lon="21.0920717">
    <tag k="addr:city" v="Warszawa@Warszawa Praga"/>
    <tag k="addr:housenumber" v="4"/>
    <tag k="addr:street" v="Igańska"/>
    <tag k="source" v="http://ump.waw.pl/ retrieved 13:05:59 02/23/09 (UMP-Warszawa/src/WARSZAWA_PRAGA.ulice.txt)"/>
  </node>
  <node id="350153629" version="1" timestamp="2009-02-23T15:51:16Z" uid="20587" user="balrog-kun" changeset="639782" lat="52.2404728" lon="21.0901808">
    <tag k="addr:city" v="Warszawa@Warszawa Praga"/>
    <tag k="addr:housenumber" v="20"/>
    <tag k="addr:street" v="Szczawnicka"/>
    <tag k="source" v="http://ump.waw.pl/ retrieved 13:05:59 02/23/09 (UMP-Warszawa/src/WARSZAWA_PRAGA.ulice.txt)"/>
  </node>
  <node id="350153632" version="1" timestamp="2009-02-23T15:51:16Z" uid="20587" user="balrog-kun" changeset="639782" lat="52.2400783" lon="21.0985713">
    <tag k="addr:city" v="Warszawa@Warszawa Praga"/>
    <tag k="addr:housenumber" v="23"/>
    <tag k="addr:street" v="Mlądzka"/>
    <tag k="source" v="http://ump.waw.pl/ retrieved 13:05:59 02/23/09 (UMP-Warszawa/src/WARSZAWA_PRAGA.ulice.txt)"/>
  </node>
  <node id="350153637" version="1" timestamp="2009-02-23T15:51:16Z" uid="20587" user="balrog-kun" changeset="639782" lat="52.2415011" lon="21.0943332">
    <tag k="addr:city" v="Warszawa@Warszawa Praga"/>
    <tag k="addr:housenumber" v="3"/>
    <tag k="addr:street" v="Karczewska"/>
    <tag k="source" v="http://ump.waw.pl/ retrieved 13:05:59 02/23/09 (UMP-Warszawa/src/WARSZAWA_PRAGA.ulice.txt)"/>
  </node>
  <node id="350153639" version="1" timestamp="2009-02-23T15:51:16Z" uid="20587" user="balrog-kun" changeset="639782" lat="52.2375997" lon="21.0939876">
    <tag k="addr:city" v="Warszawa@Warszawa Praga"/>
    <tag k="addr:housenumber" v="30"/>
    <tag k="addr:street" v="Gedymina"/>
    <tag k="source" v="http://ump.waw.pl/ retrieved 13:05:59 02/23/09 (UMP-Warszawa/src/WARSZAWA_PRAGA.ulice.txt)"/>
  </node>
  <node id="350153643" version="1" timestamp="2009-02-23T15:51:16Z" uid="20587" user="balrog-kun" changeset="639782" lat="52.2356561" lon="21.0947012">
    <tag k="addr:city" v="Warszawa@Warszawa Praga"/>
    <tag k="addr:housenumber" v="13"/>
    <tag k="addr:street" v="Filomatów"/>
    <tag k="source" v="http://ump.waw.pl/ retrieved 13:05:59 02/23/09 (UMP-Warszawa/src/WARSZAWA_PRAGA.ulice.txt)"/>
  </node>
  <node id="350153647" version="1" timestamp="2009-02-23T15:51:16Z" uid="20587" user="balrog-kun" changeset="639782" lat="52.2354654" lon="21.0947139">
    <tag k="addr:city" v="Warszawa@Warszawa Praga"/>
    <tag k="addr:housenumber" v="100"/>
    <tag k="addr:street" v="Ostrobramska"/>
    <tag k="source" v="http://ump.waw.pl/ retrieved 13:05:59 02/23/09 (UMP-Warszawa/src/WARSZAWA_PRAGA.ulice.txt)"/>
  </node>
  <node id="350153650" version="1" timestamp="2009-02-23T15:51:16Z" uid="20587" user="balrog-kun" changeset="639782" lat="52.2369298" lon="21.0885255">
    <tag k="addr:city" v="Warszawa@Warszawa Praga"/>
    <tag k="addr:housenumber" v="1"/>
    <tag k="addr:street" v="Białowieska"/>
    <tag k="source" v="http://ump.waw.pl/ retrieved 13:05:59 02/23/09 (UMP-Warszawa/src/WARSZAWA_PRAGA.ulice.txt)"/>
  </node>
  <node id="350153658" version="1" timestamp="2009-02-23T15:51:17Z" uid="20587" user="balrog-kun" changeset="639782" lat="52.238667" lon="21.0876381">
    <tag k="addr:city" v="Warszawa@Warszawa Praga"/>
    <tag k="addr:housenumber" v="4"/>
    <tag k="addr:street" v="Darłowska"/>
    <tag k="source" v="http://ump.waw.pl/ retrieved 13:05:59 02/23/09 (UMP-Warszawa/src/WARSZAWA_PRAGA.ulice.txt)"/>
  </node>
  <node id="350153661" version="1" timestamp="2009-02-23T15:51:17Z" uid="20587" user="balrog-kun" changeset="639782" lat="52.2410441" lon="21.0962096">
    <tag k="addr:city" v="Warszawa@Warszawa Praga"/>
    <tag k="addr:housenumber" v="24"/>
    <tag k="addr:street" v="Omulewska"/>
    <tag k="source" v="http://ump.waw.pl/ retrieved 13:05:59 02/23/09 (UMP-Warszawa/src/WARSZAWA_PRAGA.ulice.txt)"/>
  </node>
  <node id="350153668" version="1" timestamp="2009-02-23T15:51:17Z" uid="20587" user="balrog-kun" changeset="639782" lat="52.2410668" lon="21.0896903">
    <tag k="addr:city" v="Warszawa@Warszawa Praga"/>
    <tag k="addr:housenumber" v="11"/>
    <tag k="addr:street" v="Igańska"/>
    <tag k="source" v="http://ump.waw.pl/ retrieved 13:05:59 02/23/09 (UMP-Warszawa/src/WARSZAWA_PRAGA.ulice.txt)"/>
  </node>
  <node id="350153672" version="1" timestamp="2009-02-23T15:51:17Z" uid="20587" user="balrog-kun" changeset="639782" lat="52.2406164" lon="21.0986356">
    <tag k="addr:city" v="Warszawa@Warszawa Praga"/>
    <tag k="addr:housenumber" v="25"/>
    <tag k="addr:street" v="Mlądzka"/>
    <tag k="source" v="http://ump.waw.pl/ retrieved 13:05:59 02/23/09 (UMP-Warszawa/src/WARSZAWA_PRAGA.ulice.txt)"/>
  </node>
  <node id="350153680" version="1" timestamp="2009-02-23T15:51:17Z" uid="20587" user="balrog-kun" changeset="639782" lat="52.2407692" lon="21.0937566">
    <tag k="addr:city" v="Warszawa@Warszawa Praga"/>
    <tag k="addr:housenumber" v="1"/>
    <tag k="addr:street" v="Karczewska"/>
    <tag k="source" v="http://ump.waw.pl/ retrieved 13:05:59 02/23/09 (UMP-Warszawa/src/WARSZAWA_PRAGA.ulice.txt)"/>
  </node>
  <node id="350153680" version="2" timestamp="2011-02-21T20:28:18Z" uid="20587" user="balrog-kun" changeset="7357755" lat="52.2407334" lon="21.0939135">
    <tag k="addr:city" v="Warszawa@Warszawa Praga"/>
    <tag k="addr:housenumber" v="1"/>
    <tag k="addr:street" v="Karczewska"/>
    <tag k="source" v="http://ump.waw.pl/ retrieved 13:05:59 02/23/09 (UMP-Warszawa/src/WARSZAWA_PRAGA.ulice.txt)"/>
  </node>
  <node id="350153683" version="1" timestamp="2009-02-23T15:51:17Z" uid="20587" user="balrog-kun" changeset="639782" lat="52.2412221" lon="21.0871006">
    <tag k="addr:city" v="Warszawa@Warszawa Praga"/>
    <tag k="addr:housenumber" v="21"/>
    <tag k="addr:street" v="Korytnicka"/>
    <tag k="source" v="http://ump.waw.pl/ retrieved 13:05:59 02/23/09 (UMP-Warszawa/src/WARSZAWA_PRAGA.ulice.txt)"/>
  </node>
  <node id="350153693" version="1" timestamp="2009-02-23T15:51:18Z" uid="20587" user="balrog-kun" changeset="639782" lat="52.2401656" lon="21.0981798">
    <tag k="addr:city" v="Warszawa@Warszawa Praga"/>
    <tag k="addr:housenumber" v="45"/>
    <tag k="addr:street" v="Sulejkowska"/>
    <tag k="source" v="http://ump.waw.pl/ retrieved 13:05:59 02/23/09 (UMP-Warszawa/src/WARSZAWA_PRAGA.ulice.txt)"/>
  </node>
  <node id="350154958" version="3" timestamp="2009-03-08T14:00:14Z" uid="6975" user="ulfl" changeset="757880" lat="51.3668577" lon="7.6651536">
    <tag k="amenity" v="bank"/>
    <tag k="name" v="Sparkasse"/>
  </node>
  <node id="350154958" version="4" timestamp="2009-03-13T10:38:15Z" uid="101471" user="Ironforester" changeset="803362" lat="51.3668528" lon="7.6651531">
    <tag k="amenity" v="bank"/>
    <tag k="created_by" v="Potlatch 0.10f"/>
    <tag k="operator" v="Sparkasse Iserlohn"/>
  </node>
  <node id="350154958" version="5" timestamp="2009-03-13T10:44:53Z" uid="101471" user="Ironforester" changeset="803362" lat="51.3668581" lon="7.6652046">
    <tag k="amenity" v="bank"/>
    <tag k="created_by" v="Potlatch 0.10f"/>
    <tag k="operator" v="Sparkasse Iserlohn"/>
  </node>
  <node id="350154958" version="6" timestamp="2009-05-14T11:13:24Z" uid="25327" user="dehein2" changeset="1186840" lat="51.3669304" lon="7.6652662">
    <tag k="amenity" v="bank"/>
    <tag k="created_by" v="Potlatch 0.10f"/>
    <tag k="operator" v="Sparkasse Iserlohn"/>
  </node>
  <node id="350154958" version="7" timestamp="2012-01-20T13:05:21Z" uid="408202" user="BFX" changeset="10445151" lat="51.3669304" lon="7.6652662">
    <tag k="amenity" v="bank"/>
    <tag k="operator" v="Sparkasse Iserlohn"/>
  </node>
</osm>
