<?xml version='1.0' encoding='UTF-8'?>
<osm version="0.6" generator="libosmium/2.20.0">
  <node id="356351432" version="1" timestamp="2009-03-06T19:32:02Z" uid="90394" user="petrovsk" changeset="746499" lat="42.5817781" lon="2.6620834">
    <tag k="highway" v="mountain_pass"/>
    <tag k="name" v="Coll de Sull"/>
  </node>
  <node id="356351432" version="2" timestamp="2009-03-08T14:04:57Z" uid="6975" user="ulfl" changeset="757880" lat="42.5817781" lon="2.6620834">
    <tag k="mountain_pass" v="yes"/>
    <tag k="name" v="Coll de Sull"/>
  </node>
  <node id="356351432" version="3" timestamp="2010-04-20T19:40:26Z" uid="90394" user="petrovsk" changeset="4480885" lat="42.5818431" lon="2.6620727">
    <tag k="mountain_pass" v="yes"/>
    <tag k="name" v="Coll de Sull"/>
  </node>
  <node id="356351627" version="1" timestamp="2009-03-06T19:32:19Z" uid="90394" user="petrovsk" changeset="746499" lat="42.5692897" lon="2.6630567">
    <tag k="highway" v="mountain_pass"/>
    <tag k="name" v="Coll de Prunet de Baix"/>
  </node>
  <node id="356351627" version="2" timestamp="2009-03-08T14:04:59Z" uid="6975" user="ulfl" changeset="757880" lat="42.5692897" lon="2.6630567">
    <tag k="mountain_pass" v="yes"/>
    <tag k="name" v="Coll de Prunet de Baix"/>
  </node>
  <node id="356351627" version="3" timestamp="2010-04-20T19:40:24Z" uid="90394" user="petrovsk" changeset="4480885" lat="42.5692782" lon="2.6630619">
    <tag k="mountain_pass" v="yes"/>
    <tag k="name" v="Coll de Prunet de Baix"/>
  </node>
</osm>
