<?xml version='1.0' encoding='UTF-8'?>
<osm version="0.6" generator="libosmium/2.20.0">
  <node id="356301311" version="1" timestamp="2009-03-06T16:54:39Z" uid="97309" user="Kurt_Woloch" changeset="746688" lat="48.2588271" lon="16.3986839">
    <tag k="created_by" v="Potlatch 0.10f"/>
    <tag k="name" v="Palmers"/>
    <tag k="shop" v="clothing"/>
  </node>
  <node id="356301311" version="2" timestamp="2009-03-06T16:55:08Z" uid="97309" user="Kurt_Woloch" changeset="746688" lat="48.2587871" lon="16.3987268">
    <tag k="created_by" v="Potlatch 0.10f"/>
    <tag k="name" v="Palmers"/>
    <tag k="shop" v="clothing"/>
  </node>
  <node id="356301311" version="3" timestamp="2009-03-06T16:56:36Z" uid="97309" user="Kurt_Woloch" changeset="746688" lat="48.2587643" lon="16.3986324">
    <tag k="created_by" v="Potlatch 0.10f"/>
    <tag k="name" v="Palmers"/>
    <tag k="shop" v="clothing"/>
  </node>
  <node id="356301311" version="4" timestamp="2009-03-06T16:56:51Z" uid="97309" user="Kurt_Woloch" changeset="746688" lat="48.2586557" lon="16.3988212">
    <tag k="created_by" v="Potlatch 0.10f"/>
    <tag k="name" v="Palmers"/>
    <tag k="shop" v="clothing"/>
  </node>
  <node id="356301311" version="5" timestamp="2009-03-06T16:56:56Z" uid="97309" user="Kurt_Woloch" changeset="746688" lat="48.2587186" lon="16.3987783">
    <tag k="created_by" v="Potlatch 0.10f"/>
    <tag k="name" v="Palmers"/>
    <tag k="shop" v="clothing"/>
  </node>
  <node id="356301311" version="6" timestamp="2009-03-08T14:16:08Z" uid="6975" user="ulfl" changeset="757880" lat="48.2587186" lon="16.3987783">
    <tag k="name" v="Palmers"/>
    <tag k="shop" v="clothes"/>
  </node>
  <node id="356301311" version="7" timestamp="2011-08-15T00:11:51Z" uid="56501" user="Rudolf_H" changeset="9022288" lat="48.2587443" lon="16.3987097">
    <tag k="name" v="Palmers"/>
    <tag k="shop" v="clothes"/>
  </node>
  <node id="356301311" version="8" timestamp="2011-09-20T12:17:12Z" uid="290680" user="wheelmap_visitor" changeset="9350863" lat="48.2587443" lon="16.3987097">
    <tag k="name" v="Palmers"/>
    <tag k="shop" v="clothes"/>
    <tag k="wheelchair" v="no"/>
  </node>
  <node id="356301586" version="1" timestamp="2009-03-06T16:57:10Z" uid="43863" user="Rundling" changeset="744008" lat="52.9835895" lon="10.7664134"/>
  <node id="356301586" version="2" timestamp="2011-05-10T11:44:34Z" uid="51324" user="OPerivar" changeset="8101392" lat="52.9835895" lon="10.7664135"/>
  <node id="356301589" version="1" timestamp="2009-03-06T16:57:10Z" uid="43863" user="Rundling" changeset="744008" lat="52.9835902" lon="10.7664133"/>
  <node id="356301590" version="1" timestamp="2009-03-06T16:57:10Z" uid="43863" user="Rundling" changeset="744008" lat="52.9847104" lon="10.7665354"/>
  <node id="356301590" version="2" timestamp="2009-07-15T10:31:07Z" uid="43863" user="Rundling" changeset="1835076" lat="52.9847021" lon="10.7665775"/>
  <node id="356301590" version="3" timestamp="2009-07-17T05:55:00Z" uid="43863" user="Rundling" changeset="1850745" lat="52.9846873" lon="10.7665786"/>
  <node id="356301590" version="4" timestamp="2010-06-17T17:11:19Z" uid="43863" user="Rundling" changeset="5010453" lat="52.9846766" lon="10.7665808"/>
  <node id="356301590" version="5" timestamp="2010-12-31T14:41:15Z" uid="43863" user="Rundling" changeset="6820355" lat="52.9846268" lon="10.766752"/>
  <node id="356301591" version="1" timestamp="2009-03-06T16:57:10Z" uid="43863" user="Rundling" changeset="744008" lat="52.9847096" lon="10.7665364"/>
  <node id="356301591" version="2" timestamp="2009-07-15T10:31:06Z" uid="43863" user="Rundling" changeset="1835076" lat="52.9846998" lon="10.7665806"/>
  <node id="356301591" version="3" timestamp="2009-07-17T05:55:00Z" uid="43863" user="Rundling" changeset="1850745" lat="52.9846743" lon="10.7665821"/>
  <node id="356301591" version="4" timestamp="2010-12-31T14:41:12Z" uid="43863" user="Rundling" changeset="6820355" lat="52.9846252" lon="10.7667544"/>
  <node id="356301602" version="1" timestamp="2009-03-06T16:57:36Z" uid="43863" user="Rundling" changeset="744008" lat="52.984449" lon="10.7689078"/>
  <node id="356301679" version="1" timestamp="2009-03-06T16:58:08Z" uid="43863" user="Rundling" changeset="744008" lat="52.9846748" lon="10.7696767"/>
  <node id="356302150" version="1" timestamp="2009-03-06T17:00:09Z" uid="43863" user="Rundling" changeset="744008" lat="52.9837803" lon="10.7751267"/>
  <node id="356302152" version="1" timestamp="2009-03-06T17:00:09Z" uid="43863" user="Rundling" changeset="744008" lat="52.9829445" lon="10.7749531"/>
  <node id="356302153" version="1" timestamp="2009-03-06T17:00:09Z" uid="43863" user="Rundling" changeset="744008" lat="52.9830105" lon="10.7747339"/>
  <node id="356304178" version="1" timestamp="2009-03-06T17:10:30Z" uid="97309" user="Kurt_Woloch" changeset="746688" lat="48.2589643" lon="16.3982719">
    <tag k="amenity" v="hairdresser"/>
    <tag k="created_by" v="Potlatch 0.10f"/>
    <tag k="name" v="Klipp Friseur"/>
  </node>
  <node id="356304178" version="2" timestamp="2009-03-08T13:53:03Z" uid="6975" user="ulfl" changeset="757880" lat="48.2589643" lon="16.3982719">
    <tag k="name" v="Klipp Friseur"/>
    <tag k="shop" v="hairdresser"/>
  </node>
  <node id="356304178" version="3" timestamp="2011-08-15T00:11:51Z" uid="56501" user="Rudolf_H" changeset="9022288" lat="48.258972" lon="16.3982658">
    <tag k="name" v="Klipp Friseur"/>
    <tag k="shop" v="hairdresser"/>
  </node>
  <node id="356304178" version="4" timestamp="2011-09-20T12:20:19Z" uid="290680" user="wheelmap_visitor" changeset="9350863" lat="48.258972" lon="16.3982658">
    <tag k="name" v="Klipp Friseur"/>
    <tag k="shop" v="hairdresser"/>
    <tag k="wheelchair" v="no"/>
  </node>
  <node id="356304861" version="2" timestamp="2009-04-16T22:46:32Z" uid="6975" user="ulfl" changeset="598814" lat="48.25969" lon="16.3987182">
    <tag k="name" v="Foto Jeschofnig"/>
    <tag k="shop" v="photography"/>
  </node>
  <node id="356304861" version="3" timestamp="2009-09-21T21:11:44Z" uid="15891" user="farlokko" changeset="2562918" lat="48.25969" lon="16.3987182">
    <tag k="name" v="Foto Jeschofnig"/>
    <tag k="shop" v="photo"/>
  </node>
  <node id="356304861" version="4" timestamp="2011-08-15T00:11:49Z" uid="56501" user="Rudolf_H" changeset="9022288" lat="48.2596958" lon="16.3987047">
    <tag k="name" v="Foto Jeschofnig"/>
    <tag k="shop" v="photo"/>
  </node>
  <node id="356304861" version="5" timestamp="2012-03-07T18:31:05Z" uid="290680" user="wheelmap_visitor" changeset="10896770" lat="48.2596958" lon="16.3987047">
    <tag k="name" v="Foto Jeschofnig"/>
    <tag k="shop" v="photo"/>
    <tag k="wheelchair" v="no"/>
  </node>
  <node id="356304942" version="1" timestamp="2009-03-06T17:18:14Z" uid="97309" user="Kurt_Woloch" changeset="746688" lat="48.2598786" lon="16.3988298">
    <tag k="amenity" v="hairdresser"/>
    <tag k="created_by" v="Potlatch 0.10f"/>
    <tag k="name" v="STAR Frisuren"/>
  </node>
  <node id="356304942" version="2" timestamp="2009-03-08T13:53:02Z" uid="6975" user="ulfl" changeset="757880" lat="48.2598786" lon="16.3988298">
    <tag k="name" v="STAR Frisuren"/>
    <tag k="shop" v="hairdresser"/>
  </node>
  <node id="356304942" version="3" timestamp="2011-08-15T00:11:52Z" uid="56501" user="Rudolf_H" changeset="9022288" lat="48.2598844" lon="16.3988144">
    <tag k="name" v="STAR Frisuren"/>
    <tag k="shop" v="hairdresser"/>
  </node>
  <node id="356308542" version="1" timestamp="2009-03-06T17:27:14Z" uid="99177" user="emd" changeset="746744" lat="49.9902704" lon="8.6465607">
    <tag k="Operator" v="Deutsche Telekom AG"/>
    <tag k="amenity" v="telephone"/>
    <tag k="created_by" v="Potlatch 0.10f"/>
  </node>
  <node id="356308542" version="2" timestamp="2009-03-06T17:27:18Z" uid="99177" user="emd" changeset="746744" lat="49.9902648" lon="8.6465263">
    <tag k="Operator" v="Deutsche Telekom AG"/>
    <tag k="amenity" v="telephone"/>
    <tag k="created_by" v="Potlatch 0.10f"/>
  </node>
  <node id="356308542" version="3" timestamp="2009-03-06T17:28:07Z" uid="99177" user="emd" changeset="746744" lat="49.9903586" lon="8.6469984">
    <tag k="Operator" v="Deutsche Telekom AG"/>
    <tag k="amenity" v="telephone"/>
    <tag k="created_by" v="Potlatch 0.10f"/>
  </node>
  <node id="356308542" version="4" timestamp="2009-03-08T12:57:04Z" uid="6975" user="ulfl" changeset="757880" lat="49.9903586" lon="8.6469984">
    <tag k="amenity" v="telephone"/>
    <tag k="operator" v="Deutsche Telekom AG"/>
  </node>
  <node id="356308542" version="5" timestamp="2009-04-02T10:03:15Z" uid="99177" user="emd" changeset="89408" lat="49.9903368" lon="8.6468772">
    <tag k="amenity" v="telephone"/>
    <tag k="created_by" v="Potlatch 0.10f"/>
    <tag k="operator" v="Deutsche Telekom AG"/>
  </node>
  <node id="356308542" version="6" timestamp="2009-04-02T10:17:45Z" uid="99177" user="emd" changeset="89408" lat="49.9903258" lon="8.6469287">
    <tag k="amenity" v="telephone"/>
    <tag k="created_by" v="Potlatch 0.10f"/>
    <tag k="operator" v="Deutsche Telekom AG"/>
  </node>
  <node id="356308542" version="7" timestamp="2009-04-02T10:18:03Z" uid="99177" user="emd" changeset="89408" lat="49.9903203" lon="8.6469115">
    <tag k="amenity" v="telephone"/>
    <tag k="created_by" v="Potlatch 0.10f"/>
    <tag k="operator" v="Deutsche Telekom AG"/>
  </node>
  <node id="356308836" version="1" timestamp="2009-03-06T17:30:27Z" uid="97309" user="Kurt_Woloch" changeset="746688" lat="48.2601014" lon="16.3994564">
    <tag k="created_by" v="Potlatch 0.10f"/>
    <tag k="name" v="J&amp;J"/>
    <tag k="shop" v="clothing"/>
  </node>
  <node id="356308836" version="2" timestamp="2009-03-06T17:41:07Z" uid="97309" user="Kurt_Woloch" changeset="746688" lat="48.2601243" lon="16.3994735">
    <tag k="created_by" v="Potlatch 0.10f"/>
    <tag k="name" v="J&amp;J"/>
    <tag k="shop" v="clothing"/>
  </node>
  <node id="356308836" version="3" timestamp="2009-03-08T14:16:12Z" uid="6975" user="ulfl" changeset="757880" lat="48.2601243" lon="16.3994735">
    <tag k="name" v="J&amp;J"/>
    <tag k="shop" v="clothes"/>
  </node>
</osm>
